{
  "0000": [
    {
      "zip_code": "0040000",
      "prefecture": "北海道",
      "prefecture_kana": "ホッカイドウ",
      "prefecture_code": 1,
      "city": "札幌市厚別区",
      "city_kana": "サッポロシアツベツク",
      "town": "",
      "town_kana": "",
      "street": null,
      "office_name": null,
      "office_name_kana": null
    },
    {
      "zip_code": "0040000",
      "prefecture": "北海道",
      "prefecture_kana": "ホッカイドウ",
      "prefecture_code": 1,
      "city": "札幌市清田区",
      "city_kana": "サッポロシキヨタク",
      "town": "",
      "town_kana": "",
      "street": null,
      "office_name": null,
      "office_name_kana": null
    }
  ],
  "0001": {
    "zip_code": "0040001",
    "prefecture": "北海道",
    "prefecture_kana": "ホッカイドウ",
    "prefecture_code": 1,
    "city": "札幌市厚別区",
    "city_kana": "サッポロシアツベツク",
    "town": "厚別東一条",
    "town_kana": "アツベツヒガシ1ジョウ",
    "street": null,
    "office_name": null,
    "office_name_kana": null
  },
  "0002": {
    "zip_code": "0040002",
    "prefecture": "北海道",
    "prefecture_kana": "ホッカイドウ",
    "prefecture_code": 1,
    "city": "札幌市厚別区",
    "city_kana": "サッポロシアツベツク",
    "town": "厚別東二条",
    "town_kana": "アツベツヒガシ2ジョウ",
    "street": null,
    "office_name": null,
    "office_name_kana": null
  },
  "0003": {
    "zip_code": "0040003",
    "prefecture": "北海道",
    "prefecture_kana": "ホッカイドウ",
    "prefecture_code": 1,
    "city": "札幌市厚別区",
    "city_kana": "サッポロシアツベツク",
    "town": "厚別東三条",
    "town_kana": "アツベツヒガシ3ジョウ",
    "street": null,
    "office_name": null,
    "office_name_kana": null
  },
  "0004": {
    "zip_code": "0040004",
    "prefecture": "北海道",
    "prefecture_kana": "ホッカイドウ",
    "prefecture_code": 1,
    "city": "札幌市厚別区",
    "city_kana": "サッポロシアツベツク",
    "town": "厚別東四条",
    "town_kana": "アツベツヒガシ4ジョウ",
    "street": null,
    "office_name": null,
    "office_name_kana": null
  },
  "0005": {
    "zip_code": "0040005",
    "prefecture": "北海道",
    "prefecture_kana": "ホッカイドウ",
    "prefecture_code": 1,
    "city": "札幌市厚別区",
    "city_kana": "サッポロシアツベツク",
    "town": "厚別東五条",
    "town_kana": "アツベツヒガシ5ジョウ",
    "street": null,
    "office_name": null,
    "office_name_kana": null
  },
  "0006": {
    "zip_code": "0040006",
    "prefecture": "北海道",
    "prefecture_kana": "ホッカイドウ",
    "prefecture_code": 1,
    "city": "札幌市厚別区",
    "city_kana": "サッポロシアツベツク",
    "town": "厚別町小野幌",
    "town_kana": "アツベツチョウコノッポロ",
    "street": null,
    "office_name": null,
    "office_name_kana": null
  },
  "0007": {
    "zip_code": "0040007",
    "prefecture": "北海道",
    "prefecture_kana": "ホッカイドウ",
    "prefecture_code": 1,
    "city": "札幌市厚別区",
    "city_kana": "サッポロシアツベツク",
    "town": "厚別町下野幌",
    "town_kana": "アツベツチョウシモノッポロ",
    "street": null,
    "office_name": null,
    "office_name_kana": null
  },
  "0011": {
    "zip_code": "0040011",
    "prefecture": "北海道",
    "prefecture_kana": "ホッカイドウ",
    "prefecture_code": 1,
    "city": "札幌市厚別区",
    "city_kana": "サッポロシアツベツク",
    "town": "もみじ台東",
    "town_kana": "モミジダイヒガシ",
    "street": null,
    "office_name": null,
    "office_name_kana": null
  },
  "0012": {
    "zip_code": "0040012",
    "prefecture": "北海道",
    "prefecture_kana": "ホッカイドウ",
    "prefecture_code": 1,
    "city": "札幌市厚別区",
    "city_kana": "サッポロシアツベツク",
    "town": "もみじ台南",
    "town_kana": "モミジダイミナミ",
    "street": null,
    "office_name": null,
    "office_name_kana": null
  },
  "0013": {
    "zip_code": "0040013",
    "prefecture": "北海道",
    "prefecture_kana": "ホッカイドウ",
    "prefecture_code": 1,
    "city": "札幌市厚別区",
    "city_kana": "サッポロシアツベツク",
    "town": "もみじ台西",
    "town_kana": "モミジダイニシ",
    "street": null,
    "office_name": null,
    "office_name_kana": null
  },
  "0014": {
    "zip_code": "0040014",
    "prefecture": "北海道",
    "prefecture_kana": "ホッカイドウ",
    "prefecture_code": 1,
    "city": "札幌市厚別区",
    "city_kana": "サッポロシアツベツク",
    "town": "もみじ台北",
    "town_kana": "モミジダイキタ",
    "street": null,
    "office_name": null,
    "office_name_kana": null
  },
  "0015": {
    "zip_code": "0040015",
    "prefecture": "北海道",
    "prefecture_kana": "ホッカイドウ",
    "prefecture_code": 1,
    "city": "札幌市厚別区",
    "city_kana": "サッポロシアツベツク",
    "town": "下野幌テクノパーク",
    "town_kana": "シモノッポロテクノパーク",
    "street": null,
    "office_name": null,
    "office_name_kana": null
  },
  "0021": {
    "zip_code": "0040021",
    "prefecture": "北海道",
    "prefecture_kana": "ホッカイドウ",
    "prefecture_code": 1,
    "city": "札幌市厚別区",
    "city_kana": "サッポロシアツベツク",
    "town": "青葉町",
    "town_kana": "アオバチョウ",
    "street": null,
    "office_name": null,
    "office_name_kana": null
  },
  "0022": {
    "zip_code": "0040022",
    "prefecture": "北海道",
    "prefecture_kana": "ホッカイドウ",
    "prefecture_code": 1,
    "city": "札幌市厚別区",
    "city_kana": "サッポロシアツベツク",
    "town": "厚別南",
    "town_kana": "アツベツミナミ",
    "street": null,
    "office_name": null,
    "office_name_kana": null
  },
  "0031": {
    "zip_code": "0040031",
    "prefecture": "北海道",
    "prefecture_kana": "ホッカイドウ",
    "prefecture_code": 1,
    "city": "札幌市厚別区",
    "city_kana": "サッポロシアツベツク",
    "town": "上野幌一条",
    "town_kana": "カミノッポロ1ジョウ",
    "street": null,
    "office_name": null,
    "office_name_kana": null
  },
  "0032": {
    "zip_code": "0040032",
    "prefecture": "北海道",
    "prefecture_kana": "ホッカイドウ",
    "prefecture_code": 1,
    "city": "札幌市厚別区",
    "city_kana": "サッポロシアツベツク",
    "town": "上野幌二条",
    "town_kana": "カミノッポロ2ジョウ",
    "street": null,
    "office_name": null,
    "office_name_kana": null
  },
  "0033": {
    "zip_code": "0040033",
    "prefecture": "北海道",
    "prefecture_kana": "ホッカイドウ",
    "prefecture_code": 1,
    "city": "札幌市厚別区",
    "city_kana": "サッポロシアツベツク",
    "town": "上野幌三条",
    "town_kana": "カミノッポロ3ジョウ",
    "street": null,
    "office_name": null,
    "office_name_kana": null
  },
  "0039": {
    "zip_code": "0040039",
    "prefecture": "北海道",
    "prefecture_kana": "ホッカイドウ",
    "prefecture_code": 1,
    "city": "札幌市厚別区",
    "city_kana": "サッポロシアツベツク",
    "town": "厚別町上野幌",
    "town_kana": "アツベツチョウカミノッポロ",
    "street": null,
    "office_name": null,
    "office_name_kana": null
  },
  "0041": {
    "zip_code": "0040041",
    "prefecture": "北海道",
    "prefecture_kana": "ホッカイドウ",
    "prefecture_code": 1,
    "city": "札幌市厚別区",
    "city_kana": "サッポロシアツベツク",
    "town": "大谷地東",
    "town_kana": "オオヤチヒガシ",
    "street": null,
    "office_name": null,
    "office_name_kana": null
  },
  "0042": {
    "zip_code": "0040042",
    "prefecture": "北海道",
    "prefecture_kana": "ホッカイドウ",
    "prefecture_code": 1,
    "city": "札幌市厚別区",
    "city_kana": "サッポロシアツベツク",
    "town": "大谷地西",
    "town_kana": "オオヤチニシ",
    "street": null,
    "office_name": null,
    "office_name_kana": null
  },
  "0051": {
    "zip_code": "0040051",
    "prefecture": "北海道",
    "prefecture_kana": "ホッカイドウ",
    "prefecture_code": 1,
    "city": "札幌市厚別区",
    "city_kana": "サッポロシアツベツク",
    "town": "厚別中央一条",
    "town_kana": "アツベツチュウオウ1ジョウ",
    "street": null,
    "office_name": null,
    "office_name_kana": null
  },
  "0052": {
    "zip_code": "0040052",
    "prefecture": "北海道",
    "prefecture_kana": "ホッカイドウ",
    "prefecture_code": 1,
    "city": "札幌市厚別区",
    "city_kana": "サッポロシアツベツク",
    "town": "厚別中央二条",
    "town_kana": "アツベツチュウオウ2ジョウ",
    "street": null,
    "office_name": null,
    "office_name_kana": null
  },
  "0053": {
    "zip_code": "0040053",
    "prefecture": "北海道",
    "prefecture_kana": "ホッカイドウ",
    "prefecture_code": 1,
    "city": "札幌市厚別区",
    "city_kana": "サッポロシアツベツク",
    "town": "厚別中央三条",
    "town_kana": "アツベツチュウオウ3ジョウ",
    "street": null,
    "office_name": null,
    "office_name_kana": null
  },
  "0054": {
    "zip_code": "0040054",
    "prefecture": "北海道",
    "prefecture_kana": "ホッカイドウ",
    "prefecture_code": 1,
    "city": "札幌市厚別区",
    "city_kana": "サッポロシアツベツク",
    "town": "厚別中央四条",
    "town_kana": "アツベツチュウオウ4ジョウ",
    "street": null,
    "office_name": null,
    "office_name_kana": null
  },
  "0055": {
    "zip_code": "0040055",
    "prefecture": "北海道",
    "prefecture_kana": "ホッカイドウ",
    "prefecture_code": 1,
    "city": "札幌市厚別区",
    "city_kana": "サッポロシアツベツク",
    "town": "厚別中央五条",
    "town_kana": "アツベツチュウオウ5ジョウ",
    "street": null,
    "office_name": null,
    "office_name_kana": null
  },
  "0061": {
    "zip_code": "0040061",
    "prefecture": "北海道",
    "prefecture_kana": "ホッカイドウ",
    "prefecture_code": 1,
    "city": "札幌市厚別区",
    "city_kana": "サッポロシアツベツク",
    "town": "厚別西一条",
    "town_kana": "アツベツニシ1ジョウ",
    "street": null,
    "office_name": null,
    "office_name_kana": null
  },
  "0062": {
    "zip_code": "0040062",
    "prefecture": "北海道",
    "prefecture_kana": "ホッカイドウ",
    "prefecture_code": 1,
    "city": "札幌市厚別区",
    "city_kana": "サッポロシアツベツク",
    "town": "厚別西二条",
    "town_kana": "アツベツニシ2ジョウ",
    "street": null,
    "office_name": null,
    "office_name_kana": null
  },
  "0063": {
    "zip_code": "0040063",
    "prefecture": "北海道",
    "prefecture_kana": "ホッカイドウ",
    "prefecture_code": 1,
    "city": "札幌市厚別区",
    "city_kana": "サッポロシアツベツク",
    "town": "厚別西三条",
    "town_kana": "アツベツニシ3ジョウ",
    "street": null,
    "office_name": null,
    "office_name_kana": null
  },
  "0064": {
    "zip_code": "0040064",
    "prefecture": "北海道",
    "prefecture_kana": "ホッカイドウ",
    "prefecture_code": 1,
    "city": "札幌市厚別区",
    "city_kana": "サッポロシアツベツク",
    "town": "厚別西四条",
    "town_kana": "アツベツニシ4ジョウ",
    "street": null,
    "office_name": null,
    "office_name_kana": null
  },
  "0065": {
    "zip_code": "0040065",
    "prefecture": "北海道",
    "prefecture_kana": "ホッカイドウ",
    "prefecture_code": 1,
    "city": "札幌市厚別区",
    "city_kana": "サッポロシアツベツク",
    "town": "厚別西五条",
    "town_kana": "アツベツニシ5ジョウ",
    "street": null,
    "office_name": null,
    "office_name_kana": null
  },
  "0068": {
    "zip_code": "0040068",
    "prefecture": "北海道",
    "prefecture_kana": "ホッカイドウ",
    "prefecture_code": 1,
    "city": "札幌市厚別区",
    "city_kana": "サッポロシアツベツク",
    "town": "厚別西",
    "town_kana": "アツベツニシ",
    "street": null,
    "office_name": null,
    "office_name_kana": null
  },
  "0069": {
    "zip_code": "0040069",
    "prefecture": "北海道",
    "prefecture_kana": "ホッカイドウ",
    "prefecture_code": 1,
    "city": "札幌市厚別区",
    "city_kana": "サッポロシアツベツク",
    "town": "厚別町山本",
    "town_kana": "アツベツチョウヤマモト",
    "street": null,
    "office_name": null,
    "office_name_kana": null
  },
  "0071": {
    "zip_code": "0040071",
    "prefecture": "北海道",
    "prefecture_kana": "ホッカイドウ",
    "prefecture_code": 1,
    "city": "札幌市厚別区",
    "city_kana": "サッポロシアツベツク",
    "town": "厚別北一条",
    "town_kana": "アツベツキタ1ジョウ",
    "street": null,
    "office_name": null,
    "office_name_kana": null
  },
  "0072": {
    "zip_code": "0040072",
    "prefecture": "北海道",
    "prefecture_kana": "ホッカイドウ",
    "prefecture_code": 1,
    "city": "札幌市厚別区",
    "city_kana": "サッポロシアツベツク",
    "town": "厚別北二条",
    "town_kana": "アツベツキタ2ジョウ",
    "street": null,
    "office_name": null,
    "office_name_kana": null
  },
  "0073": {
    "zip_code": "0040073",
    "prefecture": "北海道",
    "prefecture_kana": "ホッカイドウ",
    "prefecture_code": 1,
    "city": "札幌市厚別区",
    "city_kana": "サッポロシアツベツク",
    "town": "厚別北三条",
    "town_kana": "アツベツキタ3ジョウ",
    "street": null,
    "office_name": null,
    "office_name_kana": null
  },
  "0074": {
    "zip_code": "0040074",
    "prefecture": "北海道",
    "prefecture_kana": "ホッカイドウ",
    "prefecture_code": 1,
    "city": "札幌市厚別区",
    "city_kana": "サッポロシアツベツク",
    "town": "厚別北四条",
    "town_kana": "アツベツキタ4ジョウ",
    "street": null,
    "office_name": null,
    "office_name_kana": null
  },
  "0075": {
    "zip_code": "0040075",
    "prefecture": "北海道",
    "prefecture_kana": "ホッカイドウ",
    "prefecture_code": 1,
    "city": "札幌市厚別区",
    "city_kana": "サッポロシアツベツク",
    "town": "厚別北五条",
    "town_kana": "アツベツキタ5ジョウ",
    "street": null,
    "office_name": null,
    "office_name_kana": null
  },
  "0076": {
    "zip_code": "0040076",
    "prefecture": "北海道",
    "prefecture_kana": "ホッカイドウ",
    "prefecture_code": 1,
    "city": "札幌市厚別区",
    "city_kana": "サッポロシアツベツク",
    "town": "厚別北六条",
    "town_kana": "アツベツキタ6ジョウ",
    "street": null,
    "office_name": null,
    "office_name_kana": null
  },
  "0801": {
    "zip_code": "0040801",
    "prefecture": "北海道",
    "prefecture_kana": "ホッカイドウ",
    "prefecture_code": 1,
    "city": "札幌市清田区",
    "city_kana": "サッポロシキヨタク",
    "town": "里塚一条",
    "town_kana": "サトヅカ1ジョウ",
    "street": null,
    "office_name": null,
    "office_name_kana": null
  },
  "0802": {
    "zip_code": "0040802",
    "prefecture": "北海道",
    "prefecture_kana": "ホッカイドウ",
    "prefecture_code": 1,
    "city": "札幌市清田区",
    "city_kana": "サッポロシキヨタク",
    "town": "里塚二条",
    "town_kana": "サトヅカ2ジョウ",
    "street": null,
    "office_name": null,
    "office_name_kana": null
  },
  "0803": {
    "zip_code": "0040803",
    "prefecture": "北海道",
    "prefecture_kana": "ホッカイドウ",
    "prefecture_code": 1,
    "city": "札幌市清田区",
    "city_kana": "サッポロシキヨタク",
    "town": "里塚三条",
    "town_kana": "サトヅカ3ジョウ",
    "street": null,
    "office_name": null,
    "office_name_kana": null
  },
  "0804": {
    "zip_code": "0040804",
    "prefecture": "北海道",
    "prefecture_kana": "ホッカイドウ",
    "prefecture_code": 1,
    "city": "札幌市清田区",
    "city_kana": "サッポロシキヨタク",
    "town": "里塚四条",
    "town_kana": "サトヅカ4ジョウ",
    "street": null,
    "office_name": null,
    "office_name_kana": null
  },
  "0805": {
    "zip_code": "0040805",
    "prefecture": "北海道",
    "prefecture_kana": "ホッカイドウ",
    "prefecture_code": 1,
    "city": "札幌市清田区",
    "city_kana": "サッポロシキヨタク",
    "town": "里塚緑ケ丘",
    "town_kana": "サトヅカミドリガオカ",
    "street": null,
    "office_name": null,
    "office_name_kana": null
  },
  "0809": {
    "zip_code": "0040809",
    "prefecture": "北海道",
    "prefecture_kana": "ホッカイドウ",
    "prefecture_code": 1,
    "city": "札幌市清田区",
    "city_kana": "サッポロシキヨタク",
    "town": "里塚",
    "town_kana": "サトヅカ",
    "street": null,
    "office_name": null,
    "office_name_kana": null
  },
  "0811": {
    "zip_code": "0040811",
    "prefecture": "北海道",
    "prefecture_kana": "ホッカイドウ",
    "prefecture_code": 1,
    "city": "札幌市清田区",
    "city_kana": "サッポロシキヨタク",
    "town": "美しが丘一条",
    "town_kana": "ウツクシガオカ1ジョウ",
    "street": null,
    "office_name": null,
    "office_name_kana": null
  },
  "0812": {
    "zip_code": "0040812",
    "prefecture": "北海道",
    "prefecture_kana": "ホッカイドウ",
    "prefecture_code": 1,
    "city": "札幌市清田区",
    "city_kana": "サッポロシキヨタク",
    "town": "美しが丘二条",
    "town_kana": "ウツクシガオカ2ジョウ",
    "street": null,
    "office_name": null,
    "office_name_kana": null
  },
  "0813": {
    "zip_code": "0040813",
    "prefecture": "北海道",
    "prefecture_kana": "ホッカイドウ",
    "prefecture_code": 1,
    "city": "札幌市清田区",
    "city_kana": "サッポロシキヨタク",
    "town": "美しが丘三条",
    "town_kana": "ウツクシガオカ3ジョウ",
    "street": null,
    "office_name": null,
    "office_name_kana": null
  },
  "0814": {
    "zip_code": "0040814",
    "prefecture": "北海道",
    "prefecture_kana": "ホッカイドウ",
    "prefecture_code": 1,
    "city": "札幌市清田区",
    "city_kana": "サッポロシキヨタク",
    "town": "美しが丘四条",
    "town_kana": "ウツクシガオカ4ジョウ",
    "street": null,
    "office_name": null,
    "office_name_kana": null
  },
  "0815": {
    "zip_code": "0040815",
    "prefecture": "北海道",
    "prefecture_kana": "ホッカイドウ",
    "prefecture_code": 1,
    "city": "札幌市清田区",
    "city_kana": "サッポロシキヨタク",
    "town": "美しが丘五条",
    "town_kana": "ウツクシガオカ5ジョウ",
    "street": null,
    "office_name": null,
    "office_name_kana": null
  },
  "0821": {
    "zip_code": "0040821",
    "prefecture": "北海道",
    "prefecture_kana": "ホッカイドウ",
    "prefecture_code": 1,
    "city": "札幌市清田区",
    "city_kana": "サッポロシキヨタク",
    "town": "有明",
    "town_kana": "アリアケ",
    "street": null,
    "office_name": null,
    "office_name_kana": null
  },
  "0831": {
    "zip_code": "0040831",
    "prefecture": "北海道",
    "prefecture_kana": "ホッカイドウ",
    "prefecture_code": 1,
    "city": "札幌市清田区",
    "city_kana": "サッポロシキヨタク",
    "town": "真栄一条",
    "town_kana": "シンエイ1ジョウ",
    "street": null,
    "office_name": null,
    "office_name_kana": null
  },
  "0832": {
    "zip_code": "0040832",
    "prefecture": "北海道",
    "prefecture_kana": "ホッカイドウ",
    "prefecture_code": 1,
    "city": "札幌市清田区",
    "city_kana": "サッポロシキヨタク",
    "town": "真栄二条",
    "town_kana": "シンエイ2ジョウ",
    "street": null,
    "office_name": null,
    "office_name_kana": null
  },
  "0833": {
    "zip_code": "0040833",
    "prefecture": "北海道",
    "prefecture_kana": "ホッカイドウ",
    "prefecture_code": 1,
    "city": "札幌市清田区",
    "city_kana": "サッポロシキヨタク",
    "town": "真栄三条",
    "town_kana": "シンエイ3ジョウ",
    "street": null,
    "office_name": null,
    "office_name_kana": null
  },
  "0834": {
    "zip_code": "0040834",
    "prefecture": "北海道",
    "prefecture_kana": "ホッカイドウ",
    "prefecture_code": 1,
    "city": "札幌市清田区",
    "city_kana": "サッポロシキヨタク",
    "town": "真栄四条",
    "town_kana": "シンエイ4ジョウ",
    "street": null,
    "office_name": null,
    "office_name_kana": null
  },
  "0835": {
    "zip_code": "0040835",
    "prefecture": "北海道",
    "prefecture_kana": "ホッカイドウ",
    "prefecture_code": 1,
    "city": "札幌市清田区",
    "city_kana": "サッポロシキヨタク",
    "town": "真栄五条",
    "town_kana": "シンエイ5ジョウ",
    "street": null,
    "office_name": null,
    "office_name_kana": null
  },
  "0836": {
    "zip_code": "0040836",
    "prefecture": "北海道",
    "prefecture_kana": "ホッカイドウ",
    "prefecture_code": 1,
    "city": "札幌市清田区",
    "city_kana": "サッポロシキヨタク",
    "town": "真栄六条",
    "town_kana": "シンエイ6ジョウ",
    "street": null,
    "office_name": null,
    "office_name_kana": null
  },
  "0839": {
    "zip_code": "0040839",
    "prefecture": "北海道",
    "prefecture_kana": "ホッカイドウ",
    "prefecture_code": 1,
    "city": "札幌市清田区",
    "city_kana": "サッポロシキヨタク",
    "town": "真栄",
    "town_kana": "シンエイ",
    "street": null,
    "office_name": null,
    "office_name_kana": null
  },
  "0840": {
    "zip_code": "0040840",
    "prefecture": "北海道",
    "prefecture_kana": "ホッカイドウ",
    "prefecture_code": 1,
    "city": "札幌市清田区",
    "city_kana": "サッポロシキヨタク",
    "town": "清田十条",
    "town_kana": "キヨタ10ジョウ",
    "street": null,
    "office_name": null,
    "office_name_kana": null
  },
  "0841": {
    "zip_code": "0040841",
    "prefecture": "北海道",
    "prefecture_kana": "ホッカイドウ",
    "prefecture_code": 1,
    "city": "札幌市清田区",
    "city_kana": "サッポロシキヨタク",
    "town": "清田一条",
    "town_kana": "キヨタ1ジョウ",
    "street": null,
    "office_name": null,
    "office_name_kana": null
  },
  "0842": {
    "zip_code": "0040842",
    "prefecture": "北海道",
    "prefecture_kana": "ホッカイドウ",
    "prefecture_code": 1,
    "city": "札幌市清田区",
    "city_kana": "サッポロシキヨタク",
    "town": "清田二条",
    "town_kana": "キヨタ2ジョウ",
    "street": null,
    "office_name": null,
    "office_name_kana": null
  },
  "0843": {
    "zip_code": "0040843",
    "prefecture": "北海道",
    "prefecture_kana": "ホッカイドウ",
    "prefecture_code": 1,
    "city": "札幌市清田区",
    "city_kana": "サッポロシキヨタク",
    "town": "清田三条",
    "town_kana": "キヨタ3ジョウ",
    "street": null,
    "office_name": null,
    "office_name_kana": null
  },
  "0844": {
    "zip_code": "0040844",
    "prefecture": "北海道",
    "prefecture_kana": "ホッカイドウ",
    "prefecture_code": 1,
    "city": "札幌市清田区",
    "city_kana": "サッポロシキヨタク",
    "town": "清田四条",
    "town_kana": "キヨタ4ジョウ",
    "street": null,
    "office_name": null,
    "office_name_kana": null
  },
  "0845": {
    "zip_code": "0040845",
    "prefecture": "北海道",
    "prefecture_kana": "ホッカイドウ",
    "prefecture_code": 1,
    "city": "札幌市清田区",
    "city_kana": "サッポロシキヨタク",
    "town": "清田五条",
    "town_kana": "キヨタ5ジョウ",
    "street": null,
    "office_name": null,
    "office_name_kana": null
  },
  "0846": {
    "zip_code": "0040846",
    "prefecture": "北海道",
    "prefecture_kana": "ホッカイドウ",
    "prefecture_code": 1,
    "city": "札幌市清田区",
    "city_kana": "サッポロシキヨタク",
    "town": "清田六条",
    "town_kana": "キヨタ6ジョウ",
    "street": null,
    "office_name": null,
    "office_name_kana": null
  },
  "0847": {
    "zip_code": "0040847",
    "prefecture": "北海道",
    "prefecture_kana": "ホッカイドウ",
    "prefecture_code": 1,
    "city": "札幌市清田区",
    "city_kana": "サッポロシキヨタク",
    "town": "清田七条",
    "town_kana": "キヨタ7ジョウ",
    "street": null,
    "office_name": null,
    "office_name_kana": null
  },
  "0848": {
    "zip_code": "0040848",
    "prefecture": "北海道",
    "prefecture_kana": "ホッカイドウ",
    "prefecture_code": 1,
    "city": "札幌市清田区",
    "city_kana": "サッポロシキヨタク",
    "town": "清田八条",
    "town_kana": "キヨタ8ジョウ",
    "street": null,
    "office_name": null,
    "office_name_kana": null
  },
  "0849": {
    "zip_code": "0040849",
    "prefecture": "北海道",
    "prefecture_kana": "ホッカイドウ",
    "prefecture_code": 1,
    "city": "札幌市清田区",
    "city_kana": "サッポロシキヨタク",
    "town": "清田九条",
    "town_kana": "キヨタ9ジョウ",
    "street": null,
    "office_name": null,
    "office_name_kana": null
  },
  "0859": {
    "zip_code": "0040859",
    "prefecture": "北海道",
    "prefecture_kana": "ホッカイドウ",
    "prefecture_code": 1,
    "city": "札幌市清田区",
    "city_kana": "サッポロシキヨタク",
    "town": "清田",
    "town_kana": "キヨタ",
    "street": null,
    "office_name": null,
    "office_name_kana": null
  },
  "0861": {
    "zip_code": "0040861",
    "prefecture": "北海道",
    "prefecture_kana": "ホッカイドウ",
    "prefecture_code": 1,
    "city": "札幌市清田区",
    "city_kana": "サッポロシキヨタク",
    "town": "北野一条",
    "town_kana": "キタノ1ジョウ",
    "street": null,
    "office_name": null,
    "office_name_kana": null
  },
  "0862": {
    "zip_code": "0040862",
    "prefecture": "北海道",
    "prefecture_kana": "ホッカイドウ",
    "prefecture_code": 1,
    "city": "札幌市清田区",
    "city_kana": "サッポロシキヨタク",
    "town": "北野二条",
    "town_kana": "キタノ2ジョウ",
    "street": null,
    "office_name": null,
    "office_name_kana": null
  },
  "0863": {
    "zip_code": "0040863",
    "prefecture": "北海道",
    "prefecture_kana": "ホッカイドウ",
    "prefecture_code": 1,
    "city": "札幌市清田区",
    "city_kana": "サッポロシキヨタク",
    "town": "北野三条",
    "town_kana": "キタノ3ジョウ",
    "street": null,
    "office_name": null,
    "office_name_kana": null
  },
  "0864": {
    "zip_code": "0040864",
    "prefecture": "北海道",
    "prefecture_kana": "ホッカイドウ",
    "prefecture_code": 1,
    "city": "札幌市清田区",
    "city_kana": "サッポロシキヨタク",
    "town": "北野四条",
    "town_kana": "キタノ4ジョウ",
    "street": null,
    "office_name": null,
    "office_name_kana": null
  },
  "0865": {
    "zip_code": "0040865",
    "prefecture": "北海道",
    "prefecture_kana": "ホッカイドウ",
    "prefecture_code": 1,
    "city": "札幌市清田区",
    "city_kana": "サッポロシキヨタク",
    "town": "北野五条",
    "town_kana": "キタノ5ジョウ",
    "street": null,
    "office_name": null,
    "office_name_kana": null
  },
  "0866": {
    "zip_code": "0040866",
    "prefecture": "北海道",
    "prefecture_kana": "ホッカイドウ",
    "prefecture_code": 1,
    "city": "札幌市清田区",
    "city_kana": "サッポロシキヨタク",
    "town": "北野六条",
    "town_kana": "キタノ6ジョウ",
    "street": null,
    "office_name": null,
    "office_name_kana": null
  },
  "0867": {
    "zip_code": "0040867",
    "prefecture": "北海道",
    "prefecture_kana": "ホッカイドウ",
    "prefecture_code": 1,
    "city": "札幌市清田区",
    "city_kana": "サッポロシキヨタク",
    "town": "北野七条",
    "town_kana": "キタノ7ジョウ",
    "street": null,
    "office_name": null,
    "office_name_kana": null
  },
  "0871": {
    "zip_code": "0040871",
    "prefecture": "北海道",
    "prefecture_kana": "ホッカイドウ",
    "prefecture_code": 1,
    "city": "札幌市清田区",
    "city_kana": "サッポロシキヨタク",
    "town": "平岡一条",
    "town_kana": "ヒラオカ1ジョウ",
    "street": null,
    "office_name": null,
    "office_name_kana": null
  },
  "0872": {
    "zip_code": "0040872",
    "prefecture": "北海道",
    "prefecture_kana": "ホッカイドウ",
    "prefecture_code": 1,
    "city": "札幌市清田区",
    "city_kana": "サッポロシキヨタク",
    "town": "平岡二条",
    "town_kana": "ヒラオカ2ジョウ",
    "street": null,
    "office_name": null,
    "office_name_kana": null
  },
  "0873": {
    "zip_code": "0040873",
    "prefecture": "北海道",
    "prefecture_kana": "ホッカイドウ",
    "prefecture_code": 1,
    "city": "札幌市清田区",
    "city_kana": "サッポロシキヨタク",
    "town": "平岡三条",
    "town_kana": "ヒラオカ3ジョウ",
    "street": null,
    "office_name": null,
    "office_name_kana": null
  },
  "0874": {
    "zip_code": "0040874",
    "prefecture": "北海道",
    "prefecture_kana": "ホッカイドウ",
    "prefecture_code": 1,
    "city": "札幌市清田区",
    "city_kana": "サッポロシキヨタク",
    "town": "平岡四条",
    "town_kana": "ヒラオカ4ジョウ",
    "street": null,
    "office_name": null,
    "office_name_kana": null
  },
  "0875": {
    "zip_code": "0040875",
    "prefecture": "北海道",
    "prefecture_kana": "ホッカイドウ",
    "prefecture_code": 1,
    "city": "札幌市清田区",
    "city_kana": "サッポロシキヨタク",
    "town": "平岡五条",
    "town_kana": "ヒラオカ5ジョウ",
    "street": null,
    "office_name": null,
    "office_name_kana": null
  },
  "0876": {
    "zip_code": "0040876",
    "prefecture": "北海道",
    "prefecture_kana": "ホッカイドウ",
    "prefecture_code": 1,
    "city": "札幌市清田区",
    "city_kana": "サッポロシキヨタク",
    "town": "平岡六条",
    "town_kana": "ヒラオカ6ジョウ",
    "street": null,
    "office_name": null,
    "office_name_kana": null
  },
  "0877": {
    "zip_code": "0040877",
    "prefecture": "北海道",
    "prefecture_kana": "ホッカイドウ",
    "prefecture_code": 1,
    "city": "札幌市清田区",
    "city_kana": "サッポロシキヨタク",
    "town": "平岡七条",
    "town_kana": "ヒラオカ7ジョウ",
    "street": null,
    "office_name": null,
    "office_name_kana": null
  },
  "0878": {
    "zip_code": "0040878",
    "prefecture": "北海道",
    "prefecture_kana": "ホッカイドウ",
    "prefecture_code": 1,
    "city": "札幌市清田区",
    "city_kana": "サッポロシキヨタク",
    "town": "平岡八条",
    "town_kana": "ヒラオカ8ジョウ",
    "street": null,
    "office_name": null,
    "office_name_kana": null
  },
  "0879": {
    "zip_code": "0040879",
    "prefecture": "北海道",
    "prefecture_kana": "ホッカイドウ",
    "prefecture_code": 1,
    "city": "札幌市清田区",
    "city_kana": "サッポロシキヨタク",
    "town": "平岡九条",
    "town_kana": "ヒラオカ9ジョウ",
    "street": null,
    "office_name": null,
    "office_name_kana": null
  },
  "0880": {
    "zip_code": "0040880",
    "prefecture": "北海道",
    "prefecture_kana": "ホッカイドウ",
    "prefecture_code": 1,
    "city": "札幌市清田区",
    "city_kana": "サッポロシキヨタク",
    "town": "平岡十条",
    "town_kana": "ヒラオカ10ジョウ",
    "street": null,
    "office_name": null,
    "office_name_kana": null
  },
  "0881": {
    "zip_code": "0040881",
    "prefecture": "北海道",
    "prefecture_kana": "ホッカイドウ",
    "prefecture_code": 1,
    "city": "札幌市清田区",
    "city_kana": "サッポロシキヨタク",
    "town": "平岡公園",
    "town_kana": "ヒラオカコウエン",
    "street": null,
    "office_name": null,
    "office_name_kana": null
  },
  "0882": {
    "zip_code": "0040882",
    "prefecture": "北海道",
    "prefecture_kana": "ホッカイドウ",
    "prefecture_code": 1,
    "city": "札幌市清田区",
    "city_kana": "サッポロシキヨタク",
    "town": "平岡公園東",
    "town_kana": "ヒラオカコウエンヒガシ",
    "street": null,
    "office_name": null,
    "office_name_kana": null
  },
  "0889": {
    "zip_code": "0040889",
    "prefecture": "北海道",
    "prefecture_kana": "ホッカイドウ",
    "prefecture_code": 1,
    "city": "札幌市清田区",
    "city_kana": "サッポロシキヨタク",
    "town": "平岡",
    "town_kana": "ヒラオカ",
    "street": null,
    "office_name": null,
    "office_name_kana": null
  },
  "8502": {
    "zip_code": "0048502",
    "prefecture": "北海道",
    "prefecture_kana": "ホッカイドウ",
    "prefecture_code": 1,
    "city": "札幌市清田区",
    "city_kana": "サッポロシキヨタク",
    "town": "北野六条",
    "town_kana": "キタノ6ジョウ",
    "street": "１丁目４−６０",
    "office_name": "丸善雄松堂　（株）　札幌支店",
    "office_name_kana": "マルゼンユウシヨウドウ カブシキガイシヤ サツポロシテン"
  },
  "8503": {
    "zip_code": "0048503",
    "prefecture": "北海道",
    "prefecture_kana": "ホッカイドウ",
    "prefecture_code": 1,
    "city": "札幌市清田区",
    "city_kana": "サッポロシキヨタク",
    "town": "北野三条",
    "town_kana": "キタノ3ジョウ",
    "street": "４丁目６−１",
    "office_name": "北海道札幌清田高等学校",
    "office_name_kana": "ホツカイドウサツポロキヨタコウトウガツコウ"
  },
  "8510": {
    "zip_code": "0048510",
    "prefecture": "北海道",
    "prefecture_kana": "ホッカイドウ",
    "prefecture_code": 1,
    "city": "札幌市厚別区",
    "city_kana": "サッポロシアツベツク",
    "town": "厚別東四条",
    "town_kana": "アツベツヒガシ4ジョウ",
    "street": "７丁目",
    "office_name": "（株）　松井",
    "office_name_kana": "カブシキガイシヤ マツイ"
  },
  "8512": {
    "zip_code": "0048512",
    "prefecture": "北海道",
    "prefecture_kana": "ホッカイドウ",
    "prefecture_code": 1,
    "city": "札幌市厚別区",
    "city_kana": "サッポロシアツベツク",
    "town": "大谷地西",
    "town_kana": "オオヤチニシ",
    "street": "５丁目１２番３０号",
    "office_name": "東日本高速道路　株式会社　北海道支社",
    "office_name_kana": "ヒガシニホンコウソクドウロ カブシキカイシヤ ホツカイドウシシヤ"
  },
  "8518": {
    "zip_code": "0048518",
    "prefecture": "北海道",
    "prefecture_kana": "ホッカイドウ",
    "prefecture_code": 1,
    "city": "札幌市厚別区",
    "city_kana": "サッポロシアツベツク",
    "town": "厚別中央二条",
    "town_kana": "アツベツチュウオウ2ジョウ",
    "street": "１丁目２−５",
    "office_name": "札幌東労働基準監督署",
    "office_name_kana": "サツポロヒガシロウドウキジユンカントクシヨ"
  },
  "8523": {
    "zip_code": "0048523",
    "prefecture": "北海道",
    "prefecture_kana": "ホッカイドウ",
    "prefecture_code": 1,
    "city": "札幌市厚別区",
    "city_kana": "サッポロシアツベツク",
    "town": "厚別中央二条",
    "town_kana": "アツベツチュウオウ2ジョウ",
    "street": "２丁目１−１",
    "office_name": "ＵＤトラックス北海道　株式会社",
    "office_name_kana": "ユ-デイ-トラツクスホツカイドウ カブシキガイシヤ"
  },
  "8530": {
    "zip_code": "0048530",
    "prefecture": "北海道",
    "prefecture_kana": "ホッカイドウ",
    "prefecture_code": 1,
    "city": "札幌市厚別区",
    "city_kana": "サッポロシアツベツク",
    "town": "厚別東五条",
    "town_kana": "アツベツヒガシ5ジョウ",
    "street": "１丁目３−２０",
    "office_name": "株式会社　弁釜",
    "office_name_kana": "カブシキガイシヤ ベンカマ"
  },
  "8531": {
    "zip_code": "0048531",
    "prefecture": "北海道",
    "prefecture_kana": "ホッカイドウ",
    "prefecture_code": 1,
    "city": "札幌市厚別区",
    "city_kana": "サッポロシアツベツク",
    "town": "上野幌一条",
    "town_kana": "カミノッポロ1ジョウ",
    "street": "５丁目１−８",
    "office_name": "雪印種苗　株式会社",
    "office_name_kana": "ユキジルシシユビヨウ カブシキガイシヤ"
  },
  "8532": {
    "zip_code": "0048532",
    "prefecture": "北海道",
    "prefecture_kana": "ホッカイドウ",
    "prefecture_code": 1,
    "city": "札幌市厚別区",
    "city_kana": "サッポロシアツベツク",
    "town": "大谷地東",
    "town_kana": "オオヤチヒガシ",
    "street": "２丁目４番１号札幌市交通局庁舎５階",
    "office_name": "一般財団法人　札幌市交通事業振興公社",
    "office_name_kana": "イツパンザイダンホウジン サツポロシコウツウジギヨウシンコウコウシヤ"
  },
  "8533": {
    "zip_code": "0048533",
    "prefecture": "北海道",
    "prefecture_kana": "ホッカイドウ",
    "prefecture_code": 1,
    "city": "札幌市厚別区",
    "city_kana": "サッポロシアツベツク",
    "town": "大谷地西",
    "town_kana": "オオヤチニシ",
    "street": "２丁目３番１号",
    "office_name": "北星学園大学図書館",
    "office_name_kana": "ホクセイガクエンダイガクトシヨカン"
  },
  "8555": {
    "zip_code": "0048555",
    "prefecture": "北海道",
    "prefecture_kana": "ホッカイドウ",
    "prefecture_code": 1,
    "city": "札幌市厚別区",
    "city_kana": "サッポロシアツベツク",
    "town": "大谷地東",
    "town_kana": "オオヤチヒガシ",
    "street": "２丁目４−１",
    "office_name": "札幌市交通局",
    "office_name_kana": "サツポロシコウツウキヨク"
  },
  "8558": {
    "zip_code": "0048558",
    "prefecture": "北海道",
    "prefecture_kana": "ホッカイドウ",
    "prefecture_code": 1,
    "city": "札幌市厚別区",
    "city_kana": "サッポロシアツベツク",
    "town": "厚別中央二条",
    "town_kana": "アツベツチュウオウ2ジョウ",
    "street": "６丁目４番３０号",
    "office_name": "日本年金機構　新さっぽろ年金事務所",
    "office_name_kana": "ニツポンネンキンキコウ シンサツポロネンキンジムシヨ"
  },
  "8567": {
    "zip_code": "0048567",
    "prefecture": "北海道",
    "prefecture_kana": "ホッカイドウ",
    "prefecture_code": 1,
    "city": "札幌市厚別区",
    "city_kana": "サッポロシアツベツク",
    "town": "上野幌一条",
    "town_kana": "カミノッポロ1ジョウ",
    "street": "１丁目１−１",
    "office_name": "創価学会　北海道方面事務局",
    "office_name_kana": "ソウカガツカイ ホツカイドウホウメンジムキヨク"
  },
  "8577": {
    "zip_code": "0048577",
    "prefecture": "北海道",
    "prefecture_kana": "ホッカイドウ",
    "prefecture_code": 1,
    "city": "札幌市厚別区",
    "city_kana": "サッポロシアツベツク",
    "town": "厚別中央二条",
    "town_kana": "アツベツチュウオウ2ジョウ",
    "street": "５丁目７番",
    "office_name": "イオンモール　株式会社　イオンカテプリ新さっぽろ",
    "office_name_kana": "イオンモ-ル カブシキガイシヤ イオンカテプリシンサツポロ"
  },
  "8585": {
    "zip_code": "0048585",
    "prefecture": "北海道",
    "prefecture_kana": "ホッカイドウ",
    "prefecture_code": 1,
    "city": "札幌市厚別区",
    "city_kana": "サッポロシアツベツク",
    "town": "厚別中央一条",
    "town_kana": "アツベツチュウオウ1ジョウ",
    "street": "５丁目４−１",
    "office_name": "（株）　ドーコン",
    "office_name_kana": "カブシキガイシヤ ド-コン"
  },
  "8588": {
    "zip_code": "0048588",
    "prefecture": "北海道",
    "prefecture_kana": "ホッカイドウ",
    "prefecture_code": 1,
    "city": "札幌市清田区",
    "city_kana": "サッポロシキヨタク",
    "town": "清田一条",
    "town_kana": "キヨタ1ジョウ",
    "street": "１丁目２番１号",
    "office_name": "北海道コカ・コーラボトリング（株）",
    "office_name_kana": "ホツカイドウコカ・コ-ラボトリング カブシキガイシヤ"
  },
  "8602": {
    "zip_code": "0048602",
    "prefecture": "北海道",
    "prefecture_kana": "ホッカイドウ",
    "prefecture_code": 1,
    "city": "札幌市清田区",
    "city_kana": "サッポロシキヨタク",
    "town": "清田四条",
    "town_kana": "キヨタ4ジョウ",
    "street": "１丁目４番１号",
    "office_name": "札幌国際大学",
    "office_name_kana": "サツポロコクサイダイガク"
  },
  "8603": {
    "zip_code": "0048603",
    "prefecture": "北海道",
    "prefecture_kana": "ホッカイドウ",
    "prefecture_code": 1,
    "city": "札幌市清田区",
    "city_kana": "サッポロシキヨタク",
    "town": "清田四条",
    "town_kana": "キヨタ4ジョウ",
    "street": "１丁目４番１号",
    "office_name": "札幌国際大学短期大学部",
    "office_name_kana": "サツポロコクサイダイガクタンキダイガクブ"
  },
  "8610": {
    "zip_code": "0048610",
    "prefecture": "北海道",
    "prefecture_kana": "ホッカイドウ",
    "prefecture_code": 1,
    "city": "札幌市厚別区",
    "city_kana": "サッポロシアツベツク",
    "town": "大谷地東",
    "town_kana": "オオヤチヒガシ",
    "street": "２丁目１番１１号",
    "office_name": "三菱電機住環境システムズ　株式会社　北海道社",
    "office_name_kana": "ミツビシデンキジユウカンキヨウシステムズ カブシキガイシヤ ホツカイイドウシヤ"
  },
  "8611": {
    "zip_code": "0048611",
    "prefecture": "北海道",
    "prefecture_kana": "ホッカイドウ",
    "prefecture_code": 1,
    "city": "札幌市厚別区",
    "city_kana": "サッポロシアツベツク",
    "town": "厚別中央三条",
    "town_kana": "アツベツチュウオウ3ジョウ",
    "street": "２丁目１−１",
    "office_name": "ホーマック　株式会社",
    "office_name_kana": "ホ-マツク カブシキガイシヤ"
  },
  "8612": {
    "zip_code": "0048612",
    "prefecture": "北海道",
    "prefecture_kana": "ホッカイドウ",
    "prefecture_code": 1,
    "city": "札幌市厚別区",
    "city_kana": "サッポロシアツベツク",
    "town": "厚別中央一条",
    "town_kana": "アツベツチュウオウ1ジョウ",
    "street": "５丁目",
    "office_name": "札幌市厚別区役所",
    "office_name_kana": "サツポロシアツベツクヤクシヨ"
  },
  "8613": {
    "zip_code": "0048613",
    "prefecture": "北海道",
    "prefecture_kana": "ホッカイドウ",
    "prefecture_code": 1,
    "city": "札幌市清田区",
    "city_kana": "サッポロシキヨタク",
    "town": "平岡一条",
    "town_kana": "ヒラオカ1ジョウ",
    "street": "１丁目",
    "office_name": "札幌市清田区役所",
    "office_name_kana": "サツポロシ キヨタクヤクシヨ"
  },
  "8616": {
    "zip_code": "0048616",
    "prefecture": "北海道",
    "prefecture_kana": "ホッカイドウ",
    "prefecture_code": 1,
    "city": "札幌市清田区",
    "city_kana": "サッポロシキヨタク",
    "town": "平岡二条",
    "town_kana": "ヒラオカ2ジョウ",
    "street": "４丁目",
    "office_name": "清田区　土木センター",
    "office_name_kana": "キヨタク ドボクセンタ-"
  },
  "8618": {
    "zip_code": "0048618",
    "prefecture": "北海道",
    "prefecture_kana": null,
    "prefecture_code": null,
    "city": "札幌市厚別区",
    "city_kana": null,
    "town": "厚別中央２条",
    "town_kana": null,
    "street": "６丁目２番１号",
    "office_name": "札幌北辰病院",
    "office_name_kana": "サツポロホクシンビヨウイン"
  },
  "8629": {
    "zip_code": "0048629",
    "prefecture": "北海道",
    "prefecture_kana": null,
    "prefecture_code": null,
    "city": "札幌市厚別区",
    "city_kana": null,
    "town": "厚別中央１条",
    "town_kana": null,
    "street": "７丁目１７番３２号",
    "office_name": "北海道プリマハム　株式会社",
    "office_name_kana": "ホツカイドウプリマハム カブシキガイシヤ"
  },
  "8631": {
    "zip_code": "0048631",
    "prefecture": "北海道",
    "prefecture_kana": "ホッカイドウ",
    "prefecture_code": 1,
    "city": "札幌市厚別区",
    "city_kana": "サッポロシアツベツク",
    "town": "大谷地西",
    "town_kana": "オオヤチニシ",
    "street": "２丁目３番１号",
    "office_name": "北星学園大学",
    "office_name_kana": "ホクセイガクエンダイガク"
  },
  "8641": {
    "zip_code": "0048641",
    "prefecture": "北海道",
    "prefecture_kana": "ホッカイドウ",
    "prefecture_code": 1,
    "city": "札幌市厚別区",
    "city_kana": "サッポロシアツベツク",
    "town": "大谷地東",
    "town_kana": "オオヤチヒガシ",
    "street": "２丁目４番１号札幌市交通局庁舎２階",
    "office_name": "札幌市東部市税事務所",
    "office_name_kana": "サツポロシトウブシゼイジムシヨ"
  }
}