{
  "0000": {
    "zip_code": "0050000",
    "prefecture": "北海道",
    "prefecture_kana": "ホッカイドウ",
    "prefecture_code": "1",
    "city": "札幌市南区",
    "city_kana": "サッポロシミナミク",
    "town": "",
    "town_kana": "",
    "street": null,
    "office_name": null,
    "office_name_kana": null
  },
  "0001": {
    "zip_code": "0050001",
    "prefecture": "北海道",
    "prefecture_kana": "ホッカイドウ",
    "prefecture_code": "1",
    "city": "札幌市南区",
    "city_kana": "サッポロシミナミク",
    "town": "澄川一条",
    "town_kana": "スミカワ1ジョウ",
    "street": null,
    "office_name": null,
    "office_name_kana": null
  },
  "0002": {
    "zip_code": "0050002",
    "prefecture": "北海道",
    "prefecture_kana": "ホッカイドウ",
    "prefecture_code": "1",
    "city": "札幌市南区",
    "city_kana": "サッポロシミナミク",
    "town": "澄川二条",
    "town_kana": "スミカワ2ジョウ",
    "street": null,
    "office_name": null,
    "office_name_kana": null
  },
  "0003": {
    "zip_code": "0050003",
    "prefecture": "北海道",
    "prefecture_kana": "ホッカイドウ",
    "prefecture_code": "1",
    "city": "札幌市南区",
    "city_kana": "サッポロシミナミク",
    "town": "澄川三条",
    "town_kana": "スミカワ3ジョウ",
    "street": null,
    "office_name": null,
    "office_name_kana": null
  },
  "0004": {
    "zip_code": "0050004",
    "prefecture": "北海道",
    "prefecture_kana": "ホッカイドウ",
    "prefecture_code": "1",
    "city": "札幌市南区",
    "city_kana": "サッポロシミナミク",
    "town": "澄川四条",
    "town_kana": "スミカワ4ジョウ",
    "street": null,
    "office_name": null,
    "office_name_kana": null
  },
  "0005": {
    "zip_code": "0050005",
    "prefecture": "北海道",
    "prefecture_kana": "ホッカイドウ",
    "prefecture_code": "1",
    "city": "札幌市南区",
    "city_kana": "サッポロシミナミク",
    "town": "澄川五条",
    "town_kana": "スミカワ5ジョウ",
    "street": null,
    "office_name": null,
    "office_name_kana": null
  },
  "0006": {
    "zip_code": "0050006",
    "prefecture": "北海道",
    "prefecture_kana": "ホッカイドウ",
    "prefecture_code": "1",
    "city": "札幌市南区",
    "city_kana": "サッポロシミナミク",
    "town": "澄川六条",
    "town_kana": "スミカワ6ジョウ",
    "street": null,
    "office_name": null,
    "office_name_kana": null
  },
  "0007": {
    "zip_code": "0050007",
    "prefecture": "北海道",
    "prefecture_kana": "ホッカイドウ",
    "prefecture_code": "1",
    "city": "札幌市南区",
    "city_kana": "サッポロシミナミク",
    "town": "澄川",
    "town_kana": "スミカワ",
    "street": null,
    "office_name": null,
    "office_name_kana": null
  },
  "0008": {
    "zip_code": "0050008",
    "prefecture": "北海道",
    "prefecture_kana": "ホッカイドウ",
    "prefecture_code": "1",
    "city": "札幌市南区",
    "city_kana": "サッポロシミナミク",
    "town": "真駒内",
    "town_kana": "マコマナイ",
    "street": null,
    "office_name": null,
    "office_name_kana": null
  },
  "0011": {
    "zip_code": "0050011",
    "prefecture": "北海道",
    "prefecture_kana": "ホッカイドウ",
    "prefecture_code": "1",
    "city": "札幌市南区",
    "city_kana": "サッポロシミナミク",
    "town": "真駒内東町",
    "town_kana": "マコマナイヒガシマチ",
    "street": null,
    "office_name": null,
    "office_name_kana": null
  },
  "0012": {
    "zip_code": "0050012",
    "prefecture": "北海道",
    "prefecture_kana": "ホッカイドウ",
    "prefecture_code": "1",
    "city": "札幌市南区",
    "city_kana": "サッポロシミナミク",
    "town": "真駒内上町",
    "town_kana": "マコマナイカミマチ",
    "street": null,
    "office_name": null,
    "office_name_kana": null
  },
  "0013": {
    "zip_code": "0050013",
    "prefecture": "北海道",
    "prefecture_kana": "ホッカイドウ",
    "prefecture_code": "1",
    "city": "札幌市南区",
    "city_kana": "サッポロシミナミク",
    "town": "真駒内緑町",
    "town_kana": "マコマナイミドリマチ",
    "street": null,
    "office_name": null,
    "office_name_kana": null
  },
  "0014": {
    "zip_code": "0050014",
    "prefecture": "北海道",
    "prefecture_kana": "ホッカイドウ",
    "prefecture_code": "1",
    "city": "札幌市南区",
    "city_kana": "サッポロシミナミク",
    "town": "真駒内幸町",
    "town_kana": "マコマナイサイワイマチ",
    "street": null,
    "office_name": null,
    "office_name_kana": null
  },
  "0015": {
    "zip_code": "0050015",
    "prefecture": "北海道",
    "prefecture_kana": "ホッカイドウ",
    "prefecture_code": "1",
    "city": "札幌市南区",
    "city_kana": "サッポロシミナミク",
    "town": "真駒内泉町",
    "town_kana": "マコマナイイズミマチ",
    "street": null,
    "office_name": null,
    "office_name_kana": null
  },
  "0016": {
    "zip_code": "0050016",
    "prefecture": "北海道",
    "prefecture_kana": "ホッカイドウ",
    "prefecture_code": "1",
    "city": "札幌市南区",
    "city_kana": "サッポロシミナミク",
    "town": "真駒内南町",
    "town_kana": "マコマナイミナミマチ",
    "street": null,
    "office_name": null,
    "office_name_kana": null
  },
  "0017": {
    "zip_code": "0050017",
    "prefecture": "北海道",
    "prefecture_kana": "ホッカイドウ",
    "prefecture_code": "1",
    "city": "札幌市南区",
    "city_kana": "サッポロシミナミク",
    "town": "真駒内公園",
    "town_kana": "マコマナイコウエン",
    "street": null,
    "office_name": null,
    "office_name_kana": null
  },
  "0018": {
    "zip_code": "0050018",
    "prefecture": "北海道",
    "prefecture_kana": "ホッカイドウ",
    "prefecture_code": "1",
    "city": "札幌市南区",
    "city_kana": "サッポロシミナミク",
    "town": "真駒内曙町",
    "town_kana": "マコマナイアケボノチョウ",
    "street": null,
    "office_name": null,
    "office_name_kana": null
  },
  "0021": {
    "zip_code": "0050021",
    "prefecture": "北海道",
    "prefecture_kana": "ホッカイドウ",
    "prefecture_code": "1",
    "city": "札幌市南区",
    "city_kana": "サッポロシミナミク",
    "town": "真駒内本町",
    "town_kana": "マコマナイホンチョウ",
    "street": null,
    "office_name": null,
    "office_name_kana": null
  },
  "0022": {
    "zip_code": "0050022",
    "prefecture": "北海道",
    "prefecture_kana": "ホッカイドウ",
    "prefecture_code": "1",
    "city": "札幌市南区",
    "city_kana": "サッポロシミナミク",
    "town": "真駒内柏丘",
    "town_kana": "マコマナイカシワオカ",
    "street": null,
    "office_name": null,
    "office_name_kana": null
  },
  "0030": {
    "zip_code": "0050030",
    "prefecture": "北海道",
    "prefecture_kana": "ホッカイドウ",
    "prefecture_code": "1",
    "city": "札幌市南区",
    "city_kana": "サッポロシミナミク",
    "town": "南三十条西",
    "town_kana": "ミナミ30ジョウニシ",
    "street": null,
    "office_name": null,
    "office_name_kana": null
  },
  "0031": {
    "zip_code": "0050031",
    "prefecture": "北海道",
    "prefecture_kana": "ホッカイドウ",
    "prefecture_code": "1",
    "city": "札幌市南区",
    "city_kana": "サッポロシミナミク",
    "town": "南三十一条西",
    "town_kana": "ミナミ31ジョウニシ",
    "street": null,
    "office_name": null,
    "office_name_kana": null
  },
  "0032": {
    "zip_code": "0050032",
    "prefecture": "北海道",
    "prefecture_kana": "ホッカイドウ",
    "prefecture_code": "1",
    "city": "札幌市南区",
    "city_kana": "サッポロシミナミク",
    "town": "南三十二条西",
    "town_kana": "ミナミ32ジョウニシ",
    "street": null,
    "office_name": null,
    "office_name_kana": null
  },
  "0033": {
    "zip_code": "0050033",
    "prefecture": "北海道",
    "prefecture_kana": "ホッカイドウ",
    "prefecture_code": "1",
    "city": "札幌市南区",
    "city_kana": "サッポロシミナミク",
    "town": "南三十三条西",
    "town_kana": "ミナミ33ジョウニシ",
    "street": null,
    "office_name": null,
    "office_name_kana": null
  },
  "0034": {
    "zip_code": "0050034",
    "prefecture": "北海道",
    "prefecture_kana": "ホッカイドウ",
    "prefecture_code": "1",
    "city": "札幌市南区",
    "city_kana": "サッポロシミナミク",
    "town": "南三十四条西",
    "town_kana": "ミナミ34ジョウニシ",
    "street": null,
    "office_name": null,
    "office_name_kana": null
  },
  "0035": {
    "zip_code": "0050035",
    "prefecture": "北海道",
    "prefecture_kana": "ホッカイドウ",
    "prefecture_code": "1",
    "city": "札幌市南区",
    "city_kana": "サッポロシミナミク",
    "town": "南三十五条西",
    "town_kana": "ミナミ35ジョウニシ",
    "street": null,
    "office_name": null,
    "office_name_kana": null
  },
  "0036": {
    "zip_code": "0050036",
    "prefecture": "北海道",
    "prefecture_kana": "ホッカイドウ",
    "prefecture_code": "1",
    "city": "札幌市南区",
    "city_kana": "サッポロシミナミク",
    "town": "南三十六条西",
    "town_kana": "ミナミ36ジョウニシ",
    "street": null,
    "office_name": null,
    "office_name_kana": null
  },
  "0037": {
    "zip_code": "0050037",
    "prefecture": "北海道",
    "prefecture_kana": "ホッカイドウ",
    "prefecture_code": "1",
    "city": "札幌市南区",
    "city_kana": "サッポロシミナミク",
    "town": "南三十七条西",
    "town_kana": "ミナミ37ジョウニシ",
    "street": null,
    "office_name": null,
    "office_name_kana": null
  },
  "0038": {
    "zip_code": "0050038",
    "prefecture": "北海道",
    "prefecture_kana": "ホッカイドウ",
    "prefecture_code": "1",
    "city": "札幌市南区",
    "city_kana": "サッポロシミナミク",
    "town": "南三十八条西",
    "town_kana": "ミナミ38ジョウニシ",
    "street": null,
    "office_name": null,
    "office_name_kana": null
  },
  "0039": {
    "zip_code": "0050039",
    "prefecture": "北海道",
    "prefecture_kana": "ホッカイドウ",
    "prefecture_code": "1",
    "city": "札幌市南区",
    "city_kana": "サッポロシミナミク",
    "town": "南三十九条西",
    "town_kana": "ミナミ39ジョウニシ",
    "street": null,
    "office_name": null,
    "office_name_kana": null
  },
  "0040": {
    "zip_code": "0050040",
    "prefecture": "北海道",
    "prefecture_kana": "ホッカイドウ",
    "prefecture_code": "1",
    "city": "札幌市南区",
    "city_kana": "サッポロシミナミク",
    "town": "藻岩下",
    "town_kana": "モイワシタ",
    "street": null,
    "office_name": null,
    "office_name_kana": null
  },
  "0041": {
    "zip_code": "0050041",
    "prefecture": "北海道",
    "prefecture_kana": "ホッカイドウ",
    "prefecture_code": "1",
    "city": "札幌市南区",
    "city_kana": "サッポロシミナミク",
    "town": "藻岩山",
    "town_kana": "モイワヤマ",
    "street": null,
    "office_name": null,
    "office_name_kana": null
  },
  "0801": {
    "zip_code": "0050801",
    "prefecture": "北海道",
    "prefecture_kana": "ホッカイドウ",
    "prefecture_code": "1",
    "city": "札幌市南区",
    "city_kana": "サッポロシミナミク",
    "town": "川沿一条",
    "town_kana": "カワゾエ1ジョウ",
    "street": null,
    "office_name": null,
    "office_name_kana": null
  },
  "0802": {
    "zip_code": "0050802",
    "prefecture": "北海道",
    "prefecture_kana": "ホッカイドウ",
    "prefecture_code": "1",
    "city": "札幌市南区",
    "city_kana": "サッポロシミナミク",
    "town": "川沿二条",
    "town_kana": "カワゾエ2ジョウ",
    "street": null,
    "office_name": null,
    "office_name_kana": null
  },
  "0803": {
    "zip_code": "0050803",
    "prefecture": "北海道",
    "prefecture_kana": "ホッカイドウ",
    "prefecture_code": "1",
    "city": "札幌市南区",
    "city_kana": "サッポロシミナミク",
    "town": "川沿三条",
    "town_kana": "カワゾエ3ジョウ",
    "street": null,
    "office_name": null,
    "office_name_kana": null
  },
  "0804": {
    "zip_code": "0050804",
    "prefecture": "北海道",
    "prefecture_kana": "ホッカイドウ",
    "prefecture_code": "1",
    "city": "札幌市南区",
    "city_kana": "サッポロシミナミク",
    "town": "川沿四条",
    "town_kana": "カワゾエ4ジョウ",
    "street": null,
    "office_name": null,
    "office_name_kana": null
  },
  "0805": {
    "zip_code": "0050805",
    "prefecture": "北海道",
    "prefecture_kana": "ホッカイドウ",
    "prefecture_code": "1",
    "city": "札幌市南区",
    "city_kana": "サッポロシミナミク",
    "town": "川沿五条",
    "town_kana": "カワゾエ5ジョウ",
    "street": null,
    "office_name": null,
    "office_name_kana": null
  },
  "0806": {
    "zip_code": "0050806",
    "prefecture": "北海道",
    "prefecture_kana": "ホッカイドウ",
    "prefecture_code": "1",
    "city": "札幌市南区",
    "city_kana": "サッポロシミナミク",
    "town": "川沿六条",
    "town_kana": "カワゾエ6ジョウ",
    "street": null,
    "office_name": null,
    "office_name_kana": null
  },
  "0807": {
    "zip_code": "0050807",
    "prefecture": "北海道",
    "prefecture_kana": "ホッカイドウ",
    "prefecture_code": "1",
    "city": "札幌市南区",
    "city_kana": "サッポロシミナミク",
    "town": "川沿七条",
    "town_kana": "カワゾエ7ジョウ",
    "street": null,
    "office_name": null,
    "office_name_kana": null
  },
  "0808": {
    "zip_code": "0050808",
    "prefecture": "北海道",
    "prefecture_kana": "ホッカイドウ",
    "prefecture_code": "1",
    "city": "札幌市南区",
    "city_kana": "サッポロシミナミク",
    "town": "川沿八条",
    "town_kana": "カワゾエ8ジョウ",
    "street": null,
    "office_name": null,
    "office_name_kana": null
  },
  "0809": {
    "zip_code": "0050809",
    "prefecture": "北海道",
    "prefecture_kana": "ホッカイドウ",
    "prefecture_code": "1",
    "city": "札幌市南区",
    "city_kana": "サッポロシミナミク",
    "town": "川沿九条",
    "town_kana": "カワゾエ9ジョウ",
    "street": null,
    "office_name": null,
    "office_name_kana": null
  },
  "0810": {
    "zip_code": "0050810",
    "prefecture": "北海道",
    "prefecture_kana": "ホッカイドウ",
    "prefecture_code": "1",
    "city": "札幌市南区",
    "city_kana": "サッポロシミナミク",
    "town": "川沿十条",
    "town_kana": "カワゾエ10ジョウ",
    "street": null,
    "office_name": null,
    "office_name_kana": null
  },
  "0811": {
    "zip_code": "0050811",
    "prefecture": "北海道",
    "prefecture_kana": "ホッカイドウ",
    "prefecture_code": "1",
    "city": "札幌市南区",
    "city_kana": "サッポロシミナミク",
    "town": "川沿十一条",
    "town_kana": "カワゾエ11ジョウ",
    "street": null,
    "office_name": null,
    "office_name_kana": null
  },
  "0812": {
    "zip_code": "0050812",
    "prefecture": "北海道",
    "prefecture_kana": "ホッカイドウ",
    "prefecture_code": "1",
    "city": "札幌市南区",
    "city_kana": "サッポロシミナミク",
    "town": "川沿十二条",
    "town_kana": "カワゾエ12ジョウ",
    "street": null,
    "office_name": null,
    "office_name_kana": null
  },
  "0813": {
    "zip_code": "0050813",
    "prefecture": "北海道",
    "prefecture_kana": "ホッカイドウ",
    "prefecture_code": "1",
    "city": "札幌市南区",
    "city_kana": "サッポロシミナミク",
    "town": "川沿十三条",
    "town_kana": "カワゾエ13ジョウ",
    "street": null,
    "office_name": null,
    "office_name_kana": null
  },
  "0814": {
    "zip_code": "0050814",
    "prefecture": "北海道",
    "prefecture_kana": "ホッカイドウ",
    "prefecture_code": "1",
    "city": "札幌市南区",
    "city_kana": "サッポロシミナミク",
    "town": "川沿十四条",
    "town_kana": "カワゾエ14ジョウ",
    "street": null,
    "office_name": null,
    "office_name_kana": null
  },
  "0815": {
    "zip_code": "0050815",
    "prefecture": "北海道",
    "prefecture_kana": "ホッカイドウ",
    "prefecture_code": "1",
    "city": "札幌市南区",
    "city_kana": "サッポロシミナミク",
    "town": "川沿十五条",
    "town_kana": "カワゾエ15ジョウ",
    "street": null,
    "office_name": null,
    "office_name_kana": null
  },
  "0816": {
    "zip_code": "0050816",
    "prefecture": "北海道",
    "prefecture_kana": "ホッカイドウ",
    "prefecture_code": "1",
    "city": "札幌市南区",
    "city_kana": "サッポロシミナミク",
    "town": "川沿十六条",
    "town_kana": "カワゾエ16ジョウ",
    "street": null,
    "office_name": null,
    "office_name_kana": null
  },
  "0817": {
    "zip_code": "0050817",
    "prefecture": "北海道",
    "prefecture_kana": "ホッカイドウ",
    "prefecture_code": "1",
    "city": "札幌市南区",
    "city_kana": "サッポロシミナミク",
    "town": "川沿十七条",
    "town_kana": "カワゾエ17ジョウ",
    "street": null,
    "office_name": null,
    "office_name_kana": null
  },
  "0818": {
    "zip_code": "0050818",
    "prefecture": "北海道",
    "prefecture_kana": "ホッカイドウ",
    "prefecture_code": "1",
    "city": "札幌市南区",
    "city_kana": "サッポロシミナミク",
    "town": "川沿十八条",
    "town_kana": "カワゾエ18ジョウ",
    "street": null,
    "office_name": null,
    "office_name_kana": null
  },
  "0821": {
    "zip_code": "0050821",
    "prefecture": "北海道",
    "prefecture_kana": "ホッカイドウ",
    "prefecture_code": "1",
    "city": "札幌市南区",
    "city_kana": "サッポロシミナミク",
    "town": "南沢一条",
    "town_kana": "ミナミサワ1ジョウ",
    "street": null,
    "office_name": null,
    "office_name_kana": null
  },
  "0822": {
    "zip_code": "0050822",
    "prefecture": "北海道",
    "prefecture_kana": "ホッカイドウ",
    "prefecture_code": "1",
    "city": "札幌市南区",
    "city_kana": "サッポロシミナミク",
    "town": "南沢二条",
    "town_kana": "ミナミサワ2ジョウ",
    "street": null,
    "office_name": null,
    "office_name_kana": null
  },
  "0823": {
    "zip_code": "0050823",
    "prefecture": "北海道",
    "prefecture_kana": "ホッカイドウ",
    "prefecture_code": "1",
    "city": "札幌市南区",
    "city_kana": "サッポロシミナミク",
    "town": "南沢三条",
    "town_kana": "ミナミサワ3ジョウ",
    "street": null,
    "office_name": null,
    "office_name_kana": null
  },
  "0824": {
    "zip_code": "0050824",
    "prefecture": "北海道",
    "prefecture_kana": "ホッカイドウ",
    "prefecture_code": "1",
    "city": "札幌市南区",
    "city_kana": "サッポロシミナミク",
    "town": "南沢四条",
    "town_kana": "ミナミサワ4ジョウ",
    "street": null,
    "office_name": null,
    "office_name_kana": null
  },
  "0825": {
    "zip_code": "0050825",
    "prefecture": "北海道",
    "prefecture_kana": "ホッカイドウ",
    "prefecture_code": "1",
    "city": "札幌市南区",
    "city_kana": "サッポロシミナミク",
    "town": "南沢五条",
    "town_kana": "ミナミサワ5ジョウ",
    "street": null,
    "office_name": null,
    "office_name_kana": null
  },
  "0826": {
    "zip_code": "0050826",
    "prefecture": "北海道",
    "prefecture_kana": "ホッカイドウ",
    "prefecture_code": "1",
    "city": "札幌市南区",
    "city_kana": "サッポロシミナミク",
    "town": "南沢六条",
    "town_kana": "ミナミサワ6ジョウ",
    "street": null,
    "office_name": null,
    "office_name_kana": null
  },
  "0827": {
    "zip_code": "0050827",
    "prefecture": "北海道",
    "prefecture_kana": "ホッカイドウ",
    "prefecture_code": "1",
    "city": "札幌市南区",
    "city_kana": "サッポロシミナミク",
    "town": "南沢",
    "town_kana": "ミナミサワ",
    "street": null,
    "office_name": null,
    "office_name_kana": null
  },
  "0830": {
    "zip_code": "0050830",
    "prefecture": "北海道",
    "prefecture_kana": "ホッカイドウ",
    "prefecture_code": "1",
    "city": "札幌市南区",
    "city_kana": "サッポロシミナミク",
    "town": "砥石山",
    "town_kana": "トイシヤマ",
    "street": null,
    "office_name": null,
    "office_name_kana": null
  },
  "0831": {
    "zip_code": "0050831",
    "prefecture": "北海道",
    "prefecture_kana": "ホッカイドウ",
    "prefecture_code": "1",
    "city": "札幌市南区",
    "city_kana": "サッポロシミナミク",
    "town": "中ノ沢",
    "town_kana": "ナカノサワ",
    "street": null,
    "office_name": null,
    "office_name_kana": null
  },
  "0832": {
    "zip_code": "0050832",
    "prefecture": "北海道",
    "prefecture_kana": "ホッカイドウ",
    "prefecture_code": "1",
    "city": "札幌市南区",
    "city_kana": "サッポロシミナミク",
    "town": "北ノ沢",
    "town_kana": "キタノサワ",
    "street": null,
    "office_name": null,
    "office_name_kana": null
  },
  "0840": {
    "zip_code": "0050840",
    "prefecture": "北海道",
    "prefecture_kana": "ホッカイドウ",
    "prefecture_code": "1",
    "city": "札幌市南区",
    "city_kana": "サッポロシミナミク",
    "town": "藤野",
    "town_kana": "フジノ",
    "street": null,
    "office_name": null,
    "office_name_kana": null
  },
  "0841": {
    "zip_code": "0050841",
    "prefecture": "北海道",
    "prefecture_kana": "ホッカイドウ",
    "prefecture_code": "1",
    "city": "札幌市南区",
    "city_kana": "サッポロシミナミク",
    "town": "石山一条",
    "town_kana": "イシヤマ1ジョウ",
    "street": null,
    "office_name": null,
    "office_name_kana": null
  },
  "0842": {
    "zip_code": "0050842",
    "prefecture": "北海道",
    "prefecture_kana": "ホッカイドウ",
    "prefecture_code": "1",
    "city": "札幌市南区",
    "city_kana": "サッポロシミナミク",
    "town": "石山二条",
    "town_kana": "イシヤマ2ジョウ",
    "street": null,
    "office_name": null,
    "office_name_kana": null
  },
  "0843": {
    "zip_code": "0050843",
    "prefecture": "北海道",
    "prefecture_kana": "ホッカイドウ",
    "prefecture_code": "1",
    "city": "札幌市南区",
    "city_kana": "サッポロシミナミク",
    "town": "石山三条",
    "town_kana": "イシヤマ3ジョウ",
    "street": null,
    "office_name": null,
    "office_name_kana": null
  },
  "0844": {
    "zip_code": "0050844",
    "prefecture": "北海道",
    "prefecture_kana": "ホッカイドウ",
    "prefecture_code": "1",
    "city": "札幌市南区",
    "city_kana": "サッポロシミナミク",
    "town": "石山四条",
    "town_kana": "イシヤマ4ジョウ",
    "street": null,
    "office_name": null,
    "office_name_kana": null
  },
  "0849": {
    "zip_code": "0050849",
    "prefecture": "北海道",
    "prefecture_kana": "ホッカイドウ",
    "prefecture_code": "1",
    "city": "札幌市南区",
    "city_kana": "サッポロシミナミク",
    "town": "石山",
    "town_kana": "イシヤマ",
    "street": null,
    "office_name": null,
    "office_name_kana": null
  },
  "0850": {
    "zip_code": "0050850",
    "prefecture": "北海道",
    "prefecture_kana": "ホッカイドウ",
    "prefecture_code": "1",
    "city": "札幌市南区",
    "city_kana": "サッポロシミナミク",
    "town": "石山東",
    "town_kana": "イシヤマヒガシ",
    "street": null,
    "office_name": null,
    "office_name_kana": null
  },
  "0851": {
    "zip_code": "0050851",
    "prefecture": "北海道",
    "prefecture_kana": "ホッカイドウ",
    "prefecture_code": "1",
    "city": "札幌市南区",
    "city_kana": "サッポロシミナミク",
    "town": "常盤一条",
    "town_kana": "トキワ1ジョウ",
    "street": null,
    "office_name": null,
    "office_name_kana": null
  },
  "0852": {
    "zip_code": "0050852",
    "prefecture": "北海道",
    "prefecture_kana": "ホッカイドウ",
    "prefecture_code": "1",
    "city": "札幌市南区",
    "city_kana": "サッポロシミナミク",
    "town": "常盤二条",
    "town_kana": "トキワ2ジョウ",
    "street": null,
    "office_name": null,
    "office_name_kana": null
  },
  "0853": {
    "zip_code": "0050853",
    "prefecture": "北海道",
    "prefecture_kana": "ホッカイドウ",
    "prefecture_code": "1",
    "city": "札幌市南区",
    "city_kana": "サッポロシミナミク",
    "town": "常盤三条",
    "town_kana": "トキワ3ジョウ",
    "street": null,
    "office_name": null,
    "office_name_kana": null
  },
  "0854": {
    "zip_code": "0050854",
    "prefecture": "北海道",
    "prefecture_kana": "ホッカイドウ",
    "prefecture_code": "1",
    "city": "札幌市南区",
    "city_kana": "サッポロシミナミク",
    "town": "常盤四条",
    "town_kana": "トキワ4ジョウ",
    "street": null,
    "office_name": null,
    "office_name_kana": null
  },
  "0855": {
    "zip_code": "0050855",
    "prefecture": "北海道",
    "prefecture_kana": "ホッカイドウ",
    "prefecture_code": "1",
    "city": "札幌市南区",
    "city_kana": "サッポロシミナミク",
    "town": "常盤五条",
    "town_kana": "トキワ5ジョウ",
    "street": null,
    "office_name": null,
    "office_name_kana": null
  },
  "0856": {
    "zip_code": "0050856",
    "prefecture": "北海道",
    "prefecture_kana": "ホッカイドウ",
    "prefecture_code": "1",
    "city": "札幌市南区",
    "city_kana": "サッポロシミナミク",
    "town": "常盤六条",
    "town_kana": "トキワ6ジョウ",
    "street": null,
    "office_name": null,
    "office_name_kana": null
  },
  "0861": {
    "zip_code": "0050861",
    "prefecture": "北海道",
    "prefecture_kana": "ホッカイドウ",
    "prefecture_code": "1",
    "city": "札幌市南区",
    "city_kana": "サッポロシミナミク",
    "town": "真駒内",
    "town_kana": "マコマナイ",
    "street": null,
    "office_name": null,
    "office_name_kana": null
  },
  "0862": {
    "zip_code": "0050862",
    "prefecture": "北海道",
    "prefecture_kana": "ホッカイドウ",
    "prefecture_code": "1",
    "city": "札幌市南区",
    "city_kana": "サッポロシミナミク",
    "town": "滝野",
    "town_kana": "タキノ",
    "street": null,
    "office_name": null,
    "office_name_kana": null
  },
  "0863": {
    "zip_code": "0050863",
    "prefecture": "北海道",
    "prefecture_kana": "ホッカイドウ",
    "prefecture_code": "1",
    "city": "札幌市南区",
    "city_kana": "サッポロシミナミク",
    "town": "常盤",
    "town_kana": "トキワ",
    "street": null,
    "office_name": null,
    "office_name_kana": null
  },
  "0864": {
    "zip_code": "0050864",
    "prefecture": "北海道",
    "prefecture_kana": "ホッカイドウ",
    "prefecture_code": "1",
    "city": "札幌市南区",
    "city_kana": "サッポロシミナミク",
    "town": "芸術の森",
    "town_kana": "ゲイジュツノモリ",
    "street": null,
    "office_name": null,
    "office_name_kana": null
  },
  "0865": {
    "zip_code": "0050865",
    "prefecture": "北海道",
    "prefecture_kana": "ホッカイドウ",
    "prefecture_code": "1",
    "city": "札幌市南区",
    "city_kana": "サッポロシミナミク",
    "town": "常盤",
    "town_kana": "トキワ",
    "street": null,
    "office_name": null,
    "office_name_kana": null
  },
  "8501": {
    "zip_code": "0058501",
    "prefecture": "北海道",
    "prefecture_kana": "ホッカイドウ",
    "prefecture_code": "1",
    "city": "札幌市南区",
    "city_kana": "サッポロシミナミク",
    "town": "川沿十三条",
    "town_kana": "カワゾエ13ジョウ",
    "street": "２丁目１−３８",
    "office_name": "医療法人　愛全会　愛全病院",
    "office_name_kana": "イリヨウホウジン アイゼンカイ アイゼンビヨウイン"
  },
  "8543": {
    "zip_code": "0058543",
    "prefecture": "北海道",
    "prefecture_kana": "ホッカイドウ",
    "prefecture_code": "1",
    "city": "札幌市南区",
    "city_kana": "サッポロシミナミク",
    "town": "真駒内",
    "town_kana": "マコマナイ",
    "street": "１７番地",
    "office_name": "陸上自衛隊　真駒内駐屯地",
    "office_name_kana": "リクジヨウジエイタイ マコマナイチユウトンチ"
  },
  "8555": {
    "zip_code": "0058555",
    "prefecture": "北海道",
    "prefecture_kana": "ホッカイドウ",
    "prefecture_code": "1",
    "city": "札幌市南区",
    "city_kana": "サッポロシミナミク",
    "town": "川沿二条",
    "town_kana": "カワゾエ2ジョウ",
    "street": "２丁目",
    "office_name": "医療法人　医仁会　中村記念南病院",
    "office_name_kana": "イリヨウホウジン イジンカイ ナカムラキネンミナミビヨウイン"
  },
  "8585": {
    "zip_code": "0058585",
    "prefecture": "北海道",
    "prefecture_kana": "ホッカイドウ",
    "prefecture_code": "1",
    "city": "札幌市南区",
    "city_kana": "サッポロシミナミク",
    "town": "真駒内本町",
    "town_kana": "マコマナイホンチョウ",
    "street": "１丁目１−１",
    "office_name": "岡本興業　株式会社",
    "office_name_kana": "オカモトコウギヨウ カブシキガイシヤ"
  },
  "8601": {
    "zip_code": "0058601",
    "prefecture": "北海道",
    "prefecture_kana": "ホッカイドウ",
    "prefecture_code": "1",
    "city": "札幌市南区",
    "city_kana": "サッポロシミナミク",
    "town": "南沢五条",
    "town_kana": "ミナミサワ5ジョウ",
    "street": "１丁目１−１",
    "office_name": "東海大学　札幌校舎",
    "office_name_kana": "トウカイダイガク サツポロコウシヤ"
  },
  "8602": {
    "zip_code": "0058602",
    "prefecture": "北海道",
    "prefecture_kana": "ホッカイドウ",
    "prefecture_code": "1",
    "city": "札幌市南区",
    "city_kana": "サッポロシミナミク",
    "town": "南沢五条",
    "town_kana": "ミナミサワ5ジョウ",
    "street": "１丁目１−１",
    "office_name": "東海大学付属第四高等学校",
    "office_name_kana": "トウカイダイガクフゾクダイヨンコウトウガツコウ"
  },
  "8612": {
    "zip_code": "0058612",
    "prefecture": "北海道",
    "prefecture_kana": "ホッカイドウ",
    "prefecture_code": "1",
    "city": "札幌市南区",
    "city_kana": "サッポロシミナミク",
    "town": "真駒内幸町",
    "town_kana": "マコマナイサイワイマチ",
    "street": "２丁目２−１",
    "office_name": "札幌市南区役所",
    "office_name_kana": "サツポロシミナミクヤクシヨ"
  },
  "8798": {
    "zip_code": "0058798",
    "prefecture": "北海道",
    "prefecture_kana": "ホッカイドウ",
    "prefecture_code": "1",
    "city": "札幌市南区",
    "city_kana": "サッポロシミナミク",
    "town": "川沿十四条",
    "town_kana": "カワゾエ14ジョウ",
    "street": "１丁目５番１号",
    "office_name": "札幌逓信病院",
    "office_name_kana": "サツポロテイシンビヨウイン"
  }
}