{
  "0000": {
    "zip_code": "0060000",
    "prefecture": "北海道",
    "prefecture_kana": "ホッカイドウ",
    "prefecture_code": "1",
    "city": "札幌市手稲区",
    "city_kana": "サッポロシテイネク",
    "town": "",
    "town_kana": "",
    "street": null,
    "office_name": null,
    "office_name_kana": null
  },
  "0001": {
    "zip_code": "0060001",
    "prefecture": "北海道",
    "prefecture_kana": "ホッカイドウ",
    "prefecture_code": "1",
    "city": "札幌市手稲区",
    "city_kana": "サッポロシテイネク",
    "town": "西宮の沢一条",
    "town_kana": "ニシミヤノサワ1ジョウ",
    "street": null,
    "office_name": null,
    "office_name_kana": null
  },
  "0002": {
    "zip_code": "0060002",
    "prefecture": "北海道",
    "prefecture_kana": "ホッカイドウ",
    "prefecture_code": "1",
    "city": "札幌市手稲区",
    "city_kana": "サッポロシテイネク",
    "town": "西宮の沢二条",
    "town_kana": "ニシミヤノサワ2ジョウ",
    "street": null,
    "office_name": null,
    "office_name_kana": null
  },
  "0003": {
    "zip_code": "0060003",
    "prefecture": "北海道",
    "prefecture_kana": "ホッカイドウ",
    "prefecture_code": "1",
    "city": "札幌市手稲区",
    "city_kana": "サッポロシテイネク",
    "town": "西宮の沢三条",
    "town_kana": "ニシミヤノサワ3ジョウ",
    "street": null,
    "office_name": null,
    "office_name_kana": null
  },
  "0004": {
    "zip_code": "0060004",
    "prefecture": "北海道",
    "prefecture_kana": "ホッカイドウ",
    "prefecture_code": "1",
    "city": "札幌市手稲区",
    "city_kana": "サッポロシテイネク",
    "town": "西宮の沢四条",
    "town_kana": "ニシミヤノサワ4ジョウ",
    "street": null,
    "office_name": null,
    "office_name_kana": null
  },
  "0005": {
    "zip_code": "0060005",
    "prefecture": "北海道",
    "prefecture_kana": "ホッカイドウ",
    "prefecture_code": "1",
    "city": "札幌市手稲区",
    "city_kana": "サッポロシテイネク",
    "town": "西宮の沢五条",
    "town_kana": "ニシミヤノサワ5ジョウ",
    "street": null,
    "office_name": null,
    "office_name_kana": null
  },
  "0006": {
    "zip_code": "0060006",
    "prefecture": "北海道",
    "prefecture_kana": "ホッカイドウ",
    "prefecture_code": "1",
    "city": "札幌市手稲区",
    "city_kana": "サッポロシテイネク",
    "town": "西宮の沢六条",
    "town_kana": "ニシミヤノサワ6ジョウ",
    "street": null,
    "office_name": null,
    "office_name_kana": null
  },
  "0009": {
    "zip_code": "0060009",
    "prefecture": "北海道",
    "prefecture_kana": "ホッカイドウ",
    "prefecture_code": "1",
    "city": "札幌市手稲区",
    "city_kana": "サッポロシテイネク",
    "town": "西宮の沢",
    "town_kana": "ニシミヤノサワ",
    "street": null,
    "office_name": null,
    "office_name_kana": null
  },
  "0011": {
    "zip_code": "0060011",
    "prefecture": "北海道",
    "prefecture_kana": "ホッカイドウ",
    "prefecture_code": "1",
    "city": "札幌市手稲区",
    "city_kana": "サッポロシテイネク",
    "town": "富丘一条",
    "town_kana": "トミオカ1ジョウ",
    "street": null,
    "office_name": null,
    "office_name_kana": null
  },
  "0012": {
    "zip_code": "0060012",
    "prefecture": "北海道",
    "prefecture_kana": "ホッカイドウ",
    "prefecture_code": "1",
    "city": "札幌市手稲区",
    "city_kana": "サッポロシテイネク",
    "town": "富丘二条",
    "town_kana": "トミオカ2ジョウ",
    "street": null,
    "office_name": null,
    "office_name_kana": null
  },
  "0013": {
    "zip_code": "0060013",
    "prefecture": "北海道",
    "prefecture_kana": "ホッカイドウ",
    "prefecture_code": "1",
    "city": "札幌市手稲区",
    "city_kana": "サッポロシテイネク",
    "town": "富丘三条",
    "town_kana": "トミオカ3ジョウ",
    "street": null,
    "office_name": null,
    "office_name_kana": null
  },
  "0014": {
    "zip_code": "0060014",
    "prefecture": "北海道",
    "prefecture_kana": "ホッカイドウ",
    "prefecture_code": "1",
    "city": "札幌市手稲区",
    "city_kana": "サッポロシテイネク",
    "town": "富丘四条",
    "town_kana": "トミオカ4ジョウ",
    "street": null,
    "office_name": null,
    "office_name_kana": null
  },
  "0015": {
    "zip_code": "0060015",
    "prefecture": "北海道",
    "prefecture_kana": "ホッカイドウ",
    "prefecture_code": "1",
    "city": "札幌市手稲区",
    "city_kana": "サッポロシテイネク",
    "town": "富丘五条",
    "town_kana": "トミオカ5ジョウ",
    "street": null,
    "office_name": null,
    "office_name_kana": null
  },
  "0016": {
    "zip_code": "0060016",
    "prefecture": "北海道",
    "prefecture_kana": "ホッカイドウ",
    "prefecture_code": "1",
    "city": "札幌市手稲区",
    "city_kana": "サッポロシテイネク",
    "town": "富丘六条",
    "town_kana": "トミオカ6ジョウ",
    "street": null,
    "office_name": null,
    "office_name_kana": null
  },
  "0019": {
    "zip_code": "0060019",
    "prefecture": "北海道",
    "prefecture_kana": "ホッカイドウ",
    "prefecture_code": "1",
    "city": "札幌市手稲区",
    "city_kana": "サッポロシテイネク",
    "town": "手稲富丘",
    "town_kana": "テイネトミオカ",
    "street": null,
    "office_name": null,
    "office_name_kana": null
  },
  "0021": {
    "zip_code": "0060021",
    "prefecture": "北海道",
    "prefecture_kana": "ホッカイドウ",
    "prefecture_code": "1",
    "city": "札幌市手稲区",
    "city_kana": "サッポロシテイネク",
    "town": "手稲本町一条",
    "town_kana": "テイネホンチョウ1ジョウ",
    "street": null,
    "office_name": null,
    "office_name_kana": null
  },
  "0022": {
    "zip_code": "0060022",
    "prefecture": "北海道",
    "prefecture_kana": "ホッカイドウ",
    "prefecture_code": "1",
    "city": "札幌市手稲区",
    "city_kana": "サッポロシテイネク",
    "town": "手稲本町二条",
    "town_kana": "テイネホンチョウ2ジョウ",
    "street": null,
    "office_name": null,
    "office_name_kana": null
  },
  "0023": {
    "zip_code": "0060023",
    "prefecture": "北海道",
    "prefecture_kana": "ホッカイドウ",
    "prefecture_code": "1",
    "city": "札幌市手稲区",
    "city_kana": "サッポロシテイネク",
    "town": "手稲本町三条",
    "town_kana": "テイネホンチョウ3ジョウ",
    "street": null,
    "office_name": null,
    "office_name_kana": null
  },
  "0024": {
    "zip_code": "0060024",
    "prefecture": "北海道",
    "prefecture_kana": "ホッカイドウ",
    "prefecture_code": "1",
    "city": "札幌市手稲区",
    "city_kana": "サッポロシテイネク",
    "town": "手稲本町四条",
    "town_kana": "テイネホンチョウ4ジョウ",
    "street": null,
    "office_name": null,
    "office_name_kana": null
  },
  "0025": {
    "zip_code": "0060025",
    "prefecture": "北海道",
    "prefecture_kana": "ホッカイドウ",
    "prefecture_code": "1",
    "city": "札幌市手稲区",
    "city_kana": "サッポロシテイネク",
    "town": "手稲本町五条",
    "town_kana": "テイネホンチョウ5ジョウ",
    "street": null,
    "office_name": null,
    "office_name_kana": null
  },
  "0026": {
    "zip_code": "0060026",
    "prefecture": "北海道",
    "prefecture_kana": "ホッカイドウ",
    "prefecture_code": "1",
    "city": "札幌市手稲区",
    "city_kana": "サッポロシテイネク",
    "town": "手稲本町六条",
    "town_kana": "テイネホンチョウ6ジョウ",
    "street": null,
    "office_name": null,
    "office_name_kana": null
  },
  "0029": {
    "zip_code": "0060029",
    "prefecture": "北海道",
    "prefecture_kana": "ホッカイドウ",
    "prefecture_code": "1",
    "city": "札幌市手稲区",
    "city_kana": "サッポロシテイネク",
    "town": "手稲本町",
    "town_kana": "テイネホンチョウ",
    "street": null,
    "office_name": null,
    "office_name_kana": null
  },
  "0031": {
    "zip_code": "0060031",
    "prefecture": "北海道",
    "prefecture_kana": "ホッカイドウ",
    "prefecture_code": "1",
    "city": "札幌市手稲区",
    "city_kana": "サッポロシテイネク",
    "town": "稲穂一条",
    "town_kana": "イナホ1ジョウ",
    "street": null,
    "office_name": null,
    "office_name_kana": null
  },
  "0032": {
    "zip_code": "0060032",
    "prefecture": "北海道",
    "prefecture_kana": "ホッカイドウ",
    "prefecture_code": "1",
    "city": "札幌市手稲区",
    "city_kana": "サッポロシテイネク",
    "town": "稲穂二条",
    "town_kana": "イナホ2ジョウ",
    "street": null,
    "office_name": null,
    "office_name_kana": null
  },
  "0033": {
    "zip_code": "0060033",
    "prefecture": "北海道",
    "prefecture_kana": "ホッカイドウ",
    "prefecture_code": "1",
    "city": "札幌市手稲区",
    "city_kana": "サッポロシテイネク",
    "town": "稲穂三条",
    "town_kana": "イナホ3ジョウ",
    "street": null,
    "office_name": null,
    "office_name_kana": null
  },
  "0034": {
    "zip_code": "0060034",
    "prefecture": "北海道",
    "prefecture_kana": "ホッカイドウ",
    "prefecture_code": "1",
    "city": "札幌市手稲区",
    "city_kana": "サッポロシテイネク",
    "town": "稲穂四条",
    "town_kana": "イナホ4ジョウ",
    "street": null,
    "office_name": null,
    "office_name_kana": null
  },
  "0035": {
    "zip_code": "0060035",
    "prefecture": "北海道",
    "prefecture_kana": "ホッカイドウ",
    "prefecture_code": "1",
    "city": "札幌市手稲区",
    "city_kana": "サッポロシテイネク",
    "town": "稲穂五条",
    "town_kana": "イナホ5ジョウ",
    "street": null,
    "office_name": null,
    "office_name_kana": null
  },
  "0039": {
    "zip_code": "0060039",
    "prefecture": "北海道",
    "prefecture_kana": "ホッカイドウ",
    "prefecture_code": "1",
    "city": "札幌市手稲区",
    "city_kana": "サッポロシテイネク",
    "town": "手稲稲穂",
    "town_kana": "テイネイナホ",
    "street": null,
    "office_name": null,
    "office_name_kana": null
  },
  "0041": {
    "zip_code": "0060041",
    "prefecture": "北海道",
    "prefecture_kana": "ホッカイドウ",
    "prefecture_code": "1",
    "city": "札幌市手稲区",
    "city_kana": "サッポロシテイネク",
    "town": "金山一条",
    "town_kana": "カナヤマ1ジョウ",
    "street": null,
    "office_name": null,
    "office_name_kana": null
  },
  "0042": {
    "zip_code": "0060042",
    "prefecture": "北海道",
    "prefecture_kana": "ホッカイドウ",
    "prefecture_code": "1",
    "city": "札幌市手稲区",
    "city_kana": "サッポロシテイネク",
    "town": "金山二条",
    "town_kana": "カナヤマ2ジョウ",
    "street": null,
    "office_name": null,
    "office_name_kana": null
  },
  "0043": {
    "zip_code": "0060043",
    "prefecture": "北海道",
    "prefecture_kana": "ホッカイドウ",
    "prefecture_code": "1",
    "city": "札幌市手稲区",
    "city_kana": "サッポロシテイネク",
    "town": "金山三条",
    "town_kana": "カナヤマ3ジョウ",
    "street": null,
    "office_name": null,
    "office_name_kana": null
  },
  "0049": {
    "zip_code": "0060049",
    "prefecture": "北海道",
    "prefecture_kana": "ホッカイドウ",
    "prefecture_code": "1",
    "city": "札幌市手稲区",
    "city_kana": "サッポロシテイネク",
    "town": "手稲金山",
    "town_kana": "テイネカナヤマ",
    "street": null,
    "office_name": null,
    "office_name_kana": null
  },
  "0050": {
    "zip_code": "0060050",
    "prefecture": "北海道",
    "prefecture_kana": "ホッカイドウ",
    "prefecture_code": "1",
    "city": "札幌市手稲区",
    "city_kana": "サッポロシテイネク",
    "town": "星置南",
    "town_kana": "ホシオキミナミ",
    "street": null,
    "office_name": null,
    "office_name_kana": null
  },
  "0801": {
    "zip_code": "0060801",
    "prefecture": "北海道",
    "prefecture_kana": "ホッカイドウ",
    "prefecture_code": "1",
    "city": "札幌市手稲区",
    "city_kana": "サッポロシテイネク",
    "town": "新発寒一条",
    "town_kana": "シンハッサム1ジョウ",
    "street": null,
    "office_name": null,
    "office_name_kana": null
  },
  "0802": {
    "zip_code": "0060802",
    "prefecture": "北海道",
    "prefecture_kana": "ホッカイドウ",
    "prefecture_code": "1",
    "city": "札幌市手稲区",
    "city_kana": "サッポロシテイネク",
    "town": "新発寒二条",
    "town_kana": "シンハッサム2ジョウ",
    "street": null,
    "office_name": null,
    "office_name_kana": null
  },
  "0803": {
    "zip_code": "0060803",
    "prefecture": "北海道",
    "prefecture_kana": "ホッカイドウ",
    "prefecture_code": "1",
    "city": "札幌市手稲区",
    "city_kana": "サッポロシテイネク",
    "town": "新発寒三条",
    "town_kana": "シンハッサム3ジョウ",
    "street": null,
    "office_name": null,
    "office_name_kana": null
  },
  "0804": {
    "zip_code": "0060804",
    "prefecture": "北海道",
    "prefecture_kana": "ホッカイドウ",
    "prefecture_code": "1",
    "city": "札幌市手稲区",
    "city_kana": "サッポロシテイネク",
    "town": "新発寒四条",
    "town_kana": "シンハッサム4ジョウ",
    "street": null,
    "office_name": null,
    "office_name_kana": null
  },
  "0805": {
    "zip_code": "0060805",
    "prefecture": "北海道",
    "prefecture_kana": "ホッカイドウ",
    "prefecture_code": "1",
    "city": "札幌市手稲区",
    "city_kana": "サッポロシテイネク",
    "town": "新発寒五条",
    "town_kana": "シンハッサム5ジョウ",
    "street": null,
    "office_name": null,
    "office_name_kana": null
  },
  "0806": {
    "zip_code": "0060806",
    "prefecture": "北海道",
    "prefecture_kana": "ホッカイドウ",
    "prefecture_code": "1",
    "city": "札幌市手稲区",
    "city_kana": "サッポロシテイネク",
    "town": "新発寒六条",
    "town_kana": "シンハッサム6ジョウ",
    "street": null,
    "office_name": null,
    "office_name_kana": null
  },
  "0807": {
    "zip_code": "0060807",
    "prefecture": "北海道",
    "prefecture_kana": "ホッカイドウ",
    "prefecture_code": "1",
    "city": "札幌市手稲区",
    "city_kana": "サッポロシテイネク",
    "town": "新発寒七条",
    "town_kana": "シンハッサム7ジョウ",
    "street": null,
    "office_name": null,
    "office_name_kana": null
  },
  "0811": {
    "zip_code": "0060811",
    "prefecture": "北海道",
    "prefecture_kana": "ホッカイドウ",
    "prefecture_code": "1",
    "city": "札幌市手稲区",
    "city_kana": "サッポロシテイネク",
    "town": "前田一条",
    "town_kana": "マエダ1ジョウ",
    "street": null,
    "office_name": null,
    "office_name_kana": null
  },
  "0812": {
    "zip_code": "0060812",
    "prefecture": "北海道",
    "prefecture_kana": "ホッカイドウ",
    "prefecture_code": "1",
    "city": "札幌市手稲区",
    "city_kana": "サッポロシテイネク",
    "town": "前田二条",
    "town_kana": "マエダ2ジョウ",
    "street": null,
    "office_name": null,
    "office_name_kana": null
  },
  "0813": {
    "zip_code": "0060813",
    "prefecture": "北海道",
    "prefecture_kana": "ホッカイドウ",
    "prefecture_code": "1",
    "city": "札幌市手稲区",
    "city_kana": "サッポロシテイネク",
    "town": "前田三条",
    "town_kana": "マエダ3ジョウ",
    "street": null,
    "office_name": null,
    "office_name_kana": null
  },
  "0814": {
    "zip_code": "0060814",
    "prefecture": "北海道",
    "prefecture_kana": "ホッカイドウ",
    "prefecture_code": "1",
    "city": "札幌市手稲区",
    "city_kana": "サッポロシテイネク",
    "town": "前田四条",
    "town_kana": "マエダ4ジョウ",
    "street": null,
    "office_name": null,
    "office_name_kana": null
  },
  "0815": {
    "zip_code": "0060815",
    "prefecture": "北海道",
    "prefecture_kana": "ホッカイドウ",
    "prefecture_code": "1",
    "city": "札幌市手稲区",
    "city_kana": "サッポロシテイネク",
    "town": "前田五条",
    "town_kana": "マエダ5ジョウ",
    "street": null,
    "office_name": null,
    "office_name_kana": null
  },
  "0816": {
    "zip_code": "0060816",
    "prefecture": "北海道",
    "prefecture_kana": "ホッカイドウ",
    "prefecture_code": "1",
    "city": "札幌市手稲区",
    "city_kana": "サッポロシテイネク",
    "town": "前田六条",
    "town_kana": "マエダ6ジョウ",
    "street": null,
    "office_name": null,
    "office_name_kana": null
  },
  "0817": {
    "zip_code": "0060817",
    "prefecture": "北海道",
    "prefecture_kana": "ホッカイドウ",
    "prefecture_code": "1",
    "city": "札幌市手稲区",
    "city_kana": "サッポロシテイネク",
    "town": "前田七条",
    "town_kana": "マエダ7ジョウ",
    "street": null,
    "office_name": null,
    "office_name_kana": null
  },
  "0818": {
    "zip_code": "0060818",
    "prefecture": "北海道",
    "prefecture_kana": "ホッカイドウ",
    "prefecture_code": "1",
    "city": "札幌市手稲区",
    "city_kana": "サッポロシテイネク",
    "town": "前田八条",
    "town_kana": "マエダ8ジョウ",
    "street": null,
    "office_name": null,
    "office_name_kana": null
  },
  "0819": {
    "zip_code": "0060819",
    "prefecture": "北海道",
    "prefecture_kana": "ホッカイドウ",
    "prefecture_code": "1",
    "city": "札幌市手稲区",
    "city_kana": "サッポロシテイネク",
    "town": "前田九条",
    "town_kana": "マエダ9ジョウ",
    "street": null,
    "office_name": null,
    "office_name_kana": null
  },
  "0820": {
    "zip_code": "0060820",
    "prefecture": "北海道",
    "prefecture_kana": "ホッカイドウ",
    "prefecture_code": "1",
    "city": "札幌市手稲区",
    "city_kana": "サッポロシテイネク",
    "town": "前田十条",
    "town_kana": "マエダ10ジョウ",
    "street": null,
    "office_name": null,
    "office_name_kana": null
  },
  "0821": {
    "zip_code": "0060821",
    "prefecture": "北海道",
    "prefecture_kana": "ホッカイドウ",
    "prefecture_code": "1",
    "city": "札幌市手稲区",
    "city_kana": "サッポロシテイネク",
    "town": "前田十一条",
    "town_kana": "マエダ11ジョウ",
    "street": null,
    "office_name": null,
    "office_name_kana": null
  },
  "0822": {
    "zip_code": "0060822",
    "prefecture": "北海道",
    "prefecture_kana": "ホッカイドウ",
    "prefecture_code": "1",
    "city": "札幌市手稲区",
    "city_kana": "サッポロシテイネク",
    "town": "前田十二条",
    "town_kana": "マエダ12ジョウ",
    "street": null,
    "office_name": null,
    "office_name_kana": null
  },
  "0823": {
    "zip_code": "0060823",
    "prefecture": "北海道",
    "prefecture_kana": "ホッカイドウ",
    "prefecture_code": "1",
    "city": "札幌市手稲区",
    "city_kana": "サッポロシテイネク",
    "town": "前田十三条",
    "town_kana": "マエダ13ジョウ",
    "street": null,
    "office_name": null,
    "office_name_kana": null
  },
  "0829": {
    "zip_code": "0060829",
    "prefecture": "北海道",
    "prefecture_kana": "ホッカイドウ",
    "prefecture_code": "1",
    "city": "札幌市手稲区",
    "city_kana": "サッポロシテイネク",
    "town": "手稲前田",
    "town_kana": "テイネマエダ",
    "street": null,
    "office_name": null,
    "office_name_kana": null
  },
  "0831": {
    "zip_code": "0060831",
    "prefecture": "北海道",
    "prefecture_kana": "ホッカイドウ",
    "prefecture_code": "1",
    "city": "札幌市手稲区",
    "city_kana": "サッポロシテイネク",
    "town": "曙一条",
    "town_kana": "アケボノ1ジョウ",
    "street": null,
    "office_name": null,
    "office_name_kana": null
  },
  "0832": {
    "zip_code": "0060832",
    "prefecture": "北海道",
    "prefecture_kana": "ホッカイドウ",
    "prefecture_code": "1",
    "city": "札幌市手稲区",
    "city_kana": "サッポロシテイネク",
    "town": "曙二条",
    "town_kana": "アケボノ2ジョウ",
    "street": null,
    "office_name": null,
    "office_name_kana": null
  },
  "0833": {
    "zip_code": "0060833",
    "prefecture": "北海道",
    "prefecture_kana": "ホッカイドウ",
    "prefecture_code": "1",
    "city": "札幌市手稲区",
    "city_kana": "サッポロシテイネク",
    "town": "曙三条",
    "town_kana": "アケボノ3ジョウ",
    "street": null,
    "office_name": null,
    "office_name_kana": null
  },
  "0834": {
    "zip_code": "0060834",
    "prefecture": "北海道",
    "prefecture_kana": "ホッカイドウ",
    "prefecture_code": "1",
    "city": "札幌市手稲区",
    "city_kana": "サッポロシテイネク",
    "town": "曙四条",
    "town_kana": "アケボノ4ジョウ",
    "street": null,
    "office_name": null,
    "office_name_kana": null
  },
  "0835": {
    "zip_code": "0060835",
    "prefecture": "北海道",
    "prefecture_kana": "ホッカイドウ",
    "prefecture_code": "1",
    "city": "札幌市手稲区",
    "city_kana": "サッポロシテイネク",
    "town": "曙五条",
    "town_kana": "アケボノ5ジョウ",
    "street": null,
    "office_name": null,
    "office_name_kana": null
  },
  "0836": {
    "zip_code": "0060836",
    "prefecture": "北海道",
    "prefecture_kana": "ホッカイドウ",
    "prefecture_code": "1",
    "city": "札幌市手稲区",
    "city_kana": "サッポロシテイネク",
    "town": "曙六条",
    "town_kana": "アケボノ6ジョウ",
    "street": null,
    "office_name": null,
    "office_name_kana": null
  },
  "0837": {
    "zip_code": "0060837",
    "prefecture": "北海道",
    "prefecture_kana": "ホッカイドウ",
    "prefecture_code": "1",
    "city": "札幌市手稲区",
    "city_kana": "サッポロシテイネク",
    "town": "曙七条",
    "town_kana": "アケボノ7ジョウ",
    "street": null,
    "office_name": null,
    "office_name_kana": null
  },
  "0838": {
    "zip_code": "0060838",
    "prefecture": "北海道",
    "prefecture_kana": "ホッカイドウ",
    "prefecture_code": "1",
    "city": "札幌市手稲区",
    "city_kana": "サッポロシテイネク",
    "town": "曙八条",
    "town_kana": "アケボノ8ジョウ",
    "street": null,
    "office_name": null,
    "office_name_kana": null
  },
  "0839": {
    "zip_code": "0060839",
    "prefecture": "北海道",
    "prefecture_kana": "ホッカイドウ",
    "prefecture_code": "1",
    "city": "札幌市手稲区",
    "city_kana": "サッポロシテイネク",
    "town": "曙九条",
    "town_kana": "アケボノ9ジョウ",
    "street": null,
    "office_name": null,
    "office_name_kana": null
  },
  "0840": {
    "zip_code": "0060840",
    "prefecture": "北海道",
    "prefecture_kana": "ホッカイドウ",
    "prefecture_code": "1",
    "city": "札幌市手稲区",
    "city_kana": "サッポロシテイネク",
    "town": "曙十条",
    "town_kana": "アケボノ10ジョウ",
    "street": null,
    "office_name": null,
    "office_name_kana": null
  },
  "0841": {
    "zip_code": "0060841",
    "prefecture": "北海道",
    "prefecture_kana": "ホッカイドウ",
    "prefecture_code": "1",
    "city": "札幌市手稲区",
    "city_kana": "サッポロシテイネク",
    "town": "曙十一条",
    "town_kana": "アケボノ11ジョウ",
    "street": null,
    "office_name": null,
    "office_name_kana": null
  },
  "0842": {
    "zip_code": "0060842",
    "prefecture": "北海道",
    "prefecture_kana": "ホッカイドウ",
    "prefecture_code": "1",
    "city": "札幌市手稲区",
    "city_kana": "サッポロシテイネク",
    "town": "曙十二条",
    "town_kana": "アケボノ12ジョウ",
    "street": null,
    "office_name": null,
    "office_name_kana": null
  },
  "0851": {
    "zip_code": "0060851",
    "prefecture": "北海道",
    "prefecture_kana": "ホッカイドウ",
    "prefecture_code": "1",
    "city": "札幌市手稲区",
    "city_kana": "サッポロシテイネク",
    "town": "星置一条",
    "town_kana": "ホシオキ1ジョウ",
    "street": null,
    "office_name": null,
    "office_name_kana": null
  },
  "0852": {
    "zip_code": "0060852",
    "prefecture": "北海道",
    "prefecture_kana": "ホッカイドウ",
    "prefecture_code": "1",
    "city": "札幌市手稲区",
    "city_kana": "サッポロシテイネク",
    "town": "星置二条",
    "town_kana": "ホシオキ2ジョウ",
    "street": null,
    "office_name": null,
    "office_name_kana": null
  },
  "0853": {
    "zip_code": "0060853",
    "prefecture": "北海道",
    "prefecture_kana": "ホッカイドウ",
    "prefecture_code": "1",
    "city": "札幌市手稲区",
    "city_kana": "サッポロシテイネク",
    "town": "星置三条",
    "town_kana": "ホシオキ3ジョウ",
    "street": null,
    "office_name": null,
    "office_name_kana": null
  },
  "0859": {
    "zip_code": "0060859",
    "prefecture": "北海道",
    "prefecture_kana": "ホッカイドウ",
    "prefecture_code": "1",
    "city": "札幌市手稲区",
    "city_kana": "サッポロシテイネク",
    "town": "手稲星置",
    "town_kana": "テイネホシオキ",
    "street": null,
    "office_name": null,
    "office_name_kana": null
  },
  "0860": {
    "zip_code": "0060860",
    "prefecture": "北海道",
    "prefecture_kana": "ホッカイドウ",
    "prefecture_code": "1",
    "city": "札幌市手稲区",
    "city_kana": "サッポロシテイネク",
    "town": "手稲山口",
    "town_kana": "テイネヤマグチ",
    "street": null,
    "office_name": null,
    "office_name_kana": null
  },
  "0861": {
    "zip_code": "0060861",
    "prefecture": "北海道",
    "prefecture_kana": "ホッカイドウ",
    "prefecture_code": "1",
    "city": "札幌市手稲区",
    "city_kana": "サッポロシテイネク",
    "town": "明日風",
    "town_kana": "アスカゼ",
    "street": null,
    "office_name": null,
    "office_name_kana": null
  },
  "8555": {
    "zip_code": "0068555",
    "prefecture": "北海道",
    "prefecture_kana": "ホッカイドウ",
    "prefecture_code": "1",
    "city": "札幌市手稲区",
    "city_kana": "サッポロシテイネク",
    "town": "前田一条",
    "town_kana": "マエダ1ジョウ",
    "street": "１２丁目１−４０",
    "office_name": "医療法人　渓仁会　手稲渓仁会病院",
    "office_name_kana": "イリヨウホウジン ケイジンカイ テイネケイジンカイビヨウイン"
  },
  "8561": {
    "zip_code": "0068561",
    "prefecture": "北海道",
    "prefecture_kana": "ホッカイドウ",
    "prefecture_code": "1",
    "city": "札幌市手稲区",
    "city_kana": "サッポロシテイネク",
    "town": "星置南",
    "town_kana": "ホシオキミナミ",
    "street": "４丁目４３番８号",
    "office_name": "株式会社　ムトウ　ＳＰＤセンター",
    "office_name_kana": "カブシキガイシヤ ムトウ エスピイデイセンタ-"
  },
  "8585": {
    "zip_code": "0068585",
    "prefecture": "北海道",
    "prefecture_kana": "ホッカイドウ",
    "prefecture_code": "1",
    "city": "札幌市手稲区",
    "city_kana": "サッポロシテイネク",
    "town": "前田七条",
    "town_kana": "マエダ7ジョウ",
    "street": "１５丁目４番１号",
    "office_name": "北海道工業大学",
    "office_name_kana": "ホツカイドウコウギヨウダイガク"
  },
  "8590": {
    "zip_code": "0068590",
    "prefecture": "北海道",
    "prefecture_kana": "ホッカイドウ",
    "prefecture_code": "1",
    "city": "札幌市手稲区",
    "city_kana": "サッポロシテイネク",
    "town": "前田七条",
    "town_kana": "マエダ7ジョウ",
    "street": "１５丁目４番１号",
    "office_name": "北海道薬科大学",
    "office_name_kana": "ホツカイドウヤツカダイガク"
  },
  "8612": {
    "zip_code": "0068612",
    "prefecture": "北海道",
    "prefecture_kana": "ホッカイドウ",
    "prefecture_code": "1",
    "city": "札幌市手稲区",
    "city_kana": "サッポロシテイネク",
    "town": "前田一条",
    "town_kana": "マエダ1ジョウ",
    "street": "１１丁目",
    "office_name": "札幌市手稲区役所",
    "office_name_kana": "サツポロシテイネクヤクシヨ"
  }
}