{
  "0000": {
    "zip_code": "0150000",
    "prefecture": "秋田県",
    "prefecture_kana": "アキタケン",
    "prefecture_code": 5,
    "city": "由利本荘市",
    "city_kana": "ユリホンジョウシ",
    "town": "",
    "town_kana": "",
    "street": null,
    "office_name": null,
    "office_name_kana": null
  },
  "0011": {
    "zip_code": "0150011",
    "prefecture": "秋田県",
    "prefecture_kana": "アキタケン",
    "prefecture_code": 5,
    "city": "由利本荘市",
    "city_kana": "ユリホンジョウシ",
    "town": "石脇",
    "town_kana": "イシワキ",
    "street": null,
    "office_name": null,
    "office_name_kana": null
  },
  "0012": [
    {
      "zip_code": "0150012",
      "prefecture": "秋田県",
      "prefecture_kana": "アキタケン",
      "prefecture_code": 5,
      "city": "由利本荘市",
      "city_kana": "ユリホンジョウシ",
      "town": "石脇",
      "town_kana": "イシワキ",
      "street": null,
      "office_name": null,
      "office_name_kana": null
    },
    {
      "zip_code": "0150012",
      "prefecture": "秋田県",
      "prefecture_kana": "アキタケン",
      "prefecture_code": 5,
      "city": "由利本荘市",
      "city_kana": "ユリホンジョウシ",
      "town": "石脇田尻",
      "town_kana": "イシワキタジリ",
      "street": null,
      "office_name": null,
      "office_name_kana": null
    }
  ],
  "0013": [
    {
      "zip_code": "0150013",
      "prefecture": "秋田県",
      "prefecture_kana": "アキタケン",
      "prefecture_code": 5,
      "city": "由利本荘市",
      "city_kana": "ユリホンジョウシ",
      "town": "石脇",
      "town_kana": "イシワキ",
      "street": null,
      "office_name": null,
      "office_name_kana": null
    },
    {
      "zip_code": "0150013",
      "prefecture": "秋田県",
      "prefecture_kana": "アキタケン",
      "prefecture_code": 5,
      "city": "由利本荘市",
      "city_kana": "ユリホンジョウシ",
      "town": "石脇田尻野",
      "town_kana": "イシワキタジリノ",
      "street": null,
      "office_name": null,
      "office_name_kana": null
    }
  ],
  "0014": [
    {
      "zip_code": "0150014",
      "prefecture": "秋田県",
      "prefecture_kana": "アキタケン",
      "prefecture_code": 5,
      "city": "由利本荘市",
      "city_kana": "ユリホンジョウシ",
      "town": "石脇",
      "town_kana": "イシワキ",
      "street": null,
      "office_name": null,
      "office_name_kana": null
    },
    {
      "zip_code": "0150014",
      "prefecture": "秋田県",
      "prefecture_kana": "アキタケン",
      "prefecture_code": 5,
      "city": "由利本荘市",
      "city_kana": "ユリホンジョウシ",
      "town": "石脇山ノ神",
      "town_kana": "イシワキヤマノカミ",
      "street": null,
      "office_name": null,
      "office_name_kana": null
    }
  ],
  "0021": {
    "zip_code": "0150021",
    "prefecture": "秋田県",
    "prefecture_kana": "アキタケン",
    "prefecture_code": 5,
    "city": "由利本荘市",
    "city_kana": "ユリホンジョウシ",
    "town": "大浦",
    "town_kana": "オオラ",
    "street": null,
    "office_name": null,
    "office_name_kana": null
  },
  "0022": {
    "zip_code": "0150022",
    "prefecture": "秋田県",
    "prefecture_kana": "アキタケン",
    "prefecture_code": 5,
    "city": "由利本荘市",
    "city_kana": "ユリホンジョウシ",
    "town": "内黒瀬",
    "town_kana": "ウチクロセ",
    "street": null,
    "office_name": null,
    "office_name_kana": null
  },
  "0023": {
    "zip_code": "0150023",
    "prefecture": "秋田県",
    "prefecture_kana": "アキタケン",
    "prefecture_code": 5,
    "city": "由利本荘市",
    "city_kana": "ユリホンジョウシ",
    "town": "赤田",
    "town_kana": "アカタ",
    "street": null,
    "office_name": null,
    "office_name_kana": null
  },
  "0024": {
    "zip_code": "0150024",
    "prefecture": "秋田県",
    "prefecture_kana": "アキタケン",
    "prefecture_code": 5,
    "city": "由利本荘市",
    "city_kana": "ユリホンジョウシ",
    "town": "内越",
    "town_kana": "ウテツ",
    "street": null,
    "office_name": null,
    "office_name_kana": null
  },
  "0025": {
    "zip_code": "0150025",
    "prefecture": "秋田県",
    "prefecture_kana": "アキタケン",
    "prefecture_code": 5,
    "city": "由利本荘市",
    "city_kana": "ユリホンジョウシ",
    "town": "山田",
    "town_kana": "ヤマダ",
    "street": null,
    "office_name": null,
    "office_name_kana": null
  },
  "0031": {
    "zip_code": "0150031",
    "prefecture": "秋田県",
    "prefecture_kana": "アキタケン",
    "prefecture_code": 5,
    "city": "由利本荘市",
    "city_kana": "ユリホンジョウシ",
    "town": "浜三川",
    "town_kana": "ハマサンカワ",
    "street": null,
    "office_name": null,
    "office_name_kana": null
  },
  "0032": {
    "zip_code": "0150032",
    "prefecture": "秋田県",
    "prefecture_kana": "アキタケン",
    "prefecture_code": 5,
    "city": "由利本荘市",
    "city_kana": "ユリホンジョウシ",
    "town": "松ケ崎",
    "town_kana": "マツガサキ",
    "street": null,
    "office_name": null,
    "office_name_kana": null
  },
  "0033": {
    "zip_code": "0150033",
    "prefecture": "秋田県",
    "prefecture_kana": "アキタケン",
    "prefecture_code": 5,
    "city": "由利本荘市",
    "city_kana": "ユリホンジョウシ",
    "town": "神沢",
    "town_kana": "シンノサワ",
    "street": null,
    "office_name": null,
    "office_name_kana": null
  },
  "0034": {
    "zip_code": "0150034",
    "prefecture": "秋田県",
    "prefecture_kana": "アキタケン",
    "prefecture_code": 5,
    "city": "由利本荘市",
    "city_kana": "ユリホンジョウシ",
    "town": "芦川",
    "town_kana": "アシカワ",
    "street": null,
    "office_name": null,
    "office_name_kana": null
  },
  "0035": {
    "zip_code": "0150035",
    "prefecture": "秋田県",
    "prefecture_kana": "アキタケン",
    "prefecture_code": 5,
    "city": "由利本荘市",
    "city_kana": "ユリホンジョウシ",
    "town": "親川",
    "town_kana": "オヤカワ",
    "street": null,
    "office_name": null,
    "office_name_kana": null
  },
  "0041": {
    "zip_code": "0150041",
    "prefecture": "秋田県",
    "prefecture_kana": "アキタケン",
    "prefecture_code": 5,
    "city": "由利本荘市",
    "city_kana": "ユリホンジョウシ",
    "town": "薬師堂",
    "town_kana": "ヤクシドウ",
    "street": null,
    "office_name": null,
    "office_name_kana": null
  },
  "0042": {
    "zip_code": "0150042",
    "prefecture": "秋田県",
    "prefecture_kana": "アキタケン",
    "prefecture_code": 5,
    "city": "由利本荘市",
    "city_kana": "ユリホンジョウシ",
    "town": "埋田",
    "town_kana": "ウメダ",
    "street": null,
    "office_name": null,
    "office_name_kana": null
  },
  "0043": {
    "zip_code": "0150043",
    "prefecture": "秋田県",
    "prefecture_kana": "アキタケン",
    "prefecture_code": 5,
    "city": "由利本荘市",
    "city_kana": "ユリホンジョウシ",
    "town": "宮内",
    "town_kana": "ミヤウチ",
    "street": null,
    "office_name": null,
    "office_name_kana": null
  },
  "0044": {
    "zip_code": "0150044",
    "prefecture": "秋田県",
    "prefecture_kana": "アキタケン",
    "prefecture_code": 5,
    "city": "由利本荘市",
    "city_kana": "ユリホンジョウシ",
    "town": "玉ノ池",
    "town_kana": "タマノイケ",
    "street": null,
    "office_name": null,
    "office_name_kana": null
  },
  "0045": {
    "zip_code": "0150045",
    "prefecture": "秋田県",
    "prefecture_kana": "アキタケン",
    "prefecture_code": 5,
    "city": "由利本荘市",
    "city_kana": "ユリホンジョウシ",
    "town": "葛法",
    "town_kana": "クズノリ",
    "street": null,
    "office_name": null,
    "office_name_kana": null
  },
  "0046": {
    "zip_code": "0150046",
    "prefecture": "秋田県",
    "prefecture_kana": "アキタケン",
    "prefecture_code": 5,
    "city": "由利本荘市",
    "city_kana": "ユリホンジョウシ",
    "town": "船岡",
    "town_kana": "フナオカ",
    "street": null,
    "office_name": null,
    "office_name_kana": null
  },
  "0047": {
    "zip_code": "0150047",
    "prefecture": "秋田県",
    "prefecture_kana": "アキタケン",
    "prefecture_code": 5,
    "city": "由利本荘市",
    "city_kana": "ユリホンジョウシ",
    "town": "藤崎",
    "town_kana": "フジサキ",
    "street": null,
    "office_name": null,
    "office_name_kana": null
  },
  "0051": {
    "zip_code": "0150051",
    "prefecture": "秋田県",
    "prefecture_kana": "アキタケン",
    "prefecture_code": 5,
    "city": "由利本荘市",
    "city_kana": "ユリホンジョウシ",
    "town": "川口",
    "town_kana": "カワグチ",
    "street": null,
    "office_name": null,
    "office_name_kana": null
  },
  "0052": {
    "zip_code": "0150052",
    "prefecture": "秋田県",
    "prefecture_kana": "アキタケン",
    "prefecture_code": 5,
    "city": "由利本荘市",
    "city_kana": "ユリホンジョウシ",
    "town": "畑谷",
    "town_kana": "ハタヤ",
    "street": null,
    "office_name": null,
    "office_name_kana": null
  },
  "0053": {
    "zip_code": "0150053",
    "prefecture": "秋田県",
    "prefecture_kana": "アキタケン",
    "prefecture_code": 5,
    "city": "由利本荘市",
    "city_kana": "ユリホンジョウシ",
    "town": "福山",
    "town_kana": "フクヤマ",
    "street": null,
    "office_name": null,
    "office_name_kana": null
  },
  "0054": [
    {
      "zip_code": "0150054",
      "prefecture": "秋田県",
      "prefecture_kana": "アキタケン",
      "prefecture_code": 5,
      "city": "由利本荘市",
      "city_kana": "ユリホンジョウシ",
      "town": "土谷",
      "town_kana": "ツチヤ",
      "street": null,
      "office_name": null,
      "office_name_kana": null
    },
    {
      "zip_code": "0150054",
      "prefecture": "秋田県",
      "prefecture_kana": "アキタケン",
      "prefecture_code": 5,
      "city": "由利本荘市",
      "city_kana": "ユリホンジョウシ",
      "town": "土谷谷地",
      "town_kana": "ツチヤヤチ",
      "street": null,
      "office_name": null,
      "office_name_kana": null
    }
  ],
  "0055": {
    "zip_code": "0150055",
    "prefecture": "秋田県",
    "prefecture_kana": "アキタケン",
    "prefecture_code": 5,
    "city": "由利本荘市",
    "city_kana": "ユリホンジョウシ",
    "town": "土谷",
    "town_kana": "ツチヤ",
    "street": null,
    "office_name": null,
    "office_name_kana": null
  },
  "0061": {
    "zip_code": "0150061",
    "prefecture": "秋田県",
    "prefecture_kana": "アキタケン",
    "prefecture_code": 5,
    "city": "由利本荘市",
    "city_kana": "ユリホンジョウシ",
    "town": "二十六木",
    "town_kana": "トドロキ",
    "street": null,
    "office_name": null,
    "office_name_kana": null
  },
  "0062": {
    "zip_code": "0150062",
    "prefecture": "秋田県",
    "prefecture_kana": "アキタケン",
    "prefecture_code": 5,
    "city": "由利本荘市",
    "city_kana": "ユリホンジョウシ",
    "town": "大中ノ沢",
    "town_kana": "オオナカノサワ",
    "street": null,
    "office_name": null,
    "office_name_kana": null
  },
  "0063": {
    "zip_code": "0150063",
    "prefecture": "秋田県",
    "prefecture_kana": "アキタケン",
    "prefecture_code": 5,
    "city": "由利本荘市",
    "city_kana": "ユリホンジョウシ",
    "town": "舘前",
    "town_kana": "タテマエ",
    "street": null,
    "office_name": null,
    "office_name_kana": null
  },
  "0064": {
    "zip_code": "0150064",
    "prefecture": "秋田県",
    "prefecture_kana": "アキタケン",
    "prefecture_code": 5,
    "city": "由利本荘市",
    "city_kana": "ユリホンジョウシ",
    "town": "万願寺",
    "town_kana": "マンガンジ",
    "street": null,
    "office_name": null,
    "office_name_kana": null
  },
  "0065": {
    "zip_code": "0150065",
    "prefecture": "秋田県",
    "prefecture_kana": "アキタケン",
    "prefecture_code": 5,
    "city": "由利本荘市",
    "city_kana": "ユリホンジョウシ",
    "town": "荒町",
    "town_kana": "アラマチ",
    "street": null,
    "office_name": null,
    "office_name_kana": null
  },
  "0066": {
    "zip_code": "0150066",
    "prefecture": "秋田県",
    "prefecture_kana": "アキタケン",
    "prefecture_code": 5,
    "city": "由利本荘市",
    "city_kana": "ユリホンジョウシ",
    "town": "金山",
    "town_kana": "カネヤマ",
    "street": null,
    "office_name": null,
    "office_name_kana": null
  },
  "0067": {
    "zip_code": "0150067",
    "prefecture": "秋田県",
    "prefecture_kana": "アキタケン",
    "prefecture_code": 5,
    "city": "由利本荘市",
    "city_kana": "ユリホンジョウシ",
    "town": "三条",
    "town_kana": "サンジョウ",
    "street": null,
    "office_name": null,
    "office_name_kana": null
  },
  "0068": {
    "zip_code": "0150068",
    "prefecture": "秋田県",
    "prefecture_kana": "アキタケン",
    "prefecture_code": 5,
    "city": "由利本荘市",
    "city_kana": "ユリホンジョウシ",
    "town": "南ノ股",
    "town_kana": "ミナミノマタ",
    "street": null,
    "office_name": null,
    "office_name_kana": null
  },
  "0069": {
    "zip_code": "0150069",
    "prefecture": "秋田県",
    "prefecture_kana": "アキタケン",
    "prefecture_code": 5,
    "city": "由利本荘市",
    "city_kana": "ユリホンジョウシ",
    "town": "北ノ股",
    "town_kana": "キタノマタ",
    "street": null,
    "office_name": null,
    "office_name_kana": null
  },
  "0071": {
    "zip_code": "0150071",
    "prefecture": "秋田県",
    "prefecture_kana": "アキタケン",
    "prefecture_code": 5,
    "city": "由利本荘市",
    "city_kana": "ユリホンジョウシ",
    "town": "赤沼町",
    "town_kana": "アカヌママチ",
    "street": null,
    "office_name": null,
    "office_name_kana": null
  },
  "0072": {
    "zip_code": "0150072",
    "prefecture": "秋田県",
    "prefecture_kana": "アキタケン",
    "prefecture_code": 5,
    "city": "由利本荘市",
    "city_kana": "ユリホンジョウシ",
    "town": "裏尾崎町",
    "town_kana": "ウラオザキマチ",
    "street": null,
    "office_name": null,
    "office_name_kana": null
  },
  "0073": {
    "zip_code": "0150073",
    "prefecture": "秋田県",
    "prefecture_kana": "アキタケン",
    "prefecture_code": 5,
    "city": "由利本荘市",
    "city_kana": "ユリホンジョウシ",
    "town": "笹道",
    "town_kana": "ササミチ",
    "street": null,
    "office_name": null,
    "office_name_kana": null
  },
  "0074": {
    "zip_code": "0150074",
    "prefecture": "秋田県",
    "prefecture_kana": "アキタケン",
    "prefecture_code": 5,
    "city": "由利本荘市",
    "city_kana": "ユリホンジョウシ",
    "town": "桜小路",
    "town_kana": "サクラコウジ",
    "street": null,
    "office_name": null,
    "office_name_kana": null
  },
  "0075": {
    "zip_code": "0150075",
    "prefecture": "秋田県",
    "prefecture_kana": "アキタケン",
    "prefecture_code": 5,
    "city": "由利本荘市",
    "city_kana": "ユリホンジョウシ",
    "town": "花畑町",
    "town_kana": "ハナバタマチ",
    "street": null,
    "office_name": null,
    "office_name_kana": null
  },
  "0076": {
    "zip_code": "0150076",
    "prefecture": "秋田県",
    "prefecture_kana": "アキタケン",
    "prefecture_code": 5,
    "city": "由利本荘市",
    "city_kana": "ユリホンジョウシ",
    "town": "東町",
    "town_kana": "ヒガシマチ",
    "street": null,
    "office_name": null,
    "office_name_kana": null
  },
  "0077": {
    "zip_code": "0150077",
    "prefecture": "秋田県",
    "prefecture_kana": "アキタケン",
    "prefecture_code": 5,
    "city": "由利本荘市",
    "city_kana": "ユリホンジョウシ",
    "town": "本田仲町",
    "town_kana": "ホンタナカマチ",
    "street": null,
    "office_name": null,
    "office_name_kana": null
  },
  "0078": {
    "zip_code": "0150078",
    "prefecture": "秋田県",
    "prefecture_kana": "アキタケン",
    "prefecture_code": 5,
    "city": "由利本荘市",
    "city_kana": "ユリホンジョウシ",
    "town": "谷地町",
    "town_kana": "ヤチマチ",
    "street": null,
    "office_name": null,
    "office_name_kana": null
  },
  "0079": {
    "zip_code": "0150079",
    "prefecture": "秋田県",
    "prefecture_kana": "アキタケン",
    "prefecture_code": 5,
    "city": "由利本荘市",
    "city_kana": "ユリホンジョウシ",
    "town": "赤沼下道",
    "town_kana": "アカヌマシタミチ",
    "street": null,
    "office_name": null,
    "office_name_kana": null
  },
  "0081": {
    "zip_code": "0150081",
    "prefecture": "秋田県",
    "prefecture_kana": "アキタケン",
    "prefecture_code": 5,
    "city": "由利本荘市",
    "city_kana": "ユリホンジョウシ",
    "town": "雪車町",
    "town_kana": "ソリマチ",
    "street": null,
    "office_name": null,
    "office_name_kana": null
  },
  "0082": {
    "zip_code": "0150082",
    "prefecture": "秋田県",
    "prefecture_kana": "アキタケン",
    "prefecture_code": 5,
    "city": "由利本荘市",
    "city_kana": "ユリホンジョウシ",
    "town": "宮沢",
    "town_kana": "ミヤザワ",
    "street": null,
    "office_name": null,
    "office_name_kana": null
  },
  "0083": {
    "zip_code": "0150083",
    "prefecture": "秋田県",
    "prefecture_kana": "アキタケン",
    "prefecture_code": 5,
    "city": "由利本荘市",
    "city_kana": "ユリホンジョウシ",
    "town": "滝ノ沢",
    "town_kana": "タキノサワ",
    "street": null,
    "office_name": null,
    "office_name_kana": null
  },
  "0084": {
    "zip_code": "0150084",
    "prefecture": "秋田県",
    "prefecture_kana": "アキタケン",
    "prefecture_code": 5,
    "city": "由利本荘市",
    "city_kana": "ユリホンジョウシ",
    "town": "鮎瀬",
    "town_kana": "アユセ",
    "street": null,
    "office_name": null,
    "office_name_kana": null
  },
  "0085": {
    "zip_code": "0150085",
    "prefecture": "秋田県",
    "prefecture_kana": "アキタケン",
    "prefecture_code": 5,
    "city": "由利本荘市",
    "city_kana": "ユリホンジョウシ",
    "town": "烏川",
    "town_kana": "カラスカワ",
    "street": null,
    "office_name": null,
    "office_name_kana": null
  },
  "0086": {
    "zip_code": "0150086",
    "prefecture": "秋田県",
    "prefecture_kana": "アキタケン",
    "prefecture_code": 5,
    "city": "由利本荘市",
    "city_kana": "ユリホンジョウシ",
    "town": "舘",
    "town_kana": "タテ",
    "street": null,
    "office_name": null,
    "office_name_kana": null
  },
  "0087": {
    "zip_code": "0150087",
    "prefecture": "秋田県",
    "prefecture_kana": "アキタケン",
    "prefecture_code": 5,
    "city": "由利本荘市",
    "city_kana": "ユリホンジョウシ",
    "town": "湯沢",
    "town_kana": "ユザワ",
    "street": null,
    "office_name": null,
    "office_name_kana": null
  },
  "0088": {
    "zip_code": "0150088",
    "prefecture": "秋田県",
    "prefecture_kana": "アキタケン",
    "prefecture_code": 5,
    "city": "由利本荘市",
    "city_kana": "ユリホンジョウシ",
    "town": "柳生",
    "town_kana": "ヤギュウ",
    "street": null,
    "office_name": null,
    "office_name_kana": null
  },
  "0089": {
    "zip_code": "0150089",
    "prefecture": "秋田県",
    "prefecture_kana": "アキタケン",
    "prefecture_code": 5,
    "city": "由利本荘市",
    "city_kana": "ユリホンジョウシ",
    "town": "鳥田目",
    "town_kana": "トリタメ",
    "street": null,
    "office_name": null,
    "office_name_kana": null
  },
  "0091": {
    "zip_code": "0150091",
    "prefecture": "秋田県",
    "prefecture_kana": "アキタケン",
    "prefecture_code": 5,
    "city": "由利本荘市",
    "city_kana": "ユリホンジョウシ",
    "town": "大簗",
    "town_kana": "オオヤナ",
    "street": null,
    "office_name": null,
    "office_name_kana": null
  },
  "0092": {
    "zip_code": "0150092",
    "prefecture": "秋田県",
    "prefecture_kana": "アキタケン",
    "prefecture_code": 5,
    "city": "由利本荘市",
    "city_kana": "ユリホンジョウシ",
    "town": "山内",
    "town_kana": "ヤマウチ",
    "street": null,
    "office_name": null,
    "office_name_kana": null
  },
  "0093": {
    "zip_code": "0150093",
    "prefecture": "秋田県",
    "prefecture_kana": "アキタケン",
    "prefecture_code": 5,
    "city": "由利本荘市",
    "city_kana": "ユリホンジョウシ",
    "town": "大沢",
    "town_kana": "オオサワ",
    "street": null,
    "office_name": null,
    "office_name_kana": null
  },
  "0094": {
    "zip_code": "0150094",
    "prefecture": "秋田県",
    "prefecture_kana": "アキタケン",
    "prefecture_code": 5,
    "city": "由利本荘市",
    "city_kana": "ユリホンジョウシ",
    "town": "上野",
    "town_kana": "ウワノ",
    "street": null,
    "office_name": null,
    "office_name_kana": null
  },
  "0201": {
    "zip_code": "0150201",
    "prefecture": "秋田県",
    "prefecture_kana": "アキタケン",
    "prefecture_code": 5,
    "city": "由利本荘市",
    "city_kana": "ユリホンジョウシ",
    "town": "東由利法内",
    "town_kana": "ヒガシユリホウナイ",
    "street": null,
    "office_name": null,
    "office_name_kana": null
  },
  "0202": {
    "zip_code": "0150202",
    "prefecture": "秋田県",
    "prefecture_kana": "アキタケン",
    "prefecture_code": 5,
    "city": "由利本荘市",
    "city_kana": "ユリホンジョウシ",
    "town": "東由利蔵",
    "town_kana": "ヒガシユリクラ",
    "street": null,
    "office_name": null,
    "office_name_kana": null
  },
  "0211": {
    "zip_code": "0150211",
    "prefecture": "秋田県",
    "prefecture_kana": "アキタケン",
    "prefecture_code": 5,
    "city": "由利本荘市",
    "city_kana": "ユリホンジョウシ",
    "town": "東由利老方",
    "town_kana": "ヒガシユリオイカタ",
    "street": null,
    "office_name": null,
    "office_name_kana": null
  },
  "0221": {
    "zip_code": "0150221",
    "prefecture": "秋田県",
    "prefecture_kana": "アキタケン",
    "prefecture_code": 5,
    "city": "由利本荘市",
    "city_kana": "ユリホンジョウシ",
    "town": "東由利舘合",
    "town_kana": "ヒガシユリタテアイ",
    "street": null,
    "office_name": null,
    "office_name_kana": null
  },
  "0231": {
    "zip_code": "0150231",
    "prefecture": "秋田県",
    "prefecture_kana": "アキタケン",
    "prefecture_code": 5,
    "city": "由利本荘市",
    "city_kana": "ユリホンジョウシ",
    "town": "東由利黒渕",
    "town_kana": "ヒガシユリクロブチ",
    "street": null,
    "office_name": null,
    "office_name_kana": null
  },
  "0232": {
    "zip_code": "0150232",
    "prefecture": "秋田県",
    "prefecture_kana": "アキタケン",
    "prefecture_code": 5,
    "city": "由利本荘市",
    "city_kana": "ユリホンジョウシ",
    "town": "東由利田代",
    "town_kana": "ヒガシユリタシロ",
    "street": null,
    "office_name": null,
    "office_name_kana": null
  },
  "0241": {
    "zip_code": "0150241",
    "prefecture": "秋田県",
    "prefecture_kana": "アキタケン",
    "prefecture_code": 5,
    "city": "由利本荘市",
    "city_kana": "ユリホンジョウシ",
    "town": "東由利宿",
    "town_kana": "ヒガシユリシュク",
    "street": null,
    "office_name": null,
    "office_name_kana": null
  },
  "0242": {
    "zip_code": "0150242",
    "prefecture": "秋田県",
    "prefecture_kana": "アキタケン",
    "prefecture_code": 5,
    "city": "由利本荘市",
    "city_kana": "ユリホンジョウシ",
    "town": "東由利杉森",
    "town_kana": "ヒガシユリスギモリ",
    "street": null,
    "office_name": null,
    "office_name_kana": null
  },
  "0243": [
    {
      "zip_code": "0150243",
      "prefecture": "秋田県",
      "prefecture_kana": "アキタケン",
      "prefecture_code": 5,
      "city": "由利本荘市",
      "city_kana": "ユリホンジョウシ",
      "town": "山内",
      "town_kana": "ヤマウチ",
      "street": null,
      "office_name": null,
      "office_name_kana": null
    },
    {
      "zip_code": "0150243",
      "prefecture": "秋田県",
      "prefecture_kana": "アキタケン",
      "prefecture_code": 5,
      "city": "由利本荘市",
      "city_kana": "ユリホンジョウシ",
      "town": "山内三ツ方森",
      "town_kana": "ヤマウチミツカタモリ",
      "street": null,
      "office_name": null,
      "office_name_kana": null
    }
  ],
  "0295": {
    "zip_code": "0150295",
    "prefecture": "秋田県",
    "prefecture_kana": "アキタケン",
    "prefecture_code": 5,
    "city": "由利本荘市",
    "city_kana": "ユリホンジョウシ",
    "town": "東由利老方",
    "town_kana": "ヒガシユリオイカタ",
    "street": "字橋脇１１２",
    "office_name": "由利本荘市　東由利総合支所",
    "office_name_kana": "ユリホンジヨウシヒガシユリソウゴウシシヨ"
  },
  "0301": {
    "zip_code": "0150301",
    "prefecture": "秋田県",
    "prefecture_kana": "アキタケン",
    "prefecture_code": 5,
    "city": "由利本荘市",
    "city_kana": "ユリホンジョウシ",
    "town": "飯沢",
    "town_kana": "イイザワ",
    "street": null,
    "office_name": null,
    "office_name_kana": null
  },
  "0302": {
    "zip_code": "0150302",
    "prefecture": "秋田県",
    "prefecture_kana": "アキタケン",
    "prefecture_code": 5,
    "city": "由利本荘市",
    "city_kana": "ユリホンジョウシ",
    "town": "久保田",
    "town_kana": "クボタ",
    "street": null,
    "office_name": null,
    "office_name_kana": null
  },
  "0303": {
    "zip_code": "0150303",
    "prefecture": "秋田県",
    "prefecture_kana": "アキタケン",
    "prefecture_code": 5,
    "city": "由利本荘市",
    "city_kana": "ユリホンジョウシ",
    "town": "陳ケ森",
    "town_kana": "ジンガモリ",
    "street": null,
    "office_name": null,
    "office_name_kana": null
  },
  "0304": {
    "zip_code": "0150304",
    "prefecture": "秋田県",
    "prefecture_kana": "アキタケン",
    "prefecture_code": 5,
    "city": "由利本荘市",
    "city_kana": "ユリホンジョウシ",
    "town": "曲沢",
    "town_kana": "マガリサワ",
    "street": null,
    "office_name": null,
    "office_name_kana": null
  },
  "0311": {
    "zip_code": "0150311",
    "prefecture": "秋田県",
    "prefecture_kana": "アキタケン",
    "prefecture_code": 5,
    "city": "由利本荘市",
    "city_kana": "ユリホンジョウシ",
    "town": "五十土",
    "town_kana": "イカヅチ",
    "street": null,
    "office_name": null,
    "office_name_kana": null
  },
  "0312": {
    "zip_code": "0150312",
    "prefecture": "秋田県",
    "prefecture_kana": "アキタケン",
    "prefecture_code": 5,
    "city": "由利本荘市",
    "city_kana": "ユリホンジョウシ",
    "town": "大水口",
    "town_kana": "オオミナクチ",
    "street": null,
    "office_name": null,
    "office_name_kana": null
  },
  "0313": {
    "zip_code": "0150313",
    "prefecture": "秋田県",
    "prefecture_kana": "アキタケン",
    "prefecture_code": 5,
    "city": "由利本荘市",
    "city_kana": "ユリホンジョウシ",
    "town": "小菅野",
    "town_kana": "コスガノ",
    "street": null,
    "office_name": null,
    "office_name_kana": null
  },
  "0314": {
    "zip_code": "0150314",
    "prefecture": "秋田県",
    "prefecture_kana": "アキタケン",
    "prefecture_code": 5,
    "city": "由利本荘市",
    "city_kana": "ユリホンジョウシ",
    "town": "東中沢",
    "town_kana": "ヒガシナカザワ",
    "street": null,
    "office_name": null,
    "office_name_kana": null
  },
  "0321": {
    "zip_code": "0150321",
    "prefecture": "秋田県",
    "prefecture_kana": "アキタケン",
    "prefecture_code": 5,
    "city": "由利本荘市",
    "city_kana": "ユリホンジョウシ",
    "town": "蟹沢",
    "town_kana": "カニザワ",
    "street": null,
    "office_name": null,
    "office_name_kana": null
  },
  "0322": {
    "zip_code": "0150322",
    "prefecture": "秋田県",
    "prefecture_kana": "アキタケン",
    "prefecture_code": 5,
    "city": "由利本荘市",
    "city_kana": "ユリホンジョウシ",
    "town": "新上条",
    "town_kana": "シンカミジョウ",
    "street": null,
    "office_name": null,
    "office_name_kana": null
  },
  "0323": {
    "zip_code": "0150323",
    "prefecture": "秋田県",
    "prefecture_kana": "アキタケン",
    "prefecture_code": 5,
    "city": "由利本荘市",
    "city_kana": "ユリホンジョウシ",
    "town": "土倉",
    "town_kana": "ツチクラ",
    "street": null,
    "office_name": null,
    "office_name_kana": null
  },
  "0324": {
    "zip_code": "0150324",
    "prefecture": "秋田県",
    "prefecture_kana": "アキタケン",
    "prefecture_code": 5,
    "city": "由利本荘市",
    "city_kana": "ユリホンジョウシ",
    "town": "吉沢",
    "town_kana": "ヨシザワ",
    "street": null,
    "office_name": null,
    "office_name_kana": null
  },
  "0331": {
    "zip_code": "0150331",
    "prefecture": "秋田県",
    "prefecture_kana": "アキタケン",
    "prefecture_code": 5,
    "city": "由利本荘市",
    "city_kana": "ユリホンジョウシ",
    "town": "川西",
    "town_kana": "カワニシ",
    "street": null,
    "office_name": null,
    "office_name_kana": null
  },
  "0332": {
    "zip_code": "0150332",
    "prefecture": "秋田県",
    "prefecture_kana": "アキタケン",
    "prefecture_code": 5,
    "city": "由利本荘市",
    "city_kana": "ユリホンジョウシ",
    "town": "森子",
    "town_kana": "モリコ",
    "street": null,
    "office_name": null,
    "office_name_kana": null
  },
  "0333": {
    "zip_code": "0150333",
    "prefecture": "秋田県",
    "prefecture_kana": "アキタケン",
    "prefecture_code": 5,
    "city": "由利本荘市",
    "city_kana": "ユリホンジョウシ",
    "town": "山本",
    "town_kana": "ヤマモト",
    "street": null,
    "office_name": null,
    "office_name_kana": null
  },
  "0341": {
    "zip_code": "0150341",
    "prefecture": "秋田県",
    "prefecture_kana": "アキタケン",
    "prefecture_code": 5,
    "city": "由利本荘市",
    "city_kana": "ユリホンジョウシ",
    "town": "前郷",
    "town_kana": "マエゴウ",
    "street": null,
    "office_name": null,
    "office_name_kana": null
  },
  "0351": {
    "zip_code": "0150351",
    "prefecture": "秋田県",
    "prefecture_kana": "アキタケン",
    "prefecture_code": 5,
    "city": "由利本荘市",
    "city_kana": "ユリホンジョウシ",
    "town": "堰口",
    "town_kana": "セキグチ",
    "street": null,
    "office_name": null,
    "office_name_kana": null
  },
  "0352": {
    "zip_code": "0150352",
    "prefecture": "秋田県",
    "prefecture_kana": "アキタケン",
    "prefecture_code": 5,
    "city": "由利本荘市",
    "city_kana": "ユリホンジョウシ",
    "town": "西沢",
    "town_kana": "ニシサワ",
    "street": null,
    "office_name": null,
    "office_name_kana": null
  },
  "0353": {
    "zip_code": "0150353",
    "prefecture": "秋田県",
    "prefecture_kana": "アキタケン",
    "prefecture_code": 5,
    "city": "由利本荘市",
    "city_kana": "ユリホンジョウシ",
    "town": "平石",
    "town_kana": "ヒライシ",
    "street": null,
    "office_name": null,
    "office_name_kana": null
  },
  "0361": {
    "zip_code": "0150361",
    "prefecture": "秋田県",
    "prefecture_kana": "アキタケン",
    "prefecture_code": 5,
    "city": "由利本荘市",
    "city_kana": "ユリホンジョウシ",
    "town": "黒沢",
    "town_kana": "クロサワ",
    "street": null,
    "office_name": null,
    "office_name_kana": null
  },
  "0362": {
    "zip_code": "0150362",
    "prefecture": "秋田県",
    "prefecture_kana": "アキタケン",
    "prefecture_code": 5,
    "city": "由利本荘市",
    "city_kana": "ユリホンジョウシ",
    "town": "東鮎川",
    "town_kana": "ヒガシアユカワ",
    "street": null,
    "office_name": null,
    "office_name_kana": null
  },
  "0363": {
    "zip_code": "0150363",
    "prefecture": "秋田県",
    "prefecture_kana": "アキタケン",
    "prefecture_code": 5,
    "city": "由利本荘市",
    "city_kana": "ユリホンジョウシ",
    "town": "町村",
    "town_kana": "マチムラ",
    "street": null,
    "office_name": null,
    "office_name_kana": null
  },
  "0364": {
    "zip_code": "0150364",
    "prefecture": "秋田県",
    "prefecture_kana": "アキタケン",
    "prefecture_code": 5,
    "city": "由利本荘市",
    "city_kana": "ユリホンジョウシ",
    "town": "南福田",
    "town_kana": "ミナミフクダ",
    "street": null,
    "office_name": null,
    "office_name_kana": null
  },
  "0401": {
    "zip_code": "0150401",
    "prefecture": "秋田県",
    "prefecture_kana": "アキタケン",
    "prefecture_code": 5,
    "city": "由利本荘市",
    "city_kana": "ユリホンジョウシ",
    "town": "矢島町田中町",
    "town_kana": "ヤシママチタナカマチ",
    "street": null,
    "office_name": null,
    "office_name_kana": null
  },
  "0402": {
    "zip_code": "0150402",
    "prefecture": "秋田県",
    "prefecture_kana": "アキタケン",
    "prefecture_code": 5,
    "city": "由利本荘市",
    "city_kana": "ユリホンジョウシ",
    "town": "矢島町矢島町",
    "town_kana": "ヤシママチヤシママチ",
    "street": null,
    "office_name": null,
    "office_name_kana": null
  },
  "0403": {
    "zip_code": "0150403",
    "prefecture": "秋田県",
    "prefecture_kana": "アキタケン",
    "prefecture_code": 5,
    "city": "由利本荘市",
    "city_kana": "ユリホンジョウシ",
    "town": "矢島町舘町",
    "town_kana": "ヤシママチタテマチ",
    "street": null,
    "office_name": null,
    "office_name_kana": null
  },
  "0404": {
    "zip_code": "0150404",
    "prefecture": "秋田県",
    "prefecture_kana": "アキタケン",
    "prefecture_code": 5,
    "city": "由利本荘市",
    "city_kana": "ユリホンジョウシ",
    "town": "矢島町七日町",
    "town_kana": "ヤシママチナノカマチ",
    "street": null,
    "office_name": null,
    "office_name_kana": null
  },
  "0411": {
    "zip_code": "0150411",
    "prefecture": "秋田県",
    "prefecture_kana": "アキタケン",
    "prefecture_code": 5,
    "city": "由利本荘市",
    "city_kana": "ユリホンジョウシ",
    "town": "矢島町城内",
    "town_kana": "ヤシママチジョウナイ",
    "street": null,
    "office_name": null,
    "office_name_kana": null
  },
  "0412": {
    "zip_code": "0150412",
    "prefecture": "秋田県",
    "prefecture_kana": "アキタケン",
    "prefecture_code": 5,
    "city": "由利本荘市",
    "city_kana": "ユリホンジョウシ",
    "town": "矢島町川辺",
    "town_kana": "ヤシママチカワベ",
    "street": null,
    "office_name": null,
    "office_name_kana": null
  },
  "0413": {
    "zip_code": "0150413",
    "prefecture": "秋田県",
    "prefecture_kana": "アキタケン",
    "prefecture_code": 5,
    "city": "由利本荘市",
    "city_kana": "ユリホンジョウシ",
    "town": "矢島町木在",
    "town_kana": "ヤシママチキサラ",
    "street": null,
    "office_name": null,
    "office_name_kana": null
  },
  "0414": {
    "zip_code": "0150414",
    "prefecture": "秋田県",
    "prefecture_kana": "アキタケン",
    "prefecture_code": 5,
    "city": "由利本荘市",
    "city_kana": "ユリホンジョウシ",
    "town": "矢島町立石",
    "town_kana": "ヤシママチタテイシ",
    "street": null,
    "office_name": null,
    "office_name_kana": null
  },
  "0415": {
    "zip_code": "0150415",
    "prefecture": "秋田県",
    "prefecture_kana": "アキタケン",
    "prefecture_code": 5,
    "city": "由利本荘市",
    "city_kana": "ユリホンジョウシ",
    "town": "矢島町新荘",
    "town_kana": "ヤシママチシンジョウ",
    "street": null,
    "office_name": null,
    "office_name_kana": null
  },
  "0416": {
    "zip_code": "0150416",
    "prefecture": "秋田県",
    "prefecture_kana": "アキタケン",
    "prefecture_code": 5,
    "city": "由利本荘市",
    "city_kana": "ユリホンジョウシ",
    "town": "矢島町坂之下",
    "town_kana": "ヤシママチサカノシタ",
    "street": null,
    "office_name": null,
    "office_name_kana": null
  },
  "0417": {
    "zip_code": "0150417",
    "prefecture": "秋田県",
    "prefecture_kana": "アキタケン",
    "prefecture_code": 5,
    "city": "由利本荘市",
    "city_kana": "ユリホンジョウシ",
    "town": "矢島町元町",
    "town_kana": "ヤシママチモトマチ",
    "street": null,
    "office_name": null,
    "office_name_kana": null
  },
  "0418": {
    "zip_code": "0150418",
    "prefecture": "秋田県",
    "prefecture_kana": "アキタケン",
    "prefecture_code": 5,
    "city": "由利本荘市",
    "city_kana": "ユリホンジョウシ",
    "town": "矢島町荒沢",
    "town_kana": "ヤシママチアラサワ",
    "street": null,
    "office_name": null,
    "office_name_kana": null
  },
  "0501": {
    "zip_code": "0150501",
    "prefecture": "秋田県",
    "prefecture_kana": "アキタケン",
    "prefecture_code": 5,
    "city": "由利本荘市",
    "city_kana": "ユリホンジョウシ",
    "town": "鳥海町伏見",
    "town_kana": "チョウカイマチフシミ",
    "street": null,
    "office_name": null,
    "office_name_kana": null
  },
  "0502": {
    "zip_code": "0150502",
    "prefecture": "秋田県",
    "prefecture_kana": "アキタケン",
    "prefecture_code": 5,
    "city": "由利本荘市",
    "city_kana": "ユリホンジョウシ",
    "town": "鳥海町下川内",
    "town_kana": "チョウカイマチシモカワウチ",
    "street": null,
    "office_name": null,
    "office_name_kana": null
  },
  "0503": {
    "zip_code": "0150503",
    "prefecture": "秋田県",
    "prefecture_kana": "アキタケン",
    "prefecture_code": 5,
    "city": "由利本荘市",
    "city_kana": "ユリホンジョウシ",
    "town": "鳥海町栗沢",
    "town_kana": "チョウカイマチクリサワ",
    "street": null,
    "office_name": null,
    "office_name_kana": null
  },
  "0504": {
    "zip_code": "0150504",
    "prefecture": "秋田県",
    "prefecture_kana": "アキタケン",
    "prefecture_code": 5,
    "city": "由利本荘市",
    "city_kana": "ユリホンジョウシ",
    "town": "鳥海町上川内",
    "town_kana": "チョウカイマチカミカワウチ",
    "street": null,
    "office_name": null,
    "office_name_kana": null
  },
  "0505": {
    "zip_code": "0150505",
    "prefecture": "秋田県",
    "prefecture_kana": "アキタケン",
    "prefecture_code": 5,
    "city": "由利本荘市",
    "city_kana": "ユリホンジョウシ",
    "town": "鳥海町小川",
    "town_kana": "チョウカイマチコガワ",
    "street": null,
    "office_name": null,
    "office_name_kana": null
  },
  "0511": {
    "zip_code": "0150511",
    "prefecture": "秋田県",
    "prefecture_kana": "アキタケン",
    "prefecture_code": 5,
    "city": "由利本荘市",
    "city_kana": "ユリホンジョウシ",
    "town": "鳥海町戈之神",
    "town_kana": "チョウカイマチサイノカミ",
    "street": null,
    "office_name": null,
    "office_name_kana": null
  },
  "0512": {
    "zip_code": "0150512",
    "prefecture": "秋田県",
    "prefecture_kana": "アキタケン",
    "prefecture_code": 5,
    "city": "由利本荘市",
    "city_kana": "ユリホンジョウシ",
    "town": "鳥海町猿倉",
    "town_kana": "チョウカイマチサルクラ",
    "street": null,
    "office_name": null,
    "office_name_kana": null
  },
  "0513": {
    "zip_code": "0150513",
    "prefecture": "秋田県",
    "prefecture_kana": "アキタケン",
    "prefecture_code": 5,
    "city": "由利本荘市",
    "city_kana": "ユリホンジョウシ",
    "town": "鳥海町下直根",
    "town_kana": "チョウカイマチシモヒタネ",
    "street": null,
    "office_name": null,
    "office_name_kana": null
  },
  "0514": {
    "zip_code": "0150514",
    "prefecture": "秋田県",
    "prefecture_kana": "アキタケン",
    "prefecture_code": 5,
    "city": "由利本荘市",
    "city_kana": "ユリホンジョウシ",
    "town": "鳥海町中直根",
    "town_kana": "チョウカイマチナカヒタネ",
    "street": null,
    "office_name": null,
    "office_name_kana": null
  },
  "0515": {
    "zip_code": "0150515",
    "prefecture": "秋田県",
    "prefecture_kana": "アキタケン",
    "prefecture_code": 5,
    "city": "由利本荘市",
    "city_kana": "ユリホンジョウシ",
    "town": "鳥海町上直根",
    "town_kana": "チョウカイマチカミヒタネ",
    "street": null,
    "office_name": null,
    "office_name_kana": null
  },
  "0516": {
    "zip_code": "0150516",
    "prefecture": "秋田県",
    "prefecture_kana": "アキタケン",
    "prefecture_code": 5,
    "city": "由利本荘市",
    "city_kana": "ユリホンジョウシ",
    "town": "鳥海町百宅",
    "town_kana": "チョウカイマチモモヤケ",
    "street": null,
    "office_name": null,
    "office_name_kana": null
  },
  "0721": {
    "zip_code": "0150721",
    "prefecture": "秋田県",
    "prefecture_kana": "アキタケン",
    "prefecture_code": 5,
    "city": "由利本荘市",
    "city_kana": "ユリホンジョウシ",
    "town": "鳥海町上笹子",
    "town_kana": "チョウカイマチカミジネゴ",
    "street": null,
    "office_name": null,
    "office_name_kana": null
  },
  "0722": {
    "zip_code": "0150722",
    "prefecture": "秋田県",
    "prefecture_kana": "アキタケン",
    "prefecture_code": 5,
    "city": "由利本荘市",
    "city_kana": "ユリホンジョウシ",
    "town": "鳥海町下笹子",
    "town_kana": "チョウカイマチシモジネゴ",
    "street": null,
    "office_name": null,
    "office_name_kana": null
  },
  "0801": {
    "zip_code": "0150801",
    "prefecture": "秋田県",
    "prefecture_kana": "アキタケン",
    "prefecture_code": 5,
    "city": "由利本荘市",
    "city_kana": "ユリホンジョウシ",
    "town": "美倉町",
    "town_kana": "ミクラマチ",
    "street": null,
    "office_name": null,
    "office_name_kana": null
  },
  "0802": {
    "zip_code": "0150802",
    "prefecture": "秋田県",
    "prefecture_kana": "アキタケン",
    "prefecture_code": 5,
    "city": "由利本荘市",
    "city_kana": "ユリホンジョウシ",
    "town": "表尾崎町",
    "town_kana": "オモテオザキマチ",
    "street": null,
    "office_name": null,
    "office_name_kana": null
  },
  "0803": {
    "zip_code": "0150803",
    "prefecture": "秋田県",
    "prefecture_kana": "アキタケン",
    "prefecture_code": 5,
    "city": "由利本荘市",
    "city_kana": "ユリホンジョウシ",
    "town": "中竪町",
    "town_kana": "ナカダテマチ",
    "street": null,
    "office_name": null,
    "office_name_kana": null
  },
  "0804": {
    "zip_code": "0150804",
    "prefecture": "秋田県",
    "prefecture_kana": "アキタケン",
    "prefecture_code": 5,
    "city": "由利本荘市",
    "city_kana": "ユリホンジョウシ",
    "town": "谷山小路",
    "town_kana": "タニヤマコウジ",
    "street": null,
    "office_name": null,
    "office_name_kana": null
  },
  "0807": {
    "zip_code": "0150807",
    "prefecture": "秋田県",
    "prefecture_kana": "アキタケン",
    "prefecture_code": 5,
    "city": "由利本荘市",
    "city_kana": "ユリホンジョウシ",
    "town": "中横町",
    "town_kana": "ナカヨコマチ",
    "street": null,
    "office_name": null,
    "office_name_kana": null
  },
  "0808": {
    "zip_code": "0150808",
    "prefecture": "秋田県",
    "prefecture_kana": "アキタケン",
    "prefecture_code": 5,
    "city": "由利本荘市",
    "city_kana": "ユリホンジョウシ",
    "town": "大門",
    "town_kana": "ダイモン",
    "street": null,
    "office_name": null,
    "office_name_kana": null
  },
  "0809": {
    "zip_code": "0150809",
    "prefecture": "秋田県",
    "prefecture_kana": "アキタケン",
    "prefecture_code": 5,
    "city": "由利本荘市",
    "city_kana": "ユリホンジョウシ",
    "town": "本荘",
    "town_kana": "ホンジョウ",
    "street": null,
    "office_name": null,
    "office_name_kana": null
  },
  "0811": {
    "zip_code": "0150811",
    "prefecture": "秋田県",
    "prefecture_kana": "アキタケン",
    "prefecture_code": 5,
    "city": "由利本荘市",
    "city_kana": "ユリホンジョウシ",
    "town": "桶屋町",
    "town_kana": "オケヤマチ",
    "street": null,
    "office_name": null,
    "office_name_kana": null
  },
  "0812": {
    "zip_code": "0150812",
    "prefecture": "秋田県",
    "prefecture_kana": "アキタケン",
    "prefecture_code": 5,
    "city": "由利本荘市",
    "city_kana": "ユリホンジョウシ",
    "town": "鍛治町",
    "town_kana": "カジマチ",
    "street": null,
    "office_name": null,
    "office_name_kana": null
  },
  "0813": {
    "zip_code": "0150813",
    "prefecture": "秋田県",
    "prefecture_kana": "アキタケン",
    "prefecture_code": 5,
    "city": "由利本荘市",
    "city_kana": "ユリホンジョウシ",
    "town": "日役町",
    "town_kana": "ヒキジマチ",
    "street": null,
    "office_name": null,
    "office_name_kana": null
  },
  "0814": {
    "zip_code": "0150814",
    "prefecture": "秋田県",
    "prefecture_kana": "アキタケン",
    "prefecture_code": 5,
    "city": "由利本荘市",
    "city_kana": "ユリホンジョウシ",
    "town": "後町",
    "town_kana": "ウシロマチ",
    "street": null,
    "office_name": null,
    "office_name_kana": null
  },
  "0815": {
    "zip_code": "0150815",
    "prefecture": "秋田県",
    "prefecture_kana": "アキタケン",
    "prefecture_code": 5,
    "city": "由利本荘市",
    "city_kana": "ユリホンジョウシ",
    "town": "猟師町",
    "town_kana": "リョウシマチ",
    "street": null,
    "office_name": null,
    "office_name_kana": null
  },
  "0816": {
    "zip_code": "0150816",
    "prefecture": "秋田県",
    "prefecture_kana": "アキタケン",
    "prefecture_code": 5,
    "city": "由利本荘市",
    "city_kana": "ユリホンジョウシ",
    "town": "大町",
    "town_kana": "オオマチ",
    "street": null,
    "office_name": null,
    "office_name_kana": null
  },
  "0817": {
    "zip_code": "0150817",
    "prefecture": "秋田県",
    "prefecture_kana": "アキタケン",
    "prefecture_code": 5,
    "city": "由利本荘市",
    "city_kana": "ユリホンジョウシ",
    "town": "中町",
    "town_kana": "ナカマチ",
    "street": null,
    "office_name": null,
    "office_name_kana": null
  },
  "0821": {
    "zip_code": "0150821",
    "prefecture": "秋田県",
    "prefecture_kana": "アキタケン",
    "prefecture_code": 5,
    "city": "由利本荘市",
    "city_kana": "ユリホンジョウシ",
    "town": "肴町",
    "town_kana": "サカナマチ",
    "street": null,
    "office_name": null,
    "office_name_kana": null
  },
  "0822": {
    "zip_code": "0150822",
    "prefecture": "秋田県",
    "prefecture_kana": "アキタケン",
    "prefecture_code": 5,
    "city": "由利本荘市",
    "city_kana": "ユリホンジョウシ",
    "town": "田町",
    "town_kana": "タマチ",
    "street": null,
    "office_name": null,
    "office_name_kana": null
  },
  "0823": {
    "zip_code": "0150823",
    "prefecture": "秋田県",
    "prefecture_kana": "アキタケン",
    "prefecture_code": 5,
    "city": "由利本荘市",
    "city_kana": "ユリホンジョウシ",
    "town": "和泉町",
    "town_kana": "イズミマチ",
    "street": null,
    "office_name": null,
    "office_name_kana": null
  },
  "0824": {
    "zip_code": "0150824",
    "prefecture": "秋田県",
    "prefecture_kana": "アキタケン",
    "prefecture_code": 5,
    "city": "由利本荘市",
    "city_kana": "ユリホンジョウシ",
    "town": "古雪町",
    "town_kana": "フルユキマチ",
    "street": null,
    "office_name": null,
    "office_name_kana": null
  },
  "0825": {
    "zip_code": "0150825",
    "prefecture": "秋田県",
    "prefecture_kana": "アキタケン",
    "prefecture_code": 5,
    "city": "由利本荘市",
    "city_kana": "ユリホンジョウシ",
    "town": "観音町",
    "town_kana": "カンノンマチ",
    "street": null,
    "office_name": null,
    "office_name_kana": null
  },
  "0826": {
    "zip_code": "0150826",
    "prefecture": "秋田県",
    "prefecture_kana": "アキタケン",
    "prefecture_code": 5,
    "city": "由利本荘市",
    "city_kana": "ユリホンジョウシ",
    "town": "片町",
    "town_kana": "カタマチ",
    "street": null,
    "office_name": null,
    "office_name_kana": null
  },
  "0827": {
    "zip_code": "0150827",
    "prefecture": "秋田県",
    "prefecture_kana": "アキタケン",
    "prefecture_code": 5,
    "city": "由利本荘市",
    "city_kana": "ユリホンジョウシ",
    "town": "浜ノ町",
    "town_kana": "ハマノマチ",
    "street": null,
    "office_name": null,
    "office_name_kana": null
  },
  "0831": {
    "zip_code": "0150831",
    "prefecture": "秋田県",
    "prefecture_kana": "アキタケン",
    "prefecture_code": 5,
    "city": "由利本荘市",
    "city_kana": "ユリホンジョウシ",
    "town": "北裏地",
    "town_kana": "キタウラジ",
    "street": null,
    "office_name": null,
    "office_name_kana": null
  },
  "0832": {
    "zip_code": "0150832",
    "prefecture": "秋田県",
    "prefecture_kana": "アキタケン",
    "prefecture_code": 5,
    "city": "由利本荘市",
    "city_kana": "ユリホンジョウシ",
    "town": "下川原中島",
    "town_kana": "シモカワハラナカジマ",
    "street": null,
    "office_name": null,
    "office_name_kana": null
  },
  "0833": {
    "zip_code": "0150833",
    "prefecture": "秋田県",
    "prefecture_kana": "アキタケン",
    "prefecture_code": 5,
    "city": "由利本荘市",
    "city_kana": "ユリホンジョウシ",
    "town": "巣組",
    "town_kana": "スグミ",
    "street": null,
    "office_name": null,
    "office_name_kana": null
  },
  "0834": {
    "zip_code": "0150834",
    "prefecture": "秋田県",
    "prefecture_kana": "アキタケン",
    "prefecture_code": 5,
    "city": "由利本荘市",
    "city_kana": "ユリホンジョウシ",
    "town": "岩渕下",
    "town_kana": "イワブチシタ",
    "street": null,
    "office_name": null,
    "office_name_kana": null
  },
  "0835": {
    "zip_code": "0150835",
    "prefecture": "秋田県",
    "prefecture_kana": "アキタケン",
    "prefecture_code": 5,
    "city": "由利本荘市",
    "city_kana": "ユリホンジョウシ",
    "town": "八幡下",
    "town_kana": "ハチマンシタ",
    "street": null,
    "office_name": null,
    "office_name_kana": null
  },
  "0836": {
    "zip_code": "0150836",
    "prefecture": "秋田県",
    "prefecture_kana": "アキタケン",
    "prefecture_code": 5,
    "city": "由利本荘市",
    "city_kana": "ユリホンジョウシ",
    "town": "赤沼下",
    "town_kana": "アカヌマシタ",
    "street": null,
    "office_name": null,
    "office_name_kana": null
  },
  "0837": [
    {
      "zip_code": "0150837",
      "prefecture": "秋田県",
      "prefecture_kana": "アキタケン",
      "prefecture_code": 5,
      "city": "由利本荘市",
      "city_kana": "ユリホンジョウシ",
      "town": "出戸町",
      "town_kana": "デトマチ",
      "street": null,
      "office_name": null,
      "office_name_kana": null
    },
    {
      "zip_code": "0150837",
      "prefecture": "秋田県",
      "prefecture_kana": "アキタケン",
      "prefecture_code": 5,
      "city": "由利本荘市",
      "city_kana": "ユリホンジョウシ",
      "town": "出戸町赤沼下道",
      "town_kana": "デトマチアカヌマシタミチ",
      "street": null,
      "office_name": null,
      "office_name_kana": null
    }
  ],
  "0838": {
    "zip_code": "0150838",
    "prefecture": "秋田県",
    "prefecture_kana": "アキタケン",
    "prefecture_code": 5,
    "city": "由利本荘市",
    "city_kana": "ユリホンジョウシ",
    "town": "梵天谷地",
    "town_kana": "ボンテンヤチ",
    "street": null,
    "office_name": null,
    "office_name_kana": null
  },
  "0839": {
    "zip_code": "0150839",
    "prefecture": "秋田県",
    "prefecture_kana": "アキタケン",
    "prefecture_code": 5,
    "city": "由利本荘市",
    "city_kana": "ユリホンジョウシ",
    "town": "古川端",
    "town_kana": "フルカワバタ",
    "street": null,
    "office_name": null,
    "office_name_kana": null
  },
  "0840": {
    "zip_code": "0150840",
    "prefecture": "秋田県",
    "prefecture_kana": "アキタケン",
    "prefecture_code": 5,
    "city": "由利本荘市",
    "city_kana": "ユリホンジョウシ",
    "town": "瀬越場",
    "town_kana": "セゴシバ",
    "street": null,
    "office_name": null,
    "office_name_kana": null
  },
  "0841": {
    "zip_code": "0150841",
    "prefecture": "秋田県",
    "prefecture_kana": "アキタケン",
    "prefecture_code": 5,
    "city": "由利本荘市",
    "city_kana": "ユリホンジョウシ",
    "town": "下大野",
    "town_kana": "シモオオノ",
    "street": null,
    "office_name": null,
    "office_name_kana": null
  },
  "0842": {
    "zip_code": "0150842",
    "prefecture": "秋田県",
    "prefecture_kana": "アキタケン",
    "prefecture_code": 5,
    "city": "由利本荘市",
    "city_kana": "ユリホンジョウシ",
    "town": "出戸上野",
    "town_kana": "デトウエノ",
    "street": null,
    "office_name": null,
    "office_name_kana": null
  },
  "0843": {
    "zip_code": "0150843",
    "prefecture": "秋田県",
    "prefecture_kana": "アキタケン",
    "prefecture_code": 5,
    "city": "由利本荘市",
    "city_kana": "ユリホンジョウシ",
    "town": "東梵天",
    "town_kana": "ヒガシボンテン",
    "street": null,
    "office_name": null,
    "office_name_kana": null
  },
  "0851": {
    "zip_code": "0150851",
    "prefecture": "秋田県",
    "prefecture_kana": "アキタケン",
    "prefecture_code": 5,
    "city": "由利本荘市",
    "city_kana": "ユリホンジョウシ",
    "town": "中梵天",
    "town_kana": "ナカボンテン",
    "street": null,
    "office_name": null,
    "office_name_kana": null
  },
  "0852": {
    "zip_code": "0150852",
    "prefecture": "秋田県",
    "prefecture_kana": "アキタケン",
    "prefecture_code": 5,
    "city": "由利本荘市",
    "city_kana": "ユリホンジョウシ",
    "town": "一番堰",
    "town_kana": "イチバンゼキ",
    "street": null,
    "office_name": null,
    "office_name_kana": null
  },
  "0853": {
    "zip_code": "0150853",
    "prefecture": "秋田県",
    "prefecture_kana": "アキタケン",
    "prefecture_code": 5,
    "city": "由利本荘市",
    "city_kana": "ユリホンジョウシ",
    "town": "松街道",
    "town_kana": "マツカイドウ",
    "street": null,
    "office_name": null,
    "office_name_kana": null
  },
  "0854": {
    "zip_code": "0150854",
    "prefecture": "秋田県",
    "prefecture_kana": "アキタケン",
    "prefecture_code": 5,
    "city": "由利本荘市",
    "city_kana": "ユリホンジョウシ",
    "town": "上大野",
    "town_kana": "カミオオノ",
    "street": null,
    "office_name": null,
    "office_name_kana": null
  },
  "0855": {
    "zip_code": "0150855",
    "prefecture": "秋田県",
    "prefecture_kana": "アキタケン",
    "prefecture_code": 5,
    "city": "由利本荘市",
    "city_kana": "ユリホンジョウシ",
    "town": "二番堰",
    "town_kana": "ニバンゼキ",
    "street": null,
    "office_name": null,
    "office_name_kana": null
  },
  "0856": {
    "zip_code": "0150856",
    "prefecture": "秋田県",
    "prefecture_kana": "アキタケン",
    "prefecture_code": 5,
    "city": "由利本荘市",
    "city_kana": "ユリホンジョウシ",
    "town": "円正脇",
    "town_kana": "エンショウワキ",
    "street": null,
    "office_name": null,
    "office_name_kana": null
  },
  "0857": {
    "zip_code": "0150857",
    "prefecture": "秋田県",
    "prefecture_kana": "アキタケン",
    "prefecture_code": 5,
    "city": "由利本荘市",
    "city_kana": "ユリホンジョウシ",
    "town": "寺後",
    "town_kana": "テラウシロ",
    "street": null,
    "office_name": null,
    "office_name_kana": null
  },
  "0858": {
    "zip_code": "0150858",
    "prefecture": "秋田県",
    "prefecture_kana": "アキタケン",
    "prefecture_code": 5,
    "city": "由利本荘市",
    "city_kana": "ユリホンジョウシ",
    "town": "西梵天",
    "town_kana": "ニシボンテン",
    "street": null,
    "office_name": null,
    "office_name_kana": null
  },
  "0861": {
    "zip_code": "0150861",
    "prefecture": "秋田県",
    "prefecture_kana": "アキタケン",
    "prefecture_code": 5,
    "city": "由利本荘市",
    "city_kana": "ユリホンジョウシ",
    "town": "御門",
    "town_kana": "ゴモン",
    "street": null,
    "office_name": null,
    "office_name_kana": null
  },
  "0862": {
    "zip_code": "0150862",
    "prefecture": "秋田県",
    "prefecture_kana": "アキタケン",
    "prefecture_code": 5,
    "city": "由利本荘市",
    "city_kana": "ユリホンジョウシ",
    "town": "小人町",
    "town_kana": "コビトマチ",
    "street": null,
    "office_name": null,
    "office_name_kana": null
  },
  "0863": {
    "zip_code": "0150863",
    "prefecture": "秋田県",
    "prefecture_kana": "アキタケン",
    "prefecture_code": 5,
    "city": "由利本荘市",
    "city_kana": "ユリホンジョウシ",
    "town": "不戻沢",
    "town_kana": "フモドリサワ",
    "street": null,
    "office_name": null,
    "office_name_kana": null
  },
  "0864": {
    "zip_code": "0150864",
    "prefecture": "秋田県",
    "prefecture_kana": "アキタケン",
    "prefecture_code": 5,
    "city": "由利本荘市",
    "city_kana": "ユリホンジョウシ",
    "town": "大鍬町",
    "town_kana": "オオクワマチ",
    "street": null,
    "office_name": null,
    "office_name_kana": null
  },
  "0865": {
    "zip_code": "0150865",
    "prefecture": "秋田県",
    "prefecture_kana": "アキタケン",
    "prefecture_code": 5,
    "city": "由利本荘市",
    "city_kana": "ユリホンジョウシ",
    "town": "西大鍬町",
    "town_kana": "ニシオオクワマチ",
    "street": null,
    "office_name": null,
    "office_name_kana": null
  },
  "0866": {
    "zip_code": "0150866",
    "prefecture": "秋田県",
    "prefecture_kana": "アキタケン",
    "prefecture_code": 5,
    "city": "由利本荘市",
    "city_kana": "ユリホンジョウシ",
    "town": "堤脇",
    "town_kana": "ツツミワキ",
    "street": null,
    "office_name": null,
    "office_name_kana": null
  },
  "0867": {
    "zip_code": "0150867",
    "prefecture": "秋田県",
    "prefecture_kana": "アキタケン",
    "prefecture_code": 5,
    "city": "由利本荘市",
    "city_kana": "ユリホンジョウシ",
    "town": "千刈",
    "town_kana": "センガリ",
    "street": null,
    "office_name": null,
    "office_name_kana": null
  },
  "0868": {
    "zip_code": "0150868",
    "prefecture": "秋田県",
    "prefecture_kana": "アキタケン",
    "prefecture_code": 5,
    "city": "由利本荘市",
    "city_kana": "ユリホンジョウシ",
    "town": "大堤下",
    "town_kana": "オオヅツミシタ",
    "street": null,
    "office_name": null,
    "office_name_kana": null
  },
  "0869": {
    "zip_code": "0150869",
    "prefecture": "秋田県",
    "prefecture_kana": "アキタケン",
    "prefecture_code": 5,
    "city": "由利本荘市",
    "city_kana": "ユリホンジョウシ",
    "town": "陣場岱",
    "town_kana": "ジンバダイ",
    "street": null,
    "office_name": null,
    "office_name_kana": null
  },
  "0871": {
    "zip_code": "0150871",
    "prefecture": "秋田県",
    "prefecture_kana": "アキタケン",
    "prefecture_code": 5,
    "city": "由利本荘市",
    "city_kana": "ユリホンジョウシ",
    "town": "尾崎",
    "town_kana": "オザキ",
    "street": null,
    "office_name": null,
    "office_name_kana": null
  },
  "0872": {
    "zip_code": "0150872",
    "prefecture": "秋田県",
    "prefecture_kana": "アキタケン",
    "prefecture_code": 5,
    "city": "由利本荘市",
    "city_kana": "ユリホンジョウシ",
    "town": "瓦谷地",
    "town_kana": "カワラヤチ",
    "street": null,
    "office_name": null,
    "office_name_kana": null
  },
  "0873": {
    "zip_code": "0150873",
    "prefecture": "秋田県",
    "prefecture_kana": "アキタケン",
    "prefecture_code": 5,
    "city": "由利本荘市",
    "city_kana": "ユリホンジョウシ",
    "town": "鶴沼",
    "town_kana": "ツルヌマ",
    "street": null,
    "office_name": null,
    "office_name_kana": null
  },
  "0874": {
    "zip_code": "0150874",
    "prefecture": "秋田県",
    "prefecture_kana": "アキタケン",
    "prefecture_code": 5,
    "city": "由利本荘市",
    "city_kana": "ユリホンジョウシ",
    "town": "給人町",
    "town_kana": "キュウジンチョウ",
    "street": null,
    "office_name": null,
    "office_name_kana": null
  },
  "0875": {
    "zip_code": "0150875",
    "prefecture": "秋田県",
    "prefecture_kana": "アキタケン",
    "prefecture_code": 5,
    "city": "由利本荘市",
    "city_kana": "ユリホンジョウシ",
    "town": "砂子下",
    "town_kana": "スナゴシタ",
    "street": null,
    "office_name": null,
    "office_name_kana": null
  },
  "0876": {
    "zip_code": "0150876",
    "prefecture": "秋田県",
    "prefecture_kana": "アキタケン",
    "prefecture_code": 5,
    "city": "由利本荘市",
    "city_kana": "ユリホンジョウシ",
    "town": "井戸尻",
    "town_kana": "イドジリ",
    "street": null,
    "office_name": null,
    "office_name_kana": null
  },
  "0877": {
    "zip_code": "0150877",
    "prefecture": "秋田県",
    "prefecture_kana": "アキタケン",
    "prefecture_code": 5,
    "city": "由利本荘市",
    "city_kana": "ユリホンジョウシ",
    "town": "濡浜北",
    "town_kana": "ヌレハマキタ",
    "street": null,
    "office_name": null,
    "office_name_kana": null
  },
  "0878": {
    "zip_code": "0150878",
    "prefecture": "秋田県",
    "prefecture_kana": "アキタケン",
    "prefecture_code": 5,
    "city": "由利本荘市",
    "city_kana": "ユリホンジョウシ",
    "town": "観音森",
    "town_kana": "カンノンモリ",
    "street": null,
    "office_name": null,
    "office_name_kana": null
  },
  "0881": {
    "zip_code": "0150881",
    "prefecture": "秋田県",
    "prefecture_kana": "アキタケン",
    "prefecture_code": 5,
    "city": "由利本荘市",
    "city_kana": "ユリホンジョウシ",
    "town": "切通",
    "town_kana": "キリドオシ",
    "street": null,
    "office_name": null,
    "office_name_kana": null
  },
  "0882": {
    "zip_code": "0150882",
    "prefecture": "秋田県",
    "prefecture_kana": "アキタケン",
    "prefecture_code": 5,
    "city": "由利本荘市",
    "city_kana": "ユリホンジョウシ",
    "town": "西小人町",
    "town_kana": "ニシコビトマチ",
    "street": null,
    "office_name": null,
    "office_name_kana": null
  },
  "0883": {
    "zip_code": "0150883",
    "prefecture": "秋田県",
    "prefecture_kana": "アキタケン",
    "prefecture_code": 5,
    "city": "由利本荘市",
    "city_kana": "ユリホンジョウシ",
    "town": "下地ケ沢",
    "town_kana": "ゲチガサワ",
    "street": null,
    "office_name": null,
    "office_name_kana": null
  },
  "0884": {
    "zip_code": "0150884",
    "prefecture": "秋田県",
    "prefecture_kana": "アキタケン",
    "prefecture_code": 5,
    "city": "由利本荘市",
    "city_kana": "ユリホンジョウシ",
    "town": "狐森",
    "town_kana": "キツネモリ",
    "street": null,
    "office_name": null,
    "office_name_kana": null
  },
  "0885": {
    "zip_code": "0150885",
    "prefecture": "秋田県",
    "prefecture_kana": "アキタケン",
    "prefecture_code": 5,
    "city": "由利本荘市",
    "city_kana": "ユリホンジョウシ",
    "town": "水林",
    "town_kana": "ミズバヤシ",
    "street": null,
    "office_name": null,
    "office_name_kana": null
  },
  "0886": {
    "zip_code": "0150886",
    "prefecture": "秋田県",
    "prefecture_kana": "アキタケン",
    "prefecture_code": 5,
    "city": "由利本荘市",
    "city_kana": "ユリホンジョウシ",
    "town": "調練場",
    "town_kana": "チョウレンバ",
    "street": null,
    "office_name": null,
    "office_name_kana": null
  },
  "0887": {
    "zip_code": "0150887",
    "prefecture": "秋田県",
    "prefecture_kana": "アキタケン",
    "prefecture_code": 5,
    "city": "由利本荘市",
    "city_kana": "ユリホンジョウシ",
    "town": "今野谷地",
    "town_kana": "コンノヤチ",
    "street": null,
    "office_name": null,
    "office_name_kana": null
  },
  "0888": {
    "zip_code": "0150888",
    "prefecture": "秋田県",
    "prefecture_kana": "アキタケン",
    "prefecture_code": 5,
    "city": "由利本荘市",
    "city_kana": "ユリホンジョウシ",
    "town": "新組町",
    "town_kana": "シンクミチョウ",
    "street": null,
    "office_name": null,
    "office_name_kana": null
  },
  "0889": {
    "zip_code": "0150889",
    "prefecture": "秋田県",
    "prefecture_kana": "アキタケン",
    "prefecture_code": 5,
    "city": "由利本荘市",
    "city_kana": "ユリホンジョウシ",
    "town": "砂糖畑",
    "town_kana": "サトウバタケ",
    "street": null,
    "office_name": null,
    "office_name_kana": null
  },
  "0890": {
    "zip_code": "0150890",
    "prefecture": "秋田県",
    "prefecture_kana": "アキタケン",
    "prefecture_code": 5,
    "city": "由利本荘市",
    "city_kana": "ユリホンジョウシ",
    "town": "船ケ台",
    "town_kana": "フナガダイ",
    "street": null,
    "office_name": null,
    "office_name_kana": null
  },
  "0891": {
    "zip_code": "0150891",
    "prefecture": "秋田県",
    "prefecture_kana": "アキタケン",
    "prefecture_code": 5,
    "city": "由利本荘市",
    "city_kana": "ユリホンジョウシ",
    "town": "小防ケ沢",
    "town_kana": "コボウガサワ",
    "street": null,
    "office_name": null,
    "office_name_kana": null
  },
  "0892": {
    "zip_code": "0150892",
    "prefecture": "秋田県",
    "prefecture_kana": "アキタケン",
    "prefecture_code": 5,
    "city": "由利本荘市",
    "city_kana": "ユリホンジョウシ",
    "town": "蟻山",
    "town_kana": "アリヤマ",
    "street": null,
    "office_name": null,
    "office_name_kana": null
  },
  "8501": {
    "zip_code": "0158501",
    "prefecture": "秋田県",
    "prefecture_kana": "アキタケン",
    "prefecture_code": 5,
    "city": "由利本荘市",
    "city_kana": "ユリホンジョウシ",
    "town": "尾崎",
    "town_kana": "オザキ",
    "street": "１７",
    "office_name": "由利本荘市役所",
    "office_name_kana": "ユリホンジヨウシヤクシヨ"
  },
  "8505": {
    "zip_code": "0158505",
    "prefecture": "秋田県",
    "prefecture_kana": "アキタケン",
    "prefecture_code": 5,
    "city": "由利本荘市",
    "city_kana": "ユリホンジョウシ",
    "town": "表尾崎町",
    "town_kana": "オモテオザキマチ",
    "street": "２１−２",
    "office_name": "秋田社会保険事務局　本荘事務所",
    "office_name_kana": "アキタシヤカイホケンジムキヨク ホンジヨウジムシヨ"
  },
  "8510": {
    "zip_code": "0158510",
    "prefecture": "秋田県",
    "prefecture_kana": "アキタケン",
    "prefecture_code": 5,
    "city": "由利本荘市",
    "city_kana": "ユリホンジョウシ",
    "town": "石脇",
    "town_kana": "イシワキ",
    "street": "赤兀１",
    "office_name": "秋田プリマ食品　株式会社",
    "office_name_kana": "アキタプリマシヨクヒン カブシキガイシヤ"
  },
  "8511": {
    "zip_code": "0158511",
    "prefecture": "秋田県",
    "prefecture_kana": "アキタケン",
    "prefecture_code": 5,
    "city": "由利本荘市",
    "city_kana": "ユリホンジョウシ",
    "town": "川口",
    "town_kana": "カワグチ",
    "street": "家ノ後３８",
    "office_name": "由利組合総合病院",
    "office_name_kana": "ユリクミアイソウゴウビヨウイン"
  },
  "8515": {
    "zip_code": "0158515",
    "prefecture": "秋田県",
    "prefecture_kana": "アキタケン",
    "prefecture_code": 5,
    "city": "由利本荘市",
    "city_kana": "ユリホンジョウシ",
    "town": "水林",
    "town_kana": "ミズバヤシ",
    "street": "３６６",
    "office_name": "由利地域振興局",
    "office_name_kana": "ユリチイキシンコウキヨク"
  },
  "8530": {
    "zip_code": "0158530",
    "prefecture": "秋田県",
    "prefecture_kana": "アキタケン",
    "prefecture_code": 5,
    "city": "由利本荘市",
    "city_kana": "ユリホンジョウシ",
    "town": "石脇",
    "town_kana": "イシワキ",
    "street": "田尻３０",
    "office_name": "秋田県立由利工業高等学校",
    "office_name_kana": "アキタケンリツユリコウギヨウコウトウガツコウ"
  },
  "8543": {
    "zip_code": "0158543",
    "prefecture": "秋田県",
    "prefecture_kana": "アキタケン",
    "prefecture_code": 5,
    "city": "由利本荘市",
    "city_kana": "ユリホンジョウシ",
    "town": "川口",
    "town_kana": "カワグチ",
    "street": "字大鞁森７",
    "office_name": "秋田県立　由利高等学校",
    "office_name_kana": "アキタケンリツ ユリコウトウガツコウ"
  },
  "8555": {
    "zip_code": "0158555",
    "prefecture": "秋田県",
    "prefecture_kana": "アキタケン",
    "prefecture_code": 5,
    "city": "由利本荘市",
    "city_kana": "ユリホンジョウシ",
    "town": "小人町",
    "town_kana": "コビトマチ",
    "street": "１１７−３",
    "office_name": "佐藤病院",
    "office_name_kana": "サトウビヨウイン"
  },
  "8558": {
    "zip_code": "0158558",
    "prefecture": "秋田県",
    "prefecture_kana": "アキタケン",
    "prefecture_code": 5,
    "city": "由利本荘市",
    "city_kana": "ユリホンジョウシ",
    "town": "大浦",
    "town_kana": "オオラ",
    "street": "字上谷地１１４−２",
    "office_name": "株式会社　秋田新電元本社　大浦工場",
    "office_name_kana": "カブシキガイシヤ アキタシンデンゲンホンシヤ オオウラコウジヨウ"
  },
  "8567": {
    "zip_code": "0158567",
    "prefecture": "秋田県",
    "prefecture_kana": "アキタケン",
    "prefecture_code": 5,
    "city": "由利本荘市",
    "city_kana": "ユリホンジョウシ",
    "town": "岩渕下",
    "town_kana": "イワブチシタ",
    "street": "１１０",
    "office_name": "医療法人　青嵐会　（本荘第一病院）",
    "office_name_kana": "イリヨウホウジン セイランカイ (ホンジヨウダイイチビヨウイン)"
  },
  "8585": {
    "zip_code": "0158585",
    "prefecture": "秋田県",
    "prefecture_kana": null,
    "prefecture_code": null,
    "city": "由利本荘市",
    "city_kana": null,
    "town": "陳場岱",
    "town_kana": null,
    "street": "６",
    "office_name": "秋田県立　本荘高等学校",
    "office_name_kana": "アキタケンリツ ホンジヨウコウトウガツコウ"
  },
  "8601": {
    "zip_code": "0158601",
    "prefecture": "秋田県",
    "prefecture_kana": "アキタケン",
    "prefecture_code": 5,
    "city": "由利本荘市",
    "city_kana": "ユリホンジョウシ",
    "town": "大町",
    "town_kana": "オオマチ",
    "street": "３２（本荘郵便局私書箱第１７号）",
    "office_name": "羽後信用金庫",
    "office_name_kana": "ウゴシンヨウキンコ"
  },
  "8602": {
    "zip_code": "0158602",
    "prefecture": "秋田県",
    "prefecture_kana": "アキタケン",
    "prefecture_code": 5,
    "city": "由利本荘市",
    "city_kana": "ユリホンジョウシ",
    "town": "裏尾崎町",
    "town_kana": "ウラオザキマチ",
    "street": "５１−２（本荘郵便局私書箱第３号）",
    "office_name": "株式会社　北都銀行　本荘支店",
    "office_name_kana": "カブシキガイシヤ ホクトギンコウ ホンジヨウシテン"
  },
  "8611": {
    "zip_code": "0158611",
    "prefecture": "秋田県",
    "prefecture_kana": "アキタケン",
    "prefecture_code": 5,
    "city": "由利本荘市",
    "city_kana": "ユリホンジョウシ",
    "town": "大町",
    "town_kana": "オオマチ",
    "street": "３５（本荘郵便局私書箱第４号）",
    "office_name": "株式会社　秋田銀行　本荘支店",
    "office_name_kana": "カブシキガイシヤ アキタギンコウ ホンジヨウシテン"
  },
  "8622": {
    "zip_code": "0158622",
    "prefecture": "秋田県",
    "prefecture_kana": "アキタケン",
    "prefecture_code": 5,
    "city": "由利本荘市",
    "city_kana": "ユリホンジョウシ",
    "town": "給人町",
    "town_kana": "キュウジンチョウ",
    "street": "１７",
    "office_name": "本荘税務署",
    "office_name_kana": "ホンジヨウゼイムシヨ"
  },
  "8630": {
    "zip_code": "0158630",
    "prefecture": "秋田県",
    "prefecture_kana": "アキタケン",
    "prefecture_code": 5,
    "city": "由利本荘市",
    "city_kana": "ユリホンジョウシ",
    "town": "一番堰",
    "town_kana": "イチバンゼキ",
    "street": "１８１（本荘郵便局私書箱第９号）",
    "office_name": "村岡建設工業　株式会社",
    "office_name_kana": "ムラオカケンセツコウギヨウ カブシキガイシヤ"
  },
  "8642": {
    "zip_code": "0158642",
    "prefecture": "秋田県",
    "prefecture_kana": "アキタケン",
    "prefecture_code": 5,
    "city": "由利本荘市",
    "city_kana": "ユリホンジョウシ",
    "town": "表尾崎町",
    "town_kana": "オモテオザキマチ",
    "street": "５（本荘郵便局私書箱第２９号）",
    "office_name": "由利本荘市ガス水道局",
    "office_name_kana": "ユリホンジヨウシガススイドウキヨク"
  },
  "8666": {
    "zip_code": "0158666",
    "prefecture": "秋田県",
    "prefecture_kana": "アキタケン",
    "prefecture_code": 5,
    "city": "由利本荘市",
    "city_kana": "ユリホンジョウシ",
    "town": "石脇",
    "town_kana": "イシワキ",
    "street": "字田尻３３（本荘郵便局私書箱第２１号）",
    "office_name": "医療法人　荘和会（菅原病院・老人保険施設荘和）",
    "office_name_kana": "イリヨウホウジン シヨウワカイ(スガワラビヨウイン・ロウジンホケンシセツシヨウワ)"
  },
  "8686": {
    "zip_code": "0158686",
    "prefecture": "秋田県",
    "prefecture_kana": "アキタケン",
    "prefecture_code": 5,
    "city": "由利本荘市",
    "city_kana": "ユリホンジョウシ",
    "town": "石脇",
    "town_kana": "イシワキ",
    "street": "字赤兀１−３７２（本荘郵便局私書箱第２７号）",
    "office_name": "小林工業　株式会社",
    "office_name_kana": "コバヤシコウギヨウ カブシキガイシヤ"
  },
  "8688": {
    "zip_code": "0158688",
    "prefecture": "秋田県",
    "prefecture_kana": "アキタケン",
    "prefecture_code": 5,
    "city": "由利本荘市",
    "city_kana": "ユリホンジョウシ",
    "town": "石脇",
    "town_kana": "イシワキ",
    "street": "字田頭２０８−２（本荘郵便局私書箱第１５号）",
    "office_name": "長田建設　株式会社",
    "office_name_kana": "オサダケンセツ カブシキガイシヤ"
  }
}