{
  "0000": {
    "zip_code": "0220000",
    "prefecture": "岩手県",
    "prefecture_kana": "イワテケン",
    "prefecture_code": 3,
    "city": "大船渡市",
    "city_kana": "オオフナトシ",
    "town": "",
    "town_kana": "",
    "street": null,
    "office_name": null,
    "office_name_kana": null
  },
  "0001": {
    "zip_code": "0220001",
    "prefecture": "岩手県",
    "prefecture_kana": "イワテケン",
    "prefecture_code": 3,
    "city": "大船渡市",
    "city_kana": "オオフナトシ",
    "town": "末崎町",
    "town_kana": "マッサキチョウ",
    "street": null,
    "office_name": null,
    "office_name_kana": null
  },
  "0002": {
    "zip_code": "0220002",
    "prefecture": "岩手県",
    "prefecture_kana": "イワテケン",
    "prefecture_code": 3,
    "city": "大船渡市",
    "city_kana": "オオフナトシ",
    "town": "大船渡町",
    "town_kana": "オオフナトチョウ",
    "street": null,
    "office_name": null,
    "office_name_kana": null
  },
  "0003": {
    "zip_code": "0220003",
    "prefecture": "岩手県",
    "prefecture_kana": "イワテケン",
    "prefecture_code": 3,
    "city": "大船渡市",
    "city_kana": "オオフナトシ",
    "town": "盛町",
    "town_kana": "サカリチョウ",
    "street": null,
    "office_name": null,
    "office_name_kana": null
  },
  "0004": {
    "zip_code": "0220004",
    "prefecture": "岩手県",
    "prefecture_kana": "イワテケン",
    "prefecture_code": 3,
    "city": "大船渡市",
    "city_kana": "オオフナトシ",
    "town": "猪川町",
    "town_kana": "イカワチョウ",
    "street": null,
    "office_name": null,
    "office_name_kana": null
  },
  "0005": {
    "zip_code": "0220005",
    "prefecture": "岩手県",
    "prefecture_kana": "イワテケン",
    "prefecture_code": 3,
    "city": "大船渡市",
    "city_kana": "オオフナトシ",
    "town": "日頃市町",
    "town_kana": "ヒコロイチチョウ",
    "street": null,
    "office_name": null,
    "office_name_kana": null
  },
  "0006": {
    "zip_code": "0220006",
    "prefecture": "岩手県",
    "prefecture_kana": "イワテケン",
    "prefecture_code": 3,
    "city": "大船渡市",
    "city_kana": "オオフナトシ",
    "town": "立根町",
    "town_kana": "タッコンチョウ",
    "street": null,
    "office_name": null,
    "office_name_kana": null
  },
  "0007": {
    "zip_code": "0220007",
    "prefecture": "岩手県",
    "prefecture_kana": "イワテケン",
    "prefecture_code": 3,
    "city": "大船渡市",
    "city_kana": "オオフナトシ",
    "town": "赤崎町",
    "town_kana": "アカサキチョウ",
    "street": null,
    "office_name": null,
    "office_name_kana": null
  },
  "0101": {
    "zip_code": "0220101",
    "prefecture": "岩手県",
    "prefecture_kana": "イワテケン",
    "prefecture_code": 3,
    "city": "大船渡市",
    "city_kana": "オオフナトシ",
    "town": "三陸町越喜来",
    "town_kana": "サンリクチョウオキライ",
    "street": null,
    "office_name": null,
    "office_name_kana": null
  },
  "0102": {
    "zip_code": "0220102",
    "prefecture": "岩手県",
    "prefecture_kana": "イワテケン",
    "prefecture_code": 3,
    "city": "大船渡市",
    "city_kana": "オオフナトシ",
    "town": "三陸町吉浜",
    "town_kana": "サンリクチョウヨシハマ",
    "street": null,
    "office_name": null,
    "office_name_kana": null
  },
  "0211": {
    "zip_code": "0220211",
    "prefecture": "岩手県",
    "prefecture_kana": "イワテケン",
    "prefecture_code": 3,
    "city": "大船渡市",
    "city_kana": "オオフナトシ",
    "town": "三陸町綾里",
    "town_kana": "サンリクチョウリョウリ",
    "street": null,
    "office_name": null,
    "office_name_kana": null
  },
  "8501": {
    "zip_code": "0228501",
    "prefecture": "岩手県",
    "prefecture_kana": "イワテケン",
    "prefecture_code": 3,
    "city": "大船渡市",
    "city_kana": "オオフナトシ",
    "town": "盛町",
    "town_kana": "サカリチョウ",
    "street": "字宇津野沢１５",
    "office_name": "大船渡市役所",
    "office_name_kana": "オオフナトシヤクシヨ"
  },
  "8502": {
    "zip_code": "0228502",
    "prefecture": "岩手県",
    "prefecture_kana": "イワテケン",
    "prefecture_code": 3,
    "city": "大船渡市",
    "city_kana": "オオフナトシ",
    "town": "猪川町",
    "town_kana": "イカワチョウ",
    "street": "字前田６−１",
    "office_name": "大船渡地方振興局",
    "office_name_kana": "オオフナトチホウシンコウキヨク"
  },
  "8503": {
    "zip_code": "0228503",
    "prefecture": "岩手県",
    "prefecture_kana": "イワテケン",
    "prefecture_code": 3,
    "city": "大船渡市",
    "city_kana": "オオフナトシ",
    "town": "大船渡町",
    "town_kana": "オオフナトチョウ",
    "street": "字茶屋前１０１",
    "office_name": "（株）　マイヤ",
    "office_name_kana": "カブシキカイシヤ マイヤ"
  },
  "8504": {
    "zip_code": "0228504",
    "prefecture": "岩手県",
    "prefecture_kana": "イワテケン",
    "prefecture_code": 3,
    "city": "大船渡市",
    "city_kana": "オオフナトシ",
    "town": "盛町",
    "town_kana": "サカリチョウ",
    "street": "字二本枠５",
    "office_name": "株式会社　アマタケ",
    "office_name_kana": "カブシキガイシヤ アマタケ"
  },
  "8505": {
    "zip_code": "0228505",
    "prefecture": "岩手県",
    "prefecture_kana": "イワテケン",
    "prefecture_code": 3,
    "city": "大船渡市",
    "city_kana": "オオフナトシ",
    "town": "大船渡町",
    "town_kana": "オオフナトチョウ",
    "street": "字永沢６−１６",
    "office_name": "大船渡水産物商業協同組合",
    "office_name_kana": "オオフナトスイサンブツシヨウギヨウキヨウドウクミアイ"
  },
  "8507": {
    "zip_code": "0228507",
    "prefecture": "岩手県",
    "prefecture_kana": "イワテケン",
    "prefecture_code": 3,
    "city": "大船渡市",
    "city_kana": "オオフナトシ",
    "town": "盛町",
    "town_kana": "サカリチョウ",
    "street": "字下舘下７番地１６",
    "office_name": "大船渡農業協同組合",
    "office_name_kana": "オオフナトノウギヨウキヨウドウクミアイ"
  },
  "8508": {
    "zip_code": "0228508",
    "prefecture": "岩手県",
    "prefecture_kana": "イワテケン",
    "prefecture_code": 3,
    "city": "大船渡市",
    "city_kana": "オオフナトシ",
    "town": "赤崎町",
    "town_kana": "アカサキチョウ",
    "street": "字鳥沢１６４−２",
    "office_name": "鎌田水産　株式会社",
    "office_name_kana": "カマタスイサン カブシキガイシヤ"
  },
  "8512": {
    "zip_code": "0228512",
    "prefecture": "岩手県",
    "prefecture_kana": "イワテケン",
    "prefecture_code": 3,
    "city": "大船渡市",
    "city_kana": "オオフナトシ",
    "town": "大船渡町",
    "town_kana": "オオフナトチョウ",
    "street": "字山馬越１０−１",
    "office_name": "岩手県立　大船渡病院",
    "office_name_kana": "イワテケンリツ オオフナトビヨウイン"
  },
  "8602": {
    "zip_code": "0228602",
    "prefecture": "岩手県",
    "prefecture_kana": "イワテケン",
    "prefecture_code": 3,
    "city": "大船渡市",
    "city_kana": "オオフナトシ",
    "town": "大船渡町",
    "town_kana": "オオフナトチョウ",
    "street": "字欠ノ下向１−１２５（大船渡郵便局私書箱第１９号）",
    "office_name": "橋爪商事　（株）",
    "office_name_kana": "ハシヅメシヨウジ カブシキカイシヤ"
  }
}