{
  "0000": {
    "zip_code": "0240000",
    "prefecture": "岩手県",
    "prefecture_kana": "イワテケン",
    "prefecture_code": "3",
    "city": "北上市",
    "city_kana": "キタカミシ",
    "town": "",
    "town_kana": "",
    "street": null,
    "office_name": null,
    "office_name_kana": null
  },
  "0001": {
    "zip_code": "0240001",
    "prefecture": "岩手県",
    "prefecture_kana": "イワテケン",
    "prefecture_code": "3",
    "city": "北上市",
    "city_kana": "キタカミシ",
    "town": "飯豊",
    "town_kana": "イイトヨ",
    "street": null,
    "office_name": null,
    "office_name_kana": null
  },
  "0002": {
    "zip_code": "0240002",
    "prefecture": "岩手県",
    "prefecture_kana": "イワテケン",
    "prefecture_code": "3",
    "city": "北上市",
    "city_kana": "キタカミシ",
    "town": "北工業団地",
    "town_kana": "キタコウギョウダンチ",
    "street": null,
    "office_name": null,
    "office_name_kana": null
  },
  "0003": {
    "zip_code": "0240003",
    "prefecture": "岩手県",
    "prefecture_kana": "イワテケン",
    "prefecture_code": "3",
    "city": "北上市",
    "city_kana": "キタカミシ",
    "town": "成田",
    "town_kana": "ナリタ",
    "street": null,
    "office_name": null,
    "office_name_kana": null
  },
  "0004": {
    "zip_code": "0240004",
    "prefecture": "岩手県",
    "prefecture_kana": "イワテケン",
    "prefecture_code": "3",
    "city": "北上市",
    "city_kana": "キタカミシ",
    "town": "村崎野",
    "town_kana": "ムラサキノ",
    "street": null,
    "office_name": null,
    "office_name_kana": null
  },
  "0011": {
    "zip_code": "0240011",
    "prefecture": "岩手県",
    "prefecture_kana": "イワテケン",
    "prefecture_code": "3",
    "city": "北上市",
    "city_kana": "キタカミシ",
    "town": "堤ケ丘",
    "town_kana": "ツツミガオカ",
    "street": null,
    "office_name": null,
    "office_name_kana": null
  },
  "0012": {
    "zip_code": "0240012",
    "prefecture": "岩手県",
    "prefecture_kana": "イワテケン",
    "prefecture_code": "3",
    "city": "北上市",
    "city_kana": "キタカミシ",
    "town": "常盤台",
    "town_kana": "トキワダイ",
    "street": null,
    "office_name": null,
    "office_name_kana": null
  },
  "0013": {
    "zip_code": "0240013",
    "prefecture": "岩手県",
    "prefecture_kana": "イワテケン",
    "prefecture_code": "3",
    "city": "北上市",
    "city_kana": "キタカミシ",
    "town": "藤沢",
    "town_kana": "フジサワ",
    "street": null,
    "office_name": null,
    "office_name_kana": null
  },
  "0014": {
    "zip_code": "0240014",
    "prefecture": "岩手県",
    "prefecture_kana": "イワテケン",
    "prefecture_code": "3",
    "city": "北上市",
    "city_kana": "キタカミシ",
    "town": "流通センター",
    "town_kana": "リュウツウセンター",
    "street": null,
    "office_name": null,
    "office_name_kana": null
  },
  "0021": {
    "zip_code": "0240021",
    "prefecture": "岩手県",
    "prefecture_kana": "イワテケン",
    "prefecture_code": "3",
    "city": "北上市",
    "city_kana": "キタカミシ",
    "town": "上野町",
    "town_kana": "ウエノチョウ",
    "street": null,
    "office_name": null,
    "office_name_kana": null
  },
  "0022": {
    "zip_code": "0240022",
    "prefecture": "岩手県",
    "prefecture_kana": "イワテケン",
    "prefecture_code": "3",
    "city": "北上市",
    "city_kana": "キタカミシ",
    "town": "黒沢尻",
    "town_kana": "クロサワジリ",
    "street": null,
    "office_name": null,
    "office_name_kana": null
  },
  "0023": {
    "zip_code": "0240023",
    "prefecture": "岩手県",
    "prefecture_kana": "イワテケン",
    "prefecture_code": "3",
    "city": "北上市",
    "city_kana": "キタカミシ",
    "town": "里分",
    "town_kana": "サトブン",
    "street": null,
    "office_name": null,
    "office_name_kana": null
  },
  "0024": {
    "zip_code": "0240024",
    "prefecture": "岩手県",
    "prefecture_kana": "イワテケン",
    "prefecture_code": "3",
    "city": "北上市",
    "city_kana": "キタカミシ",
    "town": "中野町",
    "town_kana": "ナカノチョウ",
    "street": null,
    "office_name": null,
    "office_name_kana": null
  },
  "0025": {
    "zip_code": "0240025",
    "prefecture": "岩手県",
    "prefecture_kana": "イワテケン",
    "prefecture_code": "3",
    "city": "北上市",
    "city_kana": "キタカミシ",
    "town": "孫屋敷",
    "town_kana": "マゴヤシキ",
    "street": null,
    "office_name": null,
    "office_name_kana": null
  },
  "0031": {
    "zip_code": "0240031",
    "prefecture": "岩手県",
    "prefecture_kana": "イワテケン",
    "prefecture_code": "3",
    "city": "北上市",
    "city_kana": "キタカミシ",
    "town": "青柳町",
    "town_kana": "アオヤギチョウ",
    "street": null,
    "office_name": null,
    "office_name_kana": null
  },
  "0032": {
    "zip_code": "0240032",
    "prefecture": "岩手県",
    "prefecture_kana": "イワテケン",
    "prefecture_code": "3",
    "city": "北上市",
    "city_kana": "キタカミシ",
    "town": "川岸",
    "town_kana": "カワギシ",
    "street": null,
    "office_name": null,
    "office_name_kana": null
  },
  "0033": {
    "zip_code": "0240033",
    "prefecture": "岩手県",
    "prefecture_kana": "イワテケン",
    "prefecture_code": "3",
    "city": "北上市",
    "city_kana": "キタカミシ",
    "town": "幸町",
    "town_kana": "サイワイチョウ",
    "street": null,
    "office_name": null,
    "office_name_kana": null
  },
  "0034": {
    "zip_code": "0240034",
    "prefecture": "岩手県",
    "prefecture_kana": "イワテケン",
    "prefecture_code": "3",
    "city": "北上市",
    "city_kana": "キタカミシ",
    "town": "諏訪町",
    "town_kana": "スワチョウ",
    "street": null,
    "office_name": null,
    "office_name_kana": null
  },
  "0035": {
    "zip_code": "0240035",
    "prefecture": "岩手県",
    "prefecture_kana": "イワテケン",
    "prefecture_code": "3",
    "city": "北上市",
    "city_kana": "キタカミシ",
    "town": "花園町",
    "town_kana": "ハナゾノチョウ",
    "street": null,
    "office_name": null,
    "office_name_kana": null
  },
  "0041": {
    "zip_code": "0240041",
    "prefecture": "岩手県",
    "prefecture_kana": "イワテケン",
    "prefecture_code": "3",
    "city": "北上市",
    "city_kana": "キタカミシ",
    "town": "稲瀬町",
    "town_kana": "イナセチョウ",
    "street": null,
    "office_name": null,
    "office_name_kana": null
  },
  "0042": {
    "zip_code": "0240042",
    "prefecture": "岩手県",
    "prefecture_kana": "イワテケン",
    "prefecture_code": "3",
    "city": "北上市",
    "city_kana": "キタカミシ",
    "town": "黒岩",
    "town_kana": "クロイワ",
    "street": null,
    "office_name": null,
    "office_name_kana": null
  },
  "0043": {
    "zip_code": "0240043",
    "prefecture": "岩手県",
    "prefecture_kana": "イワテケン",
    "prefecture_code": "3",
    "city": "北上市",
    "city_kana": "キタカミシ",
    "town": "立花",
    "town_kana": "タチバナ",
    "street": null,
    "office_name": null,
    "office_name_kana": null
  },
  "0044": {
    "zip_code": "0240044",
    "prefecture": "岩手県",
    "prefecture_kana": "イワテケン",
    "prefecture_code": "3",
    "city": "北上市",
    "city_kana": "キタカミシ",
    "town": "平沢",
    "town_kana": "ヒラサワ",
    "street": null,
    "office_name": null,
    "office_name_kana": null
  },
  "0045": {
    "zip_code": "0240045",
    "prefecture": "岩手県",
    "prefecture_kana": "イワテケン",
    "prefecture_code": "3",
    "city": "北上市",
    "city_kana": "キタカミシ",
    "town": "湯沢",
    "town_kana": "ユザワ",
    "street": null,
    "office_name": null,
    "office_name_kana": null
  },
  "0051": {
    "zip_code": "0240051",
    "prefecture": "岩手県",
    "prefecture_kana": "イワテケン",
    "prefecture_code": "3",
    "city": "北上市",
    "city_kana": "キタカミシ",
    "town": "相去町",
    "town_kana": "アイサリチョウ",
    "street": null,
    "office_name": null,
    "office_name_kana": null
  },
  "0052": {
    "zip_code": "0240052",
    "prefecture": "岩手県",
    "prefecture_kana": "イワテケン",
    "prefecture_code": "3",
    "city": "北上市",
    "city_kana": "キタカミシ",
    "town": "大堤北",
    "town_kana": "オオツツミキタ",
    "street": null,
    "office_name": null,
    "office_name_kana": null
  },
  "0053": {
    "zip_code": "0240053",
    "prefecture": "岩手県",
    "prefecture_kana": "イワテケン",
    "prefecture_code": "3",
    "city": "北上市",
    "city_kana": "キタカミシ",
    "town": "大堤西",
    "town_kana": "オオツツミニシ",
    "street": null,
    "office_name": null,
    "office_name_kana": null
  },
  "0054": {
    "zip_code": "0240054",
    "prefecture": "岩手県",
    "prefecture_kana": "イワテケン",
    "prefecture_code": "3",
    "city": "北上市",
    "city_kana": "キタカミシ",
    "town": "大堤東",
    "town_kana": "オオツツミヒガシ",
    "street": null,
    "office_name": null,
    "office_name_kana": null
  },
  "0055": {
    "zip_code": "0240055",
    "prefecture": "岩手県",
    "prefecture_kana": "イワテケン",
    "prefecture_code": "3",
    "city": "北上市",
    "city_kana": "キタカミシ",
    "town": "大堤南",
    "town_kana": "オオツツミミナミ",
    "street": null,
    "office_name": null,
    "office_name_kana": null
  },
  "0056": {
    "zip_code": "0240056",
    "prefecture": "岩手県",
    "prefecture_kana": "イワテケン",
    "prefecture_code": "3",
    "city": "北上市",
    "city_kana": "キタカミシ",
    "town": "鬼柳町",
    "town_kana": "オニヤナギチョウ",
    "street": null,
    "office_name": null,
    "office_name_kana": null
  },
  "0057": {
    "zip_code": "0240057",
    "prefecture": "岩手県",
    "prefecture_kana": "イワテケン",
    "prefecture_code": "3",
    "city": "北上市",
    "city_kana": "キタカミシ",
    "town": "上鬼柳",
    "town_kana": "カミオニヤナギ",
    "street": null,
    "office_name": null,
    "office_name_kana": null
  },
  "0058": {
    "zip_code": "0240058",
    "prefecture": "岩手県",
    "prefecture_kana": "イワテケン",
    "prefecture_code": "3",
    "city": "北上市",
    "city_kana": "キタカミシ",
    "town": "下鬼柳",
    "town_kana": "シモオニヤナギ",
    "street": null,
    "office_name": null,
    "office_name_kana": null
  },
  "0061": {
    "zip_code": "0240061",
    "prefecture": "岩手県",
    "prefecture_kana": "イワテケン",
    "prefecture_code": "3",
    "city": "北上市",
    "city_kana": "キタカミシ",
    "town": "大通り",
    "town_kana": "オオドオリ",
    "street": null,
    "office_name": null,
    "office_name_kana": null
  },
  "0062": {
    "zip_code": "0240062",
    "prefecture": "岩手県",
    "prefecture_kana": "イワテケン",
    "prefecture_code": "3",
    "city": "北上市",
    "city_kana": "キタカミシ",
    "town": "鍛冶町",
    "town_kana": "カジマチ",
    "street": null,
    "office_name": null,
    "office_name_kana": null
  },
  "0063": {
    "zip_code": "0240063",
    "prefecture": "岩手県",
    "prefecture_kana": "イワテケン",
    "prefecture_code": "3",
    "city": "北上市",
    "city_kana": "キタカミシ",
    "town": "九年橋",
    "town_kana": "クネンバシ",
    "street": null,
    "office_name": null,
    "office_name_kana": null
  },
  "0064": {
    "zip_code": "0240064",
    "prefecture": "岩手県",
    "prefecture_kana": "イワテケン",
    "prefecture_code": "3",
    "city": "北上市",
    "city_kana": "キタカミシ",
    "town": "若宮町",
    "town_kana": "ワカミヤチョウ",
    "street": null,
    "office_name": null,
    "office_name_kana": null
  },
  "0071": {
    "zip_code": "0240071",
    "prefecture": "岩手県",
    "prefecture_kana": "イワテケン",
    "prefecture_code": "3",
    "city": "北上市",
    "city_kana": "キタカミシ",
    "town": "上江釣子",
    "town_kana": "カミエヅリコ",
    "street": null,
    "office_name": null,
    "office_name_kana": null
  },
  "0072": {
    "zip_code": "0240072",
    "prefecture": "岩手県",
    "prefecture_kana": "イワテケン",
    "prefecture_code": "3",
    "city": "北上市",
    "city_kana": "キタカミシ",
    "town": "北鬼柳",
    "town_kana": "キタオニヤナギ",
    "street": null,
    "office_name": null,
    "office_name_kana": null
  },
  "0073": {
    "zip_code": "0240073",
    "prefecture": "岩手県",
    "prefecture_kana": "イワテケン",
    "prefecture_code": "3",
    "city": "北上市",
    "city_kana": "キタカミシ",
    "town": "下江釣子",
    "town_kana": "シモエヅリコ",
    "street": null,
    "office_name": null,
    "office_name_kana": null
  },
  "0074": {
    "zip_code": "0240074",
    "prefecture": "岩手県",
    "prefecture_kana": "イワテケン",
    "prefecture_code": "3",
    "city": "北上市",
    "city_kana": "キタカミシ",
    "town": "滑田",
    "town_kana": "ナメシダ",
    "street": null,
    "office_name": null,
    "office_name_kana": null
  },
  "0075": {
    "zip_code": "0240075",
    "prefecture": "岩手県",
    "prefecture_kana": "イワテケン",
    "prefecture_code": "3",
    "city": "北上市",
    "city_kana": "キタカミシ",
    "town": "新平",
    "town_kana": "ニツペイ",
    "street": null,
    "office_name": null,
    "office_name_kana": null
  },
  "0076": {
    "zip_code": "0240076",
    "prefecture": "岩手県",
    "prefecture_kana": "イワテケン",
    "prefecture_code": "3",
    "city": "北上市",
    "city_kana": "キタカミシ",
    "town": "鳩岡崎",
    "town_kana": "ハトオカザキ",
    "street": null,
    "office_name": null,
    "office_name_kana": null
  },
  "0081": {
    "zip_code": "0240081",
    "prefecture": "岩手県",
    "prefecture_kana": "イワテケン",
    "prefecture_code": "3",
    "city": "北上市",
    "city_kana": "キタカミシ",
    "town": "有田町",
    "town_kana": "アリタチョウ",
    "street": null,
    "office_name": null,
    "office_name_kana": null
  },
  "0082": {
    "zip_code": "0240082",
    "prefecture": "岩手県",
    "prefecture_kana": "イワテケン",
    "prefecture_code": "3",
    "city": "北上市",
    "city_kana": "キタカミシ",
    "town": "町分",
    "town_kana": "マチブン",
    "street": null,
    "office_name": null,
    "office_name_kana": null
  },
  "0083": {
    "zip_code": "0240083",
    "prefecture": "岩手県",
    "prefecture_kana": "イワテケン",
    "prefecture_code": "3",
    "city": "北上市",
    "city_kana": "キタカミシ",
    "town": "柳原町",
    "town_kana": "ヤナギハラチョウ",
    "street": null,
    "office_name": null,
    "office_name_kana": null
  },
  "0084": {
    "zip_code": "0240084",
    "prefecture": "岩手県",
    "prefecture_kana": "イワテケン",
    "prefecture_code": "3",
    "city": "北上市",
    "city_kana": "キタカミシ",
    "town": "さくら通り",
    "town_kana": "サクラドオリ",
    "street": null,
    "office_name": null,
    "office_name_kana": null
  },
  "0091": {
    "zip_code": "0240091",
    "prefecture": "岩手県",
    "prefecture_kana": "イワテケン",
    "prefecture_code": "3",
    "city": "北上市",
    "city_kana": "キタカミシ",
    "town": "大曲町",
    "town_kana": "オオマガリチョウ",
    "street": null,
    "office_name": null,
    "office_name_kana": null
  },
  "0092": {
    "zip_code": "0240092",
    "prefecture": "岩手県",
    "prefecture_kana": "イワテケン",
    "prefecture_code": "3",
    "city": "北上市",
    "city_kana": "キタカミシ",
    "town": "新穀町",
    "town_kana": "シンコクチョウ",
    "street": null,
    "office_name": null,
    "office_name_kana": null
  },
  "0093": {
    "zip_code": "0240093",
    "prefecture": "岩手県",
    "prefecture_kana": "イワテケン",
    "prefecture_code": "3",
    "city": "北上市",
    "city_kana": "キタカミシ",
    "town": "本石町",
    "town_kana": "ホンゴクチョウ",
    "street": null,
    "office_name": null,
    "office_name_kana": null
  },
  "0094": {
    "zip_code": "0240094",
    "prefecture": "岩手県",
    "prefecture_kana": "イワテケン",
    "prefecture_code": "3",
    "city": "北上市",
    "city_kana": "キタカミシ",
    "town": "本通り",
    "town_kana": "ホンドオリ",
    "street": null,
    "office_name": null,
    "office_name_kana": null
  },
  "0095": {
    "zip_code": "0240095",
    "prefecture": "岩手県",
    "prefecture_kana": "イワテケン",
    "prefecture_code": "3",
    "city": "北上市",
    "city_kana": "キタカミシ",
    "town": "芳町",
    "town_kana": "ヨシチョウ",
    "street": null,
    "office_name": null,
    "office_name_kana": null
  },
  "0101": {
    "zip_code": "0240101",
    "prefecture": "岩手県",
    "prefecture_kana": "イワテケン",
    "prefecture_code": "3",
    "city": "北上市",
    "city_kana": "キタカミシ",
    "town": "臥牛",
    "town_kana": "フシウシ",
    "street": null,
    "office_name": null,
    "office_name_kana": null
  },
  "0102": {
    "zip_code": "0240102",
    "prefecture": "岩手県",
    "prefecture_kana": "イワテケン",
    "prefecture_code": "3",
    "city": "北上市",
    "city_kana": "キタカミシ",
    "town": "北工業団地",
    "town_kana": "キタコウギョウダンチ",
    "street": null,
    "office_name": null,
    "office_name_kana": null
  },
  "0103": {
    "zip_code": "0240103",
    "prefecture": "岩手県",
    "prefecture_kana": "イワテケン",
    "prefecture_code": "3",
    "city": "北上市",
    "city_kana": "キタカミシ",
    "town": "更木",
    "town_kana": "サラキ",
    "street": null,
    "office_name": null,
    "office_name_kana": null
  },
  "0104": {
    "zip_code": "0240104",
    "prefecture": "岩手県",
    "prefecture_kana": "イワテケン",
    "prefecture_code": "3",
    "city": "北上市",
    "city_kana": "キタカミシ",
    "town": "二子町",
    "town_kana": "フタゴチョウ",
    "street": null,
    "office_name": null,
    "office_name_kana": null
  },
  "0105": {
    "zip_code": "0240105",
    "prefecture": "岩手県",
    "prefecture_kana": "イワテケン",
    "prefecture_code": "3",
    "city": "北上市",
    "city_kana": "キタカミシ",
    "town": "小鳥崎",
    "town_kana": "コトリザキ",
    "street": null,
    "office_name": null,
    "office_name_kana": null
  },
  "0193": {
    "zip_code": "0240193",
    "prefecture": "岩手県",
    "prefecture_kana": "イワテケン",
    "prefecture_code": "3",
    "city": "北上市",
    "city_kana": "キタカミシ",
    "town": "北工業団地",
    "town_kana": "キタコウギョウダンチ",
    "street": "３−３",
    "office_name": "明治製菓　株式会社　北上工場",
    "office_name_kana": "メイジセイカ カブシキカイシヤ キタカミコウジヨウ"
  },
  "0194": {
    "zip_code": "0240194",
    "prefecture": "岩手県",
    "prefecture_kana": "イワテケン",
    "prefecture_code": "3",
    "city": "北上市",
    "city_kana": "キタカミシ",
    "town": "北工業団地",
    "town_kana": "キタコウギョウダンチ",
    "street": "５−１１",
    "office_name": "株式会社　鈴木商館　岩手営業所",
    "office_name_kana": "カブシキカイシヤ スズキシヨウカン イワテエイギヨウシヨ"
  },
  "0195": {
    "zip_code": "0240195",
    "prefecture": "岩手県",
    "prefecture_kana": "イワテケン",
    "prefecture_code": "3",
    "city": "北上市",
    "city_kana": "キタカミシ",
    "town": "北工業団地",
    "town_kana": "キタコウギョウダンチ",
    "street": "５−１６",
    "office_name": "グリンクス　株式会社",
    "office_name_kana": "グリンクス カブシキカイシヤ"
  },
  "0211": {
    "zip_code": "0240211",
    "prefecture": "岩手県",
    "prefecture_kana": "イワテケン",
    "prefecture_code": "3",
    "city": "北上市",
    "city_kana": "キタカミシ",
    "town": "口内町",
    "town_kana": "クチナイチョウ",
    "street": null,
    "office_name": null,
    "office_name_kana": null
  },
  "0321": {
    "zip_code": "0240321",
    "prefecture": "岩手県",
    "prefecture_kana": "イワテケン",
    "prefecture_code": "3",
    "city": "北上市",
    "city_kana": "キタカミシ",
    "town": "和賀町岩崎",
    "town_kana": "ワガチョウイワサキ",
    "street": null,
    "office_name": null,
    "office_name_kana": null
  },
  "0322": {
    "zip_code": "0240322",
    "prefecture": "岩手県",
    "prefecture_kana": "イワテケン",
    "prefecture_code": "3",
    "city": "北上市",
    "city_kana": "キタカミシ",
    "town": "和賀町岩崎新田",
    "town_kana": "ワガチョウイワサキシンデン",
    "street": null,
    "office_name": null,
    "office_name_kana": null
  },
  "0323": {
    "zip_code": "0240323",
    "prefecture": "岩手県",
    "prefecture_kana": "イワテケン",
    "prefecture_code": "3",
    "city": "北上市",
    "city_kana": "キタカミシ",
    "town": "和賀町煤孫",
    "town_kana": "ワガチョウススマゴ",
    "street": null,
    "office_name": null,
    "office_name_kana": null
  },
  "0324": {
    "zip_code": "0240324",
    "prefecture": "岩手県",
    "prefecture_kana": "イワテケン",
    "prefecture_code": "3",
    "city": "北上市",
    "city_kana": "キタカミシ",
    "town": "和賀町山口",
    "town_kana": "ワガチョウヤマグチ",
    "street": null,
    "office_name": null,
    "office_name_kana": null
  },
  "0325": {
    "zip_code": "0240325",
    "prefecture": "岩手県",
    "prefecture_kana": "イワテケン",
    "prefecture_code": "3",
    "city": "北上市",
    "city_kana": "キタカミシ",
    "town": "和賀町岩沢",
    "town_kana": "ワガチョウイワサワ",
    "street": null,
    "office_name": null,
    "office_name_kana": null
  },
  "0326": {
    "zip_code": "0240326",
    "prefecture": "岩手県",
    "prefecture_kana": "イワテケン",
    "prefecture_code": "3",
    "city": "北上市",
    "city_kana": "キタカミシ",
    "town": "和賀町仙人",
    "town_kana": "ワガチョウセンニン",
    "street": null,
    "office_name": null,
    "office_name_kana": null
  },
  "0331": {
    "zip_code": "0240331",
    "prefecture": "岩手県",
    "prefecture_kana": "イワテケン",
    "prefecture_code": "3",
    "city": "北上市",
    "city_kana": "キタカミシ",
    "town": "和賀町横川目",
    "town_kana": "ワガチョウヨコカワメ",
    "street": null,
    "office_name": null,
    "office_name_kana": null
  },
  "0332": {
    "zip_code": "0240332",
    "prefecture": "岩手県",
    "prefecture_kana": "イワテケン",
    "prefecture_code": "3",
    "city": "北上市",
    "city_kana": "キタカミシ",
    "town": "和賀町竪川目",
    "town_kana": "ワガチョウタテカワメ",
    "street": null,
    "office_name": null,
    "office_name_kana": null
  },
  "0333": {
    "zip_code": "0240333",
    "prefecture": "岩手県",
    "prefecture_kana": "イワテケン",
    "prefecture_code": "3",
    "city": "北上市",
    "city_kana": "キタカミシ",
    "town": "和賀町長沼",
    "town_kana": "ワガチョウナガヌマ",
    "street": null,
    "office_name": null,
    "office_name_kana": null
  },
  "0334": {
    "zip_code": "0240334",
    "prefecture": "岩手県",
    "prefecture_kana": "イワテケン",
    "prefecture_code": "3",
    "city": "北上市",
    "city_kana": "キタカミシ",
    "town": "和賀町藤根",
    "town_kana": "ワガチョウフジネ",
    "street": null,
    "office_name": null,
    "office_name_kana": null
  },
  "0335": {
    "zip_code": "0240335",
    "prefecture": "岩手県",
    "prefecture_kana": "イワテケン",
    "prefecture_code": "3",
    "city": "北上市",
    "city_kana": "キタカミシ",
    "town": "和賀町後藤",
    "town_kana": "ワガチョウゴトウ",
    "street": null,
    "office_name": null,
    "office_name_kana": null
  },
  "0341": [
    {
      "zip_code": "0240341",
      "prefecture": "岩手県",
      "prefecture_kana": "イワテケン",
      "prefecture_code": "3",
      "city": "和賀郡西和賀町",
      "city_kana": "ワガグンニシワガマチ",
      "town": "杉名畑４４地割",
      "town_kana": "スギナハタ44チワリ",
      "street": null,
      "office_name": null,
      "office_name_kana": null
    },
    {
      "zip_code": "0240341",
      "prefecture": "岩手県",
      "prefecture_kana": "イワテケン",
      "prefecture_code": "3",
      "city": "和賀郡西和賀町",
      "city_kana": "ワガグンニシワガマチ",
      "town": "杉名畑４４地割湯田ダム管理事務所",
      "town_kana": "スギナハタ44チワリユダダムカンリジムショ",
      "street": null,
      "office_name": null,
      "office_name_kana": null
    },
    {
      "zip_code": "0240341",
      "prefecture": "岩手県",
      "prefecture_kana": "イワテケン",
      "prefecture_code": "3",
      "city": "和賀郡西和賀町",
      "city_kana": "ワガグンニシワガマチ",
      "town": "杉名畑４４地割後口山",
      "town_kana": "スギナハタ44チワリウシログチヤマ",
      "street": null,
      "office_name": null,
      "office_name_kana": null
    },
    {
      "zip_code": "0240341",
      "prefecture": "岩手県",
      "prefecture_kana": "イワテケン",
      "prefecture_code": "3",
      "city": "和賀郡西和賀町",
      "city_kana": "ワガグンニシワガマチ",
      "town": "杉名畑４４地割当楽",
      "town_kana": "スギナハタ44チワリアテラク",
      "street": null,
      "office_name": null,
      "office_name_kana": null
    }
  ],
  "0392": {
    "zip_code": "0240392",
    "prefecture": "岩手県",
    "prefecture_kana": "イワテケン",
    "prefecture_code": "3",
    "city": "北上市",
    "city_kana": "キタカミシ",
    "town": "和賀町横川目",
    "town_kana": "ワガチョウヨコカワメ",
    "street": "１１地割１６０番地",
    "office_name": "北上市役所　和賀庁舎",
    "office_name_kana": "キタカミシヤクシヨ ワガチヨウシヤ"
  },
  "8501": {
    "zip_code": "0248501",
    "prefecture": "岩手県",
    "prefecture_kana": "イワテケン",
    "prefecture_code": "3",
    "city": "北上市",
    "city_kana": "キタカミシ",
    "town": "芳町",
    "town_kana": "ヨシチョウ",
    "street": "１−１",
    "office_name": "北上市役所",
    "office_name_kana": "キタカミシヤクシヨ"
  },
  "8505": {
    "zip_code": "0248505",
    "prefecture": "岩手県",
    "prefecture_kana": "イワテケン",
    "prefecture_code": "3",
    "city": "北上市",
    "city_kana": "キタカミシ",
    "town": "流通センター",
    "town_kana": "リュウツウセンター",
    "street": "１９番３３号",
    "office_name": "花巻農業共同組合　北上支店",
    "office_name_kana": "ハナマキノウギヨウキヨウドウクミアイ キタカミシテン"
  },
  "8507": {
    "zip_code": "0248507",
    "prefecture": "岩手県",
    "prefecture_kana": "イワテケン",
    "prefecture_code": "3",
    "city": "北上市",
    "city_kana": "キタカミシ",
    "town": "村崎野",
    "town_kana": "ムラサキノ",
    "street": "１７地割１０番地",
    "office_name": "岩手県立　中部病院",
    "office_name_kana": "イワテケンリツ チユウブビヨウイン"
  },
  "8510": {
    "zip_code": "0248510",
    "prefecture": "岩手県",
    "prefecture_kana": "イワテケン",
    "prefecture_code": "3",
    "city": "北上市",
    "city_kana": "キタカミシ",
    "town": "北工業団地",
    "town_kana": "キタコウギョウダンチ",
    "street": "６−６",
    "office_name": "岩手東芝エレクトロニクス　株式会社",
    "office_name_kana": "イワテトウシバエレクトロニクス カブシキカイシヤ"
  },
  "8511": {
    "zip_code": "0248511",
    "prefecture": "岩手県",
    "prefecture_kana": "イワテケン",
    "prefecture_code": "3",
    "city": "北上市",
    "city_kana": "キタカミシ",
    "town": "本通り",
    "town_kana": "ホンドオリ",
    "street": "２丁目２番１号",
    "office_name": "さくら野百貨店　北上店",
    "office_name_kana": "サクラノヒヤツカテン キタカミテン"
  },
  "8513": {
    "zip_code": "0248513",
    "prefecture": "岩手県",
    "prefecture_kana": "イワテケン",
    "prefecture_code": "3",
    "city": "北上市",
    "city_kana": "キタカミシ",
    "town": "鍛冶町",
    "town_kana": "カジマチ",
    "street": "１丁目３番地１",
    "office_name": "専修大学　北上福祉教育専門学校",
    "office_name_kana": "センシユウダイガク キタカミフクシキヨウイクセンモンガツコウ"
  },
  "8518": {
    "zip_code": "0248518",
    "prefecture": "岩手県",
    "prefecture_kana": "イワテケン",
    "prefecture_code": "3",
    "city": "北上市",
    "city_kana": "キタカミシ",
    "town": "村崎野",
    "town_kana": "ムラサキノ",
    "street": "２４地割１９番地",
    "office_name": "岩手県立　黒沢尻工業高等学校",
    "office_name_kana": "イワテケンリツ クロサワジリコウギヨウコウトウガツコウ"
  },
  "8520": {
    "zip_code": "0248520",
    "prefecture": "岩手県",
    "prefecture_kana": "イワテケン",
    "prefecture_code": "3",
    "city": "北上市",
    "city_kana": "キタカミシ",
    "town": "芳町",
    "town_kana": "ヨシチョウ",
    "street": "２番８号",
    "office_name": "県南広域振興局",
    "office_name_kana": "ケンナンコウイキシンコウキヨク"
  }
}