{
  "0000": {
    "zip_code": "0260000",
    "prefecture": "岩手県",
    "prefecture_kana": "イワテケン",
    "prefecture_code": 3,
    "city": "釜石市",
    "city_kana": "カマイシシ",
    "town": "",
    "town_kana": "",
    "street": null,
    "office_name": null,
    "office_name_kana": null
  },
  "0001": {
    "zip_code": "0260001",
    "prefecture": "岩手県",
    "prefecture_kana": "イワテケン",
    "prefecture_code": 3,
    "city": "釜石市",
    "city_kana": "カマイシシ",
    "town": "平田",
    "town_kana": "ヘイタ",
    "street": null,
    "office_name": null,
    "office_name_kana": null
  },
  "0002": {
    "zip_code": "0260002",
    "prefecture": "岩手県",
    "prefecture_kana": "イワテケン",
    "prefecture_code": 3,
    "city": "釜石市",
    "city_kana": "カマイシシ",
    "town": "大平町",
    "town_kana": "オオダイラチョウ",
    "street": null,
    "office_name": null,
    "office_name_kana": null
  },
  "0003": {
    "zip_code": "0260003",
    "prefecture": "岩手県",
    "prefecture_kana": "イワテケン",
    "prefecture_code": 3,
    "city": "釜石市",
    "city_kana": "カマイシシ",
    "town": "嬉石町",
    "town_kana": "ウレイシチョウ",
    "street": null,
    "office_name": null,
    "office_name_kana": null
  },
  "0004": {
    "zip_code": "0260004",
    "prefecture": "岩手県",
    "prefecture_kana": "イワテケン",
    "prefecture_code": 3,
    "city": "釜石市",
    "city_kana": "カマイシシ",
    "town": "松原町",
    "town_kana": "マツバラチョウ",
    "street": null,
    "office_name": null,
    "office_name_kana": null
  },
  "0011": {
    "zip_code": "0260011",
    "prefecture": "岩手県",
    "prefecture_kana": "イワテケン",
    "prefecture_code": 3,
    "city": "釜石市",
    "city_kana": "カマイシシ",
    "town": "港町",
    "town_kana": "ミナトマチ",
    "street": null,
    "office_name": null,
    "office_name_kana": null
  },
  "0012": {
    "zip_code": "0260012",
    "prefecture": "岩手県",
    "prefecture_kana": "イワテケン",
    "prefecture_code": 3,
    "city": "釜石市",
    "city_kana": "カマイシシ",
    "town": "魚河岸",
    "town_kana": "ウオガシ",
    "street": null,
    "office_name": null,
    "office_name_kana": null
  },
  "0013": {
    "zip_code": "0260013",
    "prefecture": "岩手県",
    "prefecture_kana": "イワテケン",
    "prefecture_code": 3,
    "city": "釜石市",
    "city_kana": "カマイシシ",
    "town": "浜町",
    "town_kana": "ハマチョウ",
    "street": null,
    "office_name": null,
    "office_name_kana": null
  },
  "0014": {
    "zip_code": "0260014",
    "prefecture": "岩手県",
    "prefecture_kana": "イワテケン",
    "prefecture_code": 3,
    "city": "釜石市",
    "city_kana": "カマイシシ",
    "town": "東前町",
    "town_kana": "ヒガシマエチョウ",
    "street": null,
    "office_name": null,
    "office_name_kana": null
  },
  "0015": {
    "zip_code": "0260015",
    "prefecture": "岩手県",
    "prefecture_kana": "イワテケン",
    "prefecture_code": 3,
    "city": "釜石市",
    "city_kana": "カマイシシ",
    "town": "新浜町",
    "town_kana": "シンハマチョウ",
    "street": null,
    "office_name": null,
    "office_name_kana": null
  },
  "0021": {
    "zip_code": "0260021",
    "prefecture": "岩手県",
    "prefecture_kana": "イワテケン",
    "prefecture_code": 3,
    "city": "釜石市",
    "city_kana": "カマイシシ",
    "town": "只越町",
    "town_kana": "タダコエチョウ",
    "street": null,
    "office_name": null,
    "office_name_kana": null
  },
  "0022": {
    "zip_code": "0260022",
    "prefecture": "岩手県",
    "prefecture_kana": "イワテケン",
    "prefecture_code": 3,
    "city": "釜石市",
    "city_kana": "カマイシシ",
    "town": "大只越町",
    "town_kana": "オオタダコエチョウ",
    "street": null,
    "office_name": null,
    "office_name_kana": null
  },
  "0023": {
    "zip_code": "0260023",
    "prefecture": "岩手県",
    "prefecture_kana": "イワテケン",
    "prefecture_code": 3,
    "city": "釜石市",
    "city_kana": "カマイシシ",
    "town": "天神町",
    "town_kana": "テンジンチョウ",
    "street": null,
    "office_name": null,
    "office_name_kana": null
  },
  "0024": {
    "zip_code": "0260024",
    "prefecture": "岩手県",
    "prefecture_kana": "イワテケン",
    "prefecture_code": 3,
    "city": "釜石市",
    "city_kana": "カマイシシ",
    "town": "大町",
    "town_kana": "オオマチ",
    "street": null,
    "office_name": null,
    "office_name_kana": null
  },
  "0025": {
    "zip_code": "0260025",
    "prefecture": "岩手県",
    "prefecture_kana": "イワテケン",
    "prefecture_code": 3,
    "city": "釜石市",
    "city_kana": "カマイシシ",
    "town": "大渡町",
    "town_kana": "オオワタリチョウ",
    "street": null,
    "office_name": null,
    "office_name_kana": null
  },
  "0026": {
    "zip_code": "0260026",
    "prefecture": "岩手県",
    "prefecture_kana": "イワテケン",
    "prefecture_code": 3,
    "city": "釜石市",
    "city_kana": "カマイシシ",
    "town": "釜石",
    "town_kana": "カマイシ",
    "street": null,
    "office_name": null,
    "office_name_kana": null
  },
  "0031": {
    "zip_code": "0260031",
    "prefecture": "岩手県",
    "prefecture_kana": "イワテケン",
    "prefecture_code": 3,
    "city": "釜石市",
    "city_kana": "カマイシシ",
    "town": "鈴子町",
    "town_kana": "スズコチョウ",
    "street": null,
    "office_name": null,
    "office_name_kana": null
  },
  "0032": {
    "zip_code": "0260032",
    "prefecture": "岩手県",
    "prefecture_kana": "イワテケン",
    "prefecture_code": 3,
    "city": "釜石市",
    "city_kana": "カマイシシ",
    "town": "千鳥町",
    "town_kana": "チドリチョウ",
    "street": null,
    "office_name": null,
    "office_name_kana": null
  },
  "0033": {
    "zip_code": "0260033",
    "prefecture": "岩手県",
    "prefecture_kana": "イワテケン",
    "prefecture_code": 3,
    "city": "釜石市",
    "city_kana": "カマイシシ",
    "town": "駒木町",
    "town_kana": "コマギチョウ",
    "street": null,
    "office_name": null,
    "office_name_kana": null
  },
  "0034": {
    "zip_code": "0260034",
    "prefecture": "岩手県",
    "prefecture_kana": "イワテケン",
    "prefecture_code": 3,
    "city": "釜石市",
    "city_kana": "カマイシシ",
    "town": "中妻町",
    "town_kana": "ナカヅマチョウ",
    "street": null,
    "office_name": null,
    "office_name_kana": null
  },
  "0035": {
    "zip_code": "0260035",
    "prefecture": "岩手県",
    "prefecture_kana": "イワテケン",
    "prefecture_code": 3,
    "city": "釜石市",
    "city_kana": "カマイシシ",
    "town": "八雲町",
    "town_kana": "ヤグモチョウ",
    "street": null,
    "office_name": null,
    "office_name_kana": null
  },
  "0041": {
    "zip_code": "0260041",
    "prefecture": "岩手県",
    "prefecture_kana": "イワテケン",
    "prefecture_code": 3,
    "city": "釜石市",
    "city_kana": "カマイシシ",
    "town": "上中島町",
    "town_kana": "カミナカシマチョウ",
    "street": null,
    "office_name": null,
    "office_name_kana": null
  },
  "0042": {
    "zip_code": "0260042",
    "prefecture": "岩手県",
    "prefecture_kana": "イワテケン",
    "prefecture_code": 3,
    "city": "釜石市",
    "city_kana": "カマイシシ",
    "town": "源太沢町",
    "town_kana": "ゲンタサワチョウ",
    "street": null,
    "office_name": null,
    "office_name_kana": null
  },
  "0043": {
    "zip_code": "0260043",
    "prefecture": "岩手県",
    "prefecture_kana": "イワテケン",
    "prefecture_code": 3,
    "city": "釜石市",
    "city_kana": "カマイシシ",
    "town": "新町",
    "town_kana": "シンマチ",
    "street": null,
    "office_name": null,
    "office_name_kana": null
  },
  "0044": {
    "zip_code": "0260044",
    "prefecture": "岩手県",
    "prefecture_kana": "イワテケン",
    "prefecture_code": 3,
    "city": "釜石市",
    "city_kana": "カマイシシ",
    "town": "住吉町",
    "town_kana": "スミヨシチョウ",
    "street": null,
    "office_name": null,
    "office_name_kana": null
  },
  "0045": {
    "zip_code": "0260045",
    "prefecture": "岩手県",
    "prefecture_kana": "イワテケン",
    "prefecture_code": 3,
    "city": "釜石市",
    "city_kana": "カマイシシ",
    "town": "小川町",
    "town_kana": "コガワチョウ",
    "street": null,
    "office_name": null,
    "office_name_kana": null
  },
  "0046": {
    "zip_code": "0260046",
    "prefecture": "岩手県",
    "prefecture_kana": "イワテケン",
    "prefecture_code": 3,
    "city": "釜石市",
    "city_kana": "カマイシシ",
    "town": "桜木町",
    "town_kana": "サクラギチョウ",
    "street": null,
    "office_name": null,
    "office_name_kana": null
  },
  "0051": {
    "zip_code": "0260051",
    "prefecture": "岩手県",
    "prefecture_kana": "イワテケン",
    "prefecture_code": 3,
    "city": "釜石市",
    "city_kana": "カマイシシ",
    "town": "礼ケ口町",
    "town_kana": "レイガグチチョウ",
    "street": null,
    "office_name": null,
    "office_name_kana": null
  },
  "0052": {
    "zip_code": "0260052",
    "prefecture": "岩手県",
    "prefecture_kana": "イワテケン",
    "prefecture_code": 3,
    "city": "釜石市",
    "city_kana": "カマイシシ",
    "town": "小佐野町",
    "town_kana": "コサノチョウ",
    "street": null,
    "office_name": null,
    "office_name_kana": null
  },
  "0053": {
    "zip_code": "0260053",
    "prefecture": "岩手県",
    "prefecture_kana": "イワテケン",
    "prefecture_code": 3,
    "city": "釜石市",
    "city_kana": "カマイシシ",
    "town": "定内町",
    "town_kana": "サダナイチョウ",
    "street": null,
    "office_name": null,
    "office_name_kana": null
  },
  "0054": {
    "zip_code": "0260054",
    "prefecture": "岩手県",
    "prefecture_kana": "イワテケン",
    "prefecture_code": 3,
    "city": "釜石市",
    "city_kana": "カマイシシ",
    "town": "野田町",
    "town_kana": "ノダチョウ",
    "street": null,
    "office_name": null,
    "office_name_kana": null
  },
  "0055": {
    "zip_code": "0260055",
    "prefecture": "岩手県",
    "prefecture_kana": "イワテケン",
    "prefecture_code": 3,
    "city": "釜石市",
    "city_kana": "カマイシシ",
    "town": "甲子町",
    "town_kana": "カッシチョウ",
    "street": null,
    "office_name": null,
    "office_name_kana": null
  },
  "0061": [
    {
      "zip_code": "0260061",
      "prefecture": "岩手県",
      "prefecture_kana": "イワテケン",
      "prefecture_code": 3,
      "city": "釜石市",
      "city_kana": "カマイシシ",
      "town": "唐丹町",
      "town_kana": "トウニチョウ",
      "street": null,
      "office_name": null,
      "office_name_kana": null
    },
    {
      "zip_code": "0260061",
      "prefecture": "岩手県",
      "prefecture_kana": "イワテケン",
      "prefecture_code": 3,
      "city": "釜石市",
      "city_kana": "カマイシシ",
      "town": "唐丹町鍋倉",
      "town_kana": "トウニチョウナベクラ",
      "street": null,
      "office_name": null,
      "office_name_kana": null
    }
  ],
  "0121": {
    "zip_code": "0260121",
    "prefecture": "岩手県",
    "prefecture_kana": "イワテケン",
    "prefecture_code": 3,
    "city": "釜石市",
    "city_kana": "カマイシシ",
    "town": "唐丹町",
    "town_kana": "トウニチョウ",
    "street": null,
    "office_name": null,
    "office_name_kana": null
  },
  "0301": {
    "zip_code": "0260301",
    "prefecture": "岩手県",
    "prefecture_kana": "イワテケン",
    "prefecture_code": 3,
    "city": "釜石市",
    "city_kana": "カマイシシ",
    "town": "鵜住居町",
    "town_kana": "ウノスマイチョウ",
    "street": null,
    "office_name": null,
    "office_name_kana": null
  },
  "0302": {
    "zip_code": "0260302",
    "prefecture": "岩手県",
    "prefecture_kana": "イワテケン",
    "prefecture_code": 3,
    "city": "釜石市",
    "city_kana": "カマイシシ",
    "town": "片岸町",
    "town_kana": "カタギシチョウ",
    "street": null,
    "office_name": null,
    "office_name_kana": null
  },
  "0303": {
    "zip_code": "0260303",
    "prefecture": "岩手県",
    "prefecture_kana": "イワテケン",
    "prefecture_code": 3,
    "city": "釜石市",
    "city_kana": "カマイシシ",
    "town": "箱崎町",
    "town_kana": "ハコザキチョウ",
    "street": null,
    "office_name": null,
    "office_name_kana": null
  },
  "0304": {
    "zip_code": "0260304",
    "prefecture": "岩手県",
    "prefecture_kana": "イワテケン",
    "prefecture_code": 3,
    "city": "釜石市",
    "city_kana": "カマイシシ",
    "town": "両石町",
    "town_kana": "リョウイシチョウ",
    "street": null,
    "office_name": null,
    "office_name_kana": null
  },
  "0411": {
    "zip_code": "0260411",
    "prefecture": "岩手県",
    "prefecture_kana": "イワテケン",
    "prefecture_code": 3,
    "city": "釜石市",
    "city_kana": "カマイシシ",
    "town": "橋野町",
    "town_kana": "ハシノチョウ",
    "street": null,
    "office_name": null,
    "office_name_kana": null
  },
  "0412": {
    "zip_code": "0260412",
    "prefecture": "岩手県",
    "prefecture_kana": "イワテケン",
    "prefecture_code": 3,
    "city": "釜石市",
    "city_kana": "カマイシシ",
    "town": "栗林町",
    "town_kana": "クリバヤシチョウ",
    "street": null,
    "office_name": null,
    "office_name_kana": null
  },
  "8550": {
    "zip_code": "0268550",
    "prefecture": "岩手県",
    "prefecture_kana": "イワテケン",
    "prefecture_code": 3,
    "city": "釜石市",
    "city_kana": "カマイシシ",
    "town": "甲子町",
    "town_kana": "カッシチョウ",
    "street": "第１０地割４８３−６",
    "office_name": "岩手県立　釜石病院",
    "office_name_kana": "イワテケンリツ カマイシビヨウイン"
  },
  "8567": {
    "zip_code": "0268567",
    "prefecture": "岩手県",
    "prefecture_kana": "イワテケン",
    "prefecture_code": 3,
    "city": "釜石市",
    "city_kana": "カマイシシ",
    "town": "鈴子町",
    "town_kana": "スズコチョウ",
    "street": "２３−１５",
    "office_name": "新日本製鐵　株式会社　釜石製鐵所",
    "office_name_kana": "シンニホンセイテツ カブシキガイシヤ カマイシセイテツシヨ"
  },
  "8686": {
    "zip_code": "0268686",
    "prefecture": "岩手県",
    "prefecture_kana": "イワテケン",
    "prefecture_code": 3,
    "city": "釜石市",
    "city_kana": "カマイシシ",
    "town": "只越町",
    "town_kana": "タダコエチョウ",
    "street": "３丁目９−１３（釜石郵便局私書箱第４号）",
    "office_name": "釜石市役所",
    "office_name_kana": "カマイシシヤクシヨ"
  }
}