{
  "0000": {
    "zip_code": "0380000",
    "prefecture": "青森県",
    "prefecture_kana": "アオモリケン",
    "prefecture_code": 2,
    "city": "青森市",
    "city_kana": "アオモリシ",
    "town": "",
    "town_kana": "",
    "street": null,
    "office_name": null,
    "office_name_kana": null
  },
  "0001": {
    "zip_code": "0380001",
    "prefecture": "青森県",
    "prefecture_kana": "アオモリケン",
    "prefecture_code": 2,
    "city": "青森市",
    "city_kana": "アオモリシ",
    "town": "新田",
    "town_kana": "ニッタ",
    "street": null,
    "office_name": null,
    "office_name_kana": null
  },
  "0002": {
    "zip_code": "0380002",
    "prefecture": "青森県",
    "prefecture_kana": "アオモリケン",
    "prefecture_code": 2,
    "city": "青森市",
    "city_kana": "アオモリシ",
    "town": "沖館",
    "town_kana": "オキダテ",
    "street": null,
    "office_name": null,
    "office_name_kana": null
  },
  "0003": {
    "zip_code": "0380003",
    "prefecture": "青森県",
    "prefecture_kana": "アオモリケン",
    "prefecture_code": 2,
    "city": "青森市",
    "city_kana": "アオモリシ",
    "town": "石江",
    "town_kana": "イシエ",
    "street": null,
    "office_name": null,
    "office_name_kana": null
  },
  "0004": {
    "zip_code": "0380004",
    "prefecture": "青森県",
    "prefecture_kana": "アオモリケン",
    "prefecture_code": 2,
    "city": "青森市",
    "city_kana": "アオモリシ",
    "town": "富田",
    "town_kana": "トミタ",
    "street": null,
    "office_name": null,
    "office_name_kana": null
  },
  "0006": {
    "zip_code": "0380006",
    "prefecture": "青森県",
    "prefecture_kana": "アオモリケン",
    "prefecture_code": 2,
    "city": "青森市",
    "city_kana": "アオモリシ",
    "town": "三好",
    "town_kana": "ミヨシ",
    "street": null,
    "office_name": null,
    "office_name_kana": null
  },
  "0011": {
    "zip_code": "0380011",
    "prefecture": "青森県",
    "prefecture_kana": "アオモリケン",
    "prefecture_code": 2,
    "city": "青森市",
    "city_kana": "アオモリシ",
    "town": "篠田",
    "town_kana": "シノダ",
    "street": null,
    "office_name": null,
    "office_name_kana": null
  },
  "0012": {
    "zip_code": "0380012",
    "prefecture": "青森県",
    "prefecture_kana": "アオモリケン",
    "prefecture_code": 2,
    "city": "青森市",
    "city_kana": "アオモリシ",
    "town": "柳川",
    "town_kana": "ヤナカワ",
    "street": null,
    "office_name": null,
    "office_name_kana": null
  },
  "0013": {
    "zip_code": "0380013",
    "prefecture": "青森県",
    "prefecture_kana": "アオモリケン",
    "prefecture_code": 2,
    "city": "青森市",
    "city_kana": "アオモリシ",
    "town": "久須志",
    "town_kana": "クスシ",
    "street": null,
    "office_name": null,
    "office_name_kana": null
  },
  "0014": {
    "zip_code": "0380014",
    "prefecture": "青森県",
    "prefecture_kana": "アオモリケン",
    "prefecture_code": 2,
    "city": "青森市",
    "city_kana": "アオモリシ",
    "town": "西滝",
    "town_kana": "ニシタキ",
    "street": null,
    "office_name": null,
    "office_name_kana": null
  },
  "0015": {
    "zip_code": "0380015",
    "prefecture": "青森県",
    "prefecture_kana": "アオモリケン",
    "prefecture_code": 2,
    "city": "青森市",
    "city_kana": "アオモリシ",
    "town": "千刈",
    "town_kana": "センガリ",
    "street": null,
    "office_name": null,
    "office_name_kana": null
  },
  "0021": {
    "zip_code": "0380021",
    "prefecture": "青森県",
    "prefecture_kana": "アオモリケン",
    "prefecture_code": 2,
    "city": "青森市",
    "city_kana": "アオモリシ",
    "town": "安田",
    "town_kana": "ヤスタ",
    "street": null,
    "office_name": null,
    "office_name_kana": null
  },
  "0022": {
    "zip_code": "0380022",
    "prefecture": "青森県",
    "prefecture_kana": "アオモリケン",
    "prefecture_code": 2,
    "city": "青森市",
    "city_kana": "アオモリシ",
    "town": "浪館",
    "town_kana": "ナミダテ",
    "street": null,
    "office_name": null,
    "office_name_kana": null
  },
  "0023": {
    "zip_code": "0380023",
    "prefecture": "青森県",
    "prefecture_kana": "アオモリケン",
    "prefecture_code": 2,
    "city": "青森市",
    "city_kana": "アオモリシ",
    "town": "細越",
    "town_kana": "ホソゴエ",
    "street": null,
    "office_name": null,
    "office_name_kana": null
  },
  "0024": {
    "zip_code": "0380024",
    "prefecture": "青森県",
    "prefecture_kana": "アオモリケン",
    "prefecture_code": 2,
    "city": "青森市",
    "city_kana": "アオモリシ",
    "town": "浪館前田",
    "town_kana": "ナミダテマエダ",
    "street": null,
    "office_name": null,
    "office_name_kana": null
  },
  "0031": {
    "zip_code": "0380031",
    "prefecture": "青森県",
    "prefecture_kana": "アオモリケン",
    "prefecture_code": 2,
    "city": "青森市",
    "city_kana": "アオモリシ",
    "town": "三内",
    "town_kana": "サンナイ",
    "street": null,
    "office_name": null,
    "office_name_kana": null
  },
  "0032": {
    "zip_code": "0380032",
    "prefecture": "青森県",
    "prefecture_kana": "アオモリケン",
    "prefecture_code": 2,
    "city": "青森市",
    "city_kana": "アオモリシ",
    "town": "里見",
    "town_kana": "サトミ",
    "street": null,
    "office_name": null,
    "office_name_kana": null
  },
  "0041": {
    "zip_code": "0380041",
    "prefecture": "青森県",
    "prefecture_kana": "アオモリケン",
    "prefecture_code": 2,
    "city": "青森市",
    "city_kana": "アオモリシ",
    "town": "岡町",
    "town_kana": "オカマチ",
    "street": null,
    "office_name": null,
    "office_name_kana": null
  },
  "0042": {
    "zip_code": "0380042",
    "prefecture": "青森県",
    "prefecture_kana": "アオモリケン",
    "prefecture_code": 2,
    "city": "青森市",
    "city_kana": "アオモリシ",
    "town": "新城",
    "town_kana": "シンジョウ",
    "street": null,
    "office_name": null,
    "office_name_kana": null
  },
  "0043": {
    "zip_code": "0380043",
    "prefecture": "青森県",
    "prefecture_kana": "アオモリケン",
    "prefecture_code": 2,
    "city": "青森市",
    "city_kana": "アオモリシ",
    "town": "岩渡",
    "town_kana": "イワタリ",
    "street": null,
    "office_name": null,
    "office_name_kana": null
  },
  "0044": {
    "zip_code": "0380044",
    "prefecture": "青森県",
    "prefecture_kana": "アオモリケン",
    "prefecture_code": 2,
    "city": "青森市",
    "city_kana": "アオモリシ",
    "town": "孫内",
    "town_kana": "マゴナイ",
    "street": null,
    "office_name": null,
    "office_name_kana": null
  },
  "0045": {
    "zip_code": "0380045",
    "prefecture": "青森県",
    "prefecture_kana": "アオモリケン",
    "prefecture_code": 2,
    "city": "青森市",
    "city_kana": "アオモリシ",
    "town": "鶴ケ坂",
    "town_kana": "ツルガサカ",
    "street": null,
    "office_name": null,
    "office_name_kana": null
  },
  "0046": {
    "zip_code": "0380046",
    "prefecture": "青森県",
    "prefecture_kana": "アオモリケン",
    "prefecture_code": 2,
    "city": "青森市",
    "city_kana": "アオモリシ",
    "town": "戸門",
    "town_kana": "トカド",
    "street": null,
    "office_name": null,
    "office_name_kana": null
  },
  "0051": {
    "zip_code": "0380051",
    "prefecture": "青森県",
    "prefecture_kana": "アオモリケン",
    "prefecture_code": 2,
    "city": "青森市",
    "city_kana": "アオモリシ",
    "town": "内真部",
    "town_kana": "ウチマンペ",
    "street": null,
    "office_name": null,
    "office_name_kana": null
  },
  "0052": {
    "zip_code": "0380052",
    "prefecture": "青森県",
    "prefecture_kana": "アオモリケン",
    "prefecture_code": 2,
    "city": "青森市",
    "city_kana": "アオモリシ",
    "town": "清水",
    "town_kana": "シミズ",
    "street": null,
    "office_name": null,
    "office_name_kana": null
  },
  "0053": {
    "zip_code": "0380053",
    "prefecture": "青森県",
    "prefecture_kana": "アオモリケン",
    "prefecture_code": 2,
    "city": "青森市",
    "city_kana": "アオモリシ",
    "town": "前田",
    "town_kana": "マエダ",
    "street": null,
    "office_name": null,
    "office_name_kana": null
  },
  "0054": {
    "zip_code": "0380054",
    "prefecture": "青森県",
    "prefecture_kana": "アオモリケン",
    "prefecture_code": 2,
    "city": "青森市",
    "city_kana": "アオモリシ",
    "town": "奥内",
    "town_kana": "オクナイ",
    "street": null,
    "office_name": null,
    "office_name_kana": null
  },
  "0055": {
    "zip_code": "0380055",
    "prefecture": "青森県",
    "prefecture_kana": "アオモリケン",
    "prefecture_code": 2,
    "city": "青森市",
    "city_kana": "アオモリシ",
    "town": "瀬戸子",
    "town_kana": "セトシ",
    "street": null,
    "office_name": null,
    "office_name_kana": null
  },
  "0056": {
    "zip_code": "0380056",
    "prefecture": "青森県",
    "prefecture_kana": "アオモリケン",
    "prefecture_code": 2,
    "city": "青森市",
    "city_kana": "アオモリシ",
    "town": "飛鳥",
    "town_kana": "アスカ",
    "street": null,
    "office_name": null,
    "office_name_kana": null
  },
  "0057": {
    "zip_code": "0380057",
    "prefecture": "青森県",
    "prefecture_kana": "アオモリケン",
    "prefecture_code": 2,
    "city": "青森市",
    "city_kana": "アオモリシ",
    "town": "西田沢",
    "town_kana": "ニシタザワ",
    "street": null,
    "office_name": null,
    "office_name_kana": null
  },
  "0058": {
    "zip_code": "0380058",
    "prefecture": "青森県",
    "prefecture_kana": "アオモリケン",
    "prefecture_code": 2,
    "city": "青森市",
    "city_kana": "アオモリシ",
    "town": "羽白",
    "town_kana": "ハジロ",
    "street": null,
    "office_name": null,
    "office_name_kana": null
  },
  "0059": {
    "zip_code": "0380059",
    "prefecture": "青森県",
    "prefecture_kana": "アオモリケン",
    "prefecture_code": 2,
    "city": "青森市",
    "city_kana": "アオモリシ",
    "town": "油川",
    "town_kana": "アブラカワ",
    "street": null,
    "office_name": null,
    "office_name_kana": null
  },
  "0101": [
    {
      "zip_code": "0380101",
      "prefecture": "青森県",
      "prefecture_kana": "アオモリケン",
      "prefecture_code": 2,
      "city": "平川市",
      "city_kana": "ヒラカワシ",
      "town": "碇ケ関",
      "town_kana": "イカリガセキ",
      "street": null,
      "office_name": null,
      "office_name_kana": null
    },
    {
      "zip_code": "0380101",
      "prefecture": "青森県",
      "prefecture_kana": "アオモリケン",
      "prefecture_code": 2,
      "city": "平川市",
      "city_kana": "ヒラカワシ",
      "town": "碇ケ関相沢",
      "town_kana": "イカリガセキアイザワ",
      "street": null,
      "office_name": null,
      "office_name_kana": null
    },
    {
      "zip_code": "0380101",
      "prefecture": "青森県",
      "prefecture_kana": "アオモリケン",
      "prefecture_code": 2,
      "city": "平川市",
      "city_kana": "ヒラカワシ",
      "town": "碇ケ関阿原",
      "town_kana": "イカリガセキアバラ",
      "street": null,
      "office_name": null,
      "office_name_kana": null
    },
    {
      "zip_code": "0380101",
      "prefecture": "青森県",
      "prefecture_kana": "アオモリケン",
      "prefecture_code": 2,
      "city": "平川市",
      "city_kana": "ヒラカワシ",
      "town": "碇ケ関雷林",
      "town_kana": "イカリガセキイカズチバヤシ",
      "street": null,
      "office_name": null,
      "office_name_kana": null
    },
    {
      "zip_code": "0380101",
      "prefecture": "青森県",
      "prefecture_kana": "アオモリケン",
      "prefecture_code": 2,
      "city": "平川市",
      "city_kana": "ヒラカワシ",
      "town": "碇ケ関碇石",
      "town_kana": "イカリガセキイカリイシ",
      "street": null,
      "office_name": null,
      "office_name_kana": null
    },
    {
      "zip_code": "0380101",
      "prefecture": "青森県",
      "prefecture_kana": "アオモリケン",
      "prefecture_code": 2,
      "city": "平川市",
      "city_kana": "ヒラカワシ",
      "town": "碇ケ関岩井",
      "town_kana": "イカリガセキイワイ",
      "street": null,
      "office_name": null,
      "office_name_kana": null
    },
    {
      "zip_code": "0380101",
      "prefecture": "青森県",
      "prefecture_kana": "アオモリケン",
      "prefecture_code": 2,
      "city": "平川市",
      "city_kana": "ヒラカワシ",
      "town": "碇ケ関大葉平",
      "town_kana": "イカリガセキオオバダイラ",
      "street": null,
      "office_name": null,
      "office_name_kana": null
    },
    {
      "zip_code": "0380101",
      "prefecture": "青森県",
      "prefecture_kana": "アオモリケン",
      "prefecture_code": 2,
      "city": "平川市",
      "city_kana": "ヒラカワシ",
      "town": "碇ケ関大落前",
      "town_kana": "イカリガセキオオラクマエ",
      "street": null,
      "office_name": null,
      "office_name_kana": null
    },
    {
      "zip_code": "0380101",
      "prefecture": "青森県",
      "prefecture_kana": "アオモリケン",
      "prefecture_code": 2,
      "city": "平川市",
      "city_kana": "ヒラカワシ",
      "town": "碇ケ関折橋",
      "town_kana": "イカリガセキオリハシ",
      "street": null,
      "office_name": null,
      "office_name_kana": null
    },
    {
      "zip_code": "0380101",
      "prefecture": "青森県",
      "prefecture_kana": "アオモリケン",
      "prefecture_code": 2,
      "city": "平川市",
      "city_kana": "ヒラカワシ",
      "town": "碇ケ関鯨森",
      "town_kana": "イカリガセキクジラモリ",
      "street": null,
      "office_name": null,
      "office_name_kana": null
    },
    {
      "zip_code": "0380101",
      "prefecture": "青森県",
      "prefecture_kana": "アオモリケン",
      "prefecture_code": 2,
      "city": "平川市",
      "city_kana": "ヒラカワシ",
      "town": "碇ケ関小落前",
      "town_kana": "イカリガセキコラクマエ",
      "street": null,
      "office_name": null,
      "office_name_kana": null
    },
    {
      "zip_code": "0380101",
      "prefecture": "青森県",
      "prefecture_kana": "アオモリケン",
      "prefecture_code": 2,
      "city": "平川市",
      "city_kana": "ヒラカワシ",
      "town": "碇ケ関山神堂",
      "town_kana": "イカリガセキサンジンドウ",
      "street": null,
      "office_name": null,
      "office_name_kana": null
    },
    {
      "zip_code": "0380101",
      "prefecture": "青森県",
      "prefecture_kana": "アオモリケン",
      "prefecture_code": 2,
      "city": "平川市",
      "city_kana": "ヒラカワシ",
      "town": "碇ケ関白沢",
      "town_kana": "イカリガセキシラサワ",
      "street": null,
      "office_name": null,
      "office_name_kana": null
    },
    {
      "zip_code": "0380101",
      "prefecture": "青森県",
      "prefecture_kana": "アオモリケン",
      "prefecture_code": 2,
      "city": "平川市",
      "city_kana": "ヒラカワシ",
      "town": "碇ケ関諏訪平",
      "town_kana": "イカリガセキスワダイラ",
      "street": null,
      "office_name": null,
      "office_name_kana": null
    },
    {
      "zip_code": "0380101",
      "prefecture": "青森県",
      "prefecture_kana": "アオモリケン",
      "prefecture_code": 2,
      "city": "平川市",
      "city_kana": "ヒラカワシ",
      "town": "碇ケ関外白沢",
      "town_kana": "イカリガセキソトシラサワ",
      "street": null,
      "office_name": null,
      "office_name_kana": null
    },
    {
      "zip_code": "0380101",
      "prefecture": "青森県",
      "prefecture_kana": "アオモリケン",
      "prefecture_code": 2,
      "city": "平川市",
      "city_kana": "ヒラカワシ",
      "town": "碇ケ関高田",
      "town_kana": "イカリガセキタカダ",
      "street": null,
      "office_name": null,
      "office_name_kana": null
    },
    {
      "zip_code": "0380101",
      "prefecture": "青森県",
      "prefecture_kana": "アオモリケン",
      "prefecture_code": 2,
      "city": "平川市",
      "city_kana": "ヒラカワシ",
      "town": "碇ケ関樋ケ沢",
      "town_kana": "イカリガセキトイガサワ",
      "street": null,
      "office_name": null,
      "office_name_kana": null
    },
    {
      "zip_code": "0380101",
      "prefecture": "青森県",
      "prefecture_kana": "アオモリケン",
      "prefecture_code": 2,
      "city": "平川市",
      "city_kana": "ヒラカワシ",
      "town": "碇ケ関西碇ケ関山",
      "town_kana": "イカリガセキニシイカリガセキヤマ",
      "street": null,
      "office_name": null,
      "office_name_kana": null
    },
    {
      "zip_code": "0380101",
      "prefecture": "青森県",
      "prefecture_kana": "アオモリケン",
      "prefecture_code": 2,
      "city": "平川市",
      "city_kana": "ヒラカワシ",
      "town": "碇ケ関東碇ケ関山",
      "town_kana": "イカリガセキヒガシイカリガセキヤマ",
      "street": null,
      "office_name": null,
      "office_name_kana": null
    },
    {
      "zip_code": "0380101",
      "prefecture": "青森県",
      "prefecture_kana": "アオモリケン",
      "prefecture_code": 2,
      "city": "平川市",
      "city_kana": "ヒラカワシ",
      "town": "碇ケ関樋ノ口",
      "town_kana": "イカリガセキヒノクチ",
      "street": null,
      "office_name": null,
      "office_name_kana": null
    },
    {
      "zip_code": "0380101",
      "prefecture": "青森県",
      "prefecture_kana": "アオモリケン",
      "prefecture_code": 2,
      "city": "平川市",
      "city_kana": "ヒラカワシ",
      "town": "碇ケ関船岡",
      "town_kana": "イカリガセキフナオカ",
      "street": null,
      "office_name": null,
      "office_name_kana": null
    },
    {
      "zip_code": "0380101",
      "prefecture": "青森県",
      "prefecture_kana": "アオモリケン",
      "prefecture_code": 2,
      "city": "平川市",
      "city_kana": "ヒラカワシ",
      "town": "碇ケ関踏田切",
      "town_kana": "イカリガセキフミタギリ",
      "street": null,
      "office_name": null,
      "office_name_kana": null
    },
    {
      "zip_code": "0380101",
      "prefecture": "青森県",
      "prefecture_kana": "アオモリケン",
      "prefecture_code": 2,
      "city": "平川市",
      "city_kana": "ヒラカワシ",
      "town": "碇ケ関三笠山",
      "town_kana": "イカリガセキミカサヤマ",
      "street": null,
      "office_name": null,
      "office_name_kana": null
    },
    {
      "zip_code": "0380101",
      "prefecture": "青森県",
      "prefecture_kana": "アオモリケン",
      "prefecture_code": 2,
      "city": "平川市",
      "city_kana": "ヒラカワシ",
      "town": "碇ケ関水溜",
      "town_kana": "イカリガセキミズタメ",
      "street": null,
      "office_name": null,
      "office_name_kana": null
    },
    {
      "zip_code": "0380101",
      "prefecture": "青森県",
      "prefecture_kana": "アオモリケン",
      "prefecture_code": 2,
      "city": "平川市",
      "city_kana": "ヒラカワシ",
      "town": "碇ケ関湯向川添",
      "town_kana": "イカリガセキユムカイカワゾエ",
      "street": null,
      "office_name": null,
      "office_name_kana": null
    },
    {
      "zip_code": "0380101",
      "prefecture": "青森県",
      "prefecture_kana": "アオモリケン",
      "prefecture_code": 2,
      "city": "平川市",
      "city_kana": "ヒラカワシ",
      "town": "碇ケ関横町",
      "town_kana": "イカリガセキヨコマチ",
      "street": null,
      "office_name": null,
      "office_name_kana": null
    }
  ],
  "0102": [
    {
      "zip_code": "0380102",
      "prefecture": "青森県",
      "prefecture_kana": "アオモリケン",
      "prefecture_code": 2,
      "city": "平川市",
      "city_kana": "ヒラカワシ",
      "town": "碇ケ関古懸上程森",
      "town_kana": "イカリガセキコガケカミホドモリ",
      "street": null,
      "office_name": null,
      "office_name_kana": null
    },
    {
      "zip_code": "0380102",
      "prefecture": "青森県",
      "prefecture_kana": "アオモリケン",
      "prefecture_code": 2,
      "city": "平川市",
      "city_kana": "ヒラカワシ",
      "town": "碇ケ関古懸沢田",
      "town_kana": "イカリガセキコガケサワダ",
      "street": null,
      "office_name": null,
      "office_name_kana": null
    },
    {
      "zip_code": "0380102",
      "prefecture": "青森県",
      "prefecture_kana": "アオモリケン",
      "prefecture_code": 2,
      "city": "平川市",
      "city_kana": "ヒラカワシ",
      "town": "碇ケ関古懸樋ケ沢",
      "town_kana": "イカリガセキコガケトイガサワ",
      "street": null,
      "office_name": null,
      "office_name_kana": null
    },
    {
      "zip_code": "0380102",
      "prefecture": "青森県",
      "prefecture_kana": "アオモリケン",
      "prefecture_code": 2,
      "city": "平川市",
      "city_kana": "ヒラカワシ",
      "town": "碇ケ関古懸堂ノ上",
      "town_kana": "イカリガセキコガケドウノウエ",
      "street": null,
      "office_name": null,
      "office_name_kana": null
    },
    {
      "zip_code": "0380102",
      "prefecture": "青森県",
      "prefecture_kana": "アオモリケン",
      "prefecture_code": 2,
      "city": "平川市",
      "city_kana": "ヒラカワシ",
      "town": "碇ケ関古懸鳥井",
      "town_kana": "イカリガセキコガケトリイ",
      "street": null,
      "office_name": null,
      "office_name_kana": null
    },
    {
      "zip_code": "0380102",
      "prefecture": "青森県",
      "prefecture_kana": "アオモリケン",
      "prefecture_code": 2,
      "city": "平川市",
      "city_kana": "ヒラカワシ",
      "town": "碇ケ関古懸西不動野",
      "town_kana": "イカリガセキコガケニシフドウノ",
      "street": null,
      "office_name": null,
      "office_name_kana": null
    },
    {
      "zip_code": "0380102",
      "prefecture": "青森県",
      "prefecture_kana": "アオモリケン",
      "prefecture_code": 2,
      "city": "平川市",
      "city_kana": "ヒラカワシ",
      "town": "碇ケ関古懸東不動野",
      "town_kana": "イカリガセキコガケヒガシフドウノ",
      "street": null,
      "office_name": null,
      "office_name_kana": null
    },
    {
      "zip_code": "0380102",
      "prefecture": "青森県",
      "prefecture_kana": "アオモリケン",
      "prefecture_code": 2,
      "city": "平川市",
      "city_kana": "ヒラカワシ",
      "town": "碇ケ関古懸不動沢大石",
      "town_kana": "イカリガセキコガケフドウサワオオイシ",
      "street": null,
      "office_name": null,
      "office_name_kana": null
    },
    {
      "zip_code": "0380102",
      "prefecture": "青森県",
      "prefecture_kana": "アオモリケン",
      "prefecture_code": 2,
      "city": "平川市",
      "city_kana": "ヒラカワシ",
      "town": "碇ケ関古懸不動野",
      "town_kana": "イカリガセキコガケフドウノ",
      "street": null,
      "office_name": null,
      "office_name_kana": null
    },
    {
      "zip_code": "0380102",
      "prefecture": "青森県",
      "prefecture_kana": "アオモリケン",
      "prefecture_code": 2,
      "city": "平川市",
      "city_kana": "ヒラカワシ",
      "town": "碇ケ関古懸南不動野",
      "town_kana": "イカリガセキコガケミナミフドウノ",
      "street": null,
      "office_name": null,
      "office_name_kana": null
    },
    {
      "zip_code": "0380102",
      "prefecture": "青森県",
      "prefecture_kana": "アオモリケン",
      "prefecture_code": 2,
      "city": "平川市",
      "city_kana": "ヒラカワシ",
      "town": "碇ケ関古懸向安田",
      "town_kana": "イカリガセキコガケムカイヤスダ",
      "street": null,
      "office_name": null,
      "office_name_kana": null
    },
    {
      "zip_code": "0380102",
      "prefecture": "青森県",
      "prefecture_kana": "アオモリケン",
      "prefecture_code": 2,
      "city": "平川市",
      "city_kana": "ヒラカワシ",
      "town": "碇ケ関古懸門前",
      "town_kana": "イカリガセキコガケモンゼン",
      "street": null,
      "office_name": null,
      "office_name_kana": null
    },
    {
      "zip_code": "0380102",
      "prefecture": "青森県",
      "prefecture_kana": "アオモリケン",
      "prefecture_code": 2,
      "city": "平川市",
      "city_kana": "ヒラカワシ",
      "town": "碇ケ関古懸門前屋岸",
      "town_kana": "イカリガセキコガケモンゼンヤギシ",
      "street": null,
      "office_name": null,
      "office_name_kana": null
    },
    {
      "zip_code": "0380102",
      "prefecture": "青森県",
      "prefecture_kana": "アオモリケン",
      "prefecture_code": 2,
      "city": "平川市",
      "city_kana": "ヒラカワシ",
      "town": "碇ケ関古懸安田",
      "town_kana": "イカリガセキコガケヤスタ",
      "street": null,
      "office_name": null,
      "office_name_kana": null
    }
  ],
  "0103": [
    {
      "zip_code": "0380103",
      "prefecture": "青森県",
      "prefecture_kana": "アオモリケン",
      "prefecture_code": 2,
      "city": "平川市",
      "city_kana": "ヒラカワシ",
      "town": "碇ケ関久吉蕷ケ平",
      "town_kana": "イカリガセキヒサヨシイモガタイラ",
      "street": null,
      "office_name": null,
      "office_name_kana": null
    },
    {
      "zip_code": "0380103",
      "prefecture": "青森県",
      "prefecture_kana": "アオモリケン",
      "prefecture_code": 2,
      "city": "平川市",
      "city_kana": "ヒラカワシ",
      "town": "碇ケ関久吉二ノ渡",
      "town_kana": "イカリガセキヒサヨシニノワタリ",
      "street": null,
      "office_name": null,
      "office_name_kana": null
    },
    {
      "zip_code": "0380103",
      "prefecture": "青森県",
      "prefecture_kana": "アオモリケン",
      "prefecture_code": 2,
      "city": "平川市",
      "city_kana": "ヒラカワシ",
      "town": "碇ケ関久吉山岸",
      "town_kana": "イカリガセキヒサヨシヤマギシ",
      "street": null,
      "office_name": null,
      "office_name_kana": null
    }
  ],
  "0192": {
    "zip_code": "0380192",
    "prefecture": "青森県",
    "prefecture_kana": null,
    "prefecture_code": null,
    "city": "平川市",
    "city_kana": null,
    "town": "碇ヶ関",
    "town_kana": null,
    "street": "三笠山１０７−３",
    "office_name": "平川市役所　碇ケ関総合支所",
    "office_name_kana": "ヒラカワシヤクシヨ イカリガセキソウゴウシシヨ"
  },
  "0194": {
    "zip_code": "0380194",
    "prefecture": "青森県",
    "prefecture_kana": null,
    "prefecture_code": null,
    "city": "平川市",
    "city_kana": null,
    "town": "碇ヶ関",
    "town_kana": null,
    "street": "湯向川添３０",
    "office_name": "財団法人　黎明郷",
    "office_name_kana": "ザイダンホウジン レイメイキヨウ"
  },
  "0200": {
    "zip_code": "0380200",
    "prefecture": "青森県",
    "prefecture_kana": "アオモリケン",
    "prefecture_code": 2,
    "city": "南津軽郡大鰐町",
    "city_kana": "ミナミツガルグンオオワニマチ",
    "town": "",
    "town_kana": "",
    "street": null,
    "office_name": null,
    "office_name_kana": null
  },
  "0201": {
    "zip_code": "0380201",
    "prefecture": "青森県",
    "prefecture_kana": "アオモリケン",
    "prefecture_code": 2,
    "city": "南津軽郡大鰐町",
    "city_kana": "ミナミツガルグンオオワニマチ",
    "town": "苦木",
    "town_kana": "ニガキ",
    "street": null,
    "office_name": null,
    "office_name_kana": null
  },
  "0202": {
    "zip_code": "0380202",
    "prefecture": "青森県",
    "prefecture_kana": "アオモリケン",
    "prefecture_code": 2,
    "city": "南津軽郡大鰐町",
    "city_kana": "ミナミツガルグンオオワニマチ",
    "town": "長峰",
    "town_kana": "ナガミネ",
    "street": null,
    "office_name": null,
    "office_name_kana": null
  },
  "0203": {
    "zip_code": "0380203",
    "prefecture": "青森県",
    "prefecture_kana": "アオモリケン",
    "prefecture_code": 2,
    "city": "南津軽郡大鰐町",
    "city_kana": "ミナミツガルグンオオワニマチ",
    "town": "駒木",
    "town_kana": "コマキ",
    "street": null,
    "office_name": null,
    "office_name_kana": null
  },
  "0204": {
    "zip_code": "0380204",
    "prefecture": "青森県",
    "prefecture_kana": "アオモリケン",
    "prefecture_code": 2,
    "city": "南津軽郡大鰐町",
    "city_kana": "ミナミツガルグンオオワニマチ",
    "town": "唐牛",
    "town_kana": "カロウジ",
    "street": null,
    "office_name": null,
    "office_name_kana": null
  },
  "0211": {
    "zip_code": "0380211",
    "prefecture": "青森県",
    "prefecture_kana": "アオモリケン",
    "prefecture_code": 2,
    "city": "南津軽郡大鰐町",
    "city_kana": "ミナミツガルグンオオワニマチ",
    "town": "大鰐",
    "town_kana": "オオワニ",
    "street": null,
    "office_name": null,
    "office_name_kana": null
  },
  "0212": {
    "zip_code": "0380212",
    "prefecture": "青森県",
    "prefecture_kana": "アオモリケン",
    "prefecture_code": 2,
    "city": "南津軽郡大鰐町",
    "city_kana": "ミナミツガルグンオオワニマチ",
    "town": "蔵館",
    "town_kana": "クラダテ",
    "street": null,
    "office_name": null,
    "office_name_kana": null
  },
  "0221": {
    "zip_code": "0380221",
    "prefecture": "青森県",
    "prefecture_kana": "アオモリケン",
    "prefecture_code": 2,
    "city": "南津軽郡大鰐町",
    "city_kana": "ミナミツガルグンオオワニマチ",
    "town": "虹貝",
    "town_kana": "ニジカイ",
    "street": null,
    "office_name": null,
    "office_name_kana": null
  },
  "0222": {
    "zip_code": "0380222",
    "prefecture": "青森県",
    "prefecture_kana": "アオモリケン",
    "prefecture_code": 2,
    "city": "南津軽郡大鰐町",
    "city_kana": "ミナミツガルグンオオワニマチ",
    "town": "早瀬野",
    "town_kana": "ハヤセノ",
    "street": null,
    "office_name": null,
    "office_name_kana": null
  },
  "0223": {
    "zip_code": "0380223",
    "prefecture": "青森県",
    "prefecture_kana": "アオモリケン",
    "prefecture_code": 2,
    "city": "南津軽郡大鰐町",
    "city_kana": "ミナミツガルグンオオワニマチ",
    "town": "島田",
    "town_kana": "シマダ",
    "street": null,
    "office_name": null,
    "office_name_kana": null
  },
  "0231": {
    "zip_code": "0380231",
    "prefecture": "青森県",
    "prefecture_kana": "アオモリケン",
    "prefecture_code": 2,
    "city": "南津軽郡大鰐町",
    "city_kana": "ミナミツガルグンオオワニマチ",
    "town": "宿川原",
    "town_kana": "シュクガワラ",
    "street": null,
    "office_name": null,
    "office_name_kana": null
  },
  "0232": {
    "zip_code": "0380232",
    "prefecture": "青森県",
    "prefecture_kana": "アオモリケン",
    "prefecture_code": 2,
    "city": "南津軽郡大鰐町",
    "city_kana": "ミナミツガルグンオオワニマチ",
    "town": "三ツ目内",
    "town_kana": "ミツメナイ",
    "street": null,
    "office_name": null,
    "office_name_kana": null
  },
  "0233": {
    "zip_code": "0380233",
    "prefecture": "青森県",
    "prefecture_kana": "アオモリケン",
    "prefecture_code": 2,
    "city": "南津軽郡大鰐町",
    "city_kana": "ミナミツガルグンオオワニマチ",
    "town": "居土",
    "town_kana": "イヅチ",
    "street": null,
    "office_name": null,
    "office_name_kana": null
  },
  "0241": {
    "zip_code": "0380241",
    "prefecture": "青森県",
    "prefecture_kana": "アオモリケン",
    "prefecture_code": 2,
    "city": "南津軽郡大鰐町",
    "city_kana": "ミナミツガルグンオオワニマチ",
    "town": "鯖石",
    "town_kana": "サバイシ",
    "street": null,
    "office_name": null,
    "office_name_kana": null
  },
  "0242": {
    "zip_code": "0380242",
    "prefecture": "青森県",
    "prefecture_kana": "アオモリケン",
    "prefecture_code": 2,
    "city": "南津軽郡大鰐町",
    "city_kana": "ミナミツガルグンオオワニマチ",
    "town": "森山",
    "town_kana": "モリヤマ",
    "street": null,
    "office_name": null,
    "office_name_kana": null
  },
  "0243": {
    "zip_code": "0380243",
    "prefecture": "青森県",
    "prefecture_kana": "アオモリケン",
    "prefecture_code": 2,
    "city": "南津軽郡大鰐町",
    "city_kana": "ミナミツガルグンオオワニマチ",
    "town": "八幡館",
    "town_kana": "ハチマンダテ",
    "street": null,
    "office_name": null,
    "office_name_kana": null
  },
  "0292": {
    "zip_code": "0380292",
    "prefecture": "青森県",
    "prefecture_kana": null,
    "prefecture_code": null,
    "city": "南津軽郡大鰐町",
    "city_kana": null,
    "town": "大字大鰐",
    "town_kana": null,
    "street": "字羽黒館５−３（大鰐郵便局私書箱第５号）",
    "office_name": "大鰐町役場",
    "office_name_kana": "オオワニマチヤクバ"
  },
  "1100": {
    "zip_code": "0381100",
    "prefecture": "青森県",
    "prefecture_kana": "アオモリケン",
    "prefecture_code": 2,
    "city": "南津軽郡田舎館村",
    "city_kana": "ミナミツガルグンイナカダテムラ",
    "town": "",
    "town_kana": "",
    "street": null,
    "office_name": null,
    "office_name_kana": null
  },
  "1101": {
    "zip_code": "0381101",
    "prefecture": "青森県",
    "prefecture_kana": "アオモリケン",
    "prefecture_code": 2,
    "city": "南津軽郡田舎館村",
    "city_kana": "ミナミツガルグンイナカダテムラ",
    "town": "東光寺",
    "town_kana": "トウコウジ",
    "street": null,
    "office_name": null,
    "office_name_kana": null
  },
  "1102": {
    "zip_code": "0381102",
    "prefecture": "青森県",
    "prefecture_kana": "アオモリケン",
    "prefecture_code": 2,
    "city": "南津軽郡田舎館村",
    "city_kana": "ミナミツガルグンイナカダテムラ",
    "town": "堂野前",
    "town_kana": "ドウノマエ",
    "street": null,
    "office_name": null,
    "office_name_kana": null
  },
  "1103": {
    "zip_code": "0381103",
    "prefecture": "青森県",
    "prefecture_kana": "アオモリケン",
    "prefecture_code": 2,
    "city": "南津軽郡田舎館村",
    "city_kana": "ミナミツガルグンイナカダテムラ",
    "town": "十二川原",
    "town_kana": "ジュウニカワラ",
    "street": null,
    "office_name": null,
    "office_name_kana": null
  },
  "1104": {
    "zip_code": "0381104",
    "prefecture": "青森県",
    "prefecture_kana": "アオモリケン",
    "prefecture_code": 2,
    "city": "南津軽郡田舎館村",
    "city_kana": "ミナミツガルグンイナカダテムラ",
    "town": "枝川",
    "town_kana": "エダガワ",
    "street": null,
    "office_name": null,
    "office_name_kana": null
  },
  "1111": {
    "zip_code": "0381111",
    "prefecture": "青森県",
    "prefecture_kana": "アオモリケン",
    "prefecture_code": 2,
    "city": "南津軽郡田舎館村",
    "city_kana": "ミナミツガルグンイナカダテムラ",
    "town": "高樋",
    "town_kana": "タカヒ",
    "street": null,
    "office_name": null,
    "office_name_kana": null
  },
  "1112": {
    "zip_code": "0381112",
    "prefecture": "青森県",
    "prefecture_kana": "アオモリケン",
    "prefecture_code": 2,
    "city": "南津軽郡田舎館村",
    "city_kana": "ミナミツガルグンイナカダテムラ",
    "town": "垂柳",
    "town_kana": "タレヤナギ",
    "street": null,
    "office_name": null,
    "office_name_kana": null
  },
  "1113": {
    "zip_code": "0381113",
    "prefecture": "青森県",
    "prefecture_kana": "アオモリケン",
    "prefecture_code": 2,
    "city": "南津軽郡田舎館村",
    "city_kana": "ミナミツガルグンイナカダテムラ",
    "town": "田舎舘",
    "town_kana": "イナカダテ",
    "street": null,
    "office_name": null,
    "office_name_kana": null
  },
  "1121": {
    "zip_code": "0381121",
    "prefecture": "青森県",
    "prefecture_kana": "アオモリケン",
    "prefecture_code": 2,
    "city": "南津軽郡田舎館村",
    "city_kana": "ミナミツガルグンイナカダテムラ",
    "town": "畑中",
    "town_kana": "ハタケナカ",
    "street": null,
    "office_name": null,
    "office_name_kana": null
  },
  "1122": {
    "zip_code": "0381122",
    "prefecture": "青森県",
    "prefecture_kana": "アオモリケン",
    "prefecture_code": 2,
    "city": "南津軽郡田舎館村",
    "city_kana": "ミナミツガルグンイナカダテムラ",
    "town": "八反田",
    "town_kana": "ハッタンダ",
    "street": null,
    "office_name": null,
    "office_name_kana": null
  },
  "1123": {
    "zip_code": "0381123",
    "prefecture": "青森県",
    "prefecture_kana": "アオモリケン",
    "prefecture_code": 2,
    "city": "南津軽郡田舎館村",
    "city_kana": "ミナミツガルグンイナカダテムラ",
    "town": "大曲",
    "town_kana": "オオマガリ",
    "street": null,
    "office_name": null,
    "office_name_kana": null
  },
  "1131": {
    "zip_code": "0381131",
    "prefecture": "青森県",
    "prefecture_kana": "アオモリケン",
    "prefecture_code": 2,
    "city": "南津軽郡田舎館村",
    "city_kana": "ミナミツガルグンイナカダテムラ",
    "town": "大袋",
    "town_kana": "オオフクロ",
    "street": null,
    "office_name": null,
    "office_name_kana": null
  },
  "1132": {
    "zip_code": "0381132",
    "prefecture": "青森県",
    "prefecture_kana": "アオモリケン",
    "prefecture_code": 2,
    "city": "南津軽郡田舎館村",
    "city_kana": "ミナミツガルグンイナカダテムラ",
    "town": "諏訪堂",
    "town_kana": "スワドウ",
    "street": null,
    "office_name": null,
    "office_name_kana": null
  },
  "1133": {
    "zip_code": "0381133",
    "prefecture": "青森県",
    "prefecture_kana": "アオモリケン",
    "prefecture_code": 2,
    "city": "南津軽郡田舎館村",
    "city_kana": "ミナミツガルグンイナカダテムラ",
    "town": "大根子",
    "town_kana": "オオネコ",
    "street": null,
    "office_name": null,
    "office_name_kana": null
  },
  "1134": {
    "zip_code": "0381134",
    "prefecture": "青森県",
    "prefecture_kana": "アオモリケン",
    "prefecture_code": 2,
    "city": "南津軽郡田舎館村",
    "city_kana": "ミナミツガルグンイナカダテムラ",
    "town": "豊蒔",
    "town_kana": "トヨマキ",
    "street": null,
    "office_name": null,
    "office_name_kana": null
  },
  "1141": {
    "zip_code": "0381141",
    "prefecture": "青森県",
    "prefecture_kana": "アオモリケン",
    "prefecture_code": 2,
    "city": "南津軽郡田舎館村",
    "city_kana": "ミナミツガルグンイナカダテムラ",
    "town": "川部",
    "town_kana": "カワベ",
    "street": null,
    "office_name": null,
    "office_name_kana": null
  },
  "1142": {
    "zip_code": "0381142",
    "prefecture": "青森県",
    "prefecture_kana": "アオモリケン",
    "prefecture_code": 2,
    "city": "南津軽郡田舎館村",
    "city_kana": "ミナミツガルグンイナカダテムラ",
    "town": "和泉",
    "town_kana": "イズミ",
    "street": null,
    "office_name": null,
    "office_name_kana": null
  },
  "1143": {
    "zip_code": "0381143",
    "prefecture": "青森県",
    "prefecture_kana": "アオモリケン",
    "prefecture_code": 2,
    "city": "南津軽郡田舎館村",
    "city_kana": "ミナミツガルグンイナカダテムラ",
    "town": "境森",
    "town_kana": "サカイモリ",
    "street": null,
    "office_name": null,
    "office_name_kana": null
  },
  "1144": {
    "zip_code": "0381144",
    "prefecture": "青森県",
    "prefecture_kana": "アオモリケン",
    "prefecture_code": 2,
    "city": "南津軽郡田舎館村",
    "city_kana": "ミナミツガルグンイナカダテムラ",
    "town": "前田屋敷",
    "town_kana": "マエタヤシキ",
    "street": null,
    "office_name": null,
    "office_name_kana": null
  },
  "1145": {
    "zip_code": "0381145",
    "prefecture": "青森県",
    "prefecture_kana": "アオモリケン",
    "prefecture_code": 2,
    "city": "南津軽郡田舎館村",
    "city_kana": "ミナミツガルグンイナカダテムラ",
    "town": "土矢倉",
    "town_kana": "ツチヤグラ",
    "street": null,
    "office_name": null,
    "office_name_kana": null
  },
  "1201": {
    "zip_code": "0381201",
    "prefecture": "青森県",
    "prefecture_kana": "アオモリケン",
    "prefecture_code": 2,
    "city": "南津軽郡藤崎町",
    "city_kana": "ミナミツガルグンフジサキマチ",
    "town": "福舘",
    "town_kana": "フクダテ",
    "street": null,
    "office_name": null,
    "office_name_kana": null
  },
  "1202": {
    "zip_code": "0381202",
    "prefecture": "青森県",
    "prefecture_kana": "アオモリケン",
    "prefecture_code": 2,
    "city": "南津軽郡藤崎町",
    "city_kana": "ミナミツガルグンフジサキマチ",
    "town": "富柳",
    "town_kana": "トミヤナギ",
    "street": null,
    "office_name": null,
    "office_name_kana": null
  },
  "1203": {
    "zip_code": "0381203",
    "prefecture": "青森県",
    "prefecture_kana": "アオモリケン",
    "prefecture_code": 2,
    "city": "南津軽郡藤崎町",
    "city_kana": "ミナミツガルグンフジサキマチ",
    "town": "久井名舘",
    "town_kana": "グイナダテ",
    "street": null,
    "office_name": null,
    "office_name_kana": null
  },
  "1204": {
    "zip_code": "0381204",
    "prefecture": "青森県",
    "prefecture_kana": "アオモリケン",
    "prefecture_code": 2,
    "city": "南津軽郡藤崎町",
    "city_kana": "ミナミツガルグンフジサキマチ",
    "town": "水木",
    "town_kana": "ミズキ",
    "street": null,
    "office_name": null,
    "office_name_kana": null
  },
  "1205": {
    "zip_code": "0381205",
    "prefecture": "青森県",
    "prefecture_kana": "アオモリケン",
    "prefecture_code": 2,
    "city": "南津軽郡藤崎町",
    "city_kana": "ミナミツガルグンフジサキマチ",
    "town": "吉野田",
    "town_kana": "ヨシノダ",
    "street": null,
    "office_name": null,
    "office_name_kana": null
  },
  "1206": {
    "zip_code": "0381206",
    "prefecture": "青森県",
    "prefecture_kana": "アオモリケン",
    "prefecture_code": 2,
    "city": "南津軽郡藤崎町",
    "city_kana": "ミナミツガルグンフジサキマチ",
    "town": "郷山前",
    "town_kana": "ゴウサンマエ",
    "street": null,
    "office_name": null,
    "office_name_kana": null
  },
  "1207": {
    "zip_code": "0381207",
    "prefecture": "青森県",
    "prefecture_kana": "アオモリケン",
    "prefecture_code": 2,
    "city": "南津軽郡藤崎町",
    "city_kana": "ミナミツガルグンフジサキマチ",
    "town": "増館",
    "town_kana": "マスダテ",
    "street": null,
    "office_name": null,
    "office_name_kana": null
  },
  "1211": {
    "zip_code": "0381211",
    "prefecture": "青森県",
    "prefecture_kana": "アオモリケン",
    "prefecture_code": 2,
    "city": "南津軽郡藤崎町",
    "city_kana": "ミナミツガルグンフジサキマチ",
    "town": "福島",
    "town_kana": "フクシマ",
    "street": null,
    "office_name": null,
    "office_name_kana": null
  },
  "1212": {
    "zip_code": "0381212",
    "prefecture": "青森県",
    "prefecture_kana": "アオモリケン",
    "prefecture_code": 2,
    "city": "南津軽郡藤崎町",
    "city_kana": "ミナミツガルグンフジサキマチ",
    "town": "三ツ屋",
    "town_kana": "ミツヤ",
    "street": null,
    "office_name": null,
    "office_name_kana": null
  },
  "1213": {
    "zip_code": "0381213",
    "prefecture": "青森県",
    "prefecture_kana": "アオモリケン",
    "prefecture_code": 2,
    "city": "南津軽郡藤崎町",
    "city_kana": "ミナミツガルグンフジサキマチ",
    "town": "徳下",
    "town_kana": "トクゲ",
    "street": null,
    "office_name": null,
    "office_name_kana": null
  },
  "1214": {
    "zip_code": "0381214",
    "prefecture": "青森県",
    "prefecture_kana": "アオモリケン",
    "prefecture_code": 2,
    "city": "南津軽郡藤崎町",
    "city_kana": "ミナミツガルグンフジサキマチ",
    "town": "常盤",
    "town_kana": "トキワ",
    "street": null,
    "office_name": null,
    "office_name_kana": null
  },
  "1215": {
    "zip_code": "0381215",
    "prefecture": "青森県",
    "prefecture_kana": "アオモリケン",
    "prefecture_code": 2,
    "city": "南津軽郡藤崎町",
    "city_kana": "ミナミツガルグンフジサキマチ",
    "town": "若松",
    "town_kana": "ワカマツ",
    "street": null,
    "office_name": null,
    "office_name_kana": null
  },
  "1216": {
    "zip_code": "0381216",
    "prefecture": "青森県",
    "prefecture_kana": "アオモリケン",
    "prefecture_code": 2,
    "city": "南津軽郡藤崎町",
    "city_kana": "ミナミツガルグンフジサキマチ",
    "town": "榊",
    "town_kana": "サカキ",
    "street": null,
    "office_name": null,
    "office_name_kana": null
  },
  "1301": {
    "zip_code": "0381301",
    "prefecture": "青森県",
    "prefecture_kana": "アオモリケン",
    "prefecture_code": 2,
    "city": "青森市",
    "city_kana": "アオモリシ",
    "town": "浪岡大釈迦",
    "town_kana": "ナミオカダイシャカ",
    "street": null,
    "office_name": null,
    "office_name_kana": null
  },
  "1302": {
    "zip_code": "0381302",
    "prefecture": "青森県",
    "prefecture_kana": "アオモリケン",
    "prefecture_code": 2,
    "city": "青森市",
    "city_kana": "アオモリシ",
    "town": "浪岡長沼",
    "town_kana": "ナミオカナガヌマ",
    "street": null,
    "office_name": null,
    "office_name_kana": null
  },
  "1303": {
    "zip_code": "0381303",
    "prefecture": "青森県",
    "prefecture_kana": "アオモリケン",
    "prefecture_code": 2,
    "city": "青森市",
    "city_kana": "アオモリシ",
    "town": "浪岡徳才子",
    "town_kana": "ナミオカトクサイシ",
    "street": null,
    "office_name": null,
    "office_name_kana": null
  },
  "1304": {
    "zip_code": "0381304",
    "prefecture": "青森県",
    "prefecture_kana": "アオモリケン",
    "prefecture_code": 2,
    "city": "青森市",
    "city_kana": "アオモリシ",
    "town": "浪岡高屋敷",
    "town_kana": "ナミオカタカヤシキ",
    "street": null,
    "office_name": null,
    "office_name_kana": null
  },
  "1305": {
    "zip_code": "0381305",
    "prefecture": "青森県",
    "prefecture_kana": "アオモリケン",
    "prefecture_code": 2,
    "city": "青森市",
    "city_kana": "アオモリシ",
    "town": "浪岡杉沢",
    "town_kana": "ナミオカスギサワ",
    "street": null,
    "office_name": null,
    "office_name_kana": null
  },
  "1306": {
    "zip_code": "0381306",
    "prefecture": "青森県",
    "prefecture_kana": "アオモリケン",
    "prefecture_code": 2,
    "city": "青森市",
    "city_kana": "アオモリシ",
    "town": "浪岡福田",
    "town_kana": "ナミオカフクダ",
    "street": null,
    "office_name": null,
    "office_name_kana": null
  },
  "1311": {
    "zip_code": "0381311",
    "prefecture": "青森県",
    "prefecture_kana": "アオモリケン",
    "prefecture_code": 2,
    "city": "青森市",
    "city_kana": "アオモリシ",
    "town": "浪岡浪岡",
    "town_kana": "ナミオカナミオカ",
    "street": null,
    "office_name": null,
    "office_name_kana": null
  },
  "1312": {
    "zip_code": "0381312",
    "prefecture": "青森県",
    "prefecture_kana": "アオモリケン",
    "prefecture_code": 2,
    "city": "青森市",
    "city_kana": "アオモリシ",
    "town": "浪岡五本松",
    "town_kana": "ナミオカゴホンマツ",
    "street": null,
    "office_name": null,
    "office_name_kana": null
  },
  "1313": {
    "zip_code": "0381313",
    "prefecture": "青森県",
    "prefecture_kana": "アオモリケン",
    "prefecture_code": 2,
    "city": "青森市",
    "city_kana": "アオモリシ",
    "town": "浪岡王余魚沢",
    "town_kana": "ナミオカカレイザワ",
    "street": null,
    "office_name": null,
    "office_name_kana": null
  },
  "1321": {
    "zip_code": "0381321",
    "prefecture": "青森県",
    "prefecture_kana": "アオモリケン",
    "prefecture_code": 2,
    "city": "青森市",
    "city_kana": "アオモリシ",
    "town": "浪岡相沢",
    "town_kana": "ナミオカアイザワ",
    "street": null,
    "office_name": null,
    "office_name_kana": null
  },
  "1322": {
    "zip_code": "0381322",
    "prefecture": "青森県",
    "prefecture_kana": "アオモリケン",
    "prefecture_code": 2,
    "city": "青森市",
    "city_kana": "アオモリシ",
    "town": "浪岡細野",
    "town_kana": "ナミオカホソノ",
    "street": null,
    "office_name": null,
    "office_name_kana": null
  },
  "1323": {
    "zip_code": "0381323",
    "prefecture": "青森県",
    "prefecture_kana": "アオモリケン",
    "prefecture_code": 2,
    "city": "青森市",
    "city_kana": "アオモリシ",
    "town": "浪岡本郷",
    "town_kana": "ナミオカホンゴウ",
    "street": null,
    "office_name": null,
    "office_name_kana": null
  },
  "1324": {
    "zip_code": "0381324",
    "prefecture": "青森県",
    "prefecture_kana": "アオモリケン",
    "prefecture_code": 2,
    "city": "青森市",
    "city_kana": "アオモリシ",
    "town": "浪岡吉内",
    "town_kana": "ナミオカキチナイ",
    "street": null,
    "office_name": null,
    "office_name_kana": null
  },
  "1325": {
    "zip_code": "0381325",
    "prefecture": "青森県",
    "prefecture_kana": "アオモリケン",
    "prefecture_code": 2,
    "city": "青森市",
    "city_kana": "アオモリシ",
    "town": "浪岡北中野",
    "town_kana": "ナミオカキタナカノ",
    "street": null,
    "office_name": null,
    "office_name_kana": null
  },
  "1331": {
    "zip_code": "0381331",
    "prefecture": "青森県",
    "prefecture_kana": "アオモリケン",
    "prefecture_code": 2,
    "city": "青森市",
    "city_kana": "アオモリシ",
    "town": "浪岡女鹿沢",
    "town_kana": "ナミオカメガサワ",
    "street": null,
    "office_name": null,
    "office_name_kana": null
  },
  "1332": {
    "zip_code": "0381332",
    "prefecture": "青森県",
    "prefecture_kana": "アオモリケン",
    "prefecture_code": 2,
    "city": "青森市",
    "city_kana": "アオモリシ",
    "town": "浪岡下十川",
    "town_kana": "ナミオカシモトガワ",
    "street": null,
    "office_name": null,
    "office_name_kana": null
  },
  "1333": {
    "zip_code": "0381333",
    "prefecture": "青森県",
    "prefecture_kana": "アオモリケン",
    "prefecture_code": 2,
    "city": "青森市",
    "city_kana": "アオモリシ",
    "town": "浪岡増館",
    "town_kana": "ナミオカマスダテ",
    "street": null,
    "office_name": null,
    "office_name_kana": null
  },
  "1341": {
    "zip_code": "0381341",
    "prefecture": "青森県",
    "prefecture_kana": "アオモリケン",
    "prefecture_code": 2,
    "city": "青森市",
    "city_kana": "アオモリシ",
    "town": "浪岡銀",
    "town_kana": "ナミオカシロガネ",
    "street": null,
    "office_name": null,
    "office_name_kana": null
  },
  "1342": {
    "zip_code": "0381342",
    "prefecture": "青森県",
    "prefecture_kana": "アオモリケン",
    "prefecture_code": 2,
    "city": "青森市",
    "city_kana": "アオモリシ",
    "town": "浪岡樽沢",
    "town_kana": "ナミオカタルサワ",
    "street": null,
    "office_name": null,
    "office_name_kana": null
  },
  "1343": {
    "zip_code": "0381343",
    "prefecture": "青森県",
    "prefecture_kana": "アオモリケン",
    "prefecture_code": 2,
    "city": "青森市",
    "city_kana": "アオモリシ",
    "town": "浪岡郷山前",
    "town_kana": "ナミオカゴウサンマエ",
    "street": null,
    "office_name": null,
    "office_name_kana": null
  },
  "1344": {
    "zip_code": "0381344",
    "prefecture": "青森県",
    "prefecture_kana": "アオモリケン",
    "prefecture_code": 2,
    "city": "青森市",
    "city_kana": "アオモリシ",
    "town": "浪岡吉野田",
    "town_kana": "ナミオカヨシノダ",
    "street": null,
    "office_name": null,
    "office_name_kana": null
  },
  "1345": {
    "zip_code": "0381345",
    "prefecture": "青森県",
    "prefecture_kana": "アオモリケン",
    "prefecture_code": 2,
    "city": "青森市",
    "city_kana": "アオモリシ",
    "town": "浪岡下石川",
    "town_kana": "ナミオカシモイシカワ",
    "street": null,
    "office_name": null,
    "office_name_kana": null
  },
  "1392": {
    "zip_code": "0381392",
    "prefecture": "青森県",
    "prefecture_kana": null,
    "prefecture_code": null,
    "city": "青森市",
    "city_kana": null,
    "town": "浪岡大字浪岡",
    "town_kana": null,
    "street": "字稲村１０１−１",
    "office_name": "青森市役所　浪岡事務所",
    "office_name_kana": "アオモリシヤクシヨ ナミオカジムシヨ"
  },
  "1393": {
    "zip_code": "0381393",
    "prefecture": "青森県",
    "prefecture_kana": null,
    "prefecture_code": null,
    "city": "青森市",
    "city_kana": null,
    "town": "浪岡大字高屋敷",
    "town_kana": null,
    "street": "字野尻１−２５",
    "office_name": "イトーヨーカドー青森ＩＤＣ",
    "office_name_kana": "イト-ヨ-カド-アオモリアイデイシ-"
  },
  "2201": {
    "zip_code": "0382201",
    "prefecture": "青森県",
    "prefecture_kana": "アオモリケン",
    "prefecture_code": 2,
    "city": "西津軽郡深浦町",
    "city_kana": "ニシツガルグンフカウラマチ",
    "town": "沢辺",
    "town_kana": "サワベ",
    "street": null,
    "office_name": null,
    "office_name_kana": null
  },
  "2202": {
    "zip_code": "0382202",
    "prefecture": "青森県",
    "prefecture_kana": "アオモリケン",
    "prefecture_code": 2,
    "city": "西津軽郡深浦町",
    "city_kana": "ニシツガルグンフカウラマチ",
    "town": "岩崎",
    "town_kana": "イワサキ",
    "street": null,
    "office_name": null,
    "office_name_kana": null
  },
  "2203": {
    "zip_code": "0382203",
    "prefecture": "青森県",
    "prefecture_kana": "アオモリケン",
    "prefecture_code": 2,
    "city": "西津軽郡深浦町",
    "city_kana": "ニシツガルグンフカウラマチ",
    "town": "正道尻",
    "town_kana": "ショウドウジリ",
    "street": null,
    "office_name": null,
    "office_name_kana": null
  },
  "2204": {
    "zip_code": "0382204",
    "prefecture": "青森県",
    "prefecture_kana": "アオモリケン",
    "prefecture_code": 2,
    "city": "西津軽郡深浦町",
    "city_kana": "ニシツガルグンフカウラマチ",
    "town": "久田",
    "town_kana": "ヒサダ",
    "street": null,
    "office_name": null,
    "office_name_kana": null
  },
  "2205": {
    "zip_code": "0382205",
    "prefecture": "青森県",
    "prefecture_kana": "アオモリケン",
    "prefecture_code": 2,
    "city": "西津軽郡深浦町",
    "city_kana": "ニシツガルグンフカウラマチ",
    "town": "森山",
    "town_kana": "モリヤマ",
    "street": null,
    "office_name": null,
    "office_name_kana": null
  },
  "2206": {
    "zip_code": "0382206",
    "prefecture": "青森県",
    "prefecture_kana": "アオモリケン",
    "prefecture_code": 2,
    "city": "西津軽郡深浦町",
    "city_kana": "ニシツガルグンフカウラマチ",
    "town": "松神",
    "town_kana": "マツカミ",
    "street": null,
    "office_name": null,
    "office_name_kana": null
  },
  "2207": {
    "zip_code": "0382207",
    "prefecture": "青森県",
    "prefecture_kana": "アオモリケン",
    "prefecture_code": 2,
    "city": "西津軽郡深浦町",
    "city_kana": "ニシツガルグンフカウラマチ",
    "town": "黒崎",
    "town_kana": "クロサキ",
    "street": null,
    "office_name": null,
    "office_name_kana": null
  },
  "2208": {
    "zip_code": "0382208",
    "prefecture": "青森県",
    "prefecture_kana": "アオモリケン",
    "prefecture_code": 2,
    "city": "西津軽郡深浦町",
    "city_kana": "ニシツガルグンフカウラマチ",
    "town": "大間越",
    "town_kana": "オオマゴシ",
    "street": null,
    "office_name": null,
    "office_name_kana": null
  },
  "2300": {
    "zip_code": "0382300",
    "prefecture": "青森県",
    "prefecture_kana": "アオモリケン",
    "prefecture_code": 2,
    "city": "西津軽郡深浦町",
    "city_kana": "ニシツガルグンフカウラマチ",
    "town": "",
    "town_kana": "",
    "street": null,
    "office_name": null,
    "office_name_kana": null
  },
  "2321": {
    "zip_code": "0382321",
    "prefecture": "青森県",
    "prefecture_kana": "アオモリケン",
    "prefecture_code": 2,
    "city": "西津軽郡深浦町",
    "city_kana": "ニシツガルグンフカウラマチ",
    "town": "広戸",
    "town_kana": "ヒロト",
    "street": null,
    "office_name": null,
    "office_name_kana": null
  },
  "2322": {
    "zip_code": "0382322",
    "prefecture": "青森県",
    "prefecture_kana": "アオモリケン",
    "prefecture_code": 2,
    "city": "西津軽郡深浦町",
    "city_kana": "ニシツガルグンフカウラマチ",
    "town": "長慶平",
    "town_kana": "チョウケイダイラ",
    "street": null,
    "office_name": null,
    "office_name_kana": null
  },
  "2323": {
    "zip_code": "0382323",
    "prefecture": "青森県",
    "prefecture_kana": "アオモリケン",
    "prefecture_code": 2,
    "city": "西津軽郡深浦町",
    "city_kana": "ニシツガルグンフカウラマチ",
    "town": "上長慶平",
    "town_kana": "カミチョウケイダイラ",
    "street": null,
    "office_name": null,
    "office_name_kana": null
  },
  "2324": {
    "zip_code": "0382324",
    "prefecture": "青森県",
    "prefecture_kana": "アオモリケン",
    "prefecture_code": 2,
    "city": "西津軽郡深浦町",
    "city_kana": "ニシツガルグンフカウラマチ",
    "town": "深浦",
    "town_kana": "フカウラ",
    "street": null,
    "office_name": null,
    "office_name_kana": null
  },
  "2325": {
    "zip_code": "0382325",
    "prefecture": "青森県",
    "prefecture_kana": "アオモリケン",
    "prefecture_code": 2,
    "city": "西津軽郡深浦町",
    "city_kana": "ニシツガルグンフカウラマチ",
    "town": "横磯",
    "town_kana": "ヨコイソ",
    "street": null,
    "office_name": null,
    "office_name_kana": null
  },
  "2326": {
    "zip_code": "0382326",
    "prefecture": "青森県",
    "prefecture_kana": "アオモリケン",
    "prefecture_code": 2,
    "city": "西津軽郡深浦町",
    "city_kana": "ニシツガルグンフカウラマチ",
    "town": "月屋",
    "town_kana": "ツキヤ",
    "street": null,
    "office_name": null,
    "office_name_kana": null
  },
  "2327": {
    "zip_code": "0382327",
    "prefecture": "青森県",
    "prefecture_kana": "アオモリケン",
    "prefecture_code": 2,
    "city": "西津軽郡深浦町",
    "city_kana": "ニシツガルグンフカウラマチ",
    "town": "舮作",
    "town_kana": "ヘナシ",
    "street": null,
    "office_name": null,
    "office_name_kana": null
  },
  "2411": {
    "zip_code": "0382411",
    "prefecture": "青森県",
    "prefecture_kana": "アオモリケン",
    "prefecture_code": 2,
    "city": "西津軽郡深浦町",
    "city_kana": "ニシツガルグンフカウラマチ",
    "town": "風合瀬",
    "town_kana": "カソセ",
    "street": null,
    "office_name": null,
    "office_name_kana": null
  },
  "2412": {
    "zip_code": "0382412",
    "prefecture": "青森県",
    "prefecture_kana": "アオモリケン",
    "prefecture_code": 2,
    "city": "西津軽郡深浦町",
    "city_kana": "ニシツガルグンフカウラマチ",
    "town": "驫木",
    "town_kana": "トドロキ",
    "street": null,
    "office_name": null,
    "office_name_kana": null
  },
  "2413": {
    "zip_code": "0382413",
    "prefecture": "青森県",
    "prefecture_kana": "アオモリケン",
    "prefecture_code": 2,
    "city": "西津軽郡深浦町",
    "city_kana": "ニシツガルグンフカウラマチ",
    "town": "追良瀬",
    "town_kana": "オイラセ",
    "street": null,
    "office_name": null,
    "office_name_kana": null
  },
  "2501": {
    "zip_code": "0382501",
    "prefecture": "青森県",
    "prefecture_kana": "アオモリケン",
    "prefecture_code": 2,
    "city": "西津軽郡深浦町",
    "city_kana": "ニシツガルグンフカウラマチ",
    "town": "柳田",
    "town_kana": "ヤナギタ",
    "street": null,
    "office_name": null,
    "office_name_kana": null
  },
  "2502": {
    "zip_code": "0382502",
    "prefecture": "青森県",
    "prefecture_kana": "アオモリケン",
    "prefecture_code": 2,
    "city": "西津軽郡深浦町",
    "city_kana": "ニシツガルグンフカウラマチ",
    "town": "岩坂",
    "town_kana": "イワサカ",
    "street": null,
    "office_name": null,
    "office_name_kana": null
  },
  "2503": {
    "zip_code": "0382503",
    "prefecture": "青森県",
    "prefecture_kana": "アオモリケン",
    "prefecture_code": 2,
    "city": "西津軽郡深浦町",
    "city_kana": "ニシツガルグンフカウラマチ",
    "town": "関",
    "town_kana": "セキ",
    "street": null,
    "office_name": null,
    "office_name_kana": null
  },
  "2504": {
    "zip_code": "0382504",
    "prefecture": "青森県",
    "prefecture_kana": "アオモリケン",
    "prefecture_code": 2,
    "city": "西津軽郡深浦町",
    "city_kana": "ニシツガルグンフカウラマチ",
    "town": "北金ケ沢",
    "town_kana": "キタカネガサワ",
    "street": null,
    "office_name": null,
    "office_name_kana": null
  },
  "2505": {
    "zip_code": "0382505",
    "prefecture": "青森県",
    "prefecture_kana": "アオモリケン",
    "prefecture_code": 2,
    "city": "西津軽郡深浦町",
    "city_kana": "ニシツガルグンフカウラマチ",
    "town": "田野沢",
    "town_kana": "タノサワ",
    "street": null,
    "office_name": null,
    "office_name_kana": null
  },
  "2700": {
    "zip_code": "0382700",
    "prefecture": "青森県",
    "prefecture_kana": "アオモリケン",
    "prefecture_code": 2,
    "city": "西津軽郡鰺ヶ沢町",
    "city_kana": "ニシツガルグンアジガサワマチ",
    "town": "",
    "town_kana": "",
    "street": null,
    "office_name": null,
    "office_name_kana": null
  },
  "2701": {
    "zip_code": "0382701",
    "prefecture": "青森県",
    "prefecture_kana": "アオモリケン",
    "prefecture_code": 2,
    "city": "西津軽郡鰺ヶ沢町",
    "city_kana": "ニシツガルグンアジガサワマチ",
    "town": "北浮田町",
    "town_kana": "キタウキタマチ",
    "street": null,
    "office_name": null,
    "office_name_kana": null
  },
  "2702": {
    "zip_code": "0382702",
    "prefecture": "青森県",
    "prefecture_kana": "アオモリケン",
    "prefecture_code": 2,
    "city": "西津軽郡鰺ヶ沢町",
    "city_kana": "ニシツガルグンアジガサワマチ",
    "town": "建石町",
    "town_kana": "タテイシマチ",
    "street": null,
    "office_name": null,
    "office_name_kana": null
  },
  "2703": {
    "zip_code": "0382703",
    "prefecture": "青森県",
    "prefecture_kana": "アオモリケン",
    "prefecture_code": 2,
    "city": "西津軽郡鰺ヶ沢町",
    "city_kana": "ニシツガルグンアジガサワマチ",
    "town": "小屋敷町",
    "town_kana": "コヤシキマチ",
    "street": null,
    "office_name": null,
    "office_name_kana": null
  },
  "2704": {
    "zip_code": "0382704",
    "prefecture": "青森県",
    "prefecture_kana": "アオモリケン",
    "prefecture_code": 2,
    "city": "西津軽郡鰺ヶ沢町",
    "city_kana": "ニシツガルグンアジガサワマチ",
    "town": "湯舟町",
    "town_kana": "ユブネマチ",
    "street": null,
    "office_name": null,
    "office_name_kana": null
  },
  "2705": {
    "zip_code": "0382705",
    "prefecture": "青森県",
    "prefecture_kana": "アオモリケン",
    "prefecture_code": 2,
    "city": "西津軽郡鰺ヶ沢町",
    "city_kana": "ニシツガルグンアジガサワマチ",
    "town": "南浮田町",
    "town_kana": "ミナミウキタマチ",
    "street": null,
    "office_name": null,
    "office_name_kana": null
  },
  "2711": {
    "zip_code": "0382711",
    "prefecture": "青森県",
    "prefecture_kana": "アオモリケン",
    "prefecture_code": 2,
    "city": "西津軽郡鰺ヶ沢町",
    "city_kana": "ニシツガルグンアジガサワマチ",
    "town": "中村町",
    "town_kana": "ナカムラマチ",
    "street": null,
    "office_name": null,
    "office_name_kana": null
  },
  "2712": {
    "zip_code": "0382712",
    "prefecture": "青森県",
    "prefecture_kana": "アオモリケン",
    "prefecture_code": 2,
    "city": "西津軽郡鰺ヶ沢町",
    "city_kana": "ニシツガルグンアジガサワマチ",
    "town": "長平町",
    "town_kana": "ナガダイマチ",
    "street": null,
    "office_name": null,
    "office_name_kana": null
  },
  "2713": {
    "zip_code": "0382713",
    "prefecture": "青森県",
    "prefecture_kana": "アオモリケン",
    "prefecture_code": 2,
    "city": "西津軽郡鰺ヶ沢町",
    "city_kana": "ニシツガルグンアジガサワマチ",
    "town": "松代町",
    "town_kana": "マツダイマチ",
    "street": null,
    "office_name": null,
    "office_name_kana": null
  },
  "2714": {
    "zip_code": "0382714",
    "prefecture": "青森県",
    "prefecture_kana": "アオモリケン",
    "prefecture_code": 2,
    "city": "西津軽郡鰺ヶ沢町",
    "city_kana": "ニシツガルグンアジガサワマチ",
    "town": "芦萢町",
    "town_kana": "アシヤチマチ",
    "street": null,
    "office_name": null,
    "office_name_kana": null
  },
  "2715": {
    "zip_code": "0382715",
    "prefecture": "青森県",
    "prefecture_kana": "アオモリケン",
    "prefecture_code": 2,
    "city": "西津軽郡鰺ヶ沢町",
    "city_kana": "ニシツガルグンアジガサワマチ",
    "town": "浜横沢町",
    "town_kana": "ハマヨコサワマチ",
    "street": null,
    "office_name": null,
    "office_name_kana": null
  },
  "2721": {
    "zip_code": "0382721",
    "prefecture": "青森県",
    "prefecture_kana": "アオモリケン",
    "prefecture_code": 2,
    "city": "西津軽郡鰺ヶ沢町",
    "city_kana": "ニシツガルグンアジガサワマチ",
    "town": "深谷町",
    "town_kana": "フカヤマチ",
    "street": null,
    "office_name": null,
    "office_name_kana": null
  },
  "2722": {
    "zip_code": "0382722",
    "prefecture": "青森県",
    "prefecture_kana": "アオモリケン",
    "prefecture_code": 2,
    "city": "西津軽郡鰺ヶ沢町",
    "city_kana": "ニシツガルグンアジガサワマチ",
    "town": "小森町",
    "town_kana": "コモリマチ",
    "street": null,
    "office_name": null,
    "office_name_kana": null
  },
  "2723": {
    "zip_code": "0382723",
    "prefecture": "青森県",
    "prefecture_kana": "アオモリケン",
    "prefecture_code": 2,
    "city": "西津軽郡鰺ヶ沢町",
    "city_kana": "ニシツガルグンアジガサワマチ",
    "town": "一ツ森町",
    "town_kana": "ヒトツモリマチ",
    "street": null,
    "office_name": null,
    "office_name_kana": null
  },
  "2724": {
    "zip_code": "0382724",
    "prefecture": "青森県",
    "prefecture_kana": "アオモリケン",
    "prefecture_code": 2,
    "city": "西津軽郡鰺ヶ沢町",
    "city_kana": "ニシツガルグンアジガサワマチ",
    "town": "鬼袋町",
    "town_kana": "オニフクロマチ",
    "street": null,
    "office_name": null,
    "office_name_kana": null
  },
  "2725": {
    "zip_code": "0382725",
    "prefecture": "青森県",
    "prefecture_kana": "アオモリケン",
    "prefecture_code": 2,
    "city": "西津軽郡鰺ヶ沢町",
    "city_kana": "ニシツガルグンアジガサワマチ",
    "town": "種里町",
    "town_kana": "タネサトマチ",
    "street": null,
    "office_name": null,
    "office_name_kana": null
  },
  "2731": {
    "zip_code": "0382731",
    "prefecture": "青森県",
    "prefecture_kana": "アオモリケン",
    "prefecture_code": 2,
    "city": "西津軽郡鰺ヶ沢町",
    "city_kana": "ニシツガルグンアジガサワマチ",
    "town": "赤石町",
    "town_kana": "アカイシマチ",
    "street": null,
    "office_name": null,
    "office_name_kana": null
  },
  "2732": {
    "zip_code": "0382732",
    "prefecture": "青森県",
    "prefecture_kana": "アオモリケン",
    "prefecture_code": 2,
    "city": "西津軽郡鰺ヶ沢町",
    "city_kana": "ニシツガルグンアジガサワマチ",
    "town": "日照田町",
    "town_kana": "ヒデリタマチ",
    "street": null,
    "office_name": null,
    "office_name_kana": null
  },
  "2733": {
    "zip_code": "0382733",
    "prefecture": "青森県",
    "prefecture_kana": "アオモリケン",
    "prefecture_code": 2,
    "city": "西津軽郡鰺ヶ沢町",
    "city_kana": "ニシツガルグンアジガサワマチ",
    "town": "館前町",
    "town_kana": "タテマエマチ",
    "street": null,
    "office_name": null,
    "office_name_kana": null
  },
  "2734": {
    "zip_code": "0382734",
    "prefecture": "青森県",
    "prefecture_kana": "アオモリケン",
    "prefecture_code": 2,
    "city": "西津軽郡鰺ヶ沢町",
    "city_kana": "ニシツガルグンアジガサワマチ",
    "town": "南金沢町",
    "town_kana": "ミナミカナザワマチ",
    "street": null,
    "office_name": null,
    "office_name_kana": null
  },
  "2735": {
    "zip_code": "0382735",
    "prefecture": "青森県",
    "prefecture_kana": "アオモリケン",
    "prefecture_code": 2,
    "city": "西津軽郡鰺ヶ沢町",
    "city_kana": "ニシツガルグンアジガサワマチ",
    "town": "姥袋町",
    "town_kana": "ウバフクロマチ",
    "street": null,
    "office_name": null,
    "office_name_kana": null
  },
  "2741": {
    "zip_code": "0382741",
    "prefecture": "青森県",
    "prefecture_kana": "アオモリケン",
    "prefecture_code": 2,
    "city": "西津軽郡鰺ヶ沢町",
    "city_kana": "ニシツガルグンアジガサワマチ",
    "town": "浜町",
    "town_kana": "ハママチ",
    "street": null,
    "office_name": null,
    "office_name_kana": null
  },
  "2742": {
    "zip_code": "0382742",
    "prefecture": "青森県",
    "prefecture_kana": "アオモリケン",
    "prefecture_code": 2,
    "city": "西津軽郡鰺ヶ沢町",
    "city_kana": "ニシツガルグンアジガサワマチ",
    "town": "新町",
    "town_kana": "アラマチ",
    "street": null,
    "office_name": null,
    "office_name_kana": null
  },
  "2743": {
    "zip_code": "0382743",
    "prefecture": "青森県",
    "prefecture_kana": "アオモリケン",
    "prefecture_code": 2,
    "city": "西津軽郡鰺ヶ沢町",
    "city_kana": "ニシツガルグンアジガサワマチ",
    "town": "釣町",
    "town_kana": "ツリマチ",
    "street": null,
    "office_name": null,
    "office_name_kana": null
  },
  "2744": {
    "zip_code": "0382744",
    "prefecture": "青森県",
    "prefecture_kana": "アオモリケン",
    "prefecture_code": 2,
    "city": "西津軽郡鰺ヶ沢町",
    "city_kana": "ニシツガルグンアジガサワマチ",
    "town": "漁師町",
    "town_kana": "リョウシマチ",
    "street": null,
    "office_name": null,
    "office_name_kana": null
  },
  "2745": {
    "zip_code": "0382745",
    "prefecture": "青森県",
    "prefecture_kana": "アオモリケン",
    "prefecture_code": 2,
    "city": "西津軽郡鰺ヶ沢町",
    "city_kana": "ニシツガルグンアジガサワマチ",
    "town": "新地町",
    "town_kana": "シンチマチ",
    "street": null,
    "office_name": null,
    "office_name_kana": null
  },
  "2746": {
    "zip_code": "0382746",
    "prefecture": "青森県",
    "prefecture_kana": "アオモリケン",
    "prefecture_code": 2,
    "city": "西津軽郡鰺ヶ沢町",
    "city_kana": "ニシツガルグンアジガサワマチ",
    "town": "富根町",
    "town_kana": "フネチョウ",
    "street": null,
    "office_name": null,
    "office_name_kana": null
  },
  "2747": {
    "zip_code": "0382747",
    "prefecture": "青森県",
    "prefecture_kana": "アオモリケン",
    "prefecture_code": 2,
    "city": "西津軽郡鰺ヶ沢町",
    "city_kana": "ニシツガルグンアジガサワマチ",
    "town": "淀町",
    "town_kana": "ヨドマチ",
    "street": null,
    "office_name": null,
    "office_name_kana": null
  },
  "2751": {
    "zip_code": "0382751",
    "prefecture": "青森県",
    "prefecture_kana": "アオモリケン",
    "prefecture_code": 2,
    "city": "西津軽郡鰺ヶ沢町",
    "city_kana": "ニシツガルグンアジガサワマチ",
    "town": "田中町",
    "town_kana": "タナカマチ",
    "street": null,
    "office_name": null,
    "office_name_kana": null
  },
  "2752": {
    "zip_code": "0382752",
    "prefecture": "青森県",
    "prefecture_kana": "アオモリケン",
    "prefecture_code": 2,
    "city": "西津軽郡鰺ヶ沢町",
    "city_kana": "ニシツガルグンアジガサワマチ",
    "town": "七ツ石町",
    "town_kana": "ナナツイシマチ",
    "street": null,
    "office_name": null,
    "office_name_kana": null
  },
  "2753": {
    "zip_code": "0382753",
    "prefecture": "青森県",
    "prefecture_kana": "アオモリケン",
    "prefecture_code": 2,
    "city": "西津軽郡鰺ヶ沢町",
    "city_kana": "ニシツガルグンアジガサワマチ",
    "town": "本町",
    "town_kana": "ホンチョウ",
    "street": null,
    "office_name": null,
    "office_name_kana": null
  },
  "2754": {
    "zip_code": "0382754",
    "prefecture": "青森県",
    "prefecture_kana": "アオモリケン",
    "prefecture_code": 2,
    "city": "西津軽郡鰺ヶ沢町",
    "city_kana": "ニシツガルグンアジガサワマチ",
    "town": "米町",
    "town_kana": "コメマチ",
    "street": null,
    "office_name": null,
    "office_name_kana": null
  },
  "2761": {
    "zip_code": "0382761",
    "prefecture": "青森県",
    "prefecture_kana": "アオモリケン",
    "prefecture_code": 2,
    "city": "西津軽郡鰺ヶ沢町",
    "city_kana": "ニシツガルグンアジガサワマチ",
    "town": "舞戸町",
    "town_kana": "マイトマチ",
    "street": null,
    "office_name": null,
    "office_name_kana": null
  },
  "2792": {
    "zip_code": "0382792",
    "prefecture": "青森県",
    "prefecture_kana": null,
    "prefecture_code": null,
    "city": "西津軽郡鰺ヶ沢町",
    "city_kana": null,
    "town": "大字本町",
    "town_kana": null,
    "street": "２０９−２",
    "office_name": "鯵ケ沢町役場",
    "office_name_kana": "アジガサワマチヤクバ"
  },
  "2793": {
    "zip_code": "0382793",
    "prefecture": "青森県",
    "prefecture_kana": "アオモリケン",
    "prefecture_code": 2,
    "city": "西津軽郡鰺ヶ沢町",
    "city_kana": "ニシツガルグンアジガサワマチ",
    "town": "長平町",
    "town_kana": "ナガダイマチ",
    "street": "字西岩木山７５（鯵ヶ沢高原）",
    "office_name": "ナクア白神ホテル＆リゾート",
    "office_name_kana": "ナクアシラカミホテルアンドリゾ-ト"
  },
  "2801": {
    "zip_code": "0382801",
    "prefecture": "青森県",
    "prefecture_kana": "アオモリケン",
    "prefecture_code": 2,
    "city": "つがる市",
    "city_kana": "ツガルシ",
    "town": "木造丸山",
    "town_kana": "キヅクリマルヤマ",
    "street": null,
    "office_name": null,
    "office_name_kana": null
  },
  "2803": {
    "zip_code": "0382803",
    "prefecture": "青森県",
    "prefecture_kana": "アオモリケン",
    "prefecture_code": 2,
    "city": "つがる市",
    "city_kana": "ツガルシ",
    "town": "木造下福原",
    "town_kana": "キヅクリシモフクハラ",
    "street": null,
    "office_name": null,
    "office_name_kana": null
  },
  "2804": {
    "zip_code": "0382804",
    "prefecture": "青森県",
    "prefecture_kana": "アオモリケン",
    "prefecture_code": 2,
    "city": "つがる市",
    "city_kana": "ツガルシ",
    "town": "木造三ツ館",
    "town_kana": "キヅクリミツタテ",
    "street": null,
    "office_name": null,
    "office_name_kana": null
  },
  "2805": {
    "zip_code": "0382805",
    "prefecture": "青森県",
    "prefecture_kana": "アオモリケン",
    "prefecture_code": 2,
    "city": "つがる市",
    "city_kana": "ツガルシ",
    "town": "木造広岡",
    "town_kana": "キヅクリヒロオカ",
    "street": null,
    "office_name": null,
    "office_name_kana": null
  },
  "2806": {
    "zip_code": "0382806",
    "prefecture": "青森県",
    "prefecture_kana": "アオモリケン",
    "prefecture_code": 2,
    "city": "つがる市",
    "city_kana": "ツガルシ",
    "town": "木造越水",
    "town_kana": "キヅクリコシミズ",
    "street": null,
    "office_name": null,
    "office_name_kana": null
  },
  "2807": {
    "zip_code": "0382807",
    "prefecture": "青森県",
    "prefecture_kana": "アオモリケン",
    "prefecture_code": 2,
    "city": "つがる市",
    "city_kana": "ツガルシ",
    "town": "木造駒田",
    "town_kana": "キヅクリコマダ",
    "street": null,
    "office_name": null,
    "office_name_kana": null
  },
  "2808": {
    "zip_code": "0382808",
    "prefecture": "青森県",
    "prefecture_kana": "アオモリケン",
    "prefecture_code": 2,
    "city": "つがる市",
    "city_kana": "ツガルシ",
    "town": "木造吹原",
    "town_kana": "キヅクリフキハラ",
    "street": null,
    "office_name": null,
    "office_name_kana": null
  },
  "2811": {
    "zip_code": "0382811",
    "prefecture": "青森県",
    "prefecture_kana": "アオモリケン",
    "prefecture_code": 2,
    "city": "つがる市",
    "city_kana": "ツガルシ",
    "town": "森田町上相野",
    "town_kana": "モリタチョウカミアイノ",
    "street": null,
    "office_name": null,
    "office_name_kana": null
  },
  "2812": {
    "zip_code": "0382812",
    "prefecture": "青森県",
    "prefecture_kana": "アオモリケン",
    "prefecture_code": 2,
    "city": "つがる市",
    "city_kana": "ツガルシ",
    "town": "森田町下相野",
    "town_kana": "モリタチョウシモアイノ",
    "street": null,
    "office_name": null,
    "office_name_kana": null
  },
  "2813": {
    "zip_code": "0382813",
    "prefecture": "青森県",
    "prefecture_kana": "アオモリケン",
    "prefecture_code": 2,
    "city": "つがる市",
    "city_kana": "ツガルシ",
    "town": "森田町妙堂崎",
    "town_kana": "モリタチョウミョウドウザキ",
    "street": null,
    "office_name": null,
    "office_name_kana": null
  },
  "2814": {
    "zip_code": "0382814",
    "prefecture": "青森県",
    "prefecture_kana": "アオモリケン",
    "prefecture_code": 2,
    "city": "つがる市",
    "city_kana": "ツガルシ",
    "town": "森田町中田",
    "town_kana": "モリタチョウナカタ",
    "street": null,
    "office_name": null,
    "office_name_kana": null
  },
  "2815": {
    "zip_code": "0382815",
    "prefecture": "青森県",
    "prefecture_kana": "アオモリケン",
    "prefecture_code": 2,
    "city": "つがる市",
    "city_kana": "ツガルシ",
    "town": "森田町山田",
    "town_kana": "モリタチョウヤマダ",
    "street": null,
    "office_name": null,
    "office_name_kana": null
  },
  "2816": {
    "zip_code": "0382816",
    "prefecture": "青森県",
    "prefecture_kana": "アオモリケン",
    "prefecture_code": 2,
    "city": "つがる市",
    "city_kana": "ツガルシ",
    "town": "森田町森田",
    "town_kana": "モリタチョウモリタ",
    "street": null,
    "office_name": null,
    "office_name_kana": null
  },
  "2817": {
    "zip_code": "0382817",
    "prefecture": "青森県",
    "prefecture_kana": "アオモリケン",
    "prefecture_code": 2,
    "city": "つがる市",
    "city_kana": "ツガルシ",
    "town": "森田町床舞",
    "town_kana": "モリタチョウトコマイ",
    "street": null,
    "office_name": null,
    "office_name_kana": null
  },
  "2818": {
    "zip_code": "0382818",
    "prefecture": "青森県",
    "prefecture_kana": "アオモリケン",
    "prefecture_code": 2,
    "city": "つがる市",
    "city_kana": "ツガルシ",
    "town": "森田町大館",
    "town_kana": "モリタチョウオオダテ",
    "street": null,
    "office_name": null,
    "office_name_kana": null
  },
  "3100": {
    "zip_code": "0383100",
    "prefecture": "青森県",
    "prefecture_kana": "アオモリケン",
    "prefecture_code": 2,
    "city": "つがる市",
    "city_kana": "ツガルシ",
    "town": "",
    "town_kana": "",
    "street": null,
    "office_name": null,
    "office_name_kana": null
  },
  "3101": {
    "zip_code": "0383101",
    "prefecture": "青森県",
    "prefecture_kana": "アオモリケン",
    "prefecture_code": 2,
    "city": "つがる市",
    "city_kana": "ツガルシ",
    "town": "柏鷺坂",
    "town_kana": "カシワサギサカ",
    "street": null,
    "office_name": null,
    "office_name_kana": null
  },
  "3102": {
    "zip_code": "0383102",
    "prefecture": "青森県",
    "prefecture_kana": "アオモリケン",
    "prefecture_code": 2,
    "city": "つがる市",
    "city_kana": "ツガルシ",
    "town": "柏下古川",
    "town_kana": "カシワシモコガワ",
    "street": null,
    "office_name": null,
    "office_name_kana": null
  },
  "3103": {
    "zip_code": "0383103",
    "prefecture": "青森県",
    "prefecture_kana": "アオモリケン",
    "prefecture_code": 2,
    "city": "つがる市",
    "city_kana": "ツガルシ",
    "town": "柏上古川",
    "town_kana": "カシワカミコガワ",
    "street": null,
    "office_name": null,
    "office_name_kana": null
  },
  "3104": {
    "zip_code": "0383104",
    "prefecture": "青森県",
    "prefecture_kana": "アオモリケン",
    "prefecture_code": 2,
    "city": "つがる市",
    "city_kana": "ツガルシ",
    "town": "柏桑野木田",
    "town_kana": "カシワクワノキダ",
    "street": null,
    "office_name": null,
    "office_name_kana": null
  },
  "3105": {
    "zip_code": "0383105",
    "prefecture": "青森県",
    "prefecture_kana": "アオモリケン",
    "prefecture_code": 2,
    "city": "つがる市",
    "city_kana": "ツガルシ",
    "town": "柏広須",
    "town_kana": "カシワヒロス",
    "street": null,
    "office_name": null,
    "office_name_kana": null
  },
  "3106": {
    "zip_code": "0383106",
    "prefecture": "青森県",
    "prefecture_kana": "アオモリケン",
    "prefecture_code": 2,
    "city": "つがる市",
    "city_kana": "ツガルシ",
    "town": "柏玉水",
    "town_kana": "カシワタマミズ",
    "street": null,
    "office_name": null,
    "office_name_kana": null
  },
  "3107": {
    "zip_code": "0383107",
    "prefecture": "青森県",
    "prefecture_kana": "アオモリケン",
    "prefecture_code": 2,
    "city": "つがる市",
    "city_kana": "ツガルシ",
    "town": "柏稲盛",
    "town_kana": "カシワイセ",
    "street": null,
    "office_name": null,
    "office_name_kana": null
  },
  "3111": {
    "zip_code": "0383111",
    "prefecture": "青森県",
    "prefecture_kana": "アオモリケン",
    "prefecture_code": 2,
    "city": "つがる市",
    "city_kana": "ツガルシ",
    "town": "木造豊田",
    "town_kana": "キヅクリトヨダ",
    "street": null,
    "office_name": null,
    "office_name_kana": null
  },
  "3112": {
    "zip_code": "0383112",
    "prefecture": "青森県",
    "prefecture_kana": "アオモリケン",
    "prefecture_code": 2,
    "city": "つがる市",
    "city_kana": "ツガルシ",
    "town": "木造川除",
    "town_kana": "キヅクリカワヨケ",
    "street": null,
    "office_name": null,
    "office_name_kana": null
  },
  "3113": {
    "zip_code": "0383113",
    "prefecture": "青森県",
    "prefecture_kana": "アオモリケン",
    "prefecture_code": 2,
    "city": "つがる市",
    "city_kana": "ツガルシ",
    "town": "木造芦沼",
    "town_kana": "キヅクリアシヌマ",
    "street": null,
    "office_name": null,
    "office_name_kana": null
  },
  "3114": {
    "zip_code": "0383114",
    "prefecture": "青森県",
    "prefecture_kana": "アオモリケン",
    "prefecture_code": 2,
    "city": "つがる市",
    "city_kana": "ツガルシ",
    "town": "木造成田",
    "town_kana": "キヅクリナリタ",
    "street": null,
    "office_name": null,
    "office_name_kana": null
  },
  "3115": {
    "zip_code": "0383115",
    "prefecture": "青森県",
    "prefecture_kana": "アオモリケン",
    "prefecture_code": 2,
    "city": "つがる市",
    "city_kana": "ツガルシ",
    "town": "木造蓮川",
    "town_kana": "キヅクリハスカワ",
    "street": null,
    "office_name": null,
    "office_name_kana": null
  },
  "3121": {
    "zip_code": "0383121",
    "prefecture": "青森県",
    "prefecture_kana": "アオモリケン",
    "prefecture_code": 2,
    "city": "つがる市",
    "city_kana": "ツガルシ",
    "town": "木造早田",
    "town_kana": "キヅクリハヤタ",
    "street": null,
    "office_name": null,
    "office_name_kana": null
  },
  "3122": {
    "zip_code": "0383122",
    "prefecture": "青森県",
    "prefecture_kana": "アオモリケン",
    "prefecture_code": 2,
    "city": "つがる市",
    "city_kana": "ツガルシ",
    "town": "木造追広",
    "town_kana": "キヅクリオイヒロ",
    "street": null,
    "office_name": null,
    "office_name_kana": null
  },
  "3123": {
    "zip_code": "0383123",
    "prefecture": "青森県",
    "prefecture_kana": "アオモリケン",
    "prefecture_code": 2,
    "city": "つがる市",
    "city_kana": "ツガルシ",
    "town": "木造藤田",
    "town_kana": "キヅクリフジタ",
    "street": null,
    "office_name": null,
    "office_name_kana": null
  },
  "3124": {
    "zip_code": "0383124",
    "prefecture": "青森県",
    "prefecture_kana": "アオモリケン",
    "prefecture_code": 2,
    "city": "つがる市",
    "city_kana": "ツガルシ",
    "town": "木造朝日",
    "town_kana": "キヅクリアサヒ",
    "street": null,
    "office_name": null,
    "office_name_kana": null
  },
  "3125": {
    "zip_code": "0383125",
    "prefecture": "青森県",
    "prefecture_kana": "アオモリケン",
    "prefecture_code": 2,
    "city": "つがる市",
    "city_kana": "ツガルシ",
    "town": "木造鶴泊",
    "town_kana": "キヅクリツルドマリ",
    "street": null,
    "office_name": null,
    "office_name_kana": null
  },
  "3126": {
    "zip_code": "0383126",
    "prefecture": "青森県",
    "prefecture_kana": "アオモリケン",
    "prefecture_code": 2,
    "city": "つがる市",
    "city_kana": "ツガルシ",
    "town": "木造森内",
    "town_kana": "キヅクリモリウチ",
    "street": null,
    "office_name": null,
    "office_name_kana": null
  },
  "3127": {
    "zip_code": "0383127",
    "prefecture": "青森県",
    "prefecture_kana": "アオモリケン",
    "prefecture_code": 2,
    "city": "つがる市",
    "city_kana": "ツガルシ",
    "town": "木造森山",
    "town_kana": "キヅクリモリヤマ",
    "street": null,
    "office_name": null,
    "office_name_kana": null
  },
  "3128": {
    "zip_code": "0383128",
    "prefecture": "青森県",
    "prefecture_kana": "アオモリケン",
    "prefecture_code": 2,
    "city": "つがる市",
    "city_kana": "ツガルシ",
    "town": "木造森本",
    "town_kana": "キヅクリモリモト",
    "street": null,
    "office_name": null,
    "office_name_kana": null
  },
  "3131": {
    "zip_code": "0383131",
    "prefecture": "青森県",
    "prefecture_kana": "アオモリケン",
    "prefecture_code": 2,
    "city": "つがる市",
    "city_kana": "ツガルシ",
    "town": "木造千年",
    "town_kana": "キヅクリチトセ",
    "street": null,
    "office_name": null,
    "office_name_kana": null
  },
  "3132": {
    "zip_code": "0383132",
    "prefecture": "青森県",
    "prefecture_kana": "アオモリケン",
    "prefecture_code": 2,
    "city": "つがる市",
    "city_kana": "ツガルシ",
    "town": "木造清水",
    "town_kana": "キヅクリシミズ",
    "street": null,
    "office_name": null,
    "office_name_kana": null
  },
  "3133": {
    "zip_code": "0383133",
    "prefecture": "青森県",
    "prefecture_kana": "アオモリケン",
    "prefecture_code": 2,
    "city": "つがる市",
    "city_kana": "ツガルシ",
    "town": "木造末広",
    "town_kana": "キヅクリスエヒロ",
    "street": null,
    "office_name": null,
    "office_name_kana": null
  },
  "3134": {
    "zip_code": "0383134",
    "prefecture": "青森県",
    "prefecture_kana": "アオモリケン",
    "prefecture_code": 2,
    "city": "つがる市",
    "city_kana": "ツガルシ",
    "town": "木造種取",
    "town_kana": "キヅクリタネトリ",
    "street": null,
    "office_name": null,
    "office_name_kana": null
  },
  "3135": {
    "zip_code": "0383135",
    "prefecture": "青森県",
    "prefecture_kana": "アオモリケン",
    "prefecture_code": 2,
    "city": "つがる市",
    "city_kana": "ツガルシ",
    "town": "木造有楽町",
    "town_kana": "キヅクリウラクマチ",
    "street": null,
    "office_name": null,
    "office_name_kana": null
  },
  "3136": {
    "zip_code": "0383136",
    "prefecture": "青森県",
    "prefecture_kana": "アオモリケン",
    "prefecture_code": 2,
    "city": "つがる市",
    "city_kana": "ツガルシ",
    "town": "木造萩野",
    "town_kana": "キヅクリハギノ",
    "street": null,
    "office_name": null,
    "office_name_kana": null
  },
  "3137": {
    "zip_code": "0383137",
    "prefecture": "青森県",
    "prefecture_kana": "アオモリケン",
    "prefecture_code": 2,
    "city": "つがる市",
    "city_kana": "ツガルシ",
    "town": "木造若宮",
    "town_kana": "キヅクリワカミヤ",
    "street": null,
    "office_name": null,
    "office_name_kana": null
  },
  "3138": {
    "zip_code": "0383138",
    "prefecture": "青森県",
    "prefecture_kana": "アオモリケン",
    "prefecture_code": 2,
    "city": "つがる市",
    "city_kana": "ツガルシ",
    "town": "木造若緑",
    "town_kana": "キヅクリワカミドリ",
    "street": null,
    "office_name": null,
    "office_name_kana": null
  },
  "3139": {
    "zip_code": "0383139",
    "prefecture": "青森県",
    "prefecture_kana": "アオモリケン",
    "prefecture_code": 2,
    "city": "つがる市",
    "city_kana": "ツガルシ",
    "town": "木造萩流",
    "town_kana": "キヅクリハギナガレ",
    "street": null,
    "office_name": null,
    "office_name_kana": null
  },
  "3141": {
    "zip_code": "0383141",
    "prefecture": "青森県",
    "prefecture_kana": "アオモリケン",
    "prefecture_code": 2,
    "city": "つがる市",
    "city_kana": "ツガルシ",
    "town": "木造浮巣",
    "town_kana": "キヅクリウキス",
    "street": null,
    "office_name": null,
    "office_name_kana": null
  },
  "3142": {
    "zip_code": "0383142",
    "prefecture": "青森県",
    "prefecture_kana": "アオモリケン",
    "prefecture_code": 2,
    "city": "つがる市",
    "city_kana": "ツガルシ",
    "town": "木造赤根",
    "town_kana": "キヅクリアカネ",
    "street": null,
    "office_name": null,
    "office_name_kana": null
  },
  "3143": {
    "zip_code": "0383143",
    "prefecture": "青森県",
    "prefecture_kana": "アオモリケン",
    "prefecture_code": 2,
    "city": "つがる市",
    "city_kana": "ツガルシ",
    "town": "木造日向",
    "town_kana": "キヅクリヒナタ",
    "street": null,
    "office_name": null,
    "office_name_kana": null
  },
  "3144": {
    "zip_code": "0383144",
    "prefecture": "青森県",
    "prefecture_kana": "アオモリケン",
    "prefecture_code": 2,
    "city": "つがる市",
    "city_kana": "ツガルシ",
    "town": "木造曙",
    "town_kana": "キヅクリアケボノ",
    "street": null,
    "office_name": null,
    "office_name_kana": null
  },
  "3145": {
    "zip_code": "0383145",
    "prefecture": "青森県",
    "prefecture_kana": "アオモリケン",
    "prefecture_code": 2,
    "city": "つがる市",
    "city_kana": "ツガルシ",
    "town": "木造千代町",
    "town_kana": "キヅクリチヨマチ",
    "street": null,
    "office_name": null,
    "office_name_kana": null
  },
  "3146": {
    "zip_code": "0383146",
    "prefecture": "青森県",
    "prefecture_kana": "アオモリケン",
    "prefecture_code": 2,
    "city": "つがる市",
    "city_kana": "ツガルシ",
    "town": "木造桜木",
    "town_kana": "キヅクリサクラギ",
    "street": null,
    "office_name": null,
    "office_name_kana": null
  },
  "3151": {
    "zip_code": "0383151",
    "prefecture": "青森県",
    "prefecture_kana": "アオモリケン",
    "prefecture_code": 2,
    "city": "つがる市",
    "city_kana": "ツガルシ",
    "town": "木造若竹",
    "town_kana": "キヅクリワカタケ",
    "street": null,
    "office_name": null,
    "office_name_kana": null
  },
  "3152": {
    "zip_code": "0383152",
    "prefecture": "青森県",
    "prefecture_kana": "アオモリケン",
    "prefecture_code": 2,
    "city": "つがる市",
    "city_kana": "ツガルシ",
    "town": "木造藤岡",
    "town_kana": "キヅクリフジオカ",
    "street": null,
    "office_name": null,
    "office_name_kana": null
  },
  "3153": {
    "zip_code": "0383153",
    "prefecture": "青森県",
    "prefecture_kana": "アオモリケン",
    "prefecture_code": 2,
    "city": "つがる市",
    "city_kana": "ツガルシ",
    "town": "木造野宮",
    "town_kana": "キヅクリノミヤ",
    "street": null,
    "office_name": null,
    "office_name_kana": null
  },
  "3154": {
    "zip_code": "0383154",
    "prefecture": "青森県",
    "prefecture_kana": "アオモリケン",
    "prefecture_code": 2,
    "city": "つがる市",
    "city_kana": "ツガルシ",
    "town": "木造照日",
    "town_kana": "キヅクリテルヒ",
    "street": null,
    "office_name": null,
    "office_name_kana": null
  },
  "3155": {
    "zip_code": "0383155",
    "prefecture": "青森県",
    "prefecture_kana": "アオモリケン",
    "prefecture_code": 2,
    "city": "つがる市",
    "city_kana": "ツガルシ",
    "town": "木造増田",
    "town_kana": "キヅクリマスタ",
    "street": null,
    "office_name": null,
    "office_name_kana": null
  },
  "3156": {
    "zip_code": "0383156",
    "prefecture": "青森県",
    "prefecture_kana": "アオモリケン",
    "prefecture_code": 2,
    "city": "つがる市",
    "city_kana": "ツガルシ",
    "town": "木造宮井",
    "town_kana": "キヅクリミヤイ",
    "street": null,
    "office_name": null,
    "office_name_kana": null
  },
  "3157": {
    "zip_code": "0383157",
    "prefecture": "青森県",
    "prefecture_kana": "アオモリケン",
    "prefecture_code": 2,
    "city": "つがる市",
    "city_kana": "ツガルシ",
    "town": "木造宮崎",
    "town_kana": "キヅクリミヤザキ",
    "street": null,
    "office_name": null,
    "office_name_kana": null
  },
  "3158": {
    "zip_code": "0383158",
    "prefecture": "青森県",
    "prefecture_kana": "アオモリケン",
    "prefecture_code": 2,
    "city": "つがる市",
    "city_kana": "ツガルシ",
    "town": "木造房松",
    "town_kana": "キヅクリフサマツ",
    "street": null,
    "office_name": null,
    "office_name_kana": null
  },
  "3159": {
    "zip_code": "0383159",
    "prefecture": "青森県",
    "prefecture_kana": "アオモリケン",
    "prefecture_code": 2,
    "city": "つがる市",
    "city_kana": "ツガルシ",
    "town": "木造桜川",
    "town_kana": "キヅクリサクラガワ",
    "street": null,
    "office_name": null,
    "office_name_kana": null
  },
  "3161": {
    "zip_code": "0383161",
    "prefecture": "青森県",
    "prefecture_kana": "アオモリケン",
    "prefecture_code": 2,
    "city": "つがる市",
    "city_kana": "ツガルシ",
    "town": "木造濁川",
    "town_kana": "キヅクリニゴリガワ",
    "street": null,
    "office_name": null,
    "office_name_kana": null
  },
  "3162": {
    "zip_code": "0383162",
    "prefecture": "青森県",
    "prefecture_kana": "アオモリケン",
    "prefecture_code": 2,
    "city": "つがる市",
    "city_kana": "ツガルシ",
    "town": "木造浦船",
    "town_kana": "キヅクリウラフネ",
    "street": null,
    "office_name": null,
    "office_name_kana": null
  },
  "3163": {
    "zip_code": "0383163",
    "prefecture": "青森県",
    "prefecture_kana": "アオモリケン",
    "prefecture_code": 2,
    "city": "つがる市",
    "city_kana": "ツガルシ",
    "town": "木造中館",
    "town_kana": "キヅクリナカダテ",
    "street": null,
    "office_name": null,
    "office_name_kana": null
  },
  "3164": {
    "zip_code": "0383164",
    "prefecture": "青森県",
    "prefecture_kana": "アオモリケン",
    "prefecture_code": 2,
    "city": "つがる市",
    "city_kana": "ツガルシ",
    "town": "木造柴田",
    "town_kana": "キヅクリシバタ",
    "street": null,
    "office_name": null,
    "office_name_kana": null
  },
  "3165": {
    "zip_code": "0383165",
    "prefecture": "青森県",
    "prefecture_kana": "アオモリケン",
    "prefecture_code": 2,
    "city": "つがる市",
    "city_kana": "ツガルシ",
    "town": "木造菊川",
    "town_kana": "キヅクリキクカワ",
    "street": null,
    "office_name": null,
    "office_name_kana": null
  },
  "3166": {
    "zip_code": "0383166",
    "prefecture": "青森県",
    "prefecture_kana": "アオモリケン",
    "prefecture_code": 2,
    "city": "つがる市",
    "city_kana": "ツガルシ",
    "town": "木造福原",
    "town_kana": "キヅクリフクハラ",
    "street": null,
    "office_name": null,
    "office_name_kana": null
  },
  "3167": {
    "zip_code": "0383167",
    "prefecture": "青森県",
    "prefecture_kana": "アオモリケン",
    "prefecture_code": 2,
    "city": "つがる市",
    "city_kana": "ツガルシ",
    "town": "木造千代田",
    "town_kana": "キヅクリチヨダ",
    "street": null,
    "office_name": null,
    "office_name_kana": null
  },
  "3192": {
    "zip_code": "0383192",
    "prefecture": "青森県",
    "prefecture_kana": "アオモリケン",
    "prefecture_code": 2,
    "city": "つがる市",
    "city_kana": "ツガルシ",
    "town": "木造若緑",
    "town_kana": "キヅクリワカミドリ",
    "street": "６１−１",
    "office_name": "つがる市役所",
    "office_name_kana": "ツガルシヤクシヨ"
  },
  "3193": {
    "zip_code": "0383193",
    "prefecture": "青森県",
    "prefecture_kana": "アオモリケン",
    "prefecture_code": 2,
    "city": "つがる市",
    "city_kana": "ツガルシ",
    "town": "木造日向",
    "town_kana": "キヅクリヒナタ",
    "street": "７３−２",
    "office_name": "県立木造高校",
    "office_name_kana": "ケンリツキヅクリコウコウ"
  },
  "3194": {
    "zip_code": "0383194",
    "prefecture": "青森県",
    "prefecture_kana": "アオモリケン",
    "prefecture_code": 2,
    "city": "つがる市",
    "city_kana": "ツガルシ",
    "town": "木造若竹",
    "town_kana": "キヅクリワカタケ",
    "street": "５",
    "office_name": "誠仁会　尾野病院",
    "office_name_kana": "セイジンカイ オノビヨウイン"
  },
  "3195": {
    "zip_code": "0383195",
    "prefecture": "青森県",
    "prefecture_kana": "アオモリケン",
    "prefecture_code": 2,
    "city": "つがる市",
    "city_kana": "ツガルシ",
    "town": "木造森山",
    "town_kana": "キヅクリモリヤマ",
    "street": "３−２",
    "office_name": "木造町農業協同組合",
    "office_name_kana": "キヅクリマチノウキヨウキヨウドウクミアイ"
  },
  "3271": {
    "zip_code": "0383271",
    "prefecture": "青森県",
    "prefecture_kana": "アオモリケン",
    "prefecture_code": 2,
    "city": "つがる市",
    "city_kana": "ツガルシ",
    "town": "木造善積",
    "town_kana": "キヅクリヨシヅミ",
    "street": null,
    "office_name": null,
    "office_name_kana": null
  },
  "3272": {
    "zip_code": "0383272",
    "prefecture": "青森県",
    "prefecture_kana": "アオモリケン",
    "prefecture_code": 2,
    "city": "つがる市",
    "city_kana": "ツガルシ",
    "town": "木造兼館",
    "town_kana": "キヅクリカネダテ",
    "street": null,
    "office_name": null,
    "office_name_kana": null
  },
  "3273": {
    "zip_code": "0383273",
    "prefecture": "青森県",
    "prefecture_kana": "アオモリケン",
    "prefecture_code": 2,
    "city": "つがる市",
    "city_kana": "ツガルシ",
    "town": "木造出野里",
    "town_kana": "キヅクリイデノサト",
    "street": null,
    "office_name": null,
    "office_name_kana": null
  },
  "3274": {
    "zip_code": "0383274",
    "prefecture": "青森県",
    "prefecture_kana": "アオモリケン",
    "prefecture_code": 2,
    "city": "つがる市",
    "city_kana": "ツガルシ",
    "town": "木造蓮花田",
    "town_kana": "キヅクリレンゲタ",
    "street": null,
    "office_name": null,
    "office_name_kana": null
  },
  "3275": {
    "zip_code": "0383275",
    "prefecture": "青森県",
    "prefecture_kana": "アオモリケン",
    "prefecture_code": 2,
    "city": "つがる市",
    "city_kana": "ツガルシ",
    "town": "木造永田",
    "town_kana": "キヅクリナガタ",
    "street": null,
    "office_name": null,
    "office_name_kana": null
  },
  "3276": {
    "zip_code": "0383276",
    "prefecture": "青森県",
    "prefecture_kana": "アオモリケン",
    "prefecture_code": 2,
    "city": "つがる市",
    "city_kana": "ツガルシ",
    "town": "木造林",
    "town_kana": "キヅクリハヤシ",
    "street": null,
    "office_name": null,
    "office_name_kana": null
  },
  "3277": {
    "zip_code": "0383277",
    "prefecture": "青森県",
    "prefecture_kana": "アオモリケン",
    "prefecture_code": 2,
    "city": "つがる市",
    "city_kana": "ツガルシ",
    "town": "木造大畑",
    "town_kana": "キヅクリオオバタ",
    "street": null,
    "office_name": null,
    "office_name_kana": null
  },
  "3278": {
    "zip_code": "0383278",
    "prefecture": "青森県",
    "prefecture_kana": "アオモリケン",
    "prefecture_code": 2,
    "city": "つがる市",
    "city_kana": "ツガルシ",
    "town": "木造土滝",
    "town_kana": "キヅクリツチタキ",
    "street": null,
    "office_name": null,
    "office_name_kana": null
  },
  "3281": {
    "zip_code": "0383281",
    "prefecture": "青森県",
    "prefecture_kana": "アオモリケン",
    "prefecture_code": 2,
    "city": "つがる市",
    "city_kana": "ツガルシ",
    "town": "木造平滝",
    "town_kana": "キヅクリヒラタキ",
    "street": null,
    "office_name": null,
    "office_name_kana": null
  },
  "3282": {
    "zip_code": "0383282",
    "prefecture": "青森県",
    "prefecture_kana": "アオモリケン",
    "prefecture_code": 2,
    "city": "つがる市",
    "city_kana": "ツガルシ",
    "town": "木造筒木坂",
    "town_kana": "キヅクリドウキザカ",
    "street": null,
    "office_name": null,
    "office_name_kana": null
  },
  "3283": {
    "zip_code": "0383283",
    "prefecture": "青森県",
    "prefecture_kana": "アオモリケン",
    "prefecture_code": 2,
    "city": "つがる市",
    "city_kana": "ツガルシ",
    "town": "木造館岡",
    "town_kana": "キヅクリタテオカ",
    "street": null,
    "office_name": null,
    "office_name_kana": null
  },
  "3284": {
    "zip_code": "0383284",
    "prefecture": "青森県",
    "prefecture_kana": "アオモリケン",
    "prefecture_code": 2,
    "city": "つがる市",
    "city_kana": "ツガルシ",
    "town": "木造亀ケ岡",
    "town_kana": "キヅクリカメガオカ",
    "street": null,
    "office_name": null,
    "office_name_kana": null
  },
  "3285": {
    "zip_code": "0383285",
    "prefecture": "青森県",
    "prefecture_kana": "アオモリケン",
    "prefecture_code": 2,
    "city": "つがる市",
    "city_kana": "ツガルシ",
    "town": "木造大湯町",
    "town_kana": "キヅクリオオユマチ",
    "street": null,
    "office_name": null,
    "office_name_kana": null
  },
  "3286": {
    "zip_code": "0383286",
    "prefecture": "青森県",
    "prefecture_kana": "アオモリケン",
    "prefecture_code": 2,
    "city": "つがる市",
    "city_kana": "ツガルシ",
    "town": "木造菰槌",
    "town_kana": "キヅクリコモツチ",
    "street": null,
    "office_name": null,
    "office_name_kana": null
  },
  "3287": {
    "zip_code": "0383287",
    "prefecture": "青森県",
    "prefecture_kana": "アオモリケン",
    "prefecture_code": 2,
    "city": "つがる市",
    "city_kana": "ツガルシ",
    "town": "木造下遠山里",
    "town_kana": "キヅクリシモトオヤマサト",
    "street": null,
    "office_name": null,
    "office_name_kana": null
  },
  "3288": {
    "zip_code": "0383288",
    "prefecture": "青森県",
    "prefecture_kana": "アオモリケン",
    "prefecture_code": 2,
    "city": "つがる市",
    "city_kana": "ツガルシ",
    "town": "木造出来島",
    "town_kana": "キヅクリデキシマ",
    "street": null,
    "office_name": null,
    "office_name_kana": null
  },
  "3301": {
    "zip_code": "0383301",
    "prefecture": "青森県",
    "prefecture_kana": "アオモリケン",
    "prefecture_code": 2,
    "city": "つがる市",
    "city_kana": "ツガルシ",
    "town": "富萢町",
    "town_kana": "トミヤチチョウ",
    "street": null,
    "office_name": null,
    "office_name_kana": null
  },
  "3302": {
    "zip_code": "0383302",
    "prefecture": "青森県",
    "prefecture_kana": "アオモリケン",
    "prefecture_code": 2,
    "city": "つがる市",
    "city_kana": "ツガルシ",
    "town": "豊富町",
    "town_kana": "トヨトミチョウ",
    "street": null,
    "office_name": null,
    "office_name_kana": null
  },
  "3303": {
    "zip_code": "0383303",
    "prefecture": "青森県",
    "prefecture_kana": "アオモリケン",
    "prefecture_code": 2,
    "city": "つがる市",
    "city_kana": "ツガルシ",
    "town": "車力町",
    "town_kana": "シャリキチョウ",
    "street": null,
    "office_name": null,
    "office_name_kana": null
  },
  "3304": {
    "zip_code": "0383304",
    "prefecture": "青森県",
    "prefecture_kana": "アオモリケン",
    "prefecture_code": 2,
    "city": "つがる市",
    "city_kana": "ツガルシ",
    "town": "下車力町",
    "town_kana": "シタシャリキチョウ",
    "street": null,
    "office_name": null,
    "office_name_kana": null
  },
  "3305": {
    "zip_code": "0383305",
    "prefecture": "青森県",
    "prefecture_kana": "アオモリケン",
    "prefecture_code": 2,
    "city": "つがる市",
    "city_kana": "ツガルシ",
    "town": "牛潟町",
    "town_kana": "ウシガタチョウ",
    "street": null,
    "office_name": null,
    "office_name_kana": null
  },
  "3306": {
    "zip_code": "0383306",
    "prefecture": "青森県",
    "prefecture_kana": "アオモリケン",
    "prefecture_code": 2,
    "city": "つがる市",
    "city_kana": "ツガルシ",
    "town": "下牛潟町",
    "town_kana": "シモウシガタチョウ",
    "street": null,
    "office_name": null,
    "office_name_kana": null
  },
  "3392": {
    "zip_code": "0383392",
    "prefecture": "青森県",
    "prefecture_kana": "アオモリケン",
    "prefecture_code": 2,
    "city": "つがる市",
    "city_kana": "ツガルシ",
    "town": "車力町",
    "town_kana": "シャリキチョウ",
    "street": "花林６５",
    "office_name": "つがる市車力支所",
    "office_name_kana": "ツガルシ シヤリキシシヨ"
  },
  "3393": {
    "zip_code": "0383393",
    "prefecture": "青森県",
    "prefecture_kana": "アオモリケン",
    "prefecture_code": 2,
    "city": "つがる市",
    "city_kana": "ツガルシ",
    "town": "富萢町",
    "town_kana": "トミヤチチョウ",
    "street": "屏風山１",
    "office_name": "航空自衛隊　車力分屯基地",
    "office_name_kana": "コウクウジエイタイ シヤリキブントンキチ"
  },
  "3394": {
    "zip_code": "0383394",
    "prefecture": "青森県",
    "prefecture_kana": "アオモリケン",
    "prefecture_code": 2,
    "city": "つがる市",
    "city_kana": "ツガルシ",
    "town": "牛潟町",
    "town_kana": "ウシガタチョウ",
    "street": "鷲野沢１４７−２",
    "office_name": "高山稲荷神社",
    "office_name_kana": "タカヤマイナリジンジヤ"
  },
  "3500": {
    "zip_code": "0383500",
    "prefecture": "青森県",
    "prefecture_kana": "アオモリケン",
    "prefecture_code": 2,
    "city": "北津軽郡鶴田町",
    "city_kana": "キタツガルグンツルタマチ",
    "town": "",
    "town_kana": "",
    "street": null,
    "office_name": null,
    "office_name_kana": null
  },
  "3501": {
    "zip_code": "0383501",
    "prefecture": "青森県",
    "prefecture_kana": "アオモリケン",
    "prefecture_code": 2,
    "city": "北津軽郡鶴田町",
    "city_kana": "キタツガルグンツルタマチ",
    "town": "大巻",
    "town_kana": "オオマキ",
    "street": null,
    "office_name": null,
    "office_name_kana": null
  },
  "3502": {
    "zip_code": "0383502",
    "prefecture": "青森県",
    "prefecture_kana": "アオモリケン",
    "prefecture_code": 2,
    "city": "北津軽郡鶴田町",
    "city_kana": "キタツガルグンツルタマチ",
    "town": "強巻",
    "town_kana": "コワマキ",
    "street": null,
    "office_name": null,
    "office_name_kana": null
  },
  "3503": {
    "zip_code": "0383503",
    "prefecture": "青森県",
    "prefecture_kana": "アオモリケン",
    "prefecture_code": 2,
    "city": "北津軽郡鶴田町",
    "city_kana": "キタツガルグンツルタマチ",
    "town": "鶴田",
    "town_kana": "ツルタ",
    "street": null,
    "office_name": null,
    "office_name_kana": null
  },
  "3511": {
    "zip_code": "0383511",
    "prefecture": "青森県",
    "prefecture_kana": "アオモリケン",
    "prefecture_code": 2,
    "city": "北津軽郡鶴田町",
    "city_kana": "キタツガルグンツルタマチ",
    "town": "横萢",
    "town_kana": "ヨコヤチ",
    "street": null,
    "office_name": null,
    "office_name_kana": null
  },
  "3512": {
    "zip_code": "0383512",
    "prefecture": "青森県",
    "prefecture_kana": "アオモリケン",
    "prefecture_code": 2,
    "city": "北津軽郡鶴田町",
    "city_kana": "キタツガルグンツルタマチ",
    "town": "瀬良沢",
    "town_kana": "セラザワ",
    "street": null,
    "office_name": null,
    "office_name_kana": null
  },
  "3513": {
    "zip_code": "0383513",
    "prefecture": "青森県",
    "prefecture_kana": "アオモリケン",
    "prefecture_code": 2,
    "city": "北津軽郡鶴田町",
    "city_kana": "キタツガルグンツルタマチ",
    "town": "沖",
    "town_kana": "オキ",
    "street": null,
    "office_name": null,
    "office_name_kana": null
  },
  "3514": {
    "zip_code": "0383514",
    "prefecture": "青森県",
    "prefecture_kana": "アオモリケン",
    "prefecture_code": 2,
    "city": "北津軽郡鶴田町",
    "city_kana": "キタツガルグンツルタマチ",
    "town": "中野",
    "town_kana": "ナカノ",
    "street": null,
    "office_name": null,
    "office_name_kana": null
  },
  "3515": {
    "zip_code": "0383515",
    "prefecture": "青森県",
    "prefecture_kana": "アオモリケン",
    "prefecture_code": 2,
    "city": "北津軽郡鶴田町",
    "city_kana": "キタツガルグンツルタマチ",
    "town": "山道",
    "town_kana": "ヤマミチ",
    "street": null,
    "office_name": null,
    "office_name_kana": null
  },
  "3521": {
    "zip_code": "0383521",
    "prefecture": "青森県",
    "prefecture_kana": "アオモリケン",
    "prefecture_code": 2,
    "city": "北津軽郡鶴田町",
    "city_kana": "キタツガルグンツルタマチ",
    "town": "菖蒲川",
    "town_kana": "ショウブカワ",
    "street": null,
    "office_name": null,
    "office_name_kana": null
  },
  "3522": {
    "zip_code": "0383522",
    "prefecture": "青森県",
    "prefecture_kana": "アオモリケン",
    "prefecture_code": 2,
    "city": "北津軽郡鶴田町",
    "city_kana": "キタツガルグンツルタマチ",
    "town": "鶴泊",
    "town_kana": "ツルドマリ",
    "street": null,
    "office_name": null,
    "office_name_kana": null
  },
  "3523": {
    "zip_code": "0383523",
    "prefecture": "青森県",
    "prefecture_kana": "アオモリケン",
    "prefecture_code": 2,
    "city": "北津軽郡鶴田町",
    "city_kana": "キタツガルグンツルタマチ",
    "town": "胡桃舘",
    "town_kana": "クルミダテ",
    "street": null,
    "office_name": null,
    "office_name_kana": null
  },
  "3524": {
    "zip_code": "0383524",
    "prefecture": "青森県",
    "prefecture_kana": "アオモリケン",
    "prefecture_code": 2,
    "city": "北津軽郡鶴田町",
    "city_kana": "キタツガルグンツルタマチ",
    "town": "境",
    "town_kana": "サカイ",
    "street": null,
    "office_name": null,
    "office_name_kana": null
  },
  "3525": {
    "zip_code": "0383525",
    "prefecture": "青森県",
    "prefecture_kana": "アオモリケン",
    "prefecture_code": 2,
    "city": "北津軽郡鶴田町",
    "city_kana": "キタツガルグンツルタマチ",
    "town": "大性",
    "town_kana": "ダイショウ",
    "street": null,
    "office_name": null,
    "office_name_kana": null
  },
  "3531": {
    "zip_code": "0383531",
    "prefecture": "青森県",
    "prefecture_kana": "アオモリケン",
    "prefecture_code": 2,
    "city": "北津軽郡鶴田町",
    "city_kana": "キタツガルグンツルタマチ",
    "town": "木筒",
    "town_kana": "キヅツ",
    "street": null,
    "office_name": null,
    "office_name_kana": null
  },
  "3532": {
    "zip_code": "0383532",
    "prefecture": "青森県",
    "prefecture_kana": "アオモリケン",
    "prefecture_code": 2,
    "city": "北津軽郡鶴田町",
    "city_kana": "キタツガルグンツルタマチ",
    "town": "野木",
    "town_kana": "ノギ",
    "street": null,
    "office_name": null,
    "office_name_kana": null
  },
  "3541": {
    "zip_code": "0383541",
    "prefecture": "青森県",
    "prefecture_kana": "アオモリケン",
    "prefecture_code": 2,
    "city": "北津軽郡鶴田町",
    "city_kana": "キタツガルグンツルタマチ",
    "town": "尾原",
    "town_kana": "オハラ",
    "street": null,
    "office_name": null,
    "office_name_kana": null
  },
  "3542": {
    "zip_code": "0383542",
    "prefecture": "青森県",
    "prefecture_kana": "アオモリケン",
    "prefecture_code": 2,
    "city": "北津軽郡鶴田町",
    "city_kana": "キタツガルグンツルタマチ",
    "town": "廻堰",
    "town_kana": "マワリゼキ",
    "street": null,
    "office_name": null,
    "office_name_kana": null
  },
  "3543": {
    "zip_code": "0383543",
    "prefecture": "青森県",
    "prefecture_kana": "アオモリケン",
    "prefecture_code": 2,
    "city": "北津軽郡鶴田町",
    "city_kana": "キタツガルグンツルタマチ",
    "town": "妙堂崎",
    "town_kana": "ミョウドウザキ",
    "street": null,
    "office_name": null,
    "office_name_kana": null
  },
  "3595": {
    "zip_code": "0383595",
    "prefecture": "青森県",
    "prefecture_kana": null,
    "prefecture_code": null,
    "city": "北津軽郡鶴田町",
    "city_kana": null,
    "town": "大字鶴田",
    "town_kana": null,
    "street": "字早瀬２００−１（鶴田郵便局私書箱第１号）",
    "office_name": "鶴田町役場",
    "office_name_kana": "ツルタマチヤクバ"
  },
  "3600": {
    "zip_code": "0383600",
    "prefecture": "青森県",
    "prefecture_kana": "アオモリケン",
    "prefecture_code": 2,
    "city": "北津軽郡板柳町",
    "city_kana": "キタツガルグンイタヤナギマチ",
    "town": "",
    "town_kana": "",
    "street": null,
    "office_name": null,
    "office_name_kana": null
  },
  "3611": {
    "zip_code": "0383611",
    "prefecture": "青森県",
    "prefecture_kana": "アオモリケン",
    "prefecture_code": 2,
    "city": "弘前市",
    "city_kana": "ヒロサキシ",
    "town": "三和",
    "town_kana": "ミワ",
    "street": null,
    "office_name": null,
    "office_name_kana": null
  },
  "3612": {
    "zip_code": "0383612",
    "prefecture": "青森県",
    "prefecture_kana": "アオモリケン",
    "prefecture_code": 2,
    "city": "弘前市",
    "city_kana": "ヒロサキシ",
    "town": "笹舘",
    "town_kana": "ササダテ",
    "street": null,
    "office_name": null,
    "office_name_kana": null
  },
  "3613": {
    "zip_code": "0383613",
    "prefecture": "青森県",
    "prefecture_kana": "アオモリケン",
    "prefecture_code": 2,
    "city": "弘前市",
    "city_kana": "ヒロサキシ",
    "town": "小友",
    "town_kana": "オトモ",
    "street": null,
    "office_name": null,
    "office_name_kana": null
  },
  "3614": {
    "zip_code": "0383614",
    "prefecture": "青森県",
    "prefecture_kana": "アオモリケン",
    "prefecture_code": 2,
    "city": "弘前市",
    "city_kana": "ヒロサキシ",
    "town": "種市",
    "town_kana": "タネイチ",
    "street": null,
    "office_name": null,
    "office_name_kana": null
  },
  "3615": {
    "zip_code": "0383615",
    "prefecture": "青森県",
    "prefecture_kana": "アオモリケン",
    "prefecture_code": 2,
    "city": "弘前市",
    "city_kana": "ヒロサキシ",
    "town": "青女子",
    "town_kana": "アオナゴ",
    "street": null,
    "office_name": null,
    "office_name_kana": null
  },
  "3621": {
    "zip_code": "0383621",
    "prefecture": "青森県",
    "prefecture_kana": "アオモリケン",
    "prefecture_code": 2,
    "city": "北津軽郡板柳町",
    "city_kana": "キタツガルグンイタヤナギマチ",
    "town": "五林平",
    "town_kana": "ゴリンタイ",
    "street": null,
    "office_name": null,
    "office_name_kana": null
  },
  "3622": {
    "zip_code": "0383622",
    "prefecture": "青森県",
    "prefecture_kana": "アオモリケン",
    "prefecture_code": 2,
    "city": "北津軽郡板柳町",
    "city_kana": "キタツガルグンイタヤナギマチ",
    "town": "夕顔関",
    "town_kana": "ユウガオゼキ",
    "street": null,
    "office_name": null,
    "office_name_kana": null
  },
  "3623": {
    "zip_code": "0383623",
    "prefecture": "青森県",
    "prefecture_kana": "アオモリケン",
    "prefecture_code": 2,
    "city": "北津軽郡板柳町",
    "city_kana": "キタツガルグンイタヤナギマチ",
    "town": "常海橋",
    "town_kana": "ジョウカイバシ",
    "street": null,
    "office_name": null,
    "office_name_kana": null
  },
  "3624": {
    "zip_code": "0383624",
    "prefecture": "青森県",
    "prefecture_kana": "アオモリケン",
    "prefecture_code": 2,
    "city": "北津軽郡板柳町",
    "city_kana": "キタツガルグンイタヤナギマチ",
    "town": "滝井",
    "town_kana": "タキイ",
    "street": null,
    "office_name": null,
    "office_name_kana": null
  },
  "3625": {
    "zip_code": "0383625",
    "prefecture": "青森県",
    "prefecture_kana": "アオモリケン",
    "prefecture_code": 2,
    "city": "北津軽郡板柳町",
    "city_kana": "キタツガルグンイタヤナギマチ",
    "town": "舘野越",
    "town_kana": "タテノコシ",
    "street": null,
    "office_name": null,
    "office_name_kana": null
  },
  "3631": {
    "zip_code": "0383631",
    "prefecture": "青森県",
    "prefecture_kana": "アオモリケン",
    "prefecture_code": 2,
    "city": "北津軽郡板柳町",
    "city_kana": "キタツガルグンイタヤナギマチ",
    "town": "牡丹森",
    "town_kana": "ボタンモリ",
    "street": null,
    "office_name": null,
    "office_name_kana": null
  },
  "3632": {
    "zip_code": "0383632",
    "prefecture": "青森県",
    "prefecture_kana": "アオモリケン",
    "prefecture_code": 2,
    "city": "北津軽郡板柳町",
    "city_kana": "キタツガルグンイタヤナギマチ",
    "town": "柏木",
    "town_kana": "カシワギ",
    "street": null,
    "office_name": null,
    "office_name_kana": null
  },
  "3633": {
    "zip_code": "0383633",
    "prefecture": "青森県",
    "prefecture_kana": "アオモリケン",
    "prefecture_code": 2,
    "city": "北津軽郡板柳町",
    "city_kana": "キタツガルグンイタヤナギマチ",
    "town": "狐森",
    "town_kana": "キツネモリ",
    "street": null,
    "office_name": null,
    "office_name_kana": null
  },
  "3634": {
    "zip_code": "0383634",
    "prefecture": "青森県",
    "prefecture_kana": "アオモリケン",
    "prefecture_code": 2,
    "city": "北津軽郡板柳町",
    "city_kana": "キタツガルグンイタヤナギマチ",
    "town": "高増",
    "town_kana": "タカマス",
    "street": null,
    "office_name": null,
    "office_name_kana": null
  },
  "3635": {
    "zip_code": "0383635",
    "prefecture": "青森県",
    "prefecture_kana": "アオモリケン",
    "prefecture_code": 2,
    "city": "北津軽郡板柳町",
    "city_kana": "キタツガルグンイタヤナギマチ",
    "town": "大俵",
    "town_kana": "オオタワラ",
    "street": null,
    "office_name": null,
    "office_name_kana": null
  },
  "3636": {
    "zip_code": "0383636",
    "prefecture": "青森県",
    "prefecture_kana": "アオモリケン",
    "prefecture_code": 2,
    "city": "北津軽郡板柳町",
    "city_kana": "キタツガルグンイタヤナギマチ",
    "town": "五幾形",
    "town_kana": "ゴキガタ",
    "street": null,
    "office_name": null,
    "office_name_kana": null
  },
  "3641": {
    "zip_code": "0383641",
    "prefecture": "青森県",
    "prefecture_kana": "アオモリケン",
    "prefecture_code": 2,
    "city": "北津軽郡板柳町",
    "city_kana": "キタツガルグンイタヤナギマチ",
    "town": "深味",
    "town_kana": "フカミ",
    "street": null,
    "office_name": null,
    "office_name_kana": null
  },
  "3642": {
    "zip_code": "0383642",
    "prefecture": "青森県",
    "prefecture_kana": "アオモリケン",
    "prefecture_code": 2,
    "city": "北津軽郡板柳町",
    "city_kana": "キタツガルグンイタヤナギマチ",
    "town": "太田",
    "town_kana": "オオタ",
    "street": null,
    "office_name": null,
    "office_name_kana": null
  },
  "3643": {
    "zip_code": "0383643",
    "prefecture": "青森県",
    "prefecture_kana": "アオモリケン",
    "prefecture_code": 2,
    "city": "北津軽郡板柳町",
    "city_kana": "キタツガルグンイタヤナギマチ",
    "town": "長野",
    "town_kana": "ナガノ",
    "street": null,
    "office_name": null,
    "office_name_kana": null
  },
  "3644": {
    "zip_code": "0383644",
    "prefecture": "青森県",
    "prefecture_kana": "アオモリケン",
    "prefecture_code": 2,
    "city": "北津軽郡板柳町",
    "city_kana": "キタツガルグンイタヤナギマチ",
    "town": "横沢",
    "town_kana": "ヨコサワ",
    "street": null,
    "office_name": null,
    "office_name_kana": null
  },
  "3645": {
    "zip_code": "0383645",
    "prefecture": "青森県",
    "prefecture_kana": "アオモリケン",
    "prefecture_code": 2,
    "city": "北津軽郡板柳町",
    "city_kana": "キタツガルグンイタヤナギマチ",
    "town": "辻",
    "town_kana": "ツジ",
    "street": null,
    "office_name": null,
    "office_name_kana": null
  },
  "3651": {
    "zip_code": "0383651",
    "prefecture": "青森県",
    "prefecture_kana": "アオモリケン",
    "prefecture_code": 2,
    "city": "北津軽郡板柳町",
    "city_kana": "キタツガルグンイタヤナギマチ",
    "town": "飯田",
    "town_kana": "イイダ",
    "street": null,
    "office_name": null,
    "office_name_kana": null
  },
  "3661": {
    "zip_code": "0383661",
    "prefecture": "青森県",
    "prefecture_kana": "アオモリケン",
    "prefecture_code": 2,
    "city": "北津軽郡板柳町",
    "city_kana": "キタツガルグンイタヤナギマチ",
    "town": "福野田",
    "town_kana": "フクノダ",
    "street": null,
    "office_name": null,
    "office_name_kana": null
  },
  "3662": {
    "zip_code": "0383662",
    "prefecture": "青森県",
    "prefecture_kana": "アオモリケン",
    "prefecture_code": 2,
    "city": "北津軽郡板柳町",
    "city_kana": "キタツガルグンイタヤナギマチ",
    "town": "板柳",
    "town_kana": "イタヤナギ",
    "street": null,
    "office_name": null,
    "office_name_kana": null
  },
  "3671": {
    "zip_code": "0383671",
    "prefecture": "青森県",
    "prefecture_kana": "アオモリケン",
    "prefecture_code": 2,
    "city": "北津軽郡板柳町",
    "city_kana": "キタツガルグンイタヤナギマチ",
    "town": "掛落林",
    "town_kana": "カケオチバヤシ",
    "street": null,
    "office_name": null,
    "office_name_kana": null
  },
  "3672": {
    "zip_code": "0383672",
    "prefecture": "青森県",
    "prefecture_kana": "アオモリケン",
    "prefecture_code": 2,
    "city": "北津軽郡板柳町",
    "city_kana": "キタツガルグンイタヤナギマチ",
    "town": "灰沼",
    "town_kana": "ハイヌマ",
    "street": null,
    "office_name": null,
    "office_name_kana": null
  },
  "3673": {
    "zip_code": "0383673",
    "prefecture": "青森県",
    "prefecture_kana": "アオモリケン",
    "prefecture_code": 2,
    "city": "北津軽郡板柳町",
    "city_kana": "キタツガルグンイタヤナギマチ",
    "town": "小幡",
    "town_kana": "コハタ",
    "street": null,
    "office_name": null,
    "office_name_kana": null
  },
  "3681": {
    "zip_code": "0383681",
    "prefecture": "青森県",
    "prefecture_kana": "アオモリケン",
    "prefecture_code": 2,
    "city": "北津軽郡板柳町",
    "city_kana": "キタツガルグンイタヤナギマチ",
    "town": "野中",
    "town_kana": "ノナカ",
    "street": null,
    "office_name": null,
    "office_name_kana": null
  },
  "3682": {
    "zip_code": "0383682",
    "prefecture": "青森県",
    "prefecture_kana": "アオモリケン",
    "prefecture_code": 2,
    "city": "北津軽郡板柳町",
    "city_kana": "キタツガルグンイタヤナギマチ",
    "town": "石野",
    "town_kana": "イシノ",
    "street": null,
    "office_name": null,
    "office_name_kana": null
  },
  "3683": {
    "zip_code": "0383683",
    "prefecture": "青森県",
    "prefecture_kana": "アオモリケン",
    "prefecture_code": 2,
    "city": "北津軽郡板柳町",
    "city_kana": "キタツガルグンイタヤナギマチ",
    "town": "赤田",
    "town_kana": "アカダ",
    "street": null,
    "office_name": null,
    "office_name_kana": null
  },
  "3684": {
    "zip_code": "0383684",
    "prefecture": "青森県",
    "prefecture_kana": "アオモリケン",
    "prefecture_code": 2,
    "city": "北津軽郡板柳町",
    "city_kana": "キタツガルグンイタヤナギマチ",
    "town": "三千石",
    "town_kana": "サンゼンゴク",
    "street": null,
    "office_name": null,
    "office_name_kana": null
  },
  "3685": {
    "zip_code": "0383685",
    "prefecture": "青森県",
    "prefecture_kana": "アオモリケン",
    "prefecture_code": 2,
    "city": "北津軽郡板柳町",
    "city_kana": "キタツガルグンイタヤナギマチ",
    "town": "いたや町",
    "town_kana": "イタヤチョウ",
    "street": null,
    "office_name": null,
    "office_name_kana": null
  },
  "3692": {
    "zip_code": "0383692",
    "prefecture": "青森県",
    "prefecture_kana": null,
    "prefecture_code": null,
    "city": "北津軽郡板柳町",
    "city_kana": null,
    "town": "大字板柳",
    "town_kana": null,
    "street": "字土井２３９−３（板柳郵便局私書箱第２号）",
    "office_name": "板柳町役場",
    "office_name_kana": "イタヤナギマチヤクバ"
  },
  "3800": {
    "zip_code": "0383800",
    "prefecture": "青森県",
    "prefecture_kana": "アオモリケン",
    "prefecture_code": 2,
    "city": "南津軽郡藤崎町",
    "city_kana": "ミナミツガルグンフジサキマチ",
    "town": "",
    "town_kana": "",
    "street": null,
    "office_name": null,
    "office_name_kana": null
  },
  "3801": {
    "zip_code": "0383801",
    "prefecture": "青森県",
    "prefecture_kana": "アオモリケン",
    "prefecture_code": 2,
    "city": "南津軽郡藤崎町",
    "city_kana": "ミナミツガルグンフジサキマチ",
    "town": "藤越",
    "town_kana": "フジコシ",
    "street": null,
    "office_name": null,
    "office_name_kana": null
  },
  "3802": {
    "zip_code": "0383802",
    "prefecture": "青森県",
    "prefecture_kana": "アオモリケン",
    "prefecture_code": 2,
    "city": "南津軽郡藤崎町",
    "city_kana": "ミナミツガルグンフジサキマチ",
    "town": "藤崎",
    "town_kana": "フジサキ",
    "street": null,
    "office_name": null,
    "office_name_kana": null
  },
  "3803": {
    "zip_code": "0383803",
    "prefecture": "青森県",
    "prefecture_kana": "アオモリケン",
    "prefecture_code": 2,
    "city": "南津軽郡藤崎町",
    "city_kana": "ミナミツガルグンフジサキマチ",
    "town": "西豊田",
    "town_kana": "ニシトヨダ",
    "street": null,
    "office_name": null,
    "office_name_kana": null
  },
  "3804": {
    "zip_code": "0383804",
    "prefecture": "青森県",
    "prefecture_kana": "アオモリケン",
    "prefecture_code": 2,
    "city": "南津軽郡藤崎町",
    "city_kana": "ミナミツガルグンフジサキマチ",
    "town": "葛野",
    "town_kana": "クズノ",
    "street": null,
    "office_name": null,
    "office_name_kana": null
  },
  "3805": {
    "zip_code": "0383805",
    "prefecture": "青森県",
    "prefecture_kana": "アオモリケン",
    "prefecture_code": 2,
    "city": "南津軽郡藤崎町",
    "city_kana": "ミナミツガルグンフジサキマチ",
    "town": "五林",
    "town_kana": "ゴリン",
    "street": null,
    "office_name": null,
    "office_name_kana": null
  },
  "3806": {
    "zip_code": "0383806",
    "prefecture": "青森県",
    "prefecture_kana": "アオモリケン",
    "prefecture_code": 2,
    "city": "南津軽郡藤崎町",
    "city_kana": "ミナミツガルグンフジサキマチ",
    "town": "林崎",
    "town_kana": "ハヤシザキ",
    "street": null,
    "office_name": null,
    "office_name_kana": null
  },
  "3811": {
    "zip_code": "0383811",
    "prefecture": "青森県",
    "prefecture_kana": "アオモリケン",
    "prefecture_code": 2,
    "city": "南津軽郡藤崎町",
    "city_kana": "ミナミツガルグンフジサキマチ",
    "town": "中島",
    "town_kana": "ナカジマ",
    "street": null,
    "office_name": null,
    "office_name_kana": null
  },
  "3812": {
    "zip_code": "0383812",
    "prefecture": "青森県",
    "prefecture_kana": "アオモリケン",
    "prefecture_code": 2,
    "city": "南津軽郡藤崎町",
    "city_kana": "ミナミツガルグンフジサキマチ",
    "town": "小畑",
    "town_kana": "コバタ",
    "street": null,
    "office_name": null,
    "office_name_kana": null
  },
  "3813": {
    "zip_code": "0383813",
    "prefecture": "青森県",
    "prefecture_kana": "アオモリケン",
    "prefecture_code": 2,
    "city": "南津軽郡藤崎町",
    "city_kana": "ミナミツガルグンフジサキマチ",
    "town": "矢沢",
    "town_kana": "ヤザワ",
    "street": null,
    "office_name": null,
    "office_name_kana": null
  },
  "3814": {
    "zip_code": "0383814",
    "prefecture": "青森県",
    "prefecture_kana": "アオモリケン",
    "prefecture_code": 2,
    "city": "南津軽郡藤崎町",
    "city_kana": "ミナミツガルグンフジサキマチ",
    "town": "水沼",
    "town_kana": "ミズヌマ",
    "street": null,
    "office_name": null,
    "office_name_kana": null
  },
  "3821": {
    "zip_code": "0383821",
    "prefecture": "青森県",
    "prefecture_kana": "アオモリケン",
    "prefecture_code": 2,
    "city": "弘前市",
    "city_kana": "ヒロサキシ",
    "town": "百田",
    "town_kana": "モモタ",
    "street": null,
    "office_name": null,
    "office_name_kana": null
  },
  "3831": {
    "zip_code": "0383831",
    "prefecture": "青森県",
    "prefecture_kana": "アオモリケン",
    "prefecture_code": 2,
    "city": "南津軽郡藤崎町",
    "city_kana": "ミナミツガルグンフジサキマチ",
    "town": "中野目",
    "town_kana": "ナカノメ",
    "street": null,
    "office_name": null,
    "office_name_kana": null
  },
  "3832": {
    "zip_code": "0383832",
    "prefecture": "青森県",
    "prefecture_kana": "アオモリケン",
    "prefecture_code": 2,
    "city": "南津軽郡藤崎町",
    "city_kana": "ミナミツガルグンフジサキマチ",
    "town": "吉向",
    "town_kana": "ヨシムカイ",
    "street": null,
    "office_name": null,
    "office_name_kana": null
  },
  "3833": {
    "zip_code": "0383833",
    "prefecture": "青森県",
    "prefecture_kana": "アオモリケン",
    "prefecture_code": 2,
    "city": "南津軽郡藤崎町",
    "city_kana": "ミナミツガルグンフジサキマチ",
    "town": "亀岡",
    "town_kana": "カメオカ",
    "street": null,
    "office_name": null,
    "office_name_kana": null
  },
  "3834": {
    "zip_code": "0383834",
    "prefecture": "青森県",
    "prefecture_kana": "アオモリケン",
    "prefecture_code": 2,
    "city": "南津軽郡藤崎町",
    "city_kana": "ミナミツガルグンフジサキマチ",
    "town": "西中野目",
    "town_kana": "ニシナカノメ",
    "street": null,
    "office_name": null,
    "office_name_kana": null
  },
  "3835": {
    "zip_code": "0383835",
    "prefecture": "青森県",
    "prefecture_kana": "アオモリケン",
    "prefecture_code": 2,
    "city": "南津軽郡藤崎町",
    "city_kana": "ミナミツガルグンフジサキマチ",
    "town": "俵舛",
    "town_kana": "タワラマス",
    "street": null,
    "office_name": null,
    "office_name_kana": null
  },
  "3836": {
    "zip_code": "0383836",
    "prefecture": "青森県",
    "prefecture_kana": "アオモリケン",
    "prefecture_code": 2,
    "city": "南津軽郡藤崎町",
    "city_kana": "ミナミツガルグンフジサキマチ",
    "town": "下俵舛",
    "town_kana": "シモタワラマス",
    "street": null,
    "office_name": null,
    "office_name_kana": null
  },
  "3837": {
    "zip_code": "0383837",
    "prefecture": "青森県",
    "prefecture_kana": "アオモリケン",
    "prefecture_code": 2,
    "city": "南津軽郡藤崎町",
    "city_kana": "ミナミツガルグンフジサキマチ",
    "town": "柏木堰",
    "town_kana": "カシワギゼキ",
    "street": null,
    "office_name": null,
    "office_name_kana": null
  },
  "3874": {
    "zip_code": "0383874",
    "prefecture": "青森県",
    "prefecture_kana": "アオモリケン",
    "prefecture_code": 2,
    "city": "弘前市",
    "city_kana": "ヒロサキシ",
    "town": "津賀野",
    "town_kana": "ツカノ",
    "street": null,
    "office_name": null,
    "office_name_kana": null
  },
  "3892": {
    "zip_code": "0383892",
    "prefecture": "青森県",
    "prefecture_kana": null,
    "prefecture_code": null,
    "city": "南津軽郡藤崎町",
    "city_kana": null,
    "town": "大字西豊田",
    "town_kana": null,
    "street": "１丁目１",
    "office_name": "藤崎町役場",
    "office_name_kana": "フジサキマチヤクバ"
  },
  "8505": {
    "zip_code": "0388505",
    "prefecture": "青森県",
    "prefecture_kana": "アオモリケン",
    "prefecture_code": 2,
    "city": "青森市",
    "city_kana": "アオモリシ",
    "town": "柳川",
    "town_kana": "ヤナカワ",
    "street": "２丁目１番１号",
    "office_name": "青森市役所　柳川庁舎",
    "office_name_kana": "アオモリシヤクシヨ ヤナガワチヨウシヤ"
  },
  "8550": {
    "zip_code": "0388550",
    "prefecture": "青森県",
    "prefecture_kana": "アオモリケン",
    "prefecture_code": 2,
    "city": "青森市",
    "city_kana": "アオモリシ",
    "town": "篠田",
    "town_kana": "シノダ",
    "street": "一丁目６−２",
    "office_name": "青い森鉄道　株式会社",
    "office_name_kana": "アオイモリテツドウ カブシキガイシヤ"
  },
  "8560": {
    "zip_code": "0388560",
    "prefecture": "青森県",
    "prefecture_kana": null,
    "prefecture_code": null,
    "city": "青森市",
    "city_kana": null,
    "town": "大字石江",
    "town_kana": null,
    "street": "字岡部６９番地",
    "office_name": "青森ヤクルト販売　株式会社",
    "office_name_kana": "アオモリヤクルトハンバイ カブシキガイシヤ"
  },
  "8585": {
    "zip_code": "0388585",
    "prefecture": "青森県",
    "prefecture_kana": null,
    "prefecture_code": null,
    "city": "青森市",
    "city_kana": null,
    "town": "大字石江",
    "town_kana": null,
    "street": "字江渡５−１青森福祉庁舎３階",
    "office_name": "青森県　視覚障害者情報センター",
    "office_name_kana": "アオモリケン シカクシヨウガイシヤジヨウホウセンタ-"
  }
}