{
  "0251": {
    "zip_code": "0410251",
    "prefecture": "北海道",
    "prefecture_kana": "ホッカイドウ",
    "prefecture_code": "1",
    "city": "函館市",
    "city_kana": "ハコダテシ",
    "town": "小安町",
    "town_kana": "オヤスチョウ",
    "street": null,
    "office_name": null,
    "office_name_kana": null
  },
  "0252": {
    "zip_code": "0410252",
    "prefecture": "北海道",
    "prefecture_kana": "ホッカイドウ",
    "prefecture_code": "1",
    "city": "函館市",
    "city_kana": "ハコダテシ",
    "town": "釜谷町",
    "town_kana": "カマヤチョウ",
    "street": null,
    "office_name": null,
    "office_name_kana": null
  },
  "0253": {
    "zip_code": "0410253",
    "prefecture": "北海道",
    "prefecture_kana": "ホッカイドウ",
    "prefecture_code": "1",
    "city": "函館市",
    "city_kana": "ハコダテシ",
    "town": "小安山町",
    "town_kana": "オヤスヤマチョウ",
    "street": null,
    "office_name": null,
    "office_name_kana": null
  },
  "0261": {
    "zip_code": "0410261",
    "prefecture": "北海道",
    "prefecture_kana": "ホッカイドウ",
    "prefecture_code": "1",
    "city": "函館市",
    "city_kana": "ハコダテシ",
    "town": "石崎町",
    "town_kana": "イシザキチョウ",
    "street": null,
    "office_name": null,
    "office_name_kana": null
  },
  "0262": {
    "zip_code": "0410262",
    "prefecture": "北海道",
    "prefecture_kana": "ホッカイドウ",
    "prefecture_code": "1",
    "city": "函館市",
    "city_kana": "ハコダテシ",
    "town": "古川町",
    "town_kana": "フルカワチョウ",
    "street": null,
    "office_name": null,
    "office_name_kana": null
  },
  "0263": {
    "zip_code": "0410263",
    "prefecture": "北海道",
    "prefecture_kana": "ホッカイドウ",
    "prefecture_code": "1",
    "city": "函館市",
    "city_kana": "ハコダテシ",
    "town": "豊原町",
    "town_kana": "トヨハラチョウ",
    "street": null,
    "office_name": null,
    "office_name_kana": null
  },
  "0264": {
    "zip_code": "0410264",
    "prefecture": "北海道",
    "prefecture_kana": "ホッカイドウ",
    "prefecture_code": "1",
    "city": "函館市",
    "city_kana": "ハコダテシ",
    "town": "鶴野町",
    "town_kana": "ツルノチョウ",
    "street": null,
    "office_name": null,
    "office_name_kana": null
  },
  "0265": {
    "zip_code": "0410265",
    "prefecture": "北海道",
    "prefecture_kana": "ホッカイドウ",
    "prefecture_code": "1",
    "city": "函館市",
    "city_kana": "ハコダテシ",
    "town": "白石町",
    "town_kana": "シロイシチョウ",
    "street": null,
    "office_name": null,
    "office_name_kana": null
  },
  "0301": {
    "zip_code": "0410301",
    "prefecture": "北海道",
    "prefecture_kana": "ホッカイドウ",
    "prefecture_code": "1",
    "city": "函館市",
    "city_kana": "ハコダテシ",
    "town": "汐首町",
    "town_kana": "シオクビチョウ",
    "street": null,
    "office_name": null,
    "office_name_kana": null
  },
  "0302": {
    "zip_code": "0410302",
    "prefecture": "北海道",
    "prefecture_kana": "ホッカイドウ",
    "prefecture_code": "1",
    "city": "函館市",
    "city_kana": "ハコダテシ",
    "town": "瀬田来町",
    "town_kana": "セタライチョウ",
    "street": null,
    "office_name": null,
    "office_name_kana": null
  },
  "0303": {
    "zip_code": "0410303",
    "prefecture": "北海道",
    "prefecture_kana": "ホッカイドウ",
    "prefecture_code": "1",
    "city": "函館市",
    "city_kana": "ハコダテシ",
    "town": "弁才町",
    "town_kana": "ベンザイチョウ",
    "street": null,
    "office_name": null,
    "office_name_kana": null
  },
  "0304": {
    "zip_code": "0410304",
    "prefecture": "北海道",
    "prefecture_kana": "ホッカイドウ",
    "prefecture_code": "1",
    "city": "函館市",
    "city_kana": "ハコダテシ",
    "town": "泊町",
    "town_kana": "トマリマチ",
    "street": null,
    "office_name": null,
    "office_name_kana": null
  },
  "0305": {
    "zip_code": "0410305",
    "prefecture": "北海道",
    "prefecture_kana": "ホッカイドウ",
    "prefecture_code": "1",
    "city": "函館市",
    "city_kana": "ハコダテシ",
    "town": "館町",
    "town_kana": "タテマチ",
    "street": null,
    "office_name": null,
    "office_name_kana": null
  },
  "0306": {
    "zip_code": "0410306",
    "prefecture": "北海道",
    "prefecture_kana": "ホッカイドウ",
    "prefecture_code": "1",
    "city": "函館市",
    "city_kana": "ハコダテシ",
    "town": "丸山町",
    "town_kana": "マルヤマチョウ",
    "street": null,
    "office_name": null,
    "office_name_kana": null
  },
  "0311": {
    "zip_code": "0410311",
    "prefecture": "北海道",
    "prefecture_kana": "ホッカイドウ",
    "prefecture_code": "1",
    "city": "函館市",
    "city_kana": "ハコダテシ",
    "town": "浜町",
    "town_kana": "ハマチョウ",
    "street": null,
    "office_name": null,
    "office_name_kana": null
  },
  "0312": {
    "zip_code": "0410312",
    "prefecture": "北海道",
    "prefecture_kana": "ホッカイドウ",
    "prefecture_code": "1",
    "city": "函館市",
    "city_kana": "ハコダテシ",
    "town": "新二見町",
    "town_kana": "シンフタミチョウ",
    "street": null,
    "office_name": null,
    "office_name_kana": null
  },
  "0313": {
    "zip_code": "0410313",
    "prefecture": "北海道",
    "prefecture_kana": "ホッカイドウ",
    "prefecture_code": "1",
    "city": "函館市",
    "city_kana": "ハコダテシ",
    "town": "原木町",
    "town_kana": "ハラキチョウ",
    "street": null,
    "office_name": null,
    "office_name_kana": null
  },
  "0401": {
    "zip_code": "0410401",
    "prefecture": "北海道",
    "prefecture_kana": "ホッカイドウ",
    "prefecture_code": "1",
    "city": "函館市",
    "city_kana": "ハコダテシ",
    "town": "日浦町",
    "town_kana": "ヒウラチョウ",
    "street": null,
    "office_name": null,
    "office_name_kana": null
  },
  "0402": {
    "zip_code": "0410402",
    "prefecture": "北海道",
    "prefecture_kana": "ホッカイドウ",
    "prefecture_code": "1",
    "city": "函館市",
    "city_kana": "ハコダテシ",
    "town": "豊浦町",
    "town_kana": "トヨウラチョウ",
    "street": null,
    "office_name": null,
    "office_name_kana": null
  },
  "0403": {
    "zip_code": "0410403",
    "prefecture": "北海道",
    "prefecture_kana": "ホッカイドウ",
    "prefecture_code": "1",
    "city": "函館市",
    "city_kana": "ハコダテシ",
    "town": "大澗町",
    "town_kana": "オオマチョウ",
    "street": null,
    "office_name": null,
    "office_name_kana": null
  },
  "0404": {
    "zip_code": "0410404",
    "prefecture": "北海道",
    "prefecture_kana": "ホッカイドウ",
    "prefecture_code": "1",
    "city": "函館市",
    "city_kana": "ハコダテシ",
    "town": "中浜町",
    "town_kana": "ナカハマチョウ",
    "street": null,
    "office_name": null,
    "office_name_kana": null
  },
  "0405": {
    "zip_code": "0410405",
    "prefecture": "北海道",
    "prefecture_kana": "ホッカイドウ",
    "prefecture_code": "1",
    "city": "函館市",
    "city_kana": "ハコダテシ",
    "town": "川上町",
    "town_kana": "カワカミチョウ",
    "street": null,
    "office_name": null,
    "office_name_kana": null
  },
  "0406": {
    "zip_code": "0410406",
    "prefecture": "北海道",
    "prefecture_kana": "ホッカイドウ",
    "prefecture_code": "1",
    "city": "函館市",
    "city_kana": "ハコダテシ",
    "town": "女那川町",
    "town_kana": "メナガワチョウ",
    "street": null,
    "office_name": null,
    "office_name_kana": null
  },
  "0407": {
    "zip_code": "0410407",
    "prefecture": "北海道",
    "prefecture_kana": "ホッカイドウ",
    "prefecture_code": "1",
    "city": "函館市",
    "city_kana": "ハコダテシ",
    "town": "日和山町",
    "town_kana": "ヒヨリヤマチョウ",
    "street": null,
    "office_name": null,
    "office_name_kana": null
  },
  "0408": {
    "zip_code": "0410408",
    "prefecture": "北海道",
    "prefecture_kana": "ホッカイドウ",
    "prefecture_code": "1",
    "city": "函館市",
    "city_kana": "ハコダテシ",
    "town": "吉畑町",
    "town_kana": "キチハタチョウ",
    "street": null,
    "office_name": null,
    "office_name_kana": null
  },
  "0521": {
    "zip_code": "0410521",
    "prefecture": "北海道",
    "prefecture_kana": "ホッカイドウ",
    "prefecture_code": "1",
    "city": "函館市",
    "city_kana": "ハコダテシ",
    "town": "御崎町",
    "town_kana": "ミサキチョウ",
    "street": null,
    "office_name": null,
    "office_name_kana": null
  },
  "0522": {
    "zip_code": "0410522",
    "prefecture": "北海道",
    "prefecture_kana": "ホッカイドウ",
    "prefecture_code": "1",
    "city": "函館市",
    "city_kana": "ハコダテシ",
    "town": "恵山町",
    "town_kana": "エサンチョウ",
    "street": null,
    "office_name": null,
    "office_name_kana": null
  },
  "0523": {
    "zip_code": "0410523",
    "prefecture": "北海道",
    "prefecture_kana": "ホッカイドウ",
    "prefecture_code": "1",
    "city": "函館市",
    "city_kana": "ハコダテシ",
    "town": "柏野町",
    "town_kana": "カシワノチョウ",
    "street": null,
    "office_name": null,
    "office_name_kana": null
  },
  "0524": {
    "zip_code": "0410524",
    "prefecture": "北海道",
    "prefecture_kana": "ホッカイドウ",
    "prefecture_code": "1",
    "city": "函館市",
    "city_kana": "ハコダテシ",
    "town": "古武井町",
    "town_kana": "コブイチョウ",
    "street": null,
    "office_name": null,
    "office_name_kana": null
  },
  "0525": {
    "zip_code": "0410525",
    "prefecture": "北海道",
    "prefecture_kana": "ホッカイドウ",
    "prefecture_code": "1",
    "city": "函館市",
    "city_kana": "ハコダテシ",
    "town": "日ノ浜町",
    "town_kana": "ヒノハマチョウ",
    "street": null,
    "office_name": null,
    "office_name_kana": null
  },
  "0526": {
    "zip_code": "0410526",
    "prefecture": "北海道",
    "prefecture_kana": "ホッカイドウ",
    "prefecture_code": "1",
    "city": "函館市",
    "city_kana": "ハコダテシ",
    "town": "高岱町",
    "town_kana": "タカダイチョウ",
    "street": null,
    "office_name": null,
    "office_name_kana": null
  },
  "0601": {
    "zip_code": "0410601",
    "prefecture": "北海道",
    "prefecture_kana": "ホッカイドウ",
    "prefecture_code": "1",
    "city": "函館市",
    "city_kana": "ハコダテシ",
    "town": "新八幡町",
    "town_kana": "シンハチマンチョウ",
    "street": null,
    "office_name": null,
    "office_name_kana": null
  },
  "0602": {
    "zip_code": "0410602",
    "prefecture": "北海道",
    "prefecture_kana": "ホッカイドウ",
    "prefecture_code": "1",
    "city": "函館市",
    "city_kana": "ハコダテシ",
    "town": "島泊町",
    "town_kana": "シマドマリチョウ",
    "street": null,
    "office_name": null,
    "office_name_kana": null
  },
  "0603": {
    "zip_code": "0410603",
    "prefecture": "北海道",
    "prefecture_kana": "ホッカイドウ",
    "prefecture_code": "1",
    "city": "函館市",
    "city_kana": "ハコダテシ",
    "town": "富浦町",
    "town_kana": "トミウラチョウ",
    "street": null,
    "office_name": null,
    "office_name_kana": null
  },
  "0604": {
    "zip_code": "0410604",
    "prefecture": "北海道",
    "prefecture_kana": "ホッカイドウ",
    "prefecture_code": "1",
    "city": "函館市",
    "city_kana": "ハコダテシ",
    "town": "元村町",
    "town_kana": "モトムラチョウ",
    "street": null,
    "office_name": null,
    "office_name_kana": null
  },
  "0605": {
    "zip_code": "0410605",
    "prefecture": "北海道",
    "prefecture_kana": "ホッカイドウ",
    "prefecture_code": "1",
    "city": "函館市",
    "city_kana": "ハコダテシ",
    "town": "恵山岬町",
    "town_kana": "エサンミサキチョウ",
    "street": null,
    "office_name": null,
    "office_name_kana": null
  },
  "0606": {
    "zip_code": "0410606",
    "prefecture": "北海道",
    "prefecture_kana": "ホッカイドウ",
    "prefecture_code": "1",
    "city": "函館市",
    "city_kana": "ハコダテシ",
    "town": "新恵山町",
    "town_kana": "シンエサンチョウ",
    "street": null,
    "office_name": null,
    "office_name_kana": null
  },
  "0611": {
    "zip_code": "0410611",
    "prefecture": "北海道",
    "prefecture_kana": "ホッカイドウ",
    "prefecture_code": "1",
    "city": "函館市",
    "city_kana": "ハコダテシ",
    "town": "新浜町",
    "town_kana": "シンハマチョウ",
    "street": null,
    "office_name": null,
    "office_name_kana": null
  },
  "0612": {
    "zip_code": "0410612",
    "prefecture": "北海道",
    "prefecture_kana": "ホッカイドウ",
    "prefecture_code": "1",
    "city": "函館市",
    "city_kana": "ハコダテシ",
    "town": "銚子町",
    "town_kana": "チョウシチョウ",
    "street": null,
    "office_name": null,
    "office_name_kana": null
  },
  "0613": {
    "zip_code": "0410613",
    "prefecture": "北海道",
    "prefecture_kana": "ホッカイドウ",
    "prefecture_code": "1",
    "city": "函館市",
    "city_kana": "ハコダテシ",
    "town": "絵紙山町",
    "town_kana": "エガミヤマチョウ",
    "street": null,
    "office_name": null,
    "office_name_kana": null
  },
  "0801": {
    "zip_code": "0410801",
    "prefecture": "北海道",
    "prefecture_kana": "ホッカイドウ",
    "prefecture_code": "1",
    "city": "函館市",
    "city_kana": "ハコダテシ",
    "town": "桔梗町",
    "town_kana": "キキョウチョウ",
    "street": null,
    "office_name": null,
    "office_name_kana": null
  },
  "0802": {
    "zip_code": "0410802",
    "prefecture": "北海道",
    "prefecture_kana": "ホッカイドウ",
    "prefecture_code": "1",
    "city": "函館市",
    "city_kana": "ハコダテシ",
    "town": "石川町",
    "town_kana": "イシカワチョウ",
    "street": null,
    "office_name": null,
    "office_name_kana": null
  },
  "0803": {
    "zip_code": "0410803",
    "prefecture": "北海道",
    "prefecture_kana": "ホッカイドウ",
    "prefecture_code": "1",
    "city": "函館市",
    "city_kana": "ハコダテシ",
    "town": "亀田中野町",
    "town_kana": "カメダナカノチョウ",
    "street": null,
    "office_name": null,
    "office_name_kana": null
  },
  "0804": {
    "zip_code": "0410804",
    "prefecture": "北海道",
    "prefecture_kana": "ホッカイドウ",
    "prefecture_code": "1",
    "city": "函館市",
    "city_kana": "ハコダテシ",
    "town": "赤川町",
    "town_kana": "アカガワチョウ",
    "street": null,
    "office_name": null,
    "office_name_kana": null
  },
  "0805": {
    "zip_code": "0410805",
    "prefecture": "北海道",
    "prefecture_kana": "ホッカイドウ",
    "prefecture_code": "1",
    "city": "函館市",
    "city_kana": "ハコダテシ",
    "town": "赤川",
    "town_kana": "アカガワ",
    "street": null,
    "office_name": null,
    "office_name_kana": null
  },
  "0806": {
    "zip_code": "0410806",
    "prefecture": "北海道",
    "prefecture_kana": "ホッカイドウ",
    "prefecture_code": "1",
    "city": "函館市",
    "city_kana": "ハコダテシ",
    "town": "美原",
    "town_kana": "ミハラ",
    "street": null,
    "office_name": null,
    "office_name_kana": null
  },
  "0807": {
    "zip_code": "0410807",
    "prefecture": "北海道",
    "prefecture_kana": "ホッカイドウ",
    "prefecture_code": "1",
    "city": "函館市",
    "city_kana": "ハコダテシ",
    "town": "北美原",
    "town_kana": "キタミハラ",
    "street": null,
    "office_name": null,
    "office_name_kana": null
  },
  "0808": {
    "zip_code": "0410808",
    "prefecture": "北海道",
    "prefecture_kana": "ホッカイドウ",
    "prefecture_code": "1",
    "city": "函館市",
    "city_kana": "ハコダテシ",
    "town": "桔梗",
    "town_kana": "キキョウ",
    "street": null,
    "office_name": null,
    "office_name_kana": null
  },
  "0811": {
    "zip_code": "0410811",
    "prefecture": "北海道",
    "prefecture_kana": "ホッカイドウ",
    "prefecture_code": "1",
    "city": "函館市",
    "city_kana": "ハコダテシ",
    "town": "富岡町",
    "town_kana": "トミオカチョウ",
    "street": null,
    "office_name": null,
    "office_name_kana": null
  },
  "0812": {
    "zip_code": "0410812",
    "prefecture": "北海道",
    "prefecture_kana": "ホッカイドウ",
    "prefecture_code": "1",
    "city": "函館市",
    "city_kana": "ハコダテシ",
    "town": "昭和",
    "town_kana": "ショウワ",
    "street": null,
    "office_name": null,
    "office_name_kana": null
  },
  "0813": {
    "zip_code": "0410813",
    "prefecture": "北海道",
    "prefecture_kana": "ホッカイドウ",
    "prefecture_code": "1",
    "city": "函館市",
    "city_kana": "ハコダテシ",
    "town": "亀田本町",
    "town_kana": "カメダホンチョウ",
    "street": null,
    "office_name": null,
    "office_name_kana": null
  },
  "0821": {
    "zip_code": "0410821",
    "prefecture": "北海道",
    "prefecture_kana": "ホッカイドウ",
    "prefecture_code": "1",
    "city": "函館市",
    "city_kana": "ハコダテシ",
    "town": "港町",
    "town_kana": "ミナトチョウ",
    "street": null,
    "office_name": null,
    "office_name_kana": null
  },
  "0822": {
    "zip_code": "0410822",
    "prefecture": "北海道",
    "prefecture_kana": "ホッカイドウ",
    "prefecture_code": "1",
    "city": "函館市",
    "city_kana": "ハコダテシ",
    "town": "亀田港町",
    "town_kana": "カメダミナトチョウ",
    "street": null,
    "office_name": null,
    "office_name_kana": null
  },
  "0823": {
    "zip_code": "0410823",
    "prefecture": "北海道",
    "prefecture_kana": "ホッカイドウ",
    "prefecture_code": "1",
    "city": "函館市",
    "city_kana": "ハコダテシ",
    "town": "昭和町",
    "town_kana": "ショウワチョウ",
    "street": null,
    "office_name": null,
    "office_name_kana": null
  },
  "0824": {
    "zip_code": "0410824",
    "prefecture": "北海道",
    "prefecture_kana": "ホッカイドウ",
    "prefecture_code": "1",
    "city": "函館市",
    "city_kana": "ハコダテシ",
    "town": "西桔梗町",
    "town_kana": "ニシキキョウチョウ",
    "street": null,
    "office_name": null,
    "office_name_kana": null
  },
  "0831": {
    "zip_code": "0410831",
    "prefecture": "北海道",
    "prefecture_kana": "ホッカイドウ",
    "prefecture_code": "1",
    "city": "函館市",
    "city_kana": "ハコダテシ",
    "town": "神山町",
    "town_kana": "カミヤマチョウ",
    "street": null,
    "office_name": null,
    "office_name_kana": null
  },
  "0832": {
    "zip_code": "0410832",
    "prefecture": "北海道",
    "prefecture_kana": "ホッカイドウ",
    "prefecture_code": "1",
    "city": "函館市",
    "city_kana": "ハコダテシ",
    "town": "神山",
    "town_kana": "カミヤマ",
    "street": null,
    "office_name": null,
    "office_name_kana": null
  },
  "0833": {
    "zip_code": "0410833",
    "prefecture": "北海道",
    "prefecture_kana": "ホッカイドウ",
    "prefecture_code": "1",
    "city": "函館市",
    "city_kana": "ハコダテシ",
    "town": "陣川町",
    "town_kana": "ジンカワチョウ",
    "street": null,
    "office_name": null,
    "office_name_kana": null
  },
  "0834": {
    "zip_code": "0410834",
    "prefecture": "北海道",
    "prefecture_kana": "ホッカイドウ",
    "prefecture_code": "1",
    "city": "函館市",
    "city_kana": "ハコダテシ",
    "town": "東山町",
    "town_kana": "ヒガシヤマチョウ",
    "street": null,
    "office_name": null,
    "office_name_kana": null
  },
  "0835": {
    "zip_code": "0410835",
    "prefecture": "北海道",
    "prefecture_kana": "ホッカイドウ",
    "prefecture_code": "1",
    "city": "函館市",
    "city_kana": "ハコダテシ",
    "town": "東山",
    "town_kana": "ヒガシヤマ",
    "street": null,
    "office_name": null,
    "office_name_kana": null
  },
  "0836": {
    "zip_code": "0410836",
    "prefecture": "北海道",
    "prefecture_kana": "ホッカイドウ",
    "prefecture_code": "1",
    "city": "函館市",
    "city_kana": "ハコダテシ",
    "town": "山の手",
    "town_kana": "ヤマノテ",
    "street": null,
    "office_name": null,
    "office_name_kana": null
  },
  "0837": {
    "zip_code": "0410837",
    "prefecture": "北海道",
    "prefecture_kana": "ホッカイドウ",
    "prefecture_code": "1",
    "city": "函館市",
    "city_kana": "ハコダテシ",
    "town": "陣川",
    "town_kana": "ジンカワ",
    "street": null,
    "office_name": null,
    "office_name_kana": null
  },
  "0841": {
    "zip_code": "0410841",
    "prefecture": "北海道",
    "prefecture_kana": "ホッカイドウ",
    "prefecture_code": "1",
    "city": "函館市",
    "city_kana": "ハコダテシ",
    "town": "日吉町",
    "town_kana": "ヒヨシチョウ",
    "street": null,
    "office_name": null,
    "office_name_kana": null
  },
  "0843": {
    "zip_code": "0410843",
    "prefecture": "北海道",
    "prefecture_kana": "ホッカイドウ",
    "prefecture_code": "1",
    "city": "函館市",
    "city_kana": "ハコダテシ",
    "town": "花園町",
    "town_kana": "ハナゾノチョウ",
    "street": null,
    "office_name": null,
    "office_name_kana": null
  },
  "0844": {
    "zip_code": "0410844",
    "prefecture": "北海道",
    "prefecture_kana": "ホッカイドウ",
    "prefecture_code": "1",
    "city": "函館市",
    "city_kana": "ハコダテシ",
    "town": "川原町",
    "town_kana": "カワハラチョウ",
    "street": null,
    "office_name": null,
    "office_name_kana": null
  },
  "0851": {
    "zip_code": "0410851",
    "prefecture": "北海道",
    "prefecture_kana": "ホッカイドウ",
    "prefecture_code": "1",
    "city": "函館市",
    "city_kana": "ハコダテシ",
    "town": "本通",
    "town_kana": "ホンドオリ",
    "street": null,
    "office_name": null,
    "office_name_kana": null
  },
  "0852": {
    "zip_code": "0410852",
    "prefecture": "北海道",
    "prefecture_kana": "ホッカイドウ",
    "prefecture_code": "1",
    "city": "函館市",
    "city_kana": "ハコダテシ",
    "town": "鍛治",
    "town_kana": "カジ",
    "street": null,
    "office_name": null,
    "office_name_kana": null
  },
  "0853": {
    "zip_code": "0410853",
    "prefecture": "北海道",
    "prefecture_kana": "ホッカイドウ",
    "prefecture_code": "1",
    "city": "函館市",
    "city_kana": "ハコダテシ",
    "town": "中道",
    "town_kana": "ナカミチ",
    "street": null,
    "office_name": null,
    "office_name_kana": null
  },
  "1100": {
    "zip_code": "0411100",
    "prefecture": "北海道",
    "prefecture_kana": "ホッカイドウ",
    "prefecture_code": "1",
    "city": "亀田郡七飯町",
    "city_kana": "カメダグンナナエチョウ",
    "town": "",
    "town_kana": "",
    "street": null,
    "office_name": null,
    "office_name_kana": null
  },
  "1101": {
    "zip_code": "0411101",
    "prefecture": "北海道",
    "prefecture_kana": "ホッカイドウ",
    "prefecture_code": "1",
    "city": "亀田郡七飯町",
    "city_kana": "カメダグンナナエチョウ",
    "town": "仁山",
    "town_kana": "ニヤマ",
    "street": null,
    "office_name": null,
    "office_name_kana": null
  },
  "1102": {
    "zip_code": "0411102",
    "prefecture": "北海道",
    "prefecture_kana": "ホッカイドウ",
    "prefecture_code": "1",
    "city": "亀田郡七飯町",
    "city_kana": "カメダグンナナエチョウ",
    "town": "峠下",
    "town_kana": "トウゲシタ",
    "street": null,
    "office_name": null,
    "office_name_kana": null
  },
  "1103": {
    "zip_code": "0411103",
    "prefecture": "北海道",
    "prefecture_kana": "ホッカイドウ",
    "prefecture_code": "1",
    "city": "亀田郡七飯町",
    "city_kana": "カメダグンナナエチョウ",
    "town": "藤城",
    "town_kana": "フジシロ",
    "street": null,
    "office_name": null,
    "office_name_kana": null
  },
  "1104": {
    "zip_code": "0411104",
    "prefecture": "北海道",
    "prefecture_kana": "ホッカイドウ",
    "prefecture_code": "1",
    "city": "亀田郡七飯町",
    "city_kana": "カメダグンナナエチョウ",
    "town": "上藤城",
    "town_kana": "カミフジシロ",
    "street": null,
    "office_name": null,
    "office_name_kana": null
  },
  "1105": {
    "zip_code": "0411105",
    "prefecture": "北海道",
    "prefecture_kana": "ホッカイドウ",
    "prefecture_code": "1",
    "city": "亀田郡七飯町",
    "city_kana": "カメダグンナナエチョウ",
    "town": "桜町",
    "town_kana": "サクラチョウ",
    "street": null,
    "office_name": null,
    "office_name_kana": null
  },
  "1111": {
    "zip_code": "0411111",
    "prefecture": "北海道",
    "prefecture_kana": "ホッカイドウ",
    "prefecture_code": "1",
    "city": "亀田郡七飯町",
    "city_kana": "カメダグンナナエチョウ",
    "town": "本町",
    "town_kana": "ホンチョウ",
    "street": null,
    "office_name": null,
    "office_name_kana": null
  },
  "1112": [
    {
      "zip_code": "0411112",
      "prefecture": "北海道",
      "prefecture_kana": "ホッカイドウ",
      "prefecture_code": "1",
      "city": "亀田郡七飯町",
      "city_kana": "カメダグンナナエチョウ",
      "town": "鳴川",
      "town_kana": "ナルカワ",
      "street": null,
      "office_name": null,
      "office_name_kana": null
    },
    {
      "zip_code": "0411112",
      "prefecture": "北海道",
      "prefecture_kana": "ホッカイドウ",
      "prefecture_code": "1",
      "city": "亀田郡七飯町",
      "city_kana": "カメダグンナナエチョウ",
      "town": "鳴川町",
      "town_kana": "ナルカワチョウ",
      "street": null,
      "office_name": null,
      "office_name_kana": null
    }
  ],
  "1121": {
    "zip_code": "0411121",
    "prefecture": "北海道",
    "prefecture_kana": "ホッカイドウ",
    "prefecture_code": "1",
    "city": "亀田郡七飯町",
    "city_kana": "カメダグンナナエチョウ",
    "town": "大中山",
    "town_kana": "オオナカヤマ",
    "street": null,
    "office_name": null,
    "office_name_kana": null
  },
  "1122": {
    "zip_code": "0411122",
    "prefecture": "北海道",
    "prefecture_kana": "ホッカイドウ",
    "prefecture_code": "1",
    "city": "亀田郡七飯町",
    "city_kana": "カメダグンナナエチョウ",
    "town": "大川",
    "town_kana": "オオカワ",
    "street": null,
    "office_name": null,
    "office_name_kana": null
  },
  "1131": {
    "zip_code": "0411131",
    "prefecture": "北海道",
    "prefecture_kana": "ホッカイドウ",
    "prefecture_code": "1",
    "city": "亀田郡七飯町",
    "city_kana": "カメダグンナナエチョウ",
    "town": "中野",
    "town_kana": "ナカノ",
    "street": null,
    "office_name": null,
    "office_name_kana": null
  },
  "1132": {
    "zip_code": "0411132",
    "prefecture": "北海道",
    "prefecture_kana": "ホッカイドウ",
    "prefecture_code": "1",
    "city": "亀田郡七飯町",
    "city_kana": "カメダグンナナエチョウ",
    "town": "豊田",
    "town_kana": "トヨダ",
    "street": null,
    "office_name": null,
    "office_name_kana": null
  },
  "1133": {
    "zip_code": "0411133",
    "prefecture": "北海道",
    "prefecture_kana": "ホッカイドウ",
    "prefecture_code": "1",
    "city": "亀田郡七飯町",
    "city_kana": "カメダグンナナエチョウ",
    "town": "中島",
    "town_kana": "ナカジマ",
    "street": null,
    "office_name": null,
    "office_name_kana": null
  },
  "1134": {
    "zip_code": "0411134",
    "prefecture": "北海道",
    "prefecture_kana": "ホッカイドウ",
    "prefecture_code": "1",
    "city": "亀田郡七飯町",
    "city_kana": "カメダグンナナエチョウ",
    "town": "鶴野",
    "town_kana": "ツルノ",
    "street": null,
    "office_name": null,
    "office_name_kana": null
  },
  "1135": {
    "zip_code": "0411135",
    "prefecture": "北海道",
    "prefecture_kana": "ホッカイドウ",
    "prefecture_code": "1",
    "city": "亀田郡七飯町",
    "city_kana": "カメダグンナナエチョウ",
    "town": "緑町",
    "town_kana": "ミドリチョウ",
    "street": null,
    "office_name": null,
    "office_name_kana": null
  },
  "1136": {
    "zip_code": "0411136",
    "prefecture": "北海道",
    "prefecture_kana": "ホッカイドウ",
    "prefecture_code": "1",
    "city": "亀田郡七飯町",
    "city_kana": "カメダグンナナエチョウ",
    "town": "飯田町",
    "town_kana": "イイダチョウ",
    "street": null,
    "office_name": null,
    "office_name_kana": null
  },
  "1192": {
    "zip_code": "0411192",
    "prefecture": "北海道",
    "prefecture_kana": null,
    "prefecture_code": null,
    "city": "亀田郡七飯町",
    "city_kana": null,
    "town": "字本町",
    "town_kana": null,
    "street": "５６８−３",
    "office_name": "七飯町役場",
    "office_name_kana": "ナナエチヨウヤクバ"
  },
  "1193": {
    "zip_code": "0411193",
    "prefecture": "北海道",
    "prefecture_kana": null,
    "prefecture_code": null,
    "city": "亀田郡七飯町",
    "city_kana": null,
    "town": "字本町",
    "town_kana": null,
    "street": "５６８−８",
    "office_name": "七飯町教育委員会",
    "office_name_kana": "ナナエチヨウキヨウイクイインカイ"
  },
  "1194": {
    "zip_code": "0411194",
    "prefecture": "北海道",
    "prefecture_kana": null,
    "prefecture_code": null,
    "city": "亀田郡七飯町",
    "city_kana": null,
    "town": "字本町",
    "town_kana": null,
    "street": "３１１（七飯郵便局私書箱第３号）",
    "office_name": "七飯町農業協同組合",
    "office_name_kana": "ナナエチヨウノウギヨウキヨウドウクミアイ"
  },
  "1195": {
    "zip_code": "0411195",
    "prefecture": "北海道",
    "prefecture_kana": null,
    "prefecture_code": null,
    "city": "亀田郡七飯町",
    "city_kana": null,
    "town": "字本町",
    "town_kana": null,
    "street": "６５７番地５号",
    "office_name": "函館厚生院　ななえ新病院",
    "office_name_kana": "ハコダテコウセイイン ナナエシンビヨウイン"
  },
  "1196": {
    "zip_code": "0411196",
    "prefecture": "北海道",
    "prefecture_kana": null,
    "prefecture_code": null,
    "city": "亀田郡七飯町",
    "city_kana": null,
    "town": "字中島",
    "town_kana": null,
    "street": "１４５番地",
    "office_name": "株式会社　ジェイデバイス　函館地区",
    "office_name_kana": "カブシキガイシヤ ジエイデバイス ハコダテチク"
  },
  "1201": {
    "zip_code": "0411201",
    "prefecture": "北海道",
    "prefecture_kana": "ホッカイドウ",
    "prefecture_code": "1",
    "city": "北斗市",
    "city_kana": "ホクトシ",
    "town": "本町",
    "town_kana": "ホンチョウ",
    "street": null,
    "office_name": null,
    "office_name_kana": null
  },
  "1211": {
    "zip_code": "0411211",
    "prefecture": "北海道",
    "prefecture_kana": "ホッカイドウ",
    "prefecture_code": "1",
    "city": "北斗市",
    "city_kana": "ホクトシ",
    "town": "白川",
    "town_kana": "シラカワ",
    "street": null,
    "office_name": null,
    "office_name_kana": null
  },
  "1212": {
    "zip_code": "0411212",
    "prefecture": "北海道",
    "prefecture_kana": "ホッカイドウ",
    "prefecture_code": "1",
    "city": "北斗市",
    "city_kana": "ホクトシ",
    "town": "細入",
    "town_kana": "ホソイレ",
    "street": null,
    "office_name": null,
    "office_name_kana": null
  },
  "1213": {
    "zip_code": "0411213",
    "prefecture": "北海道",
    "prefecture_kana": "ホッカイドウ",
    "prefecture_code": "1",
    "city": "北斗市",
    "city_kana": "ホクトシ",
    "town": "開発",
    "town_kana": "カイハツ",
    "street": null,
    "office_name": null,
    "office_name_kana": null
  },
  "1214": {
    "zip_code": "0411214",
    "prefecture": "北海道",
    "prefecture_kana": "ホッカイドウ",
    "prefecture_code": "1",
    "city": "北斗市",
    "city_kana": "ホクトシ",
    "town": "東前",
    "town_kana": "ヒガシマエ",
    "street": null,
    "office_name": null,
    "office_name_kana": null
  },
  "1215": {
    "zip_code": "0411215",
    "prefecture": "北海道",
    "prefecture_kana": "ホッカイドウ",
    "prefecture_code": "1",
    "city": "北斗市",
    "city_kana": "ホクトシ",
    "town": "萩野",
    "town_kana": "ハギノ",
    "street": null,
    "office_name": null,
    "office_name_kana": null
  },
  "1221": {
    "zip_code": "0411221",
    "prefecture": "北海道",
    "prefecture_kana": "ホッカイドウ",
    "prefecture_code": "1",
    "city": "北斗市",
    "city_kana": "ホクトシ",
    "town": "清水川",
    "town_kana": "シミズカワ",
    "street": null,
    "office_name": null,
    "office_name_kana": null
  },
  "1222": {
    "zip_code": "0411222",
    "prefecture": "北海道",
    "prefecture_kana": "ホッカイドウ",
    "prefecture_code": "1",
    "city": "北斗市",
    "city_kana": "ホクトシ",
    "town": "千代田",
    "town_kana": "チヨダ",
    "street": null,
    "office_name": null,
    "office_name_kana": null
  },
  "1223": {
    "zip_code": "0411223",
    "prefecture": "北海道",
    "prefecture_kana": "ホッカイドウ",
    "prefecture_code": "1",
    "city": "北斗市",
    "city_kana": "ホクトシ",
    "town": "一本木",
    "town_kana": "イッポンギ",
    "street": null,
    "office_name": null,
    "office_name_kana": null
  },
  "1224": {
    "zip_code": "0411224",
    "prefecture": "北海道",
    "prefecture_kana": "ホッカイドウ",
    "prefecture_code": "1",
    "city": "北斗市",
    "city_kana": "ホクトシ",
    "town": "南大野",
    "town_kana": "ミナミオオノ",
    "street": null,
    "office_name": null,
    "office_name_kana": null
  },
  "1225": {
    "zip_code": "0411225",
    "prefecture": "北海道",
    "prefecture_kana": "ホッカイドウ",
    "prefecture_code": "1",
    "city": "北斗市",
    "city_kana": "ホクトシ",
    "town": "文月",
    "town_kana": "フミヅキ",
    "street": null,
    "office_name": null,
    "office_name_kana": null
  },
  "1226": {
    "zip_code": "0411226",
    "prefecture": "北海道",
    "prefecture_kana": "ホッカイドウ",
    "prefecture_code": "1",
    "city": "北斗市",
    "city_kana": "ホクトシ",
    "town": "村内",
    "town_kana": "ムラウチ",
    "street": null,
    "office_name": null,
    "office_name_kana": null
  },
  "1231": {
    "zip_code": "0411231",
    "prefecture": "北海道",
    "prefecture_kana": "ホッカイドウ",
    "prefecture_code": "1",
    "city": "北斗市",
    "city_kana": "ホクトシ",
    "town": "向野",
    "town_kana": "ムカイノ",
    "street": null,
    "office_name": null,
    "office_name_kana": null
  },
  "1241": {
    "zip_code": "0411241",
    "prefecture": "北海道",
    "prefecture_kana": "ホッカイドウ",
    "prefecture_code": "1",
    "city": "北斗市",
    "city_kana": "ホクトシ",
    "town": "稲里",
    "town_kana": "イナサト",
    "street": null,
    "office_name": null,
    "office_name_kana": null
  },
  "1242": {
    "zip_code": "0411242",
    "prefecture": "北海道",
    "prefecture_kana": "ホッカイドウ",
    "prefecture_code": "1",
    "city": "北斗市",
    "city_kana": "ホクトシ",
    "town": "市渡",
    "town_kana": "イチノワタリ",
    "street": null,
    "office_name": null,
    "office_name_kana": null
  },
  "1243": {
    "zip_code": "0411243",
    "prefecture": "北海道",
    "prefecture_kana": "ホッカイドウ",
    "prefecture_code": "1",
    "city": "北斗市",
    "city_kana": "ホクトシ",
    "town": "中山",
    "town_kana": "ナカヤマ",
    "street": null,
    "office_name": null,
    "office_name_kana": null
  },
  "1244": {
    "zip_code": "0411244",
    "prefecture": "北海道",
    "prefecture_kana": "ホッカイドウ",
    "prefecture_code": "1",
    "city": "北斗市",
    "city_kana": "ホクトシ",
    "town": "村山",
    "town_kana": "ムラヤマ",
    "street": null,
    "office_name": null,
    "office_name_kana": null
  },
  "1251": {
    "zip_code": "0411251",
    "prefecture": "北海道",
    "prefecture_kana": "ホッカイドウ",
    "prefecture_code": "1",
    "city": "北斗市",
    "city_kana": "ホクトシ",
    "town": "本郷",
    "town_kana": "ホンゴウ",
    "street": null,
    "office_name": null,
    "office_name_kana": null
  },
  "1351": {
    "zip_code": "0411351",
    "prefecture": "北海道",
    "prefecture_kana": "ホッカイドウ",
    "prefecture_code": "1",
    "city": "亀田郡七飯町",
    "city_kana": "カメダグンナナエチョウ",
    "town": "東大沼",
    "town_kana": "ヒガシオオヌマ",
    "street": null,
    "office_name": null,
    "office_name_kana": null
  },
  "1352": {
    "zip_code": "0411352",
    "prefecture": "北海道",
    "prefecture_kana": "ホッカイドウ",
    "prefecture_code": "1",
    "city": "亀田郡七飯町",
    "city_kana": "カメダグンナナエチョウ",
    "town": "軍川",
    "town_kana": "イクサガワ",
    "street": null,
    "office_name": null,
    "office_name_kana": null
  },
  "1353": {
    "zip_code": "0411353",
    "prefecture": "北海道",
    "prefecture_kana": "ホッカイドウ",
    "prefecture_code": "1",
    "city": "亀田郡七飯町",
    "city_kana": "カメダグンナナエチョウ",
    "town": "上軍川",
    "town_kana": "カミイクサガワ",
    "street": null,
    "office_name": null,
    "office_name_kana": null
  },
  "1354": {
    "zip_code": "0411354",
    "prefecture": "北海道",
    "prefecture_kana": "ホッカイドウ",
    "prefecture_code": "1",
    "city": "亀田郡七飯町",
    "city_kana": "カメダグンナナエチョウ",
    "town": "大沼町",
    "town_kana": "オオヌマチョウ",
    "street": null,
    "office_name": null,
    "office_name_kana": null
  },
  "1355": {
    "zip_code": "0411355",
    "prefecture": "北海道",
    "prefecture_kana": "ホッカイドウ",
    "prefecture_code": "1",
    "city": "亀田郡七飯町",
    "city_kana": "カメダグンナナエチョウ",
    "town": "西大沼",
    "town_kana": "ニシオオヌマ",
    "street": null,
    "office_name": null,
    "office_name_kana": null
  },
  "1392": {
    "zip_code": "0411392",
    "prefecture": "北海道",
    "prefecture_kana": null,
    "prefecture_code": null,
    "city": "亀田郡七飯町",
    "city_kana": null,
    "town": "字西大沼",
    "town_kana": null,
    "street": "１４８",
    "office_name": "株式会社　プリンスホテル　函館大沼プリンスホテル",
    "office_name_kana": "カブシキカイシヤ プリンスホテル ハコダテオオヌマプリンスホテル"
  },
  "1400": {
    "zip_code": "0411400",
    "prefecture": "北海道",
    "prefecture_kana": "ホッカイドウ",
    "prefecture_code": "1",
    "city": "茅部郡鹿部町",
    "city_kana": "カヤベグンシカベチョウ",
    "town": "",
    "town_kana": "",
    "street": null,
    "office_name": null,
    "office_name_kana": null
  },
  "1401": {
    "zip_code": "0411401",
    "prefecture": "北海道",
    "prefecture_kana": "ホッカイドウ",
    "prefecture_code": "1",
    "city": "茅部郡鹿部町",
    "city_kana": "カヤベグンシカベチョウ",
    "town": "大岩",
    "town_kana": "オオイワ",
    "street": null,
    "office_name": null,
    "office_name_kana": null
  },
  "1402": {
    "zip_code": "0411402",
    "prefecture": "北海道",
    "prefecture_kana": "ホッカイドウ",
    "prefecture_code": "1",
    "city": "茅部郡鹿部町",
    "city_kana": "カヤベグンシカベチョウ",
    "town": "鹿部",
    "town_kana": "シカベ",
    "street": null,
    "office_name": null,
    "office_name_kana": null
  },
  "1403": {
    "zip_code": "0411403",
    "prefecture": "北海道",
    "prefecture_kana": "ホッカイドウ",
    "prefecture_code": "1",
    "city": "茅部郡鹿部町",
    "city_kana": "カヤベグンシカベチョウ",
    "town": "宮浜",
    "town_kana": "ミヤハマ",
    "street": null,
    "office_name": null,
    "office_name_kana": null
  },
  "1404": {
    "zip_code": "0411404",
    "prefecture": "北海道",
    "prefecture_kana": "ホッカイドウ",
    "prefecture_code": "1",
    "city": "茅部郡鹿部町",
    "city_kana": "カヤベグンシカベチョウ",
    "town": "本別",
    "town_kana": "ホンベツ",
    "street": null,
    "office_name": null,
    "office_name_kana": null
  },
  "1405": {
    "zip_code": "0411405",
    "prefecture": "北海道",
    "prefecture_kana": "ホッカイドウ",
    "prefecture_code": "1",
    "city": "茅部郡鹿部町",
    "city_kana": "カヤベグンシカベチョウ",
    "town": "駒見",
    "town_kana": "コマミ",
    "street": null,
    "office_name": null,
    "office_name_kana": null
  },
  "1496": {
    "zip_code": "0411496",
    "prefecture": "北海道",
    "prefecture_kana": null,
    "prefecture_code": null,
    "city": "茅部郡鹿部町",
    "city_kana": null,
    "town": "字本別",
    "town_kana": null,
    "street": "５３０番地１２７号",
    "office_name": "鹿部ロイヤルホテル",
    "office_name_kana": "シカベロイヤルホテル"
  },
  "1497": {
    "zip_code": "0411497",
    "prefecture": "北海道",
    "prefecture_kana": null,
    "prefecture_code": null,
    "city": "茅部郡鹿部町",
    "city_kana": null,
    "town": "字本別",
    "town_kana": null,
    "street": "５３０番地１２５号",
    "office_name": "鹿部カントリー倶楽部",
    "office_name_kana": "シカベカントリ-クラブ"
  },
  "1498": {
    "zip_code": "0411498",
    "prefecture": "北海道",
    "prefecture_kana": null,
    "prefecture_code": null,
    "city": "茅部郡鹿部町",
    "city_kana": null,
    "town": "字宮浜",
    "town_kana": null,
    "street": "２９９",
    "office_name": "鹿部町役場",
    "office_name_kana": "シカベチヨウヤクバ"
  },
  "1601": {
    "zip_code": "0411601",
    "prefecture": "北海道",
    "prefecture_kana": "ホッカイドウ",
    "prefecture_code": "1",
    "city": "函館市",
    "city_kana": "ハコダテシ",
    "town": "古部町",
    "town_kana": "フルベチョウ",
    "street": null,
    "office_name": null,
    "office_name_kana": null
  },
  "1602": {
    "zip_code": "0411602",
    "prefecture": "北海道",
    "prefecture_kana": "ホッカイドウ",
    "prefecture_code": "1",
    "city": "函館市",
    "city_kana": "ハコダテシ",
    "town": "木直町",
    "town_kana": "キナオシチョウ",
    "street": null,
    "office_name": null,
    "office_name_kana": null
  },
  "1603": {
    "zip_code": "0411603",
    "prefecture": "北海道",
    "prefecture_kana": "ホッカイドウ",
    "prefecture_code": "1",
    "city": "函館市",
    "city_kana": "ハコダテシ",
    "town": "尾札部町",
    "town_kana": "オサツベチョウ",
    "street": null,
    "office_name": null,
    "office_name_kana": null
  },
  "1611": {
    "zip_code": "0411611",
    "prefecture": "北海道",
    "prefecture_kana": "ホッカイドウ",
    "prefecture_code": "1",
    "city": "函館市",
    "city_kana": "ハコダテシ",
    "town": "川汲町",
    "town_kana": "カックミチョウ",
    "street": null,
    "office_name": null,
    "office_name_kana": null
  },
  "1612": {
    "zip_code": "0411612",
    "prefecture": "北海道",
    "prefecture_kana": "ホッカイドウ",
    "prefecture_code": "1",
    "city": "函館市",
    "city_kana": "ハコダテシ",
    "town": "安浦町",
    "town_kana": "ヤスウラチョウ",
    "street": null,
    "office_name": null,
    "office_name_kana": null
  },
  "1613": {
    "zip_code": "0411613",
    "prefecture": "北海道",
    "prefecture_kana": "ホッカイドウ",
    "prefecture_code": "1",
    "city": "函館市",
    "city_kana": "ハコダテシ",
    "town": "臼尻町",
    "town_kana": "ウスジリチョウ",
    "street": null,
    "office_name": null,
    "office_name_kana": null
  },
  "1621": {
    "zip_code": "0411621",
    "prefecture": "北海道",
    "prefecture_kana": "ホッカイドウ",
    "prefecture_code": "1",
    "city": "函館市",
    "city_kana": "ハコダテシ",
    "town": "豊崎町",
    "town_kana": "トヨサキチョウ",
    "street": null,
    "office_name": null,
    "office_name_kana": null
  },
  "1622": {
    "zip_code": "0411622",
    "prefecture": "北海道",
    "prefecture_kana": "ホッカイドウ",
    "prefecture_code": "1",
    "city": "函館市",
    "city_kana": "ハコダテシ",
    "town": "大船町",
    "town_kana": "オオフネチョウ",
    "street": null,
    "office_name": null,
    "office_name_kana": null
  },
  "1623": {
    "zip_code": "0411623",
    "prefecture": "北海道",
    "prefecture_kana": "ホッカイドウ",
    "prefecture_code": "1",
    "city": "函館市",
    "city_kana": "ハコダテシ",
    "town": "双見町",
    "town_kana": "フタミチョウ",
    "street": null,
    "office_name": null,
    "office_name_kana": null
  },
  "1624": {
    "zip_code": "0411624",
    "prefecture": "北海道",
    "prefecture_kana": "ホッカイドウ",
    "prefecture_code": "1",
    "city": "函館市",
    "city_kana": "ハコダテシ",
    "town": "岩戸町",
    "town_kana": "イワトチョウ",
    "street": null,
    "office_name": null,
    "office_name_kana": null
  },
  "1692": {
    "zip_code": "0411692",
    "prefecture": "北海道",
    "prefecture_kana": "ホッカイドウ",
    "prefecture_code": "1",
    "city": "函館市",
    "city_kana": "ハコダテシ",
    "town": "川汲町",
    "town_kana": "カックミチョウ",
    "street": "１５２０番地",
    "office_name": "函館市役所南茅部支所",
    "office_name_kana": "ハコダテシヤクシヨミナミカヤベシシヨ"
  },
  "8501": {
    "zip_code": "0418501",
    "prefecture": "北海道",
    "prefecture_kana": "ホッカイドウ",
    "prefecture_code": "1",
    "city": "函館市",
    "city_kana": "ハコダテシ",
    "town": "美原",
    "town_kana": "ミハラ",
    "street": "１丁目３番１号",
    "office_name": "（株）　イトーヨーカドー　函館店",
    "office_name_kana": "(カブ) イト-ヨ-カド- ハコダテテン"
  },
  "8510": {
    "zip_code": "0418510",
    "prefecture": "北海道",
    "prefecture_kana": "ホッカイドウ",
    "prefecture_code": "1",
    "city": "函館市",
    "city_kana": "ハコダテシ",
    "town": "西桔梗町",
    "town_kana": "ニシキキョウチョウ",
    "street": "５９５番地１",
    "office_name": "大丸　株式会社　道南支店",
    "office_name_kana": "ダイマル カブシキガイシヤ ドウナンシテン"
  },
  "8511": {
    "zip_code": "0418511",
    "prefecture": "北海道",
    "prefecture_kana": "ホッカイドウ",
    "prefecture_code": "1",
    "city": "函館市",
    "city_kana": "ハコダテシ",
    "town": "昭和",
    "town_kana": "ショウワ",
    "street": "２丁目４３番５０号",
    "office_name": "大一興業　株式会社",
    "office_name_kana": "ダイイチコウギヨウ カブシキガイシヤ"
  },
  "8512": {
    "zip_code": "0418512",
    "prefecture": "北海道",
    "prefecture_kana": "ホッカイドウ",
    "prefecture_code": "1",
    "city": "函館市",
    "city_kana": "ハコダテシ",
    "town": "川原町",
    "town_kana": "カワハラチョウ",
    "street": "１８番１６号",
    "office_name": "独立行政法人　国立病院機構　函館病院",
    "office_name_kana": "ドクリツギヨウセイホウジン コクリツビヨウインキコウ ハコダテビヨウイン"
  },
  "8515": {
    "zip_code": "0418515",
    "prefecture": "北海道",
    "prefecture_kana": "ホッカイドウ",
    "prefecture_code": "1",
    "city": "函館市",
    "city_kana": "ハコダテシ",
    "town": "西桔梗町",
    "town_kana": "ニシキキョウチョウ",
    "street": "５８９番地",
    "office_name": "大興電機　株式会社",
    "office_name_kana": "タイコウデンキ カブシキガイシヤ"
  },
  "8522": {
    "zip_code": "0418522",
    "prefecture": "北海道",
    "prefecture_kana": "ホッカイドウ",
    "prefecture_code": "1",
    "city": "函館市",
    "city_kana": "ハコダテシ",
    "town": "富岡町",
    "town_kana": "トミオカチョウ",
    "street": "２丁目１０番１０号",
    "office_name": "社団法人　函館市医師会　函館市医師会病院",
    "office_name_kana": "シヤダンホウジン ハコダテシイシカイ ハコダテシイシカイビヨウイン"
  },
  "8523": {
    "zip_code": "0418523",
    "prefecture": "北海道",
    "prefecture_kana": "ホッカイドウ",
    "prefecture_code": "1",
    "city": "函館市",
    "city_kana": "ハコダテシ",
    "town": "石川町",
    "town_kana": "イシカワチョウ",
    "street": "６０番地",
    "office_name": "函館日産自動車　株式会社",
    "office_name_kana": "ハコダテニツサンジドウシヤ カブシキガイシヤ"
  },
  "8540": {
    "zip_code": "0418540",
    "prefecture": "北海道",
    "prefecture_kana": "ホッカイドウ",
    "prefecture_code": "1",
    "city": "函館市",
    "city_kana": "ハコダテシ",
    "town": "港町",
    "town_kana": "ミナトチョウ",
    "street": "１丁目１７番８号",
    "office_name": "（株）　函館新聞社",
    "office_name_kana": "カブシキガイシヤ ハコダテシンブンシヤ"
  },
  "8551": {
    "zip_code": "0418551",
    "prefecture": "北海道",
    "prefecture_kana": "ホッカイドウ",
    "prefecture_code": "1",
    "city": "函館市",
    "city_kana": "ハコダテシ",
    "town": "美原",
    "town_kana": "ミハラ",
    "street": "４丁目６番１６号",
    "office_name": "北海道渡島保健所",
    "office_name_kana": "ホツカイドウオシマホケンジヨ"
  },
  "8552": {
    "zip_code": "0418552",
    "prefecture": "北海道",
    "prefecture_kana": "ホッカイドウ",
    "prefecture_code": "1",
    "city": "函館市",
    "city_kana": "ハコダテシ",
    "town": "美原",
    "town_kana": "ミハラ",
    "street": "４丁目６番１６号",
    "office_name": "北海道教育庁　実習船管理局",
    "office_name_kana": "ホツカイドウキヨウイクチヨウ ジツシユウセンカンリキヨク"
  },
  "8553": {
    "zip_code": "0418553",
    "prefecture": "北海道",
    "prefecture_kana": "ホッカイドウ",
    "prefecture_code": "1",
    "city": "函館市",
    "city_kana": "ハコダテシ",
    "town": "美原",
    "town_kana": "ミハラ",
    "street": "４丁目６番１６号",
    "office_name": "北海道計量検定所　函館支所",
    "office_name_kana": "ホツカイドウケイリヨウケンテイジヨ ハコダテシシヨ"
  },
  "8554": {
    "zip_code": "0418554",
    "prefecture": "北海道",
    "prefecture_kana": "ホッカイドウ",
    "prefecture_code": "1",
    "city": "函館市",
    "city_kana": "ハコダテシ",
    "town": "美原",
    "town_kana": "ミハラ",
    "street": "４丁目６番１６号",
    "office_name": "函館土木現業所",
    "office_name_kana": "ハコダテドボクゲンギヨウシヨ"
  },
  "8555": {
    "zip_code": "0418555",
    "prefecture": "北海道",
    "prefecture_kana": "ホッカイドウ",
    "prefecture_code": "1",
    "city": "函館市",
    "city_kana": "ハコダテシ",
    "town": "中道",
    "town_kana": "ナカミチ",
    "street": "２丁目６番１１号",
    "office_name": "医療法人社団　仁生会　西堀病院",
    "office_name_kana": "イリヨウホウジンシヤダン ジンセイカイ ニシボリビヨウイン"
  },
  "8556": {
    "zip_code": "0418556",
    "prefecture": "北海道",
    "prefecture_kana": "ホッカイドウ",
    "prefecture_code": "1",
    "city": "函館市",
    "city_kana": "ハコダテシ",
    "town": "美原",
    "town_kana": "ミハラ",
    "street": "４丁目６番１６号",
    "office_name": "渡島中部地区　水産技術普及指導所",
    "office_name_kana": "オシマチユウブチク スイサンギジユツフキユウシドウシヨ"
  },
  "8557": {
    "zip_code": "0418557",
    "prefecture": "北海道",
    "prefecture_kana": "ホッカイドウ",
    "prefecture_code": "1",
    "city": "函館市",
    "city_kana": "ハコダテシ",
    "town": "美原",
    "town_kana": "ミハラ",
    "street": "４丁目６番１６号",
    "office_name": "北海道教育庁　渡島教育局",
    "office_name_kana": "ホツカイドウキヨウイクチヨウ オシマキヨウイクキヨク"
  },
  "8558": {
    "zip_code": "0418558",
    "prefecture": "北海道",
    "prefecture_kana": "ホッカイドウ",
    "prefecture_code": "1",
    "city": "函館市",
    "city_kana": "ハコダテシ",
    "town": "美原",
    "town_kana": "ミハラ",
    "street": "４丁目６番",
    "office_name": "北海道　渡島支庁",
    "office_name_kana": "ホツカイドウ オシマシチヨウ"
  },
  "8560": {
    "zip_code": "0418560",
    "prefecture": "北海道",
    "prefecture_kana": "ホッカイドウ",
    "prefecture_code": "1",
    "city": "函館市",
    "city_kana": "ハコダテシ",
    "town": "山の手",
    "town_kana": "ヤマノテ",
    "street": "２丁目６番３号",
    "office_name": "函館白百合学園　中学高等学校",
    "office_name_kana": "ハコダテシラユリガクエン チユウガクコウトウガツコウ"
  },
  "8567": {
    "zip_code": "0418567",
    "prefecture": "北海道",
    "prefecture_kana": "ホッカイドウ",
    "prefecture_code": "1",
    "city": "函館市",
    "city_kana": "ハコダテシ",
    "town": "西桔梗町",
    "town_kana": "ニシキキョウチョウ",
    "street": "５３７番地４",
    "office_name": "（株）　ヤマツ",
    "office_name_kana": "カブシキガイシヤ ヤマツ"
  },
  "8577": {
    "zip_code": "0418577",
    "prefecture": "北海道",
    "prefecture_kana": "ホッカイドウ",
    "prefecture_code": "1",
    "city": "函館市",
    "city_kana": "ハコダテシ",
    "town": "昭和",
    "town_kana": "ショウワ",
    "street": "１丁目２８番１２号",
    "office_name": "ネッツトヨタ道南　株式会社",
    "office_name_kana": "ネツツトヨタドウナン カブシキガイシヤ"
  },
  "8588": {
    "zip_code": "0418588",
    "prefecture": "北海道",
    "prefecture_kana": "ホッカイドウ",
    "prefecture_code": "1",
    "city": "函館市",
    "city_kana": "ハコダテシ",
    "town": "西桔梗町",
    "town_kana": "ニシキキョウチョウ",
    "street": "５８９番地１４８",
    "office_name": "函館運送　（株）",
    "office_name_kana": "ハコダテウンソウ カブシキガイシヤ"
  },
  "8589": {
    "zip_code": "0418589",
    "prefecture": "北海道",
    "prefecture_kana": "ホッカイドウ",
    "prefecture_code": "1",
    "city": "函館市",
    "city_kana": "ハコダテシ",
    "town": "西桔梗町",
    "town_kana": "ニシキキョウチョウ",
    "street": "５８９番地４６",
    "office_name": "（株）　不二屋本店",
    "office_name_kana": "カブシキガイシヤフジヤホンテン"
  },
  "8610": {
    "zip_code": "0418610",
    "prefecture": "北海道",
    "prefecture_kana": "ホッカイドウ",
    "prefecture_code": "1",
    "city": "函館市",
    "city_kana": "ハコダテシ",
    "town": "港町",
    "town_kana": "ミナトチョウ",
    "street": "３丁目１８番１５号",
    "office_name": "（株）　テーオー小笠原",
    "office_name_kana": "カブシキガイシヤ テ-オ-オガサワラ"
  },
  "8611": {
    "zip_code": "0418611",
    "prefecture": "北海道",
    "prefecture_kana": "ホッカイドウ",
    "prefecture_code": "1",
    "city": "函館市",
    "city_kana": "ハコダテシ",
    "town": "港町",
    "town_kana": "ミナトチョウ",
    "street": "３丁目１番１号",
    "office_name": "北海道大学　水産学部",
    "office_name_kana": "ホツカイドウダイガク スイサンガクブ"
  },
  "8623": {
    "zip_code": "0418623",
    "prefecture": "北海道",
    "prefecture_kana": "ホッカイドウ",
    "prefecture_code": "1",
    "city": "函館市",
    "city_kana": "ハコダテシ",
    "town": "神山",
    "town_kana": "カミヤマ",
    "street": "２丁目４番３号",
    "office_name": "函館日産自動車　株式会社　神山店",
    "office_name_kana": "ハコダテニツサンジドウシヤ カブシキガイシヤ カミヤマテン"
  },
  "8633": {
    "zip_code": "0418633",
    "prefecture": "北海道",
    "prefecture_kana": "ホッカイドウ",
    "prefecture_code": "1",
    "city": "函館市",
    "city_kana": "ハコダテシ",
    "town": "西桔梗町",
    "town_kana": "ニシキキョウチョウ",
    "street": "５８９番地１０７",
    "office_name": "第二物産　（株）",
    "office_name_kana": "ダイニブツサン カブシキガイシヤ"
  },
  "8648": {
    "zip_code": "0418648",
    "prefecture": "北海道",
    "prefecture_kana": "ホッカイドウ",
    "prefecture_code": "1",
    "city": "函館市",
    "city_kana": "ハコダテシ",
    "town": "西桔梗町",
    "town_kana": "ニシキキョウチョウ",
    "street": "５８９番地４９",
    "office_name": "（株）　クワザワ　函館支店",
    "office_name_kana": "カブシキガイシヤ クワザワ ハコダテシテン"
  },
  "8655": {
    "zip_code": "0418655",
    "prefecture": "北海道",
    "prefecture_kana": "ホッカイドウ",
    "prefecture_code": "1",
    "city": "函館市",
    "city_kana": "ハコダテシ",
    "town": "亀田中野町",
    "town_kana": "カメダナカノチョウ",
    "street": "１１６番地２",
    "office_name": "公立はこだて未来大学",
    "office_name_kana": "コウリツハコダテミライダイガク"
  },
  "8680": {
    "zip_code": "0418680",
    "prefecture": "北海道",
    "prefecture_kana": "ホッカイドウ",
    "prefecture_code": "1",
    "city": "函館市",
    "city_kana": "ハコダテシ",
    "town": "港町",
    "town_kana": "ミナトチョウ",
    "street": "１丁目１０番１号",
    "office_name": "函館市病院局",
    "office_name_kana": "ハコダテシビヨウインキヨク"
  },
  "8711": {
    "zip_code": "0418711",
    "prefecture": "北海道",
    "prefecture_kana": "ホッカイドウ",
    "prefecture_code": "1",
    "city": "函館市",
    "city_kana": "ハコダテシ",
    "town": "石川町",
    "town_kana": "イシカワチョウ",
    "street": "１６９番地３５",
    "office_name": "函館トヨペット　株式会社",
    "office_name_kana": "ハコダテトヨペツト カブシキガイシヤ"
  }
}