{
  "0901": {
    "zip_code": "0420901",
    "prefecture": "北海道",
    "prefecture_kana": "ホッカイドウ",
    "prefecture_code": 1,
    "city": "函館市",
    "city_kana": "ハコダテシ",
    "town": "蛾眉野町",
    "town_kana": "ガビノチョウ",
    "street": null,
    "office_name": null,
    "office_name_kana": null
  },
  "0902": {
    "zip_code": "0420902",
    "prefecture": "北海道",
    "prefecture_kana": "ホッカイドウ",
    "prefecture_code": 1,
    "city": "函館市",
    "city_kana": "ハコダテシ",
    "town": "鉄山町",
    "town_kana": "テツザンチョウ",
    "street": null,
    "office_name": null,
    "office_name_kana": null
  },
  "0903": {
    "zip_code": "0420903",
    "prefecture": "北海道",
    "prefecture_kana": "ホッカイドウ",
    "prefecture_code": 1,
    "city": "函館市",
    "city_kana": "ハコダテシ",
    "town": "東畑町",
    "town_kana": "ヒガシハタチョウ",
    "street": null,
    "office_name": null,
    "office_name_kana": null
  },
  "0904": {
    "zip_code": "0420904",
    "prefecture": "北海道",
    "prefecture_kana": "ホッカイドウ",
    "prefecture_code": 1,
    "city": "函館市",
    "city_kana": "ハコダテシ",
    "town": "庵原町",
    "town_kana": "イオハラチョウ",
    "street": null,
    "office_name": null,
    "office_name_kana": null
  },
  "0905": {
    "zip_code": "0420905",
    "prefecture": "北海道",
    "prefecture_kana": "ホッカイドウ",
    "prefecture_code": 1,
    "city": "函館市",
    "city_kana": "ハコダテシ",
    "town": "紅葉山町",
    "town_kana": "モミジヤマチョウ",
    "street": null,
    "office_name": null,
    "office_name_kana": null
  },
  "0906": {
    "zip_code": "0420906",
    "prefecture": "北海道",
    "prefecture_kana": "ホッカイドウ",
    "prefecture_code": 1,
    "city": "函館市",
    "city_kana": "ハコダテシ",
    "town": "三森町",
    "town_kana": "ミツモリチョウ",
    "street": null,
    "office_name": null,
    "office_name_kana": null
  },
  "0907": {
    "zip_code": "0420907",
    "prefecture": "北海道",
    "prefecture_kana": "ホッカイドウ",
    "prefecture_code": 1,
    "city": "函館市",
    "city_kana": "ハコダテシ",
    "town": "鱒川町",
    "town_kana": "マスカワチョウ",
    "street": null,
    "office_name": null,
    "office_name_kana": null
  },
  "0908": {
    "zip_code": "0420908",
    "prefecture": "北海道",
    "prefecture_kana": "ホッカイドウ",
    "prefecture_code": 1,
    "city": "函館市",
    "city_kana": "ハコダテシ",
    "town": "銅山町",
    "town_kana": "ドウザンチョウ",
    "street": null,
    "office_name": null,
    "office_name_kana": null
  },
  "0911": {
    "zip_code": "0420911",
    "prefecture": "北海道",
    "prefecture_kana": "ホッカイドウ",
    "prefecture_code": 1,
    "city": "函館市",
    "city_kana": "ハコダテシ",
    "town": "石倉町",
    "town_kana": "イシクラチョウ",
    "street": null,
    "office_name": null,
    "office_name_kana": null
  },
  "0912": {
    "zip_code": "0420912",
    "prefecture": "北海道",
    "prefecture_kana": "ホッカイドウ",
    "prefecture_code": 1,
    "city": "函館市",
    "city_kana": "ハコダテシ",
    "town": "中野町",
    "town_kana": "ナカノチョウ",
    "street": null,
    "office_name": null,
    "office_name_kana": null
  },
  "0913": {
    "zip_code": "0420913",
    "prefecture": "北海道",
    "prefecture_kana": "ホッカイドウ",
    "prefecture_code": 1,
    "city": "函館市",
    "city_kana": "ハコダテシ",
    "town": "赤坂町",
    "town_kana": "アカサカチョウ",
    "street": null,
    "office_name": null,
    "office_name_kana": null
  },
  "0914": {
    "zip_code": "0420914",
    "prefecture": "北海道",
    "prefecture_kana": "ホッカイドウ",
    "prefecture_code": 1,
    "city": "函館市",
    "city_kana": "ハコダテシ",
    "town": "上湯川町",
    "town_kana": "カミユノカワチョウ",
    "street": null,
    "office_name": null,
    "office_name_kana": null
  },
  "0915": {
    "zip_code": "0420915",
    "prefecture": "北海道",
    "prefecture_kana": "ホッカイドウ",
    "prefecture_code": 1,
    "city": "函館市",
    "city_kana": "ハコダテシ",
    "town": "西旭岡町",
    "town_kana": "ニシアサヒオカチョウ",
    "street": null,
    "office_name": null,
    "office_name_kana": null
  },
  "0916": {
    "zip_code": "0420916",
    "prefecture": "北海道",
    "prefecture_kana": "ホッカイドウ",
    "prefecture_code": 1,
    "city": "函館市",
    "city_kana": "ハコダテシ",
    "town": "旭岡町",
    "town_kana": "アサヒオカチョウ",
    "street": null,
    "office_name": null,
    "office_name_kana": null
  },
  "0917": {
    "zip_code": "0420917",
    "prefecture": "北海道",
    "prefecture_kana": "ホッカイドウ",
    "prefecture_code": 1,
    "city": "函館市",
    "city_kana": "ハコダテシ",
    "town": "亀尾町",
    "town_kana": "カメオチョウ",
    "street": null,
    "office_name": null,
    "office_name_kana": null
  },
  "0918": {
    "zip_code": "0420918",
    "prefecture": "北海道",
    "prefecture_kana": "ホッカイドウ",
    "prefecture_code": 1,
    "city": "函館市",
    "city_kana": "ハコダテシ",
    "town": "米原町",
    "town_kana": "マイハラチョウ",
    "street": null,
    "office_name": null,
    "office_name_kana": null
  },
  "0921": {
    "zip_code": "0420921",
    "prefecture": "北海道",
    "prefecture_kana": "ホッカイドウ",
    "prefecture_code": 1,
    "city": "函館市",
    "city_kana": "ハコダテシ",
    "town": "新湊町",
    "town_kana": "シンミナトチョウ",
    "street": null,
    "office_name": null,
    "office_name_kana": null
  },
  "0922": {
    "zip_code": "0420922",
    "prefecture": "北海道",
    "prefecture_kana": "ホッカイドウ",
    "prefecture_code": 1,
    "city": "函館市",
    "city_kana": "ハコダテシ",
    "town": "銭亀町",
    "town_kana": "ゼニカメチョウ",
    "street": null,
    "office_name": null,
    "office_name_kana": null
  },
  "0923": {
    "zip_code": "0420923",
    "prefecture": "北海道",
    "prefecture_kana": "ホッカイドウ",
    "prefecture_code": 1,
    "city": "函館市",
    "city_kana": "ハコダテシ",
    "town": "志海苔町",
    "town_kana": "シノリチョウ",
    "street": null,
    "office_name": null,
    "office_name_kana": null
  },
  "0924": {
    "zip_code": "0420924",
    "prefecture": "北海道",
    "prefecture_kana": "ホッカイドウ",
    "prefecture_code": 1,
    "city": "函館市",
    "city_kana": "ハコダテシ",
    "town": "根崎町",
    "town_kana": "ネサキチョウ",
    "street": null,
    "office_name": null,
    "office_name_kana": null
  },
  "0931": {
    "zip_code": "0420931",
    "prefecture": "北海道",
    "prefecture_kana": "ホッカイドウ",
    "prefecture_code": 1,
    "city": "函館市",
    "city_kana": "ハコダテシ",
    "town": "榎本町",
    "town_kana": "エノモトチョウ",
    "street": null,
    "office_name": null,
    "office_name_kana": null
  },
  "0932": {
    "zip_code": "0420932",
    "prefecture": "北海道",
    "prefecture_kana": "ホッカイドウ",
    "prefecture_code": 1,
    "city": "函館市",
    "city_kana": "ハコダテシ",
    "town": "湯川町",
    "town_kana": "ユノカワチョウ",
    "street": null,
    "office_name": null,
    "office_name_kana": null
  },
  "0933": {
    "zip_code": "0420933",
    "prefecture": "北海道",
    "prefecture_kana": "ホッカイドウ",
    "prefecture_code": 1,
    "city": "函館市",
    "city_kana": "ハコダテシ",
    "town": "湯浜町",
    "town_kana": "ユノハマチョウ",
    "street": null,
    "office_name": null,
    "office_name_kana": null
  },
  "0934": {
    "zip_code": "0420934",
    "prefecture": "北海道",
    "prefecture_kana": "ホッカイドウ",
    "prefecture_code": 1,
    "city": "函館市",
    "city_kana": "ハコダテシ",
    "town": "広野町",
    "town_kana": "ヒロノチョウ",
    "street": null,
    "office_name": null,
    "office_name_kana": null
  },
  "0935": {
    "zip_code": "0420935",
    "prefecture": "北海道",
    "prefecture_kana": "ホッカイドウ",
    "prefecture_code": 1,
    "city": "函館市",
    "city_kana": "ハコダテシ",
    "town": "駒場町",
    "town_kana": "コマバチョウ",
    "street": null,
    "office_name": null,
    "office_name_kana": null
  },
  "0941": {
    "zip_code": "0420941",
    "prefecture": "北海道",
    "prefecture_kana": "ホッカイドウ",
    "prefecture_code": 1,
    "city": "函館市",
    "city_kana": "ハコダテシ",
    "town": "深堀町",
    "town_kana": "フカボリチョウ",
    "street": null,
    "office_name": null,
    "office_name_kana": null
  },
  "0942": {
    "zip_code": "0420942",
    "prefecture": "北海道",
    "prefecture_kana": "ホッカイドウ",
    "prefecture_code": 1,
    "city": "函館市",
    "city_kana": "ハコダテシ",
    "town": "柏木町",
    "town_kana": "カシワギチョウ",
    "street": null,
    "office_name": null,
    "office_name_kana": null
  },
  "0943": {
    "zip_code": "0420943",
    "prefecture": "北海道",
    "prefecture_kana": "ホッカイドウ",
    "prefecture_code": 1,
    "city": "函館市",
    "city_kana": "ハコダテシ",
    "town": "乃木町",
    "town_kana": "ノギマチ",
    "street": null,
    "office_name": null,
    "office_name_kana": null
  },
  "0944": {
    "zip_code": "0420944",
    "prefecture": "北海道",
    "prefecture_kana": "ホッカイドウ",
    "prefecture_code": 1,
    "city": "函館市",
    "city_kana": "ハコダテシ",
    "town": "金堀町",
    "town_kana": "カナホリチョウ",
    "street": null,
    "office_name": null,
    "office_name_kana": null
  },
  "0951": {
    "zip_code": "0420951",
    "prefecture": "北海道",
    "prefecture_kana": "ホッカイドウ",
    "prefecture_code": 1,
    "city": "函館市",
    "city_kana": "ハコダテシ",
    "town": "瀬戸川町",
    "town_kana": "セトガワチョウ",
    "street": null,
    "office_name": null,
    "office_name_kana": null
  },
  "0952": {
    "zip_code": "0420952",
    "prefecture": "北海道",
    "prefecture_kana": "ホッカイドウ",
    "prefecture_code": 1,
    "city": "函館市",
    "city_kana": "ハコダテシ",
    "town": "高松町",
    "town_kana": "タカマツチョウ",
    "street": null,
    "office_name": null,
    "office_name_kana": null
  },
  "0953": {
    "zip_code": "0420953",
    "prefecture": "北海道",
    "prefecture_kana": "ホッカイドウ",
    "prefecture_code": 1,
    "city": "函館市",
    "city_kana": "ハコダテシ",
    "town": "戸倉町",
    "town_kana": "トクラチョウ",
    "street": null,
    "office_name": null,
    "office_name_kana": null
  },
  "0954": {
    "zip_code": "0420954",
    "prefecture": "北海道",
    "prefecture_kana": "ホッカイドウ",
    "prefecture_code": 1,
    "city": "函館市",
    "city_kana": "ハコダテシ",
    "town": "上野町",
    "town_kana": "ウエノチョウ",
    "street": null,
    "office_name": null,
    "office_name_kana": null
  },
  "0955": {
    "zip_code": "0420955",
    "prefecture": "北海道",
    "prefecture_kana": "ホッカイドウ",
    "prefecture_code": 1,
    "city": "函館市",
    "city_kana": "ハコダテシ",
    "town": "高丘町",
    "town_kana": "タカオカチョウ",
    "street": null,
    "office_name": null,
    "office_name_kana": null
  },
  "0956": {
    "zip_code": "0420956",
    "prefecture": "北海道",
    "prefecture_kana": "ホッカイドウ",
    "prefecture_code": 1,
    "city": "函館市",
    "city_kana": "ハコダテシ",
    "town": "見晴町",
    "town_kana": "ミハラシチョウ",
    "street": null,
    "office_name": null,
    "office_name_kana": null
  },
  "0957": {
    "zip_code": "0420957",
    "prefecture": "北海道",
    "prefecture_kana": "ホッカイドウ",
    "prefecture_code": 1,
    "city": "函館市",
    "city_kana": "ハコダテシ",
    "town": "滝沢町",
    "town_kana": "タキサワチョウ",
    "street": null,
    "office_name": null,
    "office_name_kana": null
  },
  "0958": {
    "zip_code": "0420958",
    "prefecture": "北海道",
    "prefecture_kana": "ホッカイドウ",
    "prefecture_code": 1,
    "city": "函館市",
    "city_kana": "ハコダテシ",
    "town": "鈴蘭丘町",
    "town_kana": "スズランオカチョウ",
    "street": null,
    "office_name": null,
    "office_name_kana": null
  },
  "8501": {
    "zip_code": "0428501",
    "prefecture": "北海道",
    "prefecture_kana": "ホッカイドウ",
    "prefecture_code": 1,
    "city": "函館市",
    "city_kana": "ハコダテシ",
    "town": "戸倉町",
    "town_kana": "トクラチョウ",
    "street": "１４番１号",
    "office_name": "函館工業高等専門学校",
    "office_name_kana": "ハコダテコウギヨウコウトウセンモンガツコウ"
  },
  "8511": {
    "zip_code": "0428511",
    "prefecture": "北海道",
    "prefecture_kana": "ホッカイドウ",
    "prefecture_code": 1,
    "city": "函館市",
    "city_kana": "ハコダテシ",
    "town": "駒場町",
    "town_kana": "コマバチョウ",
    "street": "９番１８号",
    "office_name": "医療法人　富田病院",
    "office_name_kana": "イリヨウホウジン トミタビヨウイン"
  },
  "8550": {
    "zip_code": "0428550",
    "prefecture": "北海道",
    "prefecture_kana": "ホッカイドウ",
    "prefecture_code": 1,
    "city": "函館市",
    "city_kana": "ハコダテシ",
    "town": "駒場町",
    "town_kana": "コマバチョウ",
    "street": "２番１３号",
    "office_name": "北海道森林管理局　函館事務所",
    "office_name_kana": "ホツカイドウシンリンカンリキヨク ハコダテジムシヨ"
  },
  "8555": {
    "zip_code": "0428555",
    "prefecture": "北海道",
    "prefecture_kana": "ホッカイドウ",
    "prefecture_code": 1,
    "city": "函館市",
    "city_kana": "ハコダテシ",
    "town": "金堀町",
    "town_kana": "カナホリチョウ",
    "street": "５番２３号",
    "office_name": "函館環境衛生　株式会社",
    "office_name_kana": "ハコダテカンキヨウエイセイ カブシキガイシヤ"
  },
  "8567": {
    "zip_code": "0428567",
    "prefecture": "北海道",
    "prefecture_kana": "ホッカイドウ",
    "prefecture_code": 1,
    "city": "函館市",
    "city_kana": "ハコダテシ",
    "town": "広野町",
    "town_kana": "ヒロノチョウ",
    "street": "６番１８号",
    "office_name": "陸上自衛隊　函館駐屯地",
    "office_name_kana": "リクジヨウジエイタイ ハコダテチユウトンチ"
  },
  "8585": {
    "zip_code": "0428585",
    "prefecture": "北海道",
    "prefecture_kana": "ホッカイドウ",
    "prefecture_code": 1,
    "city": "函館市",
    "city_kana": "ハコダテシ",
    "town": "駒場町",
    "town_kana": "コマバチョウ",
    "street": "１２番２号",
    "office_name": "日本中央競馬会　函館競馬場",
    "office_name_kana": "ニツポンチユウオウケイバカイ ハコダテケイバジヨウ"
  },
  "8588": {
    "zip_code": "0428588",
    "prefecture": "北海道",
    "prefecture_kana": "ホッカイドウ",
    "prefecture_code": 1,
    "city": "函館市",
    "city_kana": "ハコダテシ",
    "town": "湯川町",
    "town_kana": "ユノカワチョウ",
    "street": "２丁目４３番１号",
    "office_name": "函館大学　付属有斗高等学校",
    "office_name_kana": "ハコダテダイガク フゾクユウトコウトウガツコウ"
  },
  "8639": {
    "zip_code": "0428639",
    "prefecture": "北海道",
    "prefecture_kana": "ホッカイドウ",
    "prefecture_code": 1,
    "city": "函館市",
    "city_kana": "ハコダテシ",
    "town": "金堀町",
    "town_kana": "カナホリチョウ",
    "street": "６番１１号",
    "office_name": "函館少年刑務所",
    "office_name_kana": "ハコダテシヨウネンケイムシヨ"
  },
  "8642": {
    "zip_code": "0428642",
    "prefecture": "北海道",
    "prefecture_kana": "ホッカイドウ",
    "prefecture_code": 1,
    "city": "函館市",
    "city_kana": "ハコダテシ",
    "town": "湯川町",
    "town_kana": "ユノカワチョウ",
    "street": "２丁目２５番２６号",
    "office_name": "（株）　北洋銀行　湯川支店",
    "office_name_kana": "カブシキガイシヤ ホクヨウギンコウ ユノカワシテン"
  },
  "8678": {
    "zip_code": "0428678",
    "prefecture": "北海道",
    "prefecture_kana": "ホッカイドウ",
    "prefecture_code": 1,
    "city": "函館市",
    "city_kana": "ハコダテシ",
    "town": "湯川町",
    "town_kana": "ユノカワチョウ",
    "street": "１丁目３１番１号（函館東郵便局私書箱第１号）",
    "office_name": "医療法人　函館渡辺病院",
    "office_name_kana": "イリヨウホウジン ハコダテワタナベビヨウイン"
  }
}