{
  "0000": {
    "zip_code": "0450000",
    "prefecture": "北海道",
    "prefecture_kana": "ホッカイドウ",
    "prefecture_code": "1",
    "city": "岩内郡岩内町",
    "city_kana": "イワナイグンイワナイチョウ",
    "town": "",
    "town_kana": "",
    "street": null,
    "office_name": null,
    "office_name_kana": null
  },
  "0001": {
    "zip_code": "0450001",
    "prefecture": "北海道",
    "prefecture_kana": "ホッカイドウ",
    "prefecture_code": "1",
    "city": "岩内郡岩内町",
    "city_kana": "イワナイグンイワナイチョウ",
    "town": "大浜",
    "town_kana": "オオハマ",
    "street": null,
    "office_name": null,
    "office_name_kana": null
  },
  "0002": {
    "zip_code": "0450002",
    "prefecture": "北海道",
    "prefecture_kana": "ホッカイドウ",
    "prefecture_code": "1",
    "city": "岩内郡岩内町",
    "city_kana": "イワナイグンイワナイチョウ",
    "town": "東山",
    "town_kana": "ヒガシヤマ",
    "street": null,
    "office_name": null,
    "office_name_kana": null
  },
  "0003": {
    "zip_code": "0450003",
    "prefecture": "北海道",
    "prefecture_kana": "ホッカイドウ",
    "prefecture_code": "1",
    "city": "岩内郡岩内町",
    "city_kana": "イワナイグンイワナイチョウ",
    "town": "万代",
    "town_kana": "マンダイ",
    "street": null,
    "office_name": null,
    "office_name_kana": null
  },
  "0011": {
    "zip_code": "0450011",
    "prefecture": "北海道",
    "prefecture_kana": "ホッカイドウ",
    "prefecture_code": "1",
    "city": "岩内郡岩内町",
    "city_kana": "イワナイグンイワナイチョウ",
    "town": "栄",
    "town_kana": "サカエ",
    "street": null,
    "office_name": null,
    "office_name_kana": null
  },
  "0012": {
    "zip_code": "0450012",
    "prefecture": "北海道",
    "prefecture_kana": "ホッカイドウ",
    "prefecture_code": "1",
    "city": "岩内郡岩内町",
    "city_kana": "イワナイグンイワナイチョウ",
    "town": "宮園",
    "town_kana": "ミヤゾノ",
    "street": null,
    "office_name": null,
    "office_name_kana": null
  },
  "0013": {
    "zip_code": "0450013",
    "prefecture": "北海道",
    "prefecture_kana": "ホッカイドウ",
    "prefecture_code": "1",
    "city": "岩内郡岩内町",
    "city_kana": "イワナイグンイワナイチョウ",
    "town": "高台",
    "town_kana": "タカダイ",
    "street": null,
    "office_name": null,
    "office_name_kana": null
  },
  "0021": {
    "zip_code": "0450021",
    "prefecture": "北海道",
    "prefecture_kana": "ホッカイドウ",
    "prefecture_code": "1",
    "city": "岩内郡岩内町",
    "city_kana": "イワナイグンイワナイチョウ",
    "town": "大和",
    "town_kana": "ヤマト",
    "street": null,
    "office_name": null,
    "office_name_kana": null
  },
  "0022": {
    "zip_code": "0450022",
    "prefecture": "北海道",
    "prefecture_kana": "ホッカイドウ",
    "prefecture_code": "1",
    "city": "岩内郡岩内町",
    "city_kana": "イワナイグンイワナイチョウ",
    "town": "清住",
    "town_kana": "キヨズミ",
    "street": null,
    "office_name": null,
    "office_name_kana": null
  },
  "0023": {
    "zip_code": "0450023",
    "prefecture": "北海道",
    "prefecture_kana": "ホッカイドウ",
    "prefecture_code": "1",
    "city": "岩内郡岩内町",
    "city_kana": "イワナイグンイワナイチョウ",
    "town": "相生",
    "town_kana": "アイオイ",
    "street": null,
    "office_name": null,
    "office_name_kana": null
  },
  "0024": {
    "zip_code": "0450024",
    "prefecture": "北海道",
    "prefecture_kana": "ホッカイドウ",
    "prefecture_code": "1",
    "city": "岩内郡岩内町",
    "city_kana": "イワナイグンイワナイチョウ",
    "town": "野束",
    "town_kana": "ノヅカ",
    "street": null,
    "office_name": null,
    "office_name_kana": null
  },
  "0025": {
    "zip_code": "0450025",
    "prefecture": "北海道",
    "prefecture_kana": "ホッカイドウ",
    "prefecture_code": "1",
    "city": "岩内郡岩内町",
    "city_kana": "イワナイグンイワナイチョウ",
    "town": "敷島内",
    "town_kana": "シキシマナイ",
    "street": null,
    "office_name": null,
    "office_name_kana": null
  },
  "0026": {
    "zip_code": "0450026",
    "prefecture": "北海道",
    "prefecture_kana": "ホッカイドウ",
    "prefecture_code": "1",
    "city": "岩内郡岩内町",
    "city_kana": "イワナイグンイワナイチョウ",
    "town": "御崎",
    "town_kana": "ミサキ",
    "street": null,
    "office_name": null,
    "office_name_kana": null
  },
  "0031": {
    "zip_code": "0450031",
    "prefecture": "北海道",
    "prefecture_kana": "ホッカイドウ",
    "prefecture_code": "1",
    "city": "岩内郡共和町",
    "city_kana": "イワナイグンキョウワチョウ",
    "town": "梨野舞納",
    "town_kana": "リヤムナイ",
    "street": null,
    "office_name": null,
    "office_name_kana": null
  },
  "0032": {
    "zip_code": "0450032",
    "prefecture": "北海道",
    "prefecture_kana": "ホッカイドウ",
    "prefecture_code": "1",
    "city": "岩内郡共和町",
    "city_kana": "イワナイグンキョウワチョウ",
    "town": "老古美",
    "town_kana": "オイコミ",
    "street": null,
    "office_name": null,
    "office_name_kana": null
  },
  "0121": {
    "zip_code": "0450121",
    "prefecture": "北海道",
    "prefecture_kana": "ホッカイドウ",
    "prefecture_code": "1",
    "city": "岩内郡共和町",
    "city_kana": "イワナイグンキョウワチョウ",
    "town": "幌似",
    "town_kana": "ホロニ",
    "street": null,
    "office_name": null,
    "office_name_kana": null
  },
  "0122": {
    "zip_code": "0450122",
    "prefecture": "北海道",
    "prefecture_kana": "ホッカイドウ",
    "prefecture_code": "1",
    "city": "岩内郡共和町",
    "city_kana": "イワナイグンキョウワチョウ",
    "town": "発足",
    "town_kana": "ハッタリ",
    "street": null,
    "office_name": null,
    "office_name_kana": null
  },
  "0123": {
    "zip_code": "0450123",
    "prefecture": "北海道",
    "prefecture_kana": "ホッカイドウ",
    "prefecture_code": "1",
    "city": "岩内郡共和町",
    "city_kana": "イワナイグンキョウワチョウ",
    "town": "宮丘",
    "town_kana": "ミヤオカ",
    "street": null,
    "office_name": null,
    "office_name_kana": null
  },
  "0200": {
    "zip_code": "0450200",
    "prefecture": "北海道",
    "prefecture_kana": "ホッカイドウ",
    "prefecture_code": "1",
    "city": "古宇郡泊村",
    "city_kana": "フルウグントマリムラ",
    "town": "",
    "town_kana": "",
    "street": null,
    "office_name": null,
    "office_name_kana": null
  },
  "0201": {
    "zip_code": "0450201",
    "prefecture": "北海道",
    "prefecture_kana": "ホッカイドウ",
    "prefecture_code": "1",
    "city": "古宇郡泊村",
    "city_kana": "フルウグントマリムラ",
    "town": "堀株村",
    "town_kana": "ホリカップムラ",
    "street": null,
    "office_name": null,
    "office_name_kana": null
  },
  "0202": {
    "zip_code": "0450202",
    "prefecture": "北海道",
    "prefecture_kana": "ホッカイドウ",
    "prefecture_code": "1",
    "city": "古宇郡泊村",
    "city_kana": "フルウグントマリムラ",
    "town": "茅沼村",
    "town_kana": "カヤヌマムラ",
    "street": null,
    "office_name": null,
    "office_name_kana": null
  },
  "0203": {
    "zip_code": "0450203",
    "prefecture": "北海道",
    "prefecture_kana": "ホッカイドウ",
    "prefecture_code": "1",
    "city": "古宇郡泊村",
    "city_kana": "フルウグントマリムラ",
    "town": "泊村",
    "town_kana": "トマリムラ",
    "street": null,
    "office_name": null,
    "office_name_kana": null
  },
  "0204": {
    "zip_code": "0450204",
    "prefecture": "北海道",
    "prefecture_kana": "ホッカイドウ",
    "prefecture_code": "1",
    "city": "古宇郡泊村",
    "city_kana": "フルウグントマリムラ",
    "town": "盃村",
    "town_kana": "サカズキムラ",
    "street": null,
    "office_name": null,
    "office_name_kana": null
  },
  "0205": {
    "zip_code": "0450205",
    "prefecture": "北海道",
    "prefecture_kana": "ホッカイドウ",
    "prefecture_code": "1",
    "city": "古宇郡泊村",
    "city_kana": "フルウグントマリムラ",
    "town": "興志内村",
    "town_kana": "オキシナイムラ",
    "street": null,
    "office_name": null,
    "office_name_kana": null
  },
  "0300": {
    "zip_code": "0450300",
    "prefecture": "北海道",
    "prefecture_kana": "ホッカイドウ",
    "prefecture_code": "1",
    "city": "古宇郡神恵内村",
    "city_kana": "フルウグンカモエナイムラ",
    "town": "",
    "town_kana": "",
    "street": null,
    "office_name": null,
    "office_name_kana": null
  },
  "0301": {
    "zip_code": "0450301",
    "prefecture": "北海道",
    "prefecture_kana": "ホッカイドウ",
    "prefecture_code": "1",
    "city": "古宇郡神恵内村",
    "city_kana": "フルウグンカモエナイムラ",
    "town": "神恵内村",
    "town_kana": "カモエナイムラ",
    "street": null,
    "office_name": null,
    "office_name_kana": null
  },
  "0302": {
    "zip_code": "0450302",
    "prefecture": "北海道",
    "prefecture_kana": "ホッカイドウ",
    "prefecture_code": "1",
    "city": "古宇郡神恵内村",
    "city_kana": "フルウグンカモエナイムラ",
    "town": "赤石村",
    "town_kana": "アカイシムラ",
    "street": null,
    "office_name": null,
    "office_name_kana": null
  },
  "0303": {
    "zip_code": "0450303",
    "prefecture": "北海道",
    "prefecture_kana": "ホッカイドウ",
    "prefecture_code": "1",
    "city": "古宇郡神恵内村",
    "city_kana": "フルウグンカモエナイムラ",
    "town": "珊内村",
    "town_kana": "サンナイムラ",
    "street": null,
    "office_name": null,
    "office_name_kana": null
  },
  "8555": {
    "zip_code": "0458555",
    "prefecture": "北海道",
    "prefecture_kana": null,
    "prefecture_code": null,
    "city": "岩内郡岩内町",
    "city_kana": null,
    "town": "字清住",
    "town_kana": null,
    "street": "２５８番地",
    "office_name": "岩内町役場",
    "office_name_kana": "イワナイチヨウヤクバ"
  },
  "8609": {
    "zip_code": "0458609",
    "prefecture": "北海道",
    "prefecture_kana": null,
    "prefecture_code": null,
    "city": "岩内郡岩内町",
    "city_kana": null,
    "town": "字相生",
    "town_kana": null,
    "street": "１９９番地の１",
    "office_name": "岩内公共職業安定所",
    "office_name_kana": "イワナイコウキヨウシヨクギヨウアンテイシヨ"
  }
}