{
  "0000": {
    "zip_code": "0600000",
    "prefecture": "北海道",
    "prefecture_kana": "ホッカイドウ",
    "prefecture_code": "1",
    "city": "札幌市中央区",
    "city_kana": "サッポロシチュウオウク",
    "town": "",
    "town_kana": "",
    "street": null,
    "office_name": null,
    "office_name_kana": null
  },
  "0001": {
    "zip_code": "0600001",
    "prefecture": "北海道",
    "prefecture_kana": "ホッカイドウ",
    "prefecture_code": "1",
    "city": "札幌市中央区",
    "city_kana": "サッポロシチュウオウク",
    "town": "北一条西",
    "town_kana": "キタ1ジョウニシ",
    "street": null,
    "office_name": null,
    "office_name_kana": null
  },
  "0002": {
    "zip_code": "0600002",
    "prefecture": "北海道",
    "prefecture_kana": "ホッカイドウ",
    "prefecture_code": "1",
    "city": "札幌市中央区",
    "city_kana": "サッポロシチュウオウク",
    "town": "北二条西",
    "town_kana": "キタ2ジョウニシ",
    "street": null,
    "office_name": null,
    "office_name_kana": null
  },
  "0003": {
    "zip_code": "0600003",
    "prefecture": "北海道",
    "prefecture_kana": "ホッカイドウ",
    "prefecture_code": "1",
    "city": "札幌市中央区",
    "city_kana": "サッポロシチュウオウク",
    "town": "北三条西",
    "town_kana": "キタ3ジョウニシ",
    "street": null,
    "office_name": null,
    "office_name_kana": null
  },
  "0004": {
    "zip_code": "0600004",
    "prefecture": "北海道",
    "prefecture_kana": "ホッカイドウ",
    "prefecture_code": "1",
    "city": "札幌市中央区",
    "city_kana": "サッポロシチュウオウク",
    "town": "北四条西",
    "town_kana": "キタ4ジョウニシ",
    "street": null,
    "office_name": null,
    "office_name_kana": null
  },
  "0005": {
    "zip_code": "0600005",
    "prefecture": "北海道",
    "prefecture_kana": "ホッカイドウ",
    "prefecture_code": "1",
    "city": "札幌市中央区",
    "city_kana": "サッポロシチュウオウク",
    "town": "北五条西",
    "town_kana": "キタ5ジョウニシ",
    "street": null,
    "office_name": null,
    "office_name_kana": null
  },
  "0006": {
    "zip_code": "0600006",
    "prefecture": "北海道",
    "prefecture_kana": "ホッカイドウ",
    "prefecture_code": "1",
    "city": "札幌市中央区",
    "city_kana": "サッポロシチュウオウク",
    "town": "北六条西",
    "town_kana": "キタ6ジョウニシ",
    "street": null,
    "office_name": null,
    "office_name_kana": null
  },
  "0007": {
    "zip_code": "0600007",
    "prefecture": "北海道",
    "prefecture_kana": "ホッカイドウ",
    "prefecture_code": "1",
    "city": "札幌市中央区",
    "city_kana": "サッポロシチュウオウク",
    "town": "北七条西",
    "town_kana": "キタ7ジョウニシ",
    "street": null,
    "office_name": null,
    "office_name_kana": null
  },
  "0008": {
    "zip_code": "0600008",
    "prefecture": "北海道",
    "prefecture_kana": "ホッカイドウ",
    "prefecture_code": "1",
    "city": "札幌市中央区",
    "city_kana": "サッポロシチュウオウク",
    "town": "北八条西",
    "town_kana": "キタ8ジョウニシ",
    "street": null,
    "office_name": null,
    "office_name_kana": null
  },
  "0009": {
    "zip_code": "0600009",
    "prefecture": "北海道",
    "prefecture_kana": "ホッカイドウ",
    "prefecture_code": "1",
    "city": "札幌市中央区",
    "city_kana": "サッポロシチュウオウク",
    "town": "北九条西",
    "town_kana": "キタ9ジョウニシ",
    "street": null,
    "office_name": null,
    "office_name_kana": null
  },
  "0010": {
    "zip_code": "0600010",
    "prefecture": "北海道",
    "prefecture_kana": "ホッカイドウ",
    "prefecture_code": "1",
    "city": "札幌市中央区",
    "city_kana": "サッポロシチュウオウク",
    "town": "北十条西",
    "town_kana": "キタ10ジョウニシ",
    "street": null,
    "office_name": null,
    "office_name_kana": null
  },
  "0011": {
    "zip_code": "0600011",
    "prefecture": "北海道",
    "prefecture_kana": "ホッカイドウ",
    "prefecture_code": "1",
    "city": "札幌市中央区",
    "city_kana": "サッポロシチュウオウク",
    "town": "北十一条西",
    "town_kana": "キタ11ジョウニシ",
    "street": null,
    "office_name": null,
    "office_name_kana": null
  },
  "0012": {
    "zip_code": "0600012",
    "prefecture": "北海道",
    "prefecture_kana": "ホッカイドウ",
    "prefecture_code": "1",
    "city": "札幌市中央区",
    "city_kana": "サッポロシチュウオウク",
    "town": "北十二条西",
    "town_kana": "キタ12ジョウニシ",
    "street": null,
    "office_name": null,
    "office_name_kana": null
  },
  "0013": {
    "zip_code": "0600013",
    "prefecture": "北海道",
    "prefecture_kana": "ホッカイドウ",
    "prefecture_code": "1",
    "city": "札幌市中央区",
    "city_kana": "サッポロシチュウオウク",
    "town": "北十三条西",
    "town_kana": "キタ13ジョウニシ",
    "street": null,
    "office_name": null,
    "office_name_kana": null
  },
  "0014": {
    "zip_code": "0600014",
    "prefecture": "北海道",
    "prefecture_kana": "ホッカイドウ",
    "prefecture_code": "1",
    "city": "札幌市中央区",
    "city_kana": "サッポロシチュウオウク",
    "town": "北十四条西",
    "town_kana": "キタ14ジョウニシ",
    "street": null,
    "office_name": null,
    "office_name_kana": null
  },
  "0015": {
    "zip_code": "0600015",
    "prefecture": "北海道",
    "prefecture_kana": "ホッカイドウ",
    "prefecture_code": "1",
    "city": "札幌市中央区",
    "city_kana": "サッポロシチュウオウク",
    "town": "北十五条西",
    "town_kana": "キタ15ジョウニシ",
    "street": null,
    "office_name": null,
    "office_name_kana": null
  },
  "0016": {
    "zip_code": "0600016",
    "prefecture": "北海道",
    "prefecture_kana": "ホッカイドウ",
    "prefecture_code": "1",
    "city": "札幌市中央区",
    "city_kana": "サッポロシチュウオウク",
    "town": "北十六条西",
    "town_kana": "キタ16ジョウニシ",
    "street": null,
    "office_name": null,
    "office_name_kana": null
  },
  "0017": {
    "zip_code": "0600017",
    "prefecture": "北海道",
    "prefecture_kana": "ホッカイドウ",
    "prefecture_code": "1",
    "city": "札幌市中央区",
    "city_kana": "サッポロシチュウオウク",
    "town": "北十七条西",
    "town_kana": "キタ17ジョウニシ",
    "street": null,
    "office_name": null,
    "office_name_kana": null
  },
  "0018": {
    "zip_code": "0600018",
    "prefecture": "北海道",
    "prefecture_kana": "ホッカイドウ",
    "prefecture_code": "1",
    "city": "札幌市中央区",
    "city_kana": "サッポロシチュウオウク",
    "town": "北十八条西",
    "town_kana": "キタ18ジョウニシ",
    "street": null,
    "office_name": null,
    "office_name_kana": null
  },
  "0020": {
    "zip_code": "0600020",
    "prefecture": "北海道",
    "prefecture_kana": "ホッカイドウ",
    "prefecture_code": "1",
    "city": "札幌市中央区",
    "city_kana": "サッポロシチュウオウク",
    "town": "北二十条西",
    "town_kana": "キタ20ジョウニシ",
    "street": null,
    "office_name": null,
    "office_name_kana": null
  },
  "0021": {
    "zip_code": "0600021",
    "prefecture": "北海道",
    "prefecture_kana": "ホッカイドウ",
    "prefecture_code": "1",
    "city": "札幌市中央区",
    "city_kana": "サッポロシチュウオウク",
    "town": "北二十一条西",
    "town_kana": "キタ21ジョウニシ",
    "street": null,
    "office_name": null,
    "office_name_kana": null
  },
  "0022": {
    "zip_code": "0600022",
    "prefecture": "北海道",
    "prefecture_kana": "ホッカイドウ",
    "prefecture_code": "1",
    "city": "札幌市中央区",
    "city_kana": "サッポロシチュウオウク",
    "town": "北二十二条西",
    "town_kana": "キタ22ジョウニシ",
    "street": null,
    "office_name": null,
    "office_name_kana": null
  },
  "0031": {
    "zip_code": "0600031",
    "prefecture": "北海道",
    "prefecture_kana": "ホッカイドウ",
    "prefecture_code": "1",
    "city": "札幌市中央区",
    "city_kana": "サッポロシチュウオウク",
    "town": "北一条東",
    "town_kana": "キタ1ジョウヒガシ",
    "street": null,
    "office_name": null,
    "office_name_kana": null
  },
  "0032": {
    "zip_code": "0600032",
    "prefecture": "北海道",
    "prefecture_kana": "ホッカイドウ",
    "prefecture_code": "1",
    "city": "札幌市中央区",
    "city_kana": "サッポロシチュウオウク",
    "town": "北二条東",
    "town_kana": "キタ2ジョウヒガシ",
    "street": null,
    "office_name": null,
    "office_name_kana": null
  },
  "0033": {
    "zip_code": "0600033",
    "prefecture": "北海道",
    "prefecture_kana": "ホッカイドウ",
    "prefecture_code": "1",
    "city": "札幌市中央区",
    "city_kana": "サッポロシチュウオウク",
    "town": "北三条東",
    "town_kana": "キタ3ジョウヒガシ",
    "street": null,
    "office_name": null,
    "office_name_kana": null
  },
  "0034": {
    "zip_code": "0600034",
    "prefecture": "北海道",
    "prefecture_kana": "ホッカイドウ",
    "prefecture_code": "1",
    "city": "札幌市中央区",
    "city_kana": "サッポロシチュウオウク",
    "town": "北四条東",
    "town_kana": "キタ4ジョウヒガシ",
    "street": null,
    "office_name": null,
    "office_name_kana": null
  },
  "0035": {
    "zip_code": "0600035",
    "prefecture": "北海道",
    "prefecture_kana": "ホッカイドウ",
    "prefecture_code": "1",
    "city": "札幌市中央区",
    "city_kana": "サッポロシチュウオウク",
    "town": "北五条東",
    "town_kana": "キタ5ジョウヒガシ",
    "street": null,
    "office_name": null,
    "office_name_kana": null
  },
  "0041": {
    "zip_code": "0600041",
    "prefecture": "北海道",
    "prefecture_kana": "ホッカイドウ",
    "prefecture_code": "1",
    "city": "札幌市中央区",
    "city_kana": "サッポロシチュウオウク",
    "town": "大通東",
    "town_kana": "オオドオリヒガシ",
    "street": null,
    "office_name": null,
    "office_name_kana": null
  },
  "0042": {
    "zip_code": "0600042",
    "prefecture": "北海道",
    "prefecture_kana": "ホッカイドウ",
    "prefecture_code": "1",
    "city": "札幌市中央区",
    "city_kana": "サッポロシチュウオウク",
    "town": "大通西",
    "town_kana": "オオドオリニシ",
    "street": null,
    "office_name": null,
    "office_name_kana": null
  },
  "0051": {
    "zip_code": "0600051",
    "prefecture": "北海道",
    "prefecture_kana": "ホッカイドウ",
    "prefecture_code": "1",
    "city": "札幌市中央区",
    "city_kana": "サッポロシチュウオウク",
    "town": "南一条東",
    "town_kana": "ミナミ1ジョウヒガシ",
    "street": null,
    "office_name": null,
    "office_name_kana": null
  },
  "0052": {
    "zip_code": "0600052",
    "prefecture": "北海道",
    "prefecture_kana": "ホッカイドウ",
    "prefecture_code": "1",
    "city": "札幌市中央区",
    "city_kana": "サッポロシチュウオウク",
    "town": "南二条東",
    "town_kana": "ミナミ2ジョウヒガシ",
    "street": null,
    "office_name": null,
    "office_name_kana": null
  },
  "0053": {
    "zip_code": "0600053",
    "prefecture": "北海道",
    "prefecture_kana": "ホッカイドウ",
    "prefecture_code": "1",
    "city": "札幌市中央区",
    "city_kana": "サッポロシチュウオウク",
    "town": "南三条東",
    "town_kana": "ミナミ3ジョウヒガシ",
    "street": null,
    "office_name": null,
    "office_name_kana": null
  },
  "0054": {
    "zip_code": "0600054",
    "prefecture": "北海道",
    "prefecture_kana": "ホッカイドウ",
    "prefecture_code": "1",
    "city": "札幌市中央区",
    "city_kana": "サッポロシチュウオウク",
    "town": "南四条東",
    "town_kana": "ミナミ4ジョウヒガシ",
    "street": null,
    "office_name": null,
    "office_name_kana": null
  },
  "0055": {
    "zip_code": "0600055",
    "prefecture": "北海道",
    "prefecture_kana": "ホッカイドウ",
    "prefecture_code": "1",
    "city": "札幌市中央区",
    "city_kana": "サッポロシチュウオウク",
    "town": "南五条東",
    "town_kana": "ミナミ5ジョウヒガシ",
    "street": null,
    "office_name": null,
    "office_name_kana": null
  },
  "0056": {
    "zip_code": "0600056",
    "prefecture": "北海道",
    "prefecture_kana": "ホッカイドウ",
    "prefecture_code": "1",
    "city": "札幌市中央区",
    "city_kana": "サッポロシチュウオウク",
    "town": "南六条東",
    "town_kana": "ミナミ6ジョウヒガシ",
    "street": null,
    "office_name": null,
    "office_name_kana": null
  },
  "0057": {
    "zip_code": "0600057",
    "prefecture": "北海道",
    "prefecture_kana": "ホッカイドウ",
    "prefecture_code": "1",
    "city": "札幌市中央区",
    "city_kana": "サッポロシチュウオウク",
    "town": "南七条東",
    "town_kana": "ミナミ7ジョウヒガシ",
    "street": null,
    "office_name": null,
    "office_name_kana": null
  },
  "0061": {
    "zip_code": "0600061",
    "prefecture": "北海道",
    "prefecture_kana": "ホッカイドウ",
    "prefecture_code": "1",
    "city": "札幌市中央区",
    "city_kana": "サッポロシチュウオウク",
    "town": "南一条西",
    "town_kana": "ミナミ1ジョウニシ",
    "street": null,
    "office_name": null,
    "office_name_kana": null
  },
  "0062": {
    "zip_code": "0600062",
    "prefecture": "北海道",
    "prefecture_kana": "ホッカイドウ",
    "prefecture_code": "1",
    "city": "札幌市中央区",
    "city_kana": "サッポロシチュウオウク",
    "town": "南二条西",
    "town_kana": "ミナミ2ジョウニシ",
    "street": null,
    "office_name": null,
    "office_name_kana": null
  },
  "0063": {
    "zip_code": "0600063",
    "prefecture": "北海道",
    "prefecture_kana": "ホッカイドウ",
    "prefecture_code": "1",
    "city": "札幌市中央区",
    "city_kana": "サッポロシチュウオウク",
    "town": "南三条西",
    "town_kana": "ミナミ3ジョウニシ",
    "street": null,
    "office_name": null,
    "office_name_kana": null
  },
  "0806": {
    "zip_code": "0600806",
    "prefecture": "北海道",
    "prefecture_kana": "ホッカイドウ",
    "prefecture_code": "1",
    "city": "札幌市北区",
    "city_kana": "サッポロシキタク",
    "town": "北六条西",
    "town_kana": "キタ6ジョウニシ",
    "street": null,
    "office_name": null,
    "office_name_kana": null
  },
  "0807": {
    "zip_code": "0600807",
    "prefecture": "北海道",
    "prefecture_kana": "ホッカイドウ",
    "prefecture_code": "1",
    "city": "札幌市北区",
    "city_kana": "サッポロシキタク",
    "town": "北七条西",
    "town_kana": "キタ7ジョウニシ",
    "street": null,
    "office_name": null,
    "office_name_kana": null
  },
  "0808": {
    "zip_code": "0600808",
    "prefecture": "北海道",
    "prefecture_kana": "ホッカイドウ",
    "prefecture_code": "1",
    "city": "札幌市北区",
    "city_kana": "サッポロシキタク",
    "town": "北八条西",
    "town_kana": "キタ8ジョウニシ",
    "street": null,
    "office_name": null,
    "office_name_kana": null
  },
  "0809": {
    "zip_code": "0600809",
    "prefecture": "北海道",
    "prefecture_kana": "ホッカイドウ",
    "prefecture_code": "1",
    "city": "札幌市北区",
    "city_kana": "サッポロシキタク",
    "town": "北九条西",
    "town_kana": "キタ9ジョウニシ",
    "street": null,
    "office_name": null,
    "office_name_kana": null
  },
  "0810": {
    "zip_code": "0600810",
    "prefecture": "北海道",
    "prefecture_kana": "ホッカイドウ",
    "prefecture_code": "1",
    "city": "札幌市北区",
    "city_kana": "サッポロシキタク",
    "town": "北十条西",
    "town_kana": "キタ10ジョウニシ",
    "street": null,
    "office_name": null,
    "office_name_kana": null
  },
  "0811": {
    "zip_code": "0600811",
    "prefecture": "北海道",
    "prefecture_kana": "ホッカイドウ",
    "prefecture_code": "1",
    "city": "札幌市北区",
    "city_kana": "サッポロシキタク",
    "town": "北十一条西",
    "town_kana": "キタ11ジョウニシ",
    "street": null,
    "office_name": null,
    "office_name_kana": null
  },
  "0812": {
    "zip_code": "0600812",
    "prefecture": "北海道",
    "prefecture_kana": "ホッカイドウ",
    "prefecture_code": "1",
    "city": "札幌市北区",
    "city_kana": "サッポロシキタク",
    "town": "北十二条西",
    "town_kana": "キタ12ジョウニシ",
    "street": null,
    "office_name": null,
    "office_name_kana": null
  },
  "0813": {
    "zip_code": "0600813",
    "prefecture": "北海道",
    "prefecture_kana": "ホッカイドウ",
    "prefecture_code": "1",
    "city": "札幌市北区",
    "city_kana": "サッポロシキタク",
    "town": "北十三条西",
    "town_kana": "キタ13ジョウニシ",
    "street": null,
    "office_name": null,
    "office_name_kana": null
  },
  "0814": {
    "zip_code": "0600814",
    "prefecture": "北海道",
    "prefecture_kana": "ホッカイドウ",
    "prefecture_code": "1",
    "city": "札幌市北区",
    "city_kana": "サッポロシキタク",
    "town": "北十四条西",
    "town_kana": "キタ14ジョウニシ",
    "street": null,
    "office_name": null,
    "office_name_kana": null
  },
  "0815": {
    "zip_code": "0600815",
    "prefecture": "北海道",
    "prefecture_kana": "ホッカイドウ",
    "prefecture_code": "1",
    "city": "札幌市北区",
    "city_kana": "サッポロシキタク",
    "town": "北十五条西",
    "town_kana": "キタ15ジョウニシ",
    "street": null,
    "office_name": null,
    "office_name_kana": null
  },
  "0816": {
    "zip_code": "0600816",
    "prefecture": "北海道",
    "prefecture_kana": "ホッカイドウ",
    "prefecture_code": "1",
    "city": "札幌市北区",
    "city_kana": "サッポロシキタク",
    "town": "北十六条西",
    "town_kana": "キタ16ジョウニシ",
    "street": null,
    "office_name": null,
    "office_name_kana": null
  },
  "0817": {
    "zip_code": "0600817",
    "prefecture": "北海道",
    "prefecture_kana": "ホッカイドウ",
    "prefecture_code": "1",
    "city": "札幌市北区",
    "city_kana": "サッポロシキタク",
    "town": "北十七条西",
    "town_kana": "キタ17ジョウニシ",
    "street": null,
    "office_name": null,
    "office_name_kana": null
  },
  "0818": {
    "zip_code": "0600818",
    "prefecture": "北海道",
    "prefecture_kana": "ホッカイドウ",
    "prefecture_code": "1",
    "city": "札幌市北区",
    "city_kana": "サッポロシキタク",
    "town": "北十八条西",
    "town_kana": "キタ18ジョウニシ",
    "street": null,
    "office_name": null,
    "office_name_kana": null
  },
  "0819": {
    "zip_code": "0600819",
    "prefecture": "北海道",
    "prefecture_kana": "ホッカイドウ",
    "prefecture_code": "1",
    "city": "札幌市北区",
    "city_kana": "サッポロシキタク",
    "town": "北十九条西",
    "town_kana": "キタ19ジョウニシ",
    "street": null,
    "office_name": null,
    "office_name_kana": null
  },
  "0820": {
    "zip_code": "0600820",
    "prefecture": "北海道",
    "prefecture_kana": "ホッカイドウ",
    "prefecture_code": "1",
    "city": "札幌市北区",
    "city_kana": "サッポロシキタク",
    "town": "北二十条西",
    "town_kana": "キタ20ジョウニシ",
    "street": null,
    "office_name": null,
    "office_name_kana": null
  },
  "0905": {
    "zip_code": "0600905",
    "prefecture": "北海道",
    "prefecture_kana": "ホッカイドウ",
    "prefecture_code": "1",
    "city": "札幌市東区",
    "city_kana": "サッポロシヒガシク",
    "town": "北五条東",
    "town_kana": "キタ5ジョウヒガシ",
    "street": null,
    "office_name": null,
    "office_name_kana": null
  },
  "0906": {
    "zip_code": "0600906",
    "prefecture": "北海道",
    "prefecture_kana": "ホッカイドウ",
    "prefecture_code": "1",
    "city": "札幌市東区",
    "city_kana": "サッポロシヒガシク",
    "town": "北六条東",
    "town_kana": "キタ6ジョウヒガシ",
    "street": null,
    "office_name": null,
    "office_name_kana": null
  },
  "0907": {
    "zip_code": "0600907",
    "prefecture": "北海道",
    "prefecture_kana": "ホッカイドウ",
    "prefecture_code": "1",
    "city": "札幌市東区",
    "city_kana": "サッポロシヒガシク",
    "town": "北七条東",
    "town_kana": "キタ7ジョウヒガシ",
    "street": null,
    "office_name": null,
    "office_name_kana": null
  },
  "0908": {
    "zip_code": "0600908",
    "prefecture": "北海道",
    "prefecture_kana": "ホッカイドウ",
    "prefecture_code": "1",
    "city": "札幌市東区",
    "city_kana": "サッポロシヒガシク",
    "town": "北八条東",
    "town_kana": "キタ8ジョウヒガシ",
    "street": null,
    "office_name": null,
    "office_name_kana": null
  },
  "0909": {
    "zip_code": "0600909",
    "prefecture": "北海道",
    "prefecture_kana": "ホッカイドウ",
    "prefecture_code": "1",
    "city": "札幌市東区",
    "city_kana": "サッポロシヒガシク",
    "town": "北九条東",
    "town_kana": "キタ9ジョウヒガシ",
    "street": null,
    "office_name": null,
    "office_name_kana": null
  },
  "8501": {
    "zip_code": "0608501",
    "prefecture": "北海道",
    "prefecture_kana": "ホッカイドウ",
    "prefecture_code": "1",
    "city": "札幌市中央区",
    "city_kana": "サッポロシチュウオウク",
    "town": "北一条西",
    "town_kana": "キタ1ジョウニシ",
    "street": "５丁目",
    "office_name": "北海道放送　株式会社　（ＨＢＣ）",
    "office_name_kana": "ホツカイドウホウソウ カブシキガイシヤ (エイチビ-シ-)"
  },
  "8502": {
    "zip_code": "0608502",
    "prefecture": "北海道",
    "prefecture_kana": "ホッカイドウ",
    "prefecture_code": "1",
    "city": "札幌市中央区",
    "city_kana": "サッポロシチュウオウク",
    "town": "南一条西",
    "town_kana": "ミナミ1ジョウニシ",
    "street": "３丁目",
    "office_name": "株式会社　パルコ　札幌店",
    "office_name_kana": "カブシキガイシヤ パルコ サツポロテン"
  },
  "8503": {
    "zip_code": "0608503",
    "prefecture": "北海道",
    "prefecture_kana": "ホッカイドウ",
    "prefecture_code": "1",
    "city": "札幌市中央区",
    "city_kana": "サッポロシチュウオウク",
    "town": "北五条西",
    "town_kana": "キタ5ジョウニシ",
    "street": "２丁目ＪＲタワーオフィスプラザさっぽろ８Ｆ",
    "office_name": "メディカルプラザ札幌",
    "office_name_kana": "メデイカルプラザサツポロ"
  },
  "8504": {
    "zip_code": "0608504",
    "prefecture": "北海道",
    "prefecture_kana": null,
    "prefecture_code": null,
    "city": "札幌市中央区",
    "city_kana": null,
    "town": "北２条西",
    "town_kana": null,
    "street": "４丁目１番地札幌三井ＪＰビルディング",
    "office_name": "富士通　株式会社　北海道支社",
    "office_name_kana": "フジツウ カブシキガイシヤ ホツカイドウシシヤ"
  },
  "8505": {
    "zip_code": "0608505",
    "prefecture": "北海道",
    "prefecture_kana": "ホッカイドウ",
    "prefecture_code": "1",
    "city": "札幌市中央区",
    "city_kana": "サッポロシチュウオウク",
    "town": "北十二条西",
    "town_kana": "キタ12ジョウニシ",
    "street": "２０丁目２番１号",
    "office_name": "丸水札幌中央水産　（株）",
    "office_name_kana": "マルスイサツポロチユウオウスイサン カブシキガイシヤ"
  },
  "8506": {
    "zip_code": "0608506",
    "prefecture": "北海道",
    "prefecture_kana": "ホッカイドウ",
    "prefecture_code": "1",
    "city": "札幌市中央区",
    "city_kana": "サッポロシチュウオウク",
    "town": "北二条西",
    "town_kana": "キタ2ジョウニシ",
    "street": "１９丁目",
    "office_name": "北海道開発局　札幌開発建設部",
    "office_name_kana": "ホツカイドウカイハツキヨク サツポロカイハツケンセツブ"
  },
  "8508": {
    "zip_code": "0608508",
    "prefecture": "北海道",
    "prefecture_kana": "ホッカイドウ",
    "prefecture_code": "1",
    "city": "札幌市中央区",
    "city_kana": "サッポロシチュウオウク",
    "town": "南二条西",
    "town_kana": "ミナミ2ジョウニシ",
    "street": "２丁目１３番地",
    "office_name": "株式会社　ニッセンレンエスコート",
    "office_name_kana": "カブシキカイシヤ ニツセンレンエスコ-ト"
  },
  "8511": {
    "zip_code": "0608511",
    "prefecture": "北海道",
    "prefecture_kana": "ホッカイドウ",
    "prefecture_code": "1",
    "city": "札幌市北区",
    "city_kana": "サッポロシキタク",
    "town": "北八条西",
    "town_kana": "キタ8ジョウニシ",
    "street": "２丁目札幌第一合同庁舎",
    "office_name": "北海道開発局",
    "office_name_kana": "ホツカイドウカイハツキヨク"
  },
  "8512": [
    {
      "zip_code": "0608512",
      "prefecture": "北海道",
      "prefecture_kana": "ホッカイドウ",
      "prefecture_code": "1",
      "city": "札幌市中央区",
      "city_kana": "サッポロシチュウオウク",
      "town": "南一条西",
      "town_kana": "ミナミ1ジョウニシ",
      "street": "１２丁目４番地扶洋第一ビル",
      "office_name": "（株）　ソワン・エフ",
      "office_name_kana": "カブシキガイシヤ ソワン・エフ"
    },
    {
      "zip_code": "0608512",
      "prefecture": "北海道",
      "prefecture_kana": "ホッカイドウ",
      "prefecture_code": "1",
      "city": "札幌市中央区",
      "city_kana": "サッポロシチュウオウク",
      "town": "南一条西",
      "town_kana": "ミナミ1ジョウニシ",
      "street": "１２丁目４番地扶洋第一ビル",
      "office_name": "株式会社　フヨウサキナ",
      "office_name_kana": "カブシキガイシヤ フヨウサキナ"
    },
    {
      "zip_code": "0608512",
      "prefecture": "北海道",
      "prefecture_kana": "ホッカイドウ",
      "prefecture_code": "1",
      "city": "札幌市中央区",
      "city_kana": "サッポロシチュウオウク",
      "town": "南一条西",
      "town_kana": "ミナミ1ジョウニシ",
      "street": "１２丁目４番地扶洋第一ビル",
      "office_name": "扶洋エステート　（株）",
      "office_name_kana": "フヨウエステ-ト カブシキガイシヤ"
    },
    {
      "zip_code": "0608512",
      "prefecture": "北海道",
      "prefecture_kana": "ホッカイドウ",
      "prefecture_code": "1",
      "city": "札幌市中央区",
      "city_kana": "サッポロシチュウオウク",
      "town": "南一条西",
      "town_kana": "ミナミ1ジョウニシ",
      "street": "１２丁目４番地扶洋第一ビル",
      "office_name": "扶洋マネージメントサービス　（株）",
      "office_name_kana": "フヨウマネ-ジメントサ-ビス カブシキガイシヤ"
    },
    {
      "zip_code": "0608512",
      "prefecture": "北海道",
      "prefecture_kana": "ホッカイドウ",
      "prefecture_code": "1",
      "city": "札幌市中央区",
      "city_kana": "サッポロシチュウオウク",
      "town": "南一条西",
      "town_kana": "ミナミ1ジョウニシ",
      "street": "１２丁目４番地扶洋第一ビル",
      "office_name": "扶洋薬品　株式会社",
      "office_name_kana": "フヨウヤクヒン カブシキガイシヤ"
    }
  ],
  "8513": {
    "zip_code": "0608513",
    "prefecture": "北海道",
    "prefecture_kana": "ホッカイドウ",
    "prefecture_code": "1",
    "city": "札幌市中央区",
    "city_kana": "サッポロシチュウオウク",
    "town": "南二条西",
    "town_kana": "ミナミ2ジョウニシ",
    "street": "２丁目１２",
    "office_name": "札幌中央信用組合",
    "office_name_kana": "サツポロチユウオウシンヨウクミアイ"
  },
  "8515": {
    "zip_code": "0608515",
    "prefecture": "北海道",
    "prefecture_kana": "ホッカイドウ",
    "prefecture_code": "1",
    "city": "札幌市中央区",
    "city_kana": "サッポロシチュウオウク",
    "town": "北一条西",
    "town_kana": "キタ1ジョウニシ",
    "street": "７丁目３北１条第一生命ビルディング２Ｆ",
    "office_name": "株式会社　東急コミュニティー　北海道支店",
    "office_name_kana": "カブシキガイシヤ トウキユウコミユニテイ- ホツカイドウシテン"
  },
  "8516": {
    "zip_code": "0608516",
    "prefecture": "北海道",
    "prefecture_kana": "ホッカイドウ",
    "prefecture_code": "1",
    "city": "札幌市中央区",
    "city_kana": "サッポロシチュウオウク",
    "town": "北一条西",
    "town_kana": "キタ1ジョウニシ",
    "street": "７丁目５番",
    "office_name": "新日本法規出版　（株）　札幌支社",
    "office_name_kana": "シンニホンホウキシユツパン カブシキガイシヤ サツポロシシヤ"
  },
  "8517": {
    "zip_code": "0608517",
    "prefecture": "北海道",
    "prefecture_kana": "ホッカイドウ",
    "prefecture_code": "1",
    "city": "札幌市中央区",
    "city_kana": "サッポロシチュウオウク",
    "town": "大通東",
    "town_kana": "オオドオリヒガシ",
    "street": "６丁目１２",
    "office_name": "株式会社　テレビ北海道　（ＴＶｈ）",
    "office_name_kana": "カブシキガイシヤ テレビホツカイドウ (テイブイエイチ)"
  },
  "8518": {
    "zip_code": "0608518",
    "prefecture": "北海道",
    "prefecture_kana": "ホッカイドウ",
    "prefecture_code": "1",
    "city": "札幌市中央区",
    "city_kana": "サッポロシチュウオウク",
    "town": "北五条西",
    "town_kana": "キタ5ジョウニシ",
    "street": "６丁目道通ビル",
    "office_name": "（社）　北海道退職公務員連盟開発局　退職者支部",
    "office_name_kana": "シヤダンホウジン ホツカイドウタイシヨクコウムインレンメイカイハツキヨク タイシヨクシヤシブ"
  },
  "8519": {
    "zip_code": "0608519",
    "prefecture": "北海道",
    "prefecture_kana": "ホッカイドウ",
    "prefecture_code": "1",
    "city": "札幌市中央区",
    "city_kana": "サッポロシチュウオウク",
    "town": "北一条西",
    "town_kana": "キタ1ジョウニシ",
    "street": "４丁目２番地４ＮＴＴ大通４丁目ビル",
    "office_name": "東日本電信電話　株式会社　北海道支店",
    "office_name_kana": "ヒガシニホンデンシンデンワ カブシキカイシヤ ホツカイドウシテン"
  },
  "8520": {
    "zip_code": "0608520",
    "prefecture": "北海道",
    "prefecture_kana": "ホッカイドウ",
    "prefecture_code": "1",
    "city": "札幌市中央区",
    "city_kana": "サッポロシチュウオウク",
    "town": "北二条西",
    "town_kana": "キタ2ジョウニシ",
    "street": "７丁目",
    "office_name": "北海道警察本部",
    "office_name_kana": "ホツカイドウケイサツホンブ"
  },
  "8521": {
    "zip_code": "0608521",
    "prefecture": "北海道",
    "prefecture_kana": "ホッカイドウ",
    "prefecture_code": "1",
    "city": "札幌市中央区",
    "city_kana": "サッポロシチュウオウク",
    "town": "北三条東",
    "town_kana": "キタ3ジョウヒガシ",
    "street": "３丁目１−３０",
    "office_name": "株式会社　北海道日刊スポーツ新聞社",
    "office_name_kana": "カブシキカイシヤ ホツカイドウニツカンスポ-ツシンブンシヤ"
  },
  "8522": {
    "zip_code": "0608522",
    "prefecture": "北海道",
    "prefecture_kana": "ホッカイドウ",
    "prefecture_code": "1",
    "city": "札幌市中央区",
    "city_kana": "サッポロシチュウオウク",
    "town": "北三条西",
    "town_kana": "キタ3ジョウニシ",
    "street": "４丁目１−１日本生命札幌ビル２２Ｆ",
    "office_name": "キヤノンマーケティングジャパン　株式会社　札幌支店",
    "office_name_kana": "キヤノンマ-ケテイングジヤパン カブシキガイシヤ サツポロシテン"
  },
  "8523": {
    "zip_code": "0608523",
    "prefecture": "北海道",
    "prefecture_kana": "ホッカイドウ",
    "prefecture_code": "1",
    "city": "札幌市中央区",
    "city_kana": "サッポロシチュウオウク",
    "town": "大通西",
    "town_kana": "オオドオリニシ",
    "street": "１７丁目１番地２３",
    "office_name": "札幌日産自動車　株式会社",
    "office_name_kana": "サツポロニツサンジドウシヤ カブシキガイシヤ"
  },
  "8524": {
    "zip_code": "0608524",
    "prefecture": "北海道",
    "prefecture_kana": "ホッカイドウ",
    "prefecture_code": "1",
    "city": "札幌市北区",
    "city_kana": "サッポロシキタク",
    "town": "北七条西",
    "town_kana": "キタ7ジョウニシ",
    "street": "４丁目３番地１新北海道ビル",
    "office_name": "全国健康保険協会　北海道支部",
    "office_name_kana": "ゼンコクケンコウホケンキヨウカイ ホツカイドウシブ"
  },
  "8525": {
    "zip_code": "0608525",
    "prefecture": "北海道",
    "prefecture_kana": "ホッカイドウ",
    "prefecture_code": "1",
    "city": "札幌市中央区",
    "city_kana": "サッポロシチュウオウク",
    "town": "北三条西",
    "town_kana": "キタ3ジョウニシ",
    "street": "１５丁目１−５０",
    "office_name": "株式会社　モロオ",
    "office_name_kana": "カブシキガイシヤ モロオ"
  },
  "8526": {
    "zip_code": "0608526",
    "prefecture": "北海道",
    "prefecture_kana": "ホッカイドウ",
    "prefecture_code": "1",
    "city": "札幌市中央区",
    "city_kana": "サッポロシチュウオウク",
    "town": "北四条西",
    "town_kana": "キタ4ジョウニシ",
    "street": "５丁目三井生命札幌共同ビル７Ｆ",
    "office_name": "札幌公共職業安定所　札幌わかものハローワーク",
    "office_name_kana": "サツポロコウキヨウシヨクギヨウアンテイシヨ サツポロワカモノハロ-ワ-ク"
  },
  "8527": {
    "zip_code": "0608527",
    "prefecture": "北海道",
    "prefecture_kana": "ホッカイドウ",
    "prefecture_code": "1",
    "city": "札幌市中央区",
    "city_kana": "サッポロシチュウオウク",
    "town": "北一条西",
    "town_kana": "キタ1ジョウニシ",
    "street": "１４丁目",
    "office_name": "北海道文化放送　株式会社　（ＵＨＢ）",
    "office_name_kana": "ホツカイドウブンカホウソウ カブシキガイシヤ (ユ-エイチビ-)"
  },
  "8528": {
    "zip_code": "0608528",
    "prefecture": "北海道",
    "prefecture_kana": "ホッカイドウ",
    "prefecture_code": "1",
    "city": "札幌市中央区",
    "city_kana": "サッポロシチュウオウク",
    "town": "南二条東",
    "town_kana": "ミナミ2ジョウヒガシ",
    "street": "１丁目１−１４住友生命札幌中央ビル９Ｆ",
    "office_name": "住友生命保険　相互会社　札幌支社",
    "office_name_kana": "スミトモセイメイホケン ソウゴカイシヤ サツポロシシヤ"
  },
  "8529": {
    "zip_code": "0608529",
    "prefecture": "北海道",
    "prefecture_kana": "ホッカイドウ",
    "prefecture_code": "1",
    "city": "札幌市中央区",
    "city_kana": "サッポロシチュウオウク",
    "town": "北一条西",
    "town_kana": "キタ1ジョウニシ",
    "street": "５丁目２番地北１条三井ビルディング３Ｆ",
    "office_name": "日本製粉　（株）　札幌支店",
    "office_name_kana": "ニホンセイフン カブシキガイシヤ サツポロシテン"
  },
  "8530": {
    "zip_code": "0608530",
    "prefecture": "北海道",
    "prefecture_kana": "ホッカイドウ",
    "prefecture_code": "1",
    "city": "札幌市中央区",
    "city_kana": "サッポロシチュウオウク",
    "town": "大通西",
    "town_kana": "オオドオリニシ",
    "street": "７丁目３−１",
    "office_name": "北海道瓦斯　株式会社",
    "office_name_kana": "ホツカイドウガス カブシキガイシヤ"
  },
  "8531": {
    "zip_code": "0608531",
    "prefecture": "北海道",
    "prefecture_kana": "ホッカイドウ",
    "prefecture_code": "1",
    "city": "札幌市中央区",
    "city_kana": "サッポロシチュウオウク",
    "town": "大通西",
    "town_kana": "オオドオリニシ",
    "street": "３丁目７番地北洋大通センター１５Ｆ〜１７Ｆ",
    "office_name": "東京海上日動火災保険　株式会社",
    "office_name_kana": "トウキヨウカイジヨウニチドウカサイホケン カブシキガイシヤ"
  },
  "8532": {
    "zip_code": "0608532",
    "prefecture": "北海道",
    "prefecture_kana": "ホッカイドウ",
    "prefecture_code": "1",
    "city": "札幌市中央区",
    "city_kana": "サッポロシチュウオウク",
    "town": "北一条西",
    "town_kana": "キタ1ジョウニシ",
    "street": "２丁目１番地札幌時計台ビル",
    "office_name": "（株）　エフエム北海道",
    "office_name_kana": "カブシキガイシヤ エフエムホツカイドウ"
  },
  "8533": {
    "zip_code": "0608533",
    "prefecture": "北海道",
    "prefecture_kana": "ホッカイドウ",
    "prefecture_code": "1",
    "city": "札幌市中央区",
    "city_kana": "サッポロシチュウオウク",
    "town": "北十一条西",
    "town_kana": "キタ11ジョウニシ",
    "street": "１９丁目３６番３５号",
    "office_name": "株式会社　スズケン",
    "office_name_kana": "カブシキガイシヤ スズケン"
  },
  "8534": {
    "zip_code": "0608534",
    "prefecture": "北海道",
    "prefecture_kana": "ホッカイドウ",
    "prefecture_code": "1",
    "city": "札幌市中央区",
    "city_kana": "サッポロシチュウオウク",
    "town": "北二条西",
    "town_kana": "キタ2ジョウニシ",
    "street": "４丁目１番地札幌三井ＪＰビルディング７階",
    "office_name": "株式会社　かんぽ生命保険　北海道エリア本部・札幌支店・札幌ヘルプデスク",
    "office_name_kana": "カブシキガイシヤ カンポセイメイホケン ホツカイドウエリアホンブ・サツポロシテン・サツポロヘルプデスク"
  },
  "8535": {
    "zip_code": "0608535",
    "prefecture": "北海道",
    "prefecture_kana": "ホッカイドウ",
    "prefecture_code": "1",
    "city": "札幌市中央区",
    "city_kana": "サッポロシチュウオウク",
    "town": "北三条東",
    "town_kana": "キタ3ジョウヒガシ",
    "street": "２丁目２",
    "office_name": "戸田建設　株式会社　札幌支店",
    "office_name_kana": "トダケンセツ カブシキガイシヤ サツポロシテン"
  },
  "8536": {
    "zip_code": "0608536",
    "prefecture": "北海道",
    "prefecture_kana": "ホッカイドウ",
    "prefecture_code": "1",
    "city": "札幌市中央区",
    "city_kana": "サッポロシチュウオウク",
    "town": "南二条西",
    "town_kana": "ミナミ2ジョウニシ",
    "street": "９丁目１−１７",
    "office_name": "（株）　帝国データバンク　札幌支店",
    "office_name_kana": "カブシキガイシヤ テイコクデ-タバンク サツポロシテン"
  },
  "8537": {
    "zip_code": "0608537",
    "prefecture": "北海道",
    "prefecture_kana": "ホッカイドウ",
    "prefecture_code": "1",
    "city": "札幌市中央区",
    "city_kana": "サッポロシチュウオウク",
    "town": "南一条西",
    "town_kana": "ミナミ1ジョウニシ",
    "street": "４丁目２０番地",
    "office_name": "エムエムエス　マンションマネージメントサービス　（株）",
    "office_name_kana": "エムエムエス マンシヨンマネ-ジメントサ-ビス カブシキカイシヤ"
  },
  "8538": {
    "zip_code": "0608538",
    "prefecture": "北海道",
    "prefecture_kana": "ホッカイドウ",
    "prefecture_code": "1",
    "city": "札幌市中央区",
    "city_kana": "サッポロシチュウオウク",
    "town": "北三条西",
    "town_kana": "キタ3ジョウニシ",
    "street": "７丁目１緑苑ビル",
    "office_name": "北海道住宅供給公社",
    "office_name_kana": "ホツカイドウジユウタクキヨウキユウコウシヤ"
  },
  "8539": {
    "zip_code": "0608539",
    "prefecture": "北海道",
    "prefecture_kana": "ホッカイドウ",
    "prefecture_code": "1",
    "city": "札幌市中央区",
    "city_kana": "サッポロシチュウオウク",
    "town": "北一条東",
    "town_kana": "キタ1ジョウヒガシ",
    "street": "３丁目３番地",
    "office_name": "中道リース　株式会社",
    "office_name_kana": "ナカミチリ-ス カブシキガイシヤ"
  },
  "8540": {
    "zip_code": "0608540",
    "prefecture": "北海道",
    "prefecture_kana": "ホッカイドウ",
    "prefecture_code": "1",
    "city": "札幌市中央区",
    "city_kana": "サッポロシチュウオウク",
    "town": "北一条東",
    "town_kana": "キタ1ジョウヒガシ",
    "street": "９丁目９９番地１９",
    "office_name": "潮物産　株式会社",
    "office_name_kana": "ウシオブツサン カブシキガイシヤ"
  },
  "8541": {
    "zip_code": "0608541",
    "prefecture": "北海道",
    "prefecture_kana": "ホッカイドウ",
    "prefecture_code": "1",
    "city": "札幌市中央区",
    "city_kana": "サッポロシチュウオウク",
    "town": "北二条西",
    "town_kana": "キタ2ジョウニシ",
    "street": "１９丁目",
    "office_name": "北海道開発局　石狩川開発建設部",
    "office_name_kana": "ホツカイドウカイハツキヨク イシカリガワカイハツケンセツブ"
  },
  "8542": {
    "zip_code": "0608542",
    "prefecture": "北海道",
    "prefecture_kana": "ホッカイドウ",
    "prefecture_code": "1",
    "city": "札幌市中央区",
    "city_kana": "サッポロシチュウオウク",
    "town": "北四条西",
    "town_kana": "キタ4ジョウニシ",
    "street": "１５丁目１",
    "office_name": "自衛隊札幌地方協力本部",
    "office_name_kana": "ジエイタイサツポロチホウキヨウリヨクホンブ"
  },
  "8543": {
    "zip_code": "0608543",
    "prefecture": "北海道",
    "prefecture_kana": "ホッカイドウ",
    "prefecture_code": "1",
    "city": "札幌市中央区",
    "city_kana": "サッポロシチュウオウク",
    "town": "南一条西",
    "town_kana": "ミナミ1ジョウニシ",
    "street": "１６丁目２９１",
    "office_name": "札幌医科大学付属病院",
    "office_name_kana": "サツポロイカダイガクフゾクビヨウイン"
  },
  "8544": {
    "zip_code": "0608544",
    "prefecture": "北海道",
    "prefecture_kana": "ホッカイドウ",
    "prefecture_code": "1",
    "city": "札幌市中央区",
    "city_kana": "サッポロシチュウオウク",
    "town": "北三条西",
    "town_kana": "キタ3ジョウニシ",
    "street": "７丁目",
    "office_name": "北海道教育庁",
    "office_name_kana": "ホツカイドウキヨウイクチヨウ"
  },
  "8545": {
    "zip_code": "0608545",
    "prefecture": "北海道",
    "prefecture_kana": "ホッカイドウ",
    "prefecture_code": "1",
    "city": "札幌市中央区",
    "city_kana": "サッポロシチュウオウク",
    "town": "大通西",
    "town_kana": "オオドオリニシ",
    "street": "５丁目１１−１",
    "office_name": "株式会社　電通北海道",
    "office_name_kana": "カブシキガイシヤ デンツウホツカイドウ"
  },
  "8546": {
    "zip_code": "0608546",
    "prefecture": "北海道",
    "prefecture_kana": "ホッカイドウ",
    "prefecture_code": "1",
    "city": "札幌市中央区",
    "city_kana": "サッポロシチュウオウク",
    "town": "北二条東",
    "town_kana": "キタ2ジョウヒガシ",
    "street": "４丁目１番地２",
    "office_name": "サッポロ不動産開発　株式会社　北海道事業本部",
    "office_name_kana": "サツポロフドウサンカイハツ カブシキガイシヤ ホツカイドウジギヨウホンブ"
  },
  "8547": {
    "zip_code": "0608547",
    "prefecture": "北海道",
    "prefecture_kana": "ホッカイドウ",
    "prefecture_code": "1",
    "city": "札幌市中央区",
    "city_kana": "サッポロシチュウオウク",
    "town": "北三条西",
    "town_kana": "キタ3ジョウニシ",
    "street": "４丁目１番地第一生命ビル",
    "office_name": "伊藤忠商事　（株）　北海道支社",
    "office_name_kana": "イトウチユウシヨウジ カブシキガイシヤ ホツカイドウシシヤ"
  },
  "8548": {
    "zip_code": "0608548",
    "prefecture": "北海道",
    "prefecture_kana": "ホッカイドウ",
    "prefecture_code": "1",
    "city": "札幌市中央区",
    "city_kana": "サッポロシチュウオウク",
    "town": "北三条西",
    "town_kana": "キタ3ジョウニシ",
    "street": "３丁目２番地札幌北三条ビル",
    "office_name": "札幌三井不動産販売　（株）",
    "office_name_kana": "サツポロミツイフドウサンハンバイ カブシキガイシヤ"
  },
  "8549": {
    "zip_code": "0608549",
    "prefecture": "北海道",
    "prefecture_kana": "ホッカイドウ",
    "prefecture_code": "1",
    "city": "札幌市中央区",
    "city_kana": "サッポロシチュウオウク",
    "town": "北三条西",
    "town_kana": "キタ3ジョウニシ",
    "street": "７丁目",
    "office_name": "北海道教育庁　石狩教育局",
    "office_name_kana": "ホツカイドウキヨウイクチヨウ イシカリキヨウイクキヨク"
  },
  "8550": {
    "zip_code": "0608550",
    "prefecture": "北海道",
    "prefecture_kana": "ホッカイドウ",
    "prefecture_code": "1",
    "city": "札幌市北区",
    "city_kana": "サッポロシキタク",
    "town": "北七条西",
    "town_kana": "キタ7ジョウニシ",
    "street": "１丁目２−６ＮＳＳビル８Ｆ",
    "office_name": "株式会社　ホクレン商事",
    "office_name_kana": "カブシキカイシヤ ホクレンシヨウジ"
  },
  "8551": {
    "zip_code": "0608551",
    "prefecture": "北海道",
    "prefecture_kana": "ホッカイドウ",
    "prefecture_code": "1",
    "city": "札幌市中央区",
    "city_kana": "サッポロシチュウオウク",
    "town": "北七条西",
    "town_kana": "キタ7ジョウニシ",
    "street": "１４丁目２８−２２",
    "office_name": "北海道社会保険診療報酬支払基金",
    "office_name_kana": "ホツカイドウシヤカイホケンシンリヨウホウシユウシハライキキン"
  },
  "8552": {
    "zip_code": "0608552",
    "prefecture": "北海道",
    "prefecture_kana": null,
    "prefecture_code": null,
    "city": "札幌市中央区",
    "city_kana": null,
    "town": "北１条西",
    "town_kana": null,
    "street": "６丁目２番地損保ジャパン日本興亜札幌ビル",
    "office_name": "損害保険ジャパン日本興亜　株式会社",
    "office_name_kana": "ソンガイホケンジヤパンニツポンコウア カブシキガイシヤ"
  },
  "8553": {
    "zip_code": "0608553",
    "prefecture": "北海道",
    "prefecture_kana": "ホッカイドウ",
    "prefecture_code": "1",
    "city": "札幌市北区",
    "city_kana": "サッポロシキタク",
    "town": "北七条西",
    "town_kana": "キタ7ジョウニシ",
    "street": "５丁目３号札幌千代田ビル",
    "office_name": "あいおいニッセイ同和損害保険　株式会社",
    "office_name_kana": "アイオイニツセイドウワソンガイホケン カブシキガイシヤ"
  },
  "8554": {
    "zip_code": "0608554",
    "prefecture": "北海道",
    "prefecture_kana": "ホッカイドウ",
    "prefecture_code": "1",
    "city": "札幌市中央区",
    "city_kana": "サッポロシチュウオウク",
    "town": "北四条西",
    "town_kana": "キタ4ジョウニシ",
    "street": "４丁目１番地",
    "office_name": "伊藤組土建　（株）",
    "office_name_kana": "イトウグミドケン カブシキガイシヤ"
  },
  "8556": {
    "zip_code": "0608556",
    "prefecture": "北海道",
    "prefecture_kana": "ホッカイドウ",
    "prefecture_code": "1",
    "city": "札幌市中央区",
    "city_kana": "サッポロシチュウオウク",
    "town": "南一条西",
    "town_kana": "ミナミ1ジョウニシ",
    "street": "１７丁目",
    "office_name": "札幌医科大学",
    "office_name_kana": "サツポロイカダイガク"
  },
  "8557": {
    "zip_code": "0608557",
    "prefecture": "北海道",
    "prefecture_kana": "ホッカイドウ",
    "prefecture_code": "1",
    "city": "札幌市北区",
    "city_kana": "サッポロシキタク",
    "town": "北七条西",
    "town_kana": "キタ7ジョウニシ",
    "street": "４丁目３−１",
    "office_name": "（株）　エフエム・ノースウエーブ",
    "office_name_kana": "カブシキガイシヤ エフエム・ノ-スウエ-ブ"
  },
  "8558": {
    "zip_code": "0608558",
    "prefecture": "北海道",
    "prefecture_kana": "ホッカイドウ",
    "prefecture_code": "1",
    "city": "札幌市中央区",
    "city_kana": "サッポロシチュウオウク",
    "town": "北三条西",
    "town_kana": "キタ3ジョウニシ",
    "street": "７丁目",
    "office_name": "北海道　石狩支庁",
    "office_name_kana": "ホツカイドウ イシカリシチヨウ"
  },
  "8559": {
    "zip_code": "0608559",
    "prefecture": "北海道",
    "prefecture_kana": "ホッカイドウ",
    "prefecture_code": "1",
    "city": "札幌市中央区",
    "city_kana": "サッポロシチュウオウク",
    "town": "南二条西",
    "town_kana": "ミナミ2ジョウニシ",
    "street": "７丁目",
    "office_name": "セカンドポスト",
    "office_name_kana": "セカンドポスト"
  },
  "8560": {
    "zip_code": "0608560",
    "prefecture": "北海道",
    "prefecture_kana": "ホッカイドウ",
    "prefecture_code": "1",
    "city": "札幌市中央区",
    "city_kana": "サッポロシチュウオウク",
    "town": "北一条西",
    "town_kana": "キタ1ジョウニシ",
    "street": "６丁目２番地損保ジャパン札幌ビル",
    "office_name": "財団法人　北海道公立学校教職員互助会",
    "office_name_kana": "ザイダンホウジン ホツカイドウコウリツガツコウキヨウシヨクインゴジヨカイ"
  },
  "8561": {
    "zip_code": "0608561",
    "prefecture": "北海道",
    "prefecture_kana": "ホッカイドウ",
    "prefecture_code": "1",
    "city": "札幌市中央区",
    "city_kana": "サッポロシチュウオウク",
    "town": "北四条東",
    "town_kana": "キタ4ジョウヒガシ",
    "street": "５丁目",
    "office_name": "北海道瓦斯　（株）",
    "office_name_kana": "ホツカイドウガス カブシキガイシヤ"
  },
  "8563": {
    "zip_code": "0608563",
    "prefecture": "北海道",
    "prefecture_kana": "ホッカイドウ",
    "prefecture_code": "1",
    "city": "札幌市中央区",
    "city_kana": "サッポロシチュウオウク",
    "town": "南一条西",
    "town_kana": "ミナミ1ジョウニシ",
    "street": "２丁目５番地南一条Ｋビル",
    "office_name": "綜合警備保障　（株）　北海道支社",
    "office_name_kana": "ソウゴウケイビホシヨウ カブシキガイシヤ ホツカイドウシシヤ"
  },
  "8565": {
    "zip_code": "0608565",
    "prefecture": "北海道",
    "prefecture_kana": "ホッカイドウ",
    "prefecture_code": "1",
    "city": "札幌市中央区",
    "city_kana": "サッポロシチュウオウク",
    "town": "南二条西",
    "town_kana": "ミナミ2ジョウニシ",
    "street": "１丁目３北専ビル",
    "office_name": "株式会社　ほくせん",
    "office_name_kana": "カブシキガイシヤ ホクセン"
  },
  "8566": {
    "zip_code": "0608566",
    "prefecture": "北海道",
    "prefecture_kana": "ホッカイドウ",
    "prefecture_code": "1",
    "city": "札幌市北区",
    "city_kana": "サッポロシキタク",
    "town": "北八条西",
    "town_kana": "キタ8ジョウニシ",
    "street": "２丁目第一合同庁舎",
    "office_name": "北海道労働局",
    "office_name_kana": "ホツカイドウロウドウキヨク"
  },
  "8567": {
    "zip_code": "0608567",
    "prefecture": "北海道",
    "prefecture_kana": "ホッカイドウ",
    "prefecture_code": "1",
    "city": "札幌市中央区",
    "city_kana": "サッポロシチュウオウク",
    "town": "南一条西",
    "town_kana": "ミナミ1ジョウニシ",
    "street": "５丁目２０番郵政福祉札幌第一ビル５階",
    "office_name": "財団法人　ポスタルサービスセンター　北海道地方本部",
    "office_name_kana": "ザイダンホウジン ポスタルサ-ビスセンタ- ホツカイドウチホウホンブ"
  },
  "8568": {
    "zip_code": "0608568",
    "prefecture": "北海道",
    "prefecture_kana": "ホッカイドウ",
    "prefecture_code": "1",
    "city": "札幌市中央区",
    "city_kana": "サッポロシチュウオウク",
    "town": "南二条西",
    "town_kana": "ミナミ2ジョウニシ",
    "street": "４丁目６",
    "office_name": "株式会社　小宮山屋",
    "office_name_kana": "カブシキガイシヤ コミヤマヤ"
  },
  "8569": {
    "zip_code": "0608569",
    "prefecture": "北海道",
    "prefecture_kana": "ホッカイドウ",
    "prefecture_code": "1",
    "city": "札幌市東区",
    "city_kana": "サッポロシヒガシク",
    "town": "北六条東",
    "town_kana": "キタ6ジョウヒガシ",
    "street": "２丁目３番３号",
    "office_name": "（株）　丹波屋",
    "office_name_kana": "カブシキガイシヤ タンバヤ"
  },
  "8570": {
    "zip_code": "0608570",
    "prefecture": "北海道",
    "prefecture_kana": "ホッカイドウ",
    "prefecture_code": "1",
    "city": "札幌市中央区",
    "city_kana": "サッポロシチュウオウク",
    "town": "南一条西",
    "town_kana": "ミナミ1ジョウニシ",
    "street": "１４丁目",
    "office_name": "医療法人　医仁会　中村記念病院",
    "office_name_kana": "イリヨウホウジン イジンカイ ナカムラキネンビヨウイン"
  },
  "8572": {
    "zip_code": "0608572",
    "prefecture": "北海道",
    "prefecture_kana": "ホッカイドウ",
    "prefecture_code": "1",
    "city": "札幌市中央区",
    "city_kana": "サッポロシチュウオウク",
    "town": "北二条東",
    "town_kana": "キタ2ジョウヒガシ",
    "street": "４丁目サッポロファクトリー２条館４階",
    "office_name": "札幌市中央市税事務所",
    "office_name_kana": "サツポロシチユウオウシゼイジムシヨ"
  },
  "8573": {
    "zip_code": "0608573",
    "prefecture": "北海道",
    "prefecture_kana": "ホッカイドウ",
    "prefecture_code": "1",
    "city": "札幌市中央区",
    "city_kana": "サッポロシチュウオウク",
    "town": "北一条東",
    "town_kana": "キタ1ジョウヒガシ",
    "street": "９丁目１１番地",
    "office_name": "社団法人　北海道歯科医師会",
    "office_name_kana": "シヤダンホウジン ホツカイドウシカイシカイ"
  },
  "8574": {
    "zip_code": "0608574",
    "prefecture": "北海道",
    "prefecture_kana": "ホッカイドウ",
    "prefecture_code": "1",
    "city": "札幌市中央区",
    "city_kana": "サッポロシチュウオウク",
    "town": "北三条西",
    "town_kana": "キタ3ジョウニシ",
    "street": "４丁目１−４札幌第一生命ビル７階",
    "office_name": "北海道社会保険事務局　事務センター",
    "office_name_kana": "ホツカイドウシヤカイホケンジムキヨク ジムセンタ-"
  },
  "8575": {
    "zip_code": "0608575",
    "prefecture": "北海道",
    "prefecture_kana": "ホッカイドウ",
    "prefecture_code": "1",
    "city": "札幌市北区",
    "city_kana": "サッポロシキタク",
    "town": "北七条西",
    "town_kana": "キタ7ジョウニシ",
    "street": "２丁目２０東京建物札幌ビル",
    "office_name": "西松建設　株式会社　札幌支店",
    "office_name_kana": "ニシマツケンセツ カブシキガイシヤ サツポロシテン"
  },
  "8576": {
    "zip_code": "0608576",
    "prefecture": "北海道",
    "prefecture_kana": "ホッカイドウ",
    "prefecture_code": "1",
    "city": "札幌市東区",
    "city_kana": "サッポロシヒガシク",
    "town": "北六条東",
    "town_kana": "キタ6ジョウヒガシ",
    "street": "２丁目１",
    "office_name": "株式会社　キムラ",
    "office_name_kana": "カブシキガイシヤ キムラ"
  },
  "8577": {
    "zip_code": "0608577",
    "prefecture": "北海道",
    "prefecture_kana": "ホッカイドウ",
    "prefecture_code": "1",
    "city": "札幌市中央区",
    "city_kana": "サッポロシチュウオウク",
    "town": "北一条西",
    "town_kana": "キタ1ジョウニシ",
    "street": "６丁目１−２アーバンネット札幌ビル５Ｆ",
    "office_name": "株式会社　ジャックス　札幌支社",
    "office_name_kana": "カブシキガイシヤ ジヤツクス サツポロシシヤ"
  },
  "8578": {
    "zip_code": "0608578",
    "prefecture": "北海道",
    "prefecture_kana": "ホッカイドウ",
    "prefecture_code": "1",
    "city": "札幌市中央区",
    "city_kana": "サッポロシチュウオウク",
    "town": "北四条西",
    "town_kana": "キタ4ジョウニシ",
    "street": "６丁目２番地北海道自治会館５階",
    "office_name": "北海道市町村職員共済組合",
    "office_name_kana": "ホツカイドウシチヨウソンキヨウシヨクインキヨウサイクミアイ"
  },
  "8579": {
    "zip_code": "0608579",
    "prefecture": "北海道",
    "prefecture_kana": "ホッカイドウ",
    "prefecture_code": "1",
    "city": "札幌市北区",
    "city_kana": "サッポロシキタク",
    "town": "北八条西",
    "town_kana": "キタ8ジョウニシ",
    "street": "２丁目１番１号札幌第一合同庁舎",
    "office_name": "北海道財務局",
    "office_name_kana": "ホツカイドウザイムキヨク"
  },
  "8580": {
    "zip_code": "0608580",
    "prefecture": "北海道",
    "prefecture_kana": "ホッカイドウ",
    "prefecture_code": "1",
    "city": "札幌市中央区",
    "city_kana": "サッポロシチュウオウク",
    "town": "北一条東",
    "town_kana": "キタ1ジョウヒガシ",
    "street": "１丁目２",
    "office_name": "株式会社　ニトリパブリック",
    "office_name_kana": "カブシキガイシヤ ニトリパブリツク"
  },
  "8581": {
    "zip_code": "0608581",
    "prefecture": "北海道",
    "prefecture_kana": "ホッカイドウ",
    "prefecture_code": "1",
    "city": "札幌市中央区",
    "city_kana": "サッポロシチュウオウク",
    "town": "大通西",
    "town_kana": "オオドオリニシ",
    "street": "１９丁目",
    "office_name": "社団法人　札幌市医師会",
    "office_name_kana": "シヤダンホウジン サツポロイシカイ"
  },
  "8582": {
    "zip_code": "0608582",
    "prefecture": "北海道",
    "prefecture_kana": "ホッカイドウ",
    "prefecture_code": "1",
    "city": "札幌市東区",
    "city_kana": "サッポロシヒガシク",
    "town": "北九条東",
    "town_kana": "キタ9ジョウヒガシ",
    "street": "２丁目４０番地２３",
    "office_name": "（株）　りんゆう観光",
    "office_name_kana": "カブシキガイシヤ リンユウカンコウ"
  },
  "8583": {
    "zip_code": "0608583",
    "prefecture": "北海道",
    "prefecture_kana": "ホッカイドウ",
    "prefecture_code": "1",
    "city": "札幌市中央区",
    "city_kana": "サッポロシチュウオウク",
    "town": "北九条西",
    "town_kana": "キタ9ジョウニシ",
    "street": "１５丁目２８番１９６札幌ＩＴフロントビル２階",
    "office_name": "北海道電力　株式会社　ほくでん契約センター",
    "office_name_kana": "ホツカイドウデンリヨク カブシキガイシヤ ホクデンケイヤクセンタ-"
  },
  "8584": {
    "zip_code": "0608584",
    "prefecture": "北海道",
    "prefecture_kana": "ホッカイドウ",
    "prefecture_code": "1",
    "city": "札幌市中央区",
    "city_kana": "サッポロシチュウオウク",
    "town": "北二条西",
    "town_kana": "キタ2ジョウニシ",
    "street": "２丁目４マルホビル８０３（８Ｆ）",
    "office_name": "札幌ビジネスオンデマンド　スマイルポスト",
    "office_name_kana": "サツポロビジネスオンデマンド スマイルポスト"
  },
  "8585": {
    "zip_code": "0608585",
    "prefecture": "北海道",
    "prefecture_kana": "ホッカイドウ",
    "prefecture_code": "1",
    "city": "札幌市中央区",
    "city_kana": "サッポロシチュウオウク",
    "town": "北三条西",
    "town_kana": "キタ3ジョウニシ",
    "street": "１１丁目２番１号",
    "office_name": "日本年金機構　札幌西年金事務所",
    "office_name_kana": "ニツポンネンキンキコウ サツポロニシネンキンジムシヨ"
  },
  "8586": {
    "zip_code": "0608586",
    "prefecture": "北海道",
    "prefecture_kana": "ホッカイドウ",
    "prefecture_code": "1",
    "city": "札幌市北区",
    "city_kana": "サッポロシキタク",
    "town": "北十三条西",
    "town_kana": "キタ13ジョウニシ",
    "street": "７丁目",
    "office_name": "北海道大学　歯学部",
    "office_name_kana": "ホツカイドウダイガク シガクブ"
  },
  "8587": {
    "zip_code": "0608587",
    "prefecture": "北海道",
    "prefecture_kana": "ホッカイドウ",
    "prefecture_code": "1",
    "city": "札幌市北区",
    "city_kana": "サッポロシキタク",
    "town": "北八条西",
    "town_kana": "キタ8ジョウニシ",
    "street": "２丁目１−１札幌第１合同庁舎７Ｆ",
    "office_name": "札幌中央労働基準監督署",
    "office_name_kana": "サツポロチユウオウロウドウキジユンカントクシヨ"
  },
  "8588": {
    "zip_code": "0608588",
    "prefecture": "北海道",
    "prefecture_kana": "ホッカイドウ",
    "prefecture_code": "1",
    "city": "札幌市中央区",
    "city_kana": "サッポロシチュウオウク",
    "town": "北三条西",
    "town_kana": "キタ3ジョウニシ",
    "street": "６丁目",
    "office_name": "北海道庁",
    "office_name_kana": "ホツカイドウチヨウ"
  },
  "8589": {
    "zip_code": "0608589",
    "prefecture": "北海道",
    "prefecture_kana": "ホッカイドウ",
    "prefecture_code": "1",
    "city": "札幌市北区",
    "city_kana": "サッポロシキタク",
    "town": "北九条西",
    "town_kana": "キタ9ジョウニシ",
    "street": "９丁目",
    "office_name": "北海道大学　農学部",
    "office_name_kana": "ホツカイドウダイガク ノウガクブ"
  },
  "8601": {
    "zip_code": "0608601",
    "prefecture": "北海道",
    "prefecture_kana": "ホッカイドウ",
    "prefecture_code": "1",
    "city": "札幌市中央区",
    "city_kana": "サッポロシチュウオウク",
    "town": "大通西",
    "town_kana": "オオドオリニシ",
    "street": "３丁目７番地",
    "office_name": "大和証券　株式会社　札幌支店",
    "office_name_kana": "ダイワシヨウケン カブシキガイシヤ サツポロシテン"
  },
  "8602": {
    "zip_code": "0608602",
    "prefecture": "北海道",
    "prefecture_kana": "ホッカイドウ",
    "prefecture_code": "1",
    "city": "札幌市中央区",
    "city_kana": "サッポロシチュウオウク",
    "town": "北二条西",
    "town_kana": "キタ2ジョウニシ",
    "street": "１丁目１番地",
    "office_name": "朝日新聞社　北海道支社",
    "office_name_kana": "アサヒシンブンシヤ ホツカイドウシシヤ"
  },
  "8603": {
    "zip_code": "0608603",
    "prefecture": "北海道",
    "prefecture_kana": "ホッカイドウ",
    "prefecture_code": "1",
    "city": "札幌市中央区",
    "city_kana": "サッポロシチュウオウク",
    "town": "北五条西",
    "town_kana": "キタ5ジョウニシ",
    "street": "６丁目札幌センタービル１２階",
    "office_name": "財団法人　消防試験研究センター　北海道支部",
    "office_name_kana": "ザイダンホウジン シヨウボウシケンケンキユウセンタ- ホツカイドウシブ"
  },
  "8604": {
    "zip_code": "0608604",
    "prefecture": "北海道",
    "prefecture_kana": "ホッカイドウ",
    "prefecture_code": "1",
    "city": "札幌市中央区",
    "city_kana": "サッポロシチュウオウク",
    "town": "北十一条西",
    "town_kana": "キタ11ジョウニシ",
    "street": "１３丁目",
    "office_name": "市立札幌病院",
    "office_name_kana": "シリツサツポロビヨウイン"
  },
  "8605": {
    "zip_code": "0608605",
    "prefecture": "北海道",
    "prefecture_kana": "ホッカイドウ",
    "prefecture_code": "1",
    "city": "札幌市中央区",
    "city_kana": "サッポロシチュウオウク",
    "town": "北一条西",
    "town_kana": "キタ1ジョウニシ",
    "street": "６丁目１番地２アーバンネット札幌ビル２Ｆ",
    "office_name": "株式会社　インテリジェンス",
    "office_name_kana": "カブシキガイシヤ インテリジエンス"
  },
  "8606": [
    {
      "zip_code": "0608606",
      "prefecture": "北海道",
      "prefecture_kana": "ホッカイドウ",
      "prefecture_code": "1",
      "city": "札幌市中央区",
      "city_kana": "サッポロシチュウオウク",
      "town": "北一条東",
      "town_kana": "キタ1ジョウヒガシ",
      "street": "４丁目８番地１",
      "office_name": "サッポロビール　株式会社　北海道本社",
      "office_name_kana": "サツポロビ-ル カブシキカイシヤ ホツカイドウホンシヤ"
    },
    {
      "zip_code": "0608606",
      "prefecture": "北海道",
      "prefecture_kana": "ホッカイドウ",
      "prefecture_code": "1",
      "city": "札幌市中央区",
      "city_kana": "サッポロシチュウオウク",
      "town": "北一条東",
      "town_kana": "キタ1ジョウヒガシ",
      "street": "４丁目８−１",
      "office_name": "サッポロビール　株式会社　北海道本部",
      "office_name_kana": "サツポロビ-ル カブシキガイシヤ ホツカイドウホンブ"
    }
  ],
  "8607": {
    "zip_code": "0608607",
    "prefecture": "北海道",
    "prefecture_kana": "ホッカイドウ",
    "prefecture_code": "1",
    "city": "札幌市中央区",
    "city_kana": "サッポロシチュウオウク",
    "town": "北一条西",
    "town_kana": "キタ1ジョウニシ",
    "street": "７丁目１番地",
    "office_name": "北海道商工会連合会",
    "office_name_kana": "ホツカイドウシヨウコウカイレンゴウカイ"
  },
  "8608": {
    "zip_code": "0608608",
    "prefecture": "北海道",
    "prefecture_kana": "ホッカイドウ",
    "prefecture_code": "1",
    "city": "札幌市中央区",
    "city_kana": "サッポロシチュウオウク",
    "town": "南二条西",
    "town_kana": "ミナミ2ジョウニシ",
    "street": "２丁目１４番地",
    "office_name": "道銀カード　株式会社",
    "office_name_kana": "ドウギンカ-ド カブシキカイシヤ"
  },
  "8609": {
    "zip_code": "0608609",
    "prefecture": "北海道",
    "prefecture_kana": "ホッカイドウ",
    "prefecture_code": "1",
    "city": "札幌市中央区",
    "city_kana": "サッポロシチュウオウク",
    "town": "北一条西",
    "town_kana": "キタ1ジョウニシ",
    "street": "７丁目１",
    "office_name": "三井住友海上火災保険　（株）",
    "office_name_kana": "ミツイスミトモカイジヨウカサイホケン カブシキガイシヤ"
  },
  "8610": {
    "zip_code": "0608610",
    "prefecture": "北海道",
    "prefecture_kana": "ホッカイドウ",
    "prefecture_code": "1",
    "city": "札幌市中央区",
    "city_kana": "サッポロシチュウオウク",
    "town": "北一条西",
    "town_kana": "キタ1ジョウニシ",
    "street": "２丁目経済センタービル",
    "office_name": "札幌商工会議所",
    "office_name_kana": "サツポロシヨウコウカイギシヨ"
  },
  "8611": {
    "zip_code": "0608611",
    "prefecture": "北海道",
    "prefecture_kana": "ホッカイドウ",
    "prefecture_code": "1",
    "city": "札幌市中央区",
    "city_kana": "サッポロシチュウオウク",
    "town": "北一条西",
    "town_kana": "キタ1ジョウニシ",
    "street": "２丁目",
    "office_name": "札幌市役所",
    "office_name_kana": "サツポロシヤクシヨ"
  },
  "8612": {
    "zip_code": "0608612",
    "prefecture": "北海道",
    "prefecture_kana": "ホッカイドウ",
    "prefecture_code": "1",
    "city": "札幌市中央区",
    "city_kana": "サッポロシチュウオウク",
    "town": "南三条西",
    "town_kana": "ミナミ3ジョウニシ",
    "street": "１１丁目",
    "office_name": "札幌市中央区役所",
    "office_name_kana": "サツポロシチユウオウクヤクシヨ"
  },
  "8613": {
    "zip_code": "0608613",
    "prefecture": "北海道",
    "prefecture_kana": "ホッカイドウ",
    "prefecture_code": "1",
    "city": "札幌市中央区",
    "city_kana": "サッポロシチュウオウク",
    "town": "北一条西",
    "town_kana": "キタ1ジョウニシ",
    "street": "４丁目２−２札幌ノースプラザ１０Ｆ",
    "office_name": "ＡＩＧエジソン生命保険　株式会社　北海道事務センター",
    "office_name_kana": "エ-アイ-ジ-エジソンセイメイホケン カブシキカイシヤ ホツカイドウジムセンタ-"
  },
  "8614": {
    "zip_code": "0608614",
    "prefecture": "北海道",
    "prefecture_kana": "ホッカイドウ",
    "prefecture_code": "1",
    "city": "札幌市中央区",
    "city_kana": "サッポロシチュウオウク",
    "town": "大通西",
    "town_kana": "オオドオリニシ",
    "street": "５丁目地下鉄大通駅西側コンコース内",
    "office_name": "一般財団法人　札幌市交通事業振興公社",
    "office_name_kana": "イツパンザイダンホウジン サツポロシコウツウジギヨウシンコウコウシヤ"
  },
  "8615": {
    "zip_code": "0608615",
    "prefecture": "北海道",
    "prefecture_kana": "ホッカイドウ",
    "prefecture_code": "1",
    "city": "札幌市中央区",
    "city_kana": "サッポロシチュウオウク",
    "town": "南二条西",
    "town_kana": "ミナミ2ジョウニシ",
    "street": "１１丁目",
    "office_name": "札幌プリンスホテル",
    "office_name_kana": "サツポロプリンスホテル"
  },
  "8616": {
    "zip_code": "0608616",
    "prefecture": "北海道",
    "prefecture_kana": "ホッカイドウ",
    "prefecture_code": "1",
    "city": "札幌市中央区",
    "city_kana": "サッポロシチュウオウク",
    "town": "北四条西",
    "town_kana": "キタ4ジョウニシ",
    "street": "１２丁目ほくろうビル６階",
    "office_name": "日本労働組合　総連合会　北海道連合会",
    "office_name_kana": "ニホンロウドウクミアイ ソウレンゴウカイ ホツカイドウレンゴウカイ"
  },
  "8617": {
    "zip_code": "0608617",
    "prefecture": "北海道",
    "prefecture_kana": "ホッカイドウ",
    "prefecture_code": "1",
    "city": "札幌市中央区",
    "city_kana": "サッポロシチュウオウク",
    "town": "北一条西",
    "town_kana": "キタ1ジョウニシ",
    "street": "２丁目１番地",
    "office_name": "清水建設　（株）　北海道支店",
    "office_name_kana": "シミズケンセツ カブシキガイシヤ ホツカイドウシテン"
  },
  "8618": {
    "zip_code": "0608618",
    "prefecture": "北海道",
    "prefecture_kana": "ホッカイドウ",
    "prefecture_code": "1",
    "city": "札幌市中央区",
    "city_kana": "サッポロシチュウオウク",
    "town": "北一条東",
    "town_kana": "キタ1ジョウヒガシ",
    "street": "３丁目３番地",
    "office_name": "中道機械　（株）",
    "office_name_kana": "ナカミチキカイ カブシキガイシヤ"
  },
  "8619": {
    "zip_code": "0608619",
    "prefecture": "北海道",
    "prefecture_kana": "ホッカイドウ",
    "prefecture_code": "1",
    "city": "札幌市中央区",
    "city_kana": "サッポロシチュウオウク",
    "town": "北四条西",
    "town_kana": "キタ4ジョウニシ",
    "street": "２丁目１",
    "office_name": "株式会社　東急百貨店　札幌店",
    "office_name_kana": "カブ トウキユウヒヤツカテン サツポロテン"
  },
  "8620": {
    "zip_code": "0608620",
    "prefecture": "北海道",
    "prefecture_kana": "ホッカイドウ",
    "prefecture_code": "1",
    "city": "札幌市中央区",
    "city_kana": "サッポロシチュウオウク",
    "town": "大通西",
    "town_kana": "オオドオリニシ",
    "street": "１８丁目１道新西ビル",
    "office_name": "（株）　道新サービスセンター　オントナ事業部",
    "office_name_kana": "カブシキガイシヤ ドウシンサ-ビスセンタ- オントナジギヨウブ"
  },
  "8621": {
    "zip_code": "0608621",
    "prefecture": "北海道",
    "prefecture_kana": "ホッカイドウ",
    "prefecture_code": "1",
    "city": "札幌市中央区",
    "city_kana": "サッポロシチュウオウク",
    "town": "北一条西",
    "town_kana": "キタ1ジョウニシ",
    "street": "６丁目１−２アーバンネット札幌ビル２Ｆ",
    "office_name": "株式会社　日本経済新聞社　札幌支社",
    "office_name_kana": "(カブ) ニホンケイザイシンブンシヤ サツポロシシヤ"
  },
  "8622": [
    {
      "zip_code": "0608622",
      "prefecture": "北海道",
      "prefecture_kana": "ホッカイドウ",
      "prefecture_code": "1",
      "city": "札幌市中央区",
      "city_kana": "サッポロシチュウオウク",
      "town": "大通西",
      "town_kana": "オオドオリニシ",
      "street": "８丁目１番地８",
      "office_name": "第一三共　株式会社　札幌支店",
      "office_name_kana": "ダイイチサンキヨウ カブシキガイシヤ サツポロシテン"
    },
    {
      "zip_code": "0608622",
      "prefecture": "北海道",
      "prefecture_kana": "ホッカイドウ",
      "prefecture_code": "1",
      "city": "札幌市中央区",
      "city_kana": "サッポロシチュウオウク",
      "town": "大通西",
      "town_kana": "オオドオリニシ",
      "street": "８丁目１番地８",
      "office_name": "第一三共ヘルスケア　株式会社　東日本支店　札幌オフィス",
      "office_name_kana": "ダイイチサンキヨウヘルスケア カブシキガイシヤ ヒガシニホンシテン サツポロオフイス"
    }
  ],
  "8623": {
    "zip_code": "0608623",
    "prefecture": "北海道",
    "prefecture_kana": "ホッカイドウ",
    "prefecture_code": "1",
    "city": "札幌市中央区",
    "city_kana": "サッポロシチュウオウク",
    "town": "南一条西",
    "town_kana": "ミナミ1ジョウニシ",
    "street": "１丁目１番地ＪＣＢ札幌東ビル",
    "office_name": "株式会社　ジェーシービー　北海道支社",
    "office_name_kana": "カブシキガイシヤ ジエ-シ-ビ- ホツカイドウシシヤ"
  },
  "8624": {
    "zip_code": "0608624",
    "prefecture": "北海道",
    "prefecture_kana": "ホッカイドウ",
    "prefecture_code": "1",
    "city": "札幌市中央区",
    "city_kana": "サッポロシチュウオウク",
    "town": "大通西",
    "town_kana": "オオドオリニシ",
    "street": "３丁目１１番地",
    "office_name": "日立キャピタル　（株）　北海道営業本部",
    "office_name_kana": "ヒタチキヤピタル カブシキガイシヤ ホツカイドウエイギヨウホンブ"
  },
  "8625": {
    "zip_code": "0608625",
    "prefecture": "北海道",
    "prefecture_kana": "ホッカイドウ",
    "prefecture_code": "1",
    "city": "札幌市中央区",
    "city_kana": "サッポロシチュウオウク",
    "town": "北三条西",
    "town_kana": "キタ3ジョウニシ",
    "street": "４丁目１−１日本生命札幌ビル",
    "office_name": "ＵＦＪニコス　株式会社",
    "office_name_kana": "ユ-エフジエイニコス カブシキガイシヤ"
  },
  "8627": {
    "zip_code": "0608627",
    "prefecture": "北海道",
    "prefecture_kana": "ホッカイドウ",
    "prefecture_code": "1",
    "city": "札幌市中央区",
    "city_kana": "サッポロシチュウオウク",
    "town": "大通西",
    "town_kana": "オオドオリニシ",
    "street": "６丁目６番地",
    "office_name": "社団法人　北海道医師会",
    "office_name_kana": "シヤダンホウジン ホツカイドウイシカイ"
  },
  "8628": {
    "zip_code": "0608628",
    "prefecture": "北海道",
    "prefecture_kana": "ホッカイドウ",
    "prefecture_code": "1",
    "city": "札幌市北区",
    "city_kana": "サッポロシキタク",
    "town": "北十三条西",
    "town_kana": "キタ13ジョウニシ",
    "street": "８丁目",
    "office_name": "北海道大学大学院　工学研究科工学部",
    "office_name_kana": "ホツカイドウダイガクダイガクイン コウガクケンキユウカコウガクブ"
  },
  "8629": {
    "zip_code": "0608629",
    "prefecture": "北海道",
    "prefecture_kana": "ホッカイドウ",
    "prefecture_code": "1",
    "city": "札幌市中央区",
    "city_kana": "サッポロシチュウオウク",
    "town": "北五条西",
    "town_kana": "キタ5ジョウニシ",
    "street": "２丁目ＪＲタワーオフィス１５階札幌駅総合開発内",
    "office_name": "札幌らーめん共和国",
    "office_name_kana": "サツポロラ-メンキヨウワコク"
  },
  "8630": {
    "zip_code": "0608630",
    "prefecture": "北海道",
    "prefecture_kana": "ホッカイドウ",
    "prefecture_code": "1",
    "city": "札幌市中央区",
    "city_kana": "サッポロシチュウオウク",
    "town": "北二条東",
    "town_kana": "キタ2ジョウヒガシ",
    "street": "１７丁目２番地",
    "office_name": "岩田地崎建設　株式会社",
    "office_name_kana": "イワタチザキケンセツ カブシキガイシヤ"
  },
  "8631": {
    "zip_code": "0608631",
    "prefecture": "北海道",
    "prefecture_kana": "ホッカイドウ",
    "prefecture_code": "1",
    "city": "札幌市中央区",
    "city_kana": "サッポロシチュウオウク",
    "town": "北三条西",
    "town_kana": "キタ3ジョウニシ",
    "street": "２丁目札幌ＭＴビル",
    "office_name": "三井住友海上火災保険　株式会社",
    "office_name_kana": "ミツイスミトモカイジヨウカサイホケン カブシキガイシヤ"
  },
  "8632": {
    "zip_code": "0608632",
    "prefecture": "北海道",
    "prefecture_kana": "ホッカイドウ",
    "prefecture_code": "1",
    "city": "札幌市中央区",
    "city_kana": "サッポロシチュウオウク",
    "town": "大通西",
    "town_kana": "オオドオリニシ",
    "street": "７丁目１番１号井門札幌パークフロントビル８階",
    "office_name": "前田建設工業　株式会社　北海道支店",
    "office_name_kana": "マエダケンセツコウギヨウ カブシキガイシヤ ホツカイドウシテン"
  },
  "8633": {
    "zip_code": "0608633",
    "prefecture": "北海道",
    "prefecture_kana": null,
    "prefecture_code": null,
    "city": "札幌市北区",
    "city_kana": null,
    "town": "北７条西",
    "town_kana": null,
    "street": "１丁目１−５丸増ビル６階",
    "office_name": "エヌ・ティ・ティ北海道テレマート　株式会社　ぷらら申込受付センター",
    "office_name_kana": "エヌ・テイ・テイホツカイドウテレマ-ト カブシキガイシヤ プララモウシコミウケツケセンタ-"
  },
  "8634": {
    "zip_code": "0608634",
    "prefecture": "北海道",
    "prefecture_kana": "ホッカイドウ",
    "prefecture_code": "1",
    "city": "札幌市北区",
    "city_kana": "サッポロシキタク",
    "town": "北七条西",
    "town_kana": "キタ7ジョウニシ",
    "street": "４丁目３−１新北海道ビル５階",
    "office_name": "北海道社会保険事務局　事務センター",
    "office_name_kana": "ホツカイドウシヤカイホケンジムキヨク ジムセンタ-"
  },
  "8635": {
    "zip_code": "0608635",
    "prefecture": "北海道",
    "prefecture_kana": "ホッカイドウ",
    "prefecture_code": "1",
    "city": "札幌市中央区",
    "city_kana": "サッポロシチュウオウク",
    "town": "南一条西",
    "town_kana": "ミナミ1ジョウニシ",
    "street": "６丁目２０番１号",
    "office_name": "富士火災海上保険　（株）　北海道本部",
    "office_name_kana": "フジカサイカイジヨウホケン カブシキガイシヤ ホツカイドウホンブ"
  },
  "8636": {
    "zip_code": "0608636",
    "prefecture": "北海道",
    "prefecture_kana": "ホッカイドウ",
    "prefecture_code": "1",
    "city": "札幌市中央区",
    "city_kana": "サッポロシチュウオウク",
    "town": "南一条東",
    "town_kana": "ミナミ1ジョウヒガシ",
    "street": "１丁目５番大通バスセンタービル１号館",
    "office_name": "丸紅　（株）　北海道支社",
    "office_name_kana": "マルベニ カブシキガイシヤ ホツカイドウシシヤ"
  },
  "8637": {
    "zip_code": "0608637",
    "prefecture": "北海道",
    "prefecture_kana": "ホッカイドウ",
    "prefecture_code": "1",
    "city": "札幌市中央区",
    "city_kana": "サッポロシチュウオウク",
    "town": "南二条西",
    "town_kana": "ミナミ2ジョウニシ",
    "street": "５丁目メゾン本府７０１号",
    "office_name": "（株）　亜璃西社",
    "office_name_kana": "カブシキガイシヤ アリスシヤ"
  },
  "8638": {
    "zip_code": "0608638",
    "prefecture": "北海道",
    "prefecture_kana": "ホッカイドウ",
    "prefecture_code": "1",
    "city": "札幌市北区",
    "city_kana": "サッポロシキタク",
    "town": "北十五条西",
    "town_kana": "キタ15ジョウニシ",
    "street": "７丁目",
    "office_name": "北海道大学　医学部",
    "office_name_kana": "ホツカイドウダイガク イガクブ"
  },
  "8639": {
    "zip_code": "0608639",
    "prefecture": "北海道",
    "prefecture_kana": "ホッカイドウ",
    "prefecture_code": "1",
    "city": "札幌市中央区",
    "city_kana": "サッポロシチュウオウク",
    "town": "大通東",
    "town_kana": "オオドオリヒガシ",
    "street": "１丁目２",
    "office_name": "北海道電力　株式会社　札幌支店",
    "office_name_kana": "ホツカイドウデンリヨク カブシキガイシヤ サツポロシテン"
  },
  "8640": {
    "zip_code": "0608640",
    "prefecture": "北海道",
    "prefecture_kana": "ホッカイドウ",
    "prefecture_code": "1",
    "city": "札幌市中央区",
    "city_kana": "サッポロシチュウオウク",
    "town": "大通西",
    "town_kana": "オオドオリニシ",
    "street": "３丁目１１番地北洋ビル",
    "office_name": "株式会社　北海道二十一世紀総合研究所",
    "office_name_kana": "カ) ホツカイドウニジユウイツセイキソウゴウケンキユウシヨ"
  },
  "8641": {
    "zip_code": "0608641",
    "prefecture": "北海道",
    "prefecture_kana": "ホッカイドウ",
    "prefecture_code": "1",
    "city": "札幌市中央区",
    "city_kana": "サッポロシチュウオウク",
    "town": "北四条西",
    "town_kana": "キタ4ジョウニシ",
    "street": "５丁目アスティ４５−９階",
    "office_name": "札幌市北部市税事務所",
    "office_name_kana": "サツポロシホクブシゼイジムシヨ"
  },
  "8642": {
    "zip_code": "0608642",
    "prefecture": "北海道",
    "prefecture_kana": "ホッカイドウ",
    "prefecture_code": "1",
    "city": "札幌市中央区",
    "city_kana": "サッポロシチュウオウク",
    "town": "北二条西",
    "town_kana": "キタ2ジョウニシ",
    "street": "１丁目１マルイト札幌ビル７Ｆ",
    "office_name": "株式会社　リクルート北海道じゃらん",
    "office_name_kana": "カブシキガイシヤ リクル-トホツカイドウジヤラン"
  },
  "8643": {
    "zip_code": "0608643",
    "prefecture": "北海道",
    "prefecture_kana": "ホッカイドウ",
    "prefecture_code": "1",
    "city": "札幌市中央区",
    "city_kana": "サッポロシチュウオウク",
    "town": "北四条西",
    "town_kana": "キタ4ジョウニシ",
    "street": "６丁目１",
    "office_name": "（株）　毎日新聞社　北海道支社",
    "office_name_kana": "カブシキガイシヤ マイニチシンブン ホツカイドウシシヤ"
  },
  "8644": {
    "zip_code": "0608644",
    "prefecture": "北海道",
    "prefecture_kana": "ホッカイドウ",
    "prefecture_code": "1",
    "city": "札幌市中央区",
    "city_kana": "サッポロシチュウオウク",
    "town": "北十一条西",
    "town_kana": "キタ11ジョウニシ",
    "street": "１５丁目",
    "office_name": "北海道旅客鉄道　株式会社",
    "office_name_kana": "ホツカイドウリヨキヤクテツドウ カブシキガイシヤ"
  },
  "8646": {
    "zip_code": "0608646",
    "prefecture": "北海道",
    "prefecture_kana": "ホッカイドウ",
    "prefecture_code": "1",
    "city": "札幌市中央区",
    "city_kana": "サッポロシチュウオウク",
    "town": "大通西",
    "town_kana": "オオドオリニシ",
    "street": "５丁目１１番地１",
    "office_name": "株式会社　ロイズコンフェクト",
    "office_name_kana": "カブシキガイシヤ ロイズコンフエクト"
  },
  "8647": {
    "zip_code": "0608647",
    "prefecture": "北海道",
    "prefecture_kana": "ホッカイドウ",
    "prefecture_code": "1",
    "city": "札幌市中央区",
    "city_kana": "サッポロシチュウオウク",
    "town": "南二条西",
    "town_kana": "ミナミ2ジョウニシ",
    "street": "６丁目",
    "office_name": "（株）　北海道アルバイト情報社",
    "office_name_kana": "カブシキガイシヤ ホツカイドウアルバイトジヨウホウシヤ"
  },
  "8648": {
    "zip_code": "0608648",
    "prefecture": "北海道",
    "prefecture_kana": "ホッカイドウ",
    "prefecture_code": "1",
    "city": "札幌市北区",
    "city_kana": "サッポロシキタク",
    "town": "北十四条西",
    "town_kana": "キタ14ジョウニシ",
    "street": "５丁目",
    "office_name": "北海道大学病院",
    "office_name_kana": "ホツカイドウダイガクビヨウイン"
  },
  "8649": {
    "zip_code": "0608649",
    "prefecture": "北海道",
    "prefecture_kana": "ホッカイドウ",
    "prefecture_code": "1",
    "city": "札幌市中央区",
    "city_kana": "サッポロシチュウオウク",
    "town": "北二条東",
    "town_kana": "キタ2ジョウヒガシ",
    "street": "４丁目サッポロファクトリー２条館４階",
    "office_name": "札幌市中央市税事務所　市民税課",
    "office_name_kana": "サツポロシチユウオウシゼイジムシヨ シミンゼイカ"
  },
  "8651": {
    "zip_code": "0608651",
    "prefecture": "北海道",
    "prefecture_kana": "ホッカイドウ",
    "prefecture_code": "1",
    "city": "札幌市中央区",
    "city_kana": "サッポロシチュウオウク",
    "town": "北四条西",
    "town_kana": "キタ4ジョウニシ",
    "street": "１丁目３（札幌中央郵便局私書箱第１６７号）",
    "office_name": "ホクレン　農業協同組合連合会",
    "office_name_kana": "ホクレン ノウギヨウキヨウドウクミアイレンゴウカイ"
  },
  "8654": {
    "zip_code": "0608654",
    "prefecture": "北海道",
    "prefecture_kana": "ホッカイドウ",
    "prefecture_code": "1",
    "city": "札幌市中央区",
    "city_kana": "サッポロシチュウオウク",
    "town": "北二条西",
    "town_kana": "キタ2ジョウニシ",
    "street": "４丁目（札幌中央郵便局私書箱第４５号）",
    "office_name": "三菱商事　株式会社　北海道支社",
    "office_name_kana": "ミツビシシヨウジ カブシキガイシヤ ホツカイドウシシヤ"
  },
  "8655": {
    "zip_code": "0608655",
    "prefecture": "北海道",
    "prefecture_kana": "ホッカイドウ",
    "prefecture_code": "1",
    "city": "札幌市北区",
    "city_kana": "サッポロシキタク",
    "town": "北七条西",
    "town_kana": "キタ7ジョウニシ",
    "street": "９丁目２−１１（札幌中央郵便局私書箱第２２４号）",
    "office_name": "道栄紙業　株式会社　（コアレックス）",
    "office_name_kana": "ドウエイシギヨウ カブシキガイシヤ (コアレツクス)"
  },
  "8656": {
    "zip_code": "0608656",
    "prefecture": "北海道",
    "prefecture_kana": "ホッカイドウ",
    "prefecture_code": "1",
    "city": "札幌市中央区",
    "city_kana": "サッポロシチュウオウク",
    "town": "北四条西",
    "town_kana": "キタ4ジョウニシ",
    "street": "４丁目１−８（札幌中央郵便局私書箱第１５０号）",
    "office_name": "（株）　読売新聞　東京本社　北海道支社",
    "office_name_kana": "(カブ) ヨミウリシンブントウキヨウホンシヤ ホツカイドウシシヤ"
  },
  "8658": {
    "zip_code": "0608658",
    "prefecture": "北海道",
    "prefecture_kana": "ホッカイドウ",
    "prefecture_code": "1",
    "city": "札幌市中央区",
    "city_kana": "サッポロシチュウオウク",
    "town": "北四条西",
    "town_kana": "キタ4ジョウニシ",
    "street": "１９丁目（札幌中央郵便局私書箱第１８８号）",
    "office_name": "株式会社　北海道建設新聞社",
    "office_name_kana": "(カ) ホツカイドウケンセツシンブンシヤ"
  },
  "8661": {
    "zip_code": "0608661",
    "prefecture": "北海道",
    "prefecture_kana": "ホッカイドウ",
    "prefecture_code": "1",
    "city": "札幌市中央区",
    "city_kana": "サッポロシチュウオウク",
    "town": "大通西",
    "town_kana": "オオドオリニシ",
    "street": "３丁目７番地（札幌中央郵便局私書箱第１２１号）",
    "office_name": "株式会社　北洋銀行　本店",
    "office_name_kana": "カブシキガイシヤ ホクヨウギンコウ ホンテン"
  },
  "8666": {
    "zip_code": "0608666",
    "prefecture": "北海道",
    "prefecture_kana": "ホッカイドウ",
    "prefecture_code": "1",
    "city": "札幌市中央区",
    "city_kana": "サッポロシチュウオウク",
    "town": "南一条西",
    "town_kana": "ミナミ1ジョウニシ",
    "street": "３丁目８",
    "office_name": "株式会社　札幌丸井三越　札幌三越",
    "office_name_kana": "カブシキガイシヤ サツポロマルイミツコシ サツポロミツコシ"
  },
  "8667": {
    "zip_code": "0608667",
    "prefecture": "北海道",
    "prefecture_kana": "ホッカイドウ",
    "prefecture_code": "1",
    "city": "札幌市中央区",
    "city_kana": "サッポロシチュウオウク",
    "town": "南一条西",
    "town_kana": "ミナミ1ジョウニシ",
    "street": "２丁目１１",
    "office_name": "株式会社　札幌丸井三越　丸井今井札幌本店",
    "office_name_kana": "カブシキガイシヤ サツポロマルイミツコシ マルイイマイサツポロホンテン"
  },
  "8668": {
    "zip_code": "0608668",
    "prefecture": "北海道",
    "prefecture_kana": "ホッカイドウ",
    "prefecture_code": "1",
    "city": "札幌市中央区",
    "city_kana": "サッポロシチュウオウク",
    "town": "南一条西",
    "town_kana": "ミナミ1ジョウニシ",
    "street": "２丁目１８（札幌中央郵便局私書箱第２４６号）",
    "office_name": "株式会社　丸ヨ池内",
    "office_name_kana": "カブシキガイシヤ マルヨイケウチ"
  },
  "8670": {
    "zip_code": "0608670",
    "prefecture": "北海道",
    "prefecture_kana": "ホッカイドウ",
    "prefecture_code": "1",
    "city": "札幌市中央区",
    "city_kana": "サッポロシチュウオウク",
    "town": "大通西",
    "town_kana": "オオドオリニシ",
    "street": "１４丁目１（札幌中央郵便局私書箱第２１号）",
    "office_name": "北海道信用保証協会",
    "office_name_kana": "ホツカイドウシンヨウホシヨウキヨウカイ"
  },
  "8671": {
    "zip_code": "0608671",
    "prefecture": "北海道",
    "prefecture_kana": "ホッカイドウ",
    "prefecture_code": "1",
    "city": "札幌市中央区",
    "city_kana": "サッポロシチュウオウク",
    "town": "北十二条西",
    "town_kana": "キタ12ジョウニシ",
    "street": "２０丁目１−１０（札幌中央郵便局私書箱第９４号）",
    "office_name": "高橋水産　（株）",
    "office_name_kana": "タカハシスイサン カブシキガイシヤ"
  },
  "8676": {
    "zip_code": "0608676",
    "prefecture": "北海道",
    "prefecture_kana": "ホッカイドウ",
    "prefecture_code": "1",
    "city": "札幌市中央区",
    "city_kana": "サッポロシチュウオウク",
    "town": "大通西",
    "town_kana": "オオドオリニシ",
    "street": "４丁目１（札幌中央郵便局私書箱第７６号）",
    "office_name": "株式会社　北海道銀行",
    "office_name_kana": "カブシキガイシヤ ホツカイドウギンコウ"
  },
  "8677": {
    "zip_code": "0608677",
    "prefecture": "北海道",
    "prefecture_kana": "ホッカイドウ",
    "prefecture_code": "1",
    "city": "札幌市中央区",
    "city_kana": "サッポロシチュウオウク",
    "town": "大通東",
    "town_kana": "オオドオリヒガシ",
    "street": "１丁目２（札幌中央郵便局私書箱第４号）",
    "office_name": "北海道電力　株式会社",
    "office_name_kana": "ホツカイドウデンリヨク カブシキガイシヤ"
  },
  "8678": {
    "zip_code": "0608678",
    "prefecture": "北海道",
    "prefecture_kana": "ホッカイドウ",
    "prefecture_code": "1",
    "city": "札幌市中央区",
    "city_kana": "サッポロシチュウオウク",
    "town": "北四条西",
    "town_kana": "キタ4ジョウニシ",
    "street": "５丁目１番３号（札幌中央郵便局私書箱第１２６号）",
    "office_name": "日本生命保険　相互会社　札幌支社",
    "office_name_kana": "ニホンセイメイホケン ソウゴガイシヤ サツポロシシヤ"
  },
  "8686": {
    "zip_code": "0608686",
    "prefecture": "北海道",
    "prefecture_kana": "ホッカイドウ",
    "prefecture_code": "1",
    "city": "札幌市中央区",
    "city_kana": "サッポロシチュウオウク",
    "town": "北五条西",
    "town_kana": "キタ5ジョウニシ",
    "street": "２丁目ＪＲタワーオフィスプラザさっぽろ１３階",
    "office_name": "（株）　ベネッセコーポレーション　北海道事業所",
    "office_name_kana": "カブシキガイシヤ ベネツセコ-ポレ-シヨン ホツカイドウジギヨウシヨ"
  },
  "8687": {
    "zip_code": "0608687",
    "prefecture": "北海道",
    "prefecture_kana": "ホッカイドウ",
    "prefecture_code": "1",
    "city": "札幌市中央区",
    "city_kana": "サッポロシチュウオウク",
    "town": "北五条西",
    "town_kana": "キタ5ジョウニシ",
    "street": "２丁目ＪＲタワーオフィスプラザさっぽろ１３階",
    "office_name": "（株）　ベネッセコーポレーション　北海道事業所",
    "office_name_kana": "カブシキガイシヤ ベネツセコ-ポレ-シヨン ホツカイドウジギヨウシヨ"
  },
  "8688": {
    "zip_code": "0608688",
    "prefecture": "北海道",
    "prefecture_kana": "ホッカイドウ",
    "prefecture_code": "1",
    "city": "札幌市中央区",
    "city_kana": "サッポロシチュウオウク",
    "town": "北五条西",
    "town_kana": "キタ5ジョウニシ",
    "street": "２丁目ＪＲタワーオフィスプラザさっぽろ１３階",
    "office_name": "（株）　ベネッセコーポレーション　北海道事業所",
    "office_name_kana": "カブシキガイシヤ ベネツセコ-ポレ-シヨン ホツカイドウジギヨウシヨ"
  },
  "8703": {
    "zip_code": "0608703",
    "prefecture": "北海道",
    "prefecture_kana": "ホッカイドウ",
    "prefecture_code": "1",
    "city": "札幌市中央区",
    "city_kana": "サッポロシチュウオウク",
    "town": "大通西",
    "town_kana": "オオドオリニシ",
    "street": "１丁目１（札幌中央郵便局私書箱第２９号）",
    "office_name": "日本放送協会　札幌放送局　（ＮＨＫ）",
    "office_name_kana": "ニツポンホウソウキヨウカイ サツポロホウソウキヨク (エヌエイチケイ)"
  },
  "8705": {
    "zip_code": "0608705",
    "prefecture": "北海道",
    "prefecture_kana": "ホッカイドウ",
    "prefecture_code": "1",
    "city": "札幌市中央区",
    "city_kana": "サッポロシチュウオウク",
    "town": "北一条西",
    "town_kana": "キタ1ジョウニシ",
    "street": "８丁目１−１（札幌中央郵便局私書箱第１９８号）",
    "office_name": "札幌テレビ放送　株式会社　（ＳＴＶ）",
    "office_name_kana": "サツポロテレビホウソウ カブシキガイシヤ (エステイ-ブイ)"
  },
  "8706": {
    "zip_code": "0608706",
    "prefecture": "北海道",
    "prefecture_kana": "ホッカイドウ",
    "prefecture_code": "1",
    "city": "札幌市中央区",
    "city_kana": "サッポロシチュウオウク",
    "town": "北一条西",
    "town_kana": "キタ1ジョウニシ",
    "street": "８丁目１−１（札幌中央郵便局私書箱第２２２号）",
    "office_name": "札幌テレビ放送　株式会社　（ＳＴＶ）",
    "office_name_kana": "サツポロテレビホウソウ カブシキガイシヤ (エステイブイ)"
  },
  "8707": {
    "zip_code": "0608707",
    "prefecture": "北海道",
    "prefecture_kana": "ホッカイドウ",
    "prefecture_code": "1",
    "city": "札幌市中央区",
    "city_kana": "サッポロシチュウオウク",
    "town": "北一条西",
    "town_kana": "キタ1ジョウニシ",
    "street": "８丁目１−１（札幌中央郵便局私書箱第２１２号）",
    "office_name": "札幌テレビ放送　株式会社　（ＳＴＶ）　どさんこワイド２１２",
    "office_name_kana": "サツポロテレビホウソウ カブシキガイシヤ (エステイブイ) ドサンコワイド212"
  },
  "8711": {
    "zip_code": "0608711",
    "prefecture": "北海道",
    "prefecture_kana": "ホッカイドウ",
    "prefecture_code": "1",
    "city": "札幌市中央区",
    "city_kana": "サッポロシチュウオウク",
    "town": "大通西",
    "town_kana": "オオドオリニシ",
    "street": "３丁目６（札幌中央郵便局私書箱第３号）",
    "office_name": "株式会社　北海道新聞社",
    "office_name_kana": "カブシキガイシヤ ホツカイドウシンブンシヤ"
  },
  "8720": {
    "zip_code": "0608720",
    "prefecture": "北海道",
    "prefecture_kana": "ホッカイドウ",
    "prefecture_code": "1",
    "city": "札幌市中央区",
    "city_kana": "サッポロシチュウオウク",
    "town": "北三条西",
    "town_kana": "キタ3ジョウニシ",
    "street": "４丁目（札幌中央郵便局私書箱第２３号）",
    "office_name": "野村證券　株式会社　札幌支店",
    "office_name_kana": "ノムラシヨウケン カブシキガイシヤ サツポロシテン"
  },
  "8721": {
    "zip_code": "0608721",
    "prefecture": "北海道",
    "prefecture_kana": null,
    "prefecture_code": null,
    "city": "札幌市中央区",
    "city_kana": null,
    "town": "北３条西",
    "town_kana": null,
    "street": "１４丁目２番（札幌中央郵便局私書箱第１９９号）",
    "office_name": "大丸　株式会社　紙包材営業本部",
    "office_name_kana": "ダイマル カブシキガイシヤ カミホウザイエイギヨウホンブ"
  },
  "8725": {
    "zip_code": "0608725",
    "prefecture": "北海道",
    "prefecture_kana": "ホッカイドウ",
    "prefecture_code": "1",
    "city": "札幌市中央区",
    "city_kana": "サッポロシチュウオウク",
    "town": "北一条西",
    "town_kana": "キタ1ジョウニシ",
    "street": "５丁目３−１０（札幌中央郵便局私書箱第２２５号）",
    "office_name": "北海道労働金庫　本部",
    "office_name_kana": "ホツカイドウロウドウキンコ ホンブ"
  },
  "8767": {
    "zip_code": "0608767",
    "prefecture": "北海道",
    "prefecture_kana": "ホッカイドウ",
    "prefecture_code": "1",
    "city": "札幌市中央区",
    "city_kana": "サッポロシチュウオウク",
    "town": "南一条東",
    "town_kana": "ミナミ1ジョウヒガシ",
    "street": "６丁目２番５号",
    "office_name": "ＫＤＤＩ　株式会社",
    "office_name_kana": "ケイデイデイアイ カブシキガイシヤ"
  },
  "8776": {
    "zip_code": "0608776",
    "prefecture": "北海道",
    "prefecture_kana": "ホッカイドウ",
    "prefecture_code": "1",
    "city": "札幌市中央区",
    "city_kana": "サッポロシチュウオウク",
    "town": "大通西",
    "town_kana": "オオドオリニシ",
    "street": "３丁目６",
    "office_name": "ありがとう１０周年プレゼントキャンペーン事務局",
    "office_name_kana": "アリガトウジユツシユウネンプレゼントキヤンペ-ンジムキヨク"
  },
  "8792": {
    "zip_code": "0608792",
    "prefecture": "北海道",
    "prefecture_kana": "ホッカイドウ",
    "prefecture_code": "1",
    "city": "札幌市中央区",
    "city_kana": "サッポロシチュウオウク",
    "town": "大通東",
    "town_kana": "オオドオリヒガシ",
    "street": "２丁目１",
    "office_name": "仙台サービスセンター　郵便局サービス課",
    "office_name_kana": "センダイサ-ビスセンタ- ユウビンキヨクサ-ビスカ"
  },
  "8795": {
    "zip_code": "0608795",
    "prefecture": "北海道",
    "prefecture_kana": "ホッカイドウ",
    "prefecture_code": "1",
    "city": "札幌市北区",
    "city_kana": "サッポロシキタク",
    "town": "北八条西",
    "town_kana": "キタ8ジョウニシ",
    "street": "２丁目１−１",
    "office_name": "北海道総合通信局",
    "office_name_kana": "ホツカイドウソウゴウツウシンキヨク"
  },
  "8796": {
    "zip_code": "0608796",
    "prefecture": "北海道",
    "prefecture_kana": "ホッカイドウ",
    "prefecture_code": "1",
    "city": "札幌市中央区",
    "city_kana": "サッポロシチュウオウク",
    "town": "北二条西",
    "town_kana": "キタ2ジョウニシ",
    "street": "４丁目３番地",
    "office_name": "札幌監査室",
    "office_name_kana": "サツポロカンサシツ"
  },
  "8797": [
    {
      "zip_code": "0608797",
      "prefecture": "北海道",
      "prefecture_kana": "ホッカイドウ",
      "prefecture_code": "1",
      "city": "札幌市中央区",
      "city_kana": "サッポロシチュウオウク",
      "town": "北二条西",
      "town_kana": "キタ2ジョウニシ",
      "street": "４丁目３番地",
      "office_name": "株式会社　ゆうちょ銀行　札幌支店",
      "office_name_kana": "カブシキカイシヤ ユウチヨギンコウ サツポロシテン"
    },
    {
      "zip_code": "0608797",
      "prefecture": "北海道",
      "prefecture_kana": "ホッカイドウ",
      "prefecture_code": "1",
      "city": "札幌市中央区",
      "city_kana": "サッポロシチュウオウク",
      "town": "北二条西",
      "town_kana": "キタ2ジョウニシ",
      "street": "４丁目３番地",
      "office_name": "株式会社　かんぽ生命　札幌支店",
      "office_name_kana": "カブシキガイシヤ カンポセイメイ サツポロシテン"
    },
    {
      "zip_code": "0608797",
      "prefecture": "北海道",
      "prefecture_kana": "ホッカイドウ",
      "prefecture_code": "1",
      "city": "札幌市中央区",
      "city_kana": "サッポロシチュウオウク",
      "town": "北二条西",
      "town_kana": "キタ2ジョウニシ",
      "street": "４丁目３日本郵政グループ札幌ビル７Ｆ",
      "office_name": "株式会社　ゆうちょ銀行　道央地域センター",
      "office_name_kana": "カブシキガイシヤ ユウチヨギンコウ ドウオウチイキセンタ-"
    },
    {
      "zip_code": "0608797",
      "prefecture": "北海道",
      "prefecture_kana": "ホッカイドウ",
      "prefecture_code": "1",
      "city": "札幌市中央区",
      "city_kana": "サッポロシチュウオウク",
      "town": "北二条西",
      "town_kana": "キタ2ジョウニシ",
      "street": "４丁目３番地",
      "office_name": "日本郵便　株式会社　北海道支社",
      "office_name_kana": "ニホンユウビン カブシキガイシヤ ホツカイドウシシヤ"
    }
  ]
}