{
  "0200": {
    "zip_code": "0610200",
    "prefecture": "北海道",
    "prefecture_kana": "ホッカイドウ",
    "prefecture_code": 1,
    "city": "石狩郡当別町",
    "city_kana": "イシカリグントウベツチョウ",
    "town": "",
    "town_kana": "",
    "street": null,
    "office_name": null,
    "office_name_kana": null
  },
  "0201": {
    "zip_code": "0610201",
    "prefecture": "北海道",
    "prefecture_kana": "ホッカイドウ",
    "prefecture_code": 1,
    "city": "石狩郡当別町",
    "city_kana": "イシカリグントウベツチョウ",
    "town": "青山",
    "town_kana": "アオヤマ",
    "street": null,
    "office_name": null,
    "office_name_kana": null
  },
  "0202": {
    "zip_code": "0610202",
    "prefecture": "北海道",
    "prefecture_kana": "ホッカイドウ",
    "prefecture_code": 1,
    "city": "石狩郡当別町",
    "city_kana": "イシカリグントウベツチョウ",
    "town": "茂平沢",
    "town_kana": "モヘイザワ",
    "street": null,
    "office_name": null,
    "office_name_kana": null
  },
  "0203": {
    "zip_code": "0610203",
    "prefecture": "北海道",
    "prefecture_kana": "ホッカイドウ",
    "prefecture_code": 1,
    "city": "石狩郡当別町",
    "city_kana": "イシカリグントウベツチョウ",
    "town": "みどり野",
    "town_kana": "ミドリノ",
    "street": null,
    "office_name": null,
    "office_name_kana": null
  },
  "0204": {
    "zip_code": "0610204",
    "prefecture": "北海道",
    "prefecture_kana": "ホッカイドウ",
    "prefecture_code": 1,
    "city": "石狩郡当別町",
    "city_kana": "イシカリグントウベツチョウ",
    "town": "若葉",
    "town_kana": "ワカバ",
    "street": null,
    "office_name": null,
    "office_name_kana": null
  },
  "0205": {
    "zip_code": "0610205",
    "prefecture": "北海道",
    "prefecture_kana": "ホッカイドウ",
    "prefecture_code": 1,
    "city": "石狩郡当別町",
    "city_kana": "イシカリグントウベツチョウ",
    "town": "下川町",
    "town_kana": "シモカワチョウ",
    "street": null,
    "office_name": null,
    "office_name_kana": null
  },
  "0206": {
    "zip_code": "0610206",
    "prefecture": "北海道",
    "prefecture_kana": "ホッカイドウ",
    "prefecture_code": 1,
    "city": "石狩郡当別町",
    "city_kana": "イシカリグントウベツチョウ",
    "town": "川下",
    "town_kana": "カワシモ",
    "street": null,
    "office_name": null,
    "office_name_kana": null
  },
  "0207": {
    "zip_code": "0610207",
    "prefecture": "北海道",
    "prefecture_kana": "ホッカイドウ",
    "prefecture_code": 1,
    "city": "石狩郡当別町",
    "city_kana": "イシカリグントウベツチョウ",
    "town": "上当別",
    "town_kana": "カミトウベツ",
    "street": null,
    "office_name": null,
    "office_name_kana": null
  },
  "0208": {
    "zip_code": "0610208",
    "prefecture": "北海道",
    "prefecture_kana": "ホッカイドウ",
    "prefecture_code": 1,
    "city": "石狩郡当別町",
    "city_kana": "イシカリグントウベツチョウ",
    "town": "弁華別",
    "town_kana": "ベンケベツ",
    "street": null,
    "office_name": null,
    "office_name_kana": null
  },
  "0211": {
    "zip_code": "0610211",
    "prefecture": "北海道",
    "prefecture_kana": "ホッカイドウ",
    "prefecture_code": 1,
    "city": "石狩郡当別町",
    "city_kana": "イシカリグントウベツチョウ",
    "town": "中小屋",
    "town_kana": "ナカゴヤ",
    "street": null,
    "office_name": null,
    "office_name_kana": null
  },
  "0212": {
    "zip_code": "0610212",
    "prefecture": "北海道",
    "prefecture_kana": "ホッカイドウ",
    "prefecture_code": 1,
    "city": "石狩郡当別町",
    "city_kana": "イシカリグントウベツチョウ",
    "town": "金沢",
    "town_kana": "カナザワ",
    "street": null,
    "office_name": null,
    "office_name_kana": null
  },
  "0213": {
    "zip_code": "0610213",
    "prefecture": "北海道",
    "prefecture_kana": "ホッカイドウ",
    "prefecture_code": 1,
    "city": "石狩郡当別町",
    "city_kana": "イシカリグントウベツチョウ",
    "town": "東裏",
    "town_kana": "ヒガシウラ",
    "street": null,
    "office_name": null,
    "office_name_kana": null
  },
  "0214": {
    "zip_code": "0610214",
    "prefecture": "北海道",
    "prefecture_kana": "ホッカイドウ",
    "prefecture_code": 1,
    "city": "石狩郡当別町",
    "city_kana": "イシカリグントウベツチョウ",
    "town": "蕨岱",
    "town_kana": "ワラビタイ",
    "street": null,
    "office_name": null,
    "office_name_kana": null
  },
  "0215": {
    "zip_code": "0610215",
    "prefecture": "北海道",
    "prefecture_kana": "ホッカイドウ",
    "prefecture_code": 1,
    "city": "石狩郡当別町",
    "city_kana": "イシカリグントウベツチョウ",
    "town": "対雁",
    "town_kana": "ツイシカリ",
    "street": null,
    "office_name": null,
    "office_name_kana": null
  },
  "0216": {
    "zip_code": "0610216",
    "prefecture": "北海道",
    "prefecture_kana": "ホッカイドウ",
    "prefecture_code": 1,
    "city": "石狩郡当別町",
    "city_kana": "イシカリグントウベツチョウ",
    "town": "栄町",
    "town_kana": "サカエマチ",
    "street": null,
    "office_name": null,
    "office_name_kana": null
  },
  "0217": {
    "zip_code": "0610217",
    "prefecture": "北海道",
    "prefecture_kana": "ホッカイドウ",
    "prefecture_code": 1,
    "city": "石狩郡当別町",
    "city_kana": "イシカリグントウベツチョウ",
    "town": "幸町",
    "town_kana": "サイワイチョウ",
    "street": null,
    "office_name": null,
    "office_name_kana": null
  },
  "0218": {
    "zip_code": "0610218",
    "prefecture": "北海道",
    "prefecture_kana": "ホッカイドウ",
    "prefecture_code": 1,
    "city": "石狩郡当別町",
    "city_kana": "イシカリグントウベツチョウ",
    "town": "樺戸町",
    "town_kana": "カバトチョウ",
    "street": null,
    "office_name": null,
    "office_name_kana": null
  },
  "0221": {
    "zip_code": "0610221",
    "prefecture": "北海道",
    "prefecture_kana": "ホッカイドウ",
    "prefecture_code": 1,
    "city": "石狩郡当別町",
    "city_kana": "イシカリグントウベツチョウ",
    "town": "東町",
    "town_kana": "ヒガシマチ",
    "street": null,
    "office_name": null,
    "office_name_kana": null
  },
  "0222": {
    "zip_code": "0610222",
    "prefecture": "北海道",
    "prefecture_kana": "ホッカイドウ",
    "prefecture_code": 1,
    "city": "石狩郡当別町",
    "city_kana": "イシカリグントウベツチョウ",
    "town": "元町",
    "town_kana": "モトマチ",
    "street": null,
    "office_name": null,
    "office_name_kana": null
  },
  "0223": {
    "zip_code": "0610223",
    "prefecture": "北海道",
    "prefecture_kana": "ホッカイドウ",
    "prefecture_code": 1,
    "city": "石狩郡当別町",
    "city_kana": "イシカリグントウベツチョウ",
    "town": "弥生",
    "town_kana": "ヤヨイ",
    "street": null,
    "office_name": null,
    "office_name_kana": null
  },
  "0224": {
    "zip_code": "0610224",
    "prefecture": "北海道",
    "prefecture_kana": "ホッカイドウ",
    "prefecture_code": 1,
    "city": "石狩郡当別町",
    "city_kana": "イシカリグントウベツチョウ",
    "town": "末広",
    "town_kana": "スエヒロ",
    "street": null,
    "office_name": null,
    "office_name_kana": null
  },
  "0225": {
    "zip_code": "0610225",
    "prefecture": "北海道",
    "prefecture_kana": "ホッカイドウ",
    "prefecture_code": 1,
    "city": "石狩郡当別町",
    "city_kana": "イシカリグントウベツチョウ",
    "town": "美里",
    "town_kana": "ミサト",
    "street": null,
    "office_name": null,
    "office_name_kana": null
  },
  "0226": {
    "zip_code": "0610226",
    "prefecture": "北海道",
    "prefecture_kana": "ホッカイドウ",
    "prefecture_code": 1,
    "city": "石狩郡当別町",
    "city_kana": "イシカリグントウベツチョウ",
    "town": "錦町",
    "town_kana": "ニシキマチ",
    "street": null,
    "office_name": null,
    "office_name_kana": null
  },
  "0227": {
    "zip_code": "0610227",
    "prefecture": "北海道",
    "prefecture_kana": "ホッカイドウ",
    "prefecture_code": 1,
    "city": "石狩郡当別町",
    "city_kana": "イシカリグントウベツチョウ",
    "town": "園生",
    "town_kana": "ソノオ",
    "street": null,
    "office_name": null,
    "office_name_kana": null
  },
  "0228": {
    "zip_code": "0610228",
    "prefecture": "北海道",
    "prefecture_kana": "ホッカイドウ",
    "prefecture_code": 1,
    "city": "石狩郡当別町",
    "city_kana": "イシカリグントウベツチョウ",
    "town": "緑町",
    "town_kana": "ミドリマチ",
    "street": null,
    "office_name": null,
    "office_name_kana": null
  },
  "0231": {
    "zip_code": "0610231",
    "prefecture": "北海道",
    "prefecture_kana": "ホッカイドウ",
    "prefecture_code": 1,
    "city": "石狩郡当別町",
    "city_kana": "イシカリグントウベツチョウ",
    "town": "六軒町",
    "town_kana": "ロッケンチョウ",
    "street": null,
    "office_name": null,
    "office_name_kana": null
  },
  "0232": {
    "zip_code": "0610232",
    "prefecture": "北海道",
    "prefecture_kana": "ホッカイドウ",
    "prefecture_code": 1,
    "city": "石狩郡当別町",
    "city_kana": "イシカリグントウベツチョウ",
    "town": "春日町",
    "town_kana": "カスガチョウ",
    "street": null,
    "office_name": null,
    "office_name_kana": null
  },
  "0233": {
    "zip_code": "0610233",
    "prefecture": "北海道",
    "prefecture_kana": "ホッカイドウ",
    "prefecture_code": 1,
    "city": "石狩郡当別町",
    "city_kana": "イシカリグントウベツチョウ",
    "town": "白樺町",
    "town_kana": "シラカバチョウ",
    "street": null,
    "office_name": null,
    "office_name_kana": null
  },
  "0234": {
    "zip_code": "0610234",
    "prefecture": "北海道",
    "prefecture_kana": "ホッカイドウ",
    "prefecture_code": 1,
    "city": "石狩郡当別町",
    "city_kana": "イシカリグントウベツチョウ",
    "town": "西町",
    "town_kana": "ニシマチ",
    "street": null,
    "office_name": null,
    "office_name_kana": null
  },
  "0235": {
    "zip_code": "0610235",
    "prefecture": "北海道",
    "prefecture_kana": "ホッカイドウ",
    "prefecture_code": 1,
    "city": "石狩郡当別町",
    "city_kana": "イシカリグントウベツチョウ",
    "town": "北栄町",
    "town_kana": "ホクエイチョウ",
    "street": null,
    "office_name": null,
    "office_name_kana": null
  },
  "0251": {
    "zip_code": "0610251",
    "prefecture": "北海道",
    "prefecture_kana": "ホッカイドウ",
    "prefecture_code": 1,
    "city": "石狩郡当別町",
    "city_kana": "イシカリグントウベツチョウ",
    "town": "青山奥四番川",
    "town_kana": "アオヤマオク4バンガワ",
    "street": null,
    "office_name": null,
    "office_name_kana": null
  },
  "0252": {
    "zip_code": "0610252",
    "prefecture": "北海道",
    "prefecture_kana": "ホッカイドウ",
    "prefecture_code": 1,
    "city": "石狩郡当別町",
    "city_kana": "イシカリグントウベツチョウ",
    "town": "青山奥三番川",
    "town_kana": "アオヤマオク3バンガワ",
    "street": null,
    "office_name": null,
    "office_name_kana": null
  },
  "0253": {
    "zip_code": "0610253",
    "prefecture": "北海道",
    "prefecture_kana": "ホッカイドウ",
    "prefecture_code": 1,
    "city": "石狩郡当別町",
    "city_kana": "イシカリグントウベツチョウ",
    "town": "青山奥二番川",
    "town_kana": "アオヤマオク2バンガワ",
    "street": null,
    "office_name": null,
    "office_name_kana": null
  },
  "0254": [
    {
      "zip_code": "0610254",
      "prefecture": "北海道",
      "prefecture_kana": "ホッカイドウ",
      "prefecture_code": 1,
      "city": "石狩郡当別町",
      "city_kana": "イシカリグントウベツチョウ",
      "town": "青山中央",
      "town_kana": "アオヤマチュウオウ",
      "street": null,
      "office_name": null,
      "office_name_kana": null
    },
    {
      "zip_code": "0610254",
      "prefecture": "北海道",
      "prefecture_kana": "ホッカイドウ",
      "prefecture_code": 1,
      "city": "石狩郡当別町",
      "city_kana": "イシカリグントウベツチョウ",
      "town": "青山中央青山奥",
      "town_kana": "アオヤマチュウオウアオヤマオク",
      "street": null,
      "office_name": null,
      "office_name_kana": null
    }
  ],
  "0292": {
    "zip_code": "0610292",
    "prefecture": "北海道",
    "prefecture_kana": "ホッカイドウ",
    "prefecture_code": 1,
    "city": "石狩郡当別町",
    "city_kana": "イシカリグントウベツチョウ",
    "town": "白樺町",
    "town_kana": "シラカバチョウ",
    "street": "５８番地９",
    "office_name": "当別町役場",
    "office_name_kana": "トウベツチヨウヤクバ"
  },
  "0293": {
    "zip_code": "0610293",
    "prefecture": "北海道",
    "prefecture_kana": null,
    "prefecture_code": null,
    "city": "石狩郡当別町",
    "city_kana": null,
    "town": "字金沢",
    "town_kana": null,
    "street": "１７５７番地",
    "office_name": "学校法人　東日本学園北海道医療大学",
    "office_name_kana": "ガツコウホウジン ヒガシニツポンガクエンホツカイドウイリヨウダイガク"
  },
  "0295": {
    "zip_code": "0610295",
    "prefecture": "北海道",
    "prefecture_kana": "ホッカイドウ",
    "prefecture_code": 1,
    "city": "石狩郡当別町",
    "city_kana": "イシカリグントウベツチョウ",
    "town": "錦町",
    "town_kana": "ニシキマチ",
    "street": "５３番地５７号",
    "office_name": "当別町農業協同組合",
    "office_name_kana": "トウベツチヨウノウギヨウキヨウドウクミアイ"
  },
  "0296": {
    "zip_code": "0610296",
    "prefecture": "北海道",
    "prefecture_kana": "ホッカイドウ",
    "prefecture_code": 1,
    "city": "石狩郡当別町",
    "city_kana": "イシカリグントウベツチョウ",
    "town": "春日町",
    "town_kana": "カスガチョウ",
    "street": "８４番地４号",
    "office_name": "北海道当別高等学校",
    "office_name_kana": "ホツカイドウトウベツコウトウガツコウ"
  },
  "0500": {
    "zip_code": "0610500",
    "prefecture": "北海道",
    "prefecture_kana": "ホッカイドウ",
    "prefecture_code": 1,
    "city": "樺戸郡月形町",
    "city_kana": "カバトグンツキガタチョウ",
    "town": "",
    "town_kana": "",
    "street": null,
    "office_name": null,
    "office_name_kana": null
  },
  "0501": {
    "zip_code": "0610501",
    "prefecture": "北海道",
    "prefecture_kana": "ホッカイドウ",
    "prefecture_code": 1,
    "city": "樺戸郡月形町",
    "city_kana": "カバトグンツキガタチョウ",
    "town": "新生",
    "town_kana": "シンセイ",
    "street": null,
    "office_name": null,
    "office_name_kana": null
  },
  "0502": {
    "zip_code": "0610502",
    "prefecture": "北海道",
    "prefecture_kana": "ホッカイドウ",
    "prefecture_code": 1,
    "city": "樺戸郡月形町",
    "city_kana": "カバトグンツキガタチョウ",
    "town": "北農場",
    "town_kana": "キタノウジョウ",
    "street": null,
    "office_name": null,
    "office_name_kana": null
  },
  "0503": {
    "zip_code": "0610503",
    "prefecture": "北海道",
    "prefecture_kana": "ホッカイドウ",
    "prefecture_code": 1,
    "city": "樺戸郡月形町",
    "city_kana": "カバトグンツキガタチョウ",
    "town": "豊ケ丘",
    "town_kana": "トヨガオカ",
    "street": null,
    "office_name": null,
    "office_name_kana": null
  },
  "0504": {
    "zip_code": "0610504",
    "prefecture": "北海道",
    "prefecture_kana": "ホッカイドウ",
    "prefecture_code": 1,
    "city": "樺戸郡月形町",
    "city_kana": "カバトグンツキガタチョウ",
    "town": "新富",
    "town_kana": "シントミ",
    "street": null,
    "office_name": null,
    "office_name_kana": null
  },
  "0505": {
    "zip_code": "0610505",
    "prefecture": "北海道",
    "prefecture_kana": "ホッカイドウ",
    "prefecture_code": 1,
    "city": "樺戸郡月形町",
    "city_kana": "カバトグンツキガタチョウ",
    "town": "札比内",
    "town_kana": "サッピナイ",
    "street": null,
    "office_name": null,
    "office_name_kana": null
  },
  "0506": {
    "zip_code": "0610506",
    "prefecture": "北海道",
    "prefecture_kana": "ホッカイドウ",
    "prefecture_code": 1,
    "city": "樺戸郡月形町",
    "city_kana": "カバトグンツキガタチョウ",
    "town": "新宮",
    "town_kana": "シングウ",
    "street": null,
    "office_name": null,
    "office_name_kana": null
  },
  "0507": {
    "zip_code": "0610507",
    "prefecture": "北海道",
    "prefecture_kana": "ホッカイドウ",
    "prefecture_code": 1,
    "city": "樺戸郡月形町",
    "city_kana": "カバトグンツキガタチョウ",
    "town": "南札比内",
    "town_kana": "ミナミサッピナイ",
    "street": null,
    "office_name": null,
    "office_name_kana": null
  },
  "0508": {
    "zip_code": "0610508",
    "prefecture": "北海道",
    "prefecture_kana": "ホッカイドウ",
    "prefecture_code": 1,
    "city": "樺戸郡月形町",
    "city_kana": "カバトグンツキガタチョウ",
    "town": "厚栄",
    "town_kana": "コウエイ",
    "street": null,
    "office_name": null,
    "office_name_kana": null
  },
  "0511": {
    "zip_code": "0610511",
    "prefecture": "北海道",
    "prefecture_kana": "ホッカイドウ",
    "prefecture_code": 1,
    "city": "樺戸郡月形町",
    "city_kana": "カバトグンツキガタチョウ",
    "town": "市北",
    "town_kana": "シホク",
    "street": null,
    "office_name": null,
    "office_name_kana": null
  },
  "0512": {
    "zip_code": "0610512",
    "prefecture": "北海道",
    "prefecture_kana": "ホッカイドウ",
    "prefecture_code": 1,
    "city": "樺戸郡月形町",
    "city_kana": "カバトグンツキガタチョウ",
    "town": "市南",
    "town_kana": "シナン",
    "street": null,
    "office_name": null,
    "office_name_kana": null
  },
  "0513": {
    "zip_code": "0610513",
    "prefecture": "北海道",
    "prefecture_kana": "ホッカイドウ",
    "prefecture_code": 1,
    "city": "樺戸郡月形町",
    "city_kana": "カバトグンツキガタチョウ",
    "town": "農事会",
    "town_kana": "ノウジカイ",
    "street": null,
    "office_name": null,
    "office_name_kana": null
  },
  "0514": {
    "zip_code": "0610514",
    "prefecture": "北海道",
    "prefecture_kana": "ホッカイドウ",
    "prefecture_code": 1,
    "city": "樺戸郡月形町",
    "city_kana": "カバトグンツキガタチョウ",
    "town": "麻生",
    "town_kana": "アザブ",
    "street": null,
    "office_name": null,
    "office_name_kana": null
  },
  "0515": {
    "zip_code": "0610515",
    "prefecture": "北海道",
    "prefecture_kana": "ホッカイドウ",
    "prefecture_code": 1,
    "city": "樺戸郡月形町",
    "city_kana": "カバトグンツキガタチョウ",
    "town": "五耕地山",
    "town_kana": "ゴコウチヤマ",
    "street": null,
    "office_name": null,
    "office_name_kana": null
  },
  "0516": {
    "zip_code": "0610516",
    "prefecture": "北海道",
    "prefecture_kana": "ホッカイドウ",
    "prefecture_code": 1,
    "city": "樺戸郡月形町",
    "city_kana": "カバトグンツキガタチョウ",
    "town": "知来乙",
    "town_kana": "チライオツ",
    "street": null,
    "office_name": null,
    "office_name_kana": null
  },
  "0517": {
    "zip_code": "0610517",
    "prefecture": "北海道",
    "prefecture_kana": "ホッカイドウ",
    "prefecture_code": 1,
    "city": "樺戸郡月形町",
    "city_kana": "カバトグンツキガタチョウ",
    "town": "北郷",
    "town_kana": "キタゴウ",
    "street": null,
    "office_name": null,
    "office_name_kana": null
  },
  "0518": {
    "zip_code": "0610518",
    "prefecture": "北海道",
    "prefecture_kana": "ホッカイドウ",
    "prefecture_code": 1,
    "city": "樺戸郡月形町",
    "city_kana": "カバトグンツキガタチョウ",
    "town": "赤川",
    "town_kana": "アカガワ",
    "street": null,
    "office_name": null,
    "office_name_kana": null
  },
  "0521": {
    "zip_code": "0610521",
    "prefecture": "北海道",
    "prefecture_kana": "ホッカイドウ",
    "prefecture_code": 1,
    "city": "樺戸郡月形町",
    "city_kana": "カバトグンツキガタチョウ",
    "town": "南耕地",
    "town_kana": "ミナミコウチ",
    "street": null,
    "office_name": null,
    "office_name_kana": null
  },
  "0522": {
    "zip_code": "0610522",
    "prefecture": "北海道",
    "prefecture_kana": "ホッカイドウ",
    "prefecture_code": 1,
    "city": "樺戸郡月形町",
    "city_kana": "カバトグンツキガタチョウ",
    "town": "月浜",
    "town_kana": "ツキハマ",
    "street": null,
    "office_name": null,
    "office_name_kana": null
  },
  "0523": {
    "zip_code": "0610523",
    "prefecture": "北海道",
    "prefecture_kana": "ホッカイドウ",
    "prefecture_code": 1,
    "city": "樺戸郡月形町",
    "city_kana": "カバトグンツキガタチョウ",
    "town": "昭栄",
    "town_kana": "ショウエイ",
    "street": null,
    "office_name": null,
    "office_name_kana": null
  },
  "0524": {
    "zip_code": "0610524",
    "prefecture": "北海道",
    "prefecture_kana": "ホッカイドウ",
    "prefecture_code": 1,
    "city": "樺戸郡月形町",
    "city_kana": "カバトグンツキガタチョウ",
    "town": "南新田",
    "town_kana": "ミナミシンデン",
    "street": null,
    "office_name": null,
    "office_name_kana": null
  },
  "0525": {
    "zip_code": "0610525",
    "prefecture": "北海道",
    "prefecture_kana": "ホッカイドウ",
    "prefecture_code": 1,
    "city": "樺戸郡月形町",
    "city_kana": "カバトグンツキガタチョウ",
    "town": "新栄",
    "town_kana": "シンエイ",
    "street": null,
    "office_name": null,
    "office_name_kana": null
  },
  "0526": {
    "zip_code": "0610526",
    "prefecture": "北海道",
    "prefecture_kana": "ホッカイドウ",
    "prefecture_code": 1,
    "city": "樺戸郡月形町",
    "city_kana": "カバトグンツキガタチョウ",
    "town": "新田",
    "town_kana": "シンデン",
    "street": null,
    "office_name": null,
    "office_name_kana": null
  },
  "0527": {
    "zip_code": "0610527",
    "prefecture": "北海道",
    "prefecture_kana": "ホッカイドウ",
    "prefecture_code": 1,
    "city": "樺戸郡月形町",
    "city_kana": "カバトグンツキガタチョウ",
    "town": "共和",
    "town_kana": "キョウワ",
    "street": null,
    "office_name": null,
    "office_name_kana": null
  },
  "0528": {
    "zip_code": "0610528",
    "prefecture": "北海道",
    "prefecture_kana": "ホッカイドウ",
    "prefecture_code": 1,
    "city": "樺戸郡月形町",
    "city_kana": "カバトグンツキガタチョウ",
    "town": "月ケ岡",
    "town_kana": "ツキガオカ",
    "street": null,
    "office_name": null,
    "office_name_kana": null
  },
  "0529": {
    "zip_code": "0610529",
    "prefecture": "北海道",
    "prefecture_kana": "ホッカイドウ",
    "prefecture_code": 1,
    "city": "樺戸郡月形町",
    "city_kana": "カバトグンツキガタチョウ",
    "town": "月ヶ杜",
    "town_kana": "ツキガモリ",
    "street": null,
    "office_name": null,
    "office_name_kana": null
  },
  "0592": {
    "zip_code": "0610592",
    "prefecture": "北海道",
    "prefecture_kana": "ホッカイドウ",
    "prefecture_code": 1,
    "city": "樺戸郡月形町",
    "city_kana": "カバトグンツキガタチョウ",
    "town": "",
    "town_kana": "",
    "street": "１２１９番地（月形郵便局私書箱第２号）",
    "office_name": "月形町役場",
    "office_name_kana": "ツギガタチヨウヤクバ"
  },
  "0595": {
    "zip_code": "0610595",
    "prefecture": "北海道",
    "prefecture_kana": "ホッカイドウ",
    "prefecture_code": 1,
    "city": "樺戸郡月形町",
    "city_kana": "カバトグンツキガタチョウ",
    "town": "",
    "town_kana": "",
    "street": "１０１１番地",
    "office_name": "月形刑務所",
    "office_name_kana": "ツギガタケイムシヨ"
  },
  "0600": {
    "zip_code": "0610600",
    "prefecture": "北海道",
    "prefecture_kana": "ホッカイドウ",
    "prefecture_code": 1,
    "city": "樺戸郡浦臼町",
    "city_kana": "カバトグンウラウスチョウ",
    "town": "",
    "town_kana": "",
    "street": null,
    "office_name": null,
    "office_name_kana": null
  },
  "0601": {
    "zip_code": "0610601",
    "prefecture": "北海道",
    "prefecture_kana": "ホッカイドウ",
    "prefecture_code": 1,
    "city": "樺戸郡浦臼町",
    "city_kana": "カバトグンウラウスチョウ",
    "town": "鶴沼第１",
    "town_kana": "ツルヌマダイ1",
    "street": null,
    "office_name": null,
    "office_name_kana": null
  },
  "0602": {
    "zip_code": "0610602",
    "prefecture": "北海道",
    "prefecture_kana": "ホッカイドウ",
    "prefecture_code": 1,
    "city": "樺戸郡浦臼町",
    "city_kana": "カバトグンウラウスチョウ",
    "town": "鶴沼第２",
    "town_kana": "ツルヌマダイ2",
    "street": null,
    "office_name": null,
    "office_name_kana": null
  },
  "0603": {
    "zip_code": "0610603",
    "prefecture": "北海道",
    "prefecture_kana": "ホッカイドウ",
    "prefecture_code": 1,
    "city": "樺戸郡浦臼町",
    "city_kana": "カバトグンウラウスチョウ",
    "town": "鶴沼第３",
    "town_kana": "ツルヌマダイ3",
    "street": null,
    "office_name": null,
    "office_name_kana": null
  },
  "0611": {
    "zip_code": "0610611",
    "prefecture": "北海道",
    "prefecture_kana": "ホッカイドウ",
    "prefecture_code": 1,
    "city": "樺戸郡浦臼町",
    "city_kana": "カバトグンウラウスチョウ",
    "town": "浦臼第１",
    "town_kana": "ウラウスダイ1",
    "street": null,
    "office_name": null,
    "office_name_kana": null
  },
  "0612": {
    "zip_code": "0610612",
    "prefecture": "北海道",
    "prefecture_kana": "ホッカイドウ",
    "prefecture_code": 1,
    "city": "樺戸郡浦臼町",
    "city_kana": "カバトグンウラウスチョウ",
    "town": "浦臼第２",
    "town_kana": "ウラウスダイ2",
    "street": null,
    "office_name": null,
    "office_name_kana": null
  },
  "0613": {
    "zip_code": "0610613",
    "prefecture": "北海道",
    "prefecture_kana": "ホッカイドウ",
    "prefecture_code": 1,
    "city": "樺戸郡浦臼町",
    "city_kana": "カバトグンウラウスチョウ",
    "town": "浦臼第３",
    "town_kana": "ウラウスダイ3",
    "street": null,
    "office_name": null,
    "office_name_kana": null
  },
  "0614": {
    "zip_code": "0610614",
    "prefecture": "北海道",
    "prefecture_kana": "ホッカイドウ",
    "prefecture_code": 1,
    "city": "樺戸郡浦臼町",
    "city_kana": "カバトグンウラウスチョウ",
    "town": "浦臼第４",
    "town_kana": "ウラウスダイ4",
    "street": null,
    "office_name": null,
    "office_name_kana": null
  },
  "0615": {
    "zip_code": "0610615",
    "prefecture": "北海道",
    "prefecture_kana": "ホッカイドウ",
    "prefecture_code": 1,
    "city": "樺戸郡浦臼町",
    "city_kana": "カバトグンウラウスチョウ",
    "town": "浦臼第５",
    "town_kana": "ウラウスダイ5",
    "street": null,
    "office_name": null,
    "office_name_kana": null
  },
  "0616": {
    "zip_code": "0610616",
    "prefecture": "北海道",
    "prefecture_kana": "ホッカイドウ",
    "prefecture_code": 1,
    "city": "樺戸郡浦臼町",
    "city_kana": "カバトグンウラウスチョウ",
    "town": "浦臼第６",
    "town_kana": "ウラウスダイ6",
    "street": null,
    "office_name": null,
    "office_name_kana": null
  },
  "0617": {
    "zip_code": "0610617",
    "prefecture": "北海道",
    "prefecture_kana": "ホッカイドウ",
    "prefecture_code": 1,
    "city": "樺戸郡浦臼町",
    "city_kana": "カバトグンウラウスチョウ",
    "town": "浦臼第７",
    "town_kana": "ウラウスダイ7",
    "street": null,
    "office_name": null,
    "office_name_kana": null
  },
  "0618": {
    "zip_code": "0610618",
    "prefecture": "北海道",
    "prefecture_kana": "ホッカイドウ",
    "prefecture_code": 1,
    "city": "樺戸郡浦臼町",
    "city_kana": "カバトグンウラウスチョウ",
    "town": "浦臼第８",
    "town_kana": "ウラウスダイ8",
    "street": null,
    "office_name": null,
    "office_name_kana": null
  },
  "0621": {
    "zip_code": "0610621",
    "prefecture": "北海道",
    "prefecture_kana": "ホッカイドウ",
    "prefecture_code": 1,
    "city": "樺戸郡浦臼町",
    "city_kana": "カバトグンウラウスチョウ",
    "town": "晩生内第１",
    "town_kana": "オソキナイダイ1",
    "street": null,
    "office_name": null,
    "office_name_kana": null
  },
  "0622": {
    "zip_code": "0610622",
    "prefecture": "北海道",
    "prefecture_kana": "ホッカイドウ",
    "prefecture_code": 1,
    "city": "樺戸郡浦臼町",
    "city_kana": "カバトグンウラウスチョウ",
    "town": "晩生内第２",
    "town_kana": "オソキナイダイ2",
    "street": null,
    "office_name": null,
    "office_name_kana": null
  },
  "0623": {
    "zip_code": "0610623",
    "prefecture": "北海道",
    "prefecture_kana": "ホッカイドウ",
    "prefecture_code": 1,
    "city": "樺戸郡浦臼町",
    "city_kana": "カバトグンウラウスチョウ",
    "town": "晩生内第３",
    "town_kana": "オソキナイダイ3",
    "street": null,
    "office_name": null,
    "office_name_kana": null
  },
  "0692": {
    "zip_code": "0610692",
    "prefecture": "北海道",
    "prefecture_kana": null,
    "prefecture_code": null,
    "city": "樺戸郡浦臼町",
    "city_kana": null,
    "town": "字ウラウスナイ",
    "town_kana": null,
    "street": "１８３の１５（浦臼郵便局私書箱第１号）",
    "office_name": "浦臼町役場",
    "office_name_kana": "ウラウスチヨウヤクバ"
  },
  "1100": {
    "zip_code": "0611100",
    "prefecture": "北海道",
    "prefecture_kana": "ホッカイドウ",
    "prefecture_code": 1,
    "city": "北広島市",
    "city_kana": "キタヒロシマシ",
    "town": "",
    "town_kana": "",
    "street": null,
    "office_name": null,
    "office_name_kana": null
  },
  "1101": {
    "zip_code": "0611101",
    "prefecture": "北海道",
    "prefecture_kana": "ホッカイドウ",
    "prefecture_code": 1,
    "city": "北広島市",
    "city_kana": "キタヒロシマシ",
    "town": "中の沢",
    "town_kana": "ナカノサワ",
    "street": null,
    "office_name": null,
    "office_name_kana": null
  },
  "1102": {
    "zip_code": "0611102",
    "prefecture": "北海道",
    "prefecture_kana": "ホッカイドウ",
    "prefecture_code": 1,
    "city": "北広島市",
    "city_kana": "キタヒロシマシ",
    "town": "西の里",
    "town_kana": "ニシノサト",
    "street": null,
    "office_name": null,
    "office_name_kana": null
  },
  "1103": {
    "zip_code": "0611103",
    "prefecture": "北海道",
    "prefecture_kana": "ホッカイドウ",
    "prefecture_code": 1,
    "city": "北広島市",
    "city_kana": "キタヒロシマシ",
    "town": "虹ケ丘",
    "town_kana": "ニジガオカ",
    "street": null,
    "office_name": null,
    "office_name_kana": null
  },
  "1104": {
    "zip_code": "0611104",
    "prefecture": "北海道",
    "prefecture_kana": "ホッカイドウ",
    "prefecture_code": 1,
    "city": "北広島市",
    "city_kana": "キタヒロシマシ",
    "town": "西の里北",
    "town_kana": "ニシノサトキタ",
    "street": null,
    "office_name": null,
    "office_name_kana": null
  },
  "1105": {
    "zip_code": "0611105",
    "prefecture": "北海道",
    "prefecture_kana": "ホッカイドウ",
    "prefecture_code": 1,
    "city": "北広島市",
    "city_kana": "キタヒロシマシ",
    "town": "西の里東",
    "town_kana": "ニシノサトヒガシ",
    "street": null,
    "office_name": null,
    "office_name_kana": null
  },
  "1106": {
    "zip_code": "0611106",
    "prefecture": "北海道",
    "prefecture_kana": "ホッカイドウ",
    "prefecture_code": 1,
    "city": "北広島市",
    "city_kana": "キタヒロシマシ",
    "town": "西の里南",
    "town_kana": "ニシノサトミナミ",
    "street": null,
    "office_name": null,
    "office_name_kana": null
  },
  "1111": {
    "zip_code": "0611111",
    "prefecture": "北海道",
    "prefecture_kana": "ホッカイドウ",
    "prefecture_code": 1,
    "city": "北広島市",
    "city_kana": "キタヒロシマシ",
    "town": "北の里",
    "town_kana": "キタノサト",
    "street": null,
    "office_name": null,
    "office_name_kana": null
  },
  "1112": {
    "zip_code": "0611112",
    "prefecture": "北海道",
    "prefecture_kana": "ホッカイドウ",
    "prefecture_code": 1,
    "city": "北広島市",
    "city_kana": "キタヒロシマシ",
    "town": "共栄",
    "town_kana": "キョウエイ",
    "street": null,
    "office_name": null,
    "office_name_kana": null
  },
  "1113": {
    "zip_code": "0611113",
    "prefecture": "北海道",
    "prefecture_kana": "ホッカイドウ",
    "prefecture_code": 1,
    "city": "北広島市",
    "city_kana": "キタヒロシマシ",
    "town": "共栄町",
    "town_kana": "キョウエイチョウ",
    "street": null,
    "office_name": null,
    "office_name_kana": null
  },
  "1114": {
    "zip_code": "0611114",
    "prefecture": "北海道",
    "prefecture_kana": "ホッカイドウ",
    "prefecture_code": 1,
    "city": "北広島市",
    "city_kana": "キタヒロシマシ",
    "town": "東共栄",
    "town_kana": "ヒガシキョウエイ",
    "street": null,
    "office_name": null,
    "office_name_kana": null
  },
  "1115": {
    "zip_code": "0611115",
    "prefecture": "北海道",
    "prefecture_kana": "ホッカイドウ",
    "prefecture_code": 1,
    "city": "北広島市",
    "city_kana": "キタヒロシマシ",
    "town": "美咲き野",
    "town_kana": "ミサキノ",
    "street": null,
    "office_name": null,
    "office_name_kana": null
  },
  "1121": {
    "zip_code": "0611121",
    "prefecture": "北海道",
    "prefecture_kana": "ホッカイドウ",
    "prefecture_code": 1,
    "city": "北広島市",
    "city_kana": "キタヒロシマシ",
    "town": "中央",
    "town_kana": "チュウオウ",
    "street": null,
    "office_name": null,
    "office_name_kana": null
  },
  "1122": {
    "zip_code": "0611122",
    "prefecture": "北海道",
    "prefecture_kana": "ホッカイドウ",
    "prefecture_code": 1,
    "city": "北広島市",
    "city_kana": "キタヒロシマシ",
    "town": "広島",
    "town_kana": "ヒロシマ",
    "street": null,
    "office_name": null,
    "office_name_kana": null
  },
  "1123": {
    "zip_code": "0611123",
    "prefecture": "北海道",
    "prefecture_kana": "ホッカイドウ",
    "prefecture_code": 1,
    "city": "北広島市",
    "city_kana": "キタヒロシマシ",
    "town": "朝日町",
    "town_kana": "アサヒチョウ",
    "street": null,
    "office_name": null,
    "office_name_kana": null
  },
  "1124": {
    "zip_code": "0611124",
    "prefecture": "北海道",
    "prefecture_kana": "ホッカイドウ",
    "prefecture_code": 1,
    "city": "北広島市",
    "city_kana": "キタヒロシマシ",
    "town": "稲穂町西",
    "town_kana": "イナホチョウニシ",
    "street": null,
    "office_name": null,
    "office_name_kana": null
  },
  "1125": {
    "zip_code": "0611125",
    "prefecture": "北海道",
    "prefecture_kana": "ホッカイドウ",
    "prefecture_code": 1,
    "city": "北広島市",
    "city_kana": "キタヒロシマシ",
    "town": "稲穂町東",
    "town_kana": "イナホチョウヒガシ",
    "street": null,
    "office_name": null,
    "office_name_kana": null
  },
  "1126": {
    "zip_code": "0611126",
    "prefecture": "北海道",
    "prefecture_kana": "ホッカイドウ",
    "prefecture_code": 1,
    "city": "北広島市",
    "city_kana": "キタヒロシマシ",
    "town": "新富町東",
    "town_kana": "シントミチョウヒガシ",
    "street": null,
    "office_name": null,
    "office_name_kana": null
  },
  "1127": {
    "zip_code": "0611127",
    "prefecture": "北海道",
    "prefecture_kana": "ホッカイドウ",
    "prefecture_code": 1,
    "city": "北広島市",
    "city_kana": "キタヒロシマシ",
    "town": "新富町西",
    "town_kana": "シントミチョウニシ",
    "street": null,
    "office_name": null,
    "office_name_kana": null
  },
  "1131": {
    "zip_code": "0611131",
    "prefecture": "北海道",
    "prefecture_kana": "ホッカイドウ",
    "prefecture_code": 1,
    "city": "北広島市",
    "city_kana": "キタヒロシマシ",
    "town": "美沢",
    "town_kana": "ミサワ",
    "street": null,
    "office_name": null,
    "office_name_kana": null
  },
  "1132": {
    "zip_code": "0611132",
    "prefecture": "北海道",
    "prefecture_kana": "ホッカイドウ",
    "prefecture_code": 1,
    "city": "北広島市",
    "city_kana": "キタヒロシマシ",
    "town": "北進町",
    "town_kana": "ホクシンチョウ",
    "street": null,
    "office_name": null,
    "office_name_kana": null
  },
  "1133": {
    "zip_code": "0611133",
    "prefecture": "北海道",
    "prefecture_kana": "ホッカイドウ",
    "prefecture_code": 1,
    "city": "北広島市",
    "city_kana": "キタヒロシマシ",
    "town": "栄町",
    "town_kana": "サカエチョウ",
    "street": null,
    "office_name": null,
    "office_name_kana": null
  },
  "1134": {
    "zip_code": "0611134",
    "prefecture": "北海道",
    "prefecture_kana": "ホッカイドウ",
    "prefecture_code": 1,
    "city": "北広島市",
    "city_kana": "キタヒロシマシ",
    "town": "広葉町",
    "town_kana": "コウヨウチョウ",
    "street": null,
    "office_name": null,
    "office_name_kana": null
  },
  "1135": {
    "zip_code": "0611135",
    "prefecture": "北海道",
    "prefecture_kana": "ホッカイドウ",
    "prefecture_code": 1,
    "city": "北広島市",
    "city_kana": "キタヒロシマシ",
    "town": "輝美町",
    "town_kana": "テルミチョウ",
    "street": null,
    "office_name": null,
    "office_name_kana": null
  },
  "1136": {
    "zip_code": "0611136",
    "prefecture": "北海道",
    "prefecture_kana": "ホッカイドウ",
    "prefecture_code": 1,
    "city": "北広島市",
    "city_kana": "キタヒロシマシ",
    "town": "松葉町",
    "town_kana": "マツバチョウ",
    "street": null,
    "office_name": null,
    "office_name_kana": null
  },
  "1137": {
    "zip_code": "0611137",
    "prefecture": "北海道",
    "prefecture_kana": "ホッカイドウ",
    "prefecture_code": 1,
    "city": "北広島市",
    "city_kana": "キタヒロシマシ",
    "town": "緑陽町",
    "town_kana": "リョクヨウチョウ",
    "street": null,
    "office_name": null,
    "office_name_kana": null
  },
  "1141": {
    "zip_code": "0611141",
    "prefecture": "北海道",
    "prefecture_kana": "ホッカイドウ",
    "prefecture_code": 1,
    "city": "北広島市",
    "city_kana": "キタヒロシマシ",
    "town": "青葉町",
    "town_kana": "アオバチョウ",
    "street": null,
    "office_name": null,
    "office_name_kana": null
  },
  "1142": {
    "zip_code": "0611142",
    "prefecture": "北海道",
    "prefecture_kana": "ホッカイドウ",
    "prefecture_code": 1,
    "city": "北広島市",
    "city_kana": "キタヒロシマシ",
    "town": "若葉町",
    "town_kana": "ワカバチョウ",
    "street": null,
    "office_name": null,
    "office_name_kana": null
  },
  "1143": {
    "zip_code": "0611143",
    "prefecture": "北海道",
    "prefecture_kana": "ホッカイドウ",
    "prefecture_code": 1,
    "city": "北広島市",
    "city_kana": "キタヒロシマシ",
    "town": "南町",
    "town_kana": "ミナミチョウ",
    "street": null,
    "office_name": null,
    "office_name_kana": null
  },
  "1144": {
    "zip_code": "0611144",
    "prefecture": "北海道",
    "prefecture_kana": "ホッカイドウ",
    "prefecture_code": 1,
    "city": "北広島市",
    "city_kana": "キタヒロシマシ",
    "town": "白樺町",
    "town_kana": "シラカバチョウ",
    "street": null,
    "office_name": null,
    "office_name_kana": null
  },
  "1145": {
    "zip_code": "0611145",
    "prefecture": "北海道",
    "prefecture_kana": "ホッカイドウ",
    "prefecture_code": 1,
    "city": "北広島市",
    "city_kana": "キタヒロシマシ",
    "town": "泉町",
    "town_kana": "イズミチョウ",
    "street": null,
    "office_name": null,
    "office_name_kana": null
  },
  "1146": {
    "zip_code": "0611146",
    "prefecture": "北海道",
    "prefecture_kana": "ホッカイドウ",
    "prefecture_code": 1,
    "city": "北広島市",
    "city_kana": "キタヒロシマシ",
    "town": "高台町",
    "town_kana": "タカダイチョウ",
    "street": null,
    "office_name": null,
    "office_name_kana": null
  },
  "1147": {
    "zip_code": "0611147",
    "prefecture": "北海道",
    "prefecture_kana": "ホッカイドウ",
    "prefecture_code": 1,
    "city": "北広島市",
    "city_kana": "キタヒロシマシ",
    "town": "里見町",
    "town_kana": "サトミチョウ",
    "street": null,
    "office_name": null,
    "office_name_kana": null
  },
  "1148": {
    "zip_code": "0611148",
    "prefecture": "北海道",
    "prefecture_kana": "ホッカイドウ",
    "prefecture_code": 1,
    "city": "北広島市",
    "city_kana": "キタヒロシマシ",
    "town": "山手町",
    "town_kana": "ヤマテチョウ",
    "street": null,
    "office_name": null,
    "office_name_kana": null
  },
  "1151": {
    "zip_code": "0611151",
    "prefecture": "北海道",
    "prefecture_kana": "ホッカイドウ",
    "prefecture_code": 1,
    "city": "北広島市",
    "city_kana": "キタヒロシマシ",
    "town": "東の里",
    "town_kana": "ヒガシノサト",
    "street": null,
    "office_name": null,
    "office_name_kana": null
  },
  "1152": {
    "zip_code": "0611152",
    "prefecture": "北海道",
    "prefecture_kana": "ホッカイドウ",
    "prefecture_code": 1,
    "city": "北広島市",
    "city_kana": "キタヒロシマシ",
    "town": "中の沢",
    "town_kana": "ナカノサワ",
    "street": null,
    "office_name": null,
    "office_name_kana": null
  },
  "1153": {
    "zip_code": "0611153",
    "prefecture": "北海道",
    "prefecture_kana": "ホッカイドウ",
    "prefecture_code": 1,
    "city": "北広島市",
    "city_kana": "キタヒロシマシ",
    "town": "富ケ岡",
    "town_kana": "トミガオカ",
    "street": null,
    "office_name": null,
    "office_name_kana": null
  },
  "1154": {
    "zip_code": "0611154",
    "prefecture": "北海道",
    "prefecture_kana": "ホッカイドウ",
    "prefecture_code": 1,
    "city": "北広島市",
    "city_kana": "キタヒロシマシ",
    "town": "南の里",
    "town_kana": "ミナミノサト",
    "street": null,
    "office_name": null,
    "office_name_kana": null
  },
  "1192": {
    "zip_code": "0611192",
    "prefecture": "北海道",
    "prefecture_kana": "ホッカイドウ",
    "prefecture_code": 1,
    "city": "北広島市",
    "city_kana": "キタヒロシマシ",
    "town": "中央",
    "town_kana": "チュウオウ",
    "street": "４丁目２−１",
    "office_name": "北広島市役所",
    "office_name_kana": "キタヒロシマシヤクシヨ"
  },
  "1195": {
    "zip_code": "0611195",
    "prefecture": "北海道",
    "prefecture_kana": "ホッカイドウ",
    "prefecture_code": 1,
    "city": "北広島市",
    "city_kana": "キタヒロシマシ",
    "town": "西の里",
    "town_kana": "ニシノサト",
    "street": "５０７番地１",
    "office_name": "社会福祉法人　北海道リハビリー",
    "office_name_kana": "シヤカイフクシホウジン ホツカイドウリハビリ-"
  },
  "1196": {
    "zip_code": "0611196",
    "prefecture": "北海道",
    "prefecture_kana": "ホッカイドウ",
    "prefecture_code": 1,
    "city": "北広島市",
    "city_kana": "キタヒロシマシ",
    "town": "中の沢",
    "town_kana": "ナカノサワ",
    "street": "１４９番地",
    "office_name": "北海道櫻井産業学園",
    "office_name_kana": "ホツカイドウサクライサンギヨウガクエン"
  },
  "1261": {
    "zip_code": "0611261",
    "prefecture": "北海道",
    "prefecture_kana": "ホッカイドウ",
    "prefecture_code": 1,
    "city": "北広島市",
    "city_kana": "キタヒロシマシ",
    "town": "希望ケ丘",
    "town_kana": "キボウガオカ",
    "street": null,
    "office_name": null,
    "office_name_kana": null
  },
  "1264": {
    "zip_code": "0611264",
    "prefecture": "北海道",
    "prefecture_kana": "ホッカイドウ",
    "prefecture_code": 1,
    "city": "北広島市",
    "city_kana": "キタヒロシマシ",
    "town": "輪厚",
    "town_kana": "ワッツ",
    "street": null,
    "office_name": null,
    "office_name_kana": null
  },
  "1265": {
    "zip_code": "0611265",
    "prefecture": "北海道",
    "prefecture_kana": "ホッカイドウ",
    "prefecture_code": 1,
    "city": "北広島市",
    "city_kana": "キタヒロシマシ",
    "town": "島松",
    "town_kana": "シママツ",
    "street": null,
    "office_name": null,
    "office_name_kana": null
  },
  "1266": {
    "zip_code": "0611266",
    "prefecture": "北海道",
    "prefecture_kana": "ホッカイドウ",
    "prefecture_code": 1,
    "city": "北広島市",
    "city_kana": "キタヒロシマシ",
    "town": "三島",
    "town_kana": "ミシマ",
    "street": null,
    "office_name": null,
    "office_name_kana": null
  },
  "1267": {
    "zip_code": "0611267",
    "prefecture": "北海道",
    "prefecture_kana": "ホッカイドウ",
    "prefecture_code": 1,
    "city": "北広島市",
    "city_kana": "キタヒロシマシ",
    "town": "仁別",
    "town_kana": "ニベツ",
    "street": null,
    "office_name": null,
    "office_name_kana": null
  },
  "1268": {
    "zip_code": "0611268",
    "prefecture": "北海道",
    "prefecture_kana": "ホッカイドウ",
    "prefecture_code": 1,
    "city": "北広島市",
    "city_kana": "キタヒロシマシ",
    "town": "輪厚中央",
    "town_kana": "ワッツチュウオウ",
    "street": null,
    "office_name": null,
    "office_name_kana": null
  },
  "1269": {
    "zip_code": "0611269",
    "prefecture": "北海道",
    "prefecture_kana": "ホッカイドウ",
    "prefecture_code": 1,
    "city": "北広島市",
    "city_kana": "キタヒロシマシ",
    "town": "輪厚元町",
    "town_kana": "ワッツモトマチ",
    "street": null,
    "office_name": null,
    "office_name_kana": null
  },
  "1270": {
    "zip_code": "0611270",
    "prefecture": "北海道",
    "prefecture_kana": "ホッカイドウ",
    "prefecture_code": 1,
    "city": "北広島市",
    "city_kana": "キタヒロシマシ",
    "town": "大曲",
    "town_kana": "オオマガリ",
    "street": null,
    "office_name": null,
    "office_name_kana": null
  },
  "1271": {
    "zip_code": "0611271",
    "prefecture": "北海道",
    "prefecture_kana": "ホッカイドウ",
    "prefecture_code": 1,
    "city": "北広島市",
    "city_kana": "キタヒロシマシ",
    "town": "大曲中央",
    "town_kana": "オオマガリチュウオウ",
    "street": null,
    "office_name": null,
    "office_name_kana": null
  },
  "1272": {
    "zip_code": "0611272",
    "prefecture": "北海道",
    "prefecture_kana": "ホッカイドウ",
    "prefecture_code": 1,
    "city": "北広島市",
    "city_kana": "キタヒロシマシ",
    "town": "大曲末広",
    "town_kana": "オオマガリスエヒロ",
    "street": null,
    "office_name": null,
    "office_name_kana": null
  },
  "1273": {
    "zip_code": "0611273",
    "prefecture": "北海道",
    "prefecture_kana": "ホッカイドウ",
    "prefecture_code": 1,
    "city": "北広島市",
    "city_kana": "キタヒロシマシ",
    "town": "大曲柏葉",
    "town_kana": "オオマガリハクヨウ",
    "street": null,
    "office_name": null,
    "office_name_kana": null
  },
  "1274": {
    "zip_code": "0611274",
    "prefecture": "北海道",
    "prefecture_kana": "ホッカイドウ",
    "prefecture_code": 1,
    "city": "北広島市",
    "city_kana": "キタヒロシマシ",
    "town": "大曲工業団地",
    "town_kana": "オオマガリコウギョウダンチ",
    "street": null,
    "office_name": null,
    "office_name_kana": null
  },
  "1275": {
    "zip_code": "0611275",
    "prefecture": "北海道",
    "prefecture_kana": "ホッカイドウ",
    "prefecture_code": 1,
    "city": "北広島市",
    "city_kana": "キタヒロシマシ",
    "town": "大曲南ケ丘",
    "town_kana": "オオマガリミナミガオカ",
    "street": null,
    "office_name": null,
    "office_name_kana": null
  },
  "1276": {
    "zip_code": "0611276",
    "prefecture": "北海道",
    "prefecture_kana": "ホッカイドウ",
    "prefecture_code": 1,
    "city": "北広島市",
    "city_kana": "キタヒロシマシ",
    "town": "大曲緑ケ丘",
    "town_kana": "オオマガリミドリガオカ",
    "street": null,
    "office_name": null,
    "office_name_kana": null
  },
  "1277": {
    "zip_code": "0611277",
    "prefecture": "北海道",
    "prefecture_kana": "ホッカイドウ",
    "prefecture_code": 1,
    "city": "北広島市",
    "city_kana": "キタヒロシマシ",
    "town": "大曲光",
    "town_kana": "オオマガリヒカリ",
    "street": null,
    "office_name": null,
    "office_name_kana": null
  },
  "1278": {
    "zip_code": "0611278",
    "prefecture": "北海道",
    "prefecture_kana": "ホッカイドウ",
    "prefecture_code": 1,
    "city": "北広島市",
    "city_kana": "キタヒロシマシ",
    "town": "大曲幸町",
    "town_kana": "オオマガリサイワイチョウ",
    "street": null,
    "office_name": null,
    "office_name_kana": null
  },
  "1279": {
    "zip_code": "0611279",
    "prefecture": "北海道",
    "prefecture_kana": "ホッカイドウ",
    "prefecture_code": 1,
    "city": "北広島市",
    "city_kana": "キタヒロシマシ",
    "town": "大曲並木",
    "town_kana": "オオマガリナミキ",
    "street": null,
    "office_name": null,
    "office_name_kana": null
  },
  "1281": {
    "zip_code": "0611281",
    "prefecture": "北海道",
    "prefecture_kana": "ホッカイドウ",
    "prefecture_code": 1,
    "city": "北広島市",
    "city_kana": "キタヒロシマシ",
    "town": "輪厚工業団地",
    "town_kana": "ワッツコウギョウダンチ",
    "street": null,
    "office_name": null,
    "office_name_kana": null
  },
  "1351": {
    "zip_code": "0611351",
    "prefecture": "北海道",
    "prefecture_kana": "ホッカイドウ",
    "prefecture_code": 1,
    "city": "恵庭市",
    "city_kana": "エニワシ",
    "town": "島松東町",
    "town_kana": "シママツヒガシマチ",
    "street": null,
    "office_name": null,
    "office_name_kana": null
  },
  "1352": {
    "zip_code": "0611352",
    "prefecture": "北海道",
    "prefecture_kana": "ホッカイドウ",
    "prefecture_code": 1,
    "city": "恵庭市",
    "city_kana": "エニワシ",
    "town": "島松仲町",
    "town_kana": "シママツナカマチ",
    "street": null,
    "office_name": null,
    "office_name_kana": null
  },
  "1353": {
    "zip_code": "0611353",
    "prefecture": "北海道",
    "prefecture_kana": "ホッカイドウ",
    "prefecture_code": 1,
    "city": "恵庭市",
    "city_kana": "エニワシ",
    "town": "島松本町",
    "town_kana": "シママツホンマチ",
    "street": null,
    "office_name": null,
    "office_name_kana": null
  },
  "1354": {
    "zip_code": "0611354",
    "prefecture": "北海道",
    "prefecture_kana": "ホッカイドウ",
    "prefecture_code": 1,
    "city": "恵庭市",
    "city_kana": "エニワシ",
    "town": "島松旭町",
    "town_kana": "シママツアサヒマチ",
    "street": null,
    "office_name": null,
    "office_name_kana": null
  },
  "1355": {
    "zip_code": "0611355",
    "prefecture": "北海道",
    "prefecture_kana": "ホッカイドウ",
    "prefecture_code": 1,
    "city": "恵庭市",
    "city_kana": "エニワシ",
    "town": "島松寿町",
    "town_kana": "シママツコトブキチョウ",
    "street": null,
    "office_name": null,
    "office_name_kana": null
  },
  "1356": {
    "zip_code": "0611356",
    "prefecture": "北海道",
    "prefecture_kana": "ホッカイドウ",
    "prefecture_code": 1,
    "city": "恵庭市",
    "city_kana": "エニワシ",
    "town": "西島松",
    "town_kana": "ニシシママツ",
    "street": null,
    "office_name": null,
    "office_name_kana": null
  },
  "1361": {
    "zip_code": "0611361",
    "prefecture": "北海道",
    "prefecture_kana": "ホッカイドウ",
    "prefecture_code": 1,
    "city": "恵庭市",
    "city_kana": "エニワシ",
    "town": "林田",
    "town_kana": "ハヤシダ",
    "street": null,
    "office_name": null,
    "office_name_kana": null
  },
  "1362": {
    "zip_code": "0611362",
    "prefecture": "北海道",
    "prefecture_kana": "ホッカイドウ",
    "prefecture_code": 1,
    "city": "恵庭市",
    "city_kana": "エニワシ",
    "town": "中島松",
    "town_kana": "ナカシママツ",
    "street": null,
    "office_name": null,
    "office_name_kana": null
  },
  "1363": [
    {
      "zip_code": "0611363",
      "prefecture": "北海道",
      "prefecture_kana": "ホッカイドウ",
      "prefecture_code": 1,
      "city": "恵庭市",
      "city_kana": "エニワシ",
      "town": "桜森",
      "town_kana": "サクラモリ",
      "street": null,
      "office_name": null,
      "office_name_kana": null
    },
    {
      "zip_code": "0611363",
      "prefecture": "北海道",
      "prefecture_kana": "ホッカイドウ",
      "prefecture_code": 1,
      "city": "恵庭市",
      "city_kana": "エニワシ",
      "town": "島松沢",
      "town_kana": "シママツザワ",
      "street": null,
      "office_name": null,
      "office_name_kana": null
    }
  ],
  "1364": {
    "zip_code": "0611364",
    "prefecture": "北海道",
    "prefecture_kana": "ホッカイドウ",
    "prefecture_code": 1,
    "city": "恵庭市",
    "city_kana": "エニワシ",
    "town": "下島松",
    "town_kana": "シモシママツ",
    "street": null,
    "office_name": null,
    "office_name_kana": null
  },
  "1365": {
    "zip_code": "0611365",
    "prefecture": "北海道",
    "prefecture_kana": "ホッカイドウ",
    "prefecture_code": 1,
    "city": "恵庭市",
    "city_kana": "エニワシ",
    "town": "穂栄",
    "town_kana": "ホエイ",
    "street": null,
    "office_name": null,
    "office_name_kana": null
  },
  "1366": {
    "zip_code": "0611366",
    "prefecture": "北海道",
    "prefecture_kana": "ホッカイドウ",
    "prefecture_code": 1,
    "city": "恵庭市",
    "city_kana": "エニワシ",
    "town": "北島",
    "town_kana": "キタジマ",
    "street": null,
    "office_name": null,
    "office_name_kana": null
  },
  "1371": {
    "zip_code": "0611371",
    "prefecture": "北海道",
    "prefecture_kana": "ホッカイドウ",
    "prefecture_code": 1,
    "city": "恵庭市",
    "city_kana": "エニワシ",
    "town": "恵み野東",
    "town_kana": "メグミノヒガシ",
    "street": null,
    "office_name": null,
    "office_name_kana": null
  },
  "1372": {
    "zip_code": "0611372",
    "prefecture": "北海道",
    "prefecture_kana": "ホッカイドウ",
    "prefecture_code": 1,
    "city": "恵庭市",
    "city_kana": "エニワシ",
    "town": "恵み野南",
    "town_kana": "メグミノミナミ",
    "street": null,
    "office_name": null,
    "office_name_kana": null
  },
  "1373": {
    "zip_code": "0611373",
    "prefecture": "北海道",
    "prefecture_kana": "ホッカイドウ",
    "prefecture_code": 1,
    "city": "恵庭市",
    "city_kana": "エニワシ",
    "town": "恵み野西",
    "town_kana": "メグミノニシ",
    "street": null,
    "office_name": null,
    "office_name_kana": null
  },
  "1374": {
    "zip_code": "0611374",
    "prefecture": "北海道",
    "prefecture_kana": "ホッカイドウ",
    "prefecture_code": 1,
    "city": "恵庭市",
    "city_kana": "エニワシ",
    "town": "恵み野北",
    "town_kana": "メグミノキタ",
    "street": null,
    "office_name": null,
    "office_name_kana": null
  },
  "1375": {
    "zip_code": "0611375",
    "prefecture": "北海道",
    "prefecture_kana": "ホッカイドウ",
    "prefecture_code": 1,
    "city": "恵庭市",
    "city_kana": "エニワシ",
    "town": "南島松",
    "town_kana": "ミナミシママツ",
    "street": null,
    "office_name": null,
    "office_name_kana": null
  },
  "1376": {
    "zip_code": "0611376",
    "prefecture": "北海道",
    "prefecture_kana": "ホッカイドウ",
    "prefecture_code": 1,
    "city": "恵庭市",
    "city_kana": "エニワシ",
    "town": "恵み野里美",
    "town_kana": "メグミノサトミ",
    "street": null,
    "office_name": null,
    "office_name_kana": null
  },
  "1392": {
    "zip_code": "0611392",
    "prefecture": "北海道",
    "prefecture_kana": "ホッカイドウ",
    "prefecture_code": 1,
    "city": "恵庭市",
    "city_kana": "エニワシ",
    "town": "島松仲町",
    "town_kana": "シママツナカマチ",
    "street": "２丁目１０番１４号",
    "office_name": "道央農業協同組合　恵庭支所",
    "office_name_kana": "ドウオウノウギヨウキヨウドウクミアイ エニワシシヨ"
  },
  "1393": {
    "zip_code": "0611393",
    "prefecture": "北海道",
    "prefecture_kana": "ホッカイドウ",
    "prefecture_code": 1,
    "city": "恵庭市",
    "city_kana": "エニワシ",
    "town": "西島松",
    "town_kana": "ニシシママツ",
    "street": "３０８番地",
    "office_name": "陸上自衛隊　北海道地区補給処",
    "office_name_kana": "リクジヨウジエイタイ ホツカイドウチクホキユウシヨ"
  },
  "1395": {
    "zip_code": "0611395",
    "prefecture": "北海道",
    "prefecture_kana": "ホッカイドウ",
    "prefecture_code": 1,
    "city": "恵庭市",
    "city_kana": "エニワシ",
    "town": "恵み野西",
    "town_kana": "メグミノニシ",
    "street": "２丁目３−５",
    "office_name": "医療法人　北晨会　恵み野病院",
    "office_name_kana": "イリヨウホウジン ホクシンカイ メグミノビヨウイン"
  },
  "1396": {
    "zip_code": "0611396",
    "prefecture": "北海道",
    "prefecture_kana": "ホッカイドウ",
    "prefecture_code": 1,
    "city": "恵庭市",
    "city_kana": "エニワシ",
    "town": "恵み野北",
    "town_kana": "メグミノキタ",
    "street": "２丁目１２−１",
    "office_name": "北海道ハイテクノロジー専門学校",
    "office_name_kana": "ホツカイドウハイテクノロジ-センモンガツコウ"
  },
  "1400": {
    "zip_code": "0611400",
    "prefecture": "北海道",
    "prefecture_kana": "ホッカイドウ",
    "prefecture_code": 1,
    "city": "恵庭市",
    "city_kana": "エニワシ",
    "town": "",
    "town_kana": "",
    "street": null,
    "office_name": null,
    "office_name_kana": null
  },
  "1401": {
    "zip_code": "0611401",
    "prefecture": "北海道",
    "prefecture_kana": "ホッカイドウ",
    "prefecture_code": 1,
    "city": "恵庭市",
    "city_kana": "エニワシ",
    "town": "漁太",
    "town_kana": "イザリブト",
    "street": null,
    "office_name": null,
    "office_name_kana": null
  },
  "1402": {
    "zip_code": "0611402",
    "prefecture": "北海道",
    "prefecture_kana": "ホッカイドウ",
    "prefecture_code": 1,
    "city": "恵庭市",
    "city_kana": "エニワシ",
    "town": "春日",
    "town_kana": "カスガ",
    "street": null,
    "office_name": null,
    "office_name_kana": null
  },
  "1403": {
    "zip_code": "0611403",
    "prefecture": "北海道",
    "prefecture_kana": "ホッカイドウ",
    "prefecture_code": 1,
    "city": "恵庭市",
    "city_kana": "エニワシ",
    "town": "中央",
    "town_kana": "チュウオウ",
    "street": null,
    "office_name": null,
    "office_name_kana": null
  },
  "1404": {
    "zip_code": "0611404",
    "prefecture": "北海道",
    "prefecture_kana": "ホッカイドウ",
    "prefecture_code": 1,
    "city": "恵庭市",
    "city_kana": "エニワシ",
    "town": "上山口",
    "town_kana": "カミヤマグチ",
    "street": null,
    "office_name": null,
    "office_name_kana": null
  },
  "1405": {
    "zip_code": "0611405",
    "prefecture": "北海道",
    "prefecture_kana": "ホッカイドウ",
    "prefecture_code": 1,
    "city": "恵庭市",
    "city_kana": "エニワシ",
    "town": "戸磯",
    "town_kana": "トイソ",
    "street": null,
    "office_name": null,
    "office_name_kana": null
  },
  "1406": {
    "zip_code": "0611406",
    "prefecture": "北海道",
    "prefecture_kana": "ホッカイドウ",
    "prefecture_code": 1,
    "city": "恵庭市",
    "city_kana": "エニワシ",
    "town": "和光町",
    "town_kana": "ワコウチョウ",
    "street": null,
    "office_name": null,
    "office_name_kana": null
  },
  "1407": {
    "zip_code": "0611407",
    "prefecture": "北海道",
    "prefecture_kana": "ホッカイドウ",
    "prefecture_code": 1,
    "city": "恵庭市",
    "city_kana": "エニワシ",
    "town": "黄金北",
    "town_kana": "コガネキタ",
    "street": null,
    "office_name": null,
    "office_name_kana": null
  },
  "1409": {
    "zip_code": "0611409",
    "prefecture": "北海道",
    "prefecture_kana": "ホッカイドウ",
    "prefecture_code": 1,
    "city": "恵庭市",
    "city_kana": "エニワシ",
    "town": "黄金南",
    "town_kana": "コガネミナミ",
    "street": null,
    "office_name": null,
    "office_name_kana": null
  },
  "1411": {
    "zip_code": "0611411",
    "prefecture": "北海道",
    "prefecture_kana": "ホッカイドウ",
    "prefecture_code": 1,
    "city": "恵庭市",
    "city_kana": "エニワシ",
    "town": "恵南",
    "town_kana": "エナミ",
    "street": null,
    "office_name": null,
    "office_name_kana": null
  },
  "1412": {
    "zip_code": "0611412",
    "prefecture": "北海道",
    "prefecture_kana": "ホッカイドウ",
    "prefecture_code": 1,
    "city": "恵庭市",
    "city_kana": "エニワシ",
    "town": "白樺町",
    "town_kana": "シラカバチョウ",
    "street": null,
    "office_name": null,
    "office_name_kana": null
  },
  "1413": {
    "zip_code": "0611413",
    "prefecture": "北海道",
    "prefecture_kana": "ホッカイドウ",
    "prefecture_code": 1,
    "city": "恵庭市",
    "city_kana": "エニワシ",
    "town": "本町",
    "town_kana": "モトマチ",
    "street": null,
    "office_name": null,
    "office_name_kana": null
  },
  "1414": {
    "zip_code": "0611414",
    "prefecture": "北海道",
    "prefecture_kana": "ホッカイドウ",
    "prefecture_code": 1,
    "city": "恵庭市",
    "city_kana": "エニワシ",
    "town": "漁町",
    "town_kana": "イザリマチ",
    "street": null,
    "office_name": null,
    "office_name_kana": null
  },
  "1415": {
    "zip_code": "0611415",
    "prefecture": "北海道",
    "prefecture_kana": "ホッカイドウ",
    "prefecture_code": 1,
    "city": "恵庭市",
    "city_kana": "エニワシ",
    "town": "泉町",
    "town_kana": "イズミマチ",
    "street": null,
    "office_name": null,
    "office_name_kana": null
  },
  "1416": {
    "zip_code": "0611416",
    "prefecture": "北海道",
    "prefecture_kana": "ホッカイドウ",
    "prefecture_code": 1,
    "city": "恵庭市",
    "city_kana": "エニワシ",
    "town": "桜町",
    "town_kana": "サクラマチ",
    "street": null,
    "office_name": null,
    "office_name_kana": null
  },
  "1417": {
    "zip_code": "0611417",
    "prefecture": "北海道",
    "prefecture_kana": "ホッカイドウ",
    "prefecture_code": 1,
    "city": "恵庭市",
    "city_kana": "エニワシ",
    "town": "駒場町",
    "town_kana": "コマバチョウ",
    "street": null,
    "office_name": null,
    "office_name_kana": null
  },
  "1421": {
    "zip_code": "0611421",
    "prefecture": "北海道",
    "prefecture_kana": "ホッカイドウ",
    "prefecture_code": 1,
    "city": "恵庭市",
    "city_kana": "エニワシ",
    "town": "牧場",
    "town_kana": "マキバ",
    "street": null,
    "office_name": null,
    "office_name_kana": null
  },
  "1422": {
    "zip_code": "0611422",
    "prefecture": "北海道",
    "prefecture_kana": "ホッカイドウ",
    "prefecture_code": 1,
    "city": "恵庭市",
    "city_kana": "エニワシ",
    "town": "盤尻",
    "town_kana": "バンジリ",
    "street": null,
    "office_name": null,
    "office_name_kana": null
  },
  "1423": {
    "zip_code": "0611423",
    "prefecture": "北海道",
    "prefecture_kana": "ホッカイドウ",
    "prefecture_code": 1,
    "city": "恵庭市",
    "city_kana": "エニワシ",
    "town": "柏木町",
    "town_kana": "カシワギチョウ",
    "street": null,
    "office_name": null,
    "office_name_kana": null
  },
  "1424": {
    "zip_code": "0611424",
    "prefecture": "北海道",
    "prefecture_kana": "ホッカイドウ",
    "prefecture_code": 1,
    "city": "恵庭市",
    "city_kana": "エニワシ",
    "town": "大町",
    "town_kana": "オオマチ",
    "street": null,
    "office_name": null,
    "office_name_kana": null
  },
  "1425": {
    "zip_code": "0611425",
    "prefecture": "北海道",
    "prefecture_kana": "ホッカイドウ",
    "prefecture_code": 1,
    "city": "恵庭市",
    "city_kana": "エニワシ",
    "town": "文京町",
    "town_kana": "ブンキョウチョウ",
    "street": null,
    "office_name": null,
    "office_name_kana": null
  },
  "1426": {
    "zip_code": "0611426",
    "prefecture": "北海道",
    "prefecture_kana": "ホッカイドウ",
    "prefecture_code": 1,
    "city": "恵庭市",
    "city_kana": "エニワシ",
    "town": "幸町",
    "town_kana": "サイワイチョウ",
    "street": null,
    "office_name": null,
    "office_name_kana": null
  },
  "1427": {
    "zip_code": "0611427",
    "prefecture": "北海道",
    "prefecture_kana": "ホッカイドウ",
    "prefecture_code": 1,
    "city": "恵庭市",
    "city_kana": "エニワシ",
    "town": "美咲野",
    "town_kana": "ミサキノ",
    "street": null,
    "office_name": null,
    "office_name_kana": null
  },
  "1431": {
    "zip_code": "0611431",
    "prefecture": "北海道",
    "prefecture_kana": "ホッカイドウ",
    "prefecture_code": 1,
    "city": "恵庭市",
    "city_kana": "エニワシ",
    "town": "有明町",
    "town_kana": "アリアケチョウ",
    "street": null,
    "office_name": null,
    "office_name_kana": null
  },
  "1432": {
    "zip_code": "0611432",
    "prefecture": "北海道",
    "prefecture_kana": "ホッカイドウ",
    "prefecture_code": 1,
    "city": "恵庭市",
    "city_kana": "エニワシ",
    "town": "恵央町",
    "town_kana": "ケイオウチョウ",
    "street": null,
    "office_name": null,
    "office_name_kana": null
  },
  "1433": {
    "zip_code": "0611433",
    "prefecture": "北海道",
    "prefecture_kana": "ホッカイドウ",
    "prefecture_code": 1,
    "city": "恵庭市",
    "city_kana": "エニワシ",
    "town": "北柏木町",
    "town_kana": "キタカシワギチョウ",
    "street": null,
    "office_name": null,
    "office_name_kana": null
  },
  "1434": {
    "zip_code": "0611434",
    "prefecture": "北海道",
    "prefecture_kana": "ホッカイドウ",
    "prefecture_code": 1,
    "city": "恵庭市",
    "city_kana": "エニワシ",
    "town": "柏陽町",
    "town_kana": "ハクヨウチョウ",
    "street": null,
    "office_name": null,
    "office_name_kana": null
  },
  "1435": {
    "zip_code": "0611435",
    "prefecture": "北海道",
    "prefecture_kana": "ホッカイドウ",
    "prefecture_code": 1,
    "city": "恵庭市",
    "city_kana": "エニワシ",
    "town": "中島町",
    "town_kana": "ナカジマチョウ",
    "street": null,
    "office_name": null,
    "office_name_kana": null
  },
  "1441": {
    "zip_code": "0611441",
    "prefecture": "北海道",
    "prefecture_kana": "ホッカイドウ",
    "prefecture_code": 1,
    "city": "恵庭市",
    "city_kana": "エニワシ",
    "town": "住吉町",
    "town_kana": "スミヨシチョウ",
    "street": null,
    "office_name": null,
    "office_name_kana": null
  },
  "1442": {
    "zip_code": "0611442",
    "prefecture": "北海道",
    "prefecture_kana": "ホッカイドウ",
    "prefecture_code": 1,
    "city": "恵庭市",
    "city_kana": "エニワシ",
    "town": "緑町",
    "town_kana": "ミドリマチ",
    "street": null,
    "office_name": null,
    "office_name_kana": null
  },
  "1443": {
    "zip_code": "0611443",
    "prefecture": "北海道",
    "prefecture_kana": "ホッカイドウ",
    "prefecture_code": 1,
    "city": "恵庭市",
    "city_kana": "エニワシ",
    "town": "栄恵町",
    "town_kana": "サカエマチ",
    "street": null,
    "office_name": null,
    "office_name_kana": null
  },
  "1444": {
    "zip_code": "0611444",
    "prefecture": "北海道",
    "prefecture_kana": "ホッカイドウ",
    "prefecture_code": 1,
    "city": "恵庭市",
    "city_kana": "エニワシ",
    "town": "京町",
    "town_kana": "キョウマチ",
    "street": null,
    "office_name": null,
    "office_name_kana": null
  },
  "1445": {
    "zip_code": "0611445",
    "prefecture": "北海道",
    "prefecture_kana": "ホッカイドウ",
    "prefecture_code": 1,
    "city": "恵庭市",
    "city_kana": "エニワシ",
    "town": "新町",
    "town_kana": "シンマチ",
    "street": null,
    "office_name": null,
    "office_name_kana": null
  },
  "1446": {
    "zip_code": "0611446",
    "prefecture": "北海道",
    "prefecture_kana": "ホッカイドウ",
    "prefecture_code": 1,
    "city": "恵庭市",
    "city_kana": "エニワシ",
    "town": "末広町",
    "town_kana": "スエヒロマチ",
    "street": null,
    "office_name": null,
    "office_name_kana": null
  },
  "1447": {
    "zip_code": "0611447",
    "prefecture": "北海道",
    "prefecture_kana": "ホッカイドウ",
    "prefecture_code": 1,
    "city": "恵庭市",
    "city_kana": "エニワシ",
    "town": "福住町",
    "town_kana": "フクズミチョウ",
    "street": null,
    "office_name": null,
    "office_name_kana": null
  },
  "1448": {
    "zip_code": "0611448",
    "prefecture": "北海道",
    "prefecture_kana": "ホッカイドウ",
    "prefecture_code": 1,
    "city": "恵庭市",
    "city_kana": "エニワシ",
    "town": "相生町",
    "town_kana": "アイオイマチ",
    "street": null,
    "office_name": null,
    "office_name_kana": null
  },
  "1449": {
    "zip_code": "0611449",
    "prefecture": "北海道",
    "prefecture_kana": "ホッカイドウ",
    "prefecture_code": 1,
    "city": "恵庭市",
    "city_kana": "エニワシ",
    "town": "黄金中央",
    "town_kana": "コガネチュウオウ",
    "street": null,
    "office_name": null,
    "office_name_kana": null
  },
  "1492": {
    "zip_code": "0611492",
    "prefecture": "北海道",
    "prefecture_kana": "ホッカイドウ",
    "prefecture_code": 1,
    "city": "恵庭市",
    "city_kana": "エニワシ",
    "town": "北柏木町",
    "town_kana": "キタカシワギチョウ",
    "street": "３丁目３９番",
    "office_name": "合同容器　株式会社",
    "office_name_kana": "ゴウドウヨウキ カブシキガイシヤ"
  },
  "1493": {
    "zip_code": "0611493",
    "prefecture": "北海道",
    "prefecture_kana": "ホッカイドウ",
    "prefecture_code": 1,
    "city": "恵庭市",
    "city_kana": "エニワシ",
    "town": "北柏木町",
    "town_kana": "キタカシワギチョウ",
    "street": "３丁目８９番",
    "office_name": "株式会社　堀川　北海道事業部",
    "office_name_kana": "カブシキガイシヤ ホリカワ ホツカイドウジギヨウブ"
  },
  "1496": {
    "zip_code": "0611496",
    "prefecture": "北海道",
    "prefecture_kana": "ホッカイドウ",
    "prefecture_code": 1,
    "city": "恵庭市",
    "city_kana": "エニワシ",
    "town": "北柏木町",
    "town_kana": "キタカシワギチョウ",
    "street": "３丁目４８番",
    "office_name": "三和シャッター工業　株式会社　札幌工場",
    "office_name_kana": "サンワシヤツタ-コウギヨウ カブシキガイシヤ サツポロコウジヨウ"
  },
  "1497": {
    "zip_code": "0611497",
    "prefecture": "北海道",
    "prefecture_kana": "ホッカイドウ",
    "prefecture_code": 1,
    "city": "恵庭市",
    "city_kana": "エニワシ",
    "town": "北柏木町",
    "town_kana": "キタカシワギチョウ",
    "street": "３丁目３４番",
    "office_name": "ニチレキ　株式会社　北海道支店",
    "office_name_kana": "ニチレキ カブシキガイシヤ ホツカイドウシテン"
  },
  "1498": {
    "zip_code": "0611498",
    "prefecture": "北海道",
    "prefecture_kana": "ホッカイドウ",
    "prefecture_code": 1,
    "city": "恵庭市",
    "city_kana": "エニワシ",
    "town": "京町",
    "town_kana": "キョウマチ",
    "street": "１番地",
    "office_name": "恵庭市役所",
    "office_name_kana": "エニワシヤクシヨ"
  },
  "2261": {
    "zip_code": "0612261",
    "prefecture": "北海道",
    "prefecture_kana": "ホッカイドウ",
    "prefecture_code": 1,
    "city": "札幌市南区",
    "city_kana": "サッポロシミナミク",
    "town": "簾舞一条",
    "town_kana": "ミスマイ1ジョウ",
    "street": null,
    "office_name": null,
    "office_name_kana": null
  },
  "2262": {
    "zip_code": "0612262",
    "prefecture": "北海道",
    "prefecture_kana": "ホッカイドウ",
    "prefecture_code": 1,
    "city": "札幌市南区",
    "city_kana": "サッポロシミナミク",
    "town": "簾舞二条",
    "town_kana": "ミスマイ2ジョウ",
    "street": null,
    "office_name": null,
    "office_name_kana": null
  },
  "2263": {
    "zip_code": "0612263",
    "prefecture": "北海道",
    "prefecture_kana": "ホッカイドウ",
    "prefecture_code": 1,
    "city": "札幌市南区",
    "city_kana": "サッポロシミナミク",
    "town": "簾舞三条",
    "town_kana": "ミスマイ3ジョウ",
    "street": null,
    "office_name": null,
    "office_name_kana": null
  },
  "2264": {
    "zip_code": "0612264",
    "prefecture": "北海道",
    "prefecture_kana": "ホッカイドウ",
    "prefecture_code": 1,
    "city": "札幌市南区",
    "city_kana": "サッポロシミナミク",
    "town": "簾舞四条",
    "town_kana": "ミスマイ4ジョウ",
    "street": null,
    "office_name": null,
    "office_name_kana": null
  },
  "2265": {
    "zip_code": "0612265",
    "prefecture": "北海道",
    "prefecture_kana": "ホッカイドウ",
    "prefecture_code": 1,
    "city": "札幌市南区",
    "city_kana": "サッポロシミナミク",
    "town": "簾舞五条",
    "town_kana": "ミスマイ5ジョウ",
    "street": null,
    "office_name": null,
    "office_name_kana": null
  },
  "2266": {
    "zip_code": "0612266",
    "prefecture": "北海道",
    "prefecture_kana": "ホッカイドウ",
    "prefecture_code": 1,
    "city": "札幌市南区",
    "city_kana": "サッポロシミナミク",
    "town": "簾舞六条",
    "town_kana": "ミスマイ6ジョウ",
    "street": null,
    "office_name": null,
    "office_name_kana": null
  },
  "2271": {
    "zip_code": "0612271",
    "prefecture": "北海道",
    "prefecture_kana": "ホッカイドウ",
    "prefecture_code": 1,
    "city": "札幌市南区",
    "city_kana": "サッポロシミナミク",
    "town": "藤野",
    "town_kana": "フジノ",
    "street": null,
    "office_name": null,
    "office_name_kana": null
  },
  "2272": {
    "zip_code": "0612272",
    "prefecture": "北海道",
    "prefecture_kana": "ホッカイドウ",
    "prefecture_code": 1,
    "city": "札幌市南区",
    "city_kana": "サッポロシミナミク",
    "town": "簾舞",
    "town_kana": "ミスマイ",
    "street": null,
    "office_name": null,
    "office_name_kana": null
  },
  "2273": {
    "zip_code": "0612273",
    "prefecture": "北海道",
    "prefecture_kana": "ホッカイドウ",
    "prefecture_code": 1,
    "city": "札幌市南区",
    "city_kana": "サッポロシミナミク",
    "town": "豊滝",
    "town_kana": "トヨタキ",
    "street": null,
    "office_name": null,
    "office_name_kana": null
  },
  "2274": {
    "zip_code": "0612274",
    "prefecture": "北海道",
    "prefecture_kana": "ホッカイドウ",
    "prefecture_code": 1,
    "city": "札幌市南区",
    "city_kana": "サッポロシミナミク",
    "town": "小金湯",
    "town_kana": "コガネユ",
    "street": null,
    "office_name": null,
    "office_name_kana": null
  },
  "2275": {
    "zip_code": "0612275",
    "prefecture": "北海道",
    "prefecture_kana": "ホッカイドウ",
    "prefecture_code": 1,
    "city": "札幌市南区",
    "city_kana": "サッポロシミナミク",
    "town": "砥山",
    "town_kana": "トヤマ",
    "street": null,
    "office_name": null,
    "office_name_kana": null
  },
  "2276": {
    "zip_code": "0612276",
    "prefecture": "北海道",
    "prefecture_kana": "ホッカイドウ",
    "prefecture_code": 1,
    "city": "札幌市南区",
    "city_kana": "サッポロシミナミク",
    "town": "白川",
    "town_kana": "シラカワ",
    "street": null,
    "office_name": null,
    "office_name_kana": null
  },
  "2281": {
    "zip_code": "0612281",
    "prefecture": "北海道",
    "prefecture_kana": "ホッカイドウ",
    "prefecture_code": 1,
    "city": "札幌市南区",
    "city_kana": "サッポロシミナミク",
    "town": "藤野一条",
    "town_kana": "フジノ1ジョウ",
    "street": null,
    "office_name": null,
    "office_name_kana": null
  },
  "2282": {
    "zip_code": "0612282",
    "prefecture": "北海道",
    "prefecture_kana": "ホッカイドウ",
    "prefecture_code": 1,
    "city": "札幌市南区",
    "city_kana": "サッポロシミナミク",
    "town": "藤野二条",
    "town_kana": "フジノ2ジョウ",
    "street": null,
    "office_name": null,
    "office_name_kana": null
  },
  "2283": {
    "zip_code": "0612283",
    "prefecture": "北海道",
    "prefecture_kana": "ホッカイドウ",
    "prefecture_code": 1,
    "city": "札幌市南区",
    "city_kana": "サッポロシミナミク",
    "town": "藤野三条",
    "town_kana": "フジノ3ジョウ",
    "street": null,
    "office_name": null,
    "office_name_kana": null
  },
  "2284": {
    "zip_code": "0612284",
    "prefecture": "北海道",
    "prefecture_kana": "ホッカイドウ",
    "prefecture_code": 1,
    "city": "札幌市南区",
    "city_kana": "サッポロシミナミク",
    "town": "藤野四条",
    "town_kana": "フジノ4ジョウ",
    "street": null,
    "office_name": null,
    "office_name_kana": null
  },
  "2285": {
    "zip_code": "0612285",
    "prefecture": "北海道",
    "prefecture_kana": "ホッカイドウ",
    "prefecture_code": 1,
    "city": "札幌市南区",
    "city_kana": "サッポロシミナミク",
    "town": "藤野五条",
    "town_kana": "フジノ5ジョウ",
    "street": null,
    "office_name": null,
    "office_name_kana": null
  },
  "2286": {
    "zip_code": "0612286",
    "prefecture": "北海道",
    "prefecture_kana": "ホッカイドウ",
    "prefecture_code": 1,
    "city": "札幌市南区",
    "city_kana": "サッポロシミナミク",
    "town": "藤野六条",
    "town_kana": "フジノ6ジョウ",
    "street": null,
    "office_name": null,
    "office_name_kana": null
  },
  "2292": {
    "zip_code": "0612292",
    "prefecture": "北海道",
    "prefecture_kana": "ホッカイドウ",
    "prefecture_code": 1,
    "city": "札幌市南区",
    "city_kana": "サッポロシミナミク",
    "town": "藤野五条",
    "town_kana": "フジノ5ジョウ",
    "street": "１０丁目４７８−１",
    "office_name": "北海道札幌南陵高等学校",
    "office_name_kana": "ホツカイドウサツポロナンリヨウコウトウガツコウ"
  },
  "2301": {
    "zip_code": "0612301",
    "prefecture": "北海道",
    "prefecture_kana": "ホッカイドウ",
    "prefecture_code": 1,
    "city": "札幌市南区",
    "city_kana": "サッポロシミナミク",
    "town": "定山渓",
    "town_kana": "ジョウザンケイ",
    "street": null,
    "office_name": null,
    "office_name_kana": null
  },
  "2302": {
    "zip_code": "0612302",
    "prefecture": "北海道",
    "prefecture_kana": "ホッカイドウ",
    "prefecture_code": 1,
    "city": "札幌市南区",
    "city_kana": "サッポロシミナミク",
    "town": "定山渓温泉東",
    "town_kana": "ジョウザンケイオンセンヒガシ",
    "street": null,
    "office_name": null,
    "office_name_kana": null
  },
  "2303": {
    "zip_code": "0612303",
    "prefecture": "北海道",
    "prefecture_kana": "ホッカイドウ",
    "prefecture_code": 1,
    "city": "札幌市南区",
    "city_kana": "サッポロシミナミク",
    "town": "定山渓温泉西",
    "town_kana": "ジョウザンケイオンセンニシ",
    "street": null,
    "office_name": null,
    "office_name_kana": null
  },
  "3101": {
    "zip_code": "0613101",
    "prefecture": "北海道",
    "prefecture_kana": "ホッカイドウ",
    "prefecture_code": 1,
    "city": "石狩市",
    "city_kana": "イシカリシ",
    "town": "浜益区浜益",
    "town_kana": "ハママスクハママス",
    "street": null,
    "office_name": null,
    "office_name_kana": null
  },
  "3102": {
    "zip_code": "0613102",
    "prefecture": "北海道",
    "prefecture_kana": "ホッカイドウ",
    "prefecture_code": 1,
    "city": "石狩市",
    "city_kana": "イシカリシ",
    "town": "浜益区群別",
    "town_kana": "ハママスククンベツ",
    "street": null,
    "office_name": null,
    "office_name_kana": null
  },
  "3103": {
    "zip_code": "0613103",
    "prefecture": "北海道",
    "prefecture_kana": "ホッカイドウ",
    "prefecture_code": 1,
    "city": "石狩市",
    "city_kana": "イシカリシ",
    "town": "浜益区幌",
    "town_kana": "ハママスクホロ",
    "street": null,
    "office_name": null,
    "office_name_kana": null
  },
  "3104": {
    "zip_code": "0613104",
    "prefecture": "北海道",
    "prefecture_kana": "ホッカイドウ",
    "prefecture_code": 1,
    "city": "石狩市",
    "city_kana": "イシカリシ",
    "town": "浜益区床丹",
    "town_kana": "ハママスクトコタン",
    "street": null,
    "office_name": null,
    "office_name_kana": null
  },
  "3105": {
    "zip_code": "0613105",
    "prefecture": "北海道",
    "prefecture_kana": "ホッカイドウ",
    "prefecture_code": 1,
    "city": "石狩市",
    "city_kana": "イシカリシ",
    "town": "浜益区千代志別",
    "town_kana": "ハママスクチヨシベツ",
    "street": null,
    "office_name": null,
    "office_name_kana": null
  },
  "3106": {
    "zip_code": "0613106",
    "prefecture": "北海道",
    "prefecture_kana": "ホッカイドウ",
    "prefecture_code": 1,
    "city": "石狩市",
    "city_kana": "イシカリシ",
    "town": "浜益区川下",
    "town_kana": "ハママスクカワシモ",
    "street": null,
    "office_name": null,
    "office_name_kana": null
  },
  "3107": {
    "zip_code": "0613107",
    "prefecture": "北海道",
    "prefecture_kana": "ホッカイドウ",
    "prefecture_code": 1,
    "city": "石狩市",
    "city_kana": "イシカリシ",
    "town": "浜益区柏木",
    "town_kana": "ハママスクカシワギ",
    "street": null,
    "office_name": null,
    "office_name_kana": null
  },
  "3108": {
    "zip_code": "0613108",
    "prefecture": "北海道",
    "prefecture_kana": "ホッカイドウ",
    "prefecture_code": 1,
    "city": "石狩市",
    "city_kana": "イシカリシ",
    "town": "浜益区実田",
    "town_kana": "ハママスクミタ",
    "street": null,
    "office_name": null,
    "office_name_kana": null
  },
  "3109": {
    "zip_code": "0613109",
    "prefecture": "北海道",
    "prefecture_kana": "ホッカイドウ",
    "prefecture_code": 1,
    "city": "石狩市",
    "city_kana": "イシカリシ",
    "town": "浜益区御料地",
    "town_kana": "ハママスクゴリョウチ",
    "street": null,
    "office_name": null,
    "office_name_kana": null
  },
  "3111": {
    "zip_code": "0613111",
    "prefecture": "北海道",
    "prefecture_kana": "ホッカイドウ",
    "prefecture_code": 1,
    "city": "石狩市",
    "city_kana": "イシカリシ",
    "town": "浜益区毘砂別",
    "town_kana": "ハママスクビシャベツ",
    "street": null,
    "office_name": null,
    "office_name_kana": null
  },
  "3112": {
    "zip_code": "0613112",
    "prefecture": "北海道",
    "prefecture_kana": "ホッカイドウ",
    "prefecture_code": 1,
    "city": "石狩市",
    "city_kana": "イシカリシ",
    "town": "浜益区送毛",
    "town_kana": "ハママスクオクリゲ",
    "street": null,
    "office_name": null,
    "office_name_kana": null
  },
  "3113": {
    "zip_code": "0613113",
    "prefecture": "北海道",
    "prefecture_kana": "ホッカイドウ",
    "prefecture_code": 1,
    "city": "石狩市",
    "city_kana": "イシカリシ",
    "town": "浜益区濃昼",
    "town_kana": "ハママスクゴキビル",
    "street": null,
    "office_name": null,
    "office_name_kana": null
  },
  "3151": {
    "zip_code": "0613151",
    "prefecture": "北海道",
    "prefecture_kana": "ホッカイドウ",
    "prefecture_code": 1,
    "city": "石狩市",
    "city_kana": "イシカリシ",
    "town": "厚田区濃昼",
    "town_kana": "アツタクゴキビル",
    "street": null,
    "office_name": null,
    "office_name_kana": null
  },
  "3197": {
    "zip_code": "0613197",
    "prefecture": "北海道",
    "prefecture_kana": "ホッカイドウ",
    "prefecture_code": 1,
    "city": "石狩市",
    "city_kana": "イシカリシ",
    "town": "浜益区浜益",
    "town_kana": "ハママスクハママス",
    "street": "２−３",
    "office_name": "石狩市役所　浜益支所",
    "office_name_kana": "イシカリシヤクシヨ ハママスシシヨ"
  },
  "3200": {
    "zip_code": "0613200",
    "prefecture": "北海道",
    "prefecture_kana": "ホッカイドウ",
    "prefecture_code": 1,
    "city": "石狩市",
    "city_kana": "イシカリシ",
    "town": "",
    "town_kana": "",
    "street": null,
    "office_name": null,
    "office_name_kana": null
  },
  "3201": {
    "zip_code": "0613201",
    "prefecture": "北海道",
    "prefecture_kana": "ホッカイドウ",
    "prefecture_code": 1,
    "city": "石狩市",
    "city_kana": "イシカリシ",
    "town": "花川南一条",
    "town_kana": "ハナカワミナミ1ジョウ",
    "street": null,
    "office_name": null,
    "office_name_kana": null
  },
  "3202": {
    "zip_code": "0613202",
    "prefecture": "北海道",
    "prefecture_kana": "ホッカイドウ",
    "prefecture_code": 1,
    "city": "石狩市",
    "city_kana": "イシカリシ",
    "town": "花川南二条",
    "town_kana": "ハナカワミナミ2ジョウ",
    "street": null,
    "office_name": null,
    "office_name_kana": null
  },
  "3203": {
    "zip_code": "0613203",
    "prefecture": "北海道",
    "prefecture_kana": "ホッカイドウ",
    "prefecture_code": 1,
    "city": "石狩市",
    "city_kana": "イシカリシ",
    "town": "花川南三条",
    "town_kana": "ハナカワミナミ3ジョウ",
    "street": null,
    "office_name": null,
    "office_name_kana": null
  },
  "3204": {
    "zip_code": "0613204",
    "prefecture": "北海道",
    "prefecture_kana": "ホッカイドウ",
    "prefecture_code": 1,
    "city": "石狩市",
    "city_kana": "イシカリシ",
    "town": "花川南四条",
    "town_kana": "ハナカワミナミ4ジョウ",
    "street": null,
    "office_name": null,
    "office_name_kana": null
  },
  "3205": {
    "zip_code": "0613205",
    "prefecture": "北海道",
    "prefecture_kana": "ホッカイドウ",
    "prefecture_code": 1,
    "city": "石狩市",
    "city_kana": "イシカリシ",
    "town": "花川南五条",
    "town_kana": "ハナカワミナミ5ジョウ",
    "street": null,
    "office_name": null,
    "office_name_kana": null
  },
  "3206": {
    "zip_code": "0613206",
    "prefecture": "北海道",
    "prefecture_kana": "ホッカイドウ",
    "prefecture_code": 1,
    "city": "石狩市",
    "city_kana": "イシカリシ",
    "town": "花川南六条",
    "town_kana": "ハナカワミナミ6ジョウ",
    "street": null,
    "office_name": null,
    "office_name_kana": null
  },
  "3207": {
    "zip_code": "0613207",
    "prefecture": "北海道",
    "prefecture_kana": "ホッカイドウ",
    "prefecture_code": 1,
    "city": "石狩市",
    "city_kana": "イシカリシ",
    "town": "花川南七条",
    "town_kana": "ハナカワミナミ7ジョウ",
    "street": null,
    "office_name": null,
    "office_name_kana": null
  },
  "3208": {
    "zip_code": "0613208",
    "prefecture": "北海道",
    "prefecture_kana": "ホッカイドウ",
    "prefecture_code": 1,
    "city": "石狩市",
    "city_kana": "イシカリシ",
    "town": "花川南八条",
    "town_kana": "ハナカワミナミ8ジョウ",
    "street": null,
    "office_name": null,
    "office_name_kana": null
  },
  "3209": {
    "zip_code": "0613209",
    "prefecture": "北海道",
    "prefecture_kana": "ホッカイドウ",
    "prefecture_code": 1,
    "city": "石狩市",
    "city_kana": "イシカリシ",
    "town": "花川南九条",
    "town_kana": "ハナカワミナミ9ジョウ",
    "street": null,
    "office_name": null,
    "office_name_kana": null
  },
  "3210": {
    "zip_code": "0613210",
    "prefecture": "北海道",
    "prefecture_kana": "ホッカイドウ",
    "prefecture_code": 1,
    "city": "石狩市",
    "city_kana": "イシカリシ",
    "town": "花川南十条",
    "town_kana": "ハナカワミナミ10ジョウ",
    "street": null,
    "office_name": null,
    "office_name_kana": null
  },
  "3211": {
    "zip_code": "0613211",
    "prefecture": "北海道",
    "prefecture_kana": "ホッカイドウ",
    "prefecture_code": 1,
    "city": "石狩市",
    "city_kana": "イシカリシ",
    "town": "花川北一条",
    "town_kana": "ハナカワキタ1ジョウ",
    "street": null,
    "office_name": null,
    "office_name_kana": null
  },
  "3212": {
    "zip_code": "0613212",
    "prefecture": "北海道",
    "prefecture_kana": "ホッカイドウ",
    "prefecture_code": 1,
    "city": "石狩市",
    "city_kana": "イシカリシ",
    "town": "花川北二条",
    "town_kana": "ハナカワキタ2ジョウ",
    "street": null,
    "office_name": null,
    "office_name_kana": null
  },
  "3213": {
    "zip_code": "0613213",
    "prefecture": "北海道",
    "prefecture_kana": "ホッカイドウ",
    "prefecture_code": 1,
    "city": "石狩市",
    "city_kana": "イシカリシ",
    "town": "花川北三条",
    "town_kana": "ハナカワキタ3ジョウ",
    "street": null,
    "office_name": null,
    "office_name_kana": null
  },
  "3214": {
    "zip_code": "0613214",
    "prefecture": "北海道",
    "prefecture_kana": "ホッカイドウ",
    "prefecture_code": 1,
    "city": "石狩市",
    "city_kana": "イシカリシ",
    "town": "花川北四条",
    "town_kana": "ハナカワキタ4ジョウ",
    "street": null,
    "office_name": null,
    "office_name_kana": null
  },
  "3215": {
    "zip_code": "0613215",
    "prefecture": "北海道",
    "prefecture_kana": "ホッカイドウ",
    "prefecture_code": 1,
    "city": "石狩市",
    "city_kana": "イシカリシ",
    "town": "花川北五条",
    "town_kana": "ハナカワキタ5ジョウ",
    "street": null,
    "office_name": null,
    "office_name_kana": null
  },
  "3216": {
    "zip_code": "0613216",
    "prefecture": "北海道",
    "prefecture_kana": "ホッカイドウ",
    "prefecture_code": 1,
    "city": "石狩市",
    "city_kana": "イシカリシ",
    "town": "花川北六条",
    "town_kana": "ハナカワキタ6ジョウ",
    "street": null,
    "office_name": null,
    "office_name_kana": null
  },
  "3217": {
    "zip_code": "0613217",
    "prefecture": "北海道",
    "prefecture_kana": "ホッカイドウ",
    "prefecture_code": 1,
    "city": "石狩市",
    "city_kana": "イシカリシ",
    "town": "花川北七条",
    "town_kana": "ハナカワキタ7ジョウ",
    "street": null,
    "office_name": null,
    "office_name_kana": null
  },
  "3218": {
    "zip_code": "0613218",
    "prefecture": "北海道",
    "prefecture_kana": "ホッカイドウ",
    "prefecture_code": 1,
    "city": "石狩市",
    "city_kana": "イシカリシ",
    "town": "花畔",
    "town_kana": "バンナグロ",
    "street": null,
    "office_name": null,
    "office_name_kana": null
  },
  "3219": {
    "zip_code": "0613219",
    "prefecture": "北海道",
    "prefecture_kana": "ホッカイドウ",
    "prefecture_code": 1,
    "city": "石狩市",
    "city_kana": "イシカリシ",
    "town": "花川",
    "town_kana": "ハナカワ",
    "street": null,
    "office_name": null,
    "office_name_kana": null
  },
  "3220": {
    "zip_code": "0613220",
    "prefecture": "北海道",
    "prefecture_kana": "ホッカイドウ",
    "prefecture_code": 1,
    "city": "石狩市",
    "city_kana": "イシカリシ",
    "town": "志美",
    "town_kana": "シビ",
    "street": null,
    "office_name": null,
    "office_name_kana": null
  },
  "3221": {
    "zip_code": "0613221",
    "prefecture": "北海道",
    "prefecture_kana": "ホッカイドウ",
    "prefecture_code": 1,
    "city": "石狩市",
    "city_kana": "イシカリシ",
    "town": "緑苑台東一条",
    "town_kana": "リョクエンダイヒガシ1ジョウ",
    "street": null,
    "office_name": null,
    "office_name_kana": null
  },
  "3222": {
    "zip_code": "0613222",
    "prefecture": "北海道",
    "prefecture_kana": "ホッカイドウ",
    "prefecture_code": 1,
    "city": "石狩市",
    "city_kana": "イシカリシ",
    "town": "緑苑台東二条",
    "town_kana": "リョクエンダイヒガシ2ジョウ",
    "street": null,
    "office_name": null,
    "office_name_kana": null
  },
  "3223": {
    "zip_code": "0613223",
    "prefecture": "北海道",
    "prefecture_kana": "ホッカイドウ",
    "prefecture_code": 1,
    "city": "石狩市",
    "city_kana": "イシカリシ",
    "town": "緑苑台東三条",
    "town_kana": "リョクエンダイヒガシ3ジョウ",
    "street": null,
    "office_name": null,
    "office_name_kana": null
  },
  "3230": {
    "zip_code": "0613230",
    "prefecture": "北海道",
    "prefecture_kana": "ホッカイドウ",
    "prefecture_code": 1,
    "city": "石狩市",
    "city_kana": "イシカリシ",
    "town": "緑苑台中央",
    "town_kana": "リョクエンダイチュウオウ",
    "street": null,
    "office_name": null,
    "office_name_kana": null
  },
  "3231": {
    "zip_code": "0613231",
    "prefecture": "北海道",
    "prefecture_kana": "ホッカイドウ",
    "prefecture_code": 1,
    "city": "石狩市",
    "city_kana": "イシカリシ",
    "town": "緑苑台西一条",
    "town_kana": "リョクエンダイニシ1ジョウ",
    "street": null,
    "office_name": null,
    "office_name_kana": null
  },
  "3232": {
    "zip_code": "0613232",
    "prefecture": "北海道",
    "prefecture_kana": "ホッカイドウ",
    "prefecture_code": 1,
    "city": "石狩市",
    "city_kana": "イシカリシ",
    "town": "緑苑台西二条",
    "town_kana": "リョクエンダイニシ2ジョウ",
    "street": null,
    "office_name": null,
    "office_name_kana": null
  },
  "3241": {
    "zip_code": "0613241",
    "prefecture": "北海道",
    "prefecture_kana": "ホッカイドウ",
    "prefecture_code": 1,
    "city": "石狩市",
    "city_kana": "イシカリシ",
    "town": "新港西",
    "town_kana": "シンコウニシ",
    "street": null,
    "office_name": null,
    "office_name_kana": null
  },
  "3242": {
    "zip_code": "0613242",
    "prefecture": "北海道",
    "prefecture_kana": "ホッカイドウ",
    "prefecture_code": 1,
    "city": "石狩市",
    "city_kana": "イシカリシ",
    "town": "新港中央",
    "town_kana": "シンコウチュウオウ",
    "street": null,
    "office_name": null,
    "office_name_kana": null
  },
  "3243": {
    "zip_code": "0613243",
    "prefecture": "北海道",
    "prefecture_kana": "ホッカイドウ",
    "prefecture_code": 1,
    "city": "石狩市",
    "city_kana": "イシカリシ",
    "town": "新港東",
    "town_kana": "シンコウヒガシ",
    "street": null,
    "office_name": null,
    "office_name_kana": null
  },
  "3244": {
    "zip_code": "0613244",
    "prefecture": "北海道",
    "prefecture_kana": "ホッカイドウ",
    "prefecture_code": 1,
    "city": "石狩市",
    "city_kana": "イシカリシ",
    "town": "新港南",
    "town_kana": "シンコウミナミ",
    "street": null,
    "office_name": null,
    "office_name_kana": null
  },
  "3245": {
    "zip_code": "0613245",
    "prefecture": "北海道",
    "prefecture_kana": "ホッカイドウ",
    "prefecture_code": 1,
    "city": "石狩市",
    "city_kana": "イシカリシ",
    "town": "生振",
    "town_kana": "オヤフル",
    "street": null,
    "office_name": null,
    "office_name_kana": null
  },
  "3248": {
    "zip_code": "0613248",
    "prefecture": "北海道",
    "prefecture_kana": "ホッカイドウ",
    "prefecture_code": 1,
    "city": "石狩市",
    "city_kana": "イシカリシ",
    "town": "花川東",
    "town_kana": "ハナカワヒガシ",
    "street": null,
    "office_name": null,
    "office_name_kana": null
  },
  "3251": {
    "zip_code": "0613251",
    "prefecture": "北海道",
    "prefecture_kana": "ホッカイドウ",
    "prefecture_code": 1,
    "city": "石狩市",
    "city_kana": "イシカリシ",
    "town": "樽川",
    "town_kana": "タルカワ",
    "street": null,
    "office_name": null,
    "office_name_kana": null
  },
  "3253": {
    "zip_code": "0613253",
    "prefecture": "北海道",
    "prefecture_kana": "ホッカイドウ",
    "prefecture_code": 1,
    "city": "石狩市",
    "city_kana": "イシカリシ",
    "town": "樽川三条",
    "town_kana": "タルカワ3ジョウ",
    "street": null,
    "office_name": null,
    "office_name_kana": null
  },
  "3254": {
    "zip_code": "0613254",
    "prefecture": "北海道",
    "prefecture_kana": "ホッカイドウ",
    "prefecture_code": 1,
    "city": "石狩市",
    "city_kana": "イシカリシ",
    "town": "樽川四条",
    "town_kana": "タルカワ4ジョウ",
    "street": null,
    "office_name": null,
    "office_name_kana": null
  },
  "3255": {
    "zip_code": "0613255",
    "prefecture": "北海道",
    "prefecture_kana": "ホッカイドウ",
    "prefecture_code": 1,
    "city": "石狩市",
    "city_kana": "イシカリシ",
    "town": "樽川五条",
    "town_kana": "タルカワ5ジョウ",
    "street": null,
    "office_name": null,
    "office_name_kana": null
  },
  "3256": {
    "zip_code": "0613256",
    "prefecture": "北海道",
    "prefecture_kana": "ホッカイドウ",
    "prefecture_code": 1,
    "city": "石狩市",
    "city_kana": "イシカリシ",
    "town": "樽川六条",
    "town_kana": "タルカワ6ジョウ",
    "street": null,
    "office_name": null,
    "office_name_kana": null
  },
  "3257": {
    "zip_code": "0613257",
    "prefecture": "北海道",
    "prefecture_kana": "ホッカイドウ",
    "prefecture_code": 1,
    "city": "石狩市",
    "city_kana": "イシカリシ",
    "town": "樽川七条",
    "town_kana": "タルカワ7ジョウ",
    "street": null,
    "office_name": null,
    "office_name_kana": null
  },
  "3258": {
    "zip_code": "0613258",
    "prefecture": "北海道",
    "prefecture_kana": "ホッカイドウ",
    "prefecture_code": 1,
    "city": "石狩市",
    "city_kana": "イシカリシ",
    "town": "樽川八条",
    "town_kana": "タルカワ8ジョウ",
    "street": null,
    "office_name": null,
    "office_name_kana": null
  },
  "3259": {
    "zip_code": "0613259",
    "prefecture": "北海道",
    "prefecture_kana": "ホッカイドウ",
    "prefecture_code": 1,
    "city": "石狩市",
    "city_kana": "イシカリシ",
    "town": "樽川九条",
    "town_kana": "タルカワ9ジョウ",
    "street": null,
    "office_name": null,
    "office_name_kana": null
  },
  "3261": {
    "zip_code": "0613261",
    "prefecture": "北海道",
    "prefecture_kana": "ホッカイドウ",
    "prefecture_code": 1,
    "city": "石狩市",
    "city_kana": "イシカリシ",
    "town": "花川東一条",
    "town_kana": "ハナカワヒガシ1ジョウ",
    "street": null,
    "office_name": null,
    "office_name_kana": null
  },
  "3262": {
    "zip_code": "0613262",
    "prefecture": "北海道",
    "prefecture_kana": "ホッカイドウ",
    "prefecture_code": 1,
    "city": "石狩市",
    "city_kana": "イシカリシ",
    "town": "花川東二条",
    "town_kana": "ハナカワヒガシ2ジョウ",
    "street": null,
    "office_name": null,
    "office_name_kana": null
  },
  "3271": {
    "zip_code": "0613271",
    "prefecture": "北海道",
    "prefecture_kana": "ホッカイドウ",
    "prefecture_code": 1,
    "city": "小樽市",
    "city_kana": "オタルシ",
    "town": "銭函",
    "town_kana": "ゼニバコ",
    "street": null,
    "office_name": null,
    "office_name_kana": null
  },
  "3281": {
    "zip_code": "0613281",
    "prefecture": "北海道",
    "prefecture_kana": "ホッカイドウ",
    "prefecture_code": 1,
    "city": "石狩市",
    "city_kana": "イシカリシ",
    "town": "花畔一条",
    "town_kana": "バンナグロ1ジョウ",
    "street": null,
    "office_name": null,
    "office_name_kana": null
  },
  "3282": {
    "zip_code": "0613282",
    "prefecture": "北海道",
    "prefecture_kana": "ホッカイドウ",
    "prefecture_code": 1,
    "city": "石狩市",
    "city_kana": "イシカリシ",
    "town": "花畔二条",
    "town_kana": "バンナグロ2ジョウ",
    "street": null,
    "office_name": null,
    "office_name_kana": null
  },
  "3283": {
    "zip_code": "0613283",
    "prefecture": "北海道",
    "prefecture_kana": "ホッカイドウ",
    "prefecture_code": 1,
    "city": "石狩市",
    "city_kana": "イシカリシ",
    "town": "花畔三条",
    "town_kana": "バンナグロ3ジョウ",
    "street": null,
    "office_name": null,
    "office_name_kana": null
  },
  "3284": {
    "zip_code": "0613284",
    "prefecture": "北海道",
    "prefecture_kana": "ホッカイドウ",
    "prefecture_code": 1,
    "city": "石狩市",
    "city_kana": "イシカリシ",
    "town": "花畔四条",
    "town_kana": "バンナグロ4ジョウ",
    "street": null,
    "office_name": null,
    "office_name_kana": null
  },
  "3292": {
    "zip_code": "0613292",
    "prefecture": "北海道",
    "prefecture_kana": "ホッカイドウ",
    "prefecture_code": 1,
    "city": "石狩市",
    "city_kana": "イシカリシ",
    "town": "花川北六条",
    "town_kana": "ハナカワキタ6ジョウ",
    "street": "１丁目３０番地２",
    "office_name": "石狩市役所",
    "office_name_kana": "イシカリシヤクシヨ"
  },
  "3293": {
    "zip_code": "0613293",
    "prefecture": "北海道",
    "prefecture_kana": "ホッカイドウ",
    "prefecture_code": 1,
    "city": "石狩市",
    "city_kana": "イシカリシ",
    "town": "新港南",
    "town_kana": "シンコウミナミ",
    "street": "３丁目７０３番地３号",
    "office_name": "エコートレーディング　株式会社　札幌支店",
    "office_name_kana": "エコ-トレ-デイング カブシキガイシヤ サツポロシテン"
  },
  "3294": {
    "zip_code": "0613294",
    "prefecture": "北海道",
    "prefecture_kana": "ホッカイドウ",
    "prefecture_code": 1,
    "city": "石狩市",
    "city_kana": "イシカリシ",
    "town": "新港西",
    "town_kana": "シンコウニシ",
    "street": "１丁目７２３番地４号",
    "office_name": "株式会社　モロオ　石狩物流センター",
    "office_name_kana": "カブシキガイシヤ モロオ イシカリブツリユウセンタ-"
  },
  "3295": {
    "zip_code": "0613295",
    "prefecture": "北海道",
    "prefecture_kana": "ホッカイドウ",
    "prefecture_code": 1,
    "city": "石狩市",
    "city_kana": "イシカリシ",
    "town": "新港西",
    "town_kana": "シンコウニシ",
    "street": "２丁目７７１番地１号",
    "office_name": "ピップトウキョウ　株式会社　札幌センター",
    "office_name_kana": "ピツプトウキヨウ カブシキガイシヤ サツポロセンタ-"
  },
  "3296": {
    "zip_code": "0613296",
    "prefecture": "北海道",
    "prefecture_kana": "ホッカイドウ",
    "prefecture_code": 1,
    "city": "石狩市",
    "city_kana": "イシカリシ",
    "town": "新港南",
    "town_kana": "シンコウミナミ",
    "street": "１丁目２２番地３３号",
    "office_name": "ＹＫＫ　ＡＰ　（株）　北海道工場",
    "office_name_kana": "ワイケ-ケ- エ-ピ- カブシキガイシヤ ホツカイドウコウジヨウ"
  },
  "3331": [
    {
      "zip_code": "0613331",
      "prefecture": "北海道",
      "prefecture_kana": "ホッカイドウ",
      "prefecture_code": 1,
      "city": "石狩市",
      "city_kana": "イシカリシ",
      "town": "厚田区聚富",
      "town_kana": "アツタクシップ",
      "street": null,
      "office_name": null,
      "office_name_kana": null
    },
    {
      "zip_code": "0613331",
      "prefecture": "北海道",
      "prefecture_kana": "ホッカイドウ",
      "prefecture_code": 1,
      "city": "石狩市",
      "city_kana": "イシカリシ",
      "town": "厚田区聚富中央",
      "town_kana": "アツタクシップチュウオウ",
      "street": null,
      "office_name": null,
      "office_name_kana": null
    },
    {
      "zip_code": "0613331",
      "prefecture": "北海道",
      "prefecture_kana": "ホッカイドウ",
      "prefecture_code": 1,
      "city": "石狩市",
      "city_kana": "イシカリシ",
      "town": "厚田区聚富シラツカリ",
      "town_kana": "アツタクシップシラツカリ",
      "street": null,
      "office_name": null,
      "office_name_kana": null
    }
  ],
  "3332": {
    "zip_code": "0613332",
    "prefecture": "北海道",
    "prefecture_kana": "ホッカイドウ",
    "prefecture_code": 1,
    "city": "石狩市",
    "city_kana": "イシカリシ",
    "town": "厚田区虹が原",
    "town_kana": "アツタクニジガハラ",
    "street": null,
    "office_name": null,
    "office_name_kana": null
  },
  "3361": {
    "zip_code": "0613361",
    "prefecture": "北海道",
    "prefecture_kana": "ホッカイドウ",
    "prefecture_code": 1,
    "city": "石狩市",
    "city_kana": "イシカリシ",
    "town": "八幡",
    "town_kana": "ハチマン",
    "street": null,
    "office_name": null,
    "office_name_kana": null
  },
  "3362": {
    "zip_code": "0613362",
    "prefecture": "北海道",
    "prefecture_kana": "ホッカイドウ",
    "prefecture_code": 1,
    "city": "石狩市",
    "city_kana": "イシカリシ",
    "town": "北生振",
    "town_kana": "キタオヤフル",
    "street": null,
    "office_name": null,
    "office_name_kana": null
  },
  "3363": {
    "zip_code": "0613363",
    "prefecture": "北海道",
    "prefecture_kana": "ホッカイドウ",
    "prefecture_code": 1,
    "city": "石狩市",
    "city_kana": "イシカリシ",
    "town": "若生町",
    "town_kana": "ワカオイチョウ",
    "street": null,
    "office_name": null,
    "office_name_kana": null
  },
  "3365": {
    "zip_code": "0613365",
    "prefecture": "北海道",
    "prefecture_kana": "ホッカイドウ",
    "prefecture_code": 1,
    "city": "石狩市",
    "city_kana": "イシカリシ",
    "town": "親船東一条",
    "town_kana": "オヤフネヒガシ1ジョウ",
    "street": null,
    "office_name": null,
    "office_name_kana": null
  },
  "3366": {
    "zip_code": "0613366",
    "prefecture": "北海道",
    "prefecture_kana": "ホッカイドウ",
    "prefecture_code": 1,
    "city": "石狩市",
    "city_kana": "イシカリシ",
    "town": "親船東二条",
    "town_kana": "オヤフネヒガシ2ジョウ",
    "street": null,
    "office_name": null,
    "office_name_kana": null
  },
  "3367": {
    "zip_code": "0613367",
    "prefecture": "北海道",
    "prefecture_kana": "ホッカイドウ",
    "prefecture_code": 1,
    "city": "石狩市",
    "city_kana": "イシカリシ",
    "town": "親船東三条",
    "town_kana": "オヤフネヒガシ3ジョウ",
    "street": null,
    "office_name": null,
    "office_name_kana": null
  },
  "3368": {
    "zip_code": "0613368",
    "prefecture": "北海道",
    "prefecture_kana": "ホッカイドウ",
    "prefecture_code": 1,
    "city": "石狩市",
    "city_kana": "イシカリシ",
    "town": "美登位",
    "town_kana": "ビトイ",
    "street": null,
    "office_name": null,
    "office_name_kana": null
  },
  "3371": {
    "zip_code": "0613371",
    "prefecture": "北海道",
    "prefecture_kana": "ホッカイドウ",
    "prefecture_code": 1,
    "city": "石狩市",
    "city_kana": "イシカリシ",
    "town": "浜町",
    "town_kana": "ハママチ",
    "street": null,
    "office_name": null,
    "office_name_kana": null
  },
  "3372": {
    "zip_code": "0613372",
    "prefecture": "北海道",
    "prefecture_kana": "ホッカイドウ",
    "prefecture_code": 1,
    "city": "石狩市",
    "city_kana": "イシカリシ",
    "town": "弁天町",
    "town_kana": "ベンテンチョウ",
    "street": null,
    "office_name": null,
    "office_name_kana": null
  },
  "3373": {
    "zip_code": "0613373",
    "prefecture": "北海道",
    "prefecture_kana": "ホッカイドウ",
    "prefecture_code": 1,
    "city": "石狩市",
    "city_kana": "イシカリシ",
    "town": "新町",
    "town_kana": "シンマチ",
    "street": null,
    "office_name": null,
    "office_name_kana": null
  },
  "3374": {
    "zip_code": "0613374",
    "prefecture": "北海道",
    "prefecture_kana": "ホッカイドウ",
    "prefecture_code": 1,
    "city": "石狩市",
    "city_kana": "イシカリシ",
    "town": "仲町",
    "town_kana": "ナカマチ",
    "street": null,
    "office_name": null,
    "office_name_kana": null
  },
  "3375": {
    "zip_code": "0613375",
    "prefecture": "北海道",
    "prefecture_kana": "ホッカイドウ",
    "prefecture_code": 1,
    "city": "石狩市",
    "city_kana": "イシカリシ",
    "town": "本町",
    "town_kana": "ホンチョウ",
    "street": null,
    "office_name": null,
    "office_name_kana": null
  },
  "3376": {
    "zip_code": "0613376",
    "prefecture": "北海道",
    "prefecture_kana": "ホッカイドウ",
    "prefecture_code": 1,
    "city": "石狩市",
    "city_kana": "イシカリシ",
    "town": "横町",
    "town_kana": "ヨコマチ",
    "street": null,
    "office_name": null,
    "office_name_kana": null
  },
  "3377": {
    "zip_code": "0613377",
    "prefecture": "北海道",
    "prefecture_kana": "ホッカイドウ",
    "prefecture_code": 1,
    "city": "石狩市",
    "city_kana": "イシカリシ",
    "town": "親船町",
    "town_kana": "オヤフネチョウ",
    "street": null,
    "office_name": null,
    "office_name_kana": null
  },
  "3378": {
    "zip_code": "0613378",
    "prefecture": "北海道",
    "prefecture_kana": "ホッカイドウ",
    "prefecture_code": 1,
    "city": "石狩市",
    "city_kana": "イシカリシ",
    "town": "船場町",
    "town_kana": "フナバチョウ",
    "street": null,
    "office_name": null,
    "office_name_kana": null
  },
  "3441": {
    "zip_code": "0613441",
    "prefecture": "北海道",
    "prefecture_kana": "ホッカイドウ",
    "prefecture_code": 1,
    "city": "石狩市",
    "city_kana": "イシカリシ",
    "town": "厚田区聚富",
    "town_kana": "アツタクシップ",
    "street": null,
    "office_name": null,
    "office_name_kana": null
  },
  "3480": [
    {
      "zip_code": "0613480",
      "prefecture": "北海道",
      "prefecture_kana": "ホッカイドウ",
      "prefecture_code": 1,
      "city": "石狩市",
      "city_kana": "イシカリシ",
      "town": "八幡町",
      "town_kana": "ハチマンチョウ",
      "street": null,
      "office_name": null,
      "office_name_kana": null
    },
    {
      "zip_code": "0613480",
      "prefecture": "北海道",
      "prefecture_kana": "ホッカイドウ",
      "prefecture_code": 1,
      "city": "石狩市",
      "city_kana": "イシカリシ",
      "town": "八幡町五の沢",
      "town_kana": "ハチマンチョウゴノサワ",
      "street": null,
      "office_name": null,
      "office_name_kana": null
    }
  ],
  "3481": [
    {
      "zip_code": "0613481",
      "prefecture": "北海道",
      "prefecture_kana": "ホッカイドウ",
      "prefecture_code": 1,
      "city": "石狩市",
      "city_kana": "イシカリシ",
      "town": "八幡町",
      "town_kana": "ハチマンチョウ",
      "street": null,
      "office_name": null,
      "office_name_kana": null
    },
    {
      "zip_code": "0613481",
      "prefecture": "北海道",
      "prefecture_kana": "ホッカイドウ",
      "prefecture_code": 1,
      "city": "石狩市",
      "city_kana": "イシカリシ",
      "town": "八幡町高岡",
      "town_kana": "ハチマンチョウタカオカ",
      "street": null,
      "office_name": null,
      "office_name_kana": null
    }
  ],
  "3482": {
    "zip_code": "0613482",
    "prefecture": "北海道",
    "prefecture_kana": "ホッカイドウ",
    "prefecture_code": 1,
    "city": "石狩市",
    "city_kana": "イシカリシ",
    "town": "八幡町",
    "town_kana": "ハチマンチョウ",
    "street": null,
    "office_name": null,
    "office_name_kana": null
  },
  "3483": {
    "zip_code": "0613483",
    "prefecture": "北海道",
    "prefecture_kana": "ホッカイドウ",
    "prefecture_code": 1,
    "city": "石狩市",
    "city_kana": "イシカリシ",
    "town": "緑ケ原",
    "town_kana": "ミドリガハラ",
    "street": null,
    "office_name": null,
    "office_name_kana": null
  },
  "3484": {
    "zip_code": "0613484",
    "prefecture": "北海道",
    "prefecture_kana": "ホッカイドウ",
    "prefecture_code": 1,
    "city": "石狩市",
    "city_kana": "イシカリシ",
    "town": "八幡",
    "town_kana": "ハチマン",
    "street": null,
    "office_name": null,
    "office_name_kana": null
  },
  "3521": {
    "zip_code": "0613521",
    "prefecture": "北海道",
    "prefecture_kana": "ホッカイドウ",
    "prefecture_code": 1,
    "city": "石狩市",
    "city_kana": "イシカリシ",
    "town": "厚田区古潭",
    "town_kana": "アツタクコタン",
    "street": null,
    "office_name": null,
    "office_name_kana": null
  },
  "3522": {
    "zip_code": "0613522",
    "prefecture": "北海道",
    "prefecture_kana": "ホッカイドウ",
    "prefecture_code": 1,
    "city": "石狩市",
    "city_kana": "イシカリシ",
    "town": "厚田区嶺泊",
    "town_kana": "アツタクミネトマリ",
    "street": null,
    "office_name": null,
    "office_name_kana": null
  },
  "3523": {
    "zip_code": "0613523",
    "prefecture": "北海道",
    "prefecture_kana": "ホッカイドウ",
    "prefecture_code": 1,
    "city": "石狩市",
    "city_kana": "イシカリシ",
    "town": "厚田区望来",
    "town_kana": "アツタクモウライ",
    "street": null,
    "office_name": null,
    "office_name_kana": null
  },
  "3601": {
    "zip_code": "0613601",
    "prefecture": "北海道",
    "prefecture_kana": "ホッカイドウ",
    "prefecture_code": 1,
    "city": "石狩市",
    "city_kana": "イシカリシ",
    "town": "厚田区厚田",
    "town_kana": "アツタクアツタ",
    "street": null,
    "office_name": null,
    "office_name_kana": null
  },
  "3602": {
    "zip_code": "0613602",
    "prefecture": "北海道",
    "prefecture_kana": "ホッカイドウ",
    "prefecture_code": 1,
    "city": "石狩市",
    "city_kana": "イシカリシ",
    "town": "厚田区押琴",
    "town_kana": "アツタクオシコト",
    "street": null,
    "office_name": null,
    "office_name_kana": null
  },
  "3603": {
    "zip_code": "0613603",
    "prefecture": "北海道",
    "prefecture_kana": "ホッカイドウ",
    "prefecture_code": 1,
    "city": "石狩市",
    "city_kana": "イシカリシ",
    "town": "厚田区小谷",
    "town_kana": "アツタクコタニ",
    "street": null,
    "office_name": null,
    "office_name_kana": null
  },
  "3605": {
    "zip_code": "0613605",
    "prefecture": "北海道",
    "prefecture_kana": "ホッカイドウ",
    "prefecture_code": 1,
    "city": "石狩市",
    "city_kana": "イシカリシ",
    "town": "厚田区別狩",
    "town_kana": "アツタクベッカリ",
    "street": null,
    "office_name": null,
    "office_name_kana": null
  },
  "3606": {
    "zip_code": "0613606",
    "prefecture": "北海道",
    "prefecture_kana": "ホッカイドウ",
    "prefecture_code": 1,
    "city": "石狩市",
    "city_kana": "イシカリシ",
    "town": "厚田区安瀬",
    "town_kana": "アツタクヤソスケ",
    "street": null,
    "office_name": null,
    "office_name_kana": null
  },
  "3692": {
    "zip_code": "0613692",
    "prefecture": "北海道",
    "prefecture_kana": "ホッカイドウ",
    "prefecture_code": 1,
    "city": "石狩市",
    "city_kana": "イシカリシ",
    "town": "厚田区厚田",
    "town_kana": "アツタクアツタ",
    "street": "１８番地",
    "office_name": "石狩市役所　厚田支所",
    "office_name_kana": "イシカリシヤクシヨ アツタシシヨ"
  },
  "3771": {
    "zip_code": "0613771",
    "prefecture": "北海道",
    "prefecture_kana": "ホッカイドウ",
    "prefecture_code": 1,
    "city": "石狩郡当別町",
    "city_kana": "イシカリグントウベツチョウ",
    "town": "高岡",
    "town_kana": "タカオカ",
    "street": null,
    "office_name": null,
    "office_name_kana": null
  },
  "3772": {
    "zip_code": "0613772",
    "prefecture": "北海道",
    "prefecture_kana": "ホッカイドウ",
    "prefecture_code": 1,
    "city": "石狩郡当別町",
    "city_kana": "イシカリグントウベツチョウ",
    "town": "獅子内",
    "town_kana": "シシナイ",
    "street": null,
    "office_name": null,
    "office_name_kana": null
  },
  "3773": {
    "zip_code": "0613773",
    "prefecture": "北海道",
    "prefecture_kana": "ホッカイドウ",
    "prefecture_code": 1,
    "city": "石狩郡当別町",
    "city_kana": "イシカリグントウベツチョウ",
    "town": "当別太",
    "town_kana": "トウベツブト",
    "street": null,
    "office_name": null,
    "office_name_kana": null
  },
  "3774": {
    "zip_code": "0613774",
    "prefecture": "北海道",
    "prefecture_kana": "ホッカイドウ",
    "prefecture_code": 1,
    "city": "石狩郡当別町",
    "city_kana": "イシカリグントウベツチョウ",
    "town": "川下",
    "town_kana": "カワシモ",
    "street": null,
    "office_name": null,
    "office_name_kana": null
  },
  "3775": {
    "zip_code": "0613775",
    "prefecture": "北海道",
    "prefecture_kana": "ホッカイドウ",
    "prefecture_code": 1,
    "city": "石狩郡当別町",
    "city_kana": "イシカリグントウベツチョウ",
    "town": "ビトエ",
    "town_kana": "ビトエ",
    "street": null,
    "office_name": null,
    "office_name_kana": null
  },
  "3776": {
    "zip_code": "0613776",
    "prefecture": "北海道",
    "prefecture_kana": "ホッカイドウ",
    "prefecture_code": 1,
    "city": "石狩郡当別町",
    "city_kana": "イシカリグントウベツチョウ",
    "town": "太美町",
    "town_kana": "フトミチョウ",
    "street": null,
    "office_name": null,
    "office_name_kana": null
  },
  "3777": {
    "zip_code": "0613777",
    "prefecture": "北海道",
    "prefecture_kana": "ホッカイドウ",
    "prefecture_code": 1,
    "city": "石狩郡当別町",
    "city_kana": "イシカリグントウベツチョウ",
    "town": "スウェーデンヒルズ",
    "town_kana": "スウェーデンヒルズ",
    "street": null,
    "office_name": null,
    "office_name_kana": null
  },
  "3778": {
    "zip_code": "0613778",
    "prefecture": "北海道",
    "prefecture_kana": "ホッカイドウ",
    "prefecture_code": 1,
    "city": "石狩郡当別町",
    "city_kana": "イシカリグントウベツチョウ",
    "town": "太美南",
    "town_kana": "フトミミナミ",
    "street": null,
    "office_name": null,
    "office_name_kana": null
  },
  "3779": {
    "zip_code": "0613779",
    "prefecture": "北海道",
    "prefecture_kana": "ホッカイドウ",
    "prefecture_code": 1,
    "city": "石狩郡当別町",
    "city_kana": "イシカリグントウベツチョウ",
    "town": "太美スターライト",
    "town_kana": "フトミスターライト",
    "street": null,
    "office_name": null,
    "office_name_kana": null
  }
}