{
  "0801": {
    "zip_code": "0640801",
    "prefecture": "北海道",
    "prefecture_kana": "ホッカイドウ",
    "prefecture_code": 1,
    "city": "札幌市中央区",
    "city_kana": "サッポロシチュウオウク",
    "town": "南一条西",
    "town_kana": "ミナミ1ジョウニシ",
    "street": null,
    "office_name": null,
    "office_name_kana": null
  },
  "0802": {
    "zip_code": "0640802",
    "prefecture": "北海道",
    "prefecture_kana": "ホッカイドウ",
    "prefecture_code": 1,
    "city": "札幌市中央区",
    "city_kana": "サッポロシチュウオウク",
    "town": "南二条西",
    "town_kana": "ミナミ2ジョウニシ",
    "street": null,
    "office_name": null,
    "office_name_kana": null
  },
  "0803": {
    "zip_code": "0640803",
    "prefecture": "北海道",
    "prefecture_kana": "ホッカイドウ",
    "prefecture_code": 1,
    "city": "札幌市中央区",
    "city_kana": "サッポロシチュウオウク",
    "town": "南三条西",
    "town_kana": "ミナミ3ジョウニシ",
    "street": null,
    "office_name": null,
    "office_name_kana": null
  },
  "0804": {
    "zip_code": "0640804",
    "prefecture": "北海道",
    "prefecture_kana": "ホッカイドウ",
    "prefecture_code": 1,
    "city": "札幌市中央区",
    "city_kana": "サッポロシチュウオウク",
    "town": "南四条西",
    "town_kana": "ミナミ4ジョウニシ",
    "street": null,
    "office_name": null,
    "office_name_kana": null
  },
  "0805": {
    "zip_code": "0640805",
    "prefecture": "北海道",
    "prefecture_kana": "ホッカイドウ",
    "prefecture_code": 1,
    "city": "札幌市中央区",
    "city_kana": "サッポロシチュウオウク",
    "town": "南五条西",
    "town_kana": "ミナミ5ジョウニシ",
    "street": null,
    "office_name": null,
    "office_name_kana": null
  },
  "0806": {
    "zip_code": "0640806",
    "prefecture": "北海道",
    "prefecture_kana": "ホッカイドウ",
    "prefecture_code": 1,
    "city": "札幌市中央区",
    "city_kana": "サッポロシチュウオウク",
    "town": "南六条西",
    "town_kana": "ミナミ6ジョウニシ",
    "street": null,
    "office_name": null,
    "office_name_kana": null
  },
  "0807": {
    "zip_code": "0640807",
    "prefecture": "北海道",
    "prefecture_kana": "ホッカイドウ",
    "prefecture_code": 1,
    "city": "札幌市中央区",
    "city_kana": "サッポロシチュウオウク",
    "town": "南七条西",
    "town_kana": "ミナミ7ジョウニシ",
    "street": null,
    "office_name": null,
    "office_name_kana": null
  },
  "0808": {
    "zip_code": "0640808",
    "prefecture": "北海道",
    "prefecture_kana": "ホッカイドウ",
    "prefecture_code": 1,
    "city": "札幌市中央区",
    "city_kana": "サッポロシチュウオウク",
    "town": "南八条西",
    "town_kana": "ミナミ8ジョウニシ",
    "street": null,
    "office_name": null,
    "office_name_kana": null
  },
  "0809": {
    "zip_code": "0640809",
    "prefecture": "北海道",
    "prefecture_kana": "ホッカイドウ",
    "prefecture_code": 1,
    "city": "札幌市中央区",
    "city_kana": "サッポロシチュウオウク",
    "town": "南九条西",
    "town_kana": "ミナミ9ジョウニシ",
    "street": null,
    "office_name": null,
    "office_name_kana": null
  },
  "0810": {
    "zip_code": "0640810",
    "prefecture": "北海道",
    "prefecture_kana": "ホッカイドウ",
    "prefecture_code": 1,
    "city": "札幌市中央区",
    "city_kana": "サッポロシチュウオウク",
    "town": "南十条西",
    "town_kana": "ミナミ10ジョウニシ",
    "street": null,
    "office_name": null,
    "office_name_kana": null
  },
  "0811": {
    "zip_code": "0640811",
    "prefecture": "北海道",
    "prefecture_kana": "ホッカイドウ",
    "prefecture_code": 1,
    "city": "札幌市中央区",
    "city_kana": "サッポロシチュウオウク",
    "town": "南十一条西",
    "town_kana": "ミナミ11ジョウニシ",
    "street": null,
    "office_name": null,
    "office_name_kana": null
  },
  "0820": {
    "zip_code": "0640820",
    "prefecture": "北海道",
    "prefecture_kana": "ホッカイドウ",
    "prefecture_code": 1,
    "city": "札幌市中央区",
    "city_kana": "サッポロシチュウオウク",
    "town": "大通西",
    "town_kana": "オオドオリニシ",
    "street": null,
    "office_name": null,
    "office_name_kana": null
  },
  "0821": {
    "zip_code": "0640821",
    "prefecture": "北海道",
    "prefecture_kana": "ホッカイドウ",
    "prefecture_code": 1,
    "city": "札幌市中央区",
    "city_kana": "サッポロシチュウオウク",
    "town": "北一条西",
    "town_kana": "キタ1ジョウニシ",
    "street": null,
    "office_name": null,
    "office_name_kana": null
  },
  "0822": {
    "zip_code": "0640822",
    "prefecture": "北海道",
    "prefecture_kana": "ホッカイドウ",
    "prefecture_code": 1,
    "city": "札幌市中央区",
    "city_kana": "サッポロシチュウオウク",
    "town": "北二条西",
    "town_kana": "キタ2ジョウニシ",
    "street": null,
    "office_name": null,
    "office_name_kana": null
  },
  "0823": {
    "zip_code": "0640823",
    "prefecture": "北海道",
    "prefecture_kana": "ホッカイドウ",
    "prefecture_code": 1,
    "city": "札幌市中央区",
    "city_kana": "サッポロシチュウオウク",
    "town": "北三条西",
    "town_kana": "キタ3ジョウニシ",
    "street": null,
    "office_name": null,
    "office_name_kana": null
  },
  "0824": {
    "zip_code": "0640824",
    "prefecture": "北海道",
    "prefecture_kana": "ホッカイドウ",
    "prefecture_code": 1,
    "city": "札幌市中央区",
    "city_kana": "サッポロシチュウオウク",
    "town": "北四条西",
    "town_kana": "キタ4ジョウニシ",
    "street": null,
    "office_name": null,
    "office_name_kana": null
  },
  "0825": {
    "zip_code": "0640825",
    "prefecture": "北海道",
    "prefecture_kana": "ホッカイドウ",
    "prefecture_code": 1,
    "city": "札幌市中央区",
    "city_kana": "サッポロシチュウオウク",
    "town": "北五条西",
    "town_kana": "キタ5ジョウニシ",
    "street": null,
    "office_name": null,
    "office_name_kana": null
  },
  "0826": {
    "zip_code": "0640826",
    "prefecture": "北海道",
    "prefecture_kana": "ホッカイドウ",
    "prefecture_code": 1,
    "city": "札幌市中央区",
    "city_kana": "サッポロシチュウオウク",
    "town": "北六条西",
    "town_kana": "キタ6ジョウニシ",
    "street": null,
    "office_name": null,
    "office_name_kana": null
  },
  "0912": {
    "zip_code": "0640912",
    "prefecture": "北海道",
    "prefecture_kana": "ホッカイドウ",
    "prefecture_code": 1,
    "city": "札幌市中央区",
    "city_kana": "サッポロシチュウオウク",
    "town": "南十二条西",
    "town_kana": "ミナミ12ジョウニシ",
    "street": null,
    "office_name": null,
    "office_name_kana": null
  },
  "0913": {
    "zip_code": "0640913",
    "prefecture": "北海道",
    "prefecture_kana": "ホッカイドウ",
    "prefecture_code": 1,
    "city": "札幌市中央区",
    "city_kana": "サッポロシチュウオウク",
    "town": "南十三条西",
    "town_kana": "ミナミ13ジョウニシ",
    "street": null,
    "office_name": null,
    "office_name_kana": null
  },
  "0914": {
    "zip_code": "0640914",
    "prefecture": "北海道",
    "prefecture_kana": "ホッカイドウ",
    "prefecture_code": 1,
    "city": "札幌市中央区",
    "city_kana": "サッポロシチュウオウク",
    "town": "南十四条西",
    "town_kana": "ミナミ14ジョウニシ",
    "street": null,
    "office_name": null,
    "office_name_kana": null
  },
  "0915": {
    "zip_code": "0640915",
    "prefecture": "北海道",
    "prefecture_kana": "ホッカイドウ",
    "prefecture_code": 1,
    "city": "札幌市中央区",
    "city_kana": "サッポロシチュウオウク",
    "town": "南十五条西",
    "town_kana": "ミナミ15ジョウニシ",
    "street": null,
    "office_name": null,
    "office_name_kana": null
  },
  "0916": {
    "zip_code": "0640916",
    "prefecture": "北海道",
    "prefecture_kana": "ホッカイドウ",
    "prefecture_code": 1,
    "city": "札幌市中央区",
    "city_kana": "サッポロシチュウオウク",
    "town": "南十六条西",
    "town_kana": "ミナミ16ジョウニシ",
    "street": null,
    "office_name": null,
    "office_name_kana": null
  },
  "0917": {
    "zip_code": "0640917",
    "prefecture": "北海道",
    "prefecture_kana": "ホッカイドウ",
    "prefecture_code": 1,
    "city": "札幌市中央区",
    "city_kana": "サッポロシチュウオウク",
    "town": "南十七条西",
    "town_kana": "ミナミ17ジョウニシ",
    "street": null,
    "office_name": null,
    "office_name_kana": null
  },
  "0918": {
    "zip_code": "0640918",
    "prefecture": "北海道",
    "prefecture_kana": "ホッカイドウ",
    "prefecture_code": 1,
    "city": "札幌市中央区",
    "city_kana": "サッポロシチュウオウク",
    "town": "南十八条西",
    "town_kana": "ミナミ18ジョウニシ",
    "street": null,
    "office_name": null,
    "office_name_kana": null
  },
  "0919": {
    "zip_code": "0640919",
    "prefecture": "北海道",
    "prefecture_kana": "ホッカイドウ",
    "prefecture_code": 1,
    "city": "札幌市中央区",
    "city_kana": "サッポロシチュウオウク",
    "town": "南十九条西",
    "town_kana": "ミナミ19ジョウニシ",
    "street": null,
    "office_name": null,
    "office_name_kana": null
  },
  "0920": {
    "zip_code": "0640920",
    "prefecture": "北海道",
    "prefecture_kana": "ホッカイドウ",
    "prefecture_code": 1,
    "city": "札幌市中央区",
    "city_kana": "サッポロシチュウオウク",
    "town": "南二十条西",
    "town_kana": "ミナミ20ジョウニシ",
    "street": null,
    "office_name": null,
    "office_name_kana": null
  },
  "0921": {
    "zip_code": "0640921",
    "prefecture": "北海道",
    "prefecture_kana": "ホッカイドウ",
    "prefecture_code": 1,
    "city": "札幌市中央区",
    "city_kana": "サッポロシチュウオウク",
    "town": "南二十一条西",
    "town_kana": "ミナミ21ジョウニシ",
    "street": null,
    "office_name": null,
    "office_name_kana": null
  },
  "0922": {
    "zip_code": "0640922",
    "prefecture": "北海道",
    "prefecture_kana": "ホッカイドウ",
    "prefecture_code": 1,
    "city": "札幌市中央区",
    "city_kana": "サッポロシチュウオウク",
    "town": "南二十二条西",
    "town_kana": "ミナミ22ジョウニシ",
    "street": null,
    "office_name": null,
    "office_name_kana": null
  },
  "0923": {
    "zip_code": "0640923",
    "prefecture": "北海道",
    "prefecture_kana": "ホッカイドウ",
    "prefecture_code": 1,
    "city": "札幌市中央区",
    "city_kana": "サッポロシチュウオウク",
    "town": "南二十三条西",
    "town_kana": "ミナミ23ジョウニシ",
    "street": null,
    "office_name": null,
    "office_name_kana": null
  },
  "0924": {
    "zip_code": "0640924",
    "prefecture": "北海道",
    "prefecture_kana": "ホッカイドウ",
    "prefecture_code": 1,
    "city": "札幌市中央区",
    "city_kana": "サッポロシチュウオウク",
    "town": "南二十四条西",
    "town_kana": "ミナミ24ジョウニシ",
    "street": null,
    "office_name": null,
    "office_name_kana": null
  },
  "0925": {
    "zip_code": "0640925",
    "prefecture": "北海道",
    "prefecture_kana": "ホッカイドウ",
    "prefecture_code": 1,
    "city": "札幌市中央区",
    "city_kana": "サッポロシチュウオウク",
    "town": "南二十五条西",
    "town_kana": "ミナミ25ジョウニシ",
    "street": null,
    "office_name": null,
    "office_name_kana": null
  },
  "0926": {
    "zip_code": "0640926",
    "prefecture": "北海道",
    "prefecture_kana": "ホッカイドウ",
    "prefecture_code": 1,
    "city": "札幌市中央区",
    "city_kana": "サッポロシチュウオウク",
    "town": "南二十六条西",
    "town_kana": "ミナミ26ジョウニシ",
    "street": null,
    "office_name": null,
    "office_name_kana": null
  },
  "0927": {
    "zip_code": "0640927",
    "prefecture": "北海道",
    "prefecture_kana": "ホッカイドウ",
    "prefecture_code": 1,
    "city": "札幌市中央区",
    "city_kana": "サッポロシチュウオウク",
    "town": "南二十七条西",
    "town_kana": "ミナミ27ジョウニシ",
    "street": null,
    "office_name": null,
    "office_name_kana": null
  },
  "0928": {
    "zip_code": "0640928",
    "prefecture": "北海道",
    "prefecture_kana": "ホッカイドウ",
    "prefecture_code": 1,
    "city": "札幌市中央区",
    "city_kana": "サッポロシチュウオウク",
    "town": "南二十八条西",
    "town_kana": "ミナミ28ジョウニシ",
    "street": null,
    "office_name": null,
    "office_name_kana": null
  },
  "0929": {
    "zip_code": "0640929",
    "prefecture": "北海道",
    "prefecture_kana": "ホッカイドウ",
    "prefecture_code": 1,
    "city": "札幌市中央区",
    "city_kana": "サッポロシチュウオウク",
    "town": "南二十九条西",
    "town_kana": "ミナミ29ジョウニシ",
    "street": null,
    "office_name": null,
    "office_name_kana": null
  },
  "0930": {
    "zip_code": "0640930",
    "prefecture": "北海道",
    "prefecture_kana": "ホッカイドウ",
    "prefecture_code": 1,
    "city": "札幌市中央区",
    "city_kana": "サッポロシチュウオウク",
    "town": "南三十条西",
    "town_kana": "ミナミ30ジョウニシ",
    "street": null,
    "office_name": null,
    "office_name_kana": null
  },
  "0931": {
    "zip_code": "0640931",
    "prefecture": "北海道",
    "prefecture_kana": "ホッカイドウ",
    "prefecture_code": 1,
    "city": "札幌市中央区",
    "city_kana": "サッポロシチュウオウク",
    "town": "中島公園",
    "town_kana": "ナカジマコウエン",
    "street": null,
    "office_name": null,
    "office_name_kana": null
  },
  "0941": {
    "zip_code": "0640941",
    "prefecture": "北海道",
    "prefecture_kana": "ホッカイドウ",
    "prefecture_code": 1,
    "city": "札幌市中央区",
    "city_kana": "サッポロシチュウオウク",
    "town": "旭ケ丘",
    "town_kana": "アサヒガオカ",
    "street": null,
    "office_name": null,
    "office_name_kana": null
  },
  "0942": {
    "zip_code": "0640942",
    "prefecture": "北海道",
    "prefecture_kana": "ホッカイドウ",
    "prefecture_code": 1,
    "city": "札幌市中央区",
    "city_kana": "サッポロシチュウオウク",
    "town": "伏見",
    "town_kana": "フシミ",
    "street": null,
    "office_name": null,
    "office_name_kana": null
  },
  "0943": {
    "zip_code": "0640943",
    "prefecture": "北海道",
    "prefecture_kana": "ホッカイドウ",
    "prefecture_code": 1,
    "city": "札幌市中央区",
    "city_kana": "サッポロシチュウオウク",
    "town": "界川",
    "town_kana": "サカイガワ",
    "street": null,
    "office_name": null,
    "office_name_kana": null
  },
  "0944": {
    "zip_code": "0640944",
    "prefecture": "北海道",
    "prefecture_kana": "ホッカイドウ",
    "prefecture_code": 1,
    "city": "札幌市中央区",
    "city_kana": "サッポロシチュウオウク",
    "town": "円山西町",
    "town_kana": "マルヤマニシマチ",
    "street": null,
    "office_name": null,
    "office_name_kana": null
  },
  "0945": {
    "zip_code": "0640945",
    "prefecture": "北海道",
    "prefecture_kana": "ホッカイドウ",
    "prefecture_code": 1,
    "city": "札幌市中央区",
    "city_kana": "サッポロシチュウオウク",
    "town": "盤渓",
    "town_kana": "バンケイ",
    "street": null,
    "office_name": null,
    "office_name_kana": null
  },
  "0946": {
    "zip_code": "0640946",
    "prefecture": "北海道",
    "prefecture_kana": "ホッカイドウ",
    "prefecture_code": 1,
    "city": "札幌市中央区",
    "city_kana": "サッポロシチュウオウク",
    "town": "双子山",
    "town_kana": "フタゴヤマ",
    "street": null,
    "office_name": null,
    "office_name_kana": null
  },
  "0951": {
    "zip_code": "0640951",
    "prefecture": "北海道",
    "prefecture_kana": "ホッカイドウ",
    "prefecture_code": 1,
    "city": "札幌市中央区",
    "city_kana": "サッポロシチュウオウク",
    "town": "宮の森一条",
    "town_kana": "ミヤノモリ1ジョウ",
    "street": null,
    "office_name": null,
    "office_name_kana": null
  },
  "0952": {
    "zip_code": "0640952",
    "prefecture": "北海道",
    "prefecture_kana": "ホッカイドウ",
    "prefecture_code": 1,
    "city": "札幌市中央区",
    "city_kana": "サッポロシチュウオウク",
    "town": "宮の森二条",
    "town_kana": "ミヤノモリ2ジョウ",
    "street": null,
    "office_name": null,
    "office_name_kana": null
  },
  "0953": {
    "zip_code": "0640953",
    "prefecture": "北海道",
    "prefecture_kana": "ホッカイドウ",
    "prefecture_code": 1,
    "city": "札幌市中央区",
    "city_kana": "サッポロシチュウオウク",
    "town": "宮の森三条",
    "town_kana": "ミヤノモリ3ジョウ",
    "street": null,
    "office_name": null,
    "office_name_kana": null
  },
  "0954": {
    "zip_code": "0640954",
    "prefecture": "北海道",
    "prefecture_kana": "ホッカイドウ",
    "prefecture_code": 1,
    "city": "札幌市中央区",
    "city_kana": "サッポロシチュウオウク",
    "town": "宮の森四条",
    "town_kana": "ミヤノモリ4ジョウ",
    "street": null,
    "office_name": null,
    "office_name_kana": null
  },
  "0958": {
    "zip_code": "0640958",
    "prefecture": "北海道",
    "prefecture_kana": "ホッカイドウ",
    "prefecture_code": 1,
    "city": "札幌市中央区",
    "city_kana": "サッポロシチュウオウク",
    "town": "宮の森",
    "town_kana": "ミヤノモリ",
    "street": null,
    "office_name": null,
    "office_name_kana": null
  },
  "0959": {
    "zip_code": "0640959",
    "prefecture": "北海道",
    "prefecture_kana": "ホッカイドウ",
    "prefecture_code": 1,
    "city": "札幌市中央区",
    "city_kana": "サッポロシチュウオウク",
    "town": "宮ケ丘",
    "town_kana": "ミヤガオカ",
    "street": null,
    "office_name": null,
    "office_name_kana": null
  },
  "8502": {
    "zip_code": "0648502",
    "prefecture": "北海道",
    "prefecture_kana": "ホッカイドウ",
    "prefecture_code": 1,
    "city": "札幌市中央区",
    "city_kana": "サッポロシチュウオウク",
    "town": "南九条西",
    "town_kana": "ミナミ9ジョウニシ",
    "street": "４丁目１０",
    "office_name": "北海商銀信用組合",
    "office_name_kana": "ホツカイシヨウギンシンヨウクミアイ"
  },
  "8503": {
    "zip_code": "0648503",
    "prefecture": "北海道",
    "prefecture_kana": "ホッカイドウ",
    "prefecture_code": 1,
    "city": "札幌市中央区",
    "city_kana": "サッポロシチュウオウク",
    "town": "南六条西",
    "town_kana": "ミナミ6ジョウニシ",
    "street": "１７丁目１番１号",
    "office_name": "渥美工業　（株）",
    "office_name_kana": "アツミコウギヨウ カブシキガイシヤ"
  },
  "8505": {
    "zip_code": "0648505",
    "prefecture": "北海道",
    "prefecture_kana": "ホッカイドウ",
    "prefecture_code": 1,
    "city": "札幌市中央区",
    "city_kana": "サッポロシチュウオウク",
    "town": "宮ケ丘",
    "town_kana": "ミヤガオカ",
    "street": "４７４番地",
    "office_name": "北海道神宮",
    "office_name_kana": "ホツカイドウジングウ"
  },
  "8506": {
    "zip_code": "0648506",
    "prefecture": "北海道",
    "prefecture_kana": "ホッカイドウ",
    "prefecture_code": 1,
    "city": "札幌市中央区",
    "city_kana": "サッポロシチュウオウク",
    "town": "南四条西",
    "town_kana": "ミナミ4ジョウニシ",
    "street": "１０丁目",
    "office_name": "財団法人　北海道難病連",
    "office_name_kana": "ザイダンホウジン ホツカイドウナンビヨウレン"
  },
  "8509": {
    "zip_code": "0648509",
    "prefecture": "北海道",
    "prefecture_kana": "ホッカイドウ",
    "prefecture_code": 1,
    "city": "札幌市中央区",
    "city_kana": "サッポロシチュウオウク",
    "town": "南四条西",
    "town_kana": "ミナミ4ジョウニシ",
    "street": "５丁目１",
    "office_name": "（株）　札幌東急イン",
    "office_name_kana": "カブシキガイシヤ サツポロトウキユウイン"
  },
  "8510": {
    "zip_code": "0648510",
    "prefecture": "北海道",
    "prefecture_kana": "ホッカイドウ",
    "prefecture_code": 1,
    "city": "札幌市中央区",
    "city_kana": "サッポロシチュウオウク",
    "town": "南二十六条西",
    "town_kana": "ミナミ26ジョウニシ",
    "street": "１０丁目",
    "office_name": "陸上自衛隊　北部方面総監部",
    "office_name_kana": "リクジヨウジエイタイ ホクブホウメンソウカンブ"
  },
  "8512": {
    "zip_code": "0648512",
    "prefecture": "北海道",
    "prefecture_kana": "ホッカイドウ",
    "prefecture_code": 1,
    "city": "札幌市中央区",
    "city_kana": "サッポロシチュウオウク",
    "town": "南一条西",
    "town_kana": "ミナミ1ジョウニシ",
    "street": "２５丁目１番１号",
    "office_name": "三井道路　（株）　北海道支社",
    "office_name_kana": "ミツイドウロ カブシキガイシヤ ホツカイドウシシヤ"
  },
  "8514": {
    "zip_code": "0648514",
    "prefecture": "北海道",
    "prefecture_kana": "ホッカイドウ",
    "prefecture_code": 1,
    "city": "札幌市中央区",
    "city_kana": "サッポロシチュウオウク",
    "town": "伏見",
    "town_kana": "フシミ",
    "street": "４丁目４番２１号",
    "office_name": "北海道札幌伏見支援学校",
    "office_name_kana": "ホツカイドウサツポロフシミシエンガツコウ"
  },
  "8515": {
    "zip_code": "0648515",
    "prefecture": "北海道",
    "prefecture_kana": "ホッカイドウ",
    "prefecture_code": 1,
    "city": "札幌市中央区",
    "city_kana": "サッポロシチュウオウク",
    "town": "南十四条西",
    "town_kana": "ミナミ14ジョウニシ",
    "street": "１５丁目２番２号",
    "office_name": "北海道換気　株式会社",
    "office_name_kana": "ホツカイドウカンキ カブシキガイシヤ"
  },
  "8516": {
    "zip_code": "0648516",
    "prefecture": "北海道",
    "prefecture_kana": "ホッカイドウ",
    "prefecture_code": 1,
    "city": "札幌市中央区",
    "city_kana": "サッポロシチュウオウク",
    "town": "南二十二条西",
    "town_kana": "ミナミ22ジョウニシ",
    "street": "１３丁目１番１号",
    "office_name": "札幌市　中央図書館",
    "office_name_kana": "サツポロシ チユウオウトシヨカン"
  },
  "8518": {
    "zip_code": "0648518",
    "prefecture": "北海道",
    "prefecture_kana": "ホッカイドウ",
    "prefecture_code": 1,
    "city": "札幌市中央区",
    "city_kana": "サッポロシチュウオウク",
    "town": "南二十二条西",
    "town_kana": "ミナミ22ジョウニシ",
    "street": "６丁目２−２２エムズ南２２条ビル",
    "office_name": "農林水産省　北海道農政事務所",
    "office_name_kana": "ノウリンスイサンシヨウ ホツカイドウノウセイジムシヨ"
  },
  "8519": {
    "zip_code": "0648519",
    "prefecture": "北海道",
    "prefecture_kana": "ホッカイドウ",
    "prefecture_code": 1,
    "city": "札幌市中央区",
    "city_kana": "サッポロシチュウオウク",
    "town": "南十四条西",
    "town_kana": "ミナミ14ジョウニシ",
    "street": "１３丁目ＮＴＴ南ビル",
    "office_name": "ＮＴＴテレワイズ・ワイドサービスセンター",
    "office_name_kana": "エヌテイ-テイ-テレワイズワイドサ-ビスセンタ-"
  },
  "8521": {
    "zip_code": "0648521",
    "prefecture": "北海道",
    "prefecture_kana": "ホッカイドウ",
    "prefecture_code": 1,
    "city": "札幌市中央区",
    "city_kana": "サッポロシチュウオウク",
    "town": "南十一条西",
    "town_kana": "ミナミ11ジョウニシ",
    "street": "２０丁目４番８号",
    "office_name": "清水勧業　（株）",
    "office_name_kana": "シミズカンギヨウ カブシキガイシヤ"
  },
  "8522": {
    "zip_code": "0648522",
    "prefecture": "北海道",
    "prefecture_kana": "ホッカイドウ",
    "prefecture_code": 1,
    "city": "札幌市中央区",
    "city_kana": "サッポロシチュウオウク",
    "town": "南二十二条西",
    "town_kana": "ミナミ22ジョウニシ",
    "street": "９丁目アートパレスビル３Ｆ",
    "office_name": "（有）　日本書道評論社　北海道書道協会",
    "office_name_kana": "ユウゲンガイシヤ ニホンシヨドウヒヨウロンシヤ ホツカイドウシヨドウキヨウカイ"
  },
  "8523": {
    "zip_code": "0648523",
    "prefecture": "北海道",
    "prefecture_kana": "ホッカイドウ",
    "prefecture_code": 1,
    "city": "札幌市中央区",
    "city_kana": "サッポロシチュウオウク",
    "town": "南四条西",
    "town_kana": "ミナミ4ジョウニシ",
    "street": "１７丁目２番２号",
    "office_name": "北星学園　女子中学校高等学校",
    "office_name_kana": "ホクセイガクエン ジヨシチユウガツコウコウトウガツコウ"
  },
  "8524": {
    "zip_code": "0648524",
    "prefecture": "北海道",
    "prefecture_kana": "ホッカイドウ",
    "prefecture_code": 1,
    "city": "札幌市中央区",
    "city_kana": "サッポロシチュウオウク",
    "town": "南四条西",
    "town_kana": "ミナミ4ジョウニシ",
    "street": "１７丁目２番２号",
    "office_name": "北星学園　女子短期大学",
    "office_name_kana": "ホクセイガクエン ジヨシタンキダイガク"
  },
  "8526": {
    "zip_code": "0648526",
    "prefecture": "北海道",
    "prefecture_kana": "ホッカイドウ",
    "prefecture_code": 1,
    "city": "札幌市中央区",
    "city_kana": "サッポロシチュウオウク",
    "town": "南五条西",
    "town_kana": "ミナミ5ジョウニシ",
    "street": "２６丁目",
    "office_name": "（株）　サミットインターナショナル",
    "office_name_kana": "カブシキガイシヤ サミツトインタ-ナシヨナル"
  },
  "8530": {
    "zip_code": "0648530",
    "prefecture": "北海道",
    "prefecture_kana": "ホッカイドウ",
    "prefecture_code": 1,
    "city": "札幌市中央区",
    "city_kana": "サッポロシチュウオウク",
    "town": "北一条西",
    "town_kana": "キタ1ジョウニシ",
    "street": "２２丁目",
    "office_name": "（株）　ユタカ商会",
    "office_name_kana": "カブシキガイシヤ ユタカシヨウカイ"
  },
  "8533": {
    "zip_code": "0648533",
    "prefecture": "北海道",
    "prefecture_kana": "ホッカイドウ",
    "prefecture_code": 1,
    "city": "札幌市中央区",
    "city_kana": "サッポロシチュウオウク",
    "town": "南七条西",
    "town_kana": "ミナミ7ジョウニシ",
    "street": "３丁目４２５番地",
    "office_name": "（株）　ジャスマックプラザホテル",
    "office_name_kana": "カブシキガイシヤ ジヤスマツクプラザホテル"
  },
  "8535": {
    "zip_code": "0648535",
    "prefecture": "北海道",
    "prefecture_kana": "ホッカイドウ",
    "prefecture_code": 1,
    "city": "札幌市中央区",
    "city_kana": "サッポロシチュウオウク",
    "town": "旭ケ丘",
    "town_kana": "アサヒガオカ",
    "street": "６丁目５番１８号",
    "office_name": "北海道　札幌旭丘高等学校",
    "office_name_kana": "ホツカイドウ サツポロアサヒオカコウトウガツコウ"
  },
  "8536": {
    "zip_code": "0648536",
    "prefecture": "北海道",
    "prefecture_kana": "ホッカイドウ",
    "prefecture_code": 1,
    "city": "札幌市中央区",
    "city_kana": "サッポロシチュウオウク",
    "town": "南二十二条西",
    "town_kana": "ミナミ22ジョウニシ",
    "street": "１４丁目",
    "office_name": "医療法人社団　慈藻会　平松病院",
    "office_name_kana": "イリヨウホウジンシヤダン ジソウカイ ヒラマツビヨウイン"
  },
  "8537": {
    "zip_code": "0648537",
    "prefecture": "北海道",
    "prefecture_kana": "ホッカイドウ",
    "prefecture_code": 1,
    "city": "札幌市中央区",
    "city_kana": "サッポロシチュウオウク",
    "town": "宮の森三条",
    "town_kana": "ミヤノモリ3ジョウ",
    "street": "７丁目７０",
    "office_name": "北海道森林管理局",
    "office_name_kana": "ホツカイドウシンリンカンリキヨク"
  },
  "8540": {
    "zip_code": "0648540",
    "prefecture": "北海道",
    "prefecture_kana": "ホッカイドウ",
    "prefecture_code": 1,
    "city": "札幌市中央区",
    "city_kana": "サッポロシチュウオウク",
    "town": "宮の森二条",
    "town_kana": "ミヤノモリ2ジョウ",
    "street": "１６丁目１０−１",
    "office_name": "学校法人　聖心女子学院　札幌聖心女子学院",
    "office_name_kana": "ガツコウホウジン セイシンジヨシガクイン サツポロセイシンジヨシガクイン"
  },
  "8541": {
    "zip_code": "0648541",
    "prefecture": "北海道",
    "prefecture_kana": "ホッカイドウ",
    "prefecture_code": 1,
    "city": "札幌市中央区",
    "city_kana": "サッポロシチュウオウク",
    "town": "宮の森四条",
    "town_kana": "ミヤノモリ4ジョウ",
    "street": "１丁目３番１号",
    "office_name": "ネッツトヨタ道都　株式会社",
    "office_name_kana": "ネツツトヨタドウト カブシキガイシヤ"
  },
  "8542": {
    "zip_code": "0648542",
    "prefecture": "北海道",
    "prefecture_kana": "ホッカイドウ",
    "prefecture_code": 1,
    "city": "札幌市中央区",
    "city_kana": "サッポロシチュウオウク",
    "town": "南七条西",
    "town_kana": "ミナミ7ジョウニシ",
    "street": "５丁目１番地丙の１",
    "office_name": "（株）　日本商工振興会",
    "office_name_kana": "カブシキガイシヤ ニホンシヨウコウシンコウカイ"
  },
  "8543": {
    "zip_code": "0648543",
    "prefecture": "北海道",
    "prefecture_kana": "ホッカイドウ",
    "prefecture_code": 1,
    "city": "札幌市中央区",
    "city_kana": "サッポロシチュウオウク",
    "town": "南十条西",
    "town_kana": "ミナミ10ジョウニシ",
    "street": "１丁目１番５０号",
    "office_name": "ヤマハ　（株）　北海道支店",
    "office_name_kana": "ヤマハ カブシキガイシヤ ホツカイドウシテン"
  },
  "8545": {
    "zip_code": "0648545",
    "prefecture": "北海道",
    "prefecture_kana": "ホッカイドウ",
    "prefecture_code": 1,
    "city": "札幌市中央区",
    "city_kana": "サッポロシチュウオウク",
    "town": "南九条西",
    "town_kana": "ミナミ9ジョウニシ",
    "street": "１２丁目１番１号",
    "office_name": "（株）　日商物産　札幌支店",
    "office_name_kana": "カブシキガイシヤ ニツシヨウブツサン サツポロシテン"
  },
  "8546": {
    "zip_code": "0648546",
    "prefecture": "北海道",
    "prefecture_kana": "ホッカイドウ",
    "prefecture_code": 1,
    "city": "札幌市中央区",
    "city_kana": "サッポロシチュウオウク",
    "town": "南九条西",
    "town_kana": "ミナミ9ジョウニシ",
    "street": "１４丁目",
    "office_name": "ロッテ商事　（株）　北海道統轄支店",
    "office_name_kana": "ロツテシヨウジ カブシキガイシヤ ホツカイドウトウカツシテン"
  },
  "8550": {
    "zip_code": "0648550",
    "prefecture": "北海道",
    "prefecture_kana": "ホッカイドウ",
    "prefecture_code": 1,
    "city": "札幌市中央区",
    "city_kana": "サッポロシチュウオウク",
    "town": "南九条西",
    "town_kana": "ミナミ9ジョウニシ",
    "street": "１丁目１３番地",
    "office_name": "（株）　財界さっぽろ",
    "office_name_kana": "カブシキガイシヤ ザイカイサツポロ"
  },
  "8551": {
    "zip_code": "0648551",
    "prefecture": "北海道",
    "prefecture_kana": "ホッカイドウ",
    "prefecture_code": 1,
    "city": "札幌市中央区",
    "city_kana": "サッポロシチュウオウク",
    "town": "南五条西",
    "town_kana": "ミナミ5ジョウニシ",
    "street": "１丁目１",
    "office_name": "株式会社　福本商店",
    "office_name_kana": "カブシキガイシヤ フクモトシヨウテン"
  },
  "8554": {
    "zip_code": "0648554",
    "prefecture": "北海道",
    "prefecture_kana": "ホッカイドウ",
    "prefecture_code": 1,
    "city": "札幌市中央区",
    "city_kana": "サッポロシチュウオウク",
    "town": "南十二条西",
    "town_kana": "ミナミ12ジョウニシ",
    "street": "１５丁目４番３号",
    "office_name": "税理士法人　池脇会計事務所",
    "office_name_kana": "ゼイリシホウジン イケワキカイケイジムシヨ"
  },
  "8555": {
    "zip_code": "0648555",
    "prefecture": "北海道",
    "prefecture_kana": "ホッカイドウ",
    "prefecture_code": 1,
    "city": "札幌市中央区",
    "city_kana": "サッポロシチュウオウク",
    "town": "北四条西",
    "town_kana": "キタ4ジョウニシ",
    "street": "２３丁目",
    "office_name": "財団法人　日本気象協会　北海道本部",
    "office_name_kana": "ザイダンホウジン ニホンキシヨウキヨウカイ ホツカイドウホンブ"
  },
  "8556": {
    "zip_code": "0648556",
    "prefecture": "北海道",
    "prefecture_kana": "ホッカイドウ",
    "prefecture_code": 1,
    "city": "札幌市中央区",
    "city_kana": "サッポロシチュウオウク",
    "town": "南二条西",
    "town_kana": "ミナミ2ジョウニシ",
    "street": "２３丁目１番１８号",
    "office_name": "日本ビジネス綜合専門学校",
    "office_name_kana": "ニホンビジネスソウゴウセンモンガツコウ"
  },
  "8557": {
    "zip_code": "0648557",
    "prefecture": "北海道",
    "prefecture_kana": "ホッカイドウ",
    "prefecture_code": 1,
    "city": "札幌市中央区",
    "city_kana": "サッポロシチュウオウク",
    "town": "円山西町",
    "town_kana": "マルヤマニシマチ",
    "street": "４丁目７番２５号",
    "office_name": "医療法人　渓仁会　西円山病院",
    "office_name_kana": "イリヨウホウジン ケイジンカイ ニシマルヤマビヨウイン"
  },
  "8558": {
    "zip_code": "0648558",
    "prefecture": "北海道",
    "prefecture_kana": "ホッカイドウ",
    "prefecture_code": 1,
    "city": "札幌市中央区",
    "city_kana": "サッポロシチュウオウク",
    "town": "南四条西",
    "town_kana": "ミナミ4ジョウニシ",
    "street": "６丁目",
    "office_name": "株式会社　エス・ビー・シー",
    "office_name_kana": "カブシキガイシヤ エス・ビ-・シ-"
  },
  "8560": {
    "zip_code": "0648560",
    "prefecture": "北海道",
    "prefecture_kana": "ホッカイドウ",
    "prefecture_code": 1,
    "city": "札幌市中央区",
    "city_kana": "サッポロシチュウオウク",
    "town": "南八条西",
    "town_kana": "ミナミ8ジョウニシ",
    "street": "１５丁目２番１号",
    "office_name": "道路工業　（株）",
    "office_name_kana": "ドウロコウギヨウ カブシキガイシヤ"
  },
  "8561": {
    "zip_code": "0648561",
    "prefecture": "北海道",
    "prefecture_kana": "ホッカイドウ",
    "prefecture_code": 1,
    "city": "札幌市中央区",
    "city_kana": "サッポロシチュウオウク",
    "town": "南十条西",
    "town_kana": "ミナミ10ジョウニシ",
    "street": "６丁目１番２１号",
    "office_name": "プレミアホテル中島公園札幌",
    "office_name_kana": "プレミアホテルナカジマコウエンサツポロ"
  },
  "8562": {
    "zip_code": "0648562",
    "prefecture": "北海道",
    "prefecture_kana": "ホッカイドウ",
    "prefecture_code": 1,
    "city": "札幌市中央区",
    "city_kana": "サッポロシチュウオウク",
    "town": "南七条西",
    "town_kana": "ミナミ7ジョウニシ",
    "street": "１丁目２１番１−２号第３弘安ビル８Ｆ",
    "office_name": "株式会社　ＵＳＥＮ　北海道支社",
    "office_name_kana": "カブシキガイシヤ ユ-セン ホツカイドウシシヤ"
  },
  "8563": {
    "zip_code": "0648563",
    "prefecture": "北海道",
    "prefecture_kana": "ホッカイドウ",
    "prefecture_code": 1,
    "city": "札幌市中央区",
    "city_kana": "サッポロシチュウオウク",
    "town": "南十二条西",
    "town_kana": "ミナミ12ジョウニシ",
    "street": "１１丁目１番３号",
    "office_name": "（株）　アンフィニアクト札幌",
    "office_name_kana": "カブシキガイシヤ アンフイニアクトサツポロ"
  },
  "8564": {
    "zip_code": "0648564",
    "prefecture": "北海道",
    "prefecture_kana": "ホッカイドウ",
    "prefecture_code": 1,
    "city": "札幌市中央区",
    "city_kana": "サッポロシチュウオウク",
    "town": "円山西町",
    "town_kana": "マルヤマニシマチ",
    "street": "２丁目１番１号",
    "office_name": "北海道　中央児童相談所",
    "office_name_kana": "ホツカイドウ チユウオウジドウソウダンシヨ"
  },
  "8565": {
    "zip_code": "0648565",
    "prefecture": "北海道",
    "prefecture_kana": null,
    "prefecture_code": null,
    "city": "札幌市中央区",
    "city_kana": null,
    "town": "南９条西",
    "town_kana": null,
    "street": "１丁目１番１１号",
    "office_name": "北海道トラック交通共済協同組合",
    "office_name_kana": "ホツカイドウトラツクコウツウキヨウサイキヨウドウクミアイ"
  },
  "8566": {
    "zip_code": "0648566",
    "prefecture": "北海道",
    "prefecture_kana": "ホッカイドウ",
    "prefecture_code": 1,
    "city": "札幌市中央区",
    "city_kana": "サッポロシチュウオウク",
    "town": "南十条西",
    "town_kana": "ミナミ10ジョウニシ",
    "street": "１丁目６番１号ホテルライフォート札幌５Ｆ",
    "office_name": "北海道立　教職員検診センター",
    "office_name_kana": "ホツカイドウリツ キヨウシヨクインケンシンセンタ-"
  },
  "8567": {
    "zip_code": "0648567",
    "prefecture": "北海道",
    "prefecture_kana": "ホッカイドウ",
    "prefecture_code": 1,
    "city": "札幌市中央区",
    "city_kana": "サッポロシチュウオウク",
    "town": "南十四条西",
    "town_kana": "ミナミ14ジョウニシ",
    "street": "１５丁目３−１",
    "office_name": "医療法人　シオン",
    "office_name_kana": "イリヨウホウジン シオン"
  },
  "8570": {
    "zip_code": "0648570",
    "prefecture": "北海道",
    "prefecture_kana": "ホッカイドウ",
    "prefecture_code": 1,
    "city": "札幌市中央区",
    "city_kana": "サッポロシチュウオウク",
    "town": "宮の森三条",
    "town_kana": "ミヤノモリ3ジョウ",
    "street": "７丁目５番２５号",
    "office_name": "医療法人　讃生会　宮の森記念病院",
    "office_name_kana": "イリヨウホウジン サンセイカイ ミヤノモリキネンビヨウイン"
  },
  "8571": {
    "zip_code": "0648571",
    "prefecture": "北海道",
    "prefecture_kana": "ホッカイドウ",
    "prefecture_code": 1,
    "city": "札幌市中央区",
    "city_kana": "サッポロシチュウオウク",
    "town": "南四条西",
    "town_kana": "ミナミ4ジョウニシ",
    "street": "９丁目１００７番地",
    "office_name": "大正製薬　株式会社　北日本支店　札幌事業所",
    "office_name_kana": "タイシヨウセイヤク カブシキガイシヤ キタニホンシテン サツポロジギヨウシヨ"
  },
  "8575": {
    "zip_code": "0648575",
    "prefecture": "北海道",
    "prefecture_kana": "ホッカイドウ",
    "prefecture_code": 1,
    "city": "札幌市中央区",
    "city_kana": "サッポロシチュウオウク",
    "town": "旭ケ丘",
    "town_kana": "アサヒガオカ",
    "street": "５丁目６番５０号",
    "office_name": "社会福祉法人　札幌慈啓会　慈啓会病院",
    "office_name_kana": "シヤカイフクシホウジン サツポロジケイカイ ジケイカイビヨウイン"
  },
  "8577": {
    "zip_code": "0648577",
    "prefecture": "北海道",
    "prefecture_kana": "ホッカイドウ",
    "prefecture_code": 1,
    "city": "札幌市中央区",
    "city_kana": "サッポロシチュウオウク",
    "town": "宮の森二条",
    "town_kana": "ミヤノモリ2ジョウ",
    "street": "１丁目２−５５",
    "office_name": "北海道いすゞ自動車　株式会社",
    "office_name_kana": "ホツカイドウイスズジドウシヤ カブシキガイシヤ"
  },
  "8581": {
    "zip_code": "0648581",
    "prefecture": "北海道",
    "prefecture_kana": "ホッカイドウ",
    "prefecture_code": 1,
    "city": "札幌市中央区",
    "city_kana": "サッポロシチュウオウク",
    "town": "大通西",
    "town_kana": "オオドオリニシ",
    "street": "２８丁目１番２号",
    "office_name": "（株）　太陽",
    "office_name_kana": "カブシキガイシヤ タイヨウ"
  },
  "8586": {
    "zip_code": "0648586",
    "prefecture": "北海道",
    "prefecture_kana": "ホッカイドウ",
    "prefecture_code": 1,
    "city": "札幌市中央区",
    "city_kana": "サッポロシチュウオウク",
    "town": "南四条西",
    "town_kana": "ミナミ4ジョウニシ",
    "street": "１０丁目",
    "office_name": "札幌市消防局",
    "office_name_kana": "サツポロシシヨウボウキヨク"
  },
  "8589": {
    "zip_code": "0648589",
    "prefecture": "北海道",
    "prefecture_kana": "ホッカイドウ",
    "prefecture_code": 1,
    "city": "札幌市中央区",
    "city_kana": "サッポロシチュウオウク",
    "town": "南十条西",
    "town_kana": "ミナミ10ジョウニシ",
    "street": "３丁目",
    "office_name": "三井観光開発　（株）　札幌パークホテル",
    "office_name_kana": "ミツイカンコウカイハツ カブシキガイシヤ サツポロパ-クホテル"
  },
  "8609": {
    "zip_code": "0648609",
    "prefecture": "北海道",
    "prefecture_kana": "ホッカイドウ",
    "prefecture_code": 1,
    "city": "札幌市中央区",
    "city_kana": "サッポロシチュウオウク",
    "town": "南十条西",
    "town_kana": "ミナミ10ジョウニシ",
    "street": "１４丁目",
    "office_name": "札幌公共職業安定所",
    "office_name_kana": "サツポロコウキヨウシヨクギヨウアンテイシヨ"
  },
  "8610": {
    "zip_code": "0648610",
    "prefecture": "北海道",
    "prefecture_kana": "ホッカイドウ",
    "prefecture_code": 1,
    "city": "札幌市中央区",
    "city_kana": "サッポロシチュウオウク",
    "town": "南十三条西",
    "town_kana": "ミナミ13ジョウニシ",
    "street": "１１丁目２番３２号",
    "office_name": "株式会社　アークス",
    "office_name_kana": "カブシキカイシヤ ア-クス"
  },
  "8611": {
    "zip_code": "0648611",
    "prefecture": "北海道",
    "prefecture_kana": "ホッカイドウ",
    "prefecture_code": 1,
    "city": "札幌市中央区",
    "city_kana": "サッポロシチュウオウク",
    "town": "南十八条西",
    "town_kana": "ミナミ18ジョウニシ",
    "street": "６丁目１−１",
    "office_name": "北海道札幌南高等学校",
    "office_name_kana": "ホツカイドウサツポロミナミコウトウガツコウ"
  },
  "8620": {
    "zip_code": "0648620",
    "prefecture": "北海道",
    "prefecture_kana": "ホッカイドウ",
    "prefecture_code": 1,
    "city": "札幌市中央区",
    "city_kana": "サッポロシチュウオウク",
    "town": "南九条西",
    "town_kana": "ミナミ9ジョウニシ",
    "street": "５丁目４２１番地",
    "office_name": "（株）　セイコーマート",
    "office_name_kana": "カブシキガイシヤ セイコ-マ-ト"
  },
  "8621": {
    "zip_code": "0648621",
    "prefecture": "北海道",
    "prefecture_kana": "ホッカイドウ",
    "prefecture_code": 1,
    "city": "札幌市中央区",
    "city_kana": "サッポロシチュウオウク",
    "town": "南十三条西",
    "town_kana": "ミナミ13ジョウニシ",
    "street": "１１丁目２番３２号",
    "office_name": "株式会社　ラルズ",
    "office_name_kana": "カブシキカイシヤ ラルズ"
  },
  "8622": {
    "zip_code": "0648622",
    "prefecture": "北海道",
    "prefecture_kana": "ホッカイドウ",
    "prefecture_code": 1,
    "city": "札幌市中央区",
    "city_kana": "サッポロシチュウオウク",
    "town": "南二十七条西",
    "town_kana": "ミナミ27ジョウニシ",
    "street": "１３丁目１番３０号",
    "office_name": "北海道循環器病院",
    "office_name_kana": "ホツカイドウジユンカンキビヨウイン"
  },
  "8624": {
    "zip_code": "0648624",
    "prefecture": "北海道",
    "prefecture_kana": "ホッカイドウ",
    "prefecture_code": 1,
    "city": "札幌市中央区",
    "city_kana": "サッポロシチュウオウク",
    "town": "宮の森四条",
    "town_kana": "ミヤノモリ4ジョウ",
    "street": "８丁目１番地",
    "office_name": "北海道　札幌西高等学校",
    "office_name_kana": "ホツカイドウ サツポロニシコウトウガツコウ"
  },
  "8628": {
    "zip_code": "0648628",
    "prefecture": "北海道",
    "prefecture_kana": "ホッカイドウ",
    "prefecture_code": 1,
    "city": "札幌市中央区",
    "city_kana": "サッポロシチュウオウク",
    "town": "南六条西",
    "town_kana": "ミナミ6ジョウニシ",
    "street": "１３丁目１番２８号",
    "office_name": "（株）　銭高組　北海道支店",
    "office_name_kana": "カブシキガイシヤ ゼニダカグミ ホツカイドウシテン"
  },
  "8629": {
    "zip_code": "0648629",
    "prefecture": "北海道",
    "prefecture_kana": "ホッカイドウ",
    "prefecture_code": 1,
    "city": "札幌市中央区",
    "city_kana": "サッポロシチュウオウク",
    "town": "南十四条西",
    "town_kana": "ミナミ14ジョウニシ",
    "street": "１２丁目１番１号",
    "office_name": "北海道札幌視覚支援学校",
    "office_name_kana": "ホツカイドウサツポロシカクシエンガツコウ"
  },
  "8630": {
    "zip_code": "0648630",
    "prefecture": "北海道",
    "prefecture_kana": null,
    "prefecture_code": null,
    "city": "札幌市中央区",
    "city_kana": null,
    "town": "大通",
    "town_kana": null,
    "street": "２０丁目３−２４ダブルス大通ビル５Ｆ",
    "office_name": "株式会社　ダブルス",
    "office_name_kana": "カブシキカイシヤ ダブルス"
  },
  "8633": {
    "zip_code": "0648633",
    "prefecture": "北海道",
    "prefecture_kana": null,
    "prefecture_code": null,
    "city": "札幌市中央区",
    "city_kana": null,
    "town": "南４条西",
    "town_kana": null,
    "street": "７丁目６番地ビッググループ本社ビル",
    "office_name": "株式会社　ビッグ",
    "office_name_kana": "カブシキガイシヤ ビツグ"
  },
  "8639": {
    "zip_code": "0648639",
    "prefecture": "北海道",
    "prefecture_kana": "ホッカイドウ",
    "prefecture_code": 1,
    "city": "札幌市中央区",
    "city_kana": "サッポロシチュウオウク",
    "town": "北三条西",
    "town_kana": "キタ3ジョウニシ",
    "street": "２０丁目２番２８号",
    "office_name": "北海道　税理士会",
    "office_name_kana": "ホツカイドウ ゼイリシカイ"
  },
  "8644": {
    "zip_code": "0648644",
    "prefecture": "北海道",
    "prefecture_kana": "ホッカイドウ",
    "prefecture_code": 1,
    "city": "札幌市中央区",
    "city_kana": "サッポロシチュウオウク",
    "town": "宮の森四条",
    "town_kana": "ミヤノモリ4ジョウ",
    "street": "１丁目１番３５号",
    "office_name": "サザエ食品　（株）",
    "office_name_kana": "サザエシヨクヒン カブシキガイシヤ"
  },
  "8645": {
    "zip_code": "0648645",
    "prefecture": "北海道",
    "prefecture_kana": "ホッカイドウ",
    "prefecture_code": 1,
    "city": "札幌市中央区",
    "city_kana": "サッポロシチュウオウク",
    "town": "南九条西",
    "town_kana": "ミナミ9ジョウニシ",
    "street": "１丁目",
    "office_name": "北海道　都市職員共済組合",
    "office_name_kana": "ホツカイドウ トシシヨクインキヨウサイクミアイ"
  },
  "8648": {
    "zip_code": "0648648",
    "prefecture": "北海道",
    "prefecture_kana": "ホッカイドウ",
    "prefecture_code": 1,
    "city": "札幌市中央区",
    "city_kana": "サッポロシチュウオウク",
    "town": "南八条西",
    "town_kana": "ミナミ8ジョウニシ",
    "street": "４丁目４２２番地",
    "office_name": "（株）　村住経営",
    "office_name_kana": "カブシキガイシヤ ムラズミケイエイ"
  },
  "8649": {
    "zip_code": "0648649",
    "prefecture": "北海道",
    "prefecture_kana": "ホッカイドウ",
    "prefecture_code": 1,
    "city": "札幌市中央区",
    "city_kana": "サッポロシチュウオウク",
    "town": "中島公園",
    "town_kana": "ナカジマコウエン",
    "street": "１番１５号",
    "office_name": "（財）札幌市芸術文化財団　札幌コンサートホール",
    "office_name_kana": "ザイダンホウジン サツポロシゲイジユツブンカザイダン サツポロコンサ-トホ-ル"
  },
  "8798": {
    "zip_code": "0648798",
    "prefecture": "北海道",
    "prefecture_kana": "ホッカイドウ",
    "prefecture_code": 1,
    "city": "札幌市中央区",
    "city_kana": "サッポロシチュウオウク",
    "town": "南二十条西",
    "town_kana": "ミナミ20ジョウニシ",
    "street": "１５丁目１番１号",
    "office_name": "北海道郵政研修センター",
    "office_name_kana": "ホツカイドウユウセイケンシユウセンタ-"
  }
}