{
  "0000": {
    "zip_code": "0650000",
    "prefecture": "北海道",
    "prefecture_kana": "ホッカイドウ",
    "prefecture_code": "1",
    "city": "札幌市東区",
    "city_kana": "サッポロシヒガシク",
    "town": "",
    "town_kana": "",
    "street": null,
    "office_name": null,
    "office_name_kana": null
  },
  "0004": {
    "zip_code": "0650004",
    "prefecture": "北海道",
    "prefecture_kana": "ホッカイドウ",
    "prefecture_code": "1",
    "city": "札幌市東区",
    "city_kana": "サッポロシヒガシク",
    "town": "北四条東",
    "town_kana": "キタ4ジョウヒガシ",
    "street": null,
    "office_name": null,
    "office_name_kana": null
  },
  "0005": {
    "zip_code": "0650005",
    "prefecture": "北海道",
    "prefecture_kana": "ホッカイドウ",
    "prefecture_code": "1",
    "city": "札幌市東区",
    "city_kana": "サッポロシヒガシク",
    "town": "北五条東",
    "town_kana": "キタ5ジョウヒガシ",
    "street": null,
    "office_name": null,
    "office_name_kana": null
  },
  "0006": {
    "zip_code": "0650006",
    "prefecture": "北海道",
    "prefecture_kana": "ホッカイドウ",
    "prefecture_code": "1",
    "city": "札幌市東区",
    "city_kana": "サッポロシヒガシク",
    "town": "北六条東",
    "town_kana": "キタ6ジョウヒガシ",
    "street": null,
    "office_name": null,
    "office_name_kana": null
  },
  "0007": {
    "zip_code": "0650007",
    "prefecture": "北海道",
    "prefecture_kana": "ホッカイドウ",
    "prefecture_code": "1",
    "city": "札幌市東区",
    "city_kana": "サッポロシヒガシク",
    "town": "北七条東",
    "town_kana": "キタ7ジョウヒガシ",
    "street": null,
    "office_name": null,
    "office_name_kana": null
  },
  "0008": {
    "zip_code": "0650008",
    "prefecture": "北海道",
    "prefecture_kana": "ホッカイドウ",
    "prefecture_code": "1",
    "city": "札幌市東区",
    "city_kana": "サッポロシヒガシク",
    "town": "北八条東",
    "town_kana": "キタ8ジョウヒガシ",
    "street": null,
    "office_name": null,
    "office_name_kana": null
  },
  "0009": {
    "zip_code": "0650009",
    "prefecture": "北海道",
    "prefecture_kana": "ホッカイドウ",
    "prefecture_code": "1",
    "city": "札幌市東区",
    "city_kana": "サッポロシヒガシク",
    "town": "北九条東",
    "town_kana": "キタ9ジョウヒガシ",
    "street": null,
    "office_name": null,
    "office_name_kana": null
  },
  "0010": {
    "zip_code": "0650010",
    "prefecture": "北海道",
    "prefecture_kana": "ホッカイドウ",
    "prefecture_code": "1",
    "city": "札幌市東区",
    "city_kana": "サッポロシヒガシク",
    "town": "北十条東",
    "town_kana": "キタ10ジョウヒガシ",
    "street": null,
    "office_name": null,
    "office_name_kana": null
  },
  "0011": {
    "zip_code": "0650011",
    "prefecture": "北海道",
    "prefecture_kana": "ホッカイドウ",
    "prefecture_code": "1",
    "city": "札幌市東区",
    "city_kana": "サッポロシヒガシク",
    "town": "北十一条東",
    "town_kana": "キタ11ジョウヒガシ",
    "street": null,
    "office_name": null,
    "office_name_kana": null
  },
  "0012": {
    "zip_code": "0650012",
    "prefecture": "北海道",
    "prefecture_kana": "ホッカイドウ",
    "prefecture_code": "1",
    "city": "札幌市東区",
    "city_kana": "サッポロシヒガシク",
    "town": "北十二条東",
    "town_kana": "キタ12ジョウヒガシ",
    "street": null,
    "office_name": null,
    "office_name_kana": null
  },
  "0013": {
    "zip_code": "0650013",
    "prefecture": "北海道",
    "prefecture_kana": "ホッカイドウ",
    "prefecture_code": "1",
    "city": "札幌市東区",
    "city_kana": "サッポロシヒガシク",
    "town": "北十三条東",
    "town_kana": "キタ13ジョウヒガシ",
    "street": null,
    "office_name": null,
    "office_name_kana": null
  },
  "0014": {
    "zip_code": "0650014",
    "prefecture": "北海道",
    "prefecture_kana": "ホッカイドウ",
    "prefecture_code": "1",
    "city": "札幌市東区",
    "city_kana": "サッポロシヒガシク",
    "town": "北十四条東",
    "town_kana": "キタ14ジョウヒガシ",
    "street": null,
    "office_name": null,
    "office_name_kana": null
  },
  "0015": {
    "zip_code": "0650015",
    "prefecture": "北海道",
    "prefecture_kana": "ホッカイドウ",
    "prefecture_code": "1",
    "city": "札幌市東区",
    "city_kana": "サッポロシヒガシク",
    "town": "北十五条東",
    "town_kana": "キタ15ジョウヒガシ",
    "street": null,
    "office_name": null,
    "office_name_kana": null
  },
  "0016": {
    "zip_code": "0650016",
    "prefecture": "北海道",
    "prefecture_kana": "ホッカイドウ",
    "prefecture_code": "1",
    "city": "札幌市東区",
    "city_kana": "サッポロシヒガシク",
    "town": "北十六条東",
    "town_kana": "キタ16ジョウヒガシ",
    "street": null,
    "office_name": null,
    "office_name_kana": null
  },
  "0017": {
    "zip_code": "0650017",
    "prefecture": "北海道",
    "prefecture_kana": "ホッカイドウ",
    "prefecture_code": "1",
    "city": "札幌市東区",
    "city_kana": "サッポロシヒガシク",
    "town": "北十七条東",
    "town_kana": "キタ17ジョウヒガシ",
    "street": null,
    "office_name": null,
    "office_name_kana": null
  },
  "0018": {
    "zip_code": "0650018",
    "prefecture": "北海道",
    "prefecture_kana": "ホッカイドウ",
    "prefecture_code": "1",
    "city": "札幌市東区",
    "city_kana": "サッポロシヒガシク",
    "town": "北十八条東",
    "town_kana": "キタ18ジョウヒガシ",
    "street": null,
    "office_name": null,
    "office_name_kana": null
  },
  "0019": {
    "zip_code": "0650019",
    "prefecture": "北海道",
    "prefecture_kana": "ホッカイドウ",
    "prefecture_code": "1",
    "city": "札幌市東区",
    "city_kana": "サッポロシヒガシク",
    "town": "北十九条東",
    "town_kana": "キタ19ジョウヒガシ",
    "street": null,
    "office_name": null,
    "office_name_kana": null
  },
  "0020": {
    "zip_code": "0650020",
    "prefecture": "北海道",
    "prefecture_kana": "ホッカイドウ",
    "prefecture_code": "1",
    "city": "札幌市東区",
    "city_kana": "サッポロシヒガシク",
    "town": "北二十条東",
    "town_kana": "キタ20ジョウヒガシ",
    "street": null,
    "office_name": null,
    "office_name_kana": null
  },
  "0021": {
    "zip_code": "0650021",
    "prefecture": "北海道",
    "prefecture_kana": "ホッカイドウ",
    "prefecture_code": "1",
    "city": "札幌市東区",
    "city_kana": "サッポロシヒガシク",
    "town": "北二十一条東",
    "town_kana": "キタ21ジョウヒガシ",
    "street": null,
    "office_name": null,
    "office_name_kana": null
  },
  "0022": {
    "zip_code": "0650022",
    "prefecture": "北海道",
    "prefecture_kana": "ホッカイドウ",
    "prefecture_code": "1",
    "city": "札幌市東区",
    "city_kana": "サッポロシヒガシク",
    "town": "北二十二条東",
    "town_kana": "キタ22ジョウヒガシ",
    "street": null,
    "office_name": null,
    "office_name_kana": null
  },
  "0023": {
    "zip_code": "0650023",
    "prefecture": "北海道",
    "prefecture_kana": "ホッカイドウ",
    "prefecture_code": "1",
    "city": "札幌市東区",
    "city_kana": "サッポロシヒガシク",
    "town": "北二十三条東",
    "town_kana": "キタ23ジョウヒガシ",
    "street": null,
    "office_name": null,
    "office_name_kana": null
  },
  "0024": {
    "zip_code": "0650024",
    "prefecture": "北海道",
    "prefecture_kana": "ホッカイドウ",
    "prefecture_code": "1",
    "city": "札幌市東区",
    "city_kana": "サッポロシヒガシク",
    "town": "北二十四条東",
    "town_kana": "キタ24ジョウヒガシ",
    "street": null,
    "office_name": null,
    "office_name_kana": null
  },
  "0025": {
    "zip_code": "0650025",
    "prefecture": "北海道",
    "prefecture_kana": "ホッカイドウ",
    "prefecture_code": "1",
    "city": "札幌市東区",
    "city_kana": "サッポロシヒガシク",
    "town": "北二十五条東",
    "town_kana": "キタ25ジョウヒガシ",
    "street": null,
    "office_name": null,
    "office_name_kana": null
  },
  "0026": {
    "zip_code": "0650026",
    "prefecture": "北海道",
    "prefecture_kana": "ホッカイドウ",
    "prefecture_code": "1",
    "city": "札幌市東区",
    "city_kana": "サッポロシヒガシク",
    "town": "北二十六条東",
    "town_kana": "キタ26ジョウヒガシ",
    "street": null,
    "office_name": null,
    "office_name_kana": null
  },
  "0027": {
    "zip_code": "0650027",
    "prefecture": "北海道",
    "prefecture_kana": "ホッカイドウ",
    "prefecture_code": "1",
    "city": "札幌市東区",
    "city_kana": "サッポロシヒガシク",
    "town": "北二十七条東",
    "town_kana": "キタ27ジョウヒガシ",
    "street": null,
    "office_name": null,
    "office_name_kana": null
  },
  "0028": {
    "zip_code": "0650028",
    "prefecture": "北海道",
    "prefecture_kana": "ホッカイドウ",
    "prefecture_code": "1",
    "city": "札幌市東区",
    "city_kana": "サッポロシヒガシク",
    "town": "北二十八条東",
    "town_kana": "キタ28ジョウヒガシ",
    "street": null,
    "office_name": null,
    "office_name_kana": null
  },
  "0030": {
    "zip_code": "0650030",
    "prefecture": "北海道",
    "prefecture_kana": "ホッカイドウ",
    "prefecture_code": "1",
    "city": "札幌市東区",
    "city_kana": "サッポロシヒガシク",
    "town": "北三十条東",
    "town_kana": "キタ30ジョウヒガシ",
    "street": null,
    "office_name": null,
    "office_name_kana": null
  },
  "0031": {
    "zip_code": "0650031",
    "prefecture": "北海道",
    "prefecture_kana": "ホッカイドウ",
    "prefecture_code": "1",
    "city": "札幌市東区",
    "city_kana": "サッポロシヒガシク",
    "town": "北三十一条東",
    "town_kana": "キタ31ジョウヒガシ",
    "street": null,
    "office_name": null,
    "office_name_kana": null
  },
  "0032": {
    "zip_code": "0650032",
    "prefecture": "北海道",
    "prefecture_kana": "ホッカイドウ",
    "prefecture_code": "1",
    "city": "札幌市東区",
    "city_kana": "サッポロシヒガシク",
    "town": "北三十二条東",
    "town_kana": "キタ32ジョウヒガシ",
    "street": null,
    "office_name": null,
    "office_name_kana": null
  },
  "0033": {
    "zip_code": "0650033",
    "prefecture": "北海道",
    "prefecture_kana": "ホッカイドウ",
    "prefecture_code": "1",
    "city": "札幌市東区",
    "city_kana": "サッポロシヒガシク",
    "town": "北三十三条東",
    "town_kana": "キタ33ジョウヒガシ",
    "street": null,
    "office_name": null,
    "office_name_kana": null
  },
  "0041": {
    "zip_code": "0650041",
    "prefecture": "北海道",
    "prefecture_kana": "ホッカイドウ",
    "prefecture_code": "1",
    "city": "札幌市東区",
    "city_kana": "サッポロシヒガシク",
    "town": "本町一条",
    "town_kana": "ホンチョウ1ジョウ",
    "street": null,
    "office_name": null,
    "office_name_kana": null
  },
  "0042": {
    "zip_code": "0650042",
    "prefecture": "北海道",
    "prefecture_kana": "ホッカイドウ",
    "prefecture_code": "1",
    "city": "札幌市東区",
    "city_kana": "サッポロシヒガシク",
    "town": "本町二条",
    "town_kana": "ホンチョウ2ジョウ",
    "street": null,
    "office_name": null,
    "office_name_kana": null
  },
  "0043": {
    "zip_code": "0650043",
    "prefecture": "北海道",
    "prefecture_kana": "ホッカイドウ",
    "prefecture_code": "1",
    "city": "札幌市東区",
    "city_kana": "サッポロシヒガシク",
    "town": "苗穂町",
    "town_kana": "ナエボチョウ",
    "street": null,
    "office_name": null,
    "office_name_kana": null
  },
  "8501": {
    "zip_code": "0658501",
    "prefecture": "北海道",
    "prefecture_kana": "ホッカイドウ",
    "prefecture_code": "1",
    "city": "札幌市東区",
    "city_kana": "サッポロシヒガシク",
    "town": "北十七条東",
    "town_kana": "キタ17ジョウヒガシ",
    "street": "２丁目２番７号",
    "office_name": "関販テクノ　株式会社",
    "office_name_kana": "カンハンテクノ カブシキガイシヤ"
  },
  "8508": {
    "zip_code": "0658508",
    "prefecture": "北海道",
    "prefecture_kana": "ホッカイドウ",
    "prefecture_code": "1",
    "city": "札幌市東区",
    "city_kana": "サッポロシヒガシク",
    "town": "北十五条東",
    "town_kana": "キタ15ジョウヒガシ",
    "street": "１８丁目１番２１号",
    "office_name": "（株）　北海道アマダ",
    "office_name_kana": "カブシキガイシヤ ホツカイドウアマダ"
  },
  "8510": {
    "zip_code": "0658510",
    "prefecture": "北海道",
    "prefecture_kana": "ホッカイドウ",
    "prefecture_code": "1",
    "city": "札幌市東区",
    "city_kana": "サッポロシヒガシク",
    "town": "北十八条東",
    "town_kana": "キタ18ジョウヒガシ",
    "street": "１７丁目１番１号",
    "office_name": "（株）　構研エンジニアリング",
    "office_name_kana": "カブシキガイシヤ コウケンエンジニアリング"
  },
  "8511": {
    "zip_code": "0658511",
    "prefecture": "北海道",
    "prefecture_kana": "ホッカイドウ",
    "prefecture_code": "1",
    "city": "札幌市東区",
    "city_kana": "サッポロシヒガシク",
    "town": "北十三条東",
    "town_kana": "キタ13ジョウヒガシ",
    "street": "４丁目３０番１３号",
    "office_name": "（株）　さつでん",
    "office_name_kana": "カブシキガイシヤ サツデン"
  },
  "8518": {
    "zip_code": "0658518",
    "prefecture": "北海道",
    "prefecture_kana": "ホッカイドウ",
    "prefecture_code": "1",
    "city": "札幌市東区",
    "city_kana": "サッポロシヒガシク",
    "town": "北七条東",
    "town_kana": "キタ7ジョウヒガシ",
    "street": "９丁目２番２０号",
    "office_name": "アリオ札幌ショッピングセンター",
    "office_name_kana": "アリオサツポロシヨツピングセンタ-"
  },
  "8522": {
    "zip_code": "0658522",
    "prefecture": "北海道",
    "prefecture_kana": "ホッカイドウ",
    "prefecture_code": "1",
    "city": "札幌市東区",
    "city_kana": "サッポロシヒガシク",
    "town": "苗穂町",
    "town_kana": "ナエボチョウ",
    "street": "９丁目１−１",
    "office_name": "日本アクセス北海道　（株）",
    "office_name_kana": "ニホンアクセスホツカイドウ カブシキガイシヤ"
  },
  "8533": {
    "zip_code": "0658533",
    "prefecture": "北海道",
    "prefecture_kana": "ホッカイドウ",
    "prefecture_code": "1",
    "city": "札幌市東区",
    "city_kana": "サッポロシヒガシク",
    "town": "北二十六条東",
    "town_kana": "キタ26ジョウヒガシ",
    "street": "１４丁目１番１５号",
    "office_name": "財団法人　北海道対がん協会",
    "office_name_kana": "ザイダンホウジン ホツカイドウタイガンキヨウカイ"
  },
  "8543": {
    "zip_code": "0658543",
    "prefecture": "北海道",
    "prefecture_kana": "ホッカイドウ",
    "prefecture_code": "1",
    "city": "札幌市東区",
    "city_kana": "サッポロシヒガシク",
    "town": "北十三条東",
    "town_kana": "キタ13ジョウヒガシ",
    "street": "１４丁目３番２７号",
    "office_name": "北海道　青果商業協同組合",
    "office_name_kana": "ホツカイドウ セイカシヨウギヨウキヨウドウクミアイ"
  },
  "8550": {
    "zip_code": "0658550",
    "prefecture": "北海道",
    "prefecture_kana": "ホッカイドウ",
    "prefecture_code": "1",
    "city": "札幌市東区",
    "city_kana": "サッポロシヒガシク",
    "town": "北六条東",
    "town_kana": "キタ6ジョウヒガシ",
    "street": "８丁目１−１０",
    "office_name": "大和ハウス工業　株式会社　札幌支店",
    "office_name_kana": "ダイワハウスコウギヨウ カブシキガイシヤ サツポロシテン"
  },
  "8555": {
    "zip_code": "0658555",
    "prefecture": "北海道",
    "prefecture_kana": "ホッカイドウ",
    "prefecture_code": "1",
    "city": "札幌市東区",
    "city_kana": "サッポロシヒガシク",
    "town": "北十七条東",
    "town_kana": "キタ17ジョウヒガシ",
    "street": "１４丁目３−２",
    "office_name": "医療法人社団　道都病院",
    "office_name_kana": "イリヨウホウジンシヤダン ドウトビヨウイン"
  },
  "8558": {
    "zip_code": "0658558",
    "prefecture": "北海道",
    "prefecture_kana": "ホッカイドウ",
    "prefecture_code": "1",
    "city": "札幌市東区",
    "city_kana": "サッポロシヒガシク",
    "town": "北二十二条東",
    "town_kana": "キタ22ジョウヒガシ",
    "street": "２１丁目１番１号",
    "office_name": "北海道　札幌開成高等学校",
    "office_name_kana": "ホツカイドウ サツポロカイセイコウトウガツコウ"
  },
  "8567": {
    "zip_code": "0658567",
    "prefecture": "北海道",
    "prefecture_kana": "ホッカイドウ",
    "prefecture_code": "1",
    "city": "札幌市東区",
    "city_kana": "サッポロシヒガシク",
    "town": "北十六条東",
    "town_kana": "キタ16ジョウヒガシ",
    "street": "９丁目",
    "office_name": "札幌大谷短期大学",
    "office_name_kana": "サツポロオオタニタンキダイガク"
  },
  "8578": {
    "zip_code": "0658578",
    "prefecture": "北海道",
    "prefecture_kana": "ホッカイドウ",
    "prefecture_code": "1",
    "city": "札幌市東区",
    "city_kana": "サッポロシヒガシク",
    "town": "北十五条東",
    "town_kana": "キタ15ジョウヒガシ",
    "street": "２丁目１番１０号",
    "office_name": "学校法人　札幌北斗学園",
    "office_name_kana": "ガツコウホウジン サツポロホクトガクエン"
  },
  "8601": {
    "zip_code": "0658601",
    "prefecture": "北海道",
    "prefecture_kana": "ホッカイドウ",
    "prefecture_code": "1",
    "city": "札幌市東区",
    "city_kana": "サッポロシヒガシク",
    "town": "北二十五条東",
    "town_kana": "キタ25ジョウヒガシ",
    "street": "１丁目１番３８号",
    "office_name": "ネッツトヨタ札幌　株式会社",
    "office_name_kana": "ネツツトヨタサツポロ カブシキガイシヤ"
  },
  "8609": {
    "zip_code": "0658609",
    "prefecture": "北海道",
    "prefecture_kana": "ホッカイドウ",
    "prefecture_code": "1",
    "city": "札幌市東区",
    "city_kana": "サッポロシヒガシク",
    "town": "北十六条東",
    "town_kana": "キタ16ジョウヒガシ",
    "street": "４丁目",
    "office_name": "札幌北公共職業安定所",
    "office_name_kana": "サツポロキタコウキヨウシヨクギヨウアンテイシヨ"
  },
  "8610": {
    "zip_code": "0658610",
    "prefecture": "北海道",
    "prefecture_kana": "ホッカイドウ",
    "prefecture_code": "1",
    "city": "札幌市東区",
    "city_kana": "サッポロシヒガシク",
    "town": "北十九条東",
    "town_kana": "キタ19ジョウヒガシ",
    "street": "１丁目１番１号",
    "office_name": "株式会社　中山組",
    "office_name_kana": "カブシキガイシヤ ナカヤマグミ"
  },
  "8611": {
    "zip_code": "0658611",
    "prefecture": "北海道",
    "prefecture_kana": "ホッカイドウ",
    "prefecture_code": "1",
    "city": "札幌市東区",
    "city_kana": "サッポロシヒガシク",
    "town": "北十二条東",
    "town_kana": "キタ12ジョウヒガシ",
    "street": "３丁目",
    "office_name": "医療法人社団　カレスアライアンス天使病院",
    "office_name_kana": "イリヨウホウジンシヤダン カレスアライアンステンシビヨウイン"
  },
  "8612": {
    "zip_code": "0658612",
    "prefecture": "北海道",
    "prefecture_kana": "ホッカイドウ",
    "prefecture_code": "1",
    "city": "札幌市東区",
    "city_kana": "サッポロシヒガシク",
    "town": "北十一条東",
    "town_kana": "キタ11ジョウヒガシ",
    "street": "７丁目",
    "office_name": "札幌市東区役所",
    "office_name_kana": "サツポロシヒガシクヤクシヨ"
  },
  "8633": {
    "zip_code": "0658633",
    "prefecture": "北海道",
    "prefecture_kana": "ホッカイドウ",
    "prefecture_code": "1",
    "city": "札幌市東区",
    "city_kana": "サッポロシヒガシク",
    "town": "北七条東",
    "town_kana": "キタ7ジョウヒガシ",
    "street": "９丁目",
    "office_name": "サッポロビール　（株）　北海道本社",
    "office_name_kana": "サツポロビ-ル カブシキガイシヤ ホツカイドウホンシヤ"
  },
  "8639": {
    "zip_code": "0658639",
    "prefecture": "北海道",
    "prefecture_kana": "ホッカイドウ",
    "prefecture_code": "1",
    "city": "札幌市東区",
    "city_kana": "サッポロシヒガシク",
    "town": "苗穂町",
    "town_kana": "ナエボチョウ",
    "street": "３丁目３−７",
    "office_name": "サツラク農業協同組合",
    "office_name_kana": "サツラクノウギヨウキヨウドウクミアイ"
  }
}