{
  "0000": {
    "zip_code": "0800000",
    "prefecture": "北海道",
    "prefecture_kana": "ホッカイドウ",
    "prefecture_code": 1,
    "city": "帯広市",
    "city_kana": "オビヒロシ",
    "town": "",
    "town_kana": "",
    "street": null,
    "office_name": null,
    "office_name_kana": null
  },
  "0010": {
    "zip_code": "0800010",
    "prefecture": "北海道",
    "prefecture_kana": "ホッカイドウ",
    "prefecture_code": 1,
    "city": "帯広市",
    "city_kana": "オビヒロシ",
    "town": "大通南",
    "town_kana": "オオドオリミナミ",
    "street": null,
    "office_name": null,
    "office_name_kana": null
  },
  "0011": {
    "zip_code": "0800011",
    "prefecture": "北海道",
    "prefecture_kana": "ホッカイドウ",
    "prefecture_code": 1,
    "city": "帯広市",
    "city_kana": "オビヒロシ",
    "town": "西一条南",
    "town_kana": "ニシ1ジョウミナミ",
    "street": null,
    "office_name": null,
    "office_name_kana": null
  },
  "0012": {
    "zip_code": "0800012",
    "prefecture": "北海道",
    "prefecture_kana": "ホッカイドウ",
    "prefecture_code": 1,
    "city": "帯広市",
    "city_kana": "オビヒロシ",
    "town": "西二条南",
    "town_kana": "ニシ2ジョウミナミ",
    "street": null,
    "office_name": null,
    "office_name_kana": null
  },
  "0013": {
    "zip_code": "0800013",
    "prefecture": "北海道",
    "prefecture_kana": "ホッカイドウ",
    "prefecture_code": 1,
    "city": "帯広市",
    "city_kana": "オビヒロシ",
    "town": "西三条南",
    "town_kana": "ニシ3ジョウミナミ",
    "street": null,
    "office_name": null,
    "office_name_kana": null
  },
  "0014": {
    "zip_code": "0800014",
    "prefecture": "北海道",
    "prefecture_kana": "ホッカイドウ",
    "prefecture_code": 1,
    "city": "帯広市",
    "city_kana": "オビヒロシ",
    "town": "西四条南",
    "town_kana": "ニシ4ジョウミナミ",
    "street": null,
    "office_name": null,
    "office_name_kana": null
  },
  "0015": {
    "zip_code": "0800015",
    "prefecture": "北海道",
    "prefecture_kana": "ホッカイドウ",
    "prefecture_code": 1,
    "city": "帯広市",
    "city_kana": "オビヒロシ",
    "town": "西五条南",
    "town_kana": "ニシ5ジョウミナミ",
    "street": null,
    "office_name": null,
    "office_name_kana": null
  },
  "0016": {
    "zip_code": "0800016",
    "prefecture": "北海道",
    "prefecture_kana": "ホッカイドウ",
    "prefecture_code": 1,
    "city": "帯広市",
    "city_kana": "オビヒロシ",
    "town": "西六条南",
    "town_kana": "ニシ6ジョウミナミ",
    "street": null,
    "office_name": null,
    "office_name_kana": null
  },
  "0017": {
    "zip_code": "0800017",
    "prefecture": "北海道",
    "prefecture_kana": "ホッカイドウ",
    "prefecture_code": 1,
    "city": "帯広市",
    "city_kana": "オビヒロシ",
    "town": "西七条南",
    "town_kana": "ニシ7ジョウミナミ",
    "street": null,
    "office_name": null,
    "office_name_kana": null
  },
  "0018": {
    "zip_code": "0800018",
    "prefecture": "北海道",
    "prefecture_kana": "ホッカイドウ",
    "prefecture_code": 1,
    "city": "帯広市",
    "city_kana": "オビヒロシ",
    "town": "西八条南",
    "town_kana": "ニシ8ジョウミナミ",
    "street": null,
    "office_name": null,
    "office_name_kana": null
  },
  "0019": {
    "zip_code": "0800019",
    "prefecture": "北海道",
    "prefecture_kana": "ホッカイドウ",
    "prefecture_code": 1,
    "city": "帯広市",
    "city_kana": "オビヒロシ",
    "town": "西九条南",
    "town_kana": "ニシ9ジョウミナミ",
    "street": null,
    "office_name": null,
    "office_name_kana": null
  },
  "0020": {
    "zip_code": "0800020",
    "prefecture": "北海道",
    "prefecture_kana": "ホッカイドウ",
    "prefecture_code": 1,
    "city": "帯広市",
    "city_kana": "オビヒロシ",
    "town": "西十条南",
    "town_kana": "ニシ10ジョウミナミ",
    "street": null,
    "office_name": null,
    "office_name_kana": null
  },
  "0021": {
    "zip_code": "0800021",
    "prefecture": "北海道",
    "prefecture_kana": "ホッカイドウ",
    "prefecture_code": 1,
    "city": "帯広市",
    "city_kana": "オビヒロシ",
    "town": "西十一条南",
    "town_kana": "ニシ11ジョウミナミ",
    "street": null,
    "office_name": null,
    "office_name_kana": null
  },
  "0022": {
    "zip_code": "0800022",
    "prefecture": "北海道",
    "prefecture_kana": "ホッカイドウ",
    "prefecture_code": 1,
    "city": "帯広市",
    "city_kana": "オビヒロシ",
    "town": "西十二条南",
    "town_kana": "ニシ12ジョウミナミ",
    "street": null,
    "office_name": null,
    "office_name_kana": null
  },
  "0023": {
    "zip_code": "0800023",
    "prefecture": "北海道",
    "prefecture_kana": "ホッカイドウ",
    "prefecture_code": 1,
    "city": "帯広市",
    "city_kana": "オビヒロシ",
    "town": "西十三条南",
    "town_kana": "ニシ13ジョウミナミ",
    "street": null,
    "office_name": null,
    "office_name_kana": null
  },
  "0024": {
    "zip_code": "0800024",
    "prefecture": "北海道",
    "prefecture_kana": "ホッカイドウ",
    "prefecture_code": 1,
    "city": "帯広市",
    "city_kana": "オビヒロシ",
    "town": "西十四条南",
    "town_kana": "ニシ14ジョウミナミ",
    "street": null,
    "office_name": null,
    "office_name_kana": null
  },
  "0025": {
    "zip_code": "0800025",
    "prefecture": "北海道",
    "prefecture_kana": "ホッカイドウ",
    "prefecture_code": 1,
    "city": "帯広市",
    "city_kana": "オビヒロシ",
    "town": "西十五条南",
    "town_kana": "ニシ15ジョウミナミ",
    "street": null,
    "office_name": null,
    "office_name_kana": null
  },
  "0026": {
    "zip_code": "0800026",
    "prefecture": "北海道",
    "prefecture_kana": "ホッカイドウ",
    "prefecture_code": 1,
    "city": "帯広市",
    "city_kana": "オビヒロシ",
    "town": "西十六条南",
    "town_kana": "ニシ16ジョウミナミ",
    "street": null,
    "office_name": null,
    "office_name_kana": null
  },
  "0027": {
    "zip_code": "0800027",
    "prefecture": "北海道",
    "prefecture_kana": "ホッカイドウ",
    "prefecture_code": 1,
    "city": "帯広市",
    "city_kana": "オビヒロシ",
    "town": "西十七条南",
    "town_kana": "ニシ17ジョウミナミ",
    "street": null,
    "office_name": null,
    "office_name_kana": null
  },
  "0028": {
    "zip_code": "0800028",
    "prefecture": "北海道",
    "prefecture_kana": "ホッカイドウ",
    "prefecture_code": 1,
    "city": "帯広市",
    "city_kana": "オビヒロシ",
    "town": "西十八条南",
    "town_kana": "ニシ18ジョウミナミ",
    "street": null,
    "office_name": null,
    "office_name_kana": null
  },
  "0029": {
    "zip_code": "0800029",
    "prefecture": "北海道",
    "prefecture_kana": "ホッカイドウ",
    "prefecture_code": 1,
    "city": "帯広市",
    "city_kana": "オビヒロシ",
    "town": "西十九条南",
    "town_kana": "ニシ19ジョウミナミ",
    "street": null,
    "office_name": null,
    "office_name_kana": null
  },
  "0030": {
    "zip_code": "0800030",
    "prefecture": "北海道",
    "prefecture_kana": "ホッカイドウ",
    "prefecture_code": 1,
    "city": "帯広市",
    "city_kana": "オビヒロシ",
    "town": "大通北",
    "town_kana": "オオドオリキタ",
    "street": null,
    "office_name": null,
    "office_name_kana": null
  },
  "0031": {
    "zip_code": "0800031",
    "prefecture": "北海道",
    "prefecture_kana": "ホッカイドウ",
    "prefecture_code": 1,
    "city": "帯広市",
    "city_kana": "オビヒロシ",
    "town": "西一条北",
    "town_kana": "ニシ1ジョウキタ",
    "street": null,
    "office_name": null,
    "office_name_kana": null
  },
  "0032": {
    "zip_code": "0800032",
    "prefecture": "北海道",
    "prefecture_kana": "ホッカイドウ",
    "prefecture_code": 1,
    "city": "帯広市",
    "city_kana": "オビヒロシ",
    "town": "西二条北",
    "town_kana": "ニシ2ジョウキタ",
    "street": null,
    "office_name": null,
    "office_name_kana": null
  },
  "0033": {
    "zip_code": "0800033",
    "prefecture": "北海道",
    "prefecture_kana": "ホッカイドウ",
    "prefecture_code": 1,
    "city": "帯広市",
    "city_kana": "オビヒロシ",
    "town": "西三条北",
    "town_kana": "ニシ3ジョウキタ",
    "street": null,
    "office_name": null,
    "office_name_kana": null
  },
  "0034": {
    "zip_code": "0800034",
    "prefecture": "北海道",
    "prefecture_kana": "ホッカイドウ",
    "prefecture_code": 1,
    "city": "帯広市",
    "city_kana": "オビヒロシ",
    "town": "西四条北",
    "town_kana": "ニシ4ジョウキタ",
    "street": null,
    "office_name": null,
    "office_name_kana": null
  },
  "0035": {
    "zip_code": "0800035",
    "prefecture": "北海道",
    "prefecture_kana": "ホッカイドウ",
    "prefecture_code": 1,
    "city": "帯広市",
    "city_kana": "オビヒロシ",
    "town": "西五条北",
    "town_kana": "ニシ5ジョウキタ",
    "street": null,
    "office_name": null,
    "office_name_kana": null
  },
  "0036": {
    "zip_code": "0800036",
    "prefecture": "北海道",
    "prefecture_kana": "ホッカイドウ",
    "prefecture_code": 1,
    "city": "帯広市",
    "city_kana": "オビヒロシ",
    "town": "西六条北",
    "town_kana": "ニシ6ジョウキタ",
    "street": null,
    "office_name": null,
    "office_name_kana": null
  },
  "0037": {
    "zip_code": "0800037",
    "prefecture": "北海道",
    "prefecture_kana": "ホッカイドウ",
    "prefecture_code": 1,
    "city": "帯広市",
    "city_kana": "オビヒロシ",
    "town": "西七条北",
    "town_kana": "ニシ7ジョウキタ",
    "street": null,
    "office_name": null,
    "office_name_kana": null
  },
  "0038": {
    "zip_code": "0800038",
    "prefecture": "北海道",
    "prefecture_kana": "ホッカイドウ",
    "prefecture_code": 1,
    "city": "帯広市",
    "city_kana": "オビヒロシ",
    "town": "西八条北",
    "town_kana": "ニシ8ジョウキタ",
    "street": null,
    "office_name": null,
    "office_name_kana": null
  },
  "0039": {
    "zip_code": "0800039",
    "prefecture": "北海道",
    "prefecture_kana": "ホッカイドウ",
    "prefecture_code": 1,
    "city": "帯広市",
    "city_kana": "オビヒロシ",
    "town": "西九条北",
    "town_kana": "ニシ9ジョウキタ",
    "street": null,
    "office_name": null,
    "office_name_kana": null
  },
  "0040": {
    "zip_code": "0800040",
    "prefecture": "北海道",
    "prefecture_kana": "ホッカイドウ",
    "prefecture_code": 1,
    "city": "帯広市",
    "city_kana": "オビヒロシ",
    "town": "西十条北",
    "town_kana": "ニシ10ジョウキタ",
    "street": null,
    "office_name": null,
    "office_name_kana": null
  },
  "0041": {
    "zip_code": "0800041",
    "prefecture": "北海道",
    "prefecture_kana": "ホッカイドウ",
    "prefecture_code": 1,
    "city": "帯広市",
    "city_kana": "オビヒロシ",
    "town": "西十一条北",
    "town_kana": "ニシ11ジョウキタ",
    "street": null,
    "office_name": null,
    "office_name_kana": null
  },
  "0042": {
    "zip_code": "0800042",
    "prefecture": "北海道",
    "prefecture_kana": "ホッカイドウ",
    "prefecture_code": 1,
    "city": "帯広市",
    "city_kana": "オビヒロシ",
    "town": "西十二条北",
    "town_kana": "ニシ12ジョウキタ",
    "street": null,
    "office_name": null,
    "office_name_kana": null
  },
  "0043": {
    "zip_code": "0800043",
    "prefecture": "北海道",
    "prefecture_kana": "ホッカイドウ",
    "prefecture_code": 1,
    "city": "帯広市",
    "city_kana": "オビヒロシ",
    "town": "西十三条北",
    "town_kana": "ニシ13ジョウキタ",
    "street": null,
    "office_name": null,
    "office_name_kana": null
  },
  "0044": {
    "zip_code": "0800044",
    "prefecture": "北海道",
    "prefecture_kana": "ホッカイドウ",
    "prefecture_code": 1,
    "city": "帯広市",
    "city_kana": "オビヒロシ",
    "town": "西十四条北",
    "town_kana": "ニシ14ジョウキタ",
    "street": null,
    "office_name": null,
    "office_name_kana": null
  },
  "0045": {
    "zip_code": "0800045",
    "prefecture": "北海道",
    "prefecture_kana": "ホッカイドウ",
    "prefecture_code": 1,
    "city": "帯広市",
    "city_kana": "オビヒロシ",
    "town": "西十五条北",
    "town_kana": "ニシ15ジョウキタ",
    "street": null,
    "office_name": null,
    "office_name_kana": null
  },
  "0046": {
    "zip_code": "0800046",
    "prefecture": "北海道",
    "prefecture_kana": "ホッカイドウ",
    "prefecture_code": 1,
    "city": "帯広市",
    "city_kana": "オビヒロシ",
    "town": "西十六条北",
    "town_kana": "ニシ16ジョウキタ",
    "street": null,
    "office_name": null,
    "office_name_kana": null
  },
  "0047": {
    "zip_code": "0800047",
    "prefecture": "北海道",
    "prefecture_kana": "ホッカイドウ",
    "prefecture_code": 1,
    "city": "帯広市",
    "city_kana": "オビヒロシ",
    "town": "西十七条北",
    "town_kana": "ニシ17ジョウキタ",
    "street": null,
    "office_name": null,
    "office_name_kana": null
  },
  "0048": {
    "zip_code": "0800048",
    "prefecture": "北海道",
    "prefecture_kana": "ホッカイドウ",
    "prefecture_code": 1,
    "city": "帯広市",
    "city_kana": "オビヒロシ",
    "town": "西十八条北",
    "town_kana": "ニシ18ジョウキタ",
    "street": null,
    "office_name": null,
    "office_name_kana": null
  },
  "0050": {
    "zip_code": "0800050",
    "prefecture": "北海道",
    "prefecture_kana": "ホッカイドウ",
    "prefecture_code": 1,
    "city": "帯広市",
    "city_kana": "オビヒロシ",
    "town": "白樺十六条東",
    "town_kana": "シラカバ16ジョウヒガシ",
    "street": null,
    "office_name": null,
    "office_name_kana": null
  },
  "0051": {
    "zip_code": "0800051",
    "prefecture": "北海道",
    "prefecture_kana": "ホッカイドウ",
    "prefecture_code": 1,
    "city": "帯広市",
    "city_kana": "オビヒロシ",
    "town": "白樺十六条西",
    "town_kana": "シラカバ16ジョウニシ",
    "street": null,
    "office_name": null,
    "office_name_kana": null
  },
  "0052": {
    "zip_code": "0800052",
    "prefecture": "北海道",
    "prefecture_kana": "ホッカイドウ",
    "prefecture_code": 1,
    "city": "帯広市",
    "city_kana": "オビヒロシ",
    "town": "新町東",
    "town_kana": "シンマチヒガシ",
    "street": null,
    "office_name": null,
    "office_name_kana": null
  },
  "0053": {
    "zip_code": "0800053",
    "prefecture": "北海道",
    "prefecture_kana": "ホッカイドウ",
    "prefecture_code": 1,
    "city": "帯広市",
    "city_kana": "オビヒロシ",
    "town": "新町西",
    "town_kana": "シンマチニシ",
    "street": null,
    "office_name": null,
    "office_name_kana": null
  },
  "0054": {
    "zip_code": "0800054",
    "prefecture": "北海道",
    "prefecture_kana": "ホッカイドウ",
    "prefecture_code": 1,
    "city": "帯広市",
    "city_kana": "オビヒロシ",
    "town": "柏林台北町",
    "town_kana": "ハクリンダイキタマチ",
    "street": null,
    "office_name": null,
    "office_name_kana": null
  },
  "0055": {
    "zip_code": "0800055",
    "prefecture": "北海道",
    "prefecture_kana": "ホッカイドウ",
    "prefecture_code": 1,
    "city": "帯広市",
    "city_kana": "オビヒロシ",
    "town": "柏林台東町",
    "town_kana": "ハクリンダイヒガシマチ",
    "street": null,
    "office_name": null,
    "office_name_kana": null
  },
  "0056": {
    "zip_code": "0800056",
    "prefecture": "北海道",
    "prefecture_kana": "ホッカイドウ",
    "prefecture_code": 1,
    "city": "帯広市",
    "city_kana": "オビヒロシ",
    "town": "柏林台南町",
    "town_kana": "ハクリンダイミナミマチ",
    "street": null,
    "office_name": null,
    "office_name_kana": null
  },
  "0057": {
    "zip_code": "0800057",
    "prefecture": "北海道",
    "prefecture_kana": "ホッカイドウ",
    "prefecture_code": 1,
    "city": "帯広市",
    "city_kana": "オビヒロシ",
    "town": "柏林台中町",
    "town_kana": "ハクリンダイナカマチ",
    "street": null,
    "office_name": null,
    "office_name_kana": null
  },
  "0058": {
    "zip_code": "0800058",
    "prefecture": "北海道",
    "prefecture_kana": "ホッカイドウ",
    "prefecture_code": 1,
    "city": "帯広市",
    "city_kana": "オビヒロシ",
    "town": "柏林台西町",
    "town_kana": "ハクリンダイニシマチ",
    "street": null,
    "office_name": null,
    "office_name_kana": null
  },
  "0100": {
    "zip_code": "0800100",
    "prefecture": "北海道",
    "prefecture_kana": "ホッカイドウ",
    "prefecture_code": 1,
    "city": "河東郡音更町",
    "city_kana": "カトウグンオトフケチョウ",
    "town": "",
    "town_kana": "",
    "street": null,
    "office_name": null,
    "office_name_kana": null
  },
  "0101": {
    "zip_code": "0800101",
    "prefecture": "北海道",
    "prefecture_kana": "ホッカイドウ",
    "prefecture_code": 1,
    "city": "河東郡音更町",
    "city_kana": "カトウグンオトフケチョウ",
    "town": "大通",
    "town_kana": "オオドオリ",
    "street": null,
    "office_name": null,
    "office_name_kana": null
  },
  "0102": {
    "zip_code": "0800102",
    "prefecture": "北海道",
    "prefecture_kana": "ホッカイドウ",
    "prefecture_code": 1,
    "city": "河東郡音更町",
    "city_kana": "カトウグンオトフケチョウ",
    "town": "大通北",
    "town_kana": "オオドオリキタ",
    "street": null,
    "office_name": null,
    "office_name_kana": null
  },
  "0103": {
    "zip_code": "0800103",
    "prefecture": "北海道",
    "prefecture_kana": "ホッカイドウ",
    "prefecture_code": 1,
    "city": "河東郡音更町",
    "city_kana": "カトウグンオトフケチョウ",
    "town": "元町",
    "town_kana": "モトマチ",
    "street": null,
    "office_name": null,
    "office_name_kana": null
  },
  "0104": {
    "zip_code": "0800104",
    "prefecture": "北海道",
    "prefecture_kana": "ホッカイドウ",
    "prefecture_code": 1,
    "city": "河東郡音更町",
    "city_kana": "カトウグンオトフケチョウ",
    "town": "新通",
    "town_kana": "シンドオリ",
    "street": null,
    "office_name": null,
    "office_name_kana": null
  },
  "0105": {
    "zip_code": "0800105",
    "prefecture": "北海道",
    "prefecture_kana": "ホッカイドウ",
    "prefecture_code": 1,
    "city": "河東郡音更町",
    "city_kana": "カトウグンオトフケチョウ",
    "town": "新通北",
    "town_kana": "シンドオリキタ",
    "street": null,
    "office_name": null,
    "office_name_kana": null
  },
  "0106": {
    "zip_code": "0800106",
    "prefecture": "北海道",
    "prefecture_kana": "ホッカイドウ",
    "prefecture_code": 1,
    "city": "河東郡音更町",
    "city_kana": "カトウグンオトフケチョウ",
    "town": "東通",
    "town_kana": "ヒガシドオリ",
    "street": null,
    "office_name": null,
    "office_name_kana": null
  },
  "0111": {
    "zip_code": "0800111",
    "prefecture": "北海道",
    "prefecture_kana": "ホッカイドウ",
    "prefecture_code": 1,
    "city": "河東郡音更町",
    "city_kana": "カトウグンオトフケチョウ",
    "town": "木野大通東",
    "town_kana": "キノオオドオリヒガシ",
    "street": null,
    "office_name": null,
    "office_name_kana": null
  },
  "0112": {
    "zip_code": "0800112",
    "prefecture": "北海道",
    "prefecture_kana": "ホッカイドウ",
    "prefecture_code": 1,
    "city": "河東郡音更町",
    "city_kana": "カトウグンオトフケチョウ",
    "town": "木野東通",
    "town_kana": "キノヒガシドオリ",
    "street": null,
    "office_name": null,
    "office_name_kana": null
  },
  "0121": {
    "zip_code": "0800121",
    "prefecture": "北海道",
    "prefecture_kana": "ホッカイドウ",
    "prefecture_code": 1,
    "city": "河東郡音更町",
    "city_kana": "カトウグンオトフケチョウ",
    "town": "柳町北区",
    "town_kana": "ヤナギマチキタク",
    "street": null,
    "office_name": null,
    "office_name_kana": null
  },
  "0122": {
    "zip_code": "0800122",
    "prefecture": "北海道",
    "prefecture_kana": "ホッカイドウ",
    "prefecture_code": 1,
    "city": "河東郡音更町",
    "city_kana": "カトウグンオトフケチョウ",
    "town": "柳町仲区",
    "town_kana": "ヤナギマチナカク",
    "street": null,
    "office_name": null,
    "office_name_kana": null
  },
  "0123": {
    "zip_code": "0800123",
    "prefecture": "北海道",
    "prefecture_kana": "ホッカイドウ",
    "prefecture_code": 1,
    "city": "河東郡音更町",
    "city_kana": "カトウグンオトフケチョウ",
    "town": "柳町南区",
    "town_kana": "ヤナギマチミナミク",
    "street": null,
    "office_name": null,
    "office_name_kana": null
  },
  "0131": {
    "zip_code": "0800131",
    "prefecture": "北海道",
    "prefecture_kana": "ホッカイドウ",
    "prefecture_code": 1,
    "city": "河東郡音更町",
    "city_kana": "カトウグンオトフケチョウ",
    "town": "宝来本通",
    "town_kana": "ホウライホンドオリ",
    "street": null,
    "office_name": null,
    "office_name_kana": null
  },
  "0132": {
    "zip_code": "0800132",
    "prefecture": "北海道",
    "prefecture_kana": "ホッカイドウ",
    "prefecture_code": 1,
    "city": "河東郡音更町",
    "city_kana": "カトウグンオトフケチョウ",
    "town": "宝来仲町北",
    "town_kana": "ホウライナカマチキタ",
    "street": null,
    "office_name": null,
    "office_name_kana": null
  },
  "0133": {
    "zip_code": "0800133",
    "prefecture": "北海道",
    "prefecture_kana": "ホッカイドウ",
    "prefecture_code": 1,
    "city": "河東郡音更町",
    "city_kana": "カトウグンオトフケチョウ",
    "town": "宝来東町北",
    "town_kana": "ホウライヒガシマチキタ",
    "street": null,
    "office_name": null,
    "office_name_kana": null
  },
  "0134": {
    "zip_code": "0800134",
    "prefecture": "北海道",
    "prefecture_kana": "ホッカイドウ",
    "prefecture_code": 1,
    "city": "河東郡音更町",
    "city_kana": "カトウグンオトフケチョウ",
    "town": "宝来西町南",
    "town_kana": "ホウライニシマチミナミ",
    "street": null,
    "office_name": null,
    "office_name_kana": null
  },
  "0135": {
    "zip_code": "0800135",
    "prefecture": "北海道",
    "prefecture_kana": "ホッカイドウ",
    "prefecture_code": 1,
    "city": "河東郡音更町",
    "city_kana": "カトウグンオトフケチョウ",
    "town": "宝来仲町南",
    "town_kana": "ホウライナカマチミナミ",
    "street": null,
    "office_name": null,
    "office_name_kana": null
  },
  "0136": {
    "zip_code": "0800136",
    "prefecture": "北海道",
    "prefecture_kana": "ホッカイドウ",
    "prefecture_code": 1,
    "city": "河東郡音更町",
    "city_kana": "カトウグンオトフケチョウ",
    "town": "宝来東町南",
    "town_kana": "ホウライヒガシマチミナミ",
    "street": null,
    "office_name": null,
    "office_name_kana": null
  },
  "0137": {
    "zip_code": "0800137",
    "prefecture": "北海道",
    "prefecture_kana": "ホッカイドウ",
    "prefecture_code": 1,
    "city": "河東郡音更町",
    "city_kana": "カトウグンオトフケチョウ",
    "town": "宝来南一条",
    "town_kana": "ホウライミナミ1ジョウ",
    "street": null,
    "office_name": null,
    "office_name_kana": null
  },
  "0138": {
    "zip_code": "0800138",
    "prefecture": "北海道",
    "prefecture_kana": "ホッカイドウ",
    "prefecture_code": 1,
    "city": "河東郡音更町",
    "city_kana": "カトウグンオトフケチョウ",
    "town": "宝来南二条",
    "town_kana": "ホウライミナミ2ジョウ",
    "street": null,
    "office_name": null,
    "office_name_kana": null
  },
  "0139": {
    "zip_code": "0800139",
    "prefecture": "北海道",
    "prefecture_kana": "ホッカイドウ",
    "prefecture_code": 1,
    "city": "河東郡音更町",
    "city_kana": "カトウグンオトフケチョウ",
    "town": "宝来西町北",
    "town_kana": "ホウライニシマチキタ",
    "street": null,
    "office_name": null,
    "office_name_kana": null
  },
  "0141": {
    "zip_code": "0800141",
    "prefecture": "北海道",
    "prefecture_kana": "ホッカイドウ",
    "prefecture_code": 1,
    "city": "河東郡音更町",
    "city_kana": "カトウグンオトフケチョウ",
    "town": "宝来北一条",
    "town_kana": "ホウライキタ1ジョウ",
    "street": null,
    "office_name": null,
    "office_name_kana": null
  },
  "0142": {
    "zip_code": "0800142",
    "prefecture": "北海道",
    "prefecture_kana": "ホッカイドウ",
    "prefecture_code": 1,
    "city": "河東郡音更町",
    "city_kana": "カトウグンオトフケチョウ",
    "town": "宝来北二条",
    "town_kana": "ホウライキタ2ジョウ",
    "street": null,
    "office_name": null,
    "office_name_kana": null
  },
  "0143": {
    "zip_code": "0800143",
    "prefecture": "北海道",
    "prefecture_kana": "ホッカイドウ",
    "prefecture_code": 1,
    "city": "河東郡音更町",
    "city_kana": "カトウグンオトフケチョウ",
    "town": "宝来北三条",
    "town_kana": "ホウライキタ3ジョウ",
    "street": null,
    "office_name": null,
    "office_name_kana": null
  },
  "0144": {
    "zip_code": "0800144",
    "prefecture": "北海道",
    "prefecture_kana": "ホッカイドウ",
    "prefecture_code": 1,
    "city": "河東郡音更町",
    "city_kana": "カトウグンオトフケチョウ",
    "town": "宝来北四条",
    "town_kana": "ホウライキタ4ジョウ",
    "street": null,
    "office_name": null,
    "office_name_kana": null
  },
  "0145": {
    "zip_code": "0800145",
    "prefecture": "北海道",
    "prefecture_kana": "ホッカイドウ",
    "prefecture_code": 1,
    "city": "河東郡音更町",
    "city_kana": "カトウグンオトフケチョウ",
    "town": "宝来北五条",
    "town_kana": "ホウライキタ5ジョウ",
    "street": null,
    "office_name": null,
    "office_name_kana": null
  },
  "0146": {
    "zip_code": "0800146",
    "prefecture": "北海道",
    "prefecture_kana": "ホッカイドウ",
    "prefecture_code": 1,
    "city": "河東郡音更町",
    "city_kana": "カトウグンオトフケチョウ",
    "town": "宝来北六条",
    "town_kana": "ホウライキタ6ジョウ",
    "street": null,
    "office_name": null,
    "office_name_kana": null
  },
  "0151": {
    "zip_code": "0800151",
    "prefecture": "北海道",
    "prefecture_kana": "ホッカイドウ",
    "prefecture_code": 1,
    "city": "河東郡音更町",
    "city_kana": "カトウグンオトフケチョウ",
    "town": "東和",
    "town_kana": "トウワ",
    "street": null,
    "office_name": null,
    "office_name_kana": null
  },
  "0161": {
    "zip_code": "0800161",
    "prefecture": "北海道",
    "prefecture_kana": "ホッカイドウ",
    "prefecture_code": 1,
    "city": "河東郡音更町",
    "city_kana": "カトウグンオトフケチョウ",
    "town": "ひびき野東町",
    "town_kana": "ヒビキノヒガシマチ",
    "street": null,
    "office_name": null,
    "office_name_kana": null
  },
  "0162": {
    "zip_code": "0800162",
    "prefecture": "北海道",
    "prefecture_kana": "ホッカイドウ",
    "prefecture_code": 1,
    "city": "河東郡音更町",
    "city_kana": "カトウグンオトフケチョウ",
    "town": "ひびき野仲町",
    "town_kana": "ヒビキノナカマチ",
    "street": null,
    "office_name": null,
    "office_name_kana": null
  },
  "0163": {
    "zip_code": "0800163",
    "prefecture": "北海道",
    "prefecture_kana": "ホッカイドウ",
    "prefecture_code": 1,
    "city": "河東郡音更町",
    "city_kana": "カトウグンオトフケチョウ",
    "town": "ひびき野西町",
    "town_kana": "ヒビキノニシマチ",
    "street": null,
    "office_name": null,
    "office_name_kana": null
  },
  "0196": {
    "zip_code": "0800196",
    "prefecture": "北海道",
    "prefecture_kana": null,
    "prefecture_code": null,
    "city": "河東郡音更町",
    "city_kana": null,
    "town": "字下音更北",
    "town_kana": null,
    "street": "９線西１−８−２",
    "office_name": "株式会社　柳月",
    "office_name_kana": "カブシキカイシヤ リユウゲツ"
  },
  "0197": {
    "zip_code": "0800197",
    "prefecture": "北海道",
    "prefecture_kana": "ホッカイドウ",
    "prefecture_code": 1,
    "city": "河東郡音更町",
    "city_kana": "カトウグンオトフケチョウ",
    "town": "十勝川温泉南",
    "town_kana": "トカチガワオンセンミナミ",
    "street": "１２丁目１番地",
    "office_name": "十勝川温泉　第一ホテル",
    "office_name_kana": "トカチガワオンセン ダイイチホテル"
  },
  "0198": {
    "zip_code": "0800198",
    "prefecture": "北海道",
    "prefecture_kana": "ホッカイドウ",
    "prefecture_code": 1,
    "city": "河東郡音更町",
    "city_kana": "カトウグンオトフケチョウ",
    "town": "元町",
    "town_kana": "モトマチ",
    "street": "２",
    "office_name": "音更町役場",
    "office_name_kana": "オトフケチヨウヤクバ"
  },
  "0261": {
    "zip_code": "0800261",
    "prefecture": "北海道",
    "prefecture_kana": "ホッカイドウ",
    "prefecture_code": 1,
    "city": "河東郡音更町",
    "city_kana": "カトウグンオトフケチョウ",
    "town": "十勝川温泉",
    "town_kana": "トカチガワオンセン",
    "street": null,
    "office_name": null,
    "office_name_kana": null
  },
  "0262": {
    "zip_code": "0800262",
    "prefecture": "北海道",
    "prefecture_kana": "ホッカイドウ",
    "prefecture_code": 1,
    "city": "河東郡音更町",
    "city_kana": "カトウグンオトフケチョウ",
    "town": "十勝川温泉北",
    "town_kana": "トカチガワオンセンキタ",
    "street": null,
    "office_name": null,
    "office_name_kana": null
  },
  "0263": {
    "zip_code": "0800263",
    "prefecture": "北海道",
    "prefecture_kana": "ホッカイドウ",
    "prefecture_code": 1,
    "city": "河東郡音更町",
    "city_kana": "カトウグンオトフケチョウ",
    "town": "十勝川温泉南",
    "town_kana": "トカチガワオンセンミナミ",
    "street": null,
    "office_name": null,
    "office_name_kana": null
  },
  "0271": [
    {
      "zip_code": "0800271",
      "prefecture": "北海道",
      "prefecture_kana": "ホッカイドウ",
      "prefecture_code": 1,
      "city": "河東郡音更町",
      "city_kana": "カトウグンオトフケチョウ",
      "town": "長流枝",
      "town_kana": "オサルシ",
      "street": null,
      "office_name": null,
      "office_name_kana": null
    },
    {
      "zip_code": "0800271",
      "prefecture": "北海道",
      "prefecture_kana": "ホッカイドウ",
      "prefecture_code": 1,
      "city": "河東郡音更町",
      "city_kana": "カトウグンオトフケチョウ",
      "town": "長流枝幹線",
      "town_kana": "オサルシカンセン",
      "street": null,
      "office_name": null,
      "office_name_kana": null
    }
  ],
  "0272": [
    {
      "zip_code": "0800272",
      "prefecture": "北海道",
      "prefecture_kana": "ホッカイドウ",
      "prefecture_code": 1,
      "city": "河東郡音更町",
      "city_kana": "カトウグンオトフケチョウ",
      "town": "下士幌",
      "town_kana": "シモシホロ",
      "street": null,
      "office_name": null,
      "office_name_kana": null
    },
    {
      "zip_code": "0800272",
      "prefecture": "北海道",
      "prefecture_kana": "ホッカイドウ",
      "prefecture_code": 1,
      "city": "河東郡音更町",
      "city_kana": "カトウグンオトフケチョウ",
      "town": "下士幌幹線",
      "town_kana": "シモシホロカンセン",
      "street": null,
      "office_name": null,
      "office_name_kana": null
    }
  ],
  "0301": {
    "zip_code": "0800301",
    "prefecture": "北海道",
    "prefecture_kana": "ホッカイドウ",
    "prefecture_code": 1,
    "city": "河東郡音更町",
    "city_kana": "カトウグンオトフケチョウ",
    "town": "木野大通西",
    "town_kana": "キノオオドオリニシ",
    "street": null,
    "office_name": null,
    "office_name_kana": null
  },
  "0302": {
    "zip_code": "0800302",
    "prefecture": "北海道",
    "prefecture_kana": "ホッカイドウ",
    "prefecture_code": 1,
    "city": "河東郡音更町",
    "city_kana": "カトウグンオトフケチョウ",
    "town": "木野西通",
    "town_kana": "キノニシドオリ",
    "street": null,
    "office_name": null,
    "office_name_kana": null
  },
  "0303": {
    "zip_code": "0800303",
    "prefecture": "北海道",
    "prefecture_kana": "ホッカイドウ",
    "prefecture_code": 1,
    "city": "河東郡音更町",
    "city_kana": "カトウグンオトフケチョウ",
    "town": "木野公園下町",
    "town_kana": "キノコウエンシタマチ",
    "street": null,
    "office_name": null,
    "office_name_kana": null
  },
  "0304": {
    "zip_code": "0800304",
    "prefecture": "北海道",
    "prefecture_kana": "ホッカイドウ",
    "prefecture_code": 1,
    "city": "河東郡音更町",
    "city_kana": "カトウグンオトフケチョウ",
    "town": "木野新町",
    "town_kana": "キノシンマチ",
    "street": null,
    "office_name": null,
    "office_name_kana": null
  },
  "0305": {
    "zip_code": "0800305",
    "prefecture": "北海道",
    "prefecture_kana": "ホッカイドウ",
    "prefecture_code": 1,
    "city": "河東郡音更町",
    "city_kana": "カトウグンオトフケチョウ",
    "town": "北鈴蘭北",
    "town_kana": "キタスズランキタ",
    "street": null,
    "office_name": null,
    "office_name_kana": null
  },
  "0306": {
    "zip_code": "0800306",
    "prefecture": "北海道",
    "prefecture_kana": "ホッカイドウ",
    "prefecture_code": 1,
    "city": "河東郡音更町",
    "city_kana": "カトウグンオトフケチョウ",
    "town": "北鈴蘭南",
    "town_kana": "キタスズランミナミ",
    "street": null,
    "office_name": null,
    "office_name_kana": null
  },
  "0307": {
    "zip_code": "0800307",
    "prefecture": "北海道",
    "prefecture_kana": "ホッカイドウ",
    "prefecture_code": 1,
    "city": "河東郡音更町",
    "city_kana": "カトウグンオトフケチョウ",
    "town": "中鈴蘭北",
    "town_kana": "ナカスズランキタ",
    "street": null,
    "office_name": null,
    "office_name_kana": null
  },
  "0308": {
    "zip_code": "0800308",
    "prefecture": "北海道",
    "prefecture_kana": "ホッカイドウ",
    "prefecture_code": 1,
    "city": "河東郡音更町",
    "city_kana": "カトウグンオトフケチョウ",
    "town": "中鈴蘭南",
    "town_kana": "ナカスズランミナミ",
    "street": null,
    "office_name": null,
    "office_name_kana": null
  },
  "0309": {
    "zip_code": "0800309",
    "prefecture": "北海道",
    "prefecture_kana": "ホッカイドウ",
    "prefecture_code": 1,
    "city": "河東郡音更町",
    "city_kana": "カトウグンオトフケチョウ",
    "town": "中鈴蘭元町",
    "town_kana": "ナカスズランモトマチ",
    "street": null,
    "office_name": null,
    "office_name_kana": null
  },
  "0311": {
    "zip_code": "0800311",
    "prefecture": "北海道",
    "prefecture_kana": "ホッカイドウ",
    "prefecture_code": 1,
    "city": "河東郡音更町",
    "city_kana": "カトウグンオトフケチョウ",
    "town": "南鈴蘭北",
    "town_kana": "ミナミスズランキタ",
    "street": null,
    "office_name": null,
    "office_name_kana": null
  },
  "0312": {
    "zip_code": "0800312",
    "prefecture": "北海道",
    "prefecture_kana": "ホッカイドウ",
    "prefecture_code": 1,
    "city": "河東郡音更町",
    "city_kana": "カトウグンオトフケチョウ",
    "town": "南鈴蘭南",
    "town_kana": "ミナミスズランミナミ",
    "street": null,
    "office_name": null,
    "office_name_kana": null
  },
  "0313": {
    "zip_code": "0800313",
    "prefecture": "北海道",
    "prefecture_kana": "ホッカイドウ",
    "prefecture_code": 1,
    "city": "河東郡音更町",
    "city_kana": "カトウグンオトフケチョウ",
    "town": "鈴蘭公園",
    "town_kana": "スズランコウエン",
    "street": null,
    "office_name": null,
    "office_name_kana": null
  },
  "0314": {
    "zip_code": "0800314",
    "prefecture": "北海道",
    "prefecture_kana": "ホッカイドウ",
    "prefecture_code": 1,
    "city": "河東郡音更町",
    "city_kana": "カトウグンオトフケチョウ",
    "town": "共栄台西",
    "town_kana": "キョウエイダイニシ",
    "street": null,
    "office_name": null,
    "office_name_kana": null
  },
  "0315": {
    "zip_code": "0800315",
    "prefecture": "北海道",
    "prefecture_kana": "ホッカイドウ",
    "prefecture_code": 1,
    "city": "河東郡音更町",
    "city_kana": "カトウグンオトフケチョウ",
    "town": "共栄台東",
    "town_kana": "キョウエイダイヒガシ",
    "street": null,
    "office_name": null,
    "office_name_kana": null
  },
  "0316": {
    "zip_code": "0800316",
    "prefecture": "北海道",
    "prefecture_kana": "ホッカイドウ",
    "prefecture_code": 1,
    "city": "河東郡音更町",
    "city_kana": "カトウグンオトフケチョウ",
    "town": "緑陽台北区",
    "town_kana": "リョクヨウダイキタク",
    "street": null,
    "office_name": null,
    "office_name_kana": null
  },
  "0317": {
    "zip_code": "0800317",
    "prefecture": "北海道",
    "prefecture_kana": "ホッカイドウ",
    "prefecture_code": 1,
    "city": "河東郡音更町",
    "city_kana": "カトウグンオトフケチョウ",
    "town": "緑陽台仲区",
    "town_kana": "リョクヨウダイナカク",
    "street": null,
    "office_name": null,
    "office_name_kana": null
  },
  "0318": {
    "zip_code": "0800318",
    "prefecture": "北海道",
    "prefecture_kana": "ホッカイドウ",
    "prefecture_code": 1,
    "city": "河東郡音更町",
    "city_kana": "カトウグンオトフケチョウ",
    "town": "緑陽台南区",
    "town_kana": "リョクヨウダイミナミク",
    "street": null,
    "office_name": null,
    "office_name_kana": null
  },
  "0321": {
    "zip_code": "0800321",
    "prefecture": "北海道",
    "prefecture_kana": "ホッカイドウ",
    "prefecture_code": 1,
    "city": "河東郡音更町",
    "city_kana": "カトウグンオトフケチョウ",
    "town": "桜が丘",
    "town_kana": "サクラガオカ",
    "street": null,
    "office_name": null,
    "office_name_kana": null
  },
  "0322": {
    "zip_code": "0800322",
    "prefecture": "北海道",
    "prefecture_kana": "ホッカイドウ",
    "prefecture_code": 1,
    "city": "河東郡音更町",
    "city_kana": "カトウグンオトフケチョウ",
    "town": "桜が丘西",
    "town_kana": "サクラガオカニシ",
    "street": null,
    "office_name": null,
    "office_name_kana": null
  },
  "0323": {
    "zip_code": "0800323",
    "prefecture": "北海道",
    "prefecture_kana": "ホッカイドウ",
    "prefecture_code": 1,
    "city": "河東郡音更町",
    "city_kana": "カトウグンオトフケチョウ",
    "town": "住吉台",
    "town_kana": "スミヨシダイ",
    "street": null,
    "office_name": null,
    "office_name_kana": null
  },
  "0324": {
    "zip_code": "0800324",
    "prefecture": "北海道",
    "prefecture_kana": "ホッカイドウ",
    "prefecture_code": 1,
    "city": "河東郡音更町",
    "city_kana": "カトウグンオトフケチョウ",
    "town": "南住吉台",
    "town_kana": "ミナミスミヨシダイ",
    "street": null,
    "office_name": null,
    "office_name_kana": null
  },
  "0325": {
    "zip_code": "0800325",
    "prefecture": "北海道",
    "prefecture_kana": "ホッカイドウ",
    "prefecture_code": 1,
    "city": "河東郡音更町",
    "city_kana": "カトウグンオトフケチョウ",
    "town": "柏寿台",
    "town_kana": "ハクジュダイ",
    "street": null,
    "office_name": null,
    "office_name_kana": null
  },
  "0326": {
    "zip_code": "0800326",
    "prefecture": "北海道",
    "prefecture_kana": "ホッカイドウ",
    "prefecture_code": 1,
    "city": "河東郡音更町",
    "city_kana": "カトウグンオトフケチョウ",
    "town": "北明台",
    "town_kana": "ホクメイダイ",
    "street": null,
    "office_name": null,
    "office_name_kana": null
  },
  "0327": {
    "zip_code": "0800327",
    "prefecture": "北海道",
    "prefecture_kana": "ホッカイドウ",
    "prefecture_code": 1,
    "city": "河東郡音更町",
    "city_kana": "カトウグンオトフケチョウ",
    "town": "北陽台",
    "town_kana": "ホクヨウダイ",
    "street": null,
    "office_name": null,
    "office_name_kana": null
  },
  "0330": {
    "zip_code": "0800330",
    "prefecture": "北海道",
    "prefecture_kana": "ホッカイドウ",
    "prefecture_code": 1,
    "city": "河東郡音更町",
    "city_kana": "カトウグンオトフケチョウ",
    "town": "雄飛が丘",
    "town_kana": "ユウヒガオカ",
    "street": null,
    "office_name": null,
    "office_name_kana": null
  },
  "0331": {
    "zip_code": "0800331",
    "prefecture": "北海道",
    "prefecture_kana": "ホッカイドウ",
    "prefecture_code": 1,
    "city": "河東郡音更町",
    "city_kana": "カトウグンオトフケチョウ",
    "town": "雄飛が丘北区",
    "town_kana": "ユウヒガオカキタク",
    "street": null,
    "office_name": null,
    "office_name_kana": null
  },
  "0332": {
    "zip_code": "0800332",
    "prefecture": "北海道",
    "prefecture_kana": "ホッカイドウ",
    "prefecture_code": 1,
    "city": "河東郡音更町",
    "city_kana": "カトウグンオトフケチョウ",
    "town": "雄飛が丘仲区",
    "town_kana": "ユウヒガオカナカク",
    "street": null,
    "office_name": null,
    "office_name_kana": null
  },
  "0333": {
    "zip_code": "0800333",
    "prefecture": "北海道",
    "prefecture_kana": "ホッカイドウ",
    "prefecture_code": 1,
    "city": "河東郡音更町",
    "city_kana": "カトウグンオトフケチョウ",
    "town": "雄飛が丘南区",
    "town_kana": "ユウヒガオカミナミク",
    "street": null,
    "office_name": null,
    "office_name_kana": null
  },
  "0334": {
    "zip_code": "0800334",
    "prefecture": "北海道",
    "prefecture_kana": "ホッカイドウ",
    "prefecture_code": 1,
    "city": "河東郡音更町",
    "city_kana": "カトウグンオトフケチョウ",
    "town": "緑が丘",
    "town_kana": "ミドリガオカ",
    "street": null,
    "office_name": null,
    "office_name_kana": null
  },
  "0335": {
    "zip_code": "0800335",
    "prefecture": "北海道",
    "prefecture_kana": "ホッカイドウ",
    "prefecture_code": 1,
    "city": "河東郡音更町",
    "city_kana": "カトウグンオトフケチョウ",
    "town": "希望が丘",
    "town_kana": "キボウガオカ",
    "street": null,
    "office_name": null,
    "office_name_kana": null
  },
  "0341": {
    "zip_code": "0800341",
    "prefecture": "北海道",
    "prefecture_kana": "ホッカイドウ",
    "prefecture_code": 1,
    "city": "河東郡音更町",
    "city_kana": "カトウグンオトフケチョウ",
    "town": "音更",
    "town_kana": "オトフケ",
    "street": null,
    "office_name": null,
    "office_name_kana": null
  },
  "0342": {
    "zip_code": "0800342",
    "prefecture": "北海道",
    "prefecture_kana": "ホッカイドウ",
    "prefecture_code": 1,
    "city": "河東郡音更町",
    "city_kana": "カトウグンオトフケチョウ",
    "town": "下音更",
    "town_kana": "シモオトフケ",
    "street": null,
    "office_name": null,
    "office_name_kana": null
  },
  "0343": {
    "zip_code": "0800343",
    "prefecture": "北海道",
    "prefecture_kana": "ホッカイドウ",
    "prefecture_code": 1,
    "city": "河東郡音更町",
    "city_kana": "カトウグンオトフケチョウ",
    "town": "東士狩",
    "town_kana": "ヒガシシカリ",
    "street": null,
    "office_name": null,
    "office_name_kana": null
  },
  "0344": {
    "zip_code": "0800344",
    "prefecture": "北海道",
    "prefecture_kana": "ホッカイドウ",
    "prefecture_code": 1,
    "city": "河東郡音更町",
    "city_kana": "カトウグンオトフケチョウ",
    "town": "万年",
    "town_kana": "マンネン",
    "street": null,
    "office_name": null,
    "office_name_kana": null
  },
  "0345": {
    "zip_code": "0800345",
    "prefecture": "北海道",
    "prefecture_kana": "ホッカイドウ",
    "prefecture_code": 1,
    "city": "河東郡音更町",
    "city_kana": "カトウグンオトフケチョウ",
    "town": "高倉",
    "town_kana": "タカクラ",
    "street": null,
    "office_name": null,
    "office_name_kana": null
  },
  "0351": {
    "zip_code": "0800351",
    "prefecture": "北海道",
    "prefecture_kana": "ホッカイドウ",
    "prefecture_code": 1,
    "city": "河東郡音更町",
    "city_kana": "カトウグンオトフケチョウ",
    "town": "然別",
    "town_kana": "シカリベツ",
    "street": null,
    "office_name": null,
    "office_name_kana": null
  },
  "0361": {
    "zip_code": "0800361",
    "prefecture": "北海道",
    "prefecture_kana": "ホッカイドウ",
    "prefecture_code": 1,
    "city": "河東郡音更町",
    "city_kana": "カトウグンオトフケチョウ",
    "town": "すずらん台北町",
    "town_kana": "スズランダイキタマチ",
    "street": null,
    "office_name": null,
    "office_name_kana": null
  },
  "0362": {
    "zip_code": "0800362",
    "prefecture": "北海道",
    "prefecture_kana": "ホッカイドウ",
    "prefecture_code": 1,
    "city": "河東郡音更町",
    "city_kana": "カトウグンオトフケチョウ",
    "town": "すずらん台仲町",
    "town_kana": "スズランダイナカマチ",
    "street": null,
    "office_name": null,
    "office_name_kana": null
  },
  "0363": {
    "zip_code": "0800363",
    "prefecture": "北海道",
    "prefecture_kana": "ホッカイドウ",
    "prefecture_code": 1,
    "city": "河東郡音更町",
    "city_kana": "カトウグンオトフケチョウ",
    "town": "すずらん台南町",
    "town_kana": "スズランダイミナミマチ",
    "street": null,
    "office_name": null,
    "office_name_kana": null
  },
  "0561": {
    "zip_code": "0800561",
    "prefecture": "北海道",
    "prefecture_kana": "ホッカイドウ",
    "prefecture_code": 1,
    "city": "河東郡音更町",
    "city_kana": "カトウグンオトフケチョウ",
    "town": "豊田",
    "town_kana": "トヨタ",
    "street": null,
    "office_name": null,
    "office_name_kana": null
  },
  "0562": {
    "zip_code": "0800562",
    "prefecture": "北海道",
    "prefecture_kana": "ホッカイドウ",
    "prefecture_code": 1,
    "city": "河東郡音更町",
    "city_kana": "カトウグンオトフケチョウ",
    "town": "東音更",
    "town_kana": "ヒガシオトフケ",
    "street": null,
    "office_name": null,
    "office_name_kana": null
  },
  "0563": {
    "zip_code": "0800563",
    "prefecture": "北海道",
    "prefecture_kana": "ホッカイドウ",
    "prefecture_code": 1,
    "city": "河東郡音更町",
    "city_kana": "カトウグンオトフケチョウ",
    "town": "駒場平和台",
    "town_kana": "コマバヘイワダイ",
    "street": null,
    "office_name": null,
    "office_name_kana": null
  },
  "0564": [
    {
      "zip_code": "0800564",
      "prefecture": "北海道",
      "prefecture_kana": "ホッカイドウ",
      "prefecture_code": 1,
      "city": "河東郡音更町",
      "city_kana": "カトウグンオトフケチョウ",
      "town": "駒場北町",
      "town_kana": "コマバキタマチ",
      "street": null,
      "office_name": null,
      "office_name_kana": null
    },
    {
      "zip_code": "0800564",
      "prefecture": "北海道",
      "prefecture_kana": "ホッカイドウ",
      "prefecture_code": 1,
      "city": "河東郡音更町",
      "city_kana": "カトウグンオトフケチョウ",
      "town": "駒場北１条通",
      "town_kana": "コマバキタ1ジョウドオリ",
      "street": null,
      "office_name": null,
      "office_name_kana": null
    },
    {
      "zip_code": "0800564",
      "prefecture": "北海道",
      "prefecture_kana": "ホッカイドウ",
      "prefecture_code": 1,
      "city": "河東郡音更町",
      "city_kana": "カトウグンオトフケチョウ",
      "town": "駒場北２条通",
      "town_kana": "コマバキタ2ジョウドオリ",
      "street": null,
      "office_name": null,
      "office_name_kana": null
    }
  ],
  "0565": {
    "zip_code": "0800565",
    "prefecture": "北海道",
    "prefecture_kana": "ホッカイドウ",
    "prefecture_code": 1,
    "city": "河東郡音更町",
    "city_kana": "カトウグンオトフケチョウ",
    "town": "駒場本通",
    "town_kana": "コマバホンドオリ",
    "street": null,
    "office_name": null,
    "office_name_kana": null
  },
  "0566": [
    {
      "zip_code": "0800566",
      "prefecture": "北海道",
      "prefecture_kana": "ホッカイドウ",
      "prefecture_code": 1,
      "city": "河東郡音更町",
      "city_kana": "カトウグンオトフケチョウ",
      "town": "駒場南１条通",
      "town_kana": "コマバミナミ1ジョウドオリ",
      "street": null,
      "office_name": null,
      "office_name_kana": null
    },
    {
      "zip_code": "0800566",
      "prefecture": "北海道",
      "prefecture_kana": "ホッカイドウ",
      "prefecture_code": 1,
      "city": "河東郡音更町",
      "city_kana": "カトウグンオトフケチョウ",
      "town": "駒場南２条通",
      "town_kana": "コマバミナミ2ジョウドオリ",
      "street": null,
      "office_name": null,
      "office_name_kana": null
    }
  ],
  "0567": [
    {
      "zip_code": "0800567",
      "prefecture": "北海道",
      "prefecture_kana": "ホッカイドウ",
      "prefecture_code": 1,
      "city": "河東郡音更町",
      "city_kana": "カトウグンオトフケチョウ",
      "town": "駒場南３条通",
      "town_kana": "コマバミナミ3ジョウドオリ",
      "street": null,
      "office_name": null,
      "office_name_kana": null
    },
    {
      "zip_code": "0800567",
      "prefecture": "北海道",
      "prefecture_kana": "ホッカイドウ",
      "prefecture_code": 1,
      "city": "河東郡音更町",
      "city_kana": "カトウグンオトフケチョウ",
      "town": "駒場南４条通",
      "town_kana": "コマバミナミ4ジョウドオリ",
      "street": null,
      "office_name": null,
      "office_name_kana": null
    }
  ],
  "0568": {
    "zip_code": "0800568",
    "prefecture": "北海道",
    "prefecture_kana": "ホッカイドウ",
    "prefecture_code": 1,
    "city": "河東郡音更町",
    "city_kana": "カトウグンオトフケチョウ",
    "town": "駒場東",
    "town_kana": "コマバヒガシ",
    "street": null,
    "office_name": null,
    "office_name_kana": null
  },
  "0571": {
    "zip_code": "0800571",
    "prefecture": "北海道",
    "prefecture_kana": "ホッカイドウ",
    "prefecture_code": 1,
    "city": "河東郡音更町",
    "city_kana": "カトウグンオトフケチョウ",
    "town": "駒場",
    "town_kana": "コマバ",
    "street": null,
    "office_name": null,
    "office_name_kana": null
  },
  "0572": {
    "zip_code": "0800572",
    "prefecture": "北海道",
    "prefecture_kana": "ホッカイドウ",
    "prefecture_code": 1,
    "city": "河東郡音更町",
    "city_kana": "カトウグンオトフケチョウ",
    "town": "駒場並木",
    "town_kana": "コマバナミキ",
    "street": null,
    "office_name": null,
    "office_name_kana": null
  },
  "0573": {
    "zip_code": "0800573",
    "prefecture": "北海道",
    "prefecture_kana": "ホッカイドウ",
    "prefecture_code": 1,
    "city": "河東郡音更町",
    "city_kana": "カトウグンオトフケチョウ",
    "town": "駒場南",
    "town_kana": "コマバミナミ",
    "street": null,
    "office_name": null,
    "office_name_kana": null
  },
  "0574": {
    "zip_code": "0800574",
    "prefecture": "北海道",
    "prefecture_kana": "ホッカイドウ",
    "prefecture_code": 1,
    "city": "河東郡音更町",
    "city_kana": "カトウグンオトフケチョウ",
    "town": "駒場西",
    "town_kana": "コマバニシ",
    "street": null,
    "office_name": null,
    "office_name_kana": null
  },
  "0575": {
    "zip_code": "0800575",
    "prefecture": "北海道",
    "prefecture_kana": "ホッカイドウ",
    "prefecture_code": 1,
    "city": "河東郡音更町",
    "city_kana": "カトウグンオトフケチョウ",
    "town": "上然別",
    "town_kana": "カミシカリベツ",
    "street": null,
    "office_name": null,
    "office_name_kana": null
  },
  "0576": {
    "zip_code": "0800576",
    "prefecture": "北海道",
    "prefecture_kana": "ホッカイドウ",
    "prefecture_code": 1,
    "city": "河東郡音更町",
    "city_kana": "カトウグンオトフケチョウ",
    "town": "南中音更",
    "town_kana": "ミナミナカオトフケ",
    "street": null,
    "office_name": null,
    "office_name_kana": null
  },
  "0577": {
    "zip_code": "0800577",
    "prefecture": "北海道",
    "prefecture_kana": "ホッカイドウ",
    "prefecture_code": 1,
    "city": "河東郡音更町",
    "city_kana": "カトウグンオトフケチョウ",
    "town": "西中音更",
    "town_kana": "ニシナカオトフケ",
    "street": null,
    "office_name": null,
    "office_name_kana": null
  },
  "0578": {
    "zip_code": "0800578",
    "prefecture": "北海道",
    "prefecture_kana": "ホッカイドウ",
    "prefecture_code": 1,
    "city": "河東郡音更町",
    "city_kana": "カトウグンオトフケチョウ",
    "town": "中音更",
    "town_kana": "ナカオトフケ",
    "street": null,
    "office_name": null,
    "office_name_kana": null
  },
  "0801": {
    "zip_code": "0800801",
    "prefecture": "北海道",
    "prefecture_kana": "ホッカイドウ",
    "prefecture_code": 1,
    "city": "帯広市",
    "city_kana": "オビヒロシ",
    "town": "東一条南",
    "town_kana": "ヒガシ1ジョウミナミ",
    "street": null,
    "office_name": null,
    "office_name_kana": null
  },
  "0802": {
    "zip_code": "0800802",
    "prefecture": "北海道",
    "prefecture_kana": "ホッカイドウ",
    "prefecture_code": 1,
    "city": "帯広市",
    "city_kana": "オビヒロシ",
    "town": "東二条南",
    "town_kana": "ヒガシ2ジョウミナミ",
    "street": null,
    "office_name": null,
    "office_name_kana": null
  },
  "0803": {
    "zip_code": "0800803",
    "prefecture": "北海道",
    "prefecture_kana": "ホッカイドウ",
    "prefecture_code": 1,
    "city": "帯広市",
    "city_kana": "オビヒロシ",
    "town": "東三条南",
    "town_kana": "ヒガシ3ジョウミナミ",
    "street": null,
    "office_name": null,
    "office_name_kana": null
  },
  "0804": {
    "zip_code": "0800804",
    "prefecture": "北海道",
    "prefecture_kana": "ホッカイドウ",
    "prefecture_code": 1,
    "city": "帯広市",
    "city_kana": "オビヒロシ",
    "town": "東四条南",
    "town_kana": "ヒガシ4ジョウミナミ",
    "street": null,
    "office_name": null,
    "office_name_kana": null
  },
  "0805": {
    "zip_code": "0800805",
    "prefecture": "北海道",
    "prefecture_kana": "ホッカイドウ",
    "prefecture_code": 1,
    "city": "帯広市",
    "city_kana": "オビヒロシ",
    "town": "東五条南",
    "town_kana": "ヒガシ5ジョウミナミ",
    "street": null,
    "office_name": null,
    "office_name_kana": null
  },
  "0806": {
    "zip_code": "0800806",
    "prefecture": "北海道",
    "prefecture_kana": "ホッカイドウ",
    "prefecture_code": 1,
    "city": "帯広市",
    "city_kana": "オビヒロシ",
    "town": "東六条南",
    "town_kana": "ヒガシ6ジョウミナミ",
    "street": null,
    "office_name": null,
    "office_name_kana": null
  },
  "0807": {
    "zip_code": "0800807",
    "prefecture": "北海道",
    "prefecture_kana": "ホッカイドウ",
    "prefecture_code": 1,
    "city": "帯広市",
    "city_kana": "オビヒロシ",
    "town": "東七条南",
    "town_kana": "ヒガシ7ジョウミナミ",
    "street": null,
    "office_name": null,
    "office_name_kana": null
  },
  "0808": {
    "zip_code": "0800808",
    "prefecture": "北海道",
    "prefecture_kana": "ホッカイドウ",
    "prefecture_code": 1,
    "city": "帯広市",
    "city_kana": "オビヒロシ",
    "town": "東八条南",
    "town_kana": "ヒガシ8ジョウミナミ",
    "street": null,
    "office_name": null,
    "office_name_kana": null
  },
  "0809": {
    "zip_code": "0800809",
    "prefecture": "北海道",
    "prefecture_kana": "ホッカイドウ",
    "prefecture_code": 1,
    "city": "帯広市",
    "city_kana": "オビヒロシ",
    "town": "東九条南",
    "town_kana": "ヒガシ9ジョウミナミ",
    "street": null,
    "office_name": null,
    "office_name_kana": null
  },
  "0810": {
    "zip_code": "0800810",
    "prefecture": "北海道",
    "prefecture_kana": "ホッカイドウ",
    "prefecture_code": 1,
    "city": "帯広市",
    "city_kana": "オビヒロシ",
    "town": "東十条南",
    "town_kana": "ヒガシ10ジョウミナミ",
    "street": null,
    "office_name": null,
    "office_name_kana": null
  },
  "0811": {
    "zip_code": "0800811",
    "prefecture": "北海道",
    "prefecture_kana": "ホッカイドウ",
    "prefecture_code": 1,
    "city": "帯広市",
    "city_kana": "オビヒロシ",
    "town": "東十一条南",
    "town_kana": "ヒガシ11ジョウミナミ",
    "street": null,
    "office_name": null,
    "office_name_kana": null
  },
  "0812": {
    "zip_code": "0800812",
    "prefecture": "北海道",
    "prefecture_kana": "ホッカイドウ",
    "prefecture_code": 1,
    "city": "帯広市",
    "city_kana": "オビヒロシ",
    "town": "東十二条南",
    "town_kana": "ヒガシ12ジョウミナミ",
    "street": null,
    "office_name": null,
    "office_name_kana": null
  },
  "0813": {
    "zip_code": "0800813",
    "prefecture": "北海道",
    "prefecture_kana": "ホッカイドウ",
    "prefecture_code": 1,
    "city": "帯広市",
    "city_kana": "オビヒロシ",
    "town": "東十三条南",
    "town_kana": "ヒガシ13ジョウミナミ",
    "street": null,
    "office_name": null,
    "office_name_kana": null
  },
  "0814": {
    "zip_code": "0800814",
    "prefecture": "北海道",
    "prefecture_kana": "ホッカイドウ",
    "prefecture_code": 1,
    "city": "帯広市",
    "city_kana": "オビヒロシ",
    "town": "東十四条南",
    "town_kana": "ヒガシ14ジョウミナミ",
    "street": null,
    "office_name": null,
    "office_name_kana": null
  },
  "0815": {
    "zip_code": "0800815",
    "prefecture": "北海道",
    "prefecture_kana": "ホッカイドウ",
    "prefecture_code": 1,
    "city": "帯広市",
    "city_kana": "オビヒロシ",
    "town": "東十五条南",
    "town_kana": "ヒガシ15ジョウミナミ",
    "street": null,
    "office_name": null,
    "office_name_kana": null
  },
  "0816": {
    "zip_code": "0800816",
    "prefecture": "北海道",
    "prefecture_kana": "ホッカイドウ",
    "prefecture_code": 1,
    "city": "帯広市",
    "city_kana": "オビヒロシ",
    "town": "大川町",
    "town_kana": "オオカワチョウ",
    "street": null,
    "office_name": null,
    "office_name_kana": null
  },
  "0817": {
    "zip_code": "0800817",
    "prefecture": "北海道",
    "prefecture_kana": "ホッカイドウ",
    "prefecture_code": 1,
    "city": "帯広市",
    "city_kana": "オビヒロシ",
    "town": "依田町",
    "town_kana": "ヨダチョウ",
    "street": null,
    "office_name": null,
    "office_name_kana": null
  },
  "0821": {
    "zip_code": "0800821",
    "prefecture": "北海道",
    "prefecture_kana": "ホッカイドウ",
    "prefecture_code": 1,
    "city": "帯広市",
    "city_kana": "オビヒロシ",
    "town": "東一条北",
    "town_kana": "ヒガシ1ジョウキタ",
    "street": null,
    "office_name": null,
    "office_name_kana": null
  },
  "0822": {
    "zip_code": "0800822",
    "prefecture": "北海道",
    "prefecture_kana": "ホッカイドウ",
    "prefecture_code": 1,
    "city": "帯広市",
    "city_kana": "オビヒロシ",
    "town": "東二条北",
    "town_kana": "ヒガシ2ジョウキタ",
    "street": null,
    "office_name": null,
    "office_name_kana": null
  },
  "0823": {
    "zip_code": "0800823",
    "prefecture": "北海道",
    "prefecture_kana": "ホッカイドウ",
    "prefecture_code": 1,
    "city": "帯広市",
    "city_kana": "オビヒロシ",
    "town": "東三条北",
    "town_kana": "ヒガシ3ジョウキタ",
    "street": null,
    "office_name": null,
    "office_name_kana": null
  },
  "0824": {
    "zip_code": "0800824",
    "prefecture": "北海道",
    "prefecture_kana": "ホッカイドウ",
    "prefecture_code": 1,
    "city": "帯広市",
    "city_kana": "オビヒロシ",
    "town": "東四条北",
    "town_kana": "ヒガシ4ジョウキタ",
    "street": null,
    "office_name": null,
    "office_name_kana": null
  },
  "0831": {
    "zip_code": "0800831",
    "prefecture": "北海道",
    "prefecture_kana": "ホッカイドウ",
    "prefecture_code": 1,
    "city": "帯広市",
    "city_kana": "オビヒロシ",
    "town": "稲田町南",
    "town_kana": "イナダチョウミナミ",
    "street": null,
    "office_name": null,
    "office_name_kana": null
  },
  "0832": {
    "zip_code": "0800832",
    "prefecture": "北海道",
    "prefecture_kana": "ホッカイドウ",
    "prefecture_code": 1,
    "city": "帯広市",
    "city_kana": "オビヒロシ",
    "town": "稲田町東",
    "town_kana": "イナダチョウヒガシ",
    "street": null,
    "office_name": null,
    "office_name_kana": null
  },
  "0833": {
    "zip_code": "0800833",
    "prefecture": "北海道",
    "prefecture_kana": "ホッカイドウ",
    "prefecture_code": 1,
    "city": "帯広市",
    "city_kana": "オビヒロシ",
    "town": "稲田町基線",
    "town_kana": "イナダチョウキセン",
    "street": null,
    "office_name": null,
    "office_name_kana": null
  },
  "0834": {
    "zip_code": "0800834",
    "prefecture": "北海道",
    "prefecture_kana": "ホッカイドウ",
    "prefecture_code": 1,
    "city": "帯広市",
    "city_kana": "オビヒロシ",
    "town": "稲田町西",
    "town_kana": "イナダチョウニシ",
    "street": null,
    "office_name": null,
    "office_name_kana": null
  },
  "0835": {
    "zip_code": "0800835",
    "prefecture": "北海道",
    "prefecture_kana": "ホッカイドウ",
    "prefecture_code": 1,
    "city": "帯広市",
    "city_kana": "オビヒロシ",
    "town": "稲田町",
    "town_kana": "イナダチョウ",
    "street": null,
    "office_name": null,
    "office_name_kana": null
  },
  "0836": {
    "zip_code": "0800836",
    "prefecture": "北海道",
    "prefecture_kana": "ホッカイドウ",
    "prefecture_code": 1,
    "city": "帯広市",
    "city_kana": "オビヒロシ",
    "town": "空港南町",
    "town_kana": "クウコウミナミマチ",
    "street": null,
    "office_name": null,
    "office_name_kana": null
  },
  "0837": {
    "zip_code": "0800837",
    "prefecture": "北海道",
    "prefecture_kana": "ホッカイドウ",
    "prefecture_code": 1,
    "city": "帯広市",
    "city_kana": "オビヒロシ",
    "town": "空港南町南",
    "town_kana": "クウコウミナミマチミナミ",
    "street": null,
    "office_name": null,
    "office_name_kana": null
  },
  "0838": {
    "zip_code": "0800838",
    "prefecture": "北海道",
    "prefecture_kana": "ホッカイドウ",
    "prefecture_code": 1,
    "city": "帯広市",
    "city_kana": "オビヒロシ",
    "town": "大空町",
    "town_kana": "オオゾラチョウ",
    "street": null,
    "office_name": null,
    "office_name_kana": null
  },
  "0841": {
    "zip_code": "0800841",
    "prefecture": "北海道",
    "prefecture_kana": "ホッカイドウ",
    "prefecture_code": 1,
    "city": "帯広市",
    "city_kana": "オビヒロシ",
    "town": "緑ケ丘一条通",
    "town_kana": "ミドリガオカ1ジョウドオリ",
    "street": null,
    "office_name": null,
    "office_name_kana": null
  },
  "0842": {
    "zip_code": "0800842",
    "prefecture": "北海道",
    "prefecture_kana": "ホッカイドウ",
    "prefecture_code": 1,
    "city": "帯広市",
    "city_kana": "オビヒロシ",
    "town": "緑ケ丘二条通",
    "town_kana": "ミドリガオカ2ジョウドオリ",
    "street": null,
    "office_name": null,
    "office_name_kana": null
  },
  "0843": {
    "zip_code": "0800843",
    "prefecture": "北海道",
    "prefecture_kana": "ホッカイドウ",
    "prefecture_code": 1,
    "city": "帯広市",
    "city_kana": "オビヒロシ",
    "town": "緑ケ丘三条通",
    "town_kana": "ミドリガオカ3ジョウドオリ",
    "street": null,
    "office_name": null,
    "office_name_kana": null
  },
  "0844": {
    "zip_code": "0800844",
    "prefecture": "北海道",
    "prefecture_kana": "ホッカイドウ",
    "prefecture_code": 1,
    "city": "帯広市",
    "city_kana": "オビヒロシ",
    "town": "緑ケ丘東通東",
    "town_kana": "ミドリガオカヒガシドオリヒガシ",
    "street": null,
    "office_name": null,
    "office_name_kana": null
  },
  "0845": {
    "zip_code": "0800845",
    "prefecture": "北海道",
    "prefecture_kana": "ホッカイドウ",
    "prefecture_code": 1,
    "city": "帯広市",
    "city_kana": "オビヒロシ",
    "town": "緑ケ丘東通西",
    "town_kana": "ミドリガオカヒガシドオリニシ",
    "street": null,
    "office_name": null,
    "office_name_kana": null
  },
  "0846": {
    "zip_code": "0800846",
    "prefecture": "北海道",
    "prefecture_kana": "ホッカイドウ",
    "prefecture_code": 1,
    "city": "帯広市",
    "city_kana": "オビヒロシ",
    "town": "緑ケ丘",
    "town_kana": "ミドリガオカ",
    "street": null,
    "office_name": null,
    "office_name_kana": null
  },
  "0847": {
    "zip_code": "0800847",
    "prefecture": "北海道",
    "prefecture_kana": "ホッカイドウ",
    "prefecture_code": 1,
    "city": "帯広市",
    "city_kana": "オビヒロシ",
    "town": "公園東町",
    "town_kana": "コウエンヒガシマチ",
    "street": null,
    "office_name": null,
    "office_name_kana": null
  },
  "0848": {
    "zip_code": "0800848",
    "prefecture": "北海道",
    "prefecture_kana": "ホッカイドウ",
    "prefecture_code": 1,
    "city": "帯広市",
    "city_kana": "オビヒロシ",
    "town": "自由が丘",
    "town_kana": "ジユウガオカ",
    "street": null,
    "office_name": null,
    "office_name_kana": null
  },
  "0856": {
    "zip_code": "0800856",
    "prefecture": "北海道",
    "prefecture_kana": "ホッカイドウ",
    "prefecture_code": 1,
    "city": "帯広市",
    "city_kana": "オビヒロシ",
    "town": "南町南",
    "town_kana": "ミナミマチミナミ",
    "street": null,
    "office_name": null,
    "office_name_kana": null
  },
  "0857": {
    "zip_code": "0800857",
    "prefecture": "北海道",
    "prefecture_kana": "ホッカイドウ",
    "prefecture_code": 1,
    "city": "帯広市",
    "city_kana": "オビヒロシ",
    "town": "南町",
    "town_kana": "ミナミマチ",
    "street": null,
    "office_name": null,
    "office_name_kana": null
  },
  "0861": {
    "zip_code": "0800861",
    "prefecture": "北海道",
    "prefecture_kana": "ホッカイドウ",
    "prefecture_code": 1,
    "city": "帯広市",
    "city_kana": "オビヒロシ",
    "town": "南の森東",
    "town_kana": "ミナミノモリヒガシ",
    "street": null,
    "office_name": null,
    "office_name_kana": null
  },
  "0862": {
    "zip_code": "0800862",
    "prefecture": "北海道",
    "prefecture_kana": "ホッカイドウ",
    "prefecture_code": 1,
    "city": "帯広市",
    "city_kana": "オビヒロシ",
    "town": "南の森西",
    "town_kana": "ミナミノモリニシ",
    "street": null,
    "office_name": null,
    "office_name_kana": null
  },
  "0871": {
    "zip_code": "0800871",
    "prefecture": "北海道",
    "prefecture_kana": "ホッカイドウ",
    "prefecture_code": 1,
    "city": "帯広市",
    "city_kana": "オビヒロシ",
    "town": "清流東",
    "town_kana": "セイリュウヒガシ",
    "street": null,
    "office_name": null,
    "office_name_kana": null
  },
  "0872": {
    "zip_code": "0800872",
    "prefecture": "北海道",
    "prefecture_kana": "ホッカイドウ",
    "prefecture_code": 1,
    "city": "帯広市",
    "city_kana": "オビヒロシ",
    "town": "清流西",
    "town_kana": "セイリュウニシ",
    "street": null,
    "office_name": null,
    "office_name_kana": null
  },
  "1189": [
    {
      "zip_code": "0801189",
      "prefecture": "北海道",
      "prefecture_kana": "ホッカイドウ",
      "prefecture_code": 1,
      "city": "河東郡士幌町",
      "city_kana": "カトウグンシホロチョウ",
      "town": "共豊",
      "town_kana": "キョウホウ",
      "street": null,
      "office_name": null,
      "office_name_kana": null
    },
    {
      "zip_code": "0801189",
      "prefecture": "北海道",
      "prefecture_kana": "ホッカイドウ",
      "prefecture_code": 1,
      "city": "河東郡士幌町",
      "city_kana": "カトウグンシホロチョウ",
      "town": "士幌",
      "town_kana": "シホロ",
      "street": null,
      "office_name": null,
      "office_name_kana": null
    },
    {
      "zip_code": "0801189",
      "prefecture": "北海道",
      "prefecture_kana": "ホッカイドウ",
      "prefecture_code": 1,
      "city": "河東郡士幌町",
      "city_kana": "カトウグンシホロチョウ",
      "town": "東台",
      "town_kana": "トウダイ",
      "street": null,
      "office_name": null,
      "office_name_kana": null
    },
    {
      "zip_code": "0801189",
      "prefecture": "北海道",
      "prefecture_kana": "ホッカイドウ",
      "prefecture_code": 1,
      "city": "河東郡士幌町",
      "city_kana": "カトウグンシホロチョウ",
      "town": "富秋",
      "town_kana": "トミアキ",
      "street": null,
      "office_name": null,
      "office_name_kana": null
    },
    {
      "zip_code": "0801189",
      "prefecture": "北海道",
      "prefecture_kana": "ホッカイドウ",
      "prefecture_code": 1,
      "city": "河東郡士幌町",
      "city_kana": "カトウグンシホロチョウ",
      "town": "中士幌",
      "town_kana": "ナカシホロ",
      "street": null,
      "office_name": null,
      "office_name_kana": null
    },
    {
      "zip_code": "0801189",
      "prefecture": "北海道",
      "prefecture_kana": "ホッカイドウ",
      "prefecture_code": 1,
      "city": "河東郡士幌町",
      "city_kana": "カトウグンシホロチョウ",
      "town": "中士幌勝和",
      "town_kana": "ナカシホロカツワ",
      "street": null,
      "office_name": null,
      "office_name_kana": null
    },
    {
      "zip_code": "0801189",
      "prefecture": "北海道",
      "prefecture_kana": "ホッカイドウ",
      "prefecture_code": 1,
      "city": "河東郡士幌町",
      "city_kana": "カトウグンシホロチョウ",
      "town": "中士幌北",
      "town_kana": "ナカシホロキタ",
      "street": null,
      "office_name": null,
      "office_name_kana": null
    },
    {
      "zip_code": "0801189",
      "prefecture": "北海道",
      "prefecture_kana": "ホッカイドウ",
      "prefecture_code": 1,
      "city": "河東郡士幌町",
      "city_kana": "カトウグンシホロチョウ",
      "town": "中士幌北団地",
      "town_kana": "ナカシホロキタダンチ",
      "street": null,
      "office_name": null,
      "office_name_kana": null
    },
    {
      "zip_code": "0801189",
      "prefecture": "北海道",
      "prefecture_kana": "ホッカイドウ",
      "prefecture_code": 1,
      "city": "河東郡士幌町",
      "city_kana": "カトウグンシホロチョウ",
      "town": "中士幌共進",
      "town_kana": "ナカシホロキョウシン",
      "street": null,
      "office_name": null,
      "office_name_kana": null
    },
    {
      "zip_code": "0801189",
      "prefecture": "北海道",
      "prefecture_kana": "ホッカイドウ",
      "prefecture_code": 1,
      "city": "河東郡士幌町",
      "city_kana": "カトウグンシホロチョウ",
      "town": "中士幌新東団地",
      "town_kana": "ナカシホロシンヒガシダンチ",
      "street": null,
      "office_name": null,
      "office_name_kana": null
    },
    {
      "zip_code": "0801189",
      "prefecture": "北海道",
      "prefecture_kana": "ホッカイドウ",
      "prefecture_code": 1,
      "city": "河東郡士幌町",
      "city_kana": "カトウグンシホロチョウ",
      "town": "中士幌新南",
      "town_kana": "ナカシホロシンミナミ",
      "street": null,
      "office_name": null,
      "office_name_kana": null
    },
    {
      "zip_code": "0801189",
      "prefecture": "北海道",
      "prefecture_kana": "ホッカイドウ",
      "prefecture_code": 1,
      "city": "河東郡士幌町",
      "city_kana": "カトウグンシホロチョウ",
      "town": "中士幌西",
      "town_kana": "ナカシホロニシ",
      "street": null,
      "office_name": null,
      "office_name_kana": null
    },
    {
      "zip_code": "0801189",
      "prefecture": "北海道",
      "prefecture_kana": "ホッカイドウ",
      "prefecture_code": 1,
      "city": "河東郡士幌町",
      "city_kana": "カトウグンシホロチョウ",
      "town": "中士幌東団地",
      "town_kana": "ナカシホロヒガシダンチ",
      "street": null,
      "office_name": null,
      "office_name_kana": null
    },
    {
      "zip_code": "0801189",
      "prefecture": "北海道",
      "prefecture_kana": "ホッカイドウ",
      "prefecture_code": 1,
      "city": "河東郡士幌町",
      "city_kana": "カトウグンシホロチョウ",
      "town": "中士幌文化",
      "town_kana": "ナカシホロブンカ",
      "street": null,
      "office_name": null,
      "office_name_kana": null
    },
    {
      "zip_code": "0801189",
      "prefecture": "北海道",
      "prefecture_kana": "ホッカイドウ",
      "prefecture_code": 1,
      "city": "河東郡士幌町",
      "city_kana": "カトウグンシホロチョウ",
      "town": "中士幌豊進",
      "town_kana": "ナカシホロホウシン",
      "street": null,
      "office_name": null,
      "office_name_kana": null
    },
    {
      "zip_code": "0801189",
      "prefecture": "北海道",
      "prefecture_kana": "ホッカイドウ",
      "prefecture_code": 1,
      "city": "河東郡士幌町",
      "city_kana": "カトウグンシホロチョウ",
      "town": "中士幌南",
      "town_kana": "ナカシホロミナミ",
      "street": null,
      "office_name": null,
      "office_name_kana": null
    },
    {
      "zip_code": "0801189",
      "prefecture": "北海道",
      "prefecture_kana": "ホッカイドウ",
      "prefecture_code": 1,
      "city": "河東郡士幌町",
      "city_kana": "カトウグンシホロチョウ",
      "town": "中士幌明生",
      "town_kana": "ナカシホロメイセイ",
      "street": null,
      "office_name": null,
      "office_name_kana": null
    }
  ],
  "1200": {
    "zip_code": "0801200",
    "prefecture": "北海道",
    "prefecture_kana": "ホッカイドウ",
    "prefecture_code": 1,
    "city": "河東郡士幌町",
    "city_kana": "カトウグンシホロチョウ",
    "town": "",
    "town_kana": "",
    "street": null,
    "office_name": null,
    "office_name_kana": null
  },
  "1201": {
    "zip_code": "0801201",
    "prefecture": "北海道",
    "prefecture_kana": "ホッカイドウ",
    "prefecture_code": 1,
    "city": "河東郡士幌町",
    "city_kana": "カトウグンシホロチョウ",
    "town": "平原第一",
    "town_kana": "ヘイゲンダイイチ",
    "street": null,
    "office_name": null,
    "office_name_kana": null
  },
  "1202": {
    "zip_code": "0801202",
    "prefecture": "北海道",
    "prefecture_kana": "ホッカイドウ",
    "prefecture_code": 1,
    "city": "河東郡士幌町",
    "city_kana": "カトウグンシホロチョウ",
    "town": "平原",
    "town_kana": "ヘイゲン",
    "street": null,
    "office_name": null,
    "office_name_kana": null
  },
  "1203": {
    "zip_code": "0801203",
    "prefecture": "北海道",
    "prefecture_kana": "ホッカイドウ",
    "prefecture_code": 1,
    "city": "河東郡士幌町",
    "city_kana": "カトウグンシホロチョウ",
    "town": "いこい",
    "town_kana": "イコイ",
    "street": null,
    "office_name": null,
    "office_name_kana": null
  },
  "1204": {
    "zip_code": "0801204",
    "prefecture": "北海道",
    "prefecture_kana": "ホッカイドウ",
    "prefecture_code": 1,
    "city": "河東郡士幌町",
    "city_kana": "カトウグンシホロチョウ",
    "town": "松並",
    "town_kana": "マツナミ",
    "street": null,
    "office_name": null,
    "office_name_kana": null
  },
  "1211": {
    "zip_code": "0801211",
    "prefecture": "北海道",
    "prefecture_kana": "ホッカイドウ",
    "prefecture_code": 1,
    "city": "河東郡士幌町",
    "city_kana": "カトウグンシホロチョウ",
    "town": "若葉第一",
    "town_kana": "ワカバダイイチ",
    "street": null,
    "office_name": null,
    "office_name_kana": null
  },
  "1212": {
    "zip_code": "0801212",
    "prefecture": "北海道",
    "prefecture_kana": "ホッカイドウ",
    "prefecture_code": 1,
    "city": "河東郡士幌町",
    "city_kana": "カトウグンシホロチョウ",
    "town": "若葉東",
    "town_kana": "ワカバヒガシ",
    "street": null,
    "office_name": null,
    "office_name_kana": null
  },
  "1213": {
    "zip_code": "0801213",
    "prefecture": "北海道",
    "prefecture_kana": "ホッカイドウ",
    "prefecture_code": 1,
    "city": "河東郡士幌町",
    "city_kana": "カトウグンシホロチョウ",
    "town": "新生",
    "town_kana": "シンセイ",
    "street": null,
    "office_name": null,
    "office_name_kana": null
  },
  "1214": {
    "zip_code": "0801214",
    "prefecture": "北海道",
    "prefecture_kana": "ホッカイドウ",
    "prefecture_code": 1,
    "city": "河東郡士幌町",
    "city_kana": "カトウグンシホロチョウ",
    "town": "本通",
    "town_kana": "ホンドオリ",
    "street": null,
    "office_name": null,
    "office_name_kana": null
  },
  "1215": {
    "zip_code": "0801215",
    "prefecture": "北海道",
    "prefecture_kana": "ホッカイドウ",
    "prefecture_code": 1,
    "city": "河東郡士幌町",
    "city_kana": "カトウグンシホロチョウ",
    "town": "仲通",
    "town_kana": "ナカドオリ",
    "street": null,
    "office_name": null,
    "office_name_kana": null
  },
  "1216": {
    "zip_code": "0801216",
    "prefecture": "北海道",
    "prefecture_kana": "ホッカイドウ",
    "prefecture_code": 1,
    "city": "河東郡士幌町",
    "city_kana": "カトウグンシホロチョウ",
    "town": "高徳",
    "town_kana": "コウトク",
    "street": null,
    "office_name": null,
    "office_name_kana": null
  },
  "1217": {
    "zip_code": "0801217",
    "prefecture": "北海道",
    "prefecture_kana": "ホッカイドウ",
    "prefecture_code": 1,
    "city": "河東郡士幌町",
    "city_kana": "カトウグンシホロチョウ",
    "town": "若葉",
    "town_kana": "ワカバ",
    "street": null,
    "office_name": null,
    "office_name_kana": null
  },
  "1221": {
    "zip_code": "0801221",
    "prefecture": "北海道",
    "prefecture_kana": "ホッカイドウ",
    "prefecture_code": 1,
    "city": "河東郡士幌町",
    "city_kana": "カトウグンシホロチョウ",
    "town": "互譲",
    "town_kana": "ゴジョウ",
    "street": null,
    "office_name": null,
    "office_name_kana": null
  },
  "1222": {
    "zip_code": "0801222",
    "prefecture": "北海道",
    "prefecture_kana": "ホッカイドウ",
    "prefecture_code": 1,
    "city": "河東郡士幌町",
    "city_kana": "カトウグンシホロチョウ",
    "town": "神苑",
    "town_kana": "シンエン",
    "street": null,
    "office_name": null,
    "office_name_kana": null
  },
  "1223": {
    "zip_code": "0801223",
    "prefecture": "北海道",
    "prefecture_kana": "ホッカイドウ",
    "prefecture_code": 1,
    "city": "河東郡士幌町",
    "city_kana": "カトウグンシホロチョウ",
    "town": "大通",
    "town_kana": "オオドオリ",
    "street": null,
    "office_name": null,
    "office_name_kana": null
  },
  "1224": {
    "zip_code": "0801224",
    "prefecture": "北海道",
    "prefecture_kana": "ホッカイドウ",
    "prefecture_code": 1,
    "city": "河東郡士幌町",
    "city_kana": "カトウグンシホロチョウ",
    "town": "柏葉",
    "town_kana": "ハクヨウ",
    "street": null,
    "office_name": null,
    "office_name_kana": null
  },
  "1225": {
    "zip_code": "0801225",
    "prefecture": "北海道",
    "prefecture_kana": "ホッカイドウ",
    "prefecture_code": 1,
    "city": "河東郡士幌町",
    "city_kana": "カトウグンシホロチョウ",
    "town": "みどり",
    "town_kana": "ミドリ",
    "street": null,
    "office_name": null,
    "office_name_kana": null
  },
  "1226": {
    "zip_code": "0801226",
    "prefecture": "北海道",
    "prefecture_kana": "ホッカイドウ",
    "prefecture_code": 1,
    "city": "河東郡士幌町",
    "city_kana": "カトウグンシホロチョウ",
    "town": "大通西",
    "town_kana": "オオドオリニシ",
    "street": null,
    "office_name": null,
    "office_name_kana": null
  },
  "1227": {
    "zip_code": "0801227",
    "prefecture": "北海道",
    "prefecture_kana": "ホッカイドウ",
    "prefecture_code": 1,
    "city": "河東郡士幌町",
    "city_kana": "カトウグンシホロチョウ",
    "town": "中央",
    "town_kana": "チュウオウ",
    "street": null,
    "office_name": null,
    "office_name_kana": null
  },
  "1231": {
    "zip_code": "0801231",
    "prefecture": "北海道",
    "prefecture_kana": "ホッカイドウ",
    "prefecture_code": 1,
    "city": "河東郡士幌町",
    "city_kana": "カトウグンシホロチョウ",
    "town": "睦",
    "town_kana": "ムツミ",
    "street": null,
    "office_name": null,
    "office_name_kana": null
  },
  "1232": {
    "zip_code": "0801232",
    "prefecture": "北海道",
    "prefecture_kana": "ホッカイドウ",
    "prefecture_code": 1,
    "city": "河東郡士幌町",
    "city_kana": "カトウグンシホロチョウ",
    "town": "睦西",
    "town_kana": "ムツミニシ",
    "street": null,
    "office_name": null,
    "office_name_kana": null
  },
  "1233": {
    "zip_code": "0801233",
    "prefecture": "北海道",
    "prefecture_kana": "ホッカイドウ",
    "prefecture_code": 1,
    "city": "河東郡士幌町",
    "city_kana": "カトウグンシホロチョウ",
    "town": "睦南",
    "town_kana": "ムツミミナミ",
    "street": null,
    "office_name": null,
    "office_name_kana": null
  },
  "1234": {
    "zip_code": "0801234",
    "prefecture": "北海道",
    "prefecture_kana": "ホッカイドウ",
    "prefecture_code": 1,
    "city": "河東郡士幌町",
    "city_kana": "カトウグンシホロチョウ",
    "town": "南団地",
    "town_kana": "ミナミダンチ",
    "street": null,
    "office_name": null,
    "office_name_kana": null
  },
  "1235": {
    "zip_code": "0801235",
    "prefecture": "北海道",
    "prefecture_kana": "ホッカイドウ",
    "prefecture_code": 1,
    "city": "河東郡士幌町",
    "city_kana": "カトウグンシホロチョウ",
    "town": "緑光",
    "town_kana": "リョクコウ",
    "street": null,
    "office_name": null,
    "office_name_kana": null
  },
  "1236": {
    "zip_code": "0801236",
    "prefecture": "北海道",
    "prefecture_kana": "ホッカイドウ",
    "prefecture_code": 1,
    "city": "河東郡士幌町",
    "city_kana": "カトウグンシホロチョウ",
    "town": "美園",
    "town_kana": "ミソノ",
    "street": null,
    "office_name": null,
    "office_name_kana": null
  },
  "1241": {
    "zip_code": "0801241",
    "prefecture": "北海道",
    "prefecture_kana": "ホッカイドウ",
    "prefecture_code": 1,
    "city": "河東郡士幌町",
    "city_kana": "カトウグンシホロチョウ",
    "town": "西居辺北",
    "town_kana": "ニシオリベキタ",
    "street": null,
    "office_name": null,
    "office_name_kana": null
  },
  "1242": {
    "zip_code": "0801242",
    "prefecture": "北海道",
    "prefecture_kana": "ホッカイドウ",
    "prefecture_code": 1,
    "city": "河東郡士幌町",
    "city_kana": "カトウグンシホロチョウ",
    "town": "松室",
    "town_kana": "マツムロ",
    "street": null,
    "office_name": null,
    "office_name_kana": null
  },
  "1243": {
    "zip_code": "0801243",
    "prefecture": "北海道",
    "prefecture_kana": "ホッカイドウ",
    "prefecture_code": 1,
    "city": "河東郡士幌町",
    "city_kana": "カトウグンシホロチョウ",
    "town": "西居辺",
    "town_kana": "ニシオリベ",
    "street": null,
    "office_name": null,
    "office_name_kana": null
  },
  "1244": {
    "zip_code": "0801244",
    "prefecture": "北海道",
    "prefecture_kana": "ホッカイドウ",
    "prefecture_code": 1,
    "city": "河東郡士幌町",
    "city_kana": "カトウグンシホロチョウ",
    "town": "柏",
    "town_kana": "カシワ",
    "street": null,
    "office_name": null,
    "office_name_kana": null
  },
  "1245": {
    "zip_code": "0801245",
    "prefecture": "北海道",
    "prefecture_kana": "ホッカイドウ",
    "prefecture_code": 1,
    "city": "河東郡士幌町",
    "city_kana": "カトウグンシホロチョウ",
    "town": "共成",
    "town_kana": "キョウセイ",
    "street": null,
    "office_name": null,
    "office_name_kana": null
  },
  "1246": [
    {
      "zip_code": "0801246",
      "prefecture": "北海道",
      "prefecture_kana": "ホッカイドウ",
      "prefecture_code": 1,
      "city": "河東郡士幌町",
      "city_kana": "カトウグンシホロチョウ",
      "town": "士幌",
      "town_kana": "シホロ",
      "street": null,
      "office_name": null,
      "office_name_kana": null
    },
    {
      "zip_code": "0801246",
      "prefecture": "北海道",
      "prefecture_kana": "ホッカイドウ",
      "prefecture_code": 1,
      "city": "河東郡士幌町",
      "city_kana": "カトウグンシホロチョウ",
      "town": "士幌北一区",
      "town_kana": "シホロキタ1ク",
      "street": null,
      "office_name": null,
      "office_name_kana": null
    }
  ],
  "1247": {
    "zip_code": "0801247",
    "prefecture": "北海道",
    "prefecture_kana": "ホッカイドウ",
    "prefecture_code": 1,
    "city": "河東郡士幌町",
    "city_kana": "カトウグンシホロチョウ",
    "town": "平和",
    "town_kana": "ヘイワ",
    "street": null,
    "office_name": null,
    "office_name_kana": null
  },
  "1248": {
    "zip_code": "0801248",
    "prefecture": "北海道",
    "prefecture_kana": "ホッカイドウ",
    "prefecture_code": 1,
    "city": "河東郡士幌町",
    "city_kana": "カトウグンシホロチョウ",
    "town": "柏野",
    "town_kana": "カシワノ",
    "street": null,
    "office_name": null,
    "office_name_kana": null
  },
  "1251": {
    "zip_code": "0801251",
    "prefecture": "北海道",
    "prefecture_kana": "ホッカイドウ",
    "prefecture_code": 1,
    "city": "河東郡士幌町",
    "city_kana": "カトウグンシホロチョウ",
    "town": "新盛",
    "town_kana": "シンセイ",
    "street": null,
    "office_name": null,
    "office_name_kana": null
  },
  "1252": {
    "zip_code": "0801252",
    "prefecture": "北海道",
    "prefecture_kana": "ホッカイドウ",
    "prefecture_code": 1,
    "city": "河東郡士幌町",
    "city_kana": "カトウグンシホロチョウ",
    "town": "豊年",
    "town_kana": "ホウネン",
    "street": null,
    "office_name": null,
    "office_name_kana": null
  },
  "1253": {
    "zip_code": "0801253",
    "prefecture": "北海道",
    "prefecture_kana": "ホッカイドウ",
    "prefecture_code": 1,
    "city": "河東郡士幌町",
    "city_kana": "カトウグンシホロチョウ",
    "town": "士幌",
    "town_kana": "シホロ",
    "street": null,
    "office_name": null,
    "office_name_kana": null
  },
  "1254": [
    {
      "zip_code": "0801254",
      "prefecture": "北海道",
      "prefecture_kana": "ホッカイドウ",
      "prefecture_code": 1,
      "city": "河東郡士幌町",
      "city_kana": "カトウグンシホロチョウ",
      "town": "士幌",
      "town_kana": "シホロ",
      "street": null,
      "office_name": null,
      "office_name_kana": null
    },
    {
      "zip_code": "0801254",
      "prefecture": "北海道",
      "prefecture_kana": "ホッカイドウ",
      "prefecture_code": 1,
      "city": "河東郡士幌町",
      "city_kana": "カトウグンシホロチョウ",
      "town": "士幌南旭区",
      "town_kana": "シホロミナミアサヒク",
      "street": null,
      "office_name": null,
      "office_name_kana": null
    }
  ],
  "1255": {
    "zip_code": "0801255",
    "prefecture": "北海道",
    "prefecture_kana": "ホッカイドウ",
    "prefecture_code": 1,
    "city": "河東郡士幌町",
    "city_kana": "カトウグンシホロチョウ",
    "town": "新光",
    "town_kana": "シンコウ",
    "street": null,
    "office_name": null,
    "office_name_kana": null
  },
  "1256": {
    "zip_code": "0801256",
    "prefecture": "北海道",
    "prefecture_kana": "ホッカイドウ",
    "prefecture_code": 1,
    "city": "河東郡士幌町",
    "city_kana": "カトウグンシホロチョウ",
    "town": "佐倉",
    "town_kana": "サクラ",
    "street": null,
    "office_name": null,
    "office_name_kana": null
  },
  "1257": {
    "zip_code": "0801257",
    "prefecture": "北海道",
    "prefecture_kana": "ホッカイドウ",
    "prefecture_code": 1,
    "city": "河東郡士幌町",
    "city_kana": "カトウグンシホロチョウ",
    "town": "双葉",
    "town_kana": "フタバ",
    "street": null,
    "office_name": null,
    "office_name_kana": null
  },
  "1261": {
    "zip_code": "0801261",
    "prefecture": "北海道",
    "prefecture_kana": "ホッカイドウ",
    "prefecture_code": 1,
    "city": "河東郡士幌町",
    "city_kana": "カトウグンシホロチョウ",
    "town": "西士幌",
    "town_kana": "ニシシホロ",
    "street": null,
    "office_name": null,
    "office_name_kana": null
  },
  "1262": {
    "zip_code": "0801262",
    "prefecture": "北海道",
    "prefecture_kana": "ホッカイドウ",
    "prefecture_code": 1,
    "city": "河東郡士幌町",
    "city_kana": "カトウグンシホロチョウ",
    "town": "常盤",
    "town_kana": "トキワ",
    "street": null,
    "office_name": null,
    "office_name_kana": null
  },
  "1263": {
    "zip_code": "0801263",
    "prefecture": "北海道",
    "prefecture_kana": "ホッカイドウ",
    "prefecture_code": 1,
    "city": "河東郡士幌町",
    "city_kana": "カトウグンシホロチョウ",
    "town": "吉野",
    "town_kana": "ヨシノ",
    "street": null,
    "office_name": null,
    "office_name_kana": null
  },
  "1264": {
    "zip_code": "0801264",
    "prefecture": "北海道",
    "prefecture_kana": "ホッカイドウ",
    "prefecture_code": 1,
    "city": "河東郡士幌町",
    "city_kana": "カトウグンシホロチョウ",
    "town": "西吉野",
    "town_kana": "ニシヨシノ",
    "street": null,
    "office_name": null,
    "office_name_kana": null
  },
  "1265": {
    "zip_code": "0801265",
    "prefecture": "北海道",
    "prefecture_kana": "ホッカイドウ",
    "prefecture_code": 1,
    "city": "河東郡士幌町",
    "city_kana": "カトウグンシホロチョウ",
    "town": "新栄",
    "town_kana": "シンエイ",
    "street": null,
    "office_name": null,
    "office_name_kana": null
  },
  "1266": {
    "zip_code": "0801266",
    "prefecture": "北海道",
    "prefecture_kana": "ホッカイドウ",
    "prefecture_code": 1,
    "city": "河東郡士幌町",
    "city_kana": "カトウグンシホロチョウ",
    "town": "新田",
    "town_kana": "ニツタ",
    "street": null,
    "office_name": null,
    "office_name_kana": null
  },
  "1267": {
    "zip_code": "0801267",
    "prefecture": "北海道",
    "prefecture_kana": "ホッカイドウ",
    "prefecture_code": 1,
    "city": "河東郡士幌町",
    "city_kana": "カトウグンシホロチョウ",
    "town": "共立",
    "town_kana": "キョウリツ",
    "street": null,
    "office_name": null,
    "office_name_kana": null
  },
  "1271": {
    "zip_code": "0801271",
    "prefecture": "北海道",
    "prefecture_kana": "ホッカイドウ",
    "prefecture_code": 1,
    "city": "河東郡士幌町",
    "city_kana": "カトウグンシホロチョウ",
    "town": "西上",
    "town_kana": "ニシカミ",
    "street": null,
    "office_name": null,
    "office_name_kana": null
  },
  "1272": {
    "zip_code": "0801272",
    "prefecture": "北海道",
    "prefecture_kana": "ホッカイドウ",
    "prefecture_code": 1,
    "city": "河東郡士幌町",
    "city_kana": "カトウグンシホロチョウ",
    "town": "百戸",
    "town_kana": "ヒャッコ",
    "street": null,
    "office_name": null,
    "office_name_kana": null
  },
  "1273": {
    "zip_code": "0801273",
    "prefecture": "北海道",
    "prefecture_kana": "ホッカイドウ",
    "prefecture_code": 1,
    "city": "河東郡士幌町",
    "city_kana": "カトウグンシホロチョウ",
    "town": "中音更",
    "town_kana": "ナカオトフケ",
    "street": null,
    "office_name": null,
    "office_name_kana": null
  },
  "1274": {
    "zip_code": "0801274",
    "prefecture": "北海道",
    "prefecture_kana": "ホッカイドウ",
    "prefecture_code": 1,
    "city": "河東郡士幌町",
    "city_kana": "カトウグンシホロチョウ",
    "town": "共益",
    "town_kana": "キョウエキ",
    "street": null,
    "office_name": null,
    "office_name_kana": null
  },
  "1275": {
    "zip_code": "0801275",
    "prefecture": "北海道",
    "prefecture_kana": "ホッカイドウ",
    "prefecture_code": 1,
    "city": "河東郡士幌町",
    "city_kana": "カトウグンシホロチョウ",
    "town": "コマクサ",
    "town_kana": "コマクサ",
    "street": null,
    "office_name": null,
    "office_name_kana": null
  },
  "1276": {
    "zip_code": "0801276",
    "prefecture": "北海道",
    "prefecture_kana": "ホッカイドウ",
    "prefecture_code": 1,
    "city": "河東郡士幌町",
    "city_kana": "カトウグンシホロチョウ",
    "town": "新田第一",
    "town_kana": "ニッタダイイチ",
    "street": null,
    "office_name": null,
    "office_name_kana": null
  },
  "1277": {
    "zip_code": "0801277",
    "prefecture": "北海道",
    "prefecture_kana": "ホッカイドウ",
    "prefecture_code": 1,
    "city": "河東郡士幌町",
    "city_kana": "カトウグンシホロチョウ",
    "town": "新田第二",
    "town_kana": "ニッタダイニ",
    "street": null,
    "office_name": null,
    "office_name_kana": null
  },
  "1278": {
    "zip_code": "0801278",
    "prefecture": "北海道",
    "prefecture_kana": "ホッカイドウ",
    "prefecture_code": 1,
    "city": "河東郡士幌町",
    "city_kana": "カトウグンシホロチョウ",
    "town": "栄進",
    "town_kana": "エイシン",
    "street": null,
    "office_name": null,
    "office_name_kana": null
  },
  "1281": {
    "zip_code": "0801281",
    "prefecture": "北海道",
    "prefecture_kana": "ホッカイドウ",
    "prefecture_code": 1,
    "city": "河東郡士幌町",
    "city_kana": "カトウグンシホロチョウ",
    "town": "朝陽",
    "town_kana": "チョウヨウ",
    "street": null,
    "office_name": null,
    "office_name_kana": null
  },
  "1282": {
    "zip_code": "0801282",
    "prefecture": "北海道",
    "prefecture_kana": "ホッカイドウ",
    "prefecture_code": 1,
    "city": "河東郡士幌町",
    "city_kana": "カトウグンシホロチョウ",
    "town": "友愛",
    "town_kana": "ユウアイ",
    "street": null,
    "office_name": null,
    "office_name_kana": null
  },
  "1283": {
    "zip_code": "0801283",
    "prefecture": "北海道",
    "prefecture_kana": "ホッカイドウ",
    "prefecture_code": 1,
    "city": "河東郡士幌町",
    "city_kana": "カトウグンシホロチョウ",
    "town": "高砂",
    "town_kana": "タカサゴ",
    "street": null,
    "office_name": null,
    "office_name_kana": null
  },
  "1284": {
    "zip_code": "0801284",
    "prefecture": "北海道",
    "prefecture_kana": "ホッカイドウ",
    "prefecture_code": 1,
    "city": "河東郡士幌町",
    "city_kana": "カトウグンシホロチョウ",
    "town": "清澄",
    "town_kana": "キヨズミ",
    "street": null,
    "office_name": null,
    "office_name_kana": null
  },
  "1285": {
    "zip_code": "0801285",
    "prefecture": "北海道",
    "prefecture_kana": "ホッカイドウ",
    "prefecture_code": 1,
    "city": "河東郡士幌町",
    "city_kana": "カトウグンシホロチョウ",
    "town": "下居辺",
    "town_kana": "シモオリベ",
    "street": null,
    "office_name": null,
    "office_name_kana": null
  },
  "1286": {
    "zip_code": "0801286",
    "prefecture": "北海道",
    "prefecture_kana": "ホッカイドウ",
    "prefecture_code": 1,
    "city": "河東郡士幌町",
    "city_kana": "カトウグンシホロチョウ",
    "town": "開運",
    "town_kana": "カイウン",
    "street": null,
    "office_name": null,
    "office_name_kana": null
  },
  "1287": {
    "zip_code": "0801287",
    "prefecture": "北海道",
    "prefecture_kana": "ホッカイドウ",
    "prefecture_code": 1,
    "city": "河東郡士幌町",
    "city_kana": "カトウグンシホロチョウ",
    "town": "北開",
    "town_kana": "ホッカイ",
    "street": null,
    "office_name": null,
    "office_name_kana": null
  },
  "1288": {
    "zip_code": "0801288",
    "prefecture": "北海道",
    "prefecture_kana": "ホッカイドウ",
    "prefecture_code": 1,
    "city": "河東郡士幌町",
    "city_kana": "カトウグンシホロチョウ",
    "town": "北上居辺",
    "town_kana": "キタカミオリベ",
    "street": null,
    "office_name": null,
    "office_name_kana": null
  },
  "1400": {
    "zip_code": "0801400",
    "prefecture": "北海道",
    "prefecture_kana": "ホッカイドウ",
    "prefecture_code": 1,
    "city": "河東郡上士幌町",
    "city_kana": "カトウグンカミシホロチョウ",
    "town": "",
    "town_kana": "",
    "street": null,
    "office_name": null,
    "office_name_kana": null
  },
  "1401": {
    "zip_code": "0801401",
    "prefecture": "北海道",
    "prefecture_kana": "ホッカイドウ",
    "prefecture_code": 1,
    "city": "河東郡上士幌町",
    "city_kana": "カトウグンカミシホロチョウ",
    "town": "三股",
    "town_kana": "ミツマタ",
    "street": null,
    "office_name": null,
    "office_name_kana": null
  },
  "1402": {
    "zip_code": "0801402",
    "prefecture": "北海道",
    "prefecture_kana": "ホッカイドウ",
    "prefecture_code": 1,
    "city": "河東郡上士幌町",
    "city_kana": "カトウグンカミシホロチョウ",
    "town": "幌加",
    "town_kana": "ホロカ",
    "street": null,
    "office_name": null,
    "office_name_kana": null
  },
  "1403": {
    "zip_code": "0801403",
    "prefecture": "北海道",
    "prefecture_kana": "ホッカイドウ",
    "prefecture_code": 1,
    "city": "河東郡上士幌町",
    "city_kana": "カトウグンカミシホロチョウ",
    "town": "ぬかびら源泉郷",
    "town_kana": "ヌカビラゲンセンキョウ",
    "street": null,
    "office_name": null,
    "office_name_kana": null
  },
  "1404": {
    "zip_code": "0801404",
    "prefecture": "北海道",
    "prefecture_kana": "ホッカイドウ",
    "prefecture_code": 1,
    "city": "河東郡上士幌町",
    "city_kana": "カトウグンカミシホロチョウ",
    "town": "黒石平",
    "town_kana": "クロイシダイラ",
    "street": null,
    "office_name": null,
    "office_name_kana": null
  },
  "1405": {
    "zip_code": "0801405",
    "prefecture": "北海道",
    "prefecture_kana": "ホッカイドウ",
    "prefecture_code": 1,
    "city": "河東郡上士幌町",
    "city_kana": "カトウグンカミシホロチョウ",
    "town": "清水谷",
    "town_kana": "シミズダニ",
    "street": null,
    "office_name": null,
    "office_name_kana": null
  },
  "1406": {
    "zip_code": "0801406",
    "prefecture": "北海道",
    "prefecture_kana": "ホッカイドウ",
    "prefecture_code": 1,
    "city": "河東郡上士幌町",
    "city_kana": "カトウグンカミシホロチョウ",
    "town": "居辺",
    "town_kana": "オリベ",
    "street": null,
    "office_name": null,
    "office_name_kana": null
  },
  "1407": {
    "zip_code": "0801407",
    "prefecture": "北海道",
    "prefecture_kana": "ホッカイドウ",
    "prefecture_code": 1,
    "city": "河東郡上士幌町",
    "city_kana": "カトウグンカミシホロチョウ",
    "town": "上音更",
    "town_kana": "カミオトフケ",
    "street": null,
    "office_name": null,
    "office_name_kana": null
  },
  "1408": {
    "zip_code": "0801408",
    "prefecture": "北海道",
    "prefecture_kana": "ホッカイドウ",
    "prefecture_code": 1,
    "city": "河東郡上士幌町",
    "city_kana": "カトウグンカミシホロチョウ",
    "town": "上士幌",
    "town_kana": "カミシホロ",
    "street": null,
    "office_name": null,
    "office_name_kana": null
  },
  "1492": {
    "zip_code": "0801492",
    "prefecture": "北海道",
    "prefecture_kana": "ホッカイドウ",
    "prefecture_code": 1,
    "city": "河東郡上士幌町",
    "city_kana": "カトウグンカミシホロチョウ",
    "town": "",
    "town_kana": "",
    "street": "東３線２３８番地（上士幌郵便局私書箱第１号）（上士幌郵便局私書箱第２号）",
    "office_name": "上士幌町役場",
    "office_name_kana": "カミシホロチヨウヤクバ"
  },
  "1493": {
    "zip_code": "0801493",
    "prefecture": "北海道",
    "prefecture_kana": "ホッカイドウ",
    "prefecture_code": 1,
    "city": "河東郡上士幌町",
    "city_kana": "カトウグンカミシホロチョウ",
    "town": "",
    "town_kana": "",
    "street": "東２線２３８番地（上士幌郵便局私書箱第３号）",
    "office_name": "上士幌町農業協同組合",
    "office_name_kana": "カミシホロチヨウノウギヨウキヨウドウクミアイ"
  },
  "2101": {
    "zip_code": "0802101",
    "prefecture": "北海道",
    "prefecture_kana": "ホッカイドウ",
    "prefecture_code": 1,
    "city": "帯広市",
    "city_kana": "オビヒロシ",
    "town": "清川町",
    "town_kana": "キヨカワチョウ",
    "street": null,
    "office_name": null,
    "office_name_kana": null
  },
  "2102": {
    "zip_code": "0802102",
    "prefecture": "北海道",
    "prefecture_kana": "ホッカイドウ",
    "prefecture_code": 1,
    "city": "帯広市",
    "city_kana": "オビヒロシ",
    "town": "清川町基線",
    "town_kana": "キヨカワチョウキセン",
    "street": null,
    "office_name": null,
    "office_name_kana": null
  },
  "2103": {
    "zip_code": "0802103",
    "prefecture": "北海道",
    "prefecture_kana": "ホッカイドウ",
    "prefecture_code": 1,
    "city": "帯広市",
    "city_kana": "オビヒロシ",
    "town": "清川町西",
    "town_kana": "キヨカワチョウニシ",
    "street": null,
    "office_name": null,
    "office_name_kana": null
  },
  "2104": {
    "zip_code": "0802104",
    "prefecture": "北海道",
    "prefecture_kana": "ホッカイドウ",
    "prefecture_code": 1,
    "city": "帯広市",
    "city_kana": "オビヒロシ",
    "town": "清川町東",
    "town_kana": "キヨカワチョウヒガシ",
    "street": null,
    "office_name": null,
    "office_name_kana": null
  },
  "2105": {
    "zip_code": "0802105",
    "prefecture": "北海道",
    "prefecture_kana": "ホッカイドウ",
    "prefecture_code": 1,
    "city": "帯広市",
    "city_kana": "オビヒロシ",
    "town": "太平町",
    "town_kana": "タイヘイチョウ",
    "street": null,
    "office_name": null,
    "office_name_kana": null
  },
  "2106": {
    "zip_code": "0802106",
    "prefecture": "北海道",
    "prefecture_kana": "ホッカイドウ",
    "prefecture_code": 1,
    "city": "帯広市",
    "city_kana": "オビヒロシ",
    "town": "美栄町",
    "town_kana": "ビエイチョウ",
    "street": null,
    "office_name": null,
    "office_name_kana": null
  },
  "2111": {
    "zip_code": "0802111",
    "prefecture": "北海道",
    "prefecture_kana": "ホッカイドウ",
    "prefecture_code": 1,
    "city": "帯広市",
    "city_kana": "オビヒロシ",
    "town": "上清川町",
    "town_kana": "カミキヨカワチョウ",
    "street": null,
    "office_name": null,
    "office_name_kana": null
  },
  "2112": {
    "zip_code": "0802112",
    "prefecture": "北海道",
    "prefecture_kana": "ホッカイドウ",
    "prefecture_code": 1,
    "city": "帯広市",
    "city_kana": "オビヒロシ",
    "town": "上清川町基線",
    "town_kana": "カミキヨカワチョウキセン",
    "street": null,
    "office_name": null,
    "office_name_kana": null
  },
  "2113": {
    "zip_code": "0802113",
    "prefecture": "北海道",
    "prefecture_kana": "ホッカイドウ",
    "prefecture_code": 1,
    "city": "帯広市",
    "city_kana": "オビヒロシ",
    "town": "上清川町西",
    "town_kana": "カミキヨカワチョウニシ",
    "street": null,
    "office_name": null,
    "office_name_kana": null
  },
  "2114": {
    "zip_code": "0802114",
    "prefecture": "北海道",
    "prefecture_kana": "ホッカイドウ",
    "prefecture_code": 1,
    "city": "帯広市",
    "city_kana": "オビヒロシ",
    "town": "上清川町東",
    "town_kana": "カミキヨカワチョウヒガシ",
    "street": null,
    "office_name": null,
    "office_name_kana": null
  },
  "2115": {
    "zip_code": "0802115",
    "prefecture": "北海道",
    "prefecture_kana": "ホッカイドウ",
    "prefecture_code": 1,
    "city": "帯広市",
    "city_kana": "オビヒロシ",
    "town": "清川町仲通",
    "town_kana": "キヨカワチョウナカドオリ",
    "street": null,
    "office_name": null,
    "office_name_kana": null
  },
  "2116": {
    "zip_code": "0802116",
    "prefecture": "北海道",
    "prefecture_kana": "ホッカイドウ",
    "prefecture_code": 1,
    "city": "帯広市",
    "city_kana": "オビヒロシ",
    "town": "清川町本通",
    "town_kana": "キヨカワチョウホンドオリ",
    "street": null,
    "office_name": null,
    "office_name_kana": null
  },
  "2117": {
    "zip_code": "0802117",
    "prefecture": "北海道",
    "prefecture_kana": "ホッカイドウ",
    "prefecture_code": 1,
    "city": "帯広市",
    "city_kana": "オビヒロシ",
    "town": "太平町西",
    "town_kana": "タイヘイチョウニシ",
    "street": null,
    "office_name": null,
    "office_name_kana": null
  },
  "2121": {
    "zip_code": "0802121",
    "prefecture": "北海道",
    "prefecture_kana": "ホッカイドウ",
    "prefecture_code": 1,
    "city": "帯広市",
    "city_kana": "オビヒロシ",
    "town": "岩内町",
    "town_kana": "イワナイチョウ",
    "street": null,
    "office_name": null,
    "office_name_kana": null
  },
  "2122": {
    "zip_code": "0802122",
    "prefecture": "北海道",
    "prefecture_kana": "ホッカイドウ",
    "prefecture_code": 1,
    "city": "帯広市",
    "city_kana": "オビヒロシ",
    "town": "岩内町第１基線",
    "town_kana": "イワナイチョウダイ1キセン",
    "street": null,
    "office_name": null,
    "office_name_kana": null
  },
  "2123": {
    "zip_code": "0802123",
    "prefecture": "北海道",
    "prefecture_kana": "ホッカイドウ",
    "prefecture_code": 1,
    "city": "帯広市",
    "city_kana": "オビヒロシ",
    "town": "岩内町西",
    "town_kana": "イワナイチョウニシ",
    "street": null,
    "office_name": null,
    "office_name_kana": null
  },
  "2124": {
    "zip_code": "0802124",
    "prefecture": "北海道",
    "prefecture_kana": "ホッカイドウ",
    "prefecture_code": 1,
    "city": "帯広市",
    "city_kana": "オビヒロシ",
    "town": "岩内町東",
    "town_kana": "イワナイチョウヒガシ",
    "street": null,
    "office_name": null,
    "office_name_kana": null
  },
  "2331": {
    "zip_code": "0802331",
    "prefecture": "北海道",
    "prefecture_kana": "ホッカイドウ",
    "prefecture_code": 1,
    "city": "帯広市",
    "city_kana": "オビヒロシ",
    "town": "基松町",
    "town_kana": "モトイマツチョウ",
    "street": null,
    "office_name": null,
    "office_name_kana": null
  },
  "2332": {
    "zip_code": "0802332",
    "prefecture": "北海道",
    "prefecture_kana": "ホッカイドウ",
    "prefecture_code": 1,
    "city": "帯広市",
    "city_kana": "オビヒロシ",
    "town": "富士町",
    "town_kana": "フジチョウ",
    "street": null,
    "office_name": null,
    "office_name_kana": null
  },
  "2333": {
    "zip_code": "0802333",
    "prefecture": "北海道",
    "prefecture_kana": "ホッカイドウ",
    "prefecture_code": 1,
    "city": "帯広市",
    "city_kana": "オビヒロシ",
    "town": "美栄町",
    "town_kana": "ビエイチョウ",
    "street": null,
    "office_name": null,
    "office_name_kana": null
  },
  "2334": {
    "zip_code": "0802334",
    "prefecture": "北海道",
    "prefecture_kana": "ホッカイドウ",
    "prefecture_code": 1,
    "city": "帯広市",
    "city_kana": "オビヒロシ",
    "town": "上帯広町",
    "town_kana": "カミオビヒロチョウ",
    "street": null,
    "office_name": null,
    "office_name_kana": null
  },
  "2335": {
    "zip_code": "0802335",
    "prefecture": "北海道",
    "prefecture_kana": "ホッカイドウ",
    "prefecture_code": 1,
    "city": "帯広市",
    "city_kana": "オビヒロシ",
    "town": "広野町",
    "town_kana": "ヒロノチョウ",
    "street": null,
    "office_name": null,
    "office_name_kana": null
  },
  "2336": {
    "zip_code": "0802336",
    "prefecture": "北海道",
    "prefecture_kana": "ホッカイドウ",
    "prefecture_code": 1,
    "city": "帯広市",
    "city_kana": "オビヒロシ",
    "town": "八千代町",
    "town_kana": "ヤチヨチョウ",
    "street": null,
    "office_name": null,
    "office_name_kana": null
  },
  "2337": {
    "zip_code": "0802337",
    "prefecture": "北海道",
    "prefecture_kana": "ホッカイドウ",
    "prefecture_code": 1,
    "city": "帯広市",
    "city_kana": "オビヒロシ",
    "town": "拓成町",
    "town_kana": "タクセイチョウ",
    "street": null,
    "office_name": null,
    "office_name_kana": null
  },
  "2459": {
    "zip_code": "0802459",
    "prefecture": "北海道",
    "prefecture_kana": "ホッカイドウ",
    "prefecture_code": 1,
    "city": "帯広市",
    "city_kana": "オビヒロシ",
    "town": "西十九条北",
    "town_kana": "ニシ19ジョウキタ",
    "street": null,
    "office_name": null,
    "office_name_kana": null
  },
  "2460": {
    "zip_code": "0802460",
    "prefecture": "北海道",
    "prefecture_kana": "ホッカイドウ",
    "prefecture_code": 1,
    "city": "帯広市",
    "city_kana": "オビヒロシ",
    "town": "西二十条北",
    "town_kana": "ニシ20ジョウキタ",
    "street": null,
    "office_name": null,
    "office_name_kana": null
  },
  "2461": {
    "zip_code": "0802461",
    "prefecture": "北海道",
    "prefecture_kana": "ホッカイドウ",
    "prefecture_code": 1,
    "city": "帯広市",
    "city_kana": "オビヒロシ",
    "town": "西二十一条北",
    "town_kana": "ニシ21ジョウキタ",
    "street": null,
    "office_name": null,
    "office_name_kana": null
  },
  "2462": {
    "zip_code": "0802462",
    "prefecture": "北海道",
    "prefecture_kana": "ホッカイドウ",
    "prefecture_code": 1,
    "city": "帯広市",
    "city_kana": "オビヒロシ",
    "town": "西二十二条北",
    "town_kana": "ニシ22ジョウキタ",
    "street": null,
    "office_name": null,
    "office_name_kana": null
  },
  "2463": {
    "zip_code": "0802463",
    "prefecture": "北海道",
    "prefecture_kana": "ホッカイドウ",
    "prefecture_code": 1,
    "city": "帯広市",
    "city_kana": "オビヒロシ",
    "town": "西二十三条北",
    "town_kana": "ニシ23ジョウキタ",
    "street": null,
    "office_name": null,
    "office_name_kana": null
  },
  "2464": {
    "zip_code": "0802464",
    "prefecture": "北海道",
    "prefecture_kana": "ホッカイドウ",
    "prefecture_code": 1,
    "city": "帯広市",
    "city_kana": "オビヒロシ",
    "town": "西二十四条北",
    "town_kana": "ニシ24ジョウキタ",
    "street": null,
    "office_name": null,
    "office_name_kana": null
  },
  "2465": {
    "zip_code": "0802465",
    "prefecture": "北海道",
    "prefecture_kana": "ホッカイドウ",
    "prefecture_code": 1,
    "city": "帯広市",
    "city_kana": "オビヒロシ",
    "town": "西二十五条北",
    "town_kana": "ニシ25ジョウキタ",
    "street": null,
    "office_name": null,
    "office_name_kana": null
  },
  "2469": {
    "zip_code": "0802469",
    "prefecture": "北海道",
    "prefecture_kana": "ホッカイドウ",
    "prefecture_code": 1,
    "city": "帯広市",
    "city_kana": "オビヒロシ",
    "town": "西十九条南",
    "town_kana": "ニシ19ジョウミナミ",
    "street": null,
    "office_name": null,
    "office_name_kana": null
  },
  "2470": {
    "zip_code": "0802470",
    "prefecture": "北海道",
    "prefecture_kana": "ホッカイドウ",
    "prefecture_code": 1,
    "city": "帯広市",
    "city_kana": "オビヒロシ",
    "town": "西二十条南",
    "town_kana": "ニシ20ジョウミナミ",
    "street": null,
    "office_name": null,
    "office_name_kana": null
  },
  "2471": {
    "zip_code": "0802471",
    "prefecture": "北海道",
    "prefecture_kana": "ホッカイドウ",
    "prefecture_code": 1,
    "city": "帯広市",
    "city_kana": "オビヒロシ",
    "town": "西二十一条南",
    "town_kana": "ニシ21ジョウミナミ",
    "street": null,
    "office_name": null,
    "office_name_kana": null
  },
  "2472": {
    "zip_code": "0802472",
    "prefecture": "北海道",
    "prefecture_kana": "ホッカイドウ",
    "prefecture_code": 1,
    "city": "帯広市",
    "city_kana": "オビヒロシ",
    "town": "西二十二条南",
    "town_kana": "ニシ22ジョウミナミ",
    "street": null,
    "office_name": null,
    "office_name_kana": null
  },
  "2473": {
    "zip_code": "0802473",
    "prefecture": "北海道",
    "prefecture_kana": "ホッカイドウ",
    "prefecture_code": 1,
    "city": "帯広市",
    "city_kana": "オビヒロシ",
    "town": "西二十三条南",
    "town_kana": "ニシ23ジョウミナミ",
    "street": null,
    "office_name": null,
    "office_name_kana": null
  },
  "2474": {
    "zip_code": "0802474",
    "prefecture": "北海道",
    "prefecture_kana": "ホッカイドウ",
    "prefecture_code": 1,
    "city": "帯広市",
    "city_kana": "オビヒロシ",
    "town": "西二十四条南",
    "town_kana": "ニシ24ジョウミナミ",
    "street": null,
    "office_name": null,
    "office_name_kana": null
  },
  "2475": {
    "zip_code": "0802475",
    "prefecture": "北海道",
    "prefecture_kana": "ホッカイドウ",
    "prefecture_code": 1,
    "city": "帯広市",
    "city_kana": "オビヒロシ",
    "town": "西二十五条南",
    "town_kana": "ニシ25ジョウミナミ",
    "street": null,
    "office_name": null,
    "office_name_kana": null
  },
  "2476": {
    "zip_code": "0802476",
    "prefecture": "北海道",
    "prefecture_kana": "ホッカイドウ",
    "prefecture_code": 1,
    "city": "帯広市",
    "city_kana": "オビヒロシ",
    "town": "自由が丘",
    "town_kana": "ジユウガオカ",
    "street": null,
    "office_name": null,
    "office_name_kana": null
  },
  "2492": {
    "zip_code": "0802492",
    "prefecture": "北海道",
    "prefecture_kana": "ホッカイドウ",
    "prefecture_code": 1,
    "city": "帯広市",
    "city_kana": "オビヒロシ",
    "town": "西二十一条北",
    "town_kana": "ニシ21ジョウキタ",
    "street": "１丁目５−１（西帯広郵便局私書箱第１号）",
    "office_name": "帯広地方卸売市場　株式会社",
    "office_name_kana": "オビヒロチホウオロシウリシジヨウ カブシキガイシヤ"
  },
  "2493": {
    "zip_code": "0802493",
    "prefecture": "北海道",
    "prefecture_kana": "ホッカイドウ",
    "prefecture_code": 1,
    "city": "帯広市",
    "city_kana": "オビヒロシ",
    "town": "西二十五条北",
    "town_kana": "ニシ25ジョウキタ",
    "street": "１丁目２番１号",
    "office_name": "パナソニックデバイス帯広　（株）",
    "office_name_kana": "パナソニツクデバイスオビヒロ カブシキガイシヤ"
  },
  "2495": {
    "zip_code": "0802495",
    "prefecture": "北海道",
    "prefecture_kana": "ホッカイドウ",
    "prefecture_code": 1,
    "city": "帯広市",
    "city_kana": "オビヒロシ",
    "town": "西十九条北",
    "town_kana": "ニシ19ジョウキタ",
    "street": "１丁目１番１０号",
    "office_name": "帯広三菱ふそう自動車販売　（株）",
    "office_name_kana": "オビヒロミツビシフソウジドウシヤハンバイ カブシキガイシヤ"
  },
  "2496": {
    "zip_code": "0802496",
    "prefecture": "北海道",
    "prefecture_kana": "ホッカイドウ",
    "prefecture_code": 1,
    "city": "帯広市",
    "city_kana": "オビヒロシ",
    "town": "西二十四条北",
    "town_kana": "ニシ24ジョウキタ",
    "street": "１丁目３番１９号",
    "office_name": "六花亭製菓　株式会社",
    "office_name_kana": "ロツカテイセイカ カブシキガイシヤ"
  },
  "2497": {
    "zip_code": "0802497",
    "prefecture": "北海道",
    "prefecture_kana": "ホッカイドウ",
    "prefecture_code": 1,
    "city": "帯広市",
    "city_kana": "オビヒロシ",
    "town": "西十九条北",
    "town_kana": "ニシ19ジョウキタ",
    "street": "１丁目７番６号",
    "office_name": "東北海道日野自動車　株式会社",
    "office_name_kana": "ヒガシホツカイドウヒノジドウシヤ カブシキカイシヤ"
  },
  "2498": {
    "zip_code": "0802498",
    "prefecture": "北海道",
    "prefecture_kana": "ホッカイドウ",
    "prefecture_code": 1,
    "city": "帯広市",
    "city_kana": "オビヒロシ",
    "town": "西二十二条北",
    "town_kana": "ニシ22ジョウキタ",
    "street": "１丁目１３番地",
    "office_name": "（株）　福原",
    "office_name_kana": "カブシキガイシヤ フクハラ"
  },
  "8501": {
    "zip_code": "0808501",
    "prefecture": "北海道",
    "prefecture_kana": "ホッカイドウ",
    "prefecture_code": 1,
    "city": "帯広市",
    "city_kana": "オビヒロシ",
    "town": "稲田町",
    "town_kana": "イナダチョウ",
    "street": "南８線西１０番地１",
    "office_name": "株式会社　イトーヨーカ堂　帯広店",
    "office_name_kana": "カブシキガイシヤ イト-ヨ-カドウ オビヒロテン"
  },
  "8502": {
    "zip_code": "0808502",
    "prefecture": "北海道",
    "prefecture_kana": "ホッカイドウ",
    "prefecture_code": 1,
    "city": "帯広市",
    "city_kana": "オビヒロシ",
    "town": "西六条南",
    "town_kana": "ニシ6ジョウミナミ",
    "street": "８丁目１",
    "office_name": "厚生連総合病院　帯広厚生病院",
    "office_name_kana": "コウセイレンソウゴウビヨウイン オビヒロコウセイビヨウイン"
  },
  "8503": {
    "zip_code": "0808503",
    "prefecture": "北海道",
    "prefecture_kana": "ホッカイドウ",
    "prefecture_code": 1,
    "city": "帯広市",
    "city_kana": "オビヒロシ",
    "town": "東五条南",
    "town_kana": "ヒガシ5ジョウミナミ",
    "street": "１丁目",
    "office_name": "北海道帯広柏葉高等学校",
    "office_name_kana": "ホツカイドウオビヒロハクヨウコウトウガツコウ"
  },
  "8510": {
    "zip_code": "0808510",
    "prefecture": "北海道",
    "prefecture_kana": "ホッカイドウ",
    "prefecture_code": 1,
    "city": "帯広市",
    "city_kana": "オビヒロシ",
    "town": "東五条南",
    "town_kana": "ヒガシ5ジョウミナミ",
    "street": "９丁目１−１",
    "office_name": "釧路地方法務局　帯広支局",
    "office_name_kana": "クシロチホウホウムキヨク オビヒロシキヨク"
  },
  "8511": {
    "zip_code": "0808511",
    "prefecture": "北海道",
    "prefecture_kana": "ホッカイドウ",
    "prefecture_code": 1,
    "city": "帯広市",
    "city_kana": "オビヒロシ",
    "town": "西七条南",
    "town_kana": "ニシ7ジョウミナミ",
    "street": "１９丁目１番地",
    "office_name": "株式会社　北海道ホテル",
    "office_name_kana": "カブシキガイシヤ ホツカイドウホテル"
  },
  "8518": {
    "zip_code": "0808518",
    "prefecture": "北海道",
    "prefecture_kana": "ホッカイドウ",
    "prefecture_code": 1,
    "city": "帯広市",
    "city_kana": "オビヒロシ",
    "town": "西十八条北",
    "town_kana": "ニシ18ジョウキタ",
    "street": "２丁目１６番地",
    "office_name": "独立行政法人　国立病院機構　帯広病院",
    "office_name_kana": "ドクリツギヨウセイホウジン コクリツビヨウインキコウ オビヒロビヨウイン"
  },
  "8531": {
    "zip_code": "0808531",
    "prefecture": "北海道",
    "prefecture_kana": "ホッカイドウ",
    "prefecture_code": 1,
    "city": "帯広市",
    "city_kana": "オビヒロシ",
    "town": "西四条南",
    "town_kana": "ニシ4ジョウミナミ",
    "street": "２０丁目１番地",
    "office_name": "イオン北海道　株式会社　イオン帯広店",
    "office_name_kana": "イオンホツカイドウ カブシキガイシヤ イオンオビヒロテン"
  },
  "8538": {
    "zip_code": "0808538",
    "prefecture": "北海道",
    "prefecture_kana": "ホッカイドウ",
    "prefecture_code": 1,
    "city": "帯広市",
    "city_kana": "オビヒロシ",
    "town": "西四条南",
    "town_kana": "ニシ4ジョウミナミ",
    "street": "１２丁目３",
    "office_name": "株式会社　長崎屋　帯広店",
    "office_name_kana": "カブシキガイシヤ ナガサキヤ オビヒロテン"
  },
  "8550": {
    "zip_code": "0808550",
    "prefecture": "北海道",
    "prefecture_kana": "ホッカイドウ",
    "prefecture_code": 1,
    "city": "帯広市",
    "city_kana": "オビヒロシ",
    "town": "西四条南",
    "town_kana": "ニシ4ジョウミナミ",
    "street": "５丁目１ＮＴＴ西ビル",
    "office_name": "株式会社　ＮＴＴ東日本北海道　帯広支店",
    "office_name_kana": "カブシキガイシヤ エヌテイ-テイ-ヒガシニホンホツカイドウ オビヒロシテン"
  },
  "8555": {
    "zip_code": "0808555",
    "prefecture": "北海道",
    "prefecture_kana": "ホッカイドウ",
    "prefecture_code": 1,
    "city": "帯広市",
    "city_kana": "オビヒロシ",
    "town": "稲田町",
    "town_kana": "イナダチョウ",
    "street": "西２線１１番地",
    "office_name": "帯広畜産大学",
    "office_name_kana": "オビヒロチクサンダイガク"
  },
  "8560": {
    "zip_code": "0808560",
    "prefecture": "北海道",
    "prefecture_kana": "ホッカイドウ",
    "prefecture_code": 1,
    "city": "帯広市",
    "city_kana": "オビヒロシ",
    "town": "西二条南",
    "town_kana": "ニシ2ジョウミナミ",
    "street": "１０丁目１１",
    "office_name": "北海道放送　帯広放送局",
    "office_name_kana": "ホツカイドウホウソウ オビヒロホウソウキヨク"
  },
  "8570": {
    "zip_code": "0808570",
    "prefecture": "北海道",
    "prefecture_kana": "ホッカイドウ",
    "prefecture_code": 1,
    "city": "帯広市",
    "city_kana": "オビヒロシ",
    "town": "西十七条南",
    "town_kana": "ニシ17ジョウミナミ",
    "street": "５丁目２",
    "office_name": "トータルフーズ　株式会社",
    "office_name_kana": "ト-タルフ-ズ カブシキガイシヤ"
  },
  "8585": {
    "zip_code": "0808585",
    "prefecture": "北海道",
    "prefecture_kana": "ホッカイドウ",
    "prefecture_code": 1,
    "city": "帯広市",
    "city_kana": "オビヒロシ",
    "town": "西四条南",
    "town_kana": "ニシ4ジョウミナミ",
    "street": "８丁目１０番地",
    "office_name": "帯広開発建設部",
    "office_name_kana": "オビヒロカイハツケンセツブ"
  },
  "8588": {
    "zip_code": "0808588",
    "prefecture": "北海道",
    "prefecture_kana": "ホッカイドウ",
    "prefecture_code": 1,
    "city": "帯広市",
    "city_kana": "オビヒロシ",
    "town": "東三条南",
    "town_kana": "ヒガシ3ジョウミナミ",
    "street": "３丁目１番地",
    "office_name": "北海道　十勝総合振興局",
    "office_name_kana": "ホツカイドウ トカチソウゴウシンコウキヨク"
  },
  "8601": {
    "zip_code": "0808601",
    "prefecture": "北海道",
    "prefecture_kana": "ホッカイドウ",
    "prefecture_code": 1,
    "city": "帯広市",
    "city_kana": "オビヒロシ",
    "town": "西四条南",
    "town_kana": "ニシ4ジョウミナミ",
    "street": "１０丁目２７",
    "office_name": "丸越　株式会社",
    "office_name_kana": "マルコシ カブシキガイシヤ"
  },
  "8609": {
    "zip_code": "0808609",
    "prefecture": "北海道",
    "prefecture_kana": "ホッカイドウ",
    "prefecture_code": 1,
    "city": "帯広市",
    "city_kana": "オビヒロシ",
    "town": "西五条南",
    "town_kana": "ニシ5ジョウミナミ",
    "street": "５丁目２番地",
    "office_name": "帯広公共職業安定所",
    "office_name_kana": "オビヒロコウキヨウシヨクギヨウアンテイシヨ"
  },
  "8623": {
    "zip_code": "0808623",
    "prefecture": "北海道",
    "prefecture_kana": "ホッカイドウ",
    "prefecture_code": 1,
    "city": "帯広市",
    "city_kana": "オビヒロシ",
    "town": "大通南",
    "town_kana": "オオドオリミナミ",
    "street": "２９丁目２番地",
    "office_name": "帯広日産自動車　株式会社",
    "office_name_kana": "オビヒロニツサンジドウシヤ カブシキカイシヤ"
  },
  "8639": {
    "zip_code": "0808639",
    "prefecture": "北海道",
    "prefecture_kana": "ホッカイドウ",
    "prefecture_code": 1,
    "city": "帯広市",
    "city_kana": "オビヒロシ",
    "town": "南町南",
    "town_kana": "ミナミマチミナミ",
    "street": "７線３１番地",
    "office_name": "陸上自衛隊　帯広駐屯地",
    "office_name_kana": "リクジヨウジエイタイ オビヒロチユウトンチ"
  },
  "8642": {
    "zip_code": "0808642",
    "prefecture": "北海道",
    "prefecture_kana": "ホッカイドウ",
    "prefecture_code": 1,
    "city": "帯広市",
    "city_kana": "オビヒロシ",
    "town": "西十八条南",
    "town_kana": "ニシ18ジョウミナミ",
    "street": "１丁目４−１",
    "office_name": "帯広市民生活協同組合",
    "office_name_kana": "オビヒロシミンセイカツキヨウドウクミアイ"
  },
  "8655": {
    "zip_code": "0808655",
    "prefecture": "北海道",
    "prefecture_kana": "ホッカイドウ",
    "prefecture_code": 1,
    "city": "帯広市",
    "city_kana": "オビヒロシ",
    "town": "西四条南",
    "town_kana": "ニシ4ジョウミナミ",
    "street": "９丁目１−４（帯広郵便局私書箱第１１４号）",
    "office_name": "北海道新聞　帯広支社",
    "office_name_kana": "ホツカイドウシンブン オビヒロシシヤ"
  },
  "8660": {
    "zip_code": "0808660",
    "prefecture": "北海道",
    "prefecture_kana": "ホッカイドウ",
    "prefecture_code": 1,
    "city": "帯広市",
    "city_kana": "オビヒロシ",
    "town": "西五条南",
    "town_kana": "ニシ5ジョウミナミ",
    "street": "７丁目２（帯広郵便局私書箱第１１５号）",
    "office_name": "北海道電力　株式会社　帯広支店",
    "office_name_kana": "ホツカイドウデンリヨク カブシキガイシヤ オビヒロシテン"
  },
  "8666": {
    "zip_code": "0808666",
    "prefecture": "北海道",
    "prefecture_kana": "ホッカイドウ",
    "prefecture_code": 1,
    "city": "帯広市",
    "city_kana": "オビヒロシ",
    "town": "西七条南",
    "town_kana": "ニシ7ジョウミナミ",
    "street": "５丁目２番地",
    "office_name": "山田機械工業　株式会社　西７条店舗",
    "office_name_kana": "ヤマダキカイコウギヨウ カブシキガイシヤ ニシナナジヨウテンポ"
  },
  "8670": {
    "zip_code": "0808670",
    "prefecture": "北海道",
    "prefecture_kana": "ホッカイドウ",
    "prefecture_code": 1,
    "city": "帯広市",
    "city_kana": "オビヒロシ",
    "town": "西五条南",
    "town_kana": "ニシ5ジョウミナミ",
    "street": "７丁目１（帯広郵便局私書箱第４０号）",
    "office_name": "帯広市役所",
    "office_name_kana": "オビヒロシヤクシヨ"
  },
  "8677": {
    "zip_code": "0808677",
    "prefecture": "北海道",
    "prefecture_kana": "ホッカイドウ",
    "prefecture_code": 1,
    "city": "帯広市",
    "city_kana": "オビヒロシ",
    "town": "西二条南",
    "town_kana": "ニシ2ジョウミナミ",
    "street": "８丁目１（帯広郵便局私書箱第１１３号）",
    "office_name": "株式会社　藤丸",
    "office_name_kana": "カブシキガイシヤ フジマル"
  },
  "8680": {
    "zip_code": "0808680",
    "prefecture": "北海道",
    "prefecture_kana": "ホッカイドウ",
    "prefecture_code": 1,
    "city": "帯広市",
    "city_kana": "オビヒロシ",
    "town": "西二条南",
    "town_kana": "ニシ2ジョウミナミ",
    "street": "１２丁目１（帯広郵便局私書箱第１１８号）",
    "office_name": "（株）　北洋銀行　帯広中央支店",
    "office_name_kana": "カブシキガイシヤ ホクヨウギンコウ オビヒロチユウオウシテン"
  },
  "8686": {
    "zip_code": "0808686",
    "prefecture": "北海道",
    "prefecture_kana": "ホッカイドウ",
    "prefecture_code": 1,
    "city": "帯広市",
    "city_kana": "オビヒロシ",
    "town": "西二条南",
    "town_kana": "ニシ2ジョウミナミ",
    "street": "８丁目８（帯広郵便局私書箱第２０号）",
    "office_name": "株式会社　日専連ジェミス",
    "office_name_kana": "カブシキガイシヤ ニツセンレンジエミス"
  },
  "8688": {
    "zip_code": "0808688",
    "prefecture": "北海道",
    "prefecture_kana": "ホッカイドウ",
    "prefecture_code": 1,
    "city": "帯広市",
    "city_kana": "オビヒロシ",
    "town": "東一条南",
    "town_kana": "ヒガシ1ジョウミナミ",
    "street": "８丁目２",
    "office_name": "株式会社　十勝毎日新聞社",
    "office_name_kana": "カブシキガイシヤ トカチマイニチシンブンシヤ"
  },
  "8701": {
    "zip_code": "0808701",
    "prefecture": "北海道",
    "prefecture_kana": "ホッカイドウ",
    "prefecture_code": 1,
    "city": "帯広市",
    "city_kana": "オビヒロシ",
    "town": "西三条南",
    "town_kana": "ニシ3ジョウミナミ",
    "street": "７丁目２（帯広郵便局私書箱第４５号）",
    "office_name": "帯広信用金庫",
    "office_name_kana": "オビヒロシンヨウキンコ"
  },
  "8708": {
    "zip_code": "0808708",
    "prefecture": "北海道",
    "prefecture_kana": "ホッカイドウ",
    "prefecture_code": 1,
    "city": "帯広市",
    "city_kana": "オビヒロシ",
    "town": "西五条南",
    "town_kana": "ニシ5ジョウミナミ",
    "street": "１４丁目（帯広郵便局私書箱第６１号）",
    "office_name": "株式会社　エヌシーおびひろ",
    "office_name_kana": "カブシキガイシヤ エヌシ-オビヒロ"
  },
  "8711": {
    "zip_code": "0808711",
    "prefecture": "北海道",
    "prefecture_kana": "ホッカイドウ",
    "prefecture_code": 1,
    "city": "帯広市",
    "city_kana": "オビヒロシ",
    "town": "西三条南",
    "town_kana": "ニシ3ジョウミナミ",
    "street": "９丁目１",
    "office_name": "帯広商工会議所",
    "office_name_kana": "オビヒロシヨウコウカイギシヨ"
  },
  "8718": {
    "zip_code": "0808718",
    "prefecture": "北海道",
    "prefecture_kana": "ホッカイドウ",
    "prefecture_code": 1,
    "city": "帯広市",
    "city_kana": "オビヒロシ",
    "town": "西三条南",
    "town_kana": "ニシ3ジョウミナミ",
    "street": "７丁目１４（帯広郵便局私書箱第１３号）",
    "office_name": "ホクレン農業協同組合連合会　帯広支所",
    "office_name_kana": "ホクレンノウギヨウキヨウドウクミアイレンゴウカイ オビヒロシシヨ"
  }
}