{
  "0000": {
    "zip_code": "0970000",
    "prefecture": "北海道",
    "prefecture_kana": "ホッカイドウ",
    "prefecture_code": 1,
    "city": "稚内市",
    "city_kana": "ワッカナイシ",
    "town": "",
    "town_kana": "",
    "street": null,
    "office_name": null,
    "office_name_kana": null
  },
  "0001": {
    "zip_code": "0970001",
    "prefecture": "北海道",
    "prefecture_kana": "ホッカイドウ",
    "prefecture_code": 1,
    "city": "稚内市",
    "city_kana": "ワッカナイシ",
    "town": "末広",
    "town_kana": "スエヒロ",
    "street": null,
    "office_name": null,
    "office_name_kana": null
  },
  "0002": {
    "zip_code": "0970002",
    "prefecture": "北海道",
    "prefecture_kana": "ホッカイドウ",
    "prefecture_code": 1,
    "city": "稚内市",
    "city_kana": "ワッカナイシ",
    "town": "潮見",
    "town_kana": "シオミ",
    "street": null,
    "office_name": null,
    "office_name_kana": null
  },
  "0003": {
    "zip_code": "0970003",
    "prefecture": "北海道",
    "prefecture_kana": "ホッカイドウ",
    "prefecture_code": 1,
    "city": "稚内市",
    "city_kana": "ワッカナイシ",
    "town": "こまどり",
    "town_kana": "コマドリ",
    "street": null,
    "office_name": null,
    "office_name_kana": null
  },
  "0004": {
    "zip_code": "0970004",
    "prefecture": "北海道",
    "prefecture_kana": "ホッカイドウ",
    "prefecture_code": 1,
    "city": "稚内市",
    "city_kana": "ワッカナイシ",
    "town": "緑",
    "town_kana": "ミドリ",
    "street": null,
    "office_name": null,
    "office_name_kana": null
  },
  "0005": {
    "zip_code": "0970005",
    "prefecture": "北海道",
    "prefecture_kana": "ホッカイドウ",
    "prefecture_code": 1,
    "city": "稚内市",
    "city_kana": "ワッカナイシ",
    "town": "大黒",
    "town_kana": "ダイコク",
    "street": null,
    "office_name": null,
    "office_name_kana": null
  },
  "0006": {
    "zip_code": "0970006",
    "prefecture": "北海道",
    "prefecture_kana": "ホッカイドウ",
    "prefecture_code": 1,
    "city": "稚内市",
    "city_kana": "ワッカナイシ",
    "town": "新港町",
    "town_kana": "シンミナトチョウ",
    "street": null,
    "office_name": null,
    "office_name_kana": null
  },
  "0007": {
    "zip_code": "0970007",
    "prefecture": "北海道",
    "prefecture_kana": "ホッカイドウ",
    "prefecture_code": 1,
    "city": "稚内市",
    "city_kana": "ワッカナイシ",
    "town": "新末広",
    "town_kana": "シンスエヒロ",
    "street": null,
    "office_name": null,
    "office_name_kana": null
  },
  "0011": {
    "zip_code": "0970011",
    "prefecture": "北海道",
    "prefecture_kana": "ホッカイドウ",
    "prefecture_code": 1,
    "city": "稚内市",
    "city_kana": "ワッカナイシ",
    "town": "はまなす",
    "town_kana": "ハマナス",
    "street": null,
    "office_name": null,
    "office_name_kana": null
  },
  "0012": {
    "zip_code": "0970012",
    "prefecture": "北海道",
    "prefecture_kana": "ホッカイドウ",
    "prefecture_code": 1,
    "city": "稚内市",
    "city_kana": "ワッカナイシ",
    "town": "富岡",
    "town_kana": "トミオカ",
    "street": null,
    "office_name": null,
    "office_name_kana": null
  },
  "0013": {
    "zip_code": "0970013",
    "prefecture": "北海道",
    "prefecture_kana": "ホッカイドウ",
    "prefecture_code": 1,
    "city": "稚内市",
    "city_kana": "ワッカナイシ",
    "town": "若葉台",
    "town_kana": "ワカバダイ",
    "street": null,
    "office_name": null,
    "office_name_kana": null
  },
  "0014": {
    "zip_code": "0970014",
    "prefecture": "北海道",
    "prefecture_kana": "ホッカイドウ",
    "prefecture_code": 1,
    "city": "稚内市",
    "city_kana": "ワッカナイシ",
    "town": "新光町",
    "town_kana": "シンコウチョウ",
    "street": null,
    "office_name": null,
    "office_name_kana": null
  },
  "0015": {
    "zip_code": "0970015",
    "prefecture": "北海道",
    "prefecture_kana": "ホッカイドウ",
    "prefecture_code": 1,
    "city": "稚内市",
    "city_kana": "ワッカナイシ",
    "town": "朝日",
    "town_kana": "アサヒ",
    "street": null,
    "office_name": null,
    "office_name_kana": null
  },
  "0016": {
    "zip_code": "0970016",
    "prefecture": "北海道",
    "prefecture_kana": "ホッカイドウ",
    "prefecture_code": 1,
    "city": "稚内市",
    "city_kana": "ワッカナイシ",
    "town": "萩見",
    "town_kana": "ハギミ",
    "street": null,
    "office_name": null,
    "office_name_kana": null
  },
  "0017": {
    "zip_code": "0970017",
    "prefecture": "北海道",
    "prefecture_kana": "ホッカイドウ",
    "prefecture_code": 1,
    "city": "稚内市",
    "city_kana": "ワッカナイシ",
    "town": "栄",
    "town_kana": "サカエ",
    "street": null,
    "office_name": null,
    "office_name_kana": null
  },
  "0021": {
    "zip_code": "0970021",
    "prefecture": "北海道",
    "prefecture_kana": "ホッカイドウ",
    "prefecture_code": 1,
    "city": "稚内市",
    "city_kana": "ワッカナイシ",
    "town": "港",
    "town_kana": "ミナト",
    "street": null,
    "office_name": null,
    "office_name_kana": null
  },
  "0022": {
    "zip_code": "0970022",
    "prefecture": "北海道",
    "prefecture_kana": "ホッカイドウ",
    "prefecture_code": 1,
    "city": "稚内市",
    "city_kana": "ワッカナイシ",
    "town": "中央",
    "town_kana": "チュウオウ",
    "street": null,
    "office_name": null,
    "office_name_kana": null
  },
  "0023": {
    "zip_code": "0970023",
    "prefecture": "北海道",
    "prefecture_kana": "ホッカイドウ",
    "prefecture_code": 1,
    "city": "稚内市",
    "city_kana": "ワッカナイシ",
    "town": "開運",
    "town_kana": "カイウン",
    "street": null,
    "office_name": null,
    "office_name_kana": null
  },
  "0024": {
    "zip_code": "0970024",
    "prefecture": "北海道",
    "prefecture_kana": "ホッカイドウ",
    "prefecture_code": 1,
    "city": "稚内市",
    "city_kana": "ワッカナイシ",
    "town": "宝来",
    "town_kana": "ホウライ",
    "street": null,
    "office_name": null,
    "office_name_kana": null
  },
  "0025": {
    "zip_code": "0970025",
    "prefecture": "北海道",
    "prefecture_kana": "ホッカイドウ",
    "prefecture_code": 1,
    "city": "稚内市",
    "city_kana": "ワッカナイシ",
    "town": "恵比須",
    "town_kana": "エビス",
    "street": null,
    "office_name": null,
    "office_name_kana": null
  },
  "0026": {
    "zip_code": "0970026",
    "prefecture": "北海道",
    "prefecture_kana": "ホッカイドウ",
    "prefecture_code": 1,
    "city": "稚内市",
    "city_kana": "ワッカナイシ",
    "town": "ノシャップ",
    "town_kana": "ノシャップ",
    "street": null,
    "office_name": null,
    "office_name_kana": null
  },
  "0027": {
    "zip_code": "0970027",
    "prefecture": "北海道",
    "prefecture_kana": "ホッカイドウ",
    "prefecture_code": 1,
    "city": "稚内市",
    "city_kana": "ワッカナイシ",
    "town": "富士見",
    "town_kana": "フジミ",
    "street": null,
    "office_name": null,
    "office_name_kana": null
  },
  "0035": {
    "zip_code": "0970035",
    "prefecture": "北海道",
    "prefecture_kana": "ホッカイドウ",
    "prefecture_code": 1,
    "city": "稚内市",
    "city_kana": "ワッカナイシ",
    "town": "抜海村",
    "town_kana": "バッカイムラ",
    "street": null,
    "office_name": null,
    "office_name_kana": null
  },
  "0036": [
    {
      "zip_code": "0970036",
      "prefecture": "北海道",
      "prefecture_kana": "ホッカイドウ",
      "prefecture_code": 1,
      "city": "稚内市",
      "city_kana": "ワッカナイシ",
      "town": "抜海村",
      "town_kana": "バッカイムラ",
      "street": null,
      "office_name": null,
      "office_name_kana": null
    },
    {
      "zip_code": "0970036",
      "prefecture": "北海道",
      "prefecture_kana": "ホッカイドウ",
      "prefecture_code": 1,
      "city": "稚内市",
      "city_kana": "ワッカナイシ",
      "town": "抜海村クトネベツ",
      "town_kana": "バッカイムラクトネベツ",
      "street": null,
      "office_name": null,
      "office_name_kana": null
    }
  ],
  "0037": {
    "zip_code": "0970037",
    "prefecture": "北海道",
    "prefecture_kana": "ホッカイドウ",
    "prefecture_code": 1,
    "city": "稚内市",
    "city_kana": "ワッカナイシ",
    "town": "西浜",
    "town_kana": "ニシハマ",
    "street": null,
    "office_name": null,
    "office_name_kana": null
  },
  "0100": {
    "zip_code": "0970100",
    "prefecture": "北海道",
    "prefecture_kana": "ホッカイドウ",
    "prefecture_code": 1,
    "city": "利尻郡利尻富士町",
    "city_kana": "リシリグンリシリフジチョウ",
    "town": "",
    "town_kana": "",
    "street": null,
    "office_name": null,
    "office_name_kana": null
  },
  "0101": {
    "zip_code": "0970101",
    "prefecture": "北海道",
    "prefecture_kana": "ホッカイドウ",
    "prefecture_code": 1,
    "city": "利尻郡利尻富士町",
    "city_kana": "リシリグンリシリフジチョウ",
    "town": "鴛泊",
    "town_kana": "オシドマリ",
    "street": null,
    "office_name": null,
    "office_name_kana": null
  },
  "0211": {
    "zip_code": "0970211",
    "prefecture": "北海道",
    "prefecture_kana": "ホッカイドウ",
    "prefecture_code": 1,
    "city": "利尻郡利尻富士町",
    "city_kana": "リシリグンリシリフジチョウ",
    "town": "鬼脇",
    "town_kana": "オニワキ",
    "street": null,
    "office_name": null,
    "office_name_kana": null
  },
  "0311": {
    "zip_code": "0970311",
    "prefecture": "北海道",
    "prefecture_kana": "ホッカイドウ",
    "prefecture_code": 1,
    "city": "利尻郡利尻町",
    "city_kana": "リシリグンリシリチョウ",
    "town": "仙法志",
    "town_kana": "センポウシ",
    "street": null,
    "office_name": null,
    "office_name_kana": null
  },
  "0400": {
    "zip_code": "0970400",
    "prefecture": "北海道",
    "prefecture_kana": "ホッカイドウ",
    "prefecture_code": 1,
    "city": "利尻郡利尻町",
    "city_kana": "リシリグンリシリチョウ",
    "town": "",
    "town_kana": "",
    "street": null,
    "office_name": null,
    "office_name_kana": null
  },
  "0401": {
    "zip_code": "0970401",
    "prefecture": "北海道",
    "prefecture_kana": "ホッカイドウ",
    "prefecture_code": 1,
    "city": "利尻郡利尻町",
    "city_kana": "リシリグンリシリチョウ",
    "town": "沓形",
    "town_kana": "クツガタ",
    "street": null,
    "office_name": null,
    "office_name_kana": null
  },
  "1111": {
    "zip_code": "0971111",
    "prefecture": "北海道",
    "prefecture_kana": "ホッカイドウ",
    "prefecture_code": 1,
    "city": "礼文郡礼文町",
    "city_kana": "レブングンレブンチョウ",
    "town": "船泊村",
    "town_kana": "フナドマリムラ",
    "street": null,
    "office_name": null,
    "office_name_kana": null
  },
  "1200": {
    "zip_code": "0971200",
    "prefecture": "北海道",
    "prefecture_kana": "ホッカイドウ",
    "prefecture_code": 1,
    "city": "礼文郡礼文町",
    "city_kana": "レブングンレブンチョウ",
    "town": "",
    "town_kana": "",
    "street": null,
    "office_name": null,
    "office_name_kana": null
  },
  "1201": {
    "zip_code": "0971201",
    "prefecture": "北海道",
    "prefecture_kana": "ホッカイドウ",
    "prefecture_code": 1,
    "city": "礼文郡礼文町",
    "city_kana": "レブングンレブンチョウ",
    "town": "香深村",
    "town_kana": "カフカムラ",
    "street": null,
    "office_name": null,
    "office_name_kana": null
  },
  "1202": [
    {
      "zip_code": "0971202",
      "prefecture": "北海道",
      "prefecture_kana": "ホッカイドウ",
      "prefecture_code": 1,
      "city": "礼文郡礼文町",
      "city_kana": "レブングンレブンチョウ",
      "town": "船泊村",
      "town_kana": "フナドマリムラ",
      "street": null,
      "office_name": null,
      "office_name_kana": null
    },
    {
      "zip_code": "0971202",
      "prefecture": "北海道",
      "prefecture_kana": "ホッカイドウ",
      "prefecture_code": 1,
      "city": "礼文郡礼文町",
      "city_kana": "レブングンレブンチョウ",
      "town": "船泊村ウヱンナイ",
      "town_kana": "フナドマリムラウエンナイ",
      "street": null,
      "office_name": null,
      "office_name_kana": null
    }
  ],
  "8510": {
    "zip_code": "0978510",
    "prefecture": "北海道",
    "prefecture_kana": "ホッカイドウ",
    "prefecture_code": 1,
    "city": "稚内市",
    "city_kana": "ワッカナイシ",
    "town": "末広",
    "town_kana": "スエヒロ",
    "street": "４丁目１−２８",
    "office_name": "稚内年金事務所",
    "office_name_kana": "ワツカナイネンキンジムシヨ"
  },
  "8525": {
    "zip_code": "0978525",
    "prefecture": "北海道",
    "prefecture_kana": "ホッカイドウ",
    "prefecture_code": 1,
    "city": "稚内市",
    "city_kana": "ワッカナイシ",
    "town": "末広",
    "town_kana": "スエヒロ",
    "street": "４丁目２番２７号",
    "office_name": "北海道　稚内保健所",
    "office_name_kana": "ホツカイドウ ワツカナイホケンジヨ"
  },
  "8527": {
    "zip_code": "0978527",
    "prefecture": "北海道",
    "prefecture_kana": "ホッカイドウ",
    "prefecture_code": 1,
    "city": "稚内市",
    "city_kana": "ワッカナイシ",
    "town": "末広",
    "town_kana": "スエヒロ",
    "street": "５丁目６−１稚内地方合同庁舎内",
    "office_name": "稚内開発建設部",
    "office_name_kana": "ワツカナイカイハツケンセツブ"
  },
  "8555": {
    "zip_code": "0978555",
    "prefecture": "北海道",
    "prefecture_kana": "ホッカイドウ",
    "prefecture_code": 1,
    "city": "稚内市",
    "city_kana": "ワッカナイシ",
    "town": "中央",
    "town_kana": "チュウオウ",
    "street": "４丁目１１−６",
    "office_name": "市立稚内病院",
    "office_name_kana": "シリツワツカナイビヨウイン"
  },
  "8558": {
    "zip_code": "0978558",
    "prefecture": "北海道",
    "prefecture_kana": "ホッカイドウ",
    "prefecture_code": 1,
    "city": "稚内市",
    "city_kana": "ワッカナイシ",
    "town": "末広",
    "town_kana": "スエヒロ",
    "street": "４丁目２−２７",
    "office_name": "北海道　宗谷総合振興局",
    "office_name_kana": "ホツカイドウ ソウヤソウゴウシンコウキヨク"
  },
  "8585": {
    "zip_code": "0978585",
    "prefecture": "北海道",
    "prefecture_kana": "ホッカイドウ",
    "prefecture_code": 1,
    "city": "稚内市",
    "city_kana": "ワッカナイシ",
    "town": "末広",
    "town_kana": "スエヒロ",
    "street": "４丁目２−２７",
    "office_name": "稚内土木現業所",
    "office_name_kana": "ワツカナイドボクゲンギヨウシヨ"
  },
  "8609": {
    "zip_code": "0978609",
    "prefecture": "北海道",
    "prefecture_kana": "ホッカイドウ",
    "prefecture_code": 1,
    "city": "稚内市",
    "city_kana": "ワッカナイシ",
    "town": "末広",
    "town_kana": "スエヒロ",
    "street": "４丁目１番２５号",
    "office_name": "稚内公共職業安定所",
    "office_name_kana": "ワツカナイコウキヨウシヨクギヨウアンテイシヨ"
  },
  "8639": {
    "zip_code": "0978639",
    "prefecture": "北海道",
    "prefecture_kana": "ホッカイドウ",
    "prefecture_code": 1,
    "city": "稚内市",
    "city_kana": "ワッカナイシ",
    "town": "末広",
    "town_kana": "スエヒロ",
    "street": "４丁目２−２７",
    "office_name": "北海道教育庁　宗谷教育局",
    "office_name_kana": "ホツカイドウキヨウイクチヨウ ソウヤキヨウイクキヨク"
  },
  "8666": {
    "zip_code": "0978666",
    "prefecture": "北海道",
    "prefecture_kana": "ホッカイドウ",
    "prefecture_code": 1,
    "city": "稚内市",
    "city_kana": "ワッカナイシ",
    "town": "中央",
    "town_kana": "チュウオウ",
    "street": "３丁目９−６（稚内郵便局私書箱第５号）",
    "office_name": "稚内信用金庫　本店",
    "office_name_kana": "ワツカナイシンヨウキンコ ホンテン"
  },
  "8686": {
    "zip_code": "0978686",
    "prefecture": "北海道",
    "prefecture_kana": "ホッカイドウ",
    "prefecture_code": 1,
    "city": "稚内市",
    "city_kana": "ワッカナイシ",
    "town": "中央",
    "town_kana": "チュウオウ",
    "street": "３丁目１３−１５（稚内郵便局私書箱第６０号）",
    "office_name": "稚内市役所",
    "office_name_kana": "ワツカナイシヤクシヨ"
  }
}