{
  "0101": {
    "zip_code": "0990101",
    "prefecture": "北海道",
    "prefecture_kana": "ホッカイドウ",
    "prefecture_code": 1,
    "city": "紋別郡遠軽町",
    "city_kana": "モンベツグンエンガルチョウ",
    "town": "下白滝",
    "town_kana": "シモシラタキ",
    "street": null,
    "office_name": null,
    "office_name_kana": null
  },
  "0102": {
    "zip_code": "0990102",
    "prefecture": "北海道",
    "prefecture_kana": "ホッカイドウ",
    "prefecture_code": 1,
    "city": "紋別郡遠軽町",
    "city_kana": "モンベツグンエンガルチョウ",
    "town": "旧白滝",
    "town_kana": "キュウシラタキ",
    "street": null,
    "office_name": null,
    "office_name_kana": null
  },
  "0111": {
    "zip_code": "0990111",
    "prefecture": "北海道",
    "prefecture_kana": "ホッカイドウ",
    "prefecture_code": 1,
    "city": "紋別郡遠軽町",
    "city_kana": "モンベツグンエンガルチョウ",
    "town": "白滝",
    "town_kana": "シラタキ",
    "street": null,
    "office_name": null,
    "office_name_kana": null
  },
  "0121": {
    "zip_code": "0990121",
    "prefecture": "北海道",
    "prefecture_kana": "ホッカイドウ",
    "prefecture_code": 1,
    "city": "紋別郡遠軽町",
    "city_kana": "モンベツグンエンガルチョウ",
    "town": "白滝北支湧別",
    "town_kana": "シラタキキタシュウベツ",
    "street": null,
    "office_name": null,
    "office_name_kana": null
  },
  "0122": {
    "zip_code": "0990122",
    "prefecture": "北海道",
    "prefecture_kana": "ホッカイドウ",
    "prefecture_code": 1,
    "city": "紋別郡遠軽町",
    "city_kana": "モンベツグンエンガルチョウ",
    "town": "白滝支湧別",
    "town_kana": "シラタキシュウベツ",
    "street": null,
    "office_name": null,
    "office_name_kana": null
  },
  "0123": {
    "zip_code": "0990123",
    "prefecture": "北海道",
    "prefecture_kana": "ホッカイドウ",
    "prefecture_code": 1,
    "city": "紋別郡遠軽町",
    "city_kana": "モンベツグンエンガルチョウ",
    "town": "白滝上支湧別",
    "town_kana": "シラタキカミシュウベツ",
    "street": null,
    "office_name": null,
    "office_name_kana": null
  },
  "0124": {
    "zip_code": "0990124",
    "prefecture": "北海道",
    "prefecture_kana": "ホッカイドウ",
    "prefecture_code": 1,
    "city": "紋別郡遠軽町",
    "city_kana": "モンベツグンエンガルチョウ",
    "town": "東白滝",
    "town_kana": "ヒガシシラタキ",
    "street": null,
    "office_name": null,
    "office_name_kana": null
  },
  "0125": {
    "zip_code": "0990125",
    "prefecture": "北海道",
    "prefecture_kana": "ホッカイドウ",
    "prefecture_code": 1,
    "city": "紋別郡遠軽町",
    "city_kana": "モンベツグンエンガルチョウ",
    "town": "白滝天狗平",
    "town_kana": "シラタキテングダイラ",
    "street": null,
    "office_name": null,
    "office_name_kana": null
  },
  "0126": {
    "zip_code": "0990126",
    "prefecture": "北海道",
    "prefecture_kana": "ホッカイドウ",
    "prefecture_code": 1,
    "city": "紋別郡遠軽町",
    "city_kana": "モンベツグンエンガルチョウ",
    "town": "奥白滝",
    "town_kana": "オクシラタキ",
    "street": null,
    "office_name": null,
    "office_name_kana": null
  },
  "0127": {
    "zip_code": "0990127",
    "prefecture": "北海道",
    "prefecture_kana": "ホッカイドウ",
    "prefecture_code": 1,
    "city": "紋別郡遠軽町",
    "city_kana": "モンベツグンエンガルチョウ",
    "town": "上白滝",
    "town_kana": "カミシラタキ",
    "street": null,
    "office_name": null,
    "office_name_kana": null
  },
  "0201": {
    "zip_code": "0990201",
    "prefecture": "北海道",
    "prefecture_kana": "ホッカイドウ",
    "prefecture_code": 1,
    "city": "紋別郡遠軽町",
    "city_kana": "モンベツグンエンガルチョウ",
    "town": "丸瀬布新町",
    "town_kana": "マルセップシンマチ",
    "street": null,
    "office_name": null,
    "office_name_kana": null
  },
  "0202": {
    "zip_code": "0990202",
    "prefecture": "北海道",
    "prefecture_kana": "ホッカイドウ",
    "prefecture_code": 1,
    "city": "紋別郡遠軽町",
    "city_kana": "モンベツグンエンガルチョウ",
    "town": "丸瀬布天神町",
    "town_kana": "マルセップテンジンマチ",
    "street": null,
    "office_name": null,
    "office_name_kana": null
  },
  "0203": {
    "zip_code": "0990203",
    "prefecture": "北海道",
    "prefecture_kana": "ホッカイドウ",
    "prefecture_code": 1,
    "city": "紋別郡遠軽町",
    "city_kana": "モンベツグンエンガルチョウ",
    "town": "丸瀬布中町",
    "town_kana": "マルセップナカマチ",
    "street": null,
    "office_name": null,
    "office_name_kana": null
  },
  "0204": {
    "zip_code": "0990204",
    "prefecture": "北海道",
    "prefecture_kana": "ホッカイドウ",
    "prefecture_code": 1,
    "city": "紋別郡遠軽町",
    "city_kana": "モンベツグンエンガルチョウ",
    "town": "丸瀬布西町",
    "town_kana": "マルセップニシマチ",
    "street": null,
    "office_name": null,
    "office_name_kana": null
  },
  "0205": {
    "zip_code": "0990205",
    "prefecture": "北海道",
    "prefecture_kana": "ホッカイドウ",
    "prefecture_code": 1,
    "city": "紋別郡遠軽町",
    "city_kana": "モンベツグンエンガルチョウ",
    "town": "丸瀬布東町",
    "town_kana": "マルセップヒガシマチ",
    "street": null,
    "office_name": null,
    "office_name_kana": null
  },
  "0206": {
    "zip_code": "0990206",
    "prefecture": "北海道",
    "prefecture_kana": "ホッカイドウ",
    "prefecture_code": 1,
    "city": "紋別郡遠軽町",
    "city_kana": "モンベツグンエンガルチョウ",
    "town": "丸瀬布水谷町",
    "town_kana": "マルセップミズタニマチ",
    "street": null,
    "office_name": null,
    "office_name_kana": null
  },
  "0207": {
    "zip_code": "0990207",
    "prefecture": "北海道",
    "prefecture_kana": "ホッカイドウ",
    "prefecture_code": 1,
    "city": "紋別郡遠軽町",
    "city_kana": "モンベツグンエンガルチョウ",
    "town": "丸瀬布元町",
    "town_kana": "マルセップモトマチ",
    "street": null,
    "office_name": null,
    "office_name_kana": null
  },
  "0211": {
    "zip_code": "0990211",
    "prefecture": "北海道",
    "prefecture_kana": "ホッカイドウ",
    "prefecture_code": 1,
    "city": "紋別郡遠軽町",
    "city_kana": "モンベツグンエンガルチョウ",
    "town": "丸瀬布金山",
    "town_kana": "マルセップカナヤマ",
    "street": null,
    "office_name": null,
    "office_name_kana": null
  },
  "0212": {
    "zip_code": "0990212",
    "prefecture": "北海道",
    "prefecture_kana": "ホッカイドウ",
    "prefecture_code": 1,
    "city": "紋別郡遠軽町",
    "city_kana": "モンベツグンエンガルチョウ",
    "town": "丸瀬布上丸",
    "town_kana": "マルセップカミマル",
    "street": null,
    "office_name": null,
    "office_name_kana": null
  },
  "0213": {
    "zip_code": "0990213",
    "prefecture": "北海道",
    "prefecture_kana": "ホッカイドウ",
    "prefecture_code": 1,
    "city": "紋別郡遠軽町",
    "city_kana": "モンベツグンエンガルチョウ",
    "town": "丸瀬布上武利",
    "town_kana": "マルセップカミムリイ",
    "street": null,
    "office_name": null,
    "office_name_kana": null
  },
  "0214": {
    "zip_code": "0990214",
    "prefecture": "北海道",
    "prefecture_kana": "ホッカイドウ",
    "prefecture_code": 1,
    "city": "紋別郡遠軽町",
    "city_kana": "モンベツグンエンガルチョウ",
    "town": "丸瀬布大平",
    "town_kana": "マルセップタイヘイ",
    "street": null,
    "office_name": null,
    "office_name_kana": null
  },
  "0215": {
    "zip_code": "0990215",
    "prefecture": "北海道",
    "prefecture_kana": "ホッカイドウ",
    "prefecture_code": 1,
    "city": "紋別郡遠軽町",
    "city_kana": "モンベツグンエンガルチョウ",
    "town": "丸瀬布南丸",
    "town_kana": "マルセップミナミマル",
    "street": null,
    "office_name": null,
    "office_name_kana": null
  },
  "0216": {
    "zip_code": "0990216",
    "prefecture": "北海道",
    "prefecture_kana": "ホッカイドウ",
    "prefecture_code": 1,
    "city": "紋別郡遠軽町",
    "city_kana": "モンベツグンエンガルチョウ",
    "town": "丸瀬布武利",
    "town_kana": "マルセップムリイ",
    "street": null,
    "office_name": null,
    "office_name_kana": null
  },
  "0341": {
    "zip_code": "0990341",
    "prefecture": "北海道",
    "prefecture_kana": "ホッカイドウ",
    "prefecture_code": 1,
    "city": "紋別郡遠軽町",
    "city_kana": "モンベツグンエンガルチョウ",
    "town": "瀬戸瀬東町",
    "town_kana": "セトセヒガシマチ",
    "street": null,
    "office_name": null,
    "office_name_kana": null
  },
  "0342": {
    "zip_code": "0990342",
    "prefecture": "北海道",
    "prefecture_kana": "ホッカイドウ",
    "prefecture_code": 1,
    "city": "紋別郡遠軽町",
    "city_kana": "モンベツグンエンガルチョウ",
    "town": "瀬戸瀬西町",
    "town_kana": "セトセニシマチ",
    "street": null,
    "office_name": null,
    "office_name_kana": null
  },
  "0343": {
    "zip_code": "0990343",
    "prefecture": "北海道",
    "prefecture_kana": "ホッカイドウ",
    "prefecture_code": 1,
    "city": "紋別郡遠軽町",
    "city_kana": "モンベツグンエンガルチョウ",
    "town": "栄野",
    "town_kana": "サカエノ",
    "street": null,
    "office_name": null,
    "office_name_kana": null
  },
  "0344": {
    "zip_code": "0990344",
    "prefecture": "北海道",
    "prefecture_kana": "ホッカイドウ",
    "prefecture_code": 1,
    "city": "紋別郡遠軽町",
    "city_kana": "モンベツグンエンガルチョウ",
    "town": "野上",
    "town_kana": "ノガミ",
    "street": null,
    "office_name": null,
    "office_name_kana": null
  },
  "0345": {
    "zip_code": "0990345",
    "prefecture": "北海道",
    "prefecture_kana": "ホッカイドウ",
    "prefecture_code": 1,
    "city": "紋別郡遠軽町",
    "city_kana": "モンベツグンエンガルチョウ",
    "town": "湯の里",
    "town_kana": "ユノサト",
    "street": null,
    "office_name": null,
    "office_name_kana": null
  },
  "0346": {
    "zip_code": "0990346",
    "prefecture": "北海道",
    "prefecture_kana": "ホッカイドウ",
    "prefecture_code": 1,
    "city": "紋別郡遠軽町",
    "city_kana": "モンベツグンエンガルチョウ",
    "town": "若咲内",
    "town_kana": "ワカサクナイ",
    "street": null,
    "office_name": null,
    "office_name_kana": null
  },
  "0347": {
    "zip_code": "0990347",
    "prefecture": "北海道",
    "prefecture_kana": "ホッカイドウ",
    "prefecture_code": 1,
    "city": "紋別郡遠軽町",
    "city_kana": "モンベツグンエンガルチョウ",
    "town": "柏",
    "town_kana": "カシワ",
    "street": null,
    "office_name": null,
    "office_name_kana": null
  },
  "0400": {
    "zip_code": "0990400",
    "prefecture": "北海道",
    "prefecture_kana": "ホッカイドウ",
    "prefecture_code": 1,
    "city": "紋別郡遠軽町",
    "city_kana": "モンベツグンエンガルチョウ",
    "town": "",
    "town_kana": "",
    "street": null,
    "office_name": null,
    "office_name_kana": null
  },
  "0401": {
    "zip_code": "0990401",
    "prefecture": "北海道",
    "prefecture_kana": "ホッカイドウ",
    "prefecture_code": 1,
    "city": "紋別郡遠軽町",
    "city_kana": "モンベツグンエンガルチョウ",
    "town": "学田",
    "town_kana": "ガクデン",
    "street": null,
    "office_name": null,
    "office_name_kana": null
  },
  "0402": {
    "zip_code": "0990402",
    "prefecture": "北海道",
    "prefecture_kana": "ホッカイドウ",
    "prefecture_code": 1,
    "city": "紋別郡遠軽町",
    "city_kana": "モンベツグンエンガルチョウ",
    "town": "二条通北",
    "town_kana": "2ジョウドオリキタ",
    "street": null,
    "office_name": null,
    "office_name_kana": null
  },
  "0403": {
    "zip_code": "0990403",
    "prefecture": "北海道",
    "prefecture_kana": "ホッカイドウ",
    "prefecture_code": 1,
    "city": "紋別郡遠軽町",
    "city_kana": "モンベツグンエンガルチョウ",
    "town": "一条通北",
    "town_kana": "1ジョウドオリキタ",
    "street": null,
    "office_name": null,
    "office_name_kana": null
  },
  "0404": {
    "zip_code": "0990404",
    "prefecture": "北海道",
    "prefecture_kana": "ホッカイドウ",
    "prefecture_code": 1,
    "city": "紋別郡遠軽町",
    "city_kana": "モンベツグンエンガルチョウ",
    "town": "大通北",
    "town_kana": "オオドオリキタ",
    "street": null,
    "office_name": null,
    "office_name_kana": null
  },
  "0405": {
    "zip_code": "0990405",
    "prefecture": "北海道",
    "prefecture_kana": "ホッカイドウ",
    "prefecture_code": 1,
    "city": "紋別郡遠軽町",
    "city_kana": "モンベツグンエンガルチョウ",
    "town": "岩見通北",
    "town_kana": "イワミドオリキタ",
    "street": null,
    "office_name": null,
    "office_name_kana": null
  },
  "0406": {
    "zip_code": "0990406",
    "prefecture": "北海道",
    "prefecture_kana": "ホッカイドウ",
    "prefecture_code": 1,
    "city": "紋別郡遠軽町",
    "city_kana": "モンベツグンエンガルチョウ",
    "town": "宮前町",
    "town_kana": "ミヤマエチョウ",
    "street": null,
    "office_name": null,
    "office_name_kana": null
  },
  "0407": {
    "zip_code": "0990407",
    "prefecture": "北海道",
    "prefecture_kana": "ホッカイドウ",
    "prefecture_code": 1,
    "city": "紋別郡遠軽町",
    "city_kana": "モンベツグンエンガルチョウ",
    "town": "丸大",
    "town_kana": "マルダイ",
    "street": null,
    "office_name": null,
    "office_name_kana": null
  },
  "0408": {
    "zip_code": "0990408",
    "prefecture": "北海道",
    "prefecture_kana": "ホッカイドウ",
    "prefecture_code": 1,
    "city": "紋別郡遠軽町",
    "city_kana": "モンベツグンエンガルチョウ",
    "town": "留岡",
    "town_kana": "トメオカ",
    "street": null,
    "office_name": null,
    "office_name_kana": null
  },
  "0410": {
    "zip_code": "0990410",
    "prefecture": "北海道",
    "prefecture_kana": "ホッカイドウ",
    "prefecture_code": 1,
    "city": "紋別郡遠軽町",
    "city_kana": "モンベツグンエンガルチョウ",
    "town": "東町",
    "town_kana": "ヒガシマチ",
    "street": null,
    "office_name": null,
    "office_name_kana": null
  },
  "0411": {
    "zip_code": "0990411",
    "prefecture": "北海道",
    "prefecture_kana": "ホッカイドウ",
    "prefecture_code": 1,
    "city": "紋別郡遠軽町",
    "city_kana": "モンベツグンエンガルチョウ",
    "town": "向遠軽",
    "town_kana": "ムカイエンガル",
    "street": null,
    "office_name": null,
    "office_name_kana": null
  },
  "0412": {
    "zip_code": "0990412",
    "prefecture": "北海道",
    "prefecture_kana": "ホッカイドウ",
    "prefecture_code": 1,
    "city": "紋別郡遠軽町",
    "city_kana": "モンベツグンエンガルチョウ",
    "town": "豊里",
    "town_kana": "トヨサト",
    "street": null,
    "office_name": null,
    "office_name_kana": null
  },
  "0413": {
    "zip_code": "0990413",
    "prefecture": "北海道",
    "prefecture_kana": "ホッカイドウ",
    "prefecture_code": 1,
    "city": "紋別郡遠軽町",
    "city_kana": "モンベツグンエンガルチョウ",
    "town": "寿町",
    "town_kana": "コトブキチョウ",
    "street": null,
    "office_name": null,
    "office_name_kana": null
  },
  "0414": {
    "zip_code": "0990414",
    "prefecture": "北海道",
    "prefecture_kana": "ホッカイドウ",
    "prefecture_code": 1,
    "city": "紋別郡遠軽町",
    "city_kana": "モンベツグンエンガルチョウ",
    "town": "南町",
    "town_kana": "ミナミマチ",
    "street": null,
    "office_name": null,
    "office_name_kana": null
  },
  "0415": {
    "zip_code": "0990415",
    "prefecture": "北海道",
    "prefecture_kana": "ホッカイドウ",
    "prefecture_code": 1,
    "city": "紋別郡遠軽町",
    "city_kana": "モンベツグンエンガルチョウ",
    "town": "岩見通南",
    "town_kana": "イワミドオリミナミ",
    "street": null,
    "office_name": null,
    "office_name_kana": null
  },
  "0416": {
    "zip_code": "0990416",
    "prefecture": "北海道",
    "prefecture_kana": "ホッカイドウ",
    "prefecture_code": 1,
    "city": "紋別郡遠軽町",
    "city_kana": "モンベツグンエンガルチョウ",
    "town": "大通南",
    "town_kana": "オオドオリミナミ",
    "street": null,
    "office_name": null,
    "office_name_kana": null
  },
  "0417": {
    "zip_code": "0990417",
    "prefecture": "北海道",
    "prefecture_kana": "ホッカイドウ",
    "prefecture_code": 1,
    "city": "紋別郡遠軽町",
    "city_kana": "モンベツグンエンガルチョウ",
    "town": "一条通南",
    "town_kana": "1ジョウドオリミナミ",
    "street": null,
    "office_name": null,
    "office_name_kana": null
  },
  "0418": {
    "zip_code": "0990418",
    "prefecture": "北海道",
    "prefecture_kana": "ホッカイドウ",
    "prefecture_code": 1,
    "city": "紋別郡遠軽町",
    "city_kana": "モンベツグンエンガルチョウ",
    "town": "二条通南",
    "town_kana": "2ジョウドオリミナミ",
    "street": null,
    "office_name": null,
    "office_name_kana": null
  },
  "0421": {
    "zip_code": "0990421",
    "prefecture": "北海道",
    "prefecture_kana": "ホッカイドウ",
    "prefecture_code": 1,
    "city": "紋別郡遠軽町",
    "city_kana": "モンベツグンエンガルチョウ",
    "town": "福路",
    "town_kana": "フクロ",
    "street": null,
    "office_name": null,
    "office_name_kana": null
  },
  "0422": {
    "zip_code": "0990422",
    "prefecture": "北海道",
    "prefecture_kana": "ホッカイドウ",
    "prefecture_code": 1,
    "city": "紋別郡遠軽町",
    "city_kana": "モンベツグンエンガルチョウ",
    "town": "清川",
    "town_kana": "キヨカワ",
    "street": null,
    "office_name": null,
    "office_name_kana": null
  },
  "0423": {
    "zip_code": "0990423",
    "prefecture": "北海道",
    "prefecture_kana": "ホッカイドウ",
    "prefecture_code": 1,
    "city": "紋別郡遠軽町",
    "city_kana": "モンベツグンエンガルチョウ",
    "town": "若松",
    "town_kana": "ワカマツ",
    "street": null,
    "office_name": null,
    "office_name_kana": null
  },
  "0424": {
    "zip_code": "0990424",
    "prefecture": "北海道",
    "prefecture_kana": "ホッカイドウ",
    "prefecture_code": 1,
    "city": "紋別郡遠軽町",
    "city_kana": "モンベツグンエンガルチョウ",
    "town": "美山",
    "town_kana": "ミヤマ",
    "street": null,
    "office_name": null,
    "office_name_kana": null
  },
  "0425": {
    "zip_code": "0990425",
    "prefecture": "北海道",
    "prefecture_kana": "ホッカイドウ",
    "prefecture_code": 1,
    "city": "紋別郡遠軽町",
    "city_kana": "モンベツグンエンガルチョウ",
    "town": "千代田",
    "town_kana": "チヨダ",
    "street": null,
    "office_name": null,
    "office_name_kana": null
  },
  "0426": {
    "zip_code": "0990426",
    "prefecture": "北海道",
    "prefecture_kana": "ホッカイドウ",
    "prefecture_code": 1,
    "city": "紋別郡遠軽町",
    "city_kana": "モンベツグンエンガルチョウ",
    "town": "社名淵",
    "town_kana": "シャナフチ",
    "street": null,
    "office_name": null,
    "office_name_kana": null
  },
  "0427": {
    "zip_code": "0990427",
    "prefecture": "北海道",
    "prefecture_kana": "ホッカイドウ",
    "prefecture_code": 1,
    "city": "紋別郡遠軽町",
    "city_kana": "モンベツグンエンガルチョウ",
    "town": "見晴",
    "town_kana": "ミハラシ",
    "street": null,
    "office_name": null,
    "office_name_kana": null
  },
  "0428": {
    "zip_code": "0990428",
    "prefecture": "北海道",
    "prefecture_kana": "ホッカイドウ",
    "prefecture_code": 1,
    "city": "紋別郡遠軽町",
    "city_kana": "モンベツグンエンガルチョウ",
    "town": "西町",
    "town_kana": "ニシマチ",
    "street": null,
    "office_name": null,
    "office_name_kana": null
  },
  "0492": {
    "zip_code": "0990492",
    "prefecture": "北海道",
    "prefecture_kana": "ホッカイドウ",
    "prefecture_code": 1,
    "city": "紋別郡遠軽町",
    "city_kana": "モンベツグンエンガルチョウ",
    "town": "一条通北",
    "town_kana": "1ジョウドオリキタ",
    "street": "３丁目（遠軽郵便局私書箱第１４号）",
    "office_name": "遠軽町役場",
    "office_name_kana": "エンガルチヨウヤクバ"
  },
  "0494": {
    "zip_code": "0990494",
    "prefecture": "北海道",
    "prefecture_kana": "ホッカイドウ",
    "prefecture_code": 1,
    "city": "紋別郡遠軽町",
    "city_kana": "モンベツグンエンガルチョウ",
    "town": "大通北",
    "town_kana": "オオドオリキタ",
    "street": "３丁目",
    "office_name": "遠軽厚生病院",
    "office_name_kana": "エンガルコウセイビヨウイン"
  },
  "0495": {
    "zip_code": "0990495",
    "prefecture": "北海道",
    "prefecture_kana": "ホッカイドウ",
    "prefecture_code": 1,
    "city": "紋別郡遠軽町",
    "city_kana": "モンベツグンエンガルチョウ",
    "town": "大通南",
    "town_kana": "オオドオリミナミ",
    "street": "１丁目（遠軽郵便局私書箱第５号）",
    "office_name": "遠軽信用金庫",
    "office_name_kana": "エンガルシンヨウキンコ"
  },
  "0621": {
    "zip_code": "0990621",
    "prefecture": "北海道",
    "prefecture_kana": "ホッカイドウ",
    "prefecture_code": 1,
    "city": "紋別郡遠軽町",
    "city_kana": "モンベツグンエンガルチョウ",
    "town": "生田原水穂",
    "town_kana": "イクタハラミズホ",
    "street": null,
    "office_name": null,
    "office_name_kana": null
  },
  "0622": {
    "zip_code": "0990622",
    "prefecture": "北海道",
    "prefecture_kana": "ホッカイドウ",
    "prefecture_code": 1,
    "city": "紋別郡遠軽町",
    "city_kana": "モンベツグンエンガルチョウ",
    "town": "生田原安国",
    "town_kana": "イクタハラヤスクニ",
    "street": null,
    "office_name": null,
    "office_name_kana": null
  },
  "0623": {
    "zip_code": "0990623",
    "prefecture": "北海道",
    "prefecture_kana": "ホッカイドウ",
    "prefecture_code": 1,
    "city": "紋別郡遠軽町",
    "city_kana": "モンベツグンエンガルチョウ",
    "town": "生田原旭野",
    "town_kana": "イクタハラアサヒノ",
    "street": null,
    "office_name": null,
    "office_name_kana": null
  },
  "0624": {
    "zip_code": "0990624",
    "prefecture": "北海道",
    "prefecture_kana": "ホッカイドウ",
    "prefecture_code": 1,
    "city": "紋別郡遠軽町",
    "city_kana": "モンベツグンエンガルチョウ",
    "town": "生田原豊原",
    "town_kana": "イクタハラトヨハラ",
    "street": null,
    "office_name": null,
    "office_name_kana": null
  },
  "0701": {
    "zip_code": "0990701",
    "prefecture": "北海道",
    "prefecture_kana": "ホッカイドウ",
    "prefecture_code": 1,
    "city": "紋別郡遠軽町",
    "city_kana": "モンベツグンエンガルチョウ",
    "town": "生田原",
    "town_kana": "イクタハラ",
    "street": null,
    "office_name": null,
    "office_name_kana": null
  },
  "0702": {
    "zip_code": "0990702",
    "prefecture": "北海道",
    "prefecture_kana": "ホッカイドウ",
    "prefecture_code": 1,
    "city": "紋別郡遠軽町",
    "city_kana": "モンベツグンエンガルチョウ",
    "town": "生田原伊吹",
    "town_kana": "イクタハライブキ",
    "street": null,
    "office_name": null,
    "office_name_kana": null
  },
  "0703": {
    "zip_code": "0990703",
    "prefecture": "北海道",
    "prefecture_kana": "ホッカイドウ",
    "prefecture_code": 1,
    "city": "紋別郡遠軽町",
    "city_kana": "モンベツグンエンガルチョウ",
    "town": "生田原八重",
    "town_kana": "イクタハラヤエ",
    "street": null,
    "office_name": null,
    "office_name_kana": null
  },
  "0704": {
    "zip_code": "0990704",
    "prefecture": "北海道",
    "prefecture_kana": "ホッカイドウ",
    "prefecture_code": 1,
    "city": "紋別郡遠軽町",
    "city_kana": "モンベツグンエンガルチョウ",
    "town": "生田原岩戸",
    "town_kana": "イクタハライワト",
    "street": null,
    "office_name": null,
    "office_name_kana": null
  },
  "0705": {
    "zip_code": "0990705",
    "prefecture": "北海道",
    "prefecture_kana": "ホッカイドウ",
    "prefecture_code": 1,
    "city": "紋別郡遠軽町",
    "city_kana": "モンベツグンエンガルチョウ",
    "town": "生田原清里",
    "town_kana": "イクタハラキヨサト",
    "street": null,
    "office_name": null,
    "office_name_kana": null
  },
  "0871": {
    "zip_code": "0990871",
    "prefecture": "北海道",
    "prefecture_kana": "ホッカイドウ",
    "prefecture_code": 1,
    "city": "北見市",
    "city_kana": "キタミシ",
    "town": "相内町",
    "town_kana": "アイノナイチョウ",
    "street": null,
    "office_name": null,
    "office_name_kana": null
  },
  "0872": {
    "zip_code": "0990872",
    "prefecture": "北海道",
    "prefecture_kana": "ホッカイドウ",
    "prefecture_code": 1,
    "city": "北見市",
    "city_kana": "キタミシ",
    "town": "豊田",
    "town_kana": "トヨタ",
    "street": null,
    "office_name": null,
    "office_name_kana": null
  },
  "0873": {
    "zip_code": "0990873",
    "prefecture": "北海道",
    "prefecture_kana": "ホッカイドウ",
    "prefecture_code": 1,
    "city": "北見市",
    "city_kana": "キタミシ",
    "town": "西相内",
    "town_kana": "ニシアイノナイ",
    "street": null,
    "office_name": null,
    "office_name_kana": null
  },
  "0874": {
    "zip_code": "0990874",
    "prefecture": "北海道",
    "prefecture_kana": "ホッカイドウ",
    "prefecture_code": 1,
    "city": "北見市",
    "city_kana": "キタミシ",
    "town": "住吉",
    "town_kana": "スミヨシ",
    "street": null,
    "office_name": null,
    "office_name_kana": null
  },
  "0875": {
    "zip_code": "0990875",
    "prefecture": "北海道",
    "prefecture_kana": "ホッカイドウ",
    "prefecture_code": 1,
    "city": "北見市",
    "city_kana": "キタミシ",
    "town": "本沢",
    "town_kana": "ホンザワ",
    "street": null,
    "office_name": null,
    "office_name_kana": null
  },
  "0876": {
    "zip_code": "0990876",
    "prefecture": "北海道",
    "prefecture_kana": "ホッカイドウ",
    "prefecture_code": 1,
    "city": "北見市",
    "city_kana": "キタミシ",
    "town": "富里",
    "town_kana": "トミサト",
    "street": null,
    "office_name": null,
    "office_name_kana": null
  },
  "0877": {
    "zip_code": "0990877",
    "prefecture": "北海道",
    "prefecture_kana": "ホッカイドウ",
    "prefecture_code": 1,
    "city": "北見市",
    "city_kana": "キタミシ",
    "town": "柏木",
    "town_kana": "カシワギ",
    "street": null,
    "office_name": null,
    "office_name_kana": null
  },
  "0878": {
    "zip_code": "0990878",
    "prefecture": "北海道",
    "prefecture_kana": "ホッカイドウ",
    "prefecture_code": 1,
    "city": "北見市",
    "city_kana": "キタミシ",
    "town": "東相内町",
    "town_kana": "ヒガシアイノナイチョウ",
    "street": null,
    "office_name": null,
    "office_name_kana": null
  },
  "0879": {
    "zip_code": "0990879",
    "prefecture": "北海道",
    "prefecture_kana": "ホッカイドウ",
    "prefecture_code": 1,
    "city": "北見市",
    "city_kana": "キタミシ",
    "town": "美園",
    "town_kana": "ミソノ",
    "street": null,
    "office_name": null,
    "office_name_kana": null
  },
  "1100": {
    "zip_code": "0991100",
    "prefecture": "北海道",
    "prefecture_kana": "ホッカイドウ",
    "prefecture_code": 1,
    "city": "常呂郡置戸町",
    "city_kana": "トコログンオケトチョウ",
    "town": "",
    "town_kana": "",
    "street": null,
    "office_name": null,
    "office_name_kana": null
  },
  "1101": {
    "zip_code": "0991101",
    "prefecture": "北海道",
    "prefecture_kana": "ホッカイドウ",
    "prefecture_code": 1,
    "city": "常呂郡置戸町",
    "city_kana": "トコログンオケトチョウ",
    "town": "北光",
    "town_kana": "ホッコウ",
    "street": null,
    "office_name": null,
    "office_name_kana": null
  },
  "1102": {
    "zip_code": "0991102",
    "prefecture": "北海道",
    "prefecture_kana": "ホッカイドウ",
    "prefecture_code": 1,
    "city": "常呂郡置戸町",
    "city_kana": "トコログンオケトチョウ",
    "town": "緑",
    "town_kana": "ミドリ",
    "street": null,
    "office_name": null,
    "office_name_kana": null
  },
  "1103": {
    "zip_code": "0991103",
    "prefecture": "北海道",
    "prefecture_kana": "ホッカイドウ",
    "prefecture_code": 1,
    "city": "常呂郡置戸町",
    "city_kana": "トコログンオケトチョウ",
    "town": "栄二",
    "town_kana": "サカエニ",
    "street": null,
    "office_name": null,
    "office_name_kana": null
  },
  "1104": {
    "zip_code": "0991104",
    "prefecture": "北海道",
    "prefecture_kana": "ホッカイドウ",
    "prefecture_code": 1,
    "city": "常呂郡置戸町",
    "city_kana": "トコログンオケトチョウ",
    "town": "栄一",
    "town_kana": "サカエイチ",
    "street": null,
    "office_name": null,
    "office_name_kana": null
  },
  "1105": {
    "zip_code": "0991105",
    "prefecture": "北海道",
    "prefecture_kana": "ホッカイドウ",
    "prefecture_code": 1,
    "city": "常呂郡置戸町",
    "city_kana": "トコログンオケトチョウ",
    "town": "洗心",
    "town_kana": "センシン",
    "street": null,
    "office_name": null,
    "office_name_kana": null
  },
  "1106": {
    "zip_code": "0991106",
    "prefecture": "北海道",
    "prefecture_kana": "ホッカイドウ",
    "prefecture_code": 1,
    "city": "常呂郡置戸町",
    "city_kana": "トコログンオケトチョウ",
    "town": "新和",
    "town_kana": "シンワ",
    "street": null,
    "office_name": null,
    "office_name_kana": null
  },
  "1112": {
    "zip_code": "0991112",
    "prefecture": "北海道",
    "prefecture_kana": "ホッカイドウ",
    "prefecture_code": 1,
    "city": "常呂郡置戸町",
    "city_kana": "トコログンオケトチョウ",
    "town": "若松",
    "town_kana": "ワカマツ",
    "street": null,
    "office_name": null,
    "office_name_kana": null
  },
  "1113": {
    "zip_code": "0991113",
    "prefecture": "北海道",
    "prefecture_kana": "ホッカイドウ",
    "prefecture_code": 1,
    "city": "常呂郡置戸町",
    "city_kana": "トコログンオケトチョウ",
    "town": "新光",
    "town_kana": "シンコウ",
    "street": null,
    "office_name": null,
    "office_name_kana": null
  },
  "1114": {
    "zip_code": "0991114",
    "prefecture": "北海道",
    "prefecture_kana": "ホッカイドウ",
    "prefecture_code": 1,
    "city": "常呂郡置戸町",
    "city_kana": "トコログンオケトチョウ",
    "town": "協生",
    "town_kana": "キョウセイ",
    "street": null,
    "office_name": null,
    "office_name_kana": null
  },
  "1115": {
    "zip_code": "0991115",
    "prefecture": "北海道",
    "prefecture_kana": "ホッカイドウ",
    "prefecture_code": 1,
    "city": "常呂郡置戸町",
    "city_kana": "トコログンオケトチョウ",
    "town": "宮下",
    "town_kana": "ミヤシタ",
    "street": null,
    "office_name": null,
    "office_name_kana": null
  },
  "1116": {
    "zip_code": "0991116",
    "prefecture": "北海道",
    "prefecture_kana": "ホッカイドウ",
    "prefecture_code": 1,
    "city": "常呂郡置戸町",
    "city_kana": "トコログンオケトチョウ",
    "town": "朝日",
    "town_kana": "アサヒ",
    "street": null,
    "office_name": null,
    "office_name_kana": null
  },
  "1117": {
    "zip_code": "0991117",
    "prefecture": "北海道",
    "prefecture_kana": "ホッカイドウ",
    "prefecture_code": 1,
    "city": "常呂郡置戸町",
    "city_kana": "トコログンオケトチョウ",
    "town": "宮坂",
    "town_kana": "ミヤサカ",
    "street": null,
    "office_name": null,
    "office_name_kana": null
  },
  "1118": {
    "zip_code": "0991118",
    "prefecture": "北海道",
    "prefecture_kana": "ホッカイドウ",
    "prefecture_code": 1,
    "city": "常呂郡置戸町",
    "city_kana": "トコログンオケトチョウ",
    "town": "若木",
    "town_kana": "ワカギ",
    "street": null,
    "office_name": null,
    "office_name_kana": null
  },
  "1121": {
    "zip_code": "0991121",
    "prefecture": "北海道",
    "prefecture_kana": "ホッカイドウ",
    "prefecture_code": 1,
    "city": "常呂郡置戸町",
    "city_kana": "トコログンオケトチョウ",
    "town": "北農",
    "town_kana": "ホクノウ",
    "street": null,
    "office_name": null,
    "office_name_kana": null
  },
  "1122": {
    "zip_code": "0991122",
    "prefecture": "北海道",
    "prefecture_kana": "ホッカイドウ",
    "prefecture_code": 1,
    "city": "常呂郡置戸町",
    "city_kana": "トコログンオケトチョウ",
    "town": "林友",
    "town_kana": "リンユウ",
    "street": null,
    "office_name": null,
    "office_name_kana": null
  },
  "1123": {
    "zip_code": "0991123",
    "prefecture": "北海道",
    "prefecture_kana": "ホッカイドウ",
    "prefecture_code": 1,
    "city": "常呂郡置戸町",
    "city_kana": "トコログンオケトチョウ",
    "town": "拓殖",
    "town_kana": "タクショク",
    "street": null,
    "office_name": null,
    "office_name_kana": null
  },
  "1124": {
    "zip_code": "0991124",
    "prefecture": "北海道",
    "prefecture_kana": "ホッカイドウ",
    "prefecture_code": 1,
    "city": "常呂郡置戸町",
    "city_kana": "トコログンオケトチョウ",
    "town": "拓実",
    "town_kana": "タクジツ",
    "street": null,
    "office_name": null,
    "office_name_kana": null
  },
  "1131": {
    "zip_code": "0991131",
    "prefecture": "北海道",
    "prefecture_kana": "ホッカイドウ",
    "prefecture_code": 1,
    "city": "常呂郡置戸町",
    "city_kana": "トコログンオケトチョウ",
    "town": "中央",
    "town_kana": "チュウオウ",
    "street": null,
    "office_name": null,
    "office_name_kana": null
  },
  "1132": {
    "zip_code": "0991132",
    "prefecture": "北海道",
    "prefecture_kana": "ホッカイドウ",
    "prefecture_code": 1,
    "city": "常呂郡置戸町",
    "city_kana": "トコログンオケトチョウ",
    "town": "協和",
    "town_kana": "キョウワ",
    "street": null,
    "office_name": null,
    "office_name_kana": null
  },
  "1133": {
    "zip_code": "0991133",
    "prefecture": "北海道",
    "prefecture_kana": "ホッカイドウ",
    "prefecture_code": 1,
    "city": "常呂郡置戸町",
    "city_kana": "トコログンオケトチョウ",
    "town": "更盛",
    "town_kana": "コウセイ",
    "street": null,
    "office_name": null,
    "office_name_kana": null
  },
  "1134": {
    "zip_code": "0991134",
    "prefecture": "北海道",
    "prefecture_kana": "ホッカイドウ",
    "prefecture_code": 1,
    "city": "常呂郡置戸町",
    "city_kana": "トコログンオケトチョウ",
    "town": "十全",
    "town_kana": "ジュウゼン",
    "street": null,
    "office_name": null,
    "office_name_kana": null
  },
  "1135": {
    "zip_code": "0991135",
    "prefecture": "北海道",
    "prefecture_kana": "ホッカイドウ",
    "prefecture_code": 1,
    "city": "常呂郡置戸町",
    "city_kana": "トコログンオケトチョウ",
    "town": "国栄",
    "town_kana": "コクエイ",
    "street": null,
    "office_name": null,
    "office_name_kana": null
  },
  "1136": {
    "zip_code": "0991136",
    "prefecture": "北海道",
    "prefecture_kana": "ホッカイドウ",
    "prefecture_code": 1,
    "city": "常呂郡置戸町",
    "city_kana": "トコログンオケトチョウ",
    "town": "日進",
    "town_kana": "ニッシン",
    "street": null,
    "office_name": null,
    "office_name_kana": null
  },
  "1137": {
    "zip_code": "0991137",
    "prefecture": "北海道",
    "prefecture_kana": "ホッカイドウ",
    "prefecture_code": 1,
    "city": "常呂郡置戸町",
    "city_kana": "トコログンオケトチョウ",
    "town": "大美",
    "town_kana": "オオミ",
    "street": null,
    "office_name": null,
    "office_name_kana": null
  },
  "1138": {
    "zip_code": "0991138",
    "prefecture": "北海道",
    "prefecture_kana": "ホッカイドウ",
    "prefecture_code": 1,
    "city": "常呂郡置戸町",
    "city_kana": "トコログンオケトチョウ",
    "town": "中里",
    "town_kana": "ナカサト",
    "street": null,
    "office_name": null,
    "office_name_kana": null
  },
  "1197": {
    "zip_code": "0991197",
    "prefecture": "北海道",
    "prefecture_kana": null,
    "prefecture_code": null,
    "city": "常呂郡置戸町",
    "city_kana": null,
    "town": "字置戸",
    "town_kana": null,
    "street": "４６番地（置戸郵便局私書箱第２号）",
    "office_name": "きたみらい農業協同組合　置戸支所",
    "office_name_kana": "キタミライノウギヨウキヨウドウクミアイ オケトシシヨ"
  },
  "1198": {
    "zip_code": "0991198",
    "prefecture": "北海道",
    "prefecture_kana": null,
    "prefecture_code": null,
    "city": "常呂郡置戸町",
    "city_kana": null,
    "town": "字置戸",
    "town_kana": null,
    "street": "１８１番地（置戸郵便局私書箱第１号）",
    "office_name": "置戸町役場",
    "office_name_kana": "オケトチヨウヤクバ"
  },
  "1251": {
    "zip_code": "0991251",
    "prefecture": "北海道",
    "prefecture_kana": "ホッカイドウ",
    "prefecture_code": 1,
    "city": "常呂郡置戸町",
    "city_kana": "トコログンオケトチョウ",
    "town": "安住",
    "town_kana": "アズミ",
    "street": null,
    "office_name": null,
    "office_name_kana": null
  },
  "1252": {
    "zip_code": "0991252",
    "prefecture": "北海道",
    "prefecture_kana": "ホッカイドウ",
    "prefecture_code": 1,
    "city": "常呂郡置戸町",
    "city_kana": "トコログンオケトチョウ",
    "town": "勝山",
    "town_kana": "カツヤマ",
    "street": null,
    "office_name": null,
    "office_name_kana": null
  },
  "1253": {
    "zip_code": "0991253",
    "prefecture": "北海道",
    "prefecture_kana": "ホッカイドウ",
    "prefecture_code": 1,
    "city": "常呂郡置戸町",
    "city_kana": "トコログンオケトチョウ",
    "town": "春日",
    "town_kana": "カスガ",
    "street": null,
    "office_name": null,
    "office_name_kana": null
  },
  "1254": {
    "zip_code": "0991254",
    "prefecture": "北海道",
    "prefecture_kana": "ホッカイドウ",
    "prefecture_code": 1,
    "city": "常呂郡置戸町",
    "city_kana": "トコログンオケトチョウ",
    "town": "常元",
    "town_kana": "ツネモト",
    "street": null,
    "office_name": null,
    "office_name_kana": null
  },
  "1361": {
    "zip_code": "0991361",
    "prefecture": "北海道",
    "prefecture_kana": "ホッカイドウ",
    "prefecture_code": 1,
    "city": "常呂郡置戸町",
    "city_kana": "トコログンオケトチョウ",
    "town": "境野",
    "town_kana": "サカイノ",
    "street": null,
    "office_name": null,
    "office_name_kana": null
  },
  "1362": {
    "zip_code": "0991362",
    "prefecture": "北海道",
    "prefecture_kana": "ホッカイドウ",
    "prefecture_code": 1,
    "city": "常呂郡置戸町",
    "city_kana": "トコログンオケトチョウ",
    "town": "雄勝",
    "town_kana": "オカチ",
    "street": null,
    "office_name": null,
    "office_name_kana": null
  },
  "1363": {
    "zip_code": "0991363",
    "prefecture": "北海道",
    "prefecture_kana": "ホッカイドウ",
    "prefecture_code": 1,
    "city": "常呂郡置戸町",
    "city_kana": "トコログンオケトチョウ",
    "town": "幸岡",
    "town_kana": "サチオカ",
    "street": null,
    "office_name": null,
    "office_name_kana": null
  },
  "1364": {
    "zip_code": "0991364",
    "prefecture": "北海道",
    "prefecture_kana": "ホッカイドウ",
    "prefecture_code": 1,
    "city": "常呂郡置戸町",
    "city_kana": "トコログンオケトチョウ",
    "town": "秋田",
    "town_kana": "アキタ",
    "street": null,
    "office_name": null,
    "office_name_kana": null
  },
  "1365": {
    "zip_code": "0991365",
    "prefecture": "北海道",
    "prefecture_kana": "ホッカイドウ",
    "prefecture_code": 1,
    "city": "常呂郡置戸町",
    "city_kana": "トコログンオケトチョウ",
    "town": "豊住",
    "town_kana": "トヨズミ",
    "street": null,
    "office_name": null,
    "office_name_kana": null
  },
  "1366": {
    "zip_code": "0991366",
    "prefecture": "北海道",
    "prefecture_kana": "ホッカイドウ",
    "prefecture_code": 1,
    "city": "常呂郡置戸町",
    "city_kana": "トコログンオケトチョウ",
    "town": "川南",
    "town_kana": "カワミナミ",
    "street": null,
    "office_name": null,
    "office_name_kana": null
  },
  "1367": {
    "zip_code": "0991367",
    "prefecture": "北海道",
    "prefecture_kana": "ホッカイドウ",
    "prefecture_code": 1,
    "city": "常呂郡置戸町",
    "city_kana": "トコログンオケトチョウ",
    "town": "常盤",
    "town_kana": "トキワ",
    "street": null,
    "office_name": null,
    "office_name_kana": null
  },
  "1400": {
    "zip_code": "0991400",
    "prefecture": "北海道",
    "prefecture_kana": "ホッカイドウ",
    "prefecture_code": 1,
    "city": "常呂郡訓子府町",
    "city_kana": "トコログンクンネップチョウ",
    "town": "",
    "town_kana": "",
    "street": null,
    "office_name": null,
    "office_name_kana": null
  },
  "1401": {
    "zip_code": "0991401",
    "prefecture": "北海道",
    "prefecture_kana": "ホッカイドウ",
    "prefecture_code": 1,
    "city": "常呂郡訓子府町",
    "city_kana": "トコログンクンネップチョウ",
    "town": "日出",
    "town_kana": "ヒノデ",
    "street": null,
    "office_name": null,
    "office_name_kana": null
  },
  "1402": {
    "zip_code": "0991402",
    "prefecture": "北海道",
    "prefecture_kana": "ホッカイドウ",
    "prefecture_code": 1,
    "city": "常呂郡訓子府町",
    "city_kana": "トコログンクンネップチョウ",
    "town": "穂波",
    "town_kana": "ホナミ",
    "street": null,
    "office_name": null,
    "office_name_kana": null
  },
  "1403": {
    "zip_code": "0991403",
    "prefecture": "北海道",
    "prefecture_kana": "ホッカイドウ",
    "prefecture_code": 1,
    "city": "常呂郡訓子府町",
    "city_kana": "トコログンクンネップチョウ",
    "town": "東幸町",
    "town_kana": "ヒガシサイワイマチ",
    "street": null,
    "office_name": null,
    "office_name_kana": null
  },
  "1404": {
    "zip_code": "0991404",
    "prefecture": "北海道",
    "prefecture_kana": "ホッカイドウ",
    "prefecture_code": 1,
    "city": "常呂郡訓子府町",
    "city_kana": "トコログンクンネップチョウ",
    "town": "柏丘",
    "town_kana": "カシワオカ",
    "street": null,
    "office_name": null,
    "office_name_kana": null
  },
  "1405": {
    "zip_code": "0991405",
    "prefecture": "北海道",
    "prefecture_kana": "ホッカイドウ",
    "prefecture_code": 1,
    "city": "常呂郡訓子府町",
    "city_kana": "トコログンクンネップチョウ",
    "town": "高園",
    "town_kana": "タカゾノ",
    "street": null,
    "office_name": null,
    "office_name_kana": null
  },
  "1406": {
    "zip_code": "0991406",
    "prefecture": "北海道",
    "prefecture_kana": "ホッカイドウ",
    "prefecture_code": 1,
    "city": "常呂郡訓子府町",
    "city_kana": "トコログンクンネップチョウ",
    "town": "弥生",
    "town_kana": "ヤヨイ",
    "street": null,
    "office_name": null,
    "office_name_kana": null
  },
  "1407": {
    "zip_code": "0991407",
    "prefecture": "北海道",
    "prefecture_kana": "ホッカイドウ",
    "prefecture_code": 1,
    "city": "常呂郡訓子府町",
    "city_kana": "トコログンクンネップチョウ",
    "town": "福野",
    "town_kana": "フクノ",
    "street": null,
    "office_name": null,
    "office_name_kana": null
  },
  "1411": {
    "zip_code": "0991411",
    "prefecture": "北海道",
    "prefecture_kana": "ホッカイドウ",
    "prefecture_code": 1,
    "city": "常呂郡訓子府町",
    "city_kana": "トコログンクンネップチョウ",
    "town": "大谷",
    "town_kana": "オオタニ",
    "street": null,
    "office_name": null,
    "office_name_kana": null
  },
  "1412": {
    "zip_code": "0991412",
    "prefecture": "北海道",
    "prefecture_kana": "ホッカイドウ",
    "prefecture_code": 1,
    "city": "常呂郡訓子府町",
    "city_kana": "トコログンクンネップチョウ",
    "town": "緑丘",
    "town_kana": "ミドリオカ",
    "street": null,
    "office_name": null,
    "office_name_kana": null
  },
  "1413": {
    "zip_code": "0991413",
    "prefecture": "北海道",
    "prefecture_kana": "ホッカイドウ",
    "prefecture_code": 1,
    "city": "常呂郡訓子府町",
    "city_kana": "トコログンクンネップチョウ",
    "town": "協成",
    "town_kana": "キョウセイ",
    "street": null,
    "office_name": null,
    "office_name_kana": null
  },
  "1414": {
    "zip_code": "0991414",
    "prefecture": "北海道",
    "prefecture_kana": "ホッカイドウ",
    "prefecture_code": 1,
    "city": "常呂郡訓子府町",
    "city_kana": "トコログンクンネップチョウ",
    "town": "開盛",
    "town_kana": "カイセイ",
    "street": null,
    "office_name": null,
    "office_name_kana": null
  },
  "1415": {
    "zip_code": "0991415",
    "prefecture": "北海道",
    "prefecture_kana": "ホッカイドウ",
    "prefecture_code": 1,
    "city": "常呂郡訓子府町",
    "city_kana": "トコログンクンネップチョウ",
    "town": "美園",
    "town_kana": "ミソノ",
    "street": null,
    "office_name": null,
    "office_name_kana": null
  },
  "1416": {
    "zip_code": "0991416",
    "prefecture": "北海道",
    "prefecture_kana": "ホッカイドウ",
    "prefecture_code": 1,
    "city": "常呂郡訓子府町",
    "city_kana": "トコログンクンネップチョウ",
    "town": "常盤",
    "town_kana": "トキワ",
    "street": null,
    "office_name": null,
    "office_name_kana": null
  },
  "1417": {
    "zip_code": "0991417",
    "prefecture": "北海道",
    "prefecture_kana": "ホッカイドウ",
    "prefecture_code": 1,
    "city": "常呂郡訓子府町",
    "city_kana": "トコログンクンネップチョウ",
    "town": "末広町",
    "town_kana": "スエヒロマチ",
    "street": null,
    "office_name": null,
    "office_name_kana": null
  },
  "1418": {
    "zip_code": "0991418",
    "prefecture": "北海道",
    "prefecture_kana": "ホッカイドウ",
    "prefecture_code": 1,
    "city": "常呂郡訓子府町",
    "city_kana": "トコログンクンネップチョウ",
    "town": "実郷",
    "town_kana": "ミサト",
    "street": null,
    "office_name": null,
    "office_name_kana": null
  },
  "1421": {
    "zip_code": "0991421",
    "prefecture": "北海道",
    "prefecture_kana": "ホッカイドウ",
    "prefecture_code": 1,
    "city": "常呂郡訓子府町",
    "city_kana": "トコログンクンネップチョウ",
    "town": "駒里",
    "town_kana": "コマサト",
    "street": null,
    "office_name": null,
    "office_name_kana": null
  },
  "1422": {
    "zip_code": "0991422",
    "prefecture": "北海道",
    "prefecture_kana": "ホッカイドウ",
    "prefecture_code": 1,
    "city": "常呂郡訓子府町",
    "city_kana": "トコログンクンネップチョウ",
    "town": "北栄",
    "town_kana": "ホクエイ",
    "street": null,
    "office_name": null,
    "office_name_kana": null
  },
  "1423": {
    "zip_code": "0991423",
    "prefecture": "北海道",
    "prefecture_kana": "ホッカイドウ",
    "prefecture_code": 1,
    "city": "常呂郡訓子府町",
    "city_kana": "トコログンクンネップチョウ",
    "town": "西幸町",
    "town_kana": "ニシサイワイマチ",
    "street": null,
    "office_name": null,
    "office_name_kana": null
  },
  "1424": {
    "zip_code": "0991424",
    "prefecture": "北海道",
    "prefecture_kana": "ホッカイドウ",
    "prefecture_code": 1,
    "city": "常呂郡訓子府町",
    "city_kana": "トコログンクンネップチョウ",
    "town": "西富",
    "town_kana": "ニシトミ",
    "street": null,
    "office_name": null,
    "office_name_kana": null
  },
  "1425": {
    "zip_code": "0991425",
    "prefecture": "北海道",
    "prefecture_kana": "ホッカイドウ",
    "prefecture_code": 1,
    "city": "常呂郡訓子府町",
    "city_kana": "トコログンクンネップチョウ",
    "town": "若葉町",
    "town_kana": "ワカバマチ",
    "street": null,
    "office_name": null,
    "office_name_kana": null
  },
  "1426": {
    "zip_code": "0991426",
    "prefecture": "北海道",
    "prefecture_kana": "ホッカイドウ",
    "prefecture_code": 1,
    "city": "常呂郡訓子府町",
    "city_kana": "トコログンクンネップチョウ",
    "town": "清住",
    "town_kana": "キヨズミ",
    "street": null,
    "office_name": null,
    "office_name_kana": null
  },
  "1427": {
    "zip_code": "0991427",
    "prefecture": "北海道",
    "prefecture_kana": "ホッカイドウ",
    "prefecture_code": 1,
    "city": "常呂郡訓子府町",
    "city_kana": "トコログンクンネップチョウ",
    "town": "豊坂",
    "town_kana": "トヨサカ",
    "street": null,
    "office_name": null,
    "office_name_kana": null
  },
  "1431": {
    "zip_code": "0991431",
    "prefecture": "北海道",
    "prefecture_kana": "ホッカイドウ",
    "prefecture_code": 1,
    "city": "常呂郡訓子府町",
    "city_kana": "トコログンクンネップチョウ",
    "town": "東町",
    "town_kana": "ヒガシマチ",
    "street": null,
    "office_name": null,
    "office_name_kana": null
  },
  "1432": {
    "zip_code": "0991432",
    "prefecture": "北海道",
    "prefecture_kana": "ホッカイドウ",
    "prefecture_code": 1,
    "city": "常呂郡訓子府町",
    "city_kana": "トコログンクンネップチョウ",
    "town": "旭町",
    "town_kana": "アサヒマチ",
    "street": null,
    "office_name": null,
    "office_name_kana": null
  },
  "1433": {
    "zip_code": "0991433",
    "prefecture": "北海道",
    "prefecture_kana": "ホッカイドウ",
    "prefecture_code": 1,
    "city": "常呂郡訓子府町",
    "city_kana": "トコログンクンネップチョウ",
    "town": "仲町",
    "town_kana": "ナカマチ",
    "street": null,
    "office_name": null,
    "office_name_kana": null
  },
  "1434": {
    "zip_code": "0991434",
    "prefecture": "北海道",
    "prefecture_kana": "ホッカイドウ",
    "prefecture_code": 1,
    "city": "常呂郡訓子府町",
    "city_kana": "トコログンクンネップチョウ",
    "town": "栄町",
    "town_kana": "サカエマチ",
    "street": null,
    "office_name": null,
    "office_name_kana": null
  },
  "1435": {
    "zip_code": "0991435",
    "prefecture": "北海道",
    "prefecture_kana": "ホッカイドウ",
    "prefecture_code": 1,
    "city": "常呂郡訓子府町",
    "city_kana": "トコログンクンネップチョウ",
    "town": "若富町",
    "town_kana": "ワカトミマチ",
    "street": null,
    "office_name": null,
    "office_name_kana": null
  },
  "1436": {
    "zip_code": "0991436",
    "prefecture": "北海道",
    "prefecture_kana": "ホッカイドウ",
    "prefecture_code": 1,
    "city": "常呂郡訓子府町",
    "city_kana": "トコログンクンネップチョウ",
    "town": "大町",
    "town_kana": "オオマチ",
    "street": null,
    "office_name": null,
    "office_name_kana": null
  },
  "1437": {
    "zip_code": "0991437",
    "prefecture": "北海道",
    "prefecture_kana": "ホッカイドウ",
    "prefecture_code": 1,
    "city": "常呂郡訓子府町",
    "city_kana": "トコログンクンネップチョウ",
    "town": "元町",
    "town_kana": "モトマチ",
    "street": null,
    "office_name": null,
    "office_name_kana": null
  },
  "1492": {
    "zip_code": "0991492",
    "prefecture": "北海道",
    "prefecture_kana": "ホッカイドウ",
    "prefecture_code": 1,
    "city": "常呂郡訓子府町",
    "city_kana": "トコログンクンネップチョウ",
    "town": "仲町",
    "town_kana": "ナカマチ",
    "street": "２５（訓子府郵便局私書箱第３号）",
    "office_name": "きたみらい農業協同組合　訓子府支所",
    "office_name_kana": "キタミライノウギヨウキヨウドウクミアイ クンネツプシシヨ"
  },
  "1495": {
    "zip_code": "0991495",
    "prefecture": "北海道",
    "prefecture_kana": "ホッカイドウ",
    "prefecture_code": 1,
    "city": "常呂郡訓子府町",
    "city_kana": "トコログンクンネップチョウ",
    "town": "東町",
    "town_kana": "ヒガシマチ",
    "street": "４２３番地",
    "office_name": "北海道クノール食品　（株）",
    "office_name_kana": "ホツカイドウクノ-ルシヨクヒン カブシキガイシヤ"
  },
  "1496": {
    "zip_code": "0991496",
    "prefecture": "北海道",
    "prefecture_kana": null,
    "prefecture_code": null,
    "city": "常呂郡訓子府町",
    "city_kana": null,
    "town": "字弥生",
    "town_kana": null,
    "street": "５２番地",
    "office_name": "北海道北見農業試験場",
    "office_name_kana": "ホツカイドウキタミノウギヨウシケンジヨウ"
  },
  "1498": {
    "zip_code": "0991498",
    "prefecture": "北海道",
    "prefecture_kana": "ホッカイドウ",
    "prefecture_code": 1,
    "city": "常呂郡訓子府町",
    "city_kana": "トコログンクンネップチョウ",
    "town": "東町",
    "town_kana": "ヒガシマチ",
    "street": "３９８番地（訓子府郵便局私書箱第２号）",
    "office_name": "訓子府町役場",
    "office_name_kana": "クンネツプチヨウヤクバ"
  },
  "1581": {
    "zip_code": "0991581",
    "prefecture": "北海道",
    "prefecture_kana": "ホッカイドウ",
    "prefecture_code": 1,
    "city": "北見市",
    "city_kana": "キタミシ",
    "town": "南丘",
    "town_kana": "ミナミオカ",
    "street": null,
    "office_name": null,
    "office_name_kana": null
  },
  "1582": {
    "zip_code": "0991582",
    "prefecture": "北海道",
    "prefecture_kana": "ホッカイドウ",
    "prefecture_code": 1,
    "city": "北見市",
    "city_kana": "キタミシ",
    "town": "開成",
    "town_kana": "カイセイ",
    "street": null,
    "office_name": null,
    "office_name_kana": null
  },
  "1583": {
    "zip_code": "0991583",
    "prefecture": "北海道",
    "prefecture_kana": "ホッカイドウ",
    "prefecture_code": 1,
    "city": "北見市",
    "city_kana": "キタミシ",
    "town": "北上",
    "town_kana": "キタガミ",
    "street": null,
    "office_name": null,
    "office_name_kana": null
  },
  "1584": {
    "zip_code": "0991584",
    "prefecture": "北海道",
    "prefecture_kana": "ホッカイドウ",
    "prefecture_code": 1,
    "city": "北見市",
    "city_kana": "キタミシ",
    "town": "常川",
    "town_kana": "ツネカワ",
    "street": null,
    "office_name": null,
    "office_name_kana": null
  },
  "1585": {
    "zip_code": "0991585",
    "prefecture": "北海道",
    "prefecture_kana": "ホッカイドウ",
    "prefecture_code": 1,
    "city": "北見市",
    "city_kana": "キタミシ",
    "town": "上ところ",
    "town_kana": "カミトコロ",
    "street": null,
    "office_name": null,
    "office_name_kana": null
  },
  "1586": {
    "zip_code": "0991586",
    "prefecture": "北海道",
    "prefecture_kana": "ホッカイドウ",
    "prefecture_code": 1,
    "city": "北見市",
    "city_kana": "キタミシ",
    "town": "広郷",
    "town_kana": "ヒロサト",
    "street": null,
    "office_name": null,
    "office_name_kana": null
  },
  "1587": {
    "zip_code": "0991587",
    "prefecture": "北海道",
    "prefecture_kana": "ホッカイドウ",
    "prefecture_code": 1,
    "city": "北見市",
    "city_kana": "キタミシ",
    "town": "豊地",
    "town_kana": "ホウヂ",
    "street": null,
    "office_name": null,
    "office_name_kana": null
  },
  "1595": {
    "zip_code": "0991595",
    "prefecture": "北海道",
    "prefecture_kana": "ホッカイドウ",
    "prefecture_code": 1,
    "city": "北見市",
    "city_kana": "キタミシ",
    "town": "豊地",
    "town_kana": "ホウヂ",
    "street": "３０番地",
    "office_name": "京セラ　株式会社　北海道北見工場",
    "office_name_kana": "キヨウセラ カブシキガイシヤ ホツカイドウキタミコウジヨウ"
  },
  "2101": {
    "zip_code": "0992101",
    "prefecture": "北海道",
    "prefecture_kana": "ホッカイドウ",
    "prefecture_code": 1,
    "city": "北見市",
    "city_kana": "キタミシ",
    "town": "端野町一区",
    "town_kana": "タンノチョウ1ク",
    "street": null,
    "office_name": null,
    "office_name_kana": null
  },
  "2102": {
    "zip_code": "0992102",
    "prefecture": "北海道",
    "prefecture_kana": "ホッカイドウ",
    "prefecture_code": 1,
    "city": "北見市",
    "city_kana": "キタミシ",
    "town": "端野町二区",
    "town_kana": "タンノチョウ2ク",
    "street": null,
    "office_name": null,
    "office_name_kana": null
  },
  "2103": {
    "zip_code": "0992103",
    "prefecture": "北海道",
    "prefecture_kana": "ホッカイドウ",
    "prefecture_code": 1,
    "city": "北見市",
    "city_kana": "キタミシ",
    "town": "端野町三区",
    "town_kana": "タンノチョウ3ク",
    "street": null,
    "office_name": null,
    "office_name_kana": null
  },
  "2104": {
    "zip_code": "0992104",
    "prefecture": "北海道",
    "prefecture_kana": "ホッカイドウ",
    "prefecture_code": 1,
    "city": "北見市",
    "city_kana": "キタミシ",
    "town": "端野町端野",
    "town_kana": "タンノチョウタンノ",
    "street": null,
    "office_name": null,
    "office_name_kana": null
  },
  "2105": {
    "zip_code": "0992105",
    "prefecture": "北海道",
    "prefecture_kana": "ホッカイドウ",
    "prefecture_code": 1,
    "city": "北見市",
    "city_kana": "キタミシ",
    "town": "端野町忠志",
    "town_kana": "タンノチョウチュウシ",
    "street": null,
    "office_name": null,
    "office_name_kana": null
  },
  "2106": {
    "zip_code": "0992106",
    "prefecture": "北海道",
    "prefecture_kana": "ホッカイドウ",
    "prefecture_code": 1,
    "city": "北見市",
    "city_kana": "キタミシ",
    "town": "端野町協和",
    "town_kana": "タンノチョウキョウワ",
    "street": null,
    "office_name": null,
    "office_name_kana": null
  },
  "2107": {
    "zip_code": "0992107",
    "prefecture": "北海道",
    "prefecture_kana": "ホッカイドウ",
    "prefecture_code": 1,
    "city": "北見市",
    "city_kana": "キタミシ",
    "town": "端野町川向",
    "town_kana": "タンノチョウカワムカイ",
    "street": null,
    "office_name": null,
    "office_name_kana": null
  },
  "2111": {
    "zip_code": "0992111",
    "prefecture": "北海道",
    "prefecture_kana": "ホッカイドウ",
    "prefecture_code": 1,
    "city": "北見市",
    "city_kana": "キタミシ",
    "town": "端野町北登",
    "town_kana": "タンノチョウホクト",
    "street": null,
    "office_name": null,
    "office_name_kana": null
  },
  "2112": {
    "zip_code": "0992112",
    "prefecture": "北海道",
    "prefecture_kana": "ホッカイドウ",
    "prefecture_code": 1,
    "city": "北見市",
    "city_kana": "キタミシ",
    "town": "端野町豊実",
    "town_kana": "タンノチョウトヨミ",
    "street": null,
    "office_name": null,
    "office_name_kana": null
  },
  "2192": {
    "zip_code": "0992192",
    "prefecture": "北海道",
    "prefecture_kana": "ホッカイドウ",
    "prefecture_code": 1,
    "city": "北見市",
    "city_kana": "キタミシ",
    "town": "端野町二区",
    "town_kana": "タンノチョウ2ク",
    "street": "４７１番地１",
    "office_name": "北見市役所　端野総合支所",
    "office_name_kana": "キタミシヤクシヨ タンノソウゴウシシヨ"
  },
  "2193": {
    "zip_code": "0992193",
    "prefecture": "北海道",
    "prefecture_kana": "ホッカイドウ",
    "prefecture_code": 1,
    "city": "北見市",
    "city_kana": "キタミシ",
    "town": "端野町三区",
    "town_kana": "タンノチョウ3ク",
    "street": "４８３番地１７号",
    "office_name": "きたみらい農業協同組合　端野支所",
    "office_name_kana": "キタミライノウギヨウキヨウドウクミアイ タンノシシヨ"
  },
  "2194": {
    "zip_code": "0992194",
    "prefecture": "北海道",
    "prefecture_kana": "ホッカイドウ",
    "prefecture_code": 1,
    "city": "北見市",
    "city_kana": "キタミシ",
    "town": "端野町二区",
    "town_kana": "タンノチョウ2ク",
    "street": "４７１番地１",
    "office_name": "北見市教育委員会",
    "office_name_kana": "キタミシキヨウイクイインカイ"
  },
  "2195": {
    "zip_code": "0992195",
    "prefecture": "北海道",
    "prefecture_kana": "ホッカイドウ",
    "prefecture_code": 1,
    "city": "北見市",
    "city_kana": "キタミシ",
    "town": "端野町三区",
    "town_kana": "タンノチョウ3ク",
    "street": "５７２番地１号",
    "office_name": "東武端野店",
    "office_name_kana": "トウブタンノテン"
  },
  "2196": {
    "zip_code": "0992196",
    "prefecture": "北海道",
    "prefecture_kana": "ホッカイドウ",
    "prefecture_code": 1,
    "city": "北見市",
    "city_kana": "キタミシ",
    "town": "端野町緋牛内",
    "town_kana": "タンノチョウヒウシナイ",
    "street": "１５３番地の５",
    "office_name": "オホーツク観光　株式会社",
    "office_name_kana": "オホ-ツクカンコウ カブシキカイシヤ"
  },
  "2197": {
    "zip_code": "0992197",
    "prefecture": "北海道",
    "prefecture_kana": "ホッカイドウ",
    "prefecture_code": 1,
    "city": "北見市",
    "city_kana": "キタミシ",
    "town": "端野町緋牛内",
    "town_kana": "タンノチョウヒウシナイ",
    "street": "１５３番地の５",
    "office_name": "網走水産　株式会社",
    "office_name_kana": "アバシリスイサン カブシキカイシヤ"
  },
  "2198": {
    "zip_code": "0992198",
    "prefecture": "北海道",
    "prefecture_kana": "ホッカイドウ",
    "prefecture_code": 1,
    "city": "北見市",
    "city_kana": "キタミシ",
    "town": "端野町三区",
    "town_kana": "タンノチョウ3ク",
    "street": "５８３番地１",
    "office_name": "北海道北見商業高等学校",
    "office_name_kana": "ホツカイドウキタミシヨウギヨウコウトウガツコウ"
  },
  "2231": {
    "zip_code": "0992231",
    "prefecture": "北海道",
    "prefecture_kana": "ホッカイドウ",
    "prefecture_code": 1,
    "city": "北見市",
    "city_kana": "キタミシ",
    "town": "端野町緋牛内",
    "town_kana": "タンノチョウヒウシナイ",
    "street": null,
    "office_name": null,
    "office_name_kana": null
  },
  "2300": {
    "zip_code": "0992300",
    "prefecture": "北海道",
    "prefecture_kana": "ホッカイドウ",
    "prefecture_code": 1,
    "city": "網走郡大空町",
    "city_kana": "アバシリグンオオゾラチョウ",
    "town": "",
    "town_kana": "",
    "street": null,
    "office_name": null,
    "office_name_kana": null
  },
  "2301": {
    "zip_code": "0992301",
    "prefecture": "北海道",
    "prefecture_kana": "ホッカイドウ",
    "prefecture_code": 1,
    "city": "網走郡大空町",
    "city_kana": "アバシリグンオオゾラチョウ",
    "town": "女満別本郷",
    "town_kana": "メマンベツホンゴウ",
    "street": null,
    "office_name": null,
    "office_name_kana": null
  },
  "2302": {
    "zip_code": "0992302",
    "prefecture": "北海道",
    "prefecture_kana": "ホッカイドウ",
    "prefecture_code": 1,
    "city": "網走郡大空町",
    "city_kana": "アバシリグンオオゾラチョウ",
    "town": "女満別住吉",
    "town_kana": "メマンベツスミヨシ",
    "street": null,
    "office_name": null,
    "office_name_kana": null
  },
  "2303": {
    "zip_code": "0992303",
    "prefecture": "北海道",
    "prefecture_kana": "ホッカイドウ",
    "prefecture_code": 1,
    "city": "網走郡大空町",
    "city_kana": "アバシリグンオオゾラチョウ",
    "town": "女満別豊里",
    "town_kana": "メマンベツトヨサト",
    "street": null,
    "office_name": null,
    "office_name_kana": null
  },
  "2304": {
    "zip_code": "0992304",
    "prefecture": "北海道",
    "prefecture_kana": "ホッカイドウ",
    "prefecture_code": 1,
    "city": "網走郡大空町",
    "city_kana": "アバシリグンオオゾラチョウ",
    "town": "女満別公園",
    "town_kana": "メマンベツコウエン",
    "street": null,
    "office_name": null,
    "office_name_kana": null
  },
  "2305": {
    "zip_code": "0992305",
    "prefecture": "北海道",
    "prefecture_kana": "ホッカイドウ",
    "prefecture_code": 1,
    "city": "網走郡大空町",
    "city_kana": "アバシリグンオオゾラチョウ",
    "town": "女満別東陽",
    "town_kana": "メマンベツトウヨウ",
    "street": null,
    "office_name": null,
    "office_name_kana": null
  },
  "2306": {
    "zip_code": "0992306",
    "prefecture": "北海道",
    "prefecture_kana": "ホッカイドウ",
    "prefecture_code": 1,
    "city": "網走郡大空町",
    "city_kana": "アバシリグンオオゾラチョウ",
    "town": "女満別湖畔",
    "town_kana": "メマンベツコハン",
    "street": null,
    "office_name": null,
    "office_name_kana": null
  },
  "2310": {
    "zip_code": "0992310",
    "prefecture": "北海道",
    "prefecture_kana": "ホッカイドウ",
    "prefecture_code": 1,
    "city": "網走郡大空町",
    "city_kana": "アバシリグンオオゾラチョウ",
    "town": "女満別本通",
    "town_kana": "メマンベツホンドオリ",
    "street": null,
    "office_name": null,
    "office_name_kana": null
  },
  "2311": {
    "zip_code": "0992311",
    "prefecture": "北海道",
    "prefecture_kana": "ホッカイドウ",
    "prefecture_code": 1,
    "city": "網走郡大空町",
    "city_kana": "アバシリグンオオゾラチョウ",
    "town": "女満別東一条",
    "town_kana": "メマンベツヒガシ1ジョウ",
    "street": null,
    "office_name": null,
    "office_name_kana": null
  },
  "2312": {
    "zip_code": "0992312",
    "prefecture": "北海道",
    "prefecture_kana": "ホッカイドウ",
    "prefecture_code": 1,
    "city": "網走郡大空町",
    "city_kana": "アバシリグンオオゾラチョウ",
    "town": "女満別東二条",
    "town_kana": "メマンベツヒガシ2ジョウ",
    "street": null,
    "office_name": null,
    "office_name_kana": null
  },
  "2321": {
    "zip_code": "0992321",
    "prefecture": "北海道",
    "prefecture_kana": "ホッカイドウ",
    "prefecture_code": 1,
    "city": "網走郡大空町",
    "city_kana": "アバシリグンオオゾラチョウ",
    "town": "女満別西一条",
    "town_kana": "メマンベツニシ1ジョウ",
    "street": null,
    "office_name": null,
    "office_name_kana": null
  },
  "2322": {
    "zip_code": "0992322",
    "prefecture": "北海道",
    "prefecture_kana": "ホッカイドウ",
    "prefecture_code": 1,
    "city": "網走郡大空町",
    "city_kana": "アバシリグンオオゾラチョウ",
    "town": "女満別西二条",
    "town_kana": "メマンベツニシ2ジョウ",
    "street": null,
    "office_name": null,
    "office_name_kana": null
  },
  "2323": {
    "zip_code": "0992323",
    "prefecture": "北海道",
    "prefecture_kana": "ホッカイドウ",
    "prefecture_code": 1,
    "city": "網走郡大空町",
    "city_kana": "アバシリグンオオゾラチョウ",
    "town": "女満別西三条",
    "town_kana": "メマンベツニシ3ジョウ",
    "street": null,
    "office_name": null,
    "office_name_kana": null
  },
  "2324": {
    "zip_code": "0992324",
    "prefecture": "北海道",
    "prefecture_kana": "ホッカイドウ",
    "prefecture_code": 1,
    "city": "網走郡大空町",
    "city_kana": "アバシリグンオオゾラチョウ",
    "town": "女満別西四条",
    "town_kana": "メマンベツニシ4ジョウ",
    "street": null,
    "office_name": null,
    "office_name_kana": null
  },
  "2325": {
    "zip_code": "0992325",
    "prefecture": "北海道",
    "prefecture_kana": "ホッカイドウ",
    "prefecture_code": 1,
    "city": "網走郡大空町",
    "city_kana": "アバシリグンオオゾラチョウ",
    "town": "女満別西五条",
    "town_kana": "メマンベツニシ5ジョウ",
    "street": null,
    "office_name": null,
    "office_name_kana": null
  },
  "2326": {
    "zip_code": "0992326",
    "prefecture": "北海道",
    "prefecture_kana": "ホッカイドウ",
    "prefecture_code": 1,
    "city": "網走郡大空町",
    "city_kana": "アバシリグンオオゾラチョウ",
    "town": "女満別西六条",
    "town_kana": "メマンベツニシ6ジョウ",
    "street": null,
    "office_name": null,
    "office_name_kana": null
  },
  "2327": {
    "zip_code": "0992327",
    "prefecture": "北海道",
    "prefecture_kana": "ホッカイドウ",
    "prefecture_code": 1,
    "city": "網走郡大空町",
    "city_kana": "アバシリグンオオゾラチョウ",
    "town": "女満別西七条",
    "town_kana": "メマンベツニシ7ジョウ",
    "street": null,
    "office_name": null,
    "office_name_kana": null
  },
  "2351": {
    "zip_code": "0992351",
    "prefecture": "北海道",
    "prefecture_kana": "ホッカイドウ",
    "prefecture_code": 1,
    "city": "網走郡大空町",
    "city_kana": "アバシリグンオオゾラチョウ",
    "town": "女満別公園通",
    "town_kana": "メマンベツコウエンドオリ",
    "street": null,
    "office_name": null,
    "office_name_kana": null
  },
  "2354": {
    "zip_code": "0992354",
    "prefecture": "北海道",
    "prefecture_kana": "ホッカイドウ",
    "prefecture_code": 1,
    "city": "網走郡大空町",
    "city_kana": "アバシリグンオオゾラチョウ",
    "town": "女満別眺湖台",
    "town_kana": "メマンベツチョウコダイ",
    "street": null,
    "office_name": null,
    "office_name_kana": null
  },
  "2355": {
    "zip_code": "0992355",
    "prefecture": "北海道",
    "prefecture_kana": "ホッカイドウ",
    "prefecture_code": 1,
    "city": "網走郡大空町",
    "city_kana": "アバシリグンオオゾラチョウ",
    "town": "女満別夕陽台",
    "town_kana": "メマンベツユウヒダイ",
    "street": null,
    "office_name": null,
    "office_name_kana": null
  },
  "2356": {
    "zip_code": "0992356",
    "prefecture": "北海道",
    "prefecture_kana": "ホッカイドウ",
    "prefecture_code": 1,
    "city": "網走郡大空町",
    "city_kana": "アバシリグンオオゾラチョウ",
    "town": "女満別昭和",
    "town_kana": "メマンベツショウワ",
    "street": null,
    "office_name": null,
    "office_name_kana": null
  },
  "2361": {
    "zip_code": "0992361",
    "prefecture": "北海道",
    "prefecture_kana": "ホッカイドウ",
    "prefecture_code": 1,
    "city": "網走郡大空町",
    "city_kana": "アバシリグンオオゾラチョウ",
    "town": "女満別湖南",
    "town_kana": "メマンベツコナン",
    "street": null,
    "office_name": null,
    "office_name_kana": null
  },
  "2362": {
    "zip_code": "0992362",
    "prefecture": "北海道",
    "prefecture_kana": "ホッカイドウ",
    "prefecture_code": 1,
    "city": "網走郡大空町",
    "city_kana": "アバシリグンオオゾラチョウ",
    "town": "女満別朝日",
    "town_kana": "メマンベツアサヒ",
    "street": null,
    "office_name": null,
    "office_name_kana": null
  },
  "2371": {
    "zip_code": "0992371",
    "prefecture": "北海道",
    "prefecture_kana": "ホッカイドウ",
    "prefecture_code": 1,
    "city": "網走郡大空町",
    "city_kana": "アバシリグンオオゾラチョウ",
    "town": "女満別中央",
    "town_kana": "メマンベツチュウオウ",
    "street": null,
    "office_name": null,
    "office_name_kana": null
  },
  "2372": {
    "zip_code": "0992372",
    "prefecture": "北海道",
    "prefecture_kana": "ホッカイドウ",
    "prefecture_code": 1,
    "city": "網走郡大空町",
    "city_kana": "アバシリグンオオゾラチョウ",
    "town": "女満別大東",
    "town_kana": "メマンベツダイトウ",
    "street": null,
    "office_name": null,
    "office_name_kana": null
  },
  "2373": {
    "zip_code": "0992373",
    "prefecture": "北海道",
    "prefecture_kana": "ホッカイドウ",
    "prefecture_code": 1,
    "city": "網走郡大空町",
    "city_kana": "アバシリグンオオゾラチョウ",
    "town": "女満別巴沢",
    "town_kana": "メマンベツトモエザワ",
    "street": null,
    "office_name": null,
    "office_name_kana": null
  },
  "2381": {
    "zip_code": "0992381",
    "prefecture": "北海道",
    "prefecture_kana": "ホッカイドウ",
    "prefecture_code": 1,
    "city": "網走郡大空町",
    "city_kana": "アバシリグンオオゾラチョウ",
    "town": "女満別大成",
    "town_kana": "メマンベツタイセイ",
    "street": null,
    "office_name": null,
    "office_name_kana": null
  },
  "2382": {
    "zip_code": "0992382",
    "prefecture": "北海道",
    "prefecture_kana": "ホッカイドウ",
    "prefecture_code": 1,
    "city": "網走郡大空町",
    "city_kana": "アバシリグンオオゾラチョウ",
    "town": "女満別開陽",
    "town_kana": "メマンベツカイヨウ",
    "street": null,
    "office_name": null,
    "office_name_kana": null
  },
  "2383": {
    "zip_code": "0992383",
    "prefecture": "北海道",
    "prefecture_kana": "ホッカイドウ",
    "prefecture_code": 1,
    "city": "網走郡大空町",
    "city_kana": "アバシリグンオオゾラチョウ",
    "town": "女満別日進",
    "town_kana": "メマンベツニッシン",
    "street": null,
    "office_name": null,
    "office_name_kana": null
  },
  "2392": {
    "zip_code": "0992392",
    "prefecture": "北海道",
    "prefecture_kana": "ホッカイドウ",
    "prefecture_code": 1,
    "city": "網走郡大空町",
    "city_kana": "アバシリグンオオゾラチョウ",
    "town": "女満別西三条",
    "town_kana": "メマンベツニシ3ジョウ",
    "street": "４丁目１番１号",
    "office_name": "大空町役場",
    "office_name_kana": "オオゾラチヨウヤクバ"
  },
  "2421": {
    "zip_code": "0992421",
    "prefecture": "北海道",
    "prefecture_kana": "ホッカイドウ",
    "prefecture_code": 1,
    "city": "網走市",
    "city_kana": "アバシリシ",
    "town": "呼人",
    "town_kana": "ヨビト",
    "street": null,
    "office_name": null,
    "office_name_kana": null
  },
  "2422": {
    "zip_code": "0992422",
    "prefecture": "北海道",
    "prefecture_kana": "ホッカイドウ",
    "prefecture_code": 1,
    "city": "網走市",
    "city_kana": "アバシリシ",
    "town": "八坂",
    "town_kana": "ヤサカ",
    "street": null,
    "office_name": null,
    "office_name_kana": null
  },
  "2423": {
    "zip_code": "0992423",
    "prefecture": "北海道",
    "prefecture_kana": "ホッカイドウ",
    "prefecture_code": 1,
    "city": "網走市",
    "city_kana": "アバシリシ",
    "town": "東網走",
    "town_kana": "ヒガシアバシリ",
    "street": null,
    "office_name": null,
    "office_name_kana": null
  },
  "2424": {
    "zip_code": "0992424",
    "prefecture": "北海道",
    "prefecture_kana": "ホッカイドウ",
    "prefecture_code": 1,
    "city": "網走市",
    "city_kana": "アバシリシ",
    "town": "中園",
    "town_kana": "ナカゾノ",
    "street": null,
    "office_name": null,
    "office_name_kana": null
  },
  "2492": {
    "zip_code": "0992492",
    "prefecture": "北海道",
    "prefecture_kana": null,
    "prefecture_code": null,
    "city": "網走市",
    "city_kana": null,
    "town": "字呼人",
    "town_kana": null,
    "street": "２３番地３",
    "office_name": "株式会社　網走観光ホテル",
    "office_name_kana": "カブシキガイシヤ アバシリカンコウホテル"
  },
  "2493": {
    "zip_code": "0992493",
    "prefecture": "北海道",
    "prefecture_kana": null,
    "prefecture_code": null,
    "city": "網走市",
    "city_kana": null,
    "town": "字八坂",
    "town_kana": null,
    "street": "１９６番地",
    "office_name": "東京農業大学　生物産業学部",
    "office_name_kana": "トウキヨウノウギヨウダイガク セイブツサンギヨウガクブ"
  },
  "2495": {
    "zip_code": "0992495",
    "prefecture": "北海道",
    "prefecture_kana": null,
    "prefecture_code": null,
    "city": "網走市",
    "city_kana": null,
    "town": "字呼人",
    "town_kana": null,
    "street": "２３番地３",
    "office_name": "株式会社　ホテルビューパーク",
    "office_name_kana": "カブシキガイシヤ ホテルビユ-パ-ク"
  },
  "3111": {
    "zip_code": "0993111",
    "prefecture": "北海道",
    "prefecture_kana": "ホッカイドウ",
    "prefecture_code": 1,
    "city": "網走市",
    "city_kana": "アバシリシ",
    "town": "藻琴",
    "town_kana": "モコト",
    "street": null,
    "office_name": null,
    "office_name_kana": null
  },
  "3112": {
    "zip_code": "0993112",
    "prefecture": "北海道",
    "prefecture_kana": "ホッカイドウ",
    "prefecture_code": 1,
    "city": "網走市",
    "city_kana": "アバシリシ",
    "town": "北浜",
    "town_kana": "キタハマ",
    "street": null,
    "office_name": null,
    "office_name_kana": null
  },
  "3113": {
    "zip_code": "0993113",
    "prefecture": "北海道",
    "prefecture_kana": "ホッカイドウ",
    "prefecture_code": 1,
    "city": "網走市",
    "city_kana": "アバシリシ",
    "town": "実豊",
    "town_kana": "ミトヨ",
    "street": null,
    "office_name": null,
    "office_name_kana": null
  },
  "3114": {
    "zip_code": "0993114",
    "prefecture": "北海道",
    "prefecture_kana": "ホッカイドウ",
    "prefecture_code": 1,
    "city": "網走市",
    "city_kana": "アバシリシ",
    "town": "丸万",
    "town_kana": "マルマン",
    "street": null,
    "office_name": null,
    "office_name_kana": null
  },
  "3115": {
    "zip_code": "0993115",
    "prefecture": "北海道",
    "prefecture_kana": "ホッカイドウ",
    "prefecture_code": 1,
    "city": "網走市",
    "city_kana": "アバシリシ",
    "town": "稲富",
    "town_kana": "イナトミ",
    "street": null,
    "office_name": null,
    "office_name_kana": null
  },
  "3116": {
    "zip_code": "0993116",
    "prefecture": "北海道",
    "prefecture_kana": "ホッカイドウ",
    "prefecture_code": 1,
    "city": "網走市",
    "city_kana": "アバシリシ",
    "town": "山里",
    "town_kana": "ヤマサト",
    "street": null,
    "office_name": null,
    "office_name_kana": null
  },
  "3117": {
    "zip_code": "0993117",
    "prefecture": "北海道",
    "prefecture_kana": "ホッカイドウ",
    "prefecture_code": 1,
    "city": "網走市",
    "city_kana": "アバシリシ",
    "town": "昭和",
    "town_kana": "ショウワ",
    "street": null,
    "office_name": null,
    "office_name_kana": null
  },
  "3118": {
    "zip_code": "0993118",
    "prefecture": "北海道",
    "prefecture_kana": "ホッカイドウ",
    "prefecture_code": 1,
    "city": "網走市",
    "city_kana": "アバシリシ",
    "town": "豊郷",
    "town_kana": "トヨサト",
    "street": null,
    "office_name": null,
    "office_name_kana": null
  },
  "3119": {
    "zip_code": "0993119",
    "prefecture": "北海道",
    "prefecture_kana": "ホッカイドウ",
    "prefecture_code": 1,
    "city": "網走市",
    "city_kana": "アバシリシ",
    "town": "鱒浦",
    "town_kana": "マスウラ",
    "street": null,
    "office_name": null,
    "office_name_kana": null
  },
  "3201": [
    {
      "zip_code": "0993201",
      "prefecture": "北海道",
      "prefecture_kana": "ホッカイドウ",
      "prefecture_code": 1,
      "city": "網走郡大空町",
      "city_kana": "アバシリグンオオゾラチョウ",
      "town": "東藻琴",
      "town_kana": "ヒガシモコト",
      "street": null,
      "office_name": null,
      "office_name_kana": null
    },
    {
      "zip_code": "0993201",
      "prefecture": "北海道",
      "prefecture_kana": "ホッカイドウ",
      "prefecture_code": 1,
      "city": "網走郡大空町",
      "city_kana": "アバシリグンオオゾラチョウ",
      "town": "東藻琴西区",
      "town_kana": "ヒガシモコトニシク",
      "street": null,
      "office_name": null,
      "office_name_kana": null
    }
  ],
  "3202": {
    "zip_code": "0993202",
    "prefecture": "北海道",
    "prefecture_kana": "ホッカイドウ",
    "prefecture_code": 1,
    "city": "網走郡大空町",
    "city_kana": "アバシリグンオオゾラチョウ",
    "town": "東藻琴西倉",
    "town_kana": "ヒガシモコトニシクラ",
    "street": null,
    "office_name": null,
    "office_name_kana": null
  },
  "3211": [
    {
      "zip_code": "0993211",
      "prefecture": "北海道",
      "prefecture_kana": "ホッカイドウ",
      "prefecture_code": 1,
      "city": "網走郡大空町",
      "city_kana": "アバシリグンオオゾラチョウ",
      "town": "東藻琴",
      "town_kana": "ヒガシモコト",
      "street": null,
      "office_name": null,
      "office_name_kana": null
    },
    {
      "zip_code": "0993211",
      "prefecture": "北海道",
      "prefecture_kana": "ホッカイドウ",
      "prefecture_code": 1,
      "city": "網走郡大空町",
      "city_kana": "アバシリグンオオゾラチョウ",
      "town": "東藻琴北１区",
      "town_kana": "ヒガシモコトキタ1ク",
      "street": null,
      "office_name": null,
      "office_name_kana": null
    }
  ],
  "3212": [
    {
      "zip_code": "0993212",
      "prefecture": "北海道",
      "prefecture_kana": "ホッカイドウ",
      "prefecture_code": 1,
      "city": "網走郡大空町",
      "city_kana": "アバシリグンオオゾラチョウ",
      "town": "東藻琴",
      "town_kana": "ヒガシモコト",
      "street": null,
      "office_name": null,
      "office_name_kana": null
    },
    {
      "zip_code": "0993212",
      "prefecture": "北海道",
      "prefecture_kana": "ホッカイドウ",
      "prefecture_code": 1,
      "city": "網走郡大空町",
      "city_kana": "アバシリグンオオゾラチョウ",
      "town": "東藻琴北２区",
      "town_kana": "ヒガシモコトキタ2ク",
      "street": null,
      "office_name": null,
      "office_name_kana": null
    }
  ],
  "3213": [
    {
      "zip_code": "0993213",
      "prefecture": "北海道",
      "prefecture_kana": "ホッカイドウ",
      "prefecture_code": 1,
      "city": "網走郡大空町",
      "city_kana": "アバシリグンオオゾラチョウ",
      "town": "東藻琴",
      "town_kana": "ヒガシモコト",
      "street": null,
      "office_name": null,
      "office_name_kana": null
    },
    {
      "zip_code": "0993213",
      "prefecture": "北海道",
      "prefecture_kana": "ホッカイドウ",
      "prefecture_code": 1,
      "city": "網走郡大空町",
      "city_kana": "アバシリグンオオゾラチョウ",
      "town": "東藻琴中央区",
      "town_kana": "ヒガシモコトチュウオウク",
      "street": null,
      "office_name": null,
      "office_name_kana": null
    }
  ],
  "3214": [
    {
      "zip_code": "0993214",
      "prefecture": "北海道",
      "prefecture_kana": "ホッカイドウ",
      "prefecture_code": 1,
      "city": "網走郡大空町",
      "city_kana": "アバシリグンオオゾラチョウ",
      "town": "東藻琴",
      "town_kana": "ヒガシモコト",
      "street": null,
      "office_name": null,
      "office_name_kana": null
    },
    {
      "zip_code": "0993214",
      "prefecture": "北海道",
      "prefecture_kana": "ホッカイドウ",
      "prefecture_code": 1,
      "city": "網走郡大空町",
      "city_kana": "アバシリグンオオゾラチョウ",
      "town": "東藻琴南区",
      "town_kana": "ヒガシモコトミナミク",
      "street": null,
      "office_name": null,
      "office_name_kana": null
    }
  ],
  "3221": {
    "zip_code": "0993221",
    "prefecture": "北海道",
    "prefecture_kana": "ホッカイドウ",
    "prefecture_code": 1,
    "city": "網走郡大空町",
    "city_kana": "アバシリグンオオゾラチョウ",
    "town": "東藻琴大進",
    "town_kana": "ヒガシモコトタイシン",
    "street": null,
    "office_name": null,
    "office_name_kana": null
  },
  "3222": {
    "zip_code": "0993222",
    "prefecture": "北海道",
    "prefecture_kana": "ホッカイドウ",
    "prefecture_code": 1,
    "city": "網走郡大空町",
    "city_kana": "アバシリグンオオゾラチョウ",
    "town": "東藻琴新富",
    "town_kana": "ヒガシモコトシントミ",
    "street": null,
    "office_name": null,
    "office_name_kana": null
  },
  "3223": [
    {
      "zip_code": "0993223",
      "prefecture": "北海道",
      "prefecture_kana": "ホッカイドウ",
      "prefecture_code": 1,
      "city": "網走郡大空町",
      "city_kana": "アバシリグンオオゾラチョウ",
      "town": "東藻琴",
      "town_kana": "ヒガシモコト",
      "street": null,
      "office_name": null,
      "office_name_kana": null
    },
    {
      "zip_code": "0993223",
      "prefecture": "北海道",
      "prefecture_kana": "ホッカイドウ",
      "prefecture_code": 1,
      "city": "網走郡大空町",
      "city_kana": "アバシリグンオオゾラチョウ",
      "town": "東藻琴東区",
      "town_kana": "ヒガシモコトヒガシク",
      "street": null,
      "office_name": null,
      "office_name_kana": null
    }
  ],
  "3224": {
    "zip_code": "0993224",
    "prefecture": "北海道",
    "prefecture_kana": "ホッカイドウ",
    "prefecture_code": 1,
    "city": "網走郡大空町",
    "city_kana": "アバシリグンオオゾラチョウ",
    "town": "東藻琴明生",
    "town_kana": "ヒガシモコトメイセイ",
    "street": null,
    "office_name": null,
    "office_name_kana": null
  },
  "3225": [
    {
      "zip_code": "0993225",
      "prefecture": "北海道",
      "prefecture_kana": "ホッカイドウ",
      "prefecture_code": 1,
      "city": "網走郡大空町",
      "city_kana": "アバシリグンオオゾラチョウ",
      "town": "東藻琴",
      "town_kana": "ヒガシモコト",
      "street": null,
      "office_name": null,
      "office_name_kana": null
    },
    {
      "zip_code": "0993225",
      "prefecture": "北海道",
      "prefecture_kana": "ホッカイドウ",
      "prefecture_code": 1,
      "city": "網走郡大空町",
      "city_kana": "アバシリグンオオゾラチョウ",
      "town": "東藻琴旭台",
      "town_kana": "ヒガシモコトアサヒダイ",
      "street": null,
      "office_name": null,
      "office_name_kana": null
    }
  ],
  "3231": {
    "zip_code": "0993231",
    "prefecture": "北海道",
    "prefecture_kana": "ホッカイドウ",
    "prefecture_code": 1,
    "city": "網走郡大空町",
    "city_kana": "アバシリグンオオゾラチョウ",
    "town": "東藻琴千草",
    "town_kana": "ヒガシモコトチクサ",
    "street": null,
    "office_name": null,
    "office_name_kana": null
  },
  "3232": {
    "zip_code": "0993232",
    "prefecture": "北海道",
    "prefecture_kana": "ホッカイドウ",
    "prefecture_code": 1,
    "city": "網走郡大空町",
    "city_kana": "アバシリグンオオゾラチョウ",
    "town": "東藻琴末広",
    "town_kana": "ヒガシモコトスエヒロ",
    "street": null,
    "office_name": null,
    "office_name_kana": null
  },
  "3233": [
    {
      "zip_code": "0993233",
      "prefecture": "北海道",
      "prefecture_kana": "ホッカイドウ",
      "prefecture_code": 1,
      "city": "網走郡大空町",
      "city_kana": "アバシリグンオオゾラチョウ",
      "town": "東藻琴",
      "town_kana": "ヒガシモコト",
      "street": null,
      "office_name": null,
      "office_name_kana": null
    },
    {
      "zip_code": "0993233",
      "prefecture": "北海道",
      "prefecture_kana": "ホッカイドウ",
      "prefecture_code": 1,
      "city": "網走郡大空町",
      "city_kana": "アバシリグンオオゾラチョウ",
      "town": "東藻琴上東",
      "town_kana": "ヒガシモコトカミヒガシ",
      "street": null,
      "office_name": null,
      "office_name_kana": null
    }
  ],
  "3234": {
    "zip_code": "0993234",
    "prefecture": "北海道",
    "prefecture_kana": "ホッカイドウ",
    "prefecture_code": 1,
    "city": "網走郡大空町",
    "city_kana": "アバシリグンオオゾラチョウ",
    "town": "東藻琴福富",
    "town_kana": "ヒガシモコトフクトミ",
    "street": null,
    "office_name": null,
    "office_name_kana": null
  },
  "3243": {
    "zip_code": "0993243",
    "prefecture": "北海道",
    "prefecture_kana": "ホッカイドウ",
    "prefecture_code": 1,
    "city": "網走郡大空町",
    "city_kana": "アバシリグンオオゾラチョウ",
    "town": "東藻琴山園",
    "town_kana": "ヒガシモコトヤマゾノ",
    "street": null,
    "office_name": null,
    "office_name_kana": null
  },
  "3244": {
    "zip_code": "0993244",
    "prefecture": "北海道",
    "prefecture_kana": "ホッカイドウ",
    "prefecture_code": 1,
    "city": "網走郡大空町",
    "city_kana": "アバシリグンオオゾラチョウ",
    "town": "東藻琴",
    "town_kana": "ヒガシモコト",
    "street": null,
    "office_name": null,
    "office_name_kana": null
  },
  "3292": {
    "zip_code": "0993292",
    "prefecture": "北海道",
    "prefecture_kana": "ホッカイドウ",
    "prefecture_code": 1,
    "city": "網走郡大空町",
    "city_kana": "アバシリグンオオゾラチョウ",
    "town": "東藻琴",
    "town_kana": "ヒガシモコト",
    "street": "７５番地",
    "office_name": "東藻琴村農業協同組合",
    "office_name_kana": "ヒガシモコトムラノウギヨウキヨウドウクミアイ"
  },
  "3293": {
    "zip_code": "0993293",
    "prefecture": "北海道",
    "prefecture_kana": "ホッカイドウ",
    "prefecture_code": 1,
    "city": "網走郡大空町",
    "city_kana": "アバシリグンオオゾラチョウ",
    "town": "東藻琴",
    "town_kana": "ヒガシモコト",
    "street": "３６０番地の１",
    "office_name": "大空町　東藻琴総合支所",
    "office_name_kana": "オオゾラチヨウ ヒガシモコトソウゴウシシヨ"
  },
  "3451": {
    "zip_code": "0993451",
    "prefecture": "北海道",
    "prefecture_kana": "ホッカイドウ",
    "prefecture_code": 1,
    "city": "斜里郡小清水町",
    "city_kana": "シャリグンコシミズチョウ",
    "town": "倉栄",
    "town_kana": "ソウエイ",
    "street": null,
    "office_name": null,
    "office_name_kana": null
  },
  "3452": {
    "zip_code": "0993452",
    "prefecture": "北海道",
    "prefecture_kana": "ホッカイドウ",
    "prefecture_code": 1,
    "city": "斜里郡小清水町",
    "city_kana": "シャリグンコシミズチョウ",
    "town": "浜小清水",
    "town_kana": "ハマコシミズ",
    "street": null,
    "office_name": null,
    "office_name_kana": null
  },
  "3453": {
    "zip_code": "0993453",
    "prefecture": "北海道",
    "prefecture_kana": "ホッカイドウ",
    "prefecture_code": 1,
    "city": "斜里郡小清水町",
    "city_kana": "シャリグンコシミズチョウ",
    "town": "北斗",
    "town_kana": "ホクト",
    "street": null,
    "office_name": null,
    "office_name_kana": null
  },
  "3454": {
    "zip_code": "0993454",
    "prefecture": "北海道",
    "prefecture_kana": "ホッカイドウ",
    "prefecture_code": 1,
    "city": "斜里郡小清水町",
    "city_kana": "シャリグンコシミズチョウ",
    "town": "止別",
    "town_kana": "ヤンベツ",
    "street": null,
    "office_name": null,
    "office_name_kana": null
  },
  "3501": {
    "zip_code": "0993501",
    "prefecture": "北海道",
    "prefecture_kana": "ホッカイドウ",
    "prefecture_code": 1,
    "city": "網走市",
    "city_kana": "アバシリシ",
    "town": "音根内",
    "town_kana": "オンネナイ",
    "street": null,
    "office_name": null,
    "office_name_kana": null
  },
  "3502": {
    "zip_code": "0993502",
    "prefecture": "北海道",
    "prefecture_kana": "ホッカイドウ",
    "prefecture_code": 1,
    "city": "網走市",
    "city_kana": "アバシリシ",
    "town": "浦士別",
    "town_kana": "ウラシベツ",
    "street": null,
    "office_name": null,
    "office_name_kana": null
  },
  "3503": {
    "zip_code": "0993503",
    "prefecture": "北海道",
    "prefecture_kana": "ホッカイドウ",
    "prefecture_code": 1,
    "city": "網走市",
    "city_kana": "アバシリシ",
    "town": "栄",
    "town_kana": "サカエ",
    "street": null,
    "office_name": null,
    "office_name_kana": null
  },
  "3504": {
    "zip_code": "0993504",
    "prefecture": "北海道",
    "prefecture_kana": "ホッカイドウ",
    "prefecture_code": 1,
    "city": "網走市",
    "city_kana": "アバシリシ",
    "town": "清浦",
    "town_kana": "キヨウラ",
    "street": null,
    "office_name": null,
    "office_name_kana": null
  },
  "3600": {
    "zip_code": "0993600",
    "prefecture": "北海道",
    "prefecture_kana": "ホッカイドウ",
    "prefecture_code": 1,
    "city": "斜里郡小清水町",
    "city_kana": "シャリグンコシミズチョウ",
    "town": "",
    "town_kana": "",
    "street": null,
    "office_name": null,
    "office_name_kana": null
  },
  "3601": {
    "zip_code": "0993601",
    "prefecture": "北海道",
    "prefecture_kana": "ホッカイドウ",
    "prefecture_code": 1,
    "city": "斜里郡小清水町",
    "city_kana": "シャリグンコシミズチョウ",
    "town": "萱野",
    "town_kana": "カヤノ",
    "street": null,
    "office_name": null,
    "office_name_kana": null
  },
  "3602": {
    "zip_code": "0993602",
    "prefecture": "北海道",
    "prefecture_kana": "ホッカイドウ",
    "prefecture_code": 1,
    "city": "斜里郡小清水町",
    "city_kana": "シャリグンコシミズチョウ",
    "town": "東野",
    "town_kana": "ヒガシノ",
    "street": null,
    "office_name": null,
    "office_name_kana": null
  },
  "3603": {
    "zip_code": "0993603",
    "prefecture": "北海道",
    "prefecture_kana": "ホッカイドウ",
    "prefecture_code": 1,
    "city": "斜里郡小清水町",
    "city_kana": "シャリグンコシミズチョウ",
    "town": "泉",
    "town_kana": "イズミ",
    "street": null,
    "office_name": null,
    "office_name_kana": null
  },
  "3604": {
    "zip_code": "0993604",
    "prefecture": "北海道",
    "prefecture_kana": "ホッカイドウ",
    "prefecture_code": 1,
    "city": "斜里郡小清水町",
    "city_kana": "シャリグンコシミズチョウ",
    "town": "水上",
    "town_kana": "ミズカミ",
    "street": null,
    "office_name": null,
    "office_name_kana": null
  },
  "3605": {
    "zip_code": "0993605",
    "prefecture": "北海道",
    "prefecture_kana": "ホッカイドウ",
    "prefecture_code": 1,
    "city": "斜里郡小清水町",
    "city_kana": "シャリグンコシミズチョウ",
    "town": "もこと山",
    "town_kana": "モコトヤマ",
    "street": null,
    "office_name": null,
    "office_name_kana": null
  },
  "3611": {
    "zip_code": "0993611",
    "prefecture": "北海道",
    "prefecture_kana": "ホッカイドウ",
    "prefecture_code": 1,
    "city": "斜里郡小清水町",
    "city_kana": "シャリグンコシミズチョウ",
    "town": "上徳",
    "town_kana": "カミトク",
    "street": null,
    "office_name": null,
    "office_name_kana": null
  },
  "3612": {
    "zip_code": "0993612",
    "prefecture": "北海道",
    "prefecture_kana": "ホッカイドウ",
    "prefecture_code": 1,
    "city": "斜里郡小清水町",
    "city_kana": "シャリグンコシミズチョウ",
    "town": "共和",
    "town_kana": "キョウワ",
    "street": null,
    "office_name": null,
    "office_name_kana": null
  },
  "3613": {
    "zip_code": "0993613",
    "prefecture": "北海道",
    "prefecture_kana": "ホッカイドウ",
    "prefecture_code": 1,
    "city": "斜里郡小清水町",
    "city_kana": "シャリグンコシミズチョウ",
    "town": "神浦",
    "town_kana": "カミウラ",
    "street": null,
    "office_name": null,
    "office_name_kana": null
  },
  "3614": {
    "zip_code": "0993614",
    "prefecture": "北海道",
    "prefecture_kana": "ホッカイドウ",
    "prefecture_code": 1,
    "city": "斜里郡小清水町",
    "city_kana": "シャリグンコシミズチョウ",
    "town": "美和",
    "town_kana": "ミワ",
    "street": null,
    "office_name": null,
    "office_name_kana": null
  },
  "3615": {
    "zip_code": "0993615",
    "prefecture": "北海道",
    "prefecture_kana": "ホッカイドウ",
    "prefecture_code": 1,
    "city": "斜里郡小清水町",
    "city_kana": "シャリグンコシミズチョウ",
    "town": "中里",
    "town_kana": "ナカサト",
    "street": null,
    "office_name": null,
    "office_name_kana": null
  },
  "3616": {
    "zip_code": "0993616",
    "prefecture": "北海道",
    "prefecture_kana": "ホッカイドウ",
    "prefecture_code": 1,
    "city": "斜里郡小清水町",
    "city_kana": "シャリグンコシミズチョウ",
    "town": "旭",
    "town_kana": "アサヒ",
    "street": null,
    "office_name": null,
    "office_name_kana": null
  },
  "3621": [
    {
      "zip_code": "0993621",
      "prefecture": "北海道",
      "prefecture_kana": "ホッカイドウ",
      "prefecture_code": 1,
      "city": "斜里郡小清水町",
      "city_kana": "シャリグンコシミズチョウ",
      "town": "小清水",
      "town_kana": "コシミズ",
      "street": null,
      "office_name": null,
      "office_name_kana": null
    },
    {
      "zip_code": "0993621",
      "prefecture": "北海道",
      "prefecture_kana": "ホッカイドウ",
      "prefecture_code": 1,
      "city": "斜里郡小清水町",
      "city_kana": "シャリグンコシミズチョウ",
      "town": "小清水１区桜ケ丘",
      "town_kana": "コシミズ1クサクラガオカ",
      "street": null,
      "office_name": null,
      "office_name_kana": null
    }
  ],
  "3622": [
    {
      "zip_code": "0993622",
      "prefecture": "北海道",
      "prefecture_kana": "ホッカイドウ",
      "prefecture_code": 1,
      "city": "斜里郡小清水町",
      "city_kana": "シャリグンコシミズチョウ",
      "town": "小清水",
      "town_kana": "コシミズ",
      "street": null,
      "office_name": null,
      "office_name_kana": null
    },
    {
      "zip_code": "0993622",
      "prefecture": "北海道",
      "prefecture_kana": "ホッカイドウ",
      "prefecture_code": 1,
      "city": "斜里郡小清水町",
      "city_kana": "シャリグンコシミズチョウ",
      "town": "小清水１区",
      "town_kana": "コシミズ1ク",
      "street": null,
      "office_name": null,
      "office_name_kana": null
    }
  ],
  "3623": [
    {
      "zip_code": "0993623",
      "prefecture": "北海道",
      "prefecture_kana": "ホッカイドウ",
      "prefecture_code": 1,
      "city": "斜里郡小清水町",
      "city_kana": "シャリグンコシミズチョウ",
      "town": "小清水",
      "town_kana": "コシミズ",
      "street": null,
      "office_name": null,
      "office_name_kana": null
    },
    {
      "zip_code": "0993623",
      "prefecture": "北海道",
      "prefecture_kana": "ホッカイドウ",
      "prefecture_code": 1,
      "city": "斜里郡小清水町",
      "city_kana": "シャリグンコシミズチョウ",
      "town": "小清水２区",
      "town_kana": "コシミズ2ク",
      "street": null,
      "office_name": null,
      "office_name_kana": null
    }
  ],
  "3624": [
    {
      "zip_code": "0993624",
      "prefecture": "北海道",
      "prefecture_kana": "ホッカイドウ",
      "prefecture_code": 1,
      "city": "斜里郡小清水町",
      "city_kana": "シャリグンコシミズチョウ",
      "town": "小清水",
      "town_kana": "コシミズ",
      "street": null,
      "office_name": null,
      "office_name_kana": null
    },
    {
      "zip_code": "0993624",
      "prefecture": "北海道",
      "prefecture_kana": "ホッカイドウ",
      "prefecture_code": 1,
      "city": "斜里郡小清水町",
      "city_kana": "シャリグンコシミズチョウ",
      "town": "小清水３区",
      "town_kana": "コシミズ3ク",
      "street": null,
      "office_name": null,
      "office_name_kana": null
    }
  ],
  "3625": [
    {
      "zip_code": "0993625",
      "prefecture": "北海道",
      "prefecture_kana": "ホッカイドウ",
      "prefecture_code": 1,
      "city": "斜里郡小清水町",
      "city_kana": "シャリグンコシミズチョウ",
      "town": "小清水",
      "town_kana": "コシミズ",
      "street": null,
      "office_name": null,
      "office_name_kana": null
    },
    {
      "zip_code": "0993625",
      "prefecture": "北海道",
      "prefecture_kana": "ホッカイドウ",
      "prefecture_code": 1,
      "city": "斜里郡小清水町",
      "city_kana": "シャリグンコシミズチョウ",
      "town": "小清水４区",
      "town_kana": "コシミズ4ク",
      "street": null,
      "office_name": null,
      "office_name_kana": null
    }
  ],
  "3626": [
    {
      "zip_code": "0993626",
      "prefecture": "北海道",
      "prefecture_kana": "ホッカイドウ",
      "prefecture_code": 1,
      "city": "斜里郡小清水町",
      "city_kana": "シャリグンコシミズチョウ",
      "town": "小清水",
      "town_kana": "コシミズ",
      "street": null,
      "office_name": null,
      "office_name_kana": null
    },
    {
      "zip_code": "0993626",
      "prefecture": "北海道",
      "prefecture_kana": "ホッカイドウ",
      "prefecture_code": 1,
      "city": "斜里郡小清水町",
      "city_kana": "シャリグンコシミズチョウ",
      "town": "小清水５区",
      "town_kana": "コシミズ5ク",
      "street": null,
      "office_name": null,
      "office_name_kana": null
    }
  ],
  "3627": [
    {
      "zip_code": "0993627",
      "prefecture": "北海道",
      "prefecture_kana": "ホッカイドウ",
      "prefecture_code": 1,
      "city": "斜里郡小清水町",
      "city_kana": "シャリグンコシミズチョウ",
      "town": "小清水",
      "town_kana": "コシミズ",
      "street": null,
      "office_name": null,
      "office_name_kana": null
    },
    {
      "zip_code": "0993627",
      "prefecture": "北海道",
      "prefecture_kana": "ホッカイドウ",
      "prefecture_code": 1,
      "city": "斜里郡小清水町",
      "city_kana": "シャリグンコシミズチョウ",
      "town": "小清水６区",
      "town_kana": "コシミズ6ク",
      "street": null,
      "office_name": null,
      "office_name_kana": null
    }
  ],
  "3628": [
    {
      "zip_code": "0993628",
      "prefecture": "北海道",
      "prefecture_kana": "ホッカイドウ",
      "prefecture_code": 1,
      "city": "斜里郡小清水町",
      "city_kana": "シャリグンコシミズチョウ",
      "town": "小清水",
      "town_kana": "コシミズ",
      "street": null,
      "office_name": null,
      "office_name_kana": null
    },
    {
      "zip_code": "0993628",
      "prefecture": "北海道",
      "prefecture_kana": "ホッカイドウ",
      "prefecture_code": 1,
      "city": "斜里郡小清水町",
      "city_kana": "シャリグンコシミズチョウ",
      "town": "小清水７区",
      "town_kana": "コシミズ7ク",
      "street": null,
      "office_name": null,
      "office_name_kana": null
    }
  ],
  "3631": [
    {
      "zip_code": "0993631",
      "prefecture": "北海道",
      "prefecture_kana": "ホッカイドウ",
      "prefecture_code": 1,
      "city": "斜里郡小清水町",
      "city_kana": "シャリグンコシミズチョウ",
      "town": "小清水",
      "town_kana": "コシミズ",
      "street": null,
      "office_name": null,
      "office_name_kana": null
    },
    {
      "zip_code": "0993631",
      "prefecture": "北海道",
      "prefecture_kana": "ホッカイドウ",
      "prefecture_code": 1,
      "city": "斜里郡小清水町",
      "city_kana": "シャリグンコシミズチョウ",
      "town": "小清水７区川東",
      "town_kana": "コシミズ7クカワヒガシ",
      "street": null,
      "office_name": null,
      "office_name_kana": null
    }
  ],
  "3632": [
    {
      "zip_code": "0993632",
      "prefecture": "北海道",
      "prefecture_kana": "ホッカイドウ",
      "prefecture_code": 1,
      "city": "斜里郡小清水町",
      "city_kana": "シャリグンコシミズチョウ",
      "town": "小清水",
      "town_kana": "コシミズ",
      "street": null,
      "office_name": null,
      "office_name_kana": null
    },
    {
      "zip_code": "0993632",
      "prefecture": "北海道",
      "prefecture_kana": "ホッカイドウ",
      "prefecture_code": 1,
      "city": "斜里郡小清水町",
      "city_kana": "シャリグンコシミズチョウ",
      "town": "小清水８区北",
      "town_kana": "コシミズ8クキタ",
      "street": null,
      "office_name": null,
      "office_name_kana": null
    }
  ],
  "3633": [
    {
      "zip_code": "0993633",
      "prefecture": "北海道",
      "prefecture_kana": "ホッカイドウ",
      "prefecture_code": 1,
      "city": "斜里郡小清水町",
      "city_kana": "シャリグンコシミズチョウ",
      "town": "小清水",
      "town_kana": "コシミズ",
      "street": null,
      "office_name": null,
      "office_name_kana": null
    },
    {
      "zip_code": "0993633",
      "prefecture": "北海道",
      "prefecture_kana": "ホッカイドウ",
      "prefecture_code": 1,
      "city": "斜里郡小清水町",
      "city_kana": "シャリグンコシミズチョウ",
      "town": "小清水８区南",
      "town_kana": "コシミズ8クミナミ",
      "street": null,
      "office_name": null,
      "office_name_kana": null
    }
  ],
  "3634": [
    {
      "zip_code": "0993634",
      "prefecture": "北海道",
      "prefecture_kana": "ホッカイドウ",
      "prefecture_code": 1,
      "city": "斜里郡小清水町",
      "city_kana": "シャリグンコシミズチョウ",
      "town": "小清水",
      "town_kana": "コシミズ",
      "street": null,
      "office_name": null,
      "office_name_kana": null
    },
    {
      "zip_code": "0993634",
      "prefecture": "北海道",
      "prefecture_kana": "ホッカイドウ",
      "prefecture_code": 1,
      "city": "斜里郡小清水町",
      "city_kana": "シャリグンコシミズチョウ",
      "town": "小清水９区北",
      "town_kana": "コシミズ9クキタ",
      "street": null,
      "office_name": null,
      "office_name_kana": null
    }
  ],
  "3635": [
    {
      "zip_code": "0993635",
      "prefecture": "北海道",
      "prefecture_kana": "ホッカイドウ",
      "prefecture_code": 1,
      "city": "斜里郡小清水町",
      "city_kana": "シャリグンコシミズチョウ",
      "town": "小清水",
      "town_kana": "コシミズ",
      "street": null,
      "office_name": null,
      "office_name_kana": null
    },
    {
      "zip_code": "0993635",
      "prefecture": "北海道",
      "prefecture_kana": "ホッカイドウ",
      "prefecture_code": 1,
      "city": "斜里郡小清水町",
      "city_kana": "シャリグンコシミズチョウ",
      "town": "小清水９区南",
      "town_kana": "コシミズ9クミナミ",
      "street": null,
      "office_name": null,
      "office_name_kana": null
    }
  ],
  "3636": [
    {
      "zip_code": "0993636",
      "prefecture": "北海道",
      "prefecture_kana": "ホッカイドウ",
      "prefecture_code": 1,
      "city": "斜里郡小清水町",
      "city_kana": "シャリグンコシミズチョウ",
      "town": "小清水",
      "town_kana": "コシミズ",
      "street": null,
      "office_name": null,
      "office_name_kana": null
    },
    {
      "zip_code": "0993636",
      "prefecture": "北海道",
      "prefecture_kana": "ホッカイドウ",
      "prefecture_code": 1,
      "city": "斜里郡小清水町",
      "city_kana": "シャリグンコシミズチョウ",
      "town": "小清水１０区",
      "town_kana": "コシミズ10ク",
      "street": null,
      "office_name": null,
      "office_name_kana": null
    }
  ],
  "3637": [
    {
      "zip_code": "0993637",
      "prefecture": "北海道",
      "prefecture_kana": "ホッカイドウ",
      "prefecture_code": 1,
      "city": "斜里郡小清水町",
      "city_kana": "シャリグンコシミズチョウ",
      "town": "小清水",
      "town_kana": "コシミズ",
      "street": null,
      "office_name": null,
      "office_name_kana": null
    },
    {
      "zip_code": "0993637",
      "prefecture": "北海道",
      "prefecture_kana": "ホッカイドウ",
      "prefecture_code": 1,
      "city": "斜里郡小清水町",
      "city_kana": "シャリグンコシミズチョウ",
      "town": "小清水１１区",
      "town_kana": "コシミズ11ク",
      "street": null,
      "office_name": null,
      "office_name_kana": null
    }
  ],
  "3697": {
    "zip_code": "0993697",
    "prefecture": "北海道",
    "prefecture_kana": null,
    "prefecture_code": null,
    "city": "斜里郡小清水町",
    "city_kana": null,
    "town": "字小清水",
    "town_kana": null,
    "street": "３７９番地",
    "office_name": "小清水町農業協同組合",
    "office_name_kana": "コシミズチヨウノウギヨウキヨウドウクミアイ"
  },
  "3698": {
    "zip_code": "0993698",
    "prefecture": "北海道",
    "prefecture_kana": null,
    "prefecture_code": null,
    "city": "斜里郡小清水町",
    "city_kana": null,
    "town": "字小清水",
    "town_kana": null,
    "street": "２１７番地",
    "office_name": "小清水町役場",
    "office_name_kana": "コシミズチヨウヤクバ"
  },
  "4100": {
    "zip_code": "0994100",
    "prefecture": "北海道",
    "prefecture_kana": "ホッカイドウ",
    "prefecture_code": 1,
    "city": "斜里郡斜里町",
    "city_kana": "シャリグンシャリチョウ",
    "town": "",
    "town_kana": "",
    "street": null,
    "office_name": null,
    "office_name_kana": null
  },
  "4111": {
    "zip_code": "0994111",
    "prefecture": "北海道",
    "prefecture_kana": "ホッカイドウ",
    "prefecture_code": 1,
    "city": "斜里郡斜里町",
    "city_kana": "シャリグンシャリチョウ",
    "town": "前浜町",
    "town_kana": "マエハママチ",
    "street": null,
    "office_name": null,
    "office_name_kana": null
  },
  "4112": {
    "zip_code": "0994112",
    "prefecture": "北海道",
    "prefecture_kana": "ホッカイドウ",
    "prefecture_code": 1,
    "city": "斜里郡斜里町",
    "city_kana": "シャリグンシャリチョウ",
    "town": "港町",
    "town_kana": "ミナトマチ",
    "street": null,
    "office_name": null,
    "office_name_kana": null
  },
  "4113": {
    "zip_code": "0994113",
    "prefecture": "北海道",
    "prefecture_kana": "ホッカイドウ",
    "prefecture_code": 1,
    "city": "斜里郡斜里町",
    "city_kana": "シャリグンシャリチョウ",
    "town": "本町",
    "town_kana": "ホンマチ",
    "street": null,
    "office_name": null,
    "office_name_kana": null
  },
  "4114": {
    "zip_code": "0994114",
    "prefecture": "北海道",
    "prefecture_kana": "ホッカイドウ",
    "prefecture_code": 1,
    "city": "斜里郡斜里町",
    "city_kana": "シャリグンシャリチョウ",
    "town": "朝日町",
    "town_kana": "アサヒマチ",
    "street": null,
    "office_name": null,
    "office_name_kana": null
  },
  "4115": {
    "zip_code": "0994115",
    "prefecture": "北海道",
    "prefecture_kana": "ホッカイドウ",
    "prefecture_code": 1,
    "city": "斜里郡斜里町",
    "city_kana": "シャリグンシャリチョウ",
    "town": "光陽町",
    "town_kana": "コウヨウチョウ",
    "street": null,
    "office_name": null,
    "office_name_kana": null
  },
  "4116": {
    "zip_code": "0994116",
    "prefecture": "北海道",
    "prefecture_kana": "ホッカイドウ",
    "prefecture_code": 1,
    "city": "斜里郡斜里町",
    "city_kana": "シャリグンシャリチョウ",
    "town": "文光町",
    "town_kana": "ブンコウチョウ",
    "street": null,
    "office_name": null,
    "office_name_kana": null
  },
  "4117": {
    "zip_code": "0994117",
    "prefecture": "北海道",
    "prefecture_kana": "ホッカイドウ",
    "prefecture_code": 1,
    "city": "斜里郡斜里町",
    "city_kana": "シャリグンシャリチョウ",
    "town": "青葉町",
    "town_kana": "アオバチョウ",
    "street": null,
    "office_name": null,
    "office_name_kana": null
  },
  "4118": {
    "zip_code": "0994118",
    "prefecture": "北海道",
    "prefecture_kana": "ホッカイドウ",
    "prefecture_code": 1,
    "city": "斜里郡斜里町",
    "city_kana": "シャリグンシャリチョウ",
    "town": "新光町",
    "town_kana": "シンコウチョウ",
    "street": null,
    "office_name": null,
    "office_name_kana": null
  },
  "4121": {
    "zip_code": "0994121",
    "prefecture": "北海道",
    "prefecture_kana": "ホッカイドウ",
    "prefecture_code": 1,
    "city": "斜里郡斜里町",
    "city_kana": "シャリグンシャリチョウ",
    "town": "日の出",
    "town_kana": "ヒノデ",
    "street": null,
    "office_name": null,
    "office_name_kana": null
  },
  "4122": {
    "zip_code": "0994122",
    "prefecture": "北海道",
    "prefecture_kana": "ホッカイドウ",
    "prefecture_code": 1,
    "city": "斜里郡斜里町",
    "city_kana": "シャリグンシャリチョウ",
    "town": "峰浜",
    "town_kana": "ミネハマ",
    "street": null,
    "office_name": null,
    "office_name_kana": null
  },
  "4123": {
    "zip_code": "0994123",
    "prefecture": "北海道",
    "prefecture_kana": "ホッカイドウ",
    "prefecture_code": 1,
    "city": "斜里郡斜里町",
    "city_kana": "シャリグンシャリチョウ",
    "town": "朱円東",
    "town_kana": "シュエンヒガシ",
    "street": null,
    "office_name": null,
    "office_name_kana": null
  },
  "4124": {
    "zip_code": "0994124",
    "prefecture": "北海道",
    "prefecture_kana": "ホッカイドウ",
    "prefecture_code": 1,
    "city": "斜里郡斜里町",
    "city_kana": "シャリグンシャリチョウ",
    "town": "朱円",
    "town_kana": "シュエン",
    "street": null,
    "office_name": null,
    "office_name_kana": null
  },
  "4125": {
    "zip_code": "0994125",
    "prefecture": "北海道",
    "prefecture_kana": "ホッカイドウ",
    "prefecture_code": 1,
    "city": "斜里郡斜里町",
    "city_kana": "シャリグンシャリチョウ",
    "town": "朱円西",
    "town_kana": "シュエンニシ",
    "street": null,
    "office_name": null,
    "office_name_kana": null
  },
  "4126": {
    "zip_code": "0994126",
    "prefecture": "北海道",
    "prefecture_kana": "ホッカイドウ",
    "prefecture_code": 1,
    "city": "斜里郡斜里町",
    "city_kana": "シャリグンシャリチョウ",
    "town": "以久科北",
    "town_kana": "イクシナキタ",
    "street": null,
    "office_name": null,
    "office_name_kana": null
  },
  "4127": {
    "zip_code": "0994127",
    "prefecture": "北海道",
    "prefecture_kana": "ホッカイドウ",
    "prefecture_code": 1,
    "city": "斜里郡斜里町",
    "city_kana": "シャリグンシャリチョウ",
    "town": "以久科南",
    "town_kana": "イクシナミナミ",
    "street": null,
    "office_name": null,
    "office_name_kana": null
  },
  "4131": {
    "zip_code": "0994131",
    "prefecture": "北海道",
    "prefecture_kana": "ホッカイドウ",
    "prefecture_code": 1,
    "city": "斜里郡斜里町",
    "city_kana": "シャリグンシャリチョウ",
    "town": "越川",
    "town_kana": "コシカワ",
    "street": null,
    "office_name": null,
    "office_name_kana": null
  },
  "4132": {
    "zip_code": "0994132",
    "prefecture": "北海道",
    "prefecture_kana": "ホッカイドウ",
    "prefecture_code": 1,
    "city": "斜里郡斜里町",
    "city_kana": "シャリグンシャリチョウ",
    "town": "富士",
    "town_kana": "フジ",
    "street": null,
    "office_name": null,
    "office_name_kana": null
  },
  "4133": {
    "zip_code": "0994133",
    "prefecture": "北海道",
    "prefecture_kana": "ホッカイドウ",
    "prefecture_code": 1,
    "city": "斜里郡斜里町",
    "city_kana": "シャリグンシャリチョウ",
    "town": "三井",
    "town_kana": "ミツイ",
    "street": null,
    "office_name": null,
    "office_name_kana": null
  },
  "4134": {
    "zip_code": "0994134",
    "prefecture": "北海道",
    "prefecture_kana": "ホッカイドウ",
    "prefecture_code": 1,
    "city": "斜里郡斜里町",
    "city_kana": "シャリグンシャリチョウ",
    "town": "豊里",
    "town_kana": "トヨサト",
    "street": null,
    "office_name": null,
    "office_name_kana": null
  },
  "4135": {
    "zip_code": "0994135",
    "prefecture": "北海道",
    "prefecture_kana": "ホッカイドウ",
    "prefecture_code": 1,
    "city": "斜里郡斜里町",
    "city_kana": "シャリグンシャリチョウ",
    "town": "来運",
    "town_kana": "ライウン",
    "street": null,
    "office_name": null,
    "office_name_kana": null
  },
  "4141": {
    "zip_code": "0994141",
    "prefecture": "北海道",
    "prefecture_kana": "ホッカイドウ",
    "prefecture_code": 1,
    "city": "斜里郡斜里町",
    "city_kana": "シャリグンシャリチョウ",
    "town": "豊倉",
    "town_kana": "トヨクラ",
    "street": null,
    "office_name": null,
    "office_name_kana": null
  },
  "4142": {
    "zip_code": "0994142",
    "prefecture": "北海道",
    "prefecture_kana": "ホッカイドウ",
    "prefecture_code": 1,
    "city": "斜里郡斜里町",
    "city_kana": "シャリグンシャリチョウ",
    "town": "中斜里",
    "town_kana": "ナカシャリ",
    "street": null,
    "office_name": null,
    "office_name_kana": null
  },
  "4143": {
    "zip_code": "0994143",
    "prefecture": "北海道",
    "prefecture_kana": "ホッカイドウ",
    "prefecture_code": 1,
    "city": "斜里郡斜里町",
    "city_kana": "シャリグンシャリチョウ",
    "town": "川上",
    "town_kana": "カワカミ",
    "street": null,
    "office_name": null,
    "office_name_kana": null
  },
  "4144": {
    "zip_code": "0994144",
    "prefecture": "北海道",
    "prefecture_kana": "ホッカイドウ",
    "prefecture_code": 1,
    "city": "斜里郡斜里町",
    "city_kana": "シャリグンシャリチョウ",
    "town": "大栄",
    "town_kana": "タイエイ",
    "street": null,
    "office_name": null,
    "office_name_kana": null
  },
  "4145": {
    "zip_code": "0994145",
    "prefecture": "北海道",
    "prefecture_kana": "ホッカイドウ",
    "prefecture_code": 1,
    "city": "斜里郡斜里町",
    "city_kana": "シャリグンシャリチョウ",
    "town": "美咲",
    "town_kana": "ミサキ",
    "street": null,
    "office_name": null,
    "office_name_kana": null
  },
  "4146": {
    "zip_code": "0994146",
    "prefecture": "北海道",
    "prefecture_kana": "ホッカイドウ",
    "prefecture_code": 1,
    "city": "斜里郡斜里町",
    "city_kana": "シャリグンシャリチョウ",
    "town": "港西町",
    "town_kana": "ミナトニシマチ",
    "street": null,
    "office_name": null,
    "office_name_kana": null
  },
  "4147": {
    "zip_code": "0994147",
    "prefecture": "北海道",
    "prefecture_kana": "ホッカイドウ",
    "prefecture_code": 1,
    "city": "斜里郡斜里町",
    "city_kana": "シャリグンシャリチョウ",
    "town": "西町",
    "town_kana": "ニシマチ",
    "street": null,
    "office_name": null,
    "office_name_kana": null
  },
  "4192": {
    "zip_code": "0994192",
    "prefecture": "北海道",
    "prefecture_kana": "ホッカイドウ",
    "prefecture_code": 1,
    "city": "斜里郡斜里町",
    "city_kana": "シャリグンシャリチョウ",
    "town": "本町",
    "town_kana": "ホンマチ",
    "street": "１２番地（斜里郵便局私書箱第１号）",
    "office_name": "斜里町役場",
    "office_name_kana": "シヤリチヨウヤクバ"
  },
  "4195": {
    "zip_code": "0994195",
    "prefecture": "北海道",
    "prefecture_kana": "ホッカイドウ",
    "prefecture_code": 1,
    "city": "斜里郡斜里町",
    "city_kana": "シャリグンシャリチョウ",
    "town": "本町",
    "town_kana": "ホンマチ",
    "street": "３６番地１（斜里郵便局私書箱第５号）",
    "office_name": "斜里町農業協同組合",
    "office_name_kana": "シヤリチヨウノウギヨウキヨウドウクミアイ"
  },
  "4196": {
    "zip_code": "0994196",
    "prefecture": "北海道",
    "prefecture_kana": null,
    "prefecture_code": null,
    "city": "斜里郡斜里町",
    "city_kana": null,
    "town": "字川上",
    "town_kana": null,
    "street": "１１１番地",
    "office_name": "ホクレン農業協同組合連合会　中斜里製糖工場",
    "office_name_kana": "ホクレンノウギヨウキヨウドウクミアイレンゴウカイ ナカシヤリセイトウコウジヨウ"
  },
  "4351": {
    "zip_code": "0994351",
    "prefecture": "北海道",
    "prefecture_kana": "ホッカイドウ",
    "prefecture_code": 1,
    "city": "斜里郡斜里町",
    "city_kana": "シャリグンシャリチョウ",
    "town": "ウトロ香川",
    "town_kana": "ウトロカガワ",
    "street": null,
    "office_name": null,
    "office_name_kana": null
  },
  "4352": {
    "zip_code": "0994352",
    "prefecture": "北海道",
    "prefecture_kana": "ホッカイドウ",
    "prefecture_code": 1,
    "city": "斜里郡斜里町",
    "city_kana": "シャリグンシャリチョウ",
    "town": "ウトロ高原",
    "town_kana": "ウトロコウゲン",
    "street": null,
    "office_name": null,
    "office_name_kana": null
  },
  "4353": {
    "zip_code": "0994353",
    "prefecture": "北海道",
    "prefecture_kana": "ホッカイドウ",
    "prefecture_code": 1,
    "city": "斜里郡斜里町",
    "city_kana": "シャリグンシャリチョウ",
    "town": "ウトロ中島",
    "town_kana": "ウトロナカジマ",
    "street": null,
    "office_name": null,
    "office_name_kana": null
  },
  "4354": {
    "zip_code": "0994354",
    "prefecture": "北海道",
    "prefecture_kana": "ホッカイドウ",
    "prefecture_code": 1,
    "city": "斜里郡斜里町",
    "city_kana": "シャリグンシャリチョウ",
    "town": "ウトロ西",
    "town_kana": "ウトロニシ",
    "street": null,
    "office_name": null,
    "office_name_kana": null
  },
  "4355": {
    "zip_code": "0994355",
    "prefecture": "北海道",
    "prefecture_kana": "ホッカイドウ",
    "prefecture_code": 1,
    "city": "斜里郡斜里町",
    "city_kana": "シャリグンシャリチョウ",
    "town": "ウトロ東",
    "town_kana": "ウトロヒガシ",
    "street": null,
    "office_name": null,
    "office_name_kana": null
  },
  "4356": {
    "zip_code": "0994356",
    "prefecture": "北海道",
    "prefecture_kana": "ホッカイドウ",
    "prefecture_code": 1,
    "city": "斜里郡斜里町",
    "city_kana": "シャリグンシャリチョウ",
    "town": "岩尾別",
    "town_kana": "イワオベツ",
    "street": null,
    "office_name": null,
    "office_name_kana": null
  },
  "4357": {
    "zip_code": "0994357",
    "prefecture": "北海道",
    "prefecture_kana": "ホッカイドウ",
    "prefecture_code": 1,
    "city": "斜里郡斜里町",
    "city_kana": "シャリグンシャリチョウ",
    "town": "真鯉",
    "town_kana": "マコイ",
    "street": null,
    "office_name": null,
    "office_name_kana": null
  },
  "4400": {
    "zip_code": "0994400",
    "prefecture": "北海道",
    "prefecture_kana": "ホッカイドウ",
    "prefecture_code": 1,
    "city": "斜里郡清里町",
    "city_kana": "シャリグンキヨサトチョウ",
    "town": "",
    "town_kana": "",
    "street": null,
    "office_name": null,
    "office_name_kana": null
  },
  "4401": {
    "zip_code": "0994401",
    "prefecture": "北海道",
    "prefecture_kana": "ホッカイドウ",
    "prefecture_code": 1,
    "city": "斜里郡清里町",
    "city_kana": "シャリグンキヨサトチョウ",
    "town": "上斜里",
    "town_kana": "カミシャリ",
    "street": null,
    "office_name": null,
    "office_name_kana": null
  },
  "4402": {
    "zip_code": "0994402",
    "prefecture": "北海道",
    "prefecture_kana": "ホッカイドウ",
    "prefecture_code": 1,
    "city": "斜里郡清里町",
    "city_kana": "シャリグンキヨサトチョウ",
    "town": "下江鳶",
    "town_kana": "シモエトンビ",
    "street": null,
    "office_name": null,
    "office_name_kana": null
  },
  "4403": {
    "zip_code": "0994403",
    "prefecture": "北海道",
    "prefecture_kana": "ホッカイドウ",
    "prefecture_code": 1,
    "city": "斜里郡清里町",
    "city_kana": "シャリグンキヨサトチョウ",
    "town": "向陽",
    "town_kana": "コウヨウ",
    "street": null,
    "office_name": null,
    "office_name_kana": null
  },
  "4404": {
    "zip_code": "0994404",
    "prefecture": "北海道",
    "prefecture_kana": "ホッカイドウ",
    "prefecture_code": 1,
    "city": "斜里郡清里町",
    "city_kana": "シャリグンキヨサトチョウ",
    "town": "江南",
    "town_kana": "コウナン",
    "street": null,
    "office_name": null,
    "office_name_kana": null
  },
  "4405": {
    "zip_code": "0994405",
    "prefecture": "北海道",
    "prefecture_kana": "ホッカイドウ",
    "prefecture_code": 1,
    "city": "斜里郡清里町",
    "city_kana": "シャリグンキヨサトチョウ",
    "town": "羽衣町",
    "town_kana": "ハゴロモマチ",
    "street": null,
    "office_name": null,
    "office_name_kana": null
  },
  "4406": {
    "zip_code": "0994406",
    "prefecture": "北海道",
    "prefecture_kana": "ホッカイドウ",
    "prefecture_code": 1,
    "city": "斜里郡清里町",
    "city_kana": "シャリグンキヨサトチョウ",
    "town": "水元町",
    "town_kana": "ミズモトマチ",
    "street": null,
    "office_name": null,
    "office_name_kana": null
  },
  "4407": {
    "zip_code": "0994407",
    "prefecture": "北海道",
    "prefecture_kana": "ホッカイドウ",
    "prefecture_code": 1,
    "city": "斜里郡清里町",
    "city_kana": "シャリグンキヨサトチョウ",
    "town": "新町",
    "town_kana": "シンマチ",
    "street": null,
    "office_name": null,
    "office_name_kana": null
  },
  "4492": {
    "zip_code": "0994492",
    "prefecture": "北海道",
    "prefecture_kana": "ホッカイドウ",
    "prefecture_code": 1,
    "city": "斜里郡清里町",
    "city_kana": "シャリグンキヨサトチョウ",
    "town": "羽衣町",
    "town_kana": "ハゴロモマチ",
    "street": "１３番地",
    "office_name": "清里町役場",
    "office_name_kana": "キヨサトチヨウヤクバ"
  },
  "4521": {
    "zip_code": "0994521",
    "prefecture": "北海道",
    "prefecture_kana": "ホッカイドウ",
    "prefecture_code": 1,
    "city": "斜里郡清里町",
    "city_kana": "シャリグンキヨサトチョウ",
    "town": "札弦町",
    "town_kana": "サッツルマチ",
    "street": null,
    "office_name": null,
    "office_name_kana": null
  },
  "4522": {
    "zip_code": "0994522",
    "prefecture": "北海道",
    "prefecture_kana": "ホッカイドウ",
    "prefecture_code": 1,
    "city": "斜里郡清里町",
    "city_kana": "シャリグンキヨサトチョウ",
    "town": "神威",
    "town_kana": "カモイ",
    "street": null,
    "office_name": null,
    "office_name_kana": null
  },
  "4523": {
    "zip_code": "0994523",
    "prefecture": "北海道",
    "prefecture_kana": "ホッカイドウ",
    "prefecture_code": 1,
    "city": "斜里郡清里町",
    "city_kana": "シャリグンキヨサトチョウ",
    "town": "川向",
    "town_kana": "カワムカイ",
    "street": null,
    "office_name": null,
    "office_name_kana": null
  },
  "4524": {
    "zip_code": "0994524",
    "prefecture": "北海道",
    "prefecture_kana": "ホッカイドウ",
    "prefecture_code": 1,
    "city": "斜里郡清里町",
    "city_kana": "シャリグンキヨサトチョウ",
    "town": "青葉",
    "town_kana": "アオバ",
    "street": null,
    "office_name": null,
    "office_name_kana": null
  },
  "4525": {
    "zip_code": "0994525",
    "prefecture": "北海道",
    "prefecture_kana": "ホッカイドウ",
    "prefecture_code": 1,
    "city": "斜里郡清里町",
    "city_kana": "シャリグンキヨサトチョウ",
    "town": "緑町",
    "town_kana": "ミドリマチ",
    "street": null,
    "office_name": null,
    "office_name_kana": null
  },
  "4526": {
    "zip_code": "0994526",
    "prefecture": "北海道",
    "prefecture_kana": "ホッカイドウ",
    "prefecture_code": 1,
    "city": "斜里郡清里町",
    "city_kana": "シャリグンキヨサトチョウ",
    "town": "清泉",
    "town_kana": "キヨイズミ",
    "street": null,
    "office_name": null,
    "office_name_kana": null
  },
  "5171": {
    "zip_code": "0995171",
    "prefecture": "北海道",
    "prefecture_kana": "ホッカイドウ",
    "prefecture_code": 1,
    "city": "紋別市",
    "city_kana": "モンベツシ",
    "town": "渚滑町",
    "town_kana": "ショコツチョウ",
    "street": null,
    "office_name": null,
    "office_name_kana": null
  },
  "5172": {
    "zip_code": "0995172",
    "prefecture": "北海道",
    "prefecture_kana": "ホッカイドウ",
    "prefecture_code": 1,
    "city": "紋別市",
    "city_kana": "モンベツシ",
    "town": "渚滑町元新",
    "town_kana": "ショコツチョウモトシン",
    "street": null,
    "office_name": null,
    "office_name_kana": null
  },
  "5173": {
    "zip_code": "0995173",
    "prefecture": "北海道",
    "prefecture_kana": "ホッカイドウ",
    "prefecture_code": 1,
    "city": "紋別市",
    "city_kana": "モンベツシ",
    "town": "渚滑町元西",
    "town_kana": "ショコツチョウモトニシ",
    "street": null,
    "office_name": null,
    "office_name_kana": null
  },
  "5174": {
    "zip_code": "0995174",
    "prefecture": "北海道",
    "prefecture_kana": "ホッカイドウ",
    "prefecture_code": 1,
    "city": "紋別市",
    "city_kana": "モンベツシ",
    "town": "渚滑町宇津々",
    "town_kana": "ショコツチョウウツツ",
    "street": null,
    "office_name": null,
    "office_name_kana": null
  },
  "5175": {
    "zip_code": "0995175",
    "prefecture": "北海道",
    "prefecture_kana": "ホッカイドウ",
    "prefecture_code": 1,
    "city": "紋別市",
    "city_kana": "モンベツシ",
    "town": "渚滑町川向",
    "town_kana": "ショコツチョウカワムカイ",
    "street": null,
    "office_name": null,
    "office_name_kana": null
  },
  "5351": {
    "zip_code": "0995351",
    "prefecture": "北海道",
    "prefecture_kana": "ホッカイドウ",
    "prefecture_code": 1,
    "city": "紋別市",
    "city_kana": "モンベツシ",
    "town": "上渚滑町下渚滑",
    "town_kana": "カミショコツチョウシモショコツ",
    "street": null,
    "office_name": null,
    "office_name_kana": null
  },
  "5352": {
    "zip_code": "0995352",
    "prefecture": "北海道",
    "prefecture_kana": "ホッカイドウ",
    "prefecture_code": 1,
    "city": "紋別市",
    "city_kana": "モンベツシ",
    "town": "上渚滑町中渚滑",
    "town_kana": "カミショコツチョウナカショコツ",
    "street": null,
    "office_name": null,
    "office_name_kana": null
  },
  "5353": {
    "zip_code": "0995353",
    "prefecture": "北海道",
    "prefecture_kana": "ホッカイドウ",
    "prefecture_code": 1,
    "city": "紋別市",
    "city_kana": "モンベツシ",
    "town": "上渚滑町上東",
    "town_kana": "カミショコツチョウジョウトウ",
    "street": null,
    "office_name": null,
    "office_name_kana": null
  },
  "5354": {
    "zip_code": "0995354",
    "prefecture": "北海道",
    "prefecture_kana": "ホッカイドウ",
    "prefecture_code": 1,
    "city": "紋別市",
    "city_kana": "モンベツシ",
    "town": "上渚滑町",
    "town_kana": "カミショコツチョウ",
    "street": null,
    "office_name": null,
    "office_name_kana": null
  },
  "5355": {
    "zip_code": "0995355",
    "prefecture": "北海道",
    "prefecture_kana": "ホッカイドウ",
    "prefecture_code": 1,
    "city": "紋別市",
    "city_kana": "モンベツシ",
    "town": "上渚滑町更生",
    "town_kana": "カミショコツチョウコウセイ",
    "street": null,
    "office_name": null,
    "office_name_kana": null
  },
  "5361": {
    "zip_code": "0995361",
    "prefecture": "北海道",
    "prefecture_kana": "ホッカイドウ",
    "prefecture_code": 1,
    "city": "紋別市",
    "city_kana": "モンベツシ",
    "town": "上渚滑町和訓辺",
    "town_kana": "カミショコツチョウワクンベ",
    "street": null,
    "office_name": null,
    "office_name_kana": null
  },
  "5362": {
    "zip_code": "0995362",
    "prefecture": "北海道",
    "prefecture_kana": "ホッカイドウ",
    "prefecture_code": 1,
    "city": "紋別市",
    "city_kana": "モンベツシ",
    "town": "上渚滑町奥東",
    "town_kana": "カミショコツチョウオクトウ",
    "street": null,
    "office_name": null,
    "office_name_kana": null
  },
  "5363": {
    "zip_code": "0995363",
    "prefecture": "北海道",
    "prefecture_kana": "ホッカイドウ",
    "prefecture_code": 1,
    "city": "紋別市",
    "city_kana": "モンベツシ",
    "town": "上渚滑町下立牛",
    "town_kana": "カミショコツチョウシモタツウシ",
    "street": null,
    "office_name": null,
    "office_name_kana": null
  },
  "5364": {
    "zip_code": "0995364",
    "prefecture": "北海道",
    "prefecture_kana": "ホッカイドウ",
    "prefecture_code": 1,
    "city": "紋別市",
    "city_kana": "モンベツシ",
    "town": "上渚滑町上古丹",
    "town_kana": "カミショコツチョウウエコタン",
    "street": null,
    "office_name": null,
    "office_name_kana": null
  },
  "5365": {
    "zip_code": "0995365",
    "prefecture": "北海道",
    "prefecture_kana": "ホッカイドウ",
    "prefecture_code": 1,
    "city": "紋別市",
    "city_kana": "モンベツシ",
    "town": "上渚滑町中立牛",
    "town_kana": "カミショコツチョウナカタツウシ",
    "street": null,
    "office_name": null,
    "office_name_kana": null
  },
  "5541": {
    "zip_code": "0995541",
    "prefecture": "北海道",
    "prefecture_kana": "ホッカイドウ",
    "prefecture_code": 1,
    "city": "紋別郡滝上町",
    "city_kana": "モンベツグンタキノウエチョウ",
    "town": "濁川中央",
    "town_kana": "ニゴリカワチュウオウ",
    "street": null,
    "office_name": null,
    "office_name_kana": null
  },
  "5542": {
    "zip_code": "0995542",
    "prefecture": "北海道",
    "prefecture_kana": "ホッカイドウ",
    "prefecture_code": 1,
    "city": "紋別郡滝上町",
    "city_kana": "モンベツグンタキノウエチョウ",
    "town": "濁川みどり町",
    "town_kana": "ニゴリカワミドリマチ",
    "street": null,
    "office_name": null,
    "office_name_kana": null
  },
  "5543": {
    "zip_code": "0995543",
    "prefecture": "北海道",
    "prefecture_kana": "ホッカイドウ",
    "prefecture_code": 1,
    "city": "紋別郡滝上町",
    "city_kana": "モンベツグンタキノウエチョウ",
    "town": "新町",
    "town_kana": "シンマチ",
    "street": null,
    "office_name": null,
    "office_name_kana": null
  },
  "5544": {
    "zip_code": "0995544",
    "prefecture": "北海道",
    "prefecture_kana": "ホッカイドウ",
    "prefecture_code": 1,
    "city": "紋別郡滝上町",
    "city_kana": "モンベツグンタキノウエチョウ",
    "town": "雄鎮内",
    "town_kana": "オチンナイ",
    "street": null,
    "office_name": null,
    "office_name_kana": null
  },
  "5551": {
    "zip_code": "0995551",
    "prefecture": "北海道",
    "prefecture_kana": "ホッカイドウ",
    "prefecture_code": 1,
    "city": "紋別郡滝上町",
    "city_kana": "モンベツグンタキノウエチョウ",
    "town": "大正",
    "town_kana": "タイショウ",
    "street": null,
    "office_name": null,
    "office_name_kana": null
  },
  "5552": {
    "zip_code": "0995552",
    "prefecture": "北海道",
    "prefecture_kana": "ホッカイドウ",
    "prefecture_code": 1,
    "city": "紋別郡滝上町",
    "city_kana": "モンベツグンタキノウエチョウ",
    "town": "滝下",
    "town_kana": "タキシタ",
    "street": null,
    "office_name": null,
    "office_name_kana": null
  },
  "5553": {
    "zip_code": "0995553",
    "prefecture": "北海道",
    "prefecture_kana": "ホッカイドウ",
    "prefecture_code": 1,
    "city": "紋別郡滝上町",
    "city_kana": "モンベツグンタキノウエチョウ",
    "town": "雄柏",
    "town_kana": "ユウハク",
    "street": null,
    "office_name": null,
    "office_name_kana": null
  },
  "5600": {
    "zip_code": "0995600",
    "prefecture": "北海道",
    "prefecture_kana": "ホッカイドウ",
    "prefecture_code": 1,
    "city": "紋別郡滝上町",
    "city_kana": "モンベツグンタキノウエチョウ",
    "town": "",
    "town_kana": "",
    "street": null,
    "office_name": null,
    "office_name_kana": null
  },
  "5601": {
    "zip_code": "0995601",
    "prefecture": "北海道",
    "prefecture_kana": "ホッカイドウ",
    "prefecture_code": 1,
    "city": "紋別郡滝上町",
    "city_kana": "モンベツグンタキノウエチョウ",
    "town": "あけぼの町",
    "town_kana": "アケボノマチ",
    "street": null,
    "office_name": null,
    "office_name_kana": null
  },
  "5602": {
    "zip_code": "0995602",
    "prefecture": "北海道",
    "prefecture_kana": "ホッカイドウ",
    "prefecture_code": 1,
    "city": "紋別郡滝上町",
    "city_kana": "モンベツグンタキノウエチョウ",
    "town": "旭町",
    "town_kana": "アサヒマチ",
    "street": null,
    "office_name": null,
    "office_name_kana": null
  },
  "5603": {
    "zip_code": "0995603",
    "prefecture": "北海道",
    "prefecture_kana": "ホッカイドウ",
    "prefecture_code": 1,
    "city": "紋別郡滝上町",
    "city_kana": "モンベツグンタキノウエチョウ",
    "town": "滝美町",
    "town_kana": "タキミマチ",
    "street": null,
    "office_name": null,
    "office_name_kana": null
  },
  "5604": {
    "zip_code": "0995604",
    "prefecture": "北海道",
    "prefecture_kana": "ホッカイドウ",
    "prefecture_code": 1,
    "city": "紋別郡滝上町",
    "city_kana": "モンベツグンタキノウエチョウ",
    "town": "元町",
    "town_kana": "モトマチ",
    "street": null,
    "office_name": null,
    "office_name_kana": null
  },
  "5605": {
    "zip_code": "0995605",
    "prefecture": "北海道",
    "prefecture_kana": "ホッカイドウ",
    "prefecture_code": 1,
    "city": "紋別郡滝上町",
    "city_kana": "モンベツグンタキノウエチョウ",
    "town": "栄町",
    "town_kana": "サカエマチ",
    "street": null,
    "office_name": null,
    "office_name_kana": null
  },
  "5606": {
    "zip_code": "0995606",
    "prefecture": "北海道",
    "prefecture_kana": "ホッカイドウ",
    "prefecture_code": 1,
    "city": "紋別郡滝上町",
    "city_kana": "モンベツグンタキノウエチョウ",
    "town": "幸町",
    "town_kana": "サイワイマチ",
    "street": null,
    "office_name": null,
    "office_name_kana": null
  },
  "5611": {
    "zip_code": "0995611",
    "prefecture": "北海道",
    "prefecture_kana": "ホッカイドウ",
    "prefecture_code": 1,
    "city": "紋別郡滝上町",
    "city_kana": "モンベツグンタキノウエチョウ",
    "town": "第１区",
    "town_kana": "ダイ1ク",
    "street": null,
    "office_name": null,
    "office_name_kana": null
  },
  "5612": [
    {
      "zip_code": "0995612",
      "prefecture": "北海道",
      "prefecture_kana": "ホッカイドウ",
      "prefecture_code": 1,
      "city": "紋別郡滝上町",
      "city_kana": "モンベツグンタキノウエチョウ",
      "town": "白鳥",
      "town_kana": "シラトリ",
      "street": null,
      "office_name": null,
      "office_name_kana": null
    },
    {
      "zip_code": "0995612",
      "prefecture": "北海道",
      "prefecture_kana": "ホッカイドウ",
      "prefecture_code": 1,
      "city": "紋別郡滝上町",
      "city_kana": "モンベツグンタキノウエチョウ",
      "town": "第２区",
      "town_kana": "ダイ2ク",
      "street": null,
      "office_name": null,
      "office_name_kana": null
    }
  ],
  "5613": [
    {
      "zip_code": "0995613",
      "prefecture": "北海道",
      "prefecture_kana": "ホッカイドウ",
      "prefecture_code": 1,
      "city": "紋別郡滝上町",
      "city_kana": "モンベツグンタキノウエチョウ",
      "town": "第３区",
      "town_kana": "ダイ3ク",
      "street": null,
      "office_name": null,
      "office_name_kana": null
    },
    {
      "zip_code": "0995613",
      "prefecture": "北海道",
      "prefecture_kana": "ホッカイドウ",
      "prefecture_code": 1,
      "city": "紋別郡滝上町",
      "city_kana": "モンベツグンタキノウエチョウ",
      "town": "第４区",
      "town_kana": "ダイ4ク",
      "street": null,
      "office_name": null,
      "office_name_kana": null
    },
    {
      "zip_code": "0995613",
      "prefecture": "北海道",
      "prefecture_kana": "ホッカイドウ",
      "prefecture_code": 1,
      "city": "紋別郡滝上町",
      "city_kana": "モンベツグンタキノウエチョウ",
      "town": "第５区",
      "town_kana": "ダイ5ク",
      "street": null,
      "office_name": null,
      "office_name_kana": null
    },
    {
      "zip_code": "0995613",
      "prefecture": "北海道",
      "prefecture_kana": "ホッカイドウ",
      "prefecture_code": 1,
      "city": "紋別郡滝上町",
      "city_kana": "モンベツグンタキノウエチョウ",
      "town": "滝西",
      "town_kana": "タキニシ",
      "street": null,
      "office_name": null,
      "office_name_kana": null
    }
  ],
  "5614": {
    "zip_code": "0995614",
    "prefecture": "北海道",
    "prefecture_kana": "ホッカイドウ",
    "prefecture_code": 1,
    "city": "紋別郡滝上町",
    "city_kana": "モンベツグンタキノウエチョウ",
    "town": "札久留",
    "town_kana": "サックル",
    "street": null,
    "office_name": null,
    "office_name_kana": null
  },
  "5692": {
    "zip_code": "0995692",
    "prefecture": "北海道",
    "prefecture_kana": "ホッカイドウ",
    "prefecture_code": 1,
    "city": "紋別郡滝上町",
    "city_kana": "モンベツグンタキノウエチョウ",
    "town": "旭町",
    "town_kana": "アサヒマチ",
    "street": "",
    "office_name": "滝上町役場",
    "office_name_kana": "タキノウエチヨウヤクバ"
  },
  "6131": [
    {
      "zip_code": "0996131",
      "prefecture": "北海道",
      "prefecture_kana": "ホッカイドウ",
      "prefecture_code": 1,
      "city": "紋別市",
      "city_kana": "モンベツシ",
      "town": "一本松",
      "town_kana": "イッポンマツ",
      "street": null,
      "office_name": null,
      "office_name_kana": null
    },
    {
      "zip_code": "0996131",
      "prefecture": "北海道",
      "prefecture_kana": "ホッカイドウ",
      "prefecture_code": 1,
      "city": "紋別市",
      "city_kana": "モンベツシ",
      "town": "八十士",
      "town_kana": "ヤソシ",
      "street": null,
      "office_name": null,
      "office_name_kana": null
    }
  ],
  "6132": {
    "zip_code": "0996132",
    "prefecture": "北海道",
    "prefecture_kana": "ホッカイドウ",
    "prefecture_code": 1,
    "city": "紋別市",
    "city_kana": "モンベツシ",
    "town": "小向",
    "town_kana": "コムカイ",
    "street": null,
    "office_name": null,
    "office_name_kana": null
  },
  "6133": {
    "zip_code": "0996133",
    "prefecture": "北海道",
    "prefecture_kana": "ホッカイドウ",
    "prefecture_code": 1,
    "city": "紋別市",
    "city_kana": "モンベツシ",
    "town": "弘道",
    "town_kana": "コウドウ",
    "street": null,
    "office_name": null,
    "office_name_kana": null
  },
  "6241": {
    "zip_code": "0996241",
    "prefecture": "北海道",
    "prefecture_kana": "ホッカイドウ",
    "prefecture_code": 1,
    "city": "紋別市",
    "city_kana": "モンベツシ",
    "town": "沼の上",
    "town_kana": "ヌマノウエ",
    "street": null,
    "office_name": null,
    "office_name_kana": null
  },
  "6242": {
    "zip_code": "0996242",
    "prefecture": "北海道",
    "prefecture_kana": "ホッカイドウ",
    "prefecture_code": 1,
    "city": "紋別市",
    "city_kana": "モンベツシ",
    "town": "志文",
    "town_kana": "シブン",
    "street": null,
    "office_name": null,
    "office_name_kana": null
  },
  "6271": {
    "zip_code": "0996271",
    "prefecture": "北海道",
    "prefecture_kana": "ホッカイドウ",
    "prefecture_code": 1,
    "city": "紋別郡湧別町",
    "city_kana": "モンベツグンユウベツチョウ",
    "town": "信部内",
    "town_kana": "シブナイ",
    "street": null,
    "office_name": null,
    "office_name_kana": null
  },
  "6272": {
    "zip_code": "0996272",
    "prefecture": "北海道",
    "prefecture_kana": "ホッカイドウ",
    "prefecture_code": 1,
    "city": "紋別郡湧別町",
    "city_kana": "モンベツグンユウベツチョウ",
    "town": "緑蔭",
    "town_kana": "リョクイン",
    "street": null,
    "office_name": null,
    "office_name_kana": null
  },
  "6321": {
    "zip_code": "0996321",
    "prefecture": "北海道",
    "prefecture_kana": "ホッカイドウ",
    "prefecture_code": 1,
    "city": "紋別郡湧別町",
    "city_kana": "モンベツグンユウベツチョウ",
    "town": "旭",
    "town_kana": "アサヒ",
    "street": null,
    "office_name": null,
    "office_name_kana": null
  },
  "6322": {
    "zip_code": "0996322",
    "prefecture": "北海道",
    "prefecture_kana": "ホッカイドウ",
    "prefecture_code": 1,
    "city": "紋別郡湧別町",
    "city_kana": "モンベツグンユウベツチョウ",
    "town": "北兵村三区",
    "town_kana": "キタヘイソンサンク",
    "street": null,
    "office_name": null,
    "office_name_kana": null
  },
  "6323": {
    "zip_code": "0996323",
    "prefecture": "北海道",
    "prefecture_kana": "ホッカイドウ",
    "prefecture_code": 1,
    "city": "紋別郡湧別町",
    "city_kana": "モンベツグンユウベツチョウ",
    "town": "北兵村二区",
    "town_kana": "キタヘイソンニク",
    "street": null,
    "office_name": null,
    "office_name_kana": null
  },
  "6325": {
    "zip_code": "0996325",
    "prefecture": "北海道",
    "prefecture_kana": "ホッカイドウ",
    "prefecture_code": 1,
    "city": "紋別郡湧別町",
    "city_kana": "モンベツグンユウベツチョウ",
    "town": "北兵村一区",
    "town_kana": "キタヘイソンイック",
    "street": null,
    "office_name": null,
    "office_name_kana": null
  },
  "6326": {
    "zip_code": "0996326",
    "prefecture": "北海道",
    "prefecture_kana": "ホッカイドウ",
    "prefecture_code": 1,
    "city": "紋別郡湧別町",
    "city_kana": "モンベツグンユウベツチョウ",
    "town": "中湧別北町",
    "town_kana": "ナカユウベツキタマチ",
    "street": null,
    "office_name": null,
    "office_name_kana": null
  },
  "6327": {
    "zip_code": "0996327",
    "prefecture": "北海道",
    "prefecture_kana": "ホッカイドウ",
    "prefecture_code": 1,
    "city": "紋別郡湧別町",
    "city_kana": "モンベツグンユウベツチョウ",
    "town": "中湧別東町",
    "town_kana": "ナカユウベツヒガシマチ",
    "street": null,
    "office_name": null,
    "office_name_kana": null
  },
  "6328": {
    "zip_code": "0996328",
    "prefecture": "北海道",
    "prefecture_kana": "ホッカイドウ",
    "prefecture_code": 1,
    "city": "紋別郡湧別町",
    "city_kana": "モンベツグンユウベツチョウ",
    "town": "中湧別南町",
    "town_kana": "ナカユウベツミナミマチ",
    "street": null,
    "office_name": null,
    "office_name_kana": null
  },
  "6329": {
    "zip_code": "0996329",
    "prefecture": "北海道",
    "prefecture_kana": "ホッカイドウ",
    "prefecture_code": 1,
    "city": "紋別郡湧別町",
    "city_kana": "モンベツグンユウベツチョウ",
    "town": "中湧別中町",
    "town_kana": "ナカユウベツナカマチ",
    "street": null,
    "office_name": null,
    "office_name_kana": null
  },
  "6400": {
    "zip_code": "0996400",
    "prefecture": "北海道",
    "prefecture_kana": "ホッカイドウ",
    "prefecture_code": 1,
    "city": "紋別郡湧別町",
    "city_kana": "モンベツグンユウベツチョウ",
    "town": "",
    "town_kana": "",
    "street": null,
    "office_name": null,
    "office_name_kana": null
  },
  "6401": {
    "zip_code": "0996401",
    "prefecture": "北海道",
    "prefecture_kana": "ホッカイドウ",
    "prefecture_code": 1,
    "city": "紋別郡湧別町",
    "city_kana": "モンベツグンユウベツチョウ",
    "town": "港町",
    "town_kana": "ミナトマチ",
    "street": null,
    "office_name": null,
    "office_name_kana": null
  },
  "6402": {
    "zip_code": "0996402",
    "prefecture": "北海道",
    "prefecture_kana": "ホッカイドウ",
    "prefecture_code": 1,
    "city": "紋別郡湧別町",
    "city_kana": "モンベツグンユウベツチョウ",
    "town": "曙町",
    "town_kana": "アケボノマチ",
    "street": null,
    "office_name": null,
    "office_name_kana": null
  },
  "6403": {
    "zip_code": "0996403",
    "prefecture": "北海道",
    "prefecture_kana": "ホッカイドウ",
    "prefecture_code": 1,
    "city": "紋別郡湧別町",
    "city_kana": "モンベツグンユウベツチョウ",
    "town": "緑町",
    "town_kana": "ミドリマチ",
    "street": null,
    "office_name": null,
    "office_name_kana": null
  },
  "6404": {
    "zip_code": "0996404",
    "prefecture": "北海道",
    "prefecture_kana": "ホッカイドウ",
    "prefecture_code": 1,
    "city": "紋別郡湧別町",
    "city_kana": "モンベツグンユウベツチョウ",
    "town": "栄町",
    "town_kana": "サカエマチ",
    "street": null,
    "office_name": null,
    "office_name_kana": null
  },
  "6411": {
    "zip_code": "0996411",
    "prefecture": "北海道",
    "prefecture_kana": "ホッカイドウ",
    "prefecture_code": 1,
    "city": "紋別郡湧別町",
    "city_kana": "モンベツグンユウベツチョウ",
    "town": "東",
    "town_kana": "ヒガシ",
    "street": null,
    "office_name": null,
    "office_name_kana": null
  },
  "6412": {
    "zip_code": "0996412",
    "prefecture": "北海道",
    "prefecture_kana": "ホッカイドウ",
    "prefecture_code": 1,
    "city": "紋別郡湧別町",
    "city_kana": "モンベツグンユウベツチョウ",
    "town": "登栄床",
    "town_kana": "トエトコ",
    "street": null,
    "office_name": null,
    "office_name_kana": null
  },
  "6413": {
    "zip_code": "0996413",
    "prefecture": "北海道",
    "prefecture_kana": "ホッカイドウ",
    "prefecture_code": 1,
    "city": "紋別郡湧別町",
    "city_kana": "モンベツグンユウベツチョウ",
    "town": "福島",
    "town_kana": "フクシマ",
    "street": null,
    "office_name": null,
    "office_name_kana": null
  },
  "6414": {
    "zip_code": "0996414",
    "prefecture": "北海道",
    "prefecture_kana": "ホッカイドウ",
    "prefecture_code": 1,
    "city": "紋別郡湧別町",
    "city_kana": "モンベツグンユウベツチョウ",
    "town": "錦町",
    "town_kana": "ニシキマチ",
    "street": null,
    "office_name": null,
    "office_name_kana": null
  },
  "6415": {
    "zip_code": "0996415",
    "prefecture": "北海道",
    "prefecture_kana": "ホッカイドウ",
    "prefecture_code": 1,
    "city": "紋別郡湧別町",
    "city_kana": "モンベツグンユウベツチョウ",
    "town": "川西",
    "town_kana": "カワニシ",
    "street": null,
    "office_name": null,
    "office_name_kana": null
  },
  "6501": {
    "zip_code": "0996501",
    "prefecture": "北海道",
    "prefecture_kana": "ホッカイドウ",
    "prefecture_code": 1,
    "city": "紋別郡湧別町",
    "city_kana": "モンベツグンユウベツチョウ",
    "town": "上湧別屯田市街地",
    "town_kana": "カミユウベツトンデンシガイチ",
    "street": null,
    "office_name": null,
    "office_name_kana": null
  },
  "6503": {
    "zip_code": "0996503",
    "prefecture": "北海道",
    "prefecture_kana": "ホッカイドウ",
    "prefecture_code": 1,
    "city": "紋別郡湧別町",
    "city_kana": "モンベツグンユウベツチョウ",
    "town": "開盛",
    "town_kana": "カイセイ",
    "street": null,
    "office_name": null,
    "office_name_kana": null
  },
  "6504": {
    "zip_code": "0996504",
    "prefecture": "北海道",
    "prefecture_kana": "ホッカイドウ",
    "prefecture_code": 1,
    "city": "紋別郡湧別町",
    "city_kana": "モンベツグンユウベツチョウ",
    "town": "上富美",
    "town_kana": "カミフミ",
    "street": null,
    "office_name": null,
    "office_name_kana": null
  },
  "6505": {
    "zip_code": "0996505",
    "prefecture": "北海道",
    "prefecture_kana": "ホッカイドウ",
    "prefecture_code": 1,
    "city": "紋別郡湧別町",
    "city_kana": "モンベツグンユウベツチョウ",
    "town": "富美",
    "town_kana": "フミ",
    "street": null,
    "office_name": null,
    "office_name_kana": null
  },
  "6506": {
    "zip_code": "0996506",
    "prefecture": "北海道",
    "prefecture_kana": "ホッカイドウ",
    "prefecture_code": 1,
    "city": "紋別郡湧別町",
    "city_kana": "モンベツグンユウベツチョウ",
    "town": "札富美",
    "town_kana": "サツフミ",
    "street": null,
    "office_name": null,
    "office_name_kana": null
  },
  "6507": {
    "zip_code": "0996507",
    "prefecture": "北海道",
    "prefecture_kana": "ホッカイドウ",
    "prefecture_code": 1,
    "city": "紋別郡湧別町",
    "city_kana": "モンベツグンユウベツチョウ",
    "town": "南兵村三区",
    "town_kana": "ミナミヘイソンサンク",
    "street": null,
    "office_name": null,
    "office_name_kana": null
  },
  "6508": {
    "zip_code": "0996508",
    "prefecture": "北海道",
    "prefecture_kana": "ホッカイドウ",
    "prefecture_code": 1,
    "city": "紋別郡湧別町",
    "city_kana": "モンベツグンユウベツチョウ",
    "town": "南兵村二区",
    "town_kana": "ミナミヘイソンニク",
    "street": null,
    "office_name": null,
    "office_name_kana": null
  },
  "6509": {
    "zip_code": "0996509",
    "prefecture": "北海道",
    "prefecture_kana": "ホッカイドウ",
    "prefecture_code": 1,
    "city": "紋別郡湧別町",
    "city_kana": "モンベツグンユウベツチョウ",
    "town": "南兵村一区",
    "town_kana": "ミナミヘイソンイック",
    "street": null,
    "office_name": null,
    "office_name_kana": null
  },
  "6592": {
    "zip_code": "0996592",
    "prefecture": "北海道",
    "prefecture_kana": "ホッカイドウ",
    "prefecture_code": 1,
    "city": "紋別郡湧別町",
    "city_kana": "モンベツグンユウベツチョウ",
    "town": "",
    "town_kana": "",
    "street": "上湧別屯田市街地３１８番地（上湧別郵便局私書箱第１号）",
    "office_name": "湧別町役場",
    "office_name_kana": "ユウベツチヨウヤクバ"
  }
}