{
  "0003": {
    "zip_code": "1010003",
    "prefecture": "東京都",
    "prefecture_kana": "トウキョウト",
    "prefecture_code": 13,
    "city": "千代田区",
    "city_kana": "チヨダク",
    "town": "一ツ橋",
    "town_kana": "ヒトツバシ",
    "street": null,
    "office_name": null,
    "office_name_kana": null
  },
  "0021": {
    "zip_code": "1010021",
    "prefecture": "東京都",
    "prefecture_kana": "トウキョウト",
    "prefecture_code": 13,
    "city": "千代田区",
    "city_kana": "チヨダク",
    "town": "外神田",
    "town_kana": "ソトカンダ",
    "street": null,
    "office_name": null,
    "office_name_kana": null
  },
  "0022": {
    "zip_code": "1010022",
    "prefecture": "東京都",
    "prefecture_kana": "トウキョウト",
    "prefecture_code": 13,
    "city": "千代田区",
    "city_kana": "チヨダク",
    "town": "神田練塀町",
    "town_kana": "カンダネリベイチョウ",
    "street": null,
    "office_name": null,
    "office_name_kana": null
  },
  "0023": {
    "zip_code": "1010023",
    "prefecture": "東京都",
    "prefecture_kana": "トウキョウト",
    "prefecture_code": 13,
    "city": "千代田区",
    "city_kana": "チヨダク",
    "town": "神田松永町",
    "town_kana": "カンダマツナガチョウ",
    "street": null,
    "office_name": null,
    "office_name_kana": null
  },
  "0024": {
    "zip_code": "1010024",
    "prefecture": "東京都",
    "prefecture_kana": "トウキョウト",
    "prefecture_code": 13,
    "city": "千代田区",
    "city_kana": "チヨダク",
    "town": "神田和泉町",
    "town_kana": "カンダイズミチョウ",
    "street": null,
    "office_name": null,
    "office_name_kana": null
  },
  "0025": {
    "zip_code": "1010025",
    "prefecture": "東京都",
    "prefecture_kana": "トウキョウト",
    "prefecture_code": 13,
    "city": "千代田区",
    "city_kana": "チヨダク",
    "town": "神田佐久間町",
    "town_kana": "カンダサクマチョウ",
    "street": null,
    "office_name": null,
    "office_name_kana": null
  },
  "0026": {
    "zip_code": "1010026",
    "prefecture": "東京都",
    "prefecture_kana": "トウキョウト",
    "prefecture_code": 13,
    "city": "千代田区",
    "city_kana": "チヨダク",
    "town": "神田佐久間河岸",
    "town_kana": "カンダサクマガシ",
    "street": null,
    "office_name": null,
    "office_name_kana": null
  },
  "0027": {
    "zip_code": "1010027",
    "prefecture": "東京都",
    "prefecture_kana": "トウキョウト",
    "prefecture_code": 13,
    "city": "千代田区",
    "city_kana": "チヨダク",
    "town": "神田平河町",
    "town_kana": "カンダヒラカワチョウ",
    "street": null,
    "office_name": null,
    "office_name_kana": null
  },
  "0028": {
    "zip_code": "1010028",
    "prefecture": "東京都",
    "prefecture_kana": "トウキョウト",
    "prefecture_code": 13,
    "city": "千代田区",
    "city_kana": "チヨダク",
    "town": "神田花岡町",
    "town_kana": "カンダハナオカチョウ",
    "street": null,
    "office_name": null,
    "office_name_kana": null
  },
  "0029": {
    "zip_code": "1010029",
    "prefecture": "東京都",
    "prefecture_kana": "トウキョウト",
    "prefecture_code": 13,
    "city": "千代田区",
    "city_kana": "チヨダク",
    "town": "神田相生町",
    "town_kana": "カンダアイオイチョウ",
    "street": null,
    "office_name": null,
    "office_name_kana": null
  },
  "0031": {
    "zip_code": "1010031",
    "prefecture": "東京都",
    "prefecture_kana": "トウキョウト",
    "prefecture_code": 13,
    "city": "千代田区",
    "city_kana": "チヨダク",
    "town": "東神田",
    "town_kana": "ヒガシカンダ",
    "street": null,
    "office_name": null,
    "office_name_kana": null
  },
  "0032": {
    "zip_code": "1010032",
    "prefecture": "東京都",
    "prefecture_kana": "トウキョウト",
    "prefecture_code": 13,
    "city": "千代田区",
    "city_kana": "チヨダク",
    "town": "岩本町",
    "town_kana": "イワモトチョウ",
    "street": null,
    "office_name": null,
    "office_name_kana": null
  },
  "0033": {
    "zip_code": "1010033",
    "prefecture": "東京都",
    "prefecture_kana": "トウキョウト",
    "prefecture_code": 13,
    "city": "千代田区",
    "city_kana": "チヨダク",
    "town": "神田岩本町",
    "town_kana": "カンダイワモトチョウ",
    "street": null,
    "office_name": null,
    "office_name_kana": null
  },
  "0034": {
    "zip_code": "1010034",
    "prefecture": "東京都",
    "prefecture_kana": "トウキョウト",
    "prefecture_code": 13,
    "city": "千代田区",
    "city_kana": "チヨダク",
    "town": "神田東紺屋町",
    "town_kana": "カンダヒガシコンヤチョウ",
    "street": null,
    "office_name": null,
    "office_name_kana": null
  },
  "0035": {
    "zip_code": "1010035",
    "prefecture": "東京都",
    "prefecture_kana": "トウキョウト",
    "prefecture_code": 13,
    "city": "千代田区",
    "city_kana": "チヨダク",
    "town": "神田紺屋町",
    "town_kana": "カンダコンヤチョウ",
    "street": null,
    "office_name": null,
    "office_name_kana": null
  },
  "0036": {
    "zip_code": "1010036",
    "prefecture": "東京都",
    "prefecture_kana": "トウキョウト",
    "prefecture_code": 13,
    "city": "千代田区",
    "city_kana": "チヨダク",
    "town": "神田北乗物町",
    "town_kana": "カンダキタノリモノチョウ",
    "street": null,
    "office_name": null,
    "office_name_kana": null
  },
  "0037": {
    "zip_code": "1010037",
    "prefecture": "東京都",
    "prefecture_kana": "トウキョウト",
    "prefecture_code": 13,
    "city": "千代田区",
    "city_kana": "チヨダク",
    "town": "神田西福田町",
    "town_kana": "カンダニシフクダチョウ",
    "street": null,
    "office_name": null,
    "office_name_kana": null
  },
  "0038": {
    "zip_code": "1010038",
    "prefecture": "東京都",
    "prefecture_kana": "トウキョウト",
    "prefecture_code": 13,
    "city": "千代田区",
    "city_kana": "チヨダク",
    "town": "神田美倉町",
    "town_kana": "カンダミクラチョウ",
    "street": null,
    "office_name": null,
    "office_name_kana": null
  },
  "0041": {
    "zip_code": "1010041",
    "prefecture": "東京都",
    "prefecture_kana": "トウキョウト",
    "prefecture_code": 13,
    "city": "千代田区",
    "city_kana": "チヨダク",
    "town": "神田須田町",
    "town_kana": "カンダスダチョウ",
    "street": null,
    "office_name": null,
    "office_name_kana": null
  },
  "0042": {
    "zip_code": "1010042",
    "prefecture": "東京都",
    "prefecture_kana": "トウキョウト",
    "prefecture_code": 13,
    "city": "千代田区",
    "city_kana": "チヨダク",
    "town": "神田東松下町",
    "town_kana": "カンダヒガシマツシタチョウ",
    "street": null,
    "office_name": null,
    "office_name_kana": null
  },
  "0043": {
    "zip_code": "1010043",
    "prefecture": "東京都",
    "prefecture_kana": "トウキョウト",
    "prefecture_code": 13,
    "city": "千代田区",
    "city_kana": "チヨダク",
    "town": "神田富山町",
    "town_kana": "カンダトミヤマチョウ",
    "street": null,
    "office_name": null,
    "office_name_kana": null
  },
  "0044": {
    "zip_code": "1010044",
    "prefecture": "東京都",
    "prefecture_kana": "トウキョウト",
    "prefecture_code": 13,
    "city": "千代田区",
    "city_kana": "チヨダク",
    "town": "鍛冶町",
    "town_kana": "カジチョウ",
    "street": null,
    "office_name": null,
    "office_name_kana": null
  },
  "0045": {
    "zip_code": "1010045",
    "prefecture": "東京都",
    "prefecture_kana": "トウキョウト",
    "prefecture_code": 13,
    "city": "千代田区",
    "city_kana": "チヨダク",
    "town": "神田鍛冶町",
    "town_kana": "カンダカジチョウ",
    "street": null,
    "office_name": null,
    "office_name_kana": null
  },
  "0046": {
    "zip_code": "1010046",
    "prefecture": "東京都",
    "prefecture_kana": "トウキョウト",
    "prefecture_code": 13,
    "city": "千代田区",
    "city_kana": "チヨダク",
    "town": "神田多町",
    "town_kana": "カンダタチョウ",
    "street": null,
    "office_name": null,
    "office_name_kana": null
  },
  "0047": {
    "zip_code": "1010047",
    "prefecture": "東京都",
    "prefecture_kana": "トウキョウト",
    "prefecture_code": 13,
    "city": "千代田区",
    "city_kana": "チヨダク",
    "town": "内神田",
    "town_kana": "ウチカンダ",
    "street": null,
    "office_name": null,
    "office_name_kana": null
  },
  "0048": {
    "zip_code": "1010048",
    "prefecture": "東京都",
    "prefecture_kana": "トウキョウト",
    "prefecture_code": 13,
    "city": "千代田区",
    "city_kana": "チヨダク",
    "town": "神田司町",
    "town_kana": "カンダツカサマチ",
    "street": null,
    "office_name": null,
    "office_name_kana": null
  },
  "0051": {
    "zip_code": "1010051",
    "prefecture": "東京都",
    "prefecture_kana": "トウキョウト",
    "prefecture_code": 13,
    "city": "千代田区",
    "city_kana": "チヨダク",
    "town": "神田神保町",
    "town_kana": "カンダジンボウチョウ",
    "street": null,
    "office_name": null,
    "office_name_kana": null
  },
  "0052": {
    "zip_code": "1010052",
    "prefecture": "東京都",
    "prefecture_kana": "トウキョウト",
    "prefecture_code": 13,
    "city": "千代田区",
    "city_kana": "チヨダク",
    "town": "神田小川町",
    "town_kana": "カンダオガワマチ",
    "street": null,
    "office_name": null,
    "office_name_kana": null
  },
  "0053": {
    "zip_code": "1010053",
    "prefecture": "東京都",
    "prefecture_kana": "トウキョウト",
    "prefecture_code": 13,
    "city": "千代田区",
    "city_kana": "チヨダク",
    "town": "神田美土代町",
    "town_kana": "カンダミトシロチョウ",
    "street": null,
    "office_name": null,
    "office_name_kana": null
  },
  "0054": {
    "zip_code": "1010054",
    "prefecture": "東京都",
    "prefecture_kana": "トウキョウト",
    "prefecture_code": 13,
    "city": "千代田区",
    "city_kana": "チヨダク",
    "town": "神田錦町",
    "town_kana": "カンダニシキチョウ",
    "street": null,
    "office_name": null,
    "office_name_kana": null
  },
  "0061": {
    "zip_code": "1010061",
    "prefecture": "東京都",
    "prefecture_kana": "トウキョウト",
    "prefecture_code": 13,
    "city": "千代田区",
    "city_kana": "チヨダク",
    "town": "三崎町",
    "town_kana": "ミサキチョウ",
    "street": null,
    "office_name": null,
    "office_name_kana": null
  },
  "0062": {
    "zip_code": "1010062",
    "prefecture": "東京都",
    "prefecture_kana": "トウキョウト",
    "prefecture_code": 13,
    "city": "千代田区",
    "city_kana": "チヨダク",
    "town": "神田駿河台",
    "town_kana": "カンダスルガダイ",
    "street": null,
    "office_name": null,
    "office_name_kana": null
  },
  "0063": {
    "zip_code": "1010063",
    "prefecture": "東京都",
    "prefecture_kana": "トウキョウト",
    "prefecture_code": 13,
    "city": "千代田区",
    "city_kana": "チヨダク",
    "town": "神田淡路町",
    "town_kana": "カンダアワジチョウ",
    "street": null,
    "office_name": null,
    "office_name_kana": null
  },
  "0064": {
    "zip_code": "1010064",
    "prefecture": "東京都",
    "prefecture_kana": "トウキョウト",
    "prefecture_code": 13,
    "city": "千代田区",
    "city_kana": "チヨダク",
    "town": "猿楽町",
    "town_kana": "サルガクチョウ",
    "street": null,
    "office_name": null,
    "office_name_kana": null
  },
  "0065": {
    "zip_code": "1010065",
    "prefecture": "東京都",
    "prefecture_kana": "トウキョウト",
    "prefecture_code": 13,
    "city": "千代田区",
    "city_kana": "チヨダク",
    "town": "西神田",
    "town_kana": "ニシカンダ",
    "street": null,
    "office_name": null,
    "office_name_kana": null
  },
  "8001": {
    "zip_code": "1018001",
    "prefecture": "東京都",
    "prefecture_kana": "トウキョウト",
    "prefecture_code": 13,
    "city": "千代田区",
    "city_kana": "チヨダク",
    "town": "一ツ橋",
    "town_kana": "ヒトツバシ",
    "street": "２丁目３−１",
    "office_name": "株式会社　小学館",
    "office_name_kana": "カブシキガイシヤ シヨウガクカン"
  },
  "8002": {
    "zip_code": "1018002",
    "prefecture": "東京都",
    "prefecture_kana": "トウキョウト",
    "prefecture_code": 13,
    "city": "千代田区",
    "city_kana": "チヨダク",
    "town": "一ツ橋",
    "town_kana": "ヒトツバシ",
    "street": "２丁目５−５",
    "office_name": "株式会社　岩波書店",
    "office_name_kana": "カブシキガイシヤ イワナミシヨテン"
  },
  "8008": {
    "zip_code": "1018008",
    "prefecture": "東京都",
    "prefecture_kana": "トウキョウト",
    "prefecture_code": 13,
    "city": "千代田区",
    "city_kana": "チヨダク",
    "town": "神田駿河台",
    "town_kana": "カンダスルガダイ",
    "street": "４丁目６番",
    "office_name": "独立行政法人　宇宙航空研究開発機構",
    "office_name_kana": "ドクリツギヨウセイホウジン ウチユウコウクウケンキユウカイハツキコウ"
  },
  "8011": {
    "zip_code": "1018011",
    "prefecture": "東京都",
    "prefecture_kana": "トウキョウト",
    "prefecture_code": 13,
    "city": "千代田区",
    "city_kana": "チヨダク",
    "town": "神田駿河台",
    "town_kana": "カンダスルガダイ",
    "street": "３丁目９（神田郵便局私書箱第２３号）",
    "office_name": "三井住友海上火災保険　株式会社",
    "office_name_kana": "ミツイスミトモカイジヨウカサイホケン カブシキカイシヤ"
  },
  "8050": {
    "zip_code": "1018050",
    "prefecture": "東京都",
    "prefecture_kana": "トウキョウト",
    "prefecture_code": 13,
    "city": "千代田区",
    "city_kana": "チヨダク",
    "town": "一ツ橋",
    "town_kana": "ヒトツバシ",
    "street": "２丁目５−１０",
    "office_name": "株式会社　集英社",
    "office_name_kana": "カブシキガイシヤ シユウエイシヤ"
  },
  "8054": {
    "zip_code": "1018054",
    "prefecture": "東京都",
    "prefecture_kana": "トウキョウト",
    "prefecture_code": 13,
    "city": "千代田区",
    "city_kana": "チヨダク",
    "town": "一ツ橋",
    "town_kana": "ヒトツバシ",
    "street": "２−５−１０",
    "office_name": "株式会社　集英社　私書箱１９号",
    "office_name_kana": "カブシキガイシヤ シユウエイシヤ シシヨバコ19ゴウ"
  },
  "8077": {
    "zip_code": "1018077",
    "prefecture": "東京都",
    "prefecture_kana": "トウキョウト",
    "prefecture_code": 13,
    "city": "千代田区",
    "city_kana": "チヨダク",
    "town": "神田神保町",
    "town_kana": "カンダジンボウチョウ",
    "street": "３丁目１０神田第３アメレックスビル",
    "office_name": "株式会社　飛鳥新社",
    "office_name_kana": "カブシキガイシヤ アスカシンシヤ"
  },
  "8101": {
    "zip_code": "1018101",
    "prefecture": "東京都",
    "prefecture_kana": "トウキョウト",
    "prefecture_code": 13,
    "city": "千代田区",
    "city_kana": "チヨダク",
    "town": "神田神保町",
    "town_kana": "カンダジンボウチョウ",
    "street": "１丁目１０５番地神保町三井ビルディング",
    "office_name": "旭化成　株式会社",
    "office_name_kana": "アサヒカセイ カブシキガイシヤ"
  },
  "8201": {
    "zip_code": "1018201",
    "prefecture": "東京都",
    "prefecture_kana": "トウキョウト",
    "prefecture_code": 13,
    "city": "千代田区",
    "city_kana": "チヨダク",
    "town": "神田練塀町",
    "town_kana": "カンダネリベイチョウ",
    "street": "３番地インテージ秋葉原ビル",
    "office_name": "株式会社　インテージ",
    "office_name_kana": "カブシキガイシヤ インテ-ジ"
  },
  "8202": {
    "zip_code": "1018202",
    "prefecture": "東京都",
    "prefecture_kana": "トウキョウト",
    "prefecture_code": 13,
    "city": "千代田区",
    "city_kana": "チヨダク",
    "town": "神田練塀町",
    "town_kana": "カンダネリベイチョウ",
    "street": "３番地インテージ秋葉原ビル",
    "office_name": "株式会社　アスクレップ",
    "office_name_kana": "カブシキガイシヤ アスクレツプ"
  },
  "8204": {
    "zip_code": "1018204",
    "prefecture": "東京都",
    "prefecture_kana": "トウキョウト",
    "prefecture_code": 13,
    "city": "千代田区",
    "city_kana": "チヨダク",
    "town": "神田練塀町",
    "town_kana": "カンダネリベイチョウ",
    "street": "３インテージ秋葉原ビル",
    "office_name": "株式会社　インテージ・アソシエイツ",
    "office_name_kana": "カブシキガイシヤ インテ-ジ・アソシエイツ"
  },
  "8210": {
    "zip_code": "1018210",
    "prefecture": "東京都",
    "prefecture_kana": "トウキョウト",
    "prefecture_code": 13,
    "city": "千代田区",
    "city_kana": "チヨダク",
    "town": "神田駿河台",
    "town_kana": "カンダスルガダイ",
    "street": "４丁目６番",
    "office_name": "日本紙通商　株式会社",
    "office_name_kana": "ニツポンカミツウシヨウ カブシキガイシヤ"
  },
  "8213": {
    "zip_code": "1018213",
    "prefecture": "東京都",
    "prefecture_kana": "トウキョウト",
    "prefecture_code": 13,
    "city": "千代田区",
    "city_kana": "チヨダク",
    "town": "神田駿河台",
    "town_kana": "カンダスルガダイ",
    "street": "４丁目６番",
    "office_name": "日本製紙木材　株式会社",
    "office_name_kana": "ニツポンセイシモクザイ カブシキガイシヤ"
  },
  "8215": {
    "zip_code": "1018215",
    "prefecture": "東京都",
    "prefecture_kana": "トウキョウト",
    "prefecture_code": 13,
    "city": "千代田区",
    "city_kana": "チヨダク",
    "town": "神田駿河台",
    "town_kana": "カンダスルガダイ",
    "street": "４−６",
    "office_name": "日本製紙クレシア　株式会社",
    "office_name_kana": "ニツポンセイシクレシア カブシキガイシヤ"
  },
  "8219": {
    "zip_code": "1018219",
    "prefecture": "東京都",
    "prefecture_kana": "トウキョウト",
    "prefecture_code": 13,
    "city": "千代田区",
    "city_kana": "チヨダク",
    "town": "神田駿河台",
    "town_kana": "カンダスルガダイ",
    "street": "４−６御茶ノ水ソラシティ",
    "office_name": "みずほ証券　株式会社",
    "office_name_kana": "ミズホシヨウケン カブシキガイシヤ"
  },
  "8228": {
    "zip_code": "1018228",
    "prefecture": "東京都",
    "prefecture_kana": "トウキョウト",
    "prefecture_code": 13,
    "city": "千代田区",
    "city_kana": "チヨダク",
    "town": "猿楽町",
    "town_kana": "サルガクチョウ",
    "street": "２丁目８番８号住友不動産猿楽町ビル１６階",
    "office_name": "大林道路　株式会社",
    "office_name_kana": "オオバヤシドウロ カブシキガイシヤ"
  },
  "8301": {
    "zip_code": "1018301",
    "prefecture": "東京都",
    "prefecture_kana": "トウキョウト",
    "prefecture_code": 13,
    "city": "千代田区",
    "city_kana": "チヨダク",
    "town": "神田駿河台",
    "town_kana": "カンダスルガダイ",
    "street": "１丁目１",
    "office_name": "学校法人　明治大学",
    "office_name_kana": "ガツコウホウジン メイジダイガク"
  },
  "8302": {
    "zip_code": "1018302",
    "prefecture": "東京都",
    "prefecture_kana": "トウキョウト",
    "prefecture_code": 13,
    "city": "千代田区",
    "city_kana": "チヨダク",
    "town": "神田駿河台",
    "town_kana": "カンダスルガダイ",
    "street": "２−５−１",
    "office_name": "日立化成商事　株式会社",
    "office_name_kana": "ヒタチカセイシヨウジ カブシキガイシヤ"
  },
  "8305": {
    "zip_code": "1018305",
    "prefecture": "東京都",
    "prefecture_kana": "トウキョウト",
    "prefecture_code": 13,
    "city": "千代田区",
    "city_kana": "チヨダク",
    "town": "神田駿河台",
    "town_kana": "カンダスルガダイ",
    "street": "１丁目８",
    "office_name": "株式会社　メディアワークス",
    "office_name_kana": "カブシキガイシヤ メデイアワ-クス"
  },
  "8307": {
    "zip_code": "1018307",
    "prefecture": "東京都",
    "prefecture_kana": "トウキョウト",
    "prefecture_code": 13,
    "city": "千代田区",
    "city_kana": "チヨダク",
    "town": "神田駿河台",
    "town_kana": "カンダスルガダイ",
    "street": "１丁目５",
    "office_name": "社団法人　日本化学会",
    "office_name_kana": "シヤダンホウジン ニホンカガクカイ"
  },
  "8308": {
    "zip_code": "1018308",
    "prefecture": "東京都",
    "prefecture_kana": "トウキョウト",
    "prefecture_code": 13,
    "city": "千代田区",
    "city_kana": "チヨダク",
    "town": "神田駿河台",
    "town_kana": "カンダスルガダイ",
    "street": "１丁目８−１４",
    "office_name": "日本大学　理工学部",
    "office_name_kana": "ニホンダイガク リコウガクブ"
  },
  "8310": {
    "zip_code": "1018310",
    "prefecture": "東京都",
    "prefecture_kana": "トウキョウト",
    "prefecture_code": 13,
    "city": "千代田区",
    "city_kana": "チヨダク",
    "town": "神田駿河台",
    "town_kana": "カンダスルガダイ",
    "street": "１丁目８−１３",
    "office_name": "日本大学　歯学部",
    "office_name_kana": "ニホンダイガク シガクブ"
  },
  "8311": {
    "zip_code": "1018311",
    "prefecture": "東京都",
    "prefecture_kana": "トウキョウト",
    "prefecture_code": 13,
    "city": "千代田区",
    "city_kana": "チヨダク",
    "town": "神田駿河台",
    "town_kana": "カンダスルガダイ",
    "street": "４−６御茶ノ水ソラシティ",
    "office_name": "キョーリン製薬ホールディングス　株式会社",
    "office_name_kana": "キヨ-リンセイヤクホ-ルデイングス カブシキガイシヤ"
  },
  "8313": {
    "zip_code": "1018313",
    "prefecture": "東京都",
    "prefecture_kana": "トウキョウト",
    "prefecture_code": 13,
    "city": "千代田区",
    "city_kana": "チヨダク",
    "town": "神田駿河台",
    "town_kana": "カンダスルガダイ",
    "street": "２丁目５−１７",
    "office_name": "学校法人　駿河台学園　駿台予備学校",
    "office_name_kana": "ガツコウホウジン スルガダイガクエン スンダイヨビガツコウ"
  },
  "8314": {
    "zip_code": "1018314",
    "prefecture": "東京都",
    "prefecture_kana": "トウキョウト",
    "prefecture_code": 13,
    "city": "千代田区",
    "city_kana": "チヨダク",
    "town": "神田駿河台",
    "town_kana": "カンダスルガダイ",
    "street": "２丁目５−１２駿河台プラザビル",
    "office_name": "富士ゼロックスオフィスサプライ　株式会社",
    "office_name_kana": "フジゼロツクスオフイスサプライ カブシキガイシヤ"
  },
  "8315": {
    "zip_code": "1018315",
    "prefecture": "東京都",
    "prefecture_kana": "トウキョウト",
    "prefecture_code": 13,
    "city": "千代田区",
    "city_kana": "チヨダク",
    "town": "神田駿河台",
    "town_kana": "カンダスルガダイ",
    "street": "２丁目５−１５",
    "office_name": "労働金庫会館",
    "office_name_kana": "ロウドウキンコカイカン"
  },
  "8316": {
    "zip_code": "1018316",
    "prefecture": "東京都",
    "prefecture_kana": "トウキョウト",
    "prefecture_code": 13,
    "city": "千代田区",
    "city_kana": "チヨダク",
    "town": "神田駿河台",
    "town_kana": "カンダスルガダイ",
    "street": "２丁目３−１１",
    "office_name": "株式会社　鴻池組　東京本店",
    "office_name_kana": "カブシキガイシヤ コウノイケグミ トウキヨウホンテン"
  },
  "8317": {
    "zip_code": "1018317",
    "prefecture": "東京都",
    "prefecture_kana": "トウキョウト",
    "prefecture_code": 13,
    "city": "千代田区",
    "city_kana": "チヨダク",
    "town": "神田駿河台",
    "town_kana": "カンダスルガダイ",
    "street": "２丁目９−１７",
    "office_name": "協同リース　株式会社",
    "office_name_kana": "キヨウドウリ-ス カブシキガイシヤ"
  },
  "8321": {
    "zip_code": "1018321",
    "prefecture": "東京都",
    "prefecture_kana": "トウキョウト",
    "prefecture_code": 13,
    "city": "千代田区",
    "city_kana": "チヨダク",
    "town": "神田駿河台",
    "town_kana": "カンダスルガダイ",
    "street": "４丁目２−５",
    "office_name": "高砂熱学工業　株式会社",
    "office_name_kana": "タカサゴネツガクコウギヨウ カブシキガイシヤ"
  },
  "8322": {
    "zip_code": "1018322",
    "prefecture": "東京都",
    "prefecture_kana": "トウキョウト",
    "prefecture_code": 13,
    "city": "千代田区",
    "city_kana": "チヨダク",
    "town": "神田駿河台",
    "town_kana": "カンダスルガダイ",
    "street": "２丁目２",
    "office_name": "丸紅エネルギー　株式会社",
    "office_name_kana": "マルベニエネルギ- カブシキガイシヤ"
  },
  "8323": {
    "zip_code": "1018323",
    "prefecture": "東京都",
    "prefecture_kana": "トウキョウト",
    "prefecture_code": 13,
    "city": "千代田区",
    "city_kana": "チヨダク",
    "town": "神田小川町",
    "town_kana": "カンダオガワマチ",
    "street": "２丁目１０",
    "office_name": "株式会社　日本経済広告社",
    "office_name_kana": "カブシキガイシヤ ニホンケイザイコウコクシヤ"
  },
  "8324": {
    "zip_code": "1018324",
    "prefecture": "東京都",
    "prefecture_kana": "トウキョウト",
    "prefecture_code": 13,
    "city": "千代田区",
    "city_kana": "チヨダク",
    "town": "神田駿河台",
    "town_kana": "カンダスルガダイ",
    "street": "３丁目１１−５",
    "office_name": "中央大学　駿河台記念館",
    "office_name_kana": "チユウオウダイガク スルガダイキネンカン"
  },
  "8325": {
    "zip_code": "1018325",
    "prefecture": "東京都",
    "prefecture_kana": "トウキョウト",
    "prefecture_code": 13,
    "city": "千代田区",
    "city_kana": "チヨダク",
    "town": "神田駿河台",
    "town_kana": "カンダスルガダイ",
    "street": "２丁目１",
    "office_name": "管工業健康保険組合",
    "office_name_kana": "カンコウギヨウケンコウホケンクミアイ"
  },
  "8326": {
    "zip_code": "1018326",
    "prefecture": "東京都",
    "prefecture_kana": "トウキョウト",
    "prefecture_code": 13,
    "city": "千代田区",
    "city_kana": "チヨダク",
    "town": "神田駿河台",
    "town_kana": "カンダスルガダイ",
    "street": "２丁目５",
    "office_name": "社団法人　東京都教職員互助会　三楽病院",
    "office_name_kana": "シヤダンホウジン トウキヨウトキヨウシヨクインゴジヨカイ サンラクビヨウイン"
  },
  "8327": {
    "zip_code": "1018327",
    "prefecture": "東京都",
    "prefecture_kana": "トウキョウト",
    "prefecture_code": 13,
    "city": "千代田区",
    "city_kana": "チヨダク",
    "town": "神田駿河台",
    "town_kana": "カンダスルガダイ",
    "street": "２丁目５−２３",
    "office_name": "東邦ホールディングス　株式会社",
    "office_name_kana": "トウホウホ-ルデイングス カブシキガイシヤ"
  },
  "8328": {
    "zip_code": "1018328",
    "prefecture": "東京都",
    "prefecture_kana": "トウキョウト",
    "prefecture_code": 13,
    "city": "千代田区",
    "city_kana": "チヨダク",
    "town": "神田駿河台",
    "town_kana": "カンダスルガダイ",
    "street": "２丁目５",
    "office_name": "社団法人　東京都医師会",
    "office_name_kana": "シヤダンホウジン トウキヨウトイシカイ"
  },
  "8330": {
    "zip_code": "1018330",
    "prefecture": "東京都",
    "prefecture_kana": "トウキョウト",
    "prefecture_code": 13,
    "city": "千代田区",
    "city_kana": "チヨダク",
    "town": "神田駿河台",
    "town_kana": "カンダスルガダイ",
    "street": "４−３新お茶の水ビルディング",
    "office_name": "商船三井ロジスティクス　株式会社",
    "office_name_kana": "シヨウセンミツイロジステイクス カブシキカイシヤ"
  },
  "8331": {
    "zip_code": "1018331",
    "prefecture": "東京都",
    "prefecture_kana": "トウキョウト",
    "prefecture_code": 13,
    "city": "千代田区",
    "city_kana": "チヨダク",
    "town": "神田駿河台",
    "town_kana": "カンダスルガダイ",
    "street": "２丁目２",
    "office_name": "丸紅ガスエナジー　株式会社",
    "office_name_kana": "マルベニガスエナジ- カブシキガイシヤ"
  },
  "8333": {
    "zip_code": "1018333",
    "prefecture": "東京都",
    "prefecture_kana": "トウキョウト",
    "prefecture_code": 13,
    "city": "千代田区",
    "city_kana": "チヨダク",
    "town": "神田淡路町",
    "town_kana": "カンダアワジチョウ",
    "street": "１丁目１５",
    "office_name": "財団法人　産業経理協会",
    "office_name_kana": "ザイダンホウジン サンギヨウケイリキヨウカイ"
  },
  "8335": {
    "zip_code": "1018335",
    "prefecture": "東京都",
    "prefecture_kana": "トウキョウト",
    "prefecture_code": 13,
    "city": "千代田区",
    "city_kana": "チヨダク",
    "town": "神田淡路町",
    "town_kana": "カンダアワジチョウ",
    "street": "２丁目９",
    "office_name": "株式会社　損保會舘",
    "office_name_kana": "カブシキガイシヤ ソンポカイカン"
  },
  "8336": {
    "zip_code": "1018336",
    "prefecture": "東京都",
    "prefecture_kana": "トウキョウト",
    "prefecture_code": 13,
    "city": "千代田区",
    "city_kana": "チヨダク",
    "town": "神田淡路町",
    "town_kana": "カンダアワジチョウ",
    "street": "２丁目１０１番地ワテラスタワー",
    "office_name": "リケンテクノス　株式会社",
    "office_name_kana": "リケンテクノス カブシキガイシヤ"
  },
  "8338": {
    "zip_code": "1018338",
    "prefecture": "東京都",
    "prefecture_kana": "トウキョウト",
    "prefecture_code": 13,
    "city": "千代田区",
    "city_kana": "チヨダク",
    "town": "内神田",
    "town_kana": "ウチカンダ",
    "street": "２丁目１６−１１内神田渋谷ビル９階",
    "office_name": "三菱マテリアル　株式会社",
    "office_name_kana": "ミツビシマテリアル カブシキガイシヤ"
  },
  "8345": {
    "zip_code": "1018345",
    "prefecture": "東京都",
    "prefecture_kana": "トウキョウト",
    "prefecture_code": 13,
    "city": "千代田区",
    "city_kana": "チヨダク",
    "town": "猿楽町",
    "town_kana": "サルガクチョウ",
    "street": "２丁目７−８住友水道橋ビル",
    "office_name": "神田社会保険事務所",
    "office_name_kana": "カンダシヤカイホケンジムシヨ"
  },
  "8346": {
    "zip_code": "1018346",
    "prefecture": "東京都",
    "prefecture_kana": "トウキョウト",
    "prefecture_code": 13,
    "city": "千代田区",
    "city_kana": "チヨダク",
    "town": "猿楽町",
    "town_kana": "サルガクチョウ",
    "street": "２丁目４−１１−４０２",
    "office_name": "財団法人　日本眼科学会",
    "office_name_kana": "ザイダンホウジン ニホンガンカガツカイ"
  },
  "8347": {
    "zip_code": "1018347",
    "prefecture": "東京都",
    "prefecture_kana": "トウキョウト",
    "prefecture_code": 13,
    "city": "千代田区",
    "city_kana": "チヨダク",
    "town": "猿楽町",
    "town_kana": "サルガクチョウ",
    "street": "１丁目５番１５号",
    "office_name": "ＮＴＴコムソリューションズ　株式会社",
    "office_name_kana": "エヌテイテイコムソリユ-シヨンズ カブシキガイシヤ"
  },
  "8350": {
    "zip_code": "1018350",
    "prefecture": "東京都",
    "prefecture_kana": "トウキョウト",
    "prefecture_code": 13,
    "city": "千代田区",
    "city_kana": "チヨダク",
    "town": "西神田",
    "town_kana": "ニシカンダ",
    "street": "１丁目４−５",
    "office_name": "東光電気工事　株式会社",
    "office_name_kana": "トウコウデンキコウジ カブシキガイシヤ"
  },
  "8351": {
    "zip_code": "1018351",
    "prefecture": "東京都",
    "prefecture_kana": "トウキョウト",
    "prefecture_code": 13,
    "city": "千代田区",
    "city_kana": "チヨダク",
    "town": "西神田",
    "town_kana": "ニシカンダ",
    "street": "２丁目４−１１大原簿記学校本館",
    "office_name": "学校法人　大原学園",
    "office_name_kana": "ガツコウホウジン オオハラガクエン"
  },
  "8352": {
    "zip_code": "1018352",
    "prefecture": "東京都",
    "prefecture_kana": "トウキョウト",
    "prefecture_code": 13,
    "city": "千代田区",
    "city_kana": "チヨダク",
    "town": "西神田",
    "town_kana": "ニシカンダ",
    "street": "１丁目３−６−８Ｆ",
    "office_name": "大原簿記学校",
    "office_name_kana": "オオハラボキガツコウ"
  },
  "8353": {
    "zip_code": "1018353",
    "prefecture": "東京都",
    "prefecture_kana": "トウキョウト",
    "prefecture_code": 13,
    "city": "千代田区",
    "city_kana": "チヨダク",
    "town": "西神田",
    "town_kana": "ニシカンダ",
    "street": "２丁目５−４",
    "office_name": "大原法律専門学校",
    "office_name_kana": "オオハラホウリツセンモンガツコウ"
  },
  "8354": {
    "zip_code": "1018354",
    "prefecture": "東京都",
    "prefecture_kana": "トウキョウト",
    "prefecture_code": 13,
    "city": "千代田区",
    "city_kana": "チヨダク",
    "town": "三崎町",
    "town_kana": "ミサキチョウ",
    "street": "２丁目２−３",
    "office_name": "日本大学　通信教育部",
    "office_name_kana": "ニホンダイガク ツウシンキヨウイクブ"
  },
  "8355": {
    "zip_code": "1018355",
    "prefecture": "東京都",
    "prefecture_kana": "トウキョウト",
    "prefecture_code": 13,
    "city": "千代田区",
    "city_kana": "チヨダク",
    "town": "西神田",
    "town_kana": "ニシカンダ",
    "street": "３丁目３−５",
    "office_name": "株式会社　朝日出版社",
    "office_name_kana": "カブシキガイシヤ アサヒシユツパンシヤ"
  },
  "8356": {
    "zip_code": "1018356",
    "prefecture": "東京都",
    "prefecture_kana": "トウキョウト",
    "prefecture_code": 13,
    "city": "千代田区",
    "city_kana": "チヨダク",
    "town": "西神田",
    "town_kana": "ニシカンダ",
    "street": "２丁目８−９林リースビル５Ｆ",
    "office_name": "（株）　銀英社",
    "office_name_kana": "ギンエイシヤ"
  },
  "8358": {
    "zip_code": "1018358",
    "prefecture": "東京都",
    "prefecture_kana": "トウキョウト",
    "prefecture_code": 13,
    "city": "千代田区",
    "city_kana": "チヨダク",
    "town": "西神田",
    "town_kana": "ニシカンダ",
    "street": "２丁目２−３",
    "office_name": "財団法人　日本書道教育学会",
    "office_name_kana": "ザイダンホウジン ニホンシヨドウキヨウイクガツカイ"
  },
  "8359": {
    "zip_code": "1018359",
    "prefecture": "東京都",
    "prefecture_kana": "トウキョウト",
    "prefecture_code": 13,
    "city": "千代田区",
    "city_kana": "チヨダク",
    "town": "西神田",
    "town_kana": "ニシカンダ",
    "street": "３丁目８−１千代田ファーストビル",
    "office_name": "独立行政法人　日本貿易保険",
    "office_name_kana": "ドクリツギヨウセイホウジン ニホンボウエキホケン"
  },
  "8362": {
    "zip_code": "1018362",
    "prefecture": "東京都",
    "prefecture_kana": "トウキョウト",
    "prefecture_code": 13,
    "city": "千代田区",
    "city_kana": "チヨダク",
    "town": "西神田",
    "town_kana": "ニシカンダ",
    "street": "３丁目８−１",
    "office_name": "ＮＥＣトーキン　（株）",
    "office_name_kana": "エヌイ-シ-ト-キン (カブ)"
  },
  "8363": {
    "zip_code": "1018363",
    "prefecture": "東京都",
    "prefecture_kana": "トウキョウト",
    "prefecture_code": 13,
    "city": "千代田区",
    "city_kana": "チヨダク",
    "town": "西神田",
    "town_kana": "ニシカンダ",
    "street": "３丁目８−１千代田ファーストビル１４Ｆ",
    "office_name": "丸紅テレコム　（株）",
    "office_name_kana": "マルベニテレコム (カブ)"
  },
  "8365": {
    "zip_code": "1018365",
    "prefecture": "東京都",
    "prefecture_kana": "トウキョウト",
    "prefecture_code": 13,
    "city": "千代田区",
    "city_kana": "チヨダク",
    "town": "三崎町",
    "town_kana": "ミサキチョウ",
    "street": "２丁目１１−７",
    "office_name": "株式会社　桃園書房",
    "office_name_kana": "カブシキガイシヤ トオエンシヨボウ"
  },
  "8366": {
    "zip_code": "1018366",
    "prefecture": "東京都",
    "prefecture_kana": "トウキョウト",
    "prefecture_code": 13,
    "city": "千代田区",
    "city_kana": "チヨダク",
    "town": "三崎町",
    "town_kana": "ミサキチョウ",
    "street": "２丁目５−３",
    "office_name": "鉄建建設　（株）",
    "office_name_kana": "テツケンケンセツ"
  },
  "8370": {
    "zip_code": "1018370",
    "prefecture": "東京都",
    "prefecture_kana": "トウキョウト",
    "prefecture_code": 13,
    "city": "千代田区",
    "city_kana": "チヨダク",
    "town": "三崎町",
    "town_kana": "ミサキチョウ",
    "street": "２丁目９−１８",
    "office_name": "理研ビタミン　株式会社",
    "office_name_kana": "リケンビタミン カブシキガイシヤ"
  },
  "8371": {
    "zip_code": "1018371",
    "prefecture": "東京都",
    "prefecture_kana": "トウキョウト",
    "prefecture_code": 13,
    "city": "千代田区",
    "city_kana": "チヨダク",
    "town": "三崎町",
    "town_kana": "ミサキチョウ",
    "street": "２丁目２２−１４",
    "office_name": "株式会社　三省堂",
    "office_name_kana": "カブシキガイシヤ サンセイドウ"
  },
  "8375": {
    "zip_code": "1018375",
    "prefecture": "東京都",
    "prefecture_kana": "トウキョウト",
    "prefecture_code": 13,
    "city": "千代田区",
    "city_kana": "チヨダク",
    "town": "三崎町",
    "town_kana": "ミサキチョウ",
    "street": "２丁目３−１",
    "office_name": "日本大学　法学部",
    "office_name_kana": "ニホンダイガク ホウガクブ"
  },
  "8378": {
    "zip_code": "1018378",
    "prefecture": "東京都",
    "prefecture_kana": "トウキョウト",
    "prefecture_code": 13,
    "city": "千代田区",
    "city_kana": "チヨダク",
    "town": "猿楽町",
    "town_kana": "サルガクチョウ",
    "street": "２丁目８番８号住友不動産猿楽町ビル７階",
    "office_name": "公益社団法人　全日本病院協会",
    "office_name_kana": "コウエキシヤダンホウジン ゼンニホンビヨウインキヨウカイ"
  },
  "8380": {
    "zip_code": "1018380",
    "prefecture": "東京都",
    "prefecture_kana": "トウキョウト",
    "prefecture_code": 13,
    "city": "千代田区",
    "city_kana": "チヨダク",
    "town": "三崎町",
    "town_kana": "ミサキチョウ",
    "street": "３丁目３−２３",
    "office_name": "芙蓉総合リース　株式会社",
    "office_name_kana": "フヨウソウゴウリ-ス カブシキガイシヤ"
  },
  "8381": {
    "zip_code": "1018381",
    "prefecture": "東京都",
    "prefecture_kana": "トウキョウト",
    "prefecture_code": 13,
    "city": "千代田区",
    "city_kana": "チヨダク",
    "town": "三崎町",
    "town_kana": "ミサキチョウ",
    "street": "３丁目１０−１０",
    "office_name": "株式会社　ベースボール・マガジン社",
    "office_name_kana": "カブシキガイシヤ ベ-スボ-ル・マガジンシヤ"
  },
  "8383": {
    "zip_code": "1018383",
    "prefecture": "東京都",
    "prefecture_kana": "トウキョウト",
    "prefecture_code": 13,
    "city": "千代田区",
    "city_kana": "チヨダク",
    "town": "三崎町",
    "town_kana": "ミサキチョウ",
    "street": "３丁目２−１８",
    "office_name": "タック　株式会社",
    "office_name_kana": "タツク カブシキガイシヤ"
  },
  "8385": {
    "zip_code": "1018385",
    "prefecture": "東京都",
    "prefecture_kana": "トウキョウト",
    "prefecture_code": 13,
    "city": "千代田区",
    "city_kana": "チヨダク",
    "town": "三崎町",
    "town_kana": "ミサキチョウ",
    "street": "３丁目１−１０",
    "office_name": "（社）　倫理研究所",
    "office_name_kana": "リンリケンキユウジヨ"
  },
  "8388": {
    "zip_code": "1018388",
    "prefecture": "東京都",
    "prefecture_kana": "トウキョウト",
    "prefecture_code": 13,
    "city": "千代田区",
    "city_kana": "チヨダク",
    "town": "三崎町",
    "town_kana": "ミサキチョウ",
    "street": "３丁目３−１２",
    "office_name": "株式会社　少年画報社",
    "office_name_kana": "カブシキガイシヤ シヨウネンガホウシヤ"
  },
  "8405": {
    "zip_code": "1018405",
    "prefecture": "東京都",
    "prefecture_kana": "トウキョウト",
    "prefecture_code": 13,
    "city": "千代田区",
    "city_kana": "チヨダク",
    "town": "三崎町",
    "town_kana": "ミサキチョウ",
    "street": "２丁目１８−１１堀内三崎町ビル",
    "office_name": "株式会社　二見書房",
    "office_name_kana": "カブシキガイシヤ フタミシヨボウ"
  },
  "8407": {
    "zip_code": "1018407",
    "prefecture": "東京都",
    "prefecture_kana": "トウキョウト",
    "prefecture_code": 13,
    "city": "千代田区",
    "city_kana": "チヨダク",
    "town": "神田神保町",
    "town_kana": "カンダジンボウチョウ",
    "street": "１丁目７",
    "office_name": "（株）日本文芸社",
    "office_name_kana": "ニホンブンゲイシヤ"
  },
  "8408": {
    "zip_code": "1018408",
    "prefecture": "東京都",
    "prefecture_kana": "トウキョウト",
    "prefecture_code": 13,
    "city": "千代田区",
    "city_kana": "チヨダク",
    "town": "神田神保町",
    "town_kana": "カンダジンボウチョウ",
    "street": "１丁目３０−１３",
    "office_name": "株式会社　つり人社",
    "office_name_kana": "カブシキガイシヤ ツリビトシヤ"
  },
  "8409": {
    "zip_code": "1018409",
    "prefecture": "東京都",
    "prefecture_kana": "トウキョウト",
    "prefecture_code": 13,
    "city": "千代田区",
    "city_kana": "チヨダク",
    "town": "神田駿河台",
    "town_kana": "カンダスルガダイ",
    "street": "２丁目３−１３鈴木ビル４Ｆ",
    "office_name": "平和出版　株式会社",
    "office_name_kana": "ヘイワシユツパン カブシキガイシヤ"
  },
  "8410": {
    "zip_code": "1018410",
    "prefecture": "東京都",
    "prefecture_kana": "トウキョウト",
    "prefecture_code": 13,
    "city": "千代田区",
    "city_kana": "チヨダク",
    "town": "神田神保町",
    "town_kana": "カンダジンボウチョウ",
    "street": "１丁目５６",
    "office_name": "株式会社　シノテスト",
    "office_name_kana": "カブシキガイシヤ シノテスト"
  },
  "8411": {
    "zip_code": "1018411",
    "prefecture": "東京都",
    "prefecture_kana": "トウキョウト",
    "prefecture_code": 13,
    "city": "千代田区",
    "city_kana": "チヨダク",
    "town": "神田神保町",
    "town_kana": "カンダジンボウチョウ",
    "street": "２丁目１７番地神田神保町ビル",
    "office_name": "図書印刷　株式会社",
    "office_name_kana": "トシヨインサツ カブシキガイシヤ"
  },
  "8412": {
    "zip_code": "1018412",
    "prefecture": "東京都",
    "prefecture_kana": "トウキョウト",
    "prefecture_code": 13,
    "city": "千代田区",
    "city_kana": "チヨダク",
    "town": "神田神保町",
    "town_kana": "カンダジンボウチョウ",
    "street": "２丁目５",
    "office_name": "社会福祉法人　全国盲ろう者協会",
    "office_name_kana": "シヤカイフクシホウジン ゼンコクモウロウシヤキヨウカイ"
  },
  "8415": {
    "zip_code": "1018415",
    "prefecture": "東京都",
    "prefecture_kana": "トウキョウト",
    "prefecture_code": 13,
    "city": "千代田区",
    "city_kana": "チヨダク",
    "town": "神田神保町",
    "town_kana": "カンダジンボウチョウ",
    "street": "２丁目３０",
    "office_name": "株式会社　小学館集英社プロダクション",
    "office_name_kana": "カブシキガイシヤ シヨウガクカンシユウエイシヤプロダクシヨン"
  },
  "8416": {
    "zip_code": "1018416",
    "prefecture": "東京都",
    "prefecture_kana": "トウキョウト",
    "prefecture_code": 13,
    "city": "千代田区",
    "city_kana": "チヨダク",
    "town": "神田神保町",
    "town_kana": "カンダジンボウチョウ",
    "street": "２丁目４",
    "office_name": "太平電業　株式会社",
    "office_name_kana": "タイヘイデンギヨウ カブシキガイシヤ"
  },
  "8418": {
    "zip_code": "1018418",
    "prefecture": "東京都",
    "prefecture_kana": "トウキョウト",
    "prefecture_code": 13,
    "city": "千代田区",
    "city_kana": "チヨダク",
    "town": "西神田",
    "town_kana": "ニシカンダ",
    "street": "１−１−１",
    "office_name": "株式会社　ゼンリン",
    "office_name_kana": "カブシキガイシヤ ゼンリン"
  },
  "8419": {
    "zip_code": "1018419",
    "prefecture": "東京都",
    "prefecture_kana": "トウキョウト",
    "prefecture_code": 13,
    "city": "千代田区",
    "city_kana": "チヨダク",
    "town": "神田神保町",
    "town_kana": "カンダジンボウチョウ",
    "street": "２丁目２",
    "office_name": "株式会社　二玄社",
    "office_name_kana": "カブシキガイシヤ ニゲンシヤ"
  },
  "8421": {
    "zip_code": "1018421",
    "prefecture": "東京都",
    "prefecture_kana": "トウキョウト",
    "prefecture_code": 13,
    "city": "千代田区",
    "city_kana": "チヨダク",
    "town": "猿楽町",
    "town_kana": "サルガクチョウ",
    "street": "１−５−１５猿楽町ＳＳビル",
    "office_name": "株式会社　じほう",
    "office_name_kana": "カブシキガイシヤ ジホウ"
  },
  "8422": {
    "zip_code": "1018422",
    "prefecture": "東京都",
    "prefecture_kana": "トウキョウト",
    "prefecture_code": 13,
    "city": "千代田区",
    "city_kana": "チヨダク",
    "town": "神田神保町",
    "town_kana": "カンダジンボウチョウ",
    "street": "２丁目２",
    "office_name": "郵船トラベル　（株）",
    "office_name_kana": "ユウセントラベル"
  },
  "8423": {
    "zip_code": "1018423",
    "prefecture": "東京都",
    "prefecture_kana": "トウキョウト",
    "prefecture_code": 13,
    "city": "千代田区",
    "city_kana": "チヨダク",
    "town": "神田神保町",
    "town_kana": "カンダジンボウチョウ",
    "street": "２−７−３神保町ＮＫビル",
    "office_name": "株式会社　放送出版エージェンシー",
    "office_name_kana": "カブシキガイシヤ ホウソウシユツパンエ-ジエンシ-"
  },
  "8424": {
    "zip_code": "1018424",
    "prefecture": "東京都",
    "prefecture_kana": "トウキョウト",
    "prefecture_code": 13,
    "city": "千代田区",
    "city_kana": "チヨダク",
    "town": "神田神保町",
    "town_kana": "カンダジンボウチョウ",
    "street": "２−７−３神保町ＮＫビル",
    "office_name": "株式会社　放送出版プロモーション　日本アマチュア歌謡連盟　本部事務局",
    "office_name_kana": "カブシキガイシヤ ホウソウシユツパンプロモ-シヨン ニホンアマチユアカヨウレンメイ ホンブジムキヨク"
  },
  "8425": {
    "zip_code": "1018425",
    "prefecture": "東京都",
    "prefecture_kana": "トウキョウト",
    "prefecture_code": 13,
    "city": "千代田区",
    "city_kana": "チヨダク",
    "town": "神田神保町",
    "town_kana": "カンダジンボウチョウ",
    "street": "３丁目８−１",
    "office_name": "学校法人　専修大学",
    "office_name_kana": "センシユウダイガク"
  },
  "8427": {
    "zip_code": "1018427",
    "prefecture": "東京都",
    "prefecture_kana": "トウキョウト",
    "prefecture_code": 13,
    "city": "千代田区",
    "city_kana": "チヨダク",
    "town": "神田神保町",
    "town_kana": "カンダジンボウチョウ",
    "street": "３−２５住友神保町ビル８階",
    "office_name": "栗田出版販売　株式会社",
    "office_name_kana": "クリタシユツパンハンバイ カブシキガイシヤ"
  },
  "8429": {
    "zip_code": "1018429",
    "prefecture": "東京都",
    "prefecture_kana": "トウキョウト",
    "prefecture_code": 13,
    "city": "千代田区",
    "city_kana": "チヨダク",
    "town": "神田神保町",
    "town_kana": "カンダジンボウチョウ",
    "street": "２−３６−１千代田ファーストウイング",
    "office_name": "三谷産業　株式会社",
    "office_name_kana": "ミタニサンギヨウ カブシキガイシヤ"
  },
  "8430": {
    "zip_code": "1018430",
    "prefecture": "東京都",
    "prefecture_kana": "トウキョウト",
    "prefecture_code": 13,
    "city": "千代田区",
    "city_kana": "チヨダク",
    "town": "一ツ橋",
    "town_kana": "ヒトツバシ",
    "street": "２丁目１−２",
    "office_name": "情報・システム研究機構　国立情報学研究所",
    "office_name_kana": "ジヨウホウ・システムケンキユウキコウ コクリツジヨウホウガクケンキユウジヨ"
  },
  "8433": {
    "zip_code": "1018433",
    "prefecture": "東京都",
    "prefecture_kana": "トウキョウト",
    "prefecture_code": 13,
    "city": "千代田区",
    "city_kana": "チヨダク",
    "town": "一ツ橋",
    "town_kana": "ヒトツバシ",
    "street": "２丁目２−１",
    "office_name": "学校法人　共立女子学園",
    "office_name_kana": "ガツコウホウジン キヨウリツジヨシガクエン"
  },
  "8437": {
    "zip_code": "1018437",
    "prefecture": "東京都",
    "prefecture_kana": "トウキョウト",
    "prefecture_code": 13,
    "city": "千代田区",
    "city_kana": "チヨダク",
    "town": "一ツ橋",
    "town_kana": "ヒトツバシ",
    "street": "２丁目２−１",
    "office_name": "共立女子大学",
    "office_name_kana": "キヨウリツジヨシダイガク"
  },
  "8439": {
    "zip_code": "1018439",
    "prefecture": "東京都",
    "prefecture_kana": "トウキョウト",
    "prefecture_code": 13,
    "city": "千代田区",
    "city_kana": "チヨダク",
    "town": "一ツ橋",
    "town_kana": "ヒトツバシ",
    "street": "２丁目１−２",
    "office_name": "一橋大学　大学院　国際企業戦略研究科",
    "office_name_kana": "ヒトツバシダイガク ダイガクイン コクサイキギヨウセンリヤクケンキユウカ"
  },
  "8441": {
    "zip_code": "1018441",
    "prefecture": "東京都",
    "prefecture_kana": "トウキョウト",
    "prefecture_code": 13,
    "city": "千代田区",
    "city_kana": "チヨダク",
    "town": "神田錦町",
    "town_kana": "カンダニシキチョウ",
    "street": "１丁目２５",
    "office_name": "日清製粉　株式会社",
    "office_name_kana": "ニツシンセイフン カブシキガイシヤ"
  },
  "8443": {
    "zip_code": "1018443",
    "prefecture": "東京都",
    "prefecture_kana": "トウキョウト",
    "prefecture_code": 13,
    "city": "千代田区",
    "city_kana": "チヨダク",
    "town": "神田錦町",
    "town_kana": "カンダニシキチョウ",
    "street": "２丁目３",
    "office_name": "みずほ情報総研　株式会社",
    "office_name_kana": "ミズホジヨウホウソウケン カブシキガイシヤ"
  },
  "8444": {
    "zip_code": "1018444",
    "prefecture": "東京都",
    "prefecture_kana": "トウキョウト",
    "prefecture_code": 13,
    "city": "千代田区",
    "city_kana": "チヨダク",
    "town": "神田錦町",
    "town_kana": "カンダニシキチョウ",
    "street": "１丁目２７",
    "office_name": "大鵬薬品工業　株式会社",
    "office_name_kana": "タイホウヤクヒンコウギヨウ カブシキガイシヤ"
  },
  "8445": {
    "zip_code": "1018445",
    "prefecture": "東京都",
    "prefecture_kana": "トウキョウト",
    "prefecture_code": 13,
    "city": "千代田区",
    "city_kana": "チヨダク",
    "town": "神田錦町",
    "town_kana": "カンダニシキチョウ",
    "street": "１丁目１",
    "office_name": "イオンクレジットサービス　（株）",
    "office_name_kana": "イオンクレジツトサ-ビス"
  },
  "8446": {
    "zip_code": "1018446",
    "prefecture": "東京都",
    "prefecture_kana": "トウキョウト",
    "prefecture_code": 13,
    "city": "千代田区",
    "city_kana": "チヨダク",
    "town": "神田錦町",
    "town_kana": "カンダニシキチョウ",
    "street": "１丁目１３宝栄錦町ビル８Ｆ",
    "office_name": "菱栄　（株）",
    "office_name_kana": "リヨウエイ"
  },
  "8447": {
    "zip_code": "1018447",
    "prefecture": "東京都",
    "prefecture_kana": "トウキョウト",
    "prefecture_code": 13,
    "city": "千代田区",
    "city_kana": "チヨダク",
    "town": "神田錦町",
    "town_kana": "カンダニシキチョウ",
    "street": "２丁目１１",
    "office_name": "（株）　ジーアンドシー",
    "office_name_kana": "ジ-アンドシ-"
  },
  "8448": {
    "zip_code": "1018448",
    "prefecture": "東京都",
    "prefecture_kana": "トウキョウト",
    "prefecture_code": 13,
    "city": "千代田区",
    "city_kana": "チヨダク",
    "town": "神田錦町",
    "town_kana": "カンダニシキチョウ",
    "street": "１丁目３",
    "office_name": "株式会社　島津製作所　東京支社",
    "office_name_kana": "カブシキガイシヤ シマヅセイサクシヨ トウキヨウシシヤ"
  },
  "8449": {
    "zip_code": "1018449",
    "prefecture": "東京都",
    "prefecture_kana": "トウキョウト",
    "prefecture_code": 13,
    "city": "千代田区",
    "city_kana": "チヨダク",
    "town": "猿楽町",
    "town_kana": "サルガクチョウ",
    "street": "１丁目５−１８千代田ビル",
    "office_name": "株式会社　ＩＣＳコンベンションデザイン",
    "office_name_kana": "カブシキガイシヤ アイシ-エスコンベンシヨンデザイン"
  },
  "8450": {
    "zip_code": "1018450",
    "prefecture": "東京都",
    "prefecture_kana": "トウキョウト",
    "prefecture_code": 13,
    "city": "千代田区",
    "city_kana": "チヨダク",
    "town": "神田錦町",
    "town_kana": "カンダニシキチョウ",
    "street": "１丁目１４",
    "office_name": "株式会社　シンコーミュージック・エンタテイメント",
    "office_name_kana": "カブシキガイシヤ シンコ-ミユ-ジツク・エンタテイメント"
  },
  "8451": {
    "zip_code": "1018451",
    "prefecture": "東京都",
    "prefecture_kana": "トウキョウト",
    "prefecture_code": 13,
    "city": "千代田区",
    "city_kana": "チヨダク",
    "town": "神田錦町",
    "town_kana": "カンダニシキチョウ",
    "street": "１丁目８",
    "office_name": "新生紙パルプ商事　株式会社",
    "office_name_kana": "シンセイカミパルプシヨウジ カブシキガイシヤ"
  },
  "8452": {
    "zip_code": "1018452",
    "prefecture": "東京都",
    "prefecture_kana": "トウキョウト",
    "prefecture_code": 13,
    "city": "千代田区",
    "city_kana": "チヨダク",
    "town": "神田錦町",
    "town_kana": "カンダニシキチョウ",
    "street": "３丁目１３竹橋安田ビル１〜４Ｆ",
    "office_name": "富士フイルムグラフィックシステムズ　株式会社",
    "office_name_kana": "フジフイルムグラフイツクシステムズ カブシキガイシヤ"
  },
  "8453": {
    "zip_code": "1018453",
    "prefecture": "東京都",
    "prefecture_kana": "トウキョウト",
    "prefecture_code": 13,
    "city": "千代田区",
    "city_kana": "チヨダク",
    "town": "神田錦町",
    "town_kana": "カンダニシキチョウ",
    "street": "３丁目１１住友商事錦町ビル",
    "office_name": "住商エレクトロニクス　株式会社",
    "office_name_kana": "スミシヨウエレクトロニクス カブシキガイシヤ"
  },
  "8454": {
    "zip_code": "1018454",
    "prefecture": "東京都",
    "prefecture_kana": "トウキョウト",
    "prefecture_code": 13,
    "city": "千代田区",
    "city_kana": "チヨダク",
    "town": "神田小川町",
    "town_kana": "カンダオガワマチ",
    "street": "２丁目１番",
    "office_name": "株式会社　バーン・コーポレーション",
    "office_name_kana": "カブシキガイシヤ バ-ン・コ-ポレ-シヨン"
  },
  "8456": {
    "zip_code": "1018456",
    "prefecture": "東京都",
    "prefecture_kana": "トウキョウト",
    "prefecture_code": 13,
    "city": "千代田区",
    "city_kana": "チヨダク",
    "town": "神田錦町",
    "town_kana": "カンダニシキチョウ",
    "street": "３丁目１",
    "office_name": "学校法人　正則学園",
    "office_name_kana": "ガツコウホウジン セイソクガクエン"
  },
  "8458": {
    "zip_code": "1018458",
    "prefecture": "東京都",
    "prefecture_kana": "トウキョウト",
    "prefecture_code": 13,
    "city": "千代田区",
    "city_kana": "チヨダク",
    "town": "神田錦町",
    "town_kana": "カンダニシキチョウ",
    "street": "３−１１−１",
    "office_name": "三井住友海上あいおい生命保険　株式会社",
    "office_name_kana": "ミツイスミトモカイジヨウアイオイセイメイホケン カブシキガイシヤ"
  },
  "8459": {
    "zip_code": "1018459",
    "prefecture": "東京都",
    "prefecture_kana": "トウキョウト",
    "prefecture_code": 13,
    "city": "千代田区",
    "city_kana": "チヨダク",
    "town": "神田錦町",
    "town_kana": "カンダニシキチョウ",
    "street": "３丁目２８",
    "office_name": "社団法人　学士会",
    "office_name_kana": "シヤダンホウジン ガクシカイ"
  },
  "8460": {
    "zip_code": "1018460",
    "prefecture": "東京都",
    "prefecture_kana": "トウキョウト",
    "prefecture_code": 13,
    "city": "千代田区",
    "city_kana": "チヨダク",
    "town": "神田錦町",
    "town_kana": "カンダニシキチョウ",
    "street": "３丁目１",
    "office_name": "株式会社　オーム社",
    "office_name_kana": "カブシキガイシヤ オ-ムシヤ"
  },
  "8462": {
    "zip_code": "1018462",
    "prefecture": "東京都",
    "prefecture_kana": "トウキョウト",
    "prefecture_code": 13,
    "city": "千代田区",
    "city_kana": "チヨダク",
    "town": "神田錦町",
    "town_kana": "カンダニシキチョウ",
    "street": "３丁目２２番地",
    "office_name": "パシフィックコンサルタンツ　株式会社",
    "office_name_kana": "パシフイツクコンサルタンツ カブシキガイシヤ"
  },
  "8464": {
    "zip_code": "1018464",
    "prefecture": "東京都",
    "prefecture_kana": "トウキョウト",
    "prefecture_code": 13,
    "city": "千代田区",
    "city_kana": "チヨダク",
    "town": "神田錦町",
    "town_kana": "カンダニシキチョウ",
    "street": "３丁目３",
    "office_name": "神田税務署",
    "office_name_kana": "カンダゼイムシヨ"
  },
  "8465": {
    "zip_code": "1018465",
    "prefecture": "東京都",
    "prefecture_kana": "トウキョウト",
    "prefecture_code": 13,
    "city": "千代田区",
    "city_kana": "チヨダク",
    "town": "神田錦町",
    "town_kana": "カンダニシキチョウ",
    "street": "３丁目２４−１住友商事神保町ビル３Ｆ",
    "office_name": "株式会社　スミテックス",
    "office_name_kana": "カブシキガイシヤ スミテツクス"
  },
  "8466": {
    "zip_code": "1018466",
    "prefecture": "東京都",
    "prefecture_kana": "トウキョウト",
    "prefecture_code": 13,
    "city": "千代田区",
    "city_kana": "チヨダク",
    "town": "神田錦町",
    "town_kana": "カンダニシキチョウ",
    "street": "３丁目２４",
    "office_name": "株式会社　大修館書店",
    "office_name_kana": "カブシキガイシヤ タイシユウカンシヨテン"
  },
  "8467": {
    "zip_code": "1018467",
    "prefecture": "東京都",
    "prefecture_kana": "トウキョウト",
    "prefecture_code": 13,
    "city": "千代田区",
    "city_kana": "チヨダク",
    "town": "神田錦町",
    "town_kana": "カンダニシキチョウ",
    "street": "３丁目１８−３錦三ビル７階",
    "office_name": "株式会社　エス・エス・コミュニケーションズ",
    "office_name_kana": "カブシキガイシヤ エス・エス・コミユニケ-シヨンズ"
  },
  "8468": {
    "zip_code": "1018468",
    "prefecture": "東京都",
    "prefecture_kana": "トウキョウト",
    "prefecture_code": 13,
    "city": "千代田区",
    "city_kana": "チヨダク",
    "town": "神田錦町",
    "town_kana": "カンダニシキチョウ",
    "street": "３丁目１８",
    "office_name": "ショーボンド建設　株式会社",
    "office_name_kana": "シヨ-ボンドケンセツ カブシキガイシヤ"
  },
  "8469": {
    "zip_code": "1018469",
    "prefecture": "東京都",
    "prefecture_kana": "トウキョウト",
    "prefecture_code": 13,
    "city": "千代田区",
    "city_kana": "チヨダク",
    "town": "神田錦町",
    "town_kana": "カンダニシキチョウ",
    "street": "３丁目６共同ビル（錦町３丁目）２０１",
    "office_name": "株式会社　アンビット　ニンドリ編集部",
    "office_name_kana": "カブシキガイシヤ アンビツト ニンドリヘンシユウブ"
  },
  "8470": {
    "zip_code": "1018470",
    "prefecture": "東京都",
    "prefecture_kana": "トウキョウト",
    "prefecture_code": 13,
    "city": "千代田区",
    "city_kana": "チヨダク",
    "town": "神田小川町",
    "town_kana": "カンダオガワマチ",
    "street": "１丁目１１",
    "office_name": "株式会社　ディーエムエス",
    "office_name_kana": "カブシキガイシヤ デイ-エムエス"
  },
  "8475": {
    "zip_code": "1018475",
    "prefecture": "東京都",
    "prefecture_kana": "トウキョウト",
    "prefecture_code": 13,
    "city": "千代田区",
    "city_kana": "チヨダク",
    "town": "神田小川町",
    "town_kana": "カンダオガワマチ",
    "street": "２丁目１",
    "office_name": "株式会社　シンコーミュージック・エンタテイメント",
    "office_name_kana": "カブシキガイシヤ シンコ-ミユ-ジツク・エンタテイメント"
  },
  "8476": {
    "zip_code": "1018476",
    "prefecture": "東京都",
    "prefecture_kana": "トウキョウト",
    "prefecture_code": 13,
    "city": "千代田区",
    "city_kana": "チヨダク",
    "town": "神田錦町",
    "town_kana": "カンダニシキチョウ",
    "street": "３丁目２６一ツ橋ＳＩビル１０階",
    "office_name": "（株）　キッズステーション",
    "office_name_kana": "カブシキガイシヤ キツズステ-シヨン"
  },
  "8477": {
    "zip_code": "1018477",
    "prefecture": "東京都",
    "prefecture_kana": "トウキョウト",
    "prefecture_code": 13,
    "city": "千代田区",
    "city_kana": "チヨダク",
    "town": "神田小川町",
    "town_kana": "カンダオガワマチ",
    "street": "３丁目２２",
    "office_name": "ミズノ　株式会社",
    "office_name_kana": "ミズノ カブシキガイシヤ"
  },
  "8480": {
    "zip_code": "1018480",
    "prefecture": "東京都",
    "prefecture_kana": "トウキョウト",
    "prefecture_code": 13,
    "city": "千代田区",
    "city_kana": "チヨダク",
    "town": "神田錦町",
    "town_kana": "カンダニシキチョウ",
    "street": "３丁目２２番地",
    "office_name": "旭化成アミダス　株式会社",
    "office_name_kana": "アサヒカセイアミダス カブシキガイシヤ"
  },
  "8481": {
    "zip_code": "1018481",
    "prefecture": "東京都",
    "prefecture_kana": "トウキョウト",
    "prefecture_code": 13,
    "city": "千代田区",
    "city_kana": "チヨダク",
    "town": "神田美土代町",
    "town_kana": "カンダミトシロチョウ",
    "street": "９番地１ＭＤ神田ビル",
    "office_name": "旭化成ファーマ　株式会社",
    "office_name_kana": "アサヒカセイフア-マ カブシキガイシヤ"
  },
  "8483": {
    "zip_code": "1018483",
    "prefecture": "東京都",
    "prefecture_kana": "トウキョウト",
    "prefecture_code": 13,
    "city": "千代田区",
    "city_kana": "チヨダク",
    "town": "神田美土代町",
    "town_kana": "カンダミトシロチョウ",
    "street": "７住友不動産神田ビル１０Ｆ",
    "office_name": "ニチモ　株式会社",
    "office_name_kana": "ニチモ カブシキカイシヤ"
  },
  "8501": {
    "zip_code": "1018501",
    "prefecture": "東京都",
    "prefecture_kana": "トウキョウト",
    "prefecture_code": 13,
    "city": "千代田区",
    "city_kana": "チヨダク",
    "town": "内神田",
    "town_kana": "ウチカンダ",
    "street": "１丁目１−１２",
    "office_name": "全国農業協同組合連合会全農東京支所",
    "office_name_kana": "ゼンコクノウギヨウキヨウドウクミアイレンゴウカイゼンノウトウキヨウシシヨ"
  },
  "8502": {
    "zip_code": "1018502",
    "prefecture": "東京都",
    "prefecture_kana": "トウキョウト",
    "prefecture_code": 13,
    "city": "千代田区",
    "city_kana": "チヨダク",
    "town": "神田錦町",
    "town_kana": "カンダニシキチョウ",
    "street": "３丁目１３−７名古路ビル本館",
    "office_name": "全農物流　株式会社",
    "office_name_kana": "ゼンノウブツリユウ カブシキガイシヤ"
  },
  "8503": {
    "zip_code": "1018503",
    "prefecture": "東京都",
    "prefecture_kana": "トウキョウト",
    "prefecture_code": 13,
    "city": "千代田区",
    "city_kana": "チヨダク",
    "town": "内神田",
    "town_kana": "ウチカンダ",
    "street": "１丁目１−１２",
    "office_name": "全国漁業　協同組合連合会",
    "office_name_kana": "ゼンコクギヨギヨウ キヨウドウクミアイレンゴウカイ"
  },
  "8504": {
    "zip_code": "1018504",
    "prefecture": "東京都",
    "prefecture_kana": "トウキョウト",
    "prefecture_code": 13,
    "city": "千代田区",
    "city_kana": "チヨダク",
    "town": "内神田",
    "town_kana": "ウチカンダ",
    "street": "１丁目５−１２",
    "office_name": "オザックス　株式会社",
    "office_name_kana": "オザツクス カブシキガイシヤ"
  },
  "8506": {
    "zip_code": "1018506",
    "prefecture": "東京都",
    "prefecture_kana": "トウキョウト",
    "prefecture_code": 13,
    "city": "千代田区",
    "city_kana": "チヨダク",
    "town": "内神田",
    "town_kana": "ウチカンダ",
    "street": "１丁目１−１２コープビル",
    "office_name": "農林漁業信用基金",
    "office_name_kana": "ノウリンギヨギヨウシンヨウキキン"
  },
  "8507": {
    "zip_code": "1018507",
    "prefecture": "東京都",
    "prefecture_kana": "トウキョウト",
    "prefecture_code": 13,
    "city": "千代田区",
    "city_kana": "チヨダク",
    "town": "内神田",
    "town_kana": "ウチカンダ",
    "street": "１丁目１−１２コープビル",
    "office_name": "農林中央金庫",
    "office_name_kana": "ノウリンチユウオウキンコ"
  },
  "8508": {
    "zip_code": "1018508",
    "prefecture": "東京都",
    "prefecture_kana": "トウキョウト",
    "prefecture_code": 13,
    "city": "千代田区",
    "city_kana": "チヨダク",
    "town": "内神田",
    "town_kana": "ウチカンダ",
    "street": "１丁目１−１２",
    "office_name": "全国森林組合連合会",
    "office_name_kana": "ゼンコクシンリンクミアイレンゴウカ"
  },
  "8509": {
    "zip_code": "1018509",
    "prefecture": "東京都",
    "prefecture_kana": "トウキョウト",
    "prefecture_code": 13,
    "city": "千代田区",
    "city_kana": "チヨダク",
    "town": "内神田",
    "town_kana": "ウチカンダ",
    "street": "３丁目１−２",
    "office_name": "（社）　全国地方銀行協会",
    "office_name_kana": "ゼンコクチホウギンコウキヨウカイ"
  },
  "8510": {
    "zip_code": "1018510",
    "prefecture": "東京都",
    "prefecture_kana": "トウキョウト",
    "prefecture_code": 13,
    "city": "千代田区",
    "city_kana": "チヨダク",
    "town": "内神田",
    "town_kana": "ウチカンダ",
    "street": "１丁目１−１２",
    "office_name": "協同クレジットサービス　株式会社",
    "office_name_kana": "キヨウドウクレジツトサ-ビス カブシキガイシヤ"
  },
  "8511": {
    "zip_code": "1018511",
    "prefecture": "東京都",
    "prefecture_kana": "トウキョウト",
    "prefecture_code": 13,
    "city": "千代田区",
    "city_kana": "チヨダク",
    "town": "内神田",
    "town_kana": "ウチカンダ",
    "street": "１丁目１−１２コープビル１０Ｆ",
    "office_name": "農林漁業団体職員共済組合",
    "office_name_kana": "ノウリンギヨギヨウダンタイシヨクインキヨウサイクミアイ"
  },
  "8512": {
    "zip_code": "1018512",
    "prefecture": "東京都",
    "prefecture_kana": "トウキョウト",
    "prefecture_code": 13,
    "city": "千代田区",
    "city_kana": "チヨダク",
    "town": "神田美土代町",
    "town_kana": "カンダミトシロチョウ",
    "street": "７番地住友不動産神田ビル１３Ｆ",
    "office_name": "アルフレッサ　株式会社",
    "office_name_kana": "アルフレツサ カブシキガイシヤ"
  },
  "8515": {
    "zip_code": "1018515",
    "prefecture": "東京都",
    "prefecture_kana": "トウキョウト",
    "prefecture_code": 13,
    "city": "千代田区",
    "city_kana": "チヨダク",
    "town": "内神田",
    "town_kana": "ウチカンダ",
    "street": "１丁目１８−１１",
    "office_name": "東京ロイヤルプラザ　管理組合",
    "office_name_kana": "トウキヨウロイヤルプラザ カンリクミアイ"
  },
  "8517": {
    "zip_code": "1018517",
    "prefecture": "東京都",
    "prefecture_kana": "トウキョウト",
    "prefecture_code": 13,
    "city": "千代田区",
    "city_kana": "チヨダク",
    "town": "内神田",
    "town_kana": "ウチカンダ",
    "street": "１丁目１３番４号",
    "office_name": "株式会社　ＬＳＩメディエンス",
    "office_name_kana": "カブシキガイシヤ エルエスアイメデイエンス"
  },
  "8519": {
    "zip_code": "1018519",
    "prefecture": "東京都",
    "prefecture_kana": "トウキョウト",
    "prefecture_code": 13,
    "city": "千代田区",
    "city_kana": "チヨダク",
    "town": "内神田",
    "town_kana": "ウチカンダ",
    "street": "２丁目５−６",
    "office_name": "株式会社　ラーニングネット",
    "office_name_kana": "カブシキガイシヤ ラ-ニングネツト"
  },
  "8520": {
    "zip_code": "1018520",
    "prefecture": "東京都",
    "prefecture_kana": "トウキョウト",
    "prefecture_code": 13,
    "city": "千代田区",
    "city_kana": "チヨダク",
    "town": "内神田",
    "town_kana": "ウチカンダ",
    "street": "２丁目１−１２",
    "office_name": "東京都千代田都税事務所",
    "office_name_kana": "トウキヨウトチヨダトゼイジムシヨ"
  },
  "8521": {
    "zip_code": "1018521",
    "prefecture": "東京都",
    "prefecture_kana": "トウキョウト",
    "prefecture_code": 13,
    "city": "千代田区",
    "city_kana": "チヨダク",
    "town": "内神田",
    "town_kana": "ウチカンダ",
    "street": "２丁目２−１鎌倉河岸ビル",
    "office_name": "昭和産業　株式会社",
    "office_name_kana": "シヨウワサンギヨウ カブシキガイシヤ"
  },
  "8522": {
    "zip_code": "1018522",
    "prefecture": "東京都",
    "prefecture_kana": "トウキョウト",
    "prefecture_code": 13,
    "city": "千代田区",
    "city_kana": "チヨダク",
    "town": "内神田",
    "town_kana": "ウチカンダ",
    "street": "２丁目４−６ＷＴＣ内神田ビル",
    "office_name": "株式会社　社会保険研究所",
    "office_name_kana": "カブシキガイシヤ シヤカイホケンケンキユウジヨ"
  },
  "8523": {
    "zip_code": "1018523",
    "prefecture": "東京都",
    "prefecture_kana": "トウキョウト",
    "prefecture_code": 13,
    "city": "千代田区",
    "city_kana": "チヨダク",
    "town": "内神田",
    "town_kana": "ウチカンダ",
    "street": "２丁目１−１２",
    "office_name": "東京都水道局　千代田営業所",
    "office_name_kana": "トウキヨウトスイドウキヨク チヨダエイギヨウシヨ"
  },
  "8525": {
    "zip_code": "1018525",
    "prefecture": "東京都",
    "prefecture_kana": "トウキョウト",
    "prefecture_code": 13,
    "city": "千代田区",
    "city_kana": "チヨダク",
    "town": "内神田",
    "town_kana": "ウチカンダ",
    "street": "２丁目１３−１３",
    "office_name": "専門学校　神田外語学院（学校法人　佐野学園）",
    "office_name_kana": "センモンガツコウ カンダガイゴガクイン(ガツコウホウジン サノガクエン)"
  },
  "8526": {
    "zip_code": "1018526",
    "prefecture": "東京都",
    "prefecture_kana": "トウキョウト",
    "prefecture_code": 13,
    "city": "千代田区",
    "city_kana": "チヨダク",
    "town": "内神田",
    "town_kana": "ウチカンダ",
    "street": "２丁目１６−１１内神田渋谷ビル４Ｆ",
    "office_name": "（株）　アクティブ",
    "office_name_kana": "カブ アクテイブ"
  },
  "8528": {
    "zip_code": "1018528",
    "prefecture": "東京都",
    "prefecture_kana": "トウキョウト",
    "prefecture_code": 13,
    "city": "千代田区",
    "city_kana": "チヨダク",
    "town": "内神田",
    "town_kana": "ウチカンダ",
    "street": "３−３−７",
    "office_name": "ピップ　株式会社",
    "office_name_kana": "ピツプ カブシキガイシヤ"
  },
  "8530": {
    "zip_code": "1018530",
    "prefecture": "東京都",
    "prefecture_kana": "トウキョウト",
    "prefecture_code": 13,
    "city": "千代田区",
    "city_kana": "チヨダク",
    "town": "神田司町",
    "town_kana": "カンダツカサマチ",
    "street": "２丁目１９",
    "office_name": "東亜商事　株式会社",
    "office_name_kana": "トウアシヨウジ カブシキガイシヤ"
  },
  "8531": {
    "zip_code": "1018531",
    "prefecture": "東京都",
    "prefecture_kana": "トウキョウト",
    "prefecture_code": 13,
    "city": "千代田区",
    "city_kana": "チヨダク",
    "town": "神田司町",
    "town_kana": "カンダツカサマチ",
    "street": "２丁目１０−８",
    "office_name": "有限会社　科学評論社",
    "office_name_kana": "ユウゲンガイシヤ カガクヒヨウロンシヤ"
  },
  "8532": {
    "zip_code": "1018532",
    "prefecture": "東京都",
    "prefecture_kana": "トウキョウト",
    "prefecture_code": 13,
    "city": "千代田区",
    "city_kana": "チヨダク",
    "town": "神田司町",
    "town_kana": "カンダツカサマチ",
    "street": "２丁目３番地",
    "office_name": "ＮＥＣプラットフォームズ　株式会社",
    "office_name_kana": "エヌイ-シ-プラツトフオ-ムズ カブシキガイシヤ"
  },
  "8533": {
    "zip_code": "1018533",
    "prefecture": "東京都",
    "prefecture_kana": "トウキョウト",
    "prefecture_code": 13,
    "city": "千代田区",
    "city_kana": "チヨダク",
    "town": "神田須田町",
    "town_kana": "カンダスダチョウ",
    "street": "２丁目７ＮＫビル９Ｆ",
    "office_name": "東京都　小型コンピュータソフトウェア　産業健康保険組合　神田支部",
    "office_name_kana": "トウキヨウト コガタコンピユ-タソフトウエア サンギヨウケンコウホケンクミアイ カンダシブ"
  },
  "8534": {
    "zip_code": "1018534",
    "prefecture": "東京都",
    "prefecture_kana": "トウキョウト",
    "prefecture_code": 13,
    "city": "千代田区",
    "city_kana": "チヨダク",
    "town": "神田司町",
    "town_kana": "カンダツカサマチ",
    "street": "２丁目１オーク神田ビル内",
    "office_name": "一般社団法人　全国信用保証協会連合会",
    "office_name_kana": "イツパンシヤダンホウジン ゼンコクシンヨウホシヨウキヨウカイレンゴウカイ"
  },
  "8535": {
    "zip_code": "1018535",
    "prefecture": "東京都",
    "prefecture_kana": "トウキョウト",
    "prefecture_code": 13,
    "city": "千代田区",
    "city_kana": "チヨダク",
    "town": "神田司町",
    "town_kana": "カンダツカサマチ",
    "street": "２丁目９",
    "office_name": "大塚製薬　株式会社",
    "office_name_kana": "オオツカセイヤク カブシキガイシヤ"
  },
  "8542": {
    "zip_code": "1018542",
    "prefecture": "東京都",
    "prefecture_kana": "トウキョウト",
    "prefecture_code": 13,
    "city": "千代田区",
    "city_kana": "チヨダク",
    "town": "神田富山町",
    "town_kana": "カンダトミヤマチョウ",
    "street": "１０−１",
    "office_name": "フジパン　（株）　関東事業部",
    "office_name_kana": "フジパン カブシキガイシヤ カントウジギヨウブ"
  },
  "8543": {
    "zip_code": "1018543",
    "prefecture": "東京都",
    "prefecture_kana": "トウキョウト",
    "prefecture_code": 13,
    "city": "千代田区",
    "city_kana": "チヨダク",
    "town": "鍛冶町",
    "town_kana": "カジチョウ",
    "street": "１丁目６−１４",
    "office_name": "（株）　樫村",
    "office_name_kana": "カシムラ"
  },
  "8544": {
    "zip_code": "1018544",
    "prefecture": "東京都",
    "prefecture_kana": "トウキョウト",
    "prefecture_code": 13,
    "city": "千代田区",
    "city_kana": "チヨダク",
    "town": "鍛冶町",
    "town_kana": "カジチョウ",
    "street": "２丁目２−１",
    "office_name": "社団法人　産業環境管理協会",
    "office_name_kana": "シヤダンホウジン サンギヨウカンキヨウカンリキヨウカイ"
  },
  "8545": {
    "zip_code": "1018545",
    "prefecture": "東京都",
    "prefecture_kana": "トウキョウト",
    "prefecture_code": 13,
    "city": "千代田区",
    "city_kana": "チヨダク",
    "town": "神田東松下町",
    "town_kana": "カンダヒガシマツシタチョウ",
    "street": "１４番地東信神田ビル９階",
    "office_name": "くめ・クオリティ・プロダクツ　株式会社",
    "office_name_kana": "クメ・クオリテイ・プロダクツ カブシキガイシヤ"
  },
  "8548": {
    "zip_code": "1018548",
    "prefecture": "東京都",
    "prefecture_kana": "トウキョウト",
    "prefecture_code": 13,
    "city": "千代田区",
    "city_kana": "チヨダク",
    "town": "鍛冶町",
    "town_kana": "カジチョウ",
    "street": "２丁目９番１２号",
    "office_name": "株式会社　徳力本店",
    "office_name_kana": "カブシキガイシヤ トクリキホンテン"
  },
  "8552": {
    "zip_code": "1018552",
    "prefecture": "東京都",
    "prefecture_kana": "トウキョウト",
    "prefecture_code": 13,
    "city": "千代田区",
    "city_kana": "チヨダク",
    "town": "神田須田町",
    "town_kana": "カンダスダチョウ",
    "street": "１丁目５",
    "office_name": "社団法人　ジャパンケネルクラブ",
    "office_name_kana": "シヤダンホウジン ジヤパンケネルクラブ"
  },
  "8554": {
    "zip_code": "1018554",
    "prefecture": "東京都",
    "prefecture_kana": "トウキョウト",
    "prefecture_code": 13,
    "city": "千代田区",
    "city_kana": "チヨダク",
    "town": "神田須田町",
    "town_kana": "カンダスダチョウ",
    "street": "１丁目２５番",
    "office_name": "メタウォーター　株式会社",
    "office_name_kana": "メタウオ-タ- カブシキガイシヤ"
  },
  "8555": {
    "zip_code": "1018555",
    "prefecture": "東京都",
    "prefecture_kana": "トウキョウト",
    "prefecture_code": 13,
    "city": "千代田区",
    "city_kana": "チヨダク",
    "town": "神田須田町",
    "town_kana": "カンダスダチョウ",
    "street": "１丁目２５番",
    "office_name": "一般財団法人　日本品質保証機構",
    "office_name_kana": "イツパンザイダンホウジン ニホンヒンシツホシヨウキコウ"
  },
  "8558": {
    "zip_code": "1018558",
    "prefecture": "東京都",
    "prefecture_kana": "トウキョウト",
    "prefecture_code": 13,
    "city": "千代田区",
    "city_kana": "チヨダク",
    "town": "神田須田町",
    "town_kana": "カンダスダチョウ",
    "street": "２丁目６−６",
    "office_name": "株式会社　イワキ",
    "office_name_kana": "カブシキガイシヤ イワキ"
  },
  "8559": {
    "zip_code": "1018559",
    "prefecture": "東京都",
    "prefecture_kana": "トウキョウト",
    "prefecture_code": 13,
    "city": "千代田区",
    "city_kana": "チヨダク",
    "town": "神田須田町",
    "town_kana": "カンダスダチョウ",
    "street": "２丁目１３",
    "office_name": "佐藤金属　株式会社",
    "office_name_kana": "サトウキンゾク カブシキガイシヤ"
  },
  "8560": {
    "zip_code": "1018560",
    "prefecture": "東京都",
    "prefecture_kana": "トウキョウト",
    "prefecture_code": 13,
    "city": "千代田区",
    "city_kana": "チヨダク",
    "town": "神田小川町",
    "town_kana": "カンダオガワマチ",
    "street": "２−１２−１４晴花ビル４Ｆ",
    "office_name": "株式会社　近代映画社",
    "office_name_kana": "カブシキガイシヤ キンダイエイガシヤ"
  },
  "8561": {
    "zip_code": "1018561",
    "prefecture": "東京都",
    "prefecture_kana": "トウキョウト",
    "prefecture_code": 13,
    "city": "千代田区",
    "city_kana": "チヨダク",
    "town": "神田東松下町",
    "town_kana": "カンダヒガシマツシタチョウ",
    "street": "４７−１",
    "office_name": "株式会社　日本マンパワー",
    "office_name_kana": "カブシキガイシヤ ニホンマンパワ-"
  },
  "8562": {
    "zip_code": "1018562",
    "prefecture": "東京都",
    "prefecture_kana": "トウキョウト",
    "prefecture_code": 13,
    "city": "千代田区",
    "city_kana": "チヨダク",
    "town": "神田富山町",
    "town_kana": "カンダトミヤマチョウ",
    "street": "２番地",
    "office_name": "株式会社　東日本銀行　事務センター",
    "office_name_kana": "カブシキガイシヤ ヒガシニツポンギンコウ ジムセンタ-"
  },
  "8565": {
    "zip_code": "1018565",
    "prefecture": "東京都",
    "prefecture_kana": "トウキョウト",
    "prefecture_code": 13,
    "city": "千代田区",
    "city_kana": "チヨダク",
    "town": "神田富山町",
    "town_kana": "カンダトミヤマチョウ",
    "street": "２",
    "office_name": "株式会社　東日本銀行　神田支店",
    "office_name_kana": "カブシキガイシヤ ヒガシニツポンギンコウ カンダシテン"
  },
  "8566": {
    "zip_code": "1018566",
    "prefecture": "東京都",
    "prefecture_kana": "トウキョウト",
    "prefecture_code": 13,
    "city": "千代田区",
    "city_kana": "チヨダク",
    "town": "神田富山町",
    "town_kana": "カンダトミヤマチョウ",
    "street": "２２",
    "office_name": "株式会社　ヤマヤコーポレーション",
    "office_name_kana": "カブシキガイシヤ ヤマヤコ-ポレ-シヨン"
  },
  "8568": {
    "zip_code": "1018568",
    "prefecture": "東京都",
    "prefecture_kana": "トウキョウト",
    "prefecture_code": 13,
    "city": "千代田区",
    "city_kana": "チヨダク",
    "town": "神田富山町",
    "town_kana": "カンダトミヤマチョウ",
    "street": "２５",
    "office_name": "株式会社　コクゴ",
    "office_name_kana": "カブシキガイシヤ コクゴ"
  },
  "8575": {
    "zip_code": "1018575",
    "prefecture": "東京都",
    "prefecture_kana": "トウキョウト",
    "prefecture_code": 13,
    "city": "千代田区",
    "city_kana": "チヨダク",
    "town": "岩本町",
    "town_kana": "イワモトチョウ",
    "street": "３−１１−１３",
    "office_name": "田島ルーフィング　株式会社",
    "office_name_kana": "タジマル-フイング カブシキガイシヤ"
  },
  "8576": {
    "zip_code": "1018576",
    "prefecture": "東京都",
    "prefecture_kana": "トウキョウト",
    "prefecture_code": 13,
    "city": "千代田区",
    "city_kana": "チヨダク",
    "town": "岩本町",
    "town_kana": "イワモトチョウ",
    "street": "２丁目１−７",
    "office_name": "株式会社　日本法令",
    "office_name_kana": "カブシキガイシヤ ニホンホウレイ"
  },
  "8577": {
    "zip_code": "1018577",
    "prefecture": "東京都",
    "prefecture_kana": "トウキョウト",
    "prefecture_code": 13,
    "city": "千代田区",
    "city_kana": "チヨダク",
    "town": "外神田",
    "town_kana": "ソトカンダ",
    "street": "４−１４−１秋葉原ＵＤＸビル２１階",
    "office_name": "株式会社　タジマ",
    "office_name_kana": "カブシキガイシヤ タジマ"
  },
  "8578": {
    "zip_code": "1018578",
    "prefecture": "東京都",
    "prefecture_kana": "トウキョウト",
    "prefecture_code": 13,
    "city": "千代田区",
    "city_kana": "チヨダク",
    "town": "岩本町",
    "town_kana": "イワモトチョウ",
    "street": "２丁目１０−１２",
    "office_name": "持田商工　（株）",
    "office_name_kana": "モチダシヨウコウ"
  },
  "8579": {
    "zip_code": "1018579",
    "prefecture": "東京都",
    "prefecture_kana": "トウキョウト",
    "prefecture_code": 13,
    "city": "千代田区",
    "city_kana": "チヨダク",
    "town": "外神田",
    "town_kana": "ソトカンダ",
    "street": "４−１４−１秋葉原ＵＤＸビル２１階",
    "office_name": "田島ルーフィング　株式会社",
    "office_name_kana": "タジマル-フイング カブシキガイシヤ"
  },
  "8581": {
    "zip_code": "1018581",
    "prefecture": "東京都",
    "prefecture_kana": "トウキョウト",
    "prefecture_code": 13,
    "city": "千代田区",
    "city_kana": "チヨダク",
    "town": "鍛冶町",
    "town_kana": "カジチョウ",
    "street": "１丁目８−３",
    "office_name": "（財）　ポスタルサービスセンター",
    "office_name_kana": "ザイダンホウジン ポスタルサ-ビスセンタ-"
  },
  "8583": {
    "zip_code": "1018583",
    "prefecture": "東京都",
    "prefecture_kana": "トウキョウト",
    "prefecture_code": 13,
    "city": "千代田区",
    "city_kana": "チヨダク",
    "town": "外神田",
    "town_kana": "ソトカンダ",
    "street": "１−１８−１３秋葉原ダイビル",
    "office_name": "サンデンホールディングス　株式会社　東京本社",
    "office_name_kana": "サンデンホ-ルデイングス カブシキガイシヤ トウキヨウホンシヤ"
  },
  "8585": {
    "zip_code": "1018585",
    "prefecture": "東京都",
    "prefecture_kana": "トウキョウト",
    "prefecture_code": 13,
    "city": "千代田区",
    "city_kana": "チヨダク",
    "town": "岩本町",
    "town_kana": "イワモトチョウ",
    "street": "３丁目１０−１",
    "office_name": "山崎製パン　株式会社",
    "office_name_kana": "ヤマザキセイパン カブシキガイシヤ"
  },
  "8586": {
    "zip_code": "1018586",
    "prefecture": "東京都",
    "prefecture_kana": "トウキョウト",
    "prefecture_code": 13,
    "city": "千代田区",
    "city_kana": "チヨダク",
    "town": "岩本町",
    "town_kana": "イワモトチョウ",
    "street": "３丁目９−５",
    "office_name": "貝印　株式会社",
    "office_name_kana": "カイジルシ カブシキガイシヤ"
  },
  "8588": {
    "zip_code": "1018588",
    "prefecture": "東京都",
    "prefecture_kana": "トウキョウト",
    "prefecture_code": 13,
    "city": "千代田区",
    "city_kana": "チヨダク",
    "town": "神田岩本町",
    "town_kana": "カンダイワモトチョウ",
    "street": "１番地１４",
    "office_name": "株式会社　白石",
    "office_name_kana": "カブシキガイシヤ シライシ"
  },
  "8589": {
    "zip_code": "1018589",
    "prefecture": "東京都",
    "prefecture_kana": "トウキョウト",
    "prefecture_code": 13,
    "city": "千代田区",
    "city_kana": "チヨダク",
    "town": "外神田",
    "town_kana": "ソトカンダ",
    "street": "４−１０−６",
    "office_name": "株式会社　極東商会／株式会社　カパス",
    "office_name_kana": "カブシキガイシヤ キヨクトウシヨウカイ/カブシキガイシヤ カパス"
  },
  "8603": {
    "zip_code": "1018603",
    "prefecture": "東京都",
    "prefecture_kana": "トウキョウト",
    "prefecture_code": 13,
    "city": "千代田区",
    "city_kana": "チヨダク",
    "town": "外神田",
    "town_kana": "ソトカンダ",
    "street": "３丁目１２番８号住友不動産秋葉原ビル",
    "office_name": "新生フィナンシャル　株式会社",
    "office_name_kana": "シンセイフイナンシヤル カブシキガイシヤ"
  },
  "8605": {
    "zip_code": "1018605",
    "prefecture": "東京都",
    "prefecture_kana": "トウキョウト",
    "prefecture_code": 13,
    "city": "千代田区",
    "city_kana": "チヨダク",
    "town": "神田紺屋町",
    "town_kana": "カンダコンヤチョウ",
    "street": "３４",
    "office_name": "橋本産業　（株）",
    "office_name_kana": "ハシモトサンギヨウ"
  },
  "8606": {
    "zip_code": "1018606",
    "prefecture": "東京都",
    "prefecture_kana": "トウキョウト",
    "prefecture_code": 13,
    "city": "千代田区",
    "city_kana": "チヨダク",
    "town": "神田美倉町",
    "town_kana": "カンダミクラチョウ",
    "street": "１１",
    "office_name": "フマキラー　株式会社",
    "office_name_kana": "フマキラ- カブシキガイシヤ"
  },
  "8607": {
    "zip_code": "1018607",
    "prefecture": "東京都",
    "prefecture_kana": "トウキョウト",
    "prefecture_code": 13,
    "city": "千代田区",
    "city_kana": "チヨダク",
    "town": "外神田",
    "town_kana": "ソトカンダ",
    "street": "２丁目１７−３アヤベビル４Ｆ",
    "office_name": "三菱文具　株式会社",
    "office_name_kana": "ミツビシブング カブシキガイシヤ"
  },
  "8609": {
    "zip_code": "1018609",
    "prefecture": "東京都",
    "prefecture_kana": "トウキョウト",
    "prefecture_code": 13,
    "city": "千代田区",
    "city_kana": "チヨダク",
    "town": "外神田",
    "town_kana": "ソトカンダ",
    "street": "６丁目５−１２偕楽ビル５・７・８Ｆ",
    "office_name": "ニチモコミュニティ　株式会社",
    "office_name_kana": "ニチモコミユニテイ カブシキガイシヤ"
  },
  "8610": {
    "zip_code": "1018610",
    "prefecture": "東京都",
    "prefecture_kana": "トウキョウト",
    "prefecture_code": 13,
    "city": "千代田区",
    "city_kana": "チヨダク",
    "town": "外神田",
    "town_kana": "ソトカンダ",
    "street": "１丁目１６−９",
    "office_name": "株式会社　ソフマップ",
    "office_name_kana": "カブシキガイシヤ ソフマツプ"
  },
  "8611": {
    "zip_code": "1018611",
    "prefecture": "東京都",
    "prefecture_kana": "トウキョウト",
    "prefecture_code": 13,
    "city": "千代田区",
    "city_kana": "チヨダク",
    "town": "神田駿河台",
    "town_kana": "カンダスルガダイ",
    "street": "２−１１−１駿河台サンライズビル２Ｆ",
    "office_name": "一般社団法人　東京都交友会",
    "office_name_kana": "イツパンシヤダンホウジン トウキヨウトコウユウカイ"
  },
  "8612": {
    "zip_code": "1018612",
    "prefecture": "東京都",
    "prefecture_kana": "トウキョウト",
    "prefecture_code": 13,
    "city": "千代田区",
    "city_kana": "チヨダク",
    "town": "外神田",
    "town_kana": "ソトカンダ",
    "street": "１丁目１７−４ＪＲ東日本秋葉原ビル",
    "office_name": "（株）　トランスネット",
    "office_name_kana": "トランスネツト"
  },
  "8613": {
    "zip_code": "1018613",
    "prefecture": "東京都",
    "prefecture_kana": "トウキョウト",
    "prefecture_code": 13,
    "city": "千代田区",
    "city_kana": "チヨダク",
    "town": "外神田",
    "town_kana": "ソトカンダ",
    "street": "１丁目１６−８",
    "office_name": "株式会社　農協観光",
    "office_name_kana": "カブシキガイシヤ ノウキヨウカンコウ"
  },
  "8615": {
    "zip_code": "1018615",
    "prefecture": "東京都",
    "prefecture_kana": "トウキョウト",
    "prefecture_code": 13,
    "city": "千代田区",
    "city_kana": "チヨダク",
    "town": "外神田",
    "town_kana": "ソトカンダ",
    "street": "３−１２−８住友不動産秋葉原ビル",
    "office_name": "株式会社　アプラス",
    "office_name_kana": "カブシキガイシヤ アプラス"
  },
  "8616": {
    "zip_code": "1018616",
    "prefecture": "東京都",
    "prefecture_kana": "トウキョウト",
    "prefecture_code": 13,
    "city": "千代田区",
    "city_kana": "チヨダク",
    "town": "外神田",
    "town_kana": "ソトカンダ",
    "street": "３丁目１２−８住友不動産秋葉原ビル",
    "office_name": "シンキ　株式会社",
    "office_name_kana": "シンキ カブシキガイシヤ"
  },
  "8617": {
    "zip_code": "1018617",
    "prefecture": "東京都",
    "prefecture_kana": "トウキョウト",
    "prefecture_code": 13,
    "city": "千代田区",
    "city_kana": "チヨダク",
    "town": "外神田",
    "town_kana": "ソトカンダ",
    "street": "４丁目１４−１",
    "office_name": "同和鉱業　株式会社",
    "office_name_kana": "ドウワコウギヨウ カブシキガイシヤ"
  },
  "8619": {
    "zip_code": "1018619",
    "prefecture": "東京都",
    "prefecture_kana": "トウキョウト",
    "prefecture_code": 13,
    "city": "千代田区",
    "city_kana": "チヨダク",
    "town": "外神田",
    "town_kana": "ソトカンダ",
    "street": "３丁目１−１６",
    "office_name": "株式会社　ダイドーリミテッド",
    "office_name_kana": "カブシキガイシヤ ダイド-リミテツド"
  },
  "8620": {
    "zip_code": "1018620",
    "prefecture": "東京都",
    "prefecture_kana": "トウキョウト",
    "prefecture_code": 13,
    "city": "千代田区",
    "city_kana": "チヨダク",
    "town": "外神田",
    "town_kana": "ソトカンダ",
    "street": "３丁目１２−４",
    "office_name": "ヤマギワ　株式会社",
    "office_name_kana": "ヤマギワ カブシキガイシヤ"
  },
  "8621": {
    "zip_code": "1018621",
    "prefecture": "東京都",
    "prefecture_kana": "トウキョウト",
    "prefecture_code": 13,
    "city": "千代田区",
    "city_kana": "チヨダク",
    "town": "外神田",
    "town_kana": "ソトカンダ",
    "street": "２丁目１８−８",
    "office_name": "（株）　共立メンテナンス",
    "office_name_kana": "キヨウリツメンテナンス"
  },
  "8624": {
    "zip_code": "1018624",
    "prefecture": "東京都",
    "prefecture_kana": "トウキョウト",
    "prefecture_code": 13,
    "city": "千代田区",
    "city_kana": "チヨダク",
    "town": "外神田",
    "town_kana": "ソトカンダ",
    "street": "２丁目１８−１０",
    "office_name": "株式会社　かんそうしん",
    "office_name_kana": "カブシキガイシヤ カンソウシン"
  },
  "8625": {
    "zip_code": "1018625",
    "prefecture": "東京都",
    "prefecture_kana": "トウキョウト",
    "prefecture_code": 13,
    "city": "千代田区",
    "city_kana": "チヨダク",
    "town": "外神田",
    "town_kana": "ソトカンダ",
    "street": "６丁目１５−１２",
    "office_name": "富士電機リテイルシステムズ　株式会社",
    "office_name_kana": "フジデンキリテイルシステムズ カブシキガイシヤ"
  },
  "8626": {
    "zip_code": "1018626",
    "prefecture": "東京都",
    "prefecture_kana": "トウキョウト",
    "prefecture_code": 13,
    "city": "千代田区",
    "city_kana": "チヨダク",
    "town": "外神田",
    "town_kana": "ソトカンダ",
    "street": "４−８−２",
    "office_name": "ヤマキ　株式会社　東京支店",
    "office_name_kana": "ヤマキ カブシキガイシヤ トウキヨウシテン"
  },
  "8627": {
    "zip_code": "1018627",
    "prefecture": "東京都",
    "prefecture_kana": "トウキョウト",
    "prefecture_code": 13,
    "city": "千代田区",
    "city_kana": "チヨダク",
    "town": "神田松永町",
    "town_kana": "カンダマツナガチョウ",
    "street": "１９−２−５Ｆ",
    "office_name": "加賀電子　株式会社　環境事業部、技術統括部　他",
    "office_name_kana": "カガデンシ カブシキガイシヤ カンキヨウジギヨウブ、ギジユツトウカツブ ホカ"
  },
  "8628": {
    "zip_code": "1018628",
    "prefecture": "東京都",
    "prefecture_kana": "トウキョウト",
    "prefecture_code": 13,
    "city": "千代田区",
    "city_kana": "チヨダク",
    "town": "神田松永町",
    "town_kana": "カンダマツナガチョウ",
    "street": "１９−２−８Ｆ",
    "office_name": "加賀電子　株式会社　電子事業部、営業推進事業部、特販事業部",
    "office_name_kana": "カガデンシ カブシキガイシヤ デンシジギヨウブ、エイギヨウスイシンジギヨウブ、トクハンジギヨウブ"
  },
  "8629": {
    "zip_code": "1018629",
    "prefecture": "東京都",
    "prefecture_kana": "トウキョウト",
    "prefecture_code": 13,
    "city": "千代田区",
    "city_kana": "チヨダク",
    "town": "神田松永町",
    "town_kana": "カンダマツナガチョウ",
    "street": "１９−２−１０Ｆ",
    "office_name": "加賀電子　株式会社　管理本部、秘書・広報室",
    "office_name_kana": "カガデンシ カブシキガイシヤ カンリホンブ、ヒシヨ・コウホウシツ"
  },
  "8630": {
    "zip_code": "1018630",
    "prefecture": "東京都",
    "prefecture_kana": "トウキョウト",
    "prefecture_code": 13,
    "city": "千代田区",
    "city_kana": "チヨダク",
    "town": "東神田",
    "town_kana": "ヒガシカンダ",
    "street": "１丁目１０−２",
    "office_name": "東浴　信用組合",
    "office_name_kana": "トウヨク シンヨウクミアイ"
  },
  "8633": {
    "zip_code": "1018633",
    "prefecture": "東京都",
    "prefecture_kana": "トウキョウト",
    "prefecture_code": 13,
    "city": "千代田区",
    "city_kana": "チヨダク",
    "town": "東神田",
    "town_kana": "ヒガシカンダ",
    "street": "１丁目８−１１",
    "office_name": "スガツネ工業　株式会社",
    "office_name_kana": "スガツネコウギヨウ カブシキガイシヤ"
  },
  "8634": {
    "zip_code": "1018634",
    "prefecture": "東京都",
    "prefecture_kana": "トウキョウト",
    "prefecture_code": 13,
    "city": "千代田区",
    "city_kana": "チヨダク",
    "town": "東神田",
    "town_kana": "ヒガシカンダ",
    "street": "１丁目１１−１エリア神田８Ｆ",
    "office_name": "ビー・アップル　株式会社",
    "office_name_kana": "ビ-・アツプル カブシキガイシヤ"
  },
  "8636": {
    "zip_code": "1018636",
    "prefecture": "東京都",
    "prefecture_kana": "トウキョウト",
    "prefecture_code": 13,
    "city": "千代田区",
    "city_kana": "チヨダク",
    "town": "神田佐久間河岸",
    "town_kana": "カンダサクマガシ",
    "street": "５９",
    "office_name": "株式会社　スズケン",
    "office_name_kana": "カブシキガイシヤ スズケン"
  },
  "8637": {
    "zip_code": "1018637",
    "prefecture": "東京都",
    "prefecture_kana": "トウキョウト",
    "prefecture_code": 13,
    "city": "千代田区",
    "city_kana": "チヨダク",
    "town": "神田淡路町",
    "town_kana": "カンダアワジチョウ",
    "street": "２丁目１０１番ワテラスタワー",
    "office_name": "三菱ＵＦＪファクター　株式会社",
    "office_name_kana": "ミツビシユ-エフジエ-フアクタ- カブシキガイシヤ"
  },
  "8638": {
    "zip_code": "1018638",
    "prefecture": "東京都",
    "prefecture_kana": "トウキョウト",
    "prefecture_code": 13,
    "city": "千代田区",
    "city_kana": "チヨダク",
    "town": "神田佐久間町",
    "town_kana": "カンダサクマチョウ",
    "street": "３丁目２番",
    "office_name": "株式会社　ソラスト",
    "office_name_kana": "カブシキガイシヤ ソラスト"
  },
  "8641": {
    "zip_code": "1018641",
    "prefecture": "東京都",
    "prefecture_kana": "トウキョウト",
    "prefecture_code": 13,
    "city": "千代田区",
    "city_kana": "チヨダク",
    "town": "東神田",
    "town_kana": "ヒガシカンダ",
    "street": "１−７−８東神田フコク生命ビル",
    "office_name": "近畿日本ツーリスト　株式会社",
    "office_name_kana": "キンキニホンツ-リスト カブシキガイシヤ"
  },
  "8642": {
    "zip_code": "1018642",
    "prefecture": "東京都",
    "prefecture_kana": "トウキョウト",
    "prefecture_code": 13,
    "city": "千代田区",
    "city_kana": "チヨダク",
    "town": "神田和泉町",
    "town_kana": "カンダイズミチョウ",
    "street": "１",
    "office_name": "ＹＫＫ　株式会社",
    "office_name_kana": "ワイケイケイ カブシキガイシヤ"
  },
  "8643": {
    "zip_code": "1018643",
    "prefecture": "東京都",
    "prefecture_kana": "トウキョウト",
    "prefecture_code": 13,
    "city": "千代田区",
    "city_kana": "チヨダク",
    "town": "神田和泉町",
    "town_kana": "カンダイズミチョウ",
    "street": "１",
    "office_name": "社会福祉法人　三井記念病院",
    "office_name_kana": "シヤカイフクシホウジン ミツイキネンビヨウイン"
  },
  "8645": {
    "zip_code": "1018645",
    "prefecture": "東京都",
    "prefecture_kana": "トウキョウト",
    "prefecture_code": 13,
    "city": "千代田区",
    "city_kana": "チヨダク",
    "town": "神田和泉町",
    "town_kana": "カンダイズミチョウ",
    "street": "１",
    "office_name": "キリンビバレッジ　株式会社",
    "office_name_kana": "キリンビバレツジ カブシキガイシヤ"
  },
  "8646": {
    "zip_code": "1018646",
    "prefecture": "東京都",
    "prefecture_kana": "トウキョウト",
    "prefecture_code": 13,
    "city": "千代田区",
    "city_kana": "チヨダク",
    "town": "神田和泉町",
    "town_kana": "カンダイズミチョウ",
    "street": "２",
    "office_name": "鶴岡　株式会社",
    "office_name_kana": "ツルオカ カブシキガイシヤ"
  },
  "8648": {
    "zip_code": "1018648",
    "prefecture": "東京都",
    "prefecture_kana": "トウキョウト",
    "prefecture_code": 13,
    "city": "千代田区",
    "city_kana": "チヨダク",
    "town": "神田和泉町",
    "town_kana": "カンダイズミチョウ",
    "street": "１",
    "office_name": "株式会社　薬事日報社",
    "office_name_kana": "カブシキガイシヤ ヤクジニツポウシヤ"
  },
  "8651": {
    "zip_code": "1018651",
    "prefecture": "東京都",
    "prefecture_kana": "トウキョウト",
    "prefecture_code": 13,
    "city": "千代田区",
    "city_kana": "チヨダク",
    "town": "神田淡路町",
    "town_kana": "カンダアワジチョウ",
    "street": "１丁目７（神田郵便局私書箱第５０号）",
    "office_name": "丸高興業　株式会社",
    "office_name_kana": "マルタカコウギヨウ カブシキガイシヤ"
  },
  "8654": {
    "zip_code": "1018654",
    "prefecture": "東京都",
    "prefecture_kana": "トウキョウト",
    "prefecture_code": 13,
    "city": "千代田区",
    "city_kana": "チヨダク",
    "town": "内神田",
    "town_kana": "ウチカンダ",
    "street": "３丁目２０−７（神田郵便局私書箱第５７号）",
    "office_name": "石福金属興業　株式会社",
    "office_name_kana": "イシフクキンゾクコウギヨウ カブシキガイシヤ"
  },
  "8655": {
    "zip_code": "1018655",
    "prefecture": "東京都",
    "prefecture_kana": "トウキョウト",
    "prefecture_code": 13,
    "city": "千代田区",
    "city_kana": "チヨダク",
    "town": "神田美土代町",
    "town_kana": "カンダミトシロチョウ",
    "street": "７番地（神田郵便局私書箱第４１号）",
    "office_name": "朝日火災海上保険　株式会社",
    "office_name_kana": "アサヒカサイカイジヨウホケン カブシキガイシヤ"
  },
  "8656": {
    "zip_code": "1018656",
    "prefecture": "東京都",
    "prefecture_kana": "トウキョウト",
    "prefecture_code": 13,
    "city": "新宿区",
    "city_kana": "シンジュクク",
    "town": "新小川町",
    "town_kana": "シンオガワマチ",
    "street": "４−１１昭和図書ビル（神田郵便局私書箱第８１号）",
    "office_name": "小学館プロダクション",
    "office_name_kana": "シヨウガクカンプロダクシヨン"
  },
  "8662": {
    "zip_code": "1018662",
    "prefecture": "東京都",
    "prefecture_kana": "トウキョウト",
    "prefecture_code": 13,
    "city": "千代田区",
    "city_kana": "チヨダク",
    "town": "神田錦町",
    "town_kana": "カンダニシキチョウ",
    "street": "１丁目１０（神田郵便局私書箱第４２号）",
    "office_name": "（株）　西村書店",
    "office_name_kana": "ニシムラシヨテン"
  },
  "8665": {
    "zip_code": "1018665",
    "prefecture": "東京都",
    "prefecture_kana": "トウキョウト",
    "prefecture_code": 13,
    "city": "中央区",
    "city_kana": "チュウオウク",
    "town": "銀座",
    "town_kana": "ギンザ",
    "street": "６丁目３−１２数寄屋ビル８Ｆ（神田郵便局私書箱第２０号）",
    "office_name": "株式会社　デック",
    "office_name_kana": "カブシキガイシヤ デツク"
  },
  "8667": {
    "zip_code": "1018667",
    "prefecture": "東京都",
    "prefecture_kana": "トウキョウト",
    "prefecture_code": 13,
    "city": "千代田区",
    "city_kana": "チヨダク",
    "town": "神田須田町",
    "town_kana": "カンダスダチョウ",
    "street": "１丁目２３（神田郵便局私書箱第２号）",
    "office_name": "株式会社　デック",
    "office_name_kana": "カブシキガイシヤ デツク"
  },
  "8668": {
    "zip_code": "1018668",
    "prefecture": "東京都",
    "prefecture_kana": "トウキョウト",
    "prefecture_code": 13,
    "city": "文京区",
    "city_kana": "ブンキョウク",
    "town": "関口",
    "town_kana": "セキグチ",
    "street": "１−４４−１０（神田郵便局私書箱第７９号）",
    "office_name": "株式会社　主婦の友社",
    "office_name_kana": "カブシキガイシヤ シユフノトモシヤ"
  },
  "8670": {
    "zip_code": "1018670",
    "prefecture": "東京都",
    "prefecture_kana": "トウキョウト",
    "prefecture_code": 13,
    "city": "千代田区",
    "city_kana": "チヨダク",
    "town": "神田小川町",
    "town_kana": "カンダオガワマチ",
    "street": "１丁目１１（神田郵便局私書箱第１９１号）",
    "office_name": "東京セールスプロデュース　株式会社",
    "office_name_kana": "トウキヨウセ-ルスプロデユ-ス カブシキガイシヤ"
  },
  "8672": {
    "zip_code": "1018672",
    "prefecture": "東京都",
    "prefecture_kana": "トウキョウト",
    "prefecture_code": 13,
    "city": "千代田区",
    "city_kana": "チヨダク",
    "town": "三崎町",
    "town_kana": "ミサキチョウ",
    "street": "２−７−１０帝都三崎町ビル（神田郵便局私書箱第７２号）",
    "office_name": "株式会社　極東書店",
    "office_name_kana": "カブシキガイシヤ キヨクトウシヨテン"
  },
  "8676": {
    "zip_code": "1018676",
    "prefecture": "東京都",
    "prefecture_kana": "トウキョウト",
    "prefecture_code": 13,
    "city": "千代田区",
    "city_kana": "チヨダク",
    "town": "内神田",
    "town_kana": "ウチカンダ",
    "street": "２丁目１５−９（神田郵便局私書箱第４５号）",
    "office_name": "（株）　武蔵野銀行　東京支店",
    "office_name_kana": "ムサシノギンコウ トウキヨウシテン"
  },
  "8682": {
    "zip_code": "1018682",
    "prefecture": "東京都",
    "prefecture_kana": "トウキョウト",
    "prefecture_code": 13,
    "city": "千代田区",
    "city_kana": "チヨダク",
    "town": "神田錦町",
    "town_kana": "カンダニシキチョウ",
    "street": "２丁目１１（神田郵便局私書箱第２１５号）",
    "office_name": "三洋貿易　（株）",
    "office_name_kana": "サンヨウボウエキ"
  },
  "8688": {
    "zip_code": "1018688",
    "prefecture": "東京都",
    "prefecture_kana": "トウキョウト",
    "prefecture_code": 13,
    "city": "千代田区",
    "city_kana": "チヨダク",
    "town": "神田駿河台",
    "town_kana": "カンダスルガダイ",
    "street": "２丁目９（神田郵便局私書箱第２５号）",
    "office_name": "（株）　ニチイ学館",
    "office_name_kana": "ニチイガツカン"
  },
  "8701": {
    "zip_code": "1018701",
    "prefecture": "東京都",
    "prefecture_kana": "トウキョウト",
    "prefecture_code": 13,
    "city": "千代田区",
    "city_kana": "チヨダク",
    "town": "神田神保町",
    "town_kana": "カンダジンボウチョウ",
    "street": "３丁目６−５（神田郵便局私書箱第１５２号）",
    "office_name": "株式会社　祥伝社",
    "office_name_kana": "カブシキガイシヤ シヨウデンシヤ"
  },
  "8703": {
    "zip_code": "1018703",
    "prefecture": "東京都",
    "prefecture_kana": "トウキョウト",
    "prefecture_code": 13,
    "city": "千代田区",
    "city_kana": "チヨダク",
    "town": "神田駿河台",
    "town_kana": "カンダスルガダイ",
    "street": "３丁目６（神田郵便局私書箱第１５号）",
    "office_name": "トーア再保険　株式会社",
    "office_name_kana": "ト-アサイホケン カブシキガイシヤ"
  },
  "8707": {
    "zip_code": "1018707",
    "prefecture": "東京都",
    "prefecture_kana": "トウキョウト",
    "prefecture_code": 13,
    "city": "千代田区",
    "city_kana": "チヨダク",
    "town": "神田須田町",
    "town_kana": "カンダスダチョウ",
    "street": "１丁目５新須田町ビル３Ｆ（神田郵便局私書箱第２０９号）",
    "office_name": "（株）　日本パーソナルセンター",
    "office_name_kana": "ニホンパ-ソナルセンタ-"
  },
  "8710": {
    "zip_code": "1018710",
    "prefecture": "東京都",
    "prefecture_kana": "トウキョウト",
    "prefecture_code": 13,
    "city": "千代田区",
    "city_kana": "チヨダク",
    "town": "神田駿河台",
    "town_kana": "カンダスルガダイ",
    "street": "４丁目３（神田郵便局私書箱第１３号）",
    "office_name": "日本出版販売　（株）",
    "office_name_kana": "ニホンシユツパンハンバイ"
  },
  "8711": {
    "zip_code": "1018711",
    "prefecture": "東京都",
    "prefecture_kana": "トウキョウト",
    "prefecture_code": 13,
    "city": "千代田区",
    "city_kana": "チヨダク",
    "town": "西神田",
    "town_kana": "ニシカンダ",
    "street": "３丁目６−４（神田郵便局私書箱第９２号）",
    "office_name": "（株）　白泉社",
    "office_name_kana": "ハクセンシヤ"
  },
  "8712": {
    "zip_code": "1018712",
    "prefecture": "東京都",
    "prefecture_kana": "トウキョウト",
    "prefecture_code": 13,
    "city": "千代田区",
    "city_kana": "チヨダク",
    "town": "内神田",
    "town_kana": "ウチカンダ",
    "street": "２丁目１６−１３（神田郵便局私書箱第１２２号）",
    "office_name": "神田物産　（株）",
    "office_name_kana": "カンダブツサン"
  },
  "8715": {
    "zip_code": "1018715",
    "prefecture": "東京都",
    "prefecture_kana": "トウキョウト",
    "prefecture_code": 13,
    "city": "千代田区",
    "city_kana": "チヨダク",
    "town": "神田錦町",
    "town_kana": "カンダニシキチョウ",
    "street": "３丁目２０（神田郵便局私書箱第３７号）",
    "office_name": "全日本書芸文化院",
    "office_name_kana": "ゼンニホンシヨゲイブンカイン"
  },
  "8716": {
    "zip_code": "1018716",
    "prefecture": "東京都",
    "prefecture_kana": "トウキョウト",
    "prefecture_code": 13,
    "city": "中央区",
    "city_kana": "チュウオウク",
    "town": "京橋",
    "town_kana": "キョウバシ",
    "street": "３丁目５−７（神田郵便局私書箱第２１０号）",
    "office_name": "株式会社　主婦と生活社",
    "office_name_kana": "カブシキガイシヤ シユフトセイカツシヤ"
  },
  "8717": {
    "zip_code": "1018717",
    "prefecture": "東京都",
    "prefecture_kana": "トウキョウト",
    "prefecture_code": 13,
    "city": "中央区",
    "city_kana": "チュウオウク",
    "town": "京橋",
    "town_kana": "キョウバシ",
    "street": "２丁目３−６（神田郵便局私書箱第２０６号）",
    "office_name": "明治乳業　株式会社",
    "office_name_kana": "メイジニユウギヨウ カブシキガイシヤ"
  },
  "8718": {
    "zip_code": "1018718",
    "prefecture": "東京都",
    "prefecture_kana": "トウキョウト",
    "prefecture_code": 13,
    "city": "千代田区",
    "city_kana": "チヨダク",
    "town": "神田駿河台",
    "town_kana": "カンダスルガダイ",
    "street": "２丁目９（神田郵便局私書箱第１８号）",
    "office_name": "株式会社　日本醫事新報社",
    "office_name_kana": "カブシキガイシヤ ニホンイジシンポウシヤ"
  },
  "8901": {
    "zip_code": "1018901",
    "prefecture": "東京都",
    "prefecture_kana": "トウキョウト",
    "prefecture_code": 13,
    "city": "千代田区",
    "city_kana": "チヨダク",
    "town": "神田東松下町",
    "town_kana": "カンダヒガシマツシタチョウ",
    "street": "４７−１",
    "office_name": "株式会社　日本マンパワー内かんぽＬＣ事務局",
    "office_name_kana": "カブシキガイシヤ ニホンマンパワ-ナイ カンポエルシ-ジムキヨク"
  },
  "8941": {
    "zip_code": "1018941",
    "prefecture": "東京都",
    "prefecture_kana": "トウキョウト",
    "prefecture_code": 13,
    "city": "千代田区",
    "city_kana": "チヨダク",
    "town": "神田淡路町",
    "town_kana": "カンダアワジチョウ",
    "street": "２丁目１０１番",
    "office_name": "株式会社　日立ビルシステム",
    "office_name_kana": "カブシキガイシヤ ヒタチビルシステム"
  },
  "8946": {
    "zip_code": "1018946",
    "prefecture": "東京都",
    "prefecture_kana": "トウキョウト",
    "prefecture_code": 13,
    "city": "千代田区",
    "city_kana": "チヨダク",
    "town": "東神田",
    "town_kana": "ヒガシカンダ",
    "street": "２丁目１−１１第一坂本ビル",
    "office_name": "ニッポンレンタカーアーバンネット　株式会社　東京ディビジョン",
    "office_name_kana": "ニツポンレンタカ-ア-バンネツト カブシキガイシヤ トウキヨウデイビジヨン"
  },
  "8950": {
    "zip_code": "1018950",
    "prefecture": "東京都",
    "prefecture_kana": "トウキョウト",
    "prefecture_code": 13,
    "city": "千代田区",
    "city_kana": "チヨダク",
    "town": "外神田",
    "town_kana": "ソトカンダ",
    "street": "３丁目１２−８",
    "office_name": "大建工業　株式会社",
    "office_name_kana": "ダイケンコウギヨウ カブシキガイシヤ"
  },
  "8970": {
    "zip_code": "1018970",
    "prefecture": "東京都",
    "prefecture_kana": "トウキョウト",
    "prefecture_code": 13,
    "city": "千代田区",
    "city_kana": "チヨダク",
    "town": "外神田",
    "town_kana": "ソトカンダ",
    "street": "４丁目１４−１秋葉原ＵＤＸ",
    "office_name": "古河スカイ　株式会社",
    "office_name_kana": "フルカワスカイ カブシキガイシヤ"
  },
  "8971": {
    "zip_code": "1018971",
    "prefecture": "東京都",
    "prefecture_kana": "トウキョウト",
    "prefecture_code": 13,
    "city": "千代田区",
    "city_kana": "チヨダク",
    "town": "外神田",
    "town_kana": "ソトカンダ",
    "street": "４丁目１４−１秋葉原ＵＤＸ",
    "office_name": "日立電線　（株）",
    "office_name_kana": "ヒタチデンセン カブシキガイシヤ"
  },
  "8972": {
    "zip_code": "1018972",
    "prefecture": "東京都",
    "prefecture_kana": "トウキョウト",
    "prefecture_code": 13,
    "city": "千代田区",
    "city_kana": "チヨダク",
    "town": "外神田",
    "town_kana": "ソトカンダ",
    "street": "４丁目１４−１",
    "office_name": "株式会社　ミツウロコ",
    "office_name_kana": "カブシキガイシヤ ミツウロコ"
  },
  "8973": {
    "zip_code": "1018973",
    "prefecture": "東京都",
    "prefecture_kana": "トウキョウト",
    "prefecture_code": 13,
    "city": "千代田区",
    "city_kana": "チヨダク",
    "town": "外神田",
    "town_kana": "ソトカンダ",
    "street": "４丁目１４−１秋葉原ＵＤＸ",
    "office_name": "株式会社　アクセル",
    "office_name_kana": "カブシキガイシヤ アクセル"
  },
  "8977": {
    "zip_code": "1018977",
    "prefecture": "東京都",
    "prefecture_kana": "トウキョウト",
    "prefecture_code": 13,
    "city": "千代田区",
    "city_kana": "チヨダク",
    "town": "外神田",
    "town_kana": "ソトカンダ",
    "street": "４丁目１４−１秋葉原ＵＤＸビル１９Ｆ",
    "office_name": "グローリー　株式会社　東京本部",
    "office_name_kana": "グロ-リ- カブシキカイシヤ トウキヨウホンブ"
  },
  "8983": {
    "zip_code": "1018983",
    "prefecture": "東京都",
    "prefecture_kana": "トウキョウト",
    "prefecture_code": 13,
    "city": "千代田区",
    "city_kana": "チヨダク",
    "town": "外神田",
    "town_kana": "ソトカンダ",
    "street": "２丁目１８−７",
    "office_name": "財団法人　母子衛生研究会",
    "office_name_kana": "ザイダンホウジン ボシエイセイケンキユウカイ"
  },
  "8986": {
    "zip_code": "1018986",
    "prefecture": "東京都",
    "prefecture_kana": "トウキョウト",
    "prefecture_code": 13,
    "city": "千代田区",
    "city_kana": "チヨダク",
    "town": "神田錦町",
    "town_kana": "カンダニシキチョウ",
    "street": "１−９東京天理ビル",
    "office_name": "一般財団法人　日本建築センター",
    "office_name_kana": "イツパンザイダンホウジン ニホンケンチクセンタ-"
  }
}