{
  "0000": {
    "zip_code": "1050000",
    "prefecture": "東京都",
    "prefecture_kana": "トウキョウト",
    "prefecture_code": "13",
    "city": "港区",
    "city_kana": "ミナトク",
    "town": "",
    "town_kana": "",
    "street": null,
    "office_name": null,
    "office_name_kana": null
  },
  "0001": {
    "zip_code": "1050001",
    "prefecture": "東京都",
    "prefecture_kana": "トウキョウト",
    "prefecture_code": "13",
    "city": "港区",
    "city_kana": "ミナトク",
    "town": "虎ノ門",
    "town_kana": "トラノモン",
    "street": null,
    "office_name": null,
    "office_name_kana": null
  },
  "0002": {
    "zip_code": "1050002",
    "prefecture": "東京都",
    "prefecture_kana": "トウキョウト",
    "prefecture_code": "13",
    "city": "港区",
    "city_kana": "ミナトク",
    "town": "愛宕",
    "town_kana": "アタゴ",
    "street": null,
    "office_name": null,
    "office_name_kana": null
  },
  "0003": {
    "zip_code": "1050003",
    "prefecture": "東京都",
    "prefecture_kana": "トウキョウト",
    "prefecture_code": "13",
    "city": "港区",
    "city_kana": "ミナトク",
    "town": "西新橋",
    "town_kana": "ニシシンバシ",
    "street": null,
    "office_name": null,
    "office_name_kana": null
  },
  "0004": {
    "zip_code": "1050004",
    "prefecture": "東京都",
    "prefecture_kana": "トウキョウト",
    "prefecture_code": "13",
    "city": "港区",
    "city_kana": "ミナトク",
    "town": "新橋",
    "town_kana": "シンバシ",
    "street": null,
    "office_name": null,
    "office_name_kana": null
  },
  "0011": {
    "zip_code": "1050011",
    "prefecture": "東京都",
    "prefecture_kana": "トウキョウト",
    "prefecture_code": "13",
    "city": "港区",
    "city_kana": "ミナトク",
    "town": "芝公園",
    "town_kana": "シバコウエン",
    "street": null,
    "office_name": null,
    "office_name_kana": null
  },
  "0012": {
    "zip_code": "1050012",
    "prefecture": "東京都",
    "prefecture_kana": "トウキョウト",
    "prefecture_code": "13",
    "city": "港区",
    "city_kana": "ミナトク",
    "town": "芝大門",
    "town_kana": "シバダイモン",
    "street": null,
    "office_name": null,
    "office_name_kana": null
  },
  "0013": {
    "zip_code": "1050013",
    "prefecture": "東京都",
    "prefecture_kana": "トウキョウト",
    "prefecture_code": "13",
    "city": "港区",
    "city_kana": "ミナトク",
    "town": "浜松町",
    "town_kana": "ハママツチョウ",
    "street": null,
    "office_name": null,
    "office_name_kana": null
  },
  "0014": {
    "zip_code": "1050014",
    "prefecture": "東京都",
    "prefecture_kana": "トウキョウト",
    "prefecture_code": "13",
    "city": "港区",
    "city_kana": "ミナトク",
    "town": "芝",
    "town_kana": "シバ",
    "street": null,
    "office_name": null,
    "office_name_kana": null
  },
  "0021": {
    "zip_code": "1050021",
    "prefecture": "東京都",
    "prefecture_kana": "トウキョウト",
    "prefecture_code": "13",
    "city": "港区",
    "city_kana": "ミナトク",
    "town": "東新橋",
    "town_kana": "ヒガシシンバシ",
    "street": null,
    "office_name": null,
    "office_name_kana": null
  },
  "0022": {
    "zip_code": "1050022",
    "prefecture": "東京都",
    "prefecture_kana": "トウキョウト",
    "prefecture_code": "13",
    "city": "港区",
    "city_kana": "ミナトク",
    "town": "海岸",
    "town_kana": "カイガン",
    "street": null,
    "office_name": null,
    "office_name_kana": null
  },
  "0023": {
    "zip_code": "1050023",
    "prefecture": "東京都",
    "prefecture_kana": "トウキョウト",
    "prefecture_code": "13",
    "city": "港区",
    "city_kana": "ミナトク",
    "town": "芝浦",
    "town_kana": "シバウラ",
    "street": null,
    "office_name": null,
    "office_name_kana": null
  },
  "6001": {
    "zip_code": "1056001",
    "prefecture": "東京都",
    "prefecture_kana": "トウキョウト",
    "prefecture_code": "13",
    "city": "港区",
    "city_kana": "ミナトク",
    "town": "虎ノ門城山トラストタワー　１階",
    "town_kana": "トラノモンシロヤマトラストタワー1カイ",
    "street": null,
    "office_name": null,
    "office_name_kana": null
  },
  "6002": {
    "zip_code": "1056002",
    "prefecture": "東京都",
    "prefecture_kana": "トウキョウト",
    "prefecture_code": "13",
    "city": "港区",
    "city_kana": "ミナトク",
    "town": "虎ノ門城山トラストタワー　２階",
    "town_kana": "トラノモンシロヤマトラストタワー2カイ",
    "street": null,
    "office_name": null,
    "office_name_kana": null
  },
  "6003": {
    "zip_code": "1056003",
    "prefecture": "東京都",
    "prefecture_kana": "トウキョウト",
    "prefecture_code": "13",
    "city": "港区",
    "city_kana": "ミナトク",
    "town": "虎ノ門城山トラストタワー　３階",
    "town_kana": "トラノモンシロヤマトラストタワー3カイ",
    "street": null,
    "office_name": null,
    "office_name_kana": null
  },
  "6004": {
    "zip_code": "1056004",
    "prefecture": "東京都",
    "prefecture_kana": "トウキョウト",
    "prefecture_code": "13",
    "city": "港区",
    "city_kana": "ミナトク",
    "town": "虎ノ門城山トラストタワー　４階",
    "town_kana": "トラノモンシロヤマトラストタワー4カイ",
    "street": null,
    "office_name": null,
    "office_name_kana": null
  },
  "6005": {
    "zip_code": "1056005",
    "prefecture": "東京都",
    "prefecture_kana": "トウキョウト",
    "prefecture_code": "13",
    "city": "港区",
    "city_kana": "ミナトク",
    "town": "虎ノ門城山トラストタワー　５階",
    "town_kana": "トラノモンシロヤマトラストタワー5カイ",
    "street": null,
    "office_name": null,
    "office_name_kana": null
  },
  "6006": {
    "zip_code": "1056006",
    "prefecture": "東京都",
    "prefecture_kana": "トウキョウト",
    "prefecture_code": "13",
    "city": "港区",
    "city_kana": "ミナトク",
    "town": "虎ノ門城山トラストタワー　６階",
    "town_kana": "トラノモンシロヤマトラストタワー6カイ",
    "street": null,
    "office_name": null,
    "office_name_kana": null
  },
  "6007": {
    "zip_code": "1056007",
    "prefecture": "東京都",
    "prefecture_kana": "トウキョウト",
    "prefecture_code": "13",
    "city": "港区",
    "city_kana": "ミナトク",
    "town": "虎ノ門城山トラストタワー　７階",
    "town_kana": "トラノモンシロヤマトラストタワー7カイ",
    "street": null,
    "office_name": null,
    "office_name_kana": null
  },
  "6008": {
    "zip_code": "1056008",
    "prefecture": "東京都",
    "prefecture_kana": "トウキョウト",
    "prefecture_code": "13",
    "city": "港区",
    "city_kana": "ミナトク",
    "town": "虎ノ門城山トラストタワー　８階",
    "town_kana": "トラノモンシロヤマトラストタワー8カイ",
    "street": null,
    "office_name": null,
    "office_name_kana": null
  },
  "6009": {
    "zip_code": "1056009",
    "prefecture": "東京都",
    "prefecture_kana": "トウキョウト",
    "prefecture_code": "13",
    "city": "港区",
    "city_kana": "ミナトク",
    "town": "虎ノ門城山トラストタワー　９階",
    "town_kana": "トラノモンシロヤマトラストタワー9カイ",
    "street": null,
    "office_name": null,
    "office_name_kana": null
  },
  "6010": {
    "zip_code": "1056010",
    "prefecture": "東京都",
    "prefecture_kana": "トウキョウト",
    "prefecture_code": "13",
    "city": "港区",
    "city_kana": "ミナトク",
    "town": "虎ノ門城山トラストタワー　１０階",
    "town_kana": "トラノモンシロヤマトラストタワー10カイ",
    "street": null,
    "office_name": null,
    "office_name_kana": null
  },
  "6011": {
    "zip_code": "1056011",
    "prefecture": "東京都",
    "prefecture_kana": "トウキョウト",
    "prefecture_code": "13",
    "city": "港区",
    "city_kana": "ミナトク",
    "town": "虎ノ門城山トラストタワー　１１階",
    "town_kana": "トラノモンシロヤマトラストタワー11カイ",
    "street": null,
    "office_name": null,
    "office_name_kana": null
  },
  "6012": {
    "zip_code": "1056012",
    "prefecture": "東京都",
    "prefecture_kana": "トウキョウト",
    "prefecture_code": "13",
    "city": "港区",
    "city_kana": "ミナトク",
    "town": "虎ノ門城山トラストタワー　１２階",
    "town_kana": "トラノモンシロヤマトラストタワー12カイ",
    "street": null,
    "office_name": null,
    "office_name_kana": null
  },
  "6013": {
    "zip_code": "1056013",
    "prefecture": "東京都",
    "prefecture_kana": "トウキョウト",
    "prefecture_code": "13",
    "city": "港区",
    "city_kana": "ミナトク",
    "town": "虎ノ門城山トラストタワー　１３階",
    "town_kana": "トラノモンシロヤマトラストタワー13カイ",
    "street": null,
    "office_name": null,
    "office_name_kana": null
  },
  "6014": {
    "zip_code": "1056014",
    "prefecture": "東京都",
    "prefecture_kana": "トウキョウト",
    "prefecture_code": "13",
    "city": "港区",
    "city_kana": "ミナトク",
    "town": "虎ノ門城山トラストタワー　１４階",
    "town_kana": "トラノモンシロヤマトラストタワー14カイ",
    "street": null,
    "office_name": null,
    "office_name_kana": null
  },
  "6015": {
    "zip_code": "1056015",
    "prefecture": "東京都",
    "prefecture_kana": "トウキョウト",
    "prefecture_code": "13",
    "city": "港区",
    "city_kana": "ミナトク",
    "town": "虎ノ門城山トラストタワー　１５階",
    "town_kana": "トラノモンシロヤマトラストタワー15カイ",
    "street": null,
    "office_name": null,
    "office_name_kana": null
  },
  "6016": {
    "zip_code": "1056016",
    "prefecture": "東京都",
    "prefecture_kana": "トウキョウト",
    "prefecture_code": "13",
    "city": "港区",
    "city_kana": "ミナトク",
    "town": "虎ノ門城山トラストタワー　１６階",
    "town_kana": "トラノモンシロヤマトラストタワー16カイ",
    "street": null,
    "office_name": null,
    "office_name_kana": null
  },
  "6017": {
    "zip_code": "1056017",
    "prefecture": "東京都",
    "prefecture_kana": "トウキョウト",
    "prefecture_code": "13",
    "city": "港区",
    "city_kana": "ミナトク",
    "town": "虎ノ門城山トラストタワー　１７階",
    "town_kana": "トラノモンシロヤマトラストタワー17カイ",
    "street": null,
    "office_name": null,
    "office_name_kana": null
  },
  "6018": {
    "zip_code": "1056018",
    "prefecture": "東京都",
    "prefecture_kana": "トウキョウト",
    "prefecture_code": "13",
    "city": "港区",
    "city_kana": "ミナトク",
    "town": "虎ノ門城山トラストタワー　１８階",
    "town_kana": "トラノモンシロヤマトラストタワー18カイ",
    "street": null,
    "office_name": null,
    "office_name_kana": null
  },
  "6019": {
    "zip_code": "1056019",
    "prefecture": "東京都",
    "prefecture_kana": "トウキョウト",
    "prefecture_code": "13",
    "city": "港区",
    "city_kana": "ミナトク",
    "town": "虎ノ門城山トラストタワー　１９階",
    "town_kana": "トラノモンシロヤマトラストタワー19カイ",
    "street": null,
    "office_name": null,
    "office_name_kana": null
  },
  "6020": {
    "zip_code": "1056020",
    "prefecture": "東京都",
    "prefecture_kana": "トウキョウト",
    "prefecture_code": "13",
    "city": "港区",
    "city_kana": "ミナトク",
    "town": "虎ノ門城山トラストタワー　２０階",
    "town_kana": "トラノモンシロヤマトラストタワー20カイ",
    "street": null,
    "office_name": null,
    "office_name_kana": null
  },
  "6021": {
    "zip_code": "1056021",
    "prefecture": "東京都",
    "prefecture_kana": "トウキョウト",
    "prefecture_code": "13",
    "city": "港区",
    "city_kana": "ミナトク",
    "town": "虎ノ門城山トラストタワー　２１階",
    "town_kana": "トラノモンシロヤマトラストタワー21カイ",
    "street": null,
    "office_name": null,
    "office_name_kana": null
  },
  "6022": {
    "zip_code": "1056022",
    "prefecture": "東京都",
    "prefecture_kana": "トウキョウト",
    "prefecture_code": "13",
    "city": "港区",
    "city_kana": "ミナトク",
    "town": "虎ノ門城山トラストタワー　２２階",
    "town_kana": "トラノモンシロヤマトラストタワー22カイ",
    "street": null,
    "office_name": null,
    "office_name_kana": null
  },
  "6023": {
    "zip_code": "1056023",
    "prefecture": "東京都",
    "prefecture_kana": "トウキョウト",
    "prefecture_code": "13",
    "city": "港区",
    "city_kana": "ミナトク",
    "town": "虎ノ門城山トラストタワー　２３階",
    "town_kana": "トラノモンシロヤマトラストタワー23カイ",
    "street": null,
    "office_name": null,
    "office_name_kana": null
  },
  "6024": {
    "zip_code": "1056024",
    "prefecture": "東京都",
    "prefecture_kana": "トウキョウト",
    "prefecture_code": "13",
    "city": "港区",
    "city_kana": "ミナトク",
    "town": "虎ノ門城山トラストタワー　２４階",
    "town_kana": "トラノモンシロヤマトラストタワー24カイ",
    "street": null,
    "office_name": null,
    "office_name_kana": null
  },
  "6025": {
    "zip_code": "1056025",
    "prefecture": "東京都",
    "prefecture_kana": "トウキョウト",
    "prefecture_code": "13",
    "city": "港区",
    "city_kana": "ミナトク",
    "town": "虎ノ門城山トラストタワー　２５階",
    "town_kana": "トラノモンシロヤマトラストタワー25カイ",
    "street": null,
    "office_name": null,
    "office_name_kana": null
  },
  "6026": {
    "zip_code": "1056026",
    "prefecture": "東京都",
    "prefecture_kana": "トウキョウト",
    "prefecture_code": "13",
    "city": "港区",
    "city_kana": "ミナトク",
    "town": "虎ノ門城山トラストタワー　２６階",
    "town_kana": "トラノモンシロヤマトラストタワー26カイ",
    "street": null,
    "office_name": null,
    "office_name_kana": null
  },
  "6027": {
    "zip_code": "1056027",
    "prefecture": "東京都",
    "prefecture_kana": "トウキョウト",
    "prefecture_code": "13",
    "city": "港区",
    "city_kana": "ミナトク",
    "town": "虎ノ門城山トラストタワー　２７階",
    "town_kana": "トラノモンシロヤマトラストタワー27カイ",
    "street": null,
    "office_name": null,
    "office_name_kana": null
  },
  "6028": {
    "zip_code": "1056028",
    "prefecture": "東京都",
    "prefecture_kana": "トウキョウト",
    "prefecture_code": "13",
    "city": "港区",
    "city_kana": "ミナトク",
    "town": "虎ノ門城山トラストタワー　２８階",
    "town_kana": "トラノモンシロヤマトラストタワー28カイ",
    "street": null,
    "office_name": null,
    "office_name_kana": null
  },
  "6029": {
    "zip_code": "1056029",
    "prefecture": "東京都",
    "prefecture_kana": "トウキョウト",
    "prefecture_code": "13",
    "city": "港区",
    "city_kana": "ミナトク",
    "town": "虎ノ門城山トラストタワー　２９階",
    "town_kana": "トラノモンシロヤマトラストタワー29カイ",
    "street": null,
    "office_name": null,
    "office_name_kana": null
  },
  "6030": {
    "zip_code": "1056030",
    "prefecture": "東京都",
    "prefecture_kana": "トウキョウト",
    "prefecture_code": "13",
    "city": "港区",
    "city_kana": "ミナトク",
    "town": "虎ノ門城山トラストタワー　３０階",
    "town_kana": "トラノモンシロヤマトラストタワー30カイ",
    "street": null,
    "office_name": null,
    "office_name_kana": null
  },
  "6031": {
    "zip_code": "1056031",
    "prefecture": "東京都",
    "prefecture_kana": "トウキョウト",
    "prefecture_code": "13",
    "city": "港区",
    "city_kana": "ミナトク",
    "town": "虎ノ門城山トラストタワー　３１階",
    "town_kana": "トラノモンシロヤマトラストタワー31カイ",
    "street": null,
    "office_name": null,
    "office_name_kana": null
  },
  "6032": {
    "zip_code": "1056032",
    "prefecture": "東京都",
    "prefecture_kana": "トウキョウト",
    "prefecture_code": "13",
    "city": "港区",
    "city_kana": "ミナトク",
    "town": "虎ノ門城山トラストタワー　３２階",
    "town_kana": "トラノモンシロヤマトラストタワー32カイ",
    "street": null,
    "office_name": null,
    "office_name_kana": null
  },
  "6033": {
    "zip_code": "1056033",
    "prefecture": "東京都",
    "prefecture_kana": "トウキョウト",
    "prefecture_code": "13",
    "city": "港区",
    "city_kana": "ミナトク",
    "town": "虎ノ門城山トラストタワー　３３階",
    "town_kana": "トラノモンシロヤマトラストタワー33カイ",
    "street": null,
    "office_name": null,
    "office_name_kana": null
  },
  "6034": {
    "zip_code": "1056034",
    "prefecture": "東京都",
    "prefecture_kana": "トウキョウト",
    "prefecture_code": "13",
    "city": "港区",
    "city_kana": "ミナトク",
    "town": "虎ノ門城山トラストタワー　３４階",
    "town_kana": "トラノモンシロヤマトラストタワー34カイ",
    "street": null,
    "office_name": null,
    "office_name_kana": null
  },
  "6035": {
    "zip_code": "1056035",
    "prefecture": "東京都",
    "prefecture_kana": "トウキョウト",
    "prefecture_code": "13",
    "city": "港区",
    "city_kana": "ミナトク",
    "town": "虎ノ門城山トラストタワー　３５階",
    "town_kana": "トラノモンシロヤマトラストタワー35カイ",
    "street": null,
    "office_name": null,
    "office_name_kana": null
  },
  "6036": {
    "zip_code": "1056036",
    "prefecture": "東京都",
    "prefecture_kana": "トウキョウト",
    "prefecture_code": "13",
    "city": "港区",
    "city_kana": "ミナトク",
    "town": "虎ノ門城山トラストタワー　３６階",
    "town_kana": "トラノモンシロヤマトラストタワー36カイ",
    "street": null,
    "office_name": null,
    "office_name_kana": null
  },
  "6037": {
    "zip_code": "1056037",
    "prefecture": "東京都",
    "prefecture_kana": "トウキョウト",
    "prefecture_code": "13",
    "city": "港区",
    "city_kana": "ミナトク",
    "town": "虎ノ門城山トラストタワー　３７階",
    "town_kana": "トラノモンシロヤマトラストタワー37カイ",
    "street": null,
    "office_name": null,
    "office_name_kana": null
  },
  "6050": {
    "zip_code": "1056050",
    "prefecture": "東京都",
    "prefecture_kana": "トウキョウト",
    "prefecture_code": "13",
    "city": "港区",
    "city_kana": "ミナトク",
    "town": "虎ノ門",
    "town_kana": "トラノモン",
    "street": "４−３−１城山トラストタワー２３階",
    "office_name": "株式会社　スター・チャンネル",
    "office_name_kana": "カブシキガイシヤ スタ-・チヤンネル"
  },
  "6090": {
    "zip_code": "1056090",
    "prefecture": "東京都",
    "prefecture_kana": "トウキョウト",
    "prefecture_code": "13",
    "city": "港区",
    "city_kana": "ミナトク",
    "town": "虎ノ門城山トラストタワー",
    "town_kana": "トラノモンシロヤマトラストタワー",
    "street": null,
    "office_name": null,
    "office_name_kana": null
  },
  "6101": {
    "zip_code": "1056101",
    "prefecture": "東京都",
    "prefecture_kana": "トウキョウト",
    "prefecture_code": "13",
    "city": "港区",
    "city_kana": "ミナトク",
    "town": "浜松町世界貿易センタービル　１階",
    "town_kana": "ハママツチョウセカイボウエキセンタービル1カイ",
    "street": null,
    "office_name": null,
    "office_name_kana": null
  },
  "6102": {
    "zip_code": "1056102",
    "prefecture": "東京都",
    "prefecture_kana": "トウキョウト",
    "prefecture_code": "13",
    "city": "港区",
    "city_kana": "ミナトク",
    "town": "浜松町世界貿易センタービル　２階",
    "town_kana": "ハママツチョウセカイボウエキセンタービル2カイ",
    "street": null,
    "office_name": null,
    "office_name_kana": null
  },
  "6103": {
    "zip_code": "1056103",
    "prefecture": "東京都",
    "prefecture_kana": "トウキョウト",
    "prefecture_code": "13",
    "city": "港区",
    "city_kana": "ミナトク",
    "town": "浜松町世界貿易センタービル　３階",
    "town_kana": "ハママツチョウセカイボウエキセンタービル3カイ",
    "street": null,
    "office_name": null,
    "office_name_kana": null
  },
  "6104": {
    "zip_code": "1056104",
    "prefecture": "東京都",
    "prefecture_kana": "トウキョウト",
    "prefecture_code": "13",
    "city": "港区",
    "city_kana": "ミナトク",
    "town": "浜松町世界貿易センタービル　４階",
    "town_kana": "ハママツチョウセカイボウエキセンタービル4カイ",
    "street": null,
    "office_name": null,
    "office_name_kana": null
  },
  "6105": {
    "zip_code": "1056105",
    "prefecture": "東京都",
    "prefecture_kana": "トウキョウト",
    "prefecture_code": "13",
    "city": "港区",
    "city_kana": "ミナトク",
    "town": "浜松町世界貿易センタービル　５階",
    "town_kana": "ハママツチョウセカイボウエキセンタービル5カイ",
    "street": null,
    "office_name": null,
    "office_name_kana": null
  },
  "6106": {
    "zip_code": "1056106",
    "prefecture": "東京都",
    "prefecture_kana": "トウキョウト",
    "prefecture_code": "13",
    "city": "港区",
    "city_kana": "ミナトク",
    "town": "浜松町世界貿易センタービル　６階",
    "town_kana": "ハママツチョウセカイボウエキセンタービル6カイ",
    "street": null,
    "office_name": null,
    "office_name_kana": null
  },
  "6107": {
    "zip_code": "1056107",
    "prefecture": "東京都",
    "prefecture_kana": "トウキョウト",
    "prefecture_code": "13",
    "city": "港区",
    "city_kana": "ミナトク",
    "town": "浜松町世界貿易センタービル　７階",
    "town_kana": "ハママツチョウセカイボウエキセンタービル7カイ",
    "street": null,
    "office_name": null,
    "office_name_kana": null
  },
  "6108": {
    "zip_code": "1056108",
    "prefecture": "東京都",
    "prefecture_kana": "トウキョウト",
    "prefecture_code": "13",
    "city": "港区",
    "city_kana": "ミナトク",
    "town": "浜松町世界貿易センタービル　８階",
    "town_kana": "ハママツチョウセカイボウエキセンタービル8カイ",
    "street": null,
    "office_name": null,
    "office_name_kana": null
  },
  "6109": {
    "zip_code": "1056109",
    "prefecture": "東京都",
    "prefecture_kana": "トウキョウト",
    "prefecture_code": "13",
    "city": "港区",
    "city_kana": "ミナトク",
    "town": "浜松町世界貿易センタービル　９階",
    "town_kana": "ハママツチョウセカイボウエキセンタービル9カイ",
    "street": null,
    "office_name": null,
    "office_name_kana": null
  },
  "6110": {
    "zip_code": "1056110",
    "prefecture": "東京都",
    "prefecture_kana": "トウキョウト",
    "prefecture_code": "13",
    "city": "港区",
    "city_kana": "ミナトク",
    "town": "浜松町世界貿易センタービル　１０階",
    "town_kana": "ハママツチョウセカイボウエキセンタービル10カイ",
    "street": null,
    "office_name": null,
    "office_name_kana": null
  },
  "6111": {
    "zip_code": "1056111",
    "prefecture": "東京都",
    "prefecture_kana": "トウキョウト",
    "prefecture_code": "13",
    "city": "港区",
    "city_kana": "ミナトク",
    "town": "浜松町世界貿易センタービル　１１階",
    "town_kana": "ハママツチョウセカイボウエキセンタービル11カイ",
    "street": null,
    "office_name": null,
    "office_name_kana": null
  },
  "6112": {
    "zip_code": "1056112",
    "prefecture": "東京都",
    "prefecture_kana": "トウキョウト",
    "prefecture_code": "13",
    "city": "港区",
    "city_kana": "ミナトク",
    "town": "浜松町世界貿易センタービル　１２階",
    "town_kana": "ハママツチョウセカイボウエキセンタービル12カイ",
    "street": null,
    "office_name": null,
    "office_name_kana": null
  },
  "6113": {
    "zip_code": "1056113",
    "prefecture": "東京都",
    "prefecture_kana": "トウキョウト",
    "prefecture_code": "13",
    "city": "港区",
    "city_kana": "ミナトク",
    "town": "浜松町世界貿易センタービル　１３階",
    "town_kana": "ハママツチョウセカイボウエキセンタービル13カイ",
    "street": null,
    "office_name": null,
    "office_name_kana": null
  },
  "6114": {
    "zip_code": "1056114",
    "prefecture": "東京都",
    "prefecture_kana": "トウキョウト",
    "prefecture_code": "13",
    "city": "港区",
    "city_kana": "ミナトク",
    "town": "浜松町世界貿易センタービル　１４階",
    "town_kana": "ハママツチョウセカイボウエキセンタービル14カイ",
    "street": null,
    "office_name": null,
    "office_name_kana": null
  },
  "6115": {
    "zip_code": "1056115",
    "prefecture": "東京都",
    "prefecture_kana": "トウキョウト",
    "prefecture_code": "13",
    "city": "港区",
    "city_kana": "ミナトク",
    "town": "浜松町世界貿易センタービル　１５階",
    "town_kana": "ハママツチョウセカイボウエキセンタービル15カイ",
    "street": null,
    "office_name": null,
    "office_name_kana": null
  },
  "6116": {
    "zip_code": "1056116",
    "prefecture": "東京都",
    "prefecture_kana": "トウキョウト",
    "prefecture_code": "13",
    "city": "港区",
    "city_kana": "ミナトク",
    "town": "浜松町世界貿易センタービル　１６階",
    "town_kana": "ハママツチョウセカイボウエキセンタービル16カイ",
    "street": null,
    "office_name": null,
    "office_name_kana": null
  },
  "6117": {
    "zip_code": "1056117",
    "prefecture": "東京都",
    "prefecture_kana": "トウキョウト",
    "prefecture_code": "13",
    "city": "港区",
    "city_kana": "ミナトク",
    "town": "浜松町世界貿易センタービル　１７階",
    "town_kana": "ハママツチョウセカイボウエキセンタービル17カイ",
    "street": null,
    "office_name": null,
    "office_name_kana": null
  },
  "6118": {
    "zip_code": "1056118",
    "prefecture": "東京都",
    "prefecture_kana": "トウキョウト",
    "prefecture_code": "13",
    "city": "港区",
    "city_kana": "ミナトク",
    "town": "浜松町世界貿易センタービル　１８階",
    "town_kana": "ハママツチョウセカイボウエキセンタービル18カイ",
    "street": null,
    "office_name": null,
    "office_name_kana": null
  },
  "6119": {
    "zip_code": "1056119",
    "prefecture": "東京都",
    "prefecture_kana": "トウキョウト",
    "prefecture_code": "13",
    "city": "港区",
    "city_kana": "ミナトク",
    "town": "浜松町世界貿易センタービル　１９階",
    "town_kana": "ハママツチョウセカイボウエキセンタービル19カイ",
    "street": null,
    "office_name": null,
    "office_name_kana": null
  },
  "6120": {
    "zip_code": "1056120",
    "prefecture": "東京都",
    "prefecture_kana": "トウキョウト",
    "prefecture_code": "13",
    "city": "港区",
    "city_kana": "ミナトク",
    "town": "浜松町世界貿易センタービル　２０階",
    "town_kana": "ハママツチョウセカイボウエキセンタービル20カイ",
    "street": null,
    "office_name": null,
    "office_name_kana": null
  },
  "6121": {
    "zip_code": "1056121",
    "prefecture": "東京都",
    "prefecture_kana": "トウキョウト",
    "prefecture_code": "13",
    "city": "港区",
    "city_kana": "ミナトク",
    "town": "浜松町世界貿易センタービル　２１階",
    "town_kana": "ハママツチョウセカイボウエキセンタービル21カイ",
    "street": null,
    "office_name": null,
    "office_name_kana": null
  },
  "6122": {
    "zip_code": "1056122",
    "prefecture": "東京都",
    "prefecture_kana": "トウキョウト",
    "prefecture_code": "13",
    "city": "港区",
    "city_kana": "ミナトク",
    "town": "浜松町世界貿易センタービル　２２階",
    "town_kana": "ハママツチョウセカイボウエキセンタービル22カイ",
    "street": null,
    "office_name": null,
    "office_name_kana": null
  },
  "6123": {
    "zip_code": "1056123",
    "prefecture": "東京都",
    "prefecture_kana": "トウキョウト",
    "prefecture_code": "13",
    "city": "港区",
    "city_kana": "ミナトク",
    "town": "浜松町世界貿易センタービル　２３階",
    "town_kana": "ハママツチョウセカイボウエキセンタービル23カイ",
    "street": null,
    "office_name": null,
    "office_name_kana": null
  },
  "6124": {
    "zip_code": "1056124",
    "prefecture": "東京都",
    "prefecture_kana": "トウキョウト",
    "prefecture_code": "13",
    "city": "港区",
    "city_kana": "ミナトク",
    "town": "浜松町世界貿易センタービル　２４階",
    "town_kana": "ハママツチョウセカイボウエキセンタービル24カイ",
    "street": null,
    "office_name": null,
    "office_name_kana": null
  },
  "6125": {
    "zip_code": "1056125",
    "prefecture": "東京都",
    "prefecture_kana": "トウキョウト",
    "prefecture_code": "13",
    "city": "港区",
    "city_kana": "ミナトク",
    "town": "浜松町世界貿易センタービル　２５階",
    "town_kana": "ハママツチョウセカイボウエキセンタービル25カイ",
    "street": null,
    "office_name": null,
    "office_name_kana": null
  },
  "6126": {
    "zip_code": "1056126",
    "prefecture": "東京都",
    "prefecture_kana": "トウキョウト",
    "prefecture_code": "13",
    "city": "港区",
    "city_kana": "ミナトク",
    "town": "浜松町世界貿易センタービル　２６階",
    "town_kana": "ハママツチョウセカイボウエキセンタービル26カイ",
    "street": null,
    "office_name": null,
    "office_name_kana": null
  },
  "6127": {
    "zip_code": "1056127",
    "prefecture": "東京都",
    "prefecture_kana": "トウキョウト",
    "prefecture_code": "13",
    "city": "港区",
    "city_kana": "ミナトク",
    "town": "浜松町世界貿易センタービル　２７階",
    "town_kana": "ハママツチョウセカイボウエキセンタービル27カイ",
    "street": null,
    "office_name": null,
    "office_name_kana": null
  },
  "6128": {
    "zip_code": "1056128",
    "prefecture": "東京都",
    "prefecture_kana": "トウキョウト",
    "prefecture_code": "13",
    "city": "港区",
    "city_kana": "ミナトク",
    "town": "浜松町世界貿易センタービル　２８階",
    "town_kana": "ハママツチョウセカイボウエキセンタービル28カイ",
    "street": null,
    "office_name": null,
    "office_name_kana": null
  },
  "6129": {
    "zip_code": "1056129",
    "prefecture": "東京都",
    "prefecture_kana": "トウキョウト",
    "prefecture_code": "13",
    "city": "港区",
    "city_kana": "ミナトク",
    "town": "浜松町世界貿易センタービル　２９階",
    "town_kana": "ハママツチョウセカイボウエキセンタービル29カイ",
    "street": null,
    "office_name": null,
    "office_name_kana": null
  },
  "6130": {
    "zip_code": "1056130",
    "prefecture": "東京都",
    "prefecture_kana": "トウキョウト",
    "prefecture_code": "13",
    "city": "港区",
    "city_kana": "ミナトク",
    "town": "浜松町世界貿易センタービル　３０階",
    "town_kana": "ハママツチョウセカイボウエキセンタービル30カイ",
    "street": null,
    "office_name": null,
    "office_name_kana": null
  },
  "6131": {
    "zip_code": "1056131",
    "prefecture": "東京都",
    "prefecture_kana": "トウキョウト",
    "prefecture_code": "13",
    "city": "港区",
    "city_kana": "ミナトク",
    "town": "浜松町世界貿易センタービル　３１階",
    "town_kana": "ハママツチョウセカイボウエキセンタービル31カイ",
    "street": null,
    "office_name": null,
    "office_name_kana": null
  },
  "6132": {
    "zip_code": "1056132",
    "prefecture": "東京都",
    "prefecture_kana": "トウキョウト",
    "prefecture_code": "13",
    "city": "港区",
    "city_kana": "ミナトク",
    "town": "浜松町世界貿易センタービル　３２階",
    "town_kana": "ハママツチョウセカイボウエキセンタービル32カイ",
    "street": null,
    "office_name": null,
    "office_name_kana": null
  },
  "6133": {
    "zip_code": "1056133",
    "prefecture": "東京都",
    "prefecture_kana": "トウキョウト",
    "prefecture_code": "13",
    "city": "港区",
    "city_kana": "ミナトク",
    "town": "浜松町世界貿易センタービル　３３階",
    "town_kana": "ハママツチョウセカイボウエキセンタービル33カイ",
    "street": null,
    "office_name": null,
    "office_name_kana": null
  },
  "6134": {
    "zip_code": "1056134",
    "prefecture": "東京都",
    "prefecture_kana": "トウキョウト",
    "prefecture_code": "13",
    "city": "港区",
    "city_kana": "ミナトク",
    "town": "浜松町世界貿易センタービル　３４階",
    "town_kana": "ハママツチョウセカイボウエキセンタービル34カイ",
    "street": null,
    "office_name": null,
    "office_name_kana": null
  },
  "6135": {
    "zip_code": "1056135",
    "prefecture": "東京都",
    "prefecture_kana": "トウキョウト",
    "prefecture_code": "13",
    "city": "港区",
    "city_kana": "ミナトク",
    "town": "浜松町世界貿易センタービル　３５階",
    "town_kana": "ハママツチョウセカイボウエキセンタービル35カイ",
    "street": null,
    "office_name": null,
    "office_name_kana": null
  },
  "6136": {
    "zip_code": "1056136",
    "prefecture": "東京都",
    "prefecture_kana": "トウキョウト",
    "prefecture_code": "13",
    "city": "港区",
    "city_kana": "ミナトク",
    "town": "浜松町世界貿易センタービル　３６階",
    "town_kana": "ハママツチョウセカイボウエキセンタービル36カイ",
    "street": null,
    "office_name": null,
    "office_name_kana": null
  },
  "6137": {
    "zip_code": "1056137",
    "prefecture": "東京都",
    "prefecture_kana": "トウキョウト",
    "prefecture_code": "13",
    "city": "港区",
    "city_kana": "ミナトク",
    "town": "浜松町世界貿易センタービル　３７階",
    "town_kana": "ハママツチョウセカイボウエキセンタービル37カイ",
    "street": null,
    "office_name": null,
    "office_name_kana": null
  },
  "6138": {
    "zip_code": "1056138",
    "prefecture": "東京都",
    "prefecture_kana": "トウキョウト",
    "prefecture_code": "13",
    "city": "港区",
    "city_kana": "ミナトク",
    "town": "浜松町世界貿易センタービル　３８階",
    "town_kana": "ハママツチョウセカイボウエキセンタービル38カイ",
    "street": null,
    "office_name": null,
    "office_name_kana": null
  },
  "6139": {
    "zip_code": "1056139",
    "prefecture": "東京都",
    "prefecture_kana": "トウキョウト",
    "prefecture_code": "13",
    "city": "港区",
    "city_kana": "ミナトク",
    "town": "浜松町世界貿易センタービル　３９階",
    "town_kana": "ハママツチョウセカイボウエキセンタービル39カイ",
    "street": null,
    "office_name": null,
    "office_name_kana": null
  },
  "6140": {
    "zip_code": "1056140",
    "prefecture": "東京都",
    "prefecture_kana": "トウキョウト",
    "prefecture_code": "13",
    "city": "港区",
    "city_kana": "ミナトク",
    "town": "浜松町世界貿易センタービル　４０階",
    "town_kana": "ハママツチョウセカイボウエキセンタービル40カイ",
    "street": null,
    "office_name": null,
    "office_name_kana": null
  },
  "6190": {
    "zip_code": "1056190",
    "prefecture": "東京都",
    "prefecture_kana": "トウキョウト",
    "prefecture_code": "13",
    "city": "港区",
    "city_kana": "ミナトク",
    "town": "浜松町世界貿易センタービル",
    "town_kana": "ハママツチョウセカイボウエキセンタービル",
    "street": null,
    "office_name": null,
    "office_name_kana": null
  },
  "6201": {
    "zip_code": "1056201",
    "prefecture": "東京都",
    "prefecture_kana": "トウキョウト",
    "prefecture_code": "13",
    "city": "港区",
    "city_kana": "ミナトク",
    "town": "愛宕愛宕グリーンヒルズＭＯＲＩタワー　１階",
    "town_kana": "アタゴアタゴグリーンヒルズモリタワー1カイ",
    "street": null,
    "office_name": null,
    "office_name_kana": null
  },
  "6202": {
    "zip_code": "1056202",
    "prefecture": "東京都",
    "prefecture_kana": "トウキョウト",
    "prefecture_code": "13",
    "city": "港区",
    "city_kana": "ミナトク",
    "town": "愛宕愛宕グリーンヒルズＭＯＲＩタワー　２階",
    "town_kana": "アタゴアタゴグリーンヒルズモリタワー2カイ",
    "street": null,
    "office_name": null,
    "office_name_kana": null
  },
  "6203": {
    "zip_code": "1056203",
    "prefecture": "東京都",
    "prefecture_kana": "トウキョウト",
    "prefecture_code": "13",
    "city": "港区",
    "city_kana": "ミナトク",
    "town": "愛宕愛宕グリーンヒルズＭＯＲＩタワー　３階",
    "town_kana": "アタゴアタゴグリーンヒルズモリタワー3カイ",
    "street": null,
    "office_name": null,
    "office_name_kana": null
  },
  "6204": {
    "zip_code": "1056204",
    "prefecture": "東京都",
    "prefecture_kana": "トウキョウト",
    "prefecture_code": "13",
    "city": "港区",
    "city_kana": "ミナトク",
    "town": "愛宕愛宕グリーンヒルズＭＯＲＩタワー　４階",
    "town_kana": "アタゴアタゴグリーンヒルズモリタワー4カイ",
    "street": null,
    "office_name": null,
    "office_name_kana": null
  },
  "6205": {
    "zip_code": "1056205",
    "prefecture": "東京都",
    "prefecture_kana": "トウキョウト",
    "prefecture_code": "13",
    "city": "港区",
    "city_kana": "ミナトク",
    "town": "愛宕愛宕グリーンヒルズＭＯＲＩタワー　５階",
    "town_kana": "アタゴアタゴグリーンヒルズモリタワー5カイ",
    "street": null,
    "office_name": null,
    "office_name_kana": null
  },
  "6206": {
    "zip_code": "1056206",
    "prefecture": "東京都",
    "prefecture_kana": "トウキョウト",
    "prefecture_code": "13",
    "city": "港区",
    "city_kana": "ミナトク",
    "town": "愛宕愛宕グリーンヒルズＭＯＲＩタワー　６階",
    "town_kana": "アタゴアタゴグリーンヒルズモリタワー6カイ",
    "street": null,
    "office_name": null,
    "office_name_kana": null
  },
  "6207": {
    "zip_code": "1056207",
    "prefecture": "東京都",
    "prefecture_kana": "トウキョウト",
    "prefecture_code": "13",
    "city": "港区",
    "city_kana": "ミナトク",
    "town": "愛宕愛宕グリーンヒルズＭＯＲＩタワー　７階",
    "town_kana": "アタゴアタゴグリーンヒルズモリタワー7カイ",
    "street": null,
    "office_name": null,
    "office_name_kana": null
  },
  "6208": {
    "zip_code": "1056208",
    "prefecture": "東京都",
    "prefecture_kana": "トウキョウト",
    "prefecture_code": "13",
    "city": "港区",
    "city_kana": "ミナトク",
    "town": "愛宕愛宕グリーンヒルズＭＯＲＩタワー　８階",
    "town_kana": "アタゴアタゴグリーンヒルズモリタワー8カイ",
    "street": null,
    "office_name": null,
    "office_name_kana": null
  },
  "6209": {
    "zip_code": "1056209",
    "prefecture": "東京都",
    "prefecture_kana": "トウキョウト",
    "prefecture_code": "13",
    "city": "港区",
    "city_kana": "ミナトク",
    "town": "愛宕愛宕グリーンヒルズＭＯＲＩタワー　９階",
    "town_kana": "アタゴアタゴグリーンヒルズモリタワー9カイ",
    "street": null,
    "office_name": null,
    "office_name_kana": null
  },
  "6210": {
    "zip_code": "1056210",
    "prefecture": "東京都",
    "prefecture_kana": "トウキョウト",
    "prefecture_code": "13",
    "city": "港区",
    "city_kana": "ミナトク",
    "town": "愛宕愛宕グリーンヒルズＭＯＲＩタワー　１０階",
    "town_kana": "アタゴアタゴグリーンヒルズモリタワー10カイ",
    "street": null,
    "office_name": null,
    "office_name_kana": null
  },
  "6211": {
    "zip_code": "1056211",
    "prefecture": "東京都",
    "prefecture_kana": "トウキョウト",
    "prefecture_code": "13",
    "city": "港区",
    "city_kana": "ミナトク",
    "town": "愛宕愛宕グリーンヒルズＭＯＲＩタワー　１１階",
    "town_kana": "アタゴアタゴグリーンヒルズモリタワー11カイ",
    "street": null,
    "office_name": null,
    "office_name_kana": null
  },
  "6212": {
    "zip_code": "1056212",
    "prefecture": "東京都",
    "prefecture_kana": "トウキョウト",
    "prefecture_code": "13",
    "city": "港区",
    "city_kana": "ミナトク",
    "town": "愛宕愛宕グリーンヒルズＭＯＲＩタワー　１２階",
    "town_kana": "アタゴアタゴグリーンヒルズモリタワー12カイ",
    "street": null,
    "office_name": null,
    "office_name_kana": null
  },
  "6213": {
    "zip_code": "1056213",
    "prefecture": "東京都",
    "prefecture_kana": "トウキョウト",
    "prefecture_code": "13",
    "city": "港区",
    "city_kana": "ミナトク",
    "town": "愛宕愛宕グリーンヒルズＭＯＲＩタワー　１３階",
    "town_kana": "アタゴアタゴグリーンヒルズモリタワー13カイ",
    "street": null,
    "office_name": null,
    "office_name_kana": null
  },
  "6214": {
    "zip_code": "1056214",
    "prefecture": "東京都",
    "prefecture_kana": "トウキョウト",
    "prefecture_code": "13",
    "city": "港区",
    "city_kana": "ミナトク",
    "town": "愛宕愛宕グリーンヒルズＭＯＲＩタワー　１４階",
    "town_kana": "アタゴアタゴグリーンヒルズモリタワー14カイ",
    "street": null,
    "office_name": null,
    "office_name_kana": null
  },
  "6215": {
    "zip_code": "1056215",
    "prefecture": "東京都",
    "prefecture_kana": "トウキョウト",
    "prefecture_code": "13",
    "city": "港区",
    "city_kana": "ミナトク",
    "town": "愛宕愛宕グリーンヒルズＭＯＲＩタワー　１５階",
    "town_kana": "アタゴアタゴグリーンヒルズモリタワー15カイ",
    "street": null,
    "office_name": null,
    "office_name_kana": null
  },
  "6216": {
    "zip_code": "1056216",
    "prefecture": "東京都",
    "prefecture_kana": "トウキョウト",
    "prefecture_code": "13",
    "city": "港区",
    "city_kana": "ミナトク",
    "town": "愛宕愛宕グリーンヒルズＭＯＲＩタワー　１６階",
    "town_kana": "アタゴアタゴグリーンヒルズモリタワー16カイ",
    "street": null,
    "office_name": null,
    "office_name_kana": null
  },
  "6217": {
    "zip_code": "1056217",
    "prefecture": "東京都",
    "prefecture_kana": "トウキョウト",
    "prefecture_code": "13",
    "city": "港区",
    "city_kana": "ミナトク",
    "town": "愛宕愛宕グリーンヒルズＭＯＲＩタワー　１７階",
    "town_kana": "アタゴアタゴグリーンヒルズモリタワー17カイ",
    "street": null,
    "office_name": null,
    "office_name_kana": null
  },
  "6218": {
    "zip_code": "1056218",
    "prefecture": "東京都",
    "prefecture_kana": "トウキョウト",
    "prefecture_code": "13",
    "city": "港区",
    "city_kana": "ミナトク",
    "town": "愛宕愛宕グリーンヒルズＭＯＲＩタワー　１８階",
    "town_kana": "アタゴアタゴグリーンヒルズモリタワー18カイ",
    "street": null,
    "office_name": null,
    "office_name_kana": null
  },
  "6219": {
    "zip_code": "1056219",
    "prefecture": "東京都",
    "prefecture_kana": "トウキョウト",
    "prefecture_code": "13",
    "city": "港区",
    "city_kana": "ミナトク",
    "town": "愛宕愛宕グリーンヒルズＭＯＲＩタワー　１９階",
    "town_kana": "アタゴアタゴグリーンヒルズモリタワー19カイ",
    "street": null,
    "office_name": null,
    "office_name_kana": null
  },
  "6220": {
    "zip_code": "1056220",
    "prefecture": "東京都",
    "prefecture_kana": "トウキョウト",
    "prefecture_code": "13",
    "city": "港区",
    "city_kana": "ミナトク",
    "town": "愛宕愛宕グリーンヒルズＭＯＲＩタワー　２０階",
    "town_kana": "アタゴアタゴグリーンヒルズモリタワー20カイ",
    "street": null,
    "office_name": null,
    "office_name_kana": null
  },
  "6221": {
    "zip_code": "1056221",
    "prefecture": "東京都",
    "prefecture_kana": "トウキョウト",
    "prefecture_code": "13",
    "city": "港区",
    "city_kana": "ミナトク",
    "town": "愛宕愛宕グリーンヒルズＭＯＲＩタワー　２１階",
    "town_kana": "アタゴアタゴグリーンヒルズモリタワー21カイ",
    "street": null,
    "office_name": null,
    "office_name_kana": null
  },
  "6222": {
    "zip_code": "1056222",
    "prefecture": "東京都",
    "prefecture_kana": "トウキョウト",
    "prefecture_code": "13",
    "city": "港区",
    "city_kana": "ミナトク",
    "town": "愛宕愛宕グリーンヒルズＭＯＲＩタワー　２２階",
    "town_kana": "アタゴアタゴグリーンヒルズモリタワー22カイ",
    "street": null,
    "office_name": null,
    "office_name_kana": null
  },
  "6223": {
    "zip_code": "1056223",
    "prefecture": "東京都",
    "prefecture_kana": "トウキョウト",
    "prefecture_code": "13",
    "city": "港区",
    "city_kana": "ミナトク",
    "town": "愛宕愛宕グリーンヒルズＭＯＲＩタワー　２３階",
    "town_kana": "アタゴアタゴグリーンヒルズモリタワー23カイ",
    "street": null,
    "office_name": null,
    "office_name_kana": null
  },
  "6224": {
    "zip_code": "1056224",
    "prefecture": "東京都",
    "prefecture_kana": "トウキョウト",
    "prefecture_code": "13",
    "city": "港区",
    "city_kana": "ミナトク",
    "town": "愛宕愛宕グリーンヒルズＭＯＲＩタワー　２４階",
    "town_kana": "アタゴアタゴグリーンヒルズモリタワー24カイ",
    "street": null,
    "office_name": null,
    "office_name_kana": null
  },
  "6225": {
    "zip_code": "1056225",
    "prefecture": "東京都",
    "prefecture_kana": "トウキョウト",
    "prefecture_code": "13",
    "city": "港区",
    "city_kana": "ミナトク",
    "town": "愛宕愛宕グリーンヒルズＭＯＲＩタワー　２５階",
    "town_kana": "アタゴアタゴグリーンヒルズモリタワー25カイ",
    "street": null,
    "office_name": null,
    "office_name_kana": null
  },
  "6226": {
    "zip_code": "1056226",
    "prefecture": "東京都",
    "prefecture_kana": "トウキョウト",
    "prefecture_code": "13",
    "city": "港区",
    "city_kana": "ミナトク",
    "town": "愛宕愛宕グリーンヒルズＭＯＲＩタワー　２６階",
    "town_kana": "アタゴアタゴグリーンヒルズモリタワー26カイ",
    "street": null,
    "office_name": null,
    "office_name_kana": null
  },
  "6227": {
    "zip_code": "1056227",
    "prefecture": "東京都",
    "prefecture_kana": "トウキョウト",
    "prefecture_code": "13",
    "city": "港区",
    "city_kana": "ミナトク",
    "town": "愛宕愛宕グリーンヒルズＭＯＲＩタワー　２７階",
    "town_kana": "アタゴアタゴグリーンヒルズモリタワー27カイ",
    "street": null,
    "office_name": null,
    "office_name_kana": null
  },
  "6228": {
    "zip_code": "1056228",
    "prefecture": "東京都",
    "prefecture_kana": "トウキョウト",
    "prefecture_code": "13",
    "city": "港区",
    "city_kana": "ミナトク",
    "town": "愛宕愛宕グリーンヒルズＭＯＲＩタワー　２８階",
    "town_kana": "アタゴアタゴグリーンヒルズモリタワー28カイ",
    "street": null,
    "office_name": null,
    "office_name_kana": null
  },
  "6229": {
    "zip_code": "1056229",
    "prefecture": "東京都",
    "prefecture_kana": "トウキョウト",
    "prefecture_code": "13",
    "city": "港区",
    "city_kana": "ミナトク",
    "town": "愛宕愛宕グリーンヒルズＭＯＲＩタワー　２９階",
    "town_kana": "アタゴアタゴグリーンヒルズモリタワー29カイ",
    "street": null,
    "office_name": null,
    "office_name_kana": null
  },
  "6230": {
    "zip_code": "1056230",
    "prefecture": "東京都",
    "prefecture_kana": "トウキョウト",
    "prefecture_code": "13",
    "city": "港区",
    "city_kana": "ミナトク",
    "town": "愛宕愛宕グリーンヒルズＭＯＲＩタワー　３０階",
    "town_kana": "アタゴアタゴグリーンヒルズモリタワー30カイ",
    "street": null,
    "office_name": null,
    "office_name_kana": null
  },
  "6231": {
    "zip_code": "1056231",
    "prefecture": "東京都",
    "prefecture_kana": "トウキョウト",
    "prefecture_code": "13",
    "city": "港区",
    "city_kana": "ミナトク",
    "town": "愛宕愛宕グリーンヒルズＭＯＲＩタワー　３１階",
    "town_kana": "アタゴアタゴグリーンヒルズモリタワー31カイ",
    "street": null,
    "office_name": null,
    "office_name_kana": null
  },
  "6232": {
    "zip_code": "1056232",
    "prefecture": "東京都",
    "prefecture_kana": "トウキョウト",
    "prefecture_code": "13",
    "city": "港区",
    "city_kana": "ミナトク",
    "town": "愛宕愛宕グリーンヒルズＭＯＲＩタワー　３２階",
    "town_kana": "アタゴアタゴグリーンヒルズモリタワー32カイ",
    "street": null,
    "office_name": null,
    "office_name_kana": null
  },
  "6233": {
    "zip_code": "1056233",
    "prefecture": "東京都",
    "prefecture_kana": "トウキョウト",
    "prefecture_code": "13",
    "city": "港区",
    "city_kana": "ミナトク",
    "town": "愛宕愛宕グリーンヒルズＭＯＲＩタワー　３３階",
    "town_kana": "アタゴアタゴグリーンヒルズモリタワー33カイ",
    "street": null,
    "office_name": null,
    "office_name_kana": null
  },
  "6234": {
    "zip_code": "1056234",
    "prefecture": "東京都",
    "prefecture_kana": "トウキョウト",
    "prefecture_code": "13",
    "city": "港区",
    "city_kana": "ミナトク",
    "town": "愛宕愛宕グリーンヒルズＭＯＲＩタワー　３４階",
    "town_kana": "アタゴアタゴグリーンヒルズモリタワー34カイ",
    "street": null,
    "office_name": null,
    "office_name_kana": null
  },
  "6235": {
    "zip_code": "1056235",
    "prefecture": "東京都",
    "prefecture_kana": "トウキョウト",
    "prefecture_code": "13",
    "city": "港区",
    "city_kana": "ミナトク",
    "town": "愛宕愛宕グリーンヒルズＭＯＲＩタワー　３５階",
    "town_kana": "アタゴアタゴグリーンヒルズモリタワー35カイ",
    "street": null,
    "office_name": null,
    "office_name_kana": null
  },
  "6236": {
    "zip_code": "1056236",
    "prefecture": "東京都",
    "prefecture_kana": "トウキョウト",
    "prefecture_code": "13",
    "city": "港区",
    "city_kana": "ミナトク",
    "town": "愛宕愛宕グリーンヒルズＭＯＲＩタワー　３６階",
    "town_kana": "アタゴアタゴグリーンヒルズモリタワー36カイ",
    "street": null,
    "office_name": null,
    "office_name_kana": null
  },
  "6237": {
    "zip_code": "1056237",
    "prefecture": "東京都",
    "prefecture_kana": "トウキョウト",
    "prefecture_code": "13",
    "city": "港区",
    "city_kana": "ミナトク",
    "town": "愛宕愛宕グリーンヒルズＭＯＲＩタワー　３７階",
    "town_kana": "アタゴアタゴグリーンヒルズモリタワー37カイ",
    "street": null,
    "office_name": null,
    "office_name_kana": null
  },
  "6238": {
    "zip_code": "1056238",
    "prefecture": "東京都",
    "prefecture_kana": "トウキョウト",
    "prefecture_code": "13",
    "city": "港区",
    "city_kana": "ミナトク",
    "town": "愛宕愛宕グリーンヒルズＭＯＲＩタワー　３８階",
    "town_kana": "アタゴアタゴグリーンヒルズモリタワー38カイ",
    "street": null,
    "office_name": null,
    "office_name_kana": null
  },
  "6239": {
    "zip_code": "1056239",
    "prefecture": "東京都",
    "prefecture_kana": "トウキョウト",
    "prefecture_code": "13",
    "city": "港区",
    "city_kana": "ミナトク",
    "town": "愛宕愛宕グリーンヒルズＭＯＲＩタワー　３９階",
    "town_kana": "アタゴアタゴグリーンヒルズモリタワー39カイ",
    "street": null,
    "office_name": null,
    "office_name_kana": null
  },
  "6240": {
    "zip_code": "1056240",
    "prefecture": "東京都",
    "prefecture_kana": "トウキョウト",
    "prefecture_code": "13",
    "city": "港区",
    "city_kana": "ミナトク",
    "town": "愛宕愛宕グリーンヒルズＭＯＲＩタワー　４０階",
    "town_kana": "アタゴアタゴグリーンヒルズモリタワー40カイ",
    "street": null,
    "office_name": null,
    "office_name_kana": null
  },
  "6241": {
    "zip_code": "1056241",
    "prefecture": "東京都",
    "prefecture_kana": "トウキョウト",
    "prefecture_code": "13",
    "city": "港区",
    "city_kana": "ミナトク",
    "town": "愛宕愛宕グリーンヒルズＭＯＲＩタワー　４１階",
    "town_kana": "アタゴアタゴグリーンヒルズモリタワー41カイ",
    "street": null,
    "office_name": null,
    "office_name_kana": null
  },
  "6242": {
    "zip_code": "1056242",
    "prefecture": "東京都",
    "prefecture_kana": "トウキョウト",
    "prefecture_code": "13",
    "city": "港区",
    "city_kana": "ミナトク",
    "town": "愛宕愛宕グリーンヒルズＭＯＲＩタワー　４２階",
    "town_kana": "アタゴアタゴグリーンヒルズモリタワー42カイ",
    "street": null,
    "office_name": null,
    "office_name_kana": null
  },
  "6290": {
    "zip_code": "1056290",
    "prefecture": "東京都",
    "prefecture_kana": "トウキョウト",
    "prefecture_code": "13",
    "city": "港区",
    "city_kana": "ミナトク",
    "town": "愛宕愛宕グリーンヒルズＭＯＲＩタワー",
    "town_kana": "アタゴアタゴグリーンヒルズモリタワー",
    "street": null,
    "office_name": null,
    "office_name_kana": null
  },
  "6301": {
    "zip_code": "1056301",
    "prefecture": "東京都",
    "prefecture_kana": "トウキョウト",
    "prefecture_code": "13",
    "city": "港区",
    "city_kana": "ミナトク",
    "town": "虎ノ門虎ノ門ヒルズ森タワー　１階",
    "town_kana": "トラノモントラノモンヒルズモリタワー1カイ",
    "street": null,
    "office_name": null,
    "office_name_kana": null
  },
  "6302": {
    "zip_code": "1056302",
    "prefecture": "東京都",
    "prefecture_kana": "トウキョウト",
    "prefecture_code": "13",
    "city": "港区",
    "city_kana": "ミナトク",
    "town": "虎ノ門虎ノ門ヒルズ森タワー　２階",
    "town_kana": "トラノモントラノモンヒルズモリタワー2カイ",
    "street": null,
    "office_name": null,
    "office_name_kana": null
  },
  "6303": {
    "zip_code": "1056303",
    "prefecture": "東京都",
    "prefecture_kana": "トウキョウト",
    "prefecture_code": "13",
    "city": "港区",
    "city_kana": "ミナトク",
    "town": "虎ノ門虎ノ門ヒルズ森タワー　３階",
    "town_kana": "トラノモントラノモンヒルズモリタワー3カイ",
    "street": null,
    "office_name": null,
    "office_name_kana": null
  },
  "6304": {
    "zip_code": "1056304",
    "prefecture": "東京都",
    "prefecture_kana": "トウキョウト",
    "prefecture_code": "13",
    "city": "港区",
    "city_kana": "ミナトク",
    "town": "虎ノ門虎ノ門ヒルズ森タワー　４階",
    "town_kana": "トラノモントラノモンヒルズモリタワー4カイ",
    "street": null,
    "office_name": null,
    "office_name_kana": null
  },
  "6305": {
    "zip_code": "1056305",
    "prefecture": "東京都",
    "prefecture_kana": "トウキョウト",
    "prefecture_code": "13",
    "city": "港区",
    "city_kana": "ミナトク",
    "town": "虎ノ門虎ノ門ヒルズ森タワー　５階",
    "town_kana": "トラノモントラノモンヒルズモリタワー5カイ",
    "street": null,
    "office_name": null,
    "office_name_kana": null
  },
  "6306": {
    "zip_code": "1056306",
    "prefecture": "東京都",
    "prefecture_kana": "トウキョウト",
    "prefecture_code": "13",
    "city": "港区",
    "city_kana": "ミナトク",
    "town": "虎ノ門虎ノ門ヒルズ森タワー　６階",
    "town_kana": "トラノモントラノモンヒルズモリタワー6カイ",
    "street": null,
    "office_name": null,
    "office_name_kana": null
  },
  "6307": {
    "zip_code": "1056307",
    "prefecture": "東京都",
    "prefecture_kana": "トウキョウト",
    "prefecture_code": "13",
    "city": "港区",
    "city_kana": "ミナトク",
    "town": "虎ノ門虎ノ門ヒルズ森タワー　７階",
    "town_kana": "トラノモントラノモンヒルズモリタワー7カイ",
    "street": null,
    "office_name": null,
    "office_name_kana": null
  },
  "6308": {
    "zip_code": "1056308",
    "prefecture": "東京都",
    "prefecture_kana": "トウキョウト",
    "prefecture_code": "13",
    "city": "港区",
    "city_kana": "ミナトク",
    "town": "虎ノ門虎ノ門ヒルズ森タワー　８階",
    "town_kana": "トラノモントラノモンヒルズモリタワー8カイ",
    "street": null,
    "office_name": null,
    "office_name_kana": null
  },
  "6309": {
    "zip_code": "1056309",
    "prefecture": "東京都",
    "prefecture_kana": "トウキョウト",
    "prefecture_code": "13",
    "city": "港区",
    "city_kana": "ミナトク",
    "town": "虎ノ門虎ノ門ヒルズ森タワー　９階",
    "town_kana": "トラノモントラノモンヒルズモリタワー9カイ",
    "street": null,
    "office_name": null,
    "office_name_kana": null
  },
  "6310": {
    "zip_code": "1056310",
    "prefecture": "東京都",
    "prefecture_kana": "トウキョウト",
    "prefecture_code": "13",
    "city": "港区",
    "city_kana": "ミナトク",
    "town": "虎ノ門虎ノ門ヒルズ森タワー　１０階",
    "town_kana": "トラノモントラノモンヒルズモリタワー10カイ",
    "street": null,
    "office_name": null,
    "office_name_kana": null
  },
  "6311": {
    "zip_code": "1056311",
    "prefecture": "東京都",
    "prefecture_kana": "トウキョウト",
    "prefecture_code": "13",
    "city": "港区",
    "city_kana": "ミナトク",
    "town": "虎ノ門虎ノ門ヒルズ森タワー　１１階",
    "town_kana": "トラノモントラノモンヒルズモリタワー11カイ",
    "street": null,
    "office_name": null,
    "office_name_kana": null
  },
  "6312": {
    "zip_code": "1056312",
    "prefecture": "東京都",
    "prefecture_kana": "トウキョウト",
    "prefecture_code": "13",
    "city": "港区",
    "city_kana": "ミナトク",
    "town": "虎ノ門虎ノ門ヒルズ森タワー　１２階",
    "town_kana": "トラノモントラノモンヒルズモリタワー12カイ",
    "street": null,
    "office_name": null,
    "office_name_kana": null
  },
  "6313": {
    "zip_code": "1056313",
    "prefecture": "東京都",
    "prefecture_kana": "トウキョウト",
    "prefecture_code": "13",
    "city": "港区",
    "city_kana": "ミナトク",
    "town": "虎ノ門虎ノ門ヒルズ森タワー　１３階",
    "town_kana": "トラノモントラノモンヒルズモリタワー13カイ",
    "street": null,
    "office_name": null,
    "office_name_kana": null
  },
  "6314": {
    "zip_code": "1056314",
    "prefecture": "東京都",
    "prefecture_kana": "トウキョウト",
    "prefecture_code": "13",
    "city": "港区",
    "city_kana": "ミナトク",
    "town": "虎ノ門虎ノ門ヒルズ森タワー　１４階",
    "town_kana": "トラノモントラノモンヒルズモリタワー14カイ",
    "street": null,
    "office_name": null,
    "office_name_kana": null
  },
  "6315": {
    "zip_code": "1056315",
    "prefecture": "東京都",
    "prefecture_kana": "トウキョウト",
    "prefecture_code": "13",
    "city": "港区",
    "city_kana": "ミナトク",
    "town": "虎ノ門虎ノ門ヒルズ森タワー　１５階",
    "town_kana": "トラノモントラノモンヒルズモリタワー15カイ",
    "street": null,
    "office_name": null,
    "office_name_kana": null
  },
  "6316": {
    "zip_code": "1056316",
    "prefecture": "東京都",
    "prefecture_kana": "トウキョウト",
    "prefecture_code": "13",
    "city": "港区",
    "city_kana": "ミナトク",
    "town": "虎ノ門虎ノ門ヒルズ森タワー　１６階",
    "town_kana": "トラノモントラノモンヒルズモリタワー16カイ",
    "street": null,
    "office_name": null,
    "office_name_kana": null
  },
  "6317": {
    "zip_code": "1056317",
    "prefecture": "東京都",
    "prefecture_kana": "トウキョウト",
    "prefecture_code": "13",
    "city": "港区",
    "city_kana": "ミナトク",
    "town": "虎ノ門虎ノ門ヒルズ森タワー　１７階",
    "town_kana": "トラノモントラノモンヒルズモリタワー17カイ",
    "street": null,
    "office_name": null,
    "office_name_kana": null
  },
  "6318": {
    "zip_code": "1056318",
    "prefecture": "東京都",
    "prefecture_kana": "トウキョウト",
    "prefecture_code": "13",
    "city": "港区",
    "city_kana": "ミナトク",
    "town": "虎ノ門虎ノ門ヒルズ森タワー　１８階",
    "town_kana": "トラノモントラノモンヒルズモリタワー18カイ",
    "street": null,
    "office_name": null,
    "office_name_kana": null
  },
  "6319": {
    "zip_code": "1056319",
    "prefecture": "東京都",
    "prefecture_kana": "トウキョウト",
    "prefecture_code": "13",
    "city": "港区",
    "city_kana": "ミナトク",
    "town": "虎ノ門虎ノ門ヒルズ森タワー　１９階",
    "town_kana": "トラノモントラノモンヒルズモリタワー19カイ",
    "street": null,
    "office_name": null,
    "office_name_kana": null
  },
  "6320": {
    "zip_code": "1056320",
    "prefecture": "東京都",
    "prefecture_kana": "トウキョウト",
    "prefecture_code": "13",
    "city": "港区",
    "city_kana": "ミナトク",
    "town": "虎ノ門虎ノ門ヒルズ森タワー　２０階",
    "town_kana": "トラノモントラノモンヒルズモリタワー20カイ",
    "street": null,
    "office_name": null,
    "office_name_kana": null
  },
  "6321": {
    "zip_code": "1056321",
    "prefecture": "東京都",
    "prefecture_kana": "トウキョウト",
    "prefecture_code": "13",
    "city": "港区",
    "city_kana": "ミナトク",
    "town": "虎ノ門虎ノ門ヒルズ森タワー　２１階",
    "town_kana": "トラノモントラノモンヒルズモリタワー21カイ",
    "street": null,
    "office_name": null,
    "office_name_kana": null
  },
  "6322": {
    "zip_code": "1056322",
    "prefecture": "東京都",
    "prefecture_kana": "トウキョウト",
    "prefecture_code": "13",
    "city": "港区",
    "city_kana": "ミナトク",
    "town": "虎ノ門虎ノ門ヒルズ森タワー　２２階",
    "town_kana": "トラノモントラノモンヒルズモリタワー22カイ",
    "street": null,
    "office_name": null,
    "office_name_kana": null
  },
  "6323": {
    "zip_code": "1056323",
    "prefecture": "東京都",
    "prefecture_kana": "トウキョウト",
    "prefecture_code": "13",
    "city": "港区",
    "city_kana": "ミナトク",
    "town": "虎ノ門虎ノ門ヒルズ森タワー　２３階",
    "town_kana": "トラノモントラノモンヒルズモリタワー23カイ",
    "street": null,
    "office_name": null,
    "office_name_kana": null
  },
  "6324": {
    "zip_code": "1056324",
    "prefecture": "東京都",
    "prefecture_kana": "トウキョウト",
    "prefecture_code": "13",
    "city": "港区",
    "city_kana": "ミナトク",
    "town": "虎ノ門虎ノ門ヒルズ森タワー　２４階",
    "town_kana": "トラノモントラノモンヒルズモリタワー24カイ",
    "street": null,
    "office_name": null,
    "office_name_kana": null
  },
  "6325": {
    "zip_code": "1056325",
    "prefecture": "東京都",
    "prefecture_kana": "トウキョウト",
    "prefecture_code": "13",
    "city": "港区",
    "city_kana": "ミナトク",
    "town": "虎ノ門虎ノ門ヒルズ森タワー　２５階",
    "town_kana": "トラノモントラノモンヒルズモリタワー25カイ",
    "street": null,
    "office_name": null,
    "office_name_kana": null
  },
  "6326": {
    "zip_code": "1056326",
    "prefecture": "東京都",
    "prefecture_kana": "トウキョウト",
    "prefecture_code": "13",
    "city": "港区",
    "city_kana": "ミナトク",
    "town": "虎ノ門虎ノ門ヒルズ森タワー　２６階",
    "town_kana": "トラノモントラノモンヒルズモリタワー26カイ",
    "street": null,
    "office_name": null,
    "office_name_kana": null
  },
  "6327": {
    "zip_code": "1056327",
    "prefecture": "東京都",
    "prefecture_kana": "トウキョウト",
    "prefecture_code": "13",
    "city": "港区",
    "city_kana": "ミナトク",
    "town": "虎ノ門虎ノ門ヒルズ森タワー　２７階",
    "town_kana": "トラノモントラノモンヒルズモリタワー27カイ",
    "street": null,
    "office_name": null,
    "office_name_kana": null
  },
  "6328": {
    "zip_code": "1056328",
    "prefecture": "東京都",
    "prefecture_kana": "トウキョウト",
    "prefecture_code": "13",
    "city": "港区",
    "city_kana": "ミナトク",
    "town": "虎ノ門虎ノ門ヒルズ森タワー　２８階",
    "town_kana": "トラノモントラノモンヒルズモリタワー28カイ",
    "street": null,
    "office_name": null,
    "office_name_kana": null
  },
  "6329": {
    "zip_code": "1056329",
    "prefecture": "東京都",
    "prefecture_kana": "トウキョウト",
    "prefecture_code": "13",
    "city": "港区",
    "city_kana": "ミナトク",
    "town": "虎ノ門虎ノ門ヒルズ森タワー　２９階",
    "town_kana": "トラノモントラノモンヒルズモリタワー29カイ",
    "street": null,
    "office_name": null,
    "office_name_kana": null
  },
  "6330": {
    "zip_code": "1056330",
    "prefecture": "東京都",
    "prefecture_kana": "トウキョウト",
    "prefecture_code": "13",
    "city": "港区",
    "city_kana": "ミナトク",
    "town": "虎ノ門虎ノ門ヒルズ森タワー　３０階",
    "town_kana": "トラノモントラノモンヒルズモリタワー30カイ",
    "street": null,
    "office_name": null,
    "office_name_kana": null
  },
  "6331": {
    "zip_code": "1056331",
    "prefecture": "東京都",
    "prefecture_kana": "トウキョウト",
    "prefecture_code": "13",
    "city": "港区",
    "city_kana": "ミナトク",
    "town": "虎ノ門虎ノ門ヒルズ森タワー　３１階",
    "town_kana": "トラノモントラノモンヒルズモリタワー31カイ",
    "street": null,
    "office_name": null,
    "office_name_kana": null
  },
  "6332": {
    "zip_code": "1056332",
    "prefecture": "東京都",
    "prefecture_kana": "トウキョウト",
    "prefecture_code": "13",
    "city": "港区",
    "city_kana": "ミナトク",
    "town": "虎ノ門虎ノ門ヒルズ森タワー　３２階",
    "town_kana": "トラノモントラノモンヒルズモリタワー32カイ",
    "street": null,
    "office_name": null,
    "office_name_kana": null
  },
  "6333": {
    "zip_code": "1056333",
    "prefecture": "東京都",
    "prefecture_kana": "トウキョウト",
    "prefecture_code": "13",
    "city": "港区",
    "city_kana": "ミナトク",
    "town": "虎ノ門虎ノ門ヒルズ森タワー　３３階",
    "town_kana": "トラノモントラノモンヒルズモリタワー33カイ",
    "street": null,
    "office_name": null,
    "office_name_kana": null
  },
  "6334": {
    "zip_code": "1056334",
    "prefecture": "東京都",
    "prefecture_kana": "トウキョウト",
    "prefecture_code": "13",
    "city": "港区",
    "city_kana": "ミナトク",
    "town": "虎ノ門虎ノ門ヒルズ森タワー　３４階",
    "town_kana": "トラノモントラノモンヒルズモリタワー34カイ",
    "street": null,
    "office_name": null,
    "office_name_kana": null
  },
  "6335": {
    "zip_code": "1056335",
    "prefecture": "東京都",
    "prefecture_kana": "トウキョウト",
    "prefecture_code": "13",
    "city": "港区",
    "city_kana": "ミナトク",
    "town": "虎ノ門虎ノ門ヒルズ森タワー　３５階",
    "town_kana": "トラノモントラノモンヒルズモリタワー35カイ",
    "street": null,
    "office_name": null,
    "office_name_kana": null
  },
  "6336": {
    "zip_code": "1056336",
    "prefecture": "東京都",
    "prefecture_kana": "トウキョウト",
    "prefecture_code": "13",
    "city": "港区",
    "city_kana": "ミナトク",
    "town": "虎ノ門虎ノ門ヒルズ森タワー　３６階",
    "town_kana": "トラノモントラノモンヒルズモリタワー36カイ",
    "street": null,
    "office_name": null,
    "office_name_kana": null
  },
  "6390": {
    "zip_code": "1056390",
    "prefecture": "東京都",
    "prefecture_kana": "トウキョウト",
    "prefecture_code": "13",
    "city": "港区",
    "city_kana": "ミナトク",
    "town": "虎ノ門虎ノ門ヒルズ森タワー",
    "town_kana": "トラノモントラノモンヒルズモリタワー",
    "street": null,
    "office_name": null,
    "office_name_kana": null
  },
  "7001": {
    "zip_code": "1057001",
    "prefecture": "東京都",
    "prefecture_kana": "トウキョウト",
    "prefecture_code": "13",
    "city": "港区",
    "city_kana": "ミナトク",
    "town": "東新橋電通本社ビル　１階",
    "town_kana": "ヒガシシンバシデンツウホンシャビル1カイ",
    "street": null,
    "office_name": null,
    "office_name_kana": null
  },
  "7002": {
    "zip_code": "1057002",
    "prefecture": "東京都",
    "prefecture_kana": "トウキョウト",
    "prefecture_code": "13",
    "city": "港区",
    "city_kana": "ミナトク",
    "town": "東新橋電通本社ビル　２階",
    "town_kana": "ヒガシシンバシデンツウホンシャビル2カイ",
    "street": null,
    "office_name": null,
    "office_name_kana": null
  },
  "7003": {
    "zip_code": "1057003",
    "prefecture": "東京都",
    "prefecture_kana": "トウキョウト",
    "prefecture_code": "13",
    "city": "港区",
    "city_kana": "ミナトク",
    "town": "東新橋電通本社ビル　３階",
    "town_kana": "ヒガシシンバシデンツウホンシャビル3カイ",
    "street": null,
    "office_name": null,
    "office_name_kana": null
  },
  "7004": {
    "zip_code": "1057004",
    "prefecture": "東京都",
    "prefecture_kana": "トウキョウト",
    "prefecture_code": "13",
    "city": "港区",
    "city_kana": "ミナトク",
    "town": "東新橋電通本社ビル　４階",
    "town_kana": "ヒガシシンバシデンツウホンシャビル4カイ",
    "street": null,
    "office_name": null,
    "office_name_kana": null
  },
  "7005": {
    "zip_code": "1057005",
    "prefecture": "東京都",
    "prefecture_kana": "トウキョウト",
    "prefecture_code": "13",
    "city": "港区",
    "city_kana": "ミナトク",
    "town": "東新橋電通本社ビル　５階",
    "town_kana": "ヒガシシンバシデンツウホンシャビル5カイ",
    "street": null,
    "office_name": null,
    "office_name_kana": null
  },
  "7006": {
    "zip_code": "1057006",
    "prefecture": "東京都",
    "prefecture_kana": "トウキョウト",
    "prefecture_code": "13",
    "city": "港区",
    "city_kana": "ミナトク",
    "town": "東新橋電通本社ビル　６階",
    "town_kana": "ヒガシシンバシデンツウホンシャビル6カイ",
    "street": null,
    "office_name": null,
    "office_name_kana": null
  },
  "7007": {
    "zip_code": "1057007",
    "prefecture": "東京都",
    "prefecture_kana": "トウキョウト",
    "prefecture_code": "13",
    "city": "港区",
    "city_kana": "ミナトク",
    "town": "東新橋電通本社ビル　７階",
    "town_kana": "ヒガシシンバシデンツウホンシャビル7カイ",
    "street": null,
    "office_name": null,
    "office_name_kana": null
  },
  "7008": {
    "zip_code": "1057008",
    "prefecture": "東京都",
    "prefecture_kana": "トウキョウト",
    "prefecture_code": "13",
    "city": "港区",
    "city_kana": "ミナトク",
    "town": "東新橋電通本社ビル　８階",
    "town_kana": "ヒガシシンバシデンツウホンシャビル8カイ",
    "street": null,
    "office_name": null,
    "office_name_kana": null
  },
  "7009": {
    "zip_code": "1057009",
    "prefecture": "東京都",
    "prefecture_kana": "トウキョウト",
    "prefecture_code": "13",
    "city": "港区",
    "city_kana": "ミナトク",
    "town": "東新橋電通本社ビル　９階",
    "town_kana": "ヒガシシンバシデンツウホンシャビル9カイ",
    "street": null,
    "office_name": null,
    "office_name_kana": null
  },
  "7010": {
    "zip_code": "1057010",
    "prefecture": "東京都",
    "prefecture_kana": "トウキョウト",
    "prefecture_code": "13",
    "city": "港区",
    "city_kana": "ミナトク",
    "town": "東新橋電通本社ビル　１０階",
    "town_kana": "ヒガシシンバシデンツウホンシャビル10カイ",
    "street": null,
    "office_name": null,
    "office_name_kana": null
  },
  "7011": {
    "zip_code": "1057011",
    "prefecture": "東京都",
    "prefecture_kana": "トウキョウト",
    "prefecture_code": "13",
    "city": "港区",
    "city_kana": "ミナトク",
    "town": "東新橋電通本社ビル　１１階",
    "town_kana": "ヒガシシンバシデンツウホンシャビル11カイ",
    "street": null,
    "office_name": null,
    "office_name_kana": null
  },
  "7012": {
    "zip_code": "1057012",
    "prefecture": "東京都",
    "prefecture_kana": "トウキョウト",
    "prefecture_code": "13",
    "city": "港区",
    "city_kana": "ミナトク",
    "town": "東新橋電通本社ビル　１２階",
    "town_kana": "ヒガシシンバシデンツウホンシャビル12カイ",
    "street": null,
    "office_name": null,
    "office_name_kana": null
  },
  "7013": {
    "zip_code": "1057013",
    "prefecture": "東京都",
    "prefecture_kana": "トウキョウト",
    "prefecture_code": "13",
    "city": "港区",
    "city_kana": "ミナトク",
    "town": "東新橋電通本社ビル　１３階",
    "town_kana": "ヒガシシンバシデンツウホンシャビル13カイ",
    "street": null,
    "office_name": null,
    "office_name_kana": null
  },
  "7014": {
    "zip_code": "1057014",
    "prefecture": "東京都",
    "prefecture_kana": "トウキョウト",
    "prefecture_code": "13",
    "city": "港区",
    "city_kana": "ミナトク",
    "town": "東新橋電通本社ビル　１４階",
    "town_kana": "ヒガシシンバシデンツウホンシャビル14カイ",
    "street": null,
    "office_name": null,
    "office_name_kana": null
  },
  "7015": {
    "zip_code": "1057015",
    "prefecture": "東京都",
    "prefecture_kana": "トウキョウト",
    "prefecture_code": "13",
    "city": "港区",
    "city_kana": "ミナトク",
    "town": "東新橋電通本社ビル　１５階",
    "town_kana": "ヒガシシンバシデンツウホンシャビル15カイ",
    "street": null,
    "office_name": null,
    "office_name_kana": null
  },
  "7016": {
    "zip_code": "1057016",
    "prefecture": "東京都",
    "prefecture_kana": "トウキョウト",
    "prefecture_code": "13",
    "city": "港区",
    "city_kana": "ミナトク",
    "town": "東新橋電通本社ビル　１６階",
    "town_kana": "ヒガシシンバシデンツウホンシャビル16カイ",
    "street": null,
    "office_name": null,
    "office_name_kana": null
  },
  "7017": {
    "zip_code": "1057017",
    "prefecture": "東京都",
    "prefecture_kana": "トウキョウト",
    "prefecture_code": "13",
    "city": "港区",
    "city_kana": "ミナトク",
    "town": "東新橋電通本社ビル　１７階",
    "town_kana": "ヒガシシンバシデンツウホンシャビル17カイ",
    "street": null,
    "office_name": null,
    "office_name_kana": null
  },
  "7018": {
    "zip_code": "1057018",
    "prefecture": "東京都",
    "prefecture_kana": "トウキョウト",
    "prefecture_code": "13",
    "city": "港区",
    "city_kana": "ミナトク",
    "town": "東新橋電通本社ビル　１８階",
    "town_kana": "ヒガシシンバシデンツウホンシャビル18カイ",
    "street": null,
    "office_name": null,
    "office_name_kana": null
  },
  "7019": {
    "zip_code": "1057019",
    "prefecture": "東京都",
    "prefecture_kana": "トウキョウト",
    "prefecture_code": "13",
    "city": "港区",
    "city_kana": "ミナトク",
    "town": "東新橋電通本社ビル　１９階",
    "town_kana": "ヒガシシンバシデンツウホンシャビル19カイ",
    "street": null,
    "office_name": null,
    "office_name_kana": null
  },
  "7020": {
    "zip_code": "1057020",
    "prefecture": "東京都",
    "prefecture_kana": "トウキョウト",
    "prefecture_code": "13",
    "city": "港区",
    "city_kana": "ミナトク",
    "town": "東新橋電通本社ビル　２０階",
    "town_kana": "ヒガシシンバシデンツウホンシャビル20カイ",
    "street": null,
    "office_name": null,
    "office_name_kana": null
  },
  "7021": {
    "zip_code": "1057021",
    "prefecture": "東京都",
    "prefecture_kana": "トウキョウト",
    "prefecture_code": "13",
    "city": "港区",
    "city_kana": "ミナトク",
    "town": "東新橋電通本社ビル　２１階",
    "town_kana": "ヒガシシンバシデンツウホンシャビル21カイ",
    "street": null,
    "office_name": null,
    "office_name_kana": null
  },
  "7022": {
    "zip_code": "1057022",
    "prefecture": "東京都",
    "prefecture_kana": "トウキョウト",
    "prefecture_code": "13",
    "city": "港区",
    "city_kana": "ミナトク",
    "town": "東新橋電通本社ビル　２２階",
    "town_kana": "ヒガシシンバシデンツウホンシャビル22カイ",
    "street": null,
    "office_name": null,
    "office_name_kana": null
  },
  "7023": {
    "zip_code": "1057023",
    "prefecture": "東京都",
    "prefecture_kana": "トウキョウト",
    "prefecture_code": "13",
    "city": "港区",
    "city_kana": "ミナトク",
    "town": "東新橋電通本社ビル　２３階",
    "town_kana": "ヒガシシンバシデンツウホンシャビル23カイ",
    "street": null,
    "office_name": null,
    "office_name_kana": null
  },
  "7024": {
    "zip_code": "1057024",
    "prefecture": "東京都",
    "prefecture_kana": "トウキョウト",
    "prefecture_code": "13",
    "city": "港区",
    "city_kana": "ミナトク",
    "town": "東新橋電通本社ビル　２４階",
    "town_kana": "ヒガシシンバシデンツウホンシャビル24カイ",
    "street": null,
    "office_name": null,
    "office_name_kana": null
  },
  "7025": {
    "zip_code": "1057025",
    "prefecture": "東京都",
    "prefecture_kana": "トウキョウト",
    "prefecture_code": "13",
    "city": "港区",
    "city_kana": "ミナトク",
    "town": "東新橋電通本社ビル　２５階",
    "town_kana": "ヒガシシンバシデンツウホンシャビル25カイ",
    "street": null,
    "office_name": null,
    "office_name_kana": null
  },
  "7026": {
    "zip_code": "1057026",
    "prefecture": "東京都",
    "prefecture_kana": "トウキョウト",
    "prefecture_code": "13",
    "city": "港区",
    "city_kana": "ミナトク",
    "town": "東新橋電通本社ビル　２６階",
    "town_kana": "ヒガシシンバシデンツウホンシャビル26カイ",
    "street": null,
    "office_name": null,
    "office_name_kana": null
  },
  "7027": {
    "zip_code": "1057027",
    "prefecture": "東京都",
    "prefecture_kana": "トウキョウト",
    "prefecture_code": "13",
    "city": "港区",
    "city_kana": "ミナトク",
    "town": "東新橋電通本社ビル　２７階",
    "town_kana": "ヒガシシンバシデンツウホンシャビル27カイ",
    "street": null,
    "office_name": null,
    "office_name_kana": null
  },
  "7028": {
    "zip_code": "1057028",
    "prefecture": "東京都",
    "prefecture_kana": "トウキョウト",
    "prefecture_code": "13",
    "city": "港区",
    "city_kana": "ミナトク",
    "town": "東新橋電通本社ビル　２８階",
    "town_kana": "ヒガシシンバシデンツウホンシャビル28カイ",
    "street": null,
    "office_name": null,
    "office_name_kana": null
  },
  "7029": {
    "zip_code": "1057029",
    "prefecture": "東京都",
    "prefecture_kana": "トウキョウト",
    "prefecture_code": "13",
    "city": "港区",
    "city_kana": "ミナトク",
    "town": "東新橋電通本社ビル　２９階",
    "town_kana": "ヒガシシンバシデンツウホンシャビル29カイ",
    "street": null,
    "office_name": null,
    "office_name_kana": null
  },
  "7030": {
    "zip_code": "1057030",
    "prefecture": "東京都",
    "prefecture_kana": "トウキョウト",
    "prefecture_code": "13",
    "city": "港区",
    "city_kana": "ミナトク",
    "town": "東新橋電通本社ビル　３０階",
    "town_kana": "ヒガシシンバシデンツウホンシャビル30カイ",
    "street": null,
    "office_name": null,
    "office_name_kana": null
  },
  "7031": {
    "zip_code": "1057031",
    "prefecture": "東京都",
    "prefecture_kana": "トウキョウト",
    "prefecture_code": "13",
    "city": "港区",
    "city_kana": "ミナトク",
    "town": "東新橋電通本社ビル　３１階",
    "town_kana": "ヒガシシンバシデンツウホンシャビル31カイ",
    "street": null,
    "office_name": null,
    "office_name_kana": null
  },
  "7032": {
    "zip_code": "1057032",
    "prefecture": "東京都",
    "prefecture_kana": "トウキョウト",
    "prefecture_code": "13",
    "city": "港区",
    "city_kana": "ミナトク",
    "town": "東新橋電通本社ビル　３２階",
    "town_kana": "ヒガシシンバシデンツウホンシャビル32カイ",
    "street": null,
    "office_name": null,
    "office_name_kana": null
  },
  "7033": {
    "zip_code": "1057033",
    "prefecture": "東京都",
    "prefecture_kana": "トウキョウト",
    "prefecture_code": "13",
    "city": "港区",
    "city_kana": "ミナトク",
    "town": "東新橋電通本社ビル　３３階",
    "town_kana": "ヒガシシンバシデンツウホンシャビル33カイ",
    "street": null,
    "office_name": null,
    "office_name_kana": null
  },
  "7034": {
    "zip_code": "1057034",
    "prefecture": "東京都",
    "prefecture_kana": "トウキョウト",
    "prefecture_code": "13",
    "city": "港区",
    "city_kana": "ミナトク",
    "town": "東新橋電通本社ビル　３４階",
    "town_kana": "ヒガシシンバシデンツウホンシャビル34カイ",
    "street": null,
    "office_name": null,
    "office_name_kana": null
  },
  "7035": {
    "zip_code": "1057035",
    "prefecture": "東京都",
    "prefecture_kana": "トウキョウト",
    "prefecture_code": "13",
    "city": "港区",
    "city_kana": "ミナトク",
    "town": "東新橋電通本社ビル　３５階",
    "town_kana": "ヒガシシンバシデンツウホンシャビル35カイ",
    "street": null,
    "office_name": null,
    "office_name_kana": null
  },
  "7036": {
    "zip_code": "1057036",
    "prefecture": "東京都",
    "prefecture_kana": "トウキョウト",
    "prefecture_code": "13",
    "city": "港区",
    "city_kana": "ミナトク",
    "town": "東新橋電通本社ビル　３６階",
    "town_kana": "ヒガシシンバシデンツウホンシャビル36カイ",
    "street": null,
    "office_name": null,
    "office_name_kana": null
  },
  "7037": {
    "zip_code": "1057037",
    "prefecture": "東京都",
    "prefecture_kana": "トウキョウト",
    "prefecture_code": "13",
    "city": "港区",
    "city_kana": "ミナトク",
    "town": "東新橋電通本社ビル　３７階",
    "town_kana": "ヒガシシンバシデンツウホンシャビル37カイ",
    "street": null,
    "office_name": null,
    "office_name_kana": null
  },
  "7038": {
    "zip_code": "1057038",
    "prefecture": "東京都",
    "prefecture_kana": "トウキョウト",
    "prefecture_code": "13",
    "city": "港区",
    "city_kana": "ミナトク",
    "town": "東新橋電通本社ビル　３８階",
    "town_kana": "ヒガシシンバシデンツウホンシャビル38カイ",
    "street": null,
    "office_name": null,
    "office_name_kana": null
  },
  "7039": {
    "zip_code": "1057039",
    "prefecture": "東京都",
    "prefecture_kana": "トウキョウト",
    "prefecture_code": "13",
    "city": "港区",
    "city_kana": "ミナトク",
    "town": "東新橋電通本社ビル　３９階",
    "town_kana": "ヒガシシンバシデンツウホンシャビル39カイ",
    "street": null,
    "office_name": null,
    "office_name_kana": null
  },
  "7040": {
    "zip_code": "1057040",
    "prefecture": "東京都",
    "prefecture_kana": "トウキョウト",
    "prefecture_code": "13",
    "city": "港区",
    "city_kana": "ミナトク",
    "town": "東新橋電通本社ビル　４０階",
    "town_kana": "ヒガシシンバシデンツウホンシャビル40カイ",
    "street": null,
    "office_name": null,
    "office_name_kana": null
  },
  "7041": {
    "zip_code": "1057041",
    "prefecture": "東京都",
    "prefecture_kana": "トウキョウト",
    "prefecture_code": "13",
    "city": "港区",
    "city_kana": "ミナトク",
    "town": "東新橋電通本社ビル　４１階",
    "town_kana": "ヒガシシンバシデンツウホンシャビル41カイ",
    "street": null,
    "office_name": null,
    "office_name_kana": null
  },
  "7042": {
    "zip_code": "1057042",
    "prefecture": "東京都",
    "prefecture_kana": "トウキョウト",
    "prefecture_code": "13",
    "city": "港区",
    "city_kana": "ミナトク",
    "town": "東新橋電通本社ビル　４２階",
    "town_kana": "ヒガシシンバシデンツウホンシャビル42カイ",
    "street": null,
    "office_name": null,
    "office_name_kana": null
  },
  "7043": {
    "zip_code": "1057043",
    "prefecture": "東京都",
    "prefecture_kana": "トウキョウト",
    "prefecture_code": "13",
    "city": "港区",
    "city_kana": "ミナトク",
    "town": "東新橋電通本社ビル　４３階",
    "town_kana": "ヒガシシンバシデンツウホンシャビル43カイ",
    "street": null,
    "office_name": null,
    "office_name_kana": null
  },
  "7044": {
    "zip_code": "1057044",
    "prefecture": "東京都",
    "prefecture_kana": "トウキョウト",
    "prefecture_code": "13",
    "city": "港区",
    "city_kana": "ミナトク",
    "town": "東新橋電通本社ビル　４４階",
    "town_kana": "ヒガシシンバシデンツウホンシャビル44カイ",
    "street": null,
    "office_name": null,
    "office_name_kana": null
  },
  "7045": {
    "zip_code": "1057045",
    "prefecture": "東京都",
    "prefecture_kana": "トウキョウト",
    "prefecture_code": "13",
    "city": "港区",
    "city_kana": "ミナトク",
    "town": "東新橋電通本社ビル　４５階",
    "town_kana": "ヒガシシンバシデンツウホンシャビル45カイ",
    "street": null,
    "office_name": null,
    "office_name_kana": null
  },
  "7046": {
    "zip_code": "1057046",
    "prefecture": "東京都",
    "prefecture_kana": "トウキョウト",
    "prefecture_code": "13",
    "city": "港区",
    "city_kana": "ミナトク",
    "town": "東新橋電通本社ビル　４６階",
    "town_kana": "ヒガシシンバシデンツウホンシャビル46カイ",
    "street": null,
    "office_name": null,
    "office_name_kana": null
  },
  "7047": {
    "zip_code": "1057047",
    "prefecture": "東京都",
    "prefecture_kana": "トウキョウト",
    "prefecture_code": "13",
    "city": "港区",
    "city_kana": "ミナトク",
    "town": "東新橋電通本社ビル　４７階",
    "town_kana": "ヒガシシンバシデンツウホンシャビル47カイ",
    "street": null,
    "office_name": null,
    "office_name_kana": null
  },
  "7077": {
    "zip_code": "1057077",
    "prefecture": "東京都",
    "prefecture_kana": "トウキョウト",
    "prefecture_code": "13",
    "city": "港区",
    "city_kana": "ミナトク",
    "town": "東新橋",
    "town_kana": "ヒガシシンバシ",
    "street": "１−８−１",
    "office_name": "株式会社　電通デジタル",
    "office_name_kana": "カブシキガイシヤ デンツウデジタル"
  },
  "7090": {
    "zip_code": "1057090",
    "prefecture": "東京都",
    "prefecture_kana": "トウキョウト",
    "prefecture_code": "13",
    "city": "港区",
    "city_kana": "ミナトク",
    "town": "東新橋電通本社ビル",
    "town_kana": "ヒガシシンバシデンツウホンシャビル",
    "street": null,
    "office_name": null,
    "office_name_kana": null
  },
  "7101": {
    "zip_code": "1057101",
    "prefecture": "東京都",
    "prefecture_kana": "トウキョウト",
    "prefecture_code": "13",
    "city": "港区",
    "city_kana": "ミナトク",
    "town": "東新橋汐留シティセンター　１階",
    "town_kana": "ヒガシシンバシシオドメシティセンター1カイ",
    "street": null,
    "office_name": null,
    "office_name_kana": null
  },
  "7102": {
    "zip_code": "1057102",
    "prefecture": "東京都",
    "prefecture_kana": "トウキョウト",
    "prefecture_code": "13",
    "city": "港区",
    "city_kana": "ミナトク",
    "town": "東新橋汐留シティセンター　２階",
    "town_kana": "ヒガシシンバシシオドメシティセンター2カイ",
    "street": null,
    "office_name": null,
    "office_name_kana": null
  },
  "7103": {
    "zip_code": "1057103",
    "prefecture": "東京都",
    "prefecture_kana": "トウキョウト",
    "prefecture_code": "13",
    "city": "港区",
    "city_kana": "ミナトク",
    "town": "東新橋汐留シティセンター　３階",
    "town_kana": "ヒガシシンバシシオドメシティセンター3カイ",
    "street": null,
    "office_name": null,
    "office_name_kana": null
  },
  "7104": {
    "zip_code": "1057104",
    "prefecture": "東京都",
    "prefecture_kana": "トウキョウト",
    "prefecture_code": "13",
    "city": "港区",
    "city_kana": "ミナトク",
    "town": "東新橋汐留シティセンター　４階",
    "town_kana": "ヒガシシンバシシオドメシティセンター4カイ",
    "street": null,
    "office_name": null,
    "office_name_kana": null
  },
  "7105": {
    "zip_code": "1057105",
    "prefecture": "東京都",
    "prefecture_kana": "トウキョウト",
    "prefecture_code": "13",
    "city": "港区",
    "city_kana": "ミナトク",
    "town": "東新橋汐留シティセンター　５階",
    "town_kana": "ヒガシシンバシシオドメシティセンター5カイ",
    "street": null,
    "office_name": null,
    "office_name_kana": null
  },
  "7106": {
    "zip_code": "1057106",
    "prefecture": "東京都",
    "prefecture_kana": "トウキョウト",
    "prefecture_code": "13",
    "city": "港区",
    "city_kana": "ミナトク",
    "town": "東新橋汐留シティセンター　６階",
    "town_kana": "ヒガシシンバシシオドメシティセンター6カイ",
    "street": null,
    "office_name": null,
    "office_name_kana": null
  },
  "7107": {
    "zip_code": "1057107",
    "prefecture": "東京都",
    "prefecture_kana": "トウキョウト",
    "prefecture_code": "13",
    "city": "港区",
    "city_kana": "ミナトク",
    "town": "東新橋汐留シティセンター　７階",
    "town_kana": "ヒガシシンバシシオドメシティセンター7カイ",
    "street": null,
    "office_name": null,
    "office_name_kana": null
  },
  "7108": {
    "zip_code": "1057108",
    "prefecture": "東京都",
    "prefecture_kana": "トウキョウト",
    "prefecture_code": "13",
    "city": "港区",
    "city_kana": "ミナトク",
    "town": "東新橋汐留シティセンター　８階",
    "town_kana": "ヒガシシンバシシオドメシティセンター8カイ",
    "street": null,
    "office_name": null,
    "office_name_kana": null
  },
  "7109": {
    "zip_code": "1057109",
    "prefecture": "東京都",
    "prefecture_kana": "トウキョウト",
    "prefecture_code": "13",
    "city": "港区",
    "city_kana": "ミナトク",
    "town": "東新橋汐留シティセンター　９階",
    "town_kana": "ヒガシシンバシシオドメシティセンター9カイ",
    "street": null,
    "office_name": null,
    "office_name_kana": null
  },
  "7110": {
    "zip_code": "1057110",
    "prefecture": "東京都",
    "prefecture_kana": "トウキョウト",
    "prefecture_code": "13",
    "city": "港区",
    "city_kana": "ミナトク",
    "town": "東新橋汐留シティセンター　１０階",
    "town_kana": "ヒガシシンバシシオドメシティセンター10カイ",
    "street": null,
    "office_name": null,
    "office_name_kana": null
  },
  "7111": {
    "zip_code": "1057111",
    "prefecture": "東京都",
    "prefecture_kana": "トウキョウト",
    "prefecture_code": "13",
    "city": "港区",
    "city_kana": "ミナトク",
    "town": "東新橋汐留シティセンター　１１階",
    "town_kana": "ヒガシシンバシシオドメシティセンター11カイ",
    "street": null,
    "office_name": null,
    "office_name_kana": null
  },
  "7112": {
    "zip_code": "1057112",
    "prefecture": "東京都",
    "prefecture_kana": "トウキョウト",
    "prefecture_code": "13",
    "city": "港区",
    "city_kana": "ミナトク",
    "town": "東新橋汐留シティセンター　１２階",
    "town_kana": "ヒガシシンバシシオドメシティセンター12カイ",
    "street": null,
    "office_name": null,
    "office_name_kana": null
  },
  "7113": {
    "zip_code": "1057113",
    "prefecture": "東京都",
    "prefecture_kana": "トウキョウト",
    "prefecture_code": "13",
    "city": "港区",
    "city_kana": "ミナトク",
    "town": "東新橋汐留シティセンター　１３階",
    "town_kana": "ヒガシシンバシシオドメシティセンター13カイ",
    "street": null,
    "office_name": null,
    "office_name_kana": null
  },
  "7114": {
    "zip_code": "1057114",
    "prefecture": "東京都",
    "prefecture_kana": "トウキョウト",
    "prefecture_code": "13",
    "city": "港区",
    "city_kana": "ミナトク",
    "town": "東新橋汐留シティセンター　１４階",
    "town_kana": "ヒガシシンバシシオドメシティセンター14カイ",
    "street": null,
    "office_name": null,
    "office_name_kana": null
  },
  "7115": {
    "zip_code": "1057115",
    "prefecture": "東京都",
    "prefecture_kana": "トウキョウト",
    "prefecture_code": "13",
    "city": "港区",
    "city_kana": "ミナトク",
    "town": "東新橋汐留シティセンター　１５階",
    "town_kana": "ヒガシシンバシシオドメシティセンター15カイ",
    "street": null,
    "office_name": null,
    "office_name_kana": null
  },
  "7116": {
    "zip_code": "1057116",
    "prefecture": "東京都",
    "prefecture_kana": "トウキョウト",
    "prefecture_code": "13",
    "city": "港区",
    "city_kana": "ミナトク",
    "town": "東新橋汐留シティセンター　１６階",
    "town_kana": "ヒガシシンバシシオドメシティセンター16カイ",
    "street": null,
    "office_name": null,
    "office_name_kana": null
  },
  "7117": {
    "zip_code": "1057117",
    "prefecture": "東京都",
    "prefecture_kana": "トウキョウト",
    "prefecture_code": "13",
    "city": "港区",
    "city_kana": "ミナトク",
    "town": "東新橋汐留シティセンター　１７階",
    "town_kana": "ヒガシシンバシシオドメシティセンター17カイ",
    "street": null,
    "office_name": null,
    "office_name_kana": null
  },
  "7118": {
    "zip_code": "1057118",
    "prefecture": "東京都",
    "prefecture_kana": "トウキョウト",
    "prefecture_code": "13",
    "city": "港区",
    "city_kana": "ミナトク",
    "town": "東新橋汐留シティセンター　１８階",
    "town_kana": "ヒガシシンバシシオドメシティセンター18カイ",
    "street": null,
    "office_name": null,
    "office_name_kana": null
  },
  "7119": {
    "zip_code": "1057119",
    "prefecture": "東京都",
    "prefecture_kana": "トウキョウト",
    "prefecture_code": "13",
    "city": "港区",
    "city_kana": "ミナトク",
    "town": "東新橋汐留シティセンター　１９階",
    "town_kana": "ヒガシシンバシシオドメシティセンター19カイ",
    "street": null,
    "office_name": null,
    "office_name_kana": null
  },
  "7120": {
    "zip_code": "1057120",
    "prefecture": "東京都",
    "prefecture_kana": "トウキョウト",
    "prefecture_code": "13",
    "city": "港区",
    "city_kana": "ミナトク",
    "town": "東新橋汐留シティセンター　２０階",
    "town_kana": "ヒガシシンバシシオドメシティセンター20カイ",
    "street": null,
    "office_name": null,
    "office_name_kana": null
  },
  "7121": {
    "zip_code": "1057121",
    "prefecture": "東京都",
    "prefecture_kana": "トウキョウト",
    "prefecture_code": "13",
    "city": "港区",
    "city_kana": "ミナトク",
    "town": "東新橋汐留シティセンター　２１階",
    "town_kana": "ヒガシシンバシシオドメシティセンター21カイ",
    "street": null,
    "office_name": null,
    "office_name_kana": null
  },
  "7122": {
    "zip_code": "1057122",
    "prefecture": "東京都",
    "prefecture_kana": "トウキョウト",
    "prefecture_code": "13",
    "city": "港区",
    "city_kana": "ミナトク",
    "town": "東新橋汐留シティセンター　２２階",
    "town_kana": "ヒガシシンバシシオドメシティセンター22カイ",
    "street": null,
    "office_name": null,
    "office_name_kana": null
  },
  "7123": {
    "zip_code": "1057123",
    "prefecture": "東京都",
    "prefecture_kana": "トウキョウト",
    "prefecture_code": "13",
    "city": "港区",
    "city_kana": "ミナトク",
    "town": "東新橋汐留シティセンター　２３階",
    "town_kana": "ヒガシシンバシシオドメシティセンター23カイ",
    "street": null,
    "office_name": null,
    "office_name_kana": null
  },
  "7124": {
    "zip_code": "1057124",
    "prefecture": "東京都",
    "prefecture_kana": "トウキョウト",
    "prefecture_code": "13",
    "city": "港区",
    "city_kana": "ミナトク",
    "town": "東新橋汐留シティセンター　２４階",
    "town_kana": "ヒガシシンバシシオドメシティセンター24カイ",
    "street": null,
    "office_name": null,
    "office_name_kana": null
  },
  "7125": {
    "zip_code": "1057125",
    "prefecture": "東京都",
    "prefecture_kana": "トウキョウト",
    "prefecture_code": "13",
    "city": "港区",
    "city_kana": "ミナトク",
    "town": "東新橋汐留シティセンター　２５階",
    "town_kana": "ヒガシシンバシシオドメシティセンター25カイ",
    "street": null,
    "office_name": null,
    "office_name_kana": null
  },
  "7126": {
    "zip_code": "1057126",
    "prefecture": "東京都",
    "prefecture_kana": "トウキョウト",
    "prefecture_code": "13",
    "city": "港区",
    "city_kana": "ミナトク",
    "town": "東新橋汐留シティセンター　２６階",
    "town_kana": "ヒガシシンバシシオドメシティセンター26カイ",
    "street": null,
    "office_name": null,
    "office_name_kana": null
  },
  "7127": {
    "zip_code": "1057127",
    "prefecture": "東京都",
    "prefecture_kana": "トウキョウト",
    "prefecture_code": "13",
    "city": "港区",
    "city_kana": "ミナトク",
    "town": "東新橋汐留シティセンター　２７階",
    "town_kana": "ヒガシシンバシシオドメシティセンター27カイ",
    "street": null,
    "office_name": null,
    "office_name_kana": null
  },
  "7128": {
    "zip_code": "1057128",
    "prefecture": "東京都",
    "prefecture_kana": "トウキョウト",
    "prefecture_code": "13",
    "city": "港区",
    "city_kana": "ミナトク",
    "town": "東新橋汐留シティセンター　２８階",
    "town_kana": "ヒガシシンバシシオドメシティセンター28カイ",
    "street": null,
    "office_name": null,
    "office_name_kana": null
  },
  "7129": {
    "zip_code": "1057129",
    "prefecture": "東京都",
    "prefecture_kana": "トウキョウト",
    "prefecture_code": "13",
    "city": "港区",
    "city_kana": "ミナトク",
    "town": "東新橋汐留シティセンター　２９階",
    "town_kana": "ヒガシシンバシシオドメシティセンター29カイ",
    "street": null,
    "office_name": null,
    "office_name_kana": null
  },
  "7130": {
    "zip_code": "1057130",
    "prefecture": "東京都",
    "prefecture_kana": "トウキョウト",
    "prefecture_code": "13",
    "city": "港区",
    "city_kana": "ミナトク",
    "town": "東新橋汐留シティセンター　３０階",
    "town_kana": "ヒガシシンバシシオドメシティセンター30カイ",
    "street": null,
    "office_name": null,
    "office_name_kana": null
  },
  "7131": {
    "zip_code": "1057131",
    "prefecture": "東京都",
    "prefecture_kana": "トウキョウト",
    "prefecture_code": "13",
    "city": "港区",
    "city_kana": "ミナトク",
    "town": "東新橋汐留シティセンター　３１階",
    "town_kana": "ヒガシシンバシシオドメシティセンター31カイ",
    "street": null,
    "office_name": null,
    "office_name_kana": null
  },
  "7132": {
    "zip_code": "1057132",
    "prefecture": "東京都",
    "prefecture_kana": "トウキョウト",
    "prefecture_code": "13",
    "city": "港区",
    "city_kana": "ミナトク",
    "town": "東新橋汐留シティセンター　３２階",
    "town_kana": "ヒガシシンバシシオドメシティセンター32カイ",
    "street": null,
    "office_name": null,
    "office_name_kana": null
  },
  "7133": {
    "zip_code": "1057133",
    "prefecture": "東京都",
    "prefecture_kana": "トウキョウト",
    "prefecture_code": "13",
    "city": "港区",
    "city_kana": "ミナトク",
    "town": "東新橋汐留シティセンター　３３階",
    "town_kana": "ヒガシシンバシシオドメシティセンター33カイ",
    "street": null,
    "office_name": null,
    "office_name_kana": null
  },
  "7134": {
    "zip_code": "1057134",
    "prefecture": "東京都",
    "prefecture_kana": "トウキョウト",
    "prefecture_code": "13",
    "city": "港区",
    "city_kana": "ミナトク",
    "town": "東新橋汐留シティセンター　３４階",
    "town_kana": "ヒガシシンバシシオドメシティセンター34カイ",
    "street": null,
    "office_name": null,
    "office_name_kana": null
  },
  "7135": {
    "zip_code": "1057135",
    "prefecture": "東京都",
    "prefecture_kana": "トウキョウト",
    "prefecture_code": "13",
    "city": "港区",
    "city_kana": "ミナトク",
    "town": "東新橋汐留シティセンター　３５階",
    "town_kana": "ヒガシシンバシシオドメシティセンター35カイ",
    "street": null,
    "office_name": null,
    "office_name_kana": null
  },
  "7136": {
    "zip_code": "1057136",
    "prefecture": "東京都",
    "prefecture_kana": "トウキョウト",
    "prefecture_code": "13",
    "city": "港区",
    "city_kana": "ミナトク",
    "town": "東新橋汐留シティセンター　３６階",
    "town_kana": "ヒガシシンバシシオドメシティセンター36カイ",
    "street": null,
    "office_name": null,
    "office_name_kana": null
  },
  "7137": {
    "zip_code": "1057137",
    "prefecture": "東京都",
    "prefecture_kana": "トウキョウト",
    "prefecture_code": "13",
    "city": "港区",
    "city_kana": "ミナトク",
    "town": "東新橋汐留シティセンター　３７階",
    "town_kana": "ヒガシシンバシシオドメシティセンター37カイ",
    "street": null,
    "office_name": null,
    "office_name_kana": null
  },
  "7138": {
    "zip_code": "1057138",
    "prefecture": "東京都",
    "prefecture_kana": "トウキョウト",
    "prefecture_code": "13",
    "city": "港区",
    "city_kana": "ミナトク",
    "town": "東新橋汐留シティセンター　３８階",
    "town_kana": "ヒガシシンバシシオドメシティセンター38カイ",
    "street": null,
    "office_name": null,
    "office_name_kana": null
  },
  "7139": {
    "zip_code": "1057139",
    "prefecture": "東京都",
    "prefecture_kana": "トウキョウト",
    "prefecture_code": "13",
    "city": "港区",
    "city_kana": "ミナトク",
    "town": "東新橋汐留シティセンター　３９階",
    "town_kana": "ヒガシシンバシシオドメシティセンター39カイ",
    "street": null,
    "office_name": null,
    "office_name_kana": null
  },
  "7140": {
    "zip_code": "1057140",
    "prefecture": "東京都",
    "prefecture_kana": "トウキョウト",
    "prefecture_code": "13",
    "city": "港区",
    "city_kana": "ミナトク",
    "town": "東新橋汐留シティセンター　４０階",
    "town_kana": "ヒガシシンバシシオドメシティセンター40カイ",
    "street": null,
    "office_name": null,
    "office_name_kana": null
  },
  "7141": {
    "zip_code": "1057141",
    "prefecture": "東京都",
    "prefecture_kana": "トウキョウト",
    "prefecture_code": "13",
    "city": "港区",
    "city_kana": "ミナトク",
    "town": "東新橋汐留シティセンター　４１階",
    "town_kana": "ヒガシシンバシシオドメシティセンター41カイ",
    "street": null,
    "office_name": null,
    "office_name_kana": null
  },
  "7142": {
    "zip_code": "1057142",
    "prefecture": "東京都",
    "prefecture_kana": "トウキョウト",
    "prefecture_code": "13",
    "city": "港区",
    "city_kana": "ミナトク",
    "town": "東新橋汐留シティセンター　４２階",
    "town_kana": "ヒガシシンバシシオドメシティセンター42カイ",
    "street": null,
    "office_name": null,
    "office_name_kana": null
  },
  "7143": {
    "zip_code": "1057143",
    "prefecture": "東京都",
    "prefecture_kana": "トウキョウト",
    "prefecture_code": "13",
    "city": "港区",
    "city_kana": "ミナトク",
    "town": "東新橋汐留シティセンター　４３階",
    "town_kana": "ヒガシシンバシシオドメシティセンター43カイ",
    "street": null,
    "office_name": null,
    "office_name_kana": null
  },
  "7190": {
    "zip_code": "1057190",
    "prefecture": "東京都",
    "prefecture_kana": "トウキョウト",
    "prefecture_code": "13",
    "city": "港区",
    "city_kana": "ミナトク",
    "town": "東新橋汐留シティセンター",
    "town_kana": "ヒガシシンバシシオドメシティセンター",
    "street": null,
    "office_name": null,
    "office_name_kana": null
  },
  "7201": {
    "zip_code": "1057201",
    "prefecture": "東京都",
    "prefecture_kana": "トウキョウト",
    "prefecture_code": "13",
    "city": "港区",
    "city_kana": "ミナトク",
    "town": "東新橋汐留メディアタワー　１階",
    "town_kana": "ヒガシシンバシシオドメメディアタワー1カイ",
    "street": null,
    "office_name": null,
    "office_name_kana": null
  },
  "7202": {
    "zip_code": "1057202",
    "prefecture": "東京都",
    "prefecture_kana": "トウキョウト",
    "prefecture_code": "13",
    "city": "港区",
    "city_kana": "ミナトク",
    "town": "東新橋汐留メディアタワー　２階",
    "town_kana": "ヒガシシンバシシオドメメディアタワー2カイ",
    "street": null,
    "office_name": null,
    "office_name_kana": null
  },
  "7203": {
    "zip_code": "1057203",
    "prefecture": "東京都",
    "prefecture_kana": "トウキョウト",
    "prefecture_code": "13",
    "city": "港区",
    "city_kana": "ミナトク",
    "town": "東新橋汐留メディアタワー　３階",
    "town_kana": "ヒガシシンバシシオドメメディアタワー3カイ",
    "street": null,
    "office_name": null,
    "office_name_kana": null
  },
  "7204": {
    "zip_code": "1057204",
    "prefecture": "東京都",
    "prefecture_kana": "トウキョウト",
    "prefecture_code": "13",
    "city": "港区",
    "city_kana": "ミナトク",
    "town": "東新橋汐留メディアタワー　４階",
    "town_kana": "ヒガシシンバシシオドメメディアタワー4カイ",
    "street": null,
    "office_name": null,
    "office_name_kana": null
  },
  "7205": {
    "zip_code": "1057205",
    "prefecture": "東京都",
    "prefecture_kana": "トウキョウト",
    "prefecture_code": "13",
    "city": "港区",
    "city_kana": "ミナトク",
    "town": "東新橋汐留メディアタワー　５階",
    "town_kana": "ヒガシシンバシシオドメメディアタワー5カイ",
    "street": null,
    "office_name": null,
    "office_name_kana": null
  },
  "7206": {
    "zip_code": "1057206",
    "prefecture": "東京都",
    "prefecture_kana": "トウキョウト",
    "prefecture_code": "13",
    "city": "港区",
    "city_kana": "ミナトク",
    "town": "東新橋汐留メディアタワー　６階",
    "town_kana": "ヒガシシンバシシオドメメディアタワー6カイ",
    "street": null,
    "office_name": null,
    "office_name_kana": null
  },
  "7207": {
    "zip_code": "1057207",
    "prefecture": "東京都",
    "prefecture_kana": "トウキョウト",
    "prefecture_code": "13",
    "city": "港区",
    "city_kana": "ミナトク",
    "town": "東新橋汐留メディアタワー　７階",
    "town_kana": "ヒガシシンバシシオドメメディアタワー7カイ",
    "street": null,
    "office_name": null,
    "office_name_kana": null
  },
  "7208": {
    "zip_code": "1057208",
    "prefecture": "東京都",
    "prefecture_kana": "トウキョウト",
    "prefecture_code": "13",
    "city": "港区",
    "city_kana": "ミナトク",
    "town": "東新橋汐留メディアタワー　８階",
    "town_kana": "ヒガシシンバシシオドメメディアタワー8カイ",
    "street": null,
    "office_name": null,
    "office_name_kana": null
  },
  "7209": {
    "zip_code": "1057209",
    "prefecture": "東京都",
    "prefecture_kana": "トウキョウト",
    "prefecture_code": "13",
    "city": "港区",
    "city_kana": "ミナトク",
    "town": "東新橋汐留メディアタワー　９階",
    "town_kana": "ヒガシシンバシシオドメメディアタワー9カイ",
    "street": null,
    "office_name": null,
    "office_name_kana": null
  },
  "7210": {
    "zip_code": "1057210",
    "prefecture": "東京都",
    "prefecture_kana": "トウキョウト",
    "prefecture_code": "13",
    "city": "港区",
    "city_kana": "ミナトク",
    "town": "東新橋汐留メディアタワー　１０階",
    "town_kana": "ヒガシシンバシシオドメメディアタワー10カイ",
    "street": null,
    "office_name": null,
    "office_name_kana": null
  },
  "7211": {
    "zip_code": "1057211",
    "prefecture": "東京都",
    "prefecture_kana": "トウキョウト",
    "prefecture_code": "13",
    "city": "港区",
    "city_kana": "ミナトク",
    "town": "東新橋汐留メディアタワー　１１階",
    "town_kana": "ヒガシシンバシシオドメメディアタワー11カイ",
    "street": null,
    "office_name": null,
    "office_name_kana": null
  },
  "7212": {
    "zip_code": "1057212",
    "prefecture": "東京都",
    "prefecture_kana": "トウキョウト",
    "prefecture_code": "13",
    "city": "港区",
    "city_kana": "ミナトク",
    "town": "東新橋汐留メディアタワー　１２階",
    "town_kana": "ヒガシシンバシシオドメメディアタワー12カイ",
    "street": null,
    "office_name": null,
    "office_name_kana": null
  },
  "7213": {
    "zip_code": "1057213",
    "prefecture": "東京都",
    "prefecture_kana": "トウキョウト",
    "prefecture_code": "13",
    "city": "港区",
    "city_kana": "ミナトク",
    "town": "東新橋汐留メディアタワー　１３階",
    "town_kana": "ヒガシシンバシシオドメメディアタワー13カイ",
    "street": null,
    "office_name": null,
    "office_name_kana": null
  },
  "7214": {
    "zip_code": "1057214",
    "prefecture": "東京都",
    "prefecture_kana": "トウキョウト",
    "prefecture_code": "13",
    "city": "港区",
    "city_kana": "ミナトク",
    "town": "東新橋汐留メディアタワー　１４階",
    "town_kana": "ヒガシシンバシシオドメメディアタワー14カイ",
    "street": null,
    "office_name": null,
    "office_name_kana": null
  },
  "7215": {
    "zip_code": "1057215",
    "prefecture": "東京都",
    "prefecture_kana": "トウキョウト",
    "prefecture_code": "13",
    "city": "港区",
    "city_kana": "ミナトク",
    "town": "東新橋汐留メディアタワー　１５階",
    "town_kana": "ヒガシシンバシシオドメメディアタワー15カイ",
    "street": null,
    "office_name": null,
    "office_name_kana": null
  },
  "7216": {
    "zip_code": "1057216",
    "prefecture": "東京都",
    "prefecture_kana": "トウキョウト",
    "prefecture_code": "13",
    "city": "港区",
    "city_kana": "ミナトク",
    "town": "東新橋汐留メディアタワー　１６階",
    "town_kana": "ヒガシシンバシシオドメメディアタワー16カイ",
    "street": null,
    "office_name": null,
    "office_name_kana": null
  },
  "7217": {
    "zip_code": "1057217",
    "prefecture": "東京都",
    "prefecture_kana": "トウキョウト",
    "prefecture_code": "13",
    "city": "港区",
    "city_kana": "ミナトク",
    "town": "東新橋汐留メディアタワー　１７階",
    "town_kana": "ヒガシシンバシシオドメメディアタワー17カイ",
    "street": null,
    "office_name": null,
    "office_name_kana": null
  },
  "7218": {
    "zip_code": "1057218",
    "prefecture": "東京都",
    "prefecture_kana": "トウキョウト",
    "prefecture_code": "13",
    "city": "港区",
    "city_kana": "ミナトク",
    "town": "東新橋汐留メディアタワー　１８階",
    "town_kana": "ヒガシシンバシシオドメメディアタワー18カイ",
    "street": null,
    "office_name": null,
    "office_name_kana": null
  },
  "7219": {
    "zip_code": "1057219",
    "prefecture": "東京都",
    "prefecture_kana": "トウキョウト",
    "prefecture_code": "13",
    "city": "港区",
    "city_kana": "ミナトク",
    "town": "東新橋汐留メディアタワー　１９階",
    "town_kana": "ヒガシシンバシシオドメメディアタワー19カイ",
    "street": null,
    "office_name": null,
    "office_name_kana": null
  },
  "7220": {
    "zip_code": "1057220",
    "prefecture": "東京都",
    "prefecture_kana": "トウキョウト",
    "prefecture_code": "13",
    "city": "港区",
    "city_kana": "ミナトク",
    "town": "東新橋汐留メディアタワー　２０階",
    "town_kana": "ヒガシシンバシシオドメメディアタワー20カイ",
    "street": null,
    "office_name": null,
    "office_name_kana": null
  },
  "7221": {
    "zip_code": "1057221",
    "prefecture": "東京都",
    "prefecture_kana": "トウキョウト",
    "prefecture_code": "13",
    "city": "港区",
    "city_kana": "ミナトク",
    "town": "東新橋汐留メディアタワー　２１階",
    "town_kana": "ヒガシシンバシシオドメメディアタワー21カイ",
    "street": null,
    "office_name": null,
    "office_name_kana": null
  },
  "7222": {
    "zip_code": "1057222",
    "prefecture": "東京都",
    "prefecture_kana": "トウキョウト",
    "prefecture_code": "13",
    "city": "港区",
    "city_kana": "ミナトク",
    "town": "東新橋汐留メディアタワー　２２階",
    "town_kana": "ヒガシシンバシシオドメメディアタワー22カイ",
    "street": null,
    "office_name": null,
    "office_name_kana": null
  },
  "7223": {
    "zip_code": "1057223",
    "prefecture": "東京都",
    "prefecture_kana": "トウキョウト",
    "prefecture_code": "13",
    "city": "港区",
    "city_kana": "ミナトク",
    "town": "東新橋汐留メディアタワー　２３階",
    "town_kana": "ヒガシシンバシシオドメメディアタワー23カイ",
    "street": null,
    "office_name": null,
    "office_name_kana": null
  },
  "7224": {
    "zip_code": "1057224",
    "prefecture": "東京都",
    "prefecture_kana": "トウキョウト",
    "prefecture_code": "13",
    "city": "港区",
    "city_kana": "ミナトク",
    "town": "東新橋汐留メディアタワー　２４階",
    "town_kana": "ヒガシシンバシシオドメメディアタワー24カイ",
    "street": null,
    "office_name": null,
    "office_name_kana": null
  },
  "7225": {
    "zip_code": "1057225",
    "prefecture": "東京都",
    "prefecture_kana": "トウキョウト",
    "prefecture_code": "13",
    "city": "港区",
    "city_kana": "ミナトク",
    "town": "東新橋汐留メディアタワー　２５階",
    "town_kana": "ヒガシシンバシシオドメメディアタワー25カイ",
    "street": null,
    "office_name": null,
    "office_name_kana": null
  },
  "7226": {
    "zip_code": "1057226",
    "prefecture": "東京都",
    "prefecture_kana": "トウキョウト",
    "prefecture_code": "13",
    "city": "港区",
    "city_kana": "ミナトク",
    "town": "東新橋汐留メディアタワー　２６階",
    "town_kana": "ヒガシシンバシシオドメメディアタワー26カイ",
    "street": null,
    "office_name": null,
    "office_name_kana": null
  },
  "7227": {
    "zip_code": "1057227",
    "prefecture": "東京都",
    "prefecture_kana": "トウキョウト",
    "prefecture_code": "13",
    "city": "港区",
    "city_kana": "ミナトク",
    "town": "東新橋汐留メディアタワー　２７階",
    "town_kana": "ヒガシシンバシシオドメメディアタワー27カイ",
    "street": null,
    "office_name": null,
    "office_name_kana": null
  },
  "7228": {
    "zip_code": "1057228",
    "prefecture": "東京都",
    "prefecture_kana": "トウキョウト",
    "prefecture_code": "13",
    "city": "港区",
    "city_kana": "ミナトク",
    "town": "東新橋汐留メディアタワー　２８階",
    "town_kana": "ヒガシシンバシシオドメメディアタワー28カイ",
    "street": null,
    "office_name": null,
    "office_name_kana": null
  },
  "7229": {
    "zip_code": "1057229",
    "prefecture": "東京都",
    "prefecture_kana": "トウキョウト",
    "prefecture_code": "13",
    "city": "港区",
    "city_kana": "ミナトク",
    "town": "東新橋汐留メディアタワー　２９階",
    "town_kana": "ヒガシシンバシシオドメメディアタワー29カイ",
    "street": null,
    "office_name": null,
    "office_name_kana": null
  },
  "7230": {
    "zip_code": "1057230",
    "prefecture": "東京都",
    "prefecture_kana": "トウキョウト",
    "prefecture_code": "13",
    "city": "港区",
    "city_kana": "ミナトク",
    "town": "東新橋汐留メディアタワー　３０階",
    "town_kana": "ヒガシシンバシシオドメメディアタワー30カイ",
    "street": null,
    "office_name": null,
    "office_name_kana": null
  },
  "7231": {
    "zip_code": "1057231",
    "prefecture": "東京都",
    "prefecture_kana": "トウキョウト",
    "prefecture_code": "13",
    "city": "港区",
    "city_kana": "ミナトク",
    "town": "東新橋汐留メディアタワー　３１階",
    "town_kana": "ヒガシシンバシシオドメメディアタワー31カイ",
    "street": null,
    "office_name": null,
    "office_name_kana": null
  },
  "7232": {
    "zip_code": "1057232",
    "prefecture": "東京都",
    "prefecture_kana": "トウキョウト",
    "prefecture_code": "13",
    "city": "港区",
    "city_kana": "ミナトク",
    "town": "東新橋汐留メディアタワー　３２階",
    "town_kana": "ヒガシシンバシシオドメメディアタワー32カイ",
    "street": null,
    "office_name": null,
    "office_name_kana": null
  },
  "7233": {
    "zip_code": "1057233",
    "prefecture": "東京都",
    "prefecture_kana": "トウキョウト",
    "prefecture_code": "13",
    "city": "港区",
    "city_kana": "ミナトク",
    "town": "東新橋汐留メディアタワー　３３階",
    "town_kana": "ヒガシシンバシシオドメメディアタワー33カイ",
    "street": null,
    "office_name": null,
    "office_name_kana": null
  },
  "7234": {
    "zip_code": "1057234",
    "prefecture": "東京都",
    "prefecture_kana": "トウキョウト",
    "prefecture_code": "13",
    "city": "港区",
    "city_kana": "ミナトク",
    "town": "東新橋汐留メディアタワー　３４階",
    "town_kana": "ヒガシシンバシシオドメメディアタワー34カイ",
    "street": null,
    "office_name": null,
    "office_name_kana": null
  },
  "7290": {
    "zip_code": "1057290",
    "prefecture": "東京都",
    "prefecture_kana": "トウキョウト",
    "prefecture_code": "13",
    "city": "港区",
    "city_kana": "ミナトク",
    "town": "東新橋汐留メディアタワー",
    "town_kana": "ヒガシシンバシシオドメメディアタワー",
    "street": null,
    "office_name": null,
    "office_name_kana": null
  },
  "7301": {
    "zip_code": "1057301",
    "prefecture": "東京都",
    "prefecture_kana": "トウキョウト",
    "prefecture_code": "13",
    "city": "港区",
    "city_kana": "ミナトク",
    "town": "東新橋東京汐留ビルディング　１階",
    "town_kana": "ヒガシシンバシトウキョウシオドメビルディング1カイ",
    "street": null,
    "office_name": null,
    "office_name_kana": null
  },
  "7302": {
    "zip_code": "1057302",
    "prefecture": "東京都",
    "prefecture_kana": "トウキョウト",
    "prefecture_code": "13",
    "city": "港区",
    "city_kana": "ミナトク",
    "town": "東新橋東京汐留ビルディング　２階",
    "town_kana": "ヒガシシンバシトウキョウシオドメビルディング2カイ",
    "street": null,
    "office_name": null,
    "office_name_kana": null
  },
  "7303": {
    "zip_code": "1057303",
    "prefecture": "東京都",
    "prefecture_kana": "トウキョウト",
    "prefecture_code": "13",
    "city": "港区",
    "city_kana": "ミナトク",
    "town": "東新橋東京汐留ビルディング　３階",
    "town_kana": "ヒガシシンバシトウキョウシオドメビルディング3カイ",
    "street": null,
    "office_name": null,
    "office_name_kana": null
  },
  "7304": {
    "zip_code": "1057304",
    "prefecture": "東京都",
    "prefecture_kana": "トウキョウト",
    "prefecture_code": "13",
    "city": "港区",
    "city_kana": "ミナトク",
    "town": "東新橋東京汐留ビルディング　４階",
    "town_kana": "ヒガシシンバシトウキョウシオドメビルディング4カイ",
    "street": null,
    "office_name": null,
    "office_name_kana": null
  },
  "7305": {
    "zip_code": "1057305",
    "prefecture": "東京都",
    "prefecture_kana": "トウキョウト",
    "prefecture_code": "13",
    "city": "港区",
    "city_kana": "ミナトク",
    "town": "東新橋東京汐留ビルディング　５階",
    "town_kana": "ヒガシシンバシトウキョウシオドメビルディング5カイ",
    "street": null,
    "office_name": null,
    "office_name_kana": null
  },
  "7306": {
    "zip_code": "1057306",
    "prefecture": "東京都",
    "prefecture_kana": "トウキョウト",
    "prefecture_code": "13",
    "city": "港区",
    "city_kana": "ミナトク",
    "town": "東新橋東京汐留ビルディング　６階",
    "town_kana": "ヒガシシンバシトウキョウシオドメビルディング6カイ",
    "street": null,
    "office_name": null,
    "office_name_kana": null
  },
  "7307": {
    "zip_code": "1057307",
    "prefecture": "東京都",
    "prefecture_kana": "トウキョウト",
    "prefecture_code": "13",
    "city": "港区",
    "city_kana": "ミナトク",
    "town": "東新橋東京汐留ビルディング　７階",
    "town_kana": "ヒガシシンバシトウキョウシオドメビルディング7カイ",
    "street": null,
    "office_name": null,
    "office_name_kana": null
  },
  "7308": {
    "zip_code": "1057308",
    "prefecture": "東京都",
    "prefecture_kana": "トウキョウト",
    "prefecture_code": "13",
    "city": "港区",
    "city_kana": "ミナトク",
    "town": "東新橋東京汐留ビルディング　８階",
    "town_kana": "ヒガシシンバシトウキョウシオドメビルディング8カイ",
    "street": null,
    "office_name": null,
    "office_name_kana": null
  },
  "7309": {
    "zip_code": "1057309",
    "prefecture": "東京都",
    "prefecture_kana": "トウキョウト",
    "prefecture_code": "13",
    "city": "港区",
    "city_kana": "ミナトク",
    "town": "東新橋東京汐留ビルディング　９階",
    "town_kana": "ヒガシシンバシトウキョウシオドメビルディング9カイ",
    "street": null,
    "office_name": null,
    "office_name_kana": null
  },
  "7310": {
    "zip_code": "1057310",
    "prefecture": "東京都",
    "prefecture_kana": "トウキョウト",
    "prefecture_code": "13",
    "city": "港区",
    "city_kana": "ミナトク",
    "town": "東新橋東京汐留ビルディング　１０階",
    "town_kana": "ヒガシシンバシトウキョウシオドメビルディング10カイ",
    "street": null,
    "office_name": null,
    "office_name_kana": null
  },
  "7311": {
    "zip_code": "1057311",
    "prefecture": "東京都",
    "prefecture_kana": "トウキョウト",
    "prefecture_code": "13",
    "city": "港区",
    "city_kana": "ミナトク",
    "town": "東新橋東京汐留ビルディング　１１階",
    "town_kana": "ヒガシシンバシトウキョウシオドメビルディング11カイ",
    "street": null,
    "office_name": null,
    "office_name_kana": null
  },
  "7312": {
    "zip_code": "1057312",
    "prefecture": "東京都",
    "prefecture_kana": "トウキョウト",
    "prefecture_code": "13",
    "city": "港区",
    "city_kana": "ミナトク",
    "town": "東新橋東京汐留ビルディング　１２階",
    "town_kana": "ヒガシシンバシトウキョウシオドメビルディング12カイ",
    "street": null,
    "office_name": null,
    "office_name_kana": null
  },
  "7313": {
    "zip_code": "1057313",
    "prefecture": "東京都",
    "prefecture_kana": "トウキョウト",
    "prefecture_code": "13",
    "city": "港区",
    "city_kana": "ミナトク",
    "town": "東新橋東京汐留ビルディング　１３階",
    "town_kana": "ヒガシシンバシトウキョウシオドメビルディング13カイ",
    "street": null,
    "office_name": null,
    "office_name_kana": null
  },
  "7314": {
    "zip_code": "1057314",
    "prefecture": "東京都",
    "prefecture_kana": "トウキョウト",
    "prefecture_code": "13",
    "city": "港区",
    "city_kana": "ミナトク",
    "town": "東新橋東京汐留ビルディング　１４階",
    "town_kana": "ヒガシシンバシトウキョウシオドメビルディング14カイ",
    "street": null,
    "office_name": null,
    "office_name_kana": null
  },
  "7315": {
    "zip_code": "1057315",
    "prefecture": "東京都",
    "prefecture_kana": "トウキョウト",
    "prefecture_code": "13",
    "city": "港区",
    "city_kana": "ミナトク",
    "town": "東新橋東京汐留ビルディング　１５階",
    "town_kana": "ヒガシシンバシトウキョウシオドメビルディング15カイ",
    "street": null,
    "office_name": null,
    "office_name_kana": null
  },
  "7316": {
    "zip_code": "1057316",
    "prefecture": "東京都",
    "prefecture_kana": "トウキョウト",
    "prefecture_code": "13",
    "city": "港区",
    "city_kana": "ミナトク",
    "town": "東新橋東京汐留ビルディング　１６階",
    "town_kana": "ヒガシシンバシトウキョウシオドメビルディング16カイ",
    "street": null,
    "office_name": null,
    "office_name_kana": null
  },
  "7317": {
    "zip_code": "1057317",
    "prefecture": "東京都",
    "prefecture_kana": "トウキョウト",
    "prefecture_code": "13",
    "city": "港区",
    "city_kana": "ミナトク",
    "town": "東新橋東京汐留ビルディング　１７階",
    "town_kana": "ヒガシシンバシトウキョウシオドメビルディング17カイ",
    "street": null,
    "office_name": null,
    "office_name_kana": null
  },
  "7318": {
    "zip_code": "1057318",
    "prefecture": "東京都",
    "prefecture_kana": "トウキョウト",
    "prefecture_code": "13",
    "city": "港区",
    "city_kana": "ミナトク",
    "town": "東新橋東京汐留ビルディング　１８階",
    "town_kana": "ヒガシシンバシトウキョウシオドメビルディング18カイ",
    "street": null,
    "office_name": null,
    "office_name_kana": null
  },
  "7319": {
    "zip_code": "1057319",
    "prefecture": "東京都",
    "prefecture_kana": "トウキョウト",
    "prefecture_code": "13",
    "city": "港区",
    "city_kana": "ミナトク",
    "town": "東新橋東京汐留ビルディング　１９階",
    "town_kana": "ヒガシシンバシトウキョウシオドメビルディング19カイ",
    "street": null,
    "office_name": null,
    "office_name_kana": null
  },
  "7320": {
    "zip_code": "1057320",
    "prefecture": "東京都",
    "prefecture_kana": "トウキョウト",
    "prefecture_code": "13",
    "city": "港区",
    "city_kana": "ミナトク",
    "town": "東新橋東京汐留ビルディング　２０階",
    "town_kana": "ヒガシシンバシトウキョウシオドメビルディング20カイ",
    "street": null,
    "office_name": null,
    "office_name_kana": null
  },
  "7321": {
    "zip_code": "1057321",
    "prefecture": "東京都",
    "prefecture_kana": "トウキョウト",
    "prefecture_code": "13",
    "city": "港区",
    "city_kana": "ミナトク",
    "town": "東新橋東京汐留ビルディング　２１階",
    "town_kana": "ヒガシシンバシトウキョウシオドメビルディング21カイ",
    "street": null,
    "office_name": null,
    "office_name_kana": null
  },
  "7322": {
    "zip_code": "1057322",
    "prefecture": "東京都",
    "prefecture_kana": "トウキョウト",
    "prefecture_code": "13",
    "city": "港区",
    "city_kana": "ミナトク",
    "town": "東新橋東京汐留ビルディング　２２階",
    "town_kana": "ヒガシシンバシトウキョウシオドメビルディング22カイ",
    "street": null,
    "office_name": null,
    "office_name_kana": null
  },
  "7323": {
    "zip_code": "1057323",
    "prefecture": "東京都",
    "prefecture_kana": "トウキョウト",
    "prefecture_code": "13",
    "city": "港区",
    "city_kana": "ミナトク",
    "town": "東新橋東京汐留ビルディング　２３階",
    "town_kana": "ヒガシシンバシトウキョウシオドメビルディング23カイ",
    "street": null,
    "office_name": null,
    "office_name_kana": null
  },
  "7324": {
    "zip_code": "1057324",
    "prefecture": "東京都",
    "prefecture_kana": "トウキョウト",
    "prefecture_code": "13",
    "city": "港区",
    "city_kana": "ミナトク",
    "town": "東新橋東京汐留ビルディング　２４階",
    "town_kana": "ヒガシシンバシトウキョウシオドメビルディング24カイ",
    "street": null,
    "office_name": null,
    "office_name_kana": null
  },
  "7325": {
    "zip_code": "1057325",
    "prefecture": "東京都",
    "prefecture_kana": "トウキョウト",
    "prefecture_code": "13",
    "city": "港区",
    "city_kana": "ミナトク",
    "town": "東新橋東京汐留ビルディング　２５階",
    "town_kana": "ヒガシシンバシトウキョウシオドメビルディング25カイ",
    "street": null,
    "office_name": null,
    "office_name_kana": null
  },
  "7326": {
    "zip_code": "1057326",
    "prefecture": "東京都",
    "prefecture_kana": "トウキョウト",
    "prefecture_code": "13",
    "city": "港区",
    "city_kana": "ミナトク",
    "town": "東新橋東京汐留ビルディング　２６階",
    "town_kana": "ヒガシシンバシトウキョウシオドメビルディング26カイ",
    "street": null,
    "office_name": null,
    "office_name_kana": null
  },
  "7327": {
    "zip_code": "1057327",
    "prefecture": "東京都",
    "prefecture_kana": "トウキョウト",
    "prefecture_code": "13",
    "city": "港区",
    "city_kana": "ミナトク",
    "town": "東新橋東京汐留ビルディング　２７階",
    "town_kana": "ヒガシシンバシトウキョウシオドメビルディング27カイ",
    "street": null,
    "office_name": null,
    "office_name_kana": null
  },
  "7328": {
    "zip_code": "1057328",
    "prefecture": "東京都",
    "prefecture_kana": "トウキョウト",
    "prefecture_code": "13",
    "city": "港区",
    "city_kana": "ミナトク",
    "town": "東新橋東京汐留ビルディング　２８階",
    "town_kana": "ヒガシシンバシトウキョウシオドメビルディング28カイ",
    "street": null,
    "office_name": null,
    "office_name_kana": null
  },
  "7329": {
    "zip_code": "1057329",
    "prefecture": "東京都",
    "prefecture_kana": "トウキョウト",
    "prefecture_code": "13",
    "city": "港区",
    "city_kana": "ミナトク",
    "town": "東新橋東京汐留ビルディング　２９階",
    "town_kana": "ヒガシシンバシトウキョウシオドメビルディング29カイ",
    "street": null,
    "office_name": null,
    "office_name_kana": null
  },
  "7330": {
    "zip_code": "1057330",
    "prefecture": "東京都",
    "prefecture_kana": "トウキョウト",
    "prefecture_code": "13",
    "city": "港区",
    "city_kana": "ミナトク",
    "town": "東新橋東京汐留ビルディング　３０階",
    "town_kana": "ヒガシシンバシトウキョウシオドメビルディング30カイ",
    "street": null,
    "office_name": null,
    "office_name_kana": null
  },
  "7331": {
    "zip_code": "1057331",
    "prefecture": "東京都",
    "prefecture_kana": "トウキョウト",
    "prefecture_code": "13",
    "city": "港区",
    "city_kana": "ミナトク",
    "town": "東新橋東京汐留ビルディング　３１階",
    "town_kana": "ヒガシシンバシトウキョウシオドメビルディング31カイ",
    "street": null,
    "office_name": null,
    "office_name_kana": null
  },
  "7332": {
    "zip_code": "1057332",
    "prefecture": "東京都",
    "prefecture_kana": "トウキョウト",
    "prefecture_code": "13",
    "city": "港区",
    "city_kana": "ミナトク",
    "town": "東新橋東京汐留ビルディング　３２階",
    "town_kana": "ヒガシシンバシトウキョウシオドメビルディング32カイ",
    "street": null,
    "office_name": null,
    "office_name_kana": null
  },
  "7333": {
    "zip_code": "1057333",
    "prefecture": "東京都",
    "prefecture_kana": "トウキョウト",
    "prefecture_code": "13",
    "city": "港区",
    "city_kana": "ミナトク",
    "town": "東新橋東京汐留ビルディング　３３階",
    "town_kana": "ヒガシシンバシトウキョウシオドメビルディング33カイ",
    "street": null,
    "office_name": null,
    "office_name_kana": null
  },
  "7334": {
    "zip_code": "1057334",
    "prefecture": "東京都",
    "prefecture_kana": "トウキョウト",
    "prefecture_code": "13",
    "city": "港区",
    "city_kana": "ミナトク",
    "town": "東新橋東京汐留ビルディング　３４階",
    "town_kana": "ヒガシシンバシトウキョウシオドメビルディング34カイ",
    "street": null,
    "office_name": null,
    "office_name_kana": null
  },
  "7335": {
    "zip_code": "1057335",
    "prefecture": "東京都",
    "prefecture_kana": "トウキョウト",
    "prefecture_code": "13",
    "city": "港区",
    "city_kana": "ミナトク",
    "town": "東新橋東京汐留ビルディング　３５階",
    "town_kana": "ヒガシシンバシトウキョウシオドメビルディング35カイ",
    "street": null,
    "office_name": null,
    "office_name_kana": null
  },
  "7336": {
    "zip_code": "1057336",
    "prefecture": "東京都",
    "prefecture_kana": "トウキョウト",
    "prefecture_code": "13",
    "city": "港区",
    "city_kana": "ミナトク",
    "town": "東新橋東京汐留ビルディング　３６階",
    "town_kana": "ヒガシシンバシトウキョウシオドメビルディング36カイ",
    "street": null,
    "office_name": null,
    "office_name_kana": null
  },
  "7337": {
    "zip_code": "1057337",
    "prefecture": "東京都",
    "prefecture_kana": "トウキョウト",
    "prefecture_code": "13",
    "city": "港区",
    "city_kana": "ミナトク",
    "town": "東新橋東京汐留ビルディング　３７階",
    "town_kana": "ヒガシシンバシトウキョウシオドメビルディング37カイ",
    "street": null,
    "office_name": null,
    "office_name_kana": null
  },
  "7390": {
    "zip_code": "1057390",
    "prefecture": "東京都",
    "prefecture_kana": "トウキョウト",
    "prefecture_code": "13",
    "city": "港区",
    "city_kana": "ミナトク",
    "town": "東新橋東京汐留ビルディング",
    "town_kana": "ヒガシシンバシトウキョウシオドメビルディング",
    "street": null,
    "office_name": null,
    "office_name_kana": null
  },
  "7401": {
    "zip_code": "1057401",
    "prefecture": "東京都",
    "prefecture_kana": "トウキョウト",
    "prefecture_code": "13",
    "city": "港区",
    "city_kana": "ミナトク",
    "town": "東新橋日本テレビタワー　１階",
    "town_kana": "ヒガシシンバシニホンテレビタワー1カイ",
    "street": null,
    "office_name": null,
    "office_name_kana": null
  },
  "7402": {
    "zip_code": "1057402",
    "prefecture": "東京都",
    "prefecture_kana": "トウキョウト",
    "prefecture_code": "13",
    "city": "港区",
    "city_kana": "ミナトク",
    "town": "東新橋日本テレビタワー　２階",
    "town_kana": "ヒガシシンバシニホンテレビタワー2カイ",
    "street": null,
    "office_name": null,
    "office_name_kana": null
  },
  "7403": {
    "zip_code": "1057403",
    "prefecture": "東京都",
    "prefecture_kana": "トウキョウト",
    "prefecture_code": "13",
    "city": "港区",
    "city_kana": "ミナトク",
    "town": "東新橋日本テレビタワー　３階",
    "town_kana": "ヒガシシンバシニホンテレビタワー3カイ",
    "street": null,
    "office_name": null,
    "office_name_kana": null
  },
  "7404": {
    "zip_code": "1057404",
    "prefecture": "東京都",
    "prefecture_kana": "トウキョウト",
    "prefecture_code": "13",
    "city": "港区",
    "city_kana": "ミナトク",
    "town": "東新橋日本テレビタワー　４階",
    "town_kana": "ヒガシシンバシニホンテレビタワー4カイ",
    "street": null,
    "office_name": null,
    "office_name_kana": null
  },
  "7405": {
    "zip_code": "1057405",
    "prefecture": "東京都",
    "prefecture_kana": "トウキョウト",
    "prefecture_code": "13",
    "city": "港区",
    "city_kana": "ミナトク",
    "town": "東新橋日本テレビタワー　５階",
    "town_kana": "ヒガシシンバシニホンテレビタワー5カイ",
    "street": null,
    "office_name": null,
    "office_name_kana": null
  },
  "7406": {
    "zip_code": "1057406",
    "prefecture": "東京都",
    "prefecture_kana": "トウキョウト",
    "prefecture_code": "13",
    "city": "港区",
    "city_kana": "ミナトク",
    "town": "東新橋日本テレビタワー　６階",
    "town_kana": "ヒガシシンバシニホンテレビタワー6カイ",
    "street": null,
    "office_name": null,
    "office_name_kana": null
  },
  "7407": {
    "zip_code": "1057407",
    "prefecture": "東京都",
    "prefecture_kana": "トウキョウト",
    "prefecture_code": "13",
    "city": "港区",
    "city_kana": "ミナトク",
    "town": "東新橋日本テレビタワー　７階",
    "town_kana": "ヒガシシンバシニホンテレビタワー7カイ",
    "street": null,
    "office_name": null,
    "office_name_kana": null
  },
  "7408": {
    "zip_code": "1057408",
    "prefecture": "東京都",
    "prefecture_kana": "トウキョウト",
    "prefecture_code": "13",
    "city": "港区",
    "city_kana": "ミナトク",
    "town": "東新橋日本テレビタワー　８階",
    "town_kana": "ヒガシシンバシニホンテレビタワー8カイ",
    "street": null,
    "office_name": null,
    "office_name_kana": null
  },
  "7409": {
    "zip_code": "1057409",
    "prefecture": "東京都",
    "prefecture_kana": "トウキョウト",
    "prefecture_code": "13",
    "city": "港区",
    "city_kana": "ミナトク",
    "town": "東新橋日本テレビタワー　９階",
    "town_kana": "ヒガシシンバシニホンテレビタワー9カイ",
    "street": null,
    "office_name": null,
    "office_name_kana": null
  },
  "7410": {
    "zip_code": "1057410",
    "prefecture": "東京都",
    "prefecture_kana": "トウキョウト",
    "prefecture_code": "13",
    "city": "港区",
    "city_kana": "ミナトク",
    "town": "東新橋日本テレビタワー　１０階",
    "town_kana": "ヒガシシンバシニホンテレビタワー10カイ",
    "street": null,
    "office_name": null,
    "office_name_kana": null
  },
  "7411": {
    "zip_code": "1057411",
    "prefecture": "東京都",
    "prefecture_kana": "トウキョウト",
    "prefecture_code": "13",
    "city": "港区",
    "city_kana": "ミナトク",
    "town": "東新橋日本テレビタワー　１１階",
    "town_kana": "ヒガシシンバシニホンテレビタワー11カイ",
    "street": null,
    "office_name": null,
    "office_name_kana": null
  },
  "7412": {
    "zip_code": "1057412",
    "prefecture": "東京都",
    "prefecture_kana": "トウキョウト",
    "prefecture_code": "13",
    "city": "港区",
    "city_kana": "ミナトク",
    "town": "東新橋日本テレビタワー　１２階",
    "town_kana": "ヒガシシンバシニホンテレビタワー12カイ",
    "street": null,
    "office_name": null,
    "office_name_kana": null
  },
  "7413": {
    "zip_code": "1057413",
    "prefecture": "東京都",
    "prefecture_kana": "トウキョウト",
    "prefecture_code": "13",
    "city": "港区",
    "city_kana": "ミナトク",
    "town": "東新橋日本テレビタワー　１３階",
    "town_kana": "ヒガシシンバシニホンテレビタワー13カイ",
    "street": null,
    "office_name": null,
    "office_name_kana": null
  },
  "7414": {
    "zip_code": "1057414",
    "prefecture": "東京都",
    "prefecture_kana": "トウキョウト",
    "prefecture_code": "13",
    "city": "港区",
    "city_kana": "ミナトク",
    "town": "東新橋日本テレビタワー　１４階",
    "town_kana": "ヒガシシンバシニホンテレビタワー14カイ",
    "street": null,
    "office_name": null,
    "office_name_kana": null
  },
  "7415": {
    "zip_code": "1057415",
    "prefecture": "東京都",
    "prefecture_kana": "トウキョウト",
    "prefecture_code": "13",
    "city": "港区",
    "city_kana": "ミナトク",
    "town": "東新橋日本テレビタワー　１５階",
    "town_kana": "ヒガシシンバシニホンテレビタワー15カイ",
    "street": null,
    "office_name": null,
    "office_name_kana": null
  },
  "7416": {
    "zip_code": "1057416",
    "prefecture": "東京都",
    "prefecture_kana": "トウキョウト",
    "prefecture_code": "13",
    "city": "港区",
    "city_kana": "ミナトク",
    "town": "東新橋日本テレビタワー　１６階",
    "town_kana": "ヒガシシンバシニホンテレビタワー16カイ",
    "street": null,
    "office_name": null,
    "office_name_kana": null
  },
  "7417": {
    "zip_code": "1057417",
    "prefecture": "東京都",
    "prefecture_kana": "トウキョウト",
    "prefecture_code": "13",
    "city": "港区",
    "city_kana": "ミナトク",
    "town": "東新橋日本テレビタワー　１７階",
    "town_kana": "ヒガシシンバシニホンテレビタワー17カイ",
    "street": null,
    "office_name": null,
    "office_name_kana": null
  },
  "7418": {
    "zip_code": "1057418",
    "prefecture": "東京都",
    "prefecture_kana": "トウキョウト",
    "prefecture_code": "13",
    "city": "港区",
    "city_kana": "ミナトク",
    "town": "東新橋日本テレビタワー　１８階",
    "town_kana": "ヒガシシンバシニホンテレビタワー18カイ",
    "street": null,
    "office_name": null,
    "office_name_kana": null
  },
  "7419": {
    "zip_code": "1057419",
    "prefecture": "東京都",
    "prefecture_kana": "トウキョウト",
    "prefecture_code": "13",
    "city": "港区",
    "city_kana": "ミナトク",
    "town": "東新橋日本テレビタワー　１９階",
    "town_kana": "ヒガシシンバシニホンテレビタワー19カイ",
    "street": null,
    "office_name": null,
    "office_name_kana": null
  },
  "7420": {
    "zip_code": "1057420",
    "prefecture": "東京都",
    "prefecture_kana": "トウキョウト",
    "prefecture_code": "13",
    "city": "港区",
    "city_kana": "ミナトク",
    "town": "東新橋日本テレビタワー　２０階",
    "town_kana": "ヒガシシンバシニホンテレビタワー20カイ",
    "street": null,
    "office_name": null,
    "office_name_kana": null
  },
  "7421": {
    "zip_code": "1057421",
    "prefecture": "東京都",
    "prefecture_kana": "トウキョウト",
    "prefecture_code": "13",
    "city": "港区",
    "city_kana": "ミナトク",
    "town": "東新橋日本テレビタワー　２１階",
    "town_kana": "ヒガシシンバシニホンテレビタワー21カイ",
    "street": null,
    "office_name": null,
    "office_name_kana": null
  },
  "7422": {
    "zip_code": "1057422",
    "prefecture": "東京都",
    "prefecture_kana": "トウキョウト",
    "prefecture_code": "13",
    "city": "港区",
    "city_kana": "ミナトク",
    "town": "東新橋日本テレビタワー　２２階",
    "town_kana": "ヒガシシンバシニホンテレビタワー22カイ",
    "street": null,
    "office_name": null,
    "office_name_kana": null
  },
  "7423": {
    "zip_code": "1057423",
    "prefecture": "東京都",
    "prefecture_kana": "トウキョウト",
    "prefecture_code": "13",
    "city": "港区",
    "city_kana": "ミナトク",
    "town": "東新橋日本テレビタワー　２３階",
    "town_kana": "ヒガシシンバシニホンテレビタワー23カイ",
    "street": null,
    "office_name": null,
    "office_name_kana": null
  },
  "7424": {
    "zip_code": "1057424",
    "prefecture": "東京都",
    "prefecture_kana": "トウキョウト",
    "prefecture_code": "13",
    "city": "港区",
    "city_kana": "ミナトク",
    "town": "東新橋日本テレビタワー　２４階",
    "town_kana": "ヒガシシンバシニホンテレビタワー24カイ",
    "street": null,
    "office_name": null,
    "office_name_kana": null
  },
  "7425": {
    "zip_code": "1057425",
    "prefecture": "東京都",
    "prefecture_kana": "トウキョウト",
    "prefecture_code": "13",
    "city": "港区",
    "city_kana": "ミナトク",
    "town": "東新橋日本テレビタワー　２５階",
    "town_kana": "ヒガシシンバシニホンテレビタワー25カイ",
    "street": null,
    "office_name": null,
    "office_name_kana": null
  },
  "7426": {
    "zip_code": "1057426",
    "prefecture": "東京都",
    "prefecture_kana": "トウキョウト",
    "prefecture_code": "13",
    "city": "港区",
    "city_kana": "ミナトク",
    "town": "東新橋日本テレビタワー　２６階",
    "town_kana": "ヒガシシンバシニホンテレビタワー26カイ",
    "street": null,
    "office_name": null,
    "office_name_kana": null
  },
  "7427": {
    "zip_code": "1057427",
    "prefecture": "東京都",
    "prefecture_kana": "トウキョウト",
    "prefecture_code": "13",
    "city": "港区",
    "city_kana": "ミナトク",
    "town": "東新橋日本テレビタワー　２７階",
    "town_kana": "ヒガシシンバシニホンテレビタワー27カイ",
    "street": null,
    "office_name": null,
    "office_name_kana": null
  },
  "7428": {
    "zip_code": "1057428",
    "prefecture": "東京都",
    "prefecture_kana": "トウキョウト",
    "prefecture_code": "13",
    "city": "港区",
    "city_kana": "ミナトク",
    "town": "東新橋日本テレビタワー　２８階",
    "town_kana": "ヒガシシンバシニホンテレビタワー28カイ",
    "street": null,
    "office_name": null,
    "office_name_kana": null
  },
  "7429": {
    "zip_code": "1057429",
    "prefecture": "東京都",
    "prefecture_kana": "トウキョウト",
    "prefecture_code": "13",
    "city": "港区",
    "city_kana": "ミナトク",
    "town": "東新橋日本テレビタワー　２９階",
    "town_kana": "ヒガシシンバシニホンテレビタワー29カイ",
    "street": null,
    "office_name": null,
    "office_name_kana": null
  },
  "7430": {
    "zip_code": "1057430",
    "prefecture": "東京都",
    "prefecture_kana": "トウキョウト",
    "prefecture_code": "13",
    "city": "港区",
    "city_kana": "ミナトク",
    "town": "東新橋日本テレビタワー　３０階",
    "town_kana": "ヒガシシンバシニホンテレビタワー30カイ",
    "street": null,
    "office_name": null,
    "office_name_kana": null
  },
  "7431": {
    "zip_code": "1057431",
    "prefecture": "東京都",
    "prefecture_kana": "トウキョウト",
    "prefecture_code": "13",
    "city": "港区",
    "city_kana": "ミナトク",
    "town": "東新橋日本テレビタワー　３１階",
    "town_kana": "ヒガシシンバシニホンテレビタワー31カイ",
    "street": null,
    "office_name": null,
    "office_name_kana": null
  },
  "7432": {
    "zip_code": "1057432",
    "prefecture": "東京都",
    "prefecture_kana": "トウキョウト",
    "prefecture_code": "13",
    "city": "港区",
    "city_kana": "ミナトク",
    "town": "東新橋日本テレビタワー　３２階",
    "town_kana": "ヒガシシンバシニホンテレビタワー32カイ",
    "street": null,
    "office_name": null,
    "office_name_kana": null
  },
  "7444": {
    "zip_code": "1057444",
    "prefecture": "東京都",
    "prefecture_kana": "トウキョウト",
    "prefecture_code": "13",
    "city": "港区",
    "city_kana": "ミナトク",
    "town": "東新橋",
    "town_kana": "ヒガシシンバシ",
    "street": "１丁目６−１",
    "office_name": "日本テレビ放送網　株式会社",
    "office_name_kana": "ニホンテレビホウソウモウ カブシキガイシヤ"
  },
  "7490": {
    "zip_code": "1057490",
    "prefecture": "東京都",
    "prefecture_kana": "トウキョウト",
    "prefecture_code": "13",
    "city": "港区",
    "city_kana": "ミナトク",
    "town": "東新橋日本テレビタワー",
    "town_kana": "ヒガシシンバシニホンテレビタワー",
    "street": null,
    "office_name": null,
    "office_name_kana": null
  },
  "8001": {
    "zip_code": "1058001",
    "prefecture": "東京都",
    "prefecture_kana": "トウキョウト",
    "prefecture_code": "13",
    "city": "港区",
    "city_kana": "ミナトク",
    "town": "芝浦",
    "town_kana": "シバウラ",
    "street": "１丁目１−１",
    "office_name": "株式会社　東芝",
    "office_name_kana": "カブシキガイシヤ トウシバ"
  },
  "8002": {
    "zip_code": "1058002",
    "prefecture": "東京都",
    "prefecture_kana": "トウキョウト",
    "prefecture_code": "13",
    "city": "港区",
    "city_kana": "ミナトク",
    "town": "浜松町",
    "town_kana": "ハママツチョウ",
    "street": "１丁目３１",
    "office_name": "株式会社　文化放送",
    "office_name_kana": "(カブ) ブンカホウソウ"
  },
  "8005": {
    "zip_code": "1058005",
    "prefecture": "東京都",
    "prefecture_kana": "トウキョウト",
    "prefecture_code": "13",
    "city": "港区",
    "city_kana": "ミナトク",
    "town": "芝浦",
    "town_kana": "シバウラ",
    "street": "１丁目２−１",
    "office_name": "兼松　株式会社",
    "office_name_kana": "カネマツ カブシキガイシヤ"
  },
  "8008": {
    "zip_code": "1058008",
    "prefecture": "東京都",
    "prefecture_kana": "トウキョウト",
    "prefecture_code": "13",
    "city": "港区",
    "city_kana": "ミナトク",
    "town": "芝",
    "town_kana": "シバ",
    "street": "３丁目２−１８",
    "office_name": "株式会社　ライトアップショッピングクラブ",
    "office_name_kana": "カブシキガイシヤ ライトアツプシヨツピングクラブ"
  },
  "8010": {
    "zip_code": "1058010",
    "prefecture": "東京都",
    "prefecture_kana": "トウキョウト",
    "prefecture_code": "13",
    "city": "港区",
    "city_kana": "ミナトク",
    "town": "西新橋",
    "town_kana": "ニシシンバシ",
    "street": "１丁目６−２１",
    "office_name": "独立行政法人　農業者年金基金",
    "office_name_kana": "ドクリツギヨウセイホウジン ノウギヨウシヤネンキンキキン"
  },
  "8011": {
    "zip_code": "1058011",
    "prefecture": "東京都",
    "prefecture_kana": "トウキョウト",
    "prefecture_code": "13",
    "city": "港区",
    "city_kana": "ミナトク",
    "town": "海岸",
    "town_kana": "カイガン",
    "street": "１丁目２−２０",
    "office_name": "三井住友カード　株式会社",
    "office_name_kana": "ミツイスミトモカ-ド カブシキカイシヤ"
  },
  "8020": {
    "zip_code": "1058020",
    "prefecture": "東京都",
    "prefecture_kana": "トウキョウト",
    "prefecture_code": "13",
    "city": "港区",
    "city_kana": "ミナトク",
    "town": "虎ノ門",
    "town_kana": "トラノモン",
    "street": "５丁目１２番１号",
    "office_name": "全国建設厚生年金基金",
    "office_name_kana": "ゼンコクケンセツコウセイネンキンキキン"
  },
  "8039": {
    "zip_code": "1058039",
    "prefecture": "東京都",
    "prefecture_kana": "トウキョウト",
    "prefecture_code": "13",
    "city": "港区",
    "city_kana": "ミナトク",
    "town": "西新橋",
    "town_kana": "ニシシンバシ",
    "street": "２−１５−１２日立愛宕別館６階",
    "office_name": "株式会社　日立国際電気",
    "office_name_kana": "カブシキガイシヤ ヒタチコクサイデンキ"
  },
  "8055": {
    "zip_code": "1058055",
    "prefecture": "東京都",
    "prefecture_kana": "トウキョウト",
    "prefecture_code": "13",
    "city": "港区",
    "city_kana": "ミナトク",
    "town": "芝大門",
    "town_kana": "シバダイモン",
    "street": "２丁目２−１",
    "office_name": "（株）　徳間書店",
    "office_name_kana": "カブシキガイシヤ トクマシヨテン"
  },
  "8070": {
    "zip_code": "1058070",
    "prefecture": "東京都",
    "prefecture_kana": "トウキョウト",
    "prefecture_code": "13",
    "city": "港区",
    "city_kana": "ミナトク",
    "town": "芝浦",
    "town_kana": "シバウラ",
    "street": "１−１−１浜松町ビルディング",
    "office_name": "株式会社　扶桑社",
    "office_name_kana": "カブシキガイシヤ フソウシヤ"
  },
  "8077": {
    "zip_code": "1058077",
    "prefecture": "東京都",
    "prefecture_kana": "トウキョウト",
    "prefecture_code": "13",
    "city": "港区",
    "city_kana": "ミナトク",
    "town": "芝公園",
    "town_kana": "シバコウエン",
    "street": "１丁目７−６",
    "office_name": "独立行政法人　勤労者退職金共済機構",
    "office_name_kana": "ドクリツギヨウセイホウジン キンロウシヤタイシヨクキンキヨウサイキコウ"
  },
  "8085": {
    "zip_code": "1058085",
    "prefecture": "東京都",
    "prefecture_kana": "トウキョウト",
    "prefecture_code": "13",
    "city": "港区",
    "city_kana": "ミナトク",
    "town": "虎ノ門",
    "town_kana": "トラノモン",
    "street": "５丁目１１−２オランダヒルズ森タワー２０階",
    "office_name": "（株）　カネボウ化粧品",
    "office_name_kana": "カ) カネボウケシヨウヒン"
  },
  "8088": {
    "zip_code": "1058088",
    "prefecture": "東京都",
    "prefecture_kana": "トウキョウト",
    "prefecture_code": "13",
    "city": "港区",
    "city_kana": "ミナトク",
    "town": "芝公園",
    "town_kana": "シバコウエン",
    "street": "２丁目４−１秀和芝パークビルＢ館１０階",
    "office_name": "企業年金連合会",
    "office_name_kana": "キギヨウネンキンレンゴウカイ"
  },
  "8301": {
    "zip_code": "1058301",
    "prefecture": "東京都",
    "prefecture_kana": "トウキョウト",
    "prefecture_code": "13",
    "city": "港区",
    "city_kana": "ミナトク",
    "town": "東新橋",
    "town_kana": "ヒガシシンバシ",
    "street": "１丁目５−１",
    "office_name": "パナソニック　株式会社",
    "office_name_kana": "パナソニツク カブシキガイシヤ"
  },
  "8302": {
    "zip_code": "1058302",
    "prefecture": "東京都",
    "prefecture_kana": "トウキョウト",
    "prefecture_code": "13",
    "city": "港区",
    "city_kana": "ミナトク",
    "town": "芝浦",
    "town_kana": "シバウラ",
    "street": "１−１−１浜松町ビル",
    "office_name": "コスモエネルギーホールディングス　株式会社",
    "office_name_kana": "コスモエネルギ-ホ-ルデイングス カブシキガイシヤ"
  },
  "8303": {
    "zip_code": "1058303",
    "prefecture": "東京都",
    "prefecture_kana": "トウキョウト",
    "prefecture_code": "13",
    "city": "港区",
    "city_kana": "ミナトク",
    "town": "芝浦",
    "town_kana": "シバウラ",
    "street": "１丁目１番１号",
    "office_name": "コスモ石油健康保険組合",
    "office_name_kana": "コスモセキユケンコウホケンクミアイ"
  },
  "8304": {
    "zip_code": "1058304",
    "prefecture": "東京都",
    "prefecture_kana": "トウキョウト",
    "prefecture_code": "13",
    "city": "港区",
    "city_kana": "ミナトク",
    "town": "芝浦",
    "town_kana": "シバウラ",
    "street": "１丁目１番１号",
    "office_name": "コスモビジネスアソシエイツ　株式会社",
    "office_name_kana": "コスモビジネスアソシエイツ カブシキガイシヤ"
  },
  "8305": {
    "zip_code": "1058305",
    "prefecture": "東京都",
    "prefecture_kana": "トウキョウト",
    "prefecture_code": "13",
    "city": "港区",
    "city_kana": "ミナトク",
    "town": "海岸",
    "town_kana": "カイガン",
    "street": "１−２−２０",
    "office_name": "ＴＯＴＯ　株式会社",
    "office_name_kana": "ト-ト- カブシキガイシヤ"
  },
  "8306": {
    "zip_code": "1058306",
    "prefecture": "東京都",
    "prefecture_kana": "トウキョウト",
    "prefecture_code": "13",
    "city": "港区",
    "city_kana": "ミナトク",
    "town": "海岸",
    "town_kana": "カイガン",
    "street": "１−２−２０",
    "office_name": "ＴＯＴＯ　メンテナンス　株式会社",
    "office_name_kana": "ト-ト- メンテナンス カブシキガイシヤ"
  },
  "8307": {
    "zip_code": "1058307",
    "prefecture": "東京都",
    "prefecture_kana": "トウキョウト",
    "prefecture_code": "13",
    "city": "港区",
    "city_kana": "ミナトク",
    "town": "海岸",
    "town_kana": "カイガン",
    "street": "１−２−２０",
    "office_name": "ＴＯＴＯ　エンジニアリング　株式会社",
    "office_name_kana": "ト-ト- エンジニアリング カブシキガイシヤ"
  },
  "8310": {
    "zip_code": "1058310",
    "prefecture": "東京都",
    "prefecture_kana": "トウキョウト",
    "prefecture_code": "13",
    "city": "港区",
    "city_kana": "ミナトク",
    "town": "東新橋",
    "town_kana": "ヒガシシンバシ",
    "street": "１丁目６−２",
    "office_name": "株式会社　資生堂",
    "office_name_kana": "カブシキガイシヤ シセイドウ"
  },
  "8311": {
    "zip_code": "1058311",
    "prefecture": "東京都",
    "prefecture_kana": "トウキョウト",
    "prefecture_code": "13",
    "city": "港区",
    "city_kana": "ミナトク",
    "town": "東新橋",
    "town_kana": "ヒガシシンバシ",
    "street": "１丁目７−３",
    "office_name": "トッパン・フォームズ　株式会社",
    "office_name_kana": "トツパン・フオ-ムズ カブシキガイシヤ"
  },
  "8312": {
    "zip_code": "1058312",
    "prefecture": "東京都",
    "prefecture_kana": "トウキョウト",
    "prefecture_code": "13",
    "city": "港区",
    "city_kana": "ミナトク",
    "town": "東新橋",
    "town_kana": "ヒガシシンバシ",
    "street": "１丁目７−３",
    "office_name": "トッパン・フォームズ・オペレーション　株式会社",
    "office_name_kana": "トツパン・フオ-ムズ・オペレ-シヨン カブシキガイシヤ"
  },
  "8313": {
    "zip_code": "1058313",
    "prefecture": "東京都",
    "prefecture_kana": "トウキョウト",
    "prefecture_code": "13",
    "city": "港区",
    "city_kana": "ミナトク",
    "town": "東新橋",
    "town_kana": "ヒガシシンバシ",
    "street": "１丁目７−３",
    "office_name": "テクノ・トッパン・フォームズ　株式会社",
    "office_name_kana": "テクノ・トツパン・フオ-ムズ カブシキガイシヤ"
  },
  "8314": {
    "zip_code": "1058314",
    "prefecture": "東京都",
    "prefecture_kana": "トウキョウト",
    "prefecture_code": "13",
    "city": "港区",
    "city_kana": "ミナトク",
    "town": "芝浦",
    "town_kana": "シバウラ",
    "street": "１−１−１浜松町ビル",
    "office_name": "コスモ石油マーケティング　株式会社",
    "office_name_kana": "コスモセキユマ-ケテイング カブシキガイシヤ"
  },
  "8315": {
    "zip_code": "1058315",
    "prefecture": "東京都",
    "prefecture_kana": "トウキョウト",
    "prefecture_code": "13",
    "city": "港区",
    "city_kana": "ミナトク",
    "town": "海岸",
    "town_kana": "カイガン",
    "street": "１丁目１４番５号",
    "office_name": "川崎重工業　株式会社",
    "office_name_kana": "カワサキジユウコウギヨウ カブシキガイシヤ"
  },
  "8320": {
    "zip_code": "1058320",
    "prefecture": "東京都",
    "prefecture_kana": "トウキョウト",
    "prefecture_code": "13",
    "city": "港区",
    "city_kana": "ミナトク",
    "town": "虎ノ門",
    "town_kana": "トラノモン",
    "street": "１−１０−５日土地虎ノ門ビル",
    "office_name": "株式会社　協和企画",
    "office_name_kana": "カブシキガイシヤ キヨウワキカク"
  },
  "8322": {
    "zip_code": "1058322",
    "prefecture": "東京都",
    "prefecture_kana": "トウキョウト",
    "prefecture_code": "13",
    "city": "港区",
    "city_kana": "ミナトク",
    "town": "東新橋",
    "town_kana": "ヒガシシンバシ",
    "street": "１丁目９−３",
    "office_name": "日本通運　株式会社",
    "office_name_kana": "ニツポンツウウン カブシキガイシヤ"
  },
  "8323": {
    "zip_code": "1058323",
    "prefecture": "東京都",
    "prefecture_kana": "トウキョウト",
    "prefecture_code": "13",
    "city": "港区",
    "city_kana": "ミナトク",
    "town": "芝浦",
    "town_kana": "シバウラ",
    "street": "１−１−１浜松町ビル",
    "office_name": "コスモエネルギー開発　株式会社",
    "office_name_kana": "コスモエネルギ-カイハツ カブシキガイシヤ"
  },
  "8325": {
    "zip_code": "1058325",
    "prefecture": "東京都",
    "prefecture_kana": "トウキョウト",
    "prefecture_code": "13",
    "city": "港区",
    "city_kana": "ミナトク",
    "town": "芝浦",
    "town_kana": "シバウラ",
    "street": "１−１−１浜松町ビル",
    "office_name": "コスモトレードアンドサービス　株式会社",
    "office_name_kana": "コスモトレ-ドアンドサ-ビス カブシキガイシヤ"
  },
  "8330": {
    "zip_code": "1058330",
    "prefecture": "東京都",
    "prefecture_kana": "トウキョウト",
    "prefecture_code": "13",
    "city": "港区",
    "city_kana": "ミナトク",
    "town": "海岸",
    "town_kana": "カイガン",
    "street": "１丁目１１−１ニューピア竹芝ノースタワー１３階",
    "office_name": "株式会社　Ｓ＆Ｓエンジニアリング",
    "office_name_kana": "カブシキガイシヤ エスアンドエスエンジニアリング"
  },
  "8331": {
    "zip_code": "1058331",
    "prefecture": "東京都",
    "prefecture_kana": "トウキョウト",
    "prefecture_code": "13",
    "city": "港区",
    "city_kana": "ミナトク",
    "town": "芝浦",
    "town_kana": "シバウラ",
    "street": "１−１−１浜松町ビル",
    "office_name": "コスモ石油ルブリカンツ　株式会社",
    "office_name_kana": "コスモセキユルブリカンツ カブシキガイシヤ"
  },
  "8333": {
    "zip_code": "1058333",
    "prefecture": "東京都",
    "prefecture_kana": "トウキョウト",
    "prefecture_code": "13",
    "city": "港区",
    "city_kana": "ミナトク",
    "town": "東新橋",
    "town_kana": "ヒガシシンバシ",
    "street": "１丁目６−３",
    "office_name": "株式会社　ロイヤルパーク汐留タワー",
    "office_name_kana": "カブシキガイシヤ ロイヤルパ-クシオドメタワ-"
  },
  "8335": {
    "zip_code": "1058335",
    "prefecture": "東京都",
    "prefecture_kana": "トウキョウト",
    "prefecture_code": "13",
    "city": "港区",
    "city_kana": "ミナトク",
    "town": "芝",
    "town_kana": "シバ",
    "street": "３丁目２３番１号セレスティン芝三井ビルディング１２階",
    "office_name": "株式会社　ＪＴＢコミュニケーションデザイン",
    "office_name_kana": "カブシキガイシヤ ジエイテイ-ビ-コミユニケ-シヨンデザイン"
  },
  "8338": {
    "zip_code": "1058338",
    "prefecture": "東京都",
    "prefecture_kana": "トウキョウト",
    "prefecture_code": "13",
    "city": "港区",
    "city_kana": "ミナトク",
    "town": "海岸",
    "town_kana": "カイガン",
    "street": "１丁目１４番２２号",
    "office_name": "日通商事　株式会社",
    "office_name_kana": "ニツツウシヨウジ カブシキガイシヤ"
  },
  "8401": {
    "zip_code": "1058401",
    "prefecture": "東京都",
    "prefecture_kana": "トウキョウト",
    "prefecture_code": "13",
    "city": "港区",
    "city_kana": "ミナトク",
    "town": "虎ノ門",
    "town_kana": "トラノモン",
    "street": "１丁目２０−１０",
    "office_name": "西松建設　株式会社",
    "office_name_kana": "ニシマツケンセツ カブシキガイシヤ"
  },
  "8402": {
    "zip_code": "1058402",
    "prefecture": "東京都",
    "prefecture_kana": "トウキョウト",
    "prefecture_code": "13",
    "city": "港区",
    "city_kana": "ミナトク",
    "town": "西新橋",
    "town_kana": "ニシシンバシ",
    "street": "３丁目１２−８",
    "office_name": "東京都情報サービス産業健康保険組合",
    "office_name_kana": "トウキヨウトジヨウホウサ-ビスサンギヨウケンコウホケンクミアイ"
  },
  "8403": {
    "zip_code": "1058403",
    "prefecture": "東京都",
    "prefecture_kana": "トウキョウト",
    "prefecture_code": "13",
    "city": "港区",
    "city_kana": "ミナトク",
    "town": "虎ノ門",
    "town_kana": "トラノモン",
    "street": "４−３−２０",
    "office_name": "アメリカンホーム医療・損害保険　株式会社（アメリカンホーム保険会社）",
    "office_name_kana": "アメリカンホ-ムイリヨウ・ソンガイホケン カブシキガイシヤ(アメリカンホ-ムホケンガイシヤ)"
  },
  "8405": {
    "zip_code": "1058405",
    "prefecture": "東京都",
    "prefecture_kana": "トウキョウト",
    "prefecture_code": "13",
    "city": "港区",
    "city_kana": "ミナトク",
    "town": "虎ノ門",
    "town_kana": "トラノモン",
    "street": "２−２−５",
    "office_name": "株式会社　角川・エス・エス・コミュニケーションズ",
    "office_name_kana": "カブシキガイシヤ カドカワ・エス・エス・コミユニケ-シヨンズ"
  },
  "8407": {
    "zip_code": "1058407",
    "prefecture": "東京都",
    "prefecture_kana": "トウキョウト",
    "prefecture_code": "13",
    "city": "港区",
    "city_kana": "ミナトク",
    "town": "虎ノ門",
    "town_kana": "トラノモン",
    "street": "２丁目１０−１",
    "office_name": "（株）　ジャパンエナジー",
    "office_name_kana": "カブシキガイシヤ ジヤパンエナジ-"
  },
  "8408": {
    "zip_code": "1058408",
    "prefecture": "東京都",
    "prefecture_kana": "トウキョウト",
    "prefecture_code": "13",
    "city": "港区",
    "city_kana": "ミナトク",
    "town": "西新橋",
    "town_kana": "ニシシンバシ",
    "street": "１丁目７−１３虎ノ門イーストビルディング",
    "office_name": "日本技術貿易　株式会社",
    "office_name_kana": "ニホンギジユツボウエキ カブシキガイシヤ"
  },
  "8410": {
    "zip_code": "1058410",
    "prefecture": "東京都",
    "prefecture_kana": "トウキョウト",
    "prefecture_code": "13",
    "city": "港区",
    "city_kana": "ミナトク",
    "town": "西新橋",
    "town_kana": "ニシシンバシ",
    "street": "２丁目１５−１２",
    "office_name": "日立アプライアンス　株式会社",
    "office_name_kana": "ヒタチアプライアンス カブシキガイシヤ"
  },
  "8411": {
    "zip_code": "1058411",
    "prefecture": "東京都",
    "prefecture_kana": "トウキョウト",
    "prefecture_code": "13",
    "city": "港区",
    "city_kana": "ミナトク",
    "town": "西新橋",
    "town_kana": "ニシシンバシ",
    "street": "１丁目１８−１７明産西新橋ビル",
    "office_name": "日精　株式会社",
    "office_name_kana": "ニツセイ カブシキガイシヤ"
  },
  "8412": {
    "zip_code": "1058412",
    "prefecture": "東京都",
    "prefecture_kana": "トウキョウト",
    "prefecture_code": "13",
    "city": "港区",
    "city_kana": "ミナトク",
    "town": "西新橋",
    "town_kana": "ニシシンバシ",
    "street": "１丁目３−１２",
    "office_name": "新日本石油　株式会社",
    "office_name_kana": "シンニホンセキユ カブシキガイシヤ"
  },
  "8413": {
    "zip_code": "1058413",
    "prefecture": "東京都",
    "prefecture_kana": "トウキョウト",
    "prefecture_code": "13",
    "city": "港区",
    "city_kana": "ミナトク",
    "town": "西新橋",
    "town_kana": "ニシシンバシ",
    "street": "２丁目１５−１２",
    "office_name": "日立コンシューマ・マーケティング　株式会社",
    "office_name_kana": "ヒタチコンシユ-マ・マ-ケテイング カブシキガイシヤ"
  },
  "8414": {
    "zip_code": "1058414",
    "prefecture": "東京都",
    "prefecture_kana": "トウキョウト",
    "prefecture_code": "13",
    "city": "港区",
    "city_kana": "ミナトク",
    "town": "虎ノ門",
    "town_kana": "トラノモン",
    "street": "１丁目１−２",
    "office_name": "ローレルバンクマシン　（株）",
    "office_name_kana": "ロ-レルバンクマシン カブシキガイシヤ"
  },
  "8415": {
    "zip_code": "1058415",
    "prefecture": "東京都",
    "prefecture_kana": "トウキョウト",
    "prefecture_code": "13",
    "city": "港区",
    "city_kana": "ミナトク",
    "town": "虎ノ門",
    "town_kana": "トラノモン",
    "street": "４丁目１−２８虎ノ門タワーズオフィス",
    "office_name": "株式会社　ソニー・ピクチャーズエンタテインメント",
    "office_name_kana": "カブシキガイシヤ ソニ-・ピクチヤ-ズエンタテインメント"
  },
  "8416": {
    "zip_code": "1058416",
    "prefecture": "東京都",
    "prefecture_kana": "トウキョウト",
    "prefecture_code": "13",
    "city": "港区",
    "city_kana": "ミナトク",
    "town": "虎ノ門",
    "town_kana": "トラノモン",
    "street": "２丁目１０−４",
    "office_name": "株式会社　ホテルオークラ",
    "office_name_kana": "カブシキガイシヤ ホテルオ-クラ"
  },
  "8419": {
    "zip_code": "1058419",
    "prefecture": "東京都",
    "prefecture_kana": "トウキョウト",
    "prefecture_code": "13",
    "city": "港区",
    "city_kana": "ミナトク",
    "town": "西新橋",
    "town_kana": "ニシシンバシ",
    "street": "１丁目１４−１",
    "office_name": "東亞合成　株式会社",
    "office_name_kana": "トウアゴウセイ カブシキガイシヤ"
  },
  "8420": {
    "zip_code": "1058420",
    "prefecture": "東京都",
    "prefecture_kana": "トウキョウト",
    "prefecture_code": "13",
    "city": "港区",
    "city_kana": "ミナトク",
    "town": "西新橋",
    "town_kana": "ニシシンバシ",
    "street": "２丁目５−３",
    "office_name": "都築電気　株式会社　第二本社",
    "office_name_kana": "ツヅキデンキ カブシキガイシヤ ダイニホンシヤ"
  },
  "8422": {
    "zip_code": "1058422",
    "prefecture": "東京都",
    "prefecture_kana": "トウキョウト",
    "prefecture_code": "13",
    "city": "港区",
    "city_kana": "ミナトク",
    "town": "虎ノ門",
    "town_kana": "トラノモン",
    "street": "２丁目２−１",
    "office_name": "日本たばこ産業　株式会社",
    "office_name_kana": "ニホンタバコサンギヨウ カブシキガイシヤ"
  },
  "8423": {
    "zip_code": "1058423",
    "prefecture": "東京都",
    "prefecture_kana": "トウキョウト",
    "prefecture_code": "13",
    "city": "港区",
    "city_kana": "ミナトク",
    "town": "虎ノ門",
    "town_kana": "トラノモン",
    "street": "３丁目５−１虎ノ門３７森ビル",
    "office_name": "青和特許法律事務所",
    "office_name_kana": "セイワトツキヨホウリツジムシヨ"
  },
  "8424": {
    "zip_code": "1058424",
    "prefecture": "東京都",
    "prefecture_kana": "トウキョウト",
    "prefecture_code": "13",
    "city": "港区",
    "city_kana": "ミナトク",
    "town": "虎ノ門",
    "town_kana": "トラノモン",
    "street": "３丁目１０−４−８０８",
    "office_name": "シリリュス・サービスセンター",
    "office_name_kana": "シリリユス・サ-ビスセンタ-"
  },
  "8427": {
    "zip_code": "1058427",
    "prefecture": "東京都",
    "prefecture_kana": "トウキョウト",
    "prefecture_code": "13",
    "city": "港区",
    "city_kana": "ミナトク",
    "town": "西新橋",
    "town_kana": "ニシシンバシ",
    "street": "１丁目２−９日比谷セントラルビル",
    "office_name": "三井農林　株式会社",
    "office_name_kana": "ミツイノウリン カブシキガイシヤ"
  },
  "8428": {
    "zip_code": "1058428",
    "prefecture": "東京都",
    "prefecture_kana": "トウキョウト",
    "prefecture_code": "13",
    "city": "港区",
    "city_kana": "ミナトク",
    "town": "西新橋",
    "town_kana": "ニシシンバシ",
    "street": "２丁目１−１",
    "office_name": "キッコーマン　株式会社",
    "office_name_kana": "キツコ-マン カブシキガイシヤ"
  },
  "8429": {
    "zip_code": "1058429",
    "prefecture": "東京都",
    "prefecture_kana": "トウキョウト",
    "prefecture_code": "13",
    "city": "港区",
    "city_kana": "ミナトク",
    "town": "西新橋",
    "town_kana": "ニシシンバシ",
    "street": "１丁目４−５",
    "office_name": "株式会社　トクヤマ",
    "office_name_kana": "カブシキガイシヤ トクヤマ"
  },
  "8430": {
    "zip_code": "1058430",
    "prefecture": "東京都",
    "prefecture_kana": "トウキョウト",
    "prefecture_code": "13",
    "city": "港区",
    "city_kana": "ミナトク",
    "town": "虎ノ門",
    "town_kana": "トラノモン",
    "street": "２−１０−１",
    "office_name": "伊藤忠エネクス　株式会社",
    "office_name_kana": "イトウチユウエネクス カブシキガイシヤ"
  },
  "8432": {
    "zip_code": "1058432",
    "prefecture": "東京都",
    "prefecture_kana": "トウキョウト",
    "prefecture_code": "13",
    "city": "港区",
    "city_kana": "ミナトク",
    "town": "芝公園",
    "town_kana": "シバコウエン",
    "street": "２丁目４−１",
    "office_name": "昭光通商　株式会社",
    "office_name_kana": "シヨウコウツウシヨウ カブシキガイシヤ"
  },
  "8433": {
    "zip_code": "1058433",
    "prefecture": "東京都",
    "prefecture_kana": "トウキョウト",
    "prefecture_code": "13",
    "city": "港区",
    "city_kana": "ミナトク",
    "town": "西新橋",
    "town_kana": "ニシシンバシ",
    "street": "２−３８−５西新橋ＭＦビル",
    "office_name": "パナソニック　ヘルスケア　株式会社",
    "office_name_kana": "パナソニツク ヘルスケア カブシキガイシヤ"
  },
  "8434": {
    "zip_code": "1058434",
    "prefecture": "東京都",
    "prefecture_kana": "トウキョウト",
    "prefecture_code": "13",
    "city": "港区",
    "city_kana": "ミナトク",
    "town": "西新橋",
    "town_kana": "ニシシンバシ",
    "street": "２丁目８−６住友不動産日比谷ビル",
    "office_name": "独立行政法人　鉄道建設・運輸施設整備支援機構　国鉄精算事業本部",
    "office_name_kana": "ドクリツギヨウセイホウジン テツドウケンセツ・ウンユシセツセイビシエンキコウ コクテツセイサンジギヨウホンブ"
  },
  "8435": {
    "zip_code": "1058435",
    "prefecture": "東京都",
    "prefecture_kana": "トウキョウト",
    "prefecture_code": "13",
    "city": "港区",
    "city_kana": "ミナトク",
    "town": "虎ノ門",
    "town_kana": "トラノモン",
    "street": "２丁目２−５",
    "office_name": "北海道新聞　東京支社",
    "office_name_kana": "ホツカイドウシンブン トウキヨウシシヤ"
  },
  "8436": {
    "zip_code": "1058436",
    "prefecture": "東京都",
    "prefecture_kana": "トウキョウト",
    "prefecture_code": "13",
    "city": "港区",
    "city_kana": "ミナトク",
    "town": "虎ノ門",
    "town_kana": "トラノモン",
    "street": "１丁目２−８虎ノ門琴平タワー８Ｆ",
    "office_name": "株式会社　日本教育新聞社",
    "office_name_kana": "カブシキガイシヤ ニホンキヨウイクシンブンシヤ"
  },
  "8437": {
    "zip_code": "1058437",
    "prefecture": "東京都",
    "prefecture_kana": "トウキョウト",
    "prefecture_code": "13",
    "city": "港区",
    "city_kana": "ミナトク",
    "town": "虎ノ門",
    "town_kana": "トラノモン",
    "street": "１丁目２−８虎ノ門琴平タワー１８階",
    "office_name": "美浜　株式会社",
    "office_name_kana": "ミハマ カ)"
  },
  "8440": {
    "zip_code": "1058440",
    "prefecture": "東京都",
    "prefecture_kana": "トウキョウト",
    "prefecture_code": "13",
    "city": "港区",
    "city_kana": "ミナトク",
    "town": "新橋",
    "town_kana": "シンバシ",
    "street": "２丁目１９−１０新橋マリンビル４階",
    "office_name": "東京実業健康保険組合　城南支部",
    "office_name_kana": "トウキヨウジツギヨウケンコウホケンクミアイ ジヨウナンシブ"
  },
  "8441": {
    "zip_code": "1058441",
    "prefecture": "東京都",
    "prefecture_kana": "トウキョウト",
    "prefecture_code": "13",
    "city": "港区",
    "city_kana": "ミナトク",
    "town": "芝大門",
    "town_kana": "シバダイモン",
    "street": "１丁目１−３",
    "office_name": "財団法人　ゆうちょ財団",
    "office_name_kana": "ザイダンホウジン ユウチヨザイダン"
  },
  "8445": {
    "zip_code": "1058445",
    "prefecture": "東京都",
    "prefecture_kana": "トウキョウト",
    "prefecture_code": "13",
    "city": "港区",
    "city_kana": "ミナトク",
    "town": "虎ノ門",
    "town_kana": "トラノモン",
    "street": "２−２−５共同通信会館７階",
    "office_name": "独立行政法人　国立印刷局",
    "office_name_kana": "ドクリツギヨウセイホウジン コクリツインサツキヨク"
  },
  "8446": {
    "zip_code": "1058446",
    "prefecture": "東京都",
    "prefecture_kana": "トウキョウト",
    "prefecture_code": "13",
    "city": "港区",
    "city_kana": "ミナトク",
    "town": "西新橋",
    "town_kana": "ニシシンバシ",
    "street": "３丁目３−１",
    "office_name": "一般財団法人　長寿社会開発センター",
    "office_name_kana": "イツパンザイダンホウジン チヨウジユシヤカイカイハツセンタ-"
  },
  "8447": {
    "zip_code": "1058447",
    "prefecture": "東京都",
    "prefecture_kana": "トウキョウト",
    "prefecture_code": "13",
    "city": "港区",
    "city_kana": "ミナトク",
    "town": "虎ノ門",
    "town_kana": "トラノモン",
    "street": "４丁目３番１３号ヒューリック神谷町ビル",
    "office_name": "高圧ガス保安協会",
    "office_name_kana": "コウアツガスホアンキヨウカイ"
  },
  "8448": [
    {
      "zip_code": "1058448",
      "prefecture": "東京都",
      "prefecture_kana": "トウキョウト",
      "prefecture_code": "13",
      "city": "港区",
      "city_kana": "ミナトク",
      "town": "西新橋",
      "town_kana": "ニシシンバシ",
      "street": "２丁目３６−１",
      "office_name": "株式会社　永谷園",
      "office_name_kana": "カブシキガイシヤ ナガタニエン"
    },
    {
      "zip_code": "1058448",
      "prefecture": "東京都",
      "prefecture_kana": "トウキョウト",
      "prefecture_code": "13",
      "city": "港区",
      "city_kana": "ミナトク",
      "town": "西新橋",
      "town_kana": "ニシシンバシ",
      "street": "２−３６−１",
      "office_name": "株式会社　永谷園ホールディングス",
      "office_name_kana": "カブシキガイシヤ ナガタニエンホ-ルデイングス"
    }
  ],
  "8449": {
    "zip_code": "1058449",
    "prefecture": "東京都",
    "prefecture_kana": "トウキョウト",
    "prefecture_code": "13",
    "city": "港区",
    "city_kana": "ミナトク",
    "town": "芝浦",
    "town_kana": "シバウラ",
    "street": "１丁目２番１号シーバンスＮ館２０階",
    "office_name": "宇部興産　株式会社",
    "office_name_kana": "ウベコウサン カブシキカイシヤ"
  },
  "8450": {
    "zip_code": "1058450",
    "prefecture": "東京都",
    "prefecture_kana": "トウキョウト",
    "prefecture_code": "13",
    "city": "港区",
    "city_kana": "ミナトク",
    "town": "虎ノ門",
    "town_kana": "トラノモン",
    "street": "２丁目３番１７号（虎ノ門２丁目タワー）",
    "office_name": "積水化学工業　株式会社",
    "office_name_kana": "セキスイカガクコウギヨウ カブシキガイシヤ"
  },
  "8451": {
    "zip_code": "1058451",
    "prefecture": "東京都",
    "prefecture_kana": "トウキョウト",
    "prefecture_code": "13",
    "city": "港区",
    "city_kana": "ミナトク",
    "town": "虎ノ門",
    "town_kana": "トラノモン",
    "street": "４丁目１番２８号虎ノ門タワーズオフィス",
    "office_name": "森村商事　株式会社",
    "office_name_kana": "モリムラシヨウジ カブシキガイシヤ"
  },
  "8452": {
    "zip_code": "1058452",
    "prefecture": "東京都",
    "prefecture_kana": "トウキョウト",
    "prefecture_code": "13",
    "city": "港区",
    "city_kana": "ミナトク",
    "town": "虎ノ門",
    "town_kana": "トラノモン",
    "street": "４丁目３番１号城山トラストタワー３７階",
    "office_name": "クオール　株式会社",
    "office_name_kana": "クオ-ル カブシキガイシヤ"
  },
  "8453": {
    "zip_code": "1058453",
    "prefecture": "東京都",
    "prefecture_kana": "トウキョウト",
    "prefecture_code": "13",
    "city": "港区",
    "city_kana": "ミナトク",
    "town": "虎ノ門",
    "town_kana": "トラノモン",
    "street": "３丁目５−１虎ノ門３７森ビル",
    "office_name": "独立行政法人　中小企業基盤整備機構",
    "office_name_kana": "ドクリツギヨウセイホウジン チユウシヨウキギヨウキバンセイビキコウ"
  },
  "8455": {
    "zip_code": "1058455",
    "prefecture": "東京都",
    "prefecture_kana": "トウキョウト",
    "prefecture_code": "13",
    "city": "港区",
    "city_kana": "ミナトク",
    "town": "虎ノ門",
    "town_kana": "トラノモン",
    "street": "２丁目２−５共同通信会館４Ｆ",
    "office_name": "株式会社　角川マーケティング",
    "office_name_kana": "カブシキガイシヤ カドカワマ-ケテイング"
  },
  "8456": {
    "zip_code": "1058456",
    "prefecture": "東京都",
    "prefecture_kana": "トウキョウト",
    "prefecture_code": "13",
    "city": "港区",
    "city_kana": "ミナトク",
    "town": "虎ノ門",
    "town_kana": "トラノモン",
    "street": "３丁目１８−１９虎ノ門マリンビル",
    "office_name": "日本ポラロイド　（株）",
    "office_name_kana": "ニツポンポラロイド カブシキガイシヤ"
  },
  "8457": {
    "zip_code": "1058457",
    "prefecture": "東京都",
    "prefecture_kana": "トウキョウト",
    "prefecture_code": "13",
    "city": "港区",
    "city_kana": "ミナトク",
    "town": "虎ノ門",
    "town_kana": "トラノモン",
    "street": "４丁目３−１３秀和神谷町ビル",
    "office_name": "日本デスコ　株式会社",
    "office_name_kana": "ニホンデスコ カブシキガイシヤ"
  },
  "8458": {
    "zip_code": "1058458",
    "prefecture": "東京都",
    "prefecture_kana": "トウキョウト",
    "prefecture_code": "13",
    "city": "港区",
    "city_kana": "ミナトク",
    "town": "西新橋",
    "town_kana": "ニシシンバシ",
    "street": "３丁目２１−８",
    "office_name": "岩谷産業　株式会社",
    "office_name_kana": "イワタニサンギヨウ カブシキガイシヤ"
  },
  "8460": {
    "zip_code": "1058460",
    "prefecture": "東京都",
    "prefecture_kana": "トウキョウト",
    "prefecture_code": "13",
    "city": "港区",
    "city_kana": "ミナトク",
    "town": "虎ノ門",
    "town_kana": "トラノモン",
    "street": "１丁目７番１２号虎ノ門ファーストガーデン",
    "office_name": "沖電気工業　株式会社",
    "office_name_kana": "オキデンキコウギヨウ カブシキガイシヤ"
  },
  "8461": {
    "zip_code": "1058461",
    "prefecture": "東京都",
    "prefecture_kana": "トウキョウト",
    "prefecture_code": "13",
    "city": "港区",
    "city_kana": "ミナトク",
    "town": "西新橋",
    "town_kana": "ニシシンバシ",
    "street": "３丁目２５−８",
    "office_name": "学校法人　慈恵大学",
    "office_name_kana": "ガツコウホウジン ジケイダイガク"
  },
  "8464": {
    "zip_code": "1058464",
    "prefecture": "東京都",
    "prefecture_kana": "トウキョウト",
    "prefecture_code": "13",
    "city": "港区",
    "city_kana": "ミナトク",
    "town": "西新橋",
    "town_kana": "ニシシンバシ",
    "street": "３丁目９−４",
    "office_name": "三井住友ファイナンス＆リース　株式会社",
    "office_name_kana": "ミツイスミトモフアイナンスアンドリ-ス カブシキガイシヤ"
  },
  "8465": {
    "zip_code": "1058465",
    "prefecture": "東京都",
    "prefecture_kana": "トウキョウト",
    "prefecture_code": "13",
    "city": "港区",
    "city_kana": "ミナトク",
    "town": "虎ノ門",
    "town_kana": "トラノモン",
    "street": "１丁目２２−１２ＳＶＡＸＴＳビル７階",
    "office_name": "競馬セキュリティサービス　株式会社",
    "office_name_kana": "ケイバセキユリテイサ-ビス カブシキガイシヤ"
  },
  "8468": {
    "zip_code": "1058468",
    "prefecture": "東京都",
    "prefecture_kana": "トウキョウト",
    "prefecture_code": "13",
    "city": "港区",
    "city_kana": "ミナトク",
    "town": "浜松町",
    "town_kana": "ハママツチョウ",
    "street": "２丁目１３−１０",
    "office_name": "株式会社　グルメ杵屋　東京支社",
    "office_name_kana": "カブシキガイシヤ グルメキネヤ トウキヨウシシヤ"
  },
  "8469": {
    "zip_code": "1058469",
    "prefecture": "東京都",
    "prefecture_kana": "トウキョウト",
    "prefecture_code": "13",
    "city": "港区",
    "city_kana": "ミナトク",
    "town": "芝浦",
    "town_kana": "シバウラ",
    "street": "１丁目２−１シーハンスＮ館",
    "office_name": "セイコークロック　株式会社",
    "office_name_kana": "セイコ-クロツク カブシキガイシヤ"
  },
  "8470": {
    "zip_code": "1058470",
    "prefecture": "東京都",
    "prefecture_kana": "トウキョウト",
    "prefecture_code": "13",
    "city": "港区",
    "city_kana": "ミナトク",
    "town": "虎ノ門",
    "town_kana": "トラノモン",
    "street": "２丁目２−２",
    "office_name": "国家公務員　共済組合連合会　虎の門病院",
    "office_name_kana": "コツカコウムイン キヨウサイクミアイレンゴウカイ トラノモンビヨウイン"
  },
  "8471": {
    "zip_code": "1058471",
    "prefecture": "東京都",
    "prefecture_kana": "トウキョウト",
    "prefecture_code": "13",
    "city": "港区",
    "city_kana": "ミナトク",
    "town": "西新橋",
    "town_kana": "ニシシンバシ",
    "street": "３丁目１９−１８",
    "office_name": "東京慈恵会医科大学附属病院",
    "office_name_kana": "トウキヨウジケイカイイカダイガクフゾクビヨウイン"
  },
  "8472": {
    "zip_code": "1058472",
    "prefecture": "東京都",
    "prefecture_kana": "トウキョウト",
    "prefecture_code": "13",
    "city": "港区",
    "city_kana": "ミナトク",
    "town": "愛宕",
    "town_kana": "アタゴ",
    "street": "１丁目１−１１",
    "office_name": "財団法人　家電製品協会",
    "office_name_kana": "ザイダンホウジン カデンセイヒンキヨウカイ"
  },
  "8473": {
    "zip_code": "1058473",
    "prefecture": "東京都",
    "prefecture_kana": "トウキョウト",
    "prefecture_code": "13",
    "city": "港区",
    "city_kana": "ミナトク",
    "town": "虎ノ門",
    "town_kana": "トラノモン",
    "street": "２−２−５",
    "office_name": "株式会社　角川マガジンズ",
    "office_name_kana": "カブシキガイシヤ カドカワマガジンズ"
  },
  "8482": {
    "zip_code": "1058482",
    "prefecture": "東京都",
    "prefecture_kana": "トウキョウト",
    "prefecture_code": "13",
    "city": "港区",
    "city_kana": "ミナトク",
    "town": "虎ノ門",
    "town_kana": "トラノモン",
    "street": "４丁目１−４０",
    "office_name": "コロムビアミュージックエンタテインメント　株式会社",
    "office_name_kana": "コロムビアミユ-ジツクエンタテインメント カブシキガイシヤ"
  },
  "8483": {
    "zip_code": "1058483",
    "prefecture": "東京都",
    "prefecture_kana": "トウキョウト",
    "prefecture_code": "13",
    "city": "港区",
    "city_kana": "ミナトク",
    "town": "虎ノ門",
    "town_kana": "トラノモン",
    "street": "３丁目５−１虎ノ門３７森ビル",
    "office_name": "カンタスエアーウエイズリミテッド",
    "office_name_kana": "カンタスエア-ウエイズリミテツド"
  },
  "8484": {
    "zip_code": "1058484",
    "prefecture": "東京都",
    "prefecture_kana": "トウキョウト",
    "prefecture_code": "13",
    "city": "港区",
    "city_kana": "ミナトク",
    "town": "芝大門",
    "town_kana": "シバダイモン",
    "street": "２−１０−１２ＫＤＸ芝大門",
    "office_name": "マグレガーゴルフジャパン　株式会社",
    "office_name_kana": "マグレガ-ゴルフジヤパン カブシキガイシヤ"
  },
  "8485": {
    "zip_code": "1058485",
    "prefecture": "東京都",
    "prefecture_kana": "トウキョウト",
    "prefecture_code": "13",
    "city": "港区",
    "city_kana": "ミナトク",
    "town": "海岸",
    "town_kana": "カイガン",
    "street": "１丁目２番３号",
    "office_name": "一般財団法人　日本不動産研究所",
    "office_name_kana": "イツパンザイダンホウジン ニホンフドウサンケンキユウジヨ"
  },
  "8486": {
    "zip_code": "1058486",
    "prefecture": "東京都",
    "prefecture_kana": "トウキョウト",
    "prefecture_code": "13",
    "city": "港区",
    "city_kana": "ミナトク",
    "town": "虎ノ門",
    "town_kana": "トラノモン",
    "street": "４丁目３番１３号ヒューリック神谷町ビル９階",
    "office_name": "独立行政法人　福祉医療機構",
    "office_name_kana": "ドクリツギヨウセイホウジン フクシイリヨウキコウ"
  },
  "8487": {
    "zip_code": "1058487",
    "prefecture": "東京都",
    "prefecture_kana": "トウキョウト",
    "prefecture_code": "13",
    "city": "港区",
    "city_kana": "ミナトク",
    "town": "虎ノ門",
    "town_kana": "トラノモン",
    "street": "２丁目５−１０",
    "office_name": "株式会社　ポニーキャニオン",
    "office_name_kana": "カブシキガイシヤ ポニ-キヤニオン"
  },
  "8488": {
    "zip_code": "1058488",
    "prefecture": "東京都",
    "prefecture_kana": "トウキョウト",
    "prefecture_code": "13",
    "city": "港区",
    "city_kana": "ミナトク",
    "town": "西新橋",
    "town_kana": "ニシシンバシ",
    "street": "３−２３−５",
    "office_name": "岩田地崎建設　株式会社",
    "office_name_kana": "イワタチザキケンセツ カブシキガイシヤ"
  },
  "8501": {
    "zip_code": "1058501",
    "prefecture": "東京都",
    "prefecture_kana": "トウキョウト",
    "prefecture_code": "13",
    "city": "港区",
    "city_kana": "ミナトク",
    "town": "虎ノ門",
    "town_kana": "トラノモン",
    "street": "５丁目１１番２号",
    "office_name": "三菱ＵＦＪリサーチ＆コンサルティング　株式会社",
    "office_name_kana": "ミツビシユ-エフジエイリサ-チアンドコンサルテイング カブシキガイシヤ"
  },
  "8502": {
    "zip_code": "1058502",
    "prefecture": "東京都",
    "prefecture_kana": "トウキョウト",
    "prefecture_code": "13",
    "city": "港区",
    "city_kana": "ミナトク",
    "town": "虎ノ門",
    "town_kana": "トラノモン",
    "street": "１−１３−８",
    "office_name": "株式会社　ノリタケカンパニーリミテド",
    "office_name_kana": "カブシキガイシヤ ノリタケカンパニ-リミテド"
  },
  "8503": {
    "zip_code": "1058503",
    "prefecture": "東京都",
    "prefecture_kana": "トウキョウト",
    "prefecture_code": "13",
    "city": "港区",
    "city_kana": "ミナトク",
    "town": "芝",
    "town_kana": "シバ",
    "street": "３丁目８番２号芝公園ファーストビル",
    "office_name": "リコージャパン　株式会社",
    "office_name_kana": "リコ-ジヤパン カブシキガイシヤ"
  },
  "8507": {
    "zip_code": "1058507",
    "prefecture": "東京都",
    "prefecture_kana": "トウキョウト",
    "prefecture_code": "13",
    "city": "港区",
    "city_kana": "ミナトク",
    "town": "芝",
    "town_kana": "シバ",
    "street": "２丁目３２−１",
    "office_name": "株式会社　長谷工コーポレーション　＆（株）長谷工アーベストを除くグループ会社",
    "office_name_kana": "カブシキガイシヤ ハセコウコ-ポレ-シヨン アンド (カブ) ハセコウア-ベストヲノゾクグル-プガイシヤ"
  },
  "8508": {
    "zip_code": "1058508",
    "prefecture": "東京都",
    "prefecture_kana": "トウキョウト",
    "prefecture_code": "13",
    "city": "港区",
    "city_kana": "ミナトク",
    "town": "芝公園",
    "town_kana": "シバコウエン",
    "street": "４丁目１番４号",
    "office_name": "日本タタ・コンサルタンシー・サービシズ　株式会社",
    "office_name_kana": "ニホンタタ・コンサルタンシ-・サ-ビシズ カブシキガイシヤ"
  },
  "8509": {
    "zip_code": "1058509",
    "prefecture": "東京都",
    "prefecture_kana": "トウキョウト",
    "prefecture_code": "13",
    "city": "港区",
    "city_kana": "ミナトク",
    "town": "芝公園",
    "town_kana": "シバコウエン",
    "street": "２丁目９−３",
    "office_name": "世紀東急工業　株式会社",
    "office_name_kana": "セイキトウキユウコウギヨウ カブシキガイシヤ"
  },
  "8510": {
    "zip_code": "1058510",
    "prefecture": "東京都",
    "prefecture_kana": "トウキョウト",
    "prefecture_code": "13",
    "city": "港区",
    "city_kana": "ミナトク",
    "town": "芝",
    "town_kana": "シバ",
    "street": "３丁目１−１２",
    "office_name": "美和ロック　株式会社",
    "office_name_kana": "ミワロツク カブシキガイシヤ"
  },
  "8511": {
    "zip_code": "1058511",
    "prefecture": "東京都",
    "prefecture_kana": "トウキョウト",
    "prefecture_code": "13",
    "city": "港区",
    "city_kana": "ミナトク",
    "town": "芝公園",
    "town_kana": "シバコウエン",
    "street": "１丁目５−２５",
    "office_name": "東京都港区役所",
    "office_name_kana": "トウキヨウトミナトクヤクシヨ"
  },
  "8512": {
    "zip_code": "1058512",
    "prefecture": "東京都",
    "prefecture_kana": "トウキョウト",
    "prefecture_code": "13",
    "city": "港区",
    "city_kana": "ミナトク",
    "town": "芝公園",
    "town_kana": "シバコウエン",
    "street": "１丁目５−３０",
    "office_name": "慶應義塾大学　薬学部",
    "office_name_kana": "ケイオウギジユクダイガク ヤクガクブ"
  },
  "8515": {
    "zip_code": "1058515",
    "prefecture": "東京都",
    "prefecture_kana": "トウキョウト",
    "prefecture_code": "13",
    "city": "港区",
    "city_kana": "ミナトク",
    "town": "芝",
    "town_kana": "シバ",
    "street": "２丁目７−１５",
    "office_name": "高千穂電気　株式会社",
    "office_name_kana": "タカチホデンキ カブシキガイシヤ"
  },
  "8516": {
    "zip_code": "1058516",
    "prefecture": "東京都",
    "prefecture_kana": "トウキョウト",
    "prefecture_code": "13",
    "city": "港区",
    "city_kana": "ミナトク",
    "town": "芝浦",
    "town_kana": "シバウラ",
    "street": "１丁目１６番１号",
    "office_name": "港区芝浦港南地区　総合支所",
    "office_name_kana": "ミナトクシバウラコウナンチク ソウゴウシシヨ"
  },
  "8517": {
    "zip_code": "1058517",
    "prefecture": "東京都",
    "prefecture_kana": "トウキョウト",
    "prefecture_code": "13",
    "city": "港区",
    "city_kana": "ミナトク",
    "town": "芝浦",
    "town_kana": "シバウラ",
    "street": "１丁目１３−１６",
    "office_name": "森永製菓　株式会社　首都圏統括支店",
    "office_name_kana": "モリナガセイカ カブシキガイシヤ シユトケントウカツシテン"
  },
  "8518": {
    "zip_code": "1058518",
    "prefecture": "東京都",
    "prefecture_kana": "トウキョウト",
    "prefecture_code": "13",
    "city": "港区",
    "city_kana": "ミナトク",
    "town": "芝大門",
    "town_kana": "シバダイモン",
    "street": "１丁目１３−９",
    "office_name": "昭和電工　株式会社",
    "office_name_kana": "シヨウワデンコウ カブシキガイシヤ"
  },
  "8521": {
    "zip_code": "1058521",
    "prefecture": "東京都",
    "prefecture_kana": "トウキョウト",
    "prefecture_code": "13",
    "city": "港区",
    "city_kana": "ミナトク",
    "town": "芝大門",
    "town_kana": "シバダイモン",
    "street": "１丁目１−３",
    "office_name": "日本赤十字社",
    "office_name_kana": "ニホンセキジユウジシヤ"
  },
  "8522": {
    "zip_code": "1058522",
    "prefecture": "東京都",
    "prefecture_kana": "トウキョウト",
    "prefecture_code": "13",
    "city": "港区",
    "city_kana": "ミナトク",
    "town": "芝公園",
    "town_kana": "シバコウエン",
    "street": "３丁目１−２２",
    "office_name": "社団法人　日本能率協会",
    "office_name_kana": "シヤダンホウジン ニホンノウリツキヨウカイ"
  },
  "8523": {
    "zip_code": "1058523",
    "prefecture": "東京都",
    "prefecture_kana": "トウキョウト",
    "prefecture_code": "13",
    "city": "港区",
    "city_kana": "ミナトク",
    "town": "海岸",
    "town_kana": "カイガン",
    "street": "１丁目４−２６",
    "office_name": "全日産・一般業種　労働組合連合会（略称：日産労連）",
    "office_name_kana": "ゼンニツサン・イツパンギヨウシユ ロウドウクミアイレンゴウカイ(ニツサンロウレン)"
  },
  "8524": {
    "zip_code": "1058524",
    "prefecture": "東京都",
    "prefecture_kana": "トウキョウト",
    "prefecture_code": "13",
    "city": "港区",
    "city_kana": "ミナトク",
    "town": "虎ノ門",
    "town_kana": "トラノモン",
    "street": "１−１５−１６",
    "office_name": "公益財団法人　笹川平和財団",
    "office_name_kana": "コウエキザイダンホウジン ササカワヘイワザイダン"
  },
  "8525": {
    "zip_code": "1058525",
    "prefecture": "東京都",
    "prefecture_kana": "トウキョウト",
    "prefecture_code": "13",
    "city": "港区",
    "city_kana": "ミナトク",
    "town": "海岸",
    "town_kana": "カイガン",
    "street": "１丁目４−２２",
    "office_name": "シナネン　株式会社",
    "office_name_kana": "シナネン カブシキガイシヤ"
  },
  "8527": {
    "zip_code": "1058527",
    "prefecture": "東京都",
    "prefecture_kana": "トウキョウト",
    "prefecture_code": "13",
    "city": "港区",
    "city_kana": "ミナトク",
    "town": "海岸",
    "town_kana": "カイガン",
    "street": "１丁目５−２０",
    "office_name": "東京ガス　株式会社",
    "office_name_kana": "トウキヨウガス カブシキガイシヤ"
  },
  "8528": {
    "zip_code": "1058528",
    "prefecture": "東京都",
    "prefecture_kana": "トウキョウト",
    "prefecture_code": "13",
    "city": "港区",
    "city_kana": "ミナトク",
    "town": "芝浦",
    "town_kana": "シバウラ",
    "street": "１丁目１−１",
    "office_name": "コスモ石油　株式会社",
    "office_name_kana": "コスモセキユ カブシキガイシヤ"
  },
  "8529": {
    "zip_code": "1058529",
    "prefecture": "東京都",
    "prefecture_kana": "トウキョウト",
    "prefecture_code": "13",
    "city": "港区",
    "city_kana": "ミナトク",
    "town": "虎ノ門",
    "town_kana": "トラノモン",
    "street": "４丁目１−４０虎ノ門山勝ビル１Ｆ＆６Ｆ",
    "office_name": "オックスフォード大学出版局　株式会社",
    "office_name_kana": "オツクスフオ-ドダイガクシユツパンキヨク カブシキガイシヤ"
  },
  "8530": {
    "zip_code": "1058530",
    "prefecture": "東京都",
    "prefecture_kana": "トウキョウト",
    "prefecture_code": "13",
    "city": "港区",
    "city_kana": "ミナトク",
    "town": "芝大門",
    "town_kana": "シバダイモン",
    "street": "１丁目１−３０日本自動車会館１５階",
    "office_name": "社団法人　日本自動車販売協会連合会",
    "office_name_kana": "シヤダンホウジン ニホンジドウシヤハンバイキヨウカイレンゴウカイ"
  },
  "8534": {
    "zip_code": "1058534",
    "prefecture": "東京都",
    "prefecture_kana": "トウキョウト",
    "prefecture_code": "13",
    "city": "港区",
    "city_kana": "ミナトク",
    "town": "虎ノ門",
    "town_kana": "トラノモン",
    "street": "３丁目２２−１秀和第二芝公園３丁目ビル４Ｆ",
    "office_name": "株式会社　日本能率協会コンサルティング",
    "office_name_kana": "カブシキガイシヤ ニホンノウリツキヨウカイコンサルテイング"
  },
  "8535": {
    "zip_code": "1058535",
    "prefecture": "東京都",
    "prefecture_kana": "トウキョウト",
    "prefecture_code": "13",
    "city": "港区",
    "city_kana": "ミナトク",
    "town": "海岸",
    "town_kana": "カイガン",
    "street": "１丁目２−２０汐留ビルディング５階",
    "office_name": "エヌ・ティ・ティ・コミュニケーションズ　株式会社",
    "office_name_kana": "エヌ・テイ・テイ・コミユニケ-シヨンズ カブシキガイシヤ"
  },
  "8537": {
    "zip_code": "1058537",
    "prefecture": "東京都",
    "prefecture_kana": "トウキョウト",
    "prefecture_code": "13",
    "city": "港区",
    "city_kana": "ミナトク",
    "town": "浜松町",
    "town_kana": "ハママツチョウ",
    "street": "２丁目１３−７",
    "office_name": "エア・ウォーター・マテリアル　株式会社",
    "office_name_kana": "エア・ウオ-タ-・マテリアル カブシキガイシヤ"
  },
  "8540": {
    "zip_code": "1058540",
    "prefecture": "東京都",
    "prefecture_kana": "トウキョウト",
    "prefecture_code": "13",
    "city": "港区",
    "city_kana": "ミナトク",
    "town": "芝",
    "town_kana": "シバ",
    "street": "３−２３−１セレスティン芝三井ビルディング",
    "office_name": "日本電気　株式会社　セレスティンビル",
    "office_name_kana": "ニツポンデンキ カブシキガイシヤ セレステインビル"
  },
  "8543": {
    "zip_code": "1058543",
    "prefecture": "東京都",
    "prefecture_kana": "トウキョウト",
    "prefecture_code": "13",
    "city": "港区",
    "city_kana": "ミナトク",
    "town": "浜松町",
    "town_kana": "ハママツチョウ",
    "street": "１丁目２５−７",
    "office_name": "株式会社　朝日工業社",
    "office_name_kana": "カブシキガイシヤ アサヒコウギヨウシヤ"
  },
  "8544": {
    "zip_code": "1058544",
    "prefecture": "東京都",
    "prefecture_kana": "トウキョウト",
    "prefecture_code": "13",
    "city": "港区",
    "city_kana": "ミナトク",
    "town": "芝",
    "town_kana": "シバ",
    "street": "２−５−２",
    "office_name": "曹洞宗　宗務庁",
    "office_name_kana": "ソウトウシユウ シユウムチヨウ"
  },
  "8545": {
    "zip_code": "1058545",
    "prefecture": "東京都",
    "prefecture_kana": "トウキョウト",
    "prefecture_code": "13",
    "city": "港区",
    "city_kana": "ミナトク",
    "town": "芝",
    "town_kana": "シバ",
    "street": "２−７−１７",
    "office_name": "株式会社　長谷工アーベスト",
    "office_name_kana": "カブシキガイシヤ ハセコウア-ベスト"
  },
  "8546": {
    "zip_code": "1058546",
    "prefecture": "東京都",
    "prefecture_kana": "トウキョウト",
    "prefecture_code": "13",
    "city": "港区",
    "city_kana": "ミナトク",
    "town": "芝",
    "town_kana": "シバ",
    "street": "２丁目３−３",
    "office_name": "三菱アルミニウム　株式会社",
    "office_name_kana": "ミツビシアルミニウム カブシキガイシヤ"
  },
  "8550": {
    "zip_code": "1058550",
    "prefecture": "東京都",
    "prefecture_kana": "トウキョウト",
    "prefecture_code": "13",
    "city": "港区",
    "city_kana": "ミナトク",
    "town": "浜松町",
    "town_kana": "ハママツチョウ",
    "street": "１−２１−２",
    "office_name": "礎会館（東京電力労働組合）",
    "office_name_kana": "イシズエカイカン(トウキヨウデンリヨクロウドウクミアイ)"
  },
  "8551": {
    "zip_code": "1058551",
    "prefecture": "東京都",
    "prefecture_kana": "トウキョウト",
    "prefecture_code": "13",
    "city": "港区",
    "city_kana": "ミナトク",
    "town": "西新橋",
    "town_kana": "ニシシンバシ",
    "street": "３−９−４",
    "office_name": "東京海上日動火災保険　株式会社",
    "office_name_kana": "トウキヨウカイジヨウニチドウカサイホケン カブシキガイシヤ"
  },
  "8553": {
    "zip_code": "1058553",
    "prefecture": "東京都",
    "prefecture_kana": "トウキョウト",
    "prefecture_code": "13",
    "city": "港区",
    "city_kana": "ミナトク",
    "town": "芝",
    "town_kana": "シバ",
    "street": "１丁目５−９",
    "office_name": "ポケットカード　株式会社",
    "office_name_kana": "ポケツトカ-ド カブシキガイシヤ"
  },
  "8554": {
    "zip_code": "1058554",
    "prefecture": "東京都",
    "prefecture_kana": "トウキョウト",
    "prefecture_code": "13",
    "city": "港区",
    "city_kana": "ミナトク",
    "town": "浜松町",
    "town_kana": "ハママツチョウ",
    "street": "１丁目３０−５浜松町スクエア１２階",
    "office_name": "スカイマークエアラインズ　株式会社",
    "office_name_kana": "スカイマ-クエアラインズ カブシキガイシヤ"
  },
  "8555": {
    "zip_code": "1058555",
    "prefecture": "東京都",
    "prefecture_kana": "トウキョウト",
    "prefecture_code": "13",
    "city": "港区",
    "city_kana": "ミナトク",
    "town": "芝大門",
    "town_kana": "シバダイモン",
    "street": "１丁目１−２６",
    "office_name": "ニチアス　株式会社",
    "office_name_kana": "ニチアス カブシキガイシヤ"
  },
  "8556": {
    "zip_code": "1058556",
    "prefecture": "東京都",
    "prefecture_kana": "トウキョウト",
    "prefecture_code": "13",
    "city": "港区",
    "city_kana": "ミナトク",
    "town": "芝大門",
    "town_kana": "シバダイモン",
    "street": "２丁目９−１６ダヴィンチ芝大門",
    "office_name": "大島椿　株式会社",
    "office_name_kana": "オオシマツバキ カブシキガイシヤ"
  },
  "8557": {
    "zip_code": "1058557",
    "prefecture": "東京都",
    "prefecture_kana": "トウキョウト",
    "prefecture_code": "13",
    "city": "港区",
    "city_kana": "ミナトク",
    "town": "西新橋",
    "town_kana": "ニシシンバシ",
    "street": "３丁目５−２西新橋第一法規ビル１階",
    "office_name": "株式会社　アドピア",
    "office_name_kana": "カブシキガイシヤ アドピア"
  },
  "8558": {
    "zip_code": "1058558",
    "prefecture": "東京都",
    "prefecture_kana": "トウキョウト",
    "prefecture_code": "13",
    "city": "港区",
    "city_kana": "ミナトク",
    "town": "芝公園",
    "town_kana": "シバコウエン",
    "street": "１丁目７−２４",
    "office_name": "東京計装　株式会社",
    "office_name_kana": "トウキヨウケイソウ カブシキガイシヤ"
  },
  "8559": {
    "zip_code": "1058559",
    "prefecture": "東京都",
    "prefecture_kana": "トウキョウト",
    "prefecture_code": "13",
    "city": "港区",
    "city_kana": "ミナトク",
    "town": "虎ノ門",
    "town_kana": "トラノモン",
    "street": "５丁目１２番１号",
    "office_name": "全国建設企業年金基金",
    "office_name_kana": "ゼンコクケンセツキギヨウネンキンキキン"
  },
  "8560": {
    "zip_code": "1058560",
    "prefecture": "東京都",
    "prefecture_kana": "トウキョウト",
    "prefecture_code": "13",
    "city": "港区",
    "city_kana": "ミナトク",
    "town": "芝公園",
    "town_kana": "シバコウエン",
    "street": "３丁目３−１",
    "office_name": "東京プリンスホテル",
    "office_name_kana": "トウキヨウプリンスホテル"
  },
  "8563": {
    "zip_code": "1058563",
    "prefecture": "東京都",
    "prefecture_kana": "トウキョウト",
    "prefecture_code": "13",
    "city": "港区",
    "city_kana": "ミナトク",
    "town": "芝公園",
    "town_kana": "シバコウエン",
    "street": "４丁目８−１",
    "office_name": "東京プリンスホテル　パークタワー",
    "office_name_kana": "トウキヨウプリンスホテル パ-クタワ-"
  },
  "8565": {
    "zip_code": "1058565",
    "prefecture": "東京都",
    "prefecture_kana": "トウキョウト",
    "prefecture_code": "13",
    "city": "港区",
    "city_kana": "ミナトク",
    "town": "虎ノ門",
    "town_kana": "トラノモン",
    "street": "１−２−８",
    "office_name": "株式会社　日経ラジオ社",
    "office_name_kana": "カブシキガイシヤ ニツケイラジオシヤ"
  },
  "8567": {
    "zip_code": "1058567",
    "prefecture": "東京都",
    "prefecture_kana": "トウキョウト",
    "prefecture_code": "13",
    "city": "港区",
    "city_kana": "ミナトク",
    "town": "虎ノ門",
    "town_kana": "トラノモン",
    "street": "４丁目３−１３ヒューリック神谷町ビル４階",
    "office_name": "日昭産業　株式会社",
    "office_name_kana": "ニツシヨウサンギヨウ カブシキガイシヤ"
  },
  "8568": {
    "zip_code": "1058568",
    "prefecture": "東京都",
    "prefecture_kana": "トウキョウト",
    "prefecture_code": "13",
    "city": "港区",
    "city_kana": "ミナトク",
    "town": "芝公園",
    "town_kana": "シバコウエン",
    "street": "２丁目４番１号芝パークビルＢ館５階",
    "office_name": "株式会社　アクロス商事",
    "office_name_kana": "カブシキガイシヤ アクロスシヨウジ"
  },
  "8574": {
    "zip_code": "1058574",
    "prefecture": "東京都",
    "prefecture_kana": "トウキョウト",
    "prefecture_code": "13",
    "city": "港区",
    "city_kana": "ミナトク",
    "town": "芝",
    "town_kana": "シバ",
    "street": "３−３３−１",
    "office_name": "三井住友信託銀行　株式会社",
    "office_name_kana": "ミツイスミトモシンタクギンコウ カブシキガイシヤ"
  },
  "8575": {
    "zip_code": "1058575",
    "prefecture": "東京都",
    "prefecture_kana": "トウキョウト",
    "prefecture_code": "13",
    "city": "港区",
    "city_kana": "ミナトク",
    "town": "芝浦",
    "town_kana": "シバウラ",
    "street": "１丁目６−３８",
    "office_name": "株式会社　ヤナセ",
    "office_name_kana": "カブシキガイシヤ ヤナセ"
  },
  "8576": {
    "zip_code": "1058576",
    "prefecture": "東京都",
    "prefecture_kana": "トウキョウト",
    "prefecture_code": "13",
    "city": "港区",
    "city_kana": "ミナトク",
    "town": "海岸",
    "town_kana": "カイガン",
    "street": "１丁目１６−２",
    "office_name": "株式会社　ホスピタリティ・ネットワーク",
    "office_name_kana": "カブシキガイシヤ ホスピタリテイ・ネツトワ-ク"
  },
  "8577": {
    "zip_code": "1058577",
    "prefecture": "東京都",
    "prefecture_kana": "トウキョウト",
    "prefecture_code": "13",
    "city": "港区",
    "city_kana": "ミナトク",
    "town": "新橋",
    "town_kana": "シンバシ",
    "street": "６丁目１−１１タウィンチ御成門",
    "office_name": "ＵＣＣ上島珈琲　株式会社　東京本部",
    "office_name_kana": "ユ-シ-シ-ウエシマコ-ヒ- カブシキガイシヤ トウキヨウホンブ"
  },
  "8578": {
    "zip_code": "1058578",
    "prefecture": "東京都",
    "prefecture_kana": "トウキョウト",
    "prefecture_code": "13",
    "city": "港区",
    "city_kana": "ミナトク",
    "town": "芝",
    "town_kana": "シバ",
    "street": "３丁目８番２号芝公園ファーストビル１３Ｆ",
    "office_name": "日本ビジネスシステムズ　（株）",
    "office_name_kana": "ニホンビジネスシステムズ カブシキガイシヤ"
  },
  "8579": {
    "zip_code": "1058579",
    "prefecture": "東京都",
    "prefecture_kana": "トウキョウト",
    "prefecture_code": "13",
    "city": "港区",
    "city_kana": "ミナトク",
    "town": "浜松町",
    "town_kana": "ハママツチョウ",
    "street": "２丁目１１−３ＭＴＢＪビル",
    "office_name": "日本マスタートラスト信託銀行　株式会社",
    "office_name_kana": "ニホンマスタ-トラストシンタクギンコウ カブシキガイシヤ"
  },
  "8580": {
    "zip_code": "1058580",
    "prefecture": "東京都",
    "prefecture_kana": "トウキョウト",
    "prefecture_code": "13",
    "city": "港区",
    "city_kana": "ミナトク",
    "town": "芝",
    "town_kana": "シバ",
    "street": "２丁目３１−１９",
    "office_name": "株式会社　バンザイ",
    "office_name_kana": "カブシキガイシヤ バンザイ"
  },
  "8581": {
    "zip_code": "1058581",
    "prefecture": "東京都",
    "prefecture_kana": "トウキョウト",
    "prefecture_code": "13",
    "city": "港区",
    "city_kana": "ミナトク",
    "town": "芝公園",
    "town_kana": "シバコウエン",
    "street": "１丁目１−２",
    "office_name": "パナソニック　株式会社　東京パナソニックビル１号館",
    "office_name_kana": "パナソニツク カブシキガイシヤ トウキヨウパナソニツクビルイチゴウカン"
  },
  "8582": {
    "zip_code": "1058582",
    "prefecture": "東京都",
    "prefecture_kana": "トウキョウト",
    "prefecture_code": "13",
    "city": "港区",
    "city_kana": "ミナトク",
    "town": "芝公園",
    "town_kana": "シバコウエン",
    "street": "２丁目５−２０",
    "office_name": "メルパルク　ＴＯＫＹＯ",
    "office_name_kana": "メルパルク トウキヨウ"
  },
  "8583": {
    "zip_code": "1058583",
    "prefecture": "東京都",
    "prefecture_kana": "トウキョウト",
    "prefecture_code": "13",
    "city": "港区",
    "city_kana": "ミナトク",
    "town": "新橋",
    "town_kana": "シンバシ",
    "street": "４−１１−１ＴＫ新橋ビル",
    "office_name": "株式会社　オレンジページ",
    "office_name_kana": "カブシキガイシヤ オレンジペ-ジ"
  },
  "8584": {
    "zip_code": "1058584",
    "prefecture": "東京都",
    "prefecture_kana": "トウキョウト",
    "prefecture_code": "13",
    "city": "港区",
    "city_kana": "ミナトク",
    "town": "浜松町",
    "town_kana": "ハママツチョウ",
    "street": "１丁目３０−５浜松町スクエア",
    "office_name": "オイレス工業　株式会社",
    "office_name_kana": "オイレスコウギヨウ カブシキガイシヤ"
  },
  "8585": {
    "zip_code": "1058585",
    "prefecture": "東京都",
    "prefecture_kana": "トウキョウト",
    "prefecture_code": "13",
    "city": "港区",
    "city_kana": "ミナトク",
    "town": "芝大門",
    "town_kana": "シバダイモン",
    "street": "１丁目１２−１５",
    "office_name": "ＮＯＫ　株式会社",
    "office_name_kana": "エヌオ-ケ- カブシキガイシヤ"
  },
  "8587": {
    "zip_code": "1058587",
    "prefecture": "東京都",
    "prefecture_kana": "トウキョウト",
    "prefecture_code": "13",
    "city": "港区",
    "city_kana": "ミナトク",
    "town": "芝大門",
    "town_kana": "シバダイモン",
    "street": "１丁目１２−１５",
    "office_name": "イーグル工業　（株）",
    "office_name_kana": "イ-グルコウギヨウ カブシキガイシヤ"
  },
  "8588": {
    "zip_code": "1058588",
    "prefecture": "東京都",
    "prefecture_kana": "トウキョウト",
    "prefecture_code": "13",
    "city": "港区",
    "city_kana": "ミナトク",
    "town": "芝大門",
    "town_kana": "シバダイモン",
    "street": "２丁目１−１９",
    "office_name": "協栄電気　株式会社",
    "office_name_kana": "キヨウエイデンキ カブシキガイシヤ"
  },
  "8589": {
    "zip_code": "1058589",
    "prefecture": "東京都",
    "prefecture_kana": "トウキョウト",
    "prefecture_code": "13",
    "city": "港区",
    "city_kana": "ミナトク",
    "town": "芝",
    "town_kana": "シバ",
    "street": "３丁目２２−８",
    "office_name": "オリックス自動車　（株）",
    "office_name_kana": "オリツクスジドウシヤ (カ"
  },
  "8603": {
    "zip_code": "1058603",
    "prefecture": "東京都",
    "prefecture_kana": "トウキョウト",
    "prefecture_code": "13",
    "city": "港区",
    "city_kana": "ミナトク",
    "town": "海岸",
    "town_kana": "カイガン",
    "street": "２丁目１−７住友不動産竹芝ビル",
    "office_name": "株式会社　紀文産業",
    "office_name_kana": "カブシキガイシヤ キブンサンギヨウ"
  },
  "8604": {
    "zip_code": "1058604",
    "prefecture": "東京都",
    "prefecture_kana": "トウキョウト",
    "prefecture_code": "13",
    "city": "港区",
    "city_kana": "ミナトク",
    "town": "新橋",
    "town_kana": "シンバシ",
    "street": "１丁目１８−６",
    "office_name": "共栄火災海上保険　株式会社",
    "office_name_kana": "キヨウエイカサイカイジヨウホケン カブシキガイシヤ"
  },
  "8606": {
    "zip_code": "1058606",
    "prefecture": "東京都",
    "prefecture_kana": "トウキョウト",
    "prefecture_code": "13",
    "city": "港区",
    "city_kana": "ミナトク",
    "town": "新橋",
    "town_kana": "シンバシ",
    "street": "２丁目２０−１５新橋駅前ビル１号館",
    "office_name": "株式会社　日本旅行",
    "office_name_kana": "カブシキガイシヤ ニホンリヨコウ"
  },
  "8608": {
    "zip_code": "1058608",
    "prefecture": "東京都",
    "prefecture_kana": "トウキョウト",
    "prefecture_code": "13",
    "city": "港区",
    "city_kana": "ミナトク",
    "town": "新橋",
    "town_kana": "シンバシ",
    "street": "５丁目２０−３新橋ＳＴビル３Ｆ",
    "office_name": "有限会社　つきプランニング",
    "office_name_kana": "ユウゲンガイシヤ ツキプランニング"
  },
  "8610": {
    "zip_code": "1058610",
    "prefecture": "東京都",
    "prefecture_kana": "トウキョウト",
    "prefecture_code": "13",
    "city": "港区",
    "city_kana": "ミナトク",
    "town": "東新橋",
    "town_kana": "ヒガシシンバシ",
    "street": "２丁目６−１０",
    "office_name": "大東京信用組合",
    "office_name_kana": "ダイトウキヨウシンヨウクミアイ"
  },
  "8611": {
    "zip_code": "1058611",
    "prefecture": "東京都",
    "prefecture_kana": "トウキョウト",
    "prefecture_code": "13",
    "city": "港区",
    "city_kana": "ミナトク",
    "town": "新橋",
    "town_kana": "シンバシ",
    "street": "５丁目３３−１０",
    "office_name": "株式会社　モーターマガジン社",
    "office_name_kana": "カブシキガイシヤ モ-タ-マガジンシヤ"
  },
  "8613": {
    "zip_code": "1058613",
    "prefecture": "東京都",
    "prefecture_kana": "トウキョウト",
    "prefecture_code": "13",
    "city": "港区",
    "city_kana": "ミナトク",
    "town": "東新橋",
    "town_kana": "ヒガシシンバシ",
    "street": "２丁目１４−１",
    "office_name": "電通ヤング・アンド・ルビカム　株式会社",
    "office_name_kana": "デンツウヤング・アンド・ルビカム カブシキガイシヤ"
  },
  "8614": {
    "zip_code": "1058614",
    "prefecture": "東京都",
    "prefecture_kana": "トウキョウト",
    "prefecture_code": "13",
    "city": "港区",
    "city_kana": "ミナトク",
    "town": "芝浦",
    "town_kana": "シバウラ",
    "street": "１丁目２−１シーバンスＮ館",
    "office_name": "日立金属　株式会社",
    "office_name_kana": "ヒタチキンゾク カブシキガイシヤ"
  },
  "8615": {
    "zip_code": "1058615",
    "prefecture": "東京都",
    "prefecture_kana": "トウキョウト",
    "prefecture_code": "13",
    "city": "港区",
    "city_kana": "ミナトク",
    "town": "新橋",
    "town_kana": "シンバシ",
    "street": "６丁目２１−６",
    "office_name": "片岡物産　株式会社",
    "office_name_kana": "カタオカブツサン カブシキガイシヤ"
  },
  "8617": {
    "zip_code": "1058617",
    "prefecture": "東京都",
    "prefecture_kana": "トウキョウト",
    "prefecture_code": "13",
    "city": "港区",
    "city_kana": "ミナトク",
    "town": "新橋",
    "town_kana": "シンバシ",
    "street": "６−１９−１５",
    "office_name": "日本郵政　株式会社　宿泊事業部",
    "office_name_kana": "ニツポンユウセイ カブシキガイシヤ シユクハクジギヨウブ"
  },
  "8618": {
    "zip_code": "1058618",
    "prefecture": "東京都",
    "prefecture_kana": "トウキョウト",
    "prefecture_code": "13",
    "city": "港区",
    "city_kana": "ミナトク",
    "town": "東新橋",
    "town_kana": "ヒガシシンバシ",
    "street": "２丁目１１−８",
    "office_name": "株式会社　日本ジャーナル出版",
    "office_name_kana": "カブシキガイシヤ ニホンジヤ-ナルシユツパン"
  },
  "8621": {
    "zip_code": "1058621",
    "prefecture": "東京都",
    "prefecture_kana": "トウキョウト",
    "prefecture_code": "13",
    "city": "港区",
    "city_kana": "ミナトク",
    "town": "新橋",
    "town_kana": "シンバシ",
    "street": "１丁目２−６",
    "office_name": "第一ホテル東京",
    "office_name_kana": "ダイイチホテルトウキヨウ"
  },
  "8623": {
    "zip_code": "1058623",
    "prefecture": "東京都",
    "prefecture_kana": "トウキョウト",
    "prefecture_code": "13",
    "city": "港区",
    "city_kana": "ミナトク",
    "town": "芝",
    "town_kana": "シバ",
    "street": "３丁目８番２号芝公園ファーストビル",
    "office_name": "東ソー　株式会社",
    "office_name_kana": "トウソ- カブシキガイシヤ"
  },
  "8626": {
    "zip_code": "1058626",
    "prefecture": "東京都",
    "prefecture_kana": "トウキョウト",
    "prefecture_code": "13",
    "city": "港区",
    "city_kana": "ミナトク",
    "town": "海岸",
    "town_kana": "カイガン",
    "street": "２丁目１−７",
    "office_name": "株式会社　紀文食品",
    "office_name_kana": "カブシキガイシヤ キブンシヨクヒン"
  },
  "8630": {
    "zip_code": "1058630",
    "prefecture": "東京都",
    "prefecture_kana": "トウキョウト",
    "prefecture_code": "13",
    "city": "港区",
    "city_kana": "ミナトク",
    "town": "新橋",
    "town_kana": "シンバシ",
    "street": "４丁目２１−３新橋東急ビル",
    "office_name": "古河産業　株式会社",
    "office_name_kana": "フルカワサンギヨウ カブシキガイシヤ"
  },
  "8634": {
    "zip_code": "1058634",
    "prefecture": "東京都",
    "prefecture_kana": "トウキョウト",
    "prefecture_code": "13",
    "city": "港区",
    "city_kana": "ミナトク",
    "town": "芝浦",
    "town_kana": "シバウラ",
    "street": "１丁目２番１シーバンスＮ館７階",
    "office_name": "株式会社　ＳＵＭＣＯ",
    "office_name_kana": "カブシキカイシヤ サムコ"
  },
  "8639": {
    "zip_code": "1058639",
    "prefecture": "東京都",
    "prefecture_kana": "トウキョウト",
    "prefecture_code": "13",
    "city": "港区",
    "city_kana": "ミナトク",
    "town": "虎ノ門",
    "town_kana": "トラノモン",
    "street": "１丁目１０番５号日土地虎ノ門ビル",
    "office_name": "株式会社　ＡＤＫアーツ",
    "office_name_kana": "カブシキカイシヤ エイデイケイア-ツ"
  },
  "8640": {
    "zip_code": "1058640",
    "prefecture": "東京都",
    "prefecture_kana": "トウキョウト",
    "prefecture_code": "13",
    "city": "港区",
    "city_kana": "ミナトク",
    "town": "東新橋",
    "town_kana": "ヒガシシンバシ",
    "street": "１丁目９−２汐留住友ビル",
    "office_name": "ＪＳＲ　株式会社",
    "office_name_kana": "ジエイエスア-ル カブシキガイシヤ"
  },
  "8642": {
    "zip_code": "1058642",
    "prefecture": "東京都",
    "prefecture_kana": "トウキョウト",
    "prefecture_code": "13",
    "city": "港区",
    "city_kana": "ミナトク",
    "town": "東新橋",
    "town_kana": "ヒガシシンバシ",
    "street": "２丁目２−９",
    "office_name": "株式会社　コシダテック",
    "office_name_kana": "カブシキガイシヤ コシダテツク"
  },
  "8644": {
    "zip_code": "1058644",
    "prefecture": "東京都",
    "prefecture_kana": "トウキョウト",
    "prefecture_code": "13",
    "city": "港区",
    "city_kana": "ミナトク",
    "town": "東新橋",
    "town_kana": "ヒガシシンバシ",
    "street": "１−６−１日テレタワー２３Ｆ",
    "office_name": "ＢＳ日テレ",
    "office_name_kana": "ビ-エスニツテレ"
  },
  "8654": {
    "zip_code": "1058654",
    "prefecture": "東京都",
    "prefecture_kana": "トウキョウト",
    "prefecture_code": "13",
    "city": "港区",
    "city_kana": "ミナトク",
    "town": "新橋",
    "town_kana": "シンバシ",
    "street": "４丁目５−１アーバン新橋ビル",
    "office_name": "ＮＴＴファイナンス　株式会社",
    "office_name_kana": "エヌテイテイフアイナンス カブシキガイシヤ"
  },
  "8660": {
    "zip_code": "1058660",
    "prefecture": "東京都",
    "prefecture_kana": "トウキョウト",
    "prefecture_code": "13",
    "city": "港区",
    "city_kana": "ミナトク",
    "town": "東新橋",
    "town_kana": "ヒガシシンバシ",
    "street": "１丁目１−１９",
    "office_name": "株式会社　ヤクルト本社",
    "office_name_kana": "カブシキガイシヤ ヤクルトホンシヤ"
  },
  "8665": {
    "zip_code": "1058665",
    "prefecture": "東京都",
    "prefecture_kana": "トウキョウト",
    "prefecture_code": "13",
    "city": "港区",
    "city_kana": "ミナトク",
    "town": "新橋",
    "town_kana": "シンバシ",
    "street": "６丁目１９−１５",
    "office_name": "都築電気　株式会社",
    "office_name_kana": "ツヅキデンキ カブシキガイシヤ"
  },
  "8666": {
    "zip_code": "1058666",
    "prefecture": "東京都",
    "prefecture_kana": "トウキョウト",
    "prefecture_code": "13",
    "city": "港区",
    "city_kana": "ミナトク",
    "town": "新橋",
    "town_kana": "シンバシ",
    "street": "６丁目１１−１０港運会館",
    "office_name": "一般社団法人　日本港運協会",
    "office_name_kana": "イツパンシヤダンホウジン ニホンコウウンキヨウカイ"
  },
  "8668": {
    "zip_code": "1058668",
    "prefecture": "東京都",
    "prefecture_kana": "トウキョウト",
    "prefecture_code": "13",
    "city": "港区",
    "city_kana": "ミナトク",
    "town": "芝浦",
    "town_kana": "シバウラ",
    "street": "１丁目２−１シーバンスＮ館",
    "office_name": "富士通エフ・アイ・ピー　株式会社　アクティブオフィス",
    "office_name_kana": "フジツウエフ・アイ・ピ- カブシキガイシヤ アクテイブオフイス"
  },
  "8670": {
    "zip_code": "1058670",
    "prefecture": "東京都",
    "prefecture_kana": "トウキョウト",
    "prefecture_code": "13",
    "city": "港区",
    "city_kana": "ミナトク",
    "town": "新橋",
    "town_kana": "シンバシ",
    "street": "６丁目１８−５",
    "office_name": "株式会社　ゴルフダイジェスト社",
    "office_name_kana": "カブシキガイシヤ ゴルフダイジエストシヤ"
  },
  "8676": {
    "zip_code": "1058676",
    "prefecture": "東京都",
    "prefecture_kana": "トウキョウト",
    "prefecture_code": "13",
    "city": "港区",
    "city_kana": "ミナトク",
    "town": "西新橋",
    "town_kana": "ニシシンバシ",
    "street": "１丁目３番１号",
    "office_name": "日本水産　株式会社",
    "office_name_kana": "ニツポンスイサン カブシキガイシヤ"
  },
  "8677": {
    "zip_code": "1058677",
    "prefecture": "東京都",
    "prefecture_kana": "トウキョウト",
    "prefecture_code": "13",
    "city": "港区",
    "city_kana": "ミナトク",
    "town": "新橋",
    "town_kana": "シンバシ",
    "street": "５丁目３６−１１",
    "office_name": "ＦＤＫ　株式会社",
    "office_name_kana": "エフデイ-ケイ カブシキガイシヤ"
  },
  "8678": {
    "zip_code": "1058678",
    "prefecture": "東京都",
    "prefecture_kana": "トウキョウト",
    "prefecture_code": "13",
    "city": "港区",
    "city_kana": "ミナトク",
    "town": "新橋",
    "town_kana": "シンバシ",
    "street": "１丁目９−６",
    "office_name": "（株）　東京商工リサーチ",
    "office_name_kana": "カブシキガイシヤ トウキヨウシヨウコウリサ-チ"
  },
  "8680": {
    "zip_code": "1058680",
    "prefecture": "東京都",
    "prefecture_kana": "トウキョウト",
    "prefecture_code": "13",
    "city": "港区",
    "city_kana": "ミナトク",
    "town": "虎ノ門",
    "town_kana": "トラノモン",
    "street": "１丁目２６−５虎ノ門１７森ビル５階（芝郵便局私書箱第３８号）",
    "office_name": "株式会社　アシェット　婦人画報社",
    "office_name_kana": "カブシキガイシヤ アシエツト フジンガホウシヤ"
  },
  "8685": {
    "zip_code": "1058685",
    "prefecture": "東京都",
    "prefecture_kana": "トウキョウト",
    "prefecture_code": "13",
    "city": "港区",
    "city_kana": "ミナトク",
    "town": "新橋",
    "town_kana": "シンバシ",
    "street": "５丁目３６−１１（芝郵便局私書箱第４６号）",
    "office_name": "横浜ゴム　株式会社",
    "office_name_kana": "ヨコハマゴム カブシキガイシヤ"
  },
  "8686": {
    "zip_code": "1058686",
    "prefecture": "東京都",
    "prefecture_kana": "トウキョウト",
    "prefecture_code": "13",
    "city": "港区",
    "city_kana": "ミナトク",
    "town": "新橋",
    "town_kana": "シンバシ",
    "street": "３丁目１番１号",
    "office_name": "八洲電機　株式会社",
    "office_name_kana": "ヤシマデンキ カブシキガイシヤ"
  },
  "8687": {
    "zip_code": "1058687",
    "prefecture": "東京都",
    "prefecture_kana": "トウキョウト",
    "prefecture_code": "13",
    "city": "港区",
    "city_kana": "ミナトク",
    "town": "新橋",
    "town_kana": "シンバシ",
    "street": "４丁目２２−４（芝郵便局私書箱第２号）",
    "office_name": "株式会社　カナデン",
    "office_name_kana": "カブシキガイシヤ カナデン"
  },
  "8688": {
    "zip_code": "1058688",
    "prefecture": "東京都",
    "prefecture_kana": "トウキョウト",
    "prefecture_code": "13",
    "city": "港区",
    "city_kana": "ミナトク",
    "town": "虎ノ門",
    "town_kana": "トラノモン",
    "street": "２丁目１−１（芝郵便局私書箱第５号）",
    "office_name": "株式会社　商船三井",
    "office_name_kana": "カブシキガイシヤ シヨウセンミツイ"
  },
  "8689": {
    "zip_code": "1058689",
    "prefecture": "東京都",
    "prefecture_kana": "トウキョウト",
    "prefecture_code": "13",
    "city": "港区",
    "city_kana": "ミナトク",
    "town": "芝大門",
    "town_kana": "シバダイモン",
    "street": "２丁目１２−１８（芝郵便局私書箱第２６３号）",
    "office_name": "商工組合中央金庫　東京支店",
    "office_name_kana": "シヨウコウクミアイチユウオウキンコ トウキヨウシテン"
  },
  "8701": {
    "zip_code": "1058701",
    "prefecture": "東京都",
    "prefecture_kana": "トウキョウト",
    "prefecture_code": "13",
    "city": "港区",
    "city_kana": "ミナトク",
    "town": "芝公園",
    "town_kana": "シバコウエン",
    "street": "２丁目４−１秀和芝パークビルＢ館１０階（芝郵便局私書箱第５４号）",
    "office_name": "企業年金連合会",
    "office_name_kana": "キギヨウネンキンレンゴウカイ"
  },
  "8702": {
    "zip_code": "1058702",
    "prefecture": "東京都",
    "prefecture_kana": "トウキョウト",
    "prefecture_code": "13",
    "city": "港区",
    "city_kana": "ミナトク",
    "town": "芝公園",
    "town_kana": "シバコウエン",
    "street": "２丁目４−１秀和芝パークビルＢ館１０階（芝郵便局私書箱第６３号）",
    "office_name": "企業年金連合会",
    "office_name_kana": "キギヨウネンキンレンゴウカイ"
  },
  "8707": {
    "zip_code": "1058707",
    "prefecture": "東京都",
    "prefecture_kana": "トウキョウト",
    "prefecture_code": "13",
    "city": "江戸川区",
    "city_kana": "エドガワク",
    "town": "春江町",
    "town_kana": "ハルエチョウ",
    "street": "２丁目３１番１５号（芝郵便局私書箱第１８１号）",
    "office_name": "株式会社　興伸アクトサービス",
    "office_name_kana": "カブシキガイシヤ コウシンアクトサ-ビス"
  },
  "8711": {
    "zip_code": "1058711",
    "prefecture": "東京都",
    "prefecture_kana": "トウキョウト",
    "prefecture_code": "13",
    "city": "品川区",
    "city_kana": "シナガワク",
    "town": "大崎",
    "town_kana": "オオサキ",
    "street": "１丁目１１−２（芝郵便局私書箱第２１１号）",
    "office_name": "株式会社　エックスワン",
    "office_name_kana": "カブシキガイシヤ エツクスワン"
  },
  "8712": {
    "zip_code": "1058712",
    "prefecture": "東京都",
    "prefecture_kana": "トウキョウト",
    "prefecture_code": "13",
    "city": "港区",
    "city_kana": "ミナトク",
    "town": "西新橋",
    "town_kana": "ニシシンバシ",
    "street": "１丁目３番１号",
    "office_name": "日立キャピタル　株式会社",
    "office_name_kana": "ヒタチキヤピタル カブシキガイシヤ"
  },
  "8716": {
    "zip_code": "1058716",
    "prefecture": "東京都",
    "prefecture_kana": "トウキョウト",
    "prefecture_code": "13",
    "city": "港区",
    "city_kana": "ミナトク",
    "town": "新橋",
    "town_kana": "シンバシ",
    "street": "５丁目１１−３（芝郵便局私書箱第２６号）",
    "office_name": "住友金属鉱山　株式会社",
    "office_name_kana": "スミトモキンゾクコウザン カブシキガイシヤ"
  },
  "8717": {
    "zip_code": "1058717",
    "prefecture": "東京都",
    "prefecture_kana": "トウキョウト",
    "prefecture_code": "13",
    "city": "港区",
    "city_kana": "ミナトク",
    "town": "西新橋",
    "town_kana": "ニシシンバシ",
    "street": "１丁目２４−１４（芝郵便局私書箱第３５号）",
    "office_name": "株式会社　日立ハイテクノロジーズ",
    "office_name_kana": "カブシキガイシヤ ヒタチハイテクノロジ-ズ"
  },
  "8788": {
    "zip_code": "1058788",
    "prefecture": "東京都",
    "prefecture_kana": "トウキョウト",
    "prefecture_code": "13",
    "city": "港区",
    "city_kana": "ミナトク",
    "town": "虎ノ門",
    "town_kana": "トラノモン",
    "street": "３丁目１７番１号ＴＯＫＹＵＲＥＩＴ虎ノ門ビル７階",
    "office_name": "日本郵政　株式会社　首都圏施設センター",
    "office_name_kana": "ニツポンユウセイ カブシキガイシヤ シユトケンシセツセンタ-"
  }
}