{
  "0051": {
    "zip_code": "1070051",
    "prefecture": "東京都",
    "prefecture_kana": "トウキョウト",
    "prefecture_code": "13",
    "city": "港区",
    "city_kana": "ミナトク",
    "town": "元赤坂",
    "town_kana": "モトアカサカ",
    "street": null,
    "office_name": null,
    "office_name_kana": null
  },
  "0052": {
    "zip_code": "1070052",
    "prefecture": "東京都",
    "prefecture_kana": "トウキョウト",
    "prefecture_code": "13",
    "city": "港区",
    "city_kana": "ミナトク",
    "town": "赤坂",
    "town_kana": "アカサカ",
    "street": null,
    "office_name": null,
    "office_name_kana": null
  },
  "0061": {
    "zip_code": "1070061",
    "prefecture": "東京都",
    "prefecture_kana": "トウキョウト",
    "prefecture_code": "13",
    "city": "港区",
    "city_kana": "ミナトク",
    "town": "北青山",
    "town_kana": "キタアオヤマ",
    "street": null,
    "office_name": null,
    "office_name_kana": null
  },
  "0062": {
    "zip_code": "1070062",
    "prefecture": "東京都",
    "prefecture_kana": "トウキョウト",
    "prefecture_code": "13",
    "city": "港区",
    "city_kana": "ミナトク",
    "town": "南青山",
    "town_kana": "ミナミアオヤマ",
    "street": null,
    "office_name": null,
    "office_name_kana": null
  },
  "6001": {
    "zip_code": "1076001",
    "prefecture": "東京都",
    "prefecture_kana": "トウキョウト",
    "prefecture_code": "13",
    "city": "港区",
    "city_kana": "ミナトク",
    "town": "赤坂赤坂アークヒルズ・アーク森ビル　１階",
    "town_kana": "アカサカアカサカアークヒルズ・アークモリビル1カイ",
    "street": null,
    "office_name": null,
    "office_name_kana": null
  },
  "6002": {
    "zip_code": "1076002",
    "prefecture": "東京都",
    "prefecture_kana": "トウキョウト",
    "prefecture_code": "13",
    "city": "港区",
    "city_kana": "ミナトク",
    "town": "赤坂赤坂アークヒルズ・アーク森ビル　２階",
    "town_kana": "アカサカアカサカアークヒルズ・アークモリビル2カイ",
    "street": null,
    "office_name": null,
    "office_name_kana": null
  },
  "6003": {
    "zip_code": "1076003",
    "prefecture": "東京都",
    "prefecture_kana": "トウキョウト",
    "prefecture_code": "13",
    "city": "港区",
    "city_kana": "ミナトク",
    "town": "赤坂赤坂アークヒルズ・アーク森ビル　３階",
    "town_kana": "アカサカアカサカアークヒルズ・アークモリビル3カイ",
    "street": null,
    "office_name": null,
    "office_name_kana": null
  },
  "6004": {
    "zip_code": "1076004",
    "prefecture": "東京都",
    "prefecture_kana": "トウキョウト",
    "prefecture_code": "13",
    "city": "港区",
    "city_kana": "ミナトク",
    "town": "赤坂赤坂アークヒルズ・アーク森ビル　４階",
    "town_kana": "アカサカアカサカアークヒルズ・アークモリビル4カイ",
    "street": null,
    "office_name": null,
    "office_name_kana": null
  },
  "6005": {
    "zip_code": "1076005",
    "prefecture": "東京都",
    "prefecture_kana": "トウキョウト",
    "prefecture_code": "13",
    "city": "港区",
    "city_kana": "ミナトク",
    "town": "赤坂赤坂アークヒルズ・アーク森ビル　５階",
    "town_kana": "アカサカアカサカアークヒルズ・アークモリビル5カイ",
    "street": null,
    "office_name": null,
    "office_name_kana": null
  },
  "6006": {
    "zip_code": "1076006",
    "prefecture": "東京都",
    "prefecture_kana": "トウキョウト",
    "prefecture_code": "13",
    "city": "港区",
    "city_kana": "ミナトク",
    "town": "赤坂赤坂アークヒルズ・アーク森ビル　６階",
    "town_kana": "アカサカアカサカアークヒルズ・アークモリビル6カイ",
    "street": null,
    "office_name": null,
    "office_name_kana": null
  },
  "6007": {
    "zip_code": "1076007",
    "prefecture": "東京都",
    "prefecture_kana": "トウキョウト",
    "prefecture_code": "13",
    "city": "港区",
    "city_kana": "ミナトク",
    "town": "赤坂赤坂アークヒルズ・アーク森ビル　７階",
    "town_kana": "アカサカアカサカアークヒルズ・アークモリビル7カイ",
    "street": null,
    "office_name": null,
    "office_name_kana": null
  },
  "6008": {
    "zip_code": "1076008",
    "prefecture": "東京都",
    "prefecture_kana": "トウキョウト",
    "prefecture_code": "13",
    "city": "港区",
    "city_kana": "ミナトク",
    "town": "赤坂赤坂アークヒルズ・アーク森ビル　８階",
    "town_kana": "アカサカアカサカアークヒルズ・アークモリビル8カイ",
    "street": null,
    "office_name": null,
    "office_name_kana": null
  },
  "6009": {
    "zip_code": "1076009",
    "prefecture": "東京都",
    "prefecture_kana": "トウキョウト",
    "prefecture_code": "13",
    "city": "港区",
    "city_kana": "ミナトク",
    "town": "赤坂赤坂アークヒルズ・アーク森ビル　９階",
    "town_kana": "アカサカアカサカアークヒルズ・アークモリビル9カイ",
    "street": null,
    "office_name": null,
    "office_name_kana": null
  },
  "6010": {
    "zip_code": "1076010",
    "prefecture": "東京都",
    "prefecture_kana": "トウキョウト",
    "prefecture_code": "13",
    "city": "港区",
    "city_kana": "ミナトク",
    "town": "赤坂赤坂アークヒルズ・アーク森ビル　１０階",
    "town_kana": "アカサカアカサカアークヒルズ・アークモリビル10カイ",
    "street": null,
    "office_name": null,
    "office_name_kana": null
  },
  "6011": {
    "zip_code": "1076011",
    "prefecture": "東京都",
    "prefecture_kana": "トウキョウト",
    "prefecture_code": "13",
    "city": "港区",
    "city_kana": "ミナトク",
    "town": "赤坂赤坂アークヒルズ・アーク森ビル　１１階",
    "town_kana": "アカサカアカサカアークヒルズ・アークモリビル11カイ",
    "street": null,
    "office_name": null,
    "office_name_kana": null
  },
  "6012": {
    "zip_code": "1076012",
    "prefecture": "東京都",
    "prefecture_kana": "トウキョウト",
    "prefecture_code": "13",
    "city": "港区",
    "city_kana": "ミナトク",
    "town": "赤坂赤坂アークヒルズ・アーク森ビル　１２階",
    "town_kana": "アカサカアカサカアークヒルズ・アークモリビル12カイ",
    "street": null,
    "office_name": null,
    "office_name_kana": null
  },
  "6013": {
    "zip_code": "1076013",
    "prefecture": "東京都",
    "prefecture_kana": "トウキョウト",
    "prefecture_code": "13",
    "city": "港区",
    "city_kana": "ミナトク",
    "town": "赤坂赤坂アークヒルズ・アーク森ビル　１３階",
    "town_kana": "アカサカアカサカアークヒルズ・アークモリビル13カイ",
    "street": null,
    "office_name": null,
    "office_name_kana": null
  },
  "6014": {
    "zip_code": "1076014",
    "prefecture": "東京都",
    "prefecture_kana": "トウキョウト",
    "prefecture_code": "13",
    "city": "港区",
    "city_kana": "ミナトク",
    "town": "赤坂赤坂アークヒルズ・アーク森ビル　１４階",
    "town_kana": "アカサカアカサカアークヒルズ・アークモリビル14カイ",
    "street": null,
    "office_name": null,
    "office_name_kana": null
  },
  "6015": {
    "zip_code": "1076015",
    "prefecture": "東京都",
    "prefecture_kana": "トウキョウト",
    "prefecture_code": "13",
    "city": "港区",
    "city_kana": "ミナトク",
    "town": "赤坂赤坂アークヒルズ・アーク森ビル　１５階",
    "town_kana": "アカサカアカサカアークヒルズ・アークモリビル15カイ",
    "street": null,
    "office_name": null,
    "office_name_kana": null
  },
  "6016": {
    "zip_code": "1076016",
    "prefecture": "東京都",
    "prefecture_kana": "トウキョウト",
    "prefecture_code": "13",
    "city": "港区",
    "city_kana": "ミナトク",
    "town": "赤坂赤坂アークヒルズ・アーク森ビル　１６階",
    "town_kana": "アカサカアカサカアークヒルズ・アークモリビル16カイ",
    "street": null,
    "office_name": null,
    "office_name_kana": null
  },
  "6017": {
    "zip_code": "1076017",
    "prefecture": "東京都",
    "prefecture_kana": "トウキョウト",
    "prefecture_code": "13",
    "city": "港区",
    "city_kana": "ミナトク",
    "town": "赤坂赤坂アークヒルズ・アーク森ビル　１７階",
    "town_kana": "アカサカアカサカアークヒルズ・アークモリビル17カイ",
    "street": null,
    "office_name": null,
    "office_name_kana": null
  },
  "6018": {
    "zip_code": "1076018",
    "prefecture": "東京都",
    "prefecture_kana": "トウキョウト",
    "prefecture_code": "13",
    "city": "港区",
    "city_kana": "ミナトク",
    "town": "赤坂赤坂アークヒルズ・アーク森ビル　１８階",
    "town_kana": "アカサカアカサカアークヒルズ・アークモリビル18カイ",
    "street": null,
    "office_name": null,
    "office_name_kana": null
  },
  "6019": {
    "zip_code": "1076019",
    "prefecture": "東京都",
    "prefecture_kana": "トウキョウト",
    "prefecture_code": "13",
    "city": "港区",
    "city_kana": "ミナトク",
    "town": "赤坂赤坂アークヒルズ・アーク森ビル　１９階",
    "town_kana": "アカサカアカサカアークヒルズ・アークモリビル19カイ",
    "street": null,
    "office_name": null,
    "office_name_kana": null
  },
  "6020": {
    "zip_code": "1076020",
    "prefecture": "東京都",
    "prefecture_kana": "トウキョウト",
    "prefecture_code": "13",
    "city": "港区",
    "city_kana": "ミナトク",
    "town": "赤坂赤坂アークヒルズ・アーク森ビル　２０階",
    "town_kana": "アカサカアカサカアークヒルズ・アークモリビル20カイ",
    "street": null,
    "office_name": null,
    "office_name_kana": null
  },
  "6021": {
    "zip_code": "1076021",
    "prefecture": "東京都",
    "prefecture_kana": "トウキョウト",
    "prefecture_code": "13",
    "city": "港区",
    "city_kana": "ミナトク",
    "town": "赤坂赤坂アークヒルズ・アーク森ビル　２１階",
    "town_kana": "アカサカアカサカアークヒルズ・アークモリビル21カイ",
    "street": null,
    "office_name": null,
    "office_name_kana": null
  },
  "6022": {
    "zip_code": "1076022",
    "prefecture": "東京都",
    "prefecture_kana": "トウキョウト",
    "prefecture_code": "13",
    "city": "港区",
    "city_kana": "ミナトク",
    "town": "赤坂赤坂アークヒルズ・アーク森ビル　２２階",
    "town_kana": "アカサカアカサカアークヒルズ・アークモリビル22カイ",
    "street": null,
    "office_name": null,
    "office_name_kana": null
  },
  "6023": {
    "zip_code": "1076023",
    "prefecture": "東京都",
    "prefecture_kana": "トウキョウト",
    "prefecture_code": "13",
    "city": "港区",
    "city_kana": "ミナトク",
    "town": "赤坂赤坂アークヒルズ・アーク森ビル　２３階",
    "town_kana": "アカサカアカサカアークヒルズ・アークモリビル23カイ",
    "street": null,
    "office_name": null,
    "office_name_kana": null
  },
  "6024": {
    "zip_code": "1076024",
    "prefecture": "東京都",
    "prefecture_kana": "トウキョウト",
    "prefecture_code": "13",
    "city": "港区",
    "city_kana": "ミナトク",
    "town": "赤坂赤坂アークヒルズ・アーク森ビル　２４階",
    "town_kana": "アカサカアカサカアークヒルズ・アークモリビル24カイ",
    "street": null,
    "office_name": null,
    "office_name_kana": null
  },
  "6025": {
    "zip_code": "1076025",
    "prefecture": "東京都",
    "prefecture_kana": "トウキョウト",
    "prefecture_code": "13",
    "city": "港区",
    "city_kana": "ミナトク",
    "town": "赤坂赤坂アークヒルズ・アーク森ビル　２５階",
    "town_kana": "アカサカアカサカアークヒルズ・アークモリビル25カイ",
    "street": null,
    "office_name": null,
    "office_name_kana": null
  },
  "6026": {
    "zip_code": "1076026",
    "prefecture": "東京都",
    "prefecture_kana": "トウキョウト",
    "prefecture_code": "13",
    "city": "港区",
    "city_kana": "ミナトク",
    "town": "赤坂赤坂アークヒルズ・アーク森ビル　２６階",
    "town_kana": "アカサカアカサカアークヒルズ・アークモリビル26カイ",
    "street": null,
    "office_name": null,
    "office_name_kana": null
  },
  "6027": {
    "zip_code": "1076027",
    "prefecture": "東京都",
    "prefecture_kana": "トウキョウト",
    "prefecture_code": "13",
    "city": "港区",
    "city_kana": "ミナトク",
    "town": "赤坂赤坂アークヒルズ・アーク森ビル　２７階",
    "town_kana": "アカサカアカサカアークヒルズ・アークモリビル27カイ",
    "street": null,
    "office_name": null,
    "office_name_kana": null
  },
  "6028": {
    "zip_code": "1076028",
    "prefecture": "東京都",
    "prefecture_kana": "トウキョウト",
    "prefecture_code": "13",
    "city": "港区",
    "city_kana": "ミナトク",
    "town": "赤坂赤坂アークヒルズ・アーク森ビル　２８階",
    "town_kana": "アカサカアカサカアークヒルズ・アークモリビル28カイ",
    "street": null,
    "office_name": null,
    "office_name_kana": null
  },
  "6029": {
    "zip_code": "1076029",
    "prefecture": "東京都",
    "prefecture_kana": "トウキョウト",
    "prefecture_code": "13",
    "city": "港区",
    "city_kana": "ミナトク",
    "town": "赤坂赤坂アークヒルズ・アーク森ビル　２９階",
    "town_kana": "アカサカアカサカアークヒルズ・アークモリビル29カイ",
    "street": null,
    "office_name": null,
    "office_name_kana": null
  },
  "6030": {
    "zip_code": "1076030",
    "prefecture": "東京都",
    "prefecture_kana": "トウキョウト",
    "prefecture_code": "13",
    "city": "港区",
    "city_kana": "ミナトク",
    "town": "赤坂赤坂アークヒルズ・アーク森ビル　３０階",
    "town_kana": "アカサカアカサカアークヒルズ・アークモリビル30カイ",
    "street": null,
    "office_name": null,
    "office_name_kana": null
  },
  "6031": {
    "zip_code": "1076031",
    "prefecture": "東京都",
    "prefecture_kana": "トウキョウト",
    "prefecture_code": "13",
    "city": "港区",
    "city_kana": "ミナトク",
    "town": "赤坂赤坂アークヒルズ・アーク森ビル　３１階",
    "town_kana": "アカサカアカサカアークヒルズ・アークモリビル31カイ",
    "street": null,
    "office_name": null,
    "office_name_kana": null
  },
  "6032": {
    "zip_code": "1076032",
    "prefecture": "東京都",
    "prefecture_kana": "トウキョウト",
    "prefecture_code": "13",
    "city": "港区",
    "city_kana": "ミナトク",
    "town": "赤坂赤坂アークヒルズ・アーク森ビル　３２階",
    "town_kana": "アカサカアカサカアークヒルズ・アークモリビル32カイ",
    "street": null,
    "office_name": null,
    "office_name_kana": null
  },
  "6033": {
    "zip_code": "1076033",
    "prefecture": "東京都",
    "prefecture_kana": "トウキョウト",
    "prefecture_code": "13",
    "city": "港区",
    "city_kana": "ミナトク",
    "town": "赤坂赤坂アークヒルズ・アーク森ビル　３３階",
    "town_kana": "アカサカアカサカアークヒルズ・アークモリビル33カイ",
    "street": null,
    "office_name": null,
    "office_name_kana": null
  },
  "6034": {
    "zip_code": "1076034",
    "prefecture": "東京都",
    "prefecture_kana": "トウキョウト",
    "prefecture_code": "13",
    "city": "港区",
    "city_kana": "ミナトク",
    "town": "赤坂赤坂アークヒルズ・アーク森ビル　３４階",
    "town_kana": "アカサカアカサカアークヒルズ・アークモリビル34カイ",
    "street": null,
    "office_name": null,
    "office_name_kana": null
  },
  "6035": {
    "zip_code": "1076035",
    "prefecture": "東京都",
    "prefecture_kana": "トウキョウト",
    "prefecture_code": "13",
    "city": "港区",
    "city_kana": "ミナトク",
    "town": "赤坂赤坂アークヒルズ・アーク森ビル　３５階",
    "town_kana": "アカサカアカサカアークヒルズ・アークモリビル35カイ",
    "street": null,
    "office_name": null,
    "office_name_kana": null
  },
  "6036": {
    "zip_code": "1076036",
    "prefecture": "東京都",
    "prefecture_kana": "トウキョウト",
    "prefecture_code": "13",
    "city": "港区",
    "city_kana": "ミナトク",
    "town": "赤坂赤坂アークヒルズ・アーク森ビル　３６階",
    "town_kana": "アカサカアカサカアークヒルズ・アークモリビル36カイ",
    "street": null,
    "office_name": null,
    "office_name_kana": null
  },
  "6037": {
    "zip_code": "1076037",
    "prefecture": "東京都",
    "prefecture_kana": "トウキョウト",
    "prefecture_code": "13",
    "city": "港区",
    "city_kana": "ミナトク",
    "town": "赤坂赤坂アークヒルズ・アーク森ビル　３７階",
    "town_kana": "アカサカアカサカアークヒルズ・アークモリビル37カイ",
    "street": null,
    "office_name": null,
    "office_name_kana": null
  },
  "6090": {
    "zip_code": "1076090",
    "prefecture": "東京都",
    "prefecture_kana": "トウキョウト",
    "prefecture_code": "13",
    "city": "港区",
    "city_kana": "ミナトク",
    "town": "赤坂赤坂アークヒルズ・アーク森ビル",
    "town_kana": "アカサカアカサカアークヒルズ・アークモリビル",
    "street": null,
    "office_name": null,
    "office_name_kana": null
  },
  "6101": {
    "zip_code": "1076101",
    "prefecture": "東京都",
    "prefecture_kana": "トウキョウト",
    "prefecture_code": "13",
    "city": "港区",
    "city_kana": "ミナトク",
    "town": "赤坂赤坂パークビル　１階",
    "town_kana": "アカサカアカサカパークビル1カイ",
    "street": null,
    "office_name": null,
    "office_name_kana": null
  },
  "6102": {
    "zip_code": "1076102",
    "prefecture": "東京都",
    "prefecture_kana": "トウキョウト",
    "prefecture_code": "13",
    "city": "港区",
    "city_kana": "ミナトク",
    "town": "赤坂赤坂パークビル　２階",
    "town_kana": "アカサカアカサカパークビル2カイ",
    "street": null,
    "office_name": null,
    "office_name_kana": null
  },
  "6103": {
    "zip_code": "1076103",
    "prefecture": "東京都",
    "prefecture_kana": "トウキョウト",
    "prefecture_code": "13",
    "city": "港区",
    "city_kana": "ミナトク",
    "town": "赤坂赤坂パークビル　３階",
    "town_kana": "アカサカアカサカパークビル3カイ",
    "street": null,
    "office_name": null,
    "office_name_kana": null
  },
  "6104": {
    "zip_code": "1076104",
    "prefecture": "東京都",
    "prefecture_kana": "トウキョウト",
    "prefecture_code": "13",
    "city": "港区",
    "city_kana": "ミナトク",
    "town": "赤坂赤坂パークビル　４階",
    "town_kana": "アカサカアカサカパークビル4カイ",
    "street": null,
    "office_name": null,
    "office_name_kana": null
  },
  "6105": {
    "zip_code": "1076105",
    "prefecture": "東京都",
    "prefecture_kana": "トウキョウト",
    "prefecture_code": "13",
    "city": "港区",
    "city_kana": "ミナトク",
    "town": "赤坂赤坂パークビル　５階",
    "town_kana": "アカサカアカサカパークビル5カイ",
    "street": null,
    "office_name": null,
    "office_name_kana": null
  },
  "6106": {
    "zip_code": "1076106",
    "prefecture": "東京都",
    "prefecture_kana": "トウキョウト",
    "prefecture_code": "13",
    "city": "港区",
    "city_kana": "ミナトク",
    "town": "赤坂赤坂パークビル　６階",
    "town_kana": "アカサカアカサカパークビル6カイ",
    "street": null,
    "office_name": null,
    "office_name_kana": null
  },
  "6107": {
    "zip_code": "1076107",
    "prefecture": "東京都",
    "prefecture_kana": "トウキョウト",
    "prefecture_code": "13",
    "city": "港区",
    "city_kana": "ミナトク",
    "town": "赤坂赤坂パークビル　７階",
    "town_kana": "アカサカアカサカパークビル7カイ",
    "street": null,
    "office_name": null,
    "office_name_kana": null
  },
  "6108": {
    "zip_code": "1076108",
    "prefecture": "東京都",
    "prefecture_kana": "トウキョウト",
    "prefecture_code": "13",
    "city": "港区",
    "city_kana": "ミナトク",
    "town": "赤坂赤坂パークビル　８階",
    "town_kana": "アカサカアカサカパークビル8カイ",
    "street": null,
    "office_name": null,
    "office_name_kana": null
  },
  "6109": {
    "zip_code": "1076109",
    "prefecture": "東京都",
    "prefecture_kana": "トウキョウト",
    "prefecture_code": "13",
    "city": "港区",
    "city_kana": "ミナトク",
    "town": "赤坂赤坂パークビル　９階",
    "town_kana": "アカサカアカサカパークビル9カイ",
    "street": null,
    "office_name": null,
    "office_name_kana": null
  },
  "6110": {
    "zip_code": "1076110",
    "prefecture": "東京都",
    "prefecture_kana": "トウキョウト",
    "prefecture_code": "13",
    "city": "港区",
    "city_kana": "ミナトク",
    "town": "赤坂赤坂パークビル　１０階",
    "town_kana": "アカサカアカサカパークビル10カイ",
    "street": null,
    "office_name": null,
    "office_name_kana": null
  },
  "6111": {
    "zip_code": "1076111",
    "prefecture": "東京都",
    "prefecture_kana": "トウキョウト",
    "prefecture_code": "13",
    "city": "港区",
    "city_kana": "ミナトク",
    "town": "赤坂赤坂パークビル　１１階",
    "town_kana": "アカサカアカサカパークビル11カイ",
    "street": null,
    "office_name": null,
    "office_name_kana": null
  },
  "6112": {
    "zip_code": "1076112",
    "prefecture": "東京都",
    "prefecture_kana": "トウキョウト",
    "prefecture_code": "13",
    "city": "港区",
    "city_kana": "ミナトク",
    "town": "赤坂赤坂パークビル　１２階",
    "town_kana": "アカサカアカサカパークビル12カイ",
    "street": null,
    "office_name": null,
    "office_name_kana": null
  },
  "6113": {
    "zip_code": "1076113",
    "prefecture": "東京都",
    "prefecture_kana": "トウキョウト",
    "prefecture_code": "13",
    "city": "港区",
    "city_kana": "ミナトク",
    "town": "赤坂赤坂パークビル　１３階",
    "town_kana": "アカサカアカサカパークビル13カイ",
    "street": null,
    "office_name": null,
    "office_name_kana": null
  },
  "6114": {
    "zip_code": "1076114",
    "prefecture": "東京都",
    "prefecture_kana": "トウキョウト",
    "prefecture_code": "13",
    "city": "港区",
    "city_kana": "ミナトク",
    "town": "赤坂赤坂パークビル　１４階",
    "town_kana": "アカサカアカサカパークビル14カイ",
    "street": null,
    "office_name": null,
    "office_name_kana": null
  },
  "6115": {
    "zip_code": "1076115",
    "prefecture": "東京都",
    "prefecture_kana": "トウキョウト",
    "prefecture_code": "13",
    "city": "港区",
    "city_kana": "ミナトク",
    "town": "赤坂赤坂パークビル　１５階",
    "town_kana": "アカサカアカサカパークビル15カイ",
    "street": null,
    "office_name": null,
    "office_name_kana": null
  },
  "6116": {
    "zip_code": "1076116",
    "prefecture": "東京都",
    "prefecture_kana": "トウキョウト",
    "prefecture_code": "13",
    "city": "港区",
    "city_kana": "ミナトク",
    "town": "赤坂赤坂パークビル　１６階",
    "town_kana": "アカサカアカサカパークビル16カイ",
    "street": null,
    "office_name": null,
    "office_name_kana": null
  },
  "6117": {
    "zip_code": "1076117",
    "prefecture": "東京都",
    "prefecture_kana": "トウキョウト",
    "prefecture_code": "13",
    "city": "港区",
    "city_kana": "ミナトク",
    "town": "赤坂赤坂パークビル　１７階",
    "town_kana": "アカサカアカサカパークビル17カイ",
    "street": null,
    "office_name": null,
    "office_name_kana": null
  },
  "6118": {
    "zip_code": "1076118",
    "prefecture": "東京都",
    "prefecture_kana": "トウキョウト",
    "prefecture_code": "13",
    "city": "港区",
    "city_kana": "ミナトク",
    "town": "赤坂赤坂パークビル　１８階",
    "town_kana": "アカサカアカサカパークビル18カイ",
    "street": null,
    "office_name": null,
    "office_name_kana": null
  },
  "6119": {
    "zip_code": "1076119",
    "prefecture": "東京都",
    "prefecture_kana": "トウキョウト",
    "prefecture_code": "13",
    "city": "港区",
    "city_kana": "ミナトク",
    "town": "赤坂赤坂パークビル　１９階",
    "town_kana": "アカサカアカサカパークビル19カイ",
    "street": null,
    "office_name": null,
    "office_name_kana": null
  },
  "6120": {
    "zip_code": "1076120",
    "prefecture": "東京都",
    "prefecture_kana": "トウキョウト",
    "prefecture_code": "13",
    "city": "港区",
    "city_kana": "ミナトク",
    "town": "赤坂赤坂パークビル　２０階",
    "town_kana": "アカサカアカサカパークビル20カイ",
    "street": null,
    "office_name": null,
    "office_name_kana": null
  },
  "6121": {
    "zip_code": "1076121",
    "prefecture": "東京都",
    "prefecture_kana": "トウキョウト",
    "prefecture_code": "13",
    "city": "港区",
    "city_kana": "ミナトク",
    "town": "赤坂赤坂パークビル　２１階",
    "town_kana": "アカサカアカサカパークビル21カイ",
    "street": null,
    "office_name": null,
    "office_name_kana": null
  },
  "6122": {
    "zip_code": "1076122",
    "prefecture": "東京都",
    "prefecture_kana": "トウキョウト",
    "prefecture_code": "13",
    "city": "港区",
    "city_kana": "ミナトク",
    "town": "赤坂赤坂パークビル　２２階",
    "town_kana": "アカサカアカサカパークビル22カイ",
    "street": null,
    "office_name": null,
    "office_name_kana": null
  },
  "6123": {
    "zip_code": "1076123",
    "prefecture": "東京都",
    "prefecture_kana": "トウキョウト",
    "prefecture_code": "13",
    "city": "港区",
    "city_kana": "ミナトク",
    "town": "赤坂赤坂パークビル　２３階",
    "town_kana": "アカサカアカサカパークビル23カイ",
    "street": null,
    "office_name": null,
    "office_name_kana": null
  },
  "6124": {
    "zip_code": "1076124",
    "prefecture": "東京都",
    "prefecture_kana": "トウキョウト",
    "prefecture_code": "13",
    "city": "港区",
    "city_kana": "ミナトク",
    "town": "赤坂赤坂パークビル　２４階",
    "town_kana": "アカサカアカサカパークビル24カイ",
    "street": null,
    "office_name": null,
    "office_name_kana": null
  },
  "6125": {
    "zip_code": "1076125",
    "prefecture": "東京都",
    "prefecture_kana": "トウキョウト",
    "prefecture_code": "13",
    "city": "港区",
    "city_kana": "ミナトク",
    "town": "赤坂赤坂パークビル　２５階",
    "town_kana": "アカサカアカサカパークビル25カイ",
    "street": null,
    "office_name": null,
    "office_name_kana": null
  },
  "6126": {
    "zip_code": "1076126",
    "prefecture": "東京都",
    "prefecture_kana": "トウキョウト",
    "prefecture_code": "13",
    "city": "港区",
    "city_kana": "ミナトク",
    "town": "赤坂赤坂パークビル　２６階",
    "town_kana": "アカサカアカサカパークビル26カイ",
    "street": null,
    "office_name": null,
    "office_name_kana": null
  },
  "6127": {
    "zip_code": "1076127",
    "prefecture": "東京都",
    "prefecture_kana": "トウキョウト",
    "prefecture_code": "13",
    "city": "港区",
    "city_kana": "ミナトク",
    "town": "赤坂赤坂パークビル　２７階",
    "town_kana": "アカサカアカサカパークビル27カイ",
    "street": null,
    "office_name": null,
    "office_name_kana": null
  },
  "6128": {
    "zip_code": "1076128",
    "prefecture": "東京都",
    "prefecture_kana": "トウキョウト",
    "prefecture_code": "13",
    "city": "港区",
    "city_kana": "ミナトク",
    "town": "赤坂赤坂パークビル　２８階",
    "town_kana": "アカサカアカサカパークビル28カイ",
    "street": null,
    "office_name": null,
    "office_name_kana": null
  },
  "6129": {
    "zip_code": "1076129",
    "prefecture": "東京都",
    "prefecture_kana": "トウキョウト",
    "prefecture_code": "13",
    "city": "港区",
    "city_kana": "ミナトク",
    "town": "赤坂赤坂パークビル　２９階",
    "town_kana": "アカサカアカサカパークビル29カイ",
    "street": null,
    "office_name": null,
    "office_name_kana": null
  },
  "6130": {
    "zip_code": "1076130",
    "prefecture": "東京都",
    "prefecture_kana": "トウキョウト",
    "prefecture_code": "13",
    "city": "港区",
    "city_kana": "ミナトク",
    "town": "赤坂赤坂パークビル　３０階",
    "town_kana": "アカサカアカサカパークビル30カイ",
    "street": null,
    "office_name": null,
    "office_name_kana": null
  },
  "6190": {
    "zip_code": "1076190",
    "prefecture": "東京都",
    "prefecture_kana": "トウキョウト",
    "prefecture_code": "13",
    "city": "港区",
    "city_kana": "ミナトク",
    "town": "赤坂赤坂パークビル",
    "town_kana": "アカサカアカサカパークビル",
    "street": null,
    "office_name": null,
    "office_name_kana": null
  },
  "6201": {
    "zip_code": "1076201",
    "prefecture": "東京都",
    "prefecture_kana": "トウキョウト",
    "prefecture_code": "13",
    "city": "港区",
    "city_kana": "ミナトク",
    "town": "赤坂ミッドタウン・タワー　１階",
    "town_kana": "アカサカミッドタウン・タワー1カイ",
    "street": null,
    "office_name": null,
    "office_name_kana": null
  },
  "6202": {
    "zip_code": "1076202",
    "prefecture": "東京都",
    "prefecture_kana": "トウキョウト",
    "prefecture_code": "13",
    "city": "港区",
    "city_kana": "ミナトク",
    "town": "赤坂ミッドタウン・タワー　２階",
    "town_kana": "アカサカミッドタウン・タワー2カイ",
    "street": null,
    "office_name": null,
    "office_name_kana": null
  },
  "6203": {
    "zip_code": "1076203",
    "prefecture": "東京都",
    "prefecture_kana": "トウキョウト",
    "prefecture_code": "13",
    "city": "港区",
    "city_kana": "ミナトク",
    "town": "赤坂ミッドタウン・タワー　３階",
    "town_kana": "アカサカミッドタウン・タワー3カイ",
    "street": null,
    "office_name": null,
    "office_name_kana": null
  },
  "6204": {
    "zip_code": "1076204",
    "prefecture": "東京都",
    "prefecture_kana": "トウキョウト",
    "prefecture_code": "13",
    "city": "港区",
    "city_kana": "ミナトク",
    "town": "赤坂ミッドタウン・タワー　４階",
    "town_kana": "アカサカミッドタウン・タワー4カイ",
    "street": null,
    "office_name": null,
    "office_name_kana": null
  },
  "6205": {
    "zip_code": "1076205",
    "prefecture": "東京都",
    "prefecture_kana": "トウキョウト",
    "prefecture_code": "13",
    "city": "港区",
    "city_kana": "ミナトク",
    "town": "赤坂ミッドタウン・タワー　５階",
    "town_kana": "アカサカミッドタウン・タワー5カイ",
    "street": null,
    "office_name": null,
    "office_name_kana": null
  },
  "6206": {
    "zip_code": "1076206",
    "prefecture": "東京都",
    "prefecture_kana": "トウキョウト",
    "prefecture_code": "13",
    "city": "港区",
    "city_kana": "ミナトク",
    "town": "赤坂ミッドタウン・タワー　６階",
    "town_kana": "アカサカミッドタウン・タワー6カイ",
    "street": null,
    "office_name": null,
    "office_name_kana": null
  },
  "6207": {
    "zip_code": "1076207",
    "prefecture": "東京都",
    "prefecture_kana": "トウキョウト",
    "prefecture_code": "13",
    "city": "港区",
    "city_kana": "ミナトク",
    "town": "赤坂ミッドタウン・タワー　７階",
    "town_kana": "アカサカミッドタウン・タワー7カイ",
    "street": null,
    "office_name": null,
    "office_name_kana": null
  },
  "6208": {
    "zip_code": "1076208",
    "prefecture": "東京都",
    "prefecture_kana": "トウキョウト",
    "prefecture_code": "13",
    "city": "港区",
    "city_kana": "ミナトク",
    "town": "赤坂ミッドタウン・タワー　８階",
    "town_kana": "アカサカミッドタウン・タワー8カイ",
    "street": null,
    "office_name": null,
    "office_name_kana": null
  },
  "6209": {
    "zip_code": "1076209",
    "prefecture": "東京都",
    "prefecture_kana": "トウキョウト",
    "prefecture_code": "13",
    "city": "港区",
    "city_kana": "ミナトク",
    "town": "赤坂ミッドタウン・タワー　９階",
    "town_kana": "アカサカミッドタウン・タワー9カイ",
    "street": null,
    "office_name": null,
    "office_name_kana": null
  },
  "6210": {
    "zip_code": "1076210",
    "prefecture": "東京都",
    "prefecture_kana": "トウキョウト",
    "prefecture_code": "13",
    "city": "港区",
    "city_kana": "ミナトク",
    "town": "赤坂ミッドタウン・タワー　１０階",
    "town_kana": "アカサカミッドタウン・タワー10カイ",
    "street": null,
    "office_name": null,
    "office_name_kana": null
  },
  "6211": {
    "zip_code": "1076211",
    "prefecture": "東京都",
    "prefecture_kana": "トウキョウト",
    "prefecture_code": "13",
    "city": "港区",
    "city_kana": "ミナトク",
    "town": "赤坂ミッドタウン・タワー　１１階",
    "town_kana": "アカサカミッドタウン・タワー11カイ",
    "street": null,
    "office_name": null,
    "office_name_kana": null
  },
  "6212": {
    "zip_code": "1076212",
    "prefecture": "東京都",
    "prefecture_kana": "トウキョウト",
    "prefecture_code": "13",
    "city": "港区",
    "city_kana": "ミナトク",
    "town": "赤坂ミッドタウン・タワー　１２階",
    "town_kana": "アカサカミッドタウン・タワー12カイ",
    "street": null,
    "office_name": null,
    "office_name_kana": null
  },
  "6213": {
    "zip_code": "1076213",
    "prefecture": "東京都",
    "prefecture_kana": "トウキョウト",
    "prefecture_code": "13",
    "city": "港区",
    "city_kana": "ミナトク",
    "town": "赤坂ミッドタウン・タワー　１３階",
    "town_kana": "アカサカミッドタウン・タワー13カイ",
    "street": null,
    "office_name": null,
    "office_name_kana": null
  },
  "6214": {
    "zip_code": "1076214",
    "prefecture": "東京都",
    "prefecture_kana": "トウキョウト",
    "prefecture_code": "13",
    "city": "港区",
    "city_kana": "ミナトク",
    "town": "赤坂ミッドタウン・タワー　１４階",
    "town_kana": "アカサカミッドタウン・タワー14カイ",
    "street": null,
    "office_name": null,
    "office_name_kana": null
  },
  "6215": {
    "zip_code": "1076215",
    "prefecture": "東京都",
    "prefecture_kana": "トウキョウト",
    "prefecture_code": "13",
    "city": "港区",
    "city_kana": "ミナトク",
    "town": "赤坂ミッドタウン・タワー　１５階",
    "town_kana": "アカサカミッドタウン・タワー15カイ",
    "street": null,
    "office_name": null,
    "office_name_kana": null
  },
  "6216": {
    "zip_code": "1076216",
    "prefecture": "東京都",
    "prefecture_kana": "トウキョウト",
    "prefecture_code": "13",
    "city": "港区",
    "city_kana": "ミナトク",
    "town": "赤坂ミッドタウン・タワー　１６階",
    "town_kana": "アカサカミッドタウン・タワー16カイ",
    "street": null,
    "office_name": null,
    "office_name_kana": null
  },
  "6217": {
    "zip_code": "1076217",
    "prefecture": "東京都",
    "prefecture_kana": "トウキョウト",
    "prefecture_code": "13",
    "city": "港区",
    "city_kana": "ミナトク",
    "town": "赤坂ミッドタウン・タワー　１７階",
    "town_kana": "アカサカミッドタウン・タワー17カイ",
    "street": null,
    "office_name": null,
    "office_name_kana": null
  },
  "6218": {
    "zip_code": "1076218",
    "prefecture": "東京都",
    "prefecture_kana": "トウキョウト",
    "prefecture_code": "13",
    "city": "港区",
    "city_kana": "ミナトク",
    "town": "赤坂ミッドタウン・タワー　１８階",
    "town_kana": "アカサカミッドタウン・タワー18カイ",
    "street": null,
    "office_name": null,
    "office_name_kana": null
  },
  "6219": {
    "zip_code": "1076219",
    "prefecture": "東京都",
    "prefecture_kana": "トウキョウト",
    "prefecture_code": "13",
    "city": "港区",
    "city_kana": "ミナトク",
    "town": "赤坂ミッドタウン・タワー　１９階",
    "town_kana": "アカサカミッドタウン・タワー19カイ",
    "street": null,
    "office_name": null,
    "office_name_kana": null
  },
  "6220": {
    "zip_code": "1076220",
    "prefecture": "東京都",
    "prefecture_kana": "トウキョウト",
    "prefecture_code": "13",
    "city": "港区",
    "city_kana": "ミナトク",
    "town": "赤坂ミッドタウン・タワー　２０階",
    "town_kana": "アカサカミッドタウン・タワー20カイ",
    "street": null,
    "office_name": null,
    "office_name_kana": null
  },
  "6221": {
    "zip_code": "1076221",
    "prefecture": "東京都",
    "prefecture_kana": "トウキョウト",
    "prefecture_code": "13",
    "city": "港区",
    "city_kana": "ミナトク",
    "town": "赤坂ミッドタウン・タワー　２１階",
    "town_kana": "アカサカミッドタウン・タワー21カイ",
    "street": null,
    "office_name": null,
    "office_name_kana": null
  },
  "6222": {
    "zip_code": "1076222",
    "prefecture": "東京都",
    "prefecture_kana": "トウキョウト",
    "prefecture_code": "13",
    "city": "港区",
    "city_kana": "ミナトク",
    "town": "赤坂ミッドタウン・タワー　２２階",
    "town_kana": "アカサカミッドタウン・タワー22カイ",
    "street": null,
    "office_name": null,
    "office_name_kana": null
  },
  "6223": {
    "zip_code": "1076223",
    "prefecture": "東京都",
    "prefecture_kana": "トウキョウト",
    "prefecture_code": "13",
    "city": "港区",
    "city_kana": "ミナトク",
    "town": "赤坂ミッドタウン・タワー　２３階",
    "town_kana": "アカサカミッドタウン・タワー23カイ",
    "street": null,
    "office_name": null,
    "office_name_kana": null
  },
  "6224": {
    "zip_code": "1076224",
    "prefecture": "東京都",
    "prefecture_kana": "トウキョウト",
    "prefecture_code": "13",
    "city": "港区",
    "city_kana": "ミナトク",
    "town": "赤坂ミッドタウン・タワー　２４階",
    "town_kana": "アカサカミッドタウン・タワー24カイ",
    "street": null,
    "office_name": null,
    "office_name_kana": null
  },
  "6225": {
    "zip_code": "1076225",
    "prefecture": "東京都",
    "prefecture_kana": "トウキョウト",
    "prefecture_code": "13",
    "city": "港区",
    "city_kana": "ミナトク",
    "town": "赤坂ミッドタウン・タワー　２５階",
    "town_kana": "アカサカミッドタウン・タワー25カイ",
    "street": null,
    "office_name": null,
    "office_name_kana": null
  },
  "6226": {
    "zip_code": "1076226",
    "prefecture": "東京都",
    "prefecture_kana": "トウキョウト",
    "prefecture_code": "13",
    "city": "港区",
    "city_kana": "ミナトク",
    "town": "赤坂ミッドタウン・タワー　２６階",
    "town_kana": "アカサカミッドタウン・タワー26カイ",
    "street": null,
    "office_name": null,
    "office_name_kana": null
  },
  "6227": {
    "zip_code": "1076227",
    "prefecture": "東京都",
    "prefecture_kana": "トウキョウト",
    "prefecture_code": "13",
    "city": "港区",
    "city_kana": "ミナトク",
    "town": "赤坂ミッドタウン・タワー　２７階",
    "town_kana": "アカサカミッドタウン・タワー27カイ",
    "street": null,
    "office_name": null,
    "office_name_kana": null
  },
  "6228": {
    "zip_code": "1076228",
    "prefecture": "東京都",
    "prefecture_kana": "トウキョウト",
    "prefecture_code": "13",
    "city": "港区",
    "city_kana": "ミナトク",
    "town": "赤坂ミッドタウン・タワー　２８階",
    "town_kana": "アカサカミッドタウン・タワー28カイ",
    "street": null,
    "office_name": null,
    "office_name_kana": null
  },
  "6229": {
    "zip_code": "1076229",
    "prefecture": "東京都",
    "prefecture_kana": "トウキョウト",
    "prefecture_code": "13",
    "city": "港区",
    "city_kana": "ミナトク",
    "town": "赤坂ミッドタウン・タワー　２９階",
    "town_kana": "アカサカミッドタウン・タワー29カイ",
    "street": null,
    "office_name": null,
    "office_name_kana": null
  },
  "6230": {
    "zip_code": "1076230",
    "prefecture": "東京都",
    "prefecture_kana": "トウキョウト",
    "prefecture_code": "13",
    "city": "港区",
    "city_kana": "ミナトク",
    "town": "赤坂ミッドタウン・タワー　３０階",
    "town_kana": "アカサカミッドタウン・タワー30カイ",
    "street": null,
    "office_name": null,
    "office_name_kana": null
  },
  "6231": {
    "zip_code": "1076231",
    "prefecture": "東京都",
    "prefecture_kana": "トウキョウト",
    "prefecture_code": "13",
    "city": "港区",
    "city_kana": "ミナトク",
    "town": "赤坂ミッドタウン・タワー　３１階",
    "town_kana": "アカサカミッドタウン・タワー31カイ",
    "street": null,
    "office_name": null,
    "office_name_kana": null
  },
  "6232": {
    "zip_code": "1076232",
    "prefecture": "東京都",
    "prefecture_kana": "トウキョウト",
    "prefecture_code": "13",
    "city": "港区",
    "city_kana": "ミナトク",
    "town": "赤坂ミッドタウン・タワー　３２階",
    "town_kana": "アカサカミッドタウン・タワー32カイ",
    "street": null,
    "office_name": null,
    "office_name_kana": null
  },
  "6233": {
    "zip_code": "1076233",
    "prefecture": "東京都",
    "prefecture_kana": "トウキョウト",
    "prefecture_code": "13",
    "city": "港区",
    "city_kana": "ミナトク",
    "town": "赤坂ミッドタウン・タワー　３３階",
    "town_kana": "アカサカミッドタウン・タワー33カイ",
    "street": null,
    "office_name": null,
    "office_name_kana": null
  },
  "6234": {
    "zip_code": "1076234",
    "prefecture": "東京都",
    "prefecture_kana": "トウキョウト",
    "prefecture_code": "13",
    "city": "港区",
    "city_kana": "ミナトク",
    "town": "赤坂ミッドタウン・タワー　３４階",
    "town_kana": "アカサカミッドタウン・タワー34カイ",
    "street": null,
    "office_name": null,
    "office_name_kana": null
  },
  "6235": {
    "zip_code": "1076235",
    "prefecture": "東京都",
    "prefecture_kana": "トウキョウト",
    "prefecture_code": "13",
    "city": "港区",
    "city_kana": "ミナトク",
    "town": "赤坂ミッドタウン・タワー　３５階",
    "town_kana": "アカサカミッドタウン・タワー35カイ",
    "street": null,
    "office_name": null,
    "office_name_kana": null
  },
  "6236": {
    "zip_code": "1076236",
    "prefecture": "東京都",
    "prefecture_kana": "トウキョウト",
    "prefecture_code": "13",
    "city": "港区",
    "city_kana": "ミナトク",
    "town": "赤坂ミッドタウン・タワー　３６階",
    "town_kana": "アカサカミッドタウン・タワー36カイ",
    "street": null,
    "office_name": null,
    "office_name_kana": null
  },
  "6237": {
    "zip_code": "1076237",
    "prefecture": "東京都",
    "prefecture_kana": "トウキョウト",
    "prefecture_code": "13",
    "city": "港区",
    "city_kana": "ミナトク",
    "town": "赤坂ミッドタウン・タワー　３７階",
    "town_kana": "アカサカミッドタウン・タワー37カイ",
    "street": null,
    "office_name": null,
    "office_name_kana": null
  },
  "6238": {
    "zip_code": "1076238",
    "prefecture": "東京都",
    "prefecture_kana": "トウキョウト",
    "prefecture_code": "13",
    "city": "港区",
    "city_kana": "ミナトク",
    "town": "赤坂ミッドタウン・タワー　３８階",
    "town_kana": "アカサカミッドタウン・タワー38カイ",
    "street": null,
    "office_name": null,
    "office_name_kana": null
  },
  "6239": {
    "zip_code": "1076239",
    "prefecture": "東京都",
    "prefecture_kana": "トウキョウト",
    "prefecture_code": "13",
    "city": "港区",
    "city_kana": "ミナトク",
    "town": "赤坂ミッドタウン・タワー　３９階",
    "town_kana": "アカサカミッドタウン・タワー39カイ",
    "street": null,
    "office_name": null,
    "office_name_kana": null
  },
  "6240": {
    "zip_code": "1076240",
    "prefecture": "東京都",
    "prefecture_kana": "トウキョウト",
    "prefecture_code": "13",
    "city": "港区",
    "city_kana": "ミナトク",
    "town": "赤坂ミッドタウン・タワー　４０階",
    "town_kana": "アカサカミッドタウン・タワー40カイ",
    "street": null,
    "office_name": null,
    "office_name_kana": null
  },
  "6241": {
    "zip_code": "1076241",
    "prefecture": "東京都",
    "prefecture_kana": "トウキョウト",
    "prefecture_code": "13",
    "city": "港区",
    "city_kana": "ミナトク",
    "town": "赤坂ミッドタウン・タワー　４１階",
    "town_kana": "アカサカミッドタウン・タワー41カイ",
    "street": null,
    "office_name": null,
    "office_name_kana": null
  },
  "6242": {
    "zip_code": "1076242",
    "prefecture": "東京都",
    "prefecture_kana": "トウキョウト",
    "prefecture_code": "13",
    "city": "港区",
    "city_kana": "ミナトク",
    "town": "赤坂ミッドタウン・タワー　４２階",
    "town_kana": "アカサカミッドタウン・タワー42カイ",
    "street": null,
    "office_name": null,
    "office_name_kana": null
  },
  "6243": {
    "zip_code": "1076243",
    "prefecture": "東京都",
    "prefecture_kana": "トウキョウト",
    "prefecture_code": "13",
    "city": "港区",
    "city_kana": "ミナトク",
    "town": "赤坂ミッドタウン・タワー　４３階",
    "town_kana": "アカサカミッドタウン・タワー43カイ",
    "street": null,
    "office_name": null,
    "office_name_kana": null
  },
  "6244": {
    "zip_code": "1076244",
    "prefecture": "東京都",
    "prefecture_kana": "トウキョウト",
    "prefecture_code": "13",
    "city": "港区",
    "city_kana": "ミナトク",
    "town": "赤坂ミッドタウン・タワー　４４階",
    "town_kana": "アカサカミッドタウン・タワー44カイ",
    "street": null,
    "office_name": null,
    "office_name_kana": null
  },
  "6245": {
    "zip_code": "1076245",
    "prefecture": "東京都",
    "prefecture_kana": "トウキョウト",
    "prefecture_code": "13",
    "city": "港区",
    "city_kana": "ミナトク",
    "town": "赤坂ミッドタウン・タワー　４５階",
    "town_kana": "アカサカミッドタウン・タワー45カイ",
    "street": null,
    "office_name": null,
    "office_name_kana": null
  },
  "6290": {
    "zip_code": "1076290",
    "prefecture": "東京都",
    "prefecture_kana": "トウキョウト",
    "prefecture_code": "13",
    "city": "港区",
    "city_kana": "ミナトク",
    "town": "赤坂ミッドタウン・タワー",
    "town_kana": "アカサカミッドタウン・タワー",
    "street": null,
    "office_name": null,
    "office_name_kana": null
  },
  "6301": {
    "zip_code": "1076301",
    "prefecture": "東京都",
    "prefecture_kana": "トウキョウト",
    "prefecture_code": "13",
    "city": "港区",
    "city_kana": "ミナトク",
    "town": "赤坂赤坂Ｂｉｚタワー　１階",
    "town_kana": "アカサカアカサカビズタワー1カイ",
    "street": null,
    "office_name": null,
    "office_name_kana": null
  },
  "6302": {
    "zip_code": "1076302",
    "prefecture": "東京都",
    "prefecture_kana": "トウキョウト",
    "prefecture_code": "13",
    "city": "港区",
    "city_kana": "ミナトク",
    "town": "赤坂赤坂Ｂｉｚタワー　２階",
    "town_kana": "アカサカアカサカビズタワー2カイ",
    "street": null,
    "office_name": null,
    "office_name_kana": null
  },
  "6303": {
    "zip_code": "1076303",
    "prefecture": "東京都",
    "prefecture_kana": "トウキョウト",
    "prefecture_code": "13",
    "city": "港区",
    "city_kana": "ミナトク",
    "town": "赤坂赤坂Ｂｉｚタワー　３階",
    "town_kana": "アカサカアカサカビズタワー3カイ",
    "street": null,
    "office_name": null,
    "office_name_kana": null
  },
  "6304": {
    "zip_code": "1076304",
    "prefecture": "東京都",
    "prefecture_kana": "トウキョウト",
    "prefecture_code": "13",
    "city": "港区",
    "city_kana": "ミナトク",
    "town": "赤坂赤坂Ｂｉｚタワー　４階",
    "town_kana": "アカサカアカサカビズタワー4カイ",
    "street": null,
    "office_name": null,
    "office_name_kana": null
  },
  "6305": {
    "zip_code": "1076305",
    "prefecture": "東京都",
    "prefecture_kana": "トウキョウト",
    "prefecture_code": "13",
    "city": "港区",
    "city_kana": "ミナトク",
    "town": "赤坂赤坂Ｂｉｚタワー　５階",
    "town_kana": "アカサカアカサカビズタワー5カイ",
    "street": null,
    "office_name": null,
    "office_name_kana": null
  },
  "6306": {
    "zip_code": "1076306",
    "prefecture": "東京都",
    "prefecture_kana": "トウキョウト",
    "prefecture_code": "13",
    "city": "港区",
    "city_kana": "ミナトク",
    "town": "赤坂赤坂Ｂｉｚタワー　６階",
    "town_kana": "アカサカアカサカビズタワー6カイ",
    "street": null,
    "office_name": null,
    "office_name_kana": null
  },
  "6307": {
    "zip_code": "1076307",
    "prefecture": "東京都",
    "prefecture_kana": "トウキョウト",
    "prefecture_code": "13",
    "city": "港区",
    "city_kana": "ミナトク",
    "town": "赤坂赤坂Ｂｉｚタワー　７階",
    "town_kana": "アカサカアカサカビズタワー7カイ",
    "street": null,
    "office_name": null,
    "office_name_kana": null
  },
  "6308": {
    "zip_code": "1076308",
    "prefecture": "東京都",
    "prefecture_kana": "トウキョウト",
    "prefecture_code": "13",
    "city": "港区",
    "city_kana": "ミナトク",
    "town": "赤坂赤坂Ｂｉｚタワー　８階",
    "town_kana": "アカサカアカサカビズタワー8カイ",
    "street": null,
    "office_name": null,
    "office_name_kana": null
  },
  "6309": {
    "zip_code": "1076309",
    "prefecture": "東京都",
    "prefecture_kana": "トウキョウト",
    "prefecture_code": "13",
    "city": "港区",
    "city_kana": "ミナトク",
    "town": "赤坂赤坂Ｂｉｚタワー　９階",
    "town_kana": "アカサカアカサカビズタワー9カイ",
    "street": null,
    "office_name": null,
    "office_name_kana": null
  },
  "6310": {
    "zip_code": "1076310",
    "prefecture": "東京都",
    "prefecture_kana": "トウキョウト",
    "prefecture_code": "13",
    "city": "港区",
    "city_kana": "ミナトク",
    "town": "赤坂赤坂Ｂｉｚタワー　１０階",
    "town_kana": "アカサカアカサカビズタワー10カイ",
    "street": null,
    "office_name": null,
    "office_name_kana": null
  },
  "6311": {
    "zip_code": "1076311",
    "prefecture": "東京都",
    "prefecture_kana": "トウキョウト",
    "prefecture_code": "13",
    "city": "港区",
    "city_kana": "ミナトク",
    "town": "赤坂赤坂Ｂｉｚタワー　１１階",
    "town_kana": "アカサカアカサカビズタワー11カイ",
    "street": null,
    "office_name": null,
    "office_name_kana": null
  },
  "6312": {
    "zip_code": "1076312",
    "prefecture": "東京都",
    "prefecture_kana": "トウキョウト",
    "prefecture_code": "13",
    "city": "港区",
    "city_kana": "ミナトク",
    "town": "赤坂赤坂Ｂｉｚタワー　１２階",
    "town_kana": "アカサカアカサカビズタワー12カイ",
    "street": null,
    "office_name": null,
    "office_name_kana": null
  },
  "6313": {
    "zip_code": "1076313",
    "prefecture": "東京都",
    "prefecture_kana": "トウキョウト",
    "prefecture_code": "13",
    "city": "港区",
    "city_kana": "ミナトク",
    "town": "赤坂赤坂Ｂｉｚタワー　１３階",
    "town_kana": "アカサカアカサカビズタワー13カイ",
    "street": null,
    "office_name": null,
    "office_name_kana": null
  },
  "6314": {
    "zip_code": "1076314",
    "prefecture": "東京都",
    "prefecture_kana": "トウキョウト",
    "prefecture_code": "13",
    "city": "港区",
    "city_kana": "ミナトク",
    "town": "赤坂赤坂Ｂｉｚタワー　１４階",
    "town_kana": "アカサカアカサカビズタワー14カイ",
    "street": null,
    "office_name": null,
    "office_name_kana": null
  },
  "6315": {
    "zip_code": "1076315",
    "prefecture": "東京都",
    "prefecture_kana": "トウキョウト",
    "prefecture_code": "13",
    "city": "港区",
    "city_kana": "ミナトク",
    "town": "赤坂赤坂Ｂｉｚタワー　１５階",
    "town_kana": "アカサカアカサカビズタワー15カイ",
    "street": null,
    "office_name": null,
    "office_name_kana": null
  },
  "6316": {
    "zip_code": "1076316",
    "prefecture": "東京都",
    "prefecture_kana": "トウキョウト",
    "prefecture_code": "13",
    "city": "港区",
    "city_kana": "ミナトク",
    "town": "赤坂赤坂Ｂｉｚタワー　１６階",
    "town_kana": "アカサカアカサカビズタワー16カイ",
    "street": null,
    "office_name": null,
    "office_name_kana": null
  },
  "6317": {
    "zip_code": "1076317",
    "prefecture": "東京都",
    "prefecture_kana": "トウキョウト",
    "prefecture_code": "13",
    "city": "港区",
    "city_kana": "ミナトク",
    "town": "赤坂赤坂Ｂｉｚタワー　１７階",
    "town_kana": "アカサカアカサカビズタワー17カイ",
    "street": null,
    "office_name": null,
    "office_name_kana": null
  },
  "6318": {
    "zip_code": "1076318",
    "prefecture": "東京都",
    "prefecture_kana": "トウキョウト",
    "prefecture_code": "13",
    "city": "港区",
    "city_kana": "ミナトク",
    "town": "赤坂赤坂Ｂｉｚタワー　１８階",
    "town_kana": "アカサカアカサカビズタワー18カイ",
    "street": null,
    "office_name": null,
    "office_name_kana": null
  },
  "6319": {
    "zip_code": "1076319",
    "prefecture": "東京都",
    "prefecture_kana": "トウキョウト",
    "prefecture_code": "13",
    "city": "港区",
    "city_kana": "ミナトク",
    "town": "赤坂赤坂Ｂｉｚタワー　１９階",
    "town_kana": "アカサカアカサカビズタワー19カイ",
    "street": null,
    "office_name": null,
    "office_name_kana": null
  },
  "6320": {
    "zip_code": "1076320",
    "prefecture": "東京都",
    "prefecture_kana": "トウキョウト",
    "prefecture_code": "13",
    "city": "港区",
    "city_kana": "ミナトク",
    "town": "赤坂赤坂Ｂｉｚタワー　２０階",
    "town_kana": "アカサカアカサカビズタワー20カイ",
    "street": null,
    "office_name": null,
    "office_name_kana": null
  },
  "6321": {
    "zip_code": "1076321",
    "prefecture": "東京都",
    "prefecture_kana": "トウキョウト",
    "prefecture_code": "13",
    "city": "港区",
    "city_kana": "ミナトク",
    "town": "赤坂赤坂Ｂｉｚタワー　２１階",
    "town_kana": "アカサカアカサカビズタワー21カイ",
    "street": null,
    "office_name": null,
    "office_name_kana": null
  },
  "6322": {
    "zip_code": "1076322",
    "prefecture": "東京都",
    "prefecture_kana": "トウキョウト",
    "prefecture_code": "13",
    "city": "港区",
    "city_kana": "ミナトク",
    "town": "赤坂赤坂Ｂｉｚタワー　２２階",
    "town_kana": "アカサカアカサカビズタワー22カイ",
    "street": null,
    "office_name": null,
    "office_name_kana": null
  },
  "6323": {
    "zip_code": "1076323",
    "prefecture": "東京都",
    "prefecture_kana": "トウキョウト",
    "prefecture_code": "13",
    "city": "港区",
    "city_kana": "ミナトク",
    "town": "赤坂赤坂Ｂｉｚタワー　２３階",
    "town_kana": "アカサカアカサカビズタワー23カイ",
    "street": null,
    "office_name": null,
    "office_name_kana": null
  },
  "6324": {
    "zip_code": "1076324",
    "prefecture": "東京都",
    "prefecture_kana": "トウキョウト",
    "prefecture_code": "13",
    "city": "港区",
    "city_kana": "ミナトク",
    "town": "赤坂赤坂Ｂｉｚタワー　２４階",
    "town_kana": "アカサカアカサカビズタワー24カイ",
    "street": null,
    "office_name": null,
    "office_name_kana": null
  },
  "6325": {
    "zip_code": "1076325",
    "prefecture": "東京都",
    "prefecture_kana": "トウキョウト",
    "prefecture_code": "13",
    "city": "港区",
    "city_kana": "ミナトク",
    "town": "赤坂赤坂Ｂｉｚタワー　２５階",
    "town_kana": "アカサカアカサカビズタワー25カイ",
    "street": null,
    "office_name": null,
    "office_name_kana": null
  },
  "6326": {
    "zip_code": "1076326",
    "prefecture": "東京都",
    "prefecture_kana": "トウキョウト",
    "prefecture_code": "13",
    "city": "港区",
    "city_kana": "ミナトク",
    "town": "赤坂赤坂Ｂｉｚタワー　２６階",
    "town_kana": "アカサカアカサカビズタワー26カイ",
    "street": null,
    "office_name": null,
    "office_name_kana": null
  },
  "6327": {
    "zip_code": "1076327",
    "prefecture": "東京都",
    "prefecture_kana": "トウキョウト",
    "prefecture_code": "13",
    "city": "港区",
    "city_kana": "ミナトク",
    "town": "赤坂赤坂Ｂｉｚタワー　２７階",
    "town_kana": "アカサカアカサカビズタワー27カイ",
    "street": null,
    "office_name": null,
    "office_name_kana": null
  },
  "6328": {
    "zip_code": "1076328",
    "prefecture": "東京都",
    "prefecture_kana": "トウキョウト",
    "prefecture_code": "13",
    "city": "港区",
    "city_kana": "ミナトク",
    "town": "赤坂赤坂Ｂｉｚタワー　２８階",
    "town_kana": "アカサカアカサカビズタワー28カイ",
    "street": null,
    "office_name": null,
    "office_name_kana": null
  },
  "6329": {
    "zip_code": "1076329",
    "prefecture": "東京都",
    "prefecture_kana": "トウキョウト",
    "prefecture_code": "13",
    "city": "港区",
    "city_kana": "ミナトク",
    "town": "赤坂赤坂Ｂｉｚタワー　２９階",
    "town_kana": "アカサカアカサカビズタワー29カイ",
    "street": null,
    "office_name": null,
    "office_name_kana": null
  },
  "6330": {
    "zip_code": "1076330",
    "prefecture": "東京都",
    "prefecture_kana": "トウキョウト",
    "prefecture_code": "13",
    "city": "港区",
    "city_kana": "ミナトク",
    "town": "赤坂赤坂Ｂｉｚタワー　３０階",
    "town_kana": "アカサカアカサカビズタワー30カイ",
    "street": null,
    "office_name": null,
    "office_name_kana": null
  },
  "6331": {
    "zip_code": "1076331",
    "prefecture": "東京都",
    "prefecture_kana": "トウキョウト",
    "prefecture_code": "13",
    "city": "港区",
    "city_kana": "ミナトク",
    "town": "赤坂赤坂Ｂｉｚタワー　３１階",
    "town_kana": "アカサカアカサカビズタワー31カイ",
    "street": null,
    "office_name": null,
    "office_name_kana": null
  },
  "6332": {
    "zip_code": "1076332",
    "prefecture": "東京都",
    "prefecture_kana": "トウキョウト",
    "prefecture_code": "13",
    "city": "港区",
    "city_kana": "ミナトク",
    "town": "赤坂赤坂Ｂｉｚタワー　３２階",
    "town_kana": "アカサカアカサカビズタワー32カイ",
    "street": null,
    "office_name": null,
    "office_name_kana": null
  },
  "6333": {
    "zip_code": "1076333",
    "prefecture": "東京都",
    "prefecture_kana": "トウキョウト",
    "prefecture_code": "13",
    "city": "港区",
    "city_kana": "ミナトク",
    "town": "赤坂赤坂Ｂｉｚタワー　３３階",
    "town_kana": "アカサカアカサカビズタワー33カイ",
    "street": null,
    "office_name": null,
    "office_name_kana": null
  },
  "6334": {
    "zip_code": "1076334",
    "prefecture": "東京都",
    "prefecture_kana": "トウキョウト",
    "prefecture_code": "13",
    "city": "港区",
    "city_kana": "ミナトク",
    "town": "赤坂赤坂Ｂｉｚタワー　３４階",
    "town_kana": "アカサカアカサカビズタワー34カイ",
    "street": null,
    "office_name": null,
    "office_name_kana": null
  },
  "6335": {
    "zip_code": "1076335",
    "prefecture": "東京都",
    "prefecture_kana": "トウキョウト",
    "prefecture_code": "13",
    "city": "港区",
    "city_kana": "ミナトク",
    "town": "赤坂赤坂Ｂｉｚタワー　３５階",
    "town_kana": "アカサカアカサカビズタワー35カイ",
    "street": null,
    "office_name": null,
    "office_name_kana": null
  },
  "6336": {
    "zip_code": "1076336",
    "prefecture": "東京都",
    "prefecture_kana": "トウキョウト",
    "prefecture_code": "13",
    "city": "港区",
    "city_kana": "ミナトク",
    "town": "赤坂赤坂Ｂｉｚタワー　３６階",
    "town_kana": "アカサカアカサカビズタワー36カイ",
    "street": null,
    "office_name": null,
    "office_name_kana": null
  },
  "6337": {
    "zip_code": "1076337",
    "prefecture": "東京都",
    "prefecture_kana": "トウキョウト",
    "prefecture_code": "13",
    "city": "港区",
    "city_kana": "ミナトク",
    "town": "赤坂赤坂Ｂｉｚタワー　３７階",
    "town_kana": "アカサカアカサカビズタワー37カイ",
    "street": null,
    "office_name": null,
    "office_name_kana": null
  },
  "6338": {
    "zip_code": "1076338",
    "prefecture": "東京都",
    "prefecture_kana": "トウキョウト",
    "prefecture_code": "13",
    "city": "港区",
    "city_kana": "ミナトク",
    "town": "赤坂赤坂Ｂｉｚタワー　３８階",
    "town_kana": "アカサカアカサカビズタワー38カイ",
    "street": null,
    "office_name": null,
    "office_name_kana": null
  },
  "6339": {
    "zip_code": "1076339",
    "prefecture": "東京都",
    "prefecture_kana": "トウキョウト",
    "prefecture_code": "13",
    "city": "港区",
    "city_kana": "ミナトク",
    "town": "赤坂赤坂Ｂｉｚタワー　３９階",
    "town_kana": "アカサカアカサカビズタワー39カイ",
    "street": null,
    "office_name": null,
    "office_name_kana": null
  },
  "6390": {
    "zip_code": "1076390",
    "prefecture": "東京都",
    "prefecture_kana": "トウキョウト",
    "prefecture_code": "13",
    "city": "港区",
    "city_kana": "ミナトク",
    "town": "赤坂赤坂Ｂｉｚタワー",
    "town_kana": "アカサカアカサカビズタワー",
    "street": null,
    "office_name": null,
    "office_name_kana": null
  },
  "8001": {
    "zip_code": "1078001",
    "prefecture": "東京都",
    "prefecture_kana": "トウキョウト",
    "prefecture_code": "13",
    "city": "港区",
    "city_kana": "ミナトク",
    "town": "赤坂",
    "town_kana": "アカサカ",
    "street": "５−３−６",
    "office_name": "株式会社　ＴＢＳラジオ＆コミュニケーションズ",
    "office_name_kana": "カブシキガイシヤ テイ-ビ-エスラジオアンドコミユニケ-シヨンズ"
  },
  "8006": {
    "zip_code": "1078006",
    "prefecture": "東京都",
    "prefecture_kana": "トウキョウト",
    "prefecture_code": "13",
    "city": "港区",
    "city_kana": "ミナトク",
    "town": "赤坂",
    "town_kana": "アカサカ",
    "street": "５丁目３−６（赤坂郵便局私書箱第４号）",
    "office_name": "株式会社　東京放送",
    "office_name_kana": "カブシキガイシヤ トウキヨウホウソウ"
  },
  "8060": {
    "zip_code": "1078060",
    "prefecture": "東京都",
    "prefecture_kana": "トウキョウト",
    "prefecture_code": "13",
    "city": "港区",
    "city_kana": "ミナトク",
    "town": "赤坂",
    "town_kana": "アカサカ",
    "street": "８丁目１０番１６号",
    "office_name": "医療法人財団　順和会　山王病院",
    "office_name_kana": "イリヨウホウジンザイダン ジユンワカイ サンノウビヨウイン"
  },
  "8077": {
    "zip_code": "1078077",
    "prefecture": "東京都",
    "prefecture_kana": "トウキョウト",
    "prefecture_code": "13",
    "city": "港区",
    "city_kana": "ミナトク",
    "town": "北青山",
    "town_kana": "キタアオヤマ",
    "street": "２丁目５−１",
    "office_name": "伊藤忠商事　株式会社",
    "office_name_kana": "イトウチユウシヨウジ カブシキガイシヤ"
  },
  "8320": {
    "zip_code": "1078320",
    "prefecture": "東京都",
    "prefecture_kana": "トウキョウト",
    "prefecture_code": "13",
    "city": "港区",
    "city_kana": "ミナトク",
    "town": "赤坂",
    "town_kana": "アカサカ",
    "street": "７丁目６−３８",
    "office_name": "トーヨーマテリア　株式会社",
    "office_name_kana": "ト-ヨ-マテリア カブシキガイシヤ"
  },
  "8323": {
    "zip_code": "1078323",
    "prefecture": "東京都",
    "prefecture_kana": "トウキョウト",
    "prefecture_code": "13",
    "city": "港区",
    "city_kana": "ミナトク",
    "town": "赤坂",
    "town_kana": "アカサカ",
    "street": "９丁目７−２",
    "office_name": "コナミ　株式会社",
    "office_name_kana": "コナミ カブシキガイシヤ"
  },
  "8324": {
    "zip_code": "1078324",
    "prefecture": "東京都",
    "prefecture_kana": "トウキョウト",
    "prefecture_code": "13",
    "city": "港区",
    "city_kana": "ミナトク",
    "town": "赤坂",
    "town_kana": "アカサカ",
    "street": "９丁目７−２",
    "office_name": "株式会社　コナミデジタルエンタテインメント",
    "office_name_kana": "カブシキガイシヤ コナミデジタルエンタテインメント"
  },
  "8326": {
    "zip_code": "1078326",
    "prefecture": "東京都",
    "prefecture_kana": "トウキョウト",
    "prefecture_code": "13",
    "city": "港区",
    "city_kana": "ミナトク",
    "town": "赤坂",
    "town_kana": "アカサカ",
    "street": "９丁目７−２",
    "office_name": "コナミリアルエステート　株式会社",
    "office_name_kana": "コナミリアルエステ-ト カブシキガイシヤ"
  },
  "8330": {
    "zip_code": "1078330",
    "prefecture": "東京都",
    "prefecture_kana": "トウキョウト",
    "prefecture_code": "13",
    "city": "港区",
    "city_kana": "ミナトク",
    "town": "赤坂",
    "town_kana": "アカサカ",
    "street": "２丁目１４番５号",
    "office_name": "株式会社　東通",
    "office_name_kana": "カブシキガイシヤ トウツウ"
  },
  "8332": {
    "zip_code": "1078332",
    "prefecture": "東京都",
    "prefecture_kana": "トウキョウト",
    "prefecture_code": "13",
    "city": "港区",
    "city_kana": "ミナトク",
    "town": "赤坂",
    "town_kana": "アカサカ",
    "street": "８丁目５番３５号",
    "office_name": "医療法人財団　順和会　山王メディカルセンター",
    "office_name_kana": "イリヨウホウジンザイダン ジユンワカイ サンノウメデイカルセンタ-"
  },
  "8336": {
    "zip_code": "1078336",
    "prefecture": "東京都",
    "prefecture_kana": "トウキョウト",
    "prefecture_code": "13",
    "city": "港区",
    "city_kana": "ミナトク",
    "town": "赤坂",
    "town_kana": "アカサカ",
    "street": "６丁目１０−４",
    "office_name": "株式会社　グッデイ",
    "office_name_kana": "カブシキガイシヤ グツデイ"
  },
  "8340": {
    "zip_code": "1078340",
    "prefecture": "東京都",
    "prefecture_kana": "トウキョウト",
    "prefecture_code": "13",
    "city": "港区",
    "city_kana": "ミナトク",
    "town": "赤坂",
    "town_kana": "アカサカ",
    "street": "４丁目８−１０",
    "office_name": "ファミリー劇場",
    "office_name_kana": "フアミリ-ゲキジヨウ"
  },
  "8342": {
    "zip_code": "1078342",
    "prefecture": "東京都",
    "prefecture_kana": "トウキョウト",
    "prefecture_code": "13",
    "city": "港区",
    "city_kana": "ミナトク",
    "town": "赤坂",
    "town_kana": "アカサカ",
    "street": "９丁目７−２",
    "office_name": "株式会社　インターネットレボリューション",
    "office_name_kana": "カブシキガイシヤ インタ-ネツトレボリユ-シヨン"
  },
  "8348": {
    "zip_code": "1078348",
    "prefecture": "東京都",
    "prefecture_kana": "トウキョウト",
    "prefecture_code": "13",
    "city": "港区",
    "city_kana": "ミナトク",
    "town": "赤坂",
    "town_kana": "アカサカ",
    "street": "６−５−１１",
    "office_name": "鹿島建設　株式会社　赤坂別館",
    "office_name_kana": "カジマケンセツ カブシキガイシヤ アカサカベツカン"
  },
  "8349": {
    "zip_code": "1078349",
    "prefecture": "東京都",
    "prefecture_kana": "トウキョウト",
    "prefecture_code": "13",
    "city": "港区",
    "city_kana": "ミナトク",
    "town": "北青山",
    "town_kana": "キタアオヤマ",
    "street": "２−５−８",
    "office_name": "株式会社　オークネット",
    "office_name_kana": "カブシキガイシヤ オ-クネツト"
  },
  "8355": {
    "zip_code": "1078355",
    "prefecture": "東京都",
    "prefecture_kana": "トウキョウト",
    "prefecture_code": "13",
    "city": "港区",
    "city_kana": "ミナトク",
    "town": "南青山",
    "town_kana": "ミナミアオヤマ",
    "street": "４−１０−１４",
    "office_name": "株式会社　ソーゴー東京",
    "office_name_kana": "カブシキガイシヤ ソ-ゴ-トウキヨウ"
  },
  "8360": {
    "zip_code": "1078360",
    "prefecture": "東京都",
    "prefecture_kana": "トウキョウト",
    "prefecture_code": "13",
    "city": "港区",
    "city_kana": "ミナトク",
    "town": "北青山",
    "town_kana": "キタアオヤマ",
    "street": "１丁目２番３号青山ビル９階",
    "office_name": "株式会社　ホンダトレーディング",
    "office_name_kana": "カブシキガイシヤ ホンダトレ-デイング"
  },
  "8370": {
    "zip_code": "1078370",
    "prefecture": "東京都",
    "prefecture_kana": "トウキョウト",
    "prefecture_code": "13",
    "city": "港区",
    "city_kana": "ミナトク",
    "town": "赤坂",
    "town_kana": "アカサカ",
    "street": "１丁目９−１５",
    "office_name": "（株）　ビー・エス・ジェイ・ラジオ",
    "office_name_kana": "(カブ) ビ-・エス・ジエイ・ラジオ"
  },
  "8371": {
    "zip_code": "1078371",
    "prefecture": "東京都",
    "prefecture_kana": "トウキョウト",
    "prefecture_code": "13",
    "city": "港区",
    "city_kana": "ミナトク",
    "town": "赤坂",
    "town_kana": "アカサカ",
    "street": "４丁目１０−３６",
    "office_name": "学校法人　山脇学園",
    "office_name_kana": "ガツコウホウジン ヤマワキガクエン"
  },
  "8373": {
    "zip_code": "1078373",
    "prefecture": "東京都",
    "prefecture_kana": "トウキョウト",
    "prefecture_code": "13",
    "city": "港区",
    "city_kana": "ミナトク",
    "town": "赤坂",
    "town_kana": "アカサカ",
    "street": "１丁目９−１５",
    "office_name": "株式会社　日経ラジオ社",
    "office_name_kana": "カブシキガイシヤ ニツケイラジオシヤ"
  },
  "8380": {
    "zip_code": "1078380",
    "prefecture": "東京都",
    "prefecture_kana": "トウキョウト",
    "prefecture_code": "13",
    "city": "港区",
    "city_kana": "ミナトク",
    "town": "赤坂",
    "town_kana": "アカサカ",
    "street": "４丁目２番６号住友不動産新赤坂ビル",
    "office_name": "株式会社　日音",
    "office_name_kana": "カブシキガイシヤ ニチオン"
  },
  "8384": {
    "zip_code": "1078384",
    "prefecture": "東京都",
    "prefecture_kana": "トウキョウト",
    "prefecture_code": "13",
    "city": "港区",
    "city_kana": "ミナトク",
    "town": "南青山",
    "town_kana": "ミナミアオヤマ",
    "street": "２−２−３Ｍ−ＳＱＵＡＲＥ",
    "office_name": "株式会社　ジュン",
    "office_name_kana": "カブシキガイシヤ ジユン"
  },
  "8388": {
    "zip_code": "1078388",
    "prefecture": "東京都",
    "prefecture_kana": "トウキョウト",
    "prefecture_code": "13",
    "city": "港区",
    "city_kana": "ミナトク",
    "town": "元赤坂",
    "town_kana": "モトアカサカ",
    "street": "１−３−１",
    "office_name": "鹿島建設　株式会社　本社",
    "office_name_kana": "カジマケンセツ カブシキガイシヤ ホンシヤ"
  },
  "8401": {
    "zip_code": "1078401",
    "prefecture": "東京都",
    "prefecture_kana": "トウキョウト",
    "prefecture_code": "13",
    "city": "港区",
    "city_kana": "ミナトク",
    "town": "赤坂",
    "town_kana": "アカサカ",
    "street": "４丁目９−２２",
    "office_name": "株式会社　虎屋",
    "office_name_kana": "カブシキガイシヤ トラヤ"
  },
  "8403": {
    "zip_code": "1078403",
    "prefecture": "東京都",
    "prefecture_kana": "トウキョウト",
    "prefecture_code": "13",
    "city": "港区",
    "city_kana": "ミナトク",
    "town": "赤坂",
    "town_kana": "アカサカ",
    "street": "１丁目１３−１",
    "office_name": "サントリー　株式会社　サントリーホール",
    "office_name_kana": "サントリ- カブシキガイシヤ サントリ-ホ-ル"
  },
  "8404": {
    "zip_code": "1078404",
    "prefecture": "東京都",
    "prefecture_kana": "トウキョウト",
    "prefecture_code": "13",
    "city": "港区",
    "city_kana": "ミナトク",
    "town": "赤坂",
    "town_kana": "アカサカ",
    "street": "１丁目２−２",
    "office_name": "日本財団",
    "office_name_kana": "ニホンザイダン"
  },
  "8410": {
    "zip_code": "1078410",
    "prefecture": "東京都",
    "prefecture_kana": "トウキョウト",
    "prefecture_code": "13",
    "city": "港区",
    "city_kana": "ミナトク",
    "town": "赤坂",
    "town_kana": "アカサカ",
    "street": "１丁目９−１３三会堂ビル",
    "office_name": "株式会社　山と渓谷社",
    "office_name_kana": "カブシキガイシヤ ヤマトケイコクシヤ"
  },
  "8411": {
    "zip_code": "1078411",
    "prefecture": "東京都",
    "prefecture_kana": "トウキョウト",
    "prefecture_code": "13",
    "city": "港区",
    "city_kana": "ミナトク",
    "town": "南青山",
    "town_kana": "ミナミアオヤマ",
    "street": "３−１３−１６",
    "office_name": "事業構想大学院大学",
    "office_name_kana": "ジギヨウコウソウダイガクインダイガク"
  },
  "8412": {
    "zip_code": "1078412",
    "prefecture": "東京都",
    "prefecture_kana": "トウキョウト",
    "prefecture_code": "13",
    "city": "港区",
    "city_kana": "ミナトク",
    "town": "赤坂",
    "town_kana": "アカサカ",
    "street": "４丁目１５番１号赤坂ガーデンシティ６階",
    "office_name": "株式会社　グローバルユースビューロー",
    "office_name_kana": "カブシキガイシヤ グロ-バルユ-スビユ-ロ-"
  },
  "8414": {
    "zip_code": "1078414",
    "prefecture": "東京都",
    "prefecture_kana": "トウキョウト",
    "prefecture_code": "13",
    "city": "港区",
    "city_kana": "ミナトク",
    "town": "赤坂",
    "town_kana": "アカサカ",
    "street": "２丁目３−６",
    "office_name": "株式会社　小松製作所",
    "office_name_kana": "カブシキガイシヤ コマツセイサクシヨ"
  },
  "8416": {
    "zip_code": "1078416",
    "prefecture": "東京都",
    "prefecture_kana": "トウキョウト",
    "prefecture_code": "13",
    "city": "港区",
    "city_kana": "ミナトク",
    "town": "赤坂",
    "town_kana": "アカサカ",
    "street": "７丁目１０番２０号アカサカセブンスアヴェニュービル",
    "office_name": "一般財団法人　日本建設情報総合センター",
    "office_name_kana": "イツパンザイダンホウジン ニホンケンセツジヨウホウソウゴウセンタ-"
  },
  "8417": {
    "zip_code": "1078417",
    "prefecture": "東京都",
    "prefecture_kana": "トウキョウト",
    "prefecture_code": "13",
    "city": "港区",
    "city_kana": "ミナトク",
    "town": "赤坂",
    "town_kana": "アカサカ",
    "street": "４丁目８−１８",
    "office_name": "株式会社　東急エージェンシー",
    "office_name_kana": "カブシキガイシヤ トウキユウエ-ジエンシ-"
  },
  "8418": {
    "zip_code": "1078418",
    "prefecture": "東京都",
    "prefecture_kana": "トウキョウト",
    "prefecture_code": "13",
    "city": "港区",
    "city_kana": "ミナトク",
    "town": "南青山",
    "town_kana": "ミナミアオヤマ",
    "street": "３−１３−１８−３１３南青山６階",
    "office_name": "事業構想大学院大学",
    "office_name_kana": "ジギヨウコウソウダイガクインダイガク"
  },
  "8419": {
    "zip_code": "1078419",
    "prefecture": "東京都",
    "prefecture_kana": "トウキョウト",
    "prefecture_code": "13",
    "city": "港区",
    "city_kana": "ミナトク",
    "town": "赤坂",
    "town_kana": "アカサカ",
    "street": "５丁目１−３１第６セイコービル４階",
    "office_name": "全国卸商業団地厚生年金基金",
    "office_name_kana": "ゼンコクオロシシヨウギヨウダンチコウセイネンキンキキン"
  },
  "8420": {
    "zip_code": "1078420",
    "prefecture": "東京都",
    "prefecture_kana": "トウキョウト",
    "prefecture_code": "13",
    "city": "港区",
    "city_kana": "ミナトク",
    "town": "赤坂",
    "town_kana": "アカサカ",
    "street": "１丁目１０−５",
    "office_name": "米国大使館",
    "office_name_kana": "アメリカタイシカン"
  },
  "8434": {
    "zip_code": "1078434",
    "prefecture": "東京都",
    "prefecture_kana": "トウキョウト",
    "prefecture_code": "13",
    "city": "港区",
    "city_kana": "ミナトク",
    "town": "赤坂",
    "town_kana": "アカサカ",
    "street": "１丁目１２−３３",
    "office_name": "ＡＮＡインターコンチネンタルホテル東京",
    "office_name_kana": "エ-エヌエ-インタ-コンチネンタルホテルトウキヨウ"
  },
  "8440": {
    "zip_code": "1078440",
    "prefecture": "東京都",
    "prefecture_kana": "トウキョウト",
    "prefecture_code": "13",
    "city": "港区",
    "city_kana": "ミナトク",
    "town": "赤坂",
    "town_kana": "アカサカ",
    "street": "４丁目１−２４",
    "office_name": "財団法人　日本規格協会",
    "office_name_kana": "ザイダンホウジン ニホンキカクキヨウカイ"
  },
  "8448": {
    "zip_code": "1078448",
    "prefecture": "東京都",
    "prefecture_kana": "トウキョウト",
    "prefecture_code": "13",
    "city": "港区",
    "city_kana": "ミナトク",
    "town": "元赤坂",
    "town_kana": "モトアカサカ",
    "street": "１丁目５−１７",
    "office_name": "株式会社　松田平田設計",
    "office_name_kana": "カブシキガイシヤ マツダヒラタセツケイ"
  },
  "8450": {
    "zip_code": "1078450",
    "prefecture": "東京都",
    "prefecture_kana": "トウキョウト",
    "prefecture_code": "13",
    "city": "港区",
    "city_kana": "ミナトク",
    "town": "元赤坂",
    "town_kana": "モトアカサカ",
    "street": "１−２−７赤坂Ｋタワー",
    "office_name": "伊藤忠食品　株式会社",
    "office_name_kana": "イトウチユウシヨクヒン カブシキガイシヤ"
  },
  "8456": {
    "zip_code": "1078456",
    "prefecture": "東京都",
    "prefecture_kana": "トウキョウト",
    "prefecture_code": "13",
    "city": "港区",
    "city_kana": "ミナトク",
    "town": "赤坂",
    "town_kana": "アカサカ",
    "street": "４丁目８−１９（赤坂表町ビル）",
    "office_name": "日本カルミック　株式会社",
    "office_name_kana": "ニツポンカルミツク カブシキガイシヤ"
  },
  "8460": {
    "zip_code": "1078460",
    "prefecture": "東京都",
    "prefecture_kana": "トウキョウト",
    "prefecture_code": "13",
    "city": "港区",
    "city_kana": "ミナトク",
    "town": "赤坂",
    "town_kana": "アカサカ",
    "street": "４丁目８−１０",
    "office_name": "株式会社　東北新社",
    "office_name_kana": "カブシキガイシヤ トウホクシンシヤ"
  },
  "8463": {
    "zip_code": "1078463",
    "prefecture": "東京都",
    "prefecture_kana": "トウキョウト",
    "prefecture_code": "13",
    "city": "港区",
    "city_kana": "ミナトク",
    "town": "赤坂",
    "town_kana": "アカサカ",
    "street": "６丁目１８番３号アイビービル",
    "office_name": "株式会社　アイビー化粧品",
    "office_name_kana": "カブシキガイシヤ アイビ-ケシヨウヒン"
  },
  "8466": {
    "zip_code": "1078466",
    "prefecture": "東京都",
    "prefecture_kana": "トウキョウト",
    "prefecture_code": "13",
    "city": "港区",
    "city_kana": "ミナトク",
    "town": "赤坂",
    "town_kana": "アカサカ",
    "street": "４丁目９−９",
    "office_name": "日本国土開発　株式会社",
    "office_name_kana": "ニホンコクドカイハツ カブシキガイシヤ"
  },
  "8467": {
    "zip_code": "1078467",
    "prefecture": "東京都",
    "prefecture_kana": "トウキョウト",
    "prefecture_code": "13",
    "city": "港区",
    "city_kana": "ミナトク",
    "town": "赤坂",
    "town_kana": "アカサカ",
    "street": "４丁目９−９",
    "office_name": "日本国土開発　株式会社　東京支店",
    "office_name_kana": "ニホンコクドカイハツ カブシキガイシヤ トウキヨウシテン"
  },
  "8468": {
    "zip_code": "1078468",
    "prefecture": "東京都",
    "prefecture_kana": "トウキョウト",
    "prefecture_code": "13",
    "city": "港区",
    "city_kana": "ミナトク",
    "town": "元赤坂",
    "town_kana": "モトアカサカ",
    "street": "１丁目３番１３号赤坂センタービルディング",
    "office_name": "住友電気工業　株式会社",
    "office_name_kana": "スミトモデンキコウギヨウ カブシキガイシヤ"
  },
  "8471": {
    "zip_code": "1078471",
    "prefecture": "東京都",
    "prefecture_kana": "トウキョウト",
    "prefecture_code": "13",
    "city": "港区",
    "city_kana": "ミナトク",
    "town": "赤坂",
    "town_kana": "アカサカ",
    "street": "５−３−６",
    "office_name": "株式会社　ＴＢＳビジョン",
    "office_name_kana": "カブシキガイシヤ テイ-ビ-エスビジヨン"
  },
  "8477": {
    "zip_code": "1078477",
    "prefecture": "東京都",
    "prefecture_kana": "トウキョウト",
    "prefecture_code": "13",
    "city": "港区",
    "city_kana": "ミナトク",
    "town": "元赤坂",
    "town_kana": "モトアカサカ",
    "street": "１丁目３−８",
    "office_name": "鹿島建設　株式会社　東京支店",
    "office_name_kana": "カジマケンセツ カブシキガイシヤ トウキヨウシテン"
  },
  "8482": {
    "zip_code": "1078482",
    "prefecture": "東京都",
    "prefecture_kana": "トウキョウト",
    "prefecture_code": "13",
    "city": "港区",
    "city_kana": "ミナトク",
    "town": "赤坂",
    "town_kana": "アカサカ",
    "street": "５丁目３−６ＴＢＳ放送センター１８階",
    "office_name": "株式会社　ＴＢＳサービス",
    "office_name_kana": "カブシキガイシヤ テイビ-エスサ-ビス"
  },
  "8484": {
    "zip_code": "1078484",
    "prefecture": "東京都",
    "prefecture_kana": "トウキョウト",
    "prefecture_code": "13",
    "city": "港区",
    "city_kana": "ミナトク",
    "town": "赤坂",
    "town_kana": "アカサカ",
    "street": "３丁目９−１",
    "office_name": "八洲貿易　株式会社",
    "office_name_kana": "ヤシマボウエキ カブシキガイシヤ"
  },
  "8502": {
    "zip_code": "1078502",
    "prefecture": "東京都",
    "prefecture_kana": "トウキョウト",
    "prefecture_code": "13",
    "city": "港区",
    "city_kana": "ミナトク",
    "town": "赤坂",
    "town_kana": "アカサカ",
    "street": "６丁目５−３０",
    "office_name": "鹿島建設　株式会社　ＫＩビル",
    "office_name_kana": "カシマケンセツ カブシキガイシヤ ケ-アイビル"
  },
  "8505": {
    "zip_code": "1078505",
    "prefecture": "東京都",
    "prefecture_kana": "トウキョウト",
    "prefecture_code": "13",
    "city": "港区",
    "city_kana": "ミナトク",
    "town": "赤坂",
    "town_kana": "アカサカ",
    "street": "７丁目２−２１",
    "office_name": "財団法人　草月会",
    "office_name_kana": "ザイダンホウジン ソウゲツカイ"
  },
  "8507": {
    "zip_code": "1078507",
    "prefecture": "東京都",
    "prefecture_kana": "トウキョウト",
    "prefecture_code": "13",
    "city": "港区",
    "city_kana": "ミナトク",
    "town": "元赤坂",
    "town_kana": "モトアカサカ",
    "street": "２−２−２３",
    "office_name": "明治記念館",
    "office_name_kana": "メイジキネンカン"
  },
  "8508": {
    "zip_code": "1078508",
    "prefecture": "東京都",
    "prefecture_kana": "トウキョウト",
    "prefecture_code": "13",
    "city": "港区",
    "city_kana": "ミナトク",
    "town": "赤坂",
    "town_kana": "アカサカ",
    "street": "２丁目１２−３１",
    "office_name": "タカタ　株式会社",
    "office_name_kana": "タカタ カブシキガイシヤ"
  },
  "8511": {
    "zip_code": "1078511",
    "prefecture": "東京都",
    "prefecture_kana": "トウキョウト",
    "prefecture_code": "13",
    "city": "港区",
    "city_kana": "ミナトク",
    "town": "元赤坂",
    "town_kana": "モトアカサカ",
    "street": "１丁目６−６",
    "office_name": "綜合警備保障　株式会社",
    "office_name_kana": "ソウゴウケイビホシヨウ カブシキガイシヤ"
  },
  "8514": {
    "zip_code": "1078514",
    "prefecture": "東京都",
    "prefecture_kana": "トウキョウト",
    "prefecture_code": "13",
    "city": "港区",
    "city_kana": "ミナトク",
    "town": "南青山",
    "town_kana": "ミナミアオヤマ",
    "street": "５丁目９番１５号青山ＯＨＭＯＴＯビル",
    "office_name": "株式会社　大本組",
    "office_name_kana": "カブシキガイシヤ オオモトグミ"
  },
  "8520": {
    "zip_code": "1078520",
    "prefecture": "東京都",
    "prefecture_kana": "トウキョウト",
    "prefecture_code": "13",
    "city": "港区",
    "city_kana": "ミナトク",
    "town": "赤坂",
    "town_kana": "アカサカ",
    "street": "８丁目５−６翻訳会館",
    "office_name": "株式会社　アメリア・ネットワーク",
    "office_name_kana": "カブシキガイシヤ アメリア・ネツトワ-ク"
  },
  "8521": {
    "zip_code": "1078521",
    "prefecture": "東京都",
    "prefecture_kana": "トウキョウト",
    "prefecture_code": "13",
    "city": "港区",
    "city_kana": "ミナトク",
    "town": "赤坂",
    "town_kana": "アカサカ",
    "street": "２丁目１７−１１",
    "office_name": "株式会社　ツムラ",
    "office_name_kana": "カブシキガイシヤ ツムラ"
  },
  "8527": {
    "zip_code": "1078527",
    "prefecture": "東京都",
    "prefecture_kana": "トウキョウト",
    "prefecture_code": "13",
    "city": "港区",
    "city_kana": "ミナトク",
    "town": "赤坂",
    "town_kana": "アカサカ",
    "street": "８丁目５−２７",
    "office_name": "日鉄住金物産　株式会社",
    "office_name_kana": "ニツテツスミキンブツサン カブシキガイシヤ"
  },
  "8528": {
    "zip_code": "1078528",
    "prefecture": "東京都",
    "prefecture_kana": "トウキョウト",
    "prefecture_code": "13",
    "city": "港区",
    "city_kana": "ミナトク",
    "town": "赤坂",
    "town_kana": "アカサカ",
    "street": "４丁目８−１０",
    "office_name": "ザ・シネマ",
    "office_name_kana": "ザ・シネマ"
  },
  "8532": {
    "zip_code": "1078532",
    "prefecture": "東京都",
    "prefecture_kana": "トウキョウト",
    "prefecture_code": "13",
    "city": "港区",
    "city_kana": "ミナトク",
    "town": "赤坂",
    "town_kana": "アカサカ",
    "street": "１丁目９−１３",
    "office_name": "商船三井客船　株式会社",
    "office_name_kana": "シヨウセンミツイキヤクセン カブシキガイシヤ"
  },
  "8545": {
    "zip_code": "1078545",
    "prefecture": "東京都",
    "prefecture_kana": "トウキョウト",
    "prefecture_code": "13",
    "city": "港区",
    "city_kana": "ミナトク",
    "town": "南青山",
    "town_kana": "ミナミアオヤマ",
    "street": "２−２−３",
    "office_name": "中央物産　株式会社",
    "office_name_kana": "チユウオウブツサン カブシキガイシヤ"
  },
  "8546": {
    "zip_code": "1078546",
    "prefecture": "東京都",
    "prefecture_kana": "トウキョウト",
    "prefecture_code": "13",
    "city": "港区",
    "city_kana": "ミナトク",
    "town": "赤坂",
    "town_kana": "アカサカ",
    "street": "２丁目９−１１",
    "office_name": "ハーバライフ・オブ・ジャパン　株式会社",
    "office_name_kana": "ハ-バライフ・オブ・ジヤパン カブシキガイシヤ"
  },
  "8550": {
    "zip_code": "1078550",
    "prefecture": "東京都",
    "prefecture_kana": "トウキョウト",
    "prefecture_code": "13",
    "city": "港区",
    "city_kana": "ミナトク",
    "town": "南青山",
    "town_kana": "ミナミアオヤマ",
    "street": "５丁目２−１ＮＢＦアライアンスビル２Ｆ",
    "office_name": "株式会社　宣伝会議（南青山５丁目オフィス）",
    "office_name_kana": "カブシキガイシヤ センデンカイギ(ミナミアオヤマゴチヨウメオフイス)"
  },
  "8552": {
    "zip_code": "1078552",
    "prefecture": "東京都",
    "prefecture_kana": "トウキョウト",
    "prefecture_code": "13",
    "city": "港区",
    "city_kana": "ミナトク",
    "town": "南青山",
    "town_kana": "ミナミアオヤマ",
    "street": "３丁目１−３０エイベックスビル",
    "office_name": "株式会社　アクシヴ",
    "office_name_kana": "カブシキガイシヤ アクシヴ"
  },
  "8556": {
    "zip_code": "1078556",
    "prefecture": "東京都",
    "prefecture_kana": "トウキョウト",
    "prefecture_code": "13",
    "city": "港区",
    "city_kana": "ミナトク",
    "town": "南青山",
    "town_kana": "ミナミアオヤマ",
    "street": "２丁目１−１",
    "office_name": "本田技研工業　株式会社",
    "office_name_kana": "ホンダギケンコウギヨウ カブシキガイシヤ"
  },
  "8558": {
    "zip_code": "1078558",
    "prefecture": "東京都",
    "prefecture_kana": "トウキョウト",
    "prefecture_code": "13",
    "city": "港区",
    "city_kana": "ミナトク",
    "town": "南青山",
    "town_kana": "ミナミアオヤマ",
    "street": "１丁目２４−４",
    "office_name": "健康保険組合連合会",
    "office_name_kana": "ケンコウホケンクミアイレンゴウカイ"
  },
  "8560": {
    "zip_code": "1078560",
    "prefecture": "東京都",
    "prefecture_kana": "トウキョウト",
    "prefecture_code": "13",
    "city": "港区",
    "city_kana": "ミナトク",
    "town": "南青山",
    "town_kana": "ミナミアオヤマ",
    "street": "２丁目１１−１７",
    "office_name": "第一法規出版　株式会社",
    "office_name_kana": "ダイイチホウキシユツパン カブシキガイシヤ"
  },
  "8563": {
    "zip_code": "1078563",
    "prefecture": "東京都",
    "prefecture_kana": "トウキョウト",
    "prefecture_code": "13",
    "city": "港区",
    "city_kana": "ミナトク",
    "town": "赤坂",
    "town_kana": "アカサカ",
    "street": "４丁目９−１７赤坂第一ビル４Ｆ",
    "office_name": "株式会社　キネマ旬報社",
    "office_name_kana": "カブシキガイシヤ キネマジユンポウシヤ"
  },
  "8567": {
    "zip_code": "1078567",
    "prefecture": "東京都",
    "prefecture_kana": "トウキョウト",
    "prefecture_code": "13",
    "city": "港区",
    "city_kana": "ミナトク",
    "town": "南青山",
    "town_kana": "ミナミアオヤマ",
    "street": "２丁目２−１５−１０３０",
    "office_name": "株式会社　朝日データサービス",
    "office_name_kana": "カブシキガイシヤ アサヒデ-タサ-ビス"
  },
  "8581": {
    "zip_code": "1078581",
    "prefecture": "東京都",
    "prefecture_kana": "トウキョウト",
    "prefecture_code": "13",
    "city": "港区",
    "city_kana": "ミナトク",
    "town": "北青山",
    "town_kana": "キタアオヤマ",
    "street": "３丁目３−１１ルネ青山９Ｆ",
    "office_name": "（株）　プレアデスセンター",
    "office_name_kana": "カブシキガイシヤ プレアデスセンタ-"
  },
  "8583": {
    "zip_code": "1078583",
    "prefecture": "東京都",
    "prefecture_kana": "トウキョウト",
    "prefecture_code": "13",
    "city": "港区",
    "city_kana": "ミナトク",
    "town": "赤坂",
    "town_kana": "アカサカ",
    "street": "８丁目５−３０",
    "office_name": "ユニバーサル　ミュージック　株式会社",
    "office_name_kana": "ユニバ-サル ミユ-ジツク カブシキガイシヤ"
  },
  "8585": {
    "zip_code": "1078585",
    "prefecture": "東京都",
    "prefecture_kana": "トウキョウト",
    "prefecture_code": "13",
    "city": "港区",
    "city_kana": "ミナトク",
    "town": "南青山",
    "town_kana": "ミナミアオヤマ",
    "street": "１丁目１−１新青山ビル",
    "office_name": "ソニー生命保険　株式会社",
    "office_name_kana": "ソニ-セイメイホケン カブシキガイシヤ"
  },
  "8601": {
    "zip_code": "1078601",
    "prefecture": "東京都",
    "prefecture_kana": "トウキョウト",
    "prefecture_code": "13",
    "city": "港区",
    "city_kana": "ミナトク",
    "town": "南青山",
    "town_kana": "ミナミアオヤマ",
    "street": "１丁目１−１新青山ビル",
    "office_name": "株式会社　ＮＨＫ文化センター",
    "office_name_kana": "カブシキガイシヤ エヌエイチケイブンカセンタ-"
  },
  "8604": {
    "zip_code": "1078604",
    "prefecture": "東京都",
    "prefecture_kana": "トウキョウト",
    "prefecture_code": "13",
    "city": "港区",
    "city_kana": "ミナトク",
    "town": "南青山",
    "town_kana": "ミナミアオヤマ",
    "street": "１丁目１−１新青山ビル",
    "office_name": "株式会社　東京ソワール",
    "office_name_kana": "カブシキガイシヤ トウキヨウソワ-ル"
  },
  "8615": {
    "zip_code": "1078615",
    "prefecture": "東京都",
    "prefecture_kana": "トウキョウト",
    "prefecture_code": "13",
    "city": "港区",
    "city_kana": "ミナトク",
    "town": "赤坂",
    "town_kana": "アカサカ",
    "street": "２丁目７−７",
    "office_name": "株式会社　ホギメディカル",
    "office_name_kana": "カブシキガイシヤ ホギメデイカル"
  },
  "8616": {
    "zip_code": "1078616",
    "prefecture": "東京都",
    "prefecture_kana": "トウキョウト",
    "prefecture_code": "13",
    "city": "港区",
    "city_kana": "ミナトク",
    "town": "南青山",
    "town_kana": "ミナミアオヤマ",
    "street": "５丁目４−３１",
    "office_name": "ニッカウイスキー　株式会社",
    "office_name_kana": "ニツカウイスキ- カブシキガイシヤ"
  },
  "8617": {
    "zip_code": "1078617",
    "prefecture": "東京都",
    "prefecture_kana": "トウキョウト",
    "prefecture_code": "13",
    "city": "港区",
    "city_kana": "ミナトク",
    "town": "北青山",
    "town_kana": "キタアオヤマ",
    "street": "１丁目３−６",
    "office_name": "株式会社　フルハウス",
    "office_name_kana": "カブシキガイシヤ フルハウス"
  },
  "8619": {
    "zip_code": "1078619",
    "prefecture": "東京都",
    "prefecture_kana": "トウキョウト",
    "prefecture_code": "13",
    "city": "港区",
    "city_kana": "ミナトク",
    "town": "南青山",
    "town_kana": "ミナミアオヤマ",
    "street": "１丁目１−１新青山ビル西館",
    "office_name": "株式会社　アイプラネット",
    "office_name_kana": "カブシキガイシヤ アイプラネツト"
  },
  "8620": {
    "zip_code": "1078620",
    "prefecture": "東京都",
    "prefecture_kana": "トウキョウト",
    "prefecture_code": "13",
    "city": "港区",
    "city_kana": "ミナトク",
    "town": "南青山",
    "town_kana": "ミナミアオヤマ",
    "street": "２−６−２１",
    "office_name": "株式会社　ワールド",
    "office_name_kana": "カブシキガイシヤ ワ-ルド"
  },
  "8623": {
    "zip_code": "1078623",
    "prefecture": "東京都",
    "prefecture_kana": "トウキョウト",
    "prefecture_code": "13",
    "city": "港区",
    "city_kana": "ミナトク",
    "town": "北青山",
    "town_kana": "キタアオヤマ",
    "street": "２丁目７−１１",
    "office_name": "株式会社　鎌倉製作所",
    "office_name_kana": "カブシキガイシヤ カマクラセイサクシヨ"
  },
  "8625": {
    "zip_code": "1078625",
    "prefecture": "東京都",
    "prefecture_kana": "トウキョウト",
    "prefecture_code": "13",
    "city": "港区",
    "city_kana": "ミナトク",
    "town": "赤坂",
    "town_kana": "アカサカ",
    "street": "２丁目２１−７",
    "office_name": "株式会社　ハウスオブローゼ",
    "office_name_kana": "カブシキガイシヤ ハウスオブロ-ゼ"
  },
  "8627": {
    "zip_code": "1078627",
    "prefecture": "東京都",
    "prefecture_kana": "トウキョウト",
    "prefecture_code": "13",
    "city": "港区",
    "city_kana": "ミナトク",
    "town": "赤坂",
    "town_kana": "アカサカ",
    "street": "４丁目８−１４赤坂坂東ビル",
    "office_name": "株式会社　スーパーネットワーク",
    "office_name_kana": "カブシキガイシヤ ス-パ-ネツトワ-ク"
  },
  "8628": {
    "zip_code": "1078628",
    "prefecture": "東京都",
    "prefecture_kana": "トウキョウト",
    "prefecture_code": "13",
    "city": "港区",
    "city_kana": "ミナトク",
    "town": "南青山",
    "town_kana": "ミナミアオヤマ",
    "street": "２丁目２７番２７号丸八青山ビル８階",
    "office_name": "株式会社　ヒストリーチャンネル・ジャパン",
    "office_name_kana": "カブシキガイシヤ ヒストリ-チヤンネル・ジヤパン"
  },
  "8630": {
    "zip_code": "1078630",
    "prefecture": "東京都",
    "prefecture_kana": "トウキョウト",
    "prefecture_code": "13",
    "city": "港区",
    "city_kana": "ミナトク",
    "town": "北青山",
    "town_kana": "キタアオヤマ",
    "street": "３丁目８−１５",
    "office_name": "株式会社　クレヨンハウス",
    "office_name_kana": "カブシキガイシヤ クレヨンハウス"
  },
  "8631": {
    "zip_code": "1078631",
    "prefecture": "東京都",
    "prefecture_kana": "トウキョウト",
    "prefecture_code": "13",
    "city": "港区",
    "city_kana": "ミナトク",
    "town": "元赤坂",
    "town_kana": "モトアカサカ",
    "street": "１丁目２−３",
    "office_name": "サントリー　株式会社",
    "office_name_kana": "サントリ- カブシキガイシヤ"
  },
  "8632": {
    "zip_code": "1078632",
    "prefecture": "東京都",
    "prefecture_kana": "トウキョウト",
    "prefecture_code": "13",
    "city": "港区",
    "city_kana": "ミナトク",
    "town": "元赤坂",
    "town_kana": "モトアカサカ",
    "street": "１丁目２−３",
    "office_name": "サントリーフーズ　株式会社",
    "office_name_kana": "サントリ-フ-ズ カブシキガイシヤ"
  },
  "8633": {
    "zip_code": "1078633",
    "prefecture": "東京都",
    "prefecture_kana": "トウキョウト",
    "prefecture_code": "13",
    "city": "港区",
    "city_kana": "ミナトク",
    "town": "北青山",
    "town_kana": "キタアオヤマ",
    "street": "２丁目１１−１２",
    "office_name": "ブラジル大使館",
    "office_name_kana": "ブラジルタイシカン"
  },
  "8636": {
    "zip_code": "1078636",
    "prefecture": "東京都",
    "prefecture_kana": "トウキョウト",
    "prefecture_code": "13",
    "city": "港区",
    "city_kana": "ミナトク",
    "town": "北青山",
    "town_kana": "キタアオヤマ",
    "street": "１丁目２−３青山ビル",
    "office_name": "東海カーボン　株式会社",
    "office_name_kana": "トウカイカ-ボン カブシキガイシヤ"
  },
  "8638": {
    "zip_code": "1078638",
    "prefecture": "東京都",
    "prefecture_kana": "トウキョウト",
    "prefecture_code": "13",
    "city": "港区",
    "city_kana": "ミナトク",
    "town": "元赤坂",
    "town_kana": "モトアカサカ",
    "street": "１丁目５番８号",
    "office_name": "かたばみ興業　株式会社",
    "office_name_kana": "カタバミコウギヨウ カブシキガイシヤ"
  },
  "8639": {
    "zip_code": "1078639",
    "prefecture": "東京都",
    "prefecture_kana": "トウキョウト",
    "prefecture_code": "13",
    "city": "港区",
    "city_kana": "ミナトク",
    "town": "北青山",
    "town_kana": "キタアオヤマ",
    "street": "１丁目２−３",
    "office_name": "株式会社　ワーナーミュージック・ジャパン",
    "office_name_kana": "カブシキガイシヤ ワ-ナ-ミユ-ジツク・ジヤパン"
  },
  "8650": {
    "zip_code": "1078650",
    "prefecture": "東京都",
    "prefecture_kana": "トウキョウト",
    "prefecture_code": "13",
    "city": "港区",
    "city_kana": "ミナトク",
    "town": "北青山",
    "town_kana": "キタアオヤマ",
    "street": "１丁目５−４（赤坂郵便局私書箱第５５号）",
    "office_name": "三菱ＵＦＪ信託銀行",
    "office_name_kana": "ミツビシユウエフジエイシンタクギンコウ"
  },
  "8666": {
    "zip_code": "1078666",
    "prefecture": "東京都",
    "prefecture_kana": "トウキョウト",
    "prefecture_code": "13",
    "city": "港区",
    "city_kana": "ミナトク",
    "town": "北青山",
    "town_kana": "キタアオヤマ",
    "street": "１丁目２番３号（赤坂郵便局私書箱第６６号）",
    "office_name": "株式会社　アイ・アールジャパン",
    "office_name_kana": "カブシキガイシヤ アイ・ア-ルジヤパン"
  },
  "8668": {
    "zip_code": "1078668",
    "prefecture": "東京都",
    "prefecture_kana": "トウキョウト",
    "prefecture_code": "13",
    "city": "港区",
    "city_kana": "ミナトク",
    "town": "赤坂",
    "town_kana": "アカサカ",
    "street": "７丁目６−１（赤坂郵便局私書箱第１５号）",
    "office_name": "社団法人　農山漁村文化協会",
    "office_name_kana": "シヤダンホウジン ノウサンギヨソンブンカキヨウカイ"
  },
  "8674": {
    "zip_code": "1078674",
    "prefecture": "東京都",
    "prefecture_kana": "トウキョウト",
    "prefecture_code": "13",
    "city": "港区",
    "city_kana": "ミナトク",
    "town": "赤坂",
    "town_kana": "アカサカ",
    "street": "９丁目６−４４（赤坂郵便局私書箱第２号）",
    "office_name": "株式会社　日本教文社",
    "office_name_kana": "カブシキガイシヤ ニツポンキヨウブンシヤ"
  },
  "8676": {
    "zip_code": "1078676",
    "prefecture": "東京都",
    "prefecture_kana": "トウキョウト",
    "prefecture_code": "13",
    "city": "江戸川区",
    "city_kana": "エドガワク",
    "town": "春江町",
    "town_kana": "ハルエチョウ",
    "street": "２丁目３１−１５（赤坂郵便局私書箱第９４号）",
    "office_name": "株式会社　興伸",
    "office_name_kana": "カブシキガイシヤ コウシン"
  },
  "8680": {
    "zip_code": "1078680",
    "prefecture": "東京都",
    "prefecture_kana": "トウキョウト",
    "prefecture_code": "13",
    "city": "港区",
    "city_kana": "ミナトク",
    "town": "南青山",
    "town_kana": "ミナミアオヤマ",
    "street": "２丁目５−２０（赤坂郵便局私書箱第３３号）",
    "office_name": "帝国データバンク",
    "office_name_kana": "テイコクデ-タバンク"
  },
  "8686": {
    "zip_code": "1078686",
    "prefecture": "東京都",
    "prefecture_kana": "トウキョウト",
    "prefecture_code": "13",
    "city": "港区",
    "city_kana": "ミナトク",
    "town": "南青山",
    "town_kana": "ミナミアオヤマ",
    "street": "５丁目１番２２号青山ライズスクエア（赤坂郵便局私書箱第８４号）",
    "office_name": "株式会社　ジェーシービー　青山本社",
    "office_name_kana": "カブシキガイシヤ ジエ-シ-ビ- アオヤマホンシヤ"
  }
}