{
  "0000": {
    "zip_code": "1120000",
    "prefecture": "東京都",
    "prefecture_kana": "トウキョウト",
    "prefecture_code": "13",
    "city": "文京区",
    "city_kana": "ブンキョウク",
    "town": "",
    "town_kana": "",
    "street": null,
    "office_name": null,
    "office_name_kana": null
  },
  "0001": {
    "zip_code": "1120001",
    "prefecture": "東京都",
    "prefecture_kana": "トウキョウト",
    "prefecture_code": "13",
    "city": "文京区",
    "city_kana": "ブンキョウク",
    "town": "白山",
    "town_kana": "ハクサン",
    "street": null,
    "office_name": null,
    "office_name_kana": null
  },
  "0002": {
    "zip_code": "1120002",
    "prefecture": "東京都",
    "prefecture_kana": "トウキョウト",
    "prefecture_code": "13",
    "city": "文京区",
    "city_kana": "ブンキョウク",
    "town": "小石川",
    "town_kana": "コイシカワ",
    "street": null,
    "office_name": null,
    "office_name_kana": null
  },
  "0003": {
    "zip_code": "1120003",
    "prefecture": "東京都",
    "prefecture_kana": "トウキョウト",
    "prefecture_code": "13",
    "city": "文京区",
    "city_kana": "ブンキョウク",
    "town": "春日",
    "town_kana": "カスガ",
    "street": null,
    "office_name": null,
    "office_name_kana": null
  },
  "0004": {
    "zip_code": "1120004",
    "prefecture": "東京都",
    "prefecture_kana": "トウキョウト",
    "prefecture_code": "13",
    "city": "文京区",
    "city_kana": "ブンキョウク",
    "town": "後楽",
    "town_kana": "コウラク",
    "street": null,
    "office_name": null,
    "office_name_kana": null
  },
  "0005": {
    "zip_code": "1120005",
    "prefecture": "東京都",
    "prefecture_kana": "トウキョウト",
    "prefecture_code": "13",
    "city": "文京区",
    "city_kana": "ブンキョウク",
    "town": "水道",
    "town_kana": "スイドウ",
    "street": null,
    "office_name": null,
    "office_name_kana": null
  },
  "0006": {
    "zip_code": "1120006",
    "prefecture": "東京都",
    "prefecture_kana": "トウキョウト",
    "prefecture_code": "13",
    "city": "文京区",
    "city_kana": "ブンキョウク",
    "town": "小日向",
    "town_kana": "コヒナタ",
    "street": null,
    "office_name": null,
    "office_name_kana": null
  },
  "0011": {
    "zip_code": "1120011",
    "prefecture": "東京都",
    "prefecture_kana": "トウキョウト",
    "prefecture_code": "13",
    "city": "文京区",
    "city_kana": "ブンキョウク",
    "town": "千石",
    "town_kana": "センゴク",
    "street": null,
    "office_name": null,
    "office_name_kana": null
  },
  "0012": {
    "zip_code": "1120012",
    "prefecture": "東京都",
    "prefecture_kana": "トウキョウト",
    "prefecture_code": "13",
    "city": "文京区",
    "city_kana": "ブンキョウク",
    "town": "大塚",
    "town_kana": "オオツカ",
    "street": null,
    "office_name": null,
    "office_name_kana": null
  },
  "0013": {
    "zip_code": "1120013",
    "prefecture": "東京都",
    "prefecture_kana": "トウキョウト",
    "prefecture_code": "13",
    "city": "文京区",
    "city_kana": "ブンキョウク",
    "town": "音羽",
    "town_kana": "オトワ",
    "street": null,
    "office_name": null,
    "office_name_kana": null
  },
  "0014": {
    "zip_code": "1120014",
    "prefecture": "東京都",
    "prefecture_kana": "トウキョウト",
    "prefecture_code": "13",
    "city": "文京区",
    "city_kana": "ブンキョウク",
    "town": "関口",
    "town_kana": "セキグチ",
    "street": null,
    "office_name": null,
    "office_name_kana": null
  },
  "0015": {
    "zip_code": "1120015",
    "prefecture": "東京都",
    "prefecture_kana": "トウキョウト",
    "prefecture_code": "13",
    "city": "文京区",
    "city_kana": "ブンキョウク",
    "town": "目白台",
    "town_kana": "メジロダイ",
    "street": null,
    "office_name": null,
    "office_name_kana": null
  },
  "8001": {
    "zip_code": "1128001",
    "prefecture": "東京都",
    "prefecture_kana": "トウキョウト",
    "prefecture_code": "13",
    "city": "文京区",
    "city_kana": "ブンキョウク",
    "town": "音羽",
    "town_kana": "オトワ",
    "street": "２丁目１２−２１",
    "office_name": "株式会社　講談社",
    "office_name_kana": "カブシキガイシヤ コウダンシヤ"
  },
  "8011": {
    "zip_code": "1128011",
    "prefecture": "東京都",
    "prefecture_kana": "トウキョウト",
    "prefecture_code": "13",
    "city": "文京区",
    "city_kana": "ブンキョウク",
    "town": "音羽",
    "town_kana": "オトワ",
    "street": "１丁目１６−６（小石川郵便局私書箱第１５号）",
    "office_name": "株式会社　光文社",
    "office_name_kana": "カブシキガイシヤ コウブンシヤ"
  },
  "8088": {
    "zip_code": "1128088",
    "prefecture": "東京都",
    "prefecture_kana": "トウキョウト",
    "prefecture_code": "13",
    "city": "文京区",
    "city_kana": "ブンキョウク",
    "town": "小石川",
    "town_kana": "コイシカワ",
    "street": "４丁目６−１０",
    "office_name": "エーザイ　株式会社",
    "office_name_kana": "エ-ザイ カブシキガイシヤ"
  },
  "8138": {
    "zip_code": "1128138",
    "prefecture": "東京都",
    "prefecture_kana": "トウキョウト",
    "prefecture_code": "13",
    "city": "文京区",
    "city_kana": "ブンキョウク",
    "town": "小日向",
    "town_kana": "コヒナタ",
    "street": "４−２−６",
    "office_name": "株式会社　中山書店",
    "office_name_kana": "カブシキガイシヤ ナカヤマシヨテン"
  },
  "8501": {
    "zip_code": "1128501",
    "prefecture": "東京都",
    "prefecture_kana": "トウキョウト",
    "prefecture_code": "13",
    "city": "文京区",
    "city_kana": "ブンキョウク",
    "town": "小石川",
    "town_kana": "コイシカワ",
    "street": "４丁目１４−１２",
    "office_name": "共同印刷　株式会社",
    "office_name_kana": "キヨウドウインサツ カブシキガイシヤ"
  },
  "8502": {
    "zip_code": "1128502",
    "prefecture": "東京都",
    "prefecture_kana": "トウキョウト",
    "prefecture_code": "13",
    "city": "文京区",
    "city_kana": "ブンキョウク",
    "town": "小石川",
    "town_kana": "コイシカワ",
    "street": "１丁目２１−１４",
    "office_name": "キネマ旬報社",
    "office_name_kana": "キネマジユンポウシヤ"
  },
  "8505": {
    "zip_code": "1128505",
    "prefecture": "東京都",
    "prefecture_kana": "トウキョウト",
    "prefecture_code": "13",
    "city": "文京区",
    "city_kana": "ブンキョウク",
    "town": "小石川",
    "town_kana": "コイシカワ",
    "street": "１丁目１５−１７",
    "office_name": "日本建設　株式会社　東京支店",
    "office_name_kana": "ニホンケンセツ カブシキガイシヤ トウキヨウシテン"
  },
  "8506": {
    "zip_code": "1128506",
    "prefecture": "東京都",
    "prefecture_kana": "トウキョウト",
    "prefecture_code": "13",
    "city": "文京区",
    "city_kana": "ブンキョウク",
    "town": "小石川",
    "town_kana": "コイシカワ",
    "street": "３丁目１１−６",
    "office_name": "財団法人　加越能育英社　明倫学館",
    "office_name_kana": "ザイダンホウジン カエツノウイクエイシヤ メイリンガツカン"
  },
  "8508": {
    "zip_code": "1128508",
    "prefecture": "東京都",
    "prefecture_kana": "トウキョウト",
    "prefecture_code": "13",
    "city": "文京区",
    "city_kana": "ブンキョウク",
    "town": "小石川",
    "town_kana": "コイシカワ",
    "street": "１丁目１−１７とみん日生春日町ビル４Ｆ",
    "office_name": "株式会社　ＨＳ情報システムズ",
    "office_name_kana": "カブシキガイシヤ エイチエスジヨウホウシステムズ"
  },
  "8509": {
    "zip_code": "1128509",
    "prefecture": "東京都",
    "prefecture_kana": "トウキョウト",
    "prefecture_code": "13",
    "city": "文京区",
    "city_kana": "ブンキョウク",
    "town": "小石川",
    "town_kana": "コイシカワ",
    "street": "５丁目２−７",
    "office_name": "レック　株式会社",
    "office_name_kana": "レツク カブシキガイシヤ"
  },
  "8511": {
    "zip_code": "1128511",
    "prefecture": "東京都",
    "prefecture_kana": "トウキョウト",
    "prefecture_code": "13",
    "city": "文京区",
    "city_kana": "ブンキョウク",
    "town": "小石川",
    "town_kana": "コイシカワ",
    "street": "２丁目５−７",
    "office_name": "明星電気　株式会社",
    "office_name_kana": "メイセイデンキ カブシキガイシヤ"
  },
  "8512": {
    "zip_code": "1128512",
    "prefecture": "東京都",
    "prefecture_kana": "トウキョウト",
    "prefecture_code": "13",
    "city": "文京区",
    "city_kana": "ブンキョウク",
    "town": "小石川",
    "town_kana": "コイシカワ",
    "street": "５丁目２４−２１",
    "office_name": "株式会社　チャイルド本社",
    "office_name_kana": "カブシキガイシヤ チヤイルドホンシヤ"
  },
  "8514": {
    "zip_code": "1128514",
    "prefecture": "東京都",
    "prefecture_kana": "トウキョウト",
    "prefecture_code": "13",
    "city": "文京区",
    "city_kana": "ブンキョウク",
    "town": "小石川",
    "town_kana": "コイシカワ",
    "street": "１丁目１２−１４−５Ｆ",
    "office_name": "株式会社　キッズステーション",
    "office_name_kana": "カブシキガイシヤ キツズステ-シヨン"
  },
  "8516": {
    "zip_code": "1128516",
    "prefecture": "東京都",
    "prefecture_kana": "トウキョウト",
    "prefecture_code": "13",
    "city": "文京区",
    "city_kana": "ブンキョウク",
    "town": "小石川",
    "town_kana": "コイシカワ",
    "street": "５丁目４−１",
    "office_name": "株式会社　瑞穂",
    "office_name_kana": "カブシキガイシヤ ミズホ"
  },
  "8524": {
    "zip_code": "1128524",
    "prefecture": "東京都",
    "prefecture_kana": "トウキョウト",
    "prefecture_code": "13",
    "city": "文京区",
    "city_kana": "ブンキョウク",
    "town": "小石川",
    "town_kana": "コイシカワ",
    "street": "１丁目１−１７とみん日生春日町ビル６Ｆ",
    "office_name": "カテナ　（株）　水道橋オフィス",
    "office_name_kana": "カテナ (カブ) スイドウバシオフイス"
  },
  "8528": {
    "zip_code": "1128528",
    "prefecture": "東京都",
    "prefecture_kana": "トウキョウト",
    "prefecture_code": "13",
    "city": "文京区",
    "city_kana": "ブンキョウク",
    "town": "小石川",
    "town_kana": "コイシカワ",
    "street": "１丁目２８−１",
    "office_name": "大新東　株式会社",
    "office_name_kana": "ダイシントウ カブシキガイシヤ"
  },
  "8531": {
    "zip_code": "1128531",
    "prefecture": "東京都",
    "prefecture_kana": "トウキョウト",
    "prefecture_code": "13",
    "city": "文京区",
    "city_kana": "ブンキョウク",
    "town": "水道",
    "town_kana": "スイドウ",
    "street": "１丁目３−３",
    "office_name": "凸版印刷　（株）　パッケージ事業本部",
    "office_name_kana": "トツパンインサツ カブシキガイシヤ パツケ-ジジギヨウホンブ"
  },
  "8533": {
    "zip_code": "1128533",
    "prefecture": "東京都",
    "prefecture_kana": "トウキョウト",
    "prefecture_code": "13",
    "city": "文京区",
    "city_kana": "ブンキョウク",
    "town": "水道",
    "town_kana": "スイドウ",
    "street": "１丁目８番２号",
    "office_name": "成美堂出版　株式会社",
    "office_name_kana": "セイビドウシユツパン カブシキガイシヤ"
  },
  "8538": {
    "zip_code": "1128538",
    "prefecture": "東京都",
    "prefecture_kana": "トウキョウト",
    "prefecture_code": "13",
    "city": "文京区",
    "city_kana": "ブンキョウク",
    "town": "小石川",
    "town_kana": "コイシカワ",
    "street": "２−２２−２和順ビル６階・７階",
    "office_name": "株式会社　大阪屋　東京支社",
    "office_name_kana": "カブシキガイシヤ オオサカヤ トウキヨウシシヤ"
  },
  "8540": {
    "zip_code": "1128540",
    "prefecture": "東京都",
    "prefecture_kana": "トウキョウト",
    "prefecture_code": "13",
    "city": "文京区",
    "city_kana": "ブンキョウク",
    "town": "水道",
    "town_kana": "スイドウ",
    "street": "２丁目４−５",
    "office_name": "株式会社　太洋社",
    "office_name_kana": "カブシキガイシヤ タイヨウシヤ"
  },
  "8541": {
    "zip_code": "1128541",
    "prefecture": "東京都",
    "prefecture_kana": "トウキョウト",
    "prefecture_code": "13",
    "city": "文京区",
    "city_kana": "ブンキョウク",
    "town": "春日",
    "town_kana": "カスガ",
    "street": "２丁目１６−７",
    "office_name": "株式会社　精案社　ＤＭセンター",
    "office_name_kana": "カブシキガイシヤ セイアンシヤ デイエムセンタ-"
  },
  "8548": {
    "zip_code": "1128548",
    "prefecture": "東京都",
    "prefecture_kana": "トウキョウト",
    "prefecture_code": "13",
    "city": "文京区",
    "city_kana": "ブンキョウク",
    "town": "春日",
    "town_kana": "カスガ",
    "street": "１丁目９−２６",
    "office_name": "浜井電球工業　株式会社",
    "office_name_kana": "ハマイデンキユウコウギヨウ カブシキガイシヤ"
  },
  "8550": {
    "zip_code": "1128550",
    "prefecture": "東京都",
    "prefecture_kana": "トウキョウト",
    "prefecture_code": "13",
    "city": "文京区",
    "city_kana": "ブンキョウク",
    "town": "春日",
    "town_kana": "カスガ",
    "street": "１丁目１６−２１",
    "office_name": "東京都文京都税事務所",
    "office_name_kana": "トウキヨウトブンキヨウトゼイジムシヨ"
  },
  "8551": {
    "zip_code": "1128551",
    "prefecture": "東京都",
    "prefecture_kana": "トウキョウト",
    "prefecture_code": "13",
    "city": "文京区",
    "city_kana": "ブンキョウク",
    "town": "春日",
    "town_kana": "カスガ",
    "street": "１丁目１３−２７",
    "office_name": "中央大学　理工学部",
    "office_name_kana": "チユウオウダイガク リコウガクブ"
  },
  "8555": {
    "zip_code": "1128555",
    "prefecture": "東京都",
    "prefecture_kana": "トウキョウト",
    "prefecture_code": "13",
    "city": "文京区",
    "city_kana": "ブンキョウク",
    "town": "春日",
    "town_kana": "カスガ",
    "street": "１丁目１６番２１号",
    "office_name": "文京区役所",
    "office_name_kana": "ブンキヨウクヤクシヨ"
  },
  "8556": {
    "zip_code": "1128556",
    "prefecture": "東京都",
    "prefecture_kana": "トウキョウト",
    "prefecture_code": "13",
    "city": "文京区",
    "city_kana": "ブンキョウク",
    "town": "春日",
    "town_kana": "カスガ",
    "street": "２丁目４−１",
    "office_name": "株式会社　ウィズマン",
    "office_name_kana": "カブシキガイシヤ ウイズマン"
  },
  "8557": {
    "zip_code": "1128557",
    "prefecture": "東京都",
    "prefecture_kana": "トウキョウト",
    "prefecture_code": "13",
    "city": "文京区",
    "city_kana": "ブンキョウク",
    "town": "春日",
    "town_kana": "カスガ",
    "street": "２丁目４−１大曲ビル",
    "office_name": "有限会社　ウィズアドバタイジング",
    "office_name_kana": "ユウゲンガイシヤ ウイズアドバタイジング"
  },
  "8558": {
    "zip_code": "1128558",
    "prefecture": "東京都",
    "prefecture_kana": "トウキョウト",
    "prefecture_code": "13",
    "city": "文京区",
    "city_kana": "ブンキョウク",
    "town": "春日",
    "town_kana": "カスガ",
    "street": "１丁目４−５",
    "office_name": "小石川税務署",
    "office_name_kana": "コイシカワゼイムシヨ"
  },
  "8560": {
    "zip_code": "1128560",
    "prefecture": "東京都",
    "prefecture_kana": "トウキョウト",
    "prefecture_code": "13",
    "city": "文京区",
    "city_kana": "ブンキョウク",
    "town": "後楽",
    "town_kana": "コウラク",
    "street": "２−６−１",
    "office_name": "ＮＥＣネッツエスアイ　株式会社",
    "office_name_kana": "エヌイ-シ-ネツツエスアイ カブシキガイシヤ"
  },
  "8562": {
    "zip_code": "1128562",
    "prefecture": "東京都",
    "prefecture_kana": "トウキョウト",
    "prefecture_code": "13",
    "city": "文京区",
    "city_kana": "ブンキョウク",
    "town": "後楽",
    "town_kana": "コウラク",
    "street": "１丁目３−６１",
    "office_name": "東京ドームホテル",
    "office_name_kana": "トウキヨウド-ムホテル"
  },
  "8563": {
    "zip_code": "1128563",
    "prefecture": "東京都",
    "prefecture_kana": "トウキョウト",
    "prefecture_code": "13",
    "city": "文京区",
    "city_kana": "ブンキョウク",
    "town": "後楽",
    "town_kana": "コウラク",
    "street": "２丁目５−１",
    "office_name": "日立建機　（株）",
    "office_name_kana": "ヒタチケンキ カブシキガイシヤ"
  },
  "8566": {
    "zip_code": "1128566",
    "prefecture": "東京都",
    "prefecture_kana": "トウキョウト",
    "prefecture_code": "13",
    "city": "文京区",
    "city_kana": "ブンキョウク",
    "town": "後楽",
    "town_kana": "コウラク",
    "street": "１丁目７−２７",
    "office_name": "鹿島道路　株式会社",
    "office_name_kana": "カジマドウロ カブシキガイシヤ"
  },
  "8569": {
    "zip_code": "1128569",
    "prefecture": "東京都",
    "prefecture_kana": "トウキョウト",
    "prefecture_code": "13",
    "city": "文京区",
    "city_kana": "ブンキョウク",
    "town": "後楽",
    "town_kana": "コウラク",
    "street": "１丁目２−７",
    "office_name": "全逓会館",
    "office_name_kana": "ゼンテイカイカン"
  },
  "8570": {
    "zip_code": "1128570",
    "prefecture": "東京都",
    "prefecture_kana": "トウキョウト",
    "prefecture_code": "13",
    "city": "文京区",
    "city_kana": "ブンキョウク",
    "town": "後楽",
    "town_kana": "コウラク",
    "street": "１丁目４−１０",
    "office_name": "独立行政法人　住宅金融支援機構",
    "office_name_kana": "ドクリツギヨウセイホウジン ジユウタクキンユウシエンキコウ"
  },
  "8573": {
    "zip_code": "1128573",
    "prefecture": "東京都",
    "prefecture_kana": "トウキョウト",
    "prefecture_code": "13",
    "city": "文京区",
    "city_kana": "ブンキョウク",
    "town": "後楽",
    "town_kana": "コウラク",
    "street": "１丁目９−２０",
    "office_name": "中央労働基準監督署",
    "office_name_kana": "チユウオウロウドウキジユンカントクシヨ"
  },
  "8574": {
    "zip_code": "1128574",
    "prefecture": "東京都",
    "prefecture_kana": "トウキョウト",
    "prefecture_code": "13",
    "city": "文京区",
    "city_kana": "ブンキョウク",
    "town": "後楽",
    "town_kana": "コウラク",
    "street": "１丁目４番１４号",
    "office_name": "昭和リース　株式会社",
    "office_name_kana": "シヨウワリ-ス カブシキガイシヤ"
  },
  "8575": {
    "zip_code": "1128575",
    "prefecture": "東京都",
    "prefecture_kana": "トウキョウト",
    "prefecture_code": "13",
    "city": "文京区",
    "city_kana": "ブンキョウク",
    "town": "後楽",
    "town_kana": "コウラク",
    "street": "１丁目３−６１",
    "office_name": "株式会社　東京ドーム",
    "office_name_kana": "カブシキガイシヤ トウキヨウド-ム"
  },
  "8576": {
    "zip_code": "1128576",
    "prefecture": "東京都",
    "prefecture_kana": "トウキョウト",
    "prefecture_code": "13",
    "city": "文京区",
    "city_kana": "ブンキョウク",
    "town": "後楽",
    "town_kana": "コウラク",
    "street": "２丁目２−８",
    "office_name": "五洋建設　株式会社",
    "office_name_kana": "ゴヨウケンセツ カブシキガイシヤ"
  },
  "8580": {
    "zip_code": "1128580",
    "prefecture": "東京都",
    "prefecture_kana": "トウキョウト",
    "prefecture_code": "13",
    "city": "文京区",
    "city_kana": "ブンキョウク",
    "town": "後楽",
    "town_kana": "コウラク",
    "street": "１丁目２−１２",
    "office_name": "株式会社　芳文社",
    "office_name_kana": "カブシキガイシヤ ホウブンシヤ"
  },
  "8583": {
    "zip_code": "1128583",
    "prefecture": "東京都",
    "prefecture_kana": "トウキョウト",
    "prefecture_code": "13",
    "city": "文京区",
    "city_kana": "ブンキョウク",
    "town": "後楽",
    "town_kana": "コウラク",
    "street": "２−５−１飯田橋ファーストビル",
    "office_name": "株式会社　ミスミグループ本社",
    "office_name_kana": "カブシキガイシヤ ミスミグル-プホンシヤ"
  },
  "8585": {
    "zip_code": "1128585",
    "prefecture": "東京都",
    "prefecture_kana": "トウキョウト",
    "prefecture_code": "13",
    "city": "文京区",
    "city_kana": "ブンキョウク",
    "town": "小日向",
    "town_kana": "コヒナタ",
    "street": "３丁目４−１４",
    "office_name": "学校法人　拓殖大学（文京キャンパス）",
    "office_name_kana": "ガツコウホウジン タクシヨクダイガク(ブンキヨウキヤンパス)"
  },
  "8601": {
    "zip_code": "1128601",
    "prefecture": "東京都",
    "prefecture_kana": "トウキョウト",
    "prefecture_code": "13",
    "city": "文京区",
    "city_kana": "ブンキョウク",
    "town": "白山",
    "town_kana": "ハクサン",
    "street": "５丁目１６−６",
    "office_name": "宝くじ業務センター　通信販売係",
    "office_name_kana": "タカラクジギヨウムセンタ- ツウシンハンバイカカリ"
  },
  "8604": {
    "zip_code": "1128604",
    "prefecture": "東京都",
    "prefecture_kana": "トウキョウト",
    "prefecture_code": "13",
    "city": "文京区",
    "city_kana": "ブンキョウク",
    "town": "白山",
    "town_kana": "ハクサン",
    "street": "５丁目１番３−１０１号",
    "office_name": "公益財団法人　原子力安全技術センター",
    "office_name_kana": "コウエキザイダンホウジン ゲンシリヨクアンゼンギジユツセンタ-"
  },
  "8606": {
    "zip_code": "1128606",
    "prefecture": "東京都",
    "prefecture_kana": "トウキョウト",
    "prefecture_code": "13",
    "city": "文京区",
    "city_kana": "ブンキョウク",
    "town": "白山",
    "town_kana": "ハクサン",
    "street": "５丁目２８−２０",
    "office_name": "東洋大学",
    "office_name_kana": "トウヨウダイガク"
  },
  "8607": {
    "zip_code": "1128607",
    "prefecture": "東京都",
    "prefecture_kana": "トウキョウト",
    "prefecture_code": "13",
    "city": "文京区",
    "city_kana": "ブンキョウク",
    "town": "白山",
    "town_kana": "ハクサン",
    "street": "２−３６−５",
    "office_name": "（学）　東洋大学　京北事務室",
    "office_name_kana": "(ガク) トウヨウダイガク ケイホクジムシツ"
  },
  "8610": {
    "zip_code": "1128610",
    "prefecture": "東京都",
    "prefecture_kana": "トウキョウト",
    "prefecture_code": "13",
    "city": "文京区",
    "city_kana": "ブンキョウク",
    "town": "大塚",
    "town_kana": "オオツカ",
    "street": "２丁目１−１",
    "office_name": "お茶の水女子大学",
    "office_name_kana": "オチヤノミズジヨシダイガク"
  },
  "8611": {
    "zip_code": "1128611",
    "prefecture": "東京都",
    "prefecture_kana": "トウキョウト",
    "prefecture_code": "13",
    "city": "文京区",
    "city_kana": "ブンキョウク",
    "town": "白山",
    "town_kana": "ハクサン",
    "street": "２丁目３６−５",
    "office_name": "裁判所　裁判書記官研修所",
    "office_name_kana": "サイバンシヨ サイバンシヨキカンケンシユウシヨ"
  },
  "8612": {
    "zip_code": "1128612",
    "prefecture": "東京都",
    "prefecture_kana": "トウキョウト",
    "prefecture_code": "13",
    "city": "文京区",
    "city_kana": "ブンキョウク",
    "town": "白山",
    "town_kana": "ハクサン",
    "street": "５丁目６−６",
    "office_name": "京華学園",
    "office_name_kana": "ケイカガクエン"
  },
  "8618": {
    "zip_code": "1128618",
    "prefecture": "東京都",
    "prefecture_kana": "トウキョウト",
    "prefecture_code": "13",
    "city": "文京区",
    "city_kana": "ブンキョウク",
    "town": "千石",
    "town_kana": "センゴク",
    "street": "４丁目２２−１６",
    "office_name": "株式会社　ヨツワ産業",
    "office_name_kana": "カブシキガイシヤ ヨツワサンギヨウ"
  },
  "8619": {
    "zip_code": "1128619",
    "prefecture": "東京都",
    "prefecture_kana": "トウキョウト",
    "prefecture_code": "13",
    "city": "文京区",
    "city_kana": "ブンキョウク",
    "town": "千石",
    "town_kana": "センゴク",
    "street": "４−２９−１４",
    "office_name": "ＣＱ出版　株式会社",
    "office_name_kana": "シ-キユ-シユツパン カブシキガイシヤ"
  },
  "8620": {
    "zip_code": "1128620",
    "prefecture": "東京都",
    "prefecture_kana": "トウキョウト",
    "prefecture_code": "13",
    "city": "文京区",
    "city_kana": "ブンキョウク",
    "town": "千石",
    "town_kana": "センゴク",
    "street": "２丁目３０−１２",
    "office_name": "文京カテリーナ",
    "office_name_kana": "ブンキヨウカテリ-ナ"
  },
  "8622": {
    "zip_code": "1128622",
    "prefecture": "東京都",
    "prefecture_kana": "トウキョウト",
    "prefecture_code": "13",
    "city": "文京区",
    "city_kana": "ブンキョウク",
    "town": "千石",
    "town_kana": "センゴク",
    "street": "４丁目３７−２０",
    "office_name": "アカツキ産業　株式会社",
    "office_name_kana": "アカツキサンギヨウ カブシキガイシヤ"
  },
  "8625": {
    "zip_code": "1128625",
    "prefecture": "東京都",
    "prefecture_kana": "トウキョウト",
    "prefecture_code": "13",
    "city": "文京区",
    "city_kana": "ブンキョウク",
    "town": "大塚",
    "town_kana": "オオツカ",
    "street": "１丁目２−１０",
    "office_name": "学校法人　貞静学園",
    "office_name_kana": "ガツコウホウジン テイセイガクエン"
  },
  "8627": {
    "zip_code": "1128627",
    "prefecture": "東京都",
    "prefecture_kana": "トウキョウト",
    "prefecture_code": "13",
    "city": "文京区",
    "city_kana": "ブンキョウク",
    "town": "大塚",
    "town_kana": "オオツカ",
    "street": "３丁目２８−７",
    "office_name": "全国森林関連産業労働者共済　生活協同組合",
    "office_name_kana": "ゼンコクシンリンカンレンサンギヨウロウドウシヤキヨウサイ セイカツキヨウドウクミアイ"
  },
  "8629": {
    "zip_code": "1128629",
    "prefecture": "東京都",
    "prefecture_kana": "トウキョウト",
    "prefecture_code": "13",
    "city": "文京区",
    "city_kana": "ブンキョウク",
    "town": "大塚",
    "town_kana": "オオツカ",
    "street": "１丁目５−９",
    "office_name": "学校法人　跡見学園",
    "office_name_kana": "ガツコウホウジン アトミガクエン"
  },
  "8630": {
    "zip_code": "1128630",
    "prefecture": "東京都",
    "prefecture_kana": "トウキョウト",
    "prefecture_code": "13",
    "city": "文京区",
    "city_kana": "ブンキョウク",
    "town": "小日向",
    "town_kana": "コヒナタ",
    "street": "１丁目２６−１３",
    "office_name": "貞静学園短期大学",
    "office_name_kana": "テイセイガクエンタンキダイガク"
  },
  "8632": {
    "zip_code": "1128632",
    "prefecture": "東京都",
    "prefecture_kana": "トウキョウト",
    "prefecture_code": "13",
    "city": "文京区",
    "city_kana": "ブンキョウク",
    "town": "大塚",
    "town_kana": "オオツカ",
    "street": "３丁目４−７",
    "office_name": "（株）　図書館流通センター",
    "office_name_kana": "(カ) トシヨカンリユウツウセンタ-"
  },
  "8633": {
    "zip_code": "1128633",
    "prefecture": "東京都",
    "prefecture_kana": "トウキョウト",
    "prefecture_code": "13",
    "city": "文京区",
    "city_kana": "ブンキョウク",
    "town": "大塚",
    "town_kana": "オオツカ",
    "street": "３丁目９−１０",
    "office_name": "（株）　コア・ブレイン",
    "office_name_kana": "カブシキガイシヤ コア・ブレイン"
  },
  "8634": {
    "zip_code": "1128634",
    "prefecture": "東京都",
    "prefecture_kana": "トウキョウト",
    "prefecture_code": "13",
    "city": "文京区",
    "city_kana": "ブンキョウク",
    "town": "大塚",
    "town_kana": "オオツカ",
    "street": "３丁目２１−４",
    "office_name": "株式会社　村田金箔",
    "office_name_kana": "ムラタ キンパク"
  },
  "8635": {
    "zip_code": "1128635",
    "prefecture": "東京都",
    "prefecture_kana": "トウキョウト",
    "prefecture_code": "13",
    "city": "文京区",
    "city_kana": "ブンキョウク",
    "town": "大塚",
    "town_kana": "オオツカ",
    "street": "３丁目１６−１２",
    "office_name": "株式会社　文渓堂",
    "office_name_kana": "カブシキガイシヤ ブンケイドウ"
  },
  "8642": {
    "zip_code": "1128642",
    "prefecture": "東京都",
    "prefecture_kana": "トウキョウト",
    "prefecture_code": "13",
    "city": "文京区",
    "city_kana": "ブンキョウク",
    "town": "大塚",
    "town_kana": "オオツカ",
    "street": "３丁目５−１０",
    "office_name": "住商マシネックス　株式会社",
    "office_name_kana": "スミシヨウマシネツクス カブシキガイシヤ"
  },
  "8644": {
    "zip_code": "1128644",
    "prefecture": "東京都",
    "prefecture_kana": "トウキョウト",
    "prefecture_code": "13",
    "city": "文京区",
    "city_kana": "ブンキョウク",
    "town": "大塚",
    "town_kana": "オオツカ",
    "street": "４丁目４５−９",
    "office_name": "音羽女子学生会館",
    "office_name_kana": "オトワジヨシガクセイカイカン"
  },
  "8650": {
    "zip_code": "1128650",
    "prefecture": "東京都",
    "prefecture_kana": "トウキョウト",
    "prefecture_code": "13",
    "city": "文京区",
    "city_kana": "ブンキョウク",
    "town": "大塚",
    "town_kana": "オオツカ",
    "street": "５丁目６−１５",
    "office_name": "全薬工業　株式会社",
    "office_name_kana": "ゼンヤクコウギヨウ カブシキガイシヤ"
  },
  "8651": {
    "zip_code": "1128651",
    "prefecture": "東京都",
    "prefecture_kana": "トウキョウト",
    "prefecture_code": "13",
    "city": "文京区",
    "city_kana": "ブンキョウク",
    "town": "音羽",
    "town_kana": "オトワ",
    "street": "２丁目１０−２",
    "office_name": "（株）　エーオーエーアオバ",
    "office_name_kana": "カブシキガイシヤ エ-オ-エ-アオバ"
  },
  "8652": {
    "zip_code": "1128652",
    "prefecture": "東京都",
    "prefecture_kana": "トウキョウト",
    "prefecture_code": "13",
    "city": "文京区",
    "city_kana": "ブンキョウク",
    "town": "音羽",
    "town_kana": "オトワ",
    "street": "１丁目１７−１４",
    "office_name": "講談社インターナショナル　株式会社",
    "office_name_kana": "コウダンシヤインタ-ナシヨナル カブシキガイシヤ"
  },
  "8653": {
    "zip_code": "1128653",
    "prefecture": "東京都",
    "prefecture_kana": "トウキョウト",
    "prefecture_code": "13",
    "city": "文京区",
    "city_kana": "ブンキョウク",
    "town": "音羽",
    "town_kana": "オトワ",
    "street": "１丁目２２番１２号リーフスクエア音羽ビル",
    "office_name": "株式会社　宙出版",
    "office_name_kana": "カブシキガイシヤ オオゾラシユツパン"
  },
  "8654": {
    "zip_code": "1128654",
    "prefecture": "東京都",
    "prefecture_kana": "トウキョウト",
    "prefecture_code": "13",
    "city": "文京区",
    "city_kana": "ブンキョウク",
    "town": "音羽",
    "town_kana": "オトワ",
    "street": "１丁目２０−１１",
    "office_name": "プラス　株式会社",
    "office_name_kana": "プラス カブシキガイシヤ"
  },
  "8655": {
    "zip_code": "1128655",
    "prefecture": "東京都",
    "prefecture_kana": "トウキョウト",
    "prefecture_code": "13",
    "city": "文京区",
    "city_kana": "ブンキョウク",
    "town": "音羽",
    "town_kana": "オトワ",
    "street": "１丁目２１−１１",
    "office_name": "（株）　二見書房",
    "office_name_kana": "カブシキガイシヤ フタミシヨボウ"
  },
  "8657": {
    "zip_code": "1128657",
    "prefecture": "東京都",
    "prefecture_kana": "トウキョウト",
    "prefecture_code": "13",
    "city": "文京区",
    "city_kana": "ブンキョウク",
    "town": "音羽",
    "town_kana": "オトワ",
    "street": "１丁目２６−１",
    "office_name": "加賀電子　株式会社",
    "office_name_kana": "カガデンシ カブシキガイシヤ"
  },
  "8660": {
    "zip_code": "1128660",
    "prefecture": "東京都",
    "prefecture_kana": "トウキョウト",
    "prefecture_code": "13",
    "city": "文京区",
    "city_kana": "ブンキョウク",
    "town": "音羽",
    "town_kana": "オトワ",
    "street": "２丁目１０−２",
    "office_name": "センコー商事　株式会社",
    "office_name_kana": "センコ-シヨウジ カブシキガイシヤ"
  },
  "8662": {
    "zip_code": "1128662",
    "prefecture": "東京都",
    "prefecture_kana": "トウキョウト",
    "prefecture_code": "13",
    "city": "文京区",
    "city_kana": "ブンキョウク",
    "town": "音羽",
    "town_kana": "オトワ",
    "street": "１丁目１−１",
    "office_name": "古久根建設　株式会社",
    "office_name_kana": "コクネケンセツ カブシキガイシヤ"
  },
  "8663": {
    "zip_code": "1128663",
    "prefecture": "東京都",
    "prefecture_kana": "トウキョウト",
    "prefecture_code": "13",
    "city": "文京区",
    "city_kana": "ブンキョウク",
    "town": "関口",
    "town_kana": "セキグチ",
    "street": "２丁目３−３",
    "office_name": "ニチバン　株式会社",
    "office_name_kana": "ニチバン カブシキガイシヤ"
  },
  "8664": {
    "zip_code": "1128664",
    "prefecture": "東京都",
    "prefecture_kana": "トウキョウト",
    "prefecture_code": "13",
    "city": "文京区",
    "city_kana": "ブンキョウク",
    "town": "関口",
    "town_kana": "セキグチ",
    "street": "２丁目１０−８",
    "office_name": "藤田観光　株式会社",
    "office_name_kana": "フジタカンコウ カブシキガイシヤ"
  },
  "8668": {
    "zip_code": "1128668",
    "prefecture": "東京都",
    "prefecture_kana": "トウキョウト",
    "prefecture_code": "13",
    "city": "文京区",
    "city_kana": "ブンキョウク",
    "town": "関口",
    "town_kana": "セキグチ",
    "street": "１丁目４４−１０",
    "office_name": "株式会社　アイ・エヌ・エー",
    "office_name_kana": "カブシキガイシヤ アイ.エヌ.エ-"
  },
  "8670": {
    "zip_code": "1128670",
    "prefecture": "東京都",
    "prefecture_kana": "トウキョウト",
    "prefecture_code": "13",
    "city": "文京区",
    "city_kana": "ブンキョウク",
    "town": "関口",
    "town_kana": "セキグチ",
    "street": "１丁目２０−１０",
    "office_name": "Ｊフォン",
    "office_name_kana": "ジエイフオン"
  },
  "8671": {
    "zip_code": "1128671",
    "prefecture": "東京都",
    "prefecture_kana": "トウキョウト",
    "prefecture_code": "13",
    "city": "文京区",
    "city_kana": "ブンキョウク",
    "town": "後楽",
    "town_kana": "コウラク",
    "street": "１丁目４−１０",
    "office_name": "住宅金融支援機構　首都圏支店",
    "office_name_kana": "ジユウタクキンユウシエンキコウ シユトケンシテン"
  },
  "8675": {
    "zip_code": "1128675",
    "prefecture": "東京都",
    "prefecture_kana": "トウキョウト",
    "prefecture_code": "13",
    "city": "文京区",
    "city_kana": "ブンキョウク",
    "town": "関口",
    "town_kana": "セキグチ",
    "street": "１−４４−１０",
    "office_name": "株式会社　主婦の友社",
    "office_name_kana": "カブシキガイシヤ シユフノトモシヤ"
  },
  "8677": [
    {
      "zip_code": "1128677",
      "prefecture": "東京都",
      "prefecture_kana": "トウキョウト",
      "prefecture_code": "13",
      "city": "文京区",
      "city_kana": "ブンキョウク",
      "town": "関口",
      "town_kana": "セキグチ",
      "street": "１丁目４５−１５",
      "office_name": "ＮＫＳＪシステムズ　株式会社",
      "office_name_kana": "エヌケイエスジエイシステムズ カブシキガイシヤ"
    },
    {
      "zip_code": "1128677",
      "prefecture": "東京都",
      "prefecture_kana": "トウキョウト",
      "prefecture_code": "13",
      "city": "文京区",
      "city_kana": "ブンキョウク",
      "town": "関口",
      "town_kana": "セキグチ",
      "street": "１丁目４５−１５",
      "office_name": "ＮＫＳＪホールディングス",
      "office_name_kana": "エヌケイエスジエイホ-ルデイングス"
    },
    {
      "zip_code": "1128677",
      "prefecture": "東京都",
      "prefecture_kana": "トウキョウト",
      "prefecture_code": "13",
      "city": "文京区",
      "city_kana": "ブンキョウク",
      "town": "関口",
      "town_kana": "セキグチ",
      "street": "１丁目４５−１５",
      "office_name": "株式会社　プライムアシスタンス",
      "office_name_kana": "カブシキガイシヤ プライムアシスタンス"
    },
    {
      "zip_code": "1128677",
      "prefecture": "東京都",
      "prefecture_kana": "トウキョウト",
      "prefecture_code": "13",
      "city": "文京区",
      "city_kana": "ブンキョウク",
      "town": "関口",
      "town_kana": "セキグチ",
      "street": "１丁目４５−１５",
      "office_name": "日本興亜ホットライン２４　株式会社",
      "office_name_kana": "ニホンコウアホツトライン24 カブシキガイシヤ"
    }
  ],
  "8678": {
    "zip_code": "1128678",
    "prefecture": "東京都",
    "prefecture_kana": "トウキョウト",
    "prefecture_code": "13",
    "city": "文京区",
    "city_kana": "ブンキョウク",
    "town": "関口",
    "town_kana": "セキグチ",
    "street": "１丁目４７−１２",
    "office_name": "日本総合住生活　株式会社　東京支社",
    "office_name_kana": "ニホンソウゴウジユウセイカツ カブシキガイシヤ トウキヨウシシヤ"
  },
  "8680": {
    "zip_code": "1128680",
    "prefecture": "東京都",
    "prefecture_kana": "トウキョウト",
    "prefecture_code": "13",
    "city": "文京区",
    "city_kana": "ブンキョウク",
    "town": "関口",
    "town_kana": "セキグチ",
    "street": "２丁目１０−８",
    "office_name": "藤田観光　株式会社　ホテル椿山荘東京",
    "office_name_kana": "フジタカンコウ カブシキガイシヤ ホテルチンザンソウトウキヨウ"
  },
  "8681": {
    "zip_code": "1128681",
    "prefecture": "東京都",
    "prefecture_kana": "トウキョウト",
    "prefecture_code": "13",
    "city": "文京区",
    "city_kana": "ブンキョウク",
    "town": "目白台",
    "town_kana": "メジロダイ",
    "street": "２丁目８−１",
    "office_name": "日本女子大学",
    "office_name_kana": "ニホンジヨシダイガク"
  },
  "8682": {
    "zip_code": "1128682",
    "prefecture": "東京都",
    "prefecture_kana": "トウキョウト",
    "prefecture_code": "13",
    "city": "文京区",
    "city_kana": "ブンキョウク",
    "town": "目白台",
    "town_kana": "メジロダイ",
    "street": "１丁目２１−２",
    "office_name": "和敬塾",
    "office_name_kana": "ワケイジユク"
  },
  "8683": {
    "zip_code": "1128683",
    "prefecture": "東京都",
    "prefecture_kana": "トウキョウト",
    "prefecture_code": "13",
    "city": "文京区",
    "city_kana": "ブンキョウク",
    "town": "目白台",
    "town_kana": "メジロダイ",
    "street": "２丁目９−１３",
    "office_name": "株式会社　リテック・コンサルタンツ",
    "office_name_kana": "カブシキガイシヤ リテツク・コンサルタンツ"
  },
  "8684": {
    "zip_code": "1128684",
    "prefecture": "東京都",
    "prefecture_kana": "トウキョウト",
    "prefecture_code": "13",
    "city": "文京区",
    "city_kana": "ブンキョウク",
    "town": "目白台",
    "town_kana": "メジロダイ",
    "street": "２丁目９−１３",
    "office_name": "株式会社　トルテック都市建築設計事務所",
    "office_name_kana": "カブシキガイシヤ トルテツクトシケンチクセツケイジムシヨ"
  },
  "8685": {
    "zip_code": "1128685",
    "prefecture": "東京都",
    "prefecture_kana": "トウキョウト",
    "prefecture_code": "13",
    "city": "文京区",
    "city_kana": "ブンキョウク",
    "town": "目白台",
    "town_kana": "メジロダイ",
    "street": "２丁目９−１３",
    "office_name": "株式会社　デュープレックス・ギャザリング",
    "office_name_kana": "カブシキガイシヤ デユ-プレツクス・ギヤザリング"
  },
  "8687": {
    "zip_code": "1128687",
    "prefecture": "東京都",
    "prefecture_kana": "トウキョウト",
    "prefecture_code": "13",
    "city": "文京区",
    "city_kana": "ブンキョウク",
    "town": "大塚",
    "town_kana": "オオツカ",
    "street": "１丁目５−２",
    "office_name": "跡見学園女子大学",
    "office_name_kana": "アトミガクエンジヨシダイガク"
  },
  "8688": {
    "zip_code": "1128688",
    "prefecture": "東京都",
    "prefecture_kana": "トウキョウト",
    "prefecture_code": "13",
    "city": "文京区",
    "city_kana": "ブンキョウク",
    "town": "目白台",
    "town_kana": "メジロダイ",
    "street": "３丁目２９番２０号",
    "office_name": "三菱ＵＦＪモルガン・スタンレー証券　株式会社",
    "office_name_kana": "ミツビシユ-エフジエ-モルガン・スタンレ-シヨウケン カブシキガイシヤ"
  },
  "8690": {
    "zip_code": "1128690",
    "prefecture": "東京都",
    "prefecture_kana": "トウキョウト",
    "prefecture_code": "13",
    "city": "文京区",
    "city_kana": "ブンキョウク",
    "town": "関口",
    "town_kana": "セキグチ",
    "street": "１丁目４４−１０ＪＴＢ商事ビル",
    "office_name": "株式会社　ＪＴＢ商事",
    "office_name_kana": "カブシキガイシヤ ジエイテイ-ビ-シヨウジ"
  },
  "8701": {
    "zip_code": "1128701",
    "prefecture": "東京都",
    "prefecture_kana": "トウキョウト",
    "prefecture_code": "13",
    "city": "文京区",
    "city_kana": "ブンキョウク",
    "town": "後楽",
    "town_kana": "コウラク",
    "street": "１丁目４−１８（小石川郵便局私書箱第４７号）",
    "office_name": "トヨタ自動車　株式会社　東京本社",
    "office_name_kana": "トヨタジドウシヤ カブシキガイシヤ トウキヨウホンシヤ"
  },
  "8702": {
    "zip_code": "1128702",
    "prefecture": "東京都",
    "prefecture_kana": "トウキョウト",
    "prefecture_code": "13",
    "city": "新宿区",
    "city_kana": "シンジュクク",
    "town": "山吹町",
    "town_kana": "ヤマブキチョウ",
    "street": "３５０",
    "office_name": "株式会社　日本アカデミー",
    "office_name_kana": "カブシキガイシヤ ニホンアカデミ-"
  },
  "8710": {
    "zip_code": "1128710",
    "prefecture": "東京都",
    "prefecture_kana": "トウキョウト",
    "prefecture_code": "13",
    "city": "文京区",
    "city_kana": "ブンキョウク",
    "town": "白山",
    "town_kana": "ハクサン",
    "street": "５丁目１番３−１０１号東京富山会館７階",
    "office_name": "クラリオン販売　株式会社",
    "office_name_kana": "クラリオンハンバイ カブシキガイシヤ"
  },
  "8733": {
    "zip_code": "1128733",
    "prefecture": "東京都",
    "prefecture_kana": "トウキョウト",
    "prefecture_code": "13",
    "city": "文京区",
    "city_kana": "ブンキョウク",
    "town": "後楽",
    "town_kana": "コウラク",
    "street": "２丁目１５−１（小石川郵便局私書箱第８９号）",
    "office_name": "株式会社　ディスコ",
    "office_name_kana": "カブシキガイシヤ デイスコ"
  }
}