{
  "0000": {
    "zip_code": "1160000",
    "prefecture": "東京都",
    "prefecture_kana": "トウキョウト",
    "prefecture_code": "13",
    "city": "荒川区",
    "city_kana": "アラカワク",
    "town": "",
    "town_kana": "",
    "street": null,
    "office_name": null,
    "office_name_kana": null
  },
  "0001": {
    "zip_code": "1160001",
    "prefecture": "東京都",
    "prefecture_kana": "トウキョウト",
    "prefecture_code": "13",
    "city": "荒川区",
    "city_kana": "アラカワク",
    "town": "町屋",
    "town_kana": "マチヤ",
    "street": null,
    "office_name": null,
    "office_name_kana": null
  },
  "0002": {
    "zip_code": "1160002",
    "prefecture": "東京都",
    "prefecture_kana": "トウキョウト",
    "prefecture_code": "13",
    "city": "荒川区",
    "city_kana": "アラカワク",
    "town": "荒川",
    "town_kana": "アラカワ",
    "street": null,
    "office_name": null,
    "office_name_kana": null
  },
  "0003": {
    "zip_code": "1160003",
    "prefecture": "東京都",
    "prefecture_kana": "トウキョウト",
    "prefecture_code": "13",
    "city": "荒川区",
    "city_kana": "アラカワク",
    "town": "南千住",
    "town_kana": "ミナミセンジュ",
    "street": null,
    "office_name": null,
    "office_name_kana": null
  },
  "0011": {
    "zip_code": "1160011",
    "prefecture": "東京都",
    "prefecture_kana": "トウキョウト",
    "prefecture_code": "13",
    "city": "荒川区",
    "city_kana": "アラカワク",
    "town": "西尾久",
    "town_kana": "ニシオグ",
    "street": null,
    "office_name": null,
    "office_name_kana": null
  },
  "0012": {
    "zip_code": "1160012",
    "prefecture": "東京都",
    "prefecture_kana": "トウキョウト",
    "prefecture_code": "13",
    "city": "荒川区",
    "city_kana": "アラカワク",
    "town": "東尾久",
    "town_kana": "ヒガシオグ",
    "street": null,
    "office_name": null,
    "office_name_kana": null
  },
  "0013": {
    "zip_code": "1160013",
    "prefecture": "東京都",
    "prefecture_kana": "トウキョウト",
    "prefecture_code": "13",
    "city": "荒川区",
    "city_kana": "アラカワク",
    "town": "西日暮里",
    "town_kana": "ニシニッポリ",
    "street": null,
    "office_name": null,
    "office_name_kana": null
  },
  "0014": {
    "zip_code": "1160014",
    "prefecture": "東京都",
    "prefecture_kana": "トウキョウト",
    "prefecture_code": "13",
    "city": "荒川区",
    "city_kana": "アラカワク",
    "town": "東日暮里",
    "town_kana": "ヒガシニッポリ",
    "street": null,
    "office_name": null,
    "office_name_kana": null
  },
  "8501": {
    "zip_code": "1168501",
    "prefecture": "東京都",
    "prefecture_kana": "トウキョウト",
    "prefecture_code": "13",
    "city": "荒川区",
    "city_kana": "アラカワク",
    "town": "荒川",
    "town_kana": "アラカワ",
    "street": "２丁目２−３",
    "office_name": "荒川区役所",
    "office_name_kana": "アラカワクヤクシヨ"
  },
  "8502": {
    "zip_code": "1168502",
    "prefecture": "東京都",
    "prefecture_kana": "トウキョウト",
    "prefecture_code": "13",
    "city": "荒川区",
    "city_kana": "アラカワク",
    "town": "荒川",
    "town_kana": "アラカワ",
    "street": "２丁目１１−１",
    "office_name": "荒川区保健所",
    "office_name_kana": "アラカワクホケンジヨ"
  },
  "8503": {
    "zip_code": "1168503",
    "prefecture": "東京都",
    "prefecture_kana": "トウキョウト",
    "prefecture_code": "13",
    "city": "荒川区",
    "city_kana": "アラカワク",
    "town": "荒川",
    "town_kana": "アラカワ",
    "street": "３丁目３３−１",
    "office_name": "株式会社　白興",
    "office_name_kana": "カブシキガイシヤ ハツコウ"
  },
  "8505": {
    "zip_code": "1168505",
    "prefecture": "東京都",
    "prefecture_kana": "トウキョウト",
    "prefecture_code": "13",
    "city": "荒川区",
    "city_kana": "アラカワク",
    "town": "荒川",
    "town_kana": "アラカワ",
    "street": "７丁目１９−１",
    "office_name": "三菱電機ビルテクノサービス　株式会社",
    "office_name_kana": "ミツビシデンキビルテクノサ-ビス カブシキガイシヤ"
  },
  "8507": {
    "zip_code": "1168507",
    "prefecture": "東京都",
    "prefecture_kana": "トウキョウト",
    "prefecture_code": "13",
    "city": "荒川区",
    "city_kana": "アラカワク",
    "town": "荒川",
    "town_kana": "アラカワ",
    "street": "２丁目１１−１",
    "office_name": "荒川区がん予防・健康づくりセンター",
    "office_name_kana": "アラカワクガンヨボウ・ケンコウヅクリセンタ-"
  },
  "8508": {
    "zip_code": "1168508",
    "prefecture": "東京都",
    "prefecture_kana": "トウキョウト",
    "prefecture_code": "13",
    "city": "荒川区",
    "city_kana": "アラカワク",
    "town": "荒川",
    "town_kana": "アラカワ",
    "street": "３丁目６２−４",
    "office_name": "株式会社　ヤマトメ",
    "office_name_kana": "カブシキガイシヤ ヤマトメ"
  },
  "8521": {
    "zip_code": "1168521",
    "prefecture": "東京都",
    "prefecture_kana": "トウキョウト",
    "prefecture_code": "13",
    "city": "荒川区",
    "city_kana": "アラカワク",
    "town": "南千住",
    "town_kana": "ミナミセンジュ",
    "street": "６丁目４０−１",
    "office_name": "東京都水道局　荒川営業所",
    "office_name_kana": "トウキヨウトスイドウキヨク アラカワエイギヨウシヨ"
  },
  "8522": {
    "zip_code": "1168522",
    "prefecture": "東京都",
    "prefecture_kana": "トウキョウト",
    "prefecture_code": "13",
    "city": "荒川区",
    "city_kana": "アラカワク",
    "town": "南千住",
    "town_kana": "ミナミセンジュ",
    "street": "３丁目１３−１",
    "office_name": "東京ガス　株式会社　東部事業本部",
    "office_name_kana": "トウキヨウガス カブシキガイシヤ トウブジギヨウホンブ"
  },
  "8523": {
    "zip_code": "1168523",
    "prefecture": "東京都",
    "prefecture_kana": "トウキョウト",
    "prefecture_code": "13",
    "city": "荒川区",
    "city_kana": "アラカワク",
    "town": "南千住",
    "town_kana": "ミナミセンジュ",
    "street": "８丁目１７番１号",
    "office_name": "東京都立産業技術高等専門学校　荒川キャンパス",
    "office_name_kana": "トウキヨウトリツサンギヨウギジユツコウトウセンモンガツコウ アラカワキヤンパス"
  },
  "8524": {
    "zip_code": "1168524",
    "prefecture": "東京都",
    "prefecture_kana": "トウキョウト",
    "prefecture_code": "13",
    "city": "荒川区",
    "city_kana": "アラカワク",
    "town": "南千住",
    "town_kana": "ミナミセンジュ",
    "street": "５丁目１９−５",
    "office_name": "城信ビジネスサービス　株式会社",
    "office_name_kana": "ジヨウシンビジネスサ-ビス カブシキガイシヤ"
  },
  "8532": {
    "zip_code": "1168532",
    "prefecture": "東京都",
    "prefecture_kana": "トウキョウト",
    "prefecture_code": "13",
    "city": "荒川区",
    "city_kana": "アラカワク",
    "town": "東日暮里",
    "town_kana": "ヒガシニッポリ",
    "street": "４丁目３１−２",
    "office_name": "株式会社　タカイシ",
    "office_name_kana": "カブシキガイシヤ タカイシ"
  },
  "8533": {
    "zip_code": "1168533",
    "prefecture": "東京都",
    "prefecture_kana": "トウキョウト",
    "prefecture_code": "13",
    "city": "荒川区",
    "city_kana": "アラカワク",
    "town": "東日暮里",
    "town_kana": "ヒガシニッポリ",
    "street": "４丁目１２−１",
    "office_name": "東京シンコーレザー　株式会社",
    "office_name_kana": "トウキヨウシンコ-レザ- カブシキガイシヤ"
  },
  "8537": {
    "zip_code": "1168537",
    "prefecture": "東京都",
    "prefecture_kana": "トウキョウト",
    "prefecture_code": "13",
    "city": "荒川区",
    "city_kana": "アラカワク",
    "town": "東日暮里",
    "town_kana": "ヒガシニッポリ",
    "street": "３丁目２７−６",
    "office_name": "株式会社　エドウイン",
    "office_name_kana": "カブシキガイシヤ エドウイン"
  },
  "8540": {
    "zip_code": "1168540",
    "prefecture": "東京都",
    "prefecture_kana": "トウキョウト",
    "prefecture_code": "13",
    "city": "荒川区",
    "city_kana": "アラカワク",
    "town": "西日暮里",
    "town_kana": "ニシニッポリ",
    "street": "５丁目３−１４",
    "office_name": "アイセック　株式会社",
    "office_name_kana": "アイセツク カブシキガイシヤ"
  },
  "8541": {
    "zip_code": "1168541",
    "prefecture": "東京都",
    "prefecture_kana": "トウキョウト",
    "prefecture_code": "13",
    "city": "荒川区",
    "city_kana": "アラカワク",
    "town": "西日暮里",
    "town_kana": "ニシニッポリ",
    "street": "５丁目３−１４",
    "office_name": "井関農機　株式会社",
    "office_name_kana": "イセキノウキ カブシキガイシヤ"
  },
  "8543": {
    "zip_code": "1168543",
    "prefecture": "東京都",
    "prefecture_kana": "トウキョウト",
    "prefecture_code": "13",
    "city": "荒川区",
    "city_kana": "アラカワク",
    "town": "東日暮里",
    "town_kana": "ヒガシニッポリ",
    "street": "５丁目４７−１０",
    "office_name": "井嶋金銀工業　株式会社",
    "office_name_kana": "イジマキンギンコウギヨウ カブシキガイシヤ"
  },
  "8544": {
    "zip_code": "1168544",
    "prefecture": "東京都",
    "prefecture_kana": "トウキョウト",
    "prefecture_code": "13",
    "city": "荒川区",
    "city_kana": "アラカワク",
    "town": "西日暮里",
    "town_kana": "ニシニッポリ",
    "street": "１丁目１９−１５",
    "office_name": "株式会社　協和商事",
    "office_name_kana": "カブシキガイシヤ キヨウワシヨウジ"
  },
  "8546": {
    "zip_code": "1168546",
    "prefecture": "東京都",
    "prefecture_kana": "トウキョウト",
    "prefecture_code": "13",
    "city": "荒川区",
    "city_kana": "アラカワク",
    "town": "西日暮里",
    "town_kana": "ニシニッポリ",
    "street": "２丁目３９−４",
    "office_name": "株式会社　千代田",
    "office_name_kana": "カブシキガイシヤ チヨダ"
  },
  "8548": {
    "zip_code": "1168548",
    "prefecture": "東京都",
    "prefecture_kana": "トウキョウト",
    "prefecture_code": "13",
    "city": "荒川区",
    "city_kana": "アラカワク",
    "town": "西日暮里",
    "town_kana": "ニシニッポリ",
    "street": "６丁目５２−２",
    "office_name": "東京海上日動火災保険　株式会社",
    "office_name_kana": "トウキヨウカイジヨウニチドウカサイホケン カブシキガイシヤ"
  },
  "8549": {
    "zip_code": "1168549",
    "prefecture": "東京都",
    "prefecture_kana": "トウキョウト",
    "prefecture_code": "13",
    "city": "荒川区",
    "city_kana": "アラカワク",
    "town": "西日暮里",
    "town_kana": "ニシニッポリ",
    "street": "１丁目６１−１８",
    "office_name": "東栄産業　株式会社",
    "office_name_kana": "トウエイサンギヨウ カブシキガイシヤ"
  },
  "8550": {
    "zip_code": "1168550",
    "prefecture": "東京都",
    "prefecture_kana": "トウキョウト",
    "prefecture_code": "13",
    "city": "荒川区",
    "city_kana": "アラカワク",
    "town": "東尾久",
    "town_kana": "ヒガシオグ",
    "street": "５丁目３１−１１",
    "office_name": "東京電力ホールディングス　株式会社",
    "office_name_kana": "トウキヨウデンリヨクホ-ルデイングス カブシキガイシヤ"
  },
  "8551": {
    "zip_code": "1168551",
    "prefecture": "東京都",
    "prefecture_kana": "トウキョウト",
    "prefecture_code": "13",
    "city": "荒川区",
    "city_kana": "アラカワク",
    "town": "東尾久",
    "town_kana": "ヒガシオグ",
    "street": "７丁目２−１０",
    "office_name": "東京都立医療技術短期大学",
    "office_name_kana": "トウキヨウトリツイリヨウギジユツタンキダイガク"
  },
  "8552": {
    "zip_code": "1168552",
    "prefecture": "東京都",
    "prefecture_kana": "トウキョウト",
    "prefecture_code": "13",
    "city": "荒川区",
    "city_kana": "アラカワク",
    "town": "荒川",
    "town_kana": "アラカワ",
    "street": "２丁目１−５セントラル荒川ビル８Ｆ",
    "office_name": "長島特殊塗料　株式会社",
    "office_name_kana": "ナガシマトクシユトリヨウ カブシキガイシヤ"
  },
  "8554": {
    "zip_code": "1168554",
    "prefecture": "東京都",
    "prefecture_kana": "トウキョウト",
    "prefecture_code": "13",
    "city": "荒川区",
    "city_kana": "アラカワク",
    "town": "東尾久",
    "town_kana": "ヒガシオグ",
    "street": "７−２−３５",
    "office_name": "株式会社　ＡＤＥＫＡ",
    "office_name_kana": "カブシキガイシヤ アデカ"
  },
  "8556": {
    "zip_code": "1168556",
    "prefecture": "東京都",
    "prefecture_kana": "トウキョウト",
    "prefecture_code": "13",
    "city": "荒川区",
    "city_kana": "アラカワク",
    "town": "西日暮里",
    "town_kana": "ニシニッポリ",
    "street": "２丁目２０−１ステーションポートタワービル６０２",
    "office_name": "高六商事　株式会社",
    "office_name_kana": "タカロクシヨウジ カブシキガイシヤ"
  },
  "8561": {
    "zip_code": "1168561",
    "prefecture": "東京都",
    "prefecture_kana": "トウキョウト",
    "prefecture_code": "13",
    "city": "荒川区",
    "city_kana": "アラカワク",
    "town": "西尾久",
    "town_kana": "ニシオグ",
    "street": "７丁目４９−８",
    "office_name": "日本アンテナ　株式会社",
    "office_name_kana": "ニツポンアンテナ カブシキガイシヤ"
  },
  "8562": {
    "zip_code": "1168562",
    "prefecture": "東京都",
    "prefecture_kana": "トウキョウト",
    "prefecture_code": "13",
    "city": "荒川区",
    "city_kana": "アラカワク",
    "town": "西尾久",
    "town_kana": "ニシオグ",
    "street": "７丁目３８−１",
    "office_name": "稲垣機材　株式会社",
    "office_name_kana": "イナガキキザイ カブシキガイシヤ"
  },
  "8567": {
    "zip_code": "1168567",
    "prefecture": "東京都",
    "prefecture_kana": "トウキョウト",
    "prefecture_code": "13",
    "city": "荒川区",
    "city_kana": "アラカワク",
    "town": "西尾久",
    "town_kana": "ニシオグ",
    "street": "２丁目１−１０",
    "office_name": "東京女子医科大学附属第二病院",
    "office_name_kana": "トウキヨウジヨシイカダイガクフゾクダイニビヨウイン"
  },
  "8571": {
    "zip_code": "1168571",
    "prefecture": "東京都",
    "prefecture_kana": "トウキョウト",
    "prefecture_code": "13",
    "city": "荒川区",
    "city_kana": "アラカワク",
    "town": "東日暮里",
    "town_kana": "ヒガシニッポリ",
    "street": "４−３−４",
    "office_name": "株式会社　ウチダ和漢薬",
    "office_name_kana": "カブシキガイシヤ ウチダワカンヤク"
  },
  "8580": {
    "zip_code": "1168580",
    "prefecture": "東京都",
    "prefecture_kana": "トウキョウト",
    "prefecture_code": "13",
    "city": "荒川区",
    "city_kana": "アラカワク",
    "town": "西日暮里",
    "town_kana": "ニシニッポリ",
    "street": "２丁目２７−５",
    "office_name": "（株）　ダイナム",
    "office_name_kana": "カブシキガイシヤ ダイナム"
  },
  "8581": {
    "zip_code": "1168581",
    "prefecture": "東京都",
    "prefecture_kana": "トウキョウト",
    "prefecture_code": "13",
    "city": "荒川区",
    "city_kana": "アラカワク",
    "town": "西日暮里",
    "town_kana": "ニシニッポリ",
    "street": "２丁目４０−１０",
    "office_name": "株式会社　サーベイリサーチセンター",
    "office_name_kana": "カブシキガイシヤ サ-ベイリサ-チセンタ-"
  },
  "8584": {
    "zip_code": "1168584",
    "prefecture": "東京都",
    "prefecture_kana": "トウキョウト",
    "prefecture_code": "13",
    "city": "荒川区",
    "city_kana": "アラカワク",
    "town": "西日暮里",
    "town_kana": "ニシニッポリ",
    "street": "５丁目５−２",
    "office_name": "イセキ販売金融　株式会社",
    "office_name_kana": "イセキハンバイキンユウ カブシキガイシヤ"
  },
  "8585": {
    "zip_code": "1168585",
    "prefecture": "東京都",
    "prefecture_kana": "トウキョウト",
    "prefecture_code": "13",
    "city": "荒川区",
    "city_kana": "アラカワク",
    "town": "西日暮里",
    "town_kana": "ニシニッポリ",
    "street": "２丁目５０−１０",
    "office_name": "井島貴金属精錬　株式会社",
    "office_name_kana": "イジマキキンゾクセイレン カブシキガイシヤ"
  },
  "8586": {
    "zip_code": "1168586",
    "prefecture": "東京都",
    "prefecture_kana": "トウキョウト",
    "prefecture_code": "13",
    "city": "荒川区",
    "city_kana": "アラカワク",
    "town": "西日暮里",
    "town_kana": "ニシニッポリ",
    "street": "２丁目２５−１−６０１",
    "office_name": "荒川都税事務所",
    "office_name_kana": "アラカワトゼイジムシヨ"
  },
  "8587": {
    "zip_code": "1168587",
    "prefecture": "東京都",
    "prefecture_kana": "トウキョウト",
    "prefecture_code": "13",
    "city": "荒川区",
    "city_kana": "アラカワク",
    "town": "西日暮里",
    "town_kana": "ニシニッポリ",
    "street": "６丁目２２−２２",
    "office_name": "クリナップ　株式会社",
    "office_name_kana": "クリナツプ カブシキガイシヤ"
  },
  "8588": {
    "zip_code": "1168588",
    "prefecture": "東京都",
    "prefecture_kana": "トウキョウト",
    "prefecture_code": "13",
    "city": "荒川区",
    "city_kana": "アラカワク",
    "town": "西日暮里",
    "town_kana": "ニシニッポリ",
    "street": "６丁目７−２",
    "office_name": "荒川税務署",
    "office_name_kana": "アラカワゼイムシヨ"
  },
  "8611": {
    "zip_code": "1168611",
    "prefecture": "東京都",
    "prefecture_kana": "トウキョウト",
    "prefecture_code": "13",
    "city": "荒川区",
    "city_kana": "アラカワク",
    "town": "南千住",
    "town_kana": "ミナミセンジュ",
    "street": "６丁目５６−１０（荒川郵便局私書箱第７号）",
    "office_name": "中山式産業　株式会社",
    "office_name_kana": "ナカヤマシキサンギヨウ カブシキガイシヤ"
  }
}