{
  "0002": {
    "zip_code": "1250002",
    "prefecture": "東京都",
    "prefecture_kana": "トウキョウト",
    "prefecture_code": 13,
    "city": "葛飾区",
    "city_kana": "カツシカク",
    "town": "西亀有",
    "town_kana": "ニシカメアリ",
    "street": null,
    "office_name": null,
    "office_name_kana": null
  },
  "0031": {
    "zip_code": "1250031",
    "prefecture": "東京都",
    "prefecture_kana": "トウキョウト",
    "prefecture_code": 13,
    "city": "葛飾区",
    "city_kana": "カツシカク",
    "town": "西水元",
    "town_kana": "ニシミズモト",
    "street": null,
    "office_name": null,
    "office_name_kana": null
  },
  "0032": {
    "zip_code": "1250032",
    "prefecture": "東京都",
    "prefecture_kana": "トウキョウト",
    "prefecture_code": 13,
    "city": "葛飾区",
    "city_kana": "カツシカク",
    "town": "水元",
    "town_kana": "ミズモト",
    "street": null,
    "office_name": null,
    "office_name_kana": null
  },
  "0033": {
    "zip_code": "1250033",
    "prefecture": "東京都",
    "prefecture_kana": "トウキョウト",
    "prefecture_code": 13,
    "city": "葛飾区",
    "city_kana": "カツシカク",
    "town": "東水元",
    "town_kana": "ヒガシミズモト",
    "street": null,
    "office_name": null,
    "office_name_kana": null
  },
  "0034": {
    "zip_code": "1250034",
    "prefecture": "東京都",
    "prefecture_kana": "トウキョウト",
    "prefecture_code": 13,
    "city": "葛飾区",
    "city_kana": "カツシカク",
    "town": "水元公園",
    "town_kana": "ミズモトコウエン",
    "street": null,
    "office_name": null,
    "office_name_kana": null
  },
  "0035": {
    "zip_code": "1250035",
    "prefecture": "東京都",
    "prefecture_kana": "トウキョウト",
    "prefecture_code": 13,
    "city": "葛飾区",
    "city_kana": "カツシカク",
    "town": "南水元",
    "town_kana": "ミナミミズモト",
    "street": null,
    "office_name": null,
    "office_name_kana": null
  },
  "0041": {
    "zip_code": "1250041",
    "prefecture": "東京都",
    "prefecture_kana": "トウキョウト",
    "prefecture_code": 13,
    "city": "葛飾区",
    "city_kana": "カツシカク",
    "town": "東金町",
    "town_kana": "ヒガシカナマチ",
    "street": null,
    "office_name": null,
    "office_name_kana": null
  },
  "0042": {
    "zip_code": "1250042",
    "prefecture": "東京都",
    "prefecture_kana": "トウキョウト",
    "prefecture_code": 13,
    "city": "葛飾区",
    "city_kana": "カツシカク",
    "town": "金町",
    "town_kana": "カナマチ",
    "street": null,
    "office_name": null,
    "office_name_kana": null
  },
  "0043": {
    "zip_code": "1250043",
    "prefecture": "東京都",
    "prefecture_kana": "トウキョウト",
    "prefecture_code": 13,
    "city": "葛飾区",
    "city_kana": "カツシカク",
    "town": "金町浄水場",
    "town_kana": "カナマチジョウスイジョウ",
    "street": null,
    "office_name": null,
    "office_name_kana": null
  },
  "0051": {
    "zip_code": "1250051",
    "prefecture": "東京都",
    "prefecture_kana": "トウキョウト",
    "prefecture_code": 13,
    "city": "葛飾区",
    "city_kana": "カツシカク",
    "town": "新宿",
    "town_kana": "ニイジュク",
    "street": null,
    "office_name": null,
    "office_name_kana": null
  },
  "0052": {
    "zip_code": "1250052",
    "prefecture": "東京都",
    "prefecture_kana": "トウキョウト",
    "prefecture_code": 13,
    "city": "葛飾区",
    "city_kana": "カツシカク",
    "town": "柴又",
    "town_kana": "シバマタ",
    "street": null,
    "office_name": null,
    "office_name_kana": null
  },
  "0053": {
    "zip_code": "1250053",
    "prefecture": "東京都",
    "prefecture_kana": "トウキョウト",
    "prefecture_code": 13,
    "city": "葛飾区",
    "city_kana": "カツシカク",
    "town": "鎌倉",
    "town_kana": "カマクラ",
    "street": null,
    "office_name": null,
    "office_name_kana": null
  },
  "0054": {
    "zip_code": "1250054",
    "prefecture": "東京都",
    "prefecture_kana": "トウキョウト",
    "prefecture_code": 13,
    "city": "葛飾区",
    "city_kana": "カツシカク",
    "town": "高砂",
    "town_kana": "タカサゴ",
    "street": null,
    "office_name": null,
    "office_name_kana": null
  },
  "0061": {
    "zip_code": "1250061",
    "prefecture": "東京都",
    "prefecture_kana": "トウキョウト",
    "prefecture_code": 13,
    "city": "葛飾区",
    "city_kana": "カツシカク",
    "town": "亀有",
    "town_kana": "カメアリ",
    "street": null,
    "office_name": null,
    "office_name_kana": null
  },
  "0062": {
    "zip_code": "1250062",
    "prefecture": "東京都",
    "prefecture_kana": "トウキョウト",
    "prefecture_code": 13,
    "city": "葛飾区",
    "city_kana": "カツシカク",
    "town": "青戸",
    "town_kana": "アオト",
    "street": null,
    "office_name": null,
    "office_name_kana": null
  },
  "0063": {
    "zip_code": "1250063",
    "prefecture": "東京都",
    "prefecture_kana": "トウキョウト",
    "prefecture_code": 13,
    "city": "葛飾区",
    "city_kana": "カツシカク",
    "town": "白鳥",
    "town_kana": "シラトリ",
    "street": null,
    "office_name": null,
    "office_name_kana": null
  },
  "8503": {
    "zip_code": "1258503",
    "prefecture": "東京都",
    "prefecture_kana": "トウキョウト",
    "prefecture_code": 13,
    "city": "葛飾区",
    "city_kana": "カツシカク",
    "town": "青戸",
    "town_kana": "アオト",
    "street": "４丁目１９−１６",
    "office_name": "株式会社　タカラトミー",
    "office_name_kana": "カブシキガイシヤ タカラトミ-"
  },
  "8504": {
    "zip_code": "1258504",
    "prefecture": "東京都",
    "prefecture_kana": "トウキョウト",
    "prefecture_code": 13,
    "city": "葛飾区",
    "city_kana": "カツシカク",
    "town": "青戸",
    "town_kana": "アオト",
    "street": "５丁目１７−５",
    "office_name": "石徳螺子　株式会社",
    "office_name_kana": "イシトクラシ カブシキガイシヤ"
  },
  "8505": {
    "zip_code": "1258505",
    "prefecture": "東京都",
    "prefecture_kana": "トウキョウト",
    "prefecture_code": 13,
    "city": "葛飾区",
    "city_kana": "カツシカク",
    "town": "青戸",
    "town_kana": "アオト",
    "street": "５丁目３０−４",
    "office_name": "三和ニードルベアリング　株式会社",
    "office_name_kana": "サンワニ-ドルベアリング カブシキガイシヤ"
  },
  "8506": {
    "zip_code": "1258506",
    "prefecture": "東京都",
    "prefecture_kana": "トウキョウト",
    "prefecture_code": 13,
    "city": "葛飾区",
    "city_kana": "カツシカク",
    "town": "青戸",
    "town_kana": "アオト",
    "street": "６丁目４１番２号",
    "office_name": "東京慈恵会　医科大学葛飾医療センター",
    "office_name_kana": "トウキヨウジケイカイ イカダイガクカツシカイリヨウセンタ-"
  },
  "8507": {
    "zip_code": "1258507",
    "prefecture": "東京都",
    "prefecture_kana": "トウキョウト",
    "prefecture_code": 13,
    "city": "葛飾区",
    "city_kana": "カツシカク",
    "town": "青戸",
    "town_kana": "アオト",
    "street": "８丁目１０−１",
    "office_name": "修徳高等学校",
    "office_name_kana": "シユウトクコウトウガツコウ"
  },
  "8508": {
    "zip_code": "1258508",
    "prefecture": "東京都",
    "prefecture_kana": "トウキョウト",
    "prefecture_code": 13,
    "city": "葛飾区",
    "city_kana": "カツシカク",
    "town": "亀有",
    "town_kana": "カメアリ",
    "street": "３丁目１３−１",
    "office_name": "亀有信用金庫",
    "office_name_kana": "カメアリシンヨウキンコ"
  },
  "8511": {
    "zip_code": "1258511",
    "prefecture": "東京都",
    "prefecture_kana": "トウキョウト",
    "prefecture_code": 13,
    "city": "葛飾区",
    "city_kana": "カツシカク",
    "town": "亀有",
    "town_kana": "カメアリ",
    "street": "５丁目１４−１",
    "office_name": "アルフレッサ・ヘルスケア",
    "office_name_kana": "アルフレツサ・ヘルスケア"
  },
  "8512": {
    "zip_code": "1258512",
    "prefecture": "東京都",
    "prefecture_kana": "トウキョウト",
    "prefecture_code": 13,
    "city": "葛飾区",
    "city_kana": "カツシカク",
    "town": "亀有",
    "town_kana": "カメアリ",
    "street": "５丁目１４−１０",
    "office_name": "（財）　東京都保健医療公社　東部地域病院",
    "office_name_kana": "(ザイ) トウキヨウトホケンイリヨウコウシヤ トウブチイキビヨウイン"
  },
  "8513": {
    "zip_code": "1258513",
    "prefecture": "東京都",
    "prefecture_kana": "トウキョウト",
    "prefecture_code": 13,
    "city": "葛飾区",
    "city_kana": "カツシカク",
    "town": "高砂",
    "town_kana": "タカサゴ",
    "street": "５丁目３５−１２",
    "office_name": "株式会社　ジョイフルまるやま",
    "office_name_kana": "カブシキガイシヤ ジヨイフルマルヤマ"
  },
  "8514": {
    "zip_code": "1258514",
    "prefecture": "東京都",
    "prefecture_kana": "トウキョウト",
    "prefecture_code": 13,
    "city": "葛飾区",
    "city_kana": "カツシカク",
    "town": "高砂",
    "town_kana": "タカサゴ",
    "street": "８丁目２９−５",
    "office_name": "株式会社　京成ストア",
    "office_name_kana": "カブシキガイシヤ ケイセイストア"
  },
  "8515": {
    "zip_code": "1258515",
    "prefecture": "東京都",
    "prefecture_kana": "トウキョウト",
    "prefecture_code": 13,
    "city": "葛飾区",
    "city_kana": "カツシカク",
    "town": "白鳥",
    "town_kana": "シラトリ",
    "street": "３丁目２６−４",
    "office_name": "株式会社　タカシマ",
    "office_name_kana": "カブシキガイシヤ タカシマ"
  },
  "8517": {
    "zip_code": "1258517",
    "prefecture": "東京都",
    "prefecture_kana": "トウキョウト",
    "prefecture_code": 13,
    "city": "葛飾区",
    "city_kana": "カツシカク",
    "town": "青戸",
    "town_kana": "アオト",
    "street": "３丁目３７−１５",
    "office_name": "京成不動産　株式会社",
    "office_name_kana": "ケイセイフドウサン カブシキガイシヤ"
  },
  "8520": {
    "zip_code": "1258520",
    "prefecture": "東京都",
    "prefecture_kana": "トウキョウト",
    "prefecture_code": 13,
    "city": "葛飾区",
    "city_kana": "カツシカク",
    "town": "亀有",
    "town_kana": "カメアリ",
    "street": "３丁目３６−３",
    "office_name": "亀有病院",
    "office_name_kana": "カメアリビヨウイン"
  },
  "8522": {
    "zip_code": "1258522",
    "prefecture": "東京都",
    "prefecture_kana": "トウキョウト",
    "prefecture_code": 13,
    "city": "葛飾区",
    "city_kana": "カツシカク",
    "town": "金町",
    "town_kana": "カナマチ",
    "street": "１丁目６−２４",
    "office_name": "葛飾区東福祉サービスセンター",
    "office_name_kana": "カツシカクヒガシフクシサ-ビスセンタ-"
  },
  "8526": {
    "zip_code": "1258526",
    "prefecture": "東京都",
    "prefecture_kana": "トウキョウト",
    "prefecture_code": 13,
    "city": "葛飾区",
    "city_kana": "カツシカク",
    "town": "東金町",
    "town_kana": "ヒガシカナマチ",
    "street": "１−１３−６",
    "office_name": "株式会社　三王商会",
    "office_name_kana": "カブシキガイシヤ サンオウシヨウカイ"
  },
  "8585": {
    "zip_code": "1258585",
    "prefecture": "東京都",
    "prefecture_kana": "トウキョウト",
    "prefecture_code": 13,
    "city": "葛飾区",
    "city_kana": "カツシカク",
    "town": "新宿",
    "town_kana": "ニイジュク",
    "street": "６−３−１",
    "office_name": "学校法人　東京理科大学",
    "office_name_kana": "ガツコウホウジン トウキヨウリカダイガク"
  },
  "8588": {
    "zip_code": "1258588",
    "prefecture": "東京都",
    "prefecture_kana": "トウキョウト",
    "prefecture_code": 13,
    "city": "葛飾区",
    "city_kana": "カツシカク",
    "town": "金町",
    "town_kana": "カナマチ",
    "street": "１丁目９−１",
    "office_name": "医療法人社団　玲瓏会　金町中央病院",
    "office_name_kana": "イリヨウホウジンシヤダン レイロウカイ カナマチチユウオウビヨウイン"
  },
  "8601": {
    "zip_code": "1258601",
    "prefecture": "東京都",
    "prefecture_kana": "トウキョウト",
    "prefecture_code": 13,
    "city": "葛飾区",
    "city_kana": "カツシカク",
    "town": "新宿",
    "town_kana": "ニイジュク",
    "street": "６丁目１番１号",
    "office_name": "三菱ガス化学　株式会社　東京テクノパーク",
    "office_name_kana": "ミツビシガスカガク カブシキガイシヤ トウキヨウテクノパ-ク"
  }
}