{
  "0000": {
    "zip_code": "1320000",
    "prefecture": "東京都",
    "prefecture_kana": "トウキョウト",
    "prefecture_code": 13,
    "city": "江戸川区",
    "city_kana": "エドガワク",
    "town": "",
    "town_kana": "",
    "street": null,
    "office_name": null,
    "office_name_kana": null
  },
  "0001": {
    "zip_code": "1320001",
    "prefecture": "東京都",
    "prefecture_kana": "トウキョウト",
    "prefecture_code": 13,
    "city": "江戸川区",
    "city_kana": "エドガワク",
    "town": "新堀",
    "town_kana": "ニイホリ",
    "street": null,
    "office_name": null,
    "office_name_kana": null
  },
  "0002": {
    "zip_code": "1320002",
    "prefecture": "東京都",
    "prefecture_kana": "トウキョウト",
    "prefecture_code": 13,
    "city": "江戸川区",
    "city_kana": "エドガワク",
    "town": "谷河内",
    "town_kana": "ヤゴウチ",
    "street": null,
    "office_name": null,
    "office_name_kana": null
  },
  "0003": {
    "zip_code": "1320003",
    "prefecture": "東京都",
    "prefecture_kana": "トウキョウト",
    "prefecture_code": 13,
    "city": "江戸川区",
    "city_kana": "エドガワク",
    "town": "春江町",
    "town_kana": "ハルエチョウ",
    "street": null,
    "office_name": null,
    "office_name_kana": null
  },
  "0011": {
    "zip_code": "1320011",
    "prefecture": "東京都",
    "prefecture_kana": "トウキョウト",
    "prefecture_code": 13,
    "city": "江戸川区",
    "city_kana": "エドガワク",
    "town": "瑞江",
    "town_kana": "ミズエ",
    "street": null,
    "office_name": null,
    "office_name_kana": null
  },
  "0013": {
    "zip_code": "1320013",
    "prefecture": "東京都",
    "prefecture_kana": "トウキョウト",
    "prefecture_code": 13,
    "city": "江戸川区",
    "city_kana": "エドガワク",
    "town": "江戸川",
    "town_kana": "エドガワ",
    "street": null,
    "office_name": null,
    "office_name_kana": null
  },
  "0014": {
    "zip_code": "1320014",
    "prefecture": "東京都",
    "prefecture_kana": "トウキョウト",
    "prefecture_code": 13,
    "city": "江戸川区",
    "city_kana": "エドガワク",
    "town": "東瑞江",
    "town_kana": "ヒガシミズエ",
    "street": null,
    "office_name": null,
    "office_name_kana": null
  },
  "0015": {
    "zip_code": "1320015",
    "prefecture": "東京都",
    "prefecture_kana": "トウキョウト",
    "prefecture_code": 13,
    "city": "江戸川区",
    "city_kana": "エドガワク",
    "town": "西瑞江",
    "town_kana": "ニシミズエ",
    "street": null,
    "office_name": null,
    "office_name_kana": null
  },
  "0021": {
    "zip_code": "1320021",
    "prefecture": "東京都",
    "prefecture_kana": "トウキョウト",
    "prefecture_code": 13,
    "city": "江戸川区",
    "city_kana": "エドガワク",
    "town": "中央",
    "town_kana": "チュウオウ",
    "street": null,
    "office_name": null,
    "office_name_kana": null
  },
  "0022": {
    "zip_code": "1320022",
    "prefecture": "東京都",
    "prefecture_kana": "トウキョウト",
    "prefecture_code": 13,
    "city": "江戸川区",
    "city_kana": "エドガワク",
    "town": "大杉",
    "town_kana": "オオスギ",
    "street": null,
    "office_name": null,
    "office_name_kana": null
  },
  "0023": {
    "zip_code": "1320023",
    "prefecture": "東京都",
    "prefecture_kana": "トウキョウト",
    "prefecture_code": 13,
    "city": "江戸川区",
    "city_kana": "エドガワク",
    "town": "西一之江",
    "town_kana": "ニシイチノエ",
    "street": null,
    "office_name": null,
    "office_name_kana": null
  },
  "0024": {
    "zip_code": "1320024",
    "prefecture": "東京都",
    "prefecture_kana": "トウキョウト",
    "prefecture_code": 13,
    "city": "江戸川区",
    "city_kana": "エドガワク",
    "town": "一之江",
    "town_kana": "イチノエ",
    "street": null,
    "office_name": null,
    "office_name_kana": null
  },
  "0025": {
    "zip_code": "1320025",
    "prefecture": "東京都",
    "prefecture_kana": "トウキョウト",
    "prefecture_code": 13,
    "city": "江戸川区",
    "city_kana": "エドガワク",
    "town": "松江",
    "town_kana": "マツエ",
    "street": null,
    "office_name": null,
    "office_name_kana": null
  },
  "0031": {
    "zip_code": "1320031",
    "prefecture": "東京都",
    "prefecture_kana": "トウキョウト",
    "prefecture_code": 13,
    "city": "江戸川区",
    "city_kana": "エドガワク",
    "town": "松島",
    "town_kana": "マツシマ",
    "street": null,
    "office_name": null,
    "office_name_kana": null
  },
  "0032": {
    "zip_code": "1320032",
    "prefecture": "東京都",
    "prefecture_kana": "トウキョウト",
    "prefecture_code": 13,
    "city": "江戸川区",
    "city_kana": "エドガワク",
    "town": "西小松川町",
    "town_kana": "ニシコマツガワマチ",
    "street": null,
    "office_name": null,
    "office_name_kana": null
  },
  "0033": {
    "zip_code": "1320033",
    "prefecture": "東京都",
    "prefecture_kana": "トウキョウト",
    "prefecture_code": 13,
    "city": "江戸川区",
    "city_kana": "エドガワク",
    "town": "東小松川",
    "town_kana": "ヒガシコマツガワ",
    "street": null,
    "office_name": null,
    "office_name_kana": null
  },
  "0034": {
    "zip_code": "1320034",
    "prefecture": "東京都",
    "prefecture_kana": "トウキョウト",
    "prefecture_code": 13,
    "city": "江戸川区",
    "city_kana": "エドガワク",
    "town": "小松川",
    "town_kana": "コマツガワ",
    "street": null,
    "office_name": null,
    "office_name_kana": null
  },
  "0035": {
    "zip_code": "1320035",
    "prefecture": "東京都",
    "prefecture_kana": "トウキョウト",
    "prefecture_code": 13,
    "city": "江戸川区",
    "city_kana": "エドガワク",
    "town": "平井",
    "town_kana": "ヒライ",
    "street": null,
    "office_name": null,
    "office_name_kana": null
  },
  "8501": {
    "zip_code": "1328501",
    "prefecture": "東京都",
    "prefecture_kana": "トウキョウト",
    "prefecture_code": 13,
    "city": "江戸川区",
    "city_kana": "エドガワク",
    "town": "中央",
    "town_kana": "チュウオウ",
    "street": "１丁目４−１",
    "office_name": "江戸川区役所",
    "office_name_kana": "エドガワクヤクシヨ"
  },
  "8503": {
    "zip_code": "1328503",
    "prefecture": "東京都",
    "prefecture_kana": "トウキョウト",
    "prefecture_code": 13,
    "city": "江戸川区",
    "city_kana": "エドガワク",
    "town": "松江",
    "town_kana": "マツエ",
    "street": "５丁目２−１０",
    "office_name": "京和工業　（株）",
    "office_name_kana": "キヨウワコウギヨウ (カ"
  },
  "8507": {
    "zip_code": "1328507",
    "prefecture": "東京都",
    "prefecture_kana": "トウキョウト",
    "prefecture_code": 13,
    "city": "江戸川区",
    "city_kana": "エドガワク",
    "town": "中央",
    "town_kana": "チュウオウ",
    "street": "４丁目２４−１９",
    "office_name": "江戸川保健所",
    "office_name_kana": "エドガワホケンジヨ"
  },
  "8533": {
    "zip_code": "1328533",
    "prefecture": "東京都",
    "prefecture_kana": "トウキョウト",
    "prefecture_code": 13,
    "city": "江戸川区",
    "city_kana": "エドガワク",
    "town": "松江",
    "town_kana": "マツエ",
    "street": "５丁目２−９",
    "office_name": "株式会社　小松川プラスチックス",
    "office_name_kana": "カ) コマツガワプラスチツクス"
  },
  "8550": {
    "zip_code": "1328550",
    "prefecture": "東京都",
    "prefecture_kana": "トウキョウト",
    "prefecture_code": 13,
    "city": "江戸川区",
    "city_kana": "エドガワク",
    "town": "中央",
    "town_kana": "チュウオウ",
    "street": "１丁目５−３",
    "office_name": "東京電力　株式会社　江東支店　江戸川営業センター",
    "office_name_kana": "トウキヨウデンリヨク カブシキガイシヤ コウトウシテン エドガワエイギヨウセンタ-"
  },
  "8551": {
    "zip_code": "1328551",
    "prefecture": "東京都",
    "prefecture_kana": "トウキョウト",
    "prefecture_code": 13,
    "city": "江戸川区",
    "city_kana": "エドガワク",
    "town": "中央",
    "town_kana": "チュウオウ",
    "street": "４丁目２４−１９",
    "office_name": "東京都江戸川都税事務所",
    "office_name_kana": "トウキヨウトエドガワトゼイジムシヨ"
  },
  "8555": {
    "zip_code": "1328555",
    "prefecture": "東京都",
    "prefecture_kana": "トウキョウト",
    "prefecture_code": 13,
    "city": "江戸川区",
    "city_kana": "エドガワク",
    "town": "西瑞江",
    "town_kana": "ニシミズエ",
    "street": "２丁目２０−８",
    "office_name": "株式会社　大同商会",
    "office_name_kana": "カブシキガイシヤ ダイドウシヨウカイ"
  },
  "8562": {
    "zip_code": "1328562",
    "prefecture": "東京都",
    "prefecture_kana": "トウキョウト",
    "prefecture_code": 13,
    "city": "江戸川区",
    "city_kana": "エドガワク",
    "town": "松江",
    "town_kana": "マツエ",
    "street": "５丁目１０−９",
    "office_name": "（株）　ホリゾン東テクノ",
    "office_name_kana": "(カブ) ホリゾンヒガシテクノ"
  },
  "8567": {
    "zip_code": "1328567",
    "prefecture": "東京都",
    "prefecture_kana": "トウキョウト",
    "prefecture_code": 13,
    "city": "江戸川区",
    "city_kana": "エドガワク",
    "town": "松江",
    "town_kana": "マツエ",
    "street": "５丁目４−１２",
    "office_name": "東京都水道局　江戸川営業所",
    "office_name_kana": "トウキヨウトスイドウキヨク エドガワエイギヨウシヨ"
  },
  "8585": {
    "zip_code": "1328585",
    "prefecture": "東京都",
    "prefecture_kana": "トウキョウト",
    "prefecture_code": 13,
    "city": "江戸川区",
    "city_kana": "エドガワク",
    "town": "中央",
    "town_kana": "チュウオウ",
    "street": "１丁目１６−２",
    "office_name": "東京法務局　江戸川出張所",
    "office_name_kana": "トウキヨウホウムキヨク エドガワシユツチヨウジヨ"
  },
  "8601": {
    "zip_code": "1328601",
    "prefecture": "東京都",
    "prefecture_kana": "トウキョウト",
    "prefecture_code": 13,
    "city": "江戸川区",
    "city_kana": "エドガワク",
    "town": "松江",
    "town_kana": "マツエ",
    "street": "１丁目２２−１４",
    "office_name": "東金属　株式会社",
    "office_name_kana": "アズマキンゾク カブシキガイシヤ"
  },
  "8666": {
    "zip_code": "1328666",
    "prefecture": "東京都",
    "prefecture_kana": "トウキョウト",
    "prefecture_code": 13,
    "city": "江戸川区",
    "city_kana": "エドガワク",
    "town": "中央",
    "town_kana": "チュウオウ",
    "street": "１丁目８−１",
    "office_name": "内宮運輸機工　株式会社",
    "office_name_kana": "ウチミヤウンユキコウ カブシキガイシヤ"
  },
  "8668": {
    "zip_code": "1328668",
    "prefecture": "東京都",
    "prefecture_kana": "トウキョウト",
    "prefecture_code": 13,
    "city": "江戸川区",
    "city_kana": "エドガワク",
    "town": "平井",
    "town_kana": "ヒライ",
    "street": "１丁目１６−１１",
    "office_name": "江戸川北税務署",
    "office_name_kana": "エドガワキタゼイムシヨ"
  },
  "8674": {
    "zip_code": "1328674",
    "prefecture": "東京都",
    "prefecture_kana": "トウキョウト",
    "prefecture_code": 13,
    "city": "江戸川区",
    "city_kana": "エドガワク",
    "town": "中央",
    "town_kana": "チュウオウ",
    "street": "４丁目２４−１４",
    "office_name": "社団法人　江戸川区　医師会",
    "office_name_kana": "シヤダンホウジン エドガワク イシカイ"
  },
  "8686": {
    "zip_code": "1328686",
    "prefecture": "東京都",
    "prefecture_kana": "トウキョウト",
    "prefecture_code": 13,
    "city": "江戸川区",
    "city_kana": "エドガワク",
    "town": "松江",
    "town_kana": "マツエ",
    "street": "７丁目８−１０",
    "office_name": "タイヘイ　株式会社",
    "office_name_kana": "タイヘイ カブシキガイシヤ"
  },
  "8688": {
    "zip_code": "1328688",
    "prefecture": "東京都",
    "prefecture_kana": "トウキョウト",
    "prefecture_code": 13,
    "city": "江戸川区",
    "city_kana": "エドガワク",
    "town": "春江町",
    "town_kana": "ハルエチョウ",
    "street": "２丁目３１−１５",
    "office_name": "興伸",
    "office_name_kana": "コウシン"
  },
  "8711": {
    "zip_code": "1328711",
    "prefecture": "東京都",
    "prefecture_kana": "トウキョウト",
    "prefecture_code": 13,
    "city": "江戸川区",
    "city_kana": "エドガワク",
    "town": "平井",
    "town_kana": "ヒライ",
    "street": "６丁目２３−２３",
    "office_name": "小松川信用金庫",
    "office_name_kana": "コマツガワシンヨウキンコ"
  },
  "8730": {
    "zip_code": "1328730",
    "prefecture": "東京都",
    "prefecture_kana": "トウキョウト",
    "prefecture_code": 13,
    "city": "江戸川区",
    "city_kana": "エドガワク",
    "town": "中央",
    "town_kana": "チュウオウ",
    "street": "４丁目１−７（江戸川郵便局私書箱第１２号）",
    "office_name": "アイリス企画",
    "office_name_kana": "アイリスキカク"
  },
  "8732": {
    "zip_code": "1328732",
    "prefecture": "東京都",
    "prefecture_kana": "トウキョウト",
    "prefecture_code": 13,
    "city": "江戸川区",
    "city_kana": "エドガワク",
    "town": "中央",
    "town_kana": "チュウオウ",
    "street": "１丁目３−５（江戸川郵便局私書箱第４号）",
    "office_name": "ネグロス電工　株式会社",
    "office_name_kana": "ネグロスデンコウ カブシキガイシヤ"
  },
  "8739": {
    "zip_code": "1328739",
    "prefecture": "東京都",
    "prefecture_kana": "トウキョウト",
    "prefecture_code": 13,
    "city": "江戸川区",
    "city_kana": "エドガワク",
    "town": "松島",
    "town_kana": "マツシマ",
    "street": "１丁目２４−１５（江戸川郵便局私書箱第２４号）",
    "office_name": "スピーディ",
    "office_name_kana": "スピ-デイ"
  }
}