{
  "0002": {
    "zip_code": "1330002",
    "prefecture": "東京都",
    "prefecture_kana": "トウキョウト",
    "prefecture_code": 13,
    "city": "江戸川区",
    "city_kana": "エドガワク",
    "town": "谷河内",
    "town_kana": "ヤゴウチ",
    "street": null,
    "office_name": null,
    "office_name_kana": null
  },
  "0041": {
    "zip_code": "1330041",
    "prefecture": "東京都",
    "prefecture_kana": "トウキョウト",
    "prefecture_code": 13,
    "city": "江戸川区",
    "city_kana": "エドガワク",
    "town": "上一色",
    "town_kana": "カミイッシキ",
    "street": null,
    "office_name": null,
    "office_name_kana": null
  },
  "0042": {
    "zip_code": "1330042",
    "prefecture": "東京都",
    "prefecture_kana": "トウキョウト",
    "prefecture_code": 13,
    "city": "江戸川区",
    "city_kana": "エドガワク",
    "town": "興宮町",
    "town_kana": "オキノミヤチョウ",
    "street": null,
    "office_name": null,
    "office_name_kana": null
  },
  "0043": {
    "zip_code": "1330043",
    "prefecture": "東京都",
    "prefecture_kana": "トウキョウト",
    "prefecture_code": 13,
    "city": "江戸川区",
    "city_kana": "エドガワク",
    "town": "松本",
    "town_kana": "マツモト",
    "street": null,
    "office_name": null,
    "office_name_kana": null
  },
  "0044": {
    "zip_code": "1330044",
    "prefecture": "東京都",
    "prefecture_kana": "トウキョウト",
    "prefecture_code": 13,
    "city": "江戸川区",
    "city_kana": "エドガワク",
    "town": "本一色",
    "town_kana": "ホンイッシキ",
    "street": null,
    "office_name": null,
    "office_name_kana": null
  },
  "0051": {
    "zip_code": "1330051",
    "prefecture": "東京都",
    "prefecture_kana": "トウキョウト",
    "prefecture_code": 13,
    "city": "江戸川区",
    "city_kana": "エドガワク",
    "town": "北小岩",
    "town_kana": "キタコイワ",
    "street": null,
    "office_name": null,
    "office_name_kana": null
  },
  "0052": {
    "zip_code": "1330052",
    "prefecture": "東京都",
    "prefecture_kana": "トウキョウト",
    "prefecture_code": 13,
    "city": "江戸川区",
    "city_kana": "エドガワク",
    "town": "東小岩",
    "town_kana": "ヒガシコイワ",
    "street": null,
    "office_name": null,
    "office_name_kana": null
  },
  "0053": {
    "zip_code": "1330053",
    "prefecture": "東京都",
    "prefecture_kana": "トウキョウト",
    "prefecture_code": 13,
    "city": "江戸川区",
    "city_kana": "エドガワク",
    "town": "北篠崎",
    "town_kana": "キタシノザキ",
    "street": null,
    "office_name": null,
    "office_name_kana": null
  },
  "0054": {
    "zip_code": "1330054",
    "prefecture": "東京都",
    "prefecture_kana": "トウキョウト",
    "prefecture_code": 13,
    "city": "江戸川区",
    "city_kana": "エドガワク",
    "town": "上篠崎",
    "town_kana": "カミシノザキ",
    "street": null,
    "office_name": null,
    "office_name_kana": null
  },
  "0055": {
    "zip_code": "1330055",
    "prefecture": "東京都",
    "prefecture_kana": "トウキョウト",
    "prefecture_code": 13,
    "city": "江戸川区",
    "city_kana": "エドガワク",
    "town": "西篠崎",
    "town_kana": "ニシシノザキ",
    "street": null,
    "office_name": null,
    "office_name_kana": null
  },
  "0056": {
    "zip_code": "1330056",
    "prefecture": "東京都",
    "prefecture_kana": "トウキョウト",
    "prefecture_code": 13,
    "city": "江戸川区",
    "city_kana": "エドガワク",
    "town": "南小岩",
    "town_kana": "ミナミコイワ",
    "street": null,
    "office_name": null,
    "office_name_kana": null
  },
  "0057": {
    "zip_code": "1330057",
    "prefecture": "東京都",
    "prefecture_kana": "トウキョウト",
    "prefecture_code": 13,
    "city": "江戸川区",
    "city_kana": "エドガワク",
    "town": "西小岩",
    "town_kana": "ニシコイワ",
    "street": null,
    "office_name": null,
    "office_name_kana": null
  },
  "0061": {
    "zip_code": "1330061",
    "prefecture": "東京都",
    "prefecture_kana": "トウキョウト",
    "prefecture_code": 13,
    "city": "江戸川区",
    "city_kana": "エドガワク",
    "town": "篠崎町",
    "town_kana": "シノザキマチ",
    "street": null,
    "office_name": null,
    "office_name_kana": null
  },
  "0062": {
    "zip_code": "1330062",
    "prefecture": "東京都",
    "prefecture_kana": "トウキョウト",
    "prefecture_code": 13,
    "city": "江戸川区",
    "city_kana": "エドガワク",
    "town": "東篠崎町",
    "town_kana": "ヒガシシノザキマチ",
    "street": null,
    "office_name": null,
    "office_name_kana": null
  },
  "0063": {
    "zip_code": "1330063",
    "prefecture": "東京都",
    "prefecture_kana": "トウキョウト",
    "prefecture_code": 13,
    "city": "江戸川区",
    "city_kana": "エドガワク",
    "town": "東篠崎",
    "town_kana": "ヒガシシノザキ",
    "street": null,
    "office_name": null,
    "office_name_kana": null
  },
  "0064": {
    "zip_code": "1330064",
    "prefecture": "東京都",
    "prefecture_kana": "トウキョウト",
    "prefecture_code": 13,
    "city": "江戸川区",
    "city_kana": "エドガワク",
    "town": "下篠崎町",
    "town_kana": "シモシノザキマチ",
    "street": null,
    "office_name": null,
    "office_name_kana": null
  },
  "0065": {
    "zip_code": "1330065",
    "prefecture": "東京都",
    "prefecture_kana": "トウキョウト",
    "prefecture_code": 13,
    "city": "江戸川区",
    "city_kana": "エドガワク",
    "town": "南篠崎町",
    "town_kana": "ミナミシノザキマチ",
    "street": null,
    "office_name": null,
    "office_name_kana": null
  },
  "0071": {
    "zip_code": "1330071",
    "prefecture": "東京都",
    "prefecture_kana": "トウキョウト",
    "prefecture_code": 13,
    "city": "江戸川区",
    "city_kana": "エドガワク",
    "town": "東松本",
    "town_kana": "ヒガシマツモト",
    "street": null,
    "office_name": null,
    "office_name_kana": null
  },
  "0072": {
    "zip_code": "1330072",
    "prefecture": "東京都",
    "prefecture_kana": "トウキョウト",
    "prefecture_code": 13,
    "city": "江戸川区",
    "city_kana": "エドガワク",
    "town": "鹿骨町",
    "town_kana": "シシボネチョウ",
    "street": null,
    "office_name": null,
    "office_name_kana": null
  },
  "0073": {
    "zip_code": "1330073",
    "prefecture": "東京都",
    "prefecture_kana": "トウキョウト",
    "prefecture_code": 13,
    "city": "江戸川区",
    "city_kana": "エドガワク",
    "town": "鹿骨",
    "town_kana": "シシボネ",
    "street": null,
    "office_name": null,
    "office_name_kana": null
  },
  "8501": {
    "zip_code": "1338501",
    "prefecture": "東京都",
    "prefecture_kana": "トウキョウト",
    "prefecture_code": 13,
    "city": "江戸川区",
    "city_kana": "エドガワク",
    "town": "上一色",
    "town_kana": "カミイッシキ",
    "street": "３丁目２２−１",
    "office_name": "エステイワイ工業　株式会社",
    "office_name_kana": "エステイワイコウギヨウ カブシキガイシヤ"
  },
  "8511": {
    "zip_code": "1338511",
    "prefecture": "東京都",
    "prefecture_kana": "トウキョウト",
    "prefecture_code": 13,
    "city": "江戸川区",
    "city_kana": "エドガワク",
    "town": "東篠崎",
    "town_kana": "ヒガシシノザキ",
    "street": "２丁目３−２",
    "office_name": "王子製紙　（株）　江戸川工場",
    "office_name_kana": "オウジセイシ (カブ) エドガワコウジヨウ"
  },
  "8552": {
    "zip_code": "1338552",
    "prefecture": "東京都",
    "prefecture_kana": "トウキョウト",
    "prefecture_code": 13,
    "city": "江戸川区",
    "city_kana": "エドガワク",
    "town": "東小岩",
    "town_kana": "ヒガシコイワ",
    "street": "５丁目２２−１",
    "office_name": "学校法人　江戸川学園　江戸川女子中学校　江戸川女子高等学校",
    "office_name_kana": "ガツコウホウジン エドガワガクエン エドガワジヨシチユウガツコウ エドガワジヨシコウトウガツコウ"
  },
  "8553": {
    "zip_code": "1338553",
    "prefecture": "東京都",
    "prefecture_kana": "トウキョウト",
    "prefecture_code": 13,
    "city": "江戸川区",
    "city_kana": "エドガワク",
    "town": "東小岩",
    "town_kana": "ヒガシコイワ",
    "street": "５丁目４−１２",
    "office_name": "株式会社　丸昌　小岩店",
    "office_name_kana": "カブシキガイシヤ マルシヨウ コイワテン"
  },
  "8558": {
    "zip_code": "1338558",
    "prefecture": "東京都",
    "prefecture_kana": "トウキョウト",
    "prefecture_code": 13,
    "city": "江戸川区",
    "city_kana": "エドガワク",
    "town": "東松本",
    "town_kana": "ヒガシマツモト",
    "street": "２丁目１７−９",
    "office_name": "株式会社　タカノスマイル",
    "office_name_kana": "カブシキガイシヤ タカノスマイル"
  },
  "8580": {
    "zip_code": "1338580",
    "prefecture": "東京都",
    "prefecture_kana": "トウキョウト",
    "prefecture_code": 13,
    "city": "江戸川区",
    "city_kana": "エドガワク",
    "town": "東篠崎",
    "town_kana": "ヒガシシノザキ",
    "street": "２丁目３−３",
    "office_name": "王子パッケージング　（株）",
    "office_name_kana": "オウジパツケ-ジング カブシキガイシヤ"
  },
  "8585": {
    "zip_code": "1338585",
    "prefecture": "東京都",
    "prefecture_kana": "トウキョウト",
    "prefecture_code": 13,
    "city": "江戸川区",
    "city_kana": "エドガワク",
    "town": "西小岩",
    "town_kana": "ニシコイワ",
    "street": "５丁目７−１",
    "office_name": "学校法人　愛国学園",
    "office_name_kana": "ガツコウホウジン アイコクガクエン"
  },
  "8704": {
    "zip_code": "1338704",
    "prefecture": "東京都",
    "prefecture_kana": "トウキョウト",
    "prefecture_code": 13,
    "city": "江戸川区",
    "city_kana": "エドガワク",
    "town": "南小岩",
    "town_kana": "ミナミコイワ",
    "street": "７丁目２２−６（小岩郵便局私書箱第３１号）",
    "office_name": "野村証券　株式会社　小岩支店",
    "office_name_kana": "ノムラシヨウケン カブシキガイシヤ コイワシテン"
  },
  "8706": {
    "zip_code": "1338706",
    "prefecture": "東京都",
    "prefecture_kana": "トウキョウト",
    "prefecture_code": 13,
    "city": "江戸川区",
    "city_kana": "エドガワク",
    "town": "一之江",
    "town_kana": "イチノエ",
    "street": "１丁目１９−８（小岩郵便局私書箱第６号）",
    "office_name": "株式会社　興伸デリバリーセンター　モンダミン係",
    "office_name_kana": "カブシキガイシヤ コウシンデリバリ-センタ- モンダミンカカリ"
  }
}