{
  "0000": {
    "zip_code": "1350000",
    "prefecture": "東京都",
    "prefecture_kana": "トウキョウト",
    "prefecture_code": "13",
    "city": "江東区",
    "city_kana": "コウトウク",
    "town": "",
    "town_kana": "",
    "street": null,
    "office_name": null,
    "office_name_kana": null
  },
  "0001": {
    "zip_code": "1350001",
    "prefecture": "東京都",
    "prefecture_kana": "トウキョウト",
    "prefecture_code": "13",
    "city": "江東区",
    "city_kana": "コウトウク",
    "town": "毛利",
    "town_kana": "モウリ",
    "street": null,
    "office_name": null,
    "office_name_kana": null
  },
  "0002": {
    "zip_code": "1350002",
    "prefecture": "東京都",
    "prefecture_kana": "トウキョウト",
    "prefecture_code": "13",
    "city": "江東区",
    "city_kana": "コウトウク",
    "town": "住吉",
    "town_kana": "スミヨシ",
    "street": null,
    "office_name": null,
    "office_name_kana": null
  },
  "0003": {
    "zip_code": "1350003",
    "prefecture": "東京都",
    "prefecture_kana": "トウキョウト",
    "prefecture_code": "13",
    "city": "江東区",
    "city_kana": "コウトウク",
    "town": "猿江",
    "town_kana": "サルエ",
    "street": null,
    "office_name": null,
    "office_name_kana": null
  },
  "0004": {
    "zip_code": "1350004",
    "prefecture": "東京都",
    "prefecture_kana": "トウキョウト",
    "prefecture_code": "13",
    "city": "江東区",
    "city_kana": "コウトウク",
    "town": "森下",
    "town_kana": "モリシタ",
    "street": null,
    "office_name": null,
    "office_name_kana": null
  },
  "0005": {
    "zip_code": "1350005",
    "prefecture": "東京都",
    "prefecture_kana": "トウキョウト",
    "prefecture_code": "13",
    "city": "江東区",
    "city_kana": "コウトウク",
    "town": "高橋",
    "town_kana": "タカバシ",
    "street": null,
    "office_name": null,
    "office_name_kana": null
  },
  "0006": {
    "zip_code": "1350006",
    "prefecture": "東京都",
    "prefecture_kana": "トウキョウト",
    "prefecture_code": "13",
    "city": "江東区",
    "city_kana": "コウトウク",
    "town": "常盤",
    "town_kana": "トキワ",
    "street": null,
    "office_name": null,
    "office_name_kana": null
  },
  "0007": {
    "zip_code": "1350007",
    "prefecture": "東京都",
    "prefecture_kana": "トウキョウト",
    "prefecture_code": "13",
    "city": "江東区",
    "city_kana": "コウトウク",
    "town": "新大橋",
    "town_kana": "シンオオハシ",
    "street": null,
    "office_name": null,
    "office_name_kana": null
  },
  "0011": {
    "zip_code": "1350011",
    "prefecture": "東京都",
    "prefecture_kana": "トウキョウト",
    "prefecture_code": "13",
    "city": "江東区",
    "city_kana": "コウトウク",
    "town": "扇橋",
    "town_kana": "オウギバシ",
    "street": null,
    "office_name": null,
    "office_name_kana": null
  },
  "0012": {
    "zip_code": "1350012",
    "prefecture": "東京都",
    "prefecture_kana": "トウキョウト",
    "prefecture_code": "13",
    "city": "江東区",
    "city_kana": "コウトウク",
    "town": "海辺",
    "town_kana": "ウミベ",
    "street": null,
    "office_name": null,
    "office_name_kana": null
  },
  "0013": {
    "zip_code": "1350013",
    "prefecture": "東京都",
    "prefecture_kana": "トウキョウト",
    "prefecture_code": "13",
    "city": "江東区",
    "city_kana": "コウトウク",
    "town": "千田",
    "town_kana": "センダ",
    "street": null,
    "office_name": null,
    "office_name_kana": null
  },
  "0014": {
    "zip_code": "1350014",
    "prefecture": "東京都",
    "prefecture_kana": "トウキョウト",
    "prefecture_code": "13",
    "city": "江東区",
    "city_kana": "コウトウク",
    "town": "石島",
    "town_kana": "イシジマ",
    "street": null,
    "office_name": null,
    "office_name_kana": null
  },
  "0015": {
    "zip_code": "1350015",
    "prefecture": "東京都",
    "prefecture_kana": "トウキョウト",
    "prefecture_code": "13",
    "city": "江東区",
    "city_kana": "コウトウク",
    "town": "千石",
    "town_kana": "センゴク",
    "street": null,
    "office_name": null,
    "office_name_kana": null
  },
  "0016": {
    "zip_code": "1350016",
    "prefecture": "東京都",
    "prefecture_kana": "トウキョウト",
    "prefecture_code": "13",
    "city": "江東区",
    "city_kana": "コウトウク",
    "town": "東陽",
    "town_kana": "トウヨウ",
    "street": null,
    "office_name": null,
    "office_name_kana": null
  },
  "0021": {
    "zip_code": "1350021",
    "prefecture": "東京都",
    "prefecture_kana": "トウキョウト",
    "prefecture_code": "13",
    "city": "江東区",
    "city_kana": "コウトウク",
    "town": "白河",
    "town_kana": "シラカワ",
    "street": null,
    "office_name": null,
    "office_name_kana": null
  },
  "0022": {
    "zip_code": "1350022",
    "prefecture": "東京都",
    "prefecture_kana": "トウキョウト",
    "prefecture_code": "13",
    "city": "江東区",
    "city_kana": "コウトウク",
    "town": "三好",
    "town_kana": "ミヨシ",
    "street": null,
    "office_name": null,
    "office_name_kana": null
  },
  "0023": {
    "zip_code": "1350023",
    "prefecture": "東京都",
    "prefecture_kana": "トウキョウト",
    "prefecture_code": "13",
    "city": "江東区",
    "city_kana": "コウトウク",
    "town": "平野",
    "town_kana": "ヒラノ",
    "street": null,
    "office_name": null,
    "office_name_kana": null
  },
  "0024": {
    "zip_code": "1350024",
    "prefecture": "東京都",
    "prefecture_kana": "トウキョウト",
    "prefecture_code": "13",
    "city": "江東区",
    "city_kana": "コウトウク",
    "town": "清澄",
    "town_kana": "キヨスミ",
    "street": null,
    "office_name": null,
    "office_name_kana": null
  },
  "0031": {
    "zip_code": "1350031",
    "prefecture": "東京都",
    "prefecture_kana": "トウキョウト",
    "prefecture_code": "13",
    "city": "江東区",
    "city_kana": "コウトウク",
    "town": "佐賀",
    "town_kana": "サガ",
    "street": null,
    "office_name": null,
    "office_name_kana": null
  },
  "0032": {
    "zip_code": "1350032",
    "prefecture": "東京都",
    "prefecture_kana": "トウキョウト",
    "prefecture_code": "13",
    "city": "江東区",
    "city_kana": "コウトウク",
    "town": "福住",
    "town_kana": "フクズミ",
    "street": null,
    "office_name": null,
    "office_name_kana": null
  },
  "0033": {
    "zip_code": "1350033",
    "prefecture": "東京都",
    "prefecture_kana": "トウキョウト",
    "prefecture_code": "13",
    "city": "江東区",
    "city_kana": "コウトウク",
    "town": "深川",
    "town_kana": "フカガワ",
    "street": null,
    "office_name": null,
    "office_name_kana": null
  },
  "0034": {
    "zip_code": "1350034",
    "prefecture": "東京都",
    "prefecture_kana": "トウキョウト",
    "prefecture_code": "13",
    "city": "江東区",
    "city_kana": "コウトウク",
    "town": "永代",
    "town_kana": "エイタイ",
    "street": null,
    "office_name": null,
    "office_name_kana": null
  },
  "0041": {
    "zip_code": "1350041",
    "prefecture": "東京都",
    "prefecture_kana": "トウキョウト",
    "prefecture_code": "13",
    "city": "江東区",
    "city_kana": "コウトウク",
    "town": "冬木",
    "town_kana": "フユキ",
    "street": null,
    "office_name": null,
    "office_name_kana": null
  },
  "0042": {
    "zip_code": "1350042",
    "prefecture": "東京都",
    "prefecture_kana": "トウキョウト",
    "prefecture_code": "13",
    "city": "江東区",
    "city_kana": "コウトウク",
    "town": "木場",
    "town_kana": "キバ",
    "street": null,
    "office_name": null,
    "office_name_kana": null
  },
  "0043": {
    "zip_code": "1350043",
    "prefecture": "東京都",
    "prefecture_kana": "トウキョウト",
    "prefecture_code": "13",
    "city": "江東区",
    "city_kana": "コウトウク",
    "town": "塩浜",
    "town_kana": "シオハマ",
    "street": null,
    "office_name": null,
    "office_name_kana": null
  },
  "0044": {
    "zip_code": "1350044",
    "prefecture": "東京都",
    "prefecture_kana": "トウキョウト",
    "prefecture_code": "13",
    "city": "江東区",
    "city_kana": "コウトウク",
    "town": "越中島",
    "town_kana": "エッチュウジマ",
    "street": null,
    "office_name": null,
    "office_name_kana": null
  },
  "0045": {
    "zip_code": "1350045",
    "prefecture": "東京都",
    "prefecture_kana": "トウキョウト",
    "prefecture_code": "13",
    "city": "江東区",
    "city_kana": "コウトウク",
    "town": "古石場",
    "town_kana": "フルイシバ",
    "street": null,
    "office_name": null,
    "office_name_kana": null
  },
  "0046": {
    "zip_code": "1350046",
    "prefecture": "東京都",
    "prefecture_kana": "トウキョウト",
    "prefecture_code": "13",
    "city": "江東区",
    "city_kana": "コウトウク",
    "town": "牡丹",
    "town_kana": "ボタン",
    "street": null,
    "office_name": null,
    "office_name_kana": null
  },
  "0047": {
    "zip_code": "1350047",
    "prefecture": "東京都",
    "prefecture_kana": "トウキョウト",
    "prefecture_code": "13",
    "city": "江東区",
    "city_kana": "コウトウク",
    "town": "富岡",
    "town_kana": "トミオカ",
    "street": null,
    "office_name": null,
    "office_name_kana": null
  },
  "0048": {
    "zip_code": "1350048",
    "prefecture": "東京都",
    "prefecture_kana": "トウキョウト",
    "prefecture_code": "13",
    "city": "江東区",
    "city_kana": "コウトウク",
    "town": "門前仲町",
    "town_kana": "モンゼンナカチョウ",
    "street": null,
    "office_name": null,
    "office_name_kana": null
  },
  "0051": {
    "zip_code": "1350051",
    "prefecture": "東京都",
    "prefecture_kana": "トウキョウト",
    "prefecture_code": "13",
    "city": "江東区",
    "city_kana": "コウトウク",
    "town": "枝川",
    "town_kana": "エダガワ",
    "street": null,
    "office_name": null,
    "office_name_kana": null
  },
  "0052": {
    "zip_code": "1350052",
    "prefecture": "東京都",
    "prefecture_kana": "トウキョウト",
    "prefecture_code": "13",
    "city": "江東区",
    "city_kana": "コウトウク",
    "town": "潮見",
    "town_kana": "シオミ",
    "street": null,
    "office_name": null,
    "office_name_kana": null
  },
  "0053": {
    "zip_code": "1350053",
    "prefecture": "東京都",
    "prefecture_kana": "トウキョウト",
    "prefecture_code": "13",
    "city": "江東区",
    "city_kana": "コウトウク",
    "town": "辰巳",
    "town_kana": "タツミ",
    "street": null,
    "office_name": null,
    "office_name_kana": null
  },
  "0061": {
    "zip_code": "1350061",
    "prefecture": "東京都",
    "prefecture_kana": "トウキョウト",
    "prefecture_code": "13",
    "city": "江東区",
    "city_kana": "コウトウク",
    "town": "豊洲",
    "town_kana": "トヨス",
    "street": null,
    "office_name": null,
    "office_name_kana": null
  },
  "0062": {
    "zip_code": "1350062",
    "prefecture": "東京都",
    "prefecture_kana": "トウキョウト",
    "prefecture_code": "13",
    "city": "江東区",
    "city_kana": "コウトウク",
    "town": "東雲",
    "town_kana": "シノノメ",
    "street": null,
    "office_name": null,
    "office_name_kana": null
  },
  "0063": {
    "zip_code": "1350063",
    "prefecture": "東京都",
    "prefecture_kana": "トウキョウト",
    "prefecture_code": "13",
    "city": "江東区",
    "city_kana": "コウトウク",
    "town": "有明",
    "town_kana": "アリアケ",
    "street": null,
    "office_name": null,
    "office_name_kana": null
  },
  "0064": {
    "zip_code": "1350064",
    "prefecture": "東京都",
    "prefecture_kana": "トウキョウト",
    "prefecture_code": "13",
    "city": "江東区",
    "city_kana": "コウトウク",
    "town": "青海",
    "town_kana": "アオミ",
    "street": null,
    "office_name": null,
    "office_name_kana": null
  },
  "0065": {
    "zip_code": "1350065",
    "prefecture": "東京都",
    "prefecture_kana": "トウキョウト",
    "prefecture_code": "13",
    "city": "江東区",
    "city_kana": "コウトウク",
    "town": "中央防波堤",
    "town_kana": "チュウオウボウハテイ",
    "street": null,
    "office_name": null,
    "office_name_kana": null
  },
  "0091": {
    "zip_code": "1350091",
    "prefecture": "東京都",
    "prefecture_kana": "トウキョウト",
    "prefecture_code": "13",
    "city": "港区",
    "city_kana": "ミナトク",
    "town": "台場",
    "town_kana": "ダイバ",
    "street": null,
    "office_name": null,
    "office_name_kana": null
  },
  "0092": {
    "zip_code": "1350092",
    "prefecture": "東京都",
    "prefecture_kana": "トウキョウト",
    "prefecture_code": "13",
    "city": "品川区",
    "city_kana": "シナガワク",
    "town": "東八潮",
    "town_kana": "ヒガシヤシオ",
    "street": null,
    "office_name": null,
    "office_name_kana": null
  },
  "6001": {
    "zip_code": "1356001",
    "prefecture": "東京都",
    "prefecture_kana": "トウキョウト",
    "prefecture_code": "13",
    "city": "江東区",
    "city_kana": "コウトウク",
    "town": "豊洲豊洲センタービル　１階",
    "town_kana": "トヨストヨスセンタービル1カイ",
    "street": null,
    "office_name": null,
    "office_name_kana": null
  },
  "6002": {
    "zip_code": "1356002",
    "prefecture": "東京都",
    "prefecture_kana": "トウキョウト",
    "prefecture_code": "13",
    "city": "江東区",
    "city_kana": "コウトウク",
    "town": "豊洲豊洲センタービル　２階",
    "town_kana": "トヨストヨスセンタービル2カイ",
    "street": null,
    "office_name": null,
    "office_name_kana": null
  },
  "6003": {
    "zip_code": "1356003",
    "prefecture": "東京都",
    "prefecture_kana": "トウキョウト",
    "prefecture_code": "13",
    "city": "江東区",
    "city_kana": "コウトウク",
    "town": "豊洲豊洲センタービル　３階",
    "town_kana": "トヨストヨスセンタービル3カイ",
    "street": null,
    "office_name": null,
    "office_name_kana": null
  },
  "6004": {
    "zip_code": "1356004",
    "prefecture": "東京都",
    "prefecture_kana": "トウキョウト",
    "prefecture_code": "13",
    "city": "江東区",
    "city_kana": "コウトウク",
    "town": "豊洲豊洲センタービル　４階",
    "town_kana": "トヨストヨスセンタービル4カイ",
    "street": null,
    "office_name": null,
    "office_name_kana": null
  },
  "6005": {
    "zip_code": "1356005",
    "prefecture": "東京都",
    "prefecture_kana": "トウキョウト",
    "prefecture_code": "13",
    "city": "江東区",
    "city_kana": "コウトウク",
    "town": "豊洲豊洲センタービル　５階",
    "town_kana": "トヨストヨスセンタービル5カイ",
    "street": null,
    "office_name": null,
    "office_name_kana": null
  },
  "6006": {
    "zip_code": "1356006",
    "prefecture": "東京都",
    "prefecture_kana": "トウキョウト",
    "prefecture_code": "13",
    "city": "江東区",
    "city_kana": "コウトウク",
    "town": "豊洲豊洲センタービル　６階",
    "town_kana": "トヨストヨスセンタービル6カイ",
    "street": null,
    "office_name": null,
    "office_name_kana": null
  },
  "6007": {
    "zip_code": "1356007",
    "prefecture": "東京都",
    "prefecture_kana": "トウキョウト",
    "prefecture_code": "13",
    "city": "江東区",
    "city_kana": "コウトウク",
    "town": "豊洲豊洲センタービル　７階",
    "town_kana": "トヨストヨスセンタービル7カイ",
    "street": null,
    "office_name": null,
    "office_name_kana": null
  },
  "6008": {
    "zip_code": "1356008",
    "prefecture": "東京都",
    "prefecture_kana": "トウキョウト",
    "prefecture_code": "13",
    "city": "江東区",
    "city_kana": "コウトウク",
    "town": "豊洲豊洲センタービル　８階",
    "town_kana": "トヨストヨスセンタービル8カイ",
    "street": null,
    "office_name": null,
    "office_name_kana": null
  },
  "6009": {
    "zip_code": "1356009",
    "prefecture": "東京都",
    "prefecture_kana": "トウキョウト",
    "prefecture_code": "13",
    "city": "江東区",
    "city_kana": "コウトウク",
    "town": "豊洲豊洲センタービル　９階",
    "town_kana": "トヨストヨスセンタービル9カイ",
    "street": null,
    "office_name": null,
    "office_name_kana": null
  },
  "6010": {
    "zip_code": "1356010",
    "prefecture": "東京都",
    "prefecture_kana": "トウキョウト",
    "prefecture_code": "13",
    "city": "江東区",
    "city_kana": "コウトウク",
    "town": "豊洲豊洲センタービル　１０階",
    "town_kana": "トヨストヨスセンタービル10カイ",
    "street": null,
    "office_name": null,
    "office_name_kana": null
  },
  "6011": {
    "zip_code": "1356011",
    "prefecture": "東京都",
    "prefecture_kana": "トウキョウト",
    "prefecture_code": "13",
    "city": "江東区",
    "city_kana": "コウトウク",
    "town": "豊洲豊洲センタービル　１１階",
    "town_kana": "トヨストヨスセンタービル11カイ",
    "street": null,
    "office_name": null,
    "office_name_kana": null
  },
  "6012": {
    "zip_code": "1356012",
    "prefecture": "東京都",
    "prefecture_kana": "トウキョウト",
    "prefecture_code": "13",
    "city": "江東区",
    "city_kana": "コウトウク",
    "town": "豊洲豊洲センタービル　１２階",
    "town_kana": "トヨストヨスセンタービル12カイ",
    "street": null,
    "office_name": null,
    "office_name_kana": null
  },
  "6013": {
    "zip_code": "1356013",
    "prefecture": "東京都",
    "prefecture_kana": "トウキョウト",
    "prefecture_code": "13",
    "city": "江東区",
    "city_kana": "コウトウク",
    "town": "豊洲豊洲センタービル　１３階",
    "town_kana": "トヨストヨスセンタービル13カイ",
    "street": null,
    "office_name": null,
    "office_name_kana": null
  },
  "6014": {
    "zip_code": "1356014",
    "prefecture": "東京都",
    "prefecture_kana": "トウキョウト",
    "prefecture_code": "13",
    "city": "江東区",
    "city_kana": "コウトウク",
    "town": "豊洲豊洲センタービル　１４階",
    "town_kana": "トヨストヨスセンタービル14カイ",
    "street": null,
    "office_name": null,
    "office_name_kana": null
  },
  "6015": {
    "zip_code": "1356015",
    "prefecture": "東京都",
    "prefecture_kana": "トウキョウト",
    "prefecture_code": "13",
    "city": "江東区",
    "city_kana": "コウトウク",
    "town": "豊洲豊洲センタービル　１５階",
    "town_kana": "トヨストヨスセンタービル15カイ",
    "street": null,
    "office_name": null,
    "office_name_kana": null
  },
  "6016": {
    "zip_code": "1356016",
    "prefecture": "東京都",
    "prefecture_kana": "トウキョウト",
    "prefecture_code": "13",
    "city": "江東区",
    "city_kana": "コウトウク",
    "town": "豊洲豊洲センタービル　１６階",
    "town_kana": "トヨストヨスセンタービル16カイ",
    "street": null,
    "office_name": null,
    "office_name_kana": null
  },
  "6017": {
    "zip_code": "1356017",
    "prefecture": "東京都",
    "prefecture_kana": "トウキョウト",
    "prefecture_code": "13",
    "city": "江東区",
    "city_kana": "コウトウク",
    "town": "豊洲豊洲センタービル　１７階",
    "town_kana": "トヨストヨスセンタービル17カイ",
    "street": null,
    "office_name": null,
    "office_name_kana": null
  },
  "6018": {
    "zip_code": "1356018",
    "prefecture": "東京都",
    "prefecture_kana": "トウキョウト",
    "prefecture_code": "13",
    "city": "江東区",
    "city_kana": "コウトウク",
    "town": "豊洲豊洲センタービル　１８階",
    "town_kana": "トヨストヨスセンタービル18カイ",
    "street": null,
    "office_name": null,
    "office_name_kana": null
  },
  "6019": {
    "zip_code": "1356019",
    "prefecture": "東京都",
    "prefecture_kana": "トウキョウト",
    "prefecture_code": "13",
    "city": "江東区",
    "city_kana": "コウトウク",
    "town": "豊洲豊洲センタービル　１９階",
    "town_kana": "トヨストヨスセンタービル19カイ",
    "street": null,
    "office_name": null,
    "office_name_kana": null
  },
  "6020": {
    "zip_code": "1356020",
    "prefecture": "東京都",
    "prefecture_kana": "トウキョウト",
    "prefecture_code": "13",
    "city": "江東区",
    "city_kana": "コウトウク",
    "town": "豊洲豊洲センタービル　２０階",
    "town_kana": "トヨストヨスセンタービル20カイ",
    "street": null,
    "office_name": null,
    "office_name_kana": null
  },
  "6021": {
    "zip_code": "1356021",
    "prefecture": "東京都",
    "prefecture_kana": "トウキョウト",
    "prefecture_code": "13",
    "city": "江東区",
    "city_kana": "コウトウク",
    "town": "豊洲豊洲センタービル　２１階",
    "town_kana": "トヨストヨスセンタービル21カイ",
    "street": null,
    "office_name": null,
    "office_name_kana": null
  },
  "6022": {
    "zip_code": "1356022",
    "prefecture": "東京都",
    "prefecture_kana": "トウキョウト",
    "prefecture_code": "13",
    "city": "江東区",
    "city_kana": "コウトウク",
    "town": "豊洲豊洲センタービル　２２階",
    "town_kana": "トヨストヨスセンタービル22カイ",
    "street": null,
    "office_name": null,
    "office_name_kana": null
  },
  "6023": {
    "zip_code": "1356023",
    "prefecture": "東京都",
    "prefecture_kana": "トウキョウト",
    "prefecture_code": "13",
    "city": "江東区",
    "city_kana": "コウトウク",
    "town": "豊洲豊洲センタービル　２３階",
    "town_kana": "トヨストヨスセンタービル23カイ",
    "street": null,
    "office_name": null,
    "office_name_kana": null
  },
  "6024": {
    "zip_code": "1356024",
    "prefecture": "東京都",
    "prefecture_kana": "トウキョウト",
    "prefecture_code": "13",
    "city": "江東区",
    "city_kana": "コウトウク",
    "town": "豊洲豊洲センタービル　２４階",
    "town_kana": "トヨストヨスセンタービル24カイ",
    "street": null,
    "office_name": null,
    "office_name_kana": null
  },
  "6025": {
    "zip_code": "1356025",
    "prefecture": "東京都",
    "prefecture_kana": "トウキョウト",
    "prefecture_code": "13",
    "city": "江東区",
    "city_kana": "コウトウク",
    "town": "豊洲豊洲センタービル　２５階",
    "town_kana": "トヨストヨスセンタービル25カイ",
    "street": null,
    "office_name": null,
    "office_name_kana": null
  },
  "6026": {
    "zip_code": "1356026",
    "prefecture": "東京都",
    "prefecture_kana": "トウキョウト",
    "prefecture_code": "13",
    "city": "江東区",
    "city_kana": "コウトウク",
    "town": "豊洲豊洲センタービル　２６階",
    "town_kana": "トヨストヨスセンタービル26カイ",
    "street": null,
    "office_name": null,
    "office_name_kana": null
  },
  "6027": {
    "zip_code": "1356027",
    "prefecture": "東京都",
    "prefecture_kana": "トウキョウト",
    "prefecture_code": "13",
    "city": "江東区",
    "city_kana": "コウトウク",
    "town": "豊洲豊洲センタービル　２７階",
    "town_kana": "トヨストヨスセンタービル27カイ",
    "street": null,
    "office_name": null,
    "office_name_kana": null
  },
  "6028": {
    "zip_code": "1356028",
    "prefecture": "東京都",
    "prefecture_kana": "トウキョウト",
    "prefecture_code": "13",
    "city": "江東区",
    "city_kana": "コウトウク",
    "town": "豊洲豊洲センタービル　２８階",
    "town_kana": "トヨストヨスセンタービル28カイ",
    "street": null,
    "office_name": null,
    "office_name_kana": null
  },
  "6029": {
    "zip_code": "1356029",
    "prefecture": "東京都",
    "prefecture_kana": "トウキョウト",
    "prefecture_code": "13",
    "city": "江東区",
    "city_kana": "コウトウク",
    "town": "豊洲豊洲センタービル　２９階",
    "town_kana": "トヨストヨスセンタービル29カイ",
    "street": null,
    "office_name": null,
    "office_name_kana": null
  },
  "6030": {
    "zip_code": "1356030",
    "prefecture": "東京都",
    "prefecture_kana": "トウキョウト",
    "prefecture_code": "13",
    "city": "江東区",
    "city_kana": "コウトウク",
    "town": "豊洲豊洲センタービル　３０階",
    "town_kana": "トヨストヨスセンタービル30カイ",
    "street": null,
    "office_name": null,
    "office_name_kana": null
  },
  "6031": {
    "zip_code": "1356031",
    "prefecture": "東京都",
    "prefecture_kana": "トウキョウト",
    "prefecture_code": "13",
    "city": "江東区",
    "city_kana": "コウトウク",
    "town": "豊洲豊洲センタービル　３１階",
    "town_kana": "トヨストヨスセンタービル31カイ",
    "street": null,
    "office_name": null,
    "office_name_kana": null
  },
  "6032": {
    "zip_code": "1356032",
    "prefecture": "東京都",
    "prefecture_kana": "トウキョウト",
    "prefecture_code": "13",
    "city": "江東区",
    "city_kana": "コウトウク",
    "town": "豊洲豊洲センタービル　３２階",
    "town_kana": "トヨストヨスセンタービル32カイ",
    "street": null,
    "office_name": null,
    "office_name_kana": null
  },
  "6033": {
    "zip_code": "1356033",
    "prefecture": "東京都",
    "prefecture_kana": "トウキョウト",
    "prefecture_code": "13",
    "city": "江東区",
    "city_kana": "コウトウク",
    "town": "豊洲豊洲センタービル　３３階",
    "town_kana": "トヨストヨスセンタービル33カイ",
    "street": null,
    "office_name": null,
    "office_name_kana": null
  },
  "6034": {
    "zip_code": "1356034",
    "prefecture": "東京都",
    "prefecture_kana": "トウキョウト",
    "prefecture_code": "13",
    "city": "江東区",
    "city_kana": "コウトウク",
    "town": "豊洲豊洲センタービル　３４階",
    "town_kana": "トヨストヨスセンタービル34カイ",
    "street": null,
    "office_name": null,
    "office_name_kana": null
  },
  "6035": {
    "zip_code": "1356035",
    "prefecture": "東京都",
    "prefecture_kana": "トウキョウト",
    "prefecture_code": "13",
    "city": "江東区",
    "city_kana": "コウトウク",
    "town": "豊洲豊洲センタービル　３５階",
    "town_kana": "トヨストヨスセンタービル35カイ",
    "street": null,
    "office_name": null,
    "office_name_kana": null
  },
  "6036": {
    "zip_code": "1356036",
    "prefecture": "東京都",
    "prefecture_kana": "トウキョウト",
    "prefecture_code": "13",
    "city": "江東区",
    "city_kana": "コウトウク",
    "town": "豊洲豊洲センタービル　３６階",
    "town_kana": "トヨストヨスセンタービル36カイ",
    "street": null,
    "office_name": null,
    "office_name_kana": null
  },
  "6037": {
    "zip_code": "1356037",
    "prefecture": "東京都",
    "prefecture_kana": "トウキョウト",
    "prefecture_code": "13",
    "city": "江東区",
    "city_kana": "コウトウク",
    "town": "豊洲豊洲センタービル　３７階",
    "town_kana": "トヨストヨスセンタービル37カイ",
    "street": null,
    "office_name": null,
    "office_name_kana": null
  },
  "6090": {
    "zip_code": "1356090",
    "prefecture": "東京都",
    "prefecture_kana": "トウキョウト",
    "prefecture_code": "13",
    "city": "江東区",
    "city_kana": "コウトウク",
    "town": "豊洲豊洲センタービル",
    "town_kana": "トヨストヨスセンタービル",
    "street": null,
    "office_name": null,
    "office_name_kana": null
  },
  "8074": {
    "zip_code": "1358074",
    "prefecture": "東京都",
    "prefecture_kana": "トウキョウト",
    "prefecture_code": "13",
    "city": "港区",
    "city_kana": "ミナトク",
    "town": "台場",
    "town_kana": "ダイバ",
    "street": "２丁目３番２号台場フロンティアビル",
    "office_name": "昭和シェル石油　株式会社",
    "office_name_kana": "シヨウワシエルセキユ カブシキカイシヤ"
  },
  "8080": {
    "zip_code": "1358080",
    "prefecture": "東京都",
    "prefecture_kana": "トウキョウト",
    "prefecture_code": "13",
    "city": "江東区",
    "city_kana": "コウトウク",
    "town": "辰巳",
    "town_kana": "タツミ",
    "street": "２丁目１番５８号",
    "office_name": "株式会社　ＷＯＷＯＷ　放送センター",
    "office_name_kana": "カブシキガイシヤ ワウワウ ホウソウセンタ-"
  },
  "8110": {
    "zip_code": "1358110",
    "prefecture": "東京都",
    "prefecture_kana": "トウキョウト",
    "prefecture_code": "13",
    "city": "江東区",
    "city_kana": "コウトウク",
    "town": "豊洲",
    "town_kana": "トヨス",
    "street": "３丁目２番２０号",
    "office_name": "ＳＣＳＫ　株式会社",
    "office_name_kana": "エスシ-エスケイ カブシキガイシヤ"
  },
  "8111": {
    "zip_code": "1358111",
    "prefecture": "東京都",
    "prefecture_kana": "トウキョウト",
    "prefecture_code": "13",
    "city": "江東区",
    "city_kana": "コウトウク",
    "town": "豊洲",
    "town_kana": "トヨス",
    "street": "５丁目６番３６号−１２階",
    "office_name": "株式会社　ミライト・ホールディングス",
    "office_name_kana": "カブシキガイシヤ ミライト・ホ-ルデイングス"
  },
  "8112": {
    "zip_code": "1358112",
    "prefecture": "東京都",
    "prefecture_kana": "トウキョウト",
    "prefecture_code": "13",
    "city": "江東区",
    "city_kana": "コウトウク",
    "town": "豊洲",
    "town_kana": "トヨス",
    "street": "５丁目６番３６号−７階",
    "office_name": "株式会社　ミライト",
    "office_name_kana": "カブシキガイシヤ ミライト"
  },
  "8113": {
    "zip_code": "1358113",
    "prefecture": "東京都",
    "prefecture_kana": "トウキョウト",
    "prefecture_code": "13",
    "city": "江東区",
    "city_kana": "コウトウク",
    "town": "豊洲",
    "town_kana": "トヨス",
    "street": "５−６−３６ＳＩＡ豊洲プライムスクエア９階",
    "office_name": "株式会社　コミューチュア",
    "office_name_kana": "カブシキガイシヤ コミユ-チユア"
  },
  "8115": {
    "zip_code": "1358115",
    "prefecture": "東京都",
    "prefecture_kana": "トウキョウト",
    "prefecture_code": "13",
    "city": "江東区",
    "city_kana": "コウトウク",
    "town": "豊洲",
    "town_kana": "トヨス",
    "street": "３丁目１番１号豊洲ＩＨＩビル",
    "office_name": "明星電気　株式会社",
    "office_name_kana": "メイセイデンキ カブシキガイシヤ"
  },
  "8118": {
    "zip_code": "1358118",
    "prefecture": "東京都",
    "prefecture_kana": "トウキョウト",
    "prefecture_code": "13",
    "city": "江東区",
    "city_kana": "コウトウク",
    "town": "豊洲",
    "town_kana": "トヨス",
    "street": "５−６−１５ＮＢＦ豊洲ガーデンフロント",
    "office_name": "株式会社　Ｄ＆Ｉパートナーズ",
    "office_name_kana": "カブシキガイシヤ デイ-アンドアイパ-トナ-ズ"
  },
  "8137": {
    "zip_code": "1358137",
    "prefecture": "東京都",
    "prefecture_kana": "トウキョウト",
    "prefecture_code": "13",
    "city": "江東区",
    "city_kana": "コウトウク",
    "town": "豊洲",
    "town_kana": "トヨス",
    "street": "５−６−５２ＮＢＦ豊洲キャナルフロント",
    "office_name": "株式会社　ＰＨＰ研究所",
    "office_name_kana": "カブシキガイシヤ ピ-エイチピ-ケンキユウシヨ"
  },
  "8139": {
    "zip_code": "1358139",
    "prefecture": "東京都",
    "prefecture_kana": "トウキョウト",
    "prefecture_code": "13",
    "city": "江東区",
    "city_kana": "コウトウク",
    "town": "豊洲",
    "town_kana": "トヨス",
    "street": "６丁目２番７号",
    "office_name": "芝浦工業大学附属中学高等学校",
    "office_name_kana": "シバウラコウギヨウダイガクフゾクチユウガクコウトウガツコウ"
  },
  "8145": {
    "zip_code": "1358145",
    "prefecture": "東京都",
    "prefecture_kana": "トウキョウト",
    "prefecture_code": "13",
    "city": "江東区",
    "city_kana": "コウトウク",
    "town": "豊洲",
    "town_kana": "トヨス",
    "street": "５−５−１３",
    "office_name": "株式会社　ミキモト",
    "office_name_kana": "カブシキガイシヤ ミキモト"
  },
  "8180": {
    "zip_code": "1358180",
    "prefecture": "東京都",
    "prefecture_kana": "トウキョウト",
    "prefecture_code": "13",
    "city": "江東区",
    "city_kana": "コウトウク",
    "town": "有明",
    "town_kana": "アリアケ",
    "street": "１−２−２２",
    "office_name": "株式会社　ワールドサプライ",
    "office_name_kana": "カブシキガイシヤ ワ-ルドサプライ"
  },
  "8181": {
    "zip_code": "1358181",
    "prefecture": "東京都",
    "prefecture_kana": "トウキョウト",
    "prefecture_code": "13",
    "city": "江東区",
    "city_kana": "コウトウク",
    "town": "有明",
    "town_kana": "アリアケ",
    "street": "３丁目３番３号",
    "office_name": "学校法人　武蔵野大学　法人本部（有明キャンパス）",
    "office_name_kana": "ガツコウホウジン ムサシノダイガク ホウジンホンブ(アリアケキヤンパス)"
  },
  "8210": {
    "zip_code": "1358210",
    "prefecture": "東京都",
    "prefecture_kana": "トウキョウト",
    "prefecture_code": "13",
    "city": "江東区",
    "city_kana": "コウトウク",
    "town": "有明",
    "town_kana": "アリアケ",
    "street": "３丁目６番１１号ＴＦＴビル東館６階（ＴＦＴ内郵便局私書箱第２０４５号）",
    "office_name": "株式会社　レナウン",
    "office_name_kana": "カブシキガイシヤ レナウン"
  },
  "8222": {
    "zip_code": "1358222",
    "prefecture": "東京都",
    "prefecture_kana": "トウキョウト",
    "prefecture_code": "13",
    "city": "江東区",
    "city_kana": "コウトウク",
    "town": "青海",
    "town_kana": "アオミ",
    "street": "１丁目１番２０号ダイバーシティ東京オフィスタワー",
    "office_name": "三井生命保険　株式会社",
    "office_name_kana": "ミツイセイメイホケン カブシキガイシヤ"
  },
  "8224": {
    "zip_code": "1358224",
    "prefecture": "東京都",
    "prefecture_kana": "トウキョウト",
    "prefecture_code": "13",
    "city": "江東区",
    "city_kana": "コウトウク",
    "town": "青海",
    "town_kana": "アオミ",
    "street": "４−１−１６",
    "office_name": "アスクル　ＤＣＭ　物流センター",
    "office_name_kana": "アスクル デイ-シ-エム ブツリユウセンタ-"
  },
  "8301": {
    "zip_code": "1358301",
    "prefecture": "東京都",
    "prefecture_kana": "トウキョウト",
    "prefecture_code": "13",
    "city": "江東区",
    "city_kana": "コウトウク",
    "town": "森下",
    "town_kana": "モリシタ",
    "street": "１丁目２−９",
    "office_name": "株式会社　レイメイ藤井",
    "office_name_kana": "カブシキガイシヤ レイメイフジイ"
  },
  "8303": {
    "zip_code": "1358303",
    "prefecture": "東京都",
    "prefecture_kana": "トウキョウト",
    "prefecture_code": "13",
    "city": "江東区",
    "city_kana": "コウトウク",
    "town": "森下",
    "town_kana": "モリシタ",
    "street": "３丁目８−１１",
    "office_name": "株式会社　シモダ",
    "office_name_kana": "カブシキガイシヤ シモダ"
  },
  "8310": {
    "zip_code": "1358310",
    "prefecture": "東京都",
    "prefecture_kana": "トウキョウト",
    "prefecture_code": "13",
    "city": "江東区",
    "city_kana": "コウトウク",
    "town": "森下",
    "town_kana": "モリシタ",
    "street": "１丁目２−２",
    "office_name": "小浅商事　株式会社　東京支店",
    "office_name_kana": "コアサシヨウジ カブシキガイシヤ トウキヨウシテン"
  },
  "8311": {
    "zip_code": "1358311",
    "prefecture": "東京都",
    "prefecture_kana": "トウキョウト",
    "prefecture_code": "13",
    "city": "江東区",
    "city_kana": "コウトウク",
    "town": "猿江",
    "town_kana": "サルエ",
    "street": "２丁目１６−１２",
    "office_name": "江東西税務署",
    "office_name_kana": "コウトウニシゼイムシヨ"
  },
  "8312": {
    "zip_code": "1358312",
    "prefecture": "東京都",
    "prefecture_kana": "トウキョウト",
    "prefecture_code": "13",
    "city": "江東区",
    "city_kana": "コウトウク",
    "town": "毛利",
    "town_kana": "モウリ",
    "street": "２丁目１０−１８",
    "office_name": "セーラー万年筆　（株）",
    "office_name_kana": "セ-ラ-マンネンヒツ カブシキガイシヤ"
  },
  "8318": {
    "zip_code": "1358318",
    "prefecture": "東京都",
    "prefecture_kana": "トウキョウト",
    "prefecture_code": "13",
    "city": "江東区",
    "city_kana": "コウトウク",
    "town": "毛利",
    "town_kana": "モウリ",
    "street": "２丁目６−５",
    "office_name": "印刷製本包装機械健康保険組合",
    "office_name_kana": "インサツセイホンキカイケンコウホケンクミアイ"
  },
  "8320": {
    "zip_code": "1358320",
    "prefecture": "東京都",
    "prefecture_kana": "トウキョウト",
    "prefecture_code": "13",
    "city": "江東区",
    "city_kana": "コウトウク",
    "town": "猿江",
    "town_kana": "サルエ",
    "street": "１丁目１−１５",
    "office_name": "全国信用協同組合連合会　東京支店",
    "office_name_kana": "ゼンコクシンヨウキヨウドウクミアイレンゴウカイ トウキヨウシテン"
  },
  "8330": {
    "zip_code": "1358330",
    "prefecture": "東京都",
    "prefecture_kana": "トウキョウト",
    "prefecture_code": "13",
    "city": "江東区",
    "city_kana": "コウトウク",
    "town": "森下",
    "town_kana": "モリシタ",
    "street": "３丁目６−５",
    "office_name": "栄進物産　株式会社",
    "office_name_kana": "エイシンブツサン カブシキガイシヤ"
  },
  "8331": {
    "zip_code": "1358331",
    "prefecture": "東京都",
    "prefecture_kana": "トウキョウト",
    "prefecture_code": "13",
    "city": "江東区",
    "city_kana": "コウトウク",
    "town": "千田",
    "town_kana": "センダ",
    "street": "２３−１３",
    "office_name": "株式会社　イヨベ工芸社",
    "office_name_kana": "カブシキガイシヤ イヨベコウゲイシヤ"
  },
  "8350": {
    "zip_code": "1358350",
    "prefecture": "東京都",
    "prefecture_kana": "トウキョウト",
    "prefecture_code": "13",
    "city": "江東区",
    "city_kana": "コウトウク",
    "town": "新大橋",
    "town_kana": "シンオオハシ",
    "street": "２丁目１３−４",
    "office_name": "（株）　東京クラウン",
    "office_name_kana": "カブ) トウキヨウクラウン"
  },
  "8360": {
    "zip_code": "1358360",
    "prefecture": "東京都",
    "prefecture_kana": "トウキョウト",
    "prefecture_code": "13",
    "city": "江東区",
    "city_kana": "コウトウク",
    "town": "新大橋",
    "town_kana": "シンオオハシ",
    "street": "２丁目１７−１２",
    "office_name": "株式会社　紅三",
    "office_name_kana": "カブシキガイシヤ ベニサン"
  },
  "8362": {
    "zip_code": "1358362",
    "prefecture": "東京都",
    "prefecture_kana": "トウキョウト",
    "prefecture_code": "13",
    "city": "江東区",
    "city_kana": "コウトウク",
    "town": "東陽",
    "town_kana": "トウヨウ",
    "street": "７丁目２−１８",
    "office_name": "（株）　日立オートサービス",
    "office_name_kana": "カブ) ヒタチオ-トサ-ビス"
  },
  "8363": {
    "zip_code": "1358363",
    "prefecture": "東京都",
    "prefecture_kana": "トウキョウト",
    "prefecture_code": "13",
    "city": "江東区",
    "city_kana": "コウトウク",
    "town": "東陽",
    "town_kana": "トウヨウ",
    "street": "２丁目４−２",
    "office_name": "センクシア　株式会社",
    "office_name_kana": "センクシア カブシキガイシヤ"
  },
  "8366": {
    "zip_code": "1358366",
    "prefecture": "東京都",
    "prefecture_kana": "トウキョウト",
    "prefecture_code": "13",
    "city": "江東区",
    "city_kana": "コウトウク",
    "town": "東陽",
    "town_kana": "トウヨウ",
    "street": "５丁目２９−１７住友不動産東陽ビル",
    "office_name": "日立冷熱　株式会社　東京サービスエンジニアリングセンター",
    "office_name_kana": "ヒタチレイネツ カブシキガイシヤ トウキヨウサ-ビスエンジニアリングセンタ-"
  },
  "8370": {
    "zip_code": "1358370",
    "prefecture": "東京都",
    "prefecture_kana": "トウキョウト",
    "prefecture_code": "13",
    "city": "江東区",
    "city_kana": "コウトウク",
    "town": "東陽",
    "town_kana": "トウヨウ",
    "street": "７丁目５−８",
    "office_name": "リコーテクノネット　株式会社　東京本社",
    "office_name_kana": "リコ-テクノネツト カブシキガイシヤ トウキヨウホンシヤ"
  },
  "8372": {
    "zip_code": "1358372",
    "prefecture": "東京都",
    "prefecture_kana": "トウキョウト",
    "prefecture_code": "13",
    "city": "江東区",
    "city_kana": "コウトウク",
    "town": "東陽",
    "town_kana": "トウヨウ",
    "street": "７丁目２−１８",
    "office_name": "株式会社　日立物流",
    "office_name_kana": "カブシキガイシヤ ヒタチブツリユウ"
  },
  "8375": {
    "zip_code": "1358375",
    "prefecture": "東京都",
    "prefecture_kana": "トウキョウト",
    "prefecture_code": "13",
    "city": "江東区",
    "city_kana": "コウトウク",
    "town": "東陽",
    "town_kana": "トウヨウ",
    "street": "６丁目１−４２",
    "office_name": "関東森林管理局　東京事務所",
    "office_name_kana": "カントウシンリンカンリキヨク トウキヨウジムシヨ"
  },
  "8383": {
    "zip_code": "1358383",
    "prefecture": "東京都",
    "prefecture_kana": "トウキョウト",
    "prefecture_code": "13",
    "city": "江東区",
    "city_kana": "コウトウク",
    "town": "東陽",
    "town_kana": "トウヨウ",
    "street": "４丁目１１−２８",
    "office_name": "東京都江東区役所",
    "office_name_kana": "トウキヨウトコウトウクヤクシヨ"
  },
  "8384": {
    "zip_code": "1358384",
    "prefecture": "東京都",
    "prefecture_kana": "トウキョウト",
    "prefecture_code": "13",
    "city": "江東区",
    "city_kana": "コウトウク",
    "town": "東陽",
    "town_kana": "トウヨウ",
    "street": "２丁目４−３４",
    "office_name": "日本ボールドウィン　株式会社",
    "office_name_kana": "ニホンボ-ルドウイン カブシキガイシヤ"
  },
  "8385": {
    "zip_code": "1358385",
    "prefecture": "東京都",
    "prefecture_kana": "トウキョウト",
    "prefecture_code": "13",
    "city": "江東区",
    "city_kana": "コウトウク",
    "town": "東陽",
    "town_kana": "トウヨウ",
    "street": "２丁目２−２０",
    "office_name": "明治安田システム・テクノロジー　株式会社　ＭＢＳ事業部門",
    "office_name_kana": "メイジヤスダシステム・テクノロジ- カブシキガイシヤ エムビ-エスジギヨウブモン"
  },
  "8387": {
    "zip_code": "1358387",
    "prefecture": "東京都",
    "prefecture_kana": "トウキョウト",
    "prefecture_code": "13",
    "city": "江東区",
    "city_kana": "コウトウク",
    "town": "東陽",
    "town_kana": "トウヨウ",
    "street": "７丁目２−１４東陽ＭＫビル",
    "office_name": "神鋼電機　（株）",
    "office_name_kana": "シンコウデンキ (カブ"
  },
  "8388": {
    "zip_code": "1358388",
    "prefecture": "東京都",
    "prefecture_kana": "トウキョウト",
    "prefecture_code": "13",
    "city": "江東区",
    "city_kana": "コウトウク",
    "town": "東陽",
    "town_kana": "トウヨウ",
    "street": "２丁目４−２４",
    "office_name": "日本電子計算　株式会社",
    "office_name_kana": "ニホンデンシケイサン カブシキガイシヤ"
  },
  "8402": {
    "zip_code": "1358402",
    "prefecture": "東京都",
    "prefecture_kana": "トウキョウト",
    "prefecture_code": "13",
    "city": "江東区",
    "city_kana": "コウトウク",
    "town": "佐賀",
    "town_kana": "サガ",
    "street": "１丁目１−１４",
    "office_name": "株式会社　ザ　マイラ",
    "office_name_kana": "カブシキガイシヤ ザ マイラ"
  },
  "8404": {
    "zip_code": "1358404",
    "prefecture": "東京都",
    "prefecture_kana": "トウキョウト",
    "prefecture_code": "13",
    "city": "江東区",
    "city_kana": "コウトウク",
    "town": "清澄",
    "town_kana": "キヨスミ",
    "street": "２丁目３−１５",
    "office_name": "学校法人　中村学園",
    "office_name_kana": "ガツコウホウジン ナカムラガクエン"
  },
  "8411": {
    "zip_code": "1358411",
    "prefecture": "東京都",
    "prefecture_kana": "トウキョウト",
    "prefecture_code": "13",
    "city": "江東区",
    "city_kana": "コウトウク",
    "town": "佐賀",
    "town_kana": "サガ",
    "street": "１丁目１５−７",
    "office_name": "岩野物産　株式会社",
    "office_name_kana": "イワノブツサン カブシキガイシヤ"
  },
  "8415": {
    "zip_code": "1358415",
    "prefecture": "東京都",
    "prefecture_kana": "トウキョウト",
    "prefecture_code": "13",
    "city": "江東区",
    "city_kana": "コウトウク",
    "town": "清澄",
    "town_kana": "キヨスミ",
    "street": "１丁目３−２",
    "office_name": "株式会社　レオテックス",
    "office_name_kana": "カブシキガイシヤ レオテツクス"
  },
  "8422": {
    "zip_code": "1358422",
    "prefecture": "東京都",
    "prefecture_kana": "トウキョウト",
    "prefecture_code": "13",
    "city": "江東区",
    "city_kana": "コウトウク",
    "town": "福住",
    "town_kana": "フクズミ",
    "street": "１丁目１３−１２",
    "office_name": "株式会社　日立東サービスエンジニアリング　本社",
    "office_name_kana": "カブシキガイシヤ ヒタチヒガシサ-ビスエンジニアリング ホンシヤ"
  },
  "8427": {
    "zip_code": "1358427",
    "prefecture": "東京都",
    "prefecture_kana": "トウキョウト",
    "prefecture_code": "13",
    "city": "江東区",
    "city_kana": "コウトウク",
    "town": "潮見",
    "town_kana": "シオミ",
    "street": "２−１−７",
    "office_name": "日本空調サービス　株式会社",
    "office_name_kana": "ニホンクウチヨウサ-ビス カブシキガイシヤ"
  },
  "8430": {
    "zip_code": "1358430",
    "prefecture": "東京都",
    "prefecture_kana": "トウキョウト",
    "prefecture_code": "13",
    "city": "江東区",
    "city_kana": "コウトウク",
    "town": "福住",
    "town_kana": "フクズミ",
    "street": "２丁目４−３",
    "office_name": "日本プレシジョン・サーキッツ　株式会社",
    "office_name_kana": "ニホンプレシジヨン・サ-キツツ カブシキガイシヤ"
  },
  "8432": {
    "zip_code": "1358432",
    "prefecture": "東京都",
    "prefecture_kana": "トウキョウト",
    "prefecture_code": "13",
    "city": "江東区",
    "city_kana": "コウトウク",
    "town": "佐賀",
    "town_kana": "サガ",
    "street": "１丁目９−１４",
    "office_name": "株式会社　マサル",
    "office_name_kana": "カブシキガイシヤ マサル"
  },
  "8436": {
    "zip_code": "1358436",
    "prefecture": "東京都",
    "prefecture_kana": "トウキョウト",
    "prefecture_code": "13",
    "city": "江東区",
    "city_kana": "コウトウク",
    "town": "福住",
    "town_kana": "フクズミ",
    "street": "２丁目３−１０",
    "office_name": "株式会社　ヤマタネ　情報本部",
    "office_name_kana": "カブシキガイシヤ ヤマタネ ジヨウホウホンブ"
  },
  "8440": {
    "zip_code": "1358440",
    "prefecture": "東京都",
    "prefecture_kana": "トウキョウト",
    "prefecture_code": "13",
    "city": "江東区",
    "city_kana": "コウトウク",
    "town": "清澄",
    "town_kana": "キヨスミ",
    "street": "１丁目２−１読売江東ビル",
    "office_name": "江東オール印刷　株式会社",
    "office_name_kana": "コウトウオ-ルインサツ カブシキガイシヤ"
  },
  "8443": {
    "zip_code": "1358443",
    "prefecture": "東京都",
    "prefecture_kana": "トウキョウト",
    "prefecture_code": "13",
    "city": "江東区",
    "city_kana": "コウトウク",
    "town": "永代",
    "town_kana": "エイタイ",
    "street": "１丁目１３−３",
    "office_name": "社団法人　日本倉庫協会",
    "office_name_kana": "シヤダンホウジン ニホンソウコキヨウカイ"
  },
  "8445": {
    "zip_code": "1358445",
    "prefecture": "東京都",
    "prefecture_kana": "トウキョウト",
    "prefecture_code": "13",
    "city": "江東区",
    "city_kana": "コウトウク",
    "town": "永代",
    "town_kana": "エイタイ",
    "street": "２丁目３１−１",
    "office_name": "旭硝子保険マネジメント　株式会社",
    "office_name_kana": "アサヒガラスホケンマネジメント カブシキガイシヤ"
  },
  "8448": {
    "zip_code": "1358448",
    "prefecture": "東京都",
    "prefecture_kana": "トウキョウト",
    "prefecture_code": "13",
    "city": "江東区",
    "city_kana": "コウトウク",
    "town": "冬木",
    "town_kana": "フユキ",
    "street": "１１−７イシマビル１０Ｆ",
    "office_name": "東京アール・ビー商事　株式会社",
    "office_name_kana": "トウキヨウア-ル・ビ-シヨウジ カブシキガイシヤ"
  },
  "8451": {
    "zip_code": "1358451",
    "prefecture": "東京都",
    "prefecture_kana": "トウキョウト",
    "prefecture_code": "13",
    "city": "江東区",
    "city_kana": "コウトウク",
    "town": "深川",
    "town_kana": "フカガワ",
    "street": "２丁目２−１８",
    "office_name": "株式会社　ＪＰビジネスサービス",
    "office_name_kana": "カブシキガイシヤ ジエイピ-ビジネスサ-ビス"
  },
  "8458": {
    "zip_code": "1358458",
    "prefecture": "東京都",
    "prefecture_kana": "トウキョウト",
    "prefecture_code": "13",
    "city": "江東区",
    "city_kana": "コウトウク",
    "town": "東陽",
    "town_kana": "トウヨウ",
    "street": "２丁目４−４３",
    "office_name": "（株）　ミスミ",
    "office_name_kana": "カブシキガイシヤ ミスミ"
  },
  "8460": {
    "zip_code": "1358460",
    "prefecture": "東京都",
    "prefecture_kana": "トウキョウト",
    "prefecture_code": "13",
    "city": "江東区",
    "city_kana": "コウトウク",
    "town": "冬木",
    "town_kana": "フユキ",
    "street": "１５−６",
    "office_name": "株式会社　大和総研　本社",
    "office_name_kana": "カブシキガイシヤ ダイワソウケン ホンシヤ"
  },
  "8461": {
    "zip_code": "1358461",
    "prefecture": "東京都",
    "prefecture_kana": "トウキョウト",
    "prefecture_code": "13",
    "city": "江東区",
    "city_kana": "コウトウク",
    "town": "永代",
    "town_kana": "エイタイ",
    "street": "１丁目１４−６大和永代ビル",
    "office_name": "株式会社　大和総研　東京センター",
    "office_name_kana": "カブシキガイシヤ ダイワソウケン トウキヨウセンタ-"
  },
  "8464": {
    "zip_code": "1358464",
    "prefecture": "東京都",
    "prefecture_kana": "トウキョウト",
    "prefecture_code": "13",
    "city": "江東区",
    "city_kana": "コウトウク",
    "town": "永代",
    "town_kana": "エイタイ",
    "street": "１丁目１４番５号永代ダイヤビル１３階",
    "office_name": "一般財団法人　グリーンチャンネル",
    "office_name_kana": "イツパンザイダンホウジン グリ-ンチヤンネル"
  },
  "8470": {
    "zip_code": "1358470",
    "prefecture": "東京都",
    "prefecture_kana": "トウキョウト",
    "prefecture_code": "13",
    "city": "江東区",
    "city_kana": "コウトウク",
    "town": "永代",
    "town_kana": "エイタイ",
    "street": "２丁目３７−２５",
    "office_name": "株式会社　レナウン",
    "office_name_kana": "カブシキガイシヤ レナウン"
  },
  "8473": {
    "zip_code": "1358473",
    "prefecture": "東京都",
    "prefecture_kana": "トウキョウト",
    "prefecture_code": "13",
    "city": "江東区",
    "city_kana": "コウトウク",
    "town": "深川",
    "town_kana": "フカガワ",
    "street": "２丁目６−１１富岡橋ビル",
    "office_name": "財団法人　未来工学研究所",
    "office_name_kana": "ザイダンホウジン ミライコウガクケンキユウジヨ"
  },
  "8477": {
    "zip_code": "1358477",
    "prefecture": "東京都",
    "prefecture_kana": "トウキョウト",
    "prefecture_code": "13",
    "city": "江東区",
    "city_kana": "コウトウク",
    "town": "永代",
    "town_kana": "エイタイ",
    "street": "１丁目１４−５永代ダイヤビル内",
    "office_name": "日本中央競馬会　電話投票センター",
    "office_name_kana": "ニツポンチユウオウケイバカイ デンワトウヒヨウセンタ-"
  },
  "8480": {
    "zip_code": "1358480",
    "prefecture": "東京都",
    "prefecture_kana": "トウキョウト",
    "prefecture_code": "13",
    "city": "江東区",
    "city_kana": "コウトウク",
    "town": "永代",
    "town_kana": "エイタイ",
    "street": "１丁目２−１",
    "office_name": "株式会社　ムトウユニパック",
    "office_name_kana": "カブシキガイシヤ ムトウユニパツク"
  },
  "8481": {
    "zip_code": "1358481",
    "prefecture": "東京都",
    "prefecture_kana": "トウキョウト",
    "prefecture_code": "13",
    "city": "江東区",
    "city_kana": "コウトウク",
    "town": "永代",
    "town_kana": "エイタイ",
    "street": "１丁目１３−３",
    "office_name": "東京倉庫協会",
    "office_name_kana": "トウキヨウソウコキヨウカイ"
  },
  "8482": {
    "zip_code": "1358482",
    "prefecture": "東京都",
    "prefecture_kana": "トウキョウト",
    "prefecture_code": "13",
    "city": "江東区",
    "city_kana": "コウトウク",
    "town": "牡丹",
    "town_kana": "ボタン",
    "street": "３丁目１４−１５",
    "office_name": "株式会社　前川製作所",
    "office_name_kana": "カブシキガイシヤ マエカワセイサクシヨ"
  },
  "8501": {
    "zip_code": "1358501",
    "prefecture": "東京都",
    "prefecture_kana": "トウキョウト",
    "prefecture_code": "13",
    "city": "江東区",
    "city_kana": "コウトウク",
    "town": "越中島",
    "town_kana": "エッチュウジマ",
    "street": "１丁目２−２１",
    "office_name": "株式会社　ヤマタネ",
    "office_name_kana": "カブシキガイシヤ ヤマタネ"
  },
  "8502": {
    "zip_code": "1358502",
    "prefecture": "東京都",
    "prefecture_kana": "トウキョウト",
    "prefecture_code": "13",
    "city": "江東区",
    "city_kana": "コウトウク",
    "town": "豊洲",
    "town_kana": "トヨス",
    "street": "５丁目６番１５号",
    "office_name": "株式会社　東芝パーソナル＆クライアントソリューション社",
    "office_name_kana": "カブシキガイシヤ トウシバパ-ソナルアンドクライアントソリユ-シヨンシヤ"
  },
  "8504": {
    "zip_code": "1358504",
    "prefecture": "東京都",
    "prefecture_kana": "トウキョウト",
    "prefecture_code": "13",
    "city": "江東区",
    "city_kana": "コウトウク",
    "town": "永代",
    "town_kana": "エイタイ",
    "street": "１丁目７−１２",
    "office_name": "株式会社　ユニパック・ダイレクト",
    "office_name_kana": "カブシキガイシヤ ユニパツク・ダイレクト"
  },
  "8505": {
    "zip_code": "1358505",
    "prefecture": "東京都",
    "prefecture_kana": "トウキョウト",
    "prefecture_code": "13",
    "city": "江東区",
    "city_kana": "コウトウク",
    "town": "豊洲",
    "town_kana": "トヨス",
    "street": "５丁目６−１５ＮＢＦ豊洲ガーデンフロント",
    "office_name": "東芝情報機器　株式会社",
    "office_name_kana": "トウシバジヨウホウキキ カブシキガイシヤ"
  },
  "8508": {
    "zip_code": "1358508",
    "prefecture": "東京都",
    "prefecture_kana": "トウキョウト",
    "prefecture_code": "13",
    "city": "江東区",
    "city_kana": "コウトウク",
    "town": "木場",
    "town_kana": "キバ",
    "street": "６丁目３−２",
    "office_name": "オーク　株式会社",
    "office_name_kana": "オ-ク カブシキガイシヤ"
  },
  "8510": {
    "zip_code": "1358510",
    "prefecture": "東京都",
    "prefecture_kana": "トウキョウト",
    "prefecture_code": "13",
    "city": "江東区",
    "city_kana": "コウトウク",
    "town": "木場",
    "town_kana": "キバ",
    "street": "２丁目１８−１１",
    "office_name": "大丸コアビル",
    "office_name_kana": "ダイマルコアビル"
  },
  "8511": {
    "zip_code": "1358511",
    "prefecture": "東京都",
    "prefecture_kana": "トウキョウト",
    "prefecture_code": "13",
    "city": "江東区",
    "city_kana": "コウトウク",
    "town": "豊洲",
    "town_kana": "トヨス",
    "street": "５丁目６−５２",
    "office_name": "日本アイ・ビー・エム　株式会社　豊洲事業所",
    "office_name_kana": "ニホンアイ・ビ-・エム カブシキガイシヤ トヨスジギヨウシヨ"
  },
  "8512": {
    "zip_code": "1358512",
    "prefecture": "東京都",
    "prefecture_kana": "トウキョウト",
    "prefecture_code": "13",
    "city": "江東区",
    "city_kana": "コウトウク",
    "town": "木場",
    "town_kana": "キバ",
    "street": "１丁目５−１",
    "office_name": "株式会社　フジクラ",
    "office_name_kana": "カブシキガイシヤ フジクラ"
  },
  "8513": {
    "zip_code": "1358513",
    "prefecture": "東京都",
    "prefecture_kana": "トウキョウト",
    "prefecture_code": "13",
    "city": "江東区",
    "city_kana": "コウトウク",
    "town": "永代",
    "town_kana": "エイタイ",
    "street": "２−３７−２８澁澤シティプレイス永代",
    "office_name": "澁澤倉庫　株式会社",
    "office_name_kana": "シブサワソウコ カブシキガイシヤ"
  },
  "8514": {
    "zip_code": "1358514",
    "prefecture": "東京都",
    "prefecture_kana": "トウキョウト",
    "prefecture_code": "13",
    "city": "江東区",
    "city_kana": "コウトウク",
    "town": "豊洲",
    "town_kana": "トヨス",
    "street": "２丁目１−１４",
    "office_name": "アーバンドック　ららぽーと豊洲アネックス",
    "office_name_kana": "ア-バンドツク ララポ-トトヨスアネツクス"
  },
  "8517": {
    "zip_code": "1358517",
    "prefecture": "東京都",
    "prefecture_kana": "トウキョウト",
    "prefecture_code": "13",
    "city": "江東区",
    "city_kana": "コウトウク",
    "town": "越中島",
    "town_kana": "エッチュウジマ",
    "street": "２丁目１−３０",
    "office_name": "（株）　スポーツニッポン新聞　東京本社",
    "office_name_kana": "カブ) スポ-ツニツポンシンブン トウキヨウホンシヤ"
  },
  "8518": {
    "zip_code": "1358518",
    "prefecture": "東京都",
    "prefecture_kana": "トウキョウト",
    "prefecture_code": "13",
    "city": "江東区",
    "city_kana": "コウトウク",
    "town": "東雲",
    "town_kana": "シノノメ",
    "street": "１丁目７−１２ＫＤＸ豊洲グランスクエア７階",
    "office_name": "リコーリース　株式会社",
    "office_name_kana": "リコ-リ-ス カブシキガイシヤ"
  },
  "8521": {
    "zip_code": "1358521",
    "prefecture": "東京都",
    "prefecture_kana": "トウキョウト",
    "prefecture_code": "13",
    "city": "江東区",
    "city_kana": "コウトウク",
    "town": "辰巳",
    "town_kana": "タツミ",
    "street": "２丁目１−６７",
    "office_name": "日本赤十字社　血液事業本部　辰巳分室",
    "office_name_kana": "ニホンセキジユウジシヤ ケツエキジギヨウホンブ タツミブンシツ"
  },
  "8522": {
    "zip_code": "1358522",
    "prefecture": "東京都",
    "prefecture_kana": "トウキョウト",
    "prefecture_code": "13",
    "city": "江東区",
    "city_kana": "コウトウク",
    "town": "木場",
    "town_kana": "キバ",
    "street": "３丁目１４−４",
    "office_name": "株式会社　芳賀洋紙店",
    "office_name_kana": "カブシキガイシヤ ハガヨウシテン"
  },
  "8523": {
    "zip_code": "1358523",
    "prefecture": "東京都",
    "prefecture_kana": "トウキョウト",
    "prefecture_code": "13",
    "city": "江東区",
    "city_kana": "コウトウク",
    "town": "辰巳",
    "town_kana": "タツミ",
    "street": "２丁目１−６７",
    "office_name": "日本赤十字社　血液事業本部　中央骨髄データセンター",
    "office_name_kana": "ニホンセキジユウジシヤ ケツエキジギヨウホンブ チユウオウコツズイデ-タセンタ-"
  },
  "8525": {
    "zip_code": "1358525",
    "prefecture": "東京都",
    "prefecture_kana": "トウキョウト",
    "prefecture_code": "13",
    "city": "江東区",
    "city_kana": "コウトウク",
    "town": "木場",
    "town_kana": "キバ",
    "street": "２丁目１７−１３亀井ビル３Ｆ・４Ｆ",
    "office_name": "フジコピアン　株式会社　東京支店",
    "office_name_kana": "フジコピアン カブシキガイシヤ トウキヨウシテン"
  },
  "8528": {
    "zip_code": "1358528",
    "prefecture": "東京都",
    "prefecture_kana": "トウキョウト",
    "prefecture_code": "13",
    "city": "江東区",
    "city_kana": "コウトウク",
    "town": "東雲",
    "town_kana": "シノノメ",
    "street": "１丁目７−１２ＫＤＸ豊洲グランスクエア４階",
    "office_name": "昭和リース　株式会社",
    "office_name_kana": "シヨウワリ-ス カブシキガイシヤ"
  },
  "8530": {
    "zip_code": "1358530",
    "prefecture": "東京都",
    "prefecture_kana": "トウキョウト",
    "prefecture_code": "13",
    "city": "江東区",
    "city_kana": "コウトウク",
    "town": "越中島",
    "town_kana": "エッチュウジマ",
    "street": "３丁目４−１７",
    "office_name": "清水建設　（株）　技術研究所　管理部",
    "office_name_kana": "シミズケンセツ (カブ) ギジユツケンキユウジヨ カンリブ"
  },
  "8531": {
    "zip_code": "1358531",
    "prefecture": "東京都",
    "prefecture_kana": "トウキョウト",
    "prefecture_code": "13",
    "city": "江東区",
    "city_kana": "コウトウク",
    "town": "富岡",
    "town_kana": "トミオカ",
    "street": "２丁目１−９ＮＶＴＯＭＩＯＫＡＢＩＬＧ８Ｆ",
    "office_name": "株式会社　トラベルプラザインターナショナル",
    "office_name_kana": "カブシキガイシヤ トラベルプラザインタ-ナシヨナル"
  },
  "8532": {
    "zip_code": "1358532",
    "prefecture": "東京都",
    "prefecture_kana": "トウキョウト",
    "prefecture_code": "13",
    "city": "江東区",
    "city_kana": "コウトウク",
    "town": "木場",
    "town_kana": "キバ",
    "street": "１丁目５−５５",
    "office_name": "日興ビジネスシステムズ　株式会社",
    "office_name_kana": "ニツコウビジネスシステムズ カブシキガイシヤ"
  },
  "8533": {
    "zip_code": "1358533",
    "prefecture": "東京都",
    "prefecture_kana": "トウキョウト",
    "prefecture_code": "13",
    "city": "江東区",
    "city_kana": "コウトウク",
    "town": "越中島",
    "town_kana": "エッチュウジマ",
    "street": "２丁目１−６",
    "office_name": "東京海洋大学",
    "office_name_kana": "トウキヨウカイヨウダイガク"
  },
  "8535": {
    "zip_code": "1358535",
    "prefecture": "東京都",
    "prefecture_kana": "トウキョウト",
    "prefecture_code": "13",
    "city": "江東区",
    "city_kana": "コウトウク",
    "town": "富岡",
    "town_kana": "トミオカ",
    "street": "２丁目１１−６長谷萬ビル",
    "office_name": "（株）　長谷川萬治商店",
    "office_name_kana": "カブ) ハセガワマンジシヨウテン"
  },
  "8538": {
    "zip_code": "1358538",
    "prefecture": "東京都",
    "prefecture_kana": "トウキョウト",
    "prefecture_code": "13",
    "city": "江東区",
    "city_kana": "コウトウク",
    "town": "辰巳",
    "town_kana": "タツミ",
    "street": "１丁目１番２０号日本空手道会館",
    "office_name": "財団法人　全日本空手道連盟",
    "office_name_kana": "ザイダンホウジン ゼンニホンカラテドウレンメイ"
  },
  "8540": {
    "zip_code": "1358540",
    "prefecture": "東京都",
    "prefecture_kana": "トウキョウト",
    "prefecture_code": "13",
    "city": "江東区",
    "city_kana": "コウトウク",
    "town": "深川",
    "town_kana": "フカガワ",
    "street": "１丁目１１−１２",
    "office_name": "エース損害保険　株式会社",
    "office_name_kana": "エ-スソンガイホケン カブシキガイシヤ"
  },
  "8548": {
    "zip_code": "1358548",
    "prefecture": "東京都",
    "prefecture_kana": "トウキョウト",
    "prefecture_code": "13",
    "city": "江東区",
    "city_kana": "コウトウク",
    "town": "豊洲",
    "town_kana": "トヨス",
    "street": "３丁目７−５",
    "office_name": "芝浦工業大学",
    "office_name_kana": "シバウラコウギヨウダイガク"
  },
  "8550": {
    "zip_code": "1358550",
    "prefecture": "東京都",
    "prefecture_kana": "トウキョウト",
    "prefecture_code": "13",
    "city": "江東区",
    "city_kana": "コウトウク",
    "town": "有明",
    "town_kana": "アリアケ",
    "street": "３丁目１０−６",
    "office_name": "財団法人　癌研究会",
    "office_name_kana": "ザイダンホウジン ガンケンキユウカイ"
  },
  "8551": {
    "zip_code": "1358551",
    "prefecture": "東京都",
    "prefecture_kana": "トウキョウト",
    "prefecture_code": "13",
    "city": "江東区",
    "city_kana": "コウトウク",
    "town": "東雲",
    "town_kana": "シノノメ",
    "street": "２−１２−４３",
    "office_name": "ＵＤトラックス　株式会社",
    "office_name_kana": "ユ-デイ-トラツクス カブシキガイシヤ"
  },
  "8552": {
    "zip_code": "1358552",
    "prefecture": "東京都",
    "prefecture_kana": "トウキョウト",
    "prefecture_code": "13",
    "city": "江東区",
    "city_kana": "コウトウク",
    "town": "辰巳",
    "town_kana": "タツミ",
    "street": "２丁目１−５８",
    "office_name": "日本衛星放送　（株）　ＷＯＷＯＷ",
    "office_name_kana": "ニホンエイセイホウソウ (カブ) ワウワウ"
  },
  "8553": {
    "zip_code": "1358553",
    "prefecture": "東京都",
    "prefecture_kana": "トウキョウト",
    "prefecture_code": "13",
    "city": "江東区",
    "city_kana": "コウトウク",
    "town": "豊洲",
    "town_kana": "トヨス",
    "street": "５丁目６−４１",
    "office_name": "日新製糖　株式会社　余暇開発本部　ドゥ・スポーツプラザ晴海",
    "office_name_kana": "ニツシンセイトウ カブシキガイシヤ ヨカカイハツホンブ ドウ.スポ-ツプラザハルミ"
  },
  "8554": {
    "zip_code": "1358554",
    "prefecture": "東京都",
    "prefecture_kana": "トウキョウト",
    "prefecture_code": "13",
    "city": "江東区",
    "city_kana": "コウトウク",
    "town": "福住",
    "town_kana": "フクズミ",
    "street": "２丁目５−４ＩＸＩＮＡＬ門前仲町",
    "office_name": "日本電子計算　株式会社",
    "office_name_kana": "ニホンデンシケイサン カブシキガイシヤ"
  },
  "8555": {
    "zip_code": "1358555",
    "prefecture": "東京都",
    "prefecture_kana": "トウキョウト",
    "prefecture_code": "13",
    "city": "江東区",
    "city_kana": "コウトウク",
    "town": "新大橋",
    "town_kana": "シンオオハシ",
    "street": "２丁目１３−４",
    "office_name": "株式会社　タキネット",
    "office_name_kana": "カブシキガイシヤ タキネツト"
  },
  "8556": {
    "zip_code": "1358556",
    "prefecture": "東京都",
    "prefecture_kana": "トウキョウト",
    "prefecture_code": "13",
    "city": "江東区",
    "city_kana": "コウトウク",
    "town": "辰巳",
    "town_kana": "タツミ",
    "street": "１丁目７−１７",
    "office_name": "（株）　東京宇佐美",
    "office_name_kana": "カブ) トウキヨウウサミ"
  },
  "8557": {
    "zip_code": "1358557",
    "prefecture": "東京都",
    "prefecture_kana": "トウキョウト",
    "prefecture_code": "13",
    "city": "江東区",
    "city_kana": "コウトウク",
    "town": "福住",
    "town_kana": "フクズミ",
    "street": "２丁目４−３",
    "office_name": "セイコークロック　株式会社",
    "office_name_kana": "セイコ-クロツク カブシキガイシヤ"
  },
  "8558": {
    "zip_code": "1358558",
    "prefecture": "東京都",
    "prefecture_kana": "トウキョウト",
    "prefecture_code": "13",
    "city": "江東区",
    "city_kana": "コウトウク",
    "town": "東雲",
    "town_kana": "シノノメ",
    "street": "１丁目１０−６",
    "office_name": "王子製紙　株式会社　東雲研究センター",
    "office_name_kana": "オウジセイシ カブシキガイシヤ シノノメケンキユウセンタ-"
  },
  "8559": {
    "zip_code": "1358559",
    "prefecture": "東京都",
    "prefecture_kana": "トウキョウト",
    "prefecture_code": "13",
    "city": "江東区",
    "city_kana": "コウトウク",
    "town": "東陽",
    "town_kana": "トウヨウ",
    "street": "６丁目３番１号東京イースト２１ビジネスセンター２階",
    "office_name": "シネックスインフォテック　株式会社",
    "office_name_kana": "シネツクスインフオテツク カブシキガイシヤ"
  },
  "8560": {
    "zip_code": "1358560",
    "prefecture": "東京都",
    "prefecture_kana": "トウキョウト",
    "prefecture_code": "13",
    "city": "江東区",
    "city_kana": "コウトウク",
    "town": "豊洲",
    "town_kana": "トヨス",
    "street": "１丁目１−１",
    "office_name": "日本ユニシス　株式会社",
    "office_name_kana": "ニホンユニシス カブシキガイシヤ"
  },
  "8563": {
    "zip_code": "1358563",
    "prefecture": "東京都",
    "prefecture_kana": "トウキョウト",
    "prefecture_code": "13",
    "city": "江東区",
    "city_kana": "コウトウク",
    "town": "潮見",
    "town_kana": "シオミ",
    "street": "２丁目４−１８",
    "office_name": "六三印刷　株式会社",
    "office_name_kana": "ムツミインサツ カブシキガイシヤ"
  },
  "8565": {
    "zip_code": "1358565",
    "prefecture": "東京都",
    "prefecture_kana": "トウキョウト",
    "prefecture_code": "13",
    "city": "江東区",
    "city_kana": "コウトウク",
    "town": "潮見",
    "town_kana": "シオミ",
    "street": "２丁目１０−２４",
    "office_name": "カテナ　（株）",
    "office_name_kana": "カテナ カブシキガイシヤ"
  },
  "8566": {
    "zip_code": "1358566",
    "prefecture": "東京都",
    "prefecture_kana": "トウキョウト",
    "prefecture_code": "13",
    "city": "江東区",
    "city_kana": "コウトウク",
    "town": "木場",
    "town_kana": "キバ",
    "street": "２丁目１４−８",
    "office_name": "デイリースポーツ社",
    "office_name_kana": "デイリ-スポ-ツシヤ"
  },
  "8567": {
    "zip_code": "1358567",
    "prefecture": "東京都",
    "prefecture_kana": "トウキョウト",
    "prefecture_code": "13",
    "city": "江東区",
    "city_kana": "コウトウク",
    "town": "潮見",
    "town_kana": "シオミ",
    "street": "２丁目１−２２",
    "office_name": "株式会社　久米設計",
    "office_name_kana": "カブシキガイシヤ クメセツケイ"
  },
  "8568": {
    "zip_code": "1358568",
    "prefecture": "東京都",
    "prefecture_kana": "トウキョウト",
    "prefecture_code": "13",
    "city": "江東区",
    "city_kana": "コウトウク",
    "town": "潮見",
    "town_kana": "シオミ",
    "street": "２−１０−２４",
    "office_name": "日本オフィス・システム　株式会社",
    "office_name_kana": "ニホンオフイス・システム カブシキガイシヤ"
  },
  "8570": {
    "zip_code": "1358570",
    "prefecture": "東京都",
    "prefecture_kana": "トウキョウト",
    "prefecture_code": "13",
    "city": "江東区",
    "city_kana": "コウトウク",
    "town": "豊洲",
    "town_kana": "トヨス",
    "street": "４丁目９−１１",
    "office_name": "日新製糖　株式会社　豊洲工場",
    "office_name_kana": "ニツシンセイトウ カブシキガイシヤ トヨスコウジヨウ"
  },
  "8575": {
    "zip_code": "1358575",
    "prefecture": "東京都",
    "prefecture_kana": "トウキョウト",
    "prefecture_code": "13",
    "city": "江東区",
    "city_kana": "コウトウク",
    "town": "有明",
    "town_kana": "アリアケ",
    "street": "３丁目５−７ＴＯＣ有明イーストタワー１１階",
    "office_name": "株式会社　ペイロール",
    "office_name_kana": "カブシキガイシヤ ペイロ-ル"
  },
  "8577": {
    "zip_code": "1358577",
    "prefecture": "東京都",
    "prefecture_kana": "トウキョウト",
    "prefecture_code": "13",
    "city": "江東区",
    "city_kana": "コウトウク",
    "town": "豊洲",
    "town_kana": "トヨス",
    "street": "５丁目１−３８",
    "office_name": "昭和大学江東豊洲病院",
    "office_name_kana": "シヨウワダイガクコウトウトヨスビヨウイン"
  },
  "8578": {
    "zip_code": "1358578",
    "prefecture": "東京都",
    "prefecture_kana": "トウキョウト",
    "prefecture_code": "13",
    "city": "港区",
    "city_kana": "ミナトク",
    "town": "台場",
    "town_kana": "ダイバ",
    "street": "２丁目３−５台場ガーデンシティビル",
    "office_name": "太平洋セメント　株式会社",
    "office_name_kana": "タイヘイヨウセメント カブシキガイシヤ"
  },
  "8579": {
    "zip_code": "1358579",
    "prefecture": "東京都",
    "prefecture_kana": "トウキョウト",
    "prefecture_code": "13",
    "city": "江東区",
    "city_kana": "コウトウク",
    "town": "東雲",
    "town_kana": "シノノメ",
    "street": "１丁目５−１７",
    "office_name": "株式会社　ナカノ　東京支店",
    "office_name_kana": "カブシキガイシヤ ナカノ トウキヨウシテン"
  },
  "8581": {
    "zip_code": "1358581",
    "prefecture": "東京都",
    "prefecture_kana": "トウキョウト",
    "prefecture_code": "13",
    "city": "江東区",
    "city_kana": "コウトウク",
    "town": "木場",
    "town_kana": "キバ",
    "street": "１丁目５番６５号",
    "office_name": "株式会社　りそな銀行",
    "office_name_kana": "カブシキガイシヤ リソナギンコウ"
  },
  "8582": {
    "zip_code": "1358582",
    "prefecture": "東京都",
    "prefecture_kana": "トウキョウト",
    "prefecture_code": "13",
    "city": "江東区",
    "city_kana": "コウトウク",
    "town": "木場",
    "town_kana": "キバ",
    "street": "１丁目５番６５号",
    "office_name": "株式会社　りそなホールディングス",
    "office_name_kana": "カブシキガイシヤ リソナホ-ルデイングス"
  },
  "8585": {
    "zip_code": "1358585",
    "prefecture": "東京都",
    "prefecture_kana": "トウキョウト",
    "prefecture_code": "13",
    "city": "江東区",
    "city_kana": "コウトウク",
    "town": "潮見",
    "town_kana": "シオミ",
    "street": "２丁目１０−１０日本カトリック会館",
    "office_name": "宗教法人　カトリック中央協議会",
    "office_name_kana": "シユウキヨウホウジン カトリツクチユウオウキヨウギカイ"
  },
  "8587": {
    "zip_code": "1358587",
    "prefecture": "東京都",
    "prefecture_kana": "トウキョウト",
    "prefecture_code": "13",
    "city": "品川区",
    "city_kana": "シナガワク",
    "town": "東八潮",
    "town_kana": "ヒガシヤシオ",
    "street": "３−１",
    "office_name": "財団法人　日本海事科学振興財団",
    "office_name_kana": "ザイダンホウジン ニホンカイジカガクシンコウザイダン"
  },
  "8602": {
    "zip_code": "1358602",
    "prefecture": "東京都",
    "prefecture_kana": "トウキョウト",
    "prefecture_code": "13",
    "city": "江東区",
    "city_kana": "コウトウク",
    "town": "福住",
    "town_kana": "フクズミ",
    "street": "２丁目３−１０",
    "office_name": "株式会社　アイアイジェイフィナンシャルシステムズ",
    "office_name_kana": "カブシキガイシヤ アイアイジエイフイナンシヤルシステムズ"
  },
  "8608": {
    "zip_code": "1358608",
    "prefecture": "東京都",
    "prefecture_kana": "トウキョウト",
    "prefecture_code": "13",
    "city": "江東区",
    "city_kana": "コウトウク",
    "town": "豊洲",
    "town_kana": "トヨス",
    "street": "３−２−２０",
    "office_name": "マルハニチロ　株式会社",
    "office_name_kana": "マルハニチロ カブシキガイシヤ"
  },
  "8611": {
    "zip_code": "1358611",
    "prefecture": "東京都",
    "prefecture_kana": "トウキョウト",
    "prefecture_code": "13",
    "city": "江東区",
    "city_kana": "コウトウク",
    "town": "有明",
    "town_kana": "アリアケ",
    "street": "３丁目１−２５",
    "office_name": "アクサ損害保険　株式会社",
    "office_name_kana": "アクサソンガイホケン カブシキガイシヤ"
  },
  "8614": {
    "zip_code": "1358614",
    "prefecture": "東京都",
    "prefecture_kana": "トウキョウト",
    "prefecture_code": "13",
    "city": "江東区",
    "city_kana": "コウトウク",
    "town": "豊洲",
    "town_kana": "トヨス",
    "street": "２丁目４−９",
    "office_name": "アーバンドック　ららぽーと豊洲",
    "office_name_kana": "ア-バンドツク ララポ-トトヨス"
  },
  "8616": {
    "zip_code": "1358616",
    "prefecture": "東京都",
    "prefecture_kana": "トウキョウト",
    "prefecture_code": "13",
    "city": "江東区",
    "city_kana": "コウトウク",
    "town": "豊洲",
    "town_kana": "トヨス",
    "street": "５丁目６−１５ＮＢＦ豊洲ガーデンフロント５Ｆ",
    "office_name": "株式会社　博報堂ＤＹホールディングス",
    "office_name_kana": "カブシキガイシヤ ハクホウドウデイ-ワイホ-ルデイングス"
  },
  "8617": {
    "zip_code": "1358617",
    "prefecture": "東京都",
    "prefecture_kana": "トウキョウト",
    "prefecture_code": "13",
    "city": "江東区",
    "city_kana": "コウトウク",
    "town": "豊洲",
    "town_kana": "トヨス",
    "street": "５丁目６−１５ＮＢＦ豊洲ガーデンフロント５Ｆ",
    "office_name": "株式会社　博報堂ＤＹアイ・オー",
    "office_name_kana": "カブシキガイシヤ ハクホウドウデイ-ワイアイ・オ-"
  },
  "8618": {
    "zip_code": "1358618",
    "prefecture": "東京都",
    "prefecture_kana": "トウキョウト",
    "prefecture_code": "13",
    "city": "江東区",
    "city_kana": "コウトウク",
    "town": "豊洲",
    "town_kana": "トヨス",
    "street": "５丁目６−１５ＮＢＦ豊洲ガーデンフロント５Ｆ",
    "office_name": "株式会社　博報堂ＤＹトータルサポート",
    "office_name_kana": "カブシキガイシヤ ハクホウドウデイ-ワイト-タルサポ-ト"
  },
  "8619": {
    "zip_code": "1358619",
    "prefecture": "東京都",
    "prefecture_kana": "トウキョウト",
    "prefecture_code": "13",
    "city": "江東区",
    "city_kana": "コウトウク",
    "town": "豊洲",
    "town_kana": "トヨス",
    "street": "５丁目６−１５ＮＢＦ豊洲ガーデンフロント１〜５Ｆ",
    "office_name": "株式会社　博報堂プロダクツ",
    "office_name_kana": "カブシキガイシヤ ハクホウドウプロダクツ"
  },
  "8620": {
    "zip_code": "1358620",
    "prefecture": "東京都",
    "prefecture_kana": "トウキョウト",
    "prefecture_code": "13",
    "city": "江東区",
    "city_kana": "コウトウク",
    "town": "豊洲",
    "town_kana": "トヨス",
    "street": "５丁目６−１５ＮＢＦ豊洲ガーデンフロント１〜５Ｆ",
    "office_name": "株式会社　博報堂アドダム",
    "office_name_kana": "カブシキガイシヤ ハクホウドウアドダム"
  },
  "8621": {
    "zip_code": "1358621",
    "prefecture": "東京都",
    "prefecture_kana": "トウキョウト",
    "prefecture_code": "13",
    "city": "江東区",
    "city_kana": "コウトウク",
    "town": "豊洲",
    "town_kana": "トヨス",
    "street": "５丁目６−１５ＮＢＦ豊洲ガーデンフロント９Ｆ",
    "office_name": "株式会社　博報堂アイ・スタジオ",
    "office_name_kana": "カブシキガイシヤ ハクホウドウアイ・スタジオ"
  },
  "8622": {
    "zip_code": "1358622",
    "prefecture": "東京都",
    "prefecture_kana": "トウキョウト",
    "prefecture_code": "13",
    "city": "港区",
    "city_kana": "ミナトク",
    "town": "台場",
    "town_kana": "ダイバ",
    "street": "２丁目３−４",
    "office_name": "株式会社　乃村工藝社",
    "office_name_kana": "カブシキガイシヤ ノムラコウゲイシヤ"
  },
  "8625": {
    "zip_code": "1358625",
    "prefecture": "東京都",
    "prefecture_kana": "トウキョウト",
    "prefecture_code": "13",
    "city": "港区",
    "city_kana": "ミナトク",
    "town": "台場",
    "town_kana": "ダイバ",
    "street": "１丁目９−１",
    "office_name": "株式会社　東京ヒューマニアエンタプライズ",
    "office_name_kana": "カブシキガイシヤ トウキヨウヒユ-マニアエンタプライズ"
  },
  "8630": {
    "zip_code": "1358630",
    "prefecture": "東京都",
    "prefecture_kana": "トウキョウト",
    "prefecture_code": "13",
    "city": "江東区",
    "city_kana": "コウトウク",
    "town": "青海",
    "town_kana": "アオミ",
    "street": "２丁目７９番",
    "office_name": "国際研究交流大学村　東京国際交流館",
    "office_name_kana": "コクサイケンキユウコウリユウダイガクムラ トウキヨウコクサイコウリユウカン"
  },
  "8631": {
    "zip_code": "1358631",
    "prefecture": "東京都",
    "prefecture_kana": "トウキョウト",
    "prefecture_code": "13",
    "city": "港区",
    "city_kana": "ミナトク",
    "town": "台場",
    "town_kana": "ダイバ",
    "street": "２丁目３−３",
    "office_name": "サントリー　株式会社",
    "office_name_kana": "サントリ- カブシキガイシヤ"
  },
  "8632": {
    "zip_code": "1358632",
    "prefecture": "東京都",
    "prefecture_kana": "トウキョウト",
    "prefecture_code": "13",
    "city": "港区",
    "city_kana": "ミナトク",
    "town": "台場",
    "town_kana": "ダイバ",
    "street": "２丁目３−３",
    "office_name": "サントリーフーズ　株式会社",
    "office_name_kana": "サントリ-フ-ズ カブシキガイシヤ"
  },
  "8639": [
    {
      "zip_code": "1358639",
      "prefecture": "東京都",
      "prefecture_kana": "トウキョウト",
      "prefecture_code": "13",
      "city": "江東区",
      "city_kana": "コウトウク",
      "town": "辰巳",
      "town_kana": "タツミ",
      "street": "２丁目１−６７",
      "office_name": "東京都赤十字血液センター",
      "office_name_kana": "トウキヨウトセキジユウジケツエキセンタ-"
    },
    {
      "zip_code": "1358639",
      "prefecture": "東京都",
      "prefecture_kana": "トウキョウト",
      "prefecture_code": "13",
      "city": "江東区",
      "city_kana": "コウトウク",
      "town": "辰巳",
      "town_kana": "タツミ",
      "street": "２丁目１−６７",
      "office_name": "日本赤十字社　関東甲信越ブロック血液センター",
      "office_name_kana": "ニホンセキジユウジシヤ カントウコウシンエツブロツクケツエキセンタ-"
    }
  ],
  "8641": {
    "zip_code": "1358641",
    "prefecture": "東京都",
    "prefecture_kana": "トウキョウト",
    "prefecture_code": "13",
    "city": "江東区",
    "city_kana": "コウトウク",
    "town": "木場",
    "town_kana": "キバ",
    "street": "５丁目８番４０号東京パークサイドビル１４階",
    "office_name": "ヤマトマテリアル　株式会社",
    "office_name_kana": "ヤアトマテリアル カブシキガイシヤ"
  },
  "8650": {
    "zip_code": "1358650",
    "prefecture": "東京都",
    "prefecture_kana": "トウキョウト",
    "prefecture_code": "13",
    "city": "江東区",
    "city_kana": "コウトウク",
    "town": "有明",
    "town_kana": "アリアケ",
    "street": "３丁目４番２号",
    "office_name": "ソフトバンクテレコム　株式会社",
    "office_name_kana": "ソフトバンクテレコム カブシキカイシヤ"
  },
  "8655": {
    "zip_code": "1358655",
    "prefecture": "東京都",
    "prefecture_kana": "トウキョウト",
    "prefecture_code": "13",
    "city": "港区",
    "city_kana": "ミナトク",
    "town": "台場",
    "town_kana": "ダイバ",
    "street": "２丁目３番地１号",
    "office_name": "日商岩井　株式会社",
    "office_name_kana": "ニツシヨウイワイ カブシキガイシヤ"
  },
  "8659": {
    "zip_code": "1358659",
    "prefecture": "東京都",
    "prefecture_kana": "トウキョウト",
    "prefecture_code": "13",
    "city": "江東区",
    "city_kana": "コウトウク",
    "town": "新大橋",
    "town_kana": "シンオオハシ",
    "street": "１丁目８−１１三井生命新大橋ビル",
    "office_name": "株式会社　コックス",
    "office_name_kana": "カブシキガイシヤ コツクス"
  },
  "8661": {
    "zip_code": "1358661",
    "prefecture": "東京都",
    "prefecture_kana": "トウキョウト",
    "prefecture_code": "13",
    "city": "港区",
    "city_kana": "ミナトク",
    "town": "台場",
    "town_kana": "ダイバ",
    "street": "２丁目３−１",
    "office_name": "日本テレコムＩＤＣ　株式会社",
    "office_name_kana": "ニツポンテレコムアイデイシ- カブシキガイシヤ"
  },
  "8666": {
    "zip_code": "1358666",
    "prefecture": "東京都",
    "prefecture_kana": "トウキョウト",
    "prefecture_code": "13",
    "city": "江東区",
    "city_kana": "コウトウク",
    "town": "有明",
    "town_kana": "アリアケ",
    "street": "１丁目５−３５",
    "office_name": "日本ベニア　株式会社　東京営業所",
    "office_name_kana": "ニホンベニア カブシキガイシヤ トウキヨウエイギヨウシヨ"
  },
  "8668": {
    "zip_code": "1358668",
    "prefecture": "東京都",
    "prefecture_kana": "トウキョウト",
    "prefecture_code": "13",
    "city": "江東区",
    "city_kana": "コウトウク",
    "town": "青海",
    "town_kana": "アオミ",
    "street": "２−４−２４青海フロンティアビル６Ｆ",
    "office_name": "株式会社　ジェイ・スポーツ",
    "office_name_kana": "カブシキガイシヤ ジエイ・スポ-ツ"
  },
  "8670": {
    "zip_code": "1358670",
    "prefecture": "東京都",
    "prefecture_kana": "トウキョウト",
    "prefecture_code": "13",
    "city": "江東区",
    "city_kana": "コウトウク",
    "town": "潮見",
    "town_kana": "シオミ",
    "street": "２丁目１０−２４",
    "office_name": "株式会社　システムソフト　東京センター",
    "office_name_kana": "カブシキガイシヤ システムソフト トウキヨウセンタ-"
  },
  "8671": {
    "zip_code": "1358671",
    "prefecture": "東京都",
    "prefecture_kana": "トウキョウト",
    "prefecture_code": "13",
    "city": "江東区",
    "city_kana": "コウトウク",
    "town": "豊洲",
    "town_kana": "トヨス",
    "street": "３丁目３−９",
    "office_name": "株式会社　エヌ・ティ・ティ・データ",
    "office_name_kana": "カブシキガイシヤ エヌ・テイ・テイ・デ-タ"
  },
  "8677": {
    "zip_code": "1358677",
    "prefecture": "東京都",
    "prefecture_kana": "トウキョウト",
    "prefecture_code": "13",
    "city": "江東区",
    "city_kana": "コウトウク",
    "town": "豊洲",
    "town_kana": "トヨス",
    "street": "３丁目３−９豊洲センタービルアネックス",
    "office_name": "エヌ・ティ・ティ・データ　カスタマサービス　株式会社",
    "office_name_kana": "エヌ・テイ・テイ・デ-タ カスタマサ-ビス カブシキガイシヤ"
  },
  "8678": {
    "zip_code": "1358678",
    "prefecture": "東京都",
    "prefecture_kana": "トウキョウト",
    "prefecture_code": "13",
    "city": "江東区",
    "city_kana": "コウトウク",
    "town": "豊洲",
    "town_kana": "トヨス",
    "street": "３−３−９豊洲センタービルアネックス",
    "office_name": "株式会社　ＮＴＴデータＳＭＳ",
    "office_name_kana": "カブシキガイシヤ エヌテイテイデ-タエスエムエス"
  },
  "8686": {
    "zip_code": "1358686",
    "prefecture": "東京都",
    "prefecture_kana": "トウキョウト",
    "prefecture_code": "13",
    "city": "江東区",
    "city_kana": "コウトウク",
    "town": "青海",
    "town_kana": "アオミ",
    "street": "２丁目４番３２号タイム２４ビル",
    "office_name": "富士通エフ・アイ・ピー　株式会社",
    "office_name_kana": "フジツウエフ・アイ・ピ- カブシキガイシヤ"
  },
  "8701": {
    "zip_code": "1358701",
    "prefecture": "東京都",
    "prefecture_kana": "トウキョウト",
    "prefecture_code": "13",
    "city": "港区",
    "city_kana": "ミナトク",
    "town": "台場",
    "town_kana": "ダイバ",
    "street": "２丁目６−１",
    "office_name": "株式会社　ホテルグランパシフィック",
    "office_name_kana": "カブシキガイシヤ ホテルグランパシフイツク"
  },
  "8707": {
    "zip_code": "1358707",
    "prefecture": "東京都",
    "prefecture_kana": "トウキョウト",
    "prefecture_code": "13",
    "city": "港区",
    "city_kana": "ミナトク",
    "town": "台場",
    "town_kana": "ダイバ",
    "street": "１丁目７番１号",
    "office_name": "アクアシティお台場",
    "office_name_kana": "アクアシテイオダイバ"
  },
  "8710": {
    "zip_code": "1358710",
    "prefecture": "東京都",
    "prefecture_kana": "トウキョウト",
    "prefecture_code": "13",
    "city": "江東区",
    "city_kana": "コウトウク",
    "town": "豊洲",
    "town_kana": "トヨス",
    "street": "３丁目１−１",
    "office_name": "株式会社　ＩＨＩ",
    "office_name_kana": "カブシキガイシヤ アイエイチアイ"
  },
  "8711": {
    "zip_code": "1358711",
    "prefecture": "東京都",
    "prefecture_kana": "トウキョウト",
    "prefecture_code": "13",
    "city": "江東区",
    "city_kana": "コウトウク",
    "town": "東雲",
    "town_kana": "シノノメ",
    "street": "２丁目１６−１",
    "office_name": "かえつ有明中学校・かえつ有明高等学校",
    "office_name_kana": "カエツアリアケチユウガツコウ・カエツアリアケコウトウガツコウ"
  },
  "8717": {
    "zip_code": "1358717",
    "prefecture": "東京都",
    "prefecture_kana": "トウキョウト",
    "prefecture_code": "13",
    "city": "江東区",
    "city_kana": "コウトウク",
    "town": "豊洲",
    "town_kana": "トヨス",
    "street": "５丁目６−５２ＩＳＴビル",
    "office_name": "株式会社　オートバックスセブン",
    "office_name_kana": "カブシキガイシヤ オ-トバツクスセブン"
  },
  "8718": {
    "zip_code": "1358718",
    "prefecture": "東京都",
    "prefecture_kana": "トウキョウト",
    "prefecture_code": "13",
    "city": "港区",
    "city_kana": "ミナトク",
    "town": "台場",
    "town_kana": "ダイバ",
    "street": "１丁目７番１号",
    "office_name": "メディアージュ",
    "office_name_kana": "メデイア-ジユ"
  },
  "8720": {
    "zip_code": "1358720",
    "prefecture": "東京都",
    "prefecture_kana": "トウキョウト",
    "prefecture_code": "13",
    "city": "江東区",
    "city_kana": "コウトウク",
    "town": "東陽",
    "town_kana": "トウヨウ",
    "street": "２丁目２−１５（深川郵便局私書箱第２号）",
    "office_name": "明治生命保険相互会社",
    "office_name_kana": "メイジセイメイホケンソウゴガイシヤ"
  },
  "8721": {
    "zip_code": "1358721",
    "prefecture": "東京都",
    "prefecture_kana": "トウキョウト",
    "prefecture_code": "13",
    "city": "江東区",
    "city_kana": "コウトウク",
    "town": "越中島",
    "town_kana": "エッチュウジマ",
    "street": "２丁目１−３０（深川郵便局私書箱第６１号）",
    "office_name": "東京スポーツ新聞社",
    "office_name_kana": "トウキヨウスポ-ツシンブンシヤ"
  },
  "8722": {
    "zip_code": "1358722",
    "prefecture": "東京都",
    "prefecture_kana": "トウキョウト",
    "prefecture_code": "13",
    "city": "江東区",
    "city_kana": "コウトウク",
    "town": "佐賀",
    "town_kana": "サガ",
    "street": "１丁目１７−７（深川郵便局私書箱第７４号）",
    "office_name": "みずほ信託銀行　株式会社　証券代行部",
    "office_name_kana": "ミズホシンタクギンコウ カブシキガイシヤ シヨウケンダイコウブ"
  },
  "8723": {
    "zip_code": "1358723",
    "prefecture": "東京都",
    "prefecture_kana": "トウキョウト",
    "prefecture_code": "13",
    "city": "江東区",
    "city_kana": "コウトウク",
    "town": "佐賀",
    "town_kana": "サガ",
    "street": "１丁目１７−７（深川郵便局私書箱第７４号）",
    "office_name": "みずほ信託銀行　株式会社　事務推進部",
    "office_name_kana": "ミズホシンタクギンコウ カブシキガイシヤ ジムスイシンブ"
  },
  "8727": {
    "zip_code": "1358727",
    "prefecture": "東京都",
    "prefecture_kana": "トウキョウト",
    "prefecture_code": "13",
    "city": "江東区",
    "city_kana": "コウトウク",
    "town": "佐賀",
    "town_kana": "サガ",
    "street": "１−１７−７",
    "office_name": "みずほ信託銀行　株式会社　トラスト事務センター",
    "office_name_kana": "ミズホシンタクギンコウ カブシキガイシヤ トラストジムセンタ-"
  },
  "8730": {
    "zip_code": "1358730",
    "prefecture": "東京都",
    "prefecture_kana": "トウキョウト",
    "prefecture_code": "13",
    "city": "江東区",
    "city_kana": "コウトウク",
    "town": "深川",
    "town_kana": "フカガワ",
    "street": "１−１１−１２（深川郵便局私書箱第１０９号）",
    "office_name": "株式会社　内田洋行",
    "office_name_kana": "カブシキガイシヤ ウチダヨウコウ"
  },
  "8731": {
    "zip_code": "1358731",
    "prefecture": "東京都",
    "prefecture_kana": "トウキョウト",
    "prefecture_code": "13",
    "city": "江東区",
    "city_kana": "コウトウク",
    "town": "豊洲",
    "town_kana": "トヨス",
    "street": "２丁目１−１（深川郵便局私書箱第１８号）",
    "office_name": "石川島播磨重工業　株式会社　東京第一工場",
    "office_name_kana": "イシカワジマハリマジユウコウギヨウ カブシキガイシヤ トウキヨウダイイチコウジヨウ"
  },
  "8732": {
    "zip_code": "1358732",
    "prefecture": "東京都",
    "prefecture_kana": "トウキョウト",
    "prefecture_code": "13",
    "city": "江東区",
    "city_kana": "コウトウク",
    "town": "豊洲",
    "town_kana": "トヨス",
    "street": "３丁目１−１５（深川郵便局私書箱第１９号）",
    "office_name": "石川島播磨重工業　株式会社　東二テクニカルセンター",
    "office_name_kana": "イシカワジマハリマジユウコウギヨウ カブシキガイシヤ トウニテクニカルセンタ-"
  },
  "8733": {
    "zip_code": "1358733",
    "prefecture": "東京都",
    "prefecture_kana": "トウキョウト",
    "prefecture_code": "13",
    "city": "江東区",
    "city_kana": "コウトウク",
    "town": "豊洲",
    "town_kana": "トヨス",
    "street": "３丁目２−１６（深川郵便局私書箱第６号）",
    "office_name": "石川島播磨重工業　株式会社　豊洲総合事務所",
    "office_name_kana": "イシカワジマハリマジユウコウギヨウ カブシキガイシヤ トヨスソウゴウジムシヨ"
  }
}