{
  "0041": {
    "zip_code": "1420041",
    "prefecture": "東京都",
    "prefecture_kana": "トウキョウト",
    "prefecture_code": "13",
    "city": "品川区",
    "city_kana": "シナガワク",
    "town": "戸越",
    "town_kana": "トゴシ",
    "street": null,
    "office_name": null,
    "office_name_kana": null
  },
  "0042": {
    "zip_code": "1420042",
    "prefecture": "東京都",
    "prefecture_kana": "トウキョウト",
    "prefecture_code": "13",
    "city": "品川区",
    "city_kana": "シナガワク",
    "town": "豊町",
    "town_kana": "ユタカチョウ",
    "street": null,
    "office_name": null,
    "office_name_kana": null
  },
  "0043": {
    "zip_code": "1420043",
    "prefecture": "東京都",
    "prefecture_kana": "トウキョウト",
    "prefecture_code": "13",
    "city": "品川区",
    "city_kana": "シナガワク",
    "town": "二葉",
    "town_kana": "フタバ",
    "street": null,
    "office_name": null,
    "office_name_kana": null
  },
  "0051": {
    "zip_code": "1420051",
    "prefecture": "東京都",
    "prefecture_kana": "トウキョウト",
    "prefecture_code": "13",
    "city": "品川区",
    "city_kana": "シナガワク",
    "town": "平塚",
    "town_kana": "ヒラツカ",
    "street": null,
    "office_name": null,
    "office_name_kana": null
  },
  "0052": {
    "zip_code": "1420052",
    "prefecture": "東京都",
    "prefecture_kana": "トウキョウト",
    "prefecture_code": "13",
    "city": "品川区",
    "city_kana": "シナガワク",
    "town": "東中延",
    "town_kana": "ヒガシナカノブ",
    "street": null,
    "office_name": null,
    "office_name_kana": null
  },
  "0053": {
    "zip_code": "1420053",
    "prefecture": "東京都",
    "prefecture_kana": "トウキョウト",
    "prefecture_code": "13",
    "city": "品川区",
    "city_kana": "シナガワク",
    "town": "中延",
    "town_kana": "ナカノブ",
    "street": null,
    "office_name": null,
    "office_name_kana": null
  },
  "0054": {
    "zip_code": "1420054",
    "prefecture": "東京都",
    "prefecture_kana": "トウキョウト",
    "prefecture_code": "13",
    "city": "品川区",
    "city_kana": "シナガワク",
    "town": "西中延",
    "town_kana": "ニシナカノブ",
    "street": null,
    "office_name": null,
    "office_name_kana": null
  },
  "0061": {
    "zip_code": "1420061",
    "prefecture": "東京都",
    "prefecture_kana": "トウキョウト",
    "prefecture_code": "13",
    "city": "品川区",
    "city_kana": "シナガワク",
    "town": "小山台",
    "town_kana": "コヤマダイ",
    "street": null,
    "office_name": null,
    "office_name_kana": null
  },
  "0062": {
    "zip_code": "1420062",
    "prefecture": "東京都",
    "prefecture_kana": "トウキョウト",
    "prefecture_code": "13",
    "city": "品川区",
    "city_kana": "シナガワク",
    "town": "小山",
    "town_kana": "コヤマ",
    "street": null,
    "office_name": null,
    "office_name_kana": null
  },
  "0063": {
    "zip_code": "1420063",
    "prefecture": "東京都",
    "prefecture_kana": "トウキョウト",
    "prefecture_code": "13",
    "city": "品川区",
    "city_kana": "シナガワク",
    "town": "荏原",
    "town_kana": "エバラ",
    "street": null,
    "office_name": null,
    "office_name_kana": null
  },
  "0064": {
    "zip_code": "1420064",
    "prefecture": "東京都",
    "prefecture_kana": "トウキョウト",
    "prefecture_code": "13",
    "city": "品川区",
    "city_kana": "シナガワク",
    "town": "旗の台",
    "town_kana": "ハタノダイ",
    "street": null,
    "office_name": null,
    "office_name_kana": null
  },
  "8501": {
    "zip_code": "1428501",
    "prefecture": "東京都",
    "prefecture_kana": "トウキョウト",
    "prefecture_code": "13",
    "city": "品川区",
    "city_kana": "シナガワク",
    "town": "荏原",
    "town_kana": "エバラ",
    "street": "２丁目４−４１",
    "office_name": "星薬科大学",
    "office_name_kana": "ホシヤクカダイガク"
  },
  "8511": {
    "zip_code": "1428511",
    "prefecture": "東京都",
    "prefecture_kana": "トウキョウト",
    "prefecture_code": "13",
    "city": "品川区",
    "city_kana": "シナガワク",
    "town": "戸越",
    "town_kana": "トゴシ",
    "street": "６丁目５−５",
    "office_name": "ＳＭＫ　株式会社",
    "office_name_kana": "エスエムケイ カブシキガイシヤ"
  },
  "8533": {
    "zip_code": "1428533",
    "prefecture": "東京都",
    "prefecture_kana": "トウキョウト",
    "prefecture_code": "13",
    "city": "品川区",
    "city_kana": "シナガワク",
    "town": "戸越",
    "town_kana": "トゴシ",
    "street": "１丁目１７−８",
    "office_name": "杉本電器　株式会社",
    "office_name_kana": "スギモトデンキ カブシキガイシヤ"
  },
  "8540": {
    "zip_code": "1428540",
    "prefecture": "東京都",
    "prefecture_kana": "トウキョウト",
    "prefecture_code": "13",
    "city": "品川区",
    "city_kana": "シナガワク",
    "town": "中延",
    "town_kana": "ナカノブ",
    "street": "１丁目１−５",
    "office_name": "荏原税務署",
    "office_name_kana": "エバラゼイムシヨ"
  },
  "8550": {
    "zip_code": "1428550",
    "prefecture": "東京都",
    "prefecture_kana": "トウキョウト",
    "prefecture_code": "13",
    "city": "品川区",
    "city_kana": "シナガワク",
    "town": "二葉",
    "town_kana": "フタバ",
    "street": "１丁目６−６",
    "office_name": "青稜中学高等学校",
    "office_name_kana": "セイリヨウチユウガクコウトウガツコウ"
  },
  "8555": {
    "zip_code": "1428555",
    "prefecture": "東京都",
    "prefecture_kana": "トウキョウト",
    "prefecture_code": "13",
    "city": "品川区",
    "city_kana": "シナガワク",
    "town": "旗の台",
    "town_kana": "ハタノダイ",
    "street": "１丁目５−８",
    "office_name": "昭和大学",
    "office_name_kana": "シヨウワダイガク"
  },
  "8558": {
    "zip_code": "1428558",
    "prefecture": "東京都",
    "prefecture_kana": "トウキョウト",
    "prefecture_code": "13",
    "city": "品川区",
    "city_kana": "シナガワク",
    "town": "小山",
    "town_kana": "コヤマ",
    "street": "１丁目３−２６",
    "office_name": "大陽日酸　株式会社",
    "office_name_kana": "タイヨウニツサン カブシキガイシヤ"
  },
  "8611": {
    "zip_code": "1428611",
    "prefecture": "東京都",
    "prefecture_kana": "トウキョウト",
    "prefecture_code": "13",
    "city": "品川区",
    "city_kana": "シナガワク",
    "town": "荏原",
    "town_kana": "エバラ",
    "street": "５丁目２−１",
    "office_name": "株式会社　三英社製作所",
    "office_name_kana": "カブシキガイシヤ サンエイシヤセイサクシヨ"
  },
  "8666": {
    "zip_code": "1428666",
    "prefecture": "東京都",
    "prefecture_kana": "トウキョウト",
    "prefecture_code": "13",
    "city": "品川区",
    "city_kana": "シナガワク",
    "town": "旗の台",
    "town_kana": "ハタノダイ",
    "street": "１丁目５−８",
    "office_name": "昭和大学病院",
    "office_name_kana": "シヨウワダイガクビヨウイン"
  }
}