{
  "0041": {
    "zip_code": "1530041",
    "prefecture": "東京都",
    "prefecture_kana": "トウキョウト",
    "prefecture_code": "13",
    "city": "目黒区",
    "city_kana": "メグロク",
    "town": "駒場",
    "town_kana": "コマバ",
    "street": null,
    "office_name": null,
    "office_name_kana": null
  },
  "0042": {
    "zip_code": "1530042",
    "prefecture": "東京都",
    "prefecture_kana": "トウキョウト",
    "prefecture_code": "13",
    "city": "目黒区",
    "city_kana": "メグロク",
    "town": "青葉台",
    "town_kana": "アオバダイ",
    "street": null,
    "office_name": null,
    "office_name_kana": null
  },
  "0043": {
    "zip_code": "1530043",
    "prefecture": "東京都",
    "prefecture_kana": "トウキョウト",
    "prefecture_code": "13",
    "city": "目黒区",
    "city_kana": "メグロク",
    "town": "東山",
    "town_kana": "ヒガシヤマ",
    "street": null,
    "office_name": null,
    "office_name_kana": null
  },
  "0044": {
    "zip_code": "1530044",
    "prefecture": "東京都",
    "prefecture_kana": "トウキョウト",
    "prefecture_code": "13",
    "city": "目黒区",
    "city_kana": "メグロク",
    "town": "大橋",
    "town_kana": "オオハシ",
    "street": null,
    "office_name": null,
    "office_name_kana": null
  },
  "0051": {
    "zip_code": "1530051",
    "prefecture": "東京都",
    "prefecture_kana": "トウキョウト",
    "prefecture_code": "13",
    "city": "目黒区",
    "city_kana": "メグロク",
    "town": "上目黒",
    "town_kana": "カミメグロ",
    "street": null,
    "office_name": null,
    "office_name_kana": null
  },
  "0052": {
    "zip_code": "1530052",
    "prefecture": "東京都",
    "prefecture_kana": "トウキョウト",
    "prefecture_code": "13",
    "city": "目黒区",
    "city_kana": "メグロク",
    "town": "祐天寺",
    "town_kana": "ユウテンジ",
    "street": null,
    "office_name": null,
    "office_name_kana": null
  },
  "0053": {
    "zip_code": "1530053",
    "prefecture": "東京都",
    "prefecture_kana": "トウキョウト",
    "prefecture_code": "13",
    "city": "目黒区",
    "city_kana": "メグロク",
    "town": "五本木",
    "town_kana": "ゴホンギ",
    "street": null,
    "office_name": null,
    "office_name_kana": null
  },
  "0061": {
    "zip_code": "1530061",
    "prefecture": "東京都",
    "prefecture_kana": "トウキョウト",
    "prefecture_code": "13",
    "city": "目黒区",
    "city_kana": "メグロク",
    "town": "中目黒",
    "town_kana": "ナカメグロ",
    "street": null,
    "office_name": null,
    "office_name_kana": null
  },
  "0062": {
    "zip_code": "1530062",
    "prefecture": "東京都",
    "prefecture_kana": "トウキョウト",
    "prefecture_code": "13",
    "city": "目黒区",
    "city_kana": "メグロク",
    "town": "三田",
    "town_kana": "ミタ",
    "street": null,
    "office_name": null,
    "office_name_kana": null
  },
  "0063": {
    "zip_code": "1530063",
    "prefecture": "東京都",
    "prefecture_kana": "トウキョウト",
    "prefecture_code": "13",
    "city": "目黒区",
    "city_kana": "メグロク",
    "town": "目黒",
    "town_kana": "メグロ",
    "street": null,
    "office_name": null,
    "office_name_kana": null
  },
  "0064": {
    "zip_code": "1530064",
    "prefecture": "東京都",
    "prefecture_kana": "トウキョウト",
    "prefecture_code": "13",
    "city": "目黒区",
    "city_kana": "メグロク",
    "town": "下目黒",
    "town_kana": "シモメグロ",
    "street": null,
    "office_name": null,
    "office_name_kana": null
  },
  "0065": {
    "zip_code": "1530065",
    "prefecture": "東京都",
    "prefecture_kana": "トウキョウト",
    "prefecture_code": "13",
    "city": "目黒区",
    "city_kana": "メグロク",
    "town": "中町",
    "town_kana": "ナカチョウ",
    "street": null,
    "office_name": null,
    "office_name_kana": null
  },
  "8501": {
    "zip_code": "1538501",
    "prefecture": "東京都",
    "prefecture_kana": "トウキョウト",
    "prefecture_code": "13",
    "city": "目黒区",
    "city_kana": "メグロク",
    "town": "駒場",
    "town_kana": "コマバ",
    "street": "２丁目１９−２３",
    "office_name": "大学入試センター",
    "office_name_kana": "ダイガクニユウシセンタ-"
  },
  "8502": {
    "zip_code": "1538502",
    "prefecture": "東京都",
    "prefecture_kana": "トウキョウト",
    "prefecture_code": "13",
    "city": "目黒区",
    "city_kana": "メグロク",
    "town": "目黒",
    "town_kana": "メグロ",
    "street": "２丁目１３−１８",
    "office_name": "りそな決済サービス　（株）　支払業務センター",
    "office_name_kana": "リソナケツサイサ-ビス (カブ) シハライギヨウムセンタ-"
  },
  "8503": {
    "zip_code": "1538503",
    "prefecture": "東京都",
    "prefecture_kana": "トウキョウト",
    "prefecture_code": "13",
    "city": "目黒区",
    "city_kana": "メグロク",
    "town": "駒場",
    "town_kana": "コマバ",
    "street": "４丁目５−２９",
    "office_name": "（財）　日本国際教育支援協会",
    "office_name_kana": "(ザイ) ニホンコクサイキヨウイクシエンキヨウカイ"
  },
  "8504": {
    "zip_code": "1538504",
    "prefecture": "東京都",
    "prefecture_kana": "トウキョウト",
    "prefecture_code": "13",
    "city": "目黒区",
    "city_kana": "メグロク",
    "town": "下目黒",
    "town_kana": "シモメグロ",
    "street": "３丁目７番１０号",
    "office_name": "株式会社　紀伊國屋書店",
    "office_name_kana": "カブシキガイシヤ キノクニヤシヨテン"
  },
  "8505": {
    "zip_code": "1538505",
    "prefecture": "東京都",
    "prefecture_kana": "トウキョウト",
    "prefecture_code": "13",
    "city": "目黒区",
    "city_kana": "メグロク",
    "town": "駒場",
    "town_kana": "コマバ",
    "street": "４丁目６−１",
    "office_name": "東京大学生産技術研究所",
    "office_name_kana": "トウキヨウダイガクセイサンギジユツケンキユウジヨ"
  },
  "8506": {
    "zip_code": "1538506",
    "prefecture": "東京都",
    "prefecture_kana": "トウキョウト",
    "prefecture_code": "13",
    "city": "目黒区",
    "city_kana": "メグロク",
    "town": "目黒",
    "town_kana": "メグロ",
    "street": "２丁目１３−１８",
    "office_name": "りそな決済サービス　株式会社　業務センター",
    "office_name_kana": "リソナケツサイサ-ビス カブシキガイシヤ ギヨウムセンタ-"
  },
  "8508": {
    "zip_code": "1538508",
    "prefecture": "東京都",
    "prefecture_kana": "トウキョウト",
    "prefecture_code": "13",
    "city": "目黒区",
    "city_kana": "メグロク",
    "town": "駒場",
    "town_kana": "コマバ",
    "street": "１丁目３５−３２",
    "office_name": "学校法人　日本工業大学",
    "office_name_kana": "ガツコウホウジン ニホンコウギヨウダイガク"
  },
  "8509": {
    "zip_code": "1538509",
    "prefecture": "東京都",
    "prefecture_kana": "トウキョウト",
    "prefecture_code": "13",
    "city": "目黒区",
    "city_kana": "メグロク",
    "town": "東山",
    "town_kana": "ヒガシヤマ",
    "street": "３丁目８−１",
    "office_name": "東急ファシリティサービス　株式会社",
    "office_name_kana": "トウキユウフアシリテイサ-ビス カブシキガイシヤ"
  },
  "8510": {
    "zip_code": "1538510",
    "prefecture": "東京都",
    "prefecture_kana": "トウキョウト",
    "prefecture_code": "13",
    "city": "目黒区",
    "city_kana": "メグロク",
    "town": "大橋",
    "town_kana": "オオハシ",
    "street": "１丁目６−８",
    "office_name": "やまう　株式会社",
    "office_name_kana": "ヤマウ カブシキガイシヤ"
  },
  "8512": {
    "zip_code": "1538512",
    "prefecture": "東京都",
    "prefecture_kana": "トウキョウト",
    "prefecture_code": "13",
    "city": "目黒区",
    "city_kana": "メグロク",
    "town": "大橋",
    "town_kana": "オオハシ",
    "street": "１丁目６−３",
    "office_name": "株式会社　ヴァンテック",
    "office_name_kana": "カブシキガイシヤ ヴアンテツク"
  },
  "8515": {
    "zip_code": "1538515",
    "prefecture": "東京都",
    "prefecture_kana": "トウキョウト",
    "prefecture_code": "13",
    "city": "目黒区",
    "city_kana": "メグロク",
    "town": "大橋",
    "town_kana": "オオハシ",
    "street": "２丁目１７−６",
    "office_name": "東邦大学医学部付属　大橋病院",
    "office_name_kana": "トウホウダイガクイガクブフゾク オオハシビヨウイン"
  },
  "8516": {
    "zip_code": "1538516",
    "prefecture": "東京都",
    "prefecture_kana": "トウキョウト",
    "prefecture_code": "13",
    "city": "目黒区",
    "city_kana": "メグロク",
    "town": "大橋",
    "town_kana": "オオハシ",
    "street": "２丁目１９−１",
    "office_name": "社会福祉法人　愛隣会",
    "office_name_kana": "シヤカイフクシホウジン アイリンカイ"
  },
  "8518": {
    "zip_code": "1538518",
    "prefecture": "東京都",
    "prefecture_kana": "トウキョウト",
    "prefecture_code": "13",
    "city": "目黒区",
    "city_kana": "メグロク",
    "town": "東山",
    "town_kana": "ヒガシヤマ",
    "street": "３−８−１",
    "office_name": "東急バス　株式会社",
    "office_name_kana": "トウキユウバス カブシキガイシヤ"
  },
  "8520": {
    "zip_code": "1538520",
    "prefecture": "東京都",
    "prefecture_kana": "トウキョウト",
    "prefecture_code": "13",
    "city": "目黒区",
    "city_kana": "メグロク",
    "town": "青葉台",
    "town_kana": "アオバダイ",
    "street": "２丁目１−４",
    "office_name": "株式会社　ジェディックス",
    "office_name_kana": "カブシキガイシヤ ジエデイツクス"
  },
  "8521": {
    "zip_code": "1538521",
    "prefecture": "東京都",
    "prefecture_kana": "トウキョウト",
    "prefecture_code": "13",
    "city": "目黒区",
    "city_kana": "メグロク",
    "town": "青葉台",
    "town_kana": "アオバダイ",
    "street": "１丁目３−３",
    "office_name": "株式会社　ジュンアシダ",
    "office_name_kana": "カブシキガイシヤ ジユンアシダ"
  },
  "8522": {
    "zip_code": "1538522",
    "prefecture": "東京都",
    "prefecture_kana": "トウキョウト",
    "prefecture_code": "13",
    "city": "目黒区",
    "city_kana": "メグロク",
    "town": "青葉台",
    "town_kana": "アオバダイ",
    "street": "４丁目９−６",
    "office_name": "財団法人　日本地図センター",
    "office_name_kana": "ザイダンホウジン ニホンチズセンタ-"
  },
  "8523": {
    "zip_code": "1538523",
    "prefecture": "東京都",
    "prefecture_kana": "トウキョウト",
    "prefecture_code": "13",
    "city": "目黒区",
    "city_kana": "メグロク",
    "town": "青葉台",
    "town_kana": "アオバダイ",
    "street": "３丁目６−３０",
    "office_name": "あおば生命　株式会社",
    "office_name_kana": "アオバセイメイ カブシキガイシヤ"
  },
  "8525": {
    "zip_code": "1538525",
    "prefecture": "東京都",
    "prefecture_kana": "トウキョウト",
    "prefecture_code": "13",
    "city": "目黒区",
    "city_kana": "メグロク",
    "town": "青葉台",
    "town_kana": "アオバダイ",
    "street": "１丁目１３−６",
    "office_name": "株式会社　聖林公司",
    "office_name_kana": "カブシキガイシヤ セイリンコウシ"
  },
  "8526": {
    "zip_code": "1538526",
    "prefecture": "東京都",
    "prefecture_kana": "トウキョウト",
    "prefecture_code": "13",
    "city": "目黒区",
    "city_kana": "メグロク",
    "town": "下目黒",
    "town_kana": "シモメグロ",
    "street": "１丁目８−１アルコタワー５Ｆ",
    "office_name": "メルク製薬　株式会社",
    "office_name_kana": "メルクセイヤク カブシキカイシヤ"
  },
  "8530": {
    "zip_code": "1538530",
    "prefecture": "東京都",
    "prefecture_kana": "トウキョウト",
    "prefecture_code": "13",
    "city": "目黒区",
    "city_kana": "メグロク",
    "town": "青葉台",
    "town_kana": "アオバダイ",
    "street": "１丁目２２−１０",
    "office_name": "エトー　株式会社",
    "office_name_kana": "エト- カブシキガイシヤ"
  },
  "8531": {
    "zip_code": "1538531",
    "prefecture": "東京都",
    "prefecture_kana": "トウキョウト",
    "prefecture_code": "13",
    "city": "目黒区",
    "city_kana": "メグロク",
    "town": "青葉台",
    "town_kana": "アオバダイ",
    "street": "４丁目４−５渋谷スリーサムビルヂング",
    "office_name": "株式会社　ジャパンライフデザインシステムズ",
    "office_name_kana": "カブシキガイシヤ ジヤパンライフデザインシステムズ"
  },
  "8536": {
    "zip_code": "1538536",
    "prefecture": "東京都",
    "prefecture_kana": "トウキョウト",
    "prefecture_code": "13",
    "city": "目黒区",
    "city_kana": "メグロク",
    "town": "青葉台",
    "town_kana": "アオバダイ",
    "street": "２−１−４",
    "office_name": "株式会社　ピー・エックス",
    "office_name_kana": "カブシキガイシヤ ピ-・エツクス"
  },
  "8539": {
    "zip_code": "1538539",
    "prefecture": "東京都",
    "prefecture_kana": "トウキョウト",
    "prefecture_code": "13",
    "city": "目黒区",
    "city_kana": "メグロク",
    "town": "青葉台",
    "town_kana": "アオバダイ",
    "street": "３丁目１−１９",
    "office_name": "日本航空電子工業　株式会社",
    "office_name_kana": "ニホンコウクウデンシコウギヨウ カブシキガイシヤ"
  },
  "8540": {
    "zip_code": "1538540",
    "prefecture": "東京都",
    "prefecture_kana": "トウキョウト",
    "prefecture_code": "13",
    "city": "目黒区",
    "city_kana": "メグロク",
    "town": "青葉台",
    "town_kana": "アオバダイ",
    "street": "３丁目１８−３",
    "office_name": "チャコット　株式会社",
    "office_name_kana": "チヤコツト カブシキガイシヤ"
  },
  "8541": {
    "zip_code": "1538541",
    "prefecture": "東京都",
    "prefecture_kana": "トウキョウト",
    "prefecture_code": "13",
    "city": "目黒区",
    "city_kana": "メグロク",
    "town": "目黒",
    "town_kana": "メグロ",
    "street": "１−２４−１２",
    "office_name": "株式会社　ＣＣＣメディアハウス",
    "office_name_kana": "カブシキガイシヤ シ-シ-シ-メデイアハウス"
  },
  "8543": {
    "zip_code": "1538543",
    "prefecture": "東京都",
    "prefecture_kana": "トウキョウト",
    "prefecture_code": "13",
    "city": "目黒区",
    "city_kana": "メグロク",
    "town": "青葉台",
    "town_kana": "アオバダイ",
    "street": "３丁目６−３０住友不動産青葉台タワー７Ｆ",
    "office_name": "株式会社　阪急トラベルサポート",
    "office_name_kana": "カブシキガイシヤ ハンキユウトラベルサポ-ト"
  },
  "8545": {
    "zip_code": "1538545",
    "prefecture": "東京都",
    "prefecture_kana": "トウキョウト",
    "prefecture_code": "13",
    "city": "目黒区",
    "city_kana": "メグロク",
    "town": "下目黒",
    "town_kana": "シモメグロ",
    "street": "２−２３−１８目黒山手通ビル",
    "office_name": "株式会社　ネコ・パブリッシング",
    "office_name_kana": "カブシキガイシヤ ネコ・パブリツシング"
  },
  "8550": {
    "zip_code": "1538550",
    "prefecture": "東京都",
    "prefecture_kana": "トウキョウト",
    "prefecture_code": "13",
    "city": "目黒区",
    "city_kana": "メグロク",
    "town": "東山",
    "town_kana": "ヒガシヤマ",
    "street": "３丁目８−１",
    "office_name": "トップツアー　株式会社",
    "office_name_kana": "トツプツア- カブシキカイシヤ"
  },
  "8551": {
    "zip_code": "1538551",
    "prefecture": "東京都",
    "prefecture_kana": "トウキョウト",
    "prefecture_code": "13",
    "city": "目黒区",
    "city_kana": "メグロク",
    "town": "東山",
    "town_kana": "ヒガシヤマ",
    "street": "３丁目５−２",
    "office_name": "田中興産　株式会社　絵里奈事業部",
    "office_name_kana": "タナカコウサン カブシキガイシヤ エリナジギヨウブ"
  },
  "8552": {
    "zip_code": "1538552",
    "prefecture": "東京都",
    "prefecture_kana": "トウキョウト",
    "prefecture_code": "13",
    "city": "目黒区",
    "city_kana": "メグロク",
    "town": "東山",
    "town_kana": "ヒガシヤマ",
    "street": "２丁目２６−１",
    "office_name": "自衛隊中央病院　高等看護学院",
    "office_name_kana": "ジエイタイチユウオウビヨウイン コウトウカンゴガクイン"
  },
  "8553": {
    "zip_code": "1538553",
    "prefecture": "東京都",
    "prefecture_kana": "トウキョウト",
    "prefecture_code": "13",
    "city": "目黒区",
    "city_kana": "メグロク",
    "town": "東山",
    "town_kana": "ヒガシヤマ",
    "street": "１丁目２−７第４４興和ビル",
    "office_name": "ニッポンレンタカーアーバンネット　株式会社　東京ディビジョン",
    "office_name_kana": "ニツポンレンタカ-ア-バンネツト カブシキガイシヤ トウキヨウデイビジヨン"
  },
  "8554": {
    "zip_code": "1538554",
    "prefecture": "東京都",
    "prefecture_kana": "トウキョウト",
    "prefecture_code": "13",
    "city": "目黒区",
    "city_kana": "メグロク",
    "town": "下目黒",
    "town_kana": "シモメグロ",
    "street": "１丁目６−２０",
    "office_name": "ビーシーアイ　株式会社",
    "office_name_kana": "ビ-シ-アイ カブシキガイシヤ"
  },
  "8555": {
    "zip_code": "1538555",
    "prefecture": "東京都",
    "prefecture_kana": "トウキョウト",
    "prefecture_code": "13",
    "city": "目黒区",
    "city_kana": "メグロク",
    "town": "東山",
    "town_kana": "ヒガシヤマ",
    "street": "２丁目１３−５",
    "office_name": "株式会社　パスコ　東京支社",
    "office_name_kana": "カブシキガイシヤ パスコ トウキヨウシシヤ"
  },
  "8556": {
    "zip_code": "1538556",
    "prefecture": "東京都",
    "prefecture_kana": "トウキョウト",
    "prefecture_code": "13",
    "city": "目黒区",
    "city_kana": "メグロク",
    "town": "目黒",
    "town_kana": "メグロ",
    "street": "２丁目１３−１８",
    "office_name": "りそな決済サービス　（株）　代金回収センター（公文）",
    "office_name_kana": "リソナケツサイサ-ビス カブシキガイシヤ ダイキンカイシユウセンタ-(クモン)"
  },
  "8558": {
    "zip_code": "1538558",
    "prefecture": "東京都",
    "prefecture_kana": "トウキョウト",
    "prefecture_code": "13",
    "city": "目黒区",
    "city_kana": "メグロク",
    "town": "東山",
    "town_kana": "ヒガシヤマ",
    "street": "３丁目１６−１９",
    "office_name": "太陽工業株式会社",
    "office_name_kana": "タイヨウコウギヨウカブシキガイシヤ"
  },
  "8560": {
    "zip_code": "1538560",
    "prefecture": "東京都",
    "prefecture_kana": "トウキョウト",
    "prefecture_code": "13",
    "city": "目黒区",
    "city_kana": "メグロク",
    "town": "五本木",
    "town_kana": "ゴホンギ",
    "street": "１丁目８−３",
    "office_name": "株式会社　イワセ・エスタ",
    "office_name_kana": "カブシキガイシヤ イワセ・エスタ"
  },
  "8565": {
    "zip_code": "1538565",
    "prefecture": "東京都",
    "prefecture_kana": "トウキョウト",
    "prefecture_code": "13",
    "city": "目黒区",
    "city_kana": "メグロク",
    "town": "東山",
    "town_kana": "ヒガシヤマ",
    "street": "１丁目８−１４",
    "office_name": "株式会社　カイタックインターナショナル",
    "office_name_kana": "カブシキガイシヤ カイタツクインタ-ナシヨナル"
  },
  "8566": {
    "zip_code": "1538566",
    "prefecture": "東京都",
    "prefecture_kana": "トウキョウト",
    "prefecture_code": "13",
    "city": "目黒区",
    "city_kana": "メグロク",
    "town": "東山",
    "town_kana": "ヒガシヤマ",
    "street": "３丁目７−１",
    "office_name": "東急ファシリティサービス　株式会社",
    "office_name_kana": "トウキユウフアシリテイサ-ビス カブシキガイシヤ"
  },
  "8567": {
    "zip_code": "1538567",
    "prefecture": "東京都",
    "prefecture_kana": "トウキョウト",
    "prefecture_code": "13",
    "city": "目黒区",
    "city_kana": "メグロク",
    "town": "東山",
    "town_kana": "ヒガシヤマ",
    "street": "３丁目２０−２０サニイヒルズ東山２０１",
    "office_name": "株式会社　リアルロックス",
    "office_name_kana": "カブシキカイシヤ リアルロツクス"
  },
  "8571": {
    "zip_code": "1538571",
    "prefecture": "東京都",
    "prefecture_kana": "トウキョウト",
    "prefecture_code": "13",
    "city": "目黒区",
    "city_kana": "メグロク",
    "town": "上目黒",
    "town_kana": "カミメグロ",
    "street": "４丁目３０−１２",
    "office_name": "アベイズム　株式会社",
    "office_name_kana": "アベイズム カブシキガイシヤ"
  },
  "8573": {
    "zip_code": "1538573",
    "prefecture": "東京都",
    "prefecture_kana": "トウキョウト",
    "prefecture_code": "13",
    "city": "目黒区",
    "city_kana": "メグロク",
    "town": "上目黒",
    "town_kana": "カミメグロ",
    "street": "２丁目１９−１５",
    "office_name": "目黒区役所",
    "office_name_kana": "メグロクヤクシヨ"
  },
  "8577": {
    "zip_code": "1538577",
    "prefecture": "東京都",
    "prefecture_kana": "トウキョウト",
    "prefecture_code": "13",
    "city": "目黒区",
    "city_kana": "メグロク",
    "town": "上目黒",
    "town_kana": "カミメグロ",
    "street": "１丁目２１−１２",
    "office_name": "株式会社　東急ストア",
    "office_name_kana": "カブシキガイシヤ トウキユウストア"
  },
  "8578": {
    "zip_code": "1538578",
    "prefecture": "東京都",
    "prefecture_kana": "トウキョウト",
    "prefecture_code": "13",
    "city": "目黒区",
    "city_kana": "メグロク",
    "town": "上目黒",
    "town_kana": "カミメグロ",
    "street": "２丁目１−１中目黒ＧＴタワー",
    "office_name": "ユニリーバ・ジャパン　ホールディングス　株式会社",
    "office_name_kana": "ユニリ-バ・ジヤパン ホ-ルデイングス カブシキガイシヤ"
  },
  "8580": {
    "zip_code": "1538580",
    "prefecture": "東京都",
    "prefecture_kana": "トウキョウト",
    "prefecture_code": "13",
    "city": "目黒区",
    "city_kana": "メグロク",
    "town": "三田",
    "town_kana": "ミタ",
    "street": "１丁目４−１",
    "office_name": "株式会社　三田ホールディング　ウェスティンホテル東京",
    "office_name_kana": "カブシキカイシヤ ミタホ-ルデイング ウエステインホテルトウキヨウ"
  },
  "8581": {
    "zip_code": "1538581",
    "prefecture": "東京都",
    "prefecture_kana": "トウキョウト",
    "prefecture_code": "13",
    "city": "目黒区",
    "city_kana": "メグロク",
    "town": "三田",
    "town_kana": "ミタ",
    "street": "１丁目１１−７",
    "office_name": "総合病院　厚生中央病院",
    "office_name_kana": "ソウゴウビヨウイン コウセイチユウオウビヨウイン"
  },
  "8582": {
    "zip_code": "1538582",
    "prefecture": "東京都",
    "prefecture_kana": "トウキョウト",
    "prefecture_code": "13",
    "city": "目黒区",
    "city_kana": "メグロク",
    "town": "中町",
    "town_kana": "ナカチョウ",
    "street": "２丁目４３−１８",
    "office_name": "東京都　水道局　目黒営業所",
    "office_name_kana": "トウキヨウト スイドウキヨク メグロエイギヨウシヨ"
  },
  "8585": {
    "zip_code": "1538585",
    "prefecture": "東京都",
    "prefecture_kana": "トウキョウト",
    "prefecture_code": "13",
    "city": "目黒区",
    "city_kana": "メグロク",
    "town": "中町",
    "town_kana": "ナカチョウ",
    "street": "２丁目４３−１７",
    "office_name": "社団法人　目黒法人会",
    "office_name_kana": "シヤダンホウジン メグロホウジンカイ"
  },
  "8586": {
    "zip_code": "1538586",
    "prefecture": "東京都",
    "prefecture_kana": "トウキョウト",
    "prefecture_code": "13",
    "city": "目黒区",
    "city_kana": "メグロク",
    "town": "中町",
    "town_kana": "ナカチョウ",
    "street": "２丁目５−２",
    "office_name": "中央化学産業　株式会社",
    "office_name_kana": "チユウオウカガクサンギヨウ カブシキガイシヤ"
  },
  "8587": {
    "zip_code": "1538587",
    "prefecture": "東京都",
    "prefecture_kana": "トウキョウト",
    "prefecture_code": "13",
    "city": "目黒区",
    "city_kana": "メグロク",
    "town": "三田",
    "town_kana": "ミタ",
    "street": "１丁目６−２１アルト伊藤ビル",
    "office_name": "伊藤ハム　株式会社",
    "office_name_kana": "イトウハム カブシキガイシヤ"
  },
  "8589": {
    "zip_code": "1538589",
    "prefecture": "東京都",
    "prefecture_kana": "トウキョウト",
    "prefecture_code": "13",
    "city": "目黒区",
    "city_kana": "メグロク",
    "town": "青葉台",
    "town_kana": "アオバダイ",
    "street": "３丁目６−２８住友不動産青葉台タワー６階",
    "office_name": "株式会社　阪急交通社",
    "office_name_kana": "カブシキガイシヤ ハンキユウコウツウシヤ"
  },
  "8601": {
    "zip_code": "1538601",
    "prefecture": "東京都",
    "prefecture_kana": "トウキョウト",
    "prefecture_code": "13",
    "city": "目黒区",
    "city_kana": "メグロク",
    "town": "下目黒",
    "town_kana": "シモメグロ",
    "street": "６丁目１番２１号（目黒郵便局私書箱第１７号）",
    "office_name": "三井住友信託銀行　株式会社",
    "office_name_kana": "ミツイスミトモシンタクギンコウ カブシキガイシヤ"
  },
  "8610": {
    "zip_code": "1538610",
    "prefecture": "東京都",
    "prefecture_kana": "トウキョウト",
    "prefecture_code": "13",
    "city": "目黒区",
    "city_kana": "メグロク",
    "town": "青葉台",
    "town_kana": "アオバダイ",
    "street": "２−１−４",
    "office_name": "株式会社　ビギ",
    "office_name_kana": "カブシキガイシヤ ビギ"
  },
  "8620": {
    "zip_code": "1538620",
    "prefecture": "東京都",
    "prefecture_kana": "トウキョウト",
    "prefecture_code": "13",
    "city": "目黒区",
    "city_kana": "メグロク",
    "town": "上目黒",
    "town_kana": "カミメグロ",
    "street": "５丁目２６−２１ロイヤルパレス上目黒２Ｆ",
    "office_name": "株式会社　ホットスタッフ・プロモーション",
    "office_name_kana": "カブシキガイシヤ ホツトスタツフ・プロモ-シヨン"
  },
  "8630": {
    "zip_code": "1538630",
    "prefecture": "東京都",
    "prefecture_kana": "トウキョウト",
    "prefecture_code": "13",
    "city": "目黒区",
    "city_kana": "メグロク",
    "town": "中目黒",
    "town_kana": "ナカメグロ",
    "street": "２丁目２−１",
    "office_name": "防衛省　技術研究本部　艦艇装備研究所",
    "office_name_kana": "ボウエイシヨウ ギジユツケンキユウホンブ カンテイソウビケンキユウジヨ"
  },
  "8631": {
    "zip_code": "1538631",
    "prefecture": "東京都",
    "prefecture_kana": "トウキョウト",
    "prefecture_code": "13",
    "city": "目黒区",
    "city_kana": "メグロク",
    "town": "中目黒",
    "town_kana": "ナカメグロ",
    "street": "１丁目１−５０",
    "office_name": "学校法人　目黒学院",
    "office_name_kana": "ガツコウホウジン メグロガクイン"
  },
  "8633": {
    "zip_code": "1538633",
    "prefecture": "東京都",
    "prefecture_kana": "トウキョウト",
    "prefecture_code": "13",
    "city": "目黒区",
    "city_kana": "メグロク",
    "town": "中目黒",
    "town_kana": "ナカメグロ",
    "street": "５丁目２７−１６",
    "office_name": "目黒税務署",
    "office_name_kana": "メグロゼイムシヨ"
  },
  "8635": {
    "zip_code": "1538635",
    "prefecture": "東京都",
    "prefecture_kana": "トウキョウト",
    "prefecture_code": "13",
    "city": "目黒区",
    "city_kana": "メグロク",
    "town": "中目黒",
    "town_kana": "ナカメグロ",
    "street": "１丁目８−３",
    "office_name": "株式会社　アートコーヒー",
    "office_name_kana": "カブシキガイシヤ ア-トコ-ヒ-"
  },
  "8636": {
    "zip_code": "1538636",
    "prefecture": "東京都",
    "prefecture_kana": "トウキョウト",
    "prefecture_code": "13",
    "city": "目黒区",
    "city_kana": "メグロク",
    "town": "中目黒",
    "town_kana": "ナカメグロ",
    "street": "２丁目９−１３",
    "office_name": "スタンレー電気　株式会社",
    "office_name_kana": "スタンレ-デンキ カブシキガイシヤ"
  },
  "8638": {
    "zip_code": "1538638",
    "prefecture": "東京都",
    "prefecture_kana": "トウキョウト",
    "prefecture_code": "13",
    "city": "目黒区",
    "city_kana": "メグロク",
    "town": "中目黒",
    "town_kana": "ナカメグロ",
    "street": "２丁目７−７",
    "office_name": "株式会社　ルック",
    "office_name_kana": "カブシキガイシヤ ルツク"
  },
  "8640": {
    "zip_code": "1538640",
    "prefecture": "東京都",
    "prefecture_kana": "トウキョウト",
    "prefecture_code": "13",
    "city": "目黒区",
    "city_kana": "メグロク",
    "town": "中目黒",
    "town_kana": "ナカメグロ",
    "street": "２丁目１−２７",
    "office_name": "全国酒販会館",
    "office_name_kana": "ゼンコクシユハンカイカン"
  },
  "8648": {
    "zip_code": "1538648",
    "prefecture": "東京都",
    "prefecture_kana": "トウキョウト",
    "prefecture_code": "13",
    "city": "目黒区",
    "city_kana": "メグロク",
    "town": "中目黒",
    "town_kana": "ナカメグロ",
    "street": "２丁目２−１",
    "office_name": "防衛庁　防衛研究所",
    "office_name_kana": "ボウエイチヨウ ボウエイケンキユウシヨ"
  },
  "8650": {
    "zip_code": "1538650",
    "prefecture": "東京都",
    "prefecture_kana": "トウキョウト",
    "prefecture_code": "13",
    "city": "目黒区",
    "city_kana": "メグロク",
    "town": "目黒",
    "town_kana": "メグロ",
    "street": "１丁目１−５",
    "office_name": "新光商事　株式会社",
    "office_name_kana": "シンコウシヨウジ カブシキガイシヤ"
  },
  "8652": {
    "zip_code": "1538652",
    "prefecture": "東京都",
    "prefecture_kana": "トウキョウト",
    "prefecture_code": "13",
    "city": "目黒区",
    "city_kana": "メグロク",
    "town": "目黒",
    "town_kana": "メグロ",
    "street": "３丁目９−１目黒須田ビル４Ｆ",
    "office_name": "株式会社　日本ホールマーク",
    "office_name_kana": "カブシキガイシヤ ニホンホ-ルマ-ク"
  },
  "8653": {
    "zip_code": "1538653",
    "prefecture": "東京都",
    "prefecture_kana": "トウキョウト",
    "prefecture_code": "13",
    "city": "目黒区",
    "city_kana": "メグロク",
    "town": "目黒",
    "town_kana": "メグロ",
    "street": "１丁目１−６",
    "office_name": "株式会社　コミューチュア　東京支店",
    "office_name_kana": "カブシキガイシヤ コミユ-チユア トウキヨウシテン"
  },
  "8654": {
    "zip_code": "1538654",
    "prefecture": "東京都",
    "prefecture_kana": "トウキョウト",
    "prefecture_code": "13",
    "city": "目黒区",
    "city_kana": "メグロク",
    "town": "目黒",
    "town_kana": "メグロ",
    "street": "１丁目４−１",
    "office_name": "パイオニア　株式会社",
    "office_name_kana": "パイオニア カブシキガイシヤ"
  },
  "8655": {
    "zip_code": "1538655",
    "prefecture": "東京都",
    "prefecture_kana": "トウキョウト",
    "prefecture_code": "13",
    "city": "目黒区",
    "city_kana": "メグロク",
    "town": "目黒",
    "town_kana": "メグロ",
    "street": "１丁目２４−１２伊藤忠エネクスビル",
    "office_name": "伊藤忠エネクス　株式会社",
    "office_name_kana": "イトウチユウエネクス カブシキカイシヤ"
  },
  "8657": {
    "zip_code": "1538657",
    "prefecture": "東京都",
    "prefecture_kana": "トウキョウト",
    "prefecture_code": "13",
    "city": "目黒区",
    "city_kana": "メグロク",
    "town": "目黒",
    "town_kana": "メグロ",
    "street": "４−４−２２",
    "office_name": "森永乳業　株式会社　管理センター",
    "office_name_kana": "モリナガニユウギヨウ カブシキガイシヤ カンリセンタ-"
  },
  "8660": {
    "zip_code": "1538660",
    "prefecture": "東京都",
    "prefecture_kana": "トウキョウト",
    "prefecture_code": "13",
    "city": "目黒区",
    "city_kana": "メグロク",
    "town": "下目黒",
    "town_kana": "シモメグロ",
    "street": "１丁目２−５",
    "office_name": "株式会社　ホリプロ",
    "office_name_kana": "カブシキガイシヤ ホリプロ"
  },
  "8662": {
    "zip_code": "1538662",
    "prefecture": "東京都",
    "prefecture_kana": "トウキョウト",
    "prefecture_code": "13",
    "city": "目黒区",
    "city_kana": "メグロク",
    "town": "下目黒",
    "town_kana": "シモメグロ",
    "street": "１丁目８−１アルコタワー",
    "office_name": "ミネベア　株式会社",
    "office_name_kana": "ミネベア カブシキガイシヤ"
  },
  "8665": {
    "zip_code": "1538665",
    "prefecture": "東京都",
    "prefecture_kana": "トウキョウト",
    "prefecture_code": "13",
    "city": "目黒区",
    "city_kana": "メグロク",
    "town": "下目黒",
    "town_kana": "シモメグロ",
    "street": "１丁目７−１",
    "office_name": "パイオニア　株式会社　ＰＡＸビル",
    "office_name_kana": "パイオニア カブシキガイシヤ パツクスビル"
  },
  "8666": {
    "zip_code": "1538666",
    "prefecture": "東京都",
    "prefecture_kana": "トウキョウト",
    "prefecture_code": "13",
    "city": "目黒区",
    "city_kana": "メグロク",
    "town": "下目黒",
    "town_kana": "シモメグロ",
    "street": "３丁目２４番２２号",
    "office_name": "一般財団法人　ヤマハ音楽振興会",
    "office_name_kana": "イツパンザイダンホウジン ヤマハオンガクシンコウカイ"
  },
  "8668": {
    "zip_code": "1538668",
    "prefecture": "東京都",
    "prefecture_kana": "トウキョウト",
    "prefecture_code": "13",
    "city": "目黒区",
    "city_kana": "メグロク",
    "town": "下目黒",
    "town_kana": "シモメグロ",
    "street": "１丁目１−３",
    "office_name": "ジプロ　株式会社",
    "office_name_kana": "ジプロ カブシキガイシヤ"
  },
  "8669": {
    "zip_code": "1538669",
    "prefecture": "東京都",
    "prefecture_kana": "トウキョウト",
    "prefecture_code": "13",
    "city": "目黒区",
    "city_kana": "メグロク",
    "town": "下目黒",
    "town_kana": "シモメグロ",
    "street": "１丁目８−１",
    "office_name": "目黒雅叙園",
    "office_name_kana": "メグロガジヨエン"
  },
  "8670": {
    "zip_code": "1538670",
    "prefecture": "東京都",
    "prefecture_kana": "トウキョウト",
    "prefecture_code": "13",
    "city": "目黒区",
    "city_kana": "メグロク",
    "town": "下目黒",
    "town_kana": "シモメグロ",
    "street": "２丁目１９−３",
    "office_name": "株式会社　ディスクガレージ",
    "office_name_kana": "カブシキガイシヤ デイスクガレ-ジ"
  },
  "8677": {
    "zip_code": "1538677",
    "prefecture": "東京都",
    "prefecture_kana": "トウキョウト",
    "prefecture_code": "13",
    "city": "目黒区",
    "city_kana": "メグロク",
    "town": "下目黒",
    "town_kana": "シモメグロ",
    "street": "２丁目２１−２１",
    "office_name": "さわやか信用金庫",
    "office_name_kana": "サワヤカシンヨウキンコ"
  },
  "8687": {
    "zip_code": "1538687",
    "prefecture": "東京都",
    "prefecture_kana": "トウキョウト",
    "prefecture_code": "13",
    "city": "目黒区",
    "city_kana": "メグロク",
    "town": "下目黒",
    "town_kana": "シモメグロ",
    "street": "２丁目３−８",
    "office_name": "パナソニックコミュニケーションズ　株式会社",
    "office_name_kana": "パナソニツクコミユニケ-シヨンズ カブシキカイシヤ"
  },
  "8688": {
    "zip_code": "1538688",
    "prefecture": "東京都",
    "prefecture_kana": "トウキョウト",
    "prefecture_code": "13",
    "city": "目黒区",
    "city_kana": "メグロク",
    "town": "下目黒",
    "town_kana": "シモメグロ",
    "street": "１丁目８−１アルコタワー",
    "office_name": "株式会社　スクウェア",
    "office_name_kana": "カブシキガイシヤ スクウエア"
  },
  "8902": {
    "zip_code": "1538902",
    "prefecture": "東京都",
    "prefecture_kana": "トウキョウト",
    "prefecture_code": "13",
    "city": "目黒区",
    "city_kana": "メグロク",
    "town": "駒場",
    "town_kana": "コマバ",
    "street": "３丁目８−１",
    "office_name": "東京大学大学院総合文化研究科・教養学部",
    "office_name_kana": "トウキヨウダイガクダイガクインソウゴウブンカケンキユウカ・キヨウヨウガクブ"
  },
  "8904": {
    "zip_code": "1538904",
    "prefecture": "東京都",
    "prefecture_kana": "トウキョウト",
    "prefecture_code": "13",
    "city": "目黒区",
    "city_kana": "メグロク",
    "town": "駒場",
    "town_kana": "コマバ",
    "street": "４丁目６−１",
    "office_name": "東京大学先端科学技術研究センター",
    "office_name_kana": "トウキヨウダイガクセンタンカガクギジユツケンキユウセンタ-"
  },
  "8906": {
    "zip_code": "1538906",
    "prefecture": "東京都",
    "prefecture_kana": "トウキョウト",
    "prefecture_code": "13",
    "city": "目黒区",
    "city_kana": "メグロク",
    "town": "青葉台",
    "town_kana": "アオバダイ",
    "street": "２丁目１８−１",
    "office_name": "株式会社　メルローズ",
    "office_name_kana": "カブシキガイシヤ メルロ-ズ"
  },
  "8911": {
    "zip_code": "1538911",
    "prefecture": "東京都",
    "prefecture_kana": "トウキョウト",
    "prefecture_code": "13",
    "city": "目黒区",
    "city_kana": "メグロク",
    "town": "青葉台",
    "town_kana": "アオバダイ",
    "street": "３丁目５−５",
    "office_name": "東京富士　株式会社",
    "office_name_kana": "トウキヨウフジ カブシキガイシヤ"
  },
  "8913": {
    "zip_code": "1538913",
    "prefecture": "東京都",
    "prefecture_kana": "トウキョウト",
    "prefecture_code": "13",
    "city": "目黒区",
    "city_kana": "メグロク",
    "town": "青葉台",
    "town_kana": "アオバダイ",
    "street": "４丁目６−２０",
    "office_name": "株式会社　ホワイ",
    "office_name_kana": "カブシキガイシヤ ホワイ"
  },
  "8914": {
    "zip_code": "1538914",
    "prefecture": "東京都",
    "prefecture_kana": "トウキョウト",
    "prefecture_code": "13",
    "city": "目黒区",
    "city_kana": "メグロク",
    "town": "駒場",
    "town_kana": "コマバ",
    "street": "３丁目８−１",
    "office_name": "東京大学大学院　数理科学研究科",
    "office_name_kana": "トウキヨウダイガクダイガクイン スウリカガクケンキユウカ"
  },
  "8923": {
    "zip_code": "1538923",
    "prefecture": "東京都",
    "prefecture_kana": "トウキョウト",
    "prefecture_code": "13",
    "city": "目黒区",
    "city_kana": "メグロク",
    "town": "下目黒",
    "town_kana": "シモメグロ",
    "street": "２丁目２−３",
    "office_name": "サクサ　株式会社",
    "office_name_kana": "サクサ カブシキガイシヤ"
  },
  "8925": {
    "zip_code": "1538925",
    "prefecture": "東京都",
    "prefecture_kana": "トウキョウト",
    "prefecture_code": "13",
    "city": "目黒区",
    "city_kana": "メグロク",
    "town": "上目黒",
    "town_kana": "カミメグロ",
    "street": "２丁目１番中目黒ＧＴタワー８階",
    "office_name": "株式会社　リテイルネットワークス",
    "office_name_kana": "カブシキガイシヤ リテイルネツトワ-クス"
  },
  "8927": {
    "zip_code": "1538927",
    "prefecture": "東京都",
    "prefecture_kana": "トウキョウト",
    "prefecture_code": "13",
    "city": "目黒区",
    "city_kana": "メグロク",
    "town": "下目黒",
    "town_kana": "シモメグロ",
    "street": "１丁目８−１アルコタワー５Ｆ",
    "office_name": "メルク　株式会社",
    "office_name_kana": "メルク カブシキカイシヤ"
  },
  "8930": {
    "zip_code": "1538930",
    "prefecture": "東京都",
    "prefecture_kana": "トウキョウト",
    "prefecture_code": "13",
    "city": "目黒区",
    "city_kana": "メグロク",
    "town": "下目黒",
    "town_kana": "シモメグロ",
    "street": "１丁目８−１",
    "office_name": "雅叙園観光　株式会社",
    "office_name_kana": "ガジヨエンカンコウ カブシキガイシヤ"
  },
  "8933": {
    "zip_code": "1538933",
    "prefecture": "東京都",
    "prefecture_kana": "トウキョウト",
    "prefecture_code": "13",
    "city": "目黒区",
    "city_kana": "メグロク",
    "town": "中目黒",
    "town_kana": "ナカメグロ",
    "street": "２丁目２−１",
    "office_name": "航空自衛隊目黒基地　幹部学校",
    "office_name_kana": "コウクウジエイタイメグロキチ カンブガツコウ"
  },
  "8934": {
    "zip_code": "1538934",
    "prefecture": "東京都",
    "prefecture_kana": "トウキョウト",
    "prefecture_code": "13",
    "city": "目黒区",
    "city_kana": "メグロク",
    "town": "中目黒",
    "town_kana": "ナカメグロ",
    "street": "２丁目３−８",
    "office_name": "国家公務員共済組合連合会総合病院東京共済病院",
    "office_name_kana": "コツカコウムインキヨウサイクミアイレンゴウカイソウゴウビヨウイントウキヨウキヨウサイビヨウイン"
  },
  "8936": {
    "zip_code": "1538936",
    "prefecture": "東京都",
    "prefecture_kana": "トウキョウト",
    "prefecture_code": "13",
    "city": "目黒区",
    "city_kana": "メグロク",
    "town": "中目黒",
    "town_kana": "ナカメグロ",
    "street": "３丁目１−３０",
    "office_name": "目黒信用金庫",
    "office_name_kana": "メグロシンヨウキンコ"
  },
  "8937": {
    "zip_code": "1538937",
    "prefecture": "東京都",
    "prefecture_kana": "トウキョウト",
    "prefecture_code": "13",
    "city": "目黒区",
    "city_kana": "メグロク",
    "town": "中目黒",
    "town_kana": "ナカメグロ",
    "street": "３丁目１３−２９",
    "office_name": "東京都　目黒都税事務所",
    "office_name_kana": "トウキヨウト メグロトゼイジムシヨ"
  },
  "8939": {
    "zip_code": "1538939",
    "prefecture": "東京都",
    "prefecture_kana": "トウキョウト",
    "prefecture_code": "13",
    "city": "目黒区",
    "city_kana": "メグロク",
    "town": "目黒",
    "town_kana": "メグロ",
    "street": "１丁目１−１４",
    "office_name": "東京都教育相談センター",
    "office_name_kana": "トウキヨウトキヨウイクソウダンセンタ-"
  }
}