{
  "0068": {
    "zip_code": "1570068",
    "prefecture": "東京都",
    "prefecture_kana": "トウキョウト",
    "city": "世田谷区",
    "city_kana": "セタガヤク",
    "town": "宇奈根",
    "town_kana": "ウナネ",
    "prefecture_code": 13
  },
  "0074": {
    "zip_code": "1570074",
    "prefecture": "東京都",
    "prefecture_kana": "トウキョウト",
    "city": "世田谷区",
    "city_kana": "セタガヤク",
    "town": "大蔵",
    "town_kana": "オオクラ",
    "prefecture_code": 13
  },
  "0076": {
    "zip_code": "1570076",
    "prefecture": "東京都",
    "prefecture_kana": "トウキョウト",
    "city": "世田谷区",
    "city_kana": "セタガヤク",
    "town": "岡本",
    "town_kana": "オカモト",
    "prefecture_code": 13
  },
  "0063": {
    "zip_code": "1570063",
    "prefecture": "東京都",
    "prefecture_kana": "トウキョウト",
    "city": "世田谷区",
    "city_kana": "セタガヤク",
    "town": "粕谷",
    "town_kana": "カスヤ",
    "prefecture_code": 13
  },
  "0077": {
    "zip_code": "1570077",
    "prefecture": "東京都",
    "prefecture_kana": "トウキョウト",
    "city": "世田谷区",
    "city_kana": "セタガヤク",
    "town": "鎌田",
    "town_kana": "カマタ",
    "prefecture_code": 13
  },
  "0065": {
    "zip_code": "1570065",
    "prefecture": "東京都",
    "prefecture_kana": "トウキョウト",
    "city": "世田谷区",
    "city_kana": "セタガヤク",
    "town": "上祖師谷",
    "town_kana": "カミソシガヤ",
    "prefecture_code": 13
  },
  "0061": {
    "zip_code": "1570061",
    "prefecture": "東京都",
    "prefecture_kana": "トウキョウト",
    "city": "世田谷区",
    "city_kana": "セタガヤク",
    "town": "北烏山",
    "town_kana": "キタカラスヤマ",
    "prefecture_code": 13
  },
  "0067": {
    "zip_code": "1570067",
    "prefecture": "東京都",
    "prefecture_kana": "トウキョウト",
    "city": "世田谷区",
    "city_kana": "セタガヤク",
    "town": "喜多見",
    "town_kana": "キタミ",
    "prefecture_code": 13
  },
  "0073": {
    "zip_code": "1570073",
    "prefecture": "東京都",
    "prefecture_kana": "トウキョウト",
    "city": "世田谷区",
    "city_kana": "セタガヤク",
    "town": "砧",
    "town_kana": "キヌタ",
    "prefecture_code": 13
  },
  "0075": {
    "zip_code": "1570075",
    "prefecture": "東京都",
    "prefecture_kana": "トウキョウト",
    "city": "世田谷区",
    "city_kana": "セタガヤク",
    "town": "砧公園",
    "town_kana": "キヌタコウエン",
    "prefecture_code": 13
  },
  "0064": {
    "zip_code": "1570064",
    "prefecture": "東京都",
    "prefecture_kana": "トウキョウト",
    "city": "世田谷区",
    "city_kana": "セタガヤク",
    "town": "給田",
    "town_kana": "キュウデン",
    "prefecture_code": 13
  },
  "0066": {
    "zip_code": "1570066",
    "prefecture": "東京都",
    "prefecture_kana": "トウキョウト",
    "city": "世田谷区",
    "city_kana": "セタガヤク",
    "town": "成城",
    "town_kana": "セイジョウ",
    "prefecture_code": 13
  },
  "0072": {
    "zip_code": "1570072",
    "prefecture": "東京都",
    "prefecture_kana": "トウキョウト",
    "city": "世田谷区",
    "city_kana": "セタガヤク",
    "town": "祖師谷",
    "town_kana": "ソシガヤ",
    "prefecture_code": 13
  },
  "0071": {
    "zip_code": "1570071",
    "prefecture": "東京都",
    "prefecture_kana": "トウキョウト",
    "city": "世田谷区",
    "city_kana": "セタガヤク",
    "town": "千歳台",
    "town_kana": "チトセダイ",
    "prefecture_code": 13
  },
  "0062": {
    "zip_code": "1570062",
    "prefecture": "東京都",
    "prefecture_kana": "トウキョウト",
    "city": "世田谷区",
    "city_kana": "セタガヤク",
    "town": "南烏山",
    "town_kana": "ミナミカラスヤマ",
    "prefecture_code": 13
  }
}