{
  "0083": {
    "zip_code": "1580083",
    "prefecture": "東京都",
    "prefecture_kana": "トウキョウト",
    "city": "世田谷区",
    "city_kana": "セタガヤク",
    "town": "奥沢",
    "town_kana": "オクサワ",
    "prefecture_code": 13
  },
  "0086": {
    "zip_code": "1580086",
    "prefecture": "東京都",
    "prefecture_kana": "トウキョウト",
    "city": "世田谷区",
    "city_kana": "セタガヤク",
    "town": "尾山台",
    "town_kana": "オヤマダイ",
    "prefecture_code": 13
  },
  "0093": {
    "zip_code": "1580093",
    "prefecture": "東京都",
    "prefecture_kana": "トウキョウト",
    "city": "世田谷区",
    "city_kana": "セタガヤク",
    "town": "上野毛",
    "town_kana": "カミノゲ",
    "prefecture_code": 13
  },
  "0098": {
    "zip_code": "1580098",
    "prefecture": "東京都",
    "prefecture_kana": "トウキョウト",
    "city": "世田谷区",
    "city_kana": "セタガヤク",
    "town": "上用賀",
    "town_kana": "カミヨウガ",
    "prefecture_code": 13
  },
  "0095": {
    "zip_code": "1580095",
    "prefecture": "東京都",
    "prefecture_kana": "トウキョウト",
    "city": "世田谷区",
    "city_kana": "セタガヤク",
    "town": "瀬田",
    "town_kana": "セタ",
    "prefecture_code": 13
  },
  "0094": {
    "zip_code": "1580094",
    "prefecture": "東京都",
    "prefecture_kana": "トウキョウト",
    "city": "世田谷区",
    "city_kana": "セタガヤク",
    "town": "玉川",
    "town_kana": "タマガワ",
    "prefecture_code": 13
  },
  "0096": {
    "zip_code": "1580096",
    "prefecture": "東京都",
    "prefecture_kana": "トウキョウト",
    "city": "世田谷区",
    "city_kana": "セタガヤク",
    "town": "玉川台",
    "town_kana": "タマガワダイ",
    "prefecture_code": 13
  },
  "0085": {
    "zip_code": "1580085",
    "prefecture": "東京都",
    "prefecture_kana": "トウキョウト",
    "city": "世田谷区",
    "city_kana": "セタガヤク",
    "town": "玉川田園調布",
    "town_kana": "タマガワデンエンチョウフ",
    "prefecture_code": 13
  },
  "0087": {
    "zip_code": "1580087",
    "prefecture": "東京都",
    "prefecture_kana": "トウキョウト",
    "city": "世田谷区",
    "city_kana": "セタガヤク",
    "town": "玉堤",
    "town_kana": "タマヅツミ",
    "prefecture_code": 13
  },
  "0082": {
    "zip_code": "1580082",
    "prefecture": "東京都",
    "prefecture_kana": "トウキョウト",
    "city": "世田谷区",
    "city_kana": "セタガヤク",
    "town": "等々力",
    "town_kana": "トドロキ",
    "prefecture_code": 13
  },
  "0091": {
    "zip_code": "1580091",
    "prefecture": "東京都",
    "prefecture_kana": "トウキョウト",
    "city": "世田谷区",
    "city_kana": "セタガヤク",
    "town": "中町",
    "town_kana": "ナカマチ",
    "prefecture_code": 13
  },
  "0092": {
    "zip_code": "1580092",
    "prefecture": "東京都",
    "prefecture_kana": "トウキョウト",
    "city": "世田谷区",
    "city_kana": "セタガヤク",
    "town": "野毛",
    "town_kana": "ノゲ",
    "prefecture_code": 13
  },
  "0084": {
    "zip_code": "1580084",
    "prefecture": "東京都",
    "prefecture_kana": "トウキョウト",
    "city": "世田谷区",
    "city_kana": "セタガヤク",
    "town": "東玉川",
    "town_kana": "ヒガシタマガワ",
    "prefecture_code": 13
  },
  "0081": {
    "zip_code": "1580081",
    "prefecture": "東京都",
    "prefecture_kana": "トウキョウト",
    "city": "世田谷区",
    "city_kana": "セタガヤク",
    "town": "深沢",
    "town_kana": "フカサワ",
    "prefecture_code": 13
  },
  "0097": {
    "zip_code": "1580097",
    "prefecture": "東京都",
    "prefecture_kana": "トウキョウト",
    "city": "世田谷区",
    "city_kana": "セタガヤク",
    "town": "用賀",
    "town_kana": "ヨウガ",
    "prefecture_code": 13
  }
}