{
  "0000": {
    "zip_code": "1640000",
    "prefecture": "東京都",
    "prefecture_kana": "トウキョウト",
    "prefecture_code": 13,
    "city": "中野区",
    "city_kana": "ナカノク",
    "town": "",
    "town_kana": "",
    "street": null,
    "office_name": null,
    "office_name_kana": null
  },
  "0001": {
    "zip_code": "1640001",
    "prefecture": "東京都",
    "prefecture_kana": "トウキョウト",
    "prefecture_code": 13,
    "city": "中野区",
    "city_kana": "ナカノク",
    "town": "中野",
    "town_kana": "ナカノ",
    "street": null,
    "office_name": null,
    "office_name_kana": null
  },
  "0002": {
    "zip_code": "1640002",
    "prefecture": "東京都",
    "prefecture_kana": "トウキョウト",
    "prefecture_code": 13,
    "city": "中野区",
    "city_kana": "ナカノク",
    "town": "上高田",
    "town_kana": "カミタカダ",
    "street": null,
    "office_name": null,
    "office_name_kana": null
  },
  "0003": {
    "zip_code": "1640003",
    "prefecture": "東京都",
    "prefecture_kana": "トウキョウト",
    "prefecture_code": 13,
    "city": "中野区",
    "city_kana": "ナカノク",
    "town": "東中野",
    "town_kana": "ヒガシナカノ",
    "street": null,
    "office_name": null,
    "office_name_kana": null
  },
  "0011": {
    "zip_code": "1640011",
    "prefecture": "東京都",
    "prefecture_kana": "トウキョウト",
    "prefecture_code": 13,
    "city": "中野区",
    "city_kana": "ナカノク",
    "town": "中央",
    "town_kana": "チュウオウ",
    "street": null,
    "office_name": null,
    "office_name_kana": null
  },
  "0012": {
    "zip_code": "1640012",
    "prefecture": "東京都",
    "prefecture_kana": "トウキョウト",
    "prefecture_code": 13,
    "city": "中野区",
    "city_kana": "ナカノク",
    "town": "本町",
    "town_kana": "ホンチョウ",
    "street": null,
    "office_name": null,
    "office_name_kana": null
  },
  "0013": {
    "zip_code": "1640013",
    "prefecture": "東京都",
    "prefecture_kana": "トウキョウト",
    "prefecture_code": 13,
    "city": "中野区",
    "city_kana": "ナカノク",
    "town": "弥生町",
    "town_kana": "ヤヨイチョウ",
    "street": null,
    "office_name": null,
    "office_name_kana": null
  },
  "0014": {
    "zip_code": "1640014",
    "prefecture": "東京都",
    "prefecture_kana": "トウキョウト",
    "prefecture_code": 13,
    "city": "中野区",
    "city_kana": "ナカノク",
    "town": "南台",
    "town_kana": "ミナミダイ",
    "street": null,
    "office_name": null,
    "office_name_kana": null
  },
  "8501": {
    "zip_code": "1648501",
    "prefecture": "東京都",
    "prefecture_kana": "トウキョウト",
    "prefecture_code": 13,
    "city": "中野区",
    "city_kana": "ナカノク",
    "town": "中野",
    "town_kana": "ナカノ",
    "street": "４丁目８−１",
    "office_name": "中野区役所",
    "office_name_kana": "ナカノクヤクシヨ"
  },
  "8503": {
    "zip_code": "1648503",
    "prefecture": "東京都",
    "prefecture_kana": "トウキョウト",
    "prefecture_code": 13,
    "city": "中野区",
    "city_kana": "ナカノク",
    "town": "中央",
    "town_kana": "チュウオウ",
    "street": "１丁目３８番１号住友中野坂上ビル２０階",
    "office_name": "三協立山　株式会社",
    "office_name_kana": "サンキヨウタテヤマ カブシキガイシヤ"
  },
  "8504": {
    "zip_code": "1648504",
    "prefecture": "東京都",
    "prefecture_kana": "トウキョウト",
    "prefecture_code": 13,
    "city": "中野区",
    "city_kana": "ナカノク",
    "town": "本町",
    "town_kana": "ホンチョウ",
    "street": "１丁目３２−４ハーモニーウィング５Ｆ",
    "office_name": "株式会社　インターコミュニケーションズ",
    "office_name_kana": "カブシキガイシヤ インタ-コミユニケ-シヨンズ"
  },
  "8505": {
    "zip_code": "1648505",
    "prefecture": "東京都",
    "prefecture_kana": "トウキョウト",
    "prefecture_code": 13,
    "city": "中野区",
    "city_kana": "ナカノク",
    "town": "中野",
    "town_kana": "ナカノ",
    "street": "５丁目６２−１",
    "office_name": "株式会社　ＳＣＣ",
    "office_name_kana": "カブシキガイシヤ エスシ-シ-"
  },
  "8511": {
    "zip_code": "1648511",
    "prefecture": "東京都",
    "prefecture_kana": "トウキョウト",
    "prefecture_code": 13,
    "city": "中野区",
    "city_kana": "ナカノク",
    "town": "中野",
    "town_kana": "ナカノ",
    "street": "４−１０−２中野セントラルパークサウス１６階",
    "office_name": "チューリッヒ・インシュアランス・カンパニー・リミテッド",
    "office_name_kana": "チユ-リツヒ・インシユアランス・カンパニ-・リミテツド"
  },
  "8512": {
    "zip_code": "1648512",
    "prefecture": "東京都",
    "prefecture_kana": "トウキョウト",
    "prefecture_code": 13,
    "city": "中野区",
    "city_kana": "ナカノク",
    "town": "中野",
    "town_kana": "ナカノ",
    "street": "４丁目１−１",
    "office_name": "株式会社　中野サンプラザ",
    "office_name_kana": "カブシキガイシヤ ナカノサンプラザ"
  },
  "8522": {
    "zip_code": "1648522",
    "prefecture": "東京都",
    "prefecture_kana": "トウキョウト",
    "prefecture_code": 13,
    "city": "中野区",
    "city_kana": "ナカノク",
    "town": "中野",
    "town_kana": "ナカノ",
    "street": "４丁目１５−９",
    "office_name": "三和電気工業　株式会社",
    "office_name_kana": "サンワデンキコウギヨウ カブシキガイシヤ"
  },
  "8525": {
    "zip_code": "1648525",
    "prefecture": "東京都",
    "prefecture_kana": "トウキョウト",
    "prefecture_code": 13,
    "city": "中野区",
    "city_kana": "ナカノク",
    "town": "中野",
    "town_kana": "ナカノ",
    "street": "４丁目２１番１号",
    "office_name": "学校法人　明治大学　中野キャンパス",
    "office_name_kana": "ガツコウホウジン メイジダイガク ナカノキヤンパス"
  },
  "8530": {
    "zip_code": "1648530",
    "prefecture": "東京都",
    "prefecture_kana": "トウキョウト",
    "prefecture_code": 13,
    "city": "中野区",
    "city_kana": "ナカノク",
    "town": "中野",
    "town_kana": "ナカノ",
    "street": "４丁目２１番２号",
    "office_name": "帝京平成大学　中野キャンパス",
    "office_name_kana": "テイキヨウヘイセイダイガク ナカノキヤンパス"
  },
  "8540": {
    "zip_code": "1648540",
    "prefecture": "東京都",
    "prefecture_kana": "トウキョウト",
    "prefecture_code": 13,
    "city": "中野区",
    "city_kana": "ナカノク",
    "town": "中野",
    "town_kana": "ナカノ",
    "street": "４−１０−２中野セントラルパークサウス７階",
    "office_name": "全国健康保険協会　東京支部",
    "office_name_kana": "ゼンコクケンコウホケンキヨウカイ トウキヨウシブ"
  },
  "8541": {
    "zip_code": "1648541",
    "prefecture": "東京都",
    "prefecture_kana": "トウキョウト",
    "prefecture_code": 13,
    "city": "中野区",
    "city_kana": "ナカノク",
    "town": "中野",
    "town_kana": "ナカノ",
    "street": "４丁目２２−１",
    "office_name": "東京警察病院",
    "office_name_kana": "トウキヨウケイサツビヨウイン"
  },
  "8545": {
    "zip_code": "1648545",
    "prefecture": "東京都",
    "prefecture_kana": "トウキョウト",
    "prefecture_code": 13,
    "city": "中野区",
    "city_kana": "ナカノク",
    "town": "中野",
    "town_kana": "ナカノ",
    "street": "４丁目１０番２号中野セントラルパークサウス６Ｆ",
    "office_name": "ＨＯＹＡ　株式会社",
    "office_name_kana": "ホ-ヤ カブシキガイシヤ"
  },
  "8550": {
    "zip_code": "1648550",
    "prefecture": "東京都",
    "prefecture_kana": "トウキョウト",
    "prefecture_code": 13,
    "city": "中野区",
    "city_kana": "ナカノク",
    "town": "東中野",
    "town_kana": "ヒガシナカノ",
    "street": "３丁目１８−１１",
    "office_name": "学校法人　森谷学園",
    "office_name_kana": "ガツコウホウジン モリタニガクエン"
  },
  "8555": {
    "zip_code": "1648555",
    "prefecture": "東京都",
    "prefecture_kana": "トウキョウト",
    "prefecture_code": 13,
    "city": "中野区",
    "city_kana": "ナカノク",
    "town": "東中野",
    "town_kana": "ヒガシナカノ",
    "street": "２丁目７番１４号",
    "office_name": "三井情報　株式会社",
    "office_name_kana": "ミツイジヨウホウ カブシキガイシヤ"
  },
  "8567": {
    "zip_code": "1648567",
    "prefecture": "東京都",
    "prefecture_kana": "トウキョウト",
    "prefecture_code": 13,
    "city": "中野区",
    "city_kana": "ナカノク",
    "town": "東中野",
    "town_kana": "ヒガシナカノ",
    "street": "３丁目１２−２",
    "office_name": "株式会社　アポロ社",
    "office_name_kana": "カブシキガイシヤ アポロシヤ"
  },
  "8570": {
    "zip_code": "1648570",
    "prefecture": "東京都",
    "prefecture_kana": "トウキョウト",
    "prefecture_code": 13,
    "city": "中野区",
    "city_kana": "ナカノク",
    "town": "中野",
    "town_kana": "ナカノ",
    "street": "４丁目１０番１号中野セントラルパークイースト",
    "office_name": "日本無線　株式会社",
    "office_name_kana": "ニホンムセン カブシキガイシヤ"
  },
  "8577": {
    "zip_code": "1648577",
    "prefecture": "東京都",
    "prefecture_kana": "トウキョウト",
    "prefecture_code": 13,
    "city": "中野区",
    "city_kana": "ナカノク",
    "town": "東中野",
    "town_kana": "ヒガシナカノ",
    "street": "５丁目２−１",
    "office_name": "ｗｅｓｔ５３ｒｄ",
    "office_name_kana": "ウエストフイフテイ-サ-ド"
  },
  "8585": {
    "zip_code": "1648585",
    "prefecture": "東京都",
    "prefecture_kana": "トウキョウト",
    "prefecture_code": 13,
    "city": "中野区",
    "city_kana": "ナカノク",
    "town": "中野",
    "town_kana": "ナカノ",
    "street": "４丁目１１−１",
    "office_name": "学校法人　窪田学園　窪田理容美容専門学校",
    "office_name_kana": "ガツコウホウジン クボタガクエン クボタリヨウビヨウセンモンガツコウ"
  },
  "8588": {
    "zip_code": "1648588",
    "prefecture": "東京都",
    "prefecture_kana": "トウキョウト",
    "prefecture_code": 13,
    "city": "中野区",
    "city_kana": "ナカノク",
    "town": "中野",
    "town_kana": "ナカノ",
    "street": "５丁目５−１１",
    "office_name": "アーク・インターナショナル　株式会社",
    "office_name_kana": "ア-ク・インタ-ナシヨナル カブシキガイシヤ"
  },
  "8608": {
    "zip_code": "1648608",
    "prefecture": "東京都",
    "prefecture_kana": "トウキョウト",
    "prefecture_code": 13,
    "city": "中野区",
    "city_kana": "ナカノク",
    "town": "中野",
    "town_kana": "ナカノ",
    "street": "４−１０−２中野セントラルパークサウス５階",
    "office_name": "損害保険ジャパン日本興亜　株式会社",
    "office_name_kana": "ソンガイホケンジヤパンニツポンコウア カブシキガイシヤ"
  },
  "8611": {
    "zip_code": "1648611",
    "prefecture": "東京都",
    "prefecture_kana": "トウキョウト",
    "prefecture_code": 13,
    "city": "中野区",
    "city_kana": "ナカノク",
    "town": "弥生町",
    "town_kana": "ヤヨイチョウ",
    "street": "３丁目３５−１３",
    "office_name": "株式会社　カーメイト",
    "office_name_kana": "カブシキガイシヤ カ-メイト"
  },
  "8616": {
    "zip_code": "1648616",
    "prefecture": "東京都",
    "prefecture_kana": "トウキョウト",
    "prefecture_code": 13,
    "city": "中野区",
    "city_kana": "ナカノク",
    "town": "中野",
    "town_kana": "ナカノ",
    "street": "５−６８−１０",
    "office_name": "株式会社　ケンコー・トキナー",
    "office_name_kana": "カ) ケンコ-・トキナ-"
  },
  "8617": {
    "zip_code": "1648617",
    "prefecture": "東京都",
    "prefecture_kana": "トウキョウト",
    "prefecture_code": 13,
    "city": "中野区",
    "city_kana": "ナカノク",
    "town": "弥生町",
    "town_kana": "ヤヨイチョウ",
    "street": "５丁目２５−１５",
    "office_name": "立正佼成会附属佼成病院",
    "office_name_kana": "リツシヨウコウセイカイフゾクコウセイビヨウイン"
  },
  "8620": {
    "zip_code": "1648620",
    "prefecture": "東京都",
    "prefecture_kana": "トウキョウト",
    "prefecture_code": 13,
    "city": "中野区",
    "city_kana": "ナカノク",
    "town": "本町",
    "town_kana": "ホンチョウ",
    "street": "２丁目４６−２中野坂上セントラルビル",
    "office_name": "株式会社　矢野経済研究所",
    "office_name_kana": "カブシキガイシヤ ヤノケイザイケンキユウジヨ"
  },
  "8638": {
    "zip_code": "1648638",
    "prefecture": "東京都",
    "prefecture_kana": "トウキョウト",
    "prefecture_code": 13,
    "city": "中野区",
    "city_kana": "ナカノク",
    "town": "本町",
    "town_kana": "ホンチョウ",
    "street": "６丁目３８番１号",
    "office_name": "学校法人　新渡戸文化学園",
    "office_name_kana": "ガツコウホウジン ニトベブンカガクエン"
  },
  "8642": {
    "zip_code": "1648642",
    "prefecture": "東京都",
    "prefecture_kana": "トウキョウト",
    "prefecture_code": 13,
    "city": "中野区",
    "city_kana": "ナカノク",
    "town": "中野",
    "town_kana": "ナカノ",
    "street": "４丁目１５−９",
    "office_name": "入一通信工業　株式会社",
    "office_name_kana": "イリイチツウシンコウギヨウ カブシキガイシヤ"
  },
  "8644": {
    "zip_code": "1648644",
    "prefecture": "東京都",
    "prefecture_kana": "トウキョウト",
    "prefecture_code": 13,
    "city": "中野区",
    "city_kana": "ナカノク",
    "town": "弥生町",
    "town_kana": "ヤヨイチョウ",
    "street": "１丁目１０番１号",
    "office_name": "株式会社　ジャパン　イマジネーション",
    "office_name_kana": "カブシキガイシヤ ジヤパン イマジネ-シヨン"
  },
  "8650": {
    "zip_code": "1648650",
    "prefecture": "東京都",
    "prefecture_kana": "トウキョウト",
    "prefecture_code": 13,
    "city": "中野区",
    "city_kana": "ナカノク",
    "town": "中央",
    "town_kana": "チュウオウ",
    "street": "１丁目２９−１５",
    "office_name": "鉱研工業　株式会社",
    "office_name_kana": "コウケンコウギヨウ カブシキガイシヤ"
  },
  "8666": {
    "zip_code": "1648666",
    "prefecture": "東京都",
    "prefecture_kana": "トウキョウト",
    "prefecture_code": 13,
    "city": "中野区",
    "city_kana": "ナカノク",
    "town": "弥生町",
    "town_kana": "ヤヨイチョウ",
    "street": "２丁目１４−２",
    "office_name": "日本アルミット　株式会社",
    "office_name_kana": "ニホンアルミツト カブシキガイシヤ"
  },
  "8678": {
    "zip_code": "1648678",
    "prefecture": "東京都",
    "prefecture_kana": "トウキョウト",
    "prefecture_code": 13,
    "city": "中野区",
    "city_kana": "ナカノク",
    "town": "本町",
    "town_kana": "ホンチョウ",
    "street": "２丁目９−５",
    "office_name": "学校法人　東京工芸大学",
    "office_name_kana": "ガツコウホウジン トウキヨウコウゲイダイガク"
  },
  "8682": {
    "zip_code": "1648682",
    "prefecture": "東京都",
    "prefecture_kana": "トウキョウト",
    "prefecture_code": 13,
    "city": "中野区",
    "city_kana": "ナカノク",
    "town": "本町",
    "town_kana": "ホンチョウ",
    "street": "２丁目４６−１",
    "office_name": "富士ゼロックスサービスクリエイティブ　株式会社",
    "office_name_kana": "フジゼロツクスサ-ビスクリエイテイブ カブシキガイシヤ"
  },
  "8686": {
    "zip_code": "1648686",
    "prefecture": "東京都",
    "prefecture_kana": "トウキョウト",
    "prefecture_code": 13,
    "city": "中野区",
    "city_kana": "ナカノク",
    "town": "中野",
    "town_kana": "ナカノ",
    "street": "２丁目１４−２２（中野郵便局私書箱第４７号）",
    "office_name": "日商簿記専門学校（日商クリエーション）",
    "office_name_kana": "ニツシヨウボキセンモンガツコウ(ニツシヨウクリエ-シヨン)"
  },
  "8701": {
    "zip_code": "1648701",
    "prefecture": "東京都",
    "prefecture_kana": "トウキョウト",
    "prefecture_code": 13,
    "city": "中野区",
    "city_kana": "ナカノク",
    "town": "中野",
    "town_kana": "ナカノ",
    "street": "４丁目３−２（中野郵便局私書箱第２号）",
    "office_name": "株式会社　丸井",
    "office_name_kana": "カブシキガイシヤ マルイ"
  },
  "8725": {
    "zip_code": "1648725",
    "prefecture": "東京都",
    "prefecture_kana": "トウキョウト",
    "prefecture_code": 13,
    "city": "中野区",
    "city_kana": "ナカノク",
    "town": "本町",
    "town_kana": "ホンチョウ",
    "street": "１丁目３２−２",
    "office_name": "ＮＴＴ　クオリス　（株）",
    "office_name_kana": "エヌテイテイ クオリス (カブ)"
  }
}