{
  "0021": {
    "zip_code": "1650021",
    "prefecture": "東京都",
    "prefecture_kana": "トウキョウト",
    "prefecture_code": 13,
    "city": "中野区",
    "city_kana": "ナカノク",
    "town": "丸山",
    "town_kana": "マルヤマ",
    "street": null,
    "office_name": null,
    "office_name_kana": null
  },
  "0022": {
    "zip_code": "1650022",
    "prefecture": "東京都",
    "prefecture_kana": "トウキョウト",
    "prefecture_code": 13,
    "city": "中野区",
    "city_kana": "ナカノク",
    "town": "江古田",
    "town_kana": "エゴタ",
    "street": null,
    "office_name": null,
    "office_name_kana": null
  },
  "0023": {
    "zip_code": "1650023",
    "prefecture": "東京都",
    "prefecture_kana": "トウキョウト",
    "prefecture_code": 13,
    "city": "中野区",
    "city_kana": "ナカノク",
    "town": "江原町",
    "town_kana": "エハラチョウ",
    "street": null,
    "office_name": null,
    "office_name_kana": null
  },
  "0024": {
    "zip_code": "1650024",
    "prefecture": "東京都",
    "prefecture_kana": "トウキョウト",
    "prefecture_code": 13,
    "city": "中野区",
    "city_kana": "ナカノク",
    "town": "松が丘",
    "town_kana": "マツガオカ",
    "street": null,
    "office_name": null,
    "office_name_kana": null
  },
  "0025": {
    "zip_code": "1650025",
    "prefecture": "東京都",
    "prefecture_kana": "トウキョウト",
    "prefecture_code": 13,
    "city": "中野区",
    "city_kana": "ナカノク",
    "town": "沼袋",
    "town_kana": "ヌマブクロ",
    "street": null,
    "office_name": null,
    "office_name_kana": null
  },
  "0026": {
    "zip_code": "1650026",
    "prefecture": "東京都",
    "prefecture_kana": "トウキョウト",
    "prefecture_code": 13,
    "city": "中野区",
    "city_kana": "ナカノク",
    "town": "新井",
    "town_kana": "アライ",
    "street": null,
    "office_name": null,
    "office_name_kana": null
  },
  "0027": {
    "zip_code": "1650027",
    "prefecture": "東京都",
    "prefecture_kana": "トウキョウト",
    "prefecture_code": 13,
    "city": "中野区",
    "city_kana": "ナカノク",
    "town": "野方",
    "town_kana": "ノガタ",
    "street": null,
    "office_name": null,
    "office_name_kana": null
  },
  "0031": {
    "zip_code": "1650031",
    "prefecture": "東京都",
    "prefecture_kana": "トウキョウト",
    "prefecture_code": 13,
    "city": "中野区",
    "city_kana": "ナカノク",
    "town": "上鷺宮",
    "town_kana": "カミサギノミヤ",
    "street": null,
    "office_name": null,
    "office_name_kana": null
  },
  "0032": {
    "zip_code": "1650032",
    "prefecture": "東京都",
    "prefecture_kana": "トウキョウト",
    "prefecture_code": 13,
    "city": "中野区",
    "city_kana": "ナカノク",
    "town": "鷺宮",
    "town_kana": "サギノミヤ",
    "street": null,
    "office_name": null,
    "office_name_kana": null
  },
  "0033": {
    "zip_code": "1650033",
    "prefecture": "東京都",
    "prefecture_kana": "トウキョウト",
    "prefecture_code": 13,
    "city": "中野区",
    "city_kana": "ナカノク",
    "town": "若宮",
    "town_kana": "ワカミヤ",
    "street": null,
    "office_name": null,
    "office_name_kana": null
  },
  "0034": {
    "zip_code": "1650034",
    "prefecture": "東京都",
    "prefecture_kana": "トウキョウト",
    "prefecture_code": 13,
    "city": "中野区",
    "city_kana": "ナカノク",
    "town": "大和町",
    "town_kana": "ヤマトチョウ",
    "street": null,
    "office_name": null,
    "office_name_kana": null
  },
  "0035": {
    "zip_code": "1650035",
    "prefecture": "東京都",
    "prefecture_kana": "トウキョウト",
    "prefecture_code": 13,
    "city": "中野区",
    "city_kana": "ナカノク",
    "town": "白鷺",
    "town_kana": "シラサギ",
    "street": null,
    "office_name": null,
    "office_name_kana": null
  },
  "8555": {
    "zip_code": "1658555",
    "prefecture": "東京都",
    "prefecture_kana": "トウキョウト",
    "prefecture_code": 13,
    "city": "中野区",
    "city_kana": "ナカノク",
    "town": "江原町",
    "town_kana": "エハラチョウ",
    "street": "１丁目１３−２２",
    "office_name": "株式会社　クレディセゾン　顧客サービス部",
    "office_name_kana": "カブシキガイシヤ クレデイセゾン コキヤクサ-ビスブ"
  },
  "8780": {
    "zip_code": "1658780",
    "prefecture": "東京都",
    "prefecture_kana": "トウキョウト",
    "prefecture_code": 13,
    "city": "中野区",
    "city_kana": "ナカノク",
    "town": "野方",
    "town_kana": "ノガタ",
    "street": "１丁目３４−１",
    "office_name": "東京法務局　民事行政部　動産・債券登録課",
    "office_name_kana": "トウキヨウホウムキヨク ミンジギヨウセイブ ドウサンサイケントウロクカ"
  }
}