{
  "0021": {
    "zip_code": "1670021",
    "prefecture": "東京都",
    "prefecture_kana": "トウキョウト",
    "prefecture_code": "13",
    "city": "杉並区",
    "city_kana": "スギナミク",
    "town": "井草",
    "town_kana": "イグサ",
    "street": null,
    "office_name": null,
    "office_name_kana": null
  },
  "0022": {
    "zip_code": "1670022",
    "prefecture": "東京都",
    "prefecture_kana": "トウキョウト",
    "prefecture_code": "13",
    "city": "杉並区",
    "city_kana": "スギナミク",
    "town": "下井草",
    "town_kana": "シモイグサ",
    "street": null,
    "office_name": null,
    "office_name_kana": null
  },
  "0023": {
    "zip_code": "1670023",
    "prefecture": "東京都",
    "prefecture_kana": "トウキョウト",
    "prefecture_code": "13",
    "city": "杉並区",
    "city_kana": "スギナミク",
    "town": "上井草",
    "town_kana": "カミイグサ",
    "street": null,
    "office_name": null,
    "office_name_kana": null
  },
  "0031": {
    "zip_code": "1670031",
    "prefecture": "東京都",
    "prefecture_kana": "トウキョウト",
    "prefecture_code": "13",
    "city": "杉並区",
    "city_kana": "スギナミク",
    "town": "本天沼",
    "town_kana": "ホンアマヌマ",
    "street": null,
    "office_name": null,
    "office_name_kana": null
  },
  "0032": {
    "zip_code": "1670032",
    "prefecture": "東京都",
    "prefecture_kana": "トウキョウト",
    "prefecture_code": "13",
    "city": "杉並区",
    "city_kana": "スギナミク",
    "town": "天沼",
    "town_kana": "アマヌマ",
    "street": null,
    "office_name": null,
    "office_name_kana": null
  },
  "0033": {
    "zip_code": "1670033",
    "prefecture": "東京都",
    "prefecture_kana": "トウキョウト",
    "prefecture_code": "13",
    "city": "杉並区",
    "city_kana": "スギナミク",
    "town": "清水",
    "town_kana": "シミズ",
    "street": null,
    "office_name": null,
    "office_name_kana": null
  },
  "0034": {
    "zip_code": "1670034",
    "prefecture": "東京都",
    "prefecture_kana": "トウキョウト",
    "prefecture_code": "13",
    "city": "杉並区",
    "city_kana": "スギナミク",
    "town": "桃井",
    "town_kana": "モモイ",
    "street": null,
    "office_name": null,
    "office_name_kana": null
  },
  "0035": {
    "zip_code": "1670035",
    "prefecture": "東京都",
    "prefecture_kana": "トウキョウト",
    "prefecture_code": "13",
    "city": "杉並区",
    "city_kana": "スギナミク",
    "town": "今川",
    "town_kana": "イマガワ",
    "street": null,
    "office_name": null,
    "office_name_kana": null
  },
  "0041": {
    "zip_code": "1670041",
    "prefecture": "東京都",
    "prefecture_kana": "トウキョウト",
    "prefecture_code": "13",
    "city": "杉並区",
    "city_kana": "スギナミク",
    "town": "善福寺",
    "town_kana": "ゼンプクジ",
    "street": null,
    "office_name": null,
    "office_name_kana": null
  },
  "0042": {
    "zip_code": "1670042",
    "prefecture": "東京都",
    "prefecture_kana": "トウキョウト",
    "prefecture_code": "13",
    "city": "杉並区",
    "city_kana": "スギナミク",
    "town": "西荻北",
    "town_kana": "ニシオギキタ",
    "street": null,
    "office_name": null,
    "office_name_kana": null
  },
  "0043": {
    "zip_code": "1670043",
    "prefecture": "東京都",
    "prefecture_kana": "トウキョウト",
    "prefecture_code": "13",
    "city": "杉並区",
    "city_kana": "スギナミク",
    "town": "上荻",
    "town_kana": "カミオギ",
    "street": null,
    "office_name": null,
    "office_name_kana": null
  },
  "0051": {
    "zip_code": "1670051",
    "prefecture": "東京都",
    "prefecture_kana": "トウキョウト",
    "prefecture_code": "13",
    "city": "杉並区",
    "city_kana": "スギナミク",
    "town": "荻窪",
    "town_kana": "オギクボ",
    "street": null,
    "office_name": null,
    "office_name_kana": null
  },
  "0052": {
    "zip_code": "1670052",
    "prefecture": "東京都",
    "prefecture_kana": "トウキョウト",
    "prefecture_code": "13",
    "city": "杉並区",
    "city_kana": "スギナミク",
    "town": "南荻窪",
    "town_kana": "ミナミオギクボ",
    "street": null,
    "office_name": null,
    "office_name_kana": null
  },
  "0053": {
    "zip_code": "1670053",
    "prefecture": "東京都",
    "prefecture_kana": "トウキョウト",
    "prefecture_code": "13",
    "city": "杉並区",
    "city_kana": "スギナミク",
    "town": "西荻南",
    "town_kana": "ニシオギミナミ",
    "street": null,
    "office_name": null,
    "office_name_kana": null
  },
  "0054": {
    "zip_code": "1670054",
    "prefecture": "東京都",
    "prefecture_kana": "トウキョウト",
    "prefecture_code": "13",
    "city": "杉並区",
    "city_kana": "スギナミク",
    "town": "松庵",
    "town_kana": "ショウアン",
    "street": null,
    "office_name": null,
    "office_name_kana": null
  },
  "8001": {
    "zip_code": "1678001",
    "prefecture": "東京都",
    "prefecture_kana": "トウキョウト",
    "prefecture_code": "13",
    "city": "杉並区",
    "city_kana": "スギナミク",
    "town": "荻窪",
    "town_kana": "オギクボ",
    "street": "４丁目３０−１６（荻窪郵便局私書箱第１号）",
    "office_name": "アメリカン・エキスプレス・インターナショナル．Ｉｎｃ．",
    "office_name_kana": "アメリカン・エキスプレス・インタ-ナシヨナル・INC."
  },
  "8501": {
    "zip_code": "1678501",
    "prefecture": "東京都",
    "prefecture_kana": "トウキョウト",
    "prefecture_code": "13",
    "city": "杉並区",
    "city_kana": "スギナミク",
    "town": "上荻",
    "town_kana": "カミオギ",
    "street": "１丁目２３−１７",
    "office_name": "株式会社　新星堂",
    "office_name_kana": "カブシキガイシヤ シンセイドウ"
  },
  "8506": {
    "zip_code": "1678506",
    "prefecture": "東京都",
    "prefecture_kana": "トウキョウト",
    "prefecture_code": "13",
    "city": "杉並区",
    "city_kana": "スギナミク",
    "town": "天沼",
    "town_kana": "アマヌマ",
    "street": "３丁目１９−１４",
    "office_name": "荻窪税務署",
    "office_name_kana": "オギクボゼイムシヨ"
  },
  "8507": {
    "zip_code": "1678507",
    "prefecture": "東京都",
    "prefecture_kana": "トウキョウト",
    "prefecture_code": "13",
    "city": "杉並区",
    "city_kana": "スギナミク",
    "town": "天沼",
    "town_kana": "アマヌマ",
    "street": "３丁目１７−３",
    "office_name": "東京衛生病院",
    "office_name_kana": "トウキヨウエイセイビヨウイン"
  },
  "8510": {
    "zip_code": "1678510",
    "prefecture": "東京都",
    "prefecture_kana": "トウキョウト",
    "prefecture_code": "13",
    "city": "杉並区",
    "city_kana": "スギナミク",
    "town": "下井草",
    "town_kana": "シモイグサ",
    "street": "３丁目１８−１６",
    "office_name": "東亜紙巧業　株式会社",
    "office_name_kana": "トウアシコウギヨウ カブシキガイシヤ"
  },
  "8515": {
    "zip_code": "1678515",
    "prefecture": "東京都",
    "prefecture_kana": "トウキョウト",
    "prefecture_code": "13",
    "city": "杉並区",
    "city_kana": "スギナミク",
    "town": "今川",
    "town_kana": "イマガワ",
    "street": "３丁目１−２４",
    "office_name": "荻窪病院",
    "office_name_kana": "オギクボビヨウイン"
  },
  "8520": {
    "zip_code": "1678520",
    "prefecture": "東京都",
    "prefecture_kana": "トウキョウト",
    "prefecture_code": "13",
    "city": "杉並区",
    "city_kana": "スギナミク",
    "town": "松庵",
    "town_kana": "ショウアン",
    "street": "１丁目１５−１８",
    "office_name": "丸美屋食品工業　株式会社",
    "office_name_kana": "マルミヤシヨクヒンコウギヨウ カブシキガイシヤ"
  },
  "8534": {
    "zip_code": "1678534",
    "prefecture": "東京都",
    "prefecture_kana": "トウキョウト",
    "prefecture_code": "13",
    "city": "杉並区",
    "city_kana": "スギナミク",
    "town": "南荻窪",
    "town_kana": "ミナミオギクボ",
    "street": "４丁目４０−１１",
    "office_name": "東京電力パワーグリッド　株式会社　荻窪支社",
    "office_name_kana": "トウキヨウデンリヨクパワ-グリツド カブシキガイシヤ オギクボシシヤ"
  },
  "8551": {
    "zip_code": "1678551",
    "prefecture": "東京都",
    "prefecture_kana": "トウキョウト",
    "prefecture_code": "13",
    "city": "杉並区",
    "city_kana": "スギナミク",
    "town": "松庵",
    "town_kana": "ショウアン",
    "street": "１丁目１８−１３",
    "office_name": "ケーオーデンタル　株式会社",
    "office_name_kana": "ケ-オ-デンタル カブシキガイシヤ"
  },
  "8555": {
    "zip_code": "1678555",
    "prefecture": "東京都",
    "prefecture_kana": "トウキョウト",
    "prefecture_code": "13",
    "city": "杉並区",
    "city_kana": "スギナミク",
    "town": "荻窪",
    "town_kana": "オギクボ",
    "street": "４丁目３２−５",
    "office_name": "株式会社　小泉",
    "office_name_kana": "カブシキガイシヤ コイズミ"
  },
  "8560": {
    "zip_code": "1678560",
    "prefecture": "東京都",
    "prefecture_kana": "トウキョウト",
    "prefecture_code": "13",
    "city": "杉並区",
    "city_kana": "スギナミク",
    "town": "天沼",
    "town_kana": "アマヌマ",
    "street": "３丁目１０番２号",
    "office_name": "『杉並文化村』",
    "office_name_kana": "スギナミブンカムラ"
  },
  "8585": {
    "zip_code": "1678585",
    "prefecture": "東京都",
    "prefecture_kana": "トウキョウト",
    "prefecture_code": "13",
    "city": "杉並区",
    "city_kana": "スギナミク",
    "town": "善福寺",
    "town_kana": "ゼンプクジ",
    "street": "２丁目６−１",
    "office_name": "東京女子大学",
    "office_name_kana": "トウキヨウジヨシダイガク"
  },
  "8601": {
    "zip_code": "1678601",
    "prefecture": "東京都",
    "prefecture_kana": "トウキョウト",
    "prefecture_code": "13",
    "city": "杉並区",
    "city_kana": "スギナミク",
    "town": "天沼",
    "town_kana": "アマヌマ",
    "street": "２−４−７（荻窪郵便局私書箱第３２号）",
    "office_name": "株式会社　イー・エス・エス",
    "office_name_kana": "カブシキガイシヤ イ-・エス・エス"
  },
  "8602": {
    "zip_code": "1678602",
    "prefecture": "東京都",
    "prefecture_kana": "トウキョウト",
    "prefecture_code": "13",
    "city": "杉並区",
    "city_kana": "スギナミク",
    "town": "清水",
    "town_kana": "シミズ",
    "street": "３−３１−９",
    "office_name": "株式会社　イー・エス・エス　配送センター",
    "office_name_kana": "カブシキガイシヤ イ-・エス・エス ハイソウセンタ-"
  },
  "8610": {
    "zip_code": "1678610",
    "prefecture": "東京都",
    "prefecture_kana": "トウキョウト",
    "prefecture_code": "13",
    "city": "杉並区",
    "city_kana": "スギナミク",
    "town": "松庵",
    "town_kana": "ショウアン",
    "street": "１丁目１５−１８（荻窪郵便局私書箱第４５号）",
    "office_name": "丸美屋食品工業　株式会社",
    "office_name_kana": "マルミヤシヨクヒンコウギヨウ カブシキガイシヤ"
  },
  "8628": {
    "zip_code": "1678628",
    "prefecture": "東京都",
    "prefecture_kana": "トウキョウト",
    "prefecture_code": "13",
    "city": "杉並区",
    "city_kana": "スギナミク",
    "town": "南荻窪",
    "town_kana": "ミナミオギクボ",
    "street": "３丁目３１−１８（荻窪郵便局私書箱第２８号）",
    "office_name": "株式会社　日本標準",
    "office_name_kana": "カブシキガイシヤ ニツポンヒヨウジユン"
  }
}