{
  "0051": {
    "zip_code": "1690051",
    "prefecture": "東京都",
    "prefecture_kana": "トウキョウト",
    "prefecture_code": 13,
    "city": "新宿区",
    "city_kana": "シンジュクク",
    "town": "西早稲田",
    "town_kana": "ニシワセダ",
    "street": null,
    "office_name": null,
    "office_name_kana": null
  },
  "0052": {
    "zip_code": "1690052",
    "prefecture": "東京都",
    "prefecture_kana": "トウキョウト",
    "prefecture_code": 13,
    "city": "新宿区",
    "city_kana": "シンジュクク",
    "town": "戸山",
    "town_kana": "トヤマ",
    "street": null,
    "office_name": null,
    "office_name_kana": null
  },
  "0071": {
    "zip_code": "1690071",
    "prefecture": "東京都",
    "prefecture_kana": "トウキョウト",
    "prefecture_code": 13,
    "city": "新宿区",
    "city_kana": "シンジュクク",
    "town": "戸塚町",
    "town_kana": "トツカマチ",
    "street": null,
    "office_name": null,
    "office_name_kana": null
  },
  "0072": {
    "zip_code": "1690072",
    "prefecture": "東京都",
    "prefecture_kana": "トウキョウト",
    "prefecture_code": 13,
    "city": "新宿区",
    "city_kana": "シンジュクク",
    "town": "大久保",
    "town_kana": "オオクボ",
    "street": null,
    "office_name": null,
    "office_name_kana": null
  },
  "0073": {
    "zip_code": "1690073",
    "prefecture": "東京都",
    "prefecture_kana": "トウキョウト",
    "prefecture_code": 13,
    "city": "新宿区",
    "city_kana": "シンジュクク",
    "town": "百人町",
    "town_kana": "ヒャクニンチョウ",
    "street": null,
    "office_name": null,
    "office_name_kana": null
  },
  "0074": {
    "zip_code": "1690074",
    "prefecture": "東京都",
    "prefecture_kana": "トウキョウト",
    "prefecture_code": 13,
    "city": "新宿区",
    "city_kana": "シンジュクク",
    "town": "北新宿",
    "town_kana": "キタシンジュク",
    "street": null,
    "office_name": null,
    "office_name_kana": null
  },
  "0075": {
    "zip_code": "1690075",
    "prefecture": "東京都",
    "prefecture_kana": "トウキョウト",
    "prefecture_code": 13,
    "city": "新宿区",
    "city_kana": "シンジュクク",
    "town": "高田馬場",
    "town_kana": "タカダノババ",
    "street": null,
    "office_name": null,
    "office_name_kana": null
  },
  "8011": {
    "zip_code": "1698011",
    "prefecture": "東京都",
    "prefecture_kana": "トウキョウト",
    "prefecture_code": 13,
    "city": "新宿区",
    "city_kana": "シンジュクク",
    "town": "高田馬場",
    "town_kana": "タカダノババ",
    "street": "４丁目２−３８",
    "office_name": "日本通信教育連盟",
    "office_name_kana": "ニホンツウシンキヨウイクレンメイ"
  },
  "8012": {
    "zip_code": "1698012",
    "prefecture": "東京都",
    "prefecture_kana": "トウキョウト",
    "prefecture_code": 13,
    "city": "新宿区",
    "city_kana": "シンジュクク",
    "town": "大久保",
    "town_kana": "オオクボ",
    "street": "２丁目１２−１",
    "office_name": "東京社会保険事務局",
    "office_name_kana": "トウキヨウシヤカイホケンジムキヨク"
  },
  "8050": {
    "zip_code": "1698050",
    "prefecture": "東京都",
    "prefecture_kana": "トウキョウト",
    "prefecture_code": 13,
    "city": "新宿区",
    "city_kana": "シンジュクク",
    "town": "西早稲田",
    "town_kana": "ニシワセダ",
    "street": "１丁目６−１",
    "office_name": "早稲田大学",
    "office_name_kana": "ワセダダイガク"
  },
  "8077": {
    "zip_code": "1698077",
    "prefecture": "東京都",
    "prefecture_kana": "トウキョウト",
    "prefecture_code": 13,
    "city": "新宿区",
    "city_kana": "シンジュクク",
    "town": "西早稲田",
    "town_kana": "ニシワセダ",
    "street": "１丁目１−６",
    "office_name": "株式会社　説話社　マイバースディ編集室",
    "office_name_kana": "カブシキガイシヤ セツワシヤ マイバ-スデイヘンシユウシツ"
  },
  "8228": {
    "zip_code": "1698228",
    "prefecture": "東京都",
    "prefecture_kana": "トウキョウト",
    "prefecture_code": 13,
    "city": "新宿区",
    "city_kana": "シンジュクク",
    "town": "北新宿",
    "town_kana": "キタシンジュク",
    "street": "２−２１−１",
    "office_name": "株式会社　ライトアップショッピングクラブ",
    "office_name_kana": "カブシキガイシヤ ライトアツプシヨツピングクラブ"
  },
  "8503": {
    "zip_code": "1698503",
    "prefecture": "東京都",
    "prefecture_kana": "トウキョウト",
    "prefecture_code": 13,
    "city": "新宿区",
    "city_kana": "シンジュクク",
    "town": "百人町",
    "town_kana": "ヒャクニンチョウ",
    "street": "３丁目２６−２",
    "office_name": "呉羽化学工業　株式会社　生物医学研究所",
    "office_name_kana": "クレハカガクコウギヨウ カブシキガイシヤ セイブツイガクケンキユウジヨ"
  },
  "8509": {
    "zip_code": "1698509",
    "prefecture": "東京都",
    "prefecture_kana": "トウキョウト",
    "prefecture_code": 13,
    "city": "新宿区",
    "city_kana": "シンジュクク",
    "town": "西早稲田",
    "town_kana": "ニシワセダ",
    "street": "２−３−１８−７２",
    "office_name": "キリスト教学校教育同盟",
    "office_name_kana": "キリストキヨウガツコウキヨウイクドウメイ"
  },
  "8516": {
    "zip_code": "1698516",
    "prefecture": "東京都",
    "prefecture_kana": "トウキョウト",
    "prefecture_code": 13,
    "city": "新宿区",
    "city_kana": "シンジュクク",
    "town": "百人町",
    "town_kana": "ヒャクニンチョウ",
    "street": "２丁目２７−６",
    "office_name": "関東ＩＴソフトウェア健康保険組合",
    "office_name_kana": "カントウアイテイソフトウエアケンコウホケンクミアイ"
  },
  "8517": {
    "zip_code": "1698517",
    "prefecture": "東京都",
    "prefecture_kana": "トウキョウト",
    "prefecture_code": 13,
    "city": "新宿区",
    "city_kana": "シンジュクク",
    "town": "百人町",
    "town_kana": "ヒャクニンチョウ",
    "street": "２丁目２７−６",
    "office_name": "大久保健診センター",
    "office_name_kana": "オオクボケンシンセンタ-"
  },
  "8518": {
    "zip_code": "1698518",
    "prefecture": "東京都",
    "prefecture_kana": "トウキョウト",
    "prefecture_code": 13,
    "city": "新宿区",
    "city_kana": "シンジュクク",
    "town": "高田馬場",
    "town_kana": "タカダノババ",
    "street": "１−２５−３０",
    "office_name": "学校法人　日本教育研究団　社会情報大学院大学",
    "office_name_kana": "ガツコウホウジン ニホンキヨウイクケンキユウダン シヤカイジヨウホウダイガクインダイガク"
  },
  "8520": {
    "zip_code": "1698520",
    "prefecture": "東京都",
    "prefecture_kana": "トウキョウト",
    "prefecture_code": 13,
    "city": "新宿区",
    "city_kana": "シンジュクク",
    "town": "百人町",
    "town_kana": "ヒャクニンチョウ",
    "street": "１丁目１６−２１",
    "office_name": "株式会社　井成",
    "office_name_kana": "カブシキガイシヤ イセイ"
  },
  "8521": {
    "zip_code": "1698521",
    "prefecture": "東京都",
    "prefecture_kana": "トウキョウト",
    "prefecture_code": 13,
    "city": "新宿区",
    "city_kana": "シンジュクク",
    "town": "百人町",
    "town_kana": "ヒャクニンチョウ",
    "street": "３丁目２８−１０",
    "office_name": "社団法人　俳人協会",
    "office_name_kana": "シヤダンホウジン ハイジンキヨウカイ"
  },
  "8522": {
    "zip_code": "1698522",
    "prefecture": "東京都",
    "prefecture_kana": "トウキョウト",
    "prefecture_code": 13,
    "city": "新宿区",
    "city_kana": "シンジュクク",
    "town": "百人町",
    "town_kana": "ヒャクニンチョウ",
    "street": "１丁目２５−４",
    "office_name": "学校法人　電子学園　日本電子専門学校",
    "office_name_kana": "ガツコウホウジン デンシガクエン ニホンデンシセンモンガツコウ"
  },
  "8525": {
    "zip_code": "1698525",
    "prefecture": "東京都",
    "prefecture_kana": "トウキョウト",
    "prefecture_code": 13,
    "city": "新宿区",
    "city_kana": "シンジュクク",
    "town": "百人町",
    "town_kana": "ヒャクニンチョウ",
    "street": "２丁目２０−１７",
    "office_name": "株式会社　益田屋",
    "office_name_kana": "カブシキガイシヤ マスダヤ"
  },
  "8526": {
    "zip_code": "1698526",
    "prefecture": "東京都",
    "prefecture_kana": "トウキョウト",
    "prefecture_code": 13,
    "city": "新宿区",
    "city_kana": "シンジュクク",
    "town": "大久保",
    "town_kana": "オオクボ",
    "street": "２−２−６ラクサス東新宿ビル７Ｆ",
    "office_name": "生活協同組合　パルシステム東京",
    "office_name_kana": "セイカツキヨウドウクミアイ パルシステムトウキヨウ"
  },
  "8527": {
    "zip_code": "1698527",
    "prefecture": "東京都",
    "prefecture_kana": "トウキョウト",
    "prefecture_code": 13,
    "city": "新宿区",
    "city_kana": "シンジュクク",
    "town": "大久保",
    "town_kana": "オオクボ",
    "street": "２−２−６ラクサス東新宿ビル６Ｆ",
    "office_name": "パルシステム　生活協同組合連合会",
    "office_name_kana": "パルシステム セイカツキヨウドウクミアイレンゴウカイ"
  },
  "8531": {
    "zip_code": "1698531",
    "prefecture": "東京都",
    "prefecture_kana": "トウキョウト",
    "prefecture_code": 13,
    "city": "新宿区",
    "city_kana": "シンジュクク",
    "town": "大久保",
    "town_kana": "オオクボ",
    "street": "２丁目１−１",
    "office_name": "株式会社　シジシージャパン",
    "office_name_kana": "カブシキガイシヤ シジシ-ジヤパン"
  },
  "8535": {
    "zip_code": "1698535",
    "prefecture": "東京都",
    "prefecture_kana": "トウキョウト",
    "prefecture_code": 13,
    "city": "新宿区",
    "city_kana": "シンジュクク",
    "town": "大久保",
    "town_kana": "オオクボ",
    "street": "２−１２−１",
    "office_name": "日本年金機構　会計部",
    "office_name_kana": "ニツポンネンキンキコウ カイケイブ"
  },
  "8540": {
    "zip_code": "1698540",
    "prefecture": "東京都",
    "prefecture_kana": "トウキョウト",
    "prefecture_code": 13,
    "city": "新宿区",
    "city_kana": "シンジュクク",
    "town": "大久保",
    "town_kana": "オオクボ",
    "street": "１丁目２−１５",
    "office_name": "日本赤十字社　東京都支部",
    "office_name_kana": "ニツポンセキジユウジシヤ トウキヨウトシブ"
  },
  "8541": {
    "zip_code": "1698541",
    "prefecture": "東京都",
    "prefecture_kana": "トウキョウト",
    "prefecture_code": 13,
    "city": "新宿区",
    "city_kana": "シンジュクク",
    "town": "大久保",
    "town_kana": "オオクボ",
    "street": "２丁目１２−１１",
    "office_name": "東京税務会計事務所　健康保険組合",
    "office_name_kana": "トウキヨウゼイムカイケイジムシヨ ケンコウホケンクミアイ"
  },
  "8550": {
    "zip_code": "1698550",
    "prefecture": "東京都",
    "prefecture_kana": "トウキョウト",
    "prefecture_code": 13,
    "city": "新宿区",
    "city_kana": "シンジュクク",
    "town": "大久保",
    "town_kana": "オオクボ",
    "street": "２丁目１−１",
    "office_name": "株式会社　三徳",
    "office_name_kana": "カブシキガイシヤ サントク"
  },
  "8555": {
    "zip_code": "1698555",
    "prefecture": "東京都",
    "prefecture_kana": "トウキョウト",
    "prefecture_code": 13,
    "city": "新宿区",
    "city_kana": "シンジュクク",
    "town": "大久保",
    "town_kana": "オオクボ",
    "street": "３丁目４−１",
    "office_name": "早稲田大学　理工学部",
    "office_name_kana": "ワセダダイガク リコウガクブ"
  },
  "8556": {
    "zip_code": "1698556",
    "prefecture": "東京都",
    "prefecture_kana": "トウキョウト",
    "prefecture_code": 13,
    "city": "新宿区",
    "city_kana": "シンジュクク",
    "town": "大久保",
    "town_kana": "オオクボ",
    "street": "２丁目８−３",
    "office_name": "東京都　電設工業厚生年金基金",
    "office_name_kana": "トウキヨウト デンセツコウギヨウコウセイネンキンキキン"
  },
  "8558": {
    "zip_code": "1698558",
    "prefecture": "東京都",
    "prefecture_kana": "トウキョウト",
    "prefecture_code": 13,
    "city": "新宿区",
    "city_kana": "シンジュクク",
    "town": "大久保",
    "town_kana": "オオクボ",
    "street": "２丁目５−２５",
    "office_name": "株式会社　河田",
    "office_name_kana": "カブシキガイシヤ カワダ"
  },
  "8561": {
    "zip_code": "1698561",
    "prefecture": "東京都",
    "prefecture_kana": "トウキョウト",
    "prefecture_code": 13,
    "city": "新宿区",
    "city_kana": "シンジュクク",
    "town": "北新宿",
    "town_kana": "キタシンジュク",
    "street": "１丁目１９−３",
    "office_name": "新宿税務署",
    "office_name_kana": "シンジユクゼイムシヨ"
  },
  "8568": {
    "zip_code": "1698568",
    "prefecture": "東京都",
    "prefecture_kana": "トウキョウト",
    "prefecture_code": 13,
    "city": "新宿区",
    "city_kana": "シンジュクク",
    "town": "高田馬場",
    "town_kana": "タカダノババ",
    "street": "１丁目４−１５",
    "office_name": "財団法人　実務技能検定協会",
    "office_name_kana": "ザイダンホウジン ジツムギノウケンテイキヨウカイ"
  },
  "8570": {
    "zip_code": "1698570",
    "prefecture": "東京都",
    "prefecture_kana": "トウキョウト",
    "prefecture_code": 13,
    "city": "新宿区",
    "city_kana": "シンジュクク",
    "town": "高田馬場",
    "town_kana": "タカダノババ",
    "street": "２丁目１４−１１",
    "office_name": "日拓エンタープライズ　（株）",
    "office_name_kana": "ニツタクエンタ-プライズ カブシキガイシヤ"
  },
  "8577": {
    "zip_code": "1698577",
    "prefecture": "東京都",
    "prefecture_kana": "トウキョウト",
    "prefecture_code": 13,
    "city": "新宿区",
    "city_kana": "シンジュクク",
    "town": "高田馬場",
    "town_kana": "タカダノババ",
    "street": "４丁目２８−１２",
    "office_name": "（株）　白夜書房",
    "office_name_kana": "カブシキガイシヤ ビヤクヤシヨボウ"
  },
  "8578": {
    "zip_code": "1698578",
    "prefecture": "東京都",
    "prefecture_kana": "トウキョウト",
    "prefecture_code": 13,
    "city": "新宿区",
    "city_kana": "シンジュクク",
    "town": "高田馬場",
    "town_kana": "タカダノババ",
    "street": "４−２８−１２",
    "office_name": "株式会社　ガイドワークス",
    "office_name_kana": "カブシキガイシヤ ガイドワ-クス"
  },
  "8580": {
    "zip_code": "1698580",
    "prefecture": "東京都",
    "prefecture_kana": "トウキョウト",
    "prefecture_code": 13,
    "city": "新宿区",
    "city_kana": "シンジュクク",
    "town": "高田馬場",
    "town_kana": "タカダノババ",
    "street": "１丁目３４−７",
    "office_name": "マルコメ　（株）　東京支店",
    "office_name_kana": "マルコメ カブシキガイシヤ トウキヨウシテン"
  },
  "8585": {
    "zip_code": "1698585",
    "prefecture": "東京都",
    "prefecture_kana": "トウキョウト",
    "prefecture_code": 13,
    "city": "新宿区",
    "city_kana": "シンジュクク",
    "town": "北新宿",
    "town_kana": "キタシンジュク",
    "street": "３丁目２０−１",
    "office_name": "株式会社　ヨドバシカメラ",
    "office_name_kana": "カブシキガイシヤ ヨドバシカメラ"
  },
  "8586": {
    "zip_code": "1698586",
    "prefecture": "東京都",
    "prefecture_kana": "トウキョウト",
    "prefecture_code": 13,
    "city": "新宿区",
    "city_kana": "シンジュクク",
    "town": "高田馬場",
    "town_kana": "タカダノババ",
    "street": "１丁目２３−４",
    "office_name": "社会福祉法人　日本点字図書館",
    "office_name_kana": "シヤカイフクシホウジン ニホンテンジトシヨカン"
  },
  "8601": {
    "zip_code": "1698601",
    "prefecture": "東京都",
    "prefecture_kana": "トウキョウト",
    "prefecture_code": 13,
    "city": "新宿区",
    "city_kana": "シンジュクク",
    "town": "大久保",
    "town_kana": "オオクボ",
    "street": "２丁目１２−１ペアーレ新宿４階・５階",
    "office_name": "新宿社会保険事務所",
    "office_name_kana": "シンジユクシヤカイホケンジムシヨ"
  },
  "8605": {
    "zip_code": "1698605",
    "prefecture": "東京都",
    "prefecture_kana": "トウキョウト",
    "prefecture_code": 13,
    "city": "新宿区",
    "city_kana": "シンジュクク",
    "town": "西早稲田",
    "town_kana": "ニシワセダ",
    "street": "３丁目３０−１６",
    "office_name": "株式会社　ぱぁとわん",
    "office_name_kana": "カブシキガイシヤ パアトワン"
  },
  "8608": {
    "zip_code": "1698608",
    "prefecture": "東京都",
    "prefecture_kana": "トウキョウト",
    "prefecture_code": 13,
    "city": "新宿区",
    "city_kana": "シンジュクク",
    "town": "西早稲田",
    "town_kana": "ニシワセダ",
    "street": "３丁目５−１０",
    "office_name": "（株）　學燈社",
    "office_name_kana": "カブシキガイシヤ ガクトウシヤ"
  },
  "8610": {
    "zip_code": "1698610",
    "prefecture": "東京都",
    "prefecture_kana": "トウキョウト",
    "prefecture_code": 13,
    "city": "新宿区",
    "city_kana": "シンジュクク",
    "town": "西早稲田",
    "town_kana": "ニシワセダ",
    "street": "３丁目３０−１３",
    "office_name": "警視庁　戸塚警察署",
    "office_name_kana": "ケイシチヨウ トツカケイサツシヨ"
  },
  "8611": {
    "zip_code": "1698611",
    "prefecture": "東京都",
    "prefecture_kana": "トウキョウト",
    "prefecture_code": 13,
    "city": "新宿区",
    "city_kana": "シンジュクク",
    "town": "西早稲田",
    "town_kana": "ニシワセダ",
    "street": "２丁目３−１早稲田奉仕園内",
    "office_name": "シャプラニール　市民による海外協力の会",
    "office_name_kana": "シヤプラニ-ル シミンニヨルカイガイキヨウリヨクノカイ"
  },
  "8612": {
    "zip_code": "1698612",
    "prefecture": "東京都",
    "prefecture_kana": "トウキョウト",
    "prefecture_code": 13,
    "city": "新宿区",
    "city_kana": "シンジュクク",
    "town": "西早稲田",
    "town_kana": "ニシワセダ",
    "street": "３丁目１３−５",
    "office_name": "中央開発　株式会社",
    "office_name_kana": "チユウオウカイハツ カブシキガイシヤ"
  },
  "8613": {
    "zip_code": "1698613",
    "prefecture": "東京都",
    "prefecture_kana": "トウキョウト",
    "prefecture_code": 13,
    "city": "新宿区",
    "city_kana": "シンジュクク",
    "town": "戸塚町",
    "town_kana": "トツカマチ",
    "street": "１丁目１０４−１９",
    "office_name": "（株）　リーガロイヤルホテル早稲田",
    "office_name_kana": "カブシキガイシヤ リイガロイヤルホテルワセダ"
  },
  "8616": {
    "zip_code": "1698616",
    "prefecture": "東京都",
    "prefecture_kana": "トウキョウト",
    "prefecture_code": 13,
    "city": "新宿区",
    "city_kana": "シンジュクク",
    "town": "西早稲田",
    "town_kana": "ニシワセダ",
    "street": "２丁目３−１",
    "office_name": "（財）　早稲田奉仕園",
    "office_name_kana": "ザイダンホウジン ワセダホウシエン"
  },
  "8631": {
    "zip_code": "1698631",
    "prefecture": "東京都",
    "prefecture_kana": "トウキョウト",
    "prefecture_code": 13,
    "city": "新宿区",
    "city_kana": "シンジュクク",
    "town": "高田馬場",
    "town_kana": "タカダノババ",
    "street": "１丁目３１−１８",
    "office_name": "エコラボ　（株）",
    "office_name_kana": "エコラボ カブシキガイシヤ"
  },
  "8639": {
    "zip_code": "1698639",
    "prefecture": "東京都",
    "prefecture_kana": "トウキョウト",
    "prefecture_code": 13,
    "city": "新宿区",
    "city_kana": "シンジュクク",
    "town": "高田馬場",
    "town_kana": "タカダノババ",
    "street": "１丁目３２−１３",
    "office_name": "株式会社　サンマーク",
    "office_name_kana": "カブシキガイシヤ サンマ-ク"
  },
  "8644": {
    "zip_code": "1698644",
    "prefecture": "東京都",
    "prefecture_kana": "トウキョウト",
    "prefecture_code": 13,
    "city": "新宿区",
    "city_kana": "シンジュクク",
    "town": "高田馬場",
    "town_kana": "タカダノババ",
    "street": "４丁目３０−２１",
    "office_name": "三葉化工　株式会社",
    "office_name_kana": "サンヨウカコウ カブシキガイシヤ"
  },
  "8648": {
    "zip_code": "1698648",
    "prefecture": "東京都",
    "prefecture_kana": "トウキョウト",
    "prefecture_code": 13,
    "city": "新宿区",
    "city_kana": "シンジュクク",
    "town": "高田馬場",
    "town_kana": "タカダノババ",
    "street": "１丁目２９−１０",
    "office_name": "東亜ディーケーケー　株式会社",
    "office_name_kana": "トウアデイ-ケ-ケ- カブシキガイシヤ"
  },
  "8650": {
    "zip_code": "1698650",
    "prefecture": "東京都",
    "prefecture_kana": "トウキョウト",
    "prefecture_code": 13,
    "city": "新宿区",
    "city_kana": "シンジュクク",
    "town": "高田馬場",
    "town_kana": "タカダノババ",
    "street": "２丁目７−１５全建総連会館",
    "office_name": "全国建設労働組合総連合",
    "office_name_kana": "ゼンコクケンセツロウドウクミアイソウレンゴウ"
  },
  "8655": {
    "zip_code": "1698655",
    "prefecture": "東京都",
    "prefecture_kana": "トウキョウト",
    "prefecture_code": 13,
    "city": "新宿区",
    "city_kana": "シンジュクク",
    "town": "高田馬場",
    "town_kana": "タカダノババ",
    "street": "１丁目２−１２",
    "office_name": "株式会社　マツダアンフィニ東京",
    "office_name_kana": "カブシキガイシヤ マツダアンフイニトウキヨウ"
  },
  "8656": {
    "zip_code": "1698656",
    "prefecture": "東京都",
    "prefecture_kana": "トウキョウト",
    "prefecture_code": 13,
    "city": "新宿区",
    "city_kana": "シンジュクク",
    "town": "高田馬場",
    "town_kana": "タカダノババ",
    "street": "２丁目１３番１６号",
    "office_name": "中央建設国民健康保険組合",
    "office_name_kana": "チユウオウケンセツコクミンケンコウホケンクミアイ"
  },
  "8664": {
    "zip_code": "1698664",
    "prefecture": "東京都",
    "prefecture_kana": "トウキョウト",
    "prefecture_code": 13,
    "city": "新宿区",
    "city_kana": "シンジュクク",
    "town": "西早稲田",
    "town_kana": "ニシワセダ",
    "street": "２丁目１８−２",
    "office_name": "社会福祉法人　日本盲人会連合",
    "office_name_kana": "シヤカイフクシホウジン ニホンモウジンカイレンゴウ"
  },
  "8668": {
    "zip_code": "1698668",
    "prefecture": "東京都",
    "prefecture_kana": "トウキョウト",
    "prefecture_code": 13,
    "city": "新宿区",
    "city_kana": "シンジュクク",
    "town": "高田馬場",
    "town_kana": "タカダノババ",
    "street": "２丁目８−４ＡＵビル３Ｆ",
    "office_name": "花田歯科医院",
    "office_name_kana": "ハナダシカイイン"
  },
  "8677": {
    "zip_code": "1698677",
    "prefecture": "東京都",
    "prefecture_kana": "トウキョウト",
    "prefecture_code": 13,
    "city": "新宿区",
    "city_kana": "シンジュクク",
    "town": "高田馬場",
    "town_kana": "タカダノババ",
    "street": "１丁目３５−３",
    "office_name": "ビッグボックス西武スポーツプラザ",
    "office_name_kana": "ビツグボツクスセイブスポ-ツプラザ"
  },
  "8701": {
    "zip_code": "1698701",
    "prefecture": "東京都",
    "prefecture_kana": "トウキョウト",
    "prefecture_code": 13,
    "city": "新宿区",
    "city_kana": "シンジュクク",
    "town": "西新宿",
    "town_kana": "ニシシンジュク",
    "street": "１丁目９−１（新宿北郵便局私書箱第２０１２号）",
    "office_name": "安田生命保険　相互会社",
    "office_name_kana": "ヤスダセイメイホケン ソウゴガイシヤ"
  },
  "8711": {
    "zip_code": "1698711",
    "prefecture": "東京都",
    "prefecture_kana": "トウキョウト",
    "prefecture_code": 13,
    "city": "新宿区",
    "city_kana": "シンジュクク",
    "town": "高田馬場",
    "town_kana": "タカダノババ",
    "street": "１丁目２９−８（新宿北郵便局私書箱第２００３号）",
    "office_name": "株式会社　日本文化センター",
    "office_name_kana": "カブシキガイシヤ ニホンブンカセンタ-"
  },
  "8722": {
    "zip_code": "1698722",
    "prefecture": "東京都",
    "prefecture_kana": "トウキョウト",
    "prefecture_code": 13,
    "city": "新宿区",
    "city_kana": "シンジュクク",
    "town": "高田馬場",
    "town_kana": "タカダノババ",
    "street": "１丁目２９−８（新宿北郵便局私書箱第２０７７号）",
    "office_name": "株式会社　プランネル",
    "office_name_kana": "カブシキガイシヤ プランネル"
  },
  "8885": {
    "zip_code": "1698885",
    "prefecture": "東京都",
    "prefecture_kana": "トウキョウト",
    "prefecture_code": 13,
    "city": "新宿区",
    "city_kana": "シンジュクク",
    "town": "北新宿",
    "town_kana": "キタシンジュク",
    "street": "２丁目２１番１号新宿フロントタワー",
    "office_name": "アキレス　株式会社",
    "office_name_kana": "アキレス カブシキガイシヤ"
  },
  "8915": {
    "zip_code": "1698915",
    "prefecture": "東京都",
    "prefecture_kana": "トウキョウト",
    "prefecture_code": 13,
    "city": "新宿区",
    "city_kana": "シンジュクク",
    "town": "高田馬場",
    "town_kana": "タカダノババ",
    "street": "４丁目３０−２０",
    "office_name": "日本文化出版　（株）",
    "office_name_kana": "ニホンブンカシユツパン カブシキガイシヤ"
  }
}