{
  "0000": {
    "zip_code": "1700000",
    "prefecture": "東京都",
    "prefecture_kana": "トウキョウト",
    "prefecture_code": "13",
    "city": "豊島区",
    "city_kana": "トシマク",
    "town": "",
    "town_kana": "",
    "street": null,
    "office_name": null,
    "office_name_kana": null
  },
  "0001": {
    "zip_code": "1700001",
    "prefecture": "東京都",
    "prefecture_kana": "トウキョウト",
    "prefecture_code": "13",
    "city": "豊島区",
    "city_kana": "トシマク",
    "town": "西巣鴨",
    "town_kana": "ニシスガモ",
    "street": null,
    "office_name": null,
    "office_name_kana": null
  },
  "0002": {
    "zip_code": "1700002",
    "prefecture": "東京都",
    "prefecture_kana": "トウキョウト",
    "prefecture_code": "13",
    "city": "豊島区",
    "city_kana": "トシマク",
    "town": "巣鴨",
    "town_kana": "スガモ",
    "street": null,
    "office_name": null,
    "office_name_kana": null
  },
  "0003": {
    "zip_code": "1700003",
    "prefecture": "東京都",
    "prefecture_kana": "トウキョウト",
    "prefecture_code": "13",
    "city": "豊島区",
    "city_kana": "トシマク",
    "town": "駒込",
    "town_kana": "コマゴメ",
    "street": null,
    "office_name": null,
    "office_name_kana": null
  },
  "0004": {
    "zip_code": "1700004",
    "prefecture": "東京都",
    "prefecture_kana": "トウキョウト",
    "prefecture_code": "13",
    "city": "豊島区",
    "city_kana": "トシマク",
    "town": "北大塚",
    "town_kana": "キタオオツカ",
    "street": null,
    "office_name": null,
    "office_name_kana": null
  },
  "0005": {
    "zip_code": "1700005",
    "prefecture": "東京都",
    "prefecture_kana": "トウキョウト",
    "prefecture_code": "13",
    "city": "豊島区",
    "city_kana": "トシマク",
    "town": "南大塚",
    "town_kana": "ミナミオオツカ",
    "street": null,
    "office_name": null,
    "office_name_kana": null
  },
  "0011": {
    "zip_code": "1700011",
    "prefecture": "東京都",
    "prefecture_kana": "トウキョウト",
    "prefecture_code": "13",
    "city": "豊島区",
    "city_kana": "トシマク",
    "town": "池袋本町",
    "town_kana": "イケブクロホンチョウ",
    "street": null,
    "office_name": null,
    "office_name_kana": null
  },
  "0012": {
    "zip_code": "1700012",
    "prefecture": "東京都",
    "prefecture_kana": "トウキョウト",
    "prefecture_code": "13",
    "city": "豊島区",
    "city_kana": "トシマク",
    "town": "上池袋",
    "town_kana": "カミイケブクロ",
    "street": null,
    "office_name": null,
    "office_name_kana": null
  },
  "0013": {
    "zip_code": "1700013",
    "prefecture": "東京都",
    "prefecture_kana": "トウキョウト",
    "prefecture_code": "13",
    "city": "豊島区",
    "city_kana": "トシマク",
    "town": "東池袋",
    "town_kana": "ヒガシイケブクロ",
    "street": null,
    "office_name": null,
    "office_name_kana": null
  },
  "0014": {
    "zip_code": "1700014",
    "prefecture": "東京都",
    "prefecture_kana": "トウキョウト",
    "prefecture_code": "13",
    "city": "豊島区",
    "city_kana": "トシマク",
    "town": "池袋",
    "town_kana": "イケブクロ",
    "street": null,
    "office_name": null,
    "office_name_kana": null
  },
  "6001": {
    "zip_code": "1706001",
    "prefecture": "東京都",
    "prefecture_kana": "トウキョウト",
    "prefecture_code": "13",
    "city": "豊島区",
    "city_kana": "トシマク",
    "town": "東池袋サンシャイン６０　１階",
    "town_kana": "ヒガシイケブクロサンシャイン601カイ",
    "street": null,
    "office_name": null,
    "office_name_kana": null
  },
  "6002": {
    "zip_code": "1706002",
    "prefecture": "東京都",
    "prefecture_kana": "トウキョウト",
    "prefecture_code": "13",
    "city": "豊島区",
    "city_kana": "トシマク",
    "town": "東池袋サンシャイン６０　２階",
    "town_kana": "ヒガシイケブクロサンシャイン602カイ",
    "street": null,
    "office_name": null,
    "office_name_kana": null
  },
  "6003": {
    "zip_code": "1706003",
    "prefecture": "東京都",
    "prefecture_kana": "トウキョウト",
    "prefecture_code": "13",
    "city": "豊島区",
    "city_kana": "トシマク",
    "town": "東池袋サンシャイン６０　３階",
    "town_kana": "ヒガシイケブクロサンシャイン603カイ",
    "street": null,
    "office_name": null,
    "office_name_kana": null
  },
  "6004": {
    "zip_code": "1706004",
    "prefecture": "東京都",
    "prefecture_kana": "トウキョウト",
    "prefecture_code": "13",
    "city": "豊島区",
    "city_kana": "トシマク",
    "town": "東池袋サンシャイン６０　４階",
    "town_kana": "ヒガシイケブクロサンシャイン604カイ",
    "street": null,
    "office_name": null,
    "office_name_kana": null
  },
  "6005": {
    "zip_code": "1706005",
    "prefecture": "東京都",
    "prefecture_kana": "トウキョウト",
    "prefecture_code": "13",
    "city": "豊島区",
    "city_kana": "トシマク",
    "town": "東池袋サンシャイン６０　５階",
    "town_kana": "ヒガシイケブクロサンシャイン605カイ",
    "street": null,
    "office_name": null,
    "office_name_kana": null
  },
  "6006": {
    "zip_code": "1706006",
    "prefecture": "東京都",
    "prefecture_kana": "トウキョウト",
    "prefecture_code": "13",
    "city": "豊島区",
    "city_kana": "トシマク",
    "town": "東池袋サンシャイン６０　６階",
    "town_kana": "ヒガシイケブクロサンシャイン606カイ",
    "street": null,
    "office_name": null,
    "office_name_kana": null
  },
  "6007": {
    "zip_code": "1706007",
    "prefecture": "東京都",
    "prefecture_kana": "トウキョウト",
    "prefecture_code": "13",
    "city": "豊島区",
    "city_kana": "トシマク",
    "town": "東池袋サンシャイン６０　７階",
    "town_kana": "ヒガシイケブクロサンシャイン607カイ",
    "street": null,
    "office_name": null,
    "office_name_kana": null
  },
  "6008": {
    "zip_code": "1706008",
    "prefecture": "東京都",
    "prefecture_kana": "トウキョウト",
    "prefecture_code": "13",
    "city": "豊島区",
    "city_kana": "トシマク",
    "town": "東池袋サンシャイン６０　８階",
    "town_kana": "ヒガシイケブクロサンシャイン608カイ",
    "street": null,
    "office_name": null,
    "office_name_kana": null
  },
  "6009": {
    "zip_code": "1706009",
    "prefecture": "東京都",
    "prefecture_kana": "トウキョウト",
    "prefecture_code": "13",
    "city": "豊島区",
    "city_kana": "トシマク",
    "town": "東池袋サンシャイン６０　９階",
    "town_kana": "ヒガシイケブクロサンシャイン609カイ",
    "street": null,
    "office_name": null,
    "office_name_kana": null
  },
  "6010": {
    "zip_code": "1706010",
    "prefecture": "東京都",
    "prefecture_kana": "トウキョウト",
    "prefecture_code": "13",
    "city": "豊島区",
    "city_kana": "トシマク",
    "town": "東池袋サンシャイン６０　１０階",
    "town_kana": "ヒガシイケブクロサンシャイン6010カイ",
    "street": null,
    "office_name": null,
    "office_name_kana": null
  },
  "6011": {
    "zip_code": "1706011",
    "prefecture": "東京都",
    "prefecture_kana": "トウキョウト",
    "prefecture_code": "13",
    "city": "豊島区",
    "city_kana": "トシマク",
    "town": "東池袋サンシャイン６０　１１階",
    "town_kana": "ヒガシイケブクロサンシャイン6011カイ",
    "street": null,
    "office_name": null,
    "office_name_kana": null
  },
  "6012": {
    "zip_code": "1706012",
    "prefecture": "東京都",
    "prefecture_kana": "トウキョウト",
    "prefecture_code": "13",
    "city": "豊島区",
    "city_kana": "トシマク",
    "town": "東池袋サンシャイン６０　１２階",
    "town_kana": "ヒガシイケブクロサンシャイン6012カイ",
    "street": null,
    "office_name": null,
    "office_name_kana": null
  },
  "6013": {
    "zip_code": "1706013",
    "prefecture": "東京都",
    "prefecture_kana": "トウキョウト",
    "prefecture_code": "13",
    "city": "豊島区",
    "city_kana": "トシマク",
    "town": "東池袋サンシャイン６０　１３階",
    "town_kana": "ヒガシイケブクロサンシャイン6013カイ",
    "street": null,
    "office_name": null,
    "office_name_kana": null
  },
  "6014": {
    "zip_code": "1706014",
    "prefecture": "東京都",
    "prefecture_kana": "トウキョウト",
    "prefecture_code": "13",
    "city": "豊島区",
    "city_kana": "トシマク",
    "town": "東池袋サンシャイン６０　１４階",
    "town_kana": "ヒガシイケブクロサンシャイン6014カイ",
    "street": null,
    "office_name": null,
    "office_name_kana": null
  },
  "6015": {
    "zip_code": "1706015",
    "prefecture": "東京都",
    "prefecture_kana": "トウキョウト",
    "prefecture_code": "13",
    "city": "豊島区",
    "city_kana": "トシマク",
    "town": "東池袋サンシャイン６０　１５階",
    "town_kana": "ヒガシイケブクロサンシャイン6015カイ",
    "street": null,
    "office_name": null,
    "office_name_kana": null
  },
  "6016": {
    "zip_code": "1706016",
    "prefecture": "東京都",
    "prefecture_kana": "トウキョウト",
    "prefecture_code": "13",
    "city": "豊島区",
    "city_kana": "トシマク",
    "town": "東池袋サンシャイン６０　１６階",
    "town_kana": "ヒガシイケブクロサンシャイン6016カイ",
    "street": null,
    "office_name": null,
    "office_name_kana": null
  },
  "6017": {
    "zip_code": "1706017",
    "prefecture": "東京都",
    "prefecture_kana": "トウキョウト",
    "prefecture_code": "13",
    "city": "豊島区",
    "city_kana": "トシマク",
    "town": "東池袋サンシャイン６０　１７階",
    "town_kana": "ヒガシイケブクロサンシャイン6017カイ",
    "street": null,
    "office_name": null,
    "office_name_kana": null
  },
  "6018": {
    "zip_code": "1706018",
    "prefecture": "東京都",
    "prefecture_kana": "トウキョウト",
    "prefecture_code": "13",
    "city": "豊島区",
    "city_kana": "トシマク",
    "town": "東池袋サンシャイン６０　１８階",
    "town_kana": "ヒガシイケブクロサンシャイン6018カイ",
    "street": null,
    "office_name": null,
    "office_name_kana": null
  },
  "6019": {
    "zip_code": "1706019",
    "prefecture": "東京都",
    "prefecture_kana": "トウキョウト",
    "prefecture_code": "13",
    "city": "豊島区",
    "city_kana": "トシマク",
    "town": "東池袋サンシャイン６０　１９階",
    "town_kana": "ヒガシイケブクロサンシャイン6019カイ",
    "street": null,
    "office_name": null,
    "office_name_kana": null
  },
  "6020": {
    "zip_code": "1706020",
    "prefecture": "東京都",
    "prefecture_kana": "トウキョウト",
    "prefecture_code": "13",
    "city": "豊島区",
    "city_kana": "トシマク",
    "town": "東池袋サンシャイン６０　２０階",
    "town_kana": "ヒガシイケブクロサンシャイン6020カイ",
    "street": null,
    "office_name": null,
    "office_name_kana": null
  },
  "6021": {
    "zip_code": "1706021",
    "prefecture": "東京都",
    "prefecture_kana": "トウキョウト",
    "prefecture_code": "13",
    "city": "豊島区",
    "city_kana": "トシマク",
    "town": "東池袋サンシャイン６０　２１階",
    "town_kana": "ヒガシイケブクロサンシャイン6021カイ",
    "street": null,
    "office_name": null,
    "office_name_kana": null
  },
  "6022": {
    "zip_code": "1706022",
    "prefecture": "東京都",
    "prefecture_kana": "トウキョウト",
    "prefecture_code": "13",
    "city": "豊島区",
    "city_kana": "トシマク",
    "town": "東池袋サンシャイン６０　２２階",
    "town_kana": "ヒガシイケブクロサンシャイン6022カイ",
    "street": null,
    "office_name": null,
    "office_name_kana": null
  },
  "6023": {
    "zip_code": "1706023",
    "prefecture": "東京都",
    "prefecture_kana": "トウキョウト",
    "prefecture_code": "13",
    "city": "豊島区",
    "city_kana": "トシマク",
    "town": "東池袋サンシャイン６０　２３階",
    "town_kana": "ヒガシイケブクロサンシャイン6023カイ",
    "street": null,
    "office_name": null,
    "office_name_kana": null
  },
  "6024": {
    "zip_code": "1706024",
    "prefecture": "東京都",
    "prefecture_kana": "トウキョウト",
    "prefecture_code": "13",
    "city": "豊島区",
    "city_kana": "トシマク",
    "town": "東池袋サンシャイン６０　２４階",
    "town_kana": "ヒガシイケブクロサンシャイン6024カイ",
    "street": null,
    "office_name": null,
    "office_name_kana": null
  },
  "6025": {
    "zip_code": "1706025",
    "prefecture": "東京都",
    "prefecture_kana": "トウキョウト",
    "prefecture_code": "13",
    "city": "豊島区",
    "city_kana": "トシマク",
    "town": "東池袋サンシャイン６０　２５階",
    "town_kana": "ヒガシイケブクロサンシャイン6025カイ",
    "street": null,
    "office_name": null,
    "office_name_kana": null
  },
  "6026": {
    "zip_code": "1706026",
    "prefecture": "東京都",
    "prefecture_kana": "トウキョウト",
    "prefecture_code": "13",
    "city": "豊島区",
    "city_kana": "トシマク",
    "town": "東池袋サンシャイン６０　２６階",
    "town_kana": "ヒガシイケブクロサンシャイン6026カイ",
    "street": null,
    "office_name": null,
    "office_name_kana": null
  },
  "6027": {
    "zip_code": "1706027",
    "prefecture": "東京都",
    "prefecture_kana": "トウキョウト",
    "prefecture_code": "13",
    "city": "豊島区",
    "city_kana": "トシマク",
    "town": "東池袋サンシャイン６０　２７階",
    "town_kana": "ヒガシイケブクロサンシャイン6027カイ",
    "street": null,
    "office_name": null,
    "office_name_kana": null
  },
  "6028": {
    "zip_code": "1706028",
    "prefecture": "東京都",
    "prefecture_kana": "トウキョウト",
    "prefecture_code": "13",
    "city": "豊島区",
    "city_kana": "トシマク",
    "town": "東池袋サンシャイン６０　２８階",
    "town_kana": "ヒガシイケブクロサンシャイン6028カイ",
    "street": null,
    "office_name": null,
    "office_name_kana": null
  },
  "6029": {
    "zip_code": "1706029",
    "prefecture": "東京都",
    "prefecture_kana": "トウキョウト",
    "prefecture_code": "13",
    "city": "豊島区",
    "city_kana": "トシマク",
    "town": "東池袋サンシャイン６０　２９階",
    "town_kana": "ヒガシイケブクロサンシャイン6029カイ",
    "street": null,
    "office_name": null,
    "office_name_kana": null
  },
  "6030": {
    "zip_code": "1706030",
    "prefecture": "東京都",
    "prefecture_kana": "トウキョウト",
    "prefecture_code": "13",
    "city": "豊島区",
    "city_kana": "トシマク",
    "town": "東池袋サンシャイン６０　３０階",
    "town_kana": "ヒガシイケブクロサンシャイン6030カイ",
    "street": null,
    "office_name": null,
    "office_name_kana": null
  },
  "6031": {
    "zip_code": "1706031",
    "prefecture": "東京都",
    "prefecture_kana": "トウキョウト",
    "prefecture_code": "13",
    "city": "豊島区",
    "city_kana": "トシマク",
    "town": "東池袋サンシャイン６０　３１階",
    "town_kana": "ヒガシイケブクロサンシャイン6031カイ",
    "street": null,
    "office_name": null,
    "office_name_kana": null
  },
  "6032": {
    "zip_code": "1706032",
    "prefecture": "東京都",
    "prefecture_kana": "トウキョウト",
    "prefecture_code": "13",
    "city": "豊島区",
    "city_kana": "トシマク",
    "town": "東池袋サンシャイン６０　３２階",
    "town_kana": "ヒガシイケブクロサンシャイン6032カイ",
    "street": null,
    "office_name": null,
    "office_name_kana": null
  },
  "6033": {
    "zip_code": "1706033",
    "prefecture": "東京都",
    "prefecture_kana": "トウキョウト",
    "prefecture_code": "13",
    "city": "豊島区",
    "city_kana": "トシマク",
    "town": "東池袋サンシャイン６０　３３階",
    "town_kana": "ヒガシイケブクロサンシャイン6033カイ",
    "street": null,
    "office_name": null,
    "office_name_kana": null
  },
  "6034": {
    "zip_code": "1706034",
    "prefecture": "東京都",
    "prefecture_kana": "トウキョウト",
    "prefecture_code": "13",
    "city": "豊島区",
    "city_kana": "トシマク",
    "town": "東池袋サンシャイン６０　３４階",
    "town_kana": "ヒガシイケブクロサンシャイン6034カイ",
    "street": null,
    "office_name": null,
    "office_name_kana": null
  },
  "6035": {
    "zip_code": "1706035",
    "prefecture": "東京都",
    "prefecture_kana": "トウキョウト",
    "prefecture_code": "13",
    "city": "豊島区",
    "city_kana": "トシマク",
    "town": "東池袋サンシャイン６０　３５階",
    "town_kana": "ヒガシイケブクロサンシャイン6035カイ",
    "street": null,
    "office_name": null,
    "office_name_kana": null
  },
  "6036": {
    "zip_code": "1706036",
    "prefecture": "東京都",
    "prefecture_kana": "トウキョウト",
    "prefecture_code": "13",
    "city": "豊島区",
    "city_kana": "トシマク",
    "town": "東池袋サンシャイン６０　３６階",
    "town_kana": "ヒガシイケブクロサンシャイン6036カイ",
    "street": null,
    "office_name": null,
    "office_name_kana": null
  },
  "6037": {
    "zip_code": "1706037",
    "prefecture": "東京都",
    "prefecture_kana": "トウキョウト",
    "prefecture_code": "13",
    "city": "豊島区",
    "city_kana": "トシマク",
    "town": "東池袋サンシャイン６０　３７階",
    "town_kana": "ヒガシイケブクロサンシャイン6037カイ",
    "street": null,
    "office_name": null,
    "office_name_kana": null
  },
  "6038": {
    "zip_code": "1706038",
    "prefecture": "東京都",
    "prefecture_kana": "トウキョウト",
    "prefecture_code": "13",
    "city": "豊島区",
    "city_kana": "トシマク",
    "town": "東池袋サンシャイン６０　３８階",
    "town_kana": "ヒガシイケブクロサンシャイン6038カイ",
    "street": null,
    "office_name": null,
    "office_name_kana": null
  },
  "6039": {
    "zip_code": "1706039",
    "prefecture": "東京都",
    "prefecture_kana": "トウキョウト",
    "prefecture_code": "13",
    "city": "豊島区",
    "city_kana": "トシマク",
    "town": "東池袋サンシャイン６０　３９階",
    "town_kana": "ヒガシイケブクロサンシャイン6039カイ",
    "street": null,
    "office_name": null,
    "office_name_kana": null
  },
  "6040": {
    "zip_code": "1706040",
    "prefecture": "東京都",
    "prefecture_kana": "トウキョウト",
    "prefecture_code": "13",
    "city": "豊島区",
    "city_kana": "トシマク",
    "town": "東池袋サンシャイン６０　４０階",
    "town_kana": "ヒガシイケブクロサンシャイン6040カイ",
    "street": null,
    "office_name": null,
    "office_name_kana": null
  },
  "6041": {
    "zip_code": "1706041",
    "prefecture": "東京都",
    "prefecture_kana": "トウキョウト",
    "prefecture_code": "13",
    "city": "豊島区",
    "city_kana": "トシマク",
    "town": "東池袋サンシャイン６０　４１階",
    "town_kana": "ヒガシイケブクロサンシャイン6041カイ",
    "street": null,
    "office_name": null,
    "office_name_kana": null
  },
  "6042": {
    "zip_code": "1706042",
    "prefecture": "東京都",
    "prefecture_kana": "トウキョウト",
    "prefecture_code": "13",
    "city": "豊島区",
    "city_kana": "トシマク",
    "town": "東池袋サンシャイン６０　４２階",
    "town_kana": "ヒガシイケブクロサンシャイン6042カイ",
    "street": null,
    "office_name": null,
    "office_name_kana": null
  },
  "6043": {
    "zip_code": "1706043",
    "prefecture": "東京都",
    "prefecture_kana": "トウキョウト",
    "prefecture_code": "13",
    "city": "豊島区",
    "city_kana": "トシマク",
    "town": "東池袋サンシャイン６０　４３階",
    "town_kana": "ヒガシイケブクロサンシャイン6043カイ",
    "street": null,
    "office_name": null,
    "office_name_kana": null
  },
  "6044": {
    "zip_code": "1706044",
    "prefecture": "東京都",
    "prefecture_kana": "トウキョウト",
    "prefecture_code": "13",
    "city": "豊島区",
    "city_kana": "トシマク",
    "town": "東池袋サンシャイン６０　４４階",
    "town_kana": "ヒガシイケブクロサンシャイン6044カイ",
    "street": null,
    "office_name": null,
    "office_name_kana": null
  },
  "6045": {
    "zip_code": "1706045",
    "prefecture": "東京都",
    "prefecture_kana": "トウキョウト",
    "prefecture_code": "13",
    "city": "豊島区",
    "city_kana": "トシマク",
    "town": "東池袋サンシャイン６０　４５階",
    "town_kana": "ヒガシイケブクロサンシャイン6045カイ",
    "street": null,
    "office_name": null,
    "office_name_kana": null
  },
  "6046": {
    "zip_code": "1706046",
    "prefecture": "東京都",
    "prefecture_kana": "トウキョウト",
    "prefecture_code": "13",
    "city": "豊島区",
    "city_kana": "トシマク",
    "town": "東池袋サンシャイン６０　４６階",
    "town_kana": "ヒガシイケブクロサンシャイン6046カイ",
    "street": null,
    "office_name": null,
    "office_name_kana": null
  },
  "6047": {
    "zip_code": "1706047",
    "prefecture": "東京都",
    "prefecture_kana": "トウキョウト",
    "prefecture_code": "13",
    "city": "豊島区",
    "city_kana": "トシマク",
    "town": "東池袋サンシャイン６０　４７階",
    "town_kana": "ヒガシイケブクロサンシャイン6047カイ",
    "street": null,
    "office_name": null,
    "office_name_kana": null
  },
  "6048": {
    "zip_code": "1706048",
    "prefecture": "東京都",
    "prefecture_kana": "トウキョウト",
    "prefecture_code": "13",
    "city": "豊島区",
    "city_kana": "トシマク",
    "town": "東池袋サンシャイン６０　４８階",
    "town_kana": "ヒガシイケブクロサンシャイン6048カイ",
    "street": null,
    "office_name": null,
    "office_name_kana": null
  },
  "6049": {
    "zip_code": "1706049",
    "prefecture": "東京都",
    "prefecture_kana": "トウキョウト",
    "prefecture_code": "13",
    "city": "豊島区",
    "city_kana": "トシマク",
    "town": "東池袋サンシャイン６０　４９階",
    "town_kana": "ヒガシイケブクロサンシャイン6049カイ",
    "street": null,
    "office_name": null,
    "office_name_kana": null
  },
  "6050": {
    "zip_code": "1706050",
    "prefecture": "東京都",
    "prefecture_kana": "トウキョウト",
    "prefecture_code": "13",
    "city": "豊島区",
    "city_kana": "トシマク",
    "town": "東池袋サンシャイン６０　５０階",
    "town_kana": "ヒガシイケブクロサンシャイン6050カイ",
    "street": null,
    "office_name": null,
    "office_name_kana": null
  },
  "6051": {
    "zip_code": "1706051",
    "prefecture": "東京都",
    "prefecture_kana": "トウキョウト",
    "prefecture_code": "13",
    "city": "豊島区",
    "city_kana": "トシマク",
    "town": "東池袋サンシャイン６０　５１階",
    "town_kana": "ヒガシイケブクロサンシャイン6051カイ",
    "street": null,
    "office_name": null,
    "office_name_kana": null
  },
  "6052": {
    "zip_code": "1706052",
    "prefecture": "東京都",
    "prefecture_kana": "トウキョウト",
    "prefecture_code": "13",
    "city": "豊島区",
    "city_kana": "トシマク",
    "town": "東池袋サンシャイン６０　５２階",
    "town_kana": "ヒガシイケブクロサンシャイン6052カイ",
    "street": null,
    "office_name": null,
    "office_name_kana": null
  },
  "6053": {
    "zip_code": "1706053",
    "prefecture": "東京都",
    "prefecture_kana": "トウキョウト",
    "prefecture_code": "13",
    "city": "豊島区",
    "city_kana": "トシマク",
    "town": "東池袋サンシャイン６０　５３階",
    "town_kana": "ヒガシイケブクロサンシャイン6053カイ",
    "street": null,
    "office_name": null,
    "office_name_kana": null
  },
  "6054": {
    "zip_code": "1706054",
    "prefecture": "東京都",
    "prefecture_kana": "トウキョウト",
    "prefecture_code": "13",
    "city": "豊島区",
    "city_kana": "トシマク",
    "town": "東池袋サンシャイン６０　５４階",
    "town_kana": "ヒガシイケブクロサンシャイン6054カイ",
    "street": null,
    "office_name": null,
    "office_name_kana": null
  },
  "6055": {
    "zip_code": "1706055",
    "prefecture": "東京都",
    "prefecture_kana": "トウキョウト",
    "prefecture_code": "13",
    "city": "豊島区",
    "city_kana": "トシマク",
    "town": "東池袋サンシャイン６０　５５階",
    "town_kana": "ヒガシイケブクロサンシャイン6055カイ",
    "street": null,
    "office_name": null,
    "office_name_kana": null
  },
  "6056": {
    "zip_code": "1706056",
    "prefecture": "東京都",
    "prefecture_kana": "トウキョウト",
    "prefecture_code": "13",
    "city": "豊島区",
    "city_kana": "トシマク",
    "town": "東池袋サンシャイン６０　５６階",
    "town_kana": "ヒガシイケブクロサンシャイン6056カイ",
    "street": null,
    "office_name": null,
    "office_name_kana": null
  },
  "6057": {
    "zip_code": "1706057",
    "prefecture": "東京都",
    "prefecture_kana": "トウキョウト",
    "prefecture_code": "13",
    "city": "豊島区",
    "city_kana": "トシマク",
    "town": "東池袋サンシャイン６０　５７階",
    "town_kana": "ヒガシイケブクロサンシャイン6057カイ",
    "street": null,
    "office_name": null,
    "office_name_kana": null
  },
  "6058": {
    "zip_code": "1706058",
    "prefecture": "東京都",
    "prefecture_kana": "トウキョウト",
    "prefecture_code": "13",
    "city": "豊島区",
    "city_kana": "トシマク",
    "town": "東池袋サンシャイン６０　５８階",
    "town_kana": "ヒガシイケブクロサンシャイン6058カイ",
    "street": null,
    "office_name": null,
    "office_name_kana": null
  },
  "6059": {
    "zip_code": "1706059",
    "prefecture": "東京都",
    "prefecture_kana": "トウキョウト",
    "prefecture_code": "13",
    "city": "豊島区",
    "city_kana": "トシマク",
    "town": "東池袋サンシャイン６０　５９階",
    "town_kana": "ヒガシイケブクロサンシャイン6059カイ",
    "street": null,
    "office_name": null,
    "office_name_kana": null
  },
  "6060": {
    "zip_code": "1706060",
    "prefecture": "東京都",
    "prefecture_kana": "トウキョウト",
    "prefecture_code": "13",
    "city": "豊島区",
    "city_kana": "トシマク",
    "town": "東池袋サンシャイン６０　６０階",
    "town_kana": "ヒガシイケブクロサンシャイン6060カイ",
    "street": null,
    "office_name": null,
    "office_name_kana": null
  },
  "6080": {
    "zip_code": "1706080",
    "prefecture": "東京都",
    "prefecture_kana": "トウキョウト",
    "prefecture_code": "13",
    "city": "豊島区",
    "city_kana": "トシマク",
    "town": "東池袋",
    "town_kana": "ヒガシイケブクロ",
    "street": "３丁目１−１",
    "office_name": "アグリネット",
    "office_name_kana": "アグリネツト"
  },
  "6090": {
    "zip_code": "1706090",
    "prefecture": "東京都",
    "prefecture_kana": "トウキョウト",
    "prefecture_code": "13",
    "city": "豊島区",
    "city_kana": "トシマク",
    "town": "東池袋サンシャイン６０",
    "town_kana": "ヒガシイケブクロサンシャイン60",
    "street": null,
    "office_name": null,
    "office_name_kana": null
  },
  "8055": {
    "zip_code": "1708055",
    "prefecture": "東京都",
    "prefecture_kana": "トウキョウト",
    "prefecture_code": "13",
    "city": "豊島区",
    "city_kana": "トシマク",
    "town": "東池袋",
    "town_kana": "ヒガシイケブクロ",
    "street": "１丁目２４番１号",
    "office_name": "独立行政法人　勤労者退職金共済機構",
    "office_name_kana": "ドクリツギヨウセイホウジン キンロウシヤタイシヨクキンキヨウサイキコウ"
  },
  "8073": {
    "zip_code": "1708073",
    "prefecture": "東京都",
    "prefecture_kana": "トウキョウト",
    "prefecture_code": "13",
    "city": "豊島区",
    "city_kana": "トシマク",
    "town": "南大塚",
    "town_kana": "ミナミオオツカ",
    "street": "３−４３−１",
    "office_name": "一般社団法人　日本アマチュア無線連盟",
    "office_name_kana": "イツパンシヤダンホウジン ニホンアマチユアムセンレンメイ"
  },
  "8401": {
    "zip_code": "1708401",
    "prefecture": "東京都",
    "prefecture_kana": "トウキョウト",
    "prefecture_code": "13",
    "city": "豊島区",
    "city_kana": "トシマク",
    "town": "東池袋",
    "town_kana": "ヒガシイケブクロ",
    "street": "５丁目５１−１２",
    "office_name": "株式会社　マルエツ",
    "office_name_kana": "カブシキガイシヤ マルエツ"
  },
  "8402": {
    "zip_code": "1708402",
    "prefecture": "東京都",
    "prefecture_kana": "トウキョウト",
    "prefecture_code": "13",
    "city": "豊島区",
    "city_kana": "トシマク",
    "town": "東池袋",
    "town_kana": "ヒガシイケブクロ",
    "street": "２丁目５６−３",
    "office_name": "株式会社　クレディセゾン　東京営業所",
    "office_name_kana": "カブシキガイシヤ クレデイセゾン トウキヨウエイギヨウシヨ"
  },
  "8404": {
    "zip_code": "1708404",
    "prefecture": "東京都",
    "prefecture_kana": "トウキョウト",
    "prefecture_code": "13",
    "city": "豊島区",
    "city_kana": "トシマク",
    "town": "東池袋",
    "town_kana": "ヒガシイケブクロ",
    "street": "４丁目２６−１０",
    "office_name": "株式会社　ファミリーマート　本部",
    "office_name_kana": "カブシキガイシヤ フアミリ-マ-ト ホンブ"
  },
  "8405": {
    "zip_code": "1708405",
    "prefecture": "東京都",
    "prefecture_kana": "トウキョウト",
    "prefecture_code": "13",
    "city": "豊島区",
    "city_kana": "トシマク",
    "town": "東池袋",
    "town_kana": "ヒガシイケブクロ",
    "street": "３丁目３−５",
    "office_name": "トヨタ自動車　株式会社　池袋ビル",
    "office_name_kana": "トヨタジドウシヤ カブシキガイシヤ イケブクロビル"
  },
  "8406": {
    "zip_code": "1708406",
    "prefecture": "東京都",
    "prefecture_kana": "トウキョウト",
    "prefecture_code": "13",
    "city": "豊島区",
    "city_kana": "トシマク",
    "town": "東池袋",
    "town_kana": "ヒガシイケブクロ",
    "street": "１丁目８−６",
    "office_name": "カードショップ　羅針盤",
    "office_name_kana": "カ-ドシヨツプ ラシンバン"
  },
  "8409": {
    "zip_code": "1708409",
    "prefecture": "東京都",
    "prefecture_kana": "トウキョウト",
    "prefecture_code": "13",
    "city": "豊島区",
    "city_kana": "トシマク",
    "town": "東池袋",
    "town_kana": "ヒガシイケブクロ",
    "street": "３丁目５−１３",
    "office_name": "池袋公共職業安定所（ハローワーク池袋）",
    "office_name_kana": "イケブクロコウキヨウシヨクギヨウアンテイジヨ(ハロ-ワ-クイケブクロ)"
  },
  "8410": {
    "zip_code": "1708410",
    "prefecture": "東京都",
    "prefecture_kana": "トウキョウト",
    "prefecture_code": "13",
    "city": "豊島区",
    "city_kana": "トシマク",
    "town": "東池袋",
    "town_kana": "ヒガシイケブクロ",
    "street": "１丁目３４−２",
    "office_name": "大東京火災海上保険　株式会社",
    "office_name_kana": "ダイトウキヨウカサイカイジヨウホケン カブシキガイシヤ"
  },
  "8411": {
    "zip_code": "1708411",
    "prefecture": "東京都",
    "prefecture_kana": "トウキョウト",
    "prefecture_code": "13",
    "city": "豊島区",
    "city_kana": "トシマク",
    "town": "東池袋",
    "town_kana": "ヒガシイケブクロ",
    "street": "３丁目１６−３",
    "office_name": "ＮＴＴインターナショナル　（株）",
    "office_name_kana": "エヌテイテイインタ-ナシヨナル (カブ)"
  },
  "8415": {
    "zip_code": "1708415",
    "prefecture": "東京都",
    "prefecture_kana": "トウキョウト",
    "prefecture_code": "13",
    "city": "豊島区",
    "city_kana": "トシマク",
    "town": "東池袋",
    "town_kana": "ヒガシイケブクロ",
    "street": "１丁目３６−５",
    "office_name": "株式会社　ワンダーライフ",
    "office_name_kana": "カブシキガイシヤ ワンダ-ライフ"
  },
  "8416": {
    "zip_code": "1708416",
    "prefecture": "東京都",
    "prefecture_kana": "トウキョウト",
    "prefecture_code": "13",
    "city": "豊島区",
    "city_kana": "トシマク",
    "town": "東池袋",
    "town_kana": "ヒガシイケブクロ",
    "street": "３−２３−１４",
    "office_name": "デュプロ　株式会社",
    "office_name_kana": "デユプロ カブシキガイシヤ"
  },
  "8417": {
    "zip_code": "1708417",
    "prefecture": "東京都",
    "prefecture_kana": "トウキョウト",
    "prefecture_code": "13",
    "city": "豊島区",
    "city_kana": "トシマク",
    "town": "東池袋",
    "town_kana": "ヒガシイケブクロ",
    "street": "３丁目７−４",
    "office_name": "株式会社　倉本産業",
    "office_name_kana": "カブシキガイシヤ クラモトサンギヨウ"
  },
  "8419": {
    "zip_code": "1708419",
    "prefecture": "東京都",
    "prefecture_kana": "トウキョウト",
    "prefecture_code": "13",
    "city": "豊島区",
    "city_kana": "トシマク",
    "town": "東池袋",
    "town_kana": "ヒガシイケブクロ",
    "street": "１丁目４１−５",
    "office_name": "ビックカメラ　本店",
    "office_name_kana": "ビツクカメラ ホンテン"
  },
  "8420": {
    "zip_code": "1708420",
    "prefecture": "東京都",
    "prefecture_kana": "トウキョウト",
    "prefecture_code": "13",
    "city": "豊島区",
    "city_kana": "トシマク",
    "town": "東池袋",
    "town_kana": "ヒガシイケブクロ",
    "street": "４丁目７−１８",
    "office_name": "日本信販　株式会社　事務システム本部",
    "office_name_kana": "ニツポンシンパン カブシキガイシヤ ジムシステムホンブ"
  },
  "8421": {
    "zip_code": "1708421",
    "prefecture": "東京都",
    "prefecture_kana": "トウキョウト",
    "prefecture_code": "13",
    "city": "豊島区",
    "city_kana": "トシマク",
    "town": "東池袋",
    "town_kana": "ヒガシイケブクロ",
    "street": "２丁目３２−２２",
    "office_name": "ダイワ商事　株式会社",
    "office_name_kana": "ダイワシヨウジ カブシキガイシヤ"
  },
  "8422": {
    "zip_code": "1708422",
    "prefecture": "東京都",
    "prefecture_kana": "トウキョウト",
    "prefecture_code": "13",
    "city": "豊島区",
    "city_kana": "トシマク",
    "town": "東池袋",
    "town_kana": "ヒガシイケブクロ",
    "street": "１丁目１８−１",
    "office_name": "豊島区役所",
    "office_name_kana": "トシマクヤクシヨ"
  },
  "8423": {
    "zip_code": "1708423",
    "prefecture": "東京都",
    "prefecture_kana": "トウキョウト",
    "prefecture_code": "13",
    "city": "豊島区",
    "city_kana": "トシマク",
    "town": "東池袋",
    "town_kana": "ヒガシイケブクロ",
    "street": "２丁目６３−４",
    "office_name": "テンプスタッフ　株式会社",
    "office_name_kana": "テンプスタツフ カブシキガイシヤ"
  },
  "8424": {
    "zip_code": "1708424",
    "prefecture": "東京都",
    "prefecture_kana": "トウキョウト",
    "prefecture_code": "13",
    "city": "豊島区",
    "city_kana": "トシマク",
    "town": "東池袋",
    "town_kana": "ヒガシイケブクロ",
    "street": "４丁目２６−３",
    "office_name": "良品計画・東池袋",
    "office_name_kana": "リヨウヒンケイカク・ヒガシイケブクロ"
  },
  "8426": {
    "zip_code": "1708426",
    "prefecture": "東京都",
    "prefecture_kana": "トウキョウト",
    "prefecture_code": "13",
    "city": "豊島区",
    "city_kana": "トシマク",
    "town": "東池袋",
    "town_kana": "ヒガシイケブクロ",
    "street": "４丁目２３−１",
    "office_name": "学校法人　東京福祉大学",
    "office_name_kana": "ガツコウホウジン トウキヨウフクシダイガク"
  },
  "8427": {
    "zip_code": "1708427",
    "prefecture": "東京都",
    "prefecture_kana": "トウキョウト",
    "prefecture_code": "13",
    "city": "豊島区",
    "city_kana": "トシマク",
    "town": "東池袋",
    "town_kana": "ヒガシイケブクロ",
    "street": "２丁目４５−９",
    "office_name": "株式会社　芸文社",
    "office_name_kana": "カブシキガイシヤ ゲイブンシヤ"
  },
  "8430": {
    "zip_code": "1708430",
    "prefecture": "東京都",
    "prefecture_kana": "トウキョウト",
    "prefecture_code": "13",
    "city": "豊島区",
    "city_kana": "トシマク",
    "town": "東池袋",
    "town_kana": "ヒガシイケブクロ",
    "street": "３丁目１６−３",
    "office_name": "ドコモサービス　株式会社　東京モバイル第一料金センター",
    "office_name_kana": "ドコモサ-ビス カブシキガイシヤ トウキヨウモバイルダイイチリヨウキンセンタ-"
  },
  "8432": {
    "zip_code": "1708432",
    "prefecture": "東京都",
    "prefecture_kana": "トウキョウト",
    "prefecture_code": "13",
    "city": "豊島区",
    "city_kana": "トシマク",
    "town": "東池袋",
    "town_kana": "ヒガシイケブクロ",
    "street": "３丁目４−３",
    "office_name": "株式会社　三貴",
    "office_name_kana": "カブシキガイシヤ ミキ"
  },
  "8433": {
    "zip_code": "1708433",
    "prefecture": "東京都",
    "prefecture_kana": "トウキョウト",
    "prefecture_code": "13",
    "city": "豊島区",
    "city_kana": "トシマク",
    "town": "東池袋",
    "town_kana": "ヒガシイケブクロ",
    "street": "１丁目５番６号",
    "office_name": "株式会社　池袋ショッピングパーク",
    "office_name_kana": "カブシキガイシヤ イケブクロシヨツピングパ-ク"
  },
  "8434": {
    "zip_code": "1708434",
    "prefecture": "東京都",
    "prefecture_kana": "トウキョウト",
    "prefecture_code": "13",
    "city": "豊島区",
    "city_kana": "トシマク",
    "town": "東池袋",
    "town_kana": "ヒガシイケブクロ",
    "street": "４丁目２３−４",
    "office_name": "学校法人　サンシャイン学園",
    "office_name_kana": "ガツコウホウジン サンシヤインガクエン"
  },
  "8436": {
    "zip_code": "1708436",
    "prefecture": "東京都",
    "prefecture_kana": "トウキョウト",
    "prefecture_code": "13",
    "city": "豊島区",
    "city_kana": "トシマク",
    "town": "東池袋",
    "town_kana": "ヒガシイケブクロ",
    "street": "２丁目２３−２",
    "office_name": "サミー　株式会社",
    "office_name_kana": "サミ- カブシキガイシヤ"
  },
  "8438": {
    "zip_code": "1708438",
    "prefecture": "東京都",
    "prefecture_kana": "トウキョウト",
    "prefecture_code": "13",
    "city": "豊島区",
    "city_kana": "トシマク",
    "town": "東池袋",
    "town_kana": "ヒガシイケブクロ",
    "street": "１丁目３３−８",
    "office_name": "株式会社　ビーエフ",
    "office_name_kana": "カブシキガイシヤ ビ-エフ"
  },
  "8440": {
    "zip_code": "1708440",
    "prefecture": "東京都",
    "prefecture_kana": "トウキョウト",
    "prefecture_code": "13",
    "city": "豊島区",
    "city_kana": "トシマク",
    "town": "東池袋",
    "town_kana": "ヒガシイケブクロ",
    "street": "３丁目１−５",
    "office_name": "サンシャインシティプリンスホテル",
    "office_name_kana": "サンシヤインシテイプリンスホテル"
  },
  "8441": {
    "zip_code": "1708441",
    "prefecture": "東京都",
    "prefecture_kana": "トウキョウト",
    "prefecture_code": "13",
    "city": "豊島区",
    "city_kana": "トシマク",
    "town": "東池袋",
    "town_kana": "ヒガシイケブクロ",
    "street": "１丁目２１−１１オーク池袋ビル６Ｆ",
    "office_name": "木内建設　株式会社　東京支店",
    "office_name_kana": "キウチケンセツ カブシキガイシヤ トウキヨウシテン"
  },
  "8442": {
    "zip_code": "1708442",
    "prefecture": "東京都",
    "prefecture_kana": "トウキョウト",
    "prefecture_code": "13",
    "city": "豊島区",
    "city_kana": "トシマク",
    "town": "東池袋",
    "town_kana": "ヒガシイケブクロ",
    "street": "４丁目５−２",
    "office_name": "豊島区立中央図書館",
    "office_name_kana": "トシマクリツチユウオウトシヨカン"
  },
  "8444": {
    "zip_code": "1708444",
    "prefecture": "東京都",
    "prefecture_kana": "トウキョウト",
    "prefecture_code": "13",
    "city": "豊島区",
    "city_kana": "トシマク",
    "town": "東池袋",
    "town_kana": "ヒガシイケブクロ",
    "street": "３丁目２０−１５",
    "office_name": "学校法人　都築関東学園東京国際情報ビジネス専門学校",
    "office_name_kana": "ガツコウホウジン ツヅキカントウガクエントウキヨウコクサイジヨウホウビジネスセンモンガツコウ"
  },
  "8447": {
    "zip_code": "1708447",
    "prefecture": "東京都",
    "prefecture_kana": "トウキョウト",
    "prefecture_code": "13",
    "city": "豊島区",
    "city_kana": "トシマク",
    "town": "東池袋",
    "town_kana": "ヒガシイケブクロ",
    "street": "３丁目３−５",
    "office_name": "株式会社　アムラックス・トヨタ",
    "office_name_kana": "カブシキガイシヤ アムラツクス・トヨタ"
  },
  "8448": {
    "zip_code": "1708448",
    "prefecture": "東京都",
    "prefecture_kana": "トウキョウト",
    "prefecture_code": "13",
    "city": "豊島区",
    "city_kana": "トシマク",
    "town": "東池袋",
    "town_kana": "ヒガシイケブクロ",
    "street": "３丁目１５−１５",
    "office_name": "菱電商事　株式会社",
    "office_name_kana": "リヨウデンシヨウジ カブシキガイシヤ"
  },
  "8450": {
    "zip_code": "1708450",
    "prefecture": "東京都",
    "prefecture_kana": "トウキョウト",
    "prefecture_code": "13",
    "city": "豊島区",
    "city_kana": "トシマク",
    "town": "南大塚",
    "town_kana": "ミナミオオツカ",
    "street": "３丁目３−４",
    "office_name": "株式会社　アーバンウエスト",
    "office_name_kana": "カブシキガイシヤ ア-バンウエスト"
  },
  "8451": {
    "zip_code": "1708451",
    "prefecture": "東京都",
    "prefecture_kana": "トウキョウト",
    "prefecture_code": "13",
    "city": "豊島区",
    "city_kana": "トシマク",
    "town": "南大塚",
    "town_kana": "ミナミオオツカ",
    "street": "３−３３−１",
    "office_name": "山洋電気　株式会社",
    "office_name_kana": "サンヨウデンキ カブシキガイシヤ"
  },
  "8455": {
    "zip_code": "1708455",
    "prefecture": "東京都",
    "prefecture_kana": "トウキョウト",
    "prefecture_code": "13",
    "city": "豊島区",
    "city_kana": "トシマク",
    "town": "上池袋",
    "town_kana": "カミイケブクロ",
    "street": "１丁目３７−１",
    "office_name": "財団法人　癌研究会",
    "office_name_kana": "ザイダンホウジン ガンケンキユウカイ"
  },
  "8456": {
    "zip_code": "1708456",
    "prefecture": "東京都",
    "prefecture_kana": "トウキョウト",
    "prefecture_code": "13",
    "city": "豊島区",
    "city_kana": "トシマク",
    "town": "巣鴨",
    "town_kana": "スガモ",
    "street": "３丁目３９−４",
    "office_name": "東都化学工業　株式会社",
    "office_name_kana": "トウトカガクコウギヨウ カブシキガイシヤ"
  },
  "8457": {
    "zip_code": "1708457",
    "prefecture": "東京都",
    "prefecture_kana": "トウキョウト",
    "prefecture_code": "13",
    "city": "豊島区",
    "city_kana": "トシマク",
    "town": "南大塚",
    "town_kana": "ミナミオオツカ",
    "street": "２丁目２９番７号",
    "office_name": "株式会社　ベストセラーズ",
    "office_name_kana": "カブシキガイシヤ ベストセラ-ズ"
  },
  "8458": {
    "zip_code": "1708458",
    "prefecture": "東京都",
    "prefecture_kana": "トウキョウト",
    "prefecture_code": "13",
    "city": "豊島区",
    "city_kana": "トシマク",
    "town": "巣鴨",
    "town_kana": "スガモ",
    "street": "１丁目１５−１",
    "office_name": "（社）　全日本ピアノ指導者協会",
    "office_name_kana": "(シヤ) ゼンニホンピアノシドウシヤキヨウカイ"
  },
  "8459": {
    "zip_code": "1708459",
    "prefecture": "東京都",
    "prefecture_kana": "トウキョウト",
    "prefecture_code": "13",
    "city": "豊島区",
    "city_kana": "トシマク",
    "town": "南大塚",
    "town_kana": "ミナミオオツカ",
    "street": "２丁目２６−１５",
    "office_name": "株式会社　ユーコー",
    "office_name_kana": "カブシキガイシヤ ユ-コ-"
  },
  "8460": {
    "zip_code": "1708460",
    "prefecture": "東京都",
    "prefecture_kana": "トウキョウト",
    "prefecture_code": "13",
    "city": "豊島区",
    "city_kana": "トシマク",
    "town": "北大塚",
    "town_kana": "キタオオツカ",
    "street": "３丁目１０−５",
    "office_name": "株式会社　銀行研修社",
    "office_name_kana": "カブシキカイシヤ ギンコウケンシユウシヤ"
  },
  "8462": {
    "zip_code": "1708462",
    "prefecture": "東京都",
    "prefecture_kana": "トウキョウト",
    "prefecture_code": "13",
    "city": "豊島区",
    "city_kana": "トシマク",
    "town": "北大塚",
    "town_kana": "キタオオツカ",
    "street": "１丁目１４−３",
    "office_name": "アスビルトレーディング　株式会社",
    "office_name_kana": "アスビルトレ-デイング カブシキカイシヤ"
  },
  "8465": {
    "zip_code": "1708465",
    "prefecture": "東京都",
    "prefecture_kana": "トウキョウト",
    "prefecture_code": "13",
    "city": "豊島区",
    "city_kana": "トシマク",
    "town": "南大塚",
    "town_kana": "ミナミオオツカ",
    "street": "２丁目４５−８ＮＳビル３Ｆ",
    "office_name": "株式会社　東京めいらく",
    "office_name_kana": "カブシキガイシヤ トウキヨウメイラク"
  },
  "8466": {
    "zip_code": "1708466",
    "prefecture": "東京都",
    "prefecture_kana": "トウキョウト",
    "prefecture_code": "13",
    "city": "豊島区",
    "city_kana": "トシマク",
    "town": "東池袋",
    "town_kana": "ヒガシイケブクロ",
    "street": "４丁目５−２",
    "office_name": "株式会社　日立プラントテクノロジー",
    "office_name_kana": "カブシキガイシヤ ヒタチプラントテクノロジ-"
  },
  "8470": {
    "zip_code": "1708470",
    "prefecture": "東京都",
    "prefecture_kana": "トウキョウト",
    "prefecture_code": "13",
    "city": "豊島区",
    "city_kana": "トシマク",
    "town": "西巣鴨",
    "town_kana": "ニシスガモ",
    "street": "３丁目２０−１",
    "office_name": "大正大学",
    "office_name_kana": "タイシヨウダイガク"
  },
  "8476": {
    "zip_code": "1708476",
    "prefecture": "東京都",
    "prefecture_kana": "トウキョウト",
    "prefecture_code": "13",
    "city": "豊島区",
    "city_kana": "トシマク",
    "town": "南大塚",
    "town_kana": "ミナミオオツカ",
    "street": "２丁目８−１",
    "office_name": "東京都立大塚病院",
    "office_name_kana": "トウキヨウトリツオオツカビヨウイン"
  },
  "8477": {
    "zip_code": "1708477",
    "prefecture": "東京都",
    "prefecture_kana": "トウキョウト",
    "prefecture_code": "13",
    "city": "豊島区",
    "city_kana": "トシマク",
    "town": "巣鴨",
    "town_kana": "スガモ",
    "street": "２丁目１０−２",
    "office_name": "巣鴨信用金庫",
    "office_name_kana": "スガモシンヨウキンコ"
  },
  "8480": {
    "zip_code": "1708480",
    "prefecture": "東京都",
    "prefecture_kana": "トウキョウト",
    "prefecture_code": "13",
    "city": "豊島区",
    "city_kana": "トシマク",
    "town": "駒込",
    "town_kana": "コマゴメ",
    "street": "２丁目３−１０",
    "office_name": "財団法人　電気通信振興会",
    "office_name_kana": "ザイダンホウジン デンキツウシンシンコウカイ"
  },
  "8488": {
    "zip_code": "1708488",
    "prefecture": "東京都",
    "prefecture_kana": "トウキョウト",
    "prefecture_code": "13",
    "city": "豊島区",
    "city_kana": "トシマク",
    "town": "北大塚",
    "town_kana": "キタオオツカ",
    "street": "２丁目２４−５",
    "office_name": "永田精機　株式会社",
    "office_name_kana": "ナガタセイキ カブシキガイシヤ"
  },
  "8551": {
    "zip_code": "1708551",
    "prefecture": "東京都",
    "prefecture_kana": "トウキョウト",
    "prefecture_code": "13",
    "city": "豊島区",
    "city_kana": "トシマク",
    "town": "東池袋",
    "town_kana": "ヒガシイケブクロ",
    "street": "１丁目３６−７",
    "office_name": "ナウカ　株式会社",
    "office_name_kana": "ナカウ カブシキガイシヤ"
  },
  "8585": {
    "zip_code": "1708585",
    "prefecture": "東京都",
    "prefecture_kana": "トウキョウト",
    "prefecture_code": "13",
    "city": "豊島区",
    "city_kana": "トシマク",
    "town": "巣鴨",
    "town_kana": "スガモ",
    "street": "２丁目１１−１巣鴨室町ビル７階",
    "office_name": "財団法人　日本データ通信協会",
    "office_name_kana": "ザイダンホウジン ニホンデ-タツウシンキヨウカイ"
  },
  "8602": {
    "zip_code": "1708602",
    "prefecture": "東京都",
    "prefecture_kana": "トウキョウト",
    "prefecture_code": "13",
    "city": "豊島区",
    "city_kana": "トシマク",
    "town": "南池袋",
    "town_kana": "ミナミイケブクロ",
    "street": "１丁目２８−１（豊島郵便局私書箱第１０３号）",
    "office_name": "みずほ銀行　池袋支店",
    "office_name_kana": "ミズホギンコウ イケブクロシテン"
  },
  "8605": {
    "zip_code": "1708605",
    "prefecture": "東京都",
    "prefecture_kana": "トウキョウト",
    "prefecture_code": "13",
    "city": "豊島区",
    "city_kana": "トシマク",
    "town": "東池袋",
    "town_kana": "ヒガシイケブクロ",
    "street": "１丁目１７−８（豊島郵便局私書箱第１５９号）",
    "office_name": "中央三井信託銀行",
    "office_name_kana": "チユウオウミツイシンタクギンコウ"
  },
  "8633": {
    "zip_code": "1708633",
    "prefecture": "東京都",
    "prefecture_kana": "トウキョウト",
    "prefecture_code": "13",
    "city": "豊島区",
    "city_kana": "トシマク",
    "town": "高田",
    "town_kana": "タカダ",
    "street": "３丁目２４−１（豊島郵便局私書箱第１１１号）",
    "office_name": "大正製薬　株式会社",
    "office_name_kana": "タイシヨウセイヤク カブシキガイシヤ"
  },
  "8635": {
    "zip_code": "1708635",
    "prefecture": "東京都",
    "prefecture_kana": "トウキョウト",
    "prefecture_code": "13",
    "city": "豊島区",
    "city_kana": "トシマク",
    "town": "高田",
    "town_kana": "タカダ",
    "street": "３丁目２５−１（豊島郵便局私書箱第６６号）",
    "office_name": "大正富山医薬品　株式会社",
    "office_name_kana": "タイシヨウトヤマイヤクヒン カブシキガイシヤ"
  },
  "8655": {
    "zip_code": "1708655",
    "prefecture": "東京都",
    "prefecture_kana": "トウキョウト",
    "prefecture_code": "13",
    "city": "豊島区",
    "city_kana": "トシマク",
    "town": "高田",
    "town_kana": "タカダ",
    "street": "３丁目２４番１号（豊島郵便局私書箱第５５号）",
    "office_name": "大正製薬ホールディングス　株式会社",
    "office_name_kana": "タイシヨウセイヤクホ-ルデイングス カブシキガイシヤ"
  },
  "8666": {
    "zip_code": "1708666",
    "prefecture": "東京都",
    "prefecture_kana": "トウキョウト",
    "prefecture_code": "13",
    "city": "豊島区",
    "city_kana": "トシマク",
    "town": "北大塚",
    "town_kana": "キタオオツカ",
    "street": "３丁目２５−２０（豊島郵便局私書箱第９８号）",
    "office_name": "有限会社　エンゼルダイレクト",
    "office_name_kana": "ユウゲンガイシヤ エンゼルダイレクト"
  },
  "8686": {
    "zip_code": "1708686",
    "prefecture": "東京都",
    "prefecture_kana": "トウキョウト",
    "prefecture_code": "13",
    "city": "豊島区",
    "city_kana": "トシマク",
    "town": "池袋",
    "town_kana": "イケブクロ",
    "street": "３丁目１８−１２（豊島郵便局私書箱第１５０号）",
    "office_name": "株式会社　日本香堂",
    "office_name_kana": "カブシキガイシヤ ニツポンコウドウ"
  }
}