{
  "0000": {
    "zip_code": "1810000",
    "prefecture": "東京都",
    "prefecture_kana": "トウキョウト",
    "prefecture_code": 13,
    "city": "三鷹市",
    "city_kana": "ミタカシ",
    "town": "",
    "town_kana": "",
    "street": null,
    "office_name": null,
    "office_name_kana": null
  },
  "0001": {
    "zip_code": "1810001",
    "prefecture": "東京都",
    "prefecture_kana": "トウキョウト",
    "prefecture_code": 13,
    "city": "三鷹市",
    "city_kana": "ミタカシ",
    "town": "井の頭",
    "town_kana": "イノカシラ",
    "street": null,
    "office_name": null,
    "office_name_kana": null
  },
  "0002": {
    "zip_code": "1810002",
    "prefecture": "東京都",
    "prefecture_kana": "トウキョウト",
    "prefecture_code": 13,
    "city": "三鷹市",
    "city_kana": "ミタカシ",
    "town": "牟礼",
    "town_kana": "ムレ",
    "street": null,
    "office_name": null,
    "office_name_kana": null
  },
  "0003": {
    "zip_code": "1810003",
    "prefecture": "東京都",
    "prefecture_kana": "トウキョウト",
    "prefecture_code": 13,
    "city": "三鷹市",
    "city_kana": "ミタカシ",
    "town": "北野",
    "town_kana": "キタノ",
    "street": null,
    "office_name": null,
    "office_name_kana": null
  },
  "0004": {
    "zip_code": "1810004",
    "prefecture": "東京都",
    "prefecture_kana": "トウキョウト",
    "prefecture_code": 13,
    "city": "三鷹市",
    "city_kana": "ミタカシ",
    "town": "新川",
    "town_kana": "シンカワ",
    "street": null,
    "office_name": null,
    "office_name_kana": null
  },
  "0005": {
    "zip_code": "1810005",
    "prefecture": "東京都",
    "prefecture_kana": "トウキョウト",
    "prefecture_code": 13,
    "city": "三鷹市",
    "city_kana": "ミタカシ",
    "town": "中原",
    "town_kana": "ナカハラ",
    "street": null,
    "office_name": null,
    "office_name_kana": null
  },
  "0011": {
    "zip_code": "1810011",
    "prefecture": "東京都",
    "prefecture_kana": "トウキョウト",
    "prefecture_code": 13,
    "city": "三鷹市",
    "city_kana": "ミタカシ",
    "town": "井口",
    "town_kana": "イグチ",
    "street": null,
    "office_name": null,
    "office_name_kana": null
  },
  "0012": {
    "zip_code": "1810012",
    "prefecture": "東京都",
    "prefecture_kana": "トウキョウト",
    "prefecture_code": 13,
    "city": "三鷹市",
    "city_kana": "ミタカシ",
    "town": "上連雀",
    "town_kana": "カミレンジャク",
    "street": null,
    "office_name": null,
    "office_name_kana": null
  },
  "0013": {
    "zip_code": "1810013",
    "prefecture": "東京都",
    "prefecture_kana": "トウキョウト",
    "prefecture_code": 13,
    "city": "三鷹市",
    "city_kana": "ミタカシ",
    "town": "下連雀",
    "town_kana": "シモレンジャク",
    "street": null,
    "office_name": null,
    "office_name_kana": null
  },
  "0014": {
    "zip_code": "1810014",
    "prefecture": "東京都",
    "prefecture_kana": "トウキョウト",
    "prefecture_code": 13,
    "city": "三鷹市",
    "city_kana": "ミタカシ",
    "town": "野崎",
    "town_kana": "ノザキ",
    "street": null,
    "office_name": null,
    "office_name_kana": null
  },
  "0015": {
    "zip_code": "1810015",
    "prefecture": "東京都",
    "prefecture_kana": "トウキョウト",
    "prefecture_code": 13,
    "city": "三鷹市",
    "city_kana": "ミタカシ",
    "town": "大沢",
    "town_kana": "オオサワ",
    "street": null,
    "office_name": null,
    "office_name_kana": null
  },
  "0016": {
    "zip_code": "1810016",
    "prefecture": "東京都",
    "prefecture_kana": "トウキョウト",
    "prefecture_code": 13,
    "city": "三鷹市",
    "city_kana": "ミタカシ",
    "town": "深大寺",
    "town_kana": "ジンダイジ",
    "street": null,
    "office_name": null,
    "office_name_kana": null
  },
  "8001": {
    "zip_code": "1818001",
    "prefecture": "東京都",
    "prefecture_kana": "トウキョウト",
    "prefecture_code": 13,
    "city": "三鷹市",
    "city_kana": "ミタカシ",
    "town": "下連雀",
    "town_kana": "シモレンジャク",
    "street": "７丁目５−１４",
    "office_name": "株式会社　ジェーシービー　ＪＣＢカードセンター",
    "office_name_kana": "カブシキガイシヤ ジエ-シ-ビ- ジエ-シ-ビ-カ-ドセンタ-"
  },
  "8503": {
    "zip_code": "1818503",
    "prefecture": "東京都",
    "prefecture_kana": "トウキョウト",
    "prefecture_code": 13,
    "city": "三鷹市",
    "city_kana": "ミタカシ",
    "town": "下連雀",
    "town_kana": "シモレンジャク",
    "street": "８丁目３−６",
    "office_name": "医療法人財団　慈生会　野村病院",
    "office_name_kana": "イリヨウホウジンザイダン ジセイカイ ノムラビヨウイン"
  },
  "8505": {
    "zip_code": "1818505",
    "prefecture": "東京都",
    "prefecture_kana": "トウキョウト",
    "prefecture_code": 13,
    "city": "三鷹市",
    "city_kana": "ミタカシ",
    "town": "下連雀",
    "town_kana": "シモレンジャク",
    "street": "９丁目１１−７",
    "office_name": "三鷹市教育委員会",
    "office_name_kana": "ミタカシキヨウイクイインカイ"
  },
  "8510": {
    "zip_code": "1818510",
    "prefecture": "東京都",
    "prefecture_kana": "トウキョウト",
    "prefecture_code": 13,
    "city": "三鷹市",
    "city_kana": "ミタカシ",
    "town": "下連雀",
    "town_kana": "シモレンジャク",
    "street": "５丁目１−１",
    "office_name": "日本無線　株式会社",
    "office_name_kana": "ニホンムセン カブシキガイシヤ"
  },
  "8511": {
    "zip_code": "1818511",
    "prefecture": "東京都",
    "prefecture_kana": "トウキョウト",
    "prefecture_code": 13,
    "city": "三鷹市",
    "city_kana": "ミタカシ",
    "town": "下連雀",
    "town_kana": "シモレンジャク",
    "street": "８丁目７−２",
    "office_name": "セントラル・コンピュータ・サービス　株式会社　情報通信センター",
    "office_name_kana": "セントラル.コンピユ-タ.サ-ビス カブシキガイシヤ ジヨウホウツウシンセンタ-"
  },
  "8517": {
    "zip_code": "1818517",
    "prefecture": "東京都",
    "prefecture_kana": "トウキョウト",
    "prefecture_code": 13,
    "city": "三鷹市",
    "city_kana": "ミタカシ",
    "town": "下連雀",
    "town_kana": "シモレンジャク",
    "street": "４丁目１５−１８",
    "office_name": "三鷹公共職業安定所",
    "office_name_kana": "ミタカコウキヨウシヨクギヨウアンテイジヨ"
  },
  "8518": {
    "zip_code": "1818518",
    "prefecture": "東京都",
    "prefecture_kana": "トウキョウト",
    "prefecture_code": 13,
    "city": "三鷹市",
    "city_kana": "ミタカシ",
    "town": "下連雀",
    "town_kana": "シモレンジャク",
    "street": "６丁目１−３３",
    "office_name": "春日電機　株式会社",
    "office_name_kana": "カスガデンキ カブシキガイシヤ"
  },
  "8520": {
    "zip_code": "1818520",
    "prefecture": "東京都",
    "prefecture_kana": "トウキョウト",
    "prefecture_code": 13,
    "city": "三鷹市",
    "city_kana": "ミタカシ",
    "town": "下連雀",
    "town_kana": "シモレンジャク",
    "street": "６丁目３−３",
    "office_name": "キヤノンファインテック　株式会社",
    "office_name_kana": "キヤノンフアインテツク カブシキガイシヤ"
  },
  "8521": {
    "zip_code": "1818521",
    "prefecture": "東京都",
    "prefecture_kana": "トウキョウト",
    "prefecture_code": 13,
    "city": "三鷹市",
    "city_kana": "ミタカシ",
    "town": "下連雀",
    "town_kana": "シモレンジャク",
    "street": "６丁目１１−２３",
    "office_name": "セコムＴＥセンター",
    "office_name_kana": "セコムテイ-イ-センタ-"
  },
  "8522": {
    "zip_code": "1818522",
    "prefecture": "東京都",
    "prefecture_kana": "トウキョウト",
    "prefecture_code": 13,
    "city": "三鷹市",
    "city_kana": "ミタカシ",
    "town": "下連雀",
    "town_kana": "シモレンジャク",
    "street": "８丁目７−２ＭＣＣ三鷹ビル東館２階",
    "office_name": "株式会社　ジャパンエナジー　ＪＯＭＯカードセンター",
    "office_name_kana": "カブシキガイシヤ ジヤパンエナジ- ジヨモカ-ドセンタ-"
  },
  "8528": {
    "zip_code": "1818528",
    "prefecture": "東京都",
    "prefecture_kana": "トウキョウト",
    "prefecture_code": 13,
    "city": "三鷹市",
    "city_kana": "ミタカシ",
    "town": "下連雀",
    "town_kana": "シモレンジャク",
    "street": "８丁目１０−１６",
    "office_name": "セコムＳＣセンター",
    "office_name_kana": "セコムエスシ-センタ-"
  },
  "8531": {
    "zip_code": "1818531",
    "prefecture": "東京都",
    "prefecture_kana": "トウキョウト",
    "prefecture_code": 13,
    "city": "三鷹市",
    "city_kana": "ミタカシ",
    "town": "上連雀",
    "town_kana": "カミレンジャク",
    "street": "４丁目１４−１",
    "office_name": "財団法人　井之頭病院",
    "office_name_kana": "ザイダンホウジン イノガシラビヨウイン"
  },
  "8533": {
    "zip_code": "1818533",
    "prefecture": "東京都",
    "prefecture_kana": "トウキョウト",
    "prefecture_code": 13,
    "city": "三鷹市",
    "city_kana": "ミタカシ",
    "town": "上連雀",
    "town_kana": "カミレンジャク",
    "street": "１丁目１２−１７",
    "office_name": "アツデン　株式会社",
    "office_name_kana": "アツデン カブシキガイシヤ"
  },
  "8535": {
    "zip_code": "1818535",
    "prefecture": "東京都",
    "prefecture_kana": "トウキョウト",
    "prefecture_code": 13,
    "city": "三鷹市",
    "city_kana": "ミタカシ",
    "town": "上連雀",
    "town_kana": "カミレンジャク",
    "street": "１丁目１２−１７",
    "office_name": "株式会社　テスコ",
    "office_name_kana": "カブシキガイシヤ テスコ"
  },
  "8541": {
    "zip_code": "1818541",
    "prefecture": "東京都",
    "prefecture_kana": "トウキョウト",
    "prefecture_code": 13,
    "city": "三鷹市",
    "city_kana": "ミタカシ",
    "town": "井口",
    "town_kana": "イグチ",
    "street": "２丁目５−３",
    "office_name": "サンマルイ　（株）　西東京カンパニー",
    "office_name_kana": "サンマルイ カブシキガイシヤ ニシトウキヨウカンパニ-"
  },
  "8551": {
    "zip_code": "1818551",
    "prefecture": "東京都",
    "prefecture_kana": "トウキョウト",
    "prefecture_code": 13,
    "city": "三鷹市",
    "city_kana": "ミタカシ",
    "town": "野崎",
    "town_kana": "ノザキ",
    "street": "１丁目１１−２２",
    "office_name": "酒井薬品　株式会社",
    "office_name_kana": "サカイヤクヒン カブシキガイシヤ"
  },
  "8555": {
    "zip_code": "1818555",
    "prefecture": "東京都",
    "prefecture_kana": "トウキョウト",
    "prefecture_code": 13,
    "city": "三鷹市",
    "city_kana": "ミタカシ",
    "town": "野崎",
    "town_kana": "ノザキ",
    "street": "１丁目１−１",
    "office_name": "三鷹市役所",
    "office_name_kana": "ミタカシヤクシヨ"
  },
  "8567": {
    "zip_code": "1818567",
    "prefecture": "東京都",
    "prefecture_kana": "トウキョウト",
    "prefecture_code": 13,
    "city": "三鷹市",
    "city_kana": "ミタカシ",
    "town": "野崎",
    "town_kana": "ノザキ",
    "street": "１−２０−２０",
    "office_name": "株式会社　Ｊマート",
    "office_name_kana": "カブシキガイシヤ ジエイマ-ト"
  },
  "8571": {
    "zip_code": "1818571",
    "prefecture": "東京都",
    "prefecture_kana": "トウキョウト",
    "prefecture_code": 13,
    "city": "三鷹市",
    "city_kana": "ミタカシ",
    "town": "大沢",
    "town_kana": "オオサワ",
    "street": "６丁目１１−２５",
    "office_name": "株式会社　ジャムコ",
    "office_name_kana": "カブシキガイシヤ ジヤムコ"
  },
  "8577": {
    "zip_code": "1818577",
    "prefecture": "東京都",
    "prefecture_kana": "トウキョウト",
    "prefecture_code": 13,
    "city": "三鷹市",
    "city_kana": "ミタカシ",
    "town": "大沢",
    "town_kana": "オオサワ",
    "street": "３丁目９−６",
    "office_name": "富士重工業　株式会社　東京事業所",
    "office_name_kana": "フジジユウコウギヨウ カブシキガイシヤ トウキヨウジギヨウシヨ"
  },
  "8585": {
    "zip_code": "1818585",
    "prefecture": "東京都",
    "prefecture_kana": "トウキョウト",
    "prefecture_code": 13,
    "city": "三鷹市",
    "city_kana": "ミタカシ",
    "town": "大沢",
    "town_kana": "オオサワ",
    "street": "３丁目１０−２",
    "office_name": "学校法人　国際基督教大学（ＩＣＵ）",
    "office_name_kana": "ガツコウホウジン コクサイキトクキヨウダイガク(アイシユウ)"
  },
  "8586": {
    "zip_code": "1818586",
    "prefecture": "東京都",
    "prefecture_kana": "トウキョウト",
    "prefecture_code": 13,
    "city": "三鷹市",
    "city_kana": "ミタカシ",
    "town": "大沢",
    "town_kana": "オオサワ",
    "street": "２丁目２０−３６",
    "office_name": "長谷川病院",
    "office_name_kana": "ハセガワビヨウイン"
  },
  "8587": {
    "zip_code": "1818587",
    "prefecture": "東京都",
    "prefecture_kana": "トウキョウト",
    "prefecture_code": 13,
    "city": "三鷹市",
    "city_kana": "ミタカシ",
    "town": "大沢",
    "town_kana": "オオサワ",
    "street": "４丁目１０−１０",
    "office_name": "廣屋国分　株式会社",
    "office_name_kana": "ヒロヤコクブ カブシキガイシヤ"
  },
  "8588": {
    "zip_code": "1818588",
    "prefecture": "東京都",
    "prefecture_kana": "トウキョウト",
    "prefecture_code": 13,
    "city": "三鷹市",
    "city_kana": "ミタカシ",
    "town": "大沢",
    "town_kana": "オオサワ",
    "street": "２丁目２１−１",
    "office_name": "大学共同利用機関法人　自然科学研究機構　国立天文台",
    "office_name_kana": "ダイガクキヨウドウリヨウキカンホウジン シゼンカガクケンキユウキコウ コクリツテンモンダイ"
  },
  "8601": {
    "zip_code": "1818601",
    "prefecture": "東京都",
    "prefecture_kana": "トウキョウト",
    "prefecture_code": 13,
    "city": "三鷹市",
    "city_kana": "ミタカシ",
    "town": "北野",
    "town_kana": "キタノ",
    "street": "３丁目６−１１",
    "office_name": "アサカ物産　株式会社",
    "office_name_kana": "アサカブツサン カブシキガイシヤ"
  },
  "8608": {
    "zip_code": "1818608",
    "prefecture": "東京都",
    "prefecture_kana": "トウキョウト",
    "prefecture_code": 13,
    "city": "三鷹市",
    "city_kana": "ミタカシ",
    "town": "北野",
    "town_kana": "キタノ",
    "street": "３丁目３−７",
    "office_name": "アイデックスラボラトリーズ　株式会社",
    "office_name_kana": "アイデツクスラボラトリ-ズ カブシキガイシヤ"
  },
  "8611": {
    "zip_code": "1818611",
    "prefecture": "東京都",
    "prefecture_kana": "トウキョウト",
    "prefecture_code": 13,
    "city": "三鷹市",
    "city_kana": "ミタカシ",
    "town": "新川",
    "town_kana": "シンカワ",
    "street": "６丁目２０−２",
    "office_name": "学校法人　杏林学園",
    "office_name_kana": "ガツコウホウジン キヨウリンガクエン"
  },
  "8612": {
    "zip_code": "1818612",
    "prefecture": "東京都",
    "prefecture_kana": "トウキョウト",
    "prefecture_code": 13,
    "city": "三鷹市",
    "city_kana": "ミタカシ",
    "town": "下連雀",
    "town_kana": "シモレンジャク",
    "street": "５−４−１",
    "office_name": "学校法人　杏林学園　杏林大学井の頭キャンパス",
    "office_name_kana": "ガツコウホウジン キヨウリンガクエン キヨウリンダイガクイノガシラキヤンパス"
  },
  "8614": {
    "zip_code": "1818614",
    "prefecture": "東京都",
    "prefecture_kana": "トウキョウト",
    "prefecture_code": 13,
    "city": "三鷹市",
    "city_kana": "ミタカシ",
    "town": "新川",
    "town_kana": "シンカワ",
    "street": "６丁目１７−３",
    "office_name": "杏林大学医学部付属看護専門学校",
    "office_name_kana": "キヨウリンダイガクイガクブフゾクカンゴセンモンガツコウ"
  },
  "8622": {
    "zip_code": "1818622",
    "prefecture": "東京都",
    "prefecture_kana": "トウキョウト",
    "prefecture_code": 13,
    "city": "三鷹市",
    "city_kana": "ミタカシ",
    "town": "牟礼",
    "town_kana": "ムレ",
    "street": "６丁目２２−１",
    "office_name": "アロカ　株式会社",
    "office_name_kana": "アロカ カブシキガイシヤ"
  },
  "8633": {
    "zip_code": "1818633",
    "prefecture": "東京都",
    "prefecture_kana": "トウキョウト",
    "prefecture_code": 13,
    "city": "三鷹市",
    "city_kana": "ミタカシ",
    "town": "中原",
    "town_kana": "ナカハラ",
    "street": "３丁目１４−１",
    "office_name": "消防研究所",
    "office_name_kana": "シヨウボウケンキユウジヨ"
  },
  "8648": {
    "zip_code": "1818648",
    "prefecture": "東京都",
    "prefecture_kana": "トウキョウト",
    "prefecture_code": 13,
    "city": "三鷹市",
    "city_kana": "ミタカシ",
    "town": "井の頭",
    "town_kana": "イノカシラ",
    "street": "５丁目８−３０",
    "office_name": "いずみ書房　株式会社",
    "office_name_kana": "イズミシヨボウ カブシキガイシヤ"
  }
}