{
  "0000": {
    "zip_code": "1840000",
    "prefecture": "東京都",
    "prefecture_kana": "トウキョウト",
    "prefecture_code": 13,
    "city": "小金井市",
    "city_kana": "コガネイシ",
    "town": "",
    "town_kana": "",
    "street": null,
    "office_name": null,
    "office_name_kana": null
  },
  "0001": {
    "zip_code": "1840001",
    "prefecture": "東京都",
    "prefecture_kana": "トウキョウト",
    "prefecture_code": 13,
    "city": "小金井市",
    "city_kana": "コガネイシ",
    "town": "関野町",
    "town_kana": "セキノチョウ",
    "street": null,
    "office_name": null,
    "office_name_kana": null
  },
  "0002": {
    "zip_code": "1840002",
    "prefecture": "東京都",
    "prefecture_kana": "トウキョウト",
    "prefecture_code": 13,
    "city": "小金井市",
    "city_kana": "コガネイシ",
    "town": "梶野町",
    "town_kana": "カジノチョウ",
    "street": null,
    "office_name": null,
    "office_name_kana": null
  },
  "0003": {
    "zip_code": "1840003",
    "prefecture": "東京都",
    "prefecture_kana": "トウキョウト",
    "prefecture_code": 13,
    "city": "小金井市",
    "city_kana": "コガネイシ",
    "town": "緑町",
    "town_kana": "ミドリチョウ",
    "street": null,
    "office_name": null,
    "office_name_kana": null
  },
  "0004": {
    "zip_code": "1840004",
    "prefecture": "東京都",
    "prefecture_kana": "トウキョウト",
    "prefecture_code": 13,
    "city": "小金井市",
    "city_kana": "コガネイシ",
    "town": "本町",
    "town_kana": "ホンチョウ",
    "street": null,
    "office_name": null,
    "office_name_kana": null
  },
  "0005": {
    "zip_code": "1840005",
    "prefecture": "東京都",
    "prefecture_kana": "トウキョウト",
    "prefecture_code": 13,
    "city": "小金井市",
    "city_kana": "コガネイシ",
    "town": "桜町",
    "town_kana": "サクラチョウ",
    "street": null,
    "office_name": null,
    "office_name_kana": null
  },
  "0011": {
    "zip_code": "1840011",
    "prefecture": "東京都",
    "prefecture_kana": "トウキョウト",
    "prefecture_code": 13,
    "city": "小金井市",
    "city_kana": "コガネイシ",
    "town": "東町",
    "town_kana": "ヒガシチョウ",
    "street": null,
    "office_name": null,
    "office_name_kana": null
  },
  "0012": {
    "zip_code": "1840012",
    "prefecture": "東京都",
    "prefecture_kana": "トウキョウト",
    "prefecture_code": 13,
    "city": "小金井市",
    "city_kana": "コガネイシ",
    "town": "中町",
    "town_kana": "ナカチョウ",
    "street": null,
    "office_name": null,
    "office_name_kana": null
  },
  "0013": {
    "zip_code": "1840013",
    "prefecture": "東京都",
    "prefecture_kana": "トウキョウト",
    "prefecture_code": 13,
    "city": "小金井市",
    "city_kana": "コガネイシ",
    "town": "前原町",
    "town_kana": "マエハラチョウ",
    "street": null,
    "office_name": null,
    "office_name_kana": null
  },
  "0014": {
    "zip_code": "1840014",
    "prefecture": "東京都",
    "prefecture_kana": "トウキョウト",
    "prefecture_code": 13,
    "city": "小金井市",
    "city_kana": "コガネイシ",
    "town": "貫井南町",
    "town_kana": "ヌクイミナミチョウ",
    "street": null,
    "office_name": null,
    "office_name_kana": null
  },
  "0015": {
    "zip_code": "1840015",
    "prefecture": "東京都",
    "prefecture_kana": "トウキョウト",
    "prefecture_code": 13,
    "city": "小金井市",
    "city_kana": "コガネイシ",
    "town": "貫井北町",
    "town_kana": "ヌクイキタマチ",
    "street": null,
    "office_name": null,
    "office_name_kana": null
  },
  "8501": {
    "zip_code": "1848501",
    "prefecture": "東京都",
    "prefecture_kana": "トウキョウト",
    "prefecture_code": 13,
    "city": "小金井市",
    "city_kana": "コガネイシ",
    "town": "貫井北町",
    "town_kana": "ヌクイキタマチ",
    "street": "４丁目１−１",
    "office_name": "東京学芸大学",
    "office_name_kana": "トウキヨウガクゲイダイガク"
  },
  "8502": {
    "zip_code": "1848502",
    "prefecture": "東京都",
    "prefecture_kana": "トウキョウト",
    "prefecture_code": 13,
    "city": "小金井市",
    "city_kana": "コガネイシ",
    "town": "本町",
    "town_kana": "ホンチョウ",
    "street": "４丁目１−３",
    "office_name": "株式会社　ヤジマ",
    "office_name_kana": "カブシキガイシヤ ヤジマ"
  },
  "8503": {
    "zip_code": "1848503",
    "prefecture": "東京都",
    "prefecture_kana": "トウキョウト",
    "prefecture_code": 13,
    "city": "小金井市",
    "city_kana": "コガネイシ",
    "town": "東町",
    "town_kana": "ヒガシチョウ",
    "street": "１丁目１−１",
    "office_name": "国際基督教大学高等学校",
    "office_name_kana": "コクサイキリストキヨウダイガクコウトウガツコウ"
  },
  "8504": {
    "zip_code": "1848504",
    "prefecture": "東京都",
    "prefecture_kana": "トウキョウト",
    "prefecture_code": 13,
    "city": "小金井市",
    "city_kana": "コガネイシ",
    "town": "本町",
    "town_kana": "ホンチョウ",
    "street": "６丁目６−３",
    "office_name": "小金井市役所",
    "office_name_kana": "コガネイシヤクシヨ"
  },
  "8505": {
    "zip_code": "1848505",
    "prefecture": "東京都",
    "prefecture_kana": "トウキョウト",
    "prefecture_code": 13,
    "city": "小金井市",
    "city_kana": "コガネイシ",
    "town": "貫井北町",
    "town_kana": "ヌクイキタマチ",
    "street": "１丁目９−１",
    "office_name": "あいおい損害保険　（株）",
    "office_name_kana": "アイオイソンガイホケン (カブ)"
  },
  "8508": {
    "zip_code": "1848508",
    "prefecture": "東京都",
    "prefecture_kana": "トウキョウト",
    "prefecture_code": 13,
    "city": "小金井市",
    "city_kana": "コガネイシ",
    "town": "中町",
    "town_kana": "ナカチョウ",
    "street": "２丁目２２−３２",
    "office_name": "財団法人　日本リハビリテーション振興会専門学校社会医学技術学院",
    "office_name_kana": "ザイダンホウジン ニホンリハビリテ-シヨンシンコウカイセンモンガツコウシヤカイイガクギジユツガクイン"
  },
  "8510": {
    "zip_code": "1848510",
    "prefecture": "東京都",
    "prefecture_kana": "トウキョウト",
    "prefecture_code": 13,
    "city": "小金井市",
    "city_kana": "コガネイシ",
    "town": "本町",
    "town_kana": "ホンチョウ",
    "street": "５丁目１１−２",
    "office_name": "株式会社　長崎屋　小金井店",
    "office_name_kana": "カブシキガイシヤ ナガサキヤ コガネイテン"
  },
  "8511": {
    "zip_code": "1848511",
    "prefecture": "東京都",
    "prefecture_kana": "トウキョウト",
    "prefecture_code": 13,
    "city": "小金井市",
    "city_kana": "コガネイシ",
    "town": "桜町",
    "town_kana": "サクラチョウ",
    "street": "１丁目２−２０",
    "office_name": "社会福祉法人　聖ヨハネ会総合病院　桜町病院",
    "office_name_kana": "シヤカイフクシホウジン セイヨハネカイソウゴウビヨウイン サクラマチビヨウイン"
  },
  "8515": {
    "zip_code": "1848515",
    "prefecture": "東京都",
    "prefecture_kana": "トウキョウト",
    "prefecture_code": 13,
    "city": "小金井市",
    "city_kana": "コガネイシ",
    "town": "梶野町",
    "town_kana": "カジノチョウ",
    "street": "５−８−１８",
    "office_name": "アイデックスラボラトリーズ　株式会社",
    "office_name_kana": "アイデツクスラボラトリ-ズ カブシキガイシヤ"
  },
  "8522": {
    "zip_code": "1848522",
    "prefecture": "東京都",
    "prefecture_kana": "トウキョウト",
    "prefecture_code": 13,
    "city": "小金井市",
    "city_kana": "コガネイシ",
    "town": "緑町",
    "town_kana": "ミドリチョウ",
    "street": "５丁目３−３０",
    "office_name": "株式会社　ムラコシ",
    "office_name_kana": "カブシキガイシヤ ムラコシ"
  },
  "8533": {
    "zip_code": "1848533",
    "prefecture": "東京都",
    "prefecture_kana": "トウキョウト",
    "prefecture_code": 13,
    "city": "小金井市",
    "city_kana": "コガネイシ",
    "town": "緑町",
    "town_kana": "ミドリチョウ",
    "street": "３丁目１１−２８",
    "office_name": "株式会社　コガネイ",
    "office_name_kana": "カブシキガイシヤ コガネイ"
  },
  "8543": {
    "zip_code": "1848543",
    "prefecture": "東京都",
    "prefecture_kana": "トウキョウト",
    "prefecture_code": 13,
    "city": "小金井市",
    "city_kana": "コガネイシ",
    "town": "前原町",
    "town_kana": "マエハラチョウ",
    "street": "５丁目１−２９",
    "office_name": "学校法人　東京工学院専門学校",
    "office_name_kana": "ガツコウホウジン トウキヨウコウガクインセンモンガツコウ"
  },
  "8555": {
    "zip_code": "1848555",
    "prefecture": "東京都",
    "prefecture_kana": "トウキョウト",
    "prefecture_code": 13,
    "city": "小金井市",
    "city_kana": "コガネイシ",
    "town": "梶野町",
    "town_kana": "カジノチョウ",
    "street": "４丁目８−１",
    "office_name": "東京電機大学中学校・高等学校",
    "office_name_kana": "トウキヨウデンキダイガクチユウガツコウ.コウトウガツコウ"
  },
  "8558": {
    "zip_code": "1848558",
    "prefecture": "東京都",
    "prefecture_kana": "トウキョウト",
    "prefecture_code": 13,
    "city": "小金井市",
    "city_kana": "コガネイシ",
    "town": "前原町",
    "town_kana": "マエハラチョウ",
    "street": "４丁目４−４７",
    "office_name": "医療法人財団　美生会小金井病院",
    "office_name_kana": "イリヨウホウジンザイダン ビセイカイコガネイビヨウイン"
  },
  "8575": {
    "zip_code": "1848575",
    "prefecture": "東京都",
    "prefecture_kana": "トウキョウト",
    "prefecture_code": 13,
    "city": "小金井市",
    "city_kana": "コガネイシ",
    "town": "貫井北町",
    "town_kana": "ヌクイキタマチ",
    "street": "３丁目２２−１",
    "office_name": "中央大学附属高等学校",
    "office_name_kana": "チユウオウダイガクフゾクコウトウガツコウ"
  },
  "8577": {
    "zip_code": "1848577",
    "prefecture": "東京都",
    "prefecture_kana": "トウキョウト",
    "prefecture_code": 13,
    "city": "小金井市",
    "city_kana": "コガネイシ",
    "town": "本町",
    "town_kana": "ホンチョウ",
    "street": "６丁目５−３シャトー小金井１Ｆ",
    "office_name": "劇団ふるさときゃらばん",
    "office_name_kana": "ゲキダンフルサトキヤラバン"
  },
  "8581": {
    "zip_code": "1848581",
    "prefecture": "東京都",
    "prefecture_kana": "トウキョウト",
    "prefecture_code": 13,
    "city": "小金井市",
    "city_kana": "コガネイシ",
    "town": "本町",
    "town_kana": "ホンチョウ",
    "street": "６丁目８−９",
    "office_name": "東京都立小金井工業高等学校",
    "office_name_kana": "トウキヨウトリツコガネイコウギヨウコウトウガツコウ"
  },
  "8584": {
    "zip_code": "1848584",
    "prefecture": "東京都",
    "prefecture_kana": "トウキョウト",
    "prefecture_code": 13,
    "city": "小金井市",
    "city_kana": "コガネイシ",
    "town": "梶野町",
    "town_kana": "カジノチョウ",
    "street": "３−７−２",
    "office_name": "法政大学",
    "office_name_kana": "ホウセイダイガク"
  },
  "8585": {
    "zip_code": "1848585",
    "prefecture": "東京都",
    "prefecture_kana": "トウキョウト",
    "prefecture_code": 13,
    "city": "小金井市",
    "city_kana": "コガネイシ",
    "town": "東町",
    "town_kana": "ヒガシチョウ",
    "street": "１丁目４４−２６",
    "office_name": "医療法人社団　総合会武蔵野中央病院",
    "office_name_kana": "イリヨウホウジンシヤダン ソウゴウカイムサシノチユウオウビヨウイン"
  },
  "8588": {
    "zip_code": "1848588",
    "prefecture": "東京都",
    "prefecture_kana": "トウキョウト",
    "prefecture_code": 13,
    "city": "小金井市",
    "city_kana": "コガネイシ",
    "town": "中町",
    "town_kana": "ナカチョウ",
    "street": "２丁目２４−１６",
    "office_name": "東京農工大学　工学部",
    "office_name_kana": "トウキヨウノウコウダイガク コウガクブ"
  },
  "8595": {
    "zip_code": "1848595",
    "prefecture": "東京都",
    "prefecture_kana": "トウキョウト",
    "prefecture_code": 13,
    "city": "小金井市",
    "city_kana": "コガネイシ",
    "town": "緑町",
    "town_kana": "ミドリチョウ",
    "street": "５丁目６−３５",
    "office_name": "株式会社　ムラコシ精工",
    "office_name_kana": "カブシキガイシヤ ムラコシセイコウ"
  },
  "8795": {
    "zip_code": "1848795",
    "prefecture": "東京都",
    "prefecture_kana": "トウキョウト",
    "prefecture_code": 13,
    "city": "小金井市",
    "city_kana": "コガネイシ",
    "town": "貫井北町",
    "town_kana": "ヌクイキタマチ",
    "street": "４丁目２−１",
    "office_name": "独立行政法人　情報通信研究機構",
    "office_name_kana": "ドクリツギヨウセイホウジン ジヨウホウツウシンケンキユウキコウ"
  }
}