{
  "0000": {
    "zip_code": "1850000",
    "prefecture": "東京都",
    "prefecture_kana": "トウキョウト",
    "prefecture_code": 13,
    "city": "国分寺市",
    "city_kana": "コクブンジシ",
    "town": "",
    "town_kana": "",
    "street": null,
    "office_name": null,
    "office_name_kana": null
  },
  "0001": {
    "zip_code": "1850001",
    "prefecture": "東京都",
    "prefecture_kana": "トウキョウト",
    "prefecture_code": 13,
    "city": "国分寺市",
    "city_kana": "コクブンジシ",
    "town": "北町",
    "town_kana": "キタマチ",
    "street": null,
    "office_name": null,
    "office_name_kana": null
  },
  "0002": {
    "zip_code": "1850002",
    "prefecture": "東京都",
    "prefecture_kana": "トウキョウト",
    "prefecture_code": 13,
    "city": "国分寺市",
    "city_kana": "コクブンジシ",
    "town": "東戸倉",
    "town_kana": "ヒガシトクラ",
    "street": null,
    "office_name": null,
    "office_name_kana": null
  },
  "0003": {
    "zip_code": "1850003",
    "prefecture": "東京都",
    "prefecture_kana": "トウキョウト",
    "prefecture_code": 13,
    "city": "国分寺市",
    "city_kana": "コクブンジシ",
    "town": "戸倉",
    "town_kana": "トクラ",
    "street": null,
    "office_name": null,
    "office_name_kana": null
  },
  "0004": {
    "zip_code": "1850004",
    "prefecture": "東京都",
    "prefecture_kana": "トウキョウト",
    "prefecture_code": 13,
    "city": "国分寺市",
    "city_kana": "コクブンジシ",
    "town": "新町",
    "town_kana": "シンマチ",
    "street": null,
    "office_name": null,
    "office_name_kana": null
  },
  "0005": {
    "zip_code": "1850005",
    "prefecture": "東京都",
    "prefecture_kana": "トウキョウト",
    "prefecture_code": 13,
    "city": "国分寺市",
    "city_kana": "コクブンジシ",
    "town": "並木町",
    "town_kana": "ナミキチョウ",
    "street": null,
    "office_name": null,
    "office_name_kana": null
  },
  "0011": {
    "zip_code": "1850011",
    "prefecture": "東京都",
    "prefecture_kana": "トウキョウト",
    "prefecture_code": 13,
    "city": "国分寺市",
    "city_kana": "コクブンジシ",
    "town": "本多",
    "town_kana": "ホンダ",
    "street": null,
    "office_name": null,
    "office_name_kana": null
  },
  "0012": {
    "zip_code": "1850012",
    "prefecture": "東京都",
    "prefecture_kana": "トウキョウト",
    "prefecture_code": 13,
    "city": "国分寺市",
    "city_kana": "コクブンジシ",
    "town": "本町",
    "town_kana": "ホンチョウ",
    "street": null,
    "office_name": null,
    "office_name_kana": null
  },
  "0013": {
    "zip_code": "1850013",
    "prefecture": "東京都",
    "prefecture_kana": "トウキョウト",
    "prefecture_code": 13,
    "city": "国分寺市",
    "city_kana": "コクブンジシ",
    "town": "西恋ケ窪",
    "town_kana": "ニシコイガクボ",
    "street": null,
    "office_name": null,
    "office_name_kana": null
  },
  "0014": {
    "zip_code": "1850014",
    "prefecture": "東京都",
    "prefecture_kana": "トウキョウト",
    "prefecture_code": 13,
    "city": "国分寺市",
    "city_kana": "コクブンジシ",
    "town": "東恋ケ窪",
    "town_kana": "ヒガシコイガクボ",
    "street": null,
    "office_name": null,
    "office_name_kana": null
  },
  "0021": {
    "zip_code": "1850021",
    "prefecture": "東京都",
    "prefecture_kana": "トウキョウト",
    "prefecture_code": 13,
    "city": "国分寺市",
    "city_kana": "コクブンジシ",
    "town": "南町",
    "town_kana": "ミナミチョウ",
    "street": null,
    "office_name": null,
    "office_name_kana": null
  },
  "0022": {
    "zip_code": "1850022",
    "prefecture": "東京都",
    "prefecture_kana": "トウキョウト",
    "prefecture_code": 13,
    "city": "国分寺市",
    "city_kana": "コクブンジシ",
    "town": "東元町",
    "town_kana": "ヒガシモトマチ",
    "street": null,
    "office_name": null,
    "office_name_kana": null
  },
  "0023": {
    "zip_code": "1850023",
    "prefecture": "東京都",
    "prefecture_kana": "トウキョウト",
    "prefecture_code": 13,
    "city": "国分寺市",
    "city_kana": "コクブンジシ",
    "town": "西元町",
    "town_kana": "ニシモトマチ",
    "street": null,
    "office_name": null,
    "office_name_kana": null
  },
  "0024": {
    "zip_code": "1850024",
    "prefecture": "東京都",
    "prefecture_kana": "トウキョウト",
    "prefecture_code": 13,
    "city": "国分寺市",
    "city_kana": "コクブンジシ",
    "town": "泉町",
    "town_kana": "イズミチョウ",
    "street": null,
    "office_name": null,
    "office_name_kana": null
  },
  "0031": {
    "zip_code": "1850031",
    "prefecture": "東京都",
    "prefecture_kana": "トウキョウト",
    "prefecture_code": 13,
    "city": "国分寺市",
    "city_kana": "コクブンジシ",
    "town": "富士本",
    "town_kana": "フジモト",
    "street": null,
    "office_name": null,
    "office_name_kana": null
  },
  "0032": {
    "zip_code": "1850032",
    "prefecture": "東京都",
    "prefecture_kana": "トウキョウト",
    "prefecture_code": 13,
    "city": "国分寺市",
    "city_kana": "コクブンジシ",
    "town": "日吉町",
    "town_kana": "ヒヨシチョウ",
    "street": null,
    "office_name": null,
    "office_name_kana": null
  },
  "0033": {
    "zip_code": "1850033",
    "prefecture": "東京都",
    "prefecture_kana": "トウキョウト",
    "prefecture_code": 13,
    "city": "国分寺市",
    "city_kana": "コクブンジシ",
    "town": "内藤",
    "town_kana": "ナイトウ",
    "street": null,
    "office_name": null,
    "office_name_kana": null
  },
  "0034": {
    "zip_code": "1850034",
    "prefecture": "東京都",
    "prefecture_kana": "トウキョウト",
    "prefecture_code": 13,
    "city": "国分寺市",
    "city_kana": "コクブンジシ",
    "town": "光町",
    "town_kana": "ヒカリチョウ",
    "street": null,
    "office_name": null,
    "office_name_kana": null
  },
  "0035": {
    "zip_code": "1850035",
    "prefecture": "東京都",
    "prefecture_kana": "トウキョウト",
    "prefecture_code": 13,
    "city": "国分寺市",
    "city_kana": "コクブンジシ",
    "town": "西町",
    "town_kana": "ニシマチ",
    "street": null,
    "office_name": null,
    "office_name_kana": null
  },
  "0036": {
    "zip_code": "1850036",
    "prefecture": "東京都",
    "prefecture_kana": "トウキョウト",
    "prefecture_code": 13,
    "city": "国分寺市",
    "city_kana": "コクブンジシ",
    "town": "高木町",
    "town_kana": "タカギチョウ",
    "street": null,
    "office_name": null,
    "office_name_kana": null
  },
  "8501": {
    "zip_code": "1858501",
    "prefecture": "東京都",
    "prefecture_kana": "トウキョウト",
    "prefecture_code": 13,
    "city": "国分寺市",
    "city_kana": "コクブンジシ",
    "town": "戸倉",
    "town_kana": "トクラ",
    "street": "１丁目６−１",
    "office_name": "国分寺市役所",
    "office_name_kana": "コクブンジシヤクシヨ"
  },
  "8502": {
    "zip_code": "1858502",
    "prefecture": "東京都",
    "prefecture_kana": "トウキョウト",
    "prefecture_code": 13,
    "city": "国分寺市",
    "city_kana": "コクブンジシ",
    "town": "南町",
    "town_kana": "ミナミチョウ",
    "street": "１丁目７",
    "office_name": "東京経済大学",
    "office_name_kana": "トウキヨウケイザイダイガク"
  },
  "8506": {
    "zip_code": "1858506",
    "prefecture": "東京都",
    "prefecture_kana": "トウキョウト",
    "prefecture_code": 13,
    "city": "国分寺市",
    "city_kana": "コクブンジシ",
    "town": "本町",
    "town_kana": "ホンチョウ",
    "street": "１丁目２−１",
    "office_name": "早稲田大学系属　早稲田実業学校　初等部",
    "office_name_kana": "ワセダダイガクケイゾク ワセダジツギヨウガツコウ シヨトウブ"
  },
  "8510": {
    "zip_code": "1858510",
    "prefecture": "東京都",
    "prefecture_kana": "トウキョウト",
    "prefecture_code": 13,
    "city": "国分寺市",
    "city_kana": "コクブンジシ",
    "town": "光町",
    "town_kana": "ヒカリチョウ",
    "street": "１丁目４７−４",
    "office_name": "鉄道情報システム　株式会社",
    "office_name_kana": "テツドウジヨウホウシステム カブシキガイシヤ"
  },
  "8511": {
    "zip_code": "1858511",
    "prefecture": "東京都",
    "prefecture_kana": "トウキョウト",
    "prefecture_code": 13,
    "city": "国分寺市",
    "city_kana": "コクブンジシ",
    "town": "戸倉",
    "town_kana": "トクラ",
    "street": "１丁目１５−１",
    "office_name": "農林水産省動物医薬品検査所",
    "office_name_kana": "ノウリンスイサンシヨウドウブツイヤクヒンケンサジヨ"
  },
  "8520": {
    "zip_code": "1858520",
    "prefecture": "東京都",
    "prefecture_kana": "トウキョウト",
    "prefecture_code": 13,
    "city": "国分寺市",
    "city_kana": "コクブンジシ",
    "town": "泉町",
    "town_kana": "イズミチョウ",
    "street": "２−２−２６",
    "office_name": "東京都立多摩図書館",
    "office_name_kana": "トウキヨウトリツタマトシヨカン"
  },
  "8533": {
    "zip_code": "1858533",
    "prefecture": "東京都",
    "prefecture_kana": "トウキョウト",
    "prefecture_code": 13,
    "city": "国分寺市",
    "city_kana": "コクブンジシ",
    "town": "東元町",
    "town_kana": "ヒガシモトマチ",
    "street": "３丁目２０−４１",
    "office_name": "リオン　株式会社",
    "office_name_kana": "リオン カブシキガイシヤ"
  },
  "8540": {
    "zip_code": "1858540",
    "prefecture": "東京都",
    "prefecture_kana": "トウキョウト",
    "prefecture_code": 13,
    "city": "国分寺市",
    "city_kana": "コクブンジシ",
    "town": "光町",
    "town_kana": "ヒカリチョウ",
    "street": "２丁目８番地３８",
    "office_name": "財団法人　鉄道総合技術研究所",
    "office_name_kana": "ザイダンホウジン テツドウソウゴウギジユツケンキユウジヨ"
  },
  "8562": {
    "zip_code": "1858562",
    "prefecture": "東京都",
    "prefecture_kana": "トウキョウト",
    "prefecture_code": 13,
    "city": "国分寺市",
    "city_kana": "コクブンジシ",
    "town": "南町",
    "town_kana": "ミナミチョウ",
    "street": "３丁目２０−３",
    "office_name": "株式会社　丸井　マルイファミリー国分寺",
    "office_name_kana": "カブシキカイシヤ マルイ マルイフアミリ-コクブンジ"
  },
  "8567": {
    "zip_code": "1858567",
    "prefecture": "東京都",
    "prefecture_kana": "トウキョウト",
    "prefecture_code": 13,
    "city": "国分寺市",
    "city_kana": "コクブンジシ",
    "town": "本多",
    "town_kana": "ホンダ",
    "street": "１丁目１０−１４",
    "office_name": "ダイトエレクトロン　株式会社　商品仕入部　東京センター",
    "office_name_kana": "ダイトエレクトロン カブシキガイシヤ シヨウヒンシイレブ トウキヨウセンタ-"
  },
  "8601": {
    "zip_code": "1858601",
    "prefecture": "東京都",
    "prefecture_kana": "トウキョウト",
    "prefecture_code": 13,
    "city": "国分寺市",
    "city_kana": "コクブンジシ",
    "town": "東恋ケ窪",
    "town_kana": "ヒガシコイガクボ",
    "street": "１丁目２８０（国分寺郵便局私書箱第２号）",
    "office_name": "株式会社　日立製作所　中央研究所",
    "office_name_kana": "カブシキガイシヤ ヒタチセイサクシヨ チユウオウケンキユウシヨ"
  },
  "8795": {
    "zip_code": "1858795",
    "prefecture": "東京都",
    "prefecture_kana": "トウキョウト",
    "prefecture_code": 13,
    "city": "国分寺市",
    "city_kana": "コクブンジシ",
    "town": "泉町",
    "town_kana": "イズミチョウ",
    "street": "２丁目１１−１６",
    "office_name": "情報通信政策研究所",
    "office_name_kana": "ジヨウホウツウシンセイサクケンキユウジヨ"
  }
}