{
  "0000": {
    "zip_code": "1870000",
    "prefecture": "東京都",
    "prefecture_kana": "トウキョウト",
    "prefecture_code": 13,
    "city": "小平市",
    "city_kana": "コダイラシ",
    "town": "",
    "town_kana": "",
    "street": null,
    "office_name": null,
    "office_name_kana": null
  },
  "0001": {
    "zip_code": "1870001",
    "prefecture": "東京都",
    "prefecture_kana": "トウキョウト",
    "prefecture_code": 13,
    "city": "小平市",
    "city_kana": "コダイラシ",
    "town": "大沼町",
    "town_kana": "オオヌマチョウ",
    "street": null,
    "office_name": null,
    "office_name_kana": null
  },
  "0002": {
    "zip_code": "1870002",
    "prefecture": "東京都",
    "prefecture_kana": "トウキョウト",
    "prefecture_code": 13,
    "city": "小平市",
    "city_kana": "コダイラシ",
    "town": "花小金井",
    "town_kana": "ハナコガネイ",
    "street": null,
    "office_name": null,
    "office_name_kana": null
  },
  "0003": {
    "zip_code": "1870003",
    "prefecture": "東京都",
    "prefecture_kana": "トウキョウト",
    "prefecture_code": 13,
    "city": "小平市",
    "city_kana": "コダイラシ",
    "town": "花小金井南町",
    "town_kana": "ハナコガネイミナミチョウ",
    "street": null,
    "office_name": null,
    "office_name_kana": null
  },
  "0004": {
    "zip_code": "1870004",
    "prefecture": "東京都",
    "prefecture_kana": "トウキョウト",
    "prefecture_code": 13,
    "city": "小平市",
    "city_kana": "コダイラシ",
    "town": "天神町",
    "town_kana": "テンジンチョウ",
    "street": null,
    "office_name": null,
    "office_name_kana": null
  },
  "0011": {
    "zip_code": "1870011",
    "prefecture": "東京都",
    "prefecture_kana": "トウキョウト",
    "prefecture_code": 13,
    "city": "小平市",
    "city_kana": "コダイラシ",
    "town": "鈴木町",
    "town_kana": "スズキチョウ",
    "street": null,
    "office_name": null,
    "office_name_kana": null
  },
  "0012": {
    "zip_code": "1870012",
    "prefecture": "東京都",
    "prefecture_kana": "トウキョウト",
    "prefecture_code": 13,
    "city": "小平市",
    "city_kana": "コダイラシ",
    "town": "御幸町",
    "town_kana": "ミユキチョウ",
    "street": null,
    "office_name": null,
    "office_name_kana": null
  },
  "0013": {
    "zip_code": "1870013",
    "prefecture": "東京都",
    "prefecture_kana": "トウキョウト",
    "prefecture_code": 13,
    "city": "小平市",
    "city_kana": "コダイラシ",
    "town": "回田町",
    "town_kana": "メグリタチョウ",
    "street": null,
    "office_name": null,
    "office_name_kana": null
  },
  "0021": {
    "zip_code": "1870021",
    "prefecture": "東京都",
    "prefecture_kana": "トウキョウト",
    "prefecture_code": 13,
    "city": "小平市",
    "city_kana": "コダイラシ",
    "town": "上水南町",
    "town_kana": "ジョウスイミナミチョウ",
    "street": null,
    "office_name": null,
    "office_name_kana": null
  },
  "0022": {
    "zip_code": "1870022",
    "prefecture": "東京都",
    "prefecture_kana": "トウキョウト",
    "prefecture_code": 13,
    "city": "小平市",
    "city_kana": "コダイラシ",
    "town": "上水本町",
    "town_kana": "ジョウスイホンチョウ",
    "street": null,
    "office_name": null,
    "office_name_kana": null
  },
  "0023": {
    "zip_code": "1870023",
    "prefecture": "東京都",
    "prefecture_kana": "トウキョウト",
    "prefecture_code": 13,
    "city": "小平市",
    "city_kana": "コダイラシ",
    "town": "上水新町",
    "town_kana": "ジョウスイシンマチ",
    "street": null,
    "office_name": null,
    "office_name_kana": null
  },
  "0024": {
    "zip_code": "1870024",
    "prefecture": "東京都",
    "prefecture_kana": "トウキョウト",
    "prefecture_code": 13,
    "city": "小平市",
    "city_kana": "コダイラシ",
    "town": "たかの台",
    "town_kana": "タカノダイ",
    "street": null,
    "office_name": null,
    "office_name_kana": null
  },
  "0025": {
    "zip_code": "1870025",
    "prefecture": "東京都",
    "prefecture_kana": "トウキョウト",
    "prefecture_code": 13,
    "city": "小平市",
    "city_kana": "コダイラシ",
    "town": "津田町",
    "town_kana": "ツダマチ",
    "street": null,
    "office_name": null,
    "office_name_kana": null
  },
  "0031": {
    "zip_code": "1870031",
    "prefecture": "東京都",
    "prefecture_kana": "トウキョウト",
    "prefecture_code": 13,
    "city": "小平市",
    "city_kana": "コダイラシ",
    "town": "小川東町",
    "town_kana": "オガワヒガシチョウ",
    "street": null,
    "office_name": null,
    "office_name_kana": null
  },
  "0032": {
    "zip_code": "1870032",
    "prefecture": "東京都",
    "prefecture_kana": "トウキョウト",
    "prefecture_code": 13,
    "city": "小平市",
    "city_kana": "コダイラシ",
    "town": "小川町",
    "town_kana": "オガワチョウ",
    "street": null,
    "office_name": null,
    "office_name_kana": null
  },
  "0033": {
    "zip_code": "1870033",
    "prefecture": "東京都",
    "prefecture_kana": "トウキョウト",
    "prefecture_code": 13,
    "city": "小平市",
    "city_kana": "コダイラシ",
    "town": "中島町",
    "town_kana": "ナカジマチョウ",
    "street": null,
    "office_name": null,
    "office_name_kana": null
  },
  "0034": {
    "zip_code": "1870034",
    "prefecture": "東京都",
    "prefecture_kana": "トウキョウト",
    "prefecture_code": 13,
    "city": "小平市",
    "city_kana": "コダイラシ",
    "town": "栄町",
    "town_kana": "サカエチョウ",
    "street": null,
    "office_name": null,
    "office_name_kana": null
  },
  "0035": {
    "zip_code": "1870035",
    "prefecture": "東京都",
    "prefecture_kana": "トウキョウト",
    "prefecture_code": 13,
    "city": "小平市",
    "city_kana": "コダイラシ",
    "town": "小川西町",
    "town_kana": "オガワニシマチ",
    "street": null,
    "office_name": null,
    "office_name_kana": null
  },
  "0041": {
    "zip_code": "1870041",
    "prefecture": "東京都",
    "prefecture_kana": "トウキョウト",
    "prefecture_code": 13,
    "city": "小平市",
    "city_kana": "コダイラシ",
    "town": "美園町",
    "town_kana": "ミソノチョウ",
    "street": null,
    "office_name": null,
    "office_name_kana": null
  },
  "0042": {
    "zip_code": "1870042",
    "prefecture": "東京都",
    "prefecture_kana": "トウキョウト",
    "prefecture_code": 13,
    "city": "小平市",
    "city_kana": "コダイラシ",
    "town": "仲町",
    "town_kana": "ナカマチ",
    "street": null,
    "office_name": null,
    "office_name_kana": null
  },
  "0043": {
    "zip_code": "1870043",
    "prefecture": "東京都",
    "prefecture_kana": "トウキョウト",
    "prefecture_code": 13,
    "city": "小平市",
    "city_kana": "コダイラシ",
    "town": "学園東町",
    "town_kana": "ガクエンヒガシチョウ",
    "street": null,
    "office_name": null,
    "office_name_kana": null
  },
  "0044": {
    "zip_code": "1870044",
    "prefecture": "東京都",
    "prefecture_kana": "トウキョウト",
    "prefecture_code": 13,
    "city": "小平市",
    "city_kana": "コダイラシ",
    "town": "喜平町",
    "town_kana": "キヘイチョウ",
    "street": null,
    "office_name": null,
    "office_name_kana": null
  },
  "0045": {
    "zip_code": "1870045",
    "prefecture": "東京都",
    "prefecture_kana": "トウキョウト",
    "prefecture_code": 13,
    "city": "小平市",
    "city_kana": "コダイラシ",
    "town": "学園西町",
    "town_kana": "ガクエンニシマチ",
    "street": null,
    "office_name": null,
    "office_name_kana": null
  },
  "8502": {
    "zip_code": "1878502",
    "prefecture": "東京都",
    "prefecture_kana": "トウキョウト",
    "prefecture_code": 13,
    "city": "小平市",
    "city_kana": "コダイラシ",
    "town": "小川東町",
    "town_kana": "オガワヒガシチョウ",
    "street": "４丁目１−１",
    "office_name": "国立精神・神経医療研究センター　神経研究所",
    "office_name_kana": "コクリツセイシン・シンケイイリヨウケンキユウセンタ- シンケイケンキユウジヨ"
  },
  "8503": {
    "zip_code": "1878503",
    "prefecture": "東京都",
    "prefecture_kana": "トウキョウト",
    "prefecture_code": 13,
    "city": "小平市",
    "city_kana": "コダイラシ",
    "town": "小川東町",
    "town_kana": "オガワヒガシチョウ",
    "street": "５丁目７−１０",
    "office_name": "わらべや日洋　株式会社",
    "office_name_kana": "ワラベヤニチヨウ カブシキガイシヤ"
  },
  "8505": {
    "zip_code": "1878505",
    "prefecture": "東京都",
    "prefecture_kana": "トウキョウト",
    "prefecture_code": 13,
    "city": "小平市",
    "city_kana": "コダイラシ",
    "town": "小川町",
    "town_kana": "オガワチョウ",
    "street": "１丁目７３６",
    "office_name": "武蔵野美術大学",
    "office_name_kana": "ムサシノビジユツダイガク"
  },
  "8507": {
    "zip_code": "1878507",
    "prefecture": "東京都",
    "prefecture_kana": "トウキョウト",
    "prefecture_code": 13,
    "city": "小平市",
    "city_kana": "コダイラシ",
    "town": "仲町",
    "town_kana": "ナカマチ",
    "street": "５２２",
    "office_name": "有限会社　鈴木園",
    "office_name_kana": "ユウゲンガイシヤ スズキエン"
  },
  "8510": {
    "zip_code": "1878510",
    "prefecture": "東京都",
    "prefecture_kana": "トウキョウト",
    "prefecture_code": 13,
    "city": "小平市",
    "city_kana": "コダイラシ",
    "town": "花小金井",
    "town_kana": "ハナコガネイ",
    "street": "８−１−１",
    "office_name": "公立昭和病院",
    "office_name_kana": "コウリツシヨウワビヨウイン"
  },
  "8511": {
    "zip_code": "1878511",
    "prefecture": "東京都",
    "prefecture_kana": "トウキョウト",
    "prefecture_code": 13,
    "city": "小平市",
    "city_kana": "コダイラシ",
    "town": "御幸町",
    "town_kana": "ミユキチョウ",
    "street": "３２",
    "office_name": "株式会社　日立国際電気",
    "office_name_kana": "カブシキガイシヤ ヒタチコクサイデンキ"
  },
  "8512": {
    "zip_code": "1878512",
    "prefecture": "東京都",
    "prefecture_kana": "トウキョウト",
    "prefecture_code": 13,
    "city": "小平市",
    "city_kana": "コダイラシ",
    "town": "回田町",
    "town_kana": "メグリタチョウ",
    "street": "３９３",
    "office_name": "株式会社　日立国際八木ソリューションズ",
    "office_name_kana": "カブシキガイシヤ ヒタチコクサイヤギソリユ-シヨンズ"
  },
  "8518": {
    "zip_code": "1878518",
    "prefecture": "東京都",
    "prefecture_kana": "トウキョウト",
    "prefecture_code": 13,
    "city": "小平市",
    "city_kana": "コダイラシ",
    "town": "小川町",
    "town_kana": "オガワチョウ",
    "street": "２丁目１８２７",
    "office_name": "東京むさし農業共同組合　小平支店",
    "office_name_kana": "トウキヨウムサシノウギヨウキヨウドウクミアイ コダイラシテン"
  },
  "8520": {
    "zip_code": "1878520",
    "prefecture": "東京都",
    "prefecture_kana": "トウキョウト",
    "prefecture_code": 13,
    "city": "小平市",
    "city_kana": "コダイラシ",
    "town": "喜平町",
    "town_kana": "キヘイチョウ",
    "street": "２丁目２−１",
    "office_name": "国土交通省　国土交通大学校",
    "office_name_kana": "コクドコウツウシヨウ コクドコウツウダイガツコウ"
  },
  "8522": {
    "zip_code": "1878522",
    "prefecture": "東京都",
    "prefecture_kana": "トウキョウト",
    "prefecture_code": 13,
    "city": "小平市",
    "city_kana": "コダイラシ",
    "town": "上水本町",
    "town_kana": "ジョウスイホンチョウ",
    "street": "５丁目２２−１",
    "office_name": "株式会社　日立超ＬＳＩシステムズ",
    "office_name_kana": "カブシキガイシヤ ヒタチチヨウエルエスアイシステムズ"
  },
  "8531": {
    "zip_code": "1878531",
    "prefecture": "東京都",
    "prefecture_kana": "トウキョウト",
    "prefecture_code": 13,
    "city": "小平市",
    "city_kana": "コダイラシ",
    "town": "小川東町",
    "town_kana": "オガワヒガシチョウ",
    "street": "３丁目１−１",
    "office_name": "株式会社　ブリヂストン　東京工場",
    "office_name_kana": "カブシキガイシヤ ブリヂストン トウキヨウコウジヨウ"
  },
  "8533": {
    "zip_code": "1878533",
    "prefecture": "東京都",
    "prefecture_kana": "トウキョウト",
    "prefecture_code": 13,
    "city": "小平市",
    "city_kana": "コダイラシ",
    "town": "花小金井",
    "town_kana": "ハナコガネイ",
    "street": "１丁目６−２０",
    "office_name": "東京都小平都税支所",
    "office_name_kana": "トウキヨウトコダイラトゼイシシヨ"
  },
  "8540": {
    "zip_code": "1878540",
    "prefecture": "東京都",
    "prefecture_kana": "トウキョウト",
    "prefecture_code": 13,
    "city": "小平市",
    "city_kana": "コダイラシ",
    "town": "喜平町",
    "town_kana": "キヘイチョウ",
    "street": "２丁目１−２",
    "office_name": "財団法人　全国建設研修センター",
    "office_name_kana": "ザイダンホウジン ゼンコクケンセツケンシユウ"
  },
  "8551": {
    "zip_code": "1878551",
    "prefecture": "東京都",
    "prefecture_kana": "トウキョウト",
    "prefecture_code": 13,
    "city": "小平市",
    "city_kana": "コダイラシ",
    "town": "小川東町",
    "town_kana": "オガワヒガシチョウ",
    "street": "４丁目１−１",
    "office_name": "国立精神・神経医療研究センター",
    "office_name_kana": "コクリツセイシン・シンケイイリヨウケンキユウセンタ-"
  },
  "8553": {
    "zip_code": "1878553",
    "prefecture": "東京都",
    "prefecture_kana": "トウキョウト",
    "prefecture_code": 13,
    "city": "小平市",
    "city_kana": "コダイラシ",
    "town": "小川東町",
    "town_kana": "オガワヒガシチョウ",
    "street": "４丁目１−１",
    "office_name": "国立精神・神経医療研究センター　精神保健研究所",
    "office_name_kana": "コクリツセイシン・シンケイイリヨウケンキユウセンタ- セイシンホケンケンキユウシヨ"
  },
  "8555": {
    "zip_code": "1878555",
    "prefecture": "東京都",
    "prefecture_kana": "トウキョウト",
    "prefecture_code": 13,
    "city": "小平市",
    "city_kana": "コダイラシ",
    "town": "小川町",
    "town_kana": "オガワチョウ",
    "street": "２丁目１２６５−１",
    "office_name": "警視庁　小平警察署",
    "office_name_kana": "ケイシチヨウ コダイラケイサツシヨ"
  },
  "8558": {
    "zip_code": "1878558",
    "prefecture": "東京都",
    "prefecture_kana": "トウキョウト",
    "prefecture_code": 13,
    "city": "小平市",
    "city_kana": "コダイラシ",
    "town": "喜平町",
    "town_kana": "キヘイチョウ",
    "street": "１丁目１０−７",
    "office_name": "株式会社　コバヤシ",
    "office_name_kana": "カブシキガイシヤ コバヤシ"
  },
  "8560": {
    "zip_code": "1878560",
    "prefecture": "東京都",
    "prefecture_kana": "トウキョウト",
    "prefecture_code": 13,
    "city": "小平市",
    "city_kana": "コダイラシ",
    "town": "小川町",
    "town_kana": "オガワチョウ",
    "street": "１丁目７００",
    "office_name": "学校法人　東京朝鮮学園　朝鮮大学校",
    "office_name_kana": "ガツコウホウジン トウキヨウチヨウセンガクエン チヨウセンダイガツコウ"
  },
  "8567": {
    "zip_code": "1878567",
    "prefecture": "東京都",
    "prefecture_kana": "トウキョウト",
    "prefecture_code": 13,
    "city": "小平市",
    "city_kana": "コダイラシ",
    "town": "天神町",
    "town_kana": "テンジンチョウ",
    "street": "１丁目１６１",
    "office_name": "株式会社　小泉　多摩本社",
    "office_name_kana": "カブシキガイシヤ コイズミ タマホンシヤ"
  },
  "8570": {
    "zip_code": "1878570",
    "prefecture": "東京都",
    "prefecture_kana": "トウキョウト",
    "prefecture_code": 13,
    "city": "小平市",
    "city_kana": "コダイラシ",
    "town": "小川町",
    "town_kana": "オガワチョウ",
    "street": "１丁目８３０",
    "office_name": "学校法人　白梅学園",
    "office_name_kana": "ガツコウホウジン シラウメガクエン"
  },
  "8577": {
    "zip_code": "1878577",
    "prefecture": "東京都",
    "prefecture_kana": "トウキョウト",
    "prefecture_code": 13,
    "city": "小平市",
    "city_kana": "コダイラシ",
    "town": "津田町",
    "town_kana": "ツダマチ",
    "street": "２丁目１−１",
    "office_name": "学校法人　津田塾大学",
    "office_name_kana": "ガツコウホウジン ツダジユクダイガク"
  },
  "8578": {
    "zip_code": "1878578",
    "prefecture": "東京都",
    "prefecture_kana": "トウキョウト",
    "prefecture_code": 13,
    "city": "小平市",
    "city_kana": "コダイラシ",
    "town": "花小金井南町",
    "town_kana": "ハナコガネイミナミチョウ",
    "street": "２丁目８−４",
    "office_name": "嘉悦大学",
    "office_name_kana": "カエツダイガク"
  },
  "8581": {
    "zip_code": "1878581",
    "prefecture": "東京都",
    "prefecture_kana": "トウキョウト",
    "prefecture_code": 13,
    "city": "小平市",
    "city_kana": "コダイラシ",
    "town": "上水本町",
    "town_kana": "ジョウスイホンチョウ",
    "street": "２丁目１１−３０",
    "office_name": "株式会社　紙叶",
    "office_name_kana": "カブシキガイシヤ カミカノウ"
  },
  "8585": {
    "zip_code": "1878585",
    "prefecture": "東京都",
    "prefecture_kana": "トウキョウト",
    "prefecture_code": 13,
    "city": "小平市",
    "city_kana": "コダイラシ",
    "town": "小川西町",
    "town_kana": "オガワニシマチ",
    "street": "２丁目３５−１",
    "office_name": "財団法人　多摩緑成会",
    "office_name_kana": "ザイダンホウジン タマリヨクセイカイ"
  },
  "8587": {
    "zip_code": "1878587",
    "prefecture": "東京都",
    "prefecture_kana": "トウキョウト",
    "prefecture_code": 13,
    "city": "小平市",
    "city_kana": "コダイラシ",
    "town": "学園西町",
    "town_kana": "ガクエンニシマチ",
    "street": "１丁目２９−１",
    "office_name": "大学評価・学位授与機構",
    "office_name_kana": "ダイガクヒヨウカ・ガクイジユヨキコウ"
  },
  "8588": {
    "zip_code": "1878588",
    "prefecture": "東京都",
    "prefecture_kana": "トウキョウト",
    "prefecture_code": 13,
    "city": "小平市",
    "city_kana": "コダイラシ",
    "town": "上水本町",
    "town_kana": "ジョウスイホンチョウ",
    "street": "５丁目２０−１",
    "office_name": "株式会社　ルネサスエレクトロニクス　武蔵事業所",
    "office_name_kana": "カブシキガイシヤ ルネサスエレクトロニクス ムサシジギヨウシヨ"
  },
  "8611": {
    "zip_code": "1878611",
    "prefecture": "東京都",
    "prefecture_kana": "トウキョウト",
    "prefecture_code": 13,
    "city": "小平市",
    "city_kana": "コダイラシ",
    "town": "小川東町",
    "town_kana": "オガワヒガシチョウ",
    "street": "３丁目６−１",
    "office_name": "第一屋製パン　株式会社",
    "office_name_kana": "ダイイチヤセイパン カブシキガイシヤ"
  },
  "8701": {
    "zip_code": "1878701",
    "prefecture": "東京都",
    "prefecture_kana": "トウキョウト",
    "prefecture_code": 13,
    "city": "小平市",
    "city_kana": "コダイラシ",
    "town": "小川町",
    "town_kana": "オガワチョウ",
    "street": "２丁目１３３３（小平郵便局私書箱第９号）",
    "office_name": "小平市役所",
    "office_name_kana": "コダイラシヤクシヨ"
  }
}