{
  "0000": {
    "zip_code": "1910000",
    "prefecture": "東京都",
    "prefecture_kana": "トウキョウト",
    "prefecture_code": 13,
    "city": "日野市",
    "city_kana": "ヒノシ",
    "town": "",
    "town_kana": "",
    "street": null,
    "office_name": null,
    "office_name_kana": null
  },
  "0001": {
    "zip_code": "1910001",
    "prefecture": "東京都",
    "prefecture_kana": "トウキョウト",
    "prefecture_code": 13,
    "city": "日野市",
    "city_kana": "ヒノシ",
    "town": "栄町",
    "town_kana": "サカエマチ",
    "street": null,
    "office_name": null,
    "office_name_kana": null
  },
  "0002": {
    "zip_code": "1910002",
    "prefecture": "東京都",
    "prefecture_kana": "トウキョウト",
    "prefecture_code": 13,
    "city": "日野市",
    "city_kana": "ヒノシ",
    "town": "新町",
    "town_kana": "シンマチ",
    "street": null,
    "office_name": null,
    "office_name_kana": null
  },
  "0003": {
    "zip_code": "1910003",
    "prefecture": "東京都",
    "prefecture_kana": "トウキョウト",
    "prefecture_code": 13,
    "city": "日野市",
    "city_kana": "ヒノシ",
    "town": "日野台",
    "town_kana": "ヒノダイ",
    "street": null,
    "office_name": null,
    "office_name_kana": null
  },
  "0011": {
    "zip_code": "1910011",
    "prefecture": "東京都",
    "prefecture_kana": "トウキョウト",
    "prefecture_code": 13,
    "city": "日野市",
    "city_kana": "ヒノシ",
    "town": "日野本町",
    "town_kana": "ヒノホンマチ",
    "street": null,
    "office_name": null,
    "office_name_kana": null
  },
  "0012": {
    "zip_code": "1910012",
    "prefecture": "東京都",
    "prefecture_kana": "トウキョウト",
    "prefecture_code": 13,
    "city": "日野市",
    "city_kana": "ヒノシ",
    "town": "日野",
    "town_kana": "ヒノ",
    "street": null,
    "office_name": null,
    "office_name_kana": null
  },
  "0013": {
    "zip_code": "1910013",
    "prefecture": "東京都",
    "prefecture_kana": "トウキョウト",
    "prefecture_code": 13,
    "city": "日野市",
    "city_kana": "ヒノシ",
    "town": "宮",
    "town_kana": "ミヤ",
    "street": null,
    "office_name": null,
    "office_name_kana": null
  },
  "0014": {
    "zip_code": "1910014",
    "prefecture": "東京都",
    "prefecture_kana": "トウキョウト",
    "prefecture_code": 13,
    "city": "日野市",
    "city_kana": "ヒノシ",
    "town": "上田",
    "town_kana": "カミダ",
    "street": null,
    "office_name": null,
    "office_name_kana": null
  },
  "0015": {
    "zip_code": "1910015",
    "prefecture": "東京都",
    "prefecture_kana": "トウキョウト",
    "prefecture_code": 13,
    "city": "日野市",
    "city_kana": "ヒノシ",
    "town": "川辺堀之内",
    "town_kana": "カワベホリノウチ",
    "street": null,
    "office_name": null,
    "office_name_kana": null
  },
  "0016": {
    "zip_code": "1910016",
    "prefecture": "東京都",
    "prefecture_kana": "トウキョウト",
    "prefecture_code": 13,
    "city": "日野市",
    "city_kana": "ヒノシ",
    "town": "神明",
    "town_kana": "シンメイ",
    "street": null,
    "office_name": null,
    "office_name_kana": null
  },
  "0021": {
    "zip_code": "1910021",
    "prefecture": "東京都",
    "prefecture_kana": "トウキョウト",
    "prefecture_code": 13,
    "city": "日野市",
    "city_kana": "ヒノシ",
    "town": "石田",
    "town_kana": "イシダ",
    "street": null,
    "office_name": null,
    "office_name_kana": null
  },
  "0022": {
    "zip_code": "1910022",
    "prefecture": "東京都",
    "prefecture_kana": "トウキョウト",
    "prefecture_code": 13,
    "city": "日野市",
    "city_kana": "ヒノシ",
    "town": "新井",
    "town_kana": "アライ",
    "street": null,
    "office_name": null,
    "office_name_kana": null
  },
  "0023": {
    "zip_code": "1910023",
    "prefecture": "東京都",
    "prefecture_kana": "トウキョウト",
    "prefecture_code": 13,
    "city": "日野市",
    "city_kana": "ヒノシ",
    "town": "下田",
    "town_kana": "シモダ",
    "street": null,
    "office_name": null,
    "office_name_kana": null
  },
  "0024": {
    "zip_code": "1910024",
    "prefecture": "東京都",
    "prefecture_kana": "トウキョウト",
    "prefecture_code": 13,
    "city": "日野市",
    "city_kana": "ヒノシ",
    "town": "万願寺",
    "town_kana": "マンガンジ",
    "street": null,
    "office_name": null,
    "office_name_kana": null
  },
  "0031": {
    "zip_code": "1910031",
    "prefecture": "東京都",
    "prefecture_kana": "トウキョウト",
    "prefecture_code": 13,
    "city": "日野市",
    "city_kana": "ヒノシ",
    "town": "高幡",
    "town_kana": "タカハタ",
    "street": null,
    "office_name": null,
    "office_name_kana": null
  },
  "0032": {
    "zip_code": "1910032",
    "prefecture": "東京都",
    "prefecture_kana": "トウキョウト",
    "prefecture_code": 13,
    "city": "日野市",
    "city_kana": "ヒノシ",
    "town": "三沢",
    "town_kana": "ミサワ",
    "street": null,
    "office_name": null,
    "office_name_kana": null
  },
  "0033": {
    "zip_code": "1910033",
    "prefecture": "東京都",
    "prefecture_kana": "トウキョウト",
    "prefecture_code": 13,
    "city": "日野市",
    "city_kana": "ヒノシ",
    "town": "百草",
    "town_kana": "モグサ",
    "street": null,
    "office_name": null,
    "office_name_kana": null
  },
  "0034": {
    "zip_code": "1910034",
    "prefecture": "東京都",
    "prefecture_kana": "トウキョウト",
    "prefecture_code": 13,
    "city": "日野市",
    "city_kana": "ヒノシ",
    "town": "落川",
    "town_kana": "オチカワ",
    "street": null,
    "office_name": null,
    "office_name_kana": null
  },
  "0041": {
    "zip_code": "1910041",
    "prefecture": "東京都",
    "prefecture_kana": "トウキョウト",
    "prefecture_code": 13,
    "city": "日野市",
    "city_kana": "ヒノシ",
    "town": "南平",
    "town_kana": "ミナミダイラ",
    "street": null,
    "office_name": null,
    "office_name_kana": null
  },
  "0042": {
    "zip_code": "1910042",
    "prefecture": "東京都",
    "prefecture_kana": "トウキョウト",
    "prefecture_code": 13,
    "city": "日野市",
    "city_kana": "ヒノシ",
    "town": "程久保",
    "town_kana": "ホドクボ",
    "street": null,
    "office_name": null,
    "office_name_kana": null
  },
  "0043": {
    "zip_code": "1910043",
    "prefecture": "東京都",
    "prefecture_kana": "トウキョウト",
    "prefecture_code": 13,
    "city": "日野市",
    "city_kana": "ヒノシ",
    "town": "平山",
    "town_kana": "ヒラヤマ",
    "street": null,
    "office_name": null,
    "office_name_kana": null
  },
  "0051": [
    {
      "zip_code": "1910051",
      "prefecture": "東京都",
      "prefecture_kana": "トウキョウト",
      "prefecture_code": 13,
      "city": "日野市",
      "city_kana": "ヒノシ",
      "town": "豊田",
      "town_kana": "トヨダ",
      "street": null,
      "office_name": null,
      "office_name_kana": null
    },
    {
      "zip_code": "1910051",
      "prefecture": "東京都",
      "prefecture_kana": "トウキョウト",
      "prefecture_code": 13,
      "city": "日野市",
      "city_kana": "ヒノシ",
      "town": "豊田大字",
      "town_kana": "トヨダオオアザ",
      "street": null,
      "office_name": null,
      "office_name_kana": null
    }
  ],
  "0052": {
    "zip_code": "1910052",
    "prefecture": "東京都",
    "prefecture_kana": "トウキョウト",
    "prefecture_code": 13,
    "city": "日野市",
    "city_kana": "ヒノシ",
    "town": "東豊田",
    "town_kana": "ヒガシトヨダ",
    "street": null,
    "office_name": null,
    "office_name_kana": null
  },
  "0053": {
    "zip_code": "1910053",
    "prefecture": "東京都",
    "prefecture_kana": "トウキョウト",
    "prefecture_code": 13,
    "city": "日野市",
    "city_kana": "ヒノシ",
    "town": "豊田",
    "town_kana": "トヨダ",
    "street": null,
    "office_name": null,
    "office_name_kana": null
  },
  "0054": {
    "zip_code": "1910054",
    "prefecture": "東京都",
    "prefecture_kana": "トウキョウト",
    "prefecture_code": 13,
    "city": "日野市",
    "city_kana": "ヒノシ",
    "town": "東平山",
    "town_kana": "ヒガシヒラヤマ",
    "street": null,
    "office_name": null,
    "office_name_kana": null
  },
  "0055": {
    "zip_code": "1910055",
    "prefecture": "東京都",
    "prefecture_kana": "トウキョウト",
    "prefecture_code": 13,
    "city": "日野市",
    "city_kana": "ヒノシ",
    "town": "西平山",
    "town_kana": "ニシヒラヤマ",
    "street": null,
    "office_name": null,
    "office_name_kana": null
  },
  "0061": {
    "zip_code": "1910061",
    "prefecture": "東京都",
    "prefecture_kana": "トウキョウト",
    "prefecture_code": 13,
    "city": "日野市",
    "city_kana": "ヒノシ",
    "town": "大坂上",
    "town_kana": "オオサカウエ",
    "street": null,
    "office_name": null,
    "office_name_kana": null
  },
  "0062": {
    "zip_code": "1910062",
    "prefecture": "東京都",
    "prefecture_kana": "トウキョウト",
    "prefecture_code": 13,
    "city": "日野市",
    "city_kana": "ヒノシ",
    "town": "多摩平",
    "town_kana": "タマダイラ",
    "street": null,
    "office_name": null,
    "office_name_kana": null
  },
  "0063": {
    "zip_code": "1910063",
    "prefecture": "東京都",
    "prefecture_kana": "トウキョウト",
    "prefecture_code": 13,
    "city": "日野市",
    "city_kana": "ヒノシ",
    "town": "さくら町",
    "town_kana": "サクラマチ",
    "street": null,
    "office_name": null,
    "office_name_kana": null
  },
  "0064": {
    "zip_code": "1910064",
    "prefecture": "東京都",
    "prefecture_kana": "トウキョウト",
    "prefecture_code": 13,
    "city": "日野市",
    "city_kana": "ヒノシ",
    "town": "富士町",
    "town_kana": "フジマチ",
    "street": null,
    "office_name": null,
    "office_name_kana": null
  },
  "0065": {
    "zip_code": "1910065",
    "prefecture": "東京都",
    "prefecture_kana": "トウキョウト",
    "prefecture_code": 13,
    "city": "日野市",
    "city_kana": "ヒノシ",
    "town": "旭が丘",
    "town_kana": "アサヒガオカ",
    "street": null,
    "office_name": null,
    "office_name_kana": null
  },
  "8501": {
    "zip_code": "1918501",
    "prefecture": "東京都",
    "prefecture_kana": null,
    "prefecture_code": null,
    "city": "日野市",
    "city_kana": null,
    "town": "大字日野",
    "town_kana": null,
    "street": "４２１−８",
    "office_name": "セイコーエプソン　株式会社",
    "office_name_kana": "セイコ-エプソン カブシキガイシヤ"
  },
  "8502": {
    "zip_code": "1918502",
    "prefecture": "東京都",
    "prefecture_kana": "トウキョウト",
    "prefecture_code": 13,
    "city": "日野市",
    "city_kana": "ヒノシ",
    "town": "富士町",
    "town_kana": "フジマチ",
    "street": "１",
    "office_name": "富士電機　株式会社　東京工場",
    "office_name_kana": "フジデンキ カブシキガイシヤ トウキヨウコウジヨウ"
  },
  "8503": {
    "zip_code": "1918503",
    "prefecture": "東京都",
    "prefecture_kana": "トウキョウト",
    "prefecture_code": 13,
    "city": "日野市",
    "city_kana": "ヒノシ",
    "town": "旭が丘",
    "town_kana": "アサヒガオカ",
    "street": "４丁目７−１２７",
    "office_name": "ＧＥヘルスケア・ジャパン　株式会社",
    "office_name_kana": "ジ-イ-ヘルスケア・ジヤパン カブシキガイシヤ"
  },
  "8505": {
    "zip_code": "1918505",
    "prefecture": "東京都",
    "prefecture_kana": "トウキョウト",
    "prefecture_code": 13,
    "city": "日野市",
    "city_kana": "ヒノシ",
    "town": "多摩平",
    "town_kana": "タマダイラ",
    "street": "１丁目６−３ＴＫビル１Ｆ",
    "office_name": "ユアサ商事　（株）　西関東営業所",
    "office_name_kana": "ユアサシヨウジ (カブ) ニシカントウエイギヨウシヨ"
  },
  "8506": {
    "zip_code": "1918506",
    "prefecture": "東京都",
    "prefecture_kana": "トウキョウト",
    "prefecture_code": 13,
    "city": "日野市",
    "city_kana": "ヒノシ",
    "town": "程久保",
    "town_kana": "ホドクボ",
    "street": "２丁目１−１",
    "office_name": "明星大学",
    "office_name_kana": "メイセイダイガク"
  },
  "8507": {
    "zip_code": "1918507",
    "prefecture": "東京都",
    "prefecture_kana": "トウキョウト",
    "prefecture_code": 13,
    "city": "日野市",
    "city_kana": "ヒノシ",
    "town": "百草",
    "town_kana": "モグサ",
    "street": "４６０",
    "office_name": "東京電力　株式会社　総合研修センター",
    "office_name_kana": "トウキヨウデンリヨク カブシキガイシヤ ソウゴウケンシユウセンタ-"
  },
  "8509": {
    "zip_code": "1918509",
    "prefecture": "東京都",
    "prefecture_kana": "トウキョウト",
    "prefecture_code": 13,
    "city": "日野市",
    "city_kana": "ヒノシ",
    "town": "旭が丘",
    "town_kana": "アサヒガオカ",
    "street": "３丁目５−１",
    "office_name": "ファナック　株式会社",
    "office_name_kana": "フアナツク カブシキガイシヤ"
  },
  "8510": {
    "zip_code": "1918510",
    "prefecture": "東京都",
    "prefecture_kana": "トウキョウト",
    "prefecture_code": 13,
    "city": "日野市",
    "city_kana": "ヒノシ",
    "town": "大坂上",
    "town_kana": "オオサカウエ",
    "street": "４丁目１−１",
    "office_name": "実践女子大学",
    "office_name_kana": "ジツセンジヨシダイガク"
  },
  "8511": {
    "zip_code": "1918511",
    "prefecture": "東京都",
    "prefecture_kana": "トウキョウト",
    "prefecture_code": 13,
    "city": "日野市",
    "city_kana": "ヒノシ",
    "town": "さくら町",
    "town_kana": "サクラマチ",
    "street": "１",
    "office_name": "コニカミノルタ　東京サイト日野",
    "office_name_kana": "コニカミノルタ トウキヨウサイトヒノ"
  },
  "8512": {
    "zip_code": "1918512",
    "prefecture": "東京都",
    "prefecture_kana": "トウキョウト",
    "prefecture_code": 13,
    "city": "日野市",
    "city_kana": "ヒノシ",
    "town": "旭が丘",
    "town_kana": "アサヒガオカ",
    "street": "４丁目３−２",
    "office_name": "帝人株式会社　東京研究センター",
    "office_name_kana": "テイジンカブシキガイシヤ トウキヨウケンキユウセンタ-"
  },
  "8520": {
    "zip_code": "1918520",
    "prefecture": "東京都",
    "prefecture_kana": "トウキョウト",
    "prefecture_code": 13,
    "city": "日野市",
    "city_kana": "ヒノシ",
    "town": "万願寺",
    "town_kana": "マンガンジ",
    "street": "６−３６−２",
    "office_name": "日野税務署",
    "office_name_kana": "ヒノゼイムシヨ"
  },
  "8660": {
    "zip_code": "1918660",
    "prefecture": "東京都",
    "prefecture_kana": "トウキョウト",
    "prefecture_code": 13,
    "city": "日野市",
    "city_kana": "ヒノシ",
    "town": "日野台",
    "town_kana": "ヒノダイ",
    "street": "３丁目１−１（日野郵便局私書箱第２号）",
    "office_name": "日野自動車　株式会社",
    "office_name_kana": "ヒノジドウシヤ カブシキガイシヤ"
  },
  "8686": {
    "zip_code": "1918686",
    "prefecture": "東京都",
    "prefecture_kana": "トウキョウト",
    "prefecture_code": 13,
    "city": "日野市",
    "city_kana": "ヒノシ",
    "town": "神明",
    "town_kana": "シンメイ",
    "street": "１丁目１２−１（日野郵便局私書箱第１１号）",
    "office_name": "日野市役所",
    "office_name_kana": "ヒノシヤクシヨ"
  }
}