{
  "0000": {
    "zip_code": "2010000",
    "prefecture": "東京都",
    "prefecture_kana": "トウキョウト",
    "prefecture_code": "13",
    "city": "狛江市",
    "city_kana": "コマエシ",
    "town": "",
    "town_kana": "",
    "street": null,
    "office_name": null,
    "office_name_kana": null
  },
  "0001": {
    "zip_code": "2010001",
    "prefecture": "東京都",
    "prefecture_kana": "トウキョウト",
    "prefecture_code": "13",
    "city": "狛江市",
    "city_kana": "コマエシ",
    "town": "西野川",
    "town_kana": "ニシノガワ",
    "street": null,
    "office_name": null,
    "office_name_kana": null
  },
  "0002": {
    "zip_code": "2010002",
    "prefecture": "東京都",
    "prefecture_kana": "トウキョウト",
    "prefecture_code": "13",
    "city": "狛江市",
    "city_kana": "コマエシ",
    "town": "東野川",
    "town_kana": "ヒガシノガワ",
    "street": null,
    "office_name": null,
    "office_name_kana": null
  },
  "0003": {
    "zip_code": "2010003",
    "prefecture": "東京都",
    "prefecture_kana": "トウキョウト",
    "prefecture_code": "13",
    "city": "狛江市",
    "city_kana": "コマエシ",
    "town": "和泉本町",
    "town_kana": "イズミホンチョウ",
    "street": null,
    "office_name": null,
    "office_name_kana": null
  },
  "0004": {
    "zip_code": "2010004",
    "prefecture": "東京都",
    "prefecture_kana": "トウキョウト",
    "prefecture_code": "13",
    "city": "狛江市",
    "city_kana": "コマエシ",
    "town": "岩戸北",
    "town_kana": "イワドキタ",
    "street": null,
    "office_name": null,
    "office_name_kana": null
  },
  "0005": {
    "zip_code": "2010005",
    "prefecture": "東京都",
    "prefecture_kana": "トウキョウト",
    "prefecture_code": "13",
    "city": "狛江市",
    "city_kana": "コマエシ",
    "town": "岩戸南",
    "town_kana": "イワドミナミ",
    "street": null,
    "office_name": null,
    "office_name_kana": null
  },
  "0011": {
    "zip_code": "2010011",
    "prefecture": "東京都",
    "prefecture_kana": "トウキョウト",
    "prefecture_code": "13",
    "city": "狛江市",
    "city_kana": "コマエシ",
    "town": "西和泉",
    "town_kana": "ニシイズミ",
    "street": null,
    "office_name": null,
    "office_name_kana": null
  },
  "0012": {
    "zip_code": "2010012",
    "prefecture": "東京都",
    "prefecture_kana": "トウキョウト",
    "prefecture_code": "13",
    "city": "狛江市",
    "city_kana": "コマエシ",
    "town": "中和泉",
    "town_kana": "ナカイズミ",
    "street": null,
    "office_name": null,
    "office_name_kana": null
  },
  "0013": {
    "zip_code": "2010013",
    "prefecture": "東京都",
    "prefecture_kana": "トウキョウト",
    "prefecture_code": "13",
    "city": "狛江市",
    "city_kana": "コマエシ",
    "town": "元和泉",
    "town_kana": "モトイズミ",
    "street": null,
    "office_name": null,
    "office_name_kana": null
  },
  "0014": {
    "zip_code": "2010014",
    "prefecture": "東京都",
    "prefecture_kana": "トウキョウト",
    "prefecture_code": "13",
    "city": "狛江市",
    "city_kana": "コマエシ",
    "town": "東和泉",
    "town_kana": "ヒガシイズミ",
    "street": null,
    "office_name": null,
    "office_name_kana": null
  },
  "0015": {
    "zip_code": "2010015",
    "prefecture": "東京都",
    "prefecture_kana": "トウキョウト",
    "prefecture_code": "13",
    "city": "狛江市",
    "city_kana": "コマエシ",
    "town": "猪方",
    "town_kana": "イノガタ",
    "street": null,
    "office_name": null,
    "office_name_kana": null
  },
  "0016": {
    "zip_code": "2010016",
    "prefecture": "東京都",
    "prefecture_kana": "トウキョウト",
    "prefecture_code": "13",
    "city": "狛江市",
    "city_kana": "コマエシ",
    "town": "駒井町",
    "town_kana": "コマイマチ",
    "street": null,
    "office_name": null,
    "office_name_kana": null
  },
  "8501": {
    "zip_code": "2018501",
    "prefecture": "東京都",
    "prefecture_kana": "トウキョウト",
    "prefecture_code": "13",
    "city": "狛江市",
    "city_kana": "コマエシ",
    "town": "元和泉",
    "town_kana": "モトイズミ",
    "street": "３丁目９−１",
    "office_name": "東京都立狛江高等学校",
    "office_name_kana": "トウキヨウトリツコマエコウトウガツコウ"
  },
  "8511": {
    "zip_code": "2018511",
    "prefecture": "東京都",
    "prefecture_kana": "トウキョウト",
    "prefecture_code": "13",
    "city": "狛江市",
    "city_kana": "コマエシ",
    "town": "岩戸北",
    "town_kana": "イワドキタ",
    "street": "２丁目１１−１",
    "office_name": "一般財団法人　電力中央研究所",
    "office_name_kana": "イツパンザイダンホウジン デンリヨクチユウオウケンキユウジヨ"
  },
  "8585": {
    "zip_code": "2018585",
    "prefecture": "東京都",
    "prefecture_kana": "トウキョウト",
    "prefecture_code": "13",
    "city": "狛江市",
    "city_kana": "コマエシ",
    "town": "和泉本町",
    "town_kana": "イズミホンチョウ",
    "street": "１丁目１−５",
    "office_name": "狛江市役所",
    "office_name_kana": "コマエシヤクシヨ"
  },
  "8588": {
    "zip_code": "2018588",
    "prefecture": "東京都",
    "prefecture_kana": "トウキョウト",
    "prefecture_code": "13",
    "city": "狛江市",
    "city_kana": "コマエシ",
    "town": "東野川",
    "town_kana": "ヒガシノガワ",
    "street": "３丁目４−１４",
    "office_name": "第一電材　株式会社",
    "office_name_kana": "ダイイチデンザイ カブシキガイシヤ"
  },
  "8601": {
    "zip_code": "2018601",
    "prefecture": "東京都",
    "prefecture_kana": "トウキョウト",
    "prefecture_code": "13",
    "city": "狛江市",
    "city_kana": "コマエシ",
    "town": "和泉本町",
    "town_kana": "イズミホンチョウ",
    "street": "４丁目１１−１",
    "office_name": "東京慈恵会医科大学附属第三病院",
    "office_name_kana": "トウキヨウジケイカイイカダイガクフゾクダイサンビヨウイン"
  },
  "8648": {
    "zip_code": "2018648",
    "prefecture": "東京都",
    "prefecture_kana": "トウキョウト",
    "prefecture_code": "13",
    "city": "狛江市",
    "city_kana": "コマエシ",
    "town": "和泉本町",
    "town_kana": "イズミホンチョウ",
    "street": "１丁目８−１",
    "office_name": "京セラキンセキ　株式会社",
    "office_name_kana": "キヨウセラキンセキ カブシキガイシヤ"
  },
  "8686": {
    "zip_code": "2018686",
    "prefecture": "東京都",
    "prefecture_kana": "トウキョウト",
    "prefecture_code": "13",
    "city": "狛江市",
    "city_kana": "コマエシ",
    "town": "中和泉",
    "town_kana": "ナカイズミ",
    "street": "３丁目１４−８",
    "office_name": "学校法人　狛江こだま学園",
    "office_name_kana": "ガツコウホウジン コマエコダマガクエン"
  }
}