{
  "0000": {
    "zip_code": "2140000",
    "prefecture": "神奈川県",
    "prefecture_kana": "カナガワケン",
    "prefecture_code": "14",
    "city": "川崎市多摩区",
    "city_kana": "カワサキシタマク",
    "town": "",
    "town_kana": "",
    "street": null,
    "office_name": null,
    "office_name_kana": null
  },
  "0001": {
    "zip_code": "2140001",
    "prefecture": "神奈川県",
    "prefecture_kana": "カナガワケン",
    "prefecture_code": "14",
    "city": "川崎市多摩区",
    "city_kana": "カワサキシタマク",
    "town": "菅",
    "town_kana": "スゲ",
    "street": null,
    "office_name": null,
    "office_name_kana": null
  },
  "0002": {
    "zip_code": "2140002",
    "prefecture": "神奈川県",
    "prefecture_kana": "カナガワケン",
    "prefecture_code": "14",
    "city": "川崎市多摩区",
    "city_kana": "カワサキシタマク",
    "town": "菅野戸呂",
    "town_kana": "スゲノトロ",
    "street": null,
    "office_name": null,
    "office_name_kana": null
  },
  "0003": {
    "zip_code": "2140003",
    "prefecture": "神奈川県",
    "prefecture_kana": "カナガワケン",
    "prefecture_code": "14",
    "city": "川崎市多摩区",
    "city_kana": "カワサキシタマク",
    "town": "菅稲田堤",
    "town_kana": "スゲイナダヅツミ",
    "street": null,
    "office_name": null,
    "office_name_kana": null
  },
  "0004": {
    "zip_code": "2140004",
    "prefecture": "神奈川県",
    "prefecture_kana": "カナガワケン",
    "prefecture_code": "14",
    "city": "川崎市多摩区",
    "city_kana": "カワサキシタマク",
    "town": "菅馬場",
    "town_kana": "スゲバンバ",
    "street": null,
    "office_name": null,
    "office_name_kana": null
  },
  "0005": {
    "zip_code": "2140005",
    "prefecture": "神奈川県",
    "prefecture_kana": "カナガワケン",
    "prefecture_code": "14",
    "city": "川崎市多摩区",
    "city_kana": "カワサキシタマク",
    "town": "寺尾台",
    "town_kana": "テラオダイ",
    "street": null,
    "office_name": null,
    "office_name_kana": null
  },
  "0006": {
    "zip_code": "2140006",
    "prefecture": "神奈川県",
    "prefecture_kana": "カナガワケン",
    "prefecture_code": "14",
    "city": "川崎市多摩区",
    "city_kana": "カワサキシタマク",
    "town": "菅仙谷",
    "town_kana": "スゲセンゴク",
    "street": null,
    "office_name": null,
    "office_name_kana": null
  },
  "0007": {
    "zip_code": "2140007",
    "prefecture": "神奈川県",
    "prefecture_kana": "カナガワケン",
    "prefecture_code": "14",
    "city": "川崎市多摩区",
    "city_kana": "カワサキシタマク",
    "town": "菅城下",
    "town_kana": "スゲシロシタ",
    "street": null,
    "office_name": null,
    "office_name_kana": null
  },
  "0008": {
    "zip_code": "2140008",
    "prefecture": "神奈川県",
    "prefecture_kana": "カナガワケン",
    "prefecture_code": "14",
    "city": "川崎市多摩区",
    "city_kana": "カワサキシタマク",
    "town": "菅北浦",
    "town_kana": "スゲキタウラ",
    "street": null,
    "office_name": null,
    "office_name_kana": null
  },
  "0011": {
    "zip_code": "2140011",
    "prefecture": "神奈川県",
    "prefecture_kana": "カナガワケン",
    "prefecture_code": "14",
    "city": "川崎市多摩区",
    "city_kana": "カワサキシタマク",
    "town": "布田",
    "town_kana": "フダ",
    "street": null,
    "office_name": null,
    "office_name_kana": null
  },
  "0012": {
    "zip_code": "2140012",
    "prefecture": "神奈川県",
    "prefecture_kana": "カナガワケン",
    "prefecture_code": "14",
    "city": "川崎市多摩区",
    "city_kana": "カワサキシタマク",
    "town": "中野島",
    "town_kana": "ナカノシマ",
    "street": null,
    "office_name": null,
    "office_name_kana": null
  },
  "0013": {
    "zip_code": "2140013",
    "prefecture": "神奈川県",
    "prefecture_kana": "カナガワケン",
    "prefecture_code": "14",
    "city": "川崎市多摩区",
    "city_kana": "カワサキシタマク",
    "town": "登戸新町",
    "town_kana": "ノボリトシンマチ",
    "street": null,
    "office_name": null,
    "office_name_kana": null
  },
  "0014": {
    "zip_code": "2140014",
    "prefecture": "神奈川県",
    "prefecture_kana": "カナガワケン",
    "prefecture_code": "14",
    "city": "川崎市多摩区",
    "city_kana": "カワサキシタマク",
    "town": "登戸",
    "town_kana": "ノボリト",
    "street": null,
    "office_name": null,
    "office_name_kana": null
  },
  "0021": {
    "zip_code": "2140021",
    "prefecture": "神奈川県",
    "prefecture_kana": "カナガワケン",
    "prefecture_code": "14",
    "city": "川崎市多摩区",
    "city_kana": "カワサキシタマク",
    "town": "宿河原",
    "town_kana": "シュクガワラ",
    "street": null,
    "office_name": null,
    "office_name_kana": null
  },
  "0022": {
    "zip_code": "2140022",
    "prefecture": "神奈川県",
    "prefecture_kana": "カナガワケン",
    "prefecture_code": "14",
    "city": "川崎市多摩区",
    "city_kana": "カワサキシタマク",
    "town": "堰",
    "town_kana": "セキ",
    "street": null,
    "office_name": null,
    "office_name_kana": null
  },
  "0023": {
    "zip_code": "2140023",
    "prefecture": "神奈川県",
    "prefecture_kana": "カナガワケン",
    "prefecture_code": "14",
    "city": "川崎市多摩区",
    "city_kana": "カワサキシタマク",
    "town": "長尾",
    "town_kana": "ナガオ",
    "street": null,
    "office_name": null,
    "office_name_kana": null
  },
  "0031": {
    "zip_code": "2140031",
    "prefecture": "神奈川県",
    "prefecture_kana": "カナガワケン",
    "prefecture_code": "14",
    "city": "川崎市多摩区",
    "city_kana": "カワサキシタマク",
    "town": "東生田",
    "town_kana": "ヒガシイクタ",
    "street": null,
    "office_name": null,
    "office_name_kana": null
  },
  "0032": {
    "zip_code": "2140032",
    "prefecture": "神奈川県",
    "prefecture_kana": "カナガワケン",
    "prefecture_code": "14",
    "city": "川崎市多摩区",
    "city_kana": "カワサキシタマク",
    "town": "枡形",
    "town_kana": "マスガタ",
    "street": null,
    "office_name": null,
    "office_name_kana": null
  },
  "0033": {
    "zip_code": "2140033",
    "prefecture": "神奈川県",
    "prefecture_kana": "カナガワケン",
    "prefecture_code": "14",
    "city": "川崎市多摩区",
    "city_kana": "カワサキシタマク",
    "town": "東三田",
    "town_kana": "ヒガシミタ",
    "street": null,
    "office_name": null,
    "office_name_kana": null
  },
  "0034": {
    "zip_code": "2140034",
    "prefecture": "神奈川県",
    "prefecture_kana": "カナガワケン",
    "prefecture_code": "14",
    "city": "川崎市多摩区",
    "city_kana": "カワサキシタマク",
    "town": "三田",
    "town_kana": "ミタ",
    "street": null,
    "office_name": null,
    "office_name_kana": null
  },
  "0035": {
    "zip_code": "2140035",
    "prefecture": "神奈川県",
    "prefecture_kana": "カナガワケン",
    "prefecture_code": "14",
    "city": "川崎市多摩区",
    "city_kana": "カワサキシタマク",
    "town": "長沢",
    "town_kana": "ナガサワ",
    "street": null,
    "office_name": null,
    "office_name_kana": null
  },
  "0036": {
    "zip_code": "2140036",
    "prefecture": "神奈川県",
    "prefecture_kana": "カナガワケン",
    "prefecture_code": "14",
    "city": "川崎市多摩区",
    "city_kana": "カワサキシタマク",
    "town": "南生田",
    "town_kana": "ミナミイクタ",
    "street": null,
    "office_name": null,
    "office_name_kana": null
  },
  "0037": {
    "zip_code": "2140037",
    "prefecture": "神奈川県",
    "prefecture_kana": "カナガワケン",
    "prefecture_code": "14",
    "city": "川崎市多摩区",
    "city_kana": "カワサキシタマク",
    "town": "西生田",
    "town_kana": "ニシイクタ",
    "street": null,
    "office_name": null,
    "office_name_kana": null
  },
  "0038": {
    "zip_code": "2140038",
    "prefecture": "神奈川県",
    "prefecture_kana": "カナガワケン",
    "prefecture_code": "14",
    "city": "川崎市多摩区",
    "city_kana": "カワサキシタマク",
    "town": "生田",
    "town_kana": "イクタ",
    "street": null,
    "office_name": null,
    "office_name_kana": null
  },
  "0039": {
    "zip_code": "2140039",
    "prefecture": "神奈川県",
    "prefecture_kana": "カナガワケン",
    "prefecture_code": "14",
    "city": "川崎市多摩区",
    "city_kana": "カワサキシタマク",
    "town": "栗谷",
    "town_kana": "クリヤ",
    "street": null,
    "office_name": null,
    "office_name_kana": null
  },
  "8525": {
    "zip_code": "2148525",
    "prefecture": "神奈川県",
    "prefecture_kana": "カナガワケン",
    "prefecture_code": "14",
    "city": "川崎市多摩区",
    "city_kana": "カワサキシタマク",
    "town": "宿河原",
    "town_kana": "シュクガワラ",
    "street": "１丁目３０−３７",
    "office_name": "川崎市立　多摩病院",
    "office_name_kana": "カワサキシリツ タマビヨウイン"
  },
  "8533": {
    "zip_code": "2148533",
    "prefecture": "神奈川県",
    "prefecture_kana": "カナガワケン",
    "prefecture_code": "14",
    "city": "川崎市多摩区",
    "city_kana": "カワサキシタマク",
    "town": "登戸",
    "town_kana": "ノボリト",
    "street": "３８１６",
    "office_name": "タイコエレクトロニクスジャパン　合同会社",
    "office_name_kana": "タイコエレクトロニクスジヤパン ゴウドウガイシヤ"
  },
  "8565": {
    "zip_code": "2148565",
    "prefecture": "神奈川県",
    "prefecture_kana": "カナガワケン",
    "prefecture_code": "14",
    "city": "川崎市多摩区",
    "city_kana": "カワサキシタマク",
    "town": "西生田",
    "town_kana": "ニシイクタ",
    "street": "１丁目１−１",
    "office_name": "学校法人　日本女子大学",
    "office_name_kana": "ガツコウホウジン ニホンジヨシダイガク"
  },
  "8570": {
    "zip_code": "2148570",
    "prefecture": "神奈川県",
    "prefecture_kana": "カナガワケン",
    "prefecture_code": "14",
    "city": "川崎市多摩区",
    "city_kana": "カワサキシタマク",
    "town": "登戸",
    "town_kana": "ノボリト",
    "street": "１７７５−１",
    "office_name": "多摩区役所",
    "office_name_kana": "タマクヤクシヨ"
  },
  "8571": {
    "zip_code": "2148571",
    "prefecture": "神奈川県",
    "prefecture_kana": "カナガワケン",
    "prefecture_code": "14",
    "city": "川崎市多摩区",
    "city_kana": "カワサキシタマク",
    "town": "東三田",
    "town_kana": "ヒガシミタ",
    "street": "１丁目１−１",
    "office_name": "明治大学　生田校舎",
    "office_name_kana": "メイジダイガク イクタコウシヤ"
  },
  "8580": {
    "zip_code": "2148580",
    "prefecture": "神奈川県",
    "prefecture_kana": "カナガワケン",
    "prefecture_code": "14",
    "city": "川崎市多摩区",
    "city_kana": "カワサキシタマク",
    "town": "東三田",
    "town_kana": "ヒガシミタ",
    "street": "２丁目１−１",
    "office_name": "学校法人　専修大学",
    "office_name_kana": "ガツコウホウジン センシユウダイガク"
  },
  "8585": {
    "zip_code": "2148585",
    "prefecture": "神奈川県",
    "prefecture_kana": "カナガワケン",
    "prefecture_code": "14",
    "city": "川崎市多摩区",
    "city_kana": "カワサキシタマク",
    "town": "長尾",
    "town_kana": "ナガオ",
    "street": "６丁目２１−１",
    "office_name": "独立行政法人　産業医学　総合研究所",
    "office_name_kana": "ドクリツギヨウセイホウジン サンギヨウイガク ソウゴウケンキユウシヨ"
  },
  "8588": {
    "zip_code": "2148588",
    "prefecture": "神奈川県",
    "prefecture_kana": "カナガワケン",
    "prefecture_code": "14",
    "city": "川崎市多摩区",
    "city_kana": "カワサキシタマク",
    "town": "枡形",
    "town_kana": "マスガタ",
    "street": "１丁目２３−１",
    "office_name": "株式会社　電元社製作所",
    "office_name_kana": "カブシキガイシヤ デンゲンシヤセイサクシヨ"
  }
}