{
  "0000": {
    "zip_code": "2160000",
    "prefecture": "神奈川県",
    "prefecture_kana": "カナガワケン",
    "prefecture_code": "14",
    "city": "川崎市宮前区",
    "city_kana": "カワサキシミヤマエク",
    "town": "",
    "town_kana": "",
    "street": null,
    "office_name": null,
    "office_name_kana": null
  },
  "0001": {
    "zip_code": "2160001",
    "prefecture": "神奈川県",
    "prefecture_kana": "カナガワケン",
    "prefecture_code": "14",
    "city": "川崎市宮前区",
    "city_kana": "カワサキシミヤマエク",
    "town": "野川",
    "town_kana": "ノガワ",
    "street": null,
    "office_name": null,
    "office_name_kana": null
  },
  "0002": {
    "zip_code": "2160002",
    "prefecture": "神奈川県",
    "prefecture_kana": "カナガワケン",
    "prefecture_code": "14",
    "city": "川崎市宮前区",
    "city_kana": "カワサキシミヤマエク",
    "town": "東有馬",
    "town_kana": "ヒガシアリマ",
    "street": null,
    "office_name": null,
    "office_name_kana": null
  },
  "0003": {
    "zip_code": "2160003",
    "prefecture": "神奈川県",
    "prefecture_kana": "カナガワケン",
    "prefecture_code": "14",
    "city": "川崎市宮前区",
    "city_kana": "カワサキシミヤマエク",
    "town": "有馬",
    "town_kana": "アリマ",
    "street": null,
    "office_name": null,
    "office_name_kana": null
  },
  "0004": {
    "zip_code": "2160004",
    "prefecture": "神奈川県",
    "prefecture_kana": "カナガワケン",
    "prefecture_code": "14",
    "city": "川崎市宮前区",
    "city_kana": "カワサキシミヤマエク",
    "town": "鷺沼",
    "town_kana": "サギヌマ",
    "street": null,
    "office_name": null,
    "office_name_kana": null
  },
  "0005": {
    "zip_code": "2160005",
    "prefecture": "神奈川県",
    "prefecture_kana": "カナガワケン",
    "prefecture_code": "14",
    "city": "川崎市宮前区",
    "city_kana": "カワサキシミヤマエク",
    "town": "土橋",
    "town_kana": "ツチハシ",
    "street": null,
    "office_name": null,
    "office_name_kana": null
  },
  "0006": {
    "zip_code": "2160006",
    "prefecture": "神奈川県",
    "prefecture_kana": "カナガワケン",
    "prefecture_code": "14",
    "city": "川崎市宮前区",
    "city_kana": "カワサキシミヤマエク",
    "town": "宮前平",
    "town_kana": "ミヤマエダイラ",
    "street": null,
    "office_name": null,
    "office_name_kana": null
  },
  "0007": {
    "zip_code": "2160007",
    "prefecture": "神奈川県",
    "prefecture_kana": "カナガワケン",
    "prefecture_code": "14",
    "city": "川崎市宮前区",
    "city_kana": "カワサキシミヤマエク",
    "town": "小台",
    "town_kana": "コダイ",
    "street": null,
    "office_name": null,
    "office_name_kana": null
  },
  "0011": {
    "zip_code": "2160011",
    "prefecture": "神奈川県",
    "prefecture_kana": "カナガワケン",
    "prefecture_code": "14",
    "city": "川崎市宮前区",
    "city_kana": "カワサキシミヤマエク",
    "town": "犬蔵",
    "town_kana": "イヌクラ",
    "street": null,
    "office_name": null,
    "office_name_kana": null
  },
  "0012": {
    "zip_code": "2160012",
    "prefecture": "神奈川県",
    "prefecture_kana": "カナガワケン",
    "prefecture_code": "14",
    "city": "川崎市宮前区",
    "city_kana": "カワサキシミヤマエク",
    "town": "水沢",
    "town_kana": "ミズサワ",
    "street": null,
    "office_name": null,
    "office_name_kana": null
  },
  "0013": {
    "zip_code": "2160013",
    "prefecture": "神奈川県",
    "prefecture_kana": "カナガワケン",
    "prefecture_code": "14",
    "city": "川崎市宮前区",
    "city_kana": "カワサキシミヤマエク",
    "town": "潮見台",
    "town_kana": "シオミダイ",
    "street": null,
    "office_name": null,
    "office_name_kana": null
  },
  "0014": {
    "zip_code": "2160014",
    "prefecture": "神奈川県",
    "prefecture_kana": "カナガワケン",
    "prefecture_code": "14",
    "city": "川崎市宮前区",
    "city_kana": "カワサキシミヤマエク",
    "town": "菅生ケ丘",
    "town_kana": "スガオガオカ",
    "street": null,
    "office_name": null,
    "office_name_kana": null
  },
  "0015": {
    "zip_code": "2160015",
    "prefecture": "神奈川県",
    "prefecture_kana": "カナガワケン",
    "prefecture_code": "14",
    "city": "川崎市宮前区",
    "city_kana": "カワサキシミヤマエク",
    "town": "菅生",
    "town_kana": "スガオ",
    "street": null,
    "office_name": null,
    "office_name_kana": null
  },
  "0021": {
    "zip_code": "2160021",
    "prefecture": "神奈川県",
    "prefecture_kana": "カナガワケン",
    "prefecture_code": "14",
    "city": "川崎市宮前区",
    "city_kana": "カワサキシミヤマエク",
    "town": "五所塚",
    "town_kana": "ゴショヅカ",
    "street": null,
    "office_name": null,
    "office_name_kana": null
  },
  "0022": {
    "zip_code": "2160022",
    "prefecture": "神奈川県",
    "prefecture_kana": "カナガワケン",
    "prefecture_code": "14",
    "city": "川崎市宮前区",
    "city_kana": "カワサキシミヤマエク",
    "town": "平",
    "town_kana": "タイラ",
    "street": null,
    "office_name": null,
    "office_name_kana": null
  },
  "0023": {
    "zip_code": "2160023",
    "prefecture": "神奈川県",
    "prefecture_kana": "カナガワケン",
    "prefecture_code": "14",
    "city": "川崎市宮前区",
    "city_kana": "カワサキシミヤマエク",
    "town": "けやき平",
    "town_kana": "ケヤキダイラ",
    "street": null,
    "office_name": null,
    "office_name_kana": null
  },
  "0024": {
    "zip_code": "2160024",
    "prefecture": "神奈川県",
    "prefecture_kana": "カナガワケン",
    "prefecture_code": "14",
    "city": "川崎市宮前区",
    "city_kana": "カワサキシミヤマエク",
    "town": "南平台",
    "town_kana": "ナンペイダイ",
    "street": null,
    "office_name": null,
    "office_name_kana": null
  },
  "0025": {
    "zip_code": "2160025",
    "prefecture": "神奈川県",
    "prefecture_kana": "カナガワケン",
    "prefecture_code": "14",
    "city": "川崎市宮前区",
    "city_kana": "カワサキシミヤマエク",
    "town": "白幡台",
    "town_kana": "シラハタダイ",
    "street": null,
    "office_name": null,
    "office_name_kana": null
  },
  "0026": {
    "zip_code": "2160026",
    "prefecture": "神奈川県",
    "prefecture_kana": "カナガワケン",
    "prefecture_code": "14",
    "city": "川崎市宮前区",
    "city_kana": "カワサキシミヤマエク",
    "town": "初山",
    "town_kana": "ハツヤマ",
    "street": null,
    "office_name": null,
    "office_name_kana": null
  },
  "0031": {
    "zip_code": "2160031",
    "prefecture": "神奈川県",
    "prefecture_kana": "カナガワケン",
    "prefecture_code": "14",
    "city": "川崎市宮前区",
    "city_kana": "カワサキシミヤマエク",
    "town": "神木本町",
    "town_kana": "シボクホンチョウ",
    "street": null,
    "office_name": null,
    "office_name_kana": null
  },
  "0032": {
    "zip_code": "2160032",
    "prefecture": "神奈川県",
    "prefecture_kana": "カナガワケン",
    "prefecture_code": "14",
    "city": "川崎市宮前区",
    "city_kana": "カワサキシミヤマエク",
    "town": "神木",
    "town_kana": "シボク",
    "street": null,
    "office_name": null,
    "office_name_kana": null
  },
  "0033": {
    "zip_code": "2160033",
    "prefecture": "神奈川県",
    "prefecture_kana": "カナガワケン",
    "prefecture_code": "14",
    "city": "川崎市宮前区",
    "city_kana": "カワサキシミヤマエク",
    "town": "宮崎",
    "town_kana": "ミヤザキ",
    "street": null,
    "office_name": null,
    "office_name_kana": null
  },
  "0034": {
    "zip_code": "2160034",
    "prefecture": "神奈川県",
    "prefecture_kana": "カナガワケン",
    "prefecture_code": "14",
    "city": "川崎市宮前区",
    "city_kana": "カワサキシミヤマエク",
    "town": "梶ケ谷",
    "town_kana": "カジガヤ",
    "street": null,
    "office_name": null,
    "office_name_kana": null
  },
  "0035": {
    "zip_code": "2160035",
    "prefecture": "神奈川県",
    "prefecture_kana": "カナガワケン",
    "prefecture_code": "14",
    "city": "川崎市宮前区",
    "city_kana": "カワサキシミヤマエク",
    "town": "馬絹",
    "town_kana": "マギヌ",
    "street": null,
    "office_name": null,
    "office_name_kana": null
  },
  "8501": {
    "zip_code": "2168501",
    "prefecture": "神奈川県",
    "prefecture_kana": "カナガワケン",
    "prefecture_code": "14",
    "city": "川崎市宮前区",
    "city_kana": "カワサキシミヤマエク",
    "town": "菅生",
    "town_kana": "スガオ",
    "street": "２丁目８−１４",
    "office_name": "財団法人　労働科学研究所",
    "office_name_kana": "ザイダンホウジン ロウドウカガクケンキユウシヨ"
  },
  "8510": {
    "zip_code": "2168510",
    "prefecture": "神奈川県",
    "prefecture_kana": "カナガワケン",
    "prefecture_code": "14",
    "city": "川崎市宮前区",
    "city_kana": "カワサキシミヤマエク",
    "town": "南平台",
    "town_kana": "ナンペイダイ",
    "street": "１−１",
    "office_name": "日本道路公団　東京第一管理局",
    "office_name_kana": "ニホンドウロコウダン トウキヨウダイイチカンリキヨク"
  },
  "8511": {
    "zip_code": "2168511",
    "prefecture": "神奈川県",
    "prefecture_kana": "カナガワケン",
    "prefecture_code": "14",
    "city": "川崎市宮前区",
    "city_kana": "カワサキシミヤマエク",
    "town": "菅生",
    "town_kana": "スガオ",
    "street": "２丁目１６−１",
    "office_name": "聖マリアンナ医科大学",
    "office_name_kana": "セイマリアンナイカダイガク"
  },
  "8512": {
    "zip_code": "2168512",
    "prefecture": "神奈川県",
    "prefecture_kana": "カナガワケン",
    "prefecture_code": "14",
    "city": "川崎市宮前区",
    "city_kana": "カワサキシミヤマエク",
    "town": "菅生",
    "town_kana": "スガオ",
    "street": "２丁目１６−１",
    "office_name": "聖マリアンナ難病センター",
    "office_name_kana": "セイマリアンナナンビヨウセンタ-"
  },
  "8514": {
    "zip_code": "2168514",
    "prefecture": "神奈川県",
    "prefecture_kana": "カナガワケン",
    "prefecture_code": "14",
    "city": "川崎市宮前区",
    "city_kana": "カワサキシミヤマエク",
    "town": "菅生",
    "town_kana": "スガオ",
    "street": "２丁目１６−１",
    "office_name": "聖マリアンナ看護専門学校",
    "office_name_kana": "セイマリアンナカンゴセンモンガツコウ"
  },
  "8519": {
    "zip_code": "2168519",
    "prefecture": "神奈川県",
    "prefecture_kana": "カナガワケン",
    "prefecture_code": "14",
    "city": "川崎市宮前区",
    "city_kana": "カワサキシミヤマエク",
    "town": "小台",
    "town_kana": "コダイ",
    "street": "１丁目１８−１",
    "office_name": "株式会社　東急百貨店　通信販売事業部",
    "office_name_kana": "カブシキガイシヤ トウキユウヒヤツカテン ツウシンハンバイジギヨウブ"
  },
  "8522": {
    "zip_code": "2168522",
    "prefecture": "神奈川県",
    "prefecture_kana": "カナガワケン",
    "prefecture_code": "14",
    "city": "川崎市宮前区",
    "city_kana": "カワサキシミヤマエク",
    "town": "水沢",
    "town_kana": "ミズサワ",
    "street": "１丁目１−１",
    "office_name": "川崎市中央卸売市場　北部市場",
    "office_name_kana": "カワサキシチユウオウオロシウリシジヨウ ホクブシジヨウ"
  },
  "8556": {
    "zip_code": "2168556",
    "prefecture": "神奈川県",
    "prefecture_kana": "カナガワケン",
    "prefecture_code": "14",
    "city": "川崎市宮前区",
    "city_kana": "カワサキシミヤマエク",
    "town": "菅生",
    "town_kana": "スガオ",
    "street": "１丁目２０番８号",
    "office_name": "株式会社　シーボンパビリオン",
    "office_name_kana": "カブシキガイシヤ シ-ボンパビリオン"
  },
  "8566": {
    "zip_code": "2168566",
    "prefecture": "神奈川県",
    "prefecture_kana": "カナガワケン",
    "prefecture_code": "14",
    "city": "川崎市宮前区",
    "city_kana": "カワサキシミヤマエク",
    "town": "有馬",
    "town_kana": "アリマ",
    "street": "２丁目９−４",
    "office_name": "株式会社　西川商事",
    "office_name_kana": "カブシキガイシヤ ニシカワシヨウジ"
  },
  "8570": {
    "zip_code": "2168570",
    "prefecture": "神奈川県",
    "prefecture_kana": "カナガワケン",
    "prefecture_code": "14",
    "city": "川崎市宮前区",
    "city_kana": "カワサキシミヤマエク",
    "town": "宮前平",
    "town_kana": "ミヤマエダイラ",
    "street": "２丁目２０−５",
    "office_name": "宮前区役所",
    "office_name_kana": "ミヤマエクヤクシヨ"
  },
  "8631": {
    "zip_code": "2168631",
    "prefecture": "神奈川県",
    "prefecture_kana": "カナガワケン",
    "prefecture_code": "14",
    "city": "川崎市宮前区",
    "city_kana": "カワサキシミヤマエク",
    "town": "水沢",
    "town_kana": "ミズサワ",
    "street": "２丁目１７番１号",
    "office_name": "昌栄印刷　株式会社",
    "office_name_kana": "シヨウエイインサツ カブシキガイシヤ"
  }
}