{
  "0051": {
    "zip_code": "2230051",
    "prefecture": "神奈川県",
    "prefecture_kana": "カナガワケン",
    "prefecture_code": 14,
    "city": "横浜市港北区",
    "city_kana": "ヨコハマシコウホクク",
    "town": "箕輪町",
    "town_kana": "ミノワチョウ",
    "street": null,
    "office_name": null,
    "office_name_kana": null
  },
  "0052": {
    "zip_code": "2230052",
    "prefecture": "神奈川県",
    "prefecture_kana": "カナガワケン",
    "prefecture_code": 14,
    "city": "横浜市港北区",
    "city_kana": "ヨコハマシコウホクク",
    "town": "綱島東",
    "town_kana": "ツナシマヒガシ",
    "street": null,
    "office_name": null,
    "office_name_kana": null
  },
  "0053": {
    "zip_code": "2230053",
    "prefecture": "神奈川県",
    "prefecture_kana": "カナガワケン",
    "prefecture_code": 14,
    "city": "横浜市港北区",
    "city_kana": "ヨコハマシコウホクク",
    "town": "綱島西",
    "town_kana": "ツナシマニシ",
    "street": null,
    "office_name": null,
    "office_name_kana": null
  },
  "0054": {
    "zip_code": "2230054",
    "prefecture": "神奈川県",
    "prefecture_kana": "カナガワケン",
    "prefecture_code": 14,
    "city": "横浜市港北区",
    "city_kana": "ヨコハマシコウホクク",
    "town": "綱島台",
    "town_kana": "ツナシマダイ",
    "street": null,
    "office_name": null,
    "office_name_kana": null
  },
  "0055": {
    "zip_code": "2230055",
    "prefecture": "神奈川県",
    "prefecture_kana": "カナガワケン",
    "prefecture_code": 14,
    "city": "横浜市港北区",
    "city_kana": "ヨコハマシコウホクク",
    "town": "綱島上町",
    "town_kana": "ツナシマカミチョウ",
    "street": null,
    "office_name": null,
    "office_name_kana": null
  },
  "0056": {
    "zip_code": "2230056",
    "prefecture": "神奈川県",
    "prefecture_kana": "カナガワケン",
    "prefecture_code": 14,
    "city": "横浜市港北区",
    "city_kana": "ヨコハマシコウホクク",
    "town": "新吉田町",
    "town_kana": "シンヨシダチョウ",
    "street": null,
    "office_name": null,
    "office_name_kana": null
  },
  "0057": {
    "zip_code": "2230057",
    "prefecture": "神奈川県",
    "prefecture_kana": "カナガワケン",
    "prefecture_code": 14,
    "city": "横浜市港北区",
    "city_kana": "ヨコハマシコウホクク",
    "town": "新羽町",
    "town_kana": "ニッパチョウ",
    "street": null,
    "office_name": null,
    "office_name_kana": null
  },
  "0058": {
    "zip_code": "2230058",
    "prefecture": "神奈川県",
    "prefecture_kana": "カナガワケン",
    "prefecture_code": 14,
    "city": "横浜市港北区",
    "city_kana": "ヨコハマシコウホクク",
    "town": "新吉田東",
    "town_kana": "シンヨシダヒガシ",
    "street": null,
    "office_name": null,
    "office_name_kana": null
  },
  "0059": {
    "zip_code": "2230059",
    "prefecture": "神奈川県",
    "prefecture_kana": "カナガワケン",
    "prefecture_code": 14,
    "city": "横浜市港北区",
    "city_kana": "ヨコハマシコウホクク",
    "town": "北新横浜",
    "town_kana": "キタシンヨコハマ",
    "street": null,
    "office_name": null,
    "office_name_kana": null
  },
  "0061": {
    "zip_code": "2230061",
    "prefecture": "神奈川県",
    "prefecture_kana": "カナガワケン",
    "prefecture_code": 14,
    "city": "横浜市港北区",
    "city_kana": "ヨコハマシコウホクク",
    "town": "日吉",
    "town_kana": "ヒヨシ",
    "street": null,
    "office_name": null,
    "office_name_kana": null
  },
  "0062": {
    "zip_code": "2230062",
    "prefecture": "神奈川県",
    "prefecture_kana": "カナガワケン",
    "prefecture_code": 14,
    "city": "横浜市港北区",
    "city_kana": "ヨコハマシコウホクク",
    "town": "日吉本町",
    "town_kana": "ヒヨシホンチョウ",
    "street": null,
    "office_name": null,
    "office_name_kana": null
  },
  "0063": {
    "zip_code": "2230063",
    "prefecture": "神奈川県",
    "prefecture_kana": "カナガワケン",
    "prefecture_code": 14,
    "city": "横浜市港北区",
    "city_kana": "ヨコハマシコウホクク",
    "town": "高田町",
    "town_kana": "タカタチョウ",
    "street": null,
    "office_name": null,
    "office_name_kana": null
  },
  "0064": {
    "zip_code": "2230064",
    "prefecture": "神奈川県",
    "prefecture_kana": "カナガワケン",
    "prefecture_code": 14,
    "city": "横浜市港北区",
    "city_kana": "ヨコハマシコウホクク",
    "town": "下田町",
    "town_kana": "シモダチョウ",
    "street": null,
    "office_name": null,
    "office_name_kana": null
  },
  "0065": {
    "zip_code": "2230065",
    "prefecture": "神奈川県",
    "prefecture_kana": "カナガワケン",
    "prefecture_code": 14,
    "city": "横浜市港北区",
    "city_kana": "ヨコハマシコウホクク",
    "town": "高田東",
    "town_kana": "タカタヒガシ",
    "street": null,
    "office_name": null,
    "office_name_kana": null
  },
  "0066": {
    "zip_code": "2230066",
    "prefecture": "神奈川県",
    "prefecture_kana": "カナガワケン",
    "prefecture_code": 14,
    "city": "横浜市港北区",
    "city_kana": "ヨコハマシコウホクク",
    "town": "高田西",
    "town_kana": "タカタニシ",
    "street": null,
    "office_name": null,
    "office_name_kana": null
  },
  "8501": {
    "zip_code": "2238501",
    "prefecture": "神奈川県",
    "prefecture_kana": "カナガワケン",
    "prefecture_code": 14,
    "city": "横浜市港北区",
    "city_kana": "ヨコハマシコウホクク",
    "town": "新吉田町",
    "town_kana": "シンヨシダチョウ",
    "street": "３１７６",
    "office_name": "アネスト岩田　株式会社",
    "office_name_kana": "アネストイワタ カブシキガイシヤ"
  },
  "8502": {
    "zip_code": "2238502",
    "prefecture": "神奈川県",
    "prefecture_kana": "カナガワケン",
    "prefecture_code": 14,
    "city": "横浜市港北区",
    "city_kana": "ヨコハマシコウホクク",
    "town": "新羽町",
    "town_kana": "ニッパチョウ",
    "street": "１７６９",
    "office_name": "アルプス電気　株式会社　横浜事業所",
    "office_name_kana": "アルプスデンキ カブシキガイシヤ ヨコハマジギヨウシヨ"
  },
  "8505": {
    "zip_code": "2238505",
    "prefecture": "神奈川県",
    "prefecture_kana": "カナガワケン",
    "prefecture_code": 14,
    "city": "横浜市港北区",
    "city_kana": "ヨコハマシコウホクク",
    "town": "綱島東",
    "town_kana": "ツナシマヒガシ",
    "street": "２丁目６−３３",
    "office_name": "リーダー電子　株式会社",
    "office_name_kana": "リ-ダ-デンシ カブシキガイシヤ"
  },
  "8506": {
    "zip_code": "2238506",
    "prefecture": "神奈川県",
    "prefecture_kana": "カナガワケン",
    "prefecture_code": 14,
    "city": "横浜市港北区",
    "city_kana": "ヨコハマシコウホクク",
    "town": "新吉田町",
    "town_kana": "シンヨシダチョウ",
    "street": "２９４０",
    "office_name": "日本工営　株式会社　横浜事業所",
    "office_name_kana": "ニホンコウエイ カブシキガイシヤ ヨコハマジギヨウシヨ"
  },
  "8507": {
    "zip_code": "2238507",
    "prefecture": "神奈川県",
    "prefecture_kana": "カナガワケン",
    "prefecture_code": 14,
    "city": "横浜市港北区",
    "city_kana": "ヨコハマシコウホクク",
    "town": "新吉田町",
    "town_kana": "シンヨシダチョウ",
    "street": "７８１",
    "office_name": "日本無線　株式会社",
    "office_name_kana": "ニホンムセン カブシキガイシヤ"
  },
  "8508": {
    "zip_code": "2238508",
    "prefecture": "神奈川県",
    "prefecture_kana": "カナガワケン",
    "prefecture_code": 14,
    "city": "横浜市港北区",
    "city_kana": "ヨコハマシコウホクク",
    "town": "綱島東",
    "town_kana": "ツナシマヒガシ",
    "street": "６丁目３−２０",
    "office_name": "株式会社　エヌエフ回路設計ブロック",
    "office_name_kana": "カブシキガイシヤ エヌエフカイロセツケイブロツク"
  },
  "8510": {
    "zip_code": "2238510",
    "prefecture": "神奈川県",
    "prefecture_kana": "カナガワケン",
    "prefecture_code": 14,
    "city": "横浜市港北区",
    "city_kana": "ヨコハマシコウホクク",
    "town": "高田町",
    "town_kana": "タカタチョウ",
    "street": "７１１−１",
    "office_name": "株式会社　トーエル",
    "office_name_kana": "カブシキガイシヤ ト-エル"
  },
  "8511": {
    "zip_code": "2238511",
    "prefecture": "神奈川県",
    "prefecture_kana": "カナガワケン",
    "prefecture_code": 14,
    "city": "横浜市港北区",
    "city_kana": "ヨコハマシコウホクク",
    "town": "新吉田東",
    "town_kana": "シンヨシダヒガシ",
    "street": "８−３２−１６",
    "office_name": "住友重機械モダン　株式会社",
    "office_name_kana": "スミトモジユウキカイモダン カブシキガイシヤ"
  },
  "8512": {
    "zip_code": "2238512",
    "prefecture": "神奈川県",
    "prefecture_kana": "カナガワケン",
    "prefecture_code": 14,
    "city": "横浜市港北区",
    "city_kana": "ヨコハマシコウホクク",
    "town": "綱島東",
    "town_kana": "ツナシマヒガシ",
    "street": "５丁目１０−２６",
    "office_name": "ホリエ電機　株式会社",
    "office_name_kana": "ホリエデンキ カブシキガイシヤ"
  },
  "8515": {
    "zip_code": "2238515",
    "prefecture": "神奈川県",
    "prefecture_kana": "カナガワケン",
    "prefecture_code": 14,
    "city": "横浜市港北区",
    "city_kana": "ヨコハマシコウホクク",
    "town": "北新横浜",
    "town_kana": "キタシンヨコハマ",
    "street": "１−５−７",
    "office_name": "横浜信用金庫",
    "office_name_kana": "ヨコハマシンヨウキンコ"
  },
  "8520": {
    "zip_code": "2238520",
    "prefecture": "神奈川県",
    "prefecture_kana": "カナガワケン",
    "prefecture_code": 14,
    "city": "横浜市港北区",
    "city_kana": "ヨコハマシコウホクク",
    "town": "新吉田町",
    "town_kana": "シンヨシダチョウ",
    "street": "２８９９",
    "office_name": "株式会社　大堀",
    "office_name_kana": "カブシキガイシヤ オオホリ"
  },
  "8521": {
    "zip_code": "2238521",
    "prefecture": "神奈川県",
    "prefecture_kana": "カナガワケン",
    "prefecture_code": 14,
    "city": "横浜市港北区",
    "city_kana": "ヨコハマシコウホクク",
    "town": "日吉",
    "town_kana": "ヒヨシ",
    "street": "４丁目１−１",
    "office_name": "慶應義塾大学　日吉キャンパス",
    "office_name_kana": "ケイオウギジユクダイガク ヒヨシキヤンパス"
  },
  "8522": {
    "zip_code": "2238522",
    "prefecture": "神奈川県",
    "prefecture_kana": "カナガワケン",
    "prefecture_code": 14,
    "city": "横浜市港北区",
    "city_kana": "ヨコハマシコウホクク",
    "town": "日吉",
    "town_kana": "ヒヨシ",
    "street": "３丁目１４−１",
    "office_name": "慶應義塾大学　理工学部",
    "office_name_kana": "ケイオウギジユクダイガク リコウガクブ"
  },
  "8523": {
    "zip_code": "2238523",
    "prefecture": "神奈川県",
    "prefecture_kana": "カナガワケン",
    "prefecture_code": 14,
    "city": "横浜市港北区",
    "city_kana": "ヨコハマシコウホクク",
    "town": "日吉本町",
    "town_kana": "ヒヨシホンチョウ",
    "street": "２丁目１−１",
    "office_name": "慶應義塾大学デジタルメディア・コンテンツ統合研究センター",
    "office_name_kana": "ケイオウギジユクダイガクデジタルメデイア・コンテンツトウゴウケンキユウセンタ-"
  },
  "8525": {
    "zip_code": "2238525",
    "prefecture": "神奈川県",
    "prefecture_kana": "カナガワケン",
    "prefecture_code": 14,
    "city": "横浜市港北区",
    "city_kana": "ヨコハマシコウホクク",
    "town": "綱島西",
    "town_kana": "ツナシマニシ",
    "street": "５丁目４−４４",
    "office_name": "株式会社　松永製作所",
    "office_name_kana": "カブシキガイシヤ マツナガセイサクジヨ"
  },
  "8526": {
    "zip_code": "2238526",
    "prefecture": "神奈川県",
    "prefecture_kana": "カナガワケン",
    "prefecture_code": 14,
    "city": "横浜市港北区",
    "city_kana": "ヨコハマシコウホクク",
    "town": "日吉",
    "town_kana": "ヒヨシ",
    "street": "４丁目１−１",
    "office_name": "慶應義塾協生館",
    "office_name_kana": "ケイオウギジユクキヨウセイカン"
  },
  "8527": {
    "zip_code": "2238527",
    "prefecture": "神奈川県",
    "prefecture_kana": "カナガワケン",
    "prefecture_code": 14,
    "city": "横浜市港北区",
    "city_kana": "ヨコハマシコウホクク",
    "town": "日吉本町",
    "town_kana": "ヒヨシホンチョウ",
    "street": "１−３０−２９",
    "office_name": "株式会社　コーエーテクモネット",
    "office_name_kana": "カブシキガイシヤ コ-エ-テクモネツト"
  },
  "8530": {
    "zip_code": "2238530",
    "prefecture": "神奈川県",
    "prefecture_kana": "カナガワケン",
    "prefecture_code": 14,
    "city": "横浜市港北区",
    "city_kana": "ヨコハマシコウホクク",
    "town": "新吉田町",
    "town_kana": "シンヨシダチョウ",
    "street": "５３３",
    "office_name": "東京エルピー瓦斯　株式会社",
    "office_name_kana": "トウキヨウエルピ-ガス カブシキガイシヤ"
  },
  "8533": {
    "zip_code": "2238533",
    "prefecture": "神奈川県",
    "prefecture_kana": "カナガワケン",
    "prefecture_code": 14,
    "city": "横浜市港北区",
    "city_kana": "ヨコハマシコウホクク",
    "town": "箕輪町",
    "town_kana": "ミノワチョウ",
    "street": "２丁目７−３",
    "office_name": "株式会社　岡本工作機械製作所",
    "office_name_kana": "カブシキガイシヤ オカモトコウサクキカイセイサクジヨ"
  },
  "8539": {
    "zip_code": "2238539",
    "prefecture": "神奈川県",
    "prefecture_kana": "カナガワケン",
    "prefecture_code": 14,
    "city": "横浜市港北区",
    "city_kana": "ヨコハマシコウホクク",
    "town": "綱島東",
    "town_kana": "ツナシマヒガシ",
    "street": "２丁目６−５４",
    "office_name": "松下通信システム建設　株式会社",
    "office_name_kana": "マツシタツウシンシステムケンセツ カブシキガイシヤ"
  },
  "8541": {
    "zip_code": "2238541",
    "prefecture": "神奈川県",
    "prefecture_kana": "カナガワケン",
    "prefecture_code": 14,
    "city": "横浜市港北区",
    "city_kana": "ヨコハマシコウホクク",
    "town": "新吉田町",
    "town_kana": "シンヨシダチョウ",
    "street": "２９３３",
    "office_name": "株式会社　ガリバー",
    "office_name_kana": "カブシキガイシヤ ガリバ-"
  },
  "8542": {
    "zip_code": "2238542",
    "prefecture": "神奈川県",
    "prefecture_kana": "カナガワケン",
    "prefecture_code": 14,
    "city": "横浜市港北区",
    "city_kana": "ヨコハマシコウホクク",
    "town": "綱島東",
    "town_kana": "ツナシマヒガシ",
    "street": "５丁目８−３４",
    "office_name": "株式会社　小泉神奈川",
    "office_name_kana": "カブシキガイシヤ コイズミカナガワ"
  },
  "8550": {
    "zip_code": "2238550",
    "prefecture": "神奈川県",
    "prefecture_kana": "カナガワケン",
    "prefecture_code": 14,
    "city": "横浜市港北区",
    "city_kana": "ヨコハマシコウホクク",
    "town": "新吉田町",
    "town_kana": "シンヨシダチョウ",
    "street": "１５７",
    "office_name": "日本電熱計器　株式会社",
    "office_name_kana": "ニホンデンネツケイキ カブシキカイシヤ"
  },
  "8555": {
    "zip_code": "2238555",
    "prefecture": "神奈川県",
    "prefecture_kana": "カナガワケン",
    "prefecture_code": 14,
    "city": "横浜市港北区",
    "city_kana": "ヨコハマシコウホクク",
    "town": "綱島西",
    "town_kana": "ツナシマニシ",
    "street": "５丁目４−５",
    "office_name": "株式会社　ナイガイ横浜センター",
    "office_name_kana": "カブシキガイシヤ ナイガイヨコハマセンタ-"
  },
  "8558": {
    "zip_code": "2238558",
    "prefecture": "神奈川県",
    "prefecture_kana": "カナガワケン",
    "prefecture_code": 14,
    "city": "横浜市港北区",
    "city_kana": "ヨコハマシコウホクク",
    "town": "新羽町",
    "town_kana": "ニッパチョウ",
    "street": "１２１５",
    "office_name": "オータックス　株式会社",
    "office_name_kana": "オ-タツクス カブシキガイシヤ"
  },
  "8560": {
    "zip_code": "2238560",
    "prefecture": "神奈川県",
    "prefecture_kana": "カナガワケン",
    "prefecture_code": 14,
    "city": "横浜市港北区",
    "city_kana": "ヨコハマシコウホクク",
    "town": "綱島東",
    "town_kana": "ツナシマヒガシ",
    "street": "５丁目４−６",
    "office_name": "株式会社　トーゴ",
    "office_name_kana": "カブシキガイシヤ ト-ゴ"
  },
  "8566": {
    "zip_code": "2238566",
    "prefecture": "神奈川県",
    "prefecture_kana": "カナガワケン",
    "prefecture_code": 14,
    "city": "横浜市港北区",
    "city_kana": "ヨコハマシコウホクク",
    "town": "箕輪町",
    "town_kana": "ミノワチョウ",
    "street": "２丁目９−１",
    "office_name": "日本大学高等学校・日本大学中学校",
    "office_name_kana": "ニホンダイガクコウトウガツコウ・ニホンダイガクチユウガツコウ"
  },
  "8567": {
    "zip_code": "2238567",
    "prefecture": "神奈川県",
    "prefecture_kana": "カナガワケン",
    "prefecture_code": 14,
    "city": "横浜市港北区",
    "city_kana": "ヨコハマシコウホクク",
    "town": "箕輪町",
    "town_kana": "ミノワチョウ",
    "street": "２丁目７−５",
    "office_name": "ユニー　日吉店",
    "office_name_kana": "ユニ- ヒヨシテン"
  },
  "8572": {
    "zip_code": "2238572",
    "prefecture": "神奈川県",
    "prefecture_kana": "カナガワケン",
    "prefecture_code": 14,
    "city": "横浜市港北区",
    "city_kana": "ヨコハマシコウホクク",
    "town": "新吉田町",
    "town_kana": "シンヨシダチョウ",
    "street": "７８１",
    "office_name": "ジェイ・アール・シー特機　株式会社",
    "office_name_kana": "ジエイ・ア-ル・シ-トツキ カブシキガイシヤ"
  },
  "8577": {
    "zip_code": "2238577",
    "prefecture": "神奈川県",
    "prefecture_kana": "カナガワケン",
    "prefecture_code": 14,
    "city": "横浜市港北区",
    "city_kana": "ヨコハマシコウホクク",
    "town": "日吉本町",
    "town_kana": "ヒヨシホンチョウ",
    "street": "４丁目８−１",
    "office_name": "大塚製靴　株式会社　日吉工場",
    "office_name_kana": "オオツカセイカ カブシキガイシヤ ヒヨシコウジヨウ"
  },
  "8580": {
    "zip_code": "2238580",
    "prefecture": "神奈川県",
    "prefecture_kana": "カナガワケン",
    "prefecture_code": 14,
    "city": "横浜市港北区",
    "city_kana": "ヨコハマシコウホクク",
    "town": "新羽町",
    "town_kana": "ニッパチョウ",
    "street": "１２６１",
    "office_name": "株式会社　浅川製作所",
    "office_name_kana": "カブシキガイシヤ アサカワセイサクシヨ"
  },
  "8585": {
    "zip_code": "2238585",
    "prefecture": "神奈川県",
    "prefecture_kana": "カナガワケン",
    "prefecture_code": 14,
    "city": "横浜市港北区",
    "city_kana": "ヨコハマシコウホクク",
    "town": "綱島西",
    "town_kana": "ツナシマニシ",
    "street": "６丁目１３−３２",
    "office_name": "ワコー電子　株式会社",
    "office_name_kana": "ワコ-デンシ カブシキガイシヤ"
  },
  "8588": {
    "zip_code": "2238588",
    "prefecture": "神奈川県",
    "prefecture_kana": "カナガワケン",
    "prefecture_code": 14,
    "city": "横浜市港北区",
    "city_kana": "ヨコハマシコウホクク",
    "town": "綱島東",
    "town_kana": "ツナシマヒガシ",
    "street": "６丁目７−９",
    "office_name": "株式会社　エイト工業",
    "office_name_kana": "カブシキガイシヤ エイトコウギヨウ"
  }
}