{
  "0000": {
    "zip_code": "2240000",
    "prefecture": "神奈川県",
    "prefecture_kana": "カナガワケン",
    "prefecture_code": "14",
    "city": "横浜市都筑区",
    "city_kana": "ヨコハマシツヅキク",
    "town": "",
    "town_kana": "",
    "street": null,
    "office_name": null,
    "office_name_kana": null
  },
  "0001": {
    "zip_code": "2240001",
    "prefecture": "神奈川県",
    "prefecture_kana": "カナガワケン",
    "prefecture_code": "14",
    "city": "横浜市都筑区",
    "city_kana": "ヨコハマシツヅキク",
    "town": "中川",
    "town_kana": "ナカガワ",
    "street": null,
    "office_name": null,
    "office_name_kana": null
  },
  "0003": {
    "zip_code": "2240003",
    "prefecture": "神奈川県",
    "prefecture_kana": "カナガワケン",
    "prefecture_code": "14",
    "city": "横浜市都筑区",
    "city_kana": "ヨコハマシツヅキク",
    "town": "中川中央",
    "town_kana": "ナカガワチュウオウ",
    "street": null,
    "office_name": null,
    "office_name_kana": null
  },
  "0004": {
    "zip_code": "2240004",
    "prefecture": "神奈川県",
    "prefecture_kana": "カナガワケン",
    "prefecture_code": "14",
    "city": "横浜市都筑区",
    "city_kana": "ヨコハマシツヅキク",
    "town": "荏田東町",
    "town_kana": "エダヒガシチョウ",
    "street": null,
    "office_name": null,
    "office_name_kana": null
  },
  "0006": {
    "zip_code": "2240006",
    "prefecture": "神奈川県",
    "prefecture_kana": "カナガワケン",
    "prefecture_code": "14",
    "city": "横浜市都筑区",
    "city_kana": "ヨコハマシツヅキク",
    "town": "荏田東",
    "town_kana": "エダヒガシ",
    "street": null,
    "office_name": null,
    "office_name_kana": null
  },
  "0007": {
    "zip_code": "2240007",
    "prefecture": "神奈川県",
    "prefecture_kana": "カナガワケン",
    "prefecture_code": "14",
    "city": "横浜市都筑区",
    "city_kana": "ヨコハマシツヅキク",
    "town": "荏田南",
    "town_kana": "エダミナミ",
    "street": null,
    "office_name": null,
    "office_name_kana": null
  },
  "0008": {
    "zip_code": "2240008",
    "prefecture": "神奈川県",
    "prefecture_kana": "カナガワケン",
    "prefecture_code": "14",
    "city": "横浜市都筑区",
    "city_kana": "ヨコハマシツヅキク",
    "town": "荏田南町",
    "town_kana": "エダミナミチョウ",
    "street": null,
    "office_name": null,
    "office_name_kana": null
  },
  "0011": {
    "zip_code": "2240011",
    "prefecture": "神奈川県",
    "prefecture_kana": "カナガワケン",
    "prefecture_code": "14",
    "city": "横浜市都筑区",
    "city_kana": "ヨコハマシツヅキク",
    "town": "牛久保町",
    "town_kana": "ウシクボチョウ",
    "street": null,
    "office_name": null,
    "office_name_kana": null
  },
  "0012": {
    "zip_code": "2240012",
    "prefecture": "神奈川県",
    "prefecture_kana": "カナガワケン",
    "prefecture_code": "14",
    "city": "横浜市都筑区",
    "city_kana": "ヨコハマシツヅキク",
    "town": "牛久保",
    "town_kana": "ウシクボ",
    "street": null,
    "office_name": null,
    "office_name_kana": null
  },
  "0013": {
    "zip_code": "2240013",
    "prefecture": "神奈川県",
    "prefecture_kana": "カナガワケン",
    "prefecture_code": "14",
    "city": "横浜市都筑区",
    "city_kana": "ヨコハマシツヅキク",
    "town": "すみれが丘",
    "town_kana": "スミレガオカ",
    "street": null,
    "office_name": null,
    "office_name_kana": null
  },
  "0014": {
    "zip_code": "2240014",
    "prefecture": "神奈川県",
    "prefecture_kana": "カナガワケン",
    "prefecture_code": "14",
    "city": "横浜市都筑区",
    "city_kana": "ヨコハマシツヅキク",
    "town": "牛久保東",
    "town_kana": "ウシクボヒガシ",
    "street": null,
    "office_name": null,
    "office_name_kana": null
  },
  "0015": {
    "zip_code": "2240015",
    "prefecture": "神奈川県",
    "prefecture_kana": "カナガワケン",
    "prefecture_code": "14",
    "city": "横浜市都筑区",
    "city_kana": "ヨコハマシツヅキク",
    "town": "牛久保西",
    "town_kana": "ウシクボニシ",
    "street": null,
    "office_name": null,
    "office_name_kana": null
  },
  "0016": {
    "zip_code": "2240016",
    "prefecture": "神奈川県",
    "prefecture_kana": "カナガワケン",
    "prefecture_code": "14",
    "city": "横浜市都筑区",
    "city_kana": "ヨコハマシツヅキク",
    "town": "あゆみが丘",
    "town_kana": "アユミガオカ",
    "street": null,
    "office_name": null,
    "office_name_kana": null
  },
  "0021": {
    "zip_code": "2240021",
    "prefecture": "神奈川県",
    "prefecture_kana": "カナガワケン",
    "prefecture_code": "14",
    "city": "横浜市都筑区",
    "city_kana": "ヨコハマシツヅキク",
    "town": "北山田",
    "town_kana": "キタヤマタ",
    "street": null,
    "office_name": null,
    "office_name_kana": null
  },
  "0023": {
    "zip_code": "2240023",
    "prefecture": "神奈川県",
    "prefecture_kana": "カナガワケン",
    "prefecture_code": "14",
    "city": "横浜市都筑区",
    "city_kana": "ヨコハマシツヅキク",
    "town": "東山田",
    "town_kana": "ヒガシヤマタ",
    "street": null,
    "office_name": null,
    "office_name_kana": null
  },
  "0024": {
    "zip_code": "2240024",
    "prefecture": "神奈川県",
    "prefecture_kana": "カナガワケン",
    "prefecture_code": "14",
    "city": "横浜市都筑区",
    "city_kana": "ヨコハマシツヅキク",
    "town": "東山田町",
    "town_kana": "ヒガシヤマタチョウ",
    "street": null,
    "office_name": null,
    "office_name_kana": null
  },
  "0025": {
    "zip_code": "2240025",
    "prefecture": "神奈川県",
    "prefecture_kana": "カナガワケン",
    "prefecture_code": "14",
    "city": "横浜市都筑区",
    "city_kana": "ヨコハマシツヅキク",
    "town": "早渕",
    "town_kana": "ハヤブチ",
    "street": null,
    "office_name": null,
    "office_name_kana": null
  },
  "0026": {
    "zip_code": "2240026",
    "prefecture": "神奈川県",
    "prefecture_kana": "カナガワケン",
    "prefecture_code": "14",
    "city": "横浜市都筑区",
    "city_kana": "ヨコハマシツヅキク",
    "town": "南山田町",
    "town_kana": "ミナミヤマタチョウ",
    "street": null,
    "office_name": null,
    "office_name_kana": null
  },
  "0027": {
    "zip_code": "2240027",
    "prefecture": "神奈川県",
    "prefecture_kana": "カナガワケン",
    "prefecture_code": "14",
    "city": "横浜市都筑区",
    "city_kana": "ヨコハマシツヅキク",
    "town": "大棚町",
    "town_kana": "オオダナチョウ",
    "street": null,
    "office_name": null,
    "office_name_kana": null
  },
  "0028": {
    "zip_code": "2240028",
    "prefecture": "神奈川県",
    "prefecture_kana": "カナガワケン",
    "prefecture_code": "14",
    "city": "横浜市都筑区",
    "city_kana": "ヨコハマシツヅキク",
    "town": "大棚西",
    "town_kana": "オオダナニシ",
    "street": null,
    "office_name": null,
    "office_name_kana": null
  },
  "0029": {
    "zip_code": "2240029",
    "prefecture": "神奈川県",
    "prefecture_kana": "カナガワケン",
    "prefecture_code": "14",
    "city": "横浜市都筑区",
    "city_kana": "ヨコハマシツヅキク",
    "town": "南山田",
    "town_kana": "ミナミヤマタ",
    "street": null,
    "office_name": null,
    "office_name_kana": null
  },
  "0031": {
    "zip_code": "2240031",
    "prefecture": "神奈川県",
    "prefecture_kana": "カナガワケン",
    "prefecture_code": "14",
    "city": "横浜市都筑区",
    "city_kana": "ヨコハマシツヅキク",
    "town": "茅ケ崎町",
    "town_kana": "チガサキチョウ",
    "street": null,
    "office_name": null,
    "office_name_kana": null
  },
  "0032": {
    "zip_code": "2240032",
    "prefecture": "神奈川県",
    "prefecture_kana": "カナガワケン",
    "prefecture_code": "14",
    "city": "横浜市都筑区",
    "city_kana": "ヨコハマシツヅキク",
    "town": "茅ケ崎中央",
    "town_kana": "チガサキチュウオウ",
    "street": null,
    "office_name": null,
    "office_name_kana": null
  },
  "0033": {
    "zip_code": "2240033",
    "prefecture": "神奈川県",
    "prefecture_kana": "カナガワケン",
    "prefecture_code": "14",
    "city": "横浜市都筑区",
    "city_kana": "ヨコハマシツヅキク",
    "town": "茅ケ崎東",
    "town_kana": "チガサキヒガシ",
    "street": null,
    "office_name": null,
    "office_name_kana": null
  },
  "0034": {
    "zip_code": "2240034",
    "prefecture": "神奈川県",
    "prefecture_kana": "カナガワケン",
    "prefecture_code": "14",
    "city": "横浜市都筑区",
    "city_kana": "ヨコハマシツヅキク",
    "town": "勝田町",
    "town_kana": "カチダチョウ",
    "street": null,
    "office_name": null,
    "office_name_kana": null
  },
  "0035": {
    "zip_code": "2240035",
    "prefecture": "神奈川県",
    "prefecture_kana": "カナガワケン",
    "prefecture_code": "14",
    "city": "横浜市都筑区",
    "city_kana": "ヨコハマシツヅキク",
    "town": "新栄町",
    "town_kana": "シンエイチョウ",
    "street": null,
    "office_name": null,
    "office_name_kana": null
  },
  "0036": {
    "zip_code": "2240036",
    "prefecture": "神奈川県",
    "prefecture_kana": "カナガワケン",
    "prefecture_code": "14",
    "city": "横浜市都筑区",
    "city_kana": "ヨコハマシツヅキク",
    "town": "勝田南",
    "town_kana": "カチダミナミ",
    "street": null,
    "office_name": null,
    "office_name_kana": null
  },
  "0037": {
    "zip_code": "2240037",
    "prefecture": "神奈川県",
    "prefecture_kana": "カナガワケン",
    "prefecture_code": "14",
    "city": "横浜市都筑区",
    "city_kana": "ヨコハマシツヅキク",
    "town": "茅ケ崎南",
    "town_kana": "チガサキミナミ",
    "street": null,
    "office_name": null,
    "office_name_kana": null
  },
  "0041": {
    "zip_code": "2240041",
    "prefecture": "神奈川県",
    "prefecture_kana": "カナガワケン",
    "prefecture_code": "14",
    "city": "横浜市都筑区",
    "city_kana": "ヨコハマシツヅキク",
    "town": "仲町台",
    "town_kana": "ナカマチダイ",
    "street": null,
    "office_name": null,
    "office_name_kana": null
  },
  "0042": {
    "zip_code": "2240042",
    "prefecture": "神奈川県",
    "prefecture_kana": "カナガワケン",
    "prefecture_code": "14",
    "city": "横浜市都筑区",
    "city_kana": "ヨコハマシツヅキク",
    "town": "大熊町",
    "town_kana": "オオクマチョウ",
    "street": null,
    "office_name": null,
    "office_name_kana": null
  },
  "0043": {
    "zip_code": "2240043",
    "prefecture": "神奈川県",
    "prefecture_kana": "カナガワケン",
    "prefecture_code": "14",
    "city": "横浜市都筑区",
    "city_kana": "ヨコハマシツヅキク",
    "town": "折本町",
    "town_kana": "オリモトチョウ",
    "street": null,
    "office_name": null,
    "office_name_kana": null
  },
  "0044": {
    "zip_code": "2240044",
    "prefecture": "神奈川県",
    "prefecture_kana": "カナガワケン",
    "prefecture_code": "14",
    "city": "横浜市都筑区",
    "city_kana": "ヨコハマシツヅキク",
    "town": "川向町",
    "town_kana": "カワムコウチョウ",
    "street": null,
    "office_name": null,
    "office_name_kana": null
  },
  "0045": {
    "zip_code": "2240045",
    "prefecture": "神奈川県",
    "prefecture_kana": "カナガワケン",
    "prefecture_code": "14",
    "city": "横浜市都筑区",
    "city_kana": "ヨコハマシツヅキク",
    "town": "東方町",
    "town_kana": "ヒガシカタチョウ",
    "street": null,
    "office_name": null,
    "office_name_kana": null
  },
  "0046": {
    "zip_code": "2240046",
    "prefecture": "神奈川県",
    "prefecture_kana": "カナガワケン",
    "prefecture_code": "14",
    "city": "横浜市都筑区",
    "city_kana": "ヨコハマシツヅキク",
    "town": "桜並木",
    "town_kana": "サクラナミキ",
    "street": null,
    "office_name": null,
    "office_name_kana": null
  },
  "0051": {
    "zip_code": "2240051",
    "prefecture": "神奈川県",
    "prefecture_kana": "カナガワケン",
    "prefecture_code": "14",
    "city": "横浜市都筑区",
    "city_kana": "ヨコハマシツヅキク",
    "town": "富士見が丘",
    "town_kana": "フジミガオカ",
    "street": null,
    "office_name": null,
    "office_name_kana": null
  },
  "0052": {
    "zip_code": "2240052",
    "prefecture": "神奈川県",
    "prefecture_kana": "カナガワケン",
    "prefecture_code": "14",
    "city": "横浜市都筑区",
    "city_kana": "ヨコハマシツヅキク",
    "town": "二の丸",
    "town_kana": "ニノマル",
    "street": null,
    "office_name": null,
    "office_name_kana": null
  },
  "0053": {
    "zip_code": "2240053",
    "prefecture": "神奈川県",
    "prefecture_kana": "カナガワケン",
    "prefecture_code": "14",
    "city": "横浜市都筑区",
    "city_kana": "ヨコハマシツヅキク",
    "town": "池辺町",
    "town_kana": "イコノベチョウ",
    "street": null,
    "office_name": null,
    "office_name_kana": null
  },
  "0054": {
    "zip_code": "2240054",
    "prefecture": "神奈川県",
    "prefecture_kana": "カナガワケン",
    "prefecture_code": "14",
    "city": "横浜市都筑区",
    "city_kana": "ヨコハマシツヅキク",
    "town": "佐江戸町",
    "town_kana": "サエドチョウ",
    "street": null,
    "office_name": null,
    "office_name_kana": null
  },
  "0055": {
    "zip_code": "2240055",
    "prefecture": "神奈川県",
    "prefecture_kana": "カナガワケン",
    "prefecture_code": "14",
    "city": "横浜市都筑区",
    "city_kana": "ヨコハマシツヅキク",
    "town": "加賀原",
    "town_kana": "カガハラ",
    "street": null,
    "office_name": null,
    "office_name_kana": null
  },
  "0056": {
    "zip_code": "2240056",
    "prefecture": "神奈川県",
    "prefecture_kana": "カナガワケン",
    "prefecture_code": "14",
    "city": "横浜市都筑区",
    "city_kana": "ヨコハマシツヅキク",
    "town": "川和台",
    "town_kana": "カワワダイ",
    "street": null,
    "office_name": null,
    "office_name_kana": null
  },
  "0057": {
    "zip_code": "2240057",
    "prefecture": "神奈川県",
    "prefecture_kana": "カナガワケン",
    "prefecture_code": "14",
    "city": "横浜市都筑区",
    "city_kana": "ヨコハマシツヅキク",
    "town": "川和町",
    "town_kana": "カワワチョウ",
    "street": null,
    "office_name": null,
    "office_name_kana": null
  },
  "0061": {
    "zip_code": "2240061",
    "prefecture": "神奈川県",
    "prefecture_kana": "カナガワケン",
    "prefecture_code": "14",
    "city": "横浜市都筑区",
    "city_kana": "ヨコハマシツヅキク",
    "town": "大丸",
    "town_kana": "オオマル",
    "street": null,
    "office_name": null,
    "office_name_kana": null
  },
  "0062": {
    "zip_code": "2240062",
    "prefecture": "神奈川県",
    "prefecture_kana": "カナガワケン",
    "prefecture_code": "14",
    "city": "横浜市都筑区",
    "city_kana": "ヨコハマシツヅキク",
    "town": "葛が谷",
    "town_kana": "クズガヤ",
    "street": null,
    "office_name": null,
    "office_name_kana": null
  },
  "0063": {
    "zip_code": "2240063",
    "prefecture": "神奈川県",
    "prefecture_kana": "カナガワケン",
    "prefecture_code": "14",
    "city": "横浜市都筑区",
    "city_kana": "ヨコハマシツヅキク",
    "town": "長坂",
    "town_kana": "ナガサカ",
    "street": null,
    "office_name": null,
    "office_name_kana": null
  },
  "0064": {
    "zip_code": "2240064",
    "prefecture": "神奈川県",
    "prefecture_kana": "カナガワケン",
    "prefecture_code": "14",
    "city": "横浜市都筑区",
    "city_kana": "ヨコハマシツヅキク",
    "town": "平台",
    "town_kana": "ヒラダイ",
    "street": null,
    "office_name": null,
    "office_name_kana": null
  },
  "0065": {
    "zip_code": "2240065",
    "prefecture": "神奈川県",
    "prefecture_kana": "カナガワケン",
    "prefecture_code": "14",
    "city": "横浜市都筑区",
    "city_kana": "ヨコハマシツヅキク",
    "town": "高山",
    "town_kana": "タカヤマ",
    "street": null,
    "office_name": null,
    "office_name_kana": null
  },
  "0066": {
    "zip_code": "2240066",
    "prefecture": "神奈川県",
    "prefecture_kana": "カナガワケン",
    "prefecture_code": "14",
    "city": "横浜市都筑区",
    "city_kana": "ヨコハマシツヅキク",
    "town": "見花山",
    "town_kana": "ミハナヤマ",
    "street": null,
    "office_name": null,
    "office_name_kana": null
  },
  "8501": {
    "zip_code": "2248501",
    "prefecture": "神奈川県",
    "prefecture_kana": "カナガワケン",
    "prefecture_code": "14",
    "city": "横浜市都筑区",
    "city_kana": "ヨコハマシツヅキク",
    "town": "牛久保",
    "town_kana": "ウシクボ",
    "street": "３−９−１",
    "office_name": "ボッシュ　株式会社",
    "office_name_kana": "ボツシユ カブシキカイシヤ"
  },
  "8502": {
    "zip_code": "2248502",
    "prefecture": "神奈川県",
    "prefecture_kana": "カナガワケン",
    "prefecture_code": "14",
    "city": "横浜市都筑区",
    "city_kana": "ヨコハマシツヅキク",
    "town": "加賀原",
    "town_kana": "カガハラ",
    "street": "２丁目１−１",
    "office_name": "京セラ　株式会社　横浜事業所",
    "office_name_kana": "キヨウセラ カブシキガイシヤ ヨコハマジギヨウシヨ"
  },
  "8503": {
    "zip_code": "2248503",
    "prefecture": "神奈川県",
    "prefecture_kana": null,
    "prefecture_code": null,
    "city": "横浜市都筑区",
    "city_kana": null,
    "town": "茅ヶ崎中央",
    "town_kana": null,
    "street": "３５−１",
    "office_name": "昭和大学　横浜市北部病院",
    "office_name_kana": "シヨウワダイガク ヨコハマシホクブビヨウイン"
  },
  "8504": {
    "zip_code": "2248504",
    "prefecture": "神奈川県",
    "prefecture_kana": "カナガワケン",
    "prefecture_code": "14",
    "city": "横浜市都筑区",
    "city_kana": "ヨコハマシツヅキク",
    "town": "荏田東",
    "town_kana": "エダヒガシ",
    "street": "４丁目１０−５",
    "office_name": "昭和大学　診療放射線専門学校",
    "office_name_kana": "シヨウワダイガク シンリヨウホウシヤセンセンモンガツコウ"
  },
  "8505": {
    "zip_code": "2248505",
    "prefecture": "神奈川県",
    "prefecture_kana": "カナガワケン",
    "prefecture_code": "14",
    "city": "横浜市都筑区",
    "city_kana": "ヨコハマシツヅキク",
    "town": "川和町",
    "town_kana": "カワワチョウ",
    "street": "６５４",
    "office_name": "富士通化成　株式会社",
    "office_name_kana": "フジツウカセイ カブシキガイシヤ"
  },
  "8510": {
    "zip_code": "2248510",
    "prefecture": "神奈川県",
    "prefecture_kana": "カナガワケン",
    "prefecture_code": "14",
    "city": "横浜市都筑区",
    "city_kana": "ヨコハマシツヅキク",
    "town": "仲町台",
    "town_kana": "ナカマチダイ",
    "street": "３丁目１２−３",
    "office_name": "東京濾器　株式会社",
    "office_name_kana": "トウキヨウロキ カブシキガイシヤ"
  },
  "8515": {
    "zip_code": "2248515",
    "prefecture": "神奈川県",
    "prefecture_kana": "カナガワケン",
    "prefecture_code": "14",
    "city": "横浜市都筑区",
    "city_kana": "ヨコハマシツヅキク",
    "town": "牛久保東",
    "town_kana": "ウシクボヒガシ",
    "street": "１丁目１４番１号",
    "office_name": "中央大学付属横浜中学校・高等学校",
    "office_name_kana": "チユウオウダイガクフゾクヨコハマチユウガツコウ・コウトウガツコウ"
  },
  "8520": {
    "zip_code": "2248520",
    "prefecture": "神奈川県",
    "prefecture_kana": "カナガワケン",
    "prefecture_code": "14",
    "city": "横浜市都筑区",
    "city_kana": "ヨコハマシツヅキク",
    "town": "池辺町",
    "town_kana": "イコノベチョウ",
    "street": "４２６１−１",
    "office_name": "パナソニック　株式会社　オートモーティブシステムズ社",
    "office_name_kana": "パナソニツク カブシキカイシヤ オ-トモ-テイブシステムズシヤ"
  },
  "8522": {
    "zip_code": "2248522",
    "prefecture": "神奈川県",
    "prefecture_kana": "カナガワケン",
    "prefecture_code": "14",
    "city": "横浜市都筑区",
    "city_kana": "ヨコハマシツヅキク",
    "town": "仲町台",
    "town_kana": "ナカマチダイ",
    "street": "３丁目１２−１",
    "office_name": "株式会社　ソディック",
    "office_name_kana": "カブシキガイシヤ ソデイツク"
  },
  "8524": {
    "zip_code": "2248524",
    "prefecture": "神奈川県",
    "prefecture_kana": "カナガワケン",
    "prefecture_code": "14",
    "city": "横浜市都筑区",
    "city_kana": "ヨコハマシツヅキク",
    "town": "折本町",
    "town_kana": "オリモトチョウ",
    "street": "４７０",
    "office_name": "亀屋万年堂製菓　株式会社",
    "office_name_kana": "カメヤマンネンドウセイカ カブシキガイシヤ"
  },
  "8539": {
    "zip_code": "2248539",
    "prefecture": "神奈川県",
    "prefecture_kana": "カナガワケン",
    "prefecture_code": "14",
    "city": "横浜市都筑区",
    "city_kana": "ヨコハマシツヅキク",
    "town": "佐江戸町",
    "town_kana": "サエドチョウ",
    "street": "６００",
    "office_name": "パナソニックモバイルコミュニケーションズ　株式会社",
    "office_name_kana": "パナソニツクモバイルコミユニケ-シヨンズ カブシキガイシヤ"
  },
  "8550": {
    "zip_code": "2248550",
    "prefecture": "神奈川県",
    "prefecture_kana": "カナガワケン",
    "prefecture_code": "14",
    "city": "横浜市都筑区",
    "city_kana": "ヨコハマシツヅキク",
    "town": "茅ケ崎南",
    "town_kana": "チガサキミナミ",
    "street": "２−６−２０",
    "office_name": "日本ヒルティ　株式会社",
    "office_name_kana": "ニホンヒルテイ カブシキガイシヤ"
  },
  "8551": {
    "zip_code": "2248551",
    "prefecture": "神奈川県",
    "prefecture_kana": "カナガワケン",
    "prefecture_code": "14",
    "city": "横浜市都筑区",
    "city_kana": "ヨコハマシツヅキク",
    "town": "牛久保西",
    "town_kana": "ウシクボニシ",
    "street": "３丁目３番１号",
    "office_name": "東京都市大学　横浜キャンパス",
    "office_name_kana": "トウキヨウトシダイガク ヨコハマキヤンパス"
  },
  "8578": {
    "zip_code": "2248578",
    "prefecture": "神奈川県",
    "prefecture_kana": "カナガワケン",
    "prefecture_code": "14",
    "city": "横浜市都筑区",
    "city_kana": "ヨコハマシツヅキク",
    "town": "葛が谷",
    "town_kana": "クズガヤ",
    "street": "６番５６号",
    "office_name": "株式会社　オリヒカ",
    "office_name_kana": "カブシキカイシヤ オリヒカ"
  },
  "8580": {
    "zip_code": "2248580",
    "prefecture": "神奈川県",
    "prefecture_kana": "カナガワケン",
    "prefecture_code": "14",
    "city": "横浜市都筑区",
    "city_kana": "ヨコハマシツヅキク",
    "town": "茅ケ崎中央",
    "town_kana": "チガサキチュウオウ",
    "street": "３２−１１",
    "office_name": "株式会社　図研",
    "office_name_kana": "カブシキガイシヤ ズケン"
  },
  "8585": {
    "zip_code": "2248585",
    "prefecture": "神奈川県",
    "prefecture_kana": "カナガワケン",
    "prefecture_code": "14",
    "city": "横浜市都筑区",
    "city_kana": "ヨコハマシツヅキク",
    "town": "荏田東",
    "town_kana": "エダヒガシ",
    "street": "２丁目２５−１",
    "office_name": "株式会社　図研",
    "office_name_kana": "カブシキガイシヤ ズケン"
  },
  "8588": {
    "zip_code": "2248588",
    "prefecture": "神奈川県",
    "prefecture_kana": "カナガワケン",
    "prefecture_code": "14",
    "city": "横浜市都筑区",
    "city_kana": "ヨコハマシツヅキク",
    "town": "茅ケ崎中央",
    "town_kana": "チガサキチュウオウ",
    "street": "２４−１",
    "office_name": "株式会社　ＡＯＫＩホールディングス",
    "office_name_kana": "カブシキガイシヤ アオキホ-ルデイングス"
  },
  "8686": {
    "zip_code": "2248686",
    "prefecture": "神奈川県",
    "prefecture_kana": "カナガワケン",
    "prefecture_code": "14",
    "city": "横浜市都筑区",
    "city_kana": "ヨコハマシツヅキク",
    "town": "仲町台",
    "town_kana": "ナカマチダイ",
    "street": "２丁目７−１（都筑郵便局私書箱第１号）",
    "office_name": "株式会社　サカタのタネ",
    "office_name_kana": "カブシキガイシヤ サカタノタネ"
  },
  "8688": {
    "zip_code": "2248688",
    "prefecture": "神奈川県",
    "prefecture_kana": "カナガワケン",
    "prefecture_code": "14",
    "city": "横浜市都筑区",
    "city_kana": "ヨコハマシツヅキク",
    "town": "葛が谷",
    "town_kana": "クズガヤ",
    "street": "６番５６号",
    "office_name": "株式会社　ＡＯＫＩ",
    "office_name_kana": "カブシキカイシヤ アオキ"
  }
}