{
  "0000": {
    "zip_code": "2330000",
    "prefecture": "神奈川県",
    "prefecture_kana": "カナガワケン",
    "prefecture_code": "14",
    "city": "横浜市港南区",
    "city_kana": "ヨコハマシコウナンク",
    "town": "",
    "town_kana": "",
    "street": null,
    "office_name": null,
    "office_name_kana": null
  },
  "0001": {
    "zip_code": "2330001",
    "prefecture": "神奈川県",
    "prefecture_kana": "カナガワケン",
    "prefecture_code": "14",
    "city": "横浜市港南区",
    "city_kana": "ヨコハマシコウナンク",
    "town": "上大岡東",
    "town_kana": "カミオオオカヒガシ",
    "street": null,
    "office_name": null,
    "office_name_kana": null
  },
  "0002": {
    "zip_code": "2330002",
    "prefecture": "神奈川県",
    "prefecture_kana": "カナガワケン",
    "prefecture_code": "14",
    "city": "横浜市港南区",
    "city_kana": "ヨコハマシコウナンク",
    "town": "上大岡西",
    "town_kana": "カミオオオカニシ",
    "street": null,
    "office_name": null,
    "office_name_kana": null
  },
  "0003": {
    "zip_code": "2330003",
    "prefecture": "神奈川県",
    "prefecture_kana": "カナガワケン",
    "prefecture_code": "14",
    "city": "横浜市港南区",
    "city_kana": "ヨコハマシコウナンク",
    "town": "港南",
    "town_kana": "コウナン",
    "street": null,
    "office_name": null,
    "office_name_kana": null
  },
  "0004": {
    "zip_code": "2330004",
    "prefecture": "神奈川県",
    "prefecture_kana": "カナガワケン",
    "prefecture_code": "14",
    "city": "横浜市港南区",
    "city_kana": "ヨコハマシコウナンク",
    "town": "港南中央通",
    "town_kana": "コウナンチュウオウドオリ",
    "street": null,
    "office_name": null,
    "office_name_kana": null
  },
  "0005": {
    "zip_code": "2330005",
    "prefecture": "神奈川県",
    "prefecture_kana": "カナガワケン",
    "prefecture_code": "14",
    "city": "横浜市港南区",
    "city_kana": "ヨコハマシコウナンク",
    "town": "東芹が谷",
    "town_kana": "ヒガシセリガヤ",
    "street": null,
    "office_name": null,
    "office_name_kana": null
  },
  "0006": {
    "zip_code": "2330006",
    "prefecture": "神奈川県",
    "prefecture_kana": "カナガワケン",
    "prefecture_code": "14",
    "city": "横浜市港南区",
    "city_kana": "ヨコハマシコウナンク",
    "town": "芹が谷",
    "town_kana": "セリガヤ",
    "street": null,
    "office_name": null,
    "office_name_kana": null
  },
  "0007": {
    "zip_code": "2330007",
    "prefecture": "神奈川県",
    "prefecture_kana": "カナガワケン",
    "prefecture_code": "14",
    "city": "横浜市港南区",
    "city_kana": "ヨコハマシコウナンク",
    "town": "大久保",
    "town_kana": "オオクボ",
    "street": null,
    "office_name": null,
    "office_name_kana": null
  },
  "0008": {
    "zip_code": "2330008",
    "prefecture": "神奈川県",
    "prefecture_kana": "カナガワケン",
    "prefecture_code": "14",
    "city": "横浜市港南区",
    "city_kana": "ヨコハマシコウナンク",
    "town": "最戸",
    "town_kana": "サイド",
    "street": null,
    "office_name": null,
    "office_name_kana": null
  },
  "0011": {
    "zip_code": "2330011",
    "prefecture": "神奈川県",
    "prefecture_kana": "カナガワケン",
    "prefecture_code": "14",
    "city": "横浜市港南区",
    "city_kana": "ヨコハマシコウナンク",
    "town": "東永谷",
    "town_kana": "ヒガシナガヤ",
    "street": null,
    "office_name": null,
    "office_name_kana": null
  },
  "0012": {
    "zip_code": "2330012",
    "prefecture": "神奈川県",
    "prefecture_kana": "カナガワケン",
    "prefecture_code": "14",
    "city": "横浜市港南区",
    "city_kana": "ヨコハマシコウナンク",
    "town": "上永谷",
    "town_kana": "カミナガヤ",
    "street": null,
    "office_name": null,
    "office_name_kana": null
  },
  "0013": {
    "zip_code": "2330013",
    "prefecture": "神奈川県",
    "prefecture_kana": "カナガワケン",
    "prefecture_code": "14",
    "city": "横浜市港南区",
    "city_kana": "ヨコハマシコウナンク",
    "town": "丸山台",
    "town_kana": "マルヤマダイ",
    "street": null,
    "office_name": null,
    "office_name_kana": null
  },
  "0014": {
    "zip_code": "2330014",
    "prefecture": "神奈川県",
    "prefecture_kana": "カナガワケン",
    "prefecture_code": "14",
    "city": "横浜市港南区",
    "city_kana": "ヨコハマシコウナンク",
    "town": "上永谷町",
    "town_kana": "カミナガヤチョウ",
    "street": null,
    "office_name": null,
    "office_name_kana": null
  },
  "0015": {
    "zip_code": "2330015",
    "prefecture": "神奈川県",
    "prefecture_kana": "カナガワケン",
    "prefecture_code": "14",
    "city": "横浜市港南区",
    "city_kana": "ヨコハマシコウナンク",
    "town": "日限山",
    "town_kana": "ヒギリヤマ",
    "street": null,
    "office_name": null,
    "office_name_kana": null
  },
  "0016": {
    "zip_code": "2330016",
    "prefecture": "神奈川県",
    "prefecture_kana": "カナガワケン",
    "prefecture_code": "14",
    "city": "横浜市港南区",
    "city_kana": "ヨコハマシコウナンク",
    "town": "下永谷",
    "town_kana": "シモナガヤ",
    "street": null,
    "office_name": null,
    "office_name_kana": null
  },
  "8501": {
    "zip_code": "2338501",
    "prefecture": "神奈川県",
    "prefecture_kana": "カナガワケン",
    "prefecture_code": "14",
    "city": "横浜市港南区",
    "city_kana": "ヨコハマシコウナンク",
    "town": "港南",
    "town_kana": "コウナン",
    "street": "４丁目２−２",
    "office_name": "横浜刑務所",
    "office_name_kana": "ヨコハマケイムシヨ"
  },
  "8502": {
    "zip_code": "2338502",
    "prefecture": "神奈川県",
    "prefecture_kana": "カナガワケン",
    "prefecture_code": "14",
    "city": "横浜市港南区",
    "city_kana": "ヨコハマシコウナンク",
    "town": "港南",
    "town_kana": "コウナン",
    "street": "４丁目２−３",
    "office_name": "横浜拘置支所",
    "office_name_kana": "ヨコハマコウチシシヨ"
  },
  "8503": {
    "zip_code": "2338503",
    "prefecture": "神奈川県",
    "prefecture_kana": "カナガワケン",
    "prefecture_code": "14",
    "city": "横浜市港南区",
    "city_kana": "ヨコハマシコウナンク",
    "town": "芹が谷",
    "town_kana": "セリガヤ",
    "street": "２丁目６−１",
    "office_name": "国立療養所南横浜病院",
    "office_name_kana": "コクリツリヨウヨウジヨミナミヨコハマビヨウイン"
  },
  "8550": {
    "zip_code": "2338550",
    "prefecture": "神奈川県",
    "prefecture_kana": "カナガワケン",
    "prefecture_code": "14",
    "city": "横浜市港南区",
    "city_kana": "ヨコハマシコウナンク",
    "town": "最戸",
    "town_kana": "サイド",
    "street": "１丁目１３−１",
    "office_name": "（株）　日揮",
    "office_name_kana": "(カブ) ニツキ"
  },
  "8555": {
    "zip_code": "2338555",
    "prefecture": "神奈川県",
    "prefecture_kana": "カナガワケン",
    "prefecture_code": "14",
    "city": "横浜市港南区",
    "city_kana": "ヨコハマシコウナンク",
    "town": "上大岡西",
    "town_kana": "カミオオオカニシ",
    "street": "１丁目６−１",
    "office_name": "株式会社　京急ショッピングセンター",
    "office_name_kana": "カブシキガイシヤ ケイキユウシヨツピングセンタ-"
  },
  "8556": {
    "zip_code": "2338556",
    "prefecture": "神奈川県",
    "prefecture_kana": "カナガワケン",
    "prefecture_code": "14",
    "city": "横浜市港南区",
    "city_kana": "ヨコハマシコウナンク",
    "town": "上大岡西",
    "town_kana": "カミオオオカニシ",
    "street": "１丁目６−１",
    "office_name": "株式会社　京急百貨店",
    "office_name_kana": "カブシキガイシヤ ケイキユウヒヤツカテン"
  }
}