{
  "0000": {
    "zip_code": "2360000",
    "prefecture": "神奈川県",
    "prefecture_kana": "カナガワケン",
    "prefecture_code": "14",
    "city": "横浜市金沢区",
    "city_kana": "ヨコハマシカナザワク",
    "town": "",
    "town_kana": "",
    "street": null,
    "office_name": null,
    "office_name_kana": null
  },
  "0001": {
    "zip_code": "2360001",
    "prefecture": "神奈川県",
    "prefecture_kana": "カナガワケン",
    "prefecture_code": "14",
    "city": "横浜市金沢区",
    "city_kana": "ヨコハマシカナザワク",
    "town": "昭和町",
    "town_kana": "ショウワマチ",
    "street": null,
    "office_name": null,
    "office_name_kana": null
  },
  "0002": {
    "zip_code": "2360002",
    "prefecture": "神奈川県",
    "prefecture_kana": "カナガワケン",
    "prefecture_code": "14",
    "city": "横浜市金沢区",
    "city_kana": "ヨコハマシカナザワク",
    "town": "鳥浜町",
    "town_kana": "トリハマチョウ",
    "street": null,
    "office_name": null,
    "office_name_kana": null
  },
  "0003": {
    "zip_code": "2360003",
    "prefecture": "神奈川県",
    "prefecture_kana": "カナガワケン",
    "prefecture_code": "14",
    "city": "横浜市金沢区",
    "city_kana": "ヨコハマシカナザワク",
    "town": "幸浦",
    "town_kana": "サチウラ",
    "street": null,
    "office_name": null,
    "office_name_kana": null
  },
  "0004": {
    "zip_code": "2360004",
    "prefecture": "神奈川県",
    "prefecture_kana": "カナガワケン",
    "prefecture_code": "14",
    "city": "横浜市金沢区",
    "city_kana": "ヨコハマシカナザワク",
    "town": "福浦",
    "town_kana": "フクウラ",
    "street": null,
    "office_name": null,
    "office_name_kana": null
  },
  "0005": {
    "zip_code": "2360005",
    "prefecture": "神奈川県",
    "prefecture_kana": "カナガワケン",
    "prefecture_code": "14",
    "city": "横浜市金沢区",
    "city_kana": "ヨコハマシカナザワク",
    "town": "並木",
    "town_kana": "ナミキ",
    "street": null,
    "office_name": null,
    "office_name_kana": null
  },
  "0006": {
    "zip_code": "2360006",
    "prefecture": "神奈川県",
    "prefecture_kana": "カナガワケン",
    "prefecture_code": "14",
    "city": "横浜市金沢区",
    "city_kana": "ヨコハマシカナザワク",
    "town": "八景島",
    "town_kana": "ハッケイジマ",
    "street": null,
    "office_name": null,
    "office_name_kana": null
  },
  "0007": {
    "zip_code": "2360007",
    "prefecture": "神奈川県",
    "prefecture_kana": "カナガワケン",
    "prefecture_code": "14",
    "city": "横浜市金沢区",
    "city_kana": "ヨコハマシカナザワク",
    "town": "白帆",
    "town_kana": "シラホ",
    "street": null,
    "office_name": null,
    "office_name_kana": null
  },
  "0011": {
    "zip_code": "2360011",
    "prefecture": "神奈川県",
    "prefecture_kana": "カナガワケン",
    "prefecture_code": "14",
    "city": "横浜市金沢区",
    "city_kana": "ヨコハマシカナザワク",
    "town": "長浜",
    "town_kana": "ナガハマ",
    "street": null,
    "office_name": null,
    "office_name_kana": null
  },
  "0012": {
    "zip_code": "2360012",
    "prefecture": "神奈川県",
    "prefecture_kana": "カナガワケン",
    "prefecture_code": "14",
    "city": "横浜市金沢区",
    "city_kana": "ヨコハマシカナザワク",
    "town": "柴町",
    "town_kana": "シバマチ",
    "street": null,
    "office_name": null,
    "office_name_kana": null
  },
  "0013": {
    "zip_code": "2360013",
    "prefecture": "神奈川県",
    "prefecture_kana": "カナガワケン",
    "prefecture_code": "14",
    "city": "横浜市金沢区",
    "city_kana": "ヨコハマシカナザワク",
    "town": "海の公園",
    "town_kana": "ウミノコウエン",
    "street": null,
    "office_name": null,
    "office_name_kana": null
  },
  "0014": {
    "zip_code": "2360014",
    "prefecture": "神奈川県",
    "prefecture_kana": "カナガワケン",
    "prefecture_code": "14",
    "city": "横浜市金沢区",
    "city_kana": "ヨコハマシカナザワク",
    "town": "寺前",
    "town_kana": "テラマエ",
    "street": null,
    "office_name": null,
    "office_name_kana": null
  },
  "0015": {
    "zip_code": "2360015",
    "prefecture": "神奈川県",
    "prefecture_kana": "カナガワケン",
    "prefecture_code": "14",
    "city": "横浜市金沢区",
    "city_kana": "ヨコハマシカナザワク",
    "town": "金沢町",
    "town_kana": "カナザワチョウ",
    "street": null,
    "office_name": null,
    "office_name_kana": null
  },
  "0016": {
    "zip_code": "2360016",
    "prefecture": "神奈川県",
    "prefecture_kana": "カナガワケン",
    "prefecture_code": "14",
    "city": "横浜市金沢区",
    "city_kana": "ヨコハマシカナザワク",
    "town": "谷津町",
    "town_kana": "ヤツチョウ",
    "street": null,
    "office_name": null,
    "office_name_kana": null
  },
  "0017": {
    "zip_code": "2360017",
    "prefecture": "神奈川県",
    "prefecture_kana": "カナガワケン",
    "prefecture_code": "14",
    "city": "横浜市金沢区",
    "city_kana": "ヨコハマシカナザワク",
    "town": "西柴",
    "town_kana": "ニシシバ",
    "street": null,
    "office_name": null,
    "office_name_kana": null
  },
  "0021": {
    "zip_code": "2360021",
    "prefecture": "神奈川県",
    "prefecture_kana": "カナガワケン",
    "prefecture_code": "14",
    "city": "横浜市金沢区",
    "city_kana": "ヨコハマシカナザワク",
    "town": "泥亀",
    "town_kana": "デイキ",
    "street": null,
    "office_name": null,
    "office_name_kana": null
  },
  "0022": {
    "zip_code": "2360022",
    "prefecture": "神奈川県",
    "prefecture_kana": "カナガワケン",
    "prefecture_code": "14",
    "city": "横浜市金沢区",
    "city_kana": "ヨコハマシカナザワク",
    "town": "町屋町",
    "town_kana": "マチヤチョウ",
    "street": null,
    "office_name": null,
    "office_name_kana": null
  },
  "0023": {
    "zip_code": "2360023",
    "prefecture": "神奈川県",
    "prefecture_kana": "カナガワケン",
    "prefecture_code": "14",
    "city": "横浜市金沢区",
    "city_kana": "ヨコハマシカナザワク",
    "town": "平潟町",
    "town_kana": "ヒラカタチョウ",
    "street": null,
    "office_name": null,
    "office_name_kana": null
  },
  "0024": {
    "zip_code": "2360024",
    "prefecture": "神奈川県",
    "prefecture_kana": "カナガワケン",
    "prefecture_code": "14",
    "city": "横浜市金沢区",
    "city_kana": "ヨコハマシカナザワク",
    "town": "乙舳町",
    "town_kana": "オツトモチョウ",
    "street": null,
    "office_name": null,
    "office_name_kana": null
  },
  "0025": {
    "zip_code": "2360025",
    "prefecture": "神奈川県",
    "prefecture_kana": "カナガワケン",
    "prefecture_code": "14",
    "city": "横浜市金沢区",
    "city_kana": "ヨコハマシカナザワク",
    "town": "野島町",
    "town_kana": "ノジマチョウ",
    "street": null,
    "office_name": null,
    "office_name_kana": null
  },
  "0026": {
    "zip_code": "2360026",
    "prefecture": "神奈川県",
    "prefecture_kana": "カナガワケン",
    "prefecture_code": "14",
    "city": "横浜市金沢区",
    "city_kana": "ヨコハマシカナザワク",
    "town": "柳町",
    "town_kana": "ヤナギチョウ",
    "street": null,
    "office_name": null,
    "office_name_kana": null
  },
  "0027": {
    "zip_code": "2360027",
    "prefecture": "神奈川県",
    "prefecture_kana": "カナガワケン",
    "prefecture_code": "14",
    "city": "横浜市金沢区",
    "city_kana": "ヨコハマシカナザワク",
    "town": "瀬戸",
    "town_kana": "セト",
    "street": null,
    "office_name": null,
    "office_name_kana": null
  },
  "0028": {
    "zip_code": "2360028",
    "prefecture": "神奈川県",
    "prefecture_kana": "カナガワケン",
    "prefecture_code": "14",
    "city": "横浜市金沢区",
    "city_kana": "ヨコハマシカナザワク",
    "town": "洲崎町",
    "town_kana": "スサキチョウ",
    "street": null,
    "office_name": null,
    "office_name_kana": null
  },
  "0031": {
    "zip_code": "2360031",
    "prefecture": "神奈川県",
    "prefecture_kana": "カナガワケン",
    "prefecture_code": "14",
    "city": "横浜市金沢区",
    "city_kana": "ヨコハマシカナザワク",
    "town": "六浦",
    "town_kana": "ムツウラ",
    "street": null,
    "office_name": null,
    "office_name_kana": null
  },
  "0032": {
    "zip_code": "2360032",
    "prefecture": "神奈川県",
    "prefecture_kana": "カナガワケン",
    "prefecture_code": "14",
    "city": "横浜市金沢区",
    "city_kana": "ヨコハマシカナザワク",
    "town": "六浦町",
    "town_kana": "ムツウラチョウ",
    "street": null,
    "office_name": null,
    "office_name_kana": null
  },
  "0033": {
    "zip_code": "2360033",
    "prefecture": "神奈川県",
    "prefecture_kana": "カナガワケン",
    "prefecture_code": "14",
    "city": "横浜市金沢区",
    "city_kana": "ヨコハマシカナザワク",
    "town": "東朝比奈",
    "town_kana": "ヒガシアサヒナ",
    "street": null,
    "office_name": null,
    "office_name_kana": null
  },
  "0034": {
    "zip_code": "2360034",
    "prefecture": "神奈川県",
    "prefecture_kana": "カナガワケン",
    "prefecture_code": "14",
    "city": "横浜市金沢区",
    "city_kana": "ヨコハマシカナザワク",
    "town": "朝比奈町",
    "town_kana": "アサヒナチョウ",
    "street": null,
    "office_name": null,
    "office_name_kana": null
  },
  "0035": {
    "zip_code": "2360035",
    "prefecture": "神奈川県",
    "prefecture_kana": "カナガワケン",
    "prefecture_code": "14",
    "city": "横浜市金沢区",
    "city_kana": "ヨコハマシカナザワク",
    "town": "大道",
    "town_kana": "ダイドウ",
    "street": null,
    "office_name": null,
    "office_name_kana": null
  },
  "0036": {
    "zip_code": "2360036",
    "prefecture": "神奈川県",
    "prefecture_kana": "カナガワケン",
    "prefecture_code": "14",
    "city": "横浜市金沢区",
    "city_kana": "ヨコハマシカナザワク",
    "town": "みず木町",
    "town_kana": "ミズキチョウ",
    "street": null,
    "office_name": null,
    "office_name_kana": null
  },
  "0037": {
    "zip_code": "2360037",
    "prefecture": "神奈川県",
    "prefecture_kana": "カナガワケン",
    "prefecture_code": "14",
    "city": "横浜市金沢区",
    "city_kana": "ヨコハマシカナザワク",
    "town": "六浦東",
    "town_kana": "ムツウラヒガシ",
    "street": null,
    "office_name": null,
    "office_name_kana": null
  },
  "0038": {
    "zip_code": "2360038",
    "prefecture": "神奈川県",
    "prefecture_kana": "カナガワケン",
    "prefecture_code": "14",
    "city": "横浜市金沢区",
    "city_kana": "ヨコハマシカナザワク",
    "town": "六浦南",
    "town_kana": "ムツウラミナミ",
    "street": null,
    "office_name": null,
    "office_name_kana": null
  },
  "0041": {
    "zip_code": "2360041",
    "prefecture": "神奈川県",
    "prefecture_kana": "カナガワケン",
    "prefecture_code": "14",
    "city": "横浜市金沢区",
    "city_kana": "ヨコハマシカナザワク",
    "town": "釜利谷町",
    "town_kana": "カマリヤチョウ",
    "street": null,
    "office_name": null,
    "office_name_kana": null
  },
  "0042": {
    "zip_code": "2360042",
    "prefecture": "神奈川県",
    "prefecture_kana": "カナガワケン",
    "prefecture_code": "14",
    "city": "横浜市金沢区",
    "city_kana": "ヨコハマシカナザワク",
    "town": "釜利谷東",
    "town_kana": "カマリヤヒガシ",
    "street": null,
    "office_name": null,
    "office_name_kana": null
  },
  "0043": {
    "zip_code": "2360043",
    "prefecture": "神奈川県",
    "prefecture_kana": "カナガワケン",
    "prefecture_code": "14",
    "city": "横浜市金沢区",
    "city_kana": "ヨコハマシカナザワク",
    "town": "大川",
    "town_kana": "オオカワ",
    "street": null,
    "office_name": null,
    "office_name_kana": null
  },
  "0044": {
    "zip_code": "2360044",
    "prefecture": "神奈川県",
    "prefecture_kana": "カナガワケン",
    "prefecture_code": "14",
    "city": "横浜市金沢区",
    "city_kana": "ヨコハマシカナザワク",
    "town": "高舟台",
    "town_kana": "タカフネダイ",
    "street": null,
    "office_name": null,
    "office_name_kana": null
  },
  "0045": {
    "zip_code": "2360045",
    "prefecture": "神奈川県",
    "prefecture_kana": "カナガワケン",
    "prefecture_code": "14",
    "city": "横浜市金沢区",
    "city_kana": "ヨコハマシカナザワク",
    "town": "釜利谷南",
    "town_kana": "カマリヤミナミ",
    "street": null,
    "office_name": null,
    "office_name_kana": null
  },
  "0046": {
    "zip_code": "2360046",
    "prefecture": "神奈川県",
    "prefecture_kana": "カナガワケン",
    "prefecture_code": "14",
    "city": "横浜市金沢区",
    "city_kana": "ヨコハマシカナザワク",
    "town": "釜利谷西",
    "town_kana": "カマリヤニシ",
    "street": null,
    "office_name": null,
    "office_name_kana": null
  },
  "0051": {
    "zip_code": "2360051",
    "prefecture": "神奈川県",
    "prefecture_kana": "カナガワケン",
    "prefecture_code": "14",
    "city": "横浜市金沢区",
    "city_kana": "ヨコハマシカナザワク",
    "town": "富岡東",
    "town_kana": "トミオカヒガシ",
    "street": null,
    "office_name": null,
    "office_name_kana": null
  },
  "0052": {
    "zip_code": "2360052",
    "prefecture": "神奈川県",
    "prefecture_kana": "カナガワケン",
    "prefecture_code": "14",
    "city": "横浜市金沢区",
    "city_kana": "ヨコハマシカナザワク",
    "town": "富岡西",
    "town_kana": "トミオカニシ",
    "street": null,
    "office_name": null,
    "office_name_kana": null
  },
  "0053": {
    "zip_code": "2360053",
    "prefecture": "神奈川県",
    "prefecture_kana": "カナガワケン",
    "prefecture_code": "14",
    "city": "横浜市金沢区",
    "city_kana": "ヨコハマシカナザワク",
    "town": "能見台通",
    "town_kana": "ノウケンダイドオリ",
    "street": null,
    "office_name": null,
    "office_name_kana": null
  },
  "0054": {
    "zip_code": "2360054",
    "prefecture": "神奈川県",
    "prefecture_kana": "カナガワケン",
    "prefecture_code": "14",
    "city": "横浜市金沢区",
    "city_kana": "ヨコハマシカナザワク",
    "town": "堀口",
    "town_kana": "ホリグチ",
    "street": null,
    "office_name": null,
    "office_name_kana": null
  },
  "0055": {
    "zip_code": "2360055",
    "prefecture": "神奈川県",
    "prefecture_kana": "カナガワケン",
    "prefecture_code": "14",
    "city": "横浜市金沢区",
    "city_kana": "ヨコハマシカナザワク",
    "town": "片吹",
    "town_kana": "カタブキ",
    "street": null,
    "office_name": null,
    "office_name_kana": null
  },
  "0056": {
    "zip_code": "2360056",
    "prefecture": "神奈川県",
    "prefecture_kana": "カナガワケン",
    "prefecture_code": "14",
    "city": "横浜市金沢区",
    "city_kana": "ヨコハマシカナザワク",
    "town": "能見台森",
    "town_kana": "ノウケンダイモリ",
    "street": null,
    "office_name": null,
    "office_name_kana": null
  },
  "0057": {
    "zip_code": "2360057",
    "prefecture": "神奈川県",
    "prefecture_kana": "カナガワケン",
    "prefecture_code": "14",
    "city": "横浜市金沢区",
    "city_kana": "ヨコハマシカナザワク",
    "town": "能見台",
    "town_kana": "ノウケンダイ",
    "street": null,
    "office_name": null,
    "office_name_kana": null
  },
  "0058": {
    "zip_code": "2360058",
    "prefecture": "神奈川県",
    "prefecture_kana": "カナガワケン",
    "prefecture_code": "14",
    "city": "横浜市金沢区",
    "city_kana": "ヨコハマシカナザワク",
    "town": "能見台東",
    "town_kana": "ノウケンダイヒガシ",
    "street": null,
    "office_name": null,
    "office_name_kana": null
  },
  "8501": {
    "zip_code": "2368501",
    "prefecture": "神奈川県",
    "prefecture_kana": "カナガワケン",
    "prefecture_code": "14",
    "city": "横浜市金沢区",
    "city_kana": "ヨコハマシカナザワク",
    "town": "六浦東",
    "town_kana": "ムツウラヒガシ",
    "street": "１丁目５０−１",
    "office_name": "関東学院大学",
    "office_name_kana": "カントウガクインダイガク"
  },
  "8502": {
    "zip_code": "2368502",
    "prefecture": "神奈川県",
    "prefecture_kana": "カナガワケン",
    "prefecture_code": "14",
    "city": "横浜市金沢区",
    "city_kana": "ヨコハマシカナザワク",
    "town": "釜利谷南",
    "town_kana": "カマリヤミナミ",
    "street": "３丁目２２−１",
    "office_name": "関東学院大学　金沢文庫キャンパス",
    "office_name_kana": "カントウガクインダイガク カナザワブンコキヤンパス"
  },
  "8503": {
    "zip_code": "2368503",
    "prefecture": "神奈川県",
    "prefecture_kana": "カナガワケン",
    "prefecture_code": "14",
    "city": "横浜市金沢区",
    "city_kana": "ヨコハマシカナザワク",
    "town": "六浦東",
    "town_kana": "ムツウラヒガシ",
    "street": "１丁目５０−１",
    "office_name": "関東学院大学　金沢八景室の木キャンパス",
    "office_name_kana": "カントウガクインダイガク カナザワハツケイムロノキキヤンパス"
  },
  "8504": {
    "zip_code": "2368504",
    "prefecture": "神奈川県",
    "prefecture_kana": "カナガワケン",
    "prefecture_code": "14",
    "city": "横浜市金沢区",
    "city_kana": "ヨコハマシカナザワク",
    "town": "六浦東",
    "town_kana": "ムツウラヒガシ",
    "street": "１丁目５０−１",
    "office_name": "関東学院六浦中学校・高等学校",
    "office_name_kana": "カントウガクインムツウラチユウガツコウ・コウトウガツコウ"
  },
  "8515": {
    "zip_code": "2368515",
    "prefecture": "神奈川県",
    "prefecture_kana": "カナガワケン",
    "prefecture_code": "14",
    "city": "横浜市金沢区",
    "city_kana": "ヨコハマシカナザワク",
    "town": "幸浦",
    "town_kana": "サチウラ",
    "street": "１丁目８番地１",
    "office_name": "三菱重工業　株式会社　横浜製作所",
    "office_name_kana": "ミツビシジユウコウギヨウ カブシキカイシヤ ヨコハマセイサクシヨ"
  },
  "8550": {
    "zip_code": "2368550",
    "prefecture": "神奈川県",
    "prefecture_kana": "カナガワケン",
    "prefecture_code": "14",
    "city": "横浜市金沢区",
    "city_kana": "ヨコハマシカナザワク",
    "town": "並木",
    "town_kana": "ナミキ",
    "street": "３丁目２−９",
    "office_name": "横浜南税務署",
    "office_name_kana": "ヨコハマミナミゼイムシヨ"
  },
  "8555": {
    "zip_code": "2368555",
    "prefecture": "神奈川県",
    "prefecture_kana": "カナガワケン",
    "prefecture_code": "14",
    "city": "横浜市金沢区",
    "city_kana": "ヨコハマシカナザワク",
    "town": "福浦",
    "town_kana": "フクウラ",
    "street": "３丁目１１−２",
    "office_name": "杉田ゴルフ場",
    "office_name_kana": "スギタゴルフジヨウ"
  },
  "8645": {
    "zip_code": "2368645",
    "prefecture": "神奈川県",
    "prefecture_kana": "カナガワケン",
    "prefecture_code": "14",
    "city": "横浜市金沢区",
    "city_kana": "ヨコハマシカナザワク",
    "town": "福浦",
    "town_kana": "フクウラ",
    "street": "一丁目九番五号",
    "office_name": "（株）　オーバル　横浜事業所",
    "office_name_kana": "カブシキガイシヤ オ-バル ヨコハマジギヨウシヨ"
  },
  "8648": {
    "zip_code": "2368648",
    "prefecture": "神奈川県",
    "prefecture_kana": "カナガワケン",
    "prefecture_code": "14",
    "city": "横浜市金沢区",
    "city_kana": "ヨコハマシカナザワク",
    "town": "福浦",
    "town_kana": "フクウラ",
    "street": "２丁目１２−４",
    "office_name": "独立行政法人　水産総合研究センター　中央水産研究所",
    "office_name_kana": "ドクリツギヨウセイホウジン スイサンソウゴウケンキユウセンタ- チユウオウスイサンケンキユウジヨ"
  },
  "8651": {
    "zip_code": "2368651",
    "prefecture": "神奈川県",
    "prefecture_kana": "カナガワケン",
    "prefecture_code": "14",
    "city": "横浜市金沢区",
    "city_kana": "ヨコハマシカナザワク",
    "town": "富岡東",
    "town_kana": "トミオカヒガシ",
    "street": "６−１６−１",
    "office_name": "神奈川県立循環器呼吸器病センター",
    "office_name_kana": "カナガワケンリツジユンカンキコキユウキビヨウセンタ-"
  },
  "8653": {
    "zip_code": "2368653",
    "prefecture": "神奈川県",
    "prefecture_kana": "カナガワケン",
    "prefecture_code": "14",
    "city": "横浜市金沢区",
    "city_kana": "ヨコハマシカナザワク",
    "town": "平潟町",
    "town_kana": "ヒラカタチョウ",
    "street": "１２−１",
    "office_name": "社会福祉法人　恩賜財団　済生会若草病院",
    "office_name_kana": "サイセイカイワカクサビヨウイン"
  }
}