{
  "0061": {
    "zip_code": "2370061",
    "prefecture": "神奈川県",
    "prefecture_kana": "カナガワケン",
    "prefecture_code": "14",
    "city": "横須賀市",
    "city_kana": "ヨコスカシ",
    "town": "夏島町",
    "town_kana": "ナツシマチョウ",
    "street": null,
    "office_name": null,
    "office_name_kana": null
  },
  "0062": {
    "zip_code": "2370062",
    "prefecture": "神奈川県",
    "prefecture_kana": "カナガワケン",
    "prefecture_code": "14",
    "city": "横須賀市",
    "city_kana": "ヨコスカシ",
    "town": "浦郷町",
    "town_kana": "ウラゴウチョウ",
    "street": null,
    "office_name": null,
    "office_name_kana": null
  },
  "0063": {
    "zip_code": "2370063",
    "prefecture": "神奈川県",
    "prefecture_kana": "カナガワケン",
    "prefecture_code": "14",
    "city": "横須賀市",
    "city_kana": "ヨコスカシ",
    "town": "追浜東町",
    "town_kana": "オッパマヒガシチョウ",
    "street": null,
    "office_name": null,
    "office_name_kana": null
  },
  "0064": {
    "zip_code": "2370064",
    "prefecture": "神奈川県",
    "prefecture_kana": "カナガワケン",
    "prefecture_code": "14",
    "city": "横須賀市",
    "city_kana": "ヨコスカシ",
    "town": "追浜町",
    "town_kana": "オッパマチョウ",
    "street": null,
    "office_name": null,
    "office_name_kana": null
  },
  "0065": {
    "zip_code": "2370065",
    "prefecture": "神奈川県",
    "prefecture_kana": "カナガワケン",
    "prefecture_code": "14",
    "city": "横須賀市",
    "city_kana": "ヨコスカシ",
    "town": "追浜南町",
    "town_kana": "オッパマミナミチョウ",
    "street": null,
    "office_name": null,
    "office_name_kana": null
  },
  "0066": {
    "zip_code": "2370066",
    "prefecture": "神奈川県",
    "prefecture_kana": "カナガワケン",
    "prefecture_code": "14",
    "city": "横須賀市",
    "city_kana": "ヨコスカシ",
    "town": "湘南鷹取",
    "town_kana": "ショウナンタカトリ",
    "street": null,
    "office_name": null,
    "office_name_kana": null
  },
  "0067": {
    "zip_code": "2370067",
    "prefecture": "神奈川県",
    "prefecture_kana": "カナガワケン",
    "prefecture_code": "14",
    "city": "横須賀市",
    "city_kana": "ヨコスカシ",
    "town": "鷹取",
    "town_kana": "タカトリ",
    "street": null,
    "office_name": null,
    "office_name_kana": null
  },
  "0068": {
    "zip_code": "2370068",
    "prefecture": "神奈川県",
    "prefecture_kana": "カナガワケン",
    "prefecture_code": "14",
    "city": "横須賀市",
    "city_kana": "ヨコスカシ",
    "town": "追浜本町",
    "town_kana": "オッパマホンチョウ",
    "street": null,
    "office_name": null,
    "office_name_kana": null
  },
  "0071": {
    "zip_code": "2370071",
    "prefecture": "神奈川県",
    "prefecture_kana": "カナガワケン",
    "prefecture_code": "14",
    "city": "横須賀市",
    "city_kana": "ヨコスカシ",
    "town": "田浦港町",
    "town_kana": "タウラミナトチョウ",
    "street": null,
    "office_name": null,
    "office_name_kana": null
  },
  "0072": {
    "zip_code": "2370072",
    "prefecture": "神奈川県",
    "prefecture_kana": "カナガワケン",
    "prefecture_code": "14",
    "city": "横須賀市",
    "city_kana": "ヨコスカシ",
    "town": "長浦町",
    "town_kana": "ナガウラチョウ",
    "street": null,
    "office_name": null,
    "office_name_kana": null
  },
  "0073": {
    "zip_code": "2370073",
    "prefecture": "神奈川県",
    "prefecture_kana": "カナガワケン",
    "prefecture_code": "14",
    "city": "横須賀市",
    "city_kana": "ヨコスカシ",
    "town": "田浦泉町",
    "town_kana": "タウライズミチョウ",
    "street": null,
    "office_name": null,
    "office_name_kana": null
  },
  "0074": {
    "zip_code": "2370074",
    "prefecture": "神奈川県",
    "prefecture_kana": "カナガワケン",
    "prefecture_code": "14",
    "city": "横須賀市",
    "city_kana": "ヨコスカシ",
    "town": "田浦大作町",
    "town_kana": "タウラオオサクチョウ",
    "street": null,
    "office_name": null,
    "office_name_kana": null
  },
  "0075": {
    "zip_code": "2370075",
    "prefecture": "神奈川県",
    "prefecture_kana": "カナガワケン",
    "prefecture_code": "14",
    "city": "横須賀市",
    "city_kana": "ヨコスカシ",
    "town": "田浦町",
    "town_kana": "タウラチョウ",
    "street": null,
    "office_name": null,
    "office_name_kana": null
  },
  "0076": {
    "zip_code": "2370076",
    "prefecture": "神奈川県",
    "prefecture_kana": "カナガワケン",
    "prefecture_code": "14",
    "city": "横須賀市",
    "city_kana": "ヨコスカシ",
    "town": "船越町",
    "town_kana": "フナコシチョウ",
    "street": null,
    "office_name": null,
    "office_name_kana": null
  },
  "0077": {
    "zip_code": "2370077",
    "prefecture": "神奈川県",
    "prefecture_kana": "カナガワケン",
    "prefecture_code": "14",
    "city": "横須賀市",
    "city_kana": "ヨコスカシ",
    "town": "浜見台",
    "town_kana": "ハマミダイ",
    "street": null,
    "office_name": null,
    "office_name_kana": null
  },
  "0078": {
    "zip_code": "2370078",
    "prefecture": "神奈川県",
    "prefecture_kana": "カナガワケン",
    "prefecture_code": "14",
    "city": "横須賀市",
    "city_kana": "ヨコスカシ",
    "town": "箱崎町",
    "town_kana": "ハコザキチョウ",
    "street": null,
    "office_name": null,
    "office_name_kana": null
  },
  "0079": {
    "zip_code": "2370079",
    "prefecture": "神奈川県",
    "prefecture_kana": "カナガワケン",
    "prefecture_code": "14",
    "city": "横須賀市",
    "city_kana": "ヨコスカシ",
    "town": "港が丘",
    "town_kana": "ミナトガオカ",
    "street": null,
    "office_name": null,
    "office_name_kana": null
  },
  "8510": {
    "zip_code": "2378510",
    "prefecture": "神奈川県",
    "prefecture_kana": "カナガワケン",
    "prefecture_code": "14",
    "city": "横須賀市",
    "city_kana": "ヨコスカシ",
    "town": "船越町",
    "town_kana": "フナコシチョウ",
    "street": "１丁目２０１−１",
    "office_name": "東芝ライテック　株式会社　横須賀事業所",
    "office_name_kana": "トウシバライテツク カブシキガイシヤ ヨコスカジギヨウシヨ"
  },
  "8515": {
    "zip_code": "2378515",
    "prefecture": "神奈川県",
    "prefecture_kana": "カナガワケン",
    "prefecture_code": "14",
    "city": "横須賀市",
    "city_kana": "ヨコスカシ",
    "town": "長浦町",
    "town_kana": "ナガウラチョウ",
    "street": "１丁目４３",
    "office_name": "海上自衛隊　横須賀基地業務隊",
    "office_name_kana": "カイジヨウジエイタイ ヨコスカキチギヨウムタイ"
  },
  "8523": {
    "zip_code": "2378523",
    "prefecture": "神奈川県",
    "prefecture_kana": "カナガワケン",
    "prefecture_code": "14",
    "city": "横須賀市",
    "city_kana": "ヨコスカシ",
    "town": "夏島町",
    "town_kana": "ナツシマチョウ",
    "street": "１番地",
    "office_name": "日産自動車　株式会社　追浜工場",
    "office_name_kana": "ニツサンジドウシヤ カブシキガイシヤ オツパマコウジヨウ"
  },
  "8555": {
    "zip_code": "2378555",
    "prefecture": "神奈川県",
    "prefecture_kana": "カナガワケン",
    "prefecture_code": "14",
    "city": "横須賀市",
    "city_kana": "ヨコスカシ",
    "town": "夏島町",
    "town_kana": "ナツシマチョウ",
    "street": "１９",
    "office_name": "住友重機械工業　株式会社　横須賀造船所",
    "office_name_kana": "スミトモジユウキカイコウギヨウ カブシキガイシヤ ヨコスカゾウセンジヨ"
  },
  "8585": {
    "zip_code": "2378585",
    "prefecture": "神奈川県",
    "prefecture_kana": "カナガワケン",
    "prefecture_code": "14",
    "city": "横須賀市",
    "city_kana": "ヨコスカシ",
    "town": "田浦港町",
    "town_kana": "タウラミナトチョウ",
    "street": "無番地",
    "office_name": "関東自動車工業　株式会社",
    "office_name_kana": "カントウジドウシヤコウギヨウ カブシキガイシヤ"
  },
  "8588": {
    "zip_code": "2378588",
    "prefecture": "神奈川県",
    "prefecture_kana": "カナガワケン",
    "prefecture_code": "14",
    "city": "横須賀市",
    "city_kana": "ヨコスカシ",
    "town": "船越町",
    "town_kana": "フナコシチョウ",
    "street": "１丁目８番地",
    "office_name": "国家公務員共済組合連合会　横須賀北部共済病院",
    "office_name_kana": "コツカコウムインキヨウサイクミアイレンゴウカイ ヨコスカホクブキヨウサイビヨウイン"
  }
}