{
  "0000": {
    "zip_code": "2420000",
    "prefecture": "神奈川県",
    "prefecture_kana": "カナガワケン",
    "prefecture_code": 14,
    "city": "大和市",
    "city_kana": "ヤマトシ",
    "town": "",
    "town_kana": "",
    "street": null,
    "office_name": null,
    "office_name_kana": null
  },
  "0001": {
    "zip_code": "2420001",
    "prefecture": "神奈川県",
    "prefecture_kana": "カナガワケン",
    "prefecture_code": 14,
    "city": "大和市",
    "city_kana": "ヤマトシ",
    "town": "下鶴間",
    "town_kana": "シモツルマ",
    "street": null,
    "office_name": null,
    "office_name_kana": null
  },
  "0002": {
    "zip_code": "2420002",
    "prefecture": "神奈川県",
    "prefecture_kana": "カナガワケン",
    "prefecture_code": 14,
    "city": "大和市",
    "city_kana": "ヤマトシ",
    "town": "つきみ野",
    "town_kana": "ツキミノ",
    "street": null,
    "office_name": null,
    "office_name_kana": null
  },
  "0003": {
    "zip_code": "2420003",
    "prefecture": "神奈川県",
    "prefecture_kana": "カナガワケン",
    "prefecture_code": 14,
    "city": "大和市",
    "city_kana": "ヤマトシ",
    "town": "林間",
    "town_kana": "リンカン",
    "street": null,
    "office_name": null,
    "office_name_kana": null
  },
  "0004": {
    "zip_code": "2420004",
    "prefecture": "神奈川県",
    "prefecture_kana": "カナガワケン",
    "prefecture_code": 14,
    "city": "大和市",
    "city_kana": "ヤマトシ",
    "town": "鶴間",
    "town_kana": "ツルマ",
    "street": null,
    "office_name": null,
    "office_name_kana": null
  },
  "0005": {
    "zip_code": "2420005",
    "prefecture": "神奈川県",
    "prefecture_kana": "カナガワケン",
    "prefecture_code": 14,
    "city": "大和市",
    "city_kana": "ヤマトシ",
    "town": "西鶴間",
    "town_kana": "ニシツルマ",
    "street": null,
    "office_name": null,
    "office_name_kana": null
  },
  "0006": {
    "zip_code": "2420006",
    "prefecture": "神奈川県",
    "prefecture_kana": "カナガワケン",
    "prefecture_code": 14,
    "city": "大和市",
    "city_kana": "ヤマトシ",
    "town": "南林間",
    "town_kana": "ミナミリンカン",
    "street": null,
    "office_name": null,
    "office_name_kana": null
  },
  "0007": {
    "zip_code": "2420007",
    "prefecture": "神奈川県",
    "prefecture_kana": "カナガワケン",
    "prefecture_code": 14,
    "city": "大和市",
    "city_kana": "ヤマトシ",
    "town": "中央林間",
    "town_kana": "チュウオウリンカン",
    "street": null,
    "office_name": null,
    "office_name_kana": null
  },
  "0008": {
    "zip_code": "2420008",
    "prefecture": "神奈川県",
    "prefecture_kana": "カナガワケン",
    "prefecture_code": 14,
    "city": "大和市",
    "city_kana": "ヤマトシ",
    "town": "中央林間西",
    "town_kana": "チュウオウリンカンニシ",
    "street": null,
    "office_name": null,
    "office_name_kana": null
  },
  "0011": {
    "zip_code": "2420011",
    "prefecture": "神奈川県",
    "prefecture_kana": "カナガワケン",
    "prefecture_code": 14,
    "city": "大和市",
    "city_kana": "ヤマトシ",
    "town": "深見",
    "town_kana": "フカミ",
    "street": null,
    "office_name": null,
    "office_name_kana": null
  },
  "0012": {
    "zip_code": "2420012",
    "prefecture": "神奈川県",
    "prefecture_kana": "カナガワケン",
    "prefecture_code": 14,
    "city": "大和市",
    "city_kana": "ヤマトシ",
    "town": "深見東",
    "town_kana": "フカミヒガシ",
    "street": null,
    "office_name": null,
    "office_name_kana": null
  },
  "0013": {
    "zip_code": "2420013",
    "prefecture": "神奈川県",
    "prefecture_kana": "カナガワケン",
    "prefecture_code": 14,
    "city": "大和市",
    "city_kana": "ヤマトシ",
    "town": "深見台",
    "town_kana": "フカミダイ",
    "street": null,
    "office_name": null,
    "office_name_kana": null
  },
  "0014": {
    "zip_code": "2420014",
    "prefecture": "神奈川県",
    "prefecture_kana": "カナガワケン",
    "prefecture_code": 14,
    "city": "大和市",
    "city_kana": "ヤマトシ",
    "town": "上和田",
    "town_kana": "カミワダ",
    "street": null,
    "office_name": null,
    "office_name_kana": null
  },
  "0015": {
    "zip_code": "2420015",
    "prefecture": "神奈川県",
    "prefecture_kana": "カナガワケン",
    "prefecture_code": 14,
    "city": "大和市",
    "city_kana": "ヤマトシ",
    "town": "下和田",
    "town_kana": "シモワダ",
    "street": null,
    "office_name": null,
    "office_name_kana": null
  },
  "0016": {
    "zip_code": "2420016",
    "prefecture": "神奈川県",
    "prefecture_kana": "カナガワケン",
    "prefecture_code": 14,
    "city": "大和市",
    "city_kana": "ヤマトシ",
    "town": "大和南",
    "town_kana": "ヤマトミナミ",
    "street": null,
    "office_name": null,
    "office_name_kana": null
  },
  "0017": {
    "zip_code": "2420017",
    "prefecture": "神奈川県",
    "prefecture_kana": "カナガワケン",
    "prefecture_code": 14,
    "city": "大和市",
    "city_kana": "ヤマトシ",
    "town": "大和東",
    "town_kana": "ヤマトヒガシ",
    "street": null,
    "office_name": null,
    "office_name_kana": null
  },
  "0018": {
    "zip_code": "2420018",
    "prefecture": "神奈川県",
    "prefecture_kana": "カナガワケン",
    "prefecture_code": 14,
    "city": "大和市",
    "city_kana": "ヤマトシ",
    "town": "深見西",
    "town_kana": "フカミニシ",
    "street": null,
    "office_name": null,
    "office_name_kana": null
  },
  "0021": {
    "zip_code": "2420021",
    "prefecture": "神奈川県",
    "prefecture_kana": "カナガワケン",
    "prefecture_code": 14,
    "city": "大和市",
    "city_kana": "ヤマトシ",
    "town": "中央",
    "town_kana": "チュウオウ",
    "street": null,
    "office_name": null,
    "office_name_kana": null
  },
  "0022": {
    "zip_code": "2420022",
    "prefecture": "神奈川県",
    "prefecture_kana": "カナガワケン",
    "prefecture_code": 14,
    "city": "大和市",
    "city_kana": "ヤマトシ",
    "town": "柳橋",
    "town_kana": "ヤナギバシ",
    "street": null,
    "office_name": null,
    "office_name_kana": null
  },
  "0023": {
    "zip_code": "2420023",
    "prefecture": "神奈川県",
    "prefecture_kana": "カナガワケン",
    "prefecture_code": 14,
    "city": "大和市",
    "city_kana": "ヤマトシ",
    "town": "渋谷",
    "town_kana": "シブヤ",
    "street": null,
    "office_name": null,
    "office_name_kana": null
  },
  "0024": {
    "zip_code": "2420024",
    "prefecture": "神奈川県",
    "prefecture_kana": "カナガワケン",
    "prefecture_code": 14,
    "city": "大和市",
    "city_kana": "ヤマトシ",
    "town": "福田",
    "town_kana": "フクダ",
    "street": null,
    "office_name": null,
    "office_name_kana": null
  },
  "0025": {
    "zip_code": "2420025",
    "prefecture": "神奈川県",
    "prefecture_kana": "カナガワケン",
    "prefecture_code": 14,
    "city": "大和市",
    "city_kana": "ヤマトシ",
    "town": "代官",
    "town_kana": "ダイカン",
    "street": null,
    "office_name": null,
    "office_name_kana": null
  },
  "0026": {
    "zip_code": "2420026",
    "prefecture": "神奈川県",
    "prefecture_kana": "カナガワケン",
    "prefecture_code": 14,
    "city": "大和市",
    "city_kana": "ヤマトシ",
    "town": "草柳",
    "town_kana": "ソウヤギ",
    "street": null,
    "office_name": null,
    "office_name_kana": null
  },
  "0027": {
    "zip_code": "2420027",
    "prefecture": "神奈川県",
    "prefecture_kana": "カナガワケン",
    "prefecture_code": 14,
    "city": "大和市",
    "city_kana": "ヤマトシ",
    "town": "下草柳",
    "town_kana": "シモソウヤギ",
    "street": null,
    "office_name": null,
    "office_name_kana": null
  },
  "0028": {
    "zip_code": "2420028",
    "prefecture": "神奈川県",
    "prefecture_kana": "カナガワケン",
    "prefecture_code": 14,
    "city": "大和市",
    "city_kana": "ヤマトシ",
    "town": "桜森",
    "town_kana": "サクラモリ",
    "street": null,
    "office_name": null,
    "office_name_kana": null
  },
  "0029": {
    "zip_code": "2420029",
    "prefecture": "神奈川県",
    "prefecture_kana": "カナガワケン",
    "prefecture_code": 14,
    "city": "大和市",
    "city_kana": "ヤマトシ",
    "town": "上草柳",
    "town_kana": "カミソウヤギ",
    "street": null,
    "office_name": null,
    "office_name_kana": null
  },
  "8507": {
    "zip_code": "2428507",
    "prefecture": "神奈川県",
    "prefecture_kana": "カナガワケン",
    "prefecture_code": 14,
    "city": "大和市",
    "city_kana": "ヤマトシ",
    "town": "大和南",
    "town_kana": "ヤマトミナミ",
    "street": "１丁目７−１１三香ビル２Ｆ",
    "office_name": "大和ラジオ放送　株式会社",
    "office_name_kana": "ヤマトラジオホウソウ カブシキガイシヤ"
  },
  "8539": {
    "zip_code": "2428539",
    "prefecture": "神奈川県",
    "prefecture_kana": "カナガワケン",
    "prefecture_code": 14,
    "city": "大和市",
    "city_kana": "ヤマトシ",
    "town": "深見台",
    "town_kana": "フカミダイ",
    "street": "１−５−２１",
    "office_name": "株式会社　マルスコーポレーション",
    "office_name_kana": "カブシキガイシヤ マルスコ-ポレ-シヨン"
  },
  "8555": {
    "zip_code": "2428555",
    "prefecture": "神奈川県",
    "prefecture_kana": "カナガワケン",
    "prefecture_code": 14,
    "city": "大和市",
    "city_kana": "ヤマトシ",
    "town": "中央林間西",
    "town_kana": "チュウオウリンカンニシ",
    "street": "３−７−１",
    "office_name": "太平金属工業　株式会社",
    "office_name_kana": "タイヘイキンゾクコウギヨウ カブシキガイシヤ"
  },
  "8577": {
    "zip_code": "2428577",
    "prefecture": "神奈川県",
    "prefecture_kana": "カナガワケン",
    "prefecture_code": 14,
    "city": "大和市",
    "city_kana": "ヤマトシ",
    "town": "深見台",
    "town_kana": "フカミダイ",
    "street": "３丁目４",
    "office_name": "株式会社　ガスター",
    "office_name_kana": "カブシキガイシヤ ガスタ-"
  },
  "8585": {
    "zip_code": "2428585",
    "prefecture": "神奈川県",
    "prefecture_kana": "カナガワケン",
    "prefecture_code": 14,
    "city": "大和市",
    "city_kana": "ヤマトシ",
    "town": "深見東",
    "town_kana": "フカミヒガシ",
    "street": "１−５−４",
    "office_name": "日本モレックス　株式会社",
    "office_name_kana": "ニホンモレツクス カブシキガイシヤ"
  },
  "8601": {
    "zip_code": "2428601",
    "prefecture": "神奈川県",
    "prefecture_kana": "カナガワケン",
    "prefecture_code": 14,
    "city": "大和市",
    "city_kana": "ヤマトシ",
    "town": "下鶴間",
    "town_kana": "シモツルマ",
    "street": "１丁目１−１",
    "office_name": "大和市役所",
    "office_name_kana": "ヤマトシヤクシヨ"
  },
  "8610": {
    "zip_code": "2428610",
    "prefecture": "神奈川県",
    "prefecture_kana": "カナガワケン",
    "prefecture_code": 14,
    "city": "大和市",
    "city_kana": "ヤマトシ",
    "town": "",
    "town_kana": "",
    "street": "都市計画事業渋谷（南部地区）土地区画整理事業地内７４街区１外",
    "office_name": "イオンリテール　株式会社　イオン大和店",
    "office_name_kana": "イオンリテ-ル カブシキガイシヤ イオンヤマトテン"
  }
}