{
  "0000": {
    "zip_code": "2480000",
    "prefecture": "神奈川県",
    "prefecture_kana": "カナガワケン",
    "prefecture_code": 14,
    "city": "鎌倉市",
    "city_kana": "カマクラシ",
    "town": "",
    "town_kana": "",
    "street": null,
    "office_name": null,
    "office_name_kana": null
  },
  "0001": {
    "zip_code": "2480001",
    "prefecture": "神奈川県",
    "prefecture_kana": "カナガワケン",
    "prefecture_code": 14,
    "city": "鎌倉市",
    "city_kana": "カマクラシ",
    "town": "十二所",
    "town_kana": "ジュウニソ",
    "street": null,
    "office_name": null,
    "office_name_kana": null
  },
  "0002": {
    "zip_code": "2480002",
    "prefecture": "神奈川県",
    "prefecture_kana": "カナガワケン",
    "prefecture_code": 14,
    "city": "鎌倉市",
    "city_kana": "カマクラシ",
    "town": "二階堂",
    "town_kana": "ニカイドウ",
    "street": null,
    "office_name": null,
    "office_name_kana": null
  },
  "0003": {
    "zip_code": "2480003",
    "prefecture": "神奈川県",
    "prefecture_kana": "カナガワケン",
    "prefecture_code": 14,
    "city": "鎌倉市",
    "city_kana": "カマクラシ",
    "town": "浄明寺",
    "town_kana": "ジョウミョウジ",
    "street": null,
    "office_name": null,
    "office_name_kana": null
  },
  "0004": {
    "zip_code": "2480004",
    "prefecture": "神奈川県",
    "prefecture_kana": "カナガワケン",
    "prefecture_code": 14,
    "city": "鎌倉市",
    "city_kana": "カマクラシ",
    "town": "西御門",
    "town_kana": "ニシミカド",
    "street": null,
    "office_name": null,
    "office_name_kana": null
  },
  "0005": {
    "zip_code": "2480005",
    "prefecture": "神奈川県",
    "prefecture_kana": "カナガワケン",
    "prefecture_code": 14,
    "city": "鎌倉市",
    "city_kana": "カマクラシ",
    "town": "雪ノ下",
    "town_kana": "ユキノシタ",
    "street": null,
    "office_name": null,
    "office_name_kana": null
  },
  "0006": {
    "zip_code": "2480006",
    "prefecture": "神奈川県",
    "prefecture_kana": "カナガワケン",
    "prefecture_code": 14,
    "city": "鎌倉市",
    "city_kana": "カマクラシ",
    "town": "小町",
    "town_kana": "コマチ",
    "street": null,
    "office_name": null,
    "office_name_kana": null
  },
  "0007": {
    "zip_code": "2480007",
    "prefecture": "神奈川県",
    "prefecture_kana": "カナガワケン",
    "prefecture_code": 14,
    "city": "鎌倉市",
    "city_kana": "カマクラシ",
    "town": "大町",
    "town_kana": "オオマチ",
    "street": null,
    "office_name": null,
    "office_name_kana": null
  },
  "0011": {
    "zip_code": "2480011",
    "prefecture": "神奈川県",
    "prefecture_kana": "カナガワケン",
    "prefecture_code": 14,
    "city": "鎌倉市",
    "city_kana": "カマクラシ",
    "town": "扇ガ谷",
    "town_kana": "オウギガヤツ",
    "street": null,
    "office_name": null,
    "office_name_kana": null
  },
  "0012": {
    "zip_code": "2480012",
    "prefecture": "神奈川県",
    "prefecture_kana": "カナガワケン",
    "prefecture_code": 14,
    "city": "鎌倉市",
    "city_kana": "カマクラシ",
    "town": "御成町",
    "town_kana": "オナリマチ",
    "street": null,
    "office_name": null,
    "office_name_kana": null
  },
  "0013": {
    "zip_code": "2480013",
    "prefecture": "神奈川県",
    "prefecture_kana": "カナガワケン",
    "prefecture_code": 14,
    "city": "鎌倉市",
    "city_kana": "カマクラシ",
    "town": "材木座",
    "town_kana": "ザイモクザ",
    "street": null,
    "office_name": null,
    "office_name_kana": null
  },
  "0014": {
    "zip_code": "2480014",
    "prefecture": "神奈川県",
    "prefecture_kana": "カナガワケン",
    "prefecture_code": 14,
    "city": "鎌倉市",
    "city_kana": "カマクラシ",
    "town": "由比ガ浜",
    "town_kana": "ユイガハマ",
    "street": null,
    "office_name": null,
    "office_name_kana": null
  },
  "0015": {
    "zip_code": "2480015",
    "prefecture": "神奈川県",
    "prefecture_kana": "カナガワケン",
    "prefecture_code": 14,
    "city": "鎌倉市",
    "city_kana": "カマクラシ",
    "town": "笹目町",
    "town_kana": "ササメマチ",
    "street": null,
    "office_name": null,
    "office_name_kana": null
  },
  "0016": {
    "zip_code": "2480016",
    "prefecture": "神奈川県",
    "prefecture_kana": "カナガワケン",
    "prefecture_code": 14,
    "city": "鎌倉市",
    "city_kana": "カマクラシ",
    "town": "長谷",
    "town_kana": "ハセ",
    "street": null,
    "office_name": null,
    "office_name_kana": null
  },
  "0017": {
    "zip_code": "2480017",
    "prefecture": "神奈川県",
    "prefecture_kana": "カナガワケン",
    "prefecture_code": 14,
    "city": "鎌倉市",
    "city_kana": "カマクラシ",
    "town": "佐助",
    "town_kana": "サスケ",
    "street": null,
    "office_name": null,
    "office_name_kana": null
  },
  "0021": {
    "zip_code": "2480021",
    "prefecture": "神奈川県",
    "prefecture_kana": "カナガワケン",
    "prefecture_code": 14,
    "city": "鎌倉市",
    "city_kana": "カマクラシ",
    "town": "坂ノ下",
    "town_kana": "サカノシタ",
    "street": null,
    "office_name": null,
    "office_name_kana": null
  },
  "0022": {
    "zip_code": "2480022",
    "prefecture": "神奈川県",
    "prefecture_kana": "カナガワケン",
    "prefecture_code": 14,
    "city": "鎌倉市",
    "city_kana": "カマクラシ",
    "town": "常盤",
    "town_kana": "トキワ",
    "street": null,
    "office_name": null,
    "office_name_kana": null
  },
  "0023": {
    "zip_code": "2480023",
    "prefecture": "神奈川県",
    "prefecture_kana": "カナガワケン",
    "prefecture_code": 14,
    "city": "鎌倉市",
    "city_kana": "カマクラシ",
    "town": "極楽寺",
    "town_kana": "ゴクラクジ",
    "street": null,
    "office_name": null,
    "office_name_kana": null
  },
  "0024": {
    "zip_code": "2480024",
    "prefecture": "神奈川県",
    "prefecture_kana": "カナガワケン",
    "prefecture_code": 14,
    "city": "鎌倉市",
    "city_kana": "カマクラシ",
    "town": "稲村ガ崎",
    "town_kana": "イナムラガサキ",
    "street": null,
    "office_name": null,
    "office_name_kana": null
  },
  "0025": {
    "zip_code": "2480025",
    "prefecture": "神奈川県",
    "prefecture_kana": "カナガワケン",
    "prefecture_code": 14,
    "city": "鎌倉市",
    "city_kana": "カマクラシ",
    "town": "七里ガ浜東",
    "town_kana": "シチリガハマヒガシ",
    "street": null,
    "office_name": null,
    "office_name_kana": null
  },
  "0026": {
    "zip_code": "2480026",
    "prefecture": "神奈川県",
    "prefecture_kana": "カナガワケン",
    "prefecture_code": 14,
    "city": "鎌倉市",
    "city_kana": "カマクラシ",
    "town": "七里ガ浜",
    "town_kana": "シチリガハマ",
    "street": null,
    "office_name": null,
    "office_name_kana": null
  },
  "0027": {
    "zip_code": "2480027",
    "prefecture": "神奈川県",
    "prefecture_kana": "カナガワケン",
    "prefecture_code": 14,
    "city": "鎌倉市",
    "city_kana": "カマクラシ",
    "town": "笛田",
    "town_kana": "フエダ",
    "street": null,
    "office_name": null,
    "office_name_kana": null
  },
  "0031": {
    "zip_code": "2480031",
    "prefecture": "神奈川県",
    "prefecture_kana": "カナガワケン",
    "prefecture_code": 14,
    "city": "鎌倉市",
    "city_kana": "カマクラシ",
    "town": "鎌倉山",
    "town_kana": "カマクラヤマ",
    "street": null,
    "office_name": null,
    "office_name_kana": null
  },
  "0032": {
    "zip_code": "2480032",
    "prefecture": "神奈川県",
    "prefecture_kana": "カナガワケン",
    "prefecture_code": 14,
    "city": "鎌倉市",
    "city_kana": "カマクラシ",
    "town": "津",
    "town_kana": "ツ",
    "street": null,
    "office_name": null,
    "office_name_kana": null
  },
  "0033": {
    "zip_code": "2480033",
    "prefecture": "神奈川県",
    "prefecture_kana": "カナガワケン",
    "prefecture_code": 14,
    "city": "鎌倉市",
    "city_kana": "カマクラシ",
    "town": "腰越",
    "town_kana": "コシゴエ",
    "street": null,
    "office_name": null,
    "office_name_kana": null
  },
  "0034": {
    "zip_code": "2480034",
    "prefecture": "神奈川県",
    "prefecture_kana": "カナガワケン",
    "prefecture_code": 14,
    "city": "鎌倉市",
    "city_kana": "カマクラシ",
    "town": "津西",
    "town_kana": "ツニシ",
    "street": null,
    "office_name": null,
    "office_name_kana": null
  },
  "0035": {
    "zip_code": "2480035",
    "prefecture": "神奈川県",
    "prefecture_kana": "カナガワケン",
    "prefecture_code": 14,
    "city": "鎌倉市",
    "city_kana": "カマクラシ",
    "town": "西鎌倉",
    "town_kana": "ニシカマクラ",
    "street": null,
    "office_name": null,
    "office_name_kana": null
  },
  "0036": {
    "zip_code": "2480036",
    "prefecture": "神奈川県",
    "prefecture_kana": "カナガワケン",
    "prefecture_code": 14,
    "city": "鎌倉市",
    "city_kana": "カマクラシ",
    "town": "手広",
    "town_kana": "テビロ",
    "street": null,
    "office_name": null,
    "office_name_kana": null
  },
  "8555": {
    "zip_code": "2488555",
    "prefecture": "神奈川県",
    "prefecture_kana": "カナガワケン",
    "prefecture_code": 14,
    "city": "鎌倉市",
    "city_kana": "カマクラシ",
    "town": "手広",
    "town_kana": "テビロ",
    "street": "六丁目１０番１号",
    "office_name": "東レ　株式会社　基礎研究センター",
    "office_name_kana": "トウレ カブシキガイシヤ キソケンキユウセンタ-"
  },
  "8558": {
    "zip_code": "2488558",
    "prefecture": "神奈川県",
    "prefecture_kana": "カナガワケン",
    "prefecture_code": 14,
    "city": "鎌倉市",
    "city_kana": "カマクラシ",
    "town": "御成町",
    "town_kana": "オナリマチ",
    "street": "１２番１８号",
    "office_name": "鎌倉県税事務所",
    "office_name_kana": "カマクラケンゼイムシヨ"
  },
  "8686": {
    "zip_code": "2488686",
    "prefecture": "神奈川県",
    "prefecture_kana": "カナガワケン",
    "prefecture_code": 14,
    "city": "鎌倉市",
    "city_kana": "カマクラシ",
    "town": "御成町",
    "town_kana": "オナリマチ",
    "street": "１８−１０（鎌倉郵便局私書箱第１５号）",
    "office_name": "鎌倉市役所",
    "office_name_kana": "カマクラシヤクシヨ"
  }
}