{
  "0000": {
    "zip_code": "2510000",
    "prefecture": "神奈川県",
    "prefecture_kana": "カナガワケン",
    "prefecture_code": "14",
    "city": "藤沢市",
    "city_kana": "フジサワシ",
    "town": "",
    "town_kana": "",
    "street": null,
    "office_name": null,
    "office_name_kana": null
  },
  "0001": {
    "zip_code": "2510001",
    "prefecture": "神奈川県",
    "prefecture_kana": "カナガワケン",
    "prefecture_code": "14",
    "city": "藤沢市",
    "city_kana": "フジサワシ",
    "town": "西富",
    "town_kana": "ニシトミ",
    "street": null,
    "office_name": null,
    "office_name_kana": null
  },
  "0002": {
    "zip_code": "2510002",
    "prefecture": "神奈川県",
    "prefecture_kana": "カナガワケン",
    "prefecture_code": "14",
    "city": "藤沢市",
    "city_kana": "フジサワシ",
    "town": "大鋸",
    "town_kana": "ダイギリ",
    "street": null,
    "office_name": null,
    "office_name_kana": null
  },
  "0003": {
    "zip_code": "2510003",
    "prefecture": "神奈川県",
    "prefecture_kana": "カナガワケン",
    "prefecture_code": "14",
    "city": "藤沢市",
    "city_kana": "フジサワシ",
    "town": "柄沢",
    "town_kana": "カラサワ",
    "street": null,
    "office_name": null,
    "office_name_kana": null
  },
  "0004": {
    "zip_code": "2510004",
    "prefecture": "神奈川県",
    "prefecture_kana": "カナガワケン",
    "prefecture_code": "14",
    "city": "藤沢市",
    "city_kana": "フジサワシ",
    "town": "藤が岡",
    "town_kana": "フジガオカ",
    "street": null,
    "office_name": null,
    "office_name_kana": null
  },
  "0011": {
    "zip_code": "2510011",
    "prefecture": "神奈川県",
    "prefecture_kana": "カナガワケン",
    "prefecture_code": "14",
    "city": "藤沢市",
    "city_kana": "フジサワシ",
    "town": "渡内",
    "town_kana": "ワタウチ",
    "street": null,
    "office_name": null,
    "office_name_kana": null
  },
  "0012": {
    "zip_code": "2510012",
    "prefecture": "神奈川県",
    "prefecture_kana": "カナガワケン",
    "prefecture_code": "14",
    "city": "藤沢市",
    "city_kana": "フジサワシ",
    "town": "村岡東",
    "town_kana": "ムラオカヒガシ",
    "street": null,
    "office_name": null,
    "office_name_kana": null
  },
  "0013": {
    "zip_code": "2510013",
    "prefecture": "神奈川県",
    "prefecture_kana": "カナガワケン",
    "prefecture_code": "14",
    "city": "藤沢市",
    "city_kana": "フジサワシ",
    "town": "小塚",
    "town_kana": "コツカ",
    "street": null,
    "office_name": null,
    "office_name_kana": null
  },
  "0014": {
    "zip_code": "2510014",
    "prefecture": "神奈川県",
    "prefecture_kana": "カナガワケン",
    "prefecture_code": "14",
    "city": "藤沢市",
    "city_kana": "フジサワシ",
    "town": "宮前",
    "town_kana": "ミヤマエ",
    "street": null,
    "office_name": null,
    "office_name_kana": null
  },
  "0015": {
    "zip_code": "2510015",
    "prefecture": "神奈川県",
    "prefecture_kana": "カナガワケン",
    "prefecture_code": "14",
    "city": "藤沢市",
    "city_kana": "フジサワシ",
    "town": "川名",
    "town_kana": "カワナ",
    "street": null,
    "office_name": null,
    "office_name_kana": null
  },
  "0016": {
    "zip_code": "2510016",
    "prefecture": "神奈川県",
    "prefecture_kana": "カナガワケン",
    "prefecture_code": "14",
    "city": "藤沢市",
    "city_kana": "フジサワシ",
    "town": "弥勒寺",
    "town_kana": "ミロクジ",
    "street": null,
    "office_name": null,
    "office_name_kana": null
  },
  "0017": {
    "zip_code": "2510017",
    "prefecture": "神奈川県",
    "prefecture_kana": "カナガワケン",
    "prefecture_code": "14",
    "city": "藤沢市",
    "city_kana": "フジサワシ",
    "town": "高谷",
    "town_kana": "タカヤ",
    "street": null,
    "office_name": null,
    "office_name_kana": null
  },
  "0021": {
    "zip_code": "2510021",
    "prefecture": "神奈川県",
    "prefecture_kana": "カナガワケン",
    "prefecture_code": "14",
    "city": "藤沢市",
    "city_kana": "フジサワシ",
    "town": "鵠沼神明",
    "town_kana": "クゲヌマシンメイ",
    "street": null,
    "office_name": null,
    "office_name_kana": null
  },
  "0022": {
    "zip_code": "2510022",
    "prefecture": "神奈川県",
    "prefecture_kana": "カナガワケン",
    "prefecture_code": "14",
    "city": "藤沢市",
    "city_kana": "フジサワシ",
    "town": "鵠沼",
    "town_kana": "クゲヌマ",
    "street": null,
    "office_name": null,
    "office_name_kana": null
  },
  "0023": {
    "zip_code": "2510023",
    "prefecture": "神奈川県",
    "prefecture_kana": "カナガワケン",
    "prefecture_code": "14",
    "city": "藤沢市",
    "city_kana": "フジサワシ",
    "town": "鵠沼花沢町",
    "town_kana": "クゲヌマハナザワチョウ",
    "street": null,
    "office_name": null,
    "office_name_kana": null
  },
  "0024": {
    "zip_code": "2510024",
    "prefecture": "神奈川県",
    "prefecture_kana": "カナガワケン",
    "prefecture_code": "14",
    "city": "藤沢市",
    "city_kana": "フジサワシ",
    "town": "鵠沼橘",
    "town_kana": "クゲヌマタチバナ",
    "street": null,
    "office_name": null,
    "office_name_kana": null
  },
  "0025": {
    "zip_code": "2510025",
    "prefecture": "神奈川県",
    "prefecture_kana": "カナガワケン",
    "prefecture_code": "14",
    "city": "藤沢市",
    "city_kana": "フジサワシ",
    "town": "鵠沼石上",
    "town_kana": "クゲヌマイシガミ",
    "street": null,
    "office_name": null,
    "office_name_kana": null
  },
  "0026": {
    "zip_code": "2510026",
    "prefecture": "神奈川県",
    "prefecture_kana": "カナガワケン",
    "prefecture_code": "14",
    "city": "藤沢市",
    "city_kana": "フジサワシ",
    "town": "鵠沼東",
    "town_kana": "クゲヌマヒガシ",
    "street": null,
    "office_name": null,
    "office_name_kana": null
  },
  "0027": {
    "zip_code": "2510027",
    "prefecture": "神奈川県",
    "prefecture_kana": "カナガワケン",
    "prefecture_code": "14",
    "city": "藤沢市",
    "city_kana": "フジサワシ",
    "town": "鵠沼桜が岡",
    "town_kana": "クゲヌマサクラガオカ",
    "street": null,
    "office_name": null,
    "office_name_kana": null
  },
  "0028": {
    "zip_code": "2510028",
    "prefecture": "神奈川県",
    "prefecture_kana": "カナガワケン",
    "prefecture_code": "14",
    "city": "藤沢市",
    "city_kana": "フジサワシ",
    "town": "本鵠沼",
    "town_kana": "ホンクゲヌマ",
    "street": null,
    "office_name": null,
    "office_name_kana": null
  },
  "0031": {
    "zip_code": "2510031",
    "prefecture": "神奈川県",
    "prefecture_kana": "カナガワケン",
    "prefecture_code": "14",
    "city": "藤沢市",
    "city_kana": "フジサワシ",
    "town": "鵠沼藤が谷",
    "town_kana": "クゲヌマフジガヤ",
    "street": null,
    "office_name": null,
    "office_name_kana": null
  },
  "0032": {
    "zip_code": "2510032",
    "prefecture": "神奈川県",
    "prefecture_kana": "カナガワケン",
    "prefecture_code": "14",
    "city": "藤沢市",
    "city_kana": "フジサワシ",
    "town": "片瀬",
    "town_kana": "カタセ",
    "street": null,
    "office_name": null,
    "office_name_kana": null
  },
  "0033": {
    "zip_code": "2510033",
    "prefecture": "神奈川県",
    "prefecture_kana": "カナガワケン",
    "prefecture_code": "14",
    "city": "藤沢市",
    "city_kana": "フジサワシ",
    "town": "片瀬山",
    "town_kana": "カタセヤマ",
    "street": null,
    "office_name": null,
    "office_name_kana": null
  },
  "0034": {
    "zip_code": "2510034",
    "prefecture": "神奈川県",
    "prefecture_kana": "カナガワケン",
    "prefecture_code": "14",
    "city": "藤沢市",
    "city_kana": "フジサワシ",
    "town": "片瀬目白山",
    "town_kana": "カタセメジロヤマ",
    "street": null,
    "office_name": null,
    "office_name_kana": null
  },
  "0035": {
    "zip_code": "2510035",
    "prefecture": "神奈川県",
    "prefecture_kana": "カナガワケン",
    "prefecture_code": "14",
    "city": "藤沢市",
    "city_kana": "フジサワシ",
    "town": "片瀬海岸",
    "town_kana": "カタセカイガン",
    "street": null,
    "office_name": null,
    "office_name_kana": null
  },
  "0036": {
    "zip_code": "2510036",
    "prefecture": "神奈川県",
    "prefecture_kana": "カナガワケン",
    "prefecture_code": "14",
    "city": "藤沢市",
    "city_kana": "フジサワシ",
    "town": "江の島",
    "town_kana": "エノシマ",
    "street": null,
    "office_name": null,
    "office_name_kana": null
  },
  "0037": {
    "zip_code": "2510037",
    "prefecture": "神奈川県",
    "prefecture_kana": "カナガワケン",
    "prefecture_code": "14",
    "city": "藤沢市",
    "city_kana": "フジサワシ",
    "town": "鵠沼海岸",
    "town_kana": "クゲヌマカイガン",
    "street": null,
    "office_name": null,
    "office_name_kana": null
  },
  "0038": {
    "zip_code": "2510038",
    "prefecture": "神奈川県",
    "prefecture_kana": "カナガワケン",
    "prefecture_code": "14",
    "city": "藤沢市",
    "city_kana": "フジサワシ",
    "town": "鵠沼松が岡",
    "town_kana": "クゲヌママツガオカ",
    "street": null,
    "office_name": null,
    "office_name_kana": null
  },
  "0041": {
    "zip_code": "2510041",
    "prefecture": "神奈川県",
    "prefecture_kana": "カナガワケン",
    "prefecture_code": "14",
    "city": "藤沢市",
    "city_kana": "フジサワシ",
    "town": "辻堂神台",
    "town_kana": "ツジドウカンダイ",
    "street": null,
    "office_name": null,
    "office_name_kana": null
  },
  "0042": {
    "zip_code": "2510042",
    "prefecture": "神奈川県",
    "prefecture_kana": "カナガワケン",
    "prefecture_code": "14",
    "city": "藤沢市",
    "city_kana": "フジサワシ",
    "town": "辻堂新町",
    "town_kana": "ツジドウシンマチ",
    "street": null,
    "office_name": null,
    "office_name_kana": null
  },
  "0043": {
    "zip_code": "2510043",
    "prefecture": "神奈川県",
    "prefecture_kana": "カナガワケン",
    "prefecture_code": "14",
    "city": "藤沢市",
    "city_kana": "フジサワシ",
    "town": "辻堂元町",
    "town_kana": "ツジドウモトマチ",
    "street": null,
    "office_name": null,
    "office_name_kana": null
  },
  "0044": {
    "zip_code": "2510044",
    "prefecture": "神奈川県",
    "prefecture_kana": "カナガワケン",
    "prefecture_code": "14",
    "city": "藤沢市",
    "city_kana": "フジサワシ",
    "town": "辻堂太平台",
    "town_kana": "ツジドウタイヘイダイ",
    "street": null,
    "office_name": null,
    "office_name_kana": null
  },
  "0045": {
    "zip_code": "2510045",
    "prefecture": "神奈川県",
    "prefecture_kana": "カナガワケン",
    "prefecture_code": "14",
    "city": "藤沢市",
    "city_kana": "フジサワシ",
    "town": "辻堂東海岸",
    "town_kana": "ツジドウヒガシカイガン",
    "street": null,
    "office_name": null,
    "office_name_kana": null
  },
  "0046": {
    "zip_code": "2510046",
    "prefecture": "神奈川県",
    "prefecture_kana": "カナガワケン",
    "prefecture_code": "14",
    "city": "藤沢市",
    "city_kana": "フジサワシ",
    "town": "辻堂西海岸",
    "town_kana": "ツジドウニシカイガン",
    "street": null,
    "office_name": null,
    "office_name_kana": null
  },
  "0047": {
    "zip_code": "2510047",
    "prefecture": "神奈川県",
    "prefecture_kana": "カナガワケン",
    "prefecture_code": "14",
    "city": "藤沢市",
    "city_kana": "フジサワシ",
    "town": "辻堂",
    "town_kana": "ツジドウ",
    "street": null,
    "office_name": null,
    "office_name_kana": null
  },
  "0051": {
    "zip_code": "2510051",
    "prefecture": "神奈川県",
    "prefecture_kana": "カナガワケン",
    "prefecture_code": "14",
    "city": "藤沢市",
    "city_kana": "フジサワシ",
    "town": "白旗",
    "town_kana": "シラハタ",
    "street": null,
    "office_name": null,
    "office_name_kana": null
  },
  "0052": {
    "zip_code": "2510052",
    "prefecture": "神奈川県",
    "prefecture_kana": "カナガワケン",
    "prefecture_code": "14",
    "city": "藤沢市",
    "city_kana": "フジサワシ",
    "town": "藤沢",
    "town_kana": "フジサワ",
    "street": null,
    "office_name": null,
    "office_name_kana": null
  },
  "0053": {
    "zip_code": "2510053",
    "prefecture": "神奈川県",
    "prefecture_kana": "カナガワケン",
    "prefecture_code": "14",
    "city": "藤沢市",
    "city_kana": "フジサワシ",
    "town": "本町",
    "town_kana": "ホンチョウ",
    "street": null,
    "office_name": null,
    "office_name_kana": null
  },
  "0054": {
    "zip_code": "2510054",
    "prefecture": "神奈川県",
    "prefecture_kana": "カナガワケン",
    "prefecture_code": "14",
    "city": "藤沢市",
    "city_kana": "フジサワシ",
    "town": "朝日町",
    "town_kana": "アサヒチョウ",
    "street": null,
    "office_name": null,
    "office_name_kana": null
  },
  "0055": {
    "zip_code": "2510055",
    "prefecture": "神奈川県",
    "prefecture_kana": "カナガワケン",
    "prefecture_code": "14",
    "city": "藤沢市",
    "city_kana": "フジサワシ",
    "town": "南藤沢",
    "town_kana": "ミナミフジサワ",
    "street": null,
    "office_name": null,
    "office_name_kana": null
  },
  "0056": {
    "zip_code": "2510056",
    "prefecture": "神奈川県",
    "prefecture_kana": "カナガワケン",
    "prefecture_code": "14",
    "city": "藤沢市",
    "city_kana": "フジサワシ",
    "town": "羽鳥",
    "town_kana": "ハトリ",
    "street": null,
    "office_name": null,
    "office_name_kana": null
  },
  "0057": {
    "zip_code": "2510057",
    "prefecture": "神奈川県",
    "prefecture_kana": "カナガワケン",
    "prefecture_code": "14",
    "city": "藤沢市",
    "city_kana": "フジサワシ",
    "town": "城南",
    "town_kana": "ジョウナン",
    "street": null,
    "office_name": null,
    "office_name_kana": null
  },
  "0861": {
    "zip_code": "2510861",
    "prefecture": "神奈川県",
    "prefecture_kana": "カナガワケン",
    "prefecture_code": "14",
    "city": "藤沢市",
    "city_kana": "フジサワシ",
    "town": "大庭",
    "town_kana": "オオバ",
    "street": null,
    "office_name": null,
    "office_name_kana": null
  },
  "0862": {
    "zip_code": "2510862",
    "prefecture": "神奈川県",
    "prefecture_kana": "カナガワケン",
    "prefecture_code": "14",
    "city": "藤沢市",
    "city_kana": "フジサワシ",
    "town": "稲荷",
    "town_kana": "イナリ",
    "street": null,
    "office_name": null,
    "office_name_kana": null
  },
  "0871": {
    "zip_code": "2510871",
    "prefecture": "神奈川県",
    "prefecture_kana": "カナガワケン",
    "prefecture_code": "14",
    "city": "藤沢市",
    "city_kana": "フジサワシ",
    "town": "善行",
    "town_kana": "ゼンギョウ",
    "street": null,
    "office_name": null,
    "office_name_kana": null
  },
  "0872": {
    "zip_code": "2510872",
    "prefecture": "神奈川県",
    "prefecture_kana": "カナガワケン",
    "prefecture_code": "14",
    "city": "藤沢市",
    "city_kana": "フジサワシ",
    "town": "立石",
    "town_kana": "タテイシ",
    "street": null,
    "office_name": null,
    "office_name_kana": null
  },
  "0873": {
    "zip_code": "2510873",
    "prefecture": "神奈川県",
    "prefecture_kana": "カナガワケン",
    "prefecture_code": "14",
    "city": "藤沢市",
    "city_kana": "フジサワシ",
    "town": "みその台",
    "town_kana": "ミソノダイ",
    "street": null,
    "office_name": null,
    "office_name_kana": null
  },
  "0874": {
    "zip_code": "2510874",
    "prefecture": "神奈川県",
    "prefecture_kana": "カナガワケン",
    "prefecture_code": "14",
    "city": "藤沢市",
    "city_kana": "フジサワシ",
    "town": "花の木",
    "town_kana": "ハナノキ",
    "street": null,
    "office_name": null,
    "office_name_kana": null
  },
  "0875": {
    "zip_code": "2510875",
    "prefecture": "神奈川県",
    "prefecture_kana": "カナガワケン",
    "prefecture_code": "14",
    "city": "藤沢市",
    "city_kana": "フジサワシ",
    "town": "本藤沢",
    "town_kana": "ホンフジサワ",
    "street": null,
    "office_name": null,
    "office_name_kana": null
  },
  "0876": {
    "zip_code": "2510876",
    "prefecture": "神奈川県",
    "prefecture_kana": "カナガワケン",
    "prefecture_code": "14",
    "city": "藤沢市",
    "city_kana": "フジサワシ",
    "town": "善行坂",
    "town_kana": "ゼンギョウザカ",
    "street": null,
    "office_name": null,
    "office_name_kana": null
  },
  "0877": {
    "zip_code": "2510877",
    "prefecture": "神奈川県",
    "prefecture_kana": "カナガワケン",
    "prefecture_code": "14",
    "city": "藤沢市",
    "city_kana": "フジサワシ",
    "town": "善行団地",
    "town_kana": "ゼンギョウダンチ",
    "street": null,
    "office_name": null,
    "office_name_kana": null
  },
  "8501": {
    "zip_code": "2518501",
    "prefecture": "神奈川県",
    "prefecture_kana": "カナガワケン",
    "prefecture_code": "14",
    "city": "藤沢市",
    "city_kana": "フジサワシ",
    "town": "鵠沼神明",
    "town_kana": "クゲヌマシンメイ",
    "street": "１丁目５−５０",
    "office_name": "日本精工　株式会社　藤沢工場",
    "office_name_kana": "ニホンセイコウ カブシキガイシヤ フジサワコウジヨウ"
  },
  "8502": {
    "zip_code": "2518502",
    "prefecture": "神奈川県",
    "prefecture_kana": "カナガワケン",
    "prefecture_code": "14",
    "city": "藤沢市",
    "city_kana": "フジサワシ",
    "town": "本藤沢",
    "town_kana": "ホンフジサワ",
    "street": "４丁目２−１",
    "office_name": "株式会社　荏原製作所",
    "office_name_kana": "カブシキガイシヤ エバラセイサクシヨ"
  },
  "8505": {
    "zip_code": "2518505",
    "prefecture": "神奈川県",
    "prefecture_kana": "カナガワケン",
    "prefecture_code": "14",
    "city": "藤沢市",
    "city_kana": "フジサワシ",
    "town": "鵠沼松が岡",
    "town_kana": "クゲヌママツガオカ",
    "street": "４丁目１−３２",
    "office_name": "学校法人　湘南学園",
    "office_name_kana": "ガツコウホウジン シヨウナンガクエン"
  },
  "8510": {
    "zip_code": "2518510",
    "prefecture": "神奈川県",
    "prefecture_kana": "カナガワケン",
    "prefecture_code": "14",
    "city": "藤沢市",
    "city_kana": "フジサワシ",
    "town": "辻堂新町",
    "town_kana": "ツジドウシンマチ",
    "street": "３丁目３−１",
    "office_name": "ソニー　株式会社　湘南テクノロジーセンター",
    "office_name_kana": "ソニ- カブシキガイシヤ シヨウナンテクノロジ-センタ-"
  },
  "8511": {
    "zip_code": "2518511",
    "prefecture": "神奈川県",
    "prefecture_kana": "カナガワケン",
    "prefecture_code": "14",
    "city": "藤沢市",
    "city_kana": "フジサワシ",
    "town": "辻堂西海岸",
    "town_kana": "ツジドウニシカイガン",
    "street": "１丁目１−２５",
    "office_name": "学校法人　湘南工科大学",
    "office_name_kana": "ガツコウホウジン シヨウナンコウカダイガク"
  },
  "8513": {
    "zip_code": "2518513",
    "prefecture": "神奈川県",
    "prefecture_kana": "カナガワケン",
    "prefecture_code": "14",
    "city": "藤沢市",
    "city_kana": "フジサワシ",
    "town": "小塚",
    "town_kana": "コツカ",
    "street": "４００",
    "office_name": "池上通信機　株式会社　放送通信事業本部　湘南工場",
    "office_name_kana": "イケガミツウシンキ カブシキガイシヤ ホウソウツウシンジギヨウホンブ シヨウナンコウジヨウ"
  },
  "8515": {
    "zip_code": "2518515",
    "prefecture": "神奈川県",
    "prefecture_kana": "カナガワケン",
    "prefecture_code": "14",
    "city": "藤沢市",
    "city_kana": "フジサワシ",
    "town": "辻堂神台",
    "town_kana": "ツジドウカンダイ",
    "street": "２丁目４−３８",
    "office_name": "キーパー　株式会社",
    "office_name_kana": "キ-パ- カブシキガイシヤ"
  },
  "8522": {
    "zip_code": "2518522",
    "prefecture": "神奈川県",
    "prefecture_kana": "カナガワケン",
    "prefecture_code": "14",
    "city": "藤沢市",
    "city_kana": "フジサワシ",
    "town": "川名",
    "town_kana": "カワナ",
    "street": "１丁目１２−２",
    "office_name": "株式会社　山武　藤沢工場",
    "office_name_kana": "カブシキガイシヤ ヤマタケ フジサワコウジヨウ"
  },
  "8530": {
    "zip_code": "2518530",
    "prefecture": "神奈川県",
    "prefecture_kana": "カナガワケン",
    "prefecture_code": "14",
    "city": "藤沢市",
    "city_kana": "フジサワシ",
    "town": "小塚",
    "town_kana": "コツカ",
    "street": "３８３",
    "office_name": "医療法人　社団清心会　藤沢病院",
    "office_name_kana": "イリヨウホウジン シヤダンセイシンカイ フジサワビヨウイン"
  },
  "8531": {
    "zip_code": "2518531",
    "prefecture": "神奈川県",
    "prefecture_kana": "カナガワケン",
    "prefecture_code": "14",
    "city": "藤沢市",
    "city_kana": "フジサワシ",
    "town": "片瀬",
    "town_kana": "カタセ",
    "street": "１丁目１−１",
    "office_name": "ミネベア　株式会社　藤沢製作所",
    "office_name_kana": "ミネベア カブシキガイシヤ フジサワセイサクシヨ"
  },
  "8533": {
    "zip_code": "2518533",
    "prefecture": "神奈川県",
    "prefecture_kana": "カナガワケン",
    "prefecture_code": "14",
    "city": "藤沢市",
    "city_kana": "フジサワシ",
    "town": "藤沢",
    "town_kana": "フジサワ",
    "street": "９３３番２",
    "office_name": "神奈川県聴覚障害者福祉センター",
    "office_name_kana": "カナガワケンチヨウカクシヨウガイシヤフクシセンタ-"
  },
  "8534": {
    "zip_code": "2518534",
    "prefecture": "神奈川県",
    "prefecture_kana": "カナガワケン",
    "prefecture_code": "14",
    "city": "藤沢市",
    "city_kana": "フジサワシ",
    "town": "鵠沼石上",
    "town_kana": "クゲヌマイシガミ",
    "street": "２丁目７−１",
    "office_name": "藤沢県税事務所",
    "office_name_kana": "フジサワケンゼイジムシヨ"
  },
  "8540": {
    "zip_code": "2518540",
    "prefecture": "神奈川県",
    "prefecture_kana": "カナガワケン",
    "prefecture_code": "14",
    "city": "藤沢市",
    "city_kana": "フジサワシ",
    "town": "川名",
    "town_kana": "カワナ",
    "street": "１丁目１５−１",
    "office_name": "株式会社　佐賀鉄工所　藤沢工場",
    "office_name_kana": "カブシキガイシヤ サガテツコウジヨ フジサワコウジヨウ"
  },
  "8550": {
    "zip_code": "2518550",
    "prefecture": "神奈川県",
    "prefecture_kana": "カナガワケン",
    "prefecture_code": "14",
    "city": "藤沢市",
    "city_kana": "フジサワシ",
    "town": "藤沢",
    "town_kana": "フジサワ",
    "street": "２丁目６−１",
    "office_name": "藤沢市民病院",
    "office_name_kana": "フジサワシミンビヨウイン"
  },
  "8551": {
    "zip_code": "2518551",
    "prefecture": "神奈川県",
    "prefecture_kana": "カナガワケン",
    "prefecture_code": "14",
    "city": "藤沢市",
    "city_kana": "フジサワシ",
    "town": "宮前",
    "town_kana": "ミヤマエ",
    "street": "１００番−１号",
    "office_name": "株式会社　神戸製鋼所　藤沢事業所",
    "office_name_kana": "カブシキガイシヤ コウベセイコウジヨ フジサワジギヨウシヨ"
  },
  "8555": {
    "zip_code": "2518555",
    "prefecture": "神奈川県",
    "prefecture_kana": "カナガワケン",
    "prefecture_code": "14",
    "city": "藤沢市",
    "city_kana": "フジサワシ",
    "town": "村岡東",
    "town_kana": "ムラオカヒガシ",
    "street": "２−２６−１",
    "office_name": "武田薬品工業　（株）　湘南研究所",
    "office_name_kana": "タケダヤクヒンコウギヨウ カブシキカイシヤ シヨウナンケンキユウシヨ"
  },
  "8558": {
    "zip_code": "2518558",
    "prefecture": "神奈川県",
    "prefecture_kana": "カナガワケン",
    "prefecture_code": "14",
    "city": "藤沢市",
    "city_kana": "フジサワシ",
    "town": "藤沢",
    "town_kana": "フジサワ",
    "street": "５５５",
    "office_name": "株式会社　さいか屋　藤沢店",
    "office_name_kana": "カブシキガイシヤ サイカヤ フジサワテン"
  },
  "8560": {
    "zip_code": "2518560",
    "prefecture": "神奈川県",
    "prefecture_kana": "カナガワケン",
    "prefecture_code": "14",
    "city": "藤沢市",
    "city_kana": "フジサワシ",
    "town": "鵠沼神明",
    "town_kana": "クゲヌマシンメイ",
    "street": "１丁目４番地２１号ＮＴＴコミュニケーションズ湘南藤沢ビル３Ｆ",
    "office_name": "株式会社　ジェイコム湘南",
    "office_name_kana": "カブシキガイシヤ ジエイコムシヨウナン"
  },
  "8566": {
    "zip_code": "2518566",
    "prefecture": "神奈川県",
    "prefecture_kana": "カナガワケン",
    "prefecture_code": "14",
    "city": "藤沢市",
    "city_kana": "フジサワシ",
    "town": "朝日町",
    "town_kana": "アサヒチョウ",
    "street": "１−１１",
    "office_name": "藤沢税務署",
    "office_name_kana": "フジサワゼイムシヨ"
  },
  "8567": {
    "zip_code": "2518567",
    "prefecture": "神奈川県",
    "prefecture_kana": "カナガワケン",
    "prefecture_code": "14",
    "city": "藤沢市",
    "city_kana": "フジサワシ",
    "town": "南藤沢",
    "town_kana": "ミナミフジサワ",
    "street": "１２−４−１０１",
    "office_name": "吉原建設　株式会社",
    "office_name_kana": "ヨシハラケンセツ カブシキガイシヤ"
  },
  "8581": {
    "zip_code": "2518581",
    "prefecture": "神奈川県",
    "prefecture_kana": "カナガワケン",
    "prefecture_code": "14",
    "city": "藤沢市",
    "city_kana": "フジサワシ",
    "town": "南藤沢",
    "town_kana": "ミナミフジサワ",
    "street": "３−１２",
    "office_name": "東京スター銀行　藤沢支店",
    "office_name_kana": "トウキヨウスタ-ギンコウ フジサワシテン"
  },
  "8588": {
    "zip_code": "2518588",
    "prefecture": "神奈川県",
    "prefecture_kana": "カナガワケン",
    "prefecture_code": "14",
    "city": "藤沢市",
    "city_kana": "フジサワシ",
    "town": "辻堂神台",
    "town_kana": "ツジドウカンダイ",
    "street": "２丁目２番３０号",
    "office_name": "協同油脂　株式会社",
    "office_name_kana": "キヨウドウユシ カブシキガイシヤ"
  },
  "8601": {
    "zip_code": "2518601",
    "prefecture": "神奈川県",
    "prefecture_kana": "カナガワケン",
    "prefecture_code": "14",
    "city": "藤沢市",
    "city_kana": "フジサワシ",
    "town": "朝日町",
    "town_kana": "アサヒチョウ",
    "street": "１−１（藤沢郵便局私書箱第２２号）",
    "office_name": "藤沢市役所",
    "office_name_kana": "フジサワシヤクシヨ"
  }
}