{
  "0000": {
    "zip_code": "2520000",
    "prefecture": "神奈川県",
    "prefecture_kana": "カナガワケン",
    "prefecture_code": 14,
    "city": "座間市",
    "city_kana": "ザマシ",
    "town": "",
    "town_kana": "",
    "street": null,
    "office_name": null,
    "office_name_kana": null
  },
  "0001": {
    "zip_code": "2520001",
    "prefecture": "神奈川県",
    "prefecture_kana": "カナガワケン",
    "prefecture_code": 14,
    "city": "座間市",
    "city_kana": "ザマシ",
    "town": "相模が丘",
    "town_kana": "サガミガオカ",
    "street": null,
    "office_name": null,
    "office_name_kana": null
  },
  "0002": {
    "zip_code": "2520002",
    "prefecture": "神奈川県",
    "prefecture_kana": "カナガワケン",
    "prefecture_code": 14,
    "city": "座間市",
    "city_kana": "ザマシ",
    "town": "小松原",
    "town_kana": "コマツバラ",
    "street": null,
    "office_name": null,
    "office_name_kana": null
  },
  "0003": {
    "zip_code": "2520003",
    "prefecture": "神奈川県",
    "prefecture_kana": "カナガワケン",
    "prefecture_code": 14,
    "city": "座間市",
    "city_kana": "ザマシ",
    "town": "ひばりが丘",
    "town_kana": "ヒバリガオカ",
    "street": null,
    "office_name": null,
    "office_name_kana": null
  },
  "0004": {
    "zip_code": "2520004",
    "prefecture": "神奈川県",
    "prefecture_kana": "カナガワケン",
    "prefecture_code": 14,
    "city": "座間市",
    "city_kana": "ザマシ",
    "town": "東原",
    "town_kana": "ヒガシハラ",
    "street": null,
    "office_name": null,
    "office_name_kana": null
  },
  "0005": {
    "zip_code": "2520005",
    "prefecture": "神奈川県",
    "prefecture_kana": "カナガワケン",
    "prefecture_code": 14,
    "city": "座間市",
    "city_kana": "ザマシ",
    "town": "さがみ野",
    "town_kana": "サガミノ",
    "street": null,
    "office_name": null,
    "office_name_kana": null
  },
  "0011": {
    "zip_code": "2520011",
    "prefecture": "神奈川県",
    "prefecture_kana": "カナガワケン",
    "prefecture_code": 14,
    "city": "座間市",
    "city_kana": "ザマシ",
    "town": "相武台",
    "town_kana": "ソウブダイ",
    "street": null,
    "office_name": null,
    "office_name_kana": null
  },
  "0012": {
    "zip_code": "2520012",
    "prefecture": "神奈川県",
    "prefecture_kana": "カナガワケン",
    "prefecture_code": 14,
    "city": "座間市",
    "city_kana": "ザマシ",
    "town": "広野台",
    "town_kana": "ヒロノダイ",
    "street": null,
    "office_name": null,
    "office_name_kana": null
  },
  "0013": {
    "zip_code": "2520013",
    "prefecture": "神奈川県",
    "prefecture_kana": "カナガワケン",
    "prefecture_code": 14,
    "city": "座間市",
    "city_kana": "ザマシ",
    "town": "栗原",
    "town_kana": "クリハラ",
    "street": null,
    "office_name": null,
    "office_name_kana": null
  },
  "0014": {
    "zip_code": "2520014",
    "prefecture": "神奈川県",
    "prefecture_kana": "カナガワケン",
    "prefecture_code": 14,
    "city": "座間市",
    "city_kana": "ザマシ",
    "town": "栗原中央",
    "town_kana": "クリハラチュウオウ",
    "street": null,
    "office_name": null,
    "office_name_kana": null
  },
  "0015": {
    "zip_code": "2520015",
    "prefecture": "神奈川県",
    "prefecture_kana": "カナガワケン",
    "prefecture_code": 14,
    "city": "座間市",
    "city_kana": "ザマシ",
    "town": "南栗原",
    "town_kana": "ミナミクリハラ",
    "street": null,
    "office_name": null,
    "office_name_kana": null
  },
  "0016": {
    "zip_code": "2520016",
    "prefecture": "神奈川県",
    "prefecture_kana": "カナガワケン",
    "prefecture_code": 14,
    "city": "座間市",
    "city_kana": "ザマシ",
    "town": "西栗原",
    "town_kana": "ニシクリハラ",
    "street": null,
    "office_name": null,
    "office_name_kana": null
  },
  "0021": {
    "zip_code": "2520021",
    "prefecture": "神奈川県",
    "prefecture_kana": "カナガワケン",
    "prefecture_code": 14,
    "city": "座間市",
    "city_kana": "ザマシ",
    "town": "緑ケ丘",
    "town_kana": "ミドリガオカ",
    "street": null,
    "office_name": null,
    "office_name_kana": null
  },
  "0022": {
    "zip_code": "2520022",
    "prefecture": "神奈川県",
    "prefecture_kana": "カナガワケン",
    "prefecture_code": 14,
    "city": "座間市",
    "city_kana": "ザマシ",
    "town": "明王",
    "town_kana": "ミョウオウ",
    "street": null,
    "office_name": null,
    "office_name_kana": null
  },
  "0023": {
    "zip_code": "2520023",
    "prefecture": "神奈川県",
    "prefecture_kana": "カナガワケン",
    "prefecture_code": 14,
    "city": "座間市",
    "city_kana": "ザマシ",
    "town": "立野台",
    "town_kana": "タツノダイ",
    "street": null,
    "office_name": null,
    "office_name_kana": null
  },
  "0024": {
    "zip_code": "2520024",
    "prefecture": "神奈川県",
    "prefecture_kana": "カナガワケン",
    "prefecture_code": 14,
    "city": "座間市",
    "city_kana": "ザマシ",
    "town": "入谷",
    "town_kana": "イリヤ",
    "street": null,
    "office_name": null,
    "office_name_kana": null
  },
  "0025": {
    "zip_code": "2520025",
    "prefecture": "神奈川県",
    "prefecture_kana": "カナガワケン",
    "prefecture_code": 14,
    "city": "座間市",
    "city_kana": "ザマシ",
    "town": "四ツ谷",
    "town_kana": "ヨツヤ",
    "street": null,
    "office_name": null,
    "office_name_kana": null
  },
  "0026": {
    "zip_code": "2520026",
    "prefecture": "神奈川県",
    "prefecture_kana": "カナガワケン",
    "prefecture_code": 14,
    "city": "座間市",
    "city_kana": "ザマシ",
    "town": "新田宿",
    "town_kana": "シンデンジュク",
    "street": null,
    "office_name": null,
    "office_name_kana": null
  },
  "0027": {
    "zip_code": "2520027",
    "prefecture": "神奈川県",
    "prefecture_kana": "カナガワケン",
    "prefecture_code": 14,
    "city": "座間市",
    "city_kana": "ザマシ",
    "town": "座間",
    "town_kana": "ザマ",
    "street": null,
    "office_name": null,
    "office_name_kana": null
  },
  "0100": {
    "zip_code": "2520100",
    "prefecture": "神奈川県",
    "prefecture_kana": "カナガワケン",
    "prefecture_code": 14,
    "city": "相模原市緑区",
    "city_kana": "サガミハラシミドリク",
    "town": "",
    "town_kana": "",
    "street": null,
    "office_name": null,
    "office_name_kana": null
  },
  "0101": {
    "zip_code": "2520101",
    "prefecture": "神奈川県",
    "prefecture_kana": "カナガワケン",
    "prefecture_code": 14,
    "city": "相模原市緑区",
    "city_kana": "サガミハラシミドリク",
    "town": "町屋",
    "town_kana": "マチヤ",
    "street": null,
    "office_name": null,
    "office_name_kana": null
  },
  "0102": {
    "zip_code": "2520102",
    "prefecture": "神奈川県",
    "prefecture_kana": "カナガワケン",
    "prefecture_code": 14,
    "city": "相模原市緑区",
    "city_kana": "サガミハラシミドリク",
    "town": "原宿",
    "town_kana": "ハラジュク",
    "street": null,
    "office_name": null,
    "office_name_kana": null
  },
  "0103": {
    "zip_code": "2520103",
    "prefecture": "神奈川県",
    "prefecture_kana": "カナガワケン",
    "prefecture_code": 14,
    "city": "相模原市緑区",
    "city_kana": "サガミハラシミドリク",
    "town": "原宿南",
    "town_kana": "ハラジュクミナミ",
    "street": null,
    "office_name": null,
    "office_name_kana": null
  },
  "0104": {
    "zip_code": "2520104",
    "prefecture": "神奈川県",
    "prefecture_kana": "カナガワケン",
    "prefecture_code": 14,
    "city": "相模原市緑区",
    "city_kana": "サガミハラシミドリク",
    "town": "向原",
    "town_kana": "ムカイハラ",
    "street": null,
    "office_name": null,
    "office_name_kana": null
  },
  "0105": {
    "zip_code": "2520105",
    "prefecture": "神奈川県",
    "prefecture_kana": "カナガワケン",
    "prefecture_code": 14,
    "city": "相模原市緑区",
    "city_kana": "サガミハラシミドリク",
    "town": "久保沢",
    "town_kana": "クボサワ",
    "street": null,
    "office_name": null,
    "office_name_kana": null
  },
  "0106": {
    "zip_code": "2520106",
    "prefecture": "神奈川県",
    "prefecture_kana": "カナガワケン",
    "prefecture_code": 14,
    "city": "相模原市緑区",
    "city_kana": "サガミハラシミドリク",
    "town": "広田",
    "town_kana": "ヒロタ",
    "street": null,
    "office_name": null,
    "office_name_kana": null
  },
  "0111": {
    "zip_code": "2520111",
    "prefecture": "神奈川県",
    "prefecture_kana": "カナガワケン",
    "prefecture_code": 14,
    "city": "相模原市緑区",
    "city_kana": "サガミハラシミドリク",
    "town": "川尻",
    "town_kana": "カワシリ",
    "street": null,
    "office_name": null,
    "office_name_kana": null
  },
  "0112": {
    "zip_code": "2520112",
    "prefecture": "神奈川県",
    "prefecture_kana": "カナガワケン",
    "prefecture_code": 14,
    "city": "相模原市緑区",
    "city_kana": "サガミハラシミドリク",
    "town": "若葉台",
    "town_kana": "ワカバダイ",
    "street": null,
    "office_name": null,
    "office_name_kana": null
  },
  "0113": {
    "zip_code": "2520113",
    "prefecture": "神奈川県",
    "prefecture_kana": "カナガワケン",
    "prefecture_code": 14,
    "city": "相模原市緑区",
    "city_kana": "サガミハラシミドリク",
    "town": "谷ヶ原",
    "town_kana": "タニガハラ",
    "street": null,
    "office_name": null,
    "office_name_kana": null
  },
  "0114": {
    "zip_code": "2520114",
    "prefecture": "神奈川県",
    "prefecture_kana": "カナガワケン",
    "prefecture_code": 14,
    "city": "相模原市緑区",
    "city_kana": "サガミハラシミドリク",
    "town": "葉山島",
    "town_kana": "ハヤマジマ",
    "street": null,
    "office_name": null,
    "office_name_kana": null
  },
  "0115": {
    "zip_code": "2520115",
    "prefecture": "神奈川県",
    "prefecture_kana": "カナガワケン",
    "prefecture_code": 14,
    "city": "相模原市緑区",
    "city_kana": "サガミハラシミドリク",
    "town": "小倉",
    "town_kana": "オグラ",
    "street": null,
    "office_name": null,
    "office_name_kana": null
  },
  "0116": {
    "zip_code": "2520116",
    "prefecture": "神奈川県",
    "prefecture_kana": "カナガワケン",
    "prefecture_code": 14,
    "city": "相模原市緑区",
    "city_kana": "サガミハラシミドリク",
    "town": "城山",
    "town_kana": "シロヤマ",
    "street": null,
    "office_name": null,
    "office_name_kana": null
  },
  "0117": {
    "zip_code": "2520117",
    "prefecture": "神奈川県",
    "prefecture_kana": "カナガワケン",
    "prefecture_code": 14,
    "city": "相模原市緑区",
    "city_kana": "サガミハラシミドリク",
    "town": "中沢",
    "town_kana": "ナカザワ",
    "street": null,
    "office_name": null,
    "office_name_kana": null
  },
  "0124": {
    "zip_code": "2520124",
    "prefecture": "神奈川県",
    "prefecture_kana": "カナガワケン",
    "prefecture_code": 14,
    "city": "相模原市緑区",
    "city_kana": "サガミハラシミドリク",
    "town": "田名",
    "town_kana": "タナ",
    "street": null,
    "office_name": null,
    "office_name_kana": null
  },
  "0131": {
    "zip_code": "2520131",
    "prefecture": "神奈川県",
    "prefecture_kana": "カナガワケン",
    "prefecture_code": 14,
    "city": "相模原市緑区",
    "city_kana": "サガミハラシミドリク",
    "town": "西橋本",
    "town_kana": "ニシハシモト",
    "street": null,
    "office_name": null,
    "office_name_kana": null
  },
  "0132": {
    "zip_code": "2520132",
    "prefecture": "神奈川県",
    "prefecture_kana": "カナガワケン",
    "prefecture_code": 14,
    "city": "相模原市緑区",
    "city_kana": "サガミハラシミドリク",
    "town": "橋本台",
    "town_kana": "ハシモトダイ",
    "street": null,
    "office_name": null,
    "office_name_kana": null
  },
  "0134": {
    "zip_code": "2520134",
    "prefecture": "神奈川県",
    "prefecture_kana": "カナガワケン",
    "prefecture_code": 14,
    "city": "相模原市緑区",
    "city_kana": "サガミハラシミドリク",
    "town": "下九沢",
    "town_kana": "シモクザワ",
    "street": null,
    "office_name": null,
    "office_name_kana": null
  },
  "0135": {
    "zip_code": "2520135",
    "prefecture": "神奈川県",
    "prefecture_kana": "カナガワケン",
    "prefecture_code": 14,
    "city": "相模原市緑区",
    "city_kana": "サガミハラシミドリク",
    "town": "大島",
    "town_kana": "オオシマ",
    "street": null,
    "office_name": null,
    "office_name_kana": null
  },
  "0136": {
    "zip_code": "2520136",
    "prefecture": "神奈川県",
    "prefecture_kana": "カナガワケン",
    "prefecture_code": 14,
    "city": "相模原市緑区",
    "city_kana": "サガミハラシミドリク",
    "town": "上九沢",
    "town_kana": "カミクザワ",
    "street": null,
    "office_name": null,
    "office_name_kana": null
  },
  "0137": {
    "zip_code": "2520137",
    "prefecture": "神奈川県",
    "prefecture_kana": "カナガワケン",
    "prefecture_code": 14,
    "city": "相模原市緑区",
    "city_kana": "サガミハラシミドリク",
    "town": "二本松",
    "town_kana": "ニホンマツ",
    "street": null,
    "office_name": null,
    "office_name_kana": null
  },
  "0141": {
    "zip_code": "2520141",
    "prefecture": "神奈川県",
    "prefecture_kana": "カナガワケン",
    "prefecture_code": 14,
    "city": "相模原市緑区",
    "city_kana": "サガミハラシミドリク",
    "town": "相原",
    "town_kana": "アイハラ",
    "street": null,
    "office_name": null,
    "office_name_kana": null
  },
  "0142": {
    "zip_code": "2520142",
    "prefecture": "神奈川県",
    "prefecture_kana": "カナガワケン",
    "prefecture_code": 14,
    "city": "相模原市緑区",
    "city_kana": "サガミハラシミドリク",
    "town": "元橋本町",
    "town_kana": "モトハシモトチョウ",
    "street": null,
    "office_name": null,
    "office_name_kana": null
  },
  "0143": {
    "zip_code": "2520143",
    "prefecture": "神奈川県",
    "prefecture_kana": "カナガワケン",
    "prefecture_code": 14,
    "city": "相模原市緑区",
    "city_kana": "サガミハラシミドリク",
    "town": "橋本",
    "town_kana": "ハシモト",
    "street": null,
    "office_name": null,
    "office_name_kana": null
  },
  "0144": {
    "zip_code": "2520144",
    "prefecture": "神奈川県",
    "prefecture_kana": "カナガワケン",
    "prefecture_code": 14,
    "city": "相模原市緑区",
    "city_kana": "サガミハラシミドリク",
    "town": "東橋本",
    "town_kana": "ヒガシハシモト",
    "street": null,
    "office_name": null,
    "office_name_kana": null
  },
  "0146": {
    "zip_code": "2520146",
    "prefecture": "神奈川県",
    "prefecture_kana": "カナガワケン",
    "prefecture_code": 14,
    "city": "相模原市緑区",
    "city_kana": "サガミハラシミドリク",
    "town": "大山町",
    "town_kana": "オオヤマチョウ",
    "street": null,
    "office_name": null,
    "office_name_kana": null
  },
  "0151": {
    "zip_code": "2520151",
    "prefecture": "神奈川県",
    "prefecture_kana": "カナガワケン",
    "prefecture_code": 14,
    "city": "相模原市緑区",
    "city_kana": "サガミハラシミドリク",
    "town": "三井",
    "town_kana": "ミイ",
    "street": null,
    "office_name": null,
    "office_name_kana": null
  },
  "0152": {
    "zip_code": "2520152",
    "prefecture": "神奈川県",
    "prefecture_kana": "カナガワケン",
    "prefecture_code": 14,
    "city": "相模原市緑区",
    "city_kana": "サガミハラシミドリク",
    "town": "太井",
    "town_kana": "オオイ",
    "street": null,
    "office_name": null,
    "office_name_kana": null
  },
  "0153": {
    "zip_code": "2520153",
    "prefecture": "神奈川県",
    "prefecture_kana": "カナガワケン",
    "prefecture_code": 14,
    "city": "相模原市緑区",
    "city_kana": "サガミハラシミドリク",
    "town": "根小屋",
    "town_kana": "ネゴヤ",
    "street": null,
    "office_name": null,
    "office_name_kana": null
  },
  "0154": {
    "zip_code": "2520154",
    "prefecture": "神奈川県",
    "prefecture_kana": "カナガワケン",
    "prefecture_code": 14,
    "city": "相模原市緑区",
    "city_kana": "サガミハラシミドリク",
    "town": "長竹",
    "town_kana": "ナガタケ",
    "street": null,
    "office_name": null,
    "office_name_kana": null
  },
  "0155": {
    "zip_code": "2520155",
    "prefecture": "神奈川県",
    "prefecture_kana": "カナガワケン",
    "prefecture_code": 14,
    "city": "相模原市緑区",
    "city_kana": "サガミハラシミドリク",
    "town": "鳥屋",
    "town_kana": "トヤ",
    "street": null,
    "office_name": null,
    "office_name_kana": null
  },
  "0156": {
    "zip_code": "2520156",
    "prefecture": "神奈川県",
    "prefecture_kana": "カナガワケン",
    "prefecture_code": 14,
    "city": "相模原市緑区",
    "city_kana": "サガミハラシミドリク",
    "town": "青山",
    "town_kana": "アオヤマ",
    "street": null,
    "office_name": null,
    "office_name_kana": null
  },
  "0157": {
    "zip_code": "2520157",
    "prefecture": "神奈川県",
    "prefecture_kana": "カナガワケン",
    "prefecture_code": 14,
    "city": "相模原市緑区",
    "city_kana": "サガミハラシミドリク",
    "town": "中野",
    "town_kana": "ナカノ",
    "street": null,
    "office_name": null,
    "office_name_kana": null
  },
  "0158": {
    "zip_code": "2520158",
    "prefecture": "神奈川県",
    "prefecture_kana": "カナガワケン",
    "prefecture_code": 14,
    "city": "相模原市緑区",
    "city_kana": "サガミハラシミドリク",
    "town": "又野",
    "town_kana": "マタノ",
    "street": null,
    "office_name": null,
    "office_name_kana": null
  },
  "0159": {
    "zip_code": "2520159",
    "prefecture": "神奈川県",
    "prefecture_kana": "カナガワケン",
    "prefecture_code": 14,
    "city": "相模原市緑区",
    "city_kana": "サガミハラシミドリク",
    "town": "三ケ木",
    "town_kana": "ミカゲ",
    "street": null,
    "office_name": null,
    "office_name_kana": null
  },
  "0161": {
    "zip_code": "2520161",
    "prefecture": "神奈川県",
    "prefecture_kana": "カナガワケン",
    "prefecture_code": 14,
    "city": "相模原市緑区",
    "city_kana": "サガミハラシミドリク",
    "town": "青野原",
    "town_kana": "アオノハラ",
    "street": null,
    "office_name": null,
    "office_name_kana": null
  },
  "0162": {
    "zip_code": "2520162",
    "prefecture": "神奈川県",
    "prefecture_kana": "カナガワケン",
    "prefecture_code": 14,
    "city": "相模原市緑区",
    "city_kana": "サガミハラシミドリク",
    "town": "青根",
    "town_kana": "アオネ",
    "street": null,
    "office_name": null,
    "office_name_kana": null
  },
  "0171": {
    "zip_code": "2520171",
    "prefecture": "神奈川県",
    "prefecture_kana": "カナガワケン",
    "prefecture_code": 14,
    "city": "相模原市緑区",
    "city_kana": "サガミハラシミドリク",
    "town": "与瀬",
    "town_kana": "ヨセ",
    "street": null,
    "office_name": null,
    "office_name_kana": null
  },
  "0172": {
    "zip_code": "2520172",
    "prefecture": "神奈川県",
    "prefecture_kana": "カナガワケン",
    "prefecture_code": 14,
    "city": "相模原市緑区",
    "city_kana": "サガミハラシミドリク",
    "town": "与瀬本町",
    "town_kana": "ヨセホンチョウ",
    "street": null,
    "office_name": null,
    "office_name_kana": null
  },
  "0173": {
    "zip_code": "2520173",
    "prefecture": "神奈川県",
    "prefecture_kana": "カナガワケン",
    "prefecture_code": 14,
    "city": "相模原市緑区",
    "city_kana": "サガミハラシミドリク",
    "town": "小原",
    "town_kana": "オバラ",
    "street": null,
    "office_name": null,
    "office_name_kana": null
  },
  "0174": {
    "zip_code": "2520174",
    "prefecture": "神奈川県",
    "prefecture_kana": "カナガワケン",
    "prefecture_code": 14,
    "city": "相模原市緑区",
    "city_kana": "サガミハラシミドリク",
    "town": "千木良",
    "town_kana": "チギラ",
    "street": null,
    "office_name": null,
    "office_name_kana": null
  },
  "0175": {
    "zip_code": "2520175",
    "prefecture": "神奈川県",
    "prefecture_kana": "カナガワケン",
    "prefecture_code": 14,
    "city": "相模原市緑区",
    "city_kana": "サガミハラシミドリク",
    "town": "若柳",
    "town_kana": "ワカヤナギ",
    "street": null,
    "office_name": null,
    "office_name_kana": null
  },
  "0176": {
    "zip_code": "2520176",
    "prefecture": "神奈川県",
    "prefecture_kana": "カナガワケン",
    "prefecture_code": 14,
    "city": "相模原市緑区",
    "city_kana": "サガミハラシミドリク",
    "town": "寸沢嵐",
    "town_kana": "スワラシ",
    "street": null,
    "office_name": null,
    "office_name_kana": null
  },
  "0181": {
    "zip_code": "2520181",
    "prefecture": "神奈川県",
    "prefecture_kana": "カナガワケン",
    "prefecture_code": 14,
    "city": "相模原市緑区",
    "city_kana": "サガミハラシミドリク",
    "town": "佐野川",
    "town_kana": "サノガワ",
    "street": null,
    "office_name": null,
    "office_name_kana": null
  },
  "0182": {
    "zip_code": "2520182",
    "prefecture": "神奈川県",
    "prefecture_kana": "カナガワケン",
    "prefecture_code": 14,
    "city": "相模原市緑区",
    "city_kana": "サガミハラシミドリク",
    "town": "澤井",
    "town_kana": "サワイ",
    "street": null,
    "office_name": null,
    "office_name_kana": null
  },
  "0183": {
    "zip_code": "2520183",
    "prefecture": "神奈川県",
    "prefecture_kana": "カナガワケン",
    "prefecture_code": 14,
    "city": "相模原市緑区",
    "city_kana": "サガミハラシミドリク",
    "town": "吉野",
    "town_kana": "ヨシノ",
    "street": null,
    "office_name": null,
    "office_name_kana": null
  },
  "0184": {
    "zip_code": "2520184",
    "prefecture": "神奈川県",
    "prefecture_kana": "カナガワケン",
    "prefecture_code": 14,
    "city": "相模原市緑区",
    "city_kana": "サガミハラシミドリク",
    "town": "小渕",
    "town_kana": "オブチ",
    "street": null,
    "office_name": null,
    "office_name_kana": null
  },
  "0185": {
    "zip_code": "2520185",
    "prefecture": "神奈川県",
    "prefecture_kana": "カナガワケン",
    "prefecture_code": 14,
    "city": "相模原市緑区",
    "city_kana": "サガミハラシミドリク",
    "town": "日連",
    "town_kana": "ヒヅレ",
    "street": null,
    "office_name": null,
    "office_name_kana": null
  },
  "0186": {
    "zip_code": "2520186",
    "prefecture": "神奈川県",
    "prefecture_kana": "カナガワケン",
    "prefecture_code": 14,
    "city": "相模原市緑区",
    "city_kana": "サガミハラシミドリク",
    "town": "牧野",
    "town_kana": "マギノ",
    "street": null,
    "office_name": null,
    "office_name_kana": null
  },
  "0187": {
    "zip_code": "2520187",
    "prefecture": "神奈川県",
    "prefecture_kana": "カナガワケン",
    "prefecture_code": 14,
    "city": "相模原市緑区",
    "city_kana": "サガミハラシミドリク",
    "town": "名倉",
    "town_kana": "ナグラ",
    "street": null,
    "office_name": null,
    "office_name_kana": null
  },
  "0188": [
    {
      "zip_code": "2520188",
      "prefecture": "神奈川県",
      "prefecture_kana": "カナガワケン",
      "prefecture_code": 14,
      "city": "相模原市緑区",
      "city_kana": "サガミハラシミドリク",
      "town": "寸沢嵐",
      "town_kana": "スワラシ",
      "street": null,
      "office_name": null,
      "office_name_kana": null
    },
    {
      "zip_code": "2520188",
      "prefecture": "神奈川県",
      "prefecture_kana": "カナガワケン",
      "prefecture_code": 14,
      "city": "相模原市緑区",
      "city_kana": "サガミハラシミドリク",
      "town": "寸沢嵐新戸",
      "town_kana": "スワラシシンド",
      "street": null,
      "office_name": null,
      "office_name_kana": null
    }
  ],
  "0200": {
    "zip_code": "2520200",
    "prefecture": "神奈川県",
    "prefecture_kana": "カナガワケン",
    "prefecture_code": 14,
    "city": "相模原市中央区",
    "city_kana": "サガミハラシチュウオウク",
    "town": "",
    "town_kana": "",
    "street": null,
    "office_name": null,
    "office_name_kana": null
  },
  "0201": {
    "zip_code": "2520201",
    "prefecture": "神奈川県",
    "prefecture_kana": "カナガワケン",
    "prefecture_code": 14,
    "city": "相模原市中央区",
    "city_kana": "サガミハラシチュウオウク",
    "town": "上矢部",
    "town_kana": "カミヤベ",
    "street": null,
    "office_name": null,
    "office_name_kana": null
  },
  "0202": {
    "zip_code": "2520202",
    "prefecture": "神奈川県",
    "prefecture_kana": "カナガワケン",
    "prefecture_code": 14,
    "city": "相模原市中央区",
    "city_kana": "サガミハラシチュウオウク",
    "town": "淵野辺本町",
    "town_kana": "フチノベホンチョウ",
    "street": null,
    "office_name": null,
    "office_name_kana": null
  },
  "0203": {
    "zip_code": "2520203",
    "prefecture": "神奈川県",
    "prefecture_kana": "カナガワケン",
    "prefecture_code": 14,
    "city": "相模原市中央区",
    "city_kana": "サガミハラシチュウオウク",
    "town": "東淵野辺",
    "town_kana": "ヒガシフチノベ",
    "street": null,
    "office_name": null,
    "office_name_kana": null
  },
  "0205": {
    "zip_code": "2520205",
    "prefecture": "神奈川県",
    "prefecture_kana": "カナガワケン",
    "prefecture_code": 14,
    "city": "相模原市中央区",
    "city_kana": "サガミハラシチュウオウク",
    "town": "小山",
    "town_kana": "オヤマ",
    "street": null,
    "office_name": null,
    "office_name_kana": null
  },
  "0206": {
    "zip_code": "2520206",
    "prefecture": "神奈川県",
    "prefecture_kana": "カナガワケン",
    "prefecture_code": 14,
    "city": "相模原市中央区",
    "city_kana": "サガミハラシチュウオウク",
    "town": "淵野辺",
    "town_kana": "フチノベ",
    "street": null,
    "office_name": null,
    "office_name_kana": null
  },
  "0207": {
    "zip_code": "2520207",
    "prefecture": "神奈川県",
    "prefecture_kana": "カナガワケン",
    "prefecture_code": 14,
    "city": "相模原市中央区",
    "city_kana": "サガミハラシチュウオウク",
    "town": "矢部新町",
    "town_kana": "ヤベシンチョウ",
    "street": null,
    "office_name": null,
    "office_name_kana": null
  },
  "0208": {
    "zip_code": "2520208",
    "prefecture": "神奈川県",
    "prefecture_kana": "カナガワケン",
    "prefecture_code": 14,
    "city": "相模原市中央区",
    "city_kana": "サガミハラシチュウオウク",
    "town": "矢部新田",
    "town_kana": "ヤベシンデン",
    "street": null,
    "office_name": null,
    "office_name_kana": null
  },
  "0211": {
    "zip_code": "2520211",
    "prefecture": "神奈川県",
    "prefecture_kana": "カナガワケン",
    "prefecture_code": 14,
    "city": "相模原市中央区",
    "city_kana": "サガミハラシチュウオウク",
    "town": "宮下本町",
    "town_kana": "ミヤシモホンチョウ",
    "street": null,
    "office_name": null,
    "office_name_kana": null
  },
  "0212": {
    "zip_code": "2520212",
    "prefecture": "神奈川県",
    "prefecture_kana": "カナガワケン",
    "prefecture_code": 14,
    "city": "相模原市中央区",
    "city_kana": "サガミハラシチュウオウク",
    "town": "宮下",
    "town_kana": "ミヤシモ",
    "street": null,
    "office_name": null,
    "office_name_kana": null
  },
  "0213": {
    "zip_code": "2520213",
    "prefecture": "神奈川県",
    "prefecture_kana": "カナガワケン",
    "prefecture_code": 14,
    "city": "相模原市中央区",
    "city_kana": "サガミハラシチュウオウク",
    "town": "すすきの町",
    "town_kana": "ススキノチョウ",
    "street": null,
    "office_name": null,
    "office_name_kana": null
  },
  "0214": {
    "zip_code": "2520214",
    "prefecture": "神奈川県",
    "prefecture_kana": "カナガワケン",
    "prefecture_code": 14,
    "city": "相模原市中央区",
    "city_kana": "サガミハラシチュウオウク",
    "town": "向陽町",
    "town_kana": "コウヨウチョウ",
    "street": null,
    "office_name": null,
    "office_name_kana": null
  },
  "0215": {
    "zip_code": "2520215",
    "prefecture": "神奈川県",
    "prefecture_kana": "カナガワケン",
    "prefecture_code": 14,
    "city": "相模原市中央区",
    "city_kana": "サガミハラシチュウオウク",
    "town": "氷川町",
    "town_kana": "ヒカワチョウ",
    "street": null,
    "office_name": null,
    "office_name_kana": null
  },
  "0216": {
    "zip_code": "2520216",
    "prefecture": "神奈川県",
    "prefecture_kana": "カナガワケン",
    "prefecture_code": 14,
    "city": "相模原市中央区",
    "city_kana": "サガミハラシチュウオウク",
    "town": "清新",
    "town_kana": "セイシン",
    "street": null,
    "office_name": null,
    "office_name_kana": null
  },
  "0217": {
    "zip_code": "2520217",
    "prefecture": "神奈川県",
    "prefecture_kana": "カナガワケン",
    "prefecture_code": 14,
    "city": "相模原市中央区",
    "city_kana": "サガミハラシチュウオウク",
    "town": "小町通",
    "town_kana": "コマチドオリ",
    "street": null,
    "office_name": null,
    "office_name_kana": null
  },
  "0221": {
    "zip_code": "2520221",
    "prefecture": "神奈川県",
    "prefecture_kana": "カナガワケン",
    "prefecture_code": 14,
    "city": "相模原市中央区",
    "city_kana": "サガミハラシチュウオウク",
    "town": "高根",
    "town_kana": "タカネ",
    "street": null,
    "office_name": null,
    "office_name_kana": null
  },
  "0222": {
    "zip_code": "2520222",
    "prefecture": "神奈川県",
    "prefecture_kana": "カナガワケン",
    "prefecture_code": 14,
    "city": "相模原市中央区",
    "city_kana": "サガミハラシチュウオウク",
    "town": "由野台",
    "town_kana": "ヨシノダイ",
    "street": null,
    "office_name": null,
    "office_name_kana": null
  },
  "0223": {
    "zip_code": "2520223",
    "prefecture": "神奈川県",
    "prefecture_kana": "カナガワケン",
    "prefecture_code": 14,
    "city": "相模原市中央区",
    "city_kana": "サガミハラシチュウオウク",
    "town": "松が丘",
    "town_kana": "マツガオカ",
    "street": null,
    "office_name": null,
    "office_name_kana": null
  },
  "0224": {
    "zip_code": "2520224",
    "prefecture": "神奈川県",
    "prefecture_kana": "カナガワケン",
    "prefecture_code": 14,
    "city": "相模原市中央区",
    "city_kana": "サガミハラシチュウオウク",
    "town": "青葉",
    "town_kana": "アオバ",
    "street": null,
    "office_name": null,
    "office_name_kana": null
  },
  "0225": {
    "zip_code": "2520225",
    "prefecture": "神奈川県",
    "prefecture_kana": "カナガワケン",
    "prefecture_code": 14,
    "city": "相模原市中央区",
    "city_kana": "サガミハラシチュウオウク",
    "town": "緑が丘",
    "town_kana": "ミドリガオカ",
    "street": null,
    "office_name": null,
    "office_name_kana": null
  },
  "0226": {
    "zip_code": "2520226",
    "prefecture": "神奈川県",
    "prefecture_kana": "カナガワケン",
    "prefecture_code": 14,
    "city": "相模原市中央区",
    "city_kana": "サガミハラシチュウオウク",
    "town": "陽光台",
    "town_kana": "ヨウコウダイ",
    "street": null,
    "office_name": null,
    "office_name_kana": null
  },
  "0227": {
    "zip_code": "2520227",
    "prefecture": "神奈川県",
    "prefecture_kana": "カナガワケン",
    "prefecture_code": 14,
    "city": "相模原市中央区",
    "city_kana": "サガミハラシチュウオウク",
    "town": "光が丘",
    "town_kana": "ヒカリガオカ",
    "street": null,
    "office_name": null,
    "office_name_kana": null
  },
  "0228": {
    "zip_code": "2520228",
    "prefecture": "神奈川県",
    "prefecture_kana": "カナガワケン",
    "prefecture_code": 14,
    "city": "相模原市中央区",
    "city_kana": "サガミハラシチュウオウク",
    "town": "並木",
    "town_kana": "ナミキ",
    "street": null,
    "office_name": null,
    "office_name_kana": null
  },
  "0229": {
    "zip_code": "2520229",
    "prefecture": "神奈川県",
    "prefecture_kana": "カナガワケン",
    "prefecture_code": 14,
    "city": "相模原市中央区",
    "city_kana": "サガミハラシチュウオウク",
    "town": "弥栄",
    "town_kana": "ヤエイ",
    "street": null,
    "office_name": null,
    "office_name_kana": null
  },
  "0231": {
    "zip_code": "2520231",
    "prefecture": "神奈川県",
    "prefecture_kana": "カナガワケン",
    "prefecture_code": 14,
    "city": "相模原市中央区",
    "city_kana": "サガミハラシチュウオウク",
    "town": "相模原",
    "town_kana": "サガミハラ",
    "street": null,
    "office_name": null,
    "office_name_kana": null
  },
  "0232": {
    "zip_code": "2520232",
    "prefecture": "神奈川県",
    "prefecture_kana": "カナガワケン",
    "prefecture_code": 14,
    "city": "相模原市中央区",
    "city_kana": "サガミハラシチュウオウク",
    "town": "矢部",
    "town_kana": "ヤベ",
    "street": null,
    "office_name": null,
    "office_name_kana": null
  },
  "0233": {
    "zip_code": "2520233",
    "prefecture": "神奈川県",
    "prefecture_kana": "カナガワケン",
    "prefecture_code": 14,
    "city": "相模原市中央区",
    "city_kana": "サガミハラシチュウオウク",
    "town": "鹿沼台",
    "town_kana": "カヌマダイ",
    "street": null,
    "office_name": null,
    "office_name_kana": null
  },
  "0234": {
    "zip_code": "2520234",
    "prefecture": "神奈川県",
    "prefecture_kana": "カナガワケン",
    "prefecture_code": 14,
    "city": "相模原市中央区",
    "city_kana": "サガミハラシチュウオウク",
    "town": "共和",
    "town_kana": "キョウワ",
    "street": null,
    "office_name": null,
    "office_name_kana": null
  },
  "0235": {
    "zip_code": "2520235",
    "prefecture": "神奈川県",
    "prefecture_kana": "カナガワケン",
    "prefecture_code": 14,
    "city": "相模原市中央区",
    "city_kana": "サガミハラシチュウオウク",
    "town": "相生",
    "town_kana": "アイオイ",
    "street": null,
    "office_name": null,
    "office_name_kana": null
  },
  "0236": {
    "zip_code": "2520236",
    "prefecture": "神奈川県",
    "prefecture_kana": "カナガワケン",
    "prefecture_code": 14,
    "city": "相模原市中央区",
    "city_kana": "サガミハラシチュウオウク",
    "town": "富士見",
    "town_kana": "フジミ",
    "street": null,
    "office_name": null,
    "office_name_kana": null
  },
  "0237": {
    "zip_code": "2520237",
    "prefecture": "神奈川県",
    "prefecture_kana": "カナガワケン",
    "prefecture_code": 14,
    "city": "相模原市中央区",
    "city_kana": "サガミハラシチュウオウク",
    "town": "千代田",
    "town_kana": "チヨダ",
    "street": null,
    "office_name": null,
    "office_name_kana": null
  },
  "0238": {
    "zip_code": "2520238",
    "prefecture": "神奈川県",
    "prefecture_kana": "カナガワケン",
    "prefecture_code": 14,
    "city": "相模原市中央区",
    "city_kana": "サガミハラシチュウオウク",
    "town": "星が丘",
    "town_kana": "ホシガオカ",
    "street": null,
    "office_name": null,
    "office_name_kana": null
  },
  "0239": {
    "zip_code": "2520239",
    "prefecture": "神奈川県",
    "prefecture_kana": "カナガワケン",
    "prefecture_code": 14,
    "city": "相模原市中央区",
    "city_kana": "サガミハラシチュウオウク",
    "town": "中央",
    "town_kana": "チュウオウ",
    "street": null,
    "office_name": null,
    "office_name_kana": null
  },
  "0241": {
    "zip_code": "2520241",
    "prefecture": "神奈川県",
    "prefecture_kana": "カナガワケン",
    "prefecture_code": 14,
    "city": "相模原市中央区",
    "city_kana": "サガミハラシチュウオウク",
    "town": "横山台",
    "town_kana": "ヨコヤマダイ",
    "street": null,
    "office_name": null,
    "office_name_kana": null
  },
  "0242": {
    "zip_code": "2520242",
    "prefecture": "神奈川県",
    "prefecture_kana": "カナガワケン",
    "prefecture_code": 14,
    "city": "相模原市中央区",
    "city_kana": "サガミハラシチュウオウク",
    "town": "横山",
    "town_kana": "ヨコヤマ",
    "street": null,
    "office_name": null,
    "office_name_kana": null
  },
  "0243": {
    "zip_code": "2520243",
    "prefecture": "神奈川県",
    "prefecture_kana": "カナガワケン",
    "prefecture_code": 14,
    "city": "相模原市中央区",
    "city_kana": "サガミハラシチュウオウク",
    "town": "上溝",
    "town_kana": "カミミゾ",
    "street": null,
    "office_name": null,
    "office_name_kana": null
  },
  "0244": {
    "zip_code": "2520244",
    "prefecture": "神奈川県",
    "prefecture_kana": "カナガワケン",
    "prefecture_code": 14,
    "city": "相模原市中央区",
    "city_kana": "サガミハラシチュウオウク",
    "town": "田名",
    "town_kana": "タナ",
    "street": null,
    "office_name": null,
    "office_name_kana": null
  },
  "0245": {
    "zip_code": "2520245",
    "prefecture": "神奈川県",
    "prefecture_kana": "カナガワケン",
    "prefecture_code": 14,
    "city": "相模原市中央区",
    "city_kana": "サガミハラシチュウオウク",
    "town": "田名塩田",
    "town_kana": "タナシオダ",
    "street": null,
    "office_name": null,
    "office_name_kana": null
  },
  "0246": {
    "zip_code": "2520246",
    "prefecture": "神奈川県",
    "prefecture_kana": "カナガワケン",
    "prefecture_code": 14,
    "city": "相模原市中央区",
    "city_kana": "サガミハラシチュウオウク",
    "town": "水郷田名",
    "town_kana": "スイゴウタナ",
    "street": null,
    "office_name": null,
    "office_name_kana": null
  },
  "0251": {
    "zip_code": "2520251",
    "prefecture": "神奈川県",
    "prefecture_kana": "カナガワケン",
    "prefecture_code": 14,
    "city": "相模原市中央区",
    "city_kana": "サガミハラシチュウオウク",
    "town": "大野台",
    "town_kana": "オオノダイ",
    "street": null,
    "office_name": null,
    "office_name_kana": null
  },
  "0253": {
    "zip_code": "2520253",
    "prefecture": "神奈川県",
    "prefecture_kana": "カナガワケン",
    "prefecture_code": 14,
    "city": "相模原市中央区",
    "city_kana": "サガミハラシチュウオウク",
    "town": "南橋本",
    "town_kana": "ミナミハシモト",
    "street": null,
    "office_name": null,
    "office_name_kana": null
  },
  "0254": {
    "zip_code": "2520254",
    "prefecture": "神奈川県",
    "prefecture_kana": "カナガワケン",
    "prefecture_code": 14,
    "city": "相模原市中央区",
    "city_kana": "サガミハラシチュウオウク",
    "town": "下九沢",
    "town_kana": "シモクザワ",
    "street": null,
    "office_name": null,
    "office_name_kana": null
  },
  "0300": {
    "zip_code": "2520300",
    "prefecture": "神奈川県",
    "prefecture_kana": "カナガワケン",
    "prefecture_code": 14,
    "city": "相模原市南区",
    "city_kana": "サガミハラシミナミク",
    "town": "",
    "town_kana": "",
    "street": null,
    "office_name": null,
    "office_name_kana": null
  },
  "0301": {
    "zip_code": "2520301",
    "prefecture": "神奈川県",
    "prefecture_kana": "カナガワケン",
    "prefecture_code": 14,
    "city": "相模原市南区",
    "city_kana": "サガミハラシミナミク",
    "town": "鵜野森",
    "town_kana": "ウノモリ",
    "street": null,
    "office_name": null,
    "office_name_kana": null
  },
  "0302": {
    "zip_code": "2520302",
    "prefecture": "神奈川県",
    "prefecture_kana": "カナガワケン",
    "prefecture_code": 14,
    "city": "相模原市南区",
    "city_kana": "サガミハラシミナミク",
    "town": "上鶴間",
    "town_kana": "カミツルマ",
    "street": null,
    "office_name": null,
    "office_name_kana": null
  },
  "0303": {
    "zip_code": "2520303",
    "prefecture": "神奈川県",
    "prefecture_kana": "カナガワケン",
    "prefecture_code": 14,
    "city": "相模原市南区",
    "city_kana": "サガミハラシミナミク",
    "town": "相模大野",
    "town_kana": "サガミオオノ",
    "street": null,
    "office_name": null,
    "office_name_kana": null
  },
  "0304": {
    "zip_code": "2520304",
    "prefecture": "神奈川県",
    "prefecture_kana": "カナガワケン",
    "prefecture_code": 14,
    "city": "相模原市南区",
    "city_kana": "サガミハラシミナミク",
    "town": "旭町",
    "town_kana": "アサヒチョウ",
    "street": null,
    "office_name": null,
    "office_name_kana": null
  },
  "0305": {
    "zip_code": "2520305",
    "prefecture": "神奈川県",
    "prefecture_kana": "カナガワケン",
    "prefecture_code": 14,
    "city": "相模原市南区",
    "city_kana": "サガミハラシミナミク",
    "town": "豊町",
    "town_kana": "ユタカチョウ",
    "street": null,
    "office_name": null,
    "office_name_kana": null
  },
  "0306": {
    "zip_code": "2520306",
    "prefecture": "神奈川県",
    "prefecture_kana": "カナガワケン",
    "prefecture_code": 14,
    "city": "相模原市南区",
    "city_kana": "サガミハラシミナミク",
    "town": "栄町",
    "town_kana": "サカエチョウ",
    "street": null,
    "office_name": null,
    "office_name_kana": null
  },
  "0307": {
    "zip_code": "2520307",
    "prefecture": "神奈川県",
    "prefecture_kana": "カナガワケン",
    "prefecture_code": 14,
    "city": "相模原市南区",
    "city_kana": "サガミハラシミナミク",
    "town": "文京",
    "town_kana": "ブンキョウ",
    "street": null,
    "office_name": null,
    "office_name_kana": null
  },
  "0311": {
    "zip_code": "2520311",
    "prefecture": "神奈川県",
    "prefecture_kana": "カナガワケン",
    "prefecture_code": 14,
    "city": "相模原市南区",
    "city_kana": "サガミハラシミナミク",
    "town": "東林間",
    "town_kana": "ヒガシリンカン",
    "street": null,
    "office_name": null,
    "office_name_kana": null
  },
  "0312": {
    "zip_code": "2520312",
    "prefecture": "神奈川県",
    "prefecture_kana": "カナガワケン",
    "prefecture_code": 14,
    "city": "相模原市南区",
    "city_kana": "サガミハラシミナミク",
    "town": "相南",
    "town_kana": "ソウナン",
    "street": null,
    "office_name": null,
    "office_name_kana": null
  },
  "0313": {
    "zip_code": "2520313",
    "prefecture": "神奈川県",
    "prefecture_kana": "カナガワケン",
    "prefecture_code": 14,
    "city": "相模原市南区",
    "city_kana": "サガミハラシミナミク",
    "town": "松が枝町",
    "town_kana": "マツガエチョウ",
    "street": null,
    "office_name": null,
    "office_name_kana": null
  },
  "0314": {
    "zip_code": "2520314",
    "prefecture": "神奈川県",
    "prefecture_kana": "カナガワケン",
    "prefecture_code": 14,
    "city": "相模原市南区",
    "city_kana": "サガミハラシミナミク",
    "town": "南台",
    "town_kana": "ミナミダイ",
    "street": null,
    "office_name": null,
    "office_name_kana": null
  },
  "0315": {
    "zip_code": "2520315",
    "prefecture": "神奈川県",
    "prefecture_kana": "カナガワケン",
    "prefecture_code": 14,
    "city": "相模原市南区",
    "city_kana": "サガミハラシミナミク",
    "town": "桜台",
    "town_kana": "サクラダイ",
    "street": null,
    "office_name": null,
    "office_name_kana": null
  },
  "0316": {
    "zip_code": "2520316",
    "prefecture": "神奈川県",
    "prefecture_kana": "カナガワケン",
    "prefecture_code": 14,
    "city": "相模原市南区",
    "city_kana": "サガミハラシミナミク",
    "town": "双葉",
    "town_kana": "フタバ",
    "street": null,
    "office_name": null,
    "office_name_kana": null
  },
  "0317": {
    "zip_code": "2520317",
    "prefecture": "神奈川県",
    "prefecture_kana": "カナガワケン",
    "prefecture_code": 14,
    "city": "相模原市南区",
    "city_kana": "サガミハラシミナミク",
    "town": "御園",
    "town_kana": "ミソノ",
    "street": null,
    "office_name": null,
    "office_name_kana": null
  },
  "0318": {
    "zip_code": "2520318",
    "prefecture": "神奈川県",
    "prefecture_kana": "カナガワケン",
    "prefecture_code": 14,
    "city": "相模原市南区",
    "city_kana": "サガミハラシミナミク",
    "town": "上鶴間本町",
    "town_kana": "カミツルマホンチョウ",
    "street": null,
    "office_name": null,
    "office_name_kana": null
  },
  "0321": {
    "zip_code": "2520321",
    "prefecture": "神奈川県",
    "prefecture_kana": "カナガワケン",
    "prefecture_code": 14,
    "city": "相模原市南区",
    "city_kana": "サガミハラシミナミク",
    "town": "相模台",
    "town_kana": "サガミダイ",
    "street": null,
    "office_name": null,
    "office_name_kana": null
  },
  "0322": {
    "zip_code": "2520322",
    "prefecture": "神奈川県",
    "prefecture_kana": "カナガワケン",
    "prefecture_code": 14,
    "city": "相模原市南区",
    "city_kana": "サガミハラシミナミク",
    "town": "相模台団地",
    "town_kana": "サガミダイダンチ",
    "street": null,
    "office_name": null,
    "office_name_kana": null
  },
  "0323": {
    "zip_code": "2520323",
    "prefecture": "神奈川県",
    "prefecture_kana": "カナガワケン",
    "prefecture_code": 14,
    "city": "相模原市南区",
    "city_kana": "サガミハラシミナミク",
    "town": "相武台団地",
    "town_kana": "ソウブダイダンチ",
    "street": null,
    "office_name": null,
    "office_name_kana": null
  },
  "0324": {
    "zip_code": "2520324",
    "prefecture": "神奈川県",
    "prefecture_kana": "カナガワケン",
    "prefecture_code": 14,
    "city": "相模原市南区",
    "city_kana": "サガミハラシミナミク",
    "town": "相武台",
    "town_kana": "ソウブダイ",
    "street": null,
    "office_name": null,
    "office_name_kana": null
  },
  "0325": {
    "zip_code": "2520325",
    "prefecture": "神奈川県",
    "prefecture_kana": "カナガワケン",
    "prefecture_code": 14,
    "city": "相模原市南区",
    "city_kana": "サガミハラシミナミク",
    "town": "新磯野",
    "town_kana": "アライソノ",
    "street": null,
    "office_name": null,
    "office_name_kana": null
  },
  "0326": {
    "zip_code": "2520326",
    "prefecture": "神奈川県",
    "prefecture_kana": "カナガワケン",
    "prefecture_code": 14,
    "city": "相模原市南区",
    "city_kana": "サガミハラシミナミク",
    "town": "新戸",
    "town_kana": "シンド",
    "street": null,
    "office_name": null,
    "office_name_kana": null
  },
  "0327": {
    "zip_code": "2520327",
    "prefecture": "神奈川県",
    "prefecture_kana": "カナガワケン",
    "prefecture_code": 14,
    "city": "相模原市南区",
    "city_kana": "サガミハラシミナミク",
    "town": "磯部",
    "town_kana": "イソベ",
    "street": null,
    "office_name": null,
    "office_name_kana": null
  },
  "0328": {
    "zip_code": "2520328",
    "prefecture": "神奈川県",
    "prefecture_kana": "カナガワケン",
    "prefecture_code": 14,
    "city": "相模原市南区",
    "city_kana": "サガミハラシミナミク",
    "town": "麻溝台",
    "town_kana": "アサミゾダイ",
    "street": null,
    "office_name": null,
    "office_name_kana": null
  },
  "0329": {
    "zip_code": "2520329",
    "prefecture": "神奈川県",
    "prefecture_kana": "カナガワケン",
    "prefecture_code": 14,
    "city": "相模原市南区",
    "city_kana": "サガミハラシミナミク",
    "town": "北里",
    "town_kana": "キタザト",
    "street": null,
    "office_name": null,
    "office_name_kana": null
  },
  "0331": {
    "zip_code": "2520331",
    "prefecture": "神奈川県",
    "prefecture_kana": "カナガワケン",
    "prefecture_code": 14,
    "city": "相模原市南区",
    "city_kana": "サガミハラシミナミク",
    "town": "大野台",
    "town_kana": "オオノダイ",
    "street": null,
    "office_name": null,
    "office_name_kana": null
  },
  "0332": {
    "zip_code": "2520332",
    "prefecture": "神奈川県",
    "prefecture_kana": "カナガワケン",
    "prefecture_code": 14,
    "city": "相模原市南区",
    "city_kana": "サガミハラシミナミク",
    "town": "西大沼",
    "town_kana": "ニシオオヌマ",
    "street": null,
    "office_name": null,
    "office_name_kana": null
  },
  "0333": {
    "zip_code": "2520333",
    "prefecture": "神奈川県",
    "prefecture_kana": "カナガワケン",
    "prefecture_code": 14,
    "city": "相模原市南区",
    "city_kana": "サガミハラシミナミク",
    "town": "東大沼",
    "town_kana": "ヒガシオオヌマ",
    "street": null,
    "office_name": null,
    "office_name_kana": null
  },
  "0334": {
    "zip_code": "2520334",
    "prefecture": "神奈川県",
    "prefecture_kana": "カナガワケン",
    "prefecture_code": 14,
    "city": "相模原市南区",
    "city_kana": "サガミハラシミナミク",
    "town": "若松",
    "town_kana": "ワカマツ",
    "street": null,
    "office_name": null,
    "office_name_kana": null
  },
  "0335": {
    "zip_code": "2520335",
    "prefecture": "神奈川県",
    "prefecture_kana": "カナガワケン",
    "prefecture_code": 14,
    "city": "相模原市南区",
    "city_kana": "サガミハラシミナミク",
    "town": "下溝",
    "town_kana": "シモミゾ",
    "street": null,
    "office_name": null,
    "office_name_kana": null
  },
  "0336": {
    "zip_code": "2520336",
    "prefecture": "神奈川県",
    "prefecture_kana": "カナガワケン",
    "prefecture_code": 14,
    "city": "相模原市南区",
    "city_kana": "サガミハラシミナミク",
    "town": "当麻",
    "town_kana": "タイマ",
    "street": null,
    "office_name": null,
    "office_name_kana": null
  },
  "0344": {
    "zip_code": "2520344",
    "prefecture": "神奈川県",
    "prefecture_kana": "カナガワケン",
    "prefecture_code": 14,
    "city": "相模原市南区",
    "city_kana": "サガミハラシミナミク",
    "town": "古淵",
    "town_kana": "コブチ",
    "street": null,
    "office_name": null,
    "office_name_kana": null
  },
  "0370": {
    "zip_code": "2520370",
    "prefecture": "神奈川県",
    "prefecture_kana": "カナガワケン",
    "prefecture_code": 14,
    "city": "相模原市南区",
    "city_kana": "サガミハラシミナミク",
    "town": "相模大野",
    "town_kana": "サガミオオノ",
    "street": "３丁目９−１",
    "office_name": "株式会社　横浜岡田屋",
    "office_name_kana": "カブシキカイシヤ ヨコハマオカダヤ"
  },
  "0371": {
    "zip_code": "2520371",
    "prefecture": "神奈川県",
    "prefecture_kana": "カナガワケン",
    "prefecture_code": 14,
    "city": "相模原市南区",
    "city_kana": "サガミハラシミナミク",
    "town": "相模大野",
    "town_kana": "サガミオオノ",
    "street": "４−４−３",
    "office_name": "伊勢丹　相模原店",
    "office_name_kana": "イセタン サガミハラテン"
  },
  "0373": {
    "zip_code": "2520373",
    "prefecture": "神奈川県",
    "prefecture_kana": "カナガワケン",
    "prefecture_code": 14,
    "city": "相模原市南区",
    "city_kana": "サガミハラシミナミク",
    "town": "北里",
    "town_kana": "キタザト",
    "street": "１丁目１５−１",
    "office_name": "学校法人　北里研究所",
    "office_name_kana": "ガツコウホウジン キタサトケンキユウシヨ"
  },
  "0374": {
    "zip_code": "2520374",
    "prefecture": "神奈川県",
    "prefecture_kana": "カナガワケン",
    "prefecture_code": 14,
    "city": "相模原市南区",
    "city_kana": "サガミハラシミナミク",
    "town": "北里",
    "town_kana": "キタザト",
    "street": "１丁目１５番１号",
    "office_name": "北里大学　医学部",
    "office_name_kana": "キタサトダイガク イガクブ"
  },
  "0375": {
    "zip_code": "2520375",
    "prefecture": "神奈川県",
    "prefecture_kana": "カナガワケン",
    "prefecture_code": 14,
    "city": "相模原市南区",
    "city_kana": "サガミハラシミナミク",
    "town": "北里",
    "town_kana": "キタザト",
    "street": "１丁目１５番１号",
    "office_name": "北里大学病院",
    "office_name_kana": "キタサトダイガクビヨウイン"
  },
  "0377": {
    "zip_code": "2520377",
    "prefecture": "神奈川県",
    "prefecture_kana": "カナガワケン",
    "prefecture_code": 14,
    "city": "相模原市南区",
    "city_kana": "サガミハラシミナミク",
    "town": "相模大野",
    "town_kana": "サガミオオノ",
    "street": "５丁目３１番１号南区合同庁舎内",
    "office_name": "相模原市　南区役所",
    "office_name_kana": "サガミハラシ ミナミクヤクシヨ"
  },
  "0378": {
    "zip_code": "2520378",
    "prefecture": "神奈川県",
    "prefecture_kana": "カナガワケン",
    "prefecture_code": 14,
    "city": "相模原市南区",
    "city_kana": "サガミハラシミナミク",
    "town": "新戸",
    "town_kana": "シンド",
    "street": "２９５８番地",
    "office_name": "陸上自衛隊　座間駐屯地",
    "office_name_kana": "リクジヨウジエイタイ ザマチユウトンチ"
  },
  "0380": {
    "zip_code": "2520380",
    "prefecture": "神奈川県",
    "prefecture_kana": "カナガワケン",
    "prefecture_code": 14,
    "city": "相模原市南区",
    "city_kana": "サガミハラシミナミク",
    "town": "麻溝台",
    "town_kana": "アサミゾダイ",
    "street": "２丁目１−１",
    "office_name": "北里大学東病院",
    "office_name_kana": "キタサトダイガクヒガシビヨウイン"
  },
  "0381": {
    "zip_code": "2520381",
    "prefecture": "神奈川県",
    "prefecture_kana": "カナガワケン",
    "prefecture_code": 14,
    "city": "相模原市南区",
    "city_kana": "サガミハラシミナミク",
    "town": "相模大野",
    "town_kana": "サガミオオノ",
    "street": "６丁目３−１",
    "office_name": "相模原県税事務所",
    "office_name_kana": "サガミハラケンゼイジムシヨ"
  },
  "0383": {
    "zip_code": "2520383",
    "prefecture": "神奈川県",
    "prefecture_kana": "カナガワケン",
    "prefecture_code": 14,
    "city": "相模原市南区",
    "city_kana": "サガミハラシミナミク",
    "town": "文京",
    "town_kana": "ブンキョウ",
    "street": "２丁目１−１",
    "office_name": "学校法人　相模女子大学",
    "office_name_kana": "ガツコウホウジン サガミジヨシダイガク"
  },
  "0385": {
    "zip_code": "2520385",
    "prefecture": "神奈川県",
    "prefecture_kana": "カナガワケン",
    "prefecture_code": 14,
    "city": "相模原市南区",
    "city_kana": "サガミハラシミナミク",
    "town": "上鶴間",
    "town_kana": "カミツルマ",
    "street": "７丁目９−１",
    "office_name": "東芝林間病院",
    "office_name_kana": "トウシバリンカンビヨウイン"
  },
  "0386": {
    "zip_code": "2520386",
    "prefecture": "神奈川県",
    "prefecture_kana": "カナガワケン",
    "prefecture_code": 14,
    "city": "相模原市南区",
    "city_kana": "サガミハラシミナミク",
    "town": "西大沼",
    "town_kana": "ニシオオヌマ",
    "street": "５丁目４番２０号",
    "office_name": "特別養護老人ホーム　グレープの里",
    "office_name_kana": "トクベツヨウゴロウジンホ-ム グレ-プノサト"
  },
  "0388": {
    "zip_code": "2520388",
    "prefecture": "神奈川県",
    "prefecture_kana": "カナガワケン",
    "prefecture_code": 14,
    "city": "相模原市南区",
    "city_kana": "サガミハラシミナミク",
    "town": "相模大野",
    "town_kana": "サガミオオノ",
    "street": "６丁目６−６",
    "office_name": "相模原年金事務所",
    "office_name_kana": "サガミハラネンキンジムシヨ"
  },
  "0392": {
    "zip_code": "2520392",
    "prefecture": "神奈川県",
    "prefecture_kana": "カナガワケン",
    "prefecture_code": 14,
    "city": "相模原市南区",
    "city_kana": "サガミハラシミナミク",
    "town": "桜台",
    "town_kana": "サクラダイ",
    "street": "１８−１",
    "office_name": "独立行政法人　国立病院機構　相模原病院",
    "office_name_kana": "ドクリツギヨウセイホウジン コクリツビヨウインキコウ サガミハラビヨウイン"
  },
  "0395": {
    "zip_code": "2520395",
    "prefecture": "神奈川県",
    "prefecture_kana": "カナガワケン",
    "prefecture_code": 14,
    "city": "相模原市南区",
    "city_kana": "サガミハラシミナミク",
    "town": "相南",
    "town_kana": "ソウナン",
    "street": "３丁目３３−１",
    "office_name": "東海大学付属相模高等学校・中等部",
    "office_name_kana": "トウカイダイガクフゾクサガミコウトウガツコウ・チユウトウブ"
  },
  "0398": {
    "zip_code": "2520398",
    "prefecture": "神奈川県",
    "prefecture_kana": "カナガワケン",
    "prefecture_code": 14,
    "city": "相模原市南区",
    "city_kana": "サガミハラシミナミク",
    "town": "上鶴間本町",
    "town_kana": "カミツルマホンチョウ",
    "street": "９−５０−４５２Ｆ",
    "office_name": "株式会社　家具の大正堂　本部",
    "office_name_kana": "カブシキガイシヤ カグノタイシヨウドウ ホンブ"
  },
  "0801": {
    "zip_code": "2520801",
    "prefecture": "神奈川県",
    "prefecture_kana": "カナガワケン",
    "prefecture_code": 14,
    "city": "藤沢市",
    "city_kana": "フジサワシ",
    "town": "長後",
    "town_kana": "チョウゴ",
    "street": null,
    "office_name": null,
    "office_name_kana": null
  },
  "0802": {
    "zip_code": "2520802",
    "prefecture": "神奈川県",
    "prefecture_kana": "カナガワケン",
    "prefecture_code": 14,
    "city": "藤沢市",
    "city_kana": "フジサワシ",
    "town": "高倉",
    "town_kana": "タカクラ",
    "street": null,
    "office_name": null,
    "office_name_kana": null
  },
  "0803": {
    "zip_code": "2520803",
    "prefecture": "神奈川県",
    "prefecture_kana": "カナガワケン",
    "prefecture_code": 14,
    "city": "藤沢市",
    "city_kana": "フジサワシ",
    "town": "今田",
    "town_kana": "イマダ",
    "street": null,
    "office_name": null,
    "office_name_kana": null
  },
  "0804": {
    "zip_code": "2520804",
    "prefecture": "神奈川県",
    "prefecture_kana": "カナガワケン",
    "prefecture_code": 14,
    "city": "藤沢市",
    "city_kana": "フジサワシ",
    "town": "湘南台",
    "town_kana": "ショウナンダイ",
    "street": null,
    "office_name": null,
    "office_name_kana": null
  },
  "0805": {
    "zip_code": "2520805",
    "prefecture": "神奈川県",
    "prefecture_kana": "カナガワケン",
    "prefecture_code": 14,
    "city": "藤沢市",
    "city_kana": "フジサワシ",
    "town": "円行",
    "town_kana": "エンギョウ",
    "street": null,
    "office_name": null,
    "office_name_kana": null
  },
  "0806": {
    "zip_code": "2520806",
    "prefecture": "神奈川県",
    "prefecture_kana": "カナガワケン",
    "prefecture_code": 14,
    "city": "藤沢市",
    "city_kana": "フジサワシ",
    "town": "土棚",
    "town_kana": "ツチダナ",
    "street": null,
    "office_name": null,
    "office_name_kana": null
  },
  "0807": {
    "zip_code": "2520807",
    "prefecture": "神奈川県",
    "prefecture_kana": "カナガワケン",
    "prefecture_code": 14,
    "city": "藤沢市",
    "city_kana": "フジサワシ",
    "town": "下土棚",
    "town_kana": "シモツチダナ",
    "street": null,
    "office_name": null,
    "office_name_kana": null
  },
  "0811": {
    "zip_code": "2520811",
    "prefecture": "神奈川県",
    "prefecture_kana": "カナガワケン",
    "prefecture_code": 14,
    "city": "藤沢市",
    "city_kana": "フジサワシ",
    "town": "桐原町",
    "town_kana": "キリハラチョウ",
    "street": null,
    "office_name": null,
    "office_name_kana": null
  },
  "0812": {
    "zip_code": "2520812",
    "prefecture": "神奈川県",
    "prefecture_kana": "カナガワケン",
    "prefecture_code": 14,
    "city": "藤沢市",
    "city_kana": "フジサワシ",
    "town": "西俣野",
    "town_kana": "ニシマタノ",
    "street": null,
    "office_name": null,
    "office_name_kana": null
  },
  "0813": {
    "zip_code": "2520813",
    "prefecture": "神奈川県",
    "prefecture_kana": "カナガワケン",
    "prefecture_code": 14,
    "city": "藤沢市",
    "city_kana": "フジサワシ",
    "town": "亀井野",
    "town_kana": "カメイノ",
    "street": null,
    "office_name": null,
    "office_name_kana": null
  },
  "0814": {
    "zip_code": "2520814",
    "prefecture": "神奈川県",
    "prefecture_kana": "カナガワケン",
    "prefecture_code": 14,
    "city": "藤沢市",
    "city_kana": "フジサワシ",
    "town": "天神町",
    "town_kana": "テンジンチョウ",
    "street": null,
    "office_name": null,
    "office_name_kana": null
  },
  "0815": {
    "zip_code": "2520815",
    "prefecture": "神奈川県",
    "prefecture_kana": "カナガワケン",
    "prefecture_code": 14,
    "city": "藤沢市",
    "city_kana": "フジサワシ",
    "town": "石川",
    "town_kana": "イシカワ",
    "street": null,
    "office_name": null,
    "office_name_kana": null
  },
  "0816": {
    "zip_code": "2520816",
    "prefecture": "神奈川県",
    "prefecture_kana": "カナガワケン",
    "prefecture_code": 14,
    "city": "藤沢市",
    "city_kana": "フジサワシ",
    "town": "遠藤",
    "town_kana": "エンドウ",
    "street": null,
    "office_name": null,
    "office_name_kana": null
  },
  "0821": {
    "zip_code": "2520821",
    "prefecture": "神奈川県",
    "prefecture_kana": "カナガワケン",
    "prefecture_code": 14,
    "city": "藤沢市",
    "city_kana": "フジサワシ",
    "town": "用田",
    "town_kana": "ヨウダ",
    "street": null,
    "office_name": null,
    "office_name_kana": null
  },
  "0822": {
    "zip_code": "2520822",
    "prefecture": "神奈川県",
    "prefecture_kana": "カナガワケン",
    "prefecture_code": 14,
    "city": "藤沢市",
    "city_kana": "フジサワシ",
    "town": "葛原",
    "town_kana": "クズハラ",
    "street": null,
    "office_name": null,
    "office_name_kana": null
  },
  "0823": {
    "zip_code": "2520823",
    "prefecture": "神奈川県",
    "prefecture_kana": "カナガワケン",
    "prefecture_code": 14,
    "city": "藤沢市",
    "city_kana": "フジサワシ",
    "town": "菖蒲沢",
    "town_kana": "ショウブサワ",
    "street": null,
    "office_name": null,
    "office_name_kana": null
  },
  "0824": {
    "zip_code": "2520824",
    "prefecture": "神奈川県",
    "prefecture_kana": "カナガワケン",
    "prefecture_code": 14,
    "city": "藤沢市",
    "city_kana": "フジサワシ",
    "town": "打戻",
    "town_kana": "ウチモドリ",
    "street": null,
    "office_name": null,
    "office_name_kana": null
  },
  "0825": {
    "zip_code": "2520825",
    "prefecture": "神奈川県",
    "prefecture_kana": "カナガワケン",
    "prefecture_code": 14,
    "city": "藤沢市",
    "city_kana": "フジサワシ",
    "town": "獺郷",
    "town_kana": "オソゴウ",
    "street": null,
    "office_name": null,
    "office_name_kana": null
  },
  "0826": {
    "zip_code": "2520826",
    "prefecture": "神奈川県",
    "prefecture_kana": "カナガワケン",
    "prefecture_code": 14,
    "city": "藤沢市",
    "city_kana": "フジサワシ",
    "town": "宮原",
    "town_kana": "ミヤバラ",
    "street": null,
    "office_name": null,
    "office_name_kana": null
  },
  "0880": {
    "zip_code": "2520880",
    "prefecture": "神奈川県",
    "prefecture_kana": "カナガワケン",
    "prefecture_code": 14,
    "city": "藤沢市",
    "city_kana": "フジサワシ",
    "town": "亀井野",
    "town_kana": "カメイノ",
    "street": "１８６６",
    "office_name": "日本大学　生物資源科学部　湘南校舎",
    "office_name_kana": "ニホンダイガク セイブツシゲンカガクブ シヨウナンコウシヤ"
  },
  "0881": {
    "zip_code": "2520881",
    "prefecture": "神奈川県",
    "prefecture_kana": "カナガワケン",
    "prefecture_code": 14,
    "city": "藤沢市",
    "city_kana": "フジサワシ",
    "town": "土棚",
    "town_kana": "ツチダナ",
    "street": "８",
    "office_name": "いすゞ自動車　（株）　藤沢工場",
    "office_name_kana": "イスズジドウシヤ (カブ) フジサワコウジヨウ"
  },
  "0882": {
    "zip_code": "2520882",
    "prefecture": "神奈川県",
    "prefecture_kana": "カナガワケン",
    "prefecture_code": 14,
    "city": "藤沢市",
    "city_kana": "フジサワシ",
    "town": "遠藤",
    "town_kana": "エンドウ",
    "street": "５３２２",
    "office_name": "慶應義塾湘南藤沢事務室",
    "office_name_kana": "ケイオウギジユクシヨウナンフジサワジムシツ"
  },
  "0883": {
    "zip_code": "2520883",
    "prefecture": "神奈川県",
    "prefecture_kana": "カナガワケン",
    "prefecture_code": 14,
    "city": "藤沢市",
    "city_kana": "フジサワシ",
    "town": "遠藤",
    "town_kana": "エンドウ",
    "street": "４４１１",
    "office_name": "慶應義塾大学　看護医療学部",
    "office_name_kana": "ケイオウギジユクダイガク カンゴイリヨウガクブ"
  },
  "0885": {
    "zip_code": "2520885",
    "prefecture": "神奈川県",
    "prefecture_kana": "カナガワケン",
    "prefecture_code": 14,
    "city": "藤沢市",
    "city_kana": "フジサワシ",
    "town": "亀井野",
    "town_kana": "カメイノ",
    "street": "１８６６",
    "office_name": "日本大学藤沢高等学校・日本大学藤沢中学校",
    "office_name_kana": "ニホンダイガクフジサワコウトウガツコウ・ニホンダイガクフジサワチユウガツコウ"
  },
  "0886": {
    "zip_code": "2520886",
    "prefecture": "神奈川県",
    "prefecture_kana": "カナガワケン",
    "prefecture_code": 14,
    "city": "藤沢市",
    "city_kana": "フジサワシ",
    "town": "獺郷",
    "town_kana": "オソゴウ",
    "street": "１００８−１",
    "office_name": "社会福祉法人　光友会",
    "office_name_kana": "シヤカイフクシホウジン コウユウカイ"
  },
  "0888": {
    "zip_code": "2520888",
    "prefecture": "神奈川県",
    "prefecture_kana": "カナガワケン",
    "prefecture_code": 14,
    "city": "藤沢市",
    "city_kana": "フジサワシ",
    "town": "桐原町",
    "town_kana": "キリハラチョウ",
    "street": "１番地",
    "office_name": "株式会社　ＨＧＳＴジャパン",
    "office_name_kana": "カブシキガイシヤ エツチジ-エステイジヤパン"
  },
  "1100": {
    "zip_code": "2521100",
    "prefecture": "神奈川県",
    "prefecture_kana": "カナガワケン",
    "prefecture_code": 14,
    "city": "綾瀬市",
    "city_kana": "アヤセシ",
    "town": "",
    "town_kana": "",
    "street": null,
    "office_name": null,
    "office_name_kana": null
  },
  "1101": {
    "zip_code": "2521101",
    "prefecture": "神奈川県",
    "prefecture_kana": "カナガワケン",
    "prefecture_code": 14,
    "city": "綾瀬市",
    "city_kana": "アヤセシ",
    "town": "厚木航空基地",
    "town_kana": "アツギコウクウキチ",
    "street": null,
    "office_name": null,
    "office_name_kana": null
  },
  "1102": {
    "zip_code": "2521102",
    "prefecture": "神奈川県",
    "prefecture_kana": "カナガワケン",
    "prefecture_code": 14,
    "city": "綾瀬市",
    "city_kana": "アヤセシ",
    "town": "本蓼川",
    "town_kana": "ホンタテカワ",
    "street": null,
    "office_name": null,
    "office_name_kana": null
  },
  "1103": {
    "zip_code": "2521103",
    "prefecture": "神奈川県",
    "prefecture_kana": "カナガワケン",
    "prefecture_code": 14,
    "city": "綾瀬市",
    "city_kana": "アヤセシ",
    "town": "深谷",
    "town_kana": "フカヤ",
    "street": null,
    "office_name": null,
    "office_name_kana": null
  },
  "1104": {
    "zip_code": "2521104",
    "prefecture": "神奈川県",
    "prefecture_kana": "カナガワケン",
    "prefecture_code": 14,
    "city": "綾瀬市",
    "city_kana": "アヤセシ",
    "town": "大上",
    "town_kana": "オオガミ",
    "street": null,
    "office_name": null,
    "office_name_kana": null
  },
  "1105": {
    "zip_code": "2521105",
    "prefecture": "神奈川県",
    "prefecture_kana": "カナガワケン",
    "prefecture_code": 14,
    "city": "綾瀬市",
    "city_kana": "アヤセシ",
    "town": "蓼川",
    "town_kana": "タテカワ",
    "street": null,
    "office_name": null,
    "office_name_kana": null
  },
  "1106": {
    "zip_code": "2521106",
    "prefecture": "神奈川県",
    "prefecture_kana": "カナガワケン",
    "prefecture_code": 14,
    "city": "綾瀬市",
    "city_kana": "アヤセシ",
    "town": "深谷南",
    "town_kana": "フカヤミナミ",
    "street": null,
    "office_name": null,
    "office_name_kana": null
  },
  "1107": {
    "zip_code": "2521107",
    "prefecture": "神奈川県",
    "prefecture_kana": "カナガワケン",
    "prefecture_code": 14,
    "city": "綾瀬市",
    "city_kana": "アヤセシ",
    "town": "深谷中",
    "town_kana": "フカヤナカ",
    "street": null,
    "office_name": null,
    "office_name_kana": null
  },
  "1108": {
    "zip_code": "2521108",
    "prefecture": "神奈川県",
    "prefecture_kana": "カナガワケン",
    "prefecture_code": 14,
    "city": "綾瀬市",
    "city_kana": "アヤセシ",
    "town": "深谷上",
    "town_kana": "フカヤカミ",
    "street": null,
    "office_name": null,
    "office_name_kana": null
  },
  "1111": {
    "zip_code": "2521111",
    "prefecture": "神奈川県",
    "prefecture_kana": "カナガワケン",
    "prefecture_code": 14,
    "city": "綾瀬市",
    "city_kana": "アヤセシ",
    "town": "上土棚北",
    "town_kana": "カミツチダナキタ",
    "street": null,
    "office_name": null,
    "office_name_kana": null
  },
  "1112": {
    "zip_code": "2521112",
    "prefecture": "神奈川県",
    "prefecture_kana": "カナガワケン",
    "prefecture_code": 14,
    "city": "綾瀬市",
    "city_kana": "アヤセシ",
    "town": "上土棚",
    "town_kana": "カミツチダナ",
    "street": null,
    "office_name": null,
    "office_name_kana": null
  },
  "1113": {
    "zip_code": "2521113",
    "prefecture": "神奈川県",
    "prefecture_kana": "カナガワケン",
    "prefecture_code": 14,
    "city": "綾瀬市",
    "city_kana": "アヤセシ",
    "town": "上土棚中",
    "town_kana": "カミツチダナナカ",
    "street": null,
    "office_name": null,
    "office_name_kana": null
  },
  "1114": {
    "zip_code": "2521114",
    "prefecture": "神奈川県",
    "prefecture_kana": "カナガワケン",
    "prefecture_code": 14,
    "city": "綾瀬市",
    "city_kana": "アヤセシ",
    "town": "上土棚南",
    "town_kana": "カミツチダナミナミ",
    "street": null,
    "office_name": null,
    "office_name_kana": null
  },
  "1115": {
    "zip_code": "2521115",
    "prefecture": "神奈川県",
    "prefecture_kana": "カナガワケン",
    "prefecture_code": 14,
    "city": "綾瀬市",
    "city_kana": "アヤセシ",
    "town": "落合南",
    "town_kana": "オチアイミナミ",
    "street": null,
    "office_name": null,
    "office_name_kana": null
  },
  "1116": {
    "zip_code": "2521116",
    "prefecture": "神奈川県",
    "prefecture_kana": "カナガワケン",
    "prefecture_code": 14,
    "city": "綾瀬市",
    "city_kana": "アヤセシ",
    "town": "落合北",
    "town_kana": "オチアイキタ",
    "street": null,
    "office_name": null,
    "office_name_kana": null
  },
  "1121": {
    "zip_code": "2521121",
    "prefecture": "神奈川県",
    "prefecture_kana": "カナガワケン",
    "prefecture_code": 14,
    "city": "綾瀬市",
    "city_kana": "アヤセシ",
    "town": "小園",
    "town_kana": "コゾノ",
    "street": null,
    "office_name": null,
    "office_name_kana": null
  },
  "1122": {
    "zip_code": "2521122",
    "prefecture": "神奈川県",
    "prefecture_kana": "カナガワケン",
    "prefecture_code": 14,
    "city": "綾瀬市",
    "city_kana": "アヤセシ",
    "town": "小園南",
    "town_kana": "コゾノミナミ",
    "street": null,
    "office_name": null,
    "office_name_kana": null
  },
  "1123": {
    "zip_code": "2521123",
    "prefecture": "神奈川県",
    "prefecture_kana": "カナガワケン",
    "prefecture_code": 14,
    "city": "綾瀬市",
    "city_kana": "アヤセシ",
    "town": "早川",
    "town_kana": "ハヤカワ",
    "street": null,
    "office_name": null,
    "office_name_kana": null
  },
  "1124": {
    "zip_code": "2521124",
    "prefecture": "神奈川県",
    "prefecture_kana": "カナガワケン",
    "prefecture_code": 14,
    "city": "綾瀬市",
    "city_kana": "アヤセシ",
    "town": "吉岡",
    "town_kana": "ヨシオカ",
    "street": null,
    "office_name": null,
    "office_name_kana": null
  },
  "1125": {
    "zip_code": "2521125",
    "prefecture": "神奈川県",
    "prefecture_kana": "カナガワケン",
    "prefecture_code": 14,
    "city": "綾瀬市",
    "city_kana": "アヤセシ",
    "town": "吉岡東",
    "town_kana": "ヨシオカヒガシ",
    "street": null,
    "office_name": null,
    "office_name_kana": null
  },
  "1126": {
    "zip_code": "2521126",
    "prefecture": "神奈川県",
    "prefecture_kana": "カナガワケン",
    "prefecture_code": 14,
    "city": "綾瀬市",
    "city_kana": "アヤセシ",
    "town": "綾西",
    "town_kana": "リョウセイ",
    "street": null,
    "office_name": null,
    "office_name_kana": null
  },
  "1127": {
    "zip_code": "2521127",
    "prefecture": "神奈川県",
    "prefecture_kana": "カナガワケン",
    "prefecture_code": 14,
    "city": "綾瀬市",
    "city_kana": "アヤセシ",
    "town": "早川城山",
    "town_kana": "ハヤカワシロヤマ",
    "street": null,
    "office_name": null,
    "office_name_kana": null
  },
  "1131": {
    "zip_code": "2521131",
    "prefecture": "神奈川県",
    "prefecture_kana": "カナガワケン",
    "prefecture_code": 14,
    "city": "綾瀬市",
    "city_kana": "アヤセシ",
    "town": "寺尾北",
    "town_kana": "テラオキタ",
    "street": null,
    "office_name": null,
    "office_name_kana": null
  },
  "1132": {
    "zip_code": "2521132",
    "prefecture": "神奈川県",
    "prefecture_kana": "カナガワケン",
    "prefecture_code": 14,
    "city": "綾瀬市",
    "city_kana": "アヤセシ",
    "town": "寺尾中",
    "town_kana": "テラオナカ",
    "street": null,
    "office_name": null,
    "office_name_kana": null
  },
  "1133": {
    "zip_code": "2521133",
    "prefecture": "神奈川県",
    "prefecture_kana": "カナガワケン",
    "prefecture_code": 14,
    "city": "綾瀬市",
    "city_kana": "アヤセシ",
    "town": "寺尾本町",
    "town_kana": "テラオホンチョウ",
    "street": null,
    "office_name": null,
    "office_name_kana": null
  },
  "1134": {
    "zip_code": "2521134",
    "prefecture": "神奈川県",
    "prefecture_kana": "カナガワケン",
    "prefecture_code": 14,
    "city": "綾瀬市",
    "city_kana": "アヤセシ",
    "town": "寺尾南",
    "town_kana": "テラオミナミ",
    "street": null,
    "office_name": null,
    "office_name_kana": null
  },
  "1135": {
    "zip_code": "2521135",
    "prefecture": "神奈川県",
    "prefecture_kana": "カナガワケン",
    "prefecture_code": 14,
    "city": "綾瀬市",
    "city_kana": "アヤセシ",
    "town": "寺尾釜田",
    "town_kana": "テラオカマタ",
    "street": null,
    "office_name": null,
    "office_name_kana": null
  },
  "1136": {
    "zip_code": "2521136",
    "prefecture": "神奈川県",
    "prefecture_kana": "カナガワケン",
    "prefecture_code": 14,
    "city": "綾瀬市",
    "city_kana": "アヤセシ",
    "town": "寺尾西",
    "town_kana": "テラオニシ",
    "street": null,
    "office_name": null,
    "office_name_kana": null
  },
  "1137": {
    "zip_code": "2521137",
    "prefecture": "神奈川県",
    "prefecture_kana": "カナガワケン",
    "prefecture_code": 14,
    "city": "綾瀬市",
    "city_kana": "アヤセシ",
    "town": "寺尾台",
    "town_kana": "テラオダイ",
    "street": null,
    "office_name": null,
    "office_name_kana": null
  },
  "1192": {
    "zip_code": "2521192",
    "prefecture": "神奈川県",
    "prefecture_kana": "カナガワケン",
    "prefecture_code": 14,
    "city": "綾瀬市",
    "city_kana": "アヤセシ",
    "town": "早川",
    "town_kana": "ハヤカワ",
    "street": "５５０",
    "office_name": "綾瀬市役所",
    "office_name_kana": "アヤセシヤクシヨ"
  },
  "1193": {
    "zip_code": "2521193",
    "prefecture": "神奈川県",
    "prefecture_kana": "カナガワケン",
    "prefecture_code": 14,
    "city": "綾瀬市",
    "city_kana": "アヤセシ",
    "town": "早川",
    "town_kana": "ハヤカワ",
    "street": "２７４３−１",
    "office_name": "財団法人　相模中央化学研究所",
    "office_name_kana": "ザイダンホウジン サガミチユウオウカガクケンキユウジヨ"
  },
  "1195": {
    "zip_code": "2521195",
    "prefecture": "神奈川県",
    "prefecture_kana": "カナガワケン",
    "prefecture_code": 14,
    "city": "綾瀬市",
    "city_kana": "アヤセシ",
    "town": "深谷中",
    "town_kana": "フカヤナカ",
    "street": "８丁目８番６号",
    "office_name": "株式会社　ガステック",
    "office_name_kana": "カブシキガイシヤ ガステツク"
  },
  "5152": {
    "zip_code": "2525152",
    "prefecture": "神奈川県",
    "prefecture_kana": "カナガワケン",
    "prefecture_code": 14,
    "city": "相模原市緑区",
    "city_kana": "サガミハラシミドリク",
    "town": "小渕",
    "town_kana": "オブチ",
    "street": "２０００番地",
    "office_name": "相模原市　藤野総合事務所",
    "office_name_kana": "サガミハラシ フジノソウゴウジムシヨ"
  },
  "5162": {
    "zip_code": "2525162",
    "prefecture": "神奈川県",
    "prefecture_kana": "カナガワケン",
    "prefecture_code": 14,
    "city": "相模原市緑区",
    "city_kana": "サガミハラシミドリク",
    "town": "与瀬",
    "town_kana": "ヨセ",
    "street": "８９６番地",
    "office_name": "相模原市　相模湖総合事務所",
    "office_name_kana": "サガミハラシ サガミコソウゴウジムシヨ"
  },
  "5172": {
    "zip_code": "2525172",
    "prefecture": "神奈川県",
    "prefecture_kana": "カナガワケン",
    "prefecture_code": 14,
    "city": "相模原市緑区",
    "city_kana": "サガミハラシミドリク",
    "town": "中野",
    "town_kana": "ナカノ",
    "street": "６３３番地",
    "office_name": "相模原市　津久井総合事務所",
    "office_name_kana": "サガミハラシ ツクイソウゴウジムシヨ"
  },
  "5177": {
    "zip_code": "2525177",
    "prefecture": "神奈川県",
    "prefecture_kana": "カナガワケン",
    "prefecture_code": 14,
    "city": "相模原市緑区",
    "city_kana": "サガミハラシミドリク",
    "town": "西橋本",
    "town_kana": "ニシハシモト",
    "street": "５丁目３番２１号緑区合同庁舎内",
    "office_name": "相模原市　緑区役所",
    "office_name_kana": "サガミハラシ ミドリクヤクシヨ"
  },
  "5181": {
    "zip_code": "2525181",
    "prefecture": "神奈川県",
    "prefecture_kana": "カナガワケン",
    "prefecture_code": 14,
    "city": "相模原市緑区",
    "city_kana": "サガミハラシミドリク",
    "town": "大山町",
    "town_kana": "オオヤマチョウ",
    "street": "２−１０",
    "office_name": "アイダエンジニアリング　株式会社",
    "office_name_kana": "アイダエンジニアリング カブシキガイシヤ"
  },
  "5183": {
    "zip_code": "2525183",
    "prefecture": "神奈川県",
    "prefecture_kana": "カナガワケン",
    "prefecture_code": 14,
    "city": "相模原市緑区",
    "city_kana": "サガミハラシミドリク",
    "town": "西橋本",
    "town_kana": "ニシハシモト",
    "street": "５丁目５番１号",
    "office_name": "大和製缶　（株）　東京工場",
    "office_name_kana": "ダイワセイカン (カブ) トウキヨウコウジヨウ"
  },
  "5185": {
    "zip_code": "2525185",
    "prefecture": "神奈川県",
    "prefecture_kana": "カナガワケン",
    "prefecture_code": 14,
    "city": "相模原市緑区",
    "city_kana": "サガミハラシミドリク",
    "town": "中野",
    "town_kana": "ナカノ",
    "street": "５５０番地",
    "office_name": "津久井郡農業協同組合",
    "office_name_kana": "ツクイグンノウギヨウキヨウドウクミアイ"
  },
  "5188": {
    "zip_code": "2525188",
    "prefecture": "神奈川県",
    "prefecture_kana": "カナガワケン",
    "prefecture_code": 14,
    "city": "相模原市緑区",
    "city_kana": "サガミハラシミドリク",
    "town": "橋本",
    "town_kana": "ハシモト",
    "street": "２丁目８番１８号",
    "office_name": "相模原協同病院",
    "office_name_kana": "サガミハラキヨウドウビヨウイン"
  },
  "5189": {
    "zip_code": "2525189",
    "prefecture": "神奈川県",
    "prefecture_kana": "カナガワケン",
    "prefecture_code": 14,
    "city": "相模原市緑区",
    "city_kana": "サガミハラシミドリク",
    "town": "西橋本",
    "town_kana": "ニシハシモト",
    "street": "５丁目８−１",
    "office_name": "日本板硝子　相模原事業所",
    "office_name_kana": "ニホンイタガラス サガミハラジギヨウシヨ"
  },
  "5191": {
    "zip_code": "2525191",
    "prefecture": "神奈川県",
    "prefecture_kana": "カナガワケン",
    "prefecture_code": 14,
    "city": "相模原市緑区",
    "city_kana": "サガミハラシミドリク",
    "town": "根小屋",
    "town_kana": "ネゴヤ",
    "street": "１７５２",
    "office_name": "アイダエンジニアリング　株式会社　津久井事業所",
    "office_name_kana": "アイダエンジニアリング カブシキガイシヤ ツクイジギヨウシヨ"
  },
  "5192": {
    "zip_code": "2525192",
    "prefecture": "神奈川県",
    "prefecture_kana": "カナガワケン",
    "prefecture_code": 14,
    "city": "相模原市緑区",
    "city_kana": "サガミハラシミドリク",
    "town": "久保沢",
    "town_kana": "クボサワ",
    "street": "１丁目３番１号",
    "office_name": "相模原市　城山総合事務所",
    "office_name_kana": "サガミハラシ シロヤマソウゴウジムシヨ"
  },
  "5195": {
    "zip_code": "2525195",
    "prefecture": "神奈川県",
    "prefecture_kana": "カナガワケン",
    "prefecture_code": 14,
    "city": "相模原市緑区",
    "city_kana": "サガミハラシミドリク",
    "town": "寸沢嵐",
    "town_kana": "スワラシ",
    "street": "１０９１−１",
    "office_name": "帝京大学　薬学部",
    "office_name_kana": "テイキヨウダイガク ヤクガクブ"
  },
  "5196": {
    "zip_code": "2525196",
    "prefecture": "神奈川県",
    "prefecture_kana": "カナガワケン",
    "prefecture_code": 14,
    "city": "相模原市緑区",
    "city_kana": "サガミハラシミドリク",
    "town": "橋本台",
    "town_kana": "ハシモトダイ",
    "street": "４丁目１−１",
    "office_name": "独立行政法人　雇用・能力開発機構　職業能力開発総合大学校",
    "office_name_kana": "ドクリツギヨウセイホウジン コヨウ・ノウリヨクカイハツキコウ シヨクギヨウノウリヨクカイハツソウゴウダイガツコウ"
  },
  "5201": {
    "zip_code": "2525201",
    "prefecture": "神奈川県",
    "prefecture_kana": "カナガワケン",
    "prefecture_code": 14,
    "city": "相模原市中央区",
    "city_kana": "サガミハラシチュウオウク",
    "town": "淵野辺",
    "town_kana": "フチノベ",
    "street": "１丁目１７−７１",
    "office_name": "学校法人　麻布獣医学園",
    "office_name_kana": "ガツコウホウジン アザブジユウイガクエン"
  },
  "5210": {
    "zip_code": "2525210",
    "prefecture": "神奈川県",
    "prefecture_kana": "カナガワケン",
    "prefecture_code": 14,
    "city": "相模原市中央区",
    "city_kana": "サガミハラシチュウオウク",
    "town": "由野台",
    "town_kana": "ヨシノダイ",
    "street": "３丁目１−１",
    "office_name": "宇宙航空研究開発機構　宇宙科学研究所",
    "office_name_kana": "ウチユウコウクウケンキユウカイハツキコウ ウチユウカガクケンキユウシヨ"
  },
  "5211": {
    "zip_code": "2525211",
    "prefecture": "神奈川県",
    "prefecture_kana": "カナガワケン",
    "prefecture_code": 14,
    "city": "相模原市中央区",
    "city_kana": "サガミハラシチュウオウク",
    "town": "富士見",
    "town_kana": "フジミ",
    "street": "６丁目４−１４",
    "office_name": "相模原税務署",
    "office_name_kana": "サガミハラゼイムシヨ"
  },
  "5221": {
    "zip_code": "2525221",
    "prefecture": "神奈川県",
    "prefecture_kana": "カナガワケン",
    "prefecture_code": 14,
    "city": "相模原市中央区",
    "city_kana": "サガミハラシチュウオウク",
    "town": "宮下",
    "town_kana": "ミヤシモ",
    "street": "３丁目１４−１５",
    "office_name": "サクサ　株式会社　相模原オフィス",
    "office_name_kana": "サクサ カブシキガイシヤ サガミハラオフイス"
  },
  "5222": {
    "zip_code": "2525222",
    "prefecture": "神奈川県",
    "prefecture_kana": "カナガワケン",
    "prefecture_code": 14,
    "city": "相模原市中央区",
    "city_kana": "サガミハラシチュウオウク",
    "town": "青葉",
    "town_kana": "アオバ",
    "street": "２丁目２−１",
    "office_name": "和泉短期大学",
    "office_name_kana": "イズミタンキダイガク"
  },
  "5225": {
    "zip_code": "2525225",
    "prefecture": "神奈川県",
    "prefecture_kana": "カナガワケン",
    "prefecture_code": 14,
    "city": "相模原市中央区",
    "city_kana": "サガミハラシチュウオウク",
    "town": "小山",
    "town_kana": "オヤマ",
    "street": "３４２９",
    "office_name": "社会福祉法人　相模更正会　総合相模更正病院",
    "office_name_kana": "シヤカイフクシホウジン サガミコウセイカイ ソウゴウサガミコウセイビヨウイン"
  },
  "5233": {
    "zip_code": "2525233",
    "prefecture": "神奈川県",
    "prefecture_kana": "カナガワケン",
    "prefecture_code": 14,
    "city": "相模原市中央区",
    "city_kana": "サガミハラシチュウオウク",
    "town": "千代田",
    "town_kana": "チヨダ",
    "street": "７丁目６−１０",
    "office_name": "Ｊ：ＣＯＭ",
    "office_name_kana": "ジエイ:コム"
  },
  "5250": {
    "zip_code": "2525250",
    "prefecture": "神奈川県",
    "prefecture_kana": "カナガワケン",
    "prefecture_code": 14,
    "city": "相模原市中央区",
    "city_kana": "サガミハラシチュウオウク",
    "town": "小山",
    "town_kana": "オヤマ",
    "street": "４−１−５５",
    "office_name": "日本オクラロ　株式会社",
    "office_name_kana": "ニホンオクラロ カブシキガイシヤ"
  },
  "5252": {
    "zip_code": "2525252",
    "prefecture": "神奈川県",
    "prefecture_kana": "カナガワケン",
    "prefecture_code": 14,
    "city": "相模原市中央区",
    "city_kana": "サガミハラシチュウオウク",
    "town": "鹿沼台",
    "town_kana": "カヌマダイ",
    "street": "１丁目２−１８",
    "office_name": "株式会社　オリバーツウ・リアルエステート",
    "office_name_kana": "カブシキガイシヤ オリバ-ツウ・リアルエステ-ト"
  },
  "5255": {
    "zip_code": "2525255",
    "prefecture": "神奈川県",
    "prefecture_kana": "カナガワケン",
    "prefecture_code": 14,
    "city": "相模原市中央区",
    "city_kana": "サガミハラシチュウオウク",
    "town": "相模原",
    "town_kana": "サガミハラ",
    "street": "４丁目７−１エスプラザビル",
    "office_name": "株式会社　ウイッツコミュニティ",
    "office_name_kana": "カブシキガイシヤ ウイツツコミユニテイ"
  },
  "5258": {
    "zip_code": "2525258",
    "prefecture": "神奈川県",
    "prefecture_kana": "カナガワケン",
    "prefecture_code": 14,
    "city": "相模原市中央区",
    "city_kana": "サガミハラシチュウオウク",
    "town": "淵野辺",
    "town_kana": "フチノベ",
    "street": "５丁目１０−１",
    "office_name": "青山学院大学　相模原キャンパス",
    "office_name_kana": "アオヤマガクインダイガク サガミハラキヤンパス"
  },
  "5260": {
    "zip_code": "2525260",
    "prefecture": "神奈川県",
    "prefecture_kana": "カナガワケン",
    "prefecture_code": 14,
    "city": "相模原市中央区",
    "city_kana": "サガミハラシチュウオウク",
    "town": "清新",
    "town_kana": "セイシン",
    "street": "８−２０−１２",
    "office_name": "イトーヨーカ堂　相模原ＩＤＣ",
    "office_name_kana": "イト-ヨ-カドウ サガミハラアイデイ-シ-"
  },
  "5277": {
    "zip_code": "2525277",
    "prefecture": "神奈川県",
    "prefecture_kana": "カナガワケン",
    "prefecture_code": 14,
    "city": "相模原市中央区",
    "city_kana": "サガミハラシチュウオウク",
    "town": "中央",
    "town_kana": "チュウオウ",
    "street": "２丁目１１番１５号",
    "office_name": "相模原市役所",
    "office_name_kana": "サガミハラシヤクシヨ"
  },
  "5280": {
    "zip_code": "2525280",
    "prefecture": "神奈川県",
    "prefecture_kana": "カナガワケン",
    "prefecture_code": 14,
    "city": "相模原市中央区",
    "city_kana": "サガミハラシチュウオウク",
    "town": "小山",
    "town_kana": "オヤマ",
    "street": "４丁目１−６",
    "office_name": "株式会社　デュプロ",
    "office_name_kana": "カブシキガイシヤ デユプロ"
  },
  "5285": {
    "zip_code": "2525285",
    "prefecture": "神奈川県",
    "prefecture_kana": "カナガワケン",
    "prefecture_code": 14,
    "city": "相模原市中央区",
    "city_kana": "サガミハラシチュウオウク",
    "town": "南橋本",
    "town_kana": "ミナミハシモト",
    "street": "３−８−８",
    "office_name": "スリーエムジャパン　株式会社　相模原事業所",
    "office_name_kana": "スリ-エムジヤパン カブシキガイシヤ サガミハラジギヨウシヨ"
  },
  "5286": {
    "zip_code": "2525286",
    "prefecture": "神奈川県",
    "prefecture_kana": "カナガワケン",
    "prefecture_code": 14,
    "city": "相模原市中央区",
    "city_kana": "サガミハラシチュウオウク",
    "town": "小山",
    "town_kana": "オヤマ",
    "street": "１丁目１５番３０号",
    "office_name": "株式会社　オハラ",
    "office_name_kana": "カブシキガイシヤ オハラ"
  },
  "5288": {
    "zip_code": "2525288",
    "prefecture": "神奈川県",
    "prefecture_kana": "カナガワケン",
    "prefecture_code": 14,
    "city": "相模原市中央区",
    "city_kana": "サガミハラシチュウオウク",
    "town": "相模原",
    "town_kana": "サガミハラ",
    "street": "６丁目２０−１",
    "office_name": "株式会社　エフエムさがみ",
    "office_name_kana": "カブシキガイシヤ エフエムサガミ"
  },
  "5292": {
    "zip_code": "2525292",
    "prefecture": "神奈川県",
    "prefecture_kana": "カナガワケン",
    "prefecture_code": 14,
    "city": "相模原市中央区",
    "city_kana": "サガミハラシチュウオウク",
    "town": "田名",
    "town_kana": "タナ",
    "street": "３７００番地",
    "office_name": "キャタピラージャパン　株式会社　相模事業所",
    "office_name_kana": "キヤタピラ-ジヤパン カブシキガイシヤ サガミジギヨウシヨ"
  },
  "5293": {
    "zip_code": "2525293",
    "prefecture": "神奈川県",
    "prefecture_kana": "カナガワケン",
    "prefecture_code": 14,
    "city": "相模原市中央区",
    "city_kana": "サガミハラシチュウオウク",
    "town": "田名",
    "town_kana": "タナ",
    "street": "３０００番地",
    "office_name": "三菱重工業　株式会社　汎用機・特車事業本部",
    "office_name_kana": "ミツビシジユウコウギヨウ カブシキガイシヤ ハンヨウキ・トクシヤジギヨウホンブ"
  },
  "5294": {
    "zip_code": "2525294",
    "prefecture": "神奈川県",
    "prefecture_kana": "カナガワケン",
    "prefecture_code": 14,
    "city": "相模原市中央区",
    "city_kana": "サガミハラシチュウオウク",
    "town": "横山",
    "town_kana": "ヨコヤマ",
    "street": "１−１−１",
    "office_name": "株式会社　ノジマ　相模原本店",
    "office_name_kana": "カブシキガイシヤ ノジマ サガミハラホンテン"
  },
  "5295": {
    "zip_code": "2525295",
    "prefecture": "神奈川県",
    "prefecture_kana": "カナガワケン",
    "prefecture_code": 14,
    "city": "相模原市中央区",
    "city_kana": "サガミハラシチュウオウク",
    "town": "宮下",
    "town_kana": "ミヤシモ",
    "street": "１丁目１番５７号",
    "office_name": "三菱電機　株式会社　半導体・デバイス業務統括部　相模事務所",
    "office_name_kana": "ミツビシデンキ カブシキガイシヤ ハンドウタイ・デバイスギヨウムトウカツブ サガミジムシヨ"
  },
  "5297": {
    "zip_code": "2525297",
    "prefecture": "神奈川県",
    "prefecture_kana": "カナガワケン",
    "prefecture_code": 14,
    "city": "相模原市中央区",
    "city_kana": "サガミハラシチュウオウク",
    "town": "南橋本",
    "town_kana": "ミナミハシモト",
    "street": "３丁目１番３５号",
    "office_name": "マイクロン橋本技術センター",
    "office_name_kana": "マイクロンハシモトギジユツセンタ-"
  },
  "5298": {
    "zip_code": "2525298",
    "prefecture": "神奈川県",
    "prefecture_kana": "カナガワケン",
    "prefecture_code": 14,
    "city": "相模原市中央区",
    "city_kana": "サガミハラシチュウオウク",
    "town": "下九沢",
    "town_kana": "シモクザワ",
    "street": "１１２０番地",
    "office_name": "日本電気　株式会社　相模原事業場",
    "office_name_kana": "ニツポンデンキ カブシキガイシヤ サガミハラジギヨウジヨウ"
  },
  "8502": {
    "zip_code": "2528502",
    "prefecture": "神奈川県",
    "prefecture_kana": "カナガワケン",
    "prefecture_code": 14,
    "city": "座間市",
    "city_kana": "ザマシ",
    "town": "広野台",
    "town_kana": "ヒロノダイ",
    "street": "２丁目１０−１",
    "office_name": "日産自動車　株式会社　座間事業所",
    "office_name_kana": "ニツサンジドウシヤ カブシキガイシヤ ザマジギヨウシヨ"
  },
  "8511": {
    "zip_code": "2528511",
    "prefecture": "神奈川県",
    "prefecture_kana": "カナガワケン",
    "prefecture_code": 14,
    "city": "座間市",
    "city_kana": "ザマシ",
    "town": "座間",
    "town_kana": "ザマ",
    "street": "無番地",
    "office_name": "キャンプ座間",
    "office_name_kana": "キヤンプザマ"
  },
  "8522": {
    "zip_code": "2528522",
    "prefecture": "神奈川県",
    "prefecture_kana": "カナガワケン",
    "prefecture_code": 14,
    "city": "座間市",
    "city_kana": "ザマシ",
    "town": "広野台",
    "town_kana": "ヒロノダイ",
    "street": "２丁目１０番１１号",
    "office_name": "株式会社　Ｐａｌｔａｃ　横浜支社",
    "office_name_kana": "カブシキガイシヤ パルタツク ヨコハマシシヤ"
  },
  "8538": {
    "zip_code": "2528538",
    "prefecture": "神奈川県",
    "prefecture_kana": "カナガワケン",
    "prefecture_code": 14,
    "city": "相模原市南区",
    "city_kana": "サガミハラシミナミク",
    "town": "麻溝台",
    "town_kana": "アサミゾダイ",
    "street": "１９００",
    "office_name": "女子美術大学",
    "office_name_kana": "ジヨシビジユツダイガク"
  },
  "8539": {
    "zip_code": "2528539",
    "prefecture": "神奈川県",
    "prefecture_kana": "カナガワケン",
    "prefecture_code": 14,
    "city": "座間市",
    "city_kana": "ザマシ",
    "town": "座間",
    "town_kana": "ザマ",
    "street": "２丁目２８５９",
    "office_name": "株式会社　マルスコーポレーション",
    "office_name_kana": "カブシキガイシヤ マルスコ-ポレ-シヨン"
  },
  "8540": {
    "zip_code": "2528540",
    "prefecture": "神奈川県",
    "prefecture_kana": "カナガワケン",
    "prefecture_code": 14,
    "city": "座間市",
    "city_kana": "ザマシ",
    "town": "入谷",
    "town_kana": "イリヤ",
    "street": "３丁目１７０７−１６星野ハイツＣ１０２号",
    "office_name": "ＮＰＯ法人　神奈川県視覚障害者福祉協会",
    "office_name_kana": "エヌピ-オ-ホウジン カナガワケンシカクシヨウガイシヤフクシキヨウカイ"
  },
  "8550": {
    "zip_code": "2528550",
    "prefecture": "神奈川県",
    "prefecture_kana": "カナガワケン",
    "prefecture_code": 14,
    "city": "座間市",
    "city_kana": "ザマシ",
    "town": "相武台",
    "town_kana": "ソウブダイ",
    "street": "２丁目２６８",
    "office_name": "東京コスモス電機　株式会社",
    "office_name_kana": "トウキヨウコスモスデンキ カブシキガイシヤ"
  },
  "8558": {
    "zip_code": "2528558",
    "prefecture": "神奈川県",
    "prefecture_kana": "カナガワケン",
    "prefecture_code": 14,
    "city": "座間市",
    "city_kana": "ザマシ",
    "town": "ひばりが丘",
    "town_kana": "ヒバリガオカ",
    "street": "４丁目２１−１",
    "office_name": "株式会社　ユーテムプレシジョン",
    "office_name_kana": "カブシキガイシヤ ユ-テムプレシジヨン"
  },
  "8560": {
    "zip_code": "2528560",
    "prefecture": "神奈川県",
    "prefecture_kana": "カナガワケン",
    "prefecture_code": 14,
    "city": "座間市",
    "city_kana": "ザマシ",
    "town": "広野台",
    "town_kana": "ヒロノダイ",
    "street": "２−１０−８プロロジスパーク座間Ⅱ３Ｆ",
    "office_name": "マガシーク物流センターｍａｇａｃｏ",
    "office_name_kana": "マガシ-クブツリユウセンタ-マガコ"
  },
  "8566": {
    "zip_code": "2528566",
    "prefecture": "神奈川県",
    "prefecture_kana": "カナガワケン",
    "prefecture_code": 14,
    "city": "座間市",
    "city_kana": "ザマシ",
    "town": "緑ケ丘",
    "town_kana": "ミドリガオカ",
    "street": "１丁目１−１",
    "office_name": "座間市役所",
    "office_name_kana": "ザマシヤクシヨ"
  },
  "8567": {
    "zip_code": "2528567",
    "prefecture": "神奈川県",
    "prefecture_kana": "カナガワケン",
    "prefecture_code": 14,
    "city": "座間市",
    "city_kana": "ザマシ",
    "town": "東原",
    "town_kana": "ヒガシハラ",
    "street": "５丁目１−１１",
    "office_name": "株式会社　シーイーシー",
    "office_name_kana": "カブシキガイシヤ シ-イ-シ-"
  },
  "8570": {
    "zip_code": "2528570",
    "prefecture": "神奈川県",
    "prefecture_kana": "カナガワケン",
    "prefecture_code": 14,
    "city": "座間市",
    "city_kana": "ザマシ",
    "town": "相武台",
    "town_kana": "ソウブダイ",
    "street": "２丁目２１５",
    "office_name": "日本電産トーソク　株式会社",
    "office_name_kana": "ニホンデンサント-ソク カブシキガイシヤ"
  },
  "8585": {
    "zip_code": "2528585",
    "prefecture": "神奈川県",
    "prefecture_kana": "カナガワケン",
    "prefecture_code": 14,
    "city": "座間市",
    "city_kana": "ザマシ",
    "town": "小松原",
    "town_kana": "コマツバラ",
    "street": "１丁目３９−７",
    "office_name": "三木プーリ　（株）　相模事業所",
    "office_name_kana": "ミキプ-リ (カブ) サガミジギヨウシヨ"
  }
}