{
  "0000": {
    "zip_code": "2540000",
    "prefecture": "神奈川県",
    "prefecture_kana": "カナガワケン",
    "prefecture_code": 14,
    "city": "平塚市",
    "city_kana": "ヒラツカシ",
    "town": "",
    "town_kana": "",
    "street": null,
    "office_name": null,
    "office_name_kana": null
  },
  "0001": {
    "zip_code": "2540001",
    "prefecture": "神奈川県",
    "prefecture_kana": "カナガワケン",
    "prefecture_code": 14,
    "city": "平塚市",
    "city_kana": "ヒラツカシ",
    "town": "大島",
    "town_kana": "オオシマ",
    "street": null,
    "office_name": null,
    "office_name_kana": null
  },
  "0002": {
    "zip_code": "2540002",
    "prefecture": "神奈川県",
    "prefecture_kana": "カナガワケン",
    "prefecture_code": 14,
    "city": "平塚市",
    "city_kana": "ヒラツカシ",
    "town": "横内",
    "town_kana": "ヨコウチ",
    "street": null,
    "office_name": null,
    "office_name_kana": null
  },
  "0003": {
    "zip_code": "2540003",
    "prefecture": "神奈川県",
    "prefecture_kana": "カナガワケン",
    "prefecture_code": 14,
    "city": "平塚市",
    "city_kana": "ヒラツカシ",
    "town": "下島",
    "town_kana": "シモジマ",
    "street": null,
    "office_name": null,
    "office_name_kana": null
  },
  "0004": {
    "zip_code": "2540004",
    "prefecture": "神奈川県",
    "prefecture_kana": "カナガワケン",
    "prefecture_code": 14,
    "city": "平塚市",
    "city_kana": "ヒラツカシ",
    "town": "小鍋島",
    "town_kana": "コナベシマ",
    "street": null,
    "office_name": null,
    "office_name_kana": null
  },
  "0005": {
    "zip_code": "2540005",
    "prefecture": "神奈川県",
    "prefecture_kana": "カナガワケン",
    "prefecture_code": 14,
    "city": "平塚市",
    "city_kana": "ヒラツカシ",
    "town": "城所",
    "town_kana": "キドコロ",
    "street": null,
    "office_name": null,
    "office_name_kana": null
  },
  "0011": {
    "zip_code": "2540011",
    "prefecture": "神奈川県",
    "prefecture_kana": "カナガワケン",
    "prefecture_code": 14,
    "city": "平塚市",
    "city_kana": "ヒラツカシ",
    "town": "吉際",
    "town_kana": "ヨシギワ",
    "street": null,
    "office_name": null,
    "office_name_kana": null
  },
  "0012": {
    "zip_code": "2540012",
    "prefecture": "神奈川県",
    "prefecture_kana": "カナガワケン",
    "prefecture_code": 14,
    "city": "平塚市",
    "city_kana": "ヒラツカシ",
    "town": "大神",
    "town_kana": "オオカミ",
    "street": null,
    "office_name": null,
    "office_name_kana": null
  },
  "0013": {
    "zip_code": "2540013",
    "prefecture": "神奈川県",
    "prefecture_kana": "カナガワケン",
    "prefecture_code": 14,
    "city": "平塚市",
    "city_kana": "ヒラツカシ",
    "town": "田村",
    "town_kana": "タムラ",
    "street": null,
    "office_name": null,
    "office_name_kana": null
  },
  "0014": {
    "zip_code": "2540014",
    "prefecture": "神奈川県",
    "prefecture_kana": "カナガワケン",
    "prefecture_code": 14,
    "city": "平塚市",
    "city_kana": "ヒラツカシ",
    "town": "四之宮",
    "town_kana": "シノミヤ",
    "street": null,
    "office_name": null,
    "office_name_kana": null
  },
  "0015": {
    "zip_code": "2540015",
    "prefecture": "神奈川県",
    "prefecture_kana": "カナガワケン",
    "prefecture_code": 14,
    "city": "平塚市",
    "city_kana": "ヒラツカシ",
    "town": "八幡",
    "town_kana": "ヤワタ",
    "street": null,
    "office_name": null,
    "office_name_kana": null
  },
  "0016": {
    "zip_code": "2540016",
    "prefecture": "神奈川県",
    "prefecture_kana": "カナガワケン",
    "prefecture_code": 14,
    "city": "平塚市",
    "city_kana": "ヒラツカシ",
    "town": "東八幡",
    "town_kana": "ヒガシヤワタ",
    "street": null,
    "office_name": null,
    "office_name_kana": null
  },
  "0018": {
    "zip_code": "2540018",
    "prefecture": "神奈川県",
    "prefecture_kana": "カナガワケン",
    "prefecture_code": 14,
    "city": "平塚市",
    "city_kana": "ヒラツカシ",
    "town": "東真土",
    "town_kana": "ヒガシシンド",
    "street": null,
    "office_name": null,
    "office_name_kana": null
  },
  "0019": {
    "zip_code": "2540019",
    "prefecture": "神奈川県",
    "prefecture_kana": "カナガワケン",
    "prefecture_code": 14,
    "city": "平塚市",
    "city_kana": "ヒラツカシ",
    "town": "西真土",
    "town_kana": "ニシシンド",
    "street": null,
    "office_name": null,
    "office_name_kana": null
  },
  "0021": {
    "zip_code": "2540021",
    "prefecture": "神奈川県",
    "prefecture_kana": "カナガワケン",
    "prefecture_code": 14,
    "city": "平塚市",
    "city_kana": "ヒラツカシ",
    "town": "長瀞",
    "town_kana": "ナガトロ",
    "street": null,
    "office_name": null,
    "office_name_kana": null
  },
  "0022": {
    "zip_code": "2540022",
    "prefecture": "神奈川県",
    "prefecture_kana": "カナガワケン",
    "prefecture_code": 14,
    "city": "平塚市",
    "city_kana": "ヒラツカシ",
    "town": "須賀",
    "town_kana": "スカ",
    "street": null,
    "office_name": null,
    "office_name_kana": null
  },
  "0023": {
    "zip_code": "2540023",
    "prefecture": "神奈川県",
    "prefecture_kana": "カナガワケン",
    "prefecture_code": 14,
    "city": "平塚市",
    "city_kana": "ヒラツカシ",
    "town": "馬入",
    "town_kana": "バニュウ",
    "street": null,
    "office_name": null,
    "office_name_kana": null
  },
  "0024": {
    "zip_code": "2540024",
    "prefecture": "神奈川県",
    "prefecture_kana": "カナガワケン",
    "prefecture_code": 14,
    "city": "平塚市",
    "city_kana": "ヒラツカシ",
    "town": "馬入本町",
    "town_kana": "バニュウホンチョウ",
    "street": null,
    "office_name": null,
    "office_name_kana": null
  },
  "0025": {
    "zip_code": "2540025",
    "prefecture": "神奈川県",
    "prefecture_kana": "カナガワケン",
    "prefecture_code": 14,
    "city": "平塚市",
    "city_kana": "ヒラツカシ",
    "town": "榎木町",
    "town_kana": "エノキチョウ",
    "street": null,
    "office_name": null,
    "office_name_kana": null
  },
  "0026": {
    "zip_code": "2540026",
    "prefecture": "神奈川県",
    "prefecture_kana": "カナガワケン",
    "prefecture_code": 14,
    "city": "平塚市",
    "city_kana": "ヒラツカシ",
    "town": "中堂",
    "town_kana": "ナカドウ",
    "street": null,
    "office_name": null,
    "office_name_kana": null
  },
  "0027": {
    "zip_code": "2540027",
    "prefecture": "神奈川県",
    "prefecture_kana": "カナガワケン",
    "prefecture_code": 14,
    "city": "平塚市",
    "city_kana": "ヒラツカシ",
    "town": "堤町",
    "town_kana": "ツツミチョウ",
    "street": null,
    "office_name": null,
    "office_name_kana": null
  },
  "0031": {
    "zip_code": "2540031",
    "prefecture": "神奈川県",
    "prefecture_kana": "カナガワケン",
    "prefecture_code": 14,
    "city": "平塚市",
    "city_kana": "ヒラツカシ",
    "town": "天沼",
    "town_kana": "アマヌマ",
    "street": null,
    "office_name": null,
    "office_name_kana": null
  },
  "0032": {
    "zip_code": "2540032",
    "prefecture": "神奈川県",
    "prefecture_kana": "カナガワケン",
    "prefecture_code": 14,
    "city": "平塚市",
    "city_kana": "ヒラツカシ",
    "town": "八千代町",
    "town_kana": "ヤチヨチョウ",
    "street": null,
    "office_name": null,
    "office_name_kana": null
  },
  "0033": {
    "zip_code": "2540033",
    "prefecture": "神奈川県",
    "prefecture_kana": "カナガワケン",
    "prefecture_code": 14,
    "city": "平塚市",
    "city_kana": "ヒラツカシ",
    "town": "老松町",
    "town_kana": "オイマツチョウ",
    "street": null,
    "office_name": null,
    "office_name_kana": null
  },
  "0034": {
    "zip_code": "2540034",
    "prefecture": "神奈川県",
    "prefecture_kana": "カナガワケン",
    "prefecture_code": 14,
    "city": "平塚市",
    "city_kana": "ヒラツカシ",
    "town": "宝町",
    "town_kana": "タカラチョウ",
    "street": null,
    "office_name": null,
    "office_name_kana": null
  },
  "0035": {
    "zip_code": "2540035",
    "prefecture": "神奈川県",
    "prefecture_kana": "カナガワケン",
    "prefecture_code": 14,
    "city": "平塚市",
    "city_kana": "ヒラツカシ",
    "town": "宮の前",
    "town_kana": "ミヤノマエ",
    "street": null,
    "office_name": null,
    "office_name_kana": null
  },
  "0036": {
    "zip_code": "2540036",
    "prefecture": "神奈川県",
    "prefecture_kana": "カナガワケン",
    "prefecture_code": 14,
    "city": "平塚市",
    "city_kana": "ヒラツカシ",
    "town": "宮松町",
    "town_kana": "ミヤマツチョウ",
    "street": null,
    "office_name": null,
    "office_name_kana": null
  },
  "0041": {
    "zip_code": "2540041",
    "prefecture": "神奈川県",
    "prefecture_kana": "カナガワケン",
    "prefecture_code": 14,
    "city": "平塚市",
    "city_kana": "ヒラツカシ",
    "town": "浅間町",
    "town_kana": "センゲンチョウ",
    "street": null,
    "office_name": null,
    "office_name_kana": null
  },
  "0042": {
    "zip_code": "2540042",
    "prefecture": "神奈川県",
    "prefecture_kana": "カナガワケン",
    "prefecture_code": 14,
    "city": "平塚市",
    "city_kana": "ヒラツカシ",
    "town": "明石町",
    "town_kana": "アカシチョウ",
    "street": null,
    "office_name": null,
    "office_name_kana": null
  },
  "0043": {
    "zip_code": "2540043",
    "prefecture": "神奈川県",
    "prefecture_kana": "カナガワケン",
    "prefecture_code": 14,
    "city": "平塚市",
    "city_kana": "ヒラツカシ",
    "town": "紅谷町",
    "town_kana": "ベニヤチョウ",
    "street": null,
    "office_name": null,
    "office_name_kana": null
  },
  "0044": {
    "zip_code": "2540044",
    "prefecture": "神奈川県",
    "prefecture_kana": "カナガワケン",
    "prefecture_code": 14,
    "city": "平塚市",
    "city_kana": "ヒラツカシ",
    "town": "錦町",
    "town_kana": "ニシキチョウ",
    "street": null,
    "office_name": null,
    "office_name_kana": null
  },
  "0045": {
    "zip_code": "2540045",
    "prefecture": "神奈川県",
    "prefecture_kana": "カナガワケン",
    "prefecture_code": 14,
    "city": "平塚市",
    "city_kana": "ヒラツカシ",
    "town": "見附町",
    "town_kana": "ミツケチョウ",
    "street": null,
    "office_name": null,
    "office_name_kana": null
  },
  "0046": {
    "zip_code": "2540046",
    "prefecture": "神奈川県",
    "prefecture_kana": "カナガワケン",
    "prefecture_code": 14,
    "city": "平塚市",
    "city_kana": "ヒラツカシ",
    "town": "立野町",
    "town_kana": "タツノチョウ",
    "street": null,
    "office_name": null,
    "office_name_kana": null
  },
  "0047": {
    "zip_code": "2540047",
    "prefecture": "神奈川県",
    "prefecture_kana": "カナガワケン",
    "prefecture_code": 14,
    "city": "平塚市",
    "city_kana": "ヒラツカシ",
    "town": "追分",
    "town_kana": "オイワケ",
    "street": null,
    "office_name": null,
    "office_name_kana": null
  },
  "0051": {
    "zip_code": "2540051",
    "prefecture": "神奈川県",
    "prefecture_kana": "カナガワケン",
    "prefecture_code": 14,
    "city": "平塚市",
    "city_kana": "ヒラツカシ",
    "town": "豊原町",
    "town_kana": "トヨハラチョウ",
    "street": null,
    "office_name": null,
    "office_name_kana": null
  },
  "0052": {
    "zip_code": "2540052",
    "prefecture": "神奈川県",
    "prefecture_kana": "カナガワケン",
    "prefecture_code": 14,
    "city": "平塚市",
    "city_kana": "ヒラツカシ",
    "town": "平塚",
    "town_kana": "ヒラツカ",
    "street": null,
    "office_name": null,
    "office_name_kana": null
  },
  "0053": {
    "zip_code": "2540053",
    "prefecture": "神奈川県",
    "prefecture_kana": "カナガワケン",
    "prefecture_code": 14,
    "city": "平塚市",
    "city_kana": "ヒラツカシ",
    "town": "桜ケ丘",
    "town_kana": "サクラガオカ",
    "street": null,
    "office_name": null,
    "office_name_kana": null
  },
  "0054": {
    "zip_code": "2540054",
    "prefecture": "神奈川県",
    "prefecture_kana": "カナガワケン",
    "prefecture_code": 14,
    "city": "平塚市",
    "city_kana": "ヒラツカシ",
    "town": "中里",
    "town_kana": "ナカザト",
    "street": null,
    "office_name": null,
    "office_name_kana": null
  },
  "0055": {
    "zip_code": "2540055",
    "prefecture": "神奈川県",
    "prefecture_kana": "カナガワケン",
    "prefecture_code": 14,
    "city": "平塚市",
    "city_kana": "ヒラツカシ",
    "town": "上平塚",
    "town_kana": "カミヒラツカ",
    "street": null,
    "office_name": null,
    "office_name_kana": null
  },
  "0061": {
    "zip_code": "2540061",
    "prefecture": "神奈川県",
    "prefecture_kana": "カナガワケン",
    "prefecture_code": 14,
    "city": "平塚市",
    "city_kana": "ヒラツカシ",
    "town": "御殿",
    "town_kana": "ゴテン",
    "street": null,
    "office_name": null,
    "office_name_kana": null
  },
  "0062": {
    "zip_code": "2540062",
    "prefecture": "神奈川県",
    "prefecture_kana": "カナガワケン",
    "prefecture_code": 14,
    "city": "平塚市",
    "city_kana": "ヒラツカシ",
    "town": "富士見町",
    "town_kana": "フジミチョウ",
    "street": null,
    "office_name": null,
    "office_name_kana": null
  },
  "0063": {
    "zip_code": "2540063",
    "prefecture": "神奈川県",
    "prefecture_kana": "カナガワケン",
    "prefecture_code": 14,
    "city": "平塚市",
    "city_kana": "ヒラツカシ",
    "town": "諏訪町",
    "town_kana": "スワチョウ",
    "street": null,
    "office_name": null,
    "office_name_kana": null
  },
  "0064": {
    "zip_code": "2540064",
    "prefecture": "神奈川県",
    "prefecture_kana": "カナガワケン",
    "prefecture_code": 14,
    "city": "平塚市",
    "city_kana": "ヒラツカシ",
    "town": "達上ケ丘",
    "town_kana": "タンジョウガオカ",
    "street": null,
    "office_name": null,
    "office_name_kana": null
  },
  "0065": {
    "zip_code": "2540065",
    "prefecture": "神奈川県",
    "prefecture_kana": "カナガワケン",
    "prefecture_code": 14,
    "city": "平塚市",
    "city_kana": "ヒラツカシ",
    "town": "南原",
    "town_kana": "ミナミハラ",
    "street": null,
    "office_name": null,
    "office_name_kana": null
  },
  "0071": {
    "zip_code": "2540071",
    "prefecture": "神奈川県",
    "prefecture_kana": "カナガワケン",
    "prefecture_code": 14,
    "city": "平塚市",
    "city_kana": "ヒラツカシ",
    "town": "中原上宿",
    "town_kana": "ナカハラカミジュク",
    "street": null,
    "office_name": null,
    "office_name_kana": null
  },
  "0072": {
    "zip_code": "2540072",
    "prefecture": "神奈川県",
    "prefecture_kana": "カナガワケン",
    "prefecture_code": 14,
    "city": "平塚市",
    "city_kana": "ヒラツカシ",
    "town": "中原下宿",
    "town_kana": "ナカハラシモジュク",
    "street": null,
    "office_name": null,
    "office_name_kana": null
  },
  "0073": {
    "zip_code": "2540073",
    "prefecture": "神奈川県",
    "prefecture_kana": "カナガワケン",
    "prefecture_code": 14,
    "city": "平塚市",
    "city_kana": "ヒラツカシ",
    "town": "西八幡",
    "town_kana": "ニシヤワタ",
    "street": null,
    "office_name": null,
    "office_name_kana": null
  },
  "0074": {
    "zip_code": "2540074",
    "prefecture": "神奈川県",
    "prefecture_kana": "カナガワケン",
    "prefecture_code": 14,
    "city": "平塚市",
    "city_kana": "ヒラツカシ",
    "town": "大原",
    "town_kana": "オオハラ",
    "street": null,
    "office_name": null,
    "office_name_kana": null
  },
  "0075": {
    "zip_code": "2540075",
    "prefecture": "神奈川県",
    "prefecture_kana": "カナガワケン",
    "prefecture_code": 14,
    "city": "平塚市",
    "city_kana": "ヒラツカシ",
    "town": "中原",
    "town_kana": "ナカハラ",
    "street": null,
    "office_name": null,
    "office_name_kana": null
  },
  "0076": {
    "zip_code": "2540076",
    "prefecture": "神奈川県",
    "prefecture_kana": "カナガワケン",
    "prefecture_code": 14,
    "city": "平塚市",
    "city_kana": "ヒラツカシ",
    "town": "新町",
    "town_kana": "シンマチ",
    "street": null,
    "office_name": null,
    "office_name_kana": null
  },
  "0077": {
    "zip_code": "2540077",
    "prefecture": "神奈川県",
    "prefecture_kana": "カナガワケン",
    "prefecture_code": 14,
    "city": "平塚市",
    "city_kana": "ヒラツカシ",
    "town": "東中原",
    "town_kana": "ヒガシナカハラ",
    "street": null,
    "office_name": null,
    "office_name_kana": null
  },
  "0081": {
    "zip_code": "2540081",
    "prefecture": "神奈川県",
    "prefecture_kana": "カナガワケン",
    "prefecture_code": 14,
    "city": "平塚市",
    "city_kana": "ヒラツカシ",
    "town": "豊田打間木",
    "town_kana": "トヨダウチマギ",
    "street": null,
    "office_name": null,
    "office_name_kana": null
  },
  "0082": {
    "zip_code": "2540082",
    "prefecture": "神奈川県",
    "prefecture_kana": "カナガワケン",
    "prefecture_code": 14,
    "city": "平塚市",
    "city_kana": "ヒラツカシ",
    "town": "東豊田",
    "town_kana": "ヒガシトヨダ",
    "street": null,
    "office_name": null,
    "office_name_kana": null
  },
  "0083": {
    "zip_code": "2540083",
    "prefecture": "神奈川県",
    "prefecture_kana": "カナガワケン",
    "prefecture_code": 14,
    "city": "平塚市",
    "city_kana": "ヒラツカシ",
    "town": "豊田小嶺",
    "town_kana": "トヨダコミネ",
    "street": null,
    "office_name": null,
    "office_name_kana": null
  },
  "0084": {
    "zip_code": "2540084",
    "prefecture": "神奈川県",
    "prefecture_kana": "カナガワケン",
    "prefecture_code": 14,
    "city": "平塚市",
    "city_kana": "ヒラツカシ",
    "town": "南豊田",
    "town_kana": "ミナミトヨダ",
    "street": null,
    "office_name": null,
    "office_name_kana": null
  },
  "0085": {
    "zip_code": "2540085",
    "prefecture": "神奈川県",
    "prefecture_kana": "カナガワケン",
    "prefecture_code": 14,
    "city": "平塚市",
    "city_kana": "ヒラツカシ",
    "town": "豊田宮下",
    "town_kana": "トヨダミヤシタ",
    "street": null,
    "office_name": null,
    "office_name_kana": null
  },
  "0086": {
    "zip_code": "2540086",
    "prefecture": "神奈川県",
    "prefecture_kana": "カナガワケン",
    "prefecture_code": 14,
    "city": "平塚市",
    "city_kana": "ヒラツカシ",
    "town": "豊田平等寺",
    "town_kana": "トヨダビョウドウジ",
    "street": null,
    "office_name": null,
    "office_name_kana": null
  },
  "0087": {
    "zip_code": "2540087",
    "prefecture": "神奈川県",
    "prefecture_kana": "カナガワケン",
    "prefecture_code": 14,
    "city": "平塚市",
    "city_kana": "ヒラツカシ",
    "town": "豊田本郷",
    "town_kana": "トヨダホンゴウ",
    "street": null,
    "office_name": null,
    "office_name_kana": null
  },
  "0088": {
    "zip_code": "2540088",
    "prefecture": "神奈川県",
    "prefecture_kana": "カナガワケン",
    "prefecture_code": 14,
    "city": "平塚市",
    "city_kana": "ヒラツカシ",
    "town": "北豊田",
    "town_kana": "キタトヨダ",
    "street": null,
    "office_name": null,
    "office_name_kana": null
  },
  "0801": {
    "zip_code": "2540801",
    "prefecture": "神奈川県",
    "prefecture_kana": "カナガワケン",
    "prefecture_code": 14,
    "city": "平塚市",
    "city_kana": "ヒラツカシ",
    "town": "久領堤",
    "town_kana": "クリョウヅツミ",
    "street": null,
    "office_name": null,
    "office_name_kana": null
  },
  "0802": {
    "zip_code": "2540802",
    "prefecture": "神奈川県",
    "prefecture_kana": "カナガワケン",
    "prefecture_code": 14,
    "city": "平塚市",
    "city_kana": "ヒラツカシ",
    "town": "札場町",
    "town_kana": "フダバチョウ",
    "street": null,
    "office_name": null,
    "office_name_kana": null
  },
  "0803": {
    "zip_code": "2540803",
    "prefecture": "神奈川県",
    "prefecture_kana": "カナガワケン",
    "prefecture_code": 14,
    "city": "平塚市",
    "city_kana": "ヒラツカシ",
    "town": "千石河岸",
    "town_kana": "センゴクカシ",
    "street": null,
    "office_name": null,
    "office_name_kana": null
  },
  "0804": {
    "zip_code": "2540804",
    "prefecture": "神奈川県",
    "prefecture_kana": "カナガワケン",
    "prefecture_code": 14,
    "city": "平塚市",
    "city_kana": "ヒラツカシ",
    "town": "幸町",
    "town_kana": "サイワイチョウ",
    "street": null,
    "office_name": null,
    "office_name_kana": null
  },
  "0805": {
    "zip_code": "2540805",
    "prefecture": "神奈川県",
    "prefecture_kana": "カナガワケン",
    "prefecture_code": 14,
    "city": "平塚市",
    "city_kana": "ヒラツカシ",
    "town": "高浜台",
    "town_kana": "タカハマダイ",
    "street": null,
    "office_name": null,
    "office_name_kana": null
  },
  "0806": {
    "zip_code": "2540806",
    "prefecture": "神奈川県",
    "prefecture_kana": "カナガワケン",
    "prefecture_code": 14,
    "city": "平塚市",
    "city_kana": "ヒラツカシ",
    "town": "夕陽ケ丘",
    "town_kana": "ユウヒガオカ",
    "street": null,
    "office_name": null,
    "office_name_kana": null
  },
  "0807": {
    "zip_code": "2540807",
    "prefecture": "神奈川県",
    "prefecture_kana": "カナガワケン",
    "prefecture_code": 14,
    "city": "平塚市",
    "city_kana": "ヒラツカシ",
    "town": "代官町",
    "town_kana": "ダイカンチョウ",
    "street": null,
    "office_name": null,
    "office_name_kana": null
  },
  "0811": {
    "zip_code": "2540811",
    "prefecture": "神奈川県",
    "prefecture_kana": "カナガワケン",
    "prefecture_code": 14,
    "city": "平塚市",
    "city_kana": "ヒラツカシ",
    "town": "八重咲町",
    "town_kana": "ヤエザキチョウ",
    "street": null,
    "office_name": null,
    "office_name_kana": null
  },
  "0812": {
    "zip_code": "2540812",
    "prefecture": "神奈川県",
    "prefecture_kana": "カナガワケン",
    "prefecture_code": 14,
    "city": "平塚市",
    "city_kana": "ヒラツカシ",
    "town": "松風町",
    "town_kana": "マツカゼチョウ",
    "street": null,
    "office_name": null,
    "office_name_kana": null
  },
  "0813": {
    "zip_code": "2540813",
    "prefecture": "神奈川県",
    "prefecture_kana": "カナガワケン",
    "prefecture_code": 14,
    "city": "平塚市",
    "city_kana": "ヒラツカシ",
    "town": "袖ケ浜",
    "town_kana": "ソデガハマ",
    "street": null,
    "office_name": null,
    "office_name_kana": null
  },
  "0814": {
    "zip_code": "2540814",
    "prefecture": "神奈川県",
    "prefecture_kana": "カナガワケン",
    "prefecture_code": 14,
    "city": "平塚市",
    "city_kana": "ヒラツカシ",
    "town": "龍城ケ丘",
    "town_kana": "リュウジョウガオカ",
    "street": null,
    "office_name": null,
    "office_name_kana": null
  },
  "0815": {
    "zip_code": "2540815",
    "prefecture": "神奈川県",
    "prefecture_kana": "カナガワケン",
    "prefecture_code": 14,
    "city": "平塚市",
    "city_kana": "ヒラツカシ",
    "town": "桃浜町",
    "town_kana": "モモハマチョウ",
    "street": null,
    "office_name": null,
    "office_name_kana": null
  },
  "0821": {
    "zip_code": "2540821",
    "prefecture": "神奈川県",
    "prefecture_kana": "カナガワケン",
    "prefecture_code": 14,
    "city": "平塚市",
    "city_kana": "ヒラツカシ",
    "town": "黒部丘",
    "town_kana": "クロベオカ",
    "street": null,
    "office_name": null,
    "office_name_kana": null
  },
  "0822": {
    "zip_code": "2540822",
    "prefecture": "神奈川県",
    "prefecture_kana": "カナガワケン",
    "prefecture_code": 14,
    "city": "平塚市",
    "city_kana": "ヒラツカシ",
    "town": "菫平",
    "town_kana": "スミレダイラ",
    "street": null,
    "office_name": null,
    "office_name_kana": null
  },
  "0823": {
    "zip_code": "2540823",
    "prefecture": "神奈川県",
    "prefecture_kana": "カナガワケン",
    "prefecture_code": 14,
    "city": "平塚市",
    "city_kana": "ヒラツカシ",
    "town": "虹ケ浜",
    "town_kana": "ニジガハマ",
    "street": null,
    "office_name": null,
    "office_name_kana": null
  },
  "0824": {
    "zip_code": "2540824",
    "prefecture": "神奈川県",
    "prefecture_kana": "カナガワケン",
    "prefecture_code": 14,
    "city": "平塚市",
    "city_kana": "ヒラツカシ",
    "town": "花水台",
    "town_kana": "ハナミズダイ",
    "street": null,
    "office_name": null,
    "office_name_kana": null
  },
  "0825": {
    "zip_code": "2540825",
    "prefecture": "神奈川県",
    "prefecture_kana": "カナガワケン",
    "prefecture_code": 14,
    "city": "平塚市",
    "city_kana": "ヒラツカシ",
    "town": "撫子原",
    "town_kana": "ナデシコハラ",
    "street": null,
    "office_name": null,
    "office_name_kana": null
  },
  "0826": {
    "zip_code": "2540826",
    "prefecture": "神奈川県",
    "prefecture_kana": "カナガワケン",
    "prefecture_code": 14,
    "city": "平塚市",
    "city_kana": "ヒラツカシ",
    "town": "唐ケ原",
    "town_kana": "トウガハラ",
    "street": null,
    "office_name": null,
    "office_name_kana": null
  },
  "0901": {
    "zip_code": "2540901",
    "prefecture": "神奈川県",
    "prefecture_kana": "カナガワケン",
    "prefecture_code": 14,
    "city": "平塚市",
    "city_kana": "ヒラツカシ",
    "town": "纒",
    "town_kana": "マトイ",
    "street": null,
    "office_name": null,
    "office_name_kana": null
  },
  "0902": {
    "zip_code": "2540902",
    "prefecture": "神奈川県",
    "prefecture_kana": "カナガワケン",
    "prefecture_code": 14,
    "city": "平塚市",
    "city_kana": "ヒラツカシ",
    "town": "徳延",
    "town_kana": "トクノブ",
    "street": null,
    "office_name": null,
    "office_name_kana": null
  },
  "0903": {
    "zip_code": "2540903",
    "prefecture": "神奈川県",
    "prefecture_kana": "カナガワケン",
    "prefecture_code": 14,
    "city": "平塚市",
    "city_kana": "ヒラツカシ",
    "town": "河内",
    "town_kana": "コウチ",
    "street": null,
    "office_name": null,
    "office_name_kana": null
  },
  "0904": {
    "zip_code": "2540904",
    "prefecture": "神奈川県",
    "prefecture_kana": "カナガワケン",
    "prefecture_code": 14,
    "city": "平塚市",
    "city_kana": "ヒラツカシ",
    "town": "根坂間",
    "town_kana": "ネザカマ",
    "street": null,
    "office_name": null,
    "office_name_kana": null
  },
  "0905": {
    "zip_code": "2540905",
    "prefecture": "神奈川県",
    "prefecture_kana": "カナガワケン",
    "prefecture_code": 14,
    "city": "平塚市",
    "city_kana": "ヒラツカシ",
    "town": "日向岡",
    "town_kana": "ヒナタオカ",
    "street": null,
    "office_name": null,
    "office_name_kana": null
  },
  "0906": {
    "zip_code": "2540906",
    "prefecture": "神奈川県",
    "prefecture_kana": "カナガワケン",
    "prefecture_code": 14,
    "city": "平塚市",
    "city_kana": "ヒラツカシ",
    "town": "公所",
    "town_kana": "グゾ",
    "street": null,
    "office_name": null,
    "office_name_kana": null
  },
  "0911": {
    "zip_code": "2540911",
    "prefecture": "神奈川県",
    "prefecture_kana": "カナガワケン",
    "prefecture_code": 14,
    "city": "平塚市",
    "city_kana": "ヒラツカシ",
    "town": "山下",
    "town_kana": "ヤマシタ",
    "street": null,
    "office_name": null,
    "office_name_kana": null
  },
  "0912": {
    "zip_code": "2540912",
    "prefecture": "神奈川県",
    "prefecture_kana": "カナガワケン",
    "prefecture_code": 14,
    "city": "平塚市",
    "city_kana": "ヒラツカシ",
    "town": "高根",
    "town_kana": "タカネ",
    "street": null,
    "office_name": null,
    "office_name_kana": null
  },
  "0913": {
    "zip_code": "2540913",
    "prefecture": "神奈川県",
    "prefecture_kana": "カナガワケン",
    "prefecture_code": 14,
    "city": "平塚市",
    "city_kana": "ヒラツカシ",
    "town": "万田",
    "town_kana": "マンダ",
    "street": null,
    "office_name": null,
    "office_name_kana": null
  },
  "0914": {
    "zip_code": "2540914",
    "prefecture": "神奈川県",
    "prefecture_kana": "カナガワケン",
    "prefecture_code": 14,
    "city": "平塚市",
    "city_kana": "ヒラツカシ",
    "town": "高村",
    "town_kana": "タカムラ",
    "street": null,
    "office_name": null,
    "office_name_kana": null
  },
  "0915": {
    "zip_code": "2540915",
    "prefecture": "神奈川県",
    "prefecture_kana": "カナガワケン",
    "prefecture_code": 14,
    "city": "平塚市",
    "city_kana": "ヒラツカシ",
    "town": "出縄",
    "town_kana": "イデナワ",
    "street": null,
    "office_name": null,
    "office_name_kana": null
  },
  "8501": {
    "zip_code": "2548501",
    "prefecture": "神奈川県",
    "prefecture_kana": "カナガワケン",
    "prefecture_code": 14,
    "city": "平塚市",
    "city_kana": "ヒラツカシ",
    "town": "八重咲町",
    "town_kana": "ヤエザキチョウ",
    "street": "６−１８",
    "office_name": "神奈川中央交通　株式会社",
    "office_name_kana": "カナガワチユウオウコウツウ カブシキガイシヤ"
  },
  "8502": {
    "zip_code": "2548502",
    "prefecture": "神奈川県",
    "prefecture_kana": "カナガワケン",
    "prefecture_code": 14,
    "city": "平塚市",
    "city_kana": "ヒラツカシ",
    "town": "追分",
    "town_kana": "オイワケ",
    "street": "９−１１",
    "office_name": "平塚共済病院",
    "office_name_kana": "ヒラツカキヨウサイビヨウイン"
  },
  "8510": {
    "zip_code": "2548510",
    "prefecture": "神奈川県",
    "prefecture_kana": "カナガワケン",
    "prefecture_code": 14,
    "city": "平塚市",
    "city_kana": "ヒラツカシ",
    "town": "天沼",
    "town_kana": "アマヌマ",
    "street": "１０−１",
    "office_name": "ららぽーと　湘南平塚",
    "office_name_kana": "ララポ-ト シヨウナンヒラツカ"
  },
  "8530": {
    "zip_code": "2548530",
    "prefecture": "神奈川県",
    "prefecture_kana": "カナガワケン",
    "prefecture_code": 14,
    "city": "平塚市",
    "city_kana": "ヒラツカシ",
    "town": "東八幡",
    "town_kana": "ヒガシヤワタ",
    "street": "５丁目５−１",
    "office_name": "ＪＡ全農青果センター　株式会社　神奈川センター",
    "office_name_kana": "ジエイエイゼンノウセイカセンタ- カブシキガイシヤ カナガワセンタ-"
  },
  "8532": {
    "zip_code": "2548532",
    "prefecture": "神奈川県",
    "prefecture_kana": "カナガワケン",
    "prefecture_code": 14,
    "city": "平塚市",
    "city_kana": "ヒラツカシ",
    "town": "宮松町",
    "town_kana": "ミヤマツチョウ",
    "street": "３−２３",
    "office_name": "株式会社　日産　サティオ湘南",
    "office_name_kana": "カブシキガイシヤ ニツサン サテイオシヨウナン"
  },
  "8533": {
    "zip_code": "2548533",
    "prefecture": "神奈川県",
    "prefecture_kana": "カナガワケン",
    "prefecture_code": 14,
    "city": "平塚市",
    "city_kana": "ヒラツカシ",
    "town": "松風町",
    "town_kana": "マツカゼチョウ",
    "street": "２−３０",
    "office_name": "平塚税務署",
    "office_name_kana": "ヒラツカゼイムシヨ"
  },
  "8543": {
    "zip_code": "2548543",
    "prefecture": "神奈川県",
    "prefecture_kana": "カナガワケン",
    "prefecture_code": 14,
    "city": "平塚市",
    "city_kana": "ヒラツカシ",
    "town": "四之宮",
    "town_kana": "シノミヤ",
    "street": "３丁目２５−１",
    "office_name": "小松エレクトロニクス　株式会社",
    "office_name_kana": "コマツエレクトロニクス カブシキガイシヤ"
  },
  "8555": {
    "zip_code": "2548555",
    "prefecture": "神奈川県",
    "prefecture_kana": "カナガワケン",
    "prefecture_code": 14,
    "city": "平塚市",
    "city_kana": "ヒラツカシ",
    "town": "四之宮",
    "town_kana": "シノミヤ",
    "street": "３丁目２５−１",
    "office_name": "株式会社　小松製作所　開発本部　建機エレクトロニクス事業部",
    "office_name_kana": "カブシキガイシヤ コマツセイサクシヨ カイハツホンブ ケンキエレクトロニクスジギヨウブ"
  },
  "8562": {
    "zip_code": "2548562",
    "prefecture": "神奈川県",
    "prefecture_kana": "カナガワケン",
    "prefecture_code": 14,
    "city": "平塚市",
    "city_kana": "ヒラツカシ",
    "town": "東八幡",
    "town_kana": "ヒガシヤワタ",
    "street": "４−１７−１",
    "office_name": "関西ペイント　株式会社　開発センター",
    "office_name_kana": "カンサイペイント カブシキガイシヤ カイハツセンタ-"
  },
  "8567": {
    "zip_code": "2548567",
    "prefecture": "神奈川県",
    "prefecture_kana": "カナガワケン",
    "prefecture_code": 14,
    "city": "平塚市",
    "city_kana": "ヒラツカシ",
    "town": "万田",
    "town_kana": "マンダ",
    "street": "１２００番地",
    "office_name": "株式会社　小松製作所　研究本部",
    "office_name_kana": "カブシキカイシヤ コマツセイサクシヨ ケンキユウホンブ"
  },
  "8585": {
    "zip_code": "2548585",
    "prefecture": "神奈川県",
    "prefecture_kana": "カナガワケン",
    "prefecture_code": 14,
    "city": "平塚市",
    "city_kana": "ヒラツカシ",
    "town": "西八幡",
    "town_kana": "ニシヤワタ",
    "street": "１丁目４番３号",
    "office_name": "株式会社　パイロットコーポレーション　平塚工場",
    "office_name_kana": "カブシキガイシヤ パイロツトコ-ポレ-シヨン ヒラツカコウジヨウ"
  },
  "8588": {
    "zip_code": "2548588",
    "prefecture": "神奈川県",
    "prefecture_kana": "カナガワケン",
    "prefecture_code": 14,
    "city": "平塚市",
    "city_kana": "ヒラツカシ",
    "town": "四之宮",
    "town_kana": "シノミヤ",
    "street": "４丁目１８−２９",
    "office_name": "ネッツトヨタ　神奈川　株式会社",
    "office_name_kana": "ネツツトヨタ カナガワ カブシキガイシヤ"
  },
  "8589": {
    "zip_code": "2548589",
    "prefecture": "神奈川県",
    "prefecture_kana": "カナガワケン",
    "prefecture_code": 14,
    "city": "平塚市",
    "city_kana": "ヒラツカシ",
    "town": "東八幡",
    "town_kana": "ヒガシヤワタ",
    "street": "５−４−１",
    "office_name": "関西ペイント　株式会社　平塚事業所",
    "office_name_kana": "カンサイペイント カブシキガイシヤ ヒラツカジギヨウシヨ"
  },
  "8601": {
    "zip_code": "2548601",
    "prefecture": "神奈川県",
    "prefecture_kana": "カナガワケン",
    "prefecture_code": 14,
    "city": "平塚市",
    "city_kana": "ヒラツカシ",
    "town": "追分",
    "town_kana": "オイワケ",
    "street": "２−１（平塚郵便局私書箱第２０号）",
    "office_name": "横浜ゴム　株式会社　平塚製造所",
    "office_name_kana": "ヨコハマゴム カブシキガイシヤ ヒラツカセイゾウジヨ"
  },
  "8610": {
    "zip_code": "2548610",
    "prefecture": "神奈川県",
    "prefecture_kana": "カナガワケン",
    "prefecture_code": 14,
    "city": "平塚市",
    "city_kana": "ヒラツカシ",
    "town": "堤町",
    "town_kana": "ツツミチョウ",
    "street": "２番１号（平塚郵便局私書箱第１４号）",
    "office_name": "日産車体　株式会社",
    "office_name_kana": "ニツサンシヤタイ カブシキガイシヤ"
  },
  "8612": {
    "zip_code": "2548612",
    "prefecture": "神奈川県",
    "prefecture_kana": "カナガワケン",
    "prefecture_code": 14,
    "city": "平塚市",
    "city_kana": "ヒラツカシ",
    "town": "西真土",
    "town_kana": "ニシシンド",
    "street": "２丁目１−３５（平塚郵便局私書箱第６号）",
    "office_name": "菱和ロジテム　株式会社　平塚支店",
    "office_name_kana": "リヨウワロジテム カブシキガイシヤ ヒラツカシテン"
  },
  "8614": {
    "zip_code": "2548614",
    "prefecture": "神奈川県",
    "prefecture_kana": "カナガワケン",
    "prefecture_code": 14,
    "city": "平塚市",
    "city_kana": "ヒラツカシ",
    "town": "西真土",
    "town_kana": "ニシシンド",
    "street": "２丁目１−３５（平塚郵便局私書箱第６号）",
    "office_name": "三菱樹脂　株式会社　平塚工場",
    "office_name_kana": "ミツビシジユシ カブシキガイシヤ ヒラツカコウジヨウ"
  },
  "8686": {
    "zip_code": "2548686",
    "prefecture": "神奈川県",
    "prefecture_kana": "カナガワケン",
    "prefecture_code": 14,
    "city": "平塚市",
    "city_kana": "ヒラツカシ",
    "town": "浅間町",
    "town_kana": "センゲンチョウ",
    "street": "９−１（平塚郵便局私書箱第２３号）",
    "office_name": "平塚市役所",
    "office_name_kana": "ヒラツカシヤクシヨ"
  }
}