{
  "0000": {
    "zip_code": "2620000",
    "prefecture": "千葉県",
    "prefecture_kana": "チバケン",
    "prefecture_code": 12,
    "city": "千葉市花見川区",
    "city_kana": "チバシハナミガワク",
    "town": "",
    "town_kana": "",
    "street": null,
    "office_name": null,
    "office_name_kana": null
  },
  "0001": {
    "zip_code": "2620001",
    "prefecture": "千葉県",
    "prefecture_kana": "チバケン",
    "prefecture_code": 12,
    "city": "千葉市花見川区",
    "city_kana": "チバシハナミガワク",
    "town": "横戸町",
    "town_kana": "ヨコドチョウ",
    "street": null,
    "office_name": null,
    "office_name_kana": null
  },
  "0002": {
    "zip_code": "2620002",
    "prefecture": "千葉県",
    "prefecture_kana": "チバケン",
    "prefecture_code": 12,
    "city": "千葉市花見川区",
    "city_kana": "チバシハナミガワク",
    "town": "内山町",
    "town_kana": "ウチヤマチョウ",
    "street": null,
    "office_name": null,
    "office_name_kana": null
  },
  "0003": {
    "zip_code": "2620003",
    "prefecture": "千葉県",
    "prefecture_kana": "チバケン",
    "prefecture_code": 12,
    "city": "千葉市花見川区",
    "city_kana": "チバシハナミガワク",
    "town": "宇那谷町",
    "town_kana": "ウナヤチョウ",
    "street": null,
    "office_name": null,
    "office_name_kana": null
  },
  "0004": {
    "zip_code": "2620004",
    "prefecture": "千葉県",
    "prefecture_kana": "チバケン",
    "prefecture_code": 12,
    "city": "千葉市花見川区",
    "city_kana": "チバシハナミガワク",
    "town": "大日町",
    "town_kana": "ダイニチチョウ",
    "street": null,
    "office_name": null,
    "office_name_kana": null
  },
  "0005": {
    "zip_code": "2620005",
    "prefecture": "千葉県",
    "prefecture_kana": "チバケン",
    "prefecture_code": 12,
    "city": "千葉市花見川区",
    "city_kana": "チバシハナミガワク",
    "town": "こてはし台",
    "town_kana": "コテハシダイ",
    "street": null,
    "office_name": null,
    "office_name_kana": null
  },
  "0006": {
    "zip_code": "2620006",
    "prefecture": "千葉県",
    "prefecture_kana": "チバケン",
    "prefecture_code": 12,
    "city": "千葉市花見川区",
    "city_kana": "チバシハナミガワク",
    "town": "横戸台",
    "town_kana": "ヨコドダイ",
    "street": null,
    "office_name": null,
    "office_name_kana": null
  },
  "0007": {
    "zip_code": "2620007",
    "prefecture": "千葉県",
    "prefecture_kana": "チバケン",
    "prefecture_code": 12,
    "city": "千葉市花見川区",
    "city_kana": "チバシハナミガワク",
    "town": "み春野",
    "town_kana": "ミハルノ",
    "street": null,
    "office_name": null,
    "office_name_kana": null
  },
  "0011": {
    "zip_code": "2620011",
    "prefecture": "千葉県",
    "prefecture_kana": "チバケン",
    "prefecture_code": 12,
    "city": "千葉市花見川区",
    "city_kana": "チバシハナミガワク",
    "town": "三角町",
    "town_kana": "サンカクチョウ",
    "street": null,
    "office_name": null,
    "office_name_kana": null
  },
  "0012": {
    "zip_code": "2620012",
    "prefecture": "千葉県",
    "prefecture_kana": "チバケン",
    "prefecture_code": 12,
    "city": "千葉市花見川区",
    "city_kana": "チバシハナミガワク",
    "town": "千種町",
    "town_kana": "チグサチョウ",
    "street": null,
    "office_name": null,
    "office_name_kana": null
  },
  "0013": {
    "zip_code": "2620013",
    "prefecture": "千葉県",
    "prefecture_kana": "チバケン",
    "prefecture_code": 12,
    "city": "千葉市花見川区",
    "city_kana": "チバシハナミガワク",
    "town": "犢橋町",
    "town_kana": "コテハシチョウ",
    "street": null,
    "office_name": null,
    "office_name_kana": null
  },
  "0014": {
    "zip_code": "2620014",
    "prefecture": "千葉県",
    "prefecture_kana": "チバケン",
    "prefecture_code": 12,
    "city": "千葉市花見川区",
    "city_kana": "チバシハナミガワク",
    "town": "さつきが丘",
    "town_kana": "サツキガオカ",
    "street": null,
    "office_name": null,
    "office_name_kana": null
  },
  "0015": {
    "zip_code": "2620015",
    "prefecture": "千葉県",
    "prefecture_kana": "チバケン",
    "prefecture_code": 12,
    "city": "千葉市花見川区",
    "city_kana": "チバシハナミガワク",
    "town": "宮野木台",
    "town_kana": "ミヤノギダイ",
    "street": null,
    "office_name": null,
    "office_name_kana": null
  },
  "0016": {
    "zip_code": "2620016",
    "prefecture": "千葉県",
    "prefecture_kana": "チバケン",
    "prefecture_code": 12,
    "city": "千葉市花見川区",
    "city_kana": "チバシハナミガワク",
    "town": "西小中台",
    "town_kana": "ニシコナカダイ",
    "street": null,
    "office_name": null,
    "office_name_kana": null
  },
  "0017": {
    "zip_code": "2620017",
    "prefecture": "千葉県",
    "prefecture_kana": "チバケン",
    "prefecture_code": 12,
    "city": "千葉市花見川区",
    "city_kana": "チバシハナミガワク",
    "town": "朝日ケ丘町",
    "town_kana": "アサヒガオカチョウ",
    "street": null,
    "office_name": null,
    "office_name_kana": null
  },
  "0018": {
    "zip_code": "2620018",
    "prefecture": "千葉県",
    "prefecture_kana": "チバケン",
    "prefecture_code": 12,
    "city": "千葉市花見川区",
    "city_kana": "チバシハナミガワク",
    "town": "畑町",
    "town_kana": "ハタマチ",
    "street": null,
    "office_name": null,
    "office_name_kana": null
  },
  "0019": {
    "zip_code": "2620019",
    "prefecture": "千葉県",
    "prefecture_kana": "チバケン",
    "prefecture_code": 12,
    "city": "千葉市花見川区",
    "city_kana": "チバシハナミガワク",
    "town": "朝日ケ丘",
    "town_kana": "アサヒガオカ",
    "street": null,
    "office_name": null,
    "office_name_kana": null
  },
  "0021": {
    "zip_code": "2620021",
    "prefecture": "千葉県",
    "prefecture_kana": "チバケン",
    "prefecture_code": 12,
    "city": "千葉市花見川区",
    "city_kana": "チバシハナミガワク",
    "town": "花園町",
    "town_kana": "ハナゾノチョウ",
    "street": null,
    "office_name": null,
    "office_name_kana": null
  },
  "0022": {
    "zip_code": "2620022",
    "prefecture": "千葉県",
    "prefecture_kana": "チバケン",
    "prefecture_code": 12,
    "city": "千葉市花見川区",
    "city_kana": "チバシハナミガワク",
    "town": "南花園",
    "town_kana": "ミナミハナゾノ",
    "street": null,
    "office_name": null,
    "office_name_kana": null
  },
  "0023": {
    "zip_code": "2620023",
    "prefecture": "千葉県",
    "prefecture_kana": "チバケン",
    "prefecture_code": 12,
    "city": "千葉市花見川区",
    "city_kana": "チバシハナミガワク",
    "town": "検見川町",
    "town_kana": "ケミガワチョウ",
    "street": null,
    "office_name": null,
    "office_name_kana": null
  },
  "0024": {
    "zip_code": "2620024",
    "prefecture": "千葉県",
    "prefecture_kana": "チバケン",
    "prefecture_code": 12,
    "city": "千葉市花見川区",
    "city_kana": "チバシハナミガワク",
    "town": "浪花町",
    "town_kana": "ナニワチョウ",
    "street": null,
    "office_name": null,
    "office_name_kana": null
  },
  "0025": {
    "zip_code": "2620025",
    "prefecture": "千葉県",
    "prefecture_kana": "チバケン",
    "prefecture_code": 12,
    "city": "千葉市花見川区",
    "city_kana": "チバシハナミガワク",
    "town": "花園",
    "town_kana": "ハナゾノ",
    "street": null,
    "office_name": null,
    "office_name_kana": null
  },
  "0026": {
    "zip_code": "2620026",
    "prefecture": "千葉県",
    "prefecture_kana": "チバケン",
    "prefecture_code": 12,
    "city": "千葉市花見川区",
    "city_kana": "チバシハナミガワク",
    "town": "瑞穂",
    "town_kana": "ミズホ",
    "street": null,
    "office_name": null,
    "office_name_kana": null
  },
  "0031": {
    "zip_code": "2620031",
    "prefecture": "千葉県",
    "prefecture_kana": "チバケン",
    "prefecture_code": 12,
    "city": "千葉市花見川区",
    "city_kana": "チバシハナミガワク",
    "town": "武石町",
    "town_kana": "タケイシチョウ",
    "street": null,
    "office_name": null,
    "office_name_kana": null
  },
  "0032": {
    "zip_code": "2620032",
    "prefecture": "千葉県",
    "prefecture_kana": "チバケン",
    "prefecture_code": 12,
    "city": "千葉市花見川区",
    "city_kana": "チバシハナミガワク",
    "town": "幕張町",
    "town_kana": "マクハリチョウ",
    "street": null,
    "office_name": null,
    "office_name_kana": null
  },
  "0033": {
    "zip_code": "2620033",
    "prefecture": "千葉県",
    "prefecture_kana": "チバケン",
    "prefecture_code": 12,
    "city": "千葉市花見川区",
    "city_kana": "チバシハナミガワク",
    "town": "幕張本郷",
    "town_kana": "マクハリホンゴウ",
    "street": null,
    "office_name": null,
    "office_name_kana": null
  },
  "0041": {
    "zip_code": "2620041",
    "prefecture": "千葉県",
    "prefecture_kana": "チバケン",
    "prefecture_code": 12,
    "city": "千葉市花見川区",
    "city_kana": "チバシハナミガワク",
    "town": "柏井町",
    "town_kana": "カシワイチョウ",
    "street": null,
    "office_name": null,
    "office_name_kana": null
  },
  "0042": {
    "zip_code": "2620042",
    "prefecture": "千葉県",
    "prefecture_kana": "チバケン",
    "prefecture_code": 12,
    "city": "千葉市花見川区",
    "city_kana": "チバシハナミガワク",
    "town": "花島町",
    "town_kana": "ハナシマチョウ",
    "street": null,
    "office_name": null,
    "office_name_kana": null
  },
  "0043": {
    "zip_code": "2620043",
    "prefecture": "千葉県",
    "prefecture_kana": "チバケン",
    "prefecture_code": 12,
    "city": "千葉市花見川区",
    "city_kana": "チバシハナミガワク",
    "town": "天戸町",
    "town_kana": "アマドチョウ",
    "street": null,
    "office_name": null,
    "office_name_kana": null
  },
  "0044": {
    "zip_code": "2620044",
    "prefecture": "千葉県",
    "prefecture_kana": "チバケン",
    "prefecture_code": 12,
    "city": "千葉市花見川区",
    "city_kana": "チバシハナミガワク",
    "town": "長作町",
    "town_kana": "ナガサクチョウ",
    "street": null,
    "office_name": null,
    "office_name_kana": null
  },
  "0045": {
    "zip_code": "2620045",
    "prefecture": "千葉県",
    "prefecture_kana": "チバケン",
    "prefecture_code": 12,
    "city": "千葉市花見川区",
    "city_kana": "チバシハナミガワク",
    "town": "作新台",
    "town_kana": "サクシンダイ",
    "street": null,
    "office_name": null,
    "office_name_kana": null
  },
  "0046": {
    "zip_code": "2620046",
    "prefecture": "千葉県",
    "prefecture_kana": "チバケン",
    "prefecture_code": 12,
    "city": "千葉市花見川区",
    "city_kana": "チバシハナミガワク",
    "town": "花見川",
    "town_kana": "ハナミガワ",
    "street": null,
    "office_name": null,
    "office_name_kana": null
  },
  "0047": {
    "zip_code": "2620047",
    "prefecture": "千葉県",
    "prefecture_kana": "チバケン",
    "prefecture_code": 12,
    "city": "千葉市花見川区",
    "city_kana": "チバシハナミガワク",
    "town": "長作台",
    "town_kana": "ナガサクダイ",
    "street": null,
    "office_name": null,
    "office_name_kana": null
  },
  "0048": {
    "zip_code": "2620048",
    "prefecture": "千葉県",
    "prefecture_kana": "チバケン",
    "prefecture_code": 12,
    "city": "千葉市花見川区",
    "city_kana": "チバシハナミガワク",
    "town": "柏井",
    "town_kana": "カシワイ",
    "street": null,
    "office_name": null,
    "office_name_kana": null
  },
  "8502": {
    "zip_code": "2628502",
    "prefecture": "千葉県",
    "prefecture_kana": "チバケン",
    "prefecture_code": 12,
    "city": "千葉市花見川区",
    "city_kana": "チバシハナミガワク",
    "town": "武石町",
    "town_kana": "タケイシチョウ",
    "street": "１丁目５２０",
    "office_name": "千葉西税務署",
    "office_name_kana": "チバニシゼイムシヨ"
  },
  "8506": {
    "zip_code": "2628506",
    "prefecture": "千葉県",
    "prefecture_kana": "チバケン",
    "prefecture_code": 12,
    "city": "千葉市花見川区",
    "city_kana": "チバシハナミガワク",
    "town": "柏井町",
    "town_kana": "カシワイチョウ",
    "street": "８００−１",
    "office_name": "医療法人社団　有相会　最成病院",
    "office_name_kana": "イリヨウホウジンシヤダン ユウアイカイ サイセイビヨウイン"
  },
  "8510": {
    "zip_code": "2628510",
    "prefecture": "千葉県",
    "prefecture_kana": "チバケン",
    "prefecture_code": 12,
    "city": "千葉市花見川区",
    "city_kana": "チバシハナミガワク",
    "town": "瑞穂",
    "town_kana": "ミズホ",
    "street": "１丁目１番地",
    "office_name": "千葉市花見川保健福祉センター",
    "office_name_kana": "チバシハナミガワホケンフクシセンタ-"
  },
  "8511": {
    "zip_code": "2628511",
    "prefecture": "千葉県",
    "prefecture_kana": "チバケン",
    "prefecture_code": 12,
    "city": "千葉市花見川区",
    "city_kana": "チバシハナミガワク",
    "town": "柏井町",
    "town_kana": "カシワイチョウ",
    "street": "１１３２−１",
    "office_name": "医療法人　社団有相会　介護老人保健施設　ゆうあい苑",
    "office_name_kana": "イリヨウホウジン シヤダンユウアイカイ カイゴロウジンホケンシセツ ユウアイエン"
  },
  "8512": {
    "zip_code": "2628512",
    "prefecture": "千葉県",
    "prefecture_kana": "チバケン",
    "prefecture_code": 12,
    "city": "千葉市花見川区",
    "city_kana": "チバシハナミガワク",
    "town": "幕張町",
    "town_kana": "マクハリチョウ",
    "street": "５丁目４１７−２４",
    "office_name": "千葉県　水道局",
    "office_name_kana": "チバケン スイドウキヨク"
  },
  "8733": {
    "zip_code": "2628733",
    "prefecture": "千葉県",
    "prefecture_kana": "チバケン",
    "prefecture_code": 12,
    "city": "千葉市花見川区",
    "city_kana": "チバシハナミガワク",
    "town": "瑞穂",
    "town_kana": "ミズホ",
    "street": "１丁目１番地",
    "office_name": "花見川区役所",
    "office_name_kana": "ハナミガワクヤクシヨ"
  }
}