{
  "0066": {
    "zip_code": "2670066",
    "prefecture": "千葉県",
    "prefecture_kana": "チバケン",
    "city": "千葉市緑区",
    "city_kana": "チバシミドリク",
    "town": "あすみが丘",
    "town_kana": "アスミガオカ",
    "prefecture_code": 12
  },
  "0067": {
    "zip_code": "2670067",
    "prefecture": "千葉県",
    "prefecture_kana": "チバケン",
    "city": "千葉市緑区",
    "city_kana": "チバシミドリク",
    "town": "あすみが丘東",
    "town_kana": "アスミガオカヒガシ",
    "prefecture_code": 12
  },
  "0064": {
    "zip_code": "2670064",
    "prefecture": "千葉県",
    "prefecture_kana": "チバケン",
    "city": "千葉市緑区",
    "city_kana": "チバシミドリク",
    "town": "板倉町",
    "town_kana": "イタクラチョウ",
    "prefecture_code": 12
  },
  "0057": {
    "zip_code": "2670057",
    "prefecture": "千葉県",
    "prefecture_kana": "チバケン",
    "city": "千葉市緑区",
    "city_kana": "チバシミドリク",
    "town": "大木戸町",
    "town_kana": "オオキドチョウ",
    "prefecture_code": 12
  },
  "0065": {
    "zip_code": "2670065",
    "prefecture": "千葉県",
    "prefecture_kana": "チバケン",
    "city": "千葉市緑区",
    "city_kana": "チバシミドリク",
    "town": "大椎町",
    "town_kana": "オオジチョウ",
    "prefecture_code": 12
  },
  "0054": {
    "zip_code": "2670054",
    "prefecture": "千葉県",
    "prefecture_kana": "チバケン",
    "city": "千葉市緑区",
    "city_kana": "チバシミドリク",
    "town": "大高町",
    "town_kana": "オオタカチョウ",
    "prefecture_code": 12
  },
  "0056": {
    "zip_code": "2670056",
    "prefecture": "千葉県",
    "prefecture_kana": "チバケン",
    "city": "千葉市緑区",
    "city_kana": "チバシミドリク",
    "town": "大野台",
    "town_kana": "オオノダイ",
    "prefecture_code": 12
  },
  "0055": {
    "zip_code": "2670055",
    "prefecture": "千葉県",
    "prefecture_kana": "チバケン",
    "city": "千葉市緑区",
    "city_kana": "チバシミドリク",
    "town": "越智町",
    "town_kana": "オチチョウ",
    "prefecture_code": 12
  },
  "0063": {
    "zip_code": "2670063",
    "prefecture": "千葉県",
    "prefecture_kana": "チバケン",
    "city": "千葉市緑区",
    "city_kana": "チバシミドリク",
    "town": "小山町",
    "town_kana": "オヤマチョウ",
    "prefecture_code": 12
  },
  "0051": {
    "zip_code": "2670051",
    "prefecture": "千葉県",
    "prefecture_kana": "チバケン",
    "city": "千葉市緑区",
    "city_kana": "チバシミドリク",
    "town": "上大和田町",
    "town_kana": "カミオオワダチョウ",
    "prefecture_code": 12
  },
  "0052": {
    "zip_code": "2670052",
    "prefecture": "千葉県",
    "prefecture_kana": "チバケン",
    "city": "千葉市緑区",
    "city_kana": "チバシミドリク",
    "town": "下大和田町",
    "town_kana": "シモオオワダチョウ",
    "prefecture_code": 12
  },
  "0053": {
    "zip_code": "2670053",
    "prefecture": "千葉県",
    "prefecture_kana": "チバケン",
    "city": "千葉市緑区",
    "city_kana": "チバシミドリク",
    "town": "高津戸町",
    "town_kana": "タカツドチョウ",
    "prefecture_code": 12
  },
  "0061": {
    "zip_code": "2670061",
    "prefecture": "千葉県",
    "prefecture_kana": "チバケン",
    "city": "千葉市緑区",
    "city_kana": "チバシミドリク",
    "town": "土気町",
    "town_kana": "トケチョウ",
    "prefecture_code": 12
  },
  "0062": {
    "zip_code": "2670062",
    "prefecture": "千葉県",
    "prefecture_kana": "チバケン",
    "city": "千葉市緑区",
    "city_kana": "チバシミドリク",
    "town": "小食土町",
    "town_kana": "ヤサシドチョウ",
    "prefecture_code": 12
  }
}