{
  "0000": {
    "zip_code": "2790000",
    "prefecture": "千葉県",
    "prefecture_kana": "チバケン",
    "prefecture_code": 12,
    "city": "浦安市",
    "city_kana": "ウラヤスシ",
    "town": "",
    "town_kana": "",
    "street": null,
    "office_name": null,
    "office_name_kana": null
  },
  "0001": {
    "zip_code": "2790001",
    "prefecture": "千葉県",
    "prefecture_kana": "チバケン",
    "prefecture_code": 12,
    "city": "浦安市",
    "city_kana": "ウラヤスシ",
    "town": "当代島",
    "town_kana": "トウダイジマ",
    "street": null,
    "office_name": null,
    "office_name_kana": null
  },
  "0002": {
    "zip_code": "2790002",
    "prefecture": "千葉県",
    "prefecture_kana": "チバケン",
    "prefecture_code": 12,
    "city": "浦安市",
    "city_kana": "ウラヤスシ",
    "town": "北栄",
    "town_kana": "キタザカエ",
    "street": null,
    "office_name": null,
    "office_name_kana": null
  },
  "0003": {
    "zip_code": "2790003",
    "prefecture": "千葉県",
    "prefecture_kana": "チバケン",
    "prefecture_code": 12,
    "city": "浦安市",
    "city_kana": "ウラヤスシ",
    "town": "海楽",
    "town_kana": "カイラク",
    "street": null,
    "office_name": null,
    "office_name_kana": null
  },
  "0004": {
    "zip_code": "2790004",
    "prefecture": "千葉県",
    "prefecture_kana": "チバケン",
    "prefecture_code": 12,
    "city": "浦安市",
    "city_kana": "ウラヤスシ",
    "town": "猫実",
    "town_kana": "ネコザネ",
    "street": null,
    "office_name": null,
    "office_name_kana": null
  },
  "0011": {
    "zip_code": "2790011",
    "prefecture": "千葉県",
    "prefecture_kana": "チバケン",
    "prefecture_code": 12,
    "city": "浦安市",
    "city_kana": "ウラヤスシ",
    "town": "美浜",
    "town_kana": "ミハマ",
    "street": null,
    "office_name": null,
    "office_name_kana": null
  },
  "0012": {
    "zip_code": "2790012",
    "prefecture": "千葉県",
    "prefecture_kana": "チバケン",
    "prefecture_code": 12,
    "city": "浦安市",
    "city_kana": "ウラヤスシ",
    "town": "入船",
    "town_kana": "イリフネ",
    "street": null,
    "office_name": null,
    "office_name_kana": null
  },
  "0013": {
    "zip_code": "2790013",
    "prefecture": "千葉県",
    "prefecture_kana": "チバケン",
    "prefecture_code": 12,
    "city": "浦安市",
    "city_kana": "ウラヤスシ",
    "town": "日の出",
    "town_kana": "ヒノデ",
    "street": null,
    "office_name": null,
    "office_name_kana": null
  },
  "0014": {
    "zip_code": "2790014",
    "prefecture": "千葉県",
    "prefecture_kana": "チバケン",
    "prefecture_code": 12,
    "city": "浦安市",
    "city_kana": "ウラヤスシ",
    "town": "明海",
    "town_kana": "アケミ",
    "street": null,
    "office_name": null,
    "office_name_kana": null
  },
  "0021": {
    "zip_code": "2790021",
    "prefecture": "千葉県",
    "prefecture_kana": "チバケン",
    "prefecture_code": 12,
    "city": "浦安市",
    "city_kana": "ウラヤスシ",
    "town": "富岡",
    "town_kana": "トミオカ",
    "street": null,
    "office_name": null,
    "office_name_kana": null
  },
  "0022": {
    "zip_code": "2790022",
    "prefecture": "千葉県",
    "prefecture_kana": "チバケン",
    "prefecture_code": 12,
    "city": "浦安市",
    "city_kana": "ウラヤスシ",
    "town": "今川",
    "town_kana": "イマガワ",
    "street": null,
    "office_name": null,
    "office_name_kana": null
  },
  "0023": {
    "zip_code": "2790023",
    "prefecture": "千葉県",
    "prefecture_kana": "チバケン",
    "prefecture_code": 12,
    "city": "浦安市",
    "city_kana": "ウラヤスシ",
    "town": "高洲",
    "town_kana": "タカス",
    "street": null,
    "office_name": null,
    "office_name_kana": null
  },
  "0024": {
    "zip_code": "2790024",
    "prefecture": "千葉県",
    "prefecture_kana": "チバケン",
    "prefecture_code": 12,
    "city": "浦安市",
    "city_kana": "ウラヤスシ",
    "town": "港",
    "town_kana": "ミナト",
    "street": null,
    "office_name": null,
    "office_name_kana": null
  },
  "0025": {
    "zip_code": "2790025",
    "prefecture": "千葉県",
    "prefecture_kana": "チバケン",
    "prefecture_code": 12,
    "city": "浦安市",
    "city_kana": "ウラヤスシ",
    "town": "鉄鋼通り",
    "town_kana": "テッコウドオリ",
    "street": null,
    "office_name": null,
    "office_name_kana": null
  },
  "0026": {
    "zip_code": "2790026",
    "prefecture": "千葉県",
    "prefecture_kana": "チバケン",
    "prefecture_code": 12,
    "city": "浦安市",
    "city_kana": "ウラヤスシ",
    "town": "弁天",
    "town_kana": "ベンテン",
    "street": null,
    "office_name": null,
    "office_name_kana": null
  },
  "0031": {
    "zip_code": "2790031",
    "prefecture": "千葉県",
    "prefecture_kana": "チバケン",
    "prefecture_code": 12,
    "city": "浦安市",
    "city_kana": "ウラヤスシ",
    "town": "舞浜",
    "town_kana": "マイハマ",
    "street": null,
    "office_name": null,
    "office_name_kana": null
  },
  "0032": {
    "zip_code": "2790032",
    "prefecture": "千葉県",
    "prefecture_kana": "チバケン",
    "prefecture_code": 12,
    "city": "浦安市",
    "city_kana": "ウラヤスシ",
    "town": "千鳥",
    "town_kana": "チドリ",
    "street": null,
    "office_name": null,
    "office_name_kana": null
  },
  "0041": {
    "zip_code": "2790041",
    "prefecture": "千葉県",
    "prefecture_kana": "チバケン",
    "prefecture_code": 12,
    "city": "浦安市",
    "city_kana": "ウラヤスシ",
    "town": "堀江",
    "town_kana": "ホリエ",
    "street": null,
    "office_name": null,
    "office_name_kana": null
  },
  "0042": {
    "zip_code": "2790042",
    "prefecture": "千葉県",
    "prefecture_kana": "チバケン",
    "prefecture_code": 12,
    "city": "浦安市",
    "city_kana": "ウラヤスシ",
    "town": "東野",
    "town_kana": "ヒガシノ",
    "street": null,
    "office_name": null,
    "office_name_kana": null
  },
  "0043": {
    "zip_code": "2790043",
    "prefecture": "千葉県",
    "prefecture_kana": "チバケン",
    "prefecture_code": 12,
    "city": "浦安市",
    "city_kana": "ウラヤスシ",
    "town": "富士見",
    "town_kana": "フジミ",
    "street": null,
    "office_name": null,
    "office_name_kana": null
  },
  "8501": {
    "zip_code": "2798501",
    "prefecture": "千葉県",
    "prefecture_kana": "チバケン",
    "prefecture_code": 12,
    "city": "浦安市",
    "city_kana": "ウラヤスシ",
    "town": "猫実",
    "town_kana": "ネコザネ",
    "street": "１丁目１−１",
    "office_name": "浦安市役所",
    "office_name_kana": "ウラヤスシヤクシヨ"
  },
  "8502": {
    "zip_code": "2798502",
    "prefecture": "千葉県",
    "prefecture_kana": "チバケン",
    "prefecture_code": 12,
    "city": "浦安市",
    "city_kana": "ウラヤスシ",
    "town": "明海",
    "town_kana": "アケミ",
    "street": "７−１−１",
    "office_name": "ファウンテンテラスホテル",
    "office_name_kana": "フアウンテンテラスホテル"
  },
  "8503": {
    "zip_code": "2798503",
    "prefecture": "千葉県",
    "prefecture_kana": "チバケン",
    "prefecture_code": 12,
    "city": "浦安市",
    "city_kana": "ウラヤスシ",
    "town": "日の出",
    "town_kana": "ヒノデ",
    "street": "７−１−１",
    "office_name": "パームテラスホテル",
    "office_name_kana": "パ-ムテラスホテル"
  },
  "8505": {
    "zip_code": "2798505",
    "prefecture": "千葉県",
    "prefecture_kana": "チバケン",
    "prefecture_code": 12,
    "city": "浦安市",
    "city_kana": "ウラヤスシ",
    "town": "舞浜",
    "town_kana": "マイハマ",
    "street": "２９−１",
    "office_name": "東京ディズニーランドホテル",
    "office_name_kana": "トウキヨウデイズニ-ランドホテル"
  },
  "8511": {
    "zip_code": "2798511",
    "prefecture": "千葉県",
    "prefecture_kana": "チバケン",
    "prefecture_code": 12,
    "city": "浦安市",
    "city_kana": "ウラヤスシ",
    "town": "舞浜",
    "town_kana": "マイハマ",
    "street": "１−１",
    "office_name": "株式会社　オリエンタルランド",
    "office_name_kana": "カブシキガイシヤ オリエンタルランド"
  },
  "8516": {
    "zip_code": "2798516",
    "prefecture": "千葉県",
    "prefecture_kana": "チバケン",
    "prefecture_code": 12,
    "city": "浦安市",
    "city_kana": "ウラヤスシ",
    "town": "舞浜",
    "town_kana": "マイハマ",
    "street": "１番地１",
    "office_name": "株式会社　Ｅプロダクション",
    "office_name_kana": "カブシキカイシヤ イ-プロダクシヨン"
  },
  "8518": {
    "zip_code": "2798518",
    "prefecture": "千葉県",
    "prefecture_kana": "チバケン",
    "prefecture_code": 12,
    "city": "浦安市",
    "city_kana": "ウラヤスシ",
    "town": "舞浜",
    "town_kana": "マイハマ",
    "street": "２番地５０",
    "office_name": "シルク・ドゥ・ソレイユ　シアター東京",
    "office_name_kana": "シルク・ドウ・ソレイユ シアタ-トウキヨウ"
  },
  "8519": {
    "zip_code": "2798519",
    "prefecture": "千葉県",
    "prefecture_kana": "チバケン",
    "prefecture_code": 12,
    "city": "浦安市",
    "city_kana": "ウラヤスシ",
    "town": "舞浜",
    "town_kana": "マイハマ",
    "street": "１−１３",
    "office_name": "東京ディズニーシー・ホテルミラコスタ",
    "office_name_kana": "トウキヨウデイズニ-シ-・ホテルミラコスタ"
  },
  "8521": {
    "zip_code": "2798521",
    "prefecture": "千葉県",
    "prefecture_kana": "チバケン",
    "prefecture_code": 12,
    "city": "浦安市",
    "city_kana": "ウラヤスシ",
    "town": "舞浜",
    "town_kana": "マイハマ",
    "street": "１番地１",
    "office_name": "株式会社　舞浜コーポレーション",
    "office_name_kana": "カブシキガイシヤ マイハマコ-ポレ-シヨン"
  },
  "8522": {
    "zip_code": "2798522",
    "prefecture": "千葉県",
    "prefecture_kana": "チバケン",
    "prefecture_code": 12,
    "city": "浦安市",
    "city_kana": "ウラヤスシ",
    "town": "舞浜",
    "town_kana": "マイハマ",
    "street": "２番地１１",
    "office_name": "ディズニーアンバサダーホテル",
    "office_name_kana": "デイズニ-アンバサダ-ホテル"
  },
  "8524": {
    "zip_code": "2798524",
    "prefecture": "千葉県",
    "prefecture_kana": "チバケン",
    "prefecture_code": 12,
    "city": "浦安市",
    "city_kana": "ウラヤスシ",
    "town": "舞浜",
    "town_kana": "マイハマ",
    "street": "３５番地１",
    "office_name": "株式会社　グリーンアンドアーツ",
    "office_name_kana": "カブシキガイシヤ グリ-ンアンドア-ツ"
  },
  "8525": {
    "zip_code": "2798525",
    "prefecture": "千葉県",
    "prefecture_kana": "チバケン",
    "prefecture_code": 12,
    "city": "浦安市",
    "city_kana": "ウラヤスシ",
    "town": "舞浜",
    "town_kana": "マイハマ",
    "street": "３５−１",
    "office_name": "株式会社　フォトワークス",
    "office_name_kana": "カブシキガイシヤ フオトワ-クス"
  },
  "8526": {
    "zip_code": "2798526",
    "prefecture": "千葉県",
    "prefecture_kana": "チバケン",
    "prefecture_code": 12,
    "city": "浦安市",
    "city_kana": "ウラヤスシ",
    "town": "舞浜",
    "town_kana": "マイハマ",
    "street": "３５−１",
    "office_name": "株式会社　デザインファクトリー",
    "office_name_kana": "カブシキガイシヤ デザインフアクトリ-"
  },
  "8527": {
    "zip_code": "2798527",
    "prefecture": "千葉県",
    "prefecture_kana": "チバケン",
    "prefecture_code": 12,
    "city": "浦安市",
    "city_kana": "ウラヤスシ",
    "town": "舞浜",
    "town_kana": "マイハマ",
    "street": "３５−１",
    "office_name": "株式会社　ベイフードサービス",
    "office_name_kana": "カブシキガイシヤ ベイフ-トサ-ビス"
  },
  "8529": {
    "zip_code": "2798529",
    "prefecture": "千葉県",
    "prefecture_kana": "チバケン",
    "prefecture_code": 12,
    "city": "浦安市",
    "city_kana": "ウラヤスシ",
    "town": "舞浜",
    "town_kana": "マイハマ",
    "street": "１−４",
    "office_name": "株式会社　イクスピアリ",
    "office_name_kana": "カブシキガイシヤ イクスピアリ"
  },
  "8530": {
    "zip_code": "2798530",
    "prefecture": "千葉県",
    "prefecture_kana": "チバケン",
    "prefecture_code": 12,
    "city": "浦安市",
    "city_kana": "ウラヤスシ",
    "town": "日の出",
    "town_kana": "ヒノデ",
    "street": "１",
    "office_name": "東京電力　株式会社　市川浦安営業所",
    "office_name_kana": "トウキヨウデンリヨク カブシキガイシヤ イチカワウラヤスエイギヨウシヨ"
  },
  "8541": {
    "zip_code": "2798541",
    "prefecture": "千葉県",
    "prefecture_kana": "チバケン",
    "prefecture_code": 12,
    "city": "浦安市",
    "city_kana": "ウラヤスシ",
    "town": "千鳥",
    "town_kana": "チドリ",
    "street": "１２−１５",
    "office_name": "株式会社　パルタック　東京支社",
    "office_name_kana": "カブシキガイシヤ パルタツク トウキヨウシシヤ"
  },
  "8550": {
    "zip_code": "2798550",
    "prefecture": "千葉県",
    "prefecture_kana": "チバケン",
    "prefecture_code": 12,
    "city": "浦安市",
    "city_kana": "ウラヤスシ",
    "town": "明海",
    "town_kana": "アケミ",
    "street": "８",
    "office_name": "明海大学",
    "office_name_kana": "メイカイダイガク"
  },
  "8553": {
    "zip_code": "2798553",
    "prefecture": "千葉県",
    "prefecture_kana": "チバケン",
    "prefecture_code": 12,
    "city": "浦安市",
    "city_kana": "ウラヤスシ",
    "town": "日の出",
    "town_kana": "ヒノデ",
    "street": "２丁目１−８",
    "office_name": "株式会社　リーガルコーポレーション",
    "office_name_kana": "カブシキガイシヤ リ-ガルコ-ポレ-シヨン"
  },
  "8555": {
    "zip_code": "2798555",
    "prefecture": "千葉県",
    "prefecture_kana": "チバケン",
    "prefecture_code": 12,
    "city": "浦安市",
    "city_kana": "ウラヤスシ",
    "town": "美浜",
    "town_kana": "ミハマ",
    "street": "１丁目８−１",
    "office_name": "東レ　株式会社　第２本社",
    "office_name_kana": "トウレ カブシキガイシヤ ダイニホンシヤ"
  },
  "8558": {
    "zip_code": "2798558",
    "prefecture": "千葉県",
    "prefecture_kana": "チバケン",
    "prefecture_code": 12,
    "city": "浦安市",
    "city_kana": "ウラヤスシ",
    "town": "",
    "town_kana": "",
    "street": "東野８−１１−１",
    "office_name": "東海大学付属　浦安高等学校",
    "office_name_kana": "トウカイダイガクフゾク ウラヤスコウトウガツコウ"
  },
  "8567": {
    "zip_code": "2798567",
    "prefecture": "千葉県",
    "prefecture_kana": "チバケン",
    "prefecture_code": 12,
    "city": "浦安市",
    "city_kana": "ウラヤスシ",
    "town": "明海",
    "town_kana": "アケミ",
    "street": "２３",
    "office_name": "学校法人　了徳寺大学",
    "office_name_kana": "ガツコウホウジン リヨウトクジダイガク"
  },
  "8580": {
    "zip_code": "2798580",
    "prefecture": "千葉県",
    "prefecture_kana": "チバケン",
    "prefecture_code": 12,
    "city": "浦安市",
    "city_kana": "ウラヤスシ",
    "town": "美浜",
    "town_kana": "ミハマ",
    "street": "一丁目８番１号ＯＬＣ新浦安ビル",
    "office_name": "株式会社　オリエンタルランド",
    "office_name_kana": "カブシキガイシヤ オリエンタルランド"
  },
  "8581": {
    "zip_code": "2798581",
    "prefecture": "千葉県",
    "prefecture_kana": "チバケン",
    "prefecture_code": 12,
    "city": "浦安市",
    "city_kana": "ウラヤスシ",
    "town": "美浜",
    "town_kana": "ミハマ",
    "street": "一丁目８番１号ＯＬＣ新浦安ビル５階",
    "office_name": "株式会社　グリーンアンドアーツ",
    "office_name_kana": "カブシキガイシヤ グリ-ンアンドア-ツ"
  },
  "8582": {
    "zip_code": "2798582",
    "prefecture": "千葉県",
    "prefecture_kana": "チバケン",
    "prefecture_code": 12,
    "city": "浦安市",
    "city_kana": "ウラヤスシ",
    "town": "美浜",
    "town_kana": "ミハマ",
    "street": "一丁目８番１号ＯＬＣ新浦安ビル５階",
    "office_name": "株式会社　フォトワークス",
    "office_name_kana": "カブシキガイシヤ フオトワ-クス"
  },
  "8583": {
    "zip_code": "2798583",
    "prefecture": "千葉県",
    "prefecture_kana": "チバケン",
    "prefecture_code": 12,
    "city": "浦安市",
    "city_kana": "ウラヤスシ",
    "town": "美浜",
    "town_kana": "ミハマ",
    "street": "一丁目８番１号ＯＬＣ新浦安ビル４階",
    "office_name": "株式会社　デザインファクトリー",
    "office_name_kana": "カブシキガイシヤ デザインフアクトリ-"
  },
  "8585": {
    "zip_code": "2798585",
    "prefecture": "千葉県",
    "prefecture_kana": "チバケン",
    "prefecture_code": 12,
    "city": "浦安市",
    "city_kana": "ウラヤスシ",
    "town": "舞浜",
    "town_kana": "マイハマ",
    "street": "１−８",
    "office_name": "株式会社　ホテルオークラ東京ベイ",
    "office_name_kana": "カブシキガイシヤ ホテルオ-クラトウキヨウベイ"
  },
  "8588": {
    "zip_code": "2798588",
    "prefecture": "千葉県",
    "prefecture_kana": "チバケン",
    "prefecture_code": 12,
    "city": "浦安市",
    "city_kana": "ウラヤスシ",
    "town": "入船",
    "town_kana": "イリフネ",
    "street": "１丁目５−２",
    "office_name": "日本コープ共済生活協同組合連合会",
    "office_name_kana": "ニホンコ-プキヨウサイセイカツキヨウドウクミアイレンゴウカイ"
  },
  "8601": {
    "zip_code": "2798601",
    "prefecture": "千葉県",
    "prefecture_kana": "チバケン",
    "prefecture_code": 12,
    "city": "浦安市",
    "city_kana": "ウラヤスシ",
    "town": "今川",
    "town_kana": "イマガワ",
    "street": "１−１１−３７",
    "office_name": "サラリ工房　株式会社",
    "office_name_kana": "サラリコウボウ カブシキガイシヤ"
  },
  "8686": {
    "zip_code": "2798686",
    "prefecture": "千葉県",
    "prefecture_kana": "チバケン",
    "prefecture_code": 12,
    "city": "浦安市",
    "city_kana": "ウラヤスシ",
    "town": "高洲",
    "town_kana": "タカス",
    "street": "２−４−１０",
    "office_name": "株式会社　インシップ",
    "office_name_kana": "カブシキガイシヤ インシツプ"
  }
}