{
  "0000": {
    "zip_code": "2830000",
    "prefecture": "千葉県",
    "prefecture_kana": "チバケン",
    "prefecture_code": "12",
    "city": "東金市",
    "city_kana": "トウガネシ",
    "town": "",
    "town_kana": "",
    "street": null,
    "office_name": null,
    "office_name_kana": null
  },
  "0001": {
    "zip_code": "2830001",
    "prefecture": "千葉県",
    "prefecture_kana": "チバケン",
    "prefecture_code": "12",
    "city": "東金市",
    "city_kana": "トウガネシ",
    "town": "家之子",
    "town_kana": "イエノコ",
    "street": null,
    "office_name": null,
    "office_name_kana": null
  },
  "0002": {
    "zip_code": "2830002",
    "prefecture": "千葉県",
    "prefecture_kana": "チバケン",
    "prefecture_code": "12",
    "city": "東金市",
    "city_kana": "トウガネシ",
    "town": "求名",
    "town_kana": "グミョウ",
    "street": null,
    "office_name": null,
    "office_name_kana": null
  },
  "0003": {
    "zip_code": "2830003",
    "prefecture": "千葉県",
    "prefecture_kana": "チバケン",
    "prefecture_code": "12",
    "city": "東金市",
    "city_kana": "トウガネシ",
    "town": "道庭",
    "town_kana": "ドウニワ",
    "street": null,
    "office_name": null,
    "office_name_kana": null
  },
  "0004": {
    "zip_code": "2830004",
    "prefecture": "千葉県",
    "prefecture_kana": "チバケン",
    "prefecture_code": "12",
    "city": "東金市",
    "city_kana": "トウガネシ",
    "town": "二又",
    "town_kana": "フタマタ",
    "street": null,
    "office_name": null,
    "office_name_kana": null
  },
  "0005": {
    "zip_code": "2830005",
    "prefecture": "千葉県",
    "prefecture_kana": "チバケン",
    "prefecture_code": "12",
    "city": "東金市",
    "city_kana": "トウガネシ",
    "town": "田間",
    "town_kana": "タマ",
    "street": null,
    "office_name": null,
    "office_name_kana": null
  },
  "0006": {
    "zip_code": "2830006",
    "prefecture": "千葉県",
    "prefecture_kana": "チバケン",
    "prefecture_code": "12",
    "city": "東金市",
    "city_kana": "トウガネシ",
    "town": "東新宿",
    "town_kana": "ヒガシシンシュク",
    "street": null,
    "office_name": null,
    "office_name_kana": null
  },
  "0011": {
    "zip_code": "2830011",
    "prefecture": "千葉県",
    "prefecture_kana": "チバケン",
    "prefecture_code": "12",
    "city": "東金市",
    "city_kana": "トウガネシ",
    "town": "上武射田",
    "town_kana": "カミムザタ",
    "street": null,
    "office_name": null,
    "office_name_kana": null
  },
  "0012": {
    "zip_code": "2830012",
    "prefecture": "千葉県",
    "prefecture_kana": "チバケン",
    "prefecture_code": "12",
    "city": "東金市",
    "city_kana": "トウガネシ",
    "town": "下武射田",
    "town_kana": "シモムザタ",
    "street": null,
    "office_name": null,
    "office_name_kana": null
  },
  "0013": {
    "zip_code": "2830013",
    "prefecture": "千葉県",
    "prefecture_kana": "チバケン",
    "prefecture_code": "12",
    "city": "東金市",
    "city_kana": "トウガネシ",
    "town": "士農田",
    "town_kana": "シノダ",
    "street": null,
    "office_name": null,
    "office_name_kana": null
  },
  "0014": {
    "zip_code": "2830014",
    "prefecture": "千葉県",
    "prefecture_kana": "チバケン",
    "prefecture_code": "12",
    "city": "東金市",
    "city_kana": "トウガネシ",
    "town": "関内",
    "town_kana": "セキウチ",
    "street": null,
    "office_name": null,
    "office_name_kana": null
  },
  "0015": {
    "zip_code": "2830015",
    "prefecture": "千葉県",
    "prefecture_kana": "チバケン",
    "prefecture_code": "12",
    "city": "東金市",
    "city_kana": "トウガネシ",
    "town": "前之内",
    "town_kana": "マエノウチ",
    "street": null,
    "office_name": null,
    "office_name_kana": null
  },
  "0016": {
    "zip_code": "2830016",
    "prefecture": "千葉県",
    "prefecture_kana": "チバケン",
    "prefecture_code": "12",
    "city": "東金市",
    "city_kana": "トウガネシ",
    "town": "菱沼",
    "town_kana": "ヒシヌマ",
    "street": null,
    "office_name": null,
    "office_name_kana": null
  },
  "0021": {
    "zip_code": "2830021",
    "prefecture": "千葉県",
    "prefecture_kana": "チバケン",
    "prefecture_code": "12",
    "city": "東金市",
    "city_kana": "トウガネシ",
    "town": "東中",
    "town_kana": "ヒガシナカ",
    "street": null,
    "office_name": null,
    "office_name_kana": null
  },
  "0022": {
    "zip_code": "2830022",
    "prefecture": "千葉県",
    "prefecture_kana": "チバケン",
    "prefecture_code": "12",
    "city": "東金市",
    "city_kana": "トウガネシ",
    "town": "高倉",
    "town_kana": "タカクラ",
    "street": null,
    "office_name": null,
    "office_name_kana": null
  },
  "0023": {
    "zip_code": "2830023",
    "prefecture": "千葉県",
    "prefecture_kana": "チバケン",
    "prefecture_code": "12",
    "city": "東金市",
    "city_kana": "トウガネシ",
    "town": "宮",
    "town_kana": "ミヤ",
    "street": null,
    "office_name": null,
    "office_name_kana": null
  },
  "0024": {
    "zip_code": "2830024",
    "prefecture": "千葉県",
    "prefecture_kana": "チバケン",
    "prefecture_code": "12",
    "city": "東金市",
    "city_kana": "トウガネシ",
    "town": "御門",
    "town_kana": "ミカド",
    "street": null,
    "office_name": null,
    "office_name_kana": null
  },
  "0025": {
    "zip_code": "2830025",
    "prefecture": "千葉県",
    "prefecture_kana": "チバケン",
    "prefecture_code": "12",
    "city": "東金市",
    "city_kana": "トウガネシ",
    "town": "殿廻",
    "town_kana": "トノマワリ",
    "street": null,
    "office_name": null,
    "office_name_kana": null
  },
  "0026": {
    "zip_code": "2830026",
    "prefecture": "千葉県",
    "prefecture_kana": "チバケン",
    "prefecture_code": "12",
    "city": "東金市",
    "city_kana": "トウガネシ",
    "town": "中野",
    "town_kana": "ナカノ",
    "street": null,
    "office_name": null,
    "office_name_kana": null
  },
  "0027": {
    "zip_code": "2830027",
    "prefecture": "千葉県",
    "prefecture_kana": "チバケン",
    "prefecture_code": "12",
    "city": "東金市",
    "city_kana": "トウガネシ",
    "town": "堀之内",
    "town_kana": "ホリノウチ",
    "street": null,
    "office_name": null,
    "office_name_kana": null
  },
  "0028": {
    "zip_code": "2830028",
    "prefecture": "千葉県",
    "prefecture_kana": "チバケン",
    "prefecture_code": "12",
    "city": "東金市",
    "city_kana": "トウガネシ",
    "town": "三浦名",
    "town_kana": "ミウラミョウ",
    "street": null,
    "office_name": null,
    "office_name_kana": null
  },
  "0031": {
    "zip_code": "2830031",
    "prefecture": "千葉県",
    "prefecture_kana": "チバケン",
    "prefecture_code": "12",
    "city": "東金市",
    "city_kana": "トウガネシ",
    "town": "薄島",
    "town_kana": "ススキシマ",
    "street": null,
    "office_name": null,
    "office_name_kana": null
  },
  "0032": {
    "zip_code": "2830032",
    "prefecture": "千葉県",
    "prefecture_kana": "チバケン",
    "prefecture_code": "12",
    "city": "東金市",
    "city_kana": "トウガネシ",
    "town": "荒生",
    "town_kana": "アラオイ",
    "street": null,
    "office_name": null,
    "office_name_kana": null
  },
  "0033": {
    "zip_code": "2830033",
    "prefecture": "千葉県",
    "prefecture_kana": "チバケン",
    "prefecture_code": "12",
    "city": "東金市",
    "city_kana": "トウガネシ",
    "town": "宿",
    "town_kana": "シュク",
    "street": null,
    "office_name": null,
    "office_name_kana": null
  },
  "0034": {
    "zip_code": "2830034",
    "prefecture": "千葉県",
    "prefecture_kana": "チバケン",
    "prefecture_code": "12",
    "city": "東金市",
    "city_kana": "トウガネシ",
    "town": "大沼",
    "town_kana": "オオヌマ",
    "street": null,
    "office_name": null,
    "office_name_kana": null
  },
  "0035": {
    "zip_code": "2830035",
    "prefecture": "千葉県",
    "prefecture_kana": "チバケン",
    "prefecture_code": "12",
    "city": "東金市",
    "city_kana": "トウガネシ",
    "town": "粟生飛地",
    "town_kana": "アオトビチ",
    "street": null,
    "office_name": null,
    "office_name_kana": null
  },
  "0036": {
    "zip_code": "2830036",
    "prefecture": "千葉県",
    "prefecture_kana": "チバケン",
    "prefecture_code": "12",
    "city": "東金市",
    "city_kana": "トウガネシ",
    "town": "不動堂飛地",
    "town_kana": "フドウドウトビチ",
    "street": null,
    "office_name": null,
    "office_name_kana": null
  },
  "0037": {
    "zip_code": "2830037",
    "prefecture": "千葉県",
    "prefecture_kana": "チバケン",
    "prefecture_code": "12",
    "city": "東金市",
    "city_kana": "トウガネシ",
    "town": "細屋敷",
    "town_kana": "ホソヤシキ",
    "street": null,
    "office_name": null,
    "office_name_kana": null
  },
  "0038": {
    "zip_code": "2830038",
    "prefecture": "千葉県",
    "prefecture_kana": "チバケン",
    "prefecture_code": "12",
    "city": "東金市",
    "city_kana": "トウガネシ",
    "town": "関下",
    "town_kana": "セキシタ",
    "street": null,
    "office_name": null,
    "office_name_kana": null
  },
  "0041": {
    "zip_code": "2830041",
    "prefecture": "千葉県",
    "prefecture_kana": "チバケン",
    "prefecture_code": "12",
    "city": "東金市",
    "city_kana": "トウガネシ",
    "town": "広瀬",
    "town_kana": "ヒロセ",
    "street": null,
    "office_name": null,
    "office_name_kana": null
  },
  "0042": {
    "zip_code": "2830042",
    "prefecture": "千葉県",
    "prefecture_kana": "チバケン",
    "prefecture_code": "12",
    "city": "東金市",
    "city_kana": "トウガネシ",
    "town": "西野飛地",
    "town_kana": "ニシノトビチ",
    "street": null,
    "office_name": null,
    "office_name_kana": null
  },
  "0043": {
    "zip_code": "2830043",
    "prefecture": "千葉県",
    "prefecture_kana": "チバケン",
    "prefecture_code": "12",
    "city": "東金市",
    "city_kana": "トウガネシ",
    "town": "藤下飛地",
    "town_kana": "フジシタトビチ",
    "street": null,
    "office_name": null,
    "office_name_kana": null
  },
  "0044": {
    "zip_code": "2830044",
    "prefecture": "千葉県",
    "prefecture_kana": "チバケン",
    "prefecture_code": "12",
    "city": "東金市",
    "city_kana": "トウガネシ",
    "town": "小沼田",
    "town_kana": "コヌマタ",
    "street": null,
    "office_name": null,
    "office_name_kana": null
  },
  "0045": {
    "zip_code": "2830045",
    "prefecture": "千葉県",
    "prefecture_kana": "チバケン",
    "prefecture_code": "12",
    "city": "東金市",
    "city_kana": "トウガネシ",
    "town": "西中",
    "town_kana": "ニシナカ",
    "street": null,
    "office_name": null,
    "office_name_kana": null
  },
  "0046": {
    "zip_code": "2830046",
    "prefecture": "千葉県",
    "prefecture_kana": "チバケン",
    "prefecture_code": "12",
    "city": "東金市",
    "city_kana": "トウガネシ",
    "town": "上谷",
    "town_kana": "ウワヤ",
    "street": null,
    "office_name": null,
    "office_name_kana": null
  },
  "0047": {
    "zip_code": "2830047",
    "prefecture": "千葉県",
    "prefecture_kana": "チバケン",
    "prefecture_code": "12",
    "city": "東金市",
    "city_kana": "トウガネシ",
    "town": "北幸谷",
    "town_kana": "キタゴウヤ",
    "street": null,
    "office_name": null,
    "office_name_kana": null
  },
  "0048": {
    "zip_code": "2830048",
    "prefecture": "千葉県",
    "prefecture_kana": "チバケン",
    "prefecture_code": "12",
    "city": "東金市",
    "city_kana": "トウガネシ",
    "town": "幸田",
    "town_kana": "コウダ",
    "street": null,
    "office_name": null,
    "office_name_kana": null
  },
  "0051": {
    "zip_code": "2830051",
    "prefecture": "千葉県",
    "prefecture_kana": "チバケン",
    "prefecture_code": "12",
    "city": "東金市",
    "city_kana": "トウガネシ",
    "town": "大沼田",
    "town_kana": "オオヌマタ",
    "street": null,
    "office_name": null,
    "office_name_kana": null
  },
  "0052": {
    "zip_code": "2830052",
    "prefecture": "千葉県",
    "prefecture_kana": "チバケン",
    "prefecture_code": "12",
    "city": "東金市",
    "city_kana": "トウガネシ",
    "town": "二之袋",
    "town_kana": "ニノフクロ",
    "street": null,
    "office_name": null,
    "office_name_kana": null
  },
  "0053": {
    "zip_code": "2830053",
    "prefecture": "千葉県",
    "prefecture_kana": "チバケン",
    "prefecture_code": "12",
    "city": "東金市",
    "city_kana": "トウガネシ",
    "town": "東中島",
    "town_kana": "ヒガシナカジマ",
    "street": null,
    "office_name": null,
    "office_name_kana": null
  },
  "0054": {
    "zip_code": "2830054",
    "prefecture": "千葉県",
    "prefecture_kana": "チバケン",
    "prefecture_code": "12",
    "city": "東金市",
    "city_kana": "トウガネシ",
    "town": "下谷",
    "town_kana": "シモヤ",
    "street": null,
    "office_name": null,
    "office_name_kana": null
  },
  "0055": {
    "zip_code": "2830055",
    "prefecture": "千葉県",
    "prefecture_kana": "チバケン",
    "prefecture_code": "12",
    "city": "東金市",
    "city_kana": "トウガネシ",
    "town": "依古島",
    "town_kana": "ヨコジマ",
    "street": null,
    "office_name": null,
    "office_name_kana": null
  },
  "0056": {
    "zip_code": "2830056",
    "prefecture": "千葉県",
    "prefecture_kana": "チバケン",
    "prefecture_code": "12",
    "city": "東金市",
    "city_kana": "トウガネシ",
    "town": "砂古瀬",
    "town_kana": "イサゴゼ",
    "street": null,
    "office_name": null,
    "office_name_kana": null
  },
  "0057": {
    "zip_code": "2830057",
    "prefecture": "千葉県",
    "prefecture_kana": "チバケン",
    "prefecture_code": "12",
    "city": "東金市",
    "city_kana": "トウガネシ",
    "town": "一之袋",
    "town_kana": "イチノフクロ",
    "street": null,
    "office_name": null,
    "office_name_kana": null
  },
  "0061": {
    "zip_code": "2830061",
    "prefecture": "千葉県",
    "prefecture_kana": "チバケン",
    "prefecture_code": "12",
    "city": "東金市",
    "city_kana": "トウガネシ",
    "town": "北之幸谷",
    "town_kana": "キタノコウヤ",
    "street": null,
    "office_name": null,
    "office_name_kana": null
  },
  "0062": {
    "zip_code": "2830062",
    "prefecture": "千葉県",
    "prefecture_kana": "チバケン",
    "prefecture_code": "12",
    "city": "東金市",
    "city_kana": "トウガネシ",
    "town": "家徳",
    "town_kana": "カトク",
    "street": null,
    "office_name": null,
    "office_name_kana": null
  },
  "0063": {
    "zip_code": "2830063",
    "prefecture": "千葉県",
    "prefecture_kana": "チバケン",
    "prefecture_code": "12",
    "city": "東金市",
    "city_kana": "トウガネシ",
    "town": "堀上",
    "town_kana": "ホリアゲ",
    "street": null,
    "office_name": null,
    "office_name_kana": null
  },
  "0064": {
    "zip_code": "2830064",
    "prefecture": "千葉県",
    "prefecture_kana": "チバケン",
    "prefecture_code": "12",
    "city": "東金市",
    "city_kana": "トウガネシ",
    "town": "川場",
    "town_kana": "カワバ",
    "street": null,
    "office_name": null,
    "office_name_kana": null
  },
  "0065": {
    "zip_code": "2830065",
    "prefecture": "千葉県",
    "prefecture_kana": "チバケン",
    "prefecture_code": "12",
    "city": "東金市",
    "city_kana": "トウガネシ",
    "town": "押堀",
    "town_kana": "オシホリ",
    "street": null,
    "office_name": null,
    "office_name_kana": null
  },
  "0066": {
    "zip_code": "2830066",
    "prefecture": "千葉県",
    "prefecture_kana": "チバケン",
    "prefecture_code": "12",
    "city": "東金市",
    "city_kana": "トウガネシ",
    "town": "南上宿",
    "town_kana": "ミナミカミジュク",
    "street": null,
    "office_name": null,
    "office_name_kana": null
  },
  "0067": {
    "zip_code": "2830067",
    "prefecture": "千葉県",
    "prefecture_kana": "チバケン",
    "prefecture_code": "12",
    "city": "東金市",
    "city_kana": "トウガネシ",
    "town": "東上宿",
    "town_kana": "ヒガシカミジュク",
    "street": null,
    "office_name": null,
    "office_name_kana": null
  },
  "0068": {
    "zip_code": "2830068",
    "prefecture": "千葉県",
    "prefecture_kana": "チバケン",
    "prefecture_code": "12",
    "city": "東金市",
    "city_kana": "トウガネシ",
    "town": "東岩崎",
    "town_kana": "ヒガシイワサキ",
    "street": null,
    "office_name": null,
    "office_name_kana": null
  },
  "0100": {
    "zip_code": "2830100",
    "prefecture": "千葉県",
    "prefecture_kana": "チバケン",
    "prefecture_code": "12",
    "city": "山武郡九十九里町",
    "city_kana": "サンブグンクジュウクリマチ",
    "town": "",
    "town_kana": "",
    "street": null,
    "office_name": null,
    "office_name_kana": null
  },
  "0101": {
    "zip_code": "2830101",
    "prefecture": "千葉県",
    "prefecture_kana": "チバケン",
    "prefecture_code": "12",
    "city": "山武郡九十九里町",
    "city_kana": "サンブグンクジュウクリマチ",
    "town": "作田",
    "town_kana": "サクダ",
    "street": null,
    "office_name": null,
    "office_name_kana": null
  },
  "0102": {
    "zip_code": "2830102",
    "prefecture": "千葉県",
    "prefecture_kana": "チバケン",
    "prefecture_code": "12",
    "city": "山武郡九十九里町",
    "city_kana": "サンブグンクジュウクリマチ",
    "town": "小関",
    "town_kana": "コセキ",
    "street": null,
    "office_name": null,
    "office_name_kana": null
  },
  "0103": {
    "zip_code": "2830103",
    "prefecture": "千葉県",
    "prefecture_kana": "チバケン",
    "prefecture_code": "12",
    "city": "山武郡九十九里町",
    "city_kana": "サンブグンクジュウクリマチ",
    "town": "田中荒生",
    "town_kana": "タナカアラオイ",
    "street": null,
    "office_name": null,
    "office_name_kana": null
  },
  "0104": {
    "zip_code": "2830104",
    "prefecture": "千葉県",
    "prefecture_kana": "チバケン",
    "prefecture_code": "12",
    "city": "山武郡九十九里町",
    "city_kana": "サンブグンクジュウクリマチ",
    "town": "片貝",
    "town_kana": "カタカイ",
    "street": null,
    "office_name": null,
    "office_name_kana": null
  },
  "0105": {
    "zip_code": "2830105",
    "prefecture": "千葉県",
    "prefecture_kana": "チバケン",
    "prefecture_code": "12",
    "city": "山武郡九十九里町",
    "city_kana": "サンブグンクジュウクリマチ",
    "town": "粟生",
    "town_kana": "アオ",
    "street": null,
    "office_name": null,
    "office_name_kana": null
  },
  "0106": {
    "zip_code": "2830106",
    "prefecture": "千葉県",
    "prefecture_kana": "チバケン",
    "prefecture_code": "12",
    "city": "山武郡九十九里町",
    "city_kana": "サンブグンクジュウクリマチ",
    "town": "宿",
    "town_kana": "シュク",
    "street": null,
    "office_name": null,
    "office_name_kana": null
  },
  "0107": {
    "zip_code": "2830107",
    "prefecture": "千葉県",
    "prefecture_kana": "チバケン",
    "prefecture_code": "12",
    "city": "山武郡九十九里町",
    "city_kana": "サンブグンクジュウクリマチ",
    "town": "荒生",
    "town_kana": "アラオイ",
    "street": null,
    "office_name": null,
    "office_name_kana": null
  },
  "0111": {
    "zip_code": "2830111",
    "prefecture": "千葉県",
    "prefecture_kana": "チバケン",
    "prefecture_code": "12",
    "city": "山武郡九十九里町",
    "city_kana": "サンブグンクジュウクリマチ",
    "town": "細屋敷",
    "town_kana": "ホソヤシキ",
    "street": null,
    "office_name": null,
    "office_name_kana": null
  },
  "0112": {
    "zip_code": "2830112",
    "prefecture": "千葉県",
    "prefecture_kana": "チバケン",
    "prefecture_code": "12",
    "city": "山武郡九十九里町",
    "city_kana": "サンブグンクジュウクリマチ",
    "town": "藤下",
    "town_kana": "フジシタ",
    "street": null,
    "office_name": null,
    "office_name_kana": null
  },
  "0113": {
    "zip_code": "2830113",
    "prefecture": "千葉県",
    "prefecture_kana": "チバケン",
    "prefecture_code": "12",
    "city": "山武郡九十九里町",
    "city_kana": "サンブグンクジュウクリマチ",
    "town": "不動堂",
    "town_kana": "フドウドウ",
    "street": null,
    "office_name": null,
    "office_name_kana": null
  },
  "0114": {
    "zip_code": "2830114",
    "prefecture": "千葉県",
    "prefecture_kana": "チバケン",
    "prefecture_code": "12",
    "city": "山武郡九十九里町",
    "city_kana": "サンブグンクジュウクリマチ",
    "town": "真亀",
    "town_kana": "マガメ",
    "street": null,
    "office_name": null,
    "office_name_kana": null
  },
  "0115": {
    "zip_code": "2830115",
    "prefecture": "千葉県",
    "prefecture_kana": "チバケン",
    "prefecture_code": "12",
    "city": "山武郡九十九里町",
    "city_kana": "サンブグンクジュウクリマチ",
    "town": "真亀新田",
    "town_kana": "マガメシンデン",
    "street": null,
    "office_name": null,
    "office_name_kana": null
  },
  "0116": {
    "zip_code": "2830116",
    "prefecture": "千葉県",
    "prefecture_kana": "チバケン",
    "prefecture_code": "12",
    "city": "山武郡九十九里町",
    "city_kana": "サンブグンクジュウクリマチ",
    "town": "西野",
    "town_kana": "ニシノ",
    "street": null,
    "office_name": null,
    "office_name_kana": null
  },
  "0117": {
    "zip_code": "2830117",
    "prefecture": "千葉県",
    "prefecture_kana": "チバケン",
    "prefecture_code": "12",
    "city": "山武郡九十九里町",
    "city_kana": "サンブグンクジュウクリマチ",
    "town": "下貝塚",
    "town_kana": "シモカイヅカ",
    "street": null,
    "office_name": null,
    "office_name_kana": null
  },
  "0195": {
    "zip_code": "2830195",
    "prefecture": "千葉県",
    "prefecture_kana": "チバケン",
    "prefecture_code": "12",
    "city": "山武郡九十九里町",
    "city_kana": "サンブグンクジュウクリマチ",
    "town": "片貝",
    "town_kana": "カタカイ",
    "street": "４０９９",
    "office_name": "九十九里町役場",
    "office_name_kana": "クジユウクリマチヤクバ"
  },
  "0801": {
    "zip_code": "2830801",
    "prefecture": "千葉県",
    "prefecture_kana": "チバケン",
    "prefecture_code": "12",
    "city": "東金市",
    "city_kana": "トウガネシ",
    "town": "八坂台",
    "town_kana": "ヤサカダイ",
    "street": null,
    "office_name": null,
    "office_name_kana": null
  },
  "0802": {
    "zip_code": "2830802",
    "prefecture": "千葉県",
    "prefecture_kana": "チバケン",
    "prefecture_code": "12",
    "city": "東金市",
    "city_kana": "トウガネシ",
    "town": "東金",
    "town_kana": "トウガネ",
    "street": null,
    "office_name": null,
    "office_name_kana": null
  },
  "0803": {
    "zip_code": "2830803",
    "prefecture": "千葉県",
    "prefecture_kana": "チバケン",
    "prefecture_code": "12",
    "city": "東金市",
    "city_kana": "トウガネシ",
    "town": "日吉台",
    "town_kana": "ヒヨシダイ",
    "street": null,
    "office_name": null,
    "office_name_kana": null
  },
  "0804": {
    "zip_code": "2830804",
    "prefecture": "千葉県",
    "prefecture_kana": "チバケン",
    "prefecture_code": "12",
    "city": "東金市",
    "city_kana": "トウガネシ",
    "town": "油井",
    "town_kana": "ユイ",
    "street": null,
    "office_name": null,
    "office_name_kana": null
  },
  "0805": {
    "zip_code": "2830805",
    "prefecture": "千葉県",
    "prefecture_kana": "チバケン",
    "prefecture_code": "12",
    "city": "東金市",
    "city_kana": "トウガネシ",
    "town": "松之郷",
    "town_kana": "マツノゴウ",
    "street": null,
    "office_name": null,
    "office_name_kana": null
  },
  "0811": {
    "zip_code": "2830811",
    "prefecture": "千葉県",
    "prefecture_kana": "チバケン",
    "prefecture_code": "12",
    "city": "東金市",
    "city_kana": "トウガネシ",
    "town": "台方",
    "town_kana": "ダイカタ",
    "street": null,
    "office_name": null,
    "office_name_kana": null
  },
  "0812": {
    "zip_code": "2830812",
    "prefecture": "千葉県",
    "prefecture_kana": "チバケン",
    "prefecture_code": "12",
    "city": "東金市",
    "city_kana": "トウガネシ",
    "town": "福俵",
    "town_kana": "フクタワラ",
    "street": null,
    "office_name": null,
    "office_name_kana": null
  },
  "0813": {
    "zip_code": "2830813",
    "prefecture": "千葉県",
    "prefecture_kana": "チバケン",
    "prefecture_code": "12",
    "city": "東金市",
    "city_kana": "トウガネシ",
    "town": "山口",
    "town_kana": "ヤマグチ",
    "street": null,
    "office_name": null,
    "office_name_kana": null
  },
  "0814": {
    "zip_code": "2830814",
    "prefecture": "千葉県",
    "prefecture_kana": "チバケン",
    "prefecture_code": "12",
    "city": "東金市",
    "city_kana": "トウガネシ",
    "town": "田中",
    "town_kana": "タナカ",
    "street": null,
    "office_name": null,
    "office_name_kana": null
  },
  "0815": {
    "zip_code": "2830815",
    "prefecture": "千葉県",
    "prefecture_kana": "チバケン",
    "prefecture_code": "12",
    "city": "東金市",
    "city_kana": "トウガネシ",
    "town": "大豆谷",
    "town_kana": "マメザク",
    "street": null,
    "office_name": null,
    "office_name_kana": null
  },
  "0816": {
    "zip_code": "2830816",
    "prefecture": "千葉県",
    "prefecture_kana": "チバケン",
    "prefecture_code": "12",
    "city": "東金市",
    "city_kana": "トウガネシ",
    "town": "西福俵",
    "town_kana": "ニシフクタワラ",
    "street": null,
    "office_name": null,
    "office_name_kana": null
  },
  "0821": {
    "zip_code": "2830821",
    "prefecture": "千葉県",
    "prefecture_kana": "チバケン",
    "prefecture_code": "12",
    "city": "東金市",
    "city_kana": "トウガネシ",
    "town": "小野",
    "town_kana": "オノ",
    "street": null,
    "office_name": null,
    "office_name_kana": null
  },
  "0822": {
    "zip_code": "2830822",
    "prefecture": "千葉県",
    "prefecture_kana": "チバケン",
    "prefecture_code": "12",
    "city": "東金市",
    "city_kana": "トウガネシ",
    "town": "季美の森東",
    "town_kana": "キミノモリヒガシ",
    "street": null,
    "office_name": null,
    "office_name_kana": null
  },
  "0823": {
    "zip_code": "2830823",
    "prefecture": "千葉県",
    "prefecture_kana": "チバケン",
    "prefecture_code": "12",
    "city": "東金市",
    "city_kana": "トウガネシ",
    "town": "山田",
    "town_kana": "ヤマダ",
    "street": null,
    "office_name": null,
    "office_name_kana": null
  },
  "0824": {
    "zip_code": "2830824",
    "prefecture": "千葉県",
    "prefecture_kana": "チバケン",
    "prefecture_code": "12",
    "city": "東金市",
    "city_kana": "トウガネシ",
    "town": "丹尾",
    "town_kana": "タンノオ",
    "street": null,
    "office_name": null,
    "office_name_kana": null
  },
  "0825": {
    "zip_code": "2830825",
    "prefecture": "千葉県",
    "prefecture_kana": "チバケン",
    "prefecture_code": "12",
    "city": "東金市",
    "city_kana": "トウガネシ",
    "town": "滝",
    "town_kana": "タキ",
    "street": null,
    "office_name": null,
    "office_name_kana": null
  },
  "0826": {
    "zip_code": "2830826",
    "prefecture": "千葉県",
    "prefecture_kana": "チバケン",
    "prefecture_code": "12",
    "city": "東金市",
    "city_kana": "トウガネシ",
    "town": "丘山台",
    "town_kana": "オカヤマダイ",
    "street": null,
    "office_name": null,
    "office_name_kana": null
  },
  "0831": {
    "zip_code": "2830831",
    "prefecture": "千葉県",
    "prefecture_kana": "チバケン",
    "prefecture_code": "12",
    "city": "東金市",
    "city_kana": "トウガネシ",
    "town": "酒蔵",
    "town_kana": "シュゾウ",
    "street": null,
    "office_name": null,
    "office_name_kana": null
  },
  "0832": {
    "zip_code": "2830832",
    "prefecture": "千葉県",
    "prefecture_kana": "チバケン",
    "prefecture_code": "12",
    "city": "東金市",
    "city_kana": "トウガネシ",
    "town": "三ケ尻",
    "town_kana": "ミカジリ",
    "street": null,
    "office_name": null,
    "office_name_kana": null
  },
  "0833": {
    "zip_code": "2830833",
    "prefecture": "千葉県",
    "prefecture_kana": "チバケン",
    "prefecture_code": "12",
    "city": "東金市",
    "city_kana": "トウガネシ",
    "town": "滝沢",
    "town_kana": "タキサワ",
    "street": null,
    "office_name": null,
    "office_name_kana": null
  },
  "0834": {
    "zip_code": "2830834",
    "prefecture": "千葉県",
    "prefecture_kana": "チバケン",
    "prefecture_code": "12",
    "city": "東金市",
    "city_kana": "トウガネシ",
    "town": "上布田",
    "town_kana": "カミフダ",
    "street": null,
    "office_name": null,
    "office_name_kana": null
  },
  "0835": {
    "zip_code": "2830835",
    "prefecture": "千葉県",
    "prefecture_kana": "チバケン",
    "prefecture_code": "12",
    "city": "東金市",
    "city_kana": "トウガネシ",
    "town": "極楽寺",
    "town_kana": "ゴクラクジ",
    "street": null,
    "office_name": null,
    "office_name_kana": null
  },
  "8501": {
    "zip_code": "2838501",
    "prefecture": "千葉県",
    "prefecture_kana": "チバケン",
    "prefecture_code": "12",
    "city": "東金市",
    "city_kana": "トウガネシ",
    "town": "東新宿",
    "town_kana": "ヒガシシンシュク",
    "street": "１−１−１１",
    "office_name": "千葉県東金県税事務所",
    "office_name_kana": "チバケントウガネケンゼイジムシヨ"
  },
  "8511": {
    "zip_code": "2838511",
    "prefecture": "千葉県",
    "prefecture_kana": "チバケン",
    "prefecture_code": "12",
    "city": "東金市",
    "city_kana": "トウガネシ",
    "town": "東岩崎",
    "town_kana": "ヒガシイワサキ",
    "street": "１−１",
    "office_name": "東金市役所",
    "office_name_kana": "トウガネシヤクシヨ"
  },
  "8555": {
    "zip_code": "2838555",
    "prefecture": "千葉県",
    "prefecture_kana": "チバケン",
    "prefecture_code": "12",
    "city": "東金市",
    "city_kana": "トウガネシ",
    "town": "求名",
    "town_kana": "グミョウ",
    "street": "１",
    "office_name": "城西国際大学",
    "office_name_kana": "ジヨウサイコクサイダイガク"
  },
  "8588": {
    "zip_code": "2838588",
    "prefecture": "千葉県",
    "prefecture_kana": "チバケン",
    "prefecture_code": "12",
    "city": "東金市",
    "city_kana": "トウガネシ",
    "town": "台方",
    "town_kana": "ダイカタ",
    "street": "１２２９",
    "office_name": "千葉県立東金病院",
    "office_name_kana": "チバケンリツトウガネビヨウイン"
  },
  "8650": {
    "zip_code": "2838650",
    "prefecture": "千葉県",
    "prefecture_kana": "チバケン",
    "prefecture_code": "12",
    "city": "東金市",
    "city_kana": "トウガネシ",
    "town": "家徳",
    "town_kana": "カトク",
    "street": "３８−１（東金郵便局私書箱第８号）",
    "office_name": "医療法人　静和会　浅井病院",
    "office_name_kana": "イリヨウホウジン セイワカイ アサイビヨウイン"
  },
  "8686": {
    "zip_code": "2838686",
    "prefecture": "千葉県",
    "prefecture_kana": "チバケン",
    "prefecture_code": "12",
    "city": "東金市",
    "city_kana": "トウガネシ",
    "town": "丘山台",
    "town_kana": "オカヤマダイ",
    "street": "三丁目６番２",
    "office_name": "地方独立行政法人　東金九十九里地域医療センター　東千葉メディカルセンター",
    "office_name_kana": "チホウドクリツギヨウセイホウジン トウガネクジユウクリチイキイリヨウセンタ- ヒガシチバメデイカルセンタ-"
  }
}