{
  "0000": {
    "zip_code": "2840000",
    "prefecture": "千葉県",
    "prefecture_kana": "チバケン",
    "prefecture_code": "12",
    "city": "四街道市",
    "city_kana": "ヨツカイドウシ",
    "town": "",
    "town_kana": "",
    "street": null,
    "office_name": null,
    "office_name_kana": null
  },
  "0001": {
    "zip_code": "2840001",
    "prefecture": "千葉県",
    "prefecture_kana": "チバケン",
    "prefecture_code": "12",
    "city": "四街道市",
    "city_kana": "ヨツカイドウシ",
    "town": "大日",
    "town_kana": "ダイニチ",
    "street": null,
    "office_name": null,
    "office_name_kana": null
  },
  "0002": {
    "zip_code": "2840002",
    "prefecture": "千葉県",
    "prefecture_kana": "チバケン",
    "prefecture_code": "12",
    "city": "四街道市",
    "city_kana": "ヨツカイドウシ",
    "town": "萱橋",
    "town_kana": "カヤハシ",
    "street": null,
    "office_name": null,
    "office_name_kana": null
  },
  "0003": {
    "zip_code": "2840003",
    "prefecture": "千葉県",
    "prefecture_kana": "チバケン",
    "prefecture_code": "12",
    "city": "四街道市",
    "city_kana": "ヨツカイドウシ",
    "town": "鹿渡",
    "town_kana": "シカワタシ",
    "street": null,
    "office_name": null,
    "office_name_kana": null
  },
  "0004": {
    "zip_code": "2840004",
    "prefecture": "千葉県",
    "prefecture_kana": "チバケン",
    "prefecture_code": "12",
    "city": "四街道市",
    "city_kana": "ヨツカイドウシ",
    "town": "みのり町",
    "town_kana": "ミノリチョウ",
    "street": null,
    "office_name": null,
    "office_name_kana": null
  },
  "0005": {
    "zip_code": "2840005",
    "prefecture": "千葉県",
    "prefecture_kana": "チバケン",
    "prefecture_code": "12",
    "city": "四街道市",
    "city_kana": "ヨツカイドウシ",
    "town": "四街道",
    "town_kana": "ヨツカイドウ",
    "street": null,
    "office_name": null,
    "office_name_kana": null
  },
  "0006": {
    "zip_code": "2840006",
    "prefecture": "千葉県",
    "prefecture_kana": "チバケン",
    "prefecture_code": "12",
    "city": "四街道市",
    "city_kana": "ヨツカイドウシ",
    "town": "下志津新田",
    "town_kana": "シモシヅシンデン",
    "street": null,
    "office_name": null,
    "office_name_kana": null
  },
  "0007": {
    "zip_code": "2840007",
    "prefecture": "千葉県",
    "prefecture_kana": "チバケン",
    "prefecture_code": "12",
    "city": "四街道市",
    "city_kana": "ヨツカイドウシ",
    "town": "さつきケ丘",
    "town_kana": "サツキガオカ",
    "street": null,
    "office_name": null,
    "office_name_kana": null
  },
  "0008": {
    "zip_code": "2840008",
    "prefecture": "千葉県",
    "prefecture_kana": "チバケン",
    "prefecture_code": "12",
    "city": "四街道市",
    "city_kana": "ヨツカイドウシ",
    "town": "鹿放ケ丘",
    "town_kana": "ロッポウガオカ",
    "street": null,
    "office_name": null,
    "office_name_kana": null
  },
  "0009": {
    "zip_code": "2840009",
    "prefecture": "千葉県",
    "prefecture_kana": "チバケン",
    "prefecture_code": "12",
    "city": "四街道市",
    "city_kana": "ヨツカイドウシ",
    "town": "中央",
    "town_kana": "チュウオウ",
    "street": null,
    "office_name": null,
    "office_name_kana": null
  },
  "0011": {
    "zip_code": "2840011",
    "prefecture": "千葉県",
    "prefecture_kana": "チバケン",
    "prefecture_code": "12",
    "city": "四街道市",
    "city_kana": "ヨツカイドウシ",
    "town": "亀崎",
    "town_kana": "カメザキ",
    "street": null,
    "office_name": null,
    "office_name_kana": null
  },
  "0012": {
    "zip_code": "2840012",
    "prefecture": "千葉県",
    "prefecture_kana": "チバケン",
    "prefecture_code": "12",
    "city": "四街道市",
    "city_kana": "ヨツカイドウシ",
    "town": "物井",
    "town_kana": "モノイ",
    "street": null,
    "office_name": null,
    "office_name_kana": null
  },
  "0013": {
    "zip_code": "2840013",
    "prefecture": "千葉県",
    "prefecture_kana": "チバケン",
    "prefecture_code": "12",
    "city": "四街道市",
    "city_kana": "ヨツカイドウシ",
    "town": "内黒田",
    "town_kana": "ウチクロダ",
    "street": null,
    "office_name": null,
    "office_name_kana": null
  },
  "0014": {
    "zip_code": "2840014",
    "prefecture": "千葉県",
    "prefecture_kana": "チバケン",
    "prefecture_code": "12",
    "city": "四街道市",
    "city_kana": "ヨツカイドウシ",
    "town": "池花",
    "town_kana": "イケハナ",
    "street": null,
    "office_name": null,
    "office_name_kana": null
  },
  "0015": {
    "zip_code": "2840015",
    "prefecture": "千葉県",
    "prefecture_kana": "チバケン",
    "prefecture_code": "12",
    "city": "四街道市",
    "city_kana": "ヨツカイドウシ",
    "town": "千代田",
    "town_kana": "チヨダ",
    "street": null,
    "office_name": null,
    "office_name_kana": null
  },
  "0016": {
    "zip_code": "2840016",
    "prefecture": "千葉県",
    "prefecture_kana": "チバケン",
    "prefecture_code": "12",
    "city": "四街道市",
    "city_kana": "ヨツカイドウシ",
    "town": "もねの里",
    "town_kana": "モネノサト",
    "street": null,
    "office_name": null,
    "office_name_kana": null
  },
  "0021": {
    "zip_code": "2840021",
    "prefecture": "千葉県",
    "prefecture_kana": "チバケン",
    "prefecture_code": "12",
    "city": "四街道市",
    "city_kana": "ヨツカイドウシ",
    "town": "長岡",
    "town_kana": "ナガオカ",
    "street": null,
    "office_name": null,
    "office_name_kana": null
  },
  "0022": {
    "zip_code": "2840022",
    "prefecture": "千葉県",
    "prefecture_kana": "チバケン",
    "prefecture_code": "12",
    "city": "四街道市",
    "city_kana": "ヨツカイドウシ",
    "town": "山梨",
    "town_kana": "ヤマナシ",
    "street": null,
    "office_name": null,
    "office_name_kana": null
  },
  "0023": {
    "zip_code": "2840023",
    "prefecture": "千葉県",
    "prefecture_kana": "チバケン",
    "prefecture_code": "12",
    "city": "四街道市",
    "city_kana": "ヨツカイドウシ",
    "town": "みそら",
    "town_kana": "ミソラ",
    "street": null,
    "office_name": null,
    "office_name_kana": null
  },
  "0024": {
    "zip_code": "2840024",
    "prefecture": "千葉県",
    "prefecture_kana": "チバケン",
    "prefecture_code": "12",
    "city": "四街道市",
    "city_kana": "ヨツカイドウシ",
    "town": "旭ケ丘",
    "town_kana": "アサヒガオカ",
    "street": null,
    "office_name": null,
    "office_name_kana": null
  },
  "0025": {
    "zip_code": "2840025",
    "prefecture": "千葉県",
    "prefecture_kana": "チバケン",
    "prefecture_code": "12",
    "city": "四街道市",
    "city_kana": "ヨツカイドウシ",
    "town": "さちが丘",
    "town_kana": "サチガオカ",
    "street": null,
    "office_name": null,
    "office_name_kana": null
  },
  "0026": {
    "zip_code": "2840026",
    "prefecture": "千葉県",
    "prefecture_kana": "チバケン",
    "prefecture_code": "12",
    "city": "四街道市",
    "city_kana": "ヨツカイドウシ",
    "town": "つくし座",
    "town_kana": "ツクシザ",
    "street": null,
    "office_name": null,
    "office_name_kana": null
  },
  "0027": {
    "zip_code": "2840027",
    "prefecture": "千葉県",
    "prefecture_kana": "チバケン",
    "prefecture_code": "12",
    "city": "四街道市",
    "city_kana": "ヨツカイドウシ",
    "town": "栗山",
    "town_kana": "クリヤマ",
    "street": null,
    "office_name": null,
    "office_name_kana": null
  },
  "0031": {
    "zip_code": "2840031",
    "prefecture": "千葉県",
    "prefecture_kana": "チバケン",
    "prefecture_code": "12",
    "city": "四街道市",
    "city_kana": "ヨツカイドウシ",
    "town": "成山",
    "town_kana": "ナリヤマ",
    "street": null,
    "office_name": null,
    "office_name_kana": null
  },
  "0032": {
    "zip_code": "2840032",
    "prefecture": "千葉県",
    "prefecture_kana": "チバケン",
    "prefecture_code": "12",
    "city": "四街道市",
    "city_kana": "ヨツカイドウシ",
    "town": "吉岡",
    "town_kana": "ヨシオカ",
    "street": null,
    "office_name": null,
    "office_name_kana": null
  },
  "0033": {
    "zip_code": "2840033",
    "prefecture": "千葉県",
    "prefecture_kana": "チバケン",
    "prefecture_code": "12",
    "city": "四街道市",
    "city_kana": "ヨツカイドウシ",
    "town": "鷹の台",
    "town_kana": "タカノダイ",
    "street": null,
    "office_name": null,
    "office_name_kana": null
  },
  "0034": {
    "zip_code": "2840034",
    "prefecture": "千葉県",
    "prefecture_kana": "チバケン",
    "prefecture_code": "12",
    "city": "四街道市",
    "city_kana": "ヨツカイドウシ",
    "town": "南波佐間",
    "town_kana": "ナバサマ",
    "street": null,
    "office_name": null,
    "office_name_kana": null
  },
  "0035": {
    "zip_code": "2840035",
    "prefecture": "千葉県",
    "prefecture_kana": "チバケン",
    "prefecture_code": "12",
    "city": "四街道市",
    "city_kana": "ヨツカイドウシ",
    "town": "和田",
    "town_kana": "ワダ",
    "street": null,
    "office_name": null,
    "office_name_kana": null
  },
  "0036": {
    "zip_code": "2840036",
    "prefecture": "千葉県",
    "prefecture_kana": "チバケン",
    "prefecture_code": "12",
    "city": "四街道市",
    "city_kana": "ヨツカイドウシ",
    "town": "中野",
    "town_kana": "ナカノ",
    "street": null,
    "office_name": null,
    "office_name_kana": null
  },
  "0037": {
    "zip_code": "2840037",
    "prefecture": "千葉県",
    "prefecture_kana": "チバケン",
    "prefecture_code": "12",
    "city": "四街道市",
    "city_kana": "ヨツカイドウシ",
    "town": "中台",
    "town_kana": "ナカダイ",
    "street": null,
    "office_name": null,
    "office_name_kana": null
  },
  "0041": {
    "zip_code": "2840041",
    "prefecture": "千葉県",
    "prefecture_kana": "チバケン",
    "prefecture_code": "12",
    "city": "四街道市",
    "city_kana": "ヨツカイドウシ",
    "town": "上野",
    "town_kana": "ウエノ",
    "street": null,
    "office_name": null,
    "office_name_kana": null
  },
  "0042": {
    "zip_code": "2840042",
    "prefecture": "千葉県",
    "prefecture_kana": "チバケン",
    "prefecture_code": "12",
    "city": "四街道市",
    "city_kana": "ヨツカイドウシ",
    "town": "小名木",
    "town_kana": "オナギ",
    "street": null,
    "office_name": null,
    "office_name_kana": null
  },
  "0043": {
    "zip_code": "2840043",
    "prefecture": "千葉県",
    "prefecture_kana": "チバケン",
    "prefecture_code": "12",
    "city": "四街道市",
    "city_kana": "ヨツカイドウシ",
    "town": "めいわ",
    "town_kana": "メイワ",
    "street": null,
    "office_name": null,
    "office_name_kana": null
  },
  "0044": {
    "zip_code": "2840044",
    "prefecture": "千葉県",
    "prefecture_kana": "チバケン",
    "prefecture_code": "12",
    "city": "四街道市",
    "city_kana": "ヨツカイドウシ",
    "town": "和良比",
    "town_kana": "ワラビ",
    "street": null,
    "office_name": null,
    "office_name_kana": null
  },
  "0045": {
    "zip_code": "2840045",
    "prefecture": "千葉県",
    "prefecture_kana": "チバケン",
    "prefecture_code": "12",
    "city": "四街道市",
    "city_kana": "ヨツカイドウシ",
    "town": "美しが丘",
    "town_kana": "ウツクシガオカ",
    "street": null,
    "office_name": null,
    "office_name_kana": null
  },
  "8555": {
    "zip_code": "2848555",
    "prefecture": "千葉県",
    "prefecture_kana": "チバケン",
    "prefecture_code": "12",
    "city": "四街道市",
    "city_kana": "ヨツカイドウシ",
    "town": "鹿渡",
    "town_kana": "シカワタシ",
    "street": "無番地",
    "office_name": "四街道市役所",
    "office_name_kana": "ヨツカイドウシヤクシヨ"
  }
}