{
  "0000": {
    "zip_code": "2870000",
    "prefecture": "千葉県",
    "prefecture_kana": "チバケン",
    "prefecture_code": 12,
    "city": "香取市",
    "city_kana": "カトリシ",
    "town": "",
    "town_kana": "",
    "street": null,
    "office_name": null,
    "office_name_kana": null
  },
  "0001": {
    "zip_code": "2870001",
    "prefecture": "千葉県",
    "prefecture_kana": "チバケン",
    "prefecture_code": 12,
    "city": "香取市",
    "city_kana": "カトリシ",
    "town": "佐原ロ",
    "town_kana": "サワラロ",
    "street": null,
    "office_name": null,
    "office_name_kana": null
  },
  "0002": {
    "zip_code": "2870002",
    "prefecture": "千葉県",
    "prefecture_kana": "チバケン",
    "prefecture_code": 12,
    "city": "香取市",
    "city_kana": "カトリシ",
    "town": "北",
    "town_kana": "キタ",
    "street": null,
    "office_name": null,
    "office_name_kana": null
  },
  "0003": {
    "zip_code": "2870003",
    "prefecture": "千葉県",
    "prefecture_kana": "チバケン",
    "prefecture_code": 12,
    "city": "香取市",
    "city_kana": "カトリシ",
    "town": "佐原イ",
    "town_kana": "サワライ",
    "street": null,
    "office_name": null,
    "office_name_kana": null
  },
  "0004": {
    "zip_code": "2870004",
    "prefecture": "千葉県",
    "prefecture_kana": "チバケン",
    "prefecture_code": 12,
    "city": "香取市",
    "city_kana": "カトリシ",
    "town": "岩ケ崎台",
    "town_kana": "イワガサキダイ",
    "street": null,
    "office_name": null,
    "office_name_kana": null
  },
  "0005": {
    "zip_code": "2870005",
    "prefecture": "千葉県",
    "prefecture_kana": "チバケン",
    "prefecture_code": 12,
    "city": "香取市",
    "city_kana": "カトリシ",
    "town": "佐原ホ",
    "town_kana": "サワラホ",
    "street": null,
    "office_name": null,
    "office_name_kana": null
  },
  "0006": {
    "zip_code": "2870006",
    "prefecture": "千葉県",
    "prefecture_kana": "チバケン",
    "prefecture_code": 12,
    "city": "香取市",
    "city_kana": "カトリシ",
    "town": "篠原イ",
    "town_kana": "シノハライ",
    "street": null,
    "office_name": null,
    "office_name_kana": null
  },
  "0011": {
    "zip_code": "2870011",
    "prefecture": "千葉県",
    "prefecture_kana": "チバケン",
    "prefecture_code": 12,
    "city": "香取市",
    "city_kana": "カトリシ",
    "town": "津宮",
    "town_kana": "ツノミヤ",
    "street": null,
    "office_name": null,
    "office_name_kana": null
  },
  "0012": {
    "zip_code": "2870012",
    "prefecture": "千葉県",
    "prefecture_kana": "チバケン",
    "prefecture_code": 12,
    "city": "香取市",
    "city_kana": "カトリシ",
    "town": "大倉丁子",
    "town_kana": "オオクラヨウロゴ",
    "street": null,
    "office_name": null,
    "office_name_kana": null
  },
  "0013": {
    "zip_code": "2870013",
    "prefecture": "千葉県",
    "prefecture_kana": "チバケン",
    "prefecture_code": 12,
    "city": "香取市",
    "city_kana": "カトリシ",
    "town": "大倉",
    "town_kana": "オオクラ",
    "street": null,
    "office_name": null,
    "office_name_kana": null
  },
  "0014": {
    "zip_code": "2870014",
    "prefecture": "千葉県",
    "prefecture_kana": "チバケン",
    "prefecture_code": 12,
    "city": "香取市",
    "city_kana": "カトリシ",
    "town": "多田",
    "town_kana": "タダ",
    "street": null,
    "office_name": null,
    "office_name_kana": null
  },
  "0015": {
    "zip_code": "2870015",
    "prefecture": "千葉県",
    "prefecture_kana": "チバケン",
    "prefecture_code": 12,
    "city": "香取市",
    "city_kana": "カトリシ",
    "town": "吉原",
    "town_kana": "ヨシワラ",
    "street": null,
    "office_name": null,
    "office_name_kana": null
  },
  "0016": {
    "zip_code": "2870016",
    "prefecture": "千葉県",
    "prefecture_kana": "チバケン",
    "prefecture_code": 12,
    "city": "香取市",
    "city_kana": "カトリシ",
    "town": "新市場",
    "town_kana": "ニイチバ",
    "street": null,
    "office_name": null,
    "office_name_kana": null
  },
  "0017": {
    "zip_code": "2870017",
    "prefecture": "千葉県",
    "prefecture_kana": "チバケン",
    "prefecture_code": 12,
    "city": "香取市",
    "city_kana": "カトリシ",
    "town": "香取",
    "town_kana": "カトリ",
    "street": null,
    "office_name": null,
    "office_name_kana": null
  },
  "0018": {
    "zip_code": "2870018",
    "prefecture": "千葉県",
    "prefecture_kana": "チバケン",
    "prefecture_code": 12,
    "city": "香取市",
    "city_kana": "カトリシ",
    "town": "丁子",
    "town_kana": "ヨウロゴ",
    "street": null,
    "office_name": null,
    "office_name_kana": null
  },
  "0021": {
    "zip_code": "2870021",
    "prefecture": "千葉県",
    "prefecture_kana": "チバケン",
    "prefecture_code": 12,
    "city": "香取市",
    "city_kana": "カトリシ",
    "town": "下小野",
    "town_kana": "シモオノ",
    "street": null,
    "office_name": null,
    "office_name_kana": null
  },
  "0022": {
    "zip_code": "2870022",
    "prefecture": "千葉県",
    "prefecture_kana": "チバケン",
    "prefecture_code": 12,
    "city": "香取市",
    "city_kana": "カトリシ",
    "town": "九美上",
    "town_kana": "クミアゲ",
    "street": null,
    "office_name": null,
    "office_name_kana": null
  },
  "0023": {
    "zip_code": "2870023",
    "prefecture": "千葉県",
    "prefecture_kana": "チバケン",
    "prefecture_code": 12,
    "city": "香取市",
    "city_kana": "カトリシ",
    "town": "伊地山",
    "town_kana": "イチヤマ",
    "street": null,
    "office_name": null,
    "office_name_kana": null
  },
  "0024": {
    "zip_code": "2870024",
    "prefecture": "千葉県",
    "prefecture_kana": "チバケン",
    "prefecture_code": 12,
    "city": "香取市",
    "city_kana": "カトリシ",
    "town": "福田",
    "town_kana": "フクダ",
    "street": null,
    "office_name": null,
    "office_name_kana": null
  },
  "0025": {
    "zip_code": "2870025",
    "prefecture": "千葉県",
    "prefecture_kana": "チバケン",
    "prefecture_code": 12,
    "city": "香取市",
    "city_kana": "カトリシ",
    "town": "本矢作",
    "town_kana": "モトヤハギ",
    "street": null,
    "office_name": null,
    "office_name_kana": null
  },
  "0026": {
    "zip_code": "2870026",
    "prefecture": "千葉県",
    "prefecture_kana": "チバケン",
    "prefecture_code": 12,
    "city": "香取市",
    "city_kana": "カトリシ",
    "town": "大根",
    "town_kana": "オオネ",
    "street": null,
    "office_name": null,
    "office_name_kana": null
  },
  "0027": {
    "zip_code": "2870027",
    "prefecture": "千葉県",
    "prefecture_kana": "チバケン",
    "prefecture_code": 12,
    "city": "香取市",
    "city_kana": "カトリシ",
    "town": "返田",
    "town_kana": "カヤダ",
    "street": null,
    "office_name": null,
    "office_name_kana": null
  },
  "0031": {
    "zip_code": "2870031",
    "prefecture": "千葉県",
    "prefecture_kana": "チバケン",
    "prefecture_code": 12,
    "city": "香取市",
    "city_kana": "カトリシ",
    "town": "新部",
    "town_kana": "ニッペ",
    "street": null,
    "office_name": null,
    "office_name_kana": null
  },
  "0032": {
    "zip_code": "2870032",
    "prefecture": "千葉県",
    "prefecture_kana": "チバケン",
    "prefecture_code": 12,
    "city": "香取市",
    "city_kana": "カトリシ",
    "town": "釜塚",
    "town_kana": "カマヅカ",
    "street": null,
    "office_name": null,
    "office_name_kana": null
  },
  "0033": {
    "zip_code": "2870033",
    "prefecture": "千葉県",
    "prefecture_kana": "チバケン",
    "prefecture_code": 12,
    "city": "香取市",
    "city_kana": "カトリシ",
    "town": "牧野",
    "town_kana": "マキノ",
    "street": null,
    "office_name": null,
    "office_name_kana": null
  },
  "0034": {
    "zip_code": "2870034",
    "prefecture": "千葉県",
    "prefecture_kana": "チバケン",
    "prefecture_code": 12,
    "city": "香取市",
    "city_kana": "カトリシ",
    "town": "長山",
    "town_kana": "ナガヤマ",
    "street": null,
    "office_name": null,
    "office_name_kana": null
  },
  "0035": {
    "zip_code": "2870035",
    "prefecture": "千葉県",
    "prefecture_kana": "チバケン",
    "prefecture_code": 12,
    "city": "香取市",
    "city_kana": "カトリシ",
    "town": "大崎",
    "town_kana": "オオサキ",
    "street": null,
    "office_name": null,
    "office_name_kana": null
  },
  "0036": {
    "zip_code": "2870036",
    "prefecture": "千葉県",
    "prefecture_kana": "チバケン",
    "prefecture_code": 12,
    "city": "香取市",
    "city_kana": "カトリシ",
    "town": "観音",
    "town_kana": "カンノウ",
    "street": null,
    "office_name": null,
    "office_name_kana": null
  },
  "0037": {
    "zip_code": "2870037",
    "prefecture": "千葉県",
    "prefecture_kana": "チバケン",
    "prefecture_code": 12,
    "city": "香取市",
    "city_kana": "カトリシ",
    "town": "与倉",
    "town_kana": "ヨクラ",
    "street": null,
    "office_name": null,
    "office_name_kana": null
  },
  "0038": {
    "zip_code": "2870038",
    "prefecture": "千葉県",
    "prefecture_kana": "チバケン",
    "prefecture_code": 12,
    "city": "香取市",
    "city_kana": "カトリシ",
    "town": "鳥羽",
    "town_kana": "トッパ",
    "street": null,
    "office_name": null,
    "office_name_kana": null
  },
  "0041": {
    "zip_code": "2870041",
    "prefecture": "千葉県",
    "prefecture_kana": "チバケン",
    "prefecture_code": 12,
    "city": "香取市",
    "city_kana": "カトリシ",
    "town": "玉造",
    "town_kana": "タマツクリ",
    "street": null,
    "office_name": null,
    "office_name_kana": null
  },
  "0042": {
    "zip_code": "2870042",
    "prefecture": "千葉県",
    "prefecture_kana": "チバケン",
    "prefecture_code": 12,
    "city": "香取市",
    "city_kana": "カトリシ",
    "town": "山之辺",
    "town_kana": "ヤマノベ",
    "street": null,
    "office_name": null,
    "office_name_kana": null
  },
  "0043": {
    "zip_code": "2870043",
    "prefecture": "千葉県",
    "prefecture_kana": "チバケン",
    "prefecture_code": 12,
    "city": "香取市",
    "city_kana": "カトリシ",
    "town": "大戸",
    "town_kana": "オオト",
    "street": null,
    "office_name": null,
    "office_name_kana": null
  },
  "0044": {
    "zip_code": "2870044",
    "prefecture": "千葉県",
    "prefecture_kana": "チバケン",
    "prefecture_code": 12,
    "city": "香取市",
    "city_kana": "カトリシ",
    "town": "片野",
    "town_kana": "カタノ",
    "street": null,
    "office_name": null,
    "office_name_kana": null
  },
  "0045": {
    "zip_code": "2870045",
    "prefecture": "千葉県",
    "prefecture_kana": "チバケン",
    "prefecture_code": 12,
    "city": "香取市",
    "city_kana": "カトリシ",
    "town": "関",
    "town_kana": "セキ",
    "street": null,
    "office_name": null,
    "office_name_kana": null
  },
  "0046": {
    "zip_code": "2870046",
    "prefecture": "千葉県",
    "prefecture_kana": "チバケン",
    "prefecture_code": 12,
    "city": "香取市",
    "city_kana": "カトリシ",
    "town": "上小川",
    "town_kana": "カミオガワ",
    "street": null,
    "office_name": null,
    "office_name_kana": null
  },
  "0047": {
    "zip_code": "2870047",
    "prefecture": "千葉県",
    "prefecture_kana": "チバケン",
    "prefecture_code": 12,
    "city": "香取市",
    "city_kana": "カトリシ",
    "town": "鴇崎",
    "town_kana": "トキザキ",
    "street": null,
    "office_name": null,
    "office_name_kana": null
  },
  "0048": {
    "zip_code": "2870048",
    "prefecture": "千葉県",
    "prefecture_kana": "チバケン",
    "prefecture_code": 12,
    "city": "香取市",
    "city_kana": "カトリシ",
    "town": "西和田",
    "town_kana": "ニシワダ",
    "street": null,
    "office_name": null,
    "office_name_kana": null
  },
  "0051": {
    "zip_code": "2870051",
    "prefecture": "千葉県",
    "prefecture_kana": "チバケン",
    "prefecture_code": 12,
    "city": "香取市",
    "city_kana": "カトリシ",
    "town": "新寺",
    "town_kana": "ニイデラ",
    "street": null,
    "office_name": null,
    "office_name_kana": null
  },
  "0052": {
    "zip_code": "2870052",
    "prefecture": "千葉県",
    "prefecture_kana": "チバケン",
    "prefecture_code": 12,
    "city": "香取市",
    "city_kana": "カトリシ",
    "town": "森戸",
    "town_kana": "モリド",
    "street": null,
    "office_name": null,
    "office_name_kana": null
  },
  "0053": {
    "zip_code": "2870053",
    "prefecture": "千葉県",
    "prefecture_kana": "チバケン",
    "prefecture_code": 12,
    "city": "香取市",
    "city_kana": "カトリシ",
    "town": "大戸新田",
    "town_kana": "オオトシンデン",
    "street": null,
    "office_name": null,
    "office_name_kana": null
  },
  "0054": {
    "zip_code": "2870054",
    "prefecture": "千葉県",
    "prefecture_kana": "チバケン",
    "prefecture_code": 12,
    "city": "香取市",
    "city_kana": "カトリシ",
    "town": "大戸川",
    "town_kana": "オオトガワ",
    "street": null,
    "office_name": null,
    "office_name_kana": null
  },
  "0055": {
    "zip_code": "2870055",
    "prefecture": "千葉県",
    "prefecture_kana": "チバケン",
    "prefecture_code": 12,
    "city": "香取市",
    "city_kana": "カトリシ",
    "town": "昭和町",
    "town_kana": "ショウワマチ",
    "street": null,
    "office_name": null,
    "office_name_kana": null
  },
  "0056": {
    "zip_code": "2870056",
    "prefecture": "千葉県",
    "prefecture_kana": "チバケン",
    "prefecture_code": 12,
    "city": "香取市",
    "city_kana": "カトリシ",
    "town": "飯島",
    "town_kana": "イイジマ",
    "street": null,
    "office_name": null,
    "office_name_kana": null
  },
  "0061": {
    "zip_code": "2870061",
    "prefecture": "千葉県",
    "prefecture_kana": "チバケン",
    "prefecture_code": 12,
    "city": "香取市",
    "city_kana": "カトリシ",
    "town": "谷中",
    "town_kana": "ヤナカ",
    "street": null,
    "office_name": null,
    "office_name_kana": null
  },
  "0062": {
    "zip_code": "2870062",
    "prefecture": "千葉県",
    "prefecture_kana": "チバケン",
    "prefecture_code": 12,
    "city": "香取市",
    "city_kana": "カトリシ",
    "town": "寺内",
    "town_kana": "テラウチ",
    "street": null,
    "office_name": null,
    "office_name_kana": null
  },
  "0063": {
    "zip_code": "2870063",
    "prefecture": "千葉県",
    "prefecture_kana": "チバケン",
    "prefecture_code": 12,
    "city": "香取市",
    "city_kana": "カトリシ",
    "town": "西坂",
    "town_kana": "ニシザカ",
    "street": null,
    "office_name": null,
    "office_name_kana": null
  },
  "0064": {
    "zip_code": "2870064",
    "prefecture": "千葉県",
    "prefecture_kana": "チバケン",
    "prefecture_code": 12,
    "city": "香取市",
    "city_kana": "カトリシ",
    "town": "みずほ台",
    "town_kana": "ミズホダイ",
    "street": null,
    "office_name": null,
    "office_name_kana": null
  },
  "0065": {
    "zip_code": "2870065",
    "prefecture": "千葉県",
    "prefecture_kana": "チバケン",
    "prefecture_code": 12,
    "city": "香取市",
    "city_kana": "カトリシ",
    "town": "西部田",
    "town_kana": "ニシベタ",
    "street": null,
    "office_name": null,
    "office_name_kana": null
  },
  "0066": {
    "zip_code": "2870066",
    "prefecture": "千葉県",
    "prefecture_kana": "チバケン",
    "prefecture_code": 12,
    "city": "香取市",
    "city_kana": "カトリシ",
    "town": "堀之内",
    "town_kana": "ホリノウチ",
    "street": null,
    "office_name": null,
    "office_name_kana": null
  },
  "0067": {
    "zip_code": "2870067",
    "prefecture": "千葉県",
    "prefecture_kana": "チバケン",
    "prefecture_code": 12,
    "city": "香取市",
    "city_kana": "カトリシ",
    "town": "川尻",
    "town_kana": "カワジリ",
    "street": null,
    "office_name": null,
    "office_name_kana": null
  },
  "0101": {
    "zip_code": "2870101",
    "prefecture": "千葉県",
    "prefecture_kana": "チバケン",
    "prefecture_code": 12,
    "city": "香取市",
    "city_kana": "カトリシ",
    "town": "高萩",
    "town_kana": "タカハギ",
    "street": null,
    "office_name": null,
    "office_name_kana": null
  },
  "0102": {
    "zip_code": "2870102",
    "prefecture": "千葉県",
    "prefecture_kana": "チバケン",
    "prefecture_code": 12,
    "city": "香取市",
    "city_kana": "カトリシ",
    "town": "岩部",
    "town_kana": "イワベ",
    "street": null,
    "office_name": null,
    "office_name_kana": null
  },
  "0103": {
    "zip_code": "2870103",
    "prefecture": "千葉県",
    "prefecture_kana": "チバケン",
    "prefecture_code": 12,
    "city": "香取市",
    "city_kana": "カトリシ",
    "town": "西田部",
    "town_kana": "ニシタベ",
    "street": null,
    "office_name": null,
    "office_name_kana": null
  },
  "0104": {
    "zip_code": "2870104",
    "prefecture": "千葉県",
    "prefecture_kana": "チバケン",
    "prefecture_code": 12,
    "city": "香取市",
    "city_kana": "カトリシ",
    "town": "苅毛",
    "town_kana": "カリケ",
    "street": null,
    "office_name": null,
    "office_name_kana": null
  },
  "0105": {
    "zip_code": "2870105",
    "prefecture": "千葉県",
    "prefecture_kana": "チバケン",
    "prefecture_code": 12,
    "city": "香取市",
    "city_kana": "カトリシ",
    "town": "沢",
    "town_kana": "サワ",
    "street": null,
    "office_name": null,
    "office_name_kana": null
  },
  "0106": {
    "zip_code": "2870106",
    "prefecture": "千葉県",
    "prefecture_kana": "チバケン",
    "prefecture_code": 12,
    "city": "香取市",
    "city_kana": "カトリシ",
    "town": "荒北",
    "town_kana": "アラキタ",
    "street": null,
    "office_name": null,
    "office_name_kana": null
  },
  "0107": {
    "zip_code": "2870107",
    "prefecture": "千葉県",
    "prefecture_kana": "チバケン",
    "prefecture_code": 12,
    "city": "香取市",
    "city_kana": "カトリシ",
    "town": "助沢",
    "town_kana": "スケザワ",
    "street": null,
    "office_name": null,
    "office_name_kana": null
  },
  "0201": {
    "zip_code": "2870201",
    "prefecture": "千葉県",
    "prefecture_kana": "チバケン",
    "prefecture_code": 12,
    "city": "成田市",
    "city_kana": "ナリタシ",
    "town": "柴田",
    "town_kana": "シバタ",
    "street": null,
    "office_name": null,
    "office_name_kana": null
  },
  "0202": {
    "zip_code": "2870202",
    "prefecture": "千葉県",
    "prefecture_kana": "チバケン",
    "prefecture_code": 12,
    "city": "成田市",
    "city_kana": "ナリタシ",
    "town": "堀籠",
    "town_kana": "ホウメ",
    "street": null,
    "office_name": null,
    "office_name_kana": null
  },
  "0203": {
    "zip_code": "2870203",
    "prefecture": "千葉県",
    "prefecture_kana": "チバケン",
    "prefecture_code": 12,
    "city": "成田市",
    "city_kana": "ナリタシ",
    "town": "村田",
    "town_kana": "ムラタ",
    "street": null,
    "office_name": null,
    "office_name_kana": null
  },
  "0204": {
    "zip_code": "2870204",
    "prefecture": "千葉県",
    "prefecture_kana": "チバケン",
    "prefecture_code": 12,
    "city": "成田市",
    "city_kana": "ナリタシ",
    "town": "伊能",
    "town_kana": "イノウ",
    "street": null,
    "office_name": null,
    "office_name_kana": null
  },
  "0205": {
    "zip_code": "2870205",
    "prefecture": "千葉県",
    "prefecture_kana": "チバケン",
    "prefecture_code": 12,
    "city": "成田市",
    "city_kana": "ナリタシ",
    "town": "奈土",
    "town_kana": "ナド",
    "street": null,
    "office_name": null,
    "office_name_kana": null
  },
  "0206": {
    "zip_code": "2870206",
    "prefecture": "千葉県",
    "prefecture_kana": "チバケン",
    "prefecture_code": 12,
    "city": "成田市",
    "city_kana": "ナリタシ",
    "town": "浅間",
    "town_kana": "センゲン",
    "street": null,
    "office_name": null,
    "office_name_kana": null
  },
  "0211": {
    "zip_code": "2870211",
    "prefecture": "千葉県",
    "prefecture_kana": "チバケン",
    "prefecture_code": 12,
    "city": "成田市",
    "city_kana": "ナリタシ",
    "town": "所",
    "town_kana": "トコロ",
    "street": null,
    "office_name": null,
    "office_name_kana": null
  },
  "0212": {
    "zip_code": "2870212",
    "prefecture": "千葉県",
    "prefecture_kana": "チバケン",
    "prefecture_code": 12,
    "city": "成田市",
    "city_kana": "ナリタシ",
    "town": "東ノ台",
    "town_kana": "ヒガシノダイ",
    "street": null,
    "office_name": null,
    "office_name_kana": null
  },
  "0213": {
    "zip_code": "2870213",
    "prefecture": "千葉県",
    "prefecture_kana": "チバケン",
    "prefecture_code": 12,
    "city": "成田市",
    "city_kana": "ナリタシ",
    "town": "大沼",
    "town_kana": "オオヌマ",
    "street": null,
    "office_name": null,
    "office_name_kana": null
  },
  "0214": {
    "zip_code": "2870214",
    "prefecture": "千葉県",
    "prefecture_kana": "チバケン",
    "prefecture_code": 12,
    "city": "成田市",
    "city_kana": "ナリタシ",
    "town": "横山",
    "town_kana": "ヨコヤマ",
    "street": null,
    "office_name": null,
    "office_name_kana": null
  },
  "0215": {
    "zip_code": "2870215",
    "prefecture": "千葉県",
    "prefecture_kana": "チバケン",
    "prefecture_code": 12,
    "city": "成田市",
    "city_kana": "ナリタシ",
    "town": "馬乗里",
    "town_kana": "マジョウリ",
    "street": null,
    "office_name": null,
    "office_name_kana": null
  },
  "0216": {
    "zip_code": "2870216",
    "prefecture": "千葉県",
    "prefecture_kana": "チバケン",
    "prefecture_code": 12,
    "city": "成田市",
    "city_kana": "ナリタシ",
    "town": "南敷",
    "town_kana": "ナジキ",
    "street": null,
    "office_name": null,
    "office_name_kana": null
  },
  "0217": {
    "zip_code": "2870217",
    "prefecture": "千葉県",
    "prefecture_kana": "チバケン",
    "prefecture_code": 12,
    "city": "成田市",
    "city_kana": "ナリタシ",
    "town": "桜田",
    "town_kana": "サクラダ",
    "street": null,
    "office_name": null,
    "office_name_kana": null
  },
  "0221": {
    "zip_code": "2870221",
    "prefecture": "千葉県",
    "prefecture_kana": "チバケン",
    "prefecture_code": 12,
    "city": "成田市",
    "city_kana": "ナリタシ",
    "town": "官林",
    "town_kana": "カンリン",
    "street": null,
    "office_name": null,
    "office_name_kana": null
  },
  "0222": {
    "zip_code": "2870222",
    "prefecture": "千葉県",
    "prefecture_kana": "チバケン",
    "prefecture_code": 12,
    "city": "成田市",
    "city_kana": "ナリタシ",
    "town": "前林",
    "town_kana": "マエバヤシ",
    "street": null,
    "office_name": null,
    "office_name_kana": null
  },
  "0224": {
    "zip_code": "2870224",
    "prefecture": "千葉県",
    "prefecture_kana": "チバケン",
    "prefecture_code": 12,
    "city": "成田市",
    "city_kana": "ナリタシ",
    "town": "新田",
    "town_kana": "シンデン",
    "street": null,
    "office_name": null,
    "office_name_kana": null
  },
  "0225": {
    "zip_code": "2870225",
    "prefecture": "千葉県",
    "prefecture_kana": "チバケン",
    "prefecture_code": 12,
    "city": "成田市",
    "city_kana": "ナリタシ",
    "town": "吉岡",
    "town_kana": "キチオカ",
    "street": null,
    "office_name": null,
    "office_name_kana": null
  },
  "0227": {
    "zip_code": "2870227",
    "prefecture": "千葉県",
    "prefecture_kana": "チバケン",
    "prefecture_code": 12,
    "city": "成田市",
    "city_kana": "ナリタシ",
    "town": "一坪田",
    "town_kana": "ヒトツボタ",
    "street": null,
    "office_name": null,
    "office_name_kana": null
  },
  "0232": {
    "zip_code": "2870232",
    "prefecture": "千葉県",
    "prefecture_kana": "チバケン",
    "prefecture_code": 12,
    "city": "成田市",
    "city_kana": "ナリタシ",
    "town": "久井崎",
    "town_kana": "クイザキ",
    "street": null,
    "office_name": null,
    "office_name_kana": null
  },
  "0233": {
    "zip_code": "2870233",
    "prefecture": "千葉県",
    "prefecture_kana": "チバケン",
    "prefecture_code": 12,
    "city": "成田市",
    "city_kana": "ナリタシ",
    "town": "稲荷山",
    "town_kana": "トウカヤマ",
    "street": null,
    "office_name": null,
    "office_name_kana": null
  },
  "0234": {
    "zip_code": "2870234",
    "prefecture": "千葉県",
    "prefecture_kana": "チバケン",
    "prefecture_code": 12,
    "city": "成田市",
    "city_kana": "ナリタシ",
    "town": "松子",
    "town_kana": "マツコ",
    "street": null,
    "office_name": null,
    "office_name_kana": null
  },
  "0235": {
    "zip_code": "2870235",
    "prefecture": "千葉県",
    "prefecture_kana": "チバケン",
    "prefecture_code": 12,
    "city": "成田市",
    "city_kana": "ナリタシ",
    "town": "臼作",
    "town_kana": "ウスクリ",
    "street": null,
    "office_name": null,
    "office_name_kana": null
  },
  "0236": {
    "zip_code": "2870236",
    "prefecture": "千葉県",
    "prefecture_kana": "チバケン",
    "prefecture_code": 12,
    "city": "成田市",
    "city_kana": "ナリタシ",
    "town": "津富浦",
    "town_kana": "ツブウラ",
    "street": null,
    "office_name": null,
    "office_name_kana": null
  },
  "0237": {
    "zip_code": "2870237",
    "prefecture": "千葉県",
    "prefecture_kana": "チバケン",
    "prefecture_code": 12,
    "city": "成田市",
    "city_kana": "ナリタシ",
    "town": "中野",
    "town_kana": "ナカノ",
    "street": null,
    "office_name": null,
    "office_name_kana": null
  },
  "0241": {
    "zip_code": "2870241",
    "prefecture": "千葉県",
    "prefecture_kana": "チバケン",
    "prefecture_code": 12,
    "city": "成田市",
    "city_kana": "ナリタシ",
    "town": "水の上",
    "town_kana": "ミズノカミ",
    "street": null,
    "office_name": null,
    "office_name_kana": null
  },
  "0242": {
    "zip_code": "2870242",
    "prefecture": "千葉県",
    "prefecture_kana": "チバケン",
    "prefecture_code": 12,
    "city": "成田市",
    "city_kana": "ナリタシ",
    "town": "多良貝",
    "town_kana": "タラガイ",
    "street": null,
    "office_name": null,
    "office_name_kana": null
  },
  "0243": {
    "zip_code": "2870243",
    "prefecture": "千葉県",
    "prefecture_kana": "チバケン",
    "prefecture_code": 12,
    "city": "成田市",
    "city_kana": "ナリタシ",
    "town": "大栄十余三",
    "town_kana": "タイエイトヨミ",
    "street": null,
    "office_name": null,
    "office_name_kana": null
  },
  "0244": {
    "zip_code": "2870244",
    "prefecture": "千葉県",
    "prefecture_kana": "チバケン",
    "prefecture_code": 12,
    "city": "成田市",
    "city_kana": "ナリタシ",
    "town": "川上",
    "town_kana": "カワカミ",
    "street": null,
    "office_name": null,
    "office_name_kana": null
  },
  "0292": {
    "zip_code": "2870292",
    "prefecture": "千葉県",
    "prefecture_kana": "チバケン",
    "prefecture_code": 12,
    "city": "成田市",
    "city_kana": "ナリタシ",
    "town": "松子",
    "town_kana": "マツコ",
    "street": "３６６",
    "office_name": "成田市役所　大栄支所",
    "office_name_kana": "ナリタシヤクシヨ タイエイシシヨ"
  },
  "0801": {
    "zip_code": "2870801",
    "prefecture": "千葉県",
    "prefecture_kana": "チバケン",
    "prefecture_code": 12,
    "city": "香取市",
    "city_kana": "カトリシ",
    "town": "扇島",
    "town_kana": "オウギシマ",
    "street": null,
    "office_name": null,
    "office_name_kana": null
  },
  "0802": {
    "zip_code": "2870802",
    "prefecture": "千葉県",
    "prefecture_kana": "チバケン",
    "prefecture_code": 12,
    "city": "香取市",
    "city_kana": "カトリシ",
    "town": "加藤洲",
    "town_kana": "カドウズ",
    "street": null,
    "office_name": null,
    "office_name_kana": null
  },
  "0803": {
    "zip_code": "2870803",
    "prefecture": "千葉県",
    "prefecture_kana": "チバケン",
    "prefecture_code": 12,
    "city": "香取市",
    "city_kana": "カトリシ",
    "town": "磯山",
    "town_kana": "イソヤマ",
    "street": null,
    "office_name": null,
    "office_name_kana": null
  },
  "0804": {
    "zip_code": "2870804",
    "prefecture": "千葉県",
    "prefecture_kana": "チバケン",
    "prefecture_code": 12,
    "city": "香取市",
    "city_kana": "カトリシ",
    "town": "市和田",
    "town_kana": "イチワダ",
    "street": null,
    "office_name": null,
    "office_name_kana": null
  },
  "0805": {
    "zip_code": "2870805",
    "prefecture": "千葉県",
    "prefecture_kana": "チバケン",
    "prefecture_code": 12,
    "city": "香取市",
    "city_kana": "カトリシ",
    "town": "公官洲",
    "town_kana": "コウカンズ",
    "street": null,
    "office_name": null,
    "office_name_kana": null
  },
  "0806": {
    "zip_code": "2870806",
    "prefecture": "千葉県",
    "prefecture_kana": "チバケン",
    "prefecture_code": 12,
    "city": "香取市",
    "city_kana": "カトリシ",
    "town": "附洲新田",
    "town_kana": "ツキスシンデン",
    "street": null,
    "office_name": null,
    "office_name_kana": null
  },
  "0811": {
    "zip_code": "2870811",
    "prefecture": "千葉県",
    "prefecture_kana": "チバケン",
    "prefecture_code": 12,
    "city": "香取市",
    "city_kana": "カトリシ",
    "town": "大島",
    "town_kana": "オオシマ",
    "street": null,
    "office_name": null,
    "office_name_kana": null
  },
  "0812": {
    "zip_code": "2870812",
    "prefecture": "千葉県",
    "prefecture_kana": "チバケン",
    "prefecture_code": 12,
    "city": "香取市",
    "city_kana": "カトリシ",
    "town": "三島",
    "town_kana": "ミシマ",
    "street": null,
    "office_name": null,
    "office_name_kana": null
  },
  "0813": {
    "zip_code": "2870813",
    "prefecture": "千葉県",
    "prefecture_kana": "チバケン",
    "prefecture_code": 12,
    "city": "香取市",
    "city_kana": "カトリシ",
    "town": "境島",
    "town_kana": "サカイジマ",
    "street": null,
    "office_name": null,
    "office_name_kana": null
  },
  "0814": {
    "zip_code": "2870814",
    "prefecture": "千葉県",
    "prefecture_kana": "チバケン",
    "prefecture_code": 12,
    "city": "香取市",
    "city_kana": "カトリシ",
    "town": "中洲",
    "town_kana": "ナカズ",
    "street": null,
    "office_name": null,
    "office_name_kana": null
  },
  "0815": {
    "zip_code": "2870815",
    "prefecture": "千葉県",
    "prefecture_kana": "チバケン",
    "prefecture_code": 12,
    "city": "香取市",
    "city_kana": "カトリシ",
    "town": "八筋川",
    "town_kana": "ヤスジカワ",
    "street": null,
    "office_name": null,
    "office_name_kana": null
  },
  "0816": {
    "zip_code": "2870816",
    "prefecture": "千葉県",
    "prefecture_kana": "チバケン",
    "prefecture_code": 12,
    "city": "香取市",
    "city_kana": "カトリシ",
    "town": "佐原ハ",
    "town_kana": "サワラハ",
    "street": null,
    "office_name": null,
    "office_name_kana": null
  },
  "0821": {
    "zip_code": "2870821",
    "prefecture": "千葉県",
    "prefecture_kana": "チバケン",
    "prefecture_code": 12,
    "city": "香取市",
    "city_kana": "カトリシ",
    "town": "篠原ロ",
    "town_kana": "シノハラロ",
    "street": null,
    "office_name": null,
    "office_name_kana": null
  },
  "0822": {
    "zip_code": "2870822",
    "prefecture": "千葉県",
    "prefecture_kana": "チバケン",
    "prefecture_code": 12,
    "city": "香取市",
    "city_kana": "カトリシ",
    "town": "佐原ニ",
    "town_kana": "サワラニ",
    "street": null,
    "office_name": null,
    "office_name_kana": null
  },
  "0823": {
    "zip_code": "2870823",
    "prefecture": "千葉県",
    "prefecture_kana": "チバケン",
    "prefecture_code": 12,
    "city": "香取市",
    "city_kana": "カトリシ",
    "town": "笄島",
    "town_kana": "コウガイジマ",
    "street": null,
    "office_name": null,
    "office_name_kana": null
  },
  "0824": {
    "zip_code": "2870824",
    "prefecture": "千葉県",
    "prefecture_kana": "チバケン",
    "prefecture_code": 12,
    "city": "香取市",
    "city_kana": "カトリシ",
    "town": "長島",
    "town_kana": "ナガシマ",
    "street": null,
    "office_name": null,
    "office_name_kana": null
  },
  "0825": {
    "zip_code": "2870825",
    "prefecture": "千葉県",
    "prefecture_kana": "チバケン",
    "prefecture_code": 12,
    "city": "香取市",
    "city_kana": "カトリシ",
    "town": "野間谷原",
    "town_kana": "ノマヤワラ",
    "street": null,
    "office_name": null,
    "office_name_kana": null
  },
  "0826": {
    "zip_code": "2870826",
    "prefecture": "千葉県",
    "prefecture_kana": "チバケン",
    "prefecture_code": 12,
    "city": "香取市",
    "city_kana": "カトリシ",
    "town": "石納",
    "town_kana": "コクノウ",
    "street": null,
    "office_name": null,
    "office_name_kana": null
  },
  "8501": {
    "zip_code": "2878501",
    "prefecture": "千葉県",
    "prefecture_kana": null,
    "prefecture_code": null,
    "city": "香取市",
    "city_kana": null,
    "town": "佐原",
    "town_kana": null,
    "street": "ロ２１２７",
    "office_name": "香取市役所",
    "office_name_kana": "カトリシヤクシヨ"
  },
  "8502": {
    "zip_code": "2878502",
    "prefecture": "千葉県",
    "prefecture_kana": "チバケン",
    "prefecture_code": 12,
    "city": "香取市",
    "city_kana": "カトリシ",
    "town": "北",
    "town_kana": "キタ",
    "street": "３丁目１番３号",
    "office_name": "千葉県　北総県民センター　香取事務所",
    "office_name_kana": "チバケン ホクソウケンミンセンタ- カトリジムシヨ"
  },
  "8503": {
    "zip_code": "2878503",
    "prefecture": "千葉県",
    "prefecture_kana": "チバケン",
    "prefecture_code": 12,
    "city": "香取市",
    "city_kana": "カトリシ",
    "town": "北",
    "town_kana": "キタ",
    "street": "３丁目１−３",
    "office_name": "千葉県　佐原県税事務所",
    "office_name_kana": "チバケン サワラケンゼイジムシヨ"
  },
  "8510": {
    "zip_code": "2878510",
    "prefecture": "千葉県",
    "prefecture_kana": null,
    "prefecture_code": null,
    "city": "香取市",
    "city_kana": null,
    "town": "佐原",
    "town_kana": null,
    "street": "イ４１４９",
    "office_name": "国土交通省　利根川下流河川事務所",
    "office_name_kana": "コクドコウツウシヨウ トネガワカリユウカセンジムシヨ"
  },
  "8555": {
    "zip_code": "2878555",
    "prefecture": "千葉県",
    "prefecture_kana": "チバケン",
    "prefecture_code": 12,
    "city": "香取市",
    "city_kana": "カトリシ",
    "town": "北",
    "town_kana": "キタ",
    "street": "１丁目４−１",
    "office_name": "佐原税務署",
    "office_name_kana": "サワラゼイムシヨ"
  },
  "8585": {
    "zip_code": "2878585",
    "prefecture": "千葉県",
    "prefecture_kana": null,
    "prefecture_code": null,
    "city": "香取市",
    "city_kana": null,
    "town": "佐原",
    "town_kana": null,
    "street": "ロ２１１６−１",
    "office_name": "千葉社会保険事務局　佐原事務所",
    "office_name_kana": "チバシヤカイホケンジムキヨク サワラジムシヨ"
  },
  "8601": {
    "zip_code": "2878601",
    "prefecture": "千葉県",
    "prefecture_kana": null,
    "prefecture_code": null,
    "city": "香取市",
    "city_kana": null,
    "town": "佐原",
    "town_kana": null,
    "street": "イ５２５（佐原郵便局私書箱第２号）",
    "office_name": "佐原信用金庫",
    "office_name_kana": "サワラシンヨウキンコ"
  }
}