{
  "0000": {
    "zip_code": "2900000",
    "prefecture": "千葉県",
    "prefecture_kana": "チバケン",
    "prefecture_code": 12,
    "city": "市原市",
    "city_kana": "イチハラシ",
    "town": "",
    "town_kana": "",
    "street": null,
    "office_name": null,
    "office_name_kana": null
  },
  "0001": {
    "zip_code": "2900001",
    "prefecture": "千葉県",
    "prefecture_kana": "チバケン",
    "prefecture_code": 12,
    "city": "市原市",
    "city_kana": "イチハラシ",
    "town": "草刈",
    "town_kana": "クサカリ",
    "street": null,
    "office_name": null,
    "office_name_kana": null
  },
  "0002": {
    "zip_code": "2900002",
    "prefecture": "千葉県",
    "prefecture_kana": "チバケン",
    "prefecture_code": 12,
    "city": "市原市",
    "city_kana": "イチハラシ",
    "town": "大厩",
    "town_kana": "オオマヤ",
    "street": null,
    "office_name": null,
    "office_name_kana": null
  },
  "0003": {
    "zip_code": "2900003",
    "prefecture": "千葉県",
    "prefecture_kana": "チバケン",
    "prefecture_code": 12,
    "city": "市原市",
    "city_kana": "イチハラシ",
    "town": "辰巳台東",
    "town_kana": "タツミダイヒガシ",
    "street": null,
    "office_name": null,
    "office_name_kana": null
  },
  "0004": {
    "zip_code": "2900004",
    "prefecture": "千葉県",
    "prefecture_kana": "チバケン",
    "prefecture_code": 12,
    "city": "市原市",
    "city_kana": "イチハラシ",
    "town": "辰巳台西",
    "town_kana": "タツミダイニシ",
    "street": null,
    "office_name": null,
    "office_name_kana": null
  },
  "0005": {
    "zip_code": "2900005",
    "prefecture": "千葉県",
    "prefecture_kana": "チバケン",
    "prefecture_code": 12,
    "city": "市原市",
    "city_kana": "イチハラシ",
    "town": "山木",
    "town_kana": "ヤマキ",
    "street": null,
    "office_name": null,
    "office_name_kana": null
  },
  "0006": {
    "zip_code": "2900006",
    "prefecture": "千葉県",
    "prefecture_kana": "チバケン",
    "prefecture_code": 12,
    "city": "市原市",
    "city_kana": "イチハラシ",
    "town": "若宮",
    "town_kana": "ワカミヤ",
    "street": null,
    "office_name": null,
    "office_name_kana": null
  },
  "0007": {
    "zip_code": "2900007",
    "prefecture": "千葉県",
    "prefecture_kana": "チバケン",
    "prefecture_code": 12,
    "city": "市原市",
    "city_kana": "イチハラシ",
    "town": "菊間",
    "town_kana": "キクマ",
    "street": null,
    "office_name": null,
    "office_name_kana": null
  },
  "0008": {
    "zip_code": "2900008",
    "prefecture": "千葉県",
    "prefecture_kana": "チバケン",
    "prefecture_code": 12,
    "city": "市原市",
    "city_kana": "イチハラシ",
    "town": "古市場",
    "town_kana": "フルイチバ",
    "street": null,
    "office_name": null,
    "office_name_kana": null
  },
  "0011": {
    "zip_code": "2900011",
    "prefecture": "千葉県",
    "prefecture_kana": "チバケン",
    "prefecture_code": 12,
    "city": "市原市",
    "city_kana": "イチハラシ",
    "town": "能満",
    "town_kana": "ノウマン",
    "street": null,
    "office_name": null,
    "office_name_kana": null
  },
  "0012": {
    "zip_code": "2900012",
    "prefecture": "千葉県",
    "prefecture_kana": "チバケン",
    "prefecture_code": 12,
    "city": "市原市",
    "city_kana": "イチハラシ",
    "town": "藤井",
    "town_kana": "フジイ",
    "street": null,
    "office_name": null,
    "office_name_kana": null
  },
  "0013": {
    "zip_code": "2900013",
    "prefecture": "千葉県",
    "prefecture_kana": "チバケン",
    "prefecture_code": 12,
    "city": "市原市",
    "city_kana": "イチハラシ",
    "town": "郡本",
    "town_kana": "コオリモト",
    "street": null,
    "office_name": null,
    "office_name_kana": null
  },
  "0014": {
    "zip_code": "2900014",
    "prefecture": "千葉県",
    "prefecture_kana": "チバケン",
    "prefecture_code": 12,
    "city": "市原市",
    "city_kana": "イチハラシ",
    "town": "西野谷",
    "town_kana": "ニシノヤ",
    "street": null,
    "office_name": null,
    "office_name_kana": null
  },
  "0015": {
    "zip_code": "2900015",
    "prefecture": "千葉県",
    "prefecture_kana": "チバケン",
    "prefecture_code": 12,
    "city": "市原市",
    "city_kana": "イチハラシ",
    "town": "市原",
    "town_kana": "イチハラ",
    "street": null,
    "office_name": null,
    "office_name_kana": null
  },
  "0016": {
    "zip_code": "2900016",
    "prefecture": "千葉県",
    "prefecture_kana": "チバケン",
    "prefecture_code": 12,
    "city": "市原市",
    "city_kana": "イチハラシ",
    "town": "門前",
    "town_kana": "モンゼン",
    "street": null,
    "office_name": null,
    "office_name_kana": null
  },
  "0021": {
    "zip_code": "2900021",
    "prefecture": "千葉県",
    "prefecture_kana": "チバケン",
    "prefecture_code": 12,
    "city": "市原市",
    "city_kana": "イチハラシ",
    "town": "山田橋",
    "town_kana": "ヤマダバシ",
    "street": null,
    "office_name": null,
    "office_name_kana": null
  },
  "0022": {
    "zip_code": "2900022",
    "prefecture": "千葉県",
    "prefecture_kana": "チバケン",
    "prefecture_code": 12,
    "city": "市原市",
    "city_kana": "イチハラシ",
    "town": "西広",
    "town_kana": "サイヒロ",
    "street": null,
    "office_name": null,
    "office_name_kana": null
  },
  "0023": {
    "zip_code": "2900023",
    "prefecture": "千葉県",
    "prefecture_kana": "チバケン",
    "prefecture_code": 12,
    "city": "市原市",
    "city_kana": "イチハラシ",
    "town": "惣社",
    "town_kana": "ソウジャ",
    "street": null,
    "office_name": null,
    "office_name_kana": null
  },
  "0024": {
    "zip_code": "2900024",
    "prefecture": "千葉県",
    "prefecture_kana": "チバケン",
    "prefecture_code": 12,
    "city": "市原市",
    "city_kana": "イチハラシ",
    "town": "根田",
    "town_kana": "ネダ",
    "street": null,
    "office_name": null,
    "office_name_kana": null
  },
  "0025": {
    "zip_code": "2900025",
    "prefecture": "千葉県",
    "prefecture_kana": "チバケン",
    "prefecture_code": 12,
    "city": "市原市",
    "city_kana": "イチハラシ",
    "town": "加茂",
    "town_kana": "カモ",
    "street": null,
    "office_name": null,
    "office_name_kana": null
  },
  "0026": {
    "zip_code": "2900026",
    "prefecture": "千葉県",
    "prefecture_kana": "チバケン",
    "prefecture_code": 12,
    "city": "市原市",
    "city_kana": "イチハラシ",
    "town": "諏訪",
    "town_kana": "スワ",
    "street": null,
    "office_name": null,
    "office_name_kana": null
  },
  "0031": {
    "zip_code": "2900031",
    "prefecture": "千葉県",
    "prefecture_kana": "チバケン",
    "prefecture_code": 12,
    "city": "市原市",
    "city_kana": "イチハラシ",
    "town": "村上",
    "town_kana": "ムラカミ",
    "street": null,
    "office_name": null,
    "office_name_kana": null
  },
  "0032": {
    "zip_code": "2900032",
    "prefecture": "千葉県",
    "prefecture_kana": "チバケン",
    "prefecture_code": 12,
    "city": "市原市",
    "city_kana": "イチハラシ",
    "town": "廿五里",
    "town_kana": "ツイヘイジ",
    "street": null,
    "office_name": null,
    "office_name_kana": null
  },
  "0033": {
    "zip_code": "2900033",
    "prefecture": "千葉県",
    "prefecture_kana": "チバケン",
    "prefecture_code": 12,
    "city": "市原市",
    "city_kana": "イチハラシ",
    "town": "野毛",
    "town_kana": "ノゲ",
    "street": null,
    "office_name": null,
    "office_name_kana": null
  },
  "0034": {
    "zip_code": "2900034",
    "prefecture": "千葉県",
    "prefecture_kana": "チバケン",
    "prefecture_code": 12,
    "city": "市原市",
    "city_kana": "イチハラシ",
    "town": "島野",
    "town_kana": "シマノ",
    "street": null,
    "office_name": null,
    "office_name_kana": null
  },
  "0035": {
    "zip_code": "2900035",
    "prefecture": "千葉県",
    "prefecture_kana": "チバケン",
    "prefecture_code": 12,
    "city": "市原市",
    "city_kana": "イチハラシ",
    "town": "松ケ島",
    "town_kana": "マツガシマ",
    "street": null,
    "office_name": null,
    "office_name_kana": null
  },
  "0036": {
    "zip_code": "2900036",
    "prefecture": "千葉県",
    "prefecture_kana": "チバケン",
    "prefecture_code": 12,
    "city": "市原市",
    "city_kana": "イチハラシ",
    "town": "松ケ島西",
    "town_kana": "マツガシマニシ",
    "street": null,
    "office_name": null,
    "office_name_kana": null
  },
  "0037": {
    "zip_code": "2900037",
    "prefecture": "千葉県",
    "prefecture_kana": "チバケン",
    "prefecture_code": 12,
    "city": "市原市",
    "city_kana": "イチハラシ",
    "town": "飯沼",
    "town_kana": "イイヌマ",
    "street": null,
    "office_name": null,
    "office_name_kana": null
  },
  "0038": {
    "zip_code": "2900038",
    "prefecture": "千葉県",
    "prefecture_kana": "チバケン",
    "prefecture_code": 12,
    "city": "市原市",
    "city_kana": "イチハラシ",
    "town": "五井西",
    "town_kana": "ゴイニシ",
    "street": null,
    "office_name": null,
    "office_name_kana": null
  },
  "0041": {
    "zip_code": "2900041",
    "prefecture": "千葉県",
    "prefecture_kana": "チバケン",
    "prefecture_code": 12,
    "city": "市原市",
    "city_kana": "イチハラシ",
    "town": "玉前",
    "town_kana": "タマサキ",
    "street": null,
    "office_name": null,
    "office_name_kana": null
  },
  "0042": {
    "zip_code": "2900042",
    "prefecture": "千葉県",
    "prefecture_kana": "チバケン",
    "prefecture_code": 12,
    "city": "市原市",
    "city_kana": "イチハラシ",
    "town": "出津",
    "town_kana": "デヅ",
    "street": null,
    "office_name": null,
    "office_name_kana": null
  },
  "0043": {
    "zip_code": "2900043",
    "prefecture": "千葉県",
    "prefecture_kana": "チバケン",
    "prefecture_code": 12,
    "city": "市原市",
    "city_kana": "イチハラシ",
    "town": "出津西",
    "town_kana": "デヅニシ",
    "street": null,
    "office_name": null,
    "office_name_kana": null
  },
  "0044": {
    "zip_code": "2900044",
    "prefecture": "千葉県",
    "prefecture_kana": "チバケン",
    "prefecture_code": 12,
    "city": "市原市",
    "city_kana": "イチハラシ",
    "town": "玉前西",
    "town_kana": "タマサキニシ",
    "street": null,
    "office_name": null,
    "office_name_kana": null
  },
  "0045": {
    "zip_code": "2900045",
    "prefecture": "千葉県",
    "prefecture_kana": "チバケン",
    "prefecture_code": 12,
    "city": "市原市",
    "city_kana": "イチハラシ",
    "town": "五井南海岸",
    "town_kana": "ゴイミナミカイガン",
    "street": null,
    "office_name": null,
    "office_name_kana": null
  },
  "0046": {
    "zip_code": "2900046",
    "prefecture": "千葉県",
    "prefecture_kana": "チバケン",
    "prefecture_code": 12,
    "city": "市原市",
    "city_kana": "イチハラシ",
    "town": "岩崎西",
    "town_kana": "イワサキニシ",
    "street": null,
    "office_name": null,
    "office_name_kana": null
  },
  "0047": {
    "zip_code": "2900047",
    "prefecture": "千葉県",
    "prefecture_kana": "チバケン",
    "prefecture_code": 12,
    "city": "市原市",
    "city_kana": "イチハラシ",
    "town": "岩崎",
    "town_kana": "イワサキ",
    "street": null,
    "office_name": null,
    "office_name_kana": null
  },
  "0050": {
    "zip_code": "2900050",
    "prefecture": "千葉県",
    "prefecture_kana": "チバケン",
    "prefecture_code": 12,
    "city": "市原市",
    "city_kana": "イチハラシ",
    "town": "更級",
    "town_kana": "サラシナ",
    "street": null,
    "office_name": null,
    "office_name_kana": null
  },
  "0051": {
    "zip_code": "2900051",
    "prefecture": "千葉県",
    "prefecture_kana": "チバケン",
    "prefecture_code": 12,
    "city": "市原市",
    "city_kana": "イチハラシ",
    "town": "君塚",
    "town_kana": "キミヅカ",
    "street": null,
    "office_name": null,
    "office_name_kana": null
  },
  "0052": {
    "zip_code": "2900052",
    "prefecture": "千葉県",
    "prefecture_kana": "チバケン",
    "prefecture_code": 12,
    "city": "市原市",
    "city_kana": "イチハラシ",
    "town": "岩野見",
    "town_kana": "イワノミ",
    "street": null,
    "office_name": null,
    "office_name_kana": null
  },
  "0053": {
    "zip_code": "2900053",
    "prefecture": "千葉県",
    "prefecture_kana": "チバケン",
    "prefecture_code": 12,
    "city": "市原市",
    "city_kana": "イチハラシ",
    "town": "平田",
    "town_kana": "ヒラタ",
    "street": null,
    "office_name": null,
    "office_name_kana": null
  },
  "0054": {
    "zip_code": "2900054",
    "prefecture": "千葉県",
    "prefecture_kana": "チバケン",
    "prefecture_code": 12,
    "city": "市原市",
    "city_kana": "イチハラシ",
    "town": "五井中央東",
    "town_kana": "ゴイチュウオウヒガシ",
    "street": null,
    "office_name": null,
    "office_name_kana": null
  },
  "0055": {
    "zip_code": "2900055",
    "prefecture": "千葉県",
    "prefecture_kana": "チバケン",
    "prefecture_code": 12,
    "city": "市原市",
    "city_kana": "イチハラシ",
    "town": "五井東",
    "town_kana": "ゴイヒガシ",
    "street": null,
    "office_name": null,
    "office_name_kana": null
  },
  "0056": {
    "zip_code": "2900056",
    "prefecture": "千葉県",
    "prefecture_kana": "チバケン",
    "prefecture_code": 12,
    "city": "市原市",
    "city_kana": "イチハラシ",
    "town": "五井",
    "town_kana": "ゴイ",
    "street": null,
    "office_name": null,
    "office_name_kana": null
  },
  "0057": {
    "zip_code": "2900057",
    "prefecture": "千葉県",
    "prefecture_kana": "チバケン",
    "prefecture_code": 12,
    "city": "市原市",
    "city_kana": "イチハラシ",
    "town": "五井金杉",
    "town_kana": "ゴイカナスギ",
    "street": null,
    "office_name": null,
    "office_name_kana": null
  },
  "0058": {
    "zip_code": "2900058",
    "prefecture": "千葉県",
    "prefecture_kana": "チバケン",
    "prefecture_code": 12,
    "city": "市原市",
    "city_kana": "イチハラシ",
    "town": "五井海岸",
    "town_kana": "ゴイカイガン",
    "street": null,
    "office_name": null,
    "office_name_kana": null
  },
  "0059": {
    "zip_code": "2900059",
    "prefecture": "千葉県",
    "prefecture_kana": "チバケン",
    "prefecture_code": 12,
    "city": "市原市",
    "city_kana": "イチハラシ",
    "town": "白金町",
    "town_kana": "シロガネチョウ",
    "street": null,
    "office_name": null,
    "office_name_kana": null
  },
  "0061": {
    "zip_code": "2900061",
    "prefecture": "千葉県",
    "prefecture_kana": "チバケン",
    "prefecture_code": 12,
    "city": "市原市",
    "city_kana": "イチハラシ",
    "town": "八幡石塚",
    "town_kana": "ヤワタイシヅカ",
    "street": null,
    "office_name": null,
    "office_name_kana": null
  },
  "0062": {
    "zip_code": "2900062",
    "prefecture": "千葉県",
    "prefecture_kana": "チバケン",
    "prefecture_code": 12,
    "city": "市原市",
    "city_kana": "イチハラシ",
    "town": "八幡",
    "town_kana": "ヤワタ",
    "street": null,
    "office_name": null,
    "office_name_kana": null
  },
  "0063": {
    "zip_code": "2900063",
    "prefecture": "千葉県",
    "prefecture_kana": "チバケン",
    "prefecture_code": 12,
    "city": "市原市",
    "city_kana": "イチハラシ",
    "town": "旭五所",
    "town_kana": "アサヒゴショ",
    "street": null,
    "office_name": null,
    "office_name_kana": null
  },
  "0064": {
    "zip_code": "2900064",
    "prefecture": "千葉県",
    "prefecture_kana": "チバケン",
    "prefecture_code": 12,
    "city": "市原市",
    "city_kana": "イチハラシ",
    "town": "東五所",
    "town_kana": "ヒガシゴショ",
    "street": null,
    "office_name": null,
    "office_name_kana": null
  },
  "0065": {
    "zip_code": "2900065",
    "prefecture": "千葉県",
    "prefecture_kana": "チバケン",
    "prefecture_code": 12,
    "city": "市原市",
    "city_kana": "イチハラシ",
    "town": "西五所",
    "town_kana": "ニシゴショ",
    "street": null,
    "office_name": null,
    "office_name_kana": null
  },
  "0066": {
    "zip_code": "2900066",
    "prefecture": "千葉県",
    "prefecture_kana": "チバケン",
    "prefecture_code": 12,
    "city": "市原市",
    "city_kana": "イチハラシ",
    "town": "五所",
    "town_kana": "ゴショ",
    "street": null,
    "office_name": null,
    "office_name_kana": null
  },
  "0067": {
    "zip_code": "2900067",
    "prefecture": "千葉県",
    "prefecture_kana": "チバケン",
    "prefecture_code": 12,
    "city": "市原市",
    "city_kana": "イチハラシ",
    "town": "八幡海岸通",
    "town_kana": "ヤワタカイガンドオリ",
    "street": null,
    "office_name": null,
    "office_name_kana": null
  },
  "0068": {
    "zip_code": "2900068",
    "prefecture": "千葉県",
    "prefecture_kana": "チバケン",
    "prefecture_code": 12,
    "city": "市原市",
    "city_kana": "イチハラシ",
    "town": "八幡浦",
    "town_kana": "ヤワタウラ",
    "street": null,
    "office_name": null,
    "office_name_kana": null
  },
  "0069": {
    "zip_code": "2900069",
    "prefecture": "千葉県",
    "prefecture_kana": "チバケン",
    "prefecture_code": 12,
    "city": "市原市",
    "city_kana": "イチハラシ",
    "town": "八幡北町",
    "town_kana": "ヤワタキタチョウ",
    "street": null,
    "office_name": null,
    "office_name_kana": null
  },
  "0071": {
    "zip_code": "2900071",
    "prefecture": "千葉県",
    "prefecture_kana": "チバケン",
    "prefecture_code": 12,
    "city": "市原市",
    "city_kana": "イチハラシ",
    "town": "北国分寺台",
    "town_kana": "キタコクブンジダイ",
    "street": null,
    "office_name": null,
    "office_name_kana": null
  },
  "0072": {
    "zip_code": "2900072",
    "prefecture": "千葉県",
    "prefecture_kana": "チバケン",
    "prefecture_code": 12,
    "city": "市原市",
    "city_kana": "イチハラシ",
    "town": "西国分寺台",
    "town_kana": "ニシコクブンジダイ",
    "street": null,
    "office_name": null,
    "office_name_kana": null
  },
  "0073": {
    "zip_code": "2900073",
    "prefecture": "千葉県",
    "prefecture_kana": "チバケン",
    "prefecture_code": 12,
    "city": "市原市",
    "city_kana": "イチハラシ",
    "town": "国分寺台中央",
    "town_kana": "コクブンジダイチュウオウ",
    "street": null,
    "office_name": null,
    "office_name_kana": null
  },
  "0074": {
    "zip_code": "2900074",
    "prefecture": "千葉県",
    "prefecture_kana": "チバケン",
    "prefecture_code": 12,
    "city": "市原市",
    "city_kana": "イチハラシ",
    "town": "東国分寺台",
    "town_kana": "ヒガシコクブンジダイ",
    "street": null,
    "office_name": null,
    "office_name_kana": null
  },
  "0075": {
    "zip_code": "2900075",
    "prefecture": "千葉県",
    "prefecture_kana": "チバケン",
    "prefecture_code": 12,
    "city": "市原市",
    "city_kana": "イチハラシ",
    "town": "南国分寺台",
    "town_kana": "ミナミコクブンジダイ",
    "street": null,
    "office_name": null,
    "office_name_kana": null
  },
  "0081": {
    "zip_code": "2900081",
    "prefecture": "千葉県",
    "prefecture_kana": "チバケン",
    "prefecture_code": 12,
    "city": "市原市",
    "city_kana": "イチハラシ",
    "town": "五井中央西",
    "town_kana": "ゴイチュウオウニシ",
    "street": null,
    "office_name": null,
    "office_name_kana": null
  },
  "0141": {
    "zip_code": "2900141",
    "prefecture": "千葉県",
    "prefecture_kana": "チバケン",
    "prefecture_code": 12,
    "city": "市原市",
    "city_kana": "イチハラシ",
    "town": "ちはら台東",
    "town_kana": "チハラダイヒガシ",
    "street": null,
    "office_name": null,
    "office_name_kana": null
  },
  "0142": {
    "zip_code": "2900142",
    "prefecture": "千葉県",
    "prefecture_kana": "チバケン",
    "prefecture_code": 12,
    "city": "市原市",
    "city_kana": "イチハラシ",
    "town": "ちはら台南",
    "town_kana": "チハラダイミナミ",
    "street": null,
    "office_name": null,
    "office_name_kana": null
  },
  "0143": {
    "zip_code": "2900143",
    "prefecture": "千葉県",
    "prefecture_kana": "チバケン",
    "prefecture_code": 12,
    "city": "市原市",
    "city_kana": "イチハラシ",
    "town": "ちはら台西",
    "town_kana": "チハラダイニシ",
    "street": null,
    "office_name": null,
    "office_name_kana": null
  },
  "0151": {
    "zip_code": "2900151",
    "prefecture": "千葉県",
    "prefecture_kana": "チバケン",
    "prefecture_code": 12,
    "city": "市原市",
    "city_kana": "イチハラシ",
    "town": "瀬又",
    "town_kana": "セマタ",
    "street": null,
    "office_name": null,
    "office_name_kana": null
  },
  "0152": {
    "zip_code": "2900152",
    "prefecture": "千葉県",
    "prefecture_kana": "チバケン",
    "prefecture_code": 12,
    "city": "市原市",
    "city_kana": "イチハラシ",
    "town": "高田",
    "town_kana": "タカダ",
    "street": null,
    "office_name": null,
    "office_name_kana": null
  },
  "0153": {
    "zip_code": "2900153",
    "prefecture": "千葉県",
    "prefecture_kana": "チバケン",
    "prefecture_code": 12,
    "city": "市原市",
    "city_kana": "イチハラシ",
    "town": "中野",
    "town_kana": "ナカノ",
    "street": null,
    "office_name": null,
    "office_name_kana": null
  },
  "0154": {
    "zip_code": "2900154",
    "prefecture": "千葉県",
    "prefecture_kana": "チバケン",
    "prefecture_code": 12,
    "city": "市原市",
    "city_kana": "イチハラシ",
    "town": "下野",
    "town_kana": "シモノ",
    "street": null,
    "office_name": null,
    "office_name_kana": null
  },
  "0155": {
    "zip_code": "2900155",
    "prefecture": "千葉県",
    "prefecture_kana": "チバケン",
    "prefecture_code": 12,
    "city": "市原市",
    "city_kana": "イチハラシ",
    "town": "番場",
    "town_kana": "バンバ",
    "street": null,
    "office_name": null,
    "office_name_kana": null
  },
  "0156": {
    "zip_code": "2900156",
    "prefecture": "千葉県",
    "prefecture_kana": "チバケン",
    "prefecture_code": 12,
    "city": "市原市",
    "city_kana": "イチハラシ",
    "town": "草刈",
    "town_kana": "クサカリ",
    "street": null,
    "office_name": null,
    "office_name_kana": null
  },
  "0157": {
    "zip_code": "2900157",
    "prefecture": "千葉県",
    "prefecture_kana": "チバケン",
    "prefecture_code": 12,
    "city": "市原市",
    "city_kana": "イチハラシ",
    "town": "押沼",
    "town_kana": "オシヌマ",
    "street": null,
    "office_name": null,
    "office_name_kana": null
  },
  "0161": {
    "zip_code": "2900161",
    "prefecture": "千葉県",
    "prefecture_kana": "チバケン",
    "prefecture_code": 12,
    "city": "市原市",
    "city_kana": "イチハラシ",
    "town": "高倉",
    "town_kana": "タカクラ",
    "street": null,
    "office_name": null,
    "office_name_kana": null
  },
  "0162": {
    "zip_code": "2900162",
    "prefecture": "千葉県",
    "prefecture_kana": "チバケン",
    "prefecture_code": 12,
    "city": "市原市",
    "city_kana": "イチハラシ",
    "town": "金剛地",
    "town_kana": "コンゴウジ",
    "street": null,
    "office_name": null,
    "office_name_kana": null
  },
  "0163": {
    "zip_code": "2900163",
    "prefecture": "千葉県",
    "prefecture_kana": "チバケン",
    "prefecture_code": 12,
    "city": "市原市",
    "city_kana": "イチハラシ",
    "town": "東国吉",
    "town_kana": "ヒガシクニヨシ",
    "street": null,
    "office_name": null,
    "office_name_kana": null
  },
  "0164": {
    "zip_code": "2900164",
    "prefecture": "千葉県",
    "prefecture_kana": "チバケン",
    "prefecture_code": 12,
    "city": "市原市",
    "city_kana": "イチハラシ",
    "town": "奈良",
    "town_kana": "ナラ",
    "street": null,
    "office_name": null,
    "office_name_kana": null
  },
  "0165": {
    "zip_code": "2900165",
    "prefecture": "千葉県",
    "prefecture_kana": "チバケン",
    "prefecture_code": 12,
    "city": "市原市",
    "city_kana": "イチハラシ",
    "town": "古都辺",
    "town_kana": "コツベ",
    "street": null,
    "office_name": null,
    "office_name_kana": null
  },
  "0166": {
    "zip_code": "2900166",
    "prefecture": "千葉県",
    "prefecture_kana": "チバケン",
    "prefecture_code": 12,
    "city": "市原市",
    "city_kana": "イチハラシ",
    "town": "犬成",
    "town_kana": "イヌナリ",
    "street": null,
    "office_name": null,
    "office_name_kana": null
  },
  "0167": {
    "zip_code": "2900167",
    "prefecture": "千葉県",
    "prefecture_kana": "チバケン",
    "prefecture_code": 12,
    "city": "市原市",
    "city_kana": "イチハラシ",
    "town": "喜多",
    "town_kana": "キタ",
    "street": null,
    "office_name": null,
    "office_name_kana": null
  },
  "0168": {
    "zip_code": "2900168",
    "prefecture": "千葉県",
    "prefecture_kana": "チバケン",
    "prefecture_code": 12,
    "city": "市原市",
    "city_kana": "イチハラシ",
    "town": "永吉",
    "town_kana": "ナガヨシ",
    "street": null,
    "office_name": null,
    "office_name_kana": null
  },
  "0170": {
    "zip_code": "2900170",
    "prefecture": "千葉県",
    "prefecture_kana": "チバケン",
    "prefecture_code": 12,
    "city": "市原市",
    "city_kana": "イチハラシ",
    "town": "うるいど南",
    "town_kana": "ウルイドミナミ",
    "street": null,
    "office_name": null,
    "office_name_kana": null
  },
  "0171": {
    "zip_code": "2900171",
    "prefecture": "千葉県",
    "prefecture_kana": "チバケン",
    "prefecture_code": 12,
    "city": "市原市",
    "city_kana": "イチハラシ",
    "town": "潤井戸",
    "town_kana": "ウルイド",
    "street": null,
    "office_name": null,
    "office_name_kana": null
  },
  "0172": {
    "zip_code": "2900172",
    "prefecture": "千葉県",
    "prefecture_kana": "チバケン",
    "prefecture_code": 12,
    "city": "市原市",
    "city_kana": "イチハラシ",
    "town": "大作",
    "town_kana": "オオサク",
    "street": null,
    "office_name": null,
    "office_name_kana": null
  },
  "0173": {
    "zip_code": "2900173",
    "prefecture": "千葉県",
    "prefecture_kana": "チバケン",
    "prefecture_code": 12,
    "city": "市原市",
    "city_kana": "イチハラシ",
    "town": "滝口",
    "town_kana": "タキグチ",
    "street": null,
    "office_name": null,
    "office_name_kana": null
  },
  "0174": {
    "zip_code": "2900174",
    "prefecture": "千葉県",
    "prefecture_kana": "チバケン",
    "prefecture_code": 12,
    "city": "市原市",
    "city_kana": "イチハラシ",
    "town": "勝間",
    "town_kana": "カツマ",
    "street": null,
    "office_name": null,
    "office_name_kana": null
  },
  "0175": {
    "zip_code": "2900175",
    "prefecture": "千葉県",
    "prefecture_kana": "チバケン",
    "prefecture_code": 12,
    "city": "市原市",
    "city_kana": "イチハラシ",
    "town": "葉木",
    "town_kana": "ハギ",
    "street": null,
    "office_name": null,
    "office_name_kana": null
  },
  "0176": {
    "zip_code": "2900176",
    "prefecture": "千葉県",
    "prefecture_kana": "チバケン",
    "prefecture_code": 12,
    "city": "市原市",
    "city_kana": "イチハラシ",
    "town": "小田部",
    "town_kana": "オダツペ",
    "street": null,
    "office_name": null,
    "office_name_kana": null
  },
  "0177": {
    "zip_code": "2900177",
    "prefecture": "千葉県",
    "prefecture_kana": "チバケン",
    "prefecture_code": 12,
    "city": "市原市",
    "city_kana": "イチハラシ",
    "town": "荻作",
    "town_kana": "オギサク",
    "street": null,
    "office_name": null,
    "office_name_kana": null
  },
  "0178": {
    "zip_code": "2900178",
    "prefecture": "千葉県",
    "prefecture_kana": "チバケン",
    "prefecture_code": 12,
    "city": "市原市",
    "city_kana": "イチハラシ",
    "town": "神崎",
    "town_kana": "カンザキ",
    "street": null,
    "office_name": null,
    "office_name_kana": null
  },
  "0179": {
    "zip_code": "2900179",
    "prefecture": "千葉県",
    "prefecture_kana": "チバケン",
    "prefecture_code": 12,
    "city": "市原市",
    "city_kana": "イチハラシ",
    "town": "久々津",
    "town_kana": "クグツ",
    "street": null,
    "office_name": null,
    "office_name_kana": null
  },
  "0192": {
    "zip_code": "2900192",
    "prefecture": "千葉県",
    "prefecture_kana": "チバケン",
    "prefecture_code": 12,
    "city": "市原市",
    "city_kana": "イチハラシ",
    "town": "ちはら台西",
    "town_kana": "チハラダイニシ",
    "street": "６丁目１９",
    "office_name": "帝京平成短期大学",
    "office_name_kana": "テイキヨウヘイセイタンキダイガク"
  },
  "0193": {
    "zip_code": "2900193",
    "prefecture": "千葉県",
    "prefecture_kana": "チバケン",
    "prefecture_code": 12,
    "city": "市原市",
    "city_kana": "イチハラシ",
    "town": "潤井戸",
    "town_kana": "ウルイド",
    "street": "２２８９−２３",
    "office_name": "帝京平成大学",
    "office_name_kana": "テイキヨウヘイセイダイガク"
  },
  "0194": {
    "zip_code": "2900194",
    "prefecture": "千葉県",
    "prefecture_kana": "チバケン",
    "prefecture_code": 12,
    "city": "市原市",
    "city_kana": "イチハラシ",
    "town": "ちはら台西",
    "town_kana": "チハラダイニシ",
    "street": "３丁目４",
    "office_name": "ｕｎｉｍｏちはら台",
    "office_name_kana": "ユニモチハラダイ"
  },
  "0201": {
    "zip_code": "2900201",
    "prefecture": "千葉県",
    "prefecture_kana": "チバケン",
    "prefecture_code": 12,
    "city": "市原市",
    "city_kana": "イチハラシ",
    "town": "山倉",
    "town_kana": "ヤマクラ",
    "street": null,
    "office_name": null,
    "office_name_kana": null
  },
  "0202": {
    "zip_code": "2900202",
    "prefecture": "千葉県",
    "prefecture_kana": "チバケン",
    "prefecture_code": 12,
    "city": "市原市",
    "city_kana": "イチハラシ",
    "town": "福増",
    "town_kana": "フクマス",
    "street": null,
    "office_name": null,
    "office_name_kana": null
  },
  "0203": {
    "zip_code": "2900203",
    "prefecture": "千葉県",
    "prefecture_kana": "チバケン",
    "prefecture_code": 12,
    "city": "市原市",
    "city_kana": "イチハラシ",
    "town": "武士",
    "town_kana": "タケシ",
    "street": null,
    "office_name": null,
    "office_name_kana": null
  },
  "0204": {
    "zip_code": "2900204",
    "prefecture": "千葉県",
    "prefecture_kana": "チバケン",
    "prefecture_code": 12,
    "city": "市原市",
    "city_kana": "イチハラシ",
    "town": "磯ケ谷",
    "town_kana": "イソガヤ",
    "street": null,
    "office_name": null,
    "office_name_kana": null
  },
  "0205": {
    "zip_code": "2900205",
    "prefecture": "千葉県",
    "prefecture_kana": "チバケン",
    "prefecture_code": 12,
    "city": "市原市",
    "city_kana": "イチハラシ",
    "town": "山田",
    "town_kana": "ヤマダ",
    "street": null,
    "office_name": null,
    "office_name_kana": null
  },
  "0206": {
    "zip_code": "2900206",
    "prefecture": "千葉県",
    "prefecture_kana": "チバケン",
    "prefecture_code": 12,
    "city": "市原市",
    "city_kana": "イチハラシ",
    "town": "新堀",
    "town_kana": "ニイホリ",
    "street": null,
    "office_name": null,
    "office_name_kana": null
  },
  "0207": {
    "zip_code": "2900207",
    "prefecture": "千葉県",
    "prefecture_kana": "チバケン",
    "prefecture_code": 12,
    "city": "市原市",
    "city_kana": "イチハラシ",
    "town": "海士有木",
    "town_kana": "アマアリキ",
    "street": null,
    "office_name": null,
    "office_name_kana": null
  },
  "0208": {
    "zip_code": "2900208",
    "prefecture": "千葉県",
    "prefecture_kana": "チバケン",
    "prefecture_code": 12,
    "city": "市原市",
    "city_kana": "イチハラシ",
    "town": "大坪",
    "town_kana": "オオツボ",
    "street": null,
    "office_name": null,
    "office_name_kana": null
  },
  "0209": {
    "zip_code": "2900209",
    "prefecture": "千葉県",
    "prefecture_kana": "チバケン",
    "prefecture_code": 12,
    "city": "市原市",
    "city_kana": "イチハラシ",
    "town": "権現堂",
    "town_kana": "ゴンゲンドウ",
    "street": null,
    "office_name": null,
    "office_name_kana": null
  },
  "0211": {
    "zip_code": "2900211",
    "prefecture": "千葉県",
    "prefecture_kana": "チバケン",
    "prefecture_code": 12,
    "city": "市原市",
    "city_kana": "イチハラシ",
    "town": "大桶",
    "town_kana": "オオオケ",
    "street": null,
    "office_name": null,
    "office_name_kana": null
  },
  "0212": {
    "zip_code": "2900212",
    "prefecture": "千葉県",
    "prefecture_kana": "チバケン",
    "prefecture_code": 12,
    "city": "市原市",
    "city_kana": "イチハラシ",
    "town": "新巻",
    "town_kana": "アラマキ",
    "street": null,
    "office_name": null,
    "office_name_kana": null
  },
  "0213": {
    "zip_code": "2900213",
    "prefecture": "千葉県",
    "prefecture_kana": "チバケン",
    "prefecture_code": 12,
    "city": "市原市",
    "city_kana": "イチハラシ",
    "town": "川在",
    "town_kana": "カワザイ",
    "street": null,
    "office_name": null,
    "office_name_kana": null
  },
  "0214": {
    "zip_code": "2900214",
    "prefecture": "千葉県",
    "prefecture_kana": "チバケン",
    "prefecture_code": 12,
    "city": "市原市",
    "city_kana": "イチハラシ",
    "town": "櫃挾",
    "town_kana": "ヒツバ",
    "street": null,
    "office_name": null,
    "office_name_kana": null
  },
  "0215": {
    "zip_code": "2900215",
    "prefecture": "千葉県",
    "prefecture_kana": "チバケン",
    "prefecture_code": 12,
    "city": "市原市",
    "city_kana": "イチハラシ",
    "town": "土宇",
    "town_kana": "ツチウ",
    "street": null,
    "office_name": null,
    "office_name_kana": null
  },
  "0216": {
    "zip_code": "2900216",
    "prefecture": "千葉県",
    "prefecture_kana": "チバケン",
    "prefecture_code": 12,
    "city": "市原市",
    "city_kana": "イチハラシ",
    "town": "二日市場",
    "town_kana": "フツカイチバ",
    "street": null,
    "office_name": null,
    "office_name_kana": null
  },
  "0217": {
    "zip_code": "2900217",
    "prefecture": "千葉県",
    "prefecture_kana": "チバケン",
    "prefecture_code": 12,
    "city": "市原市",
    "city_kana": "イチハラシ",
    "town": "松崎",
    "town_kana": "マツザキ",
    "street": null,
    "office_name": null,
    "office_name_kana": null
  },
  "0221": {
    "zip_code": "2900221",
    "prefecture": "千葉県",
    "prefecture_kana": "チバケン",
    "prefecture_code": 12,
    "city": "市原市",
    "city_kana": "イチハラシ",
    "town": "馬立",
    "town_kana": "ウマタテ",
    "street": null,
    "office_name": null,
    "office_name_kana": null
  },
  "0222": {
    "zip_code": "2900222",
    "prefecture": "千葉県",
    "prefecture_kana": "チバケン",
    "prefecture_code": 12,
    "city": "市原市",
    "city_kana": "イチハラシ",
    "town": "上原",
    "town_kana": "ウエハラ",
    "street": null,
    "office_name": null,
    "office_name_kana": null
  },
  "0223": {
    "zip_code": "2900223",
    "prefecture": "千葉県",
    "prefecture_kana": "チバケン",
    "prefecture_code": 12,
    "city": "市原市",
    "city_kana": "イチハラシ",
    "town": "妙香",
    "town_kana": "ミョウコウ",
    "street": null,
    "office_name": null,
    "office_name_kana": null
  },
  "0224": {
    "zip_code": "2900224",
    "prefecture": "千葉県",
    "prefecture_kana": "チバケン",
    "prefecture_code": 12,
    "city": "市原市",
    "city_kana": "イチハラシ",
    "town": "奉免",
    "town_kana": "ホウメ",
    "street": null,
    "office_name": null,
    "office_name_kana": null
  },
  "0225": {
    "zip_code": "2900225",
    "prefecture": "千葉県",
    "prefecture_kana": "チバケン",
    "prefecture_code": 12,
    "city": "市原市",
    "city_kana": "イチハラシ",
    "town": "牛久",
    "town_kana": "ウシク",
    "street": null,
    "office_name": null,
    "office_name_kana": null
  },
  "0226": {
    "zip_code": "2900226",
    "prefecture": "千葉県",
    "prefecture_kana": "チバケン",
    "prefecture_code": 12,
    "city": "市原市",
    "city_kana": "イチハラシ",
    "town": "中",
    "town_kana": "ナカ",
    "street": null,
    "office_name": null,
    "office_name_kana": null
  },
  "0227": {
    "zip_code": "2900227",
    "prefecture": "千葉県",
    "prefecture_kana": "チバケン",
    "prefecture_code": 12,
    "city": "市原市",
    "city_kana": "イチハラシ",
    "town": "藪",
    "town_kana": "ヤブ",
    "street": null,
    "office_name": null,
    "office_name_kana": null
  },
  "0228": {
    "zip_code": "2900228",
    "prefecture": "千葉県",
    "prefecture_kana": "チバケン",
    "prefecture_code": 12,
    "city": "市原市",
    "city_kana": "イチハラシ",
    "town": "岩",
    "town_kana": "イワ",
    "street": null,
    "office_name": null,
    "office_name_kana": null
  },
  "0229": {
    "zip_code": "2900229",
    "prefecture": "千葉県",
    "prefecture_kana": "チバケン",
    "prefecture_code": 12,
    "city": "市原市",
    "city_kana": "イチハラシ",
    "town": "佐是",
    "town_kana": "サゼ",
    "street": null,
    "office_name": null,
    "office_name_kana": null
  },
  "0231": {
    "zip_code": "2900231",
    "prefecture": "千葉県",
    "prefecture_kana": "チバケン",
    "prefecture_code": 12,
    "city": "市原市",
    "city_kana": "イチハラシ",
    "town": "西国吉",
    "town_kana": "ニシクニヨシ",
    "street": null,
    "office_name": null,
    "office_name_kana": null
  },
  "0232": {
    "zip_code": "2900232",
    "prefecture": "千葉県",
    "prefecture_kana": "チバケン",
    "prefecture_code": 12,
    "city": "市原市",
    "city_kana": "イチハラシ",
    "town": "皆吉",
    "town_kana": "ミナヨシ",
    "street": null,
    "office_name": null,
    "office_name_kana": null
  },
  "0233": {
    "zip_code": "2900233",
    "prefecture": "千葉県",
    "prefecture_kana": "チバケン",
    "prefecture_code": 12,
    "city": "市原市",
    "city_kana": "イチハラシ",
    "town": "金沢",
    "town_kana": "カネサワ",
    "street": null,
    "office_name": null,
    "office_name_kana": null
  },
  "0234": {
    "zip_code": "2900234",
    "prefecture": "千葉県",
    "prefecture_kana": "チバケン",
    "prefecture_code": 12,
    "city": "市原市",
    "city_kana": "イチハラシ",
    "town": "大蔵",
    "town_kana": "オオクラ",
    "street": null,
    "office_name": null,
    "office_name_kana": null
  },
  "0235": {
    "zip_code": "2900235",
    "prefecture": "千葉県",
    "prefecture_kana": "チバケン",
    "prefecture_code": 12,
    "city": "市原市",
    "city_kana": "イチハラシ",
    "town": "栢橋",
    "town_kana": "カヤハシ",
    "street": null,
    "office_name": null,
    "office_name_kana": null
  },
  "0236": {
    "zip_code": "2900236",
    "prefecture": "千葉県",
    "prefecture_kana": "チバケン",
    "prefecture_code": 12,
    "city": "市原市",
    "city_kana": "イチハラシ",
    "town": "寺谷",
    "town_kana": "テラヤツ",
    "street": null,
    "office_name": null,
    "office_name_kana": null
  },
  "0241": {
    "zip_code": "2900241",
    "prefecture": "千葉県",
    "prefecture_kana": "チバケン",
    "prefecture_code": 12,
    "city": "市原市",
    "city_kana": "イチハラシ",
    "town": "風戸",
    "town_kana": "カザト",
    "street": null,
    "office_name": null,
    "office_name_kana": null
  },
  "0242": {
    "zip_code": "2900242",
    "prefecture": "千葉県",
    "prefecture_kana": "チバケン",
    "prefecture_code": 12,
    "city": "市原市",
    "city_kana": "イチハラシ",
    "town": "中高根",
    "town_kana": "ナカタカネ",
    "street": null,
    "office_name": null,
    "office_name_kana": null
  },
  "0243": {
    "zip_code": "2900243",
    "prefecture": "千葉県",
    "prefecture_kana": "チバケン",
    "prefecture_code": 12,
    "city": "市原市",
    "city_kana": "イチハラシ",
    "town": "上高根",
    "town_kana": "カミタカネ",
    "street": null,
    "office_name": null,
    "office_name_kana": null
  },
  "0244": {
    "zip_code": "2900244",
    "prefecture": "千葉県",
    "prefecture_kana": "チバケン",
    "prefecture_code": 12,
    "city": "市原市",
    "city_kana": "イチハラシ",
    "town": "南岩崎",
    "town_kana": "ミナミイワサキ",
    "street": null,
    "office_name": null,
    "office_name_kana": null
  },
  "0251": {
    "zip_code": "2900251",
    "prefecture": "千葉県",
    "prefecture_kana": "チバケン",
    "prefecture_code": 12,
    "city": "市原市",
    "city_kana": "イチハラシ",
    "town": "浅井小向",
    "town_kana": "アサイコムカイ",
    "street": null,
    "office_name": null,
    "office_name_kana": null
  },
  "0252": {
    "zip_code": "2900252",
    "prefecture": "千葉県",
    "prefecture_kana": "チバケン",
    "prefecture_code": 12,
    "city": "市原市",
    "city_kana": "イチハラシ",
    "town": "相川",
    "town_kana": "アイカワ",
    "street": null,
    "office_name": null,
    "office_name_kana": null
  },
  "0253": {
    "zip_code": "2900253",
    "prefecture": "千葉県",
    "prefecture_kana": "チバケン",
    "prefecture_code": 12,
    "city": "市原市",
    "city_kana": "イチハラシ",
    "town": "安須",
    "town_kana": "アズ",
    "street": null,
    "office_name": null,
    "office_name_kana": null
  },
  "0254": {
    "zip_code": "2900254",
    "prefecture": "千葉県",
    "prefecture_kana": "チバケン",
    "prefecture_code": 12,
    "city": "市原市",
    "city_kana": "イチハラシ",
    "town": "高坂",
    "town_kana": "コウザカ",
    "street": null,
    "office_name": null,
    "office_name_kana": null
  },
  "0255": {
    "zip_code": "2900255",
    "prefecture": "千葉県",
    "prefecture_kana": "チバケン",
    "prefecture_code": 12,
    "city": "市原市",
    "city_kana": "イチハラシ",
    "town": "光風台",
    "town_kana": "コウフウダイ",
    "street": null,
    "office_name": null,
    "office_name_kana": null
  },
  "0256": {
    "zip_code": "2900256",
    "prefecture": "千葉県",
    "prefecture_kana": "チバケン",
    "prefecture_code": 12,
    "city": "市原市",
    "city_kana": "イチハラシ",
    "town": "引田",
    "town_kana": "ヒキダ",
    "street": null,
    "office_name": null,
    "office_name_kana": null
  },
  "0257": {
    "zip_code": "2900257",
    "prefecture": "千葉県",
    "prefecture_kana": "チバケン",
    "prefecture_code": 12,
    "city": "市原市",
    "city_kana": "イチハラシ",
    "town": "新生",
    "town_kana": "アラオイ",
    "street": null,
    "office_name": null,
    "office_name_kana": null
  },
  "0258": {
    "zip_code": "2900258",
    "prefecture": "千葉県",
    "prefecture_kana": "チバケン",
    "prefecture_code": 12,
    "city": "市原市",
    "city_kana": "イチハラシ",
    "town": "神代",
    "town_kana": "カジロ",
    "street": null,
    "office_name": null,
    "office_name_kana": null
  },
  "0259": {
    "zip_code": "2900259",
    "prefecture": "千葉県",
    "prefecture_kana": "チバケン",
    "prefecture_code": 12,
    "city": "市原市",
    "city_kana": "イチハラシ",
    "town": "分目",
    "town_kana": "ワンメ",
    "street": null,
    "office_name": null,
    "office_name_kana": null
  },
  "0261": {
    "zip_code": "2900261",
    "prefecture": "千葉県",
    "prefecture_kana": "チバケン",
    "prefecture_code": 12,
    "city": "市原市",
    "city_kana": "イチハラシ",
    "town": "西野",
    "town_kana": "ニシノ",
    "street": null,
    "office_name": null,
    "office_name_kana": null
  },
  "0262": {
    "zip_code": "2900262",
    "prefecture": "千葉県",
    "prefecture_kana": "チバケン",
    "prefecture_code": 12,
    "city": "市原市",
    "city_kana": "イチハラシ",
    "town": "糸久",
    "town_kana": "イトヒサ",
    "street": null,
    "office_name": null,
    "office_name_kana": null
  },
  "0263": {
    "zip_code": "2900263",
    "prefecture": "千葉県",
    "prefecture_kana": "チバケン",
    "prefecture_code": 12,
    "city": "市原市",
    "city_kana": "イチハラシ",
    "town": "十五沢",
    "town_kana": "ジュウゴザワ",
    "street": null,
    "office_name": null,
    "office_name_kana": null
  },
  "0264": {
    "zip_code": "2900264",
    "prefecture": "千葉県",
    "prefecture_kana": "チバケン",
    "prefecture_code": 12,
    "city": "市原市",
    "city_kana": "イチハラシ",
    "town": "宮原",
    "town_kana": "ミヤバラ",
    "street": null,
    "office_name": null,
    "office_name_kana": null
  },
  "0265": {
    "zip_code": "2900265",
    "prefecture": "千葉県",
    "prefecture_kana": "チバケン",
    "prefecture_code": 12,
    "city": "市原市",
    "city_kana": "イチハラシ",
    "town": "今富",
    "town_kana": "イマドミ",
    "street": null,
    "office_name": null,
    "office_name_kana": null
  },
  "0266": {
    "zip_code": "2900266",
    "prefecture": "千葉県",
    "prefecture_kana": "チバケン",
    "prefecture_code": 12,
    "city": "市原市",
    "city_kana": "イチハラシ",
    "town": "海保",
    "town_kana": "カイホ",
    "street": null,
    "office_name": null,
    "office_name_kana": null
  },
  "0267": {
    "zip_code": "2900267",
    "prefecture": "千葉県",
    "prefecture_kana": "チバケン",
    "prefecture_code": 12,
    "city": "市原市",
    "city_kana": "イチハラシ",
    "town": "町田",
    "town_kana": "マチダ",
    "street": null,
    "office_name": null,
    "office_name_kana": null
  },
  "0268": {
    "zip_code": "2900268",
    "prefecture": "千葉県",
    "prefecture_kana": "チバケン",
    "prefecture_code": 12,
    "city": "市原市",
    "city_kana": "イチハラシ",
    "town": "柳原",
    "town_kana": "ヤナギハラ",
    "street": null,
    "office_name": null,
    "office_name_kana": null
  },
  "0269": {
    "zip_code": "2900269",
    "prefecture": "千葉県",
    "prefecture_kana": "チバケン",
    "prefecture_code": 12,
    "city": "市原市",
    "city_kana": "イチハラシ",
    "town": "小折",
    "town_kana": "コオリ",
    "street": null,
    "office_name": null,
    "office_name_kana": null
  },
  "0501": {
    "zip_code": "2900501",
    "prefecture": "千葉県",
    "prefecture_kana": "チバケン",
    "prefecture_code": 12,
    "city": "市原市",
    "city_kana": "イチハラシ",
    "town": "米沢",
    "town_kana": "ヨネザワ",
    "street": null,
    "office_name": null,
    "office_name_kana": null
  },
  "0502": {
    "zip_code": "2900502",
    "prefecture": "千葉県",
    "prefecture_kana": "チバケン",
    "prefecture_code": 12,
    "city": "市原市",
    "city_kana": "イチハラシ",
    "town": "真ケ谷",
    "town_kana": "シンガヤ",
    "street": null,
    "office_name": null,
    "office_name_kana": null
  },
  "0503": {
    "zip_code": "2900503",
    "prefecture": "千葉県",
    "prefecture_kana": "チバケン",
    "prefecture_code": 12,
    "city": "市原市",
    "city_kana": "イチハラシ",
    "town": "宿",
    "town_kana": "シュク",
    "street": null,
    "office_name": null,
    "office_name_kana": null
  },
  "0504": {
    "zip_code": "2900504",
    "prefecture": "千葉県",
    "prefecture_kana": "チバケン",
    "prefecture_code": 12,
    "city": "市原市",
    "city_kana": "イチハラシ",
    "town": "堀越",
    "town_kana": "ホリコシ",
    "street": null,
    "office_name": null,
    "office_name_kana": null
  },
  "0505": {
    "zip_code": "2900505",
    "prefecture": "千葉県",
    "prefecture_kana": "チバケン",
    "prefecture_code": 12,
    "city": "市原市",
    "city_kana": "イチハラシ",
    "town": "市場",
    "town_kana": "イチバ",
    "street": null,
    "office_name": null,
    "office_name_kana": null
  },
  "0506": {
    "zip_code": "2900506",
    "prefecture": "千葉県",
    "prefecture_kana": "チバケン",
    "prefecture_code": 12,
    "city": "市原市",
    "city_kana": "イチハラシ",
    "town": "島田",
    "town_kana": "シマダ",
    "street": null,
    "office_name": null,
    "office_name_kana": null
  },
  "0507": {
    "zip_code": "2900507",
    "prefecture": "千葉県",
    "prefecture_kana": "チバケン",
    "prefecture_code": 12,
    "city": "市原市",
    "city_kana": "イチハラシ",
    "town": "原田",
    "town_kana": "ハラダ",
    "street": null,
    "office_name": null,
    "office_name_kana": null
  },
  "0508": {
    "zip_code": "2900508",
    "prefecture": "千葉県",
    "prefecture_kana": "チバケン",
    "prefecture_code": 12,
    "city": "市原市",
    "city_kana": "イチハラシ",
    "town": "江子田",
    "town_kana": "エゴダ",
    "street": null,
    "office_name": null,
    "office_name_kana": null
  },
  "0509": {
    "zip_code": "2900509",
    "prefecture": "千葉県",
    "prefecture_kana": "チバケン",
    "prefecture_code": 12,
    "city": "市原市",
    "city_kana": "イチハラシ",
    "town": "安久谷",
    "town_kana": "アクヤ",
    "street": null,
    "office_name": null,
    "office_name_kana": null
  },
  "0511": {
    "zip_code": "2900511",
    "prefecture": "千葉県",
    "prefecture_kana": "チバケン",
    "prefecture_code": 12,
    "city": "市原市",
    "city_kana": "イチハラシ",
    "town": "石川",
    "town_kana": "イシカワ",
    "street": null,
    "office_name": null,
    "office_name_kana": null
  },
  "0512": {
    "zip_code": "2900512",
    "prefecture": "千葉県",
    "prefecture_kana": "チバケン",
    "prefecture_code": 12,
    "city": "市原市",
    "city_kana": "イチハラシ",
    "town": "鶴舞",
    "town_kana": "ツルマイ",
    "street": null,
    "office_name": null,
    "office_name_kana": null
  },
  "0513": {
    "zip_code": "2900513",
    "prefecture": "千葉県",
    "prefecture_kana": "チバケン",
    "prefecture_code": 12,
    "city": "市原市",
    "city_kana": "イチハラシ",
    "town": "奥野",
    "town_kana": "オクノ",
    "street": null,
    "office_name": null,
    "office_name_kana": null
  },
  "0514": {
    "zip_code": "2900514",
    "prefecture": "千葉県",
    "prefecture_kana": "チバケン",
    "prefecture_code": 12,
    "city": "市原市",
    "city_kana": "イチハラシ",
    "town": "水沢",
    "town_kana": "ミズサワ",
    "street": null,
    "office_name": null,
    "office_name_kana": null
  },
  "0515": {
    "zip_code": "2900515",
    "prefecture": "千葉県",
    "prefecture_kana": "チバケン",
    "prefecture_code": 12,
    "city": "市原市",
    "city_kana": "イチハラシ",
    "town": "田尾",
    "town_kana": "タビ",
    "street": null,
    "office_name": null,
    "office_name_kana": null
  },
  "0516": {
    "zip_code": "2900516",
    "prefecture": "千葉県",
    "prefecture_kana": "チバケン",
    "prefecture_code": 12,
    "city": "市原市",
    "city_kana": "イチハラシ",
    "town": "池和田",
    "town_kana": "イケワダ",
    "street": null,
    "office_name": null,
    "office_name_kana": null
  },
  "0517": {
    "zip_code": "2900517",
    "prefecture": "千葉県",
    "prefecture_kana": "チバケン",
    "prefecture_code": 12,
    "city": "市原市",
    "city_kana": "イチハラシ",
    "town": "矢田",
    "town_kana": "ヤタ",
    "street": null,
    "office_name": null,
    "office_name_kana": null
  },
  "0518": {
    "zip_code": "2900518",
    "prefecture": "千葉県",
    "prefecture_kana": "チバケン",
    "prefecture_code": 12,
    "city": "市原市",
    "city_kana": "イチハラシ",
    "town": "下矢田",
    "town_kana": "シモヤタ",
    "street": null,
    "office_name": null,
    "office_name_kana": null
  },
  "0521": {
    "zip_code": "2900521",
    "prefecture": "千葉県",
    "prefecture_kana": "チバケン",
    "prefecture_code": 12,
    "city": "市原市",
    "city_kana": "イチハラシ",
    "town": "山小川",
    "town_kana": "ヤマコガワ",
    "street": null,
    "office_name": null,
    "office_name_kana": null
  },
  "0522": {
    "zip_code": "2900522",
    "prefecture": "千葉県",
    "prefecture_kana": "チバケン",
    "prefecture_code": 12,
    "city": "市原市",
    "city_kana": "イチハラシ",
    "town": "新井",
    "town_kana": "アライ",
    "street": null,
    "office_name": null,
    "office_name_kana": null
  },
  "0523": {
    "zip_code": "2900523",
    "prefecture": "千葉県",
    "prefecture_kana": "チバケン",
    "prefecture_code": 12,
    "city": "市原市",
    "city_kana": "イチハラシ",
    "town": "吉沢",
    "town_kana": "キチサワ",
    "street": null,
    "office_name": null,
    "office_name_kana": null
  },
  "0524": {
    "zip_code": "2900524",
    "prefecture": "千葉県",
    "prefecture_kana": "チバケン",
    "prefecture_code": 12,
    "city": "市原市",
    "city_kana": "イチハラシ",
    "town": "平蔵",
    "town_kana": "ヘイゾウ",
    "street": null,
    "office_name": null,
    "office_name_kana": null
  },
  "0525": {
    "zip_code": "2900525",
    "prefecture": "千葉県",
    "prefecture_kana": "チバケン",
    "prefecture_code": 12,
    "city": "市原市",
    "city_kana": "イチハラシ",
    "town": "米原",
    "town_kana": "ヨネワラ",
    "street": null,
    "office_name": null,
    "office_name_kana": null
  },
  "0526": {
    "zip_code": "2900526",
    "prefecture": "千葉県",
    "prefecture_kana": "チバケン",
    "prefecture_code": 12,
    "city": "市原市",
    "city_kana": "イチハラシ",
    "town": "小草畑",
    "town_kana": "コクサバタ",
    "street": null,
    "office_name": null,
    "office_name_kana": null
  },
  "0527": {
    "zip_code": "2900527",
    "prefecture": "千葉県",
    "prefecture_kana": "チバケン",
    "prefecture_code": 12,
    "city": "市原市",
    "city_kana": "イチハラシ",
    "town": "月出",
    "town_kana": "ツキデ",
    "street": null,
    "office_name": null,
    "office_name_kana": null
  },
  "0528": {
    "zip_code": "2900528",
    "prefecture": "千葉県",
    "prefecture_kana": "チバケン",
    "prefecture_code": 12,
    "city": "市原市",
    "city_kana": "イチハラシ",
    "town": "古敷谷",
    "town_kana": "コシキヤ",
    "street": null,
    "office_name": null,
    "office_name_kana": null
  },
  "0529": {
    "zip_code": "2900529",
    "prefecture": "千葉県",
    "prefecture_kana": "チバケン",
    "prefecture_code": 12,
    "city": "市原市",
    "city_kana": "イチハラシ",
    "town": "小谷田",
    "town_kana": "コヤタ",
    "street": null,
    "office_name": null,
    "office_name_kana": null
  },
  "0531": {
    "zip_code": "2900531",
    "prefecture": "千葉県",
    "prefecture_kana": "チバケン",
    "prefecture_code": 12,
    "city": "市原市",
    "city_kana": "イチハラシ",
    "town": "国本",
    "town_kana": "コクモト",
    "street": null,
    "office_name": null,
    "office_name_kana": null
  },
  "0532": {
    "zip_code": "2900532",
    "prefecture": "千葉県",
    "prefecture_kana": "チバケン",
    "prefecture_code": 12,
    "city": "市原市",
    "city_kana": "イチハラシ",
    "town": "大久保",
    "town_kana": "オオクボ",
    "street": null,
    "office_name": null,
    "office_name_kana": null
  },
  "0533": {
    "zip_code": "2900533",
    "prefecture": "千葉県",
    "prefecture_kana": "チバケン",
    "prefecture_code": 12,
    "city": "市原市",
    "city_kana": "イチハラシ",
    "town": "折津",
    "town_kana": "オリヅ",
    "street": null,
    "office_name": null,
    "office_name_kana": null
  },
  "0534": {
    "zip_code": "2900534",
    "prefecture": "千葉県",
    "prefecture_kana": "チバケン",
    "prefecture_code": 12,
    "city": "市原市",
    "city_kana": "イチハラシ",
    "town": "石神",
    "town_kana": "イシガミ",
    "street": null,
    "office_name": null,
    "office_name_kana": null
  },
  "0535": {
    "zip_code": "2900535",
    "prefecture": "千葉県",
    "prefecture_kana": "チバケン",
    "prefecture_code": 12,
    "city": "市原市",
    "city_kana": "イチハラシ",
    "town": "朝生原",
    "town_kana": "アソウバラ",
    "street": null,
    "office_name": null,
    "office_name_kana": null
  },
  "0536": {
    "zip_code": "2900536",
    "prefecture": "千葉県",
    "prefecture_kana": "チバケン",
    "prefecture_code": 12,
    "city": "市原市",
    "city_kana": "イチハラシ",
    "town": "戸面",
    "town_kana": "トヅラ",
    "street": null,
    "office_name": null,
    "office_name_kana": null
  },
  "0537": {
    "zip_code": "2900537",
    "prefecture": "千葉県",
    "prefecture_kana": "チバケン",
    "prefecture_code": 12,
    "city": "市原市",
    "city_kana": "イチハラシ",
    "town": "石塚",
    "town_kana": "イシヅカ",
    "street": null,
    "office_name": null,
    "office_name_kana": null
  },
  "0538": {
    "zip_code": "2900538",
    "prefecture": "千葉県",
    "prefecture_kana": "チバケン",
    "prefecture_code": 12,
    "city": "市原市",
    "city_kana": "イチハラシ",
    "town": "柳川",
    "town_kana": "ヤナガワ",
    "street": null,
    "office_name": null,
    "office_name_kana": null
  },
  "0539": {
    "zip_code": "2900539",
    "prefecture": "千葉県",
    "prefecture_kana": "チバケン",
    "prefecture_code": 12,
    "city": "市原市",
    "city_kana": "イチハラシ",
    "town": "菅野",
    "town_kana": "スゲノ",
    "street": null,
    "office_name": null,
    "office_name_kana": null
  },
  "0541": {
    "zip_code": "2900541",
    "prefecture": "千葉県",
    "prefecture_kana": "チバケン",
    "prefecture_code": 12,
    "city": "市原市",
    "city_kana": "イチハラシ",
    "town": "平野",
    "town_kana": "ヒラノ",
    "street": null,
    "office_name": null,
    "office_name_kana": null
  },
  "0542": {
    "zip_code": "2900542",
    "prefecture": "千葉県",
    "prefecture_kana": "チバケン",
    "prefecture_code": 12,
    "city": "市原市",
    "city_kana": "イチハラシ",
    "town": "大戸",
    "town_kana": "オオト",
    "street": null,
    "office_name": null,
    "office_name_kana": null
  },
  "0543": {
    "zip_code": "2900543",
    "prefecture": "千葉県",
    "prefecture_kana": "チバケン",
    "prefecture_code": 12,
    "city": "市原市",
    "city_kana": "イチハラシ",
    "town": "飯給",
    "town_kana": "イタブ",
    "street": null,
    "office_name": null,
    "office_name_kana": null
  },
  "0544": {
    "zip_code": "2900544",
    "prefecture": "千葉県",
    "prefecture_kana": "チバケン",
    "prefecture_code": 12,
    "city": "市原市",
    "city_kana": "イチハラシ",
    "town": "徳氏",
    "town_kana": "トクウジ",
    "street": null,
    "office_name": null,
    "office_name_kana": null
  },
  "0545": {
    "zip_code": "2900545",
    "prefecture": "千葉県",
    "prefecture_kana": "チバケン",
    "prefecture_code": 12,
    "city": "市原市",
    "city_kana": "イチハラシ",
    "town": "田淵旧日竹",
    "town_kana": "タブチキュウヒタケ",
    "street": null,
    "office_name": null,
    "office_name_kana": null
  },
  "0546": {
    "zip_code": "2900546",
    "prefecture": "千葉県",
    "prefecture_kana": "チバケン",
    "prefecture_code": 12,
    "city": "市原市",
    "city_kana": "イチハラシ",
    "town": "田淵",
    "town_kana": "タブチ",
    "street": null,
    "office_name": null,
    "office_name_kana": null
  },
  "0547": {
    "zip_code": "2900547",
    "prefecture": "千葉県",
    "prefecture_kana": "チバケン",
    "prefecture_code": 12,
    "city": "市原市",
    "city_kana": "イチハラシ",
    "town": "月崎",
    "town_kana": "ツキザキ",
    "street": null,
    "office_name": null,
    "office_name_kana": null
  },
  "0548": {
    "zip_code": "2900548",
    "prefecture": "千葉県",
    "prefecture_kana": "チバケン",
    "prefecture_code": 12,
    "city": "市原市",
    "city_kana": "イチハラシ",
    "town": "柿木台",
    "town_kana": "カキノキダイ",
    "street": null,
    "office_name": null,
    "office_name_kana": null
  },
  "0549": {
    "zip_code": "2900549",
    "prefecture": "千葉県",
    "prefecture_kana": "チバケン",
    "prefecture_code": 12,
    "city": "市原市",
    "city_kana": "イチハラシ",
    "town": "万田野",
    "town_kana": "マンダノ",
    "street": null,
    "office_name": null,
    "office_name_kana": null
  },
  "0551": {
    "zip_code": "2900551",
    "prefecture": "千葉県",
    "prefecture_kana": "チバケン",
    "prefecture_code": 12,
    "city": "市原市",
    "city_kana": "イチハラシ",
    "town": "外部田",
    "town_kana": "トノベタ",
    "street": null,
    "office_name": null,
    "office_name_kana": null
  },
  "0552": {
    "zip_code": "2900552",
    "prefecture": "千葉県",
    "prefecture_kana": "チバケン",
    "prefecture_code": 12,
    "city": "市原市",
    "city_kana": "イチハラシ",
    "town": "久保",
    "town_kana": "クボ",
    "street": null,
    "office_name": null,
    "office_name_kana": null
  },
  "0553": {
    "zip_code": "2900553",
    "prefecture": "千葉県",
    "prefecture_kana": "チバケン",
    "prefecture_code": 12,
    "city": "市原市",
    "city_kana": "イチハラシ",
    "town": "大和田",
    "town_kana": "オオワダ",
    "street": null,
    "office_name": null,
    "office_name_kana": null
  },
  "0554": {
    "zip_code": "2900554",
    "prefecture": "千葉県",
    "prefecture_kana": "チバケン",
    "prefecture_code": 12,
    "city": "市原市",
    "city_kana": "イチハラシ",
    "town": "不入",
    "town_kana": "フニュウ",
    "street": null,
    "office_name": null,
    "office_name_kana": null
  },
  "0555": {
    "zip_code": "2900555",
    "prefecture": "千葉県",
    "prefecture_kana": "チバケン",
    "prefecture_code": 12,
    "city": "市原市",
    "city_kana": "イチハラシ",
    "town": "高滝",
    "town_kana": "タカタキ",
    "street": null,
    "office_name": null,
    "office_name_kana": null
  },
  "0556": {
    "zip_code": "2900556",
    "prefecture": "千葉県",
    "prefecture_kana": "チバケン",
    "prefecture_code": 12,
    "city": "市原市",
    "city_kana": "イチハラシ",
    "town": "本郷",
    "town_kana": "ホンゴウ",
    "street": null,
    "office_name": null,
    "office_name_kana": null
  },
  "0557": {
    "zip_code": "2900557",
    "prefecture": "千葉県",
    "prefecture_kana": "チバケン",
    "prefecture_code": 12,
    "city": "市原市",
    "city_kana": "イチハラシ",
    "town": "養老",
    "town_kana": "ヨウロウ",
    "street": null,
    "office_name": null,
    "office_name_kana": null
  },
  "0558": {
    "zip_code": "2900558",
    "prefecture": "千葉県",
    "prefecture_kana": "チバケン",
    "prefecture_code": 12,
    "city": "市原市",
    "city_kana": "イチハラシ",
    "town": "山口",
    "town_kana": "ヤマグチ",
    "street": null,
    "office_name": null,
    "office_name_kana": null
  },
  "0559": {
    "zip_code": "2900559",
    "prefecture": "千葉県",
    "prefecture_kana": "チバケン",
    "prefecture_code": 12,
    "city": "市原市",
    "city_kana": "イチハラシ",
    "town": "駒込",
    "town_kana": "コマゴメ",
    "street": null,
    "office_name": null,
    "office_name_kana": null
  },
  "8501": {
    "zip_code": "2908501",
    "prefecture": "千葉県",
    "prefecture_kana": "チバケン",
    "prefecture_code": 12,
    "city": "市原市",
    "city_kana": "イチハラシ",
    "town": "国分寺台中央",
    "town_kana": "コクブンジダイチュウオウ",
    "street": "１丁目１−１",
    "office_name": "市原市役所",
    "office_name_kana": "イチハラシヤクシヨ"
  },
  "8503": {
    "zip_code": "2908503",
    "prefecture": "千葉県",
    "prefecture_kana": "チバケン",
    "prefecture_code": 12,
    "city": "市原市",
    "city_kana": "イチハラシ",
    "town": "五井南海岸",
    "town_kana": "ゴイミナミカイガン",
    "street": "３",
    "office_name": "丸善石油化学　株式会社　千葉工場",
    "office_name_kana": "マルゼンセキユカガク カブシキガイシヤ チバコウジヨウ"
  },
  "8510": {
    "zip_code": "2908510",
    "prefecture": "千葉県",
    "prefecture_kana": "チバケン",
    "prefecture_code": 12,
    "city": "市原市",
    "city_kana": "イチハラシ",
    "town": "八幡海岸通",
    "town_kana": "ヤワタカイガンドオリ",
    "street": "３８",
    "office_name": "旭硝子エンジニアリング　株式会社",
    "office_name_kana": "アサヒガラスエンジニアリング カブシキガイシヤ"
  },
  "8511": {
    "zip_code": "2908511",
    "prefecture": "千葉県",
    "prefecture_kana": "チバケン",
    "prefecture_code": 12,
    "city": "市原市",
    "city_kana": "イチハラシ",
    "town": "八幡海岸通",
    "town_kana": "ヤワタカイガンドオリ",
    "street": "７",
    "office_name": "富士電機システムズ　株式会社　千葉工場",
    "office_name_kana": "フジデンキシステムズ カブシキガイシヤ チバコウジヨウ"
  },
  "8530": {
    "zip_code": "2908530",
    "prefecture": "千葉県",
    "prefecture_kana": "チバケン",
    "prefecture_code": 12,
    "city": "市原市",
    "city_kana": "イチハラシ",
    "town": "五井南海岸",
    "town_kana": "ゴイミナミカイガン",
    "street": "１２−８",
    "office_name": "日本曹達　株式会社　千葉工場",
    "office_name_kana": "ニホンソウダ カブシキガイシヤ チバコウジヨウ"
  },
  "8531": {
    "zip_code": "2908531",
    "prefecture": "千葉県",
    "prefecture_kana": "チバケン",
    "prefecture_code": 12,
    "city": "市原市",
    "city_kana": "イチハラシ",
    "town": "八幡海岸通",
    "town_kana": "ヤワタカイガンドオリ",
    "street": "１番地",
    "office_name": "三井造船　株式会社　千葉事業所",
    "office_name_kana": "ミツイゾウセン カブシキガイシヤ チバジギヨウシヨ"
  },
  "8550": {
    "zip_code": "2908550",
    "prefecture": "千葉県",
    "prefecture_kana": "チバケン",
    "prefecture_code": 12,
    "city": "市原市",
    "city_kana": "イチハラシ",
    "town": "五井南海岸",
    "town_kana": "ゴイミナミカイガン",
    "street": "８−１",
    "office_name": "宇部興産　株式会社　千葉石油化学工場",
    "office_name_kana": "ウベコウサン カブシキガイシヤ チバセキユカガクコウジヨウ"
  },
  "8551": {
    "zip_code": "2908551",
    "prefecture": "千葉県",
    "prefecture_kana": "チバケン",
    "prefecture_code": 12,
    "city": "市原市",
    "city_kana": "イチハラシ",
    "town": "五井海岸",
    "town_kana": "ゴイカイガン",
    "street": "５番地の１",
    "office_name": "ＪＮＣ石油化学　株式会社　市原製造所",
    "office_name_kana": "ジエイエヌシ-セキユカガク カブシキガイシヤ イチハラセイゾウシヨ"
  },
  "8555": {
    "zip_code": "2908555",
    "prefecture": "千葉県",
    "prefecture_kana": "チバケン",
    "prefecture_code": 12,
    "city": "市原市",
    "city_kana": "イチハラシ",
    "town": "八幡海岸通",
    "town_kana": "ヤワタカイガンドオリ",
    "street": "６",
    "office_name": "古河電気工業　株式会社　千葉事業所",
    "office_name_kana": "フルカワデンキコウギヨウ カブシキガイシヤ チバジギヨウシヨ"
  },
  "8558": {
    "zip_code": "2908558",
    "prefecture": "千葉県",
    "prefecture_kana": "チバケン",
    "prefecture_code": 12,
    "city": "市原市",
    "city_kana": "イチハラシ",
    "town": "五井海岸",
    "town_kana": "ゴイカイガン",
    "street": "２",
    "office_name": "コスモ石油　株式会社　千葉製油所",
    "office_name_kana": "コスモセキユ カブシキガイシヤ チバセイユジヨ"
  },
  "8560": {
    "zip_code": "2908560",
    "prefecture": "千葉県",
    "prefecture_kana": "チバケン",
    "prefecture_code": 12,
    "city": "市原市",
    "city_kana": "イチハラシ",
    "town": "五井南海岸",
    "town_kana": "ゴイミナミカイガン",
    "street": "１１の１",
    "office_name": "協和発酵ケミカル　株式会社　千葉工場",
    "office_name_kana": "キヨウワハツコウケミカル (カ) チバコウジヨウ"
  },
  "8566": {
    "zip_code": "2908566",
    "prefecture": "千葉県",
    "prefecture_kana": "チバケン",
    "prefecture_code": 12,
    "city": "市原市",
    "city_kana": "イチハラシ",
    "town": "五井海岸",
    "town_kana": "ゴイカイガン",
    "street": "１０",
    "office_name": "旭硝子　株式会社　千葉工場",
    "office_name_kana": "アサヒガラス カブシキガイシヤ チバコウジヨウ"
  },
  "8577": {
    "zip_code": "2908577",
    "prefecture": "千葉県",
    "prefecture_kana": "チバケン",
    "prefecture_code": 12,
    "city": "市原市",
    "city_kana": "イチハラシ",
    "town": "五井中央西",
    "town_kana": "ゴイチュウオウニシ",
    "street": "１丁目２−２",
    "office_name": "株式会社　ヒノックス",
    "office_name_kana": "カブシキガイシヤ ヒノツクス"
  },
  "8585": {
    "zip_code": "2908585",
    "prefecture": "千葉県",
    "prefecture_kana": "チバケン",
    "prefecture_code": 12,
    "city": "市原市",
    "city_kana": "イチハラシ",
    "town": "八幡海岸通",
    "town_kana": "ヤワタカイガンドオリ",
    "street": "１２",
    "office_name": "ＤＩＣ　株式会社　千葉工場",
    "office_name_kana": "デイ-アイシ- カブシキガイシヤ チバコウジヨウ"
  },
  "8588": {
    "zip_code": "2908588",
    "prefecture": "千葉県",
    "prefecture_kana": "チバケン",
    "prefecture_code": 12,
    "city": "市原市",
    "city_kana": "イチハラシ",
    "town": "五井南海岸",
    "town_kana": "ゴイミナミカイガン",
    "street": "６",
    "office_name": "電気化学工業　株式会社　千葉工場",
    "office_name_kana": "デンキカガクコウギヨウ カブシキガイシヤ チバコウジヨウ"
  },
  "8610": {
    "zip_code": "2908610",
    "prefecture": "千葉県",
    "prefecture_kana": "チバケン",
    "prefecture_code": 12,
    "city": "市原市",
    "city_kana": "イチハラシ",
    "town": "八幡海岸通",
    "town_kana": "ヤワタカイガンドオリ",
    "street": "１３",
    "office_name": "不二サッシ　株式会社　千葉工場",
    "office_name_kana": "フジサツシ カブシキガイシヤ チバコウジヨウ"
  }
}