{
  "0000": {
    "zip_code": "2970000",
    "prefecture": "千葉県",
    "prefecture_kana": "チバケン",
    "prefecture_code": 12,
    "city": "茂原市",
    "city_kana": "モバラシ",
    "town": "",
    "town_kana": "",
    "street": null,
    "office_name": null,
    "office_name_kana": null
  },
  "0001": {
    "zip_code": "2970001",
    "prefecture": "千葉県",
    "prefecture_kana": "チバケン",
    "prefecture_code": 12,
    "city": "茂原市",
    "city_kana": "モバラシ",
    "town": "七渡",
    "town_kana": "ナナワタリ",
    "street": null,
    "office_name": null,
    "office_name_kana": null
  },
  "0002": {
    "zip_code": "2970002",
    "prefecture": "千葉県",
    "prefecture_kana": "チバケン",
    "prefecture_code": 12,
    "city": "茂原市",
    "city_kana": "モバラシ",
    "town": "千町",
    "town_kana": "センチョウ",
    "street": null,
    "office_name": null,
    "office_name_kana": null
  },
  "0003": {
    "zip_code": "2970003",
    "prefecture": "千葉県",
    "prefecture_kana": "チバケン",
    "prefecture_code": 12,
    "city": "茂原市",
    "city_kana": "モバラシ",
    "town": "北高根飛地",
    "town_kana": "キタタカネトビチ",
    "street": null,
    "office_name": null,
    "office_name_kana": null
  },
  "0004": {
    "zip_code": "2970004",
    "prefecture": "千葉県",
    "prefecture_kana": "チバケン",
    "prefecture_code": 12,
    "city": "茂原市",
    "city_kana": "モバラシ",
    "town": "小轡",
    "town_kana": "コグツワ",
    "street": null,
    "office_name": null,
    "office_name_kana": null
  },
  "0005": {
    "zip_code": "2970005",
    "prefecture": "千葉県",
    "prefecture_kana": "チバケン",
    "prefecture_code": 12,
    "city": "茂原市",
    "city_kana": "モバラシ",
    "town": "本小轡",
    "town_kana": "ホンコグツワ",
    "street": null,
    "office_name": null,
    "office_name_kana": null
  },
  "0006": {
    "zip_code": "2970006",
    "prefecture": "千葉県",
    "prefecture_kana": "チバケン",
    "prefecture_code": 12,
    "city": "茂原市",
    "city_kana": "モバラシ",
    "town": "新小轡",
    "town_kana": "シンコグツワ",
    "street": null,
    "office_name": null,
    "office_name_kana": null
  },
  "0007": {
    "zip_code": "2970007",
    "prefecture": "千葉県",
    "prefecture_kana": "チバケン",
    "prefecture_code": 12,
    "city": "茂原市",
    "city_kana": "モバラシ",
    "town": "腰当",
    "town_kana": "コシアテ",
    "street": null,
    "office_name": null,
    "office_name_kana": null
  },
  "0008": {
    "zip_code": "2970008",
    "prefecture": "千葉県",
    "prefecture_kana": "チバケン",
    "prefecture_code": 12,
    "city": "茂原市",
    "city_kana": "モバラシ",
    "town": "渋谷",
    "town_kana": "シブヤ",
    "street": null,
    "office_name": null,
    "office_name_kana": null
  },
  "0009": {
    "zip_code": "2970009",
    "prefecture": "千葉県",
    "prefecture_kana": "チバケン",
    "prefecture_code": 12,
    "city": "茂原市",
    "city_kana": "モバラシ",
    "town": "北塚",
    "town_kana": "キタヅカ",
    "street": null,
    "office_name": null,
    "office_name_kana": null
  },
  "0011": {
    "zip_code": "2970011",
    "prefecture": "千葉県",
    "prefecture_kana": "チバケン",
    "prefecture_code": 12,
    "city": "茂原市",
    "city_kana": "モバラシ",
    "town": "谷本",
    "town_kana": "ヤモト",
    "street": null,
    "office_name": null,
    "office_name_kana": null
  },
  "0012": {
    "zip_code": "2970012",
    "prefecture": "千葉県",
    "prefecture_kana": "チバケン",
    "prefecture_code": 12,
    "city": "茂原市",
    "city_kana": "モバラシ",
    "town": "六ツ野",
    "town_kana": "ムツノ",
    "street": null,
    "office_name": null,
    "office_name_kana": null
  },
  "0013": {
    "zip_code": "2970013",
    "prefecture": "千葉県",
    "prefecture_kana": "チバケン",
    "prefecture_code": 12,
    "city": "茂原市",
    "city_kana": "モバラシ",
    "town": "中之郷飛地",
    "town_kana": "ナカノゴウトビチ",
    "street": null,
    "office_name": null,
    "office_name_kana": null
  },
  "0014": {
    "zip_code": "2970014",
    "prefecture": "千葉県",
    "prefecture_kana": "チバケン",
    "prefecture_code": 12,
    "city": "茂原市",
    "city_kana": "モバラシ",
    "town": "川島飛地",
    "town_kana": "カワシマトビチ",
    "street": null,
    "office_name": null,
    "office_name_kana": null
  },
  "0015": {
    "zip_code": "2970015",
    "prefecture": "千葉県",
    "prefecture_kana": "チバケン",
    "prefecture_code": 12,
    "city": "茂原市",
    "city_kana": "モバラシ",
    "town": "東部台",
    "town_kana": "トウブダイ",
    "street": null,
    "office_name": null,
    "office_name_kana": null
  },
  "0016": {
    "zip_code": "2970016",
    "prefecture": "千葉県",
    "prefecture_kana": "チバケン",
    "prefecture_code": 12,
    "city": "茂原市",
    "city_kana": "モバラシ",
    "town": "木崎",
    "town_kana": "キサキ",
    "street": null,
    "office_name": null,
    "office_name_kana": null
  },
  "0017": {
    "zip_code": "2970017",
    "prefecture": "千葉県",
    "prefecture_kana": "チバケン",
    "prefecture_code": 12,
    "city": "茂原市",
    "city_kana": "モバラシ",
    "town": "東郷",
    "town_kana": "トウゴウ",
    "street": null,
    "office_name": null,
    "office_name_kana": null
  },
  "0018": {
    "zip_code": "2970018",
    "prefecture": "千葉県",
    "prefecture_kana": "チバケン",
    "prefecture_code": 12,
    "city": "茂原市",
    "city_kana": "モバラシ",
    "town": "萩原町",
    "town_kana": "ハギワラチョウ",
    "street": null,
    "office_name": null,
    "office_name_kana": null
  },
  "0019": {
    "zip_code": "2970019",
    "prefecture": "千葉県",
    "prefecture_kana": "チバケン",
    "prefecture_code": 12,
    "city": "茂原市",
    "city_kana": "モバラシ",
    "town": "上林",
    "town_kana": "カンバヤシ",
    "street": null,
    "office_name": null,
    "office_name_kana": null
  },
  "0021": {
    "zip_code": "2970021",
    "prefecture": "千葉県",
    "prefecture_kana": "チバケン",
    "prefecture_code": 12,
    "city": "茂原市",
    "city_kana": "モバラシ",
    "town": "高師町",
    "town_kana": "タカシチョウ",
    "street": null,
    "office_name": null,
    "office_name_kana": null
  },
  "0022": {
    "zip_code": "2970022",
    "prefecture": "千葉県",
    "prefecture_kana": "チバケン",
    "prefecture_code": 12,
    "city": "茂原市",
    "city_kana": "モバラシ",
    "town": "町保",
    "town_kana": "マチボ",
    "street": null,
    "office_name": null,
    "office_name_kana": null
  },
  "0023": {
    "zip_code": "2970023",
    "prefecture": "千葉県",
    "prefecture_kana": "チバケン",
    "prefecture_code": 12,
    "city": "茂原市",
    "city_kana": "モバラシ",
    "town": "千代田町",
    "town_kana": "チヨダチョウ",
    "street": null,
    "office_name": null,
    "office_name_kana": null
  },
  "0024": {
    "zip_code": "2970024",
    "prefecture": "千葉県",
    "prefecture_kana": "チバケン",
    "prefecture_code": 12,
    "city": "茂原市",
    "city_kana": "モバラシ",
    "town": "八千代",
    "town_kana": "ヤチヨ",
    "street": null,
    "office_name": null,
    "office_name_kana": null
  },
  "0025": {
    "zip_code": "2970025",
    "prefecture": "千葉県",
    "prefecture_kana": "チバケン",
    "prefecture_code": 12,
    "city": "茂原市",
    "city_kana": "モバラシ",
    "town": "緑町",
    "town_kana": "ミドリチョウ",
    "street": null,
    "office_name": null,
    "office_name_kana": null
  },
  "0026": {
    "zip_code": "2970026",
    "prefecture": "千葉県",
    "prefecture_kana": "チバケン",
    "prefecture_code": 12,
    "city": "茂原市",
    "city_kana": "モバラシ",
    "town": "茂原",
    "town_kana": "モバラ",
    "street": null,
    "office_name": null,
    "office_name_kana": null
  },
  "0027": {
    "zip_code": "2970027",
    "prefecture": "千葉県",
    "prefecture_kana": "チバケン",
    "prefecture_code": 12,
    "city": "茂原市",
    "city_kana": "モバラシ",
    "town": "中部",
    "town_kana": "チュウブ",
    "street": null,
    "office_name": null,
    "office_name_kana": null
  },
  "0028": {
    "zip_code": "2970028",
    "prefecture": "千葉県",
    "prefecture_kana": "チバケン",
    "prefecture_code": 12,
    "city": "茂原市",
    "city_kana": "モバラシ",
    "town": "道表",
    "town_kana": "ドウビョウ",
    "street": null,
    "office_name": null,
    "office_name_kana": null
  },
  "0029": {
    "zip_code": "2970029",
    "prefecture": "千葉県",
    "prefecture_kana": "チバケン",
    "prefecture_code": 12,
    "city": "茂原市",
    "city_kana": "モバラシ",
    "town": "高師",
    "town_kana": "タカシ",
    "street": null,
    "office_name": null,
    "office_name_kana": null
  },
  "0031": {
    "zip_code": "2970031",
    "prefecture": "千葉県",
    "prefecture_kana": "チバケン",
    "prefecture_code": 12,
    "city": "茂原市",
    "city_kana": "モバラシ",
    "town": "早野新田",
    "town_kana": "ハヤノシンデン",
    "street": null,
    "office_name": null,
    "office_name_kana": null
  },
  "0032": {
    "zip_code": "2970032",
    "prefecture": "千葉県",
    "prefecture_kana": "チバケン",
    "prefecture_code": 12,
    "city": "茂原市",
    "city_kana": "モバラシ",
    "town": "東茂原",
    "town_kana": "ヒガシモバラ",
    "street": null,
    "office_name": null,
    "office_name_kana": null
  },
  "0033": {
    "zip_code": "2970033",
    "prefecture": "千葉県",
    "prefecture_kana": "チバケン",
    "prefecture_code": 12,
    "city": "茂原市",
    "city_kana": "モバラシ",
    "town": "大芝",
    "town_kana": "オオシバ",
    "street": null,
    "office_name": null,
    "office_name_kana": null
  },
  "0034": {
    "zip_code": "2970034",
    "prefecture": "千葉県",
    "prefecture_kana": "チバケン",
    "prefecture_code": 12,
    "city": "茂原市",
    "city_kana": "モバラシ",
    "town": "中の島町",
    "town_kana": "ナカノシマチョウ",
    "street": null,
    "office_name": null,
    "office_name_kana": null
  },
  "0035": {
    "zip_code": "2970035",
    "prefecture": "千葉県",
    "prefecture_kana": "チバケン",
    "prefecture_code": 12,
    "city": "茂原市",
    "city_kana": "モバラシ",
    "town": "下永吉",
    "town_kana": "シモナガヨシ",
    "street": null,
    "office_name": null,
    "office_name_kana": null
  },
  "0036": {
    "zip_code": "2970036",
    "prefecture": "千葉県",
    "prefecture_kana": "チバケン",
    "prefecture_code": 12,
    "city": "茂原市",
    "city_kana": "モバラシ",
    "town": "上永吉",
    "town_kana": "カミナガヨシ",
    "street": null,
    "office_name": null,
    "office_name_kana": null
  },
  "0037": {
    "zip_code": "2970037",
    "prefecture": "千葉県",
    "prefecture_kana": "チバケン",
    "prefecture_code": 12,
    "city": "茂原市",
    "city_kana": "モバラシ",
    "town": "早野",
    "town_kana": "ハヤノ",
    "street": null,
    "office_name": null,
    "office_name_kana": null
  },
  "0038": {
    "zip_code": "2970038",
    "prefecture": "千葉県",
    "prefecture_kana": "チバケン",
    "prefecture_code": 12,
    "city": "茂原市",
    "city_kana": "モバラシ",
    "town": "長清水",
    "town_kana": "ナガシミズ",
    "street": null,
    "office_name": null,
    "office_name_kana": null
  },
  "0039": {
    "zip_code": "2970039",
    "prefecture": "千葉県",
    "prefecture_kana": "チバケン",
    "prefecture_code": 12,
    "city": "茂原市",
    "city_kana": "モバラシ",
    "town": "茂原西",
    "town_kana": "モバラニシ",
    "street": null,
    "office_name": null,
    "office_name_kana": null
  },
  "0041": {
    "zip_code": "2970041",
    "prefecture": "千葉県",
    "prefecture_kana": "チバケン",
    "prefecture_code": 12,
    "city": "茂原市",
    "city_kana": "モバラシ",
    "town": "猿袋",
    "town_kana": "サルブクロ",
    "street": null,
    "office_name": null,
    "office_name_kana": null
  },
  "0042": {
    "zip_code": "2970042",
    "prefecture": "千葉県",
    "prefecture_kana": "チバケン",
    "prefecture_code": 12,
    "city": "茂原市",
    "city_kana": "モバラシ",
    "town": "三ケ谷",
    "town_kana": "サンガヤ",
    "street": null,
    "office_name": null,
    "office_name_kana": null
  },
  "0043": {
    "zip_code": "2970043",
    "prefecture": "千葉県",
    "prefecture_kana": "チバケン",
    "prefecture_code": 12,
    "city": "茂原市",
    "city_kana": "モバラシ",
    "town": "立木",
    "town_kana": "タチキ",
    "street": null,
    "office_name": null,
    "office_name_kana": null
  },
  "0044": {
    "zip_code": "2970044",
    "prefecture": "千葉県",
    "prefecture_kana": "チバケン",
    "prefecture_code": 12,
    "city": "茂原市",
    "city_kana": "モバラシ",
    "town": "台田",
    "town_kana": "ダイダ",
    "street": null,
    "office_name": null,
    "office_name_kana": null
  },
  "0045": {
    "zip_code": "2970045",
    "prefecture": "千葉県",
    "prefecture_kana": "チバケン",
    "prefecture_code": 12,
    "city": "茂原市",
    "city_kana": "モバラシ",
    "town": "野牛",
    "town_kana": "ヤギュウ",
    "street": null,
    "office_name": null,
    "office_name_kana": null
  },
  "0051": {
    "zip_code": "2970051",
    "prefecture": "千葉県",
    "prefecture_kana": "チバケン",
    "prefecture_code": 12,
    "city": "茂原市",
    "city_kana": "モバラシ",
    "town": "鷲巣",
    "town_kana": "ワシノス",
    "street": null,
    "office_name": null,
    "office_name_kana": null
  },
  "0052": {
    "zip_code": "2970052",
    "prefecture": "千葉県",
    "prefecture_kana": "チバケン",
    "prefecture_code": 12,
    "city": "茂原市",
    "city_kana": "モバラシ",
    "town": "上茂原",
    "town_kana": "カミモバラ",
    "street": null,
    "office_name": null,
    "office_name_kana": null
  },
  "0053": {
    "zip_code": "2970053",
    "prefecture": "千葉県",
    "prefecture_kana": "チバケン",
    "prefecture_code": 12,
    "city": "茂原市",
    "city_kana": "モバラシ",
    "town": "墨田",
    "town_kana": "スミダ",
    "street": null,
    "office_name": null,
    "office_name_kana": null
  },
  "0054": {
    "zip_code": "2970054",
    "prefecture": "千葉県",
    "prefecture_kana": "チバケン",
    "prefecture_code": 12,
    "city": "茂原市",
    "city_kana": "モバラシ",
    "town": "八幡原",
    "town_kana": "ヤワタバラ",
    "street": null,
    "office_name": null,
    "office_name_kana": null
  },
  "0055": {
    "zip_code": "2970055",
    "prefecture": "千葉県",
    "prefecture_kana": "チバケン",
    "prefecture_code": 12,
    "city": "茂原市",
    "city_kana": "モバラシ",
    "town": "綱島",
    "town_kana": "ツナシマ",
    "street": null,
    "office_name": null,
    "office_name_kana": null
  },
  "0056": {
    "zip_code": "2970056",
    "prefecture": "千葉県",
    "prefecture_kana": "チバケン",
    "prefecture_code": 12,
    "city": "茂原市",
    "city_kana": "モバラシ",
    "town": "六田台",
    "town_kana": "ロクタダイ",
    "street": null,
    "office_name": null,
    "office_name_kana": null
  },
  "0057": {
    "zip_code": "2970057",
    "prefecture": "千葉県",
    "prefecture_kana": "チバケン",
    "prefecture_code": 12,
    "city": "茂原市",
    "city_kana": "モバラシ",
    "town": "中善寺",
    "town_kana": "チュウゼンジ",
    "street": null,
    "office_name": null,
    "office_name_kana": null
  },
  "0058": {
    "zip_code": "2970058",
    "prefecture": "千葉県",
    "prefecture_kana": "チバケン",
    "prefecture_code": 12,
    "city": "茂原市",
    "city_kana": "モバラシ",
    "town": "石神",
    "town_kana": "イシガミ",
    "street": null,
    "office_name": null,
    "office_name_kana": null
  },
  "0061": {
    "zip_code": "2970061",
    "prefecture": "千葉県",
    "prefecture_kana": "チバケン",
    "prefecture_code": 12,
    "city": "茂原市",
    "city_kana": "モバラシ",
    "town": "山崎",
    "town_kana": "ヤマサキ",
    "street": null,
    "office_name": null,
    "office_name_kana": null
  },
  "0062": {
    "zip_code": "2970062",
    "prefecture": "千葉県",
    "prefecture_kana": "チバケン",
    "prefecture_code": 12,
    "city": "茂原市",
    "city_kana": "モバラシ",
    "town": "内長谷",
    "town_kana": "ウチナガヤ",
    "street": null,
    "office_name": null,
    "office_name_kana": null
  },
  "0063": {
    "zip_code": "2970063",
    "prefecture": "千葉県",
    "prefecture_kana": "チバケン",
    "prefecture_code": 12,
    "city": "茂原市",
    "city_kana": "モバラシ",
    "town": "長谷",
    "town_kana": "ナガヤ",
    "street": null,
    "office_name": null,
    "office_name_kana": null
  },
  "0064": {
    "zip_code": "2970064",
    "prefecture": "千葉県",
    "prefecture_kana": "チバケン",
    "prefecture_code": 12,
    "city": "茂原市",
    "city_kana": "モバラシ",
    "town": "箕輪",
    "town_kana": "ミノワ",
    "street": null,
    "office_name": null,
    "office_name_kana": null
  },
  "0065": {
    "zip_code": "2970065",
    "prefecture": "千葉県",
    "prefecture_kana": "チバケン",
    "prefecture_code": 12,
    "city": "茂原市",
    "city_kana": "モバラシ",
    "town": "緑ケ丘",
    "town_kana": "ミドリガオカ",
    "street": null,
    "office_name": null,
    "office_name_kana": null
  },
  "0066": {
    "zip_code": "2970066",
    "prefecture": "千葉県",
    "prefecture_kana": "チバケン",
    "prefecture_code": 12,
    "city": "茂原市",
    "city_kana": "モバラシ",
    "town": "芦網",
    "town_kana": "アシアミ",
    "street": null,
    "office_name": null,
    "office_name_kana": null
  },
  "0067": {
    "zip_code": "2970067",
    "prefecture": "千葉県",
    "prefecture_kana": "チバケン",
    "prefecture_code": 12,
    "city": "茂原市",
    "city_kana": "モバラシ",
    "town": "国府関",
    "town_kana": "コウセキ",
    "street": null,
    "office_name": null,
    "office_name_kana": null
  },
  "0071": {
    "zip_code": "2970071",
    "prefecture": "千葉県",
    "prefecture_kana": "チバケン",
    "prefecture_code": 12,
    "city": "茂原市",
    "city_kana": "モバラシ",
    "town": "黒戸",
    "town_kana": "クロド",
    "street": null,
    "office_name": null,
    "office_name_kana": null
  },
  "0072": {
    "zip_code": "2970072",
    "prefecture": "千葉県",
    "prefecture_kana": "チバケン",
    "prefecture_code": 12,
    "city": "茂原市",
    "city_kana": "モバラシ",
    "town": "大登",
    "town_kana": "オオノボリ",
    "street": null,
    "office_name": null,
    "office_name_kana": null
  },
  "0073": {
    "zip_code": "2970073",
    "prefecture": "千葉県",
    "prefecture_kana": "チバケン",
    "prefecture_code": 12,
    "city": "茂原市",
    "city_kana": "モバラシ",
    "town": "長尾",
    "town_kana": "ナガオ",
    "street": null,
    "office_name": null,
    "office_name_kana": null
  },
  "0074": {
    "zip_code": "2970074",
    "prefecture": "千葉県",
    "prefecture_kana": "チバケン",
    "prefecture_code": 12,
    "city": "茂原市",
    "city_kana": "モバラシ",
    "town": "小林",
    "town_kana": "コバヤシ",
    "street": null,
    "office_name": null,
    "office_name_kana": null
  },
  "0075": {
    "zip_code": "2970075",
    "prefecture": "千葉県",
    "prefecture_kana": "チバケン",
    "prefecture_code": 12,
    "city": "茂原市",
    "city_kana": "モバラシ",
    "town": "押日",
    "town_kana": "オシビ",
    "street": null,
    "office_name": null,
    "office_name_kana": null
  },
  "0076": {
    "zip_code": "2970076",
    "prefecture": "千葉県",
    "prefecture_kana": "チバケン",
    "prefecture_code": 12,
    "city": "茂原市",
    "city_kana": "モバラシ",
    "town": "庄吉",
    "town_kana": "ショウヨシ",
    "street": null,
    "office_name": null,
    "office_name_kana": null
  },
  "0077": {
    "zip_code": "2970077",
    "prefecture": "千葉県",
    "prefecture_kana": "チバケン",
    "prefecture_code": 12,
    "city": "茂原市",
    "city_kana": "モバラシ",
    "town": "真名",
    "town_kana": "マンナ",
    "street": null,
    "office_name": null,
    "office_name_kana": null
  },
  "0078": {
    "zip_code": "2970078",
    "prefecture": "千葉県",
    "prefecture_kana": "チバケン",
    "prefecture_code": 12,
    "city": "茂原市",
    "city_kana": "モバラシ",
    "town": "高師台",
    "town_kana": "タカシダイ",
    "street": null,
    "office_name": null,
    "office_name_kana": null
  },
  "0100": {
    "zip_code": "2970100",
    "prefecture": "千葉県",
    "prefecture_kana": "チバケン",
    "prefecture_code": 12,
    "city": "長生郡長南町",
    "city_kana": "チョウセイグンチョウナンマチ",
    "town": "",
    "town_kana": "",
    "street": null,
    "office_name": null,
    "office_name_kana": null
  },
  "0101": {
    "zip_code": "2970101",
    "prefecture": "千葉県",
    "prefecture_kana": "チバケン",
    "prefecture_code": 12,
    "city": "長生郡長南町",
    "city_kana": "チョウセイグンチョウナンマチ",
    "town": "岩川",
    "town_kana": "イワカワ",
    "street": null,
    "office_name": null,
    "office_name_kana": null
  },
  "0102": {
    "zip_code": "2970102",
    "prefecture": "千葉県",
    "prefecture_kana": "チバケン",
    "prefecture_code": 12,
    "city": "長生郡長南町",
    "city_kana": "チョウセイグンチョウナンマチ",
    "town": "本台",
    "town_kana": "モトダイ",
    "street": null,
    "office_name": null,
    "office_name_kana": null
  },
  "0103": {
    "zip_code": "2970103",
    "prefecture": "千葉県",
    "prefecture_kana": "チバケン",
    "prefecture_code": 12,
    "city": "長生郡長南町",
    "city_kana": "チョウセイグンチョウナンマチ",
    "town": "今泉",
    "town_kana": "イマイズミ",
    "street": null,
    "office_name": null,
    "office_name_kana": null
  },
  "0104": {
    "zip_code": "2970104",
    "prefecture": "千葉県",
    "prefecture_kana": "チバケン",
    "prefecture_code": 12,
    "city": "長生郡長南町",
    "city_kana": "チョウセイグンチョウナンマチ",
    "town": "又富",
    "town_kana": "マタドミ",
    "street": null,
    "office_name": null,
    "office_name_kana": null
  },
  "0105": {
    "zip_code": "2970105",
    "prefecture": "千葉県",
    "prefecture_kana": "チバケン",
    "prefecture_code": 12,
    "city": "長生郡長南町",
    "city_kana": "チョウセイグンチョウナンマチ",
    "town": "棚毛",
    "town_kana": "タナゲ",
    "street": null,
    "office_name": null,
    "office_name_kana": null
  },
  "0111": {
    "zip_code": "2970111",
    "prefecture": "千葉県",
    "prefecture_kana": "チバケン",
    "prefecture_code": 12,
    "city": "長生郡長南町",
    "city_kana": "チョウセイグンチョウナンマチ",
    "town": "須田",
    "town_kana": "スダ",
    "street": null,
    "office_name": null,
    "office_name_kana": null
  },
  "0112": {
    "zip_code": "2970112",
    "prefecture": "千葉県",
    "prefecture_kana": "チバケン",
    "prefecture_code": 12,
    "city": "長生郡長南町",
    "city_kana": "チョウセイグンチョウナンマチ",
    "town": "米満",
    "town_kana": "ヨネミチ",
    "street": null,
    "office_name": null,
    "office_name_kana": null
  },
  "0113": {
    "zip_code": "2970113",
    "prefecture": "千葉県",
    "prefecture_kana": "チバケン",
    "prefecture_code": 12,
    "city": "長生郡長南町",
    "city_kana": "チョウセイグンチョウナンマチ",
    "town": "関原",
    "town_kana": "セキバラ",
    "street": null,
    "office_name": null,
    "office_name_kana": null
  },
  "0114": {
    "zip_code": "2970114",
    "prefecture": "千葉県",
    "prefecture_kana": "チバケン",
    "prefecture_code": 12,
    "city": "長生郡長南町",
    "city_kana": "チョウセイグンチョウナンマチ",
    "town": "千手堂",
    "town_kana": "センジュドウ",
    "street": null,
    "office_name": null,
    "office_name_kana": null
  },
  "0115": {
    "zip_code": "2970115",
    "prefecture": "千葉県",
    "prefecture_kana": "チバケン",
    "prefecture_code": 12,
    "city": "長生郡長南町",
    "city_kana": "チョウセイグンチョウナンマチ",
    "town": "千田",
    "town_kana": "センダ",
    "street": null,
    "office_name": null,
    "office_name_kana": null
  },
  "0121": {
    "zip_code": "2970121",
    "prefecture": "千葉県",
    "prefecture_kana": "チバケン",
    "prefecture_code": 12,
    "city": "長生郡長南町",
    "city_kana": "チョウセイグンチョウナンマチ",
    "town": "長南",
    "town_kana": "チョウナン",
    "street": null,
    "office_name": null,
    "office_name_kana": null
  },
  "0122": {
    "zip_code": "2970122",
    "prefecture": "千葉県",
    "prefecture_kana": "チバケン",
    "prefecture_code": 12,
    "city": "長生郡長南町",
    "city_kana": "チョウセイグンチョウナンマチ",
    "town": "坂本",
    "town_kana": "サカモト",
    "street": null,
    "office_name": null,
    "office_name_kana": null
  },
  "0123": {
    "zip_code": "2970123",
    "prefecture": "千葉県",
    "prefecture_kana": "チバケン",
    "prefecture_code": 12,
    "city": "長生郡長南町",
    "city_kana": "チョウセイグンチョウナンマチ",
    "town": "蔵持",
    "town_kana": "クラモチ",
    "street": null,
    "office_name": null,
    "office_name_kana": null
  },
  "0124": {
    "zip_code": "2970124",
    "prefecture": "千葉県",
    "prefecture_kana": "チバケン",
    "prefecture_code": 12,
    "city": "長生郡長南町",
    "city_kana": "チョウセイグンチョウナンマチ",
    "town": "深沢",
    "town_kana": "フカサワ",
    "street": null,
    "office_name": null,
    "office_name_kana": null
  },
  "0125": {
    "zip_code": "2970125",
    "prefecture": "千葉県",
    "prefecture_kana": "チバケン",
    "prefecture_code": 12,
    "city": "長生郡長南町",
    "city_kana": "チョウセイグンチョウナンマチ",
    "town": "笠森",
    "town_kana": "カサモリ",
    "street": null,
    "office_name": null,
    "office_name_kana": null
  },
  "0131": {
    "zip_code": "2970131",
    "prefecture": "千葉県",
    "prefecture_kana": "チバケン",
    "prefecture_code": 12,
    "city": "長生郡長南町",
    "city_kana": "チョウセイグンチョウナンマチ",
    "town": "中原",
    "town_kana": "ナカハラ",
    "street": null,
    "office_name": null,
    "office_name_kana": null
  },
  "0132": {
    "zip_code": "2970132",
    "prefecture": "千葉県",
    "prefecture_kana": "チバケン",
    "prefecture_code": 12,
    "city": "長生郡長南町",
    "city_kana": "チョウセイグンチョウナンマチ",
    "town": "給田",
    "town_kana": "キュウデン",
    "street": null,
    "office_name": null,
    "office_name_kana": null
  },
  "0133": {
    "zip_code": "2970133",
    "prefecture": "千葉県",
    "prefecture_kana": "チバケン",
    "prefecture_code": 12,
    "city": "長生郡長南町",
    "city_kana": "チョウセイグンチョウナンマチ",
    "town": "豊原",
    "town_kana": "トヨハラ",
    "street": null,
    "office_name": null,
    "office_name_kana": null
  },
  "0134": {
    "zip_code": "2970134",
    "prefecture": "千葉県",
    "prefecture_kana": "チバケン",
    "prefecture_code": 12,
    "city": "長生郡長南町",
    "city_kana": "チョウセイグンチョウナンマチ",
    "town": "芝原",
    "town_kana": "シバハラ",
    "street": null,
    "office_name": null,
    "office_name_kana": null
  },
  "0135": {
    "zip_code": "2970135",
    "prefecture": "千葉県",
    "prefecture_kana": "チバケン",
    "prefecture_code": 12,
    "city": "長生郡長南町",
    "city_kana": "チョウセイグンチョウナンマチ",
    "town": "地引",
    "town_kana": "ジヒキ",
    "street": null,
    "office_name": null,
    "office_name_kana": null
  },
  "0136": {
    "zip_code": "2970136",
    "prefecture": "千葉県",
    "prefecture_kana": "チバケン",
    "prefecture_code": 12,
    "city": "長生郡長南町",
    "city_kana": "チョウセイグンチョウナンマチ",
    "town": "小生田",
    "town_kana": "オブタ",
    "street": null,
    "office_name": null,
    "office_name_kana": null
  },
  "0137": {
    "zip_code": "2970137",
    "prefecture": "千葉県",
    "prefecture_kana": "チバケン",
    "prefecture_code": 12,
    "city": "長生郡長南町",
    "city_kana": "チョウセイグンチョウナンマチ",
    "town": "上小野田",
    "town_kana": "カミオノダ",
    "street": null,
    "office_name": null,
    "office_name_kana": null
  },
  "0138": {
    "zip_code": "2970138",
    "prefecture": "千葉県",
    "prefecture_kana": "チバケン",
    "prefecture_code": 12,
    "city": "長生郡長南町",
    "city_kana": "チョウセイグンチョウナンマチ",
    "town": "下小野田",
    "town_kana": "シモオノダ",
    "street": null,
    "office_name": null,
    "office_name_kana": null
  },
  "0141": {
    "zip_code": "2970141",
    "prefecture": "千葉県",
    "prefecture_kana": "チバケン",
    "prefecture_code": 12,
    "city": "長生郡長南町",
    "city_kana": "チョウセイグンチョウナンマチ",
    "town": "報恩寺",
    "town_kana": "ホウオンジ",
    "street": null,
    "office_name": null,
    "office_name_kana": null
  },
  "0142": {
    "zip_code": "2970142",
    "prefecture": "千葉県",
    "prefecture_kana": "チバケン",
    "prefecture_code": 12,
    "city": "長生郡長南町",
    "city_kana": "チョウセイグンチョウナンマチ",
    "town": "小沢",
    "town_kana": "オザワ",
    "street": null,
    "office_name": null,
    "office_name_kana": null
  },
  "0143": {
    "zip_code": "2970143",
    "prefecture": "千葉県",
    "prefecture_kana": "チバケン",
    "prefecture_code": 12,
    "city": "長生郡長南町",
    "city_kana": "チョウセイグンチョウナンマチ",
    "town": "美原台",
    "town_kana": "ミハラダイ",
    "street": null,
    "office_name": null,
    "office_name_kana": null
  },
  "0144": {
    "zip_code": "2970144",
    "prefecture": "千葉県",
    "prefecture_kana": "チバケン",
    "prefecture_code": 12,
    "city": "長生郡長南町",
    "city_kana": "チョウセイグンチョウナンマチ",
    "town": "市野々",
    "town_kana": "イチノノ",
    "street": null,
    "office_name": null,
    "office_name_kana": null
  },
  "0145": {
    "zip_code": "2970145",
    "prefecture": "千葉県",
    "prefecture_kana": "チバケン",
    "prefecture_code": 12,
    "city": "長生郡長南町",
    "city_kana": "チョウセイグンチョウナンマチ",
    "town": "佐坪",
    "town_kana": "サツボ",
    "street": null,
    "office_name": null,
    "office_name_kana": null
  },
  "0151": {
    "zip_code": "2970151",
    "prefecture": "千葉県",
    "prefecture_kana": "チバケン",
    "prefecture_code": 12,
    "city": "長生郡長南町",
    "city_kana": "チョウセイグンチョウナンマチ",
    "town": "茗荷沢",
    "town_kana": "ミョウガザワ",
    "street": null,
    "office_name": null,
    "office_name_kana": null
  },
  "0152": {
    "zip_code": "2970152",
    "prefecture": "千葉県",
    "prefecture_kana": "チバケン",
    "prefecture_code": 12,
    "city": "長生郡長南町",
    "city_kana": "チョウセイグンチョウナンマチ",
    "town": "水沼",
    "town_kana": "ミズヌマ",
    "street": null,
    "office_name": null,
    "office_name_kana": null
  },
  "0153": {
    "zip_code": "2970153",
    "prefecture": "千葉県",
    "prefecture_kana": "チバケン",
    "prefecture_code": 12,
    "city": "長生郡長南町",
    "city_kana": "チョウセイグンチョウナンマチ",
    "town": "山内",
    "town_kana": "ヤマウチ",
    "street": null,
    "office_name": null,
    "office_name_kana": null
  },
  "0154": {
    "zip_code": "2970154",
    "prefecture": "千葉県",
    "prefecture_kana": "チバケン",
    "prefecture_code": 12,
    "city": "長生郡長南町",
    "city_kana": "チョウセイグンチョウナンマチ",
    "town": "岩撫",
    "town_kana": "イワナデ",
    "street": null,
    "office_name": null,
    "office_name_kana": null
  },
  "0155": {
    "zip_code": "2970155",
    "prefecture": "千葉県",
    "prefecture_kana": "チバケン",
    "prefecture_code": 12,
    "city": "長生郡長南町",
    "city_kana": "チョウセイグンチョウナンマチ",
    "town": "竹林",
    "town_kana": "タケバヤシ",
    "street": null,
    "office_name": null,
    "office_name_kana": null
  },
  "0192": {
    "zip_code": "2970192",
    "prefecture": "千葉県",
    "prefecture_kana": "チバケン",
    "prefecture_code": 12,
    "city": "長生郡長南町",
    "city_kana": "チョウセイグンチョウナンマチ",
    "town": "長南",
    "town_kana": "チョウナン",
    "street": "２１１０",
    "office_name": "長南町役場",
    "office_name_kana": "チヨウナンマチヤクバ"
  },
  "0193": {
    "zip_code": "2970193",
    "prefecture": "千葉県",
    "prefecture_kana": "チバケン",
    "prefecture_code": 12,
    "city": "長生郡長南町",
    "city_kana": "チョウセイグンチョウナンマチ",
    "town": "又富",
    "town_kana": "マタドミ",
    "street": "８０４",
    "office_name": "長南カントリークラブ",
    "office_name_kana": "チヨウナンカントリ-クラブ"
  },
  "0194": {
    "zip_code": "2970194",
    "prefecture": "千葉県",
    "prefecture_kana": "チバケン",
    "prefecture_code": 12,
    "city": "長生郡長南町",
    "city_kana": "チョウセイグンチョウナンマチ",
    "town": "市野々",
    "town_kana": "イチノノ",
    "street": "５７５",
    "office_name": "ゴールデンクロスカントリークラブ",
    "office_name_kana": "ゴ-ルデンクロスカントリ-クラブ"
  },
  "0195": {
    "zip_code": "2970195",
    "prefecture": "千葉県",
    "prefecture_kana": "チバケン",
    "prefecture_code": 12,
    "city": "長生郡長南町",
    "city_kana": "チョウセイグンチョウナンマチ",
    "town": "市野々",
    "town_kana": "イチノノ",
    "street": "６８５",
    "office_name": "トーヨーカントリークラブ",
    "office_name_kana": "ト-ヨ-カントリ-クラブ"
  },
  "0196": {
    "zip_code": "2970196",
    "prefecture": "千葉県",
    "prefecture_kana": "チバケン",
    "prefecture_code": 12,
    "city": "長生郡長南町",
    "city_kana": "チョウセイグンチョウナンマチ",
    "town": "地引",
    "town_kana": "ジヒキ",
    "street": "７４２",
    "office_name": "南茂原カントリークラブ",
    "office_name_kana": "ミナミモバラカントリ-クラブ"
  },
  "0197": {
    "zip_code": "2970197",
    "prefecture": "千葉県",
    "prefecture_kana": "チバケン",
    "prefecture_code": 12,
    "city": "長生郡長南町",
    "city_kana": "チョウセイグンチョウナンマチ",
    "town": "竹林",
    "town_kana": "タケバヤシ",
    "street": "１０",
    "office_name": "アバイディングクラブ",
    "office_name_kana": "アバイデイングクラブ"
  },
  "0198": {
    "zip_code": "2970198",
    "prefecture": "千葉県",
    "prefecture_kana": "チバケン",
    "prefecture_code": 12,
    "city": "長生郡長南町",
    "city_kana": "チョウセイグンチョウナンマチ",
    "town": "佐坪",
    "town_kana": "サツボ",
    "street": "１７８２",
    "office_name": "グレートアイランド倶楽部",
    "office_name_kana": "グレ-トアイランドクラブ"
  },
  "0200": {
    "zip_code": "2970200",
    "prefecture": "千葉県",
    "prefecture_kana": "チバケン",
    "prefecture_code": 12,
    "city": "長生郡長柄町",
    "city_kana": "チョウセイグンナガラマチ",
    "town": "",
    "town_kana": "",
    "street": null,
    "office_name": null,
    "office_name_kana": null
  },
  "0201": {
    "zip_code": "2970201",
    "prefecture": "千葉県",
    "prefecture_kana": "チバケン",
    "prefecture_code": 12,
    "city": "長生郡長柄町",
    "city_kana": "チョウセイグンナガラマチ",
    "town": "上野",
    "town_kana": "ウエノ",
    "street": null,
    "office_name": null,
    "office_name_kana": null
  },
  "0202": {
    "zip_code": "2970202",
    "prefecture": "千葉県",
    "prefecture_kana": "チバケン",
    "prefecture_code": 12,
    "city": "長生郡長柄町",
    "city_kana": "チョウセイグンナガラマチ",
    "town": "味庄",
    "town_kana": "ミショウ",
    "street": null,
    "office_name": null,
    "office_name_kana": null
  },
  "0203": {
    "zip_code": "2970203",
    "prefecture": "千葉県",
    "prefecture_kana": "チバケン",
    "prefecture_code": 12,
    "city": "長生郡長柄町",
    "city_kana": "チョウセイグンナガラマチ",
    "town": "国府里",
    "town_kana": "コウリ",
    "street": null,
    "office_name": null,
    "office_name_kana": null
  },
  "0204": {
    "zip_code": "2970204",
    "prefecture": "千葉県",
    "prefecture_kana": "チバケン",
    "prefecture_code": 12,
    "city": "長生郡長柄町",
    "city_kana": "チョウセイグンナガラマチ",
    "town": "力丸",
    "town_kana": "リキマル",
    "street": null,
    "office_name": null,
    "office_name_kana": null
  },
  "0205": {
    "zip_code": "2970205",
    "prefecture": "千葉県",
    "prefecture_kana": "チバケン",
    "prefecture_code": 12,
    "city": "長生郡長柄町",
    "city_kana": "チョウセイグンナガラマチ",
    "town": "千代丸",
    "town_kana": "チヨマル",
    "street": null,
    "office_name": null,
    "office_name_kana": null
  },
  "0206": {
    "zip_code": "2970206",
    "prefecture": "千葉県",
    "prefecture_kana": "チバケン",
    "prefecture_code": 12,
    "city": "長生郡長柄町",
    "city_kana": "チョウセイグンナガラマチ",
    "town": "山根",
    "town_kana": "ヤマンネ",
    "street": null,
    "office_name": null,
    "office_name_kana": null
  },
  "0207": {
    "zip_code": "2970207",
    "prefecture": "千葉県",
    "prefecture_kana": "チバケン",
    "prefecture_code": 12,
    "city": "長生郡長柄町",
    "city_kana": "チョウセイグンナガラマチ",
    "town": "船木",
    "town_kana": "フナキ",
    "street": null,
    "office_name": null,
    "office_name_kana": null
  },
  "0211": {
    "zip_code": "2970211",
    "prefecture": "千葉県",
    "prefecture_kana": "チバケン",
    "prefecture_code": 12,
    "city": "長生郡長柄町",
    "city_kana": "チョウセイグンナガラマチ",
    "town": "榎本",
    "town_kana": "エモト",
    "street": null,
    "office_name": null,
    "office_name_kana": null
  },
  "0212": {
    "zip_code": "2970212",
    "prefecture": "千葉県",
    "prefecture_kana": "チバケン",
    "prefecture_code": 12,
    "city": "長生郡長柄町",
    "city_kana": "チョウセイグンナガラマチ",
    "town": "小榎本",
    "town_kana": "コエモト",
    "street": null,
    "office_name": null,
    "office_name_kana": null
  },
  "0213": {
    "zip_code": "2970213",
    "prefecture": "千葉県",
    "prefecture_kana": "チバケン",
    "prefecture_code": 12,
    "city": "長生郡長柄町",
    "city_kana": "チョウセイグンナガラマチ",
    "town": "徳増",
    "town_kana": "トクマス",
    "street": null,
    "office_name": null,
    "office_name_kana": null
  },
  "0214": {
    "zip_code": "2970214",
    "prefecture": "千葉県",
    "prefecture_kana": "チバケン",
    "prefecture_code": 12,
    "city": "長生郡長柄町",
    "city_kana": "チョウセイグンナガラマチ",
    "town": "長富",
    "town_kana": "ナガドミ",
    "street": null,
    "office_name": null,
    "office_name_kana": null
  },
  "0215": {
    "zip_code": "2970215",
    "prefecture": "千葉県",
    "prefecture_kana": "チバケン",
    "prefecture_code": 12,
    "city": "長生郡長柄町",
    "city_kana": "チョウセイグンナガラマチ",
    "town": "鴇谷",
    "town_kana": "トウヤ",
    "street": null,
    "office_name": null,
    "office_name_kana": null
  },
  "0216": {
    "zip_code": "2970216",
    "prefecture": "千葉県",
    "prefecture_kana": "チバケン",
    "prefecture_code": 12,
    "city": "長生郡長柄町",
    "city_kana": "チョウセイグンナガラマチ",
    "town": "立鳥",
    "town_kana": "タツトリ",
    "street": null,
    "office_name": null,
    "office_name_kana": null
  },
  "0217": {
    "zip_code": "2970217",
    "prefecture": "千葉県",
    "prefecture_kana": "チバケン",
    "prefecture_code": 12,
    "city": "長生郡長柄町",
    "city_kana": "チョウセイグンナガラマチ",
    "town": "針ケ谷",
    "town_kana": "ハリガヤ",
    "street": null,
    "office_name": null,
    "office_name_kana": null
  },
  "0218": {
    "zip_code": "2970218",
    "prefecture": "千葉県",
    "prefecture_kana": "チバケン",
    "prefecture_code": 12,
    "city": "長生郡長柄町",
    "city_kana": "チョウセイグンナガラマチ",
    "town": "桜谷",
    "town_kana": "サクラヤ",
    "street": null,
    "office_name": null,
    "office_name_kana": null
  },
  "0221": {
    "zip_code": "2970221",
    "prefecture": "千葉県",
    "prefecture_kana": "チバケン",
    "prefecture_code": 12,
    "city": "長生郡長柄町",
    "city_kana": "チョウセイグンナガラマチ",
    "town": "高山",
    "town_kana": "タカヤマ",
    "street": null,
    "office_name": null,
    "office_name_kana": null
  },
  "0222": {
    "zip_code": "2970222",
    "prefecture": "千葉県",
    "prefecture_kana": "チバケン",
    "prefecture_code": 12,
    "city": "長生郡長柄町",
    "city_kana": "チョウセイグンナガラマチ",
    "town": "大庭",
    "town_kana": "オオニワ",
    "street": null,
    "office_name": null,
    "office_name_kana": null
  },
  "0223": {
    "zip_code": "2970223",
    "prefecture": "千葉県",
    "prefecture_kana": "チバケン",
    "prefecture_code": 12,
    "city": "長生郡長柄町",
    "city_kana": "チョウセイグンナガラマチ",
    "town": "大津倉",
    "town_kana": "オオヅクラ",
    "street": null,
    "office_name": null,
    "office_name_kana": null
  },
  "0224": {
    "zip_code": "2970224",
    "prefecture": "千葉県",
    "prefecture_kana": "チバケン",
    "prefecture_code": 12,
    "city": "長生郡長柄町",
    "city_kana": "チョウセイグンナガラマチ",
    "town": "田代",
    "town_kana": "タシロ",
    "street": null,
    "office_name": null,
    "office_name_kana": null
  },
  "0225": {
    "zip_code": "2970225",
    "prefecture": "千葉県",
    "prefecture_kana": "チバケン",
    "prefecture_code": 12,
    "city": "長生郡長柄町",
    "city_kana": "チョウセイグンナガラマチ",
    "town": "刑部",
    "town_kana": "オサカベ",
    "street": null,
    "office_name": null,
    "office_name_kana": null
  },
  "0226": {
    "zip_code": "2970226",
    "prefecture": "千葉県",
    "prefecture_kana": "チバケン",
    "prefecture_code": 12,
    "city": "長生郡長柄町",
    "city_kana": "チョウセイグンナガラマチ",
    "town": "金谷",
    "town_kana": "カナヤ",
    "street": null,
    "office_name": null,
    "office_name_kana": null
  },
  "0231": {
    "zip_code": "2970231",
    "prefecture": "千葉県",
    "prefecture_kana": "チバケン",
    "prefecture_code": 12,
    "city": "長生郡長柄町",
    "city_kana": "チョウセイグンナガラマチ",
    "town": "山之郷",
    "town_kana": "ヤマノゴウ",
    "street": null,
    "office_name": null,
    "office_name_kana": null
  },
  "0232": {
    "zip_code": "2970232",
    "prefecture": "千葉県",
    "prefecture_kana": "チバケン",
    "prefecture_code": 12,
    "city": "長生郡長柄町",
    "city_kana": "チョウセイグンナガラマチ",
    "town": "中野台",
    "town_kana": "ナカノダイ",
    "street": null,
    "office_name": null,
    "office_name_kana": null
  },
  "0233": {
    "zip_code": "2970233",
    "prefecture": "千葉県",
    "prefecture_kana": "チバケン",
    "prefecture_code": 12,
    "city": "長生郡長柄町",
    "city_kana": "チョウセイグンナガラマチ",
    "town": "六地蔵",
    "town_kana": "ロクジゾウ",
    "street": null,
    "office_name": null,
    "office_name_kana": null
  },
  "0234": {
    "zip_code": "2970234",
    "prefecture": "千葉県",
    "prefecture_kana": "チバケン",
    "prefecture_code": 12,
    "city": "長生郡長柄町",
    "city_kana": "チョウセイグンナガラマチ",
    "town": "長柄山",
    "town_kana": "ナガラヤマ",
    "street": null,
    "office_name": null,
    "office_name_kana": null
  },
  "0235": {
    "zip_code": "2970235",
    "prefecture": "千葉県",
    "prefecture_kana": "チバケン",
    "prefecture_code": 12,
    "city": "長生郡長柄町",
    "city_kana": "チョウセイグンナガラマチ",
    "town": "皿木",
    "town_kana": "サラギ",
    "street": null,
    "office_name": null,
    "office_name_kana": null
  },
  "0292": {
    "zip_code": "2970292",
    "prefecture": "千葉県",
    "prefecture_kana": "チバケン",
    "prefecture_code": 12,
    "city": "長生郡長柄町",
    "city_kana": "チョウセイグンナガラマチ",
    "town": "鴇谷",
    "town_kana": "トウヤ",
    "street": "１６３",
    "office_name": "大崎電気システムズ　株式会社　千葉工場",
    "office_name_kana": "オオサキデンキシステムズ カブシキガイシヤ チバコウジヨウ"
  },
  "0298": {
    "zip_code": "2970298",
    "prefecture": "千葉県",
    "prefecture_kana": "チバケン",
    "prefecture_code": 12,
    "city": "長生郡長柄町",
    "city_kana": "チョウセイグンナガラマチ",
    "town": "桜谷",
    "town_kana": "サクラヤ",
    "street": "７１２",
    "office_name": "長柄町役場",
    "office_name_kana": "ナガラマチヤクバ"
  },
  "8501": {
    "zip_code": "2978501",
    "prefecture": "千葉県",
    "prefecture_kana": "チバケン",
    "prefecture_code": 12,
    "city": "茂原市",
    "city_kana": "モバラシ",
    "town": "高師台",
    "town_kana": "タカシダイ",
    "street": "１丁目５番１号",
    "office_name": "茂原税務署",
    "office_name_kana": "モバラゼイムシヨ"
  },
  "8511": {
    "zip_code": "2978511",
    "prefecture": "千葉県",
    "prefecture_kana": "チバケン",
    "prefecture_code": 12,
    "city": "茂原市",
    "city_kana": "モバラシ",
    "town": "道表",
    "town_kana": "ドウビョウ",
    "street": "１",
    "office_name": "茂原市役所",
    "office_name_kana": "モバラシヤクシヨ"
  },
  "8533": {
    "zip_code": "2978533",
    "prefecture": "千葉県",
    "prefecture_kana": "チバケン",
    "prefecture_code": 12,
    "city": "茂原市",
    "city_kana": "モバラシ",
    "town": "茂原",
    "town_kana": "モバラ",
    "street": "１１０２−１",
    "office_name": "千葉県東上総県民センター",
    "office_name_kana": "チバケンヒガシカズサケンミンセンタ-"
  },
  "8555": {
    "zip_code": "2978555",
    "prefecture": "千葉県",
    "prefecture_kana": "チバケン",
    "prefecture_code": 12,
    "city": "茂原市",
    "city_kana": "モバラシ",
    "town": "茂原",
    "town_kana": "モバラ",
    "street": "６４７",
    "office_name": "東芝コンポーネンツ　株式会社",
    "office_name_kana": "トウシバコンポ-ネンツ カブシキガイシヤ"
  },
  "8558": {
    "zip_code": "2978558",
    "prefecture": "千葉県",
    "prefecture_kana": "チバケン",
    "prefecture_code": 12,
    "city": "茂原市",
    "city_kana": "モバラシ",
    "town": "八千代",
    "town_kana": "ヤチヨ",
    "street": "３丁目１３−１",
    "office_name": "日本電信電話　株式会社　茂原支店",
    "office_name_kana": "ニホンデンシンデンワ カブシキガイシヤ モバラシテン"
  },
  "8567": {
    "zip_code": "2978567",
    "prefecture": "千葉県",
    "prefecture_kana": "チバケン",
    "prefecture_code": 12,
    "city": "茂原市",
    "city_kana": "モバラシ",
    "town": "茂原",
    "town_kana": "モバラ",
    "street": "６６１",
    "office_name": "大多喜ガス　株式会社",
    "office_name_kana": "オオタキガス カブシキガイシヤ"
  },
  "8588": {
    "zip_code": "2978588",
    "prefecture": "千葉県",
    "prefecture_kana": "チバケン",
    "prefecture_code": 12,
    "city": "茂原市",
    "city_kana": "モバラシ",
    "town": "大芝",
    "town_kana": "オオシバ",
    "street": "６２９",
    "office_name": "双葉電子工業　株式会社",
    "office_name_kana": "フタバデンシコウギヨウ カブシキガイシヤ"
  },
  "8611": {
    "zip_code": "2978611",
    "prefecture": "千葉県",
    "prefecture_kana": "チバケン",
    "prefecture_code": 12,
    "city": "茂原市",
    "city_kana": "モバラシ",
    "town": "高師町",
    "town_kana": "タカシチョウ",
    "street": "１丁目１０−５（茂原郵便局私書箱第１２号）",
    "office_name": "房総信用組合",
    "office_name_kana": "ボウソウシンヨウクミアイ"
  },
  "8622": {
    "zip_code": "2978622",
    "prefecture": "千葉県",
    "prefecture_kana": "チバケン",
    "prefecture_code": 12,
    "city": "茂原市",
    "city_kana": "モバラシ",
    "town": "早野",
    "town_kana": "ハヤノ",
    "street": "３３００",
    "office_name": "株式会社　ジャパンディスプレイ",
    "office_name_kana": "カブシキガイシヤ ジヤパンデイスプレイ"
  },
  "8666": {
    "zip_code": "2978666",
    "prefecture": "千葉県",
    "prefecture_kana": "チバケン",
    "prefecture_code": 12,
    "city": "茂原市",
    "city_kana": "モバラシ",
    "town": "東郷",
    "town_kana": "トウゴウ",
    "street": "１９００番地",
    "office_name": "三井化学　株式会社　茂原分工場",
    "office_name_kana": "ミツイカガク カブシキガイシヤ モバラブンコウジヨウ"
  }
}