{
  "0000": {
    "zip_code": "3080000",
    "prefecture": "茨城県",
    "prefecture_kana": "イバラキケン",
    "prefecture_code": 8,
    "city": "筑西市",
    "city_kana": "チクセイシ",
    "town": "",
    "town_kana": "",
    "street": null,
    "office_name": null,
    "office_name_kana": null
  },
  "0001": {
    "zip_code": "3080001",
    "prefecture": "茨城県",
    "prefecture_kana": "イバラキケン",
    "prefecture_code": 8,
    "city": "筑西市",
    "city_kana": "チクセイシ",
    "town": "樋口",
    "town_kana": "ヒグチ",
    "street": null,
    "office_name": null,
    "office_name_kana": null
  },
  "0002": {
    "zip_code": "3080002",
    "prefecture": "茨城県",
    "prefecture_kana": "イバラキケン",
    "prefecture_code": 8,
    "city": "筑西市",
    "city_kana": "チクセイシ",
    "town": "落合",
    "town_kana": "オチアイ",
    "street": null,
    "office_name": null,
    "office_name_kana": null
  },
  "0003": {
    "zip_code": "3080003",
    "prefecture": "茨城県",
    "prefecture_kana": "イバラキケン",
    "prefecture_code": 8,
    "city": "筑西市",
    "city_kana": "チクセイシ",
    "town": "蒔田",
    "town_kana": "マクダ",
    "street": null,
    "office_name": null,
    "office_name_kana": null
  },
  "0004": {
    "zip_code": "3080004",
    "prefecture": "茨城県",
    "prefecture_kana": "イバラキケン",
    "prefecture_code": 8,
    "city": "筑西市",
    "city_kana": "チクセイシ",
    "town": "国府田",
    "town_kana": "コウダ",
    "street": null,
    "office_name": null,
    "office_name_kana": null
  },
  "0005": {
    "zip_code": "3080005",
    "prefecture": "茨城県",
    "prefecture_kana": "イバラキケン",
    "prefecture_code": 8,
    "city": "筑西市",
    "city_kana": "チクセイシ",
    "town": "中舘",
    "town_kana": "ナカダテ",
    "street": null,
    "office_name": null,
    "office_name_kana": null
  },
  "0006": {
    "zip_code": "3080006",
    "prefecture": "茨城県",
    "prefecture_kana": "イバラキケン",
    "prefecture_code": 8,
    "city": "筑西市",
    "city_kana": "チクセイシ",
    "town": "谷部",
    "town_kana": "ヤベ",
    "street": null,
    "office_name": null,
    "office_name_kana": null
  },
  "0007": {
    "zip_code": "3080007",
    "prefecture": "茨城県",
    "prefecture_kana": "イバラキケン",
    "prefecture_code": 8,
    "city": "筑西市",
    "city_kana": "チクセイシ",
    "town": "折本",
    "town_kana": "オリモト",
    "street": null,
    "office_name": null,
    "office_name_kana": null
  },
  "0011": {
    "zip_code": "3080011",
    "prefecture": "茨城県",
    "prefecture_kana": "イバラキケン",
    "prefecture_code": 8,
    "city": "筑西市",
    "city_kana": "チクセイシ",
    "town": "下高田",
    "town_kana": "シモタカダ",
    "street": null,
    "office_name": null,
    "office_name_kana": null
  },
  "0012": {
    "zip_code": "3080012",
    "prefecture": "茨城県",
    "prefecture_kana": "イバラキケン",
    "prefecture_code": 8,
    "city": "筑西市",
    "city_kana": "チクセイシ",
    "town": "奥田",
    "town_kana": "オクダ",
    "street": null,
    "office_name": null,
    "office_name_kana": null
  },
  "0013": {
    "zip_code": "3080013",
    "prefecture": "茨城県",
    "prefecture_kana": "イバラキケン",
    "prefecture_code": 8,
    "city": "筑西市",
    "city_kana": "チクセイシ",
    "town": "八田",
    "town_kana": "ハッタ",
    "street": null,
    "office_name": null,
    "office_name_kana": null
  },
  "0014": {
    "zip_code": "3080014",
    "prefecture": "茨城県",
    "prefecture_kana": "イバラキケン",
    "prefecture_code": 8,
    "city": "筑西市",
    "city_kana": "チクセイシ",
    "town": "羽方",
    "town_kana": "ハガタ",
    "street": null,
    "office_name": null,
    "office_name_kana": null
  },
  "0015": {
    "zip_code": "3080015",
    "prefecture": "茨城県",
    "prefecture_kana": "イバラキケン",
    "prefecture_code": 8,
    "city": "筑西市",
    "city_kana": "チクセイシ",
    "town": "大関",
    "town_kana": "オオゼキ",
    "street": null,
    "office_name": null,
    "office_name_kana": null
  },
  "0016": {
    "zip_code": "3080016",
    "prefecture": "茨城県",
    "prefecture_kana": "イバラキケン",
    "prefecture_code": 8,
    "city": "筑西市",
    "city_kana": "チクセイシ",
    "town": "野",
    "town_kana": "ノ",
    "street": null,
    "office_name": null,
    "office_name_kana": null
  },
  "0017": {
    "zip_code": "3080017",
    "prefecture": "茨城県",
    "prefecture_kana": "イバラキケン",
    "prefecture_code": 8,
    "city": "筑西市",
    "city_kana": "チクセイシ",
    "town": "上中山",
    "town_kana": "カミナカヤマ",
    "street": null,
    "office_name": null,
    "office_name_kana": null
  },
  "0021": {
    "zip_code": "3080021",
    "prefecture": "茨城県",
    "prefecture_kana": "イバラキケン",
    "prefecture_code": 8,
    "city": "筑西市",
    "city_kana": "チクセイシ",
    "town": "甲",
    "town_kana": "コウ",
    "street": null,
    "office_name": null,
    "office_name_kana": null
  },
  "0031": {
    "zip_code": "3080031",
    "prefecture": "茨城県",
    "prefecture_kana": "イバラキケン",
    "prefecture_code": 8,
    "city": "筑西市",
    "city_kana": "チクセイシ",
    "town": "丙",
    "town_kana": "ヘイ",
    "street": null,
    "office_name": null,
    "office_name_kana": null
  },
  "0041": {
    "zip_code": "3080041",
    "prefecture": "茨城県",
    "prefecture_kana": "イバラキケン",
    "prefecture_code": 8,
    "city": "筑西市",
    "city_kana": "チクセイシ",
    "town": "乙",
    "town_kana": "オツ",
    "street": null,
    "office_name": null,
    "office_name_kana": null
  },
  "0042": {
    "zip_code": "3080042",
    "prefecture": "茨城県",
    "prefecture_kana": "イバラキケン",
    "prefecture_code": 8,
    "city": "筑西市",
    "city_kana": "チクセイシ",
    "town": "みどり町",
    "town_kana": "ミドリマチ",
    "street": null,
    "office_name": null,
    "office_name_kana": null
  },
  "0051": {
    "zip_code": "3080051",
    "prefecture": "茨城県",
    "prefecture_kana": "イバラキケン",
    "prefecture_code": 8,
    "city": "筑西市",
    "city_kana": "チクセイシ",
    "town": "岡芹",
    "town_kana": "オカゼリ",
    "street": null,
    "office_name": null,
    "office_name_kana": null
  },
  "0052": {
    "zip_code": "3080052",
    "prefecture": "茨城県",
    "prefecture_kana": "イバラキケン",
    "prefecture_code": 8,
    "city": "筑西市",
    "city_kana": "チクセイシ",
    "town": "菅谷",
    "town_kana": "スガヤ",
    "street": null,
    "office_name": null,
    "office_name_kana": null
  },
  "0053": {
    "zip_code": "3080053",
    "prefecture": "茨城県",
    "prefecture_kana": "イバラキケン",
    "prefecture_code": 8,
    "city": "筑西市",
    "city_kana": "チクセイシ",
    "town": "外塚",
    "town_kana": "トノヅカ",
    "street": null,
    "office_name": null,
    "office_name_kana": null
  },
  "0054": {
    "zip_code": "3080054",
    "prefecture": "茨城県",
    "prefecture_kana": "イバラキケン",
    "prefecture_code": 8,
    "city": "筑西市",
    "city_kana": "チクセイシ",
    "town": "西谷貝",
    "town_kana": "ニシヤガイ",
    "street": null,
    "office_name": null,
    "office_name_kana": null
  },
  "0055": {
    "zip_code": "3080055",
    "prefecture": "茨城県",
    "prefecture_kana": "イバラキケン",
    "prefecture_code": 8,
    "city": "筑西市",
    "city_kana": "チクセイシ",
    "town": "石原田",
    "town_kana": "イシハラダ",
    "street": null,
    "office_name": null,
    "office_name_kana": null
  },
  "0056": {
    "zip_code": "3080056",
    "prefecture": "茨城県",
    "prefecture_kana": "イバラキケン",
    "prefecture_code": 8,
    "city": "筑西市",
    "city_kana": "チクセイシ",
    "town": "谷中",
    "town_kana": "ヤナカ",
    "street": null,
    "office_name": null,
    "office_name_kana": null
  },
  "0061": {
    "zip_code": "3080061",
    "prefecture": "茨城県",
    "prefecture_kana": "イバラキケン",
    "prefecture_code": 8,
    "city": "筑西市",
    "city_kana": "チクセイシ",
    "town": "栗島",
    "town_kana": "クリシマ",
    "street": null,
    "office_name": null,
    "office_name_kana": null
  },
  "0062": {
    "zip_code": "3080062",
    "prefecture": "茨城県",
    "prefecture_kana": "イバラキケン",
    "prefecture_code": 8,
    "city": "筑西市",
    "city_kana": "チクセイシ",
    "town": "西大島",
    "town_kana": "ニシオオシマ",
    "street": null,
    "office_name": null,
    "office_name_kana": null
  },
  "0063": {
    "zip_code": "3080063",
    "prefecture": "茨城県",
    "prefecture_kana": "イバラキケン",
    "prefecture_code": 8,
    "city": "筑西市",
    "city_kana": "チクセイシ",
    "town": "神分",
    "town_kana": "カミワケ",
    "street": null,
    "office_name": null,
    "office_name_kana": null
  },
  "0064": {
    "zip_code": "3080064",
    "prefecture": "茨城県",
    "prefecture_kana": "イバラキケン",
    "prefecture_code": 8,
    "city": "筑西市",
    "city_kana": "チクセイシ",
    "town": "飯島",
    "town_kana": "イイジマ",
    "street": null,
    "office_name": null,
    "office_name_kana": null
  },
  "0065": {
    "zip_code": "3080065",
    "prefecture": "茨城県",
    "prefecture_kana": "イバラキケン",
    "prefecture_code": 8,
    "city": "筑西市",
    "city_kana": "チクセイシ",
    "town": "笹塚",
    "town_kana": "ササヅカ",
    "street": null,
    "office_name": null,
    "office_name_kana": null
  },
  "0066": {
    "zip_code": "3080066",
    "prefecture": "茨城県",
    "prefecture_kana": "イバラキケン",
    "prefecture_code": 8,
    "city": "筑西市",
    "city_kana": "チクセイシ",
    "town": "下平塚",
    "town_kana": "シモヒラツカ",
    "street": null,
    "office_name": null,
    "office_name_kana": null
  },
  "0067": {
    "zip_code": "3080067",
    "prefecture": "茨城県",
    "prefecture_kana": "イバラキケン",
    "prefecture_code": 8,
    "city": "筑西市",
    "city_kana": "チクセイシ",
    "town": "上平塚",
    "town_kana": "カミヒラツカ",
    "street": null,
    "office_name": null,
    "office_name_kana": null
  },
  "0071": {
    "zip_code": "3080071",
    "prefecture": "茨城県",
    "prefecture_kana": "イバラキケン",
    "prefecture_code": 8,
    "city": "筑西市",
    "city_kana": "チクセイシ",
    "town": "口戸",
    "town_kana": "クチド",
    "street": null,
    "office_name": null,
    "office_name_kana": null
  },
  "0072": {
    "zip_code": "3080072",
    "prefecture": "茨城県",
    "prefecture_kana": "イバラキケン",
    "prefecture_code": 8,
    "city": "筑西市",
    "city_kana": "チクセイシ",
    "town": "柴山",
    "town_kana": "シバヤマ",
    "street": null,
    "office_name": null,
    "office_name_kana": null
  },
  "0073": {
    "zip_code": "3080073",
    "prefecture": "茨城県",
    "prefecture_kana": "イバラキケン",
    "prefecture_code": 8,
    "city": "筑西市",
    "city_kana": "チクセイシ",
    "town": "林",
    "town_kana": "ハヤシ",
    "street": null,
    "office_name": null,
    "office_name_kana": null
  },
  "0074": {
    "zip_code": "3080074",
    "prefecture": "茨城県",
    "prefecture_kana": "イバラキケン",
    "prefecture_code": 8,
    "city": "筑西市",
    "city_kana": "チクセイシ",
    "town": "筑瀬",
    "town_kana": "チクゼ",
    "street": null,
    "office_name": null,
    "office_name_kana": null
  },
  "0075": {
    "zip_code": "3080075",
    "prefecture": "茨城県",
    "prefecture_kana": "イバラキケン",
    "prefecture_code": 8,
    "city": "筑西市",
    "city_kana": "チクセイシ",
    "town": "石塔",
    "town_kana": "イシトウ",
    "street": null,
    "office_name": null,
    "office_name_kana": null
  },
  "0076": {
    "zip_code": "3080076",
    "prefecture": "茨城県",
    "prefecture_kana": "イバラキケン",
    "prefecture_code": 8,
    "city": "筑西市",
    "city_kana": "チクセイシ",
    "town": "泉",
    "town_kana": "イズミ",
    "street": null,
    "office_name": null,
    "office_name_kana": null
  },
  "0077": {
    "zip_code": "3080077",
    "prefecture": "茨城県",
    "prefecture_kana": "イバラキケン",
    "prefecture_code": 8,
    "city": "筑西市",
    "city_kana": "チクセイシ",
    "town": "子思儀",
    "town_kana": "コシギ",
    "street": null,
    "office_name": null,
    "office_name_kana": null
  },
  "0101": {
    "zip_code": "3080101",
    "prefecture": "茨城県",
    "prefecture_kana": "イバラキケン",
    "prefecture_code": 8,
    "city": "筑西市",
    "city_kana": "チクセイシ",
    "town": "井上",
    "town_kana": "イノウエ",
    "street": null,
    "office_name": null,
    "office_name_kana": null
  },
  "0102": {
    "zip_code": "3080102",
    "prefecture": "茨城県",
    "prefecture_kana": "イバラキケン",
    "prefecture_code": 8,
    "city": "筑西市",
    "city_kana": "チクセイシ",
    "town": "黒子",
    "town_kana": "クロゴ",
    "street": null,
    "office_name": null,
    "office_name_kana": null
  },
  "0103": {
    "zip_code": "3080103",
    "prefecture": "茨城県",
    "prefecture_kana": "イバラキケン",
    "prefecture_code": 8,
    "city": "筑西市",
    "city_kana": "チクセイシ",
    "town": "辻",
    "town_kana": "ツジ",
    "street": null,
    "office_name": null,
    "office_name_kana": null
  },
  "0104": {
    "zip_code": "3080104",
    "prefecture": "茨城県",
    "prefecture_kana": "イバラキケン",
    "prefecture_code": 8,
    "city": "筑西市",
    "city_kana": "チクセイシ",
    "town": "木戸",
    "town_kana": "キド",
    "street": null,
    "office_name": null,
    "office_name_kana": null
  },
  "0105": {
    "zip_code": "3080105",
    "prefecture": "茨城県",
    "prefecture_kana": "イバラキケン",
    "prefecture_code": 8,
    "city": "筑西市",
    "city_kana": "チクセイシ",
    "town": "西保末",
    "town_kana": "ニシホズエ",
    "street": null,
    "office_name": null,
    "office_name_kana": null
  },
  "0106": {
    "zip_code": "3080106",
    "prefecture": "茨城県",
    "prefecture_kana": "イバラキケン",
    "prefecture_code": 8,
    "city": "筑西市",
    "city_kana": "チクセイシ",
    "town": "稲荷",
    "town_kana": "イナリ",
    "street": null,
    "office_name": null,
    "office_name_kana": null
  },
  "0107": {
    "zip_code": "3080107",
    "prefecture": "茨城県",
    "prefecture_kana": "イバラキケン",
    "prefecture_code": 8,
    "city": "筑西市",
    "city_kana": "チクセイシ",
    "town": "梶内",
    "town_kana": "カジウチ",
    "street": null,
    "office_name": null,
    "office_name_kana": null
  },
  "0108": {
    "zip_code": "3080108",
    "prefecture": "茨城県",
    "prefecture_kana": "イバラキケン",
    "prefecture_code": 8,
    "city": "筑西市",
    "city_kana": "チクセイシ",
    "town": "中村新田",
    "town_kana": "ナカムラシンデン",
    "street": null,
    "office_name": null,
    "office_name_kana": null
  },
  "0111": {
    "zip_code": "3080111",
    "prefecture": "茨城県",
    "prefecture_kana": "イバラキケン",
    "prefecture_code": 8,
    "city": "筑西市",
    "city_kana": "チクセイシ",
    "town": "舟生",
    "town_kana": "フニュウ",
    "street": null,
    "office_name": null,
    "office_name_kana": null
  },
  "0112": {
    "zip_code": "3080112",
    "prefecture": "茨城県",
    "prefecture_kana": "イバラキケン",
    "prefecture_code": 8,
    "city": "筑西市",
    "city_kana": "チクセイシ",
    "town": "藤ケ谷",
    "town_kana": "フジガヤ",
    "street": null,
    "office_name": null,
    "office_name_kana": null
  },
  "0113": {
    "zip_code": "3080113",
    "prefecture": "茨城県",
    "prefecture_kana": "イバラキケン",
    "prefecture_code": 8,
    "city": "筑西市",
    "city_kana": "チクセイシ",
    "town": "関舘",
    "town_kana": "セキタテ",
    "street": null,
    "office_name": null,
    "office_name_kana": null
  },
  "0114": {
    "zip_code": "3080114",
    "prefecture": "茨城県",
    "prefecture_kana": "イバラキケン",
    "prefecture_code": 8,
    "city": "筑西市",
    "city_kana": "チクセイシ",
    "town": "花田",
    "town_kana": "ハナダ",
    "street": null,
    "office_name": null,
    "office_name_kana": null
  },
  "0115": {
    "zip_code": "3080115",
    "prefecture": "茨城県",
    "prefecture_kana": "イバラキケン",
    "prefecture_code": 8,
    "city": "筑西市",
    "city_kana": "チクセイシ",
    "town": "花橋",
    "town_kana": "ハナバシ",
    "street": null,
    "office_name": null,
    "office_name_kana": null
  },
  "0116": {
    "zip_code": "3080116",
    "prefecture": "茨城県",
    "prefecture_kana": "イバラキケン",
    "prefecture_code": 8,
    "city": "筑西市",
    "city_kana": "チクセイシ",
    "town": "板橋",
    "town_kana": "イタバシ",
    "street": null,
    "office_name": null,
    "office_name_kana": null
  },
  "0117": {
    "zip_code": "3080117",
    "prefecture": "茨城県",
    "prefecture_kana": "イバラキケン",
    "prefecture_code": 8,
    "city": "筑西市",
    "city_kana": "チクセイシ",
    "town": "犬塚",
    "town_kana": "イヌヅカ",
    "street": null,
    "office_name": null,
    "office_name_kana": null
  },
  "0121": {
    "zip_code": "3080121",
    "prefecture": "茨城県",
    "prefecture_kana": "イバラキケン",
    "prefecture_code": 8,
    "city": "筑西市",
    "city_kana": "チクセイシ",
    "town": "船玉",
    "town_kana": "フナダマ",
    "street": null,
    "office_name": null,
    "office_name_kana": null
  },
  "0122": {
    "zip_code": "3080122",
    "prefecture": "茨城県",
    "prefecture_kana": "イバラキケン",
    "prefecture_code": 8,
    "city": "筑西市",
    "city_kana": "チクセイシ",
    "town": "関本上",
    "town_kana": "セキモトカミ",
    "street": null,
    "office_name": null,
    "office_name_kana": null
  },
  "0123": {
    "zip_code": "3080123",
    "prefecture": "茨城県",
    "prefecture_kana": "イバラキケン",
    "prefecture_code": 8,
    "city": "筑西市",
    "city_kana": "チクセイシ",
    "town": "関本上中",
    "town_kana": "セキモトカミナカ",
    "street": null,
    "office_name": null,
    "office_name_kana": null
  },
  "0124": {
    "zip_code": "3080124",
    "prefecture": "茨城県",
    "prefecture_kana": "イバラキケン",
    "prefecture_code": 8,
    "city": "筑西市",
    "city_kana": "チクセイシ",
    "town": "関本肥土",
    "town_kana": "セキモトアクト",
    "street": null,
    "office_name": null,
    "office_name_kana": null
  },
  "0125": {
    "zip_code": "3080125",
    "prefecture": "茨城県",
    "prefecture_kana": "イバラキケン",
    "prefecture_code": 8,
    "city": "筑西市",
    "city_kana": "チクセイシ",
    "town": "関本分中",
    "town_kana": "セキモトワケナカ",
    "street": null,
    "office_name": null,
    "office_name_kana": null
  },
  "0126": {
    "zip_code": "3080126",
    "prefecture": "茨城県",
    "prefecture_kana": "イバラキケン",
    "prefecture_code": 8,
    "city": "筑西市",
    "city_kana": "チクセイシ",
    "town": "関本中",
    "town_kana": "セキモトナカ",
    "street": null,
    "office_name": null,
    "office_name_kana": null
  },
  "0127": {
    "zip_code": "3080127",
    "prefecture": "茨城県",
    "prefecture_kana": "イバラキケン",
    "prefecture_code": 8,
    "city": "筑西市",
    "city_kana": "チクセイシ",
    "town": "関本下",
    "town_kana": "セキモトシモ",
    "street": null,
    "office_name": null,
    "office_name_kana": null
  },
  "0128": {
    "zip_code": "3080128",
    "prefecture": "茨城県",
    "prefecture_kana": "イバラキケン",
    "prefecture_code": 8,
    "city": "筑西市",
    "city_kana": "チクセイシ",
    "town": "江",
    "town_kana": "エ",
    "street": null,
    "office_name": null,
    "office_name_kana": null
  },
  "0129": {
    "zip_code": "3080129",
    "prefecture": "茨城県",
    "prefecture_kana": "イバラキケン",
    "prefecture_code": 8,
    "city": "筑西市",
    "city_kana": "チクセイシ",
    "town": "上野",
    "town_kana": "ウエノ",
    "street": null,
    "office_name": null,
    "office_name_kana": null
  },
  "0193": {
    "zip_code": "3080193",
    "prefecture": "茨城県",
    "prefecture_kana": "イバラキケン",
    "prefecture_code": 8,
    "city": "筑西市",
    "city_kana": "チクセイシ",
    "town": "関舘",
    "town_kana": "セキタテ",
    "street": "３６７−２",
    "office_name": "フレクストロニクス・インターナショナル　株式会社",
    "office_name_kana": "フレクストロニクス・インタ-ナシヨナル カブシキガイシヤ"
  },
  "0194": {
    "zip_code": "3080194",
    "prefecture": "茨城県",
    "prefecture_kana": "イバラキケン",
    "prefecture_code": 8,
    "city": "筑西市",
    "city_kana": "チクセイシ",
    "town": "舟生",
    "town_kana": "フニュウ",
    "street": "１０４０",
    "office_name": "筑西市役所関城支所",
    "office_name_kana": "チクセイシヤクシヨセキジヨウシシヨ"
  },
  "0801": {
    "zip_code": "3080801",
    "prefecture": "茨城県",
    "prefecture_kana": "イバラキケン",
    "prefecture_code": 8,
    "city": "筑西市",
    "city_kana": "チクセイシ",
    "town": "川澄",
    "town_kana": "カワスミ",
    "street": null,
    "office_name": null,
    "office_name_kana": null
  },
  "0802": {
    "zip_code": "3080802",
    "prefecture": "茨城県",
    "prefecture_kana": "イバラキケン",
    "prefecture_code": 8,
    "city": "筑西市",
    "city_kana": "チクセイシ",
    "town": "横島",
    "town_kana": "ヨコシマ",
    "street": null,
    "office_name": null,
    "office_name_kana": null
  },
  "0803": {
    "zip_code": "3080803",
    "prefecture": "茨城県",
    "prefecture_kana": "イバラキケン",
    "prefecture_code": 8,
    "city": "筑西市",
    "city_kana": "チクセイシ",
    "town": "直井",
    "town_kana": "ナオイ",
    "street": null,
    "office_name": null,
    "office_name_kana": null
  },
  "0804": {
    "zip_code": "3080804",
    "prefecture": "茨城県",
    "prefecture_kana": "イバラキケン",
    "prefecture_code": 8,
    "city": "筑西市",
    "city_kana": "チクセイシ",
    "town": "金丸",
    "town_kana": "カナマル",
    "street": null,
    "office_name": null,
    "office_name_kana": null
  },
  "0805": {
    "zip_code": "3080805",
    "prefecture": "茨城県",
    "prefecture_kana": "イバラキケン",
    "prefecture_code": 8,
    "city": "筑西市",
    "city_kana": "チクセイシ",
    "town": "稲野辺",
    "town_kana": "イナノベ",
    "street": null,
    "office_name": null,
    "office_name_kana": null
  },
  "0806": {
    "zip_code": "3080806",
    "prefecture": "茨城県",
    "prefecture_kana": "イバラキケン",
    "prefecture_code": 8,
    "city": "筑西市",
    "city_kana": "チクセイシ",
    "town": "小林",
    "town_kana": "オバヤシ",
    "street": null,
    "office_name": null,
    "office_name_kana": null
  },
  "0807": {
    "zip_code": "3080807",
    "prefecture": "茨城県",
    "prefecture_kana": "イバラキケン",
    "prefecture_code": 8,
    "city": "筑西市",
    "city_kana": "チクセイシ",
    "town": "高島",
    "town_kana": "タカシマ",
    "street": null,
    "office_name": null,
    "office_name_kana": null
  },
  "0811": {
    "zip_code": "3080811",
    "prefecture": "茨城県",
    "prefecture_kana": "イバラキケン",
    "prefecture_code": 8,
    "city": "筑西市",
    "city_kana": "チクセイシ",
    "town": "茂田",
    "town_kana": "モダ",
    "street": null,
    "office_name": null,
    "office_name_kana": null
  },
  "0812": {
    "zip_code": "3080812",
    "prefecture": "茨城県",
    "prefecture_kana": "イバラキケン",
    "prefecture_code": 8,
    "city": "筑西市",
    "city_kana": "チクセイシ",
    "town": "深見",
    "town_kana": "フカミ",
    "street": null,
    "office_name": null,
    "office_name_kana": null
  },
  "0813": {
    "zip_code": "3080813",
    "prefecture": "茨城県",
    "prefecture_kana": "イバラキケン",
    "prefecture_code": 8,
    "city": "筑西市",
    "city_kana": "チクセイシ",
    "town": "大塚",
    "town_kana": "オオツカ",
    "street": null,
    "office_name": null,
    "office_name_kana": null
  },
  "0814": {
    "zip_code": "3080814",
    "prefecture": "茨城県",
    "prefecture_kana": "イバラキケン",
    "prefecture_code": 8,
    "city": "筑西市",
    "city_kana": "チクセイシ",
    "town": "川連",
    "town_kana": "カワヅレ",
    "street": null,
    "office_name": null,
    "office_name_kana": null
  },
  "0815": {
    "zip_code": "3080815",
    "prefecture": "茨城県",
    "prefecture_kana": "イバラキケン",
    "prefecture_code": 8,
    "city": "筑西市",
    "city_kana": "チクセイシ",
    "town": "上川中子",
    "town_kana": "カミカワナゴ",
    "street": null,
    "office_name": null,
    "office_name_kana": null
  },
  "0816": {
    "zip_code": "3080816",
    "prefecture": "茨城県",
    "prefecture_kana": "イバラキケン",
    "prefecture_code": 8,
    "city": "筑西市",
    "city_kana": "チクセイシ",
    "town": "徳持",
    "town_kana": "トクモチ",
    "street": null,
    "office_name": null,
    "office_name_kana": null
  },
  "0821": {
    "zip_code": "3080821",
    "prefecture": "茨城県",
    "prefecture_kana": "イバラキケン",
    "prefecture_code": 8,
    "city": "筑西市",
    "city_kana": "チクセイシ",
    "town": "成田",
    "town_kana": "ナリタ",
    "street": null,
    "office_name": null,
    "office_name_kana": null
  },
  "0822": {
    "zip_code": "3080822",
    "prefecture": "茨城県",
    "prefecture_kana": "イバラキケン",
    "prefecture_code": 8,
    "city": "筑西市",
    "city_kana": "チクセイシ",
    "town": "塚原",
    "town_kana": "ツカハラ",
    "street": null,
    "office_name": null,
    "office_name_kana": null
  },
  "0823": {
    "zip_code": "3080823",
    "prefecture": "茨城県",
    "prefecture_kana": "イバラキケン",
    "prefecture_code": 8,
    "city": "筑西市",
    "city_kana": "チクセイシ",
    "town": "島",
    "town_kana": "シマ",
    "street": null,
    "office_name": null,
    "office_name_kana": null
  },
  "0824": {
    "zip_code": "3080824",
    "prefecture": "茨城県",
    "prefecture_kana": "イバラキケン",
    "prefecture_code": 8,
    "city": "筑西市",
    "city_kana": "チクセイシ",
    "town": "蕨",
    "town_kana": "ワラビ",
    "street": null,
    "office_name": null,
    "office_name_kana": null
  },
  "0825": {
    "zip_code": "3080825",
    "prefecture": "茨城県",
    "prefecture_kana": "イバラキケン",
    "prefecture_code": 8,
    "city": "筑西市",
    "city_kana": "チクセイシ",
    "town": "下中山",
    "town_kana": "シモナカヤマ",
    "street": null,
    "office_name": null,
    "office_name_kana": null
  },
  "0826": {
    "zip_code": "3080826",
    "prefecture": "茨城県",
    "prefecture_kana": "イバラキケン",
    "prefecture_code": 8,
    "city": "筑西市",
    "city_kana": "チクセイシ",
    "town": "下岡崎",
    "town_kana": "シモオカザキ",
    "street": null,
    "office_name": null,
    "office_name_kana": null
  },
  "0827": {
    "zip_code": "3080827",
    "prefecture": "茨城県",
    "prefecture_kana": "イバラキケン",
    "prefecture_code": 8,
    "city": "筑西市",
    "city_kana": "チクセイシ",
    "town": "市野辺",
    "town_kana": "イチノベ",
    "street": null,
    "office_name": null,
    "office_name_kana": null
  },
  "0831": {
    "zip_code": "3080831",
    "prefecture": "茨城県",
    "prefecture_kana": "イバラキケン",
    "prefecture_code": 8,
    "city": "筑西市",
    "city_kana": "チクセイシ",
    "town": "東榎生",
    "town_kana": "ヒガシヨノウ",
    "street": null,
    "office_name": null,
    "office_name_kana": null
  },
  "0832": {
    "zip_code": "3080832",
    "prefecture": "茨城県",
    "prefecture_kana": "イバラキケン",
    "prefecture_code": 8,
    "city": "筑西市",
    "city_kana": "チクセイシ",
    "town": "西榎生",
    "town_kana": "ニシヨノウ",
    "street": null,
    "office_name": null,
    "office_name_kana": null
  },
  "0833": {
    "zip_code": "3080833",
    "prefecture": "茨城県",
    "prefecture_kana": "イバラキケン",
    "prefecture_code": 8,
    "city": "筑西市",
    "city_kana": "チクセイシ",
    "town": "野田",
    "town_kana": "ノダ",
    "street": null,
    "office_name": null,
    "office_name_kana": null
  },
  "0834": {
    "zip_code": "3080834",
    "prefecture": "茨城県",
    "prefecture_kana": "イバラキケン",
    "prefecture_code": 8,
    "city": "筑西市",
    "city_kana": "チクセイシ",
    "town": "西石田",
    "town_kana": "ニシイシダ",
    "street": null,
    "office_name": null,
    "office_name_kana": null
  },
  "0835": {
    "zip_code": "3080835",
    "prefecture": "茨城県",
    "prefecture_kana": "イバラキケン",
    "prefecture_code": 8,
    "city": "筑西市",
    "city_kana": "チクセイシ",
    "town": "飯田",
    "town_kana": "イイダ",
    "street": null,
    "office_name": null,
    "office_name_kana": null
  },
  "0836": {
    "zip_code": "3080836",
    "prefecture": "茨城県",
    "prefecture_kana": "イバラキケン",
    "prefecture_code": 8,
    "city": "筑西市",
    "city_kana": "チクセイシ",
    "town": "旭ケ丘",
    "town_kana": "アサヒガオカ",
    "street": null,
    "office_name": null,
    "office_name_kana": null
  },
  "0837": {
    "zip_code": "3080837",
    "prefecture": "茨城県",
    "prefecture_kana": "イバラキケン",
    "prefecture_code": 8,
    "city": "筑西市",
    "city_kana": "チクセイシ",
    "town": "嘉家佐和",
    "town_kana": "カゲサワ",
    "street": null,
    "office_name": null,
    "office_name_kana": null
  },
  "0838": {
    "zip_code": "3080838",
    "prefecture": "茨城県",
    "prefecture_kana": "イバラキケン",
    "prefecture_code": 8,
    "city": "筑西市",
    "city_kana": "チクセイシ",
    "town": "榎生",
    "town_kana": "ヨノウ",
    "street": null,
    "office_name": null,
    "office_name_kana": null
  },
  "0841": {
    "zip_code": "3080841",
    "prefecture": "茨城県",
    "prefecture_kana": "イバラキケン",
    "prefecture_code": 8,
    "city": "筑西市",
    "city_kana": "チクセイシ",
    "town": "二木成",
    "town_kana": "ニギナリ",
    "street": null,
    "office_name": null,
    "office_name_kana": null
  },
  "0842": {
    "zip_code": "3080842",
    "prefecture": "茨城県",
    "prefecture_kana": "イバラキケン",
    "prefecture_code": 8,
    "city": "筑西市",
    "city_kana": "チクセイシ",
    "town": "一本松",
    "town_kana": "イッポンマツ",
    "street": null,
    "office_name": null,
    "office_name_kana": null
  },
  "0843": {
    "zip_code": "3080843",
    "prefecture": "茨城県",
    "prefecture_kana": "イバラキケン",
    "prefecture_code": 8,
    "city": "筑西市",
    "city_kana": "チクセイシ",
    "town": "野殿",
    "town_kana": "ノドノ",
    "street": null,
    "office_name": null,
    "office_name_kana": null
  },
  "0844": {
    "zip_code": "3080844",
    "prefecture": "茨城県",
    "prefecture_kana": "イバラキケン",
    "prefecture_code": 8,
    "city": "筑西市",
    "city_kana": "チクセイシ",
    "town": "下野殿",
    "town_kana": "シモノドノ",
    "street": null,
    "office_name": null,
    "office_name_kana": null
  },
  "0845": {
    "zip_code": "3080845",
    "prefecture": "茨城県",
    "prefecture_kana": "イバラキケン",
    "prefecture_code": 8,
    "city": "筑西市",
    "city_kana": "チクセイシ",
    "town": "西方",
    "town_kana": "ニシホウ",
    "street": null,
    "office_name": null,
    "office_name_kana": null
  },
  "0846": {
    "zip_code": "3080846",
    "prefecture": "茨城県",
    "prefecture_kana": "イバラキケン",
    "prefecture_code": 8,
    "city": "筑西市",
    "city_kana": "チクセイシ",
    "town": "布川",
    "town_kana": "ヌノガワ",
    "street": null,
    "office_name": null,
    "office_name_kana": null
  },
  "0847": {
    "zip_code": "3080847",
    "prefecture": "茨城県",
    "prefecture_kana": "イバラキケン",
    "prefecture_code": 8,
    "city": "筑西市",
    "city_kana": "チクセイシ",
    "town": "玉戸",
    "town_kana": "タマド",
    "street": null,
    "office_name": null,
    "office_name_kana": null
  },
  "0848": {
    "zip_code": "3080848",
    "prefecture": "茨城県",
    "prefecture_kana": "イバラキケン",
    "prefecture_code": 8,
    "city": "筑西市",
    "city_kana": "チクセイシ",
    "town": "幸町",
    "town_kana": "サイワイチョウ",
    "street": null,
    "office_name": null,
    "office_name_kana": null
  },
  "0851": {
    "zip_code": "3080851",
    "prefecture": "茨城県",
    "prefecture_kana": "イバラキケン",
    "prefecture_code": 8,
    "city": "筑西市",
    "city_kana": "チクセイシ",
    "town": "下江連",
    "town_kana": "シモエヅレ",
    "street": null,
    "office_name": null,
    "office_name_kana": null
  },
  "0852": {
    "zip_code": "3080852",
    "prefecture": "茨城県",
    "prefecture_kana": "イバラキケン",
    "prefecture_code": 8,
    "city": "筑西市",
    "city_kana": "チクセイシ",
    "town": "大谷",
    "town_kana": "オオヤ",
    "street": null,
    "office_name": null,
    "office_name_kana": null
  },
  "0853": {
    "zip_code": "3080853",
    "prefecture": "茨城県",
    "prefecture_kana": "イバラキケン",
    "prefecture_code": 8,
    "city": "筑西市",
    "city_kana": "チクセイシ",
    "town": "伊讃美",
    "town_kana": "イサミ",
    "street": null,
    "office_name": null,
    "office_name_kana": null
  },
  "0854": {
    "zip_code": "3080854",
    "prefecture": "茨城県",
    "prefecture_kana": "イバラキケン",
    "prefecture_code": 8,
    "city": "筑西市",
    "city_kana": "チクセイシ",
    "town": "女方",
    "town_kana": "オザカタ",
    "street": null,
    "office_name": null,
    "office_name_kana": null
  },
  "0855": {
    "zip_code": "3080855",
    "prefecture": "茨城県",
    "prefecture_kana": "イバラキケン",
    "prefecture_code": 8,
    "city": "筑西市",
    "city_kana": "チクセイシ",
    "town": "下川島",
    "town_kana": "シモカワシマ",
    "street": null,
    "office_name": null,
    "office_name_kana": null
  },
  "0856": {
    "zip_code": "3080856",
    "prefecture": "茨城県",
    "prefecture_kana": "イバラキケン",
    "prefecture_code": 8,
    "city": "筑西市",
    "city_kana": "チクセイシ",
    "town": "伊佐山",
    "town_kana": "イサヤマ",
    "street": null,
    "office_name": null,
    "office_name_kana": null
  },
  "0857": {
    "zip_code": "3080857",
    "prefecture": "茨城県",
    "prefecture_kana": "イバラキケン",
    "prefecture_code": 8,
    "city": "筑西市",
    "city_kana": "チクセイシ",
    "town": "小川",
    "town_kana": "オガワ",
    "street": null,
    "office_name": null,
    "office_name_kana": null
  },
  "0861": {
    "zip_code": "3080861",
    "prefecture": "茨城県",
    "prefecture_kana": "イバラキケン",
    "prefecture_code": 8,
    "city": "筑西市",
    "city_kana": "チクセイシ",
    "town": "森添島",
    "town_kana": "モリソエジマ",
    "street": null,
    "office_name": null,
    "office_name_kana": null
  },
  "0862": {
    "zip_code": "3080862",
    "prefecture": "茨城県",
    "prefecture_kana": "イバラキケン",
    "prefecture_code": 8,
    "city": "筑西市",
    "city_kana": "チクセイシ",
    "town": "小塙",
    "town_kana": "コバナ",
    "street": null,
    "office_name": null,
    "office_name_kana": null
  },
  "0863": {
    "zip_code": "3080863",
    "prefecture": "茨城県",
    "prefecture_kana": "イバラキケン",
    "prefecture_code": 8,
    "city": "筑西市",
    "city_kana": "チクセイシ",
    "town": "灰塚",
    "town_kana": "ハイツカ",
    "street": null,
    "office_name": null,
    "office_name_kana": null
  },
  "0864": {
    "zip_code": "3080864",
    "prefecture": "茨城県",
    "prefecture_kana": "イバラキケン",
    "prefecture_code": 8,
    "city": "筑西市",
    "city_kana": "チクセイシ",
    "town": "掉ケ島",
    "town_kana": "ソウカジマ",
    "street": null,
    "office_name": null,
    "office_name_kana": null
  },
  "0865": {
    "zip_code": "3080865",
    "prefecture": "茨城県",
    "prefecture_kana": "イバラキケン",
    "prefecture_code": 8,
    "city": "筑西市",
    "city_kana": "チクセイシ",
    "town": "山崎",
    "town_kana": "ヤマザキ",
    "street": null,
    "office_name": null,
    "office_name_kana": null
  },
  "0866": {
    "zip_code": "3080866",
    "prefecture": "茨城県",
    "prefecture_kana": "イバラキケン",
    "prefecture_code": 8,
    "city": "筑西市",
    "city_kana": "チクセイシ",
    "town": "五所宮",
    "town_kana": "ゴショミヤ",
    "street": null,
    "office_name": null,
    "office_name_kana": null
  },
  "0867": {
    "zip_code": "3080867",
    "prefecture": "茨城県",
    "prefecture_kana": "イバラキケン",
    "prefecture_code": 8,
    "city": "筑西市",
    "city_kana": "チクセイシ",
    "town": "西山田",
    "town_kana": "ニシヤマダ",
    "street": null,
    "office_name": null,
    "office_name_kana": null
  },
  "8510": {
    "zip_code": "3088510",
    "prefecture": "茨城県",
    "prefecture_kana": "イバラキケン",
    "prefecture_code": 8,
    "city": "筑西市",
    "city_kana": "チクセイシ",
    "town": "二木成",
    "town_kana": "ニギナリ",
    "street": "６１５",
    "office_name": "茨城県県西県民センター",
    "office_name_kana": "イバラキケンケンセイケンミンセンタ-"
  },
  "8511": {
    "zip_code": "3088511",
    "prefecture": "茨城県",
    "prefecture_kana": "イバラキケン",
    "prefecture_code": 8,
    "city": "筑西市",
    "city_kana": "チクセイシ",
    "town": "二木成",
    "town_kana": "ニギナリ",
    "street": "６１５",
    "office_name": "茨城県　筑西県税事務所",
    "office_name_kana": "イバラキケン チクセイケンゼイジムシヨ"
  },
  "8512": {
    "zip_code": "3088512",
    "prefecture": "茨城県",
    "prefecture_kana": "イバラキケン",
    "prefecture_code": 8,
    "city": "筑西市",
    "city_kana": "チクセイシ",
    "town": "一本松",
    "town_kana": "イッポンマツ",
    "street": "１７５５−２",
    "office_name": "関彰商事　株式会社",
    "office_name_kana": "セキシヨウシヨウジ カブシキガイシヤ"
  },
  "8513": {
    "zip_code": "3088513",
    "prefecture": "茨城県",
    "prefecture_kana": "イバラキケン",
    "prefecture_code": 8,
    "city": "筑西市",
    "city_kana": "チクセイシ",
    "town": "みどり町",
    "town_kana": "ミドリマチ",
    "street": "２丁目１−１",
    "office_name": "日本ハム　株式会社　茨城工場",
    "office_name_kana": "ニツポンハム カブシキガイシヤ イバラキコウジヨウ"
  },
  "8521": {
    "zip_code": "3088521",
    "prefecture": "茨城県",
    "prefecture_kana": "イバラキケン",
    "prefecture_code": 8,
    "city": "筑西市",
    "city_kana": "チクセイシ",
    "town": "小川",
    "town_kana": "オガワ",
    "street": "１５００",
    "office_name": "日立化成　株式会社　下館事業所",
    "office_name_kana": "ヒタチカセイ カブシキカイシヤ シモダテジギヨウシヨ"
  },
  "8522": {
    "zip_code": "3088522",
    "prefecture": "茨城県",
    "prefecture_kana": "イバラキケン",
    "prefecture_code": 8,
    "city": "筑西市",
    "city_kana": "チクセイシ",
    "town": "伊佐山",
    "town_kana": "イサヤマ",
    "street": "２１８−３",
    "office_name": "ＮＣ東日本コンクリート工業　株式会社",
    "office_name_kana": "エヌシ-ヒガシニホンコンクリ-トコウギヨウ カブシキガイシヤ"
  },
  "8523": {
    "zip_code": "3088523",
    "prefecture": "茨城県",
    "prefecture_kana": "イバラキケン",
    "prefecture_code": 8,
    "city": "筑西市",
    "city_kana": "チクセイシ",
    "town": "下江連",
    "town_kana": "シモエヅレ",
    "street": "１２５０",
    "office_name": "株式会社　ハウステック　結城事業所",
    "office_name_kana": "カブシキガイシヤ ハウステツク ユウキジギヨウシヨ"
  },
  "8524": {
    "zip_code": "3088524",
    "prefecture": "茨城県",
    "prefecture_kana": "イバラキケン",
    "prefecture_code": 8,
    "city": "筑西市",
    "city_kana": "チクセイシ",
    "town": "五所宮",
    "town_kana": "ゴショミヤ",
    "street": "１１５０",
    "office_name": "日立化成　株式会社　下館事業所（五所宮）",
    "office_name_kana": "ヒタチカセイ カブシキガイシヤ シモダテジギヨウシヨ ゴシヨミヤ"
  },
  "8540": {
    "zip_code": "3088540",
    "prefecture": "茨城県",
    "prefecture_kana": "イバラキケン",
    "prefecture_code": 8,
    "city": "筑西市",
    "city_kana": "チクセイシ",
    "town": "下岡崎",
    "town_kana": "シモオカザキ",
    "street": "３丁目１番地１３",
    "office_name": "東京電力　株式会社　下館支社",
    "office_name_kana": "トウキヨウデンリヨク カブシキガイシヤ シモダテシシヤ"
  },
  "8550": {
    "zip_code": "3088550",
    "prefecture": "茨城県",
    "prefecture_kana": "イバラキケン",
    "prefecture_code": 8,
    "city": "筑西市",
    "city_kana": "チクセイシ",
    "town": "玉戸",
    "town_kana": "タマド",
    "street": "１０１２",
    "office_name": "株式会社　ディスタ",
    "office_name_kana": "カブシキガイシヤ デイスタ"
  },
  "8608": {
    "zip_code": "3088608",
    "prefecture": "茨城県",
    "prefecture_kana": "イバラキケン",
    "prefecture_code": 8,
    "city": "筑西市",
    "city_kana": "チクセイシ",
    "town": "丙",
    "town_kana": "ヘイ",
    "street": "１１６番地１６（下館郵便局私書箱第８号）",
    "office_name": "下館税務署",
    "office_name_kana": "シモダテゼイムシヨ"
  },
  "8616": {
    "zip_code": "3088616",
    "prefecture": "茨城県",
    "prefecture_kana": "イバラキケン",
    "prefecture_code": 8,
    "city": "筑西市",
    "city_kana": "チクセイシ",
    "town": "下中山",
    "town_kana": "シモナカヤマ",
    "street": "７３２−１（下館郵便局私書箱第１６号）",
    "office_name": "筑西市役所",
    "office_name_kana": "チクセイシヤクシヨ"
  },
  "8638": {
    "zip_code": "3088638",
    "prefecture": "茨城県",
    "prefecture_kana": "イバラキケン",
    "prefecture_code": 8,
    "city": "筑西市",
    "city_kana": "チクセイシ",
    "town": "乙",
    "town_kana": "オツ",
    "street": "５８９（下館郵便局私書箱第２６号）",
    "office_name": "株式会社　ＭＣＣ",
    "office_name_kana": "カブシキガイシヤ エムシ-シ-"
  }
}