{
  "0001": {
    "zip_code": "3160001",
    "prefecture": "茨城県",
    "prefecture_kana": "イバラキケン",
    "prefecture_code": "8",
    "city": "日立市",
    "city_kana": "ヒタチシ",
    "town": "諏訪町",
    "town_kana": "スワチョウ",
    "street": null,
    "office_name": null,
    "office_name_kana": null
  },
  "0002": {
    "zip_code": "3160002",
    "prefecture": "茨城県",
    "prefecture_kana": "イバラキケン",
    "prefecture_code": "8",
    "city": "日立市",
    "city_kana": "ヒタチシ",
    "town": "桜川町",
    "town_kana": "サクラガワチョウ",
    "street": null,
    "office_name": null,
    "office_name_kana": null
  },
  "0003": {
    "zip_code": "3160003",
    "prefecture": "茨城県",
    "prefecture_kana": "イバラキケン",
    "prefecture_code": "8",
    "city": "日立市",
    "city_kana": "ヒタチシ",
    "town": "多賀町",
    "town_kana": "タガチョウ",
    "street": null,
    "office_name": null,
    "office_name_kana": null
  },
  "0004": {
    "zip_code": "3160004",
    "prefecture": "茨城県",
    "prefecture_kana": "イバラキケン",
    "prefecture_code": "8",
    "city": "日立市",
    "city_kana": "ヒタチシ",
    "town": "東多賀町",
    "town_kana": "ヒガシタガチョウ",
    "street": null,
    "office_name": null,
    "office_name_kana": null
  },
  "0005": {
    "zip_code": "3160005",
    "prefecture": "茨城県",
    "prefecture_kana": "イバラキケン",
    "prefecture_code": "8",
    "city": "日立市",
    "city_kana": "ヒタチシ",
    "town": "河原子町",
    "town_kana": "カワラゴチョウ",
    "street": null,
    "office_name": null,
    "office_name_kana": null
  },
  "0006": {
    "zip_code": "3160006",
    "prefecture": "茨城県",
    "prefecture_kana": "イバラキケン",
    "prefecture_code": "8",
    "city": "日立市",
    "city_kana": "ヒタチシ",
    "town": "末広町",
    "town_kana": "スエヒロチョウ",
    "street": null,
    "office_name": null,
    "office_name_kana": null
  },
  "0007": {
    "zip_code": "3160007",
    "prefecture": "茨城県",
    "prefecture_kana": "イバラキケン",
    "prefecture_code": "8",
    "city": "日立市",
    "city_kana": "ヒタチシ",
    "town": "中丸町",
    "town_kana": "ナカマルチョウ",
    "street": null,
    "office_name": null,
    "office_name_kana": null
  },
  "0011": {
    "zip_code": "3160011",
    "prefecture": "茨城県",
    "prefecture_kana": "イバラキケン",
    "prefecture_code": "8",
    "city": "日立市",
    "city_kana": "ヒタチシ",
    "town": "塙山町",
    "town_kana": "ハナヤマチョウ",
    "street": null,
    "office_name": null,
    "office_name_kana": null
  },
  "0012": {
    "zip_code": "3160012",
    "prefecture": "茨城県",
    "prefecture_kana": "イバラキケン",
    "prefecture_code": "8",
    "city": "日立市",
    "city_kana": "ヒタチシ",
    "town": "大久保町",
    "town_kana": "オオクボチョウ",
    "street": null,
    "office_name": null,
    "office_name_kana": null
  },
  "0013": {
    "zip_code": "3160013",
    "prefecture": "茨城県",
    "prefecture_kana": "イバラキケン",
    "prefecture_code": "8",
    "city": "日立市",
    "city_kana": "ヒタチシ",
    "town": "千石町",
    "town_kana": "チコクチョウ",
    "street": null,
    "office_name": null,
    "office_name_kana": null
  },
  "0014": {
    "zip_code": "3160014",
    "prefecture": "茨城県",
    "prefecture_kana": "イバラキケン",
    "prefecture_code": "8",
    "city": "日立市",
    "city_kana": "ヒタチシ",
    "town": "東金沢町",
    "town_kana": "ヒガシカネサワチョウ",
    "street": null,
    "office_name": null,
    "office_name_kana": null
  },
  "0015": {
    "zip_code": "3160015",
    "prefecture": "茨城県",
    "prefecture_kana": "イバラキケン",
    "prefecture_code": "8",
    "city": "日立市",
    "city_kana": "ヒタチシ",
    "town": "金沢町",
    "town_kana": "カネサワチョウ",
    "street": null,
    "office_name": null,
    "office_name_kana": null
  },
  "0021": {
    "zip_code": "3160021",
    "prefecture": "茨城県",
    "prefecture_kana": "イバラキケン",
    "prefecture_code": "8",
    "city": "日立市",
    "city_kana": "ヒタチシ",
    "town": "台原町",
    "town_kana": "ダイハラチョウ",
    "street": null,
    "office_name": null,
    "office_name_kana": null
  },
  "0022": {
    "zip_code": "3160022",
    "prefecture": "茨城県",
    "prefecture_kana": "イバラキケン",
    "prefecture_code": "8",
    "city": "日立市",
    "city_kana": "ヒタチシ",
    "town": "大沼町",
    "town_kana": "オオヌマチョウ",
    "street": null,
    "office_name": null,
    "office_name_kana": null
  },
  "0023": {
    "zip_code": "3160023",
    "prefecture": "茨城県",
    "prefecture_kana": "イバラキケン",
    "prefecture_code": "8",
    "city": "日立市",
    "city_kana": "ヒタチシ",
    "town": "東大沼町",
    "town_kana": "ヒガシオオヌマチョウ",
    "street": null,
    "office_name": null,
    "office_name_kana": null
  },
  "0024": {
    "zip_code": "3160024",
    "prefecture": "茨城県",
    "prefecture_kana": "イバラキケン",
    "prefecture_code": "8",
    "city": "日立市",
    "city_kana": "ヒタチシ",
    "town": "水木町",
    "town_kana": "ミズキチョウ",
    "street": null,
    "office_name": null,
    "office_name_kana": null
  },
  "0025": {
    "zip_code": "3160025",
    "prefecture": "茨城県",
    "prefecture_kana": "イバラキケン",
    "prefecture_code": "8",
    "city": "日立市",
    "city_kana": "ヒタチシ",
    "town": "森山町",
    "town_kana": "モリヤマチョウ",
    "street": null,
    "office_name": null,
    "office_name_kana": null
  },
  "0026": {
    "zip_code": "3160026",
    "prefecture": "茨城県",
    "prefecture_kana": "イバラキケン",
    "prefecture_code": "8",
    "city": "日立市",
    "city_kana": "ヒタチシ",
    "town": "みかの原町",
    "town_kana": "ミカノハラチョウ",
    "street": null,
    "office_name": null,
    "office_name_kana": null
  },
  "0031": {
    "zip_code": "3160031",
    "prefecture": "茨城県",
    "prefecture_kana": "イバラキケン",
    "prefecture_code": "8",
    "city": "日立市",
    "city_kana": "ヒタチシ",
    "town": "成沢町",
    "town_kana": "ナルサワチョウ",
    "street": null,
    "office_name": null,
    "office_name_kana": null
  },
  "0032": {
    "zip_code": "3160032",
    "prefecture": "茨城県",
    "prefecture_kana": "イバラキケン",
    "prefecture_code": "8",
    "city": "日立市",
    "city_kana": "ヒタチシ",
    "town": "西成沢町",
    "town_kana": "ニシナルサワチョウ",
    "street": null,
    "office_name": null,
    "office_name_kana": null
  },
  "0033": {
    "zip_code": "3160033",
    "prefecture": "茨城県",
    "prefecture_kana": "イバラキケン",
    "prefecture_code": "8",
    "city": "日立市",
    "city_kana": "ヒタチシ",
    "town": "中成沢町",
    "town_kana": "ナカナルサワチョウ",
    "street": null,
    "office_name": null,
    "office_name_kana": null
  },
  "0034": {
    "zip_code": "3160034",
    "prefecture": "茨城県",
    "prefecture_kana": "イバラキケン",
    "prefecture_code": "8",
    "city": "日立市",
    "city_kana": "ヒタチシ",
    "town": "東成沢町",
    "town_kana": "ヒガシナルサワチョウ",
    "street": null,
    "office_name": null,
    "office_name_kana": null
  },
  "0035": {
    "zip_code": "3160035",
    "prefecture": "茨城県",
    "prefecture_kana": "イバラキケン",
    "prefecture_code": "8",
    "city": "日立市",
    "city_kana": "ヒタチシ",
    "town": "国分町",
    "town_kana": "コクブチョウ",
    "street": null,
    "office_name": null,
    "office_name_kana": null
  },
  "0036": {
    "zip_code": "3160036",
    "prefecture": "茨城県",
    "prefecture_kana": "イバラキケン",
    "prefecture_code": "8",
    "city": "日立市",
    "city_kana": "ヒタチシ",
    "town": "鮎川町",
    "town_kana": "アユカワチョウ",
    "street": null,
    "office_name": null,
    "office_name_kana": null
  },
  "8501": {
    "zip_code": "3168501",
    "prefecture": "茨城県",
    "prefecture_kana": "イバラキケン",
    "prefecture_code": "8",
    "city": "日立市",
    "city_kana": "ヒタチシ",
    "town": "国分町",
    "town_kana": "コクブチョウ",
    "street": "１丁目１−１",
    "office_name": "日立製作所　国分工場",
    "office_name_kana": "ヒタチセイサクシヨ コクブコウジヨウ"
  },
  "8502": {
    "zip_code": "3168502",
    "prefecture": "茨城県",
    "prefecture_kana": "イバラキケン",
    "prefecture_code": "8",
    "city": "日立市",
    "city_kana": "ヒタチシ",
    "town": "東多賀町",
    "town_kana": "ヒガシタガチョウ",
    "street": "１丁目１−１",
    "office_name": "日立製作所　電化機器事業部",
    "office_name_kana": "ヒタチセイサクシヨ デンカキキジギヨウブ"
  },
  "8511": {
    "zip_code": "3168511",
    "prefecture": "茨城県",
    "prefecture_kana": "イバラキケン",
    "prefecture_code": "8",
    "city": "日立市",
    "city_kana": "ヒタチシ",
    "town": "中成沢町",
    "town_kana": "ナカナルサワチョウ",
    "street": "４丁目１２−１",
    "office_name": "茨城大学　工学部",
    "office_name_kana": "イバラキダイガク コウガクブ"
  },
  "8533": {
    "zip_code": "3168533",
    "prefecture": "茨城県",
    "prefecture_kana": "イバラキケン",
    "prefecture_code": "8",
    "city": "日立市",
    "city_kana": "ヒタチシ",
    "town": "鮎川町",
    "town_kana": "アユカワチョウ",
    "street": "２丁目８−１６",
    "office_name": "医療法人　愛宣会　秦病院",
    "office_name_kana": "イリヨウホウジン アイセンカイ ハタビヨウイン"
  }
}