{
  "0100": {
    "zip_code": "3190100",
    "prefecture": "茨城県",
    "prefecture_kana": "イバラキケン",
    "prefecture_code": 8,
    "city": "小美玉市",
    "city_kana": "オミタマシ",
    "town": "",
    "town_kana": "",
    "street": null,
    "office_name": null,
    "office_name_kana": null
  },
  "0101": {
    "zip_code": "3190101",
    "prefecture": "茨城県",
    "prefecture_kana": "イバラキケン",
    "prefecture_code": 8,
    "city": "小美玉市",
    "city_kana": "オミタマシ",
    "town": "橋場美",
    "town_kana": "ハシバミ",
    "street": null,
    "office_name": null,
    "office_name_kana": null
  },
  "0102": {
    "zip_code": "3190102",
    "prefecture": "茨城県",
    "prefecture_kana": "イバラキケン",
    "prefecture_code": 8,
    "city": "小美玉市",
    "city_kana": "オミタマシ",
    "town": "西郷地",
    "town_kana": "サイゴウチ",
    "street": null,
    "office_name": null,
    "office_name_kana": null
  },
  "0103": {
    "zip_code": "3190103",
    "prefecture": "茨城県",
    "prefecture_kana": "イバラキケン",
    "prefecture_code": 8,
    "city": "小美玉市",
    "city_kana": "オミタマシ",
    "town": "柴高",
    "town_kana": "シバタカ",
    "street": null,
    "office_name": null,
    "office_name_kana": null
  },
  "0104": {
    "zip_code": "3190104",
    "prefecture": "茨城県",
    "prefecture_kana": "イバラキケン",
    "prefecture_code": 8,
    "city": "小美玉市",
    "city_kana": "オミタマシ",
    "town": "三箇",
    "town_kana": "サンガ",
    "street": null,
    "office_name": null,
    "office_name_kana": null
  },
  "0105": {
    "zip_code": "3190105",
    "prefecture": "茨城県",
    "prefecture_kana": "イバラキケン",
    "prefecture_code": 8,
    "city": "小美玉市",
    "city_kana": "オミタマシ",
    "town": "鶴田",
    "town_kana": "ツルタ",
    "street": null,
    "office_name": null,
    "office_name_kana": null
  },
  "0106": {
    "zip_code": "3190106",
    "prefecture": "茨城県",
    "prefecture_kana": "イバラキケン",
    "prefecture_code": 8,
    "city": "小美玉市",
    "city_kana": "オミタマシ",
    "town": "堅倉",
    "town_kana": "カタクラ",
    "street": null,
    "office_name": null,
    "office_name_kana": null
  },
  "0107": {
    "zip_code": "3190107",
    "prefecture": "茨城県",
    "prefecture_kana": "イバラキケン",
    "prefecture_code": 8,
    "city": "小美玉市",
    "city_kana": "オミタマシ",
    "town": "小岩戸",
    "town_kana": "コイワト",
    "street": null,
    "office_name": null,
    "office_name_kana": null
  },
  "0108": {
    "zip_code": "3190108",
    "prefecture": "茨城県",
    "prefecture_kana": "イバラキケン",
    "prefecture_code": 8,
    "city": "小美玉市",
    "city_kana": "オミタマシ",
    "town": "先後",
    "town_kana": "マツノチ",
    "street": null,
    "office_name": null,
    "office_name_kana": null
  },
  "0111": {
    "zip_code": "3190111",
    "prefecture": "茨城県",
    "prefecture_kana": "イバラキケン",
    "prefecture_code": 8,
    "city": "小美玉市",
    "city_kana": "オミタマシ",
    "town": "中野谷",
    "town_kana": "ナカノヤ",
    "street": null,
    "office_name": null,
    "office_name_kana": null
  },
  "0112": {
    "zip_code": "3190112",
    "prefecture": "茨城県",
    "prefecture_kana": "イバラキケン",
    "prefecture_code": 8,
    "city": "小美玉市",
    "city_kana": "オミタマシ",
    "town": "竹原下郷",
    "town_kana": "タケハラシモゴウ",
    "street": null,
    "office_name": null,
    "office_name_kana": null
  },
  "0113": {
    "zip_code": "3190113",
    "prefecture": "茨城県",
    "prefecture_kana": "イバラキケン",
    "prefecture_code": 8,
    "city": "小美玉市",
    "city_kana": "オミタマシ",
    "town": "竹原",
    "town_kana": "タケハラ",
    "street": null,
    "office_name": null,
    "office_name_kana": null
  },
  "0114": {
    "zip_code": "3190114",
    "prefecture": "茨城県",
    "prefecture_kana": "イバラキケン",
    "prefecture_code": 8,
    "city": "小美玉市",
    "city_kana": "オミタマシ",
    "town": "竹原中郷",
    "town_kana": "タケハラナカゴウ",
    "street": null,
    "office_name": null,
    "office_name_kana": null
  },
  "0115": {
    "zip_code": "3190115",
    "prefecture": "茨城県",
    "prefecture_kana": "イバラキケン",
    "prefecture_code": 8,
    "city": "小美玉市",
    "city_kana": "オミタマシ",
    "town": "上馬場",
    "town_kana": "カミババ",
    "street": null,
    "office_name": null,
    "office_name_kana": null
  },
  "0116": {
    "zip_code": "3190116",
    "prefecture": "茨城県",
    "prefecture_kana": "イバラキケン",
    "prefecture_code": 8,
    "city": "小美玉市",
    "city_kana": "オミタマシ",
    "town": "中台",
    "town_kana": "ナカダイ",
    "street": null,
    "office_name": null,
    "office_name_kana": null
  },
  "0121": {
    "zip_code": "3190121",
    "prefecture": "茨城県",
    "prefecture_kana": "イバラキケン",
    "prefecture_code": 8,
    "city": "小美玉市",
    "city_kana": "オミタマシ",
    "town": "羽刈",
    "town_kana": "ハカリ",
    "street": null,
    "office_name": null,
    "office_name_kana": null
  },
  "0122": {
    "zip_code": "3190122",
    "prefecture": "茨城県",
    "prefecture_kana": "イバラキケン",
    "prefecture_code": 8,
    "city": "小美玉市",
    "city_kana": "オミタマシ",
    "town": "江戸",
    "town_kana": "エド",
    "street": null,
    "office_name": null,
    "office_name_kana": null
  },
  "0123": {
    "zip_code": "3190123",
    "prefecture": "茨城県",
    "prefecture_kana": "イバラキケン",
    "prefecture_code": 8,
    "city": "小美玉市",
    "city_kana": "オミタマシ",
    "town": "羽鳥",
    "town_kana": "ハトリ",
    "street": null,
    "office_name": null,
    "office_name_kana": null
  },
  "0124": {
    "zip_code": "3190124",
    "prefecture": "茨城県",
    "prefecture_kana": "イバラキケン",
    "prefecture_code": 8,
    "city": "小美玉市",
    "city_kana": "オミタマシ",
    "town": "花野井",
    "town_kana": "ハナノイ",
    "street": null,
    "office_name": null,
    "office_name_kana": null
  },
  "0125": {
    "zip_code": "3190125",
    "prefecture": "茨城県",
    "prefecture_kana": "イバラキケン",
    "prefecture_code": 8,
    "city": "小美玉市",
    "city_kana": "オミタマシ",
    "town": "小曽納",
    "town_kana": "オソノウ",
    "street": null,
    "office_name": null,
    "office_name_kana": null
  },
  "0126": {
    "zip_code": "3190126",
    "prefecture": "茨城県",
    "prefecture_kana": "イバラキケン",
    "prefecture_code": 8,
    "city": "小美玉市",
    "city_kana": "オミタマシ",
    "town": "大谷",
    "town_kana": "オオヤ",
    "street": null,
    "office_name": null,
    "office_name_kana": null
  },
  "0131": {
    "zip_code": "3190131",
    "prefecture": "茨城県",
    "prefecture_kana": "イバラキケン",
    "prefecture_code": 8,
    "city": "小美玉市",
    "city_kana": "オミタマシ",
    "town": "寺崎",
    "town_kana": "テラザキ",
    "street": null,
    "office_name": null,
    "office_name_kana": null
  },
  "0132": {
    "zip_code": "3190132",
    "prefecture": "茨城県",
    "prefecture_kana": "イバラキケン",
    "prefecture_code": 8,
    "city": "小美玉市",
    "city_kana": "オミタマシ",
    "town": "部室",
    "town_kana": "ヘムロ",
    "street": null,
    "office_name": null,
    "office_name_kana": null
  },
  "0133": {
    "zip_code": "3190133",
    "prefecture": "茨城県",
    "prefecture_kana": "イバラキケン",
    "prefecture_code": 8,
    "city": "小美玉市",
    "city_kana": "オミタマシ",
    "town": "張星",
    "town_kana": "ハリホシ",
    "street": null,
    "office_name": null,
    "office_name_kana": null
  },
  "0134": {
    "zip_code": "3190134",
    "prefecture": "茨城県",
    "prefecture_kana": "イバラキケン",
    "prefecture_code": 8,
    "city": "小美玉市",
    "city_kana": "オミタマシ",
    "town": "納場",
    "town_kana": "ノウバ",
    "street": null,
    "office_name": null,
    "office_name_kana": null
  },
  "0135": {
    "zip_code": "3190135",
    "prefecture": "茨城県",
    "prefecture_kana": "イバラキケン",
    "prefecture_code": 8,
    "city": "小美玉市",
    "city_kana": "オミタマシ",
    "town": "高田",
    "town_kana": "タカダ",
    "street": null,
    "office_name": null,
    "office_name_kana": null
  },
  "0136": {
    "zip_code": "3190136",
    "prefecture": "茨城県",
    "prefecture_kana": "イバラキケン",
    "prefecture_code": 8,
    "city": "小美玉市",
    "city_kana": "オミタマシ",
    "town": "手堤",
    "town_kana": "テツヅミ",
    "street": null,
    "office_name": null,
    "office_name_kana": null
  },
  "0137": {
    "zip_code": "3190137",
    "prefecture": "茨城県",
    "prefecture_kana": "イバラキケン",
    "prefecture_code": 8,
    "city": "小美玉市",
    "city_kana": "オミタマシ",
    "town": "大笹",
    "town_kana": "オオザサ",
    "street": null,
    "office_name": null,
    "office_name_kana": null
  },
  "0192": {
    "zip_code": "3190192",
    "prefecture": "茨城県",
    "prefecture_kana": "イバラキケン",
    "prefecture_code": 8,
    "city": "小美玉市",
    "city_kana": "オミタマシ",
    "town": "堅倉",
    "town_kana": "カタクラ",
    "street": "８３５",
    "office_name": "小美玉市役所",
    "office_name_kana": "オミタマシヤクシヨ"
  },
  "0198": {
    "zip_code": "3190198",
    "prefecture": "茨城県",
    "prefecture_kana": "イバラキケン",
    "prefecture_code": 8,
    "city": "小美玉市",
    "city_kana": "オミタマシ",
    "town": "羽鳥",
    "town_kana": "ハトリ",
    "street": "西２",
    "office_name": "横浜ゴム　株式会社　茨城工場",
    "office_name_kana": "ヨコハマゴム カブシキガイシヤ イバラキコウジヨウ"
  },
  "0201": {
    "zip_code": "3190201",
    "prefecture": "茨城県",
    "prefecture_kana": "イバラキケン",
    "prefecture_code": 8,
    "city": "笠間市",
    "city_kana": "カサマシ",
    "town": "上郷",
    "town_kana": "カミゴウ",
    "street": null,
    "office_name": null,
    "office_name_kana": null
  },
  "0202": {
    "zip_code": "3190202",
    "prefecture": "茨城県",
    "prefecture_kana": "イバラキケン",
    "prefecture_code": 8,
    "city": "笠間市",
    "city_kana": "カサマシ",
    "town": "下郷",
    "town_kana": "シモゴウ",
    "street": null,
    "office_name": null,
    "office_name_kana": null
  },
  "0203": {
    "zip_code": "3190203",
    "prefecture": "茨城県",
    "prefecture_kana": "イバラキケン",
    "prefecture_code": 8,
    "city": "笠間市",
    "city_kana": "カサマシ",
    "town": "吉岡",
    "town_kana": "ヨシオカ",
    "street": null,
    "office_name": null,
    "office_name_kana": null
  },
  "0204": {
    "zip_code": "3190204",
    "prefecture": "茨城県",
    "prefecture_kana": "イバラキケン",
    "prefecture_code": 8,
    "city": "笠間市",
    "city_kana": "カサマシ",
    "town": "土師",
    "town_kana": "ハジ",
    "street": null,
    "office_name": null,
    "office_name_kana": null
  },
  "0205": {
    "zip_code": "3190205",
    "prefecture": "茨城県",
    "prefecture_kana": "イバラキケン",
    "prefecture_code": 8,
    "city": "笠間市",
    "city_kana": "カサマシ",
    "town": "押辺",
    "town_kana": "オシノベ",
    "street": null,
    "office_name": null,
    "office_name_kana": null
  },
  "0206": {
    "zip_code": "3190206",
    "prefecture": "茨城県",
    "prefecture_kana": "イバラキケン",
    "prefecture_code": 8,
    "city": "笠間市",
    "city_kana": "カサマシ",
    "town": "安居",
    "town_kana": "アゴ",
    "street": null,
    "office_name": null,
    "office_name_kana": null
  },
  "0207": {
    "zip_code": "3190207",
    "prefecture": "茨城県",
    "prefecture_kana": "イバラキケン",
    "prefecture_code": 8,
    "city": "笠間市",
    "city_kana": "カサマシ",
    "town": "福島",
    "town_kana": "フクシマ",
    "street": null,
    "office_name": null,
    "office_name_kana": null
  },
  "0208": {
    "zip_code": "3190208",
    "prefecture": "茨城県",
    "prefecture_kana": "イバラキケン",
    "prefecture_code": 8,
    "city": "笠間市",
    "city_kana": "カサマシ",
    "town": "市野谷",
    "town_kana": "イチノヤ",
    "street": null,
    "office_name": null,
    "office_name_kana": null
  },
  "0209": {
    "zip_code": "3190209",
    "prefecture": "茨城県",
    "prefecture_kana": "イバラキケン",
    "prefecture_code": 8,
    "city": "笠間市",
    "city_kana": "カサマシ",
    "town": "泉",
    "town_kana": "イズミ",
    "street": null,
    "office_name": null,
    "office_name_kana": null
  },
  "0292": {
    "zip_code": "3190292",
    "prefecture": "茨城県",
    "prefecture_kana": "イバラキケン",
    "prefecture_code": 8,
    "city": "笠間市",
    "city_kana": "カサマシ",
    "town": "安居",
    "town_kana": "アゴ",
    "street": "３１６５−１",
    "office_name": "茨城県農業総合センター",
    "office_name_kana": "イバラキケンノウギヨウソウゴウセンタ-"
  },
  "0293": {
    "zip_code": "3190293",
    "prefecture": "茨城県",
    "prefecture_kana": "イバラキケン",
    "prefecture_code": 8,
    "city": "笠間市",
    "city_kana": "カサマシ",
    "town": "吉岡",
    "town_kana": "ヨシオカ",
    "street": "１８５−１",
    "office_name": "加藤産業　株式会社　茨城支店",
    "office_name_kana": "カトウサンギヨウ カブシキガイシヤ イバラキシテン"
  },
  "0294": {
    "zip_code": "3190294",
    "prefecture": "茨城県",
    "prefecture_kana": "イバラキケン",
    "prefecture_code": 8,
    "city": "笠間市",
    "city_kana": "カサマシ",
    "town": "下郷",
    "town_kana": "シモゴウ",
    "street": "５１４０",
    "office_name": "笠間市役所　岩間支所",
    "office_name_kana": "カサマシヤクシヨ イワマシシヨ"
  },
  "0295": {
    "zip_code": "3190295",
    "prefecture": "茨城県",
    "prefecture_kana": "イバラキケン",
    "prefecture_code": 8,
    "city": "笠間市",
    "city_kana": "カサマシ",
    "town": "安居",
    "town_kana": "アゴ",
    "street": "２６００−２８",
    "office_name": "株式会社　金陽社　茨城工場",
    "office_name_kana": "カブシキカイシヤ キンヨウシヤ イバラキコウジヨウ"
  },
  "0301": {
    "zip_code": "3190301",
    "prefecture": "茨城県",
    "prefecture_kana": "イバラキケン",
    "prefecture_code": 8,
    "city": "水戸市",
    "city_kana": "ミトシ",
    "town": "田島町",
    "town_kana": "タジマチョウ",
    "street": null,
    "office_name": null,
    "office_name_kana": null
  },
  "0302": {
    "zip_code": "3190302",
    "prefecture": "茨城県",
    "prefecture_kana": "イバラキケン",
    "prefecture_code": 8,
    "city": "水戸市",
    "city_kana": "ミトシ",
    "town": "三野輪町",
    "town_kana": "ミノワチョウ",
    "street": null,
    "office_name": null,
    "office_name_kana": null
  },
  "0303": {
    "zip_code": "3190303",
    "prefecture": "茨城県",
    "prefecture_kana": "イバラキケン",
    "prefecture_code": 8,
    "city": "水戸市",
    "city_kana": "ミトシ",
    "town": "黒磯町",
    "town_kana": "クロイソチョウ",
    "street": null,
    "office_name": null,
    "office_name_kana": null
  },
  "0304": {
    "zip_code": "3190304",
    "prefecture": "茨城県",
    "prefecture_kana": "イバラキケン",
    "prefecture_code": 8,
    "city": "水戸市",
    "city_kana": "ミトシ",
    "town": "有賀町",
    "town_kana": "アリガチョウ",
    "street": null,
    "office_name": null,
    "office_name_kana": null
  },
  "0305": {
    "zip_code": "3190305",
    "prefecture": "茨城県",
    "prefecture_kana": "イバラキケン",
    "prefecture_code": 8,
    "city": "水戸市",
    "city_kana": "ミトシ",
    "town": "中原町",
    "town_kana": "ナカハラチョウ",
    "street": null,
    "office_name": null,
    "office_name_kana": null
  },
  "0306": {
    "zip_code": "3190306",
    "prefecture": "茨城県",
    "prefecture_kana": "イバラキケン",
    "prefecture_code": 8,
    "city": "水戸市",
    "city_kana": "ミトシ",
    "town": "杉崎町",
    "town_kana": "スギサキチョウ",
    "street": null,
    "office_name": null,
    "office_name_kana": null
  },
  "0307": {
    "zip_code": "3190307",
    "prefecture": "茨城県",
    "prefecture_kana": "イバラキケン",
    "prefecture_code": 8,
    "city": "水戸市",
    "city_kana": "ミトシ",
    "town": "小原町",
    "town_kana": "オバラチョウ",
    "street": null,
    "office_name": null,
    "office_name_kana": null
  },
  "0311": {
    "zip_code": "3190311",
    "prefecture": "茨城県",
    "prefecture_kana": "イバラキケン",
    "prefecture_code": 8,
    "city": "水戸市",
    "city_kana": "ミトシ",
    "town": "牛伏町",
    "town_kana": "ウシブシチョウ",
    "street": null,
    "office_name": null,
    "office_name_kana": null
  },
  "0312": {
    "zip_code": "3190312",
    "prefecture": "茨城県",
    "prefecture_kana": "イバラキケン",
    "prefecture_code": 8,
    "city": "水戸市",
    "city_kana": "ミトシ",
    "town": "大足町",
    "town_kana": "オオダラチョウ",
    "street": null,
    "office_name": null,
    "office_name_kana": null
  },
  "0313": {
    "zip_code": "3190313",
    "prefecture": "茨城県",
    "prefecture_kana": "イバラキケン",
    "prefecture_code": 8,
    "city": "水戸市",
    "city_kana": "ミトシ",
    "town": "筑地町",
    "town_kana": "ツイジチョウ",
    "street": null,
    "office_name": null,
    "office_name_kana": null
  },
  "0314": {
    "zip_code": "3190314",
    "prefecture": "茨城県",
    "prefecture_kana": "イバラキケン",
    "prefecture_code": 8,
    "city": "水戸市",
    "city_kana": "ミトシ",
    "town": "赤尾関町",
    "town_kana": "アカオセキチョウ",
    "street": null,
    "office_name": null,
    "office_name_kana": null
  },
  "0315": {
    "zip_code": "3190315",
    "prefecture": "茨城県",
    "prefecture_kana": "イバラキケン",
    "prefecture_code": 8,
    "city": "水戸市",
    "city_kana": "ミトシ",
    "town": "内原町",
    "town_kana": "ウチハラチョウ",
    "street": null,
    "office_name": null,
    "office_name_kana": null
  },
  "0316": {
    "zip_code": "3190316",
    "prefecture": "茨城県",
    "prefecture_kana": "イバラキケン",
    "prefecture_code": 8,
    "city": "水戸市",
    "city_kana": "ミトシ",
    "town": "三湯町",
    "town_kana": "ミユチョウ",
    "street": null,
    "office_name": null,
    "office_name_kana": null
  },
  "0317": {
    "zip_code": "3190317",
    "prefecture": "茨城県",
    "prefecture_kana": "イバラキケン",
    "prefecture_code": 8,
    "city": "水戸市",
    "city_kana": "ミトシ",
    "town": "内原",
    "town_kana": "ウチハラ",
    "street": null,
    "office_name": null,
    "office_name_kana": null
  },
  "0321": {
    "zip_code": "3190321",
    "prefecture": "茨城県",
    "prefecture_kana": "イバラキケン",
    "prefecture_code": 8,
    "city": "水戸市",
    "city_kana": "ミトシ",
    "town": "高田町",
    "town_kana": "タカダチョウ",
    "street": null,
    "office_name": null,
    "office_name_kana": null
  },
  "0322": {
    "zip_code": "3190322",
    "prefecture": "茨城県",
    "prefecture_kana": "イバラキケン",
    "prefecture_code": 8,
    "city": "水戸市",
    "city_kana": "ミトシ",
    "town": "下野町",
    "town_kana": "シモノチョウ",
    "street": null,
    "office_name": null,
    "office_name_kana": null
  },
  "0323": {
    "zip_code": "3190323",
    "prefecture": "茨城県",
    "prefecture_kana": "イバラキケン",
    "prefecture_code": 8,
    "city": "水戸市",
    "city_kana": "ミトシ",
    "town": "鯉淵町",
    "town_kana": "コイブチチョウ",
    "street": null,
    "office_name": null,
    "office_name_kana": null
  },
  "0324": {
    "zip_code": "3190324",
    "prefecture": "茨城県",
    "prefecture_kana": "イバラキケン",
    "prefecture_code": 8,
    "city": "水戸市",
    "city_kana": "ミトシ",
    "town": "五平町",
    "town_kana": "ゴヘイチョウ",
    "street": null,
    "office_name": null,
    "office_name_kana": null
  },
  "0325": {
    "zip_code": "3190325",
    "prefecture": "茨城県",
    "prefecture_kana": "イバラキケン",
    "prefecture_code": 8,
    "city": "水戸市",
    "city_kana": "ミトシ",
    "town": "小林町",
    "town_kana": "コバヤシチョウ",
    "street": null,
    "office_name": null,
    "office_name_kana": null
  },
  "0393": {
    "zip_code": "3190393",
    "prefecture": "茨城県",
    "prefecture_kana": "イバラキケン",
    "prefecture_code": 8,
    "city": "水戸市",
    "city_kana": "ミトシ",
    "town": "内原町",
    "town_kana": "ウチハラチョウ",
    "street": "１３９５−１",
    "office_name": "水戸市役所　内原支所",
    "office_name_kana": "ミトシヤクシヨ ウチハラシシヨ"
  },
  "0394": {
    "zip_code": "3190394",
    "prefecture": "茨城県",
    "prefecture_kana": "イバラキケン",
    "prefecture_code": 8,
    "city": "水戸市",
    "city_kana": "ミトシ",
    "town": "中原町",
    "town_kana": "ナカハラチョウ",
    "street": "字西１３５",
    "office_name": "イオン　水戸内原ショッピングセンター",
    "office_name_kana": "イオン ミトウチハラシヨツピングセンタ-"
  },
  "0395": {
    "zip_code": "3190395",
    "prefecture": "茨城県",
    "prefecture_kana": "イバラキケン",
    "prefecture_code": 8,
    "city": "水戸市",
    "city_kana": "ミトシ",
    "town": "中原町",
    "town_kana": "ナカハラチョウ",
    "street": "字西１３５",
    "office_name": "ジャスコ　水戸内原店",
    "office_name_kana": "ジヤスコ ミトウチハラテン"
  },
  "0397": {
    "zip_code": "3190397",
    "prefecture": "茨城県",
    "prefecture_kana": "イバラキケン",
    "prefecture_code": 8,
    "city": "水戸市",
    "city_kana": "ミトシ",
    "town": "三湯町",
    "town_kana": "ミユチョウ",
    "street": "１１０８−３００",
    "office_name": "茨城県神社庁",
    "office_name_kana": "イバラキケンジンジヤチヨウ"
  },
  "1100": {
    "zip_code": "3191100",
    "prefecture": "茨城県",
    "prefecture_kana": "イバラキケン",
    "prefecture_code": 8,
    "city": "那珂郡東海村",
    "city_kana": "ナカグントウカイムラ",
    "town": "",
    "town_kana": "",
    "street": null,
    "office_name": null,
    "office_name_kana": null
  },
  "1101": {
    "zip_code": "3191101",
    "prefecture": "茨城県",
    "prefecture_kana": "イバラキケン",
    "prefecture_code": 8,
    "city": "那珂郡東海村",
    "city_kana": "ナカグントウカイムラ",
    "town": "石神外宿",
    "town_kana": "イシガミトジュク",
    "street": null,
    "office_name": null,
    "office_name_kana": null
  },
  "1102": {
    "zip_code": "3191102",
    "prefecture": "茨城県",
    "prefecture_kana": "イバラキケン",
    "prefecture_code": 8,
    "city": "那珂郡東海村",
    "city_kana": "ナカグントウカイムラ",
    "town": "石神内宿",
    "town_kana": "イシガミウチジュク",
    "street": null,
    "office_name": null,
    "office_name_kana": null
  },
  "1103": {
    "zip_code": "3191103",
    "prefecture": "茨城県",
    "prefecture_kana": "イバラキケン",
    "prefecture_code": 8,
    "city": "那珂郡東海村",
    "city_kana": "ナカグントウカイムラ",
    "town": "竹瓦",
    "town_kana": "タケガワラ",
    "street": null,
    "office_name": null,
    "office_name_kana": null
  },
  "1104": {
    "zip_code": "3191104",
    "prefecture": "茨城県",
    "prefecture_kana": "イバラキケン",
    "prefecture_code": 8,
    "city": "那珂郡東海村",
    "city_kana": "ナカグントウカイムラ",
    "town": "亀下",
    "town_kana": "カメシタ",
    "street": null,
    "office_name": null,
    "office_name_kana": null
  },
  "1105": {
    "zip_code": "3191105",
    "prefecture": "茨城県",
    "prefecture_kana": "イバラキケン",
    "prefecture_code": 8,
    "city": "那珂郡東海村",
    "city_kana": "ナカグントウカイムラ",
    "town": "豊岡",
    "town_kana": "トヨオカ",
    "street": null,
    "office_name": null,
    "office_name_kana": null
  },
  "1106": {
    "zip_code": "3191106",
    "prefecture": "茨城県",
    "prefecture_kana": "イバラキケン",
    "prefecture_code": 8,
    "city": "那珂郡東海村",
    "city_kana": "ナカグントウカイムラ",
    "town": "白方",
    "town_kana": "シラカタ",
    "street": null,
    "office_name": null,
    "office_name_kana": null
  },
  "1107": {
    "zip_code": "3191107",
    "prefecture": "茨城県",
    "prefecture_kana": "イバラキケン",
    "prefecture_code": 8,
    "city": "那珂郡東海村",
    "city_kana": "ナカグントウカイムラ",
    "town": "豊白",
    "town_kana": "トヨシロ",
    "street": null,
    "office_name": null,
    "office_name_kana": null
  },
  "1108": {
    "zip_code": "3191108",
    "prefecture": "茨城県",
    "prefecture_kana": "イバラキケン",
    "prefecture_code": 8,
    "city": "那珂郡東海村",
    "city_kana": "ナカグントウカイムラ",
    "town": "村松北",
    "town_kana": "ムラマツキタ",
    "street": null,
    "office_name": null,
    "office_name_kana": null
  },
  "1109": {
    "zip_code": "3191109",
    "prefecture": "茨城県",
    "prefecture_kana": "イバラキケン",
    "prefecture_code": 8,
    "city": "那珂郡東海村",
    "city_kana": "ナカグントウカイムラ",
    "town": "白方中央",
    "town_kana": "シラカタチュウオウ",
    "street": null,
    "office_name": null,
    "office_name_kana": null
  },
  "1111": {
    "zip_code": "3191111",
    "prefecture": "茨城県",
    "prefecture_kana": "イバラキケン",
    "prefecture_code": 8,
    "city": "那珂郡東海村",
    "city_kana": "ナカグントウカイムラ",
    "town": "舟石川",
    "town_kana": "フナイシカワ",
    "street": null,
    "office_name": null,
    "office_name_kana": null
  },
  "1112": {
    "zip_code": "3191112",
    "prefecture": "茨城県",
    "prefecture_kana": "イバラキケン",
    "prefecture_code": 8,
    "city": "那珂郡東海村",
    "city_kana": "ナカグントウカイムラ",
    "town": "村松",
    "town_kana": "ムラマツ",
    "street": null,
    "office_name": null,
    "office_name_kana": null
  },
  "1113": {
    "zip_code": "3191113",
    "prefecture": "茨城県",
    "prefecture_kana": "イバラキケン",
    "prefecture_code": 8,
    "city": "那珂郡東海村",
    "city_kana": "ナカグントウカイムラ",
    "town": "照沼",
    "town_kana": "テルヌマ",
    "street": null,
    "office_name": null,
    "office_name_kana": null
  },
  "1114": {
    "zip_code": "3191114",
    "prefecture": "茨城県",
    "prefecture_kana": "イバラキケン",
    "prefecture_code": 8,
    "city": "那珂郡東海村",
    "city_kana": "ナカグントウカイムラ",
    "town": "須和間",
    "town_kana": "スワマ",
    "street": null,
    "office_name": null,
    "office_name_kana": null
  },
  "1115": {
    "zip_code": "3191115",
    "prefecture": "茨城県",
    "prefecture_kana": "イバラキケン",
    "prefecture_code": 8,
    "city": "那珂郡東海村",
    "city_kana": "ナカグントウカイムラ",
    "town": "船場",
    "town_kana": "フナバ",
    "street": null,
    "office_name": null,
    "office_name_kana": null
  },
  "1116": {
    "zip_code": "3191116",
    "prefecture": "茨城県",
    "prefecture_kana": "イバラキケン",
    "prefecture_code": 8,
    "city": "那珂郡東海村",
    "city_kana": "ナカグントウカイムラ",
    "town": "舟石川駅西",
    "town_kana": "フナイシカワエキニシ",
    "street": null,
    "office_name": null,
    "office_name_kana": null
  },
  "1117": {
    "zip_code": "3191117",
    "prefecture": "茨城県",
    "prefecture_kana": "イバラキケン",
    "prefecture_code": 8,
    "city": "那珂郡東海村",
    "city_kana": "ナカグントウカイムラ",
    "town": "東海",
    "town_kana": "トウカイ",
    "street": null,
    "office_name": null,
    "office_name_kana": null
  },
  "1118": {
    "zip_code": "3191118",
    "prefecture": "茨城県",
    "prefecture_kana": "イバラキケン",
    "prefecture_code": 8,
    "city": "那珂郡東海村",
    "city_kana": "ナカグントウカイムラ",
    "town": "舟石川駅東",
    "town_kana": "フナイシカワエキヒガシ",
    "street": null,
    "office_name": null,
    "office_name_kana": null
  },
  "1184": {
    "zip_code": "3191184",
    "prefecture": "茨城県",
    "prefecture_kana": null,
    "prefecture_code": null,
    "city": "那珂郡東海村",
    "city_kana": null,
    "town": "大字舟石川",
    "town_kana": null,
    "street": "７６５番地１",
    "office_name": "国立研究開発法人　日本原子力研究開発機構",
    "office_name_kana": "コクリツケンキユウカイハツホウジン ニホンゲンシリヨクケンキユウカイハツキコウ"
  },
  "1188": {
    "zip_code": "3191188",
    "prefecture": "茨城県",
    "prefecture_kana": null,
    "prefecture_code": null,
    "city": "那珂郡東海村",
    "city_kana": null,
    "town": "大字白方",
    "town_kana": null,
    "street": "白根２−２２",
    "office_name": "東京大学大学院　工学系研究科　原子力専攻",
    "office_name_kana": "トウキヨウダイガクダイガクイン コウガクケイケンキユウカ ゲンシリヨクセンコウ"
  },
  "1192": {
    "zip_code": "3191192",
    "prefecture": "茨城県",
    "prefecture_kana": null,
    "prefecture_code": null,
    "city": "那珂郡東海村",
    "city_kana": null,
    "town": "大字白方",
    "town_kana": null,
    "street": "１７４８−１",
    "office_name": "東海村役場",
    "office_name_kana": "トウカイムラヤクバ"
  },
  "1194": {
    "zip_code": "3191194",
    "prefecture": "茨城県",
    "prefecture_kana": null,
    "prefecture_code": null,
    "city": "那珂郡東海村",
    "city_kana": null,
    "town": "大字村松",
    "town_kana": null,
    "street": "４−３３",
    "office_name": "国立研究開発法人　日本原子力研究開発機構　核燃料サイクル工学研究所",
    "office_name_kana": "コクリツケンキユウカイハツホウジン ニホンゲンシリヨクケンキユウカイハツキコウ カクネンリヨウサイクルコウガクケンキユウシヨ"
  },
  "1195": {
    "zip_code": "3191195",
    "prefecture": "茨城県",
    "prefecture_kana": null,
    "prefecture_code": null,
    "city": "那珂郡東海村",
    "city_kana": null,
    "town": "大字白方",
    "town_kana": null,
    "street": "２番地４",
    "office_name": "国立研究開発法人　日本原子力研究開発機構　原子力科学研究所",
    "office_name_kana": "コクリツケンキユウカイハツホウジン ニホンゲンシリヨクケンキユウカイハツキコウ ゲンシリヨクカガクケンキユウジヨ"
  },
  "1196": {
    "zip_code": "3191196",
    "prefecture": "茨城県",
    "prefecture_kana": null,
    "prefecture_code": null,
    "city": "那珂郡東海村",
    "city_kana": null,
    "town": "大字村松",
    "town_kana": null,
    "street": "３１３５番地４１",
    "office_name": "原子燃料工業　株式会社　東海事業所",
    "office_name_kana": "ゲンシネンリヨウコウギヨウ カブシキガイシヤ トウカイジギヨウシヨ"
  },
  "1197": {
    "zip_code": "3191197",
    "prefecture": "茨城県",
    "prefecture_kana": null,
    "prefecture_code": null,
    "city": "那珂郡東海村",
    "city_kana": null,
    "town": "大字舟石川",
    "town_kana": null,
    "street": "６２２番地１",
    "office_name": "三菱原子燃料　株式会社",
    "office_name_kana": "ミツビシゲンシネンリヨウ カブシキガイシヤ"
  },
  "1221": {
    "zip_code": "3191221",
    "prefecture": "茨城県",
    "prefecture_kana": "イバラキケン",
    "prefecture_code": 8,
    "city": "日立市",
    "city_kana": "ヒタチシ",
    "town": "大みか町",
    "town_kana": "オオミカチョウ",
    "street": null,
    "office_name": null,
    "office_name_kana": null
  },
  "1222": {
    "zip_code": "3191222",
    "prefecture": "茨城県",
    "prefecture_kana": "イバラキケン",
    "prefecture_code": 8,
    "city": "日立市",
    "city_kana": "ヒタチシ",
    "town": "久慈町",
    "town_kana": "クジチョウ",
    "street": null,
    "office_name": null,
    "office_name_kana": null
  },
  "1223": {
    "zip_code": "3191223",
    "prefecture": "茨城県",
    "prefecture_kana": "イバラキケン",
    "prefecture_code": 8,
    "city": "日立市",
    "city_kana": "ヒタチシ",
    "town": "みなと町",
    "town_kana": "ミナトチョウ",
    "street": null,
    "office_name": null,
    "office_name_kana": null
  },
  "1224": {
    "zip_code": "3191224",
    "prefecture": "茨城県",
    "prefecture_kana": "イバラキケン",
    "prefecture_code": 8,
    "city": "日立市",
    "city_kana": "ヒタチシ",
    "town": "南高野町",
    "town_kana": "ミナミコウヤチョウ",
    "street": null,
    "office_name": null,
    "office_name_kana": null
  },
  "1225": {
    "zip_code": "3191225",
    "prefecture": "茨城県",
    "prefecture_kana": "イバラキケン",
    "prefecture_code": 8,
    "city": "日立市",
    "city_kana": "ヒタチシ",
    "town": "石名坂町",
    "town_kana": "イシナザカチョウ",
    "street": null,
    "office_name": null,
    "office_name_kana": null
  },
  "1231": {
    "zip_code": "3191231",
    "prefecture": "茨城県",
    "prefecture_kana": "イバラキケン",
    "prefecture_code": 8,
    "city": "日立市",
    "city_kana": "ヒタチシ",
    "town": "留町",
    "town_kana": "トメチョウ",
    "street": null,
    "office_name": null,
    "office_name_kana": null
  },
  "1232": {
    "zip_code": "3191232",
    "prefecture": "茨城県",
    "prefecture_kana": "イバラキケン",
    "prefecture_code": 8,
    "city": "日立市",
    "city_kana": "ヒタチシ",
    "town": "下土木内町",
    "town_kana": "シモドギウチチョウ",
    "street": null,
    "office_name": null,
    "office_name_kana": null
  },
  "1233": {
    "zip_code": "3191233",
    "prefecture": "茨城県",
    "prefecture_kana": "イバラキケン",
    "prefecture_code": 8,
    "city": "日立市",
    "city_kana": "ヒタチシ",
    "town": "神田町",
    "town_kana": "カンダチョウ",
    "street": null,
    "office_name": null,
    "office_name_kana": null
  },
  "1234": {
    "zip_code": "3191234",
    "prefecture": "茨城県",
    "prefecture_kana": "イバラキケン",
    "prefecture_code": 8,
    "city": "日立市",
    "city_kana": "ヒタチシ",
    "town": "大和田町",
    "town_kana": "オオワダチョウ",
    "street": null,
    "office_name": null,
    "office_name_kana": null
  },
  "1235": {
    "zip_code": "3191235",
    "prefecture": "茨城県",
    "prefecture_kana": "イバラキケン",
    "prefecture_code": 8,
    "city": "日立市",
    "city_kana": "ヒタチシ",
    "town": "茂宮町",
    "town_kana": "モミヤチョウ",
    "street": null,
    "office_name": null,
    "office_name_kana": null
  },
  "1292": {
    "zip_code": "3191292",
    "prefecture": "茨城県",
    "prefecture_kana": "イバラキケン",
    "prefecture_code": 8,
    "city": "日立市",
    "city_kana": "ヒタチシ",
    "town": "大みか町",
    "town_kana": "オオミカチョウ",
    "street": "７丁目１−１",
    "office_name": "株式会社　日立製作所　日立研究所",
    "office_name_kana": "カブシキガイシヤ ヒタチセイサクシヨ ヒタチケンキユウシヨ"
  },
  "1293": {
    "zip_code": "3191293",
    "prefecture": "茨城県",
    "prefecture_kana": "イバラキケン",
    "prefecture_code": 8,
    "city": "日立市",
    "city_kana": "ヒタチシ",
    "town": "大みか町",
    "town_kana": "オオミカチョウ",
    "street": "五丁目２番１号",
    "office_name": "株式会社　日立製作所　サービス＆プラットフォームビジネスユニット",
    "office_name_kana": "カブシキカイシヤ ヒタチセイサクシヨ サ-ビスアンドプラツトフオ-ムビジネスユニツト"
  },
  "1295": {
    "zip_code": "3191295",
    "prefecture": "茨城県",
    "prefecture_kana": "イバラキケン",
    "prefecture_code": 8,
    "city": "日立市",
    "city_kana": "ヒタチシ",
    "town": "大みか町",
    "town_kana": "オオミカチョウ",
    "street": "６丁目１１−１",
    "office_name": "茨城キリスト教学園",
    "office_name_kana": "イバラキキリストキヨウガクエン"
  },
  "1301": {
    "zip_code": "3191301",
    "prefecture": "茨城県",
    "prefecture_kana": "イバラキケン",
    "prefecture_code": 8,
    "city": "日立市",
    "city_kana": "ヒタチシ",
    "town": "十王町伊師",
    "town_kana": "ジュウオウチョウイシ",
    "street": null,
    "office_name": null,
    "office_name_kana": null
  },
  "1302": {
    "zip_code": "3191302",
    "prefecture": "茨城県",
    "prefecture_kana": "イバラキケン",
    "prefecture_code": 8,
    "city": "日立市",
    "city_kana": "ヒタチシ",
    "town": "十王町伊師本郷",
    "town_kana": "ジュウオウチョウイシホンゴウ",
    "street": null,
    "office_name": null,
    "office_name_kana": null
  },
  "1303": {
    "zip_code": "3191303",
    "prefecture": "茨城県",
    "prefecture_kana": "イバラキケン",
    "prefecture_code": 8,
    "city": "日立市",
    "city_kana": "ヒタチシ",
    "town": "十王町友部東",
    "town_kana": "ジュウオウチョウトモベヒガシ",
    "street": null,
    "office_name": null,
    "office_name_kana": null
  },
  "1304": {
    "zip_code": "3191304",
    "prefecture": "茨城県",
    "prefecture_kana": "イバラキケン",
    "prefecture_code": 8,
    "city": "日立市",
    "city_kana": "ヒタチシ",
    "town": "十王町友部",
    "town_kana": "ジュウオウチョウトモベ",
    "street": null,
    "office_name": null,
    "office_name_kana": null
  },
  "1305": {
    "zip_code": "3191305",
    "prefecture": "茨城県",
    "prefecture_kana": "イバラキケン",
    "prefecture_code": 8,
    "city": "日立市",
    "city_kana": "ヒタチシ",
    "town": "十王町高原",
    "town_kana": "ジュウオウチョウタカハラ",
    "street": null,
    "office_name": null,
    "office_name_kana": null
  },
  "1306": {
    "zip_code": "3191306",
    "prefecture": "茨城県",
    "prefecture_kana": "イバラキケン",
    "prefecture_code": 8,
    "city": "日立市",
    "city_kana": "ヒタチシ",
    "town": "十王町黒坂",
    "town_kana": "ジュウオウチョウクロサカ",
    "street": null,
    "office_name": null,
    "office_name_kana": null
  },
  "1307": {
    "zip_code": "3191307",
    "prefecture": "茨城県",
    "prefecture_kana": "イバラキケン",
    "prefecture_code": 8,
    "city": "日立市",
    "city_kana": "ヒタチシ",
    "town": "十王町山部",
    "town_kana": "ジュウオウチョウヤマベ",
    "street": null,
    "office_name": null,
    "office_name_kana": null
  },
  "1308": {
    "zip_code": "3191308",
    "prefecture": "茨城県",
    "prefecture_kana": "イバラキケン",
    "prefecture_code": 8,
    "city": "日立市",
    "city_kana": "ヒタチシ",
    "town": "十王町城の丘",
    "town_kana": "ジュウオウチョウシロノオカ",
    "street": null,
    "office_name": null,
    "office_name_kana": null
  },
  "1393": {
    "zip_code": "3191393",
    "prefecture": "茨城県",
    "prefecture_kana": null,
    "prefecture_code": null,
    "city": "日立市",
    "city_kana": null,
    "town": "十王町",
    "town_kana": null,
    "street": "伊師６４０",
    "office_name": "国民宿舎「鵜の岬」",
    "office_name_kana": "コクミンシユクシヤ<ウノミサキ>"
  },
  "1411": {
    "zip_code": "3191411",
    "prefecture": "茨城県",
    "prefecture_kana": "イバラキケン",
    "prefecture_code": 8,
    "city": "日立市",
    "city_kana": "ヒタチシ",
    "town": "川尻町",
    "town_kana": "カワジリチョウ",
    "street": null,
    "office_name": null,
    "office_name_kana": null
  },
  "1412": {
    "zip_code": "3191412",
    "prefecture": "茨城県",
    "prefecture_kana": "イバラキケン",
    "prefecture_code": 8,
    "city": "日立市",
    "city_kana": "ヒタチシ",
    "town": "折笠町",
    "town_kana": "オリカサチョウ",
    "street": null,
    "office_name": null,
    "office_name_kana": null
  },
  "1413": {
    "zip_code": "3191413",
    "prefecture": "茨城県",
    "prefecture_kana": "イバラキケン",
    "prefecture_code": 8,
    "city": "日立市",
    "city_kana": "ヒタチシ",
    "town": "小木津町",
    "town_kana": "オギツチョウ",
    "street": null,
    "office_name": null,
    "office_name_kana": null
  },
  "1414": {
    "zip_code": "3191414",
    "prefecture": "茨城県",
    "prefecture_kana": "イバラキケン",
    "prefecture_code": 8,
    "city": "日立市",
    "city_kana": "ヒタチシ",
    "town": "日高町",
    "town_kana": "ヒダカチョウ",
    "street": null,
    "office_name": null,
    "office_name_kana": null
  },
  "1415": {
    "zip_code": "3191415",
    "prefecture": "茨城県",
    "prefecture_kana": "イバラキケン",
    "prefecture_code": 8,
    "city": "日立市",
    "city_kana": "ヒタチシ",
    "town": "相田町",
    "town_kana": "アイダチョウ",
    "street": null,
    "office_name": null,
    "office_name_kana": null
  },
  "1416": {
    "zip_code": "3191416",
    "prefecture": "茨城県",
    "prefecture_kana": "イバラキケン",
    "prefecture_code": 8,
    "city": "日立市",
    "city_kana": "ヒタチシ",
    "town": "田尻町",
    "town_kana": "タジリチョウ",
    "street": null,
    "office_name": null,
    "office_name_kana": null
  },
  "1417": {
    "zip_code": "3191417",
    "prefecture": "茨城県",
    "prefecture_kana": "イバラキケン",
    "prefecture_code": 8,
    "city": "日立市",
    "city_kana": "ヒタチシ",
    "town": "かみあい町",
    "town_kana": "カミアイチョウ",
    "street": null,
    "office_name": null,
    "office_name_kana": null
  },
  "1418": {
    "zip_code": "3191418",
    "prefecture": "茨城県",
    "prefecture_kana": "イバラキケン",
    "prefecture_code": 8,
    "city": "日立市",
    "city_kana": "ヒタチシ",
    "town": "砂沢町",
    "town_kana": "イサゴザワチョウ",
    "street": null,
    "office_name": null,
    "office_name_kana": null
  },
  "1500": {
    "zip_code": "3191500",
    "prefecture": "茨城県",
    "prefecture_kana": "イバラキケン",
    "prefecture_code": 8,
    "city": "北茨城市",
    "city_kana": "キタイバラキシ",
    "town": "",
    "town_kana": "",
    "street": null,
    "office_name": null,
    "office_name_kana": null
  },
  "1531": {
    "zip_code": "3191531",
    "prefecture": "茨城県",
    "prefecture_kana": "イバラキケン",
    "prefecture_code": 8,
    "city": "北茨城市",
    "city_kana": "キタイバラキシ",
    "town": "華川町花園",
    "town_kana": "ハナカワチョウハナゾノ",
    "street": null,
    "office_name": null,
    "office_name_kana": null
  },
  "1532": {
    "zip_code": "3191532",
    "prefecture": "茨城県",
    "prefecture_kana": "イバラキケン",
    "prefecture_code": 8,
    "city": "北茨城市",
    "city_kana": "キタイバラキシ",
    "town": "華川町上小津田",
    "town_kana": "ハナカワチョウカミコツダ",
    "street": null,
    "office_name": null,
    "office_name_kana": null
  },
  "1533": {
    "zip_code": "3191533",
    "prefecture": "茨城県",
    "prefecture_kana": "イバラキケン",
    "prefecture_code": 8,
    "city": "北茨城市",
    "city_kana": "キタイバラキシ",
    "town": "華川町下小津田",
    "town_kana": "ハナカワチョウシモコツダ",
    "street": null,
    "office_name": null,
    "office_name_kana": null
  },
  "1534": {
    "zip_code": "3191534",
    "prefecture": "茨城県",
    "prefecture_kana": "イバラキケン",
    "prefecture_code": 8,
    "city": "北茨城市",
    "city_kana": "キタイバラキシ",
    "town": "華川町車",
    "town_kana": "ハナカワチョウクルマ",
    "street": null,
    "office_name": null,
    "office_name_kana": null
  },
  "1535": {
    "zip_code": "3191535",
    "prefecture": "茨城県",
    "prefecture_kana": "イバラキケン",
    "prefecture_code": 8,
    "city": "北茨城市",
    "city_kana": "キタイバラキシ",
    "town": "華川町臼場",
    "town_kana": "ハナカワチョウウスバ",
    "street": null,
    "office_name": null,
    "office_name_kana": null
  },
  "1536": {
    "zip_code": "3191536",
    "prefecture": "茨城県",
    "prefecture_kana": "イバラキケン",
    "prefecture_code": 8,
    "city": "北茨城市",
    "city_kana": "キタイバラキシ",
    "town": "華川町中妻",
    "town_kana": "ハナカワチョウナカツマ",
    "street": null,
    "office_name": null,
    "office_name_kana": null
  },
  "1537": {
    "zip_code": "3191537",
    "prefecture": "茨城県",
    "prefecture_kana": "イバラキケン",
    "prefecture_code": 8,
    "city": "北茨城市",
    "city_kana": "キタイバラキシ",
    "town": "華川町下相田",
    "town_kana": "ハナカワチョウシモソウダ",
    "street": null,
    "office_name": null,
    "office_name_kana": null
  },
  "1538": {
    "zip_code": "3191538",
    "prefecture": "茨城県",
    "prefecture_kana": "イバラキケン",
    "prefecture_code": 8,
    "city": "北茨城市",
    "city_kana": "キタイバラキシ",
    "town": "華川町小豆畑",
    "town_kana": "ハナカワチョウアズハタ",
    "street": null,
    "office_name": null,
    "office_name_kana": null
  },
  "1541": {
    "zip_code": "3191541",
    "prefecture": "茨城県",
    "prefecture_kana": "イバラキケン",
    "prefecture_code": 8,
    "city": "北茨城市",
    "city_kana": "キタイバラキシ",
    "town": "磯原町磯原",
    "town_kana": "イソハラチョウイソハラ",
    "street": null,
    "office_name": null,
    "office_name_kana": null
  },
  "1542": {
    "zip_code": "3191542",
    "prefecture": "茨城県",
    "prefecture_kana": "イバラキケン",
    "prefecture_code": 8,
    "city": "北茨城市",
    "city_kana": "キタイバラキシ",
    "town": "磯原町本町",
    "town_kana": "イソハラチョウホンチョウ",
    "street": null,
    "office_name": null,
    "office_name_kana": null
  },
  "1543": {
    "zip_code": "3191543",
    "prefecture": "茨城県",
    "prefecture_kana": "イバラキケン",
    "prefecture_code": 8,
    "city": "北茨城市",
    "city_kana": "キタイバラキシ",
    "town": "磯原町豊田",
    "town_kana": "イソハラチョウトヨダ",
    "street": null,
    "office_name": null,
    "office_name_kana": null
  },
  "1544": {
    "zip_code": "3191544",
    "prefecture": "茨城県",
    "prefecture_kana": "イバラキケン",
    "prefecture_code": 8,
    "city": "北茨城市",
    "city_kana": "キタイバラキシ",
    "town": "磯原町上相田",
    "town_kana": "イソハラチョウカミソウダ",
    "street": null,
    "office_name": null,
    "office_name_kana": null
  },
  "1545": {
    "zip_code": "3191545",
    "prefecture": "茨城県",
    "prefecture_kana": "イバラキケン",
    "prefecture_code": 8,
    "city": "北茨城市",
    "city_kana": "キタイバラキシ",
    "town": "磯原町木皿",
    "town_kana": "イソハラチョウキサラ",
    "street": null,
    "office_name": null,
    "office_name_kana": null
  },
  "1546": {
    "zip_code": "3191546",
    "prefecture": "茨城県",
    "prefecture_kana": "イバラキケン",
    "prefecture_code": 8,
    "city": "北茨城市",
    "city_kana": "キタイバラキシ",
    "town": "磯原町大塚",
    "town_kana": "イソハラチョウオオツカ",
    "street": null,
    "office_name": null,
    "office_name_kana": null
  },
  "1547": {
    "zip_code": "3191547",
    "prefecture": "茨城県",
    "prefecture_kana": "イバラキケン",
    "prefecture_code": 8,
    "city": "北茨城市",
    "city_kana": "キタイバラキシ",
    "town": "磯原町内野",
    "town_kana": "イソハラチョウウツノ",
    "street": null,
    "office_name": null,
    "office_name_kana": null
  },
  "1551": {
    "zip_code": "3191551",
    "prefecture": "茨城県",
    "prefecture_kana": "イバラキケン",
    "prefecture_code": 8,
    "city": "北茨城市",
    "city_kana": "キタイバラキシ",
    "town": "中郷町下桜井",
    "town_kana": "ナカゴウチョウシモサクライ",
    "street": null,
    "office_name": null,
    "office_name_kana": null
  },
  "1552": {
    "zip_code": "3191552",
    "prefecture": "茨城県",
    "prefecture_kana": "イバラキケン",
    "prefecture_code": 8,
    "city": "北茨城市",
    "city_kana": "キタイバラキシ",
    "town": "中郷町足洗",
    "town_kana": "ナカゴウチョウアシアライ",
    "street": null,
    "office_name": null,
    "office_name_kana": null
  },
  "1553": {
    "zip_code": "3191553",
    "prefecture": "茨城県",
    "prefecture_kana": "イバラキケン",
    "prefecture_code": 8,
    "city": "北茨城市",
    "city_kana": "キタイバラキシ",
    "town": "中郷町汐見ケ丘",
    "town_kana": "ナカゴウチョウシオミガオカ",
    "street": null,
    "office_name": null,
    "office_name_kana": null
  },
  "1554": {
    "zip_code": "3191554",
    "prefecture": "茨城県",
    "prefecture_kana": "イバラキケン",
    "prefecture_code": 8,
    "city": "北茨城市",
    "city_kana": "キタイバラキシ",
    "town": "中郷町粟野",
    "town_kana": "ナカゴウチョウアワノ",
    "street": null,
    "office_name": null,
    "office_name_kana": null
  },
  "1555": {
    "zip_code": "3191555",
    "prefecture": "茨城県",
    "prefecture_kana": "イバラキケン",
    "prefecture_code": 8,
    "city": "北茨城市",
    "city_kana": "キタイバラキシ",
    "town": "中郷町小野矢指",
    "town_kana": "ナカゴウチョウオノヤサシ",
    "street": null,
    "office_name": null,
    "office_name_kana": null
  },
  "1556": {
    "zip_code": "3191556",
    "prefecture": "茨城県",
    "prefecture_kana": "イバラキケン",
    "prefecture_code": 8,
    "city": "北茨城市",
    "city_kana": "キタイバラキシ",
    "town": "中郷町日棚",
    "town_kana": "ナカゴウチョウヒタナ",
    "street": null,
    "office_name": null,
    "office_name_kana": null
  },
  "1557": {
    "zip_code": "3191557",
    "prefecture": "茨城県",
    "prefecture_kana": "イバラキケン",
    "prefecture_code": 8,
    "city": "北茨城市",
    "city_kana": "キタイバラキシ",
    "town": "中郷町松井",
    "town_kana": "ナカゴウチョウマツイ",
    "street": null,
    "office_name": null,
    "office_name_kana": null
  },
  "1558": {
    "zip_code": "3191558",
    "prefecture": "茨城県",
    "prefecture_kana": "イバラキケン",
    "prefecture_code": 8,
    "city": "北茨城市",
    "city_kana": "キタイバラキシ",
    "town": "中郷町石岡",
    "town_kana": "ナカゴウチョウイシオカ",
    "street": null,
    "office_name": null,
    "office_name_kana": null
  },
  "1559": {
    "zip_code": "3191559",
    "prefecture": "茨城県",
    "prefecture_kana": "イバラキケン",
    "prefecture_code": 8,
    "city": "北茨城市",
    "city_kana": "キタイバラキシ",
    "town": "中郷町上桜井",
    "town_kana": "ナカゴウチョウカミサクライ",
    "street": null,
    "office_name": null,
    "office_name_kana": null
  },
  "1592": {
    "zip_code": "3191592",
    "prefecture": "茨城県",
    "prefecture_kana": "イバラキケン",
    "prefecture_code": 8,
    "city": "北茨城市",
    "city_kana": "キタイバラキシ",
    "town": "磯原町磯原",
    "town_kana": "イソハラチョウイソハラ",
    "street": "１６３０",
    "office_name": "北茨城市役所",
    "office_name_kana": "キタイバラキシヤクシヨ"
  },
  "1593": {
    "zip_code": "3191593",
    "prefecture": "茨城県",
    "prefecture_kana": "イバラキケン",
    "prefecture_code": 8,
    "city": "北茨城市",
    "city_kana": "キタイバラキシ",
    "town": "磯原町上相田",
    "town_kana": "イソハラチョウカミソウダ",
    "street": "８３１−２",
    "office_name": "ユニマテック　株式会社",
    "office_name_kana": "ユニマテツク カブシキガイシヤ"
  },
  "1701": {
    "zip_code": "3191701",
    "prefecture": "茨城県",
    "prefecture_kana": "イバラキケン",
    "prefecture_code": 8,
    "city": "北茨城市",
    "city_kana": "キタイバラキシ",
    "town": "平潟町",
    "town_kana": "ヒラカタチョウ",
    "street": null,
    "office_name": null,
    "office_name_kana": null
  },
  "1702": {
    "zip_code": "3191702",
    "prefecture": "茨城県",
    "prefecture_kana": "イバラキケン",
    "prefecture_code": 8,
    "city": "北茨城市",
    "city_kana": "キタイバラキシ",
    "town": "大津町",
    "town_kana": "オオツチョウ",
    "street": null,
    "office_name": null,
    "office_name_kana": null
  },
  "1703": {
    "zip_code": "3191703",
    "prefecture": "茨城県",
    "prefecture_kana": "イバラキケン",
    "prefecture_code": 8,
    "city": "北茨城市",
    "city_kana": "キタイバラキシ",
    "town": "大津町五浦",
    "town_kana": "オオツチョウイヅラ",
    "street": null,
    "office_name": null,
    "office_name_kana": null
  },
  "1704": {
    "zip_code": "3191704",
    "prefecture": "茨城県",
    "prefecture_kana": "イバラキケン",
    "prefecture_code": 8,
    "city": "北茨城市",
    "city_kana": "キタイバラキシ",
    "town": "大津町北町",
    "town_kana": "オオツチョウキタチョウ",
    "street": null,
    "office_name": null,
    "office_name_kana": null
  },
  "1711": {
    "zip_code": "3191711",
    "prefecture": "茨城県",
    "prefecture_kana": "イバラキケン",
    "prefecture_code": 8,
    "city": "北茨城市",
    "city_kana": "キタイバラキシ",
    "town": "関南町関本下",
    "town_kana": "セキナミチョウセキモトシモ",
    "street": null,
    "office_name": null,
    "office_name_kana": null
  },
  "1712": {
    "zip_code": "3191712",
    "prefecture": "茨城県",
    "prefecture_kana": "イバラキケン",
    "prefecture_code": 8,
    "city": "北茨城市",
    "city_kana": "キタイバラキシ",
    "town": "関南町里根川",
    "town_kana": "セキナミチョウサトネガワ",
    "street": null,
    "office_name": null,
    "office_name_kana": null
  },
  "1713": {
    "zip_code": "3191713",
    "prefecture": "茨城県",
    "prefecture_kana": "イバラキケン",
    "prefecture_code": 8,
    "city": "北茨城市",
    "city_kana": "キタイバラキシ",
    "town": "関南町仁井田",
    "town_kana": "セキナミチョウニイダ",
    "street": null,
    "office_name": null,
    "office_name_kana": null
  },
  "1714": {
    "zip_code": "3191714",
    "prefecture": "茨城県",
    "prefecture_kana": "イバラキケン",
    "prefecture_code": 8,
    "city": "北茨城市",
    "city_kana": "キタイバラキシ",
    "town": "関南町神岡上",
    "town_kana": "セキナミチョウカミオカカミ",
    "street": null,
    "office_name": null,
    "office_name_kana": null
  },
  "1715": {
    "zip_code": "3191715",
    "prefecture": "茨城県",
    "prefecture_kana": "イバラキケン",
    "prefecture_code": 8,
    "city": "北茨城市",
    "city_kana": "キタイバラキシ",
    "town": "関南町神岡下",
    "town_kana": "セキナミチョウカミオカシモ",
    "street": null,
    "office_name": null,
    "office_name_kana": null
  },
  "1721": {
    "zip_code": "3191721",
    "prefecture": "茨城県",
    "prefecture_kana": "イバラキケン",
    "prefecture_code": 8,
    "city": "北茨城市",
    "city_kana": "キタイバラキシ",
    "town": "関本町関本上",
    "town_kana": "セキモトチョウセキモトカミ",
    "street": null,
    "office_name": null,
    "office_name_kana": null
  },
  "1722": {
    "zip_code": "3191722",
    "prefecture": "茨城県",
    "prefecture_kana": "イバラキケン",
    "prefecture_code": 8,
    "city": "北茨城市",
    "city_kana": "キタイバラキシ",
    "town": "関本町福田",
    "town_kana": "セキモトチョウフクダ",
    "street": null,
    "office_name": null,
    "office_name_kana": null
  },
  "1723": {
    "zip_code": "3191723",
    "prefecture": "茨城県",
    "prefecture_kana": "イバラキケン",
    "prefecture_code": 8,
    "city": "北茨城市",
    "city_kana": "キタイバラキシ",
    "town": "関本町関本中",
    "town_kana": "セキモトチョウセキモトナカ",
    "street": null,
    "office_name": null,
    "office_name_kana": null
  },
  "1724": {
    "zip_code": "3191724",
    "prefecture": "茨城県",
    "prefecture_kana": "イバラキケン",
    "prefecture_code": 8,
    "city": "北茨城市",
    "city_kana": "キタイバラキシ",
    "town": "関本町八反",
    "town_kana": "セキモトチョウハッタン",
    "street": null,
    "office_name": null,
    "office_name_kana": null
  },
  "1725": {
    "zip_code": "3191725",
    "prefecture": "茨城県",
    "prefecture_kana": "イバラキケン",
    "prefecture_code": 8,
    "city": "北茨城市",
    "city_kana": "キタイバラキシ",
    "town": "関本町富士ケ丘",
    "town_kana": "セキモトチョウフジガオカ",
    "street": null,
    "office_name": null,
    "office_name_kana": null
  },
  "1726": {
    "zip_code": "3191726",
    "prefecture": "茨城県",
    "prefecture_kana": "イバラキケン",
    "prefecture_code": 8,
    "city": "北茨城市",
    "city_kana": "キタイバラキシ",
    "town": "関本町才丸",
    "town_kana": "セキモトチョウサイマル",
    "street": null,
    "office_name": null,
    "office_name_kana": null
  },
  "1727": {
    "zip_code": "3191727",
    "prefecture": "茨城県",
    "prefecture_kana": "イバラキケン",
    "prefecture_code": 8,
    "city": "北茨城市",
    "city_kana": "キタイバラキシ",
    "town": "関本町小川",
    "town_kana": "セキモトチョウオガワ",
    "street": null,
    "office_name": null,
    "office_name_kana": null
  },
  "2102": {
    "zip_code": "3192102",
    "prefecture": "茨城県",
    "prefecture_kana": "イバラキケン",
    "prefecture_code": 8,
    "city": "那珂市",
    "city_kana": "ナカシ",
    "town": "瓜連",
    "town_kana": "ウリヅラ",
    "street": null,
    "office_name": null,
    "office_name_kana": null
  },
  "2103": {
    "zip_code": "3192103",
    "prefecture": "茨城県",
    "prefecture_kana": "イバラキケン",
    "prefecture_code": 8,
    "city": "那珂市",
    "city_kana": "ナカシ",
    "town": "中里",
    "town_kana": "ナカザト",
    "street": null,
    "office_name": null,
    "office_name_kana": null
  },
  "2104": {
    "zip_code": "3192104",
    "prefecture": "茨城県",
    "prefecture_kana": "イバラキケン",
    "prefecture_code": 8,
    "city": "那珂市",
    "city_kana": "ナカシ",
    "town": "平野",
    "town_kana": "ヒラノ",
    "street": null,
    "office_name": null,
    "office_name_kana": null
  },
  "2105": {
    "zip_code": "3192105",
    "prefecture": "茨城県",
    "prefecture_kana": "イバラキケン",
    "prefecture_code": 8,
    "city": "那珂市",
    "city_kana": "ナカシ",
    "town": "古徳",
    "town_kana": "コトク",
    "street": null,
    "office_name": null,
    "office_name_kana": null
  },
  "2106": {
    "zip_code": "3192106",
    "prefecture": "茨城県",
    "prefecture_kana": "イバラキケン",
    "prefecture_code": 8,
    "city": "那珂市",
    "city_kana": "ナカシ",
    "town": "静",
    "town_kana": "シズ",
    "street": null,
    "office_name": null,
    "office_name_kana": null
  },
  "2107": {
    "zip_code": "3192107",
    "prefecture": "茨城県",
    "prefecture_kana": "イバラキケン",
    "prefecture_code": 8,
    "city": "那珂市",
    "city_kana": "ナカシ",
    "town": "下大賀",
    "town_kana": "シモオオガ",
    "street": null,
    "office_name": null,
    "office_name_kana": null
  },
  "2131": {
    "zip_code": "3192131",
    "prefecture": "茨城県",
    "prefecture_kana": "イバラキケン",
    "prefecture_code": 8,
    "city": "常陸大宮市",
    "city_kana": "ヒタチオオミヤシ",
    "town": "下村田",
    "town_kana": "シモムラタ",
    "street": null,
    "office_name": null,
    "office_name_kana": null
  },
  "2132": {
    "zip_code": "3192132",
    "prefecture": "茨城県",
    "prefecture_kana": "イバラキケン",
    "prefecture_code": 8,
    "city": "常陸大宮市",
    "city_kana": "ヒタチオオミヤシ",
    "town": "小場",
    "town_kana": "オバ",
    "street": null,
    "office_name": null,
    "office_name_kana": null
  },
  "2133": {
    "zip_code": "3192133",
    "prefecture": "茨城県",
    "prefecture_kana": "イバラキケン",
    "prefecture_code": 8,
    "city": "常陸大宮市",
    "city_kana": "ヒタチオオミヤシ",
    "town": "小野",
    "town_kana": "オノ",
    "street": null,
    "office_name": null,
    "office_name_kana": null
  },
  "2134": {
    "zip_code": "3192134",
    "prefecture": "茨城県",
    "prefecture_kana": "イバラキケン",
    "prefecture_code": 8,
    "city": "常陸大宮市",
    "city_kana": "ヒタチオオミヤシ",
    "town": "工業団地",
    "town_kana": "コウギョウダンチ",
    "street": null,
    "office_name": null,
    "office_name_kana": null
  },
  "2135": {
    "zip_code": "3192135",
    "prefecture": "茨城県",
    "prefecture_kana": "イバラキケン",
    "prefecture_code": 8,
    "city": "常陸大宮市",
    "city_kana": "ヒタチオオミヤシ",
    "town": "石沢",
    "town_kana": "イシザワ",
    "street": null,
    "office_name": null,
    "office_name_kana": null
  },
  "2136": {
    "zip_code": "3192136",
    "prefecture": "茨城県",
    "prefecture_kana": "イバラキケン",
    "prefecture_code": 8,
    "city": "常陸大宮市",
    "city_kana": "ヒタチオオミヤシ",
    "town": "上村田",
    "town_kana": "カミムラタ",
    "street": null,
    "office_name": null,
    "office_name_kana": null
  },
  "2141": {
    "zip_code": "3192141",
    "prefecture": "茨城県",
    "prefecture_kana": "イバラキケン",
    "prefecture_code": 8,
    "city": "常陸大宮市",
    "city_kana": "ヒタチオオミヤシ",
    "town": "下岩瀬",
    "town_kana": "シモイワセ",
    "street": null,
    "office_name": null,
    "office_name_kana": null
  },
  "2142": {
    "zip_code": "3192142",
    "prefecture": "茨城県",
    "prefecture_kana": "イバラキケン",
    "prefecture_code": 8,
    "city": "常陸大宮市",
    "city_kana": "ヒタチオオミヤシ",
    "town": "上岩瀬",
    "town_kana": "カミイワセ",
    "street": null,
    "office_name": null,
    "office_name_kana": null
  },
  "2143": {
    "zip_code": "3192143",
    "prefecture": "茨城県",
    "prefecture_kana": "イバラキケン",
    "prefecture_code": 8,
    "city": "常陸大宮市",
    "city_kana": "ヒタチオオミヤシ",
    "town": "根本",
    "town_kana": "ネモト",
    "street": null,
    "office_name": null,
    "office_name_kana": null
  },
  "2144": {
    "zip_code": "3192144",
    "prefecture": "茨城県",
    "prefecture_kana": "イバラキケン",
    "prefecture_code": 8,
    "city": "常陸大宮市",
    "city_kana": "ヒタチオオミヤシ",
    "town": "泉",
    "town_kana": "イズミ",
    "street": null,
    "office_name": null,
    "office_name_kana": null
  },
  "2145": {
    "zip_code": "3192145",
    "prefecture": "茨城県",
    "prefecture_kana": "イバラキケン",
    "prefecture_code": 8,
    "city": "常陸大宮市",
    "city_kana": "ヒタチオオミヤシ",
    "town": "宇留野",
    "town_kana": "ウルノ",
    "street": null,
    "office_name": null,
    "office_name_kana": null
  },
  "2200": {
    "zip_code": "3192200",
    "prefecture": "茨城県",
    "prefecture_kana": "イバラキケン",
    "prefecture_code": 8,
    "city": "常陸大宮市",
    "city_kana": "ヒタチオオミヤシ",
    "town": "",
    "town_kana": "",
    "street": null,
    "office_name": null,
    "office_name_kana": null
  },
  "2201": {
    "zip_code": "3192201",
    "prefecture": "茨城県",
    "prefecture_kana": "イバラキケン",
    "prefecture_code": 8,
    "city": "常陸大宮市",
    "city_kana": "ヒタチオオミヤシ",
    "town": "辰ノ口",
    "town_kana": "タツノクチ",
    "street": null,
    "office_name": null,
    "office_name_kana": null
  },
  "2202": {
    "zip_code": "3192202",
    "prefecture": "茨城県",
    "prefecture_kana": "イバラキケン",
    "prefecture_code": 8,
    "city": "常陸大宮市",
    "city_kana": "ヒタチオオミヤシ",
    "town": "塩原",
    "town_kana": "シオバラ",
    "street": null,
    "office_name": null,
    "office_name_kana": null
  },
  "2203": {
    "zip_code": "3192203",
    "prefecture": "茨城県",
    "prefecture_kana": "イバラキケン",
    "prefecture_code": 8,
    "city": "常陸大宮市",
    "city_kana": "ヒタチオオミヤシ",
    "town": "小倉",
    "town_kana": "オグラ",
    "street": null,
    "office_name": null,
    "office_name_kana": null
  },
  "2204": {
    "zip_code": "3192204",
    "prefecture": "茨城県",
    "prefecture_kana": "イバラキケン",
    "prefecture_code": 8,
    "city": "常陸大宮市",
    "city_kana": "ヒタチオオミヤシ",
    "town": "富岡",
    "town_kana": "トミオカ",
    "street": null,
    "office_name": null,
    "office_name_kana": null
  },
  "2205": {
    "zip_code": "3192205",
    "prefecture": "茨城県",
    "prefecture_kana": "イバラキケン",
    "prefecture_code": 8,
    "city": "常陸大宮市",
    "city_kana": "ヒタチオオミヤシ",
    "town": "宮の郷",
    "town_kana": "ミヤノサト",
    "street": null,
    "office_name": null,
    "office_name_kana": null
  },
  "2211": {
    "zip_code": "3192211",
    "prefecture": "茨城県",
    "prefecture_kana": "イバラキケン",
    "prefecture_code": 8,
    "city": "常陸大宮市",
    "city_kana": "ヒタチオオミヤシ",
    "town": "岩崎",
    "town_kana": "イワザキ",
    "street": null,
    "office_name": null,
    "office_name_kana": null
  },
  "2212": {
    "zip_code": "3192212",
    "prefecture": "茨城県",
    "prefecture_kana": "イバラキケン",
    "prefecture_code": 8,
    "city": "常陸大宮市",
    "city_kana": "ヒタチオオミヤシ",
    "town": "上大賀",
    "town_kana": "カミオオガ",
    "street": null,
    "office_name": null,
    "office_name_kana": null
  },
  "2213": {
    "zip_code": "3192213",
    "prefecture": "茨城県",
    "prefecture_kana": "イバラキケン",
    "prefecture_code": 8,
    "city": "常陸大宮市",
    "city_kana": "ヒタチオオミヤシ",
    "town": "小祝",
    "town_kana": "コイワイ",
    "street": null,
    "office_name": null,
    "office_name_kana": null
  },
  "2214": {
    "zip_code": "3192214",
    "prefecture": "茨城県",
    "prefecture_kana": "イバラキケン",
    "prefecture_code": 8,
    "city": "常陸大宮市",
    "city_kana": "ヒタチオオミヤシ",
    "town": "鷹巣",
    "town_kana": "タカス",
    "street": null,
    "office_name": null,
    "office_name_kana": null
  },
  "2221": {
    "zip_code": "3192221",
    "prefecture": "茨城県",
    "prefecture_kana": "イバラキケン",
    "prefecture_code": 8,
    "city": "常陸大宮市",
    "city_kana": "ヒタチオオミヤシ",
    "town": "八田",
    "town_kana": "ハッタ",
    "street": null,
    "office_name": null,
    "office_name_kana": null
  },
  "2222": {
    "zip_code": "3192222",
    "prefecture": "茨城県",
    "prefecture_kana": "イバラキケン",
    "prefecture_code": 8,
    "city": "常陸大宮市",
    "city_kana": "ヒタチオオミヤシ",
    "town": "若林",
    "town_kana": "ワカバヤシ",
    "street": null,
    "office_name": null,
    "office_name_kana": null
  },
  "2223": {
    "zip_code": "3192223",
    "prefecture": "茨城県",
    "prefecture_kana": "イバラキケン",
    "prefecture_code": 8,
    "city": "常陸大宮市",
    "city_kana": "ヒタチオオミヤシ",
    "town": "三美",
    "town_kana": "ミヨシ",
    "street": null,
    "office_name": null,
    "office_name_kana": null
  },
  "2224": {
    "zip_code": "3192224",
    "prefecture": "茨城県",
    "prefecture_kana": "イバラキケン",
    "prefecture_code": 8,
    "city": "常陸大宮市",
    "city_kana": "ヒタチオオミヤシ",
    "town": "東野",
    "town_kana": "トウノ",
    "street": null,
    "office_name": null,
    "office_name_kana": null
  },
  "2225": {
    "zip_code": "3192225",
    "prefecture": "茨城県",
    "prefecture_kana": "イバラキケン",
    "prefecture_code": 8,
    "city": "常陸大宮市",
    "city_kana": "ヒタチオオミヤシ",
    "town": "西塩子",
    "town_kana": "ニシシオゴ",
    "street": null,
    "office_name": null,
    "office_name_kana": null
  },
  "2226": {
    "zip_code": "3192226",
    "prefecture": "茨城県",
    "prefecture_kana": "イバラキケン",
    "prefecture_code": 8,
    "city": "常陸大宮市",
    "city_kana": "ヒタチオオミヤシ",
    "town": "北塩子",
    "town_kana": "キタシオゴ",
    "street": null,
    "office_name": null,
    "office_name_kana": null
  },
  "2227": {
    "zip_code": "3192227",
    "prefecture": "茨城県",
    "prefecture_kana": "イバラキケン",
    "prefecture_code": 8,
    "city": "常陸大宮市",
    "city_kana": "ヒタチオオミヤシ",
    "town": "照田",
    "town_kana": "テルダ",
    "street": null,
    "office_name": null,
    "office_name_kana": null
  },
  "2251": {
    "zip_code": "3192251",
    "prefecture": "茨城県",
    "prefecture_kana": "イバラキケン",
    "prefecture_code": 8,
    "city": "常陸大宮市",
    "city_kana": "ヒタチオオミヤシ",
    "town": "姥賀町",
    "town_kana": "ウバガチョウ",
    "street": null,
    "office_name": null,
    "office_name_kana": null
  },
  "2252": {
    "zip_code": "3192252",
    "prefecture": "茨城県",
    "prefecture_kana": "イバラキケン",
    "prefecture_code": 8,
    "city": "常陸大宮市",
    "city_kana": "ヒタチオオミヤシ",
    "town": "東富町",
    "town_kana": "ヒガシトミチョウ",
    "street": null,
    "office_name": null,
    "office_name_kana": null
  },
  "2253": {
    "zip_code": "3192253",
    "prefecture": "茨城県",
    "prefecture_kana": "イバラキケン",
    "prefecture_code": 8,
    "city": "常陸大宮市",
    "city_kana": "ヒタチオオミヤシ",
    "town": "高渡町",
    "town_kana": "タカワタリチョウ",
    "street": null,
    "office_name": null,
    "office_name_kana": null
  },
  "2254": {
    "zip_code": "3192254",
    "prefecture": "茨城県",
    "prefecture_kana": "イバラキケン",
    "prefecture_code": 8,
    "city": "常陸大宮市",
    "city_kana": "ヒタチオオミヤシ",
    "town": "北町",
    "town_kana": "キタチョウ",
    "street": null,
    "office_name": null,
    "office_name_kana": null
  },
  "2255": {
    "zip_code": "3192255",
    "prefecture": "茨城県",
    "prefecture_kana": "イバラキケン",
    "prefecture_code": 8,
    "city": "常陸大宮市",
    "city_kana": "ヒタチオオミヤシ",
    "town": "野中町",
    "town_kana": "ノナカチョウ",
    "street": null,
    "office_name": null,
    "office_name_kana": null
  },
  "2256": {
    "zip_code": "3192256",
    "prefecture": "茨城県",
    "prefecture_kana": "イバラキケン",
    "prefecture_code": 8,
    "city": "常陸大宮市",
    "city_kana": "ヒタチオオミヤシ",
    "town": "田子内町",
    "town_kana": "タゴウチチョウ",
    "street": null,
    "office_name": null,
    "office_name_kana": null
  },
  "2261": {
    "zip_code": "3192261",
    "prefecture": "茨城県",
    "prefecture_kana": "イバラキケン",
    "prefecture_code": 8,
    "city": "常陸大宮市",
    "city_kana": "ヒタチオオミヤシ",
    "town": "上町",
    "town_kana": "カミチョウ",
    "street": null,
    "office_name": null,
    "office_name_kana": null
  },
  "2262": {
    "zip_code": "3192262",
    "prefecture": "茨城県",
    "prefecture_kana": "イバラキケン",
    "prefecture_code": 8,
    "city": "常陸大宮市",
    "city_kana": "ヒタチオオミヤシ",
    "town": "下町",
    "town_kana": "シモチョウ",
    "street": null,
    "office_name": null,
    "office_name_kana": null
  },
  "2263": {
    "zip_code": "3192263",
    "prefecture": "茨城県",
    "prefecture_kana": "イバラキケン",
    "prefecture_code": 8,
    "city": "常陸大宮市",
    "city_kana": "ヒタチオオミヤシ",
    "town": "南町",
    "town_kana": "ミナミチョウ",
    "street": null,
    "office_name": null,
    "office_name_kana": null
  },
  "2264": {
    "zip_code": "3192264",
    "prefecture": "茨城県",
    "prefecture_kana": "イバラキケン",
    "prefecture_code": 8,
    "city": "常陸大宮市",
    "city_kana": "ヒタチオオミヤシ",
    "town": "栄町",
    "town_kana": "サカエチョウ",
    "street": null,
    "office_name": null,
    "office_name_kana": null
  },
  "2265": {
    "zip_code": "3192265",
    "prefecture": "茨城県",
    "prefecture_kana": "イバラキケン",
    "prefecture_code": 8,
    "city": "常陸大宮市",
    "city_kana": "ヒタチオオミヤシ",
    "town": "中富町",
    "town_kana": "ナカトミチョウ",
    "street": null,
    "office_name": null,
    "office_name_kana": null
  },
  "2266": {
    "zip_code": "3192266",
    "prefecture": "茨城県",
    "prefecture_kana": "イバラキケン",
    "prefecture_code": 8,
    "city": "常陸大宮市",
    "city_kana": "ヒタチオオミヤシ",
    "town": "抽ケ台町",
    "town_kana": "ユガダイチョウ",
    "street": null,
    "office_name": null,
    "office_name_kana": null
  },
  "2401": {
    "zip_code": "3192401",
    "prefecture": "茨城県",
    "prefecture_kana": "イバラキケン",
    "prefecture_code": 8,
    "city": "常陸大宮市",
    "city_kana": "ヒタチオオミヤシ",
    "town": "上小瀬",
    "town_kana": "カミオセ",
    "street": null,
    "office_name": null,
    "office_name_kana": null
  },
  "2402": {
    "zip_code": "3192402",
    "prefecture": "茨城県",
    "prefecture_kana": "イバラキケン",
    "prefecture_code": 8,
    "city": "常陸大宮市",
    "city_kana": "ヒタチオオミヤシ",
    "town": "下小瀬",
    "town_kana": "シモオセ",
    "street": null,
    "office_name": null,
    "office_name_kana": null
  },
  "2403": {
    "zip_code": "3192403",
    "prefecture": "茨城県",
    "prefecture_kana": "イバラキケン",
    "prefecture_code": 8,
    "city": "常陸大宮市",
    "city_kana": "ヒタチオオミヤシ",
    "town": "那賀",
    "town_kana": "ナカ",
    "street": null,
    "office_name": null,
    "office_name_kana": null
  },
  "2404": {
    "zip_code": "3192404",
    "prefecture": "茨城県",
    "prefecture_kana": "イバラキケン",
    "prefecture_code": 8,
    "city": "常陸大宮市",
    "city_kana": "ヒタチオオミヤシ",
    "town": "国長",
    "town_kana": "クニオサ",
    "street": null,
    "office_name": null,
    "office_name_kana": null
  },
  "2405": {
    "zip_code": "3192405",
    "prefecture": "茨城県",
    "prefecture_kana": "イバラキケン",
    "prefecture_code": 8,
    "city": "常陸大宮市",
    "city_kana": "ヒタチオオミヤシ",
    "town": "小玉",
    "town_kana": "オダマ",
    "street": null,
    "office_name": null,
    "office_name_kana": null
  },
  "2411": {
    "zip_code": "3192411",
    "prefecture": "茨城県",
    "prefecture_kana": "イバラキケン",
    "prefecture_code": 8,
    "city": "常陸大宮市",
    "city_kana": "ヒタチオオミヤシ",
    "town": "小舟",
    "town_kana": "コブネ",
    "street": null,
    "office_name": null,
    "office_name_kana": null
  },
  "2412": {
    "zip_code": "3192412",
    "prefecture": "茨城県",
    "prefecture_kana": "イバラキケン",
    "prefecture_code": 8,
    "city": "常陸大宮市",
    "city_kana": "ヒタチオオミヤシ",
    "town": "小瀬沢",
    "town_kana": "オセザワ",
    "street": null,
    "office_name": null,
    "office_name_kana": null
  },
  "2413": {
    "zip_code": "3192413",
    "prefecture": "茨城県",
    "prefecture_kana": "イバラキケン",
    "prefecture_code": 8,
    "city": "常陸大宮市",
    "city_kana": "ヒタチオオミヤシ",
    "town": "松之草",
    "town_kana": "マツノクサ",
    "street": null,
    "office_name": null,
    "office_name_kana": null
  },
  "2414": {
    "zip_code": "3192414",
    "prefecture": "茨城県",
    "prefecture_kana": "イバラキケン",
    "prefecture_code": 8,
    "city": "常陸大宮市",
    "city_kana": "ヒタチオオミヤシ",
    "town": "吉丸",
    "town_kana": "ヨシマル",
    "street": null,
    "office_name": null,
    "office_name_kana": null
  },
  "2415": {
    "zip_code": "3192415",
    "prefecture": "茨城県",
    "prefecture_kana": "イバラキケン",
    "prefecture_code": 8,
    "city": "常陸大宮市",
    "city_kana": "ヒタチオオミヤシ",
    "town": "入本郷",
    "town_kana": "イリホンゴウ",
    "street": null,
    "office_name": null,
    "office_name_kana": null
  },
  "2416": {
    "zip_code": "3192416",
    "prefecture": "茨城県",
    "prefecture_kana": "イバラキケン",
    "prefecture_code": 8,
    "city": "常陸大宮市",
    "city_kana": "ヒタチオオミヤシ",
    "town": "千田",
    "town_kana": "センダ",
    "street": null,
    "office_name": null,
    "office_name_kana": null
  },
  "2417": {
    "zip_code": "3192417",
    "prefecture": "茨城県",
    "prefecture_kana": "イバラキケン",
    "prefecture_code": 8,
    "city": "常陸大宮市",
    "city_kana": "ヒタチオオミヤシ",
    "town": "油河内",
    "town_kana": "ユゴウト",
    "street": null,
    "office_name": null,
    "office_name_kana": null
  },
  "2418": {
    "zip_code": "3192418",
    "prefecture": "茨城県",
    "prefecture_kana": "イバラキケン",
    "prefecture_code": 8,
    "city": "常陸大宮市",
    "city_kana": "ヒタチオオミヤシ",
    "town": "大岩",
    "town_kana": "オオイワ",
    "street": null,
    "office_name": null,
    "office_name_kana": null
  },
  "2511": {
    "zip_code": "3192511",
    "prefecture": "茨城県",
    "prefecture_kana": "イバラキケン",
    "prefecture_code": 8,
    "city": "常陸大宮市",
    "city_kana": "ヒタチオオミヤシ",
    "town": "上檜沢",
    "town_kana": "カミヒザワ",
    "street": null,
    "office_name": null,
    "office_name_kana": null
  },
  "2512": {
    "zip_code": "3192512",
    "prefecture": "茨城県",
    "prefecture_kana": "イバラキケン",
    "prefecture_code": 8,
    "city": "常陸大宮市",
    "city_kana": "ヒタチオオミヤシ",
    "town": "下檜沢",
    "town_kana": "シモヒザワ",
    "street": null,
    "office_name": null,
    "office_name_kana": null
  },
  "2513": {
    "zip_code": "3192513",
    "prefecture": "茨城県",
    "prefecture_kana": "イバラキケン",
    "prefecture_code": 8,
    "city": "常陸大宮市",
    "city_kana": "ヒタチオオミヤシ",
    "town": "氷之沢",
    "town_kana": "ヒノサワ",
    "street": null,
    "office_name": null,
    "office_name_kana": null
  },
  "2601": {
    "zip_code": "3192601",
    "prefecture": "茨城県",
    "prefecture_kana": "イバラキケン",
    "prefecture_code": 8,
    "city": "常陸大宮市",
    "city_kana": "ヒタチオオミヤシ",
    "town": "高部",
    "town_kana": "タカブ",
    "street": null,
    "office_name": null,
    "office_name_kana": null
  },
  "2602": {
    "zip_code": "3192602",
    "prefecture": "茨城県",
    "prefecture_kana": "イバラキケン",
    "prefecture_code": 8,
    "city": "常陸大宮市",
    "city_kana": "ヒタチオオミヤシ",
    "town": "小田野",
    "town_kana": "オタノ",
    "street": null,
    "office_name": null,
    "office_name_kana": null
  },
  "2603": {
    "zip_code": "3192603",
    "prefecture": "茨城県",
    "prefecture_kana": "イバラキケン",
    "prefecture_code": 8,
    "city": "常陸大宮市",
    "city_kana": "ヒタチオオミヤシ",
    "town": "鷲子",
    "town_kana": "トリノコ",
    "street": null,
    "office_name": null,
    "office_name_kana": null
  },
  "2692": {
    "zip_code": "3192692",
    "prefecture": "茨城県",
    "prefecture_kana": "イバラキケン",
    "prefecture_code": 8,
    "city": "常陸大宮市",
    "city_kana": "ヒタチオオミヤシ",
    "town": "高部",
    "town_kana": "タカブ",
    "street": "５２８１−１",
    "office_name": "常陸大宮市役所美和総合所",
    "office_name_kana": "ヒタチオオミヤシヤクシヨミワ ソウゴウシシヨ"
  },
  "3101": {
    "zip_code": "3193101",
    "prefecture": "茨城県",
    "prefecture_kana": "イバラキケン",
    "prefecture_code": 8,
    "city": "常陸大宮市",
    "city_kana": "ヒタチオオミヤシ",
    "town": "久隆",
    "town_kana": "クリュウ",
    "street": null,
    "office_name": null,
    "office_name_kana": null
  },
  "3102": {
    "zip_code": "3193102",
    "prefecture": "茨城県",
    "prefecture_kana": "イバラキケン",
    "prefecture_code": 8,
    "city": "常陸大宮市",
    "city_kana": "ヒタチオオミヤシ",
    "town": "盛金",
    "town_kana": "モリガネ",
    "street": null,
    "office_name": null,
    "office_name_kana": null
  },
  "3103": {
    "zip_code": "3193103",
    "prefecture": "茨城県",
    "prefecture_kana": "イバラキケン",
    "prefecture_code": 8,
    "city": "常陸大宮市",
    "city_kana": "ヒタチオオミヤシ",
    "town": "家和楽",
    "town_kana": "ヤワラ",
    "street": null,
    "office_name": null,
    "office_name_kana": null
  },
  "3104": {
    "zip_code": "3193104",
    "prefecture": "茨城県",
    "prefecture_kana": "イバラキケン",
    "prefecture_code": 8,
    "city": "常陸大宮市",
    "city_kana": "ヒタチオオミヤシ",
    "town": "北富田",
    "town_kana": "キタトミダ",
    "street": null,
    "office_name": null,
    "office_name_kana": null
  },
  "3105": {
    "zip_code": "3193105",
    "prefecture": "茨城県",
    "prefecture_kana": "イバラキケン",
    "prefecture_code": 8,
    "city": "常陸大宮市",
    "city_kana": "ヒタチオオミヤシ",
    "town": "諸沢",
    "town_kana": "モロザワ",
    "street": null,
    "office_name": null,
    "office_name_kana": null
  },
  "3106": {
    "zip_code": "3193106",
    "prefecture": "茨城県",
    "prefecture_kana": "イバラキケン",
    "prefecture_code": 8,
    "city": "常陸大宮市",
    "city_kana": "ヒタチオオミヤシ",
    "town": "西野内",
    "town_kana": "ニシノウチ",
    "street": null,
    "office_name": null,
    "office_name_kana": null
  },
  "3107": {
    "zip_code": "3193107",
    "prefecture": "茨城県",
    "prefecture_kana": "イバラキケン",
    "prefecture_code": 8,
    "city": "常陸大宮市",
    "city_kana": "ヒタチオオミヤシ",
    "town": "舟生",
    "town_kana": "フニュウ",
    "street": null,
    "office_name": null,
    "office_name_kana": null
  },
  "3111": {
    "zip_code": "3193111",
    "prefecture": "茨城県",
    "prefecture_kana": "イバラキケン",
    "prefecture_code": 8,
    "city": "常陸大宮市",
    "city_kana": "ヒタチオオミヤシ",
    "town": "山方",
    "town_kana": "ヤマガタ",
    "street": null,
    "office_name": null,
    "office_name_kana": null
  },
  "3112": {
    "zip_code": "3193112",
    "prefecture": "茨城県",
    "prefecture_kana": "イバラキケン",
    "prefecture_code": 8,
    "city": "常陸大宮市",
    "city_kana": "ヒタチオオミヤシ",
    "town": "小貫",
    "town_kana": "オヌキ",
    "street": null,
    "office_name": null,
    "office_name_kana": null
  },
  "3113": {
    "zip_code": "3193113",
    "prefecture": "茨城県",
    "prefecture_kana": "イバラキケン",
    "prefecture_code": 8,
    "city": "常陸大宮市",
    "city_kana": "ヒタチオオミヤシ",
    "town": "照山",
    "town_kana": "テルヤマ",
    "street": null,
    "office_name": null,
    "office_name_kana": null
  },
  "3114": {
    "zip_code": "3193114",
    "prefecture": "茨城県",
    "prefecture_kana": "イバラキケン",
    "prefecture_code": 8,
    "city": "常陸大宮市",
    "city_kana": "ヒタチオオミヤシ",
    "town": "野上",
    "town_kana": "ノガミ",
    "street": null,
    "office_name": null,
    "office_name_kana": null
  },
  "3115": {
    "zip_code": "3193115",
    "prefecture": "茨城県",
    "prefecture_kana": "イバラキケン",
    "prefecture_code": 8,
    "city": "常陸大宮市",
    "city_kana": "ヒタチオオミヤシ",
    "town": "照田",
    "town_kana": "テルダ",
    "street": null,
    "office_name": null,
    "office_name_kana": null
  },
  "3116": {
    "zip_code": "3193116",
    "prefecture": "茨城県",
    "prefecture_kana": "イバラキケン",
    "prefecture_code": 8,
    "city": "常陸大宮市",
    "city_kana": "ヒタチオオミヤシ",
    "town": "長田",
    "town_kana": "オサダ",
    "street": null,
    "office_name": null,
    "office_name_kana": null
  },
  "3117": {
    "zip_code": "3193117",
    "prefecture": "茨城県",
    "prefecture_kana": "イバラキケン",
    "prefecture_code": 8,
    "city": "常陸大宮市",
    "city_kana": "ヒタチオオミヤシ",
    "town": "長沢",
    "town_kana": "ナガサワ",
    "street": null,
    "office_name": null,
    "office_name_kana": null
  },
  "3361": {
    "zip_code": "3193361",
    "prefecture": "茨城県",
    "prefecture_kana": "イバラキケン",
    "prefecture_code": 8,
    "city": "久慈郡大子町",
    "city_kana": "クジグンダイゴマチ",
    "town": "頃藤",
    "town_kana": "コロフジ",
    "street": null,
    "office_name": null,
    "office_name_kana": null
  },
  "3362": {
    "zip_code": "3193362",
    "prefecture": "茨城県",
    "prefecture_kana": "イバラキケン",
    "prefecture_code": 8,
    "city": "久慈郡大子町",
    "city_kana": "クジグンダイゴマチ",
    "town": "西金",
    "town_kana": "サイガネ",
    "street": null,
    "office_name": null,
    "office_name_kana": null
  },
  "3363": {
    "zip_code": "3193363",
    "prefecture": "茨城県",
    "prefecture_kana": "イバラキケン",
    "prefecture_code": 8,
    "city": "久慈郡大子町",
    "city_kana": "クジグンダイゴマチ",
    "town": "北富田",
    "town_kana": "キタトミタ",
    "street": null,
    "office_name": null,
    "office_name_kana": null
  },
  "3364": {
    "zip_code": "3193364",
    "prefecture": "茨城県",
    "prefecture_kana": "イバラキケン",
    "prefecture_code": 8,
    "city": "久慈郡大子町",
    "city_kana": "クジグンダイゴマチ",
    "town": "盛金",
    "town_kana": "モリガネ",
    "street": null,
    "office_name": null,
    "office_name_kana": null
  },
  "3365": {
    "zip_code": "3193365",
    "prefecture": "茨城県",
    "prefecture_kana": "イバラキケン",
    "prefecture_code": 8,
    "city": "久慈郡大子町",
    "city_kana": "クジグンダイゴマチ",
    "town": "栃原",
    "town_kana": "トチハラ",
    "street": null,
    "office_name": null,
    "office_name_kana": null
  },
  "3366": {
    "zip_code": "3193366",
    "prefecture": "茨城県",
    "prefecture_kana": "イバラキケン",
    "prefecture_code": 8,
    "city": "久慈郡大子町",
    "city_kana": "クジグンダイゴマチ",
    "town": "大沢",
    "town_kana": "オオサワ",
    "street": null,
    "office_name": null,
    "office_name_kana": null
  },
  "3500": {
    "zip_code": "3193500",
    "prefecture": "茨城県",
    "prefecture_kana": "イバラキケン",
    "prefecture_code": 8,
    "city": "久慈郡大子町",
    "city_kana": "クジグンダイゴマチ",
    "town": "",
    "town_kana": "",
    "street": null,
    "office_name": null,
    "office_name_kana": null
  },
  "3511": {
    "zip_code": "3193511",
    "prefecture": "茨城県",
    "prefecture_kana": "イバラキケン",
    "prefecture_code": 8,
    "city": "久慈郡大子町",
    "city_kana": "クジグンダイゴマチ",
    "town": "高柴",
    "town_kana": "タカシバ",
    "street": null,
    "office_name": null,
    "office_name_kana": null
  },
  "3512": {
    "zip_code": "3193512",
    "prefecture": "茨城県",
    "prefecture_kana": "イバラキケン",
    "prefecture_code": 8,
    "city": "久慈郡大子町",
    "city_kana": "クジグンダイゴマチ",
    "town": "小生瀬",
    "town_kana": "コナマセ",
    "street": null,
    "office_name": null,
    "office_name_kana": null
  },
  "3513": {
    "zip_code": "3193513",
    "prefecture": "茨城県",
    "prefecture_kana": "イバラキケン",
    "prefecture_code": 8,
    "city": "久慈郡大子町",
    "city_kana": "クジグンダイゴマチ",
    "town": "大生瀬",
    "town_kana": "オオナマセ",
    "street": null,
    "office_name": null,
    "office_name_kana": null
  },
  "3514": {
    "zip_code": "3193514",
    "prefecture": "茨城県",
    "prefecture_kana": "イバラキケン",
    "prefecture_code": 8,
    "city": "久慈郡大子町",
    "city_kana": "クジグンダイゴマチ",
    "town": "外大野",
    "town_kana": "ソトオオノ",
    "street": null,
    "office_name": null,
    "office_name_kana": null
  },
  "3515": {
    "zip_code": "3193515",
    "prefecture": "茨城県",
    "prefecture_kana": "イバラキケン",
    "prefecture_code": 8,
    "city": "久慈郡大子町",
    "city_kana": "クジグンダイゴマチ",
    "town": "内大野",
    "town_kana": "ウチオオノ",
    "street": null,
    "office_name": null,
    "office_name_kana": null
  },
  "3521": {
    "zip_code": "3193521",
    "prefecture": "茨城県",
    "prefecture_kana": "イバラキケン",
    "prefecture_code": 8,
    "city": "久慈郡大子町",
    "city_kana": "クジグンダイゴマチ",
    "town": "北田気",
    "town_kana": "キタタゲ",
    "street": null,
    "office_name": null,
    "office_name_kana": null
  },
  "3522": {
    "zip_code": "3193522",
    "prefecture": "茨城県",
    "prefecture_kana": "イバラキケン",
    "prefecture_code": 8,
    "city": "久慈郡大子町",
    "city_kana": "クジグンダイゴマチ",
    "town": "久野瀬",
    "town_kana": "クノセ",
    "street": null,
    "office_name": null,
    "office_name_kana": null
  },
  "3523": {
    "zip_code": "3193523",
    "prefecture": "茨城県",
    "prefecture_kana": "イバラキケン",
    "prefecture_code": 8,
    "city": "久慈郡大子町",
    "city_kana": "クジグンダイゴマチ",
    "town": "袋田",
    "town_kana": "フクロダ",
    "street": null,
    "office_name": null,
    "office_name_kana": null
  },
  "3524": {
    "zip_code": "3193524",
    "prefecture": "茨城県",
    "prefecture_kana": "イバラキケン",
    "prefecture_code": 8,
    "city": "久慈郡大子町",
    "city_kana": "クジグンダイゴマチ",
    "town": "下津原",
    "town_kana": "シモツハラ",
    "street": null,
    "office_name": null,
    "office_name_kana": null
  },
  "3525": {
    "zip_code": "3193525",
    "prefecture": "茨城県",
    "prefecture_kana": "イバラキケン",
    "prefecture_code": 8,
    "city": "久慈郡大子町",
    "city_kana": "クジグンダイゴマチ",
    "town": "南田気",
    "town_kana": "ミナミタゲ",
    "street": null,
    "office_name": null,
    "office_name_kana": null
  },
  "3526": {
    "zip_code": "3193526",
    "prefecture": "茨城県",
    "prefecture_kana": "イバラキケン",
    "prefecture_code": 8,
    "city": "久慈郡大子町",
    "city_kana": "クジグンダイゴマチ",
    "town": "大子",
    "town_kana": "ダイゴ",
    "street": null,
    "office_name": null,
    "office_name_kana": null
  },
  "3531": {
    "zip_code": "3193531",
    "prefecture": "茨城県",
    "prefecture_kana": "イバラキケン",
    "prefecture_code": 8,
    "city": "久慈郡大子町",
    "city_kana": "クジグンダイゴマチ",
    "town": "上岡",
    "town_kana": "ウワオカ",
    "street": null,
    "office_name": null,
    "office_name_kana": null
  },
  "3532": {
    "zip_code": "3193532",
    "prefecture": "茨城県",
    "prefecture_kana": "イバラキケン",
    "prefecture_code": 8,
    "city": "久慈郡大子町",
    "city_kana": "クジグンダイゴマチ",
    "town": "山田",
    "town_kana": "ヤマダ",
    "street": null,
    "office_name": null,
    "office_name_kana": null
  },
  "3533": {
    "zip_code": "3193533",
    "prefecture": "茨城県",
    "prefecture_kana": "イバラキケン",
    "prefecture_code": 8,
    "city": "久慈郡大子町",
    "city_kana": "クジグンダイゴマチ",
    "town": "下金沢",
    "town_kana": "シモカネサワ",
    "street": null,
    "office_name": null,
    "office_name_kana": null
  },
  "3534": {
    "zip_code": "3193534",
    "prefecture": "茨城県",
    "prefecture_kana": "イバラキケン",
    "prefecture_code": 8,
    "city": "久慈郡大子町",
    "city_kana": "クジグンダイゴマチ",
    "town": "相川",
    "town_kana": "アイカワ",
    "street": null,
    "office_name": null,
    "office_name_kana": null
  },
  "3535": {
    "zip_code": "3193535",
    "prefecture": "茨城県",
    "prefecture_kana": "イバラキケン",
    "prefecture_code": 8,
    "city": "久慈郡大子町",
    "city_kana": "クジグンダイゴマチ",
    "town": "上金沢",
    "town_kana": "カミカネサワ",
    "street": null,
    "office_name": null,
    "office_name_kana": null
  },
  "3536": {
    "zip_code": "3193536",
    "prefecture": "茨城県",
    "prefecture_kana": "イバラキケン",
    "prefecture_code": 8,
    "city": "久慈郡大子町",
    "city_kana": "クジグンダイゴマチ",
    "town": "田野沢",
    "town_kana": "タノサワ",
    "street": null,
    "office_name": null,
    "office_name_kana": null
  },
  "3537": {
    "zip_code": "3193537",
    "prefecture": "茨城県",
    "prefecture_kana": "イバラキケン",
    "prefecture_code": 8,
    "city": "久慈郡大子町",
    "city_kana": "クジグンダイゴマチ",
    "town": "塙",
    "town_kana": "ハナワ",
    "street": null,
    "office_name": null,
    "office_name_kana": null
  },
  "3538": {
    "zip_code": "3193538",
    "prefecture": "茨城県",
    "prefecture_kana": "イバラキケン",
    "prefecture_code": 8,
    "city": "久慈郡大子町",
    "city_kana": "クジグンダイゴマチ",
    "town": "芦野倉",
    "town_kana": "アシノクラ",
    "street": null,
    "office_name": null,
    "office_name_kana": null
  },
  "3541": {
    "zip_code": "3193541",
    "prefecture": "茨城県",
    "prefecture_kana": "イバラキケン",
    "prefecture_code": 8,
    "city": "久慈郡大子町",
    "city_kana": "クジグンダイゴマチ",
    "town": "浅川",
    "town_kana": "アサカワ",
    "street": null,
    "office_name": null,
    "office_name_kana": null
  },
  "3542": {
    "zip_code": "3193542",
    "prefecture": "茨城県",
    "prefecture_kana": "イバラキケン",
    "prefecture_code": 8,
    "city": "久慈郡大子町",
    "city_kana": "クジグンダイゴマチ",
    "town": "初原",
    "town_kana": "ハツバラ",
    "street": null,
    "office_name": null,
    "office_name_kana": null
  },
  "3543": {
    "zip_code": "3193543",
    "prefecture": "茨城県",
    "prefecture_kana": "イバラキケン",
    "prefecture_code": 8,
    "city": "久慈郡大子町",
    "city_kana": "クジグンダイゴマチ",
    "town": "左貫",
    "town_kana": "サヌキ",
    "street": null,
    "office_name": null,
    "office_name_kana": null
  },
  "3544": {
    "zip_code": "3193544",
    "prefecture": "茨城県",
    "prefecture_kana": "イバラキケン",
    "prefecture_code": 8,
    "city": "久慈郡大子町",
    "city_kana": "クジグンダイゴマチ",
    "town": "槇野地",
    "town_kana": "マギノチ",
    "street": null,
    "office_name": null,
    "office_name_kana": null
  },
  "3551": {
    "zip_code": "3193551",
    "prefecture": "茨城県",
    "prefecture_kana": "イバラキケン",
    "prefecture_code": 8,
    "city": "久慈郡大子町",
    "city_kana": "クジグンダイゴマチ",
    "town": "池田",
    "town_kana": "イケダ",
    "street": null,
    "office_name": null,
    "office_name_kana": null
  },
  "3552": {
    "zip_code": "3193552",
    "prefecture": "茨城県",
    "prefecture_kana": "イバラキケン",
    "prefecture_code": 8,
    "city": "久慈郡大子町",
    "city_kana": "クジグンダイゴマチ",
    "town": "矢田",
    "town_kana": "ヤダ",
    "street": null,
    "office_name": null,
    "office_name_kana": null
  },
  "3553": {
    "zip_code": "3193553",
    "prefecture": "茨城県",
    "prefecture_kana": "イバラキケン",
    "prefecture_code": 8,
    "city": "久慈郡大子町",
    "city_kana": "クジグンダイゴマチ",
    "town": "冥賀",
    "town_kana": "ミョウガ",
    "street": null,
    "office_name": null,
    "office_name_kana": null
  },
  "3554": {
    "zip_code": "3193554",
    "prefecture": "茨城県",
    "prefecture_kana": "イバラキケン",
    "prefecture_code": 8,
    "city": "久慈郡大子町",
    "city_kana": "クジグンダイゴマチ",
    "town": "高田",
    "town_kana": "タカダ",
    "street": null,
    "office_name": null,
    "office_name_kana": null
  },
  "3555": {
    "zip_code": "3193555",
    "prefecture": "茨城県",
    "prefecture_kana": "イバラキケン",
    "prefecture_code": 8,
    "city": "久慈郡大子町",
    "city_kana": "クジグンダイゴマチ",
    "town": "下野宮",
    "town_kana": "シモノミヤ",
    "street": null,
    "office_name": null,
    "office_name_kana": null
  },
  "3556": {
    "zip_code": "3193556",
    "prefecture": "茨城県",
    "prefecture_kana": "イバラキケン",
    "prefecture_code": 8,
    "city": "久慈郡大子町",
    "city_kana": "クジグンダイゴマチ",
    "town": "川山",
    "town_kana": "カワヤマ",
    "street": null,
    "office_name": null,
    "office_name_kana": null
  },
  "3595": {
    "zip_code": "3193595",
    "prefecture": "茨城県",
    "prefecture_kana": null,
    "prefecture_code": null,
    "city": "久慈郡大子町",
    "city_kana": null,
    "town": "大字大子",
    "town_kana": null,
    "street": "８６６",
    "office_name": "大子町役場",
    "office_name_kana": "ダイゴマチヤクバ"
  },
  "3701": {
    "zip_code": "3193701",
    "prefecture": "茨城県",
    "prefecture_kana": "イバラキケン",
    "prefecture_code": 8,
    "city": "久慈郡大子町",
    "city_kana": "クジグンダイゴマチ",
    "town": "北吉沢",
    "town_kana": "キタヨシザワ",
    "street": null,
    "office_name": null,
    "office_name_kana": null
  },
  "3702": {
    "zip_code": "3193702",
    "prefecture": "茨城県",
    "prefecture_kana": "イバラキケン",
    "prefecture_code": 8,
    "city": "久慈郡大子町",
    "city_kana": "クジグンダイゴマチ",
    "town": "町付",
    "town_kana": "マチツキ",
    "street": null,
    "office_name": null,
    "office_name_kana": null
  },
  "3703": {
    "zip_code": "3193703",
    "prefecture": "茨城県",
    "prefecture_kana": "イバラキケン",
    "prefecture_code": 8,
    "city": "久慈郡大子町",
    "city_kana": "クジグンダイゴマチ",
    "town": "上郷",
    "town_kana": "カミゴウ",
    "street": null,
    "office_name": null,
    "office_name_kana": null
  },
  "3704": {
    "zip_code": "3193704",
    "prefecture": "茨城県",
    "prefecture_kana": "イバラキケン",
    "prefecture_code": 8,
    "city": "久慈郡大子町",
    "city_kana": "クジグンダイゴマチ",
    "town": "上野宮",
    "town_kana": "カミノミヤ",
    "street": null,
    "office_name": null,
    "office_name_kana": null
  },
  "3705": {
    "zip_code": "3193705",
    "prefecture": "茨城県",
    "prefecture_kana": "イバラキケン",
    "prefecture_code": 8,
    "city": "久慈郡大子町",
    "city_kana": "クジグンダイゴマチ",
    "town": "中郷",
    "town_kana": "ナカゴウ",
    "street": null,
    "office_name": null,
    "office_name_kana": null
  }
}