{
  "0000": {
    "zip_code": "3280000",
    "prefecture": "栃木県",
    "prefecture_kana": "トチギケン",
    "prefecture_code": 9,
    "city": "栃木市",
    "city_kana": "トチギシ",
    "town": "",
    "town_kana": "",
    "street": null,
    "office_name": null,
    "office_name_kana": null
  },
  "0001": {
    "zip_code": "3280001",
    "prefecture": "栃木県",
    "prefecture_kana": "トチギケン",
    "prefecture_code": 9,
    "city": "栃木市",
    "city_kana": "トチギシ",
    "town": "柳原町",
    "town_kana": "ヤナギハラマチ",
    "street": null,
    "office_name": null,
    "office_name_kana": null
  },
  "0002": {
    "zip_code": "3280002",
    "prefecture": "栃木県",
    "prefecture_kana": "トチギケン",
    "prefecture_code": 9,
    "city": "栃木市",
    "city_kana": "トチギシ",
    "town": "惣社町",
    "town_kana": "ソウジャマチ",
    "street": null,
    "office_name": null,
    "office_name_kana": null
  },
  "0003": {
    "zip_code": "3280003",
    "prefecture": "栃木県",
    "prefecture_kana": "トチギケン",
    "prefecture_code": 9,
    "city": "栃木市",
    "city_kana": "トチギシ",
    "town": "大光寺町",
    "town_kana": "ダイコウジマチ",
    "street": null,
    "office_name": null,
    "office_name_kana": null
  },
  "0004": {
    "zip_code": "3280004",
    "prefecture": "栃木県",
    "prefecture_kana": "トチギケン",
    "prefecture_code": 9,
    "city": "栃木市",
    "city_kana": "トチギシ",
    "town": "田村町",
    "town_kana": "タムラマチ",
    "street": null,
    "office_name": null,
    "office_name_kana": null
  },
  "0005": {
    "zip_code": "3280005",
    "prefecture": "栃木県",
    "prefecture_kana": "トチギケン",
    "prefecture_code": 9,
    "city": "栃木市",
    "city_kana": "トチギシ",
    "town": "寄居町",
    "town_kana": "ヨリイマチ",
    "street": null,
    "office_name": null,
    "office_name_kana": null
  },
  "0006": {
    "zip_code": "3280006",
    "prefecture": "栃木県",
    "prefecture_kana": "トチギケン",
    "prefecture_code": 9,
    "city": "栃木市",
    "city_kana": "トチギシ",
    "town": "国府町",
    "town_kana": "コウマチ",
    "street": null,
    "office_name": null,
    "office_name_kana": null
  },
  "0007": {
    "zip_code": "3280007",
    "prefecture": "栃木県",
    "prefecture_kana": "トチギケン",
    "prefecture_code": 9,
    "city": "栃木市",
    "city_kana": "トチギシ",
    "town": "大塚町",
    "town_kana": "オオツカマチ",
    "street": null,
    "office_name": null,
    "office_name_kana": null
  },
  "0011": {
    "zip_code": "3280011",
    "prefecture": "栃木県",
    "prefecture_kana": "トチギケン",
    "prefecture_code": 9,
    "city": "栃木市",
    "city_kana": "トチギシ",
    "town": "大宮町",
    "town_kana": "オオミヤマチ",
    "street": null,
    "office_name": null,
    "office_name_kana": null
  },
  "0012": {
    "zip_code": "3280012",
    "prefecture": "栃木県",
    "prefecture_kana": "トチギケン",
    "prefecture_code": 9,
    "city": "栃木市",
    "city_kana": "トチギシ",
    "town": "平柳町",
    "town_kana": "ヒラヤナギマチ",
    "street": null,
    "office_name": null,
    "office_name_kana": null
  },
  "0013": {
    "zip_code": "3280013",
    "prefecture": "栃木県",
    "prefecture_kana": "トチギケン",
    "prefecture_code": 9,
    "city": "栃木市",
    "city_kana": "トチギシ",
    "town": "昭和町",
    "town_kana": "ショウワチョウ",
    "street": null,
    "office_name": null,
    "office_name_kana": null
  },
  "0014": {
    "zip_code": "3280014",
    "prefecture": "栃木県",
    "prefecture_kana": "トチギケン",
    "prefecture_code": 9,
    "city": "栃木市",
    "city_kana": "トチギシ",
    "town": "泉町",
    "town_kana": "イズミチョウ",
    "street": null,
    "office_name": null,
    "office_name_kana": null
  },
  "0015": {
    "zip_code": "3280015",
    "prefecture": "栃木県",
    "prefecture_kana": "トチギケン",
    "prefecture_code": 9,
    "city": "栃木市",
    "city_kana": "トチギシ",
    "town": "万町",
    "town_kana": "ヨロズチョウ",
    "street": null,
    "office_name": null,
    "office_name_kana": null
  },
  "0016": {
    "zip_code": "3280016",
    "prefecture": "栃木県",
    "prefecture_kana": "トチギケン",
    "prefecture_code": 9,
    "city": "栃木市",
    "city_kana": "トチギシ",
    "town": "入舟町",
    "town_kana": "イリフネチョウ",
    "street": null,
    "office_name": null,
    "office_name_kana": null
  },
  "0017": {
    "zip_code": "3280017",
    "prefecture": "栃木県",
    "prefecture_kana": "トチギケン",
    "prefecture_code": 9,
    "city": "栃木市",
    "city_kana": "トチギシ",
    "town": "錦町",
    "town_kana": "ニシキチョウ",
    "street": null,
    "office_name": null,
    "office_name_kana": null
  },
  "0021": {
    "zip_code": "3280021",
    "prefecture": "栃木県",
    "prefecture_kana": "トチギケン",
    "prefecture_code": 9,
    "city": "栃木市",
    "city_kana": "トチギシ",
    "town": "久保田町",
    "town_kana": "クボタマチ",
    "street": null,
    "office_name": null,
    "office_name_kana": null
  },
  "0022": {
    "zip_code": "3280022",
    "prefecture": "栃木県",
    "prefecture_kana": "トチギケン",
    "prefecture_code": 9,
    "city": "栃木市",
    "city_kana": "トチギシ",
    "town": "宮田町",
    "town_kana": "ミヤタマチ",
    "street": null,
    "office_name": null,
    "office_name_kana": null
  },
  "0023": {
    "zip_code": "3280023",
    "prefecture": "栃木県",
    "prefecture_kana": "トチギケン",
    "prefecture_code": 9,
    "city": "栃木市",
    "city_kana": "トチギシ",
    "town": "高谷町",
    "town_kana": "コウヤマチ",
    "street": null,
    "office_name": null,
    "office_name_kana": null
  },
  "0024": {
    "zip_code": "3280024",
    "prefecture": "栃木県",
    "prefecture_kana": "トチギケン",
    "prefecture_code": 9,
    "city": "栃木市",
    "city_kana": "トチギシ",
    "town": "樋ノ口町",
    "town_kana": "ヒノクチマチ",
    "street": null,
    "office_name": null,
    "office_name_kana": null
  },
  "0025": {
    "zip_code": "3280025",
    "prefecture": "栃木県",
    "prefecture_kana": "トチギケン",
    "prefecture_code": 9,
    "city": "栃木市",
    "city_kana": "トチギシ",
    "town": "仲仕上町",
    "town_kana": "ナカシアゲマチ",
    "street": null,
    "office_name": null,
    "office_name_kana": null
  },
  "0026": {
    "zip_code": "3280026",
    "prefecture": "栃木県",
    "prefecture_kana": "トチギケン",
    "prefecture_code": 9,
    "city": "栃木市",
    "city_kana": "トチギシ",
    "town": "藤田町",
    "town_kana": "フジタマチ",
    "street": null,
    "office_name": null,
    "office_name_kana": null
  },
  "0027": {
    "zip_code": "3280027",
    "prefecture": "栃木県",
    "prefecture_kana": "トチギケン",
    "prefecture_code": 9,
    "city": "栃木市",
    "city_kana": "トチギシ",
    "town": "今泉町",
    "town_kana": "イマイズミマチ",
    "street": null,
    "office_name": null,
    "office_name_kana": null
  },
  "0031": {
    "zip_code": "3280031",
    "prefecture": "栃木県",
    "prefecture_kana": "トチギケン",
    "prefecture_code": 9,
    "city": "栃木市",
    "city_kana": "トチギシ",
    "town": "日ノ出町",
    "town_kana": "ヒノデチョウ",
    "street": null,
    "office_name": null,
    "office_name_kana": null
  },
  "0032": {
    "zip_code": "3280032",
    "prefecture": "栃木県",
    "prefecture_kana": "トチギケン",
    "prefecture_code": 9,
    "city": "栃木市",
    "city_kana": "トチギシ",
    "town": "神田町",
    "town_kana": "カンダチョウ",
    "street": null,
    "office_name": null,
    "office_name_kana": null
  },
  "0033": {
    "zip_code": "3280033",
    "prefecture": "栃木県",
    "prefecture_kana": "トチギケン",
    "prefecture_code": 9,
    "city": "栃木市",
    "city_kana": "トチギシ",
    "town": "城内町",
    "town_kana": "ジョウナイチョウ",
    "street": null,
    "office_name": null,
    "office_name_kana": null
  },
  "0034": {
    "zip_code": "3280034",
    "prefecture": "栃木県",
    "prefecture_kana": "トチギケン",
    "prefecture_code": 9,
    "city": "栃木市",
    "city_kana": "トチギシ",
    "town": "本町",
    "town_kana": "ホンチョウ",
    "street": null,
    "office_name": null,
    "office_name_kana": null
  },
  "0035": {
    "zip_code": "3280035",
    "prefecture": "栃木県",
    "prefecture_kana": "トチギケン",
    "prefecture_code": 9,
    "city": "栃木市",
    "city_kana": "トチギシ",
    "town": "旭町",
    "town_kana": "アサヒチョウ",
    "street": null,
    "office_name": null,
    "office_name_kana": null
  },
  "0036": {
    "zip_code": "3280036",
    "prefecture": "栃木県",
    "prefecture_kana": "トチギケン",
    "prefecture_code": 9,
    "city": "栃木市",
    "city_kana": "トチギシ",
    "town": "室町",
    "town_kana": "ムロマチ",
    "street": null,
    "office_name": null,
    "office_name_kana": null
  },
  "0037": {
    "zip_code": "3280037",
    "prefecture": "栃木県",
    "prefecture_kana": "トチギケン",
    "prefecture_code": 9,
    "city": "栃木市",
    "city_kana": "トチギシ",
    "town": "倭町",
    "town_kana": "ヤマトチョウ",
    "street": null,
    "office_name": null,
    "office_name_kana": null
  },
  "0041": {
    "zip_code": "3280041",
    "prefecture": "栃木県",
    "prefecture_kana": "トチギケン",
    "prefecture_code": 9,
    "city": "栃木市",
    "city_kana": "トチギシ",
    "town": "河合町",
    "town_kana": "カワイチョウ",
    "street": null,
    "office_name": null,
    "office_name_kana": null
  },
  "0042": {
    "zip_code": "3280042",
    "prefecture": "栃木県",
    "prefecture_kana": "トチギケン",
    "prefecture_code": 9,
    "city": "栃木市",
    "city_kana": "トチギシ",
    "town": "沼和田町",
    "town_kana": "ヌマワダチョウ",
    "street": null,
    "office_name": null,
    "office_name_kana": null
  },
  "0043": {
    "zip_code": "3280043",
    "prefecture": "栃木県",
    "prefecture_kana": "トチギケン",
    "prefecture_code": 9,
    "city": "栃木市",
    "city_kana": "トチギシ",
    "town": "境町",
    "town_kana": "サカイチョウ",
    "street": null,
    "office_name": null,
    "office_name_kana": null
  },
  "0044": {
    "zip_code": "3280044",
    "prefecture": "栃木県",
    "prefecture_kana": "トチギケン",
    "prefecture_code": 9,
    "city": "栃木市",
    "city_kana": "トチギシ",
    "town": "富士見町",
    "town_kana": "フジミチョウ",
    "street": null,
    "office_name": null,
    "office_name_kana": null
  },
  "0045": {
    "zip_code": "3280045",
    "prefecture": "栃木県",
    "prefecture_kana": "トチギケン",
    "prefecture_code": 9,
    "city": "栃木市",
    "city_kana": "トチギシ",
    "town": "湊町",
    "town_kana": "ミナトチョウ",
    "street": null,
    "office_name": null,
    "office_name_kana": null
  },
  "0051": {
    "zip_code": "3280051",
    "prefecture": "栃木県",
    "prefecture_kana": "トチギケン",
    "prefecture_code": 9,
    "city": "栃木市",
    "city_kana": "トチギシ",
    "town": "柳橋町",
    "town_kana": "ヤナギバシチョウ",
    "street": null,
    "office_name": null,
    "office_name_kana": null
  },
  "0052": {
    "zip_code": "3280052",
    "prefecture": "栃木県",
    "prefecture_kana": "トチギケン",
    "prefecture_code": 9,
    "city": "栃木市",
    "city_kana": "トチギシ",
    "town": "祝町",
    "town_kana": "イワイチョウ",
    "street": null,
    "office_name": null,
    "office_name_kana": null
  },
  "0053": {
    "zip_code": "3280053",
    "prefecture": "栃木県",
    "prefecture_kana": "トチギケン",
    "prefecture_code": 9,
    "city": "栃木市",
    "city_kana": "トチギシ",
    "town": "片柳町",
    "town_kana": "カタヤナギチョウ",
    "street": null,
    "office_name": null,
    "office_name_kana": null
  },
  "0054": {
    "zip_code": "3280054",
    "prefecture": "栃木県",
    "prefecture_kana": "トチギケン",
    "prefecture_code": 9,
    "city": "栃木市",
    "city_kana": "トチギシ",
    "town": "平井町",
    "town_kana": "ヒライチョウ",
    "street": null,
    "office_name": null,
    "office_name_kana": null
  },
  "0061": {
    "zip_code": "3280061",
    "prefecture": "栃木県",
    "prefecture_kana": "トチギケン",
    "prefecture_code": 9,
    "city": "栃木市",
    "city_kana": "トチギシ",
    "town": "新井町",
    "town_kana": "アライマチ",
    "street": null,
    "office_name": null,
    "office_name_kana": null
  },
  "0062": {
    "zip_code": "3280062",
    "prefecture": "栃木県",
    "prefecture_kana": "トチギケン",
    "prefecture_code": 9,
    "city": "栃木市",
    "city_kana": "トチギシ",
    "town": "泉川町",
    "town_kana": "イズミガワマチ",
    "street": null,
    "office_name": null,
    "office_name_kana": null
  },
  "0063": {
    "zip_code": "3280063",
    "prefecture": "栃木県",
    "prefecture_kana": "トチギケン",
    "prefecture_code": 9,
    "city": "栃木市",
    "city_kana": "トチギシ",
    "town": "岩出町",
    "town_kana": "イワデマチ",
    "street": null,
    "office_name": null,
    "office_name_kana": null
  },
  "0064": {
    "zip_code": "3280064",
    "prefecture": "栃木県",
    "prefecture_kana": "トチギケン",
    "prefecture_code": 9,
    "city": "栃木市",
    "city_kana": "トチギシ",
    "town": "志鳥町",
    "town_kana": "シトリマチ",
    "street": null,
    "office_name": null,
    "office_name_kana": null
  },
  "0065": {
    "zip_code": "3280065",
    "prefecture": "栃木県",
    "prefecture_kana": "トチギケン",
    "prefecture_code": 9,
    "city": "栃木市",
    "city_kana": "トチギシ",
    "town": "小野口町",
    "town_kana": "オノグチマチ",
    "street": null,
    "office_name": null,
    "office_name_kana": null
  },
  "0066": {
    "zip_code": "3280066",
    "prefecture": "栃木県",
    "prefecture_kana": "トチギケン",
    "prefecture_code": 9,
    "city": "栃木市",
    "city_kana": "トチギシ",
    "town": "柏倉町",
    "town_kana": "カシワグラマチ",
    "street": null,
    "office_name": null,
    "office_name_kana": null
  },
  "0067": {
    "zip_code": "3280067",
    "prefecture": "栃木県",
    "prefecture_kana": "トチギケン",
    "prefecture_code": 9,
    "city": "栃木市",
    "city_kana": "トチギシ",
    "town": "皆川城内町",
    "town_kana": "ミナガワジョウナイマチ",
    "street": null,
    "office_name": null,
    "office_name_kana": null
  },
  "0068": {
    "zip_code": "3280068",
    "prefecture": "栃木県",
    "prefecture_kana": "トチギケン",
    "prefecture_code": 9,
    "city": "栃木市",
    "city_kana": "トチギシ",
    "town": "大皆川町",
    "town_kana": "オオミナガワマチ",
    "street": null,
    "office_name": null,
    "office_name_kana": null
  },
  "0071": {
    "zip_code": "3280071",
    "prefecture": "栃木県",
    "prefecture_kana": "トチギケン",
    "prefecture_code": 9,
    "city": "栃木市",
    "city_kana": "トチギシ",
    "town": "大町",
    "town_kana": "ダイチョウ",
    "street": null,
    "office_name": null,
    "office_name_kana": null
  },
  "0072": {
    "zip_code": "3280072",
    "prefecture": "栃木県",
    "prefecture_kana": "トチギケン",
    "prefecture_code": 9,
    "city": "栃木市",
    "city_kana": "トチギシ",
    "town": "嘉右衛門町",
    "town_kana": "カウエモンチョウ",
    "street": null,
    "office_name": null,
    "office_name_kana": null
  },
  "0073": {
    "zip_code": "3280073",
    "prefecture": "栃木県",
    "prefecture_kana": "トチギケン",
    "prefecture_code": 9,
    "city": "栃木市",
    "city_kana": "トチギシ",
    "town": "小平町",
    "town_kana": "コヒラチョウ",
    "street": null,
    "office_name": null,
    "office_name_kana": null
  },
  "0074": {
    "zip_code": "3280074",
    "prefecture": "栃木県",
    "prefecture_kana": "トチギケン",
    "prefecture_code": 9,
    "city": "栃木市",
    "city_kana": "トチギシ",
    "town": "薗部町",
    "town_kana": "ソノベチョウ",
    "street": null,
    "office_name": null,
    "office_name_kana": null
  },
  "0075": {
    "zip_code": "3280075",
    "prefecture": "栃木県",
    "prefecture_kana": "トチギケン",
    "prefecture_code": 9,
    "city": "栃木市",
    "city_kana": "トチギシ",
    "town": "箱森町",
    "town_kana": "ハコノモリマチ",
    "street": null,
    "office_name": null,
    "office_name_kana": null
  },
  "0101": {
    "zip_code": "3280101",
    "prefecture": "栃木県",
    "prefecture_kana": "トチギケン",
    "prefecture_code": 9,
    "city": "栃木市",
    "city_kana": "トチギシ",
    "town": "都賀町大柿",
    "town_kana": "ツガマチオオガキ",
    "street": null,
    "office_name": null,
    "office_name_kana": null
  },
  "0102": {
    "zip_code": "3280102",
    "prefecture": "栃木県",
    "prefecture_kana": "トチギケン",
    "prefecture_code": 9,
    "city": "栃木市",
    "city_kana": "トチギシ",
    "town": "都賀町富張",
    "town_kana": "ツガマチトミハリ",
    "street": null,
    "office_name": null,
    "office_name_kana": null
  },
  "0103": {
    "zip_code": "3280103",
    "prefecture": "栃木県",
    "prefecture_kana": "トチギケン",
    "prefecture_code": 9,
    "city": "栃木市",
    "city_kana": "トチギシ",
    "town": "都賀町原宿",
    "town_kana": "ツガマチハラジュク",
    "street": null,
    "office_name": null,
    "office_name_kana": null
  },
  "0104": {
    "zip_code": "3280104",
    "prefecture": "栃木県",
    "prefecture_kana": "トチギケン",
    "prefecture_code": 9,
    "city": "栃木市",
    "city_kana": "トチギシ",
    "town": "都賀町木",
    "town_kana": "ツガマチキ",
    "street": null,
    "office_name": null,
    "office_name_kana": null
  },
  "0105": {
    "zip_code": "3280105",
    "prefecture": "栃木県",
    "prefecture_kana": "トチギケン",
    "prefecture_code": 9,
    "city": "栃木市",
    "city_kana": "トチギシ",
    "town": "都賀町臼久保",
    "town_kana": "ツガマチウスクボ",
    "street": null,
    "office_name": null,
    "office_name_kana": null
  },
  "0106": {
    "zip_code": "3280106",
    "prefecture": "栃木県",
    "prefecture_kana": "トチギケン",
    "prefecture_code": 9,
    "city": "栃木市",
    "city_kana": "トチギシ",
    "town": "都賀町大橋",
    "town_kana": "ツガマチオオハシ",
    "street": null,
    "office_name": null,
    "office_name_kana": null
  },
  "0107": {
    "zip_code": "3280107",
    "prefecture": "栃木県",
    "prefecture_kana": "トチギケン",
    "prefecture_code": 9,
    "city": "栃木市",
    "city_kana": "トチギシ",
    "town": "都賀町深沢",
    "town_kana": "ツガマチフカサワ",
    "street": null,
    "office_name": null,
    "office_name_kana": null
  },
  "0111": {
    "zip_code": "3280111",
    "prefecture": "栃木県",
    "prefecture_kana": "トチギケン",
    "prefecture_code": 9,
    "city": "栃木市",
    "city_kana": "トチギシ",
    "town": "都賀町家中",
    "town_kana": "ツガマチイエナカ",
    "street": null,
    "office_name": null,
    "office_name_kana": null
  },
  "0112": {
    "zip_code": "3280112",
    "prefecture": "栃木県",
    "prefecture_kana": "トチギケン",
    "prefecture_code": 9,
    "city": "栃木市",
    "city_kana": "トチギシ",
    "town": "都賀町平川",
    "town_kana": "ツガマチヒラカワ",
    "street": null,
    "office_name": null,
    "office_name_kana": null
  },
  "0113": {
    "zip_code": "3280113",
    "prefecture": "栃木県",
    "prefecture_kana": "トチギケン",
    "prefecture_code": 9,
    "city": "栃木市",
    "city_kana": "トチギシ",
    "town": "都賀町合戦場",
    "town_kana": "ツガマチカッセンバ",
    "street": null,
    "office_name": null,
    "office_name_kana": null
  },
  "0114": {
    "zip_code": "3280114",
    "prefecture": "栃木県",
    "prefecture_kana": "トチギケン",
    "prefecture_code": 9,
    "city": "栃木市",
    "city_kana": "トチギシ",
    "town": "都賀町升塚",
    "town_kana": "ツガマチマスヅカ",
    "street": null,
    "office_name": null,
    "office_name_kana": null
  },
  "0121": {
    "zip_code": "3280121",
    "prefecture": "栃木県",
    "prefecture_kana": "トチギケン",
    "prefecture_code": 9,
    "city": "栃木市",
    "city_kana": "トチギシ",
    "town": "細堀町",
    "town_kana": "ホソボリマチ",
    "street": null,
    "office_name": null,
    "office_name_kana": null
  },
  "0122": {
    "zip_code": "3280122",
    "prefecture": "栃木県",
    "prefecture_kana": "トチギケン",
    "prefecture_code": 9,
    "city": "栃木市",
    "city_kana": "トチギシ",
    "town": "木野地町",
    "town_kana": "キノジマチ",
    "street": null,
    "office_name": null,
    "office_name_kana": null
  },
  "0123": {
    "zip_code": "3280123",
    "prefecture": "栃木県",
    "prefecture_kana": "トチギケン",
    "prefecture_code": 9,
    "city": "栃木市",
    "city_kana": "トチギシ",
    "town": "川原田町",
    "town_kana": "カワラダマチ",
    "street": null,
    "office_name": null,
    "office_name_kana": null
  },
  "0124": {
    "zip_code": "3280124",
    "prefecture": "栃木県",
    "prefecture_kana": "トチギケン",
    "prefecture_code": 9,
    "city": "栃木市",
    "city_kana": "トチギシ",
    "town": "野中町",
    "town_kana": "ノナカマチ",
    "street": null,
    "office_name": null,
    "office_name_kana": null
  },
  "0125": {
    "zip_code": "3280125",
    "prefecture": "栃木県",
    "prefecture_kana": "トチギケン",
    "prefecture_code": 9,
    "city": "栃木市",
    "city_kana": "トチギシ",
    "town": "吹上町",
    "town_kana": "フキアゲマチ",
    "street": null,
    "office_name": null,
    "office_name_kana": null
  },
  "0131": {
    "zip_code": "3280131",
    "prefecture": "栃木県",
    "prefecture_kana": "トチギケン",
    "prefecture_code": 9,
    "city": "栃木市",
    "city_kana": "トチギシ",
    "town": "梓町",
    "town_kana": "アズサマチ",
    "street": null,
    "office_name": null,
    "office_name_kana": null
  },
  "0132": {
    "zip_code": "3280132",
    "prefecture": "栃木県",
    "prefecture_kana": "トチギケン",
    "prefecture_code": 9,
    "city": "栃木市",
    "city_kana": "トチギシ",
    "town": "仲方町",
    "town_kana": "ナカガタマチ",
    "street": null,
    "office_name": null,
    "office_name_kana": null
  },
  "0133": {
    "zip_code": "3280133",
    "prefecture": "栃木県",
    "prefecture_kana": "トチギケン",
    "prefecture_code": 9,
    "city": "栃木市",
    "city_kana": "トチギシ",
    "town": "大森町",
    "town_kana": "オオモリマチ",
    "street": null,
    "office_name": null,
    "office_name_kana": null
  },
  "0134": {
    "zip_code": "3280134",
    "prefecture": "栃木県",
    "prefecture_kana": "トチギケン",
    "prefecture_code": 9,
    "city": "栃木市",
    "city_kana": "トチギシ",
    "town": "宮町",
    "town_kana": "ミヤマチ",
    "street": null,
    "office_name": null,
    "office_name_kana": null
  },
  "0135": {
    "zip_code": "3280135",
    "prefecture": "栃木県",
    "prefecture_kana": "トチギケン",
    "prefecture_code": 9,
    "city": "栃木市",
    "city_kana": "トチギシ",
    "town": "千塚町",
    "town_kana": "チヅカマチ",
    "street": null,
    "office_name": null,
    "office_name_kana": null
  },
  "0192": {
    "zip_code": "3280192",
    "prefecture": "栃木県",
    "prefecture_kana": "トチギケン",
    "prefecture_code": 9,
    "city": "栃木市",
    "city_kana": "トチギシ",
    "town": "都賀町家中",
    "town_kana": "ツガマチイエナカ",
    "street": "５９８２番地１",
    "office_name": "栃木市役所　都賀総合支所",
    "office_name_kana": "トチギシヤクシヨ ツガソウゴウシシヨ"
  },
  "0201": {
    "zip_code": "3280201",
    "prefecture": "栃木県",
    "prefecture_kana": "トチギケン",
    "prefecture_code": 9,
    "city": "栃木市",
    "city_kana": "トチギシ",
    "town": "星野町",
    "town_kana": "ホシノマチ",
    "street": null,
    "office_name": null,
    "office_name_kana": null
  },
  "0202": {
    "zip_code": "3280202",
    "prefecture": "栃木県",
    "prefecture_kana": "トチギケン",
    "prefecture_code": 9,
    "city": "栃木市",
    "city_kana": "トチギシ",
    "town": "大久保町",
    "town_kana": "オオクボマチ",
    "street": null,
    "office_name": null,
    "office_name_kana": null
  },
  "0203": {
    "zip_code": "3280203",
    "prefecture": "栃木県",
    "prefecture_kana": "トチギケン",
    "prefecture_code": 9,
    "city": "栃木市",
    "city_kana": "トチギシ",
    "town": "尻内町",
    "town_kana": "シリウチマチ",
    "street": null,
    "office_name": null,
    "office_name_kana": null
  },
  "0204": {
    "zip_code": "3280204",
    "prefecture": "栃木県",
    "prefecture_kana": "トチギケン",
    "prefecture_code": 9,
    "city": "栃木市",
    "city_kana": "トチギシ",
    "town": "梅沢町",
    "town_kana": "ウメザワマチ",
    "street": null,
    "office_name": null,
    "office_name_kana": null
  },
  "0205": {
    "zip_code": "3280205",
    "prefecture": "栃木県",
    "prefecture_kana": "トチギケン",
    "prefecture_code": 9,
    "city": "栃木市",
    "city_kana": "トチギシ",
    "town": "鍋山町",
    "town_kana": "ナベヤママチ",
    "street": null,
    "office_name": null,
    "office_name_kana": null
  },
  "0206": {
    "zip_code": "3280206",
    "prefecture": "栃木県",
    "prefecture_kana": "トチギケン",
    "prefecture_code": 9,
    "city": "栃木市",
    "city_kana": "トチギシ",
    "town": "出流町",
    "town_kana": "イズルマチ",
    "street": null,
    "office_name": null,
    "office_name_kana": null
  },
  "0211": {
    "zip_code": "3280211",
    "prefecture": "栃木県",
    "prefecture_kana": "トチギケン",
    "prefecture_code": 9,
    "city": "鹿沼市",
    "city_kana": "カヌマシ",
    "town": "上永野",
    "town_kana": "カミナガノ",
    "street": null,
    "office_name": null,
    "office_name_kana": null
  },
  "0212": {
    "zip_code": "3280212",
    "prefecture": "栃木県",
    "prefecture_kana": "トチギケン",
    "prefecture_code": 9,
    "city": "鹿沼市",
    "city_kana": "カヌマシ",
    "town": "下永野",
    "town_kana": "シモナガノ",
    "street": null,
    "office_name": null,
    "office_name_kana": null
  },
  "0221": [
    {
      "zip_code": "3280221",
      "prefecture": "栃木県",
      "prefecture_kana": "トチギケン",
      "prefecture_code": 9,
      "city": "佐野市",
      "city_kana": "サノシ",
      "town": "仙波町",
      "town_kana": "センバチョウ",
      "street": null,
      "office_name": null,
      "office_name_kana": null
    },
    {
      "zip_code": "3280221",
      "prefecture": "栃木県",
      "prefecture_kana": "トチギケン",
      "prefecture_code": 9,
      "city": "佐野市",
      "city_kana": "サノシ",
      "town": "仙波町坂東",
      "town_kana": "センバチョウバンドウ",
      "street": null,
      "office_name": null,
      "office_name_kana": null
    },
    {
      "zip_code": "3280221",
      "prefecture": "栃木県",
      "prefecture_kana": "トチギケン",
      "prefecture_code": 9,
      "city": "佐野市",
      "city_kana": "サノシ",
      "town": "仙波町松ケ坂",
      "town_kana": "センバチョウマツガサカ",
      "street": null,
      "office_name": null,
      "office_name_kana": null
    }
  ],
  "8501": {
    "zip_code": "3288501",
    "prefecture": "栃木県",
    "prefecture_kana": "トチギケン",
    "prefecture_code": 9,
    "city": "栃木市",
    "city_kana": "トチギシ",
    "town": "箱森町",
    "town_kana": "ハコノモリマチ",
    "street": "３７−９",
    "office_name": "イオン　（株）　ジャスコ栃木店",
    "office_name_kana": "イオン カブシキガイシヤ ジヤスコ トチギテン"
  },
  "8502": {
    "zip_code": "3288502",
    "prefecture": "栃木県",
    "prefecture_kana": "トチギケン",
    "prefecture_code": 9,
    "city": "栃木市",
    "city_kana": "トチギシ",
    "town": "大宮町",
    "town_kana": "オオミヤマチ",
    "street": "２３８８番地",
    "office_name": "ＧＫＮドライブラインジャパン　株式会社",
    "office_name_kana": "ジ-ケ-エヌドライブラインジヤパン カブシキカイシヤ"
  },
  "8503": {
    "zip_code": "3288503",
    "prefecture": "栃木県",
    "prefecture_kana": "トチギケン",
    "prefecture_code": 9,
    "city": "栃木市",
    "city_kana": "トチギシ",
    "town": "国府町",
    "town_kana": "コウマチ",
    "street": "１",
    "office_name": "三井鉱山　株式会社　栃木事業所",
    "office_name_kana": "ミツイコウザン カブシキガイシヤ トチギジギヨウシヨ"
  },
  "8504": {
    "zip_code": "3288504",
    "prefecture": "栃木県",
    "prefecture_kana": "トチギケン",
    "prefecture_code": 9,
    "city": "栃木市",
    "city_kana": "トチギシ",
    "town": "神田町",
    "town_kana": "カンダチョウ",
    "street": "６−６",
    "office_name": "栃木県税事務所",
    "office_name_kana": "トチギケンゼイジムシヨ"
  },
  "8533": {
    "zip_code": "3288533",
    "prefecture": "栃木県",
    "prefecture_kana": "トチギケン",
    "prefecture_code": 9,
    "city": "栃木市",
    "city_kana": "トチギシ",
    "town": "城内町",
    "town_kana": "ジョウナイチョウ",
    "street": "１−２−１２",
    "office_name": "栃木年金事務所",
    "office_name_kana": "トチギネンキンジムシヨ"
  },
  "8550": {
    "zip_code": "3288550",
    "prefecture": "栃木県",
    "prefecture_kana": "トチギケン",
    "prefecture_code": 9,
    "city": "栃木市",
    "city_kana": "トチギシ",
    "town": "惣社町",
    "town_kana": "ソウジャマチ",
    "street": "２４８４",
    "office_name": "栃木刑務所",
    "office_name_kana": "トチギケイムシヨ"
  },
  "8555": {
    "zip_code": "3288555",
    "prefecture": "栃木県",
    "prefecture_kana": "トチギケン",
    "prefecture_code": 9,
    "city": "栃木市",
    "city_kana": "トチギシ",
    "town": "沼和田町",
    "town_kana": "ヌマワダチョウ",
    "street": "２３−５",
    "office_name": "岩下食品　株式会社",
    "office_name_kana": "イワシタシヨクヒン カブシキガイシヤ"
  },
  "8556": {
    "zip_code": "3288556",
    "prefecture": "栃木県",
    "prefecture_kana": "トチギケン",
    "prefecture_code": 9,
    "city": "栃木市",
    "city_kana": "トチギシ",
    "town": "国府町",
    "town_kana": "コウマチ",
    "street": "１５０",
    "office_name": "不二ラテックス　株式会社　栃木工場",
    "office_name_kana": "フジラテツクス カブシキガイシヤ トチギコウジヨウ"
  },
  "8558": {
    "zip_code": "3288558",
    "prefecture": "栃木県",
    "prefecture_kana": "トチギケン",
    "prefecture_code": 9,
    "city": "栃木市",
    "city_kana": "トチギシ",
    "town": "河合町",
    "town_kana": "カワイチョウ",
    "street": "１２番２号",
    "office_name": "栃木県立学悠館高等学校",
    "office_name_kana": "トチギケンリツ ガクユウカン コウトウガツコウ"
  },
  "8585": {
    "zip_code": "3288585",
    "prefecture": "栃木県",
    "prefecture_kana": "トチギケン",
    "prefecture_code": 9,
    "city": "栃木市",
    "city_kana": "トチギシ",
    "town": "片柳町",
    "town_kana": "カタヤナギチョウ",
    "street": "２丁目１−４６",
    "office_name": "栃木商工会議所",
    "office_name_kana": "トチギシヨウコウカイギシヨ"
  },
  "8586": {
    "zip_code": "3288586",
    "prefecture": "栃木県",
    "prefecture_kana": "トチギケン",
    "prefecture_code": 9,
    "city": "栃木市",
    "city_kana": "トチギシ",
    "town": "泉川町",
    "town_kana": "イズミガワマチ",
    "street": "５５６",
    "office_name": "滝沢ハム　株式会社",
    "office_name_kana": "タキザワハム カブシキガイシヤ"
  },
  "8588": {
    "zip_code": "3288588",
    "prefecture": "栃木県",
    "prefecture_kana": "トチギケン",
    "prefecture_code": 9,
    "city": "栃木市",
    "city_kana": "トチギシ",
    "town": "平井町",
    "town_kana": "ヒライチョウ",
    "street": "６０８",
    "office_name": "國學院大學栃木学園",
    "office_name_kana": "コクガクインダイガクトチギガクエン"
  },
  "8666": {
    "zip_code": "3288666",
    "prefecture": "栃木県",
    "prefecture_kana": "トチギケン",
    "prefecture_code": 9,
    "city": "栃木市",
    "city_kana": "トチギシ",
    "town": "本町",
    "town_kana": "ホンチョウ",
    "street": "１７−７（栃木郵便局私書箱第２号）",
    "office_name": "栃木　税務署",
    "office_name_kana": "トチギ ゼイムシヨ"
  },
  "8668": {
    "zip_code": "3288668",
    "prefecture": "栃木県",
    "prefecture_kana": "トチギケン",
    "prefecture_code": 9,
    "city": "栃木市",
    "city_kana": "トチギシ",
    "town": "倭町",
    "town_kana": "ヤマトチョウ",
    "street": "１１−１（栃木郵便局私書箱第５号）",
    "office_name": "株式会社　足利銀行　栃木支店",
    "office_name_kana": "カブシキガイシヤ アシカガギンコウ トチギシテン"
  },
  "8686": {
    "zip_code": "3288686",
    "prefecture": "栃木県",
    "prefecture_kana": "トチギケン",
    "prefecture_code": 9,
    "city": "栃木市",
    "city_kana": "トチギシ",
    "town": "万町",
    "town_kana": "ヨロズチョウ",
    "street": "９番２５号",
    "office_name": "栃木市役所",
    "office_name_kana": "トチギシヤクシヨ"
  }
}