{
  "0000": {
    "zip_code": "3370000",
    "prefecture": "埼玉県",
    "prefecture_kana": "サイタマケン",
    "prefecture_code": "11",
    "city": "さいたま市見沼区",
    "city_kana": "サイタマシミヌマク",
    "town": "",
    "town_kana": "",
    "street": null,
    "office_name": null,
    "office_name_kana": null
  },
  "0001": {
    "zip_code": "3370001",
    "prefecture": "埼玉県",
    "prefecture_kana": "サイタマケン",
    "prefecture_code": "11",
    "city": "さいたま市見沼区",
    "city_kana": "サイタマシミヌマク",
    "town": "丸ケ崎",
    "town_kana": "マルガサキ",
    "street": null,
    "office_name": null,
    "office_name_kana": null
  },
  "0002": {
    "zip_code": "3370002",
    "prefecture": "埼玉県",
    "prefecture_kana": "サイタマケン",
    "prefecture_code": "11",
    "city": "さいたま市見沼区",
    "city_kana": "サイタマシミヌマク",
    "town": "春野",
    "town_kana": "ハルノ",
    "street": null,
    "office_name": null,
    "office_name_kana": null
  },
  "0003": {
    "zip_code": "3370003",
    "prefecture": "埼玉県",
    "prefecture_kana": "サイタマケン",
    "prefecture_code": "11",
    "city": "さいたま市見沼区",
    "city_kana": "サイタマシミヌマク",
    "town": "深作",
    "town_kana": "フカサク",
    "street": null,
    "office_name": null,
    "office_name_kana": null
  },
  "0004": {
    "zip_code": "3370004",
    "prefecture": "埼玉県",
    "prefecture_kana": "サイタマケン",
    "prefecture_code": "11",
    "city": "さいたま市見沼区",
    "city_kana": "サイタマシミヌマク",
    "town": "卸町",
    "town_kana": "オロシチョウ",
    "street": null,
    "office_name": null,
    "office_name_kana": null
  },
  "0005": {
    "zip_code": "3370005",
    "prefecture": "埼玉県",
    "prefecture_kana": "サイタマケン",
    "prefecture_code": "11",
    "city": "さいたま市見沼区",
    "city_kana": "サイタマシミヌマク",
    "town": "小深作",
    "town_kana": "コフカサク",
    "street": null,
    "office_name": null,
    "office_name_kana": null
  },
  "0006": {
    "zip_code": "3370006",
    "prefecture": "埼玉県",
    "prefecture_kana": "サイタマケン",
    "prefecture_code": "11",
    "city": "さいたま市見沼区",
    "city_kana": "サイタマシミヌマク",
    "town": "島町",
    "town_kana": "シマチョウ",
    "street": null,
    "office_name": null,
    "office_name_kana": null
  },
  "0007": {
    "zip_code": "3370007",
    "prefecture": "埼玉県",
    "prefecture_kana": "サイタマケン",
    "prefecture_code": "11",
    "city": "さいたま市見沼区",
    "city_kana": "サイタマシミヌマク",
    "town": "丸ケ崎町",
    "town_kana": "マルガサキチョウ",
    "street": null,
    "office_name": null,
    "office_name_kana": null
  },
  "0008": {
    "zip_code": "3370008",
    "prefecture": "埼玉県",
    "prefecture_kana": "サイタマケン",
    "prefecture_code": "11",
    "city": "さいたま市見沼区",
    "city_kana": "サイタマシミヌマク",
    "town": "春岡",
    "town_kana": "ハルオカ",
    "street": null,
    "office_name": null,
    "office_name_kana": null
  },
  "0011": {
    "zip_code": "3370011",
    "prefecture": "埼玉県",
    "prefecture_kana": "サイタマケン",
    "prefecture_code": "11",
    "city": "さいたま市見沼区",
    "city_kana": "サイタマシミヌマク",
    "town": "宮ケ谷塔",
    "town_kana": "ミヤガヤトウ",
    "street": null,
    "office_name": null,
    "office_name_kana": null
  },
  "0012": {
    "zip_code": "3370012",
    "prefecture": "埼玉県",
    "prefecture_kana": "サイタマケン",
    "prefecture_code": "11",
    "city": "さいたま市見沼区",
    "city_kana": "サイタマシミヌマク",
    "town": "東宮下",
    "town_kana": "ヒガシミヤシタ",
    "street": null,
    "office_name": null,
    "office_name_kana": null
  },
  "0013": {
    "zip_code": "3370013",
    "prefecture": "埼玉県",
    "prefecture_kana": "サイタマケン",
    "prefecture_code": "11",
    "city": "さいたま市見沼区",
    "city_kana": "サイタマシミヌマク",
    "town": "新堤",
    "town_kana": "ニイヅツミ",
    "street": null,
    "office_name": null,
    "office_name_kana": null
  },
  "0014": {
    "zip_code": "3370014",
    "prefecture": "埼玉県",
    "prefecture_kana": "サイタマケン",
    "prefecture_code": "11",
    "city": "さいたま市見沼区",
    "city_kana": "サイタマシミヌマク",
    "town": "大谷",
    "town_kana": "オオヤ",
    "street": null,
    "office_name": null,
    "office_name_kana": null
  },
  "0015": {
    "zip_code": "3370015",
    "prefecture": "埼玉県",
    "prefecture_kana": "サイタマケン",
    "prefecture_code": "11",
    "city": "さいたま市見沼区",
    "city_kana": "サイタマシミヌマク",
    "town": "蓮沼",
    "town_kana": "ハスヌマ",
    "street": null,
    "office_name": null,
    "office_name_kana": null
  },
  "0016": {
    "zip_code": "3370016",
    "prefecture": "埼玉県",
    "prefecture_kana": "サイタマケン",
    "prefecture_code": "11",
    "city": "さいたま市見沼区",
    "city_kana": "サイタマシミヌマク",
    "town": "東門前",
    "town_kana": "ヒガシモンゼン",
    "street": null,
    "office_name": null,
    "office_name_kana": null
  },
  "0017": {
    "zip_code": "3370017",
    "prefecture": "埼玉県",
    "prefecture_kana": "サイタマケン",
    "prefecture_code": "11",
    "city": "さいたま市見沼区",
    "city_kana": "サイタマシミヌマク",
    "town": "風渡野",
    "town_kana": "フットノ",
    "street": null,
    "office_name": null,
    "office_name_kana": null
  },
  "0021": {
    "zip_code": "3370021",
    "prefecture": "埼玉県",
    "prefecture_kana": "サイタマケン",
    "prefecture_code": "11",
    "city": "さいたま市見沼区",
    "city_kana": "サイタマシミヌマク",
    "town": "膝子",
    "town_kana": "ヒザコ",
    "street": null,
    "office_name": null,
    "office_name_kana": null
  },
  "0022": {
    "zip_code": "3370022",
    "prefecture": "埼玉県",
    "prefecture_kana": "サイタマケン",
    "prefecture_code": "11",
    "city": "さいたま市見沼区",
    "city_kana": "サイタマシミヌマク",
    "town": "加田屋",
    "town_kana": "カタヤ",
    "street": null,
    "office_name": null,
    "office_name_kana": null
  },
  "0023": {
    "zip_code": "3370023",
    "prefecture": "埼玉県",
    "prefecture_kana": "サイタマケン",
    "prefecture_code": "11",
    "city": "さいたま市見沼区",
    "city_kana": "サイタマシミヌマク",
    "town": "片柳東",
    "town_kana": "カタヤナギヒガシ",
    "street": null,
    "office_name": null,
    "office_name_kana": null
  },
  "0024": {
    "zip_code": "3370024",
    "prefecture": "埼玉県",
    "prefecture_kana": "サイタマケン",
    "prefecture_code": "11",
    "city": "さいたま市見沼区",
    "city_kana": "サイタマシミヌマク",
    "town": "片柳",
    "town_kana": "カタヤナギ",
    "street": null,
    "office_name": null,
    "office_name_kana": null
  },
  "0025": {
    "zip_code": "3370025",
    "prefecture": "埼玉県",
    "prefecture_kana": "サイタマケン",
    "prefecture_code": "11",
    "city": "さいたま市見沼区",
    "city_kana": "サイタマシミヌマク",
    "town": "山",
    "town_kana": "ヤマ",
    "street": null,
    "office_name": null,
    "office_name_kana": null
  },
  "0026": {
    "zip_code": "3370026",
    "prefecture": "埼玉県",
    "prefecture_kana": "サイタマケン",
    "prefecture_code": "11",
    "city": "さいたま市見沼区",
    "city_kana": "サイタマシミヌマク",
    "town": "染谷",
    "town_kana": "ソメヤ",
    "street": null,
    "office_name": null,
    "office_name_kana": null
  },
  "0027": {
    "zip_code": "3370027",
    "prefecture": "埼玉県",
    "prefecture_kana": "サイタマケン",
    "prefecture_code": "11",
    "city": "さいたま市見沼区",
    "city_kana": "サイタマシミヌマク",
    "town": "加田屋新田",
    "town_kana": "カタヤシンデン",
    "street": null,
    "office_name": null,
    "office_name_kana": null
  },
  "0031": {
    "zip_code": "3370031",
    "prefecture": "埼玉県",
    "prefecture_kana": "サイタマケン",
    "prefecture_code": "11",
    "city": "さいたま市見沼区",
    "city_kana": "サイタマシミヌマク",
    "town": "笹丸",
    "town_kana": "ササマル",
    "street": null,
    "office_name": null,
    "office_name_kana": null
  },
  "0032": {
    "zip_code": "3370032",
    "prefecture": "埼玉県",
    "prefecture_kana": "サイタマケン",
    "prefecture_code": "11",
    "city": "さいたま市見沼区",
    "city_kana": "サイタマシミヌマク",
    "town": "東新井",
    "town_kana": "ヒガシアライ",
    "street": null,
    "office_name": null,
    "office_name_kana": null
  },
  "0033": {
    "zip_code": "3370033",
    "prefecture": "埼玉県",
    "prefecture_kana": "サイタマケン",
    "prefecture_code": "11",
    "city": "さいたま市見沼区",
    "city_kana": "サイタマシミヌマク",
    "town": "御蔵",
    "town_kana": "ミクラ",
    "street": null,
    "office_name": null,
    "office_name_kana": null
  },
  "0034": {
    "zip_code": "3370034",
    "prefecture": "埼玉県",
    "prefecture_kana": "サイタマケン",
    "prefecture_code": "11",
    "city": "さいたま市見沼区",
    "city_kana": "サイタマシミヌマク",
    "town": "西山村新田",
    "town_kana": "ニシヤマムラシンデン",
    "street": null,
    "office_name": null,
    "office_name_kana": null
  },
  "0035": {
    "zip_code": "3370035",
    "prefecture": "埼玉県",
    "prefecture_kana": "サイタマケン",
    "prefecture_code": "11",
    "city": "さいたま市見沼区",
    "city_kana": "サイタマシミヌマク",
    "town": "西山新田",
    "town_kana": "ニシヤマシンデン",
    "street": null,
    "office_name": null,
    "office_name_kana": null
  },
  "0036": {
    "zip_code": "3370036",
    "prefecture": "埼玉県",
    "prefecture_kana": "サイタマケン",
    "prefecture_code": "11",
    "city": "さいたま市見沼区",
    "city_kana": "サイタマシミヌマク",
    "town": "見山",
    "town_kana": "ミヤマ",
    "street": null,
    "office_name": null,
    "office_name_kana": null
  },
  "0041": {
    "zip_code": "3370041",
    "prefecture": "埼玉県",
    "prefecture_kana": "サイタマケン",
    "prefecture_code": "11",
    "city": "さいたま市見沼区",
    "city_kana": "サイタマシミヌマク",
    "town": "南中丸",
    "town_kana": "ミナミナカマル",
    "street": null,
    "office_name": null,
    "office_name_kana": null
  },
  "0042": {
    "zip_code": "3370042",
    "prefecture": "埼玉県",
    "prefecture_kana": "サイタマケン",
    "prefecture_code": "11",
    "city": "さいたま市見沼区",
    "city_kana": "サイタマシミヌマク",
    "town": "南中野",
    "town_kana": "ミナミナカノ",
    "street": null,
    "office_name": null,
    "office_name_kana": null
  },
  "0043": {
    "zip_code": "3370043",
    "prefecture": "埼玉県",
    "prefecture_kana": "サイタマケン",
    "prefecture_code": "11",
    "city": "さいたま市見沼区",
    "city_kana": "サイタマシミヌマク",
    "town": "中川",
    "town_kana": "ナカガワ",
    "street": null,
    "office_name": null,
    "office_name_kana": null
  },
  "0044": {
    "zip_code": "3370044",
    "prefecture": "埼玉県",
    "prefecture_kana": "サイタマケン",
    "prefecture_code": "11",
    "city": "さいたま市見沼区",
    "city_kana": "サイタマシミヌマク",
    "town": "上山口新田",
    "town_kana": "カミヤマグチシンデン",
    "street": null,
    "office_name": null,
    "office_name_kana": null
  },
  "0045": {
    "zip_code": "3370045",
    "prefecture": "埼玉県",
    "prefecture_kana": "サイタマケン",
    "prefecture_code": "11",
    "city": "さいたま市見沼区",
    "city_kana": "サイタマシミヌマク",
    "town": "新右エ門新田",
    "town_kana": "シンウエモンシンデン",
    "street": null,
    "office_name": null,
    "office_name_kana": null
  },
  "0051": {
    "zip_code": "3370051",
    "prefecture": "埼玉県",
    "prefecture_kana": "サイタマケン",
    "prefecture_code": "11",
    "city": "さいたま市見沼区",
    "city_kana": "サイタマシミヌマク",
    "town": "東大宮",
    "town_kana": "ヒガシオオミヤ",
    "street": null,
    "office_name": null,
    "office_name_kana": null
  },
  "0052": {
    "zip_code": "3370052",
    "prefecture": "埼玉県",
    "prefecture_kana": "サイタマケン",
    "prefecture_code": "11",
    "city": "さいたま市見沼区",
    "city_kana": "サイタマシミヌマク",
    "town": "堀崎町",
    "town_kana": "ホリサキチョウ",
    "street": null,
    "office_name": null,
    "office_name_kana": null
  },
  "0053": {
    "zip_code": "3370053",
    "prefecture": "埼玉県",
    "prefecture_kana": "サイタマケン",
    "prefecture_code": "11",
    "city": "さいたま市見沼区",
    "city_kana": "サイタマシミヌマク",
    "town": "大和田町",
    "town_kana": "オオワダチョウ",
    "street": null,
    "office_name": null,
    "office_name_kana": null
  },
  "0054": {
    "zip_code": "3370054",
    "prefecture": "埼玉県",
    "prefecture_kana": "サイタマケン",
    "prefecture_code": "11",
    "city": "さいたま市見沼区",
    "city_kana": "サイタマシミヌマク",
    "town": "砂町",
    "town_kana": "スナチョウ",
    "street": null,
    "office_name": null,
    "office_name_kana": null
  },
  "8501": {
    "zip_code": "3378501",
    "prefecture": "埼玉県",
    "prefecture_kana": "サイタマケン",
    "prefecture_code": "11",
    "city": "さいたま市見沼区",
    "city_kana": "サイタマシミヌマク",
    "town": "風渡野",
    "town_kana": "フットノ",
    "street": "３５番地１",
    "office_name": "埼玉県大宮東警察署",
    "office_name_kana": "サイタマケンオオミヤヒガシケイサツシヨ"
  },
  "8502": {
    "zip_code": "3378502",
    "prefecture": "埼玉県",
    "prefecture_kana": "サイタマケン",
    "prefecture_code": "11",
    "city": "さいたま市見沼区",
    "city_kana": "サイタマシミヌマク",
    "town": "蓮沼",
    "town_kana": "ハスヌマ",
    "street": "１４０６",
    "office_name": "株式会社　日立国際八木ソリューションズ",
    "office_name_kana": "カブシキガイシヤ ヒタチコクサイヤギソリユ-シヨンズ"
  },
  "8507": {
    "zip_code": "3378507",
    "prefecture": "埼玉県",
    "prefecture_kana": null,
    "prefecture_code": null,
    "city": "さいたま市見沼区",
    "city_kana": null,
    "town": "大字南中野",
    "town_kana": null,
    "street": "２４４−１",
    "office_name": "新日本法規出版　（株）　関東支社",
    "office_name_kana": "シンニホンホウキシユツパン (カブ) カントウシシヤ"
  },
  "8532": {
    "zip_code": "3378532",
    "prefecture": "埼玉県",
    "prefecture_kana": null,
    "prefecture_code": null,
    "city": "さいたま市見沼区",
    "city_kana": null,
    "town": "大字中川",
    "town_kana": null,
    "street": "１０６９",
    "office_name": "トキタ種苗　株式会社",
    "office_name_kana": "トキタシユビヨウ カブシキガイシヤ"
  },
  "8555": {
    "zip_code": "3378555",
    "prefecture": "埼玉県",
    "prefecture_kana": null,
    "prefecture_code": null,
    "city": "さいたま市見沼区",
    "city_kana": null,
    "town": "大字風渡野",
    "town_kana": null,
    "street": "５８３−２",
    "office_name": "株式会社　サンルージュ",
    "office_name_kana": "カブシキガイシヤ サンル-ジユ"
  },
  "8556": {
    "zip_code": "3378556",
    "prefecture": "埼玉県",
    "prefecture_kana": "サイタマケン",
    "prefecture_code": "11",
    "city": "さいたま市見沼区",
    "city_kana": "サイタマシミヌマク",
    "town": "蓮沼",
    "town_kana": "ハスヌマ",
    "street": "１３８５番",
    "office_name": "株式会社　タムロン",
    "office_name_kana": "カブシキガイシヤ タムロン"
  },
  "8570": {
    "zip_code": "3378570",
    "prefecture": "埼玉県",
    "prefecture_kana": null,
    "prefecture_code": null,
    "city": "さいたま市見沼区",
    "city_kana": null,
    "town": "大字深作",
    "town_kana": null,
    "street": "３０７",
    "office_name": "芝浦工業大学",
    "office_name_kana": "シバウラコウギヨウダイガク"
  },
  "8586": {
    "zip_code": "3378586",
    "prefecture": "埼玉県",
    "prefecture_kana": "サイタマケン",
    "prefecture_code": "11",
    "city": "さいたま市見沼区",
    "city_kana": "サイタマシミヌマク",
    "town": "堀崎町",
    "town_kana": "ホリサキチョウ",
    "street": "１２−３６（大宮郵便局私書箱第２０号）",
    "office_name": "見沼区役所",
    "office_name_kana": "ミヌマクヤクシヨ"
  }
}