{
  "0000": {
    "zip_code": "3480000",
    "prefecture": "埼玉県",
    "prefecture_kana": "サイタマケン",
    "prefecture_code": 11,
    "city": "羽生市",
    "city_kana": "ハニュウシ",
    "town": "",
    "town_kana": "",
    "street": null,
    "office_name": null,
    "office_name_kana": null
  },
  "0001": {
    "zip_code": "3480001",
    "prefecture": "埼玉県",
    "prefecture_kana": "サイタマケン",
    "prefecture_code": 11,
    "city": "羽生市",
    "city_kana": "ハニュウシ",
    "town": "堤",
    "town_kana": "ツツミ",
    "street": null,
    "office_name": null,
    "office_name_kana": null
  },
  "0002": {
    "zip_code": "3480002",
    "prefecture": "埼玉県",
    "prefecture_kana": "サイタマケン",
    "prefecture_code": 11,
    "city": "羽生市",
    "city_kana": "ハニュウシ",
    "town": "名",
    "town_kana": "ミョウ",
    "street": null,
    "office_name": null,
    "office_name_kana": null
  },
  "0003": {
    "zip_code": "3480003",
    "prefecture": "埼玉県",
    "prefecture_kana": "サイタマケン",
    "prefecture_code": 11,
    "city": "羽生市",
    "city_kana": "ハニュウシ",
    "town": "常木",
    "town_kana": "ツネギ",
    "street": null,
    "office_name": null,
    "office_name_kana": null
  },
  "0004": {
    "zip_code": "3480004",
    "prefecture": "埼玉県",
    "prefecture_kana": "サイタマケン",
    "prefecture_code": 11,
    "city": "羽生市",
    "city_kana": "ハニュウシ",
    "town": "弥勒",
    "town_kana": "ミロク",
    "street": null,
    "office_name": null,
    "office_name_kana": null
  },
  "0005": {
    "zip_code": "3480005",
    "prefecture": "埼玉県",
    "prefecture_kana": "サイタマケン",
    "prefecture_code": 11,
    "city": "羽生市",
    "city_kana": "ハニュウシ",
    "town": "上村君",
    "town_kana": "カミムラキミ",
    "street": null,
    "office_name": null,
    "office_name_kana": null
  },
  "0006": {
    "zip_code": "3480006",
    "prefecture": "埼玉県",
    "prefecture_kana": "サイタマケン",
    "prefecture_code": 11,
    "city": "羽生市",
    "city_kana": "ハニュウシ",
    "town": "下村君",
    "town_kana": "シモムラキミ",
    "street": null,
    "office_name": null,
    "office_name_kana": null
  },
  "0011": {
    "zip_code": "3480011",
    "prefecture": "埼玉県",
    "prefecture_kana": "サイタマケン",
    "prefecture_code": 11,
    "city": "羽生市",
    "city_kana": "ハニュウシ",
    "town": "三田ケ谷",
    "town_kana": "ミタカヤ",
    "street": null,
    "office_name": null,
    "office_name_kana": null
  },
  "0012": {
    "zip_code": "3480012",
    "prefecture": "埼玉県",
    "prefecture_kana": "サイタマケン",
    "prefecture_code": 11,
    "city": "羽生市",
    "city_kana": "ハニュウシ",
    "town": "与兵エ新田",
    "town_kana": "ヨヘエシンデン",
    "street": null,
    "office_name": null,
    "office_name_kana": null
  },
  "0013": {
    "zip_code": "3480013",
    "prefecture": "埼玉県",
    "prefecture_kana": "サイタマケン",
    "prefecture_code": 11,
    "city": "羽生市",
    "city_kana": "ハニュウシ",
    "town": "日野手新田",
    "town_kana": "ヒノテシンデン",
    "street": null,
    "office_name": null,
    "office_name_kana": null
  },
  "0014": {
    "zip_code": "3480014",
    "prefecture": "埼玉県",
    "prefecture_kana": "サイタマケン",
    "prefecture_code": 11,
    "city": "羽生市",
    "city_kana": "ハニュウシ",
    "town": "喜右エ門新田",
    "town_kana": "キウエモンシンデン",
    "street": null,
    "office_name": null,
    "office_name_kana": null
  },
  "0015": {
    "zip_code": "3480015",
    "prefecture": "埼玉県",
    "prefecture_kana": "サイタマケン",
    "prefecture_code": 11,
    "city": "羽生市",
    "city_kana": "ハニュウシ",
    "town": "北荻島",
    "town_kana": "キタオギシマ",
    "street": null,
    "office_name": null,
    "office_name_kana": null
  },
  "0016": {
    "zip_code": "3480016",
    "prefecture": "埼玉県",
    "prefecture_kana": "サイタマケン",
    "prefecture_code": 11,
    "city": "羽生市",
    "city_kana": "ハニュウシ",
    "town": "大沼",
    "town_kana": "オオヌマ",
    "street": null,
    "office_name": null,
    "office_name_kana": null
  },
  "0017": {
    "zip_code": "3480017",
    "prefecture": "埼玉県",
    "prefecture_kana": "サイタマケン",
    "prefecture_code": 11,
    "city": "羽生市",
    "city_kana": "ハニュウシ",
    "town": "今泉",
    "town_kana": "イマイズミ",
    "street": null,
    "office_name": null,
    "office_name_kana": null
  },
  "0021": {
    "zip_code": "3480021",
    "prefecture": "埼玉県",
    "prefecture_kana": "サイタマケン",
    "prefecture_code": 11,
    "city": "羽生市",
    "city_kana": "ハニュウシ",
    "town": "中手子林",
    "town_kana": "ナカテコバヤシ",
    "street": null,
    "office_name": null,
    "office_name_kana": null
  },
  "0022": {
    "zip_code": "3480022",
    "prefecture": "埼玉県",
    "prefecture_kana": "サイタマケン",
    "prefecture_code": 11,
    "city": "羽生市",
    "city_kana": "ハニュウシ",
    "town": "下手子林",
    "town_kana": "シモテコバヤシ",
    "street": null,
    "office_name": null,
    "office_name_kana": null
  },
  "0023": {
    "zip_code": "3480023",
    "prefecture": "埼玉県",
    "prefecture_kana": "サイタマケン",
    "prefecture_code": 11,
    "city": "羽生市",
    "city_kana": "ハニュウシ",
    "town": "町屋",
    "town_kana": "マチヤ",
    "street": null,
    "office_name": null,
    "office_name_kana": null
  },
  "0024": {
    "zip_code": "3480024",
    "prefecture": "埼玉県",
    "prefecture_kana": "サイタマケン",
    "prefecture_code": 11,
    "city": "羽生市",
    "city_kana": "ハニュウシ",
    "town": "神戸",
    "town_kana": "ゴウド",
    "street": null,
    "office_name": null,
    "office_name_kana": null
  },
  "0025": {
    "zip_code": "3480025",
    "prefecture": "埼玉県",
    "prefecture_kana": "サイタマケン",
    "prefecture_code": 11,
    "city": "羽生市",
    "city_kana": "ハニュウシ",
    "town": "上手子林",
    "town_kana": "カミテコバヤシ",
    "street": null,
    "office_name": null,
    "office_name_kana": null
  },
  "0026": {
    "zip_code": "3480026",
    "prefecture": "埼玉県",
    "prefecture_kana": "サイタマケン",
    "prefecture_code": 11,
    "city": "羽生市",
    "city_kana": "ハニュウシ",
    "town": "下羽生",
    "town_kana": "シモハニュウ",
    "street": null,
    "office_name": null,
    "office_name_kana": null
  },
  "0027": {
    "zip_code": "3480027",
    "prefecture": "埼玉県",
    "prefecture_kana": "サイタマケン",
    "prefecture_code": 11,
    "city": "羽生市",
    "city_kana": "ハニュウシ",
    "town": "上羽生",
    "town_kana": "カミハニュウ",
    "street": null,
    "office_name": null,
    "office_name_kana": null
  },
  "0028": {
    "zip_code": "3480028",
    "prefecture": "埼玉県",
    "prefecture_kana": "サイタマケン",
    "prefecture_code": 11,
    "city": "羽生市",
    "city_kana": "ハニュウシ",
    "town": "北袋",
    "town_kana": "キタブクロ",
    "street": null,
    "office_name": null,
    "office_name_kana": null
  },
  "0031": {
    "zip_code": "3480031",
    "prefecture": "埼玉県",
    "prefecture_kana": "サイタマケン",
    "prefecture_code": 11,
    "city": "羽生市",
    "city_kana": "ハニュウシ",
    "town": "加羽ケ崎",
    "town_kana": "カバガサキ",
    "street": null,
    "office_name": null,
    "office_name_kana": null
  },
  "0032": {
    "zip_code": "3480032",
    "prefecture": "埼玉県",
    "prefecture_kana": "サイタマケン",
    "prefecture_code": 11,
    "city": "羽生市",
    "city_kana": "ハニュウシ",
    "town": "秀安",
    "town_kana": "ヒデヤス",
    "street": null,
    "office_name": null,
    "office_name_kana": null
  },
  "0033": {
    "zip_code": "3480033",
    "prefecture": "埼玉県",
    "prefecture_kana": "サイタマケン",
    "prefecture_code": 11,
    "city": "羽生市",
    "city_kana": "ハニュウシ",
    "town": "須影",
    "town_kana": "スカゲ",
    "street": null,
    "office_name": null,
    "office_name_kana": null
  },
  "0034": {
    "zip_code": "3480034",
    "prefecture": "埼玉県",
    "prefecture_kana": "サイタマケン",
    "prefecture_code": 11,
    "city": "羽生市",
    "city_kana": "ハニュウシ",
    "town": "下川崎",
    "town_kana": "シモカワサキ",
    "street": null,
    "office_name": null,
    "office_name_kana": null
  },
  "0035": {
    "zip_code": "3480035",
    "prefecture": "埼玉県",
    "prefecture_kana": "サイタマケン",
    "prefecture_code": 11,
    "city": "羽生市",
    "city_kana": "ハニュウシ",
    "town": "上川崎",
    "town_kana": "カミカワサキ",
    "street": null,
    "office_name": null,
    "office_name_kana": null
  },
  "0036": {
    "zip_code": "3480036",
    "prefecture": "埼玉県",
    "prefecture_kana": "サイタマケン",
    "prefecture_code": 11,
    "city": "羽生市",
    "city_kana": "ハニュウシ",
    "town": "砂山",
    "town_kana": "スナヤマ",
    "street": null,
    "office_name": null,
    "office_name_kana": null
  },
  "0037": {
    "zip_code": "3480037",
    "prefecture": "埼玉県",
    "prefecture_kana": "サイタマケン",
    "prefecture_code": 11,
    "city": "羽生市",
    "city_kana": "ハニュウシ",
    "town": "小松",
    "town_kana": "コマツ",
    "street": null,
    "office_name": null,
    "office_name_kana": null
  },
  "0038": {
    "zip_code": "3480038",
    "prefecture": "埼玉県",
    "prefecture_kana": "サイタマケン",
    "prefecture_code": 11,
    "city": "羽生市",
    "city_kana": "ハニュウシ",
    "town": "小松台",
    "town_kana": "コマツダイ",
    "street": null,
    "office_name": null,
    "office_name_kana": null
  },
  "0039": {
    "zip_code": "3480039",
    "prefecture": "埼玉県",
    "prefecture_kana": "サイタマケン",
    "prefecture_code": 11,
    "city": "羽生市",
    "city_kana": "ハニュウシ",
    "town": "川崎",
    "town_kana": "カワサキ",
    "street": null,
    "office_name": null,
    "office_name_kana": null
  },
  "0041": {
    "zip_code": "3480041",
    "prefecture": "埼玉県",
    "prefecture_kana": "サイタマケン",
    "prefecture_code": 11,
    "city": "羽生市",
    "city_kana": "ハニュウシ",
    "town": "上新郷",
    "town_kana": "カミシンゴウ",
    "street": null,
    "office_name": null,
    "office_name_kana": null
  },
  "0042": {
    "zip_code": "3480042",
    "prefecture": "埼玉県",
    "prefecture_kana": "サイタマケン",
    "prefecture_code": 11,
    "city": "羽生市",
    "city_kana": "ハニュウシ",
    "town": "小須賀",
    "town_kana": "コスカ",
    "street": null,
    "office_name": null,
    "office_name_kana": null
  },
  "0043": {
    "zip_code": "3480043",
    "prefecture": "埼玉県",
    "prefecture_kana": "サイタマケン",
    "prefecture_code": 11,
    "city": "羽生市",
    "city_kana": "ハニュウシ",
    "town": "桑崎",
    "town_kana": "クワサキ",
    "street": null,
    "office_name": null,
    "office_name_kana": null
  },
  "0044": {
    "zip_code": "3480044",
    "prefecture": "埼玉県",
    "prefecture_kana": "サイタマケン",
    "prefecture_code": 11,
    "city": "羽生市",
    "city_kana": "ハニュウシ",
    "town": "上岩瀬",
    "town_kana": "カミイワセ",
    "street": null,
    "office_name": null,
    "office_name_kana": null
  },
  "0045": {
    "zip_code": "3480045",
    "prefecture": "埼玉県",
    "prefecture_kana": "サイタマケン",
    "prefecture_code": 11,
    "city": "羽生市",
    "city_kana": "ハニュウシ",
    "town": "下岩瀬",
    "town_kana": "シモイワセ",
    "street": null,
    "office_name": null,
    "office_name_kana": null
  },
  "0046": {
    "zip_code": "3480046",
    "prefecture": "埼玉県",
    "prefecture_kana": "サイタマケン",
    "prefecture_code": 11,
    "city": "羽生市",
    "city_kana": "ハニュウシ",
    "town": "中岩瀬",
    "town_kana": "ナカイワセ",
    "street": null,
    "office_name": null,
    "office_name_kana": null
  },
  "0047": {
    "zip_code": "3480047",
    "prefecture": "埼玉県",
    "prefecture_kana": "サイタマケン",
    "prefecture_code": 11,
    "city": "羽生市",
    "city_kana": "ハニュウシ",
    "town": "下新郷",
    "town_kana": "シモシンゴウ",
    "street": null,
    "office_name": null,
    "office_name_kana": null
  },
  "0048": {
    "zip_code": "3480048",
    "prefecture": "埼玉県",
    "prefecture_kana": "サイタマケン",
    "prefecture_code": 11,
    "city": "羽生市",
    "city_kana": "ハニュウシ",
    "town": "下新田",
    "town_kana": "シモシンデン",
    "street": null,
    "office_name": null,
    "office_name_kana": null
  },
  "0051": {
    "zip_code": "3480051",
    "prefecture": "埼玉県",
    "prefecture_kana": "サイタマケン",
    "prefecture_code": 11,
    "city": "羽生市",
    "city_kana": "ハニュウシ",
    "town": "本川俣",
    "town_kana": "ホンカワマタ",
    "street": null,
    "office_name": null,
    "office_name_kana": null
  },
  "0052": {
    "zip_code": "3480052",
    "prefecture": "埼玉県",
    "prefecture_kana": "サイタマケン",
    "prefecture_code": 11,
    "city": "羽生市",
    "city_kana": "ハニュウシ",
    "town": "東",
    "town_kana": "ヒガシ",
    "street": null,
    "office_name": null,
    "office_name_kana": null
  },
  "0053": {
    "zip_code": "3480053",
    "prefecture": "埼玉県",
    "prefecture_kana": "サイタマケン",
    "prefecture_code": 11,
    "city": "羽生市",
    "city_kana": "ハニュウシ",
    "town": "南",
    "town_kana": "ミナミ",
    "street": null,
    "office_name": null,
    "office_name_kana": null
  },
  "0054": {
    "zip_code": "3480054",
    "prefecture": "埼玉県",
    "prefecture_kana": "サイタマケン",
    "prefecture_code": 11,
    "city": "羽生市",
    "city_kana": "ハニュウシ",
    "town": "西",
    "town_kana": "ニシ",
    "street": null,
    "office_name": null,
    "office_name_kana": null
  },
  "0055": {
    "zip_code": "3480055",
    "prefecture": "埼玉県",
    "prefecture_kana": "サイタマケン",
    "prefecture_code": 11,
    "city": "羽生市",
    "city_kana": "ハニュウシ",
    "town": "羽生",
    "town_kana": "ハニュウ",
    "street": null,
    "office_name": null,
    "office_name_kana": null
  },
  "0056": {
    "zip_code": "3480056",
    "prefecture": "埼玉県",
    "prefecture_kana": "サイタマケン",
    "prefecture_code": 11,
    "city": "羽生市",
    "city_kana": "ハニュウシ",
    "town": "上川俣",
    "town_kana": "カミカワマタ",
    "street": null,
    "office_name": null,
    "office_name_kana": null
  },
  "0057": {
    "zip_code": "3480057",
    "prefecture": "埼玉県",
    "prefecture_kana": "サイタマケン",
    "prefecture_code": 11,
    "city": "羽生市",
    "city_kana": "ハニュウシ",
    "town": "北",
    "town_kana": "キタ",
    "street": null,
    "office_name": null,
    "office_name_kana": null
  },
  "0058": {
    "zip_code": "3480058",
    "prefecture": "埼玉県",
    "prefecture_kana": "サイタマケン",
    "prefecture_code": 11,
    "city": "羽生市",
    "city_kana": "ハニュウシ",
    "town": "中央",
    "town_kana": "チュウオウ",
    "street": null,
    "office_name": null,
    "office_name_kana": null
  },
  "0061": {
    "zip_code": "3480061",
    "prefecture": "埼玉県",
    "prefecture_kana": "サイタマケン",
    "prefecture_code": 11,
    "city": "羽生市",
    "city_kana": "ハニュウシ",
    "town": "稲子",
    "town_kana": "イナゴ",
    "street": null,
    "office_name": null,
    "office_name_kana": null
  },
  "0062": {
    "zip_code": "3480062",
    "prefecture": "埼玉県",
    "prefecture_kana": "サイタマケン",
    "prefecture_code": 11,
    "city": "羽生市",
    "city_kana": "ハニュウシ",
    "town": "尾崎",
    "town_kana": "オサキ",
    "street": null,
    "office_name": null,
    "office_name_kana": null
  },
  "0063": {
    "zip_code": "3480063",
    "prefecture": "埼玉県",
    "prefecture_kana": "サイタマケン",
    "prefecture_code": 11,
    "city": "羽生市",
    "city_kana": "ハニュウシ",
    "town": "発戸",
    "town_kana": "ホット",
    "street": null,
    "office_name": null,
    "office_name_kana": null
  },
  "0064": {
    "zip_code": "3480064",
    "prefecture": "埼玉県",
    "prefecture_kana": "サイタマケン",
    "prefecture_code": 11,
    "city": "羽生市",
    "city_kana": "ハニュウシ",
    "town": "藤井上組",
    "town_kana": "フジイカミグミ",
    "street": null,
    "office_name": null,
    "office_name_kana": null
  },
  "0065": {
    "zip_code": "3480065",
    "prefecture": "埼玉県",
    "prefecture_kana": "サイタマケン",
    "prefecture_code": 11,
    "city": "羽生市",
    "city_kana": "ハニュウシ",
    "town": "藤井下組",
    "town_kana": "フジイシモグミ",
    "street": null,
    "office_name": null,
    "office_name_kana": null
  },
  "0071": {
    "zip_code": "3480071",
    "prefecture": "埼玉県",
    "prefecture_kana": "サイタマケン",
    "prefecture_code": 11,
    "city": "羽生市",
    "city_kana": "ハニュウシ",
    "town": "南羽生",
    "town_kana": "ミナミハニュウ",
    "street": null,
    "office_name": null,
    "office_name_kana": null
  },
  "8501": {
    "zip_code": "3488501",
    "prefecture": "埼玉県",
    "prefecture_kana": "サイタマケン",
    "prefecture_code": 11,
    "city": "羽生市",
    "city_kana": "ハニュウシ",
    "town": "東",
    "town_kana": "ヒガシ",
    "street": "５−４−７１",
    "office_name": "曙ブレーキ工業　株式会社　関東営業所",
    "office_name_kana": "アケボノブレ-キコウギヨウ カブシキガイシヤ カントウエイギヨウシヨ"
  },
  "8502": {
    "zip_code": "3488502",
    "prefecture": "埼玉県",
    "prefecture_kana": null,
    "prefecture_code": null,
    "city": "羽生市",
    "city_kana": null,
    "town": "大字羽生",
    "town_kana": null,
    "street": "３２３",
    "office_name": "埼玉県立羽生実業高等学校",
    "office_name_kana": "サイタマケンリツハニユウジツギヨウコウトウガツコウ"
  },
  "8503": {
    "zip_code": "3488503",
    "prefecture": "埼玉県",
    "prefecture_kana": "サイタマケン",
    "prefecture_code": 11,
    "city": "羽生市",
    "city_kana": "ハニュウシ",
    "town": "小松台",
    "town_kana": "コマツダイ",
    "street": "１丁目５１６−１０",
    "office_name": "金子農機　株式会社",
    "office_name_kana": "カネコノウキ カブシキカイシヤ"
  },
  "8505": {
    "zip_code": "3488505",
    "prefecture": "埼玉県",
    "prefecture_kana": null,
    "prefecture_code": null,
    "city": "羽生市",
    "city_kana": null,
    "town": "大字上岩瀬",
    "town_kana": null,
    "street": "５５１",
    "office_name": "埼玉医療生活協同組合　羽生総合病院",
    "office_name_kana": "サイタマイリヨウセイカツキヨウドウクミアイ ハニユウソウゴウビヨウイン"
  },
  "8506": {
    "zip_code": "3488506",
    "prefecture": "埼玉県",
    "prefecture_kana": "サイタマケン",
    "prefecture_code": 11,
    "city": "羽生市",
    "city_kana": "ハニュウシ",
    "town": "大沼",
    "town_kana": "オオヌマ",
    "street": "１丁目１",
    "office_name": "日本精工　株式会社",
    "office_name_kana": "ニホンセイコウ カブシキガイシヤ"
  },
  "8507": {
    "zip_code": "3488507",
    "prefecture": "埼玉県",
    "prefecture_kana": null,
    "prefecture_code": null,
    "city": "羽生市",
    "city_kana": null,
    "town": "大字秀安",
    "town_kana": null,
    "street": "４７６",
    "office_name": "関東三洋セミコンダクターズ　株式会社　羽生工場",
    "office_name_kana": "カントウサンヨウセミコンダクタ-ズ カブシキガイシヤ ハニユウコウジヨウ"
  },
  "8508": {
    "zip_code": "3488508",
    "prefecture": "埼玉県",
    "prefecture_kana": "サイタマケン",
    "prefecture_code": 11,
    "city": "羽生市",
    "city_kana": "ハニュウシ",
    "town": "東",
    "town_kana": "ヒガシ",
    "street": "５−４−７１",
    "office_name": "曙ブレーキ工業　株式会社",
    "office_name_kana": "アケボノブレ-キコウギヨウ カブシキガイシヤ"
  },
  "8512": {
    "zip_code": "3488512",
    "prefecture": "埼玉県",
    "prefecture_kana": "サイタマケン",
    "prefecture_code": 11,
    "city": "羽生市",
    "city_kana": "ハニュウシ",
    "town": "北",
    "town_kana": "キタ",
    "street": "１丁目１２−３３",
    "office_name": "エーダイニット　株式会社",
    "office_name_kana": "エ-ダイニツト カブシキガイシヤ"
  },
  "8513": {
    "zip_code": "3488513",
    "prefecture": "埼玉県",
    "prefecture_kana": "サイタマケン",
    "prefecture_code": 11,
    "city": "羽生市",
    "city_kana": "ハニュウシ",
    "town": "東",
    "town_kana": "ヒガシ",
    "street": "７丁目１５−３",
    "office_name": "ほくさい農業協同組合",
    "office_name_kana": "ホクサイノウギヨウキヨウドウクミアイ"
  },
  "8525": {
    "zip_code": "3488525",
    "prefecture": "埼玉県",
    "prefecture_kana": null,
    "prefecture_code": null,
    "city": "羽生市",
    "city_kana": null,
    "town": "大字下川崎",
    "town_kana": null,
    "street": "１５０",
    "office_name": "田中鉄鋼販売　株式会社",
    "office_name_kana": "タナカテツコウハンバイ カブシキガイシヤ"
  },
  "8530": {
    "zip_code": "3488530",
    "prefecture": "埼玉県",
    "prefecture_kana": null,
    "prefecture_code": null,
    "city": "羽生市",
    "city_kana": null,
    "town": "大字砂山",
    "town_kana": null,
    "street": "２１０",
    "office_name": "共愛会",
    "office_name_kana": "キヨウアイカイ"
  },
  "8540": {
    "zip_code": "3488540",
    "prefecture": "埼玉県",
    "prefecture_kana": "サイタマケン",
    "prefecture_code": 11,
    "city": "羽生市",
    "city_kana": "ハニュウシ",
    "town": "小松台",
    "town_kana": "コマツダイ",
    "street": "１丁目６０３−２７",
    "office_name": "大正製薬　株式会社　羽生工場",
    "office_name_kana": "タイシヨウセイヤク カブシキガイシヤ ハニユウコウジヨウ"
  },
  "8549": {
    "zip_code": "3488549",
    "prefecture": "埼玉県",
    "prefecture_kana": null,
    "prefecture_code": null,
    "city": "羽生市",
    "city_kana": null,
    "town": "大字上村君",
    "town_kana": null,
    "street": "堤根２７２",
    "office_name": "日清ヨーク　株式会社　関東工場",
    "office_name_kana": "ニツシンヨ-ク カブシキガイシヤ カントウコウジヨウ"
  },
  "8555": {
    "zip_code": "3488555",
    "prefecture": "埼玉県",
    "prefecture_kana": null,
    "prefecture_code": null,
    "city": "羽生市",
    "city_kana": null,
    "town": "大字弥勒",
    "town_kana": null,
    "street": "７０４−４",
    "office_name": "株式会社　ダイチュー　テクノロジーズ",
    "office_name_kana": "カブシキガイシヤ ダイチユ- テクノロジ-ズ"
  },
  "8585": {
    "zip_code": "3488585",
    "prefecture": "埼玉県",
    "prefecture_kana": "サイタマケン",
    "prefecture_code": 11,
    "city": "羽生市",
    "city_kana": "ハニュウシ",
    "town": "小松台",
    "town_kana": "コマツダイ",
    "street": "１丁目６０３番地２９",
    "office_name": "昭和化成工業　株式会社",
    "office_name_kana": "シヨウワカセイコウギヨウ カブシキガイシヤ"
  },
  "8601": {
    "zip_code": "3488601",
    "prefecture": "埼玉県",
    "prefecture_kana": "サイタマケン",
    "prefecture_code": 11,
    "city": "羽生市",
    "city_kana": "ハニュウシ",
    "town": "東",
    "town_kana": "ヒガシ",
    "street": "６丁目１５番地",
    "office_name": "羽生市役所",
    "office_name_kana": "ハニユウシヤクシヨ"
  }
}