{
  "0100": {
    "zip_code": "3490100",
    "prefecture": "埼玉県",
    "prefecture_kana": "サイタマケン",
    "prefecture_code": 11,
    "city": "蓮田市",
    "city_kana": "ハスダシ",
    "town": "",
    "town_kana": "",
    "street": null,
    "office_name": null,
    "office_name_kana": null
  },
  "0101": {
    "zip_code": "3490101",
    "prefecture": "埼玉県",
    "prefecture_kana": "サイタマケン",
    "prefecture_code": 11,
    "city": "蓮田市",
    "city_kana": "ハスダシ",
    "town": "黒浜",
    "town_kana": "クロハマ",
    "street": null,
    "office_name": null,
    "office_name_kana": null
  },
  "0102": {
    "zip_code": "3490102",
    "prefecture": "埼玉県",
    "prefecture_kana": "サイタマケン",
    "prefecture_code": 11,
    "city": "蓮田市",
    "city_kana": "ハスダシ",
    "town": "江ケ崎",
    "town_kana": "エガサキ",
    "street": null,
    "office_name": null,
    "office_name_kana": null
  },
  "0103": {
    "zip_code": "3490103",
    "prefecture": "埼玉県",
    "prefecture_kana": "サイタマケン",
    "prefecture_code": 11,
    "city": "蓮田市",
    "city_kana": "ハスダシ",
    "town": "笹山",
    "town_kana": "ササヤマ",
    "street": null,
    "office_name": null,
    "office_name_kana": null
  },
  "0104": {
    "zip_code": "3490104",
    "prefecture": "埼玉県",
    "prefecture_kana": "サイタマケン",
    "prefecture_code": 11,
    "city": "蓮田市",
    "city_kana": "ハスダシ",
    "town": "緑町",
    "town_kana": "ミドリチョウ",
    "street": null,
    "office_name": null,
    "office_name_kana": null
  },
  "0105": {
    "zip_code": "3490105",
    "prefecture": "埼玉県",
    "prefecture_kana": "サイタマケン",
    "prefecture_code": 11,
    "city": "蓮田市",
    "city_kana": "ハスダシ",
    "town": "藤ノ木",
    "town_kana": "フジノキ",
    "street": null,
    "office_name": null,
    "office_name_kana": null
  },
  "0111": {
    "zip_code": "3490111",
    "prefecture": "埼玉県",
    "prefecture_kana": "サイタマケン",
    "prefecture_code": 11,
    "city": "蓮田市",
    "city_kana": "ハスダシ",
    "town": "東",
    "town_kana": "ヒガシ",
    "street": null,
    "office_name": null,
    "office_name_kana": null
  },
  "0112": {
    "zip_code": "3490112",
    "prefecture": "埼玉県",
    "prefecture_kana": "サイタマケン",
    "prefecture_code": 11,
    "city": "蓮田市",
    "city_kana": "ハスダシ",
    "town": "川島",
    "town_kana": "カワジマ",
    "street": null,
    "office_name": null,
    "office_name_kana": null
  },
  "0113": {
    "zip_code": "3490113",
    "prefecture": "埼玉県",
    "prefecture_kana": "サイタマケン",
    "prefecture_code": 11,
    "city": "蓮田市",
    "city_kana": "ハスダシ",
    "town": "桜台",
    "town_kana": "サクラダイ",
    "street": null,
    "office_name": null,
    "office_name_kana": null
  },
  "0114": {
    "zip_code": "3490114",
    "prefecture": "埼玉県",
    "prefecture_kana": "サイタマケン",
    "prefecture_code": 11,
    "city": "蓮田市",
    "city_kana": "ハスダシ",
    "town": "馬込",
    "town_kana": "マゴメ",
    "street": null,
    "office_name": null,
    "office_name_kana": null
  },
  "0115": {
    "zip_code": "3490115",
    "prefecture": "埼玉県",
    "prefecture_kana": "サイタマケン",
    "prefecture_code": 11,
    "city": "蓮田市",
    "city_kana": "ハスダシ",
    "town": "蓮田",
    "town_kana": "ハスダ",
    "street": null,
    "office_name": null,
    "office_name_kana": null
  },
  "0121": {
    "zip_code": "3490121",
    "prefecture": "埼玉県",
    "prefecture_kana": "サイタマケン",
    "prefecture_code": 11,
    "city": "蓮田市",
    "city_kana": "ハスダシ",
    "town": "関山",
    "town_kana": "セキヤマ",
    "street": null,
    "office_name": null,
    "office_name_kana": null
  },
  "0122": {
    "zip_code": "3490122",
    "prefecture": "埼玉県",
    "prefecture_kana": "サイタマケン",
    "prefecture_code": 11,
    "city": "蓮田市",
    "city_kana": "ハスダシ",
    "town": "上",
    "town_kana": "カミ",
    "street": null,
    "office_name": null,
    "office_name_kana": null
  },
  "0123": {
    "zip_code": "3490123",
    "prefecture": "埼玉県",
    "prefecture_kana": "サイタマケン",
    "prefecture_code": 11,
    "city": "蓮田市",
    "city_kana": "ハスダシ",
    "town": "本町",
    "town_kana": "ホンチョウ",
    "street": null,
    "office_name": null,
    "office_name_kana": null
  },
  "0124": {
    "zip_code": "3490124",
    "prefecture": "埼玉県",
    "prefecture_kana": "サイタマケン",
    "prefecture_code": 11,
    "city": "蓮田市",
    "city_kana": "ハスダシ",
    "town": "末広",
    "town_kana": "スエヒロ",
    "street": null,
    "office_name": null,
    "office_name_kana": null
  },
  "0125": {
    "zip_code": "3490125",
    "prefecture": "埼玉県",
    "prefecture_kana": "サイタマケン",
    "prefecture_code": 11,
    "city": "蓮田市",
    "city_kana": "ハスダシ",
    "town": "御前橋",
    "town_kana": "オマエバシ",
    "street": null,
    "office_name": null,
    "office_name_kana": null
  },
  "0126": {
    "zip_code": "3490126",
    "prefecture": "埼玉県",
    "prefecture_kana": "サイタマケン",
    "prefecture_code": 11,
    "city": "蓮田市",
    "city_kana": "ハスダシ",
    "town": "綾瀬",
    "town_kana": "アヤセ",
    "street": null,
    "office_name": null,
    "office_name_kana": null
  },
  "0127": {
    "zip_code": "3490127",
    "prefecture": "埼玉県",
    "prefecture_kana": "サイタマケン",
    "prefecture_code": 11,
    "city": "蓮田市",
    "city_kana": "ハスダシ",
    "town": "見沼町",
    "town_kana": "ミヌマチョウ",
    "street": null,
    "office_name": null,
    "office_name_kana": null
  },
  "0128": {
    "zip_code": "3490128",
    "prefecture": "埼玉県",
    "prefecture_kana": "サイタマケン",
    "prefecture_code": 11,
    "city": "蓮田市",
    "city_kana": "ハスダシ",
    "town": "山ノ内",
    "town_kana": "ヤマノウチ",
    "street": null,
    "office_name": null,
    "office_name_kana": null
  },
  "0131": {
    "zip_code": "3490131",
    "prefecture": "埼玉県",
    "prefecture_kana": "サイタマケン",
    "prefecture_code": 11,
    "city": "蓮田市",
    "city_kana": "ハスダシ",
    "town": "根金",
    "town_kana": "ネガネ",
    "street": null,
    "office_name": null,
    "office_name_kana": null
  },
  "0132": {
    "zip_code": "3490132",
    "prefecture": "埼玉県",
    "prefecture_kana": "サイタマケン",
    "prefecture_code": 11,
    "city": "蓮田市",
    "city_kana": "ハスダシ",
    "town": "貝塚",
    "town_kana": "カイヅカ",
    "street": null,
    "office_name": null,
    "office_name_kana": null
  },
  "0133": {
    "zip_code": "3490133",
    "prefecture": "埼玉県",
    "prefecture_kana": "サイタマケン",
    "prefecture_code": 11,
    "city": "蓮田市",
    "city_kana": "ハスダシ",
    "town": "閏戸",
    "town_kana": "ウルイド",
    "street": null,
    "office_name": null,
    "office_name_kana": null
  },
  "0134": {
    "zip_code": "3490134",
    "prefecture": "埼玉県",
    "prefecture_kana": "サイタマケン",
    "prefecture_code": 11,
    "city": "蓮田市",
    "city_kana": "ハスダシ",
    "town": "駒崎",
    "town_kana": "コマサキ",
    "street": null,
    "office_name": null,
    "office_name_kana": null
  },
  "0135": {
    "zip_code": "3490135",
    "prefecture": "埼玉県",
    "prefecture_kana": "サイタマケン",
    "prefecture_code": 11,
    "city": "蓮田市",
    "city_kana": "ハスダシ",
    "town": "井沼",
    "town_kana": "イヌマ",
    "street": null,
    "office_name": null,
    "office_name_kana": null
  },
  "0136": {
    "zip_code": "3490136",
    "prefecture": "埼玉県",
    "prefecture_kana": "サイタマケン",
    "prefecture_code": 11,
    "city": "蓮田市",
    "city_kana": "ハスダシ",
    "town": "上平野",
    "town_kana": "カミヒラノ",
    "street": null,
    "office_name": null,
    "office_name_kana": null
  },
  "0137": {
    "zip_code": "3490137",
    "prefecture": "埼玉県",
    "prefecture_kana": "サイタマケン",
    "prefecture_code": 11,
    "city": "蓮田市",
    "city_kana": "ハスダシ",
    "town": "高虫",
    "town_kana": "タカムシ",
    "street": null,
    "office_name": null,
    "office_name_kana": null
  },
  "0141": {
    "zip_code": "3490141",
    "prefecture": "埼玉県",
    "prefecture_kana": "サイタマケン",
    "prefecture_code": 11,
    "city": "蓮田市",
    "city_kana": "ハスダシ",
    "town": "西新宿",
    "town_kana": "ニシシンシュク",
    "street": null,
    "office_name": null,
    "office_name_kana": null
  },
  "0142": {
    "zip_code": "3490142",
    "prefecture": "埼玉県",
    "prefecture_kana": "サイタマケン",
    "prefecture_code": 11,
    "city": "蓮田市",
    "city_kana": "ハスダシ",
    "town": "南新宿",
    "town_kana": "ミナミシンシュク",
    "street": null,
    "office_name": null,
    "office_name_kana": null
  },
  "0143": {
    "zip_code": "3490143",
    "prefecture": "埼玉県",
    "prefecture_kana": "サイタマケン",
    "prefecture_code": 11,
    "city": "蓮田市",
    "city_kana": "ハスダシ",
    "town": "城",
    "town_kana": "ジョウ",
    "street": null,
    "office_name": null,
    "office_name_kana": null
  },
  "0144": {
    "zip_code": "3490144",
    "prefecture": "埼玉県",
    "prefecture_kana": "サイタマケン",
    "prefecture_code": 11,
    "city": "蓮田市",
    "city_kana": "ハスダシ",
    "town": "椿山",
    "town_kana": "ツバキヤマ",
    "street": null,
    "office_name": null,
    "office_name_kana": null
  },
  "0145": {
    "zip_code": "3490145",
    "prefecture": "埼玉県",
    "prefecture_kana": "サイタマケン",
    "prefecture_code": 11,
    "city": "蓮田市",
    "city_kana": "ハスダシ",
    "town": "西城",
    "town_kana": "ニシジョウ",
    "street": null,
    "office_name": null,
    "office_name_kana": null
  },
  "0192": {
    "zip_code": "3490192",
    "prefecture": "埼玉県",
    "prefecture_kana": null,
    "prefecture_code": null,
    "city": "蓮田市",
    "city_kana": null,
    "town": "大字黒浜",
    "town_kana": null,
    "street": "字桜ヶ丘４００８",
    "office_name": "東光電気　株式会社",
    "office_name_kana": "トウコウデンキ カブシキガイシヤ"
  },
  "0193": {
    "zip_code": "3490193",
    "prefecture": "埼玉県",
    "prefecture_kana": null,
    "prefecture_code": null,
    "city": "蓮田市",
    "city_kana": null,
    "town": "大字黒浜",
    "town_kana": null,
    "street": "２７９９−１",
    "office_name": "蓮田市役所",
    "office_name_kana": "ハスダシヤクシヨ"
  },
  "0195": {
    "zip_code": "3490195",
    "prefecture": "埼玉県",
    "prefecture_kana": null,
    "prefecture_code": null,
    "city": "蓮田市",
    "city_kana": null,
    "town": "大字黒浜",
    "town_kana": null,
    "street": "３５３５",
    "office_name": "東京セキスイ工業　株式会社",
    "office_name_kana": "トウキヨウセキスイコウギヨウ カブシキガイシヤ"
  },
  "0196": {
    "zip_code": "3490196",
    "prefecture": "埼玉県",
    "prefecture_kana": null,
    "prefecture_code": null,
    "city": "蓮田市",
    "city_kana": null,
    "town": "大字黒浜",
    "town_kana": null,
    "street": "４１４７",
    "office_name": "独立行政法人　国立病院機構　東埼玉病院",
    "office_name_kana": "ドクリツギヨウセイホウジン コクリツビヨウインキコウ ヒガシサイタマビヨウイン"
  },
  "0198": {
    "zip_code": "3490198",
    "prefecture": "埼玉県",
    "prefecture_kana": null,
    "prefecture_code": null,
    "city": "蓮田市",
    "city_kana": null,
    "town": "大字黒浜",
    "town_kana": null,
    "street": "３５３５",
    "office_name": "積水化学工業　株式会社　武蔵工場",
    "office_name_kana": "セキスイカガクコウギヨウ カブシキガイシヤ ムサシコウジヨウ"
  },
  "0200": {
    "zip_code": "3490200",
    "prefecture": "埼玉県",
    "prefecture_kana": "サイタマケン",
    "prefecture_code": 11,
    "city": "白岡市",
    "city_kana": "シラオカシ",
    "town": "",
    "town_kana": "",
    "street": null,
    "office_name": null,
    "office_name_kana": null
  },
  "0201": {
    "zip_code": "3490201",
    "prefecture": "埼玉県",
    "prefecture_kana": "サイタマケン",
    "prefecture_code": 11,
    "city": "白岡市",
    "city_kana": "シラオカシ",
    "town": "柴山",
    "town_kana": "シバヤマ",
    "street": null,
    "office_name": null,
    "office_name_kana": null
  },
  "0202": {
    "zip_code": "3490202",
    "prefecture": "埼玉県",
    "prefecture_kana": "サイタマケン",
    "prefecture_code": 11,
    "city": "白岡市",
    "city_kana": "シラオカシ",
    "town": "荒井新田",
    "town_kana": "アライシンデン",
    "street": null,
    "office_name": null,
    "office_name_kana": null
  },
  "0203": {
    "zip_code": "3490203",
    "prefecture": "埼玉県",
    "prefecture_kana": "サイタマケン",
    "prefecture_code": 11,
    "city": "白岡市",
    "city_kana": "シラオカシ",
    "town": "下大崎",
    "town_kana": "シモオオサキ",
    "street": null,
    "office_name": null,
    "office_name_kana": null
  },
  "0204": {
    "zip_code": "3490204",
    "prefecture": "埼玉県",
    "prefecture_kana": "サイタマケン",
    "prefecture_code": 11,
    "city": "白岡市",
    "city_kana": "シラオカシ",
    "town": "篠津",
    "town_kana": "シノヅ",
    "street": null,
    "office_name": null,
    "office_name_kana": null
  },
  "0205": {
    "zip_code": "3490205",
    "prefecture": "埼玉県",
    "prefecture_kana": "サイタマケン",
    "prefecture_code": 11,
    "city": "白岡市",
    "city_kana": "シラオカシ",
    "town": "西",
    "town_kana": "ニシ",
    "street": null,
    "office_name": null,
    "office_name_kana": null
  },
  "0211": {
    "zip_code": "3490211",
    "prefecture": "埼玉県",
    "prefecture_kana": "サイタマケン",
    "prefecture_code": 11,
    "city": "白岡市",
    "city_kana": "シラオカシ",
    "town": "野牛",
    "town_kana": "ヤギュウ",
    "street": null,
    "office_name": null,
    "office_name_kana": null
  },
  "0212": {
    "zip_code": "3490212",
    "prefecture": "埼玉県",
    "prefecture_kana": "サイタマケン",
    "prefecture_code": 11,
    "city": "白岡市",
    "city_kana": "シラオカシ",
    "town": "新白岡",
    "town_kana": "シンシラオカ",
    "street": null,
    "office_name": null,
    "office_name_kana": null
  },
  "0213": {
    "zip_code": "3490213",
    "prefecture": "埼玉県",
    "prefecture_kana": "サイタマケン",
    "prefecture_code": 11,
    "city": "白岡市",
    "city_kana": "シラオカシ",
    "town": "高岩",
    "town_kana": "タカイワ",
    "street": null,
    "office_name": null,
    "office_name_kana": null
  },
  "0214": {
    "zip_code": "3490214",
    "prefecture": "埼玉県",
    "prefecture_kana": "サイタマケン",
    "prefecture_code": 11,
    "city": "白岡市",
    "city_kana": "シラオカシ",
    "town": "寺塚",
    "town_kana": "テラツカ",
    "street": null,
    "office_name": null,
    "office_name_kana": null
  },
  "0215": {
    "zip_code": "3490215",
    "prefecture": "埼玉県",
    "prefecture_kana": "サイタマケン",
    "prefecture_code": 11,
    "city": "白岡市",
    "city_kana": "シラオカシ",
    "town": "千駄野",
    "town_kana": "センダノ",
    "street": null,
    "office_name": null,
    "office_name_kana": null
  },
  "0216": {
    "zip_code": "3490216",
    "prefecture": "埼玉県",
    "prefecture_kana": "サイタマケン",
    "prefecture_code": 11,
    "city": "白岡市",
    "city_kana": "シラオカシ",
    "town": "実ケ谷",
    "town_kana": "サナガヤ",
    "street": null,
    "office_name": null,
    "office_name_kana": null
  },
  "0217": {
    "zip_code": "3490217",
    "prefecture": "埼玉県",
    "prefecture_kana": "サイタマケン",
    "prefecture_code": 11,
    "city": "白岡市",
    "city_kana": "シラオカシ",
    "town": "小久喜",
    "town_kana": "コグキ",
    "street": null,
    "office_name": null,
    "office_name_kana": null
  },
  "0218": {
    "zip_code": "3490218",
    "prefecture": "埼玉県",
    "prefecture_kana": "サイタマケン",
    "prefecture_code": 11,
    "city": "白岡市",
    "city_kana": "シラオカシ",
    "town": "白岡",
    "town_kana": "シラオカ",
    "street": null,
    "office_name": null,
    "office_name_kana": null
  },
  "0219": {
    "zip_code": "3490219",
    "prefecture": "埼玉県",
    "prefecture_kana": "サイタマケン",
    "prefecture_code": 11,
    "city": "白岡市",
    "city_kana": "シラオカシ",
    "town": "白岡東",
    "town_kana": "シラオカヒガシ",
    "street": null,
    "office_name": null,
    "office_name_kana": null
  },
  "0221": {
    "zip_code": "3490221",
    "prefecture": "埼玉県",
    "prefecture_kana": "サイタマケン",
    "prefecture_code": 11,
    "city": "白岡市",
    "city_kana": "シラオカシ",
    "town": "上野田",
    "town_kana": "カミノダ",
    "street": null,
    "office_name": null,
    "office_name_kana": null
  },
  "0222": {
    "zip_code": "3490222",
    "prefecture": "埼玉県",
    "prefecture_kana": "サイタマケン",
    "prefecture_code": 11,
    "city": "白岡市",
    "city_kana": "シラオカシ",
    "town": "爪田ケ谷",
    "town_kana": "ツメタガヤ",
    "street": null,
    "office_name": null,
    "office_name_kana": null
  },
  "0223": {
    "zip_code": "3490223",
    "prefecture": "埼玉県",
    "prefecture_kana": "サイタマケン",
    "prefecture_code": 11,
    "city": "白岡市",
    "city_kana": "シラオカシ",
    "town": "下野田",
    "town_kana": "シモノダ",
    "street": null,
    "office_name": null,
    "office_name_kana": null
  },
  "0224": {
    "zip_code": "3490224",
    "prefecture": "埼玉県",
    "prefecture_kana": "サイタマケン",
    "prefecture_code": 11,
    "city": "白岡市",
    "city_kana": "シラオカシ",
    "town": "彦兵衛",
    "town_kana": "ヒコベエ",
    "street": null,
    "office_name": null,
    "office_name_kana": null
  },
  "0225": {
    "zip_code": "3490225",
    "prefecture": "埼玉県",
    "prefecture_kana": "サイタマケン",
    "prefecture_code": 11,
    "city": "白岡市",
    "city_kana": "シラオカシ",
    "town": "太田新井",
    "town_kana": "オオタアライ",
    "street": null,
    "office_name": null,
    "office_name_kana": null
  },
  "0226": {
    "zip_code": "3490226",
    "prefecture": "埼玉県",
    "prefecture_kana": "サイタマケン",
    "prefecture_code": 11,
    "city": "白岡市",
    "city_kana": "シラオカシ",
    "town": "岡泉",
    "town_kana": "オカイズミ",
    "street": null,
    "office_name": null,
    "office_name_kana": null
  },
  "0292": {
    "zip_code": "3490292",
    "prefecture": "埼玉県",
    "prefecture_kana": "サイタマケン",
    "prefecture_code": 11,
    "city": "白岡市",
    "city_kana": "シラオカシ",
    "town": "千駄野",
    "town_kana": "センダノ",
    "street": "４３２番地",
    "office_name": "白岡市役所",
    "office_name_kana": "シラオカシヤクシヨ"
  },
  "0293": {
    "zip_code": "3490293",
    "prefecture": "埼玉県",
    "prefecture_kana": "サイタマケン",
    "prefecture_code": 11,
    "city": "白岡市",
    "city_kana": "シラオカシ",
    "town": "下大崎",
    "town_kana": "シモオオサキ",
    "street": "８７３",
    "office_name": "大成ラミック　株式会社",
    "office_name_kana": "タイセイラミツク カブシキガイシヤ"
  },
  "0294": {
    "zip_code": "3490294",
    "prefecture": "埼玉県",
    "prefecture_kana": "サイタマケン",
    "prefecture_code": 11,
    "city": "白岡市",
    "city_kana": "シラオカシ",
    "town": "白岡",
    "town_kana": "シラオカ",
    "street": "１４７０",
    "office_name": "日産化学工業　株式会社",
    "office_name_kana": "ニツサンカガクコウギヨウ カブシキガイシヤ"
  },
  "0295": {
    "zip_code": "3490295",
    "prefecture": "埼玉県",
    "prefecture_kana": "サイタマケン",
    "prefecture_code": 11,
    "city": "白岡市",
    "city_kana": "シラオカシ",
    "town": "小久喜",
    "town_kana": "コグキ",
    "street": "９３８−１２",
    "office_name": "医療法人社団哺育会　白岡中央総合病院",
    "office_name_kana": "イリヨウホウジンシヤダンホイクカイ シラオカチユウオウソウゴウビヨウイン"
  },
  "1101": {
    "zip_code": "3491101",
    "prefecture": "埼玉県",
    "prefecture_kana": "サイタマケン",
    "prefecture_code": 11,
    "city": "久喜市",
    "city_kana": "クキシ",
    "town": "栗橋北",
    "town_kana": "クリハシキタ",
    "street": null,
    "office_name": null,
    "office_name_kana": null
  },
  "1102": {
    "zip_code": "3491102",
    "prefecture": "埼玉県",
    "prefecture_kana": "サイタマケン",
    "prefecture_code": 11,
    "city": "久喜市",
    "city_kana": "クキシ",
    "town": "栗橋中央",
    "town_kana": "クリハシチュウオウ",
    "street": null,
    "office_name": null,
    "office_name_kana": null
  },
  "1103": {
    "zip_code": "3491103",
    "prefecture": "埼玉県",
    "prefecture_kana": "サイタマケン",
    "prefecture_code": 11,
    "city": "久喜市",
    "city_kana": "クキシ",
    "town": "栗橋東",
    "town_kana": "クリハシヒガシ",
    "street": null,
    "office_name": null,
    "office_name_kana": null
  },
  "1104": {
    "zip_code": "3491104",
    "prefecture": "埼玉県",
    "prefecture_kana": "サイタマケン",
    "prefecture_code": 11,
    "city": "久喜市",
    "city_kana": "クキシ",
    "town": "栗橋",
    "town_kana": "クリハシ",
    "street": null,
    "office_name": null,
    "office_name_kana": null
  },
  "1105": {
    "zip_code": "3491105",
    "prefecture": "埼玉県",
    "prefecture_kana": "サイタマケン",
    "prefecture_code": 11,
    "city": "久喜市",
    "city_kana": "クキシ",
    "town": "小右衛門",
    "town_kana": "コエモン",
    "street": null,
    "office_name": null,
    "office_name_kana": null
  },
  "1106": {
    "zip_code": "3491106",
    "prefecture": "埼玉県",
    "prefecture_kana": "サイタマケン",
    "prefecture_code": 11,
    "city": "久喜市",
    "city_kana": "クキシ",
    "town": "緑",
    "town_kana": "ミドリ",
    "street": null,
    "office_name": null,
    "office_name_kana": null
  },
  "1111": {
    "zip_code": "3491111",
    "prefecture": "埼玉県",
    "prefecture_kana": "サイタマケン",
    "prefecture_code": 11,
    "city": "久喜市",
    "city_kana": "クキシ",
    "town": "北広島",
    "town_kana": "キタヒロシマ",
    "street": null,
    "office_name": null,
    "office_name_kana": null
  },
  "1112": {
    "zip_code": "3491112",
    "prefecture": "埼玉県",
    "prefecture_kana": "サイタマケン",
    "prefecture_code": 11,
    "city": "久喜市",
    "city_kana": "クキシ",
    "town": "中里",
    "town_kana": "ナカザト",
    "street": null,
    "office_name": null,
    "office_name_kana": null
  },
  "1113": {
    "zip_code": "3491113",
    "prefecture": "埼玉県",
    "prefecture_kana": "サイタマケン",
    "prefecture_code": 11,
    "city": "久喜市",
    "city_kana": "クキシ",
    "town": "狐塚",
    "town_kana": "キツネヅカ",
    "street": null,
    "office_name": null,
    "office_name_kana": null
  },
  "1114": {
    "zip_code": "3491114",
    "prefecture": "埼玉県",
    "prefecture_kana": "サイタマケン",
    "prefecture_code": 11,
    "city": "久喜市",
    "city_kana": "クキシ",
    "town": "河原代",
    "town_kana": "カワラダイ",
    "street": null,
    "office_name": null,
    "office_name_kana": null
  },
  "1115": {
    "zip_code": "3491115",
    "prefecture": "埼玉県",
    "prefecture_kana": "サイタマケン",
    "prefecture_code": 11,
    "city": "久喜市",
    "city_kana": "クキシ",
    "town": "新井",
    "town_kana": "アライ",
    "street": null,
    "office_name": null,
    "office_name_kana": null
  },
  "1116": {
    "zip_code": "3491116",
    "prefecture": "埼玉県",
    "prefecture_kana": "サイタマケン",
    "prefecture_code": 11,
    "city": "久喜市",
    "city_kana": "クキシ",
    "town": "島川",
    "town_kana": "シマガワ",
    "street": null,
    "office_name": null,
    "office_name_kana": null
  },
  "1117": {
    "zip_code": "3491117",
    "prefecture": "埼玉県",
    "prefecture_kana": "サイタマケン",
    "prefecture_code": 11,
    "city": "久喜市",
    "city_kana": "クキシ",
    "town": "南栗橋",
    "town_kana": "ミナミクリハシ",
    "street": null,
    "office_name": null,
    "office_name_kana": null
  },
  "1121": {
    "zip_code": "3491121",
    "prefecture": "埼玉県",
    "prefecture_kana": "サイタマケン",
    "prefecture_code": 11,
    "city": "久喜市",
    "city_kana": "クキシ",
    "town": "伊坂",
    "town_kana": "イサカ",
    "street": null,
    "office_name": null,
    "office_name_kana": null
  },
  "1122": {
    "zip_code": "3491122",
    "prefecture": "埼玉県",
    "prefecture_kana": "サイタマケン",
    "prefecture_code": 11,
    "city": "久喜市",
    "city_kana": "クキシ",
    "town": "松永",
    "town_kana": "マツナガ",
    "street": null,
    "office_name": null,
    "office_name_kana": null
  },
  "1123": {
    "zip_code": "3491123",
    "prefecture": "埼玉県",
    "prefecture_kana": "サイタマケン",
    "prefecture_code": 11,
    "city": "久喜市",
    "city_kana": "クキシ",
    "town": "間鎌",
    "town_kana": "マガマ",
    "street": null,
    "office_name": null,
    "office_name_kana": null
  },
  "1124": {
    "zip_code": "3491124",
    "prefecture": "埼玉県",
    "prefecture_kana": "サイタマケン",
    "prefecture_code": 11,
    "city": "久喜市",
    "city_kana": "クキシ",
    "town": "佐間",
    "town_kana": "サマ",
    "street": null,
    "office_name": null,
    "office_name_kana": null
  },
  "1125": {
    "zip_code": "3491125",
    "prefecture": "埼玉県",
    "prefecture_kana": "サイタマケン",
    "prefecture_code": 11,
    "city": "久喜市",
    "city_kana": "クキシ",
    "town": "高柳",
    "town_kana": "タカヤナギ",
    "street": null,
    "office_name": null,
    "office_name_kana": null
  },
  "1131": {
    "zip_code": "3491131",
    "prefecture": "埼玉県",
    "prefecture_kana": "サイタマケン",
    "prefecture_code": 11,
    "city": "加須市",
    "city_kana": "カゾシ",
    "town": "中渡",
    "town_kana": "ナカワタ",
    "street": null,
    "office_name": null,
    "office_name_kana": null
  },
  "1132": {
    "zip_code": "3491132",
    "prefecture": "埼玉県",
    "prefecture_kana": "サイタマケン",
    "prefecture_code": 11,
    "city": "加須市",
    "city_kana": "カゾシ",
    "town": "旗井",
    "town_kana": "ハタイ",
    "street": null,
    "office_name": null,
    "office_name_kana": null
  },
  "1133": {
    "zip_code": "3491133",
    "prefecture": "埼玉県",
    "prefecture_kana": "サイタマケン",
    "prefecture_code": 11,
    "city": "加須市",
    "city_kana": "カゾシ",
    "town": "琴寄",
    "town_kana": "コトヨリ",
    "street": null,
    "office_name": null,
    "office_name_kana": null
  },
  "1134": {
    "zip_code": "3491134",
    "prefecture": "埼玉県",
    "prefecture_kana": "サイタマケン",
    "prefecture_code": 11,
    "city": "加須市",
    "city_kana": "カゾシ",
    "town": "北下新井",
    "town_kana": "キタシモアライ",
    "street": null,
    "office_name": null,
    "office_name_kana": null
  },
  "1135": {
    "zip_code": "3491135",
    "prefecture": "埼玉県",
    "prefecture_kana": "サイタマケン",
    "prefecture_code": 11,
    "city": "加須市",
    "city_kana": "カゾシ",
    "town": "北平野",
    "town_kana": "キタヒラノ",
    "street": null,
    "office_name": null,
    "office_name_kana": null
  },
  "1141": {
    "zip_code": "3491141",
    "prefecture": "埼玉県",
    "prefecture_kana": "サイタマケン",
    "prefecture_code": 11,
    "city": "加須市",
    "city_kana": "カゾシ",
    "town": "松永新田",
    "town_kana": "マツナガシンデン",
    "street": null,
    "office_name": null,
    "office_name_kana": null
  },
  "1142": {
    "zip_code": "3491142",
    "prefecture": "埼玉県",
    "prefecture_kana": "サイタマケン",
    "prefecture_code": 11,
    "city": "加須市",
    "city_kana": "カゾシ",
    "town": "杓子木",
    "town_kana": "シャクシギ",
    "street": null,
    "office_name": null,
    "office_name_kana": null
  },
  "1143": {
    "zip_code": "3491143",
    "prefecture": "埼玉県",
    "prefecture_kana": "サイタマケン",
    "prefecture_code": 11,
    "city": "加須市",
    "city_kana": "カゾシ",
    "town": "生出",
    "town_kana": "オイデ",
    "street": null,
    "office_name": null,
    "office_name_kana": null
  },
  "1144": {
    "zip_code": "3491144",
    "prefecture": "埼玉県",
    "prefecture_kana": "サイタマケン",
    "prefecture_code": 11,
    "city": "加須市",
    "city_kana": "カゾシ",
    "town": "阿佐間",
    "town_kana": "アザマ",
    "street": null,
    "office_name": null,
    "office_name_kana": null
  },
  "1145": {
    "zip_code": "3491145",
    "prefecture": "埼玉県",
    "prefecture_kana": "サイタマケン",
    "prefecture_code": 11,
    "city": "加須市",
    "city_kana": "カゾシ",
    "town": "間口",
    "town_kana": "マクチ",
    "street": null,
    "office_name": null,
    "office_name_kana": null
  },
  "1146": {
    "zip_code": "3491146",
    "prefecture": "埼玉県",
    "prefecture_kana": "サイタマケン",
    "prefecture_code": 11,
    "city": "加須市",
    "city_kana": "カゾシ",
    "town": "新井新田",
    "town_kana": "アライシンデン",
    "street": null,
    "office_name": null,
    "office_name_kana": null
  },
  "1147": {
    "zip_code": "3491147",
    "prefecture": "埼玉県",
    "prefecture_kana": "サイタマケン",
    "prefecture_code": 11,
    "city": "加須市",
    "city_kana": "カゾシ",
    "town": "北大桑",
    "town_kana": "キタオオクワ",
    "street": null,
    "office_name": null,
    "office_name_kana": null
  },
  "1148": {
    "zip_code": "3491148",
    "prefecture": "埼玉県",
    "prefecture_kana": "サイタマケン",
    "prefecture_code": 11,
    "city": "加須市",
    "city_kana": "カゾシ",
    "town": "豊野台",
    "town_kana": "トヨノダイ",
    "street": null,
    "office_name": null,
    "office_name_kana": null
  },
  "1151": {
    "zip_code": "3491151",
    "prefecture": "埼玉県",
    "prefecture_kana": "サイタマケン",
    "prefecture_code": 11,
    "city": "加須市",
    "city_kana": "カゾシ",
    "town": "佐波",
    "town_kana": "ザワ",
    "street": null,
    "office_name": null,
    "office_name_kana": null
  },
  "1152": {
    "zip_code": "3491152",
    "prefecture": "埼玉県",
    "prefecture_kana": "サイタマケン",
    "prefecture_code": 11,
    "city": "加須市",
    "city_kana": "カゾシ",
    "town": "弥兵衛",
    "town_kana": "ヤヘエ",
    "street": null,
    "office_name": null,
    "office_name_kana": null
  },
  "1153": {
    "zip_code": "3491153",
    "prefecture": "埼玉県",
    "prefecture_kana": "サイタマケン",
    "prefecture_code": 11,
    "city": "加須市",
    "city_kana": "カゾシ",
    "town": "新川通",
    "town_kana": "シンカワドオリ",
    "street": null,
    "office_name": null,
    "office_name_kana": null
  },
  "1154": {
    "zip_code": "3491154",
    "prefecture": "埼玉県",
    "prefecture_kana": "サイタマケン",
    "prefecture_code": 11,
    "city": "加須市",
    "city_kana": "カゾシ",
    "town": "外記新田",
    "town_kana": "ゲキシンデン",
    "street": null,
    "office_name": null,
    "office_name_kana": null
  },
  "1155": {
    "zip_code": "3491155",
    "prefecture": "埼玉県",
    "prefecture_kana": "サイタマケン",
    "prefecture_code": 11,
    "city": "加須市",
    "city_kana": "カゾシ",
    "town": "砂原",
    "town_kana": "スナハラ",
    "street": null,
    "office_name": null,
    "office_name_kana": null
  },
  "1156": {
    "zip_code": "3491156",
    "prefecture": "埼玉県",
    "prefecture_kana": "サイタマケン",
    "prefecture_code": 11,
    "city": "加須市",
    "city_kana": "カゾシ",
    "town": "細間",
    "town_kana": "ホソマ",
    "street": null,
    "office_name": null,
    "office_name_kana": null
  },
  "1157": {
    "zip_code": "3491157",
    "prefecture": "埼玉県",
    "prefecture_kana": "サイタマケン",
    "prefecture_code": 11,
    "city": "加須市",
    "city_kana": "カゾシ",
    "town": "道目",
    "town_kana": "ドウメ",
    "street": null,
    "office_name": null,
    "office_name_kana": null
  },
  "1158": {
    "zip_code": "3491158",
    "prefecture": "埼玉県",
    "prefecture_kana": "サイタマケン",
    "prefecture_code": 11,
    "city": "加須市",
    "city_kana": "カゾシ",
    "town": "新利根",
    "town_kana": "シントネ",
    "street": null,
    "office_name": null,
    "office_name_kana": null
  },
  "1192": {
    "zip_code": "3491192",
    "prefecture": "埼玉県",
    "prefecture_kana": "サイタマケン",
    "prefecture_code": 11,
    "city": "久喜市",
    "city_kana": "クキシ",
    "town": "間鎌",
    "town_kana": "マガマ",
    "street": "２５１の１",
    "office_name": "久喜市　栗橋総合支所",
    "office_name_kana": "クキシ クリハシソウゴウシシヨ"
  },
  "1193": {
    "zip_code": "3491193",
    "prefecture": "埼玉県",
    "prefecture_kana": "サイタマケン",
    "prefecture_code": 11,
    "city": "加須市",
    "city_kana": "カゾシ",
    "town": "北下新井",
    "town_kana": "キタシモアライ",
    "street": "１６７９番地１",
    "office_name": "加須市　大利根総合支所",
    "office_name_kana": "カゾシ オオトネソウゴウシシヨ"
  },
  "1201": {
    "zip_code": "3491201",
    "prefecture": "埼玉県",
    "prefecture_kana": "サイタマケン",
    "prefecture_code": 11,
    "city": "加須市",
    "city_kana": "カゾシ",
    "town": "柳生",
    "town_kana": "ヤギュウ",
    "street": null,
    "office_name": null,
    "office_name_kana": null
  },
  "1202": {
    "zip_code": "3491202",
    "prefecture": "埼玉県",
    "prefecture_kana": "サイタマケン",
    "prefecture_code": 11,
    "city": "加須市",
    "city_kana": "カゾシ",
    "town": "小野袋",
    "town_kana": "オノフクロ",
    "street": null,
    "office_name": null,
    "office_name_kana": null
  },
  "1203": {
    "zip_code": "3491203",
    "prefecture": "埼玉県",
    "prefecture_kana": "サイタマケン",
    "prefecture_code": 11,
    "city": "加須市",
    "city_kana": "カゾシ",
    "town": "柏戸",
    "town_kana": "カシワド",
    "street": null,
    "office_name": null,
    "office_name_kana": null
  },
  "1204": {
    "zip_code": "3491204",
    "prefecture": "埼玉県",
    "prefecture_kana": "サイタマケン",
    "prefecture_code": 11,
    "city": "加須市",
    "city_kana": "カゾシ",
    "town": "陽光台",
    "town_kana": "ヨウコウダイ",
    "street": null,
    "office_name": null,
    "office_name_kana": null
  },
  "1205": {
    "zip_code": "3491205",
    "prefecture": "埼玉県",
    "prefecture_kana": "サイタマケン",
    "prefecture_code": 11,
    "city": "加須市",
    "city_kana": "カゾシ",
    "town": "向古河",
    "town_kana": "ムカイコガ",
    "street": null,
    "office_name": null,
    "office_name_kana": null
  },
  "1211": {
    "zip_code": "3491211",
    "prefecture": "埼玉県",
    "prefecture_kana": "サイタマケン",
    "prefecture_code": 11,
    "city": "加須市",
    "city_kana": "カゾシ",
    "town": "飯積",
    "town_kana": "イイヅミ",
    "street": null,
    "office_name": null,
    "office_name_kana": null
  },
  "1212": {
    "zip_code": "3491212",
    "prefecture": "埼玉県",
    "prefecture_kana": "サイタマケン",
    "prefecture_code": 11,
    "city": "加須市",
    "city_kana": "カゾシ",
    "town": "麦倉",
    "town_kana": "ムギクラ",
    "street": null,
    "office_name": null,
    "office_name_kana": null
  },
  "1213": {
    "zip_code": "3491213",
    "prefecture": "埼玉県",
    "prefecture_kana": "サイタマケン",
    "prefecture_code": 11,
    "city": "加須市",
    "city_kana": "カゾシ",
    "town": "栄",
    "town_kana": "サカエ",
    "street": null,
    "office_name": null,
    "office_name_kana": null
  },
  "1214": {
    "zip_code": "3491214",
    "prefecture": "埼玉県",
    "prefecture_kana": "サイタマケン",
    "prefecture_code": 11,
    "city": "加須市",
    "city_kana": "カゾシ",
    "town": "駒場",
    "town_kana": "コマバ",
    "street": null,
    "office_name": null,
    "office_name_kana": null
  },
  "1215": {
    "zip_code": "3491215",
    "prefecture": "埼玉県",
    "prefecture_kana": "サイタマケン",
    "prefecture_code": 11,
    "city": "加須市",
    "city_kana": "カゾシ",
    "town": "伊賀袋",
    "town_kana": "イガフクロ",
    "street": null,
    "office_name": null,
    "office_name_kana": null
  },
  "1216": {
    "zip_code": "3491216",
    "prefecture": "埼玉県",
    "prefecture_kana": "サイタマケン",
    "prefecture_code": 11,
    "city": "加須市",
    "city_kana": "カゾシ",
    "town": "本郷",
    "town_kana": "ホンゴウ",
    "street": null,
    "office_name": null,
    "office_name_kana": null
  },
  "1221": {
    "zip_code": "3491221",
    "prefecture": "栃木県",
    "prefecture_kana": "トチギケン",
    "prefecture_code": 9,
    "city": "栃木市",
    "city_kana": "トチギシ",
    "town": "藤岡町下宮",
    "town_kana": "フジオカマチシタミヤ",
    "street": null,
    "office_name": null,
    "office_name_kana": null
  },
  "1292": {
    "zip_code": "3491292",
    "prefecture": "埼玉県",
    "prefecture_kana": "サイタマケン",
    "prefecture_code": 11,
    "city": "加須市",
    "city_kana": "カゾシ",
    "town": "麦倉",
    "town_kana": "ムギクラ",
    "street": "１４８１−１",
    "office_name": "加須市　北川辺総合支所",
    "office_name_kana": "カゾシ キタカワベソウゴウシシヨ"
  }
}