{
  "0001": {
    "zip_code": "3500001",
    "prefecture": "埼玉県",
    "prefecture_kana": "サイタマケン",
    "prefecture_code": "11",
    "city": "川越市",
    "city_kana": "カワゴエシ",
    "town": "古谷上",
    "town_kana": "フルヤカミ",
    "street": null,
    "office_name": null,
    "office_name_kana": null
  },
  "0002": {
    "zip_code": "3500002",
    "prefecture": "埼玉県",
    "prefecture_kana": "サイタマケン",
    "prefecture_code": "11",
    "city": "川越市",
    "city_kana": "カワゴエシ",
    "town": "古谷本郷",
    "town_kana": "フルヤホンゴウ",
    "street": null,
    "office_name": null,
    "office_name_kana": null
  },
  "0003": {
    "zip_code": "3500003",
    "prefecture": "埼玉県",
    "prefecture_kana": "サイタマケン",
    "prefecture_code": "11",
    "city": "川越市",
    "city_kana": "カワゴエシ",
    "town": "八ツ島",
    "town_kana": "ヤツシマ",
    "street": null,
    "office_name": null,
    "office_name_kana": null
  },
  "0004": {
    "zip_code": "3500004",
    "prefecture": "埼玉県",
    "prefecture_kana": "サイタマケン",
    "prefecture_code": "11",
    "city": "川越市",
    "city_kana": "カワゴエシ",
    "town": "高島",
    "town_kana": "タカシマ",
    "street": null,
    "office_name": null,
    "office_name_kana": null
  },
  "0011": {
    "zip_code": "3500011",
    "prefecture": "埼玉県",
    "prefecture_kana": "サイタマケン",
    "prefecture_code": "11",
    "city": "川越市",
    "city_kana": "カワゴエシ",
    "town": "久下戸",
    "town_kana": "クゲド",
    "street": null,
    "office_name": null,
    "office_name_kana": null
  },
  "0012": {
    "zip_code": "3500012",
    "prefecture": "埼玉県",
    "prefecture_kana": "サイタマケン",
    "prefecture_code": "11",
    "city": "川越市",
    "city_kana": "カワゴエシ",
    "town": "萱沼",
    "town_kana": "カイヌマ",
    "street": null,
    "office_name": null,
    "office_name_kana": null
  },
  "0013": {
    "zip_code": "3500013",
    "prefecture": "埼玉県",
    "prefecture_kana": "サイタマケン",
    "prefecture_code": "11",
    "city": "川越市",
    "city_kana": "カワゴエシ",
    "town": "渋井",
    "town_kana": "シブイ",
    "street": null,
    "office_name": null,
    "office_name_kana": null
  },
  "0014": {
    "zip_code": "3500014",
    "prefecture": "埼玉県",
    "prefecture_kana": "サイタマケン",
    "prefecture_code": "11",
    "city": "川越市",
    "city_kana": "カワゴエシ",
    "town": "古市場",
    "town_kana": "フルイチバ",
    "street": null,
    "office_name": null,
    "office_name_kana": null
  },
  "0015": {
    "zip_code": "3500015",
    "prefecture": "埼玉県",
    "prefecture_kana": "サイタマケン",
    "prefecture_code": "11",
    "city": "川越市",
    "city_kana": "カワゴエシ",
    "town": "今泉",
    "town_kana": "イマイズミ",
    "street": null,
    "office_name": null,
    "office_name_kana": null
  },
  "0016": {
    "zip_code": "3500016",
    "prefecture": "埼玉県",
    "prefecture_kana": "サイタマケン",
    "prefecture_code": "11",
    "city": "川越市",
    "city_kana": "カワゴエシ",
    "town": "木野目",
    "town_kana": "キノメ",
    "street": null,
    "office_name": null,
    "office_name_kana": null
  },
  "0017": {
    "zip_code": "3500017",
    "prefecture": "埼玉県",
    "prefecture_kana": "サイタマケン",
    "prefecture_code": "11",
    "city": "川越市",
    "city_kana": "カワゴエシ",
    "town": "牛子",
    "town_kana": "ウシコ",
    "street": null,
    "office_name": null,
    "office_name_kana": null
  },
  "0018": {
    "zip_code": "3500018",
    "prefecture": "埼玉県",
    "prefecture_kana": "サイタマケン",
    "prefecture_code": "11",
    "city": "川越市",
    "city_kana": "カワゴエシ",
    "town": "藤木町",
    "town_kana": "フジキチョウ",
    "street": null,
    "office_name": null,
    "office_name_kana": null
  },
  "0021": {
    "zip_code": "3500021",
    "prefecture": "埼玉県",
    "prefecture_kana": "サイタマケン",
    "prefecture_code": "11",
    "city": "川越市",
    "city_kana": "カワゴエシ",
    "town": "大中居",
    "town_kana": "オオナカイ",
    "street": null,
    "office_name": null,
    "office_name_kana": null
  },
  "0022": {
    "zip_code": "3500022",
    "prefecture": "埼玉県",
    "prefecture_kana": "サイタマケン",
    "prefecture_code": "11",
    "city": "川越市",
    "city_kana": "カワゴエシ",
    "town": "小中居",
    "town_kana": "コナカイ",
    "street": null,
    "office_name": null,
    "office_name_kana": null
  },
  "0023": {
    "zip_code": "3500023",
    "prefecture": "埼玉県",
    "prefecture_kana": "サイタマケン",
    "prefecture_code": "11",
    "city": "川越市",
    "city_kana": "カワゴエシ",
    "town": "並木",
    "town_kana": "ナミキ",
    "street": null,
    "office_name": null,
    "office_name_kana": null
  },
  "0024": {
    "zip_code": "3500024",
    "prefecture": "埼玉県",
    "prefecture_kana": "サイタマケン",
    "prefecture_code": "11",
    "city": "川越市",
    "city_kana": "カワゴエシ",
    "town": "並木新町",
    "town_kana": "ナミキシンマチ",
    "street": null,
    "office_name": null,
    "office_name_kana": null
  },
  "0025": {
    "zip_code": "3500025",
    "prefecture": "埼玉県",
    "prefecture_kana": "サイタマケン",
    "prefecture_code": "11",
    "city": "川越市",
    "city_kana": "カワゴエシ",
    "town": "並木西町",
    "town_kana": "ナミキニシマチ",
    "street": null,
    "office_name": null,
    "office_name_kana": null
  },
  "0026": {
    "zip_code": "3500026",
    "prefecture": "埼玉県",
    "prefecture_kana": "サイタマケン",
    "prefecture_code": "11",
    "city": "川越市",
    "city_kana": "カワゴエシ",
    "town": "泉町",
    "town_kana": "イズミチョウ",
    "street": null,
    "office_name": null,
    "office_name_kana": null
  },
  "0027": {
    "zip_code": "3500027",
    "prefecture": "埼玉県",
    "prefecture_kana": "サイタマケン",
    "prefecture_code": "11",
    "city": "川越市",
    "city_kana": "カワゴエシ",
    "town": "南田島",
    "town_kana": "ミナミタジマ",
    "street": null,
    "office_name": null,
    "office_name_kana": null
  },
  "0031": {
    "zip_code": "3500031",
    "prefecture": "埼玉県",
    "prefecture_kana": "サイタマケン",
    "prefecture_code": "11",
    "city": "川越市",
    "city_kana": "カワゴエシ",
    "town": "小仙波",
    "town_kana": "コセンバ",
    "street": null,
    "office_name": null,
    "office_name_kana": null
  },
  "0032": {
    "zip_code": "3500032",
    "prefecture": "埼玉県",
    "prefecture_kana": "サイタマケン",
    "prefecture_code": "11",
    "city": "川越市",
    "city_kana": "カワゴエシ",
    "town": "大仙波",
    "town_kana": "オオセンバ",
    "street": null,
    "office_name": null,
    "office_name_kana": null
  },
  "0033": {
    "zip_code": "3500033",
    "prefecture": "埼玉県",
    "prefecture_kana": "サイタマケン",
    "prefecture_code": "11",
    "city": "川越市",
    "city_kana": "カワゴエシ",
    "town": "富士見町",
    "town_kana": "フジミチョウ",
    "street": null,
    "office_name": null,
    "office_name_kana": null
  },
  "0034": {
    "zip_code": "3500034",
    "prefecture": "埼玉県",
    "prefecture_kana": "サイタマケン",
    "prefecture_code": "11",
    "city": "川越市",
    "city_kana": "カワゴエシ",
    "town": "仙波町",
    "town_kana": "センバマチ",
    "street": null,
    "office_name": null,
    "office_name_kana": null
  },
  "0035": {
    "zip_code": "3500035",
    "prefecture": "埼玉県",
    "prefecture_kana": "サイタマケン",
    "prefecture_code": "11",
    "city": "川越市",
    "city_kana": "カワゴエシ",
    "town": "西小仙波町",
    "town_kana": "ニシコセンバマチ",
    "street": null,
    "office_name": null,
    "office_name_kana": null
  },
  "0036": {
    "zip_code": "3500036",
    "prefecture": "埼玉県",
    "prefecture_kana": "サイタマケン",
    "prefecture_code": "11",
    "city": "川越市",
    "city_kana": "カワゴエシ",
    "town": "小仙波町",
    "town_kana": "コセンバマチ",
    "street": null,
    "office_name": null,
    "office_name_kana": null
  },
  "0041": {
    "zip_code": "3500041",
    "prefecture": "埼玉県",
    "prefecture_kana": "サイタマケン",
    "prefecture_code": "11",
    "city": "川越市",
    "city_kana": "カワゴエシ",
    "town": "六軒町",
    "town_kana": "ロッケンマチ",
    "street": null,
    "office_name": null,
    "office_name_kana": null
  },
  "0042": {
    "zip_code": "3500042",
    "prefecture": "埼玉県",
    "prefecture_kana": "サイタマケン",
    "prefecture_code": "11",
    "city": "川越市",
    "city_kana": "カワゴエシ",
    "town": "中原町",
    "town_kana": "ナカハラマチ",
    "street": null,
    "office_name": null,
    "office_name_kana": null
  },
  "0043": {
    "zip_code": "3500043",
    "prefecture": "埼玉県",
    "prefecture_kana": "サイタマケン",
    "prefecture_code": "11",
    "city": "川越市",
    "city_kana": "カワゴエシ",
    "town": "新富町",
    "town_kana": "シントミチョウ",
    "street": null,
    "office_name": null,
    "office_name_kana": null
  },
  "0044": {
    "zip_code": "3500044",
    "prefecture": "埼玉県",
    "prefecture_kana": "サイタマケン",
    "prefecture_code": "11",
    "city": "川越市",
    "city_kana": "カワゴエシ",
    "town": "通町",
    "town_kana": "トオリマチ",
    "street": null,
    "office_name": null,
    "office_name_kana": null
  },
  "0045": {
    "zip_code": "3500045",
    "prefecture": "埼玉県",
    "prefecture_kana": "サイタマケン",
    "prefecture_code": "11",
    "city": "川越市",
    "city_kana": "カワゴエシ",
    "town": "南通町",
    "town_kana": "ミナミトオリマチ",
    "street": null,
    "office_name": null,
    "office_name_kana": null
  },
  "0046": {
    "zip_code": "3500046",
    "prefecture": "埼玉県",
    "prefecture_kana": "サイタマケン",
    "prefecture_code": "11",
    "city": "川越市",
    "city_kana": "カワゴエシ",
    "town": "菅原町",
    "town_kana": "スガワラマチ",
    "street": null,
    "office_name": null,
    "office_name_kana": null
  },
  "0051": {
    "zip_code": "3500051",
    "prefecture": "埼玉県",
    "prefecture_kana": "サイタマケン",
    "prefecture_code": "11",
    "city": "川越市",
    "city_kana": "カワゴエシ",
    "town": "志多町",
    "town_kana": "シタマチ",
    "street": null,
    "office_name": null,
    "office_name_kana": null
  },
  "0052": {
    "zip_code": "3500052",
    "prefecture": "埼玉県",
    "prefecture_kana": "サイタマケン",
    "prefecture_code": "11",
    "city": "川越市",
    "city_kana": "カワゴエシ",
    "town": "宮下町",
    "town_kana": "ミヤシタマチ",
    "street": null,
    "office_name": null,
    "office_name_kana": null
  },
  "0053": {
    "zip_code": "3500053",
    "prefecture": "埼玉県",
    "prefecture_kana": "サイタマケン",
    "prefecture_code": "11",
    "city": "川越市",
    "city_kana": "カワゴエシ",
    "town": "郭町",
    "town_kana": "クルワマチ",
    "street": null,
    "office_name": null,
    "office_name_kana": null
  },
  "0054": {
    "zip_code": "3500054",
    "prefecture": "埼玉県",
    "prefecture_kana": "サイタマケン",
    "prefecture_code": "11",
    "city": "川越市",
    "city_kana": "カワゴエシ",
    "town": "三久保町",
    "town_kana": "サンクボチョウ",
    "street": null,
    "office_name": null,
    "office_name_kana": null
  },
  "0055": {
    "zip_code": "3500055",
    "prefecture": "埼玉県",
    "prefecture_kana": "サイタマケン",
    "prefecture_code": "11",
    "city": "川越市",
    "city_kana": "カワゴエシ",
    "town": "久保町",
    "town_kana": "クボマチ",
    "street": null,
    "office_name": null,
    "office_name_kana": null
  },
  "0056": {
    "zip_code": "3500056",
    "prefecture": "埼玉県",
    "prefecture_kana": "サイタマケン",
    "prefecture_code": "11",
    "city": "川越市",
    "city_kana": "カワゴエシ",
    "town": "松江町",
    "town_kana": "マツエチョウ",
    "street": null,
    "office_name": null,
    "office_name_kana": null
  },
  "0057": {
    "zip_code": "3500057",
    "prefecture": "埼玉県",
    "prefecture_kana": "サイタマケン",
    "prefecture_code": "11",
    "city": "川越市",
    "city_kana": "カワゴエシ",
    "town": "大手町",
    "town_kana": "オオテマチ",
    "street": null,
    "office_name": null,
    "office_name_kana": null
  },
  "0061": {
    "zip_code": "3500061",
    "prefecture": "埼玉県",
    "prefecture_kana": "サイタマケン",
    "prefecture_code": "11",
    "city": "川越市",
    "city_kana": "カワゴエシ",
    "town": "喜多町",
    "town_kana": "キタマチ",
    "street": null,
    "office_name": null,
    "office_name_kana": null
  },
  "0062": {
    "zip_code": "3500062",
    "prefecture": "埼玉県",
    "prefecture_kana": "サイタマケン",
    "prefecture_code": "11",
    "city": "川越市",
    "city_kana": "カワゴエシ",
    "town": "元町",
    "town_kana": "モトマチ",
    "street": null,
    "office_name": null,
    "office_name_kana": null
  },
  "0063": {
    "zip_code": "3500063",
    "prefecture": "埼玉県",
    "prefecture_kana": "サイタマケン",
    "prefecture_code": "11",
    "city": "川越市",
    "city_kana": "カワゴエシ",
    "town": "幸町",
    "town_kana": "サイワイチョウ",
    "street": null,
    "office_name": null,
    "office_name_kana": null
  },
  "0064": {
    "zip_code": "3500064",
    "prefecture": "埼玉県",
    "prefecture_kana": "サイタマケン",
    "prefecture_code": "11",
    "city": "川越市",
    "city_kana": "カワゴエシ",
    "town": "末広町",
    "town_kana": "スエヒロチョウ",
    "street": null,
    "office_name": null,
    "office_name_kana": null
  },
  "0065": {
    "zip_code": "3500065",
    "prefecture": "埼玉県",
    "prefecture_kana": "サイタマケン",
    "prefecture_code": "11",
    "city": "川越市",
    "city_kana": "カワゴエシ",
    "town": "仲町",
    "town_kana": "ナカチョウ",
    "street": null,
    "office_name": null,
    "office_name_kana": null
  },
  "0066": {
    "zip_code": "3500066",
    "prefecture": "埼玉県",
    "prefecture_kana": "サイタマケン",
    "prefecture_code": "11",
    "city": "川越市",
    "city_kana": "カワゴエシ",
    "town": "連雀町",
    "town_kana": "レンジャクチョウ",
    "street": null,
    "office_name": null,
    "office_name_kana": null
  },
  "0067": {
    "zip_code": "3500067",
    "prefecture": "埼玉県",
    "prefecture_kana": "サイタマケン",
    "prefecture_code": "11",
    "city": "川越市",
    "city_kana": "カワゴエシ",
    "town": "三光町",
    "town_kana": "サンコウチョウ",
    "street": null,
    "office_name": null,
    "office_name_kana": null
  },
  "0100": {
    "zip_code": "3500100",
    "prefecture": "埼玉県",
    "prefecture_kana": "サイタマケン",
    "prefecture_code": "11",
    "city": "比企郡川島町",
    "city_kana": "ヒキグンカワジママチ",
    "town": "",
    "town_kana": "",
    "street": null,
    "office_name": null,
    "office_name_kana": null
  },
  "0101": {
    "zip_code": "3500101",
    "prefecture": "埼玉県",
    "prefecture_kana": "サイタマケン",
    "prefecture_code": "11",
    "city": "比企郡川島町",
    "city_kana": "ヒキグンカワジママチ",
    "town": "梅ノ木",
    "town_kana": "ウメノキ",
    "street": null,
    "office_name": null,
    "office_name_kana": null
  },
  "0102": {
    "zip_code": "3500102",
    "prefecture": "埼玉県",
    "prefecture_kana": "サイタマケン",
    "prefecture_code": "11",
    "city": "比企郡川島町",
    "city_kana": "ヒキグンカワジママチ",
    "town": "下小見野",
    "town_kana": "シモオミノ",
    "street": null,
    "office_name": null,
    "office_name_kana": null
  },
  "0103": {
    "zip_code": "3500103",
    "prefecture": "埼玉県",
    "prefecture_kana": "サイタマケン",
    "prefecture_code": "11",
    "city": "比企郡川島町",
    "city_kana": "ヒキグンカワジママチ",
    "town": "松永",
    "town_kana": "マツナガ",
    "street": null,
    "office_name": null,
    "office_name_kana": null
  },
  "0104": {
    "zip_code": "3500104",
    "prefecture": "埼玉県",
    "prefecture_kana": "サイタマケン",
    "prefecture_code": "11",
    "city": "比企郡川島町",
    "city_kana": "ヒキグンカワジママチ",
    "town": "芝沼",
    "town_kana": "シバヌマ",
    "street": null,
    "office_name": null,
    "office_name_kana": null
  },
  "0105": {
    "zip_code": "3500105",
    "prefecture": "埼玉県",
    "prefecture_kana": "サイタマケン",
    "prefecture_code": "11",
    "city": "比企郡川島町",
    "city_kana": "ヒキグンカワジママチ",
    "town": "小見野",
    "town_kana": "オミノ",
    "street": null,
    "office_name": null,
    "office_name_kana": null
  },
  "0106": {
    "zip_code": "3500106",
    "prefecture": "埼玉県",
    "prefecture_kana": "サイタマケン",
    "prefecture_code": "11",
    "city": "比企郡川島町",
    "city_kana": "ヒキグンカワジママチ",
    "town": "上小見野",
    "town_kana": "カミオミノ",
    "street": null,
    "office_name": null,
    "office_name_kana": null
  },
  "0107": {
    "zip_code": "3500107",
    "prefecture": "埼玉県",
    "prefecture_kana": "サイタマケン",
    "prefecture_code": "11",
    "city": "比企郡川島町",
    "city_kana": "ヒキグンカワジママチ",
    "town": "加胡",
    "town_kana": "カゴ",
    "street": null,
    "office_name": null,
    "office_name_kana": null
  },
  "0111": {
    "zip_code": "3500111",
    "prefecture": "埼玉県",
    "prefecture_kana": "サイタマケン",
    "prefecture_code": "11",
    "city": "比企郡川島町",
    "city_kana": "ヒキグンカワジママチ",
    "town": "谷中",
    "town_kana": "ヤナカ",
    "street": null,
    "office_name": null,
    "office_name_kana": null
  },
  "0112": {
    "zip_code": "3500112",
    "prefecture": "埼玉県",
    "prefecture_kana": "サイタマケン",
    "prefecture_code": "11",
    "city": "比企郡川島町",
    "city_kana": "ヒキグンカワジママチ",
    "town": "鳥羽井新田",
    "town_kana": "トバイシンデン",
    "street": null,
    "office_name": null,
    "office_name_kana": null
  },
  "0113": {
    "zip_code": "3500113",
    "prefecture": "埼玉県",
    "prefecture_kana": "サイタマケン",
    "prefecture_code": "11",
    "city": "比企郡川島町",
    "city_kana": "ヒキグンカワジママチ",
    "town": "東部",
    "town_kana": "トウブ",
    "street": null,
    "office_name": null,
    "office_name_kana": null
  },
  "0114": {
    "zip_code": "3500114",
    "prefecture": "埼玉県",
    "prefecture_kana": "サイタマケン",
    "prefecture_code": "11",
    "city": "比企郡川島町",
    "city_kana": "ヒキグンカワジママチ",
    "town": "東大塚",
    "town_kana": "ヒガシオオヅカ",
    "street": null,
    "office_name": null,
    "office_name_kana": null
  },
  "0115": {
    "zip_code": "3500115",
    "prefecture": "埼玉県",
    "prefecture_kana": "サイタマケン",
    "prefecture_code": "11",
    "city": "比企郡川島町",
    "city_kana": "ヒキグンカワジママチ",
    "town": "一本木",
    "town_kana": "イッポンギ",
    "street": null,
    "office_name": null,
    "office_name_kana": null
  },
  "0116": {
    "zip_code": "3500116",
    "prefecture": "埼玉県",
    "prefecture_kana": "サイタマケン",
    "prefecture_code": "11",
    "city": "比企郡川島町",
    "city_kana": "ヒキグンカワジママチ",
    "town": "虫塚",
    "town_kana": "ムシヅカ",
    "street": null,
    "office_name": null,
    "office_name_kana": null
  },
  "0117": {
    "zip_code": "3500117",
    "prefecture": "埼玉県",
    "prefecture_kana": "サイタマケン",
    "prefecture_code": "11",
    "city": "比企郡川島町",
    "city_kana": "ヒキグンカワジママチ",
    "town": "鳥羽井",
    "town_kana": "トバイ",
    "street": null,
    "office_name": null,
    "office_name_kana": null
  },
  "0121": {
    "zip_code": "3500121",
    "prefecture": "埼玉県",
    "prefecture_kana": "サイタマケン",
    "prefecture_code": "11",
    "city": "比企郡川島町",
    "city_kana": "ヒキグンカワジママチ",
    "town": "上八ツ林",
    "town_kana": "カミヤツバヤシ",
    "street": null,
    "office_name": null,
    "office_name_kana": null
  },
  "0122": {
    "zip_code": "3500122",
    "prefecture": "埼玉県",
    "prefecture_kana": "サイタマケン",
    "prefecture_code": "11",
    "city": "比企郡川島町",
    "city_kana": "ヒキグンカワジママチ",
    "town": "下八ツ林",
    "town_kana": "シモヤツバヤシ",
    "street": null,
    "office_name": null,
    "office_name_kana": null
  },
  "0123": {
    "zip_code": "3500123",
    "prefecture": "埼玉県",
    "prefecture_kana": "サイタマケン",
    "prefecture_code": "11",
    "city": "比企郡川島町",
    "city_kana": "ヒキグンカワジママチ",
    "town": "畑中",
    "town_kana": "ハタナカ",
    "street": null,
    "office_name": null,
    "office_name_kana": null
  },
  "0124": {
    "zip_code": "3500124",
    "prefecture": "埼玉県",
    "prefecture_kana": "サイタマケン",
    "prefecture_code": "11",
    "city": "比企郡川島町",
    "city_kana": "ヒキグンカワジママチ",
    "town": "三保谷宿",
    "town_kana": "ミホヤジュク",
    "street": null,
    "office_name": null,
    "office_name_kana": null
  },
  "0125": {
    "zip_code": "3500125",
    "prefecture": "埼玉県",
    "prefecture_kana": "サイタマケン",
    "prefecture_code": "11",
    "city": "比企郡川島町",
    "city_kana": "ヒキグンカワジママチ",
    "town": "東野",
    "town_kana": "ヒガシノ",
    "street": null,
    "office_name": null,
    "office_name_kana": null
  },
  "0126": {
    "zip_code": "3500126",
    "prefecture": "埼玉県",
    "prefecture_kana": "サイタマケン",
    "prefecture_code": "11",
    "city": "比企郡川島町",
    "city_kana": "ヒキグンカワジママチ",
    "town": "山ケ谷戸",
    "town_kana": "ヤマガヤト",
    "street": null,
    "office_name": null,
    "office_name_kana": null
  },
  "0127": {
    "zip_code": "3500127",
    "prefecture": "埼玉県",
    "prefecture_kana": "サイタマケン",
    "prefecture_code": "11",
    "city": "比企郡川島町",
    "city_kana": "ヒキグンカワジママチ",
    "town": "牛ケ谷戸",
    "town_kana": "ウシガヤト",
    "street": null,
    "office_name": null,
    "office_name_kana": null
  },
  "0128": {
    "zip_code": "3500128",
    "prefecture": "埼玉県",
    "prefecture_kana": "サイタマケン",
    "prefecture_code": "11",
    "city": "比企郡川島町",
    "city_kana": "ヒキグンカワジママチ",
    "town": "白井沼",
    "town_kana": "シロイヌマ",
    "street": null,
    "office_name": null,
    "office_name_kana": null
  },
  "0131": {
    "zip_code": "3500131",
    "prefecture": "埼玉県",
    "prefecture_kana": "サイタマケン",
    "prefecture_code": "11",
    "city": "比企郡川島町",
    "city_kana": "ヒキグンカワジママチ",
    "town": "平沼",
    "town_kana": "ヒラヌマ",
    "street": null,
    "office_name": null,
    "office_name_kana": null
  },
  "0132": {
    "zip_code": "3500132",
    "prefecture": "埼玉県",
    "prefecture_kana": "サイタマケン",
    "prefecture_code": "11",
    "city": "比企郡川島町",
    "city_kana": "ヒキグンカワジママチ",
    "town": "紫竹",
    "town_kana": "シチク",
    "street": null,
    "office_name": null,
    "office_name_kana": null
  },
  "0133": {
    "zip_code": "3500133",
    "prefecture": "埼玉県",
    "prefecture_kana": "サイタマケン",
    "prefecture_code": "11",
    "city": "比企郡川島町",
    "city_kana": "ヒキグンカワジママチ",
    "town": "表",
    "town_kana": "オモテ",
    "street": null,
    "office_name": null,
    "office_name_kana": null
  },
  "0134": {
    "zip_code": "3500134",
    "prefecture": "埼玉県",
    "prefecture_kana": "サイタマケン",
    "prefecture_code": "11",
    "city": "比企郡川島町",
    "city_kana": "ヒキグンカワジママチ",
    "town": "新堀",
    "town_kana": "ニイボリ",
    "street": null,
    "office_name": null,
    "office_name_kana": null
  },
  "0135": {
    "zip_code": "3500135",
    "prefecture": "埼玉県",
    "prefecture_kana": "サイタマケン",
    "prefecture_code": "11",
    "city": "比企郡川島町",
    "city_kana": "ヒキグンカワジママチ",
    "town": "下狢",
    "town_kana": "シモムジナ",
    "street": null,
    "office_name": null,
    "office_name_kana": null
  },
  "0136": {
    "zip_code": "3500136",
    "prefecture": "埼玉県",
    "prefecture_kana": "サイタマケン",
    "prefecture_code": "11",
    "city": "比企郡川島町",
    "city_kana": "ヒキグンカワジママチ",
    "town": "上狢",
    "town_kana": "カミムジナ",
    "street": null,
    "office_name": null,
    "office_name_kana": null
  },
  "0137": {
    "zip_code": "3500137",
    "prefecture": "埼玉県",
    "prefecture_kana": "サイタマケン",
    "prefecture_code": "11",
    "city": "比企郡川島町",
    "city_kana": "ヒキグンカワジママチ",
    "town": "宮前",
    "town_kana": "ミヤマエ",
    "street": null,
    "office_name": null,
    "office_name_kana": null
  },
  "0138": {
    "zip_code": "3500138",
    "prefecture": "埼玉県",
    "prefecture_kana": "サイタマケン",
    "prefecture_code": "11",
    "city": "比企郡川島町",
    "city_kana": "ヒキグンカワジママチ",
    "town": "吉原",
    "town_kana": "ヨシワラ",
    "street": null,
    "office_name": null,
    "office_name_kana": null
  },
  "0141": {
    "zip_code": "3500141",
    "prefecture": "埼玉県",
    "prefecture_kana": "サイタマケン",
    "prefecture_code": "11",
    "city": "比企郡川島町",
    "city_kana": "ヒキグンカワジママチ",
    "town": "出丸下郷",
    "town_kana": "デマルシモゴウ",
    "street": null,
    "office_name": null,
    "office_name_kana": null
  },
  "0142": {
    "zip_code": "3500142",
    "prefecture": "埼玉県",
    "prefecture_kana": "サイタマケン",
    "prefecture_code": "11",
    "city": "比企郡川島町",
    "city_kana": "ヒキグンカワジママチ",
    "town": "上大屋敷",
    "town_kana": "カミオオヤシキ",
    "street": null,
    "office_name": null,
    "office_name_kana": null
  },
  "0143": {
    "zip_code": "3500143",
    "prefecture": "埼玉県",
    "prefecture_kana": "サイタマケン",
    "prefecture_code": "11",
    "city": "比企郡川島町",
    "city_kana": "ヒキグンカワジママチ",
    "town": "出丸中郷",
    "town_kana": "デマルナカゴウ",
    "street": null,
    "office_name": null,
    "office_name_kana": null
  },
  "0144": {
    "zip_code": "3500144",
    "prefecture": "埼玉県",
    "prefecture_kana": "サイタマケン",
    "prefecture_code": "11",
    "city": "比企郡川島町",
    "city_kana": "ヒキグンカワジママチ",
    "town": "下大屋敷",
    "town_kana": "シモオオヤシキ",
    "street": null,
    "office_name": null,
    "office_name_kana": null
  },
  "0145": {
    "zip_code": "3500145",
    "prefecture": "埼玉県",
    "prefecture_kana": "サイタマケン",
    "prefecture_code": "11",
    "city": "比企郡川島町",
    "city_kana": "ヒキグンカワジママチ",
    "town": "出丸本",
    "town_kana": "デマルホン",
    "street": null,
    "office_name": null,
    "office_name_kana": null
  },
  "0146": {
    "zip_code": "3500146",
    "prefecture": "埼玉県",
    "prefecture_kana": "サイタマケン",
    "prefecture_code": "11",
    "city": "比企郡川島町",
    "city_kana": "ヒキグンカワジママチ",
    "town": "曲師",
    "town_kana": "マゲシ",
    "street": null,
    "office_name": null,
    "office_name_kana": null
  },
  "0147": {
    "zip_code": "3500147",
    "prefecture": "埼玉県",
    "prefecture_kana": "サイタマケン",
    "prefecture_code": "11",
    "city": "比企郡川島町",
    "city_kana": "ヒキグンカワジママチ",
    "town": "西谷",
    "town_kana": "ニシヤ",
    "street": null,
    "office_name": null,
    "office_name_kana": null
  },
  "0151": {
    "zip_code": "3500151",
    "prefecture": "埼玉県",
    "prefecture_kana": "サイタマケン",
    "prefecture_code": "11",
    "city": "比企郡川島町",
    "city_kana": "ヒキグンカワジママチ",
    "town": "八幡",
    "town_kana": "ハチマン",
    "street": null,
    "office_name": null,
    "office_name_kana": null
  },
  "0152": {
    "zip_code": "3500152",
    "prefecture": "埼玉県",
    "prefecture_kana": "サイタマケン",
    "prefecture_code": "11",
    "city": "比企郡川島町",
    "city_kana": "ヒキグンカワジママチ",
    "town": "上伊草",
    "town_kana": "カミイグサ",
    "street": null,
    "office_name": null,
    "office_name_kana": null
  },
  "0153": {
    "zip_code": "3500153",
    "prefecture": "埼玉県",
    "prefecture_kana": "サイタマケン",
    "prefecture_code": "11",
    "city": "比企郡川島町",
    "city_kana": "ヒキグンカワジママチ",
    "town": "飯島",
    "town_kana": "イイジマ",
    "street": null,
    "office_name": null,
    "office_name_kana": null
  },
  "0154": {
    "zip_code": "3500154",
    "prefecture": "埼玉県",
    "prefecture_kana": "サイタマケン",
    "prefecture_code": "11",
    "city": "比企郡川島町",
    "city_kana": "ヒキグンカワジママチ",
    "town": "安塚",
    "town_kana": "ヤスヅカ",
    "street": null,
    "office_name": null,
    "office_name_kana": null
  },
  "0155": {
    "zip_code": "3500155",
    "prefecture": "埼玉県",
    "prefecture_kana": "サイタマケン",
    "prefecture_code": "11",
    "city": "比企郡川島町",
    "city_kana": "ヒキグンカワジママチ",
    "town": "釘無",
    "town_kana": "クギナシ",
    "street": null,
    "office_name": null,
    "office_name_kana": null
  },
  "0156": {
    "zip_code": "3500156",
    "prefecture": "埼玉県",
    "prefecture_kana": "サイタマケン",
    "prefecture_code": "11",
    "city": "比企郡川島町",
    "city_kana": "ヒキグンカワジママチ",
    "town": "角泉",
    "town_kana": "カクセン",
    "street": null,
    "office_name": null,
    "office_name_kana": null
  },
  "0157": {
    "zip_code": "3500157",
    "prefecture": "埼玉県",
    "prefecture_kana": "サイタマケン",
    "prefecture_code": "11",
    "city": "比企郡川島町",
    "city_kana": "ヒキグンカワジママチ",
    "town": "下伊草",
    "town_kana": "シモイグサ",
    "street": null,
    "office_name": null,
    "office_name_kana": null
  },
  "0158": {
    "zip_code": "3500158",
    "prefecture": "埼玉県",
    "prefecture_kana": "サイタマケン",
    "prefecture_code": "11",
    "city": "比企郡川島町",
    "city_kana": "ヒキグンカワジママチ",
    "town": "伊草",
    "town_kana": "イグサ",
    "street": null,
    "office_name": null,
    "office_name_kana": null
  },
  "0161": {
    "zip_code": "3500161",
    "prefecture": "埼玉県",
    "prefecture_kana": "サイタマケン",
    "prefecture_code": "11",
    "city": "比企郡川島町",
    "city_kana": "ヒキグンカワジママチ",
    "town": "長楽",
    "town_kana": "ナガラク",
    "street": null,
    "office_name": null,
    "office_name_kana": null
  },
  "0162": {
    "zip_code": "3500162",
    "prefecture": "埼玉県",
    "prefecture_kana": "サイタマケン",
    "prefecture_code": "11",
    "city": "比企郡川島町",
    "city_kana": "ヒキグンカワジママチ",
    "town": "正直",
    "town_kana": "ショウジキ",
    "street": null,
    "office_name": null,
    "office_name_kana": null
  },
  "0163": {
    "zip_code": "3500163",
    "prefecture": "埼玉県",
    "prefecture_kana": "サイタマケン",
    "prefecture_code": "11",
    "city": "比企郡川島町",
    "city_kana": "ヒキグンカワジママチ",
    "town": "北園部",
    "town_kana": "キタソノベ",
    "street": null,
    "office_name": null,
    "office_name_kana": null
  },
  "0164": {
    "zip_code": "3500164",
    "prefecture": "埼玉県",
    "prefecture_kana": "サイタマケン",
    "prefecture_code": "11",
    "city": "比企郡川島町",
    "city_kana": "ヒキグンカワジママチ",
    "town": "吹塚",
    "town_kana": "フキヅカ",
    "street": null,
    "office_name": null,
    "office_name_kana": null
  },
  "0165": {
    "zip_code": "3500165",
    "prefecture": "埼玉県",
    "prefecture_kana": "サイタマケン",
    "prefecture_code": "11",
    "city": "比企郡川島町",
    "city_kana": "ヒキグンカワジママチ",
    "town": "中山",
    "town_kana": "ナカヤマ",
    "street": null,
    "office_name": null,
    "office_name_kana": null
  },
  "0166": {
    "zip_code": "3500166",
    "prefecture": "埼玉県",
    "prefecture_kana": "サイタマケン",
    "prefecture_code": "11",
    "city": "比企郡川島町",
    "city_kana": "ヒキグンカワジママチ",
    "town": "戸守",
    "town_kana": "トモリ",
    "street": null,
    "office_name": null,
    "office_name_kana": null
  },
  "0167": {
    "zip_code": "3500167",
    "prefecture": "埼玉県",
    "prefecture_kana": "サイタマケン",
    "prefecture_code": "11",
    "city": "比企郡川島町",
    "city_kana": "ヒキグンカワジママチ",
    "town": "南園部",
    "town_kana": "ミナミソノベ",
    "street": null,
    "office_name": null,
    "office_name_kana": null
  },
  "0168": {
    "zip_code": "3500168",
    "prefecture": "埼玉県",
    "prefecture_kana": "サイタマケン",
    "prefecture_code": "11",
    "city": "比企郡川島町",
    "city_kana": "ヒキグンカワジママチ",
    "town": "かわじま",
    "town_kana": "カワジマ",
    "street": null,
    "office_name": null,
    "office_name_kana": null
  },
  "0192": {
    "zip_code": "3500192",
    "prefecture": "埼玉県",
    "prefecture_kana": null,
    "prefecture_code": null,
    "city": "比企郡川島町",
    "city_kana": null,
    "town": "大字平沼",
    "town_kana": null,
    "street": "１１７５",
    "office_name": "川島町役場",
    "office_name_kana": "カワジママチヤクバ"
  },
  "0193": {
    "zip_code": "3500193",
    "prefecture": "埼玉県",
    "prefecture_kana": "サイタマケン",
    "prefecture_code": "11",
    "city": "比企郡川島町",
    "city_kana": "ヒキグンカワジママチ",
    "town": "八幡",
    "town_kana": "ハチマン",
    "street": "６丁目１３",
    "office_name": "三井精機工業　株式会社　川島工場",
    "office_name_kana": "ミツイセイキコウギヨウ カブシキガイシヤ カワジマコウジヨウ"
  },
  "0195": {
    "zip_code": "3500195",
    "prefecture": "埼玉県",
    "prefecture_kana": "サイタマケン",
    "prefecture_code": "11",
    "city": "比企郡川島町",
    "city_kana": "ヒキグンカワジママチ",
    "town": "かわじま",
    "town_kana": "カワジマ",
    "street": "２−１−１",
    "office_name": "アマゾン　川島ＦＣ　入庫係",
    "office_name_kana": "アマゾン カワジマエフシ- ニユウコカカリ"
  },
  "0197": {
    "zip_code": "3500197",
    "prefecture": "埼玉県",
    "prefecture_kana": null,
    "prefecture_code": null,
    "city": "比企郡川島町",
    "city_kana": null,
    "town": "大字戸守",
    "town_kana": null,
    "street": "３９２−１１",
    "office_name": "イーデーエム　株式会社　テクノセンター",
    "office_name_kana": "イ-デ-エム カブシキガイシヤ テクノセンタ-"
  },
  "0200": {
    "zip_code": "3500200",
    "prefecture": "埼玉県",
    "prefecture_kana": "サイタマケン",
    "prefecture_code": "11",
    "city": "坂戸市",
    "city_kana": "サカドシ",
    "town": "",
    "town_kana": "",
    "street": null,
    "office_name": null,
    "office_name_kana": null
  },
  "0201": {
    "zip_code": "3500201",
    "prefecture": "埼玉県",
    "prefecture_kana": "サイタマケン",
    "prefecture_code": "11",
    "city": "坂戸市",
    "city_kana": "サカドシ",
    "town": "赤尾",
    "town_kana": "アカオ",
    "street": null,
    "office_name": null,
    "office_name_kana": null
  },
  "0202": {
    "zip_code": "3500202",
    "prefecture": "埼玉県",
    "prefecture_kana": "サイタマケン",
    "prefecture_code": "11",
    "city": "坂戸市",
    "city_kana": "サカドシ",
    "town": "小沼",
    "town_kana": "コヌマ",
    "street": null,
    "office_name": null,
    "office_name_kana": null
  },
  "0203": {
    "zip_code": "3500203",
    "prefecture": "埼玉県",
    "prefecture_kana": "サイタマケン",
    "prefecture_code": "11",
    "city": "坂戸市",
    "city_kana": "サカドシ",
    "town": "横沼",
    "town_kana": "ヨコヌマ",
    "street": null,
    "office_name": null,
    "office_name_kana": null
  },
  "0204": {
    "zip_code": "3500204",
    "prefecture": "埼玉県",
    "prefecture_kana": "サイタマケン",
    "prefecture_code": "11",
    "city": "坂戸市",
    "city_kana": "サカドシ",
    "town": "紺屋",
    "town_kana": "コウヤ",
    "street": null,
    "office_name": null,
    "office_name_kana": null
  },
  "0205": {
    "zip_code": "3500205",
    "prefecture": "埼玉県",
    "prefecture_kana": "サイタマケン",
    "prefecture_code": "11",
    "city": "坂戸市",
    "city_kana": "サカドシ",
    "town": "東坂戸",
    "town_kana": "ヒガシサカド",
    "street": null,
    "office_name": null,
    "office_name_kana": null
  },
  "0206": {
    "zip_code": "3500206",
    "prefecture": "埼玉県",
    "prefecture_kana": "サイタマケン",
    "prefecture_code": "11",
    "city": "坂戸市",
    "city_kana": "サカドシ",
    "town": "中小坂",
    "town_kana": "ナカオサカ",
    "street": null,
    "office_name": null,
    "office_name_kana": null
  },
  "0207": {
    "zip_code": "3500207",
    "prefecture": "埼玉県",
    "prefecture_kana": "サイタマケン",
    "prefecture_code": "11",
    "city": "坂戸市",
    "city_kana": "サカドシ",
    "town": "青木",
    "town_kana": "アオキ",
    "street": null,
    "office_name": null,
    "office_name_kana": null
  },
  "0208": {
    "zip_code": "3500208",
    "prefecture": "埼玉県",
    "prefecture_kana": "サイタマケン",
    "prefecture_code": "11",
    "city": "坂戸市",
    "city_kana": "サカドシ",
    "town": "戸宮",
    "town_kana": "トミヤ",
    "street": null,
    "office_name": null,
    "office_name_kana": null
  },
  "0209": {
    "zip_code": "3500209",
    "prefecture": "埼玉県",
    "prefecture_kana": "サイタマケン",
    "prefecture_code": "11",
    "city": "坂戸市",
    "city_kana": "サカドシ",
    "town": "塚越",
    "town_kana": "ツカゴシ",
    "street": null,
    "office_name": null,
    "office_name_kana": null
  },
  "0211": {
    "zip_code": "3500211",
    "prefecture": "埼玉県",
    "prefecture_kana": "サイタマケン",
    "prefecture_code": "11",
    "city": "坂戸市",
    "city_kana": "サカドシ",
    "town": "島田",
    "town_kana": "シマダ",
    "street": null,
    "office_name": null,
    "office_name_kana": null
  },
  "0212": {
    "zip_code": "3500212",
    "prefecture": "埼玉県",
    "prefecture_kana": "サイタマケン",
    "prefecture_code": "11",
    "city": "坂戸市",
    "city_kana": "サカドシ",
    "town": "石井",
    "town_kana": "イシイ",
    "street": null,
    "office_name": null,
    "office_name_kana": null
  },
  "0213": {
    "zip_code": "3500213",
    "prefecture": "埼玉県",
    "prefecture_kana": "サイタマケン",
    "prefecture_code": "11",
    "city": "坂戸市",
    "city_kana": "サカドシ",
    "town": "栄",
    "town_kana": "サカエ",
    "street": null,
    "office_name": null,
    "office_name_kana": null
  },
  "0214": {
    "zip_code": "3500214",
    "prefecture": "埼玉県",
    "prefecture_kana": "サイタマケン",
    "prefecture_code": "11",
    "city": "坂戸市",
    "city_kana": "サカドシ",
    "town": "千代田",
    "town_kana": "チヨダ",
    "street": null,
    "office_name": null,
    "office_name_kana": null
  },
  "0215": {
    "zip_code": "3500215",
    "prefecture": "埼玉県",
    "prefecture_kana": "サイタマケン",
    "prefecture_code": "11",
    "city": "坂戸市",
    "city_kana": "サカドシ",
    "town": "関間",
    "town_kana": "セキマ",
    "street": null,
    "office_name": null,
    "office_name_kana": null
  },
  "0216": {
    "zip_code": "3500216",
    "prefecture": "埼玉県",
    "prefecture_kana": "サイタマケン",
    "prefecture_code": "11",
    "city": "坂戸市",
    "city_kana": "サカドシ",
    "town": "柳町",
    "town_kana": "ヤナギチョウ",
    "street": null,
    "office_name": null,
    "office_name_kana": null
  },
  "0217": {
    "zip_code": "3500217",
    "prefecture": "埼玉県",
    "prefecture_kana": "サイタマケン",
    "prefecture_code": "11",
    "city": "坂戸市",
    "city_kana": "サカドシ",
    "town": "坂戸",
    "town_kana": "サカド",
    "street": null,
    "office_name": null,
    "office_name_kana": null
  },
  "0218": {
    "zip_code": "3500218",
    "prefecture": "埼玉県",
    "prefecture_kana": "サイタマケン",
    "prefecture_code": "11",
    "city": "坂戸市",
    "city_kana": "サカドシ",
    "town": "片柳新田",
    "town_kana": "カタヤナギシンデン",
    "street": null,
    "office_name": null,
    "office_name_kana": null
  },
  "0219": {
    "zip_code": "3500219",
    "prefecture": "埼玉県",
    "prefecture_kana": "サイタマケン",
    "prefecture_code": "11",
    "city": "坂戸市",
    "city_kana": "サカドシ",
    "town": "片柳",
    "town_kana": "カタヤナギ",
    "street": null,
    "office_name": null,
    "office_name_kana": null
  },
  "0221": {
    "zip_code": "3500221",
    "prefecture": "埼玉県",
    "prefecture_kana": "サイタマケン",
    "prefecture_code": "11",
    "city": "坂戸市",
    "city_kana": "サカドシ",
    "town": "鎌倉町",
    "town_kana": "カマクラチョウ",
    "street": null,
    "office_name": null,
    "office_name_kana": null
  },
  "0222": {
    "zip_code": "3500222",
    "prefecture": "埼玉県",
    "prefecture_kana": "サイタマケン",
    "prefecture_code": "11",
    "city": "坂戸市",
    "city_kana": "サカドシ",
    "town": "清水町",
    "town_kana": "シミズチョウ",
    "street": null,
    "office_name": null,
    "office_name_kana": null
  },
  "0223": {
    "zip_code": "3500223",
    "prefecture": "埼玉県",
    "prefecture_kana": "サイタマケン",
    "prefecture_code": "11",
    "city": "坂戸市",
    "city_kana": "サカドシ",
    "town": "八幡",
    "town_kana": "ヤハタ",
    "street": null,
    "office_name": null,
    "office_name_kana": null
  },
  "0224": {
    "zip_code": "3500224",
    "prefecture": "埼玉県",
    "prefecture_kana": "サイタマケン",
    "prefecture_code": "11",
    "city": "坂戸市",
    "city_kana": "サカドシ",
    "town": "山田町",
    "town_kana": "ヤマタチョウ",
    "street": null,
    "office_name": null,
    "office_name_kana": null
  },
  "0225": {
    "zip_code": "3500225",
    "prefecture": "埼玉県",
    "prefecture_kana": "サイタマケン",
    "prefecture_code": "11",
    "city": "坂戸市",
    "city_kana": "サカドシ",
    "town": "日の出町",
    "town_kana": "ヒノデチョウ",
    "street": null,
    "office_name": null,
    "office_name_kana": null
  },
  "0226": {
    "zip_code": "3500226",
    "prefecture": "埼玉県",
    "prefecture_kana": "サイタマケン",
    "prefecture_code": "11",
    "city": "坂戸市",
    "city_kana": "サカドシ",
    "town": "本町",
    "town_kana": "ホンチョウ",
    "street": null,
    "office_name": null,
    "office_name_kana": null
  },
  "0227": {
    "zip_code": "3500227",
    "prefecture": "埼玉県",
    "prefecture_kana": "サイタマケン",
    "prefecture_code": "11",
    "city": "坂戸市",
    "city_kana": "サカドシ",
    "town": "仲町",
    "town_kana": "ナカチョウ",
    "street": null,
    "office_name": null,
    "office_name_kana": null
  },
  "0228": {
    "zip_code": "3500228",
    "prefecture": "埼玉県",
    "prefecture_kana": "サイタマケン",
    "prefecture_code": "11",
    "city": "坂戸市",
    "city_kana": "サカドシ",
    "town": "元町",
    "town_kana": "モトチョウ",
    "street": null,
    "office_name": null,
    "office_name_kana": null
  },
  "0229": {
    "zip_code": "3500229",
    "prefecture": "埼玉県",
    "prefecture_kana": "サイタマケン",
    "prefecture_code": "11",
    "city": "坂戸市",
    "city_kana": "サカドシ",
    "town": "薬師町",
    "town_kana": "ヤクシチョウ",
    "street": null,
    "office_name": null,
    "office_name_kana": null
  },
  "0231": {
    "zip_code": "3500231",
    "prefecture": "埼玉県",
    "prefecture_kana": "サイタマケン",
    "prefecture_code": "11",
    "city": "坂戸市",
    "city_kana": "サカドシ",
    "town": "泉町",
    "town_kana": "イズミチョウ",
    "street": null,
    "office_name": null,
    "office_name_kana": null
  },
  "0232": {
    "zip_code": "3500232",
    "prefecture": "埼玉県",
    "prefecture_kana": "サイタマケン",
    "prefecture_code": "11",
    "city": "坂戸市",
    "city_kana": "サカドシ",
    "town": "中富町",
    "town_kana": "ナカトミチョウ",
    "street": null,
    "office_name": null,
    "office_name_kana": null
  },
  "0233": {
    "zip_code": "3500233",
    "prefecture": "埼玉県",
    "prefecture_kana": "サイタマケン",
    "prefecture_code": "11",
    "city": "坂戸市",
    "city_kana": "サカドシ",
    "town": "南町",
    "town_kana": "ミナミチョウ",
    "street": null,
    "office_name": null,
    "office_name_kana": null
  },
  "0234": {
    "zip_code": "3500234",
    "prefecture": "埼玉県",
    "prefecture_kana": "サイタマケン",
    "prefecture_code": "11",
    "city": "坂戸市",
    "city_kana": "サカドシ",
    "town": "緑町",
    "town_kana": "ミドリチョウ",
    "street": null,
    "office_name": null,
    "office_name_kana": null
  },
  "0235": {
    "zip_code": "3500235",
    "prefecture": "埼玉県",
    "prefecture_kana": "サイタマケン",
    "prefecture_code": "11",
    "city": "坂戸市",
    "city_kana": "サカドシ",
    "town": "三光町",
    "town_kana": "サンコウチョウ",
    "street": null,
    "office_name": null,
    "office_name_kana": null
  },
  "0236": {
    "zip_code": "3500236",
    "prefecture": "埼玉県",
    "prefecture_kana": "サイタマケン",
    "prefecture_code": "11",
    "city": "坂戸市",
    "city_kana": "サカドシ",
    "town": "花影町",
    "town_kana": "ハナカゲチョウ",
    "street": null,
    "office_name": null,
    "office_name_kana": null
  },
  "0237": {
    "zip_code": "3500237",
    "prefecture": "埼玉県",
    "prefecture_kana": "サイタマケン",
    "prefecture_code": "11",
    "city": "坂戸市",
    "city_kana": "サカドシ",
    "town": "浅羽野",
    "town_kana": "アサバノ",
    "street": null,
    "office_name": null,
    "office_name_kana": null
  },
  "0238": {
    "zip_code": "3500238",
    "prefecture": "埼玉県",
    "prefecture_kana": "サイタマケン",
    "prefecture_code": "11",
    "city": "坂戸市",
    "city_kana": "サカドシ",
    "town": "浅羽",
    "town_kana": "アサバ",
    "street": null,
    "office_name": null,
    "office_name_kana": null
  },
  "0239": {
    "zip_code": "3500239",
    "prefecture": "埼玉県",
    "prefecture_kana": "サイタマケン",
    "prefecture_code": "11",
    "city": "坂戸市",
    "city_kana": "サカドシ",
    "town": "粟生田",
    "town_kana": "アオタ",
    "street": null,
    "office_name": null,
    "office_name_kana": null
  },
  "0241": {
    "zip_code": "3500241",
    "prefecture": "埼玉県",
    "prefecture_kana": "サイタマケン",
    "prefecture_code": "11",
    "city": "坂戸市",
    "city_kana": "サカドシ",
    "town": "鶴舞",
    "town_kana": "ツルマイ",
    "street": null,
    "office_name": null,
    "office_name_kana": null
  },
  "0242": {
    "zip_code": "3500242",
    "prefecture": "埼玉県",
    "prefecture_kana": "サイタマケン",
    "prefecture_code": "11",
    "city": "坂戸市",
    "city_kana": "サカドシ",
    "town": "厚川",
    "town_kana": "アツガワ",
    "street": null,
    "office_name": null,
    "office_name_kana": null
  },
  "0243": {
    "zip_code": "3500243",
    "prefecture": "埼玉県",
    "prefecture_kana": "サイタマケン",
    "prefecture_code": "11",
    "city": "坂戸市",
    "city_kana": "サカドシ",
    "town": "萱方",
    "town_kana": "カヤガタ",
    "street": null,
    "office_name": null,
    "office_name_kana": null
  },
  "0244": {
    "zip_code": "3500244",
    "prefecture": "埼玉県",
    "prefecture_kana": "サイタマケン",
    "prefecture_code": "11",
    "city": "坂戸市",
    "city_kana": "サカドシ",
    "town": "森戸",
    "town_kana": "モリド",
    "street": null,
    "office_name": null,
    "office_name_kana": null
  },
  "0245": {
    "zip_code": "3500245",
    "prefecture": "埼玉県",
    "prefecture_kana": "サイタマケン",
    "prefecture_code": "11",
    "city": "坂戸市",
    "city_kana": "サカドシ",
    "town": "四日市場",
    "town_kana": "ヨッカイチバ",
    "street": null,
    "office_name": null,
    "office_name_kana": null
  },
  "0246": {
    "zip_code": "3500246",
    "prefecture": "埼玉県",
    "prefecture_kana": "サイタマケン",
    "prefecture_code": "11",
    "city": "坂戸市",
    "city_kana": "サカドシ",
    "town": "多和目",
    "town_kana": "タワメ",
    "street": null,
    "office_name": null,
    "office_name_kana": null
  },
  "0247": {
    "zip_code": "3500247",
    "prefecture": "埼玉県",
    "prefecture_kana": "サイタマケン",
    "prefecture_code": "11",
    "city": "坂戸市",
    "city_kana": "サカドシ",
    "town": "西坂戸",
    "town_kana": "ニシサカド",
    "street": null,
    "office_name": null,
    "office_name_kana": null
  },
  "0248": {
    "zip_code": "3500248",
    "prefecture": "埼玉県",
    "prefecture_kana": "サイタマケン",
    "prefecture_code": "11",
    "city": "坂戸市",
    "city_kana": "サカドシ",
    "town": "けやき台",
    "town_kana": "ケヤキダイ",
    "street": null,
    "office_name": null,
    "office_name_kana": null
  },
  "0251": {
    "zip_code": "3500251",
    "prefecture": "埼玉県",
    "prefecture_kana": "サイタマケン",
    "prefecture_code": "11",
    "city": "坂戸市",
    "city_kana": "サカドシ",
    "town": "塚崎",
    "town_kana": "ツカサキ",
    "street": null,
    "office_name": null,
    "office_name_kana": null
  },
  "0252": {
    "zip_code": "3500252",
    "prefecture": "埼玉県",
    "prefecture_kana": "サイタマケン",
    "prefecture_code": "11",
    "city": "坂戸市",
    "city_kana": "サカドシ",
    "town": "中里",
    "town_kana": "ナカザト",
    "street": null,
    "office_name": null,
    "office_name_kana": null
  },
  "0253": {
    "zip_code": "3500253",
    "prefecture": "埼玉県",
    "prefecture_kana": "サイタマケン",
    "prefecture_code": "11",
    "city": "坂戸市",
    "city_kana": "サカドシ",
    "town": "北大塚",
    "town_kana": "キタオオツカ",
    "street": null,
    "office_name": null,
    "office_name_kana": null
  },
  "0254": {
    "zip_code": "3500254",
    "prefecture": "埼玉県",
    "prefecture_kana": "サイタマケン",
    "prefecture_code": "11",
    "city": "坂戸市",
    "city_kana": "サカドシ",
    "town": "欠ノ上",
    "town_kana": "カケノウエ",
    "street": null,
    "office_name": null,
    "office_name_kana": null
  },
  "0255": {
    "zip_code": "3500255",
    "prefecture": "埼玉県",
    "prefecture_kana": "サイタマケン",
    "prefecture_code": "11",
    "city": "坂戸市",
    "city_kana": "サカドシ",
    "town": "成願寺",
    "town_kana": "ジョウガンジ",
    "street": null,
    "office_name": null,
    "office_name_kana": null
  },
  "0256": {
    "zip_code": "3500256",
    "prefecture": "埼玉県",
    "prefecture_kana": "サイタマケン",
    "prefecture_code": "11",
    "city": "坂戸市",
    "city_kana": "サカドシ",
    "town": "善能寺",
    "town_kana": "ゼンノウジ",
    "street": null,
    "office_name": null,
    "office_name_kana": null
  },
  "0257": {
    "zip_code": "3500257",
    "prefecture": "埼玉県",
    "prefecture_kana": "サイタマケン",
    "prefecture_code": "11",
    "city": "坂戸市",
    "city_kana": "サカドシ",
    "town": "小山",
    "town_kana": "コヤマ",
    "street": null,
    "office_name": null,
    "office_name_kana": null
  },
  "0258": {
    "zip_code": "3500258",
    "prefecture": "埼玉県",
    "prefecture_kana": "サイタマケン",
    "prefecture_code": "11",
    "city": "坂戸市",
    "city_kana": "サカドシ",
    "town": "北峰",
    "town_kana": "キタミネ",
    "street": null,
    "office_name": null,
    "office_name_kana": null
  },
  "0261": {
    "zip_code": "3500261",
    "prefecture": "埼玉県",
    "prefecture_kana": "サイタマケン",
    "prefecture_code": "11",
    "city": "坂戸市",
    "city_kana": "サカドシ",
    "town": "沢木",
    "town_kana": "サワキ",
    "street": null,
    "office_name": null,
    "office_name_kana": null
  },
  "0262": {
    "zip_code": "3500262",
    "prefecture": "埼玉県",
    "prefecture_kana": "サイタマケン",
    "prefecture_code": "11",
    "city": "坂戸市",
    "city_kana": "サカドシ",
    "town": "新堀",
    "town_kana": "ニイホリ",
    "street": null,
    "office_name": null,
    "office_name_kana": null
  },
  "0263": {
    "zip_code": "3500263",
    "prefecture": "埼玉県",
    "prefecture_kana": "サイタマケン",
    "prefecture_code": "11",
    "city": "坂戸市",
    "city_kana": "サカドシ",
    "town": "堀込",
    "town_kana": "ホリゴメ",
    "street": null,
    "office_name": null,
    "office_name_kana": null
  },
  "0264": {
    "zip_code": "3500264",
    "prefecture": "埼玉県",
    "prefecture_kana": "サイタマケン",
    "prefecture_code": "11",
    "city": "坂戸市",
    "city_kana": "サカドシ",
    "town": "竹之内",
    "town_kana": "タケノウチ",
    "street": null,
    "office_name": null,
    "office_name_kana": null
  },
  "0265": {
    "zip_code": "3500265",
    "prefecture": "埼玉県",
    "prefecture_kana": "サイタマケン",
    "prefecture_code": "11",
    "city": "坂戸市",
    "city_kana": "サカドシ",
    "town": "長岡",
    "town_kana": "ナガオカ",
    "street": null,
    "office_name": null,
    "office_name_kana": null
  },
  "0266": {
    "zip_code": "3500266",
    "prefecture": "埼玉県",
    "prefecture_kana": "サイタマケン",
    "prefecture_code": "11",
    "city": "坂戸市",
    "city_kana": "サカドシ",
    "town": "北浅羽",
    "town_kana": "キタアサバ",
    "street": null,
    "office_name": null,
    "office_name_kana": null
  },
  "0267": {
    "zip_code": "3500267",
    "prefecture": "埼玉県",
    "prefecture_kana": "サイタマケン",
    "prefecture_code": "11",
    "city": "坂戸市",
    "city_kana": "サカドシ",
    "town": "今西",
    "town_kana": "イマニシ",
    "street": null,
    "office_name": null,
    "office_name_kana": null
  },
  "0268": {
    "zip_code": "3500268",
    "prefecture": "埼玉県",
    "prefecture_kana": "サイタマケン",
    "prefecture_code": "11",
    "city": "坂戸市",
    "city_kana": "サカドシ",
    "town": "金田",
    "town_kana": "カネダ",
    "street": null,
    "office_name": null,
    "office_name_kana": null
  },
  "0269": {
    "zip_code": "3500269",
    "prefecture": "埼玉県",
    "prefecture_kana": "サイタマケン",
    "prefecture_code": "11",
    "city": "坂戸市",
    "city_kana": "サカドシ",
    "town": "にっさい花みず木",
    "town_kana": "ニッサイハナミズキ",
    "street": null,
    "office_name": null,
    "office_name_kana": null
  },
  "0271": {
    "zip_code": "3500271",
    "prefecture": "埼玉県",
    "prefecture_kana": "サイタマケン",
    "prefecture_code": "11",
    "city": "坂戸市",
    "city_kana": "サカドシ",
    "town": "上吉田",
    "town_kana": "カミヨシダ",
    "street": null,
    "office_name": null,
    "office_name_kana": null
  },
  "0272": {
    "zip_code": "3500272",
    "prefecture": "埼玉県",
    "prefecture_kana": "サイタマケン",
    "prefecture_code": "11",
    "city": "坂戸市",
    "city_kana": "サカドシ",
    "town": "末広町",
    "town_kana": "スエヒロチョウ",
    "street": null,
    "office_name": null,
    "office_name_kana": null
  },
  "0273": {
    "zip_code": "3500273",
    "prefecture": "埼玉県",
    "prefecture_kana": "サイタマケン",
    "prefecture_code": "11",
    "city": "坂戸市",
    "city_kana": "サカドシ",
    "town": "芦山町",
    "town_kana": "アシヤマチョウ",
    "street": null,
    "office_name": null,
    "office_name_kana": null
  },
  "0274": {
    "zip_code": "3500274",
    "prefecture": "埼玉県",
    "prefecture_kana": "サイタマケン",
    "prefecture_code": "11",
    "city": "坂戸市",
    "city_kana": "サカドシ",
    "town": "溝端町",
    "town_kana": "ミゾハタチョウ",
    "street": null,
    "office_name": null,
    "office_name_kana": null
  },
  "0275": {
    "zip_code": "3500275",
    "prefecture": "埼玉県",
    "prefecture_kana": "サイタマケン",
    "prefecture_code": "11",
    "city": "坂戸市",
    "city_kana": "サカドシ",
    "town": "伊豆の山町",
    "town_kana": "イズノヤマチョウ",
    "street": null,
    "office_name": null,
    "office_name_kana": null
  },
  "0276": {
    "zip_code": "3500276",
    "prefecture": "埼玉県",
    "prefecture_kana": "サイタマケン",
    "prefecture_code": "11",
    "city": "坂戸市",
    "city_kana": "サカドシ",
    "town": "戸口",
    "town_kana": "トグチ",
    "street": null,
    "office_name": null,
    "office_name_kana": null
  },
  "0277": {
    "zip_code": "3500277",
    "prefecture": "埼玉県",
    "prefecture_kana": "サイタマケン",
    "prefecture_code": "11",
    "city": "坂戸市",
    "city_kana": "サカドシ",
    "town": "東和田",
    "town_kana": "ヒガシワダ",
    "street": null,
    "office_name": null,
    "office_name_kana": null
  },
  "0278": {
    "zip_code": "3500278",
    "prefecture": "埼玉県",
    "prefecture_kana": "サイタマケン",
    "prefecture_code": "11",
    "city": "坂戸市",
    "city_kana": "サカドシ",
    "town": "新ケ谷",
    "town_kana": "シンガヤ",
    "street": null,
    "office_name": null,
    "office_name_kana": null
  },
  "0280": {
    "zip_code": "3500280",
    "prefecture": "埼玉県",
    "prefecture_kana": "サイタマケン",
    "prefecture_code": "11",
    "city": "坂戸市",
    "city_kana": "サカドシ",
    "town": "千代田",
    "town_kana": "チヨダ",
    "street": "５丁目７番２４号",
    "office_name": "株式会社　日東",
    "office_name_kana": "カブシキガイシヤ ニツトウ"
  },
  "0283": {
    "zip_code": "3500283",
    "prefecture": "埼玉県",
    "prefecture_kana": "サイタマケン",
    "prefecture_code": "11",
    "city": "坂戸市",
    "city_kana": "サカドシ",
    "town": "けやき台",
    "town_kana": "ケヤキダイ",
    "street": "１−１",
    "office_name": "明海大学",
    "office_name_kana": "メイカイダイガク"
  },
  "0284": {
    "zip_code": "3500284",
    "prefecture": "埼玉県",
    "prefecture_kana": "サイタマケン",
    "prefecture_code": "11",
    "city": "坂戸市",
    "city_kana": "サカドシ",
    "town": "千代田",
    "town_kana": "チヨダ",
    "street": "５丁目１−２８",
    "office_name": "株式会社　高純度化学研究所",
    "office_name_kana": "カブシキガイシヤ コウジユンドカガクケンキユウシヨ"
  },
  "0285": {
    "zip_code": "3500285",
    "prefecture": "埼玉県",
    "prefecture_kana": null,
    "prefecture_code": null,
    "city": "坂戸市",
    "city_kana": null,
    "town": "大字片柳",
    "town_kana": null,
    "street": "１５００",
    "office_name": "イーグル工業",
    "office_name_kana": "イ-グルコウギヨウ"
  },
  "0286": {
    "zip_code": "3500286",
    "prefecture": "埼玉県",
    "prefecture_kana": "サイタマケン",
    "prefecture_code": "11",
    "city": "坂戸市",
    "city_kana": "サカドシ",
    "town": "千代田",
    "town_kana": "チヨダ",
    "street": "５丁目７番１",
    "office_name": "株式会社　パイオニアＦＡ",
    "office_name_kana": "カブシキガイシヤ パイオニアエフエ-"
  },
  "0287": {
    "zip_code": "3500287",
    "prefecture": "埼玉県",
    "prefecture_kana": "サイタマケン",
    "prefecture_code": "11",
    "city": "坂戸市",
    "city_kana": "サカドシ",
    "town": "千代田",
    "town_kana": "チヨダ",
    "street": "５丁目７−４",
    "office_name": "パイオニアファインテック　株式会社",
    "office_name_kana": "パイオニアフアインテツク カブシキカイシヤ"
  },
  "0288": {
    "zip_code": "3500288",
    "prefecture": "埼玉県",
    "prefecture_kana": "サイタマケン",
    "prefecture_code": "11",
    "city": "坂戸市",
    "city_kana": "サカドシ",
    "town": "千代田",
    "town_kana": "チヨダ",
    "street": "３丁目９−２１",
    "office_name": "女子栄養大学",
    "office_name_kana": "ジヨシエイヨウダイガク"
  },
  "0289": {
    "zip_code": "3500289",
    "prefecture": "埼玉県",
    "prefecture_kana": "サイタマケン",
    "prefecture_code": "11",
    "city": "坂戸市",
    "city_kana": "サカドシ",
    "town": "千代田",
    "town_kana": "チヨダ",
    "street": "５丁目３−１",
    "office_name": "明治製菓",
    "office_name_kana": "メイジセイカ"
  },
  "0292": {
    "zip_code": "3500292",
    "prefecture": "埼玉県",
    "prefecture_kana": "サイタマケン",
    "prefecture_code": "11",
    "city": "坂戸市",
    "city_kana": "サカドシ",
    "town": "千代田",
    "town_kana": "チヨダ",
    "street": "１丁目１−１",
    "office_name": "坂戸市役所",
    "office_name_kana": "サカドシヤクシヨ"
  },
  "0295": {
    "zip_code": "3500295",
    "prefecture": "埼玉県",
    "prefecture_kana": "サイタマケン",
    "prefecture_code": "11",
    "city": "坂戸市",
    "city_kana": "サカドシ",
    "town": "けやき台",
    "town_kana": "ケヤキダイ",
    "street": "１−１",
    "office_name": "城西大学",
    "office_name_kana": "ジヨウサイダイガク"
  },
  "0300": {
    "zip_code": "3500300",
    "prefecture": "埼玉県",
    "prefecture_kana": "サイタマケン",
    "prefecture_code": "11",
    "city": "比企郡鳩山町",
    "city_kana": "ヒキグンハトヤママチ",
    "town": "",
    "town_kana": "",
    "street": null,
    "office_name": null,
    "office_name_kana": null
  },
  "0301": {
    "zip_code": "3500301",
    "prefecture": "埼玉県",
    "prefecture_kana": "サイタマケン",
    "prefecture_code": "11",
    "city": "比企郡鳩山町",
    "city_kana": "ヒキグンハトヤママチ",
    "town": "奥田",
    "town_kana": "オクダ",
    "street": null,
    "office_name": null,
    "office_name_kana": null
  },
  "0302": {
    "zip_code": "3500302",
    "prefecture": "埼玉県",
    "prefecture_kana": "サイタマケン",
    "prefecture_code": "11",
    "city": "比企郡鳩山町",
    "city_kana": "ヒキグンハトヤママチ",
    "town": "大橋",
    "town_kana": "オオハシ",
    "street": null,
    "office_name": null,
    "office_name_kana": null
  },
  "0303": {
    "zip_code": "3500303",
    "prefecture": "埼玉県",
    "prefecture_kana": "サイタマケン",
    "prefecture_code": "11",
    "city": "比企郡鳩山町",
    "city_kana": "ヒキグンハトヤママチ",
    "town": "熊井",
    "town_kana": "クマイ",
    "street": null,
    "office_name": null,
    "office_name_kana": null
  },
  "0304": {
    "zip_code": "3500304",
    "prefecture": "埼玉県",
    "prefecture_kana": "サイタマケン",
    "prefecture_code": "11",
    "city": "比企郡鳩山町",
    "city_kana": "ヒキグンハトヤママチ",
    "town": "高野倉",
    "town_kana": "タカノクラ",
    "street": null,
    "office_name": null,
    "office_name_kana": null
  },
  "0305": {
    "zip_code": "3500305",
    "prefecture": "埼玉県",
    "prefecture_kana": "サイタマケン",
    "prefecture_code": "11",
    "city": "比企郡鳩山町",
    "city_kana": "ヒキグンハトヤママチ",
    "town": "泉井",
    "town_kana": "イズイ",
    "street": null,
    "office_name": null,
    "office_name_kana": null
  },
  "0306": {
    "zip_code": "3500306",
    "prefecture": "埼玉県",
    "prefecture_kana": "サイタマケン",
    "prefecture_code": "11",
    "city": "比企郡鳩山町",
    "city_kana": "ヒキグンハトヤママチ",
    "town": "竹本",
    "town_kana": "タケモト",
    "street": null,
    "office_name": null,
    "office_name_kana": null
  },
  "0307": {
    "zip_code": "3500307",
    "prefecture": "埼玉県",
    "prefecture_kana": "サイタマケン",
    "prefecture_code": "11",
    "city": "比企郡鳩山町",
    "city_kana": "ヒキグンハトヤママチ",
    "town": "須江",
    "town_kana": "スエ",
    "street": null,
    "office_name": null,
    "office_name_kana": null
  },
  "0311": {
    "zip_code": "3500311",
    "prefecture": "埼玉県",
    "prefecture_kana": "サイタマケン",
    "prefecture_code": "11",
    "city": "比企郡鳩山町",
    "city_kana": "ヒキグンハトヤママチ",
    "town": "石坂",
    "town_kana": "イシザカ",
    "street": null,
    "office_name": null,
    "office_name_kana": null
  },
  "0312": {
    "zip_code": "3500312",
    "prefecture": "埼玉県",
    "prefecture_kana": "サイタマケン",
    "prefecture_code": "11",
    "city": "比企郡鳩山町",
    "city_kana": "ヒキグンハトヤママチ",
    "town": "鳩ケ丘",
    "town_kana": "ハトガオカ",
    "street": null,
    "office_name": null,
    "office_name_kana": null
  },
  "0313": {
    "zip_code": "3500313",
    "prefecture": "埼玉県",
    "prefecture_kana": "サイタマケン",
    "prefecture_code": "11",
    "city": "比企郡鳩山町",
    "city_kana": "ヒキグンハトヤママチ",
    "town": "松ケ丘",
    "town_kana": "マツガオカ",
    "street": null,
    "office_name": null,
    "office_name_kana": null
  },
  "0314": {
    "zip_code": "3500314",
    "prefecture": "埼玉県",
    "prefecture_kana": "サイタマケン",
    "prefecture_code": "11",
    "city": "比企郡鳩山町",
    "city_kana": "ヒキグンハトヤママチ",
    "town": "楓ケ丘",
    "town_kana": "カエデガオカ",
    "street": null,
    "office_name": null,
    "office_name_kana": null
  },
  "0321": {
    "zip_code": "3500321",
    "prefecture": "埼玉県",
    "prefecture_kana": "サイタマケン",
    "prefecture_code": "11",
    "city": "比企郡鳩山町",
    "city_kana": "ヒキグンハトヤママチ",
    "town": "赤沼",
    "town_kana": "アカヌマ",
    "street": null,
    "office_name": null,
    "office_name_kana": null
  },
  "0322": {
    "zip_code": "3500322",
    "prefecture": "埼玉県",
    "prefecture_kana": "サイタマケン",
    "prefecture_code": "11",
    "city": "比企郡鳩山町",
    "city_kana": "ヒキグンハトヤママチ",
    "town": "今宿",
    "town_kana": "イマジュク",
    "street": null,
    "office_name": null,
    "office_name_kana": null
  },
  "0323": {
    "zip_code": "3500323",
    "prefecture": "埼玉県",
    "prefecture_kana": "サイタマケン",
    "prefecture_code": "11",
    "city": "比企郡鳩山町",
    "city_kana": "ヒキグンハトヤママチ",
    "town": "小用",
    "town_kana": "コヨウ",
    "street": null,
    "office_name": null,
    "office_name_kana": null
  },
  "0324": {
    "zip_code": "3500324",
    "prefecture": "埼玉県",
    "prefecture_kana": "サイタマケン",
    "prefecture_code": "11",
    "city": "比企郡鳩山町",
    "city_kana": "ヒキグンハトヤママチ",
    "town": "大豆戸",
    "town_kana": "マメド",
    "street": null,
    "office_name": null,
    "office_name_kana": null
  },
  "0392": {
    "zip_code": "3500392",
    "prefecture": "埼玉県",
    "prefecture_kana": null,
    "prefecture_code": null,
    "city": "比企郡鳩山町",
    "city_kana": null,
    "town": "大字大豆戸",
    "town_kana": null,
    "street": "１８４−１６",
    "office_name": "鳩山町役場",
    "office_name_kana": "ハトヤママチヤクバ"
  },
  "0393": {
    "zip_code": "3500393",
    "prefecture": "埼玉県",
    "prefecture_kana": null,
    "prefecture_code": null,
    "city": "比企郡鳩山町",
    "city_kana": null,
    "town": "大字大橋",
    "town_kana": null,
    "street": "１４０１",
    "office_name": "独立行政法人　宇宙航空研究開発機構　地球観測センター",
    "office_name_kana": "ドクリツギヨウセイホウジン ウチユウケンキユウカイハツキコウ チキユウカンソクセンタ-"
  },
  "0394": {
    "zip_code": "3500394",
    "prefecture": "埼玉県",
    "prefecture_kana": null,
    "prefecture_code": null,
    "city": "比企郡鳩山町",
    "city_kana": null,
    "town": "大字石坂",
    "town_kana": null,
    "street": "Ｆ",
    "office_name": "東京電機大学　理工学部",
    "office_name_kana": "トウキヨウデンキダイガク リコウガクブ"
  },
  "0395": {
    "zip_code": "3500395",
    "prefecture": "埼玉県",
    "prefecture_kana": null,
    "prefecture_code": null,
    "city": "比企郡鳩山町",
    "city_kana": null,
    "town": "大字赤沼",
    "town_kana": null,
    "street": "２５２０",
    "office_name": "株式会社　日立製作所　基礎研究所",
    "office_name_kana": "カブシキガイシヤ ヒタチセイサクシヨ キソケンキユウシヨ"
  },
  "0396": {
    "zip_code": "3500396",
    "prefecture": "埼玉県",
    "prefecture_kana": null,
    "prefecture_code": null,
    "city": "比企郡鳩山町",
    "city_kana": null,
    "town": "大字石坂",
    "town_kana": null,
    "street": "６０４",
    "office_name": "山村学園短期大学",
    "office_name_kana": "ヤマムラガクエンタンキダイガク"
  },
  "0400": [
    {
      "zip_code": "3500400",
      "prefecture": "埼玉県",
      "prefecture_kana": "サイタマケン",
      "prefecture_code": "11",
      "city": "入間郡毛呂山町",
      "city_kana": "イルマグンモロヤママチ",
      "town": "",
      "town_kana": "",
      "street": null,
      "office_name": null,
      "office_name_kana": null
    },
    {
      "zip_code": "3500400",
      "prefecture": "埼玉県",
      "prefecture_kana": "サイタマケン",
      "prefecture_code": "11",
      "city": "入間郡越生町",
      "city_kana": "イルマグンオゴセマチ",
      "town": "",
      "town_kana": "",
      "street": null,
      "office_name": null,
      "office_name_kana": null
    }
  ],
  "0401": {
    "zip_code": "3500401",
    "prefecture": "埼玉県",
    "prefecture_kana": "サイタマケン",
    "prefecture_code": "11",
    "city": "入間郡越生町",
    "city_kana": "イルマグンオゴセマチ",
    "town": "古池",
    "town_kana": "フルイケ",
    "street": null,
    "office_name": null,
    "office_name_kana": null
  },
  "0402": {
    "zip_code": "3500402",
    "prefecture": "埼玉県",
    "prefecture_kana": "サイタマケン",
    "prefecture_code": "11",
    "city": "入間郡越生町",
    "city_kana": "イルマグンオゴセマチ",
    "town": "鹿下",
    "town_kana": "カノシタ",
    "street": null,
    "office_name": null,
    "office_name_kana": null
  },
  "0403": {
    "zip_code": "3500403",
    "prefecture": "埼玉県",
    "prefecture_kana": "サイタマケン",
    "prefecture_code": "11",
    "city": "入間郡越生町",
    "city_kana": "イルマグンオゴセマチ",
    "town": "大谷",
    "town_kana": "オオヤ",
    "street": null,
    "office_name": null,
    "office_name_kana": null
  },
  "0404": {
    "zip_code": "3500404",
    "prefecture": "埼玉県",
    "prefecture_kana": "サイタマケン",
    "prefecture_code": "11",
    "city": "入間郡越生町",
    "city_kana": "イルマグンオゴセマチ",
    "town": "成瀬",
    "town_kana": "ナルセ",
    "street": null,
    "office_name": null,
    "office_name_kana": null
  },
  "0405": {
    "zip_code": "3500405",
    "prefecture": "埼玉県",
    "prefecture_kana": "サイタマケン",
    "prefecture_code": "11",
    "city": "入間郡越生町",
    "city_kana": "イルマグンオゴセマチ",
    "town": "津久根",
    "town_kana": "ツクネ",
    "street": null,
    "office_name": null,
    "office_name_kana": null
  },
  "0406": {
    "zip_code": "3500406",
    "prefecture": "埼玉県",
    "prefecture_kana": "サイタマケン",
    "prefecture_code": "11",
    "city": "入間郡越生町",
    "city_kana": "イルマグンオゴセマチ",
    "town": "堂山",
    "town_kana": "ドウヤマ",
    "street": null,
    "office_name": null,
    "office_name_kana": null
  },
  "0407": {
    "zip_code": "3500407",
    "prefecture": "埼玉県",
    "prefecture_kana": "サイタマケン",
    "prefecture_code": "11",
    "city": "入間郡越生町",
    "city_kana": "イルマグンオゴセマチ",
    "town": "上谷",
    "town_kana": "カミヤツ",
    "street": null,
    "office_name": null,
    "office_name_kana": null
  },
  "0411": {
    "zip_code": "3500411",
    "prefecture": "埼玉県",
    "prefecture_kana": "サイタマケン",
    "prefecture_code": "11",
    "city": "入間郡越生町",
    "city_kana": "イルマグンオゴセマチ",
    "town": "黒岩",
    "town_kana": "クロイワ",
    "street": null,
    "office_name": null,
    "office_name_kana": null
  },
  "0412": {
    "zip_code": "3500412",
    "prefecture": "埼玉県",
    "prefecture_kana": "サイタマケン",
    "prefecture_code": "11",
    "city": "入間郡越生町",
    "city_kana": "イルマグンオゴセマチ",
    "town": "西和田",
    "town_kana": "ニシワダ",
    "street": null,
    "office_name": null,
    "office_name_kana": null
  },
  "0413": {
    "zip_code": "3500413",
    "prefecture": "埼玉県",
    "prefecture_kana": "サイタマケン",
    "prefecture_code": "11",
    "city": "入間郡越生町",
    "city_kana": "イルマグンオゴセマチ",
    "town": "如意",
    "town_kana": "ネオイ",
    "street": null,
    "office_name": null,
    "office_name_kana": null
  },
  "0414": {
    "zip_code": "3500414",
    "prefecture": "埼玉県",
    "prefecture_kana": "サイタマケン",
    "prefecture_code": "11",
    "city": "入間郡越生町",
    "city_kana": "イルマグンオゴセマチ",
    "town": "越生東",
    "town_kana": "オゴセヒガシ",
    "street": null,
    "office_name": null,
    "office_name_kana": null
  },
  "0415": {
    "zip_code": "3500415",
    "prefecture": "埼玉県",
    "prefecture_kana": "サイタマケン",
    "prefecture_code": "11",
    "city": "入間郡越生町",
    "city_kana": "イルマグンオゴセマチ",
    "town": "上野",
    "town_kana": "ウエノ",
    "street": null,
    "office_name": null,
    "office_name_kana": null
  },
  "0416": {
    "zip_code": "3500416",
    "prefecture": "埼玉県",
    "prefecture_kana": "サイタマケン",
    "prefecture_code": "11",
    "city": "入間郡越生町",
    "city_kana": "イルマグンオゴセマチ",
    "town": "越生",
    "town_kana": "オゴセ",
    "street": null,
    "office_name": null,
    "office_name_kana": null
  },
  "0417": {
    "zip_code": "3500417",
    "prefecture": "埼玉県",
    "prefecture_kana": "サイタマケン",
    "prefecture_code": "11",
    "city": "入間郡越生町",
    "city_kana": "イルマグンオゴセマチ",
    "town": "上野東",
    "town_kana": "ウエノヒガシ",
    "street": null,
    "office_name": null,
    "office_name_kana": null
  },
  "0421": {
    "zip_code": "3500421",
    "prefecture": "埼玉県",
    "prefecture_kana": "サイタマケン",
    "prefecture_code": "11",
    "city": "入間郡越生町",
    "city_kana": "イルマグンオゴセマチ",
    "town": "麦原",
    "town_kana": "ムギハラ",
    "street": null,
    "office_name": null,
    "office_name_kana": null
  },
  "0422": {
    "zip_code": "3500422",
    "prefecture": "埼玉県",
    "prefecture_kana": "サイタマケン",
    "prefecture_code": "11",
    "city": "入間郡越生町",
    "city_kana": "イルマグンオゴセマチ",
    "town": "小杉",
    "town_kana": "コスギ",
    "street": null,
    "office_name": null,
    "office_name_kana": null
  },
  "0423": {
    "zip_code": "3500423",
    "prefecture": "埼玉県",
    "prefecture_kana": "サイタマケン",
    "prefecture_code": "11",
    "city": "入間郡越生町",
    "city_kana": "イルマグンオゴセマチ",
    "town": "大満",
    "town_kana": "ダイマ",
    "street": null,
    "office_name": null,
    "office_name_kana": null
  },
  "0424": {
    "zip_code": "3500424",
    "prefecture": "埼玉県",
    "prefecture_kana": "サイタマケン",
    "prefecture_code": "11",
    "city": "入間郡越生町",
    "city_kana": "イルマグンオゴセマチ",
    "town": "黒山",
    "town_kana": "クロヤマ",
    "street": null,
    "office_name": null,
    "office_name_kana": null
  },
  "0425": {
    "zip_code": "3500425",
    "prefecture": "埼玉県",
    "prefecture_kana": "サイタマケン",
    "prefecture_code": "11",
    "city": "入間郡越生町",
    "city_kana": "イルマグンオゴセマチ",
    "town": "龍ケ谷",
    "town_kana": "タツガヤ",
    "street": null,
    "office_name": null,
    "office_name_kana": null
  },
  "0431": {
    "zip_code": "3500431",
    "prefecture": "埼玉県",
    "prefecture_kana": "サイタマケン",
    "prefecture_code": "11",
    "city": "入間郡毛呂山町",
    "city_kana": "イルマグンモロヤママチ",
    "town": "苦林",
    "town_kana": "ニガバヤシ",
    "street": null,
    "office_name": null,
    "office_name_kana": null
  },
  "0432": {
    "zip_code": "3500432",
    "prefecture": "埼玉県",
    "prefecture_kana": "サイタマケン",
    "prefecture_code": "11",
    "city": "入間郡毛呂山町",
    "city_kana": "イルマグンモロヤママチ",
    "town": "大類",
    "town_kana": "オオルイ",
    "street": null,
    "office_name": null,
    "office_name_kana": null
  },
  "0433": {
    "zip_code": "3500433",
    "prefecture": "埼玉県",
    "prefecture_kana": "サイタマケン",
    "prefecture_code": "11",
    "city": "入間郡毛呂山町",
    "city_kana": "イルマグンモロヤママチ",
    "town": "西大久保",
    "town_kana": "ニシオオクボ",
    "street": null,
    "office_name": null,
    "office_name_kana": null
  },
  "0434": {
    "zip_code": "3500434",
    "prefecture": "埼玉県",
    "prefecture_kana": "サイタマケン",
    "prefecture_code": "11",
    "city": "入間郡毛呂山町",
    "city_kana": "イルマグンモロヤママチ",
    "town": "市場",
    "town_kana": "イチバ",
    "street": null,
    "office_name": null,
    "office_name_kana": null
  },
  "0435": {
    "zip_code": "3500435",
    "prefecture": "埼玉県",
    "prefecture_kana": "サイタマケン",
    "prefecture_code": "11",
    "city": "入間郡毛呂山町",
    "city_kana": "イルマグンモロヤママチ",
    "town": "下川原",
    "town_kana": "シモガワラ",
    "street": null,
    "office_name": null,
    "office_name_kana": null
  },
  "0436": {
    "zip_code": "3500436",
    "prefecture": "埼玉県",
    "prefecture_kana": "サイタマケン",
    "prefecture_code": "11",
    "city": "入間郡毛呂山町",
    "city_kana": "イルマグンモロヤママチ",
    "town": "川角",
    "town_kana": "カワカド",
    "street": null,
    "office_name": null,
    "office_name_kana": null
  },
  "0437": {
    "zip_code": "3500437",
    "prefecture": "埼玉県",
    "prefecture_kana": "サイタマケン",
    "prefecture_code": "11",
    "city": "入間郡毛呂山町",
    "city_kana": "イルマグンモロヤママチ",
    "town": "箕和田",
    "town_kana": "ミノワダ",
    "street": null,
    "office_name": null,
    "office_name_kana": null
  },
  "0438": {
    "zip_code": "3500438",
    "prefecture": "埼玉県",
    "prefecture_kana": "サイタマケン",
    "prefecture_code": "11",
    "city": "入間郡毛呂山町",
    "city_kana": "イルマグンモロヤママチ",
    "town": "西戸",
    "town_kana": "サイド",
    "street": null,
    "office_name": null,
    "office_name_kana": null
  },
  "0439": {
    "zip_code": "3500439",
    "prefecture": "埼玉県",
    "prefecture_kana": "サイタマケン",
    "prefecture_code": "11",
    "city": "入間郡毛呂山町",
    "city_kana": "イルマグンモロヤママチ",
    "town": "目白台",
    "town_kana": "メジロダイ",
    "street": null,
    "office_name": null,
    "office_name_kana": null
  },
  "0441": {
    "zip_code": "3500441",
    "prefecture": "埼玉県",
    "prefecture_kana": "サイタマケン",
    "prefecture_code": "11",
    "city": "入間郡毛呂山町",
    "city_kana": "イルマグンモロヤママチ",
    "town": "岩井",
    "town_kana": "イワイ",
    "street": null,
    "office_name": null,
    "office_name_kana": null
  },
  "0442": {
    "zip_code": "3500442",
    "prefecture": "埼玉県",
    "prefecture_kana": "サイタマケン",
    "prefecture_code": "11",
    "city": "入間郡毛呂山町",
    "city_kana": "イルマグンモロヤママチ",
    "town": "前久保",
    "town_kana": "マエクボ",
    "street": null,
    "office_name": null,
    "office_name_kana": null
  },
  "0443": {
    "zip_code": "3500443",
    "prefecture": "埼玉県",
    "prefecture_kana": "サイタマケン",
    "prefecture_code": "11",
    "city": "入間郡毛呂山町",
    "city_kana": "イルマグンモロヤママチ",
    "town": "長瀬",
    "town_kana": "ナガセ",
    "street": null,
    "office_name": null,
    "office_name_kana": null
  },
  "0444": {
    "zip_code": "3500444",
    "prefecture": "埼玉県",
    "prefecture_kana": "サイタマケン",
    "prefecture_code": "11",
    "city": "入間郡毛呂山町",
    "city_kana": "イルマグンモロヤママチ",
    "town": "旭台",
    "town_kana": "アサヒダイ",
    "street": null,
    "office_name": null,
    "office_name_kana": null
  },
  "0445": {
    "zip_code": "3500445",
    "prefecture": "埼玉県",
    "prefecture_kana": "サイタマケン",
    "prefecture_code": "11",
    "city": "入間郡毛呂山町",
    "city_kana": "イルマグンモロヤママチ",
    "town": "葛貫",
    "town_kana": "ツヅラヌキ",
    "street": null,
    "office_name": null,
    "office_name_kana": null
  },
  "0446": {
    "zip_code": "3500446",
    "prefecture": "埼玉県",
    "prefecture_kana": "サイタマケン",
    "prefecture_code": "11",
    "city": "入間郡毛呂山町",
    "city_kana": "イルマグンモロヤママチ",
    "town": "小田谷",
    "town_kana": "コダヤ",
    "street": null,
    "office_name": null,
    "office_name_kana": null
  },
  "0451": {
    "zip_code": "3500451",
    "prefecture": "埼玉県",
    "prefecture_kana": "サイタマケン",
    "prefecture_code": "11",
    "city": "入間郡毛呂山町",
    "city_kana": "イルマグンモロヤママチ",
    "town": "毛呂本郷",
    "town_kana": "モロホンゴウ",
    "street": null,
    "office_name": null,
    "office_name_kana": null
  },
  "0452": {
    "zip_code": "3500452",
    "prefecture": "埼玉県",
    "prefecture_kana": "サイタマケン",
    "prefecture_code": "11",
    "city": "入間郡毛呂山町",
    "city_kana": "イルマグンモロヤママチ",
    "town": "大谷木",
    "town_kana": "オオヤギ",
    "street": null,
    "office_name": null,
    "office_name_kana": null
  },
  "0453": {
    "zip_code": "3500453",
    "prefecture": "埼玉県",
    "prefecture_kana": "サイタマケン",
    "prefecture_code": "11",
    "city": "入間郡毛呂山町",
    "city_kana": "イルマグンモロヤママチ",
    "town": "宿谷",
    "town_kana": "シュクヤ",
    "street": null,
    "office_name": null,
    "office_name_kana": null
  },
  "0454": {
    "zip_code": "3500454",
    "prefecture": "埼玉県",
    "prefecture_kana": "サイタマケン",
    "prefecture_code": "11",
    "city": "入間郡毛呂山町",
    "city_kana": "イルマグンモロヤママチ",
    "town": "権現堂",
    "town_kana": "ゴンゲンドウ",
    "street": null,
    "office_name": null,
    "office_name_kana": null
  },
  "0455": {
    "zip_code": "3500455",
    "prefecture": "埼玉県",
    "prefecture_kana": "サイタマケン",
    "prefecture_code": "11",
    "city": "入間郡毛呂山町",
    "city_kana": "イルマグンモロヤママチ",
    "town": "阿諏訪",
    "town_kana": "アスワ",
    "street": null,
    "office_name": null,
    "office_name_kana": null
  },
  "0456": {
    "zip_code": "3500456",
    "prefecture": "埼玉県",
    "prefecture_kana": "サイタマケン",
    "prefecture_code": "11",
    "city": "入間郡毛呂山町",
    "city_kana": "イルマグンモロヤママチ",
    "town": "滝ノ入",
    "town_kana": "タキノイリ",
    "street": null,
    "office_name": null,
    "office_name_kana": null
  },
  "0461": {
    "zip_code": "3500461",
    "prefecture": "埼玉県",
    "prefecture_kana": "サイタマケン",
    "prefecture_code": "11",
    "city": "入間郡毛呂山町",
    "city_kana": "イルマグンモロヤママチ",
    "town": "中央",
    "town_kana": "チュウオウ",
    "street": null,
    "office_name": null,
    "office_name_kana": null
  },
  "0462": {
    "zip_code": "3500462",
    "prefecture": "埼玉県",
    "prefecture_kana": "サイタマケン",
    "prefecture_code": "11",
    "city": "入間郡毛呂山町",
    "city_kana": "イルマグンモロヤママチ",
    "town": "若山",
    "town_kana": "ワカヤマ",
    "street": null,
    "office_name": null,
    "office_name_kana": null
  },
  "0463": {
    "zip_code": "3500463",
    "prefecture": "埼玉県",
    "prefecture_kana": "サイタマケン",
    "prefecture_code": "11",
    "city": "入間郡毛呂山町",
    "city_kana": "イルマグンモロヤママチ",
    "town": "前久保南",
    "town_kana": "マエクボミナミ",
    "street": null,
    "office_name": null,
    "office_name_kana": null
  },
  "0464": {
    "zip_code": "3500464",
    "prefecture": "埼玉県",
    "prefecture_kana": "サイタマケン",
    "prefecture_code": "11",
    "city": "入間郡毛呂山町",
    "city_kana": "イルマグンモロヤママチ",
    "town": "南台",
    "town_kana": "ミナミダイ",
    "street": null,
    "office_name": null,
    "office_name_kana": null
  },
  "0465": {
    "zip_code": "3500465",
    "prefecture": "埼玉県",
    "prefecture_kana": "サイタマケン",
    "prefecture_code": "11",
    "city": "入間郡毛呂山町",
    "city_kana": "イルマグンモロヤママチ",
    "town": "岩井西",
    "town_kana": "イワイニシ",
    "street": null,
    "office_name": null,
    "office_name_kana": null
  },
  "0466": {
    "zip_code": "3500466",
    "prefecture": "埼玉県",
    "prefecture_kana": "サイタマケン",
    "prefecture_code": "11",
    "city": "入間郡毛呂山町",
    "city_kana": "イルマグンモロヤママチ",
    "town": "平山",
    "town_kana": "ヒラヤマ",
    "street": null,
    "office_name": null,
    "office_name_kana": null
  },
  "0467": {
    "zip_code": "3500467",
    "prefecture": "埼玉県",
    "prefecture_kana": "サイタマケン",
    "prefecture_code": "11",
    "city": "入間郡毛呂山町",
    "city_kana": "イルマグンモロヤママチ",
    "town": "岩井東",
    "town_kana": "イワイヒガシ",
    "street": null,
    "office_name": null,
    "office_name_kana": null
  },
  "0493": {
    "zip_code": "3500493",
    "prefecture": "埼玉県",
    "prefecture_kana": "サイタマケン",
    "prefecture_code": "11",
    "city": "入間郡毛呂山町",
    "city_kana": "イルマグンモロヤママチ",
    "town": "中央",
    "town_kana": "チュウオウ",
    "street": "２丁目１番地",
    "office_name": "毛呂山町役場",
    "office_name_kana": "モロヤママチヤクバ"
  },
  "0494": {
    "zip_code": "3500494",
    "prefecture": "埼玉県",
    "prefecture_kana": null,
    "prefecture_code": null,
    "city": "入間郡越生町",
    "city_kana": null,
    "town": "大字越生",
    "town_kana": null,
    "street": "９００−２",
    "office_name": "越生町役場",
    "office_name_kana": "オゴセマチヤクバ"
  },
  "0495": {
    "zip_code": "3500495",
    "prefecture": "埼玉県",
    "prefecture_kana": null,
    "prefecture_code": null,
    "city": "入間郡毛呂山町",
    "city_kana": null,
    "town": "大字毛呂本郷",
    "town_kana": null,
    "street": "３８",
    "office_name": "埼玉医科大学",
    "office_name_kana": "サイタマイカダイガク"
  },
  "0496": {
    "zip_code": "3500496",
    "prefecture": "埼玉県",
    "prefecture_kana": null,
    "prefecture_code": null,
    "city": "入間郡毛呂山町",
    "city_kana": null,
    "town": "大字川角",
    "town_kana": null,
    "street": "峰畑９８１",
    "office_name": "学校法人　埼玉医科大学　保健医療学部　川角キャンパス",
    "office_name_kana": "ガツコウホウジン サイタマイカダイガク ホケンイリヨウガクブ カワカドキヤンパス"
  },
  "0801": {
    "zip_code": "3500801",
    "prefecture": "埼玉県",
    "prefecture_kana": "サイタマケン",
    "prefecture_code": "11",
    "city": "川越市",
    "city_kana": "カワゴエシ",
    "town": "竹野",
    "town_kana": "タケノ",
    "street": null,
    "office_name": null,
    "office_name_kana": null
  },
  "0802": {
    "zip_code": "3500802",
    "prefecture": "埼玉県",
    "prefecture_kana": "サイタマケン",
    "prefecture_code": "11",
    "city": "川越市",
    "city_kana": "カワゴエシ",
    "town": "富士見",
    "town_kana": "フジミ",
    "street": null,
    "office_name": null,
    "office_name_kana": null
  },
  "0803": {
    "zip_code": "3500803",
    "prefecture": "埼玉県",
    "prefecture_kana": "サイタマケン",
    "prefecture_code": "11",
    "city": "川越市",
    "city_kana": "カワゴエシ",
    "town": "栄",
    "town_kana": "サカエ",
    "street": null,
    "office_name": null,
    "office_name_kana": null
  },
  "0804": {
    "zip_code": "3500804",
    "prefecture": "埼玉県",
    "prefecture_kana": "サイタマケン",
    "prefecture_code": "11",
    "city": "川越市",
    "city_kana": "カワゴエシ",
    "town": "下広谷",
    "town_kana": "シモヒロヤ",
    "street": null,
    "office_name": null,
    "office_name_kana": null
  },
  "0805": {
    "zip_code": "3500805",
    "prefecture": "埼玉県",
    "prefecture_kana": "サイタマケン",
    "prefecture_code": "11",
    "city": "川越市",
    "city_kana": "カワゴエシ",
    "town": "広谷新町",
    "town_kana": "ヒロヤシンマチ",
    "street": null,
    "office_name": null,
    "office_name_kana": null
  },
  "0806": {
    "zip_code": "3500806",
    "prefecture": "埼玉県",
    "prefecture_kana": "サイタマケン",
    "prefecture_code": "11",
    "city": "川越市",
    "city_kana": "カワゴエシ",
    "town": "天沼新田",
    "town_kana": "アマヌマシンデン",
    "street": null,
    "office_name": null,
    "office_name_kana": null
  },
  "0807": {
    "zip_code": "3500807",
    "prefecture": "埼玉県",
    "prefecture_kana": "サイタマケン",
    "prefecture_code": "11",
    "city": "川越市",
    "city_kana": "カワゴエシ",
    "town": "吉田",
    "town_kana": "ヨシダ",
    "street": null,
    "office_name": null,
    "office_name_kana": null
  },
  "0808": {
    "zip_code": "3500808",
    "prefecture": "埼玉県",
    "prefecture_kana": "サイタマケン",
    "prefecture_code": "11",
    "city": "川越市",
    "city_kana": "カワゴエシ",
    "town": "吉田新町",
    "town_kana": "ヨシダシンマチ",
    "street": null,
    "office_name": null,
    "office_name_kana": null
  },
  "0809": {
    "zip_code": "3500809",
    "prefecture": "埼玉県",
    "prefecture_kana": "サイタマケン",
    "prefecture_code": "11",
    "city": "川越市",
    "city_kana": "カワゴエシ",
    "town": "鯨井新田",
    "town_kana": "クジライシンデン",
    "street": null,
    "office_name": null,
    "office_name_kana": null
  },
  "0811": {
    "zip_code": "3500811",
    "prefecture": "埼玉県",
    "prefecture_kana": "サイタマケン",
    "prefecture_code": "11",
    "city": "川越市",
    "city_kana": "カワゴエシ",
    "town": "小堤",
    "town_kana": "コヅツミ",
    "street": null,
    "office_name": null,
    "office_name_kana": null
  },
  "0812": {
    "zip_code": "3500812",
    "prefecture": "埼玉県",
    "prefecture_kana": "サイタマケン",
    "prefecture_code": "11",
    "city": "川越市",
    "city_kana": "カワゴエシ",
    "town": "下小坂",
    "town_kana": "シモオサカ",
    "street": null,
    "office_name": null,
    "office_name_kana": null
  },
  "0813": {
    "zip_code": "3500813",
    "prefecture": "埼玉県",
    "prefecture_kana": "サイタマケン",
    "prefecture_code": "11",
    "city": "川越市",
    "city_kana": "カワゴエシ",
    "town": "平塚新田",
    "town_kana": "ヒラツカシンデン",
    "street": null,
    "office_name": null,
    "office_name_kana": null
  },
  "0814": {
    "zip_code": "3500814",
    "prefecture": "埼玉県",
    "prefecture_kana": "サイタマケン",
    "prefecture_code": "11",
    "city": "川越市",
    "city_kana": "カワゴエシ",
    "town": "平塚",
    "town_kana": "ヒラツカ",
    "street": null,
    "office_name": null,
    "office_name_kana": null
  },
  "0815": {
    "zip_code": "3500815",
    "prefecture": "埼玉県",
    "prefecture_kana": "サイタマケン",
    "prefecture_code": "11",
    "city": "川越市",
    "city_kana": "カワゴエシ",
    "town": "鯨井",
    "town_kana": "クジライ",
    "street": null,
    "office_name": null,
    "office_name_kana": null
  },
  "0816": {
    "zip_code": "3500816",
    "prefecture": "埼玉県",
    "prefecture_kana": "サイタマケン",
    "prefecture_code": "11",
    "city": "川越市",
    "city_kana": "カワゴエシ",
    "town": "上戸",
    "town_kana": "ウワド",
    "street": null,
    "office_name": null,
    "office_name_kana": null
  },
  "0817": {
    "zip_code": "3500817",
    "prefecture": "埼玉県",
    "prefecture_kana": "サイタマケン",
    "prefecture_code": "11",
    "city": "川越市",
    "city_kana": "カワゴエシ",
    "town": "上戸新町",
    "town_kana": "ウワドシンマチ",
    "street": null,
    "office_name": null,
    "office_name_kana": null
  },
  "0821": {
    "zip_code": "3500821",
    "prefecture": "埼玉県",
    "prefecture_kana": "サイタマケン",
    "prefecture_code": "11",
    "city": "川越市",
    "city_kana": "カワゴエシ",
    "town": "福田",
    "town_kana": "フクダ",
    "street": null,
    "office_name": null,
    "office_name_kana": null
  },
  "0822": {
    "zip_code": "3500822",
    "prefecture": "埼玉県",
    "prefecture_kana": "サイタマケン",
    "prefecture_code": "11",
    "city": "川越市",
    "city_kana": "カワゴエシ",
    "town": "山田",
    "town_kana": "ヤマダ",
    "street": null,
    "office_name": null,
    "office_name_kana": null
  },
  "0823": {
    "zip_code": "3500823",
    "prefecture": "埼玉県",
    "prefecture_kana": "サイタマケン",
    "prefecture_code": "11",
    "city": "川越市",
    "city_kana": "カワゴエシ",
    "town": "神明町",
    "town_kana": "シンメイチョウ",
    "street": null,
    "office_name": null,
    "office_name_kana": null
  },
  "0824": {
    "zip_code": "3500824",
    "prefecture": "埼玉県",
    "prefecture_kana": "サイタマケン",
    "prefecture_code": "11",
    "city": "川越市",
    "city_kana": "カワゴエシ",
    "town": "石原町",
    "town_kana": "イシワラマチ",
    "street": null,
    "office_name": null,
    "office_name_kana": null
  },
  "0825": {
    "zip_code": "3500825",
    "prefecture": "埼玉県",
    "prefecture_kana": "サイタマケン",
    "prefecture_code": "11",
    "city": "川越市",
    "city_kana": "カワゴエシ",
    "town": "月吉町",
    "town_kana": "ツキヨシマチ",
    "street": null,
    "office_name": null,
    "office_name_kana": null
  },
  "0826": {
    "zip_code": "3500826",
    "prefecture": "埼玉県",
    "prefecture_kana": "サイタマケン",
    "prefecture_code": "11",
    "city": "川越市",
    "city_kana": "カワゴエシ",
    "town": "上寺山",
    "town_kana": "カミテラヤマ",
    "street": null,
    "office_name": null,
    "office_name_kana": null
  },
  "0827": {
    "zip_code": "3500827",
    "prefecture": "埼玉県",
    "prefecture_kana": "サイタマケン",
    "prefecture_code": "11",
    "city": "川越市",
    "city_kana": "カワゴエシ",
    "town": "寺山",
    "town_kana": "テラヤマ",
    "street": null,
    "office_name": null,
    "office_name_kana": null
  },
  "0831": {
    "zip_code": "3500831",
    "prefecture": "埼玉県",
    "prefecture_kana": "サイタマケン",
    "prefecture_code": "11",
    "city": "川越市",
    "city_kana": "カワゴエシ",
    "town": "府川",
    "town_kana": "フカワ",
    "street": null,
    "office_name": null,
    "office_name_kana": null
  },
  "0832": {
    "zip_code": "3500832",
    "prefecture": "埼玉県",
    "prefecture_kana": "サイタマケン",
    "prefecture_code": "11",
    "city": "川越市",
    "city_kana": "カワゴエシ",
    "town": "菅間",
    "town_kana": "スガマ",
    "street": null,
    "office_name": null,
    "office_name_kana": null
  },
  "0833": {
    "zip_code": "3500833",
    "prefecture": "埼玉県",
    "prefecture_kana": "サイタマケン",
    "prefecture_code": "11",
    "city": "川越市",
    "city_kana": "カワゴエシ",
    "town": "芳野台",
    "town_kana": "ヨシノダイ",
    "street": null,
    "office_name": null,
    "office_name_kana": null
  },
  "0834": {
    "zip_code": "3500834",
    "prefecture": "埼玉県",
    "prefecture_kana": "サイタマケン",
    "prefecture_code": "11",
    "city": "川越市",
    "city_kana": "カワゴエシ",
    "town": "鹿飼",
    "town_kana": "シシカイ",
    "street": null,
    "office_name": null,
    "office_name_kana": null
  },
  "0835": {
    "zip_code": "3500835",
    "prefecture": "埼玉県",
    "prefecture_kana": "サイタマケン",
    "prefecture_code": "11",
    "city": "川越市",
    "city_kana": "カワゴエシ",
    "town": "石田本郷",
    "town_kana": "イシダホンゴウ",
    "street": null,
    "office_name": null,
    "office_name_kana": null
  },
  "0836": {
    "zip_code": "3500836",
    "prefecture": "埼玉県",
    "prefecture_kana": "サイタマケン",
    "prefecture_code": "11",
    "city": "川越市",
    "city_kana": "カワゴエシ",
    "town": "谷中",
    "town_kana": "ヤナカ",
    "street": null,
    "office_name": null,
    "office_name_kana": null
  },
  "0837": {
    "zip_code": "3500837",
    "prefecture": "埼玉県",
    "prefecture_kana": "サイタマケン",
    "prefecture_code": "11",
    "city": "川越市",
    "city_kana": "カワゴエシ",
    "town": "石田",
    "town_kana": "イシダ",
    "street": null,
    "office_name": null,
    "office_name_kana": null
  },
  "0838": {
    "zip_code": "3500838",
    "prefecture": "埼玉県",
    "prefecture_kana": "サイタマケン",
    "prefecture_code": "11",
    "city": "川越市",
    "city_kana": "カワゴエシ",
    "town": "宮元町",
    "town_kana": "ミヤモトチョウ",
    "street": null,
    "office_name": null,
    "office_name_kana": null
  },
  "0841": {
    "zip_code": "3500841",
    "prefecture": "埼玉県",
    "prefecture_kana": "サイタマケン",
    "prefecture_code": "11",
    "city": "川越市",
    "city_kana": "カワゴエシ",
    "town": "御成町",
    "town_kana": "オナリチョウ",
    "street": null,
    "office_name": null,
    "office_name_kana": null
  },
  "0842": {
    "zip_code": "3500842",
    "prefecture": "埼玉県",
    "prefecture_kana": "サイタマケン",
    "prefecture_code": "11",
    "city": "川越市",
    "city_kana": "カワゴエシ",
    "town": "北田島",
    "town_kana": "キタタジマ",
    "street": null,
    "office_name": null,
    "office_name_kana": null
  },
  "0843": {
    "zip_code": "3500843",
    "prefecture": "埼玉県",
    "prefecture_kana": "サイタマケン",
    "prefecture_code": "11",
    "city": "川越市",
    "city_kana": "カワゴエシ",
    "town": "東明寺",
    "town_kana": "トウミョウジ",
    "street": null,
    "office_name": null,
    "office_name_kana": null
  },
  "0844": {
    "zip_code": "3500844",
    "prefecture": "埼玉県",
    "prefecture_kana": "サイタマケン",
    "prefecture_code": "11",
    "city": "川越市",
    "city_kana": "カワゴエシ",
    "town": "鴨田",
    "town_kana": "カモダ",
    "street": null,
    "office_name": null,
    "office_name_kana": null
  },
  "0845": {
    "zip_code": "3500845",
    "prefecture": "埼玉県",
    "prefecture_kana": "サイタマケン",
    "prefecture_code": "11",
    "city": "川越市",
    "city_kana": "カワゴエシ",
    "town": "上老袋",
    "town_kana": "カミオイブクロ",
    "street": null,
    "office_name": null,
    "office_name_kana": null
  },
  "0846": {
    "zip_code": "3500846",
    "prefecture": "埼玉県",
    "prefecture_kana": "サイタマケン",
    "prefecture_code": "11",
    "city": "川越市",
    "city_kana": "カワゴエシ",
    "town": "中老袋",
    "town_kana": "ナカオイブクロ",
    "street": null,
    "office_name": null,
    "office_name_kana": null
  },
  "0847": {
    "zip_code": "3500847",
    "prefecture": "埼玉県",
    "prefecture_kana": "サイタマケン",
    "prefecture_code": "11",
    "city": "川越市",
    "city_kana": "カワゴエシ",
    "town": "東本宿",
    "town_kana": "ヒガシホンジュク",
    "street": null,
    "office_name": null,
    "office_name_kana": null
  },
  "0848": {
    "zip_code": "3500848",
    "prefecture": "埼玉県",
    "prefecture_kana": "サイタマケン",
    "prefecture_code": "11",
    "city": "川越市",
    "city_kana": "カワゴエシ",
    "town": "下老袋",
    "town_kana": "シモオイブクロ",
    "street": null,
    "office_name": null,
    "office_name_kana": null
  },
  "0851": {
    "zip_code": "3500851",
    "prefecture": "埼玉県",
    "prefecture_kana": "サイタマケン",
    "prefecture_code": "11",
    "city": "川越市",
    "city_kana": "カワゴエシ",
    "town": "氷川町",
    "town_kana": "ヒカワチョウ",
    "street": null,
    "office_name": null,
    "office_name_kana": null
  },
  "0852": {
    "zip_code": "3500852",
    "prefecture": "埼玉県",
    "prefecture_kana": "サイタマケン",
    "prefecture_code": "11",
    "city": "川越市",
    "city_kana": "カワゴエシ",
    "town": "川越",
    "town_kana": "カワゴエ",
    "street": null,
    "office_name": null,
    "office_name_kana": null
  },
  "0853": {
    "zip_code": "3500853",
    "prefecture": "埼玉県",
    "prefecture_kana": "サイタマケン",
    "prefecture_code": "11",
    "city": "川越市",
    "city_kana": "カワゴエシ",
    "town": "城下町",
    "town_kana": "シロシタマチ",
    "street": null,
    "office_name": null,
    "office_name_kana": null
  },
  "0854": {
    "zip_code": "3500854",
    "prefecture": "埼玉県",
    "prefecture_kana": "サイタマケン",
    "prefecture_code": "11",
    "city": "川越市",
    "city_kana": "カワゴエシ",
    "town": "寺井",
    "town_kana": "テライ",
    "street": null,
    "office_name": null,
    "office_name_kana": null
  },
  "0855": {
    "zip_code": "3500855",
    "prefecture": "埼玉県",
    "prefecture_kana": "サイタマケン",
    "prefecture_code": "11",
    "city": "川越市",
    "city_kana": "カワゴエシ",
    "town": "伊佐沼",
    "town_kana": "イサヌマ",
    "street": null,
    "office_name": null,
    "office_name_kana": null
  },
  "0856": {
    "zip_code": "3500856",
    "prefecture": "埼玉県",
    "prefecture_kana": "サイタマケン",
    "prefecture_code": "11",
    "city": "川越市",
    "city_kana": "カワゴエシ",
    "town": "問屋町",
    "town_kana": "トンヤマチ",
    "street": null,
    "office_name": null,
    "office_name_kana": null
  },
  "0857": {
    "zip_code": "3500857",
    "prefecture": "埼玉県",
    "prefecture_kana": "サイタマケン",
    "prefecture_code": "11",
    "city": "川越市",
    "city_kana": "カワゴエシ",
    "town": "松郷",
    "town_kana": "マツゴウ",
    "street": null,
    "office_name": null,
    "office_name_kana": null
  },
  "1100": {
    "zip_code": "3501100",
    "prefecture": "埼玉県",
    "prefecture_kana": "サイタマケン",
    "prefecture_code": "11",
    "city": "川越市",
    "city_kana": "カワゴエシ",
    "town": "",
    "town_kana": "",
    "street": null,
    "office_name": null,
    "office_name_kana": null
  },
  "1101": {
    "zip_code": "3501101",
    "prefecture": "埼玉県",
    "prefecture_kana": "サイタマケン",
    "prefecture_code": "11",
    "city": "川越市",
    "city_kana": "カワゴエシ",
    "town": "的場",
    "town_kana": "マトバ",
    "street": null,
    "office_name": null,
    "office_name_kana": null
  },
  "1102": {
    "zip_code": "3501102",
    "prefecture": "埼玉県",
    "prefecture_kana": "サイタマケン",
    "prefecture_code": "11",
    "city": "川越市",
    "city_kana": "カワゴエシ",
    "town": "的場北",
    "town_kana": "マトバキタ",
    "street": null,
    "office_name": null,
    "office_name_kana": null
  },
  "1103": {
    "zip_code": "3501103",
    "prefecture": "埼玉県",
    "prefecture_kana": "サイタマケン",
    "prefecture_code": "11",
    "city": "川越市",
    "city_kana": "カワゴエシ",
    "town": "霞ケ関東",
    "town_kana": "カスミガセキヒガシ",
    "street": null,
    "office_name": null,
    "office_name_kana": null
  },
  "1104": {
    "zip_code": "3501104",
    "prefecture": "埼玉県",
    "prefecture_kana": "サイタマケン",
    "prefecture_code": "11",
    "city": "川越市",
    "city_kana": "カワゴエシ",
    "town": "小ケ谷",
    "town_kana": "オガヤ",
    "street": null,
    "office_name": null,
    "office_name_kana": null
  },
  "1105": {
    "zip_code": "3501105",
    "prefecture": "埼玉県",
    "prefecture_kana": "サイタマケン",
    "prefecture_code": "11",
    "city": "川越市",
    "city_kana": "カワゴエシ",
    "town": "今成",
    "town_kana": "イマナリ",
    "street": null,
    "office_name": null,
    "office_name_kana": null
  },
  "1106": {
    "zip_code": "3501106",
    "prefecture": "埼玉県",
    "prefecture_kana": "サイタマケン",
    "prefecture_code": "11",
    "city": "川越市",
    "city_kana": "カワゴエシ",
    "town": "小室",
    "town_kana": "コムロ",
    "street": null,
    "office_name": null,
    "office_name_kana": null
  },
  "1107": {
    "zip_code": "3501107",
    "prefecture": "埼玉県",
    "prefecture_kana": "サイタマケン",
    "prefecture_code": "11",
    "city": "川越市",
    "city_kana": "カワゴエシ",
    "town": "的場新町",
    "town_kana": "マトバシンマチ",
    "street": null,
    "office_name": null,
    "office_name_kana": null
  },
  "1108": {
    "zip_code": "3501108",
    "prefecture": "埼玉県",
    "prefecture_kana": "サイタマケン",
    "prefecture_code": "11",
    "city": "川越市",
    "city_kana": "カワゴエシ",
    "town": "伊勢原町",
    "town_kana": "イセハラチョウ",
    "street": null,
    "office_name": null,
    "office_name_kana": null
  },
  "1109": {
    "zip_code": "3501109",
    "prefecture": "埼玉県",
    "prefecture_kana": "サイタマケン",
    "prefecture_code": "11",
    "city": "川越市",
    "city_kana": "カワゴエシ",
    "town": "霞ケ関北",
    "town_kana": "カスミガセキキタ",
    "street": null,
    "office_name": null,
    "office_name_kana": null
  },
  "1110": {
    "zip_code": "3501110",
    "prefecture": "埼玉県",
    "prefecture_kana": "サイタマケン",
    "prefecture_code": "11",
    "city": "川越市",
    "city_kana": "カワゴエシ",
    "town": "豊田町",
    "town_kana": "トヨダチョウ",
    "street": null,
    "office_name": null,
    "office_name_kana": null
  },
  "1111": {
    "zip_code": "3501111",
    "prefecture": "埼玉県",
    "prefecture_kana": "サイタマケン",
    "prefecture_code": "11",
    "city": "川越市",
    "city_kana": "カワゴエシ",
    "town": "野田",
    "town_kana": "ノダ",
    "street": null,
    "office_name": null,
    "office_name_kana": null
  },
  "1112": {
    "zip_code": "3501112",
    "prefecture": "埼玉県",
    "prefecture_kana": "サイタマケン",
    "prefecture_code": "11",
    "city": "川越市",
    "city_kana": "カワゴエシ",
    "town": "上野田町",
    "town_kana": "カミノダマチ",
    "street": null,
    "office_name": null,
    "office_name_kana": null
  },
  "1113": {
    "zip_code": "3501113",
    "prefecture": "埼玉県",
    "prefecture_kana": "サイタマケン",
    "prefecture_code": "11",
    "city": "川越市",
    "city_kana": "カワゴエシ",
    "town": "田町",
    "town_kana": "タマチ",
    "street": null,
    "office_name": null,
    "office_name_kana": null
  },
  "1114": {
    "zip_code": "3501114",
    "prefecture": "埼玉県",
    "prefecture_kana": "サイタマケン",
    "prefecture_code": "11",
    "city": "川越市",
    "city_kana": "カワゴエシ",
    "town": "東田町",
    "town_kana": "ヒガシタマチ",
    "street": null,
    "office_name": null,
    "office_name_kana": null
  },
  "1115": {
    "zip_code": "3501115",
    "prefecture": "埼玉県",
    "prefecture_kana": "サイタマケン",
    "prefecture_code": "11",
    "city": "川越市",
    "city_kana": "カワゴエシ",
    "town": "野田町",
    "town_kana": "ノダマチ",
    "street": null,
    "office_name": null,
    "office_name_kana": null
  },
  "1116": {
    "zip_code": "3501116",
    "prefecture": "埼玉県",
    "prefecture_kana": "サイタマケン",
    "prefecture_code": "11",
    "city": "川越市",
    "city_kana": "カワゴエシ",
    "town": "寿町",
    "town_kana": "コトブキチョウ",
    "street": null,
    "office_name": null,
    "office_name_kana": null
  },
  "1117": {
    "zip_code": "3501117",
    "prefecture": "埼玉県",
    "prefecture_kana": "サイタマケン",
    "prefecture_code": "11",
    "city": "川越市",
    "city_kana": "カワゴエシ",
    "town": "広栄町",
    "town_kana": "コウエイチョウ",
    "street": null,
    "office_name": null,
    "office_name_kana": null
  },
  "1118": {
    "zip_code": "3501118",
    "prefecture": "埼玉県",
    "prefecture_kana": "サイタマケン",
    "prefecture_code": "11",
    "city": "川越市",
    "city_kana": "カワゴエシ",
    "town": "豊田本",
    "town_kana": "トヨダホン",
    "street": null,
    "office_name": null,
    "office_name_kana": null
  },
  "1119": {
    "zip_code": "3501119",
    "prefecture": "埼玉県",
    "prefecture_kana": "サイタマケン",
    "prefecture_code": "11",
    "city": "川越市",
    "city_kana": "カワゴエシ",
    "town": "豊田新田",
    "town_kana": "トヨダシンデン",
    "street": null,
    "office_name": null,
    "office_name_kana": null
  },
  "1121": {
    "zip_code": "3501121",
    "prefecture": "埼玉県",
    "prefecture_kana": "サイタマケン",
    "prefecture_code": "11",
    "city": "川越市",
    "city_kana": "カワゴエシ",
    "town": "脇田新町",
    "town_kana": "ワキタシンマチ",
    "street": null,
    "office_name": null,
    "office_name_kana": null
  },
  "1122": {
    "zip_code": "3501122",
    "prefecture": "埼玉県",
    "prefecture_kana": "サイタマケン",
    "prefecture_code": "11",
    "city": "川越市",
    "city_kana": "カワゴエシ",
    "town": "脇田町",
    "town_kana": "ワキタマチ",
    "street": null,
    "office_name": null,
    "office_name_kana": null
  },
  "1123": {
    "zip_code": "3501123",
    "prefecture": "埼玉県",
    "prefecture_kana": "サイタマケン",
    "prefecture_code": "11",
    "city": "川越市",
    "city_kana": "カワゴエシ",
    "town": "脇田本町",
    "town_kana": "ワキタホンチョウ",
    "street": null,
    "office_name": null,
    "office_name_kana": null
  },
  "1124": {
    "zip_code": "3501124",
    "prefecture": "埼玉県",
    "prefecture_kana": "サイタマケン",
    "prefecture_code": "11",
    "city": "川越市",
    "city_kana": "カワゴエシ",
    "town": "新宿町",
    "town_kana": "アラジュクマチ",
    "street": null,
    "office_name": null,
    "office_name_kana": null
  },
  "1125": {
    "zip_code": "3501125",
    "prefecture": "埼玉県",
    "prefecture_kana": "サイタマケン",
    "prefecture_code": "11",
    "city": "川越市",
    "city_kana": "カワゴエシ",
    "town": "新宿",
    "town_kana": "アラジュク",
    "street": null,
    "office_name": null,
    "office_name_kana": null
  },
  "1126": {
    "zip_code": "3501126",
    "prefecture": "埼玉県",
    "prefecture_kana": "サイタマケン",
    "prefecture_code": "11",
    "city": "川越市",
    "city_kana": "カワゴエシ",
    "town": "旭町",
    "town_kana": "アサヒチョウ",
    "street": null,
    "office_name": null,
    "office_name_kana": null
  },
  "1128": {
    "zip_code": "3501128",
    "prefecture": "埼玉県",
    "prefecture_kana": "サイタマケン",
    "prefecture_code": "11",
    "city": "川越市",
    "city_kana": "カワゴエシ",
    "town": "大仙波新田",
    "town_kana": "オオセンバシンデン",
    "street": null,
    "office_name": null,
    "office_name_kana": null
  },
  "1129": {
    "zip_code": "3501129",
    "prefecture": "埼玉県",
    "prefecture_kana": "サイタマケン",
    "prefecture_code": "11",
    "city": "川越市",
    "city_kana": "カワゴエシ",
    "town": "大塚",
    "town_kana": "オオツカ",
    "street": null,
    "office_name": null,
    "office_name_kana": null
  },
  "1131": {
    "zip_code": "3501131",
    "prefecture": "埼玉県",
    "prefecture_kana": "サイタマケン",
    "prefecture_code": "11",
    "city": "川越市",
    "city_kana": "カワゴエシ",
    "town": "岸町",
    "town_kana": "キシマチ",
    "street": null,
    "office_name": null,
    "office_name_kana": null
  },
  "1132": {
    "zip_code": "3501132",
    "prefecture": "埼玉県",
    "prefecture_kana": "サイタマケン",
    "prefecture_code": "11",
    "city": "川越市",
    "city_kana": "カワゴエシ",
    "town": "岸",
    "town_kana": "キシ",
    "street": null,
    "office_name": null,
    "office_name_kana": null
  },
  "1133": {
    "zip_code": "3501133",
    "prefecture": "埼玉県",
    "prefecture_kana": "サイタマケン",
    "prefecture_code": "11",
    "city": "川越市",
    "city_kana": "カワゴエシ",
    "town": "砂",
    "town_kana": "スナ",
    "street": null,
    "office_name": null,
    "office_name_kana": null
  },
  "1134": {
    "zip_code": "3501134",
    "prefecture": "埼玉県",
    "prefecture_kana": "サイタマケン",
    "prefecture_code": "11",
    "city": "川越市",
    "city_kana": "カワゴエシ",
    "town": "扇河岸",
    "town_kana": "オウギガシ",
    "street": null,
    "office_name": null,
    "office_name_kana": null
  },
  "1135": {
    "zip_code": "3501135",
    "prefecture": "埼玉県",
    "prefecture_kana": "サイタマケン",
    "prefecture_code": "11",
    "city": "川越市",
    "city_kana": "カワゴエシ",
    "town": "上新河岸",
    "town_kana": "カミシンガシ",
    "street": null,
    "office_name": null,
    "office_name_kana": null
  },
  "1136": {
    "zip_code": "3501136",
    "prefecture": "埼玉県",
    "prefecture_kana": "サイタマケン",
    "prefecture_code": "11",
    "city": "川越市",
    "city_kana": "カワゴエシ",
    "town": "下新河岸",
    "town_kana": "シモシンガシ",
    "street": null,
    "office_name": null,
    "office_name_kana": null
  },
  "1137": {
    "zip_code": "3501137",
    "prefecture": "埼玉県",
    "prefecture_kana": "サイタマケン",
    "prefecture_code": "11",
    "city": "川越市",
    "city_kana": "カワゴエシ",
    "town": "砂新田",
    "town_kana": "スナシンデン",
    "street": null,
    "office_name": null,
    "office_name_kana": null
  },
  "1138": {
    "zip_code": "3501138",
    "prefecture": "埼玉県",
    "prefecture_kana": "サイタマケン",
    "prefecture_code": "11",
    "city": "川越市",
    "city_kana": "カワゴエシ",
    "town": "中台元町",
    "town_kana": "ナカダイモトマチ",
    "street": null,
    "office_name": null,
    "office_name_kana": null
  },
  "1141": {
    "zip_code": "3501141",
    "prefecture": "埼玉県",
    "prefecture_kana": "サイタマケン",
    "prefecture_code": "11",
    "city": "川越市",
    "city_kana": "カワゴエシ",
    "town": "寺尾",
    "town_kana": "テラオ",
    "street": null,
    "office_name": null,
    "office_name_kana": null
  },
  "1142": {
    "zip_code": "3501142",
    "prefecture": "埼玉県",
    "prefecture_kana": "サイタマケン",
    "prefecture_code": "11",
    "city": "川越市",
    "city_kana": "カワゴエシ",
    "town": "藤間",
    "town_kana": "フジマ",
    "street": null,
    "office_name": null,
    "office_name_kana": null
  },
  "1143": {
    "zip_code": "3501143",
    "prefecture": "埼玉県",
    "prefecture_kana": "サイタマケン",
    "prefecture_code": "11",
    "city": "川越市",
    "city_kana": "カワゴエシ",
    "town": "藤原町",
    "town_kana": "フジワラチョウ",
    "street": null,
    "office_name": null,
    "office_name_kana": null
  },
  "1144": {
    "zip_code": "3501144",
    "prefecture": "埼玉県",
    "prefecture_kana": "サイタマケン",
    "prefecture_code": "11",
    "city": "川越市",
    "city_kana": "カワゴエシ",
    "town": "稲荷町",
    "town_kana": "イナリチョウ",
    "street": null,
    "office_name": null,
    "office_name_kana": null
  },
  "1145": {
    "zip_code": "3501145",
    "prefecture": "埼玉県",
    "prefecture_kana": "サイタマケン",
    "prefecture_code": "11",
    "city": "川越市",
    "city_kana": "カワゴエシ",
    "town": "清水町",
    "town_kana": "シミズチョウ",
    "street": null,
    "office_name": null,
    "office_name_kana": null
  },
  "1146": {
    "zip_code": "3501146",
    "prefecture": "埼玉県",
    "prefecture_kana": "サイタマケン",
    "prefecture_code": "11",
    "city": "川越市",
    "city_kana": "カワゴエシ",
    "town": "熊野町",
    "town_kana": "クマノチョウ",
    "street": null,
    "office_name": null,
    "office_name_kana": null
  },
  "1147": {
    "zip_code": "3501147",
    "prefecture": "埼玉県",
    "prefecture_kana": "サイタマケン",
    "prefecture_code": "11",
    "city": "川越市",
    "city_kana": "カワゴエシ",
    "town": "諏訪町",
    "town_kana": "スワチョウ",
    "street": null,
    "office_name": null,
    "office_name_kana": null
  },
  "1150": {
    "zip_code": "3501150",
    "prefecture": "埼玉県",
    "prefecture_kana": "サイタマケン",
    "prefecture_code": "11",
    "city": "川越市",
    "city_kana": "カワゴエシ",
    "town": "中台南",
    "town_kana": "ナカダイミナミ",
    "street": null,
    "office_name": null,
    "office_name_kana": null
  },
  "1151": {
    "zip_code": "3501151",
    "prefecture": "埼玉県",
    "prefecture_kana": "サイタマケン",
    "prefecture_code": "11",
    "city": "川越市",
    "city_kana": "カワゴエシ",
    "town": "今福",
    "town_kana": "イマフク",
    "street": null,
    "office_name": null,
    "office_name_kana": null
  },
  "1152": {
    "zip_code": "3501152",
    "prefecture": "埼玉県",
    "prefecture_kana": "サイタマケン",
    "prefecture_code": "11",
    "city": "川越市",
    "city_kana": "カワゴエシ",
    "town": "砂久保",
    "town_kana": "スナクボ",
    "street": null,
    "office_name": null,
    "office_name_kana": null
  },
  "1153": {
    "zip_code": "3501153",
    "prefecture": "埼玉県",
    "prefecture_kana": "サイタマケン",
    "prefecture_code": "11",
    "city": "川越市",
    "city_kana": "カワゴエシ",
    "town": "下松原",
    "town_kana": "シモマツバラ",
    "street": null,
    "office_name": null,
    "office_name_kana": null
  },
  "1154": {
    "zip_code": "3501154",
    "prefecture": "埼玉県",
    "prefecture_kana": "サイタマケン",
    "prefecture_code": "11",
    "city": "川越市",
    "city_kana": "カワゴエシ",
    "town": "上松原",
    "town_kana": "カミマツバラ",
    "street": null,
    "office_name": null,
    "office_name_kana": null
  },
  "1155": {
    "zip_code": "3501155",
    "prefecture": "埼玉県",
    "prefecture_kana": "サイタマケン",
    "prefecture_code": "11",
    "city": "川越市",
    "city_kana": "カワゴエシ",
    "town": "下赤坂",
    "town_kana": "シモアカサカ",
    "street": null,
    "office_name": null,
    "office_name_kana": null
  },
  "1156": {
    "zip_code": "3501156",
    "prefecture": "埼玉県",
    "prefecture_kana": "サイタマケン",
    "prefecture_code": "11",
    "city": "川越市",
    "city_kana": "カワゴエシ",
    "town": "中福",
    "town_kana": "ナカフク",
    "street": null,
    "office_name": null,
    "office_name_kana": null
  },
  "1157": {
    "zip_code": "3501157",
    "prefecture": "埼玉県",
    "prefecture_kana": "サイタマケン",
    "prefecture_code": "11",
    "city": "川越市",
    "city_kana": "カワゴエシ",
    "town": "中福東",
    "town_kana": "ナカフクヒガシ",
    "street": null,
    "office_name": null,
    "office_name_kana": null
  },
  "1158": {
    "zip_code": "3501158",
    "prefecture": "埼玉県",
    "prefecture_kana": "サイタマケン",
    "prefecture_code": "11",
    "city": "川越市",
    "city_kana": "カワゴエシ",
    "town": "むさし野南",
    "town_kana": "ムサシノミナミ",
    "street": null,
    "office_name": null,
    "office_name_kana": null
  },
  "1159": {
    "zip_code": "3501159",
    "prefecture": "埼玉県",
    "prefecture_kana": "サイタマケン",
    "prefecture_code": "11",
    "city": "川越市",
    "city_kana": "カワゴエシ",
    "town": "中台",
    "town_kana": "ナカダイ",
    "street": null,
    "office_name": null,
    "office_name_kana": null
  },
  "1160": {
    "zip_code": "3501160",
    "prefecture": "埼玉県",
    "prefecture_kana": "サイタマケン",
    "prefecture_code": "11",
    "city": "川越市",
    "city_kana": "カワゴエシ",
    "town": "日東町",
    "town_kana": "ニットウチョウ",
    "street": null,
    "office_name": null,
    "office_name_kana": null
  },
  "1161": {
    "zip_code": "3501161",
    "prefecture": "埼玉県",
    "prefecture_kana": "サイタマケン",
    "prefecture_code": "11",
    "city": "川越市",
    "city_kana": "カワゴエシ",
    "town": "大塚新田",
    "town_kana": "オオツカシンデン",
    "street": null,
    "office_name": null,
    "office_name_kana": null
  },
  "1162": {
    "zip_code": "3501162",
    "prefecture": "埼玉県",
    "prefecture_kana": "サイタマケン",
    "prefecture_code": "11",
    "city": "川越市",
    "city_kana": "カワゴエシ",
    "town": "南大塚",
    "town_kana": "ミナミオオツカ",
    "street": null,
    "office_name": null,
    "office_name_kana": null
  },
  "1163": {
    "zip_code": "3501163",
    "prefecture": "埼玉県",
    "prefecture_kana": "サイタマケン",
    "prefecture_code": "11",
    "city": "川越市",
    "city_kana": "カワゴエシ",
    "town": "四都野台",
    "town_kana": "ヨツヤダイ",
    "street": null,
    "office_name": null,
    "office_name_kana": null
  },
  "1164": {
    "zip_code": "3501164",
    "prefecture": "埼玉県",
    "prefecture_kana": "サイタマケン",
    "prefecture_code": "11",
    "city": "川越市",
    "city_kana": "カワゴエシ",
    "town": "青柳",
    "town_kana": "アオヤギ",
    "street": null,
    "office_name": null,
    "office_name_kana": null
  },
  "1165": {
    "zip_code": "3501165",
    "prefecture": "埼玉県",
    "prefecture_kana": "サイタマケン",
    "prefecture_code": "11",
    "city": "川越市",
    "city_kana": "カワゴエシ",
    "town": "南台",
    "town_kana": "ミナミダイ",
    "street": null,
    "office_name": null,
    "office_name_kana": null
  },
  "1166": {
    "zip_code": "3501166",
    "prefecture": "埼玉県",
    "prefecture_kana": "サイタマケン",
    "prefecture_code": "11",
    "city": "川越市",
    "city_kana": "カワゴエシ",
    "town": "藤倉",
    "town_kana": "フジクラ",
    "street": null,
    "office_name": null,
    "office_name_kana": null
  },
  "1167": {
    "zip_code": "3501167",
    "prefecture": "埼玉県",
    "prefecture_kana": "サイタマケン",
    "prefecture_code": "11",
    "city": "川越市",
    "city_kana": "カワゴエシ",
    "town": "大袋新田",
    "town_kana": "オオフクロシンデン",
    "street": null,
    "office_name": null,
    "office_name_kana": null
  },
  "1168": {
    "zip_code": "3501168",
    "prefecture": "埼玉県",
    "prefecture_kana": "サイタマケン",
    "prefecture_code": "11",
    "city": "川越市",
    "city_kana": "カワゴエシ",
    "town": "大袋",
    "town_kana": "オオフクロ",
    "street": null,
    "office_name": null,
    "office_name_kana": null
  },
  "1169": {
    "zip_code": "3501169",
    "prefecture": "埼玉県",
    "prefecture_kana": "サイタマケン",
    "prefecture_code": "11",
    "city": "川越市",
    "city_kana": "カワゴエシ",
    "town": "山城",
    "town_kana": "ヤマシロ",
    "street": null,
    "office_name": null,
    "office_name_kana": null
  },
  "1170": {
    "zip_code": "3501170",
    "prefecture": "埼玉県",
    "prefecture_kana": "サイタマケン",
    "prefecture_code": "11",
    "city": "川越市",
    "city_kana": "カワゴエシ",
    "town": "むさし野",
    "town_kana": "ムサシノ",
    "street": null,
    "office_name": null,
    "office_name_kana": null
  },
  "1171": {
    "zip_code": "3501171",
    "prefecture": "埼玉県",
    "prefecture_kana": "サイタマケン",
    "prefecture_code": "11",
    "city": "川越市",
    "city_kana": "カワゴエシ",
    "town": "池辺",
    "town_kana": "イケノベ",
    "street": null,
    "office_name": null,
    "office_name_kana": null
  },
  "1172": {
    "zip_code": "3501172",
    "prefecture": "埼玉県",
    "prefecture_kana": "サイタマケン",
    "prefecture_code": "11",
    "city": "川越市",
    "city_kana": "カワゴエシ",
    "town": "増形",
    "town_kana": "マスカタ",
    "street": null,
    "office_name": null,
    "office_name_kana": null
  },
  "1173": {
    "zip_code": "3501173",
    "prefecture": "埼玉県",
    "prefecture_kana": "サイタマケン",
    "prefecture_code": "11",
    "city": "川越市",
    "city_kana": "カワゴエシ",
    "town": "安比奈新田",
    "town_kana": "アイナシンデン",
    "street": null,
    "office_name": null,
    "office_name_kana": null
  },
  "1174": {
    "zip_code": "3501174",
    "prefecture": "埼玉県",
    "prefecture_kana": "サイタマケン",
    "prefecture_code": "11",
    "city": "川越市",
    "city_kana": "カワゴエシ",
    "town": "かすみ野",
    "town_kana": "カスミノ",
    "street": null,
    "office_name": null,
    "office_name_kana": null
  },
  "1175": {
    "zip_code": "3501175",
    "prefecture": "埼玉県",
    "prefecture_kana": "サイタマケン",
    "prefecture_code": "11",
    "city": "川越市",
    "city_kana": "カワゴエシ",
    "town": "笠幡",
    "town_kana": "カサハタ",
    "street": null,
    "office_name": null,
    "office_name_kana": null
  },
  "1176": {
    "zip_code": "3501176",
    "prefecture": "埼玉県",
    "prefecture_kana": "サイタマケン",
    "prefecture_code": "11",
    "city": "川越市",
    "city_kana": "カワゴエシ",
    "town": "川鶴",
    "town_kana": "カワツル",
    "street": null,
    "office_name": null,
    "office_name_kana": null
  },
  "1177": {
    "zip_code": "3501177",
    "prefecture": "埼玉県",
    "prefecture_kana": "サイタマケン",
    "prefecture_code": "11",
    "city": "川越市",
    "city_kana": "カワゴエシ",
    "town": "かわつる三芳野",
    "town_kana": "カワツルミヨシノ",
    "street": null,
    "office_name": null,
    "office_name_kana": null
  },
  "1178": {
    "zip_code": "3501178",
    "prefecture": "埼玉県",
    "prefecture_kana": "サイタマケン",
    "prefecture_code": "11",
    "city": "川越市",
    "city_kana": "カワゴエシ",
    "town": "大塚新町",
    "town_kana": "オオツカシンマチ",
    "street": null,
    "office_name": null,
    "office_name_kana": null
  },
  "1179": {
    "zip_code": "3501179",
    "prefecture": "埼玉県",
    "prefecture_kana": "サイタマケン",
    "prefecture_code": "11",
    "city": "川越市",
    "city_kana": "カワゴエシ",
    "town": "かし野台",
    "town_kana": "カシノダイ",
    "street": null,
    "office_name": null,
    "office_name_kana": null
  },
  "1181": {
    "zip_code": "3501181",
    "prefecture": "埼玉県",
    "prefecture_kana": null,
    "prefecture_code": null,
    "city": "川越市",
    "city_kana": null,
    "town": "大字野田",
    "town_kana": null,
    "street": "１０５０−１",
    "office_name": "株式会社　アイエムエス",
    "office_name_kana": "カブシキガイシヤ アイエムエス"
  },
  "1182": {
    "zip_code": "3501182",
    "prefecture": "埼玉県",
    "prefecture_kana": "サイタマケン",
    "prefecture_code": "11",
    "city": "川越市",
    "city_kana": "カワゴエシ",
    "town": "南台",
    "town_kana": "ミナミダイ",
    "street": "１−１０−１５",
    "office_name": "アマゾン　川越ＦＣ　入庫係",
    "office_name_kana": "アマゾン カワゴエエフシ- ニユウコカカリ"
  },
  "1183": {
    "zip_code": "3501183",
    "prefecture": "埼玉県",
    "prefecture_kana": "サイタマケン",
    "prefecture_code": "11",
    "city": "川越市",
    "city_kana": "カワゴエシ",
    "town": "新宿町",
    "town_kana": "アラジュクマチ",
    "street": "１丁目１７番地１７（ウェスタ川越公共施設棟５階）",
    "office_name": "埼玉県信用保証協会　川越支店",
    "office_name_kana": "サイタマケンシンヨウホシヨウキヨウカイ カワゴエシテン"
  },
  "1188": {
    "zip_code": "3501188",
    "prefecture": "埼玉県",
    "prefecture_kana": "サイタマケン",
    "prefecture_code": "11",
    "city": "川越市",
    "city_kana": "カワゴエシ",
    "town": "田町",
    "town_kana": "タマチ",
    "street": "３２番地１２",
    "office_name": "武州瓦斯　株式会社",
    "office_name_kana": "ブシユウガス カブシキガイシヤ"
  },
  "1192": {
    "zip_code": "3501192",
    "prefecture": "埼玉県",
    "prefecture_kana": "サイタマケン",
    "prefecture_code": "11",
    "city": "川越市",
    "city_kana": "カワゴエシ",
    "town": "南台",
    "town_kana": "ミナミダイ",
    "street": "１丁目９番",
    "office_name": "小松ゼノア　株式会社",
    "office_name_kana": "コマツゼノア カブシキガイシヤ"
  },
  "1194": {
    "zip_code": "3501194",
    "prefecture": "埼玉県",
    "prefecture_kana": "サイタマケン",
    "prefecture_code": "11",
    "city": "川越市",
    "city_kana": "カワゴエシ",
    "town": "南台",
    "town_kana": "ミナミダイ",
    "street": "３−５−１",
    "office_name": "アマゾン川越ＦＣ　返品係",
    "office_name_kana": "アマゾンカワゴエエフシ- ヘンピンカカリ"
  },
  "1195": {
    "zip_code": "3501195",
    "prefecture": "埼玉県",
    "prefecture_kana": "サイタマケン",
    "prefecture_code": "11",
    "city": "比企郡川島町",
    "city_kana": "ヒキグンカワジママチ",
    "town": "かわじま",
    "town_kana": "カワジマ",
    "street": "２丁目１−５０",
    "office_name": "アマゾンかわじまＦＣ　返品係",
    "office_name_kana": "アマゾンカワジマエフシ- ヘンピンカカリ"
  },
  "1196": {
    "zip_code": "3501196",
    "prefecture": "埼玉県",
    "prefecture_kana": "サイタマケン",
    "prefecture_code": "11",
    "city": "川越市",
    "city_kana": "カワゴエシ",
    "town": "脇田本町",
    "town_kana": "ワキタホンチョウ",
    "street": "１５−１３東上パールビル３Ｆ",
    "office_name": "川越年金事務所",
    "office_name_kana": "カワゴエネンキンジムシヨ"
  },
  "1197": {
    "zip_code": "3501197",
    "prefecture": "埼玉県",
    "prefecture_kana": "サイタマケン",
    "prefecture_code": "11",
    "city": "川越市",
    "city_kana": "カワゴエシ",
    "town": "的場北",
    "town_kana": "マトバキタ",
    "street": "１丁目１３−１",
    "office_name": "学校法人　金子教育団　東京国際大学（第一キャンパス）",
    "office_name_kana": "ガツコウホウジン カネコキヨウイクダン トウキヨウコクサイダイガク(ダイイチキヤンパス)"
  },
  "1198": {
    "zip_code": "3501198",
    "prefecture": "埼玉県",
    "prefecture_kana": "サイタマケン",
    "prefecture_code": "11",
    "city": "川越市",
    "city_kana": "カワゴエシ",
    "town": "的場",
    "town_kana": "マトバ",
    "street": "１丁目２５０９",
    "office_name": "学校法人　金子教育団　東京国際大学　（第二キャンパス）",
    "office_name_kana": "ガツコウホウジン カネコキヨウイクダン トウキヨウコクサイダイガク (ダイニキヤンパス)"
  },
  "1200": {
    "zip_code": "3501200",
    "prefecture": "埼玉県",
    "prefecture_kana": "サイタマケン",
    "prefecture_code": "11",
    "city": "日高市",
    "city_kana": "ヒダカシ",
    "town": "",
    "town_kana": "",
    "street": null,
    "office_name": null,
    "office_name_kana": null
  },
  "1201": {
    "zip_code": "3501201",
    "prefecture": "埼玉県",
    "prefecture_kana": "サイタマケン",
    "prefecture_code": "11",
    "city": "日高市",
    "city_kana": "ヒダカシ",
    "town": "田波目",
    "town_kana": "タバメ",
    "street": null,
    "office_name": null,
    "office_name_kana": null
  },
  "1202": {
    "zip_code": "3501202",
    "prefecture": "埼玉県",
    "prefecture_kana": "サイタマケン",
    "prefecture_code": "11",
    "city": "日高市",
    "city_kana": "ヒダカシ",
    "town": "駒寺野新田",
    "town_kana": "コマデラノシンデン",
    "street": null,
    "office_name": null,
    "office_name_kana": null
  },
  "1203": {
    "zip_code": "3501203",
    "prefecture": "埼玉県",
    "prefecture_kana": "サイタマケン",
    "prefecture_code": "11",
    "city": "日高市",
    "city_kana": "ヒダカシ",
    "town": "旭ケ丘",
    "town_kana": "アサヒガオカ",
    "street": null,
    "office_name": null,
    "office_name_kana": null
  },
  "1204": {
    "zip_code": "3501204",
    "prefecture": "埼玉県",
    "prefecture_kana": "サイタマケン",
    "prefecture_code": "11",
    "city": "日高市",
    "city_kana": "ヒダカシ",
    "town": "新堀新田",
    "town_kana": "ニイホリシンデン",
    "street": null,
    "office_name": null,
    "office_name_kana": null
  },
  "1205": {
    "zip_code": "3501205",
    "prefecture": "埼玉県",
    "prefecture_kana": "サイタマケン",
    "prefecture_code": "11",
    "city": "日高市",
    "city_kana": "ヒダカシ",
    "town": "原宿",
    "town_kana": "ハラジュク",
    "street": null,
    "office_name": null,
    "office_name_kana": null
  },
  "1206": {
    "zip_code": "3501206",
    "prefecture": "埼玉県",
    "prefecture_kana": "サイタマケン",
    "prefecture_code": "11",
    "city": "日高市",
    "city_kana": "ヒダカシ",
    "town": "南平沢",
    "town_kana": "ミナミヒラサワ",
    "street": null,
    "office_name": null,
    "office_name_kana": null
  },
  "1211": {
    "zip_code": "3501211",
    "prefecture": "埼玉県",
    "prefecture_kana": "サイタマケン",
    "prefecture_code": "11",
    "city": "日高市",
    "city_kana": "ヒダカシ",
    "town": "森戸新田",
    "town_kana": "モリドシンデン",
    "street": null,
    "office_name": null,
    "office_name_kana": null
  },
  "1212": {
    "zip_code": "3501212",
    "prefecture": "埼玉県",
    "prefecture_kana": "サイタマケン",
    "prefecture_code": "11",
    "city": "日高市",
    "city_kana": "ヒダカシ",
    "town": "下高萩新田",
    "town_kana": "シモタカハギシンデン",
    "street": null,
    "office_name": null,
    "office_name_kana": null
  },
  "1213": {
    "zip_code": "3501213",
    "prefecture": "埼玉県",
    "prefecture_kana": "サイタマケン",
    "prefecture_code": "11",
    "city": "日高市",
    "city_kana": "ヒダカシ",
    "town": "高萩",
    "town_kana": "タカハギ",
    "street": null,
    "office_name": null,
    "office_name_kana": null
  },
  "1214": {
    "zip_code": "3501214",
    "prefecture": "埼玉県",
    "prefecture_kana": "サイタマケン",
    "prefecture_code": "11",
    "city": "日高市",
    "city_kana": "ヒダカシ",
    "town": "女影新田",
    "town_kana": "オナカゲシンデン",
    "street": null,
    "office_name": null,
    "office_name_kana": null
  },
  "1215": {
    "zip_code": "3501215",
    "prefecture": "埼玉県",
    "prefecture_kana": "サイタマケン",
    "prefecture_code": "11",
    "city": "日高市",
    "city_kana": "ヒダカシ",
    "town": "高萩東",
    "town_kana": "タカハギヒガシ",
    "street": null,
    "office_name": null,
    "office_name_kana": null
  },
  "1221": {
    "zip_code": "3501221",
    "prefecture": "埼玉県",
    "prefecture_kana": "サイタマケン",
    "prefecture_code": "11",
    "city": "日高市",
    "city_kana": "ヒダカシ",
    "town": "下大谷沢",
    "town_kana": "シモオオヤザワ",
    "street": null,
    "office_name": null,
    "office_name_kana": null
  },
  "1222": {
    "zip_code": "3501222",
    "prefecture": "埼玉県",
    "prefecture_kana": "サイタマケン",
    "prefecture_code": "11",
    "city": "日高市",
    "city_kana": "ヒダカシ",
    "town": "大谷沢",
    "town_kana": "オオヤザワ",
    "street": null,
    "office_name": null,
    "office_name_kana": null
  },
  "1223": {
    "zip_code": "3501223",
    "prefecture": "埼玉県",
    "prefecture_kana": "サイタマケン",
    "prefecture_code": "11",
    "city": "日高市",
    "city_kana": "ヒダカシ",
    "town": "高富",
    "town_kana": "タカトミ",
    "street": null,
    "office_name": null,
    "office_name_kana": null
  },
  "1224": {
    "zip_code": "3501224",
    "prefecture": "埼玉県",
    "prefecture_kana": "サイタマケン",
    "prefecture_code": "11",
    "city": "日高市",
    "city_kana": "ヒダカシ",
    "town": "田木",
    "town_kana": "タギ",
    "street": null,
    "office_name": null,
    "office_name_kana": null
  },
  "1225": {
    "zip_code": "3501225",
    "prefecture": "埼玉県",
    "prefecture_kana": "サイタマケン",
    "prefecture_code": "11",
    "city": "日高市",
    "city_kana": "ヒダカシ",
    "town": "馬引沢",
    "town_kana": "ウマヒキザワ",
    "street": null,
    "office_name": null,
    "office_name_kana": null
  },
  "1226": {
    "zip_code": "3501226",
    "prefecture": "埼玉県",
    "prefecture_kana": "サイタマケン",
    "prefecture_code": "11",
    "city": "日高市",
    "city_kana": "ヒダカシ",
    "town": "中沢",
    "town_kana": "ナカザワ",
    "street": null,
    "office_name": null,
    "office_name_kana": null
  },
  "1227": {
    "zip_code": "3501227",
    "prefecture": "埼玉県",
    "prefecture_kana": "サイタマケン",
    "prefecture_code": "11",
    "city": "日高市",
    "city_kana": "ヒダカシ",
    "town": "女影",
    "town_kana": "オナカゲ",
    "street": null,
    "office_name": null,
    "office_name_kana": null
  },
  "1231": {
    "zip_code": "3501231",
    "prefecture": "埼玉県",
    "prefecture_kana": "サイタマケン",
    "prefecture_code": "11",
    "city": "日高市",
    "city_kana": "ヒダカシ",
    "town": "鹿山",
    "town_kana": "カヤマ",
    "street": null,
    "office_name": null,
    "office_name_kana": null
  },
  "1232": {
    "zip_code": "3501232",
    "prefecture": "埼玉県",
    "prefecture_kana": "サイタマケン",
    "prefecture_code": "11",
    "city": "日高市",
    "city_kana": "ヒダカシ",
    "town": "中鹿山",
    "town_kana": "ナカカヤマ",
    "street": null,
    "office_name": null,
    "office_name_kana": null
  },
  "1233": {
    "zip_code": "3501233",
    "prefecture": "埼玉県",
    "prefecture_kana": "サイタマケン",
    "prefecture_code": "11",
    "city": "日高市",
    "city_kana": "ヒダカシ",
    "town": "下鹿山",
    "town_kana": "シモカヤマ",
    "street": null,
    "office_name": null,
    "office_name_kana": null
  },
  "1234": {
    "zip_code": "3501234",
    "prefecture": "埼玉県",
    "prefecture_kana": "サイタマケン",
    "prefecture_code": "11",
    "city": "日高市",
    "city_kana": "ヒダカシ",
    "town": "上鹿山",
    "town_kana": "カミカヤマ",
    "street": null,
    "office_name": null,
    "office_name_kana": null
  },
  "1235": {
    "zip_code": "3501235",
    "prefecture": "埼玉県",
    "prefecture_kana": "サイタマケン",
    "prefecture_code": "11",
    "city": "日高市",
    "city_kana": "ヒダカシ",
    "town": "楡木",
    "town_kana": "ニレギ",
    "street": null,
    "office_name": null,
    "office_name_kana": null
  },
  "1236": {
    "zip_code": "3501236",
    "prefecture": "埼玉県",
    "prefecture_kana": "サイタマケン",
    "prefecture_code": "11",
    "city": "日高市",
    "city_kana": "ヒダカシ",
    "town": "猿田",
    "town_kana": "ヤエンダ",
    "street": null,
    "office_name": null,
    "office_name_kana": null
  },
  "1237": {
    "zip_code": "3501237",
    "prefecture": "埼玉県",
    "prefecture_kana": "サイタマケン",
    "prefecture_code": "11",
    "city": "日高市",
    "city_kana": "ヒダカシ",
    "town": "猿田上ノ台",
    "town_kana": "ヤエンダウエノダイ",
    "street": null,
    "office_name": null,
    "office_name_kana": null
  },
  "1241": {
    "zip_code": "3501241",
    "prefecture": "埼玉県",
    "prefecture_kana": "サイタマケン",
    "prefecture_code": "11",
    "city": "日高市",
    "city_kana": "ヒダカシ",
    "town": "山根",
    "town_kana": "ヤマネ",
    "street": null,
    "office_name": null,
    "office_name_kana": null
  },
  "1242": {
    "zip_code": "3501242",
    "prefecture": "埼玉県",
    "prefecture_kana": "サイタマケン",
    "prefecture_code": "11",
    "city": "日高市",
    "city_kana": "ヒダカシ",
    "town": "北平沢",
    "town_kana": "キタヒラサワ",
    "street": null,
    "office_name": null,
    "office_name_kana": null
  },
  "1243": {
    "zip_code": "3501243",
    "prefecture": "埼玉県",
    "prefecture_kana": "サイタマケン",
    "prefecture_code": "11",
    "city": "日高市",
    "city_kana": "ヒダカシ",
    "town": "新堀",
    "town_kana": "ニイホリ",
    "street": null,
    "office_name": null,
    "office_name_kana": null
  },
  "1244": {
    "zip_code": "3501244",
    "prefecture": "埼玉県",
    "prefecture_kana": "サイタマケン",
    "prefecture_code": "11",
    "city": "日高市",
    "city_kana": "ヒダカシ",
    "town": "野々宮",
    "town_kana": "ノノミヤ",
    "street": null,
    "office_name": null,
    "office_name_kana": null
  },
  "1245": {
    "zip_code": "3501245",
    "prefecture": "埼玉県",
    "prefecture_kana": "サイタマケン",
    "prefecture_code": "11",
    "city": "日高市",
    "city_kana": "ヒダカシ",
    "town": "栗坪",
    "town_kana": "クリツボ",
    "street": null,
    "office_name": null,
    "office_name_kana": null
  },
  "1246": {
    "zip_code": "3501246",
    "prefecture": "埼玉県",
    "prefecture_kana": "サイタマケン",
    "prefecture_code": "11",
    "city": "日高市",
    "city_kana": "ヒダカシ",
    "town": "梅原",
    "town_kana": "ウメハラ",
    "street": null,
    "office_name": null,
    "office_name_kana": null
  },
  "1247": {
    "zip_code": "3501247",
    "prefecture": "埼玉県",
    "prefecture_kana": "サイタマケン",
    "prefecture_code": "11",
    "city": "日高市",
    "city_kana": "ヒダカシ",
    "town": "高岡",
    "town_kana": "タカオカ",
    "street": null,
    "office_name": null,
    "office_name_kana": null
  },
  "1248": {
    "zip_code": "3501248",
    "prefecture": "埼玉県",
    "prefecture_kana": "サイタマケン",
    "prefecture_code": "11",
    "city": "日高市",
    "city_kana": "ヒダカシ",
    "town": "四本木",
    "town_kana": "シホギ",
    "street": null,
    "office_name": null,
    "office_name_kana": null
  },
  "1249": {
    "zip_code": "3501249",
    "prefecture": "埼玉県",
    "prefecture_kana": "サイタマケン",
    "prefecture_code": "11",
    "city": "日高市",
    "city_kana": "ヒダカシ",
    "town": "高麗川",
    "town_kana": "コマガワ",
    "street": null,
    "office_name": null,
    "office_name_kana": null
  },
  "1251": {
    "zip_code": "3501251",
    "prefecture": "埼玉県",
    "prefecture_kana": "サイタマケン",
    "prefecture_code": "11",
    "city": "日高市",
    "city_kana": "ヒダカシ",
    "town": "高麗本郷",
    "town_kana": "コマホンゴウ",
    "street": null,
    "office_name": null,
    "office_name_kana": null
  },
  "1252": {
    "zip_code": "3501252",
    "prefecture": "埼玉県",
    "prefecture_kana": "サイタマケン",
    "prefecture_code": "11",
    "city": "日高市",
    "city_kana": "ヒダカシ",
    "town": "清流",
    "town_kana": "セイリュウ",
    "street": null,
    "office_name": null,
    "office_name_kana": null
  },
  "1253": {
    "zip_code": "3501253",
    "prefecture": "埼玉県",
    "prefecture_kana": "サイタマケン",
    "prefecture_code": "11",
    "city": "日高市",
    "city_kana": "ヒダカシ",
    "town": "台",
    "town_kana": "ダイ",
    "street": null,
    "office_name": null,
    "office_name_kana": null
  },
  "1254": {
    "zip_code": "3501254",
    "prefecture": "埼玉県",
    "prefecture_kana": "サイタマケン",
    "prefecture_code": "11",
    "city": "日高市",
    "city_kana": "ヒダカシ",
    "town": "久保",
    "town_kana": "クボ",
    "street": null,
    "office_name": null,
    "office_name_kana": null
  },
  "1255": {
    "zip_code": "3501255",
    "prefecture": "埼玉県",
    "prefecture_kana": "サイタマケン",
    "prefecture_code": "11",
    "city": "日高市",
    "city_kana": "ヒダカシ",
    "town": "武蔵台",
    "town_kana": "ムサシダイ",
    "street": null,
    "office_name": null,
    "office_name_kana": null
  },
  "1257": {
    "zip_code": "3501257",
    "prefecture": "埼玉県",
    "prefecture_kana": "サイタマケン",
    "prefecture_code": "11",
    "city": "日高市",
    "city_kana": "ヒダカシ",
    "town": "横手",
    "town_kana": "ヨコテ",
    "street": null,
    "office_name": null,
    "office_name_kana": null
  },
  "1292": {
    "zip_code": "3501292",
    "prefecture": "埼玉県",
    "prefecture_kana": null,
    "prefecture_code": null,
    "city": "日高市",
    "city_kana": null,
    "town": "大字南平沢",
    "town_kana": null,
    "street": "１０２０",
    "office_name": "日高市役所",
    "office_name_kana": "ヒダカシヤクシヨ"
  },
  "1295": {
    "zip_code": "3501295",
    "prefecture": "埼玉県",
    "prefecture_kana": null,
    "prefecture_code": null,
    "city": "日高市",
    "city_kana": null,
    "town": "大字原宿",
    "town_kana": null,
    "street": "４０１番地",
    "office_name": "ＮＥＣネットワーク・センサ　株式会社",
    "office_name_kana": "エヌイ-シ-ネツトワ-ク・センサ カブシキガイシヤ"
  },
  "1296": {
    "zip_code": "3501296",
    "prefecture": "埼玉県",
    "prefecture_kana": null,
    "prefecture_code": null,
    "city": "日高市",
    "city_kana": null,
    "town": "大字原宿",
    "town_kana": null,
    "street": "７２１",
    "office_name": "太平洋セメント　株式会社　埼玉工場",
    "office_name_kana": "タイヘイヨウセメント カブシキガイシヤ サイタマコウジヨウ"
  },
  "1297": {
    "zip_code": "3501297",
    "prefecture": "埼玉県",
    "prefecture_kana": null,
    "prefecture_code": null,
    "city": "日高市",
    "city_kana": null,
    "town": "大字下高萩新田",
    "town_kana": null,
    "street": "１７−２",
    "office_name": "シグマ光機　株式会社",
    "office_name_kana": "シグマコウキ カブシキガイシヤ"
  },
  "1298": {
    "zip_code": "3501298",
    "prefecture": "埼玉県",
    "prefecture_kana": null,
    "prefecture_code": null,
    "city": "日高市",
    "city_kana": null,
    "town": "大字山根",
    "town_kana": null,
    "street": "１３９７−１",
    "office_name": "埼玉医科大学国際医療センター",
    "office_name_kana": "サイタマイカダイガクコクサイイリヨウセンタ-"
  },
  "1300": {
    "zip_code": "3501300",
    "prefecture": "埼玉県",
    "prefecture_kana": "サイタマケン",
    "prefecture_code": "11",
    "city": "狭山市",
    "city_kana": "サヤマシ",
    "town": "",
    "town_kana": "",
    "street": null,
    "office_name": null,
    "office_name_kana": null
  },
  "1301": {
    "zip_code": "3501301",
    "prefecture": "埼玉県",
    "prefecture_kana": "サイタマケン",
    "prefecture_code": "11",
    "city": "狭山市",
    "city_kana": "サヤマシ",
    "town": "青柳",
    "town_kana": "アオヤギ",
    "street": null,
    "office_name": null,
    "office_name_kana": null
  },
  "1302": {
    "zip_code": "3501302",
    "prefecture": "埼玉県",
    "prefecture_kana": "サイタマケン",
    "prefecture_code": "11",
    "city": "狭山市",
    "city_kana": "サヤマシ",
    "town": "東三ツ木",
    "town_kana": "ヒガシミツギ",
    "street": null,
    "office_name": null,
    "office_name_kana": null
  },
  "1303": {
    "zip_code": "3501303",
    "prefecture": "埼玉県",
    "prefecture_kana": "サイタマケン",
    "prefecture_code": "11",
    "city": "狭山市",
    "city_kana": "サヤマシ",
    "town": "沢",
    "town_kana": "サワ",
    "street": null,
    "office_name": null,
    "office_name_kana": null
  },
  "1304": {
    "zip_code": "3501304",
    "prefecture": "埼玉県",
    "prefecture_kana": "サイタマケン",
    "prefecture_code": "11",
    "city": "狭山市",
    "city_kana": "サヤマシ",
    "town": "狭山台",
    "town_kana": "サヤマダイ",
    "street": null,
    "office_name": null,
    "office_name_kana": null
  },
  "1305": {
    "zip_code": "3501305",
    "prefecture": "埼玉県",
    "prefecture_kana": "サイタマケン",
    "prefecture_code": "11",
    "city": "狭山市",
    "city_kana": "サヤマシ",
    "town": "入間川",
    "town_kana": "イルマガワ",
    "street": null,
    "office_name": null,
    "office_name_kana": null
  },
  "1306": {
    "zip_code": "3501306",
    "prefecture": "埼玉県",
    "prefecture_kana": "サイタマケン",
    "prefecture_code": "11",
    "city": "狭山市",
    "city_kana": "サヤマシ",
    "town": "富士見",
    "town_kana": "フジミ",
    "street": null,
    "office_name": null,
    "office_name_kana": null
  },
  "1307": {
    "zip_code": "3501307",
    "prefecture": "埼玉県",
    "prefecture_kana": "サイタマケン",
    "prefecture_code": "11",
    "city": "狭山市",
    "city_kana": "サヤマシ",
    "town": "祇園",
    "town_kana": "ギオン",
    "street": null,
    "office_name": null,
    "office_name_kana": null
  },
  "1308": {
    "zip_code": "3501308",
    "prefecture": "埼玉県",
    "prefecture_kana": "サイタマケン",
    "prefecture_code": "11",
    "city": "狭山市",
    "city_kana": "サヤマシ",
    "town": "中央",
    "town_kana": "チュウオウ",
    "street": null,
    "office_name": null,
    "office_name_kana": null
  },
  "1311": {
    "zip_code": "3501311",
    "prefecture": "埼玉県",
    "prefecture_kana": "サイタマケン",
    "prefecture_code": "11",
    "city": "狭山市",
    "city_kana": "サヤマシ",
    "town": "中新田",
    "town_kana": "ナカシンデン",
    "street": null,
    "office_name": null,
    "office_name_kana": null
  },
  "1312": {
    "zip_code": "3501312",
    "prefecture": "埼玉県",
    "prefecture_kana": "サイタマケン",
    "prefecture_code": "11",
    "city": "狭山市",
    "city_kana": "サヤマシ",
    "town": "堀兼",
    "town_kana": "ホリガネ",
    "street": null,
    "office_name": null,
    "office_name_kana": null
  },
  "1313": {
    "zip_code": "3501313",
    "prefecture": "埼玉県",
    "prefecture_kana": "サイタマケン",
    "prefecture_code": "11",
    "city": "狭山市",
    "city_kana": "サヤマシ",
    "town": "上赤坂",
    "town_kana": "カミアカサカ",
    "street": null,
    "office_name": null,
    "office_name_kana": null
  },
  "1314": {
    "zip_code": "3501314",
    "prefecture": "埼玉県",
    "prefecture_kana": "サイタマケン",
    "prefecture_code": "11",
    "city": "狭山市",
    "city_kana": "サヤマシ",
    "town": "加佐志",
    "town_kana": "カザシ",
    "street": null,
    "office_name": null,
    "office_name_kana": null
  },
  "1315": {
    "zip_code": "3501315",
    "prefecture": "埼玉県",
    "prefecture_kana": "サイタマケン",
    "prefecture_code": "11",
    "city": "狭山市",
    "city_kana": "サヤマシ",
    "town": "北入曽",
    "town_kana": "キタイリソ",
    "street": null,
    "office_name": null,
    "office_name_kana": null
  },
  "1316": {
    "zip_code": "3501316",
    "prefecture": "埼玉県",
    "prefecture_kana": "サイタマケン",
    "prefecture_code": "11",
    "city": "狭山市",
    "city_kana": "サヤマシ",
    "town": "南入曽",
    "town_kana": "ミナミイリソ",
    "street": null,
    "office_name": null,
    "office_name_kana": null
  },
  "1317": {
    "zip_code": "3501317",
    "prefecture": "埼玉県",
    "prefecture_kana": "サイタマケン",
    "prefecture_code": "11",
    "city": "狭山市",
    "city_kana": "サヤマシ",
    "town": "水野",
    "town_kana": "ミズノ",
    "street": null,
    "office_name": null,
    "office_name_kana": null
  },
  "1319": {
    "zip_code": "3501319",
    "prefecture": "埼玉県",
    "prefecture_kana": "サイタマケン",
    "prefecture_code": "11",
    "city": "狭山市",
    "city_kana": "サヤマシ",
    "town": "広瀬",
    "town_kana": "ヒロセ",
    "street": null,
    "office_name": null,
    "office_name_kana": null
  },
  "1320": {
    "zip_code": "3501320",
    "prefecture": "埼玉県",
    "prefecture_kana": "サイタマケン",
    "prefecture_code": "11",
    "city": "狭山市",
    "city_kana": "サヤマシ",
    "town": "広瀬東",
    "town_kana": "ヒロセヒガシ",
    "street": null,
    "office_name": null,
    "office_name_kana": null
  },
  "1321": {
    "zip_code": "3501321",
    "prefecture": "埼玉県",
    "prefecture_kana": "サイタマケン",
    "prefecture_code": "11",
    "city": "狭山市",
    "city_kana": "サヤマシ",
    "town": "上広瀬",
    "town_kana": "カミヒロセ",
    "street": null,
    "office_name": null,
    "office_name_kana": null
  },
  "1322": {
    "zip_code": "3501322",
    "prefecture": "埼玉県",
    "prefecture_kana": "サイタマケン",
    "prefecture_code": "11",
    "city": "狭山市",
    "city_kana": "サヤマシ",
    "town": "下広瀬",
    "town_kana": "シモヒロセ",
    "street": null,
    "office_name": null,
    "office_name_kana": null
  },
  "1323": {
    "zip_code": "3501323",
    "prefecture": "埼玉県",
    "prefecture_kana": "サイタマケン",
    "prefecture_code": "11",
    "city": "狭山市",
    "city_kana": "サヤマシ",
    "town": "鵜ノ木",
    "town_kana": "ウノキ",
    "street": null,
    "office_name": null,
    "office_name_kana": null
  },
  "1324": {
    "zip_code": "3501324",
    "prefecture": "埼玉県",
    "prefecture_kana": "サイタマケン",
    "prefecture_code": "11",
    "city": "狭山市",
    "city_kana": "サヤマシ",
    "town": "稲荷山",
    "town_kana": "イナリヤマ",
    "street": null,
    "office_name": null,
    "office_name_kana": null
  },
  "1325": {
    "zip_code": "3501325",
    "prefecture": "埼玉県",
    "prefecture_kana": "サイタマケン",
    "prefecture_code": "11",
    "city": "狭山市",
    "city_kana": "サヤマシ",
    "town": "根岸",
    "town_kana": "ネギシ",
    "street": null,
    "office_name": null,
    "office_name_kana": null
  },
  "1326": {
    "zip_code": "3501326",
    "prefecture": "埼玉県",
    "prefecture_kana": "サイタマケン",
    "prefecture_code": "11",
    "city": "狭山市",
    "city_kana": "サヤマシ",
    "town": "つつじ野",
    "town_kana": "ツツジノ",
    "street": null,
    "office_name": null,
    "office_name_kana": null
  },
  "1327": {
    "zip_code": "3501327",
    "prefecture": "埼玉県",
    "prefecture_kana": "サイタマケン",
    "prefecture_code": "11",
    "city": "狭山市",
    "city_kana": "サヤマシ",
    "town": "笹井",
    "town_kana": "ササイ",
    "street": null,
    "office_name": null,
    "office_name_kana": null
  },
  "1328": {
    "zip_code": "3501328",
    "prefecture": "埼玉県",
    "prefecture_kana": "サイタマケン",
    "prefecture_code": "11",
    "city": "狭山市",
    "city_kana": "サヤマシ",
    "town": "広瀬台",
    "town_kana": "ヒロセダイ",
    "street": null,
    "office_name": null,
    "office_name_kana": null
  },
  "1331": {
    "zip_code": "3501331",
    "prefecture": "埼玉県",
    "prefecture_kana": "サイタマケン",
    "prefecture_code": "11",
    "city": "狭山市",
    "city_kana": "サヤマシ",
    "town": "新狭山",
    "town_kana": "シンサヤマ",
    "street": null,
    "office_name": null,
    "office_name_kana": null
  },
  "1332": {
    "zip_code": "3501332",
    "prefecture": "埼玉県",
    "prefecture_kana": "サイタマケン",
    "prefecture_code": "11",
    "city": "狭山市",
    "city_kana": "サヤマシ",
    "town": "下奥富",
    "town_kana": "シモオクドミ",
    "street": null,
    "office_name": null,
    "office_name_kana": null
  },
  "1333": {
    "zip_code": "3501333",
    "prefecture": "埼玉県",
    "prefecture_kana": "サイタマケン",
    "prefecture_code": "11",
    "city": "狭山市",
    "city_kana": "サヤマシ",
    "town": "上奥富",
    "town_kana": "カミオクドミ",
    "street": null,
    "office_name": null,
    "office_name_kana": null
  },
  "1334": {
    "zip_code": "3501334",
    "prefecture": "埼玉県",
    "prefecture_kana": "サイタマケン",
    "prefecture_code": "11",
    "city": "狭山市",
    "city_kana": "サヤマシ",
    "town": "狭山",
    "town_kana": "サヤマ",
    "street": null,
    "office_name": null,
    "office_name_kana": null
  },
  "1335": {
    "zip_code": "3501335",
    "prefecture": "埼玉県",
    "prefecture_kana": "サイタマケン",
    "prefecture_code": "11",
    "city": "狭山市",
    "city_kana": "サヤマシ",
    "town": "柏原",
    "town_kana": "カシワバラ",
    "street": null,
    "office_name": null,
    "office_name_kana": null
  },
  "1336": {
    "zip_code": "3501336",
    "prefecture": "埼玉県",
    "prefecture_kana": "サイタマケン",
    "prefecture_code": "11",
    "city": "狭山市",
    "city_kana": "サヤマシ",
    "town": "柏原新田",
    "town_kana": "カシワバラシンデン",
    "street": null,
    "office_name": null,
    "office_name_kana": null
  },
  "1380": {
    "zip_code": "3501380",
    "prefecture": "埼玉県",
    "prefecture_kana": "サイタマケン",
    "prefecture_code": "11",
    "city": "狭山市",
    "city_kana": "サヤマシ",
    "town": "入間川",
    "town_kana": "イルマガワ",
    "street": "１丁目２３−５",
    "office_name": "狭山市役所",
    "office_name_kana": "サヤマシヤクシヨ"
  },
  "1385": {
    "zip_code": "3501385",
    "prefecture": "埼玉県",
    "prefecture_kana": "サイタマケン",
    "prefecture_code": "11",
    "city": "狭山市",
    "city_kana": "サヤマシ",
    "town": "新狭山",
    "town_kana": "シンサヤマ",
    "street": "１−１−１１",
    "office_name": "阿部興業　株式会社",
    "office_name_kana": "アベコウギヨウ カブシキガイシヤ"
  },
  "1388": {
    "zip_code": "3501388",
    "prefecture": "埼玉県",
    "prefecture_kana": "サイタマケン",
    "prefecture_code": "11",
    "city": "狭山市",
    "city_kana": "サヤマシ",
    "town": "北入曽",
    "town_kana": "キタイリソ",
    "street": "６１３",
    "office_name": "東亜ディーケーケー　株式会社　狭山テクニカルセンター",
    "office_name_kana": "トウアデイ-ケ-ケ- カブシキカイシヤ サヤマテクニカルセンタ-"
  },
  "1392": {
    "zip_code": "3501392",
    "prefecture": "埼玉県",
    "prefecture_kana": "サイタマケン",
    "prefecture_code": "11",
    "city": "狭山市",
    "city_kana": "サヤマシ",
    "town": "新狭山",
    "town_kana": "シンサヤマ",
    "street": "１丁目１０−１",
    "office_name": "本田技研工業　株式会社　埼玉製作所",
    "office_name_kana": "ホンダギケンコウギヨウ カブシキガイシヤ サイタマセイサクジヨ"
  },
  "1395": {
    "zip_code": "3501395",
    "prefecture": "埼玉県",
    "prefecture_kana": "サイタマケン",
    "prefecture_code": "11",
    "city": "狭山市",
    "city_kana": "サヤマシ",
    "town": "青柳",
    "town_kana": "アオヤギ",
    "street": "９１５",
    "office_name": "アマゾン　狭山ＦＣ　入庫係",
    "office_name_kana": "アマゾン サヤマエフシ- ニユウコカカリ"
  },
  "1398": {
    "zip_code": "3501398",
    "prefecture": "埼玉県",
    "prefecture_kana": "サイタマケン",
    "prefecture_code": "11",
    "city": "狭山市",
    "city_kana": "サヤマシ",
    "town": "稲荷山",
    "town_kana": "イナリヤマ",
    "street": "２丁目１５−１",
    "office_name": "東京家政大学　狭山校舎",
    "office_name_kana": "トウキヨウカセイダイガク サヤマコウシヤ"
  },
  "2200": {
    "zip_code": "3502200",
    "prefecture": "埼玉県",
    "prefecture_kana": "サイタマケン",
    "prefecture_code": "11",
    "city": "鶴ヶ島市",
    "city_kana": "ツルガシマシ",
    "town": "",
    "town_kana": "",
    "street": null,
    "office_name": null,
    "office_name_kana": null
  },
  "2201": {
    "zip_code": "3502201",
    "prefecture": "埼玉県",
    "prefecture_kana": "サイタマケン",
    "prefecture_code": "11",
    "city": "鶴ヶ島市",
    "city_kana": "ツルガシマシ",
    "town": "富士見",
    "town_kana": "フジミ",
    "street": null,
    "office_name": null,
    "office_name_kana": null
  },
  "2202": {
    "zip_code": "3502202",
    "prefecture": "埼玉県",
    "prefecture_kana": "サイタマケン",
    "prefecture_code": "11",
    "city": "鶴ヶ島市",
    "city_kana": "ツルガシマシ",
    "town": "五味ヶ谷",
    "town_kana": "ゴミガヤ",
    "street": null,
    "office_name": null,
    "office_name_kana": null
  },
  "2203": {
    "zip_code": "3502203",
    "prefecture": "埼玉県",
    "prefecture_kana": "サイタマケン",
    "prefecture_code": "11",
    "city": "鶴ヶ島市",
    "city_kana": "ツルガシマシ",
    "town": "上広谷",
    "town_kana": "カミヒロヤ",
    "street": null,
    "office_name": null,
    "office_name_kana": null
  },
  "2204": {
    "zip_code": "3502204",
    "prefecture": "埼玉県",
    "prefecture_kana": "サイタマケン",
    "prefecture_code": "11",
    "city": "鶴ヶ島市",
    "city_kana": "ツルガシマシ",
    "town": "鶴ヶ丘",
    "town_kana": "ツルガオカ",
    "street": null,
    "office_name": null,
    "office_name_kana": null
  },
  "2205": {
    "zip_code": "3502205",
    "prefecture": "埼玉県",
    "prefecture_kana": "サイタマケン",
    "prefecture_code": "11",
    "city": "鶴ヶ島市",
    "city_kana": "ツルガシマシ",
    "town": "松ヶ丘",
    "town_kana": "マツガオカ",
    "street": null,
    "office_name": null,
    "office_name_kana": null
  },
  "2206": {
    "zip_code": "3502206",
    "prefecture": "埼玉県",
    "prefecture_kana": "サイタマケン",
    "prefecture_code": "11",
    "city": "鶴ヶ島市",
    "city_kana": "ツルガシマシ",
    "town": "藤金",
    "town_kana": "フジガネ",
    "street": null,
    "office_name": null,
    "office_name_kana": null
  },
  "2211": {
    "zip_code": "3502211",
    "prefecture": "埼玉県",
    "prefecture_kana": "サイタマケン",
    "prefecture_code": "11",
    "city": "鶴ヶ島市",
    "city_kana": "ツルガシマシ",
    "town": "脚折町",
    "town_kana": "スネオリチョウ",
    "street": null,
    "office_name": null,
    "office_name_kana": null
  },
  "2212": {
    "zip_code": "3502212",
    "prefecture": "埼玉県",
    "prefecture_kana": "サイタマケン",
    "prefecture_code": "11",
    "city": "鶴ヶ島市",
    "city_kana": "ツルガシマシ",
    "town": "共栄町",
    "town_kana": "キョウエイチョウ",
    "street": null,
    "office_name": null,
    "office_name_kana": null
  },
  "2213": {
    "zip_code": "3502213",
    "prefecture": "埼玉県",
    "prefecture_kana": "サイタマケン",
    "prefecture_code": "11",
    "city": "鶴ヶ島市",
    "city_kana": "ツルガシマシ",
    "town": "脚折",
    "town_kana": "スネオリ",
    "street": null,
    "office_name": null,
    "office_name_kana": null
  },
  "2214": {
    "zip_code": "3502214",
    "prefecture": "埼玉県",
    "prefecture_kana": "サイタマケン",
    "prefecture_code": "11",
    "city": "鶴ヶ島市",
    "city_kana": "ツルガシマシ",
    "town": "太田ヶ谷",
    "town_kana": "オオタガヤ",
    "street": null,
    "office_name": null,
    "office_name_kana": null
  },
  "2215": {
    "zip_code": "3502215",
    "prefecture": "埼玉県",
    "prefecture_kana": "サイタマケン",
    "prefecture_code": "11",
    "city": "鶴ヶ島市",
    "city_kana": "ツルガシマシ",
    "town": "南町",
    "town_kana": "ミナミチョウ",
    "street": null,
    "office_name": null,
    "office_name_kana": null
  },
  "2216": {
    "zip_code": "3502216",
    "prefecture": "埼玉県",
    "prefecture_kana": "サイタマケン",
    "prefecture_code": "11",
    "city": "鶴ヶ島市",
    "city_kana": "ツルガシマシ",
    "town": "三ツ木新田",
    "town_kana": "ミツギシンデン",
    "street": null,
    "office_name": null,
    "office_name_kana": null
  },
  "2217": {
    "zip_code": "3502217",
    "prefecture": "埼玉県",
    "prefecture_kana": "サイタマケン",
    "prefecture_code": "11",
    "city": "鶴ヶ島市",
    "city_kana": "ツルガシマシ",
    "town": "三ツ木",
    "town_kana": "ミツギ",
    "street": null,
    "office_name": null,
    "office_name_kana": null
  },
  "2218": {
    "zip_code": "3502218",
    "prefecture": "埼玉県",
    "prefecture_kana": "サイタマケン",
    "prefecture_code": "11",
    "city": "鶴ヶ島市",
    "city_kana": "ツルガシマシ",
    "town": "柳戸町",
    "town_kana": "ヤナギドチョウ",
    "street": null,
    "office_name": null,
    "office_name_kana": null
  },
  "2219": {
    "zip_code": "3502219",
    "prefecture": "埼玉県",
    "prefecture_kana": "サイタマケン",
    "prefecture_code": "11",
    "city": "鶴ヶ島市",
    "city_kana": "ツルガシマシ",
    "town": "三ツ木新町",
    "town_kana": "ミツギシンマチ",
    "street": null,
    "office_name": null,
    "office_name_kana": null
  },
  "2221": {
    "zip_code": "3502221",
    "prefecture": "埼玉県",
    "prefecture_kana": "サイタマケン",
    "prefecture_code": "11",
    "city": "鶴ヶ島市",
    "city_kana": "ツルガシマシ",
    "town": "羽折町",
    "town_kana": "ハネオリチョウ",
    "street": null,
    "office_name": null,
    "office_name_kana": null
  },
  "2222": {
    "zip_code": "3502222",
    "prefecture": "埼玉県",
    "prefecture_kana": "サイタマケン",
    "prefecture_code": "11",
    "city": "鶴ヶ島市",
    "city_kana": "ツルガシマシ",
    "town": "下新田",
    "town_kana": "シモシンデン",
    "street": null,
    "office_name": null,
    "office_name_kana": null
  },
  "2223": {
    "zip_code": "3502223",
    "prefecture": "埼玉県",
    "prefecture_kana": "サイタマケン",
    "prefecture_code": "11",
    "city": "鶴ヶ島市",
    "city_kana": "ツルガシマシ",
    "town": "高倉",
    "town_kana": "タカクラ",
    "street": null,
    "office_name": null,
    "office_name_kana": null
  },
  "2224": {
    "zip_code": "3502224",
    "prefecture": "埼玉県",
    "prefecture_kana": "サイタマケン",
    "prefecture_code": "11",
    "city": "鶴ヶ島市",
    "city_kana": "ツルガシマシ",
    "town": "町屋",
    "town_kana": "マチヤ",
    "street": null,
    "office_name": null,
    "office_name_kana": null
  },
  "2225": {
    "zip_code": "3502225",
    "prefecture": "埼玉県",
    "prefecture_kana": "サイタマケン",
    "prefecture_code": "11",
    "city": "鶴ヶ島市",
    "city_kana": "ツルガシマシ",
    "town": "上新田",
    "town_kana": "カミシンデン",
    "street": null,
    "office_name": null,
    "office_name_kana": null
  },
  "2226": {
    "zip_code": "3502226",
    "prefecture": "埼玉県",
    "prefecture_kana": "サイタマケン",
    "prefecture_code": "11",
    "city": "鶴ヶ島市",
    "city_kana": "ツルガシマシ",
    "town": "中新田",
    "town_kana": "ナカシンデン",
    "street": null,
    "office_name": null,
    "office_name_kana": null
  },
  "2227": {
    "zip_code": "3502227",
    "prefecture": "埼玉県",
    "prefecture_kana": "サイタマケン",
    "prefecture_code": "11",
    "city": "鶴ヶ島市",
    "city_kana": "ツルガシマシ",
    "town": "新町",
    "town_kana": "シンマチ",
    "street": null,
    "office_name": null,
    "office_name_kana": null
  },
  "2280": {
    "zip_code": "3502280",
    "prefecture": "埼玉県",
    "prefecture_kana": null,
    "prefecture_code": null,
    "city": "鶴ヶ島市",
    "city_kana": null,
    "town": "大字太田ヶ谷",
    "town_kana": null,
    "street": "１０５３",
    "office_name": "東洋電装　株式会社",
    "office_name_kana": "トウヨウデンソウ カブシキガイシヤ"
  },
  "2281": {
    "zip_code": "3502281",
    "prefecture": "埼玉県",
    "prefecture_kana": null,
    "prefecture_code": null,
    "city": "鶴ヶ島市",
    "city_kana": null,
    "town": "大字五味ヶ谷",
    "town_kana": null,
    "street": "１８",
    "office_name": "東光　（株）　埼玉事業所",
    "office_name_kana": "トウコウ (カブ) サイタマジギヨウシヨ"
  },
  "2282": {
    "zip_code": "3502282",
    "prefecture": "埼玉県",
    "prefecture_kana": "サイタマケン",
    "prefecture_code": "11",
    "city": "鶴ヶ島市",
    "city_kana": "ツルガシマシ",
    "town": "脚折",
    "town_kana": "スネオリ",
    "street": "１６４６",
    "office_name": "株式会社　ベルク",
    "office_name_kana": "カブシキガイシヤ ベルク"
  },
  "2287": {
    "zip_code": "3502287",
    "prefecture": "埼玉県",
    "prefecture_kana": "サイタマケン",
    "prefecture_code": "11",
    "city": "鶴ヶ島市",
    "city_kana": "ツルガシマシ",
    "town": "富士見",
    "town_kana": "フジミ",
    "street": "６−２−２",
    "office_name": "株式会社　ネオシス",
    "office_name_kana": "カブシキガイシヤ ネオシス"
  },
  "2292": {
    "zip_code": "3502292",
    "prefecture": "埼玉県",
    "prefecture_kana": null,
    "prefecture_code": null,
    "city": "鶴ヶ島市",
    "city_kana": null,
    "town": "大字三ツ木",
    "town_kana": null,
    "street": "１６−１",
    "office_name": "鶴ヶ島市役所",
    "office_name_kana": "ツルガシマシヤクシヨ"
  },
  "8501": {
    "zip_code": "3508501",
    "prefecture": "埼玉県",
    "prefecture_kana": "サイタマケン",
    "prefecture_code": "11",
    "city": "川越市",
    "city_kana": "カワゴエシ",
    "town": "新富町",
    "town_kana": "シントミチョウ",
    "street": "１丁目２２",
    "office_name": "川越プリンスホテル",
    "office_name_kana": "カワゴエプリンスホテル"
  },
  "8510": {
    "zip_code": "3508510",
    "prefecture": "埼玉県",
    "prefecture_kana": "サイタマケン",
    "prefecture_code": "11",
    "city": "川越市",
    "city_kana": "カワゴエシ",
    "town": "仲町",
    "town_kana": "ナカチョウ",
    "street": "１番地１２",
    "office_name": "川越商工会議所",
    "office_name_kana": "カワゴエシヨウコウカイギシヨ"
  },
  "8511": {
    "zip_code": "3508511",
    "prefecture": "埼玉県",
    "prefecture_kana": "サイタマケン",
    "prefecture_code": "11",
    "city": "川越市",
    "city_kana": "カワゴエシ",
    "town": "新富町",
    "town_kana": "シントミチョウ",
    "street": "２丁目６−１",
    "office_name": "株式会社　丸広百貨店",
    "office_name_kana": "カブシキガイシヤ マルヒロヒヤツカテン"
  },
  "8531": {
    "zip_code": "3508531",
    "prefecture": "埼玉県",
    "prefecture_kana": "サイタマケン",
    "prefecture_code": "11",
    "city": "川越市",
    "city_kana": "カワゴエシ",
    "town": "宮下町",
    "town_kana": "ミヤシタマチ",
    "street": "２丁目１−３",
    "office_name": "さいたま地方裁判所　川越支部",
    "office_name_kana": "サイタマチホウサイバンシヨ カワゴエシブ"
  },
  "8550": {
    "zip_code": "3508550",
    "prefecture": "埼玉県",
    "prefecture_kana": null,
    "prefecture_code": null,
    "city": "川越市",
    "city_kana": null,
    "town": "大字鴨田",
    "town_kana": null,
    "street": "字辻道町１９８１",
    "office_name": "埼玉医科大学総合医療センター",
    "office_name_kana": "サイタマイカダイガクソウゴウイリヨウセンタ-"
  },
  "8555": {
    "zip_code": "3508555",
    "prefecture": "埼玉県",
    "prefecture_kana": "サイタマケン",
    "prefecture_code": "11",
    "city": "川越市",
    "city_kana": "カワゴエシ",
    "town": "山田",
    "town_kana": "ヤマダ",
    "street": "２５−１",
    "office_name": "パイオニア　株式会社　川越事業所",
    "office_name_kana": "パイオニア カブシキガイシヤ カワゴエジギヨウシヨ"
  },
  "8585": {
    "zip_code": "3508585",
    "prefecture": "埼玉県",
    "prefecture_kana": null,
    "prefecture_code": null,
    "city": "川越市",
    "city_kana": null,
    "town": "大字鯨井",
    "town_kana": null,
    "street": "中野台２１００",
    "office_name": "学校法人　東洋大学",
    "office_name_kana": "ガツコウホウジン トウヨウダイガク"
  },
  "8588": {
    "zip_code": "3508588",
    "prefecture": "埼玉県",
    "prefecture_kana": null,
    "prefecture_code": null,
    "city": "川越市",
    "city_kana": null,
    "town": "大字山田",
    "town_kana": null,
    "street": "西町３７５−１",
    "office_name": "医療法人　康正会病院",
    "office_name_kana": "イリヨウホウジン コウセイカイビヨウイン"
  },
  "8601": {
    "zip_code": "3508601",
    "prefecture": "埼玉県",
    "prefecture_kana": "サイタマケン",
    "prefecture_code": "11",
    "city": "川越市",
    "city_kana": "カワゴエシ",
    "town": "元町",
    "town_kana": "モトマチ",
    "street": "１丁目３番地１",
    "office_name": "川越市役所",
    "office_name_kana": "カワゴエシヤクシヨ"
  },
  "8666": {
    "zip_code": "3508666",
    "prefecture": "埼玉県",
    "prefecture_kana": null,
    "prefecture_code": null,
    "city": "川越市",
    "city_kana": null,
    "town": "大字並木",
    "town_kana": null,
    "street": "４５２−２（川越郵便局私書箱第１６号）",
    "office_name": "川越税務署",
    "office_name_kana": "カワゴエゼイムシヨ"
  }
}