{
  "0000": {
    "zip_code": "3520000",
    "prefecture": "埼玉県",
    "prefecture_kana": "サイタマケン",
    "prefecture_code": 11,
    "city": "新座市",
    "city_kana": "ニイザシ",
    "town": "",
    "town_kana": "",
    "street": null,
    "office_name": null,
    "office_name_kana": null
  },
  "0001": {
    "zip_code": "3520001",
    "prefecture": "埼玉県",
    "prefecture_kana": "サイタマケン",
    "prefecture_code": 11,
    "city": "新座市",
    "city_kana": "ニイザシ",
    "town": "東北",
    "town_kana": "トオホク",
    "street": null,
    "office_name": null,
    "office_name_kana": null
  },
  "0002": {
    "zip_code": "3520002",
    "prefecture": "埼玉県",
    "prefecture_kana": "サイタマケン",
    "prefecture_code": 11,
    "city": "新座市",
    "city_kana": "ニイザシ",
    "town": "東",
    "town_kana": "ヒガシ",
    "street": null,
    "office_name": null,
    "office_name_kana": null
  },
  "0003": {
    "zip_code": "3520003",
    "prefecture": "埼玉県",
    "prefecture_kana": "サイタマケン",
    "prefecture_code": 11,
    "city": "新座市",
    "city_kana": "ニイザシ",
    "town": "北野",
    "town_kana": "キタノ",
    "street": null,
    "office_name": null,
    "office_name_kana": null
  },
  "0004": {
    "zip_code": "3520004",
    "prefecture": "埼玉県",
    "prefecture_kana": "サイタマケン",
    "prefecture_code": 11,
    "city": "新座市",
    "city_kana": "ニイザシ",
    "town": "大和田",
    "town_kana": "オオワダ",
    "street": null,
    "office_name": null,
    "office_name_kana": null
  },
  "0005": {
    "zip_code": "3520005",
    "prefecture": "埼玉県",
    "prefecture_kana": "サイタマケン",
    "prefecture_code": 11,
    "city": "新座市",
    "city_kana": "ニイザシ",
    "town": "中野",
    "town_kana": "ナカノ",
    "street": null,
    "office_name": null,
    "office_name_kana": null
  },
  "0006": {
    "zip_code": "3520006",
    "prefecture": "埼玉県",
    "prefecture_kana": "サイタマケン",
    "prefecture_code": 11,
    "city": "新座市",
    "city_kana": "ニイザシ",
    "town": "新座",
    "town_kana": "ニイザ",
    "street": null,
    "office_name": null,
    "office_name_kana": null
  },
  "0011": {
    "zip_code": "3520011",
    "prefecture": "埼玉県",
    "prefecture_kana": "サイタマケン",
    "prefecture_code": 11,
    "city": "新座市",
    "city_kana": "ニイザシ",
    "town": "野火止",
    "town_kana": "ノビトメ",
    "street": null,
    "office_name": null,
    "office_name_kana": null
  },
  "0012": {
    "zip_code": "3520012",
    "prefecture": "埼玉県",
    "prefecture_kana": "サイタマケン",
    "prefecture_code": 11,
    "city": "新座市",
    "city_kana": "ニイザシ",
    "town": "畑中",
    "town_kana": "ハタナカ",
    "street": null,
    "office_name": null,
    "office_name_kana": null
  },
  "0013": {
    "zip_code": "3520013",
    "prefecture": "埼玉県",
    "prefecture_kana": "サイタマケン",
    "prefecture_code": 11,
    "city": "新座市",
    "city_kana": "ニイザシ",
    "town": "新塚",
    "town_kana": "ニイヅカ",
    "street": null,
    "office_name": null,
    "office_name_kana": null
  },
  "0014": {
    "zip_code": "3520014",
    "prefecture": "埼玉県",
    "prefecture_kana": "サイタマケン",
    "prefecture_code": 11,
    "city": "新座市",
    "city_kana": "ニイザシ",
    "town": "栄",
    "town_kana": "サカエ",
    "street": null,
    "office_name": null,
    "office_name_kana": null
  },
  "0015": {
    "zip_code": "3520015",
    "prefecture": "埼玉県",
    "prefecture_kana": "サイタマケン",
    "prefecture_code": 11,
    "city": "新座市",
    "city_kana": "ニイザシ",
    "town": "池田",
    "town_kana": "イケダ",
    "street": null,
    "office_name": null,
    "office_name_kana": null
  },
  "0016": {
    "zip_code": "3520016",
    "prefecture": "埼玉県",
    "prefecture_kana": "サイタマケン",
    "prefecture_code": 11,
    "city": "新座市",
    "city_kana": "ニイザシ",
    "town": "馬場",
    "town_kana": "ババ",
    "street": null,
    "office_name": null,
    "office_name_kana": null
  },
  "0017": {
    "zip_code": "3520017",
    "prefecture": "埼玉県",
    "prefecture_kana": "サイタマケン",
    "prefecture_code": 11,
    "city": "新座市",
    "city_kana": "ニイザシ",
    "town": "菅沢",
    "town_kana": "スガサワ",
    "street": null,
    "office_name": null,
    "office_name_kana": null
  },
  "0021": {
    "zip_code": "3520021",
    "prefecture": "埼玉県",
    "prefecture_kana": "サイタマケン",
    "prefecture_code": 11,
    "city": "新座市",
    "city_kana": "ニイザシ",
    "town": "あたご",
    "town_kana": "アタゴ",
    "street": null,
    "office_name": null,
    "office_name_kana": null
  },
  "0022": {
    "zip_code": "3520022",
    "prefecture": "埼玉県",
    "prefecture_kana": "サイタマケン",
    "prefecture_code": 11,
    "city": "新座市",
    "city_kana": "ニイザシ",
    "town": "本多",
    "town_kana": "ホンダ",
    "street": null,
    "office_name": null,
    "office_name_kana": null
  },
  "0023": {
    "zip_code": "3520023",
    "prefecture": "埼玉県",
    "prefecture_kana": "サイタマケン",
    "prefecture_code": 11,
    "city": "新座市",
    "city_kana": "ニイザシ",
    "town": "堀ノ内",
    "town_kana": "ホリノウチ",
    "street": null,
    "office_name": null,
    "office_name_kana": null
  },
  "0024": {
    "zip_code": "3520024",
    "prefecture": "埼玉県",
    "prefecture_kana": "サイタマケン",
    "prefecture_code": 11,
    "city": "新座市",
    "city_kana": "ニイザシ",
    "town": "道場",
    "town_kana": "ドウジョウ",
    "street": null,
    "office_name": null,
    "office_name_kana": null
  },
  "0025": {
    "zip_code": "3520025",
    "prefecture": "埼玉県",
    "prefecture_kana": "サイタマケン",
    "prefecture_code": 11,
    "city": "新座市",
    "city_kana": "ニイザシ",
    "town": "片山",
    "town_kana": "カタヤマ",
    "street": null,
    "office_name": null,
    "office_name_kana": null
  },
  "0031": {
    "zip_code": "3520031",
    "prefecture": "埼玉県",
    "prefecture_kana": "サイタマケン",
    "prefecture_code": 11,
    "city": "新座市",
    "city_kana": "ニイザシ",
    "town": "西堀",
    "town_kana": "ニシボリ",
    "street": null,
    "office_name": null,
    "office_name_kana": null
  },
  "0032": {
    "zip_code": "3520032",
    "prefecture": "埼玉県",
    "prefecture_kana": "サイタマケン",
    "prefecture_code": 11,
    "city": "新座市",
    "city_kana": "ニイザシ",
    "town": "新堀",
    "town_kana": "シンボリ",
    "street": null,
    "office_name": null,
    "office_name_kana": null
  },
  "0033": {
    "zip_code": "3520033",
    "prefecture": "埼玉県",
    "prefecture_kana": "サイタマケン",
    "prefecture_code": 11,
    "city": "新座市",
    "city_kana": "ニイザシ",
    "town": "石神",
    "town_kana": "イシガミ",
    "street": null,
    "office_name": null,
    "office_name_kana": null
  },
  "0034": {
    "zip_code": "3520034",
    "prefecture": "埼玉県",
    "prefecture_kana": "サイタマケン",
    "prefecture_code": 11,
    "city": "新座市",
    "city_kana": "ニイザシ",
    "town": "野寺",
    "town_kana": "ノデラ",
    "street": null,
    "office_name": null,
    "office_name_kana": null
  },
  "0035": {
    "zip_code": "3520035",
    "prefecture": "埼玉県",
    "prefecture_kana": "サイタマケン",
    "prefecture_code": 11,
    "city": "新座市",
    "city_kana": "ニイザシ",
    "town": "栗原",
    "town_kana": "クリハラ",
    "street": null,
    "office_name": null,
    "office_name_kana": null
  },
  "8501": {
    "zip_code": "3528501",
    "prefecture": "埼玉県",
    "prefecture_kana": "サイタマケン",
    "prefecture_code": 11,
    "city": "新座市",
    "city_kana": "ニイザシ",
    "town": "中野",
    "town_kana": "ナカノ",
    "street": "１丁目９−６",
    "office_name": "跡見学園女子大学",
    "office_name_kana": "アトミガクエンジヨシダイガク"
  },
  "8510": {
    "zip_code": "3528510",
    "prefecture": "埼玉県",
    "prefecture_kana": "サイタマケン",
    "prefecture_code": 11,
    "city": "新座市",
    "city_kana": "ニイザシ",
    "town": "菅沢",
    "town_kana": "スガサワ",
    "street": "２丁目１−２８",
    "office_name": "十文字学園女子大学・十文字学園女子大学　短期大学部",
    "office_name_kana": "ジユウモンジガクエンジヨシダイガク・ジユウモンジガクエンジヨシダイガク タンキダイガクブ"
  },
  "8523": {
    "zip_code": "3528523",
    "prefecture": "埼玉県",
    "prefecture_kana": "サイタマケン",
    "prefecture_code": 11,
    "city": "新座市",
    "city_kana": "ニイザシ",
    "town": "北野",
    "town_kana": "キタノ",
    "street": "１丁目２−２５",
    "office_name": "立教新座中学校・高等学校",
    "office_name_kana": "リツキヨウニイザチユウガツコウ・コウトウガツコウ"
  },
  "8549": {
    "zip_code": "3528549",
    "prefecture": "埼玉県",
    "prefecture_kana": "サイタマケン",
    "prefecture_code": 11,
    "city": "新座市",
    "city_kana": "ニイザシ",
    "town": "北野",
    "town_kana": "キタノ",
    "street": "１丁目２−３５",
    "office_name": "立教大学　野球部",
    "office_name_kana": "リツキヨウダイガク ヤキユウブ"
  },
  "8555": {
    "zip_code": "3528555",
    "prefecture": "埼玉県",
    "prefecture_kana": "サイタマケン",
    "prefecture_code": 11,
    "city": "新座市",
    "city_kana": "ニイザシ",
    "town": "道場",
    "town_kana": "ドウジョウ",
    "street": "１丁目１０−１３",
    "office_name": "法台寺",
    "office_name_kana": "ホウダイジ"
  },
  "8558": {
    "zip_code": "3528558",
    "prefecture": "埼玉県",
    "prefecture_kana": "サイタマケン",
    "prefecture_code": 11,
    "city": "新座市",
    "city_kana": "ニイザシ",
    "town": "北野",
    "town_kana": "キタノ",
    "street": "１丁目２−２６",
    "office_name": "立教大学　新座キャンパス",
    "office_name_kana": "リツキヨウダイガク ニイザキヤンパス"
  },
  "8572": {
    "zip_code": "3528572",
    "prefecture": "埼玉県",
    "prefecture_kana": "サイタマケン",
    "prefecture_code": 11,
    "city": "新座市",
    "city_kana": "ニイザシ",
    "town": "北野",
    "town_kana": "キタノ",
    "street": "３丁目４−１",
    "office_name": "株式会社　ボッシュオートモーティブシステム　志木事務所",
    "office_name_kana": "カブシキガイシヤ ボツシユオ-トモ-テイブシステム シキジムシヨ"
  },
  "8577": {
    "zip_code": "3528577",
    "prefecture": "埼玉県",
    "prefecture_kana": "サイタマケン",
    "prefecture_code": 11,
    "city": "新座市",
    "city_kana": "ニイザシ",
    "town": "東北",
    "town_kana": "トオホク",
    "street": "２丁目３２−１２",
    "office_name": "株式会社　マイカル新座サテイ",
    "office_name_kana": "カブシキガイシヤ マイカルニイザサテイ"
  },
  "8588": {
    "zip_code": "3528588",
    "prefecture": "埼玉県",
    "prefecture_kana": "サイタマケン",
    "prefecture_code": 11,
    "city": "新座市",
    "city_kana": "ニイザシ",
    "town": "野火止",
    "town_kana": "ノビトメ",
    "street": "８丁目１４−３１",
    "office_name": "東京カネカ食品販売　株式会社",
    "office_name_kana": "トウキヨウカネカシヨクヒンハンバイ カブシキガイシヤ"
  },
  "8589": {
    "zip_code": "3528589",
    "prefecture": "埼玉県",
    "prefecture_kana": "サイタマケン",
    "prefecture_code": 11,
    "city": "新座市",
    "city_kana": "ニイザシ",
    "town": "野火止",
    "town_kana": "ノビトメ",
    "street": "８丁目１８−４",
    "office_name": "株式会社　ホンダアクセス",
    "office_name_kana": "カブシキガイシヤ ホンダアクセス"
  },
  "8623": {
    "zip_code": "3528623",
    "prefecture": "埼玉県",
    "prefecture_kana": "サイタマケン",
    "prefecture_code": 11,
    "city": "新座市",
    "city_kana": "ニイザシ",
    "town": "野火止",
    "town_kana": "ノビトメ",
    "street": "１丁目１−１（新座郵便局私書箱第１０号）",
    "office_name": "新座市役所",
    "office_name_kana": "ニイザシヤクシヨ"
  },
  "8666": {
    "zip_code": "3528666",
    "prefecture": "埼玉県",
    "prefecture_kana": "サイタマケン",
    "prefecture_code": 11,
    "city": "新座市",
    "city_kana": "ニイザシ",
    "town": "北野",
    "town_kana": "キタノ",
    "street": "３丁目６−３（新座郵便局私書箱第１号）",
    "office_name": "サンケン電気　株式会社　本社",
    "office_name_kana": "サンケンデンキ カブシキガイシヤ ホンシヤ"
  }
}