{
  "0000": {
    "zip_code": "3560000",
    "prefecture": "埼玉県",
    "prefecture_kana": "サイタマケン",
    "prefecture_code": "11",
    "city": "ふじみ野市",
    "city_kana": "フジミノシ",
    "town": "",
    "town_kana": "",
    "street": null,
    "office_name": null,
    "office_name_kana": null
  },
  "0001": {
    "zip_code": "3560001",
    "prefecture": "埼玉県",
    "prefecture_kana": "サイタマケン",
    "prefecture_code": "11",
    "city": "ふじみ野市",
    "city_kana": "フジミノシ",
    "town": "川崎",
    "town_kana": "カワサキ",
    "street": null,
    "office_name": null,
    "office_name_kana": null
  },
  "0002": {
    "zip_code": "3560002",
    "prefecture": "埼玉県",
    "prefecture_kana": "サイタマケン",
    "prefecture_code": "11",
    "city": "ふじみ野市",
    "city_kana": "フジミノシ",
    "town": "清見",
    "town_kana": "キヨミ",
    "street": null,
    "office_name": null,
    "office_name_kana": null
  },
  "0003": {
    "zip_code": "3560003",
    "prefecture": "埼玉県",
    "prefecture_kana": "サイタマケン",
    "prefecture_code": "11",
    "city": "ふじみ野市",
    "city_kana": "フジミノシ",
    "town": "大原",
    "town_kana": "オオハラ",
    "street": null,
    "office_name": null,
    "office_name_kana": null
  },
  "0004": {
    "zip_code": "3560004",
    "prefecture": "埼玉県",
    "prefecture_kana": "サイタマケン",
    "prefecture_code": "11",
    "city": "ふじみ野市",
    "city_kana": "フジミノシ",
    "town": "上福岡",
    "town_kana": "カミフクオカ",
    "street": null,
    "office_name": null,
    "office_name_kana": null
  },
  "0005": {
    "zip_code": "3560005",
    "prefecture": "埼玉県",
    "prefecture_kana": "サイタマケン",
    "prefecture_code": "11",
    "city": "ふじみ野市",
    "city_kana": "フジミノシ",
    "town": "西",
    "town_kana": "ニシ",
    "street": null,
    "office_name": null,
    "office_name_kana": null
  },
  "0006": {
    "zip_code": "3560006",
    "prefecture": "埼玉県",
    "prefecture_kana": "サイタマケン",
    "prefecture_code": "11",
    "city": "ふじみ野市",
    "city_kana": "フジミノシ",
    "town": "霞ケ丘",
    "town_kana": "カスミガオカ",
    "street": null,
    "office_name": null,
    "office_name_kana": null
  },
  "0007": {
    "zip_code": "3560007",
    "prefecture": "埼玉県",
    "prefecture_kana": "サイタマケン",
    "prefecture_code": "11",
    "city": "ふじみ野市",
    "city_kana": "フジミノシ",
    "town": "北野",
    "town_kana": "キタノ",
    "street": null,
    "office_name": null,
    "office_name_kana": null
  },
  "0008": {
    "zip_code": "3560008",
    "prefecture": "埼玉県",
    "prefecture_kana": "サイタマケン",
    "prefecture_code": "11",
    "city": "ふじみ野市",
    "city_kana": "フジミノシ",
    "town": "元福岡",
    "town_kana": "モトフクオカ",
    "street": null,
    "office_name": null,
    "office_name_kana": null
  },
  "0011": {
    "zip_code": "3560011",
    "prefecture": "埼玉県",
    "prefecture_kana": "サイタマケン",
    "prefecture_code": "11",
    "city": "ふじみ野市",
    "city_kana": "フジミノシ",
    "town": "福岡",
    "town_kana": "フクオカ",
    "street": null,
    "office_name": null,
    "office_name_kana": null
  },
  "0012": {
    "zip_code": "3560012",
    "prefecture": "埼玉県",
    "prefecture_kana": "サイタマケン",
    "prefecture_code": "11",
    "city": "ふじみ野市",
    "city_kana": "フジミノシ",
    "town": "滝",
    "town_kana": "タキ",
    "street": null,
    "office_name": null,
    "office_name_kana": null
  },
  "0013": {
    "zip_code": "3560013",
    "prefecture": "埼玉県",
    "prefecture_kana": "サイタマケン",
    "prefecture_code": "11",
    "city": "ふじみ野市",
    "city_kana": "フジミノシ",
    "town": "中福岡",
    "town_kana": "ナカフクオカ",
    "street": null,
    "office_name": null,
    "office_name_kana": null
  },
  "0014": {
    "zip_code": "3560014",
    "prefecture": "埼玉県",
    "prefecture_kana": "サイタマケン",
    "prefecture_code": "11",
    "city": "ふじみ野市",
    "city_kana": "フジミノシ",
    "town": "福岡新田",
    "town_kana": "フクオカシンデン",
    "street": null,
    "office_name": null,
    "office_name_kana": null
  },
  "0015": {
    "zip_code": "3560015",
    "prefecture": "埼玉県",
    "prefecture_kana": "サイタマケン",
    "prefecture_code": "11",
    "city": "ふじみ野市",
    "city_kana": "フジミノシ",
    "town": "花ノ木",
    "town_kana": "ハナノキ",
    "street": null,
    "office_name": null,
    "office_name_kana": null
  },
  "0016": {
    "zip_code": "3560016",
    "prefecture": "埼玉県",
    "prefecture_kana": "サイタマケン",
    "prefecture_code": "11",
    "city": "ふじみ野市",
    "city_kana": "フジミノシ",
    "town": "中丸",
    "town_kana": "ナカマル",
    "street": null,
    "office_name": null,
    "office_name_kana": null
  },
  "0017": {
    "zip_code": "3560017",
    "prefecture": "埼玉県",
    "prefecture_kana": "サイタマケン",
    "prefecture_code": "11",
    "city": "ふじみ野市",
    "city_kana": "フジミノシ",
    "town": "上野台",
    "town_kana": "ウエノダイ",
    "street": null,
    "office_name": null,
    "office_name_kana": null
  },
  "0018": {
    "zip_code": "3560018",
    "prefecture": "埼玉県",
    "prefecture_kana": "サイタマケン",
    "prefecture_code": "11",
    "city": "ふじみ野市",
    "city_kana": "フジミノシ",
    "town": "本新田",
    "town_kana": "モトシンデン",
    "street": null,
    "office_name": null,
    "office_name_kana": null
  },
  "0019": {
    "zip_code": "3560019",
    "prefecture": "埼玉県",
    "prefecture_kana": "サイタマケン",
    "prefecture_code": "11",
    "city": "ふじみ野市",
    "city_kana": "フジミノシ",
    "town": "池上",
    "town_kana": "イケガミ",
    "street": null,
    "office_name": null,
    "office_name_kana": null
  },
  "0020": {
    "zip_code": "3560020",
    "prefecture": "埼玉県",
    "prefecture_kana": "サイタマケン",
    "prefecture_code": "11",
    "city": "ふじみ野市",
    "city_kana": "フジミノシ",
    "town": "水宮",
    "town_kana": "スイグウ",
    "street": null,
    "office_name": null,
    "office_name_kana": null
  },
  "0021": {
    "zip_code": "3560021",
    "prefecture": "埼玉県",
    "prefecture_kana": "サイタマケン",
    "prefecture_code": "11",
    "city": "ふじみ野市",
    "city_kana": "フジミノシ",
    "town": "上ノ原",
    "town_kana": "ウエノハラ",
    "street": null,
    "office_name": null,
    "office_name_kana": null
  },
  "0022": {
    "zip_code": "3560022",
    "prefecture": "埼玉県",
    "prefecture_kana": "サイタマケン",
    "prefecture_code": "11",
    "city": "ふじみ野市",
    "city_kana": "フジミノシ",
    "town": "長宮",
    "town_kana": "ナガミヤ",
    "street": null,
    "office_name": null,
    "office_name_kana": null
  },
  "0023": {
    "zip_code": "3560023",
    "prefecture": "埼玉県",
    "prefecture_kana": "サイタマケン",
    "prefecture_code": "11",
    "city": "ふじみ野市",
    "city_kana": "フジミノシ",
    "town": "中ノ島",
    "town_kana": "ナカノシマ",
    "street": null,
    "office_name": null,
    "office_name_kana": null
  },
  "0024": {
    "zip_code": "3560024",
    "prefecture": "埼玉県",
    "prefecture_kana": "サイタマケン",
    "prefecture_code": "11",
    "city": "ふじみ野市",
    "city_kana": "フジミノシ",
    "town": "谷田",
    "town_kana": "ヤタ",
    "street": null,
    "office_name": null,
    "office_name_kana": null
  },
  "0025": {
    "zip_code": "3560025",
    "prefecture": "埼玉県",
    "prefecture_kana": "サイタマケン",
    "prefecture_code": "11",
    "city": "ふじみ野市",
    "city_kana": "フジミノシ",
    "town": "仲",
    "town_kana": "ナカ",
    "street": null,
    "office_name": null,
    "office_name_kana": null
  },
  "0026": {
    "zip_code": "3560026",
    "prefecture": "埼玉県",
    "prefecture_kana": "サイタマケン",
    "prefecture_code": "11",
    "city": "ふじみ野市",
    "city_kana": "フジミノシ",
    "town": "築地",
    "town_kana": "ツキジ",
    "street": null,
    "office_name": null,
    "office_name_kana": null
  },
  "0027": {
    "zip_code": "3560027",
    "prefecture": "埼玉県",
    "prefecture_kana": "サイタマケン",
    "prefecture_code": "11",
    "city": "ふじみ野市",
    "city_kana": "フジミノシ",
    "town": "松山",
    "town_kana": "マツヤマ",
    "street": null,
    "office_name": null,
    "office_name_kana": null
  },
  "0028": {
    "zip_code": "3560028",
    "prefecture": "埼玉県",
    "prefecture_kana": "サイタマケン",
    "prefecture_code": "11",
    "city": "ふじみ野市",
    "city_kana": "フジミノシ",
    "town": "西原",
    "town_kana": "ニシハラ",
    "street": null,
    "office_name": null,
    "office_name_kana": null
  },
  "0029": {
    "zip_code": "3560029",
    "prefecture": "埼玉県",
    "prefecture_kana": "サイタマケン",
    "prefecture_code": "11",
    "city": "ふじみ野市",
    "city_kana": "フジミノシ",
    "town": "駒西",
    "town_kana": "コマニシ",
    "street": null,
    "office_name": null,
    "office_name_kana": null
  },
  "0030": {
    "zip_code": "3560030",
    "prefecture": "埼玉県",
    "prefecture_kana": "サイタマケン",
    "prefecture_code": "11",
    "city": "ふじみ野市",
    "city_kana": "フジミノシ",
    "town": "新駒林",
    "town_kana": "シンコマバヤシ",
    "street": null,
    "office_name": null,
    "office_name_kana": null
  },
  "0031": {
    "zip_code": "3560031",
    "prefecture": "埼玉県",
    "prefecture_kana": "サイタマケン",
    "prefecture_code": "11",
    "city": "ふじみ野市",
    "city_kana": "フジミノシ",
    "town": "福岡中央",
    "town_kana": "フクオカチュウオウ",
    "street": null,
    "office_name": null,
    "office_name_kana": null
  },
  "0032": {
    "zip_code": "3560032",
    "prefecture": "埼玉県",
    "prefecture_kana": "サイタマケン",
    "prefecture_code": "11",
    "city": "ふじみ野市",
    "city_kana": "フジミノシ",
    "town": "富士見台",
    "town_kana": "フジミダイ",
    "street": null,
    "office_name": null,
    "office_name_kana": null
  },
  "0033": {
    "zip_code": "3560033",
    "prefecture": "埼玉県",
    "prefecture_kana": "サイタマケン",
    "prefecture_code": "11",
    "city": "ふじみ野市",
    "city_kana": "フジミノシ",
    "town": "新田",
    "town_kana": "シンデン",
    "street": null,
    "office_name": null,
    "office_name_kana": null
  },
  "0034": {
    "zip_code": "3560034",
    "prefecture": "埼玉県",
    "prefecture_kana": "サイタマケン",
    "prefecture_code": "11",
    "city": "ふじみ野市",
    "city_kana": "フジミノシ",
    "town": "駒林",
    "town_kana": "コマバヤシ",
    "street": null,
    "office_name": null,
    "office_name_kana": null
  },
  "0035": {
    "zip_code": "3560035",
    "prefecture": "埼玉県",
    "prefecture_kana": "サイタマケン",
    "prefecture_code": "11",
    "city": "ふじみ野市",
    "city_kana": "フジミノシ",
    "town": "丸山",
    "town_kana": "マルヤマ",
    "street": null,
    "office_name": null,
    "office_name_kana": null
  },
  "0036": {
    "zip_code": "3560036",
    "prefecture": "埼玉県",
    "prefecture_kana": "サイタマケン",
    "prefecture_code": "11",
    "city": "ふじみ野市",
    "city_kana": "フジミノシ",
    "town": "南台",
    "town_kana": "ミナミダイ",
    "street": null,
    "office_name": null,
    "office_name_kana": null
  },
  "0037": {
    "zip_code": "3560037",
    "prefecture": "埼玉県",
    "prefecture_kana": "サイタマケン",
    "prefecture_code": "11",
    "city": "ふじみ野市",
    "city_kana": "フジミノシ",
    "town": "福岡武蔵野",
    "town_kana": "フクオカムサシノ",
    "street": null,
    "office_name": null,
    "office_name_kana": null
  },
  "0038": {
    "zip_code": "3560038",
    "prefecture": "埼玉県",
    "prefecture_kana": "サイタマケン",
    "prefecture_code": "11",
    "city": "ふじみ野市",
    "city_kana": "フジミノシ",
    "town": "駒林元町",
    "town_kana": "コマハヤシモトマチ",
    "street": null,
    "office_name": null,
    "office_name_kana": null
  },
  "0041": {
    "zip_code": "3560041",
    "prefecture": "埼玉県",
    "prefecture_kana": "サイタマケン",
    "prefecture_code": "11",
    "city": "ふじみ野市",
    "city_kana": "フジミノシ",
    "town": "鶴ケ舞",
    "town_kana": "ツルガマイ",
    "street": null,
    "office_name": null,
    "office_name_kana": null
  },
  "0042": {
    "zip_code": "3560042",
    "prefecture": "埼玉県",
    "prefecture_kana": "サイタマケン",
    "prefecture_code": "11",
    "city": "ふじみ野市",
    "city_kana": "フジミノシ",
    "town": "東久保",
    "town_kana": "ヒガシクボ",
    "street": null,
    "office_name": null,
    "office_name_kana": null
  },
  "0043": {
    "zip_code": "3560043",
    "prefecture": "埼玉県",
    "prefecture_kana": "サイタマケン",
    "prefecture_code": "11",
    "city": "ふじみ野市",
    "city_kana": "フジミノシ",
    "town": "緑ケ丘",
    "town_kana": "ミドリガオカ",
    "street": null,
    "office_name": null,
    "office_name_kana": null
  },
  "0044": {
    "zip_code": "3560044",
    "prefecture": "埼玉県",
    "prefecture_kana": "サイタマケン",
    "prefecture_code": "11",
    "city": "ふじみ野市",
    "city_kana": "フジミノシ",
    "town": "西鶴ケ岡",
    "town_kana": "ニシツルガオカ",
    "street": null,
    "office_name": null,
    "office_name_kana": null
  },
  "0045": {
    "zip_code": "3560045",
    "prefecture": "埼玉県",
    "prefecture_kana": "サイタマケン",
    "prefecture_code": "11",
    "city": "ふじみ野市",
    "city_kana": "フジミノシ",
    "town": "鶴ケ岡",
    "town_kana": "ツルガオカ",
    "street": null,
    "office_name": null,
    "office_name_kana": null
  },
  "0050": {
    "zip_code": "3560050",
    "prefecture": "埼玉県",
    "prefecture_kana": "サイタマケン",
    "prefecture_code": "11",
    "city": "ふじみ野市",
    "city_kana": "フジミノシ",
    "town": "ふじみ野",
    "town_kana": "フジミノ",
    "street": null,
    "office_name": null,
    "office_name_kana": null
  },
  "0051": {
    "zip_code": "3560051",
    "prefecture": "埼玉県",
    "prefecture_kana": "サイタマケン",
    "prefecture_code": "11",
    "city": "ふじみ野市",
    "city_kana": "フジミノシ",
    "town": "亀久保",
    "town_kana": "カメクボ",
    "street": null,
    "office_name": null,
    "office_name_kana": null
  },
  "0052": {
    "zip_code": "3560052",
    "prefecture": "埼玉県",
    "prefecture_kana": "サイタマケン",
    "prefecture_code": "11",
    "city": "ふじみ野市",
    "city_kana": "フジミノシ",
    "town": "苗間",
    "town_kana": "ナエマ",
    "street": null,
    "office_name": null,
    "office_name_kana": null
  },
  "0053": {
    "zip_code": "3560053",
    "prefecture": "埼玉県",
    "prefecture_kana": "サイタマケン",
    "prefecture_code": "11",
    "city": "ふじみ野市",
    "city_kana": "フジミノシ",
    "town": "大井",
    "town_kana": "オオイ",
    "street": null,
    "office_name": null,
    "office_name_kana": null
  },
  "0054": {
    "zip_code": "3560054",
    "prefecture": "埼玉県",
    "prefecture_kana": "サイタマケン",
    "prefecture_code": "11",
    "city": "ふじみ野市",
    "city_kana": "フジミノシ",
    "town": "大井武蔵野",
    "town_kana": "オオイムサシノ",
    "street": null,
    "office_name": null,
    "office_name_kana": null
  },
  "0055": {
    "zip_code": "3560055",
    "prefecture": "埼玉県",
    "prefecture_kana": "サイタマケン",
    "prefecture_code": "11",
    "city": "ふじみ野市",
    "city_kana": "フジミノシ",
    "town": "旭",
    "town_kana": "アサヒ",
    "street": null,
    "office_name": null,
    "office_name_kana": null
  },
  "0056": {
    "zip_code": "3560056",
    "prefecture": "埼玉県",
    "prefecture_kana": "サイタマケン",
    "prefecture_code": "11",
    "city": "ふじみ野市",
    "city_kana": "フジミノシ",
    "town": "うれし野",
    "town_kana": "ウレシノ",
    "street": null,
    "office_name": null,
    "office_name_kana": null
  },
  "0057": {
    "zip_code": "3560057",
    "prefecture": "埼玉県",
    "prefecture_kana": "サイタマケン",
    "prefecture_code": "11",
    "city": "ふじみ野市",
    "city_kana": "フジミノシ",
    "town": "市沢",
    "town_kana": "イチサワ",
    "street": null,
    "office_name": null,
    "office_name_kana": null
  },
  "0058": {
    "zip_code": "3560058",
    "prefecture": "埼玉県",
    "prefecture_kana": "サイタマケン",
    "prefecture_code": "11",
    "city": "ふじみ野市",
    "city_kana": "フジミノシ",
    "town": "大井中央",
    "town_kana": "オオイチュウオウ",
    "street": null,
    "office_name": null,
    "office_name_kana": null
  },
  "0059": {
    "zip_code": "3560059",
    "prefecture": "埼玉県",
    "prefecture_kana": "サイタマケン",
    "prefecture_code": "11",
    "city": "ふじみ野市",
    "city_kana": "フジミノシ",
    "town": "桜ケ丘",
    "town_kana": "サクラガオカ",
    "street": null,
    "office_name": null,
    "office_name_kana": null
  },
  "8501": {
    "zip_code": "3568501",
    "prefecture": "埼玉県",
    "prefecture_kana": "サイタマケン",
    "prefecture_code": "11",
    "city": "ふじみ野市",
    "city_kana": "フジミノシ",
    "town": "福岡",
    "town_kana": "フクオカ",
    "street": "１丁目１−１",
    "office_name": "ふじみ野市役所",
    "office_name_kana": "フジミノシヤクシヨ"
  },
  "8502": {
    "zip_code": "3568502",
    "prefecture": "埼玉県",
    "prefecture_kana": "サイタマケン",
    "prefecture_code": "11",
    "city": "ふじみ野市",
    "city_kana": "フジミノシ",
    "town": "大原",
    "town_kana": "オオハラ",
    "street": "２丁目１−１５",
    "office_name": "株式会社　ＫＤＤＩ研究所",
    "office_name_kana": "カブシキカイシヤ ケイデイ-デイ-アイケンキユウシヨ"
  },
  "8507": {
    "zip_code": "3568507",
    "prefecture": "埼玉県",
    "prefecture_kana": "サイタマケン",
    "prefecture_code": "11",
    "city": "ふじみ野市",
    "city_kana": "フジミノシ",
    "town": "福岡",
    "town_kana": "フクオカ",
    "street": "２丁目２−１",
    "office_name": "大日本印刷　株式会社　上福岡工場",
    "office_name_kana": "ダイニツポンインサツ カブシキガイシヤ カミフクオカコウジヨウ"
  },
  "8510": {
    "zip_code": "3568510",
    "prefecture": "埼玉県",
    "prefecture_kana": "サイタマケン",
    "prefecture_code": "11",
    "city": "ふじみ野市",
    "city_kana": "フジミノシ",
    "town": "福岡",
    "town_kana": "フクオカ",
    "street": "２丁目１−１",
    "office_name": "新日本無線　株式会社　川越製作所",
    "office_name_kana": "シンニホンムセン カブシキガイシヤ カワゴエセイサクシヨ"
  },
  "8511": {
    "zip_code": "3568511",
    "prefecture": "埼玉県",
    "prefecture_kana": "サイタマケン",
    "prefecture_code": "11",
    "city": "ふじみ野市",
    "city_kana": "フジミノシ",
    "town": "鶴ケ岡",
    "town_kana": "ツルガオカ",
    "street": "５丁目３−１",
    "office_name": "（株）　日清製粉グループ本社",
    "office_name_kana": "(カブ) ニツシンセイフングル-プホンシヤ"
  },
  "8533": {
    "zip_code": "3568533",
    "prefecture": "埼玉県",
    "prefecture_kana": "サイタマケン",
    "prefecture_code": "11",
    "city": "ふじみ野市",
    "city_kana": "フジミノシ",
    "town": "亀久保",
    "town_kana": "カメクボ",
    "street": "１１９６",
    "office_name": "文京学院大学",
    "office_name_kana": "ブンキヨウガクインダイガク"
  },
  "8550": {
    "zip_code": "3568550",
    "prefecture": "埼玉県",
    "prefecture_kana": "サイタマケン",
    "prefecture_code": "11",
    "city": "ふじみ野市",
    "city_kana": "フジミノシ",
    "town": "亀久保",
    "town_kana": "カメクボ",
    "street": "１１５０",
    "office_name": "株式会社　内外テクノス",
    "office_name_kana": "カブシキガイシヤ ナイガイテクノス"
  },
  "8555": {
    "zip_code": "3568555",
    "prefecture": "埼玉県",
    "prefecture_kana": "サイタマケン",
    "prefecture_code": "11",
    "city": "ふじみ野市",
    "city_kana": "フジミノシ",
    "town": "大井中央",
    "town_kana": "オオイチュウオウ",
    "street": "１丁目１番１号",
    "office_name": "ふじみ野市　大井総合支所",
    "office_name_kana": "フジミノシ オオイソウゴウシシヨ"
  },
  "8556": {
    "zip_code": "3568556",
    "prefecture": "埼玉県",
    "prefecture_kana": "サイタマケン",
    "prefecture_code": "11",
    "city": "ふじみ野市",
    "city_kana": "フジミノシ",
    "town": "亀久保",
    "town_kana": "カメクボ",
    "street": "１２３９",
    "office_name": "山下ゴム　株式会社",
    "office_name_kana": "ヤマシタゴム カブシキガイシヤ"
  },
  "8567": {
    "zip_code": "3568567",
    "prefecture": "埼玉県",
    "prefecture_kana": "サイタマケン",
    "prefecture_code": "11",
    "city": "ふじみ野市",
    "city_kana": "フジミノシ",
    "town": "鶴ケ岡",
    "town_kana": "ツルガオカ",
    "street": "５丁目２−２",
    "office_name": "学校法人　ホンダ学園　ホンダテクニカルカレッジ関東",
    "office_name_kana": "ガツコウホウジン ホンダガクエン ホンダテクニカルカレツジカントウ"
  },
  "8580": {
    "zip_code": "3568580",
    "prefecture": "埼玉県",
    "prefecture_kana": "サイタマケン",
    "prefecture_code": "11",
    "city": "ふじみ野市",
    "city_kana": "フジミノシ",
    "town": "福岡",
    "town_kana": "フクオカ",
    "street": "二丁目１番１２号",
    "office_name": "日本無線　株式会社　川越事業所",
    "office_name_kana": "ニホンムセン カブシキガイシヤ カワゴエジギヨウシヨ"
  },
  "8585": {
    "zip_code": "3568585",
    "prefecture": "埼玉県",
    "prefecture_kana": "サイタマケン",
    "prefecture_code": "11",
    "city": "ふじみ野市",
    "city_kana": "フジミノシ",
    "town": "上福岡",
    "town_kana": "カミフクオカ",
    "street": "１丁目１４−７",
    "office_name": "近藤建設　株式会社",
    "office_name_kana": "コンドウケンセツ カブシキガイシヤ"
  }
}