{
  "0000": {
    "zip_code": "3580000",
    "prefecture": "埼玉県",
    "prefecture_kana": "サイタマケン",
    "prefecture_code": "11",
    "city": "入間市",
    "city_kana": "イルマシ",
    "town": "",
    "town_kana": "",
    "street": null,
    "office_name": null,
    "office_name_kana": null
  },
  "0001": {
    "zip_code": "3580001",
    "prefecture": "埼玉県",
    "prefecture_kana": "サイタマケン",
    "prefecture_code": "11",
    "city": "入間市",
    "city_kana": "イルマシ",
    "town": "向陽台",
    "town_kana": "コウヨウダイ",
    "street": null,
    "office_name": null,
    "office_name_kana": null
  },
  "0002": {
    "zip_code": "3580002",
    "prefecture": "埼玉県",
    "prefecture_kana": "サイタマケン",
    "prefecture_code": "11",
    "city": "入間市",
    "city_kana": "イルマシ",
    "town": "東町",
    "town_kana": "アズマチョウ",
    "street": null,
    "office_name": null,
    "office_name_kana": null
  },
  "0003": {
    "zip_code": "3580003",
    "prefecture": "埼玉県",
    "prefecture_kana": "サイタマケン",
    "prefecture_code": "11",
    "city": "入間市",
    "city_kana": "イルマシ",
    "town": "豊岡",
    "town_kana": "トヨオカ",
    "street": null,
    "office_name": null,
    "office_name_kana": null
  },
  "0004": {
    "zip_code": "3580004",
    "prefecture": "埼玉県",
    "prefecture_kana": "サイタマケン",
    "prefecture_code": "11",
    "city": "入間市",
    "city_kana": "イルマシ",
    "town": "鍵山",
    "town_kana": "カギヤマ",
    "street": null,
    "office_name": null,
    "office_name_kana": null
  },
  "0005": {
    "zip_code": "3580005",
    "prefecture": "埼玉県",
    "prefecture_kana": "サイタマケン",
    "prefecture_code": "11",
    "city": "入間市",
    "city_kana": "イルマシ",
    "town": "宮前町",
    "town_kana": "ミヤマエチョウ",
    "street": null,
    "office_name": null,
    "office_name_kana": null
  },
  "0006": {
    "zip_code": "3580006",
    "prefecture": "埼玉県",
    "prefecture_kana": "サイタマケン",
    "prefecture_code": "11",
    "city": "入間市",
    "city_kana": "イルマシ",
    "town": "春日町",
    "town_kana": "カスガチョウ",
    "street": null,
    "office_name": null,
    "office_name_kana": null
  },
  "0007": {
    "zip_code": "3580007",
    "prefecture": "埼玉県",
    "prefecture_kana": "サイタマケン",
    "prefecture_code": "11",
    "city": "入間市",
    "city_kana": "イルマシ",
    "town": "黒須",
    "town_kana": "クロス",
    "street": null,
    "office_name": null,
    "office_name_kana": null
  },
  "0008": {
    "zip_code": "3580008",
    "prefecture": "埼玉県",
    "prefecture_kana": "サイタマケン",
    "prefecture_code": "11",
    "city": "入間市",
    "city_kana": "イルマシ",
    "town": "河原町",
    "town_kana": "カワラマチ",
    "street": null,
    "office_name": null,
    "office_name_kana": null
  },
  "0011": {
    "zip_code": "3580011",
    "prefecture": "埼玉県",
    "prefecture_kana": "サイタマケン",
    "prefecture_code": "11",
    "city": "入間市",
    "city_kana": "イルマシ",
    "town": "下藤沢",
    "town_kana": "シモフジサワ",
    "street": null,
    "office_name": null,
    "office_name_kana": null
  },
  "0012": {
    "zip_code": "3580012",
    "prefecture": "埼玉県",
    "prefecture_kana": "サイタマケン",
    "prefecture_code": "11",
    "city": "入間市",
    "city_kana": "イルマシ",
    "town": "東藤沢",
    "town_kana": "ヒガシフジサワ",
    "street": null,
    "office_name": null,
    "office_name_kana": null
  },
  "0013": {
    "zip_code": "3580013",
    "prefecture": "埼玉県",
    "prefecture_kana": "サイタマケン",
    "prefecture_code": "11",
    "city": "入間市",
    "city_kana": "イルマシ",
    "town": "上藤沢",
    "town_kana": "カミフジサワ",
    "street": null,
    "office_name": null,
    "office_name_kana": null
  },
  "0014": {
    "zip_code": "3580014",
    "prefecture": "埼玉県",
    "prefecture_kana": "サイタマケン",
    "prefecture_code": "11",
    "city": "入間市",
    "city_kana": "イルマシ",
    "town": "宮寺",
    "town_kana": "ミヤデラ",
    "street": null,
    "office_name": null,
    "office_name_kana": null
  },
  "0015": {
    "zip_code": "3580015",
    "prefecture": "埼玉県",
    "prefecture_kana": "サイタマケン",
    "prefecture_code": "11",
    "city": "入間市",
    "city_kana": "イルマシ",
    "town": "二本木",
    "town_kana": "ニホンギ",
    "street": null,
    "office_name": null,
    "office_name_kana": null
  },
  "0016": {
    "zip_code": "3580016",
    "prefecture": "埼玉県",
    "prefecture_kana": "サイタマケン",
    "prefecture_code": "11",
    "city": "入間市",
    "city_kana": "イルマシ",
    "town": "高根",
    "town_kana": "タカネ",
    "street": null,
    "office_name": null,
    "office_name_kana": null
  },
  "0017": {
    "zip_code": "3580017",
    "prefecture": "埼玉県",
    "prefecture_kana": "サイタマケン",
    "prefecture_code": "11",
    "city": "入間市",
    "city_kana": "イルマシ",
    "town": "駒形富士山",
    "town_kana": "コマガタフジヤマ",
    "street": null,
    "office_name": null,
    "office_name_kana": null
  },
  "0021": {
    "zip_code": "3580021",
    "prefecture": "埼玉県",
    "prefecture_kana": "サイタマケン",
    "prefecture_code": "11",
    "city": "入間市",
    "city_kana": "イルマシ",
    "town": "高倉",
    "town_kana": "タカクラ",
    "street": null,
    "office_name": null,
    "office_name_kana": null
  },
  "0022": {
    "zip_code": "3580022",
    "prefecture": "埼玉県",
    "prefecture_kana": "サイタマケン",
    "prefecture_code": "11",
    "city": "入間市",
    "city_kana": "イルマシ",
    "town": "扇町屋",
    "town_kana": "オウギマチヤ",
    "street": null,
    "office_name": null,
    "office_name_kana": null
  },
  "0023": {
    "zip_code": "3580023",
    "prefecture": "埼玉県",
    "prefecture_kana": "サイタマケン",
    "prefecture_code": "11",
    "city": "入間市",
    "city_kana": "イルマシ",
    "town": "扇台",
    "town_kana": "オウギダイ",
    "street": null,
    "office_name": null,
    "office_name_kana": null
  },
  "0024": {
    "zip_code": "3580024",
    "prefecture": "埼玉県",
    "prefecture_kana": "サイタマケン",
    "prefecture_code": "11",
    "city": "入間市",
    "city_kana": "イルマシ",
    "town": "久保稲荷",
    "town_kana": "クボイナリ",
    "street": null,
    "office_name": null,
    "office_name_kana": null
  },
  "0025": {
    "zip_code": "3580025",
    "prefecture": "埼玉県",
    "prefecture_kana": "サイタマケン",
    "prefecture_code": "11",
    "city": "入間市",
    "city_kana": "イルマシ",
    "town": "善蔵新田",
    "town_kana": "ゼンゾウシンデン",
    "street": null,
    "office_name": null,
    "office_name_kana": null
  },
  "0026": {
    "zip_code": "3580026",
    "prefecture": "埼玉県",
    "prefecture_kana": "サイタマケン",
    "prefecture_code": "11",
    "city": "入間市",
    "city_kana": "イルマシ",
    "town": "小谷田",
    "town_kana": "コヤタ",
    "street": null,
    "office_name": null,
    "office_name_kana": null
  },
  "0027": {
    "zip_code": "3580027",
    "prefecture": "埼玉県",
    "prefecture_kana": "サイタマケン",
    "prefecture_code": "11",
    "city": "入間市",
    "city_kana": "イルマシ",
    "town": "上小谷田",
    "town_kana": "ウエゴヤタ",
    "street": null,
    "office_name": null,
    "office_name_kana": null
  },
  "0031": {
    "zip_code": "3580031",
    "prefecture": "埼玉県",
    "prefecture_kana": "サイタマケン",
    "prefecture_code": "11",
    "city": "入間市",
    "city_kana": "イルマシ",
    "town": "新久",
    "town_kana": "アラク",
    "street": null,
    "office_name": null,
    "office_name_kana": null
  },
  "0032": {
    "zip_code": "3580032",
    "prefecture": "埼玉県",
    "prefecture_kana": "サイタマケン",
    "prefecture_code": "11",
    "city": "入間市",
    "city_kana": "イルマシ",
    "town": "狭山ケ原",
    "town_kana": "サヤマガハラ",
    "street": null,
    "office_name": null,
    "office_name_kana": null
  },
  "0033": {
    "zip_code": "3580033",
    "prefecture": "埼玉県",
    "prefecture_kana": "サイタマケン",
    "prefecture_code": "11",
    "city": "入間市",
    "city_kana": "イルマシ",
    "town": "狭山台",
    "town_kana": "サヤマダイ",
    "street": null,
    "office_name": null,
    "office_name_kana": null
  },
  "0034": {
    "zip_code": "3580034",
    "prefecture": "埼玉県",
    "prefecture_kana": "サイタマケン",
    "prefecture_code": "11",
    "city": "入間市",
    "city_kana": "イルマシ",
    "town": "根岸",
    "town_kana": "ネギシ",
    "street": null,
    "office_name": null,
    "office_name_kana": null
  },
  "0035": {
    "zip_code": "3580035",
    "prefecture": "埼玉県",
    "prefecture_kana": "サイタマケン",
    "prefecture_code": "11",
    "city": "入間市",
    "city_kana": "イルマシ",
    "town": "中神",
    "town_kana": "ナカガミ",
    "street": null,
    "office_name": null,
    "office_name_kana": null
  },
  "0036": {
    "zip_code": "3580036",
    "prefecture": "埼玉県",
    "prefecture_kana": "サイタマケン",
    "prefecture_code": "11",
    "city": "入間市",
    "city_kana": "イルマシ",
    "town": "花ノ木",
    "town_kana": "ハナノキ",
    "street": null,
    "office_name": null,
    "office_name_kana": null
  },
  "0041": {
    "zip_code": "3580041",
    "prefecture": "埼玉県",
    "prefecture_kana": "サイタマケン",
    "prefecture_code": "11",
    "city": "入間市",
    "city_kana": "イルマシ",
    "town": "下谷ケ貫",
    "town_kana": "シモヤガヌキ",
    "street": null,
    "office_name": null,
    "office_name_kana": null
  },
  "0042": {
    "zip_code": "3580042",
    "prefecture": "埼玉県",
    "prefecture_kana": "サイタマケン",
    "prefecture_code": "11",
    "city": "入間市",
    "city_kana": "イルマシ",
    "town": "上谷ケ貫",
    "town_kana": "カミヤガヌキ",
    "street": null,
    "office_name": null,
    "office_name_kana": null
  },
  "0043": {
    "zip_code": "3580043",
    "prefecture": "埼玉県",
    "prefecture_kana": "サイタマケン",
    "prefecture_code": "11",
    "city": "入間市",
    "city_kana": "イルマシ",
    "town": "西三ツ木",
    "town_kana": "ニシミツギ",
    "street": null,
    "office_name": null,
    "office_name_kana": null
  },
  "0044": {
    "zip_code": "3580044",
    "prefecture": "埼玉県",
    "prefecture_kana": "サイタマケン",
    "prefecture_code": "11",
    "city": "入間市",
    "city_kana": "イルマシ",
    "town": "三ツ木台",
    "town_kana": "ミツギダイ",
    "street": null,
    "office_name": null,
    "office_name_kana": null
  },
  "0045": {
    "zip_code": "3580045",
    "prefecture": "埼玉県",
    "prefecture_kana": "サイタマケン",
    "prefecture_code": "11",
    "city": "入間市",
    "city_kana": "イルマシ",
    "town": "寺竹",
    "town_kana": "テラダケ",
    "street": null,
    "office_name": null,
    "office_name_kana": null
  },
  "0046": {
    "zip_code": "3580046",
    "prefecture": "埼玉県",
    "prefecture_kana": "サイタマケン",
    "prefecture_code": "11",
    "city": "入間市",
    "city_kana": "イルマシ",
    "town": "南峯",
    "town_kana": "ミナミミネ",
    "street": null,
    "office_name": null,
    "office_name_kana": null
  },
  "0047": {
    "zip_code": "3580047",
    "prefecture": "埼玉県",
    "prefecture_kana": "サイタマケン",
    "prefecture_code": "11",
    "city": "入間市",
    "city_kana": "イルマシ",
    "town": "木蓮寺",
    "town_kana": "モクレンジ",
    "street": null,
    "office_name": null,
    "office_name_kana": null
  },
  "0048": {
    "zip_code": "3580048",
    "prefecture": "埼玉県",
    "prefecture_kana": "サイタマケン",
    "prefecture_code": "11",
    "city": "入間市",
    "city_kana": "イルマシ",
    "town": "金子中央",
    "town_kana": "カネコチュウオウ",
    "street": null,
    "office_name": null,
    "office_name_kana": null
  },
  "0051": {
    "zip_code": "3580051",
    "prefecture": "埼玉県",
    "prefecture_kana": "サイタマケン",
    "prefecture_code": "11",
    "city": "入間市",
    "city_kana": "イルマシ",
    "town": "牛沢町",
    "town_kana": "ウシザワチョウ",
    "street": null,
    "office_name": null,
    "office_name_kana": null
  },
  "0052": {
    "zip_code": "3580052",
    "prefecture": "埼玉県",
    "prefecture_kana": "サイタマケン",
    "prefecture_code": "11",
    "city": "入間市",
    "city_kana": "イルマシ",
    "town": "森坂",
    "town_kana": "モリサカ",
    "street": null,
    "office_name": null,
    "office_name_kana": null
  },
  "0053": {
    "zip_code": "3580053",
    "prefecture": "埼玉県",
    "prefecture_kana": "サイタマケン",
    "prefecture_code": "11",
    "city": "入間市",
    "city_kana": "イルマシ",
    "town": "仏子",
    "town_kana": "ブシ",
    "street": null,
    "office_name": null,
    "office_name_kana": null
  },
  "0054": {
    "zip_code": "3580054",
    "prefecture": "埼玉県",
    "prefecture_kana": "サイタマケン",
    "prefecture_code": "11",
    "city": "入間市",
    "city_kana": "イルマシ",
    "town": "野田",
    "town_kana": "ノダ",
    "street": null,
    "office_name": null,
    "office_name_kana": null
  },
  "0055": {
    "zip_code": "3580055",
    "prefecture": "埼玉県",
    "prefecture_kana": "サイタマケン",
    "prefecture_code": "11",
    "city": "入間市",
    "city_kana": "イルマシ",
    "town": "新光",
    "town_kana": "シンコウ",
    "street": null,
    "office_name": null,
    "office_name_kana": null
  },
  "8501": {
    "zip_code": "3588501",
    "prefecture": "埼玉県",
    "prefecture_kana": null,
    "prefecture_code": null,
    "city": "入間市",
    "city_kana": null,
    "town": "大字狭山ケ原",
    "town_kana": null,
    "street": "１６−２",
    "office_name": "株式会社　タムラ製作所",
    "office_name_kana": "カブシキガイシヤ タムラセイサクシヨ"
  },
  "8510": {
    "zip_code": "3588510",
    "prefecture": "埼玉県",
    "prefecture_kana": null,
    "prefecture_code": null,
    "city": "入間市",
    "city_kana": null,
    "town": "大字小谷田",
    "town_kana": null,
    "street": "８５８",
    "office_name": "ティアック　株式会社　ＥＭＣセンター",
    "office_name_kana": "テイアツク カブシキカイシヤ イ-エムシ-センタ-"
  },
  "8511": {
    "zip_code": "3588511",
    "prefecture": "埼玉県",
    "prefecture_kana": "サイタマケン",
    "prefecture_code": "11",
    "city": "入間市",
    "city_kana": "イルマシ",
    "town": "豊岡",
    "town_kana": "トヨオカ",
    "street": "１丁目１６−１",
    "office_name": "入間市役所",
    "office_name_kana": "イルマシヤクシヨ"
  },
  "8515": {
    "zip_code": "3588515",
    "prefecture": "埼玉県",
    "prefecture_kana": "サイタマケン",
    "prefecture_code": "11",
    "city": "入間市",
    "city_kana": "イルマシ",
    "town": "宮寺",
    "town_kana": "ミヤデラ",
    "street": "３１６９−１",
    "office_name": "入間アウトレットパークＯＰＣ",
    "office_name_kana": "イルマアウトレツトパ-クオ-ピ-シ-"
  },
  "8521": {
    "zip_code": "3588521",
    "prefecture": "埼玉県",
    "prefecture_kana": null,
    "prefecture_code": null,
    "city": "入間市",
    "city_kana": null,
    "town": "大字中神",
    "town_kana": null,
    "street": "７２８",
    "office_name": "武蔵野音楽学園",
    "office_name_kana": "ムサシノオンガクガクエン"
  },
  "8555": {
    "zip_code": "3588555",
    "prefecture": "埼玉県",
    "prefecture_kana": null,
    "prefecture_code": null,
    "city": "入間市",
    "city_kana": null,
    "town": "大字上藤沢",
    "town_kana": null,
    "street": "４８０",
    "office_name": "株式会社　安川電機",
    "office_name_kana": "カブシキガイシヤ ヤスカワデンキ"
  },
  "8558": {
    "zip_code": "3588558",
    "prefecture": "埼玉県",
    "prefecture_kana": null,
    "prefecture_code": null,
    "city": "入間市",
    "city_kana": null,
    "town": "大字二本木",
    "town_kana": null,
    "street": "１１２−１",
    "office_name": "東野高等学校",
    "office_name_kana": "ヒガシノコウトウガツコウ"
  },
  "8585": {
    "zip_code": "3588585",
    "prefecture": "埼玉県",
    "prefecture_kana": null,
    "prefecture_code": null,
    "city": "入間市",
    "city_kana": null,
    "town": "大字狭山ケ原",
    "town_kana": null,
    "street": "１０８−９",
    "office_name": "プラス工業　株式会社",
    "office_name_kana": "プラスコウギヨウ カブシキガイシヤ"
  },
  "8588": {
    "zip_code": "3588588",
    "prefecture": "埼玉県",
    "prefecture_kana": null,
    "prefecture_code": null,
    "city": "入間市",
    "city_kana": null,
    "town": "大字狭山台",
    "town_kana": null,
    "street": "２３４",
    "office_name": "大妻女子大学　狭山台校",
    "office_name_kana": "オオツマジヨシダイガク サヤマダイコウ"
  }
}