{
  "0000": {
    "zip_code": "3670000",
    "prefecture": "埼玉県",
    "prefecture_kana": "サイタマケン",
    "prefecture_code": 11,
    "city": "本庄市",
    "city_kana": "ホンジョウシ",
    "town": "",
    "town_kana": "",
    "street": null,
    "office_name": null,
    "office_name_kana": null
  },
  "0001": {
    "zip_code": "3670001",
    "prefecture": "埼玉県",
    "prefecture_kana": "サイタマケン",
    "prefecture_code": 11,
    "city": "本庄市",
    "city_kana": "ホンジョウシ",
    "town": "下仁手",
    "town_kana": "シモニツテ",
    "street": null,
    "office_name": null,
    "office_name_kana": null
  },
  "0002": {
    "zip_code": "3670002",
    "prefecture": "埼玉県",
    "prefecture_kana": "サイタマケン",
    "prefecture_code": 11,
    "city": "本庄市",
    "city_kana": "ホンジョウシ",
    "town": "仁手",
    "town_kana": "ニッテ",
    "street": null,
    "office_name": null,
    "office_name_kana": null
  },
  "0003": {
    "zip_code": "3670003",
    "prefecture": "埼玉県",
    "prefecture_kana": "サイタマケン",
    "prefecture_code": 11,
    "city": "本庄市",
    "city_kana": "ホンジョウシ",
    "town": "台町",
    "town_kana": "ダイマチ",
    "street": null,
    "office_name": null,
    "office_name_kana": null
  },
  "0004": {
    "zip_code": "3670004",
    "prefecture": "埼玉県",
    "prefecture_kana": "サイタマケン",
    "prefecture_code": 11,
    "city": "本庄市",
    "city_kana": "ホンジョウシ",
    "town": "本町",
    "town_kana": "モトマチ",
    "street": null,
    "office_name": null,
    "office_name_kana": null
  },
  "0005": {
    "zip_code": "3670005",
    "prefecture": "埼玉県",
    "prefecture_kana": "サイタマケン",
    "prefecture_code": 11,
    "city": "本庄市",
    "city_kana": "ホンジョウシ",
    "town": "久々宇",
    "town_kana": "クグウ",
    "street": null,
    "office_name": null,
    "office_name_kana": null
  },
  "0006": {
    "zip_code": "3670006",
    "prefecture": "埼玉県",
    "prefecture_kana": "サイタマケン",
    "prefecture_code": 11,
    "city": "本庄市",
    "city_kana": "ホンジョウシ",
    "town": "田中",
    "town_kana": "タナカ",
    "street": null,
    "office_name": null,
    "office_name_kana": null
  },
  "0007": {
    "zip_code": "3670007",
    "prefecture": "埼玉県",
    "prefecture_kana": "サイタマケン",
    "prefecture_code": 11,
    "city": "本庄市",
    "city_kana": "ホンジョウシ",
    "town": "上仁手",
    "town_kana": "カミニッテ",
    "street": null,
    "office_name": null,
    "office_name_kana": null
  },
  "0011": {
    "zip_code": "3670011",
    "prefecture": "埼玉県",
    "prefecture_kana": "サイタマケン",
    "prefecture_code": 11,
    "city": "本庄市",
    "city_kana": "ホンジョウシ",
    "town": "小和瀬",
    "town_kana": "コワゼ",
    "street": null,
    "office_name": null,
    "office_name_kana": null
  },
  "0012": {
    "zip_code": "3670012",
    "prefecture": "埼玉県",
    "prefecture_kana": "サイタマケン",
    "prefecture_code": 11,
    "city": "本庄市",
    "city_kana": "ホンジョウシ",
    "town": "宮戸",
    "town_kana": "ミヤド",
    "street": null,
    "office_name": null,
    "office_name_kana": null
  },
  "0013": {
    "zip_code": "3670013",
    "prefecture": "埼玉県",
    "prefecture_kana": "サイタマケン",
    "prefecture_code": 11,
    "city": "本庄市",
    "city_kana": "ホンジョウシ",
    "town": "滝瀬",
    "town_kana": "タキセ",
    "street": null,
    "office_name": null,
    "office_name_kana": null
  },
  "0014": {
    "zip_code": "3670014",
    "prefecture": "埼玉県",
    "prefecture_kana": "サイタマケン",
    "prefecture_code": 11,
    "city": "本庄市",
    "city_kana": "ホンジョウシ",
    "town": "堀田",
    "town_kana": "ホッタ",
    "street": null,
    "office_name": null,
    "office_name_kana": null
  },
  "0015": {
    "zip_code": "3670015",
    "prefecture": "埼玉県",
    "prefecture_kana": "サイタマケン",
    "prefecture_code": 11,
    "city": "本庄市",
    "city_kana": "ホンジョウシ",
    "town": "牧西",
    "town_kana": "モクサイ",
    "street": null,
    "office_name": null,
    "office_name_kana": null
  },
  "0016": {
    "zip_code": "3670016",
    "prefecture": "埼玉県",
    "prefecture_kana": "サイタマケン",
    "prefecture_code": 11,
    "city": "本庄市",
    "city_kana": "ホンジョウシ",
    "town": "鵜森",
    "town_kana": "ウノモリ",
    "street": null,
    "office_name": null,
    "office_name_kana": null
  },
  "0017": {
    "zip_code": "3670017",
    "prefecture": "埼玉県",
    "prefecture_kana": "サイタマケン",
    "prefecture_code": 11,
    "city": "本庄市",
    "city_kana": "ホンジョウシ",
    "town": "傍示堂",
    "town_kana": "ホウジドウ",
    "street": null,
    "office_name": null,
    "office_name_kana": null
  },
  "0018": {
    "zip_code": "3670018",
    "prefecture": "埼玉県",
    "prefecture_kana": "サイタマケン",
    "prefecture_code": 11,
    "city": "本庄市",
    "city_kana": "ホンジョウシ",
    "town": "諏訪町",
    "town_kana": "スワチョウ",
    "street": null,
    "office_name": null,
    "office_name_kana": null
  },
  "0021": {
    "zip_code": "3670021",
    "prefecture": "埼玉県",
    "prefecture_kana": "サイタマケン",
    "prefecture_code": 11,
    "city": "本庄市",
    "city_kana": "ホンジョウシ",
    "town": "東台",
    "town_kana": "ヒガシダイ",
    "street": null,
    "office_name": null,
    "office_name_kana": null
  },
  "0022": {
    "zip_code": "3670022",
    "prefecture": "埼玉県",
    "prefecture_kana": "サイタマケン",
    "prefecture_code": 11,
    "city": "本庄市",
    "city_kana": "ホンジョウシ",
    "town": "日の出",
    "town_kana": "ヒノデ",
    "street": null,
    "office_name": null,
    "office_name_kana": null
  },
  "0023": {
    "zip_code": "3670023",
    "prefecture": "埼玉県",
    "prefecture_kana": "サイタマケン",
    "prefecture_code": 11,
    "city": "本庄市",
    "city_kana": "ホンジョウシ",
    "town": "寿",
    "town_kana": "コトブキ",
    "street": null,
    "office_name": null,
    "office_name_kana": null
  },
  "0024": {
    "zip_code": "3670024",
    "prefecture": "埼玉県",
    "prefecture_kana": "サイタマケン",
    "prefecture_code": 11,
    "city": "本庄市",
    "city_kana": "ホンジョウシ",
    "town": "東五十子",
    "town_kana": "ヒガシイカツコ",
    "street": null,
    "office_name": null,
    "office_name_kana": null
  },
  "0025": {
    "zip_code": "3670025",
    "prefecture": "埼玉県",
    "prefecture_kana": "サイタマケン",
    "prefecture_code": 11,
    "city": "本庄市",
    "city_kana": "ホンジョウシ",
    "town": "西五十子",
    "town_kana": "ニシイカツコ",
    "street": null,
    "office_name": null,
    "office_name_kana": null
  },
  "0026": {
    "zip_code": "3670026",
    "prefecture": "埼玉県",
    "prefecture_kana": "サイタマケン",
    "prefecture_code": 11,
    "city": "本庄市",
    "city_kana": "ホンジョウシ",
    "town": "朝日町",
    "town_kana": "アサヒチョウ",
    "street": null,
    "office_name": null,
    "office_name_kana": null
  },
  "0027": {
    "zip_code": "3670027",
    "prefecture": "埼玉県",
    "prefecture_kana": "サイタマケン",
    "prefecture_code": 11,
    "city": "本庄市",
    "city_kana": "ホンジョウシ",
    "town": "五十子",
    "town_kana": "イカッコ",
    "street": null,
    "office_name": null,
    "office_name_kana": null
  },
  "0030": {
    "zip_code": "3670030",
    "prefecture": "埼玉県",
    "prefecture_kana": "サイタマケン",
    "prefecture_code": 11,
    "city": "本庄市",
    "city_kana": "ホンジョウシ",
    "town": "早稲田の杜",
    "town_kana": "ワセダノモリ",
    "street": null,
    "office_name": null,
    "office_name_kana": null
  },
  "0031": {
    "zip_code": "3670031",
    "prefecture": "埼玉県",
    "prefecture_kana": "サイタマケン",
    "prefecture_code": 11,
    "city": "本庄市",
    "city_kana": "ホンジョウシ",
    "town": "北堀",
    "town_kana": "キタボリ",
    "street": null,
    "office_name": null,
    "office_name_kana": null
  },
  "0032": {
    "zip_code": "3670032",
    "prefecture": "埼玉県",
    "prefecture_kana": "サイタマケン",
    "prefecture_code": 11,
    "city": "本庄市",
    "city_kana": "ホンジョウシ",
    "town": "栗崎",
    "town_kana": "クリザキ",
    "street": null,
    "office_name": null,
    "office_name_kana": null
  },
  "0033": {
    "zip_code": "3670033",
    "prefecture": "埼玉県",
    "prefecture_kana": "サイタマケン",
    "prefecture_code": 11,
    "city": "本庄市",
    "city_kana": "ホンジョウシ",
    "town": "東富田",
    "town_kana": "ヒガシトミダ",
    "street": null,
    "office_name": null,
    "office_name_kana": null
  },
  "0034": {
    "zip_code": "3670034",
    "prefecture": "埼玉県",
    "prefecture_kana": "サイタマケン",
    "prefecture_code": 11,
    "city": "本庄市",
    "city_kana": "ホンジョウシ",
    "town": "四方田",
    "town_kana": "シホウデン",
    "street": null,
    "office_name": null,
    "office_name_kana": null
  },
  "0035": {
    "zip_code": "3670035",
    "prefecture": "埼玉県",
    "prefecture_kana": "サイタマケン",
    "prefecture_code": 11,
    "city": "本庄市",
    "city_kana": "ホンジョウシ",
    "town": "西富田",
    "town_kana": "ニシトミダ",
    "street": null,
    "office_name": null,
    "office_name_kana": null
  },
  "0036": {
    "zip_code": "3670036",
    "prefecture": "埼玉県",
    "prefecture_kana": "サイタマケン",
    "prefecture_code": 11,
    "city": "本庄市",
    "city_kana": "ホンジョウシ",
    "town": "今井",
    "town_kana": "イマイ",
    "street": null,
    "office_name": null,
    "office_name_kana": null
  },
  "0037": {
    "zip_code": "3670037",
    "prefecture": "埼玉県",
    "prefecture_kana": "サイタマケン",
    "prefecture_code": 11,
    "city": "本庄市",
    "city_kana": "ホンジョウシ",
    "town": "共栄",
    "town_kana": "キョウエイ",
    "street": null,
    "office_name": null,
    "office_name_kana": null
  },
  "0038": {
    "zip_code": "3670038",
    "prefecture": "埼玉県",
    "prefecture_kana": "サイタマケン",
    "prefecture_code": 11,
    "city": "本庄市",
    "city_kana": "ホンジョウシ",
    "town": "いまい台",
    "town_kana": "イマイダイ",
    "street": null,
    "office_name": null,
    "office_name_kana": null
  },
  "0039": {
    "zip_code": "3670039",
    "prefecture": "埼玉県",
    "prefecture_kana": "サイタマケン",
    "prefecture_code": 11,
    "city": "本庄市",
    "city_kana": "ホンジョウシ",
    "town": "四季の里",
    "town_kana": "シキノサト",
    "street": null,
    "office_name": null,
    "office_name_kana": null
  },
  "0041": {
    "zip_code": "3670041",
    "prefecture": "埼玉県",
    "prefecture_kana": "サイタマケン",
    "prefecture_code": 11,
    "city": "本庄市",
    "city_kana": "ホンジョウシ",
    "town": "駅南",
    "town_kana": "エキナン",
    "street": null,
    "office_name": null,
    "office_name_kana": null
  },
  "0042": {
    "zip_code": "3670042",
    "prefecture": "埼玉県",
    "prefecture_kana": "サイタマケン",
    "prefecture_code": 11,
    "city": "本庄市",
    "city_kana": "ホンジョウシ",
    "town": "けや木",
    "town_kana": "ケヤキ",
    "street": null,
    "office_name": null,
    "office_name_kana": null
  },
  "0043": {
    "zip_code": "3670043",
    "prefecture": "埼玉県",
    "prefecture_kana": "サイタマケン",
    "prefecture_code": 11,
    "city": "本庄市",
    "city_kana": "ホンジョウシ",
    "town": "緑",
    "town_kana": "ミドリ",
    "street": null,
    "office_name": null,
    "office_name_kana": null
  },
  "0044": {
    "zip_code": "3670044",
    "prefecture": "埼玉県",
    "prefecture_kana": "サイタマケン",
    "prefecture_code": 11,
    "city": "本庄市",
    "city_kana": "ホンジョウシ",
    "town": "見福",
    "town_kana": "ケンプク",
    "street": null,
    "office_name": null,
    "office_name_kana": null
  },
  "0045": {
    "zip_code": "3670045",
    "prefecture": "埼玉県",
    "prefecture_kana": "サイタマケン",
    "prefecture_code": 11,
    "city": "本庄市",
    "city_kana": "ホンジョウシ",
    "town": "柏",
    "town_kana": "カシワ",
    "street": null,
    "office_name": null,
    "office_name_kana": null
  },
  "0046": {
    "zip_code": "3670046",
    "prefecture": "埼玉県",
    "prefecture_kana": "サイタマケン",
    "prefecture_code": 11,
    "city": "本庄市",
    "city_kana": "ホンジョウシ",
    "town": "栄",
    "town_kana": "サカエ",
    "street": null,
    "office_name": null,
    "office_name_kana": null
  },
  "0047": {
    "zip_code": "3670047",
    "prefecture": "埼玉県",
    "prefecture_kana": "サイタマケン",
    "prefecture_code": 11,
    "city": "本庄市",
    "city_kana": "ホンジョウシ",
    "town": "前原",
    "town_kana": "マエハラ",
    "street": null,
    "office_name": null,
    "office_name_kana": null
  },
  "0048": {
    "zip_code": "3670048",
    "prefecture": "埼玉県",
    "prefecture_kana": "サイタマケン",
    "prefecture_code": 11,
    "city": "本庄市",
    "city_kana": "ホンジョウシ",
    "town": "南",
    "town_kana": "ミナミ",
    "street": null,
    "office_name": null,
    "office_name_kana": null
  },
  "0051": {
    "zip_code": "3670051",
    "prefecture": "埼玉県",
    "prefecture_kana": "サイタマケン",
    "prefecture_code": 11,
    "city": "本庄市",
    "city_kana": "ホンジョウシ",
    "town": "本庄",
    "town_kana": "ホンジョウ",
    "street": null,
    "office_name": null,
    "office_name_kana": null
  },
  "0052": {
    "zip_code": "3670052",
    "prefecture": "埼玉県",
    "prefecture_kana": "サイタマケン",
    "prefecture_code": 11,
    "city": "本庄市",
    "city_kana": "ホンジョウシ",
    "town": "銀座",
    "town_kana": "ギンザ",
    "street": null,
    "office_name": null,
    "office_name_kana": null
  },
  "0053": {
    "zip_code": "3670053",
    "prefecture": "埼玉県",
    "prefecture_kana": "サイタマケン",
    "prefecture_code": 11,
    "city": "本庄市",
    "city_kana": "ホンジョウシ",
    "town": "中央",
    "town_kana": "チュウオウ",
    "street": null,
    "office_name": null,
    "office_name_kana": null
  },
  "0054": {
    "zip_code": "3670054",
    "prefecture": "埼玉県",
    "prefecture_kana": "サイタマケン",
    "prefecture_code": 11,
    "city": "本庄市",
    "city_kana": "ホンジョウシ",
    "town": "千代田",
    "town_kana": "チヨダ",
    "street": null,
    "office_name": null,
    "office_name_kana": null
  },
  "0055": {
    "zip_code": "3670055",
    "prefecture": "埼玉県",
    "prefecture_kana": "サイタマケン",
    "prefecture_code": 11,
    "city": "本庄市",
    "city_kana": "ホンジョウシ",
    "town": "若泉",
    "town_kana": "ワカイズミ",
    "street": null,
    "office_name": null,
    "office_name_kana": null
  },
  "0056": {
    "zip_code": "3670056",
    "prefecture": "埼玉県",
    "prefecture_kana": "サイタマケン",
    "prefecture_code": 11,
    "city": "本庄市",
    "city_kana": "ホンジョウシ",
    "town": "照若町",
    "town_kana": "テルワカチョウ",
    "street": null,
    "office_name": null,
    "office_name_kana": null
  },
  "0061": {
    "zip_code": "3670061",
    "prefecture": "埼玉県",
    "prefecture_kana": "サイタマケン",
    "prefecture_code": 11,
    "city": "本庄市",
    "city_kana": "ホンジョウシ",
    "town": "小島",
    "town_kana": "オジマ",
    "street": null,
    "office_name": null,
    "office_name_kana": null
  },
  "0062": {
    "zip_code": "3670062",
    "prefecture": "埼玉県",
    "prefecture_kana": "サイタマケン",
    "prefecture_code": 11,
    "city": "本庄市",
    "city_kana": "ホンジョウシ",
    "town": "小島南",
    "town_kana": "オジマミナミ",
    "street": null,
    "office_name": null,
    "office_name_kana": null
  },
  "0063": {
    "zip_code": "3670063",
    "prefecture": "埼玉県",
    "prefecture_kana": "サイタマケン",
    "prefecture_code": 11,
    "city": "本庄市",
    "city_kana": "ホンジョウシ",
    "town": "下野堂",
    "town_kana": "シモノドウ",
    "street": null,
    "office_name": null,
    "office_name_kana": null
  },
  "0064": {
    "zip_code": "3670064",
    "prefecture": "埼玉県",
    "prefecture_kana": "サイタマケン",
    "prefecture_code": 11,
    "city": "本庄市",
    "city_kana": "ホンジョウシ",
    "town": "万年寺",
    "town_kana": "マンネンジ",
    "street": null,
    "office_name": null,
    "office_name_kana": null
  },
  "0071": {
    "zip_code": "3670071",
    "prefecture": "埼玉県",
    "prefecture_kana": "サイタマケン",
    "prefecture_code": 11,
    "city": "本庄市",
    "city_kana": "ホンジョウシ",
    "town": "山王堂",
    "town_kana": "サンノウドウ",
    "street": null,
    "office_name": null,
    "office_name_kana": null
  },
  "0072": {
    "zip_code": "3670072",
    "prefecture": "埼玉県",
    "prefecture_kana": "サイタマケン",
    "prefecture_code": 11,
    "city": "本庄市",
    "city_kana": "ホンジョウシ",
    "town": "沼和田",
    "town_kana": "ヌマワダ",
    "street": null,
    "office_name": null,
    "office_name_kana": null
  },
  "0073": {
    "zip_code": "3670073",
    "prefecture": "埼玉県",
    "prefecture_kana": "サイタマケン",
    "prefecture_code": 11,
    "city": "本庄市",
    "city_kana": "ホンジョウシ",
    "town": "都島",
    "town_kana": "ミヤコジマ",
    "street": null,
    "office_name": null,
    "office_name_kana": null
  },
  "0074": {
    "zip_code": "3670074",
    "prefecture": "埼玉県",
    "prefecture_kana": "サイタマケン",
    "prefecture_code": 11,
    "city": "本庄市",
    "city_kana": "ホンジョウシ",
    "town": "杉山",
    "town_kana": "スギヤマ",
    "street": null,
    "office_name": null,
    "office_name_kana": null
  },
  "0075": {
    "zip_code": "3670075",
    "prefecture": "埼玉県",
    "prefecture_kana": "サイタマケン",
    "prefecture_code": 11,
    "city": "本庄市",
    "city_kana": "ホンジョウシ",
    "town": "新井",
    "town_kana": "アライ",
    "street": null,
    "office_name": null,
    "office_name_kana": null
  },
  "0100": {
    "zip_code": "3670100",
    "prefecture": "埼玉県",
    "prefecture_kana": "サイタマケン",
    "prefecture_code": 11,
    "city": "児玉郡美里町",
    "city_kana": "コダマグンミサトマチ",
    "town": "",
    "town_kana": "",
    "street": null,
    "office_name": null,
    "office_name_kana": null
  },
  "0101": {
    "zip_code": "3670101",
    "prefecture": "埼玉県",
    "prefecture_kana": "サイタマケン",
    "prefecture_code": 11,
    "city": "児玉郡美里町",
    "city_kana": "コダマグンミサトマチ",
    "town": "小茂田",
    "town_kana": "コモダ",
    "street": null,
    "office_name": null,
    "office_name_kana": null
  },
  "0102": {
    "zip_code": "3670102",
    "prefecture": "埼玉県",
    "prefecture_kana": "サイタマケン",
    "prefecture_code": 11,
    "city": "児玉郡美里町",
    "city_kana": "コダマグンミサトマチ",
    "town": "関",
    "town_kana": "セキ",
    "street": null,
    "office_name": null,
    "office_name_kana": null
  },
  "0103": {
    "zip_code": "3670103",
    "prefecture": "埼玉県",
    "prefecture_kana": "サイタマケン",
    "prefecture_code": 11,
    "city": "児玉郡美里町",
    "city_kana": "コダマグンミサトマチ",
    "town": "阿那志",
    "town_kana": "アナシ",
    "street": null,
    "office_name": null,
    "office_name_kana": null
  },
  "0104": {
    "zip_code": "3670104",
    "prefecture": "埼玉県",
    "prefecture_kana": "サイタマケン",
    "prefecture_code": 11,
    "city": "児玉郡美里町",
    "city_kana": "コダマグンミサトマチ",
    "town": "根木",
    "town_kana": "ネギ",
    "street": null,
    "office_name": null,
    "office_name_kana": null
  },
  "0105": {
    "zip_code": "3670105",
    "prefecture": "埼玉県",
    "prefecture_kana": "サイタマケン",
    "prefecture_code": 11,
    "city": "児玉郡美里町",
    "city_kana": "コダマグンミサトマチ",
    "town": "沼上",
    "town_kana": "ヌマガミ",
    "street": null,
    "office_name": null,
    "office_name_kana": null
  },
  "0106": {
    "zip_code": "3670106",
    "prefecture": "埼玉県",
    "prefecture_kana": "サイタマケン",
    "prefecture_code": 11,
    "city": "児玉郡美里町",
    "city_kana": "コダマグンミサトマチ",
    "town": "南十条",
    "town_kana": "ミナミジュウジョウ",
    "street": null,
    "office_name": null,
    "office_name_kana": null
  },
  "0107": {
    "zip_code": "3670107",
    "prefecture": "埼玉県",
    "prefecture_kana": "サイタマケン",
    "prefecture_code": 11,
    "city": "児玉郡美里町",
    "city_kana": "コダマグンミサトマチ",
    "town": "北十条",
    "town_kana": "キタジュウジョウ",
    "street": null,
    "office_name": null,
    "office_name_kana": null
  },
  "0108": {
    "zip_code": "3670108",
    "prefecture": "埼玉県",
    "prefecture_kana": "サイタマケン",
    "prefecture_code": 11,
    "city": "児玉郡美里町",
    "city_kana": "コダマグンミサトマチ",
    "town": "下児玉",
    "town_kana": "シモコダマ",
    "street": null,
    "office_name": null,
    "office_name_kana": null
  },
  "0111": {
    "zip_code": "3670111",
    "prefecture": "埼玉県",
    "prefecture_kana": "サイタマケン",
    "prefecture_code": 11,
    "city": "児玉郡美里町",
    "city_kana": "コダマグンミサトマチ",
    "town": "古郡",
    "town_kana": "フルコオリ",
    "street": null,
    "office_name": null,
    "office_name_kana": null
  },
  "0112": {
    "zip_code": "3670112",
    "prefecture": "埼玉県",
    "prefecture_kana": "サイタマケン",
    "prefecture_code": 11,
    "city": "児玉郡美里町",
    "city_kana": "コダマグンミサトマチ",
    "town": "木部",
    "town_kana": "キベ",
    "street": null,
    "office_name": null,
    "office_name_kana": null
  },
  "0113": {
    "zip_code": "3670113",
    "prefecture": "埼玉県",
    "prefecture_kana": "サイタマケン",
    "prefecture_code": 11,
    "city": "児玉郡美里町",
    "city_kana": "コダマグンミサトマチ",
    "town": "甘粕",
    "town_kana": "アマガス",
    "street": null,
    "office_name": null,
    "office_name_kana": null
  },
  "0114": {
    "zip_code": "3670114",
    "prefecture": "埼玉県",
    "prefecture_kana": "サイタマケン",
    "prefecture_code": 11,
    "city": "児玉郡美里町",
    "city_kana": "コダマグンミサトマチ",
    "town": "中里",
    "town_kana": "ナカザト",
    "street": null,
    "office_name": null,
    "office_name_kana": null
  },
  "0115": {
    "zip_code": "3670115",
    "prefecture": "埼玉県",
    "prefecture_kana": "サイタマケン",
    "prefecture_code": 11,
    "city": "児玉郡美里町",
    "city_kana": "コダマグンミサトマチ",
    "town": "猪俣",
    "town_kana": "イノマタ",
    "street": null,
    "office_name": null,
    "office_name_kana": null
  },
  "0116": {
    "zip_code": "3670116",
    "prefecture": "埼玉県",
    "prefecture_kana": "サイタマケン",
    "prefecture_code": 11,
    "city": "児玉郡美里町",
    "city_kana": "コダマグンミサトマチ",
    "town": "円良田",
    "town_kana": "ツブラタ",
    "street": null,
    "office_name": null,
    "office_name_kana": null
  },
  "0117": {
    "zip_code": "3670117",
    "prefecture": "埼玉県",
    "prefecture_kana": "サイタマケン",
    "prefecture_code": 11,
    "city": "児玉郡美里町",
    "city_kana": "コダマグンミサトマチ",
    "town": "白石",
    "town_kana": "シロイシ",
    "street": null,
    "office_name": null,
    "office_name_kana": null
  },
  "0118": {
    "zip_code": "3670118",
    "prefecture": "埼玉県",
    "prefecture_kana": "サイタマケン",
    "prefecture_code": 11,
    "city": "児玉郡美里町",
    "city_kana": "コダマグンミサトマチ",
    "town": "広木",
    "town_kana": "ヒロキ",
    "street": null,
    "office_name": null,
    "office_name_kana": null
  },
  "0119": {
    "zip_code": "3670119",
    "prefecture": "埼玉県",
    "prefecture_kana": "サイタマケン",
    "prefecture_code": 11,
    "city": "児玉郡美里町",
    "city_kana": "コダマグンミサトマチ",
    "town": "駒衣",
    "town_kana": "コマギヌ",
    "street": null,
    "office_name": null,
    "office_name_kana": null
  },
  "0192": {
    "zip_code": "3670192",
    "prefecture": "埼玉県",
    "prefecture_kana": null,
    "prefecture_code": null,
    "city": "児玉郡美里町",
    "city_kana": null,
    "town": "大字甘粕",
    "town_kana": null,
    "street": "１６１１",
    "office_name": "キヤノン電子　株式会社　美里工場",
    "office_name_kana": "キヤノンデンシ カブシキガイシヤ ミサトコウジヨウ"
  },
  "0194": {
    "zip_code": "3670194",
    "prefecture": "埼玉県",
    "prefecture_kana": null,
    "prefecture_code": null,
    "city": "児玉郡美里町",
    "city_kana": null,
    "town": "大字木部",
    "town_kana": null,
    "street": "３２３−１",
    "office_name": "美里町役場",
    "office_name_kana": "ミサトマチヤクバ"
  },
  "0198": [
    {
      "zip_code": "3670198",
      "prefecture": "埼玉県",
      "prefecture_kana": null,
      "prefecture_code": null,
      "city": "児玉郡美里町",
      "city_kana": null,
      "town": "大字広木",
      "town_kana": null,
      "street": "９５０",
      "office_name": "エーザイ　株式会社　美里工場",
      "office_name_kana": "エ-ザイ カブシキガイシヤ ミサトコウジヨウ"
    },
    {
      "zip_code": "3670198",
      "prefecture": "埼玉県",
      "prefecture_kana": null,
      "prefecture_code": null,
      "city": "児玉郡美里町",
      "city_kana": null,
      "town": "大字広木",
      "town_kana": null,
      "street": "９５０",
      "office_name": "武州製薬　株式会社　美里工場",
      "office_name_kana": "ブシユウセイヤク カブシキガイシヤ ミサトコウジヨウ"
    }
  ],
  "0200": {
    "zip_code": "3670200",
    "prefecture": "埼玉県",
    "prefecture_kana": "サイタマケン",
    "prefecture_code": 11,
    "city": "児玉郡神川町",
    "city_kana": "コダマグンカミカワマチ",
    "town": "",
    "town_kana": "",
    "street": null,
    "office_name": null,
    "office_name_kana": null
  },
  "0201": {
    "zip_code": "3670201",
    "prefecture": "埼玉県",
    "prefecture_kana": "サイタマケン",
    "prefecture_code": 11,
    "city": "本庄市",
    "city_kana": "ホンジョウシ",
    "town": "児玉町高関",
    "town_kana": "コダマチョウタカゼキ",
    "street": null,
    "office_name": null,
    "office_name_kana": null
  },
  "0202": {
    "zip_code": "3670202",
    "prefecture": "埼玉県",
    "prefecture_kana": "サイタマケン",
    "prefecture_code": 11,
    "city": "本庄市",
    "city_kana": "ホンジョウシ",
    "town": "児玉町下浅見",
    "town_kana": "コダマチョウシモアザミ",
    "street": null,
    "office_name": null,
    "office_name_kana": null
  },
  "0203": {
    "zip_code": "3670203",
    "prefecture": "埼玉県",
    "prefecture_kana": "サイタマケン",
    "prefecture_code": 11,
    "city": "本庄市",
    "city_kana": "ホンジョウシ",
    "town": "児玉町入浅見",
    "town_kana": "コダマチョウイリアザミ",
    "street": null,
    "office_name": null,
    "office_name_kana": null
  },
  "0204": {
    "zip_code": "3670204",
    "prefecture": "埼玉県",
    "prefecture_kana": "サイタマケン",
    "prefecture_code": 11,
    "city": "本庄市",
    "city_kana": "ホンジョウシ",
    "town": "児玉町蛭川",
    "town_kana": "コダマチョウヒルガワ",
    "street": null,
    "office_name": null,
    "office_name_kana": null
  },
  "0205": {
    "zip_code": "3670205",
    "prefecture": "埼玉県",
    "prefecture_kana": "サイタマケン",
    "prefecture_code": 11,
    "city": "本庄市",
    "city_kana": "ホンジョウシ",
    "town": "児玉町上真下",
    "town_kana": "コダマチョウカミマシモ",
    "street": null,
    "office_name": null,
    "office_name_kana": null
  },
  "0206": {
    "zip_code": "3670206",
    "prefecture": "埼玉県",
    "prefecture_kana": "サイタマケン",
    "prefecture_code": 11,
    "city": "本庄市",
    "city_kana": "ホンジョウシ",
    "town": "児玉町共栄",
    "town_kana": "コダマチョウキョウエイ",
    "street": null,
    "office_name": null,
    "office_name_kana": null
  },
  "0207": {
    "zip_code": "3670207",
    "prefecture": "埼玉県",
    "prefecture_kana": "サイタマケン",
    "prefecture_code": 11,
    "city": "本庄市",
    "city_kana": "ホンジョウシ",
    "town": "児玉町下真下",
    "town_kana": "コダマチョウシモマシモ",
    "street": null,
    "office_name": null,
    "office_name_kana": null
  },
  "0211": {
    "zip_code": "3670211",
    "prefecture": "埼玉県",
    "prefecture_kana": "サイタマケン",
    "prefecture_code": 11,
    "city": "本庄市",
    "city_kana": "ホンジョウシ",
    "town": "児玉町吉田林",
    "town_kana": "コダマチョウキタバヤシ",
    "street": null,
    "office_name": null,
    "office_name_kana": null
  },
  "0212": {
    "zip_code": "3670212",
    "prefecture": "埼玉県",
    "prefecture_kana": "サイタマケン",
    "prefecture_code": 11,
    "city": "本庄市",
    "city_kana": "ホンジョウシ",
    "town": "児玉町児玉",
    "town_kana": "コダマチョウコダマ",
    "street": null,
    "office_name": null,
    "office_name_kana": null
  },
  "0213": {
    "zip_code": "3670213",
    "prefecture": "埼玉県",
    "prefecture_kana": "サイタマケン",
    "prefecture_code": 11,
    "city": "本庄市",
    "city_kana": "ホンジョウシ",
    "town": "児玉町秋山",
    "town_kana": "コダマチョウアキヤマ",
    "street": null,
    "office_name": null,
    "office_name_kana": null
  },
  "0214": {
    "zip_code": "3670214",
    "prefecture": "埼玉県",
    "prefecture_kana": "サイタマケン",
    "prefecture_code": 11,
    "city": "本庄市",
    "city_kana": "ホンジョウシ",
    "town": "児玉町小平",
    "town_kana": "コダマチョウコダイラ",
    "street": null,
    "office_name": null,
    "office_name_kana": null
  },
  "0215": {
    "zip_code": "3670215",
    "prefecture": "埼玉県",
    "prefecture_kana": "サイタマケン",
    "prefecture_code": 11,
    "city": "本庄市",
    "city_kana": "ホンジョウシ",
    "town": "児玉町長沖",
    "town_kana": "コダマチョウナガオキ",
    "street": null,
    "office_name": null,
    "office_name_kana": null
  },
  "0216": {
    "zip_code": "3670216",
    "prefecture": "埼玉県",
    "prefecture_kana": "サイタマケン",
    "prefecture_code": 11,
    "city": "本庄市",
    "city_kana": "ホンジョウシ",
    "town": "児玉町金屋",
    "town_kana": "コダマチョウカナヤ",
    "street": null,
    "office_name": null,
    "office_name_kana": null
  },
  "0217": {
    "zip_code": "3670217",
    "prefecture": "埼玉県",
    "prefecture_kana": "サイタマケン",
    "prefecture_code": 11,
    "city": "本庄市",
    "city_kana": "ホンジョウシ",
    "town": "児玉町八幡山",
    "town_kana": "コダマチョウハチマンヤマ",
    "street": null,
    "office_name": null,
    "office_name_kana": null
  },
  "0218": {
    "zip_code": "3670218",
    "prefecture": "埼玉県",
    "prefecture_kana": "サイタマケン",
    "prefecture_code": 11,
    "city": "本庄市",
    "city_kana": "ホンジョウシ",
    "town": "児玉町児玉南",
    "town_kana": "コダマチョウコダマミナミ",
    "street": null,
    "office_name": null,
    "office_name_kana": null
  },
  "0221": {
    "zip_code": "3670221",
    "prefecture": "埼玉県",
    "prefecture_kana": "サイタマケン",
    "prefecture_code": 11,
    "city": "本庄市",
    "city_kana": "ホンジョウシ",
    "town": "児玉町保木野",
    "town_kana": "コダマチョウホキノ",
    "street": null,
    "office_name": null,
    "office_name_kana": null
  },
  "0222": {
    "zip_code": "3670222",
    "prefecture": "埼玉県",
    "prefecture_kana": "サイタマケン",
    "prefecture_code": 11,
    "city": "本庄市",
    "city_kana": "ホンジョウシ",
    "town": "児玉町田端",
    "town_kana": "コダマチョウタバタ",
    "street": null,
    "office_name": null,
    "office_name_kana": null
  },
  "0223": {
    "zip_code": "3670223",
    "prefecture": "埼玉県",
    "prefecture_kana": "サイタマケン",
    "prefecture_code": 11,
    "city": "本庄市",
    "city_kana": "ホンジョウシ",
    "town": "児玉町塩谷",
    "town_kana": "コダマチョウシオヤ",
    "street": null,
    "office_name": null,
    "office_name_kana": null
  },
  "0224": {
    "zip_code": "3670224",
    "prefecture": "埼玉県",
    "prefecture_kana": "サイタマケン",
    "prefecture_code": 11,
    "city": "本庄市",
    "city_kana": "ホンジョウシ",
    "town": "児玉町高柳",
    "town_kana": "コダマチョウタカヤナギ",
    "street": null,
    "office_name": null,
    "office_name_kana": null
  },
  "0225": {
    "zip_code": "3670225",
    "prefecture": "埼玉県",
    "prefecture_kana": "サイタマケン",
    "prefecture_code": 11,
    "city": "本庄市",
    "city_kana": "ホンジョウシ",
    "town": "児玉町飯倉",
    "town_kana": "コダマチョウイイグラ",
    "street": null,
    "office_name": null,
    "office_name_kana": null
  },
  "0226": {
    "zip_code": "3670226",
    "prefecture": "埼玉県",
    "prefecture_kana": "サイタマケン",
    "prefecture_code": 11,
    "city": "本庄市",
    "city_kana": "ホンジョウシ",
    "town": "児玉町宮内",
    "town_kana": "コダマチョウミヤウチ",
    "street": null,
    "office_name": null,
    "office_name_kana": null
  },
  "0231": {
    "zip_code": "3670231",
    "prefecture": "埼玉県",
    "prefecture_kana": "サイタマケン",
    "prefecture_code": 11,
    "city": "児玉郡神川町",
    "city_kana": "コダマグンカミカワマチ",
    "town": "中新里",
    "town_kana": "ナカニイサト",
    "street": null,
    "office_name": null,
    "office_name_kana": null
  },
  "0232": {
    "zip_code": "3670232",
    "prefecture": "埼玉県",
    "prefecture_kana": "サイタマケン",
    "prefecture_code": 11,
    "city": "児玉郡神川町",
    "city_kana": "コダマグンカミカワマチ",
    "town": "新里",
    "town_kana": "ニイサト",
    "street": null,
    "office_name": null,
    "office_name_kana": null
  },
  "0233": {
    "zip_code": "3670233",
    "prefecture": "埼玉県",
    "prefecture_kana": "サイタマケン",
    "prefecture_code": 11,
    "city": "児玉郡神川町",
    "city_kana": "コダマグンカミカワマチ",
    "town": "二ノ宮",
    "town_kana": "ニノミヤ",
    "street": null,
    "office_name": null,
    "office_name_kana": null
  },
  "0234": {
    "zip_code": "3670234",
    "prefecture": "埼玉県",
    "prefecture_kana": "サイタマケン",
    "prefecture_code": 11,
    "city": "児玉郡神川町",
    "city_kana": "コダマグンカミカワマチ",
    "town": "池田",
    "town_kana": "イケダ",
    "street": null,
    "office_name": null,
    "office_name_kana": null
  },
  "0235": {
    "zip_code": "3670235",
    "prefecture": "埼玉県",
    "prefecture_kana": "サイタマケン",
    "prefecture_code": 11,
    "city": "児玉郡神川町",
    "city_kana": "コダマグンカミカワマチ",
    "town": "新宿",
    "town_kana": "シンシュク",
    "street": null,
    "office_name": null,
    "office_name_kana": null
  },
  "0236": {
    "zip_code": "3670236",
    "prefecture": "埼玉県",
    "prefecture_kana": "サイタマケン",
    "prefecture_code": 11,
    "city": "児玉郡神川町",
    "city_kana": "コダマグンカミカワマチ",
    "town": "小浜",
    "town_kana": "コバマ",
    "street": null,
    "office_name": null,
    "office_name_kana": null
  },
  "0237": {
    "zip_code": "3670237",
    "prefecture": "埼玉県",
    "prefecture_kana": "サイタマケン",
    "prefecture_code": 11,
    "city": "児玉郡神川町",
    "city_kana": "コダマグンカミカワマチ",
    "town": "貫井",
    "town_kana": "ヌクイ",
    "street": null,
    "office_name": null,
    "office_name_kana": null
  },
  "0238": {
    "zip_code": "3670238",
    "prefecture": "埼玉県",
    "prefecture_kana": "サイタマケン",
    "prefecture_code": 11,
    "city": "児玉郡神川町",
    "city_kana": "コダマグンカミカワマチ",
    "town": "肥土",
    "town_kana": "ヒド",
    "street": null,
    "office_name": null,
    "office_name_kana": null
  },
  "0241": {
    "zip_code": "3670241",
    "prefecture": "埼玉県",
    "prefecture_kana": "サイタマケン",
    "prefecture_code": 11,
    "city": "児玉郡神川町",
    "city_kana": "コダマグンカミカワマチ",
    "town": "元原",
    "town_kana": "モトハラ",
    "street": null,
    "office_name": null,
    "office_name_kana": null
  },
  "0242": {
    "zip_code": "3670242",
    "prefecture": "埼玉県",
    "prefecture_kana": "サイタマケン",
    "prefecture_code": 11,
    "city": "児玉郡神川町",
    "city_kana": "コダマグンカミカワマチ",
    "town": "原新田",
    "town_kana": "ハラシンデン",
    "street": null,
    "office_name": null,
    "office_name_kana": null
  },
  "0243": {
    "zip_code": "3670243",
    "prefecture": "埼玉県",
    "prefecture_kana": "サイタマケン",
    "prefecture_code": 11,
    "city": "児玉郡神川町",
    "city_kana": "コダマグンカミカワマチ",
    "town": "熊野堂",
    "town_kana": "クマノドウ",
    "street": null,
    "office_name": null,
    "office_name_kana": null
  },
  "0244": {
    "zip_code": "3670244",
    "prefecture": "埼玉県",
    "prefecture_kana": "サイタマケン",
    "prefecture_code": 11,
    "city": "児玉郡神川町",
    "city_kana": "コダマグンカミカワマチ",
    "town": "八日市",
    "town_kana": "ヨウカイチ",
    "street": null,
    "office_name": null,
    "office_name_kana": null
  },
  "0245": {
    "zip_code": "3670245",
    "prefecture": "埼玉県",
    "prefecture_kana": "サイタマケン",
    "prefecture_code": 11,
    "city": "児玉郡神川町",
    "city_kana": "コダマグンカミカワマチ",
    "town": "植竹",
    "town_kana": "ウエダケ",
    "street": null,
    "office_name": null,
    "office_name_kana": null
  },
  "0246": {
    "zip_code": "3670246",
    "prefecture": "埼玉県",
    "prefecture_kana": "サイタマケン",
    "prefecture_code": 11,
    "city": "児玉郡神川町",
    "city_kana": "コダマグンカミカワマチ",
    "town": "関口",
    "town_kana": "セキグチ",
    "street": null,
    "office_name": null,
    "office_name_kana": null
  },
  "0247": {
    "zip_code": "3670247",
    "prefecture": "埼玉県",
    "prefecture_kana": "サイタマケン",
    "prefecture_code": 11,
    "city": "児玉郡神川町",
    "city_kana": "コダマグンカミカワマチ",
    "town": "元阿保",
    "town_kana": "モトアボ",
    "street": null,
    "office_name": null,
    "office_name_kana": null
  },
  "0248": {
    "zip_code": "3670248",
    "prefecture": "埼玉県",
    "prefecture_kana": "サイタマケン",
    "prefecture_code": 11,
    "city": "児玉郡神川町",
    "city_kana": "コダマグンカミカワマチ",
    "town": "四軒在家",
    "town_kana": "シケンザイケ",
    "street": null,
    "office_name": null,
    "office_name_kana": null
  },
  "0251": {
    "zip_code": "3670251",
    "prefecture": "埼玉県",
    "prefecture_kana": "サイタマケン",
    "prefecture_code": 11,
    "city": "本庄市",
    "city_kana": "ホンジョウシ",
    "town": "児玉町稲沢",
    "town_kana": "コダマチョウイナザワ",
    "street": null,
    "office_name": null,
    "office_name_kana": null
  },
  "0252": {
    "zip_code": "3670252",
    "prefecture": "埼玉県",
    "prefecture_kana": "サイタマケン",
    "prefecture_code": 11,
    "city": "本庄市",
    "city_kana": "ホンジョウシ",
    "town": "児玉町元田",
    "town_kana": "コダマチョウゲンダ",
    "street": null,
    "office_name": null,
    "office_name_kana": null
  },
  "0253": {
    "zip_code": "3670253",
    "prefecture": "埼玉県",
    "prefecture_kana": "サイタマケン",
    "prefecture_code": 11,
    "city": "本庄市",
    "city_kana": "ホンジョウシ",
    "town": "児玉町河内",
    "town_kana": "コダマチョウコウチ",
    "street": null,
    "office_name": null,
    "office_name_kana": null
  },
  "0254": {
    "zip_code": "3670254",
    "prefecture": "埼玉県",
    "prefecture_kana": "サイタマケン",
    "prefecture_code": 11,
    "city": "本庄市",
    "city_kana": "ホンジョウシ",
    "town": "児玉町太駄",
    "town_kana": "コダマチョウオオダ",
    "street": null,
    "office_name": null,
    "office_name_kana": null
  },
  "0292": {
    "zip_code": "3670292",
    "prefecture": "埼玉県",
    "prefecture_kana": null,
    "prefecture_code": null,
    "city": "児玉郡神川町",
    "city_kana": null,
    "town": "大字植竹",
    "town_kana": null,
    "street": "９０９",
    "office_name": "神川町役場",
    "office_name_kana": "カミカワマチヤクバ"
  },
  "0296": {
    "zip_code": "3670296",
    "prefecture": "埼玉県",
    "prefecture_kana": null,
    "prefecture_code": null,
    "city": "児玉郡神川町",
    "city_kana": null,
    "town": "大字元原",
    "town_kana": null,
    "street": "２００−２２",
    "office_name": "大鵬薬品工業　株式会社　児玉倉庫",
    "office_name_kana": "タイホウヤクヒンコウギヨウ カブシキガイシヤ コダマソウコ"
  },
  "0297": {
    "zip_code": "3670297",
    "prefecture": "埼玉県",
    "prefecture_kana": null,
    "prefecture_code": null,
    "city": "児玉郡神川町",
    "city_kana": null,
    "town": "大字元原",
    "town_kana": null,
    "street": "３００−１８",
    "office_name": "埼玉日本電気　株式会社",
    "office_name_kana": "サイタマニツポンデンキ カブシキガイシヤ"
  },
  "0298": {
    "zip_code": "3670298",
    "prefecture": "埼玉県",
    "prefecture_kana": "サイタマケン",
    "prefecture_code": 11,
    "city": "本庄市",
    "city_kana": "ホンジョウシ",
    "town": "児玉町八幡山",
    "town_kana": "コダマチョウハチマンヤマ",
    "street": "３６８",
    "office_name": "本庄市　児玉総合支所",
    "office_name_kana": "ホンジヨウシ コダマソウゴウシシヨ"
  },
  "0301": {
    "zip_code": "3670301",
    "prefecture": "埼玉県",
    "prefecture_kana": "サイタマケン",
    "prefecture_code": 11,
    "city": "児玉郡神川町",
    "city_kana": "コダマグンカミカワマチ",
    "town": "渡瀬",
    "town_kana": "ワタルセ",
    "street": null,
    "office_name": null,
    "office_name_kana": null
  },
  "0311": {
    "zip_code": "3670311",
    "prefecture": "埼玉県",
    "prefecture_kana": "サイタマケン",
    "prefecture_code": 11,
    "city": "児玉郡神川町",
    "city_kana": "コダマグンカミカワマチ",
    "town": "下阿久原",
    "town_kana": "シモアグハラ",
    "street": null,
    "office_name": null,
    "office_name_kana": null
  },
  "0312": {
    "zip_code": "3670312",
    "prefecture": "埼玉県",
    "prefecture_kana": "サイタマケン",
    "prefecture_code": 11,
    "city": "児玉郡神川町",
    "city_kana": "コダマグンカミカワマチ",
    "town": "上阿久原",
    "town_kana": "カミアグハラ",
    "street": null,
    "office_name": null,
    "office_name_kana": null
  },
  "0313": {
    "zip_code": "3670313",
    "prefecture": "埼玉県",
    "prefecture_kana": "サイタマケン",
    "prefecture_code": 11,
    "city": "児玉郡神川町",
    "city_kana": "コダマグンカミカワマチ",
    "town": "矢納",
    "town_kana": "ヤノウ",
    "street": null,
    "office_name": null,
    "office_name_kana": null
  },
  "8501": {
    "zip_code": "3678501",
    "prefecture": "埼玉県",
    "prefecture_kana": "サイタマケン",
    "prefecture_code": 11,
    "city": "本庄市",
    "city_kana": "ホンジョウシ",
    "town": "本庄",
    "town_kana": "ホンジョウ",
    "street": "３丁目５−３",
    "office_name": "本庄市役所",
    "office_name_kana": "ホンジヨウシヤクシヨ"
  },
  "8686": {
    "zip_code": "3678686",
    "prefecture": "埼玉県",
    "prefecture_kana": "サイタマケン",
    "prefecture_code": 11,
    "city": "本庄市",
    "city_kana": "ホンジョウシ",
    "town": "小島南",
    "town_kana": "オジマミナミ",
    "street": "４丁目１−１（本庄郵便局私書箱第１５号）",
    "office_name": "沖電気工業　株式会社",
    "office_name_kana": "オキデンキコウギヨウ カブシキガイシヤ"
  }
}