{
  "0000": {
    "zip_code": "3700000",
    "prefecture": "群馬県",
    "prefecture_kana": "グンマケン",
    "prefecture_code": 10,
    "city": "高崎市",
    "city_kana": "タカサキシ",
    "town": "",
    "town_kana": "",
    "street": null,
    "office_name": null,
    "office_name_kana": null
  },
  "0001": {
    "zip_code": "3700001",
    "prefecture": "群馬県",
    "prefecture_kana": "グンマケン",
    "prefecture_code": 10,
    "city": "高崎市",
    "city_kana": "タカサキシ",
    "town": "中尾町",
    "town_kana": "ナカオマチ",
    "street": null,
    "office_name": null,
    "office_name_kana": null
  },
  "0002": {
    "zip_code": "3700002",
    "prefecture": "群馬県",
    "prefecture_kana": "グンマケン",
    "prefecture_code": 10,
    "city": "高崎市",
    "city_kana": "タカサキシ",
    "town": "日高町",
    "town_kana": "ヒダカマチ",
    "street": null,
    "office_name": null,
    "office_name_kana": null
  },
  "0003": {
    "zip_code": "3700003",
    "prefecture": "群馬県",
    "prefecture_kana": "グンマケン",
    "prefecture_code": 10,
    "city": "高崎市",
    "city_kana": "タカサキシ",
    "town": "新保田中町",
    "town_kana": "シンボタナカマチ",
    "street": null,
    "office_name": null,
    "office_name_kana": null
  },
  "0004": {
    "zip_code": "3700004",
    "prefecture": "群馬県",
    "prefecture_kana": "グンマケン",
    "prefecture_code": 10,
    "city": "高崎市",
    "city_kana": "タカサキシ",
    "town": "井野町",
    "town_kana": "イノマチ",
    "street": null,
    "office_name": null,
    "office_name_kana": null
  },
  "0005": {
    "zip_code": "3700005",
    "prefecture": "群馬県",
    "prefecture_kana": "グンマケン",
    "prefecture_code": 10,
    "city": "高崎市",
    "city_kana": "タカサキシ",
    "town": "浜尻町",
    "town_kana": "ハマジリマチ",
    "street": null,
    "office_name": null,
    "office_name_kana": null
  },
  "0006": {
    "zip_code": "3700006",
    "prefecture": "群馬県",
    "prefecture_kana": "グンマケン",
    "prefecture_code": 10,
    "city": "高崎市",
    "city_kana": "タカサキシ",
    "town": "問屋町",
    "town_kana": "トンヤマチ",
    "street": null,
    "office_name": null,
    "office_name_kana": null
  },
  "0007": {
    "zip_code": "3700007",
    "prefecture": "群馬県",
    "prefecture_kana": "グンマケン",
    "prefecture_code": 10,
    "city": "高崎市",
    "city_kana": "タカサキシ",
    "town": "問屋町西",
    "town_kana": "トンヤマチニシ",
    "street": null,
    "office_name": null,
    "office_name_kana": null
  },
  "0008": {
    "zip_code": "3700008",
    "prefecture": "群馬県",
    "prefecture_kana": "グンマケン",
    "prefecture_code": 10,
    "city": "高崎市",
    "city_kana": "タカサキシ",
    "town": "正観寺町",
    "town_kana": "ショウカンジマチ",
    "street": null,
    "office_name": null,
    "office_name_kana": null
  },
  "0011": {
    "zip_code": "3700011",
    "prefecture": "群馬県",
    "prefecture_kana": "グンマケン",
    "prefecture_code": 10,
    "city": "高崎市",
    "city_kana": "タカサキシ",
    "town": "京目町",
    "town_kana": "キョウメマチ",
    "street": null,
    "office_name": null,
    "office_name_kana": null
  },
  "0012": {
    "zip_code": "3700012",
    "prefecture": "群馬県",
    "prefecture_kana": "グンマケン",
    "prefecture_code": 10,
    "city": "高崎市",
    "city_kana": "タカサキシ",
    "town": "大沢町",
    "town_kana": "オオサワマチ",
    "street": null,
    "office_name": null,
    "office_name_kana": null
  },
  "0013": {
    "zip_code": "3700013",
    "prefecture": "群馬県",
    "prefecture_kana": "グンマケン",
    "prefecture_code": 10,
    "city": "高崎市",
    "city_kana": "タカサキシ",
    "town": "萩原町",
    "town_kana": "ハギワラマチ",
    "street": null,
    "office_name": null,
    "office_name_kana": null
  },
  "0014": {
    "zip_code": "3700014",
    "prefecture": "群馬県",
    "prefecture_kana": "グンマケン",
    "prefecture_code": 10,
    "city": "高崎市",
    "city_kana": "タカサキシ",
    "town": "元島名町",
    "town_kana": "モトシマナマチ",
    "street": null,
    "office_name": null,
    "office_name_kana": null
  },
  "0015": {
    "zip_code": "3700015",
    "prefecture": "群馬県",
    "prefecture_kana": "グンマケン",
    "prefecture_code": 10,
    "city": "高崎市",
    "city_kana": "タカサキシ",
    "town": "島野町",
    "town_kana": "シマノマチ",
    "street": null,
    "office_name": null,
    "office_name_kana": null
  },
  "0016": {
    "zip_code": "3700016",
    "prefecture": "群馬県",
    "prefecture_kana": "グンマケン",
    "prefecture_code": 10,
    "city": "高崎市",
    "city_kana": "タカサキシ",
    "town": "矢島町",
    "town_kana": "ヤジママチ",
    "street": null,
    "office_name": null,
    "office_name_kana": null
  },
  "0017": {
    "zip_code": "3700017",
    "prefecture": "群馬県",
    "prefecture_kana": "グンマケン",
    "prefecture_code": 10,
    "city": "高崎市",
    "city_kana": "タカサキシ",
    "town": "西島町",
    "town_kana": "ニシジママチ",
    "street": null,
    "office_name": null,
    "office_name_kana": null
  },
  "0018": {
    "zip_code": "3700018",
    "prefecture": "群馬県",
    "prefecture_kana": "グンマケン",
    "prefecture_code": 10,
    "city": "高崎市",
    "city_kana": "タカサキシ",
    "town": "新保町",
    "town_kana": "シンボマチ",
    "street": null,
    "office_name": null,
    "office_name_kana": null
  },
  "0021": {
    "zip_code": "3700021",
    "prefecture": "群馬県",
    "prefecture_kana": "グンマケン",
    "prefecture_code": 10,
    "city": "高崎市",
    "city_kana": "タカサキシ",
    "town": "西横手町",
    "town_kana": "ニシヨコテマチ",
    "street": null,
    "office_name": null,
    "office_name_kana": null
  },
  "0022": {
    "zip_code": "3700022",
    "prefecture": "群馬県",
    "prefecture_kana": "グンマケン",
    "prefecture_code": 10,
    "city": "高崎市",
    "city_kana": "タカサキシ",
    "town": "宿横手町",
    "town_kana": "シュクヨコテマチ",
    "street": null,
    "office_name": null,
    "office_name_kana": null
  },
  "0023": {
    "zip_code": "3700023",
    "prefecture": "群馬県",
    "prefecture_kana": "グンマケン",
    "prefecture_code": 10,
    "city": "高崎市",
    "city_kana": "タカサキシ",
    "town": "中島町",
    "town_kana": "ナカジママチ",
    "street": null,
    "office_name": null,
    "office_name_kana": null
  },
  "0024": {
    "zip_code": "3700024",
    "prefecture": "群馬県",
    "prefecture_kana": "グンマケン",
    "prefecture_code": 10,
    "city": "高崎市",
    "city_kana": "タカサキシ",
    "town": "八幡原町",
    "town_kana": "ヤワタバラマチ",
    "street": null,
    "office_name": null,
    "office_name_kana": null
  },
  "0025": {
    "zip_code": "3700025",
    "prefecture": "群馬県",
    "prefecture_kana": "グンマケン",
    "prefecture_code": 10,
    "city": "高崎市",
    "city_kana": "タカサキシ",
    "town": "下斉田町",
    "town_kana": "シモサイダマチ",
    "street": null,
    "office_name": null,
    "office_name_kana": null
  },
  "0026": {
    "zip_code": "3700026",
    "prefecture": "群馬県",
    "prefecture_kana": "グンマケン",
    "prefecture_code": 10,
    "city": "高崎市",
    "city_kana": "タカサキシ",
    "town": "下滝町",
    "town_kana": "シモタキマチ",
    "street": null,
    "office_name": null,
    "office_name_kana": null
  },
  "0027": {
    "zip_code": "3700027",
    "prefecture": "群馬県",
    "prefecture_kana": "グンマケン",
    "prefecture_code": 10,
    "city": "高崎市",
    "city_kana": "タカサキシ",
    "town": "上滝町",
    "town_kana": "カミタキマチ",
    "street": null,
    "office_name": null,
    "office_name_kana": null
  },
  "0031": {
    "zip_code": "3700031",
    "prefecture": "群馬県",
    "prefecture_kana": "グンマケン",
    "prefecture_code": 10,
    "city": "高崎市",
    "city_kana": "タカサキシ",
    "town": "上大類町",
    "town_kana": "カミオオルイマチ",
    "street": null,
    "office_name": null,
    "office_name_kana": null
  },
  "0032": {
    "zip_code": "3700032",
    "prefecture": "群馬県",
    "prefecture_kana": "グンマケン",
    "prefecture_code": 10,
    "city": "高崎市",
    "city_kana": "タカサキシ",
    "town": "宿大類町",
    "town_kana": "シュクオオルイマチ",
    "street": null,
    "office_name": null,
    "office_name_kana": null
  },
  "0033": {
    "zip_code": "3700033",
    "prefecture": "群馬県",
    "prefecture_kana": "グンマケン",
    "prefecture_code": 10,
    "city": "高崎市",
    "city_kana": "タカサキシ",
    "town": "中大類町",
    "town_kana": "ナカオオルイマチ",
    "street": null,
    "office_name": null,
    "office_name_kana": null
  },
  "0034": {
    "zip_code": "3700034",
    "prefecture": "群馬県",
    "prefecture_kana": "グンマケン",
    "prefecture_code": 10,
    "city": "高崎市",
    "city_kana": "タカサキシ",
    "town": "下大類町",
    "town_kana": "シモオオルイマチ",
    "street": null,
    "office_name": null,
    "office_name_kana": null
  },
  "0035": {
    "zip_code": "3700035",
    "prefecture": "群馬県",
    "prefecture_kana": "グンマケン",
    "prefecture_code": 10,
    "city": "高崎市",
    "city_kana": "タカサキシ",
    "town": "柴崎町",
    "town_kana": "シバサキマチ",
    "street": null,
    "office_name": null,
    "office_name_kana": null
  },
  "0036": {
    "zip_code": "3700036",
    "prefecture": "群馬県",
    "prefecture_kana": "グンマケン",
    "prefecture_code": 10,
    "city": "高崎市",
    "city_kana": "タカサキシ",
    "town": "南大類町",
    "town_kana": "ミナミオオルイマチ",
    "street": null,
    "office_name": null,
    "office_name_kana": null
  },
  "0041": {
    "zip_code": "3700041",
    "prefecture": "群馬県",
    "prefecture_kana": "グンマケン",
    "prefecture_code": 10,
    "city": "高崎市",
    "city_kana": "タカサキシ",
    "town": "東貝沢町",
    "town_kana": "ヒガシカイザワマチ",
    "street": null,
    "office_name": null,
    "office_name_kana": null
  },
  "0042": {
    "zip_code": "3700042",
    "prefecture": "群馬県",
    "prefecture_kana": "グンマケン",
    "prefecture_code": 10,
    "city": "高崎市",
    "city_kana": "タカサキシ",
    "town": "貝沢町",
    "town_kana": "カイザワマチ",
    "street": null,
    "office_name": null,
    "office_name_kana": null
  },
  "0043": {
    "zip_code": "3700043",
    "prefecture": "群馬県",
    "prefecture_kana": "グンマケン",
    "prefecture_code": 10,
    "city": "高崎市",
    "city_kana": "タカサキシ",
    "town": "高関町",
    "town_kana": "タカゼキマチ",
    "street": null,
    "office_name": null,
    "office_name_kana": null
  },
  "0044": {
    "zip_code": "3700044",
    "prefecture": "群馬県",
    "prefecture_kana": "グンマケン",
    "prefecture_code": 10,
    "city": "高崎市",
    "city_kana": "タカサキシ",
    "town": "岩押町",
    "town_kana": "イワオシマチ",
    "street": null,
    "office_name": null,
    "office_name_kana": null
  },
  "0045": {
    "zip_code": "3700045",
    "prefecture": "群馬県",
    "prefecture_kana": "グンマケン",
    "prefecture_code": 10,
    "city": "高崎市",
    "city_kana": "タカサキシ",
    "town": "東町",
    "town_kana": "アズマチョウ",
    "street": null,
    "office_name": null,
    "office_name_kana": null
  },
  "0046": {
    "zip_code": "3700046",
    "prefecture": "群馬県",
    "prefecture_kana": "グンマケン",
    "prefecture_code": 10,
    "city": "高崎市",
    "city_kana": "タカサキシ",
    "town": "江木町",
    "town_kana": "エギマチ",
    "street": null,
    "office_name": null,
    "office_name_kana": null
  },
  "0047": {
    "zip_code": "3700047",
    "prefecture": "群馬県",
    "prefecture_kana": "グンマケン",
    "prefecture_code": 10,
    "city": "高崎市",
    "city_kana": "タカサキシ",
    "town": "高砂町",
    "town_kana": "タカサゴチョウ",
    "street": null,
    "office_name": null,
    "office_name_kana": null
  },
  "0048": {
    "zip_code": "3700048",
    "prefecture": "群馬県",
    "prefecture_kana": "グンマケン",
    "prefecture_code": 10,
    "city": "高崎市",
    "city_kana": "タカサキシ",
    "town": "日光町",
    "town_kana": "ニッコウチョウ",
    "street": null,
    "office_name": null,
    "office_name_kana": null
  },
  "0051": {
    "zip_code": "3700051",
    "prefecture": "群馬県",
    "prefecture_kana": "グンマケン",
    "prefecture_code": 10,
    "city": "高崎市",
    "city_kana": "タカサキシ",
    "town": "弓町",
    "town_kana": "ユミチョウ",
    "street": null,
    "office_name": null,
    "office_name_kana": null
  },
  "0052": {
    "zip_code": "3700052",
    "prefecture": "群馬県",
    "prefecture_kana": "グンマケン",
    "prefecture_code": 10,
    "city": "高崎市",
    "city_kana": "タカサキシ",
    "town": "旭町",
    "town_kana": "アサヒチョウ",
    "street": null,
    "office_name": null,
    "office_name_kana": null
  },
  "0053": {
    "zip_code": "3700053",
    "prefecture": "群馬県",
    "prefecture_kana": "グンマケン",
    "prefecture_code": 10,
    "city": "高崎市",
    "city_kana": "タカサキシ",
    "town": "通町",
    "town_kana": "トオリマチ",
    "street": null,
    "office_name": null,
    "office_name_kana": null
  },
  "0054": {
    "zip_code": "3700054",
    "prefecture": "群馬県",
    "prefecture_kana": "グンマケン",
    "prefecture_code": 10,
    "city": "高崎市",
    "city_kana": "タカサキシ",
    "town": "真町",
    "town_kana": "シンチョウ",
    "street": null,
    "office_name": null,
    "office_name_kana": null
  },
  "0055": {
    "zip_code": "3700055",
    "prefecture": "群馬県",
    "prefecture_kana": "グンマケン",
    "prefecture_code": 10,
    "city": "高崎市",
    "city_kana": "タカサキシ",
    "town": "羅漢町",
    "town_kana": "ラカンチョウ",
    "street": null,
    "office_name": null,
    "office_name_kana": null
  },
  "0056": {
    "zip_code": "3700056",
    "prefecture": "群馬県",
    "prefecture_kana": "グンマケン",
    "prefecture_code": 10,
    "city": "高崎市",
    "city_kana": "タカサキシ",
    "town": "北通町",
    "town_kana": "キタトオリマチ",
    "street": null,
    "office_name": null,
    "office_name_kana": null
  },
  "0057": {
    "zip_code": "3700057",
    "prefecture": "群馬県",
    "prefecture_kana": "グンマケン",
    "prefecture_code": 10,
    "city": "高崎市",
    "city_kana": "タカサキシ",
    "town": "元紺屋町",
    "town_kana": "モトコンヤマチ",
    "street": null,
    "office_name": null,
    "office_name_kana": null
  },
  "0058": {
    "zip_code": "3700058",
    "prefecture": "群馬県",
    "prefecture_kana": "グンマケン",
    "prefecture_code": 10,
    "city": "高崎市",
    "city_kana": "タカサキシ",
    "town": "九蔵町",
    "town_kana": "クゾウマチ",
    "street": null,
    "office_name": null,
    "office_name_kana": null
  },
  "0059": {
    "zip_code": "3700059",
    "prefecture": "群馬県",
    "prefecture_kana": "グンマケン",
    "prefecture_code": 10,
    "city": "高崎市",
    "city_kana": "タカサキシ",
    "town": "椿町",
    "town_kana": "ツバキチョウ",
    "street": null,
    "office_name": null,
    "office_name_kana": null
  },
  "0061": {
    "zip_code": "3700061",
    "prefecture": "群馬県",
    "prefecture_kana": "グンマケン",
    "prefecture_code": 10,
    "city": "高崎市",
    "city_kana": "タカサキシ",
    "town": "天神町",
    "town_kana": "テンジンチョウ",
    "street": null,
    "office_name": null,
    "office_name_kana": null
  },
  "0062": {
    "zip_code": "3700062",
    "prefecture": "群馬県",
    "prefecture_kana": "グンマケン",
    "prefecture_code": 10,
    "city": "高崎市",
    "city_kana": "タカサキシ",
    "town": "稲荷町",
    "town_kana": "イナリチョウ",
    "street": null,
    "office_name": null,
    "office_name_kana": null
  },
  "0063": {
    "zip_code": "3700063",
    "prefecture": "群馬県",
    "prefecture_kana": "グンマケン",
    "prefecture_code": 10,
    "city": "高崎市",
    "city_kana": "タカサキシ",
    "town": "飯玉町",
    "town_kana": "イイダママチ",
    "street": null,
    "office_name": null,
    "office_name_kana": null
  },
  "0064": {
    "zip_code": "3700064",
    "prefecture": "群馬県",
    "prefecture_kana": "グンマケン",
    "prefecture_code": 10,
    "city": "高崎市",
    "city_kana": "タカサキシ",
    "town": "芝塚町",
    "town_kana": "シバヅカマチ",
    "street": null,
    "office_name": null,
    "office_name_kana": null
  },
  "0065": {
    "zip_code": "3700065",
    "prefecture": "群馬県",
    "prefecture_kana": "グンマケン",
    "prefecture_code": 10,
    "city": "高崎市",
    "city_kana": "タカサキシ",
    "town": "末広町",
    "town_kana": "スエヒロチョウ",
    "street": null,
    "office_name": null,
    "office_name_kana": null
  },
  "0066": {
    "zip_code": "3700066",
    "prefecture": "群馬県",
    "prefecture_kana": "グンマケン",
    "prefecture_code": 10,
    "city": "高崎市",
    "city_kana": "タカサキシ",
    "town": "山田町",
    "town_kana": "ヤマダチョウ",
    "street": null,
    "office_name": null,
    "office_name_kana": null
  },
  "0067": {
    "zip_code": "3700067",
    "prefecture": "群馬県",
    "prefecture_kana": "グンマケン",
    "prefecture_code": 10,
    "city": "高崎市",
    "city_kana": "タカサキシ",
    "town": "請地町",
    "town_kana": "ウケチマチ",
    "street": null,
    "office_name": null,
    "office_name_kana": null
  },
  "0068": {
    "zip_code": "3700068",
    "prefecture": "群馬県",
    "prefecture_kana": "グンマケン",
    "prefecture_code": 10,
    "city": "高崎市",
    "city_kana": "タカサキシ",
    "town": "昭和町",
    "town_kana": "ショウワマチ",
    "street": null,
    "office_name": null,
    "office_name_kana": null
  },
  "0069": {
    "zip_code": "3700069",
    "prefecture": "群馬県",
    "prefecture_kana": "グンマケン",
    "prefecture_code": 10,
    "city": "高崎市",
    "city_kana": "タカサキシ",
    "town": "飯塚町",
    "town_kana": "イイヅカマチ",
    "street": null,
    "office_name": null,
    "office_name_kana": null
  },
  "0071": {
    "zip_code": "3700071",
    "prefecture": "群馬県",
    "prefecture_kana": "グンマケン",
    "prefecture_code": 10,
    "city": "高崎市",
    "city_kana": "タカサキシ",
    "town": "小八木町",
    "town_kana": "コヤギマチ",
    "street": null,
    "office_name": null,
    "office_name_kana": null
  },
  "0072": {
    "zip_code": "3700072",
    "prefecture": "群馬県",
    "prefecture_kana": "グンマケン",
    "prefecture_code": 10,
    "city": "高崎市",
    "city_kana": "タカサキシ",
    "town": "大八木町",
    "town_kana": "オオヤギマチ",
    "street": null,
    "office_name": null,
    "office_name_kana": null
  },
  "0073": {
    "zip_code": "3700073",
    "prefecture": "群馬県",
    "prefecture_kana": "グンマケン",
    "prefecture_code": 10,
    "city": "高崎市",
    "city_kana": "タカサキシ",
    "town": "緑町",
    "town_kana": "ミドリチョウ",
    "street": null,
    "office_name": null,
    "office_name_kana": null
  },
  "0074": {
    "zip_code": "3700074",
    "prefecture": "群馬県",
    "prefecture_kana": "グンマケン",
    "prefecture_code": 10,
    "city": "高崎市",
    "city_kana": "タカサキシ",
    "town": "下小鳥町",
    "town_kana": "シモコトリマチ",
    "street": null,
    "office_name": null,
    "office_name_kana": null
  },
  "0075": {
    "zip_code": "3700075",
    "prefecture": "群馬県",
    "prefecture_kana": "グンマケン",
    "prefecture_code": 10,
    "city": "高崎市",
    "city_kana": "タカサキシ",
    "town": "筑縄町",
    "town_kana": "ツクナワマチ",
    "street": null,
    "office_name": null,
    "office_name_kana": null
  },
  "0076": {
    "zip_code": "3700076",
    "prefecture": "群馬県",
    "prefecture_kana": "グンマケン",
    "prefecture_code": 10,
    "city": "高崎市",
    "city_kana": "タカサキシ",
    "town": "下小塙町",
    "town_kana": "シモコバナマチ",
    "street": null,
    "office_name": null,
    "office_name_kana": null
  },
  "0077": {
    "zip_code": "3700077",
    "prefecture": "群馬県",
    "prefecture_kana": "グンマケン",
    "prefecture_code": 10,
    "city": "高崎市",
    "city_kana": "タカサキシ",
    "town": "上小塙町",
    "town_kana": "カミコバナマチ",
    "street": null,
    "office_name": null,
    "office_name_kana": null
  },
  "0078": {
    "zip_code": "3700078",
    "prefecture": "群馬県",
    "prefecture_kana": "グンマケン",
    "prefecture_code": 10,
    "city": "高崎市",
    "city_kana": "タカサキシ",
    "town": "上小鳥町",
    "town_kana": "カミコトリマチ",
    "street": null,
    "office_name": null,
    "office_name_kana": null
  },
  "0081": {
    "zip_code": "3700081",
    "prefecture": "群馬県",
    "prefecture_kana": "グンマケン",
    "prefecture_code": 10,
    "city": "高崎市",
    "city_kana": "タカサキシ",
    "town": "浜川町",
    "town_kana": "ハマガワマチ",
    "street": null,
    "office_name": null,
    "office_name_kana": null
  },
  "0082": {
    "zip_code": "3700082",
    "prefecture": "群馬県",
    "prefecture_kana": "グンマケン",
    "prefecture_code": 10,
    "city": "高崎市",
    "city_kana": "タカサキシ",
    "town": "北新波町",
    "town_kana": "キタアラナミマチ",
    "street": null,
    "office_name": null,
    "office_name_kana": null
  },
  "0083": {
    "zip_code": "3700083",
    "prefecture": "群馬県",
    "prefecture_kana": "グンマケン",
    "prefecture_code": 10,
    "city": "高崎市",
    "city_kana": "タカサキシ",
    "town": "南新波町",
    "town_kana": "ミナミアラナミマチ",
    "street": null,
    "office_name": null,
    "office_name_kana": null
  },
  "0084": {
    "zip_code": "3700084",
    "prefecture": "群馬県",
    "prefecture_kana": "グンマケン",
    "prefecture_code": 10,
    "city": "高崎市",
    "city_kana": "タカサキシ",
    "town": "菊地町",
    "town_kana": "キクヂマチ",
    "street": null,
    "office_name": null,
    "office_name_kana": null
  },
  "0085": {
    "zip_code": "3700085",
    "prefecture": "群馬県",
    "prefecture_kana": "グンマケン",
    "prefecture_code": 10,
    "city": "高崎市",
    "city_kana": "タカサキシ",
    "town": "我峰町",
    "town_kana": "ワガミネマチ",
    "street": null,
    "office_name": null,
    "office_name_kana": null
  },
  "0086": {
    "zip_code": "3700086",
    "prefecture": "群馬県",
    "prefecture_kana": "グンマケン",
    "prefecture_code": 10,
    "city": "高崎市",
    "city_kana": "タカサキシ",
    "town": "沖町",
    "town_kana": "オキマチ",
    "street": null,
    "office_name": null,
    "office_name_kana": null
  },
  "0087": {
    "zip_code": "3700087",
    "prefecture": "群馬県",
    "prefecture_kana": "グンマケン",
    "prefecture_code": 10,
    "city": "高崎市",
    "city_kana": "タカサキシ",
    "town": "楽間町",
    "town_kana": "ラクママチ",
    "street": null,
    "office_name": null,
    "office_name_kana": null
  },
  "0088": {
    "zip_code": "3700088",
    "prefecture": "群馬県",
    "prefecture_kana": "グンマケン",
    "prefecture_code": 10,
    "city": "高崎市",
    "city_kana": "タカサキシ",
    "town": "行力町",
    "town_kana": "ギョウリキマチ",
    "street": null,
    "office_name": null,
    "office_name_kana": null
  },
  "0101": {
    "zip_code": "3700101",
    "prefecture": "群馬県",
    "prefecture_kana": "グンマケン",
    "prefecture_code": 10,
    "city": "伊勢崎市",
    "city_kana": "イセサキシ",
    "town": "境東新井",
    "town_kana": "サカイヒガシアライ",
    "street": null,
    "office_name": null,
    "office_name_kana": null
  },
  "0102": {
    "zip_code": "3700102",
    "prefecture": "群馬県",
    "prefecture_kana": "グンマケン",
    "prefecture_code": 10,
    "city": "伊勢崎市",
    "city_kana": "イセサキシ",
    "town": "境上渕名",
    "town_kana": "サカイカミフチナ",
    "street": null,
    "office_name": null,
    "office_name_kana": null
  },
  "0103": {
    "zip_code": "3700103",
    "prefecture": "群馬県",
    "prefecture_kana": "グンマケン",
    "prefecture_code": 10,
    "city": "伊勢崎市",
    "city_kana": "イセサキシ",
    "town": "境下渕名",
    "town_kana": "サカイシモフチナ",
    "street": null,
    "office_name": null,
    "office_name_kana": null
  },
  "0104": {
    "zip_code": "3700104",
    "prefecture": "群馬県",
    "prefecture_kana": "グンマケン",
    "prefecture_code": 10,
    "city": "伊勢崎市",
    "city_kana": "イセサキシ",
    "town": "境木島",
    "town_kana": "サカイキジマ",
    "street": null,
    "office_name": null,
    "office_name_kana": null
  },
  "0105": {
    "zip_code": "3700105",
    "prefecture": "群馬県",
    "prefecture_kana": "グンマケン",
    "prefecture_code": 10,
    "city": "伊勢崎市",
    "city_kana": "イセサキシ",
    "town": "境伊与久",
    "town_kana": "サカイイヨク",
    "street": null,
    "office_name": null,
    "office_name_kana": null
  },
  "0111": {
    "zip_code": "3700111",
    "prefecture": "群馬県",
    "prefecture_kana": "グンマケン",
    "prefecture_code": 10,
    "city": "伊勢崎市",
    "city_kana": "イセサキシ",
    "town": "境上矢島",
    "town_kana": "サカイカミヤジマ",
    "street": null,
    "office_name": null,
    "office_name_kana": null
  },
  "0112": {
    "zip_code": "3700112",
    "prefecture": "群馬県",
    "prefecture_kana": "グンマケン",
    "prefecture_code": 10,
    "city": "伊勢崎市",
    "city_kana": "イセサキシ",
    "town": "境西今井",
    "town_kana": "サカイニシイマイ",
    "street": null,
    "office_name": null,
    "office_name_kana": null
  },
  "0113": {
    "zip_code": "3700113",
    "prefecture": "群馬県",
    "prefecture_kana": "グンマケン",
    "prefecture_code": 10,
    "city": "伊勢崎市",
    "city_kana": "イセサキシ",
    "town": "境三ツ木",
    "town_kana": "サカイミツギ",
    "street": null,
    "office_name": null,
    "office_name_kana": null
  },
  "0114": {
    "zip_code": "3700114",
    "prefecture": "群馬県",
    "prefecture_kana": "グンマケン",
    "prefecture_code": 10,
    "city": "伊勢崎市",
    "city_kana": "イセサキシ",
    "town": "境新栄",
    "town_kana": "サカイシンエイ",
    "street": null,
    "office_name": null,
    "office_name_kana": null
  },
  "0115": {
    "zip_code": "3700115",
    "prefecture": "群馬県",
    "prefecture_kana": "グンマケン",
    "prefecture_code": 10,
    "city": "伊勢崎市",
    "city_kana": "イセサキシ",
    "town": "境美原",
    "town_kana": "サカイミハラ",
    "street": null,
    "office_name": null,
    "office_name_kana": null
  },
  "0116": {
    "zip_code": "3700116",
    "prefecture": "群馬県",
    "prefecture_kana": "グンマケン",
    "prefecture_code": 10,
    "city": "伊勢崎市",
    "city_kana": "イセサキシ",
    "town": "境百々東",
    "town_kana": "サカイドウドウヒガシ",
    "street": null,
    "office_name": null,
    "office_name_kana": null
  },
  "0117": {
    "zip_code": "3700117",
    "prefecture": "群馬県",
    "prefecture_kana": "グンマケン",
    "prefecture_code": 10,
    "city": "伊勢崎市",
    "city_kana": "イセサキシ",
    "town": "境百々",
    "town_kana": "サカイドウドウ",
    "street": null,
    "office_name": null,
    "office_name_kana": null
  },
  "0121": {
    "zip_code": "3700121",
    "prefecture": "群馬県",
    "prefecture_kana": "グンマケン",
    "prefecture_code": 10,
    "city": "伊勢崎市",
    "city_kana": "イセサキシ",
    "town": "境女塚",
    "town_kana": "サカイオナヅカ",
    "street": null,
    "office_name": null,
    "office_name_kana": null
  },
  "0122": {
    "zip_code": "3700122",
    "prefecture": "群馬県",
    "prefecture_kana": "グンマケン",
    "prefecture_code": 10,
    "city": "伊勢崎市",
    "city_kana": "イセサキシ",
    "town": "境栄",
    "town_kana": "サカイサカエ",
    "street": null,
    "office_name": null,
    "office_name_kana": null
  },
  "0123": {
    "zip_code": "3700123",
    "prefecture": "群馬県",
    "prefecture_kana": "グンマケン",
    "prefecture_code": 10,
    "city": "伊勢崎市",
    "city_kana": "イセサキシ",
    "town": "境東",
    "town_kana": "サカイアズマ",
    "street": null,
    "office_name": null,
    "office_name_kana": null
  },
  "0124": {
    "zip_code": "3700124",
    "prefecture": "群馬県",
    "prefecture_kana": "グンマケン",
    "prefecture_code": 10,
    "city": "伊勢崎市",
    "city_kana": "イセサキシ",
    "town": "境",
    "town_kana": "サカイ",
    "street": null,
    "office_name": null,
    "office_name_kana": null
  },
  "0125": {
    "zip_code": "3700125",
    "prefecture": "群馬県",
    "prefecture_kana": "グンマケン",
    "prefecture_code": 10,
    "city": "伊勢崎市",
    "city_kana": "イセサキシ",
    "town": "境萩原",
    "town_kana": "サカイハギワラ",
    "street": null,
    "office_name": null,
    "office_name_kana": null
  },
  "0126": {
    "zip_code": "3700126",
    "prefecture": "群馬県",
    "prefecture_kana": "グンマケン",
    "prefecture_code": 10,
    "city": "伊勢崎市",
    "city_kana": "イセサキシ",
    "town": "境下武士",
    "town_kana": "サカイシモタケシ",
    "street": null,
    "office_name": null,
    "office_name_kana": null
  },
  "0127": {
    "zip_code": "3700127",
    "prefecture": "群馬県",
    "prefecture_kana": "グンマケン",
    "prefecture_code": 10,
    "city": "伊勢崎市",
    "city_kana": "イセサキシ",
    "town": "境上武士",
    "town_kana": "サカイカミタケシ",
    "street": null,
    "office_name": null,
    "office_name_kana": null
  },
  "0128": {
    "zip_code": "3700128",
    "prefecture": "群馬県",
    "prefecture_kana": "グンマケン",
    "prefecture_code": 10,
    "city": "伊勢崎市",
    "city_kana": "イセサキシ",
    "town": "境保泉",
    "town_kana": "サカイホズミ",
    "street": null,
    "office_name": null,
    "office_name_kana": null
  },
  "0131": {
    "zip_code": "3700131",
    "prefecture": "群馬県",
    "prefecture_kana": "グンマケン",
    "prefecture_code": 10,
    "city": "伊勢崎市",
    "city_kana": "イセサキシ",
    "town": "境米岡",
    "town_kana": "サカイヨネオカ",
    "street": null,
    "office_name": null,
    "office_name_kana": null
  },
  "0132": {
    "zip_code": "3700132",
    "prefecture": "群馬県",
    "prefecture_kana": "グンマケン",
    "prefecture_code": 10,
    "city": "伊勢崎市",
    "city_kana": "イセサキシ",
    "town": "境平塚",
    "town_kana": "サカイヒラヅカ",
    "street": null,
    "office_name": null,
    "office_name_kana": null
  },
  "0133": {
    "zip_code": "3700133",
    "prefecture": "群馬県",
    "prefecture_kana": "グンマケン",
    "prefecture_code": 10,
    "city": "伊勢崎市",
    "city_kana": "イセサキシ",
    "town": "境中島",
    "town_kana": "サカイナカジマ",
    "street": null,
    "office_name": null,
    "office_name_kana": null
  },
  "0134": {
    "zip_code": "3700134",
    "prefecture": "群馬県",
    "prefecture_kana": "グンマケン",
    "prefecture_code": 10,
    "city": "伊勢崎市",
    "city_kana": "イセサキシ",
    "town": "境島村",
    "town_kana": "サカイシマムラ",
    "street": null,
    "office_name": null,
    "office_name_kana": null
  },
  "0135": {
    "zip_code": "3700135",
    "prefecture": "群馬県",
    "prefecture_kana": "グンマケン",
    "prefecture_code": 10,
    "city": "伊勢崎市",
    "city_kana": "イセサキシ",
    "town": "境小此木",
    "town_kana": "サカイオコノギ",
    "street": null,
    "office_name": null,
    "office_name_kana": null
  },
  "0193": {
    "zip_code": "3700193",
    "prefecture": "群馬県",
    "prefecture_kana": null,
    "prefecture_code": null,
    "city": "伊勢崎市",
    "city_kana": null,
    "town": "堺東新井",
    "town_kana": null,
    "street": "１０４８−２２",
    "office_name": "株式会社　日本アクセス　群馬支店",
    "office_name_kana": "カブシキガイシヤ ニツポンアクセス グンマシテン"
  },
  "0301": {
    "zip_code": "3700301",
    "prefecture": "群馬県",
    "prefecture_kana": "グンマケン",
    "prefecture_code": 10,
    "city": "太田市",
    "city_kana": "オオタシ",
    "town": "新田天良町",
    "town_kana": "ニッタテンラチョウ",
    "street": null,
    "office_name": null,
    "office_name_kana": null
  },
  "0302": {
    "zip_code": "3700302",
    "prefecture": "群馬県",
    "prefecture_kana": "グンマケン",
    "prefecture_code": 10,
    "city": "太田市",
    "city_kana": "オオタシ",
    "town": "新田小金町",
    "town_kana": "ニッタコキンチョウ",
    "street": null,
    "office_name": null,
    "office_name_kana": null
  },
  "0303": {
    "zip_code": "3700303",
    "prefecture": "群馬県",
    "prefecture_kana": "グンマケン",
    "prefecture_code": 10,
    "city": "太田市",
    "city_kana": "オオタシ",
    "town": "新田小金井町",
    "town_kana": "ニッタコガナイチョウ",
    "street": null,
    "office_name": null,
    "office_name_kana": null
  },
  "0304": {
    "zip_code": "3700304",
    "prefecture": "群馬県",
    "prefecture_kana": "グンマケン",
    "prefecture_code": 10,
    "city": "太田市",
    "city_kana": "オオタシ",
    "town": "新田市町",
    "town_kana": "ニッタイチチョウ",
    "street": null,
    "office_name": null,
    "office_name_kana": null
  },
  "0305": {
    "zip_code": "3700305",
    "prefecture": "群馬県",
    "prefecture_kana": "グンマケン",
    "prefecture_code": 10,
    "city": "太田市",
    "city_kana": "オオタシ",
    "town": "新田多村新田町",
    "town_kana": "ニッタタムラシンデンチョウ",
    "street": null,
    "office_name": null,
    "office_name_kana": null
  },
  "0306": {
    "zip_code": "3700306",
    "prefecture": "群馬県",
    "prefecture_kana": "グンマケン",
    "prefecture_code": 10,
    "city": "太田市",
    "city_kana": "オオタシ",
    "town": "新田市野倉町",
    "town_kana": "ニッタイチノクラチョウ",
    "street": null,
    "office_name": null,
    "office_name_kana": null
  },
  "0311": {
    "zip_code": "3700311",
    "prefecture": "群馬県",
    "prefecture_kana": "グンマケン",
    "prefecture_code": 10,
    "city": "太田市",
    "city_kana": "オオタシ",
    "town": "新田瑞木町",
    "town_kana": "ニッタミズキチョウ",
    "street": null,
    "office_name": null,
    "office_name_kana": null
  },
  "0312": {
    "zip_code": "3700312",
    "prefecture": "群馬県",
    "prefecture_kana": "グンマケン",
    "prefecture_code": 10,
    "city": "太田市",
    "city_kana": "オオタシ",
    "town": "新田村田町",
    "town_kana": "ニッタムラタチョウ",
    "street": null,
    "office_name": null,
    "office_name_kana": null
  },
  "0313": {
    "zip_code": "3700313",
    "prefecture": "群馬県",
    "prefecture_kana": "グンマケン",
    "prefecture_code": 10,
    "city": "太田市",
    "city_kana": "オオタシ",
    "town": "新田反町町",
    "town_kana": "ニッタソリマチチョウ",
    "street": null,
    "office_name": null,
    "office_name_kana": null
  },
  "0314": {
    "zip_code": "3700314",
    "prefecture": "群馬県",
    "prefecture_kana": "グンマケン",
    "prefecture_code": 10,
    "city": "太田市",
    "city_kana": "オオタシ",
    "town": "新田市野井町",
    "town_kana": "ニッタイチノイチョウ",
    "street": null,
    "office_name": null,
    "office_name_kana": null
  },
  "0321": {
    "zip_code": "3700321",
    "prefecture": "群馬県",
    "prefecture_kana": "グンマケン",
    "prefecture_code": 10,
    "city": "太田市",
    "city_kana": "オオタシ",
    "town": "新田木崎町",
    "town_kana": "ニッタキザキチョウ",
    "street": null,
    "office_name": null,
    "office_name_kana": null
  },
  "0331": {
    "zip_code": "3700331",
    "prefecture": "群馬県",
    "prefecture_kana": "グンマケン",
    "prefecture_code": 10,
    "city": "太田市",
    "city_kana": "オオタシ",
    "town": "新田赤堀町",
    "town_kana": "ニッタアカボリチョウ",
    "street": null,
    "office_name": null,
    "office_name_kana": null
  },
  "0332": {
    "zip_code": "3700332",
    "prefecture": "群馬県",
    "prefecture_kana": "グンマケン",
    "prefecture_code": 10,
    "city": "太田市",
    "city_kana": "オオタシ",
    "town": "新田中江田町",
    "town_kana": "ニッタナカエダチョウ",
    "street": null,
    "office_name": null,
    "office_name_kana": null
  },
  "0333": {
    "zip_code": "3700333",
    "prefecture": "群馬県",
    "prefecture_kana": "グンマケン",
    "prefecture_code": 10,
    "city": "太田市",
    "city_kana": "オオタシ",
    "town": "新田下江田町",
    "town_kana": "ニッタシモエダチョウ",
    "street": null,
    "office_name": null,
    "office_name_kana": null
  },
  "0334": {
    "zip_code": "3700334",
    "prefecture": "群馬県",
    "prefecture_kana": "グンマケン",
    "prefecture_code": 10,
    "city": "太田市",
    "city_kana": "オオタシ",
    "town": "新田高尾町",
    "town_kana": "ニッタタカオチョウ",
    "street": null,
    "office_name": null,
    "office_name_kana": null
  },
  "0341": {
    "zip_code": "3700341",
    "prefecture": "群馬県",
    "prefecture_kana": "グンマケン",
    "prefecture_code": 10,
    "city": "太田市",
    "city_kana": "オオタシ",
    "town": "新田金井町",
    "town_kana": "ニッタカナイチョウ",
    "street": null,
    "office_name": null,
    "office_name_kana": null
  },
  "0342": {
    "zip_code": "3700342",
    "prefecture": "群馬県",
    "prefecture_kana": "グンマケン",
    "prefecture_code": 10,
    "city": "太田市",
    "city_kana": "オオタシ",
    "town": "新田上江田町",
    "town_kana": "ニッタカミエダチョウ",
    "street": null,
    "office_name": null,
    "office_name_kana": null
  },
  "0343": {
    "zip_code": "3700343",
    "prefecture": "群馬県",
    "prefecture_kana": "グンマケン",
    "prefecture_code": 10,
    "city": "太田市",
    "city_kana": "オオタシ",
    "town": "新田下田中町",
    "town_kana": "ニッタシモダナカチョウ",
    "street": null,
    "office_name": null,
    "office_name_kana": null
  },
  "0344": {
    "zip_code": "3700344",
    "prefecture": "群馬県",
    "prefecture_kana": "グンマケン",
    "prefecture_code": 10,
    "city": "太田市",
    "city_kana": "オオタシ",
    "town": "新田早川町",
    "town_kana": "ニッタハヤカワチョウ",
    "street": null,
    "office_name": null,
    "office_name_kana": null
  },
  "0345": {
    "zip_code": "3700345",
    "prefecture": "群馬県",
    "prefecture_kana": "グンマケン",
    "prefecture_code": 10,
    "city": "太田市",
    "city_kana": "オオタシ",
    "town": "新田花香塚町",
    "town_kana": "ニッタハナカヅカチョウ",
    "street": null,
    "office_name": null,
    "office_name_kana": null
  },
  "0346": {
    "zip_code": "3700346",
    "prefecture": "群馬県",
    "prefecture_kana": "グンマケン",
    "prefecture_code": 10,
    "city": "太田市",
    "city_kana": "オオタシ",
    "town": "新田上田中町",
    "town_kana": "ニッタカミダナカチョウ",
    "street": null,
    "office_name": null,
    "office_name_kana": null
  },
  "0347": {
    "zip_code": "3700347",
    "prefecture": "群馬県",
    "prefecture_kana": "グンマケン",
    "prefecture_code": 10,
    "city": "太田市",
    "city_kana": "オオタシ",
    "town": "新田大根町",
    "town_kana": "ニッタオオネチョウ",
    "street": null,
    "office_name": null,
    "office_name_kana": null
  },
  "0351": {
    "zip_code": "3700351",
    "prefecture": "群馬県",
    "prefecture_kana": "グンマケン",
    "prefecture_code": 10,
    "city": "太田市",
    "city_kana": "オオタシ",
    "town": "新田大町",
    "town_kana": "ニッタオオチョウ",
    "street": null,
    "office_name": null,
    "office_name_kana": null
  },
  "0352": {
    "zip_code": "3700352",
    "prefecture": "群馬県",
    "prefecture_kana": "グンマケン",
    "prefecture_code": 10,
    "city": "太田市",
    "city_kana": "オオタシ",
    "town": "新田嘉祢町",
    "town_kana": "ニッタカネチョウ",
    "street": null,
    "office_name": null,
    "office_name_kana": null
  },
  "0353": {
    "zip_code": "3700353",
    "prefecture": "群馬県",
    "prefecture_kana": "グンマケン",
    "prefecture_code": 10,
    "city": "太田市",
    "city_kana": "オオタシ",
    "town": "新田上中町",
    "town_kana": "ニッタカミナカチョウ",
    "street": null,
    "office_name": null,
    "office_name_kana": null
  },
  "0354": {
    "zip_code": "3700354",
    "prefecture": "群馬県",
    "prefecture_kana": "グンマケン",
    "prefecture_code": 10,
    "city": "太田市",
    "city_kana": "オオタシ",
    "town": "新田溜池町",
    "town_kana": "ニッタタメイケチョウ",
    "street": null,
    "office_name": null,
    "office_name_kana": null
  },
  "0355": {
    "zip_code": "3700355",
    "prefecture": "群馬県",
    "prefecture_kana": "グンマケン",
    "prefecture_code": 10,
    "city": "太田市",
    "city_kana": "オオタシ",
    "town": "新田権右衛門町",
    "town_kana": "ニッタゴンエモンチョウ",
    "street": null,
    "office_name": null,
    "office_name_kana": null
  },
  "0356": {
    "zip_code": "3700356",
    "prefecture": "群馬県",
    "prefecture_kana": "グンマケン",
    "prefecture_code": 10,
    "city": "太田市",
    "city_kana": "オオタシ",
    "town": "新田萩町",
    "town_kana": "ニッタハギチョウ",
    "street": null,
    "office_name": null,
    "office_name_kana": null
  },
  "0401": {
    "zip_code": "3700401",
    "prefecture": "群馬県",
    "prefecture_kana": "グンマケン",
    "prefecture_code": 10,
    "city": "太田市",
    "city_kana": "オオタシ",
    "town": "尾島町",
    "town_kana": "オジマチョウ",
    "street": null,
    "office_name": null,
    "office_name_kana": null
  },
  "0402": {
    "zip_code": "3700402",
    "prefecture": "群馬県",
    "prefecture_kana": "グンマケン",
    "prefecture_code": 10,
    "city": "太田市",
    "city_kana": "オオタシ",
    "town": "阿久津町",
    "town_kana": "アクツチョウ",
    "street": null,
    "office_name": null,
    "office_name_kana": null
  },
  "0403": {
    "zip_code": "3700403",
    "prefecture": "群馬県",
    "prefecture_kana": "グンマケン",
    "prefecture_code": 10,
    "city": "太田市",
    "city_kana": "オオタシ",
    "town": "岩松町",
    "town_kana": "イワマツチョウ",
    "street": null,
    "office_name": null,
    "office_name_kana": null
  },
  "0404": {
    "zip_code": "3700404",
    "prefecture": "群馬県",
    "prefecture_kana": "グンマケン",
    "prefecture_code": 10,
    "city": "太田市",
    "city_kana": "オオタシ",
    "town": "備前島町",
    "town_kana": "ビゼンジマチョウ",
    "street": null,
    "office_name": null,
    "office_name_kana": null
  },
  "0405": {
    "zip_code": "3700405",
    "prefecture": "群馬県",
    "prefecture_kana": "グンマケン",
    "prefecture_code": 10,
    "city": "太田市",
    "city_kana": "オオタシ",
    "town": "押切町",
    "town_kana": "オシキリチョウ",
    "street": null,
    "office_name": null,
    "office_name_kana": null
  },
  "0406": {
    "zip_code": "3700406",
    "prefecture": "群馬県",
    "prefecture_kana": "グンマケン",
    "prefecture_code": 10,
    "city": "太田市",
    "city_kana": "オオタシ",
    "town": "前小屋町",
    "town_kana": "マエゴヤチョウ",
    "street": null,
    "office_name": null,
    "office_name_kana": null
  },
  "0411": {
    "zip_code": "3700411",
    "prefecture": "群馬県",
    "prefecture_kana": "グンマケン",
    "prefecture_code": 10,
    "city": "太田市",
    "city_kana": "オオタシ",
    "town": "亀岡町",
    "town_kana": "カメオカチョウ",
    "street": null,
    "office_name": null,
    "office_name_kana": null
  },
  "0412": {
    "zip_code": "3700412",
    "prefecture": "群馬県",
    "prefecture_kana": "グンマケン",
    "prefecture_code": 10,
    "city": "太田市",
    "city_kana": "オオタシ",
    "town": "太子町",
    "town_kana": "タイシチョウ",
    "street": null,
    "office_name": null,
    "office_name_kana": null
  },
  "0413": {
    "zip_code": "3700413",
    "prefecture": "群馬県",
    "prefecture_kana": "グンマケン",
    "prefecture_code": 10,
    "city": "太田市",
    "city_kana": "オオタシ",
    "town": "すずかけ町",
    "town_kana": "スズカケチョウ",
    "street": null,
    "office_name": null,
    "office_name_kana": null
  },
  "0414": {
    "zip_code": "3700414",
    "prefecture": "群馬県",
    "prefecture_kana": "グンマケン",
    "prefecture_code": 10,
    "city": "太田市",
    "city_kana": "オオタシ",
    "town": "堀口町",
    "town_kana": "ホリグチチョウ",
    "street": null,
    "office_name": null,
    "office_name_kana": null
  },
  "0415": {
    "zip_code": "3700415",
    "prefecture": "群馬県",
    "prefecture_kana": "グンマケン",
    "prefecture_code": 10,
    "city": "太田市",
    "city_kana": "オオタシ",
    "town": "南ケ丘町",
    "town_kana": "ミナミガオカチョウ",
    "street": null,
    "office_name": null,
    "office_name_kana": null
  },
  "0416": {
    "zip_code": "3700416",
    "prefecture": "群馬県",
    "prefecture_kana": "グンマケン",
    "prefecture_code": 10,
    "city": "太田市",
    "city_kana": "オオタシ",
    "town": "前島町",
    "town_kana": "マエジマチョウ",
    "street": null,
    "office_name": null,
    "office_name_kana": null
  },
  "0417": {
    "zip_code": "3700417",
    "prefecture": "群馬県",
    "prefecture_kana": "グンマケン",
    "prefecture_code": 10,
    "city": "太田市",
    "city_kana": "オオタシ",
    "town": "二ツ小屋町",
    "town_kana": "フタツゴヤチョウ",
    "street": null,
    "office_name": null,
    "office_name_kana": null
  },
  "0418": {
    "zip_code": "3700418",
    "prefecture": "群馬県",
    "prefecture_kana": "グンマケン",
    "prefecture_code": 10,
    "city": "太田市",
    "city_kana": "オオタシ",
    "town": "武蔵島町",
    "town_kana": "ムサシジマチョウ",
    "street": null,
    "office_name": null,
    "office_name_kana": null
  },
  "0421": {
    "zip_code": "3700421",
    "prefecture": "群馬県",
    "prefecture_kana": "グンマケン",
    "prefecture_code": 10,
    "city": "太田市",
    "city_kana": "オオタシ",
    "town": "粕川町",
    "town_kana": "カスカワチョウ",
    "street": null,
    "office_name": null,
    "office_name_kana": null
  },
  "0422": {
    "zip_code": "3700422",
    "prefecture": "群馬県",
    "prefecture_kana": "グンマケン",
    "prefecture_code": 10,
    "city": "太田市",
    "city_kana": "オオタシ",
    "town": "安養寺町",
    "town_kana": "アンヨウジチョウ",
    "street": null,
    "office_name": null,
    "office_name_kana": null
  },
  "0423": {
    "zip_code": "3700423",
    "prefecture": "群馬県",
    "prefecture_kana": "グンマケン",
    "prefecture_code": 10,
    "city": "太田市",
    "city_kana": "オオタシ",
    "town": "大舘町",
    "town_kana": "オオタチチョウ",
    "street": null,
    "office_name": null,
    "office_name_kana": null
  },
  "0424": {
    "zip_code": "3700424",
    "prefecture": "群馬県",
    "prefecture_kana": "グンマケン",
    "prefecture_code": 10,
    "city": "太田市",
    "city_kana": "オオタシ",
    "town": "出塚町",
    "town_kana": "イデヅカチョウ",
    "street": null,
    "office_name": null,
    "office_name_kana": null
  },
  "0425": {
    "zip_code": "3700425",
    "prefecture": "群馬県",
    "prefecture_kana": "グンマケン",
    "prefecture_code": 10,
    "city": "太田市",
    "city_kana": "オオタシ",
    "town": "徳川町",
    "town_kana": "トクガワチョウ",
    "street": null,
    "office_name": null,
    "office_name_kana": null
  },
  "0426": {
    "zip_code": "3700426",
    "prefecture": "群馬県",
    "prefecture_kana": "グンマケン",
    "prefecture_code": 10,
    "city": "太田市",
    "city_kana": "オオタシ",
    "town": "世良田町",
    "town_kana": "セラダチョウ",
    "street": null,
    "office_name": null,
    "office_name_kana": null
  },
  "0427": {
    "zip_code": "3700427",
    "prefecture": "群馬県",
    "prefecture_kana": "グンマケン",
    "prefecture_code": 10,
    "city": "太田市",
    "city_kana": "オオタシ",
    "town": "小角田町",
    "town_kana": "コズミダチョウ",
    "street": null,
    "office_name": null,
    "office_name_kana": null
  },
  "0492": {
    "zip_code": "3700492",
    "prefecture": "群馬県",
    "prefecture_kana": "グンマケン",
    "prefecture_code": 10,
    "city": "太田市",
    "city_kana": "オオタシ",
    "town": "岩松町",
    "town_kana": "イワマツチョウ",
    "street": "８００番地",
    "office_name": "三菱電機　株式会社　群馬製作所",
    "office_name_kana": "ミツビシデンキ カブシキガイシヤ グンマセイサクジヨ"
  },
  "0495": {
    "zip_code": "3700495",
    "prefecture": "群馬県",
    "prefecture_kana": "グンマケン",
    "prefecture_code": 10,
    "city": "太田市",
    "city_kana": "オオタシ",
    "town": "粕川町",
    "town_kana": "カスカワチョウ",
    "street": "５２０",
    "office_name": "太田市尾島総合支所",
    "office_name_kana": "オオタシオジマソウゴウシシヨ"
  },
  "0500": [
    {
      "zip_code": "3700500",
      "prefecture": "群馬県",
      "prefecture_kana": "グンマケン",
      "prefecture_code": 10,
      "city": "邑楽郡千代田町",
      "city_kana": "オウラグンチヨダマチ",
      "town": "",
      "town_kana": "",
      "street": null,
      "office_name": null,
      "office_name_kana": null
    },
    {
      "zip_code": "3700500",
      "prefecture": "群馬県",
      "prefecture_kana": "グンマケン",
      "prefecture_code": 10,
      "city": "邑楽郡大泉町",
      "city_kana": "オウラグンオオイズミマチ",
      "town": "",
      "town_kana": "",
      "street": null,
      "office_name": null,
      "office_name_kana": null
    }
  ],
  "0501": {
    "zip_code": "3700501",
    "prefecture": "群馬県",
    "prefecture_kana": "グンマケン",
    "prefecture_code": 10,
    "city": "邑楽郡千代田町",
    "city_kana": "オウラグンチヨダマチ",
    "town": "福島",
    "town_kana": "フクジマ",
    "street": null,
    "office_name": null,
    "office_name_kana": null
  },
  "0502": {
    "zip_code": "3700502",
    "prefecture": "群馬県",
    "prefecture_kana": "グンマケン",
    "prefecture_code": 10,
    "city": "邑楽郡千代田町",
    "city_kana": "オウラグンチヨダマチ",
    "town": "鍋谷",
    "town_kana": "ナベヤ",
    "street": null,
    "office_name": null,
    "office_name_kana": null
  },
  "0503": {
    "zip_code": "3700503",
    "prefecture": "群馬県",
    "prefecture_kana": "グンマケン",
    "prefecture_code": 10,
    "city": "邑楽郡千代田町",
    "city_kana": "オウラグンチヨダマチ",
    "town": "赤岩",
    "town_kana": "アカイワ",
    "street": null,
    "office_name": null,
    "office_name_kana": null
  },
  "0504": {
    "zip_code": "3700504",
    "prefecture": "群馬県",
    "prefecture_kana": "グンマケン",
    "prefecture_code": 10,
    "city": "邑楽郡千代田町",
    "city_kana": "オウラグンチヨダマチ",
    "town": "舞木",
    "town_kana": "マイギ",
    "street": null,
    "office_name": null,
    "office_name_kana": null
  },
  "0505": {
    "zip_code": "3700505",
    "prefecture": "群馬県",
    "prefecture_kana": "グンマケン",
    "prefecture_code": 10,
    "city": "邑楽郡千代田町",
    "city_kana": "オウラグンチヨダマチ",
    "town": "新福寺",
    "town_kana": "シンプクジ",
    "street": null,
    "office_name": null,
    "office_name_kana": null
  },
  "0506": {
    "zip_code": "3700506",
    "prefecture": "群馬県",
    "prefecture_kana": "グンマケン",
    "prefecture_code": 10,
    "city": "邑楽郡千代田町",
    "city_kana": "オウラグンチヨダマチ",
    "town": "赤岩西",
    "town_kana": "アカイワニシ",
    "street": null,
    "office_name": null,
    "office_name_kana": null
  },
  "0507": {
    "zip_code": "3700507",
    "prefecture": "群馬県",
    "prefecture_kana": "グンマケン",
    "prefecture_code": 10,
    "city": "邑楽郡千代田町",
    "city_kana": "オウラグンチヨダマチ",
    "town": "舞木東",
    "town_kana": "マイギヒガシ",
    "street": null,
    "office_name": null,
    "office_name_kana": null
  },
  "0511": {
    "zip_code": "3700511",
    "prefecture": "群馬県",
    "prefecture_kana": "グンマケン",
    "prefecture_code": 10,
    "city": "邑楽郡大泉町",
    "city_kana": "オウラグンオオイズミマチ",
    "town": "北小泉",
    "town_kana": "キタコイズミ",
    "street": null,
    "office_name": null,
    "office_name_kana": null
  },
  "0512": {
    "zip_code": "3700512",
    "prefecture": "群馬県",
    "prefecture_kana": "グンマケン",
    "prefecture_code": 10,
    "city": "邑楽郡大泉町",
    "city_kana": "オウラグンオオイズミマチ",
    "town": "上小泉",
    "town_kana": "カミコイズミ",
    "street": null,
    "office_name": null,
    "office_name_kana": null
  },
  "0513": {
    "zip_code": "3700513",
    "prefecture": "群馬県",
    "prefecture_kana": "グンマケン",
    "prefecture_code": 10,
    "city": "邑楽郡大泉町",
    "city_kana": "オウラグンオオイズミマチ",
    "town": "東小泉",
    "town_kana": "ヒガシコイズミ",
    "street": null,
    "office_name": null,
    "office_name_kana": null
  },
  "0514": {
    "zip_code": "3700514",
    "prefecture": "群馬県",
    "prefecture_kana": "グンマケン",
    "prefecture_code": 10,
    "city": "邑楽郡大泉町",
    "city_kana": "オウラグンオオイズミマチ",
    "town": "朝日",
    "town_kana": "アサヒ",
    "street": null,
    "office_name": null,
    "office_name_kana": null
  },
  "0515": {
    "zip_code": "3700515",
    "prefecture": "群馬県",
    "prefecture_kana": "グンマケン",
    "prefecture_code": 10,
    "city": "邑楽郡大泉町",
    "city_kana": "オウラグンオオイズミマチ",
    "town": "下小泉",
    "town_kana": "シモコイズミ",
    "street": null,
    "office_name": null,
    "office_name_kana": null
  },
  "0516": {
    "zip_code": "3700516",
    "prefecture": "群馬県",
    "prefecture_kana": "グンマケン",
    "prefecture_code": 10,
    "city": "邑楽郡大泉町",
    "city_kana": "オウラグンオオイズミマチ",
    "town": "中央",
    "town_kana": "チュウオウ",
    "street": null,
    "office_name": null,
    "office_name_kana": null
  },
  "0517": {
    "zip_code": "3700517",
    "prefecture": "群馬県",
    "prefecture_kana": "グンマケン",
    "prefecture_code": 10,
    "city": "邑楽郡大泉町",
    "city_kana": "オウラグンオオイズミマチ",
    "town": "西小泉",
    "town_kana": "ニシコイズミ",
    "street": null,
    "office_name": null,
    "office_name_kana": null
  },
  "0518": {
    "zip_code": "3700518",
    "prefecture": "群馬県",
    "prefecture_kana": "グンマケン",
    "prefecture_code": 10,
    "city": "邑楽郡大泉町",
    "city_kana": "オウラグンオオイズミマチ",
    "town": "城之内",
    "town_kana": "シロノウチ",
    "street": null,
    "office_name": null,
    "office_name_kana": null
  },
  "0521": {
    "zip_code": "3700521",
    "prefecture": "群馬県",
    "prefecture_kana": "グンマケン",
    "prefecture_code": 10,
    "city": "邑楽郡大泉町",
    "city_kana": "オウラグンオオイズミマチ",
    "town": "住吉",
    "town_kana": "スミヨシ",
    "street": null,
    "office_name": null,
    "office_name_kana": null
  },
  "0522": {
    "zip_code": "3700522",
    "prefecture": "群馬県",
    "prefecture_kana": "グンマケン",
    "prefecture_code": 10,
    "city": "邑楽郡大泉町",
    "city_kana": "オウラグンオオイズミマチ",
    "town": "富士",
    "town_kana": "フジ",
    "street": null,
    "office_name": null,
    "office_name_kana": null
  },
  "0523": {
    "zip_code": "3700523",
    "prefecture": "群馬県",
    "prefecture_kana": "グンマケン",
    "prefecture_code": 10,
    "city": "邑楽郡大泉町",
    "city_kana": "オウラグンオオイズミマチ",
    "town": "吉田",
    "town_kana": "ヨシダ",
    "street": null,
    "office_name": null,
    "office_name_kana": null
  },
  "0524": {
    "zip_code": "3700524",
    "prefecture": "群馬県",
    "prefecture_kana": "グンマケン",
    "prefecture_code": 10,
    "city": "邑楽郡大泉町",
    "city_kana": "オウラグンオオイズミマチ",
    "town": "古海",
    "town_kana": "コカイ",
    "street": null,
    "office_name": null,
    "office_name_kana": null
  },
  "0525": {
    "zip_code": "3700525",
    "prefecture": "群馬県",
    "prefecture_kana": "グンマケン",
    "prefecture_code": 10,
    "city": "邑楽郡大泉町",
    "city_kana": "オウラグンオオイズミマチ",
    "town": "日の出",
    "town_kana": "ヒノデ",
    "street": null,
    "office_name": null,
    "office_name_kana": null
  },
  "0531": {
    "zip_code": "3700531",
    "prefecture": "群馬県",
    "prefecture_kana": "グンマケン",
    "prefecture_code": 10,
    "city": "邑楽郡大泉町",
    "city_kana": "オウラグンオオイズミマチ",
    "town": "いずみ",
    "town_kana": "イズミ",
    "street": null,
    "office_name": null,
    "office_name_kana": null
  },
  "0532": {
    "zip_code": "3700532",
    "prefecture": "群馬県",
    "prefecture_kana": "グンマケン",
    "prefecture_code": 10,
    "city": "邑楽郡大泉町",
    "city_kana": "オウラグンオオイズミマチ",
    "town": "坂田",
    "town_kana": "サカダ",
    "street": null,
    "office_name": null,
    "office_name_kana": null
  },
  "0533": {
    "zip_code": "3700533",
    "prefecture": "群馬県",
    "prefecture_kana": "グンマケン",
    "prefecture_code": 10,
    "city": "邑楽郡大泉町",
    "city_kana": "オウラグンオオイズミマチ",
    "town": "仙石",
    "town_kana": "センゴク",
    "street": null,
    "office_name": null,
    "office_name_kana": null
  },
  "0534": {
    "zip_code": "3700534",
    "prefecture": "群馬県",
    "prefecture_kana": "グンマケン",
    "prefecture_code": 10,
    "city": "邑楽郡大泉町",
    "city_kana": "オウラグンオオイズミマチ",
    "town": "丘山",
    "town_kana": "オカヤマ",
    "street": null,
    "office_name": null,
    "office_name_kana": null
  },
  "0535": {
    "zip_code": "3700535",
    "prefecture": "群馬県",
    "prefecture_kana": "グンマケン",
    "prefecture_code": 10,
    "city": "邑楽郡大泉町",
    "city_kana": "オウラグンオオイズミマチ",
    "town": "寄木戸",
    "town_kana": "ヨリキド",
    "street": null,
    "office_name": null,
    "office_name_kana": null
  },
  "0536": {
    "zip_code": "3700536",
    "prefecture": "群馬県",
    "prefecture_kana": "グンマケン",
    "prefecture_code": 10,
    "city": "邑楽郡大泉町",
    "city_kana": "オウラグンオオイズミマチ",
    "town": "古氷",
    "town_kana": "フルコオリ",
    "street": null,
    "office_name": null,
    "office_name_kana": null
  },
  "0595": {
    "zip_code": "3700595",
    "prefecture": "群馬県",
    "prefecture_kana": "グンマケン",
    "prefecture_code": 10,
    "city": "邑楽郡大泉町",
    "city_kana": "オウラグンオオイズミマチ",
    "town": "日の出",
    "town_kana": "ヒノデ",
    "street": "５５−１",
    "office_name": "大泉町役場",
    "office_name_kana": "オオイズミマチヤクバ"
  },
  "0596": {
    "zip_code": "3700596",
    "prefecture": "群馬県",
    "prefecture_kana": "グンマケン",
    "prefecture_code": 10,
    "city": "邑楽郡大泉町",
    "city_kana": "オウラグンオオイズミマチ",
    "town": "坂田",
    "town_kana": "サカダ",
    "street": "１丁目１−１（大泉郵便局私書箱第１号）",
    "office_name": "三洋電機　株式会社",
    "office_name_kana": "サンヨウデンキ カブシキガイシヤ"
  },
  "0598": {
    "zip_code": "3700598",
    "prefecture": "群馬県",
    "prefecture_kana": null,
    "prefecture_code": null,
    "city": "邑楽郡千代田町",
    "city_kana": null,
    "town": "大字赤岩",
    "town_kana": null,
    "street": "１８９５−１",
    "office_name": "千代田町役場",
    "office_name_kana": "チヨダマチヤクバ"
  },
  "0600": {
    "zip_code": "3700600",
    "prefecture": "群馬県",
    "prefecture_kana": "グンマケン",
    "prefecture_code": 10,
    "city": "邑楽郡邑楽町",
    "city_kana": "オウラグンオウラマチ",
    "town": "",
    "town_kana": "",
    "street": null,
    "office_name": null,
    "office_name_kana": null
  },
  "0601": {
    "zip_code": "3700601",
    "prefecture": "群馬県",
    "prefecture_kana": "グンマケン",
    "prefecture_code": 10,
    "city": "邑楽郡邑楽町",
    "city_kana": "オウラグンオウラマチ",
    "town": "鶉",
    "town_kana": "ウズラ",
    "street": null,
    "office_name": null,
    "office_name_kana": null
  },
  "0602": {
    "zip_code": "3700602",
    "prefecture": "群馬県",
    "prefecture_kana": "グンマケン",
    "prefecture_code": 10,
    "city": "邑楽郡邑楽町",
    "city_kana": "オウラグンオウラマチ",
    "town": "明野",
    "town_kana": "アケノ",
    "street": null,
    "office_name": null,
    "office_name_kana": null
  },
  "0603": {
    "zip_code": "3700603",
    "prefecture": "群馬県",
    "prefecture_kana": "グンマケン",
    "prefecture_code": 10,
    "city": "邑楽郡邑楽町",
    "city_kana": "オウラグンオウラマチ",
    "town": "中野",
    "town_kana": "ナカノ",
    "street": null,
    "office_name": null,
    "office_name_kana": null
  },
  "0604": {
    "zip_code": "3700604",
    "prefecture": "群馬県",
    "prefecture_kana": "グンマケン",
    "prefecture_code": 10,
    "city": "邑楽郡邑楽町",
    "city_kana": "オウラグンオウラマチ",
    "town": "石打",
    "town_kana": "イシウチ",
    "street": null,
    "office_name": null,
    "office_name_kana": null
  },
  "0605": {
    "zip_code": "3700605",
    "prefecture": "群馬県",
    "prefecture_kana": "グンマケン",
    "prefecture_code": 10,
    "city": "邑楽郡邑楽町",
    "city_kana": "オウラグンオウラマチ",
    "town": "藤川",
    "town_kana": "フジカワ",
    "street": null,
    "office_name": null,
    "office_name_kana": null
  },
  "0606": {
    "zip_code": "3700606",
    "prefecture": "群馬県",
    "prefecture_kana": "グンマケン",
    "prefecture_code": 10,
    "city": "邑楽郡邑楽町",
    "city_kana": "オウラグンオウラマチ",
    "town": "秋妻",
    "town_kana": "アキヅマ",
    "street": null,
    "office_name": null,
    "office_name_kana": null
  },
  "0611": {
    "zip_code": "3700611",
    "prefecture": "群馬県",
    "prefecture_kana": "グンマケン",
    "prefecture_code": 10,
    "city": "邑楽郡邑楽町",
    "city_kana": "オウラグンオウラマチ",
    "town": "鶉新田",
    "town_kana": "ウズラシンデン",
    "street": null,
    "office_name": null,
    "office_name_kana": null
  },
  "0612": {
    "zip_code": "3700612",
    "prefecture": "群馬県",
    "prefecture_kana": "グンマケン",
    "prefecture_code": 10,
    "city": "邑楽郡邑楽町",
    "city_kana": "オウラグンオウラマチ",
    "town": "新中野",
    "town_kana": "シンナカノ",
    "street": null,
    "office_name": null,
    "office_name_kana": null
  },
  "0613": {
    "zip_code": "3700613",
    "prefecture": "群馬県",
    "prefecture_kana": "グンマケン",
    "prefecture_code": 10,
    "city": "邑楽郡邑楽町",
    "city_kana": "オウラグンオウラマチ",
    "town": "狸塚",
    "town_kana": "ムジナヅカ",
    "street": null,
    "office_name": null,
    "office_name_kana": null
  },
  "0614": {
    "zip_code": "3700614",
    "prefecture": "群馬県",
    "prefecture_kana": "グンマケン",
    "prefecture_code": 10,
    "city": "邑楽郡邑楽町",
    "city_kana": "オウラグンオウラマチ",
    "town": "赤堀",
    "town_kana": "アカホリ",
    "street": null,
    "office_name": null,
    "office_name_kana": null
  },
  "0615": {
    "zip_code": "3700615",
    "prefecture": "群馬県",
    "prefecture_kana": "グンマケン",
    "prefecture_code": 10,
    "city": "邑楽郡邑楽町",
    "city_kana": "オウラグンオウラマチ",
    "town": "篠塚",
    "town_kana": "シノヅカ",
    "street": null,
    "office_name": null,
    "office_name_kana": null
  },
  "0616": {
    "zip_code": "3700616",
    "prefecture": "群馬県",
    "prefecture_kana": "グンマケン",
    "prefecture_code": 10,
    "city": "邑楽郡邑楽町",
    "city_kana": "オウラグンオウラマチ",
    "town": "光善寺",
    "town_kana": "コウゼンジ",
    "street": null,
    "office_name": null,
    "office_name_kana": null
  },
  "0692": {
    "zip_code": "3700692",
    "prefecture": "群馬県",
    "prefecture_kana": null,
    "prefecture_code": null,
    "city": "邑楽郡邑楽町",
    "city_kana": null,
    "town": "大字中野",
    "town_kana": null,
    "street": "２５７０−１",
    "office_name": "邑楽町役場",
    "office_name_kana": "オウラマチヤクバ"
  },
  "0700": {
    "zip_code": "3700700",
    "prefecture": "群馬県",
    "prefecture_kana": "グンマケン",
    "prefecture_code": 10,
    "city": "邑楽郡明和町",
    "city_kana": "オウラグンメイワマチ",
    "town": "",
    "town_kana": "",
    "street": null,
    "office_name": null,
    "office_name_kana": null
  },
  "0701": {
    "zip_code": "3700701",
    "prefecture": "群馬県",
    "prefecture_kana": "グンマケン",
    "prefecture_code": 10,
    "city": "邑楽郡明和町",
    "city_kana": "オウラグンメイワマチ",
    "town": "南大島",
    "town_kana": "ミナミオオシマ",
    "street": null,
    "office_name": null,
    "office_name_kana": null
  },
  "0702": {
    "zip_code": "3700702",
    "prefecture": "群馬県",
    "prefecture_kana": "グンマケン",
    "prefecture_code": 10,
    "city": "邑楽郡明和町",
    "city_kana": "オウラグンメイワマチ",
    "town": "上江黒",
    "town_kana": "カミエグロ",
    "street": null,
    "office_name": null,
    "office_name_kana": null
  },
  "0703": {
    "zip_code": "3700703",
    "prefecture": "群馬県",
    "prefecture_kana": "グンマケン",
    "prefecture_code": 10,
    "city": "邑楽郡明和町",
    "city_kana": "オウラグンメイワマチ",
    "town": "下江黒",
    "town_kana": "シモエグロ",
    "street": null,
    "office_name": null,
    "office_name_kana": null
  },
  "0704": {
    "zip_code": "3700704",
    "prefecture": "群馬県",
    "prefecture_kana": "グンマケン",
    "prefecture_code": 10,
    "city": "邑楽郡明和町",
    "city_kana": "オウラグンメイワマチ",
    "town": "斗合田",
    "town_kana": "トゴウタ",
    "street": null,
    "office_name": null,
    "office_name_kana": null
  },
  "0705": {
    "zip_code": "3700705",
    "prefecture": "群馬県",
    "prefecture_kana": "グンマケン",
    "prefecture_code": 10,
    "city": "邑楽郡明和町",
    "city_kana": "オウラグンメイワマチ",
    "town": "千津井",
    "town_kana": "センヅイ",
    "street": null,
    "office_name": null,
    "office_name_kana": null
  },
  "0706": {
    "zip_code": "3700706",
    "prefecture": "群馬県",
    "prefecture_kana": "グンマケン",
    "prefecture_code": 10,
    "city": "邑楽郡明和町",
    "city_kana": "オウラグンメイワマチ",
    "town": "江口",
    "town_kana": "エグチ",
    "street": null,
    "office_name": null,
    "office_name_kana": null
  },
  "0707": {
    "zip_code": "3700707",
    "prefecture": "群馬県",
    "prefecture_kana": "グンマケン",
    "prefecture_code": 10,
    "city": "邑楽郡明和町",
    "city_kana": "オウラグンメイワマチ",
    "town": "田島",
    "town_kana": "タジマ",
    "street": null,
    "office_name": null,
    "office_name_kana": null
  },
  "0708": {
    "zip_code": "3700708",
    "prefecture": "群馬県",
    "prefecture_kana": "グンマケン",
    "prefecture_code": 10,
    "city": "邑楽郡明和町",
    "city_kana": "オウラグンメイワマチ",
    "town": "新里",
    "town_kana": "ニッサト",
    "street": null,
    "office_name": null,
    "office_name_kana": null
  },
  "0711": {
    "zip_code": "3700711",
    "prefecture": "群馬県",
    "prefecture_kana": "グンマケン",
    "prefecture_code": 10,
    "city": "邑楽郡明和町",
    "city_kana": "オウラグンメイワマチ",
    "town": "入ケ谷",
    "town_kana": "イリカヤ",
    "street": null,
    "office_name": null,
    "office_name_kana": null
  },
  "0712": {
    "zip_code": "3700712",
    "prefecture": "群馬県",
    "prefecture_kana": "グンマケン",
    "prefecture_code": 10,
    "city": "邑楽郡明和町",
    "city_kana": "オウラグンメイワマチ",
    "town": "矢島",
    "town_kana": "ヤジマ",
    "street": null,
    "office_name": null,
    "office_name_kana": null
  },
  "0713": {
    "zip_code": "3700713",
    "prefecture": "群馬県",
    "prefecture_kana": "グンマケン",
    "prefecture_code": 10,
    "city": "邑楽郡明和町",
    "city_kana": "オウラグンメイワマチ",
    "town": "中谷",
    "town_kana": "ナカヤ",
    "street": null,
    "office_name": null,
    "office_name_kana": null
  },
  "0714": {
    "zip_code": "3700714",
    "prefecture": "群馬県",
    "prefecture_kana": "グンマケン",
    "prefecture_code": 10,
    "city": "邑楽郡明和町",
    "city_kana": "オウラグンメイワマチ",
    "town": "梅原",
    "town_kana": "ウメバラ",
    "street": null,
    "office_name": null,
    "office_name_kana": null
  },
  "0715": {
    "zip_code": "3700715",
    "prefecture": "群馬県",
    "prefecture_kana": "グンマケン",
    "prefecture_code": 10,
    "city": "邑楽郡明和町",
    "city_kana": "オウラグンメイワマチ",
    "town": "大佐貫",
    "town_kana": "オオザヌキ",
    "street": null,
    "office_name": null,
    "office_name_kana": null
  },
  "0716": {
    "zip_code": "3700716",
    "prefecture": "群馬県",
    "prefecture_kana": "グンマケン",
    "prefecture_code": 10,
    "city": "邑楽郡明和町",
    "city_kana": "オウラグンメイワマチ",
    "town": "川俣",
    "town_kana": "カワマタ",
    "street": null,
    "office_name": null,
    "office_name_kana": null
  },
  "0717": {
    "zip_code": "3700717",
    "prefecture": "群馬県",
    "prefecture_kana": "グンマケン",
    "prefecture_code": 10,
    "city": "邑楽郡明和町",
    "city_kana": "オウラグンメイワマチ",
    "town": "須賀",
    "town_kana": "スカ",
    "street": null,
    "office_name": null,
    "office_name_kana": null
  },
  "0718": {
    "zip_code": "3700718",
    "prefecture": "群馬県",
    "prefecture_kana": "グンマケン",
    "prefecture_code": 10,
    "city": "邑楽郡明和町",
    "city_kana": "オウラグンメイワマチ",
    "town": "大輪",
    "town_kana": "オオワ",
    "street": null,
    "office_name": null,
    "office_name_kana": null
  },
  "0721": {
    "zip_code": "3700721",
    "prefecture": "群馬県",
    "prefecture_kana": "グンマケン",
    "prefecture_code": 10,
    "city": "邑楽郡千代田町",
    "city_kana": "オウラグンチヨダマチ",
    "town": "木崎",
    "town_kana": "キザキ",
    "street": null,
    "office_name": null,
    "office_name_kana": null
  },
  "0722": {
    "zip_code": "3700722",
    "prefecture": "群馬県",
    "prefecture_kana": "グンマケン",
    "prefecture_code": 10,
    "city": "邑楽郡千代田町",
    "city_kana": "オウラグンチヨダマチ",
    "town": "萱野",
    "town_kana": "カヤノ",
    "street": null,
    "office_name": null,
    "office_name_kana": null
  },
  "0723": {
    "zip_code": "3700723",
    "prefecture": "群馬県",
    "prefecture_kana": "グンマケン",
    "prefecture_code": 10,
    "city": "邑楽郡千代田町",
    "city_kana": "オウラグンチヨダマチ",
    "town": "昭和",
    "town_kana": "ショウワ",
    "street": null,
    "office_name": null,
    "office_name_kana": null
  },
  "0724": {
    "zip_code": "3700724",
    "prefecture": "群馬県",
    "prefecture_kana": "グンマケン",
    "prefecture_code": 10,
    "city": "邑楽郡千代田町",
    "city_kana": "オウラグンチヨダマチ",
    "town": "下中森",
    "town_kana": "シモナカモリ",
    "street": null,
    "office_name": null,
    "office_name_kana": null
  },
  "0725": {
    "zip_code": "3700725",
    "prefecture": "群馬県",
    "prefecture_kana": "グンマケン",
    "prefecture_code": 10,
    "city": "邑楽郡千代田町",
    "city_kana": "オウラグンチヨダマチ",
    "town": "上中森",
    "town_kana": "カミナカモリ",
    "street": null,
    "office_name": null,
    "office_name_kana": null
  },
  "0726": {
    "zip_code": "3700726",
    "prefecture": "群馬県",
    "prefecture_kana": "グンマケン",
    "prefecture_code": 10,
    "city": "邑楽郡千代田町",
    "city_kana": "オウラグンチヨダマチ",
    "town": "上五箇",
    "town_kana": "カミゴカ",
    "street": null,
    "office_name": null,
    "office_name_kana": null
  },
  "0727": {
    "zip_code": "3700727",
    "prefecture": "群馬県",
    "prefecture_kana": "グンマケン",
    "prefecture_code": 10,
    "city": "邑楽郡千代田町",
    "city_kana": "オウラグンチヨダマチ",
    "town": "瀬戸井",
    "town_kana": "セドイ",
    "street": null,
    "office_name": null,
    "office_name_kana": null
  },
  "0795": {
    "zip_code": "3700795",
    "prefecture": "群馬県",
    "prefecture_kana": "グンマケン",
    "prefecture_code": 10,
    "city": "邑楽郡明和町",
    "city_kana": "オウラグンメイワマチ",
    "town": "新里",
    "town_kana": "ニッサト",
    "street": "２５０−１",
    "office_name": "明和町役場",
    "office_name_kana": "メイワマチヤクバ"
  },
  "0801": {
    "zip_code": "3700801",
    "prefecture": "群馬県",
    "prefecture_kana": "グンマケン",
    "prefecture_code": 10,
    "city": "高崎市",
    "city_kana": "タカサキシ",
    "town": "上並榎町",
    "town_kana": "カミナミエマチ",
    "street": null,
    "office_name": null,
    "office_name_kana": null
  },
  "0802": {
    "zip_code": "3700802",
    "prefecture": "群馬県",
    "prefecture_kana": "グンマケン",
    "prefecture_code": 10,
    "city": "高崎市",
    "city_kana": "タカサキシ",
    "town": "並榎町",
    "town_kana": "ナミエマチ",
    "street": null,
    "office_name": null,
    "office_name_kana": null
  },
  "0803": {
    "zip_code": "3700803",
    "prefecture": "群馬県",
    "prefecture_kana": "グンマケン",
    "prefecture_code": 10,
    "city": "高崎市",
    "city_kana": "タカサキシ",
    "town": "大橋町",
    "town_kana": "オオハシマチ",
    "street": null,
    "office_name": null,
    "office_name_kana": null
  },
  "0804": {
    "zip_code": "3700804",
    "prefecture": "群馬県",
    "prefecture_kana": "グンマケン",
    "prefecture_code": 10,
    "city": "高崎市",
    "city_kana": "タカサキシ",
    "town": "住吉町",
    "town_kana": "スミヨシチョウ",
    "street": null,
    "office_name": null,
    "office_name_kana": null
  },
  "0805": {
    "zip_code": "3700805",
    "prefecture": "群馬県",
    "prefecture_kana": "グンマケン",
    "prefecture_code": 10,
    "city": "高崎市",
    "city_kana": "タカサキシ",
    "town": "台町",
    "town_kana": "ダイマチ",
    "street": null,
    "office_name": null,
    "office_name_kana": null
  },
  "0806": {
    "zip_code": "3700806",
    "prefecture": "群馬県",
    "prefecture_kana": "グンマケン",
    "prefecture_code": 10,
    "city": "高崎市",
    "city_kana": "タカサキシ",
    "town": "上和田町",
    "town_kana": "カミワダマチ",
    "street": null,
    "office_name": null,
    "office_name_kana": null
  },
  "0807": {
    "zip_code": "3700807",
    "prefecture": "群馬県",
    "prefecture_kana": "グンマケン",
    "prefecture_code": 10,
    "city": "高崎市",
    "city_kana": "タカサキシ",
    "town": "歌川町",
    "town_kana": "ウタガワチョウ",
    "street": null,
    "office_name": null,
    "office_name_kana": null
  },
  "0811": {
    "zip_code": "3700811",
    "prefecture": "群馬県",
    "prefecture_kana": "グンマケン",
    "prefecture_code": 10,
    "city": "高崎市",
    "city_kana": "タカサキシ",
    "town": "相生町",
    "town_kana": "アイオイチョウ",
    "street": null,
    "office_name": null,
    "office_name_kana": null
  },
  "0812": {
    "zip_code": "3700812",
    "prefecture": "群馬県",
    "prefecture_kana": "グンマケン",
    "prefecture_code": 10,
    "city": "高崎市",
    "city_kana": "タカサキシ",
    "town": "成田町",
    "town_kana": "ナリタチョウ",
    "street": null,
    "office_name": null,
    "office_name_kana": null
  },
  "0813": {
    "zip_code": "3700813",
    "prefecture": "群馬県",
    "prefecture_kana": "グンマケン",
    "prefecture_code": 10,
    "city": "高崎市",
    "city_kana": "タカサキシ",
    "town": "本町",
    "town_kana": "モトマチ",
    "street": null,
    "office_name": null,
    "office_name_kana": null
  },
  "0814": {
    "zip_code": "3700814",
    "prefecture": "群馬県",
    "prefecture_kana": "グンマケン",
    "prefecture_code": 10,
    "city": "高崎市",
    "city_kana": "タカサキシ",
    "town": "嘉多町",
    "town_kana": "カタマチ",
    "street": null,
    "office_name": null,
    "office_name_kana": null
  },
  "0815": {
    "zip_code": "3700815",
    "prefecture": "群馬県",
    "prefecture_kana": "グンマケン",
    "prefecture_code": 10,
    "city": "高崎市",
    "city_kana": "タカサキシ",
    "town": "柳川町",
    "town_kana": "ヤナガワチョウ",
    "street": null,
    "office_name": null,
    "office_name_kana": null
  },
  "0816": {
    "zip_code": "3700816",
    "prefecture": "群馬県",
    "prefecture_kana": "グンマケン",
    "prefecture_code": 10,
    "city": "高崎市",
    "city_kana": "タカサキシ",
    "town": "常盤町",
    "town_kana": "トキワチョウ",
    "street": null,
    "office_name": null,
    "office_name_kana": null
  },
  "0817": {
    "zip_code": "3700817",
    "prefecture": "群馬県",
    "prefecture_kana": "グンマケン",
    "prefecture_code": 10,
    "city": "高崎市",
    "city_kana": "タカサキシ",
    "town": "堰代町",
    "town_kana": "セキシロチョウ",
    "street": null,
    "office_name": null,
    "office_name_kana": null
  },
  "0818": {
    "zip_code": "3700818",
    "prefecture": "群馬県",
    "prefecture_kana": "グンマケン",
    "prefecture_code": 10,
    "city": "高崎市",
    "city_kana": "タカサキシ",
    "town": "赤坂町",
    "town_kana": "アカサカマチ",
    "street": null,
    "office_name": null,
    "office_name_kana": null
  },
  "0819": {
    "zip_code": "3700819",
    "prefecture": "群馬県",
    "prefecture_kana": "グンマケン",
    "prefecture_code": 10,
    "city": "高崎市",
    "city_kana": "タカサキシ",
    "town": "四ツ屋町",
    "town_kana": "ヨツヤマチ",
    "street": null,
    "office_name": null,
    "office_name_kana": null
  },
  "0821": {
    "zip_code": "3700821",
    "prefecture": "群馬県",
    "prefecture_kana": "グンマケン",
    "prefecture_code": 10,
    "city": "高崎市",
    "city_kana": "タカサキシ",
    "town": "新紺屋町",
    "town_kana": "シンコンヤマチ",
    "street": null,
    "office_name": null,
    "office_name_kana": null
  },
  "0822": {
    "zip_code": "3700822",
    "prefecture": "群馬県",
    "prefecture_kana": "グンマケン",
    "prefecture_code": 10,
    "city": "高崎市",
    "city_kana": "タカサキシ",
    "town": "寄合町",
    "town_kana": "ヨリアイチョウ",
    "street": null,
    "office_name": null,
    "office_name_kana": null
  },
  "0823": {
    "zip_code": "3700823",
    "prefecture": "群馬県",
    "prefecture_kana": "グンマケン",
    "prefecture_code": 10,
    "city": "高崎市",
    "city_kana": "タカサキシ",
    "town": "中紺屋町",
    "town_kana": "ナカコンヤマチ",
    "street": null,
    "office_name": null,
    "office_name_kana": null
  },
  "0824": {
    "zip_code": "3700824",
    "prefecture": "群馬県",
    "prefecture_kana": "グンマケン",
    "prefecture_code": 10,
    "city": "高崎市",
    "city_kana": "タカサキシ",
    "town": "田町",
    "town_kana": "タマチ",
    "street": null,
    "office_name": null,
    "office_name_kana": null
  },
  "0825": {
    "zip_code": "3700825",
    "prefecture": "群馬県",
    "prefecture_kana": "グンマケン",
    "prefecture_code": 10,
    "city": "高崎市",
    "city_kana": "タカサキシ",
    "town": "白銀町",
    "town_kana": "シロガネチョウ",
    "street": null,
    "office_name": null,
    "office_name_kana": null
  },
  "0826": {
    "zip_code": "3700826",
    "prefecture": "群馬県",
    "prefecture_kana": "グンマケン",
    "prefecture_code": 10,
    "city": "高崎市",
    "city_kana": "タカサキシ",
    "town": "連雀町",
    "town_kana": "レンジャクチョウ",
    "street": null,
    "office_name": null,
    "office_name_kana": null
  },
  "0827": {
    "zip_code": "3700827",
    "prefecture": "群馬県",
    "prefecture_kana": "グンマケン",
    "prefecture_code": 10,
    "city": "高崎市",
    "city_kana": "タカサキシ",
    "town": "鞘町",
    "town_kana": "サヤチョウ",
    "street": null,
    "office_name": null,
    "office_name_kana": null
  },
  "0828": {
    "zip_code": "3700828",
    "prefecture": "群馬県",
    "prefecture_kana": "グンマケン",
    "prefecture_code": 10,
    "city": "高崎市",
    "city_kana": "タカサキシ",
    "town": "宮元町",
    "town_kana": "ミヤモトチョウ",
    "street": null,
    "office_name": null,
    "office_name_kana": null
  },
  "0829": {
    "zip_code": "3700829",
    "prefecture": "群馬県",
    "prefecture_kana": "グンマケン",
    "prefecture_code": 10,
    "city": "高崎市",
    "city_kana": "タカサキシ",
    "town": "高松町",
    "town_kana": "タカマツチョウ",
    "street": null,
    "office_name": null,
    "office_name_kana": null
  },
  "0831": {
    "zip_code": "3700831",
    "prefecture": "群馬県",
    "prefecture_kana": "グンマケン",
    "prefecture_code": 10,
    "city": "高崎市",
    "city_kana": "タカサキシ",
    "town": "あら町",
    "town_kana": "アラマチ",
    "street": null,
    "office_name": null,
    "office_name_kana": null
  },
  "0832": {
    "zip_code": "3700832",
    "prefecture": "群馬県",
    "prefecture_kana": "グンマケン",
    "prefecture_code": 10,
    "city": "高崎市",
    "city_kana": "タカサキシ",
    "town": "砂賀町",
    "town_kana": "スナガチョウ",
    "street": null,
    "office_name": null,
    "office_name_kana": null
  },
  "0833": {
    "zip_code": "3700833",
    "prefecture": "群馬県",
    "prefecture_kana": "グンマケン",
    "prefecture_code": 10,
    "city": "高崎市",
    "city_kana": "タカサキシ",
    "town": "新田町",
    "town_kana": "シンデンマチ",
    "street": null,
    "office_name": null,
    "office_name_kana": null
  },
  "0834": {
    "zip_code": "3700834",
    "prefecture": "群馬県",
    "prefecture_kana": "グンマケン",
    "prefecture_code": 10,
    "city": "高崎市",
    "city_kana": "タカサキシ",
    "town": "南町",
    "town_kana": "ミナミチョウ",
    "street": null,
    "office_name": null,
    "office_name_kana": null
  },
  "0835": {
    "zip_code": "3700835",
    "prefecture": "群馬県",
    "prefecture_kana": "グンマケン",
    "prefecture_code": 10,
    "city": "高崎市",
    "city_kana": "タカサキシ",
    "town": "竜見町",
    "town_kana": "タツミチョウ",
    "street": null,
    "office_name": null,
    "office_name_kana": null
  },
  "0836": {
    "zip_code": "3700836",
    "prefecture": "群馬県",
    "prefecture_kana": "グンマケン",
    "prefecture_code": 10,
    "city": "高崎市",
    "city_kana": "タカサキシ",
    "town": "若松町",
    "town_kana": "ワカマツチョウ",
    "street": null,
    "office_name": null,
    "office_name_kana": null
  },
  "0837": {
    "zip_code": "3700837",
    "prefecture": "群馬県",
    "prefecture_kana": "グンマケン",
    "prefecture_code": 10,
    "city": "高崎市",
    "city_kana": "タカサキシ",
    "town": "下横町",
    "town_kana": "シモヨコチョウ",
    "street": null,
    "office_name": null,
    "office_name_kana": null
  },
  "0838": {
    "zip_code": "3700838",
    "prefecture": "群馬県",
    "prefecture_kana": "グンマケン",
    "prefecture_code": 10,
    "city": "高崎市",
    "city_kana": "タカサキシ",
    "town": "鍛冶町",
    "town_kana": "カジチョウ",
    "street": null,
    "office_name": null,
    "office_name_kana": null
  },
  "0839": {
    "zip_code": "3700839",
    "prefecture": "群馬県",
    "prefecture_kana": "グンマケン",
    "prefecture_code": 10,
    "city": "高崎市",
    "city_kana": "タカサキシ",
    "town": "檜物町",
    "town_kana": "ヒモノチョウ",
    "street": null,
    "office_name": null,
    "office_name_kana": null
  },
  "0841": {
    "zip_code": "3700841",
    "prefecture": "群馬県",
    "prefecture_kana": "グンマケン",
    "prefecture_code": 10,
    "city": "高崎市",
    "city_kana": "タカサキシ",
    "town": "栄町",
    "town_kana": "サカエチョウ",
    "street": null,
    "office_name": null,
    "office_name_kana": null
  },
  "0842": {
    "zip_code": "3700842",
    "prefecture": "群馬県",
    "prefecture_kana": "グンマケン",
    "prefecture_code": 10,
    "city": "高崎市",
    "city_kana": "タカサキシ",
    "town": "北双葉町",
    "town_kana": "キタフタバチョウ",
    "street": null,
    "office_name": null,
    "office_name_kana": null
  },
  "0843": {
    "zip_code": "3700843",
    "prefecture": "群馬県",
    "prefecture_kana": "グンマケン",
    "prefecture_code": 10,
    "city": "高崎市",
    "city_kana": "タカサキシ",
    "town": "双葉町",
    "town_kana": "フタバチョウ",
    "street": null,
    "office_name": null,
    "office_name_kana": null
  },
  "0844": {
    "zip_code": "3700844",
    "prefecture": "群馬県",
    "prefecture_kana": "グンマケン",
    "prefecture_code": 10,
    "city": "高崎市",
    "city_kana": "タカサキシ",
    "town": "和田多中町",
    "town_kana": "ワダタナカマチ",
    "street": null,
    "office_name": null,
    "office_name_kana": null
  },
  "0845": {
    "zip_code": "3700845",
    "prefecture": "群馬県",
    "prefecture_kana": "グンマケン",
    "prefecture_code": 10,
    "city": "高崎市",
    "city_kana": "タカサキシ",
    "town": "新後閑町",
    "town_kana": "シゴカマチ",
    "street": null,
    "office_name": null,
    "office_name_kana": null
  },
  "0846": {
    "zip_code": "3700846",
    "prefecture": "群馬県",
    "prefecture_kana": "グンマケン",
    "prefecture_code": 10,
    "city": "高崎市",
    "city_kana": "タカサキシ",
    "town": "下和田町",
    "town_kana": "シモワダマチ",
    "street": null,
    "office_name": null,
    "office_name_kana": null
  },
  "0847": {
    "zip_code": "3700847",
    "prefecture": "群馬県",
    "prefecture_kana": "グンマケン",
    "prefecture_code": 10,
    "city": "高崎市",
    "city_kana": "タカサキシ",
    "town": "和田町",
    "town_kana": "ワダマチ",
    "street": null,
    "office_name": null,
    "office_name_kana": null
  },
  "0848": {
    "zip_code": "3700848",
    "prefecture": "群馬県",
    "prefecture_kana": "グンマケン",
    "prefecture_code": 10,
    "city": "高崎市",
    "city_kana": "タカサキシ",
    "town": "鶴見町",
    "town_kana": "ツルミチョウ",
    "street": null,
    "office_name": null,
    "office_name_kana": null
  },
  "0849": {
    "zip_code": "3700849",
    "prefecture": "群馬県",
    "prefecture_kana": "グンマケン",
    "prefecture_code": 10,
    "city": "高崎市",
    "city_kana": "タカサキシ",
    "town": "八島町",
    "town_kana": "ヤシマチョウ",
    "street": null,
    "office_name": null,
    "office_name_kana": null
  },
  "0851": {
    "zip_code": "3700851",
    "prefecture": "群馬県",
    "prefecture_kana": "グンマケン",
    "prefecture_code": 10,
    "city": "高崎市",
    "city_kana": "タカサキシ",
    "town": "上中居町",
    "town_kana": "カミナカイマチ",
    "street": null,
    "office_name": null,
    "office_name_kana": null
  },
  "0852": {
    "zip_code": "3700852",
    "prefecture": "群馬県",
    "prefecture_kana": "グンマケン",
    "prefecture_code": 10,
    "city": "高崎市",
    "city_kana": "タカサキシ",
    "town": "中居町",
    "town_kana": "ナカイマチ",
    "street": null,
    "office_name": null,
    "office_name_kana": null
  },
  "0853": {
    "zip_code": "3700853",
    "prefecture": "群馬県",
    "prefecture_kana": "グンマケン",
    "prefecture_code": 10,
    "city": "高崎市",
    "city_kana": "タカサキシ",
    "town": "下中居町",
    "town_kana": "シモナカイマチ",
    "street": null,
    "office_name": null,
    "office_name_kana": null
  },
  "0854": {
    "zip_code": "3700854",
    "prefecture": "群馬県",
    "prefecture_kana": "グンマケン",
    "prefecture_code": 10,
    "city": "高崎市",
    "city_kana": "タカサキシ",
    "town": "下之城町",
    "town_kana": "シモノジョウマチ",
    "street": null,
    "office_name": null,
    "office_name_kana": null
  },
  "0855": {
    "zip_code": "3700855",
    "prefecture": "群馬県",
    "prefecture_kana": "グンマケン",
    "prefecture_code": 10,
    "city": "高崎市",
    "city_kana": "タカサキシ",
    "town": "下佐野町",
    "town_kana": "シモサノマチ",
    "street": null,
    "office_name": null,
    "office_name_kana": null
  },
  "0856": {
    "zip_code": "3700856",
    "prefecture": "群馬県",
    "prefecture_kana": "グンマケン",
    "prefecture_code": 10,
    "city": "高崎市",
    "city_kana": "タカサキシ",
    "town": "佐野窪町",
    "town_kana": "サノクボマチ",
    "street": null,
    "office_name": null,
    "office_name_kana": null
  },
  "0857": {
    "zip_code": "3700857",
    "prefecture": "群馬県",
    "prefecture_kana": "グンマケン",
    "prefecture_code": 10,
    "city": "高崎市",
    "city_kana": "タカサキシ",
    "town": "上佐野町",
    "town_kana": "カミサノマチ",
    "street": null,
    "office_name": null,
    "office_name_kana": null
  },
  "0861": {
    "zip_code": "3700861",
    "prefecture": "群馬県",
    "prefecture_kana": "グンマケン",
    "prefecture_code": 10,
    "city": "高崎市",
    "city_kana": "タカサキシ",
    "town": "八千代町",
    "town_kana": "ヤチヨマチ",
    "street": null,
    "office_name": null,
    "office_name_kana": null
  },
  "0862": {
    "zip_code": "3700862",
    "prefecture": "群馬県",
    "prefecture_kana": "グンマケン",
    "prefecture_code": 10,
    "city": "高崎市",
    "city_kana": "タカサキシ",
    "town": "片岡町",
    "town_kana": "カタオカマチ",
    "street": null,
    "office_name": null,
    "office_name_kana": null
  },
  "0863": {
    "zip_code": "3700863",
    "prefecture": "群馬県",
    "prefecture_kana": "グンマケン",
    "prefecture_code": 10,
    "city": "高崎市",
    "city_kana": "タカサキシ",
    "town": "聖石町",
    "town_kana": "ヒジリイシマチ",
    "street": null,
    "office_name": null,
    "office_name_kana": null
  },
  "0864": {
    "zip_code": "3700864",
    "prefecture": "群馬県",
    "prefecture_kana": "グンマケン",
    "prefecture_code": 10,
    "city": "高崎市",
    "city_kana": "タカサキシ",
    "town": "石原町",
    "town_kana": "イシハラマチ",
    "street": null,
    "office_name": null,
    "office_name_kana": null
  },
  "0865": {
    "zip_code": "3700865",
    "prefecture": "群馬県",
    "prefecture_kana": "グンマケン",
    "prefecture_code": 10,
    "city": "高崎市",
    "city_kana": "タカサキシ",
    "town": "寺尾町",
    "town_kana": "テラオマチ",
    "street": null,
    "office_name": null,
    "office_name_kana": null
  },
  "0866": {
    "zip_code": "3700866",
    "prefecture": "群馬県",
    "prefecture_kana": "グンマケン",
    "prefecture_code": 10,
    "city": "高崎市",
    "city_kana": "タカサキシ",
    "town": "城山町",
    "town_kana": "シロヤママチ",
    "street": null,
    "office_name": null,
    "office_name_kana": null
  },
  "0867": {
    "zip_code": "3700867",
    "prefecture": "群馬県",
    "prefecture_kana": "グンマケン",
    "prefecture_code": 10,
    "city": "高崎市",
    "city_kana": "タカサキシ",
    "town": "乗附町",
    "town_kana": "ノツケマチ",
    "street": null,
    "office_name": null,
    "office_name_kana": null
  },
  "0868": {
    "zip_code": "3700868",
    "prefecture": "群馬県",
    "prefecture_kana": "グンマケン",
    "prefecture_code": 10,
    "city": "高崎市",
    "city_kana": "タカサキシ",
    "town": "鼻高町",
    "town_kana": "ハナダカマチ",
    "street": null,
    "office_name": null,
    "office_name_kana": null
  },
  "0871": {
    "zip_code": "3700871",
    "prefecture": "群馬県",
    "prefecture_kana": "グンマケン",
    "prefecture_code": 10,
    "city": "高崎市",
    "city_kana": "タカサキシ",
    "town": "上豊岡町",
    "town_kana": "カミトヨオカマチ",
    "street": null,
    "office_name": null,
    "office_name_kana": null
  },
  "0872": {
    "zip_code": "3700872",
    "prefecture": "群馬県",
    "prefecture_kana": "グンマケン",
    "prefecture_code": 10,
    "city": "高崎市",
    "city_kana": "タカサキシ",
    "town": "北久保町",
    "town_kana": "キタクボマチ",
    "street": null,
    "office_name": null,
    "office_name_kana": null
  },
  "0873": {
    "zip_code": "3700873",
    "prefecture": "群馬県",
    "prefecture_kana": "グンマケン",
    "prefecture_code": 10,
    "city": "高崎市",
    "city_kana": "タカサキシ",
    "town": "下豊岡町",
    "town_kana": "シモトヨオカマチ",
    "street": null,
    "office_name": null,
    "office_name_kana": null
  },
  "0874": {
    "zip_code": "3700874",
    "prefecture": "群馬県",
    "prefecture_kana": "グンマケン",
    "prefecture_code": 10,
    "city": "高崎市",
    "city_kana": "タカサキシ",
    "town": "中豊岡町",
    "town_kana": "ナカトヨオカマチ",
    "street": null,
    "office_name": null,
    "office_name_kana": null
  },
  "0875": {
    "zip_code": "3700875",
    "prefecture": "群馬県",
    "prefecture_kana": "グンマケン",
    "prefecture_code": 10,
    "city": "高崎市",
    "city_kana": "タカサキシ",
    "town": "藤塚町",
    "town_kana": "フジヅカマチ",
    "street": null,
    "office_name": null,
    "office_name_kana": null
  },
  "0881": {
    "zip_code": "3700881",
    "prefecture": "群馬県",
    "prefecture_kana": "グンマケン",
    "prefecture_code": 10,
    "city": "高崎市",
    "city_kana": "タカサキシ",
    "town": "町屋町",
    "town_kana": "マチヤマチ",
    "street": null,
    "office_name": null,
    "office_name_kana": null
  },
  "0882": {
    "zip_code": "3700882",
    "prefecture": "群馬県",
    "prefecture_kana": "グンマケン",
    "prefecture_code": 10,
    "city": "高崎市",
    "city_kana": "タカサキシ",
    "town": "金井淵町",
    "town_kana": "カナイブチマチ",
    "street": null,
    "office_name": null,
    "office_name_kana": null
  },
  "0883": {
    "zip_code": "3700883",
    "prefecture": "群馬県",
    "prefecture_kana": "グンマケン",
    "prefecture_code": 10,
    "city": "高崎市",
    "city_kana": "タカサキシ",
    "town": "剣崎町",
    "town_kana": "ケンザキマチ",
    "street": null,
    "office_name": null,
    "office_name_kana": null
  },
  "0884": {
    "zip_code": "3700884",
    "prefecture": "群馬県",
    "prefecture_kana": "グンマケン",
    "prefecture_code": 10,
    "city": "高崎市",
    "city_kana": "タカサキシ",
    "town": "八幡町",
    "town_kana": "ヤワタマチ",
    "street": null,
    "office_name": null,
    "office_name_kana": null
  },
  "0885": {
    "zip_code": "3700885",
    "prefecture": "群馬県",
    "prefecture_kana": "グンマケン",
    "prefecture_code": 10,
    "city": "高崎市",
    "city_kana": "タカサキシ",
    "town": "若田町",
    "town_kana": "ワカタマチ",
    "street": null,
    "office_name": null,
    "office_name_kana": null
  },
  "0886": {
    "zip_code": "3700886",
    "prefecture": "群馬県",
    "prefecture_kana": "グンマケン",
    "prefecture_code": 10,
    "city": "高崎市",
    "city_kana": "タカサキシ",
    "town": "下大島町",
    "town_kana": "シモオオシママチ",
    "street": null,
    "office_name": null,
    "office_name_kana": null
  },
  "1100": {
    "zip_code": "3701100",
    "prefecture": "群馬県",
    "prefecture_kana": "グンマケン",
    "prefecture_code": 10,
    "city": "佐波郡玉村町",
    "city_kana": "サワグンタマムラマチ",
    "town": "",
    "town_kana": "",
    "street": null,
    "office_name": null,
    "office_name_kana": null
  },
  "1101": {
    "zip_code": "3701101",
    "prefecture": "群馬県",
    "prefecture_kana": "グンマケン",
    "prefecture_code": 10,
    "city": "佐波郡玉村町",
    "city_kana": "サワグンタマムラマチ",
    "town": "藤川",
    "town_kana": "フジカワ",
    "street": null,
    "office_name": null,
    "office_name_kana": null
  },
  "1102": {
    "zip_code": "3701102",
    "prefecture": "群馬県",
    "prefecture_kana": "グンマケン",
    "prefecture_code": 10,
    "city": "佐波郡玉村町",
    "city_kana": "サワグンタマムラマチ",
    "town": "飯塚",
    "town_kana": "イイヅカ",
    "street": null,
    "office_name": null,
    "office_name_kana": null
  },
  "1103": {
    "zip_code": "3701103",
    "prefecture": "群馬県",
    "prefecture_kana": "グンマケン",
    "prefecture_code": 10,
    "city": "佐波郡玉村町",
    "city_kana": "サワグンタマムラマチ",
    "town": "樋越",
    "town_kana": "ヒゴシ",
    "street": null,
    "office_name": null,
    "office_name_kana": null
  },
  "1104": {
    "zip_code": "3701104",
    "prefecture": "群馬県",
    "prefecture_kana": "グンマケン",
    "prefecture_code": 10,
    "city": "佐波郡玉村町",
    "city_kana": "サワグンタマムラマチ",
    "town": "上福島",
    "town_kana": "カミフクシマ",
    "street": null,
    "office_name": null,
    "office_name_kana": null
  },
  "1105": {
    "zip_code": "3701105",
    "prefecture": "群馬県",
    "prefecture_kana": "グンマケン",
    "prefecture_code": 10,
    "city": "佐波郡玉村町",
    "city_kana": "サワグンタマムラマチ",
    "town": "福島",
    "town_kana": "フクジマ",
    "street": null,
    "office_name": null,
    "office_name_kana": null
  },
  "1111": {
    "zip_code": "3701111",
    "prefecture": "群馬県",
    "prefecture_kana": "グンマケン",
    "prefecture_code": 10,
    "city": "佐波郡玉村町",
    "city_kana": "サワグンタマムラマチ",
    "town": "南玉",
    "town_kana": "ナンギョク",
    "street": null,
    "office_name": null,
    "office_name_kana": null
  },
  "1112": {
    "zip_code": "3701112",
    "prefecture": "群馬県",
    "prefecture_kana": "グンマケン",
    "prefecture_code": 10,
    "city": "佐波郡玉村町",
    "city_kana": "サワグンタマムラマチ",
    "town": "下之宮",
    "town_kana": "シモノミヤ",
    "street": null,
    "office_name": null,
    "office_name_kana": null
  },
  "1113": {
    "zip_code": "3701113",
    "prefecture": "群馬県",
    "prefecture_kana": "グンマケン",
    "prefecture_code": 10,
    "city": "佐波郡玉村町",
    "city_kana": "サワグンタマムラマチ",
    "town": "箱石",
    "town_kana": "ハコイシ",
    "street": null,
    "office_name": null,
    "office_name_kana": null
  },
  "1114": {
    "zip_code": "3701114",
    "prefecture": "群馬県",
    "prefecture_kana": "グンマケン",
    "prefecture_code": 10,
    "city": "佐波郡玉村町",
    "city_kana": "サワグンタマムラマチ",
    "town": "小泉",
    "town_kana": "コイズミ",
    "street": null,
    "office_name": null,
    "office_name_kana": null
  },
  "1115": {
    "zip_code": "3701115",
    "prefecture": "群馬県",
    "prefecture_kana": "グンマケン",
    "prefecture_code": 10,
    "city": "佐波郡玉村町",
    "city_kana": "サワグンタマムラマチ",
    "town": "五料",
    "town_kana": "ゴリョウ",
    "street": null,
    "office_name": null,
    "office_name_kana": null
  },
  "1116": {
    "zip_code": "3701116",
    "prefecture": "群馬県",
    "prefecture_kana": "グンマケン",
    "prefecture_code": 10,
    "city": "佐波郡玉村町",
    "city_kana": "サワグンタマムラマチ",
    "town": "飯倉",
    "town_kana": "イイグラ",
    "street": null,
    "office_name": null,
    "office_name_kana": null
  },
  "1117": {
    "zip_code": "3701117",
    "prefecture": "群馬県",
    "prefecture_kana": "グンマケン",
    "prefecture_code": 10,
    "city": "佐波郡玉村町",
    "city_kana": "サワグンタマムラマチ",
    "town": "川井",
    "town_kana": "カワイ",
    "street": null,
    "office_name": null,
    "office_name_kana": null
  },
  "1121": {
    "zip_code": "3701121",
    "prefecture": "群馬県",
    "prefecture_kana": "グンマケン",
    "prefecture_code": 10,
    "city": "佐波郡玉村町",
    "city_kana": "サワグンタマムラマチ",
    "town": "上飯島",
    "town_kana": "カミイイジマ",
    "street": null,
    "office_name": null,
    "office_name_kana": null
  },
  "1122": {
    "zip_code": "3701122",
    "prefecture": "群馬県",
    "prefecture_kana": "グンマケン",
    "prefecture_code": 10,
    "city": "佐波郡玉村町",
    "city_kana": "サワグンタマムラマチ",
    "town": "上茂木",
    "town_kana": "カミモギ",
    "street": null,
    "office_name": null,
    "office_name_kana": null
  },
  "1123": {
    "zip_code": "3701123",
    "prefecture": "群馬県",
    "prefecture_kana": "グンマケン",
    "prefecture_code": 10,
    "city": "佐波郡玉村町",
    "city_kana": "サワグンタマムラマチ",
    "town": "下茂木",
    "town_kana": "シモモギ",
    "street": null,
    "office_name": null,
    "office_name_kana": null
  },
  "1124": {
    "zip_code": "3701124",
    "prefecture": "群馬県",
    "prefecture_kana": "グンマケン",
    "prefecture_code": 10,
    "city": "佐波郡玉村町",
    "city_kana": "サワグンタマムラマチ",
    "town": "角渕",
    "town_kana": "ツノブチ",
    "street": null,
    "office_name": null,
    "office_name_kana": null
  },
  "1125": {
    "zip_code": "3701125",
    "prefecture": "群馬県",
    "prefecture_kana": "グンマケン",
    "prefecture_code": 10,
    "city": "佐波郡玉村町",
    "city_kana": "サワグンタマムラマチ",
    "town": "八幡原",
    "town_kana": "ヤワタバラ",
    "street": null,
    "office_name": null,
    "office_name_kana": null
  },
  "1126": {
    "zip_code": "3701126",
    "prefecture": "群馬県",
    "prefecture_kana": "グンマケン",
    "prefecture_code": 10,
    "city": "佐波郡玉村町",
    "city_kana": "サワグンタマムラマチ",
    "town": "宇貫",
    "town_kana": "ウヌキ",
    "street": null,
    "office_name": null,
    "office_name_kana": null
  },
  "1127": {
    "zip_code": "3701127",
    "prefecture": "群馬県",
    "prefecture_kana": "グンマケン",
    "prefecture_code": 10,
    "city": "佐波郡玉村町",
    "city_kana": "サワグンタマムラマチ",
    "town": "上之手",
    "town_kana": "カミノテ",
    "street": null,
    "office_name": null,
    "office_name_kana": null
  },
  "1128": {
    "zip_code": "3701128",
    "prefecture": "群馬県",
    "prefecture_kana": "グンマケン",
    "prefecture_code": 10,
    "city": "佐波郡玉村町",
    "city_kana": "サワグンタマムラマチ",
    "town": "後箇",
    "town_kana": "ゴカ",
    "street": null,
    "office_name": null,
    "office_name_kana": null
  },
  "1131": {
    "zip_code": "3701131",
    "prefecture": "群馬県",
    "prefecture_kana": "グンマケン",
    "prefecture_code": 10,
    "city": "佐波郡玉村町",
    "city_kana": "サワグンタマムラマチ",
    "town": "斎田",
    "town_kana": "サイダ",
    "street": null,
    "office_name": null,
    "office_name_kana": null
  },
  "1132": {
    "zip_code": "3701132",
    "prefecture": "群馬県",
    "prefecture_kana": "グンマケン",
    "prefecture_code": 10,
    "city": "佐波郡玉村町",
    "city_kana": "サワグンタマムラマチ",
    "town": "下新田",
    "town_kana": "シモシンデン",
    "street": null,
    "office_name": null,
    "office_name_kana": null
  },
  "1133": {
    "zip_code": "3701133",
    "prefecture": "群馬県",
    "prefecture_kana": "グンマケン",
    "prefecture_code": 10,
    "city": "佐波郡玉村町",
    "city_kana": "サワグンタマムラマチ",
    "town": "上新田",
    "town_kana": "カミシンデン",
    "street": null,
    "office_name": null,
    "office_name_kana": null
  },
  "1134": {
    "zip_code": "3701134",
    "prefecture": "群馬県",
    "prefecture_kana": "グンマケン",
    "prefecture_code": 10,
    "city": "佐波郡玉村町",
    "city_kana": "サワグンタマムラマチ",
    "town": "与六分",
    "town_kana": "ヨロクブ",
    "street": null,
    "office_name": null,
    "office_name_kana": null
  },
  "1135": {
    "zip_code": "3701135",
    "prefecture": "群馬県",
    "prefecture_kana": "グンマケン",
    "prefecture_code": 10,
    "city": "佐波郡玉村町",
    "city_kana": "サワグンタマムラマチ",
    "town": "板井",
    "town_kana": "イタイ",
    "street": null,
    "office_name": null,
    "office_name_kana": null
  },
  "1192": {
    "zip_code": "3701192",
    "prefecture": "群馬県",
    "prefecture_kana": null,
    "prefecture_code": null,
    "city": "佐波郡玉村町",
    "city_kana": null,
    "town": "大字下新田",
    "town_kana": null,
    "street": "２０１",
    "office_name": "玉村町役場",
    "office_name_kana": "タマムラマチヤクバ"
  },
  "1193": {
    "zip_code": "3701193",
    "prefecture": "群馬県",
    "prefecture_kana": null,
    "prefecture_code": null,
    "city": "佐波郡玉村町",
    "city_kana": null,
    "town": "大字上之手",
    "town_kana": null,
    "street": "１３９５−１",
    "office_name": "群馬県立女子大学",
    "office_name_kana": "グンマケンリツジヨシダイガク"
  },
  "1195": {
    "zip_code": "3701195",
    "prefecture": "群馬県",
    "prefecture_kana": null,
    "prefecture_code": null,
    "city": "佐波郡玉村町",
    "city_kana": null,
    "town": "大字川井",
    "town_kana": null,
    "street": "２２",
    "office_name": "王子チヨダコンテナー　株式会社　高崎工場",
    "office_name_kana": "オウジチヨダコンテナ- カブシキガイシヤ タカサキコウジヨウ"
  },
  "1196": {
    "zip_code": "3701196",
    "prefecture": "群馬県",
    "prefecture_kana": null,
    "prefecture_code": null,
    "city": "佐波郡玉村町",
    "city_kana": null,
    "town": "大字川井",
    "town_kana": null,
    "street": "１７９６−１",
    "office_name": "太陽誘電　（株）　玉村工場",
    "office_name_kana": "タイヨウユウデン (カブ) タマムラコウジヨウ"
  },
  "1201": {
    "zip_code": "3701201",
    "prefecture": "群馬県",
    "prefecture_kana": "グンマケン",
    "prefecture_code": 10,
    "city": "高崎市",
    "city_kana": "タカサキシ",
    "town": "倉賀野町",
    "town_kana": "クラガノマチ",
    "street": null,
    "office_name": null,
    "office_name_kana": null
  },
  "1202": {
    "zip_code": "3701202",
    "prefecture": "群馬県",
    "prefecture_kana": "グンマケン",
    "prefecture_code": 10,
    "city": "高崎市",
    "city_kana": "タカサキシ",
    "town": "宮原町",
    "town_kana": "ミヤハラマチ",
    "street": null,
    "office_name": null,
    "office_name_kana": null
  },
  "1203": {
    "zip_code": "3701203",
    "prefecture": "群馬県",
    "prefecture_kana": "グンマケン",
    "prefecture_code": 10,
    "city": "高崎市",
    "city_kana": "タカサキシ",
    "town": "矢中町",
    "town_kana": "ヤナカマチ",
    "street": null,
    "office_name": null,
    "office_name_kana": null
  },
  "1204": {
    "zip_code": "3701204",
    "prefecture": "群馬県",
    "prefecture_kana": "グンマケン",
    "prefecture_code": 10,
    "city": "高崎市",
    "city_kana": "タカサキシ",
    "town": "東中里町",
    "town_kana": "ヒガシナカサトマチ",
    "street": null,
    "office_name": null,
    "office_name_kana": null
  },
  "1205": {
    "zip_code": "3701205",
    "prefecture": "群馬県",
    "prefecture_kana": "グンマケン",
    "prefecture_code": 10,
    "city": "高崎市",
    "city_kana": "タカサキシ",
    "town": "栗崎町",
    "town_kana": "クリザキマチ",
    "street": null,
    "office_name": null,
    "office_name_kana": null
  },
  "1206": {
    "zip_code": "3701206",
    "prefecture": "群馬県",
    "prefecture_kana": "グンマケン",
    "prefecture_code": 10,
    "city": "高崎市",
    "city_kana": "タカサキシ",
    "town": "台新田町",
    "town_kana": "ダイシンデンマチ",
    "street": null,
    "office_name": null,
    "office_name_kana": null
  },
  "1207": {
    "zip_code": "3701207",
    "prefecture": "群馬県",
    "prefecture_kana": "グンマケン",
    "prefecture_code": 10,
    "city": "高崎市",
    "city_kana": "タカサキシ",
    "town": "綿貫町",
    "town_kana": "ワタヌキマチ",
    "street": null,
    "office_name": null,
    "office_name_kana": null
  },
  "1208": {
    "zip_code": "3701208",
    "prefecture": "群馬県",
    "prefecture_kana": "グンマケン",
    "prefecture_code": 10,
    "city": "高崎市",
    "city_kana": "タカサキシ",
    "town": "岩鼻町",
    "town_kana": "イワハナマチ",
    "street": null,
    "office_name": null,
    "office_name_kana": null
  },
  "1211": {
    "zip_code": "3701211",
    "prefecture": "群馬県",
    "prefecture_kana": "グンマケン",
    "prefecture_code": 10,
    "city": "高崎市",
    "city_kana": "タカサキシ",
    "town": "阿久津町",
    "town_kana": "アクツマチ",
    "street": null,
    "office_name": null,
    "office_name_kana": null
  },
  "1212": {
    "zip_code": "3701212",
    "prefecture": "群馬県",
    "prefecture_kana": "グンマケン",
    "prefecture_code": 10,
    "city": "高崎市",
    "city_kana": "タカサキシ",
    "town": "木部町",
    "town_kana": "キベマチ",
    "street": null,
    "office_name": null,
    "office_name_kana": null
  },
  "1213": {
    "zip_code": "3701213",
    "prefecture": "群馬県",
    "prefecture_kana": "グンマケン",
    "prefecture_code": 10,
    "city": "高崎市",
    "city_kana": "タカサキシ",
    "town": "山名町",
    "town_kana": "ヤマナマチ",
    "street": null,
    "office_name": null,
    "office_name_kana": null
  },
  "1214": {
    "zip_code": "3701214",
    "prefecture": "群馬県",
    "prefecture_kana": "グンマケン",
    "prefecture_code": 10,
    "city": "高崎市",
    "city_kana": "タカサキシ",
    "town": "根小屋町",
    "town_kana": "ネゴヤマチ",
    "street": null,
    "office_name": null,
    "office_name_kana": null
  },
  "1292": {
    "zip_code": "3701292",
    "prefecture": "群馬県",
    "prefecture_kana": "グンマケン",
    "prefecture_code": 10,
    "city": "高崎市",
    "city_kana": "タカサキシ",
    "town": "綿貫町",
    "town_kana": "ワタヌキマチ",
    "street": "１２３３",
    "office_name": "（独）　日本原子力研究開発機構　高崎量子応用研究所",
    "office_name_kana": "(ドク) ニホンゲンシリヨクケンキユウカイハツキコウ タカサキリヨウシオウヨウケンキユウシヨ"
  },
  "1293": {
    "zip_code": "3701293",
    "prefecture": "群馬県",
    "prefecture_kana": "グンマケン",
    "prefecture_code": 10,
    "city": "高崎市",
    "city_kana": "タカサキシ",
    "town": "綿貫町",
    "town_kana": "ワタヌキマチ",
    "street": "９９２番地１",
    "office_name": "群馬県立　近代美術館",
    "office_name_kana": "グンマケンリツ キンダイビジユツカン"
  },
  "1301": {
    "zip_code": "3701301",
    "prefecture": "群馬県",
    "prefecture_kana": "グンマケン",
    "prefecture_code": 10,
    "city": "高崎市",
    "city_kana": "タカサキシ",
    "town": "新町",
    "town_kana": "シンマチ",
    "street": null,
    "office_name": null,
    "office_name_kana": null
  },
  "1392": {
    "zip_code": "3701392",
    "prefecture": "群馬県",
    "prefecture_kana": "グンマケン",
    "prefecture_code": 10,
    "city": "高崎市",
    "city_kana": "タカサキシ",
    "town": "新町",
    "town_kana": "シンマチ",
    "street": "３１５２",
    "office_name": "高崎市　新町支所",
    "office_name_kana": "タカサキシ シンマチシシヨ"
  },
  "1393": {
    "zip_code": "3701393",
    "prefecture": "群馬県",
    "prefecture_kana": "グンマケン",
    "prefecture_code": 10,
    "city": "高崎市",
    "city_kana": "タカサキシ",
    "town": "新町",
    "town_kana": "シンマチ",
    "street": "２７０−１",
    "office_name": "学校法人　学文館法人本部　上武大学",
    "office_name_kana": "ガツコウホウジン ガクブンカンホウジンホンブ ジヨウブダイガク"
  },
  "1394": {
    "zip_code": "3701394",
    "prefecture": "群馬県",
    "prefecture_kana": "グンマケン",
    "prefecture_code": 10,
    "city": "高崎市",
    "city_kana": "タカサキシ",
    "town": "新町",
    "town_kana": "シンマチ",
    "street": "１０８０",
    "office_name": "陸上自衛隊　新町駐屯地",
    "office_name_kana": "リクジヨウジエイタイ シンマチチユウトンチ"
  },
  "1395": {
    "zip_code": "3701395",
    "prefecture": "群馬県",
    "prefecture_kana": "グンマケン",
    "prefecture_code": 10,
    "city": "高崎市",
    "city_kana": "タカサキシ",
    "town": "新町",
    "town_kana": "シンマチ",
    "street": "２３３０",
    "office_name": "カネボウフーズ　株式会社　新町工場",
    "office_name_kana": "カネボウフ-ズ カブシキガイシヤ シンマチコウジヨウ"
  },
  "1396": {
    "zip_code": "3701396",
    "prefecture": "群馬県",
    "prefecture_kana": "グンマケン",
    "prefecture_code": 10,
    "city": "高崎市",
    "city_kana": "タカサキシ",
    "town": "新町",
    "town_kana": "シンマチ",
    "street": "２３３０−２６",
    "office_name": "加ト吉水産　株式会社　フーズ部　群馬工場",
    "office_name_kana": "カトキチスイサン カブシキガイシヤ フ-ズブ グンマコウジヨウ"
  },
  "1401": {
    "zip_code": "3701401",
    "prefecture": "群馬県",
    "prefecture_kana": "グンマケン",
    "prefecture_code": 10,
    "city": "藤岡市",
    "city_kana": "フジオカシ",
    "town": "鬼石",
    "town_kana": "オニシ",
    "street": null,
    "office_name": null,
    "office_name_kana": null
  },
  "1402": {
    "zip_code": "3701402",
    "prefecture": "群馬県",
    "prefecture_kana": "グンマケン",
    "prefecture_code": 10,
    "city": "藤岡市",
    "city_kana": "フジオカシ",
    "town": "譲原",
    "town_kana": "ユズリハラ",
    "street": null,
    "office_name": null,
    "office_name_kana": null
  },
  "1403": {
    "zip_code": "3701403",
    "prefecture": "群馬県",
    "prefecture_kana": "グンマケン",
    "prefecture_code": 10,
    "city": "藤岡市",
    "city_kana": "フジオカシ",
    "town": "保美濃山",
    "town_kana": "ホミノヤマ",
    "street": null,
    "office_name": null,
    "office_name_kana": null
  },
  "1404": {
    "zip_code": "3701404",
    "prefecture": "群馬県",
    "prefecture_kana": "グンマケン",
    "prefecture_code": 10,
    "city": "藤岡市",
    "city_kana": "フジオカシ",
    "town": "坂原",
    "town_kana": "サカハラ",
    "street": null,
    "office_name": null,
    "office_name_kana": null
  },
  "1405": {
    "zip_code": "3701405",
    "prefecture": "群馬県",
    "prefecture_kana": "グンマケン",
    "prefecture_code": 10,
    "city": "藤岡市",
    "city_kana": "フジオカシ",
    "town": "三波川",
    "town_kana": "サンバガワ",
    "street": null,
    "office_name": null,
    "office_name_kana": null
  },
  "1406": {
    "zip_code": "3701406",
    "prefecture": "群馬県",
    "prefecture_kana": "グンマケン",
    "prefecture_code": 10,
    "city": "藤岡市",
    "city_kana": "フジオカシ",
    "town": "浄法寺",
    "town_kana": "ジョウボウジ",
    "street": null,
    "office_name": null,
    "office_name_kana": null
  },
  "1501": {
    "zip_code": "3701501",
    "prefecture": "群馬県",
    "prefecture_kana": "グンマケン",
    "prefecture_code": 10,
    "city": "多野郡神流町",
    "city_kana": "タノグンカンナマチ",
    "town": "柏木",
    "town_kana": "カシワギ",
    "street": null,
    "office_name": null,
    "office_name_kana": null
  },
  "1502": {
    "zip_code": "3701502",
    "prefecture": "群馬県",
    "prefecture_kana": "グンマケン",
    "prefecture_code": 10,
    "city": "多野郡神流町",
    "city_kana": "タノグンカンナマチ",
    "town": "麻生",
    "town_kana": "アソウ",
    "street": null,
    "office_name": null,
    "office_name_kana": null
  },
  "1503": {
    "zip_code": "3701503",
    "prefecture": "群馬県",
    "prefecture_kana": "グンマケン",
    "prefecture_code": 10,
    "city": "多野郡神流町",
    "city_kana": "タノグンカンナマチ",
    "town": "生利",
    "town_kana": "ショウリ",
    "street": null,
    "office_name": null,
    "office_name_kana": null
  },
  "1504": {
    "zip_code": "3701504",
    "prefecture": "群馬県",
    "prefecture_kana": "グンマケン",
    "prefecture_code": 10,
    "city": "多野郡神流町",
    "city_kana": "タノグンカンナマチ",
    "town": "万場",
    "town_kana": "マンバ",
    "street": null,
    "office_name": null,
    "office_name_kana": null
  },
  "1505": {
    "zip_code": "3701505",
    "prefecture": "群馬県",
    "prefecture_kana": "グンマケン",
    "prefecture_code": 10,
    "city": "多野郡神流町",
    "city_kana": "タノグンカンナマチ",
    "town": "森戸",
    "town_kana": "モリド",
    "street": null,
    "office_name": null,
    "office_name_kana": null
  },
  "1506": {
    "zip_code": "3701506",
    "prefecture": "群馬県",
    "prefecture_kana": "グンマケン",
    "prefecture_code": 10,
    "city": "多野郡神流町",
    "city_kana": "タノグンカンナマチ",
    "town": "黒田",
    "town_kana": "クロダ",
    "street": null,
    "office_name": null,
    "office_name_kana": null
  },
  "1511": {
    "zip_code": "3701511",
    "prefecture": "群馬県",
    "prefecture_kana": "グンマケン",
    "prefecture_code": 10,
    "city": "多野郡神流町",
    "city_kana": "タノグンカンナマチ",
    "town": "相原",
    "town_kana": "アイバラ",
    "street": null,
    "office_name": null,
    "office_name_kana": null
  },
  "1512": {
    "zip_code": "3701512",
    "prefecture": "群馬県",
    "prefecture_kana": "グンマケン",
    "prefecture_code": 10,
    "city": "多野郡神流町",
    "city_kana": "タノグンカンナマチ",
    "town": "青梨",
    "town_kana": "アオナシ",
    "street": null,
    "office_name": null,
    "office_name_kana": null
  },
  "1513": {
    "zip_code": "3701513",
    "prefecture": "群馬県",
    "prefecture_kana": "グンマケン",
    "prefecture_code": 10,
    "city": "多野郡神流町",
    "city_kana": "タノグンカンナマチ",
    "town": "小平",
    "town_kana": "コダイラ",
    "street": null,
    "office_name": null,
    "office_name_kana": null
  },
  "1514": {
    "zip_code": "3701514",
    "prefecture": "群馬県",
    "prefecture_kana": "グンマケン",
    "prefecture_code": 10,
    "city": "多野郡神流町",
    "city_kana": "タノグンカンナマチ",
    "town": "塩沢",
    "town_kana": "シオザワ",
    "street": null,
    "office_name": null,
    "office_name_kana": null
  },
  "1515": {
    "zip_code": "3701515",
    "prefecture": "群馬県",
    "prefecture_kana": "グンマケン",
    "prefecture_code": 10,
    "city": "多野郡神流町",
    "city_kana": "タノグンカンナマチ",
    "town": "船子",
    "town_kana": "フナコ",
    "street": null,
    "office_name": null,
    "office_name_kana": null
  },
  "1592": {
    "zip_code": "3701592",
    "prefecture": "群馬県",
    "prefecture_kana": null,
    "prefecture_code": null,
    "city": "多野郡神流町",
    "city_kana": null,
    "town": "大字万場",
    "town_kana": null,
    "street": "９０−６",
    "office_name": "神流町役場",
    "office_name_kana": "カンナマチヤクバ"
  },
  "1600": [
    {
      "zip_code": "3701600",
      "prefecture": "群馬県",
      "prefecture_kana": "グンマケン",
      "prefecture_code": 10,
      "city": "多野郡上野村",
      "city_kana": "タノグンウエノムラ",
      "town": "",
      "town_kana": "",
      "street": null,
      "office_name": null,
      "office_name_kana": null
    },
    {
      "zip_code": "3701600",
      "prefecture": "群馬県",
      "prefecture_kana": "グンマケン",
      "prefecture_code": 10,
      "city": "多野郡神流町",
      "city_kana": "タノグンカンナマチ",
      "town": "",
      "town_kana": "",
      "street": null,
      "office_name": null,
      "office_name_kana": null
    }
  ],
  "1601": {
    "zip_code": "3701601",
    "prefecture": "群馬県",
    "prefecture_kana": "グンマケン",
    "prefecture_code": 10,
    "city": "多野郡神流町",
    "city_kana": "タノグンカンナマチ",
    "town": "魚尾",
    "town_kana": "ヨノオ",
    "street": null,
    "office_name": null,
    "office_name_kana": null
  },
  "1602": {
    "zip_code": "3701602",
    "prefecture": "群馬県",
    "prefecture_kana": "グンマケン",
    "prefecture_code": 10,
    "city": "多野郡神流町",
    "city_kana": "タノグンカンナマチ",
    "town": "神ケ原",
    "town_kana": "カガハラ",
    "street": null,
    "office_name": null,
    "office_name_kana": null
  },
  "1603": {
    "zip_code": "3701603",
    "prefecture": "群馬県",
    "prefecture_kana": "グンマケン",
    "prefecture_code": 10,
    "city": "多野郡神流町",
    "city_kana": "タノグンカンナマチ",
    "town": "平原",
    "town_kana": "ヘバラ",
    "street": null,
    "office_name": null,
    "office_name_kana": null
  },
  "1604": {
    "zip_code": "3701604",
    "prefecture": "群馬県",
    "prefecture_kana": "グンマケン",
    "prefecture_code": 10,
    "city": "多野郡神流町",
    "city_kana": "タノグンカンナマチ",
    "town": "尾附",
    "town_kana": "オヅク",
    "street": null,
    "office_name": null,
    "office_name_kana": null
  },
  "1611": {
    "zip_code": "3701611",
    "prefecture": "群馬県",
    "prefecture_kana": "グンマケン",
    "prefecture_code": 10,
    "city": "多野郡上野村",
    "city_kana": "タノグンウエノムラ",
    "town": "新羽",
    "town_kana": "ニッパ",
    "street": null,
    "office_name": null,
    "office_name_kana": null
  },
  "1612": {
    "zip_code": "3701612",
    "prefecture": "群馬県",
    "prefecture_kana": "グンマケン",
    "prefecture_code": 10,
    "city": "多野郡上野村",
    "city_kana": "タノグンウエノムラ",
    "town": "野栗沢",
    "town_kana": "ノグリサワ",
    "street": null,
    "office_name": null,
    "office_name_kana": null
  },
  "1613": {
    "zip_code": "3701613",
    "prefecture": "群馬県",
    "prefecture_kana": "グンマケン",
    "prefecture_code": 10,
    "city": "多野郡上野村",
    "city_kana": "タノグンウエノムラ",
    "town": "勝山",
    "town_kana": "カツヤマ",
    "street": null,
    "office_name": null,
    "office_name_kana": null
  },
  "1614": {
    "zip_code": "3701614",
    "prefecture": "群馬県",
    "prefecture_kana": "グンマケン",
    "prefecture_code": 10,
    "city": "多野郡上野村",
    "city_kana": "タノグンウエノムラ",
    "town": "川和",
    "town_kana": "カワワ",
    "street": null,
    "office_name": null,
    "office_name_kana": null
  },
  "1615": {
    "zip_code": "3701615",
    "prefecture": "群馬県",
    "prefecture_kana": "グンマケン",
    "prefecture_code": 10,
    "city": "多野郡上野村",
    "city_kana": "タノグンウエノムラ",
    "town": "乙母",
    "town_kana": "オトモ",
    "street": null,
    "office_name": null,
    "office_name_kana": null
  },
  "1616": {
    "zip_code": "3701616",
    "prefecture": "群馬県",
    "prefecture_kana": "グンマケン",
    "prefecture_code": 10,
    "city": "多野郡上野村",
    "city_kana": "タノグンウエノムラ",
    "town": "乙父",
    "town_kana": "オッチ",
    "street": null,
    "office_name": null,
    "office_name_kana": null
  },
  "1617": {
    "zip_code": "3701617",
    "prefecture": "群馬県",
    "prefecture_kana": "グンマケン",
    "prefecture_code": 10,
    "city": "多野郡上野村",
    "city_kana": "タノグンウエノムラ",
    "town": "楢原",
    "town_kana": "ナラハラ",
    "street": null,
    "office_name": null,
    "office_name_kana": null
  },
  "2101": {
    "zip_code": "3702101",
    "prefecture": "群馬県",
    "prefecture_kana": "グンマケン",
    "prefecture_code": 10,
    "city": "高崎市",
    "city_kana": "タカサキシ",
    "town": "吉井町南陽台",
    "town_kana": "ヨシイマチナンヨウダイ",
    "street": null,
    "office_name": null,
    "office_name_kana": null
  },
  "2102": {
    "zip_code": "3702102",
    "prefecture": "群馬県",
    "prefecture_kana": "グンマケン",
    "prefecture_code": 10,
    "city": "高崎市",
    "city_kana": "タカサキシ",
    "town": "吉井町小暮",
    "town_kana": "ヨシイマチコグレ",
    "street": null,
    "office_name": null,
    "office_name_kana": null
  },
  "2103": {
    "zip_code": "3702103",
    "prefecture": "群馬県",
    "prefecture_kana": "グンマケン",
    "prefecture_code": 10,
    "city": "高崎市",
    "city_kana": "タカサキシ",
    "town": "吉井町岩井",
    "town_kana": "ヨシイマチイワイ",
    "street": null,
    "office_name": null,
    "office_name_kana": null
  },
  "2104": {
    "zip_code": "3702104",
    "prefecture": "群馬県",
    "prefecture_kana": "グンマケン",
    "prefecture_code": 10,
    "city": "高崎市",
    "city_kana": "タカサキシ",
    "town": "吉井町馬庭",
    "town_kana": "ヨシイマチマニワ",
    "street": null,
    "office_name": null,
    "office_name_kana": null
  },
  "2105": {
    "zip_code": "3702105",
    "prefecture": "群馬県",
    "prefecture_kana": "グンマケン",
    "prefecture_code": 10,
    "city": "高崎市",
    "city_kana": "タカサキシ",
    "town": "吉井町中島",
    "town_kana": "ヨシイマチナカジマ",
    "street": null,
    "office_name": null,
    "office_name_kana": null
  },
  "2106": {
    "zip_code": "3702106",
    "prefecture": "群馬県",
    "prefecture_kana": "グンマケン",
    "prefecture_code": 10,
    "city": "高崎市",
    "city_kana": "タカサキシ",
    "town": "吉井町矢田",
    "town_kana": "ヨシイマチヤタ",
    "street": null,
    "office_name": null,
    "office_name_kana": null
  },
  "2107": {
    "zip_code": "3702107",
    "prefecture": "群馬県",
    "prefecture_kana": "グンマケン",
    "prefecture_code": 10,
    "city": "高崎市",
    "city_kana": "タカサキシ",
    "town": "吉井町池",
    "town_kana": "ヨシイマチイケ",
    "street": null,
    "office_name": null,
    "office_name_kana": null
  },
  "2111": {
    "zip_code": "3702111",
    "prefecture": "群馬県",
    "prefecture_kana": "グンマケン",
    "prefecture_code": 10,
    "city": "高崎市",
    "city_kana": "タカサキシ",
    "town": "吉井町小串",
    "town_kana": "ヨシイマチオグシ",
    "street": null,
    "office_name": null,
    "office_name_kana": null
  },
  "2112": {
    "zip_code": "3702112",
    "prefecture": "群馬県",
    "prefecture_kana": "グンマケン",
    "prefecture_code": 10,
    "city": "高崎市",
    "city_kana": "タカサキシ",
    "town": "吉井町黒熊",
    "town_kana": "ヨシイマチクロクマ",
    "street": null,
    "office_name": null,
    "office_name_kana": null
  },
  "2113": {
    "zip_code": "3702113",
    "prefecture": "群馬県",
    "prefecture_kana": "グンマケン",
    "prefecture_code": 10,
    "city": "高崎市",
    "city_kana": "タカサキシ",
    "town": "吉井町深沢",
    "town_kana": "ヨシイマチフカサワ",
    "street": null,
    "office_name": null,
    "office_name_kana": null
  },
  "2114": {
    "zip_code": "3702114",
    "prefecture": "群馬県",
    "prefecture_kana": "グンマケン",
    "prefecture_code": 10,
    "city": "高崎市",
    "city_kana": "タカサキシ",
    "town": "吉井町石神",
    "town_kana": "ヨシイマチイシガミ",
    "street": null,
    "office_name": null,
    "office_name_kana": null
  },
  "2115": {
    "zip_code": "3702115",
    "prefecture": "群馬県",
    "prefecture_kana": "グンマケン",
    "prefecture_code": 10,
    "city": "高崎市",
    "city_kana": "タカサキシ",
    "town": "吉井町多比良",
    "town_kana": "ヨシイマチタイラ",
    "street": null,
    "office_name": null,
    "office_name_kana": null
  },
  "2116": {
    "zip_code": "3702116",
    "prefecture": "群馬県",
    "prefecture_kana": "グンマケン",
    "prefecture_code": 10,
    "city": "高崎市",
    "city_kana": "タカサキシ",
    "town": "吉井町多胡",
    "town_kana": "ヨシイマチタゴ",
    "street": null,
    "office_name": null,
    "office_name_kana": null
  },
  "2121": {
    "zip_code": "3702121",
    "prefecture": "群馬県",
    "prefecture_kana": "グンマケン",
    "prefecture_code": 10,
    "city": "高崎市",
    "city_kana": "タカサキシ",
    "town": "吉井町下長根",
    "town_kana": "ヨシイマチシモナガネ",
    "street": null,
    "office_name": null,
    "office_name_kana": null
  },
  "2122": {
    "zip_code": "3702122",
    "prefecture": "群馬県",
    "prefecture_kana": "グンマケン",
    "prefecture_code": 10,
    "city": "高崎市",
    "city_kana": "タカサキシ",
    "town": "吉井町高",
    "town_kana": "ヨシイマチタカ",
    "street": null,
    "office_name": null,
    "office_name_kana": null
  },
  "2123": {
    "zip_code": "3702123",
    "prefecture": "群馬県",
    "prefecture_kana": "グンマケン",
    "prefecture_code": 10,
    "city": "高崎市",
    "city_kana": "タカサキシ",
    "town": "吉井町神保",
    "town_kana": "ヨシイマチジンボ",
    "street": null,
    "office_name": null,
    "office_name_kana": null
  },
  "2124": {
    "zip_code": "3702124",
    "prefecture": "群馬県",
    "prefecture_kana": "グンマケン",
    "prefecture_code": 10,
    "city": "高崎市",
    "city_kana": "タカサキシ",
    "town": "吉井町塩",
    "town_kana": "ヨシイマチシオ",
    "street": null,
    "office_name": null,
    "office_name_kana": null
  },
  "2125": {
    "zip_code": "3702125",
    "prefecture": "群馬県",
    "prefecture_kana": "グンマケン",
    "prefecture_code": 10,
    "city": "高崎市",
    "city_kana": "タカサキシ",
    "town": "吉井町大沢",
    "town_kana": "ヨシイマチオオサワ",
    "street": null,
    "office_name": null,
    "office_name_kana": null
  },
  "2126": {
    "zip_code": "3702126",
    "prefecture": "群馬県",
    "prefecture_kana": "グンマケン",
    "prefecture_code": 10,
    "city": "高崎市",
    "city_kana": "タカサキシ",
    "town": "吉井町東谷",
    "town_kana": "ヨシイマチヒガシヤ",
    "street": null,
    "office_name": null,
    "office_name_kana": null
  },
  "2127": {
    "zip_code": "3702127",
    "prefecture": "群馬県",
    "prefecture_kana": "グンマケン",
    "prefecture_code": 10,
    "city": "高崎市",
    "city_kana": "タカサキシ",
    "town": "吉井町長根",
    "town_kana": "ヨシイマチナガネ",
    "street": null,
    "office_name": null,
    "office_name_kana": null
  },
  "2128": {
    "zip_code": "3702128",
    "prefecture": "群馬県",
    "prefecture_kana": "グンマケン",
    "prefecture_code": 10,
    "city": "高崎市",
    "city_kana": "タカサキシ",
    "town": "吉井町本郷",
    "town_kana": "ヨシイマチホンゴウ",
    "street": null,
    "office_name": null,
    "office_name_kana": null
  },
  "2131": {
    "zip_code": "3702131",
    "prefecture": "群馬県",
    "prefecture_kana": "グンマケン",
    "prefecture_code": 10,
    "city": "高崎市",
    "city_kana": "タカサキシ",
    "town": "吉井町岩崎",
    "town_kana": "ヨシイマチイワザキ",
    "street": null,
    "office_name": null,
    "office_name_kana": null
  },
  "2132": {
    "zip_code": "3702132",
    "prefecture": "群馬県",
    "prefecture_kana": "グンマケン",
    "prefecture_code": 10,
    "city": "高崎市",
    "city_kana": "タカサキシ",
    "town": "吉井町吉井",
    "town_kana": "ヨシイマチヨシイ",
    "street": null,
    "office_name": null,
    "office_name_kana": null
  },
  "2133": {
    "zip_code": "3702133",
    "prefecture": "群馬県",
    "prefecture_kana": "グンマケン",
    "prefecture_code": 10,
    "city": "高崎市",
    "city_kana": "タカサキシ",
    "town": "吉井町吉井川",
    "town_kana": "ヨシイマチヨシイカワ",
    "street": null,
    "office_name": null,
    "office_name_kana": null
  },
  "2134": {
    "zip_code": "3702134",
    "prefecture": "群馬県",
    "prefecture_kana": "グンマケン",
    "prefecture_code": 10,
    "city": "高崎市",
    "city_kana": "タカサキシ",
    "town": "吉井町塩川",
    "town_kana": "ヨシイマチシオガワ",
    "street": null,
    "office_name": null,
    "office_name_kana": null
  },
  "2135": {
    "zip_code": "3702135",
    "prefecture": "群馬県",
    "prefecture_kana": "グンマケン",
    "prefecture_code": 10,
    "city": "高崎市",
    "city_kana": "タカサキシ",
    "town": "吉井町片山",
    "town_kana": "ヨシイマチカタヤマ",
    "street": null,
    "office_name": null,
    "office_name_kana": null
  },
  "2136": {
    "zip_code": "3702136",
    "prefecture": "群馬県",
    "prefecture_kana": "グンマケン",
    "prefecture_code": 10,
    "city": "高崎市",
    "city_kana": "タカサキシ",
    "town": "吉井町小棚",
    "town_kana": "ヨシイマチコタナ",
    "street": null,
    "office_name": null,
    "office_name_kana": null
  },
  "2137": {
    "zip_code": "3702137",
    "prefecture": "群馬県",
    "prefecture_kana": "グンマケン",
    "prefecture_code": 10,
    "city": "高崎市",
    "city_kana": "タカサキシ",
    "town": "吉井町坂口",
    "town_kana": "ヨシイマチサカグチ",
    "street": null,
    "office_name": null,
    "office_name_kana": null
  },
  "2138": {
    "zip_code": "3702138",
    "prefecture": "群馬県",
    "prefecture_kana": "グンマケン",
    "prefecture_code": 10,
    "city": "高崎市",
    "city_kana": "タカサキシ",
    "town": "吉井町下奥平",
    "town_kana": "ヨシイマチシモオクダイラ",
    "street": null,
    "office_name": null,
    "office_name_kana": null
  },
  "2139": {
    "zip_code": "3702139",
    "prefecture": "群馬県",
    "prefecture_kana": "グンマケン",
    "prefecture_code": 10,
    "city": "高崎市",
    "city_kana": "タカサキシ",
    "town": "吉井町上奥平",
    "town_kana": "ヨシイマチカミオクダイラ",
    "street": null,
    "office_name": null,
    "office_name_kana": null
  },
  "2192": {
    "zip_code": "3702192",
    "prefecture": "群馬県",
    "prefecture_kana": "グンマケン",
    "prefecture_code": 10,
    "city": "高崎市",
    "city_kana": "タカサキシ",
    "town": "吉井町吉井川",
    "town_kana": "ヨシイマチヨシイカワ",
    "street": "３７１番地",
    "office_name": "高崎市　吉井支所",
    "office_name_kana": "タカサキシ ヨシイシシヨ"
  },
  "2200": {
    "zip_code": "3702200",
    "prefecture": "群馬県",
    "prefecture_kana": "グンマケン",
    "prefecture_code": 10,
    "city": "甘楽郡甘楽町",
    "city_kana": "カンラグンカンラマチ",
    "town": "",
    "town_kana": "",
    "street": null,
    "office_name": null,
    "office_name_kana": null
  },
  "2201": {
    "zip_code": "3702201",
    "prefecture": "群馬県",
    "prefecture_kana": "グンマケン",
    "prefecture_code": 10,
    "city": "甘楽郡甘楽町",
    "city_kana": "カンラグンカンラマチ",
    "town": "上野",
    "town_kana": "ウエノ",
    "street": null,
    "office_name": null,
    "office_name_kana": null
  },
  "2202": {
    "zip_code": "3702202",
    "prefecture": "群馬県",
    "prefecture_kana": "グンマケン",
    "prefecture_code": 10,
    "city": "甘楽郡甘楽町",
    "city_kana": "カンラグンカンラマチ",
    "town": "小幡",
    "town_kana": "オバタ",
    "street": null,
    "office_name": null,
    "office_name_kana": null
  },
  "2203": {
    "zip_code": "3702203",
    "prefecture": "群馬県",
    "prefecture_kana": "グンマケン",
    "prefecture_code": 10,
    "city": "甘楽郡甘楽町",
    "city_kana": "カンラグンカンラマチ",
    "town": "轟",
    "town_kana": "トドロク",
    "street": null,
    "office_name": null,
    "office_name_kana": null
  },
  "2204": {
    "zip_code": "3702204",
    "prefecture": "群馬県",
    "prefecture_kana": "グンマケン",
    "prefecture_code": 10,
    "city": "甘楽郡甘楽町",
    "city_kana": "カンラグンカンラマチ",
    "town": "秋畑",
    "town_kana": "アキハタ",
    "street": null,
    "office_name": null,
    "office_name_kana": null
  },
  "2205": {
    "zip_code": "3702205",
    "prefecture": "群馬県",
    "prefecture_kana": "グンマケン",
    "prefecture_code": 10,
    "city": "甘楽郡甘楽町",
    "city_kana": "カンラグンカンラマチ",
    "town": "国峰",
    "town_kana": "クニミネ",
    "street": null,
    "office_name": null,
    "office_name_kana": null
  },
  "2206": {
    "zip_code": "3702206",
    "prefecture": "群馬県",
    "prefecture_kana": "グンマケン",
    "prefecture_code": 10,
    "city": "甘楽郡甘楽町",
    "city_kana": "カンラグンカンラマチ",
    "town": "善慶寺",
    "town_kana": "ゼンケイジ",
    "street": null,
    "office_name": null,
    "office_name_kana": null
  },
  "2211": {
    "zip_code": "3702211",
    "prefecture": "群馬県",
    "prefecture_kana": "グンマケン",
    "prefecture_code": 10,
    "city": "甘楽郡甘楽町",
    "city_kana": "カンラグンカンラマチ",
    "town": "小川",
    "town_kana": "オガワ",
    "street": null,
    "office_name": null,
    "office_name_kana": null
  },
  "2212": {
    "zip_code": "3702212",
    "prefecture": "群馬県",
    "prefecture_kana": "グンマケン",
    "prefecture_code": 10,
    "city": "甘楽郡甘楽町",
    "city_kana": "カンラグンカンラマチ",
    "town": "福島",
    "town_kana": "フクシマ",
    "street": null,
    "office_name": null,
    "office_name_kana": null
  },
  "2213": {
    "zip_code": "3702213",
    "prefecture": "群馬県",
    "prefecture_kana": "グンマケン",
    "prefecture_code": 10,
    "city": "甘楽郡甘楽町",
    "city_kana": "カンラグンカンラマチ",
    "town": "白倉",
    "town_kana": "シラクラ",
    "street": null,
    "office_name": null,
    "office_name_kana": null
  },
  "2214": {
    "zip_code": "3702214",
    "prefecture": "群馬県",
    "prefecture_kana": "グンマケン",
    "prefecture_code": 10,
    "city": "甘楽郡甘楽町",
    "city_kana": "カンラグンカンラマチ",
    "town": "庭谷",
    "town_kana": "ニワヤ",
    "street": null,
    "office_name": null,
    "office_name_kana": null
  },
  "2215": {
    "zip_code": "3702215",
    "prefecture": "群馬県",
    "prefecture_kana": "グンマケン",
    "prefecture_code": 10,
    "city": "甘楽郡甘楽町",
    "city_kana": "カンラグンカンラマチ",
    "town": "造石",
    "town_kana": "ツクリイシ",
    "street": null,
    "office_name": null,
    "office_name_kana": null
  },
  "2216": {
    "zip_code": "3702216",
    "prefecture": "群馬県",
    "prefecture_kana": "グンマケン",
    "prefecture_code": 10,
    "city": "甘楽郡甘楽町",
    "city_kana": "カンラグンカンラマチ",
    "town": "金井",
    "town_kana": "カナイ",
    "street": null,
    "office_name": null,
    "office_name_kana": null
  },
  "2217": {
    "zip_code": "3702217",
    "prefecture": "群馬県",
    "prefecture_kana": "グンマケン",
    "prefecture_code": 10,
    "city": "甘楽郡甘楽町",
    "city_kana": "カンラグンカンラマチ",
    "town": "天引",
    "town_kana": "アマビキ",
    "street": null,
    "office_name": null,
    "office_name_kana": null
  },
  "2292": {
    "zip_code": "3702292",
    "prefecture": "群馬県",
    "prefecture_kana": null,
    "prefecture_code": null,
    "city": "甘楽郡甘楽町",
    "city_kana": null,
    "town": "大字小幡",
    "town_kana": null,
    "street": "１６１−１",
    "office_name": "甘楽町役場",
    "office_name_kana": "カンラマチヤクバ"
  },
  "2300": {
    "zip_code": "3702300",
    "prefecture": "群馬県",
    "prefecture_kana": "グンマケン",
    "prefecture_code": 10,
    "city": "富岡市",
    "city_kana": "トミオカシ",
    "town": "",
    "town_kana": "",
    "street": null,
    "office_name": null,
    "office_name_kana": null
  },
  "2301": {
    "zip_code": "3702301",
    "prefecture": "群馬県",
    "prefecture_kana": "グンマケン",
    "prefecture_code": 10,
    "city": "富岡市",
    "city_kana": "トミオカシ",
    "town": "桑原",
    "town_kana": "クワハラ",
    "street": null,
    "office_name": null,
    "office_name_kana": null
  },
  "2302": {
    "zip_code": "3702302",
    "prefecture": "群馬県",
    "prefecture_kana": "グンマケン",
    "prefecture_code": 10,
    "city": "富岡市",
    "city_kana": "トミオカシ",
    "town": "小桑原",
    "town_kana": "コクワハラ",
    "street": null,
    "office_name": null,
    "office_name_kana": null
  },
  "2303": {
    "zip_code": "3702303",
    "prefecture": "群馬県",
    "prefecture_kana": "グンマケン",
    "prefecture_code": 10,
    "city": "富岡市",
    "city_kana": "トミオカシ",
    "town": "蕨",
    "town_kana": "ワラビ",
    "street": null,
    "office_name": null,
    "office_name_kana": null
  },
  "2304": {
    "zip_code": "3702304",
    "prefecture": "群馬県",
    "prefecture_kana": "グンマケン",
    "prefecture_code": 10,
    "city": "富岡市",
    "city_kana": "トミオカシ",
    "town": "後賀",
    "town_kana": "ゴカ",
    "street": null,
    "office_name": null,
    "office_name_kana": null
  },
  "2305": {
    "zip_code": "3702305",
    "prefecture": "群馬県",
    "prefecture_kana": "グンマケン",
    "prefecture_code": 10,
    "city": "富岡市",
    "city_kana": "トミオカシ",
    "town": "白岩",
    "town_kana": "シライワ",
    "street": null,
    "office_name": null,
    "office_name_kana": null
  },
  "2306": {
    "zip_code": "3702306",
    "prefecture": "群馬県",
    "prefecture_kana": "グンマケン",
    "prefecture_code": 10,
    "city": "富岡市",
    "city_kana": "トミオカシ",
    "town": "相野田",
    "town_kana": "アイノタ",
    "street": null,
    "office_name": null,
    "office_name_kana": null
  },
  "2307": {
    "zip_code": "3702307",
    "prefecture": "群馬県",
    "prefecture_kana": "グンマケン",
    "prefecture_code": 10,
    "city": "富岡市",
    "city_kana": "トミオカシ",
    "town": "藤木",
    "town_kana": "フジキ",
    "street": null,
    "office_name": null,
    "office_name_kana": null
  },
  "2311": {
    "zip_code": "3702311",
    "prefecture": "群馬県",
    "prefecture_kana": "グンマケン",
    "prefecture_code": 10,
    "city": "富岡市",
    "city_kana": "トミオカシ",
    "town": "下高尾",
    "town_kana": "シモタカオ",
    "street": null,
    "office_name": null,
    "office_name_kana": null
  },
  "2312": {
    "zip_code": "3702312",
    "prefecture": "群馬県",
    "prefecture_kana": "グンマケン",
    "prefecture_code": 10,
    "city": "富岡市",
    "city_kana": "トミオカシ",
    "town": "星田",
    "town_kana": "ホシダ",
    "street": null,
    "office_name": null,
    "office_name_kana": null
  },
  "2313": {
    "zip_code": "3702313",
    "prefecture": "群馬県",
    "prefecture_kana": "グンマケン",
    "prefecture_code": 10,
    "city": "富岡市",
    "city_kana": "トミオカシ",
    "town": "君川",
    "town_kana": "キミカワ",
    "street": null,
    "office_name": null,
    "office_name_kana": null
  },
  "2314": {
    "zip_code": "3702314",
    "prefecture": "群馬県",
    "prefecture_kana": "グンマケン",
    "prefecture_code": 10,
    "city": "富岡市",
    "city_kana": "トミオカシ",
    "town": "田篠",
    "town_kana": "タジノ",
    "street": null,
    "office_name": null,
    "office_name_kana": null
  },
  "2315": {
    "zip_code": "3702315",
    "prefecture": "群馬県",
    "prefecture_kana": "グンマケン",
    "prefecture_code": 10,
    "city": "富岡市",
    "city_kana": "トミオカシ",
    "town": "曽木",
    "town_kana": "ソギ",
    "street": null,
    "office_name": null,
    "office_name_kana": null
  },
  "2316": {
    "zip_code": "3702316",
    "prefecture": "群馬県",
    "prefecture_kana": "グンマケン",
    "prefecture_code": 10,
    "city": "富岡市",
    "city_kana": "トミオカシ",
    "town": "富岡",
    "town_kana": "トミオカ",
    "street": null,
    "office_name": null,
    "office_name_kana": null
  },
  "2317": {
    "zip_code": "3702317",
    "prefecture": "群馬県",
    "prefecture_kana": "グンマケン",
    "prefecture_code": 10,
    "city": "富岡市",
    "city_kana": "トミオカシ",
    "town": "上高尾",
    "town_kana": "カミタカオ",
    "street": null,
    "office_name": null,
    "office_name_kana": null
  },
  "2321": {
    "zip_code": "3702321",
    "prefecture": "群馬県",
    "prefecture_kana": "グンマケン",
    "prefecture_code": 10,
    "city": "富岡市",
    "city_kana": "トミオカシ",
    "town": "岡本",
    "town_kana": "オカモト",
    "street": null,
    "office_name": null,
    "office_name_kana": null
  },
  "2322": {
    "zip_code": "3702322",
    "prefecture": "群馬県",
    "prefecture_kana": "グンマケン",
    "prefecture_code": 10,
    "city": "富岡市",
    "city_kana": "トミオカシ",
    "town": "岩染",
    "town_kana": "イワソメ",
    "street": null,
    "office_name": null,
    "office_name_kana": null
  },
  "2323": {
    "zip_code": "3702323",
    "prefecture": "群馬県",
    "prefecture_kana": "グンマケン",
    "prefecture_code": 10,
    "city": "富岡市",
    "city_kana": "トミオカシ",
    "town": "野上",
    "town_kana": "ノガミ",
    "street": null,
    "office_name": null,
    "office_name_kana": null
  },
  "2324": {
    "zip_code": "3702324",
    "prefecture": "群馬県",
    "prefecture_kana": "グンマケン",
    "prefecture_code": 10,
    "city": "富岡市",
    "city_kana": "トミオカシ",
    "town": "南後箇",
    "town_kana": "ミナミゴカ",
    "street": null,
    "office_name": null,
    "office_name_kana": null
  },
  "2331": {
    "zip_code": "3702331",
    "prefecture": "群馬県",
    "prefecture_kana": "グンマケン",
    "prefecture_code": 10,
    "city": "富岡市",
    "city_kana": "トミオカシ",
    "town": "内匠",
    "town_kana": "タクミ",
    "street": null,
    "office_name": null,
    "office_name_kana": null
  },
  "2332": {
    "zip_code": "3702332",
    "prefecture": "群馬県",
    "prefecture_kana": "グンマケン",
    "prefecture_code": 10,
    "city": "富岡市",
    "city_kana": "トミオカシ",
    "town": "下高瀬",
    "town_kana": "シモダカセ",
    "street": null,
    "office_name": null,
    "office_name_kana": null
  },
  "2333": {
    "zip_code": "3702333",
    "prefecture": "群馬県",
    "prefecture_kana": "グンマケン",
    "prefecture_code": 10,
    "city": "富岡市",
    "city_kana": "トミオカシ",
    "town": "中高瀬",
    "town_kana": "ナカダカセ",
    "street": null,
    "office_name": null,
    "office_name_kana": null
  },
  "2334": {
    "zip_code": "3702334",
    "prefecture": "群馬県",
    "prefecture_kana": "グンマケン",
    "prefecture_code": 10,
    "city": "富岡市",
    "city_kana": "トミオカシ",
    "town": "上高瀬",
    "town_kana": "カミダカセ",
    "street": null,
    "office_name": null,
    "office_name_kana": null
  },
  "2335": {
    "zip_code": "3702335",
    "prefecture": "群馬県",
    "prefecture_kana": "グンマケン",
    "prefecture_code": 10,
    "city": "富岡市",
    "city_kana": "トミオカシ",
    "town": "大島",
    "town_kana": "オオシマ",
    "street": null,
    "office_name": null,
    "office_name_kana": null
  },
  "2341": {
    "zip_code": "3702341",
    "prefecture": "群馬県",
    "prefecture_kana": "グンマケン",
    "prefecture_code": 10,
    "city": "富岡市",
    "city_kana": "トミオカシ",
    "town": "下黒岩",
    "town_kana": "シモクロイワ",
    "street": null,
    "office_name": null,
    "office_name_kana": null
  },
  "2342": {
    "zip_code": "3702342",
    "prefecture": "群馬県",
    "prefecture_kana": "グンマケン",
    "prefecture_code": 10,
    "city": "富岡市",
    "city_kana": "トミオカシ",
    "town": "別保",
    "town_kana": "ベツポ",
    "street": null,
    "office_name": null,
    "office_name_kana": null
  },
  "2343": {
    "zip_code": "3702343",
    "prefecture": "群馬県",
    "prefecture_kana": "グンマケン",
    "prefecture_code": 10,
    "city": "富岡市",
    "city_kana": "トミオカシ",
    "town": "七日市",
    "town_kana": "ナノカイチ",
    "street": null,
    "office_name": null,
    "office_name_kana": null
  },
  "2344": {
    "zip_code": "3702344",
    "prefecture": "群馬県",
    "prefecture_kana": "グンマケン",
    "prefecture_code": 10,
    "city": "富岡市",
    "city_kana": "トミオカシ",
    "town": "黒川",
    "town_kana": "クロカワ",
    "street": null,
    "office_name": null,
    "office_name_kana": null
  },
  "2345": {
    "zip_code": "3702345",
    "prefecture": "群馬県",
    "prefecture_kana": "グンマケン",
    "prefecture_code": 10,
    "city": "富岡市",
    "city_kana": "トミオカシ",
    "town": "上黒岩",
    "town_kana": "カミクロイワ",
    "street": null,
    "office_name": null,
    "office_name_kana": null
  },
  "2392": {
    "zip_code": "3702392",
    "prefecture": "群馬県",
    "prefecture_kana": "グンマケン",
    "prefecture_code": 10,
    "city": "富岡市",
    "city_kana": "トミオカシ",
    "town": "富岡",
    "town_kana": "トミオカ",
    "street": "１４６０−１",
    "office_name": "富岡市役所",
    "office_name_kana": "トミオカシヤクシヨ"
  },
  "2393": {
    "zip_code": "3702393",
    "prefecture": "群馬県",
    "prefecture_kana": "グンマケン",
    "prefecture_code": 10,
    "city": "富岡市",
    "city_kana": "トミオカシ",
    "town": "富岡",
    "town_kana": "トミオカ",
    "street": "２０７３−１",
    "office_name": "公立富岡総合病院",
    "office_name_kana": "コウリツトミオカソウゴウビヨウイン"
  },
  "2395": {
    "zip_code": "3702395",
    "prefecture": "群馬県",
    "prefecture_kana": "グンマケン",
    "prefecture_code": 10,
    "city": "富岡市",
    "city_kana": "トミオカシ",
    "town": "富岡",
    "town_kana": "トミオカ",
    "street": "１１２３番地",
    "office_name": "しののめ信用金庫",
    "office_name_kana": "シノノメシンヨウキンコ"
  },
  "2396": {
    "zip_code": "3702396",
    "prefecture": "群馬県",
    "prefecture_kana": "グンマケン",
    "prefecture_code": 10,
    "city": "富岡市",
    "city_kana": "トミオカシ",
    "town": "富岡",
    "town_kana": "トミオカ",
    "street": "２６３８−１",
    "office_name": "甘楽富岡農業　協同組合",
    "office_name_kana": "カンラトミオカノウギヨウ キヨウドウクミアイ"
  },
  "2398": {
    "zip_code": "3702398",
    "prefecture": "群馬県",
    "prefecture_kana": "グンマケン",
    "prefecture_code": 10,
    "city": "富岡市",
    "city_kana": "トミオカシ",
    "town": "藤木",
    "town_kana": "フジキ",
    "street": "９００番地",
    "office_name": "株式会社　ＩＨＩエアロスペース　富岡事業所",
    "office_name_kana": "カブシキガイシヤ アイエイチアイエアロスペ-ス トミオカジギヨウシヨ"
  },
  "2411": {
    "zip_code": "3702411",
    "prefecture": "群馬県",
    "prefecture_kana": "グンマケン",
    "prefecture_code": 10,
    "city": "富岡市",
    "city_kana": "トミオカシ",
    "town": "妙義町上高田",
    "town_kana": "ミョウギマチカミタカタ",
    "street": null,
    "office_name": null,
    "office_name_kana": null
  },
  "2412": {
    "zip_code": "3702412",
    "prefecture": "群馬県",
    "prefecture_kana": "グンマケン",
    "prefecture_code": 10,
    "city": "富岡市",
    "city_kana": "トミオカシ",
    "town": "妙義町下高田",
    "town_kana": "ミョウギマチシモタカタ",
    "street": null,
    "office_name": null,
    "office_name_kana": null
  },
  "2413": {
    "zip_code": "3702413",
    "prefecture": "群馬県",
    "prefecture_kana": "グンマケン",
    "prefecture_code": 10,
    "city": "富岡市",
    "city_kana": "トミオカシ",
    "town": "妙義町八木連",
    "town_kana": "ミョウギマチヤギツレ",
    "street": null,
    "office_name": null,
    "office_name_kana": null
  },
  "2451": {
    "zip_code": "3702451",
    "prefecture": "群馬県",
    "prefecture_kana": "グンマケン",
    "prefecture_code": 10,
    "city": "富岡市",
    "city_kana": "トミオカシ",
    "town": "宇田",
    "town_kana": "ウダ",
    "street": null,
    "office_name": null,
    "office_name_kana": null
  },
  "2452": {
    "zip_code": "3702452",
    "prefecture": "群馬県",
    "prefecture_kana": "グンマケン",
    "prefecture_code": 10,
    "city": "富岡市",
    "city_kana": "トミオカシ",
    "town": "一ノ宮",
    "town_kana": "イチノミヤ",
    "street": null,
    "office_name": null,
    "office_name_kana": null
  },
  "2453": {
    "zip_code": "3702453",
    "prefecture": "群馬県",
    "prefecture_kana": "グンマケン",
    "prefecture_code": 10,
    "city": "富岡市",
    "city_kana": "トミオカシ",
    "town": "宮崎",
    "town_kana": "ミヤザキ",
    "street": null,
    "office_name": null,
    "office_name_kana": null
  },
  "2454": {
    "zip_code": "3702454",
    "prefecture": "群馬県",
    "prefecture_kana": "グンマケン",
    "prefecture_code": 10,
    "city": "富岡市",
    "city_kana": "トミオカシ",
    "town": "田島",
    "town_kana": "タジマ",
    "street": null,
    "office_name": null,
    "office_name_kana": null
  },
  "2455": {
    "zip_code": "3702455",
    "prefecture": "群馬県",
    "prefecture_kana": "グンマケン",
    "prefecture_code": 10,
    "city": "富岡市",
    "city_kana": "トミオカシ",
    "town": "神農原",
    "town_kana": "カノハラ",
    "street": null,
    "office_name": null,
    "office_name_kana": null
  },
  "2456": {
    "zip_code": "3702456",
    "prefecture": "群馬県",
    "prefecture_kana": "グンマケン",
    "prefecture_code": 10,
    "city": "富岡市",
    "city_kana": "トミオカシ",
    "town": "上小林",
    "town_kana": "カミコバヤシ",
    "street": null,
    "office_name": null,
    "office_name_kana": null
  },
  "2461": {
    "zip_code": "3702461",
    "prefecture": "群馬県",
    "prefecture_kana": "グンマケン",
    "prefecture_code": 10,
    "city": "富岡市",
    "city_kana": "トミオカシ",
    "town": "上丹生",
    "town_kana": "カミニュウ",
    "street": null,
    "office_name": null,
    "office_name_kana": null
  },
  "2462": {
    "zip_code": "3702462",
    "prefecture": "群馬県",
    "prefecture_kana": "グンマケン",
    "prefecture_code": 10,
    "city": "富岡市",
    "city_kana": "トミオカシ",
    "town": "下丹生",
    "town_kana": "シモニュウ",
    "street": null,
    "office_name": null,
    "office_name_kana": null
  },
  "2463": {
    "zip_code": "3702463",
    "prefecture": "群馬県",
    "prefecture_kana": "グンマケン",
    "prefecture_code": 10,
    "city": "富岡市",
    "city_kana": "トミオカシ",
    "town": "神成",
    "town_kana": "カンナリ",
    "street": null,
    "office_name": null,
    "office_name_kana": null
  },
  "2464": {
    "zip_code": "3702464",
    "prefecture": "群馬県",
    "prefecture_kana": "グンマケン",
    "prefecture_code": 10,
    "city": "富岡市",
    "city_kana": "トミオカシ",
    "town": "南蛇井",
    "town_kana": "ナンジャイ",
    "street": null,
    "office_name": null,
    "office_name_kana": null
  },
  "2465": {
    "zip_code": "3702465",
    "prefecture": "群馬県",
    "prefecture_kana": "グンマケン",
    "prefecture_code": 10,
    "city": "富岡市",
    "city_kana": "トミオカシ",
    "town": "中沢",
    "town_kana": "ナカザワ",
    "street": null,
    "office_name": null,
    "office_name_kana": null
  },
  "2466": {
    "zip_code": "3702466",
    "prefecture": "群馬県",
    "prefecture_kana": "グンマケン",
    "prefecture_code": 10,
    "city": "富岡市",
    "city_kana": "トミオカシ",
    "town": "蚊沼",
    "town_kana": "カヌマ",
    "street": null,
    "office_name": null,
    "office_name_kana": null
  },
  "2467": {
    "zip_code": "3702467",
    "prefecture": "群馬県",
    "prefecture_kana": "グンマケン",
    "prefecture_code": 10,
    "city": "富岡市",
    "city_kana": "トミオカシ",
    "town": "原",
    "town_kana": "ハラ",
    "street": null,
    "office_name": null,
    "office_name_kana": null
  },
  "2495": {
    "zip_code": "3702495",
    "prefecture": "群馬県",
    "prefecture_kana": "グンマケン",
    "prefecture_code": 10,
    "city": "富岡市",
    "city_kana": "トミオカシ",
    "town": "神農原",
    "town_kana": "カノハラ",
    "street": "１１１２",
    "office_name": "株式会社　ヨコオ",
    "office_name_kana": "カブシキガイシヤ ヨコオ"
  },
  "2498": [
    {
      "zip_code": "3702498",
      "prefecture": "群馬県",
      "prefecture_kana": "グンマケン",
      "prefecture_code": 10,
      "city": "富岡市",
      "city_kana": "トミオカシ",
      "town": "上小林",
      "town_kana": "カミコバヤシ",
      "street": "１３９−１",
      "office_name": "株式会社　マンナンライフ",
      "office_name_kana": "カブシキガイシヤ マンナンライフ"
    },
    {
      "zip_code": "3702498",
      "prefecture": "群馬県",
      "prefecture_kana": "グンマケン",
      "prefecture_code": 10,
      "city": "富岡市",
      "city_kana": "トミオカシ",
      "town": "上小林",
      "town_kana": "カミコバヤシ",
      "street": "１３７",
      "office_name": "鶴田食品工業　株式会社",
      "office_name_kana": "ツルタシヨクヒンコウギヨウ カブシキガイシヤ"
    }
  ],
  "2600": {
    "zip_code": "3702600",
    "prefecture": "群馬県",
    "prefecture_kana": "グンマケン",
    "prefecture_code": 10,
    "city": "甘楽郡下仁田町",
    "city_kana": "カンラグンシモニタマチ",
    "town": "",
    "town_kana": "",
    "street": null,
    "office_name": null,
    "office_name_kana": null
  },
  "2601": {
    "zip_code": "3702601",
    "prefecture": "群馬県",
    "prefecture_kana": "グンマケン",
    "prefecture_code": 10,
    "city": "甘楽郡下仁田町",
    "city_kana": "カンラグンシモニタマチ",
    "town": "下仁田",
    "town_kana": "シモニタ",
    "street": null,
    "office_name": null,
    "office_name_kana": null
  },
  "2602": {
    "zip_code": "3702602",
    "prefecture": "群馬県",
    "prefecture_kana": "グンマケン",
    "prefecture_code": 10,
    "city": "甘楽郡下仁田町",
    "city_kana": "カンラグンシモニタマチ",
    "town": "白山",
    "town_kana": "ハクサン",
    "street": null,
    "office_name": null,
    "office_name_kana": null
  },
  "2603": {
    "zip_code": "3702603",
    "prefecture": "群馬県",
    "prefecture_kana": "グンマケン",
    "prefecture_code": 10,
    "city": "甘楽郡下仁田町",
    "city_kana": "カンラグンシモニタマチ",
    "town": "馬山",
    "town_kana": "マヤマ",
    "street": null,
    "office_name": null,
    "office_name_kana": null
  },
  "2604": {
    "zip_code": "3702604",
    "prefecture": "群馬県",
    "prefecture_kana": "グンマケン",
    "prefecture_code": 10,
    "city": "甘楽郡下仁田町",
    "city_kana": "カンラグンシモニタマチ",
    "town": "吉崎",
    "town_kana": "ヨシザキ",
    "street": null,
    "office_name": null,
    "office_name_kana": null
  },
  "2605": {
    "zip_code": "3702605",
    "prefecture": "群馬県",
    "prefecture_kana": "グンマケン",
    "prefecture_code": 10,
    "city": "甘楽郡下仁田町",
    "city_kana": "カンラグンシモニタマチ",
    "town": "栗山",
    "town_kana": "クリヤマ",
    "street": null,
    "office_name": null,
    "office_name_kana": null
  },
  "2606": {
    "zip_code": "3702606",
    "prefecture": "群馬県",
    "prefecture_kana": "グンマケン",
    "prefecture_code": 10,
    "city": "甘楽郡下仁田町",
    "city_kana": "カンラグンシモニタマチ",
    "town": "川井",
    "town_kana": "カワイ",
    "street": null,
    "office_name": null,
    "office_name_kana": null
  },
  "2611": {
    "zip_code": "3702611",
    "prefecture": "群馬県",
    "prefecture_kana": "グンマケン",
    "prefecture_code": 10,
    "city": "甘楽郡下仁田町",
    "city_kana": "カンラグンシモニタマチ",
    "town": "青倉",
    "town_kana": "アオクラ",
    "street": null,
    "office_name": null,
    "office_name_kana": null
  },
  "2612": {
    "zip_code": "3702612",
    "prefecture": "群馬県",
    "prefecture_kana": "グンマケン",
    "prefecture_code": 10,
    "city": "甘楽郡下仁田町",
    "city_kana": "カンラグンシモニタマチ",
    "town": "平原",
    "town_kana": "ヘバラ",
    "street": null,
    "office_name": null,
    "office_name_kana": null
  },
  "2613": {
    "zip_code": "3702613",
    "prefecture": "群馬県",
    "prefecture_kana": "グンマケン",
    "prefecture_code": 10,
    "city": "甘楽郡下仁田町",
    "city_kana": "カンラグンシモニタマチ",
    "town": "大桑原",
    "town_kana": "オオクワハラ",
    "street": null,
    "office_name": null,
    "office_name_kana": null
  },
  "2614": {
    "zip_code": "3702614",
    "prefecture": "群馬県",
    "prefecture_kana": "グンマケン",
    "prefecture_code": 10,
    "city": "甘楽郡下仁田町",
    "city_kana": "カンラグンシモニタマチ",
    "town": "風口",
    "town_kana": "カザクチ",
    "street": null,
    "office_name": null,
    "office_name_kana": null
  },
  "2615": {
    "zip_code": "3702615",
    "prefecture": "群馬県",
    "prefecture_kana": "グンマケン",
    "prefecture_code": 10,
    "city": "甘楽郡下仁田町",
    "city_kana": "カンラグンシモニタマチ",
    "town": "宮室",
    "town_kana": "ミヤムロ",
    "street": null,
    "office_name": null,
    "office_name_kana": null
  },
  "2616": {
    "zip_code": "3702616",
    "prefecture": "群馬県",
    "prefecture_kana": "グンマケン",
    "prefecture_code": 10,
    "city": "甘楽郡下仁田町",
    "city_kana": "カンラグンシモニタマチ",
    "town": "下郷",
    "town_kana": "シモゴウ",
    "street": null,
    "office_name": null,
    "office_name_kana": null
  },
  "2621": {
    "zip_code": "3702621",
    "prefecture": "群馬県",
    "prefecture_kana": "グンマケン",
    "prefecture_code": 10,
    "city": "甘楽郡下仁田町",
    "city_kana": "カンラグンシモニタマチ",
    "town": "上小坂",
    "town_kana": "カミオサカ",
    "street": null,
    "office_name": null,
    "office_name_kana": null
  },
  "2622": {
    "zip_code": "3702622",
    "prefecture": "群馬県",
    "prefecture_kana": "グンマケン",
    "prefecture_code": 10,
    "city": "甘楽郡下仁田町",
    "city_kana": "カンラグンシモニタマチ",
    "town": "中小坂",
    "town_kana": "ナカオサカ",
    "street": null,
    "office_name": null,
    "office_name_kana": null
  },
  "2623": {
    "zip_code": "3702623",
    "prefecture": "群馬県",
    "prefecture_kana": "グンマケン",
    "prefecture_code": 10,
    "city": "甘楽郡下仁田町",
    "city_kana": "カンラグンシモニタマチ",
    "town": "下小坂",
    "town_kana": "シモオサカ",
    "street": null,
    "office_name": null,
    "office_name_kana": null
  },
  "2624": {
    "zip_code": "3702624",
    "prefecture": "群馬県",
    "prefecture_kana": "グンマケン",
    "prefecture_code": 10,
    "city": "甘楽郡下仁田町",
    "city_kana": "カンラグンシモニタマチ",
    "town": "東野牧",
    "town_kana": "ヒガシノマキ",
    "street": null,
    "office_name": null,
    "office_name_kana": null
  },
  "2625": {
    "zip_code": "3702625",
    "prefecture": "群馬県",
    "prefecture_kana": "グンマケン",
    "prefecture_code": 10,
    "city": "甘楽郡下仁田町",
    "city_kana": "カンラグンシモニタマチ",
    "town": "本宿",
    "town_kana": "モトジュク",
    "street": null,
    "office_name": null,
    "office_name_kana": null
  },
  "2626": {
    "zip_code": "3702626",
    "prefecture": "群馬県",
    "prefecture_kana": "グンマケン",
    "prefecture_code": 10,
    "city": "甘楽郡下仁田町",
    "city_kana": "カンラグンシモニタマチ",
    "town": "南野牧",
    "town_kana": "ミナミノマキ",
    "street": null,
    "office_name": null,
    "office_name_kana": null
  },
  "2627": {
    "zip_code": "3702627",
    "prefecture": "群馬県",
    "prefecture_kana": "グンマケン",
    "prefecture_code": 10,
    "city": "甘楽郡下仁田町",
    "city_kana": "カンラグンシモニタマチ",
    "town": "西野牧",
    "town_kana": "ニシノマキ",
    "street": null,
    "office_name": null,
    "office_name_kana": null
  },
  "2800": {
    "zip_code": "3702800",
    "prefecture": "群馬県",
    "prefecture_kana": "グンマケン",
    "prefecture_code": 10,
    "city": "甘楽郡南牧村",
    "city_kana": "カンラグンナンモクムラ",
    "town": "",
    "town_kana": "",
    "street": null,
    "office_name": null,
    "office_name_kana": null
  },
  "2801": {
    "zip_code": "3702801",
    "prefecture": "群馬県",
    "prefecture_kana": "グンマケン",
    "prefecture_code": 10,
    "city": "甘楽郡南牧村",
    "city_kana": "カンラグンナンモクムラ",
    "town": "大塩沢",
    "town_kana": "オオシオザワ",
    "street": null,
    "office_name": null,
    "office_name_kana": null
  },
  "2802": {
    "zip_code": "3702802",
    "prefecture": "群馬県",
    "prefecture_kana": "グンマケン",
    "prefecture_code": 10,
    "city": "甘楽郡南牧村",
    "city_kana": "カンラグンナンモクムラ",
    "town": "小沢",
    "town_kana": "オザワ",
    "street": null,
    "office_name": null,
    "office_name_kana": null
  },
  "2803": {
    "zip_code": "3702803",
    "prefecture": "群馬県",
    "prefecture_kana": "グンマケン",
    "prefecture_code": 10,
    "city": "甘楽郡南牧村",
    "city_kana": "カンラグンナンモクムラ",
    "town": "千原",
    "town_kana": "チハラ",
    "street": null,
    "office_name": null,
    "office_name_kana": null
  },
  "2804": {
    "zip_code": "3702804",
    "prefecture": "群馬県",
    "prefecture_kana": "グンマケン",
    "prefecture_code": 10,
    "city": "甘楽郡南牧村",
    "city_kana": "カンラグンナンモクムラ",
    "town": "磐戸",
    "town_kana": "イワド",
    "street": null,
    "office_name": null,
    "office_name_kana": null
  },
  "2805": {
    "zip_code": "3702805",
    "prefecture": "群馬県",
    "prefecture_kana": "グンマケン",
    "prefecture_code": 10,
    "city": "甘楽郡南牧村",
    "city_kana": "カンラグンナンモクムラ",
    "town": "檜沢",
    "town_kana": "ヒサワ",
    "street": null,
    "office_name": null,
    "office_name_kana": null
  },
  "2806": {
    "zip_code": "3702806",
    "prefecture": "群馬県",
    "prefecture_kana": "グンマケン",
    "prefecture_code": 10,
    "city": "甘楽郡南牧村",
    "city_kana": "カンラグンナンモクムラ",
    "town": "大日向",
    "town_kana": "オオヒナタ",
    "street": null,
    "office_name": null,
    "office_name_kana": null
  },
  "2811": {
    "zip_code": "3702811",
    "prefecture": "群馬県",
    "prefecture_kana": "グンマケン",
    "prefecture_code": 10,
    "city": "甘楽郡南牧村",
    "city_kana": "カンラグンナンモクムラ",
    "town": "六車",
    "town_kana": "ムクルマ",
    "street": null,
    "office_name": null,
    "office_name_kana": null
  },
  "2812": {
    "zip_code": "3702812",
    "prefecture": "群馬県",
    "prefecture_kana": "グンマケン",
    "prefecture_code": 10,
    "city": "甘楽郡南牧村",
    "city_kana": "カンラグンナンモクムラ",
    "town": "大仁田",
    "town_kana": "オオニタ",
    "street": null,
    "office_name": null,
    "office_name_kana": null
  },
  "2813": {
    "zip_code": "3702813",
    "prefecture": "群馬県",
    "prefecture_kana": "グンマケン",
    "prefecture_code": 10,
    "city": "甘楽郡南牧村",
    "city_kana": "カンラグンナンモクムラ",
    "town": "砥沢",
    "town_kana": "トザワ",
    "street": null,
    "office_name": null,
    "office_name_kana": null
  },
  "2814": {
    "zip_code": "3702814",
    "prefecture": "群馬県",
    "prefecture_kana": "グンマケン",
    "prefecture_code": 10,
    "city": "甘楽郡南牧村",
    "city_kana": "カンラグンナンモクムラ",
    "town": "羽沢",
    "town_kana": "ハザワ",
    "street": null,
    "office_name": null,
    "office_name_kana": null
  },
  "2815": {
    "zip_code": "3702815",
    "prefecture": "群馬県",
    "prefecture_kana": "グンマケン",
    "prefecture_code": 10,
    "city": "甘楽郡南牧村",
    "city_kana": "カンラグンナンモクムラ",
    "town": "熊倉",
    "town_kana": "クマクラ",
    "street": null,
    "office_name": null,
    "office_name_kana": null
  },
  "2816": {
    "zip_code": "3702816",
    "prefecture": "群馬県",
    "prefecture_kana": "グンマケン",
    "prefecture_code": 10,
    "city": "甘楽郡南牧村",
    "city_kana": "カンラグンナンモクムラ",
    "town": "星尾",
    "town_kana": "ホシオ",
    "street": null,
    "office_name": null,
    "office_name_kana": null
  },
  "3101": {
    "zip_code": "3703101",
    "prefecture": "群馬県",
    "prefecture_kana": "グンマケン",
    "prefecture_code": 10,
    "city": "高崎市",
    "city_kana": "タカサキシ",
    "town": "箕郷町柏木沢",
    "town_kana": "ミサトマチカシワギザワ",
    "street": null,
    "office_name": null,
    "office_name_kana": null
  },
  "3102": {
    "zip_code": "3703102",
    "prefecture": "群馬県",
    "prefecture_kana": "グンマケン",
    "prefecture_code": 10,
    "city": "高崎市",
    "city_kana": "タカサキシ",
    "town": "箕郷町生原",
    "town_kana": "ミサトマチオイバラ",
    "street": null,
    "office_name": null,
    "office_name_kana": null
  },
  "3103": {
    "zip_code": "3703103",
    "prefecture": "群馬県",
    "prefecture_kana": "グンマケン",
    "prefecture_code": 10,
    "city": "高崎市",
    "city_kana": "タカサキシ",
    "town": "箕郷町下芝",
    "town_kana": "ミサトマチシモシバ",
    "street": null,
    "office_name": null,
    "office_name_kana": null
  },
  "3104": {
    "zip_code": "3703104",
    "prefecture": "群馬県",
    "prefecture_kana": "グンマケン",
    "prefecture_code": 10,
    "city": "高崎市",
    "city_kana": "タカサキシ",
    "town": "箕郷町上芝",
    "town_kana": "ミサトマチカミシバ",
    "street": null,
    "office_name": null,
    "office_name_kana": null
  },
  "3105": {
    "zip_code": "3703105",
    "prefecture": "群馬県",
    "prefecture_kana": "グンマケン",
    "prefecture_code": 10,
    "city": "高崎市",
    "city_kana": "タカサキシ",
    "town": "箕郷町西明屋",
    "town_kana": "ミサトマチニシアキヤ",
    "street": null,
    "office_name": null,
    "office_name_kana": null
  },
  "3106": {
    "zip_code": "3703106",
    "prefecture": "群馬県",
    "prefecture_kana": "グンマケン",
    "prefecture_code": 10,
    "city": "高崎市",
    "city_kana": "タカサキシ",
    "town": "箕郷町東明屋",
    "town_kana": "ミサトマチヒガシアキヤ",
    "street": null,
    "office_name": null,
    "office_name_kana": null
  },
  "3107": {
    "zip_code": "3703107",
    "prefecture": "群馬県",
    "prefecture_kana": "グンマケン",
    "prefecture_code": 10,
    "city": "高崎市",
    "city_kana": "タカサキシ",
    "town": "箕郷町矢原",
    "town_kana": "ミサトマチヤバラ",
    "street": null,
    "office_name": null,
    "office_name_kana": null
  },
  "3111": {
    "zip_code": "3703111",
    "prefecture": "群馬県",
    "prefecture_kana": "グンマケン",
    "prefecture_code": 10,
    "city": "高崎市",
    "city_kana": "タカサキシ",
    "town": "箕郷町中野",
    "town_kana": "ミサトマチナカノ",
    "street": null,
    "office_name": null,
    "office_name_kana": null
  },
  "3112": {
    "zip_code": "3703112",
    "prefecture": "群馬県",
    "prefecture_kana": "グンマケン",
    "prefecture_code": 10,
    "city": "高崎市",
    "city_kana": "タカサキシ",
    "town": "箕郷町善地",
    "town_kana": "ミサトマチゼンジ",
    "street": null,
    "office_name": null,
    "office_name_kana": null
  },
  "3113": {
    "zip_code": "3703113",
    "prefecture": "群馬県",
    "prefecture_kana": "グンマケン",
    "prefecture_code": 10,
    "city": "高崎市",
    "city_kana": "タカサキシ",
    "town": "箕郷町松之沢",
    "town_kana": "ミサトマチマツノサワ",
    "street": null,
    "office_name": null,
    "office_name_kana": null
  },
  "3114": {
    "zip_code": "3703114",
    "prefecture": "群馬県",
    "prefecture_kana": "グンマケン",
    "prefecture_code": 10,
    "city": "高崎市",
    "city_kana": "タカサキシ",
    "town": "箕郷町金敷平",
    "town_kana": "ミサトマチカナシキダイラ",
    "street": null,
    "office_name": null,
    "office_name_kana": null
  },
  "3115": {
    "zip_code": "3703115",
    "prefecture": "群馬県",
    "prefecture_kana": "グンマケン",
    "prefecture_code": 10,
    "city": "高崎市",
    "city_kana": "タカサキシ",
    "town": "箕郷町富岡",
    "town_kana": "ミサトマチトミオカ",
    "street": null,
    "office_name": null,
    "office_name_kana": null
  },
  "3116": {
    "zip_code": "3703116",
    "prefecture": "群馬県",
    "prefecture_kana": "グンマケン",
    "prefecture_code": 10,
    "city": "高崎市",
    "city_kana": "タカサキシ",
    "town": "箕郷町和田山",
    "town_kana": "ミサトマチワダヤマ",
    "street": null,
    "office_name": null,
    "office_name_kana": null
  },
  "3117": {
    "zip_code": "3703117",
    "prefecture": "群馬県",
    "prefecture_kana": "グンマケン",
    "prefecture_code": 10,
    "city": "高崎市",
    "city_kana": "タカサキシ",
    "town": "箕郷町白川",
    "town_kana": "ミサトマチシラカワ",
    "street": null,
    "office_name": null,
    "office_name_kana": null
  },
  "3192": {
    "zip_code": "3703192",
    "prefecture": "群馬県",
    "prefecture_kana": "グンマケン",
    "prefecture_code": 10,
    "city": "高崎市",
    "city_kana": "タカサキシ",
    "town": "箕郷町西明屋",
    "town_kana": "ミサトマチニシアキヤ",
    "street": "７０２−４",
    "office_name": "高崎市　箕郷支所",
    "office_name_kana": "タカサキシ ミサトシシヨ"
  },
  "3311": [
    {
      "zip_code": "3703311",
      "prefecture": "群馬県",
      "prefecture_kana": "グンマケン",
      "prefecture_code": 10,
      "city": "吾妻郡東吾妻町",
      "city_kana": "アガツマグンヒガシアガツママチ",
      "town": "岡崎",
      "town_kana": "オカザキ",
      "street": null,
      "office_name": null,
      "office_name_kana": null
    },
    {
      "zip_code": "3703311",
      "prefecture": "群馬県",
      "prefecture_kana": "グンマケン",
      "prefecture_code": 10,
      "city": "吾妻郡東吾妻町",
      "city_kana": "アガツマグンヒガシアガツママチ",
      "town": "岡崎烏帽子「榛名湖畔」",
      "town_kana": "オカザキエボシ<ハルナコハン>",
      "street": null,
      "office_name": null,
      "office_name_kana": null
    }
  ],
  "3321": [
    {
      "zip_code": "3703321",
      "prefecture": "群馬県",
      "prefecture_kana": "グンマケン",
      "prefecture_code": 10,
      "city": "吾妻郡東吾妻町",
      "city_kana": "アガツマグンヒガシアガツママチ",
      "town": "泉沢",
      "town_kana": "イズミサワ",
      "street": null,
      "office_name": null,
      "office_name_kana": null
    },
    {
      "zip_code": "3703321",
      "prefecture": "群馬県",
      "prefecture_kana": "グンマケン",
      "prefecture_code": 10,
      "city": "吾妻郡東吾妻町",
      "city_kana": "アガツマグンヒガシアガツママチ",
      "town": "泉沢烏帽子「榛名湖畔」",
      "town_kana": "イズミサワエボシ(ハルナコハン)",
      "street": null,
      "office_name": null,
      "office_name_kana": null
    }
  ],
  "3322": [
    {
      "zip_code": "3703322",
      "prefecture": "群馬県",
      "prefecture_kana": "グンマケン",
      "prefecture_code": 10,
      "city": "吾妻郡東吾妻町",
      "city_kana": "アガツマグンヒガシアガツママチ",
      "town": "川戸",
      "town_kana": "カワド",
      "street": null,
      "office_name": null,
      "office_name_kana": null
    },
    {
      "zip_code": "3703322",
      "prefecture": "群馬県",
      "prefecture_kana": "グンマケン",
      "prefecture_code": 10,
      "city": "吾妻郡東吾妻町",
      "city_kana": "アガツマグンヒガシアガツママチ",
      "town": "川戸烏帽子「榛名湖畔」",
      "town_kana": "カワドエボシ<ハルナコハン>",
      "street": null,
      "office_name": null,
      "office_name_kana": null
    }
  ],
  "3331": {
    "zip_code": "3703331",
    "prefecture": "群馬県",
    "prefecture_kana": "グンマケン",
    "prefecture_code": 10,
    "city": "高崎市",
    "city_kana": "タカサキシ",
    "town": "十文字町",
    "town_kana": "ジュウモンジマチ",
    "street": null,
    "office_name": null,
    "office_name_kana": null
  },
  "3332": {
    "zip_code": "3703332",
    "prefecture": "群馬県",
    "prefecture_kana": "グンマケン",
    "prefecture_code": 10,
    "city": "高崎市",
    "city_kana": "タカサキシ",
    "town": "白岩町",
    "town_kana": "シライワマチ",
    "street": null,
    "office_name": null,
    "office_name_kana": null
  },
  "3333": {
    "zip_code": "3703333",
    "prefecture": "群馬県",
    "prefecture_kana": "グンマケン",
    "prefecture_code": 10,
    "city": "高崎市",
    "city_kana": "タカサキシ",
    "town": "高浜町",
    "town_kana": "タカハママチ",
    "street": null,
    "office_name": null,
    "office_name_kana": null
  },
  "3334": {
    "zip_code": "3703334",
    "prefecture": "群馬県",
    "prefecture_kana": "グンマケン",
    "prefecture_code": 10,
    "city": "高崎市",
    "city_kana": "タカサキシ",
    "town": "本郷町",
    "town_kana": "ホンゴウマチ",
    "street": null,
    "office_name": null,
    "office_name_kana": null
  },
  "3335": {
    "zip_code": "3703335",
    "prefecture": "群馬県",
    "prefecture_kana": "グンマケン",
    "prefecture_code": 10,
    "city": "高崎市",
    "city_kana": "タカサキシ",
    "town": "上大島町",
    "town_kana": "カミオオシママチ",
    "street": null,
    "office_name": null,
    "office_name_kana": null
  },
  "3336": {
    "zip_code": "3703336",
    "prefecture": "群馬県",
    "prefecture_kana": "グンマケン",
    "prefecture_code": 10,
    "city": "高崎市",
    "city_kana": "タカサキシ",
    "town": "神戸町",
    "town_kana": "ゴウドマチ",
    "street": null,
    "office_name": null,
    "office_name_kana": null
  },
  "3337": {
    "zip_code": "3703337",
    "prefecture": "群馬県",
    "prefecture_kana": "グンマケン",
    "prefecture_code": 10,
    "city": "高崎市",
    "city_kana": "タカサキシ",
    "town": "三ツ子沢町",
    "town_kana": "ミツゴサワマチ",
    "street": null,
    "office_name": null,
    "office_name_kana": null
  },
  "3338": {
    "zip_code": "3703338",
    "prefecture": "群馬県",
    "prefecture_kana": "グンマケン",
    "prefecture_code": 10,
    "city": "高崎市",
    "city_kana": "タカサキシ",
    "town": "宮沢町",
    "town_kana": "ミヤザワマチ",
    "street": null,
    "office_name": null,
    "office_name_kana": null
  },
  "3341": {
    "zip_code": "3703341",
    "prefecture": "群馬県",
    "prefecture_kana": "グンマケン",
    "prefecture_code": 10,
    "city": "高崎市",
    "city_kana": "タカサキシ",
    "town": "榛名山町",
    "town_kana": "ハルナサンマチ",
    "street": null,
    "office_name": null,
    "office_name_kana": null
  },
  "3342": {
    "zip_code": "3703342",
    "prefecture": "群馬県",
    "prefecture_kana": "グンマケン",
    "prefecture_code": 10,
    "city": "高崎市",
    "city_kana": "タカサキシ",
    "town": "下室田町",
    "town_kana": "シモムロダマチ",
    "street": null,
    "office_name": null,
    "office_name_kana": null
  },
  "3343": {
    "zip_code": "3703343",
    "prefecture": "群馬県",
    "prefecture_kana": "グンマケン",
    "prefecture_code": 10,
    "city": "高崎市",
    "city_kana": "タカサキシ",
    "town": "下里見町",
    "town_kana": "シモサトミマチ",
    "street": null,
    "office_name": null,
    "office_name_kana": null
  },
  "3344": {
    "zip_code": "3703344",
    "prefecture": "群馬県",
    "prefecture_kana": "グンマケン",
    "prefecture_code": 10,
    "city": "高崎市",
    "city_kana": "タカサキシ",
    "town": "中里見町",
    "town_kana": "ナカサトミマチ",
    "street": null,
    "office_name": null,
    "office_name_kana": null
  },
  "3345": {
    "zip_code": "3703345",
    "prefecture": "群馬県",
    "prefecture_kana": "グンマケン",
    "prefecture_code": 10,
    "city": "高崎市",
    "city_kana": "タカサキシ",
    "town": "上里見町",
    "town_kana": "カミサトミマチ",
    "street": null,
    "office_name": null,
    "office_name_kana": null
  },
  "3346": {
    "zip_code": "3703346",
    "prefecture": "群馬県",
    "prefecture_kana": "グンマケン",
    "prefecture_code": 10,
    "city": "高崎市",
    "city_kana": "タカサキシ",
    "town": "上室田町",
    "town_kana": "カミムロダマチ",
    "street": null,
    "office_name": null,
    "office_name_kana": null
  },
  "3347": {
    "zip_code": "3703347",
    "prefecture": "群馬県",
    "prefecture_kana": "グンマケン",
    "prefecture_code": 10,
    "city": "高崎市",
    "city_kana": "タカサキシ",
    "town": "中室田町",
    "town_kana": "ナカムロダマチ",
    "street": null,
    "office_name": null,
    "office_name_kana": null
  },
  "3348": {
    "zip_code": "3703348",
    "prefecture": "群馬県",
    "prefecture_kana": "グンマケン",
    "prefecture_code": 10,
    "city": "高崎市",
    "city_kana": "タカサキシ",
    "town": "榛名湖町",
    "town_kana": "ハルナコマチ",
    "street": null,
    "office_name": null,
    "office_name_kana": null
  },
  "3392": {
    "zip_code": "3703392",
    "prefecture": "群馬県",
    "prefecture_kana": "グンマケン",
    "prefecture_code": 10,
    "city": "高崎市",
    "city_kana": "タカサキシ",
    "town": "下室田町",
    "town_kana": "シモムロダマチ",
    "street": "９００−１",
    "office_name": "高崎市　榛名支所",
    "office_name_kana": "タカサキシ ハルナシシヨ"
  },
  "3393": {
    "zip_code": "3703393",
    "prefecture": "群馬県",
    "prefecture_kana": "グンマケン",
    "prefecture_code": 10,
    "city": "高崎市",
    "city_kana": "タカサキシ",
    "town": "中室田町",
    "town_kana": "ナカムロダマチ",
    "street": "５９８３",
    "office_name": "社会福祉法人　新生会",
    "office_name_kana": "シヤカイフクシホウジン シンセイカイ"
  },
  "3401": {
    "zip_code": "3703401",
    "prefecture": "群馬県",
    "prefecture_kana": "グンマケン",
    "prefecture_code": 10,
    "city": "高崎市",
    "city_kana": "タカサキシ",
    "town": "倉渕町権田",
    "town_kana": "クラブチマチゴンダ",
    "street": null,
    "office_name": null,
    "office_name_kana": null
  },
  "3402": {
    "zip_code": "3703402",
    "prefecture": "群馬県",
    "prefecture_kana": "グンマケン",
    "prefecture_code": 10,
    "city": "高崎市",
    "city_kana": "タカサキシ",
    "town": "倉渕町三ノ倉",
    "town_kana": "クラブチマチサンノクラ",
    "street": null,
    "office_name": null,
    "office_name_kana": null
  },
  "3403": {
    "zip_code": "3703403",
    "prefecture": "群馬県",
    "prefecture_kana": "グンマケン",
    "prefecture_code": 10,
    "city": "高崎市",
    "city_kana": "タカサキシ",
    "town": "倉渕町水沼",
    "town_kana": "クラブチマチミズヌマ",
    "street": null,
    "office_name": null,
    "office_name_kana": null
  },
  "3404": {
    "zip_code": "3703404",
    "prefecture": "群馬県",
    "prefecture_kana": "グンマケン",
    "prefecture_code": 10,
    "city": "高崎市",
    "city_kana": "タカサキシ",
    "town": "倉渕町岩氷",
    "town_kana": "クラブチマチイワコオリ",
    "street": null,
    "office_name": null,
    "office_name_kana": null
  },
  "3405": {
    "zip_code": "3703405",
    "prefecture": "群馬県",
    "prefecture_kana": "グンマケン",
    "prefecture_code": 10,
    "city": "高崎市",
    "city_kana": "タカサキシ",
    "town": "倉渕町川浦",
    "town_kana": "クラブチマチカワウラ",
    "street": null,
    "office_name": null,
    "office_name_kana": null
  },
  "3492": {
    "zip_code": "3703492",
    "prefecture": "群馬県",
    "prefecture_kana": "グンマケン",
    "prefecture_code": 10,
    "city": "高崎市",
    "city_kana": "タカサキシ",
    "town": "倉渕町三ノ倉",
    "town_kana": "クラブチマチサンノクラ",
    "street": "３０３",
    "office_name": "高崎市　倉渕支所",
    "office_name_kana": "タカサキシ クラブチシシヨ"
  },
  "3500": {
    "zip_code": "3703500",
    "prefecture": "群馬県",
    "prefecture_kana": "グンマケン",
    "prefecture_code": 10,
    "city": "北群馬郡榛東村",
    "city_kana": "キタグンマグンシントウムラ",
    "town": "",
    "town_kana": "",
    "street": null,
    "office_name": null,
    "office_name_kana": null
  },
  "3501": {
    "zip_code": "3703501",
    "prefecture": "群馬県",
    "prefecture_kana": "グンマケン",
    "prefecture_code": 10,
    "city": "北群馬郡榛東村",
    "city_kana": "キタグンマグンシントウムラ",
    "town": "長岡",
    "town_kana": "ナガオカ",
    "street": null,
    "office_name": null,
    "office_name_kana": null
  },
  "3502": {
    "zip_code": "3703502",
    "prefecture": "群馬県",
    "prefecture_kana": "グンマケン",
    "prefecture_code": 10,
    "city": "北群馬郡榛東村",
    "city_kana": "キタグンマグンシントウムラ",
    "town": "山子田",
    "town_kana": "ヤマコダ",
    "street": null,
    "office_name": null,
    "office_name_kana": null
  },
  "3503": {
    "zip_code": "3703503",
    "prefecture": "群馬県",
    "prefecture_kana": "グンマケン",
    "prefecture_code": 10,
    "city": "北群馬郡榛東村",
    "city_kana": "キタグンマグンシントウムラ",
    "town": "新井",
    "town_kana": "アライ",
    "street": null,
    "office_name": null,
    "office_name_kana": null
  },
  "3504": {
    "zip_code": "3703504",
    "prefecture": "群馬県",
    "prefecture_kana": "グンマケン",
    "prefecture_code": 10,
    "city": "北群馬郡榛東村",
    "city_kana": "キタグンマグンシントウムラ",
    "town": "広馬場",
    "town_kana": "ヒロババ",
    "street": null,
    "office_name": null,
    "office_name_kana": null
  },
  "3505": {
    "zip_code": "3703505",
    "prefecture": "群馬県",
    "prefecture_kana": "グンマケン",
    "prefecture_code": 10,
    "city": "北群馬郡榛東村",
    "city_kana": "キタグンマグンシントウムラ",
    "town": "上野原",
    "town_kana": "ウエノハラ",
    "street": null,
    "office_name": null,
    "office_name_kana": null
  },
  "3511": {
    "zip_code": "3703511",
    "prefecture": "群馬県",
    "prefecture_kana": "グンマケン",
    "prefecture_code": 10,
    "city": "高崎市",
    "city_kana": "タカサキシ",
    "town": "金古町",
    "town_kana": "カネコマチ",
    "street": null,
    "office_name": null,
    "office_name_kana": null
  },
  "3512": {
    "zip_code": "3703512",
    "prefecture": "群馬県",
    "prefecture_kana": "グンマケン",
    "prefecture_code": 10,
    "city": "高崎市",
    "city_kana": "タカサキシ",
    "town": "西国分町",
    "town_kana": "ニシコクブマチ",
    "street": null,
    "office_name": null,
    "office_name_kana": null
  },
  "3513": {
    "zip_code": "3703513",
    "prefecture": "群馬県",
    "prefecture_kana": "グンマケン",
    "prefecture_code": 10,
    "city": "高崎市",
    "city_kana": "タカサキシ",
    "town": "北原町",
    "town_kana": "キタハラマチ",
    "street": null,
    "office_name": null,
    "office_name_kana": null
  },
  "3514": {
    "zip_code": "3703514",
    "prefecture": "群馬県",
    "prefecture_kana": "グンマケン",
    "prefecture_code": 10,
    "city": "高崎市",
    "city_kana": "タカサキシ",
    "town": "東国分町",
    "town_kana": "ヒガシコクブマチ",
    "street": null,
    "office_name": null,
    "office_name_kana": null
  },
  "3515": {
    "zip_code": "3703515",
    "prefecture": "群馬県",
    "prefecture_kana": "グンマケン",
    "prefecture_code": 10,
    "city": "高崎市",
    "city_kana": "タカサキシ",
    "town": "塚田町",
    "town_kana": "ツカダマチ",
    "street": null,
    "office_name": null,
    "office_name_kana": null
  },
  "3516": {
    "zip_code": "3703516",
    "prefecture": "群馬県",
    "prefecture_kana": "グンマケン",
    "prefecture_code": 10,
    "city": "高崎市",
    "city_kana": "タカサキシ",
    "town": "稲荷台町",
    "town_kana": "トウカダイマチ",
    "street": null,
    "office_name": null,
    "office_name_kana": null
  },
  "3517": {
    "zip_code": "3703517",
    "prefecture": "群馬県",
    "prefecture_kana": "グンマケン",
    "prefecture_code": 10,
    "city": "高崎市",
    "city_kana": "タカサキシ",
    "town": "引間町",
    "town_kana": "ヒキママチ",
    "street": null,
    "office_name": null,
    "office_name_kana": null
  },
  "3518": {
    "zip_code": "3703518",
    "prefecture": "群馬県",
    "prefecture_kana": "グンマケン",
    "prefecture_code": 10,
    "city": "高崎市",
    "city_kana": "タカサキシ",
    "town": "後疋間町",
    "town_kana": "ウシロヒキママチ",
    "street": null,
    "office_name": null,
    "office_name_kana": null
  },
  "3519": {
    "zip_code": "3703519",
    "prefecture": "群馬県",
    "prefecture_kana": "グンマケン",
    "prefecture_code": 10,
    "city": "高崎市",
    "city_kana": "タカサキシ",
    "town": "冷水町",
    "town_kana": "ヒヤミズマチ",
    "street": null,
    "office_name": null,
    "office_name_kana": null
  },
  "3521": {
    "zip_code": "3703521",
    "prefecture": "群馬県",
    "prefecture_kana": "グンマケン",
    "prefecture_code": 10,
    "city": "高崎市",
    "city_kana": "タカサキシ",
    "town": "棟高町",
    "town_kana": "ムナダカマチ",
    "street": null,
    "office_name": null,
    "office_name_kana": null
  },
  "3522": {
    "zip_code": "3703522",
    "prefecture": "群馬県",
    "prefecture_kana": "グンマケン",
    "prefecture_code": 10,
    "city": "高崎市",
    "city_kana": "タカサキシ",
    "town": "菅谷町",
    "town_kana": "スガヤマチ",
    "street": null,
    "office_name": null,
    "office_name_kana": null
  },
  "3523": {
    "zip_code": "3703523",
    "prefecture": "群馬県",
    "prefecture_kana": "グンマケン",
    "prefecture_code": 10,
    "city": "高崎市",
    "city_kana": "タカサキシ",
    "town": "福島町",
    "town_kana": "フクシママチ",
    "street": null,
    "office_name": null,
    "office_name_kana": null
  },
  "3524": {
    "zip_code": "3703524",
    "prefecture": "群馬県",
    "prefecture_kana": "グンマケン",
    "prefecture_code": 10,
    "city": "高崎市",
    "city_kana": "タカサキシ",
    "town": "中泉町",
    "town_kana": "ナカイズミマチ",
    "street": null,
    "office_name": null,
    "office_name_kana": null
  },
  "3525": {
    "zip_code": "3703525",
    "prefecture": "群馬県",
    "prefecture_kana": "グンマケン",
    "prefecture_code": 10,
    "city": "高崎市",
    "city_kana": "タカサキシ",
    "town": "三ツ寺町",
    "town_kana": "ミツデラマチ",
    "street": null,
    "office_name": null,
    "office_name_kana": null
  },
  "3531": {
    "zip_code": "3703531",
    "prefecture": "群馬県",
    "prefecture_kana": "グンマケン",
    "prefecture_code": 10,
    "city": "高崎市",
    "city_kana": "タカサキシ",
    "town": "足門町",
    "town_kana": "アシカドマチ",
    "street": null,
    "office_name": null,
    "office_name_kana": null
  },
  "3532": {
    "zip_code": "3703532",
    "prefecture": "群馬県",
    "prefecture_kana": "グンマケン",
    "prefecture_code": 10,
    "city": "高崎市",
    "city_kana": "タカサキシ",
    "town": "中里町",
    "town_kana": "ナカザトマチ",
    "street": null,
    "office_name": null,
    "office_name_kana": null
  },
  "3533": {
    "zip_code": "3703533",
    "prefecture": "群馬県",
    "prefecture_kana": "グンマケン",
    "prefecture_code": 10,
    "city": "高崎市",
    "city_kana": "タカサキシ",
    "town": "保渡田町",
    "town_kana": "ホドタマチ",
    "street": null,
    "office_name": null,
    "office_name_kana": null
  },
  "3534": {
    "zip_code": "3703534",
    "prefecture": "群馬県",
    "prefecture_kana": "グンマケン",
    "prefecture_code": 10,
    "city": "高崎市",
    "city_kana": "タカサキシ",
    "town": "井出町",
    "town_kana": "イデマチ",
    "street": null,
    "office_name": null,
    "office_name_kana": null
  },
  "3571": {
    "zip_code": "3703571",
    "prefecture": "群馬県",
    "prefecture_kana": "グンマケン",
    "prefecture_code": 10,
    "city": "前橋市",
    "city_kana": "マエバシシ",
    "town": "池端町",
    "town_kana": "イケハタマチ",
    "street": null,
    "office_name": null,
    "office_name_kana": null
  },
  "3572": {
    "zip_code": "3703572",
    "prefecture": "群馬県",
    "prefecture_kana": "グンマケン",
    "prefecture_code": 10,
    "city": "前橋市",
    "city_kana": "マエバシシ",
    "town": "上青梨子町",
    "town_kana": "カミアオナシマチ",
    "street": null,
    "office_name": null,
    "office_name_kana": null
  },
  "3573": {
    "zip_code": "3703573",
    "prefecture": "群馬県",
    "prefecture_kana": "グンマケン",
    "prefecture_code": 10,
    "city": "前橋市",
    "city_kana": "マエバシシ",
    "town": "青梨子町",
    "town_kana": "アオナシマチ",
    "street": null,
    "office_name": null,
    "office_name_kana": null
  },
  "3574": {
    "zip_code": "3703574",
    "prefecture": "群馬県",
    "prefecture_kana": "グンマケン",
    "prefecture_code": 10,
    "city": "前橋市",
    "city_kana": "マエバシシ",
    "town": "清野町",
    "town_kana": "キヨノマチ",
    "street": null,
    "office_name": null,
    "office_name_kana": null
  },
  "3592": {
    "zip_code": "3703592",
    "prefecture": "群馬県",
    "prefecture_kana": "グンマケン",
    "prefecture_code": 10,
    "city": "高崎市",
    "city_kana": "タカサキシ",
    "town": "足門町",
    "town_kana": "アシカドマチ",
    "street": "１６５８",
    "office_name": "高崎市　群馬支所",
    "office_name_kana": "タカサキシ グンマシシヨ"
  },
  "3593": {
    "zip_code": "3703593",
    "prefecture": "群馬県",
    "prefecture_kana": null,
    "prefecture_code": null,
    "city": "北群馬郡榛東村",
    "city_kana": null,
    "town": "大字新井",
    "town_kana": null,
    "street": "７９０番地１",
    "office_name": "榛東村役場",
    "office_name_kana": "シントウムラヤクバ"
  },
  "3594": {
    "zip_code": "3703594",
    "prefecture": "群馬県",
    "prefecture_kana": null,
    "prefecture_code": null,
    "city": "北群馬郡榛東村",
    "city_kana": null,
    "town": "大字新井",
    "town_kana": null,
    "street": "１０１７−２",
    "office_name": "陸上自衛隊　相馬原駐屯地",
    "office_name_kana": "リクジヨウジエイタイ ソウマガハラチユウトンチ"
  },
  "3600": {
    "zip_code": "3703600",
    "prefecture": "群馬県",
    "prefecture_kana": "グンマケン",
    "prefecture_code": 10,
    "city": "北群馬郡吉岡町",
    "city_kana": "キタグンマグンヨシオカマチ",
    "town": "",
    "town_kana": "",
    "street": null,
    "office_name": null,
    "office_name_kana": null
  },
  "3601": {
    "zip_code": "3703601",
    "prefecture": "群馬県",
    "prefecture_kana": "グンマケン",
    "prefecture_code": 10,
    "city": "北群馬郡吉岡町",
    "city_kana": "キタグンマグンヨシオカマチ",
    "town": "漆原",
    "town_kana": "ウルシバラ",
    "street": null,
    "office_name": null,
    "office_name_kana": null
  },
  "3602": {
    "zip_code": "3703602",
    "prefecture": "群馬県",
    "prefecture_kana": "グンマケン",
    "prefecture_code": 10,
    "city": "北群馬郡吉岡町",
    "city_kana": "キタグンマグンヨシオカマチ",
    "town": "大久保",
    "town_kana": "オオクボ",
    "street": null,
    "office_name": null,
    "office_name_kana": null
  },
  "3603": {
    "zip_code": "3703603",
    "prefecture": "群馬県",
    "prefecture_kana": "グンマケン",
    "prefecture_code": 10,
    "city": "北群馬郡吉岡町",
    "city_kana": "キタグンマグンヨシオカマチ",
    "town": "陣場",
    "town_kana": "ジンバ",
    "street": null,
    "office_name": null,
    "office_name_kana": null
  },
  "3604": {
    "zip_code": "3703604",
    "prefecture": "群馬県",
    "prefecture_kana": "グンマケン",
    "prefecture_code": 10,
    "city": "北群馬郡吉岡町",
    "city_kana": "キタグンマグンヨシオカマチ",
    "town": "南下",
    "town_kana": "ミナミシモ",
    "street": null,
    "office_name": null,
    "office_name_kana": null
  },
  "3605": {
    "zip_code": "3703605",
    "prefecture": "群馬県",
    "prefecture_kana": "グンマケン",
    "prefecture_code": 10,
    "city": "北群馬郡吉岡町",
    "city_kana": "キタグンマグンヨシオカマチ",
    "town": "北下",
    "town_kana": "キタシモ",
    "street": null,
    "office_name": null,
    "office_name_kana": null
  },
  "3606": {
    "zip_code": "3703606",
    "prefecture": "群馬県",
    "prefecture_kana": "グンマケン",
    "prefecture_code": 10,
    "city": "北群馬郡吉岡町",
    "city_kana": "キタグンマグンヨシオカマチ",
    "town": "上野田",
    "town_kana": "カミノダ",
    "street": null,
    "office_name": null,
    "office_name_kana": null
  },
  "3607": {
    "zip_code": "3703607",
    "prefecture": "群馬県",
    "prefecture_kana": "グンマケン",
    "prefecture_code": 10,
    "city": "北群馬郡吉岡町",
    "city_kana": "キタグンマグンヨシオカマチ",
    "town": "小倉",
    "town_kana": "オグラ",
    "street": null,
    "office_name": null,
    "office_name_kana": null
  },
  "3608": {
    "zip_code": "3703608",
    "prefecture": "群馬県",
    "prefecture_kana": "グンマケン",
    "prefecture_code": 10,
    "city": "北群馬郡吉岡町",
    "city_kana": "キタグンマグンヨシオカマチ",
    "town": "下野田",
    "town_kana": "シモノダ",
    "street": null,
    "office_name": null,
    "office_name_kana": null
  },
  "3692": {
    "zip_code": "3703692",
    "prefecture": "群馬県",
    "prefecture_kana": null,
    "prefecture_code": null,
    "city": "北群馬郡吉岡町",
    "city_kana": null,
    "town": "大字下野田",
    "town_kana": null,
    "street": "５６０番地",
    "office_name": "吉岡町役場",
    "office_name_kana": "ヨシオカマチヤクバ"
  },
  "8501": {
    "zip_code": "3708501",
    "prefecture": "群馬県",
    "prefecture_kana": "グンマケン",
    "prefecture_code": 10,
    "city": "高崎市",
    "city_kana": "タカサキシ",
    "town": "高松町",
    "town_kana": "タカマツチョウ",
    "street": "３５",
    "office_name": "高崎市役所",
    "office_name_kana": "タカサキシヤクシヨ"
  },
  "8511": {
    "zip_code": "3708511",
    "prefecture": "群馬県",
    "prefecture_kana": "グンマケン",
    "prefecture_code": 10,
    "city": "高崎市",
    "city_kana": "タカサキシ",
    "town": "問屋町",
    "town_kana": "トンヤマチ",
    "street": "２丁目７−８",
    "office_name": "高崎商工会議所",
    "office_name_kana": "タカサキシヨウコウカイギシヨ"
  },
  "8522": {
    "zip_code": "3708522",
    "prefecture": "群馬県",
    "prefecture_kana": "グンマケン",
    "prefecture_code": 10,
    "city": "高崎市",
    "city_kana": "タカサキシ",
    "town": "栄町",
    "town_kana": "サカエチョウ",
    "street": "８−１",
    "office_name": "太陽誘電　株式会社　江木工場",
    "office_name_kana": "タイヨウユウデン カブシキガイシヤ エギコウジヨウ"
  },
  "8531": {
    "zip_code": "3708531",
    "prefecture": "群馬県",
    "prefecture_kana": "グンマケン",
    "prefecture_code": 10,
    "city": "高崎市",
    "city_kana": "タカサキシ",
    "town": "高松町",
    "town_kana": "タカマツチョウ",
    "street": "２６−２",
    "office_name": "前橋地方裁判所　高崎支部　前橋家庭裁判所高崎支部　高崎簡易裁判所　高崎検察審査会",
    "office_name_kana": "マエバシチホウサイバンシヨ タカサキシブ マエバシカテイサイバンシヨタカサキシブ タカサキカンイサイバンシヨ タカサキケンサツシンサカイ"
  },
  "8537": {
    "zip_code": "3708537",
    "prefecture": "群馬県",
    "prefecture_kana": "グンマケン",
    "prefecture_code": 10,
    "city": "高崎市",
    "city_kana": "タカサキシ",
    "town": "高松町",
    "town_kana": "タカマツチョウ",
    "street": "３６",
    "office_name": "独立行政法人　国立病院機構　高崎病院",
    "office_name_kana": "ドクリツギヨウセイホウジン コクリツビヨウインキコウ タカサキビヨウイン"
  },
  "8543": {
    "zip_code": "3708543",
    "prefecture": "群馬県",
    "prefecture_kana": "グンマケン",
    "prefecture_code": 10,
    "city": "高崎市",
    "city_kana": "タカサキシ",
    "town": "栄町",
    "town_kana": "サカエチョウ",
    "street": "６−２６",
    "office_name": "東日本旅客鉄道　株式会社　高崎支社",
    "office_name_kana": "ヒガシニホンリヨカクテツドウ カブシキガイシヤ タカサキシシヤ"
  },
  "8550": {
    "zip_code": "3708550",
    "prefecture": "群馬県",
    "prefecture_kana": "グンマケン",
    "prefecture_code": 10,
    "city": "高崎市",
    "city_kana": "タカサキシ",
    "town": "東町",
    "town_kana": "アズマチョウ",
    "street": "１２６−７",
    "office_name": "日本たばこ産業　株式会社　高崎支店",
    "office_name_kana": "ニホンタバコサンギヨウ カブシキガイシヤ タカサキシテン"
  },
  "8555": {
    "zip_code": "3708555",
    "prefecture": "群馬県",
    "prefecture_kana": "グンマケン",
    "prefecture_code": 10,
    "city": "高崎市",
    "city_kana": "タカサキシ",
    "town": "宮元町",
    "town_kana": "ミヤモトチョウ",
    "street": "１３−１",
    "office_name": "株式会社　スズラン　高崎店",
    "office_name_kana": "カブシキガイシヤ スズラン タカサキテン"
  },
  "8565": {
    "zip_code": "3708565",
    "prefecture": "群馬県",
    "prefecture_kana": "グンマケン",
    "prefecture_code": 10,
    "city": "高崎市",
    "city_kana": "タカサキシ",
    "town": "旭町",
    "town_kana": "アサヒチョウ",
    "street": "４５",
    "office_name": "株式会社　高崎高島屋",
    "office_name_kana": "カブシキガイシヤ タカサキタカシマヤ"
  },
  "8585": {
    "zip_code": "3708585",
    "prefecture": "群馬県",
    "prefecture_kana": "グンマケン",
    "prefecture_code": 10,
    "city": "高崎市",
    "city_kana": "タカサキシ",
    "town": "双葉町",
    "town_kana": "フタバチョウ",
    "street": "３−１",
    "office_name": "沖電気工業　株式会社　高崎地区",
    "office_name_kana": "オキデンキコウギヨウ カブシキガイシヤ タカサキチク"
  },
  "8601": {
    "zip_code": "3708601",
    "prefecture": "群馬県",
    "prefecture_kana": "グンマケン",
    "prefecture_code": 10,
    "city": "高崎市",
    "city_kana": "タカサキシ",
    "town": "八島町",
    "town_kana": "ヤシマチョウ",
    "street": "５８−１（高崎郵便局私書箱第５０号）",
    "office_name": "大和証券　株式会社　高崎支店",
    "office_name_kana": "ダイワシヨウケン カブシキガイシヤ タカサキシテン"
  },
  "8611": {
    "zip_code": "3708611",
    "prefecture": "群馬県",
    "prefecture_kana": "グンマケン",
    "prefecture_code": 10,
    "city": "高崎市",
    "city_kana": "タカサキシ",
    "town": "東町",
    "town_kana": "アズマチョウ",
    "street": "１３４−１２（高崎郵便局私書箱第３８号）",
    "office_name": "高崎　税務署",
    "office_name_kana": "タカサキ ゼイムシヨ"
  },
  "8622": {
    "zip_code": "3708622",
    "prefecture": "群馬県",
    "prefecture_kana": "グンマケン",
    "prefecture_code": 10,
    "city": "高崎市",
    "city_kana": "タカサキシ",
    "town": "問屋町",
    "town_kana": "トンヤマチ",
    "street": "３丁目１０−３（高崎郵便局私書箱第１２号）",
    "office_name": "株式会社　群馬銀行　高崎支店",
    "office_name_kana": "カブシキガイシヤ グンマギンコウ タカサキシテン"
  },
  "8666": {
    "zip_code": "3708666",
    "prefecture": "群馬県",
    "prefecture_kana": "グンマケン",
    "prefecture_code": 10,
    "city": "高崎市",
    "city_kana": "タカサキシ",
    "town": "高松町",
    "town_kana": "タカマツチョウ",
    "street": "３",
    "office_name": "東日本電信電話　（株）　群馬支店",
    "office_name_kana": "ヒガシニホンデンシンデンワ カブシキガイシヤ グンマシテン"
  },
  "8668": {
    "zip_code": "3708668",
    "prefecture": "群馬県",
    "prefecture_kana": "グンマケン",
    "prefecture_code": 10,
    "city": "高崎市",
    "city_kana": "タカサキシ",
    "town": "飯塚町",
    "town_kana": "イイヅカマチ",
    "street": "１２００−１（高崎郵便局私書箱第８号）",
    "office_name": "高崎信用金庫",
    "office_name_kana": "タカサキシンヨウキンコ"
  },
  "8686": {
    "zip_code": "3708686",
    "prefecture": "東京都",
    "prefecture_kana": "トウキョウト",
    "prefecture_code": 13,
    "city": "多摩市",
    "city_kana": "タマシ",
    "town": "落合",
    "town_kana": "オチアイ",
    "street": "１丁目３４",
    "office_name": "株式会社　ベネッセコーポレーション",
    "office_name_kana": "カブシキガイシヤ ベネツセコ-ポレ-シヨン"
  }
}