{
  "0000": {
    "zip_code": "3760000",
    "prefecture": "群馬県",
    "prefecture_kana": "グンマケン",
    "prefecture_code": 10,
    "city": "桐生市",
    "city_kana": "キリュウシ",
    "town": "",
    "town_kana": "",
    "street": null,
    "office_name": null,
    "office_name_kana": null
  },
  "0001": {
    "zip_code": "3760001",
    "prefecture": "群馬県",
    "prefecture_kana": "グンマケン",
    "prefecture_code": 10,
    "city": "桐生市",
    "city_kana": "キリュウシ",
    "town": "菱町",
    "town_kana": "ヒシマチ",
    "street": null,
    "office_name": null,
    "office_name_kana": null
  },
  "0002": {
    "zip_code": "3760002",
    "prefecture": "群馬県",
    "prefecture_kana": "グンマケン",
    "prefecture_code": 10,
    "city": "桐生市",
    "city_kana": "キリュウシ",
    "town": "境野町",
    "town_kana": "サカイノチョウ",
    "street": null,
    "office_name": null,
    "office_name_kana": null
  },
  "0003": {
    "zip_code": "3760003",
    "prefecture": "群馬県",
    "prefecture_kana": "グンマケン",
    "prefecture_code": 10,
    "city": "桐生市",
    "city_kana": "キリュウシ",
    "town": "琴平町",
    "town_kana": "コトヒラチョウ",
    "street": null,
    "office_name": null,
    "office_name_kana": null
  },
  "0004": {
    "zip_code": "3760004",
    "prefecture": "群馬県",
    "prefecture_kana": "グンマケン",
    "prefecture_code": 10,
    "city": "桐生市",
    "city_kana": "キリュウシ",
    "town": "小梅町",
    "town_kana": "コウメチョウ",
    "street": null,
    "office_name": null,
    "office_name_kana": null
  },
  "0005": {
    "zip_code": "3760005",
    "prefecture": "群馬県",
    "prefecture_kana": "グンマケン",
    "prefecture_code": 10,
    "city": "桐生市",
    "city_kana": "キリュウシ",
    "town": "三吉町",
    "town_kana": "ミヨシチョウ",
    "street": null,
    "office_name": null,
    "office_name_kana": null
  },
  "0006": {
    "zip_code": "3760006",
    "prefecture": "群馬県",
    "prefecture_kana": "グンマケン",
    "prefecture_code": 10,
    "city": "桐生市",
    "city_kana": "キリュウシ",
    "town": "新宿",
    "town_kana": "シンシュク",
    "street": null,
    "office_name": null,
    "office_name_kana": null
  },
  "0007": {
    "zip_code": "3760007",
    "prefecture": "群馬県",
    "prefecture_kana": "グンマケン",
    "prefecture_code": 10,
    "city": "桐生市",
    "city_kana": "キリュウシ",
    "town": "浜松町",
    "town_kana": "ハママツチョウ",
    "street": null,
    "office_name": null,
    "office_name_kana": null
  },
  "0011": {
    "zip_code": "3760011",
    "prefecture": "群馬県",
    "prefecture_kana": "グンマケン",
    "prefecture_code": 10,
    "city": "桐生市",
    "city_kana": "キリュウシ",
    "town": "相生町",
    "town_kana": "アイオイチョウ",
    "street": null,
    "office_name": null,
    "office_name_kana": null
  },
  "0012": {
    "zip_code": "3760012",
    "prefecture": "群馬県",
    "prefecture_kana": "グンマケン",
    "prefecture_code": 10,
    "city": "桐生市",
    "city_kana": "キリュウシ",
    "town": "桜木町",
    "town_kana": "サクラギチョウ",
    "street": null,
    "office_name": null,
    "office_name_kana": null
  },
  "0013": {
    "zip_code": "3760013",
    "prefecture": "群馬県",
    "prefecture_kana": "グンマケン",
    "prefecture_code": 10,
    "city": "桐生市",
    "city_kana": "キリュウシ",
    "town": "広沢町",
    "town_kana": "ヒロサワチョウ",
    "street": null,
    "office_name": null,
    "office_name_kana": null
  },
  "0014": {
    "zip_code": "3760014",
    "prefecture": "群馬県",
    "prefecture_kana": "グンマケン",
    "prefecture_code": 10,
    "city": "桐生市",
    "city_kana": "キリュウシ",
    "town": "広沢町間ノ島",
    "town_kana": "ヒロサワチョウアイノシマ",
    "street": null,
    "office_name": null,
    "office_name_kana": null
  },
  "0021": {
    "zip_code": "3760021",
    "prefecture": "群馬県",
    "prefecture_kana": "グンマケン",
    "prefecture_code": 10,
    "city": "桐生市",
    "city_kana": "キリュウシ",
    "town": "巴町",
    "town_kana": "トモエチョウ",
    "street": null,
    "office_name": null,
    "office_name_kana": null
  },
  "0022": {
    "zip_code": "3760022",
    "prefecture": "群馬県",
    "prefecture_kana": "グンマケン",
    "prefecture_code": 10,
    "city": "桐生市",
    "city_kana": "キリュウシ",
    "town": "稲荷町",
    "town_kana": "イナリチョウ",
    "street": null,
    "office_name": null,
    "office_name_kana": null
  },
  "0023": {
    "zip_code": "3760023",
    "prefecture": "群馬県",
    "prefecture_kana": "グンマケン",
    "prefecture_code": 10,
    "city": "桐生市",
    "city_kana": "キリュウシ",
    "town": "錦町",
    "town_kana": "ニシキチョウ",
    "street": null,
    "office_name": null,
    "office_name_kana": null
  },
  "0024": {
    "zip_code": "3760024",
    "prefecture": "群馬県",
    "prefecture_kana": "グンマケン",
    "prefecture_code": 10,
    "city": "桐生市",
    "city_kana": "キリュウシ",
    "town": "織姫町",
    "town_kana": "オリヒメチョウ",
    "street": null,
    "office_name": null,
    "office_name_kana": null
  },
  "0025": {
    "zip_code": "3760025",
    "prefecture": "群馬県",
    "prefecture_kana": "グンマケン",
    "prefecture_code": 10,
    "city": "桐生市",
    "city_kana": "キリュウシ",
    "town": "美原町",
    "town_kana": "ミハラチョウ",
    "street": null,
    "office_name": null,
    "office_name_kana": null
  },
  "0026": {
    "zip_code": "3760026",
    "prefecture": "群馬県",
    "prefecture_kana": "グンマケン",
    "prefecture_code": 10,
    "city": "桐生市",
    "city_kana": "キリュウシ",
    "town": "清瀬町",
    "town_kana": "キヨセチョウ",
    "street": null,
    "office_name": null,
    "office_name_kana": null
  },
  "0027": {
    "zip_code": "3760027",
    "prefecture": "群馬県",
    "prefecture_kana": "グンマケン",
    "prefecture_code": 10,
    "city": "桐生市",
    "city_kana": "キリュウシ",
    "town": "元宿町",
    "town_kana": "モトジュクチョウ",
    "street": null,
    "office_name": null,
    "office_name_kana": null
  },
  "0031": {
    "zip_code": "3760031",
    "prefecture": "群馬県",
    "prefecture_kana": "グンマケン",
    "prefecture_code": 10,
    "city": "桐生市",
    "city_kana": "キリュウシ",
    "town": "本町",
    "town_kana": "ホンチョウ",
    "street": null,
    "office_name": null,
    "office_name_kana": null
  },
  "0032": {
    "zip_code": "3760032",
    "prefecture": "群馬県",
    "prefecture_kana": "グンマケン",
    "prefecture_code": 10,
    "city": "桐生市",
    "city_kana": "キリュウシ",
    "town": "東町",
    "town_kana": "アズマチョウ",
    "street": null,
    "office_name": null,
    "office_name_kana": null
  },
  "0033": {
    "zip_code": "3760033",
    "prefecture": "群馬県",
    "prefecture_kana": "グンマケン",
    "prefecture_code": 10,
    "city": "桐生市",
    "city_kana": "キリュウシ",
    "town": "泉町",
    "town_kana": "イズミチョウ",
    "street": null,
    "office_name": null,
    "office_name_kana": null
  },
  "0034": {
    "zip_code": "3760034",
    "prefecture": "群馬県",
    "prefecture_kana": "グンマケン",
    "prefecture_code": 10,
    "city": "桐生市",
    "city_kana": "キリュウシ",
    "town": "東",
    "town_kana": "ヒガシ",
    "street": null,
    "office_name": null,
    "office_name_kana": null
  },
  "0035": {
    "zip_code": "3760035",
    "prefecture": "群馬県",
    "prefecture_kana": "グンマケン",
    "prefecture_code": 10,
    "city": "桐生市",
    "city_kana": "キリュウシ",
    "town": "仲町",
    "town_kana": "ナカマチ",
    "street": null,
    "office_name": null,
    "office_name_kana": null
  },
  "0036": {
    "zip_code": "3760036",
    "prefecture": "群馬県",
    "prefecture_kana": "グンマケン",
    "prefecture_code": 10,
    "city": "桐生市",
    "city_kana": "キリュウシ",
    "town": "川岸町",
    "town_kana": "カワギシチョウ",
    "street": null,
    "office_name": null,
    "office_name_kana": null
  },
  "0037": {
    "zip_code": "3760037",
    "prefecture": "群馬県",
    "prefecture_kana": "グンマケン",
    "prefecture_code": 10,
    "city": "桐生市",
    "city_kana": "キリュウシ",
    "town": "旭町",
    "town_kana": "アサヒチョウ",
    "street": null,
    "office_name": null,
    "office_name_kana": null
  },
  "0038": {
    "zip_code": "3760038",
    "prefecture": "群馬県",
    "prefecture_kana": "グンマケン",
    "prefecture_code": 10,
    "city": "桐生市",
    "city_kana": "キリュウシ",
    "town": "高砂町",
    "town_kana": "タカサゴチョウ",
    "street": null,
    "office_name": null,
    "office_name_kana": null
  },
  "0041": {
    "zip_code": "3760041",
    "prefecture": "群馬県",
    "prefecture_kana": "グンマケン",
    "prefecture_code": 10,
    "city": "桐生市",
    "city_kana": "キリュウシ",
    "town": "川内町",
    "town_kana": "カワウチチョウ",
    "street": null,
    "office_name": null,
    "office_name_kana": null
  },
  "0042": {
    "zip_code": "3760042",
    "prefecture": "群馬県",
    "prefecture_kana": "グンマケン",
    "prefecture_code": 10,
    "city": "桐生市",
    "city_kana": "キリュウシ",
    "town": "堤町",
    "town_kana": "ツツミチョウ",
    "street": null,
    "office_name": null,
    "office_name_kana": null
  },
  "0043": {
    "zip_code": "3760043",
    "prefecture": "群馬県",
    "prefecture_kana": "グンマケン",
    "prefecture_code": 10,
    "city": "桐生市",
    "city_kana": "キリュウシ",
    "town": "小曾根町",
    "town_kana": "コソネチョウ",
    "street": null,
    "office_name": null,
    "office_name_kana": null
  },
  "0044": {
    "zip_code": "3760044",
    "prefecture": "群馬県",
    "prefecture_kana": "グンマケン",
    "prefecture_code": 10,
    "city": "桐生市",
    "city_kana": "キリュウシ",
    "town": "永楽町",
    "town_kana": "エイラクチョウ",
    "street": null,
    "office_name": null,
    "office_name_kana": null
  },
  "0045": {
    "zip_code": "3760045",
    "prefecture": "群馬県",
    "prefecture_kana": "グンマケン",
    "prefecture_code": 10,
    "city": "桐生市",
    "city_kana": "キリュウシ",
    "town": "末広町",
    "town_kana": "スエヒロチョウ",
    "street": null,
    "office_name": null,
    "office_name_kana": null
  },
  "0046": {
    "zip_code": "3760046",
    "prefecture": "群馬県",
    "prefecture_kana": "グンマケン",
    "prefecture_code": 10,
    "city": "桐生市",
    "city_kana": "キリュウシ",
    "town": "宮前町",
    "town_kana": "ミヤマエチョウ",
    "street": null,
    "office_name": null,
    "office_name_kana": null
  },
  "0051": {
    "zip_code": "3760051",
    "prefecture": "群馬県",
    "prefecture_kana": "グンマケン",
    "prefecture_code": 10,
    "city": "桐生市",
    "city_kana": "キリュウシ",
    "town": "平井町",
    "town_kana": "ヒライチョウ",
    "street": null,
    "office_name": null,
    "office_name_kana": null
  },
  "0052": {
    "zip_code": "3760052",
    "prefecture": "群馬県",
    "prefecture_kana": "グンマケン",
    "prefecture_code": 10,
    "city": "桐生市",
    "city_kana": "キリュウシ",
    "town": "天神町",
    "town_kana": "テンジンチョウ",
    "street": null,
    "office_name": null,
    "office_name_kana": null
  },
  "0053": {
    "zip_code": "3760053",
    "prefecture": "群馬県",
    "prefecture_kana": "グンマケン",
    "prefecture_code": 10,
    "city": "桐生市",
    "city_kana": "キリュウシ",
    "town": "東久方町",
    "town_kana": "ヒガシヒサカタチョウ",
    "street": null,
    "office_name": null,
    "office_name_kana": null
  },
  "0054": {
    "zip_code": "3760054",
    "prefecture": "群馬県",
    "prefecture_kana": "グンマケン",
    "prefecture_code": 10,
    "city": "桐生市",
    "city_kana": "キリュウシ",
    "town": "西久方町",
    "town_kana": "ニシヒサカタチョウ",
    "street": null,
    "office_name": null,
    "office_name_kana": null
  },
  "0055": {
    "zip_code": "3760055",
    "prefecture": "群馬県",
    "prefecture_kana": "グンマケン",
    "prefecture_code": 10,
    "city": "桐生市",
    "city_kana": "キリュウシ",
    "town": "横山町",
    "town_kana": "ヨコヤマチョウ",
    "street": null,
    "office_name": null,
    "office_name_kana": null
  },
  "0056": {
    "zip_code": "3760056",
    "prefecture": "群馬県",
    "prefecture_kana": "グンマケン",
    "prefecture_code": 10,
    "city": "桐生市",
    "city_kana": "キリュウシ",
    "town": "宮本町",
    "town_kana": "ミヤモトチョウ",
    "street": null,
    "office_name": null,
    "office_name_kana": null
  },
  "0100": {
    "zip_code": "3760100",
    "prefecture": "群馬県",
    "prefecture_kana": "グンマケン",
    "prefecture_code": 10,
    "city": "みどり市",
    "city_kana": "ミドリシ",
    "town": "",
    "town_kana": "",
    "street": null,
    "office_name": null,
    "office_name_kana": null
  },
  "0101": {
    "zip_code": "3760101",
    "prefecture": "群馬県",
    "prefecture_kana": "グンマケン",
    "prefecture_code": 10,
    "city": "みどり市",
    "city_kana": "ミドリシ",
    "town": "大間々町大間々",
    "town_kana": "オオママチョウオオママ",
    "street": null,
    "office_name": null,
    "office_name_kana": null
  },
  "0102": {
    "zip_code": "3760102",
    "prefecture": "群馬県",
    "prefecture_kana": "グンマケン",
    "prefecture_code": 10,
    "city": "みどり市",
    "city_kana": "ミドリシ",
    "town": "大間々町桐原",
    "town_kana": "オオママチョウキリバラ",
    "street": null,
    "office_name": null,
    "office_name_kana": null
  },
  "0103": {
    "zip_code": "3760103",
    "prefecture": "群馬県",
    "prefecture_kana": "グンマケン",
    "prefecture_code": 10,
    "city": "みどり市",
    "city_kana": "ミドリシ",
    "town": "大間々町下神梅",
    "town_kana": "オオママチョウシモカンバイ",
    "street": null,
    "office_name": null,
    "office_name_kana": null
  },
  "0104": {
    "zip_code": "3760104",
    "prefecture": "群馬県",
    "prefecture_kana": "グンマケン",
    "prefecture_code": 10,
    "city": "みどり市",
    "city_kana": "ミドリシ",
    "town": "大間々町上神梅",
    "town_kana": "オオママチョウカミカンバイ",
    "street": null,
    "office_name": null,
    "office_name_kana": null
  },
  "0111": {
    "zip_code": "3760111",
    "prefecture": "群馬県",
    "prefecture_kana": "グンマケン",
    "prefecture_code": 10,
    "city": "みどり市",
    "city_kana": "ミドリシ",
    "town": "大間々町小平",
    "town_kana": "オオママチョウオダイラ",
    "street": null,
    "office_name": null,
    "office_name_kana": null
  },
  "0112": {
    "zip_code": "3760112",
    "prefecture": "群馬県",
    "prefecture_kana": "グンマケン",
    "prefecture_code": 10,
    "city": "みどり市",
    "city_kana": "ミドリシ",
    "town": "大間々町長尾根",
    "town_kana": "オオママチョウナガオネ",
    "street": null,
    "office_name": null,
    "office_name_kana": null
  },
  "0113": {
    "zip_code": "3760113",
    "prefecture": "群馬県",
    "prefecture_kana": "グンマケン",
    "prefecture_code": 10,
    "city": "みどり市",
    "city_kana": "ミドリシ",
    "town": "大間々町高津戸",
    "town_kana": "オオママチョウタカツド",
    "street": null,
    "office_name": null,
    "office_name_kana": null
  },
  "0114": {
    "zip_code": "3760114",
    "prefecture": "群馬県",
    "prefecture_kana": "グンマケン",
    "prefecture_code": 10,
    "city": "みどり市",
    "city_kana": "ミドリシ",
    "town": "大間々町浅原",
    "town_kana": "オオママチョウアサバラ",
    "street": null,
    "office_name": null,
    "office_name_kana": null
  },
  "0115": {
    "zip_code": "3760115",
    "prefecture": "群馬県",
    "prefecture_kana": "グンマケン",
    "prefecture_code": 10,
    "city": "みどり市",
    "city_kana": "ミドリシ",
    "town": "大間々町塩原",
    "town_kana": "オオママチョウシオバラ",
    "street": null,
    "office_name": null,
    "office_name_kana": null
  },
  "0116": {
    "zip_code": "3760116",
    "prefecture": "群馬県",
    "prefecture_kana": "グンマケン",
    "prefecture_code": 10,
    "city": "みどり市",
    "city_kana": "ミドリシ",
    "town": "大間々町塩沢",
    "town_kana": "オオママチョウシオザワ",
    "street": null,
    "office_name": null,
    "office_name_kana": null
  },
  "0121": {
    "zip_code": "3760121",
    "prefecture": "群馬県",
    "prefecture_kana": "グンマケン",
    "prefecture_code": 10,
    "city": "桐生市",
    "city_kana": "キリュウシ",
    "town": "新里町新川",
    "town_kana": "ニイサトチョウニッカワ",
    "street": null,
    "office_name": null,
    "office_name_kana": null
  },
  "0122": {
    "zip_code": "3760122",
    "prefecture": "群馬県",
    "prefecture_kana": "グンマケン",
    "prefecture_code": 10,
    "city": "桐生市",
    "city_kana": "キリュウシ",
    "town": "新里町野",
    "town_kana": "ニイサトチョウノ",
    "street": null,
    "office_name": null,
    "office_name_kana": null
  },
  "0123": {
    "zip_code": "3760123",
    "prefecture": "群馬県",
    "prefecture_kana": "グンマケン",
    "prefecture_code": 10,
    "city": "桐生市",
    "city_kana": "キリュウシ",
    "town": "新里町武井",
    "town_kana": "ニイサトチョウタケイ",
    "street": null,
    "office_name": null,
    "office_name_kana": null
  },
  "0124": {
    "zip_code": "3760124",
    "prefecture": "群馬県",
    "prefecture_kana": "グンマケン",
    "prefecture_code": 10,
    "city": "桐生市",
    "city_kana": "キリュウシ",
    "town": "新里町小林",
    "town_kana": "ニイサトチョウコバヤシ",
    "street": null,
    "office_name": null,
    "office_name_kana": null
  },
  "0125": {
    "zip_code": "3760125",
    "prefecture": "群馬県",
    "prefecture_kana": "グンマケン",
    "prefecture_code": 10,
    "city": "桐生市",
    "city_kana": "キリュウシ",
    "town": "新里町山上",
    "town_kana": "ニイサトチョウヤマカミ",
    "street": null,
    "office_name": null,
    "office_name_kana": null
  },
  "0131": {
    "zip_code": "3760131",
    "prefecture": "群馬県",
    "prefecture_kana": "グンマケン",
    "prefecture_code": 10,
    "city": "桐生市",
    "city_kana": "キリュウシ",
    "town": "新里町奥沢",
    "town_kana": "ニイサトチョウオクザワ",
    "street": null,
    "office_name": null,
    "office_name_kana": null
  },
  "0132": {
    "zip_code": "3760132",
    "prefecture": "群馬県",
    "prefecture_kana": "グンマケン",
    "prefecture_code": 10,
    "city": "桐生市",
    "city_kana": "キリュウシ",
    "town": "新里町鶴ケ谷",
    "town_kana": "ニイサトチョウツルガヤ",
    "street": null,
    "office_name": null,
    "office_name_kana": null
  },
  "0133": {
    "zip_code": "3760133",
    "prefecture": "群馬県",
    "prefecture_kana": "グンマケン",
    "prefecture_code": 10,
    "city": "桐生市",
    "city_kana": "キリュウシ",
    "town": "新里町大久保",
    "town_kana": "ニイサトチョウオオクボ",
    "street": null,
    "office_name": null,
    "office_name_kana": null
  },
  "0134": {
    "zip_code": "3760134",
    "prefecture": "群馬県",
    "prefecture_kana": "グンマケン",
    "prefecture_code": 10,
    "city": "桐生市",
    "city_kana": "キリュウシ",
    "town": "新里町関",
    "town_kana": "ニイサトチョウセキ",
    "street": null,
    "office_name": null,
    "office_name_kana": null
  },
  "0135": {
    "zip_code": "3760135",
    "prefecture": "群馬県",
    "prefecture_kana": "グンマケン",
    "prefecture_code": 10,
    "city": "桐生市",
    "city_kana": "キリュウシ",
    "town": "新里町高泉",
    "town_kana": "ニイサトチョウタカイズミ",
    "street": null,
    "office_name": null,
    "office_name_kana": null
  },
  "0136": {
    "zip_code": "3760136",
    "prefecture": "群馬県",
    "prefecture_kana": "グンマケン",
    "prefecture_code": 10,
    "city": "桐生市",
    "city_kana": "キリュウシ",
    "town": "新里町板橋",
    "town_kana": "ニイサトチョウイタバシ",
    "street": null,
    "office_name": null,
    "office_name_kana": null
  },
  "0137": {
    "zip_code": "3760137",
    "prefecture": "群馬県",
    "prefecture_kana": "グンマケン",
    "prefecture_code": 10,
    "city": "桐生市",
    "city_kana": "キリュウシ",
    "town": "新里町赤城山",
    "town_kana": "ニイサトチョウアカギサン",
    "street": null,
    "office_name": null,
    "office_name_kana": null
  },
  "0141": {
    "zip_code": "3760141",
    "prefecture": "群馬県",
    "prefecture_kana": "グンマケン",
    "prefecture_code": 10,
    "city": "桐生市",
    "city_kana": "キリュウシ",
    "town": "黒保根町水沼",
    "town_kana": "クロホネチョウミズヌマ",
    "street": null,
    "office_name": null,
    "office_name_kana": null
  },
  "0142": {
    "zip_code": "3760142",
    "prefecture": "群馬県",
    "prefecture_kana": "グンマケン",
    "prefecture_code": 10,
    "city": "桐生市",
    "city_kana": "キリュウシ",
    "town": "黒保根町八木原",
    "town_kana": "クロホネチョウヤギハラ",
    "street": null,
    "office_name": null,
    "office_name_kana": null
  },
  "0143": {
    "zip_code": "3760143",
    "prefecture": "群馬県",
    "prefecture_kana": "グンマケン",
    "prefecture_code": 10,
    "city": "桐生市",
    "city_kana": "キリュウシ",
    "town": "黒保根町宿廻",
    "town_kana": "クロホネチョウシュクメグリ",
    "street": null,
    "office_name": null,
    "office_name_kana": null
  },
  "0144": {
    "zip_code": "3760144",
    "prefecture": "群馬県",
    "prefecture_kana": "グンマケン",
    "prefecture_code": 10,
    "city": "桐生市",
    "city_kana": "キリュウシ",
    "town": "黒保根町下田沢",
    "town_kana": "クロホネチョウシモタザワ",
    "street": null,
    "office_name": null,
    "office_name_kana": null
  },
  "0145": {
    "zip_code": "3760145",
    "prefecture": "群馬県",
    "prefecture_kana": "グンマケン",
    "prefecture_code": 10,
    "city": "桐生市",
    "city_kana": "キリュウシ",
    "town": "黒保根町上田沢",
    "town_kana": "クロホネチョウカミタザワ",
    "street": null,
    "office_name": null,
    "office_name_kana": null
  },
  "0192": {
    "zip_code": "3760192",
    "prefecture": "群馬県",
    "prefecture_kana": "グンマケン",
    "prefecture_code": 10,
    "city": "みどり市",
    "city_kana": "ミドリシ",
    "town": "大間々町大間々",
    "town_kana": "オオママチョウオオママ",
    "street": "１５１１",
    "office_name": "みどり市役所　大間々庁舎",
    "office_name_kana": "ミドリシヤクシヨ オオママチヨウシヤ"
  },
  "0193": {
    "zip_code": "3760193",
    "prefecture": "群馬県",
    "prefecture_kana": "グンマケン",
    "prefecture_code": 10,
    "city": "みどり市",
    "city_kana": "ミドリシ",
    "town": "大間々町大間々",
    "town_kana": "オオママチョウオオママ",
    "street": "２４５８−２",
    "office_name": "星野物産　株式会社",
    "office_name_kana": "ホシノブツサン カブシキガイシヤ"
  },
  "0194": {
    "zip_code": "3760194",
    "prefecture": "群馬県",
    "prefecture_kana": "グンマケン",
    "prefecture_code": 10,
    "city": "桐生市",
    "city_kana": "キリュウシ",
    "town": "新里町武井",
    "town_kana": "ニイサトチョウタケイ",
    "street": "６９３",
    "office_name": "桐生市役所　新里支所",
    "office_name_kana": "キリユウシヤクシヨ ニイサトシシヨ"
  },
  "0301": {
    "zip_code": "3760301",
    "prefecture": "群馬県",
    "prefecture_kana": "グンマケン",
    "prefecture_code": 10,
    "city": "みどり市",
    "city_kana": "ミドリシ",
    "town": "東町沢入",
    "town_kana": "アズマチョウソウリ",
    "street": null,
    "office_name": null,
    "office_name_kana": null
  },
  "0302": {
    "zip_code": "3760302",
    "prefecture": "群馬県",
    "prefecture_kana": "グンマケン",
    "prefecture_code": 10,
    "city": "みどり市",
    "city_kana": "ミドリシ",
    "town": "東町草木",
    "town_kana": "アズマチョウクサギ",
    "street": null,
    "office_name": null,
    "office_name_kana": null
  },
  "0303": {
    "zip_code": "3760303",
    "prefecture": "群馬県",
    "prefecture_kana": "グンマケン",
    "prefecture_code": 10,
    "city": "みどり市",
    "city_kana": "ミドリシ",
    "town": "東町座間",
    "town_kana": "アズマチョウザマ",
    "street": null,
    "office_name": null,
    "office_name_kana": null
  },
  "0304": {
    "zip_code": "3760304",
    "prefecture": "群馬県",
    "prefecture_kana": "グンマケン",
    "prefecture_code": 10,
    "city": "みどり市",
    "city_kana": "ミドリシ",
    "town": "東町神戸",
    "town_kana": "アズマチョウゴウド",
    "street": null,
    "office_name": null,
    "office_name_kana": null
  },
  "0305": {
    "zip_code": "3760305",
    "prefecture": "群馬県",
    "prefecture_kana": "グンマケン",
    "prefecture_code": 10,
    "city": "みどり市",
    "city_kana": "ミドリシ",
    "town": "東町小夜戸",
    "town_kana": "アズマチョウサヤド",
    "street": null,
    "office_name": null,
    "office_name_kana": null
  },
  "0306": {
    "zip_code": "3760306",
    "prefecture": "群馬県",
    "prefecture_kana": "グンマケン",
    "prefecture_code": 10,
    "city": "みどり市",
    "city_kana": "ミドリシ",
    "town": "東町荻原",
    "town_kana": "アズマチョウオギハラ",
    "street": null,
    "office_name": null,
    "office_name_kana": null
  },
  "0307": {
    "zip_code": "3760307",
    "prefecture": "群馬県",
    "prefecture_kana": "グンマケン",
    "prefecture_code": 10,
    "city": "みどり市",
    "city_kana": "ミドリシ",
    "town": "東町花輪",
    "town_kana": "アズマチョウハナワ",
    "street": null,
    "office_name": null,
    "office_name_kana": null
  },
  "0308": {
    "zip_code": "3760308",
    "prefecture": "群馬県",
    "prefecture_kana": "グンマケン",
    "prefecture_code": 10,
    "city": "みどり市",
    "city_kana": "ミドリシ",
    "town": "東町小中",
    "town_kana": "アズマチョウコナカ",
    "street": null,
    "office_name": null,
    "office_name_kana": null
  },
  "0392": {
    "zip_code": "3760392",
    "prefecture": "群馬県",
    "prefecture_kana": "グンマケン",
    "prefecture_code": 10,
    "city": "みどり市",
    "city_kana": "ミドリシ",
    "town": "東町草木",
    "town_kana": "アズマチョウクサギ",
    "street": "１６５４−１",
    "office_name": "サンレイク草木",
    "office_name_kana": "サンレイククサキ"
  },
  "0397": {
    "zip_code": "3760397",
    "prefecture": "群馬県",
    "prefecture_kana": "グンマケン",
    "prefecture_code": 10,
    "city": "みどり市",
    "city_kana": "ミドリシ",
    "town": "東町花輪",
    "town_kana": "アズマチョウハナワ",
    "street": "２０５−２",
    "office_name": "みどり市役所　東庁舎",
    "office_name_kana": "ミドリシヤクシヨ アズマチヨウシヤ"
  },
  "0601": {
    "zip_code": "3760601",
    "prefecture": "群馬県",
    "prefecture_kana": "グンマケン",
    "prefecture_code": 10,
    "city": "桐生市",
    "city_kana": "キリュウシ",
    "town": "梅田町",
    "town_kana": "ウメダチョウ",
    "street": null,
    "office_name": null,
    "office_name_kana": null
  },
  "8501": {
    "zip_code": "3768501",
    "prefecture": "群馬県",
    "prefecture_kana": "グンマケン",
    "prefecture_code": 10,
    "city": "桐生市",
    "city_kana": "キリュウシ",
    "town": "織姫町",
    "town_kana": "オリヒメチョウ",
    "street": "１−１",
    "office_name": "桐生市役所",
    "office_name_kana": "キリユウシヤクシヨ"
  },
  "8502": {
    "zip_code": "3768502",
    "prefecture": "群馬県",
    "prefecture_kana": "グンマケン",
    "prefecture_code": 10,
    "city": "桐生市",
    "city_kana": "キリュウシ",
    "town": "広沢町",
    "town_kana": "ヒロサワチョウ",
    "street": "３丁目４０２５",
    "office_name": "株式会社　両毛システムズ",
    "office_name_kana": "カブシキガイシヤ リヨウモウシステムズ"
  },
  "8503": {
    "zip_code": "3768503",
    "prefecture": "群馬県",
    "prefecture_kana": "グンマケン",
    "prefecture_code": 10,
    "city": "桐生市",
    "city_kana": "キリュウシ",
    "town": "広沢町",
    "town_kana": "ヒロサワチョウ",
    "street": "３丁目４０２５番地",
    "office_name": "株式会社　両毛インターネットデータセンター",
    "office_name_kana": "カブシキガイシヤ リヨウモウインタ-ネツトデ-タセンタ-"
  },
  "8510": {
    "zip_code": "3768510",
    "prefecture": "群馬県",
    "prefecture_kana": "グンマケン",
    "prefecture_code": 10,
    "city": "桐生市",
    "city_kana": "キリュウシ",
    "town": "永楽町",
    "town_kana": "エイラクチョウ",
    "street": "５−１０",
    "office_name": "株式会社　長崎屋　桐生店",
    "office_name_kana": "カブシキガイシヤ ナガサキヤ キリユウテン"
  },
  "8515": {
    "zip_code": "3768515",
    "prefecture": "群馬県",
    "prefecture_kana": "グンマケン",
    "prefecture_code": 10,
    "city": "桐生市",
    "city_kana": "キリュウシ",
    "town": "天神町",
    "town_kana": "テンジンチョウ",
    "street": "１丁目５−１",
    "office_name": "群馬大学　工学部",
    "office_name_kana": "グンマダイガク コウガクブ"
  },
  "8516": {
    "zip_code": "3768516",
    "prefecture": "群馬県",
    "prefecture_kana": "グンマケン",
    "prefecture_code": 10,
    "city": "桐生市",
    "city_kana": "キリュウシ",
    "town": "天神町",
    "town_kana": "テンジンチョウ",
    "street": "１丁目５−１",
    "office_name": "群馬大学　総合情報メディアセンター図書館工学部分館",
    "office_name_kana": "グンマダイガク ソウゴウジヨウホウメデイアセンタ-トシヨカンコウガクブブンカン"
  },
  "8523": {
    "zip_code": "3768523",
    "prefecture": "群馬県",
    "prefecture_kana": "グンマケン",
    "prefecture_code": 10,
    "city": "桐生市",
    "city_kana": "キリュウシ",
    "town": "相生町",
    "town_kana": "アイオイチョウ",
    "street": "１丁目１１１",
    "office_name": "生活協同組合　コープぐんま",
    "office_name_kana": "セイカツキヨウドウクミアイ コ-プグンマ"
  },
  "8528": {
    "zip_code": "3768528",
    "prefecture": "群馬県",
    "prefecture_kana": "グンマケン",
    "prefecture_code": 10,
    "city": "桐生市",
    "city_kana": "キリュウシ",
    "town": "東",
    "town_kana": "ヒガシ",
    "street": "４丁目５−２１",
    "office_name": "株式会社　桐生タイムス社",
    "office_name_kana": "カブシキガイシヤ キリユウタイムスシヤ"
  },
  "8531": {
    "zip_code": "3768531",
    "prefecture": "群馬県",
    "prefecture_kana": "グンマケン",
    "prefecture_code": 10,
    "city": "桐生市",
    "city_kana": "キリュウシ",
    "town": "相生町",
    "town_kana": "アイオイチョウ",
    "street": "２丁目３７１−５",
    "office_name": "前橋地裁　桐生支部",
    "office_name_kana": "マエバシチサイ キリユウシブ"
  },
  "8555": {
    "zip_code": "3768555",
    "prefecture": "群馬県",
    "prefecture_kana": "グンマケン",
    "prefecture_code": 10,
    "city": "桐生市",
    "city_kana": "キリュウシ",
    "town": "広沢町",
    "town_kana": "ヒロサワチョウ",
    "street": "１丁目２６８１",
    "office_name": "株式会社　ミツバ",
    "office_name_kana": "カブシキガイシヤ ミツバ"
  },
  "8558": {
    "zip_code": "3768558",
    "prefecture": "群馬県",
    "prefecture_kana": "グンマケン",
    "prefecture_code": 10,
    "city": "桐生市",
    "city_kana": "キリュウシ",
    "town": "広沢町",
    "town_kana": "ヒロサワチョウ",
    "street": "２丁目３０２８−１",
    "office_name": "有限会社　ウオチ産業",
    "office_name_kana": "ユウゲンガイシヤ ウオチサンギヨウ"
  },
  "8585": {
    "zip_code": "3768585",
    "prefecture": "群馬県",
    "prefecture_kana": "グンマケン",
    "prefecture_code": 10,
    "city": "桐生市",
    "city_kana": "キリュウシ",
    "town": "広沢町",
    "town_kana": "ヒロサワチョウ",
    "street": "１丁目２７５７",
    "office_name": "株式会社　山田製作所",
    "office_name_kana": "カブシキガイシヤ ヤマダセイサクジヨ"
  },
  "8666": {
    "zip_code": "3768666",
    "prefecture": "群馬県",
    "prefecture_kana": "グンマケン",
    "prefecture_code": 10,
    "city": "桐生市",
    "city_kana": "キリュウシ",
    "town": "相生町",
    "town_kana": "アイオイチョウ",
    "street": "５丁目１８０−８（桐生郵便局私書箱第４８号）",
    "office_name": "株式会社　カネトモ",
    "office_name_kana": "カブシキガイシヤ カネトモ"
  },
  "8668": {
    "zip_code": "3768668",
    "prefecture": "群馬県",
    "prefecture_kana": "グンマケン",
    "prefecture_code": 10,
    "city": "桐生市",
    "city_kana": "キリュウシ",
    "town": "錦町",
    "town_kana": "ニシキチョウ",
    "street": "２丁目１５−２１（桐生郵便局私書箱第３８号）",
    "office_name": "桐生信用金庫",
    "office_name_kana": "キリユウシンヨウキンコ"
  },
  "8686": {
    "zip_code": "3768686",
    "prefecture": "群馬県",
    "prefecture_kana": "グンマケン",
    "prefecture_code": 10,
    "city": "桐生市",
    "city_kana": "キリュウシ",
    "town": "末広町",
    "town_kana": "スエヒロチョウ",
    "street": "１１−１０（桐生郵便局私書箱第１８号）",
    "office_name": "桐生　税務署",
    "office_name_kana": "キリユウ ゼイムシヨ"
  }
}