{
  "8001": {
    "zip_code": "3888001",
    "prefecture": "長野県",
    "prefecture_kana": "ナガノケン",
    "prefecture_code": "20",
    "city": "長野市",
    "city_kana": "ナガノシ",
    "town": "東犀南",
    "town_kana": "ヒガシサイナミ",
    "street": null,
    "office_name": null,
    "office_name_kana": null
  },
  "8002": {
    "zip_code": "3888002",
    "prefecture": "長野県",
    "prefecture_kana": "ナガノケン",
    "prefecture_code": "20",
    "city": "長野市",
    "city_kana": "ナガノシ",
    "town": "篠ノ井東福寺",
    "town_kana": "シノノイトウフクジ",
    "street": null,
    "office_name": null,
    "office_name_kana": null
  },
  "8003": {
    "zip_code": "3888003",
    "prefecture": "長野県",
    "prefecture_kana": "ナガノケン",
    "prefecture_code": "20",
    "city": "長野市",
    "city_kana": "ナガノシ",
    "town": "篠ノ井小森",
    "town_kana": "シノノイコモリ",
    "street": null,
    "office_name": null,
    "office_name_kana": null
  },
  "8004": {
    "zip_code": "3888004",
    "prefecture": "長野県",
    "prefecture_kana": "ナガノケン",
    "prefecture_code": "20",
    "city": "長野市",
    "city_kana": "ナガノシ",
    "town": "篠ノ井会",
    "town_kana": "シノノイアイ",
    "street": null,
    "office_name": null,
    "office_name_kana": null
  },
  "8005": {
    "zip_code": "3888005",
    "prefecture": "長野県",
    "prefecture_kana": "ナガノケン",
    "prefecture_code": "20",
    "city": "長野市",
    "city_kana": "ナガノシ",
    "town": "篠ノ井横田",
    "town_kana": "シノノイヨコタ",
    "street": null,
    "office_name": null,
    "office_name_kana": null
  },
  "8006": {
    "zip_code": "3888006",
    "prefecture": "長野県",
    "prefecture_kana": "ナガノケン",
    "prefecture_code": "20",
    "city": "長野市",
    "city_kana": "ナガノシ",
    "town": "篠ノ井御幣川",
    "town_kana": "シノノイオンベガワ",
    "street": null,
    "office_name": null,
    "office_name_kana": null
  },
  "8007": {
    "zip_code": "3888007",
    "prefecture": "長野県",
    "prefecture_kana": "ナガノケン",
    "prefecture_code": "20",
    "city": "長野市",
    "city_kana": "ナガノシ",
    "town": "篠ノ井布施高田",
    "town_kana": "シノノイフセタカダ",
    "street": null,
    "office_name": null,
    "office_name_kana": null
  },
  "8008": {
    "zip_code": "3888008",
    "prefecture": "長野県",
    "prefecture_kana": "ナガノケン",
    "prefecture_code": "20",
    "city": "長野市",
    "city_kana": "ナガノシ",
    "town": "合戦場",
    "town_kana": "カッセンバ",
    "street": null,
    "office_name": null,
    "office_name_kana": null
  },
  "8011": {
    "zip_code": "3888011",
    "prefecture": "長野県",
    "prefecture_kana": "ナガノケン",
    "prefecture_code": "20",
    "city": "長野市",
    "city_kana": "ナガノシ",
    "town": "篠ノ井布施五明",
    "town_kana": "シノノイフセゴミョウ",
    "street": null,
    "office_name": null,
    "office_name_kana": null
  },
  "8012": {
    "zip_code": "3888012",
    "prefecture": "長野県",
    "prefecture_kana": "ナガノケン",
    "prefecture_code": "20",
    "city": "長野市",
    "city_kana": "ナガノシ",
    "town": "篠ノ井二ツ柳",
    "town_kana": "シノノイフタツヤナギ",
    "street": null,
    "office_name": null,
    "office_name_kana": null
  },
  "8013": {
    "zip_code": "3888013",
    "prefecture": "長野県",
    "prefecture_kana": "ナガノケン",
    "prefecture_code": "20",
    "city": "長野市",
    "city_kana": "ナガノシ",
    "town": "みこと川",
    "town_kana": "ミコトガワ",
    "street": null,
    "office_name": null,
    "office_name_kana": null
  },
  "8014": {
    "zip_code": "3888014",
    "prefecture": "長野県",
    "prefecture_kana": "ナガノケン",
    "prefecture_code": "20",
    "city": "長野市",
    "city_kana": "ナガノシ",
    "town": "篠ノ井塩崎",
    "town_kana": "シノノイシオザキ",
    "street": null,
    "office_name": null,
    "office_name_kana": null
  },
  "8015": {
    "zip_code": "3888015",
    "prefecture": "長野県",
    "prefecture_kana": "ナガノケン",
    "prefecture_code": "20",
    "city": "長野市",
    "city_kana": "ナガノシ",
    "town": "篠ノ井石川",
    "town_kana": "シノノイイシカワ",
    "street": null,
    "office_name": null,
    "office_name_kana": null
  },
  "8016": {
    "zip_code": "3888016",
    "prefecture": "長野県",
    "prefecture_kana": "ナガノケン",
    "prefecture_code": "20",
    "city": "長野市",
    "city_kana": "ナガノシ",
    "town": "篠ノ井有旅",
    "town_kana": "シノノイウタビ",
    "street": null,
    "office_name": null,
    "office_name_kana": null
  },
  "8017": {
    "zip_code": "3888017",
    "prefecture": "長野県",
    "prefecture_kana": "ナガノケン",
    "prefecture_code": "20",
    "city": "長野市",
    "city_kana": "ナガノシ",
    "town": "篠ノ井山布施",
    "town_kana": "シノノイヤマブセ",
    "street": null,
    "office_name": null,
    "office_name_kana": null
  },
  "8018": {
    "zip_code": "3888018",
    "prefecture": "長野県",
    "prefecture_kana": "ナガノケン",
    "prefecture_code": "20",
    "city": "長野市",
    "city_kana": "ナガノシ",
    "town": "篠ノ井西寺尾",
    "town_kana": "シノノイニシデラオ",
    "street": null,
    "office_name": null,
    "office_name_kana": null
  },
  "8019": {
    "zip_code": "3888019",
    "prefecture": "長野県",
    "prefecture_kana": "ナガノケン",
    "prefecture_code": "20",
    "city": "長野市",
    "city_kana": "ナガノシ",
    "town": "篠ノ井杵淵",
    "town_kana": "シノノイキネブチ",
    "street": null,
    "office_name": null,
    "office_name_kana": null
  },
  "8020": {
    "zip_code": "3888020",
    "prefecture": "長野県",
    "prefecture_kana": "ナガノケン",
    "prefecture_code": "20",
    "city": "長野市",
    "city_kana": "ナガノシ",
    "town": "神明",
    "town_kana": "シンメイ",
    "street": null,
    "office_name": null,
    "office_name_kana": null
  },
  "8511": {
    "zip_code": "3888511",
    "prefecture": "長野県",
    "prefecture_kana": "ナガノケン",
    "prefecture_code": "20",
    "city": "長野市",
    "city_kana": "ナガノシ",
    "town": "篠ノ井布施高田",
    "town_kana": "シノノイフセタカダ",
    "street": "９６１−２",
    "office_name": "ＪＡグリーン長野",
    "office_name_kana": "ジエイエイグリ-ンナガノ"
  },
  "8522": {
    "zip_code": "3888522",
    "prefecture": "長野県",
    "prefecture_kana": "ナガノケン",
    "prefecture_code": "20",
    "city": "長野市",
    "city_kana": "ナガノシ",
    "town": "篠ノ井御幣川",
    "town_kana": "シノノイオンベガワ",
    "street": "１０９５",
    "office_name": "株式会社　前田製作所",
    "office_name_kana": "カブシキガイシヤ マエダセイサクシヨ"
  },
  "8555": {
    "zip_code": "3888555",
    "prefecture": "長野県",
    "prefecture_kana": "ナガノケン",
    "prefecture_code": "20",
    "city": "長野市",
    "city_kana": "ナガノシ",
    "town": "篠ノ井御幣川",
    "town_kana": "シノノイオンベガワ",
    "street": "６６８",
    "office_name": "コープながの",
    "office_name_kana": "コ-プナガノ"
  }
}