{
  "0000": {
    "zip_code": "3960000",
    "prefecture": "長野県",
    "prefecture_kana": "ナガノケン",
    "prefecture_code": "20",
    "city": "伊那市",
    "city_kana": "イナシ",
    "town": "",
    "town_kana": "",
    "street": null,
    "office_name": null,
    "office_name_kana": null
  },
  "0001": {
    "zip_code": "3960001",
    "prefecture": "長野県",
    "prefecture_kana": "ナガノケン",
    "prefecture_code": "20",
    "city": "伊那市",
    "city_kana": "イナシ",
    "town": "福島",
    "town_kana": "フクジマ",
    "street": null,
    "office_name": null,
    "office_name_kana": null
  },
  "0002": {
    "zip_code": "3960002",
    "prefecture": "長野県",
    "prefecture_kana": "ナガノケン",
    "prefecture_code": "20",
    "city": "伊那市",
    "city_kana": "イナシ",
    "town": "手良沢岡",
    "town_kana": "テラサワオカ",
    "street": null,
    "office_name": null,
    "office_name_kana": null
  },
  "0003": {
    "zip_code": "3960003",
    "prefecture": "長野県",
    "prefecture_kana": "ナガノケン",
    "prefecture_code": "20",
    "city": "伊那市",
    "city_kana": "イナシ",
    "town": "手良野口",
    "town_kana": "テラノグチ",
    "street": null,
    "office_name": null,
    "office_name_kana": null
  },
  "0004": {
    "zip_code": "3960004",
    "prefecture": "長野県",
    "prefecture_kana": "ナガノケン",
    "prefecture_code": "20",
    "city": "伊那市",
    "city_kana": "イナシ",
    "town": "手良中坪",
    "town_kana": "テラナカツボ",
    "street": null,
    "office_name": null,
    "office_name_kana": null
  },
  "0005": {
    "zip_code": "3960005",
    "prefecture": "長野県",
    "prefecture_kana": "ナガノケン",
    "prefecture_code": "20",
    "city": "伊那市",
    "city_kana": "イナシ",
    "town": "野底",
    "town_kana": "ノソコ",
    "street": null,
    "office_name": null,
    "office_name_kana": null
  },
  "0006": {
    "zip_code": "3960006",
    "prefecture": "長野県",
    "prefecture_kana": "ナガノケン",
    "prefecture_code": "20",
    "city": "伊那市",
    "city_kana": "イナシ",
    "town": "上牧",
    "town_kana": "カミマキ",
    "street": null,
    "office_name": null,
    "office_name_kana": null
  },
  "0007": {
    "zip_code": "3960007",
    "prefecture": "長野県",
    "prefecture_kana": "ナガノケン",
    "prefecture_code": "20",
    "city": "伊那市",
    "city_kana": "イナシ",
    "town": "若宮",
    "town_kana": "ワカミヤ",
    "street": null,
    "office_name": null,
    "office_name_kana": null
  },
  "0008": {
    "zip_code": "3960008",
    "prefecture": "長野県",
    "prefecture_kana": "ナガノケン",
    "prefecture_code": "20",
    "city": "伊那市",
    "city_kana": "イナシ",
    "town": "上の原",
    "town_kana": "ウエノハラ",
    "street": null,
    "office_name": null,
    "office_name_kana": null
  },
  "0009": {
    "zip_code": "3960009",
    "prefecture": "長野県",
    "prefecture_kana": "ナガノケン",
    "prefecture_code": "20",
    "city": "伊那市",
    "city_kana": "イナシ",
    "town": "日影",
    "town_kana": "ヒカゲ",
    "street": null,
    "office_name": null,
    "office_name_kana": null
  },
  "0010": {
    "zip_code": "3960010",
    "prefecture": "長野県",
    "prefecture_kana": "ナガノケン",
    "prefecture_code": "20",
    "city": "伊那市",
    "city_kana": "イナシ",
    "town": "境",
    "town_kana": "サカイ",
    "street": null,
    "office_name": null,
    "office_name_kana": null
  },
  "0011": {
    "zip_code": "3960011",
    "prefecture": "長野県",
    "prefecture_kana": "ナガノケン",
    "prefecture_code": "20",
    "city": "伊那市",
    "city_kana": "イナシ",
    "town": "伊那部",
    "town_kana": "イナベ",
    "street": null,
    "office_name": null,
    "office_name_kana": null
  },
  "0012": {
    "zip_code": "3960012",
    "prefecture": "長野県",
    "prefecture_kana": "ナガノケン",
    "prefecture_code": "20",
    "city": "伊那市",
    "city_kana": "イナシ",
    "town": "上新田",
    "town_kana": "カミシンデン",
    "street": null,
    "office_name": null,
    "office_name_kana": null
  },
  "0013": {
    "zip_code": "3960013",
    "prefecture": "長野県",
    "prefecture_kana": "ナガノケン",
    "prefecture_code": "20",
    "city": "伊那市",
    "city_kana": "イナシ",
    "town": "下新田",
    "town_kana": "シモシンデン",
    "street": null,
    "office_name": null,
    "office_name_kana": null
  },
  "0014": {
    "zip_code": "3960014",
    "prefecture": "長野県",
    "prefecture_kana": "ナガノケン",
    "prefecture_code": "20",
    "city": "伊那市",
    "city_kana": "イナシ",
    "town": "狐島",
    "town_kana": "キツネジマ",
    "street": null,
    "office_name": null,
    "office_name_kana": null
  },
  "0015": {
    "zip_code": "3960015",
    "prefecture": "長野県",
    "prefecture_kana": "ナガノケン",
    "prefecture_code": "20",
    "city": "伊那市",
    "city_kana": "イナシ",
    "town": "中央",
    "town_kana": "チュウオウ",
    "street": null,
    "office_name": null,
    "office_name_kana": null
  },
  "0021": {
    "zip_code": "3960021",
    "prefecture": "長野県",
    "prefecture_kana": "ナガノケン",
    "prefecture_code": "20",
    "city": "伊那市",
    "city_kana": "イナシ",
    "town": "伊那",
    "town_kana": "イナ",
    "street": null,
    "office_name": null,
    "office_name_kana": null
  },
  "0022": {
    "zip_code": "3960022",
    "prefecture": "長野県",
    "prefecture_kana": "ナガノケン",
    "prefecture_code": "20",
    "city": "伊那市",
    "city_kana": "イナシ",
    "town": "御園",
    "town_kana": "ミソノ",
    "street": null,
    "office_name": null,
    "office_name_kana": null
  },
  "0023": {
    "zip_code": "3960023",
    "prefecture": "長野県",
    "prefecture_kana": "ナガノケン",
    "prefecture_code": "20",
    "city": "伊那市",
    "city_kana": "イナシ",
    "town": "山寺",
    "town_kana": "ヤマデラ",
    "street": null,
    "office_name": null,
    "office_name_kana": null
  },
  "0024": {
    "zip_code": "3960024",
    "prefecture": "長野県",
    "prefecture_kana": "ナガノケン",
    "prefecture_code": "20",
    "city": "伊那市",
    "city_kana": "イナシ",
    "town": "坂下",
    "town_kana": "サカシタ",
    "street": null,
    "office_name": null,
    "office_name_kana": null
  },
  "0025": {
    "zip_code": "3960025",
    "prefecture": "長野県",
    "prefecture_kana": "ナガノケン",
    "prefecture_code": "20",
    "city": "伊那市",
    "city_kana": "イナシ",
    "town": "荒井",
    "town_kana": "アライ",
    "street": null,
    "office_name": null,
    "office_name_kana": null
  },
  "0026": {
    "zip_code": "3960026",
    "prefecture": "長野県",
    "prefecture_kana": "ナガノケン",
    "prefecture_code": "20",
    "city": "伊那市",
    "city_kana": "イナシ",
    "town": "西町",
    "town_kana": "ニシマチ",
    "street": null,
    "office_name": null,
    "office_name_kana": null
  },
  "0027": {
    "zip_code": "3960027",
    "prefecture": "長野県",
    "prefecture_kana": "ナガノケン",
    "prefecture_code": "20",
    "city": "伊那市",
    "city_kana": "イナシ",
    "town": "ますみヶ丘",
    "town_kana": "マスミガオカ",
    "street": null,
    "office_name": null,
    "office_name_kana": null
  },
  "0028": {
    "zip_code": "3960028",
    "prefecture": "長野県",
    "prefecture_kana": "ナガノケン",
    "prefecture_code": "20",
    "city": "伊那市",
    "city_kana": "イナシ",
    "town": "荒井内の萱",
    "town_kana": "アライウチノカヤ",
    "street": null,
    "office_name": null,
    "office_name_kana": null
  },
  "0029": {
    "zip_code": "3960029",
    "prefecture": "長野県",
    "prefecture_kana": "ナガノケン",
    "prefecture_code": "20",
    "city": "伊那市",
    "city_kana": "イナシ",
    "town": "横山",
    "town_kana": "ヨコヤマ",
    "street": null,
    "office_name": null,
    "office_name_kana": null
  },
  "0030": {
    "zip_code": "3960030",
    "prefecture": "長野県",
    "prefecture_kana": "ナガノケン",
    "prefecture_code": "20",
    "city": "伊那市",
    "city_kana": "イナシ",
    "town": "平沢",
    "town_kana": "ヒラサワ",
    "street": null,
    "office_name": null,
    "office_name_kana": null
  },
  "0031": {
    "zip_code": "3960031",
    "prefecture": "長野県",
    "prefecture_kana": "ナガノケン",
    "prefecture_code": "20",
    "city": "伊那市",
    "city_kana": "イナシ",
    "town": "中の原",
    "town_kana": "ナカノハラ",
    "street": null,
    "office_name": null,
    "office_name_kana": null
  },
  "0032": {
    "zip_code": "3960032",
    "prefecture": "長野県",
    "prefecture_kana": "ナガノケン",
    "prefecture_code": "20",
    "city": "伊那市",
    "city_kana": "イナシ",
    "town": "小沢",
    "town_kana": "オザワ",
    "street": null,
    "office_name": null,
    "office_name_kana": null
  },
  "0033": {
    "zip_code": "3960033",
    "prefecture": "長野県",
    "prefecture_kana": "ナガノケン",
    "prefecture_code": "20",
    "city": "伊那市",
    "city_kana": "イナシ",
    "town": "小四郎久保",
    "town_kana": "コシロウクボ",
    "street": null,
    "office_name": null,
    "office_name_kana": null
  },
  "0111": {
    "zip_code": "3960111",
    "prefecture": "長野県",
    "prefecture_kana": "ナガノケン",
    "prefecture_code": "20",
    "city": "伊那市",
    "city_kana": "イナシ",
    "town": "美篶",
    "town_kana": "ミスズ",
    "street": null,
    "office_name": null,
    "office_name_kana": null
  },
  "0112": {
    "zip_code": "3960112",
    "prefecture": "長野県",
    "prefecture_kana": "ナガノケン",
    "prefecture_code": "20",
    "city": "伊那市",
    "city_kana": "イナシ",
    "town": "前原",
    "town_kana": "マエハラ",
    "street": null,
    "office_name": null,
    "office_name_kana": null
  },
  "0113": {
    "zip_code": "3960113",
    "prefecture": "長野県",
    "prefecture_kana": "ナガノケン",
    "prefecture_code": "20",
    "city": "伊那市",
    "city_kana": "イナシ",
    "town": "美原",
    "town_kana": "ミハラ",
    "street": null,
    "office_name": null,
    "office_name_kana": null
  },
  "0114": {
    "zip_code": "3960114",
    "prefecture": "長野県",
    "prefecture_kana": "ナガノケン",
    "prefecture_code": "20",
    "city": "伊那市",
    "city_kana": "イナシ",
    "town": "仙美",
    "town_kana": "センミ",
    "street": null,
    "office_name": null,
    "office_name_kana": null
  },
  "0198": {
    "zip_code": "3960198",
    "prefecture": "長野県",
    "prefecture_kana": null,
    "prefecture_code": null,
    "city": "伊那市",
    "city_kana": null,
    "town": "大字美篶",
    "town_kana": null,
    "street": "８０６０番地",
    "office_name": "長野日本電気　株式会社",
    "office_name_kana": "ナガノニツポンデンキ カブシキガイシヤ"
  },
  "0211": {
    "zip_code": "3960211",
    "prefecture": "長野県",
    "prefecture_kana": "ナガノケン",
    "prefecture_code": "20",
    "city": "伊那市",
    "city_kana": "イナシ",
    "town": "高遠町西高遠",
    "town_kana": "タカトオマチニシタカトオ",
    "street": null,
    "office_name": null,
    "office_name_kana": null
  },
  "0212": {
    "zip_code": "3960212",
    "prefecture": "長野県",
    "prefecture_kana": "ナガノケン",
    "prefecture_code": "20",
    "city": "伊那市",
    "city_kana": "イナシ",
    "town": "高遠町長藤",
    "town_kana": "タカトオマチオサフジ",
    "street": null,
    "office_name": null,
    "office_name_kana": null
  },
  "0213": {
    "zip_code": "3960213",
    "prefecture": "長野県",
    "prefecture_kana": "ナガノケン",
    "prefecture_code": "20",
    "city": "伊那市",
    "city_kana": "イナシ",
    "town": "高遠町東高遠",
    "town_kana": "タカトオマチヒガシタカトオ",
    "street": null,
    "office_name": null,
    "office_name_kana": null
  },
  "0214": {
    "zip_code": "3960214",
    "prefecture": "長野県",
    "prefecture_kana": "ナガノケン",
    "prefecture_code": "20",
    "city": "伊那市",
    "city_kana": "イナシ",
    "town": "高遠町勝間",
    "town_kana": "タカトオマチカツマ",
    "street": null,
    "office_name": null,
    "office_name_kana": null
  },
  "0215": {
    "zip_code": "3960215",
    "prefecture": "長野県",
    "prefecture_kana": "ナガノケン",
    "prefecture_code": "20",
    "city": "伊那市",
    "city_kana": "イナシ",
    "town": "高遠町小原",
    "town_kana": "タカトオマチオバラ",
    "street": null,
    "office_name": null,
    "office_name_kana": null
  },
  "0216": {
    "zip_code": "3960216",
    "prefecture": "長野県",
    "prefecture_kana": "ナガノケン",
    "prefecture_code": "20",
    "city": "伊那市",
    "city_kana": "イナシ",
    "town": "高遠町下山田",
    "town_kana": "タカトオマチシモヤマダ",
    "street": null,
    "office_name": null,
    "office_name_kana": null
  },
  "0217": {
    "zip_code": "3960217",
    "prefecture": "長野県",
    "prefecture_kana": "ナガノケン",
    "prefecture_code": "20",
    "city": "伊那市",
    "city_kana": "イナシ",
    "town": "高遠町上山田",
    "town_kana": "タカトオマチカミヤマダ",
    "street": null,
    "office_name": null,
    "office_name_kana": null
  },
  "0293": {
    "zip_code": "3960293",
    "prefecture": "長野県",
    "prefecture_kana": "ナガノケン",
    "prefecture_code": "20",
    "city": "伊那市",
    "city_kana": "イナシ",
    "town": "高遠町小原",
    "town_kana": "タカトオマチオバラ",
    "street": "８２４番地",
    "office_name": "長野県高遠高等学校",
    "office_name_kana": "ナガノケンタカトオコウトウガツコウ"
  },
  "0301": {
    "zip_code": "3960301",
    "prefecture": "長野県",
    "prefecture_kana": "ナガノケン",
    "prefecture_code": "20",
    "city": "伊那市",
    "city_kana": "イナシ",
    "town": "高遠町藤沢",
    "town_kana": "タカトオマチフジサワ",
    "street": null,
    "office_name": null,
    "office_name_kana": null
  },
  "0302": {
    "zip_code": "3960302",
    "prefecture": "長野県",
    "prefecture_kana": "ナガノケン",
    "prefecture_code": "20",
    "city": "伊那市",
    "city_kana": "イナシ",
    "town": "高遠町芝平",
    "town_kana": "タカトオマチシビラ",
    "street": null,
    "office_name": null,
    "office_name_kana": null
  },
  "0303": {
    "zip_code": "3960303",
    "prefecture": "長野県",
    "prefecture_kana": "ナガノケン",
    "prefecture_code": "20",
    "city": "伊那市",
    "city_kana": "イナシ",
    "town": "高遠町荊口",
    "town_kana": "タカトオマチバラグチ",
    "street": null,
    "office_name": null,
    "office_name_kana": null
  },
  "0304": {
    "zip_code": "3960304",
    "prefecture": "長野県",
    "prefecture_kana": "ナガノケン",
    "prefecture_code": "20",
    "city": "伊那市",
    "city_kana": "イナシ",
    "town": "高遠町山室",
    "town_kana": "タカトオマチヤマムロ",
    "street": null,
    "office_name": null,
    "office_name_kana": null
  },
  "0305": {
    "zip_code": "3960305",
    "prefecture": "長野県",
    "prefecture_kana": "ナガノケン",
    "prefecture_code": "20",
    "city": "伊那市",
    "city_kana": "イナシ",
    "town": "高遠町長藤",
    "town_kana": "タカトオマチオサフジ",
    "street": null,
    "office_name": null,
    "office_name_kana": null
  },
  "0401": {
    "zip_code": "3960401",
    "prefecture": "長野県",
    "prefecture_kana": "ナガノケン",
    "prefecture_code": "20",
    "city": "伊那市",
    "city_kana": "イナシ",
    "town": "長谷非持",
    "town_kana": "ハセヒジ",
    "street": null,
    "office_name": null,
    "office_name_kana": null
  },
  "0402": {
    "zip_code": "3960402",
    "prefecture": "長野県",
    "prefecture_kana": "ナガノケン",
    "prefecture_code": "20",
    "city": "伊那市",
    "city_kana": "イナシ",
    "town": "長谷溝口",
    "town_kana": "ハセミゾクチ",
    "street": null,
    "office_name": null,
    "office_name_kana": null
  },
  "0403": {
    "zip_code": "3960403",
    "prefecture": "長野県",
    "prefecture_kana": "ナガノケン",
    "prefecture_code": "20",
    "city": "伊那市",
    "city_kana": "イナシ",
    "town": "長谷黒河内",
    "town_kana": "ハセクロゴウチ",
    "street": null,
    "office_name": null,
    "office_name_kana": null
  },
  "0404": {
    "zip_code": "3960404",
    "prefecture": "長野県",
    "prefecture_kana": "ナガノケン",
    "prefecture_code": "20",
    "city": "伊那市",
    "city_kana": "イナシ",
    "town": "長谷中尾",
    "town_kana": "ハセナカオ",
    "street": null,
    "office_name": null,
    "office_name_kana": null
  },
  "0405": {
    "zip_code": "3960405",
    "prefecture": "長野県",
    "prefecture_kana": "ナガノケン",
    "prefecture_code": "20",
    "city": "伊那市",
    "city_kana": "イナシ",
    "town": "長谷市野瀬",
    "town_kana": "ハセイチノセ",
    "street": null,
    "office_name": null,
    "office_name_kana": null
  },
  "0406": {
    "zip_code": "3960406",
    "prefecture": "長野県",
    "prefecture_kana": "ナガノケン",
    "prefecture_code": "20",
    "city": "伊那市",
    "city_kana": "イナシ",
    "town": "長谷杉島",
    "town_kana": "ハセスギシマ",
    "street": null,
    "office_name": null,
    "office_name_kana": null
  },
  "0407": {
    "zip_code": "3960407",
    "prefecture": "長野県",
    "prefecture_kana": "ナガノケン",
    "prefecture_code": "20",
    "city": "伊那市",
    "city_kana": "イナシ",
    "town": "長谷浦",
    "town_kana": "ハセウラ",
    "street": null,
    "office_name": null,
    "office_name_kana": null
  },
  "0621": {
    "zip_code": "3960621",
    "prefecture": "長野県",
    "prefecture_kana": "ナガノケン",
    "prefecture_code": "20",
    "city": "伊那市",
    "city_kana": "イナシ",
    "town": "富県",
    "town_kana": "トミガタ",
    "street": null,
    "office_name": null,
    "office_name_kana": null
  },
  "8501": {
    "zip_code": "3968501",
    "prefecture": "長野県",
    "prefecture_kana": null,
    "prefecture_code": null,
    "city": "伊那市",
    "city_kana": null,
    "town": "大字伊那部",
    "town_kana": null,
    "street": "日影４３５−１",
    "office_name": "ベルシャイン伊那店",
    "office_name_kana": "ベルシヤインイナテン"
  },
  "8510": {
    "zip_code": "3968510",
    "prefecture": "長野県",
    "prefecture_kana": "ナガノケン",
    "prefecture_code": "20",
    "city": "伊那市",
    "city_kana": "イナシ",
    "town": "伊那部",
    "town_kana": "イナベ",
    "street": "４２９１番地",
    "office_name": "上伊那農業協同組合（ＪＡ上伊那）",
    "office_name_kana": "カミイナノウギヨウキヨウドウクミアイ(ジエイエイカミイナ)"
  },
  "8511": {
    "zip_code": "3968511",
    "prefecture": "長野県",
    "prefecture_kana": null,
    "prefecture_code": null,
    "city": "伊那市",
    "city_kana": null,
    "town": "大字伊那部",
    "town_kana": null,
    "street": "６１００",
    "office_name": "株式会社　三協精機製作所　伊那工場",
    "office_name_kana": "(カブ) サンキヨウセイキセイサクシヨ イナコウジヨウ"
  },
  "8550": {
    "zip_code": "3968550",
    "prefecture": "長野県",
    "prefecture_kana": null,
    "prefecture_code": null,
    "city": "伊那市",
    "city_kana": null,
    "town": "大字伊那",
    "town_kana": null,
    "street": "３５４５−１",
    "office_name": "伊那税務署",
    "office_name_kana": "イナゼイムシヨ"
  },
  "8555": {
    "zip_code": "3968555",
    "prefecture": "長野県",
    "prefecture_kana": null,
    "prefecture_code": null,
    "city": "伊那市",
    "city_kana": null,
    "town": "大字伊那",
    "town_kana": null,
    "street": "１３１３−１",
    "office_name": "伊那　中央病院",
    "office_name_kana": "イナ チユウオウビヨウイン"
  },
  "8558": {
    "zip_code": "3968558",
    "prefecture": "長野県",
    "prefecture_kana": null,
    "prefecture_code": null,
    "city": "伊那市",
    "city_kana": null,
    "town": "大字伊那",
    "town_kana": null,
    "street": "２１６５",
    "office_name": "長野県　伊那北高等学校",
    "office_name_kana": "ナガノケン イナキタコウトウガツコウ"
  },
  "8585": {
    "zip_code": "3968585",
    "prefecture": "長野県",
    "prefecture_kana": null,
    "prefecture_code": null,
    "city": "伊那市",
    "city_kana": null,
    "town": "大字伊那",
    "town_kana": null,
    "street": "３６７２",
    "office_name": "ＫＯＡ　株式会社",
    "office_name_kana": "コ-ア カブシキガイシヤ"
  },
  "8609": {
    "zip_code": "3968609",
    "prefecture": "長野県",
    "prefecture_kana": null,
    "prefecture_code": null,
    "city": "伊那市",
    "city_kana": null,
    "town": "大字伊那部",
    "town_kana": null,
    "street": "４０９８−３",
    "office_name": "伊那公共職業安定所",
    "office_name_kana": "イナコウキヨウシヨクギヨウアンテイシヨ"
  },
  "8611": {
    "zip_code": "3968611",
    "prefecture": "長野県",
    "prefecture_kana": "ナガノケン",
    "prefecture_code": "20",
    "city": "伊那市",
    "city_kana": "イナシ",
    "town": "伊那",
    "town_kana": "イナ",
    "street": "３４３８−１（伊那郵便局私書箱第６号）",
    "office_name": "アルプス中央　信用金庫",
    "office_name_kana": "アルプスチユウオウ シンヨウキンコ"
  },
  "8617": {
    "zip_code": "3968617",
    "prefecture": "長野県",
    "prefecture_kana": null,
    "prefecture_code": null,
    "city": "伊那市",
    "city_kana": null,
    "town": "大字伊那部",
    "town_kana": null,
    "street": "３０５０番地",
    "office_name": "伊那市役所",
    "office_name_kana": "イナシヤクシヨ"
  },
  "8682": {
    "zip_code": "3968682",
    "prefecture": "長野県",
    "prefecture_kana": "ナガノケン",
    "prefecture_code": "20",
    "city": "伊那市",
    "city_kana": "イナシ",
    "town": "伊那部",
    "town_kana": "イナベ",
    "street": "１０７１番地３（伊那郵便局私書箱第２０号）",
    "office_name": "株式会社　八十二銀行　伊那支店",
    "office_name_kana": "カブシキガイシヤ ハチジユウニギンコウ イナシテン"
  }
}