{
  "0000": {
    "zip_code": "4040000",
    "prefecture": "山梨県",
    "prefecture_kana": "ヤマナシケン",
    "prefecture_code": "19",
    "city": "甲州市",
    "city_kana": "コウシュウシ",
    "town": "",
    "town_kana": "",
    "street": null,
    "office_name": null,
    "office_name_kana": null
  },
  "0001": {
    "zip_code": "4040001",
    "prefecture": "山梨県",
    "prefecture_kana": "ヤマナシケン",
    "prefecture_code": "19",
    "city": "山梨市",
    "city_kana": "ヤマナシシ",
    "town": "牧丘町柳平",
    "town_kana": "マキオカチョウヤナギダイラ",
    "street": null,
    "office_name": null,
    "office_name_kana": null
  },
  "0002": {
    "zip_code": "4040002",
    "prefecture": "山梨県",
    "prefecture_kana": "ヤマナシケン",
    "prefecture_code": "19",
    "city": "山梨市",
    "city_kana": "ヤマナシシ",
    "town": "牧丘町杣口",
    "town_kana": "マキオカチョウソマグチ",
    "street": null,
    "office_name": null,
    "office_name_kana": null
  },
  "0003": {
    "zip_code": "4040003",
    "prefecture": "山梨県",
    "prefecture_kana": "ヤマナシケン",
    "prefecture_code": "19",
    "city": "山梨市",
    "city_kana": "ヤマナシシ",
    "town": "牧丘町倉科",
    "town_kana": "マキオカチョウクラシナ",
    "street": null,
    "office_name": null,
    "office_name_kana": null
  },
  "0004": {
    "zip_code": "4040004",
    "prefecture": "山梨県",
    "prefecture_kana": "ヤマナシケン",
    "prefecture_code": "19",
    "city": "山梨市",
    "city_kana": "ヤマナシシ",
    "town": "牧丘町西保下",
    "town_kana": "マキオカチョウニシホシモ",
    "street": null,
    "office_name": null,
    "office_name_kana": null
  },
  "0005": {
    "zip_code": "4040005",
    "prefecture": "山梨県",
    "prefecture_kana": "ヤマナシケン",
    "prefecture_code": "19",
    "city": "山梨市",
    "city_kana": "ヤマナシシ",
    "town": "牧丘町西保中",
    "town_kana": "マキオカチョウニシホナカ",
    "street": null,
    "office_name": null,
    "office_name_kana": null
  },
  "0006": {
    "zip_code": "4040006",
    "prefecture": "山梨県",
    "prefecture_kana": "ヤマナシケン",
    "prefecture_code": "19",
    "city": "山梨市",
    "city_kana": "ヤマナシシ",
    "town": "牧丘町牧平",
    "town_kana": "マキオカチョウマキダイラ",
    "street": null,
    "office_name": null,
    "office_name_kana": null
  },
  "0007": {
    "zip_code": "4040007",
    "prefecture": "山梨県",
    "prefecture_kana": "ヤマナシケン",
    "prefecture_code": "19",
    "city": "山梨市",
    "city_kana": "ヤマナシシ",
    "town": "牧丘町北原",
    "town_kana": "マキオカチョウキタバラ",
    "street": null,
    "office_name": null,
    "office_name_kana": null
  },
  "0011": {
    "zip_code": "4040011",
    "prefecture": "山梨県",
    "prefecture_kana": "ヤマナシケン",
    "prefecture_code": "19",
    "city": "山梨市",
    "city_kana": "ヤマナシシ",
    "town": "牧丘町成沢",
    "town_kana": "マキオカチョウナルサワ",
    "street": null,
    "office_name": null,
    "office_name_kana": null
  },
  "0012": {
    "zip_code": "4040012",
    "prefecture": "山梨県",
    "prefecture_kana": "ヤマナシケン",
    "prefecture_code": "19",
    "city": "山梨市",
    "city_kana": "ヤマナシシ",
    "town": "牧丘町室伏",
    "town_kana": "マキオカチョウムロフシ",
    "street": null,
    "office_name": null,
    "office_name_kana": null
  },
  "0013": {
    "zip_code": "4040013",
    "prefecture": "山梨県",
    "prefecture_kana": "ヤマナシケン",
    "prefecture_code": "19",
    "city": "山梨市",
    "city_kana": "ヤマナシシ",
    "town": "牧丘町窪平",
    "town_kana": "マキオカチョウクボダイラ",
    "street": null,
    "office_name": null,
    "office_name_kana": null
  },
  "0014": {
    "zip_code": "4040014",
    "prefecture": "山梨県",
    "prefecture_kana": "ヤマナシケン",
    "prefecture_code": "19",
    "city": "山梨市",
    "city_kana": "ヤマナシシ",
    "town": "牧丘町隼",
    "town_kana": "マキオカチョウハヤブサ",
    "street": null,
    "office_name": null,
    "office_name_kana": null
  },
  "0015": {
    "zip_code": "4040015",
    "prefecture": "山梨県",
    "prefecture_kana": "ヤマナシケン",
    "prefecture_code": "19",
    "city": "山梨市",
    "city_kana": "ヤマナシシ",
    "town": "牧丘町城古寺",
    "town_kana": "マキオカチョウジョウコジ",
    "street": null,
    "office_name": null,
    "office_name_kana": null
  },
  "0016": {
    "zip_code": "4040016",
    "prefecture": "山梨県",
    "prefecture_kana": "ヤマナシケン",
    "prefecture_code": "19",
    "city": "山梨市",
    "city_kana": "ヤマナシシ",
    "town": "牧丘町千野々宮",
    "town_kana": "マキオカチョウチノノミヤ",
    "street": null,
    "office_name": null,
    "office_name_kana": null
  },
  "0021": {
    "zip_code": "4040021",
    "prefecture": "山梨県",
    "prefecture_kana": "ヤマナシケン",
    "prefecture_code": "19",
    "city": "甲州市",
    "city_kana": "コウシュウシ",
    "town": "塩山一之瀬高橋",
    "town_kana": "エンザンイチノセタカハシ",
    "street": null,
    "office_name": null,
    "office_name_kana": null
  },
  "0022": {
    "zip_code": "4040022",
    "prefecture": "山梨県",
    "prefecture_kana": "ヤマナシケン",
    "prefecture_code": "19",
    "city": "甲州市",
    "city_kana": "コウシュウシ",
    "town": "塩山上萩原",
    "town_kana": "エンザンカミハギハラ",
    "street": null,
    "office_name": null,
    "office_name_kana": null
  },
  "0023": {
    "zip_code": "4040023",
    "prefecture": "山梨県",
    "prefecture_kana": "ヤマナシケン",
    "prefecture_code": "19",
    "city": "甲州市",
    "city_kana": "コウシュウシ",
    "town": "塩山中萩原",
    "town_kana": "エンザンナカハギハラ",
    "street": null,
    "office_name": null,
    "office_name_kana": null
  },
  "0024": {
    "zip_code": "4040024",
    "prefecture": "山梨県",
    "prefecture_kana": "ヤマナシケン",
    "prefecture_code": "19",
    "city": "甲州市",
    "city_kana": "コウシュウシ",
    "town": "塩山下萩原",
    "town_kana": "エンザンシモハギハラ",
    "street": null,
    "office_name": null,
    "office_name_kana": null
  },
  "0025": {
    "zip_code": "4040025",
    "prefecture": "山梨県",
    "prefecture_kana": "ヤマナシケン",
    "prefecture_code": "19",
    "city": "甲州市",
    "city_kana": "コウシュウシ",
    "town": "塩山下小田原",
    "town_kana": "エンザンシモオダワラ",
    "street": null,
    "office_name": null,
    "office_name_kana": null
  },
  "0026": {
    "zip_code": "4040026",
    "prefecture": "山梨県",
    "prefecture_kana": "ヤマナシケン",
    "prefecture_code": "19",
    "city": "甲州市",
    "city_kana": "コウシュウシ",
    "town": "塩山上小田原",
    "town_kana": "エンザンカミオダワラ",
    "street": null,
    "office_name": null,
    "office_name_kana": null
  },
  "0031": {
    "zip_code": "4040031",
    "prefecture": "山梨県",
    "prefecture_kana": "ヤマナシケン",
    "prefecture_code": "19",
    "city": "甲州市",
    "city_kana": "コウシュウシ",
    "town": "塩山上粟生野",
    "town_kana": "エンザンカミアオノ",
    "street": null,
    "office_name": null,
    "office_name_kana": null
  },
  "0032": {
    "zip_code": "4040032",
    "prefecture": "山梨県",
    "prefecture_kana": "ヤマナシケン",
    "prefecture_code": "19",
    "city": "甲州市",
    "city_kana": "コウシュウシ",
    "town": "塩山下粟生野",
    "town_kana": "エンザンシモアオノ",
    "street": null,
    "office_name": null,
    "office_name_kana": null
  },
  "0033": {
    "zip_code": "4040033",
    "prefecture": "山梨県",
    "prefecture_kana": "ヤマナシケン",
    "prefecture_code": "19",
    "city": "甲州市",
    "city_kana": "コウシュウシ",
    "town": "塩山赤尾",
    "town_kana": "エンザンアカオ",
    "street": null,
    "office_name": null,
    "office_name_kana": null
  },
  "0034": {
    "zip_code": "4040034",
    "prefecture": "山梨県",
    "prefecture_kana": "ヤマナシケン",
    "prefecture_code": "19",
    "city": "甲州市",
    "city_kana": "コウシュウシ",
    "town": "塩山牛奥",
    "town_kana": "エンザンウシオク",
    "street": null,
    "office_name": null,
    "office_name_kana": null
  },
  "0035": {
    "zip_code": "4040035",
    "prefecture": "山梨県",
    "prefecture_kana": "ヤマナシケン",
    "prefecture_code": "19",
    "city": "甲州市",
    "city_kana": "コウシュウシ",
    "town": "塩山西野原",
    "town_kana": "エンザンニシノハラ",
    "street": null,
    "office_name": null,
    "office_name_kana": null
  },
  "0036": {
    "zip_code": "4040036",
    "prefecture": "山梨県",
    "prefecture_kana": "ヤマナシケン",
    "prefecture_code": "19",
    "city": "甲州市",
    "city_kana": "コウシュウシ",
    "town": "塩山熊野",
    "town_kana": "エンザンクマノ",
    "street": null,
    "office_name": null,
    "office_name_kana": null
  },
  "0037": {
    "zip_code": "4040037",
    "prefecture": "山梨県",
    "prefecture_kana": "ヤマナシケン",
    "prefecture_code": "19",
    "city": "甲州市",
    "city_kana": "コウシュウシ",
    "town": "塩山西広門田",
    "town_kana": "エンザンカワダ",
    "street": null,
    "office_name": null,
    "office_name_kana": null
  },
  "0041": {
    "zip_code": "4040041",
    "prefecture": "山梨県",
    "prefecture_kana": "ヤマナシケン",
    "prefecture_code": "19",
    "city": "甲州市",
    "city_kana": "コウシュウシ",
    "town": "塩山千野",
    "town_kana": "エンザンチノ",
    "street": null,
    "office_name": null,
    "office_name_kana": null
  },
  "0042": {
    "zip_code": "4040042",
    "prefecture": "山梨県",
    "prefecture_kana": "ヤマナシケン",
    "prefecture_code": "19",
    "city": "甲州市",
    "city_kana": "コウシュウシ",
    "town": "塩山上於曽",
    "town_kana": "エンザンカミオゾ",
    "street": null,
    "office_name": null,
    "office_name_kana": null
  },
  "0043": {
    "zip_code": "4040043",
    "prefecture": "山梨県",
    "prefecture_kana": "ヤマナシケン",
    "prefecture_code": "19",
    "city": "甲州市",
    "city_kana": "コウシュウシ",
    "town": "塩山下於曽",
    "town_kana": "エンザンシモオゾ",
    "street": null,
    "office_name": null,
    "office_name_kana": null
  },
  "0044": {
    "zip_code": "4040044",
    "prefecture": "山梨県",
    "prefecture_kana": "ヤマナシケン",
    "prefecture_code": "19",
    "city": "甲州市",
    "city_kana": "コウシュウシ",
    "town": "塩山下塩後",
    "town_kana": "エンザンシモシオゴ",
    "street": null,
    "office_name": null,
    "office_name_kana": null
  },
  "0045": {
    "zip_code": "4040045",
    "prefecture": "山梨県",
    "prefecture_kana": "ヤマナシケン",
    "prefecture_code": "19",
    "city": "甲州市",
    "city_kana": "コウシュウシ",
    "town": "塩山上塩後",
    "town_kana": "エンザンカミシオゴ",
    "street": null,
    "office_name": null,
    "office_name_kana": null
  },
  "0046": {
    "zip_code": "4040046",
    "prefecture": "山梨県",
    "prefecture_kana": "ヤマナシケン",
    "prefecture_code": "19",
    "city": "甲州市",
    "city_kana": "コウシュウシ",
    "town": "塩山上井尻",
    "town_kana": "エンザンカミイジリ",
    "street": null,
    "office_name": null,
    "office_name_kana": null
  },
  "0047": {
    "zip_code": "4040047",
    "prefecture": "山梨県",
    "prefecture_kana": "ヤマナシケン",
    "prefecture_code": "19",
    "city": "甲州市",
    "city_kana": "コウシュウシ",
    "town": "塩山三日市場",
    "town_kana": "エンザンミッカイチバ",
    "street": null,
    "office_name": null,
    "office_name_kana": null
  },
  "0051": {
    "zip_code": "4040051",
    "prefecture": "山梨県",
    "prefecture_kana": "ヤマナシケン",
    "prefecture_code": "19",
    "city": "甲州市",
    "city_kana": "コウシュウシ",
    "town": "塩山竹森",
    "town_kana": "エンザンタケモリ",
    "street": null,
    "office_name": null,
    "office_name_kana": null
  },
  "0052": {
    "zip_code": "4040052",
    "prefecture": "山梨県",
    "prefecture_kana": "ヤマナシケン",
    "prefecture_code": "19",
    "city": "甲州市",
    "city_kana": "コウシュウシ",
    "town": "塩山平沢",
    "town_kana": "エンザンヒラサワ",
    "street": null,
    "office_name": null,
    "office_name_kana": null
  },
  "0053": {
    "zip_code": "4040053",
    "prefecture": "山梨県",
    "prefecture_kana": "ヤマナシケン",
    "prefecture_code": "19",
    "city": "甲州市",
    "city_kana": "コウシュウシ",
    "town": "塩山小屋敷",
    "town_kana": "エンザンオヤシキ",
    "street": null,
    "office_name": null,
    "office_name_kana": null
  },
  "0054": {
    "zip_code": "4040054",
    "prefecture": "山梨県",
    "prefecture_kana": "ヤマナシケン",
    "prefecture_code": "19",
    "city": "甲州市",
    "city_kana": "コウシュウシ",
    "town": "塩山藤木",
    "town_kana": "エンザンフジキ",
    "street": null,
    "office_name": null,
    "office_name_kana": null
  },
  "0055": {
    "zip_code": "4040055",
    "prefecture": "山梨県",
    "prefecture_kana": "ヤマナシケン",
    "prefecture_code": "19",
    "city": "甲州市",
    "city_kana": "コウシュウシ",
    "town": "塩山下柚木",
    "town_kana": "エンザンシモユノキ",
    "street": null,
    "office_name": null,
    "office_name_kana": null
  },
  "0056": {
    "zip_code": "4040056",
    "prefecture": "山梨県",
    "prefecture_kana": "ヤマナシケン",
    "prefecture_code": "19",
    "city": "甲州市",
    "city_kana": "コウシュウシ",
    "town": "塩山福生里",
    "town_kana": "エンザンフクオリ",
    "street": null,
    "office_name": null,
    "office_name_kana": null
  },
  "0201": {
    "zip_code": "4040201",
    "prefecture": "山梨県",
    "prefecture_kana": "ヤマナシケン",
    "prefecture_code": "19",
    "city": "山梨市",
    "city_kana": "ヤマナシシ",
    "town": "三富川浦",
    "town_kana": "ミトミカワウラ",
    "street": null,
    "office_name": null,
    "office_name_kana": null
  },
  "0202": {
    "zip_code": "4040202",
    "prefecture": "山梨県",
    "prefecture_kana": "ヤマナシケン",
    "prefecture_code": "19",
    "city": "山梨市",
    "city_kana": "ヤマナシシ",
    "town": "三富上柚木",
    "town_kana": "ミトミカミユノキ",
    "street": null,
    "office_name": null,
    "office_name_kana": null
  },
  "0203": {
    "zip_code": "4040203",
    "prefecture": "山梨県",
    "prefecture_kana": "ヤマナシケン",
    "prefecture_code": "19",
    "city": "山梨市",
    "city_kana": "ヤマナシシ",
    "town": "三富下荻原",
    "town_kana": "ミトミシモオギハラ",
    "street": null,
    "office_name": null,
    "office_name_kana": null
  },
  "0204": {
    "zip_code": "4040204",
    "prefecture": "山梨県",
    "prefecture_kana": "ヤマナシケン",
    "prefecture_code": "19",
    "city": "山梨市",
    "city_kana": "ヤマナシシ",
    "town": "三富下釜口",
    "town_kana": "ミトミシモカマクチ",
    "street": null,
    "office_name": null,
    "office_name_kana": null
  },
  "0205": {
    "zip_code": "4040205",
    "prefecture": "山梨県",
    "prefecture_kana": "ヤマナシケン",
    "prefecture_code": "19",
    "city": "山梨市",
    "city_kana": "ヤマナシシ",
    "town": "三富徳和",
    "town_kana": "ミトミトクワ",
    "street": null,
    "office_name": null,
    "office_name_kana": null
  },
  "0206": {
    "zip_code": "4040206",
    "prefecture": "山梨県",
    "prefecture_kana": "ヤマナシケン",
    "prefecture_code": "19",
    "city": "山梨市",
    "city_kana": "ヤマナシシ",
    "town": "三富上釜口",
    "town_kana": "ミトミカミカマクチ",
    "street": null,
    "office_name": null,
    "office_name_kana": null
  },
  "0211": [
    {
      "zip_code": "4040211",
      "prefecture": "山梨県",
      "prefecture_kana": "ヤマナシケン",
      "prefecture_code": "19",
      "city": "甲州市",
      "city_kana": "コウシュウシ",
      "town": "塩山小屋敷",
      "town_kana": "エンザンオヤシキ",
      "street": null,
      "office_name": null,
      "office_name_kana": null
    },
    {
      "zip_code": "4040211",
      "prefecture": "山梨県",
      "prefecture_kana": "ヤマナシケン",
      "prefecture_code": "19",
      "city": "甲州市",
      "city_kana": "コウシュウシ",
      "town": "塩山小屋敷滑沢",
      "town_kana": "エンザンオヤシキナメザワ",
      "street": null,
      "office_name": null,
      "office_name_kana": null
    }
  ],
  "8501": {
    "zip_code": "4048501",
    "prefecture": "山梨県",
    "prefecture_kana": "ヤマナシケン",
    "prefecture_code": "19",
    "city": "甲州市",
    "city_kana": "コウシュウシ",
    "town": "塩山上於曽",
    "town_kana": "エンザンカミオゾ",
    "street": "１０４０",
    "office_name": "甲州市役所",
    "office_name_kana": "コウシユウシヤクシヨ"
  },
  "8601": {
    "zip_code": "4048601",
    "prefecture": "山梨県",
    "prefecture_kana": "ヤマナシケン",
    "prefecture_code": "19",
    "city": "甲州市",
    "city_kana": "コウシュウシ",
    "town": "塩山上塩後",
    "town_kana": "エンザンカミシオゴ",
    "street": "１２３９−１",
    "office_name": "峡東地域県民センター",
    "office_name_kana": "キヨウトウチイキケンミンセンタ-"
  }
}