{
  "0100": {
    "zip_code": "4090100",
    "prefecture": "山梨県",
    "prefecture_kana": "ヤマナシケン",
    "prefecture_code": 19,
    "city": "上野原市",
    "city_kana": "ウエノハラシ",
    "town": "",
    "town_kana": "",
    "street": null,
    "office_name": null,
    "office_name_kana": null
  },
  "0111": {
    "zip_code": "4090111",
    "prefecture": "山梨県",
    "prefecture_kana": "ヤマナシケン",
    "prefecture_code": 19,
    "city": "上野原市",
    "city_kana": "ウエノハラシ",
    "town": "棡原",
    "town_kana": "ユズリハラ",
    "street": null,
    "office_name": null,
    "office_name_kana": null
  },
  "0112": {
    "zip_code": "4090112",
    "prefecture": "山梨県",
    "prefecture_kana": "ヤマナシケン",
    "prefecture_code": 19,
    "city": "上野原市",
    "city_kana": "ウエノハラシ",
    "town": "上野原",
    "town_kana": "ウエノハラ",
    "street": null,
    "office_name": null,
    "office_name_kana": null
  },
  "0113": {
    "zip_code": "4090113",
    "prefecture": "山梨県",
    "prefecture_kana": "ヤマナシケン",
    "prefecture_code": 19,
    "city": "上野原市",
    "city_kana": "ウエノハラシ",
    "town": "新田",
    "town_kana": "アラタ",
    "street": null,
    "office_name": null,
    "office_name_kana": null
  },
  "0114": {
    "zip_code": "4090114",
    "prefecture": "山梨県",
    "prefecture_kana": "ヤマナシケン",
    "prefecture_code": 19,
    "city": "上野原市",
    "city_kana": "ウエノハラシ",
    "town": "鶴島",
    "town_kana": "ツルシマ",
    "street": null,
    "office_name": null,
    "office_name_kana": null
  },
  "0115": {
    "zip_code": "4090115",
    "prefecture": "山梨県",
    "prefecture_kana": "ヤマナシケン",
    "prefecture_code": 19,
    "city": "上野原市",
    "city_kana": "ウエノハラシ",
    "town": "松留",
    "town_kana": "マツドメ",
    "street": null,
    "office_name": null,
    "office_name_kana": null
  },
  "0121": {
    "zip_code": "4090121",
    "prefecture": "山梨県",
    "prefecture_kana": "ヤマナシケン",
    "prefecture_code": 19,
    "city": "上野原市",
    "city_kana": "ウエノハラシ",
    "town": "四方津",
    "town_kana": "シオツ",
    "street": null,
    "office_name": null,
    "office_name_kana": null
  },
  "0122": {
    "zip_code": "4090122",
    "prefecture": "山梨県",
    "prefecture_kana": "ヤマナシケン",
    "prefecture_code": 19,
    "city": "上野原市",
    "city_kana": "ウエノハラシ",
    "town": "川合",
    "town_kana": "カワイ",
    "street": null,
    "office_name": null,
    "office_name_kana": null
  },
  "0123": {
    "zip_code": "4090123",
    "prefecture": "山梨県",
    "prefecture_kana": "ヤマナシケン",
    "prefecture_code": 19,
    "city": "上野原市",
    "city_kana": "ウエノハラシ",
    "town": "大野",
    "town_kana": "オオノ",
    "street": null,
    "office_name": null,
    "office_name_kana": null
  },
  "0124": {
    "zip_code": "4090124",
    "prefecture": "山梨県",
    "prefecture_kana": "ヤマナシケン",
    "prefecture_code": 19,
    "city": "上野原市",
    "city_kana": "ウエノハラシ",
    "town": "犬目",
    "town_kana": "イヌメ",
    "street": null,
    "office_name": null,
    "office_name_kana": null
  },
  "0125": {
    "zip_code": "4090125",
    "prefecture": "山梨県",
    "prefecture_kana": "ヤマナシケン",
    "prefecture_code": 19,
    "city": "上野原市",
    "city_kana": "ウエノハラシ",
    "town": "野田尻",
    "town_kana": "ノタジリ",
    "street": null,
    "office_name": null,
    "office_name_kana": null
  },
  "0126": {
    "zip_code": "4090126",
    "prefecture": "山梨県",
    "prefecture_kana": "ヤマナシケン",
    "prefecture_code": 19,
    "city": "上野原市",
    "city_kana": "ウエノハラシ",
    "town": "コモアしおつ",
    "town_kana": "コモアシオツ",
    "street": null,
    "office_name": null,
    "office_name_kana": null
  },
  "0131": {
    "zip_code": "4090131",
    "prefecture": "山梨県",
    "prefecture_kana": "ヤマナシケン",
    "prefecture_code": 19,
    "city": "上野原市",
    "city_kana": "ウエノハラシ",
    "town": "大曽根",
    "town_kana": "オオゾネ",
    "street": null,
    "office_name": null,
    "office_name_kana": null
  },
  "0132": {
    "zip_code": "4090132",
    "prefecture": "山梨県",
    "prefecture_kana": "ヤマナシケン",
    "prefecture_code": 19,
    "city": "上野原市",
    "city_kana": "ウエノハラシ",
    "town": "鶴川",
    "town_kana": "ツルガワ",
    "street": null,
    "office_name": null,
    "office_name_kana": null
  },
  "0133": {
    "zip_code": "4090133",
    "prefecture": "山梨県",
    "prefecture_kana": "ヤマナシケン",
    "prefecture_code": 19,
    "city": "上野原市",
    "city_kana": "ウエノハラシ",
    "town": "八ツ沢",
    "town_kana": "ヤツサワ",
    "street": null,
    "office_name": null,
    "office_name_kana": null
  },
  "0134": {
    "zip_code": "4090134",
    "prefecture": "山梨県",
    "prefecture_kana": "ヤマナシケン",
    "prefecture_code": 19,
    "city": "上野原市",
    "city_kana": "ウエノハラシ",
    "town": "大椚",
    "town_kana": "オオクヌギ",
    "street": null,
    "office_name": null,
    "office_name_kana": null
  },
  "0135": {
    "zip_code": "4090135",
    "prefecture": "山梨県",
    "prefecture_kana": "ヤマナシケン",
    "prefecture_code": 19,
    "city": "上野原市",
    "city_kana": "ウエノハラシ",
    "town": "芦垣",
    "town_kana": "アシガキ",
    "street": null,
    "office_name": null,
    "office_name_kana": null
  },
  "0136": {
    "zip_code": "4090136",
    "prefecture": "山梨県",
    "prefecture_kana": "ヤマナシケン",
    "prefecture_code": 19,
    "city": "上野原市",
    "city_kana": "ウエノハラシ",
    "town": "桑久保",
    "town_kana": "クワクボ",
    "street": null,
    "office_name": null,
    "office_name_kana": null
  },
  "0137": {
    "zip_code": "4090137",
    "prefecture": "山梨県",
    "prefecture_kana": "ヤマナシケン",
    "prefecture_code": 19,
    "city": "上野原市",
    "city_kana": "ウエノハラシ",
    "town": "和見",
    "town_kana": "ワミ",
    "street": null,
    "office_name": null,
    "office_name_kana": null
  },
  "0138": {
    "zip_code": "4090138",
    "prefecture": "山梨県",
    "prefecture_kana": "ヤマナシケン",
    "prefecture_code": 19,
    "city": "上野原市",
    "city_kana": "ウエノハラシ",
    "town": "大倉",
    "town_kana": "オオクラ",
    "street": null,
    "office_name": null,
    "office_name_kana": null
  },
  "0141": {
    "zip_code": "4090141",
    "prefecture": "山梨県",
    "prefecture_kana": "ヤマナシケン",
    "prefecture_code": 19,
    "city": "上野原市",
    "city_kana": "ウエノハラシ",
    "town": "西原",
    "town_kana": "サイハラ",
    "street": null,
    "office_name": null,
    "office_name_kana": null
  },
  "0142": {
    "zip_code": "4090142",
    "prefecture": "山梨県",
    "prefecture_kana": "ヤマナシケン",
    "prefecture_code": 19,
    "city": "北都留郡小菅村",
    "city_kana": "キタツルグンコスゲムラ",
    "town": "小菅村",
    "town_kana": "コスゲムラ",
    "street": null,
    "office_name": null,
    "office_name_kana": null
  },
  "0192": {
    "zip_code": "4090192",
    "prefecture": "山梨県",
    "prefecture_kana": "ヤマナシケン",
    "prefecture_code": 19,
    "city": "上野原市",
    "city_kana": "ウエノハラシ",
    "town": "上野原",
    "town_kana": "ウエノハラ",
    "street": "３８３２",
    "office_name": "上野原市役所",
    "office_name_kana": "ウエノハラシヤクシヨ"
  },
  "0193": {
    "zip_code": "4090193",
    "prefecture": "山梨県",
    "prefecture_kana": "ヤマナシケン",
    "prefecture_code": 19,
    "city": "上野原市",
    "city_kana": "ウエノハラシ",
    "town": "八ツ沢",
    "town_kana": "ヤツサワ",
    "street": "２５２５",
    "office_name": "帝京科学大学",
    "office_name_kana": "テイキヨウカガクダイガク"
  },
  "0195": {
    "zip_code": "4090195",
    "prefecture": "山梨県",
    "prefecture_kana": "ヤマナシケン",
    "prefecture_code": 19,
    "city": "上野原市",
    "city_kana": "ウエノハラシ",
    "town": "上野原",
    "town_kana": "ウエノハラ",
    "street": "３２００",
    "office_name": "日本大学明誠高等学校",
    "office_name_kana": "ニホンダイガクメイセイコウトウガツコウ"
  },
  "0198": {
    "zip_code": "4090198",
    "prefecture": "山梨県",
    "prefecture_kana": "ヤマナシケン",
    "prefecture_code": 19,
    "city": "上野原市",
    "city_kana": "ウエノハラシ",
    "town": "上野原",
    "town_kana": "ウエノハラ",
    "street": "８１５４−１９",
    "office_name": "株式会社　エノモト",
    "office_name_kana": "カブシキガイシヤ エノモト"
  },
  "0200": {
    "zip_code": "4090200",
    "prefecture": "山梨県",
    "prefecture_kana": "ヤマナシケン",
    "prefecture_code": 19,
    "city": "北都留郡小菅村",
    "city_kana": "キタツルグンコスゲムラ",
    "town": "",
    "town_kana": "",
    "street": null,
    "office_name": null,
    "office_name_kana": null
  },
  "0211": {
    "zip_code": "4090211",
    "prefecture": "山梨県",
    "prefecture_kana": "ヤマナシケン",
    "prefecture_code": 19,
    "city": "北都留郡小菅村",
    "city_kana": "キタツルグンコスゲムラ",
    "town": "小菅村",
    "town_kana": "コスゲムラ",
    "street": null,
    "office_name": null,
    "office_name_kana": null
  },
  "0300": {
    "zip_code": "4090300",
    "prefecture": "山梨県",
    "prefecture_kana": "ヤマナシケン",
    "prefecture_code": 19,
    "city": "北都留郡丹波山村",
    "city_kana": "キタツルグンタバヤマムラ",
    "town": "",
    "town_kana": "",
    "street": null,
    "office_name": null,
    "office_name_kana": null
  },
  "0301": {
    "zip_code": "4090301",
    "prefecture": "山梨県",
    "prefecture_kana": "ヤマナシケン",
    "prefecture_code": 19,
    "city": "北都留郡丹波山村",
    "city_kana": "キタツルグンタバヤマムラ",
    "town": "奥秋",
    "town_kana": "オクアキ",
    "street": null,
    "office_name": null,
    "office_name_kana": null
  },
  "0302": {
    "zip_code": "4090302",
    "prefecture": "山梨県",
    "prefecture_kana": "ヤマナシケン",
    "prefecture_code": 19,
    "city": "北都留郡丹波山村",
    "city_kana": "キタツルグンタバヤマムラ",
    "town": "上組",
    "town_kana": "カミグミ",
    "street": null,
    "office_name": null,
    "office_name_kana": null
  },
  "0303": {
    "zip_code": "4090303",
    "prefecture": "山梨県",
    "prefecture_kana": "ヤマナシケン",
    "prefecture_code": 19,
    "city": "北都留郡丹波山村",
    "city_kana": "キタツルグンタバヤマムラ",
    "town": "中組",
    "town_kana": "ナカグミ",
    "street": null,
    "office_name": null,
    "office_name_kana": null
  },
  "0304": {
    "zip_code": "4090304",
    "prefecture": "山梨県",
    "prefecture_kana": "ヤマナシケン",
    "prefecture_code": 19,
    "city": "北都留郡丹波山村",
    "city_kana": "キタツルグンタバヤマムラ",
    "town": "下組",
    "town_kana": "シモグミ",
    "street": null,
    "office_name": null,
    "office_name_kana": null
  },
  "0305": {
    "zip_code": "4090305",
    "prefecture": "山梨県",
    "prefecture_kana": "ヤマナシケン",
    "prefecture_code": 19,
    "city": "北都留郡丹波山村",
    "city_kana": "キタツルグンタバヤマムラ",
    "town": "高尾",
    "town_kana": "タカオ",
    "street": null,
    "office_name": null,
    "office_name_kana": null
  },
  "0306": {
    "zip_code": "4090306",
    "prefecture": "山梨県",
    "prefecture_kana": "ヤマナシケン",
    "prefecture_code": 19,
    "city": "北都留郡丹波山村",
    "city_kana": "キタツルグンタバヤマムラ",
    "town": "押垣外",
    "town_kana": "オシガイト",
    "street": null,
    "office_name": null,
    "office_name_kana": null
  },
  "0311": {
    "zip_code": "4090311",
    "prefecture": "山梨県",
    "prefecture_kana": "ヤマナシケン",
    "prefecture_code": 19,
    "city": "北都留郡丹波山村",
    "city_kana": "キタツルグンタバヤマムラ",
    "town": "保之瀬",
    "town_kana": "ホノセ",
    "street": null,
    "office_name": null,
    "office_name_kana": null
  },
  "0312": {
    "zip_code": "4090312",
    "prefecture": "山梨県",
    "prefecture_kana": "ヤマナシケン",
    "prefecture_code": 19,
    "city": "北都留郡丹波山村",
    "city_kana": "キタツルグンタバヤマムラ",
    "town": "高畑",
    "town_kana": "タカハタ",
    "street": null,
    "office_name": null,
    "office_name_kana": null
  },
  "0313": {
    "zip_code": "4090313",
    "prefecture": "山梨県",
    "prefecture_kana": "ヤマナシケン",
    "prefecture_code": 19,
    "city": "北都留郡丹波山村",
    "city_kana": "キタツルグンタバヤマムラ",
    "town": "親川",
    "town_kana": "オヤガワ",
    "street": null,
    "office_name": null,
    "office_name_kana": null
  },
  "0314": {
    "zip_code": "4090314",
    "prefecture": "山梨県",
    "prefecture_kana": "ヤマナシケン",
    "prefecture_code": 19,
    "city": "北都留郡丹波山村",
    "city_kana": "キタツルグンタバヤマムラ",
    "town": "御祭",
    "town_kana": "オマツリ",
    "street": null,
    "office_name": null,
    "office_name_kana": null
  },
  "0315": {
    "zip_code": "4090315",
    "prefecture": "山梨県",
    "prefecture_kana": "ヤマナシケン",
    "prefecture_code": 19,
    "city": "北都留郡丹波山村",
    "city_kana": "キタツルグンタバヤマムラ",
    "town": "杉奈久保",
    "town_kana": "スギナクボ",
    "street": null,
    "office_name": null,
    "office_name_kana": null
  },
  "0316": {
    "zip_code": "4090316",
    "prefecture": "山梨県",
    "prefecture_kana": "ヤマナシケン",
    "prefecture_code": 19,
    "city": "北都留郡丹波山村",
    "city_kana": "キタツルグンタバヤマムラ",
    "town": "所畑",
    "town_kana": "トコロハタ",
    "street": null,
    "office_name": null,
    "office_name_kana": null
  },
  "0317": {
    "zip_code": "4090317",
    "prefecture": "山梨県",
    "prefecture_kana": "ヤマナシケン",
    "prefecture_code": 19,
    "city": "北都留郡丹波山村",
    "city_kana": "キタツルグンタバヤマムラ",
    "town": "小袖",
    "town_kana": "コソデ",
    "street": null,
    "office_name": null,
    "office_name_kana": null
  },
  "0318": {
    "zip_code": "4090318",
    "prefecture": "山梨県",
    "prefecture_kana": "ヤマナシケン",
    "prefecture_code": 19,
    "city": "北都留郡丹波山村",
    "city_kana": "キタツルグンタバヤマムラ",
    "town": "鴨沢",
    "town_kana": "カモサワ",
    "street": null,
    "office_name": null,
    "office_name_kana": null
  },
  "0501": {
    "zip_code": "4090501",
    "prefecture": "山梨県",
    "prefecture_kana": "ヤマナシケン",
    "prefecture_code": 19,
    "city": "大月市",
    "city_kana": "オオツキシ",
    "town": "富浜町宮谷",
    "town_kana": "トミハママチミヤタニ",
    "street": null,
    "office_name": null,
    "office_name_kana": null
  },
  "0502": {
    "zip_code": "4090502",
    "prefecture": "山梨県",
    "prefecture_kana": "ヤマナシケン",
    "prefecture_code": 19,
    "city": "大月市",
    "city_kana": "オオツキシ",
    "town": "富浜町鳥沢",
    "town_kana": "トミハママチトリサワ",
    "street": null,
    "office_name": null,
    "office_name_kana": null
  },
  "0503": {
    "zip_code": "4090503",
    "prefecture": "山梨県",
    "prefecture_kana": "ヤマナシケン",
    "prefecture_code": 19,
    "city": "大月市",
    "city_kana": "オオツキシ",
    "town": "梁川町綱の上",
    "town_kana": "ヤナガワマチツナノウエ",
    "street": null,
    "office_name": null,
    "office_name_kana": null
  },
  "0504": {
    "zip_code": "4090504",
    "prefecture": "山梨県",
    "prefecture_kana": "ヤマナシケン",
    "prefecture_code": 19,
    "city": "大月市",
    "city_kana": "オオツキシ",
    "town": "梁川町新倉",
    "town_kana": "ヤナガワマチアラクラ",
    "street": null,
    "office_name": null,
    "office_name_kana": null
  },
  "0505": {
    "zip_code": "4090505",
    "prefecture": "山梨県",
    "prefecture_kana": "ヤマナシケン",
    "prefecture_code": 19,
    "city": "大月市",
    "city_kana": "オオツキシ",
    "town": "梁川町塩瀬",
    "town_kana": "ヤナガワマチシオゼ",
    "street": null,
    "office_name": null,
    "office_name_kana": null
  },
  "0506": {
    "zip_code": "4090506",
    "prefecture": "山梨県",
    "prefecture_kana": "ヤマナシケン",
    "prefecture_code": 19,
    "city": "大月市",
    "city_kana": "オオツキシ",
    "town": "梁川町立野",
    "town_kana": "ヤナガワマチタチノ",
    "street": null,
    "office_name": null,
    "office_name_kana": null
  },
  "0611": {
    "zip_code": "4090611",
    "prefecture": "山梨県",
    "prefecture_kana": "ヤマナシケン",
    "prefecture_code": 19,
    "city": "大月市",
    "city_kana": "オオツキシ",
    "town": "猿橋町小篠",
    "town_kana": "サルハシマチオシノ",
    "street": null,
    "office_name": null,
    "office_name_kana": null
  },
  "0612": {
    "zip_code": "4090612",
    "prefecture": "山梨県",
    "prefecture_kana": "ヤマナシケン",
    "prefecture_code": 19,
    "city": "大月市",
    "city_kana": "オオツキシ",
    "town": "猿橋町藤崎",
    "town_kana": "サルハシマチフジサキ",
    "street": null,
    "office_name": null,
    "office_name_kana": null
  },
  "0613": {
    "zip_code": "4090613",
    "prefecture": "山梨県",
    "prefecture_kana": "ヤマナシケン",
    "prefecture_code": 19,
    "city": "大月市",
    "city_kana": "オオツキシ",
    "town": "猿橋町伊良原",
    "town_kana": "サルハシマチイラバラ",
    "street": null,
    "office_name": null,
    "office_name_kana": null
  },
  "0614": {
    "zip_code": "4090614",
    "prefecture": "山梨県",
    "prefecture_kana": "ヤマナシケン",
    "prefecture_code": 19,
    "city": "大月市",
    "city_kana": "オオツキシ",
    "town": "猿橋町猿橋",
    "town_kana": "サルハシマチサルハシ",
    "street": null,
    "office_name": null,
    "office_name_kana": null
  },
  "0615": {
    "zip_code": "4090615",
    "prefecture": "山梨県",
    "prefecture_kana": "ヤマナシケン",
    "prefecture_code": 19,
    "city": "大月市",
    "city_kana": "オオツキシ",
    "town": "猿橋町朝日小沢",
    "town_kana": "サルハシマチアサヒオザワ",
    "street": null,
    "office_name": null,
    "office_name_kana": null
  },
  "0616": {
    "zip_code": "4090616",
    "prefecture": "山梨県",
    "prefecture_kana": "ヤマナシケン",
    "prefecture_code": 19,
    "city": "大月市",
    "city_kana": "オオツキシ",
    "town": "猿橋町小沢",
    "town_kana": "サルハシマチオザワ",
    "street": null,
    "office_name": null,
    "office_name_kana": null
  },
  "0617": {
    "zip_code": "4090617",
    "prefecture": "山梨県",
    "prefecture_kana": "ヤマナシケン",
    "prefecture_code": 19,
    "city": "大月市",
    "city_kana": "オオツキシ",
    "town": "猿橋町殿上",
    "town_kana": "サルハシマチトノウエ",
    "street": null,
    "office_name": null,
    "office_name_kana": null
  },
  "0618": {
    "zip_code": "4090618",
    "prefecture": "山梨県",
    "prefecture_kana": "ヤマナシケン",
    "prefecture_code": 19,
    "city": "大月市",
    "city_kana": "オオツキシ",
    "town": "猿橋町桂台",
    "town_kana": "サルハシマチカツラダイ",
    "street": null,
    "office_name": null,
    "office_name_kana": null
  },
  "0621": {
    "zip_code": "4090621",
    "prefecture": "山梨県",
    "prefecture_kana": "ヤマナシケン",
    "prefecture_code": 19,
    "city": "大月市",
    "city_kana": "オオツキシ",
    "town": "七保町浅川",
    "town_kana": "ナナホマチアサカワ",
    "street": null,
    "office_name": null,
    "office_name_kana": null
  },
  "0622": {
    "zip_code": "4090622",
    "prefecture": "山梨県",
    "prefecture_kana": "ヤマナシケン",
    "prefecture_code": 19,
    "city": "大月市",
    "city_kana": "オオツキシ",
    "town": "七保町下和田",
    "town_kana": "ナナホマチシモワダ",
    "street": null,
    "office_name": null,
    "office_name_kana": null
  },
  "0623": {
    "zip_code": "4090623",
    "prefecture": "山梨県",
    "prefecture_kana": "ヤマナシケン",
    "prefecture_code": 19,
    "city": "大月市",
    "city_kana": "オオツキシ",
    "town": "七保町葛野",
    "town_kana": "ナナホマチカズノ",
    "street": null,
    "office_name": null,
    "office_name_kana": null
  },
  "0624": {
    "zip_code": "4090624",
    "prefecture": "山梨県",
    "prefecture_kana": "ヤマナシケン",
    "prefecture_code": 19,
    "city": "大月市",
    "city_kana": "オオツキシ",
    "town": "七保町林",
    "town_kana": "ナナホマチハヤシ",
    "street": null,
    "office_name": null,
    "office_name_kana": null
  },
  "0625": {
    "zip_code": "4090625",
    "prefecture": "山梨県",
    "prefecture_kana": "ヤマナシケン",
    "prefecture_code": 19,
    "city": "大月市",
    "city_kana": "オオツキシ",
    "town": "七保町奈良子",
    "town_kana": "ナナホマチナラゴ",
    "street": null,
    "office_name": null,
    "office_name_kana": null
  },
  "0626": {
    "zip_code": "4090626",
    "prefecture": "山梨県",
    "prefecture_kana": "ヤマナシケン",
    "prefecture_code": 19,
    "city": "大月市",
    "city_kana": "オオツキシ",
    "town": "七保町瀬戸",
    "town_kana": "ナナホマチセト",
    "street": null,
    "office_name": null,
    "office_name_kana": null
  },
  "0627": {
    "zip_code": "4090627",
    "prefecture": "山梨県",
    "prefecture_kana": "ヤマナシケン",
    "prefecture_code": 19,
    "city": "大月市",
    "city_kana": "オオツキシ",
    "town": "七保町駒宮",
    "town_kana": "ナナホマチコマミヤ",
    "street": null,
    "office_name": null,
    "office_name_kana": null
  },
  "1201": {
    "zip_code": "4091201",
    "prefecture": "山梨県",
    "prefecture_kana": "ヤマナシケン",
    "prefecture_code": 19,
    "city": "甲州市",
    "city_kana": "コウシュウシ",
    "town": "大和町木賊",
    "town_kana": "ヤマトチョウトクサ",
    "street": null,
    "office_name": null,
    "office_name_kana": null
  },
  "1202": {
    "zip_code": "4091202",
    "prefecture": "山梨県",
    "prefecture_kana": "ヤマナシケン",
    "prefecture_code": 19,
    "city": "甲州市",
    "city_kana": "コウシュウシ",
    "town": "大和町田野",
    "town_kana": "ヤマトチョウタノ",
    "street": null,
    "office_name": null,
    "office_name_kana": null
  },
  "1203": {
    "zip_code": "4091203",
    "prefecture": "山梨県",
    "prefecture_kana": "ヤマナシケン",
    "prefecture_code": 19,
    "city": "甲州市",
    "city_kana": "コウシュウシ",
    "town": "大和町初鹿野",
    "town_kana": "ヤマトチョウハジカノ",
    "street": null,
    "office_name": null,
    "office_name_kana": null
  },
  "1204": {
    "zip_code": "4091204",
    "prefecture": "山梨県",
    "prefecture_kana": "ヤマナシケン",
    "prefecture_code": 19,
    "city": "甲州市",
    "city_kana": "コウシュウシ",
    "town": "大和町日影",
    "town_kana": "ヤマトチョウヒカゲ",
    "street": null,
    "office_name": null,
    "office_name_kana": null
  },
  "1205": {
    "zip_code": "4091205",
    "prefecture": "山梨県",
    "prefecture_kana": "ヤマナシケン",
    "prefecture_code": 19,
    "city": "甲州市",
    "city_kana": "コウシュウシ",
    "town": "大和町鶴瀬",
    "town_kana": "ヤマトチョウツルセ",
    "street": null,
    "office_name": null,
    "office_name_kana": null
  },
  "1211": [
    {
      "zip_code": "4091211",
      "prefecture": "山梨県",
      "prefecture_kana": "ヤマナシケン",
      "prefecture_code": 19,
      "city": "甲州市",
      "city_kana": "コウシュウシ",
      "town": "塩山上萩原",
      "town_kana": "エンザンカミハギハラ",
      "street": null,
      "office_name": null,
      "office_name_kana": null
    },
    {
      "zip_code": "4091211",
      "prefecture": "山梨県",
      "prefecture_kana": "ヤマナシケン",
      "prefecture_code": 19,
      "city": "甲州市",
      "city_kana": "コウシュウシ",
      "town": "塩山上萩原すずらん荘",
      "town_kana": "エンザンカミハギハラスズランソウ",
      "street": null,
      "office_name": null,
      "office_name_kana": null
    },
    {
      "zip_code": "4091211",
      "prefecture": "山梨県",
      "prefecture_kana": "ヤマナシケン",
      "prefecture_code": 19,
      "city": "甲州市",
      "city_kana": "コウシュウシ",
      "town": "塩山上萩原東電上部ダム",
      "town_kana": "エンザンカミハギハラトウデンジョウブダム",
      "street": null,
      "office_name": null,
      "office_name_kana": null
    }
  ],
  "1212": [
    {
      "zip_code": "4091212",
      "prefecture": "山梨県",
      "prefecture_kana": "ヤマナシケン",
      "prefecture_code": 19,
      "city": "甲州市",
      "city_kana": "コウシュウシ",
      "town": "塩山中萩原",
      "town_kana": "エンザンナカハギハラ",
      "street": null,
      "office_name": null,
      "office_name_kana": null
    },
    {
      "zip_code": "4091212",
      "prefecture": "山梨県",
      "prefecture_kana": "ヤマナシケン",
      "prefecture_code": 19,
      "city": "甲州市",
      "city_kana": "コウシュウシ",
      "town": "塩山中萩原日川小屋",
      "town_kana": "エンザンナカハギハラヒカワコヤ",
      "street": null,
      "office_name": null,
      "office_name_kana": null
    }
  ],
  "1213": [
    {
      "zip_code": "4091213",
      "prefecture": "山梨県",
      "prefecture_kana": "ヤマナシケン",
      "prefecture_code": 19,
      "city": "甲州市",
      "city_kana": "コウシュウシ",
      "town": "塩山牛奥",
      "town_kana": "エンザンウシオク",
      "street": null,
      "office_name": null,
      "office_name_kana": null
    },
    {
      "zip_code": "4091213",
      "prefecture": "山梨県",
      "prefecture_kana": "ヤマナシケン",
      "prefecture_code": 19,
      "city": "甲州市",
      "city_kana": "コウシュウシ",
      "town": "塩山牛奥奥野田開拓",
      "town_kana": "エンザンウシオクオクノタカイタク",
      "street": null,
      "office_name": null,
      "office_name_kana": null
    },
    {
      "zip_code": "4091213",
      "prefecture": "山梨県",
      "prefecture_kana": "ヤマナシケン",
      "prefecture_code": 19,
      "city": "甲州市",
      "city_kana": "コウシュウシ",
      "town": "塩山牛奥嵯峨塩開拓",
      "town_kana": "エンザンウシオクサガシオカイタク",
      "street": null,
      "office_name": null,
      "office_name_kana": null
    },
    {
      "zip_code": "4091213",
      "prefecture": "山梨県",
      "prefecture_kana": "ヤマナシケン",
      "prefecture_code": 19,
      "city": "甲州市",
      "city_kana": "コウシュウシ",
      "town": "塩山牛奥嵯峨塩温泉",
      "town_kana": "エンザンウシオクサガシオオンセン",
      "street": null,
      "office_name": null,
      "office_name_kana": null
    }
  ],
  "1298": {
    "zip_code": "4091298",
    "prefecture": "山梨県",
    "prefecture_kana": "ヤマナシケン",
    "prefecture_code": 19,
    "city": "甲州市",
    "city_kana": "コウシュウシ",
    "town": "大和町初鹿野",
    "town_kana": "ヤマトチョウハジカノ",
    "street": "１６９３−１",
    "office_name": "甲州市　大和地域総合局",
    "office_name_kana": "コウシユウシ ヤマトチイキソウゴウキヨク"
  },
  "1301": {
    "zip_code": "4091301",
    "prefecture": "山梨県",
    "prefecture_kana": "ヤマナシケン",
    "prefecture_code": 19,
    "city": "甲州市",
    "city_kana": "コウシュウシ",
    "town": "勝沼町中原",
    "town_kana": "カツヌマチョウナカハラ",
    "street": null,
    "office_name": null,
    "office_name_kana": null
  },
  "1302": {
    "zip_code": "4091302",
    "prefecture": "山梨県",
    "prefecture_kana": "ヤマナシケン",
    "prefecture_code": 19,
    "city": "甲州市",
    "city_kana": "コウシュウシ",
    "town": "勝沼町菱山",
    "town_kana": "カツヌマチョウヒシヤマ",
    "street": null,
    "office_name": null,
    "office_name_kana": null
  },
  "1303": {
    "zip_code": "4091303",
    "prefecture": "山梨県",
    "prefecture_kana": "ヤマナシケン",
    "prefecture_code": 19,
    "city": "甲州市",
    "city_kana": "コウシュウシ",
    "town": "勝沼町小佐手",
    "town_kana": "カツヌマチョウオサデ",
    "street": null,
    "office_name": null,
    "office_name_kana": null
  },
  "1304": {
    "zip_code": "4091304",
    "prefecture": "山梨県",
    "prefecture_kana": "ヤマナシケン",
    "prefecture_code": 19,
    "city": "甲州市",
    "city_kana": "コウシュウシ",
    "town": "勝沼町休息",
    "town_kana": "カツヌマチョウキュウソク",
    "street": null,
    "office_name": null,
    "office_name_kana": null
  },
  "1305": {
    "zip_code": "4091305",
    "prefecture": "山梨県",
    "prefecture_kana": "ヤマナシケン",
    "prefecture_code": 19,
    "city": "甲州市",
    "city_kana": "コウシュウシ",
    "town": "勝沼町綿塚",
    "town_kana": "カツヌマチョウワタヅカ",
    "street": null,
    "office_name": null,
    "office_name_kana": null
  },
  "1306": {
    "zip_code": "4091306",
    "prefecture": "山梨県",
    "prefecture_kana": "ヤマナシケン",
    "prefecture_code": 19,
    "city": "甲州市",
    "city_kana": "コウシュウシ",
    "town": "勝沼町山",
    "town_kana": "カツヌマチョウヤマ",
    "street": null,
    "office_name": null,
    "office_name_kana": null
  },
  "1311": {
    "zip_code": "4091311",
    "prefecture": "山梨県",
    "prefecture_kana": "ヤマナシケン",
    "prefecture_code": 19,
    "city": "甲州市",
    "city_kana": "コウシュウシ",
    "town": "勝沼町深沢",
    "town_kana": "カツヌマチョウフカサワ",
    "street": null,
    "office_name": null,
    "office_name_kana": null
  },
  "1312": {
    "zip_code": "4091312",
    "prefecture": "山梨県",
    "prefecture_kana": "ヤマナシケン",
    "prefecture_code": 19,
    "city": "甲州市",
    "city_kana": "コウシュウシ",
    "town": "勝沼町上岩崎",
    "town_kana": "カツヌマチョウカミイワサキ",
    "street": null,
    "office_name": null,
    "office_name_kana": null
  },
  "1313": {
    "zip_code": "4091313",
    "prefecture": "山梨県",
    "prefecture_kana": "ヤマナシケン",
    "prefecture_code": 19,
    "city": "甲州市",
    "city_kana": "コウシュウシ",
    "town": "勝沼町下岩崎",
    "town_kana": "カツヌマチョウシモイワサキ",
    "street": null,
    "office_name": null,
    "office_name_kana": null
  },
  "1314": {
    "zip_code": "4091314",
    "prefecture": "山梨県",
    "prefecture_kana": "ヤマナシケン",
    "prefecture_code": 19,
    "city": "甲州市",
    "city_kana": "コウシュウシ",
    "town": "勝沼町藤井",
    "town_kana": "カツヌマチョウフジイ",
    "street": null,
    "office_name": null,
    "office_name_kana": null
  },
  "1315": {
    "zip_code": "4091315",
    "prefecture": "山梨県",
    "prefecture_kana": "ヤマナシケン",
    "prefecture_code": 19,
    "city": "甲州市",
    "city_kana": "コウシュウシ",
    "town": "勝沼町等々力",
    "town_kana": "カツヌマチョウトドロキ",
    "street": null,
    "office_name": null,
    "office_name_kana": null
  },
  "1316": {
    "zip_code": "4091316",
    "prefecture": "山梨県",
    "prefecture_kana": "ヤマナシケン",
    "prefecture_code": 19,
    "city": "甲州市",
    "city_kana": "コウシュウシ",
    "town": "勝沼町勝沼",
    "town_kana": "カツヌマチョウカツヌマ",
    "street": null,
    "office_name": null,
    "office_name_kana": null
  },
  "1321": {
    "zip_code": "4091321",
    "prefecture": "山梨県",
    "prefecture_kana": "ヤマナシケン",
    "prefecture_code": 19,
    "city": "甲州市",
    "city_kana": "コウシュウシ",
    "town": "塩山牛奥",
    "town_kana": "エンザンウシオク",
    "street": null,
    "office_name": null,
    "office_name_kana": null
  },
  "1392": {
    "zip_code": "4091392",
    "prefecture": "山梨県",
    "prefecture_kana": "ヤマナシケン",
    "prefecture_code": 19,
    "city": "甲州市",
    "city_kana": "コウシュウシ",
    "town": "勝沼町勝沼",
    "town_kana": "カツヌマチョウカツヌマ",
    "street": "７５６−１",
    "office_name": "甲州市　勝沼地域総合局",
    "office_name_kana": "コウシユウシ カツヌマチイキソウゴウキヨク"
  },
  "1501": {
    "zip_code": "4091501",
    "prefecture": "山梨県",
    "prefecture_kana": "ヤマナシケン",
    "prefecture_code": 19,
    "city": "北杜市",
    "city_kana": "ホクトシ",
    "town": "大泉町西井出",
    "town_kana": "オオイズミチョウニシイデ",
    "street": null,
    "office_name": null,
    "office_name_kana": null
  },
  "1502": {
    "zip_code": "4091502",
    "prefecture": "山梨県",
    "prefecture_kana": "ヤマナシケン",
    "prefecture_code": 19,
    "city": "北杜市",
    "city_kana": "ホクトシ",
    "town": "大泉町谷戸",
    "town_kana": "オオイズミチョウヤト",
    "street": null,
    "office_name": null,
    "office_name_kana": null
  },
  "2100": {
    "zip_code": "4092100",
    "prefecture": "山梨県",
    "prefecture_kana": "ヤマナシケン",
    "prefecture_code": 19,
    "city": "南巨摩郡南部町",
    "city_kana": "ミナミコマグンナンブチョウ",
    "town": "",
    "town_kana": "",
    "street": null,
    "office_name": null,
    "office_name_kana": null
  },
  "2101": {
    "zip_code": "4092101",
    "prefecture": "山梨県",
    "prefecture_kana": "ヤマナシケン",
    "prefecture_code": 19,
    "city": "南巨摩郡南部町",
    "city_kana": "ミナミコマグンナンブチョウ",
    "town": "楮根",
    "town_kana": "カゾネ",
    "street": null,
    "office_name": null,
    "office_name_kana": null
  },
  "2102": {
    "zip_code": "4092102",
    "prefecture": "山梨県",
    "prefecture_kana": "ヤマナシケン",
    "prefecture_code": 19,
    "city": "南巨摩郡南部町",
    "city_kana": "ミナミコマグンナンブチョウ",
    "town": "福士",
    "town_kana": "フクシ",
    "street": null,
    "office_name": null,
    "office_name_kana": null
  },
  "2103": {
    "zip_code": "4092103",
    "prefecture": "山梨県",
    "prefecture_kana": "ヤマナシケン",
    "prefecture_code": 19,
    "city": "南巨摩郡南部町",
    "city_kana": "ミナミコマグンナンブチョウ",
    "town": "万沢",
    "town_kana": "マンザワ",
    "street": null,
    "office_name": null,
    "office_name_kana": null
  },
  "2192": {
    "zip_code": "4092192",
    "prefecture": "山梨県",
    "prefecture_kana": "ヤマナシケン",
    "prefecture_code": 19,
    "city": "南巨摩郡南部町",
    "city_kana": "ミナミコマグンナンブチョウ",
    "town": "福士",
    "town_kana": "フクシ",
    "street": "２８５０５−２",
    "office_name": "南部町役場",
    "office_name_kana": "ナンブチヨウヤクバ"
  },
  "2193": {
    "zip_code": "4092193",
    "prefecture": "山梨県",
    "prefecture_kana": "ヤマナシケン",
    "prefecture_code": 19,
    "city": "南巨摩郡南部町",
    "city_kana": "ミナミコマグンナンブチョウ",
    "town": "福士",
    "town_kana": "フクシ",
    "street": "２７０５−３",
    "office_name": "ＪＡふじかわ　富沢支店",
    "office_name_kana": "ジエイエイフジカワ トミザワシテン"
  },
  "2194": {
    "zip_code": "4092194",
    "prefecture": "山梨県",
    "prefecture_kana": "ヤマナシケン",
    "prefecture_code": 19,
    "city": "南巨摩郡南部町",
    "city_kana": "ミナミコマグンナンブチョウ",
    "town": "万沢",
    "town_kana": "マンザワ",
    "street": "７４８３",
    "office_name": "富士ロイヤルカントリークラブ",
    "office_name_kana": "フジロイヤルカントリ-クラブ"
  },
  "2195": {
    "zip_code": "4092195",
    "prefecture": "山梨県",
    "prefecture_kana": "ヤマナシケン",
    "prefecture_code": 19,
    "city": "南巨摩郡南部町",
    "city_kana": "ミナミコマグンナンブチョウ",
    "town": "万沢",
    "town_kana": "マンザワ",
    "street": "７０７９−１",
    "office_name": "随縁カントリー倶楽部　センチュリー富士コース",
    "office_name_kana": "ズイエンカントリ-クラブ センチユリ-フジコ-ス"
  },
  "2196": {
    "zip_code": "4092196",
    "prefecture": "山梨県",
    "prefecture_kana": "ヤマナシケン",
    "prefecture_code": 19,
    "city": "南巨摩郡南部町",
    "city_kana": "ミナミコマグンナンブチョウ",
    "town": "福士",
    "town_kana": "フクシ",
    "street": "２８５０５−４",
    "office_name": "中央化学　（株）　山梨工場　第二事業所",
    "office_name_kana": "チユウオウカガク (カブ) ヤマナシコウジヨウ ダイニジギヨウシヨ"
  },
  "2211": {
    "zip_code": "4092211",
    "prefecture": "山梨県",
    "prefecture_kana": "ヤマナシケン",
    "prefecture_code": 19,
    "city": "南巨摩郡南部町",
    "city_kana": "ミナミコマグンナンブチョウ",
    "town": "中野",
    "town_kana": "ナカノ",
    "street": null,
    "office_name": null,
    "office_name_kana": null
  },
  "2212": {
    "zip_code": "4092212",
    "prefecture": "山梨県",
    "prefecture_kana": "ヤマナシケン",
    "prefecture_code": 19,
    "city": "南巨摩郡南部町",
    "city_kana": "ミナミコマグンナンブチョウ",
    "town": "南部",
    "town_kana": "ナンブ",
    "street": null,
    "office_name": null,
    "office_name_kana": null
  },
  "2213": {
    "zip_code": "4092213",
    "prefecture": "山梨県",
    "prefecture_kana": "ヤマナシケン",
    "prefecture_code": 19,
    "city": "南巨摩郡南部町",
    "city_kana": "ミナミコマグンナンブチョウ",
    "town": "大和",
    "town_kana": "オオワ",
    "street": null,
    "office_name": null,
    "office_name_kana": null
  },
  "2214": {
    "zip_code": "4092214",
    "prefecture": "山梨県",
    "prefecture_kana": "ヤマナシケン",
    "prefecture_code": 19,
    "city": "南巨摩郡南部町",
    "city_kana": "ミナミコマグンナンブチョウ",
    "town": "塩沢",
    "town_kana": "シオザワ",
    "street": null,
    "office_name": null,
    "office_name_kana": null
  },
  "2215": {
    "zip_code": "4092215",
    "prefecture": "山梨県",
    "prefecture_kana": "ヤマナシケン",
    "prefecture_code": 19,
    "city": "南巨摩郡南部町",
    "city_kana": "ミナミコマグンナンブチョウ",
    "town": "柳島",
    "town_kana": "ヤナギシマ",
    "street": null,
    "office_name": null,
    "office_name_kana": null
  },
  "2216": {
    "zip_code": "4092216",
    "prefecture": "山梨県",
    "prefecture_kana": "ヤマナシケン",
    "prefecture_code": 19,
    "city": "南巨摩郡南部町",
    "city_kana": "ミナミコマグンナンブチョウ",
    "town": "成島",
    "town_kana": "ナルシマ",
    "street": null,
    "office_name": null,
    "office_name_kana": null
  },
  "2217": {
    "zip_code": "4092217",
    "prefecture": "山梨県",
    "prefecture_kana": "ヤマナシケン",
    "prefecture_code": 19,
    "city": "南巨摩郡南部町",
    "city_kana": "ミナミコマグンナンブチョウ",
    "town": "本郷",
    "town_kana": "ホンゴウ",
    "street": null,
    "office_name": null,
    "office_name_kana": null
  },
  "2301": {
    "zip_code": "4092301",
    "prefecture": "山梨県",
    "prefecture_kana": "ヤマナシケン",
    "prefecture_code": 19,
    "city": "南巨摩郡南部町",
    "city_kana": "ミナミコマグンナンブチョウ",
    "town": "上佐野",
    "town_kana": "カミサノ",
    "street": null,
    "office_name": null,
    "office_name_kana": null
  },
  "2302": {
    "zip_code": "4092302",
    "prefecture": "山梨県",
    "prefecture_kana": "ヤマナシケン",
    "prefecture_code": 19,
    "city": "南巨摩郡南部町",
    "city_kana": "ミナミコマグンナンブチョウ",
    "town": "下佐野",
    "town_kana": "シモサノ",
    "street": null,
    "office_name": null,
    "office_name_kana": null
  },
  "2303": {
    "zip_code": "4092303",
    "prefecture": "山梨県",
    "prefecture_kana": "ヤマナシケン",
    "prefecture_code": 19,
    "city": "南巨摩郡南部町",
    "city_kana": "ミナミコマグンナンブチョウ",
    "town": "十島",
    "town_kana": "トオシマ",
    "street": null,
    "office_name": null,
    "office_name_kana": null
  },
  "2304": {
    "zip_code": "4092304",
    "prefecture": "山梨県",
    "prefecture_kana": "ヤマナシケン",
    "prefecture_code": 19,
    "city": "南巨摩郡南部町",
    "city_kana": "ミナミコマグンナンブチョウ",
    "town": "井出",
    "town_kana": "イデ",
    "street": null,
    "office_name": null,
    "office_name_kana": null
  },
  "2305": {
    "zip_code": "4092305",
    "prefecture": "山梨県",
    "prefecture_kana": "ヤマナシケン",
    "prefecture_code": 19,
    "city": "南巨摩郡南部町",
    "city_kana": "ミナミコマグンナンブチョウ",
    "town": "内船",
    "town_kana": "ウツブナ",
    "street": null,
    "office_name": null,
    "office_name_kana": null
  },
  "2398": {
    "zip_code": "4092398",
    "prefecture": "山梨県",
    "prefecture_kana": "ヤマナシケン",
    "prefecture_code": 19,
    "city": "南巨摩郡南部町",
    "city_kana": "ミナミコマグンナンブチョウ",
    "town": "内船",
    "town_kana": "ウツブナ",
    "street": "４４７３−１",
    "office_name": "南部町役場　南部分庁舎",
    "office_name_kana": "ナンブチヨウヤクバ ナンブブンチヨウシヤ"
  },
  "2401": {
    "zip_code": "4092401",
    "prefecture": "山梨県",
    "prefecture_kana": "ヤマナシケン",
    "prefecture_code": 19,
    "city": "南巨摩郡身延町",
    "city_kana": "ミナミコマグンミノブチョウ",
    "town": "上八木沢",
    "town_kana": "カミヤギサワ",
    "street": null,
    "office_name": null,
    "office_name_kana": null
  },
  "2402": {
    "zip_code": "4092402",
    "prefecture": "山梨県",
    "prefecture_kana": "ヤマナシケン",
    "prefecture_code": 19,
    "city": "南巨摩郡身延町",
    "city_kana": "ミナミコマグンミノブチョウ",
    "town": "下八木沢",
    "town_kana": "シモヤギサワ",
    "street": null,
    "office_name": null,
    "office_name_kana": null
  },
  "2403": {
    "zip_code": "4092403",
    "prefecture": "山梨県",
    "prefecture_kana": "ヤマナシケン",
    "prefecture_code": 19,
    "city": "南巨摩郡身延町",
    "city_kana": "ミナミコマグンミノブチョウ",
    "town": "帯金",
    "town_kana": "オビカネ",
    "street": null,
    "office_name": null,
    "office_name_kana": null
  },
  "2404": {
    "zip_code": "4092404",
    "prefecture": "山梨県",
    "prefecture_kana": "ヤマナシケン",
    "prefecture_code": 19,
    "city": "南巨摩郡身延町",
    "city_kana": "ミナミコマグンミノブチョウ",
    "town": "大垈",
    "town_kana": "オオヌタ",
    "street": null,
    "office_name": null,
    "office_name_kana": null
  },
  "2405": {
    "zip_code": "4092405",
    "prefecture": "山梨県",
    "prefecture_kana": "ヤマナシケン",
    "prefecture_code": 19,
    "city": "南巨摩郡身延町",
    "city_kana": "ミナミコマグンミノブチョウ",
    "town": "椿草里",
    "town_kana": "ツバキゾウリ",
    "street": null,
    "office_name": null,
    "office_name_kana": null
  },
  "2406": {
    "zip_code": "4092406",
    "prefecture": "山梨県",
    "prefecture_kana": "ヤマナシケン",
    "prefecture_code": 19,
    "city": "南巨摩郡身延町",
    "city_kana": "ミナミコマグンミノブチョウ",
    "town": "大崩",
    "town_kana": "オオクズレ",
    "street": null,
    "office_name": null,
    "office_name_kana": null
  },
  "2411": {
    "zip_code": "4092411",
    "prefecture": "山梨県",
    "prefecture_kana": "ヤマナシケン",
    "prefecture_code": 19,
    "city": "南巨摩郡身延町",
    "city_kana": "ミナミコマグンミノブチョウ",
    "town": "丸滝",
    "town_kana": "マルタキ",
    "street": null,
    "office_name": null,
    "office_name_kana": null
  },
  "2412": {
    "zip_code": "4092412",
    "prefecture": "山梨県",
    "prefecture_kana": "ヤマナシケン",
    "prefecture_code": 19,
    "city": "南巨摩郡身延町",
    "city_kana": "ミナミコマグンミノブチョウ",
    "town": "角打",
    "town_kana": "ツノウチ",
    "street": null,
    "office_name": null,
    "office_name_kana": null
  },
  "2413": {
    "zip_code": "4092413",
    "prefecture": "山梨県",
    "prefecture_kana": "ヤマナシケン",
    "prefecture_code": 19,
    "city": "南巨摩郡身延町",
    "city_kana": "ミナミコマグンミノブチョウ",
    "town": "和田",
    "town_kana": "ワダ",
    "street": null,
    "office_name": null,
    "office_name_kana": null
  },
  "2414": {
    "zip_code": "4092414",
    "prefecture": "山梨県",
    "prefecture_kana": "ヤマナシケン",
    "prefecture_code": 19,
    "city": "南巨摩郡身延町",
    "city_kana": "ミナミコマグンミノブチョウ",
    "town": "樋之上",
    "town_kana": "ヒノウエ",
    "street": null,
    "office_name": null,
    "office_name_kana": null
  },
  "2415": {
    "zip_code": "4092415",
    "prefecture": "山梨県",
    "prefecture_kana": "ヤマナシケン",
    "prefecture_code": 19,
    "city": "南巨摩郡身延町",
    "city_kana": "ミナミコマグンミノブチョウ",
    "town": "大島",
    "town_kana": "オオシマ",
    "street": null,
    "office_name": null,
    "office_name_kana": null
  },
  "2500": {
    "zip_code": "4092500",
    "prefecture": "山梨県",
    "prefecture_kana": "ヤマナシケン",
    "prefecture_code": 19,
    "city": "南巨摩郡身延町",
    "city_kana": "ミナミコマグンミノブチョウ",
    "town": "",
    "town_kana": "",
    "street": null,
    "office_name": null,
    "office_name_kana": null
  },
  "2521": {
    "zip_code": "4092521",
    "prefecture": "山梨県",
    "prefecture_kana": "ヤマナシケン",
    "prefecture_code": 19,
    "city": "南巨摩郡身延町",
    "city_kana": "ミナミコマグンミノブチョウ",
    "town": "粟倉",
    "town_kana": "アワグラ",
    "street": null,
    "office_name": null,
    "office_name_kana": null
  },
  "2522": {
    "zip_code": "4092522",
    "prefecture": "山梨県",
    "prefecture_kana": "ヤマナシケン",
    "prefecture_code": 19,
    "city": "南巨摩郡身延町",
    "city_kana": "ミナミコマグンミノブチョウ",
    "town": "下山",
    "town_kana": "シモヤマ",
    "street": null,
    "office_name": null,
    "office_name_kana": null
  },
  "2523": {
    "zip_code": "4092523",
    "prefecture": "山梨県",
    "prefecture_kana": "ヤマナシケン",
    "prefecture_code": 19,
    "city": "南巨摩郡身延町",
    "city_kana": "ミナミコマグンミノブチョウ",
    "town": "波木井",
    "town_kana": "ハキイ",
    "street": null,
    "office_name": null,
    "office_name_kana": null
  },
  "2524": {
    "zip_code": "4092524",
    "prefecture": "山梨県",
    "prefecture_kana": "ヤマナシケン",
    "prefecture_code": 19,
    "city": "南巨摩郡身延町",
    "city_kana": "ミナミコマグンミノブチョウ",
    "town": "身延",
    "town_kana": "ミノブ",
    "street": null,
    "office_name": null,
    "office_name_kana": null
  },
  "2531": {
    "zip_code": "4092531",
    "prefecture": "山梨県",
    "prefecture_kana": "ヤマナシケン",
    "prefecture_code": 19,
    "city": "南巨摩郡身延町",
    "city_kana": "ミナミコマグンミノブチョウ",
    "town": "梅平",
    "town_kana": "ウメダイラ",
    "street": null,
    "office_name": null,
    "office_name_kana": null
  },
  "2532": {
    "zip_code": "4092532",
    "prefecture": "山梨県",
    "prefecture_kana": "ヤマナシケン",
    "prefecture_code": 19,
    "city": "南巨摩郡身延町",
    "city_kana": "ミナミコマグンミノブチョウ",
    "town": "大野",
    "town_kana": "オオノ",
    "street": null,
    "office_name": null,
    "office_name_kana": null
  },
  "2533": {
    "zip_code": "4092533",
    "prefecture": "山梨県",
    "prefecture_kana": "ヤマナシケン",
    "prefecture_code": 19,
    "city": "南巨摩郡身延町",
    "city_kana": "ミナミコマグンミノブチョウ",
    "town": "清子",
    "town_kana": "セイゴ",
    "street": null,
    "office_name": null,
    "office_name_kana": null
  },
  "2534": {
    "zip_code": "4092534",
    "prefecture": "山梨県",
    "prefecture_kana": "ヤマナシケン",
    "prefecture_code": 19,
    "city": "南巨摩郡身延町",
    "city_kana": "ミナミコマグンミノブチョウ",
    "town": "光子沢",
    "town_kana": "ミツゴザワ",
    "street": null,
    "office_name": null,
    "office_name_kana": null
  },
  "2535": {
    "zip_code": "4092535",
    "prefecture": "山梨県",
    "prefecture_kana": "ヤマナシケン",
    "prefecture_code": 19,
    "city": "南巨摩郡身延町",
    "city_kana": "ミナミコマグンミノブチョウ",
    "town": "横根中",
    "town_kana": "ヨコネナカ",
    "street": null,
    "office_name": null,
    "office_name_kana": null
  },
  "2536": {
    "zip_code": "4092536",
    "prefecture": "山梨県",
    "prefecture_kana": "ヤマナシケン",
    "prefecture_code": 19,
    "city": "南巨摩郡身延町",
    "city_kana": "ミナミコマグンミノブチョウ",
    "town": "相又",
    "town_kana": "アイマタ",
    "street": null,
    "office_name": null,
    "office_name_kana": null
  },
  "2537": {
    "zip_code": "4092537",
    "prefecture": "山梨県",
    "prefecture_kana": "ヤマナシケン",
    "prefecture_code": 19,
    "city": "南巨摩郡身延町",
    "city_kana": "ミナミコマグンミノブチョウ",
    "town": "大城",
    "town_kana": "オオジロ",
    "street": null,
    "office_name": null,
    "office_name_kana": null
  },
  "2538": {
    "zip_code": "4092538",
    "prefecture": "山梨県",
    "prefecture_kana": "ヤマナシケン",
    "prefecture_code": 19,
    "city": "南巨摩郡身延町",
    "city_kana": "ミナミコマグンミノブチョウ",
    "town": "門野",
    "town_kana": "カドノ",
    "street": null,
    "office_name": null,
    "office_name_kana": null
  },
  "2539": {
    "zip_code": "4092539",
    "prefecture": "山梨県",
    "prefecture_kana": "ヤマナシケン",
    "prefecture_code": 19,
    "city": "南巨摩郡身延町",
    "city_kana": "ミナミコマグンミノブチョウ",
    "town": "小田船原",
    "town_kana": "オダフナハラ",
    "street": null,
    "office_name": null,
    "office_name_kana": null
  },
  "2592": {
    "zip_code": "4092592",
    "prefecture": "山梨県",
    "prefecture_kana": "ヤマナシケン",
    "prefecture_code": 19,
    "city": "南巨摩郡身延町",
    "city_kana": "ミナミコマグンミノブチョウ",
    "town": "梅平",
    "town_kana": "ウメダイラ",
    "street": "２４８３−３６",
    "office_name": "身延町役場　身延支所",
    "office_name_kana": "ミノブチヨウヤクバ ミノブシシヨ"
  },
  "2593": {
    "zip_code": "4092593",
    "prefecture": "山梨県",
    "prefecture_kana": "ヤマナシケン",
    "prefecture_code": 19,
    "city": "南巨摩郡身延町",
    "city_kana": "ミナミコマグンミノブチョウ",
    "town": "身延",
    "town_kana": "ミノブ",
    "street": "３５６７",
    "office_name": "身延山久遠寺",
    "office_name_kana": "ミノブサンクオンジ"
  },
  "2597": {
    "zip_code": "4092597",
    "prefecture": "山梨県",
    "prefecture_kana": "ヤマナシケン",
    "prefecture_code": 19,
    "city": "南巨摩郡身延町",
    "city_kana": "ミナミコマグンミノブチョウ",
    "town": "身延",
    "town_kana": "ミノブ",
    "street": "３５６７",
    "office_name": "身延山学園",
    "office_name_kana": "ミノブサンガクエン"
  },
  "2598": {
    "zip_code": "4092598",
    "prefecture": "山梨県",
    "prefecture_kana": "ヤマナシケン",
    "prefecture_code": 19,
    "city": "南巨摩郡身延町",
    "city_kana": "ミナミコマグンミノブチョウ",
    "town": "下山",
    "town_kana": "シモヤマ",
    "street": "２７９",
    "office_name": "上沢寺",
    "office_name_kana": "ジヨウタクジ"
  },
  "2700": {
    "zip_code": "4092700",
    "prefecture": "山梨県",
    "prefecture_kana": "ヤマナシケン",
    "prefecture_code": 19,
    "city": "南巨摩郡早川町",
    "city_kana": "ミナミコマグンハヤカワチョウ",
    "town": "",
    "town_kana": "",
    "street": null,
    "office_name": null,
    "office_name_kana": null
  },
  "2701": {
    "zip_code": "4092701",
    "prefecture": "山梨県",
    "prefecture_kana": "ヤマナシケン",
    "prefecture_code": 19,
    "city": "南巨摩郡早川町",
    "city_kana": "ミナミコマグンハヤカワチョウ",
    "town": "奈良田",
    "town_kana": "ナラダ",
    "street": null,
    "office_name": null,
    "office_name_kana": null
  },
  "2702": {
    "zip_code": "4092702",
    "prefecture": "山梨県",
    "prefecture_kana": "ヤマナシケン",
    "prefecture_code": 19,
    "city": "南巨摩郡早川町",
    "city_kana": "ミナミコマグンハヤカワチョウ",
    "town": "湯島",
    "town_kana": "ユジマ",
    "street": null,
    "office_name": null,
    "office_name_kana": null
  },
  "2703": {
    "zip_code": "4092703",
    "prefecture": "山梨県",
    "prefecture_kana": "ヤマナシケン",
    "prefecture_code": 19,
    "city": "南巨摩郡早川町",
    "city_kana": "ミナミコマグンハヤカワチョウ",
    "town": "新倉",
    "town_kana": "アラクラ",
    "street": null,
    "office_name": null,
    "office_name_kana": null
  },
  "2704": {
    "zip_code": "4092704",
    "prefecture": "山梨県",
    "prefecture_kana": "ヤマナシケン",
    "prefecture_code": 19,
    "city": "南巨摩郡早川町",
    "city_kana": "ミナミコマグンハヤカワチョウ",
    "town": "大原野",
    "town_kana": "オオハラノ",
    "street": null,
    "office_name": null,
    "office_name_kana": null
  },
  "2705": {
    "zip_code": "4092705",
    "prefecture": "山梨県",
    "prefecture_kana": "ヤマナシケン",
    "prefecture_code": 19,
    "city": "南巨摩郡早川町",
    "city_kana": "ミナミコマグンハヤカワチョウ",
    "town": "早川",
    "town_kana": "ハヤカワ",
    "street": null,
    "office_name": null,
    "office_name_kana": null
  },
  "2711": {
    "zip_code": "4092711",
    "prefecture": "山梨県",
    "prefecture_kana": "ヤマナシケン",
    "prefecture_code": 19,
    "city": "南巨摩郡早川町",
    "city_kana": "ミナミコマグンハヤカワチョウ",
    "town": "黒桂",
    "town_kana": "ツヅラ",
    "street": null,
    "office_name": null,
    "office_name_kana": null
  },
  "2712": {
    "zip_code": "4092712",
    "prefecture": "山梨県",
    "prefecture_kana": "ヤマナシケン",
    "prefecture_code": 19,
    "city": "南巨摩郡早川町",
    "city_kana": "ミナミコマグンハヤカワチョウ",
    "town": "西之宮",
    "town_kana": "ニシノミヤ",
    "street": null,
    "office_name": null,
    "office_name_kana": null
  },
  "2713": {
    "zip_code": "4092713",
    "prefecture": "山梨県",
    "prefecture_kana": "ヤマナシケン",
    "prefecture_code": 19,
    "city": "南巨摩郡早川町",
    "city_kana": "ミナミコマグンハヤカワチョウ",
    "town": "保",
    "town_kana": "ホ",
    "street": null,
    "office_name": null,
    "office_name_kana": null
  },
  "2714": {
    "zip_code": "4092714",
    "prefecture": "山梨県",
    "prefecture_kana": "ヤマナシケン",
    "prefecture_code": 19,
    "city": "南巨摩郡早川町",
    "city_kana": "ミナミコマグンハヤカワチョウ",
    "town": "草塩",
    "town_kana": "クサシオ",
    "street": null,
    "office_name": null,
    "office_name_kana": null
  },
  "2715": {
    "zip_code": "4092715",
    "prefecture": "山梨県",
    "prefecture_kana": "ヤマナシケン",
    "prefecture_code": 19,
    "city": "南巨摩郡早川町",
    "city_kana": "ミナミコマグンハヤカワチョウ",
    "town": "京ケ島",
    "town_kana": "キョウガシマ",
    "street": null,
    "office_name": null,
    "office_name_kana": null
  },
  "2721": {
    "zip_code": "4092721",
    "prefecture": "山梨県",
    "prefecture_kana": "ヤマナシケン",
    "prefecture_code": 19,
    "city": "南巨摩郡早川町",
    "city_kana": "ミナミコマグンハヤカワチョウ",
    "town": "塩之上",
    "town_kana": "シオノウエ",
    "street": null,
    "office_name": null,
    "office_name_kana": null
  },
  "2722": {
    "zip_code": "4092722",
    "prefecture": "山梨県",
    "prefecture_kana": "ヤマナシケン",
    "prefecture_code": 19,
    "city": "南巨摩郡早川町",
    "city_kana": "ミナミコマグンハヤカワチョウ",
    "town": "笹走",
    "town_kana": "ササバシリ",
    "street": null,
    "office_name": null,
    "office_name_kana": null
  },
  "2723": {
    "zip_code": "4092723",
    "prefecture": "山梨県",
    "prefecture_kana": "ヤマナシケン",
    "prefecture_code": 19,
    "city": "南巨摩郡早川町",
    "city_kana": "ミナミコマグンハヤカワチョウ",
    "town": "榑坪",
    "town_kana": "クレツボ",
    "street": null,
    "office_name": null,
    "office_name_kana": null
  },
  "2724": {
    "zip_code": "4092724",
    "prefecture": "山梨県",
    "prefecture_kana": "ヤマナシケン",
    "prefecture_code": 19,
    "city": "南巨摩郡早川町",
    "city_kana": "ミナミコマグンハヤカワチョウ",
    "town": "初鹿島",
    "town_kana": "ハジカジマ",
    "street": null,
    "office_name": null,
    "office_name_kana": null
  },
  "2725": {
    "zip_code": "4092725",
    "prefecture": "山梨県",
    "prefecture_kana": "ヤマナシケン",
    "prefecture_code": 19,
    "city": "南巨摩郡早川町",
    "city_kana": "ミナミコマグンハヤカワチョウ",
    "town": "小縄",
    "town_kana": "コナワ",
    "street": null,
    "office_name": null,
    "office_name_kana": null
  },
  "2726": {
    "zip_code": "4092726",
    "prefecture": "山梨県",
    "prefecture_kana": "ヤマナシケン",
    "prefecture_code": 19,
    "city": "南巨摩郡早川町",
    "city_kana": "ミナミコマグンハヤカワチョウ",
    "town": "千須和",
    "town_kana": "センズワ",
    "street": null,
    "office_name": null,
    "office_name_kana": null
  },
  "2727": {
    "zip_code": "4092727",
    "prefecture": "山梨県",
    "prefecture_kana": "ヤマナシケン",
    "prefecture_code": 19,
    "city": "南巨摩郡早川町",
    "city_kana": "ミナミコマグンハヤカワチョウ",
    "town": "薬袋",
    "town_kana": "ミナイ",
    "street": null,
    "office_name": null,
    "office_name_kana": null
  },
  "2731": {
    "zip_code": "4092731",
    "prefecture": "山梨県",
    "prefecture_kana": "ヤマナシケン",
    "prefecture_code": 19,
    "city": "南巨摩郡早川町",
    "city_kana": "ミナミコマグンハヤカワチョウ",
    "town": "大島",
    "town_kana": "オオシマ",
    "street": null,
    "office_name": null,
    "office_name_kana": null
  },
  "2732": {
    "zip_code": "4092732",
    "prefecture": "山梨県",
    "prefecture_kana": "ヤマナシケン",
    "prefecture_code": 19,
    "city": "南巨摩郡早川町",
    "city_kana": "ミナミコマグンハヤカワチョウ",
    "town": "高住",
    "town_kana": "コウジュウ",
    "street": null,
    "office_name": null,
    "office_name_kana": null
  },
  "2733": {
    "zip_code": "4092733",
    "prefecture": "山梨県",
    "prefecture_kana": "ヤマナシケン",
    "prefecture_code": 19,
    "city": "南巨摩郡早川町",
    "city_kana": "ミナミコマグンハヤカワチョウ",
    "town": "赤沢",
    "town_kana": "アカサワ",
    "street": null,
    "office_name": null,
    "office_name_kana": null
  },
  "2734": {
    "zip_code": "4092734",
    "prefecture": "山梨県",
    "prefecture_kana": "ヤマナシケン",
    "prefecture_code": 19,
    "city": "南巨摩郡早川町",
    "city_kana": "ミナミコマグンハヤカワチョウ",
    "town": "雨畑",
    "town_kana": "アメハタ",
    "street": null,
    "office_name": null,
    "office_name_kana": null
  },
  "2931": {
    "zip_code": "4092931",
    "prefecture": "山梨県",
    "prefecture_kana": "ヤマナシケン",
    "prefecture_code": 19,
    "city": "南巨摩郡身延町",
    "city_kana": "ミナミコマグンミノブチョウ",
    "town": "北川",
    "town_kana": "キタガワ",
    "street": null,
    "office_name": null,
    "office_name_kana": null
  },
  "2932": {
    "zip_code": "4092932",
    "prefecture": "山梨県",
    "prefecture_kana": "ヤマナシケン",
    "prefecture_code": 19,
    "city": "南巨摩郡身延町",
    "city_kana": "ミナミコマグンミノブチョウ",
    "town": "杉山",
    "town_kana": "スギヤマ",
    "street": null,
    "office_name": null,
    "office_name_kana": null
  },
  "2933": {
    "zip_code": "4092933",
    "prefecture": "山梨県",
    "prefecture_kana": "ヤマナシケン",
    "prefecture_code": 19,
    "city": "南巨摩郡身延町",
    "city_kana": "ミナミコマグンミノブチョウ",
    "town": "岩欠",
    "town_kana": "イワカケ",
    "street": null,
    "office_name": null,
    "office_name_kana": null
  },
  "2934": {
    "zip_code": "4092934",
    "prefecture": "山梨県",
    "prefecture_kana": "ヤマナシケン",
    "prefecture_code": 19,
    "city": "南巨摩郡身延町",
    "city_kana": "ミナミコマグンミノブチョウ",
    "town": "大炊平",
    "town_kana": "オイダイラ",
    "street": null,
    "office_name": null,
    "office_name_kana": null
  },
  "2935": {
    "zip_code": "4092935",
    "prefecture": "山梨県",
    "prefecture_kana": "ヤマナシケン",
    "prefecture_code": 19,
    "city": "南巨摩郡身延町",
    "city_kana": "ミナミコマグンミノブチョウ",
    "town": "清沢",
    "town_kana": "キヨザワ",
    "street": null,
    "office_name": null,
    "office_name_kana": null
  },
  "2936": {
    "zip_code": "4092936",
    "prefecture": "山梨県",
    "prefecture_kana": "ヤマナシケン",
    "prefecture_code": 19,
    "city": "南巨摩郡身延町",
    "city_kana": "ミナミコマグンミノブチョウ",
    "town": "常葉",
    "town_kana": "トキワ",
    "street": null,
    "office_name": null,
    "office_name_kana": null
  },
  "2937": {
    "zip_code": "4092937",
    "prefecture": "山梨県",
    "prefecture_kana": "ヤマナシケン",
    "prefecture_code": 19,
    "city": "南巨摩郡身延町",
    "city_kana": "ミナミコマグンミノブチョウ",
    "town": "一色",
    "town_kana": "イッシキ",
    "street": null,
    "office_name": null,
    "office_name_kana": null
  },
  "2938": {
    "zip_code": "4092938",
    "prefecture": "山梨県",
    "prefecture_kana": "ヤマナシケン",
    "prefecture_code": 19,
    "city": "南巨摩郡身延町",
    "city_kana": "ミナミコマグンミノブチョウ",
    "town": "市之瀬",
    "town_kana": "イチノセ",
    "street": null,
    "office_name": null,
    "office_name_kana": null
  },
  "2941": {
    "zip_code": "4092941",
    "prefecture": "山梨県",
    "prefecture_kana": "ヤマナシケン",
    "prefecture_code": 19,
    "city": "南巨摩郡身延町",
    "city_kana": "ミナミコマグンミノブチョウ",
    "town": "湯之奥",
    "town_kana": "ユノオク",
    "street": null,
    "office_name": null,
    "office_name_kana": null
  },
  "2942": {
    "zip_code": "4092942",
    "prefecture": "山梨県",
    "prefecture_kana": "ヤマナシケン",
    "prefecture_code": 19,
    "city": "南巨摩郡身延町",
    "city_kana": "ミナミコマグンミノブチョウ",
    "town": "下部",
    "town_kana": "シモベ",
    "street": null,
    "office_name": null,
    "office_name_kana": null
  },
  "2943": {
    "zip_code": "4092943",
    "prefecture": "山梨県",
    "prefecture_kana": "ヤマナシケン",
    "prefecture_code": 19,
    "city": "南巨摩郡身延町",
    "city_kana": "ミナミコマグンミノブチョウ",
    "town": "川向",
    "town_kana": "カワムキ",
    "street": null,
    "office_name": null,
    "office_name_kana": null
  },
  "2944": {
    "zip_code": "4092944",
    "prefecture": "山梨県",
    "prefecture_kana": "ヤマナシケン",
    "prefecture_code": 19,
    "city": "南巨摩郡身延町",
    "city_kana": "ミナミコマグンミノブチョウ",
    "town": "桃ケ窪",
    "town_kana": "モモガクボ",
    "street": null,
    "office_name": null,
    "office_name_kana": null
  },
  "2945": {
    "zip_code": "4092945",
    "prefecture": "山梨県",
    "prefecture_kana": "ヤマナシケン",
    "prefecture_code": 19,
    "city": "南巨摩郡身延町",
    "city_kana": "ミナミコマグンミノブチョウ",
    "town": "波高島",
    "town_kana": "ハダカジマ",
    "street": null,
    "office_name": null,
    "office_name_kana": null
  },
  "2946": {
    "zip_code": "4092946",
    "prefecture": "山梨県",
    "prefecture_kana": "ヤマナシケン",
    "prefecture_code": 19,
    "city": "南巨摩郡身延町",
    "city_kana": "ミナミコマグンミノブチョウ",
    "town": "大子",
    "town_kana": "ダイゴ",
    "street": null,
    "office_name": null,
    "office_name_kana": null
  },
  "2947": {
    "zip_code": "4092947",
    "prefecture": "山梨県",
    "prefecture_kana": "ヤマナシケン",
    "prefecture_code": 19,
    "city": "南巨摩郡身延町",
    "city_kana": "ミナミコマグンミノブチョウ",
    "town": "上之平",
    "town_kana": "ウエノタイラ",
    "street": null,
    "office_name": null,
    "office_name_kana": null
  },
  "2992": {
    "zip_code": "4092992",
    "prefecture": "山梨県",
    "prefecture_kana": "ヤマナシケン",
    "prefecture_code": 19,
    "city": "南巨摩郡身延町",
    "city_kana": "ミナミコマグンミノブチョウ",
    "town": "常葉",
    "town_kana": "トキワ",
    "street": "１０２５",
    "office_name": "身延町役場　下部支所",
    "office_name_kana": "ミノブチヨウヤクバ シモベシシヨ"
  },
  "3101": {
    "zip_code": "4093101",
    "prefecture": "山梨県",
    "prefecture_kana": "ヤマナシケン",
    "prefecture_code": 19,
    "city": "南巨摩郡身延町",
    "city_kana": "ミナミコマグンミノブチョウ",
    "town": "折門",
    "town_kana": "オリカド",
    "street": null,
    "office_name": null,
    "office_name_kana": null
  },
  "3102": {
    "zip_code": "4093102",
    "prefecture": "山梨県",
    "prefecture_kana": "ヤマナシケン",
    "prefecture_code": 19,
    "city": "南巨摩郡身延町",
    "city_kana": "ミナミコマグンミノブチョウ",
    "town": "八坂",
    "town_kana": "ハッサカ",
    "street": null,
    "office_name": null,
    "office_name_kana": null
  },
  "3103": {
    "zip_code": "4093103",
    "prefecture": "山梨県",
    "prefecture_kana": "ヤマナシケン",
    "prefecture_code": 19,
    "city": "南巨摩郡身延町",
    "city_kana": "ミナミコマグンミノブチョウ",
    "town": "根子",
    "town_kana": "ネッコ",
    "street": null,
    "office_name": null,
    "office_name_kana": null
  },
  "3104": {
    "zip_code": "4093104",
    "prefecture": "山梨県",
    "prefecture_kana": "ヤマナシケン",
    "prefecture_code": 19,
    "city": "南巨摩郡身延町",
    "city_kana": "ミナミコマグンミノブチョウ",
    "town": "中之倉",
    "town_kana": "ナカノクラ",
    "street": null,
    "office_name": null,
    "office_name_kana": null
  },
  "3105": {
    "zip_code": "4093105",
    "prefecture": "山梨県",
    "prefecture_kana": "ヤマナシケン",
    "prefecture_code": 19,
    "city": "南巨摩郡身延町",
    "city_kana": "ミナミコマグンミノブチョウ",
    "town": "釜額",
    "town_kana": "カマヒタイ",
    "street": null,
    "office_name": null,
    "office_name_kana": null
  },
  "3106": {
    "zip_code": "4093106",
    "prefecture": "山梨県",
    "prefecture_kana": "ヤマナシケン",
    "prefecture_code": 19,
    "city": "南巨摩郡身延町",
    "city_kana": "ミナミコマグンミノブチョウ",
    "town": "古関",
    "town_kana": "フルセキ",
    "street": null,
    "office_name": null,
    "office_name_kana": null
  },
  "3107": {
    "zip_code": "4093107",
    "prefecture": "山梨県",
    "prefecture_kana": "ヤマナシケン",
    "prefecture_code": 19,
    "city": "南巨摩郡身延町",
    "city_kana": "ミナミコマグンミノブチョウ",
    "town": "瀬戸",
    "town_kana": "セト",
    "street": null,
    "office_name": null,
    "office_name_kana": null
  },
  "3111": {
    "zip_code": "4093111",
    "prefecture": "山梨県",
    "prefecture_kana": "ヤマナシケン",
    "prefecture_code": 19,
    "city": "南巨摩郡身延町",
    "city_kana": "ミナミコマグンミノブチョウ",
    "town": "大磯小磯",
    "town_kana": "オオイソコイソ",
    "street": null,
    "office_name": null,
    "office_name_kana": null
  },
  "3112": {
    "zip_code": "4093112",
    "prefecture": "山梨県",
    "prefecture_kana": "ヤマナシケン",
    "prefecture_code": 19,
    "city": "南巨摩郡身延町",
    "city_kana": "ミナミコマグンミノブチョウ",
    "town": "芝草",
    "town_kana": "シバクサ",
    "street": null,
    "office_name": null,
    "office_name_kana": null
  },
  "3113": {
    "zip_code": "4093113",
    "prefecture": "山梨県",
    "prefecture_kana": "ヤマナシケン",
    "prefecture_code": 19,
    "city": "南巨摩郡身延町",
    "city_kana": "ミナミコマグンミノブチョウ",
    "town": "水船",
    "town_kana": "ミズフネ",
    "street": null,
    "office_name": null,
    "office_name_kana": null
  },
  "3114": {
    "zip_code": "4093114",
    "prefecture": "山梨県",
    "prefecture_kana": "ヤマナシケン",
    "prefecture_code": 19,
    "city": "南巨摩郡身延町",
    "city_kana": "ミナミコマグンミノブチョウ",
    "town": "道",
    "town_kana": "ミチ",
    "street": null,
    "office_name": null,
    "office_name_kana": null
  },
  "3115": {
    "zip_code": "4093115",
    "prefecture": "山梨県",
    "prefecture_kana": "ヤマナシケン",
    "prefecture_code": 19,
    "city": "南巨摩郡身延町",
    "city_kana": "ミナミコマグンミノブチョウ",
    "town": "切房木",
    "town_kana": "キリフサギ",
    "street": null,
    "office_name": null,
    "office_name_kana": null
  },
  "3116": {
    "zip_code": "4093116",
    "prefecture": "山梨県",
    "prefecture_kana": "ヤマナシケン",
    "prefecture_code": 19,
    "city": "南巨摩郡身延町",
    "city_kana": "ミナミコマグンミノブチョウ",
    "town": "車田",
    "town_kana": "クルマダ",
    "street": null,
    "office_name": null,
    "office_name_kana": null
  },
  "3117": {
    "zip_code": "4093117",
    "prefecture": "山梨県",
    "prefecture_kana": "ヤマナシケン",
    "prefecture_code": 19,
    "city": "南巨摩郡身延町",
    "city_kana": "ミナミコマグンミノブチョウ",
    "town": "三沢",
    "town_kana": "ミサワ",
    "street": null,
    "office_name": null,
    "office_name_kana": null
  },
  "3118": {
    "zip_code": "4093118",
    "prefecture": "山梨県",
    "prefecture_kana": "ヤマナシケン",
    "prefecture_code": 19,
    "city": "南巨摩郡身延町",
    "city_kana": "ミナミコマグンミノブチョウ",
    "town": "上田原",
    "town_kana": "カミタンバラ",
    "street": null,
    "office_name": null,
    "office_name_kana": null
  },
  "3121": {
    "zip_code": "4093121",
    "prefecture": "山梨県",
    "prefecture_kana": "ヤマナシケン",
    "prefecture_code": 19,
    "city": "南巨摩郡身延町",
    "city_kana": "ミナミコマグンミノブチョウ",
    "town": "大山",
    "town_kana": "オオヤマ",
    "street": null,
    "office_name": null,
    "office_name_kana": null
  },
  "3122": {
    "zip_code": "4093122",
    "prefecture": "山梨県",
    "prefecture_kana": "ヤマナシケン",
    "prefecture_code": 19,
    "city": "南巨摩郡身延町",
    "city_kana": "ミナミコマグンミノブチョウ",
    "town": "久保",
    "town_kana": "クボ",
    "street": null,
    "office_name": null,
    "office_name_kana": null
  },
  "3123": {
    "zip_code": "4093123",
    "prefecture": "山梨県",
    "prefecture_kana": "ヤマナシケン",
    "prefecture_code": 19,
    "city": "南巨摩郡身延町",
    "city_kana": "ミナミコマグンミノブチョウ",
    "town": "熊沢",
    "town_kana": "クマザワ",
    "street": null,
    "office_name": null,
    "office_name_kana": null
  },
  "3124": {
    "zip_code": "4093124",
    "prefecture": "山梨県",
    "prefecture_kana": "ヤマナシケン",
    "prefecture_code": 19,
    "city": "南巨摩郡身延町",
    "city_kana": "ミナミコマグンミノブチョウ",
    "town": "樋田",
    "town_kana": "トイダ",
    "street": null,
    "office_name": null,
    "office_name_kana": null
  },
  "3125": {
    "zip_code": "4093125",
    "prefecture": "山梨県",
    "prefecture_kana": "ヤマナシケン",
    "prefecture_code": 19,
    "city": "南巨摩郡身延町",
    "city_kana": "ミナミコマグンミノブチョウ",
    "town": "嶺",
    "town_kana": "ミネ",
    "street": null,
    "office_name": null,
    "office_name_kana": null
  },
  "3126": {
    "zip_code": "4093126",
    "prefecture": "山梨県",
    "prefecture_kana": "ヤマナシケン",
    "prefecture_code": 19,
    "city": "南巨摩郡身延町",
    "city_kana": "ミナミコマグンミノブチョウ",
    "town": "山家",
    "town_kana": "ヤマガ",
    "street": null,
    "office_name": null,
    "office_name_kana": null
  },
  "3231": {
    "zip_code": "4093231",
    "prefecture": "山梨県",
    "prefecture_kana": "ヤマナシケン",
    "prefecture_code": 19,
    "city": "西八代郡市川三郷町",
    "city_kana": "ニシヤツシログンイチカワミサトチョウ",
    "town": "落居",
    "town_kana": "オチイ",
    "street": null,
    "office_name": null,
    "office_name_kana": null
  },
  "3232": {
    "zip_code": "4093232",
    "prefecture": "山梨県",
    "prefecture_kana": "ヤマナシケン",
    "prefecture_code": 19,
    "city": "西八代郡市川三郷町",
    "city_kana": "ニシヤツシログンイチカワミサトチョウ",
    "town": "寺所",
    "town_kana": "テラドコ",
    "street": null,
    "office_name": null,
    "office_name_kana": null
  },
  "3233": {
    "zip_code": "4093233",
    "prefecture": "山梨県",
    "prefecture_kana": "ヤマナシケン",
    "prefecture_code": 19,
    "city": "西八代郡市川三郷町",
    "city_kana": "ニシヤツシログンイチカワミサトチョウ",
    "town": "五八",
    "town_kana": "ゴハチ",
    "street": null,
    "office_name": null,
    "office_name_kana": null
  },
  "3234": {
    "zip_code": "4093234",
    "prefecture": "山梨県",
    "prefecture_kana": "ヤマナシケン",
    "prefecture_code": 19,
    "city": "西八代郡市川三郷町",
    "city_kana": "ニシヤツシログンイチカワミサトチョウ",
    "town": "岩下",
    "town_kana": "イワシタ",
    "street": null,
    "office_name": null,
    "office_name_kana": null
  },
  "3241": {
    "zip_code": "4093241",
    "prefecture": "山梨県",
    "prefecture_kana": "ヤマナシケン",
    "prefecture_code": 19,
    "city": "西八代郡市川三郷町",
    "city_kana": "ニシヤツシログンイチカワミサトチョウ",
    "town": "葛籠沢",
    "town_kana": "ツヅラサワ",
    "street": null,
    "office_name": null,
    "office_name_kana": null
  },
  "3242": {
    "zip_code": "4093242",
    "prefecture": "山梨県",
    "prefecture_kana": "ヤマナシケン",
    "prefecture_code": 19,
    "city": "西八代郡市川三郷町",
    "city_kana": "ニシヤツシログンイチカワミサトチョウ",
    "town": "宮原",
    "town_kana": "ミヤバラ",
    "street": null,
    "office_name": null,
    "office_name_kana": null
  },
  "3243": {
    "zip_code": "4093243",
    "prefecture": "山梨県",
    "prefecture_kana": "ヤマナシケン",
    "prefecture_code": 19,
    "city": "西八代郡市川三郷町",
    "city_kana": "ニシヤツシログンイチカワミサトチョウ",
    "town": "鴨狩津向",
    "town_kana": "カモガリツムギ",
    "street": null,
    "office_name": null,
    "office_name_kana": null
  },
  "3244": {
    "zip_code": "4093244",
    "prefecture": "山梨県",
    "prefecture_kana": "ヤマナシケン",
    "prefecture_code": 19,
    "city": "西八代郡市川三郷町",
    "city_kana": "ニシヤツシログンイチカワミサトチョウ",
    "town": "岩間",
    "town_kana": "イワマ",
    "street": null,
    "office_name": null,
    "office_name_kana": null
  },
  "3245": {
    "zip_code": "4093245",
    "prefecture": "山梨県",
    "prefecture_kana": "ヤマナシケン",
    "prefecture_code": 19,
    "city": "西八代郡市川三郷町",
    "city_kana": "ニシヤツシログンイチカワミサトチョウ",
    "town": "楠甫",
    "town_kana": "クスホ",
    "street": null,
    "office_name": null,
    "office_name_kana": null
  },
  "3293": {
    "zip_code": "4093293",
    "prefecture": "山梨県",
    "prefecture_kana": "ヤマナシケン",
    "prefecture_code": 19,
    "city": "西八代郡市川三郷町",
    "city_kana": "ニシヤツシログンイチカワミサトチョウ",
    "town": "岩間",
    "town_kana": "イワマ",
    "street": "２１４７",
    "office_name": "開運社",
    "office_name_kana": "カイウンシヤ"
  },
  "3301": {
    "zip_code": "4093301",
    "prefecture": "山梨県",
    "prefecture_kana": "ヤマナシケン",
    "prefecture_code": 19,
    "city": "南巨摩郡身延町",
    "city_kana": "ミナミコマグンミノブチョウ",
    "town": "西嶋",
    "town_kana": "ニシジマ",
    "street": null,
    "office_name": null,
    "office_name_kana": null
  },
  "3302": {
    "zip_code": "4093302",
    "prefecture": "山梨県",
    "prefecture_kana": "ヤマナシケン",
    "prefecture_code": 19,
    "city": "南巨摩郡身延町",
    "city_kana": "ミナミコマグンミノブチョウ",
    "town": "手打沢",
    "town_kana": "テウチザワ",
    "street": null,
    "office_name": null,
    "office_name_kana": null
  },
  "3303": {
    "zip_code": "4093303",
    "prefecture": "山梨県",
    "prefecture_kana": "ヤマナシケン",
    "prefecture_code": 19,
    "city": "南巨摩郡身延町",
    "city_kana": "ミナミコマグンミノブチョウ",
    "town": "寺沢",
    "town_kana": "テラサワ",
    "street": null,
    "office_name": null,
    "office_name_kana": null
  },
  "3304": {
    "zip_code": "4093304",
    "prefecture": "山梨県",
    "prefecture_kana": "ヤマナシケン",
    "prefecture_code": 19,
    "city": "南巨摩郡身延町",
    "city_kana": "ミナミコマグンミノブチョウ",
    "town": "切石",
    "town_kana": "キリイシ",
    "street": null,
    "office_name": null,
    "office_name_kana": null
  },
  "3305": {
    "zip_code": "4093305",
    "prefecture": "山梨県",
    "prefecture_kana": "ヤマナシケン",
    "prefecture_code": 19,
    "city": "南巨摩郡身延町",
    "city_kana": "ミナミコマグンミノブチョウ",
    "town": "下田原",
    "town_kana": "シモタンバラ",
    "street": null,
    "office_name": null,
    "office_name_kana": null
  },
  "3306": {
    "zip_code": "4093306",
    "prefecture": "山梨県",
    "prefecture_kana": "ヤマナシケン",
    "prefecture_code": 19,
    "city": "南巨摩郡身延町",
    "city_kana": "ミナミコマグンミノブチョウ",
    "town": "夜子沢",
    "town_kana": "ヨゴサワ",
    "street": null,
    "office_name": null,
    "office_name_kana": null
  },
  "3307": {
    "zip_code": "4093307",
    "prefecture": "山梨県",
    "prefecture_kana": "ヤマナシケン",
    "prefecture_code": 19,
    "city": "南巨摩郡身延町",
    "city_kana": "ミナミコマグンミノブチョウ",
    "town": "日向南沢",
    "town_kana": "ヒナタミナミザワ",
    "street": null,
    "office_name": null,
    "office_name_kana": null
  },
  "3311": {
    "zip_code": "4093311",
    "prefecture": "山梨県",
    "prefecture_kana": "ヤマナシケン",
    "prefecture_code": 19,
    "city": "南巨摩郡身延町",
    "city_kana": "ミナミコマグンミノブチョウ",
    "town": "大塩",
    "town_kana": "オオシオ",
    "street": null,
    "office_name": null,
    "office_name_kana": null
  },
  "3312": {
    "zip_code": "4093312",
    "prefecture": "山梨県",
    "prefecture_kana": "ヤマナシケン",
    "prefecture_code": 19,
    "city": "南巨摩郡身延町",
    "city_kana": "ミナミコマグンミノブチョウ",
    "town": "久成",
    "town_kana": "クナリ",
    "street": null,
    "office_name": null,
    "office_name_kana": null
  },
  "3313": {
    "zip_code": "4093313",
    "prefecture": "山梨県",
    "prefecture_kana": "ヤマナシケン",
    "prefecture_code": 19,
    "city": "南巨摩郡身延町",
    "city_kana": "ミナミコマグンミノブチョウ",
    "town": "平須",
    "town_kana": "ヒラス",
    "street": null,
    "office_name": null,
    "office_name_kana": null
  },
  "3392": {
    "zip_code": "4093392",
    "prefecture": "山梨県",
    "prefecture_kana": "ヤマナシケン",
    "prefecture_code": 19,
    "city": "南巨摩郡身延町",
    "city_kana": "ミナミコマグンミノブチョウ",
    "town": "切石",
    "town_kana": "キリイシ",
    "street": "３５０",
    "office_name": "身延町役場",
    "office_name_kana": "ミノブチヨウヤクバ"
  },
  "3393": {
    "zip_code": "4093393",
    "prefecture": "山梨県",
    "prefecture_kana": "ヤマナシケン",
    "prefecture_code": 19,
    "city": "南巨摩郡身延町",
    "city_kana": "ミナミコマグンミノブチョウ",
    "town": "西嶋",
    "town_kana": "ニシジマ",
    "street": "３５２５",
    "office_name": "富士川カントリークラブ",
    "office_name_kana": "フジカワカントリ-クラブ"
  },
  "3421": {
    "zip_code": "4093421",
    "prefecture": "山梨県",
    "prefecture_kana": "ヤマナシケン",
    "prefecture_code": 19,
    "city": "南巨摩郡身延町",
    "city_kana": "ミナミコマグンミノブチョウ",
    "town": "八日市場",
    "town_kana": "ヨウカイチバ",
    "street": null,
    "office_name": null,
    "office_name_kana": null
  },
  "3422": {
    "zip_code": "4093422",
    "prefecture": "山梨県",
    "prefecture_kana": "ヤマナシケン",
    "prefecture_code": 19,
    "city": "南巨摩郡身延町",
    "city_kana": "ミナミコマグンミノブチョウ",
    "town": "宮木",
    "town_kana": "ミヤキ",
    "street": null,
    "office_name": null,
    "office_name_kana": null
  },
  "3423": {
    "zip_code": "4093423",
    "prefecture": "山梨県",
    "prefecture_kana": "ヤマナシケン",
    "prefecture_code": 19,
    "city": "南巨摩郡身延町",
    "city_kana": "ミナミコマグンミノブチョウ",
    "town": "飯富",
    "town_kana": "イイトミ",
    "street": null,
    "office_name": null,
    "office_name_kana": null
  },
  "3424": {
    "zip_code": "4093424",
    "prefecture": "山梨県",
    "prefecture_kana": "ヤマナシケン",
    "prefecture_code": 19,
    "city": "南巨摩郡身延町",
    "city_kana": "ミナミコマグンミノブチョウ",
    "town": "伊沼",
    "town_kana": "イヌマ",
    "street": null,
    "office_name": null,
    "office_name_kana": null
  },
  "3431": {
    "zip_code": "4093431",
    "prefecture": "山梨県",
    "prefecture_kana": "ヤマナシケン",
    "prefecture_code": 19,
    "city": "南巨摩郡身延町",
    "city_kana": "ミナミコマグンミノブチョウ",
    "town": "矢細工",
    "town_kana": "ヤサイク",
    "street": null,
    "office_name": null,
    "office_name_kana": null
  },
  "3432": {
    "zip_code": "4093432",
    "prefecture": "山梨県",
    "prefecture_kana": "ヤマナシケン",
    "prefecture_code": 19,
    "city": "南巨摩郡身延町",
    "city_kana": "ミナミコマグンミノブチョウ",
    "town": "中山",
    "town_kana": "ナカヤマ",
    "street": null,
    "office_name": null,
    "office_name_kana": null
  },
  "3433": {
    "zip_code": "4093433",
    "prefecture": "山梨県",
    "prefecture_kana": "ヤマナシケン",
    "prefecture_code": 19,
    "city": "南巨摩郡身延町",
    "city_kana": "ミナミコマグンミノブチョウ",
    "town": "遅沢",
    "town_kana": "オソザワ",
    "street": null,
    "office_name": null,
    "office_name_kana": null
  },
  "3434": {
    "zip_code": "4093434",
    "prefecture": "山梨県",
    "prefecture_kana": "ヤマナシケン",
    "prefecture_code": 19,
    "city": "南巨摩郡身延町",
    "city_kana": "ミナミコマグンミノブチョウ",
    "town": "江尻窪",
    "town_kana": "エジリクボ",
    "street": null,
    "office_name": null,
    "office_name_kana": null
  },
  "3435": {
    "zip_code": "4093435",
    "prefecture": "山梨県",
    "prefecture_kana": "ヤマナシケン",
    "prefecture_code": 19,
    "city": "南巨摩郡身延町",
    "city_kana": "ミナミコマグンミノブチョウ",
    "town": "梨子",
    "town_kana": "ナシゴ",
    "street": null,
    "office_name": null,
    "office_name_kana": null
  },
  "3436": {
    "zip_code": "4093436",
    "prefecture": "山梨県",
    "prefecture_kana": "ヤマナシケン",
    "prefecture_code": 19,
    "city": "南巨摩郡身延町",
    "city_kana": "ミナミコマグンミノブチョウ",
    "town": "福原",
    "town_kana": "フクハラ",
    "street": null,
    "office_name": null,
    "office_name_kana": null
  },
  "3437": {
    "zip_code": "4093437",
    "prefecture": "山梨県",
    "prefecture_kana": "ヤマナシケン",
    "prefecture_code": 19,
    "city": "南巨摩郡身延町",
    "city_kana": "ミナミコマグンミノブチョウ",
    "town": "古長谷",
    "town_kana": "フルハセ",
    "street": null,
    "office_name": null,
    "office_name_kana": null
  },
  "3600": {
    "zip_code": "4093600",
    "prefecture": "山梨県",
    "prefecture_kana": "ヤマナシケン",
    "prefecture_code": 19,
    "city": "西八代郡市川三郷町",
    "city_kana": "ニシヤツシログンイチカワミサトチョウ",
    "town": "",
    "town_kana": "",
    "street": null,
    "office_name": null,
    "office_name_kana": null
  },
  "3601": {
    "zip_code": "4093601",
    "prefecture": "山梨県",
    "prefecture_kana": "ヤマナシケン",
    "prefecture_code": 19,
    "city": "西八代郡市川三郷町",
    "city_kana": "ニシヤツシログンイチカワミサトチョウ",
    "town": "市川大門",
    "town_kana": "イチカワダイモン",
    "street": null,
    "office_name": null,
    "office_name_kana": null
  },
  "3602": {
    "zip_code": "4093602",
    "prefecture": "山梨県",
    "prefecture_kana": "ヤマナシケン",
    "prefecture_code": 19,
    "city": "西八代郡市川三郷町",
    "city_kana": "ニシヤツシログンイチカワミサトチョウ",
    "town": "山保",
    "town_kana": "ヤマホ",
    "street": null,
    "office_name": null,
    "office_name_kana": null
  },
  "3603": {
    "zip_code": "4093603",
    "prefecture": "山梨県",
    "prefecture_kana": "ヤマナシケン",
    "prefecture_code": 19,
    "city": "西八代郡市川三郷町",
    "city_kana": "ニシヤツシログンイチカワミサトチョウ",
    "town": "黒沢",
    "town_kana": "クロザワ",
    "street": null,
    "office_name": null,
    "office_name_kana": null
  },
  "3604": {
    "zip_code": "4093604",
    "prefecture": "山梨県",
    "prefecture_kana": "ヤマナシケン",
    "prefecture_code": 19,
    "city": "西八代郡市川三郷町",
    "city_kana": "ニシヤツシログンイチカワミサトチョウ",
    "town": "八之尻",
    "town_kana": "ハチノシリ",
    "street": null,
    "office_name": null,
    "office_name_kana": null
  },
  "3605": {
    "zip_code": "4093605",
    "prefecture": "山梨県",
    "prefecture_kana": "ヤマナシケン",
    "prefecture_code": 19,
    "city": "西八代郡市川三郷町",
    "city_kana": "ニシヤツシログンイチカワミサトチョウ",
    "town": "下大鳥居",
    "town_kana": "シモオオドリイ",
    "street": null,
    "office_name": null,
    "office_name_kana": null
  },
  "3606": {
    "zip_code": "4093606",
    "prefecture": "山梨県",
    "prefecture_kana": "ヤマナシケン",
    "prefecture_code": 19,
    "city": "西八代郡市川三郷町",
    "city_kana": "ニシヤツシログンイチカワミサトチョウ",
    "town": "高田",
    "town_kana": "タカタ",
    "street": null,
    "office_name": null,
    "office_name_kana": null
  },
  "3607": {
    "zip_code": "4093607",
    "prefecture": "山梨県",
    "prefecture_kana": "ヤマナシケン",
    "prefecture_code": 19,
    "city": "西八代郡市川三郷町",
    "city_kana": "ニシヤツシログンイチカワミサトチョウ",
    "town": "印沢",
    "town_kana": "インザワ",
    "street": null,
    "office_name": null,
    "office_name_kana": null
  },
  "3611": {
    "zip_code": "4093611",
    "prefecture": "山梨県",
    "prefecture_kana": "ヤマナシケン",
    "prefecture_code": 19,
    "city": "西八代郡市川三郷町",
    "city_kana": "ニシヤツシログンイチカワミサトチョウ",
    "town": "大塚",
    "town_kana": "オオツカ",
    "street": null,
    "office_name": null,
    "office_name_kana": null
  },
  "3612": {
    "zip_code": "4093612",
    "prefecture": "山梨県",
    "prefecture_kana": "ヤマナシケン",
    "prefecture_code": 19,
    "city": "西八代郡市川三郷町",
    "city_kana": "ニシヤツシログンイチカワミサトチョウ",
    "town": "上野",
    "town_kana": "ウエノ",
    "street": null,
    "office_name": null,
    "office_name_kana": null
  },
  "3621": {
    "zip_code": "4093621",
    "prefecture": "山梨県",
    "prefecture_kana": "ヤマナシケン",
    "prefecture_code": 19,
    "city": "西八代郡市川三郷町",
    "city_kana": "ニシヤツシログンイチカワミサトチョウ",
    "town": "下芦川",
    "town_kana": "シモアシガワ",
    "street": null,
    "office_name": null,
    "office_name_kana": null
  },
  "3622": {
    "zip_code": "4093622",
    "prefecture": "山梨県",
    "prefecture_kana": "ヤマナシケン",
    "prefecture_code": 19,
    "city": "西八代郡市川三郷町",
    "city_kana": "ニシヤツシログンイチカワミサトチョウ",
    "town": "三帳",
    "town_kana": "サンチョウ",
    "street": null,
    "office_name": null,
    "office_name_kana": null
  },
  "3623": {
    "zip_code": "4093623",
    "prefecture": "山梨県",
    "prefecture_kana": "ヤマナシケン",
    "prefecture_code": 19,
    "city": "西八代郡市川三郷町",
    "city_kana": "ニシヤツシログンイチカワミサトチョウ",
    "town": "高萩",
    "town_kana": "タカハギ",
    "street": null,
    "office_name": null,
    "office_name_kana": null
  },
  "3624": {
    "zip_code": "4093624",
    "prefecture": "山梨県",
    "prefecture_kana": "ヤマナシケン",
    "prefecture_code": 19,
    "city": "西八代郡市川三郷町",
    "city_kana": "ニシヤツシログンイチカワミサトチョウ",
    "town": "垈",
    "town_kana": "ヌタ",
    "street": null,
    "office_name": null,
    "office_name_kana": null
  },
  "3625": {
    "zip_code": "4093625",
    "prefecture": "山梨県",
    "prefecture_kana": "ヤマナシケン",
    "prefecture_code": 19,
    "city": "西八代郡市川三郷町",
    "city_kana": "ニシヤツシログンイチカワミサトチョウ",
    "town": "中山",
    "town_kana": "ナカヤマ",
    "street": null,
    "office_name": null,
    "office_name_kana": null
  },
  "3626": {
    "zip_code": "4093626",
    "prefecture": "山梨県",
    "prefecture_kana": "ヤマナシケン",
    "prefecture_code": 19,
    "city": "西八代郡市川三郷町",
    "city_kana": "ニシヤツシログンイチカワミサトチョウ",
    "town": "畑熊",
    "town_kana": "ハタクマ",
    "street": null,
    "office_name": null,
    "office_name_kana": null
  },
  "3692": {
    "zip_code": "4093692",
    "prefecture": "山梨県",
    "prefecture_kana": "ヤマナシケン",
    "prefecture_code": 19,
    "city": "西八代郡市川三郷町",
    "city_kana": "ニシヤツシログンイチカワミサトチョウ",
    "town": "市川大門",
    "town_kana": "イチカワダイモン",
    "street": "２６０３",
    "office_name": "株式会社　マルアイ",
    "office_name_kana": "カブシキガイシヤ マルアイ"
  },
  "3701": {
    "zip_code": "4093701",
    "prefecture": "山梨県",
    "prefecture_kana": "ヤマナシケン",
    "prefecture_code": 19,
    "city": "笛吹市",
    "city_kana": "フエフキシ",
    "town": "芦川町上芦川",
    "town_kana": "アシガワチョウカミアシガワ",
    "street": null,
    "office_name": null,
    "office_name_kana": null
  },
  "3702": {
    "zip_code": "4093702",
    "prefecture": "山梨県",
    "prefecture_kana": "ヤマナシケン",
    "prefecture_code": 19,
    "city": "笛吹市",
    "city_kana": "フエフキシ",
    "town": "芦川町新井原",
    "town_kana": "アシガワチョウアライバラ",
    "street": null,
    "office_name": null,
    "office_name_kana": null
  },
  "3703": {
    "zip_code": "4093703",
    "prefecture": "山梨県",
    "prefecture_kana": "ヤマナシケン",
    "prefecture_code": 19,
    "city": "笛吹市",
    "city_kana": "フエフキシ",
    "town": "芦川町中芦川",
    "town_kana": "アシガワチョウナカアシガワ",
    "street": null,
    "office_name": null,
    "office_name_kana": null
  },
  "3704": {
    "zip_code": "4093704",
    "prefecture": "山梨県",
    "prefecture_kana": "ヤマナシケン",
    "prefecture_code": 19,
    "city": "笛吹市",
    "city_kana": "フエフキシ",
    "town": "芦川町鶯宿",
    "town_kana": "アシガワチョウオウシュク",
    "street": null,
    "office_name": null,
    "office_name_kana": null
  },
  "3711": {
    "zip_code": "4093711",
    "prefecture": "山梨県",
    "prefecture_kana": "ヤマナシケン",
    "prefecture_code": 19,
    "city": "甲府市",
    "city_kana": "コウフシ",
    "town": "梯町",
    "town_kana": "カケハシマチ",
    "street": null,
    "office_name": null,
    "office_name_kana": null
  },
  "3712": {
    "zip_code": "4093712",
    "prefecture": "山梨県",
    "prefecture_kana": "ヤマナシケン",
    "prefecture_code": 19,
    "city": "甲府市",
    "city_kana": "コウフシ",
    "town": "古関町",
    "town_kana": "フルセキマチ",
    "street": null,
    "office_name": null,
    "office_name_kana": null
  },
  "3792": {
    "zip_code": "4093792",
    "prefecture": "山梨県",
    "prefecture_kana": "ヤマナシケン",
    "prefecture_code": 19,
    "city": "甲府市",
    "city_kana": "コウフシ",
    "town": "古関町",
    "town_kana": "フルセキマチ",
    "street": "１１５８",
    "office_name": "甲府市　上九一色出張所",
    "office_name_kana": "コウフシ カミクイツシキシユツチヨウジヨ"
  },
  "3793": {
    "zip_code": "4093793",
    "prefecture": "山梨県",
    "prefecture_kana": "ヤマナシケン",
    "prefecture_code": 19,
    "city": "笛吹市",
    "city_kana": "フエフキシ",
    "town": "芦川町中芦川",
    "town_kana": "アシガワチョウナカアシガワ",
    "street": "５８５",
    "office_name": "笛吹市役所　芦川支所",
    "office_name_kana": "フエフキシヤクシヨ アシガワシシヨ"
  },
  "3800": [
    {
      "zip_code": "4093800",
      "prefecture": "山梨県",
      "prefecture_kana": "ヤマナシケン",
      "prefecture_code": 19,
      "city": "中央市",
      "city_kana": "チュウオウシ",
      "town": "",
      "town_kana": "",
      "street": null,
      "office_name": null,
      "office_name_kana": null
    },
    {
      "zip_code": "4093800",
      "prefecture": "山梨県",
      "prefecture_kana": "ヤマナシケン",
      "prefecture_code": 19,
      "city": "中巨摩郡昭和町",
      "city_kana": "ナカコマグンショウワチョウ",
      "town": "",
      "town_kana": "",
      "street": null,
      "office_name": null,
      "office_name_kana": null
    }
  ],
  "3801": {
    "zip_code": "4093801",
    "prefecture": "山梨県",
    "prefecture_kana": "ヤマナシケン",
    "prefecture_code": 19,
    "city": "中央市",
    "city_kana": "チュウオウシ",
    "town": "中楯",
    "town_kana": "ナカダテ",
    "street": null,
    "office_name": null,
    "office_name_kana": null
  },
  "3802": {
    "zip_code": "4093802",
    "prefecture": "山梨県",
    "prefecture_kana": "ヤマナシケン",
    "prefecture_code": 19,
    "city": "中央市",
    "city_kana": "チュウオウシ",
    "town": "西新居",
    "town_kana": "ニシアライ",
    "street": null,
    "office_name": null,
    "office_name_kana": null
  },
  "3803": {
    "zip_code": "4093803",
    "prefecture": "山梨県",
    "prefecture_kana": "ヤマナシケン",
    "prefecture_code": 19,
    "city": "中央市",
    "city_kana": "チュウオウシ",
    "town": "若宮",
    "town_kana": "ワカミヤ",
    "street": null,
    "office_name": null,
    "office_name_kana": null
  },
  "3804": {
    "zip_code": "4093804",
    "prefecture": "山梨県",
    "prefecture_kana": "ヤマナシケン",
    "prefecture_code": 19,
    "city": "中央市",
    "city_kana": "チュウオウシ",
    "town": "井之口",
    "town_kana": "イノクチ",
    "street": null,
    "office_name": null,
    "office_name_kana": null
  },
  "3811": {
    "zip_code": "4093811",
    "prefecture": "山梨県",
    "prefecture_kana": "ヤマナシケン",
    "prefecture_code": 19,
    "city": "中央市",
    "city_kana": "チュウオウシ",
    "town": "極楽寺",
    "town_kana": "ゴクラクジ",
    "street": null,
    "office_name": null,
    "office_name_kana": null
  },
  "3812": {
    "zip_code": "4093812",
    "prefecture": "山梨県",
    "prefecture_kana": "ヤマナシケン",
    "prefecture_code": 19,
    "city": "中央市",
    "city_kana": "チュウオウシ",
    "town": "乙黒",
    "town_kana": "オトグロ",
    "street": null,
    "office_name": null,
    "office_name_kana": null
  },
  "3813": {
    "zip_code": "4093813",
    "prefecture": "山梨県",
    "prefecture_kana": "ヤマナシケン",
    "prefecture_code": 19,
    "city": "中央市",
    "city_kana": "チュウオウシ",
    "town": "一町畑",
    "town_kana": "イッチョウハタ",
    "street": null,
    "office_name": null,
    "office_name_kana": null
  },
  "3814": {
    "zip_code": "4093814",
    "prefecture": "山梨県",
    "prefecture_kana": "ヤマナシケン",
    "prefecture_code": 19,
    "city": "中央市",
    "city_kana": "チュウオウシ",
    "town": "町之田",
    "town_kana": "マチノタ",
    "street": null,
    "office_name": null,
    "office_name_kana": null
  },
  "3815": {
    "zip_code": "4093815",
    "prefecture": "山梨県",
    "prefecture_kana": "ヤマナシケン",
    "prefecture_code": 19,
    "city": "中央市",
    "city_kana": "チュウオウシ",
    "town": "成島",
    "town_kana": "ナルシマ",
    "street": null,
    "office_name": null,
    "office_name_kana": null
  },
  "3821": {
    "zip_code": "4093821",
    "prefecture": "山梨県",
    "prefecture_kana": "ヤマナシケン",
    "prefecture_code": 19,
    "city": "中央市",
    "city_kana": "チュウオウシ",
    "town": "下河東",
    "town_kana": "シモカトウ",
    "street": null,
    "office_name": null,
    "office_name_kana": null
  },
  "3822": {
    "zip_code": "4093822",
    "prefecture": "山梨県",
    "prefecture_kana": "ヤマナシケン",
    "prefecture_code": 19,
    "city": "中央市",
    "city_kana": "チュウオウシ",
    "town": "下三條",
    "town_kana": "シモサンジョウ",
    "street": null,
    "office_name": null,
    "office_name_kana": null
  },
  "3823": {
    "zip_code": "4093823",
    "prefecture": "山梨県",
    "prefecture_kana": "ヤマナシケン",
    "prefecture_code": 19,
    "city": "中央市",
    "city_kana": "チュウオウシ",
    "town": "上三條",
    "town_kana": "カミサンジョウ",
    "street": null,
    "office_name": null,
    "office_name_kana": null
  },
  "3831": {
    "zip_code": "4093831",
    "prefecture": "山梨県",
    "prefecture_kana": "ヤマナシケン",
    "prefecture_code": 19,
    "city": "中央市",
    "city_kana": "チュウオウシ",
    "town": "大田和",
    "town_kana": "オオダワ",
    "street": null,
    "office_name": null,
    "office_name_kana": null
  },
  "3832": {
    "zip_code": "4093832",
    "prefecture": "山梨県",
    "prefecture_kana": "ヤマナシケン",
    "prefecture_code": 19,
    "city": "中央市",
    "city_kana": "チュウオウシ",
    "town": "馬籠",
    "town_kana": "マゴメ",
    "street": null,
    "office_name": null,
    "office_name_kana": null
  },
  "3833": {
    "zip_code": "4093833",
    "prefecture": "山梨県",
    "prefecture_kana": "ヤマナシケン",
    "prefecture_code": 19,
    "city": "中央市",
    "city_kana": "チュウオウシ",
    "town": "藤巻",
    "town_kana": "フジマキ",
    "street": null,
    "office_name": null,
    "office_name_kana": null
  },
  "3834": {
    "zip_code": "4093834",
    "prefecture": "山梨県",
    "prefecture_kana": "ヤマナシケン",
    "prefecture_code": 19,
    "city": "中央市",
    "city_kana": "チュウオウシ",
    "town": "今福",
    "town_kana": "イマフク",
    "street": null,
    "office_name": null,
    "office_name_kana": null
  },
  "3835": {
    "zip_code": "4093835",
    "prefecture": "山梨県",
    "prefecture_kana": "ヤマナシケン",
    "prefecture_code": 19,
    "city": "中央市",
    "city_kana": "チュウオウシ",
    "town": "今福新田",
    "town_kana": "イマフクシンデン",
    "street": null,
    "office_name": null,
    "office_name_kana": null
  },
  "3841": {
    "zip_code": "4093841",
    "prefecture": "山梨県",
    "prefecture_kana": "ヤマナシケン",
    "prefecture_code": 19,
    "city": "中央市",
    "city_kana": "チュウオウシ",
    "town": "布施",
    "town_kana": "フセ",
    "street": null,
    "office_name": null,
    "office_name_kana": null
  },
  "3842": {
    "zip_code": "4093842",
    "prefecture": "山梨県",
    "prefecture_kana": "ヤマナシケン",
    "prefecture_code": 19,
    "city": "中央市",
    "city_kana": "チュウオウシ",
    "town": "東花輪",
    "town_kana": "ヒガシハナワ",
    "street": null,
    "office_name": null,
    "office_name_kana": null
  },
  "3843": {
    "zip_code": "4093843",
    "prefecture": "山梨県",
    "prefecture_kana": "ヤマナシケン",
    "prefecture_code": 19,
    "city": "中央市",
    "city_kana": "チュウオウシ",
    "town": "西花輪",
    "town_kana": "ニシハナワ",
    "street": null,
    "office_name": null,
    "office_name_kana": null
  },
  "3844": {
    "zip_code": "4093844",
    "prefecture": "山梨県",
    "prefecture_kana": "ヤマナシケン",
    "prefecture_code": 19,
    "city": "中央市",
    "city_kana": "チュウオウシ",
    "town": "臼井阿原",
    "town_kana": "ウスイアワラ",
    "street": null,
    "office_name": null,
    "office_name_kana": null
  },
  "3845": {
    "zip_code": "4093845",
    "prefecture": "山梨県",
    "prefecture_kana": "ヤマナシケン",
    "prefecture_code": 19,
    "city": "中央市",
    "city_kana": "チュウオウシ",
    "town": "山之神",
    "town_kana": "ヤマノカミ",
    "street": null,
    "office_name": null,
    "office_name_kana": null
  },
  "3851": {
    "zip_code": "4093851",
    "prefecture": "山梨県",
    "prefecture_kana": "ヤマナシケン",
    "prefecture_code": 19,
    "city": "中巨摩郡昭和町",
    "city_kana": "ナカコマグンショウワチョウ",
    "town": "河西",
    "town_kana": "カサイ",
    "street": null,
    "office_name": null,
    "office_name_kana": null
  },
  "3852": {
    "zip_code": "4093852",
    "prefecture": "山梨県",
    "prefecture_kana": "ヤマナシケン",
    "prefecture_code": 19,
    "city": "中巨摩郡昭和町",
    "city_kana": "ナカコマグンショウワチョウ",
    "town": "飯喰",
    "town_kana": "イックイ",
    "street": null,
    "office_name": null,
    "office_name_kana": null
  },
  "3853": {
    "zip_code": "4093853",
    "prefecture": "山梨県",
    "prefecture_kana": "ヤマナシケン",
    "prefecture_code": 19,
    "city": "中巨摩郡昭和町",
    "city_kana": "ナカコマグンショウワチョウ",
    "town": "築地新居",
    "town_kana": "ツイジアライ",
    "street": null,
    "office_name": null,
    "office_name_kana": null
  },
  "3854": {
    "zip_code": "4093854",
    "prefecture": "山梨県",
    "prefecture_kana": "ヤマナシケン",
    "prefecture_code": 19,
    "city": "中巨摩郡昭和町",
    "city_kana": "ナカコマグンショウワチョウ",
    "town": "築地新田",
    "town_kana": "ツイジシンデン",
    "street": null,
    "office_name": null,
    "office_name_kana": null
  },
  "3861": {
    "zip_code": "4093861",
    "prefecture": "山梨県",
    "prefecture_kana": "ヤマナシケン",
    "prefecture_code": 19,
    "city": "中巨摩郡昭和町",
    "city_kana": "ナカコマグンショウワチョウ",
    "town": "紙漉阿原",
    "town_kana": "カミスキアワラ",
    "street": null,
    "office_name": null,
    "office_name_kana": null
  },
  "3862": {
    "zip_code": "4093862",
    "prefecture": "山梨県",
    "prefecture_kana": "ヤマナシケン",
    "prefecture_code": 19,
    "city": "中巨摩郡昭和町",
    "city_kana": "ナカコマグンショウワチョウ",
    "town": "上河東",
    "town_kana": "カミガトウ",
    "street": null,
    "office_name": null,
    "office_name_kana": null
  },
  "3863": {
    "zip_code": "4093863",
    "prefecture": "山梨県",
    "prefecture_kana": "ヤマナシケン",
    "prefecture_code": 19,
    "city": "中巨摩郡昭和町",
    "city_kana": "ナカコマグンショウワチョウ",
    "town": "河東中島",
    "town_kana": "カトウナカジマ",
    "street": null,
    "office_name": null,
    "office_name_kana": null
  },
  "3864": {
    "zip_code": "4093864",
    "prefecture": "山梨県",
    "prefecture_kana": "ヤマナシケン",
    "prefecture_code": 19,
    "city": "中巨摩郡昭和町",
    "city_kana": "ナカコマグンショウワチョウ",
    "town": "押越",
    "town_kana": "オシコシ",
    "street": null,
    "office_name": null,
    "office_name_kana": null
  },
  "3865": {
    "zip_code": "4093865",
    "prefecture": "山梨県",
    "prefecture_kana": "ヤマナシケン",
    "prefecture_code": 19,
    "city": "中巨摩郡昭和町",
    "city_kana": "ナカコマグンショウワチョウ",
    "town": "西条新田",
    "town_kana": "サイジョウシンデン",
    "street": null,
    "office_name": null,
    "office_name_kana": null
  },
  "3866": {
    "zip_code": "4093866",
    "prefecture": "山梨県",
    "prefecture_kana": "ヤマナシケン",
    "prefecture_code": 19,
    "city": "中巨摩郡昭和町",
    "city_kana": "ナカコマグンショウワチョウ",
    "town": "西条",
    "town_kana": "サイジョウ",
    "street": null,
    "office_name": null,
    "office_name_kana": null
  },
  "3867": {
    "zip_code": "4093867",
    "prefecture": "山梨県",
    "prefecture_kana": "ヤマナシケン",
    "prefecture_code": 19,
    "city": "中巨摩郡昭和町",
    "city_kana": "ナカコマグンショウワチョウ",
    "town": "清水新居",
    "town_kana": "シミズアライ",
    "street": null,
    "office_name": null,
    "office_name_kana": null
  },
  "3880": {
    "zip_code": "4093880",
    "prefecture": "山梨県",
    "prefecture_kana": "ヤマナシケン",
    "prefecture_code": 19,
    "city": "中巨摩郡昭和町",
    "city_kana": "ナカコマグンショウワチョウ",
    "town": "押越",
    "town_kana": "オシコシ",
    "street": "５４２−２",
    "office_name": "昭和町役場",
    "office_name_kana": "シヨウワチヨウヤクバ"
  },
  "3881": {
    "zip_code": "4093881",
    "prefecture": "山梨県",
    "prefecture_kana": "ヤマナシケン",
    "prefecture_code": 19,
    "city": "中巨摩郡昭和町",
    "city_kana": "ナカコマグンショウワチョウ",
    "town": "築地新居",
    "town_kana": "ツイジアライ",
    "street": "２０００（田富郵便局私書箱第２号）",
    "office_name": "株式会社　キトー",
    "office_name_kana": "カブシキガイシヤ キト-"
  },
  "3883": {
    "zip_code": "4093883",
    "prefecture": "山梨県",
    "prefecture_kana": "ヤマナシケン",
    "prefecture_code": 19,
    "city": "中巨摩郡昭和町",
    "city_kana": "ナカコマグンショウワチョウ",
    "town": "紙漉阿原",
    "town_kana": "カミスキアワラ",
    "street": "１０００番地",
    "office_name": "住友電工デバイス・イノベーション　株式会社",
    "office_name_kana": "スミトモデンコウデバイス・イノベ-シヨン カブシキガイシヤ"
  },
  "3885": {
    "zip_code": "4093885",
    "prefecture": "山梨県",
    "prefecture_kana": "ヤマナシケン",
    "prefecture_code": 19,
    "city": "中央市",
    "city_kana": "チュウオウシ",
    "town": "山之神",
    "town_kana": "ヤマノカミ",
    "street": "流通団地１−１−１",
    "office_name": "株式会社　渡辺商店",
    "office_name_kana": "カブシキガイシヤ ワタナベシヨウテン"
  },
  "3887": {
    "zip_code": "4093887",
    "prefecture": "山梨県",
    "prefecture_kana": "ヤマナシケン",
    "prefecture_code": 19,
    "city": "中央市",
    "city_kana": "チュウオウシ",
    "town": "山之神",
    "town_kana": "ヤマノカミ",
    "street": "流通団地北２",
    "office_name": "（株）　やまひろ",
    "office_name_kana": "(カブ) ヤマヒロ"
  },
  "3888": {
    "zip_code": "4093888",
    "prefecture": "山梨県",
    "prefecture_kana": "ヤマナシケン",
    "prefecture_code": 19,
    "city": "中央市",
    "city_kana": "チュウオウシ",
    "town": "山之神",
    "town_kana": "ヤマノカミ",
    "street": "流通団地１−７−１（田富郵便局私書箱第７号）",
    "office_name": "株式会社　サン宝石",
    "office_name_kana": "カブシキガイシヤ サンホウセキ"
  },
  "3889": {
    "zip_code": "4093889",
    "prefecture": "山梨県",
    "prefecture_kana": "ヤマナシケン",
    "prefecture_code": 19,
    "city": "中央市",
    "city_kana": "チュウオウシ",
    "town": "西花輪",
    "town_kana": "ニシハナワ",
    "street": "２６８０",
    "office_name": "パイオニア・ディスプレイ・プロダクツ　株式会社",
    "office_name_kana": "パイオニア・デイスプレイ・プロダクツ カブシキガイシヤ"
  },
  "3892": {
    "zip_code": "4093892",
    "prefecture": "山梨県",
    "prefecture_kana": "ヤマナシケン",
    "prefecture_code": 19,
    "city": "中央市",
    "city_kana": "チュウオウシ",
    "town": "臼井阿原",
    "town_kana": "ウスイアワラ",
    "street": "３０１−１",
    "office_name": "中央市役所　田富庁舎",
    "office_name_kana": "チユウオウシヤクシヨ タトミチヨウシヤ"
  },
  "3893": {
    "zip_code": "4093893",
    "prefecture": "山梨県",
    "prefecture_kana": "ヤマナシケン",
    "prefecture_code": 19,
    "city": "中央市",
    "city_kana": "チュウオウシ",
    "town": "成島",
    "town_kana": "ナルシマ",
    "street": "２２６６",
    "office_name": "中央市役所　玉穂庁舎",
    "office_name_kana": "チユウオウシヤクシヨ タマホチヨウシヤ"
  },
  "3894": {
    "zip_code": "4093894",
    "prefecture": "山梨県",
    "prefecture_kana": "ヤマナシケン",
    "prefecture_code": 19,
    "city": "中央市",
    "city_kana": "チュウオウシ",
    "town": "中楯",
    "town_kana": "ナカダテ",
    "street": "８２５",
    "office_name": "株式会社　甲府明電舎",
    "office_name_kana": "カブシキカイシヤ コウフメイデンシヤ"
  },
  "3895": {
    "zip_code": "4093895",
    "prefecture": "山梨県",
    "prefecture_kana": "ヤマナシケン",
    "prefecture_code": 19,
    "city": "中巨摩郡昭和町",
    "city_kana": "ナカコマグンショウワチョウ",
    "town": "紙漉阿原",
    "town_kana": "カミスキアワラ",
    "street": "１３７５",
    "office_name": "パナソニックファクトリーソリューションズ　株式会社",
    "office_name_kana": "パナソニツクフアクトリ-ソリユ-シヨンズ カブシキガイシヤ"
  },
  "3896": {
    "zip_code": "4093896",
    "prefecture": "山梨県",
    "prefecture_kana": "ヤマナシケン",
    "prefecture_code": 19,
    "city": "中央市",
    "city_kana": "チュウオウシ",
    "town": "一町畑",
    "town_kana": "イッチョウハタ",
    "street": "２１７",
    "office_name": "甲府カシオ　株式会社",
    "office_name_kana": "コウフカシオ カブシキガイシヤ"
  },
  "3897": {
    "zip_code": "4093897",
    "prefecture": "山梨県",
    "prefecture_kana": "ヤマナシケン",
    "prefecture_code": 19,
    "city": "中巨摩郡昭和町",
    "city_kana": "ナカコマグンショウワチョウ",
    "town": "西条",
    "town_kana": "サイジョウ",
    "street": "３６００",
    "office_name": "株式会社　アピオ",
    "office_name_kana": "カブシキガイシヤ アピオ"
  },
  "3898": {
    "zip_code": "4093898",
    "prefecture": "山梨県",
    "prefecture_kana": "ヤマナシケン",
    "prefecture_code": 19,
    "city": "中央市",
    "city_kana": "チュウオウシ",
    "town": "下河東",
    "town_kana": "シモカトウ",
    "street": "１１１０",
    "office_name": "山梨大学医学部付属病院",
    "office_name_kana": "ヤマナシダイガクイガクブフゾクビヨウイン"
  }
}