{
  "0000": {
    "zip_code": "4100000",
    "prefecture": "静岡県",
    "prefecture_kana": "シズオカケン",
    "prefecture_code": 22,
    "city": "沼津市",
    "city_kana": "ヌマヅシ",
    "town": "",
    "town_kana": "",
    "street": null,
    "office_name": null,
    "office_name_kana": null
  },
  "0001": {
    "zip_code": "4100001",
    "prefecture": "静岡県",
    "prefecture_kana": "シズオカケン",
    "prefecture_code": 22,
    "city": "沼津市",
    "city_kana": "ヌマヅシ",
    "town": "足高",
    "town_kana": "アシタカ",
    "street": null,
    "office_name": null,
    "office_name_kana": null
  },
  "0002": {
    "zip_code": "4100002",
    "prefecture": "静岡県",
    "prefecture_kana": "シズオカケン",
    "prefecture_code": 22,
    "city": "沼津市",
    "city_kana": "ヌマヅシ",
    "town": "東沢田",
    "town_kana": "ヒガシサワダ",
    "street": null,
    "office_name": null,
    "office_name_kana": null
  },
  "0003": {
    "zip_code": "4100003",
    "prefecture": "静岡県",
    "prefecture_kana": "シズオカケン",
    "prefecture_code": 22,
    "city": "沼津市",
    "city_kana": "ヌマヅシ",
    "town": "新沢田町",
    "town_kana": "シンサワダチョウ",
    "street": null,
    "office_name": null,
    "office_name_kana": null
  },
  "0004": {
    "zip_code": "4100004",
    "prefecture": "静岡県",
    "prefecture_kana": "シズオカケン",
    "prefecture_code": 22,
    "city": "沼津市",
    "city_kana": "ヌマヅシ",
    "town": "本田町",
    "town_kana": "ホンタマチ",
    "street": null,
    "office_name": null,
    "office_name_kana": null
  },
  "0005": {
    "zip_code": "4100005",
    "prefecture": "静岡県",
    "prefecture_kana": "シズオカケン",
    "prefecture_code": 22,
    "city": "沼津市",
    "city_kana": "ヌマヅシ",
    "town": "双葉町",
    "town_kana": "フタバチョウ",
    "street": null,
    "office_name": null,
    "office_name_kana": null
  },
  "0006": {
    "zip_code": "4100006",
    "prefecture": "静岡県",
    "prefecture_kana": "シズオカケン",
    "prefecture_code": 22,
    "city": "沼津市",
    "city_kana": "ヌマヅシ",
    "town": "中沢田",
    "town_kana": "ナカサワダ",
    "street": null,
    "office_name": null,
    "office_name_kana": null
  },
  "0007": {
    "zip_code": "4100007",
    "prefecture": "静岡県",
    "prefecture_kana": "シズオカケン",
    "prefecture_code": 22,
    "city": "沼津市",
    "city_kana": "ヌマヅシ",
    "town": "西沢田",
    "town_kana": "ニシサワダ",
    "street": null,
    "office_name": null,
    "office_name_kana": null
  },
  "0011": {
    "zip_code": "4100011",
    "prefecture": "静岡県",
    "prefecture_kana": "シズオカケン",
    "prefecture_code": 22,
    "city": "沼津市",
    "city_kana": "ヌマヅシ",
    "town": "岡宮",
    "town_kana": "オカノミヤ",
    "street": null,
    "office_name": null,
    "office_name_kana": null
  },
  "0012": {
    "zip_code": "4100012",
    "prefecture": "静岡県",
    "prefecture_kana": "シズオカケン",
    "prefecture_code": 22,
    "city": "沼津市",
    "city_kana": "ヌマヅシ",
    "town": "岡一色",
    "town_kana": "オカイッシキ",
    "street": null,
    "office_name": null,
    "office_name_kana": null
  },
  "0013": {
    "zip_code": "4100013",
    "prefecture": "静岡県",
    "prefecture_kana": "シズオカケン",
    "prefecture_code": 22,
    "city": "沼津市",
    "city_kana": "ヌマヅシ",
    "town": "東熊堂",
    "town_kana": "ヒガシクマンドウ",
    "street": null,
    "office_name": null,
    "office_name_kana": null
  },
  "0014": {
    "zip_code": "4100014",
    "prefecture": "静岡県",
    "prefecture_kana": "シズオカケン",
    "prefecture_code": 22,
    "city": "沼津市",
    "city_kana": "ヌマヅシ",
    "town": "松沢町",
    "town_kana": "マツサワチョウ",
    "street": null,
    "office_name": null,
    "office_name_kana": null
  },
  "0015": {
    "zip_code": "4100015",
    "prefecture": "静岡県",
    "prefecture_kana": "シズオカケン",
    "prefecture_code": 22,
    "city": "沼津市",
    "city_kana": "ヌマヅシ",
    "town": "駿河台",
    "town_kana": "スルガダイ",
    "street": null,
    "office_name": null,
    "office_name_kana": null
  },
  "0016": {
    "zip_code": "4100016",
    "prefecture": "静岡県",
    "prefecture_kana": "シズオカケン",
    "prefecture_code": 22,
    "city": "沼津市",
    "city_kana": "ヌマヅシ",
    "town": "高砂町",
    "town_kana": "タカサゴチョウ",
    "street": null,
    "office_name": null,
    "office_name_kana": null
  },
  "0017": {
    "zip_code": "4100017",
    "prefecture": "静岡県",
    "prefecture_kana": "シズオカケン",
    "prefecture_code": 22,
    "city": "沼津市",
    "city_kana": "ヌマヅシ",
    "town": "高尾台",
    "town_kana": "タカオダイ",
    "street": null,
    "office_name": null,
    "office_name_kana": null
  },
  "0018": {
    "zip_code": "4100018",
    "prefecture": "静岡県",
    "prefecture_kana": "シズオカケン",
    "prefecture_code": 22,
    "city": "沼津市",
    "city_kana": "ヌマヅシ",
    "town": "豊町",
    "town_kana": "ユタカチョウ",
    "street": null,
    "office_name": null,
    "office_name_kana": null
  },
  "0021": {
    "zip_code": "4100021",
    "prefecture": "静岡県",
    "prefecture_kana": "シズオカケン",
    "prefecture_code": 22,
    "city": "沼津市",
    "city_kana": "ヌマヅシ",
    "town": "小林台",
    "town_kana": "コバヤシダイ",
    "street": null,
    "office_name": null,
    "office_name_kana": null
  },
  "0022": {
    "zip_code": "4100022",
    "prefecture": "静岡県",
    "prefecture_kana": "シズオカケン",
    "prefecture_code": 22,
    "city": "沼津市",
    "city_kana": "ヌマヅシ",
    "town": "大岡",
    "town_kana": "オオオカ",
    "street": null,
    "office_name": null,
    "office_name_kana": null
  },
  "0031": {
    "zip_code": "4100031",
    "prefecture": "静岡県",
    "prefecture_kana": "シズオカケン",
    "prefecture_code": 22,
    "city": "沼津市",
    "city_kana": "ヌマヅシ",
    "town": "三枚橋",
    "town_kana": "サンマイバシ",
    "street": null,
    "office_name": null,
    "office_name_kana": null
  },
  "0032": {
    "zip_code": "4100032",
    "prefecture": "静岡県",
    "prefecture_kana": "シズオカケン",
    "prefecture_code": 22,
    "city": "沼津市",
    "city_kana": "ヌマヅシ",
    "town": "日の出町",
    "town_kana": "ヒノデチョウ",
    "street": null,
    "office_name": null,
    "office_name_kana": null
  },
  "0033": {
    "zip_code": "4100033",
    "prefecture": "静岡県",
    "prefecture_kana": "シズオカケン",
    "prefecture_code": 22,
    "city": "沼津市",
    "city_kana": "ヌマヅシ",
    "town": "杉崎町",
    "town_kana": "スギザキチョウ",
    "street": null,
    "office_name": null,
    "office_name_kana": null
  },
  "0034": {
    "zip_code": "4100034",
    "prefecture": "静岡県",
    "prefecture_kana": "シズオカケン",
    "prefecture_code": 22,
    "city": "沼津市",
    "city_kana": "ヌマヅシ",
    "town": "富士見町",
    "town_kana": "フジミチョウ",
    "street": null,
    "office_name": null,
    "office_name_kana": null
  },
  "0035": {
    "zip_code": "4100035",
    "prefecture": "静岡県",
    "prefecture_kana": "シズオカケン",
    "prefecture_code": 22,
    "city": "沼津市",
    "city_kana": "ヌマヅシ",
    "town": "山王台",
    "town_kana": "サンノウダイ",
    "street": null,
    "office_name": null,
    "office_name_kana": null
  },
  "0036": {
    "zip_code": "4100036",
    "prefecture": "静岡県",
    "prefecture_kana": "シズオカケン",
    "prefecture_code": 22,
    "city": "沼津市",
    "city_kana": "ヌマヅシ",
    "town": "平町",
    "town_kana": "ヒラマチ",
    "street": null,
    "office_name": null,
    "office_name_kana": null
  },
  "0037": {
    "zip_code": "4100037",
    "prefecture": "静岡県",
    "prefecture_kana": "シズオカケン",
    "prefecture_code": 22,
    "city": "沼津市",
    "city_kana": "ヌマヅシ",
    "town": "三枚橋町",
    "town_kana": "サンマイバシチョウ",
    "street": null,
    "office_name": null,
    "office_name_kana": null
  },
  "0038": {
    "zip_code": "4100038",
    "prefecture": "静岡県",
    "prefecture_kana": "シズオカケン",
    "prefecture_code": 22,
    "city": "沼津市",
    "city_kana": "ヌマヅシ",
    "town": "三芳町",
    "town_kana": "ミヨシチョウ",
    "street": null,
    "office_name": null,
    "office_name_kana": null
  },
  "0041": {
    "zip_code": "4100041",
    "prefecture": "静岡県",
    "prefecture_kana": "シズオカケン",
    "prefecture_code": 22,
    "city": "沼津市",
    "city_kana": "ヌマヅシ",
    "town": "筒井町",
    "town_kana": "ツツイチョウ",
    "street": null,
    "office_name": null,
    "office_name_kana": null
  },
  "0042": {
    "zip_code": "4100042",
    "prefecture": "静岡県",
    "prefecture_kana": "シズオカケン",
    "prefecture_code": 22,
    "city": "沼津市",
    "city_kana": "ヌマヅシ",
    "town": "神田町",
    "town_kana": "カンダチョウ",
    "street": null,
    "office_name": null,
    "office_name_kana": null
  },
  "0043": {
    "zip_code": "4100043",
    "prefecture": "静岡県",
    "prefecture_kana": "シズオカケン",
    "prefecture_code": 22,
    "city": "沼津市",
    "city_kana": "ヌマヅシ",
    "town": "柳町",
    "town_kana": "ヤナギチョウ",
    "street": null,
    "office_name": null,
    "office_name_kana": null
  },
  "0044": {
    "zip_code": "4100044",
    "prefecture": "静岡県",
    "prefecture_kana": "シズオカケン",
    "prefecture_code": 22,
    "city": "沼津市",
    "city_kana": "ヌマヅシ",
    "town": "五月町",
    "town_kana": "サツキチョウ",
    "street": null,
    "office_name": null,
    "office_name_kana": null
  },
  "0045": {
    "zip_code": "4100045",
    "prefecture": "静岡県",
    "prefecture_kana": "シズオカケン",
    "prefecture_code": 22,
    "city": "沼津市",
    "city_kana": "ヌマヅシ",
    "town": "泉町",
    "town_kana": "イズミチョウ",
    "street": null,
    "office_name": null,
    "office_name_kana": null
  },
  "0046": {
    "zip_code": "4100046",
    "prefecture": "静岡県",
    "prefecture_kana": "シズオカケン",
    "prefecture_code": 22,
    "city": "沼津市",
    "city_kana": "ヌマヅシ",
    "town": "米山町",
    "town_kana": "ヨネヤマチョウ",
    "street": null,
    "office_name": null,
    "office_name_kana": null
  },
  "0047": {
    "zip_code": "4100047",
    "prefecture": "静岡県",
    "prefecture_kana": "シズオカケン",
    "prefecture_code": 22,
    "city": "沼津市",
    "city_kana": "ヌマヅシ",
    "town": "庄栄町",
    "town_kana": "ショウエイチョウ",
    "street": null,
    "office_name": null,
    "office_name_kana": null
  },
  "0048": {
    "zip_code": "4100048",
    "prefecture": "静岡県",
    "prefecture_kana": "シズオカケン",
    "prefecture_code": 22,
    "city": "沼津市",
    "city_kana": "ヌマヅシ",
    "town": "新宿町",
    "town_kana": "シンジュクチョウ",
    "street": null,
    "office_name": null,
    "office_name_kana": null
  },
  "0049": {
    "zip_code": "4100049",
    "prefecture": "静岡県",
    "prefecture_kana": "シズオカケン",
    "prefecture_code": 22,
    "city": "沼津市",
    "city_kana": "ヌマヅシ",
    "town": "江原町",
    "town_kana": "エバラチョウ",
    "street": null,
    "office_name": null,
    "office_name_kana": null
  },
  "0051": {
    "zip_code": "4100051",
    "prefecture": "静岡県",
    "prefecture_kana": "シズオカケン",
    "prefecture_code": 22,
    "city": "沼津市",
    "city_kana": "ヌマヅシ",
    "town": "西熊堂",
    "town_kana": "ニシクマンドウ",
    "street": null,
    "office_name": null,
    "office_name_kana": null
  },
  "0052": {
    "zip_code": "4100052",
    "prefecture": "静岡県",
    "prefecture_kana": "シズオカケン",
    "prefecture_code": 22,
    "city": "沼津市",
    "city_kana": "ヌマヅシ",
    "town": "沢田町",
    "town_kana": "サワダチョウ",
    "street": null,
    "office_name": null,
    "office_name_kana": null
  },
  "0053": {
    "zip_code": "4100053",
    "prefecture": "静岡県",
    "prefecture_kana": "シズオカケン",
    "prefecture_code": 22,
    "city": "沼津市",
    "city_kana": "ヌマヅシ",
    "town": "寿町",
    "town_kana": "コトブキチョウ",
    "street": null,
    "office_name": null,
    "office_name_kana": null
  },
  "0054": {
    "zip_code": "4100054",
    "prefecture": "静岡県",
    "prefecture_kana": "シズオカケン",
    "prefecture_code": 22,
    "city": "沼津市",
    "city_kana": "ヌマヅシ",
    "town": "北高島町",
    "town_kana": "キタタカシマチョウ",
    "street": null,
    "office_name": null,
    "office_name_kana": null
  },
  "0055": {
    "zip_code": "4100055",
    "prefecture": "静岡県",
    "prefecture_kana": "シズオカケン",
    "prefecture_code": 22,
    "city": "沼津市",
    "city_kana": "ヌマヅシ",
    "town": "高島本町",
    "town_kana": "タカシマホンチョウ",
    "street": null,
    "office_name": null,
    "office_name_kana": null
  },
  "0056": {
    "zip_code": "4100056",
    "prefecture": "静岡県",
    "prefecture_kana": "シズオカケン",
    "prefecture_code": 22,
    "city": "沼津市",
    "city_kana": "ヌマヅシ",
    "town": "高島町",
    "town_kana": "タカシマチョウ",
    "street": null,
    "office_name": null,
    "office_name_kana": null
  },
  "0057": {
    "zip_code": "4100057",
    "prefecture": "静岡県",
    "prefecture_kana": "シズオカケン",
    "prefecture_code": 22,
    "city": "沼津市",
    "city_kana": "ヌマヅシ",
    "town": "高沢町",
    "town_kana": "タカザワチョウ",
    "street": null,
    "office_name": null,
    "office_name_kana": null
  },
  "0058": {
    "zip_code": "4100058",
    "prefecture": "静岡県",
    "prefecture_kana": "シズオカケン",
    "prefecture_code": 22,
    "city": "沼津市",
    "city_kana": "ヌマヅシ",
    "town": "沼北町",
    "town_kana": "ヌマキタチョウ",
    "street": null,
    "office_name": null,
    "office_name_kana": null
  },
  "0059": {
    "zip_code": "4100059",
    "prefecture": "静岡県",
    "prefecture_kana": "シズオカケン",
    "prefecture_code": 22,
    "city": "沼津市",
    "city_kana": "ヌマヅシ",
    "town": "若葉町",
    "town_kana": "ワカバチョウ",
    "street": null,
    "office_name": null,
    "office_name_kana": null
  },
  "0061": {
    "zip_code": "4100061",
    "prefecture": "静岡県",
    "prefecture_kana": "シズオカケン",
    "prefecture_code": 22,
    "city": "沼津市",
    "city_kana": "ヌマヅシ",
    "town": "北園町",
    "town_kana": "キタゾノチョウ",
    "street": null,
    "office_name": null,
    "office_name_kana": null
  },
  "0062": {
    "zip_code": "4100062",
    "prefecture": "静岡県",
    "prefecture_kana": "シズオカケン",
    "prefecture_code": 22,
    "city": "沼津市",
    "city_kana": "ヌマヅシ",
    "town": "宮前町",
    "town_kana": "ミヤマエチョウ",
    "street": null,
    "office_name": null,
    "office_name_kana": null
  },
  "0063": {
    "zip_code": "4100063",
    "prefecture": "静岡県",
    "prefecture_kana": "シズオカケン",
    "prefecture_code": 22,
    "city": "沼津市",
    "city_kana": "ヌマヅシ",
    "town": "緑ケ丘",
    "town_kana": "ミドリガオカ",
    "street": null,
    "office_name": null,
    "office_name_kana": null
  },
  "0064": {
    "zip_code": "4100064",
    "prefecture": "静岡県",
    "prefecture_kana": "シズオカケン",
    "prefecture_code": 22,
    "city": "沼津市",
    "city_kana": "ヌマヅシ",
    "town": "共栄町",
    "town_kana": "キョウエイチョウ",
    "street": null,
    "office_name": null,
    "office_name_kana": null
  },
  "0065": {
    "zip_code": "4100065",
    "prefecture": "静岡県",
    "prefecture_kana": "シズオカケン",
    "prefecture_code": 22,
    "city": "沼津市",
    "city_kana": "ヌマヅシ",
    "town": "花園町",
    "town_kana": "ハナゾノチョウ",
    "street": null,
    "office_name": null,
    "office_name_kana": null
  },
  "0101": {
    "zip_code": "4100101",
    "prefecture": "静岡県",
    "prefecture_kana": "シズオカケン",
    "prefecture_code": 22,
    "city": "沼津市",
    "city_kana": "ヌマヅシ",
    "town": "多比",
    "town_kana": "タビ",
    "street": null,
    "office_name": null,
    "office_name_kana": null
  },
  "0102": {
    "zip_code": "4100102",
    "prefecture": "静岡県",
    "prefecture_kana": "シズオカケン",
    "prefecture_code": 22,
    "city": "沼津市",
    "city_kana": "ヌマヅシ",
    "town": "口野",
    "town_kana": "クチノ",
    "street": null,
    "office_name": null,
    "office_name_kana": null
  },
  "0103": {
    "zip_code": "4100103",
    "prefecture": "静岡県",
    "prefecture_kana": "シズオカケン",
    "prefecture_code": 22,
    "city": "沼津市",
    "city_kana": "ヌマヅシ",
    "town": "江浦",
    "town_kana": "エノウラ",
    "street": null,
    "office_name": null,
    "office_name_kana": null
  },
  "0104": {
    "zip_code": "4100104",
    "prefecture": "静岡県",
    "prefecture_kana": "シズオカケン",
    "prefecture_code": 22,
    "city": "沼津市",
    "city_kana": "ヌマヅシ",
    "town": "獅子浜",
    "town_kana": "シシハマ",
    "street": null,
    "office_name": null,
    "office_name_kana": null
  },
  "0105": {
    "zip_code": "4100105",
    "prefecture": "静岡県",
    "prefecture_kana": "シズオカケン",
    "prefecture_code": 22,
    "city": "沼津市",
    "city_kana": "ヌマヅシ",
    "town": "馬込",
    "town_kana": "マゴメ",
    "street": null,
    "office_name": null,
    "office_name_kana": null
  },
  "0106": {
    "zip_code": "4100106",
    "prefecture": "静岡県",
    "prefecture_kana": "シズオカケン",
    "prefecture_code": 22,
    "city": "沼津市",
    "city_kana": "ヌマヅシ",
    "town": "志下",
    "town_kana": "シゲ",
    "street": null,
    "office_name": null,
    "office_name_kana": null
  },
  "0192": {
    "zip_code": "4100192",
    "prefecture": "静岡県",
    "prefecture_kana": "シズオカケン",
    "prefecture_code": 22,
    "city": "沼津市",
    "city_kana": "ヌマヅシ",
    "town": "獅子浜",
    "town_kana": "シシハマ",
    "street": "４９−１",
    "office_name": "加倉水産",
    "office_name_kana": "カクラスイサン"
  },
  "0195": {
    "zip_code": "4100195",
    "prefecture": "静岡県",
    "prefecture_kana": "シズオカケン",
    "prefecture_code": 22,
    "city": "沼津市",
    "city_kana": "ヌマヅシ",
    "town": "口野",
    "town_kana": "クチノ",
    "street": "５０−１１",
    "office_name": "沼津海産物協同組合",
    "office_name_kana": "ヌマヅカイサンブツキヨウドウクミアイ"
  },
  "0221": {
    "zip_code": "4100221",
    "prefecture": "静岡県",
    "prefecture_kana": "シズオカケン",
    "prefecture_code": 22,
    "city": "沼津市",
    "city_kana": "ヌマヅシ",
    "town": "内浦重寺",
    "town_kana": "ウチウラシゲデラ",
    "street": null,
    "office_name": null,
    "office_name_kana": null
  },
  "0222": {
    "zip_code": "4100222",
    "prefecture": "静岡県",
    "prefecture_kana": "シズオカケン",
    "prefecture_code": 22,
    "city": "沼津市",
    "city_kana": "ヌマヅシ",
    "town": "内浦小海",
    "town_kana": "ウチウラコウミ",
    "street": null,
    "office_name": null,
    "office_name_kana": null
  },
  "0223": {
    "zip_code": "4100223",
    "prefecture": "静岡県",
    "prefecture_kana": "シズオカケン",
    "prefecture_code": 22,
    "city": "沼津市",
    "city_kana": "ヌマヅシ",
    "town": "内浦三津",
    "town_kana": "ウチウラミト",
    "street": null,
    "office_name": null,
    "office_name_kana": null
  },
  "0224": {
    "zip_code": "4100224",
    "prefecture": "静岡県",
    "prefecture_kana": "シズオカケン",
    "prefecture_code": 22,
    "city": "沼津市",
    "city_kana": "ヌマヅシ",
    "town": "内浦長浜",
    "town_kana": "ウチウラナガハマ",
    "street": null,
    "office_name": null,
    "office_name_kana": null
  },
  "0225": {
    "zip_code": "4100225",
    "prefecture": "静岡県",
    "prefecture_kana": "シズオカケン",
    "prefecture_code": 22,
    "city": "沼津市",
    "city_kana": "ヌマヅシ",
    "town": "内浦重須",
    "town_kana": "ウチウラオモス",
    "street": null,
    "office_name": null,
    "office_name_kana": null
  },
  "0231": {
    "zip_code": "4100231",
    "prefecture": "静岡県",
    "prefecture_kana": "シズオカケン",
    "prefecture_code": 22,
    "city": "沼津市",
    "city_kana": "ヌマヅシ",
    "town": "西浦木負",
    "town_kana": "ニシウラキショウ",
    "street": null,
    "office_name": null,
    "office_name_kana": null
  },
  "0232": {
    "zip_code": "4100232",
    "prefecture": "静岡県",
    "prefecture_kana": "シズオカケン",
    "prefecture_code": 22,
    "city": "沼津市",
    "city_kana": "ヌマヅシ",
    "town": "西浦河内",
    "town_kana": "ニシウラコウチ",
    "street": null,
    "office_name": null,
    "office_name_kana": null
  },
  "0233": {
    "zip_code": "4100233",
    "prefecture": "静岡県",
    "prefecture_kana": "シズオカケン",
    "prefecture_code": 22,
    "city": "沼津市",
    "city_kana": "ヌマヅシ",
    "town": "西浦久連",
    "town_kana": "ニシウラクヅラ",
    "street": null,
    "office_name": null,
    "office_name_kana": null
  },
  "0234": {
    "zip_code": "4100234",
    "prefecture": "静岡県",
    "prefecture_kana": "シズオカケン",
    "prefecture_code": 22,
    "city": "沼津市",
    "city_kana": "ヌマヅシ",
    "town": "西浦平沢",
    "town_kana": "ニシウラヒラサワ",
    "street": null,
    "office_name": null,
    "office_name_kana": null
  },
  "0235": {
    "zip_code": "4100235",
    "prefecture": "静岡県",
    "prefecture_kana": "シズオカケン",
    "prefecture_code": 22,
    "city": "沼津市",
    "city_kana": "ヌマヅシ",
    "town": "西浦立保",
    "town_kana": "ニシウラタチボ",
    "street": null,
    "office_name": null,
    "office_name_kana": null
  },
  "0241": {
    "zip_code": "4100241",
    "prefecture": "静岡県",
    "prefecture_kana": "シズオカケン",
    "prefecture_code": 22,
    "city": "沼津市",
    "city_kana": "ヌマヅシ",
    "town": "西浦古宇",
    "town_kana": "ニシウラコウ",
    "street": null,
    "office_name": null,
    "office_name_kana": null
  },
  "0242": {
    "zip_code": "4100242",
    "prefecture": "静岡県",
    "prefecture_kana": "シズオカケン",
    "prefecture_code": 22,
    "city": "沼津市",
    "city_kana": "ヌマヅシ",
    "town": "西浦足保",
    "town_kana": "ニシウラアシボ",
    "street": null,
    "office_name": null,
    "office_name_kana": null
  },
  "0243": {
    "zip_code": "4100243",
    "prefecture": "静岡県",
    "prefecture_kana": "シズオカケン",
    "prefecture_code": 22,
    "city": "沼津市",
    "city_kana": "ヌマヅシ",
    "town": "西浦久料",
    "town_kana": "ニシウラクリョウ",
    "street": null,
    "office_name": null,
    "office_name_kana": null
  },
  "0244": [
    {
      "zip_code": "4100244",
      "prefecture": "静岡県",
      "prefecture_kana": "シズオカケン",
      "prefecture_code": 22,
      "city": "沼津市",
      "city_kana": "ヌマヅシ",
      "town": "西浦江梨",
      "town_kana": "ニシウラエナシ",
      "street": null,
      "office_name": null,
      "office_name_kana": null
    },
    {
      "zip_code": "4100244",
      "prefecture": "静岡県",
      "prefecture_kana": "シズオカケン",
      "prefecture_code": 22,
      "city": "沼津市",
      "city_kana": "ヌマヅシ",
      "town": "西浦大瀬",
      "town_kana": "ニシウラオオセ",
      "street": null,
      "office_name": null,
      "office_name_kana": null
    }
  ],
  "0301": {
    "zip_code": "4100301",
    "prefecture": "静岡県",
    "prefecture_kana": "シズオカケン",
    "prefecture_code": 22,
    "city": "沼津市",
    "city_kana": "ヌマヅシ",
    "town": "宮本",
    "town_kana": "ミヤモト",
    "street": null,
    "office_name": null,
    "office_name_kana": null
  },
  "0302": {
    "zip_code": "4100302",
    "prefecture": "静岡県",
    "prefecture_kana": "シズオカケン",
    "prefecture_code": 22,
    "city": "沼津市",
    "city_kana": "ヌマヅシ",
    "town": "東椎路",
    "town_kana": "ヒガシシイジ",
    "street": null,
    "office_name": null,
    "office_name_kana": null
  },
  "0303": {
    "zip_code": "4100303",
    "prefecture": "静岡県",
    "prefecture_kana": "シズオカケン",
    "prefecture_code": 22,
    "city": "沼津市",
    "city_kana": "ヌマヅシ",
    "town": "西椎路",
    "town_kana": "ニシシイジ",
    "street": null,
    "office_name": null,
    "office_name_kana": null
  },
  "0304": {
    "zip_code": "4100304",
    "prefecture": "静岡県",
    "prefecture_kana": "シズオカケン",
    "prefecture_code": 22,
    "city": "沼津市",
    "city_kana": "ヌマヅシ",
    "town": "東原",
    "town_kana": "ヒガシバラ",
    "street": null,
    "office_name": null,
    "office_name_kana": null
  },
  "0305": {
    "zip_code": "4100305",
    "prefecture": "静岡県",
    "prefecture_kana": "シズオカケン",
    "prefecture_code": 22,
    "city": "沼津市",
    "city_kana": "ヌマヅシ",
    "town": "鳥谷",
    "town_kana": "トヤ",
    "street": null,
    "office_name": null,
    "office_name_kana": null
  },
  "0306": {
    "zip_code": "4100306",
    "prefecture": "静岡県",
    "prefecture_kana": "シズオカケン",
    "prefecture_code": 22,
    "city": "沼津市",
    "city_kana": "ヌマヅシ",
    "town": "大塚",
    "town_kana": "オオツカ",
    "street": null,
    "office_name": null,
    "office_name_kana": null
  },
  "0307": {
    "zip_code": "4100307",
    "prefecture": "静岡県",
    "prefecture_kana": "シズオカケン",
    "prefecture_code": 22,
    "city": "沼津市",
    "city_kana": "ヌマヅシ",
    "town": "青野",
    "town_kana": "オオノ",
    "street": null,
    "office_name": null,
    "office_name_kana": null
  },
  "0308": {
    "zip_code": "4100308",
    "prefecture": "静岡県",
    "prefecture_kana": "シズオカケン",
    "prefecture_code": 22,
    "city": "沼津市",
    "city_kana": "ヌマヅシ",
    "town": "柳沢",
    "town_kana": "ヤナギサワ",
    "street": null,
    "office_name": null,
    "office_name_kana": null
  },
  "0309": {
    "zip_code": "4100309",
    "prefecture": "静岡県",
    "prefecture_kana": "シズオカケン",
    "prefecture_code": 22,
    "city": "沼津市",
    "city_kana": "ヌマヅシ",
    "town": "根古屋",
    "town_kana": "ネゴヤ",
    "street": null,
    "office_name": null,
    "office_name_kana": null
  },
  "0311": {
    "zip_code": "4100311",
    "prefecture": "静岡県",
    "prefecture_kana": "シズオカケン",
    "prefecture_code": 22,
    "city": "沼津市",
    "city_kana": "ヌマヅシ",
    "town": "原町中",
    "town_kana": "ハラマチナカ",
    "street": null,
    "office_name": null,
    "office_name_kana": null
  },
  "0312": {
    "zip_code": "4100312",
    "prefecture": "静岡県",
    "prefecture_kana": "シズオカケン",
    "prefecture_code": 22,
    "city": "沼津市",
    "city_kana": "ヌマヅシ",
    "town": "原",
    "town_kana": "ハラ",
    "street": null,
    "office_name": null,
    "office_name_kana": null
  },
  "0313": {
    "zip_code": "4100313",
    "prefecture": "静岡県",
    "prefecture_kana": "シズオカケン",
    "prefecture_code": 22,
    "city": "沼津市",
    "city_kana": "ヌマヅシ",
    "town": "西添町",
    "town_kana": "ニシゾエチョウ",
    "street": null,
    "office_name": null,
    "office_name_kana": null
  },
  "0314": {
    "zip_code": "4100314",
    "prefecture": "静岡県",
    "prefecture_kana": "シズオカケン",
    "prefecture_code": 22,
    "city": "沼津市",
    "city_kana": "ヌマヅシ",
    "town": "一本松",
    "town_kana": "イッポンマツ",
    "street": null,
    "office_name": null,
    "office_name_kana": null
  },
  "0315": {
    "zip_code": "4100315",
    "prefecture": "静岡県",
    "prefecture_kana": "シズオカケン",
    "prefecture_code": 22,
    "city": "沼津市",
    "city_kana": "ヌマヅシ",
    "town": "桃里",
    "town_kana": "モモザト",
    "street": null,
    "office_name": null,
    "office_name_kana": null
  },
  "0316": {
    "zip_code": "4100316",
    "prefecture": "静岡県",
    "prefecture_kana": "シズオカケン",
    "prefecture_code": 22,
    "city": "沼津市",
    "city_kana": "ヌマヅシ",
    "town": "植田",
    "town_kana": "ウエダ",
    "street": null,
    "office_name": null,
    "office_name_kana": null
  },
  "0317": {
    "zip_code": "4100317",
    "prefecture": "静岡県",
    "prefecture_kana": "シズオカケン",
    "prefecture_code": 22,
    "city": "沼津市",
    "city_kana": "ヌマヅシ",
    "town": "石川",
    "town_kana": "イシカワ",
    "street": null,
    "office_name": null,
    "office_name_kana": null
  },
  "0318": {
    "zip_code": "4100318",
    "prefecture": "静岡県",
    "prefecture_kana": "シズオカケン",
    "prefecture_code": 22,
    "city": "沼津市",
    "city_kana": "ヌマヅシ",
    "town": "平沼",
    "town_kana": "ヒラヌマ",
    "street": null,
    "office_name": null,
    "office_name_kana": null
  },
  "0319": {
    "zip_code": "4100319",
    "prefecture": "静岡県",
    "prefecture_kana": "シズオカケン",
    "prefecture_code": 22,
    "city": "沼津市",
    "city_kana": "ヌマヅシ",
    "town": "井出",
    "town_kana": "イデ",
    "street": null,
    "office_name": null,
    "office_name_kana": null
  },
  "0321": {
    "zip_code": "4100321",
    "prefecture": "静岡県",
    "prefecture_kana": "シズオカケン",
    "prefecture_code": 22,
    "city": "沼津市",
    "city_kana": "ヌマヅシ",
    "town": "西野",
    "town_kana": "ニシノ",
    "street": null,
    "office_name": null,
    "office_name_kana": null
  },
  "0395": {
    "zip_code": "4100395",
    "prefecture": "静岡県",
    "prefecture_kana": "シズオカケン",
    "prefecture_code": 22,
    "city": "沼津市",
    "city_kana": "ヌマヅシ",
    "town": "西野",
    "town_kana": "ニシノ",
    "street": "３１７",
    "office_name": "東海大学沼津校舎",
    "office_name_kana": "トウカイダイガクヌマヅコウシヤ"
  },
  "0396": {
    "zip_code": "4100396",
    "prefecture": "静岡県",
    "prefecture_kana": "シズオカケン",
    "prefecture_code": 22,
    "city": "沼津市",
    "city_kana": "ヌマヅシ",
    "town": "宮本",
    "town_kana": "ミヤモト",
    "street": "１４０",
    "office_name": "富士通　株式会社　沼津工場",
    "office_name_kana": "フジツウ カブシキガイシヤ ヌマヅコウジヨウ"
  },
  "0398": {
    "zip_code": "4100398",
    "prefecture": "静岡県",
    "prefecture_kana": "シズオカケン",
    "prefecture_code": 22,
    "city": "沼津市",
    "city_kana": "ヌマヅシ",
    "town": "大塚",
    "town_kana": "オオツカ",
    "street": "１５",
    "office_name": "図書印刷　株式会社　沼津工場",
    "office_name_kana": "トシヨインサツ カブシキガイシヤ ヌマヅコウジヨウ"
  },
  "0801": {
    "zip_code": "4100801",
    "prefecture": "静岡県",
    "prefecture_kana": "シズオカケン",
    "prefecture_code": 22,
    "city": "沼津市",
    "city_kana": "ヌマヅシ",
    "town": "大手町",
    "town_kana": "オオテマチ",
    "street": null,
    "office_name": null,
    "office_name_kana": null
  },
  "0802": {
    "zip_code": "4100802",
    "prefecture": "静岡県",
    "prefecture_kana": "シズオカケン",
    "prefecture_code": 22,
    "city": "沼津市",
    "city_kana": "ヌマヅシ",
    "town": "上土町",
    "town_kana": "アゲツチチョウ",
    "street": null,
    "office_name": null,
    "office_name_kana": null
  },
  "0803": {
    "zip_code": "4100803",
    "prefecture": "静岡県",
    "prefecture_kana": "シズオカケン",
    "prefecture_code": 22,
    "city": "沼津市",
    "city_kana": "ヌマヅシ",
    "town": "添地町",
    "town_kana": "ソエチチョウ",
    "street": null,
    "office_name": null,
    "office_name_kana": null
  },
  "0804": {
    "zip_code": "4100804",
    "prefecture": "静岡県",
    "prefecture_kana": "シズオカケン",
    "prefecture_code": 22,
    "city": "沼津市",
    "city_kana": "ヌマヅシ",
    "town": "西条町",
    "town_kana": "サイジョウチョウ",
    "street": null,
    "office_name": null,
    "office_name_kana": null
  },
  "0805": {
    "zip_code": "4100805",
    "prefecture": "静岡県",
    "prefecture_kana": "シズオカケン",
    "prefecture_code": 22,
    "city": "沼津市",
    "city_kana": "ヌマヅシ",
    "town": "白銀町",
    "town_kana": "シロガネチョウ",
    "street": null,
    "office_name": null,
    "office_name_kana": null
  },
  "0806": {
    "zip_code": "4100806",
    "prefecture": "静岡県",
    "prefecture_kana": "シズオカケン",
    "prefecture_code": 22,
    "city": "沼津市",
    "city_kana": "ヌマヅシ",
    "town": "丸子町",
    "town_kana": "マルコチョウ",
    "street": null,
    "office_name": null,
    "office_name_kana": null
  },
  "0807": {
    "zip_code": "4100807",
    "prefecture": "静岡県",
    "prefecture_kana": "シズオカケン",
    "prefecture_code": 22,
    "city": "沼津市",
    "city_kana": "ヌマヅシ",
    "town": "錦町",
    "town_kana": "ニシキチョウ",
    "street": null,
    "office_name": null,
    "office_name_kana": null
  },
  "0811": {
    "zip_code": "4100811",
    "prefecture": "静岡県",
    "prefecture_kana": "シズオカケン",
    "prefecture_code": 22,
    "city": "沼津市",
    "city_kana": "ヌマヅシ",
    "town": "中瀬町",
    "town_kana": "ナカセチョウ",
    "street": null,
    "office_name": null,
    "office_name_kana": null
  },
  "0812": {
    "zip_code": "4100812",
    "prefecture": "静岡県",
    "prefecture_kana": "シズオカケン",
    "prefecture_code": 22,
    "city": "沼津市",
    "city_kana": "ヌマヅシ",
    "town": "山ケ下町",
    "town_kana": "ヤマガシタチョウ",
    "street": null,
    "office_name": null,
    "office_name_kana": null
  },
  "0813": {
    "zip_code": "4100813",
    "prefecture": "静岡県",
    "prefecture_kana": "シズオカケン",
    "prefecture_code": 22,
    "city": "沼津市",
    "city_kana": "ヌマヅシ",
    "town": "上香貫",
    "town_kana": "カミカヌキ",
    "street": null,
    "office_name": null,
    "office_name_kana": null
  },
  "0814": {
    "zip_code": "4100814",
    "prefecture": "静岡県",
    "prefecture_kana": "シズオカケン",
    "prefecture_code": 22,
    "city": "沼津市",
    "city_kana": "ヌマヅシ",
    "town": "玉江町",
    "town_kana": "タマエチョウ",
    "street": null,
    "office_name": null,
    "office_name_kana": null
  },
  "0815": {
    "zip_code": "4100815",
    "prefecture": "静岡県",
    "prefecture_kana": "シズオカケン",
    "prefecture_code": 22,
    "city": "沼津市",
    "city_kana": "ヌマヅシ",
    "town": "南本郷町",
    "town_kana": "ミナミホンゴウチョウ",
    "street": null,
    "office_name": null,
    "office_name_kana": null
  },
  "0816": {
    "zip_code": "4100816",
    "prefecture": "静岡県",
    "prefecture_kana": "シズオカケン",
    "prefecture_code": 22,
    "city": "沼津市",
    "city_kana": "ヌマヅシ",
    "town": "住吉町",
    "town_kana": "スミヨシチョウ",
    "street": null,
    "office_name": null,
    "office_name_kana": null
  },
  "0817": {
    "zip_code": "4100817",
    "prefecture": "静岡県",
    "prefecture_kana": "シズオカケン",
    "prefecture_code": 22,
    "city": "沼津市",
    "city_kana": "ヌマヅシ",
    "town": "本郷町",
    "town_kana": "ホンゴウチョウ",
    "street": null,
    "office_name": null,
    "office_name_kana": null
  },
  "0818": {
    "zip_code": "4100818",
    "prefecture": "静岡県",
    "prefecture_kana": "シズオカケン",
    "prefecture_code": 22,
    "city": "沼津市",
    "city_kana": "ヌマヅシ",
    "town": "中原町",
    "town_kana": "ナカハラチョウ",
    "street": null,
    "office_name": null,
    "office_name_kana": null
  },
  "0819": {
    "zip_code": "4100819",
    "prefecture": "静岡県",
    "prefecture_kana": "シズオカケン",
    "prefecture_code": 22,
    "city": "沼津市",
    "city_kana": "ヌマヅシ",
    "town": "黒瀬町",
    "town_kana": "クロセチョウ",
    "street": null,
    "office_name": null,
    "office_name_kana": null
  },
  "0821": {
    "zip_code": "4100821",
    "prefecture": "静岡県",
    "prefecture_kana": "シズオカケン",
    "prefecture_code": 22,
    "city": "沼津市",
    "city_kana": "ヌマヅシ",
    "town": "大平",
    "town_kana": "オオヒラ",
    "street": null,
    "office_name": null,
    "office_name_kana": null
  },
  "0822": {
    "zip_code": "4100822",
    "prefecture": "静岡県",
    "prefecture_kana": "シズオカケン",
    "prefecture_code": 22,
    "city": "沼津市",
    "city_kana": "ヌマヅシ",
    "town": "下香貫",
    "town_kana": "シモカヌキ",
    "street": null,
    "office_name": null,
    "office_name_kana": null
  },
  "0823": {
    "zip_code": "4100823",
    "prefecture": "静岡県",
    "prefecture_kana": "シズオカケン",
    "prefecture_code": 22,
    "city": "沼津市",
    "city_kana": "ヌマヅシ",
    "town": "我入道",
    "town_kana": "ガニュウドウ",
    "street": null,
    "office_name": null,
    "office_name_kana": null
  },
  "0824": {
    "zip_code": "4100824",
    "prefecture": "静岡県",
    "prefecture_kana": "シズオカケン",
    "prefecture_code": 22,
    "city": "沼津市",
    "city_kana": "ヌマヅシ",
    "town": "香貫が丘",
    "town_kana": "カヌキガオカ",
    "street": null,
    "office_name": null,
    "office_name_kana": null
  },
  "0831": {
    "zip_code": "4100831",
    "prefecture": "静岡県",
    "prefecture_kana": "シズオカケン",
    "prefecture_code": 22,
    "city": "沼津市",
    "city_kana": "ヌマヅシ",
    "town": "市場町",
    "town_kana": "イチバチョウ",
    "street": null,
    "office_name": null,
    "office_name_kana": null
  },
  "0832": {
    "zip_code": "4100832",
    "prefecture": "静岡県",
    "prefecture_kana": "シズオカケン",
    "prefecture_code": 22,
    "city": "沼津市",
    "city_kana": "ヌマヅシ",
    "town": "御幸町",
    "town_kana": "ミユキチョウ",
    "street": null,
    "office_name": null,
    "office_name_kana": null
  },
  "0833": {
    "zip_code": "4100833",
    "prefecture": "静岡県",
    "prefecture_kana": "シズオカケン",
    "prefecture_code": 22,
    "city": "沼津市",
    "city_kana": "ヌマヅシ",
    "town": "三園町",
    "town_kana": "ミソノチョウ",
    "street": null,
    "office_name": null,
    "office_name_kana": null
  },
  "0834": {
    "zip_code": "4100834",
    "prefecture": "静岡県",
    "prefecture_kana": "シズオカケン",
    "prefecture_code": 22,
    "city": "沼津市",
    "city_kana": "ヌマヅシ",
    "town": "槇島町",
    "town_kana": "マキジマチョウ",
    "street": null,
    "office_name": null,
    "office_name_kana": null
  },
  "0835": {
    "zip_code": "4100835",
    "prefecture": "静岡県",
    "prefecture_kana": "シズオカケン",
    "prefecture_code": 22,
    "city": "沼津市",
    "city_kana": "ヌマヅシ",
    "town": "西島町",
    "town_kana": "ニシジマチョウ",
    "street": null,
    "office_name": null,
    "office_name_kana": null
  },
  "0836": {
    "zip_code": "4100836",
    "prefecture": "静岡県",
    "prefecture_kana": "シズオカケン",
    "prefecture_code": 22,
    "city": "沼津市",
    "city_kana": "ヌマヅシ",
    "town": "吉田町",
    "town_kana": "ヨシダチョウ",
    "street": null,
    "office_name": null,
    "office_name_kana": null
  },
  "0841": {
    "zip_code": "4100841",
    "prefecture": "静岡県",
    "prefecture_kana": "シズオカケン",
    "prefecture_code": 22,
    "city": "沼津市",
    "city_kana": "ヌマヅシ",
    "town": "下河原町",
    "town_kana": "シモガワラチョウ",
    "street": null,
    "office_name": null,
    "office_name_kana": null
  },
  "0842": {
    "zip_code": "4100842",
    "prefecture": "静岡県",
    "prefecture_kana": "シズオカケン",
    "prefecture_code": 22,
    "city": "沼津市",
    "city_kana": "ヌマヅシ",
    "town": "蛇松町",
    "town_kana": "ジャマツチョウ",
    "street": null,
    "office_name": null,
    "office_name_kana": null
  },
  "0843": {
    "zip_code": "4100843",
    "prefecture": "静岡県",
    "prefecture_kana": "シズオカケン",
    "prefecture_code": 22,
    "city": "沼津市",
    "city_kana": "ヌマヅシ",
    "town": "蓼原町",
    "town_kana": "タデハラチョウ",
    "street": null,
    "office_name": null,
    "office_name_kana": null
  },
  "0844": {
    "zip_code": "4100844",
    "prefecture": "静岡県",
    "prefecture_kana": "シズオカケン",
    "prefecture_code": 22,
    "city": "沼津市",
    "city_kana": "ヌマヅシ",
    "town": "春日町",
    "town_kana": "カスガチョウ",
    "street": null,
    "office_name": null,
    "office_name_kana": null
  },
  "0845": {
    "zip_code": "4100845",
    "prefecture": "静岡県",
    "prefecture_kana": "シズオカケン",
    "prefecture_code": 22,
    "city": "沼津市",
    "city_kana": "ヌマヅシ",
    "town": "千本港町",
    "town_kana": "センボンミナトマチ",
    "street": null,
    "office_name": null,
    "office_name_kana": null
  },
  "0846": {
    "zip_code": "4100846",
    "prefecture": "静岡県",
    "prefecture_kana": "シズオカケン",
    "prefecture_code": 22,
    "city": "沼津市",
    "city_kana": "ヌマヅシ",
    "town": "千本東町",
    "town_kana": "センボンヒガシチョウ",
    "street": null,
    "office_name": null,
    "office_name_kana": null
  },
  "0847": {
    "zip_code": "4100847",
    "prefecture": "静岡県",
    "prefecture_kana": "シズオカケン",
    "prefecture_code": 22,
    "city": "沼津市",
    "city_kana": "ヌマヅシ",
    "town": "千本中町",
    "town_kana": "センボンナカチョウ",
    "street": null,
    "office_name": null,
    "office_name_kana": null
  },
  "0848": {
    "zip_code": "4100848",
    "prefecture": "静岡県",
    "prefecture_kana": "シズオカケン",
    "prefecture_code": 22,
    "city": "沼津市",
    "city_kana": "ヌマヅシ",
    "town": "千本西町",
    "town_kana": "センボンニシチョウ",
    "street": null,
    "office_name": null,
    "office_name_kana": null
  },
  "0849": {
    "zip_code": "4100849",
    "prefecture": "静岡県",
    "prefecture_kana": "シズオカケン",
    "prefecture_code": 22,
    "city": "沼津市",
    "city_kana": "ヌマヅシ",
    "town": "千本郷林",
    "town_kana": "センボンゴウリン",
    "street": null,
    "office_name": null,
    "office_name_kana": null
  },
  "0851": {
    "zip_code": "4100851",
    "prefecture": "静岡県",
    "prefecture_kana": "シズオカケン",
    "prefecture_code": 22,
    "city": "沼津市",
    "city_kana": "ヌマヅシ",
    "town": "宮町",
    "town_kana": "ミヤマチ",
    "street": null,
    "office_name": null,
    "office_name_kana": null
  },
  "0852": {
    "zip_code": "4100852",
    "prefecture": "静岡県",
    "prefecture_kana": "シズオカケン",
    "prefecture_code": 22,
    "city": "沼津市",
    "city_kana": "ヌマヅシ",
    "town": "旭町",
    "town_kana": "アサヒチョウ",
    "street": null,
    "office_name": null,
    "office_name_kana": null
  },
  "0853": {
    "zip_code": "4100853",
    "prefecture": "静岡県",
    "prefecture_kana": "シズオカケン",
    "prefecture_code": 22,
    "city": "沼津市",
    "city_kana": "ヌマヅシ",
    "town": "常盤町",
    "town_kana": "トキワチョウ",
    "street": null,
    "office_name": null,
    "office_name_kana": null
  },
  "0854": {
    "zip_code": "4100854",
    "prefecture": "静岡県",
    "prefecture_kana": "シズオカケン",
    "prefecture_code": 22,
    "city": "沼津市",
    "city_kana": "ヌマヅシ",
    "town": "千本常盤町",
    "town_kana": "センボントキワチョウ",
    "street": null,
    "office_name": null,
    "office_name_kana": null
  },
  "0855": {
    "zip_code": "4100855",
    "prefecture": "静岡県",
    "prefecture_kana": "シズオカケン",
    "prefecture_code": 22,
    "city": "沼津市",
    "city_kana": "ヌマヅシ",
    "town": "千本緑町",
    "town_kana": "センボンミドリチョウ",
    "street": null,
    "office_name": null,
    "office_name_kana": null
  },
  "0861": {
    "zip_code": "4100861",
    "prefecture": "静岡県",
    "prefecture_kana": "シズオカケン",
    "prefecture_code": 22,
    "city": "沼津市",
    "city_kana": "ヌマヅシ",
    "town": "真砂町",
    "town_kana": "マサゴチョウ",
    "street": null,
    "office_name": null,
    "office_name_kana": null
  },
  "0862": {
    "zip_code": "4100862",
    "prefecture": "静岡県",
    "prefecture_kana": "シズオカケン",
    "prefecture_code": 22,
    "city": "沼津市",
    "city_kana": "ヌマヅシ",
    "town": "幸町",
    "town_kana": "サイワイチョウ",
    "street": null,
    "office_name": null,
    "office_name_kana": null
  },
  "0863": {
    "zip_code": "4100863",
    "prefecture": "静岡県",
    "prefecture_kana": "シズオカケン",
    "prefecture_code": 22,
    "city": "沼津市",
    "city_kana": "ヌマヅシ",
    "town": "下一丁田",
    "town_kana": "シモイッチョウダ",
    "street": null,
    "office_name": null,
    "office_name_kana": null
  },
  "0864": {
    "zip_code": "4100864",
    "prefecture": "静岡県",
    "prefecture_kana": "シズオカケン",
    "prefecture_code": 22,
    "city": "沼津市",
    "city_kana": "ヌマヅシ",
    "town": "松下",
    "town_kana": "マツシタ",
    "street": null,
    "office_name": null,
    "office_name_kana": null
  },
  "0865": {
    "zip_code": "4100865",
    "prefecture": "静岡県",
    "prefecture_kana": "シズオカケン",
    "prefecture_code": 22,
    "city": "沼津市",
    "city_kana": "ヌマヅシ",
    "town": "東間門",
    "town_kana": "ヒガシマカド",
    "street": null,
    "office_name": null,
    "office_name_kana": null
  },
  "0866": {
    "zip_code": "4100866",
    "prefecture": "静岡県",
    "prefecture_kana": "シズオカケン",
    "prefecture_code": 22,
    "city": "沼津市",
    "city_kana": "ヌマヅシ",
    "town": "市道",
    "town_kana": "イチミチ",
    "street": null,
    "office_name": null,
    "office_name_kana": null
  },
  "0867": [
    {
      "zip_code": "4100867",
      "prefecture": "静岡県",
      "prefecture_kana": "シズオカケン",
      "prefecture_code": 22,
      "city": "沼津市",
      "city_kana": "ヌマヅシ",
      "town": "下小路町",
      "town_kana": "シタコウジチョウ",
      "street": null,
      "office_name": null,
      "office_name_kana": null
    },
    {
      "zip_code": "4100867",
      "prefecture": "静岡県",
      "prefecture_kana": "シズオカケン",
      "prefecture_code": 22,
      "city": "沼津市",
      "city_kana": "ヌマヅシ",
      "town": "下中溝",
      "town_kana": "シモナカミゾ",
      "street": null,
      "office_name": null,
      "office_name_kana": null
    },
    {
      "zip_code": "4100867",
      "prefecture": "静岡県",
      "prefecture_kana": "シズオカケン",
      "prefecture_code": 22,
      "city": "沼津市",
      "city_kana": "ヌマヅシ",
      "town": "千本",
      "town_kana": "センボン",
      "street": null,
      "office_name": null,
      "office_name_kana": null
    },
    {
      "zip_code": "4100867",
      "prefecture": "静岡県",
      "prefecture_kana": "シズオカケン",
      "prefecture_code": 22,
      "city": "沼津市",
      "city_kana": "ヌマヅシ",
      "town": "出口町",
      "town_kana": "デグチチョウ",
      "street": null,
      "office_name": null,
      "office_name_kana": null
    },
    {
      "zip_code": "4100867",
      "prefecture": "静岡県",
      "prefecture_kana": "シズオカケン",
      "prefecture_code": 22,
      "city": "沼津市",
      "city_kana": "ヌマヅシ",
      "town": "西松下",
      "town_kana": "ニシマツシタ",
      "street": null,
      "office_name": null,
      "office_name_kana": null
    },
    {
      "zip_code": "4100867",
      "prefecture": "静岡県",
      "prefecture_kana": "シズオカケン",
      "prefecture_code": 22,
      "city": "沼津市",
      "city_kana": "ヌマヅシ",
      "town": "本",
      "town_kana": "ホン",
      "street": null,
      "office_name": null,
      "office_name_kana": null
    },
    {
      "zip_code": "4100867",
      "prefecture": "静岡県",
      "prefecture_kana": "シズオカケン",
      "prefecture_code": 22,
      "city": "沼津市",
      "city_kana": "ヌマヅシ",
      "town": "前田",
      "town_kana": "マエダ",
      "street": null,
      "office_name": null,
      "office_name_kana": null
    },
    {
      "zip_code": "4100867",
      "prefecture": "静岡県",
      "prefecture_kana": "シズオカケン",
      "prefecture_code": 22,
      "city": "沼津市",
      "city_kana": "ヌマヅシ",
      "town": "松下七反田",
      "town_kana": "マツシタヒチタンダ",
      "street": null,
      "office_name": null,
      "office_name_kana": null
    }
  ],
  "0871": {
    "zip_code": "4100871",
    "prefecture": "静岡県",
    "prefecture_kana": "シズオカケン",
    "prefecture_code": 22,
    "city": "沼津市",
    "city_kana": "ヌマヅシ",
    "town": "西間門",
    "town_kana": "ニシマカド",
    "street": null,
    "office_name": null,
    "office_name_kana": null
  },
  "0872": {
    "zip_code": "4100872",
    "prefecture": "静岡県",
    "prefecture_kana": "シズオカケン",
    "prefecture_code": 22,
    "city": "沼津市",
    "city_kana": "ヌマヅシ",
    "town": "小諏訪",
    "town_kana": "コズワ",
    "street": null,
    "office_name": null,
    "office_name_kana": null
  },
  "0873": {
    "zip_code": "4100873",
    "prefecture": "静岡県",
    "prefecture_kana": "シズオカケン",
    "prefecture_code": 22,
    "city": "沼津市",
    "city_kana": "ヌマヅシ",
    "town": "大諏訪",
    "town_kana": "オオズワ",
    "street": null,
    "office_name": null,
    "office_name_kana": null
  },
  "0874": {
    "zip_code": "4100874",
    "prefecture": "静岡県",
    "prefecture_kana": "シズオカケン",
    "prefecture_code": 22,
    "city": "沼津市",
    "city_kana": "ヌマヅシ",
    "town": "松長",
    "town_kana": "マツナガ",
    "street": null,
    "office_name": null,
    "office_name_kana": null
  },
  "0875": {
    "zip_code": "4100875",
    "prefecture": "静岡県",
    "prefecture_kana": "シズオカケン",
    "prefecture_code": 22,
    "city": "沼津市",
    "city_kana": "ヌマヅシ",
    "town": "今沢",
    "town_kana": "イマザワ",
    "street": null,
    "office_name": null,
    "office_name_kana": null
  },
  "0876": {
    "zip_code": "4100876",
    "prefecture": "静岡県",
    "prefecture_kana": "シズオカケン",
    "prefecture_code": 22,
    "city": "沼津市",
    "city_kana": "ヌマヅシ",
    "town": "北今沢",
    "town_kana": "キタイマザワ",
    "street": null,
    "office_name": null,
    "office_name_kana": null
  },
  "0881": {
    "zip_code": "4100881",
    "prefecture": "静岡県",
    "prefecture_kana": "シズオカケン",
    "prefecture_code": 22,
    "city": "沼津市",
    "city_kana": "ヌマヅシ",
    "town": "八幡町",
    "town_kana": "ハチマンチョウ",
    "street": null,
    "office_name": null,
    "office_name_kana": null
  },
  "0882": {
    "zip_code": "4100882",
    "prefecture": "静岡県",
    "prefecture_kana": "シズオカケン",
    "prefecture_code": 22,
    "city": "沼津市",
    "city_kana": "ヌマヅシ",
    "town": "町方町",
    "town_kana": "マチカタマチ",
    "street": null,
    "office_name": null,
    "office_name_kana": null
  },
  "0883": {
    "zip_code": "4100883",
    "prefecture": "静岡県",
    "prefecture_kana": "シズオカケン",
    "prefecture_code": 22,
    "city": "沼津市",
    "city_kana": "ヌマヅシ",
    "town": "大門町",
    "town_kana": "ダイモンチョウ",
    "street": null,
    "office_name": null,
    "office_name_kana": null
  },
  "0884": {
    "zip_code": "4100884",
    "prefecture": "静岡県",
    "prefecture_kana": "シズオカケン",
    "prefecture_code": 22,
    "city": "沼津市",
    "city_kana": "ヌマヅシ",
    "town": "本町",
    "town_kana": "ホンチョウ",
    "street": null,
    "office_name": null,
    "office_name_kana": null
  },
  "0885": {
    "zip_code": "4100885",
    "prefecture": "静岡県",
    "prefecture_kana": "シズオカケン",
    "prefecture_code": 22,
    "city": "沼津市",
    "city_kana": "ヌマヅシ",
    "town": "下本町",
    "town_kana": "シモホンチョウ",
    "street": null,
    "office_name": null,
    "office_name_kana": null
  },
  "0886": {
    "zip_code": "4100886",
    "prefecture": "静岡県",
    "prefecture_kana": "シズオカケン",
    "prefecture_code": 22,
    "city": "沼津市",
    "city_kana": "ヌマヅシ",
    "town": "浅間町",
    "town_kana": "センゲンチョウ",
    "street": null,
    "office_name": null,
    "office_name_kana": null
  },
  "0887": {
    "zip_code": "4100887",
    "prefecture": "静岡県",
    "prefecture_kana": "シズオカケン",
    "prefecture_code": 22,
    "city": "沼津市",
    "city_kana": "ヌマヅシ",
    "town": "東宮後町",
    "town_kana": "ヒガシミヤウシロチョウ",
    "street": null,
    "office_name": null,
    "office_name_kana": null
  },
  "0888": {
    "zip_code": "4100888",
    "prefecture": "静岡県",
    "prefecture_kana": "シズオカケン",
    "prefecture_code": 22,
    "city": "沼津市",
    "city_kana": "ヌマヅシ",
    "town": "末広町",
    "town_kana": "スエヒロチョウ",
    "street": null,
    "office_name": null,
    "office_name_kana": null
  },
  "0891": {
    "zip_code": "4100891",
    "prefecture": "静岡県",
    "prefecture_kana": "シズオカケン",
    "prefecture_code": 22,
    "city": "沼津市",
    "city_kana": "ヌマヅシ",
    "town": "通横町",
    "town_kana": "トオリヨコチョウ",
    "street": null,
    "office_name": null,
    "office_name_kana": null
  },
  "0892": {
    "zip_code": "4100892",
    "prefecture": "静岡県",
    "prefecture_kana": "シズオカケン",
    "prefecture_code": 22,
    "city": "沼津市",
    "city_kana": "ヌマヅシ",
    "town": "魚町",
    "town_kana": "ウオチョウ",
    "street": null,
    "office_name": null,
    "office_name_kana": null
  },
  "0893": {
    "zip_code": "4100893",
    "prefecture": "静岡県",
    "prefecture_kana": "シズオカケン",
    "prefecture_code": 22,
    "city": "沼津市",
    "city_kana": "ヌマヅシ",
    "town": "くまだか町",
    "town_kana": "クマダカチョウ",
    "street": null,
    "office_name": null,
    "office_name_kana": null
  },
  "0894": {
    "zip_code": "4100894",
    "prefecture": "静岡県",
    "prefecture_kana": "シズオカケン",
    "prefecture_code": 22,
    "city": "沼津市",
    "city_kana": "ヌマヅシ",
    "town": "仲町",
    "town_kana": "ナカチョウ",
    "street": null,
    "office_name": null,
    "office_name_kana": null
  },
  "0895": {
    "zip_code": "4100895",
    "prefecture": "静岡県",
    "prefecture_kana": "シズオカケン",
    "prefecture_code": 22,
    "city": "沼津市",
    "city_kana": "ヌマヅシ",
    "town": "新町",
    "town_kana": "シンチョウ",
    "street": null,
    "office_name": null,
    "office_name_kana": null
  },
  "1100": {
    "zip_code": "4101100",
    "prefecture": "静岡県",
    "prefecture_kana": "シズオカケン",
    "prefecture_code": 22,
    "city": "裾野市",
    "city_kana": "スソノシ",
    "town": "",
    "town_kana": "",
    "street": null,
    "office_name": null,
    "office_name_kana": null
  },
  "1101": {
    "zip_code": "4101101",
    "prefecture": "静岡県",
    "prefecture_kana": "シズオカケン",
    "prefecture_code": 22,
    "city": "裾野市",
    "city_kana": "スソノシ",
    "town": "岩波",
    "town_kana": "イワナミ",
    "street": null,
    "office_name": null,
    "office_name_kana": null
  },
  "1102": {
    "zip_code": "4101102",
    "prefecture": "静岡県",
    "prefecture_kana": "シズオカケン",
    "prefecture_code": 22,
    "city": "裾野市",
    "city_kana": "スソノシ",
    "town": "深良",
    "town_kana": "フカラ",
    "street": null,
    "office_name": null,
    "office_name_kana": null
  },
  "1103": {
    "zip_code": "4101103",
    "prefecture": "静岡県",
    "prefecture_kana": "シズオカケン",
    "prefecture_code": 22,
    "city": "裾野市",
    "city_kana": "スソノシ",
    "town": "葛山",
    "town_kana": "カズラヤマ",
    "street": null,
    "office_name": null,
    "office_name_kana": null
  },
  "1104": {
    "zip_code": "4101104",
    "prefecture": "静岡県",
    "prefecture_kana": "シズオカケン",
    "prefecture_code": 22,
    "city": "裾野市",
    "city_kana": "スソノシ",
    "town": "今里",
    "town_kana": "イマザト",
    "street": null,
    "office_name": null,
    "office_name_kana": null
  },
  "1105": {
    "zip_code": "4101105",
    "prefecture": "静岡県",
    "prefecture_kana": "シズオカケン",
    "prefecture_code": 22,
    "city": "裾野市",
    "city_kana": "スソノシ",
    "town": "下和田",
    "town_kana": "シモワダ",
    "street": null,
    "office_name": null,
    "office_name_kana": null
  },
  "1106": {
    "zip_code": "4101106",
    "prefecture": "静岡県",
    "prefecture_kana": "シズオカケン",
    "prefecture_code": 22,
    "city": "裾野市",
    "city_kana": "スソノシ",
    "town": "金沢",
    "town_kana": "カネザワ",
    "street": null,
    "office_name": null,
    "office_name_kana": null
  },
  "1107": {
    "zip_code": "4101107",
    "prefecture": "静岡県",
    "prefecture_kana": "シズオカケン",
    "prefecture_code": 22,
    "city": "裾野市",
    "city_kana": "スソノシ",
    "town": "御宿",
    "town_kana": "ミシュク",
    "street": null,
    "office_name": null,
    "office_name_kana": null
  },
  "1108": {
    "zip_code": "4101108",
    "prefecture": "静岡県",
    "prefecture_kana": "シズオカケン",
    "prefecture_code": 22,
    "city": "裾野市",
    "city_kana": "スソノシ",
    "town": "上ケ田",
    "town_kana": "アゲタ",
    "street": null,
    "office_name": null,
    "office_name_kana": null
  },
  "1109": {
    "zip_code": "4101109",
    "prefecture": "静岡県",
    "prefecture_kana": "シズオカケン",
    "prefecture_code": 22,
    "city": "裾野市",
    "city_kana": "スソノシ",
    "town": "呼子",
    "town_kana": "ヨビコ",
    "street": null,
    "office_name": null,
    "office_name_kana": null
  },
  "1111": {
    "zip_code": "4101111",
    "prefecture": "静岡県",
    "prefecture_kana": "シズオカケン",
    "prefecture_code": 22,
    "city": "裾野市",
    "city_kana": "スソノシ",
    "town": "久根",
    "town_kana": "クネ",
    "street": null,
    "office_name": null,
    "office_name_kana": null
  },
  "1112": {
    "zip_code": "4101112",
    "prefecture": "静岡県",
    "prefecture_kana": "シズオカケン",
    "prefecture_code": 22,
    "city": "裾野市",
    "city_kana": "スソノシ",
    "town": "公文名",
    "town_kana": "クモミョウ",
    "street": null,
    "office_name": null,
    "office_name_kana": null
  },
  "1113": {
    "zip_code": "4101113",
    "prefecture": "静岡県",
    "prefecture_kana": "シズオカケン",
    "prefecture_code": 22,
    "city": "裾野市",
    "city_kana": "スソノシ",
    "town": "稲荷",
    "town_kana": "イナリ",
    "street": null,
    "office_name": null,
    "office_name_kana": null
  },
  "1114": {
    "zip_code": "4101114",
    "prefecture": "静岡県",
    "prefecture_kana": "シズオカケン",
    "prefecture_code": 22,
    "city": "裾野市",
    "city_kana": "スソノシ",
    "town": "大畑",
    "town_kana": "オオハタ",
    "street": null,
    "office_name": null,
    "office_name_kana": null
  },
  "1115": {
    "zip_code": "4101115",
    "prefecture": "静岡県",
    "prefecture_kana": "シズオカケン",
    "prefecture_code": 22,
    "city": "裾野市",
    "city_kana": "スソノシ",
    "town": "千福が丘",
    "town_kana": "センプクガオカ",
    "street": null,
    "office_name": null,
    "office_name_kana": null
  },
  "1116": {
    "zip_code": "4101116",
    "prefecture": "静岡県",
    "prefecture_kana": "シズオカケン",
    "prefecture_code": 22,
    "city": "裾野市",
    "city_kana": "スソノシ",
    "town": "千福",
    "town_kana": "センプク",
    "street": null,
    "office_name": null,
    "office_name_kana": null
  },
  "1117": {
    "zip_code": "4101117",
    "prefecture": "静岡県",
    "prefecture_kana": "シズオカケン",
    "prefecture_code": 22,
    "city": "裾野市",
    "city_kana": "スソノシ",
    "town": "石脇",
    "town_kana": "イシワキ",
    "street": null,
    "office_name": null,
    "office_name_kana": null
  },
  "1118": {
    "zip_code": "4101118",
    "prefecture": "静岡県",
    "prefecture_kana": "シズオカケン",
    "prefecture_code": 22,
    "city": "裾野市",
    "city_kana": "スソノシ",
    "town": "佐野",
    "town_kana": "サノ",
    "street": null,
    "office_name": null,
    "office_name_kana": null
  },
  "1121": {
    "zip_code": "4101121",
    "prefecture": "静岡県",
    "prefecture_kana": "シズオカケン",
    "prefecture_code": 22,
    "city": "裾野市",
    "city_kana": "スソノシ",
    "town": "茶畑",
    "town_kana": "チャバタケ",
    "street": null,
    "office_name": null,
    "office_name_kana": null
  },
  "1122": {
    "zip_code": "4101122",
    "prefecture": "静岡県",
    "prefecture_kana": "シズオカケン",
    "prefecture_code": 22,
    "city": "裾野市",
    "city_kana": "スソノシ",
    "town": "麦塚",
    "town_kana": "ムギツカ",
    "street": null,
    "office_name": null,
    "office_name_kana": null
  },
  "1123": {
    "zip_code": "4101123",
    "prefecture": "静岡県",
    "prefecture_kana": "シズオカケン",
    "prefecture_code": 22,
    "city": "裾野市",
    "city_kana": "スソノシ",
    "town": "伊豆島田",
    "town_kana": "イズシマタ",
    "street": null,
    "office_name": null,
    "office_name_kana": null
  },
  "1124": {
    "zip_code": "4101124",
    "prefecture": "静岡県",
    "prefecture_kana": "シズオカケン",
    "prefecture_code": 22,
    "city": "裾野市",
    "city_kana": "スソノシ",
    "town": "水窪",
    "town_kana": "ミズクボ",
    "street": null,
    "office_name": null,
    "office_name_kana": null
  },
  "1125": {
    "zip_code": "4101125",
    "prefecture": "静岡県",
    "prefecture_kana": "シズオカケン",
    "prefecture_code": 22,
    "city": "裾野市",
    "city_kana": "スソノシ",
    "town": "富沢",
    "town_kana": "トミザワ",
    "street": null,
    "office_name": null,
    "office_name_kana": null
  },
  "1126": {
    "zip_code": "4101126",
    "prefecture": "静岡県",
    "prefecture_kana": "シズオカケン",
    "prefecture_code": 22,
    "city": "裾野市",
    "city_kana": "スソノシ",
    "town": "桃園",
    "town_kana": "モモゾノ",
    "street": null,
    "office_name": null,
    "office_name_kana": null
  },
  "1127": {
    "zip_code": "4101127",
    "prefecture": "静岡県",
    "prefecture_kana": "シズオカケン",
    "prefecture_code": 22,
    "city": "裾野市",
    "city_kana": "スソノシ",
    "town": "平松",
    "town_kana": "ヒラマツ",
    "street": null,
    "office_name": null,
    "office_name_kana": null
  },
  "1128": {
    "zip_code": "4101128",
    "prefecture": "静岡県",
    "prefecture_kana": "シズオカケン",
    "prefecture_code": 22,
    "city": "裾野市",
    "city_kana": "スソノシ",
    "town": "二ツ屋",
    "town_kana": "フタツヤ",
    "street": null,
    "office_name": null,
    "office_name_kana": null
  },
  "1192": {
    "zip_code": "4101192",
    "prefecture": "静岡県",
    "prefecture_kana": "シズオカケン",
    "prefecture_code": 22,
    "city": "裾野市",
    "city_kana": "スソノシ",
    "town": "佐野",
    "town_kana": "サノ",
    "street": "１０５９（裾野郵便局私書箱第１５号）",
    "office_name": "裾野市役所",
    "office_name_kana": "スソノシヤクシヨ"
  },
  "1193": {
    "zip_code": "4101193",
    "prefecture": "静岡県",
    "prefecture_kana": "シズオカケン",
    "prefecture_code": 22,
    "city": "裾野市",
    "city_kana": "スソノシ",
    "town": "御宿",
    "town_kana": "ミシュク",
    "street": "１２００",
    "office_name": "トヨタ自動車　株式会社　東富士研究所",
    "office_name_kana": "トヨタジドウシヤ カブシキガイシヤ ヒガシフジケンキユウジヨ"
  },
  "1194": {
    "zip_code": "4101194",
    "prefecture": "静岡県",
    "prefecture_kana": "シズオカケン",
    "prefecture_code": 22,
    "city": "裾野市",
    "city_kana": "スソノシ",
    "town": "御宿",
    "town_kana": "ミシュク",
    "street": "１５００",
    "office_name": "矢崎総業　株式会社　Ｙ−ＣＩＴＹ",
    "office_name_kana": "ヤザキソウギヨウ カブシキガイシヤ ワイシテイ-"
  },
  "1195": {
    "zip_code": "4101195",
    "prefecture": "静岡県",
    "prefecture_kana": "シズオカケン",
    "prefecture_code": 22,
    "city": "裾野市",
    "city_kana": "スソノシ",
    "town": "御宿",
    "town_kana": "ミシュク",
    "street": "１２００番地",
    "office_name": "関東自動車工業　株式会社　東富士工場",
    "office_name_kana": "カントウジドウシヤコウギヨウ カブシキガイシヤ ヒガシフジコウジヨウ"
  },
  "1196": {
    "zip_code": "4101196",
    "prefecture": "静岡県",
    "prefecture_kana": "シズオカケン",
    "prefecture_code": 22,
    "city": "裾野市",
    "city_kana": "スソノシ",
    "town": "深良",
    "town_kana": "フカラ",
    "street": "４２０２",
    "office_name": "キヤノン　株式会社　富士裾野リサーチパーク",
    "office_name_kana": "キヤノン カブシキガイシヤ フジスソノリサ-チパ-ク"
  },
  "1197": {
    "zip_code": "4101197",
    "prefecture": "静岡県",
    "prefecture_kana": "シズオカケン",
    "prefecture_code": 22,
    "city": "裾野市",
    "city_kana": "スソノシ",
    "town": "平松",
    "town_kana": "ヒラマツ",
    "street": "６２０番地の１",
    "office_name": "裾野警察署",
    "office_name_kana": "スソノケイサツシヨ"
  },
  "1231": {
    "zip_code": "4101231",
    "prefecture": "静岡県",
    "prefecture_kana": "シズオカケン",
    "prefecture_code": 22,
    "city": "裾野市",
    "city_kana": "スソノシ",
    "town": "須山",
    "town_kana": "スヤマ",
    "street": null,
    "office_name": null,
    "office_name_kana": null
  },
  "1300": {
    "zip_code": "4101300",
    "prefecture": "静岡県",
    "prefecture_kana": "シズオカケン",
    "prefecture_code": 22,
    "city": "駿東郡小山町",
    "city_kana": "スントウグンオヤマチョウ",
    "town": "",
    "town_kana": "",
    "street": null,
    "office_name": null,
    "office_name_kana": null
  },
  "1301": {
    "zip_code": "4101301",
    "prefecture": "静岡県",
    "prefecture_kana": "シズオカケン",
    "prefecture_code": 22,
    "city": "駿東郡小山町",
    "city_kana": "スントウグンオヤマチョウ",
    "town": "柳島",
    "town_kana": "ヤナギシマ",
    "street": null,
    "office_name": null,
    "office_name_kana": null
  },
  "1302": {
    "zip_code": "4101302",
    "prefecture": "静岡県",
    "prefecture_kana": "シズオカケン",
    "prefecture_code": 22,
    "city": "駿東郡小山町",
    "city_kana": "スントウグンオヤマチョウ",
    "town": "中島",
    "town_kana": "ナカジマ",
    "street": null,
    "office_name": null,
    "office_name_kana": null
  },
  "1303": {
    "zip_code": "4101303",
    "prefecture": "静岡県",
    "prefecture_kana": "シズオカケン",
    "prefecture_code": 22,
    "city": "駿東郡小山町",
    "city_kana": "スントウグンオヤマチョウ",
    "town": "生土",
    "town_kana": "イキド",
    "street": null,
    "office_name": null,
    "office_name_kana": null
  },
  "1304": {
    "zip_code": "4101304",
    "prefecture": "静岡県",
    "prefecture_kana": "シズオカケン",
    "prefecture_code": 22,
    "city": "駿東郡小山町",
    "city_kana": "スントウグンオヤマチョウ",
    "town": "藤曲",
    "town_kana": "フジマガリ",
    "street": null,
    "office_name": null,
    "office_name_kana": null
  },
  "1305": {
    "zip_code": "4101305",
    "prefecture": "静岡県",
    "prefecture_kana": "シズオカケン",
    "prefecture_code": 22,
    "city": "駿東郡小山町",
    "city_kana": "スントウグンオヤマチョウ",
    "town": "湯船",
    "town_kana": "ユブネ",
    "street": null,
    "office_name": null,
    "office_name_kana": null
  },
  "1306": {
    "zip_code": "4101306",
    "prefecture": "静岡県",
    "prefecture_kana": "シズオカケン",
    "prefecture_code": 22,
    "city": "駿東郡小山町",
    "city_kana": "スントウグンオヤマチョウ",
    "town": "上野",
    "town_kana": "ウエノ",
    "street": null,
    "office_name": null,
    "office_name_kana": null
  },
  "1307": {
    "zip_code": "4101307",
    "prefecture": "静岡県",
    "prefecture_kana": "シズオカケン",
    "prefecture_code": 22,
    "city": "駿東郡小山町",
    "city_kana": "スントウグンオヤマチョウ",
    "town": "中日向",
    "town_kana": "ナカヒナタ",
    "street": null,
    "office_name": null,
    "office_name_kana": null
  },
  "1308": {
    "zip_code": "4101308",
    "prefecture": "静岡県",
    "prefecture_kana": "シズオカケン",
    "prefecture_code": 22,
    "city": "駿東郡小山町",
    "city_kana": "スントウグンオヤマチョウ",
    "town": "大御神",
    "town_kana": "オオミカ",
    "street": null,
    "office_name": null,
    "office_name_kana": null
  },
  "1311": {
    "zip_code": "4101311",
    "prefecture": "静岡県",
    "prefecture_kana": "シズオカケン",
    "prefecture_code": 22,
    "city": "駿東郡小山町",
    "city_kana": "スントウグンオヤマチョウ",
    "town": "小山",
    "town_kana": "オヤマ",
    "street": null,
    "office_name": null,
    "office_name_kana": null
  },
  "1312": {
    "zip_code": "4101312",
    "prefecture": "静岡県",
    "prefecture_kana": "シズオカケン",
    "prefecture_code": 22,
    "city": "駿東郡小山町",
    "city_kana": "スントウグンオヤマチョウ",
    "town": "菅沼",
    "town_kana": "スガヌマ",
    "street": null,
    "office_name": null,
    "office_name_kana": null
  },
  "1313": {
    "zip_code": "4101313",
    "prefecture": "静岡県",
    "prefecture_kana": "シズオカケン",
    "prefecture_code": 22,
    "city": "駿東郡小山町",
    "city_kana": "スントウグンオヤマチョウ",
    "town": "竹之下",
    "town_kana": "タケノシタ",
    "street": null,
    "office_name": null,
    "office_name_kana": null
  },
  "1314": {
    "zip_code": "4101314",
    "prefecture": "静岡県",
    "prefecture_kana": "シズオカケン",
    "prefecture_code": 22,
    "city": "駿東郡小山町",
    "city_kana": "スントウグンオヤマチョウ",
    "town": "新柴",
    "town_kana": "アラシバ",
    "street": null,
    "office_name": null,
    "office_name_kana": null
  },
  "1315": {
    "zip_code": "4101315",
    "prefecture": "静岡県",
    "prefecture_kana": "シズオカケン",
    "prefecture_code": 22,
    "city": "駿東郡小山町",
    "city_kana": "スントウグンオヤマチョウ",
    "town": "桑木",
    "town_kana": "クワギ",
    "street": null,
    "office_name": null,
    "office_name_kana": null
  },
  "1316": {
    "zip_code": "4101316",
    "prefecture": "静岡県",
    "prefecture_kana": "シズオカケン",
    "prefecture_code": 22,
    "city": "駿東郡小山町",
    "city_kana": "スントウグンオヤマチョウ",
    "town": "下古城",
    "town_kana": "シモフルシロ",
    "street": null,
    "office_name": null,
    "office_name_kana": null
  },
  "1317": {
    "zip_code": "4101317",
    "prefecture": "静岡県",
    "prefecture_kana": "シズオカケン",
    "prefecture_code": 22,
    "city": "駿東郡小山町",
    "city_kana": "スントウグンオヤマチョウ",
    "town": "大胡田",
    "town_kana": "オオゴダ",
    "street": null,
    "office_name": null,
    "office_name_kana": null
  },
  "1321": {
    "zip_code": "4101321",
    "prefecture": "静岡県",
    "prefecture_kana": "シズオカケン",
    "prefecture_code": 22,
    "city": "駿東郡小山町",
    "city_kana": "スントウグンオヤマチョウ",
    "town": "阿多野",
    "town_kana": "アダノ",
    "street": null,
    "office_name": null,
    "office_name_kana": null
  },
  "1322": {
    "zip_code": "4101322",
    "prefecture": "静岡県",
    "prefecture_kana": "シズオカケン",
    "prefecture_code": 22,
    "city": "駿東郡小山町",
    "city_kana": "スントウグンオヤマチョウ",
    "town": "吉久保",
    "town_kana": "ヨシクボ",
    "street": null,
    "office_name": null,
    "office_name_kana": null
  },
  "1323": {
    "zip_code": "4101323",
    "prefecture": "静岡県",
    "prefecture_kana": "シズオカケン",
    "prefecture_code": 22,
    "city": "駿東郡小山町",
    "city_kana": "スントウグンオヤマチョウ",
    "town": "上古城",
    "town_kana": "カミフルシロ",
    "street": null,
    "office_name": null,
    "office_name_kana": null
  },
  "1324": {
    "zip_code": "4101324",
    "prefecture": "静岡県",
    "prefecture_kana": "シズオカケン",
    "prefecture_code": 22,
    "city": "駿東郡小山町",
    "city_kana": "スントウグンオヤマチョウ",
    "town": "下小林",
    "town_kana": "シモコバヤシ",
    "street": null,
    "office_name": null,
    "office_name_kana": null
  },
  "1325": {
    "zip_code": "4101325",
    "prefecture": "静岡県",
    "prefecture_kana": "シズオカケン",
    "prefecture_code": 22,
    "city": "駿東郡小山町",
    "city_kana": "スントウグンオヤマチョウ",
    "town": "一色",
    "town_kana": "イシキ",
    "street": null,
    "office_name": null,
    "office_name_kana": null
  },
  "1326": {
    "zip_code": "4101326",
    "prefecture": "静岡県",
    "prefecture_kana": "シズオカケン",
    "prefecture_code": 22,
    "city": "駿東郡小山町",
    "city_kana": "スントウグンオヤマチョウ",
    "town": "用沢",
    "town_kana": "ヨウサワ",
    "street": null,
    "office_name": null,
    "office_name_kana": null
  },
  "1327": {
    "zip_code": "4101327",
    "prefecture": "静岡県",
    "prefecture_kana": "シズオカケン",
    "prefecture_code": 22,
    "city": "駿東郡小山町",
    "city_kana": "スントウグンオヤマチョウ",
    "town": "棚頭",
    "town_kana": "タナガシラ",
    "street": null,
    "office_name": null,
    "office_name_kana": null
  },
  "1392": {
    "zip_code": "4101392",
    "prefecture": "静岡県",
    "prefecture_kana": "シズオカケン",
    "prefecture_code": 22,
    "city": "駿東郡小山町",
    "city_kana": "スントウグンオヤマチョウ",
    "town": "菅沼",
    "town_kana": "スガヌマ",
    "street": "１５００",
    "office_name": "ユニバーサル製缶　株式会社",
    "office_name_kana": "ユニバ-サルセイカン カブシキガイシヤ"
  },
  "1393": {
    "zip_code": "4101393",
    "prefecture": "静岡県",
    "prefecture_kana": "シズオカケン",
    "prefecture_code": 22,
    "city": "駿東郡小山町",
    "city_kana": "スントウグンオヤマチョウ",
    "town": "竹之下",
    "town_kana": "タケノシタ",
    "street": "３６−１",
    "office_name": "エスアイアイ・ナノテクノロジー　株式会社　小山工場",
    "office_name_kana": "エスアイアイ・ナノテクノロジ- カブシキガイシヤ オヤマコウジヨウ"
  },
  "1394": {
    "zip_code": "4101394",
    "prefecture": "静岡県",
    "prefecture_kana": "シズオカケン",
    "prefecture_code": 22,
    "city": "駿東郡小山町",
    "city_kana": "スントウグンオヤマチョウ",
    "town": "小山",
    "town_kana": "オヤマ",
    "street": "４７番地",
    "office_name": "フジボウ愛媛　株式会社　小山工場",
    "office_name_kana": "フジボウエヒメ カブシキガイシヤ オヤマコウジヨウ"
  },
  "1395": {
    "zip_code": "4101395",
    "prefecture": "静岡県",
    "prefecture_kana": "シズオカケン",
    "prefecture_code": 22,
    "city": "駿東郡小山町",
    "city_kana": "スントウグンオヤマチョウ",
    "town": "藤曲",
    "town_kana": "フジマガリ",
    "street": "５７−２",
    "office_name": "小山町役場",
    "office_name_kana": "オヤマチヨウヤクバ"
  },
  "1396": {
    "zip_code": "4101396",
    "prefecture": "静岡県",
    "prefecture_kana": "シズオカケン",
    "prefecture_code": 22,
    "city": "駿東郡小山町",
    "city_kana": "スントウグンオヤマチョウ",
    "town": "棚頭",
    "town_kana": "タナガシラ",
    "street": "３０５",
    "office_name": "株式会社　センサータ・テクノロジーズジャパン",
    "office_name_kana": "カブシキガイシヤ センサ-タ・テクノロジ-ズジヤパン"
  },
  "1431": {
    "zip_code": "4101431",
    "prefecture": "静岡県",
    "prefecture_kana": "シズオカケン",
    "prefecture_code": 22,
    "city": "駿東郡小山町",
    "city_kana": "スントウグンオヤマチョウ",
    "town": "須走",
    "town_kana": "スバシリ",
    "street": null,
    "office_name": null,
    "office_name_kana": null
  },
  "1432": {
    "zip_code": "4101432",
    "prefecture": "静岡県",
    "prefecture_kana": "シズオカケン",
    "prefecture_code": 22,
    "city": "駿東郡小山町",
    "city_kana": "スントウグンオヤマチョウ",
    "town": "自衛隊富士学校",
    "town_kana": "ジエイタイフジガッコウ",
    "street": null,
    "office_name": null,
    "office_name_kana": null
  },
  "2101": {
    "zip_code": "4102101",
    "prefecture": "静岡県",
    "prefecture_kana": "シズオカケン",
    "prefecture_code": 22,
    "city": "伊豆の国市",
    "city_kana": "イズノクニシ",
    "town": "小松ケ原",
    "town_kana": "コマツガハラ",
    "street": null,
    "office_name": null,
    "office_name_kana": null
  },
  "2102": {
    "zip_code": "4102102",
    "prefecture": "静岡県",
    "prefecture_kana": "シズオカケン",
    "prefecture_code": 22,
    "city": "伊豆の国市",
    "city_kana": "イズノクニシ",
    "town": "富士見ニュータウン",
    "town_kana": "フジミニュータウン",
    "street": null,
    "office_name": null,
    "office_name_kana": null
  },
  "2103": {
    "zip_code": "4102103",
    "prefecture": "静岡県",
    "prefecture_kana": "シズオカケン",
    "prefecture_code": 22,
    "city": "伊豆の国市",
    "city_kana": "イズノクニシ",
    "town": "エメラルドタウン",
    "town_kana": "エメラルドタウン",
    "street": null,
    "office_name": null,
    "office_name_kana": null
  },
  "2111": {
    "zip_code": "4102111",
    "prefecture": "静岡県",
    "prefecture_kana": "シズオカケン",
    "prefecture_code": 22,
    "city": "伊豆の国市",
    "city_kana": "イズノクニシ",
    "town": "立花台",
    "town_kana": "タチバナダイ",
    "street": null,
    "office_name": null,
    "office_name_kana": null
  },
  "2112": {
    "zip_code": "4102112",
    "prefecture": "静岡県",
    "prefecture_kana": "シズオカケン",
    "prefecture_code": 22,
    "city": "伊豆の国市",
    "city_kana": "イズノクニシ",
    "town": "内中",
    "town_kana": "ウチナカ",
    "street": null,
    "office_name": null,
    "office_name_kana": null
  },
  "2113": {
    "zip_code": "4102113",
    "prefecture": "静岡県",
    "prefecture_kana": "シズオカケン",
    "prefecture_code": 22,
    "city": "伊豆の国市",
    "city_kana": "イズノクニシ",
    "town": "中",
    "town_kana": "ナカ",
    "street": null,
    "office_name": null,
    "office_name_kana": null
  },
  "2114": {
    "zip_code": "4102114",
    "prefecture": "静岡県",
    "prefecture_kana": "シズオカケン",
    "prefecture_code": 22,
    "city": "伊豆の国市",
    "city_kana": "イズノクニシ",
    "town": "南條",
    "town_kana": "ナンジョウ",
    "street": null,
    "office_name": null,
    "office_name_kana": null
  },
  "2121": {
    "zip_code": "4102121",
    "prefecture": "静岡県",
    "prefecture_kana": "シズオカケン",
    "prefecture_code": 22,
    "city": "伊豆の国市",
    "city_kana": "イズノクニシ",
    "town": "中條",
    "town_kana": "チュウジョウ",
    "street": null,
    "office_name": null,
    "office_name_kana": null
  },
  "2122": {
    "zip_code": "4102122",
    "prefecture": "静岡県",
    "prefecture_kana": "シズオカケン",
    "prefecture_code": 22,
    "city": "伊豆の国市",
    "city_kana": "イズノクニシ",
    "town": "寺家",
    "town_kana": "ジケ",
    "street": null,
    "office_name": null,
    "office_name_kana": null
  },
  "2123": {
    "zip_code": "4102123",
    "prefecture": "静岡県",
    "prefecture_kana": "シズオカケン",
    "prefecture_code": 22,
    "city": "伊豆の国市",
    "city_kana": "イズノクニシ",
    "town": "四日町",
    "town_kana": "ヨッカマチ",
    "street": null,
    "office_name": null,
    "office_name_kana": null
  },
  "2124": {
    "zip_code": "4102124",
    "prefecture": "静岡県",
    "prefecture_kana": "シズオカケン",
    "prefecture_code": 22,
    "city": "伊豆の国市",
    "city_kana": "イズノクニシ",
    "town": "原木",
    "town_kana": "バラキ",
    "street": null,
    "office_name": null,
    "office_name_kana": null
  },
  "2131": {
    "zip_code": "4102131",
    "prefecture": "静岡県",
    "prefecture_kana": "シズオカケン",
    "prefecture_code": 22,
    "city": "伊豆の国市",
    "city_kana": "イズノクニシ",
    "town": "長崎",
    "town_kana": "ナガサキ",
    "street": null,
    "office_name": null,
    "office_name_kana": null
  },
  "2132": {
    "zip_code": "4102132",
    "prefecture": "静岡県",
    "prefecture_kana": "シズオカケン",
    "prefecture_code": 22,
    "city": "伊豆の国市",
    "city_kana": "イズノクニシ",
    "town": "奈古谷",
    "town_kana": "ナゴヤ",
    "street": null,
    "office_name": null,
    "office_name_kana": null
  },
  "2133": {
    "zip_code": "4102133",
    "prefecture": "静岡県",
    "prefecture_kana": "シズオカケン",
    "prefecture_code": 22,
    "city": "伊豆の国市",
    "city_kana": "イズノクニシ",
    "town": "韮山多田",
    "town_kana": "ニラヤマタダ",
    "street": null,
    "office_name": null,
    "office_name_kana": null
  },
  "2141": {
    "zip_code": "4102141",
    "prefecture": "静岡県",
    "prefecture_kana": "シズオカケン",
    "prefecture_code": 22,
    "city": "伊豆の国市",
    "city_kana": "イズノクニシ",
    "town": "韮山山木",
    "town_kana": "ニラヤマヤマキ",
    "street": null,
    "office_name": null,
    "office_name_kana": null
  },
  "2142": {
    "zip_code": "4102142",
    "prefecture": "静岡県",
    "prefecture_kana": "シズオカケン",
    "prefecture_code": 22,
    "city": "伊豆の国市",
    "city_kana": "イズノクニシ",
    "town": "韮山金谷",
    "town_kana": "ニラヤマカナヤ",
    "street": null,
    "office_name": null,
    "office_name_kana": null
  },
  "2143": {
    "zip_code": "4102143",
    "prefecture": "静岡県",
    "prefecture_kana": "シズオカケン",
    "prefecture_code": 22,
    "city": "伊豆の国市",
    "city_kana": "イズノクニシ",
    "town": "韮山韮山",
    "town_kana": "ニラヤマニラヤマ",
    "street": null,
    "office_name": null,
    "office_name_kana": null
  },
  "2144": {
    "zip_code": "4102144",
    "prefecture": "静岡県",
    "prefecture_kana": "シズオカケン",
    "prefecture_code": 22,
    "city": "伊豆の国市",
    "city_kana": "イズノクニシ",
    "town": "韮山土手和田",
    "town_kana": "ニラヤマドテワダ",
    "street": null,
    "office_name": null,
    "office_name_kana": null
  },
  "2192": {
    "zip_code": "4102192",
    "prefecture": "静岡県",
    "prefecture_kana": "シズオカケン",
    "prefecture_code": 22,
    "city": "伊豆の国市",
    "city_kana": "イズノクニシ",
    "town": "四日町",
    "town_kana": "ヨッカマチ",
    "street": "２１０番地の３",
    "office_name": "伊豆の国市役所　韮山支所",
    "office_name_kana": "イズノクニシヤクシヨ ニラヤマシシヨ"
  },
  "2193": {
    "zip_code": "4102193",
    "prefecture": "静岡県",
    "prefecture_kana": "シズオカケン",
    "prefecture_code": 22,
    "city": "伊豆の国市",
    "city_kana": "イズノクニシ",
    "town": "原木",
    "town_kana": "バラキ",
    "street": "５１１番地",
    "office_name": "ＡＢＢ日本ベーレー　株式会社",
    "office_name_kana": "エ-ビ-ビ-ニホンベ-レ- カブシキガイシヤ"
  },
  "2194": {
    "zip_code": "4102194",
    "prefecture": "静岡県",
    "prefecture_kana": "シズオカケン",
    "prefecture_code": 22,
    "city": "伊豆の国市",
    "city_kana": "イズノクニシ",
    "town": "南條",
    "town_kana": "ナンジョウ",
    "street": "８００",
    "office_name": "伊豆の国農業協同組合",
    "office_name_kana": "イズノクニ ノウギヨウキヨウドウクミアイ"
  },
  "2195": {
    "zip_code": "4102195",
    "prefecture": "静岡県",
    "prefecture_kana": "シズオカケン",
    "prefecture_code": 22,
    "city": "伊豆の国市",
    "city_kana": "イズノクニシ",
    "town": "中條",
    "town_kana": "チュウジョウ",
    "street": "２３４",
    "office_name": "伊豆韮山温泉病院",
    "office_name_kana": "イズニラヤマオンセンビヨウイン"
  },
  "2200": {
    "zip_code": "4102200",
    "prefecture": "静岡県",
    "prefecture_kana": "シズオカケン",
    "prefecture_code": 22,
    "city": "伊豆の国市",
    "city_kana": "イズノクニシ",
    "town": "",
    "town_kana": "",
    "street": null,
    "office_name": null,
    "office_name_kana": null
  },
  "2201": {
    "zip_code": "4102201",
    "prefecture": "静岡県",
    "prefecture_kana": "シズオカケン",
    "prefecture_code": 22,
    "city": "伊豆の国市",
    "city_kana": "イズノクニシ",
    "town": "古奈",
    "town_kana": "コナ",
    "street": null,
    "office_name": null,
    "office_name_kana": null
  },
  "2202": {
    "zip_code": "4102202",
    "prefecture": "静岡県",
    "prefecture_kana": "シズオカケン",
    "prefecture_code": 22,
    "city": "伊豆の国市",
    "city_kana": "イズノクニシ",
    "town": "天野",
    "town_kana": "アマノ",
    "street": null,
    "office_name": null,
    "office_name_kana": null
  },
  "2203": {
    "zip_code": "4102203",
    "prefecture": "静岡県",
    "prefecture_kana": "シズオカケン",
    "prefecture_code": 22,
    "city": "伊豆の国市",
    "city_kana": "イズノクニシ",
    "town": "小坂",
    "town_kana": "オサカ",
    "street": null,
    "office_name": null,
    "office_name_kana": null
  },
  "2204": {
    "zip_code": "4102204",
    "prefecture": "静岡県",
    "prefecture_kana": "シズオカケン",
    "prefecture_code": 22,
    "city": "伊豆の国市",
    "city_kana": "イズノクニシ",
    "town": "墹之上",
    "town_kana": "ママノウエ",
    "street": null,
    "office_name": null,
    "office_name_kana": null
  },
  "2205": {
    "zip_code": "4102205",
    "prefecture": "静岡県",
    "prefecture_kana": "シズオカケン",
    "prefecture_code": 22,
    "city": "伊豆の国市",
    "city_kana": "イズノクニシ",
    "town": "富士見",
    "town_kana": "フジミ",
    "street": null,
    "office_name": null,
    "office_name_kana": null
  },
  "2211": {
    "zip_code": "4102211",
    "prefecture": "静岡県",
    "prefecture_kana": "シズオカケン",
    "prefecture_code": 22,
    "city": "伊豆の国市",
    "city_kana": "イズノクニシ",
    "town": "長岡",
    "town_kana": "ナガオカ",
    "street": null,
    "office_name": null,
    "office_name_kana": null
  },
  "2212": {
    "zip_code": "4102212",
    "prefecture": "静岡県",
    "prefecture_kana": "シズオカケン",
    "prefecture_code": 22,
    "city": "伊豆の国市",
    "city_kana": "イズノクニシ",
    "town": "長瀬",
    "town_kana": "ナガセ",
    "street": null,
    "office_name": null,
    "office_name_kana": null
  },
  "2213": {
    "zip_code": "4102213",
    "prefecture": "静岡県",
    "prefecture_kana": "シズオカケン",
    "prefecture_code": 22,
    "city": "伊豆の国市",
    "city_kana": "イズノクニシ",
    "town": "戸沢",
    "town_kana": "トサワ",
    "street": null,
    "office_name": null,
    "office_name_kana": null
  },
  "2214": {
    "zip_code": "4102214",
    "prefecture": "静岡県",
    "prefecture_kana": "シズオカケン",
    "prefecture_code": 22,
    "city": "伊豆の国市",
    "city_kana": "イズノクニシ",
    "town": "花坂",
    "town_kana": "ハナサカ",
    "street": null,
    "office_name": null,
    "office_name_kana": null
  },
  "2221": {
    "zip_code": "4102221",
    "prefecture": "静岡県",
    "prefecture_kana": "シズオカケン",
    "prefecture_code": 22,
    "city": "伊豆の国市",
    "city_kana": "イズノクニシ",
    "town": "南江間",
    "town_kana": "ミナミエマ",
    "street": null,
    "office_name": null,
    "office_name_kana": null
  },
  "2223": {
    "zip_code": "4102223",
    "prefecture": "静岡県",
    "prefecture_kana": "シズオカケン",
    "prefecture_code": 22,
    "city": "伊豆の国市",
    "city_kana": "イズノクニシ",
    "town": "北江間",
    "town_kana": "キタエマ",
    "street": null,
    "office_name": null,
    "office_name_kana": null
  },
  "2292": {
    "zip_code": "4102292",
    "prefecture": "静岡県",
    "prefecture_kana": "シズオカケン",
    "prefecture_code": 22,
    "city": "伊豆の国市",
    "city_kana": "イズノクニシ",
    "town": "長岡",
    "town_kana": "ナガオカ",
    "street": "３４０−１",
    "office_name": "伊豆の国市役所",
    "office_name_kana": "イズノクニシヤクシヨ"
  },
  "2295": {
    "zip_code": "4102295",
    "prefecture": "静岡県",
    "prefecture_kana": "シズオカケン",
    "prefecture_code": 22,
    "city": "伊豆の国市",
    "city_kana": "イズノクニシ",
    "town": "長岡",
    "town_kana": "ナガオカ",
    "street": "１１２９",
    "office_name": "順天堂大学　医学部附属　静岡病院",
    "office_name_kana": "ジユンテンドウダイガク イガクブフゾク シズオカビヨウイン"
  },
  "2297": {
    "zip_code": "4102297",
    "prefecture": "静岡県",
    "prefecture_kana": "シズオカケン",
    "prefecture_code": 22,
    "city": "伊豆の国市",
    "city_kana": "イズノクニシ",
    "town": "墹之上",
    "town_kana": "ママノウエ",
    "street": "２７０−１",
    "office_name": "株式会社　コクド　三養荘",
    "office_name_kana": "カブシキガイシヤ コクド サンヨウソウ"
  },
  "2301": {
    "zip_code": "4102301",
    "prefecture": "静岡県",
    "prefecture_kana": "シズオカケン",
    "prefecture_code": 22,
    "city": "伊豆の国市",
    "city_kana": "イズノクニシ",
    "town": "田中山",
    "town_kana": "タナカヤマ",
    "street": null,
    "office_name": null,
    "office_name_kana": null
  },
  "2302": {
    "zip_code": "4102302",
    "prefecture": "静岡県",
    "prefecture_kana": "シズオカケン",
    "prefecture_code": 22,
    "city": "伊豆の国市",
    "city_kana": "イズノクニシ",
    "town": "宗光寺",
    "town_kana": "ソウコウジ",
    "street": null,
    "office_name": null,
    "office_name_kana": null
  },
  "2303": {
    "zip_code": "4102303",
    "prefecture": "静岡県",
    "prefecture_kana": "シズオカケン",
    "prefecture_code": 22,
    "city": "伊豆の国市",
    "city_kana": "イズノクニシ",
    "town": "立花",
    "town_kana": "タチバナ",
    "street": null,
    "office_name": null,
    "office_name_kana": null
  },
  "2304": [
    {
      "zip_code": "4102304",
      "prefecture": "静岡県",
      "prefecture_kana": "シズオカケン",
      "prefecture_code": 22,
      "city": "伊豆の国市",
      "city_kana": "イズノクニシ",
      "town": "宗光寺",
      "town_kana": "ソウコウジ",
      "street": null,
      "office_name": null,
      "office_name_kana": null
    },
    {
      "zip_code": "4102304",
      "prefecture": "静岡県",
      "prefecture_kana": "シズオカケン",
      "prefecture_code": 22,
      "city": "伊豆の国市",
      "city_kana": "イズノクニシ",
      "town": "宗光寺星和",
      "town_kana": "ソウコウジセイワ",
      "street": null,
      "office_name": null,
      "office_name_kana": null
    }
  ],
  "2311": {
    "zip_code": "4102311",
    "prefecture": "静岡県",
    "prefecture_kana": "シズオカケン",
    "prefecture_code": 22,
    "city": "伊豆の国市",
    "city_kana": "イズノクニシ",
    "town": "浮橋",
    "town_kana": "ウキハシ",
    "street": null,
    "office_name": null,
    "office_name_kana": null
  },
  "2312": {
    "zip_code": "4102312",
    "prefecture": "静岡県",
    "prefecture_kana": "シズオカケン",
    "prefecture_code": 22,
    "city": "伊豆の国市",
    "city_kana": "イズノクニシ",
    "town": "長者原",
    "town_kana": "チョウジャガハラ",
    "street": null,
    "office_name": null,
    "office_name_kana": null
  },
  "2313": {
    "zip_code": "4102313",
    "prefecture": "静岡県",
    "prefecture_kana": "シズオカケン",
    "prefecture_code": 22,
    "city": "伊豆の国市",
    "city_kana": "イズノクニシ",
    "town": "田原野",
    "town_kana": "タワラノ",
    "street": null,
    "office_name": null,
    "office_name_kana": null
  },
  "2314": {
    "zip_code": "4102314",
    "prefecture": "静岡県",
    "prefecture_kana": "シズオカケン",
    "prefecture_code": 22,
    "city": "伊豆の国市",
    "city_kana": "イズノクニシ",
    "town": "下畑",
    "town_kana": "シモハタ",
    "street": null,
    "office_name": null,
    "office_name_kana": null
  },
  "2315": {
    "zip_code": "4102315",
    "prefecture": "静岡県",
    "prefecture_kana": "シズオカケン",
    "prefecture_code": 22,
    "city": "伊豆の国市",
    "city_kana": "イズノクニシ",
    "town": "田京",
    "town_kana": "タキョウ",
    "street": null,
    "office_name": null,
    "office_name_kana": null
  },
  "2316": {
    "zip_code": "4102316",
    "prefecture": "静岡県",
    "prefecture_kana": "シズオカケン",
    "prefecture_code": 22,
    "city": "伊豆の国市",
    "city_kana": "イズノクニシ",
    "town": "御門",
    "town_kana": "ミカド",
    "street": null,
    "office_name": null,
    "office_name_kana": null
  },
  "2317": {
    "zip_code": "4102317",
    "prefecture": "静岡県",
    "prefecture_kana": "シズオカケン",
    "prefecture_code": 22,
    "city": "伊豆の国市",
    "city_kana": "イズノクニシ",
    "town": "守木",
    "town_kana": "モリキ",
    "street": null,
    "office_name": null,
    "office_name_kana": null
  },
  "2318": {
    "zip_code": "4102318",
    "prefecture": "静岡県",
    "prefecture_kana": "シズオカケン",
    "prefecture_code": 22,
    "city": "伊豆の国市",
    "city_kana": "イズノクニシ",
    "town": "白山堂",
    "town_kana": "シラヤマドウ",
    "street": null,
    "office_name": null,
    "office_name_kana": null
  },
  "2321": {
    "zip_code": "4102321",
    "prefecture": "静岡県",
    "prefecture_kana": "シズオカケン",
    "prefecture_code": 22,
    "city": "伊豆の国市",
    "city_kana": "イズノクニシ",
    "town": "三福",
    "town_kana": "ミフク",
    "street": null,
    "office_name": null,
    "office_name_kana": null
  },
  "2322": {
    "zip_code": "4102322",
    "prefecture": "静岡県",
    "prefecture_kana": "シズオカケン",
    "prefecture_code": 22,
    "city": "伊豆の国市",
    "city_kana": "イズノクニシ",
    "town": "吉田",
    "town_kana": "ヨシダ",
    "street": null,
    "office_name": null,
    "office_name_kana": null
  },
  "2323": {
    "zip_code": "4102323",
    "prefecture": "静岡県",
    "prefecture_kana": "シズオカケン",
    "prefecture_code": 22,
    "city": "伊豆の国市",
    "city_kana": "イズノクニシ",
    "town": "大仁",
    "town_kana": "オオヒト",
    "street": null,
    "office_name": null,
    "office_name_kana": null
  },
  "2324": {
    "zip_code": "4102324",
    "prefecture": "静岡県",
    "prefecture_kana": "シズオカケン",
    "prefecture_code": 22,
    "city": "伊豆の国市",
    "city_kana": "イズノクニシ",
    "town": "中島",
    "town_kana": "ナカジマ",
    "street": null,
    "office_name": null,
    "office_name_kana": null
  },
  "2325": {
    "zip_code": "4102325",
    "prefecture": "静岡県",
    "prefecture_kana": "シズオカケン",
    "prefecture_code": 22,
    "city": "伊豆の国市",
    "city_kana": "イズノクニシ",
    "town": "神島",
    "town_kana": "カミシマ",
    "street": null,
    "office_name": null,
    "office_name_kana": null
  },
  "2392": {
    "zip_code": "4102392",
    "prefecture": "静岡県",
    "prefecture_kana": "シズオカケン",
    "prefecture_code": 22,
    "city": "伊豆の国市",
    "city_kana": "イズノクニシ",
    "town": "大仁",
    "town_kana": "オオヒト",
    "street": "５７０",
    "office_name": "東芝テック　株式会社　大仁事業所",
    "office_name_kana": "トウシバテツク カブシキガイシヤ オオヒトジギヨウシヨ"
  },
  "2393": {
    "zip_code": "4102393",
    "prefecture": "静岡県",
    "prefecture_kana": "シズオカケン",
    "prefecture_code": 22,
    "city": "伊豆の国市",
    "city_kana": "イズノクニシ",
    "town": "立花",
    "town_kana": "タチバナ",
    "street": "３丁目１６２",
    "office_name": "ワールドメイト",
    "office_name_kana": "ワ-ルドメイト"
  },
  "2394": {
    "zip_code": "4102394",
    "prefecture": "静岡県",
    "prefecture_kana": "シズオカケン",
    "prefecture_code": 22,
    "city": "伊豆の国市",
    "city_kana": "イズノクニシ",
    "town": "長者原",
    "town_kana": "チョウジャガハラ",
    "street": "１４４５−４８１",
    "office_name": "ニッサン・モータースポーツ・インターナショナル　（株）　モビリティーパーク事業部",
    "office_name_kana": "ニツサン・モ-タ-スポ-ツ・インタ-ナシヨナル (カブ) モビリテイ-パ-クジギヨウブ"
  },
  "2395": {
    "zip_code": "4102395",
    "prefecture": "静岡県",
    "prefecture_kana": "シズオカケン",
    "prefecture_code": 22,
    "city": "伊豆の国市",
    "city_kana": "イズノクニシ",
    "town": "大仁",
    "town_kana": "オオヒト",
    "street": "３３４",
    "office_name": "静岡県立　大仁高等学校",
    "office_name_kana": "シズオカケンリツ オオヒトコウトウガツコウ"
  },
  "2396": {
    "zip_code": "4102396",
    "prefecture": "静岡県",
    "prefecture_kana": "シズオカケン",
    "prefecture_code": 22,
    "city": "伊豆の国市",
    "city_kana": "イズノクニシ",
    "town": "田京",
    "town_kana": "タキョウ",
    "street": "２９９−６",
    "office_name": "伊豆の国市役所　大仁支所",
    "office_name_kana": "イズノクニシヤクシヨ オオヒトシシヨ"
  },
  "2400": {
    "zip_code": "4102400",
    "prefecture": "静岡県",
    "prefecture_kana": "シズオカケン",
    "prefecture_code": 22,
    "city": "伊豆市",
    "city_kana": "イズシ",
    "town": "",
    "town_kana": "",
    "street": null,
    "office_name": null,
    "office_name_kana": null
  },
  "2401": {
    "zip_code": "4102401",
    "prefecture": "静岡県",
    "prefecture_kana": "シズオカケン",
    "prefecture_code": 22,
    "city": "伊豆市",
    "city_kana": "イズシ",
    "town": "牧之郷",
    "town_kana": "マキノコウ",
    "street": null,
    "office_name": null,
    "office_name_kana": null
  },
  "2402": {
    "zip_code": "4102402",
    "prefecture": "静岡県",
    "prefecture_kana": "シズオカケン",
    "prefecture_code": 22,
    "city": "伊豆市",
    "city_kana": "イズシ",
    "town": "大野",
    "town_kana": "オオノ",
    "street": null,
    "office_name": null,
    "office_name_kana": null
  },
  "2403": {
    "zip_code": "4102403",
    "prefecture": "静岡県",
    "prefecture_kana": "シズオカケン",
    "prefecture_code": 22,
    "city": "伊豆市",
    "city_kana": "イズシ",
    "town": "年川",
    "town_kana": "トシガワ",
    "street": null,
    "office_name": null,
    "office_name_kana": null
  },
  "2404": {
    "zip_code": "4102404",
    "prefecture": "静岡県",
    "prefecture_kana": "シズオカケン",
    "prefecture_code": 22,
    "city": "伊豆市",
    "city_kana": "イズシ",
    "town": "田代",
    "town_kana": "タシロ",
    "street": null,
    "office_name": null,
    "office_name_kana": null
  },
  "2405": {
    "zip_code": "4102405",
    "prefecture": "静岡県",
    "prefecture_kana": "シズオカケン",
    "prefecture_code": 22,
    "city": "伊豆市",
    "city_kana": "イズシ",
    "town": "加殿",
    "town_kana": "カドノ",
    "street": null,
    "office_name": null,
    "office_name_kana": null
  },
  "2406": {
    "zip_code": "4102406",
    "prefecture": "静岡県",
    "prefecture_kana": "シズオカケン",
    "prefecture_code": 22,
    "city": "伊豆市",
    "city_kana": "イズシ",
    "town": "日向",
    "town_kana": "ヒナタ",
    "street": null,
    "office_name": null,
    "office_name_kana": null
  },
  "2407": {
    "zip_code": "4102407",
    "prefecture": "静岡県",
    "prefecture_kana": "シズオカケン",
    "prefecture_code": 22,
    "city": "伊豆市",
    "city_kana": "イズシ",
    "town": "柏久保",
    "town_kana": "カシワクボ",
    "street": null,
    "office_name": null,
    "office_name_kana": null
  },
  "2411": {
    "zip_code": "4102411",
    "prefecture": "静岡県",
    "prefecture_kana": "シズオカケン",
    "prefecture_code": 22,
    "city": "伊豆市",
    "city_kana": "イズシ",
    "town": "熊坂",
    "town_kana": "クマサカ",
    "street": null,
    "office_name": null,
    "office_name_kana": null
  },
  "2412": {
    "zip_code": "4102412",
    "prefecture": "静岡県",
    "prefecture_kana": "シズオカケン",
    "prefecture_code": 22,
    "city": "伊豆市",
    "city_kana": "イズシ",
    "town": "瓜生野",
    "town_kana": "ウリュウノ",
    "street": null,
    "office_name": null,
    "office_name_kana": null
  },
  "2413": {
    "zip_code": "4102413",
    "prefecture": "静岡県",
    "prefecture_kana": "シズオカケン",
    "prefecture_code": 22,
    "city": "伊豆市",
    "city_kana": "イズシ",
    "town": "小立野",
    "town_kana": "コダチノ",
    "street": null,
    "office_name": null,
    "office_name_kana": null
  },
  "2414": {
    "zip_code": "4102414",
    "prefecture": "静岡県",
    "prefecture_kana": "シズオカケン",
    "prefecture_code": 22,
    "city": "伊豆市",
    "city_kana": "イズシ",
    "town": "本立野",
    "town_kana": "ホンダチノ",
    "street": null,
    "office_name": null,
    "office_name_kana": null
  },
  "2415": {
    "zip_code": "4102415",
    "prefecture": "静岡県",
    "prefecture_kana": "シズオカケン",
    "prefecture_code": 22,
    "city": "伊豆市",
    "city_kana": "イズシ",
    "town": "大平",
    "town_kana": "オオダイラ",
    "street": null,
    "office_name": null,
    "office_name_kana": null
  },
  "2416": {
    "zip_code": "4102416",
    "prefecture": "静岡県",
    "prefecture_kana": "シズオカケン",
    "prefecture_code": 22,
    "city": "伊豆市",
    "city_kana": "イズシ",
    "town": "修善寺",
    "town_kana": "シュゼンジ",
    "street": null,
    "office_name": null,
    "office_name_kana": null
  },
  "2417": {
    "zip_code": "4102417",
    "prefecture": "静岡県",
    "prefecture_kana": "シズオカケン",
    "prefecture_code": 22,
    "city": "伊豆市",
    "city_kana": "イズシ",
    "town": "大沢",
    "town_kana": "オオサワ",
    "street": null,
    "office_name": null,
    "office_name_kana": null
  },
  "2418": {
    "zip_code": "4102418",
    "prefecture": "静岡県",
    "prefecture_kana": "シズオカケン",
    "prefecture_code": 22,
    "city": "伊豆市",
    "city_kana": "イズシ",
    "town": "堀切",
    "town_kana": "ホリギリ",
    "street": null,
    "office_name": null,
    "office_name_kana": null
  },
  "2501": {
    "zip_code": "4102501",
    "prefecture": "静岡県",
    "prefecture_kana": "シズオカケン",
    "prefecture_code": 22,
    "city": "伊豆市",
    "city_kana": "イズシ",
    "town": "下白岩",
    "town_kana": "シモシライワ",
    "street": null,
    "office_name": null,
    "office_name_kana": null
  },
  "2502": {
    "zip_code": "4102502",
    "prefecture": "静岡県",
    "prefecture_kana": "シズオカケン",
    "prefecture_code": 22,
    "city": "伊豆市",
    "city_kana": "イズシ",
    "town": "上白岩",
    "town_kana": "カミシライワ",
    "street": null,
    "office_name": null,
    "office_name_kana": null
  },
  "2503": {
    "zip_code": "4102503",
    "prefecture": "静岡県",
    "prefecture_kana": "シズオカケン",
    "prefecture_code": 22,
    "city": "伊豆市",
    "city_kana": "イズシ",
    "town": "城",
    "town_kana": "ジョウ",
    "street": null,
    "office_name": null,
    "office_name_kana": null
  },
  "2504": {
    "zip_code": "4102504",
    "prefecture": "静岡県",
    "prefecture_kana": "シズオカケン",
    "prefecture_code": 22,
    "city": "伊豆市",
    "city_kana": "イズシ",
    "town": "関野",
    "town_kana": "セキノ",
    "street": null,
    "office_name": null,
    "office_name_kana": null
  },
  "2505": {
    "zip_code": "4102505",
    "prefecture": "静岡県",
    "prefecture_kana": "シズオカケン",
    "prefecture_code": 22,
    "city": "伊豆市",
    "city_kana": "イズシ",
    "town": "八幡",
    "town_kana": "ハツマ",
    "street": null,
    "office_name": null,
    "office_name_kana": null
  },
  "2506": {
    "zip_code": "4102506",
    "prefecture": "静岡県",
    "prefecture_kana": "シズオカケン",
    "prefecture_code": 22,
    "city": "伊豆市",
    "city_kana": "イズシ",
    "town": "徳永",
    "town_kana": "トクナガ",
    "street": null,
    "office_name": null,
    "office_name_kana": null
  },
  "2507": {
    "zip_code": "4102507",
    "prefecture": "静岡県",
    "prefecture_kana": "シズオカケン",
    "prefecture_code": 22,
    "city": "伊豆市",
    "city_kana": "イズシ",
    "town": "冷川",
    "town_kana": "ヒエカワ",
    "street": null,
    "office_name": null,
    "office_name_kana": null
  },
  "2508": {
    "zip_code": "4102508",
    "prefecture": "静岡県",
    "prefecture_kana": "シズオカケン",
    "prefecture_code": 22,
    "city": "伊豆市",
    "city_kana": "イズシ",
    "town": "柳瀬",
    "town_kana": "ヤナセ",
    "street": null,
    "office_name": null,
    "office_name_kana": null
  },
  "2509": {
    "zip_code": "4102509",
    "prefecture": "静岡県",
    "prefecture_kana": "シズオカケン",
    "prefecture_code": 22,
    "city": "伊豆市",
    "city_kana": "イズシ",
    "town": "梅木",
    "town_kana": "ウメギ",
    "street": null,
    "office_name": null,
    "office_name_kana": null
  },
  "2511": {
    "zip_code": "4102511",
    "prefecture": "静岡県",
    "prefecture_kana": "シズオカケン",
    "prefecture_code": 22,
    "city": "伊豆市",
    "city_kana": "イズシ",
    "town": "宮上",
    "town_kana": "ミヤカミ",
    "street": null,
    "office_name": null,
    "office_name_kana": null
  },
  "2512": {
    "zip_code": "4102512",
    "prefecture": "静岡県",
    "prefecture_kana": "シズオカケン",
    "prefecture_code": 22,
    "city": "伊豆市",
    "city_kana": "イズシ",
    "town": "中原戸",
    "town_kana": "ナカハラト",
    "street": null,
    "office_name": null,
    "office_name_kana": null
  },
  "2513": {
    "zip_code": "4102513",
    "prefecture": "静岡県",
    "prefecture_kana": "シズオカケン",
    "prefecture_code": 22,
    "city": "伊豆市",
    "city_kana": "イズシ",
    "town": "菅引",
    "town_kana": "スゲヒキ",
    "street": null,
    "office_name": null,
    "office_name_kana": null
  },
  "2514": {
    "zip_code": "4102514",
    "prefecture": "静岡県",
    "prefecture_kana": "シズオカケン",
    "prefecture_code": 22,
    "city": "伊豆市",
    "city_kana": "イズシ",
    "town": "原保",
    "town_kana": "ワラボ",
    "street": null,
    "office_name": null,
    "office_name_kana": null
  },
  "2515": {
    "zip_code": "4102515",
    "prefecture": "静岡県",
    "prefecture_kana": "シズオカケン",
    "prefecture_code": 22,
    "city": "伊豆市",
    "city_kana": "イズシ",
    "town": "地蔵堂",
    "town_kana": "ジゾウドウ",
    "street": null,
    "office_name": null,
    "office_name_kana": null
  },
  "2516": {
    "zip_code": "4102516",
    "prefecture": "静岡県",
    "prefecture_kana": "シズオカケン",
    "prefecture_code": 22,
    "city": "伊豆市",
    "city_kana": "イズシ",
    "town": "筏場",
    "town_kana": "イカダバ",
    "street": null,
    "office_name": null,
    "office_name_kana": null
  },
  "2517": {
    "zip_code": "4102517",
    "prefecture": "静岡県",
    "prefecture_kana": "シズオカケン",
    "prefecture_code": 22,
    "city": "伊豆市",
    "city_kana": "イズシ",
    "town": "貴僧坊",
    "town_kana": "キソウボウ",
    "street": null,
    "office_name": null,
    "office_name_kana": null
  },
  "2518": {
    "zip_code": "4102518",
    "prefecture": "静岡県",
    "prefecture_kana": "シズオカケン",
    "prefecture_code": 22,
    "city": "伊豆市",
    "city_kana": "イズシ",
    "town": "姫之湯",
    "town_kana": "ヒメノユ",
    "street": null,
    "office_name": null,
    "office_name_kana": null
  },
  "2519": {
    "zip_code": "4102519",
    "prefecture": "静岡県",
    "prefecture_kana": "シズオカケン",
    "prefecture_code": 22,
    "city": "伊豆市",
    "city_kana": "イズシ",
    "town": "戸倉野",
    "town_kana": "トクラノ",
    "street": null,
    "office_name": null,
    "office_name_kana": null
  },
  "2592": {
    "zip_code": "4102592",
    "prefecture": "静岡県",
    "prefecture_kana": "シズオカケン",
    "prefecture_code": 22,
    "city": "伊豆市",
    "city_kana": "イズシ",
    "town": "八幡",
    "town_kana": "ハツマ",
    "street": "５００−１",
    "office_name": "伊豆市　中伊豆支所",
    "office_name_kana": "イズシ ナカイズシシヨ"
  },
  "3201": {
    "zip_code": "4103201",
    "prefecture": "静岡県",
    "prefecture_kana": "シズオカケン",
    "prefecture_code": 22,
    "city": "伊豆市",
    "city_kana": "イズシ",
    "town": "佐野",
    "town_kana": "サノ",
    "street": null,
    "office_name": null,
    "office_name_kana": null
  },
  "3202": {
    "zip_code": "4103202",
    "prefecture": "静岡県",
    "prefecture_kana": "シズオカケン",
    "prefecture_code": 22,
    "city": "伊豆市",
    "city_kana": "イズシ",
    "town": "雲金",
    "town_kana": "クモガネ",
    "street": null,
    "office_name": null,
    "office_name_kana": null
  },
  "3203": {
    "zip_code": "4103203",
    "prefecture": "静岡県",
    "prefecture_kana": "シズオカケン",
    "prefecture_code": 22,
    "city": "伊豆市",
    "city_kana": "イズシ",
    "town": "矢熊",
    "town_kana": "ヤグマ",
    "street": null,
    "office_name": null,
    "office_name_kana": null
  },
  "3204": {
    "zip_code": "4103204",
    "prefecture": "静岡県",
    "prefecture_kana": "シズオカケン",
    "prefecture_code": 22,
    "city": "伊豆市",
    "city_kana": "イズシ",
    "town": "田沢",
    "town_kana": "タザワ",
    "street": null,
    "office_name": null,
    "office_name_kana": null
  },
  "3205": {
    "zip_code": "4103205",
    "prefecture": "静岡県",
    "prefecture_kana": "シズオカケン",
    "prefecture_code": 22,
    "city": "伊豆市",
    "city_kana": "イズシ",
    "town": "市山",
    "town_kana": "イチヤマ",
    "street": null,
    "office_name": null,
    "office_name_kana": null
  },
  "3206": {
    "zip_code": "4103206",
    "prefecture": "静岡県",
    "prefecture_kana": "シズオカケン",
    "prefecture_code": 22,
    "city": "伊豆市",
    "city_kana": "イズシ",
    "town": "湯ケ島",
    "town_kana": "ユガシマ",
    "street": null,
    "office_name": null,
    "office_name_kana": null
  },
  "3207": {
    "zip_code": "4103207",
    "prefecture": "静岡県",
    "prefecture_kana": "シズオカケン",
    "prefecture_code": 22,
    "city": "伊豆市",
    "city_kana": "イズシ",
    "town": "持越",
    "town_kana": "モチコシ",
    "street": null,
    "office_name": null,
    "office_name_kana": null
  },
  "3208": {
    "zip_code": "4103208",
    "prefecture": "静岡県",
    "prefecture_kana": "シズオカケン",
    "prefecture_code": 22,
    "city": "伊豆市",
    "city_kana": "イズシ",
    "town": "吉奈",
    "town_kana": "ヨシナ",
    "street": null,
    "office_name": null,
    "office_name_kana": null
  },
  "3209": {
    "zip_code": "4103209",
    "prefecture": "静岡県",
    "prefecture_kana": "シズオカケン",
    "prefecture_code": 22,
    "city": "伊豆市",
    "city_kana": "イズシ",
    "town": "門野原",
    "town_kana": "カドノハラ",
    "street": null,
    "office_name": null,
    "office_name_kana": null
  },
  "3211": {
    "zip_code": "4103211",
    "prefecture": "静岡県",
    "prefecture_kana": "シズオカケン",
    "prefecture_code": 22,
    "city": "伊豆市",
    "city_kana": "イズシ",
    "town": "松ケ瀬",
    "town_kana": "マツガセ",
    "street": null,
    "office_name": null,
    "office_name_kana": null
  },
  "3212": {
    "zip_code": "4103212",
    "prefecture": "静岡県",
    "prefecture_kana": "シズオカケン",
    "prefecture_code": 22,
    "city": "伊豆市",
    "city_kana": "イズシ",
    "town": "本柿木",
    "town_kana": "ホンカキギ",
    "street": null,
    "office_name": null,
    "office_name_kana": null
  },
  "3213": {
    "zip_code": "4103213",
    "prefecture": "静岡県",
    "prefecture_kana": "シズオカケン",
    "prefecture_code": 22,
    "city": "伊豆市",
    "city_kana": "イズシ",
    "town": "青羽根",
    "town_kana": "アオバネ",
    "street": null,
    "office_name": null,
    "office_name_kana": null
  },
  "3214": {
    "zip_code": "4103214",
    "prefecture": "静岡県",
    "prefecture_kana": "シズオカケン",
    "prefecture_code": 22,
    "city": "伊豆市",
    "city_kana": "イズシ",
    "town": "下船原",
    "town_kana": "シモフナバラ",
    "street": null,
    "office_name": null,
    "office_name_kana": null
  },
  "3215": {
    "zip_code": "4103215",
    "prefecture": "静岡県",
    "prefecture_kana": "シズオカケン",
    "prefecture_code": 22,
    "city": "伊豆市",
    "city_kana": "イズシ",
    "town": "月ケ瀬",
    "town_kana": "ツキガセ",
    "street": null,
    "office_name": null,
    "office_name_kana": null
  },
  "3216": {
    "zip_code": "4103216",
    "prefecture": "静岡県",
    "prefecture_kana": "シズオカケン",
    "prefecture_code": 22,
    "city": "伊豆市",
    "city_kana": "イズシ",
    "town": "上船原",
    "town_kana": "カミフナバラ",
    "street": null,
    "office_name": null,
    "office_name_kana": null
  },
  "3217": {
    "zip_code": "4103217",
    "prefecture": "静岡県",
    "prefecture_kana": "シズオカケン",
    "prefecture_code": 22,
    "city": "伊豆市",
    "city_kana": "イズシ",
    "town": "大平柿木",
    "town_kana": "オオダイラカキギ",
    "street": null,
    "office_name": null,
    "office_name_kana": null
  },
  "3292": {
    "zip_code": "4103292",
    "prefecture": "静岡県",
    "prefecture_kana": "シズオカケン",
    "prefecture_code": 22,
    "city": "伊豆市",
    "city_kana": "イズシ",
    "town": "市山",
    "town_kana": "イチヤマ",
    "street": "５５０",
    "office_name": "伊豆市役所　天城湯ヶ島支所",
    "office_name_kana": "イズシヤクシヨ アマギユガシマシシヨ"
  },
  "3301": {
    "zip_code": "4103301",
    "prefecture": "静岡県",
    "prefecture_kana": "シズオカケン",
    "prefecture_code": 22,
    "city": "伊豆市",
    "city_kana": "イズシ",
    "town": "小土肥",
    "town_kana": "オドイ",
    "street": null,
    "office_name": null,
    "office_name_kana": null
  },
  "3302": {
    "zip_code": "4103302",
    "prefecture": "静岡県",
    "prefecture_kana": "シズオカケン",
    "prefecture_code": 22,
    "city": "伊豆市",
    "city_kana": "イズシ",
    "town": "土肥",
    "town_kana": "トイ",
    "street": null,
    "office_name": null,
    "office_name_kana": null
  },
  "3303": {
    "zip_code": "4103303",
    "prefecture": "静岡県",
    "prefecture_kana": "シズオカケン",
    "prefecture_code": 22,
    "city": "伊豆市",
    "city_kana": "イズシ",
    "town": "八木沢",
    "town_kana": "ヤギサワ",
    "street": null,
    "office_name": null,
    "office_name_kana": null
  },
  "3304": {
    "zip_code": "4103304",
    "prefecture": "静岡県",
    "prefecture_kana": "シズオカケン",
    "prefecture_code": 22,
    "city": "伊豆市",
    "city_kana": "イズシ",
    "town": "小下田",
    "town_kana": "コシモダ",
    "street": null,
    "office_name": null,
    "office_name_kana": null
  },
  "3401": {
    "zip_code": "4103401",
    "prefecture": "静岡県",
    "prefecture_kana": "シズオカケン",
    "prefecture_code": 22,
    "city": "沼津市",
    "city_kana": "ヌマヅシ",
    "town": "井田",
    "town_kana": "イタ",
    "street": null,
    "office_name": null,
    "office_name_kana": null
  },
  "3402": {
    "zip_code": "4103402",
    "prefecture": "静岡県",
    "prefecture_kana": "シズオカケン",
    "prefecture_code": 22,
    "city": "沼津市",
    "city_kana": "ヌマヅシ",
    "town": "戸田",
    "town_kana": "ヘダ",
    "street": null,
    "office_name": null,
    "office_name_kana": null
  },
  "3500": {
    "zip_code": "4103500",
    "prefecture": "静岡県",
    "prefecture_kana": "シズオカケン",
    "prefecture_code": 22,
    "city": "賀茂郡西伊豆町",
    "city_kana": "カモグンニシイズチョウ",
    "town": "",
    "town_kana": "",
    "street": null,
    "office_name": null,
    "office_name_kana": null
  },
  "3501": {
    "zip_code": "4103501",
    "prefecture": "静岡県",
    "prefecture_kana": "シズオカケン",
    "prefecture_code": 22,
    "city": "賀茂郡西伊豆町",
    "city_kana": "カモグンニシイズチョウ",
    "town": "宇久須",
    "town_kana": "ウグス",
    "street": null,
    "office_name": null,
    "office_name_kana": null
  },
  "3502": {
    "zip_code": "4103502",
    "prefecture": "静岡県",
    "prefecture_kana": "シズオカケン",
    "prefecture_code": 22,
    "city": "賀茂郡西伊豆町",
    "city_kana": "カモグンニシイズチョウ",
    "town": "安良里",
    "town_kana": "アラリ",
    "street": null,
    "office_name": null,
    "office_name_kana": null
  },
  "3511": {
    "zip_code": "4103511",
    "prefecture": "静岡県",
    "prefecture_kana": "シズオカケン",
    "prefecture_code": 22,
    "city": "賀茂郡西伊豆町",
    "city_kana": "カモグンニシイズチョウ",
    "town": "大沢里",
    "town_kana": "オオソウリ",
    "street": null,
    "office_name": null,
    "office_name_kana": null
  },
  "3512": {
    "zip_code": "4103512",
    "prefecture": "静岡県",
    "prefecture_kana": "シズオカケン",
    "prefecture_code": 22,
    "city": "賀茂郡西伊豆町",
    "city_kana": "カモグンニシイズチョウ",
    "town": "一色",
    "town_kana": "イシキ",
    "street": null,
    "office_name": null,
    "office_name_kana": null
  },
  "3513": {
    "zip_code": "4103513",
    "prefecture": "静岡県",
    "prefecture_kana": "シズオカケン",
    "prefecture_code": 22,
    "city": "賀茂郡西伊豆町",
    "city_kana": "カモグンニシイズチョウ",
    "town": "中",
    "town_kana": "ナカ",
    "street": null,
    "office_name": null,
    "office_name_kana": null
  },
  "3514": {
    "zip_code": "4103514",
    "prefecture": "静岡県",
    "prefecture_kana": "シズオカケン",
    "prefecture_code": 22,
    "city": "賀茂郡西伊豆町",
    "city_kana": "カモグンニシイズチョウ",
    "town": "仁科",
    "town_kana": "ニシナ",
    "street": null,
    "office_name": null,
    "office_name_kana": null
  },
  "3515": {
    "zip_code": "4103515",
    "prefecture": "静岡県",
    "prefecture_kana": "シズオカケン",
    "prefecture_code": 22,
    "city": "賀茂郡西伊豆町",
    "city_kana": "カモグンニシイズチョウ",
    "town": "田子",
    "town_kana": "タゴ",
    "street": null,
    "office_name": null,
    "office_name_kana": null
  },
  "3600": {
    "zip_code": "4103600",
    "prefecture": "静岡県",
    "prefecture_kana": "シズオカケン",
    "prefecture_code": 22,
    "city": "賀茂郡松崎町",
    "city_kana": "カモグンマツザキチョウ",
    "town": "",
    "town_kana": "",
    "street": null,
    "office_name": null,
    "office_name_kana": null
  },
  "3601": {
    "zip_code": "4103601",
    "prefecture": "静岡県",
    "prefecture_kana": "シズオカケン",
    "prefecture_code": 22,
    "city": "賀茂郡松崎町",
    "city_kana": "カモグンマツザキチョウ",
    "town": "池代",
    "town_kana": "イケシロ",
    "street": null,
    "office_name": null,
    "office_name_kana": null
  },
  "3602": {
    "zip_code": "4103602",
    "prefecture": "静岡県",
    "prefecture_kana": "シズオカケン",
    "prefecture_code": 22,
    "city": "賀茂郡松崎町",
    "city_kana": "カモグンマツザキチョウ",
    "town": "小杉原",
    "town_kana": "コスギハラ",
    "street": null,
    "office_name": null,
    "office_name_kana": null
  },
  "3603": {
    "zip_code": "4103603",
    "prefecture": "静岡県",
    "prefecture_kana": "シズオカケン",
    "prefecture_code": 22,
    "city": "賀茂郡松崎町",
    "city_kana": "カモグンマツザキチョウ",
    "town": "明伏",
    "town_kana": "アケブシ",
    "street": null,
    "office_name": null,
    "office_name_kana": null
  },
  "3604": {
    "zip_code": "4103604",
    "prefecture": "静岡県",
    "prefecture_kana": "シズオカケン",
    "prefecture_code": 22,
    "city": "賀茂郡松崎町",
    "city_kana": "カモグンマツザキチョウ",
    "town": "大沢",
    "town_kana": "オオサワ",
    "street": null,
    "office_name": null,
    "office_name_kana": null
  },
  "3605": {
    "zip_code": "4103605",
    "prefecture": "静岡県",
    "prefecture_kana": "シズオカケン",
    "prefecture_code": 22,
    "city": "賀茂郡松崎町",
    "city_kana": "カモグンマツザキチョウ",
    "town": "峰輪",
    "town_kana": "ミネワ",
    "street": null,
    "office_name": null,
    "office_name_kana": null
  },
  "3606": {
    "zip_code": "4103606",
    "prefecture": "静岡県",
    "prefecture_kana": "シズオカケン",
    "prefecture_code": 22,
    "city": "賀茂郡松崎町",
    "city_kana": "カモグンマツザキチョウ",
    "town": "船田",
    "town_kana": "フナタ",
    "street": null,
    "office_name": null,
    "office_name_kana": null
  },
  "3607": {
    "zip_code": "4103607",
    "prefecture": "静岡県",
    "prefecture_kana": "シズオカケン",
    "prefecture_code": 22,
    "city": "賀茂郡松崎町",
    "city_kana": "カモグンマツザキチョウ",
    "town": "門野",
    "town_kana": "カドノ",
    "street": null,
    "office_name": null,
    "office_name_kana": null
  },
  "3611": {
    "zip_code": "4103611",
    "prefecture": "静岡県",
    "prefecture_kana": "シズオカケン",
    "prefecture_code": 22,
    "city": "賀茂郡松崎町",
    "city_kana": "カモグンマツザキチョウ",
    "town": "松崎",
    "town_kana": "マツザキ",
    "street": null,
    "office_name": null,
    "office_name_kana": null
  },
  "3612": {
    "zip_code": "4103612",
    "prefecture": "静岡県",
    "prefecture_kana": "シズオカケン",
    "prefecture_code": 22,
    "city": "賀茂郡松崎町",
    "city_kana": "カモグンマツザキチョウ",
    "town": "宮内",
    "town_kana": "ミヤウチ",
    "street": null,
    "office_name": null,
    "office_name_kana": null
  },
  "3613": {
    "zip_code": "4103613",
    "prefecture": "静岡県",
    "prefecture_kana": "シズオカケン",
    "prefecture_code": 22,
    "city": "賀茂郡松崎町",
    "city_kana": "カモグンマツザキチョウ",
    "town": "岩科北側",
    "town_kana": "イワシナホクソク",
    "street": null,
    "office_name": null,
    "office_name_kana": null
  },
  "3614": {
    "zip_code": "4103614",
    "prefecture": "静岡県",
    "prefecture_kana": "シズオカケン",
    "prefecture_code": 22,
    "city": "賀茂郡松崎町",
    "city_kana": "カモグンマツザキチョウ",
    "town": "岩科南側",
    "town_kana": "イワシナナンソク",
    "street": null,
    "office_name": null,
    "office_name_kana": null
  },
  "3615": {
    "zip_code": "4103615",
    "prefecture": "静岡県",
    "prefecture_kana": "シズオカケン",
    "prefecture_code": 22,
    "city": "賀茂郡松崎町",
    "city_kana": "カモグンマツザキチョウ",
    "town": "雲見",
    "town_kana": "クモミ",
    "street": null,
    "office_name": null,
    "office_name_kana": null
  },
  "3616": {
    "zip_code": "4103616",
    "prefecture": "静岡県",
    "prefecture_kana": "シズオカケン",
    "prefecture_code": 22,
    "city": "賀茂郡松崎町",
    "city_kana": "カモグンマツザキチョウ",
    "town": "石部",
    "town_kana": "イシブ",
    "street": null,
    "office_name": null,
    "office_name_kana": null
  },
  "3617": {
    "zip_code": "4103617",
    "prefecture": "静岡県",
    "prefecture_kana": "シズオカケン",
    "prefecture_code": 22,
    "city": "賀茂郡松崎町",
    "city_kana": "カモグンマツザキチョウ",
    "town": "岩地",
    "town_kana": "イワチ",
    "street": null,
    "office_name": null,
    "office_name_kana": null
  },
  "3618": {
    "zip_code": "4103618",
    "prefecture": "静岡県",
    "prefecture_kana": "シズオカケン",
    "prefecture_code": 22,
    "city": "賀茂郡松崎町",
    "city_kana": "カモグンマツザキチョウ",
    "town": "道部",
    "town_kana": "ミチブ",
    "street": null,
    "office_name": null,
    "office_name_kana": null
  },
  "3621": {
    "zip_code": "4103621",
    "prefecture": "静岡県",
    "prefecture_kana": "シズオカケン",
    "prefecture_code": 22,
    "city": "賀茂郡松崎町",
    "city_kana": "カモグンマツザキチョウ",
    "town": "吉田",
    "town_kana": "ヨシダ",
    "street": null,
    "office_name": null,
    "office_name_kana": null
  },
  "3622": {
    "zip_code": "4103622",
    "prefecture": "静岡県",
    "prefecture_kana": "シズオカケン",
    "prefecture_code": 22,
    "city": "賀茂郡松崎町",
    "city_kana": "カモグンマツザキチョウ",
    "town": "南郷",
    "town_kana": "ナンゴウ",
    "street": null,
    "office_name": null,
    "office_name_kana": null
  },
  "3623": {
    "zip_code": "4103623",
    "prefecture": "静岡県",
    "prefecture_kana": "シズオカケン",
    "prefecture_code": 22,
    "city": "賀茂郡松崎町",
    "city_kana": "カモグンマツザキチョウ",
    "town": "伏倉",
    "town_kana": "シクラ",
    "street": null,
    "office_name": null,
    "office_name_kana": null
  },
  "3624": {
    "zip_code": "4103624",
    "prefecture": "静岡県",
    "prefecture_kana": "シズオカケン",
    "prefecture_code": 22,
    "city": "賀茂郡松崎町",
    "city_kana": "カモグンマツザキチョウ",
    "town": "江奈",
    "town_kana": "エナ",
    "street": null,
    "office_name": null,
    "office_name_kana": null
  },
  "3625": {
    "zip_code": "4103625",
    "prefecture": "静岡県",
    "prefecture_kana": "シズオカケン",
    "prefecture_code": 22,
    "city": "賀茂郡松崎町",
    "city_kana": "カモグンマツザキチョウ",
    "town": "桜田",
    "town_kana": "サクラダ",
    "street": null,
    "office_name": null,
    "office_name_kana": null
  },
  "3626": {
    "zip_code": "4103626",
    "prefecture": "静岡県",
    "prefecture_kana": "シズオカケン",
    "prefecture_code": 22,
    "city": "賀茂郡松崎町",
    "city_kana": "カモグンマツザキチョウ",
    "town": "那賀",
    "town_kana": "ナカ",
    "street": null,
    "office_name": null,
    "office_name_kana": null
  },
  "3627": {
    "zip_code": "4103627",
    "prefecture": "静岡県",
    "prefecture_kana": "シズオカケン",
    "prefecture_code": 22,
    "city": "賀茂郡松崎町",
    "city_kana": "カモグンマツザキチョウ",
    "town": "建久寺",
    "town_kana": "ケンキュウジ",
    "street": null,
    "office_name": null,
    "office_name_kana": null
  },
  "3693": {
    "zip_code": "4103693",
    "prefecture": "静岡県",
    "prefecture_kana": null,
    "prefecture_code": null,
    "city": "賀茂郡松崎町",
    "city_kana": null,
    "town": "櫻田",
    "town_kana": null,
    "street": "１８８（松崎郵便局私書箱第６号）",
    "office_name": "松崎高校",
    "office_name_kana": "マツザキコウコウ"
  },
  "3696": {
    "zip_code": "4103696",
    "prefecture": "静岡県",
    "prefecture_kana": "シズオカケン",
    "prefecture_code": 22,
    "city": "賀茂郡松崎町",
    "city_kana": "カモグンマツザキチョウ",
    "town": "宮内",
    "town_kana": "ミヤウチ",
    "street": "３０１−１",
    "office_name": "松崎町役場",
    "office_name_kana": "マツザキチヨウヤクバ"
  },
  "8501": {
    "zip_code": "4108501",
    "prefecture": "静岡県",
    "prefecture_kana": "シズオカケン",
    "prefecture_code": 22,
    "city": "沼津市",
    "city_kana": "ヌマヅシ",
    "town": "大岡",
    "town_kana": "オオオカ",
    "street": "３６００",
    "office_name": "沼津工業高等専門学校",
    "office_name_kana": "ヌマヅコウギヨウコウトウセンモンガツコウ"
  },
  "8504": {
    "zip_code": "4108504",
    "prefecture": "静岡県",
    "prefecture_kana": "シズオカケン",
    "prefecture_code": 22,
    "city": "沼津市",
    "city_kana": "ヌマヅシ",
    "town": "双葉町",
    "town_kana": "フタバチョウ",
    "street": "９−１",
    "office_name": "株式会社　フジクラ　沼津工場",
    "office_name_kana": "カブシキガイシヤ フジクラ ヌマヅコウジヨウ"
  },
  "8508": {
    "zip_code": "4108508",
    "prefecture": "静岡県",
    "prefecture_kana": "シズオカケン",
    "prefecture_code": 22,
    "city": "沼津市",
    "city_kana": "ヌマヅシ",
    "town": "平町",
    "town_kana": "ヒラマチ",
    "street": "１９−１１",
    "office_name": "沼津警察署",
    "office_name_kana": "ヌマヅケイサツシヨ"
  },
  "8510": {
    "zip_code": "4108510",
    "prefecture": "静岡県",
    "prefecture_kana": "シズオカケン",
    "prefecture_code": 22,
    "city": "沼津市",
    "city_kana": "ヌマヅシ",
    "town": "大岡",
    "town_kana": "オオオカ",
    "street": "２０６８−３",
    "office_name": "東芝機械　株式会社　沼津事業所",
    "office_name_kana": "トウシバキカイ カブシキガイシヤ ヌマヅジギヨウシヨ"
  },
  "8511": {
    "zip_code": "4108511",
    "prefecture": "静岡県",
    "prefecture_kana": "シズオカケン",
    "prefecture_code": 22,
    "city": "沼津市",
    "city_kana": "ヌマヅシ",
    "town": "大岡",
    "town_kana": "オオオカ",
    "street": "２７７１",
    "office_name": "矢崎総業　株式会社",
    "office_name_kana": "ヤザキソウギヨウ カブシキガイシヤ"
  },
  "8514": {
    "zip_code": "4108514",
    "prefecture": "静岡県",
    "prefecture_kana": "シズオカケン",
    "prefecture_code": 22,
    "city": "沼津市",
    "city_kana": "ヌマヅシ",
    "town": "大岡",
    "town_kana": "オオオカ",
    "street": "８７７−６",
    "office_name": "株式会社　イワサキ経営",
    "office_name_kana": "カブシキカイシヤ イワサキケイエイ"
  },
  "8515": {
    "zip_code": "4108515",
    "prefecture": "静岡県",
    "prefecture_kana": "シズオカケン",
    "prefecture_code": 22,
    "city": "沼津市",
    "city_kana": "ヌマヅシ",
    "town": "大岡",
    "town_kana": "オオオカ",
    "street": "２７７１",
    "office_name": "矢崎エナジーシステム　株式会社　沼津製作所",
    "office_name_kana": "ヤザキエナジ-システム カブシキガイシヤ ヌマヅセイサクシヨ"
  },
  "8520": {
    "zip_code": "4108520",
    "prefecture": "静岡県",
    "prefecture_kana": "シズオカケン",
    "prefecture_code": 22,
    "city": "沼津市",
    "city_kana": "ヌマヅシ",
    "town": "高島本町",
    "town_kana": "タカシマホンチョウ",
    "street": "１−３",
    "office_name": "沼津財務事務所",
    "office_name_kana": "ヌマヅザイムジムシヨ"
  },
  "8522": {
    "zip_code": "4108522",
    "prefecture": "静岡県",
    "prefecture_kana": "シズオカケン",
    "prefecture_code": 22,
    "city": "沼津市",
    "city_kana": "ヌマヅシ",
    "town": "高島本町",
    "town_kana": "タカシマホンチョウ",
    "street": "１−３",
    "office_name": "東部教育事務所",
    "office_name_kana": "トウブキヨウイクジムシヨ"
  },
  "8525": {
    "zip_code": "4108525",
    "prefecture": "静岡県",
    "prefecture_kana": "シズオカケン",
    "prefecture_code": 22,
    "city": "沼津市",
    "city_kana": "ヌマヅシ",
    "town": "平町",
    "town_kana": "ヒラマチ",
    "street": "６−２",
    "office_name": "株式会社　すみや電器　沼津営業所",
    "office_name_kana": "カブシキガイシヤ スミヤデンキ ヌマヅエイギヨウシヨ"
  },
  "8530": {
    "zip_code": "4108530",
    "prefecture": "静岡県",
    "prefecture_kana": "シズオカケン",
    "prefecture_code": 22,
    "city": "沼津市",
    "city_kana": "ヌマヅシ",
    "town": "岡宮",
    "town_kana": "オカノミヤ",
    "street": "寺林１２５９",
    "office_name": "米久　株式会社",
    "office_name_kana": "ヨネキユウ カブシキガイシヤ"
  },
  "8531": {
    "zip_code": "4108531",
    "prefecture": "静岡県",
    "prefecture_kana": "シズオカケン",
    "prefecture_code": 22,
    "city": "沼津市",
    "city_kana": "ヌマヅシ",
    "town": "三枚橋町",
    "town_kana": "サンマイバシチョウ",
    "street": "６−１０",
    "office_name": "三井生命保険　相互会社　沼津支社",
    "office_name_kana": "ミツイセイメイホケン ソウゴガイシヤ ヌマヅシシヤ"
  },
  "8533": {
    "zip_code": "4108533",
    "prefecture": "静岡県",
    "prefecture_kana": "シズオカケン",
    "prefecture_code": 22,
    "city": "沼津市",
    "city_kana": "ヌマヅシ",
    "town": "三枚橋町",
    "town_kana": "サンマイバシチョウ",
    "street": "９−１",
    "office_name": "沼津市立図書館",
    "office_name_kana": "ヌマヅシリツトシヨカン"
  },
  "8535": {
    "zip_code": "4108535",
    "prefecture": "静岡県",
    "prefecture_kana": "シズオカケン",
    "prefecture_code": 22,
    "city": "沼津市",
    "city_kana": "ヌマヅシ",
    "town": "大岡",
    "town_kana": "オオオカ",
    "street": "３５",
    "office_name": "富士ロビン　株式会社",
    "office_name_kana": "フジロビン カブシキガイシヤ"
  },
  "8540": {
    "zip_code": "4108540",
    "prefecture": "静岡県",
    "prefecture_kana": "シズオカケン",
    "prefecture_code": 22,
    "city": "沼津市",
    "city_kana": "ヌマヅシ",
    "town": "双葉町",
    "town_kana": "フタバチョウ",
    "street": "９−１１−５",
    "office_name": "株式会社　特電",
    "office_name_kana": "カブシキガイシヤ トクデン"
  },
  "8543": {
    "zip_code": "4108543",
    "prefecture": "静岡県",
    "prefecture_kana": "シズオカケン",
    "prefecture_code": 22,
    "city": "沼津市",
    "city_kana": "ヌマヅシ",
    "town": "高島本町",
    "town_kana": "タカシマホンチョウ",
    "street": "１−３",
    "office_name": "沼津保健所",
    "office_name_kana": "ヌマヅホケンジヨ"
  },
  "8544": {
    "zip_code": "4108544",
    "prefecture": "静岡県",
    "prefecture_kana": "シズオカケン",
    "prefecture_code": 22,
    "city": "沼津市",
    "city_kana": "ヌマヅシ",
    "town": "三芳町",
    "town_kana": "ミヨシチョウ",
    "street": "２−１",
    "office_name": "静岡県農業協同組合中央会　東部支所",
    "office_name_kana": "シズオカケンノウギヨウキヨウドウクミアイチユウオウカイ トウブシシヨ"
  },
  "8545": {
    "zip_code": "4108545",
    "prefecture": "静岡県",
    "prefecture_kana": "シズオカケン",
    "prefecture_code": 22,
    "city": "沼津市",
    "city_kana": "ヌマヅシ",
    "town": "寿町",
    "town_kana": "コトブキチョウ",
    "street": "８番２８号メディアプラザ２Ｆ",
    "office_name": "株式会社　ＴＯＫＡＩケーブルネットワーク　カスタマーセンター",
    "office_name_kana": "カブシキガイシヤ ト-カイケ-ブルネツトワ-ク カスタマ-センタ-"
  },
  "8550": {
    "zip_code": "4108550",
    "prefecture": "静岡県",
    "prefecture_kana": "シズオカケン",
    "prefecture_code": 22,
    "city": "沼津市",
    "city_kana": "ヌマヅシ",
    "town": "御幸町",
    "town_kana": "ミユキチョウ",
    "street": "２１−１",
    "office_name": "静岡地方裁判所　沼津支部　静岡家庭裁判所　沼津支部　沼津簡易裁判所　沼津検察審査会",
    "office_name_kana": "シズオカチホウサイバンシヨ ヌマヅシブ シズオカカテイサイバンシヨ ヌマヅシブ ヌマヅカンイサイバンシヨ ヌマヅケンサツシンサカイ"
  },
  "8551": {
    "zip_code": "4108551",
    "prefecture": "静岡県",
    "prefecture_kana": "シズオカケン",
    "prefecture_code": 22,
    "city": "沼津市",
    "city_kana": "ヌマヅシ",
    "town": "千本港町",
    "town_kana": "センボンミナトマチ",
    "street": "２",
    "office_name": "株式会社　マルヤ水産",
    "office_name_kana": "カブシキガイシヤ マルヤスイサン"
  },
  "8552": {
    "zip_code": "4108552",
    "prefecture": "静岡県",
    "prefecture_kana": "シズオカケン",
    "prefecture_code": 22,
    "city": "沼津市",
    "city_kana": "ヌマヅシ",
    "town": "春日町",
    "town_kana": "カスガチョウ",
    "street": "７５−２",
    "office_name": "羽野水産　株式会社",
    "office_name_kana": "ハノスイサン カブシキガイシヤ"
  },
  "8555": {
    "zip_code": "4108555",
    "prefecture": "静岡県",
    "prefecture_kana": "シズオカケン",
    "prefecture_code": 22,
    "city": "沼津市",
    "city_kana": "ヌマヅシ",
    "town": "本",
    "town_kana": "ホン",
    "street": "字松下七反田９０２−６",
    "office_name": "財団法人　芙蓉協会　聖隷沼津病院",
    "office_name_kana": "ザイダンホウジン フヨウキヨウカイ セイレイヌマヅビヨウイン"
  },
  "8558": {
    "zip_code": "4108558",
    "prefecture": "静岡県",
    "prefecture_kana": "シズオカケン",
    "prefecture_code": 22,
    "city": "沼津市",
    "city_kana": "ヌマヅシ",
    "town": "大手町",
    "town_kana": "オオテマチ",
    "street": "２丁目１−１７",
    "office_name": "ＮＴＴ西日本　沼津支店",
    "office_name_kana": "エヌテイテイニシニホン ヌマヅシテン"
  },
  "8567": {
    "zip_code": "4108567",
    "prefecture": "静岡県",
    "prefecture_kana": "シズオカケン",
    "prefecture_code": 22,
    "city": "沼津市",
    "city_kana": "ヌマヅシ",
    "town": "下香貫",
    "town_kana": "シモカヌキ",
    "street": "外原３２４４−２",
    "office_name": "国土交通省　中部地方整備局　沼津河川国道事務所",
    "office_name_kana": "コクドコウツウシヨウ チユウブチホウセイビキヨク ヌマヅカセンコクドウジムシヨ"
  },
  "8570": {
    "zip_code": "4108570",
    "prefecture": "静岡県",
    "prefecture_kana": "シズオカケン",
    "prefecture_code": 22,
    "city": "沼津市",
    "city_kana": "ヌマヅシ",
    "town": "大手町",
    "town_kana": "オオテマチ",
    "street": "３丁目１番１号",
    "office_name": "株式会社　西武百貨店　沼津店",
    "office_name_kana": "カブシキガイシヤ セイブヒヤツカテン ヌマヅテン"
  },
  "8575": {
    "zip_code": "4108575",
    "prefecture": "静岡県",
    "prefecture_kana": "シズオカケン",
    "prefecture_code": 22,
    "city": "沼津市",
    "city_kana": "ヌマヅシ",
    "town": "中瀬町",
    "town_kana": "ナカセチョウ",
    "street": "２４番１号",
    "office_name": "財団法人　復康会　沼津中央病院",
    "office_name_kana": "ザイダンホウジン フツコウカイ ヌマヅチユウオウビヨウイン"
  },
  "8580": {
    "zip_code": "4108580",
    "prefecture": "静岡県",
    "prefecture_kana": "シズオカケン",
    "prefecture_code": 22,
    "city": "沼津市",
    "city_kana": "ヌマヅシ",
    "town": "本",
    "town_kana": "ホン",
    "street": "字下一丁田８９５−１",
    "office_name": "聖隷沼津健康診断センター",
    "office_name_kana": "セイレイヌマヅケンコウシンダンセンタ-"
  },
  "8585": {
    "zip_code": "4108585",
    "prefecture": "静岡県",
    "prefecture_kana": "シズオカケン",
    "prefecture_code": 22,
    "city": "沼津市",
    "city_kana": "ヌマヅシ",
    "town": "市場町",
    "town_kana": "イチバチョウ",
    "street": "５番７号",
    "office_name": "株式会社　日本政策金融公庫　沼津支店",
    "office_name_kana": "カブシキガイシヤ ニツポンセイサクキンユウコウコ ヌマヅシテン"
  },
  "8588": {
    "zip_code": "4108588",
    "prefecture": "静岡県",
    "prefecture_kana": "シズオカケン",
    "prefecture_code": 22,
    "city": "沼津市",
    "city_kana": "ヌマヅシ",
    "town": "東間門",
    "town_kana": "ヒガシマカド",
    "street": "字上中溝５１５",
    "office_name": "株式会社　明電舎　沼津事業所",
    "office_name_kana": "カブシキガイシヤ メイデンシヤ ヌマヅジギヨウシヨ"
  },
  "8601": {
    "zip_code": "4108601",
    "prefecture": "静岡県",
    "prefecture_kana": "シズオカケン",
    "prefecture_code": 22,
    "city": "沼津市",
    "city_kana": "ヌマヅシ",
    "town": "御幸町",
    "town_kana": "ミユキチョウ",
    "street": "１６−１（沼津郵便局私書箱第８５号）",
    "office_name": "沼津市役所",
    "office_name_kana": "ヌマヅシヤクシヨ"
  },
  "8602": {
    "zip_code": "4108602",
    "prefecture": "静岡県",
    "prefecture_kana": "シズオカケン",
    "prefecture_code": 22,
    "city": "沼津市",
    "city_kana": "ヌマヅシ",
    "town": "大手町",
    "town_kana": "オオテマチ",
    "street": "２丁目１０番１７号（沼津郵便局私書箱第９１号）",
    "office_name": "日本生命保険　相互会社　沼津支社",
    "office_name_kana": "ニホンセイメイホケン ソウゴガイシヤ ヌマヅシシヤ"
  },
  "8610": {
    "zip_code": "4108610",
    "prefecture": "静岡県",
    "prefecture_kana": "シズオカケン",
    "prefecture_code": 22,
    "city": "沼津市",
    "city_kana": "ヌマヅシ",
    "town": "大手町",
    "town_kana": "オオテマチ",
    "street": "５丁目６−１６（沼津郵便局私書箱第５１号）",
    "office_name": "沼津信用金庫　本店　本部",
    "office_name_kana": "ヌマヅシンヨウキンコ ホンテン ホンブ"
  },
  "8654": {
    "zip_code": "4108654",
    "prefecture": "静岡県",
    "prefecture_kana": "シズオカケン",
    "prefecture_code": 22,
    "city": "沼津市",
    "city_kana": "ヌマヅシ",
    "town": "御幸町",
    "town_kana": "ミユキチョウ",
    "street": "１７−５（沼津郵便局私書箱第９０号）",
    "office_name": "商工組合中央金庫　沼津支店",
    "office_name_kana": "シヨウコウクミアイチユウオウキンコ ヌマヅシテン"
  },
  "8655": {
    "zip_code": "4108655",
    "prefecture": "静岡県",
    "prefecture_kana": "シズオカケン",
    "prefecture_code": 22,
    "city": "沼津市",
    "city_kana": "ヌマヅシ",
    "town": "日の出町",
    "town_kana": "ヒノデチョウ",
    "street": "１−４０（沼津郵便局私書箱第７号）",
    "office_name": "沼津社会保険事務所",
    "office_name_kana": "ヌマヅシヤカイホケンジムシヨ"
  },
  "8686": {
    "zip_code": "4108686",
    "prefecture": "静岡県",
    "prefecture_kana": "シズオカケン",
    "prefecture_code": 22,
    "city": "沼津市",
    "city_kana": "ヌマヅシ",
    "town": "米山町",
    "town_kana": "ヨネヤマチョウ",
    "street": "３−３０（沼津郵便局私書箱第１７号）",
    "office_name": "沼津税務署",
    "office_name_kana": "ヌマヅゼイムシヨ"
  },
  "8689": {
    "zip_code": "4108689",
    "prefecture": "静岡県",
    "prefecture_kana": "シズオカケン",
    "prefecture_code": 22,
    "city": "沼津市",
    "city_kana": "ヌマヅシ",
    "town": "通横町",
    "town_kana": "トオリヨコチョウ",
    "street": "２３（沼津郵便局私書箱第２７号）",
    "office_name": "株式会社　駿河銀行",
    "office_name_kana": "カブシキガイシヤ スルガギンコウ"
  },
  "8710": {
    "zip_code": "4108710",
    "prefecture": "静岡県",
    "prefecture_kana": "シズオカケン",
    "prefecture_code": 22,
    "city": "沼津市",
    "city_kana": "ヌマヅシ",
    "town": "大手町",
    "town_kana": "オオテマチ",
    "street": "４丁目７６（沼津郵便局私書箱第４０号）",
    "office_name": "株式会社　静岡中央銀行",
    "office_name_kana": "カブシキガイシヤ シズオカチユウオウギンコウ"
  },
  "8739": {
    "zip_code": "4108739",
    "prefecture": "静岡県",
    "prefecture_kana": "シズオカケン",
    "prefecture_code": 22,
    "city": "駿東郡長泉町",
    "city_kana": "スントウグンナガイズミチョウ",
    "town": "下土狩",
    "town_kana": "シモトガリ",
    "street": "１０５番地の１７（沼津郵便局私書箱第２５号）",
    "office_name": "株式会社　増進会出版社",
    "office_name_kana": "カブシキガイシヤ ゾウシンカイシユツパンシヤ"
  }
}