{
  "0000": {
    "zip_code": "4120000",
    "prefecture": "静岡県",
    "prefecture_kana": "シズオカケン",
    "prefecture_code": 22,
    "city": "御殿場市",
    "city_kana": "ゴテンバシ",
    "town": "",
    "town_kana": "",
    "street": null,
    "office_name": null,
    "office_name_kana": null
  },
  "0001": {
    "zip_code": "4120001",
    "prefecture": "静岡県",
    "prefecture_kana": "シズオカケン",
    "prefecture_code": 22,
    "city": "御殿場市",
    "city_kana": "ゴテンバシ",
    "town": "水土野",
    "town_kana": "ミドノ",
    "street": null,
    "office_name": null,
    "office_name_kana": null
  },
  "0002": {
    "zip_code": "4120002",
    "prefecture": "静岡県",
    "prefecture_kana": "シズオカケン",
    "prefecture_code": 22,
    "city": "御殿場市",
    "city_kana": "ゴテンバシ",
    "town": "上小林",
    "town_kana": "カミコバヤシ",
    "street": null,
    "office_name": null,
    "office_name_kana": null
  },
  "0003": {
    "zip_code": "4120003",
    "prefecture": "静岡県",
    "prefecture_kana": "シズオカケン",
    "prefecture_code": 22,
    "city": "御殿場市",
    "city_kana": "ゴテンバシ",
    "town": "柴怒田",
    "town_kana": "シバンタ",
    "street": null,
    "office_name": null,
    "office_name_kana": null
  },
  "0004": {
    "zip_code": "4120004",
    "prefecture": "静岡県",
    "prefecture_kana": "シズオカケン",
    "prefecture_code": 22,
    "city": "御殿場市",
    "city_kana": "ゴテンバシ",
    "town": "北久原",
    "town_kana": "ホックバラ",
    "street": null,
    "office_name": null,
    "office_name_kana": null
  },
  "0005": {
    "zip_code": "4120005",
    "prefecture": "静岡県",
    "prefecture_kana": "シズオカケン",
    "prefecture_code": 22,
    "city": "御殿場市",
    "city_kana": "ゴテンバシ",
    "town": "仁杉",
    "town_kana": "ヒトスギ",
    "street": null,
    "office_name": null,
    "office_name_kana": null
  },
  "0006": {
    "zip_code": "4120006",
    "prefecture": "静岡県",
    "prefecture_kana": "シズオカケン",
    "prefecture_code": 22,
    "city": "御殿場市",
    "city_kana": "ゴテンバシ",
    "town": "中畑",
    "town_kana": "ナカバタ",
    "street": null,
    "office_name": null,
    "office_name_kana": null
  },
  "0007": {
    "zip_code": "4120007",
    "prefecture": "静岡県",
    "prefecture_kana": "シズオカケン",
    "prefecture_code": 22,
    "city": "御殿場市",
    "city_kana": "ゴテンバシ",
    "town": "永塚",
    "town_kana": "ナガツカ",
    "street": null,
    "office_name": null,
    "office_name_kana": null
  },
  "0008": {
    "zip_code": "4120008",
    "prefecture": "静岡県",
    "prefecture_kana": "シズオカケン",
    "prefecture_code": 22,
    "city": "御殿場市",
    "city_kana": "ゴテンバシ",
    "town": "印野",
    "town_kana": "インノ",
    "street": null,
    "office_name": null,
    "office_name_kana": null
  },
  "0009": {
    "zip_code": "4120009",
    "prefecture": "静岡県",
    "prefecture_kana": "シズオカケン",
    "prefecture_code": 22,
    "city": "御殿場市",
    "city_kana": "ゴテンバシ",
    "town": "川柳",
    "town_kana": "カワヤナギ",
    "street": null,
    "office_name": null,
    "office_name_kana": null
  },
  "0011": {
    "zip_code": "4120011",
    "prefecture": "静岡県",
    "prefecture_kana": "シズオカケン",
    "prefecture_code": 22,
    "city": "御殿場市",
    "city_kana": "ゴテンバシ",
    "town": "古沢",
    "town_kana": "フルサワ",
    "street": null,
    "office_name": null,
    "office_name_kana": null
  },
  "0012": {
    "zip_code": "4120012",
    "prefecture": "静岡県",
    "prefecture_kana": "シズオカケン",
    "prefecture_code": 22,
    "city": "御殿場市",
    "city_kana": "ゴテンバシ",
    "town": "増田",
    "town_kana": "マシダ",
    "street": null,
    "office_name": null,
    "office_name_kana": null
  },
  "0013": {
    "zip_code": "4120013",
    "prefecture": "静岡県",
    "prefecture_kana": "シズオカケン",
    "prefecture_code": 22,
    "city": "御殿場市",
    "city_kana": "ゴテンバシ",
    "town": "小倉野",
    "town_kana": "オグラノ",
    "street": null,
    "office_name": null,
    "office_name_kana": null
  },
  "0014": {
    "zip_code": "4120014",
    "prefecture": "静岡県",
    "prefecture_kana": "シズオカケン",
    "prefecture_code": 22,
    "city": "御殿場市",
    "city_kana": "ゴテンバシ",
    "town": "大堰",
    "town_kana": "オオセギ",
    "street": null,
    "office_name": null,
    "office_name_kana": null
  },
  "0015": {
    "zip_code": "4120015",
    "prefecture": "静岡県",
    "prefecture_kana": "シズオカケン",
    "prefecture_code": 22,
    "city": "御殿場市",
    "city_kana": "ゴテンバシ",
    "town": "中丸",
    "town_kana": "ナカマル",
    "street": null,
    "office_name": null,
    "office_name_kana": null
  },
  "0016": {
    "zip_code": "4120016",
    "prefecture": "静岡県",
    "prefecture_kana": "シズオカケン",
    "prefecture_code": 22,
    "city": "御殿場市",
    "city_kana": "ゴテンバシ",
    "town": "六日市場",
    "town_kana": "ムイカイチバ",
    "street": null,
    "office_name": null,
    "office_name_kana": null
  },
  "0017": {
    "zip_code": "4120017",
    "prefecture": "静岡県",
    "prefecture_kana": "シズオカケン",
    "prefecture_code": 22,
    "city": "御殿場市",
    "city_kana": "ゴテンバシ",
    "town": "塚原",
    "town_kana": "ツカバラ",
    "street": null,
    "office_name": null,
    "office_name_kana": null
  },
  "0018": {
    "zip_code": "4120018",
    "prefecture": "静岡県",
    "prefecture_kana": "シズオカケン",
    "prefecture_code": 22,
    "city": "御殿場市",
    "city_kana": "ゴテンバシ",
    "town": "山之尻",
    "town_kana": "ヤマノシリ",
    "street": null,
    "office_name": null,
    "office_name_kana": null
  },
  "0019": {
    "zip_code": "4120019",
    "prefecture": "静岡県",
    "prefecture_kana": "シズオカケン",
    "prefecture_code": 22,
    "city": "御殿場市",
    "city_kana": "ゴテンバシ",
    "town": "山尾田",
    "town_kana": "ヤマオダ",
    "street": null,
    "office_name": null,
    "office_name_kana": null
  },
  "0021": {
    "zip_code": "4120021",
    "prefecture": "静岡県",
    "prefecture_kana": "シズオカケン",
    "prefecture_code": 22,
    "city": "御殿場市",
    "city_kana": "ゴテンバシ",
    "town": "二枚橋",
    "town_kana": "ニマイバシ",
    "street": null,
    "office_name": null,
    "office_name_kana": null
  },
  "0022": {
    "zip_code": "4120022",
    "prefecture": "静岡県",
    "prefecture_kana": "シズオカケン",
    "prefecture_code": 22,
    "city": "御殿場市",
    "city_kana": "ゴテンバシ",
    "town": "清後",
    "town_kana": "セイゴ",
    "street": null,
    "office_name": null,
    "office_name_kana": null
  },
  "0023": {
    "zip_code": "4120023",
    "prefecture": "静岡県",
    "prefecture_kana": "シズオカケン",
    "prefecture_code": 22,
    "city": "御殿場市",
    "city_kana": "ゴテンバシ",
    "town": "深沢",
    "town_kana": "フカサワ",
    "street": null,
    "office_name": null,
    "office_name_kana": null
  },
  "0024": {
    "zip_code": "4120024",
    "prefecture": "静岡県",
    "prefecture_kana": "シズオカケン",
    "prefecture_code": 22,
    "city": "御殿場市",
    "city_kana": "ゴテンバシ",
    "town": "東山",
    "town_kana": "ヒガシヤマ",
    "street": null,
    "office_name": null,
    "office_name_kana": null
  },
  "0025": {
    "zip_code": "4120025",
    "prefecture": "静岡県",
    "prefecture_kana": "シズオカケン",
    "prefecture_code": 22,
    "city": "御殿場市",
    "city_kana": "ゴテンバシ",
    "town": "二の岡",
    "town_kana": "ニノオカ",
    "street": null,
    "office_name": null,
    "office_name_kana": null
  },
  "0026": {
    "zip_code": "4120026",
    "prefecture": "静岡県",
    "prefecture_kana": "シズオカケン",
    "prefecture_code": 22,
    "city": "御殿場市",
    "city_kana": "ゴテンバシ",
    "town": "東田中",
    "town_kana": "ヒガシタナカ",
    "street": null,
    "office_name": null,
    "office_name_kana": null
  },
  "0027": {
    "zip_code": "4120027",
    "prefecture": "静岡県",
    "prefecture_kana": "シズオカケン",
    "prefecture_code": 22,
    "city": "御殿場市",
    "city_kana": "ゴテンバシ",
    "town": "西田中",
    "town_kana": "ニシタナカ",
    "street": null,
    "office_name": null,
    "office_name_kana": null
  },
  "0028": {
    "zip_code": "4120028",
    "prefecture": "静岡県",
    "prefecture_kana": "シズオカケン",
    "prefecture_code": 22,
    "city": "御殿場市",
    "city_kana": "ゴテンバシ",
    "town": "御殿場",
    "town_kana": "ゴテンバ",
    "street": null,
    "office_name": null,
    "office_name_kana": null
  },
  "0029": {
    "zip_code": "4120029",
    "prefecture": "静岡県",
    "prefecture_kana": "シズオカケン",
    "prefecture_code": 22,
    "city": "御殿場市",
    "city_kana": "ゴテンバシ",
    "town": "神山平",
    "town_kana": "コウヤマダイラ",
    "street": null,
    "office_name": null,
    "office_name_kana": null
  },
  "0031": {
    "zip_code": "4120031",
    "prefecture": "静岡県",
    "prefecture_kana": "シズオカケン",
    "prefecture_code": 22,
    "city": "御殿場市",
    "city_kana": "ゴテンバシ",
    "town": "沼田",
    "town_kana": "ヌマタ",
    "street": null,
    "office_name": null,
    "office_name_kana": null
  },
  "0032": {
    "zip_code": "4120032",
    "prefecture": "静岡県",
    "prefecture_kana": "シズオカケン",
    "prefecture_code": 22,
    "city": "御殿場市",
    "city_kana": "ゴテンバシ",
    "town": "二子",
    "town_kana": "フタゴ",
    "street": null,
    "office_name": null,
    "office_name_kana": null
  },
  "0033": {
    "zip_code": "4120033",
    "prefecture": "静岡県",
    "prefecture_kana": "シズオカケン",
    "prefecture_code": 22,
    "city": "御殿場市",
    "city_kana": "ゴテンバシ",
    "town": "神山",
    "town_kana": "コウヤマ",
    "street": null,
    "office_name": null,
    "office_name_kana": null
  },
  "0034": {
    "zip_code": "4120034",
    "prefecture": "静岡県",
    "prefecture_kana": "シズオカケン",
    "prefecture_code": 22,
    "city": "御殿場市",
    "city_kana": "ゴテンバシ",
    "town": "大坂",
    "town_kana": "オオサカ",
    "street": null,
    "office_name": null,
    "office_name_kana": null
  },
  "0035": {
    "zip_code": "4120035",
    "prefecture": "静岡県",
    "prefecture_kana": "シズオカケン",
    "prefecture_code": 22,
    "city": "御殿場市",
    "city_kana": "ゴテンバシ",
    "town": "中山",
    "town_kana": "ナカヤマ",
    "street": null,
    "office_name": null,
    "office_name_kana": null
  },
  "0036": {
    "zip_code": "4120036",
    "prefecture": "静岡県",
    "prefecture_kana": "シズオカケン",
    "prefecture_code": 22,
    "city": "御殿場市",
    "city_kana": "ゴテンバシ",
    "town": "萩蕪",
    "town_kana": "ハギカブ",
    "street": null,
    "office_name": null,
    "office_name_kana": null
  },
  "0037": {
    "zip_code": "4120037",
    "prefecture": "静岡県",
    "prefecture_kana": "シズオカケン",
    "prefecture_code": 22,
    "city": "御殿場市",
    "city_kana": "ゴテンバシ",
    "town": "中清水",
    "town_kana": "ナカシミズ",
    "street": null,
    "office_name": null,
    "office_name_kana": null
  },
  "0038": {
    "zip_code": "4120038",
    "prefecture": "静岡県",
    "prefecture_kana": "シズオカケン",
    "prefecture_code": 22,
    "city": "御殿場市",
    "city_kana": "ゴテンバシ",
    "town": "駒門",
    "town_kana": "コマカド",
    "street": null,
    "office_name": null,
    "office_name_kana": null
  },
  "0039": {
    "zip_code": "4120039",
    "prefecture": "静岡県",
    "prefecture_kana": "シズオカケン",
    "prefecture_code": 22,
    "city": "御殿場市",
    "city_kana": "ゴテンバシ",
    "town": "竈",
    "town_kana": "カマド",
    "street": null,
    "office_name": null,
    "office_name_kana": null
  },
  "0041": {
    "zip_code": "4120041",
    "prefecture": "静岡県",
    "prefecture_kana": "シズオカケン",
    "prefecture_code": 22,
    "city": "御殿場市",
    "city_kana": "ゴテンバシ",
    "town": "茱萸沢",
    "town_kana": "グミザワ",
    "street": null,
    "office_name": null,
    "office_name_kana": null
  },
  "0042": {
    "zip_code": "4120042",
    "prefecture": "静岡県",
    "prefecture_kana": "シズオカケン",
    "prefecture_code": 22,
    "city": "御殿場市",
    "city_kana": "ゴテンバシ",
    "town": "萩原",
    "town_kana": "ハギワラ",
    "street": null,
    "office_name": null,
    "office_name_kana": null
  },
  "0043": {
    "zip_code": "4120043",
    "prefecture": "静岡県",
    "prefecture_kana": "シズオカケン",
    "prefecture_code": 22,
    "city": "御殿場市",
    "city_kana": "ゴテンバシ",
    "town": "新橋",
    "town_kana": "ニイハシ",
    "street": null,
    "office_name": null,
    "office_name_kana": null
  },
  "0044": {
    "zip_code": "4120044",
    "prefecture": "静岡県",
    "prefecture_kana": "シズオカケン",
    "prefecture_code": 22,
    "city": "御殿場市",
    "city_kana": "ゴテンバシ",
    "town": "杉名沢",
    "town_kana": "スギナザワ",
    "street": null,
    "office_name": null,
    "office_name_kana": null
  },
  "0045": {
    "zip_code": "4120045",
    "prefecture": "静岡県",
    "prefecture_kana": "シズオカケン",
    "prefecture_code": 22,
    "city": "御殿場市",
    "city_kana": "ゴテンバシ",
    "town": "川島田",
    "town_kana": "カワシマタ",
    "street": null,
    "office_name": null,
    "office_name_kana": null
  },
  "0046": {
    "zip_code": "4120046",
    "prefecture": "静岡県",
    "prefecture_kana": "シズオカケン",
    "prefecture_code": 22,
    "city": "御殿場市",
    "city_kana": "ゴテンバシ",
    "town": "保土沢",
    "town_kana": "ホトザワ",
    "street": null,
    "office_name": null,
    "office_name_kana": null
  },
  "0047": {
    "zip_code": "4120047",
    "prefecture": "静岡県",
    "prefecture_kana": "シズオカケン",
    "prefecture_code": 22,
    "city": "御殿場市",
    "city_kana": "ゴテンバシ",
    "town": "神場",
    "town_kana": "ジンバ",
    "street": null,
    "office_name": null,
    "office_name_kana": null
  },
  "0048": {
    "zip_code": "4120048",
    "prefecture": "静岡県",
    "prefecture_kana": "シズオカケン",
    "prefecture_code": 22,
    "city": "御殿場市",
    "city_kana": "ゴテンバシ",
    "town": "板妻",
    "town_kana": "イタヅマ",
    "street": null,
    "office_name": null,
    "office_name_kana": null
  },
  "0051": {
    "zip_code": "4120051",
    "prefecture": "静岡県",
    "prefecture_kana": "シズオカケン",
    "prefecture_code": 22,
    "city": "御殿場市",
    "city_kana": "ゴテンバシ",
    "town": "富士見原",
    "town_kana": "フジミハラ",
    "street": null,
    "office_name": null,
    "office_name_kana": null
  },
  "8501": {
    "zip_code": "4128501",
    "prefecture": "静岡県",
    "prefecture_kana": "シズオカケン",
    "prefecture_code": 22,
    "city": "御殿場市",
    "city_kana": "ゴテンバシ",
    "town": "駒門",
    "town_kana": "コマカド",
    "street": "１丁目１５０",
    "office_name": "ジェイビルジャパン　株式会社",
    "office_name_kana": "ジエイビルジヤパン カブシキガイシヤ"
  },
  "8505": {
    "zip_code": "4128505",
    "prefecture": "静岡県",
    "prefecture_kana": "シズオカケン",
    "prefecture_code": 22,
    "city": "御殿場市",
    "city_kana": "ゴテンバシ",
    "town": "保土沢",
    "town_kana": "ホトザワ",
    "street": "９８５",
    "office_name": "メディアロジテック　株式会社",
    "office_name_kana": "メデイアロジテツク カブシキカイシヤ"
  },
  "8511": {
    "zip_code": "4128511",
    "prefecture": "静岡県",
    "prefecture_kana": "シズオカケン",
    "prefecture_code": 22,
    "city": "御殿場市",
    "city_kana": "ゴテンバシ",
    "town": "駒門",
    "town_kana": "コマカド",
    "street": "１丁目１４０",
    "office_name": "株式会社　ショーワ　御殿場工場",
    "office_name_kana": "カブシキガイシヤ シヨ-ワ ゴテンバコウジヨウ"
  },
  "8512": {
    "zip_code": "4128512",
    "prefecture": "静岡県",
    "prefecture_kana": "シズオカケン",
    "prefecture_code": 22,
    "city": "御殿場市",
    "city_kana": "ゴテンバシ",
    "town": "神山",
    "town_kana": "コウヤマ",
    "street": "１９１５",
    "office_name": "国立駿河療養所",
    "office_name_kana": "コクリツスルガリヨウヨウジヨ"
  },
  "8513": {
    "zip_code": "4128513",
    "prefecture": "静岡県",
    "prefecture_kana": "シズオカケン",
    "prefecture_code": 22,
    "city": "御殿場市",
    "city_kana": "ゴテンバシ",
    "town": "駒門",
    "town_kana": "コマカド",
    "street": "１丁目１３５",
    "office_name": "中外製薬　株式会社　富士御殿場研究所",
    "office_name_kana": "チユウガイセイヤク カブシキガイシヤ フジゴテンバケンキユウジヨ"
  },
  "8524": {
    "zip_code": "4128524",
    "prefecture": "静岡県",
    "prefecture_kana": "シズオカケン",
    "prefecture_code": 22,
    "city": "御殿場市",
    "city_kana": "ゴテンバシ",
    "town": "神場",
    "town_kana": "ジンバ",
    "street": "字上ノ原７２２",
    "office_name": "持田製薬　株式会社　富士中央研究所",
    "office_name_kana": "モチダセイヤク カブシキガイシヤ フジチユウオウケンキユウジヨ"
  },
  "8550": {
    "zip_code": "4128550",
    "prefecture": "静岡県",
    "prefecture_kana": "シズオカケン",
    "prefecture_code": 22,
    "city": "御殿場市",
    "city_kana": "ゴテンバシ",
    "town": "中畑",
    "town_kana": "ナカバタ",
    "street": "２０９２−２",
    "office_name": "陸上自衛隊　滝ケ原駐屯地",
    "office_name_kana": "リクジヨウジエイタイ タキガハラチユウトンチ"
  },
  "8585": {
    "zip_code": "4128585",
    "prefecture": "静岡県",
    "prefecture_kana": "シズオカケン",
    "prefecture_code": 22,
    "city": "御殿場市",
    "city_kana": "ゴテンバシ",
    "town": "駒門",
    "town_kana": "コマカド",
    "street": "５−１",
    "office_name": "陸上自衛隊駒門駐屯地",
    "office_name_kana": "リクジヨウジエイタイコマカドチユウトンチ"
  },
  "8601": {
    "zip_code": "4128601",
    "prefecture": "静岡県",
    "prefecture_kana": "シズオカケン",
    "prefecture_code": 22,
    "city": "御殿場市",
    "city_kana": "ゴテンバシ",
    "town": "萩原",
    "town_kana": "ハギワラ",
    "street": "４８３（御殿場郵便局私書箱第２０号）",
    "office_name": "御殿場市役所",
    "office_name_kana": "ゴテンバシヤクシヨ"
  },
  "8605": {
    "zip_code": "4128605",
    "prefecture": "静岡県",
    "prefecture_kana": "シズオカケン",
    "prefecture_code": 22,
    "city": "御殿場市",
    "city_kana": "ゴテンバシ",
    "town": "茱萸沢",
    "town_kana": "グミザワ",
    "street": "５（御殿場郵便局私書箱第１号）",
    "office_name": "御殿場　農業協同組合",
    "office_name_kana": "ゴテンバ ノウギヨウキヨウドウクミアイ"
  },
  "8609": {
    "zip_code": "4128609",
    "prefecture": "静岡県",
    "prefecture_kana": "シズオカケン",
    "prefecture_code": 22,
    "city": "御殿場市",
    "city_kana": "ゴテンバシ",
    "town": "新橋",
    "town_kana": "ニイハシ",
    "street": "２０２０（御殿場郵便局私書箱第６号）",
    "office_name": "駿河信用金庫　本店・本部（総務部・人事部・経理部・業務部・管理部・審査部・事務部・総合企業部・検査部）",
    "office_name_kana": "スルガシンヨウキンコ ホンテン・ホンブ(ソウムブ・ジンジブ・ケイリブ・ギヨウムブ・カンリブ・シンサブ・ジムブ・ソウゴウキギヨウブ・ケンサブ)"
  },
  "8630": {
    "zip_code": "4128630",
    "prefecture": "静岡県",
    "prefecture_kana": "シズオカケン",
    "prefecture_code": 22,
    "city": "御殿場市",
    "city_kana": "ゴテンバシ",
    "town": "上小林",
    "town_kana": "カミコバヤシ",
    "street": "９５",
    "office_name": "菱和金属工業　株式会社",
    "office_name_kana": "リヨウワキンゾクコウギヨウ カブシキガイシヤ"
  },
  "8634": {
    "zip_code": "4128634",
    "prefecture": "静岡県",
    "prefecture_kana": "シズオカケン",
    "prefecture_code": 22,
    "city": "御殿場市",
    "city_kana": "ゴテンバシ",
    "town": "板妻",
    "town_kana": "イタヅマ",
    "street": "４０−１",
    "office_name": "陸上自衛隊　板妻駐屯地",
    "office_name_kana": "リクジヨウジエイタイ イタヅマチユウトンチ"
  },
  "8701": {
    "zip_code": "4128701",
    "prefecture": "静岡県",
    "prefecture_kana": "シズオカケン",
    "prefecture_code": 22,
    "city": "御殿場市",
    "city_kana": "ゴテンバシ",
    "town": "深沢",
    "town_kana": "フカサワ",
    "street": "１３１２",
    "office_name": "御殿場プレミアム・アウトレット",
    "office_name_kana": "ゴテンバプレミアム・アウトレツト"
  }
}