{
  "0000": {
    "zip_code": "4150000",
    "prefecture": "静岡県",
    "prefecture_kana": "シズオカケン",
    "prefecture_code": "22",
    "city": "下田市",
    "city_kana": "シモダシ",
    "town": "",
    "town_kana": "",
    "street": null,
    "office_name": null,
    "office_name_kana": null
  },
  "0001": {
    "zip_code": "4150001",
    "prefecture": "静岡県",
    "prefecture_kana": "シズオカケン",
    "prefecture_code": "22",
    "city": "下田市",
    "city_kana": "シモダシ",
    "town": "",
    "town_kana": "",
    "street": null,
    "office_name": null,
    "office_name_kana": null
  },
  "0011": {
    "zip_code": "4150011",
    "prefecture": "静岡県",
    "prefecture_kana": "シズオカケン",
    "prefecture_code": "22",
    "city": "下田市",
    "city_kana": "シモダシ",
    "town": "河内",
    "town_kana": "コウチ",
    "street": null,
    "office_name": null,
    "office_name_kana": null
  },
  "0012": {
    "zip_code": "4150012",
    "prefecture": "静岡県",
    "prefecture_kana": "シズオカケン",
    "prefecture_code": "22",
    "city": "下田市",
    "city_kana": "シモダシ",
    "town": "白浜",
    "town_kana": "シラハマ",
    "street": null,
    "office_name": null,
    "office_name_kana": null
  },
  "0013": {
    "zip_code": "4150013",
    "prefecture": "静岡県",
    "prefecture_kana": "シズオカケン",
    "prefecture_code": "22",
    "city": "下田市",
    "city_kana": "シモダシ",
    "town": "柿崎",
    "town_kana": "カキサキ",
    "street": null,
    "office_name": null,
    "office_name_kana": null
  },
  "0014": {
    "zip_code": "4150014",
    "prefecture": "静岡県",
    "prefecture_kana": "シズオカケン",
    "prefecture_code": "22",
    "city": "下田市",
    "city_kana": "シモダシ",
    "town": "須崎",
    "town_kana": "スザキ",
    "street": null,
    "office_name": null,
    "office_name_kana": null
  },
  "0015": {
    "zip_code": "4150015",
    "prefecture": "静岡県",
    "prefecture_kana": "シズオカケン",
    "prefecture_code": "22",
    "city": "下田市",
    "city_kana": "シモダシ",
    "town": "武ガ浜",
    "town_kana": "タケガハマ",
    "street": null,
    "office_name": null,
    "office_name_kana": null
  },
  "0016": {
    "zip_code": "4150016",
    "prefecture": "静岡県",
    "prefecture_kana": "シズオカケン",
    "prefecture_code": "22",
    "city": "下田市",
    "city_kana": "シモダシ",
    "town": "中",
    "town_kana": "ナカ",
    "street": null,
    "office_name": null,
    "office_name_kana": null
  },
  "0017": {
    "zip_code": "4150017",
    "prefecture": "静岡県",
    "prefecture_kana": "シズオカケン",
    "prefecture_code": "22",
    "city": "下田市",
    "city_kana": "シモダシ",
    "town": "東中",
    "town_kana": "ヒガシナカ",
    "street": null,
    "office_name": null,
    "office_name_kana": null
  },
  "0018": {
    "zip_code": "4150018",
    "prefecture": "静岡県",
    "prefecture_kana": "シズオカケン",
    "prefecture_code": "22",
    "city": "下田市",
    "city_kana": "シモダシ",
    "town": "西中",
    "town_kana": "ニシナカ",
    "street": null,
    "office_name": null,
    "office_name_kana": null
  },
  "0021": {
    "zip_code": "4150021",
    "prefecture": "静岡県",
    "prefecture_kana": "シズオカケン",
    "prefecture_code": "22",
    "city": "下田市",
    "city_kana": "シモダシ",
    "town": "一丁目",
    "town_kana": "イッチョウメ",
    "street": null,
    "office_name": null,
    "office_name_kana": null
  },
  "0022": {
    "zip_code": "4150022",
    "prefecture": "静岡県",
    "prefecture_kana": "シズオカケン",
    "prefecture_code": "22",
    "city": "下田市",
    "city_kana": "シモダシ",
    "town": "二丁目",
    "town_kana": "ニチョウメ",
    "street": null,
    "office_name": null,
    "office_name_kana": null
  },
  "0023": {
    "zip_code": "4150023",
    "prefecture": "静岡県",
    "prefecture_kana": "シズオカケン",
    "prefecture_code": "22",
    "city": "下田市",
    "city_kana": "シモダシ",
    "town": "三丁目",
    "town_kana": "サンチョウメ",
    "street": null,
    "office_name": null,
    "office_name_kana": null
  },
  "0024": {
    "zip_code": "4150024",
    "prefecture": "静岡県",
    "prefecture_kana": "シズオカケン",
    "prefecture_code": "22",
    "city": "下田市",
    "city_kana": "シモダシ",
    "town": "四丁目",
    "town_kana": "ヨンチョウメ",
    "street": null,
    "office_name": null,
    "office_name_kana": null
  },
  "0025": {
    "zip_code": "4150025",
    "prefecture": "静岡県",
    "prefecture_kana": "シズオカケン",
    "prefecture_code": "22",
    "city": "下田市",
    "city_kana": "シモダシ",
    "town": "五丁目",
    "town_kana": "ゴチョウメ",
    "street": null,
    "office_name": null,
    "office_name_kana": null
  },
  "0026": {
    "zip_code": "4150026",
    "prefecture": "静岡県",
    "prefecture_kana": "シズオカケン",
    "prefecture_code": "22",
    "city": "下田市",
    "city_kana": "シモダシ",
    "town": "六丁目",
    "town_kana": "ロクチョウメ",
    "street": null,
    "office_name": null,
    "office_name_kana": null
  },
  "0027": {
    "zip_code": "4150027",
    "prefecture": "静岡県",
    "prefecture_kana": "シズオカケン",
    "prefecture_code": "22",
    "city": "下田市",
    "city_kana": "シモダシ",
    "town": "旧岡方村",
    "town_kana": "キュウオカガタムラ",
    "street": null,
    "office_name": null,
    "office_name_kana": null
  },
  "0028": {
    "zip_code": "4150028",
    "prefecture": "静岡県",
    "prefecture_kana": "シズオカケン",
    "prefecture_code": "22",
    "city": "下田市",
    "city_kana": "シモダシ",
    "town": "吉佐美",
    "town_kana": "キサミ",
    "street": null,
    "office_name": null,
    "office_name_kana": null
  },
  "0029": {
    "zip_code": "4150029",
    "prefecture": "静岡県",
    "prefecture_kana": "シズオカケン",
    "prefecture_code": "22",
    "city": "下田市",
    "city_kana": "シモダシ",
    "town": "田牛",
    "town_kana": "トウジ",
    "street": null,
    "office_name": null,
    "office_name_kana": null
  },
  "0031": {
    "zip_code": "4150031",
    "prefecture": "静岡県",
    "prefecture_kana": "シズオカケン",
    "prefecture_code": "22",
    "city": "下田市",
    "city_kana": "シモダシ",
    "town": "蓮台寺",
    "town_kana": "レンダイジ",
    "street": null,
    "office_name": null,
    "office_name_kana": null
  },
  "0032": {
    "zip_code": "4150032",
    "prefecture": "静岡県",
    "prefecture_kana": "シズオカケン",
    "prefecture_code": "22",
    "city": "下田市",
    "city_kana": "シモダシ",
    "town": "立野",
    "town_kana": "タチノ",
    "street": null,
    "office_name": null,
    "office_name_kana": null
  },
  "0033": {
    "zip_code": "4150033",
    "prefecture": "静岡県",
    "prefecture_kana": "シズオカケン",
    "prefecture_code": "22",
    "city": "下田市",
    "city_kana": "シモダシ",
    "town": "本郷",
    "town_kana": "ホンゴウ",
    "street": null,
    "office_name": null,
    "office_name_kana": null
  },
  "0034": {
    "zip_code": "4150034",
    "prefecture": "静岡県",
    "prefecture_kana": "シズオカケン",
    "prefecture_code": "22",
    "city": "下田市",
    "city_kana": "シモダシ",
    "town": "高馬",
    "town_kana": "タコウマ",
    "street": null,
    "office_name": null,
    "office_name_kana": null
  },
  "0035": {
    "zip_code": "4150035",
    "prefecture": "静岡県",
    "prefecture_kana": "シズオカケン",
    "prefecture_code": "22",
    "city": "下田市",
    "city_kana": "シモダシ",
    "town": "東本郷",
    "town_kana": "ヒガシホンゴウ",
    "street": null,
    "office_name": null,
    "office_name_kana": null
  },
  "0036": {
    "zip_code": "4150036",
    "prefecture": "静岡県",
    "prefecture_kana": "シズオカケン",
    "prefecture_code": "22",
    "city": "下田市",
    "city_kana": "シモダシ",
    "town": "西本郷",
    "town_kana": "ニシホンゴウ",
    "street": null,
    "office_name": null,
    "office_name_kana": null
  },
  "0037": {
    "zip_code": "4150037",
    "prefecture": "静岡県",
    "prefecture_kana": "シズオカケン",
    "prefecture_code": "22",
    "city": "下田市",
    "city_kana": "シモダシ",
    "town": "敷根",
    "town_kana": "シキネ",
    "street": null,
    "office_name": null,
    "office_name_kana": null
  },
  "0038": {
    "zip_code": "4150038",
    "prefecture": "静岡県",
    "prefecture_kana": "シズオカケン",
    "prefecture_code": "22",
    "city": "下田市",
    "city_kana": "シモダシ",
    "town": "大賀茂",
    "town_kana": "オオガモ",
    "street": null,
    "office_name": null,
    "office_name_kana": null
  },
  "0039": {
    "zip_code": "4150039",
    "prefecture": "静岡県",
    "prefecture_kana": "シズオカケン",
    "prefecture_code": "22",
    "city": "下田市",
    "city_kana": "シモダシ",
    "town": "大沢",
    "town_kana": "オオサワ",
    "street": null,
    "office_name": null,
    "office_name_kana": null
  },
  "0151": {
    "zip_code": "4150151",
    "prefecture": "静岡県",
    "prefecture_kana": "シズオカケン",
    "prefecture_code": "22",
    "city": "賀茂郡南伊豆町",
    "city_kana": "カモグンミナミイズチョウ",
    "town": "青市",
    "town_kana": "アオイチ",
    "street": null,
    "office_name": null,
    "office_name_kana": null
  },
  "0152": {
    "zip_code": "4150152",
    "prefecture": "静岡県",
    "prefecture_kana": "シズオカケン",
    "prefecture_code": "22",
    "city": "賀茂郡南伊豆町",
    "city_kana": "カモグンミナミイズチョウ",
    "town": "湊",
    "town_kana": "ミナト",
    "street": null,
    "office_name": null,
    "office_name_kana": null
  },
  "0153": {
    "zip_code": "4150153",
    "prefecture": "静岡県",
    "prefecture_kana": "シズオカケン",
    "prefecture_code": "22",
    "city": "賀茂郡南伊豆町",
    "city_kana": "カモグンミナミイズチョウ",
    "town": "手石",
    "town_kana": "テイシ",
    "street": null,
    "office_name": null,
    "office_name_kana": null
  },
  "0154": {
    "zip_code": "4150154",
    "prefecture": "静岡県",
    "prefecture_kana": "シズオカケン",
    "prefecture_code": "22",
    "city": "賀茂郡南伊豆町",
    "city_kana": "カモグンミナミイズチョウ",
    "town": "下流",
    "town_kana": "シタル",
    "street": null,
    "office_name": null,
    "office_name_kana": null
  },
  "0155": {
    "zip_code": "4150155",
    "prefecture": "静岡県",
    "prefecture_kana": "シズオカケン",
    "prefecture_code": "22",
    "city": "賀茂郡南伊豆町",
    "city_kana": "カモグンミナミイズチョウ",
    "town": "大瀬",
    "town_kana": "オオセ",
    "street": null,
    "office_name": null,
    "office_name_kana": null
  },
  "0156": {
    "zip_code": "4150156",
    "prefecture": "静岡県",
    "prefecture_kana": "シズオカケン",
    "prefecture_code": "22",
    "city": "賀茂郡南伊豆町",
    "city_kana": "カモグンミナミイズチョウ",
    "town": "石廊崎",
    "town_kana": "イロウザキ",
    "street": null,
    "office_name": null,
    "office_name_kana": null
  },
  "0192": {
    "zip_code": "4150192",
    "prefecture": "静岡県",
    "prefecture_kana": "シズオカケン",
    "prefecture_code": "22",
    "city": "賀茂郡南伊豆町",
    "city_kana": "カモグンミナミイズチョウ",
    "town": "湊",
    "town_kana": "ミナト",
    "street": "８８８",
    "office_name": "南伊豆国民休暇村",
    "office_name_kana": "ミナミイズコクミンキユウカムラ"
  },
  "0193": {
    "zip_code": "4150193",
    "prefecture": "静岡県",
    "prefecture_kana": "シズオカケン",
    "prefecture_code": "22",
    "city": "賀茂郡南伊豆町",
    "city_kana": "カモグンミナミイズチョウ",
    "town": "湊",
    "town_kana": "ミナト",
    "street": "６７４",
    "office_name": "共立湊病院",
    "office_name_kana": "キヨウリツミナトビヨウイン"
  },
  "0194": {
    "zip_code": "4150194",
    "prefecture": "静岡県",
    "prefecture_kana": "シズオカケン",
    "prefecture_code": "22",
    "city": "賀茂郡南伊豆町",
    "city_kana": "カモグンミナミイズチョウ",
    "town": "青市",
    "town_kana": "アオイチ",
    "street": "１０３１−１",
    "office_name": "南伊豆町観光協会",
    "office_name_kana": "ミナミイズチヨウカンコウキヨウカイ"
  },
  "0300": {
    "zip_code": "4150300",
    "prefecture": "静岡県",
    "prefecture_kana": "シズオカケン",
    "prefecture_code": "22",
    "city": "賀茂郡南伊豆町",
    "city_kana": "カモグンミナミイズチョウ",
    "town": "",
    "town_kana": "",
    "street": null,
    "office_name": null,
    "office_name_kana": null
  },
  "0301": {
    "zip_code": "4150301",
    "prefecture": "静岡県",
    "prefecture_kana": "シズオカケン",
    "prefecture_code": "22",
    "city": "賀茂郡南伊豆町",
    "city_kana": "カモグンミナミイズチョウ",
    "town": "一條",
    "town_kana": "イチジョウ",
    "street": null,
    "office_name": null,
    "office_name_kana": null
  },
  "0302": {
    "zip_code": "4150302",
    "prefecture": "静岡県",
    "prefecture_kana": "シズオカケン",
    "prefecture_code": "22",
    "city": "賀茂郡南伊豆町",
    "city_kana": "カモグンミナミイズチョウ",
    "town": "上賀茂",
    "town_kana": "カミガモ",
    "street": null,
    "office_name": null,
    "office_name_kana": null
  },
  "0303": {
    "zip_code": "4150303",
    "prefecture": "静岡県",
    "prefecture_kana": "シズオカケン",
    "prefecture_code": "22",
    "city": "賀茂郡南伊豆町",
    "city_kana": "カモグンミナミイズチョウ",
    "town": "下賀茂",
    "town_kana": "シモガモ",
    "street": null,
    "office_name": null,
    "office_name_kana": null
  },
  "0304": {
    "zip_code": "4150304",
    "prefecture": "静岡県",
    "prefecture_kana": "シズオカケン",
    "prefecture_code": "22",
    "city": "賀茂郡南伊豆町",
    "city_kana": "カモグンミナミイズチョウ",
    "town": "加納",
    "town_kana": "カノウ",
    "street": null,
    "office_name": null,
    "office_name_kana": null
  },
  "0305": {
    "zip_code": "4150305",
    "prefecture": "静岡県",
    "prefecture_kana": "シズオカケン",
    "prefecture_code": "22",
    "city": "賀茂郡南伊豆町",
    "city_kana": "カモグンミナミイズチョウ",
    "town": "二條",
    "town_kana": "ニジョウ",
    "street": null,
    "office_name": null,
    "office_name_kana": null
  },
  "0306": {
    "zip_code": "4150306",
    "prefecture": "静岡県",
    "prefecture_kana": "シズオカケン",
    "prefecture_code": "22",
    "city": "賀茂郡南伊豆町",
    "city_kana": "カモグンミナミイズチョウ",
    "town": "石井",
    "town_kana": "イシイ",
    "street": null,
    "office_name": null,
    "office_name_kana": null
  },
  "0311": {
    "zip_code": "4150311",
    "prefecture": "静岡県",
    "prefecture_kana": "シズオカケン",
    "prefecture_code": "22",
    "city": "賀茂郡南伊豆町",
    "city_kana": "カモグンミナミイズチョウ",
    "town": "中木",
    "town_kana": "ナカギ",
    "street": null,
    "office_name": null,
    "office_name_kana": null
  },
  "0312": [
    {
      "zip_code": "4150312",
      "prefecture": "静岡県",
      "prefecture_kana": "シズオカケン",
      "prefecture_code": "22",
      "city": "賀茂郡南伊豆町",
      "city_kana": "カモグンミナミイズチョウ",
      "town": "入間",
      "town_kana": "イルマ",
      "street": null,
      "office_name": null,
      "office_name_kana": null
    },
    {
      "zip_code": "4150312",
      "prefecture": "静岡県",
      "prefecture_kana": "シズオカケン",
      "prefecture_code": "22",
      "city": "賀茂郡南伊豆町",
      "city_kana": "カモグンミナミイズチョウ",
      "town": "差田",
      "town_kana": "サシダ",
      "street": null,
      "office_name": null,
      "office_name_kana": null
    }
  ],
  "0313": {
    "zip_code": "4150313",
    "prefecture": "静岡県",
    "prefecture_kana": "シズオカケン",
    "prefecture_code": "22",
    "city": "賀茂郡南伊豆町",
    "city_kana": "カモグンミナミイズチョウ",
    "town": "一色",
    "town_kana": "イシキ",
    "street": null,
    "office_name": null,
    "office_name_kana": null
  },
  "0314": {
    "zip_code": "4150314",
    "prefecture": "静岡県",
    "prefecture_kana": "シズオカケン",
    "prefecture_code": "22",
    "city": "賀茂郡南伊豆町",
    "city_kana": "カモグンミナミイズチョウ",
    "town": "蝶ケ野",
    "town_kana": "チョウガノ",
    "street": null,
    "office_name": null,
    "office_name_kana": null
  },
  "0321": {
    "zip_code": "4150321",
    "prefecture": "静岡県",
    "prefecture_kana": "シズオカケン",
    "prefecture_code": "22",
    "city": "賀茂郡南伊豆町",
    "city_kana": "カモグンミナミイズチョウ",
    "town": "毛倉野",
    "town_kana": "ケグラノ",
    "street": null,
    "office_name": null,
    "office_name_kana": null
  },
  "0322": {
    "zip_code": "4150322",
    "prefecture": "静岡県",
    "prefecture_kana": "シズオカケン",
    "prefecture_code": "22",
    "city": "賀茂郡南伊豆町",
    "city_kana": "カモグンミナミイズチョウ",
    "town": "岩殿",
    "town_kana": "イワドノ",
    "street": null,
    "office_name": null,
    "office_name_kana": null
  },
  "0323": [
    {
      "zip_code": "4150323",
      "prefecture": "静岡県",
      "prefecture_kana": "シズオカケン",
      "prefecture_code": "22",
      "city": "賀茂郡南伊豆町",
      "city_kana": "カモグンミナミイズチョウ",
      "town": "川合野",
      "town_kana": "カワイノ",
      "street": null,
      "office_name": null,
      "office_name_kana": null
    },
    {
      "zip_code": "4150323",
      "prefecture": "静岡県",
      "prefecture_kana": "シズオカケン",
      "prefecture_code": "22",
      "city": "賀茂郡南伊豆町",
      "city_kana": "カモグンミナミイズチョウ",
      "town": "下小野",
      "town_kana": "シモオノ",
      "street": null,
      "office_name": null,
      "office_name_kana": null
    }
  ],
  "0324": {
    "zip_code": "4150324",
    "prefecture": "静岡県",
    "prefecture_kana": "シズオカケン",
    "prefecture_code": "22",
    "city": "賀茂郡南伊豆町",
    "city_kana": "カモグンミナミイズチョウ",
    "town": "上小野",
    "town_kana": "カミオノ",
    "street": null,
    "office_name": null,
    "office_name_kana": null
  },
  "0325": [
    {
      "zip_code": "4150325",
      "prefecture": "静岡県",
      "prefecture_kana": "シズオカケン",
      "prefecture_code": "22",
      "city": "賀茂郡南伊豆町",
      "city_kana": "カモグンミナミイズチョウ",
      "town": "市之瀬",
      "town_kana": "イチノセ",
      "street": null,
      "office_name": null,
      "office_name_kana": null
    },
    {
      "zip_code": "4150325",
      "prefecture": "静岡県",
      "prefecture_kana": "シズオカケン",
      "prefecture_code": "22",
      "city": "賀茂郡南伊豆町",
      "city_kana": "カモグンミナミイズチョウ",
      "town": "平戸",
      "town_kana": "ヒラド",
      "street": null,
      "office_name": null,
      "office_name_kana": null
    }
  ],
  "0326": {
    "zip_code": "4150326",
    "prefecture": "静岡県",
    "prefecture_kana": "シズオカケン",
    "prefecture_code": "22",
    "city": "賀茂郡南伊豆町",
    "city_kana": "カモグンミナミイズチョウ",
    "town": "蛇石",
    "town_kana": "ジャイシ",
    "street": null,
    "office_name": null,
    "office_name_kana": null
  },
  "0327": {
    "zip_code": "4150327",
    "prefecture": "静岡県",
    "prefecture_kana": "シズオカケン",
    "prefecture_code": "22",
    "city": "賀茂郡南伊豆町",
    "city_kana": "カモグンミナミイズチョウ",
    "town": "青野",
    "town_kana": "アオノ",
    "street": null,
    "office_name": null,
    "office_name_kana": null
  },
  "0392": {
    "zip_code": "4150392",
    "prefecture": "静岡県",
    "prefecture_kana": "シズオカケン",
    "prefecture_code": "22",
    "city": "賀茂郡南伊豆町",
    "city_kana": "カモグンミナミイズチョウ",
    "town": "下賀茂",
    "town_kana": "シモガモ",
    "street": "３２８−２",
    "office_name": "南伊豆町役場",
    "office_name_kana": "ミナミイズチヨウヤクバ"
  },
  "0531": [
    {
      "zip_code": "4150531",
      "prefecture": "静岡県",
      "prefecture_kana": "シズオカケン",
      "prefecture_code": "22",
      "city": "賀茂郡南伊豆町",
      "city_kana": "カモグンミナミイズチョウ",
      "town": "一町田",
      "town_kana": "イッチョウダ",
      "street": null,
      "office_name": null,
      "office_name_kana": null
    },
    {
      "zip_code": "4150531",
      "prefecture": "静岡県",
      "prefecture_kana": "シズオカケン",
      "prefecture_code": "22",
      "city": "賀茂郡南伊豆町",
      "city_kana": "カモグンミナミイズチョウ",
      "town": "伊浜",
      "town_kana": "イハマ",
      "street": null,
      "office_name": null,
      "office_name_kana": null
    },
    {
      "zip_code": "4150531",
      "prefecture": "静岡県",
      "prefecture_kana": "シズオカケン",
      "prefecture_code": "22",
      "city": "賀茂郡南伊豆町",
      "city_kana": "カモグンミナミイズチョウ",
      "town": "落居",
      "town_kana": "オチイ",
      "street": null,
      "office_name": null,
      "office_name_kana": null
    },
    {
      "zip_code": "4150531",
      "prefecture": "静岡県",
      "prefecture_kana": "シズオカケン",
      "prefecture_code": "22",
      "city": "賀茂郡南伊豆町",
      "city_kana": "カモグンミナミイズチョウ",
      "town": "天神原",
      "town_kana": "テンジンバラ",
      "street": null,
      "office_name": null,
      "office_name_kana": null
    }
  ],
  "0532": {
    "zip_code": "4150532",
    "prefecture": "静岡県",
    "prefecture_kana": "シズオカケン",
    "prefecture_code": "22",
    "city": "賀茂郡南伊豆町",
    "city_kana": "カモグンミナミイズチョウ",
    "town": "子浦",
    "town_kana": "コウラ",
    "street": null,
    "office_name": null,
    "office_name_kana": null
  },
  "0533": [
    {
      "zip_code": "4150533",
      "prefecture": "静岡県",
      "prefecture_kana": "シズオカケン",
      "prefecture_code": "22",
      "city": "賀茂郡南伊豆町",
      "city_kana": "カモグンミナミイズチョウ",
      "town": "立岩",
      "town_kana": "タテイワ",
      "street": null,
      "office_name": null,
      "office_name_kana": null
    },
    {
      "zip_code": "4150533",
      "prefecture": "静岡県",
      "prefecture_kana": "シズオカケン",
      "prefecture_code": "22",
      "city": "賀茂郡南伊豆町",
      "city_kana": "カモグンミナミイズチョウ",
      "town": "妻良",
      "town_kana": "メラ",
      "street": null,
      "office_name": null,
      "office_name_kana": null
    },
    {
      "zip_code": "4150533",
      "prefecture": "静岡県",
      "prefecture_kana": "シズオカケン",
      "prefecture_code": "22",
      "city": "賀茂郡南伊豆町",
      "city_kana": "カモグンミナミイズチョウ",
      "town": "吉田",
      "town_kana": "ヨシダ",
      "street": null,
      "office_name": null,
      "office_name_kana": null
    }
  ],
  "8501": {
    "zip_code": "4158501",
    "prefecture": "静岡県",
    "prefecture_kana": "シズオカケン",
    "prefecture_code": "22",
    "city": "下田市",
    "city_kana": "シモダシ",
    "town": "東本郷",
    "town_kana": "ヒガシホンゴウ",
    "street": "１丁目５−１８",
    "office_name": "下田市役所",
    "office_name_kana": "シモダシヤクシヨ"
  },
  "8502": {
    "zip_code": "4158502",
    "prefecture": "静岡県",
    "prefecture_kana": "シズオカケン",
    "prefecture_code": "22",
    "city": "下田市",
    "city_kana": "シモダシ",
    "town": "三丁目",
    "town_kana": "サンチョウメ",
    "street": "２２−３１",
    "office_name": "藤田観光　（株）　下田事業所",
    "office_name_kana": "フジタカンコウ (カブ) シモダジギヨウシヨ"
  },
  "8505": {
    "zip_code": "4158505",
    "prefecture": "静岡県",
    "prefecture_kana": "シズオカケン",
    "prefecture_code": "22",
    "city": "下田市",
    "city_kana": "シモダシ",
    "town": "",
    "town_kana": "",
    "street": "１−４−２８",
    "office_name": "下田市　観光協会",
    "office_name_kana": "シモダシ カンコウキヨウカイ"
  },
  "8506": {
    "zip_code": "4158506",
    "prefecture": "静岡県",
    "prefecture_kana": "シズオカケン",
    "prefecture_code": "22",
    "city": "下田市",
    "city_kana": "シモダシ",
    "town": "",
    "town_kana": "",
    "street": "１−４−２８",
    "office_name": "下田市　民宿組合連合会",
    "office_name_kana": "シモダシ ミンシユククミアイレンゴウカイ"
  },
  "8507": {
    "zip_code": "4158507",
    "prefecture": "静岡県",
    "prefecture_kana": "シズオカケン",
    "prefecture_code": "22",
    "city": "下田市",
    "city_kana": "シモダシ",
    "town": "東本郷",
    "town_kana": "ヒガシホンゴウ",
    "street": "１丁目１９−１７",
    "office_name": "株式会社　永谷",
    "office_name_kana": "カブシキガイシヤ ナガタニ"
  },
  "8508": {
    "zip_code": "4158508",
    "prefecture": "静岡県",
    "prefecture_kana": "シズオカケン",
    "prefecture_code": "22",
    "city": "下田市",
    "city_kana": "シモダシ",
    "town": "二丁目",
    "town_kana": "ニチョウメ",
    "street": "１−１４",
    "office_name": "株式会社　静岡銀行　下田支店",
    "office_name_kana": "カブシキガイシヤ シズオカギンコウ シモダシテン"
  },
  "8509": {
    "zip_code": "4158509",
    "prefecture": "静岡県",
    "prefecture_kana": "シズオカケン",
    "prefecture_code": "22",
    "city": "下田市",
    "city_kana": "シモダシ",
    "town": "四丁目",
    "town_kana": "ヨンチョウメ",
    "street": "５−２６",
    "office_name": "下田公共職業安定所",
    "office_name_kana": "シモダコウキヨウシヨクギヨウアンテイジヨ"
  },
  "8510": {
    "zip_code": "4158510",
    "prefecture": "静岡県",
    "prefecture_kana": "シズオカケン",
    "prefecture_code": "22",
    "city": "下田市",
    "city_kana": "シモダシ",
    "town": "五丁目",
    "town_kana": "ゴチョウメ",
    "street": "１２−１",
    "office_name": "株式会社　下田東急ホテル",
    "office_name_kana": "カブシキガイシヤ シモダトウキユウホテル"
  },
  "8511": {
    "zip_code": "4158511",
    "prefecture": "静岡県",
    "prefecture_kana": "シズオカケン",
    "prefecture_code": "22",
    "city": "下田市",
    "city_kana": "シモダシ",
    "town": "吉佐美",
    "town_kana": "キサミ",
    "street": "２０４８",
    "office_name": "株式会社　下田大和館",
    "office_name_kana": "カブシキガイシヤ シモダヤマトカン"
  },
  "8512": {
    "zip_code": "4158512",
    "prefecture": "静岡県",
    "prefecture_kana": "シズオカケン",
    "prefecture_code": "22",
    "city": "下田市",
    "city_kana": "シモダシ",
    "town": "白浜",
    "town_kana": "シラハマ",
    "street": "２７３２−７",
    "office_name": "ホテル伊豆急",
    "office_name_kana": "ホテルイズキユウ"
  },
  "8513": {
    "zip_code": "4158513",
    "prefecture": "静岡県",
    "prefecture_kana": "シズオカケン",
    "prefecture_code": "22",
    "city": "下田市",
    "city_kana": "シモダシ",
    "town": "中",
    "town_kana": "ナカ",
    "street": "４６７",
    "office_name": "下田ガス　株式会社",
    "office_name_kana": "シモダガス カブシキガイシヤ"
  },
  "8514": {
    "zip_code": "4158514",
    "prefecture": "静岡県",
    "prefecture_kana": "シズオカケン",
    "prefecture_code": "22",
    "city": "下田市",
    "city_kana": "シモダシ",
    "town": "柿崎",
    "town_kana": "カキサキ",
    "street": "３−８",
    "office_name": "株式会社　黒船ホテル",
    "office_name_kana": "カブシキガイシヤ クロフネホテル"
  },
  "8515": {
    "zip_code": "4158515",
    "prefecture": "静岡県",
    "prefecture_kana": "シズオカケン",
    "prefecture_code": "22",
    "city": "下田市",
    "city_kana": "シモダシ",
    "town": "六丁目",
    "town_kana": "ロクチョウメ",
    "street": "３−２６",
    "office_name": "下田税務署",
    "office_name_kana": "シモダゼイムシヨ"
  },
  "8516": {
    "zip_code": "4158516",
    "prefecture": "静岡県",
    "prefecture_kana": "シズオカケン",
    "prefecture_code": "22",
    "city": "下田市",
    "city_kana": "シモダシ",
    "town": "中",
    "town_kana": "ナカ",
    "street": "５４１−１",
    "office_name": "賀茂米穀卸　株式会社",
    "office_name_kana": "カモベイコクオロシ カブシキガイシヤ"
  },
  "8517": {
    "zip_code": "4158517",
    "prefecture": "静岡県",
    "prefecture_kana": "シズオカケン",
    "prefecture_code": "22",
    "city": "下田市",
    "city_kana": "シモダシ",
    "town": "東本郷",
    "town_kana": "ヒガシホンゴウ",
    "street": "１丁目１６−８",
    "office_name": "サガミシード　株式会社",
    "office_name_kana": "サガミシ-ド カブシキガイシヤ"
  },
  "8518": {
    "zip_code": "4158518",
    "prefecture": "静岡県",
    "prefecture_kana": "シズオカケン",
    "prefecture_code": "22",
    "city": "下田市",
    "city_kana": "シモダシ",
    "town": "東本郷",
    "town_kana": "ヒガシホンゴウ",
    "street": "１丁目１２−８",
    "office_name": "伊豆太陽農業　協同組合",
    "office_name_kana": "イズタイヨウノウギヨウ キヨウドウクミアイ"
  },
  "8520": {
    "zip_code": "4158520",
    "prefecture": "静岡県",
    "prefecture_kana": "シズオカケン",
    "prefecture_code": "22",
    "city": "下田市",
    "city_kana": "シモダシ",
    "town": "四丁目",
    "town_kana": "ヨンチョウメ",
    "street": "７−３４",
    "office_name": "静岡地方裁判所　下田支部",
    "office_name_kana": "シズオカチホウサイバンシヨ シモダシブ"
  },
  "8521": {
    "zip_code": "4158521",
    "prefecture": "静岡県",
    "prefecture_kana": "シズオカケン",
    "prefecture_code": "22",
    "city": "下田市",
    "city_kana": "シモダシ",
    "town": "西本郷",
    "town_kana": "ニシホンゴウ",
    "street": "１丁目５−２",
    "office_name": "伊豆下田病院",
    "office_name_kana": "イズシモダビヨウイン"
  },
  "8522": {
    "zip_code": "4158522",
    "prefecture": "静岡県",
    "prefecture_kana": "シズオカケン",
    "prefecture_code": "22",
    "city": "下田市",
    "city_kana": "シモダシ",
    "town": "一丁目",
    "town_kana": "イッチョウメ",
    "street": "１２−３",
    "office_name": "ＮＴＴ　下田営業所",
    "office_name_kana": "エヌテイテイ シモダエイギヨウシヨ"
  },
  "8523": {
    "zip_code": "4158523",
    "prefecture": "静岡県",
    "prefecture_kana": "シズオカケン",
    "prefecture_code": "22",
    "city": "下田市",
    "city_kana": "シモダシ",
    "town": "中",
    "town_kana": "ナカ",
    "street": "５３７−１",
    "office_name": "東京電力　株式会社　下田営業所",
    "office_name_kana": "トウキヨウデンリヨク カブシキガイシヤ シモダエイギヨウシヨ"
  },
  "8524": {
    "zip_code": "4158524",
    "prefecture": "静岡県",
    "prefecture_kana": "シズオカケン",
    "prefecture_code": "22",
    "city": "下田市",
    "city_kana": "シモダシ",
    "town": "西本郷",
    "town_kana": "ニシホンゴウ",
    "street": "２丁目５−３３",
    "office_name": "静岡地方法務局　下田支局",
    "office_name_kana": "シズオカチホウホウムキヨク シモダシキヨク"
  },
  "8525": {
    "zip_code": "4158525",
    "prefecture": "静岡県",
    "prefecture_kana": "シズオカケン",
    "prefecture_code": "22",
    "city": "下田市",
    "city_kana": "シモダシ",
    "town": "白浜",
    "town_kana": "シラハマ",
    "street": "１５４７−１",
    "office_name": "下田プリンスホテル",
    "office_name_kana": "シモダプリンスホテル"
  },
  "8526": {
    "zip_code": "4158526",
    "prefecture": "静岡県",
    "prefecture_kana": "シズオカケン",
    "prefecture_code": "22",
    "city": "下田市",
    "city_kana": "シモダシ",
    "town": "六丁目",
    "town_kana": "ロクチョウメ",
    "street": "４−１",
    "office_name": "静岡県立下田南高等学校",
    "office_name_kana": "シズオカケンリツシモダミナミコウトウガツコウ"
  },
  "8527": {
    "zip_code": "4158527",
    "prefecture": "静岡県",
    "prefecture_kana": "シズオカケン",
    "prefecture_code": "22",
    "city": "下田市",
    "city_kana": "シモダシ",
    "town": "蓮台寺",
    "town_kana": "レンダイジ",
    "street": "１５２",
    "office_name": "静岡県立下田北高等学校",
    "office_name_kana": "シズオカケンリツシモダキタコウトウガツコウ"
  },
  "8528": {
    "zip_code": "4158528",
    "prefecture": "静岡県",
    "prefecture_kana": "シズオカケン",
    "prefecture_code": "22",
    "city": "下田市",
    "city_kana": "シモダシ",
    "town": "東中",
    "town_kana": "ヒガシナカ",
    "street": "７−８",
    "office_name": "下田警察署",
    "office_name_kana": "シモダケイサツシヨ"
  },
  "8530": {
    "zip_code": "4158530",
    "prefecture": "静岡県",
    "prefecture_kana": "シズオカケン",
    "prefecture_code": "22",
    "city": "下田市",
    "city_kana": "シモダシ",
    "town": "東本郷",
    "town_kana": "ヒガシホンゴウ",
    "street": "１丁目６−２３",
    "office_name": "株式会社　サンプラーザ",
    "office_name_kana": "カブシキガイシヤ サンプラ-ザ"
  },
  "8602": {
    "zip_code": "4158602",
    "prefecture": "静岡県",
    "prefecture_kana": "シズオカケン",
    "prefecture_code": "22",
    "city": "下田市",
    "city_kana": "シモダシ",
    "town": "一丁目",
    "town_kana": "イッチョウメ",
    "street": "１９−１（下田郵便局私書箱第１号）",
    "office_name": "下田信用金庫",
    "office_name_kana": "シモダシンヨウキンコ"
  },
  "8603": {
    "zip_code": "4158603",
    "prefecture": "静岡県",
    "prefecture_kana": "シズオカケン",
    "prefecture_code": "22",
    "city": "下田市",
    "city_kana": "シモダシ",
    "town": "二丁目",
    "town_kana": "ニチョウメ",
    "street": "１２−１７（下田郵便局私書箱第１６号）",
    "office_name": "下田商工会議所",
    "office_name_kana": "シモダシヨウコウカイギシヨ"
  },
  "8611": {
    "zip_code": "4158611",
    "prefecture": "静岡県",
    "prefecture_kana": "シズオカケン",
    "prefecture_code": "22",
    "city": "下田市",
    "city_kana": "シモダシ",
    "town": "中",
    "town_kana": "ナカ",
    "street": "４１１−１（下田郵便局私書箱第８号）",
    "office_name": "河津建設　株式会社",
    "office_name_kana": "カワヅケンセツ カブシキガイシヤ"
  }
}