{
  "0000": {
    "zip_code": "4270000",
    "prefecture": "静岡県",
    "prefecture_kana": "シズオカケン",
    "prefecture_code": "22",
    "city": "島田市",
    "city_kana": "シマダシ",
    "town": "",
    "town_kana": "",
    "street": null,
    "office_name": null,
    "office_name_kana": null
  },
  "0001": {
    "zip_code": "4270001",
    "prefecture": "静岡県",
    "prefecture_kana": "シズオカケン",
    "prefecture_code": "22",
    "city": "島田市",
    "city_kana": "シマダシ",
    "town": "千葉",
    "town_kana": "チバ",
    "street": null,
    "office_name": null,
    "office_name_kana": null
  },
  "0002": {
    "zip_code": "4270002",
    "prefecture": "静岡県",
    "prefecture_kana": "シズオカケン",
    "prefecture_code": "22",
    "city": "島田市",
    "city_kana": "シマダシ",
    "town": "大草",
    "town_kana": "オオクサ",
    "street": null,
    "office_name": null,
    "office_name_kana": null
  },
  "0003": {
    "zip_code": "4270003",
    "prefecture": "静岡県",
    "prefecture_kana": "シズオカケン",
    "prefecture_code": "22",
    "city": "島田市",
    "city_kana": "シマダシ",
    "town": "東光寺",
    "town_kana": "トウコウジ",
    "street": null,
    "office_name": null,
    "office_name_kana": null
  },
  "0004": {
    "zip_code": "4270004",
    "prefecture": "静岡県",
    "prefecture_kana": "シズオカケン",
    "prefecture_code": "22",
    "city": "島田市",
    "city_kana": "シマダシ",
    "town": "岸",
    "town_kana": "キシ",
    "street": null,
    "office_name": null,
    "office_name_kana": null
  },
  "0005": {
    "zip_code": "4270005",
    "prefecture": "静岡県",
    "prefecture_kana": "シズオカケン",
    "prefecture_code": "22",
    "city": "島田市",
    "city_kana": "シマダシ",
    "town": "岸町",
    "town_kana": "キシチョウ",
    "street": null,
    "office_name": null,
    "office_name_kana": null
  },
  "0006": {
    "zip_code": "4270006",
    "prefecture": "静岡県",
    "prefecture_kana": "シズオカケン",
    "prefecture_code": "22",
    "city": "島田市",
    "city_kana": "シマダシ",
    "town": "阿知ケ谷",
    "town_kana": "アチガヤ",
    "street": null,
    "office_name": null,
    "office_name_kana": null
  },
  "0007": {
    "zip_code": "4270007",
    "prefecture": "静岡県",
    "prefecture_kana": "シズオカケン",
    "prefecture_code": "22",
    "city": "島田市",
    "city_kana": "シマダシ",
    "town": "野田",
    "town_kana": "ノダ",
    "street": null,
    "office_name": null,
    "office_name_kana": null
  },
  "0008": {
    "zip_code": "4270008",
    "prefecture": "静岡県",
    "prefecture_kana": "シズオカケン",
    "prefecture_code": "22",
    "city": "島田市",
    "city_kana": "シマダシ",
    "town": "落合",
    "town_kana": "オチアイ",
    "street": null,
    "office_name": null,
    "office_name_kana": null
  },
  "0009": {
    "zip_code": "4270009",
    "prefecture": "静岡県",
    "prefecture_kana": "シズオカケン",
    "prefecture_code": "22",
    "city": "島田市",
    "city_kana": "シマダシ",
    "town": "尾川",
    "town_kana": "オガワ",
    "street": null,
    "office_name": null,
    "office_name_kana": null
  },
  "0011": {
    "zip_code": "4270011",
    "prefecture": "静岡県",
    "prefecture_kana": "シズオカケン",
    "prefecture_code": "22",
    "city": "島田市",
    "city_kana": "シマダシ",
    "town": "東町",
    "town_kana": "ヒガシチョウ",
    "street": null,
    "office_name": null,
    "office_name_kana": null
  },
  "0012": {
    "zip_code": "4270012",
    "prefecture": "静岡県",
    "prefecture_kana": "シズオカケン",
    "prefecture_code": "22",
    "city": "島田市",
    "city_kana": "シマダシ",
    "town": "細島",
    "town_kana": "ホソジマ",
    "street": null,
    "office_name": null,
    "office_name_kana": null
  },
  "0013": {
    "zip_code": "4270013",
    "prefecture": "静岡県",
    "prefecture_kana": "シズオカケン",
    "prefecture_code": "22",
    "city": "島田市",
    "city_kana": "シマダシ",
    "town": "御請",
    "town_kana": "オウケ",
    "street": null,
    "office_name": null,
    "office_name_kana": null
  },
  "0014": {
    "zip_code": "4270014",
    "prefecture": "静岡県",
    "prefecture_kana": "シズオカケン",
    "prefecture_code": "22",
    "city": "島田市",
    "city_kana": "シマダシ",
    "town": "道悦島",
    "town_kana": "ドウエツジマ",
    "street": null,
    "office_name": null,
    "office_name_kana": null
  },
  "0015": {
    "zip_code": "4270015",
    "prefecture": "静岡県",
    "prefecture_kana": "シズオカケン",
    "prefecture_code": "22",
    "city": "島田市",
    "city_kana": "シマダシ",
    "town": "高島町",
    "town_kana": "タカジマチョウ",
    "street": null,
    "office_name": null,
    "office_name_kana": null
  },
  "0016": {
    "zip_code": "4270016",
    "prefecture": "静岡県",
    "prefecture_kana": "シズオカケン",
    "prefecture_code": "22",
    "city": "島田市",
    "city_kana": "シマダシ",
    "town": "宝来町",
    "town_kana": "ホウライチョウ",
    "street": null,
    "office_name": null,
    "office_name_kana": null
  },
  "0017": {
    "zip_code": "4270017",
    "prefecture": "静岡県",
    "prefecture_kana": "シズオカケン",
    "prefecture_code": "22",
    "city": "島田市",
    "city_kana": "シマダシ",
    "town": "南",
    "town_kana": "ミナミ",
    "street": null,
    "office_name": null,
    "office_name_kana": null
  },
  "0018": {
    "zip_code": "4270018",
    "prefecture": "静岡県",
    "prefecture_kana": "シズオカケン",
    "prefecture_code": "22",
    "city": "島田市",
    "city_kana": "シマダシ",
    "town": "旭",
    "town_kana": "アサヒ",
    "street": null,
    "office_name": null,
    "office_name_kana": null
  },
  "0019": {
    "zip_code": "4270019",
    "prefecture": "静岡県",
    "prefecture_kana": "シズオカケン",
    "prefecture_code": "22",
    "city": "島田市",
    "city_kana": "シマダシ",
    "town": "道悦",
    "town_kana": "ドウエツ",
    "street": null,
    "office_name": null,
    "office_name_kana": null
  },
  "0021": {
    "zip_code": "4270021",
    "prefecture": "静岡県",
    "prefecture_kana": "シズオカケン",
    "prefecture_code": "22",
    "city": "島田市",
    "city_kana": "シマダシ",
    "town": "柳町",
    "town_kana": "ヤナギマチ",
    "street": null,
    "office_name": null,
    "office_name_kana": null
  },
  "0022": {
    "zip_code": "4270022",
    "prefecture": "静岡県",
    "prefecture_kana": "シズオカケン",
    "prefecture_code": "22",
    "city": "島田市",
    "city_kana": "シマダシ",
    "town": "本通",
    "town_kana": "ホントオリ",
    "street": null,
    "office_name": null,
    "office_name_kana": null
  },
  "0023": {
    "zip_code": "4270023",
    "prefecture": "静岡県",
    "prefecture_kana": "シズオカケン",
    "prefecture_code": "22",
    "city": "島田市",
    "city_kana": "シマダシ",
    "town": "大川町",
    "town_kana": "オオカワチョウ",
    "street": null,
    "office_name": null,
    "office_name_kana": null
  },
  "0024": {
    "zip_code": "4270024",
    "prefecture": "静岡県",
    "prefecture_kana": "シズオカケン",
    "prefecture_code": "22",
    "city": "島田市",
    "city_kana": "シマダシ",
    "town": "横井",
    "town_kana": "ヨコイ",
    "street": null,
    "office_name": null,
    "office_name_kana": null
  },
  "0025": {
    "zip_code": "4270025",
    "prefecture": "静岡県",
    "prefecture_kana": "シズオカケン",
    "prefecture_code": "22",
    "city": "島田市",
    "city_kana": "シマダシ",
    "town": "大井町",
    "town_kana": "オオイチョウ",
    "street": null,
    "office_name": null,
    "office_name_kana": null
  },
  "0026": {
    "zip_code": "4270026",
    "prefecture": "静岡県",
    "prefecture_kana": "シズオカケン",
    "prefecture_code": "22",
    "city": "島田市",
    "city_kana": "シマダシ",
    "town": "扇町",
    "town_kana": "オウギマチ",
    "street": null,
    "office_name": null,
    "office_name_kana": null
  },
  "0027": {
    "zip_code": "4270027",
    "prefecture": "静岡県",
    "prefecture_kana": "シズオカケン",
    "prefecture_code": "22",
    "city": "島田市",
    "city_kana": "シマダシ",
    "town": "幸町",
    "town_kana": "サイワイマチ",
    "street": null,
    "office_name": null,
    "office_name_kana": null
  },
  "0028": {
    "zip_code": "4270028",
    "prefecture": "静岡県",
    "prefecture_kana": "シズオカケン",
    "prefecture_code": "22",
    "city": "島田市",
    "city_kana": "シマダシ",
    "town": "栄町",
    "town_kana": "サカエチョウ",
    "street": null,
    "office_name": null,
    "office_name_kana": null
  },
  "0029": {
    "zip_code": "4270029",
    "prefecture": "静岡県",
    "prefecture_kana": "シズオカケン",
    "prefecture_code": "22",
    "city": "島田市",
    "city_kana": "シマダシ",
    "town": "日之出町",
    "town_kana": "ヒノデチョウ",
    "street": null,
    "office_name": null,
    "office_name_kana": null
  },
  "0031": {
    "zip_code": "4270031",
    "prefecture": "静岡県",
    "prefecture_kana": "シズオカケン",
    "prefecture_code": "22",
    "city": "島田市",
    "city_kana": "シマダシ",
    "town": "鵜網",
    "town_kana": "ウアミ",
    "street": null,
    "office_name": null,
    "office_name_kana": null
  },
  "0032": {
    "zip_code": "4270032",
    "prefecture": "静岡県",
    "prefecture_kana": "シズオカケン",
    "prefecture_code": "22",
    "city": "島田市",
    "city_kana": "シマダシ",
    "town": "神座",
    "town_kana": "カンザ",
    "street": null,
    "office_name": null,
    "office_name_kana": null
  },
  "0033": {
    "zip_code": "4270033",
    "prefecture": "静岡県",
    "prefecture_kana": "シズオカケン",
    "prefecture_code": "22",
    "city": "島田市",
    "city_kana": "シマダシ",
    "town": "相賀",
    "town_kana": "オオカ",
    "street": null,
    "office_name": null,
    "office_name_kana": null
  },
  "0034": {
    "zip_code": "4270034",
    "prefecture": "静岡県",
    "prefecture_kana": "シズオカケン",
    "prefecture_code": "22",
    "city": "島田市",
    "city_kana": "シマダシ",
    "town": "伊太",
    "town_kana": "イタ",
    "street": null,
    "office_name": null,
    "office_name_kana": null
  },
  "0035": {
    "zip_code": "4270035",
    "prefecture": "静岡県",
    "prefecture_kana": "シズオカケン",
    "prefecture_code": "22",
    "city": "島田市",
    "city_kana": "シマダシ",
    "town": "向谷元町",
    "town_kana": "ムクヤモトマチ",
    "street": null,
    "office_name": null,
    "office_name_kana": null
  },
  "0036": {
    "zip_code": "4270036",
    "prefecture": "静岡県",
    "prefecture_kana": "シズオカケン",
    "prefecture_code": "22",
    "city": "島田市",
    "city_kana": "シマダシ",
    "town": "三ツ合町",
    "town_kana": "ミツアイチョウ",
    "street": null,
    "office_name": null,
    "office_name_kana": null
  },
  "0037": {
    "zip_code": "4270037",
    "prefecture": "静岡県",
    "prefecture_kana": "シズオカケン",
    "prefecture_code": "22",
    "city": "島田市",
    "city_kana": "シマダシ",
    "town": "河原",
    "town_kana": "カワラ",
    "street": null,
    "office_name": null,
    "office_name_kana": null
  },
  "0038": {
    "zip_code": "4270038",
    "prefecture": "静岡県",
    "prefecture_kana": "シズオカケン",
    "prefecture_code": "22",
    "city": "島田市",
    "city_kana": "シマダシ",
    "town": "稲荷",
    "town_kana": "イナリ",
    "street": null,
    "office_name": null,
    "office_name_kana": null
  },
  "0039": {
    "zip_code": "4270039",
    "prefecture": "静岡県",
    "prefecture_kana": "シズオカケン",
    "prefecture_code": "22",
    "city": "島田市",
    "city_kana": "シマダシ",
    "town": "向谷",
    "town_kana": "ムクヤ",
    "street": null,
    "office_name": null,
    "office_name_kana": null
  },
  "0041": {
    "zip_code": "4270041",
    "prefecture": "静岡県",
    "prefecture_kana": "シズオカケン",
    "prefecture_code": "22",
    "city": "島田市",
    "city_kana": "シマダシ",
    "town": "中河町",
    "town_kana": "ナカガワチョウ",
    "street": null,
    "office_name": null,
    "office_name_kana": null
  },
  "0042": {
    "zip_code": "4270042",
    "prefecture": "静岡県",
    "prefecture_kana": "シズオカケン",
    "prefecture_code": "22",
    "city": "島田市",
    "city_kana": "シマダシ",
    "town": "中央町",
    "town_kana": "チュウオウチョウ",
    "street": null,
    "office_name": null,
    "office_name_kana": null
  },
  "0043": {
    "zip_code": "4270043",
    "prefecture": "静岡県",
    "prefecture_kana": "シズオカケン",
    "prefecture_code": "22",
    "city": "島田市",
    "city_kana": "シマダシ",
    "town": "中溝",
    "town_kana": "ナカミゾ",
    "street": null,
    "office_name": null,
    "office_name_kana": null
  },
  "0044": {
    "zip_code": "4270044",
    "prefecture": "静岡県",
    "prefecture_kana": "シズオカケン",
    "prefecture_code": "22",
    "city": "島田市",
    "city_kana": "シマダシ",
    "town": "宮川町",
    "town_kana": "ミヤガワチョウ",
    "street": null,
    "office_name": null,
    "office_name_kana": null
  },
  "0045": {
    "zip_code": "4270045",
    "prefecture": "静岡県",
    "prefecture_kana": "シズオカケン",
    "prefecture_code": "22",
    "city": "島田市",
    "city_kana": "シマダシ",
    "town": "向島町",
    "town_kana": "ムカイジマチョウ",
    "street": null,
    "office_name": null,
    "office_name_kana": null
  },
  "0046": {
    "zip_code": "4270046",
    "prefecture": "静岡県",
    "prefecture_kana": "シズオカケン",
    "prefecture_code": "22",
    "city": "島田市",
    "city_kana": "シマダシ",
    "town": "若松町",
    "town_kana": "ワカマツチョウ",
    "street": null,
    "office_name": null,
    "office_name_kana": null
  },
  "0047": {
    "zip_code": "4270047",
    "prefecture": "静岡県",
    "prefecture_kana": "シズオカケン",
    "prefecture_code": "22",
    "city": "島田市",
    "city_kana": "シマダシ",
    "town": "中溝町",
    "town_kana": "ナカミゾチョウ",
    "street": null,
    "office_name": null,
    "office_name_kana": null
  },
  "0048": {
    "zip_code": "4270048",
    "prefecture": "静岡県",
    "prefecture_kana": "シズオカケン",
    "prefecture_code": "22",
    "city": "島田市",
    "city_kana": "シマダシ",
    "town": "旗指",
    "town_kana": "ハッサシ",
    "street": null,
    "office_name": null,
    "office_name_kana": null
  },
  "0051": {
    "zip_code": "4270051",
    "prefecture": "静岡県",
    "prefecture_kana": "シズオカケン",
    "prefecture_code": "22",
    "city": "島田市",
    "city_kana": "シマダシ",
    "town": "元島田東町",
    "town_kana": "モトシマダヒガシチョウ",
    "street": null,
    "office_name": null,
    "office_name_kana": null
  },
  "0052": {
    "zip_code": "4270052",
    "prefecture": "静岡県",
    "prefecture_kana": "シズオカケン",
    "prefecture_code": "22",
    "city": "島田市",
    "city_kana": "シマダシ",
    "town": "松葉町",
    "town_kana": "マツバチョウ",
    "street": null,
    "office_name": null,
    "office_name_kana": null
  },
  "0053": {
    "zip_code": "4270053",
    "prefecture": "静岡県",
    "prefecture_kana": "シズオカケン",
    "prefecture_code": "22",
    "city": "島田市",
    "city_kana": "シマダシ",
    "town": "御仮屋町",
    "town_kana": "オカリヤチョウ",
    "street": null,
    "office_name": null,
    "office_name_kana": null
  },
  "0054": {
    "zip_code": "4270054",
    "prefecture": "静岡県",
    "prefecture_kana": "シズオカケン",
    "prefecture_code": "22",
    "city": "島田市",
    "city_kana": "シマダシ",
    "town": "高砂町",
    "town_kana": "タカサゴチョウ",
    "street": null,
    "office_name": null,
    "office_name_kana": null
  },
  "0055": {
    "zip_code": "4270055",
    "prefecture": "静岡県",
    "prefecture_kana": "シズオカケン",
    "prefecture_code": "22",
    "city": "島田市",
    "city_kana": "シマダシ",
    "town": "新町通",
    "town_kana": "シンマチドオリ",
    "street": null,
    "office_name": null,
    "office_name_kana": null
  },
  "0056": {
    "zip_code": "4270056",
    "prefecture": "静岡県",
    "prefecture_kana": "シズオカケン",
    "prefecture_code": "22",
    "city": "島田市",
    "city_kana": "シマダシ",
    "town": "大津通",
    "town_kana": "オオツドオリ",
    "street": null,
    "office_name": null,
    "office_name_kana": null
  },
  "0057": {
    "zip_code": "4270057",
    "prefecture": "静岡県",
    "prefecture_kana": "シズオカケン",
    "prefecture_code": "22",
    "city": "島田市",
    "city_kana": "シマダシ",
    "town": "元島田",
    "town_kana": "モトシマダ",
    "street": null,
    "office_name": null,
    "office_name_kana": null
  },
  "0058": {
    "zip_code": "4270058",
    "prefecture": "静岡県",
    "prefecture_kana": "シズオカケン",
    "prefecture_code": "22",
    "city": "島田市",
    "city_kana": "シマダシ",
    "town": "祇園町",
    "town_kana": "ギオンチョウ",
    "street": null,
    "office_name": null,
    "office_name_kana": null
  },
  "0059": {
    "zip_code": "4270059",
    "prefecture": "静岡県",
    "prefecture_kana": "シズオカケン",
    "prefecture_code": "22",
    "city": "島田市",
    "city_kana": "シマダシ",
    "town": "新田町",
    "town_kana": "シンデンチョウ",
    "street": null,
    "office_name": null,
    "office_name_kana": null
  },
  "0061": {
    "zip_code": "4270061",
    "prefecture": "静岡県",
    "prefecture_kana": "シズオカケン",
    "prefecture_code": "22",
    "city": "島田市",
    "city_kana": "シマダシ",
    "town": "ばらの丘",
    "town_kana": "バラノオカ",
    "street": null,
    "office_name": null,
    "office_name_kana": null
  },
  "0101": {
    "zip_code": "4270101",
    "prefecture": "静岡県",
    "prefecture_kana": "シズオカケン",
    "prefecture_code": "22",
    "city": "島田市",
    "city_kana": "シマダシ",
    "town": "大柳",
    "town_kana": "オオヤナギ",
    "street": null,
    "office_name": null,
    "office_name_kana": null
  },
  "0102": {
    "zip_code": "4270102",
    "prefecture": "静岡県",
    "prefecture_kana": "シズオカケン",
    "prefecture_code": "22",
    "city": "島田市",
    "city_kana": "シマダシ",
    "town": "大柳南",
    "town_kana": "オオヤナギミナミ",
    "street": null,
    "office_name": null,
    "office_name_kana": null
  },
  "0103": {
    "zip_code": "4270103",
    "prefecture": "静岡県",
    "prefecture_kana": "シズオカケン",
    "prefecture_code": "22",
    "city": "島田市",
    "city_kana": "シマダシ",
    "town": "中河",
    "town_kana": "ナカガワ",
    "street": null,
    "office_name": null,
    "office_name_kana": null
  },
  "0104": {
    "zip_code": "4270104",
    "prefecture": "静岡県",
    "prefecture_kana": "シズオカケン",
    "prefecture_code": "22",
    "city": "島田市",
    "city_kana": "シマダシ",
    "town": "井口",
    "town_kana": "イグチ",
    "street": null,
    "office_name": null,
    "office_name_kana": null
  },
  "0105": {
    "zip_code": "4270105",
    "prefecture": "静岡県",
    "prefecture_kana": "シズオカケン",
    "prefecture_code": "22",
    "city": "島田市",
    "city_kana": "シマダシ",
    "town": "南原",
    "town_kana": "ミナミハラ",
    "street": null,
    "office_name": null,
    "office_name_kana": null
  },
  "0106": {
    "zip_code": "4270106",
    "prefecture": "静岡県",
    "prefecture_kana": "シズオカケン",
    "prefecture_code": "22",
    "city": "島田市",
    "city_kana": "シマダシ",
    "town": "岡田",
    "town_kana": "オカダ",
    "street": null,
    "office_name": null,
    "office_name_kana": null
  },
  "0107": {
    "zip_code": "4270107",
    "prefecture": "静岡県",
    "prefecture_kana": "シズオカケン",
    "prefecture_code": "22",
    "city": "島田市",
    "city_kana": "シマダシ",
    "town": "船木",
    "town_kana": "フナキ",
    "street": null,
    "office_name": null,
    "office_name_kana": null
  },
  "0108": {
    "zip_code": "4270108",
    "prefecture": "静岡県",
    "prefecture_kana": "シズオカケン",
    "prefecture_code": "22",
    "city": "島田市",
    "city_kana": "シマダシ",
    "town": "牧之原",
    "town_kana": "マキノハラ",
    "street": null,
    "office_name": null,
    "office_name_kana": null
  },
  "0111": {
    "zip_code": "4270111",
    "prefecture": "静岡県",
    "prefecture_kana": "シズオカケン",
    "prefecture_code": "22",
    "city": "島田市",
    "city_kana": "シマダシ",
    "town": "阪本",
    "town_kana": "サカモト",
    "street": null,
    "office_name": null,
    "office_name_kana": null
  },
  "0112": {
    "zip_code": "4270112",
    "prefecture": "静岡県",
    "prefecture_kana": "シズオカケン",
    "prefecture_code": "22",
    "city": "島田市",
    "city_kana": "シマダシ",
    "town": "月坂",
    "town_kana": "ツキサカ",
    "street": null,
    "office_name": null,
    "office_name_kana": null
  },
  "0113": {
    "zip_code": "4270113",
    "prefecture": "静岡県",
    "prefecture_kana": "シズオカケン",
    "prefecture_code": "22",
    "city": "島田市",
    "city_kana": "シマダシ",
    "town": "湯日",
    "town_kana": "ユイ",
    "street": null,
    "office_name": null,
    "office_name_kana": null
  },
  "0193": {
    "zip_code": "4270193",
    "prefecture": "静岡県",
    "prefecture_kana": "シズオカケン",
    "prefecture_code": "22",
    "city": "島田市",
    "city_kana": "シマダシ",
    "town": "船木",
    "town_kana": "フナキ",
    "street": "５０３−１",
    "office_name": "静岡カントリー事務センター　株式会社　東興",
    "office_name_kana": "シズオカカントリ-ジムセンタ- カブシキガイシヤ トウコウ"
  },
  "0195": {
    "zip_code": "4270195",
    "prefecture": "静岡県",
    "prefecture_kana": "シズオカケン",
    "prefecture_code": "22",
    "city": "島田市",
    "city_kana": "シマダシ",
    "town": "中河",
    "town_kana": "ナカガワ",
    "street": "７３７番地",
    "office_name": "株式会社　ヤマシタコーポレーション　静岡事業所",
    "office_name_kana": "カブシキガイシヤ ヤマシタコ-ポレ-シヨン シズオカジギヨウシヨ"
  },
  "0196": {
    "zip_code": "4270196",
    "prefecture": "静岡県",
    "prefecture_kana": "シズオカケン",
    "prefecture_code": "22",
    "city": "島田市",
    "city_kana": "シマダシ",
    "town": "中河",
    "town_kana": "ナカガワ",
    "street": "７６６−１",
    "office_name": "（株）ヤマシタコーポレーション　本社業務部",
    "office_name_kana": "(カブ) ヤマシタコ-ポレ-シヨン ホンシヤギヨウムブ"
  },
  "0231": {
    "zip_code": "4270231",
    "prefecture": "静岡県",
    "prefecture_kana": "シズオカケン",
    "prefecture_code": "22",
    "city": "島田市",
    "city_kana": "シマダシ",
    "town": "笹間下",
    "town_kana": "ササマシモ",
    "street": null,
    "office_name": null,
    "office_name_kana": null
  },
  "0232": {
    "zip_code": "4270232",
    "prefecture": "静岡県",
    "prefecture_kana": "シズオカケン",
    "prefecture_code": "22",
    "city": "島田市",
    "city_kana": "シマダシ",
    "town": "伊久美",
    "town_kana": "イクミ",
    "street": null,
    "office_name": null,
    "office_name_kana": null
  },
  "0233": {
    "zip_code": "4270233",
    "prefecture": "静岡県",
    "prefecture_kana": "シズオカケン",
    "prefecture_code": "22",
    "city": "島田市",
    "city_kana": "シマダシ",
    "town": "身成",
    "town_kana": "ミナリ",
    "street": null,
    "office_name": null,
    "office_name_kana": null
  },
  "8501": {
    "zip_code": "4278501",
    "prefecture": "静岡県",
    "prefecture_kana": "シズオカケン",
    "prefecture_code": "22",
    "city": "島田市",
    "city_kana": "シマダシ",
    "town": "中央町",
    "town_kana": "チュウオウチョウ",
    "street": "１−１",
    "office_name": "島田市役所",
    "office_name_kana": "シマダシヤクシヨ"
  },
  "8502": {
    "zip_code": "4278502",
    "prefecture": "静岡県",
    "prefecture_kana": "シズオカケン",
    "prefecture_code": "22",
    "city": "島田市",
    "city_kana": "シマダシ",
    "town": "野田",
    "town_kana": "ノダ",
    "street": "１２００−５",
    "office_name": "市立島田市民病院",
    "office_name_kana": "シリツシマダシミンビヨウイン"
  },
  "8505": {
    "zip_code": "4278505",
    "prefecture": "静岡県",
    "prefecture_kana": "シズオカケン",
    "prefecture_code": "22",
    "city": "島田市",
    "city_kana": "シマダシ",
    "town": "横井",
    "town_kana": "ヨコイ",
    "street": "１丁目５−１",
    "office_name": "東海加工紙　株式会社",
    "office_name_kana": "トウカイカコウシ カブシキガイシヤ"
  },
  "8508": {
    "zip_code": "4278508",
    "prefecture": "静岡県",
    "prefecture_kana": "シズオカケン",
    "prefecture_code": "22",
    "city": "島田市",
    "city_kana": "シマダシ",
    "town": "本通",
    "town_kana": "ホントオリ",
    "street": "１丁目４６７７−４",
    "office_name": "島田労働基準監督署",
    "office_name_kana": "シマダロウドウキジユンカントクシヨ"
  },
  "8509": {
    "zip_code": "4278509",
    "prefecture": "静岡県",
    "prefecture_kana": "シズオカケン",
    "prefecture_code": "22",
    "city": "島田市",
    "city_kana": "シマダシ",
    "town": "本通",
    "town_kana": "ホントオリ",
    "street": "１丁目４６７７−４",
    "office_name": "島田公共職業安定所",
    "office_name_kana": "シマダコウキヨウシヨクギヨウアンテイジヨ"
  },
  "8510": {
    "zip_code": "4278510",
    "prefecture": "静岡県",
    "prefecture_kana": "シズオカケン",
    "prefecture_code": "22",
    "city": "島田市",
    "city_kana": "シマダシ",
    "town": "向島町",
    "town_kana": "ムカイジマチョウ",
    "street": "４３７９",
    "office_name": "東海パルプ　株式会社",
    "office_name_kana": "トウカイパルプ カブシキガイシヤ"
  },
  "8511": {
    "zip_code": "4278511",
    "prefecture": "静岡県",
    "prefecture_kana": "シズオカケン",
    "prefecture_code": "22",
    "city": "島田市",
    "city_kana": "シマダシ",
    "town": "岸町",
    "town_kana": "キシチョウ",
    "street": "７８５−１",
    "office_name": "株式会社　シズテー",
    "office_name_kana": "カブシキガイシヤ シズテ-"
  },
  "8512": {
    "zip_code": "4278512",
    "prefecture": "静岡県",
    "prefecture_kana": "シズオカケン",
    "prefecture_code": "22",
    "city": "島田市",
    "city_kana": "シマダシ",
    "town": "細島",
    "town_kana": "ホソジマ",
    "street": "１３４９−１",
    "office_name": "サカイ産業　株式会社",
    "office_name_kana": "サカイサンギヨウ カブシキガイシヤ"
  },
  "8522": {
    "zip_code": "4278522",
    "prefecture": "静岡県",
    "prefecture_kana": "シズオカケン",
    "prefecture_code": "22",
    "city": "島田市",
    "city_kana": "シマダシ",
    "town": "向島町",
    "town_kana": "ムカイジマチョウ",
    "street": "４５３２",
    "office_name": "大河原建設　株式会社",
    "office_name_kana": "オオカワラケンセツ カブシキガイシヤ"
  },
  "8541": {
    "zip_code": "4278541",
    "prefecture": "静岡県",
    "prefecture_kana": "シズオカケン",
    "prefecture_code": "22",
    "city": "島田市",
    "city_kana": "シマダシ",
    "town": "阿知ケ谷",
    "town_kana": "アチガヤ",
    "street": "２０１",
    "office_name": "静岡県立島田工業高等学校",
    "office_name_kana": "シズオカケンリツシマダコウギヨウコウトウガツコウ"
  },
  "8555": {
    "zip_code": "4278555",
    "prefecture": "静岡県",
    "prefecture_kana": "シズオカケン",
    "prefecture_code": "22",
    "city": "島田市",
    "city_kana": "シマダシ",
    "town": "横井",
    "town_kana": "ヨコイ",
    "street": "１丁目７−１",
    "office_name": "矢崎計器　株式会社　島田製作所",
    "office_name_kana": "ヤザキケイキ カブシキガイシヤ シマダセイサクシヨ"
  },
  "8581": {
    "zip_code": "4278581",
    "prefecture": "静岡県",
    "prefecture_kana": "シズオカケン",
    "prefecture_code": "22",
    "city": "島田市",
    "city_kana": "シマダシ",
    "town": "宝来町",
    "town_kana": "ホウライチョウ",
    "street": "８−１",
    "office_name": "日清紡　株式会社　島田工場",
    "office_name_kana": "ニツシンボウ カブシキガイシヤ シマダコウジヨウ"
  },
  "8588": {
    "zip_code": "4278588",
    "prefecture": "静岡県",
    "prefecture_kana": "シズオカケン",
    "prefecture_code": "22",
    "city": "島田市",
    "city_kana": "シマダシ",
    "town": "稲荷",
    "town_kana": "イナリ",
    "street": "１丁目７−１",
    "office_name": "静岡県立島田高等学校",
    "office_name_kana": "シズオカケンリツシマダコウトウガツコウ"
  },
  "8601": {
    "zip_code": "4278601",
    "prefecture": "静岡県",
    "prefecture_kana": "シズオカケン",
    "prefecture_code": "22",
    "city": "島田市",
    "city_kana": "シマダシ",
    "town": "扇町",
    "town_kana": "オウギマチ",
    "street": "２−２（島田郵便局私書箱第１０号）",
    "office_name": "島田　税務署",
    "office_name_kana": "シマダ ゼイムシヨ"
  },
  "8602": {
    "zip_code": "4278602",
    "prefecture": "静岡県",
    "prefecture_kana": "シズオカケン",
    "prefecture_code": "22",
    "city": "島田市",
    "city_kana": "シマダシ",
    "town": "本通",
    "town_kana": "ホントオリ",
    "street": "３丁目２−１（島田郵便局私書箱第６号）",
    "office_name": "島田信用金庫",
    "office_name_kana": "シマダシンヨウキンコ"
  },
  "8686": {
    "zip_code": "4278686",
    "prefecture": "静岡県",
    "prefecture_kana": "シズオカケン",
    "prefecture_code": "22",
    "city": "島田市",
    "city_kana": "シマダシ",
    "town": "岸町",
    "town_kana": "キシチョウ",
    "street": "４１２（島田郵便局私書箱第１５号）",
    "office_name": "島田信用金庫　事務集中部",
    "office_name_kana": "シマダシンヨウキンコ ジムシユウチユウブ"
  }
}