{
  "8101": {
    "zip_code": "4338101",
    "prefecture": "静岡県",
    "prefecture_kana": "シズオカケン",
    "prefecture_code": "22",
    "city": "浜松市北区",
    "city_kana": "ハママツシキタク",
    "town": "三幸町",
    "town_kana": "ミユキチョウ",
    "street": null,
    "office_name": null,
    "office_name_kana": null
  },
  "8102": {
    "zip_code": "4338102",
    "prefecture": "静岡県",
    "prefecture_kana": "シズオカケン",
    "prefecture_code": "22",
    "city": "浜松市北区",
    "city_kana": "ハママツシキタク",
    "town": "大原町",
    "town_kana": "オオハラチョウ",
    "street": null,
    "office_name": null,
    "office_name_kana": null
  },
  "8103": {
    "zip_code": "4338103",
    "prefecture": "静岡県",
    "prefecture_kana": "シズオカケン",
    "prefecture_code": "22",
    "city": "浜松市北区",
    "city_kana": "ハママツシキタク",
    "town": "豊岡町",
    "town_kana": "トヨオカチョウ",
    "street": null,
    "office_name": null,
    "office_name_kana": null
  },
  "8104": {
    "zip_code": "4338104",
    "prefecture": "静岡県",
    "prefecture_kana": "シズオカケン",
    "prefecture_code": "22",
    "city": "浜松市北区",
    "city_kana": "ハママツシキタク",
    "town": "東三方町",
    "town_kana": "ヒガシミカタチョウ",
    "street": null,
    "office_name": null,
    "office_name_kana": null
  },
  "8105": {
    "zip_code": "4338105",
    "prefecture": "静岡県",
    "prefecture_kana": "シズオカケン",
    "prefecture_code": "22",
    "city": "浜松市北区",
    "city_kana": "ハママツシキタク",
    "town": "三方原町",
    "town_kana": "ミカタハラチョウ",
    "street": null,
    "office_name": null,
    "office_name_kana": null
  },
  "8108": {
    "zip_code": "4338108",
    "prefecture": "静岡県",
    "prefecture_kana": "シズオカケン",
    "prefecture_code": "22",
    "city": "浜松市北区",
    "city_kana": "ハママツシキタク",
    "town": "根洗町",
    "town_kana": "ネアライチョウ",
    "street": null,
    "office_name": null,
    "office_name_kana": null
  },
  "8109": {
    "zip_code": "4338109",
    "prefecture": "静岡県",
    "prefecture_kana": "シズオカケン",
    "prefecture_code": "22",
    "city": "浜松市中区",
    "city_kana": "ハママツシナカク",
    "town": "花川町",
    "town_kana": "ハナカワチョウ",
    "street": null,
    "office_name": null,
    "office_name_kana": null
  },
  "8111": {
    "zip_code": "4338111",
    "prefecture": "静岡県",
    "prefecture_kana": "シズオカケン",
    "prefecture_code": "22",
    "city": "浜松市中区",
    "city_kana": "ハママツシナカク",
    "town": "葵西",
    "town_kana": "アオイニシ",
    "street": null,
    "office_name": null,
    "office_name_kana": null
  },
  "8112": {
    "zip_code": "4338112",
    "prefecture": "静岡県",
    "prefecture_kana": "シズオカケン",
    "prefecture_code": "22",
    "city": "浜松市北区",
    "city_kana": "ハママツシキタク",
    "town": "初生町",
    "town_kana": "ハツオイチョウ",
    "street": null,
    "office_name": null,
    "office_name_kana": null
  },
  "8113": {
    "zip_code": "4338113",
    "prefecture": "静岡県",
    "prefecture_kana": "シズオカケン",
    "prefecture_code": "22",
    "city": "浜松市中区",
    "city_kana": "ハママツシナカク",
    "town": "小豆餅",
    "town_kana": "アズキモチ",
    "street": null,
    "office_name": null,
    "office_name_kana": null
  },
  "8114": {
    "zip_code": "4338114",
    "prefecture": "静岡県",
    "prefecture_kana": "シズオカケン",
    "prefecture_code": "22",
    "city": "浜松市中区",
    "city_kana": "ハママツシナカク",
    "town": "葵東",
    "town_kana": "アオイヒガシ",
    "street": null,
    "office_name": null,
    "office_name_kana": null
  },
  "8116": {
    "zip_code": "4338116",
    "prefecture": "静岡県",
    "prefecture_kana": "シズオカケン",
    "prefecture_code": "22",
    "city": "浜松市中区",
    "city_kana": "ハママツシナカク",
    "town": "西丘町",
    "town_kana": "ニシオカチョウ",
    "street": null,
    "office_name": null,
    "office_name_kana": null
  },
  "8117": {
    "zip_code": "4338117",
    "prefecture": "静岡県",
    "prefecture_kana": "シズオカケン",
    "prefecture_code": "22",
    "city": "浜松市中区",
    "city_kana": "ハママツシナカク",
    "town": "高丘東",
    "town_kana": "タカオカヒガシ",
    "street": null,
    "office_name": null,
    "office_name_kana": null
  },
  "8118": {
    "zip_code": "4338118",
    "prefecture": "静岡県",
    "prefecture_kana": "シズオカケン",
    "prefecture_code": "22",
    "city": "浜松市中区",
    "city_kana": "ハママツシナカク",
    "town": "高丘西",
    "town_kana": "タカオカニシ",
    "street": null,
    "office_name": null,
    "office_name_kana": null
  },
  "8119": {
    "zip_code": "4338119",
    "prefecture": "静岡県",
    "prefecture_kana": "シズオカケン",
    "prefecture_code": "22",
    "city": "浜松市中区",
    "city_kana": "ハママツシナカク",
    "town": "高丘北",
    "town_kana": "タカオカキタ",
    "street": null,
    "office_name": null,
    "office_name_kana": null
  },
  "8121": {
    "zip_code": "4338121",
    "prefecture": "静岡県",
    "prefecture_kana": "シズオカケン",
    "prefecture_code": "22",
    "city": "浜松市中区",
    "city_kana": "ハママツシナカク",
    "town": "萩丘",
    "town_kana": "ハギオカ",
    "street": null,
    "office_name": null,
    "office_name_kana": null
  },
  "8122": {
    "zip_code": "4338122",
    "prefecture": "静岡県",
    "prefecture_kana": "シズオカケン",
    "prefecture_code": "22",
    "city": "浜松市中区",
    "city_kana": "ハママツシナカク",
    "town": "上島",
    "town_kana": "カミジマ",
    "street": null,
    "office_name": null,
    "office_name_kana": null
  },
  "8123": {
    "zip_code": "4338123",
    "prefecture": "静岡県",
    "prefecture_kana": "シズオカケン",
    "prefecture_code": "22",
    "city": "浜松市中区",
    "city_kana": "ハママツシナカク",
    "town": "幸",
    "town_kana": "サイワイ",
    "street": null,
    "office_name": null,
    "office_name_kana": null
  },
  "8124": {
    "zip_code": "4338124",
    "prefecture": "静岡県",
    "prefecture_kana": "シズオカケン",
    "prefecture_code": "22",
    "city": "浜松市中区",
    "city_kana": "ハママツシナカク",
    "town": "泉",
    "town_kana": "イズミ",
    "street": null,
    "office_name": null,
    "office_name_kana": null
  },
  "8125": {
    "zip_code": "4338125",
    "prefecture": "静岡県",
    "prefecture_kana": "シズオカケン",
    "prefecture_code": "22",
    "city": "浜松市中区",
    "city_kana": "ハママツシナカク",
    "town": "和合町",
    "town_kana": "ワゴウチョウ",
    "street": null,
    "office_name": null,
    "office_name_kana": null
  },
  "8126": {
    "zip_code": "4338126",
    "prefecture": "静岡県",
    "prefecture_kana": "シズオカケン",
    "prefecture_code": "22",
    "city": "浜松市中区",
    "city_kana": "ハママツシナカク",
    "town": "泉町",
    "town_kana": "イズミチョウ",
    "street": null,
    "office_name": null,
    "office_name_kana": null
  },
  "8127": {
    "zip_code": "4338127",
    "prefecture": "静岡県",
    "prefecture_kana": "シズオカケン",
    "prefecture_code": "22",
    "city": "浜松市中区",
    "city_kana": "ハママツシナカク",
    "town": "和合北",
    "town_kana": "ワゴウキタ",
    "street": null,
    "office_name": null,
    "office_name_kana": null
  },
  "8501": {
    "zip_code": "4338501",
    "prefecture": "静岡県",
    "prefecture_kana": "シズオカケン",
    "prefecture_code": "22",
    "city": "浜松市中区",
    "city_kana": "ハママツシナカク",
    "town": "葵東",
    "town_kana": "アオイヒガシ",
    "street": "１丁目１３−１",
    "office_name": "本田技研工業　株式会社　浜松製作所",
    "office_name_kana": "ホンダギケンコウギヨウ カブシキガイシヤ ハママツセイサクシヨ"
  },
  "8510": {
    "zip_code": "4338510",
    "prefecture": "静岡県",
    "prefecture_kana": "シズオカケン",
    "prefecture_code": "22",
    "city": "浜松市北区",
    "city_kana": "ハママツシキタク",
    "town": "東三方町",
    "town_kana": "ヒガシミカタチョウ",
    "street": "９０−３",
    "office_name": "パルステック工業　株式会社",
    "office_name_kana": "パルステツクコウギヨウ カブシキガイシヤ"
  },
  "8511": {
    "zip_code": "4338511",
    "prefecture": "静岡県",
    "prefecture_kana": "シズオカケン",
    "prefecture_code": "22",
    "city": "浜松市中区",
    "city_kana": "ハママツシナカク",
    "town": "和合町",
    "town_kana": "ワゴウチョウ",
    "street": "１５４",
    "office_name": "浜松市　リハビリテーション病院",
    "office_name_kana": "ハママツシ リハビリテ-シヨンビヨウイン"
  },
  "8520": {
    "zip_code": "4338520",
    "prefecture": "静岡県",
    "prefecture_kana": "シズオカケン",
    "prefecture_code": "22",
    "city": "浜松市中区",
    "city_kana": "ハママツシナカク",
    "town": "小豆餅",
    "town_kana": "アズキモチ",
    "street": "４丁目１４−１",
    "office_name": "（株）　アーレスティ",
    "office_name_kana": "カブシキガイシヤ ア-レステイ"
  },
  "8530": {
    "zip_code": "4338530",
    "prefecture": "静岡県",
    "prefecture_kana": "シズオカケン",
    "prefecture_code": "22",
    "city": "浜松市中区",
    "city_kana": "ハママツシナカク",
    "town": "泉",
    "town_kana": "イズミ",
    "street": "４丁目１２−１",
    "office_name": "（株）　フジコーポレーション",
    "office_name_kana": "(カブ) フジコ-ポレ-シヨン"
  },
  "8540": {
    "zip_code": "4338540",
    "prefecture": "静岡県",
    "prefecture_kana": "シズオカケン",
    "prefecture_code": "22",
    "city": "浜松市北区",
    "city_kana": "ハママツシキタク",
    "town": "初生町",
    "town_kana": "ハツオイチョウ",
    "street": "６２６−１",
    "office_name": "サンカ",
    "office_name_kana": "サンカ"
  },
  "8550": {
    "zip_code": "4338550",
    "prefecture": "静岡県",
    "prefecture_kana": "シズオカケン",
    "prefecture_code": "22",
    "city": "浜松市中区",
    "city_kana": "ハママツシナカク",
    "town": "上島",
    "town_kana": "カミジマ",
    "street": "５丁目３−１８",
    "office_name": "株式会社　栃木屋　東海営業所",
    "office_name_kana": "カブシキガイシヤ トチギヤ トウカイエイギヨウシヨ"
  },
  "8555": {
    "zip_code": "4338555",
    "prefecture": "静岡県",
    "prefecture_kana": "シズオカケン",
    "prefecture_code": "22",
    "city": "浜松市北区",
    "city_kana": "ハママツシキタク",
    "town": "初生町",
    "town_kana": "ハツオイチョウ",
    "street": "６２６−１",
    "office_name": "ユニー　（株）　アピタ初生店",
    "office_name_kana": "ユニ- (カブ) アピタハツオイテン"
  },
  "8558": {
    "zip_code": "4338558",
    "prefecture": "静岡県",
    "prefecture_kana": "シズオカケン",
    "prefecture_code": "22",
    "city": "浜松市北区",
    "city_kana": "ハママツシキタク",
    "town": "三方原町",
    "town_kana": "ミカタハラチョウ",
    "street": "３４５３",
    "office_name": "社会福祉法人　聖隷福祉事業団　聖隷三方原病院",
    "office_name_kana": "シヤカイフクシホウジン セイレイフクシジギヨウダン セイレイミカタハラビヨウイン"
  },
  "8567": {
    "zip_code": "4338567",
    "prefecture": "静岡県",
    "prefecture_kana": "シズオカケン",
    "prefecture_code": "22",
    "city": "浜松市北区",
    "city_kana": "ハママツシキタク",
    "town": "初生町",
    "town_kana": "ハツオイチョウ",
    "street": "１１５０",
    "office_name": "浜松工業高校",
    "office_name_kana": "ハママツコウギヨウコウコウ"
  },
  "8601": {
    "zip_code": "4338601",
    "prefecture": "静岡県",
    "prefecture_kana": "シズオカケン",
    "prefecture_code": "22",
    "city": "浜松市中区",
    "city_kana": "ハママツシナカク",
    "town": "和合町",
    "town_kana": "ワゴウチョウ",
    "street": "２−５５（浜松北郵便局私書箱第８号）",
    "office_name": "浜松信用金庫　事務集中部",
    "office_name_kana": "ハママツシンヨウキンコ ジムシユウチユウブ"
  }
}