{
  "0000": {
    "zip_code": "4380000",
    "prefecture": "静岡県",
    "prefecture_kana": "シズオカケン",
    "prefecture_code": "22",
    "city": "磐田市",
    "city_kana": "イワタシ",
    "town": "",
    "town_kana": "",
    "street": null,
    "office_name": null,
    "office_name_kana": null
  },
  "0001": {
    "zip_code": "4380001",
    "prefecture": "静岡県",
    "prefecture_kana": "シズオカケン",
    "prefecture_code": "22",
    "city": "磐田市",
    "city_kana": "イワタシ",
    "town": "藤上原",
    "town_kana": "フジカンバラ",
    "street": null,
    "office_name": null,
    "office_name_kana": null
  },
  "0002": {
    "zip_code": "4380002",
    "prefecture": "静岡県",
    "prefecture_kana": "シズオカケン",
    "prefecture_code": "22",
    "city": "磐田市",
    "city_kana": "イワタシ",
    "town": "大久保",
    "town_kana": "オオクボ",
    "street": null,
    "office_name": null,
    "office_name_kana": null
  },
  "0003": {
    "zip_code": "4380003",
    "prefecture": "静岡県",
    "prefecture_kana": "シズオカケン",
    "prefecture_code": "22",
    "city": "磐田市",
    "city_kana": "イワタシ",
    "town": "匂坂新",
    "town_kana": "サギサカシン",
    "street": null,
    "office_name": null,
    "office_name_kana": null
  },
  "0004": {
    "zip_code": "4380004",
    "prefecture": "静岡県",
    "prefecture_kana": "シズオカケン",
    "prefecture_code": "22",
    "city": "磐田市",
    "city_kana": "イワタシ",
    "town": "匂坂中",
    "town_kana": "サギサカナカ",
    "street": null,
    "office_name": null,
    "office_name_kana": null
  },
  "0005": {
    "zip_code": "4380005",
    "prefecture": "静岡県",
    "prefecture_kana": "シズオカケン",
    "prefecture_code": "22",
    "city": "磐田市",
    "city_kana": "イワタシ",
    "town": "匂坂上",
    "town_kana": "サギサカカミ",
    "street": null,
    "office_name": null,
    "office_name_kana": null
  },
  "0006": {
    "zip_code": "4380006",
    "prefecture": "静岡県",
    "prefecture_kana": "シズオカケン",
    "prefecture_code": "22",
    "city": "磐田市",
    "city_kana": "イワタシ",
    "town": "寺谷",
    "town_kana": "テラダニ",
    "street": null,
    "office_name": null,
    "office_name_kana": null
  },
  "0007": {
    "zip_code": "4380007",
    "prefecture": "静岡県",
    "prefecture_kana": "シズオカケン",
    "prefecture_code": "22",
    "city": "磐田市",
    "city_kana": "イワタシ",
    "town": "寺谷新田",
    "town_kana": "テラダニシンデン",
    "street": null,
    "office_name": null,
    "office_name_kana": null
  },
  "0008": {
    "zip_code": "4380008",
    "prefecture": "静岡県",
    "prefecture_kana": "シズオカケン",
    "prefecture_code": "22",
    "city": "磐田市",
    "city_kana": "イワタシ",
    "town": "平松掛下入作",
    "town_kana": "ヒラマツカケシタイリサク",
    "street": null,
    "office_name": null,
    "office_name_kana": null
  },
  "0011": {
    "zip_code": "4380011",
    "prefecture": "静岡県",
    "prefecture_kana": "シズオカケン",
    "prefecture_code": "22",
    "city": "磐田市",
    "city_kana": "イワタシ",
    "town": "笠梅",
    "town_kana": "カサウメ",
    "street": null,
    "office_name": null,
    "office_name_kana": null
  },
  "0012": {
    "zip_code": "4380012",
    "prefecture": "静岡県",
    "prefecture_kana": "シズオカケン",
    "prefecture_code": "22",
    "city": "磐田市",
    "city_kana": "イワタシ",
    "town": "向笠新屋",
    "town_kana": "ムカサアラヤ",
    "street": null,
    "office_name": null,
    "office_name_kana": null
  },
  "0013": {
    "zip_code": "4380013",
    "prefecture": "静岡県",
    "prefecture_kana": "シズオカケン",
    "prefecture_code": "22",
    "city": "磐田市",
    "city_kana": "イワタシ",
    "town": "向笠竹之内",
    "town_kana": "ムカサタケノウチ",
    "street": null,
    "office_name": null,
    "office_name_kana": null
  },
  "0014": {
    "zip_code": "4380014",
    "prefecture": "静岡県",
    "prefecture_kana": "シズオカケン",
    "prefecture_code": "22",
    "city": "磐田市",
    "city_kana": "イワタシ",
    "town": "向笠西",
    "town_kana": "ムカサニシ",
    "street": null,
    "office_name": null,
    "office_name_kana": null
  },
  "0015": {
    "zip_code": "4380015",
    "prefecture": "静岡県",
    "prefecture_kana": "シズオカケン",
    "prefecture_code": "22",
    "city": "磐田市",
    "city_kana": "イワタシ",
    "town": "篠原",
    "town_kana": "シノハラ",
    "street": null,
    "office_name": null,
    "office_name_kana": null
  },
  "0016": {
    "zip_code": "4380016",
    "prefecture": "静岡県",
    "prefecture_kana": "シズオカケン",
    "prefecture_code": "22",
    "city": "磐田市",
    "city_kana": "イワタシ",
    "town": "岩井",
    "town_kana": "イワイ",
    "street": null,
    "office_name": null,
    "office_name_kana": null
  },
  "0017": {
    "zip_code": "4380017",
    "prefecture": "静岡県",
    "prefecture_kana": "シズオカケン",
    "prefecture_code": "22",
    "city": "磐田市",
    "city_kana": "イワタシ",
    "town": "安久路",
    "town_kana": "アクロ",
    "street": null,
    "office_name": null,
    "office_name_kana": null
  },
  "0018": {
    "zip_code": "4380018",
    "prefecture": "静岡県",
    "prefecture_kana": "シズオカケン",
    "prefecture_code": "22",
    "city": "磐田市",
    "city_kana": "イワタシ",
    "town": "三ケ野台",
    "town_kana": "ミカノダイ",
    "street": null,
    "office_name": null,
    "office_name_kana": null
  },
  "0019": {
    "zip_code": "4380019",
    "prefecture": "静岡県",
    "prefecture_kana": "シズオカケン",
    "prefecture_code": "22",
    "city": "磐田市",
    "city_kana": "イワタシ",
    "town": "明ケ島原",
    "town_kana": "ミョウガジマハラ",
    "street": null,
    "office_name": null,
    "office_name_kana": null
  },
  "0021": {
    "zip_code": "4380021",
    "prefecture": "静岡県",
    "prefecture_kana": "シズオカケン",
    "prefecture_code": "22",
    "city": "磐田市",
    "city_kana": "イワタシ",
    "town": "玉越",
    "town_kana": "タマコシ",
    "street": null,
    "office_name": null,
    "office_name_kana": null
  },
  "0022": {
    "zip_code": "4380022",
    "prefecture": "静岡県",
    "prefecture_kana": "シズオカケン",
    "prefecture_code": "22",
    "city": "磐田市",
    "city_kana": "イワタシ",
    "town": "西島",
    "town_kana": "ニシジマ",
    "street": null,
    "office_name": null,
    "office_name_kana": null
  },
  "0023": {
    "zip_code": "4380023",
    "prefecture": "静岡県",
    "prefecture_kana": "シズオカケン",
    "prefecture_code": "22",
    "city": "磐田市",
    "city_kana": "イワタシ",
    "town": "彦島",
    "town_kana": "ヒコジマ",
    "street": null,
    "office_name": null,
    "office_name_kana": null
  },
  "0024": {
    "zip_code": "4380024",
    "prefecture": "静岡県",
    "prefecture_kana": "シズオカケン",
    "prefecture_code": "22",
    "city": "磐田市",
    "city_kana": "イワタシ",
    "town": "明ケ島",
    "town_kana": "ミョウガジマ",
    "street": null,
    "office_name": null,
    "office_name_kana": null
  },
  "0025": {
    "zip_code": "4380025",
    "prefecture": "静岡県",
    "prefecture_kana": "シズオカケン",
    "prefecture_code": "22",
    "city": "磐田市",
    "city_kana": "イワタシ",
    "town": "新貝",
    "town_kana": "シンガイ",
    "street": null,
    "office_name": null,
    "office_name_kana": null
  },
  "0026": {
    "zip_code": "4380026",
    "prefecture": "静岡県",
    "prefecture_kana": "シズオカケン",
    "prefecture_code": "22",
    "city": "磐田市",
    "city_kana": "イワタシ",
    "town": "西貝塚",
    "town_kana": "ニシカイヅカ",
    "street": null,
    "office_name": null,
    "office_name_kana": null
  },
  "0027": {
    "zip_code": "4380027",
    "prefecture": "静岡県",
    "prefecture_kana": "シズオカケン",
    "prefecture_code": "22",
    "city": "磐田市",
    "city_kana": "イワタシ",
    "town": "三ケ野",
    "town_kana": "ミカノ",
    "street": null,
    "office_name": null,
    "office_name_kana": null
  },
  "0028": {
    "zip_code": "4380028",
    "prefecture": "静岡県",
    "prefecture_kana": "シズオカケン",
    "prefecture_code": "22",
    "city": "磐田市",
    "city_kana": "イワタシ",
    "town": "東山",
    "town_kana": "ヒガシヤマ",
    "street": null,
    "office_name": null,
    "office_name_kana": null
  },
  "0031": {
    "zip_code": "4380031",
    "prefecture": "静岡県",
    "prefecture_kana": "シズオカケン",
    "prefecture_code": "22",
    "city": "磐田市",
    "city_kana": "イワタシ",
    "town": "稗原",
    "town_kana": "ヒエバラ",
    "street": null,
    "office_name": null,
    "office_name_kana": null
  },
  "0032": {
    "zip_code": "4380032",
    "prefecture": "静岡県",
    "prefecture_kana": "シズオカケン",
    "prefecture_code": "22",
    "city": "磐田市",
    "city_kana": "イワタシ",
    "town": "東脇",
    "town_kana": "ヒガシワキ",
    "street": null,
    "office_name": null,
    "office_name_kana": null
  },
  "0033": {
    "zip_code": "4380033",
    "prefecture": "静岡県",
    "prefecture_kana": "シズオカケン",
    "prefecture_code": "22",
    "city": "磐田市",
    "city_kana": "イワタシ",
    "town": "新出",
    "town_kana": "シンデ",
    "street": null,
    "office_name": null,
    "office_name_kana": null
  },
  "0034": {
    "zip_code": "4380034",
    "prefecture": "静岡県",
    "prefecture_kana": "シズオカケン",
    "prefecture_code": "22",
    "city": "磐田市",
    "city_kana": "イワタシ",
    "town": "和口",
    "town_kana": "ワグチ",
    "street": null,
    "office_name": null,
    "office_name_kana": null
  },
  "0035": {
    "zip_code": "4380035",
    "prefecture": "静岡県",
    "prefecture_kana": "シズオカケン",
    "prefecture_code": "22",
    "city": "磐田市",
    "city_kana": "イワタシ",
    "town": "東新屋",
    "town_kana": "ヒガシアラヤ",
    "street": null,
    "office_name": null,
    "office_name_kana": null
  },
  "0036": {
    "zip_code": "4380036",
    "prefecture": "静岡県",
    "prefecture_kana": "シズオカケン",
    "prefecture_code": "22",
    "city": "磐田市",
    "city_kana": "イワタシ",
    "town": "大立野",
    "town_kana": "オオダテノ",
    "street": null,
    "office_name": null,
    "office_name_kana": null
  },
  "0037": {
    "zip_code": "4380037",
    "prefecture": "静岡県",
    "prefecture_kana": "シズオカケン",
    "prefecture_code": "22",
    "city": "磐田市",
    "city_kana": "イワタシ",
    "town": "東貝塚",
    "town_kana": "ヒガシカイヅカ",
    "street": null,
    "office_name": null,
    "office_name_kana": null
  },
  "0038": {
    "zip_code": "4380038",
    "prefecture": "静岡県",
    "prefecture_kana": "シズオカケン",
    "prefecture_code": "22",
    "city": "磐田市",
    "city_kana": "イワタシ",
    "town": "鎌田",
    "town_kana": "カマダ",
    "street": null,
    "office_name": null,
    "office_name_kana": null
  },
  "0039": {
    "zip_code": "4380039",
    "prefecture": "静岡県",
    "prefecture_kana": "シズオカケン",
    "prefecture_code": "22",
    "city": "磐田市",
    "city_kana": "イワタシ",
    "town": "東新町",
    "town_kana": "トウシンチョウ",
    "street": null,
    "office_name": null,
    "office_name_kana": null
  },
  "0041": {
    "zip_code": "4380041",
    "prefecture": "静岡県",
    "prefecture_kana": "シズオカケン",
    "prefecture_code": "22",
    "city": "磐田市",
    "city_kana": "イワタシ",
    "town": "西之島",
    "town_kana": "ニシノシマ",
    "street": null,
    "office_name": null,
    "office_name_kana": null
  },
  "0042": {
    "zip_code": "4380042",
    "prefecture": "静岡県",
    "prefecture_kana": "シズオカケン",
    "prefecture_code": "22",
    "city": "磐田市",
    "city_kana": "イワタシ",
    "town": "上南田",
    "town_kana": "カミミナミダ",
    "street": null,
    "office_name": null,
    "office_name_kana": null
  },
  "0043": {
    "zip_code": "4380043",
    "prefecture": "静岡県",
    "prefecture_kana": "シズオカケン",
    "prefecture_code": "22",
    "city": "磐田市",
    "city_kana": "イワタシ",
    "town": "大原",
    "town_kana": "オオワラ",
    "street": null,
    "office_name": null,
    "office_name_kana": null
  },
  "0044": {
    "zip_code": "4380044",
    "prefecture": "静岡県",
    "prefecture_kana": "シズオカケン",
    "prefecture_code": "22",
    "city": "磐田市",
    "city_kana": "イワタシ",
    "town": "大泉町",
    "town_kana": "オオイズミチョウ",
    "street": null,
    "office_name": null,
    "office_name_kana": null
  },
  "0045": {
    "zip_code": "4380045",
    "prefecture": "静岡県",
    "prefecture_kana": "シズオカケン",
    "prefecture_code": "22",
    "city": "磐田市",
    "city_kana": "イワタシ",
    "town": "上岡田",
    "town_kana": "カミオカタ",
    "street": null,
    "office_name": null,
    "office_name_kana": null
  },
  "0046": {
    "zip_code": "4380046",
    "prefecture": "静岡県",
    "prefecture_kana": "シズオカケン",
    "prefecture_code": "22",
    "city": "磐田市",
    "city_kana": "イワタシ",
    "town": "下岡田",
    "town_kana": "シモオカタ",
    "street": null,
    "office_name": null,
    "office_name_kana": null
  },
  "0047": {
    "zip_code": "4380047",
    "prefecture": "静岡県",
    "prefecture_kana": "シズオカケン",
    "prefecture_code": "22",
    "city": "磐田市",
    "city_kana": "イワタシ",
    "town": "豊島",
    "town_kana": "トヨシマ",
    "street": null,
    "office_name": null,
    "office_name_kana": null
  },
  "0051": {
    "zip_code": "4380051",
    "prefecture": "静岡県",
    "prefecture_kana": "シズオカケン",
    "prefecture_code": "22",
    "city": "磐田市",
    "city_kana": "イワタシ",
    "town": "上大之郷",
    "town_kana": "カミオオノゴウ",
    "street": null,
    "office_name": null,
    "office_name_kana": null
  },
  "0052": {
    "zip_code": "4380052",
    "prefecture": "静岡県",
    "prefecture_kana": "シズオカケン",
    "prefecture_code": "22",
    "city": "磐田市",
    "city_kana": "イワタシ",
    "town": "下大之郷",
    "town_kana": "シモオオノゴウ",
    "street": null,
    "office_name": null,
    "office_name_kana": null
  },
  "0053": {
    "zip_code": "4380053",
    "prefecture": "静岡県",
    "prefecture_kana": "シズオカケン",
    "prefecture_code": "22",
    "city": "磐田市",
    "city_kana": "イワタシ",
    "town": "中野",
    "town_kana": "ナカノ",
    "street": null,
    "office_name": null,
    "office_name_kana": null
  },
  "0054": {
    "zip_code": "4380054",
    "prefecture": "静岡県",
    "prefecture_kana": "シズオカケン",
    "prefecture_code": "22",
    "city": "磐田市",
    "city_kana": "イワタシ",
    "town": "浜部",
    "town_kana": "ハマベ",
    "street": null,
    "office_name": null,
    "office_name_kana": null
  },
  "0055": {
    "zip_code": "4380055",
    "prefecture": "静岡県",
    "prefecture_kana": "シズオカケン",
    "prefecture_code": "22",
    "city": "磐田市",
    "city_kana": "イワタシ",
    "town": "鮫島",
    "town_kana": "サメジマ",
    "street": null,
    "office_name": null,
    "office_name_kana": null
  },
  "0056": {
    "zip_code": "4380056",
    "prefecture": "静岡県",
    "prefecture_kana": "シズオカケン",
    "prefecture_code": "22",
    "city": "磐田市",
    "city_kana": "イワタシ",
    "town": "小島",
    "town_kana": "コジマ",
    "street": null,
    "office_name": null,
    "office_name_kana": null
  },
  "0057": {
    "zip_code": "4380057",
    "prefecture": "静岡県",
    "prefecture_kana": "シズオカケン",
    "prefecture_code": "22",
    "city": "磐田市",
    "city_kana": "イワタシ",
    "town": "千手堂",
    "town_kana": "センズドウ",
    "street": null,
    "office_name": null,
    "office_name_kana": null
  },
  "0058": {
    "zip_code": "4380058",
    "prefecture": "静岡県",
    "prefecture_kana": "シズオカケン",
    "prefecture_code": "22",
    "city": "磐田市",
    "city_kana": "イワタシ",
    "town": "万正寺",
    "town_kana": "マンショウジ",
    "street": null,
    "office_name": null,
    "office_name_kana": null
  },
  "0061": {
    "zip_code": "4380061",
    "prefecture": "静岡県",
    "prefecture_kana": "シズオカケン",
    "prefecture_code": "22",
    "city": "磐田市",
    "city_kana": "イワタシ",
    "town": "刑部島",
    "town_kana": "ギョウブジマ",
    "street": null,
    "office_name": null,
    "office_name_kana": null
  },
  "0062": {
    "zip_code": "4380062",
    "prefecture": "静岡県",
    "prefecture_kana": "シズオカケン",
    "prefecture_code": "22",
    "city": "磐田市",
    "city_kana": "イワタシ",
    "town": "新島",
    "town_kana": "アラシマ",
    "street": null,
    "office_name": null,
    "office_name_kana": null
  },
  "0063": {
    "zip_code": "4380063",
    "prefecture": "静岡県",
    "prefecture_kana": "シズオカケン",
    "prefecture_code": "22",
    "city": "磐田市",
    "city_kana": "イワタシ",
    "town": "真光寺",
    "town_kana": "シンコウジ",
    "street": null,
    "office_name": null,
    "office_name_kana": null
  },
  "0064": {
    "zip_code": "4380064",
    "prefecture": "静岡県",
    "prefecture_kana": "シズオカケン",
    "prefecture_code": "22",
    "city": "磐田市",
    "city_kana": "イワタシ",
    "town": "北島",
    "town_kana": "キタジマ",
    "street": null,
    "office_name": null,
    "office_name_kana": null
  },
  "0065": {
    "zip_code": "4380065",
    "prefecture": "静岡県",
    "prefecture_kana": "シズオカケン",
    "prefecture_code": "22",
    "city": "磐田市",
    "city_kana": "イワタシ",
    "town": "野箱",
    "town_kana": "ノバコ",
    "street": null,
    "office_name": null,
    "office_name_kana": null
  },
  "0066": {
    "zip_code": "4380066",
    "prefecture": "静岡県",
    "prefecture_kana": "シズオカケン",
    "prefecture_code": "22",
    "city": "磐田市",
    "city_kana": "イワタシ",
    "town": "白拍子",
    "town_kana": "シラビョウシ",
    "street": null,
    "office_name": null,
    "office_name_kana": null
  },
  "0067": {
    "zip_code": "4380067",
    "prefecture": "静岡県",
    "prefecture_kana": "シズオカケン",
    "prefecture_code": "22",
    "city": "磐田市",
    "city_kana": "イワタシ",
    "town": "草崎",
    "town_kana": "クササキ",
    "street": null,
    "office_name": null,
    "office_name_kana": null
  },
  "0068": {
    "zip_code": "4380068",
    "prefecture": "静岡県",
    "prefecture_kana": "シズオカケン",
    "prefecture_code": "22",
    "city": "磐田市",
    "city_kana": "イワタシ",
    "town": "前野",
    "town_kana": "マエノ",
    "street": null,
    "office_name": null,
    "office_name_kana": null
  },
  "0069": {
    "zip_code": "4380069",
    "prefecture": "静岡県",
    "prefecture_kana": "シズオカケン",
    "prefecture_code": "22",
    "city": "磐田市",
    "city_kana": "イワタシ",
    "town": "長須賀",
    "town_kana": "ナガスカ",
    "street": null,
    "office_name": null,
    "office_name_kana": null
  },
  "0071": {
    "zip_code": "4380071",
    "prefecture": "静岡県",
    "prefecture_kana": "シズオカケン",
    "prefecture_code": "22",
    "city": "磐田市",
    "city_kana": "イワタシ",
    "town": "今之浦",
    "town_kana": "イマノウラ",
    "street": null,
    "office_name": null,
    "office_name_kana": null
  },
  "0072": {
    "zip_code": "4380072",
    "prefecture": "静岡県",
    "prefecture_kana": "シズオカケン",
    "prefecture_code": "22",
    "city": "磐田市",
    "city_kana": "イワタシ",
    "town": "鳥之瀬",
    "town_kana": "トリノセ",
    "street": null,
    "office_name": null,
    "office_name_kana": null
  },
  "0073": {
    "zip_code": "4380073",
    "prefecture": "静岡県",
    "prefecture_kana": "シズオカケン",
    "prefecture_code": "22",
    "city": "磐田市",
    "city_kana": "イワタシ",
    "town": "二之宮東",
    "town_kana": "ニノミヤヒガシ",
    "street": null,
    "office_name": null,
    "office_name_kana": null
  },
  "0074": [
    {
      "zip_code": "4380074",
      "prefecture": "静岡県",
      "prefecture_kana": "シズオカケン",
      "prefecture_code": "22",
      "city": "磐田市",
      "city_kana": "イワタシ",
      "town": "二之宮",
      "town_kana": "ニノミヤ",
      "street": null,
      "office_name": null,
      "office_name_kana": null
    },
    {
      "zip_code": "4380074",
      "prefecture": "静岡県",
      "prefecture_kana": "シズオカケン",
      "prefecture_code": "22",
      "city": "磐田市",
      "city_kana": "イワタシ",
      "town": "二之宮浅間",
      "town_kana": "ニノミヤセンゲン",
      "street": null,
      "office_name": null,
      "office_name_kana": null
    }
  ],
  "0075": {
    "zip_code": "4380075",
    "prefecture": "静岡県",
    "prefecture_kana": "シズオカケン",
    "prefecture_code": "22",
    "city": "磐田市",
    "city_kana": "イワタシ",
    "town": "天龍",
    "town_kana": "テンリュウ",
    "street": null,
    "office_name": null,
    "office_name_kana": null
  },
  "0077": {
    "zip_code": "4380077",
    "prefecture": "静岡県",
    "prefecture_kana": "シズオカケン",
    "prefecture_code": "22",
    "city": "磐田市",
    "city_kana": "イワタシ",
    "town": "国府台",
    "town_kana": "コウノダイ",
    "street": null,
    "office_name": null,
    "office_name_kana": null
  },
  "0078": [
    {
      "zip_code": "4380078",
      "prefecture": "静岡県",
      "prefecture_kana": "シズオカケン",
      "prefecture_code": "22",
      "city": "磐田市",
      "city_kana": "イワタシ",
      "town": "旭ケ丘",
      "town_kana": "アサヒガオカ",
      "street": null,
      "office_name": null,
      "office_name_kana": null
    },
    {
      "zip_code": "4380078",
      "prefecture": "静岡県",
      "prefecture_kana": "シズオカケン",
      "prefecture_code": "22",
      "city": "磐田市",
      "city_kana": "イワタシ",
      "town": "石原町",
      "town_kana": "イシワラチョウ",
      "street": null,
      "office_name": null,
      "office_name_kana": null
    },
    {
      "zip_code": "4380078",
      "prefecture": "静岡県",
      "prefecture_kana": "シズオカケン",
      "prefecture_code": "22",
      "city": "磐田市",
      "city_kana": "イワタシ",
      "town": "泉町",
      "town_kana": "イズミチョウ",
      "street": null,
      "office_name": null,
      "office_name_kana": null
    },
    {
      "zip_code": "4380078",
      "prefecture": "静岡県",
      "prefecture_kana": "シズオカケン",
      "prefecture_code": "22",
      "city": "磐田市",
      "city_kana": "イワタシ",
      "town": "久保町",
      "town_kana": "クボチョウ",
      "street": null,
      "office_name": null,
      "office_name_kana": null
    },
    {
      "zip_code": "4380078",
      "prefecture": "静岡県",
      "prefecture_kana": "シズオカケン",
      "prefecture_code": "22",
      "city": "磐田市",
      "city_kana": "イワタシ",
      "town": "御殿",
      "town_kana": "ゴテン",
      "street": null,
      "office_name": null,
      "office_name_kana": null
    },
    {
      "zip_code": "4380078",
      "prefecture": "静岡県",
      "prefecture_kana": "シズオカケン",
      "prefecture_code": "22",
      "city": "磐田市",
      "city_kana": "イワタシ",
      "town": "坂上町",
      "town_kana": "サカウエチョウ",
      "street": null,
      "office_name": null,
      "office_name_kana": null
    },
    {
      "zip_code": "4380078",
      "prefecture": "静岡県",
      "prefecture_kana": "シズオカケン",
      "prefecture_code": "22",
      "city": "磐田市",
      "city_kana": "イワタシ",
      "town": "栄町",
      "town_kana": "サカエチョウ",
      "street": null,
      "office_name": null,
      "office_name_kana": null
    },
    {
      "zip_code": "4380078",
      "prefecture": "静岡県",
      "prefecture_kana": "シズオカケン",
      "prefecture_code": "22",
      "city": "磐田市",
      "city_kana": "イワタシ",
      "town": "桜ケ丘",
      "town_kana": "サクラガオカ",
      "street": null,
      "office_name": null,
      "office_name_kana": null
    },
    {
      "zip_code": "4380078",
      "prefecture": "静岡県",
      "prefecture_kana": "シズオカケン",
      "prefecture_code": "22",
      "city": "磐田市",
      "city_kana": "イワタシ",
      "town": "七軒町",
      "town_kana": "シチケンチョウ",
      "street": null,
      "office_name": null,
      "office_name_kana": null
    },
    {
      "zip_code": "4380078",
      "prefecture": "静岡県",
      "prefecture_kana": "シズオカケン",
      "prefecture_code": "22",
      "city": "磐田市",
      "city_kana": "イワタシ",
      "town": "田町",
      "town_kana": "タマチ",
      "street": null,
      "office_name": null,
      "office_name_kana": null
    },
    {
      "zip_code": "4380078",
      "prefecture": "静岡県",
      "prefecture_kana": "シズオカケン",
      "prefecture_code": "22",
      "city": "磐田市",
      "city_kana": "イワタシ",
      "town": "中央町",
      "town_kana": "チュウオウチョウ",
      "street": null,
      "office_name": null,
      "office_name_kana": null
    },
    {
      "zip_code": "4380078",
      "prefecture": "静岡県",
      "prefecture_kana": "シズオカケン",
      "prefecture_code": "22",
      "city": "磐田市",
      "city_kana": "イワタシ",
      "town": "中泉",
      "town_kana": "ナカイズミ",
      "street": null,
      "office_name": null,
      "office_name_kana": null
    },
    {
      "zip_code": "4380078",
      "prefecture": "静岡県",
      "prefecture_kana": "シズオカケン",
      "prefecture_code": "22",
      "city": "磐田市",
      "city_kana": "イワタシ",
      "town": "中町",
      "town_kana": "ナカマチ",
      "street": null,
      "office_name": null,
      "office_name_kana": null
    },
    {
      "zip_code": "4380078",
      "prefecture": "静岡県",
      "prefecture_kana": "シズオカケン",
      "prefecture_code": "22",
      "city": "磐田市",
      "city_kana": "イワタシ",
      "town": "西新町",
      "town_kana": "ニシシンマチ",
      "street": null,
      "office_name": null,
      "office_name_kana": null
    },
    {
      "zip_code": "4380078",
      "prefecture": "静岡県",
      "prefecture_kana": "シズオカケン",
      "prefecture_code": "22",
      "city": "磐田市",
      "city_kana": "イワタシ",
      "town": "西町",
      "town_kana": "ニシマチ",
      "street": null,
      "office_name": null,
      "office_name_kana": null
    },
    {
      "zip_code": "4380078",
      "prefecture": "静岡県",
      "prefecture_kana": "シズオカケン",
      "prefecture_code": "22",
      "city": "磐田市",
      "city_kana": "イワタシ",
      "town": "東町",
      "town_kana": "ヒガシマチ",
      "street": null,
      "office_name": null,
      "office_name_kana": null
    },
    {
      "zip_code": "4380078",
      "prefecture": "静岡県",
      "prefecture_kana": "シズオカケン",
      "prefecture_code": "22",
      "city": "磐田市",
      "city_kana": "イワタシ",
      "town": "本町",
      "town_kana": "ホンマチ",
      "street": null,
      "office_name": null,
      "office_name_kana": null
    }
  ],
  "0081": {
    "zip_code": "4380081",
    "prefecture": "静岡県",
    "prefecture_kana": "シズオカケン",
    "prefecture_code": "22",
    "city": "磐田市",
    "city_kana": "イワタシ",
    "town": "緑ケ丘",
    "town_kana": "ミドリガオカ",
    "street": null,
    "office_name": null,
    "office_name_kana": null
  },
  "0082": {
    "zip_code": "4380082",
    "prefecture": "静岡県",
    "prefecture_kana": "シズオカケン",
    "prefecture_code": "22",
    "city": "磐田市",
    "city_kana": "イワタシ",
    "town": "元天神町",
    "town_kana": "モトテンジンチョウ",
    "street": null,
    "office_name": null,
    "office_name_kana": null
  },
  "0083": {
    "zip_code": "4380083",
    "prefecture": "静岡県",
    "prefecture_kana": "シズオカケン",
    "prefecture_code": "22",
    "city": "磐田市",
    "city_kana": "イワタシ",
    "town": "富士見町",
    "town_kana": "フジミチョウ",
    "street": null,
    "office_name": null,
    "office_name_kana": null
  },
  "0084": {
    "zip_code": "4380084",
    "prefecture": "静岡県",
    "prefecture_kana": "シズオカケン",
    "prefecture_code": "22",
    "city": "磐田市",
    "city_kana": "イワタシ",
    "town": "城之崎",
    "town_kana": "キノサキ",
    "street": null,
    "office_name": null,
    "office_name_kana": null
  },
  "0085": {
    "zip_code": "4380085",
    "prefecture": "静岡県",
    "prefecture_kana": "シズオカケン",
    "prefecture_code": "22",
    "city": "磐田市",
    "city_kana": "イワタシ",
    "town": "水堀",
    "town_kana": "ミズホリ",
    "street": null,
    "office_name": null,
    "office_name_kana": null
  },
  "0086": [
    {
      "zip_code": "4380086",
      "prefecture": "静岡県",
      "prefecture_kana": "シズオカケン",
      "prefecture_code": "22",
      "city": "磐田市",
      "city_kana": "イワタシ",
      "town": "一番町",
      "town_kana": "イチバンチョウ",
      "street": null,
      "office_name": null,
      "office_name_kana": null
    },
    {
      "zip_code": "4380086",
      "prefecture": "静岡県",
      "prefecture_kana": "シズオカケン",
      "prefecture_code": "22",
      "city": "磐田市",
      "city_kana": "イワタシ",
      "town": "梅屋町",
      "town_kana": "ウメヤチョウ",
      "street": null,
      "office_name": null,
      "office_name_kana": null
    },
    {
      "zip_code": "4380086",
      "prefecture": "静岡県",
      "prefecture_kana": "シズオカケン",
      "prefecture_code": "22",
      "city": "磐田市",
      "city_kana": "イワタシ",
      "town": "加茂川通",
      "town_kana": "カモガワドオリ",
      "street": null,
      "office_name": null,
      "office_name_kana": null
    },
    {
      "zip_code": "4380086",
      "prefecture": "静岡県",
      "prefecture_kana": "シズオカケン",
      "prefecture_code": "22",
      "city": "磐田市",
      "city_kana": "イワタシ",
      "town": "河原町",
      "town_kana": "カワラチョウ",
      "street": null,
      "office_name": null,
      "office_name_kana": null
    },
    {
      "zip_code": "4380086",
      "prefecture": "静岡県",
      "prefecture_kana": "シズオカケン",
      "prefecture_code": "22",
      "city": "磐田市",
      "city_kana": "イワタシ",
      "town": "北見町",
      "town_kana": "キタミチョウ",
      "street": null,
      "office_name": null,
      "office_name_kana": null
    },
    {
      "zip_code": "4380086",
      "prefecture": "静岡県",
      "prefecture_kana": "シズオカケン",
      "prefecture_code": "22",
      "city": "磐田市",
      "city_kana": "イワタシ",
      "town": "権現町",
      "town_kana": "ゴンゲンチョウ",
      "street": null,
      "office_name": null,
      "office_name_kana": null
    },
    {
      "zip_code": "4380086",
      "prefecture": "静岡県",
      "prefecture_kana": "シズオカケン",
      "prefecture_code": "22",
      "city": "磐田市",
      "city_kana": "イワタシ",
      "town": "幸町",
      "town_kana": "サイワイチョウ",
      "street": null,
      "office_name": null,
      "office_name_kana": null
    },
    {
      "zip_code": "4380086",
      "prefecture": "静岡県",
      "prefecture_kana": "シズオカケン",
      "prefecture_code": "22",
      "city": "磐田市",
      "city_kana": "イワタシ",
      "town": "清水町",
      "town_kana": "シミズチョウ",
      "street": null,
      "office_name": null,
      "office_name_kana": null
    },
    {
      "zip_code": "4380086",
      "prefecture": "静岡県",
      "prefecture_kana": "シズオカケン",
      "prefecture_code": "22",
      "city": "磐田市",
      "city_kana": "イワタシ",
      "town": "宿町",
      "town_kana": "シュクマチ",
      "street": null,
      "office_name": null,
      "office_name_kana": null
    },
    {
      "zip_code": "4380086",
      "prefecture": "静岡県",
      "prefecture_kana": "シズオカケン",
      "prefecture_code": "22",
      "city": "磐田市",
      "city_kana": "イワタシ",
      "town": "地脇町",
      "town_kana": "ジワキチョウ",
      "street": null,
      "office_name": null,
      "office_name_kana": null
    },
    {
      "zip_code": "4380086",
      "prefecture": "静岡県",
      "prefecture_kana": "シズオカケン",
      "prefecture_code": "22",
      "city": "磐田市",
      "city_kana": "イワタシ",
      "town": "新通町",
      "town_kana": "シンドオリチョウ",
      "street": null,
      "office_name": null,
      "office_name_kana": null
    },
    {
      "zip_code": "4380086",
      "prefecture": "静岡県",
      "prefecture_kana": "シズオカケン",
      "prefecture_code": "22",
      "city": "磐田市",
      "city_kana": "イワタシ",
      "town": "住吉町",
      "town_kana": "スミヨシチョウ",
      "street": null,
      "office_name": null,
      "office_name_kana": null
    },
    {
      "zip_code": "4380086",
      "prefecture": "静岡県",
      "prefecture_kana": "シズオカケン",
      "prefecture_code": "22",
      "city": "磐田市",
      "city_kana": "イワタシ",
      "town": "天王町",
      "town_kana": "テンノウチョウ",
      "street": null,
      "office_name": null,
      "office_name_kana": null
    },
    {
      "zip_code": "4380086",
      "prefecture": "静岡県",
      "prefecture_kana": "シズオカケン",
      "prefecture_code": "22",
      "city": "磐田市",
      "city_kana": "イワタシ",
      "town": "中川町",
      "town_kana": "ナカガワチョウ",
      "street": null,
      "office_name": null,
      "office_name_kana": null
    },
    {
      "zip_code": "4380086",
      "prefecture": "静岡県",
      "prefecture_kana": "シズオカケン",
      "prefecture_code": "22",
      "city": "磐田市",
      "city_kana": "イワタシ",
      "town": "西坂町",
      "town_kana": "ニシザカチョウ",
      "street": null,
      "office_name": null,
      "office_name_kana": null
    },
    {
      "zip_code": "4380086",
      "prefecture": "静岡県",
      "prefecture_kana": "シズオカケン",
      "prefecture_code": "22",
      "city": "磐田市",
      "city_kana": "イワタシ",
      "town": "二番町",
      "town_kana": "ニバンチョウ",
      "street": null,
      "office_name": null,
      "office_name_kana": null
    },
    {
      "zip_code": "4380086",
      "prefecture": "静岡県",
      "prefecture_kana": "シズオカケン",
      "prefecture_code": "22",
      "city": "磐田市",
      "city_kana": "イワタシ",
      "town": "馬場町",
      "town_kana": "ババチョウ",
      "street": null,
      "office_name": null,
      "office_name_kana": null
    },
    {
      "zip_code": "4380086",
      "prefecture": "静岡県",
      "prefecture_kana": "シズオカケン",
      "prefecture_code": "22",
      "city": "磐田市",
      "city_kana": "イワタシ",
      "town": "東坂町",
      "town_kana": "ヒガシザカチョウ",
      "street": null,
      "office_name": null,
      "office_name_kana": null
    },
    {
      "zip_code": "4380086",
      "prefecture": "静岡県",
      "prefecture_kana": "シズオカケン",
      "prefecture_code": "22",
      "city": "磐田市",
      "city_kana": "イワタシ",
      "town": "見付",
      "town_kana": "ミツケ",
      "street": null,
      "office_name": null,
      "office_name_kana": null
    },
    {
      "zip_code": "4380086",
      "prefecture": "静岡県",
      "prefecture_kana": "シズオカケン",
      "prefecture_code": "22",
      "city": "磐田市",
      "city_kana": "イワタシ",
      "town": "美登里町",
      "town_kana": "ミドリチョウ",
      "street": null,
      "office_name": null,
      "office_name_kana": null
    },
    {
      "zip_code": "4380086",
      "prefecture": "静岡県",
      "prefecture_kana": "シズオカケン",
      "prefecture_code": "22",
      "city": "磐田市",
      "city_kana": "イワタシ",
      "town": "元倉町",
      "town_kana": "モトクラチョウ",
      "street": null,
      "office_name": null,
      "office_name_kana": null
    },
    {
      "zip_code": "4380086",
      "prefecture": "静岡県",
      "prefecture_kana": "シズオカケン",
      "prefecture_code": "22",
      "city": "磐田市",
      "city_kana": "イワタシ",
      "town": "元宮町",
      "town_kana": "モトミヤチョウ",
      "street": null,
      "office_name": null,
      "office_name_kana": null
    }
  ],
  "0088": {
    "zip_code": "4380088",
    "prefecture": "静岡県",
    "prefecture_kana": "シズオカケン",
    "prefecture_code": "22",
    "city": "磐田市",
    "city_kana": "イワタシ",
    "town": "富士見台",
    "town_kana": "フジミダイ",
    "street": null,
    "office_name": null,
    "office_name_kana": null
  },
  "0101": {
    "zip_code": "4380101",
    "prefecture": "静岡県",
    "prefecture_kana": "シズオカケン",
    "prefecture_code": "22",
    "city": "磐田市",
    "city_kana": "イワタシ",
    "town": "万瀬",
    "town_kana": "マンゼ",
    "street": null,
    "office_name": null,
    "office_name_kana": null
  },
  "0102": {
    "zip_code": "4380102",
    "prefecture": "静岡県",
    "prefecture_kana": "シズオカケン",
    "prefecture_code": "22",
    "city": "磐田市",
    "city_kana": "イワタシ",
    "town": "虫生",
    "town_kana": "ムシュウ",
    "street": null,
    "office_name": null,
    "office_name_kana": null
  },
  "0103": {
    "zip_code": "4380103",
    "prefecture": "静岡県",
    "prefecture_kana": "シズオカケン",
    "prefecture_code": "22",
    "city": "磐田市",
    "city_kana": "イワタシ",
    "town": "大平",
    "town_kana": "オイダイラ",
    "street": null,
    "office_name": null,
    "office_name_kana": null
  },
  "0104": {
    "zip_code": "4380104",
    "prefecture": "静岡県",
    "prefecture_kana": "シズオカケン",
    "prefecture_code": "22",
    "city": "磐田市",
    "city_kana": "イワタシ",
    "town": "岩室",
    "town_kana": "イワムロ",
    "street": null,
    "office_name": null,
    "office_name_kana": null
  },
  "0105": {
    "zip_code": "4380105",
    "prefecture": "静岡県",
    "prefecture_kana": "シズオカケン",
    "prefecture_code": "22",
    "city": "磐田市",
    "city_kana": "イワタシ",
    "town": "家田",
    "town_kana": "イエタ",
    "street": null,
    "office_name": null,
    "office_name_kana": null
  },
  "0106": {
    "zip_code": "4380106",
    "prefecture": "静岡県",
    "prefecture_kana": "シズオカケン",
    "prefecture_code": "22",
    "city": "磐田市",
    "city_kana": "イワタシ",
    "town": "敷地",
    "town_kana": "シキジ",
    "street": null,
    "office_name": null,
    "office_name_kana": null
  },
  "0107": {
    "zip_code": "4380107",
    "prefecture": "静岡県",
    "prefecture_kana": "シズオカケン",
    "prefecture_code": "22",
    "city": "磐田市",
    "city_kana": "イワタシ",
    "town": "大当所",
    "town_kana": "オオトウショ",
    "street": null,
    "office_name": null,
    "office_name_kana": null
  },
  "0108": {
    "zip_code": "4380108",
    "prefecture": "静岡県",
    "prefecture_kana": "シズオカケン",
    "prefecture_code": "22",
    "city": "磐田市",
    "city_kana": "イワタシ",
    "town": "社山",
    "town_kana": "ヤシロヤマ",
    "street": null,
    "office_name": null,
    "office_name_kana": null
  },
  "0111": {
    "zip_code": "4380111",
    "prefecture": "静岡県",
    "prefecture_kana": "シズオカケン",
    "prefecture_code": "22",
    "city": "磐田市",
    "city_kana": "イワタシ",
    "town": "上野部",
    "town_kana": "カミノベ",
    "street": null,
    "office_name": null,
    "office_name_kana": null
  },
  "0112": {
    "zip_code": "4380112",
    "prefecture": "静岡県",
    "prefecture_kana": "シズオカケン",
    "prefecture_code": "22",
    "city": "磐田市",
    "city_kana": "イワタシ",
    "town": "下野部",
    "town_kana": "シモノベ",
    "street": null,
    "office_name": null,
    "office_name_kana": null
  },
  "0113": {
    "zip_code": "4380113",
    "prefecture": "静岡県",
    "prefecture_kana": "シズオカケン",
    "prefecture_code": "22",
    "city": "磐田市",
    "city_kana": "イワタシ",
    "town": "新開",
    "town_kana": "シンカイ",
    "street": null,
    "office_name": null,
    "office_name_kana": null
  },
  "0114": {
    "zip_code": "4380114",
    "prefecture": "静岡県",
    "prefecture_kana": "シズオカケン",
    "prefecture_code": "22",
    "city": "磐田市",
    "city_kana": "イワタシ",
    "town": "合代島",
    "town_kana": "ゴウダイジマ",
    "street": null,
    "office_name": null,
    "office_name_kana": null
  },
  "0115": {
    "zip_code": "4380115",
    "prefecture": "静岡県",
    "prefecture_kana": "シズオカケン",
    "prefecture_code": "22",
    "city": "磐田市",
    "city_kana": "イワタシ",
    "town": "上神増",
    "town_kana": "カミカンゾ",
    "street": null,
    "office_name": null,
    "office_name_kana": null
  },
  "0116": {
    "zip_code": "4380116",
    "prefecture": "静岡県",
    "prefecture_kana": "シズオカケン",
    "prefecture_code": "22",
    "city": "磐田市",
    "city_kana": "イワタシ",
    "town": "壱貫地",
    "town_kana": "イッカンジ",
    "street": null,
    "office_name": null,
    "office_name_kana": null
  },
  "0121": {
    "zip_code": "4380121",
    "prefecture": "静岡県",
    "prefecture_kana": "シズオカケン",
    "prefecture_code": "22",
    "city": "磐田市",
    "city_kana": "イワタシ",
    "town": "神増",
    "town_kana": "カンゾ",
    "street": null,
    "office_name": null,
    "office_name_kana": null
  },
  "0122": {
    "zip_code": "4380122",
    "prefecture": "静岡県",
    "prefecture_kana": "シズオカケン",
    "prefecture_code": "22",
    "city": "磐田市",
    "city_kana": "イワタシ",
    "town": "惣兵衛下新田",
    "town_kana": "ソウベエシモシンデン",
    "street": null,
    "office_name": null,
    "office_name_kana": null
  },
  "0123": {
    "zip_code": "4380123",
    "prefecture": "静岡県",
    "prefecture_kana": "シズオカケン",
    "prefecture_code": "22",
    "city": "磐田市",
    "city_kana": "イワタシ",
    "town": "平松",
    "town_kana": "ヒラマツ",
    "street": null,
    "office_name": null,
    "office_name_kana": null
  },
  "0124": {
    "zip_code": "4380124",
    "prefecture": "静岡県",
    "prefecture_kana": "シズオカケン",
    "prefecture_code": "22",
    "city": "磐田市",
    "city_kana": "イワタシ",
    "town": "掛下",
    "town_kana": "カケシタ",
    "street": null,
    "office_name": null,
    "office_name_kana": null
  },
  "0125": {
    "zip_code": "4380125",
    "prefecture": "静岡県",
    "prefecture_kana": "シズオカケン",
    "prefecture_code": "22",
    "city": "磐田市",
    "city_kana": "イワタシ",
    "town": "松之木島",
    "town_kana": "マツノキジマ",
    "street": null,
    "office_name": null,
    "office_name_kana": null
  },
  "0126": {
    "zip_code": "4380126",
    "prefecture": "静岡県",
    "prefecture_kana": "シズオカケン",
    "prefecture_code": "22",
    "city": "磐田市",
    "city_kana": "イワタシ",
    "town": "下神増",
    "town_kana": "シモカンゾ",
    "street": null,
    "office_name": null,
    "office_name_kana": null
  },
  "0127": {
    "zip_code": "4380127",
    "prefecture": "静岡県",
    "prefecture_kana": "シズオカケン",
    "prefecture_code": "22",
    "city": "磐田市",
    "city_kana": "イワタシ",
    "town": "三家",
    "town_kana": "ミツエ",
    "street": null,
    "office_name": null,
    "office_name_kana": null
  },
  "0192": {
    "zip_code": "4380192",
    "prefecture": "静岡県",
    "prefecture_kana": "シズオカケン",
    "prefecture_code": "22",
    "city": "磐田市",
    "city_kana": "イワタシ",
    "town": "松之木島",
    "town_kana": "マツノキジマ",
    "street": "２０３",
    "office_name": "ヤマハ　株式会社　豊岡工場",
    "office_name_kana": "ヤマハ カブシキガイシヤ トヨオカコウジヨウ"
  },
  "0193": {
    "zip_code": "4380193",
    "prefecture": "静岡県",
    "prefecture_kana": "シズオカケン",
    "prefecture_code": "22",
    "city": "磐田市",
    "city_kana": "イワタシ",
    "town": "下神増",
    "town_kana": "シモカンゾ",
    "street": "３１４−５",
    "office_name": "浜松ホトニクス　株式会社　豊岡製作所",
    "office_name_kana": "ハママツホトニクス カブシキガイシヤ トヨオカセイサクジヨ"
  },
  "0195": {
    "zip_code": "4380195",
    "prefecture": "静岡県",
    "prefecture_kana": "シズオカケン",
    "prefecture_code": "22",
    "city": "磐田市",
    "city_kana": "イワタシ",
    "town": "下野部",
    "town_kana": "シモノベ",
    "street": "４８",
    "office_name": "磐田市　豊岡支所",
    "office_name_kana": "イワタシ トヨオカシシヨ"
  },
  "0201": {
    "zip_code": "4380201",
    "prefecture": "静岡県",
    "prefecture_kana": "シズオカケン",
    "prefecture_code": "22",
    "city": "磐田市",
    "city_kana": "イワタシ",
    "town": "竜洋中島",
    "town_kana": "リュウヨウナカジマ",
    "street": null,
    "office_name": null,
    "office_name_kana": null
  },
  "0202": {
    "zip_code": "4380202",
    "prefecture": "静岡県",
    "prefecture_kana": "シズオカケン",
    "prefecture_code": "22",
    "city": "磐田市",
    "city_kana": "イワタシ",
    "town": "高木",
    "town_kana": "タカギ",
    "street": null,
    "office_name": null,
    "office_name_kana": null
  },
  "0203": {
    "zip_code": "4380203",
    "prefecture": "静岡県",
    "prefecture_kana": "シズオカケン",
    "prefecture_code": "22",
    "city": "磐田市",
    "city_kana": "イワタシ",
    "town": "平間",
    "town_kana": "ヒラマ",
    "street": null,
    "office_name": null,
    "office_name_kana": null
  },
  "0204": {
    "zip_code": "4380204",
    "prefecture": "静岡県",
    "prefecture_kana": "シズオカケン",
    "prefecture_code": "22",
    "city": "磐田市",
    "city_kana": "イワタシ",
    "town": "岡",
    "town_kana": "オカ",
    "street": null,
    "office_name": null,
    "office_name_kana": null
  },
  "0205": {
    "zip_code": "4380205",
    "prefecture": "静岡県",
    "prefecture_kana": "シズオカケン",
    "prefecture_code": "22",
    "city": "磐田市",
    "city_kana": "イワタシ",
    "town": "堀之内",
    "town_kana": "ホリノウチ",
    "street": null,
    "office_name": null,
    "office_name_kana": null
  },
  "0206": {
    "zip_code": "4380206",
    "prefecture": "静岡県",
    "prefecture_kana": "シズオカケン",
    "prefecture_code": "22",
    "city": "磐田市",
    "city_kana": "イワタシ",
    "town": "松本",
    "town_kana": "マツモト",
    "street": null,
    "office_name": null,
    "office_name_kana": null
  },
  "0207": {
    "zip_code": "4380207",
    "prefecture": "静岡県",
    "prefecture_kana": "シズオカケン",
    "prefecture_code": "22",
    "city": "磐田市",
    "city_kana": "イワタシ",
    "town": "宮本",
    "town_kana": "ミヤモト",
    "street": null,
    "office_name": null,
    "office_name_kana": null
  },
  "0211": {
    "zip_code": "4380211",
    "prefecture": "静岡県",
    "prefecture_kana": "シズオカケン",
    "prefecture_code": "22",
    "city": "磐田市",
    "city_kana": "イワタシ",
    "town": "東平松",
    "town_kana": "ヒガシヒラマツ",
    "street": null,
    "office_name": null,
    "office_name_kana": null
  },
  "0212": {
    "zip_code": "4380212",
    "prefecture": "静岡県",
    "prefecture_kana": "シズオカケン",
    "prefecture_code": "22",
    "city": "磐田市",
    "city_kana": "イワタシ",
    "town": "海老島",
    "town_kana": "エビジマ",
    "street": null,
    "office_name": null,
    "office_name_kana": null
  },
  "0213": {
    "zip_code": "4380213",
    "prefecture": "静岡県",
    "prefecture_kana": "シズオカケン",
    "prefecture_code": "22",
    "city": "磐田市",
    "city_kana": "イワタシ",
    "town": "竜洋稗原",
    "town_kana": "リュウヨウヒエバラ",
    "street": null,
    "office_name": null,
    "office_name_kana": null
  },
  "0214": {
    "zip_code": "4380214",
    "prefecture": "静岡県",
    "prefecture_kana": "シズオカケン",
    "prefecture_code": "22",
    "city": "磐田市",
    "city_kana": "イワタシ",
    "town": "大中瀬",
    "town_kana": "オオナカゼ",
    "street": null,
    "office_name": null,
    "office_name_kana": null
  },
  "0215": {
    "zip_code": "4380215",
    "prefecture": "静岡県",
    "prefecture_kana": "シズオカケン",
    "prefecture_code": "22",
    "city": "磐田市",
    "city_kana": "イワタシ",
    "town": "小中瀬",
    "town_kana": "コナカゼ",
    "street": null,
    "office_name": null,
    "office_name_kana": null
  },
  "0216": {
    "zip_code": "4380216",
    "prefecture": "静岡県",
    "prefecture_kana": "シズオカケン",
    "prefecture_code": "22",
    "city": "磐田市",
    "city_kana": "イワタシ",
    "town": "飛平松",
    "town_kana": "トビヒラマツ",
    "street": null,
    "office_name": null,
    "office_name_kana": null
  },
  "0217": {
    "zip_code": "4380217",
    "prefecture": "静岡県",
    "prefecture_kana": "シズオカケン",
    "prefecture_code": "22",
    "city": "磐田市",
    "city_kana": "イワタシ",
    "town": "西平松",
    "town_kana": "ニシヒラマツ",
    "street": null,
    "office_name": null,
    "office_name_kana": null
  },
  "0218": {
    "zip_code": "4380218",
    "prefecture": "静岡県",
    "prefecture_kana": "シズオカケン",
    "prefecture_code": "22",
    "city": "磐田市",
    "city_kana": "イワタシ",
    "town": "中平松",
    "town_kana": "ナカヒラマツ",
    "street": null,
    "office_name": null,
    "office_name_kana": null
  },
  "0221": {
    "zip_code": "4380221",
    "prefecture": "静岡県",
    "prefecture_kana": "シズオカケン",
    "prefecture_code": "22",
    "city": "磐田市",
    "city_kana": "イワタシ",
    "town": "南平松",
    "town_kana": "ミナミヒラマツ",
    "street": null,
    "office_name": null,
    "office_name_kana": null
  },
  "0222": {
    "zip_code": "4380222",
    "prefecture": "静岡県",
    "prefecture_kana": "シズオカケン",
    "prefecture_code": "22",
    "city": "磐田市",
    "city_kana": "イワタシ",
    "town": "須恵新田",
    "town_kana": "スエシンデン",
    "street": null,
    "office_name": null,
    "office_name_kana": null
  },
  "0223": {
    "zip_code": "4380223",
    "prefecture": "静岡県",
    "prefecture_kana": "シズオカケン",
    "prefecture_code": "22",
    "city": "磐田市",
    "city_kana": "イワタシ",
    "town": "請負新田",
    "town_kana": "ウケオイシンデン",
    "street": null,
    "office_name": null,
    "office_name_kana": null
  },
  "0224": {
    "zip_code": "4380224",
    "prefecture": "静岡県",
    "prefecture_kana": "シズオカケン",
    "prefecture_code": "22",
    "city": "磐田市",
    "city_kana": "イワタシ",
    "town": "浜新田",
    "town_kana": "ハマシンデン",
    "street": null,
    "office_name": null,
    "office_name_kana": null
  },
  "0231": {
    "zip_code": "4380231",
    "prefecture": "静岡県",
    "prefecture_kana": "シズオカケン",
    "prefecture_code": "22",
    "city": "磐田市",
    "city_kana": "イワタシ",
    "town": "豊岡",
    "town_kana": "トヨオカ",
    "street": null,
    "office_name": null,
    "office_name_kana": null
  },
  "0232": {
    "zip_code": "4380232",
    "prefecture": "静岡県",
    "prefecture_kana": "シズオカケン",
    "prefecture_code": "22",
    "city": "磐田市",
    "city_kana": "イワタシ",
    "town": "川袋",
    "town_kana": "カワブクロ",
    "street": null,
    "office_name": null,
    "office_name_kana": null
  },
  "0233": {
    "zip_code": "4380233",
    "prefecture": "静岡県",
    "prefecture_kana": "シズオカケン",
    "prefecture_code": "22",
    "city": "磐田市",
    "city_kana": "イワタシ",
    "town": "駒場",
    "town_kana": "コマバ",
    "street": null,
    "office_name": null,
    "office_name_kana": null
  },
  "0234": {
    "zip_code": "4380234",
    "prefecture": "静岡県",
    "prefecture_kana": "シズオカケン",
    "prefecture_code": "22",
    "city": "磐田市",
    "city_kana": "イワタシ",
    "town": "掛塚",
    "town_kana": "カケツカ",
    "street": null,
    "office_name": null,
    "office_name_kana": null
  },
  "0235": {
    "zip_code": "4380235",
    "prefecture": "静岡県",
    "prefecture_kana": "シズオカケン",
    "prefecture_code": "22",
    "city": "磐田市",
    "city_kana": "イワタシ",
    "town": "白羽",
    "town_kana": "シロワ",
    "street": null,
    "office_name": null,
    "office_name_kana": null
  },
  "0236": {
    "zip_code": "4380236",
    "prefecture": "静岡県",
    "prefecture_kana": "シズオカケン",
    "prefecture_code": "22",
    "city": "磐田市",
    "city_kana": "イワタシ",
    "town": "十郎島",
    "town_kana": "ジュウロウジマ",
    "street": null,
    "office_name": null,
    "office_name_kana": null
  },
  "0292": {
    "zip_code": "4380292",
    "prefecture": "静岡県",
    "prefecture_kana": "シズオカケン",
    "prefecture_code": "22",
    "city": "磐田市",
    "city_kana": "イワタシ",
    "town": "岡",
    "town_kana": "オカ",
    "street": "７２９−１（竜洋郵便局私書箱第１０号）",
    "office_name": "磐田市　竜洋支所",
    "office_name_kana": "イワタシ リユウヨウシシヨ"
  },
  "0801": {
    "zip_code": "4380801",
    "prefecture": "静岡県",
    "prefecture_kana": "シズオカケン",
    "prefecture_code": "22",
    "city": "磐田市",
    "city_kana": "イワタシ",
    "town": "高見丘",
    "town_kana": "タカミガオカ",
    "street": null,
    "office_name": null,
    "office_name_kana": null
  },
  "0802": {
    "zip_code": "4380802",
    "prefecture": "静岡県",
    "prefecture_kana": "シズオカケン",
    "prefecture_code": "22",
    "city": "磐田市",
    "city_kana": "イワタシ",
    "town": "東原",
    "town_kana": "ヒガシバラ",
    "street": null,
    "office_name": null,
    "office_name_kana": null
  },
  "0803": {
    "zip_code": "4380803",
    "prefecture": "静岡県",
    "prefecture_kana": "シズオカケン",
    "prefecture_code": "22",
    "city": "磐田市",
    "city_kana": "イワタシ",
    "town": "富丘",
    "town_kana": "トミガオカ",
    "street": null,
    "office_name": null,
    "office_name_kana": null
  },
  "0804": {
    "zip_code": "4380804",
    "prefecture": "静岡県",
    "prefecture_kana": "シズオカケン",
    "prefecture_code": "22",
    "city": "磐田市",
    "city_kana": "イワタシ",
    "town": "加茂",
    "town_kana": "カモ",
    "street": null,
    "office_name": null,
    "office_name_kana": null
  },
  "0805": {
    "zip_code": "4380805",
    "prefecture": "静岡県",
    "prefecture_kana": "シズオカケン",
    "prefecture_code": "22",
    "city": "磐田市",
    "city_kana": "イワタシ",
    "town": "池田",
    "town_kana": "イケダ",
    "street": null,
    "office_name": null,
    "office_name_kana": null
  },
  "0806": {
    "zip_code": "4380806",
    "prefecture": "静岡県",
    "prefecture_kana": "シズオカケン",
    "prefecture_code": "22",
    "city": "磐田市",
    "city_kana": "イワタシ",
    "town": "東名",
    "town_kana": "トウメイ",
    "street": null,
    "office_name": null,
    "office_name_kana": null
  },
  "0807": {
    "zip_code": "4380807",
    "prefecture": "静岡県",
    "prefecture_kana": "シズオカケン",
    "prefecture_code": "22",
    "city": "磐田市",
    "city_kana": "イワタシ",
    "town": "富里",
    "town_kana": "トミサト",
    "street": null,
    "office_name": null,
    "office_name_kana": null
  },
  "0808": {
    "zip_code": "4380808",
    "prefecture": "静岡県",
    "prefecture_kana": "シズオカケン",
    "prefecture_code": "22",
    "city": "磐田市",
    "city_kana": "イワタシ",
    "town": "豊田",
    "town_kana": "トヨダ",
    "street": null,
    "office_name": null,
    "office_name_kana": null
  },
  "0811": {
    "zip_code": "4380811",
    "prefecture": "静岡県",
    "prefecture_kana": "シズオカケン",
    "prefecture_code": "22",
    "city": "磐田市",
    "city_kana": "イワタシ",
    "town": "一言",
    "town_kana": "ヒトコト",
    "street": null,
    "office_name": null,
    "office_name_kana": null
  },
  "0812": {
    "zip_code": "4380812",
    "prefecture": "静岡県",
    "prefecture_kana": "シズオカケン",
    "prefecture_code": "22",
    "city": "磐田市",
    "city_kana": "イワタシ",
    "town": "海老塚",
    "town_kana": "エビツカ",
    "street": null,
    "office_name": null,
    "office_name_kana": null
  },
  "0813": {
    "zip_code": "4380813",
    "prefecture": "静岡県",
    "prefecture_kana": "シズオカケン",
    "prefecture_code": "22",
    "city": "磐田市",
    "city_kana": "イワタシ",
    "town": "笹原島",
    "town_kana": "ササハラジマ",
    "street": null,
    "office_name": null,
    "office_name_kana": null
  },
  "0814": {
    "zip_code": "4380814",
    "prefecture": "静岡県",
    "prefecture_kana": "シズオカケン",
    "prefecture_code": "22",
    "city": "磐田市",
    "city_kana": "イワタシ",
    "town": "気子島",
    "town_kana": "ケゴジマ",
    "street": null,
    "office_name": null,
    "office_name_kana": null
  },
  "0815": {
    "zip_code": "4380815",
    "prefecture": "静岡県",
    "prefecture_kana": "シズオカケン",
    "prefecture_code": "22",
    "city": "磐田市",
    "city_kana": "イワタシ",
    "town": "中田",
    "town_kana": "ナカダ",
    "street": null,
    "office_name": null,
    "office_name_kana": null
  },
  "0816": {
    "zip_code": "4380816",
    "prefecture": "静岡県",
    "prefecture_kana": "シズオカケン",
    "prefecture_code": "22",
    "city": "磐田市",
    "city_kana": "イワタシ",
    "town": "宮之一色",
    "town_kana": "ミヤノイシキ",
    "street": null,
    "office_name": null,
    "office_name_kana": null
  },
  "0817": {
    "zip_code": "4380817",
    "prefecture": "静岡県",
    "prefecture_kana": "シズオカケン",
    "prefecture_code": "22",
    "city": "磐田市",
    "city_kana": "イワタシ",
    "town": "上万能",
    "town_kana": "カミマンノウ",
    "street": null,
    "office_name": null,
    "office_name_kana": null
  },
  "0818": {
    "zip_code": "4380818",
    "prefecture": "静岡県",
    "prefecture_kana": "シズオカケン",
    "prefecture_code": "22",
    "city": "磐田市",
    "city_kana": "イワタシ",
    "town": "下万能",
    "town_kana": "シモマンノウ",
    "street": null,
    "office_name": null,
    "office_name_kana": null
  },
  "0821": {
    "zip_code": "4380821",
    "prefecture": "静岡県",
    "prefecture_kana": "シズオカケン",
    "prefecture_code": "22",
    "city": "磐田市",
    "city_kana": "イワタシ",
    "town": "立野",
    "town_kana": "タテノ",
    "street": null,
    "office_name": null,
    "office_name_kana": null
  },
  "0822": {
    "zip_code": "4380822",
    "prefecture": "静岡県",
    "prefecture_kana": "シズオカケン",
    "prefecture_code": "22",
    "city": "磐田市",
    "city_kana": "イワタシ",
    "town": "上本郷",
    "town_kana": "カミホンゴウ",
    "street": null,
    "office_name": null,
    "office_name_kana": null
  },
  "0823": {
    "zip_code": "4380823",
    "prefecture": "静岡県",
    "prefecture_kana": "シズオカケン",
    "prefecture_code": "22",
    "city": "磐田市",
    "city_kana": "イワタシ",
    "town": "下本郷",
    "town_kana": "シモホンゴウ",
    "street": null,
    "office_name": null,
    "office_name_kana": null
  },
  "0824": {
    "zip_code": "4380824",
    "prefecture": "静岡県",
    "prefecture_kana": "シズオカケン",
    "prefecture_code": "22",
    "city": "磐田市",
    "city_kana": "イワタシ",
    "town": "赤池",
    "town_kana": "アカイケ",
    "street": null,
    "office_name": null,
    "office_name_kana": null
  },
  "0825": {
    "zip_code": "4380825",
    "prefecture": "静岡県",
    "prefecture_kana": "シズオカケン",
    "prefecture_code": "22",
    "city": "磐田市",
    "city_kana": "イワタシ",
    "town": "森本",
    "town_kana": "モリモト",
    "street": null,
    "office_name": null,
    "office_name_kana": null
  },
  "0831": {
    "zip_code": "4380831",
    "prefecture": "静岡県",
    "prefecture_kana": "シズオカケン",
    "prefecture_code": "22",
    "city": "磐田市",
    "city_kana": "イワタシ",
    "town": "上新屋",
    "town_kana": "カミアラヤ",
    "street": null,
    "office_name": null,
    "office_name_kana": null
  },
  "0832": {
    "zip_code": "4380832",
    "prefecture": "静岡県",
    "prefecture_kana": "シズオカケン",
    "prefecture_code": "22",
    "city": "磐田市",
    "city_kana": "イワタシ",
    "town": "森岡",
    "town_kana": "モリオカ",
    "street": null,
    "office_name": null,
    "office_name_kana": null
  },
  "0833": {
    "zip_code": "4380833",
    "prefecture": "静岡県",
    "prefecture_kana": "シズオカケン",
    "prefecture_code": "22",
    "city": "磐田市",
    "city_kana": "イワタシ",
    "town": "弥藤太島",
    "town_kana": "ヤトウタジマ",
    "street": null,
    "office_name": null,
    "office_name_kana": null
  },
  "0834": {
    "zip_code": "4380834",
    "prefecture": "静岡県",
    "prefecture_kana": "シズオカケン",
    "prefecture_code": "22",
    "city": "磐田市",
    "city_kana": "イワタシ",
    "town": "森下",
    "town_kana": "モリシタ",
    "street": null,
    "office_name": null,
    "office_name_kana": null
  },
  "0835": {
    "zip_code": "4380835",
    "prefecture": "静岡県",
    "prefecture_kana": "シズオカケン",
    "prefecture_code": "22",
    "city": "磐田市",
    "city_kana": "イワタシ",
    "town": "豊田西之島",
    "town_kana": "トヨダニシノシマ",
    "street": null,
    "office_name": null,
    "office_name_kana": null
  },
  "0836": {
    "zip_code": "4380836",
    "prefecture": "静岡県",
    "prefecture_kana": "シズオカケン",
    "prefecture_code": "22",
    "city": "磐田市",
    "city_kana": "イワタシ",
    "town": "長森",
    "town_kana": "ナガモリ",
    "street": null,
    "office_name": null,
    "office_name_kana": null
  },
  "0837": {
    "zip_code": "4380837",
    "prefecture": "静岡県",
    "prefecture_kana": "シズオカケン",
    "prefecture_code": "22",
    "city": "磐田市",
    "city_kana": "イワタシ",
    "town": "源平新田",
    "town_kana": "ゲンペイシンデン",
    "street": null,
    "office_name": null,
    "office_name_kana": null
  },
  "0838": {
    "zip_code": "4380838",
    "prefecture": "静岡県",
    "prefecture_kana": "シズオカケン",
    "prefecture_code": "22",
    "city": "磐田市",
    "city_kana": "イワタシ",
    "town": "小立野",
    "town_kana": "コダテノ",
    "street": null,
    "office_name": null,
    "office_name_kana": null
  },
  "8501": {
    "zip_code": "4388501",
    "prefecture": "静岡県",
    "prefecture_kana": "シズオカケン",
    "prefecture_code": "22",
    "city": "磐田市",
    "city_kana": "イワタシ",
    "town": "新貝",
    "town_kana": "シンガイ",
    "street": "２５００",
    "office_name": "ヤマハ発動機　株式会社",
    "office_name_kana": "ヤマハハツドウキ カブシキガイシヤ"
  },
  "8510": {
    "zip_code": "4388510",
    "prefecture": "静岡県",
    "prefecture_kana": "シズオカケン",
    "prefecture_code": "22",
    "city": "磐田市",
    "city_kana": "イワタシ",
    "town": "東貝塚",
    "town_kana": "ヒガシカイヅカ",
    "street": "１５７８",
    "office_name": "ＮＴＮ　（株）",
    "office_name_kana": "エヌテイエヌ (カブ)"
  },
  "8543": {
    "zip_code": "4388543",
    "prefecture": "静岡県",
    "prefecture_kana": "シズオカケン",
    "prefecture_code": "22",
    "city": "磐田市",
    "city_kana": "イワタシ",
    "town": "上岡田",
    "town_kana": "カミオカタ",
    "street": "４３９−５",
    "office_name": "遠菱アルミホイール　株式会社",
    "office_name_kana": "エンビシアルミホイ-ル カブシキガイシヤ"
  },
  "8550": {
    "zip_code": "4388550",
    "prefecture": "静岡県",
    "prefecture_kana": "シズオカケン",
    "prefecture_code": "22",
    "city": "磐田市",
    "city_kana": "イワタシ",
    "town": "大久保",
    "town_kana": "オオクボ",
    "street": "５１２−３",
    "office_name": "磐田市立総合病院",
    "office_name_kana": "イワタシリツソウゴウビヨウイン"
  },
  "8555": {
    "zip_code": "4388555",
    "prefecture": "静岡県",
    "prefecture_kana": "シズオカケン",
    "prefecture_code": "22",
    "city": "磐田市",
    "city_kana": "イワタシ",
    "town": "豊田",
    "town_kana": "トヨダ",
    "street": "８００",
    "office_name": "王子コンテナー　株式会社　静岡工場",
    "office_name_kana": "オウジコンテナ- カブシキガイシヤ シズオカコウジヨウ"
  },
  "8558": {
    "zip_code": "4388558",
    "prefecture": "静岡県",
    "prefecture_kana": "シズオカケン",
    "prefecture_code": "22",
    "city": "磐田市",
    "city_kana": "イワタシ",
    "town": "見付",
    "town_kana": "ミツケ",
    "street": "３５９９−４",
    "office_name": "静岡県　中遠農林事務所",
    "office_name_kana": "シズオカケン チユウエンノウリンジムシヨ"
  },
  "8577": {
    "zip_code": "4388577",
    "prefecture": "静岡県",
    "prefecture_kana": "シズオカケン",
    "prefecture_code": "22",
    "city": "磐田市",
    "city_kana": "イワタシ",
    "town": "富丘",
    "town_kana": "トミガオカ",
    "street": "６７８−１",
    "office_name": "県立農林大学校",
    "office_name_kana": "ケンリツノウリンダイガツコウ"
  },
  "8585": {
    "zip_code": "4388585",
    "prefecture": "静岡県",
    "prefecture_kana": "シズオカケン",
    "prefecture_code": "22",
    "city": "磐田市",
    "city_kana": "イワタシ",
    "town": "見付",
    "town_kana": "ミツケ",
    "street": "３５９９−６",
    "office_name": "磐田労働基準監督署",
    "office_name_kana": "イワタロウドウキジユンカントクシヨ"
  },
  "8601": {
    "zip_code": "4388601",
    "prefecture": "静岡県",
    "prefecture_kana": "シズオカケン",
    "prefecture_code": "22",
    "city": "磐田市",
    "city_kana": "イワタシ",
    "town": "森岡",
    "town_kana": "モリオカ",
    "street": "１５０",
    "office_name": "磐田市　豊田支所",
    "office_name_kana": "イワタシ トヨダシシヨ"
  },
  "8611": {
    "zip_code": "4388611",
    "prefecture": "静岡県",
    "prefecture_kana": "シズオカケン",
    "prefecture_code": "22",
    "city": "磐田市",
    "city_kana": "イワタシ",
    "town": "豊島",
    "town_kana": "トヨシマ",
    "street": "８６",
    "office_name": "大日精化工業　株式会社　東海製造事業所",
    "office_name_kana": "ダイニチセイカコウギヨウ カブシキガイシヤ トウカイセイゾウジギヨウシヨ"
  },
  "8622": {
    "zip_code": "4388622",
    "prefecture": "静岡県",
    "prefecture_kana": "シズオカケン",
    "prefecture_code": "22",
    "city": "磐田市",
    "city_kana": "イワタシ",
    "town": "見付",
    "town_kana": "ミツケ",
    "street": "３５９９−４",
    "office_name": "静岡県　中東遠健康福祉センター",
    "office_name_kana": "シズオカケン ナカトウエンケンコウフクシセンタ-"
  },
  "8650": {
    "zip_code": "4388650",
    "prefecture": "静岡県",
    "prefecture_kana": "シズオカケン",
    "prefecture_code": "22",
    "city": "磐田市",
    "city_kana": "イワタシ",
    "town": "国府台",
    "town_kana": "コウノダイ",
    "street": "３−１（磐田郵便局私書箱第１２号）",
    "office_name": "磐田市役所",
    "office_name_kana": "イワタシヤクシヨ"
  },
  "8686": {
    "zip_code": "4388686",
    "prefecture": "静岡県",
    "prefecture_kana": "シズオカケン",
    "prefecture_code": "22",
    "city": "磐田市",
    "city_kana": "イワタシ",
    "town": "見付",
    "town_kana": "ミツケ",
    "street": "３０８４",
    "office_name": "磐田南高等学校",
    "office_name_kana": "イワタミナミコウトウガツコウ"
  },
  "8711": {
    "zip_code": "4388711",
    "prefecture": "静岡県",
    "prefecture_kana": "シズオカケン",
    "prefecture_code": "22",
    "city": "磐田市",
    "city_kana": "イワタシ",
    "town": "中泉",
    "town_kana": "ナカイズミ",
    "street": "１１２−４",
    "office_name": "磐田　税務署",
    "office_name_kana": "イワタ ゼイムシヨ"
  },
  "8718": {
    "zip_code": "4388718",
    "prefecture": "静岡県",
    "prefecture_kana": "シズオカケン",
    "prefecture_code": "22",
    "city": "磐田市",
    "city_kana": "イワタシ",
    "town": "中泉",
    "town_kana": "ナカイズミ",
    "street": "１６８",
    "office_name": "磐田農業高等学校",
    "office_name_kana": "イワタノウギヨウコウトウガツコウ"
  }
}