{
  "0000": {
    "zip_code": "4430000",
    "prefecture": "愛知県",
    "prefecture_kana": "アイチケン",
    "prefecture_code": 23,
    "city": "蒲郡市",
    "city_kana": "ガマゴオリシ",
    "town": "",
    "town_kana": "",
    "street": null,
    "office_name": null,
    "office_name_kana": null
  },
  "0001": {
    "zip_code": "4430001",
    "prefecture": "愛知県",
    "prefecture_kana": "アイチケン",
    "prefecture_code": 23,
    "city": "蒲郡市",
    "city_kana": "ガマゴオリシ",
    "town": "坂本町",
    "town_kana": "サカモトチョウ",
    "street": null,
    "office_name": null,
    "office_name_kana": null
  },
  "0002": {
    "zip_code": "4430002",
    "prefecture": "愛知県",
    "prefecture_kana": "アイチケン",
    "prefecture_code": 23,
    "city": "蒲郡市",
    "city_kana": "ガマゴオリシ",
    "town": "清田町",
    "town_kana": "セイダチョウ",
    "street": null,
    "office_name": null,
    "office_name_kana": null
  },
  "0003": {
    "zip_code": "4430003",
    "prefecture": "愛知県",
    "prefecture_kana": "アイチケン",
    "prefecture_code": 23,
    "city": "蒲郡市",
    "city_kana": "ガマゴオリシ",
    "town": "五井町",
    "town_kana": "ゴイチョウ",
    "street": null,
    "office_name": null,
    "office_name_kana": null
  },
  "0004": {
    "zip_code": "4430004",
    "prefecture": "愛知県",
    "prefecture_kana": "アイチケン",
    "prefecture_code": 23,
    "city": "蒲郡市",
    "city_kana": "ガマゴオリシ",
    "town": "平田町",
    "town_kana": "ヒラタチョウ",
    "street": null,
    "office_name": null,
    "office_name_kana": null
  },
  "0005": {
    "zip_code": "4430005",
    "prefecture": "愛知県",
    "prefecture_kana": "アイチケン",
    "prefecture_code": 23,
    "city": "蒲郡市",
    "city_kana": "ガマゴオリシ",
    "town": "水竹町",
    "town_kana": "ミズタケチョウ",
    "street": null,
    "office_name": null,
    "office_name_kana": null
  },
  "0006": {
    "zip_code": "4430006",
    "prefecture": "愛知県",
    "prefecture_kana": "アイチケン",
    "prefecture_code": 23,
    "city": "蒲郡市",
    "city_kana": "ガマゴオリシ",
    "town": "蒲郡町",
    "town_kana": "ガマゴオリチョウ",
    "street": null,
    "office_name": null,
    "office_name_kana": null
  },
  "0007": {
    "zip_code": "4430007",
    "prefecture": "愛知県",
    "prefecture_kana": "アイチケン",
    "prefecture_code": 23,
    "city": "蒲郡市",
    "city_kana": "ガマゴオリシ",
    "town": "神ノ郷町",
    "town_kana": "カミノゴウチョウ",
    "street": null,
    "office_name": null,
    "office_name_kana": null
  },
  "0008": {
    "zip_code": "4430008",
    "prefecture": "愛知県",
    "prefecture_kana": "アイチケン",
    "prefecture_code": 23,
    "city": "蒲郡市",
    "city_kana": "ガマゴオリシ",
    "town": "柏原町",
    "town_kana": "カシワバラチョウ",
    "street": null,
    "office_name": null,
    "office_name_kana": null
  },
  "0011": {
    "zip_code": "4430011",
    "prefecture": "愛知県",
    "prefecture_kana": "アイチケン",
    "prefecture_code": 23,
    "city": "蒲郡市",
    "city_kana": "ガマゴオリシ",
    "town": "豊岡町",
    "town_kana": "トヨオカチョウ",
    "street": null,
    "office_name": null,
    "office_name_kana": null
  },
  "0012": {
    "zip_code": "4430012",
    "prefecture": "愛知県",
    "prefecture_kana": "アイチケン",
    "prefecture_code": 23,
    "city": "蒲郡市",
    "city_kana": "ガマゴオリシ",
    "town": "相楽町",
    "town_kana": "サガラチョウ",
    "street": null,
    "office_name": null,
    "office_name_kana": null
  },
  "0013": {
    "zip_code": "4430013",
    "prefecture": "愛知県",
    "prefecture_kana": "アイチケン",
    "prefecture_code": 23,
    "city": "蒲郡市",
    "city_kana": "ガマゴオリシ",
    "town": "大塚町",
    "town_kana": "オオツカチョウ",
    "street": null,
    "office_name": null,
    "office_name_kana": null
  },
  "0014": {
    "zip_code": "4430014",
    "prefecture": "愛知県",
    "prefecture_kana": "アイチケン",
    "prefecture_code": 23,
    "city": "蒲郡市",
    "city_kana": "ガマゴオリシ",
    "town": "海陽町",
    "town_kana": "カイヨウチョウ",
    "street": null,
    "office_name": null,
    "office_name_kana": null
  },
  "0021": {
    "zip_code": "4430021",
    "prefecture": "愛知県",
    "prefecture_kana": "アイチケン",
    "prefecture_code": 23,
    "city": "蒲郡市",
    "city_kana": "ガマゴオリシ",
    "town": "三谷町",
    "town_kana": "ミヤチョウ",
    "street": null,
    "office_name": null,
    "office_name_kana": null
  },
  "0022": {
    "zip_code": "4430022",
    "prefecture": "愛知県",
    "prefecture_kana": "アイチケン",
    "prefecture_code": 23,
    "city": "蒲郡市",
    "city_kana": "ガマゴオリシ",
    "town": "三谷北通",
    "town_kana": "ミヤキタドオリ",
    "street": null,
    "office_name": null,
    "office_name_kana": null
  },
  "0031": {
    "zip_code": "4430031",
    "prefecture": "愛知県",
    "prefecture_kana": "アイチケン",
    "prefecture_code": 23,
    "city": "蒲郡市",
    "city_kana": "ガマゴオリシ",
    "town": "竹島町",
    "town_kana": "タケシマチョウ",
    "street": null,
    "office_name": null,
    "office_name_kana": null
  },
  "0032": {
    "zip_code": "4430032",
    "prefecture": "愛知県",
    "prefecture_kana": "アイチケン",
    "prefecture_code": 23,
    "city": "蒲郡市",
    "city_kana": "ガマゴオリシ",
    "town": "丸山町",
    "town_kana": "マルヤマチョウ",
    "street": null,
    "office_name": null,
    "office_name_kana": null
  },
  "0033": {
    "zip_code": "4430033",
    "prefecture": "愛知県",
    "prefecture_kana": "アイチケン",
    "prefecture_code": 23,
    "city": "蒲郡市",
    "city_kana": "ガマゴオリシ",
    "town": "松原町",
    "town_kana": "マツバラチョウ",
    "street": null,
    "office_name": null,
    "office_name_kana": null
  },
  "0034": {
    "zip_code": "4430034",
    "prefecture": "愛知県",
    "prefecture_kana": "アイチケン",
    "prefecture_code": 23,
    "city": "蒲郡市",
    "city_kana": "ガマゴオリシ",
    "town": "港町",
    "town_kana": "ミナトマチ",
    "street": null,
    "office_name": null,
    "office_name_kana": null
  },
  "0035": {
    "zip_code": "4430035",
    "prefecture": "愛知県",
    "prefecture_kana": "アイチケン",
    "prefecture_code": 23,
    "city": "蒲郡市",
    "city_kana": "ガマゴオリシ",
    "town": "栄町",
    "town_kana": "サカエマチ",
    "street": null,
    "office_name": null,
    "office_name_kana": null
  },
  "0036": {
    "zip_code": "4430036",
    "prefecture": "愛知県",
    "prefecture_kana": "アイチケン",
    "prefecture_code": 23,
    "city": "蒲郡市",
    "city_kana": "ガマゴオリシ",
    "town": "浜町",
    "town_kana": "ハマチョウ",
    "street": null,
    "office_name": null,
    "office_name_kana": null
  },
  "0037": {
    "zip_code": "4430037",
    "prefecture": "愛知県",
    "prefecture_kana": "アイチケン",
    "prefecture_code": 23,
    "city": "蒲郡市",
    "city_kana": "ガマゴオリシ",
    "town": "鹿島町",
    "town_kana": "カシマチョウ",
    "street": null,
    "office_name": null,
    "office_name_kana": null
  },
  "0038": {
    "zip_code": "4430038",
    "prefecture": "愛知県",
    "prefecture_kana": "アイチケン",
    "prefecture_code": 23,
    "city": "蒲郡市",
    "city_kana": "ガマゴオリシ",
    "town": "拾石町",
    "town_kana": "ヒロイシチョウ",
    "street": null,
    "office_name": null,
    "office_name_kana": null
  },
  "0041": {
    "zip_code": "4430041",
    "prefecture": "愛知県",
    "prefecture_kana": "アイチケン",
    "prefecture_code": 23,
    "city": "蒲郡市",
    "city_kana": "ガマゴオリシ",
    "town": "宮成町",
    "town_kana": "ミヤナリチョウ",
    "street": null,
    "office_name": null,
    "office_name_kana": null
  },
  "0042": {
    "zip_code": "4430042",
    "prefecture": "愛知県",
    "prefecture_kana": "アイチケン",
    "prefecture_code": 23,
    "city": "蒲郡市",
    "city_kana": "ガマゴオリシ",
    "town": "御幸町",
    "town_kana": "ミユキチョウ",
    "street": null,
    "office_name": null,
    "office_name_kana": null
  },
  "0043": {
    "zip_code": "4430043",
    "prefecture": "愛知県",
    "prefecture_kana": "アイチケン",
    "prefecture_code": 23,
    "city": "蒲郡市",
    "city_kana": "ガマゴオリシ",
    "town": "元町",
    "town_kana": "モトマチ",
    "street": null,
    "office_name": null,
    "office_name_kana": null
  },
  "0044": {
    "zip_code": "4430044",
    "prefecture": "愛知県",
    "prefecture_kana": "アイチケン",
    "prefecture_code": 23,
    "city": "蒲郡市",
    "city_kana": "ガマゴオリシ",
    "town": "宝町",
    "town_kana": "タカラマチ",
    "street": null,
    "office_name": null,
    "office_name_kana": null
  },
  "0045": {
    "zip_code": "4430045",
    "prefecture": "愛知県",
    "prefecture_kana": "アイチケン",
    "prefecture_code": 23,
    "city": "蒲郡市",
    "city_kana": "ガマゴオリシ",
    "town": "旭町",
    "town_kana": "アサヒマチ",
    "street": null,
    "office_name": null,
    "office_name_kana": null
  },
  "0046": {
    "zip_code": "4430046",
    "prefecture": "愛知県",
    "prefecture_kana": "アイチケン",
    "prefecture_code": 23,
    "city": "蒲郡市",
    "city_kana": "ガマゴオリシ",
    "town": "竹谷町",
    "town_kana": "タケノヤチョウ",
    "street": null,
    "office_name": null,
    "office_name_kana": null
  },
  "0047": {
    "zip_code": "4430047",
    "prefecture": "愛知県",
    "prefecture_kana": "アイチケン",
    "prefecture_code": 23,
    "city": "蒲郡市",
    "city_kana": "ガマゴオリシ",
    "town": "西迫町",
    "town_kana": "ニシハサマチョウ",
    "street": null,
    "office_name": null,
    "office_name_kana": null
  },
  "0048": {
    "zip_code": "4430048",
    "prefecture": "愛知県",
    "prefecture_kana": "アイチケン",
    "prefecture_code": 23,
    "city": "蒲郡市",
    "city_kana": "ガマゴオリシ",
    "town": "緑町",
    "town_kana": "ミドリマチ",
    "street": null,
    "office_name": null,
    "office_name_kana": null
  },
  "0051": {
    "zip_code": "4430051",
    "prefecture": "愛知県",
    "prefecture_kana": "アイチケン",
    "prefecture_code": 23,
    "city": "蒲郡市",
    "city_kana": "ガマゴオリシ",
    "town": "新井形町",
    "town_kana": "アライガタチョウ",
    "street": null,
    "office_name": null,
    "office_name_kana": null
  },
  "0052": {
    "zip_code": "4430052",
    "prefecture": "愛知県",
    "prefecture_kana": "アイチケン",
    "prefecture_code": 23,
    "city": "蒲郡市",
    "city_kana": "ガマゴオリシ",
    "town": "新井町",
    "town_kana": "アライチョウ",
    "street": null,
    "office_name": null,
    "office_name_kana": null
  },
  "0053": {
    "zip_code": "4430053",
    "prefecture": "愛知県",
    "prefecture_kana": "アイチケン",
    "prefecture_code": 23,
    "city": "蒲郡市",
    "city_kana": "ガマゴオリシ",
    "town": "堀込町",
    "town_kana": "ホリゴミチョウ",
    "street": null,
    "office_name": null,
    "office_name_kana": null
  },
  "0054": {
    "zip_code": "4430054",
    "prefecture": "愛知県",
    "prefecture_kana": "アイチケン",
    "prefecture_code": 23,
    "city": "蒲郡市",
    "city_kana": "ガマゴオリシ",
    "town": "府相町",
    "town_kana": "フソウチョウ",
    "street": null,
    "office_name": null,
    "office_name_kana": null
  },
  "0055": {
    "zip_code": "4430055",
    "prefecture": "愛知県",
    "prefecture_kana": "アイチケン",
    "prefecture_code": 23,
    "city": "蒲郡市",
    "city_kana": "ガマゴオリシ",
    "town": "八百富町",
    "town_kana": "ヤオトミチョウ",
    "street": null,
    "office_name": null,
    "office_name_kana": null
  },
  "0056": {
    "zip_code": "4430056",
    "prefecture": "愛知県",
    "prefecture_kana": "アイチケン",
    "prefecture_code": 23,
    "city": "蒲郡市",
    "city_kana": "ガマゴオリシ",
    "town": "神明町",
    "town_kana": "シンメイチョウ",
    "street": null,
    "office_name": null,
    "office_name_kana": null
  },
  "0057": {
    "zip_code": "4430057",
    "prefecture": "愛知県",
    "prefecture_kana": "アイチケン",
    "prefecture_code": 23,
    "city": "蒲郡市",
    "city_kana": "ガマゴオリシ",
    "town": "中央本町",
    "town_kana": "チュウオウホンマチ",
    "street": null,
    "office_name": null,
    "office_name_kana": null
  },
  "0058": {
    "zip_code": "4430058",
    "prefecture": "愛知県",
    "prefecture_kana": "アイチケン",
    "prefecture_code": 23,
    "city": "蒲郡市",
    "city_kana": "ガマゴオリシ",
    "town": "上本町",
    "town_kana": "ウエホンマチ",
    "street": null,
    "office_name": null,
    "office_name_kana": null
  },
  "0059": {
    "zip_code": "4430059",
    "prefecture": "愛知県",
    "prefecture_kana": "アイチケン",
    "prefecture_code": 23,
    "city": "蒲郡市",
    "city_kana": "ガマゴオリシ",
    "town": "本町",
    "town_kana": "ホンマチ",
    "street": null,
    "office_name": null,
    "office_name_kana": null
  },
  "0101": {
    "zip_code": "4430101",
    "prefecture": "愛知県",
    "prefecture_kana": "アイチケン",
    "prefecture_code": 23,
    "city": "蒲郡市",
    "city_kana": "ガマゴオリシ",
    "town": "一色町",
    "town_kana": "イシキチョウ",
    "street": null,
    "office_name": null,
    "office_name_kana": null
  },
  "0102": {
    "zip_code": "4430102",
    "prefecture": "愛知県",
    "prefecture_kana": "アイチケン",
    "prefecture_code": 23,
    "city": "蒲郡市",
    "city_kana": "ガマゴオリシ",
    "town": "金平町",
    "town_kana": "カネヒラチョウ",
    "street": null,
    "office_name": null,
    "office_name_kana": null
  },
  "0103": {
    "zip_code": "4430103",
    "prefecture": "愛知県",
    "prefecture_kana": "アイチケン",
    "prefecture_code": 23,
    "city": "蒲郡市",
    "city_kana": "ガマゴオリシ",
    "town": "形原町北浜",
    "town_kana": "カタハラチョウキタハマ",
    "street": null,
    "office_name": null,
    "office_name_kana": null
  },
  "0104": {
    "zip_code": "4430104",
    "prefecture": "愛知県",
    "prefecture_kana": "アイチケン",
    "prefecture_code": 23,
    "city": "蒲郡市",
    "city_kana": "ガマゴオリシ",
    "town": "形原町",
    "town_kana": "カタハラチョウ",
    "street": null,
    "office_name": null,
    "office_name_kana": null
  },
  "0105": {
    "zip_code": "4430105",
    "prefecture": "愛知県",
    "prefecture_kana": "アイチケン",
    "prefecture_code": 23,
    "city": "蒲郡市",
    "city_kana": "ガマゴオリシ",
    "town": "西浦町",
    "town_kana": "ニシウラチョウ",
    "street": null,
    "office_name": null,
    "office_name_kana": null
  },
  "0106": {
    "zip_code": "4430106",
    "prefecture": "愛知県",
    "prefecture_kana": "アイチケン",
    "prefecture_code": 23,
    "city": "蒲郡市",
    "city_kana": "ガマゴオリシ",
    "town": "形原町春日浦",
    "town_kana": "カタハラチョウカスガウラ",
    "street": null,
    "office_name": null,
    "office_name_kana": null
  },
  "0192": {
    "zip_code": "4430192",
    "prefecture": "愛知県",
    "prefecture_kana": "アイチケン",
    "prefecture_code": 23,
    "city": "蒲郡市",
    "city_kana": "ガマゴオリシ",
    "town": "金平町",
    "town_kana": "カネヒラチョウ",
    "street": "土橋６−２",
    "office_name": "泰興　株式会社",
    "office_name_kana": "タイコウ カブシキガイシヤ"
  },
  "0193": {
    "zip_code": "4430193",
    "prefecture": "愛知県",
    "prefecture_kana": "アイチケン",
    "prefecture_code": 23,
    "city": "蒲郡市",
    "city_kana": "ガマゴオリシ",
    "town": "西浦町",
    "town_kana": "ニシウラチョウ",
    "street": "川東３１",
    "office_name": "株式会社　蒲サ食品",
    "office_name_kana": "カブシキガイシヤ ガマサシヨクヒン"
  },
  "0194": {
    "zip_code": "4430194",
    "prefecture": "愛知県",
    "prefecture_kana": "アイチケン",
    "prefecture_code": 23,
    "city": "蒲郡市",
    "city_kana": "ガマゴオリシ",
    "town": "形原町",
    "town_kana": "カタハラチョウ",
    "street": "港町１５５",
    "office_name": "カネキ水産　株式会社",
    "office_name_kana": "カネキスイサン カブシキガイシヤ"
  },
  "8555": {
    "zip_code": "4438555",
    "prefecture": "愛知県",
    "prefecture_kana": "アイチケン",
    "prefecture_code": 23,
    "city": "蒲郡市",
    "city_kana": "ガマゴオリシ",
    "town": "浜町",
    "town_kana": "ハマチョウ",
    "street": "２４番３",
    "office_name": "アイシン・エイ・ダブリュ　株式会社　蒲郡工場",
    "office_name_kana": "アイシン・エイ・ダブリユ カブシキガイシヤ ガマゴオリコウジヨウ"
  },
  "8588": {
    "zip_code": "4438588",
    "prefecture": "愛知県",
    "prefecture_kana": "アイチケン",
    "prefecture_code": 23,
    "city": "蒲郡市",
    "city_kana": "ガマゴオリシ",
    "town": "海陽町",
    "town_kana": "カイヨウチョウ",
    "street": "３丁目１２番１",
    "office_name": "学校法人　海陽学園　海陽中等教育学校",
    "office_name_kana": "ガツコウホウジン カイヨウガクエン カイヨウチユウトウキヨウイクガツコウ"
  },
  "8601": {
    "zip_code": "4438601",
    "prefecture": "愛知県",
    "prefecture_kana": "アイチケン",
    "prefecture_code": 23,
    "city": "蒲郡市",
    "city_kana": "ガマゴオリシ",
    "town": "旭町",
    "town_kana": "アサヒマチ",
    "street": "１７−１（蒲郡郵便局私書箱第２５号）",
    "office_name": "蒲郡市役所",
    "office_name_kana": "ガマゴオリシヤクシヨ"
  },
  "8611": {
    "zip_code": "4438611",
    "prefecture": "愛知県",
    "prefecture_kana": "アイチケン",
    "prefecture_code": 23,
    "city": "蒲郡市",
    "city_kana": "ガマゴオリシ",
    "town": "港町",
    "town_kana": "ミナトマチ",
    "street": "２−５（蒲郡郵便局私書箱第１５号）",
    "office_name": "竹本油脂　株式会社",
    "office_name_kana": "タケモトユシ カブシキガイシヤ"
  }
}