{
  "0000": {
    "zip_code": "4460000",
    "prefecture": "愛知県",
    "prefecture_kana": "アイチケン",
    "prefecture_code": 23,
    "city": "安城市",
    "city_kana": "アンジョウシ",
    "town": "",
    "town_kana": "",
    "street": null,
    "office_name": null,
    "office_name_kana": null
  },
  "0001": {
    "zip_code": "4460001",
    "prefecture": "愛知県",
    "prefecture_kana": "アイチケン",
    "prefecture_code": 23,
    "city": "安城市",
    "city_kana": "アンジョウシ",
    "town": "里町",
    "town_kana": "サトチョウ",
    "street": null,
    "office_name": null,
    "office_name_kana": null
  },
  "0002": {
    "zip_code": "4460002",
    "prefecture": "愛知県",
    "prefecture_kana": "アイチケン",
    "prefecture_code": 23,
    "city": "安城市",
    "city_kana": "アンジョウシ",
    "town": "橋目町",
    "town_kana": "ハシメチョウ",
    "street": null,
    "office_name": null,
    "office_name_kana": null
  },
  "0003": {
    "zip_code": "4460003",
    "prefecture": "愛知県",
    "prefecture_kana": "アイチケン",
    "prefecture_code": 23,
    "city": "安城市",
    "city_kana": "アンジョウシ",
    "town": "柿さき町",
    "town_kana": "カキサキチョウ",
    "street": null,
    "office_name": null,
    "office_name_kana": null
  },
  "0004": {
    "zip_code": "4460004",
    "prefecture": "愛知県",
    "prefecture_kana": "アイチケン",
    "prefecture_code": 23,
    "city": "安城市",
    "city_kana": "アンジョウシ",
    "town": "尾崎町",
    "town_kana": "オザキチョウ",
    "street": null,
    "office_name": null,
    "office_name_kana": null
  },
  "0005": {
    "zip_code": "4460005",
    "prefecture": "愛知県",
    "prefecture_kana": "アイチケン",
    "prefecture_code": 23,
    "city": "安城市",
    "city_kana": "アンジョウシ",
    "town": "宇頭茶屋町",
    "town_kana": "ウトウチャヤチョウ",
    "street": null,
    "office_name": null,
    "office_name_kana": null
  },
  "0006": {
    "zip_code": "4460006",
    "prefecture": "愛知県",
    "prefecture_kana": "アイチケン",
    "prefecture_code": 23,
    "city": "安城市",
    "city_kana": "アンジョウシ",
    "town": "浜屋町",
    "town_kana": "ハマヤチョウ",
    "street": null,
    "office_name": null,
    "office_name_kana": null
  },
  "0007": {
    "zip_code": "4460007",
    "prefecture": "愛知県",
    "prefecture_kana": "アイチケン",
    "prefecture_code": 23,
    "city": "安城市",
    "city_kana": "アンジョウシ",
    "town": "東栄町",
    "town_kana": "トウエイチョウ",
    "street": null,
    "office_name": null,
    "office_name_kana": null
  },
  "0008": {
    "zip_code": "4460008",
    "prefecture": "愛知県",
    "prefecture_kana": "アイチケン",
    "prefecture_code": 23,
    "city": "安城市",
    "city_kana": "アンジョウシ",
    "town": "今本町",
    "town_kana": "イマホンマチ",
    "street": null,
    "office_name": null,
    "office_name_kana": null
  },
  "0011": {
    "zip_code": "4460011",
    "prefecture": "愛知県",
    "prefecture_kana": "アイチケン",
    "prefecture_code": 23,
    "city": "安城市",
    "city_kana": "アンジョウシ",
    "town": "北山崎町",
    "town_kana": "キタヤマザキチョウ",
    "street": null,
    "office_name": null,
    "office_name_kana": null
  },
  "0012": {
    "zip_code": "4460012",
    "prefecture": "愛知県",
    "prefecture_kana": "アイチケン",
    "prefecture_code": 23,
    "city": "安城市",
    "city_kana": "アンジョウシ",
    "town": "西別所町",
    "town_kana": "ニシベッショチョウ",
    "street": null,
    "office_name": null,
    "office_name_kana": null
  },
  "0013": {
    "zip_code": "4460013",
    "prefecture": "愛知県",
    "prefecture_kana": "アイチケン",
    "prefecture_code": 23,
    "city": "安城市",
    "city_kana": "アンジョウシ",
    "town": "東別所町",
    "town_kana": "ヒガシベッショチョウ",
    "street": null,
    "office_name": null,
    "office_name_kana": null
  },
  "0014": {
    "zip_code": "4460014",
    "prefecture": "愛知県",
    "prefecture_kana": "アイチケン",
    "prefecture_code": 23,
    "city": "安城市",
    "city_kana": "アンジョウシ",
    "town": "別郷町",
    "town_kana": "ベツゴウチョウ",
    "street": null,
    "office_name": null,
    "office_name_kana": null
  },
  "0015": {
    "zip_code": "4460015",
    "prefecture": "愛知県",
    "prefecture_kana": "アイチケン",
    "prefecture_code": 23,
    "city": "安城市",
    "city_kana": "アンジョウシ",
    "town": "高木町",
    "town_kana": "タカギチョウ",
    "street": null,
    "office_name": null,
    "office_name_kana": null
  },
  "0016": {
    "zip_code": "4460016",
    "prefecture": "愛知県",
    "prefecture_kana": "アイチケン",
    "prefecture_code": 23,
    "city": "安城市",
    "city_kana": "アンジョウシ",
    "town": "山崎町",
    "town_kana": "ヤマザキチョウ",
    "street": null,
    "office_name": null,
    "office_name_kana": null
  },
  "0017": {
    "zip_code": "4460017",
    "prefecture": "愛知県",
    "prefecture_kana": "アイチケン",
    "prefecture_code": 23,
    "city": "安城市",
    "city_kana": "アンジョウシ",
    "town": "大岡町",
    "town_kana": "オオオカチョウ",
    "street": null,
    "office_name": null,
    "office_name_kana": null
  },
  "0018": {
    "zip_code": "4460018",
    "prefecture": "愛知県",
    "prefecture_kana": "アイチケン",
    "prefecture_code": 23,
    "city": "安城市",
    "city_kana": "アンジョウシ",
    "town": "東新町",
    "town_kana": "トウシンチョウ",
    "street": null,
    "office_name": null,
    "office_name_kana": null
  },
  "0019": {
    "zip_code": "4460019",
    "prefecture": "愛知県",
    "prefecture_kana": "アイチケン",
    "prefecture_code": 23,
    "city": "安城市",
    "city_kana": "アンジョウシ",
    "town": "新明町",
    "town_kana": "シンメイチョウ",
    "street": null,
    "office_name": null,
    "office_name_kana": null
  },
  "0021": {
    "zip_code": "4460021",
    "prefecture": "愛知県",
    "prefecture_kana": "アイチケン",
    "prefecture_code": 23,
    "city": "安城市",
    "city_kana": "アンジョウシ",
    "town": "法連町",
    "town_kana": "ホウレンチョウ",
    "street": null,
    "office_name": null,
    "office_name_kana": null
  },
  "0022": {
    "zip_code": "4460022",
    "prefecture": "愛知県",
    "prefecture_kana": "アイチケン",
    "prefecture_code": 23,
    "city": "安城市",
    "city_kana": "アンジョウシ",
    "town": "浜富町",
    "town_kana": "ハマトミチョウ",
    "street": null,
    "office_name": null,
    "office_name_kana": null
  },
  "0023": {
    "zip_code": "4460023",
    "prefecture": "愛知県",
    "prefecture_kana": "アイチケン",
    "prefecture_code": 23,
    "city": "安城市",
    "city_kana": "アンジョウシ",
    "town": "上条町",
    "town_kana": "ジョウジョウチョウ",
    "street": null,
    "office_name": null,
    "office_name_kana": null
  },
  "0024": {
    "zip_code": "4460024",
    "prefecture": "愛知県",
    "prefecture_kana": "アイチケン",
    "prefecture_code": 23,
    "city": "安城市",
    "city_kana": "アンジョウシ",
    "town": "河野町",
    "town_kana": "カワノチョウ",
    "street": null,
    "office_name": null,
    "office_name_kana": null
  },
  "0025": {
    "zip_code": "4460025",
    "prefecture": "愛知県",
    "prefecture_kana": "アイチケン",
    "prefecture_code": 23,
    "city": "安城市",
    "city_kana": "アンジョウシ",
    "town": "古井町",
    "town_kana": "フルイチョウ",
    "street": null,
    "office_name": null,
    "office_name_kana": null
  },
  "0026": {
    "zip_code": "4460026",
    "prefecture": "愛知県",
    "prefecture_kana": "アイチケン",
    "prefecture_code": 23,
    "city": "安城市",
    "city_kana": "アンジョウシ",
    "town": "安城町",
    "town_kana": "アンジョウチョウ",
    "street": null,
    "office_name": null,
    "office_name_kana": null
  },
  "0027": {
    "zip_code": "4460027",
    "prefecture": "愛知県",
    "prefecture_kana": "アイチケン",
    "prefecture_code": 23,
    "city": "安城市",
    "city_kana": "アンジョウシ",
    "town": "東明町",
    "town_kana": "トウメイチョウ",
    "street": null,
    "office_name": null,
    "office_name_kana": null
  },
  "0031": {
    "zip_code": "4460031",
    "prefecture": "愛知県",
    "prefecture_kana": "アイチケン",
    "prefecture_code": 23,
    "city": "安城市",
    "city_kana": "アンジョウシ",
    "town": "朝日町",
    "town_kana": "アサヒマチ",
    "street": null,
    "office_name": null,
    "office_name_kana": null
  },
  "0032": {
    "zip_code": "4460032",
    "prefecture": "愛知県",
    "prefecture_kana": "アイチケン",
    "prefecture_code": 23,
    "city": "安城市",
    "city_kana": "アンジョウシ",
    "town": "御幸本町",
    "town_kana": "ミユキホンマチ",
    "street": null,
    "office_name": null,
    "office_name_kana": null
  },
  "0033": {
    "zip_code": "4460033",
    "prefecture": "愛知県",
    "prefecture_kana": "アイチケン",
    "prefecture_code": 23,
    "city": "安城市",
    "city_kana": "アンジョウシ",
    "town": "日の出町",
    "town_kana": "ヒノデチョウ",
    "street": null,
    "office_name": null,
    "office_name_kana": null
  },
  "0034": {
    "zip_code": "4460034",
    "prefecture": "愛知県",
    "prefecture_kana": "アイチケン",
    "prefecture_code": 23,
    "city": "安城市",
    "city_kana": "アンジョウシ",
    "town": "南町",
    "town_kana": "ミナミマチ",
    "street": null,
    "office_name": null,
    "office_name_kana": null
  },
  "0035": {
    "zip_code": "4460035",
    "prefecture": "愛知県",
    "prefecture_kana": "アイチケン",
    "prefecture_code": 23,
    "city": "安城市",
    "city_kana": "アンジョウシ",
    "town": "錦町",
    "town_kana": "ニシキマチ",
    "street": null,
    "office_name": null,
    "office_name_kana": null
  },
  "0036": {
    "zip_code": "4460036",
    "prefecture": "愛知県",
    "prefecture_kana": "アイチケン",
    "prefecture_code": 23,
    "city": "安城市",
    "city_kana": "アンジョウシ",
    "town": "小堤町",
    "town_kana": "コヅツミチョウ",
    "street": null,
    "office_name": null,
    "office_name_kana": null
  },
  "0037": {
    "zip_code": "4460037",
    "prefecture": "愛知県",
    "prefecture_kana": "アイチケン",
    "prefecture_code": 23,
    "city": "安城市",
    "city_kana": "アンジョウシ",
    "town": "相生町",
    "town_kana": "アイオイチョウ",
    "street": null,
    "office_name": null,
    "office_name_kana": null
  },
  "0038": {
    "zip_code": "4460038",
    "prefecture": "愛知県",
    "prefecture_kana": "アイチケン",
    "prefecture_code": 23,
    "city": "安城市",
    "city_kana": "アンジョウシ",
    "town": "末広町",
    "town_kana": "スエヒロチョウ",
    "street": null,
    "office_name": null,
    "office_name_kana": null
  },
  "0039": {
    "zip_code": "4460039",
    "prefecture": "愛知県",
    "prefecture_kana": "アイチケン",
    "prefecture_code": 23,
    "city": "安城市",
    "city_kana": "アンジョウシ",
    "town": "花ノ木町",
    "town_kana": "ハナノキチョウ",
    "street": null,
    "office_name": null,
    "office_name_kana": null
  },
  "0041": {
    "zip_code": "4460041",
    "prefecture": "愛知県",
    "prefecture_kana": "アイチケン",
    "prefecture_code": 23,
    "city": "安城市",
    "city_kana": "アンジョウシ",
    "town": "桜町",
    "town_kana": "サクラマチ",
    "street": null,
    "office_name": null,
    "office_name_kana": null
  },
  "0042": {
    "zip_code": "4460042",
    "prefecture": "愛知県",
    "prefecture_kana": "アイチケン",
    "prefecture_code": 23,
    "city": "安城市",
    "city_kana": "アンジョウシ",
    "town": "大山町",
    "town_kana": "オオヤマチョウ",
    "street": null,
    "office_name": null,
    "office_name_kana": null
  },
  "0043": {
    "zip_code": "4460043",
    "prefecture": "愛知県",
    "prefecture_kana": "アイチケン",
    "prefecture_code": 23,
    "city": "安城市",
    "city_kana": "アンジョウシ",
    "town": "城南町",
    "town_kana": "ジョウナンチョウ",
    "street": null,
    "office_name": null,
    "office_name_kana": null
  },
  "0044": {
    "zip_code": "4460044",
    "prefecture": "愛知県",
    "prefecture_kana": "アイチケン",
    "prefecture_code": 23,
    "city": "安城市",
    "city_kana": "アンジョウシ",
    "town": "百石町",
    "town_kana": "ヒャッコクチョウ",
    "street": null,
    "office_name": null,
    "office_name_kana": null
  },
  "0045": {
    "zip_code": "4460045",
    "prefecture": "愛知県",
    "prefecture_kana": "アイチケン",
    "prefecture_code": 23,
    "city": "安城市",
    "city_kana": "アンジョウシ",
    "town": "横山町",
    "town_kana": "ヨコヤマチョウ",
    "street": null,
    "office_name": null,
    "office_name_kana": null
  },
  "0046": {
    "zip_code": "4460046",
    "prefecture": "愛知県",
    "prefecture_kana": "アイチケン",
    "prefecture_code": 23,
    "city": "安城市",
    "city_kana": "アンジョウシ",
    "town": "赤松町",
    "town_kana": "アカマツチョウ",
    "street": null,
    "office_name": null,
    "office_name_kana": null
  },
  "0051": {
    "zip_code": "4460051",
    "prefecture": "愛知県",
    "prefecture_kana": "アイチケン",
    "prefecture_code": 23,
    "city": "安城市",
    "city_kana": "アンジョウシ",
    "town": "箕輪町",
    "town_kana": "ミノワチョウ",
    "street": null,
    "office_name": null,
    "office_name_kana": null
  },
  "0052": {
    "zip_code": "4460052",
    "prefecture": "愛知県",
    "prefecture_kana": "アイチケン",
    "prefecture_code": 23,
    "city": "安城市",
    "city_kana": "アンジョウシ",
    "town": "福釜町",
    "town_kana": "フカマチョウ",
    "street": null,
    "office_name": null,
    "office_name_kana": null
  },
  "0053": {
    "zip_code": "4460053",
    "prefecture": "愛知県",
    "prefecture_kana": "アイチケン",
    "prefecture_code": 23,
    "city": "安城市",
    "city_kana": "アンジョウシ",
    "town": "高棚町",
    "town_kana": "タカタナチョウ",
    "street": null,
    "office_name": null,
    "office_name_kana": null
  },
  "0054": {
    "zip_code": "4460054",
    "prefecture": "愛知県",
    "prefecture_kana": "アイチケン",
    "prefecture_code": 23,
    "city": "安城市",
    "city_kana": "アンジョウシ",
    "town": "二本木町",
    "town_kana": "ニホンギチョウ",
    "street": null,
    "office_name": null,
    "office_name_kana": null
  },
  "0055": {
    "zip_code": "4460055",
    "prefecture": "愛知県",
    "prefecture_kana": "アイチケン",
    "prefecture_code": 23,
    "city": "安城市",
    "city_kana": "アンジョウシ",
    "town": "緑町",
    "town_kana": "ミドリチョウ",
    "street": null,
    "office_name": null,
    "office_name_kana": null
  },
  "0056": {
    "zip_code": "4460056",
    "prefecture": "愛知県",
    "prefecture_kana": "アイチケン",
    "prefecture_code": 23,
    "city": "安城市",
    "city_kana": "アンジョウシ",
    "town": "三河安城町",
    "town_kana": "ミカワアンジョウチョウ",
    "street": null,
    "office_name": null,
    "office_name_kana": null
  },
  "0057": {
    "zip_code": "4460057",
    "prefecture": "愛知県",
    "prefecture_kana": "アイチケン",
    "prefecture_code": 23,
    "city": "安城市",
    "city_kana": "アンジョウシ",
    "town": "三河安城東町",
    "town_kana": "ミカワアンジョウヒガシマチ",
    "street": null,
    "office_name": null,
    "office_name_kana": null
  },
  "0058": {
    "zip_code": "4460058",
    "prefecture": "愛知県",
    "prefecture_kana": "アイチケン",
    "prefecture_code": 23,
    "city": "安城市",
    "city_kana": "アンジョウシ",
    "town": "三河安城南町",
    "town_kana": "ミカワアンジョウミナミマチ",
    "street": null,
    "office_name": null,
    "office_name_kana": null
  },
  "0059": {
    "zip_code": "4460059",
    "prefecture": "愛知県",
    "prefecture_kana": "アイチケン",
    "prefecture_code": 23,
    "city": "安城市",
    "city_kana": "アンジョウシ",
    "town": "三河安城本町",
    "town_kana": "ミカワアンジョウホンマチ",
    "street": null,
    "office_name": null,
    "office_name_kana": null
  },
  "0061": {
    "zip_code": "4460061",
    "prefecture": "愛知県",
    "prefecture_kana": "アイチケン",
    "prefecture_code": 23,
    "city": "安城市",
    "city_kana": "アンジョウシ",
    "town": "新田町",
    "town_kana": "シンデンチョウ",
    "street": null,
    "office_name": null,
    "office_name_kana": null
  },
  "0062": {
    "zip_code": "4460062",
    "prefecture": "愛知県",
    "prefecture_kana": "アイチケン",
    "prefecture_code": 23,
    "city": "安城市",
    "city_kana": "アンジョウシ",
    "town": "明治本町",
    "town_kana": "メイジホンマチ",
    "street": null,
    "office_name": null,
    "office_name_kana": null
  },
  "0063": {
    "zip_code": "4460063",
    "prefecture": "愛知県",
    "prefecture_kana": "アイチケン",
    "prefecture_code": 23,
    "city": "安城市",
    "city_kana": "アンジョウシ",
    "town": "昭和町",
    "town_kana": "ショウワチョウ",
    "street": null,
    "office_name": null,
    "office_name_kana": null
  },
  "0064": {
    "zip_code": "4460064",
    "prefecture": "愛知県",
    "prefecture_kana": "アイチケン",
    "prefecture_code": 23,
    "city": "安城市",
    "city_kana": "アンジョウシ",
    "town": "弁天町",
    "town_kana": "ベンテンチョウ",
    "street": null,
    "office_name": null,
    "office_name_kana": null
  },
  "0065": {
    "zip_code": "4460065",
    "prefecture": "愛知県",
    "prefecture_kana": "アイチケン",
    "prefecture_code": 23,
    "city": "安城市",
    "city_kana": "アンジョウシ",
    "town": "大東町",
    "town_kana": "ダイトウチョウ",
    "street": null,
    "office_name": null,
    "office_name_kana": null
  },
  "0066": {
    "zip_code": "4460066",
    "prefecture": "愛知県",
    "prefecture_kana": "アイチケン",
    "prefecture_code": 23,
    "city": "安城市",
    "city_kana": "アンジョウシ",
    "town": "池浦町",
    "town_kana": "イケウラチョウ",
    "street": null,
    "office_name": null,
    "office_name_kana": null
  },
  "0071": {
    "zip_code": "4460071",
    "prefecture": "愛知県",
    "prefecture_kana": "アイチケン",
    "prefecture_code": 23,
    "city": "安城市",
    "city_kana": "アンジョウシ",
    "town": "今池町",
    "town_kana": "イマイケチョウ",
    "street": null,
    "office_name": null,
    "office_name_kana": null
  },
  "0072": {
    "zip_code": "4460072",
    "prefecture": "愛知県",
    "prefecture_kana": "アイチケン",
    "prefecture_code": 23,
    "city": "安城市",
    "city_kana": "アンジョウシ",
    "town": "住吉町",
    "town_kana": "スミヨシチョウ",
    "street": null,
    "office_name": null,
    "office_name_kana": null
  },
  "0073": {
    "zip_code": "4460073",
    "prefecture": "愛知県",
    "prefecture_kana": "アイチケン",
    "prefecture_code": 23,
    "city": "安城市",
    "city_kana": "アンジョウシ",
    "town": "篠目町",
    "town_kana": "ササメチョウ",
    "street": null,
    "office_name": null,
    "office_name_kana": null
  },
  "0074": {
    "zip_code": "4460074",
    "prefecture": "愛知県",
    "prefecture_kana": "アイチケン",
    "prefecture_code": 23,
    "city": "安城市",
    "city_kana": "アンジョウシ",
    "town": "井杭山町",
    "town_kana": "イグイヤマチョウ",
    "street": null,
    "office_name": null,
    "office_name_kana": null
  },
  "0075": {
    "zip_code": "4460075",
    "prefecture": "愛知県",
    "prefecture_kana": "アイチケン",
    "prefecture_code": 23,
    "city": "安城市",
    "city_kana": "アンジョウシ",
    "town": "二本木新町",
    "town_kana": "ニホンギシンマチ",
    "street": null,
    "office_name": null,
    "office_name_kana": null
  },
  "0076": {
    "zip_code": "4460076",
    "prefecture": "愛知県",
    "prefecture_kana": "アイチケン",
    "prefecture_code": 23,
    "city": "安城市",
    "city_kana": "アンジョウシ",
    "town": "美園町",
    "town_kana": "ミソノチョウ",
    "street": null,
    "office_name": null,
    "office_name_kana": null
  },
  "8501": {
    "zip_code": "4468501",
    "prefecture": "愛知県",
    "prefecture_kana": "アイチケン",
    "prefecture_code": 23,
    "city": "安城市",
    "city_kana": "アンジョウシ",
    "town": "桜町",
    "town_kana": "サクラマチ",
    "street": "１８−２３",
    "office_name": "安城市役所",
    "office_name_kana": "アンジヨウシヤクシヨ"
  },
  "8502": {
    "zip_code": "4468502",
    "prefecture": "愛知県",
    "prefecture_kana": "アイチケン",
    "prefecture_code": 23,
    "city": "安城市",
    "city_kana": "アンジョウシ",
    "town": "住吉町",
    "town_kana": "スミヨシチョウ",
    "street": "３丁目１１−８",
    "office_name": "株式会社　マキタ",
    "office_name_kana": "カブシキガイシヤ マキタ"
  },
  "8503": {
    "zip_code": "4468503",
    "prefecture": "愛知県",
    "prefecture_kana": "アイチケン",
    "prefecture_code": 23,
    "city": "安城市",
    "city_kana": "アンジョウシ",
    "town": "篠目町",
    "town_kana": "ササメチョウ",
    "street": "井山３",
    "office_name": "アンデン　株式会社",
    "office_name_kana": "アンデン カブシキガイシヤ"
  },
  "8504": {
    "zip_code": "4468504",
    "prefecture": "愛知県",
    "prefecture_kana": "アイチケン",
    "prefecture_code": 23,
    "city": "安城市",
    "city_kana": "アンジョウシ",
    "town": "今池町",
    "town_kana": "イマイケチョウ",
    "street": "３丁目１−３６",
    "office_name": "株式会社　イノアックコーポレーション　安城事業所",
    "office_name_kana": "カブシキガイシヤ イノアツクコ-ポレ-シヨン アンジヨウジギヨウシヨ"
  },
  "8505": {
    "zip_code": "4468505",
    "prefecture": "愛知県",
    "prefecture_kana": "アイチケン",
    "prefecture_code": 23,
    "city": "安城市",
    "city_kana": "アンジョウシ",
    "town": "小堤町",
    "town_kana": "コヅツミチョウ",
    "street": "９−６",
    "office_name": "三浦電気　株式会社",
    "office_name_kana": "ミウラデンキ カブシキガイシヤ"
  },
  "8506": {
    "zip_code": "4468506",
    "prefecture": "愛知県",
    "prefecture_kana": "アイチケン",
    "prefecture_code": 23,
    "city": "安城市",
    "city_kana": "アンジョウシ",
    "town": "今本町",
    "town_kana": "イマホンマチ",
    "street": "東向山６番地の１",
    "office_name": "愛知県経済農業協同組合連合会　西三河センター",
    "office_name_kana": "アイチケンケイザイノウギヨウキヨウドウクミアイレンゴウカイ ニシミカワセンタ-"
  },
  "8507": {
    "zip_code": "4468507",
    "prefecture": "愛知県",
    "prefecture_kana": "アイチケン",
    "prefecture_code": 23,
    "city": "安城市",
    "city_kana": "アンジョウシ",
    "town": "高棚町",
    "town_kana": "タカタナチョウ",
    "street": "新道１",
    "office_name": "株式会社　デンソー　高棚製作所",
    "office_name_kana": "カブシキガイシヤ デンソ- タカタナセイサクシヨ"
  },
  "8508": {
    "zip_code": "4468508",
    "prefecture": "愛知県",
    "prefecture_kana": "アイチケン",
    "prefecture_code": 23,
    "city": "安城市",
    "city_kana": "アンジョウシ",
    "town": "桜町",
    "town_kana": "サクラマチ",
    "street": "７番１０号",
    "office_name": "愛知県西三河県税事務所　安城県税センター",
    "office_name_kana": "アイチケンニシミカワケンゼイジムシヨ アンジヨウケンゼイセンタ-"
  },
  "8511": {
    "zip_code": "4468511",
    "prefecture": "愛知県",
    "prefecture_kana": "アイチケン",
    "prefecture_code": 23,
    "city": "安城市",
    "city_kana": "アンジョウシ",
    "town": "里町",
    "town_kana": "サトチョウ",
    "street": "長根２−１",
    "office_name": "株式会社　デンソー　安城製作所",
    "office_name_kana": "カブシキガイシヤ デンソ- アンジヨウセイサクシヨ"
  },
  "8512": {
    "zip_code": "4468512",
    "prefecture": "愛知県",
    "prefecture_kana": "アイチケン",
    "prefecture_code": 23,
    "city": "安城市",
    "city_kana": "アンジョウシ",
    "town": "桜町",
    "town_kana": "サクラマチ",
    "street": "１６−１",
    "office_name": "安城商工会議所",
    "office_name_kana": "アンジヨウシヨウコウカイギシヨ"
  },
  "8514": {
    "zip_code": "4468514",
    "prefecture": "愛知県",
    "prefecture_kana": null,
    "prefecture_code": null,
    "city": "安城市",
    "city_kana": null,
    "town": "柿碕町",
    "town_kana": null,
    "street": "東山２５",
    "office_name": "タツミ商事　株式会社　豊田支店",
    "office_name_kana": "タツミシヨウジ カブシキガイシヤ トヨタシテン"
  },
  "8515": {
    "zip_code": "4468515",
    "prefecture": "愛知県",
    "prefecture_kana": "アイチケン",
    "prefecture_code": 23,
    "city": "安城市",
    "city_kana": "アンジョウシ",
    "town": "今本町",
    "town_kana": "イマホンマチ",
    "street": "東向山７番地４１",
    "office_name": "キャタピラーウエストジャパン　株式会社",
    "office_name_kana": "キヤタピラ-ウエストジヤパン カブシキガイシヤ"
  },
  "8517": {
    "zip_code": "4468517",
    "prefecture": "愛知県",
    "prefecture_kana": "アイチケン",
    "prefecture_code": 23,
    "city": "安城市",
    "city_kana": "アンジョウシ",
    "town": "横山町",
    "town_kana": "ヨコヤマチョウ",
    "street": "下毛賀知９３",
    "office_name": "衣浦東部保健所　安城支所",
    "office_name_kana": "キヌウラトウブホケンジヨ アンジヨウシシヨ"
  },
  "8518": {
    "zip_code": "4468518",
    "prefecture": "愛知県",
    "prefecture_kana": "アイチケン",
    "prefecture_code": 23,
    "city": "安城市",
    "city_kana": "アンジョウシ",
    "town": "福釜町",
    "town_kana": "フカマチョウ",
    "street": "河原１８",
    "office_name": "株式会社　クオリ",
    "office_name_kana": "カブシキガイシヤ クオリ"
  },
  "8520": {
    "zip_code": "4468520",
    "prefecture": "愛知県",
    "prefecture_kana": "アイチケン",
    "prefecture_code": 23,
    "city": "安城市",
    "city_kana": "アンジョウシ",
    "town": "桜町",
    "town_kana": "サクラマチ",
    "street": "１２−２８",
    "office_name": "株式会社　ムロコーポレーション",
    "office_name_kana": "カブシキガイシヤ ムロコ-ポレ-シヨン"
  },
  "8522": {
    "zip_code": "4468522",
    "prefecture": "愛知県",
    "prefecture_kana": "アイチケン",
    "prefecture_code": 23,
    "city": "安城市",
    "city_kana": "アンジョウシ",
    "town": "今本町",
    "town_kana": "イマホンマチ",
    "street": "４丁目１４−２４",
    "office_name": "万能工業　株式会社",
    "office_name_kana": "マンノウコウギヨウ カブシキガイシヤ"
  },
  "8523": {
    "zip_code": "4468523",
    "prefecture": "愛知県",
    "prefecture_kana": "アイチケン",
    "prefecture_code": 23,
    "city": "安城市",
    "city_kana": "アンジョウシ",
    "town": "横山町",
    "town_kana": "ヨコヤマチョウ",
    "street": "大山田中７９−３",
    "office_name": "三河日産自動車　株式会社",
    "office_name_kana": "ミカワニツサンジドウシヤ カブシキガイシヤ"
  },
  "8524": {
    "zip_code": "4468524",
    "prefecture": "愛知県",
    "prefecture_kana": "アイチケン",
    "prefecture_code": 23,
    "city": "安城市",
    "city_kana": "アンジョウシ",
    "town": "三河安城町",
    "town_kana": "ミカワアンジョウチョウ",
    "street": "１丁目１１番地２",
    "office_name": "アイシン精機　株式会社　安城工場",
    "office_name_kana": "アイシンセイキ カブシキガイシヤ アンジヨウコウジヨウ"
  },
  "8525": {
    "zip_code": "4468525",
    "prefecture": "愛知県",
    "prefecture_kana": "アイチケン",
    "prefecture_code": 23,
    "city": "安城市",
    "city_kana": "アンジョウシ",
    "town": "桜町",
    "town_kana": "サクラマチ",
    "street": "２０−６",
    "office_name": "森永製菓　株式会社　中京工場",
    "office_name_kana": "モリナガセイカ カブシキガイシヤ チユウキヨウコウジヨウ"
  },
  "8526": {
    "zip_code": "4468526",
    "prefecture": "愛知県",
    "prefecture_kana": "アイチケン",
    "prefecture_code": 23,
    "city": "安城市",
    "city_kana": "アンジョウシ",
    "town": "横山町",
    "town_kana": "ヨコヤマチョウ",
    "street": "毛賀知２４−２",
    "office_name": "安城簡易裁判所",
    "office_name_kana": "アンジヨウカンイサイバンシヨ"
  },
  "8533": {
    "zip_code": "4468533",
    "prefecture": "愛知県",
    "prefecture_kana": "アイチケン",
    "prefecture_code": 23,
    "city": "安城市",
    "city_kana": "アンジョウシ",
    "town": "三河安城東町",
    "town_kana": "ミカワアンジョウヒガシマチ",
    "street": "１丁目１８番地１",
    "office_name": "株式会社　ユーハイム",
    "office_name_kana": "カブシキガイシヤ ユ-ハイム"
  },
  "8535": {
    "zip_code": "4468535",
    "prefecture": "愛知県",
    "prefecture_kana": "アイチケン",
    "prefecture_code": 23,
    "city": "安城市",
    "city_kana": "アンジョウシ",
    "town": "三河安城東町",
    "town_kana": "ミカワアンジョウヒガシマチ",
    "street": "１丁目６−２８",
    "office_name": "株式会社　ＳＫコーポレーション",
    "office_name_kana": "カブシキガイシヤ エスケイコ-ポレ-シヨン"
  },
  "8540": {
    "zip_code": "4468540",
    "prefecture": "愛知県",
    "prefecture_kana": "アイチケン",
    "prefecture_code": 23,
    "city": "安城市",
    "city_kana": "アンジョウシ",
    "town": "三河安城町",
    "town_kana": "ミカワアンジョウチョウ",
    "street": "１丁目４−４",
    "office_name": "カリツー　株式会社",
    "office_name_kana": "カリツ- カブシキガイシヤ"
  },
  "8550": {
    "zip_code": "4468550",
    "prefecture": "愛知県",
    "prefecture_kana": "アイチケン",
    "prefecture_code": 23,
    "city": "安城市",
    "city_kana": "アンジョウシ",
    "town": "三河安城町",
    "town_kana": "ミカワアンジョウチョウ",
    "street": "１丁目８番地４",
    "office_name": "一般財団法人　杉浦地域医療振興財団",
    "office_name_kana": "イツパンザイダンホウジン スギウラチイキイリヨウシンコウザイダン"
  },
  "8555": {
    "zip_code": "4468555",
    "prefecture": "愛知県",
    "prefecture_kana": "アイチケン",
    "prefecture_code": 23,
    "city": "安城市",
    "city_kana": "アンジョウシ",
    "town": "二本木新町",
    "town_kana": "ニホンギシンマチ",
    "street": "２丁目１−３",
    "office_name": "山崎製パン　株式会社　安城工場",
    "office_name_kana": "ヤマザキセイパン カブシキガイシヤ アンジヨウコウジヨウ"
  },
  "8558": {
    "zip_code": "4468558",
    "prefecture": "愛知県",
    "prefecture_kana": "アイチケン",
    "prefecture_code": 23,
    "city": "安城市",
    "city_kana": "アンジョウシ",
    "town": "今本町",
    "town_kana": "イマホンマチ",
    "street": "東向山７",
    "office_name": "豊臣機工　株式会社",
    "office_name_kana": "トヨトミキコウ カブシキガイシヤ"
  },
  "8585": {
    "zip_code": "4468585",
    "prefecture": "愛知県",
    "prefecture_kana": "アイチケン",
    "prefecture_code": 23,
    "city": "安城市",
    "city_kana": "アンジョウシ",
    "town": "今本町",
    "town_kana": "イマホンマチ",
    "street": "４丁目７−３",
    "office_name": "碧海信用金庫事務センター",
    "office_name_kana": "ヘキカイシンヨウキンコジムセンタ-"
  },
  "8588": {
    "zip_code": "4468588",
    "prefecture": "愛知県",
    "prefecture_kana": "アイチケン",
    "prefecture_code": 23,
    "city": "安城市",
    "city_kana": "アンジョウシ",
    "town": "新明町",
    "town_kana": "シンメイチョウ",
    "street": "２７−７",
    "office_name": "大見工業　株式会社",
    "office_name_kana": "オオミコウギヨウ カブシキガイシヤ"
  },
  "8601": {
    "zip_code": "4468601",
    "prefecture": "愛知県",
    "prefecture_kana": "アイチケン",
    "prefecture_code": 23,
    "city": "安城市",
    "city_kana": "アンジョウシ",
    "town": "御幸本町",
    "town_kana": "ミユキホンマチ",
    "street": "９−６（安城郵便局私書箱第１号）",
    "office_name": "あいち中央農業　協同組合",
    "office_name_kana": "アイチチユウオウノウギヨウ キヨウドウクミアイ"
  },
  "8602": {
    "zip_code": "4468602",
    "prefecture": "愛知県",
    "prefecture_kana": "アイチケン",
    "prefecture_code": 23,
    "city": "安城市",
    "city_kana": "アンジョウシ",
    "town": "安城町",
    "town_kana": "アンジョウチョウ",
    "street": "東広畔２８",
    "office_name": "愛知県　厚生農業協同組合連合会　安城更生病院",
    "office_name_kana": "アイチケン コウセイノウギヨウキヨウドウクミアイレンゴウカイ アンジヨウコウセイビヨウイン"
  },
  "8635": {
    "zip_code": "4468635",
    "prefecture": "愛知県",
    "prefecture_kana": "アイチケン",
    "prefecture_code": 23,
    "city": "安城市",
    "city_kana": "アンジョウシ",
    "town": "小堤町",
    "town_kana": "コヅツミチョウ",
    "street": "４丁目２５（安城郵便局私書箱第３５号）",
    "office_name": "安城学園高等学校",
    "office_name_kana": "アンジヨウガクエンコウトウガツコウ"
  },
  "8641": {
    "zip_code": "4468641",
    "prefecture": "愛知県",
    "prefecture_kana": "アイチケン",
    "prefecture_code": 23,
    "city": "安城市",
    "city_kana": "アンジョウシ",
    "town": "大東町",
    "town_kana": "ダイトウチョウ",
    "street": "９−１３",
    "office_name": "倉敷紡績　株式会社　安城工場",
    "office_name_kana": "クラシキボウセキ カブシキガイシヤ アンジヨウコウジヨウ"
  },
  "8686": {
    "zip_code": "4468686",
    "prefecture": "愛知県",
    "prefecture_kana": "アイチケン",
    "prefecture_code": 23,
    "city": "安城市",
    "city_kana": "アンジョウシ",
    "town": "御幸本町",
    "town_kana": "ミユキホンマチ",
    "street": "１５−１（安城郵便局私書箱第３３号）",
    "office_name": "碧海信用金庫",
    "office_name_kana": "ヘキカイシンヨウキンコ"
  }
}