{
  "0000": {
    "zip_code": "4480000",
    "prefecture": "愛知県",
    "prefecture_kana": "アイチケン",
    "prefecture_code": 23,
    "city": "刈谷市",
    "city_kana": "カリヤシ",
    "town": "",
    "town_kana": "",
    "street": null,
    "office_name": null,
    "office_name_kana": null
  },
  "0001": {
    "zip_code": "4480001",
    "prefecture": "愛知県",
    "prefecture_kana": "アイチケン",
    "prefecture_code": 23,
    "city": "刈谷市",
    "city_kana": "カリヤシ",
    "town": "井ケ谷町",
    "town_kana": "イガヤチョウ",
    "street": null,
    "office_name": null,
    "office_name_kana": null
  },
  "0002": {
    "zip_code": "4480002",
    "prefecture": "愛知県",
    "prefecture_kana": "アイチケン",
    "prefecture_code": 23,
    "city": "刈谷市",
    "city_kana": "カリヤシ",
    "town": "一里山町",
    "town_kana": "イチリヤマチョウ",
    "street": null,
    "office_name": null,
    "office_name_kana": null
  },
  "0003": {
    "zip_code": "4480003",
    "prefecture": "愛知県",
    "prefecture_kana": "アイチケン",
    "prefecture_code": 23,
    "city": "刈谷市",
    "city_kana": "カリヤシ",
    "town": "一ツ木町",
    "town_kana": "ヒトツギチョウ",
    "street": null,
    "office_name": null,
    "office_name_kana": null
  },
  "0004": {
    "zip_code": "4480004",
    "prefecture": "愛知県",
    "prefecture_kana": "アイチケン",
    "prefecture_code": 23,
    "city": "刈谷市",
    "city_kana": "カリヤシ",
    "town": "泉田町",
    "town_kana": "イズミダチョウ",
    "street": null,
    "office_name": null,
    "office_name_kana": null
  },
  "0005": {
    "zip_code": "4480005",
    "prefecture": "愛知県",
    "prefecture_kana": "アイチケン",
    "prefecture_code": 23,
    "city": "刈谷市",
    "city_kana": "カリヤシ",
    "town": "今川町",
    "town_kana": "イマガワチョウ",
    "street": null,
    "office_name": null,
    "office_name_kana": null
  },
  "0006": {
    "zip_code": "4480006",
    "prefecture": "愛知県",
    "prefecture_kana": "アイチケン",
    "prefecture_code": 23,
    "city": "刈谷市",
    "city_kana": "カリヤシ",
    "town": "西境町",
    "town_kana": "ニシザカイチョウ",
    "street": null,
    "office_name": null,
    "office_name_kana": null
  },
  "0007": {
    "zip_code": "4480007",
    "prefecture": "愛知県",
    "prefecture_kana": "アイチケン",
    "prefecture_code": 23,
    "city": "刈谷市",
    "city_kana": "カリヤシ",
    "town": "東境町",
    "town_kana": "ヒガシザカイチョウ",
    "street": null,
    "office_name": null,
    "office_name_kana": null
  },
  "0008": {
    "zip_code": "4480008",
    "prefecture": "愛知県",
    "prefecture_kana": "アイチケン",
    "prefecture_code": 23,
    "city": "刈谷市",
    "city_kana": "カリヤシ",
    "town": "今岡町",
    "town_kana": "イマオカチョウ",
    "street": null,
    "office_name": null,
    "office_name_kana": null
  },
  "0011": {
    "zip_code": "4480011",
    "prefecture": "愛知県",
    "prefecture_kana": "アイチケン",
    "prefecture_code": 23,
    "city": "刈谷市",
    "city_kana": "カリヤシ",
    "town": "築地町",
    "town_kana": "ツイジチョウ",
    "street": null,
    "office_name": null,
    "office_name_kana": null
  },
  "0012": {
    "zip_code": "4480012",
    "prefecture": "愛知県",
    "prefecture_kana": "アイチケン",
    "prefecture_code": 23,
    "city": "刈谷市",
    "city_kana": "カリヤシ",
    "town": "上重原町",
    "town_kana": "カミシゲハラチョウ",
    "street": null,
    "office_name": null,
    "office_name_kana": null
  },
  "0013": {
    "zip_code": "4480013",
    "prefecture": "愛知県",
    "prefecture_kana": "アイチケン",
    "prefecture_code": 23,
    "city": "刈谷市",
    "city_kana": "カリヤシ",
    "town": "恩田町",
    "town_kana": "オンダチョウ",
    "street": null,
    "office_name": null,
    "office_name_kana": null
  },
  "0014": {
    "zip_code": "4480014",
    "prefecture": "愛知県",
    "prefecture_kana": "アイチケン",
    "prefecture_code": 23,
    "city": "刈谷市",
    "city_kana": "カリヤシ",
    "town": "青山町",
    "town_kana": "アオヤマチョウ",
    "street": null,
    "office_name": null,
    "office_name_kana": null
  },
  "0015": {
    "zip_code": "4480015",
    "prefecture": "愛知県",
    "prefecture_kana": "アイチケン",
    "prefecture_code": 23,
    "city": "刈谷市",
    "city_kana": "カリヤシ",
    "town": "新田町",
    "town_kana": "シンデンチョウ",
    "street": null,
    "office_name": null,
    "office_name_kana": null
  },
  "0021": {
    "zip_code": "4480021",
    "prefecture": "愛知県",
    "prefecture_kana": "アイチケン",
    "prefecture_code": 23,
    "city": "刈谷市",
    "city_kana": "カリヤシ",
    "town": "八軒町",
    "town_kana": "ハチケンチョウ",
    "street": null,
    "office_name": null,
    "office_name_kana": null
  },
  "0022": {
    "zip_code": "4480022",
    "prefecture": "愛知県",
    "prefecture_kana": "アイチケン",
    "prefecture_code": 23,
    "city": "刈谷市",
    "city_kana": "カリヤシ",
    "town": "一色町",
    "town_kana": "イシキチョウ",
    "street": null,
    "office_name": null,
    "office_name_kana": null
  },
  "0023": {
    "zip_code": "4480023",
    "prefecture": "愛知県",
    "prefecture_kana": "アイチケン",
    "prefecture_code": 23,
    "city": "刈谷市",
    "city_kana": "カリヤシ",
    "town": "重原本町",
    "town_kana": "シゲハラホンマチ",
    "street": null,
    "office_name": null,
    "office_name_kana": null
  },
  "0024": {
    "zip_code": "4480024",
    "prefecture": "愛知県",
    "prefecture_kana": "アイチケン",
    "prefecture_code": 23,
    "city": "刈谷市",
    "city_kana": "カリヤシ",
    "town": "下重原町",
    "town_kana": "シモシゲハラチョウ",
    "street": null,
    "office_name": null,
    "office_name_kana": null
  },
  "0025": {
    "zip_code": "4480025",
    "prefecture": "愛知県",
    "prefecture_kana": "アイチケン",
    "prefecture_code": 23,
    "city": "刈谷市",
    "city_kana": "カリヤシ",
    "town": "幸町",
    "town_kana": "サイワイチョウ",
    "street": null,
    "office_name": null,
    "office_name_kana": null
  },
  "0026": {
    "zip_code": "4480026",
    "prefecture": "愛知県",
    "prefecture_kana": "アイチケン",
    "prefecture_code": 23,
    "city": "刈谷市",
    "city_kana": "カリヤシ",
    "town": "中山町",
    "town_kana": "ナカヤマチョウ",
    "street": null,
    "office_name": null,
    "office_name_kana": null
  },
  "0027": {
    "zip_code": "4480027",
    "prefecture": "愛知県",
    "prefecture_kana": "アイチケン",
    "prefecture_code": 23,
    "city": "刈谷市",
    "city_kana": "カリヤシ",
    "town": "相生町",
    "town_kana": "アイオイチョウ",
    "street": null,
    "office_name": null,
    "office_name_kana": null
  },
  "0028": {
    "zip_code": "4480028",
    "prefecture": "愛知県",
    "prefecture_kana": "アイチケン",
    "prefecture_code": 23,
    "city": "刈谷市",
    "city_kana": "カリヤシ",
    "town": "桜町",
    "town_kana": "サクラマチ",
    "street": null,
    "office_name": null,
    "office_name_kana": null
  },
  "0029": {
    "zip_code": "4480029",
    "prefecture": "愛知県",
    "prefecture_kana": "アイチケン",
    "prefecture_code": 23,
    "city": "刈谷市",
    "city_kana": "カリヤシ",
    "town": "昭和町",
    "town_kana": "ショウワチョウ",
    "street": null,
    "office_name": null,
    "office_name_kana": null
  },
  "0031": {
    "zip_code": "4480031",
    "prefecture": "愛知県",
    "prefecture_kana": "アイチケン",
    "prefecture_code": 23,
    "city": "刈谷市",
    "city_kana": "カリヤシ",
    "town": "東新町",
    "town_kana": "トウシンチョウ",
    "street": null,
    "office_name": null,
    "office_name_kana": null
  },
  "0032": {
    "zip_code": "4480032",
    "prefecture": "愛知県",
    "prefecture_kana": "アイチケン",
    "prefecture_code": 23,
    "city": "刈谷市",
    "city_kana": "カリヤシ",
    "town": "朝日町",
    "town_kana": "アサヒマチ",
    "street": null,
    "office_name": null,
    "office_name_kana": null
  },
  "0033": {
    "zip_code": "4480033",
    "prefecture": "愛知県",
    "prefecture_kana": "アイチケン",
    "prefecture_code": 23,
    "city": "刈谷市",
    "city_kana": "カリヤシ",
    "town": "丸田町",
    "town_kana": "マルタチョウ",
    "street": null,
    "office_name": null,
    "office_name_kana": null
  },
  "0034": {
    "zip_code": "4480034",
    "prefecture": "愛知県",
    "prefecture_kana": "アイチケン",
    "prefecture_code": 23,
    "city": "刈谷市",
    "city_kana": "カリヤシ",
    "town": "神明町",
    "town_kana": "シンメイチョウ",
    "street": null,
    "office_name": null,
    "office_name_kana": null
  },
  "0035": {
    "zip_code": "4480035",
    "prefecture": "愛知県",
    "prefecture_kana": "アイチケン",
    "prefecture_code": 23,
    "city": "刈谷市",
    "city_kana": "カリヤシ",
    "town": "矢場町",
    "town_kana": "ヤバチョウ",
    "street": null,
    "office_name": null,
    "office_name_kana": null
  },
  "0036": {
    "zip_code": "4480036",
    "prefecture": "愛知県",
    "prefecture_kana": "アイチケン",
    "prefecture_code": 23,
    "city": "刈谷市",
    "city_kana": "カリヤシ",
    "town": "山池町",
    "town_kana": "ヤマイケチョウ",
    "street": null,
    "office_name": null,
    "office_name_kana": null
  },
  "0037": {
    "zip_code": "4480037",
    "prefecture": "愛知県",
    "prefecture_kana": "アイチケン",
    "prefecture_code": 23,
    "city": "刈谷市",
    "city_kana": "カリヤシ",
    "town": "高倉町",
    "town_kana": "タカクラチョウ",
    "street": null,
    "office_name": null,
    "office_name_kana": null
  },
  "0038": {
    "zip_code": "4480038",
    "prefecture": "愛知県",
    "prefecture_kana": "アイチケン",
    "prefecture_code": 23,
    "city": "刈谷市",
    "city_kana": "カリヤシ",
    "town": "稲場町",
    "town_kana": "イナバチョウ",
    "street": null,
    "office_name": null,
    "office_name_kana": null
  },
  "0039": {
    "zip_code": "4480039",
    "prefecture": "愛知県",
    "prefecture_kana": "アイチケン",
    "prefecture_code": 23,
    "city": "刈谷市",
    "city_kana": "カリヤシ",
    "town": "原崎町",
    "town_kana": "ハラサキチョウ",
    "street": null,
    "office_name": null,
    "office_name_kana": null
  },
  "0041": {
    "zip_code": "4480041",
    "prefecture": "愛知県",
    "prefecture_kana": "アイチケン",
    "prefecture_code": 23,
    "city": "刈谷市",
    "city_kana": "カリヤシ",
    "town": "一番町",
    "town_kana": "イチバンチョウ",
    "street": null,
    "office_name": null,
    "office_name_kana": null
  },
  "0042": {
    "zip_code": "4480042",
    "prefecture": "愛知県",
    "prefecture_kana": "アイチケン",
    "prefecture_code": 23,
    "city": "刈谷市",
    "city_kana": "カリヤシ",
    "town": "広見町",
    "town_kana": "ヒロミチョウ",
    "street": null,
    "office_name": null,
    "office_name_kana": null
  },
  "0043": {
    "zip_code": "4480043",
    "prefecture": "愛知県",
    "prefecture_kana": "アイチケン",
    "prefecture_code": 23,
    "city": "刈谷市",
    "city_kana": "カリヤシ",
    "town": "小山町",
    "town_kana": "オヤマチョウ",
    "street": null,
    "office_name": null,
    "office_name_kana": null
  },
  "0044": {
    "zip_code": "4480044",
    "prefecture": "愛知県",
    "prefecture_kana": "アイチケン",
    "prefecture_code": 23,
    "city": "刈谷市",
    "city_kana": "カリヤシ",
    "town": "池田町",
    "town_kana": "イケダチョウ",
    "street": null,
    "office_name": null,
    "office_name_kana": null
  },
  "0045": {
    "zip_code": "4480045",
    "prefecture": "愛知県",
    "prefecture_kana": "アイチケン",
    "prefecture_code": 23,
    "city": "刈谷市",
    "city_kana": "カリヤシ",
    "town": "新富町",
    "town_kana": "シントミチョウ",
    "street": null,
    "office_name": null,
    "office_name_kana": null
  },
  "0046": {
    "zip_code": "4480046",
    "prefecture": "愛知県",
    "prefecture_kana": "アイチケン",
    "prefecture_code": 23,
    "city": "刈谷市",
    "city_kana": "カリヤシ",
    "town": "日高町",
    "town_kana": "ヒダカチョウ",
    "street": null,
    "office_name": null,
    "office_name_kana": null
  },
  "0047": {
    "zip_code": "4480047",
    "prefecture": "愛知県",
    "prefecture_kana": "アイチケン",
    "prefecture_code": 23,
    "city": "刈谷市",
    "city_kana": "カリヤシ",
    "town": "高津波町",
    "town_kana": "タカツナミチョウ",
    "street": null,
    "office_name": null,
    "office_name_kana": null
  },
  "0048": {
    "zip_code": "4480048",
    "prefecture": "愛知県",
    "prefecture_kana": "アイチケン",
    "prefecture_code": 23,
    "city": "刈谷市",
    "city_kana": "カリヤシ",
    "town": "三田町",
    "town_kana": "ミタチョウ",
    "street": null,
    "office_name": null,
    "office_name_kana": null
  },
  "0049": {
    "zip_code": "4480049",
    "prefecture": "愛知県",
    "prefecture_kana": "アイチケン",
    "prefecture_code": 23,
    "city": "刈谷市",
    "city_kana": "カリヤシ",
    "town": "中手町",
    "town_kana": "ナカテチョウ",
    "street": null,
    "office_name": null,
    "office_name_kana": null
  },
  "0801": {
    "zip_code": "4480801",
    "prefecture": "愛知県",
    "prefecture_kana": "アイチケン",
    "prefecture_code": 23,
    "city": "刈谷市",
    "city_kana": "カリヤシ",
    "town": "板倉町",
    "town_kana": "イタクラチョウ",
    "street": null,
    "office_name": null,
    "office_name_kana": null
  },
  "0802": {
    "zip_code": "4480802",
    "prefecture": "愛知県",
    "prefecture_kana": "アイチケン",
    "prefecture_code": 23,
    "city": "刈谷市",
    "city_kana": "カリヤシ",
    "town": "末広町",
    "town_kana": "スエヒロチョウ",
    "street": null,
    "office_name": null,
    "office_name_kana": null
  },
  "0803": {
    "zip_code": "4480803",
    "prefecture": "愛知県",
    "prefecture_kana": "アイチケン",
    "prefecture_code": 23,
    "city": "刈谷市",
    "city_kana": "カリヤシ",
    "town": "野田町",
    "town_kana": "ノダチョウ",
    "street": null,
    "office_name": null,
    "office_name_kana": null
  },
  "0804": {
    "zip_code": "4480804",
    "prefecture": "愛知県",
    "prefecture_kana": "アイチケン",
    "prefecture_code": 23,
    "city": "刈谷市",
    "city_kana": "カリヤシ",
    "town": "半城土町",
    "town_kana": "ハジョウドチョウ",
    "street": null,
    "office_name": null,
    "office_name_kana": null
  },
  "0805": {
    "zip_code": "4480805",
    "prefecture": "愛知県",
    "prefecture_kana": "アイチケン",
    "prefecture_code": 23,
    "city": "刈谷市",
    "city_kana": "カリヤシ",
    "town": "半城土中町",
    "town_kana": "ハジョウドナカマチ",
    "street": null,
    "office_name": null,
    "office_name_kana": null
  },
  "0806": {
    "zip_code": "4480806",
    "prefecture": "愛知県",
    "prefecture_kana": "アイチケン",
    "prefecture_code": 23,
    "city": "刈谷市",
    "city_kana": "カリヤシ",
    "town": "松栄町",
    "town_kana": "ショウエイチョウ",
    "street": null,
    "office_name": null,
    "office_name_kana": null
  },
  "0807": {
    "zip_code": "4480807",
    "prefecture": "愛知県",
    "prefecture_kana": "アイチケン",
    "prefecture_code": 23,
    "city": "刈谷市",
    "city_kana": "カリヤシ",
    "town": "東刈谷町",
    "town_kana": "ヒガシカリヤチョウ",
    "street": null,
    "office_name": null,
    "office_name_kana": null
  },
  "0808": {
    "zip_code": "4480808",
    "prefecture": "愛知県",
    "prefecture_kana": "アイチケン",
    "prefecture_code": 23,
    "city": "刈谷市",
    "city_kana": "カリヤシ",
    "town": "沖野町",
    "town_kana": "オキノチョウ",
    "street": null,
    "office_name": null,
    "office_name_kana": null
  },
  "0809": {
    "zip_code": "4480809",
    "prefecture": "愛知県",
    "prefecture_kana": "アイチケン",
    "prefecture_code": 23,
    "city": "刈谷市",
    "city_kana": "カリヤシ",
    "town": "南沖野町",
    "town_kana": "ミナミオキノチョウ",
    "street": null,
    "office_name": null,
    "office_name_kana": null
  },
  "0810": {
    "zip_code": "4480810",
    "prefecture": "愛知県",
    "prefecture_kana": "アイチケン",
    "prefecture_code": 23,
    "city": "刈谷市",
    "city_kana": "カリヤシ",
    "town": "場割町",
    "town_kana": "バワリチョウ",
    "street": null,
    "office_name": null,
    "office_name_kana": null
  },
  "0811": {
    "zip_code": "4480811",
    "prefecture": "愛知県",
    "prefecture_kana": "アイチケン",
    "prefecture_code": 23,
    "city": "刈谷市",
    "city_kana": "カリヤシ",
    "town": "田町",
    "town_kana": "タマチ",
    "street": null,
    "office_name": null,
    "office_name_kana": null
  },
  "0812": {
    "zip_code": "4480812",
    "prefecture": "愛知県",
    "prefecture_kana": "アイチケン",
    "prefecture_code": 23,
    "city": "刈谷市",
    "city_kana": "カリヤシ",
    "town": "高須町",
    "town_kana": "タカスチョウ",
    "street": null,
    "office_name": null,
    "office_name_kana": null
  },
  "0813": {
    "zip_code": "4480813",
    "prefecture": "愛知県",
    "prefecture_kana": "アイチケン",
    "prefecture_code": 23,
    "city": "刈谷市",
    "city_kana": "カリヤシ",
    "town": "小垣江町",
    "town_kana": "オガキエチョウ",
    "street": null,
    "office_name": null,
    "office_name_kana": null
  },
  "0814": {
    "zip_code": "4480814",
    "prefecture": "愛知県",
    "prefecture_kana": "アイチケン",
    "prefecture_code": 23,
    "city": "刈谷市",
    "city_kana": "カリヤシ",
    "town": "荒井町",
    "town_kana": "アライチョウ",
    "street": null,
    "office_name": null,
    "office_name_kana": null
  },
  "0815": {
    "zip_code": "4480815",
    "prefecture": "愛知県",
    "prefecture_kana": "アイチケン",
    "prefecture_code": 23,
    "city": "刈谷市",
    "city_kana": "カリヤシ",
    "town": "中島町",
    "town_kana": "ナカジマチョウ",
    "street": null,
    "office_name": null,
    "office_name_kana": null
  },
  "0816": {
    "zip_code": "4480816",
    "prefecture": "愛知県",
    "prefecture_kana": "アイチケン",
    "prefecture_code": 23,
    "city": "刈谷市",
    "city_kana": "カリヤシ",
    "town": "半城土西町",
    "town_kana": "ハジョウドニシマチ",
    "street": null,
    "office_name": null,
    "office_name_kana": null
  },
  "0821": {
    "zip_code": "4480821",
    "prefecture": "愛知県",
    "prefecture_kana": "アイチケン",
    "prefecture_code": 23,
    "city": "刈谷市",
    "city_kana": "カリヤシ",
    "town": "御幸町",
    "town_kana": "ミユキチョウ",
    "street": null,
    "office_name": null,
    "office_name_kana": null
  },
  "0822": {
    "zip_code": "4480822",
    "prefecture": "愛知県",
    "prefecture_kana": "アイチケン",
    "prefecture_code": 23,
    "city": "刈谷市",
    "city_kana": "カリヤシ",
    "town": "松坂町",
    "town_kana": "マツザカチョウ",
    "street": null,
    "office_name": null,
    "office_name_kana": null
  },
  "0823": {
    "zip_code": "4480823",
    "prefecture": "愛知県",
    "prefecture_kana": "アイチケン",
    "prefecture_code": 23,
    "city": "刈谷市",
    "city_kana": "カリヤシ",
    "town": "中川町",
    "town_kana": "ナカガワチョウ",
    "street": null,
    "office_name": null,
    "office_name_kana": null
  },
  "0824": {
    "zip_code": "4480824",
    "prefecture": "愛知県",
    "prefecture_kana": "アイチケン",
    "prefecture_code": 23,
    "city": "刈谷市",
    "city_kana": "カリヤシ",
    "town": "天王町",
    "town_kana": "テンノウチョウ",
    "street": null,
    "office_name": null,
    "office_name_kana": null
  },
  "0825": {
    "zip_code": "4480825",
    "prefecture": "愛知県",
    "prefecture_kana": "アイチケン",
    "prefecture_code": 23,
    "city": "刈谷市",
    "city_kana": "カリヤシ",
    "town": "元町",
    "town_kana": "モトマチ",
    "street": null,
    "office_name": null,
    "office_name_kana": null
  },
  "0831": {
    "zip_code": "4480831",
    "prefecture": "愛知県",
    "prefecture_kana": "アイチケン",
    "prefecture_code": 23,
    "city": "刈谷市",
    "city_kana": "カリヤシ",
    "town": "熊野町",
    "town_kana": "クマノチョウ",
    "street": null,
    "office_name": null,
    "office_name_kana": null
  },
  "0832": {
    "zip_code": "4480832",
    "prefecture": "愛知県",
    "prefecture_kana": "アイチケン",
    "prefecture_code": 23,
    "city": "刈谷市",
    "city_kana": "カリヤシ",
    "town": "八幡町",
    "town_kana": "ハチマンチョウ",
    "street": null,
    "office_name": null,
    "office_name_kana": null
  },
  "0833": {
    "zip_code": "4480833",
    "prefecture": "愛知県",
    "prefecture_kana": "アイチケン",
    "prefecture_code": 23,
    "city": "刈谷市",
    "city_kana": "カリヤシ",
    "town": "城町",
    "town_kana": "シロマチ",
    "street": null,
    "office_name": null,
    "office_name_kana": null
  },
  "0834": {
    "zip_code": "4480834",
    "prefecture": "愛知県",
    "prefecture_kana": "アイチケン",
    "prefecture_code": 23,
    "city": "刈谷市",
    "city_kana": "カリヤシ",
    "town": "司町",
    "town_kana": "ツカサチョウ",
    "street": null,
    "office_name": null,
    "office_name_kana": null
  },
  "0835": {
    "zip_code": "4480835",
    "prefecture": "愛知県",
    "prefecture_kana": "アイチケン",
    "prefecture_code": 23,
    "city": "刈谷市",
    "city_kana": "カリヤシ",
    "town": "港町",
    "town_kana": "ミナトマチ",
    "street": null,
    "office_name": null,
    "office_name_kana": null
  },
  "0836": {
    "zip_code": "4480836",
    "prefecture": "愛知県",
    "prefecture_kana": "アイチケン",
    "prefecture_code": 23,
    "city": "刈谷市",
    "city_kana": "カリヤシ",
    "town": "浜町",
    "town_kana": "ハマチョウ",
    "street": null,
    "office_name": null,
    "office_name_kana": null
  },
  "0837": {
    "zip_code": "4480837",
    "prefecture": "愛知県",
    "prefecture_kana": "アイチケン",
    "prefecture_code": 23,
    "city": "刈谷市",
    "city_kana": "カリヤシ",
    "town": "衣崎町",
    "town_kana": "コロモザキチョウ",
    "street": null,
    "office_name": null,
    "office_name_kana": null
  },
  "0838": {
    "zip_code": "4480838",
    "prefecture": "愛知県",
    "prefecture_kana": "アイチケン",
    "prefecture_code": 23,
    "city": "刈谷市",
    "city_kana": "カリヤシ",
    "town": "逢妻町",
    "town_kana": "アイヅマチョウ",
    "street": null,
    "office_name": null,
    "office_name_kana": null
  },
  "0841": {
    "zip_code": "4480841",
    "prefecture": "愛知県",
    "prefecture_kana": "アイチケン",
    "prefecture_code": 23,
    "city": "刈谷市",
    "city_kana": "カリヤシ",
    "town": "南桜町",
    "town_kana": "ミナミサクラマチ",
    "street": null,
    "office_name": null,
    "office_name_kana": null
  },
  "0842": {
    "zip_code": "4480842",
    "prefecture": "愛知県",
    "prefecture_kana": "アイチケン",
    "prefecture_code": 23,
    "city": "刈谷市",
    "city_kana": "カリヤシ",
    "town": "東陽町",
    "town_kana": "トウヨウチョウ",
    "street": null,
    "office_name": null,
    "office_name_kana": null
  },
  "0843": {
    "zip_code": "4480843",
    "prefecture": "愛知県",
    "prefecture_kana": "アイチケン",
    "prefecture_code": 23,
    "city": "刈谷市",
    "city_kana": "カリヤシ",
    "town": "新栄町",
    "town_kana": "シンサカエマチ",
    "street": null,
    "office_name": null,
    "office_name_kana": null
  },
  "0844": {
    "zip_code": "4480844",
    "prefecture": "愛知県",
    "prefecture_kana": "アイチケン",
    "prefecture_code": 23,
    "city": "刈谷市",
    "city_kana": "カリヤシ",
    "town": "広小路",
    "town_kana": "ヒロコウジ",
    "street": null,
    "office_name": null,
    "office_name_kana": null
  },
  "0845": {
    "zip_code": "4480845",
    "prefecture": "愛知県",
    "prefecture_kana": "アイチケン",
    "prefecture_code": 23,
    "city": "刈谷市",
    "city_kana": "カリヤシ",
    "town": "銀座",
    "town_kana": "ギンザ",
    "street": null,
    "office_name": null,
    "office_name_kana": null
  },
  "0846": {
    "zip_code": "4480846",
    "prefecture": "愛知県",
    "prefecture_kana": "アイチケン",
    "prefecture_code": 23,
    "city": "刈谷市",
    "city_kana": "カリヤシ",
    "town": "寺横町",
    "town_kana": "テラヨコチョウ",
    "street": null,
    "office_name": null,
    "office_name_kana": null
  },
  "0847": {
    "zip_code": "4480847",
    "prefecture": "愛知県",
    "prefecture_kana": "アイチケン",
    "prefecture_code": 23,
    "city": "刈谷市",
    "city_kana": "カリヤシ",
    "town": "宝町",
    "town_kana": "タカラマチ",
    "street": null,
    "office_name": null,
    "office_name_kana": null
  },
  "0848": {
    "zip_code": "4480848",
    "prefecture": "愛知県",
    "prefecture_kana": "アイチケン",
    "prefecture_code": 23,
    "city": "刈谷市",
    "city_kana": "カリヤシ",
    "town": "豊田町",
    "town_kana": "トヨダチョウ",
    "street": null,
    "office_name": null,
    "office_name_kana": null
  },
  "0851": {
    "zip_code": "4480851",
    "prefecture": "愛知県",
    "prefecture_kana": "アイチケン",
    "prefecture_code": 23,
    "city": "刈谷市",
    "city_kana": "カリヤシ",
    "town": "神田町",
    "town_kana": "カンダチョウ",
    "street": null,
    "office_name": null,
    "office_name_kana": null
  },
  "0852": {
    "zip_code": "4480852",
    "prefecture": "愛知県",
    "prefecture_kana": "アイチケン",
    "prefecture_code": 23,
    "city": "刈谷市",
    "city_kana": "カリヤシ",
    "town": "住吉町",
    "town_kana": "スミヨシチョウ",
    "street": null,
    "office_name": null,
    "office_name_kana": null
  },
  "0853": {
    "zip_code": "4480853",
    "prefecture": "愛知県",
    "prefecture_kana": "アイチケン",
    "prefecture_code": 23,
    "city": "刈谷市",
    "city_kana": "カリヤシ",
    "town": "高松町",
    "town_kana": "タカマツチョウ",
    "street": null,
    "office_name": null,
    "office_name_kana": null
  },
  "0854": {
    "zip_code": "4480854",
    "prefecture": "愛知県",
    "prefecture_kana": "アイチケン",
    "prefecture_code": 23,
    "city": "刈谷市",
    "city_kana": "カリヤシ",
    "town": "富士見町",
    "town_kana": "フジミチョウ",
    "street": null,
    "office_name": null,
    "office_name_kana": null
  },
  "0855": {
    "zip_code": "4480855",
    "prefecture": "愛知県",
    "prefecture_kana": "アイチケン",
    "prefecture_code": 23,
    "city": "刈谷市",
    "city_kana": "カリヤシ",
    "town": "大正町",
    "town_kana": "タイショウマチ",
    "street": null,
    "office_name": null,
    "office_name_kana": null
  },
  "0856": {
    "zip_code": "4480856",
    "prefecture": "愛知県",
    "prefecture_kana": "アイチケン",
    "prefecture_code": 23,
    "city": "刈谷市",
    "city_kana": "カリヤシ",
    "town": "寿町",
    "town_kana": "コトブキチョウ",
    "street": null,
    "office_name": null,
    "office_name_kana": null
  },
  "0857": {
    "zip_code": "4480857",
    "prefecture": "愛知県",
    "prefecture_kana": "アイチケン",
    "prefecture_code": 23,
    "city": "刈谷市",
    "city_kana": "カリヤシ",
    "town": "大手町",
    "town_kana": "オオテマチ",
    "street": null,
    "office_name": null,
    "office_name_kana": null
  },
  "0858": {
    "zip_code": "4480858",
    "prefecture": "愛知県",
    "prefecture_kana": "アイチケン",
    "prefecture_code": 23,
    "city": "刈谷市",
    "city_kana": "カリヤシ",
    "town": "若松町",
    "town_kana": "ワカマツチョウ",
    "street": null,
    "office_name": null,
    "office_name_kana": null
  },
  "0861": {
    "zip_code": "4480861",
    "prefecture": "愛知県",
    "prefecture_kana": "アイチケン",
    "prefecture_code": 23,
    "city": "刈谷市",
    "city_kana": "カリヤシ",
    "town": "半城土北町",
    "town_kana": "ハジョウドキタマチ",
    "street": null,
    "office_name": null,
    "office_name_kana": null
  },
  "0862": {
    "zip_code": "4480862",
    "prefecture": "愛知県",
    "prefecture_kana": "アイチケン",
    "prefecture_code": 23,
    "city": "刈谷市",
    "city_kana": "カリヤシ",
    "town": "野田新町",
    "town_kana": "ノダシンマチ",
    "street": null,
    "office_name": null,
    "office_name_kana": null
  },
  "8501": {
    "zip_code": "4488501",
    "prefecture": "愛知県",
    "prefecture_kana": "アイチケン",
    "prefecture_code": 23,
    "city": "刈谷市",
    "city_kana": "カリヤシ",
    "town": "東陽町",
    "town_kana": "トウヨウチョウ",
    "street": "１丁目１番地",
    "office_name": "刈谷市役所",
    "office_name_kana": "カリヤシヤクシヨ"
  },
  "8505": {
    "zip_code": "4488505",
    "prefecture": "愛知県",
    "prefecture_kana": "アイチケン",
    "prefecture_code": 23,
    "city": "刈谷市",
    "city_kana": "カリヤシ",
    "town": "住吉町",
    "town_kana": "スミヨシチョウ",
    "street": "５−１５",
    "office_name": "刈谷豊田総合病院",
    "office_name_kana": "カリヤトヨタソウゴウビヨウイン"
  },
  "8506": {
    "zip_code": "4488506",
    "prefecture": "愛知県",
    "prefecture_kana": "アイチケン",
    "prefecture_code": 23,
    "city": "刈谷市",
    "city_kana": "カリヤシ",
    "town": "住吉町",
    "town_kana": "スミヨシチョウ",
    "street": "３丁目１２番地",
    "office_name": "豊田通商　株式会社　刈谷支店",
    "office_name_kana": "トヨダツウシヨウ カブシキガイシヤ カリヤシテン"
  },
  "8523": {
    "zip_code": "4488523",
    "prefecture": "愛知県",
    "prefecture_kana": "アイチケン",
    "prefecture_code": 23,
    "city": "刈谷市",
    "city_kana": "カリヤシ",
    "town": "若松町",
    "town_kana": "ワカマツチョウ",
    "street": "１丁目４６番地１",
    "office_name": "刈谷税務署",
    "office_name_kana": "カリヤゼイムシヨ"
  },
  "8525": {
    "zip_code": "4488525",
    "prefecture": "愛知県",
    "prefecture_kana": "アイチケン",
    "prefecture_code": 23,
    "city": "刈谷市",
    "city_kana": "カリヤシ",
    "town": "相生町",
    "town_kana": "アイオイチョウ",
    "street": "３丁目３番地",
    "office_name": "アイシン開発　株式会社　富士ビル",
    "office_name_kana": "アイシンカイハツ カブシキガイシヤ フジビル"
  },
  "8531": {
    "zip_code": "4488531",
    "prefecture": "愛知県",
    "prefecture_kana": "アイチケン",
    "prefecture_code": 23,
    "city": "刈谷市",
    "city_kana": "カリヤシ",
    "town": "中山町",
    "town_kana": "ナカヤマチョウ",
    "street": "５丁目１０番地",
    "office_name": "株式会社　東陽",
    "office_name_kana": "カブシキガイシヤ トウヨウ"
  },
  "8533": {
    "zip_code": "4488533",
    "prefecture": "愛知県",
    "prefecture_kana": "アイチケン",
    "prefecture_code": 23,
    "city": "刈谷市",
    "city_kana": "カリヤシ",
    "town": "一ツ木町",
    "town_kana": "ヒトツギチョウ",
    "street": "５丁目１２番地９",
    "office_name": "株式会社　豊電子工業",
    "office_name_kana": "カブシキガイシヤ ユタカデンシコウギヨウ"
  },
  "8534": {
    "zip_code": "4488534",
    "prefecture": "愛知県",
    "prefecture_kana": "アイチケン",
    "prefecture_code": 23,
    "city": "刈谷市",
    "city_kana": "カリヤシ",
    "town": "一ツ木町",
    "town_kana": "ヒトツギチョウ",
    "street": "茶煎坊下１",
    "office_name": "シミズ工業　株式会社",
    "office_name_kana": "シミズコウギヨウ カブシキガイシヤ"
  },
  "8535": {
    "zip_code": "4488535",
    "prefecture": "愛知県",
    "prefecture_kana": "アイチケン",
    "prefecture_code": 23,
    "city": "刈谷市",
    "city_kana": "カリヤシ",
    "town": "日高町",
    "town_kana": "ヒダカチョウ",
    "street": "３丁目４１１番地",
    "office_name": "ＤＣＭカーマ　株式会社",
    "office_name_kana": "デイ-シ-エムカ-マ カブシキガイシヤ"
  },
  "8542": {
    "zip_code": "4488542",
    "prefecture": "愛知県",
    "prefecture_kana": "アイチケン",
    "prefecture_code": 23,
    "city": "刈谷市",
    "city_kana": "カリヤシ",
    "town": "井ケ谷町",
    "town_kana": "イガヤチョウ",
    "street": "広沢１",
    "office_name": "国立大学法人　愛知教育大学",
    "office_name_kana": "コクリツダイガクホウジン アイチキヨウイクダイガク"
  },
  "8543": {
    "zip_code": "4488543",
    "prefecture": "愛知県",
    "prefecture_kana": "アイチケン",
    "prefecture_code": 23,
    "city": "刈谷市",
    "city_kana": "カリヤシ",
    "town": "井ケ谷町",
    "town_kana": "イガヤチョウ",
    "street": "広沢１",
    "office_name": "愛知教育大学　生活協同組合",
    "office_name_kana": "アイチキヨウイクダイガク セイカツキヨウドウクミアイ"
  },
  "8550": {
    "zip_code": "4488550",
    "prefecture": "愛知県",
    "prefecture_kana": "アイチケン",
    "prefecture_code": 23,
    "city": "刈谷市",
    "city_kana": "カリヤシ",
    "town": "一ツ木町",
    "town_kana": "ヒトツギチョウ",
    "street": "沖田６０",
    "office_name": "株式会社　豊電子工業　第３工場",
    "office_name_kana": "カブシキガイシヤ ユタカデンシコウギヨウ ダイサンコウジヨウ"
  },
  "8601": {
    "zip_code": "4488601",
    "prefecture": "愛知県",
    "prefecture_kana": "アイチケン",
    "prefecture_code": 23,
    "city": "刈谷市",
    "city_kana": "カリヤシ",
    "town": "一ツ木町",
    "town_kana": "ヒトツギチョウ",
    "street": "東新割５７−７",
    "office_name": "アイリスオーヤマ　株式会社　名古屋営業所",
    "office_name_kana": "アイリスオ-ヤマ カブシキガイシヤ ナゴヤエイギヨウシヨ"
  },
  "8602": {
    "zip_code": "4488602",
    "prefecture": "愛知県",
    "prefecture_kana": "アイチケン",
    "prefecture_code": 23,
    "city": "刈谷市",
    "city_kana": "カリヤシ",
    "town": "稲場町",
    "town_kana": "イナバチョウ",
    "street": "３丁目３０３",
    "office_name": "株式会社　ブックセンター名豊",
    "office_name_kana": "カブシキガイシヤ ブツクセンタ-メイホウ"
  },
  "8605": {
    "zip_code": "4488605",
    "prefecture": "愛知県",
    "prefecture_kana": "アイチケン",
    "prefecture_code": 23,
    "city": "刈谷市",
    "city_kana": "カリヤシ",
    "town": "相生町",
    "town_kana": "アイオイチョウ",
    "street": "１丁目１番地１ＪＲＦ刈谷駅前ビル７階・８階",
    "office_name": "アイシン・エンジニアリング　株式会社",
    "office_name_kana": "アイシン・エンジニアリング カブシキガイシヤ"
  },
  "8609": {
    "zip_code": "4488609",
    "prefecture": "愛知県",
    "prefecture_kana": "アイチケン",
    "prefecture_code": 23,
    "city": "刈谷市",
    "city_kana": "カリヤシ",
    "town": "若松町",
    "town_kana": "ワカマツチョウ",
    "street": "１丁目４６−３",
    "office_name": "刈谷公共職業安定所",
    "office_name_kana": "カリヤコウキヨウシヨクギヨウアンテイシヨ"
  },
  "8610": {
    "zip_code": "4488610",
    "prefecture": "愛知県",
    "prefecture_kana": "アイチケン",
    "prefecture_code": 23,
    "city": "刈谷市",
    "city_kana": "カリヤシ",
    "town": "幸町",
    "town_kana": "サイワイチョウ",
    "street": "３丁目３−１",
    "office_name": "大興運輸　株式会社　刈谷支店",
    "office_name_kana": "タイコウウンユ カブシキガイシヤ カリヤシテン"
  },
  "8622": {
    "zip_code": "4488622",
    "prefecture": "愛知県",
    "prefecture_kana": "アイチケン",
    "prefecture_code": 23,
    "city": "刈谷市",
    "city_kana": "カリヤシ",
    "town": "一里山町",
    "town_kana": "イチリヤマチョウ",
    "street": "伐払１２３",
    "office_name": "株式会社　近藤組",
    "office_name_kana": "カブシキガイシヤ コンドウグミ"
  },
  "8650": {
    "zip_code": "4488650",
    "prefecture": "愛知県",
    "prefecture_kana": "アイチケン",
    "prefecture_code": 23,
    "city": "刈谷市",
    "city_kana": "カリヤシ",
    "town": "朝日町",
    "town_kana": "アサヒマチ",
    "street": "２丁目１（刈谷郵便局私書箱第１３号）",
    "office_name": "アイシン精機　株式会社",
    "office_name_kana": "アイシンセイキ カブシキガイシヤ"
  },
  "8651": {
    "zip_code": "4488651",
    "prefecture": "愛知県",
    "prefecture_kana": "アイチケン",
    "prefecture_code": 23,
    "city": "刈谷市",
    "city_kana": "カリヤシ",
    "town": "豊田町",
    "town_kana": "トヨダチョウ",
    "street": "１丁目１（刈谷郵便局私書箱第８号）",
    "office_name": "トヨタ紡織　株式会社",
    "office_name_kana": "トヨタボウシヨク カブシキカイシヤ"
  },
  "8652": {
    "zip_code": "4488652",
    "prefecture": "愛知県",
    "prefecture_kana": "アイチケン",
    "prefecture_code": 23,
    "city": "刈谷市",
    "city_kana": "カリヤシ",
    "town": "朝日町",
    "town_kana": "アサヒマチ",
    "street": "１丁目１番地",
    "office_name": "株式会社　ジェイテクト",
    "office_name_kana": "カブシキカイシヤ ジエイテクト"
  },
  "8653": {
    "zip_code": "4488653",
    "prefecture": "愛知県",
    "prefecture_kana": "アイチケン",
    "prefecture_code": 23,
    "city": "刈谷市",
    "city_kana": "カリヤシ",
    "town": "半城土町",
    "town_kana": "ハジョウドチョウ",
    "street": "三ツ又２０（刈谷郵便局私書箱第３５号）",
    "office_name": "愛知県立　刈谷東高等学校",
    "office_name_kana": "アイチケンリツ カリヤヒガシコウトウガツコウ"
  },
  "8655": {
    "zip_code": "4488655",
    "prefecture": "愛知県",
    "prefecture_kana": "アイチケン",
    "prefecture_code": 23,
    "city": "刈谷市",
    "city_kana": "カリヤシ",
    "town": "南桜町",
    "town_kana": "ミナミサクラマチ",
    "street": "１丁目７３（刈谷郵便局私書箱第１号）",
    "office_name": "太田商事　株式会社",
    "office_name_kana": "オオタシヨウジ カブシキガイシヤ"
  },
  "8656": {
    "zip_code": "4488656",
    "prefecture": "愛知県",
    "prefecture_kana": "アイチケン",
    "prefecture_code": 23,
    "city": "刈谷市",
    "city_kana": "カリヤシ",
    "town": "小垣江町",
    "town_kana": "オガキエチョウ",
    "street": "北高根１１５（刈谷郵便局私書箱第２３号）",
    "office_name": "小林クリエイト　株式会社",
    "office_name_kana": "コバヤシクリエイト カブシキガイシヤ"
  },
  "8657": {
    "zip_code": "4488657",
    "prefecture": "愛知県",
    "prefecture_kana": "アイチケン",
    "prefecture_code": 23,
    "city": "刈谷市",
    "city_kana": "カリヤシ",
    "town": "幸町",
    "town_kana": "サイワイチョウ",
    "street": "１丁目１−１（刈谷郵便局私書箱第５１号）",
    "office_name": "津田工業　株式会社",
    "office_name_kana": "ツダコウギヨウ カブシキガイシヤ"
  },
  "8660": {
    "zip_code": "4488660",
    "prefecture": "愛知県",
    "prefecture_kana": "アイチケン",
    "prefecture_code": 23,
    "city": "刈谷市",
    "city_kana": "カリヤシ",
    "town": "大手町",
    "town_kana": "オオテマチ",
    "street": "４丁目６",
    "office_name": "中部電力　株式会社　刈谷営業所",
    "office_name_kana": "チユウブデンリヨク カブシキガイシヤ カリヤエイギヨウシヨ"
  },
  "8661": {
    "zip_code": "4488661",
    "prefecture": "愛知県",
    "prefecture_kana": "アイチケン",
    "prefecture_code": 23,
    "city": "刈谷市",
    "city_kana": "カリヤシ",
    "town": "昭和町",
    "town_kana": "ショウワチョウ",
    "street": "１丁目１（刈谷郵便局私書箱第１１号）",
    "office_name": "株式会社　デンソー本社",
    "office_name_kana": "カブシキガイシヤ デンソ-ホンシヤ"
  },
  "8665": {
    "zip_code": "4488665",
    "prefecture": "愛知県",
    "prefecture_kana": "アイチケン",
    "prefecture_code": 23,
    "city": "刈谷市",
    "city_kana": "カリヤシ",
    "town": "小垣江町",
    "town_kana": "オガキエチョウ",
    "street": "南藤１番地",
    "office_name": "クアーズテック　（株）　刈谷事業所",
    "office_name_kana": "クア-ズテツク カブシキガイシヤ カリヤジギヨウシヨ"
  },
  "8666": {
    "zip_code": "4488666",
    "prefecture": "愛知県",
    "prefecture_kana": "アイチケン",
    "prefecture_code": 23,
    "city": "刈谷市",
    "city_kana": "カリヤシ",
    "town": "一里山町",
    "town_kana": "イチリヤマチョウ",
    "street": "金山１００（刈谷郵便局私書箱第１４号）",
    "office_name": "トヨタ車体　株式会社",
    "office_name_kana": "トヨタシヤタイ カブシキガイシヤ"
  },
  "8670": {
    "zip_code": "4488670",
    "prefecture": "愛知県",
    "prefecture_kana": "アイチケン",
    "prefecture_code": 23,
    "city": "刈谷市",
    "city_kana": "カリヤシ",
    "town": "新栄町",
    "town_kana": "シンサカエマチ",
    "street": "２丁目３８（刈谷郵便局私書箱第３０号）",
    "office_name": "大興運輸　株式会社　本社",
    "office_name_kana": "タイコウウンユ カブシキガイシヤ ホンシヤ"
  },
  "8671": {
    "zip_code": "4488671",
    "prefecture": "愛知県",
    "prefecture_kana": "アイチケン",
    "prefecture_code": 23,
    "city": "刈谷市",
    "city_kana": "カリヤシ",
    "town": "豊田町",
    "town_kana": "トヨダチョウ",
    "street": "２丁目１番地（刈谷郵便局私書箱第６号）",
    "office_name": "株式会社　豊田自動織機",
    "office_name_kana": "カブシキガイシヤ トヨタジドウシヨツキ"
  },
  "8677": {
    "zip_code": "4488677",
    "prefecture": "愛知県",
    "prefecture_kana": "アイチケン",
    "prefecture_code": 23,
    "city": "刈谷市",
    "city_kana": "カリヤシ",
    "town": "小垣江町",
    "town_kana": "オガキエチョウ",
    "street": "西高根２０４番地１",
    "office_name": "衣浦東部広域連合",
    "office_name_kana": "キヌウラトウブコウイキレンゴウ"
  },
  "8686": {
    "zip_code": "4488686",
    "prefecture": "愛知県",
    "prefecture_kana": "アイチケン",
    "prefecture_code": 23,
    "city": "刈谷市",
    "city_kana": "カリヤシ",
    "town": "城町",
    "town_kana": "シロマチ",
    "street": "１丁目２５−４",
    "office_name": "株式会社　豊田自動織機　情報技術研究所",
    "office_name_kana": "カブシキガイシヤ トヨタジドウシヨツキ ジヨウホウギジユツケンキユウジヨ"
  },
  "8688": {
    "zip_code": "4488688",
    "prefecture": "愛知県",
    "prefecture_kana": "アイチケン",
    "prefecture_code": 23,
    "city": "刈谷市",
    "city_kana": "カリヤシ",
    "town": "昭和町",
    "town_kana": "ショウワチョウ",
    "street": "２丁目１番地",
    "office_name": "株式会社　アドヴィックス",
    "office_name_kana": "カブシキガイシヤ アドヴイツクス"
  },
  "8731": {
    "zip_code": "4488731",
    "prefecture": "愛知県",
    "prefecture_kana": "アイチケン",
    "prefecture_code": 23,
    "city": "刈谷市",
    "city_kana": "カリヤシ",
    "town": "中山町",
    "town_kana": "ナカヤマチョウ",
    "street": "３丁目３８番地",
    "office_name": "株式会社　東陽",
    "office_name_kana": "カブシキカイシヤ トウヨウ"
  }
}