{
  "0001": {
    "zip_code": "4500001",
    "prefecture": "愛知県",
    "prefecture_kana": "アイチケン",
    "prefecture_code": "23",
    "city": "名古屋市中村区",
    "city_kana": "ナゴヤシナカムラク",
    "town": "那古野",
    "town_kana": "ナゴノ",
    "street": null,
    "office_name": null,
    "office_name_kana": null
  },
  "0002": {
    "zip_code": "4500002",
    "prefecture": "愛知県",
    "prefecture_kana": "アイチケン",
    "prefecture_code": "23",
    "city": "名古屋市中村区",
    "city_kana": "ナゴヤシナカムラク",
    "town": "名駅",
    "town_kana": "メイエキ",
    "street": null,
    "office_name": null,
    "office_name_kana": null
  },
  "0003": {
    "zip_code": "4500003",
    "prefecture": "愛知県",
    "prefecture_kana": "アイチケン",
    "prefecture_code": "23",
    "city": "名古屋市中村区",
    "city_kana": "ナゴヤシナカムラク",
    "town": "名駅南",
    "town_kana": "メイエキミナミ",
    "street": null,
    "office_name": null,
    "office_name_kana": null
  },
  "0004": {
    "zip_code": "4500004",
    "prefecture": "愛知県",
    "prefecture_kana": "アイチケン",
    "prefecture_code": "23",
    "city": "名古屋市中村区",
    "city_kana": "ナゴヤシナカムラク",
    "town": "松重町",
    "town_kana": "マツシゲチョウ",
    "street": null,
    "office_name": null,
    "office_name_kana": null
  },
  "0005": {
    "zip_code": "4500005",
    "prefecture": "愛知県",
    "prefecture_kana": "アイチケン",
    "prefecture_code": "23",
    "city": "名古屋市中村区",
    "city_kana": "ナゴヤシナカムラク",
    "town": "西日置",
    "town_kana": "ニシヒオキ",
    "street": null,
    "office_name": null,
    "office_name_kana": null
  },
  "0006": {
    "zip_code": "4500006",
    "prefecture": "愛知県",
    "prefecture_kana": "アイチケン",
    "prefecture_code": "23",
    "city": "名古屋市中村区",
    "city_kana": "ナゴヤシナカムラク",
    "town": "下広井町",
    "town_kana": "シモヒロイチョウ",
    "street": null,
    "office_name": null,
    "office_name_kana": null
  },
  "0007": {
    "zip_code": "4500007",
    "prefecture": "愛知県",
    "prefecture_kana": "アイチケン",
    "prefecture_code": "23",
    "city": "名古屋市中村区",
    "city_kana": "ナゴヤシナカムラク",
    "town": "笹島町",
    "town_kana": "ササシマチョウ",
    "street": null,
    "office_name": null,
    "office_name_kana": null
  },
  "6001": {
    "zip_code": "4506001",
    "prefecture": "愛知県",
    "prefecture_kana": "アイチケン",
    "prefecture_code": "23",
    "city": "名古屋市中村区",
    "city_kana": "ナゴヤシナカムラク",
    "town": "名駅ＪＲセントラルタワーズ　１階",
    "town_kana": "メイエキジェイアールセントラルタワーズ1カイ",
    "street": null,
    "office_name": null,
    "office_name_kana": null
  },
  "6002": {
    "zip_code": "4506002",
    "prefecture": "愛知県",
    "prefecture_kana": "アイチケン",
    "prefecture_code": "23",
    "city": "名古屋市中村区",
    "city_kana": "ナゴヤシナカムラク",
    "town": "名駅ＪＲセントラルタワーズ　２階",
    "town_kana": "メイエキジェイアールセントラルタワーズ2カイ",
    "street": null,
    "office_name": null,
    "office_name_kana": null
  },
  "6003": {
    "zip_code": "4506003",
    "prefecture": "愛知県",
    "prefecture_kana": "アイチケン",
    "prefecture_code": "23",
    "city": "名古屋市中村区",
    "city_kana": "ナゴヤシナカムラク",
    "town": "名駅ＪＲセントラルタワーズ　３階",
    "town_kana": "メイエキジェイアールセントラルタワーズ3カイ",
    "street": null,
    "office_name": null,
    "office_name_kana": null
  },
  "6004": {
    "zip_code": "4506004",
    "prefecture": "愛知県",
    "prefecture_kana": "アイチケン",
    "prefecture_code": "23",
    "city": "名古屋市中村区",
    "city_kana": "ナゴヤシナカムラク",
    "town": "名駅ＪＲセントラルタワーズ　４階",
    "town_kana": "メイエキジェイアールセントラルタワーズ4カイ",
    "street": null,
    "office_name": null,
    "office_name_kana": null
  },
  "6005": {
    "zip_code": "4506005",
    "prefecture": "愛知県",
    "prefecture_kana": "アイチケン",
    "prefecture_code": "23",
    "city": "名古屋市中村区",
    "city_kana": "ナゴヤシナカムラク",
    "town": "名駅ＪＲセントラルタワーズ　５階",
    "town_kana": "メイエキジェイアールセントラルタワーズ5カイ",
    "street": null,
    "office_name": null,
    "office_name_kana": null
  },
  "6006": {
    "zip_code": "4506006",
    "prefecture": "愛知県",
    "prefecture_kana": "アイチケン",
    "prefecture_code": "23",
    "city": "名古屋市中村区",
    "city_kana": "ナゴヤシナカムラク",
    "town": "名駅ＪＲセントラルタワーズ　６階",
    "town_kana": "メイエキジェイアールセントラルタワーズ6カイ",
    "street": null,
    "office_name": null,
    "office_name_kana": null
  },
  "6007": {
    "zip_code": "4506007",
    "prefecture": "愛知県",
    "prefecture_kana": "アイチケン",
    "prefecture_code": "23",
    "city": "名古屋市中村区",
    "city_kana": "ナゴヤシナカムラク",
    "town": "名駅ＪＲセントラルタワーズ　７階",
    "town_kana": "メイエキジェイアールセントラルタワーズ7カイ",
    "street": null,
    "office_name": null,
    "office_name_kana": null
  },
  "6008": {
    "zip_code": "4506008",
    "prefecture": "愛知県",
    "prefecture_kana": "アイチケン",
    "prefecture_code": "23",
    "city": "名古屋市中村区",
    "city_kana": "ナゴヤシナカムラク",
    "town": "名駅ＪＲセントラルタワーズ　８階",
    "town_kana": "メイエキジェイアールセントラルタワーズ8カイ",
    "street": null,
    "office_name": null,
    "office_name_kana": null
  },
  "6009": {
    "zip_code": "4506009",
    "prefecture": "愛知県",
    "prefecture_kana": "アイチケン",
    "prefecture_code": "23",
    "city": "名古屋市中村区",
    "city_kana": "ナゴヤシナカムラク",
    "town": "名駅ＪＲセントラルタワーズ　９階",
    "town_kana": "メイエキジェイアールセントラルタワーズ9カイ",
    "street": null,
    "office_name": null,
    "office_name_kana": null
  },
  "6010": {
    "zip_code": "4506010",
    "prefecture": "愛知県",
    "prefecture_kana": "アイチケン",
    "prefecture_code": "23",
    "city": "名古屋市中村区",
    "city_kana": "ナゴヤシナカムラク",
    "town": "名駅ＪＲセントラルタワーズ　１０階",
    "town_kana": "メイエキジェイアールセントラルタワーズ10カイ",
    "street": null,
    "office_name": null,
    "office_name_kana": null
  },
  "6011": {
    "zip_code": "4506011",
    "prefecture": "愛知県",
    "prefecture_kana": "アイチケン",
    "prefecture_code": "23",
    "city": "名古屋市中村区",
    "city_kana": "ナゴヤシナカムラク",
    "town": "名駅ＪＲセントラルタワーズ　１１階",
    "town_kana": "メイエキジェイアールセントラルタワーズ11カイ",
    "street": null,
    "office_name": null,
    "office_name_kana": null
  },
  "6012": {
    "zip_code": "4506012",
    "prefecture": "愛知県",
    "prefecture_kana": "アイチケン",
    "prefecture_code": "23",
    "city": "名古屋市中村区",
    "city_kana": "ナゴヤシナカムラク",
    "town": "名駅ＪＲセントラルタワーズ　１２階",
    "town_kana": "メイエキジェイアールセントラルタワーズ12カイ",
    "street": null,
    "office_name": null,
    "office_name_kana": null
  },
  "6013": {
    "zip_code": "4506013",
    "prefecture": "愛知県",
    "prefecture_kana": "アイチケン",
    "prefecture_code": "23",
    "city": "名古屋市中村区",
    "city_kana": "ナゴヤシナカムラク",
    "town": "名駅ＪＲセントラルタワーズ　１３階",
    "town_kana": "メイエキジェイアールセントラルタワーズ13カイ",
    "street": null,
    "office_name": null,
    "office_name_kana": null
  },
  "6014": {
    "zip_code": "4506014",
    "prefecture": "愛知県",
    "prefecture_kana": "アイチケン",
    "prefecture_code": "23",
    "city": "名古屋市中村区",
    "city_kana": "ナゴヤシナカムラク",
    "town": "名駅ＪＲセントラルタワーズ　１４階",
    "town_kana": "メイエキジェイアールセントラルタワーズ14カイ",
    "street": null,
    "office_name": null,
    "office_name_kana": null
  },
  "6015": {
    "zip_code": "4506015",
    "prefecture": "愛知県",
    "prefecture_kana": "アイチケン",
    "prefecture_code": "23",
    "city": "名古屋市中村区",
    "city_kana": "ナゴヤシナカムラク",
    "town": "名駅ＪＲセントラルタワーズ　１５階",
    "town_kana": "メイエキジェイアールセントラルタワーズ15カイ",
    "street": null,
    "office_name": null,
    "office_name_kana": null
  },
  "6016": {
    "zip_code": "4506016",
    "prefecture": "愛知県",
    "prefecture_kana": "アイチケン",
    "prefecture_code": "23",
    "city": "名古屋市中村区",
    "city_kana": "ナゴヤシナカムラク",
    "town": "名駅ＪＲセントラルタワーズ　１６階",
    "town_kana": "メイエキジェイアールセントラルタワーズ16カイ",
    "street": null,
    "office_name": null,
    "office_name_kana": null
  },
  "6017": {
    "zip_code": "4506017",
    "prefecture": "愛知県",
    "prefecture_kana": "アイチケン",
    "prefecture_code": "23",
    "city": "名古屋市中村区",
    "city_kana": "ナゴヤシナカムラク",
    "town": "名駅ＪＲセントラルタワーズ　１７階",
    "town_kana": "メイエキジェイアールセントラルタワーズ17カイ",
    "street": null,
    "office_name": null,
    "office_name_kana": null
  },
  "6018": {
    "zip_code": "4506018",
    "prefecture": "愛知県",
    "prefecture_kana": "アイチケン",
    "prefecture_code": "23",
    "city": "名古屋市中村区",
    "city_kana": "ナゴヤシナカムラク",
    "town": "名駅ＪＲセントラルタワーズ　１８階",
    "town_kana": "メイエキジェイアールセントラルタワーズ18カイ",
    "street": null,
    "office_name": null,
    "office_name_kana": null
  },
  "6019": {
    "zip_code": "4506019",
    "prefecture": "愛知県",
    "prefecture_kana": "アイチケン",
    "prefecture_code": "23",
    "city": "名古屋市中村区",
    "city_kana": "ナゴヤシナカムラク",
    "town": "名駅ＪＲセントラルタワーズ　１９階",
    "town_kana": "メイエキジェイアールセントラルタワーズ19カイ",
    "street": null,
    "office_name": null,
    "office_name_kana": null
  },
  "6020": {
    "zip_code": "4506020",
    "prefecture": "愛知県",
    "prefecture_kana": "アイチケン",
    "prefecture_code": "23",
    "city": "名古屋市中村区",
    "city_kana": "ナゴヤシナカムラク",
    "town": "名駅ＪＲセントラルタワーズ　２０階",
    "town_kana": "メイエキジェイアールセントラルタワーズ20カイ",
    "street": null,
    "office_name": null,
    "office_name_kana": null
  },
  "6021": {
    "zip_code": "4506021",
    "prefecture": "愛知県",
    "prefecture_kana": "アイチケン",
    "prefecture_code": "23",
    "city": "名古屋市中村区",
    "city_kana": "ナゴヤシナカムラク",
    "town": "名駅ＪＲセントラルタワーズ　２１階",
    "town_kana": "メイエキジェイアールセントラルタワーズ21カイ",
    "street": null,
    "office_name": null,
    "office_name_kana": null
  },
  "6022": {
    "zip_code": "4506022",
    "prefecture": "愛知県",
    "prefecture_kana": "アイチケン",
    "prefecture_code": "23",
    "city": "名古屋市中村区",
    "city_kana": "ナゴヤシナカムラク",
    "town": "名駅ＪＲセントラルタワーズ　２２階",
    "town_kana": "メイエキジェイアールセントラルタワーズ22カイ",
    "street": null,
    "office_name": null,
    "office_name_kana": null
  },
  "6023": {
    "zip_code": "4506023",
    "prefecture": "愛知県",
    "prefecture_kana": "アイチケン",
    "prefecture_code": "23",
    "city": "名古屋市中村区",
    "city_kana": "ナゴヤシナカムラク",
    "town": "名駅ＪＲセントラルタワーズ　２３階",
    "town_kana": "メイエキジェイアールセントラルタワーズ23カイ",
    "street": null,
    "office_name": null,
    "office_name_kana": null
  },
  "6024": {
    "zip_code": "4506024",
    "prefecture": "愛知県",
    "prefecture_kana": "アイチケン",
    "prefecture_code": "23",
    "city": "名古屋市中村区",
    "city_kana": "ナゴヤシナカムラク",
    "town": "名駅ＪＲセントラルタワーズ　２４階",
    "town_kana": "メイエキジェイアールセントラルタワーズ24カイ",
    "street": null,
    "office_name": null,
    "office_name_kana": null
  },
  "6025": {
    "zip_code": "4506025",
    "prefecture": "愛知県",
    "prefecture_kana": "アイチケン",
    "prefecture_code": "23",
    "city": "名古屋市中村区",
    "city_kana": "ナゴヤシナカムラク",
    "town": "名駅ＪＲセントラルタワーズ　２５階",
    "town_kana": "メイエキジェイアールセントラルタワーズ25カイ",
    "street": null,
    "office_name": null,
    "office_name_kana": null
  },
  "6026": {
    "zip_code": "4506026",
    "prefecture": "愛知県",
    "prefecture_kana": "アイチケン",
    "prefecture_code": "23",
    "city": "名古屋市中村区",
    "city_kana": "ナゴヤシナカムラク",
    "town": "名駅ＪＲセントラルタワーズ　２６階",
    "town_kana": "メイエキジェイアールセントラルタワーズ26カイ",
    "street": null,
    "office_name": null,
    "office_name_kana": null
  },
  "6027": {
    "zip_code": "4506027",
    "prefecture": "愛知県",
    "prefecture_kana": "アイチケン",
    "prefecture_code": "23",
    "city": "名古屋市中村区",
    "city_kana": "ナゴヤシナカムラク",
    "town": "名駅ＪＲセントラルタワーズ　２７階",
    "town_kana": "メイエキジェイアールセントラルタワーズ27カイ",
    "street": null,
    "office_name": null,
    "office_name_kana": null
  },
  "6028": {
    "zip_code": "4506028",
    "prefecture": "愛知県",
    "prefecture_kana": "アイチケン",
    "prefecture_code": "23",
    "city": "名古屋市中村区",
    "city_kana": "ナゴヤシナカムラク",
    "town": "名駅ＪＲセントラルタワーズ　２８階",
    "town_kana": "メイエキジェイアールセントラルタワーズ28カイ",
    "street": null,
    "office_name": null,
    "office_name_kana": null
  },
  "6029": {
    "zip_code": "4506029",
    "prefecture": "愛知県",
    "prefecture_kana": "アイチケン",
    "prefecture_code": "23",
    "city": "名古屋市中村区",
    "city_kana": "ナゴヤシナカムラク",
    "town": "名駅ＪＲセントラルタワーズ　２９階",
    "town_kana": "メイエキジェイアールセントラルタワーズ29カイ",
    "street": null,
    "office_name": null,
    "office_name_kana": null
  },
  "6030": {
    "zip_code": "4506030",
    "prefecture": "愛知県",
    "prefecture_kana": "アイチケン",
    "prefecture_code": "23",
    "city": "名古屋市中村区",
    "city_kana": "ナゴヤシナカムラク",
    "town": "名駅ＪＲセントラルタワーズ　３０階",
    "town_kana": "メイエキジェイアールセントラルタワーズ30カイ",
    "street": null,
    "office_name": null,
    "office_name_kana": null
  },
  "6031": {
    "zip_code": "4506031",
    "prefecture": "愛知県",
    "prefecture_kana": "アイチケン",
    "prefecture_code": "23",
    "city": "名古屋市中村区",
    "city_kana": "ナゴヤシナカムラク",
    "town": "名駅ＪＲセントラルタワーズ　３１階",
    "town_kana": "メイエキジェイアールセントラルタワーズ31カイ",
    "street": null,
    "office_name": null,
    "office_name_kana": null
  },
  "6032": {
    "zip_code": "4506032",
    "prefecture": "愛知県",
    "prefecture_kana": "アイチケン",
    "prefecture_code": "23",
    "city": "名古屋市中村区",
    "city_kana": "ナゴヤシナカムラク",
    "town": "名駅ＪＲセントラルタワーズ　３２階",
    "town_kana": "メイエキジェイアールセントラルタワーズ32カイ",
    "street": null,
    "office_name": null,
    "office_name_kana": null
  },
  "6033": {
    "zip_code": "4506033",
    "prefecture": "愛知県",
    "prefecture_kana": "アイチケン",
    "prefecture_code": "23",
    "city": "名古屋市中村区",
    "city_kana": "ナゴヤシナカムラク",
    "town": "名駅ＪＲセントラルタワーズ　３３階",
    "town_kana": "メイエキジェイアールセントラルタワーズ33カイ",
    "street": null,
    "office_name": null,
    "office_name_kana": null
  },
  "6034": {
    "zip_code": "4506034",
    "prefecture": "愛知県",
    "prefecture_kana": "アイチケン",
    "prefecture_code": "23",
    "city": "名古屋市中村区",
    "city_kana": "ナゴヤシナカムラク",
    "town": "名駅ＪＲセントラルタワーズ　３４階",
    "town_kana": "メイエキジェイアールセントラルタワーズ34カイ",
    "street": null,
    "office_name": null,
    "office_name_kana": null
  },
  "6035": {
    "zip_code": "4506035",
    "prefecture": "愛知県",
    "prefecture_kana": "アイチケン",
    "prefecture_code": "23",
    "city": "名古屋市中村区",
    "city_kana": "ナゴヤシナカムラク",
    "town": "名駅ＪＲセントラルタワーズ　３５階",
    "town_kana": "メイエキジェイアールセントラルタワーズ35カイ",
    "street": null,
    "office_name": null,
    "office_name_kana": null
  },
  "6036": {
    "zip_code": "4506036",
    "prefecture": "愛知県",
    "prefecture_kana": "アイチケン",
    "prefecture_code": "23",
    "city": "名古屋市中村区",
    "city_kana": "ナゴヤシナカムラク",
    "town": "名駅ＪＲセントラルタワーズ　３６階",
    "town_kana": "メイエキジェイアールセントラルタワーズ36カイ",
    "street": null,
    "office_name": null,
    "office_name_kana": null
  },
  "6037": {
    "zip_code": "4506037",
    "prefecture": "愛知県",
    "prefecture_kana": "アイチケン",
    "prefecture_code": "23",
    "city": "名古屋市中村区",
    "city_kana": "ナゴヤシナカムラク",
    "town": "名駅ＪＲセントラルタワーズ　３７階",
    "town_kana": "メイエキジェイアールセントラルタワーズ37カイ",
    "street": null,
    "office_name": null,
    "office_name_kana": null
  },
  "6038": {
    "zip_code": "4506038",
    "prefecture": "愛知県",
    "prefecture_kana": "アイチケン",
    "prefecture_code": "23",
    "city": "名古屋市中村区",
    "city_kana": "ナゴヤシナカムラク",
    "town": "名駅ＪＲセントラルタワーズ　３８階",
    "town_kana": "メイエキジェイアールセントラルタワーズ38カイ",
    "street": null,
    "office_name": null,
    "office_name_kana": null
  },
  "6039": {
    "zip_code": "4506039",
    "prefecture": "愛知県",
    "prefecture_kana": "アイチケン",
    "prefecture_code": "23",
    "city": "名古屋市中村区",
    "city_kana": "ナゴヤシナカムラク",
    "town": "名駅ＪＲセントラルタワーズ　３９階",
    "town_kana": "メイエキジェイアールセントラルタワーズ39カイ",
    "street": null,
    "office_name": null,
    "office_name_kana": null
  },
  "6040": {
    "zip_code": "4506040",
    "prefecture": "愛知県",
    "prefecture_kana": "アイチケン",
    "prefecture_code": "23",
    "city": "名古屋市中村区",
    "city_kana": "ナゴヤシナカムラク",
    "town": "名駅ＪＲセントラルタワーズ　４０階",
    "town_kana": "メイエキジェイアールセントラルタワーズ40カイ",
    "street": null,
    "office_name": null,
    "office_name_kana": null
  },
  "6041": {
    "zip_code": "4506041",
    "prefecture": "愛知県",
    "prefecture_kana": "アイチケン",
    "prefecture_code": "23",
    "city": "名古屋市中村区",
    "city_kana": "ナゴヤシナカムラク",
    "town": "名駅ＪＲセントラルタワーズ　４１階",
    "town_kana": "メイエキジェイアールセントラルタワーズ41カイ",
    "street": null,
    "office_name": null,
    "office_name_kana": null
  },
  "6042": {
    "zip_code": "4506042",
    "prefecture": "愛知県",
    "prefecture_kana": "アイチケン",
    "prefecture_code": "23",
    "city": "名古屋市中村区",
    "city_kana": "ナゴヤシナカムラク",
    "town": "名駅ＪＲセントラルタワーズ　４２階",
    "town_kana": "メイエキジェイアールセントラルタワーズ42カイ",
    "street": null,
    "office_name": null,
    "office_name_kana": null
  },
  "6043": {
    "zip_code": "4506043",
    "prefecture": "愛知県",
    "prefecture_kana": "アイチケン",
    "prefecture_code": "23",
    "city": "名古屋市中村区",
    "city_kana": "ナゴヤシナカムラク",
    "town": "名駅ＪＲセントラルタワーズ　４３階",
    "town_kana": "メイエキジェイアールセントラルタワーズ43カイ",
    "street": null,
    "office_name": null,
    "office_name_kana": null
  },
  "6044": {
    "zip_code": "4506044",
    "prefecture": "愛知県",
    "prefecture_kana": "アイチケン",
    "prefecture_code": "23",
    "city": "名古屋市中村区",
    "city_kana": "ナゴヤシナカムラク",
    "town": "名駅ＪＲセントラルタワーズ　４４階",
    "town_kana": "メイエキジェイアールセントラルタワーズ44カイ",
    "street": null,
    "office_name": null,
    "office_name_kana": null
  },
  "6045": {
    "zip_code": "4506045",
    "prefecture": "愛知県",
    "prefecture_kana": "アイチケン",
    "prefecture_code": "23",
    "city": "名古屋市中村区",
    "city_kana": "ナゴヤシナカムラク",
    "town": "名駅ＪＲセントラルタワーズ　４５階",
    "town_kana": "メイエキジェイアールセントラルタワーズ45カイ",
    "street": null,
    "office_name": null,
    "office_name_kana": null
  },
  "6046": {
    "zip_code": "4506046",
    "prefecture": "愛知県",
    "prefecture_kana": "アイチケン",
    "prefecture_code": "23",
    "city": "名古屋市中村区",
    "city_kana": "ナゴヤシナカムラク",
    "town": "名駅ＪＲセントラルタワーズ　４６階",
    "town_kana": "メイエキジェイアールセントラルタワーズ46カイ",
    "street": null,
    "office_name": null,
    "office_name_kana": null
  },
  "6047": {
    "zip_code": "4506047",
    "prefecture": "愛知県",
    "prefecture_kana": "アイチケン",
    "prefecture_code": "23",
    "city": "名古屋市中村区",
    "city_kana": "ナゴヤシナカムラク",
    "town": "名駅ＪＲセントラルタワーズ　４７階",
    "town_kana": "メイエキジェイアールセントラルタワーズ47カイ",
    "street": null,
    "office_name": null,
    "office_name_kana": null
  },
  "6048": {
    "zip_code": "4506048",
    "prefecture": "愛知県",
    "prefecture_kana": "アイチケン",
    "prefecture_code": "23",
    "city": "名古屋市中村区",
    "city_kana": "ナゴヤシナカムラク",
    "town": "名駅ＪＲセントラルタワーズ　４８階",
    "town_kana": "メイエキジェイアールセントラルタワーズ48カイ",
    "street": null,
    "office_name": null,
    "office_name_kana": null
  },
  "6049": {
    "zip_code": "4506049",
    "prefecture": "愛知県",
    "prefecture_kana": "アイチケン",
    "prefecture_code": "23",
    "city": "名古屋市中村区",
    "city_kana": "ナゴヤシナカムラク",
    "town": "名駅ＪＲセントラルタワーズ　４９階",
    "town_kana": "メイエキジェイアールセントラルタワーズ49カイ",
    "street": null,
    "office_name": null,
    "office_name_kana": null
  },
  "6050": {
    "zip_code": "4506050",
    "prefecture": "愛知県",
    "prefecture_kana": "アイチケン",
    "prefecture_code": "23",
    "city": "名古屋市中村区",
    "city_kana": "ナゴヤシナカムラク",
    "town": "名駅ＪＲセントラルタワーズ　５０階",
    "town_kana": "メイエキジェイアールセントラルタワーズ50カイ",
    "street": null,
    "office_name": null,
    "office_name_kana": null
  },
  "6051": {
    "zip_code": "4506051",
    "prefecture": "愛知県",
    "prefecture_kana": "アイチケン",
    "prefecture_code": "23",
    "city": "名古屋市中村区",
    "city_kana": "ナゴヤシナカムラク",
    "town": "名駅ＪＲセントラルタワーズ　５１階",
    "town_kana": "メイエキジェイアールセントラルタワーズ51カイ",
    "street": null,
    "office_name": null,
    "office_name_kana": null
  },
  "6090": {
    "zip_code": "4506090",
    "prefecture": "愛知県",
    "prefecture_kana": "アイチケン",
    "prefecture_code": "23",
    "city": "名古屋市中村区",
    "city_kana": "ナゴヤシナカムラク",
    "town": "名駅ＪＲセントラルタワーズ",
    "town_kana": "メイエキジェイアールセントラルタワーズ",
    "street": null,
    "office_name": null,
    "office_name_kana": null
  },
  "6133": {
    "zip_code": "4506133",
    "prefecture": "愛知県",
    "prefecture_kana": "アイチケン",
    "prefecture_code": "23",
    "city": "名古屋市中村区",
    "city_kana": "ナゴヤシナカムラク",
    "town": "名駅",
    "town_kana": "メイエキ",
    "street": "１−１−４ＪＲセントラルタワーズ３３Ｆ（名古屋中央郵便局私書箱第１１０１号）",
    "office_name": "ジェイアールセントラルビル　株式会社",
    "office_name_kana": "ジエイア-ルセントラルビル カブシキガイシヤ"
  },
  "6201": {
    "zip_code": "4506201",
    "prefecture": "愛知県",
    "prefecture_kana": "アイチケン",
    "prefecture_code": "23",
    "city": "名古屋市中村区",
    "city_kana": "ナゴヤシナカムラク",
    "town": "名駅ミッドランドスクエア高層棟　１階",
    "town_kana": "メイエキミッドランドスクエアコウソウトウ1カイ",
    "street": null,
    "office_name": null,
    "office_name_kana": null
  },
  "6202": {
    "zip_code": "4506202",
    "prefecture": "愛知県",
    "prefecture_kana": "アイチケン",
    "prefecture_code": "23",
    "city": "名古屋市中村区",
    "city_kana": "ナゴヤシナカムラク",
    "town": "名駅ミッドランドスクエア高層棟　２階",
    "town_kana": "メイエキミッドランドスクエアコウソウトウ2カイ",
    "street": null,
    "office_name": null,
    "office_name_kana": null
  },
  "6203": {
    "zip_code": "4506203",
    "prefecture": "愛知県",
    "prefecture_kana": "アイチケン",
    "prefecture_code": "23",
    "city": "名古屋市中村区",
    "city_kana": "ナゴヤシナカムラク",
    "town": "名駅ミッドランドスクエア高層棟　３階",
    "town_kana": "メイエキミッドランドスクエアコウソウトウ3カイ",
    "street": null,
    "office_name": null,
    "office_name_kana": null
  },
  "6204": {
    "zip_code": "4506204",
    "prefecture": "愛知県",
    "prefecture_kana": "アイチケン",
    "prefecture_code": "23",
    "city": "名古屋市中村区",
    "city_kana": "ナゴヤシナカムラク",
    "town": "名駅ミッドランドスクエア高層棟　４階",
    "town_kana": "メイエキミッドランドスクエアコウソウトウ4カイ",
    "street": null,
    "office_name": null,
    "office_name_kana": null
  },
  "6205": {
    "zip_code": "4506205",
    "prefecture": "愛知県",
    "prefecture_kana": "アイチケン",
    "prefecture_code": "23",
    "city": "名古屋市中村区",
    "city_kana": "ナゴヤシナカムラク",
    "town": "名駅ミッドランドスクエア高層棟　５階",
    "town_kana": "メイエキミッドランドスクエアコウソウトウ5カイ",
    "street": null,
    "office_name": null,
    "office_name_kana": null
  },
  "6206": {
    "zip_code": "4506206",
    "prefecture": "愛知県",
    "prefecture_kana": "アイチケン",
    "prefecture_code": "23",
    "city": "名古屋市中村区",
    "city_kana": "ナゴヤシナカムラク",
    "town": "名駅ミッドランドスクエア高層棟　６階",
    "town_kana": "メイエキミッドランドスクエアコウソウトウ6カイ",
    "street": null,
    "office_name": null,
    "office_name_kana": null
  },
  "6207": {
    "zip_code": "4506207",
    "prefecture": "愛知県",
    "prefecture_kana": "アイチケン",
    "prefecture_code": "23",
    "city": "名古屋市中村区",
    "city_kana": "ナゴヤシナカムラク",
    "town": "名駅ミッドランドスクエア高層棟　７階",
    "town_kana": "メイエキミッドランドスクエアコウソウトウ7カイ",
    "street": null,
    "office_name": null,
    "office_name_kana": null
  },
  "6208": {
    "zip_code": "4506208",
    "prefecture": "愛知県",
    "prefecture_kana": "アイチケン",
    "prefecture_code": "23",
    "city": "名古屋市中村区",
    "city_kana": "ナゴヤシナカムラク",
    "town": "名駅ミッドランドスクエア高層棟　８階",
    "town_kana": "メイエキミッドランドスクエアコウソウトウ8カイ",
    "street": null,
    "office_name": null,
    "office_name_kana": null
  },
  "6209": {
    "zip_code": "4506209",
    "prefecture": "愛知県",
    "prefecture_kana": "アイチケン",
    "prefecture_code": "23",
    "city": "名古屋市中村区",
    "city_kana": "ナゴヤシナカムラク",
    "town": "名駅ミッドランドスクエア高層棟　９階",
    "town_kana": "メイエキミッドランドスクエアコウソウトウ9カイ",
    "street": null,
    "office_name": null,
    "office_name_kana": null
  },
  "6210": {
    "zip_code": "4506210",
    "prefecture": "愛知県",
    "prefecture_kana": "アイチケン",
    "prefecture_code": "23",
    "city": "名古屋市中村区",
    "city_kana": "ナゴヤシナカムラク",
    "town": "名駅ミッドランドスクエア高層棟　１０階",
    "town_kana": "メイエキミッドランドスクエアコウソウトウ10カイ",
    "street": null,
    "office_name": null,
    "office_name_kana": null
  },
  "6211": {
    "zip_code": "4506211",
    "prefecture": "愛知県",
    "prefecture_kana": "アイチケン",
    "prefecture_code": "23",
    "city": "名古屋市中村区",
    "city_kana": "ナゴヤシナカムラク",
    "town": "名駅ミッドランドスクエア高層棟　１１階",
    "town_kana": "メイエキミッドランドスクエアコウソウトウ11カイ",
    "street": null,
    "office_name": null,
    "office_name_kana": null
  },
  "6212": {
    "zip_code": "4506212",
    "prefecture": "愛知県",
    "prefecture_kana": "アイチケン",
    "prefecture_code": "23",
    "city": "名古屋市中村区",
    "city_kana": "ナゴヤシナカムラク",
    "town": "名駅ミッドランドスクエア高層棟　１２階",
    "town_kana": "メイエキミッドランドスクエアコウソウトウ12カイ",
    "street": null,
    "office_name": null,
    "office_name_kana": null
  },
  "6213": {
    "zip_code": "4506213",
    "prefecture": "愛知県",
    "prefecture_kana": "アイチケン",
    "prefecture_code": "23",
    "city": "名古屋市中村区",
    "city_kana": "ナゴヤシナカムラク",
    "town": "名駅ミッドランドスクエア高層棟　１３階",
    "town_kana": "メイエキミッドランドスクエアコウソウトウ13カイ",
    "street": null,
    "office_name": null,
    "office_name_kana": null
  },
  "6214": {
    "zip_code": "4506214",
    "prefecture": "愛知県",
    "prefecture_kana": "アイチケン",
    "prefecture_code": "23",
    "city": "名古屋市中村区",
    "city_kana": "ナゴヤシナカムラク",
    "town": "名駅ミッドランドスクエア高層棟　１４階",
    "town_kana": "メイエキミッドランドスクエアコウソウトウ14カイ",
    "street": null,
    "office_name": null,
    "office_name_kana": null
  },
  "6215": {
    "zip_code": "4506215",
    "prefecture": "愛知県",
    "prefecture_kana": "アイチケン",
    "prefecture_code": "23",
    "city": "名古屋市中村区",
    "city_kana": "ナゴヤシナカムラク",
    "town": "名駅ミッドランドスクエア高層棟　１５階",
    "town_kana": "メイエキミッドランドスクエアコウソウトウ15カイ",
    "street": null,
    "office_name": null,
    "office_name_kana": null
  },
  "6216": {
    "zip_code": "4506216",
    "prefecture": "愛知県",
    "prefecture_kana": "アイチケン",
    "prefecture_code": "23",
    "city": "名古屋市中村区",
    "city_kana": "ナゴヤシナカムラク",
    "town": "名駅ミッドランドスクエア高層棟　１６階",
    "town_kana": "メイエキミッドランドスクエアコウソウトウ16カイ",
    "street": null,
    "office_name": null,
    "office_name_kana": null
  },
  "6217": {
    "zip_code": "4506217",
    "prefecture": "愛知県",
    "prefecture_kana": "アイチケン",
    "prefecture_code": "23",
    "city": "名古屋市中村区",
    "city_kana": "ナゴヤシナカムラク",
    "town": "名駅ミッドランドスクエア高層棟　１７階",
    "town_kana": "メイエキミッドランドスクエアコウソウトウ17カイ",
    "street": null,
    "office_name": null,
    "office_name_kana": null
  },
  "6218": {
    "zip_code": "4506218",
    "prefecture": "愛知県",
    "prefecture_kana": "アイチケン",
    "prefecture_code": "23",
    "city": "名古屋市中村区",
    "city_kana": "ナゴヤシナカムラク",
    "town": "名駅ミッドランドスクエア高層棟　１８階",
    "town_kana": "メイエキミッドランドスクエアコウソウトウ18カイ",
    "street": null,
    "office_name": null,
    "office_name_kana": null
  },
  "6219": {
    "zip_code": "4506219",
    "prefecture": "愛知県",
    "prefecture_kana": "アイチケン",
    "prefecture_code": "23",
    "city": "名古屋市中村区",
    "city_kana": "ナゴヤシナカムラク",
    "town": "名駅ミッドランドスクエア高層棟　１９階",
    "town_kana": "メイエキミッドランドスクエアコウソウトウ19カイ",
    "street": null,
    "office_name": null,
    "office_name_kana": null
  },
  "6220": {
    "zip_code": "4506220",
    "prefecture": "愛知県",
    "prefecture_kana": "アイチケン",
    "prefecture_code": "23",
    "city": "名古屋市中村区",
    "city_kana": "ナゴヤシナカムラク",
    "town": "名駅ミッドランドスクエア高層棟　２０階",
    "town_kana": "メイエキミッドランドスクエアコウソウトウ20カイ",
    "street": null,
    "office_name": null,
    "office_name_kana": null
  },
  "6221": {
    "zip_code": "4506221",
    "prefecture": "愛知県",
    "prefecture_kana": "アイチケン",
    "prefecture_code": "23",
    "city": "名古屋市中村区",
    "city_kana": "ナゴヤシナカムラク",
    "town": "名駅ミッドランドスクエア高層棟　２１階",
    "town_kana": "メイエキミッドランドスクエアコウソウトウ21カイ",
    "street": null,
    "office_name": null,
    "office_name_kana": null
  },
  "6222": {
    "zip_code": "4506222",
    "prefecture": "愛知県",
    "prefecture_kana": "アイチケン",
    "prefecture_code": "23",
    "city": "名古屋市中村区",
    "city_kana": "ナゴヤシナカムラク",
    "town": "名駅ミッドランドスクエア高層棟　２２階",
    "town_kana": "メイエキミッドランドスクエアコウソウトウ22カイ",
    "street": null,
    "office_name": null,
    "office_name_kana": null
  },
  "6223": {
    "zip_code": "4506223",
    "prefecture": "愛知県",
    "prefecture_kana": "アイチケン",
    "prefecture_code": "23",
    "city": "名古屋市中村区",
    "city_kana": "ナゴヤシナカムラク",
    "town": "名駅ミッドランドスクエア高層棟　２３階",
    "town_kana": "メイエキミッドランドスクエアコウソウトウ23カイ",
    "street": null,
    "office_name": null,
    "office_name_kana": null
  },
  "6224": {
    "zip_code": "4506224",
    "prefecture": "愛知県",
    "prefecture_kana": "アイチケン",
    "prefecture_code": "23",
    "city": "名古屋市中村区",
    "city_kana": "ナゴヤシナカムラク",
    "town": "名駅ミッドランドスクエア高層棟　２４階",
    "town_kana": "メイエキミッドランドスクエアコウソウトウ24カイ",
    "street": null,
    "office_name": null,
    "office_name_kana": null
  },
  "6225": {
    "zip_code": "4506225",
    "prefecture": "愛知県",
    "prefecture_kana": "アイチケン",
    "prefecture_code": "23",
    "city": "名古屋市中村区",
    "city_kana": "ナゴヤシナカムラク",
    "town": "名駅ミッドランドスクエア高層棟　２５階",
    "town_kana": "メイエキミッドランドスクエアコウソウトウ25カイ",
    "street": null,
    "office_name": null,
    "office_name_kana": null
  },
  "6226": {
    "zip_code": "4506226",
    "prefecture": "愛知県",
    "prefecture_kana": "アイチケン",
    "prefecture_code": "23",
    "city": "名古屋市中村区",
    "city_kana": "ナゴヤシナカムラク",
    "town": "名駅ミッドランドスクエア高層棟　２６階",
    "town_kana": "メイエキミッドランドスクエアコウソウトウ26カイ",
    "street": null,
    "office_name": null,
    "office_name_kana": null
  },
  "6227": {
    "zip_code": "4506227",
    "prefecture": "愛知県",
    "prefecture_kana": "アイチケン",
    "prefecture_code": "23",
    "city": "名古屋市中村区",
    "city_kana": "ナゴヤシナカムラク",
    "town": "名駅ミッドランドスクエア高層棟　２７階",
    "town_kana": "メイエキミッドランドスクエアコウソウトウ27カイ",
    "street": null,
    "office_name": null,
    "office_name_kana": null
  },
  "6228": {
    "zip_code": "4506228",
    "prefecture": "愛知県",
    "prefecture_kana": "アイチケン",
    "prefecture_code": "23",
    "city": "名古屋市中村区",
    "city_kana": "ナゴヤシナカムラク",
    "town": "名駅ミッドランドスクエア高層棟　２８階",
    "town_kana": "メイエキミッドランドスクエアコウソウトウ28カイ",
    "street": null,
    "office_name": null,
    "office_name_kana": null
  },
  "6229": {
    "zip_code": "4506229",
    "prefecture": "愛知県",
    "prefecture_kana": "アイチケン",
    "prefecture_code": "23",
    "city": "名古屋市中村区",
    "city_kana": "ナゴヤシナカムラク",
    "town": "名駅ミッドランドスクエア高層棟　２９階",
    "town_kana": "メイエキミッドランドスクエアコウソウトウ29カイ",
    "street": null,
    "office_name": null,
    "office_name_kana": null
  },
  "6230": {
    "zip_code": "4506230",
    "prefecture": "愛知県",
    "prefecture_kana": "アイチケン",
    "prefecture_code": "23",
    "city": "名古屋市中村区",
    "city_kana": "ナゴヤシナカムラク",
    "town": "名駅ミッドランドスクエア高層棟　３０階",
    "town_kana": "メイエキミッドランドスクエアコウソウトウ30カイ",
    "street": null,
    "office_name": null,
    "office_name_kana": null
  },
  "6231": {
    "zip_code": "4506231",
    "prefecture": "愛知県",
    "prefecture_kana": "アイチケン",
    "prefecture_code": "23",
    "city": "名古屋市中村区",
    "city_kana": "ナゴヤシナカムラク",
    "town": "名駅ミッドランドスクエア高層棟　３１階",
    "town_kana": "メイエキミッドランドスクエアコウソウトウ31カイ",
    "street": null,
    "office_name": null,
    "office_name_kana": null
  },
  "6232": {
    "zip_code": "4506232",
    "prefecture": "愛知県",
    "prefecture_kana": "アイチケン",
    "prefecture_code": "23",
    "city": "名古屋市中村区",
    "city_kana": "ナゴヤシナカムラク",
    "town": "名駅ミッドランドスクエア高層棟　３２階",
    "town_kana": "メイエキミッドランドスクエアコウソウトウ32カイ",
    "street": null,
    "office_name": null,
    "office_name_kana": null
  },
  "6233": {
    "zip_code": "4506233",
    "prefecture": "愛知県",
    "prefecture_kana": "アイチケン",
    "prefecture_code": "23",
    "city": "名古屋市中村区",
    "city_kana": "ナゴヤシナカムラク",
    "town": "名駅ミッドランドスクエア高層棟　３３階",
    "town_kana": "メイエキミッドランドスクエアコウソウトウ33カイ",
    "street": null,
    "office_name": null,
    "office_name_kana": null
  },
  "6234": {
    "zip_code": "4506234",
    "prefecture": "愛知県",
    "prefecture_kana": "アイチケン",
    "prefecture_code": "23",
    "city": "名古屋市中村区",
    "city_kana": "ナゴヤシナカムラク",
    "town": "名駅ミッドランドスクエア高層棟　３４階",
    "town_kana": "メイエキミッドランドスクエアコウソウトウ34カイ",
    "street": null,
    "office_name": null,
    "office_name_kana": null
  },
  "6235": {
    "zip_code": "4506235",
    "prefecture": "愛知県",
    "prefecture_kana": "アイチケン",
    "prefecture_code": "23",
    "city": "名古屋市中村区",
    "city_kana": "ナゴヤシナカムラク",
    "town": "名駅ミッドランドスクエア高層棟　３５階",
    "town_kana": "メイエキミッドランドスクエアコウソウトウ35カイ",
    "street": null,
    "office_name": null,
    "office_name_kana": null
  },
  "6236": {
    "zip_code": "4506236",
    "prefecture": "愛知県",
    "prefecture_kana": "アイチケン",
    "prefecture_code": "23",
    "city": "名古屋市中村区",
    "city_kana": "ナゴヤシナカムラク",
    "town": "名駅ミッドランドスクエア高層棟　３６階",
    "town_kana": "メイエキミッドランドスクエアコウソウトウ36カイ",
    "street": null,
    "office_name": null,
    "office_name_kana": null
  },
  "6237": {
    "zip_code": "4506237",
    "prefecture": "愛知県",
    "prefecture_kana": "アイチケン",
    "prefecture_code": "23",
    "city": "名古屋市中村区",
    "city_kana": "ナゴヤシナカムラク",
    "town": "名駅ミッドランドスクエア高層棟　３７階",
    "town_kana": "メイエキミッドランドスクエアコウソウトウ37カイ",
    "street": null,
    "office_name": null,
    "office_name_kana": null
  },
  "6238": {
    "zip_code": "4506238",
    "prefecture": "愛知県",
    "prefecture_kana": "アイチケン",
    "prefecture_code": "23",
    "city": "名古屋市中村区",
    "city_kana": "ナゴヤシナカムラク",
    "town": "名駅ミッドランドスクエア高層棟　３８階",
    "town_kana": "メイエキミッドランドスクエアコウソウトウ38カイ",
    "street": null,
    "office_name": null,
    "office_name_kana": null
  },
  "6239": {
    "zip_code": "4506239",
    "prefecture": "愛知県",
    "prefecture_kana": "アイチケン",
    "prefecture_code": "23",
    "city": "名古屋市中村区",
    "city_kana": "ナゴヤシナカムラク",
    "town": "名駅ミッドランドスクエア高層棟　３９階",
    "town_kana": "メイエキミッドランドスクエアコウソウトウ39カイ",
    "street": null,
    "office_name": null,
    "office_name_kana": null
  },
  "6240": {
    "zip_code": "4506240",
    "prefecture": "愛知県",
    "prefecture_kana": "アイチケン",
    "prefecture_code": "23",
    "city": "名古屋市中村区",
    "city_kana": "ナゴヤシナカムラク",
    "town": "名駅ミッドランドスクエア高層棟　４０階",
    "town_kana": "メイエキミッドランドスクエアコウソウトウ40カイ",
    "street": null,
    "office_name": null,
    "office_name_kana": null
  },
  "6241": {
    "zip_code": "4506241",
    "prefecture": "愛知県",
    "prefecture_kana": "アイチケン",
    "prefecture_code": "23",
    "city": "名古屋市中村区",
    "city_kana": "ナゴヤシナカムラク",
    "town": "名駅ミッドランドスクエア高層棟　４１階",
    "town_kana": "メイエキミッドランドスクエアコウソウトウ41カイ",
    "street": null,
    "office_name": null,
    "office_name_kana": null
  },
  "6242": {
    "zip_code": "4506242",
    "prefecture": "愛知県",
    "prefecture_kana": "アイチケン",
    "prefecture_code": "23",
    "city": "名古屋市中村区",
    "city_kana": "ナゴヤシナカムラク",
    "town": "名駅ミッドランドスクエア高層棟　４２階",
    "town_kana": "メイエキミッドランドスクエアコウソウトウ42カイ",
    "street": null,
    "office_name": null,
    "office_name_kana": null
  },
  "6243": {
    "zip_code": "4506243",
    "prefecture": "愛知県",
    "prefecture_kana": "アイチケン",
    "prefecture_code": "23",
    "city": "名古屋市中村区",
    "city_kana": "ナゴヤシナカムラク",
    "town": "名駅ミッドランドスクエア高層棟　４３階",
    "town_kana": "メイエキミッドランドスクエアコウソウトウ43カイ",
    "street": null,
    "office_name": null,
    "office_name_kana": null
  },
  "6244": {
    "zip_code": "4506244",
    "prefecture": "愛知県",
    "prefecture_kana": "アイチケン",
    "prefecture_code": "23",
    "city": "名古屋市中村区",
    "city_kana": "ナゴヤシナカムラク",
    "town": "名駅ミッドランドスクエア高層棟　４４階",
    "town_kana": "メイエキミッドランドスクエアコウソウトウ44カイ",
    "street": null,
    "office_name": null,
    "office_name_kana": null
  },
  "6245": {
    "zip_code": "4506245",
    "prefecture": "愛知県",
    "prefecture_kana": "アイチケン",
    "prefecture_code": "23",
    "city": "名古屋市中村区",
    "city_kana": "ナゴヤシナカムラク",
    "town": "名駅ミッドランドスクエア高層棟　４５階",
    "town_kana": "メイエキミッドランドスクエアコウソウトウ45カイ",
    "street": null,
    "office_name": null,
    "office_name_kana": null
  },
  "6246": {
    "zip_code": "4506246",
    "prefecture": "愛知県",
    "prefecture_kana": "アイチケン",
    "prefecture_code": "23",
    "city": "名古屋市中村区",
    "city_kana": "ナゴヤシナカムラク",
    "town": "名駅ミッドランドスクエア高層棟　４６階",
    "town_kana": "メイエキミッドランドスクエアコウソウトウ46カイ",
    "street": null,
    "office_name": null,
    "office_name_kana": null
  },
  "6247": {
    "zip_code": "4506247",
    "prefecture": "愛知県",
    "prefecture_kana": "アイチケン",
    "prefecture_code": "23",
    "city": "名古屋市中村区",
    "city_kana": "ナゴヤシナカムラク",
    "town": "名駅ミッドランドスクエア高層棟　４７階",
    "town_kana": "メイエキミッドランドスクエアコウソウトウ47カイ",
    "street": null,
    "office_name": null,
    "office_name_kana": null
  },
  "6290": {
    "zip_code": "4506290",
    "prefecture": "愛知県",
    "prefecture_kana": "アイチケン",
    "prefecture_code": "23",
    "city": "名古屋市中村区",
    "city_kana": "ナゴヤシナカムラク",
    "town": "名駅ミッドランドスクエア高層棟",
    "town_kana": "メイエキミッドランドスクエアコウソウトウ",
    "street": null,
    "office_name": null,
    "office_name_kana": null
  },
  "6301": {
    "zip_code": "4506301",
    "prefecture": "愛知県",
    "prefecture_kana": "アイチケン",
    "prefecture_code": "23",
    "city": "名古屋市中村区",
    "city_kana": "ナゴヤシナカムラク",
    "town": "名駅ＪＰタワー名古屋　１階",
    "town_kana": "メイエキジェイピータワーナゴヤ1カイ",
    "street": null,
    "office_name": null,
    "office_name_kana": null
  },
  "6302": {
    "zip_code": "4506302",
    "prefecture": "愛知県",
    "prefecture_kana": "アイチケン",
    "prefecture_code": "23",
    "city": "名古屋市中村区",
    "city_kana": "ナゴヤシナカムラク",
    "town": "名駅ＪＰタワー名古屋　２階",
    "town_kana": "メイエキジェイピータワーナゴヤ2カイ",
    "street": null,
    "office_name": null,
    "office_name_kana": null
  },
  "6303": {
    "zip_code": "4506303",
    "prefecture": "愛知県",
    "prefecture_kana": "アイチケン",
    "prefecture_code": "23",
    "city": "名古屋市中村区",
    "city_kana": "ナゴヤシナカムラク",
    "town": "名駅ＪＰタワー名古屋　３階",
    "town_kana": "メイエキジェイピータワーナゴヤ3カイ",
    "street": null,
    "office_name": null,
    "office_name_kana": null
  },
  "6304": {
    "zip_code": "4506304",
    "prefecture": "愛知県",
    "prefecture_kana": "アイチケン",
    "prefecture_code": "23",
    "city": "名古屋市中村区",
    "city_kana": "ナゴヤシナカムラク",
    "town": "名駅ＪＰタワー名古屋　４階",
    "town_kana": "メイエキジェイピータワーナゴヤ4カイ",
    "street": null,
    "office_name": null,
    "office_name_kana": null
  },
  "6305": {
    "zip_code": "4506305",
    "prefecture": "愛知県",
    "prefecture_kana": "アイチケン",
    "prefecture_code": "23",
    "city": "名古屋市中村区",
    "city_kana": "ナゴヤシナカムラク",
    "town": "名駅ＪＰタワー名古屋　５階",
    "town_kana": "メイエキジェイピータワーナゴヤ5カイ",
    "street": null,
    "office_name": null,
    "office_name_kana": null
  },
  "6306": {
    "zip_code": "4506306",
    "prefecture": "愛知県",
    "prefecture_kana": "アイチケン",
    "prefecture_code": "23",
    "city": "名古屋市中村区",
    "city_kana": "ナゴヤシナカムラク",
    "town": "名駅ＪＰタワー名古屋　６階",
    "town_kana": "メイエキジェイピータワーナゴヤ6カイ",
    "street": null,
    "office_name": null,
    "office_name_kana": null
  },
  "6307": {
    "zip_code": "4506307",
    "prefecture": "愛知県",
    "prefecture_kana": "アイチケン",
    "prefecture_code": "23",
    "city": "名古屋市中村区",
    "city_kana": "ナゴヤシナカムラク",
    "town": "名駅ＪＰタワー名古屋　７階",
    "town_kana": "メイエキジェイピータワーナゴヤ7カイ",
    "street": null,
    "office_name": null,
    "office_name_kana": null
  },
  "6308": {
    "zip_code": "4506308",
    "prefecture": "愛知県",
    "prefecture_kana": "アイチケン",
    "prefecture_code": "23",
    "city": "名古屋市中村区",
    "city_kana": "ナゴヤシナカムラク",
    "town": "名駅ＪＰタワー名古屋　８階",
    "town_kana": "メイエキジェイピータワーナゴヤ8カイ",
    "street": null,
    "office_name": null,
    "office_name_kana": null
  },
  "6309": {
    "zip_code": "4506309",
    "prefecture": "愛知県",
    "prefecture_kana": "アイチケン",
    "prefecture_code": "23",
    "city": "名古屋市中村区",
    "city_kana": "ナゴヤシナカムラク",
    "town": "名駅ＪＰタワー名古屋　９階",
    "town_kana": "メイエキジェイピータワーナゴヤ9カイ",
    "street": null,
    "office_name": null,
    "office_name_kana": null
  },
  "6310": {
    "zip_code": "4506310",
    "prefecture": "愛知県",
    "prefecture_kana": "アイチケン",
    "prefecture_code": "23",
    "city": "名古屋市中村区",
    "city_kana": "ナゴヤシナカムラク",
    "town": "名駅ＪＰタワー名古屋　１０階",
    "town_kana": "メイエキジェイピータワーナゴヤ10カイ",
    "street": null,
    "office_name": null,
    "office_name_kana": null
  },
  "6311": {
    "zip_code": "4506311",
    "prefecture": "愛知県",
    "prefecture_kana": "アイチケン",
    "prefecture_code": "23",
    "city": "名古屋市中村区",
    "city_kana": "ナゴヤシナカムラク",
    "town": "名駅ＪＰタワー名古屋　１１階",
    "town_kana": "メイエキジェイピータワーナゴヤ11カイ",
    "street": null,
    "office_name": null,
    "office_name_kana": null
  },
  "6312": {
    "zip_code": "4506312",
    "prefecture": "愛知県",
    "prefecture_kana": "アイチケン",
    "prefecture_code": "23",
    "city": "名古屋市中村区",
    "city_kana": "ナゴヤシナカムラク",
    "town": "名駅ＪＰタワー名古屋　１２階",
    "town_kana": "メイエキジェイピータワーナゴヤ12カイ",
    "street": null,
    "office_name": null,
    "office_name_kana": null
  },
  "6313": {
    "zip_code": "4506313",
    "prefecture": "愛知県",
    "prefecture_kana": "アイチケン",
    "prefecture_code": "23",
    "city": "名古屋市中村区",
    "city_kana": "ナゴヤシナカムラク",
    "town": "名駅ＪＰタワー名古屋　１３階",
    "town_kana": "メイエキジェイピータワーナゴヤ13カイ",
    "street": null,
    "office_name": null,
    "office_name_kana": null
  },
  "6314": {
    "zip_code": "4506314",
    "prefecture": "愛知県",
    "prefecture_kana": "アイチケン",
    "prefecture_code": "23",
    "city": "名古屋市中村区",
    "city_kana": "ナゴヤシナカムラク",
    "town": "名駅ＪＰタワー名古屋　１４階",
    "town_kana": "メイエキジェイピータワーナゴヤ14カイ",
    "street": null,
    "office_name": null,
    "office_name_kana": null
  },
  "6315": {
    "zip_code": "4506315",
    "prefecture": "愛知県",
    "prefecture_kana": "アイチケン",
    "prefecture_code": "23",
    "city": "名古屋市中村区",
    "city_kana": "ナゴヤシナカムラク",
    "town": "名駅ＪＰタワー名古屋　１５階",
    "town_kana": "メイエキジェイピータワーナゴヤ15カイ",
    "street": null,
    "office_name": null,
    "office_name_kana": null
  },
  "6316": {
    "zip_code": "4506316",
    "prefecture": "愛知県",
    "prefecture_kana": "アイチケン",
    "prefecture_code": "23",
    "city": "名古屋市中村区",
    "city_kana": "ナゴヤシナカムラク",
    "town": "名駅ＪＰタワー名古屋　１６階",
    "town_kana": "メイエキジェイピータワーナゴヤ16カイ",
    "street": null,
    "office_name": null,
    "office_name_kana": null
  },
  "6317": {
    "zip_code": "4506317",
    "prefecture": "愛知県",
    "prefecture_kana": "アイチケン",
    "prefecture_code": "23",
    "city": "名古屋市中村区",
    "city_kana": "ナゴヤシナカムラク",
    "town": "名駅ＪＰタワー名古屋　１７階",
    "town_kana": "メイエキジェイピータワーナゴヤ17カイ",
    "street": null,
    "office_name": null,
    "office_name_kana": null
  },
  "6318": {
    "zip_code": "4506318",
    "prefecture": "愛知県",
    "prefecture_kana": "アイチケン",
    "prefecture_code": "23",
    "city": "名古屋市中村区",
    "city_kana": "ナゴヤシナカムラク",
    "town": "名駅ＪＰタワー名古屋　１８階",
    "town_kana": "メイエキジェイピータワーナゴヤ18カイ",
    "street": null,
    "office_name": null,
    "office_name_kana": null
  },
  "6319": {
    "zip_code": "4506319",
    "prefecture": "愛知県",
    "prefecture_kana": "アイチケン",
    "prefecture_code": "23",
    "city": "名古屋市中村区",
    "city_kana": "ナゴヤシナカムラク",
    "town": "名駅ＪＰタワー名古屋　１９階",
    "town_kana": "メイエキジェイピータワーナゴヤ19カイ",
    "street": null,
    "office_name": null,
    "office_name_kana": null
  },
  "6320": {
    "zip_code": "4506320",
    "prefecture": "愛知県",
    "prefecture_kana": "アイチケン",
    "prefecture_code": "23",
    "city": "名古屋市中村区",
    "city_kana": "ナゴヤシナカムラク",
    "town": "名駅ＪＰタワー名古屋　２０階",
    "town_kana": "メイエキジェイピータワーナゴヤ20カイ",
    "street": null,
    "office_name": null,
    "office_name_kana": null
  },
  "6321": {
    "zip_code": "4506321",
    "prefecture": "愛知県",
    "prefecture_kana": "アイチケン",
    "prefecture_code": "23",
    "city": "名古屋市中村区",
    "city_kana": "ナゴヤシナカムラク",
    "town": "名駅ＪＰタワー名古屋　２１階",
    "town_kana": "メイエキジェイピータワーナゴヤ21カイ",
    "street": null,
    "office_name": null,
    "office_name_kana": null
  },
  "6322": {
    "zip_code": "4506322",
    "prefecture": "愛知県",
    "prefecture_kana": "アイチケン",
    "prefecture_code": "23",
    "city": "名古屋市中村区",
    "city_kana": "ナゴヤシナカムラク",
    "town": "名駅ＪＰタワー名古屋　２２階",
    "town_kana": "メイエキジェイピータワーナゴヤ22カイ",
    "street": null,
    "office_name": null,
    "office_name_kana": null
  },
  "6323": {
    "zip_code": "4506323",
    "prefecture": "愛知県",
    "prefecture_kana": "アイチケン",
    "prefecture_code": "23",
    "city": "名古屋市中村区",
    "city_kana": "ナゴヤシナカムラク",
    "town": "名駅ＪＰタワー名古屋　２３階",
    "town_kana": "メイエキジェイピータワーナゴヤ23カイ",
    "street": null,
    "office_name": null,
    "office_name_kana": null
  },
  "6324": {
    "zip_code": "4506324",
    "prefecture": "愛知県",
    "prefecture_kana": "アイチケン",
    "prefecture_code": "23",
    "city": "名古屋市中村区",
    "city_kana": "ナゴヤシナカムラク",
    "town": "名駅ＪＰタワー名古屋　２４階",
    "town_kana": "メイエキジェイピータワーナゴヤ24カイ",
    "street": null,
    "office_name": null,
    "office_name_kana": null
  },
  "6325": {
    "zip_code": "4506325",
    "prefecture": "愛知県",
    "prefecture_kana": "アイチケン",
    "prefecture_code": "23",
    "city": "名古屋市中村区",
    "city_kana": "ナゴヤシナカムラク",
    "town": "名駅ＪＰタワー名古屋　２５階",
    "town_kana": "メイエキジェイピータワーナゴヤ25カイ",
    "street": null,
    "office_name": null,
    "office_name_kana": null
  },
  "6326": {
    "zip_code": "4506326",
    "prefecture": "愛知県",
    "prefecture_kana": "アイチケン",
    "prefecture_code": "23",
    "city": "名古屋市中村区",
    "city_kana": "ナゴヤシナカムラク",
    "town": "名駅ＪＰタワー名古屋　２６階",
    "town_kana": "メイエキジェイピータワーナゴヤ26カイ",
    "street": null,
    "office_name": null,
    "office_name_kana": null
  },
  "6327": {
    "zip_code": "4506327",
    "prefecture": "愛知県",
    "prefecture_kana": "アイチケン",
    "prefecture_code": "23",
    "city": "名古屋市中村区",
    "city_kana": "ナゴヤシナカムラク",
    "town": "名駅ＪＰタワー名古屋　２７階",
    "town_kana": "メイエキジェイピータワーナゴヤ27カイ",
    "street": null,
    "office_name": null,
    "office_name_kana": null
  },
  "6328": {
    "zip_code": "4506328",
    "prefecture": "愛知県",
    "prefecture_kana": "アイチケン",
    "prefecture_code": "23",
    "city": "名古屋市中村区",
    "city_kana": "ナゴヤシナカムラク",
    "town": "名駅ＪＰタワー名古屋　２８階",
    "town_kana": "メイエキジェイピータワーナゴヤ28カイ",
    "street": null,
    "office_name": null,
    "office_name_kana": null
  },
  "6329": {
    "zip_code": "4506329",
    "prefecture": "愛知県",
    "prefecture_kana": "アイチケン",
    "prefecture_code": "23",
    "city": "名古屋市中村区",
    "city_kana": "ナゴヤシナカムラク",
    "town": "名駅ＪＰタワー名古屋　２９階",
    "town_kana": "メイエキジェイピータワーナゴヤ29カイ",
    "street": null,
    "office_name": null,
    "office_name_kana": null
  },
  "6330": {
    "zip_code": "4506330",
    "prefecture": "愛知県",
    "prefecture_kana": "アイチケン",
    "prefecture_code": "23",
    "city": "名古屋市中村区",
    "city_kana": "ナゴヤシナカムラク",
    "town": "名駅ＪＰタワー名古屋　３０階",
    "town_kana": "メイエキジェイピータワーナゴヤ30カイ",
    "street": null,
    "office_name": null,
    "office_name_kana": null
  },
  "6331": {
    "zip_code": "4506331",
    "prefecture": "愛知県",
    "prefecture_kana": "アイチケン",
    "prefecture_code": "23",
    "city": "名古屋市中村区",
    "city_kana": "ナゴヤシナカムラク",
    "town": "名駅ＪＰタワー名古屋　３１階",
    "town_kana": "メイエキジェイピータワーナゴヤ31カイ",
    "street": null,
    "office_name": null,
    "office_name_kana": null
  },
  "6332": {
    "zip_code": "4506332",
    "prefecture": "愛知県",
    "prefecture_kana": "アイチケン",
    "prefecture_code": "23",
    "city": "名古屋市中村区",
    "city_kana": "ナゴヤシナカムラク",
    "town": "名駅ＪＰタワー名古屋　３２階",
    "town_kana": "メイエキジェイピータワーナゴヤ32カイ",
    "street": null,
    "office_name": null,
    "office_name_kana": null
  },
  "6333": {
    "zip_code": "4506333",
    "prefecture": "愛知県",
    "prefecture_kana": "アイチケン",
    "prefecture_code": "23",
    "city": "名古屋市中村区",
    "city_kana": "ナゴヤシナカムラク",
    "town": "名駅ＪＰタワー名古屋　３３階",
    "town_kana": "メイエキジェイピータワーナゴヤ33カイ",
    "street": null,
    "office_name": null,
    "office_name_kana": null
  },
  "6334": {
    "zip_code": "4506334",
    "prefecture": "愛知県",
    "prefecture_kana": "アイチケン",
    "prefecture_code": "23",
    "city": "名古屋市中村区",
    "city_kana": "ナゴヤシナカムラク",
    "town": "名駅ＪＰタワー名古屋　３４階",
    "town_kana": "メイエキジェイピータワーナゴヤ34カイ",
    "street": null,
    "office_name": null,
    "office_name_kana": null
  },
  "6335": {
    "zip_code": "4506335",
    "prefecture": "愛知県",
    "prefecture_kana": "アイチケン",
    "prefecture_code": "23",
    "city": "名古屋市中村区",
    "city_kana": "ナゴヤシナカムラク",
    "town": "名駅ＪＰタワー名古屋　３５階",
    "town_kana": "メイエキジェイピータワーナゴヤ35カイ",
    "street": null,
    "office_name": null,
    "office_name_kana": null
  },
  "6336": {
    "zip_code": "4506336",
    "prefecture": "愛知県",
    "prefecture_kana": "アイチケン",
    "prefecture_code": "23",
    "city": "名古屋市中村区",
    "city_kana": "ナゴヤシナカムラク",
    "town": "名駅ＪＰタワー名古屋　３６階",
    "town_kana": "メイエキジェイピータワーナゴヤ36カイ",
    "street": null,
    "office_name": null,
    "office_name_kana": null
  },
  "6337": {
    "zip_code": "4506337",
    "prefecture": "愛知県",
    "prefecture_kana": "アイチケン",
    "prefecture_code": "23",
    "city": "名古屋市中村区",
    "city_kana": "ナゴヤシナカムラク",
    "town": "名駅ＪＰタワー名古屋　３７階",
    "town_kana": "メイエキジェイピータワーナゴヤ37カイ",
    "street": null,
    "office_name": null,
    "office_name_kana": null
  },
  "6338": {
    "zip_code": "4506338",
    "prefecture": "愛知県",
    "prefecture_kana": "アイチケン",
    "prefecture_code": "23",
    "city": "名古屋市中村区",
    "city_kana": "ナゴヤシナカムラク",
    "town": "名駅ＪＰタワー名古屋　３８階",
    "town_kana": "メイエキジェイピータワーナゴヤ38カイ",
    "street": null,
    "office_name": null,
    "office_name_kana": null
  },
  "6339": {
    "zip_code": "4506339",
    "prefecture": "愛知県",
    "prefecture_kana": "アイチケン",
    "prefecture_code": "23",
    "city": "名古屋市中村区",
    "city_kana": "ナゴヤシナカムラク",
    "town": "名駅ＪＰタワー名古屋　３９階",
    "town_kana": "メイエキジェイピータワーナゴヤ39カイ",
    "street": null,
    "office_name": null,
    "office_name_kana": null
  },
  "6340": {
    "zip_code": "4506340",
    "prefecture": "愛知県",
    "prefecture_kana": "アイチケン",
    "prefecture_code": "23",
    "city": "名古屋市中村区",
    "city_kana": "ナゴヤシナカムラク",
    "town": "名駅ＪＰタワー名古屋　４０階",
    "town_kana": "メイエキジェイピータワーナゴヤ40カイ",
    "street": null,
    "office_name": null,
    "office_name_kana": null
  },
  "6363": {
    "zip_code": "4506363",
    "prefecture": "愛知県",
    "prefecture_kana": "アイチケン",
    "prefecture_code": "23",
    "city": "名古屋市中村区",
    "city_kana": "ナゴヤシナカムラク",
    "town": "名駅",
    "town_kana": "メイエキ",
    "street": "一丁目１番１号ＪＰタワー名古屋",
    "office_name": "全国健康保険協会　愛知支部",
    "office_name_kana": "ゼンコクケンコウホケンキヨウカイ アイチシブ"
  },
  "6390": {
    "zip_code": "4506390",
    "prefecture": "愛知県",
    "prefecture_kana": "アイチケン",
    "prefecture_code": "23",
    "city": "名古屋市中村区",
    "city_kana": "ナゴヤシナカムラク",
    "town": "名駅ＪＰタワー名古屋",
    "town_kana": "メイエキジェイピータワーナゴヤ",
    "street": null,
    "office_name": null,
    "office_name_kana": null
  },
  "6401": {
    "zip_code": "4506401",
    "prefecture": "愛知県",
    "prefecture_kana": "アイチケン",
    "prefecture_code": "23",
    "city": "名古屋市中村区",
    "city_kana": "ナゴヤシナカムラク",
    "town": "名駅大名古屋ビルヂング　１階",
    "town_kana": "メイエキダイナゴヤビルヂング1カイ",
    "street": null,
    "office_name": null,
    "office_name_kana": null
  },
  "6402": {
    "zip_code": "4506402",
    "prefecture": "愛知県",
    "prefecture_kana": "アイチケン",
    "prefecture_code": "23",
    "city": "名古屋市中村区",
    "city_kana": "ナゴヤシナカムラク",
    "town": "名駅大名古屋ビルヂング　２階",
    "town_kana": "メイエキダイナゴヤビルヂング2カイ",
    "street": null,
    "office_name": null,
    "office_name_kana": null
  },
  "6403": {
    "zip_code": "4506403",
    "prefecture": "愛知県",
    "prefecture_kana": "アイチケン",
    "prefecture_code": "23",
    "city": "名古屋市中村区",
    "city_kana": "ナゴヤシナカムラク",
    "town": "名駅大名古屋ビルヂング　３階",
    "town_kana": "メイエキダイナゴヤビルヂング3カイ",
    "street": null,
    "office_name": null,
    "office_name_kana": null
  },
  "6404": {
    "zip_code": "4506404",
    "prefecture": "愛知県",
    "prefecture_kana": "アイチケン",
    "prefecture_code": "23",
    "city": "名古屋市中村区",
    "city_kana": "ナゴヤシナカムラク",
    "town": "名駅大名古屋ビルヂング　４階",
    "town_kana": "メイエキダイナゴヤビルヂング4カイ",
    "street": null,
    "office_name": null,
    "office_name_kana": null
  },
  "6405": {
    "zip_code": "4506405",
    "prefecture": "愛知県",
    "prefecture_kana": "アイチケン",
    "prefecture_code": "23",
    "city": "名古屋市中村区",
    "city_kana": "ナゴヤシナカムラク",
    "town": "名駅大名古屋ビルヂング　５階",
    "town_kana": "メイエキダイナゴヤビルヂング5カイ",
    "street": null,
    "office_name": null,
    "office_name_kana": null
  },
  "6406": {
    "zip_code": "4506406",
    "prefecture": "愛知県",
    "prefecture_kana": "アイチケン",
    "prefecture_code": "23",
    "city": "名古屋市中村区",
    "city_kana": "ナゴヤシナカムラク",
    "town": "名駅大名古屋ビルヂング　６階",
    "town_kana": "メイエキダイナゴヤビルヂング6カイ",
    "street": null,
    "office_name": null,
    "office_name_kana": null
  },
  "6407": {
    "zip_code": "4506407",
    "prefecture": "愛知県",
    "prefecture_kana": "アイチケン",
    "prefecture_code": "23",
    "city": "名古屋市中村区",
    "city_kana": "ナゴヤシナカムラク",
    "town": "名駅大名古屋ビルヂング　７階",
    "town_kana": "メイエキダイナゴヤビルヂング7カイ",
    "street": null,
    "office_name": null,
    "office_name_kana": null
  },
  "6408": {
    "zip_code": "4506408",
    "prefecture": "愛知県",
    "prefecture_kana": "アイチケン",
    "prefecture_code": "23",
    "city": "名古屋市中村区",
    "city_kana": "ナゴヤシナカムラク",
    "town": "名駅大名古屋ビルヂング　８階",
    "town_kana": "メイエキダイナゴヤビルヂング8カイ",
    "street": null,
    "office_name": null,
    "office_name_kana": null
  },
  "6409": {
    "zip_code": "4506409",
    "prefecture": "愛知県",
    "prefecture_kana": "アイチケン",
    "prefecture_code": "23",
    "city": "名古屋市中村区",
    "city_kana": "ナゴヤシナカムラク",
    "town": "名駅大名古屋ビルヂング　９階",
    "town_kana": "メイエキダイナゴヤビルヂング9カイ",
    "street": null,
    "office_name": null,
    "office_name_kana": null
  },
  "6410": {
    "zip_code": "4506410",
    "prefecture": "愛知県",
    "prefecture_kana": "アイチケン",
    "prefecture_code": "23",
    "city": "名古屋市中村区",
    "city_kana": "ナゴヤシナカムラク",
    "town": "名駅大名古屋ビルヂング　１０階",
    "town_kana": "メイエキダイナゴヤビルヂング10カイ",
    "street": null,
    "office_name": null,
    "office_name_kana": null
  },
  "6411": {
    "zip_code": "4506411",
    "prefecture": "愛知県",
    "prefecture_kana": "アイチケン",
    "prefecture_code": "23",
    "city": "名古屋市中村区",
    "city_kana": "ナゴヤシナカムラク",
    "town": "名駅大名古屋ビルヂング　１１階",
    "town_kana": "メイエキダイナゴヤビルヂング11カイ",
    "street": null,
    "office_name": null,
    "office_name_kana": null
  },
  "6412": {
    "zip_code": "4506412",
    "prefecture": "愛知県",
    "prefecture_kana": "アイチケン",
    "prefecture_code": "23",
    "city": "名古屋市中村区",
    "city_kana": "ナゴヤシナカムラク",
    "town": "名駅大名古屋ビルヂング　１２階",
    "town_kana": "メイエキダイナゴヤビルヂング12カイ",
    "street": null,
    "office_name": null,
    "office_name_kana": null
  },
  "6413": {
    "zip_code": "4506413",
    "prefecture": "愛知県",
    "prefecture_kana": "アイチケン",
    "prefecture_code": "23",
    "city": "名古屋市中村区",
    "city_kana": "ナゴヤシナカムラク",
    "town": "名駅大名古屋ビルヂング　１３階",
    "town_kana": "メイエキダイナゴヤビルヂング13カイ",
    "street": null,
    "office_name": null,
    "office_name_kana": null
  },
  "6414": {
    "zip_code": "4506414",
    "prefecture": "愛知県",
    "prefecture_kana": "アイチケン",
    "prefecture_code": "23",
    "city": "名古屋市中村区",
    "city_kana": "ナゴヤシナカムラク",
    "town": "名駅大名古屋ビルヂング　１４階",
    "town_kana": "メイエキダイナゴヤビルヂング14カイ",
    "street": null,
    "office_name": null,
    "office_name_kana": null
  },
  "6415": {
    "zip_code": "4506415",
    "prefecture": "愛知県",
    "prefecture_kana": "アイチケン",
    "prefecture_code": "23",
    "city": "名古屋市中村区",
    "city_kana": "ナゴヤシナカムラク",
    "town": "名駅大名古屋ビルヂング　１５階",
    "town_kana": "メイエキダイナゴヤビルヂング15カイ",
    "street": null,
    "office_name": null,
    "office_name_kana": null
  },
  "6416": {
    "zip_code": "4506416",
    "prefecture": "愛知県",
    "prefecture_kana": "アイチケン",
    "prefecture_code": "23",
    "city": "名古屋市中村区",
    "city_kana": "ナゴヤシナカムラク",
    "town": "名駅大名古屋ビルヂング　１６階",
    "town_kana": "メイエキダイナゴヤビルヂング16カイ",
    "street": null,
    "office_name": null,
    "office_name_kana": null
  },
  "6417": {
    "zip_code": "4506417",
    "prefecture": "愛知県",
    "prefecture_kana": "アイチケン",
    "prefecture_code": "23",
    "city": "名古屋市中村区",
    "city_kana": "ナゴヤシナカムラク",
    "town": "名駅大名古屋ビルヂング　１７階",
    "town_kana": "メイエキダイナゴヤビルヂング17カイ",
    "street": null,
    "office_name": null,
    "office_name_kana": null
  },
  "6418": {
    "zip_code": "4506418",
    "prefecture": "愛知県",
    "prefecture_kana": "アイチケン",
    "prefecture_code": "23",
    "city": "名古屋市中村区",
    "city_kana": "ナゴヤシナカムラク",
    "town": "名駅大名古屋ビルヂング　１８階",
    "town_kana": "メイエキダイナゴヤビルヂング18カイ",
    "street": null,
    "office_name": null,
    "office_name_kana": null
  },
  "6419": {
    "zip_code": "4506419",
    "prefecture": "愛知県",
    "prefecture_kana": "アイチケン",
    "prefecture_code": "23",
    "city": "名古屋市中村区",
    "city_kana": "ナゴヤシナカムラク",
    "town": "名駅大名古屋ビルヂング　１９階",
    "town_kana": "メイエキダイナゴヤビルヂング19カイ",
    "street": null,
    "office_name": null,
    "office_name_kana": null
  },
  "6420": {
    "zip_code": "4506420",
    "prefecture": "愛知県",
    "prefecture_kana": "アイチケン",
    "prefecture_code": "23",
    "city": "名古屋市中村区",
    "city_kana": "ナゴヤシナカムラク",
    "town": "名駅大名古屋ビルヂング　２０階",
    "town_kana": "メイエキダイナゴヤビルヂング20カイ",
    "street": null,
    "office_name": null,
    "office_name_kana": null
  },
  "6421": {
    "zip_code": "4506421",
    "prefecture": "愛知県",
    "prefecture_kana": "アイチケン",
    "prefecture_code": "23",
    "city": "名古屋市中村区",
    "city_kana": "ナゴヤシナカムラク",
    "town": "名駅大名古屋ビルヂング　２１階",
    "town_kana": "メイエキダイナゴヤビルヂング21カイ",
    "street": null,
    "office_name": null,
    "office_name_kana": null
  },
  "6422": {
    "zip_code": "4506422",
    "prefecture": "愛知県",
    "prefecture_kana": "アイチケン",
    "prefecture_code": "23",
    "city": "名古屋市中村区",
    "city_kana": "ナゴヤシナカムラク",
    "town": "名駅大名古屋ビルヂング　２２階",
    "town_kana": "メイエキダイナゴヤビルヂング22カイ",
    "street": null,
    "office_name": null,
    "office_name_kana": null
  },
  "6423": {
    "zip_code": "4506423",
    "prefecture": "愛知県",
    "prefecture_kana": "アイチケン",
    "prefecture_code": "23",
    "city": "名古屋市中村区",
    "city_kana": "ナゴヤシナカムラク",
    "town": "名駅大名古屋ビルヂング　２３階",
    "town_kana": "メイエキダイナゴヤビルヂング23カイ",
    "street": null,
    "office_name": null,
    "office_name_kana": null
  },
  "6424": {
    "zip_code": "4506424",
    "prefecture": "愛知県",
    "prefecture_kana": "アイチケン",
    "prefecture_code": "23",
    "city": "名古屋市中村区",
    "city_kana": "ナゴヤシナカムラク",
    "town": "名駅大名古屋ビルヂング　２４階",
    "town_kana": "メイエキダイナゴヤビルヂング24カイ",
    "street": null,
    "office_name": null,
    "office_name_kana": null
  },
  "6425": {
    "zip_code": "4506425",
    "prefecture": "愛知県",
    "prefecture_kana": "アイチケン",
    "prefecture_code": "23",
    "city": "名古屋市中村区",
    "city_kana": "ナゴヤシナカムラク",
    "town": "名駅大名古屋ビルヂング　２５階",
    "town_kana": "メイエキダイナゴヤビルヂング25カイ",
    "street": null,
    "office_name": null,
    "office_name_kana": null
  },
  "6426": {
    "zip_code": "4506426",
    "prefecture": "愛知県",
    "prefecture_kana": "アイチケン",
    "prefecture_code": "23",
    "city": "名古屋市中村区",
    "city_kana": "ナゴヤシナカムラク",
    "town": "名駅大名古屋ビルヂング　２６階",
    "town_kana": "メイエキダイナゴヤビルヂング26カイ",
    "street": null,
    "office_name": null,
    "office_name_kana": null
  },
  "6427": {
    "zip_code": "4506427",
    "prefecture": "愛知県",
    "prefecture_kana": "アイチケン",
    "prefecture_code": "23",
    "city": "名古屋市中村区",
    "city_kana": "ナゴヤシナカムラク",
    "town": "名駅大名古屋ビルヂング　２７階",
    "town_kana": "メイエキダイナゴヤビルヂング27カイ",
    "street": null,
    "office_name": null,
    "office_name_kana": null
  },
  "6428": {
    "zip_code": "4506428",
    "prefecture": "愛知県",
    "prefecture_kana": "アイチケン",
    "prefecture_code": "23",
    "city": "名古屋市中村区",
    "city_kana": "ナゴヤシナカムラク",
    "town": "名駅大名古屋ビルヂング　２８階",
    "town_kana": "メイエキダイナゴヤビルヂング28カイ",
    "street": null,
    "office_name": null,
    "office_name_kana": null
  },
  "6429": {
    "zip_code": "4506429",
    "prefecture": "愛知県",
    "prefecture_kana": "アイチケン",
    "prefecture_code": "23",
    "city": "名古屋市中村区",
    "city_kana": "ナゴヤシナカムラク",
    "town": "名駅大名古屋ビルヂング　２９階",
    "town_kana": "メイエキダイナゴヤビルヂング29カイ",
    "street": null,
    "office_name": null,
    "office_name_kana": null
  },
  "6430": {
    "zip_code": "4506430",
    "prefecture": "愛知県",
    "prefecture_kana": "アイチケン",
    "prefecture_code": "23",
    "city": "名古屋市中村区",
    "city_kana": "ナゴヤシナカムラク",
    "town": "名駅大名古屋ビルヂング　３０階",
    "town_kana": "メイエキダイナゴヤビルヂング30カイ",
    "street": null,
    "office_name": null,
    "office_name_kana": null
  },
  "6431": {
    "zip_code": "4506431",
    "prefecture": "愛知県",
    "prefecture_kana": "アイチケン",
    "prefecture_code": "23",
    "city": "名古屋市中村区",
    "city_kana": "ナゴヤシナカムラク",
    "town": "名駅大名古屋ビルヂング　３１階",
    "town_kana": "メイエキダイナゴヤビルヂング31カイ",
    "street": null,
    "office_name": null,
    "office_name_kana": null
  },
  "6432": {
    "zip_code": "4506432",
    "prefecture": "愛知県",
    "prefecture_kana": "アイチケン",
    "prefecture_code": "23",
    "city": "名古屋市中村区",
    "city_kana": "ナゴヤシナカムラク",
    "town": "名駅大名古屋ビルヂング　３２階",
    "town_kana": "メイエキダイナゴヤビルヂング32カイ",
    "street": null,
    "office_name": null,
    "office_name_kana": null
  },
  "6433": {
    "zip_code": "4506433",
    "prefecture": "愛知県",
    "prefecture_kana": "アイチケン",
    "prefecture_code": "23",
    "city": "名古屋市中村区",
    "city_kana": "ナゴヤシナカムラク",
    "town": "名駅大名古屋ビルヂング　３３階",
    "town_kana": "メイエキダイナゴヤビルヂング33カイ",
    "street": null,
    "office_name": null,
    "office_name_kana": null
  },
  "6434": {
    "zip_code": "4506434",
    "prefecture": "愛知県",
    "prefecture_kana": "アイチケン",
    "prefecture_code": "23",
    "city": "名古屋市中村区",
    "city_kana": "ナゴヤシナカムラク",
    "town": "名駅大名古屋ビルヂング　３４階",
    "town_kana": "メイエキダイナゴヤビルヂング34カイ",
    "street": null,
    "office_name": null,
    "office_name_kana": null
  },
  "6490": {
    "zip_code": "4506490",
    "prefecture": "愛知県",
    "prefecture_kana": "アイチケン",
    "prefecture_code": "23",
    "city": "名古屋市中村区",
    "city_kana": "ナゴヤシナカムラク",
    "town": "名駅大名古屋ビルヂング",
    "town_kana": "メイエキダイナゴヤビルヂング",
    "street": null,
    "office_name": null,
    "office_name_kana": null
  },
  "6601": {
    "zip_code": "4506601",
    "prefecture": "愛知県",
    "prefecture_kana": "アイチケン",
    "prefecture_code": "23",
    "city": "名古屋市中村区",
    "city_kana": "ナゴヤシナカムラク",
    "town": "名駅ＪＲゲートタワー　１階",
    "town_kana": "メイエキジェイアールゲートタワー1カイ",
    "street": null,
    "office_name": null,
    "office_name_kana": null
  },
  "6602": {
    "zip_code": "4506602",
    "prefecture": "愛知県",
    "prefecture_kana": "アイチケン",
    "prefecture_code": "23",
    "city": "名古屋市中村区",
    "city_kana": "ナゴヤシナカムラク",
    "town": "名駅ＪＲゲートタワー　２階",
    "town_kana": "メイエキジェイアールゲートタワー2カイ",
    "street": null,
    "office_name": null,
    "office_name_kana": null
  },
  "6603": {
    "zip_code": "4506603",
    "prefecture": "愛知県",
    "prefecture_kana": "アイチケン",
    "prefecture_code": "23",
    "city": "名古屋市中村区",
    "city_kana": "ナゴヤシナカムラク",
    "town": "名駅ＪＲゲートタワー　３階",
    "town_kana": "メイエキジェイアールゲートタワー3カイ",
    "street": null,
    "office_name": null,
    "office_name_kana": null
  },
  "6604": {
    "zip_code": "4506604",
    "prefecture": "愛知県",
    "prefecture_kana": "アイチケン",
    "prefecture_code": "23",
    "city": "名古屋市中村区",
    "city_kana": "ナゴヤシナカムラク",
    "town": "名駅ＪＲゲートタワー　４階",
    "town_kana": "メイエキジェイアールゲートタワー4カイ",
    "street": null,
    "office_name": null,
    "office_name_kana": null
  },
  "6605": {
    "zip_code": "4506605",
    "prefecture": "愛知県",
    "prefecture_kana": "アイチケン",
    "prefecture_code": "23",
    "city": "名古屋市中村区",
    "city_kana": "ナゴヤシナカムラク",
    "town": "名駅ＪＲゲートタワー　５階",
    "town_kana": "メイエキジェイアールゲートタワー5カイ",
    "street": null,
    "office_name": null,
    "office_name_kana": null
  },
  "6606": {
    "zip_code": "4506606",
    "prefecture": "愛知県",
    "prefecture_kana": "アイチケン",
    "prefecture_code": "23",
    "city": "名古屋市中村区",
    "city_kana": "ナゴヤシナカムラク",
    "town": "名駅ＪＲゲートタワー　６階",
    "town_kana": "メイエキジェイアールゲートタワー6カイ",
    "street": null,
    "office_name": null,
    "office_name_kana": null
  },
  "6607": {
    "zip_code": "4506607",
    "prefecture": "愛知県",
    "prefecture_kana": "アイチケン",
    "prefecture_code": "23",
    "city": "名古屋市中村区",
    "city_kana": "ナゴヤシナカムラク",
    "town": "名駅ＪＲゲートタワー　７階",
    "town_kana": "メイエキジェイアールゲートタワー7カイ",
    "street": null,
    "office_name": null,
    "office_name_kana": null
  },
  "6608": {
    "zip_code": "4506608",
    "prefecture": "愛知県",
    "prefecture_kana": "アイチケン",
    "prefecture_code": "23",
    "city": "名古屋市中村区",
    "city_kana": "ナゴヤシナカムラク",
    "town": "名駅ＪＲゲートタワー　８階",
    "town_kana": "メイエキジェイアールゲートタワー8カイ",
    "street": null,
    "office_name": null,
    "office_name_kana": null
  },
  "6609": {
    "zip_code": "4506609",
    "prefecture": "愛知県",
    "prefecture_kana": "アイチケン",
    "prefecture_code": "23",
    "city": "名古屋市中村区",
    "city_kana": "ナゴヤシナカムラク",
    "town": "名駅ＪＲゲートタワー　９階",
    "town_kana": "メイエキジェイアールゲートタワー9カイ",
    "street": null,
    "office_name": null,
    "office_name_kana": null
  },
  "6610": {
    "zip_code": "4506610",
    "prefecture": "愛知県",
    "prefecture_kana": "アイチケン",
    "prefecture_code": "23",
    "city": "名古屋市中村区",
    "city_kana": "ナゴヤシナカムラク",
    "town": "名駅ＪＲゲートタワー　１０階",
    "town_kana": "メイエキジェイアールゲートタワー10カイ",
    "street": null,
    "office_name": null,
    "office_name_kana": null
  },
  "6611": {
    "zip_code": "4506611",
    "prefecture": "愛知県",
    "prefecture_kana": "アイチケン",
    "prefecture_code": "23",
    "city": "名古屋市中村区",
    "city_kana": "ナゴヤシナカムラク",
    "town": "名駅ＪＲゲートタワー　１１階",
    "town_kana": "メイエキジェイアールゲートタワー11カイ",
    "street": null,
    "office_name": null,
    "office_name_kana": null
  },
  "6612": {
    "zip_code": "4506612",
    "prefecture": "愛知県",
    "prefecture_kana": "アイチケン",
    "prefecture_code": "23",
    "city": "名古屋市中村区",
    "city_kana": "ナゴヤシナカムラク",
    "town": "名駅ＪＲゲートタワー　１２階",
    "town_kana": "メイエキジェイアールゲートタワー12カイ",
    "street": null,
    "office_name": null,
    "office_name_kana": null
  },
  "6613": {
    "zip_code": "4506613",
    "prefecture": "愛知県",
    "prefecture_kana": "アイチケン",
    "prefecture_code": "23",
    "city": "名古屋市中村区",
    "city_kana": "ナゴヤシナカムラク",
    "town": "名駅ＪＲゲートタワー　１３階",
    "town_kana": "メイエキジェイアールゲートタワー13カイ",
    "street": null,
    "office_name": null,
    "office_name_kana": null
  },
  "6614": {
    "zip_code": "4506614",
    "prefecture": "愛知県",
    "prefecture_kana": "アイチケン",
    "prefecture_code": "23",
    "city": "名古屋市中村区",
    "city_kana": "ナゴヤシナカムラク",
    "town": "名駅ＪＲゲートタワー　１４階",
    "town_kana": "メイエキジェイアールゲートタワー14カイ",
    "street": null,
    "office_name": null,
    "office_name_kana": null
  },
  "6615": {
    "zip_code": "4506615",
    "prefecture": "愛知県",
    "prefecture_kana": "アイチケン",
    "prefecture_code": "23",
    "city": "名古屋市中村区",
    "city_kana": "ナゴヤシナカムラク",
    "town": "名駅ＪＲゲートタワー　１５階",
    "town_kana": "メイエキジェイアールゲートタワー15カイ",
    "street": null,
    "office_name": null,
    "office_name_kana": null
  },
  "6616": {
    "zip_code": "4506616",
    "prefecture": "愛知県",
    "prefecture_kana": "アイチケン",
    "prefecture_code": "23",
    "city": "名古屋市中村区",
    "city_kana": "ナゴヤシナカムラク",
    "town": "名駅ＪＲゲートタワー　１６階",
    "town_kana": "メイエキジェイアールゲートタワー16カイ",
    "street": null,
    "office_name": null,
    "office_name_kana": null
  },
  "6617": {
    "zip_code": "4506617",
    "prefecture": "愛知県",
    "prefecture_kana": "アイチケン",
    "prefecture_code": "23",
    "city": "名古屋市中村区",
    "city_kana": "ナゴヤシナカムラク",
    "town": "名駅ＪＲゲートタワー　１７階",
    "town_kana": "メイエキジェイアールゲートタワー17カイ",
    "street": null,
    "office_name": null,
    "office_name_kana": null
  },
  "6618": {
    "zip_code": "4506618",
    "prefecture": "愛知県",
    "prefecture_kana": "アイチケン",
    "prefecture_code": "23",
    "city": "名古屋市中村区",
    "city_kana": "ナゴヤシナカムラク",
    "town": "名駅ＪＲゲートタワー　１８階",
    "town_kana": "メイエキジェイアールゲートタワー18カイ",
    "street": null,
    "office_name": null,
    "office_name_kana": null
  },
  "6619": {
    "zip_code": "4506619",
    "prefecture": "愛知県",
    "prefecture_kana": "アイチケン",
    "prefecture_code": "23",
    "city": "名古屋市中村区",
    "city_kana": "ナゴヤシナカムラク",
    "town": "名駅ＪＲゲートタワー　１９階",
    "town_kana": "メイエキジェイアールゲートタワー19カイ",
    "street": null,
    "office_name": null,
    "office_name_kana": null
  },
  "6620": {
    "zip_code": "4506620",
    "prefecture": "愛知県",
    "prefecture_kana": "アイチケン",
    "prefecture_code": "23",
    "city": "名古屋市中村区",
    "city_kana": "ナゴヤシナカムラク",
    "town": "名駅ＪＲゲートタワー　２０階",
    "town_kana": "メイエキジェイアールゲートタワー20カイ",
    "street": null,
    "office_name": null,
    "office_name_kana": null
  },
  "6621": {
    "zip_code": "4506621",
    "prefecture": "愛知県",
    "prefecture_kana": "アイチケン",
    "prefecture_code": "23",
    "city": "名古屋市中村区",
    "city_kana": "ナゴヤシナカムラク",
    "town": "名駅ＪＲゲートタワー　２１階",
    "town_kana": "メイエキジェイアールゲートタワー21カイ",
    "street": null,
    "office_name": null,
    "office_name_kana": null
  },
  "6622": {
    "zip_code": "4506622",
    "prefecture": "愛知県",
    "prefecture_kana": "アイチケン",
    "prefecture_code": "23",
    "city": "名古屋市中村区",
    "city_kana": "ナゴヤシナカムラク",
    "town": "名駅ＪＲゲートタワー　２２階",
    "town_kana": "メイエキジェイアールゲートタワー22カイ",
    "street": null,
    "office_name": null,
    "office_name_kana": null
  },
  "6623": {
    "zip_code": "4506623",
    "prefecture": "愛知県",
    "prefecture_kana": "アイチケン",
    "prefecture_code": "23",
    "city": "名古屋市中村区",
    "city_kana": "ナゴヤシナカムラク",
    "town": "名駅ＪＲゲートタワー　２３階",
    "town_kana": "メイエキジェイアールゲートタワー23カイ",
    "street": null,
    "office_name": null,
    "office_name_kana": null
  },
  "6624": {
    "zip_code": "4506624",
    "prefecture": "愛知県",
    "prefecture_kana": "アイチケン",
    "prefecture_code": "23",
    "city": "名古屋市中村区",
    "city_kana": "ナゴヤシナカムラク",
    "town": "名駅ＪＲゲートタワー　２４階",
    "town_kana": "メイエキジェイアールゲートタワー24カイ",
    "street": null,
    "office_name": null,
    "office_name_kana": null
  },
  "6625": {
    "zip_code": "4506625",
    "prefecture": "愛知県",
    "prefecture_kana": "アイチケン",
    "prefecture_code": "23",
    "city": "名古屋市中村区",
    "city_kana": "ナゴヤシナカムラク",
    "town": "名駅ＪＲゲートタワー　２５階",
    "town_kana": "メイエキジェイアールゲートタワー25カイ",
    "street": null,
    "office_name": null,
    "office_name_kana": null
  },
  "6626": {
    "zip_code": "4506626",
    "prefecture": "愛知県",
    "prefecture_kana": "アイチケン",
    "prefecture_code": "23",
    "city": "名古屋市中村区",
    "city_kana": "ナゴヤシナカムラク",
    "town": "名駅ＪＲゲートタワー　２６階",
    "town_kana": "メイエキジェイアールゲートタワー26カイ",
    "street": null,
    "office_name": null,
    "office_name_kana": null
  },
  "6627": {
    "zip_code": "4506627",
    "prefecture": "愛知県",
    "prefecture_kana": "アイチケン",
    "prefecture_code": "23",
    "city": "名古屋市中村区",
    "city_kana": "ナゴヤシナカムラク",
    "town": "名駅ＪＲゲートタワー　２７階",
    "town_kana": "メイエキジェイアールゲートタワー27カイ",
    "street": null,
    "office_name": null,
    "office_name_kana": null
  },
  "6628": {
    "zip_code": "4506628",
    "prefecture": "愛知県",
    "prefecture_kana": "アイチケン",
    "prefecture_code": "23",
    "city": "名古屋市中村区",
    "city_kana": "ナゴヤシナカムラク",
    "town": "名駅ＪＲゲートタワー　２８階",
    "town_kana": "メイエキジェイアールゲートタワー28カイ",
    "street": null,
    "office_name": null,
    "office_name_kana": null
  },
  "6629": {
    "zip_code": "4506629",
    "prefecture": "愛知県",
    "prefecture_kana": "アイチケン",
    "prefecture_code": "23",
    "city": "名古屋市中村区",
    "city_kana": "ナゴヤシナカムラク",
    "town": "名駅ＪＲゲートタワー　２９階",
    "town_kana": "メイエキジェイアールゲートタワー29カイ",
    "street": null,
    "office_name": null,
    "office_name_kana": null
  },
  "6630": {
    "zip_code": "4506630",
    "prefecture": "愛知県",
    "prefecture_kana": "アイチケン",
    "prefecture_code": "23",
    "city": "名古屋市中村区",
    "city_kana": "ナゴヤシナカムラク",
    "town": "名駅ＪＲゲートタワー　３０階",
    "town_kana": "メイエキジェイアールゲートタワー30カイ",
    "street": null,
    "office_name": null,
    "office_name_kana": null
  },
  "6631": {
    "zip_code": "4506631",
    "prefecture": "愛知県",
    "prefecture_kana": "アイチケン",
    "prefecture_code": "23",
    "city": "名古屋市中村区",
    "city_kana": "ナゴヤシナカムラク",
    "town": "名駅ＪＲゲートタワー　３１階",
    "town_kana": "メイエキジェイアールゲートタワー31カイ",
    "street": null,
    "office_name": null,
    "office_name_kana": null
  },
  "6632": {
    "zip_code": "4506632",
    "prefecture": "愛知県",
    "prefecture_kana": "アイチケン",
    "prefecture_code": "23",
    "city": "名古屋市中村区",
    "city_kana": "ナゴヤシナカムラク",
    "town": "名駅ＪＲゲートタワー　３２階",
    "town_kana": "メイエキジェイアールゲートタワー32カイ",
    "street": null,
    "office_name": null,
    "office_name_kana": null
  },
  "6633": {
    "zip_code": "4506633",
    "prefecture": "愛知県",
    "prefecture_kana": "アイチケン",
    "prefecture_code": "23",
    "city": "名古屋市中村区",
    "city_kana": "ナゴヤシナカムラク",
    "town": "名駅ＪＲゲートタワー　３３階",
    "town_kana": "メイエキジェイアールゲートタワー33カイ",
    "street": null,
    "office_name": null,
    "office_name_kana": null
  },
  "6634": {
    "zip_code": "4506634",
    "prefecture": "愛知県",
    "prefecture_kana": "アイチケン",
    "prefecture_code": "23",
    "city": "名古屋市中村区",
    "city_kana": "ナゴヤシナカムラク",
    "town": "名駅ＪＲゲートタワー　３４階",
    "town_kana": "メイエキジェイアールゲートタワー34カイ",
    "street": null,
    "office_name": null,
    "office_name_kana": null
  },
  "6635": {
    "zip_code": "4506635",
    "prefecture": "愛知県",
    "prefecture_kana": "アイチケン",
    "prefecture_code": "23",
    "city": "名古屋市中村区",
    "city_kana": "ナゴヤシナカムラク",
    "town": "名駅ＪＲゲートタワー　３５階",
    "town_kana": "メイエキジェイアールゲートタワー35カイ",
    "street": null,
    "office_name": null,
    "office_name_kana": null
  },
  "6636": {
    "zip_code": "4506636",
    "prefecture": "愛知県",
    "prefecture_kana": "アイチケン",
    "prefecture_code": "23",
    "city": "名古屋市中村区",
    "city_kana": "ナゴヤシナカムラク",
    "town": "名駅ＪＲゲートタワー　３６階",
    "town_kana": "メイエキジェイアールゲートタワー36カイ",
    "street": null,
    "office_name": null,
    "office_name_kana": null
  },
  "6637": {
    "zip_code": "4506637",
    "prefecture": "愛知県",
    "prefecture_kana": "アイチケン",
    "prefecture_code": "23",
    "city": "名古屋市中村区",
    "city_kana": "ナゴヤシナカムラク",
    "town": "名駅ＪＲゲートタワー　３７階",
    "town_kana": "メイエキジェイアールゲートタワー37カイ",
    "street": null,
    "office_name": null,
    "office_name_kana": null
  },
  "6638": {
    "zip_code": "4506638",
    "prefecture": "愛知県",
    "prefecture_kana": "アイチケン",
    "prefecture_code": "23",
    "city": "名古屋市中村区",
    "city_kana": "ナゴヤシナカムラク",
    "town": "名駅ＪＲゲートタワー　３８階",
    "town_kana": "メイエキジェイアールゲートタワー38カイ",
    "street": null,
    "office_name": null,
    "office_name_kana": null
  },
  "6639": {
    "zip_code": "4506639",
    "prefecture": "愛知県",
    "prefecture_kana": "アイチケン",
    "prefecture_code": "23",
    "city": "名古屋市中村区",
    "city_kana": "ナゴヤシナカムラク",
    "town": "名駅ＪＲゲートタワー　３９階",
    "town_kana": "メイエキジェイアールゲートタワー39カイ",
    "street": null,
    "office_name": null,
    "office_name_kana": null
  },
  "6640": {
    "zip_code": "4506640",
    "prefecture": "愛知県",
    "prefecture_kana": "アイチケン",
    "prefecture_code": "23",
    "city": "名古屋市中村区",
    "city_kana": "ナゴヤシナカムラク",
    "town": "名駅ＪＲゲートタワー　４０階",
    "town_kana": "メイエキジェイアールゲートタワー40カイ",
    "street": null,
    "office_name": null,
    "office_name_kana": null
  },
  "6641": {
    "zip_code": "4506641",
    "prefecture": "愛知県",
    "prefecture_kana": "アイチケン",
    "prefecture_code": "23",
    "city": "名古屋市中村区",
    "city_kana": "ナゴヤシナカムラク",
    "town": "名駅ＪＲゲートタワー　４１階",
    "town_kana": "メイエキジェイアールゲートタワー41カイ",
    "street": null,
    "office_name": null,
    "office_name_kana": null
  },
  "6642": {
    "zip_code": "4506642",
    "prefecture": "愛知県",
    "prefecture_kana": "アイチケン",
    "prefecture_code": "23",
    "city": "名古屋市中村区",
    "city_kana": "ナゴヤシナカムラク",
    "town": "名駅ＪＲゲートタワー　４２階",
    "town_kana": "メイエキジェイアールゲートタワー42カイ",
    "street": null,
    "office_name": null,
    "office_name_kana": null
  },
  "6643": {
    "zip_code": "4506643",
    "prefecture": "愛知県",
    "prefecture_kana": "アイチケン",
    "prefecture_code": "23",
    "city": "名古屋市中村区",
    "city_kana": "ナゴヤシナカムラク",
    "town": "名駅ＪＲゲートタワー　４３階",
    "town_kana": "メイエキジェイアールゲートタワー43カイ",
    "street": null,
    "office_name": null,
    "office_name_kana": null
  },
  "6644": {
    "zip_code": "4506644",
    "prefecture": "愛知県",
    "prefecture_kana": "アイチケン",
    "prefecture_code": "23",
    "city": "名古屋市中村区",
    "city_kana": "ナゴヤシナカムラク",
    "town": "名駅ＪＲゲートタワー　４４階",
    "town_kana": "メイエキジェイアールゲートタワー44カイ",
    "street": null,
    "office_name": null,
    "office_name_kana": null
  },
  "6645": {
    "zip_code": "4506645",
    "prefecture": "愛知県",
    "prefecture_kana": "アイチケン",
    "prefecture_code": "23",
    "city": "名古屋市中村区",
    "city_kana": "ナゴヤシナカムラク",
    "town": "名駅ＪＲゲートタワー　４５階",
    "town_kana": "メイエキジェイアールゲートタワー45カイ",
    "street": null,
    "office_name": null,
    "office_name_kana": null
  },
  "6646": {
    "zip_code": "4506646",
    "prefecture": "愛知県",
    "prefecture_kana": "アイチケン",
    "prefecture_code": "23",
    "city": "名古屋市中村区",
    "city_kana": "ナゴヤシナカムラク",
    "town": "名駅ＪＲゲートタワー　４６階",
    "town_kana": "メイエキジェイアールゲートタワー46カイ",
    "street": null,
    "office_name": null,
    "office_name_kana": null
  },
  "6660": {
    "zip_code": "4506660",
    "prefecture": "愛知県",
    "prefecture_kana": "アイチケン",
    "prefecture_code": "23",
    "city": "名古屋市中村区",
    "city_kana": "ナゴヤシナカムラク",
    "town": "名駅",
    "town_kana": "メイエキ",
    "street": "１−１−３",
    "office_name": "名古屋ＪＲゲートタワーホテル",
    "office_name_kana": "ナゴヤジエイア-ルゲ-トタワ-ホテル"
  },
  "6690": {
    "zip_code": "4506690",
    "prefecture": "愛知県",
    "prefecture_kana": "アイチケン",
    "prefecture_code": "23",
    "city": "名古屋市中村区",
    "city_kana": "ナゴヤシナカムラク",
    "town": "名駅ＪＲゲートタワー",
    "town_kana": "メイエキジェイアールゲートタワー",
    "street": null,
    "office_name": null,
    "office_name_kana": null
  },
  "8501": {
    "zip_code": "4508501",
    "prefecture": "愛知県",
    "prefecture_kana": "アイチケン",
    "prefecture_code": "23",
    "city": "名古屋市中村区",
    "city_kana": "ナゴヤシナカムラク",
    "town": "名駅",
    "town_kana": "メイエキ",
    "street": "１丁目２−４",
    "office_name": "名古屋鉄道　株式会社",
    "office_name_kana": "ナゴヤテツドウ カブシキガイシヤ"
  },
  "8503": {
    "zip_code": "4508503",
    "prefecture": "愛知県",
    "prefecture_kana": "アイチケン",
    "prefecture_code": "23",
    "city": "名古屋市中村区",
    "city_kana": "ナゴヤシナカムラク",
    "town": "名駅",
    "town_kana": "メイエキ",
    "street": "２丁目４５−１９桑山ビル８Ｆ",
    "office_name": "郵便局　カタログ販売センター",
    "office_name_kana": "ユウビンキヨク カタログハンバイセンタ-"
  },
  "8505": {
    "zip_code": "4508505",
    "prefecture": "愛知県",
    "prefecture_kana": "アイチケン",
    "prefecture_code": "23",
    "city": "名古屋市中村区",
    "city_kana": "ナゴヤシナカムラク",
    "town": "名駅",
    "town_kana": "メイエキ",
    "street": "１丁目２−１",
    "office_name": "株式会社　名鉄百貨店",
    "office_name_kana": "カブシキガイシヤ メイテツヒヤツカテン"
  },
  "8511": {
    "zip_code": "4508511",
    "prefecture": "愛知県",
    "prefecture_kana": "アイチケン",
    "prefecture_code": "23",
    "city": "名古屋市中村区",
    "city_kana": "ナゴヤシナカムラク",
    "town": "名駅南",
    "town_kana": "メイエキミナミ",
    "street": "２−１−１８",
    "office_name": "株式会社　エディオン",
    "office_name_kana": "カブシキガイシヤ エデイオン"
  },
  "8515": {
    "zip_code": "4508515",
    "prefecture": "愛知県",
    "prefecture_kana": "アイチケン",
    "prefecture_code": "23",
    "city": "名古屋市中村区",
    "city_kana": "ナゴヤシナカムラク",
    "town": "名駅",
    "town_kana": "メイエキ",
    "street": "４丁目７番１号",
    "office_name": "株式会社　ジェイテクト　名古屋本社",
    "office_name_kana": "カブシキガイシヤ ジエイテクト ナゴヤホンシヤ"
  },
  "8520": {
    "zip_code": "4508520",
    "prefecture": "愛知県",
    "prefecture_kana": "アイチケン",
    "prefecture_code": "23",
    "city": "名古屋市中村区",
    "city_kana": "ナゴヤシナカムラク",
    "town": "名駅",
    "town_kana": "メイエキ",
    "street": "３丁目１２−１２",
    "office_name": "三協化成産業　株式会社",
    "office_name_kana": "サンキヨウカセイサンギヨウ カブシキガイシヤ"
  },
  "8523": {
    "zip_code": "4508523",
    "prefecture": "愛知県",
    "prefecture_kana": "アイチケン",
    "prefecture_code": "23",
    "city": "名古屋市中村区",
    "city_kana": "ナゴヤシナカムラク",
    "town": "名駅",
    "town_kana": "メイエキ",
    "street": "３丁目２２−８",
    "office_name": "森定興商　株式会社",
    "office_name_kana": "モリサダコウシヨウ カブシキガイシヤ"
  },
  "8530": {
    "zip_code": "4508530",
    "prefecture": "愛知県",
    "prefecture_kana": "アイチケン",
    "prefecture_code": "23",
    "city": "名古屋市中村区",
    "city_kana": "ナゴヤシナカムラク",
    "town": "名駅",
    "town_kana": "メイエキ",
    "street": "一丁目１番１号ＪＰタワー名古屋",
    "office_name": "有限責任監査法人　トーマツ",
    "office_name_kana": "ユウゲンセキニンカンサホウジン ト-マツ"
  },
  "8533": {
    "zip_code": "4508533",
    "prefecture": "愛知県",
    "prefecture_kana": "アイチケン",
    "prefecture_code": "23",
    "city": "名古屋市中村区",
    "city_kana": "ナゴヤシナカムラク",
    "town": "名駅",
    "town_kana": "メイエキ",
    "street": "２丁目４５−１４日石名駅ビル内",
    "office_name": "株式会社　阪急交通社　名古屋支店",
    "office_name_kana": "カブシキガイシヤ ハンキユウコウツウシヤ ナゴヤシテン"
  },
  "8540": {
    "zip_code": "4508540",
    "prefecture": "愛知県",
    "prefecture_kana": "アイチケン",
    "prefecture_code": "23",
    "city": "名古屋市中村区",
    "city_kana": "ナゴヤシナカムラク",
    "town": "名駅",
    "town_kana": "メイエキ",
    "street": "四丁目５番２８号",
    "office_name": "明和産業　株式会社　名古屋支店",
    "office_name_kana": "メイワサンギヨウ カブシキガイシヤ ナゴヤシテン"
  },
  "8561": {
    "zip_code": "4508561",
    "prefecture": "愛知県",
    "prefecture_kana": "アイチケン",
    "prefecture_code": "23",
    "city": "名古屋市中村区",
    "city_kana": "ナゴヤシナカムラク",
    "town": "名駅",
    "town_kana": "メイエキ",
    "street": "４丁目４−１０",
    "office_name": "株式会社　中部経済新聞社",
    "office_name_kana": "カブシキガイシヤ チユウブケイザイシンブンシヤ"
  },
  "8567": {
    "zip_code": "4508567",
    "prefecture": "愛知県",
    "prefecture_kana": "アイチケン",
    "prefecture_code": "23",
    "city": "名古屋市中村区",
    "city_kana": "ナゴヤシナカムラク",
    "town": "名駅",
    "town_kana": "メイエキ",
    "street": "２丁目４５番７号",
    "office_name": "三機工業　株式会社　名古屋支店",
    "office_name_kana": "サンキコウギヨウ カブシキガイシヤ ナゴヤシテン"
  },
  "8575": {
    "zip_code": "4508575",
    "prefecture": "愛知県",
    "prefecture_kana": "アイチケン",
    "prefecture_code": "23",
    "city": "名古屋市中村区",
    "city_kana": "ナゴヤシナカムラク",
    "town": "名駅",
    "town_kana": "メイエキ",
    "street": "４丁目９−８",
    "office_name": "豊田通商　株式会社",
    "office_name_kana": "トヨタツウシヨウ カブシキガイシヤ"
  },
  "8577": {
    "zip_code": "4508577",
    "prefecture": "愛知県",
    "prefecture_kana": "アイチケン",
    "prefecture_code": "23",
    "city": "名古屋市中村区",
    "city_kana": "ナゴヤシナカムラク",
    "town": "名駅南",
    "town_kana": "メイエキミナミ",
    "street": "２丁目１４−１９（住友生命名古屋ビル内）",
    "office_name": "名鉄観光サービス　株式会社",
    "office_name_kana": "メイテツカンコウサ-ビス カブシキガイシヤ"
  },
  "8583": {
    "zip_code": "4508583",
    "prefecture": "愛知県",
    "prefecture_kana": "アイチケン",
    "prefecture_code": "23",
    "city": "名古屋市中村区",
    "city_kana": "ナゴヤシナカムラク",
    "town": "名駅南",
    "town_kana": "メイエキミナミ",
    "street": "１丁目２４−３０",
    "office_name": "愛知社会保険事務局",
    "office_name_kana": "アイチシヤカイホケンジムキヨク"
  },
  "8585": {
    "zip_code": "4508585",
    "prefecture": "愛知県",
    "prefecture_kana": "アイチケン",
    "prefecture_code": "23",
    "city": "名古屋市中村区",
    "city_kana": "ナゴヤシナカムラク",
    "town": "名駅",
    "town_kana": "メイエキ",
    "street": "５丁目１−７",
    "office_name": "小淺商事　株式会社",
    "office_name_kana": "コアサシヨウジ カブシキガイシヤ"
  },
  "8601": {
    "zip_code": "4508601",
    "prefecture": "愛知県",
    "prefecture_kana": "アイチケン",
    "prefecture_code": "23",
    "city": "名古屋市中村区",
    "city_kana": "ナゴヤシナカムラク",
    "town": "名駅南",
    "town_kana": "メイエキミナミ",
    "street": "２丁目１３番１８号ＮＳビル５階",
    "office_name": "日鉄商事　株式会社　名古屋支店",
    "office_name_kana": "ニツテツシヨウジ カブシキガイシヤ ナゴヤシテン"
  },
  "8611": {
    "zip_code": "4508611",
    "prefecture": "愛知県",
    "prefecture_kana": "アイチケン",
    "prefecture_code": "23",
    "city": "名古屋市中村区",
    "city_kana": "ナゴヤシナカムラク",
    "town": "名駅南",
    "town_kana": "メイエキミナミ",
    "street": "２丁目７−５５",
    "office_name": "松下電工　株式会社　中部管理センター",
    "office_name_kana": "マツシタデンコウ カブシキガイシヤ チユウブカンリセンタ-"
  },
  "8614": {
    "zip_code": "4508614",
    "prefecture": "愛知県",
    "prefecture_kana": "アイチケン",
    "prefecture_code": "23",
    "city": "名古屋市中村区",
    "city_kana": "ナゴヤシナカムラク",
    "town": "名駅南",
    "town_kana": "メイエキミナミ",
    "street": "２丁目６−１７",
    "office_name": "東陽倉庫　株式会社",
    "office_name_kana": "トウヨウソウコ カブシキガイシヤ"
  },
  "8615": {
    "zip_code": "4508615",
    "prefecture": "愛知県",
    "prefecture_kana": "アイチケン",
    "prefecture_code": "23",
    "city": "名古屋市中村区",
    "city_kana": "ナゴヤシナカムラク",
    "town": "名駅南",
    "town_kana": "メイエキミナミ",
    "street": "２丁目１４−１９",
    "office_name": "住友生命保険　相互会社　名古屋支社",
    "office_name_kana": "スミトモセイメイホケン ソウゴガイシヤ ナゴヤシシヤ"
  },
  "8618": {
    "zip_code": "4508618",
    "prefecture": "愛知県",
    "prefecture_kana": "アイチケン",
    "prefecture_code": "23",
    "city": "名古屋市中村区",
    "city_kana": "ナゴヤシナカムラク",
    "town": "名駅南",
    "town_kana": "メイエキミナミ",
    "street": "２丁目１４−１９",
    "office_name": "名鉄協商　株式会社",
    "office_name_kana": "メイテツキヨウシヨウ カブシキガイシヤ"
  },
  "8620": {
    "zip_code": "4508620",
    "prefecture": "愛知県",
    "prefecture_kana": "アイチケン",
    "prefecture_code": "23",
    "city": "名古屋市中村区",
    "city_kana": "ナゴヤシナカムラク",
    "town": "名駅南",
    "town_kana": "メイエキミナミ",
    "street": "３丁目９−３",
    "office_name": "藤田螺子工業　株式会社",
    "office_name_kana": "フジタラシコウギヨウ カブシキガイシヤ"
  },
  "8626": {
    "zip_code": "4508626",
    "prefecture": "愛知県",
    "prefecture_kana": "アイチケン",
    "prefecture_code": "23",
    "city": "名古屋市中村区",
    "city_kana": "ナゴヤシナカムラク",
    "town": "名駅南",
    "town_kana": "メイエキミナミ",
    "street": "１丁目２７番２号日本生命笹島ビル８階",
    "office_name": "名古屋市　ささしま市税事務所",
    "office_name_kana": "ナゴヤシ ササシマシゼイジムシヨ"
  },
  "8640": {
    "zip_code": "4508640",
    "prefecture": "愛知県",
    "prefecture_kana": "アイチケン",
    "prefecture_code": "23",
    "city": "名古屋市中村区",
    "city_kana": "ナゴヤシナカムラク",
    "town": "那古野",
    "town_kana": "ナゴノ",
    "street": "１丁目４３番５号",
    "office_name": "ダイコク電機　株式会社",
    "office_name_kana": "ダイコクデンキ カブシキガイシヤ"
  },
  "8651": {
    "zip_code": "4508651",
    "prefecture": "愛知県",
    "prefecture_kana": "アイチケン",
    "prefecture_code": "23",
    "city": "名古屋市中村区",
    "city_kana": "ナゴヤシナカムラク",
    "town": "名駅",
    "town_kana": "メイエキ",
    "street": "４丁目７番１号",
    "office_name": "株式会社　毎日新聞社　中部本社",
    "office_name_kana": "カブシキガイシヤ マイニチシンブンシヤ チユウブホンシヤ"
  },
  "8677": {
    "zip_code": "4508677",
    "prefecture": "愛知県",
    "prefecture_kana": "アイチケン",
    "prefecture_code": "23",
    "city": "名古屋市中村区",
    "city_kana": "ナゴヤシナカムラク",
    "town": "名駅南",
    "town_kana": "メイエキミナミ",
    "street": "１丁目（名古屋中央郵便局私書箱第１１７号）",
    "office_name": "三井物産　株式会社　中部支社",
    "office_name_kana": "ミツイブツサン カブシキガイシヤ チユウブシシヤ"
  },
  "8680": {
    "zip_code": "4508680",
    "prefecture": "愛知県",
    "prefecture_kana": "アイチケン",
    "prefecture_code": "23",
    "city": "名古屋市中村区",
    "city_kana": "ナゴヤシナカムラク",
    "town": "名駅",
    "town_kana": "メイエキ",
    "street": "１丁目１番４号ＪＲセントラルタワーズ（名古屋中央郵便局私書箱第２０５号）",
    "office_name": "三菱商事　株式会社　中部支社",
    "office_name_kana": "ミツビシシヨウジ カブシキガイシヤ チユウブシシヤ"
  },
  "8711": {
    "zip_code": "4508711",
    "prefecture": "愛知県",
    "prefecture_kana": "アイチケン",
    "prefecture_code": "23",
    "city": "名古屋市中村区",
    "city_kana": "ナゴヤシナカムラク",
    "town": "名駅",
    "town_kana": "メイエキ",
    "street": "４丁目７番１号",
    "office_name": "トヨタ自動車　株式会社　名古屋オフィス",
    "office_name_kana": "トヨタジドウシヤ カブシキガイシヤ ナゴヤオフイス"
  },
  "8730": {
    "zip_code": "4508730",
    "prefecture": "愛知県",
    "prefecture_kana": "アイチケン",
    "prefecture_code": "23",
    "city": "名古屋市中村区",
    "city_kana": "ナゴヤシナカムラク",
    "town": "名駅南",
    "town_kana": "メイエキミナミ",
    "street": "４丁目１１−３９",
    "office_name": "日通商事　株式会社　名古屋支店",
    "office_name_kana": "ニツツウシヨウジ カブシキガイシヤ ナゴヤシテン"
  },
  "8765": {
    "zip_code": "4508765",
    "prefecture": "愛知県",
    "prefecture_kana": "アイチケン",
    "prefecture_code": "23",
    "city": "名古屋市中村区",
    "city_kana": "ナゴヤシナカムラク",
    "town": "名駅南",
    "town_kana": "メイエキミナミ",
    "street": "１丁目１７−２９広小路ＥＳビル３階",
    "office_name": "株式会社　クレディセゾン　東海支店",
    "office_name_kana": "カブシキガイシヤ クレデイセゾン トウカイシテン"
  },
  "8993": {
    "zip_code": "4508993",
    "prefecture": "愛知県",
    "prefecture_kana": "アイチケン",
    "prefecture_code": "23",
    "city": "名古屋市中村区",
    "city_kana": "ナゴヤシナカムラク",
    "town": "名駅",
    "town_kana": "メイエキ",
    "street": "一丁目１番１号ＪＰタワー名古屋",
    "office_name": "ゆうちょ銀行　名古屋中央店",
    "office_name_kana": "ユウチヨギンコウ ナゴヤチユウオウテン"
  },
  "8995": {
    "zip_code": "4508995",
    "prefecture": "愛知県",
    "prefecture_kana": "アイチケン",
    "prefecture_code": "23",
    "city": "名古屋市中村区",
    "city_kana": "ナゴヤシナカムラク",
    "town": "名駅",
    "town_kana": "メイエキ",
    "street": "一丁目１番１号ＪＰタワー名古屋",
    "office_name": "株式会社　ゆうちょ銀行　東海エリア本部",
    "office_name_kana": "カブシキカイシヤ ユウチヨギンコウ トウカイエリアホンブ"
  },
  "8996": {
    "zip_code": "4508996",
    "prefecture": "愛知県",
    "prefecture_kana": "アイチケン",
    "prefecture_code": "23",
    "city": "名古屋市中村区",
    "city_kana": "ナゴヤシナカムラク",
    "town": "名駅",
    "town_kana": "メイエキ",
    "street": "一丁目１番１号ＪＰタワー名古屋",
    "office_name": "日本郵政　株式会社　東海郵政健康管理センター",
    "office_name_kana": "ニツポンユウセイ カブシキガイシヤ トウカイユウセイケンコウカンリセンタ-"
  },
  "8997": {
    "zip_code": "4508997",
    "prefecture": "愛知県",
    "prefecture_kana": "アイチケン",
    "prefecture_code": "23",
    "city": "名古屋市中村区",
    "city_kana": "ナゴヤシナカムラク",
    "town": "名駅",
    "town_kana": "メイエキ",
    "street": "一丁目１番１号ＪＰタワー名古屋",
    "office_name": "日本郵政　株式会社　中部施設センター",
    "office_name_kana": "ニツポンユウセイ カブシキガイシヤ チユウブシセツセンタ-"
  }
}