{
  "0000": {
    "zip_code": "4530000",
    "prefecture": "愛知県",
    "prefecture_kana": "アイチケン",
    "prefecture_code": "23",
    "city": "名古屋市中村区",
    "city_kana": "ナゴヤシナカムラク",
    "town": "",
    "town_kana": "",
    "street": null,
    "office_name": null,
    "office_name_kana": null
  },
  "0002": {
    "zip_code": "4530002",
    "prefecture": "愛知県",
    "prefecture_kana": "アイチケン",
    "prefecture_code": "23",
    "city": "名古屋市中村区",
    "city_kana": "ナゴヤシナカムラク",
    "town": "名駅",
    "town_kana": "メイエキ",
    "street": null,
    "office_name": null,
    "office_name_kana": null
  },
  "0011": {
    "zip_code": "4530011",
    "prefecture": "愛知県",
    "prefecture_kana": "アイチケン",
    "prefecture_code": "23",
    "city": "名古屋市中村区",
    "city_kana": "ナゴヤシナカムラク",
    "town": "千原町",
    "town_kana": "チハラチョウ",
    "street": null,
    "office_name": null,
    "office_name_kana": null
  },
  "0012": {
    "zip_code": "4530012",
    "prefecture": "愛知県",
    "prefecture_kana": "アイチケン",
    "prefecture_code": "23",
    "city": "名古屋市中村区",
    "city_kana": "ナゴヤシナカムラク",
    "town": "井深町",
    "town_kana": "イブカチョウ",
    "street": null,
    "office_name": null,
    "office_name_kana": null
  },
  "0013": {
    "zip_code": "4530013",
    "prefecture": "愛知県",
    "prefecture_kana": "アイチケン",
    "prefecture_code": "23",
    "city": "名古屋市中村区",
    "city_kana": "ナゴヤシナカムラク",
    "town": "亀島",
    "town_kana": "カメジマ",
    "street": null,
    "office_name": null,
    "office_name_kana": null
  },
  "0014": {
    "zip_code": "4530014",
    "prefecture": "愛知県",
    "prefecture_kana": "アイチケン",
    "prefecture_code": "23",
    "city": "名古屋市中村区",
    "city_kana": "ナゴヤシナカムラク",
    "town": "則武",
    "town_kana": "ノリタケ",
    "street": null,
    "office_name": null,
    "office_name_kana": null
  },
  "0015": {
    "zip_code": "4530015",
    "prefecture": "愛知県",
    "prefecture_kana": "アイチケン",
    "prefecture_code": "23",
    "city": "名古屋市中村区",
    "city_kana": "ナゴヤシナカムラク",
    "town": "椿町",
    "town_kana": "ツバキチョウ",
    "street": null,
    "office_name": null,
    "office_name_kana": null
  },
  "0016": {
    "zip_code": "4530016",
    "prefecture": "愛知県",
    "prefecture_kana": "アイチケン",
    "prefecture_code": "23",
    "city": "名古屋市中村区",
    "city_kana": "ナゴヤシナカムラク",
    "town": "竹橋町",
    "town_kana": "タケバシチョウ",
    "street": null,
    "office_name": null,
    "office_name_kana": null
  },
  "0017": {
    "zip_code": "4530017",
    "prefecture": "愛知県",
    "prefecture_kana": "アイチケン",
    "prefecture_code": "23",
    "city": "名古屋市中村区",
    "city_kana": "ナゴヤシナカムラク",
    "town": "則武本通",
    "town_kana": "ノリタケホントオリ",
    "street": null,
    "office_name": null,
    "office_name_kana": null
  },
  "0018": {
    "zip_code": "4530018",
    "prefecture": "愛知県",
    "prefecture_kana": "アイチケン",
    "prefecture_code": "23",
    "city": "名古屋市中村区",
    "city_kana": "ナゴヤシナカムラク",
    "town": "佐古前町",
    "town_kana": "サコマエチョウ",
    "street": null,
    "office_name": null,
    "office_name_kana": null
  },
  "0021": {
    "zip_code": "4530021",
    "prefecture": "愛知県",
    "prefecture_kana": "アイチケン",
    "prefecture_code": "23",
    "city": "名古屋市中村区",
    "city_kana": "ナゴヤシナカムラク",
    "town": "松原町",
    "town_kana": "マツバラチョウ",
    "street": null,
    "office_name": null,
    "office_name_kana": null
  },
  "0022": {
    "zip_code": "4530022",
    "prefecture": "愛知県",
    "prefecture_kana": "アイチケン",
    "prefecture_code": "23",
    "city": "名古屋市中村区",
    "city_kana": "ナゴヤシナカムラク",
    "town": "中島町",
    "town_kana": "ナカジマチョウ",
    "street": null,
    "office_name": null,
    "office_name_kana": null
  },
  "0023": {
    "zip_code": "4530023",
    "prefecture": "愛知県",
    "prefecture_kana": "アイチケン",
    "prefecture_code": "23",
    "city": "名古屋市中村区",
    "city_kana": "ナゴヤシナカムラク",
    "town": "若宮町",
    "town_kana": "ワカミヤチョウ",
    "street": null,
    "office_name": null,
    "office_name_kana": null
  },
  "0024": {
    "zip_code": "4530024",
    "prefecture": "愛知県",
    "prefecture_kana": "アイチケン",
    "prefecture_code": "23",
    "city": "名古屋市中村区",
    "city_kana": "ナゴヤシナカムラク",
    "town": "名楽町",
    "town_kana": "メイラクチョウ",
    "street": null,
    "office_name": null,
    "office_name_kana": null
  },
  "0025": {
    "zip_code": "4530025",
    "prefecture": "愛知県",
    "prefecture_kana": "アイチケン",
    "prefecture_code": "23",
    "city": "名古屋市中村区",
    "city_kana": "ナゴヤシナカムラク",
    "town": "賑町",
    "town_kana": "ニギワイチョウ",
    "street": null,
    "office_name": null,
    "office_name_kana": null
  },
  "0026": {
    "zip_code": "4530026",
    "prefecture": "愛知県",
    "prefecture_kana": "アイチケン",
    "prefecture_code": "23",
    "city": "名古屋市中村区",
    "city_kana": "ナゴヤシナカムラク",
    "town": "羽衣町",
    "town_kana": "ハゴロモチョウ",
    "street": null,
    "office_name": null,
    "office_name_kana": null
  },
  "0027": {
    "zip_code": "4530027",
    "prefecture": "愛知県",
    "prefecture_kana": "アイチケン",
    "prefecture_code": "23",
    "city": "名古屋市中村区",
    "city_kana": "ナゴヤシナカムラク",
    "town": "大門町",
    "town_kana": "オオモンチョウ",
    "street": null,
    "office_name": null,
    "office_name_kana": null
  },
  "0028": {
    "zip_code": "4530028",
    "prefecture": "愛知県",
    "prefecture_kana": "アイチケン",
    "prefecture_code": "23",
    "city": "名古屋市中村区",
    "city_kana": "ナゴヤシナカムラク",
    "town": "寿町",
    "town_kana": "コトブキチョウ",
    "street": null,
    "office_name": null,
    "office_name_kana": null
  },
  "0029": {
    "zip_code": "4530029",
    "prefecture": "愛知県",
    "prefecture_kana": "アイチケン",
    "prefecture_code": "23",
    "city": "名古屋市中村区",
    "city_kana": "ナゴヤシナカムラク",
    "town": "日吉町",
    "town_kana": "ヒヨシチョウ",
    "street": null,
    "office_name": null,
    "office_name_kana": null
  },
  "0031": {
    "zip_code": "4530031",
    "prefecture": "愛知県",
    "prefecture_kana": "アイチケン",
    "prefecture_code": "23",
    "city": "名古屋市中村区",
    "city_kana": "ナゴヤシナカムラク",
    "town": "新富町",
    "town_kana": "シントミチョウ",
    "street": null,
    "office_name": null,
    "office_name_kana": null
  },
  "0032": {
    "zip_code": "4530032",
    "prefecture": "愛知県",
    "prefecture_kana": "アイチケン",
    "prefecture_code": "23",
    "city": "名古屋市中村区",
    "city_kana": "ナゴヤシナカムラク",
    "town": "塩池町",
    "town_kana": "シオイケチョウ",
    "street": null,
    "office_name": null,
    "office_name_kana": null
  },
  "0033": {
    "zip_code": "4530033",
    "prefecture": "愛知県",
    "prefecture_kana": "アイチケン",
    "prefecture_code": "23",
    "city": "名古屋市中村区",
    "city_kana": "ナゴヤシナカムラク",
    "town": "栄生町",
    "town_kana": "サコチョウ",
    "street": null,
    "office_name": null,
    "office_name_kana": null
  },
  "0034": {
    "zip_code": "4530034",
    "prefecture": "愛知県",
    "prefecture_kana": "アイチケン",
    "prefecture_code": "23",
    "city": "名古屋市中村区",
    "city_kana": "ナゴヤシナカムラク",
    "town": "大日町",
    "town_kana": "ダイニチチョウ",
    "street": null,
    "office_name": null,
    "office_name_kana": null
  },
  "0035": {
    "zip_code": "4530035",
    "prefecture": "愛知県",
    "prefecture_kana": "アイチケン",
    "prefecture_code": "23",
    "city": "名古屋市中村区",
    "city_kana": "ナゴヤシナカムラク",
    "town": "十王町",
    "town_kana": "ジュウオウチョウ",
    "street": null,
    "office_name": null,
    "office_name_kana": null
  },
  "0036": {
    "zip_code": "4530036",
    "prefecture": "愛知県",
    "prefecture_kana": "アイチケン",
    "prefecture_code": "23",
    "city": "名古屋市中村区",
    "city_kana": "ナゴヤシナカムラク",
    "town": "森田町",
    "town_kana": "モリタチョウ",
    "street": null,
    "office_name": null,
    "office_name_kana": null
  },
  "0037": {
    "zip_code": "4530037",
    "prefecture": "愛知県",
    "prefecture_kana": "アイチケン",
    "prefecture_code": "23",
    "city": "名古屋市中村区",
    "city_kana": "ナゴヤシナカムラク",
    "town": "高道町",
    "town_kana": "タカミチチョウ",
    "street": null,
    "office_name": null,
    "office_name_kana": null
  },
  "0038": {
    "zip_code": "4530038",
    "prefecture": "愛知県",
    "prefecture_kana": "アイチケン",
    "prefecture_code": "23",
    "city": "名古屋市中村区",
    "city_kana": "ナゴヤシナカムラク",
    "town": "猪之越町",
    "town_kana": "イノコシチョウ",
    "street": null,
    "office_name": null,
    "office_name_kana": null
  },
  "0041": {
    "zip_code": "4530041",
    "prefecture": "愛知県",
    "prefecture_kana": "アイチケン",
    "prefecture_code": "23",
    "city": "名古屋市中村区",
    "city_kana": "ナゴヤシナカムラク",
    "town": "本陣通",
    "town_kana": "ホンジントオリ",
    "street": null,
    "office_name": null,
    "office_name_kana": null
  },
  "0042": {
    "zip_code": "4530042",
    "prefecture": "愛知県",
    "prefecture_kana": "アイチケン",
    "prefecture_code": "23",
    "city": "名古屋市中村区",
    "city_kana": "ナゴヤシナカムラク",
    "town": "大秋町",
    "town_kana": "オオアキチョウ",
    "street": null,
    "office_name": null,
    "office_name_kana": null
  },
  "0043": {
    "zip_code": "4530043",
    "prefecture": "愛知県",
    "prefecture_kana": "アイチケン",
    "prefecture_code": "23",
    "city": "名古屋市中村区",
    "city_kana": "ナゴヤシナカムラク",
    "town": "上ノ宮町",
    "town_kana": "カミノミヤチョウ",
    "street": null,
    "office_name": null,
    "office_name_kana": null
  },
  "0044": {
    "zip_code": "4530044",
    "prefecture": "愛知県",
    "prefecture_kana": "アイチケン",
    "prefecture_code": "23",
    "city": "名古屋市中村区",
    "city_kana": "ナゴヤシナカムラク",
    "town": "鳥居通",
    "town_kana": "トリイトオリ",
    "street": null,
    "office_name": null,
    "office_name_kana": null
  },
  "0045": {
    "zip_code": "4530045",
    "prefecture": "愛知県",
    "prefecture_kana": "アイチケン",
    "prefecture_code": "23",
    "city": "名古屋市中村区",
    "city_kana": "ナゴヤシナカムラク",
    "town": "藤江町",
    "town_kana": "フジエチョウ",
    "street": null,
    "office_name": null,
    "office_name_kana": null
  },
  "0046": {
    "zip_code": "4530046",
    "prefecture": "愛知県",
    "prefecture_kana": "アイチケン",
    "prefecture_code": "23",
    "city": "名古屋市中村区",
    "city_kana": "ナゴヤシナカムラク",
    "town": "道下町",
    "town_kana": "ミチシタチョウ",
    "street": null,
    "office_name": null,
    "office_name_kana": null
  },
  "0047": {
    "zip_code": "4530047",
    "prefecture": "愛知県",
    "prefecture_kana": "アイチケン",
    "prefecture_code": "23",
    "city": "名古屋市中村区",
    "city_kana": "ナゴヤシナカムラク",
    "town": "元中村町",
    "town_kana": "モトナカムラチョウ",
    "street": null,
    "office_name": null,
    "office_name_kana": null
  },
  "0051": {
    "zip_code": "4530051",
    "prefecture": "愛知県",
    "prefecture_kana": "アイチケン",
    "prefecture_code": "23",
    "city": "名古屋市中村区",
    "city_kana": "ナゴヤシナカムラク",
    "town": "豊幡町",
    "town_kana": "トヨバタチョウ",
    "street": null,
    "office_name": null,
    "office_name_kana": null
  },
  "0052": {
    "zip_code": "4530052",
    "prefecture": "愛知県",
    "prefecture_kana": "アイチケン",
    "prefecture_code": "23",
    "city": "名古屋市中村区",
    "city_kana": "ナゴヤシナカムラク",
    "town": "森末町",
    "town_kana": "モリスエチョウ",
    "street": null,
    "office_name": null,
    "office_name_kana": null
  },
  "0053": {
    "zip_code": "4530053",
    "prefecture": "愛知県",
    "prefecture_kana": "アイチケン",
    "prefecture_code": "23",
    "city": "名古屋市中村区",
    "city_kana": "ナゴヤシナカムラク",
    "town": "中村町",
    "town_kana": "ナカムラチョウ",
    "street": null,
    "office_name": null,
    "office_name_kana": null
  },
  "0054": {
    "zip_code": "4530054",
    "prefecture": "愛知県",
    "prefecture_kana": "アイチケン",
    "prefecture_code": "23",
    "city": "名古屋市中村区",
    "city_kana": "ナゴヤシナカムラク",
    "town": "鳥居西通",
    "town_kana": "トリイニシトオリ",
    "street": null,
    "office_name": null,
    "office_name_kana": null
  },
  "0055": {
    "zip_code": "4530055",
    "prefecture": "愛知県",
    "prefecture_kana": "アイチケン",
    "prefecture_code": "23",
    "city": "名古屋市中村区",
    "city_kana": "ナゴヤシナカムラク",
    "town": "香取町",
    "town_kana": "カトリチョウ",
    "street": null,
    "office_name": null,
    "office_name_kana": null
  },
  "0056": {
    "zip_code": "4530056",
    "prefecture": "愛知県",
    "prefecture_kana": "アイチケン",
    "prefecture_code": "23",
    "city": "名古屋市中村区",
    "city_kana": "ナゴヤシナカムラク",
    "town": "砂田町",
    "town_kana": "スナダチョウ",
    "street": null,
    "office_name": null,
    "office_name_kana": null
  },
  "0057": {
    "zip_code": "4530057",
    "prefecture": "愛知県",
    "prefecture_kana": "アイチケン",
    "prefecture_code": "23",
    "city": "名古屋市中村区",
    "city_kana": "ナゴヤシナカムラク",
    "town": "稲葉地本通",
    "town_kana": "イナバジホントオリ",
    "street": null,
    "office_name": null,
    "office_name_kana": null
  },
  "0058": {
    "zip_code": "4530058",
    "prefecture": "愛知県",
    "prefecture_kana": "アイチケン",
    "prefecture_code": "23",
    "city": "名古屋市中村区",
    "city_kana": "ナゴヤシナカムラク",
    "town": "城屋敷町",
    "town_kana": "シロヤシキチョウ",
    "street": null,
    "office_name": null,
    "office_name_kana": null
  },
  "0061": {
    "zip_code": "4530061",
    "prefecture": "愛知県",
    "prefecture_kana": "アイチケン",
    "prefecture_code": "23",
    "city": "名古屋市中村区",
    "city_kana": "ナゴヤシナカムラク",
    "town": "日比津町",
    "town_kana": "ヒビツチョウ",
    "street": null,
    "office_name": null,
    "office_name_kana": null
  },
  "0062": {
    "zip_code": "4530062",
    "prefecture": "愛知県",
    "prefecture_kana": "アイチケン",
    "prefecture_code": "23",
    "city": "名古屋市中村区",
    "city_kana": "ナゴヤシナカムラク",
    "town": "諏訪町",
    "town_kana": "スワチョウ",
    "street": null,
    "office_name": null,
    "office_name_kana": null
  },
  "0063": {
    "zip_code": "4530063",
    "prefecture": "愛知県",
    "prefecture_kana": "アイチケン",
    "prefecture_code": "23",
    "city": "名古屋市中村区",
    "city_kana": "ナゴヤシナカムラク",
    "town": "東宿町",
    "town_kana": "ヒガシジュクチョウ",
    "street": null,
    "office_name": null,
    "office_name_kana": null
  },
  "0064": {
    "zip_code": "4530064",
    "prefecture": "愛知県",
    "prefecture_kana": "アイチケン",
    "prefecture_code": "23",
    "city": "名古屋市中村区",
    "city_kana": "ナゴヤシナカムラク",
    "town": "草薙町",
    "town_kana": "クサナギチョウ",
    "street": null,
    "office_name": null,
    "office_name_kana": null
  },
  "0065": {
    "zip_code": "4530065",
    "prefecture": "愛知県",
    "prefecture_kana": "アイチケン",
    "prefecture_code": "23",
    "city": "名古屋市中村区",
    "city_kana": "ナゴヤシナカムラク",
    "town": "靖国町",
    "town_kana": "ヤスクニチョウ",
    "street": null,
    "office_name": null,
    "office_name_kana": null
  },
  "0066": {
    "zip_code": "4530066",
    "prefecture": "愛知県",
    "prefecture_kana": "アイチケン",
    "prefecture_code": "23",
    "city": "名古屋市中村区",
    "city_kana": "ナゴヤシナカムラク",
    "town": "稲上町",
    "town_kana": "イナカミチョウ",
    "street": null,
    "office_name": null,
    "office_name_kana": null
  },
  "0067": {
    "zip_code": "4530067",
    "prefecture": "愛知県",
    "prefecture_kana": "アイチケン",
    "prefecture_code": "23",
    "city": "名古屋市中村区",
    "city_kana": "ナゴヤシナカムラク",
    "town": "宿跡町",
    "town_kana": "シュクアトチョウ",
    "street": null,
    "office_name": null,
    "office_name_kana": null
  },
  "0068": {
    "zip_code": "4530068",
    "prefecture": "愛知県",
    "prefecture_kana": "アイチケン",
    "prefecture_code": "23",
    "city": "名古屋市中村区",
    "city_kana": "ナゴヤシナカムラク",
    "town": "菊水町",
    "town_kana": "キクスイチョウ",
    "street": null,
    "office_name": null,
    "office_name_kana": null
  },
  "0069": {
    "zip_code": "4530069",
    "prefecture": "愛知県",
    "prefecture_kana": "アイチケン",
    "prefecture_code": "23",
    "city": "名古屋市中村区",
    "city_kana": "ナゴヤシナカムラク",
    "town": "橋下町",
    "town_kana": "ハシシタチョウ",
    "street": null,
    "office_name": null,
    "office_name_kana": null
  },
  "0801": {
    "zip_code": "4530801",
    "prefecture": "愛知県",
    "prefecture_kana": "アイチケン",
    "prefecture_code": "23",
    "city": "名古屋市中村区",
    "city_kana": "ナゴヤシナカムラク",
    "town": "太閤",
    "town_kana": "タイコウ",
    "street": null,
    "office_name": null,
    "office_name_kana": null
  },
  "0802": {
    "zip_code": "4530802",
    "prefecture": "愛知県",
    "prefecture_kana": "アイチケン",
    "prefecture_code": "23",
    "city": "名古屋市中村区",
    "city_kana": "ナゴヤシナカムラク",
    "town": "下米野町",
    "town_kana": "シモコメノチョウ",
    "street": null,
    "office_name": null,
    "office_name_kana": null
  },
  "0803": {
    "zip_code": "4530803",
    "prefecture": "愛知県",
    "prefecture_kana": "アイチケン",
    "prefecture_code": "23",
    "city": "名古屋市中村区",
    "city_kana": "ナゴヤシナカムラク",
    "town": "長戸井町",
    "town_kana": "ナガトイチョウ",
    "street": null,
    "office_name": null,
    "office_name_kana": null
  },
  "0804": {
    "zip_code": "4530804",
    "prefecture": "愛知県",
    "prefecture_kana": "アイチケン",
    "prefecture_code": "23",
    "city": "名古屋市中村区",
    "city_kana": "ナゴヤシナカムラク",
    "town": "黄金通",
    "town_kana": "オウゴンドオリ",
    "street": null,
    "office_name": null,
    "office_name_kana": null
  },
  "0805": {
    "zip_code": "4530805",
    "prefecture": "愛知県",
    "prefecture_kana": "アイチケン",
    "prefecture_code": "23",
    "city": "名古屋市中村区",
    "city_kana": "ナゴヤシナカムラク",
    "town": "深川町",
    "town_kana": "フカガワチョウ",
    "street": null,
    "office_name": null,
    "office_name_kana": null
  },
  "0806": {
    "zip_code": "4530806",
    "prefecture": "愛知県",
    "prefecture_kana": "アイチケン",
    "prefecture_code": "23",
    "city": "名古屋市中村区",
    "city_kana": "ナゴヤシナカムラク",
    "town": "大正町",
    "town_kana": "タイショウチョウ",
    "street": null,
    "office_name": null,
    "office_name_kana": null
  },
  "0807": {
    "zip_code": "4530807",
    "prefecture": "愛知県",
    "prefecture_kana": "アイチケン",
    "prefecture_code": "23",
    "city": "名古屋市中村区",
    "city_kana": "ナゴヤシナカムラク",
    "town": "権現通",
    "town_kana": "ゴンゲントオリ",
    "street": null,
    "office_name": null,
    "office_name_kana": null
  },
  "0808": {
    "zip_code": "4530808",
    "prefecture": "愛知県",
    "prefecture_kana": "アイチケン",
    "prefecture_code": "23",
    "city": "名古屋市中村区",
    "city_kana": "ナゴヤシナカムラク",
    "town": "郷前町",
    "town_kana": "ゴウマエチョウ",
    "street": null,
    "office_name": null,
    "office_name_kana": null
  },
  "0809": {
    "zip_code": "4530809",
    "prefecture": "愛知県",
    "prefecture_kana": "アイチケン",
    "prefecture_code": "23",
    "city": "名古屋市中村区",
    "city_kana": "ナゴヤシナカムラク",
    "town": "上米野町",
    "town_kana": "カミコメノチョウ",
    "street": null,
    "office_name": null,
    "office_name_kana": null
  },
  "0811": {
    "zip_code": "4530811",
    "prefecture": "愛知県",
    "prefecture_kana": "アイチケン",
    "prefecture_code": "23",
    "city": "名古屋市中村区",
    "city_kana": "ナゴヤシナカムラク",
    "town": "太閤通",
    "town_kana": "タイコウトオリ",
    "street": null,
    "office_name": null,
    "office_name_kana": null
  },
  "0812": {
    "zip_code": "4530812",
    "prefecture": "愛知県",
    "prefecture_kana": "アイチケン",
    "prefecture_code": "23",
    "city": "名古屋市中村区",
    "city_kana": "ナゴヤシナカムラク",
    "town": "西米野町",
    "town_kana": "ニシコメノチョウ",
    "street": null,
    "office_name": null,
    "office_name_kana": null
  },
  "0813": {
    "zip_code": "4530813",
    "prefecture": "愛知県",
    "prefecture_kana": "アイチケン",
    "prefecture_code": "23",
    "city": "名古屋市中村区",
    "city_kana": "ナゴヤシナカムラク",
    "town": "二ツ橋町",
    "town_kana": "フタツバシチョウ",
    "street": null,
    "office_name": null,
    "office_name_kana": null
  },
  "0814": {
    "zip_code": "4530814",
    "prefecture": "愛知県",
    "prefecture_kana": "アイチケン",
    "prefecture_code": "23",
    "city": "名古屋市中村区",
    "city_kana": "ナゴヤシナカムラク",
    "town": "熊野町",
    "town_kana": "クマノチョウ",
    "street": null,
    "office_name": null,
    "office_name_kana": null
  },
  "0815": {
    "zip_code": "4530815",
    "prefecture": "愛知県",
    "prefecture_kana": "アイチケン",
    "prefecture_code": "23",
    "city": "名古屋市中村区",
    "city_kana": "ナゴヤシナカムラク",
    "town": "北畑町",
    "town_kana": "キタハタチョウ",
    "street": null,
    "office_name": null,
    "office_name_kana": null
  },
  "0816": {
    "zip_code": "4530816",
    "prefecture": "愛知県",
    "prefecture_kana": "アイチケン",
    "prefecture_code": "23",
    "city": "名古屋市中村区",
    "city_kana": "ナゴヤシナカムラク",
    "town": "京田町",
    "town_kana": "キョウデンチョウ",
    "street": null,
    "office_name": null,
    "office_name_kana": null
  },
  "0817": {
    "zip_code": "4530817",
    "prefecture": "愛知県",
    "prefecture_kana": "アイチケン",
    "prefecture_code": "23",
    "city": "名古屋市中村区",
    "city_kana": "ナゴヤシナカムラク",
    "town": "白子町",
    "town_kana": "シラコチョウ",
    "street": null,
    "office_name": null,
    "office_name_kana": null
  },
  "0818": {
    "zip_code": "4530818",
    "prefecture": "愛知県",
    "prefecture_kana": "アイチケン",
    "prefecture_code": "23",
    "city": "名古屋市中村区",
    "city_kana": "ナゴヤシナカムラク",
    "town": "千成通",
    "town_kana": "センナリトオリ",
    "street": null,
    "office_name": null,
    "office_name_kana": null
  },
  "0819": {
    "zip_code": "4530819",
    "prefecture": "愛知県",
    "prefecture_kana": "アイチケン",
    "prefecture_code": "23",
    "city": "名古屋市中村区",
    "city_kana": "ナゴヤシナカムラク",
    "town": "城主町",
    "town_kana": "ジョウシュチョウ",
    "street": null,
    "office_name": null,
    "office_name_kana": null
  },
  "0821": {
    "zip_code": "4530821",
    "prefecture": "愛知県",
    "prefecture_kana": "アイチケン",
    "prefecture_code": "23",
    "city": "名古屋市中村区",
    "city_kana": "ナゴヤシナカムラク",
    "town": "大宮町",
    "town_kana": "オオミヤチョウ",
    "street": null,
    "office_name": null,
    "office_name_kana": null
  },
  "0822": {
    "zip_code": "4530822",
    "prefecture": "愛知県",
    "prefecture_kana": "アイチケン",
    "prefecture_code": "23",
    "city": "名古屋市中村区",
    "city_kana": "ナゴヤシナカムラク",
    "town": "名西通",
    "town_kana": "メイセイトオリ",
    "street": null,
    "office_name": null,
    "office_name_kana": null
  },
  "0823": {
    "zip_code": "4530823",
    "prefecture": "愛知県",
    "prefecture_kana": "アイチケン",
    "prefecture_code": "23",
    "city": "名古屋市中村区",
    "city_kana": "ナゴヤシナカムラク",
    "town": "日ノ宮町",
    "town_kana": "ヒノミヤチョウ",
    "street": null,
    "office_name": null,
    "office_name_kana": null
  },
  "0824": {
    "zip_code": "4530824",
    "prefecture": "愛知県",
    "prefecture_kana": "アイチケン",
    "prefecture_code": "23",
    "city": "名古屋市中村区",
    "city_kana": "ナゴヤシナカムラク",
    "town": "北浦町",
    "town_kana": "キタウラチョウ",
    "street": null,
    "office_name": null,
    "office_name_kana": null
  },
  "0825": {
    "zip_code": "4530825",
    "prefecture": "愛知県",
    "prefecture_kana": "アイチケン",
    "prefecture_code": "23",
    "city": "名古屋市中村区",
    "city_kana": "ナゴヤシナカムラク",
    "town": "沖田町",
    "town_kana": "オキタチョウ",
    "street": null,
    "office_name": null,
    "office_name_kana": null
  },
  "0826": {
    "zip_code": "4530826",
    "prefecture": "愛知県",
    "prefecture_kana": "アイチケン",
    "prefecture_code": "23",
    "city": "名古屋市中村区",
    "city_kana": "ナゴヤシナカムラク",
    "town": "鈍池町",
    "town_kana": "ニブイケチョウ",
    "street": null,
    "office_name": null,
    "office_name_kana": null
  },
  "0827": {
    "zip_code": "4530827",
    "prefecture": "愛知県",
    "prefecture_kana": "アイチケン",
    "prefecture_code": "23",
    "city": "名古屋市中村区",
    "city_kana": "ナゴヤシナカムラク",
    "town": "下中村町",
    "town_kana": "シモナカムラチョウ",
    "street": null,
    "office_name": null,
    "office_name_kana": null
  },
  "0828": {
    "zip_code": "4530828",
    "prefecture": "愛知県",
    "prefecture_kana": "アイチケン",
    "prefecture_code": "23",
    "city": "名古屋市中村区",
    "city_kana": "ナゴヤシナカムラク",
    "town": "中村本町",
    "town_kana": "ナカムラホンマチ",
    "street": null,
    "office_name": null,
    "office_name_kana": null
  },
  "0831": {
    "zip_code": "4530831",
    "prefecture": "愛知県",
    "prefecture_kana": "アイチケン",
    "prefecture_code": "23",
    "city": "名古屋市中村区",
    "city_kana": "ナゴヤシナカムラク",
    "town": "中村中町",
    "town_kana": "ナカムラナカマチ",
    "street": null,
    "office_name": null,
    "office_name_kana": null
  },
  "0832": {
    "zip_code": "4530832",
    "prefecture": "愛知県",
    "prefecture_kana": "アイチケン",
    "prefecture_code": "23",
    "city": "名古屋市中村区",
    "city_kana": "ナゴヤシナカムラク",
    "town": "乾出町",
    "town_kana": "イヌイデチョウ",
    "street": null,
    "office_name": null,
    "office_name_kana": null
  },
  "0833": {
    "zip_code": "4530833",
    "prefecture": "愛知県",
    "prefecture_kana": "アイチケン",
    "prefecture_code": "23",
    "city": "名古屋市中村区",
    "city_kana": "ナゴヤシナカムラク",
    "town": "押木田町",
    "town_kana": "オシキダチョウ",
    "street": null,
    "office_name": null,
    "office_name_kana": null
  },
  "0834": {
    "zip_code": "4530834",
    "prefecture": "愛知県",
    "prefecture_kana": "アイチケン",
    "prefecture_code": "23",
    "city": "名古屋市中村区",
    "city_kana": "ナゴヤシナカムラク",
    "town": "豊国通",
    "town_kana": "トヨクニトオリ",
    "street": null,
    "office_name": null,
    "office_name_kana": null
  },
  "0835": {
    "zip_code": "4530835",
    "prefecture": "愛知県",
    "prefecture_kana": "アイチケン",
    "prefecture_code": "23",
    "city": "名古屋市中村区",
    "city_kana": "ナゴヤシナカムラク",
    "town": "上石川町",
    "town_kana": "カミイシカワチョウ",
    "street": null,
    "office_name": null,
    "office_name_kana": null
  },
  "0836": {
    "zip_code": "4530836",
    "prefecture": "愛知県",
    "prefecture_kana": "アイチケン",
    "prefecture_code": "23",
    "city": "名古屋市中村区",
    "city_kana": "ナゴヤシナカムラク",
    "town": "五反城町",
    "town_kana": "ゴタンジョウチョウ",
    "street": null,
    "office_name": null,
    "office_name_kana": null
  },
  "0837": {
    "zip_code": "4530837",
    "prefecture": "愛知県",
    "prefecture_kana": "アイチケン",
    "prefecture_code": "23",
    "city": "名古屋市中村区",
    "city_kana": "ナゴヤシナカムラク",
    "town": "二瀬町",
    "town_kana": "フタセチョウ",
    "street": null,
    "office_name": null,
    "office_name_kana": null
  },
  "0838": {
    "zip_code": "4530838",
    "prefecture": "愛知県",
    "prefecture_kana": "アイチケン",
    "prefecture_code": "23",
    "city": "名古屋市中村区",
    "city_kana": "ナゴヤシナカムラク",
    "town": "向島町",
    "town_kana": "ムコウジマチョウ",
    "street": null,
    "office_name": null,
    "office_name_kana": null
  },
  "0839": {
    "zip_code": "4530839",
    "prefecture": "愛知県",
    "prefecture_kana": "アイチケン",
    "prefecture_code": "23",
    "city": "名古屋市中村区",
    "city_kana": "ナゴヤシナカムラク",
    "town": "長筬町",
    "town_kana": "ナガオサチョウ",
    "street": null,
    "office_name": null,
    "office_name_kana": null
  },
  "0841": {
    "zip_code": "4530841",
    "prefecture": "愛知県",
    "prefecture_kana": "アイチケン",
    "prefecture_code": "23",
    "city": "名古屋市中村区",
    "city_kana": "ナゴヤシナカムラク",
    "town": "稲葉地町",
    "town_kana": "イナバジチョウ",
    "street": null,
    "office_name": null,
    "office_name_kana": null
  },
  "0842": {
    "zip_code": "4530842",
    "prefecture": "愛知県",
    "prefecture_kana": "アイチケン",
    "prefecture_code": "23",
    "city": "名古屋市中村区",
    "city_kana": "ナゴヤシナカムラク",
    "town": "剣町",
    "town_kana": "ツルギチョウ",
    "street": null,
    "office_name": null,
    "office_name_kana": null
  },
  "0843": {
    "zip_code": "4530843",
    "prefecture": "愛知県",
    "prefecture_kana": "アイチケン",
    "prefecture_code": "23",
    "city": "名古屋市中村区",
    "city_kana": "ナゴヤシナカムラク",
    "town": "鴨付町",
    "town_kana": "カモツキチョウ",
    "street": null,
    "office_name": null,
    "office_name_kana": null
  },
  "0844": {
    "zip_code": "4530844",
    "prefecture": "愛知県",
    "prefecture_kana": "アイチケン",
    "prefecture_code": "23",
    "city": "名古屋市中村区",
    "city_kana": "ナゴヤシナカムラク",
    "town": "小鴨町",
    "town_kana": "コカモチョウ",
    "street": null,
    "office_name": null,
    "office_name_kana": null
  },
  "0845": {
    "zip_code": "4530845",
    "prefecture": "愛知県",
    "prefecture_kana": "アイチケン",
    "prefecture_code": "23",
    "city": "名古屋市中村区",
    "city_kana": "ナゴヤシナカムラク",
    "town": "宮塚町",
    "town_kana": "ミヤツカチョウ",
    "street": null,
    "office_name": null,
    "office_name_kana": null
  },
  "0846": {
    "zip_code": "4530846",
    "prefecture": "愛知県",
    "prefecture_kana": "アイチケン",
    "prefecture_code": "23",
    "city": "名古屋市中村区",
    "city_kana": "ナゴヤシナカムラク",
    "town": "西栄町",
    "town_kana": "ニシサカエチョウ",
    "street": null,
    "office_name": null,
    "office_name_kana": null
  },
  "0847": {
    "zip_code": "4530847",
    "prefecture": "愛知県",
    "prefecture_kana": "アイチケン",
    "prefecture_code": "23",
    "city": "名古屋市中村区",
    "city_kana": "ナゴヤシナカムラク",
    "town": "岩上町",
    "town_kana": "イワカミチョウ",
    "street": null,
    "office_name": null,
    "office_name_kana": null
  },
  "0848": {
    "zip_code": "4530848",
    "prefecture": "愛知県",
    "prefecture_kana": "アイチケン",
    "prefecture_code": "23",
    "city": "名古屋市中村区",
    "city_kana": "ナゴヤシナカムラク",
    "town": "荒輪井町",
    "town_kana": "アラワイチョウ",
    "street": null,
    "office_name": null,
    "office_name_kana": null
  },
  "0849": {
    "zip_code": "4530849",
    "prefecture": "愛知県",
    "prefecture_kana": "アイチケン",
    "prefecture_code": "23",
    "city": "名古屋市中村区",
    "city_kana": "ナゴヤシナカムラク",
    "town": "稲西町",
    "town_kana": "イナニシチョウ",
    "street": null,
    "office_name": null,
    "office_name_kana": null
  },
  "0851": {
    "zip_code": "4530851",
    "prefecture": "愛知県",
    "prefecture_kana": "アイチケン",
    "prefecture_code": "23",
    "city": "名古屋市中村区",
    "city_kana": "ナゴヤシナカムラク",
    "town": "畑江通",
    "town_kana": "ハタエトオリ",
    "street": null,
    "office_name": null,
    "office_name_kana": null
  },
  "0852": {
    "zip_code": "4530852",
    "prefecture": "愛知県",
    "prefecture_kana": "アイチケン",
    "prefecture_code": "23",
    "city": "名古屋市中村区",
    "city_kana": "ナゴヤシナカムラク",
    "town": "角割町",
    "town_kana": "カクワリチョウ",
    "street": null,
    "office_name": null,
    "office_name_kana": null
  },
  "0853": {
    "zip_code": "4530853",
    "prefecture": "愛知県",
    "prefecture_kana": "アイチケン",
    "prefecture_code": "23",
    "city": "名古屋市中村区",
    "city_kana": "ナゴヤシナカムラク",
    "town": "牛田通",
    "town_kana": "ウシダトオリ",
    "street": null,
    "office_name": null,
    "office_name_kana": null
  },
  "0854": {
    "zip_code": "4530854",
    "prefecture": "愛知県",
    "prefecture_kana": "アイチケン",
    "prefecture_code": "23",
    "city": "名古屋市中村区",
    "city_kana": "ナゴヤシナカムラク",
    "town": "高須賀町",
    "town_kana": "タカスカチョウ",
    "street": null,
    "office_name": null,
    "office_name_kana": null
  },
  "0855": {
    "zip_code": "4530855",
    "prefecture": "愛知県",
    "prefecture_kana": "アイチケン",
    "prefecture_code": "23",
    "city": "名古屋市中村区",
    "city_kana": "ナゴヤシナカムラク",
    "town": "烏森町",
    "town_kana": "カスモリチョウ",
    "street": null,
    "office_name": null,
    "office_name_kana": null
  },
  "0856": {
    "zip_code": "4530856",
    "prefecture": "愛知県",
    "prefecture_kana": "アイチケン",
    "prefecture_code": "23",
    "city": "名古屋市中村区",
    "city_kana": "ナゴヤシナカムラク",
    "town": "並木",
    "town_kana": "ナミキ",
    "street": null,
    "office_name": null,
    "office_name_kana": null
  },
  "0857": {
    "zip_code": "4530857",
    "prefecture": "愛知県",
    "prefecture_kana": "アイチケン",
    "prefecture_code": "23",
    "city": "名古屋市中村区",
    "city_kana": "ナゴヤシナカムラク",
    "town": "長草町",
    "town_kana": "ナガクサチョウ",
    "street": null,
    "office_name": null,
    "office_name_kana": null
  },
  "0858": {
    "zip_code": "4530858",
    "prefecture": "愛知県",
    "prefecture_kana": "アイチケン",
    "prefecture_code": "23",
    "city": "名古屋市中村区",
    "city_kana": "ナゴヤシナカムラク",
    "town": "野田町",
    "town_kana": "ノダチョウ",
    "street": null,
    "office_name": null,
    "office_name_kana": null
  },
  "0859": {
    "zip_code": "4530859",
    "prefecture": "愛知県",
    "prefecture_kana": "アイチケン",
    "prefecture_code": "23",
    "city": "名古屋市中村区",
    "city_kana": "ナゴヤシナカムラク",
    "town": "野上町",
    "town_kana": "ノガミチョウ",
    "street": null,
    "office_name": null,
    "office_name_kana": null
  },
  "0861": {
    "zip_code": "4530861",
    "prefecture": "愛知県",
    "prefecture_kana": "アイチケン",
    "prefecture_code": "23",
    "city": "名古屋市中村区",
    "city_kana": "ナゴヤシナカムラク",
    "town": "岩塚本通",
    "town_kana": "イワツカホントオリ",
    "street": null,
    "office_name": null,
    "office_name_kana": null
  },
  "0862": {
    "zip_code": "4530862",
    "prefecture": "愛知県",
    "prefecture_kana": "アイチケン",
    "prefecture_code": "23",
    "city": "名古屋市中村区",
    "city_kana": "ナゴヤシナカムラク",
    "town": "岩塚町",
    "town_kana": "イワツカチョウ",
    "street": null,
    "office_name": null,
    "office_name_kana": null
  },
  "0863": {
    "zip_code": "4530863",
    "prefecture": "愛知県",
    "prefecture_kana": "アイチケン",
    "prefecture_code": "23",
    "city": "名古屋市中村区",
    "city_kana": "ナゴヤシナカムラク",
    "town": "八社",
    "town_kana": "ハッシャ",
    "street": null,
    "office_name": null,
    "office_name_kana": null
  },
  "0864": {
    "zip_code": "4530864",
    "prefecture": "愛知県",
    "prefecture_kana": "アイチケン",
    "prefecture_code": "23",
    "city": "名古屋市中村区",
    "city_kana": "ナゴヤシナカムラク",
    "town": "横前町",
    "town_kana": "ヨコマエチョウ",
    "street": null,
    "office_name": null,
    "office_name_kana": null
  },
  "0865": {
    "zip_code": "4530865",
    "prefecture": "愛知県",
    "prefecture_kana": "アイチケン",
    "prefecture_code": "23",
    "city": "名古屋市中村区",
    "city_kana": "ナゴヤシナカムラク",
    "town": "川前町",
    "town_kana": "カワマエチョウ",
    "street": null,
    "office_name": null,
    "office_name_kana": null
  },
  "0866": {
    "zip_code": "4530866",
    "prefecture": "愛知県",
    "prefecture_kana": "アイチケン",
    "prefecture_code": "23",
    "city": "名古屋市中村区",
    "city_kana": "ナゴヤシナカムラク",
    "town": "横井",
    "town_kana": "ヨコイ",
    "street": null,
    "office_name": null,
    "office_name_kana": null
  },
  "0867": {
    "zip_code": "4530867",
    "prefecture": "愛知県",
    "prefecture_kana": "アイチケン",
    "prefecture_code": "23",
    "city": "名古屋市中村区",
    "city_kana": "ナゴヤシナカムラク",
    "town": "横井町",
    "town_kana": "ヨコイチョウ",
    "street": null,
    "office_name": null,
    "office_name_kana": null
  },
  "0871": {
    "zip_code": "4530871",
    "prefecture": "愛知県",
    "prefecture_kana": "アイチケン",
    "prefecture_code": "23",
    "city": "名古屋市中村区",
    "city_kana": "ナゴヤシナカムラク",
    "town": "牧野町",
    "town_kana": "マキノチョウ",
    "street": null,
    "office_name": null,
    "office_name_kana": null
  },
  "0872": {
    "zip_code": "4530872",
    "prefecture": "愛知県",
    "prefecture_kana": "アイチケン",
    "prefecture_code": "23",
    "city": "名古屋市中村区",
    "city_kana": "ナゴヤシナカムラク",
    "town": "平池町",
    "town_kana": "ヒライケチョウ",
    "street": null,
    "office_name": null,
    "office_name_kana": null
  },
  "0873": {
    "zip_code": "4530873",
    "prefecture": "愛知県",
    "prefecture_kana": "アイチケン",
    "prefecture_code": "23",
    "city": "名古屋市中村区",
    "city_kana": "ナゴヤシナカムラク",
    "town": "運河町",
    "town_kana": "ウンガチョウ",
    "street": null,
    "office_name": null,
    "office_name_kana": null
  },
  "8501": {
    "zip_code": "4538501",
    "prefecture": "愛知県",
    "prefecture_kana": "アイチケン",
    "prefecture_code": "23",
    "city": "名古屋市中村区",
    "city_kana": "ナゴヤシナカムラク",
    "town": "竹橋町",
    "town_kana": "タケバシチョウ",
    "street": "３６−３１",
    "office_name": "中村区役所",
    "office_name_kana": "ナカムラクヤクシヨ"
  },
  "8505": {
    "zip_code": "4538505",
    "prefecture": "愛知県",
    "prefecture_kana": "アイチケン",
    "prefecture_code": "23",
    "city": "名古屋市中村区",
    "city_kana": "ナゴヤシナカムラク",
    "town": "太閤",
    "town_kana": "タイコウ",
    "street": "１丁目２０−１０",
    "office_name": "中村県税事務所",
    "office_name_kana": "ナカムラケンゼイジムシヨ"
  },
  "8510": {
    "zip_code": "4538510",
    "prefecture": "愛知県",
    "prefecture_kana": "アイチケン",
    "prefecture_code": "23",
    "city": "名古屋市中村区",
    "city_kana": "ナゴヤシナカムラク",
    "town": "大秋町",
    "town_kana": "オオアキチョウ",
    "street": "２丁目３２番地",
    "office_name": "エスエス製薬　株式会社　名古屋支店",
    "office_name_kana": "エスエスセイヤク カブシキガイシヤ ナゴヤシテン"
  },
  "8511": {
    "zip_code": "4538511",
    "prefecture": "愛知県",
    "prefecture_kana": "アイチケン",
    "prefecture_code": "23",
    "city": "名古屋市中村区",
    "city_kana": "ナゴヤシナカムラク",
    "town": "道下町",
    "town_kana": "ミチシタチョウ",
    "street": "３丁目３５",
    "office_name": "名古屋第一赤十字病院",
    "office_name_kana": "ナゴヤダイイチセキジユウジビヨウイン"
  },
  "8512": {
    "zip_code": "4538512",
    "prefecture": "愛知県",
    "prefecture_kana": "アイチケン",
    "prefecture_code": "23",
    "city": "名古屋市中村区",
    "city_kana": "ナゴヤシナカムラク",
    "town": "黄金通",
    "town_kana": "オウゴンドオリ",
    "street": "５丁目２８",
    "office_name": "株式会社　ジュニアー",
    "office_name_kana": "カブシキガイシヤ ジユニア-"
  },
  "8515": {
    "zip_code": "4538515",
    "prefecture": "愛知県",
    "prefecture_kana": "アイチケン",
    "prefecture_code": "23",
    "city": "名古屋市中村区",
    "city_kana": "ナゴヤシナカムラク",
    "town": "岩塚町",
    "town_kana": "イワツカチョウ",
    "street": "字高道一番地",
    "office_name": "三菱重工業　株式会社　岩塚工場",
    "office_name_kana": "ミツビシジユウコウギヨウ カブシキガイシヤ イワツカコウジヨウ"
  },
  "8518": {
    "zip_code": "4538518",
    "prefecture": "愛知県",
    "prefecture_kana": "アイチケン",
    "prefecture_code": "23",
    "city": "名古屋市中村区",
    "city_kana": "ナゴヤシナカムラク",
    "town": "黄金通",
    "town_kana": "オウゴンドオリ",
    "street": "１丁目１８",
    "office_name": "愛鉄連厚生年金基金",
    "office_name_kana": "アイテツレンコウセイネンキンキキン"
  },
  "8521": {
    "zip_code": "4538521",
    "prefecture": "愛知県",
    "prefecture_kana": "アイチケン",
    "prefecture_code": "23",
    "city": "名古屋市中村区",
    "city_kana": "ナゴヤシナカムラク",
    "town": "長筬町",
    "town_kana": "ナガオサチョウ",
    "street": "４丁目２３",
    "office_name": "財団法人　名古屋公衆医学研究所",
    "office_name_kana": "ザイダンホウジン ナゴヤコウシユウイガクケンキユウシヨ"
  },
  "8522": {
    "zip_code": "4538522",
    "prefecture": "愛知県",
    "prefecture_kana": "アイチケン",
    "prefecture_code": "23",
    "city": "名古屋市中村区",
    "city_kana": "ナゴヤシナカムラク",
    "town": "竹橋町",
    "town_kana": "タケバシチョウ",
    "street": "９−９",
    "office_name": "山田工業　株式会社",
    "office_name_kana": "ヤマダコウギヨウ カブシキガイシヤ"
  },
  "8533": {
    "zip_code": "4538533",
    "prefecture": "愛知県",
    "prefecture_kana": "アイチケン",
    "prefecture_code": "23",
    "city": "名古屋市中村区",
    "city_kana": "ナゴヤシナカムラク",
    "town": "本陣通",
    "town_kana": "ホンジントオリ",
    "street": "４丁目１３",
    "office_name": "株式会社　萬勇",
    "office_name_kana": "カブシキガイシヤ マンユウ"
  },
  "8539": {
    "zip_code": "4538539",
    "prefecture": "愛知県",
    "prefecture_kana": "アイチケン",
    "prefecture_code": "23",
    "city": "名古屋市中村区",
    "city_kana": "ナゴヤシナカムラク",
    "town": "並木",
    "town_kana": "ナミキ",
    "street": "１丁目２９６番地",
    "office_name": "株式会社　レアールパスコベーカリーズ",
    "office_name_kana": "カブシキガイシヤ レア-ルパスコベ-カリ-ズ"
  },
  "8540": {
    "zip_code": "4538540",
    "prefecture": "愛知県",
    "prefecture_kana": "アイチケン",
    "prefecture_code": "23",
    "city": "名古屋市中村区",
    "city_kana": "ナゴヤシナカムラク",
    "town": "稲葉地町",
    "town_kana": "イナバジチョウ",
    "street": "７丁目１",
    "office_name": "学校法人　同朋学園",
    "office_name_kana": "ガツコウホウジン ドウホウガクエン"
  },
  "8555": {
    "zip_code": "4538555",
    "prefecture": "愛知県",
    "prefecture_kana": "アイチケン",
    "prefecture_code": "23",
    "city": "名古屋市中村区",
    "city_kana": "ナゴヤシナカムラク",
    "town": "竹橋町",
    "town_kana": "タケバシチョウ",
    "street": "２９番８号",
    "office_name": "株式会社　奥村組　名古屋支店",
    "office_name_kana": "カブシキカイシヤ オクムラグミ ナゴヤシテン"
  },
  "8558": {
    "zip_code": "4538558",
    "prefecture": "愛知県",
    "prefecture_kana": "アイチケン",
    "prefecture_code": "23",
    "city": "名古屋市中村区",
    "city_kana": "ナゴヤシナカムラク",
    "town": "椿町",
    "town_kana": "ツバキチョウ",
    "street": "７番９号",
    "office_name": "愛知県信用保証協会",
    "office_name_kana": "アイチケンシンヨウホシヨウキヨウカイ"
  },
  "8565": {
    "zip_code": "4538565",
    "prefecture": "愛知県",
    "prefecture_kana": "アイチケン",
    "prefecture_code": "23",
    "city": "名古屋市中村区",
    "city_kana": "ナゴヤシナカムラク",
    "town": "椿町",
    "town_kana": "ツバキチョウ",
    "street": "１４番８号",
    "office_name": "学校法人　東京ＩＴ会計法律名古屋学園",
    "office_name_kana": "ガツコウホウジン トウキヨウITカイケイホウリツナゴヤガクエン"
  },
  "8567": {
    "zip_code": "4538567",
    "prefecture": "愛知県",
    "prefecture_kana": "アイチケン",
    "prefecture_code": "23",
    "city": "名古屋市中村区",
    "city_kana": "ナゴヤシナカムラク",
    "town": "名西通",
    "town_kana": "メイセイトオリ",
    "street": "１丁目１番地",
    "office_name": "株式会社　扇港電機",
    "office_name_kana": "カブシキガイシヤ センコウデンキ"
  },
  "8577": {
    "zip_code": "4538577",
    "prefecture": "愛知県",
    "prefecture_kana": "アイチケン",
    "prefecture_code": "23",
    "city": "名古屋市中村区",
    "city_kana": "ナゴヤシナカムラク",
    "town": "並木",
    "town_kana": "ナミキ",
    "street": "２丁目６７",
    "office_name": "株式会社　大同商会",
    "office_name_kana": "カブシキガイシヤ ダイドウシヨウカイ"
  },
  "8580": {
    "zip_code": "4538580",
    "prefecture": "愛知県",
    "prefecture_kana": "アイチケン",
    "prefecture_code": "23",
    "city": "名古屋市中村区",
    "city_kana": "ナゴヤシナカムラク",
    "town": "亀島",
    "town_kana": "カメジマ",
    "street": "２丁目１３−８",
    "office_name": "明治電機工業　株式会社",
    "office_name_kana": "メイジデンキコウギヨウ カブシキガイシヤ"
  },
  "8581": [
    {
      "zip_code": "4538581",
      "prefecture": "愛知県",
      "prefecture_kana": "アイチケン",
      "prefecture_code": "23",
      "city": "名古屋市中村区",
      "city_kana": "ナゴヤシナカムラク",
      "town": "烏森町",
      "town_kana": "カスモリチョウ",
      "street": "３丁目５６番地",
      "office_name": "株式会社　アイコー",
      "office_name_kana": "カブシキカイシヤ アイコ-"
    },
    {
      "zip_code": "4538581",
      "prefecture": "愛知県",
      "prefecture_kana": "アイチケン",
      "prefecture_code": "23",
      "city": "名古屋市中村区",
      "city_kana": "ナゴヤシナカムラク",
      "town": "烏森町",
      "town_kana": "カスモリチョウ",
      "street": "３丁目５６番地",
      "office_name": "株式会社　ＥＸＣＩＴＥ",
      "office_name_kana": "カブシキカイシヤ エキサイト"
    },
    {
      "zip_code": "4538581",
      "prefecture": "愛知県",
      "prefecture_kana": "アイチケン",
      "prefecture_code": "23",
      "city": "名古屋市中村区",
      "city_kana": "ナゴヤシナカムラク",
      "town": "烏森町",
      "town_kana": "カスモリチョウ",
      "street": "３丁目５６番地",
      "office_name": "株式会社　シンセイ",
      "office_name_kana": "カブシキカイシヤ シンセイ"
    },
    {
      "zip_code": "4538581",
      "prefecture": "愛知県",
      "prefecture_kana": "アイチケン",
      "prefecture_code": "23",
      "city": "名古屋市中村区",
      "city_kana": "ナゴヤシナカムラク",
      "town": "烏森町",
      "town_kana": "カスモリチョウ",
      "street": "３丁目５６番地",
      "office_name": "株式会社　ニューギン・アドバンス",
      "office_name_kana": "カブシキカイシヤ ニユ-ギン・アドバンス"
    },
    {
      "zip_code": "4538581",
      "prefecture": "愛知県",
      "prefecture_kana": "アイチケン",
      "prefecture_code": "23",
      "city": "名古屋市中村区",
      "city_kana": "ナゴヤシナカムラク",
      "town": "烏森町",
      "town_kana": "カスモリチョウ",
      "street": "３丁目５６番地",
      "office_name": "株式会社　ニューギン販売",
      "office_name_kana": "カブシキカイシヤ ニユ-ギンハンバイ"
    },
    {
      "zip_code": "4538581",
      "prefecture": "愛知県",
      "prefecture_kana": "アイチケン",
      "prefecture_code": "23",
      "city": "名古屋市中村区",
      "city_kana": "ナゴヤシナカムラク",
      "town": "烏森町",
      "town_kana": "カスモリチョウ",
      "street": "３丁目５６番地",
      "office_name": "（株）　ニューギン",
      "office_name_kana": "カブシキガイシヤ ニユ-ギン"
    }
  ],
  "8585": {
    "zip_code": "4538585",
    "prefecture": "愛知県",
    "prefecture_kana": "アイチケン",
    "prefecture_code": "23",
    "city": "名古屋市中村区",
    "city_kana": "ナゴヤシナカムラク",
    "town": "大秋町",
    "town_kana": "オオアキチョウ",
    "street": "２丁目４２",
    "office_name": "株式会社　ユーハイム　東海支社",
    "office_name_kana": "カブシキガイシヤ ユ-ハイム トウカイシシヤ"
  },
  "8601": {
    "zip_code": "4538601",
    "prefecture": "愛知県",
    "prefecture_kana": "アイチケン",
    "prefecture_code": "23",
    "city": "名古屋市中村区",
    "city_kana": "ナゴヤシナカムラク",
    "town": "太閤通",
    "town_kana": "タイコウトオリ",
    "street": "７丁目３２（中村郵便局私書箱第１号）",
    "office_name": "中部電力　株式会社　中村営業所",
    "office_name_kana": "チユウブデンリヨク カブシキガイシヤ ナカムラエイギヨウシヨ"
  },
  "8611": {
    "zip_code": "4538611",
    "prefecture": "愛知県",
    "prefecture_kana": "アイチケン",
    "prefecture_code": "23",
    "city": "名古屋市中村区",
    "city_kana": "ナゴヤシナカムラク",
    "town": "並木",
    "town_kana": "ナミキ",
    "street": "１丁目２６７番地",
    "office_name": "河田フェザー　株式会社",
    "office_name_kana": "カワダフエザ- カブシキカイシヤ"
  },
  "8662": {
    "zip_code": "4538662",
    "prefecture": "愛知県",
    "prefecture_kana": "アイチケン",
    "prefecture_code": "23",
    "city": "名古屋市中村区",
    "city_kana": "ナゴヤシナカムラク",
    "town": "太閤通",
    "town_kana": "タイコウトオリ",
    "street": "６丁目８８（中村郵便局私書箱第６２号）",
    "office_name": "東海デキストリン　株式会社",
    "office_name_kana": "トウカイデキストリン カブシキガイシヤ"
  },
  "8686": {
    "zip_code": "4538686",
    "prefecture": "愛知県",
    "prefecture_kana": "アイチケン",
    "prefecture_code": "23",
    "city": "名古屋市中村区",
    "city_kana": "ナゴヤシナカムラク",
    "town": "太閤",
    "town_kana": "タイコウ",
    "street": "３丁目４−１（中村郵便局私書箱第２０号）",
    "office_name": "名古屋中村税務署",
    "office_name_kana": "ナゴヤナカムラゼイムシヨ"
  },
  "8701": {
    "zip_code": "4538701",
    "prefecture": "愛知県",
    "prefecture_kana": "アイチケン",
    "prefecture_code": "23",
    "city": "名古屋市中村区",
    "city_kana": "ナゴヤシナカムラク",
    "town": "平池町",
    "town_kana": "ヒライケチョウ",
    "street": "４丁目６０番地１１",
    "office_name": "株式会社　中京テレビ事業",
    "office_name_kana": "カブシキガイシヤ チユウキヨウテレビジギヨウ"
  },
  "8702": {
    "zip_code": "4538702",
    "prefecture": "愛知県",
    "prefecture_kana": "アイチケン",
    "prefecture_code": "23",
    "city": "名古屋市中村区",
    "city_kana": "ナゴヤシナカムラク",
    "town": "平池町",
    "town_kana": "ヒライケチョウ",
    "street": "４丁目６０番地１１",
    "office_name": "株式会社　サポーティング中京",
    "office_name_kana": "カブシキガイシヤ サポ-テイングチユウキヨウ"
  },
  "8704": {
    "zip_code": "4538704",
    "prefecture": "愛知県",
    "prefecture_kana": "アイチケン",
    "prefecture_code": "23",
    "city": "名古屋市中村区",
    "city_kana": "ナゴヤシナカムラク",
    "town": "平池町",
    "town_kana": "ヒライケチョウ",
    "street": "４丁目６０−１１",
    "office_name": "中京テレビ放送　株式会社",
    "office_name_kana": "チユウキヨウテレビホウソウ カブシキガイシヤ"
  },
  "8758": {
    "zip_code": "4538758",
    "prefecture": "愛知県",
    "prefecture_kana": "アイチケン",
    "prefecture_code": "23",
    "city": "名古屋市中村区",
    "city_kana": "ナゴヤシナカムラク",
    "town": "平池町",
    "town_kana": "ヒライケチョウ",
    "street": "４丁目６０番地６",
    "office_name": "愛知大学生活協同組合　名古屋書籍購買店",
    "office_name_kana": "アイチダイガクセイカツキヨウドウクミアイ ナゴヤシヨセキコウバイテン"
  },
  "8765": {
    "zip_code": "4538765",
    "prefecture": "愛知県",
    "prefecture_kana": "アイチケン",
    "prefecture_code": "23",
    "city": "名古屋市中村区",
    "city_kana": "ナゴヤシナカムラク",
    "town": "太閤",
    "town_kana": "タイコウ",
    "street": "１丁目２１−１５",
    "office_name": "株式会社　ミスターゴルフ",
    "office_name_kana": "カブシキガイシヤ ミスタ-ゴルフ"
  },
  "8777": {
    "zip_code": "4538777",
    "prefecture": "愛知県",
    "prefecture_kana": "アイチケン",
    "prefecture_code": "23",
    "city": "名古屋市中村区",
    "city_kana": "ナゴヤシナカムラク",
    "town": "平池町",
    "town_kana": "ヒライケチョウ",
    "street": "４丁目６０番地６",
    "office_name": "学校法人　愛知大学　名古屋校舎",
    "office_name_kana": "ガツコウホウジン アイチダイガク ナゴヤコウシヤ"
  }
}