{
  "0000": {
    "zip_code": "4540000",
    "prefecture": "愛知県",
    "prefecture_kana": "アイチケン",
    "prefecture_code": 23,
    "city": "名古屋市中川区",
    "city_kana": "ナゴヤシナカガワク",
    "town": "",
    "town_kana": "",
    "street": null,
    "office_name": null,
    "office_name_kana": null
  },
  "0001": {
    "zip_code": "4540001",
    "prefecture": "愛知県",
    "prefecture_kana": "アイチケン",
    "prefecture_code": 23,
    "city": "名古屋市中川区",
    "city_kana": "ナゴヤシナカガワク",
    "town": "運河町",
    "town_kana": "ウンガチョウ",
    "street": null,
    "office_name": null,
    "office_name_kana": null
  },
  "0002": {
    "zip_code": "4540002",
    "prefecture": "愛知県",
    "prefecture_kana": "アイチケン",
    "prefecture_code": 23,
    "city": "名古屋市中川区",
    "city_kana": "ナゴヤシナカガワク",
    "town": "運河通",
    "town_kana": "ウンガトオリ",
    "street": null,
    "office_name": null,
    "office_name_kana": null
  },
  "0003": {
    "zip_code": "4540003",
    "prefecture": "愛知県",
    "prefecture_kana": "アイチケン",
    "prefecture_code": 23,
    "city": "名古屋市中川区",
    "city_kana": "ナゴヤシナカガワク",
    "town": "松重町",
    "town_kana": "マツシゲチョウ",
    "street": null,
    "office_name": null,
    "office_name_kana": null
  },
  "0004": {
    "zip_code": "4540004",
    "prefecture": "愛知県",
    "prefecture_kana": "アイチケン",
    "prefecture_code": 23,
    "city": "名古屋市中川区",
    "city_kana": "ナゴヤシナカガワク",
    "town": "西日置",
    "town_kana": "ニシヒオキ",
    "street": null,
    "office_name": null,
    "office_name_kana": null
  },
  "0005": {
    "zip_code": "4540005",
    "prefecture": "愛知県",
    "prefecture_kana": "アイチケン",
    "prefecture_code": 23,
    "city": "名古屋市中川区",
    "city_kana": "ナゴヤシナカガワク",
    "town": "西日置町",
    "town_kana": "ニシヒオキチョウ",
    "street": null,
    "office_name": null,
    "office_name_kana": null
  },
  "0006": {
    "zip_code": "4540006",
    "prefecture": "愛知県",
    "prefecture_kana": "アイチケン",
    "prefecture_code": 23,
    "city": "名古屋市中川区",
    "city_kana": "ナゴヤシナカガワク",
    "town": "柳堀町",
    "town_kana": "ヤナギボリチョウ",
    "street": null,
    "office_name": null,
    "office_name_kana": null
  },
  "0007": {
    "zip_code": "4540007",
    "prefecture": "愛知県",
    "prefecture_kana": "アイチケン",
    "prefecture_code": 23,
    "city": "名古屋市中川区",
    "city_kana": "ナゴヤシナカガワク",
    "town": "広住町",
    "town_kana": "ヒロスミチョウ",
    "street": null,
    "office_name": null,
    "office_name_kana": null
  },
  "0011": {
    "zip_code": "4540011",
    "prefecture": "愛知県",
    "prefecture_kana": "アイチケン",
    "prefecture_code": 23,
    "city": "名古屋市中川区",
    "city_kana": "ナゴヤシナカガワク",
    "town": "山王",
    "town_kana": "サンノウ",
    "street": null,
    "office_name": null,
    "office_name_kana": null
  },
  "0012": {
    "zip_code": "4540012",
    "prefecture": "愛知県",
    "prefecture_kana": "アイチケン",
    "prefecture_code": 23,
    "city": "名古屋市中川区",
    "city_kana": "ナゴヤシナカガワク",
    "town": "尾頭橋",
    "town_kana": "オトウバシ",
    "street": null,
    "office_name": null,
    "office_name_kana": null
  },
  "0013": {
    "zip_code": "4540013",
    "prefecture": "愛知県",
    "prefecture_kana": "アイチケン",
    "prefecture_code": 23,
    "city": "名古屋市中川区",
    "city_kana": "ナゴヤシナカガワク",
    "town": "八熊",
    "town_kana": "ヤグマ",
    "street": null,
    "office_name": null,
    "office_name_kana": null
  },
  "0014": {
    "zip_code": "4540014",
    "prefecture": "愛知県",
    "prefecture_kana": "アイチケン",
    "prefecture_code": 23,
    "city": "名古屋市中川区",
    "city_kana": "ナゴヤシナカガワク",
    "town": "柳川町",
    "town_kana": "ヤナガワチョウ",
    "street": null,
    "office_name": null,
    "office_name_kana": null
  },
  "0015": {
    "zip_code": "4540015",
    "prefecture": "愛知県",
    "prefecture_kana": "アイチケン",
    "prefecture_code": 23,
    "city": "名古屋市中川区",
    "city_kana": "ナゴヤシナカガワク",
    "town": "南八熊町",
    "town_kana": "ミナミヤグマチョウ",
    "street": null,
    "office_name": null,
    "office_name_kana": null
  },
  "0016": {
    "zip_code": "4540016",
    "prefecture": "愛知県",
    "prefecture_kana": "アイチケン",
    "prefecture_code": 23,
    "city": "名古屋市中川区",
    "city_kana": "ナゴヤシナカガワク",
    "town": "幡野町",
    "town_kana": "ハタノチョウ",
    "street": null,
    "office_name": null,
    "office_name_kana": null
  },
  "0021": {
    "zip_code": "4540021",
    "prefecture": "愛知県",
    "prefecture_kana": "アイチケン",
    "prefecture_code": 23,
    "city": "名古屋市中川区",
    "city_kana": "ナゴヤシナカガワク",
    "town": "横堀町",
    "town_kana": "ヨコボリチョウ",
    "street": null,
    "office_name": null,
    "office_name_kana": null
  },
  "0022": {
    "zip_code": "4540022",
    "prefecture": "愛知県",
    "prefecture_kana": "アイチケン",
    "prefecture_code": 23,
    "city": "名古屋市中川区",
    "city_kana": "ナゴヤシナカガワク",
    "town": "露橋",
    "town_kana": "ツユハシ",
    "street": null,
    "office_name": null,
    "office_name_kana": null
  },
  "0023": {
    "zip_code": "4540023",
    "prefecture": "愛知県",
    "prefecture_kana": "アイチケン",
    "prefecture_code": 23,
    "city": "名古屋市中川区",
    "city_kana": "ナゴヤシナカガワク",
    "town": "石場町",
    "town_kana": "イシバチョウ",
    "street": null,
    "office_name": null,
    "office_name_kana": null
  },
  "0024": {
    "zip_code": "4540024",
    "prefecture": "愛知県",
    "prefecture_kana": "アイチケン",
    "prefecture_code": 23,
    "city": "名古屋市中川区",
    "city_kana": "ナゴヤシナカガワク",
    "town": "柳島町",
    "town_kana": "ヤナギシマチョウ",
    "street": null,
    "office_name": null,
    "office_name_kana": null
  },
  "0025": {
    "zip_code": "4540025",
    "prefecture": "愛知県",
    "prefecture_kana": "アイチケン",
    "prefecture_code": 23,
    "city": "名古屋市中川区",
    "city_kana": "ナゴヤシナカガワク",
    "town": "前並町",
    "town_kana": "マエナミチョウ",
    "street": null,
    "office_name": null,
    "office_name_kana": null
  },
  "0026": {
    "zip_code": "4540026",
    "prefecture": "愛知県",
    "prefecture_kana": "アイチケン",
    "prefecture_code": 23,
    "city": "名古屋市中川区",
    "city_kana": "ナゴヤシナカガワク",
    "town": "笈瀬町",
    "town_kana": "オイセチョウ",
    "street": null,
    "office_name": null,
    "office_name_kana": null
  },
  "0027": {
    "zip_code": "4540027",
    "prefecture": "愛知県",
    "prefecture_kana": "アイチケン",
    "prefecture_code": 23,
    "city": "名古屋市中川区",
    "city_kana": "ナゴヤシナカガワク",
    "town": "広川町",
    "town_kana": "ヒロカワチョウ",
    "street": null,
    "office_name": null,
    "office_name_kana": null
  },
  "0028": {
    "zip_code": "4540028",
    "prefecture": "愛知県",
    "prefecture_kana": "アイチケン",
    "prefecture_code": 23,
    "city": "名古屋市中川区",
    "city_kana": "ナゴヤシナカガワク",
    "town": "露橋町",
    "town_kana": "ツユハシチョウ",
    "street": null,
    "office_name": null,
    "office_name_kana": null
  },
  "0031": {
    "zip_code": "4540031",
    "prefecture": "愛知県",
    "prefecture_kana": "アイチケン",
    "prefecture_code": 23,
    "city": "名古屋市中川区",
    "city_kana": "ナゴヤシナカガワク",
    "town": "八幡本通",
    "town_kana": "ヤハタホントオリ",
    "street": null,
    "office_name": null,
    "office_name_kana": null
  },
  "0032": {
    "zip_code": "4540032",
    "prefecture": "愛知県",
    "prefecture_kana": "アイチケン",
    "prefecture_code": 23,
    "city": "名古屋市中川区",
    "city_kana": "ナゴヤシナカガワク",
    "town": "荒江町",
    "town_kana": "アラエチョウ",
    "street": null,
    "office_name": null,
    "office_name_kana": null
  },
  "0033": {
    "zip_code": "4540033",
    "prefecture": "愛知県",
    "prefecture_kana": "アイチケン",
    "prefecture_code": 23,
    "city": "名古屋市中川区",
    "city_kana": "ナゴヤシナカガワク",
    "town": "五女子",
    "town_kana": "ゴニョウシ",
    "street": null,
    "office_name": null,
    "office_name_kana": null
  },
  "0034": {
    "zip_code": "4540034",
    "prefecture": "愛知県",
    "prefecture_kana": "アイチケン",
    "prefecture_code": 23,
    "city": "名古屋市中川区",
    "city_kana": "ナゴヤシナカガワク",
    "town": "五女子町",
    "town_kana": "ゴニョシチョウ",
    "street": null,
    "office_name": null,
    "office_name_kana": null
  },
  "0035": {
    "zip_code": "4540035",
    "prefecture": "愛知県",
    "prefecture_kana": "アイチケン",
    "prefecture_code": 23,
    "city": "名古屋市中川区",
    "city_kana": "ナゴヤシナカガワク",
    "town": "八熊通",
    "town_kana": "ヤグマドオリ",
    "street": null,
    "office_name": null,
    "office_name_kana": null
  },
  "0036": {
    "zip_code": "4540036",
    "prefecture": "愛知県",
    "prefecture_kana": "アイチケン",
    "prefecture_code": 23,
    "city": "名古屋市中川区",
    "city_kana": "ナゴヤシナカガワク",
    "town": "二女子町",
    "town_kana": "ニニョシチョウ",
    "street": null,
    "office_name": null,
    "office_name_kana": null
  },
  "0037": {
    "zip_code": "4540037",
    "prefecture": "愛知県",
    "prefecture_kana": "アイチケン",
    "prefecture_code": 23,
    "city": "名古屋市中川区",
    "city_kana": "ナゴヤシナカガワク",
    "town": "富川町",
    "town_kana": "トミカワチョウ",
    "street": null,
    "office_name": null,
    "office_name_kana": null
  },
  "0041": {
    "zip_code": "4540041",
    "prefecture": "愛知県",
    "prefecture_kana": "アイチケン",
    "prefecture_code": 23,
    "city": "名古屋市中川区",
    "city_kana": "ナゴヤシナカガワク",
    "town": "八神町",
    "town_kana": "ヤガミチョウ",
    "street": null,
    "office_name": null,
    "office_name_kana": null
  },
  "0042": {
    "zip_code": "4540042",
    "prefecture": "愛知県",
    "prefecture_kana": "アイチケン",
    "prefecture_code": 23,
    "city": "名古屋市中川区",
    "city_kana": "ナゴヤシナカガワク",
    "town": "応仁町",
    "town_kana": "オウジンチョウ",
    "street": null,
    "office_name": null,
    "office_name_kana": null
  },
  "0043": {
    "zip_code": "4540043",
    "prefecture": "愛知県",
    "prefecture_kana": "アイチケン",
    "prefecture_code": 23,
    "city": "名古屋市中川区",
    "city_kana": "ナゴヤシナカガワク",
    "town": "牛立町",
    "town_kana": "ウシダテチョウ",
    "street": null,
    "office_name": null,
    "office_name_kana": null
  },
  "0044": {
    "zip_code": "4540044",
    "prefecture": "愛知県",
    "prefecture_kana": "アイチケン",
    "prefecture_code": 23,
    "city": "名古屋市中川区",
    "city_kana": "ナゴヤシナカガワク",
    "town": "荒越町",
    "town_kana": "アラコシチョウ",
    "street": null,
    "office_name": null,
    "office_name_kana": null
  },
  "0045": {
    "zip_code": "4540045",
    "prefecture": "愛知県",
    "prefecture_kana": "アイチケン",
    "prefecture_code": 23,
    "city": "名古屋市中川区",
    "city_kana": "ナゴヤシナカガワク",
    "town": "丹後町",
    "town_kana": "タンゴチョウ",
    "street": null,
    "office_name": null,
    "office_name_kana": null
  },
  "0046": {
    "zip_code": "4540046",
    "prefecture": "愛知県",
    "prefecture_kana": "アイチケン",
    "prefecture_code": 23,
    "city": "名古屋市中川区",
    "city_kana": "ナゴヤシナカガワク",
    "town": "神郷町",
    "town_kana": "シンゴウチョウ",
    "street": null,
    "office_name": null,
    "office_name_kana": null
  },
  "0047": {
    "zip_code": "4540047",
    "prefecture": "愛知県",
    "prefecture_kana": "アイチケン",
    "prefecture_code": 23,
    "city": "名古屋市中川区",
    "city_kana": "ナゴヤシナカガワク",
    "town": "中野本町",
    "town_kana": "ナカノホンマチ",
    "street": null,
    "office_name": null,
    "office_name_kana": null
  },
  "0048": {
    "zip_code": "4540048",
    "prefecture": "愛知県",
    "prefecture_kana": "アイチケン",
    "prefecture_code": 23,
    "city": "名古屋市中川区",
    "city_kana": "ナゴヤシナカガワク",
    "town": "元中野町",
    "town_kana": "モトナカノチョウ",
    "street": null,
    "office_name": null,
    "office_name_kana": null
  },
  "0049": {
    "zip_code": "4540049",
    "prefecture": "愛知県",
    "prefecture_kana": "アイチケン",
    "prefecture_code": 23,
    "city": "名古屋市中川区",
    "city_kana": "ナゴヤシナカガワク",
    "town": "清川町",
    "town_kana": "キヨカワチョウ",
    "street": null,
    "office_name": null,
    "office_name_kana": null
  },
  "0051": {
    "zip_code": "4540051",
    "prefecture": "愛知県",
    "prefecture_kana": "アイチケン",
    "prefecture_code": 23,
    "city": "名古屋市中川区",
    "city_kana": "ナゴヤシナカガワク",
    "town": "大山町",
    "town_kana": "オオヤマチョウ",
    "street": null,
    "office_name": null,
    "office_name_kana": null
  },
  "0052": {
    "zip_code": "4540052",
    "prefecture": "愛知県",
    "prefecture_kana": "アイチケン",
    "prefecture_code": 23,
    "city": "名古屋市中川区",
    "city_kana": "ナゴヤシナカガワク",
    "town": "花塚町",
    "town_kana": "ハナヅカチョウ",
    "street": null,
    "office_name": null,
    "office_name_kana": null
  },
  "0053": {
    "zip_code": "4540053",
    "prefecture": "愛知県",
    "prefecture_kana": "アイチケン",
    "prefecture_code": 23,
    "city": "名古屋市中川区",
    "city_kana": "ナゴヤシナカガワク",
    "town": "外新町",
    "town_kana": "ソトシンチョウ",
    "street": null,
    "office_name": null,
    "office_name_kana": null
  },
  "0054": {
    "zip_code": "4540054",
    "prefecture": "愛知県",
    "prefecture_kana": "アイチケン",
    "prefecture_code": 23,
    "city": "名古屋市中川区",
    "city_kana": "ナゴヤシナカガワク",
    "town": "八剱町",
    "town_kana": "ハチケンチョウ",
    "street": null,
    "office_name": null,
    "office_name_kana": null
  },
  "0055": {
    "zip_code": "4540055",
    "prefecture": "愛知県",
    "prefecture_kana": "アイチケン",
    "prefecture_code": 23,
    "city": "名古屋市中川区",
    "city_kana": "ナゴヤシナカガワク",
    "town": "十番町",
    "town_kana": "ジュウバンチョウ",
    "street": null,
    "office_name": null,
    "office_name_kana": null
  },
  "0056": {
    "zip_code": "4540056",
    "prefecture": "愛知県",
    "prefecture_kana": "アイチケン",
    "prefecture_code": 23,
    "city": "名古屋市中川区",
    "city_kana": "ナゴヤシナカガワク",
    "town": "十一番町",
    "town_kana": "ジュウイチバンチョウ",
    "street": null,
    "office_name": null,
    "office_name_kana": null
  },
  "0057": {
    "zip_code": "4540057",
    "prefecture": "愛知県",
    "prefecture_kana": "アイチケン",
    "prefecture_code": 23,
    "city": "名古屋市中川区",
    "city_kana": "ナゴヤシナカガワク",
    "town": "熱田新田東組",
    "town_kana": "アツタシンデンヒガシグミ",
    "street": null,
    "office_name": null,
    "office_name_kana": null
  },
  "0058": {
    "zip_code": "4540058",
    "prefecture": "愛知県",
    "prefecture_kana": "アイチケン",
    "prefecture_code": 23,
    "city": "名古屋市中川区",
    "city_kana": "ナゴヤシナカガワク",
    "town": "玉川町",
    "town_kana": "タマカワチョウ",
    "street": null,
    "office_name": null,
    "office_name_kana": null
  },
  "0059": {
    "zip_code": "4540059",
    "prefecture": "愛知県",
    "prefecture_kana": "アイチケン",
    "prefecture_code": 23,
    "city": "名古屋市中川区",
    "city_kana": "ナゴヤシナカガワク",
    "town": "福川町",
    "town_kana": "フクカワチョウ",
    "street": null,
    "office_name": null,
    "office_name_kana": null
  },
  "0801": {
    "zip_code": "4540801",
    "prefecture": "愛知県",
    "prefecture_kana": "アイチケン",
    "prefecture_code": 23,
    "city": "名古屋市中川区",
    "city_kana": "ナゴヤシナカガワク",
    "town": "百船町",
    "town_kana": "モモフネチョウ",
    "street": null,
    "office_name": null,
    "office_name_kana": null
  },
  "0802": {
    "zip_code": "4540802",
    "prefecture": "愛知県",
    "prefecture_kana": "アイチケン",
    "prefecture_code": 23,
    "city": "名古屋市中川区",
    "city_kana": "ナゴヤシナカガワク",
    "town": "福住町",
    "town_kana": "フクズミチョウ",
    "street": null,
    "office_name": null,
    "office_name_kana": null
  },
  "0803": {
    "zip_code": "4540803",
    "prefecture": "愛知県",
    "prefecture_kana": "アイチケン",
    "prefecture_code": 23,
    "city": "名古屋市中川区",
    "city_kana": "ナゴヤシナカガワク",
    "town": "豊成町",
    "town_kana": "ホウセイチョウ",
    "street": null,
    "office_name": null,
    "office_name_kana": null
  },
  "0804": {
    "zip_code": "4540804",
    "prefecture": "愛知県",
    "prefecture_kana": "アイチケン",
    "prefecture_code": 23,
    "city": "名古屋市中川区",
    "city_kana": "ナゴヤシナカガワク",
    "town": "月島町",
    "town_kana": "ツキシマチョウ",
    "street": null,
    "office_name": null,
    "office_name_kana": null
  },
  "0805": {
    "zip_code": "4540805",
    "prefecture": "愛知県",
    "prefecture_kana": "アイチケン",
    "prefecture_code": 23,
    "city": "名古屋市中川区",
    "city_kana": "ナゴヤシナカガワク",
    "town": "舟戸町",
    "town_kana": "フナトチョウ",
    "street": null,
    "office_name": null,
    "office_name_kana": null
  },
  "0806": {
    "zip_code": "4540806",
    "prefecture": "愛知県",
    "prefecture_kana": "アイチケン",
    "prefecture_code": 23,
    "city": "名古屋市中川区",
    "city_kana": "ナゴヤシナカガワク",
    "town": "澄池町",
    "town_kana": "スミイケチョウ",
    "street": null,
    "office_name": null,
    "office_name_kana": null
  },
  "0807": {
    "zip_code": "4540807",
    "prefecture": "愛知県",
    "prefecture_kana": "アイチケン",
    "prefecture_code": 23,
    "city": "名古屋市中川区",
    "city_kana": "ナゴヤシナカガワク",
    "town": "愛知町",
    "town_kana": "アイチチョウ",
    "street": null,
    "office_name": null,
    "office_name_kana": null
  },
  "0808": {
    "zip_code": "4540808",
    "prefecture": "愛知県",
    "prefecture_kana": "アイチケン",
    "prefecture_code": 23,
    "city": "名古屋市中川区",
    "city_kana": "ナゴヤシナカガワク",
    "town": "九重町",
    "town_kana": "ココノエチョウ",
    "street": null,
    "office_name": null,
    "office_name_kana": null
  },
  "0811": {
    "zip_code": "4540811",
    "prefecture": "愛知県",
    "prefecture_kana": "アイチケン",
    "prefecture_code": 23,
    "city": "名古屋市中川区",
    "city_kana": "ナゴヤシナカガワク",
    "town": "三ツ池町",
    "town_kana": "ミツイケチョウ",
    "street": null,
    "office_name": null,
    "office_name_kana": null
  },
  "0812": {
    "zip_code": "4540812",
    "prefecture": "愛知県",
    "prefecture_kana": "アイチケン",
    "prefecture_code": 23,
    "city": "名古屋市中川区",
    "city_kana": "ナゴヤシナカガワク",
    "town": "五月通",
    "town_kana": "サツキトオリ",
    "street": null,
    "office_name": null,
    "office_name_kana": null
  },
  "0813": {
    "zip_code": "4540813",
    "prefecture": "愛知県",
    "prefecture_kana": "アイチケン",
    "prefecture_code": 23,
    "city": "名古屋市中川区",
    "city_kana": "ナゴヤシナカガワク",
    "town": "乗越町",
    "town_kana": "ノリコシチョウ",
    "street": null,
    "office_name": null,
    "office_name_kana": null
  },
  "0814": {
    "zip_code": "4540814",
    "prefecture": "愛知県",
    "prefecture_kana": "アイチケン",
    "prefecture_code": 23,
    "city": "名古屋市中川区",
    "city_kana": "ナゴヤシナカガワク",
    "town": "五月南通",
    "town_kana": "サツキミナミトオリ",
    "street": null,
    "office_name": null,
    "office_name_kana": null
  },
  "0815": {
    "zip_code": "4540815",
    "prefecture": "愛知県",
    "prefecture_kana": "アイチケン",
    "prefecture_code": 23,
    "city": "名古屋市中川区",
    "city_kana": "ナゴヤシナカガワク",
    "town": "長良町",
    "town_kana": "ナガラチョウ",
    "street": null,
    "office_name": null,
    "office_name_kana": null
  },
  "0816": {
    "zip_code": "4540816",
    "prefecture": "愛知県",
    "prefecture_kana": "アイチケン",
    "prefecture_code": 23,
    "city": "名古屋市中川区",
    "city_kana": "ナゴヤシナカガワク",
    "town": "中京南通",
    "town_kana": "チュウキョウミナミトオリ",
    "street": null,
    "office_name": null,
    "office_name_kana": null
  },
  "0817": {
    "zip_code": "4540817",
    "prefecture": "愛知県",
    "prefecture_kana": "アイチケン",
    "prefecture_code": 23,
    "city": "名古屋市中川区",
    "city_kana": "ナゴヤシナカガワク",
    "town": "南脇町",
    "town_kana": "ミナミワキチョウ",
    "street": null,
    "office_name": null,
    "office_name_kana": null
  },
  "0818": {
    "zip_code": "4540818",
    "prefecture": "愛知県",
    "prefecture_kana": "アイチケン",
    "prefecture_code": 23,
    "city": "名古屋市中川区",
    "city_kana": "ナゴヤシナカガワク",
    "town": "松葉町",
    "town_kana": "マツバチョウ",
    "street": null,
    "office_name": null,
    "office_name_kana": null
  },
  "0819": {
    "zip_code": "4540819",
    "prefecture": "愛知県",
    "prefecture_kana": "アイチケン",
    "prefecture_code": 23,
    "city": "名古屋市中川区",
    "city_kana": "ナゴヤシナカガワク",
    "town": "烏森町",
    "town_kana": "カスモリチョウ",
    "street": null,
    "office_name": null,
    "office_name_kana": null
  },
  "0821": {
    "zip_code": "4540821",
    "prefecture": "愛知県",
    "prefecture_kana": "アイチケン",
    "prefecture_code": 23,
    "city": "名古屋市中川区",
    "city_kana": "ナゴヤシナカガワク",
    "town": "宗円町",
    "town_kana": "ソウエンチョウ",
    "street": null,
    "office_name": null,
    "office_name_kana": null
  },
  "0822": {
    "zip_code": "4540822",
    "prefecture": "愛知県",
    "prefecture_kana": "アイチケン",
    "prefecture_code": 23,
    "city": "名古屋市中川区",
    "city_kana": "ナゴヤシナカガワク",
    "town": "四女子町",
    "town_kana": "シニョシチョウ",
    "street": null,
    "office_name": null,
    "office_name_kana": null
  },
  "0823": {
    "zip_code": "4540823",
    "prefecture": "愛知県",
    "prefecture_kana": "アイチケン",
    "prefecture_code": 23,
    "city": "名古屋市中川区",
    "city_kana": "ナゴヤシナカガワク",
    "town": "富船町",
    "town_kana": "トミフネチョウ",
    "street": null,
    "office_name": null,
    "office_name_kana": null
  },
  "0824": {
    "zip_code": "4540824",
    "prefecture": "愛知県",
    "prefecture_kana": "アイチケン",
    "prefecture_code": 23,
    "city": "名古屋市中川区",
    "city_kana": "ナゴヤシナカガワク",
    "town": "蔦元町",
    "town_kana": "ツタモトチョウ",
    "street": null,
    "office_name": null,
    "office_name_kana": null
  },
  "0825": {
    "zip_code": "4540825",
    "prefecture": "愛知県",
    "prefecture_kana": "アイチケン",
    "prefecture_code": 23,
    "city": "名古屋市中川区",
    "city_kana": "ナゴヤシナカガワク",
    "town": "好本町",
    "town_kana": "ヨシモトチョウ",
    "street": null,
    "office_name": null,
    "office_name_kana": null
  },
  "0826": {
    "zip_code": "4540826",
    "prefecture": "愛知県",
    "prefecture_kana": "アイチケン",
    "prefecture_code": 23,
    "city": "名古屋市中川区",
    "city_kana": "ナゴヤシナカガワク",
    "town": "小本本町",
    "town_kana": "コモトホンマチ",
    "street": null,
    "office_name": null,
    "office_name_kana": null
  },
  "0827": {
    "zip_code": "4540827",
    "prefecture": "愛知県",
    "prefecture_kana": "アイチケン",
    "prefecture_code": 23,
    "city": "名古屋市中川区",
    "city_kana": "ナゴヤシナカガワク",
    "town": "辻畑町",
    "town_kana": "ツジバタチョウ",
    "street": null,
    "office_name": null,
    "office_name_kana": null
  },
  "0828": {
    "zip_code": "4540828",
    "prefecture": "愛知県",
    "prefecture_kana": "アイチケン",
    "prefecture_code": 23,
    "city": "名古屋市中川区",
    "city_kana": "ナゴヤシナカガワク",
    "town": "小本",
    "town_kana": "コモト",
    "street": null,
    "office_name": null,
    "office_name_kana": null
  },
  "0829": {
    "zip_code": "4540829",
    "prefecture": "愛知県",
    "prefecture_kana": "アイチケン",
    "prefecture_code": 23,
    "city": "名古屋市中川区",
    "city_kana": "ナゴヤシナカガワク",
    "town": "小本町",
    "town_kana": "オモトチョウ",
    "street": null,
    "office_name": null,
    "office_name_kana": null
  },
  "0831": {
    "zip_code": "4540831",
    "prefecture": "愛知県",
    "prefecture_kana": "アイチケン",
    "prefecture_code": 23,
    "city": "名古屋市中川区",
    "city_kana": "ナゴヤシナカガワク",
    "town": "三ツ屋町",
    "town_kana": "ミツヤチョウ",
    "street": null,
    "office_name": null,
    "office_name_kana": null
  },
  "0832": {
    "zip_code": "4540832",
    "prefecture": "愛知県",
    "prefecture_kana": "アイチケン",
    "prefecture_code": 23,
    "city": "名古屋市中川区",
    "city_kana": "ナゴヤシナカガワク",
    "town": "清船町",
    "town_kana": "キヨフネチョウ",
    "street": null,
    "office_name": null,
    "office_name_kana": null
  },
  "0833": {
    "zip_code": "4540833",
    "prefecture": "愛知県",
    "prefecture_kana": "アイチケン",
    "prefecture_code": 23,
    "city": "名古屋市中川区",
    "city_kana": "ナゴヤシナカガワク",
    "town": "上脇町",
    "town_kana": "カミワキチョウ",
    "street": null,
    "office_name": null,
    "office_name_kana": null
  },
  "0834": {
    "zip_code": "4540834",
    "prefecture": "愛知県",
    "prefecture_kana": "アイチケン",
    "prefecture_code": 23,
    "city": "名古屋市中川区",
    "city_kana": "ナゴヤシナカガワク",
    "town": "丸米町",
    "town_kana": "マルコメチョウ",
    "street": null,
    "office_name": null,
    "office_name_kana": null
  },
  "0835": {
    "zip_code": "4540835",
    "prefecture": "愛知県",
    "prefecture_kana": "アイチケン",
    "prefecture_code": 23,
    "city": "名古屋市中川区",
    "city_kana": "ナゴヤシナカガワク",
    "town": "八家町",
    "town_kana": "ヤツヤチョウ",
    "street": null,
    "office_name": null,
    "office_name_kana": null
  },
  "0836": {
    "zip_code": "4540836",
    "prefecture": "愛知県",
    "prefecture_kana": "アイチケン",
    "prefecture_code": 23,
    "city": "名古屋市中川区",
    "city_kana": "ナゴヤシナカガワク",
    "town": "福船町",
    "town_kana": "フクフネチョウ",
    "street": null,
    "office_name": null,
    "office_name_kana": null
  },
  "0837": {
    "zip_code": "4540837",
    "prefecture": "愛知県",
    "prefecture_kana": "アイチケン",
    "prefecture_code": 23,
    "city": "名古屋市中川区",
    "city_kana": "ナゴヤシナカガワク",
    "town": "中野新町",
    "town_kana": "ナカノシンチョウ",
    "street": null,
    "office_name": null,
    "office_name_kana": null
  },
  "0838": {
    "zip_code": "4540838",
    "prefecture": "愛知県",
    "prefecture_kana": "アイチケン",
    "prefecture_code": 23,
    "city": "名古屋市中川区",
    "city_kana": "ナゴヤシナカガワク",
    "town": "太平通",
    "town_kana": "タイヘイトオリ",
    "street": null,
    "office_name": null,
    "office_name_kana": null
  },
  "0839": {
    "zip_code": "4540839",
    "prefecture": "愛知県",
    "prefecture_kana": "アイチケン",
    "prefecture_code": 23,
    "city": "名古屋市中川区",
    "city_kana": "ナゴヤシナカガワク",
    "town": "篠原橋通",
    "town_kana": "シノハラバシトオリ",
    "street": null,
    "office_name": null,
    "office_name_kana": null
  },
  "0841": {
    "zip_code": "4540841",
    "prefecture": "愛知県",
    "prefecture_kana": "アイチケン",
    "prefecture_code": 23,
    "city": "名古屋市中川区",
    "city_kana": "ナゴヤシナカガワク",
    "town": "押元町",
    "town_kana": "オシモトチョウ",
    "street": null,
    "office_name": null,
    "office_name_kana": null
  },
  "0842": {
    "zip_code": "4540842",
    "prefecture": "愛知県",
    "prefecture_kana": "アイチケン",
    "prefecture_code": 23,
    "city": "名古屋市中川区",
    "city_kana": "ナゴヤシナカガワク",
    "town": "宮脇町",
    "town_kana": "ミヤワキチョウ",
    "street": null,
    "office_name": null,
    "office_name_kana": null
  },
  "0843": {
    "zip_code": "4540843",
    "prefecture": "愛知県",
    "prefecture_kana": "アイチケン",
    "prefecture_code": 23,
    "city": "名古屋市中川区",
    "city_kana": "ナゴヤシナカガワク",
    "town": "大畑町",
    "town_kana": "オオハタチョウ",
    "street": null,
    "office_name": null,
    "office_name_kana": null
  },
  "0844": {
    "zip_code": "4540844",
    "prefecture": "愛知県",
    "prefecture_kana": "アイチケン",
    "prefecture_code": 23,
    "city": "名古屋市中川区",
    "city_kana": "ナゴヤシナカガワク",
    "town": "葉池町",
    "town_kana": "ハイケチョウ",
    "street": null,
    "office_name": null,
    "office_name_kana": null
  },
  "0845": {
    "zip_code": "4540845",
    "prefecture": "愛知県",
    "prefecture_kana": "アイチケン",
    "prefecture_code": 23,
    "city": "名古屋市中川区",
    "city_kana": "ナゴヤシナカガワク",
    "town": "馬手町",
    "town_kana": "ウマテチョウ",
    "street": null,
    "office_name": null,
    "office_name_kana": null
  },
  "0846": {
    "zip_code": "4540846",
    "prefecture": "愛知県",
    "prefecture_kana": "アイチケン",
    "prefecture_code": 23,
    "city": "名古屋市中川区",
    "city_kana": "ナゴヤシナカガワク",
    "town": "上流町",
    "town_kana": "カミナガレチョウ",
    "street": null,
    "office_name": null,
    "office_name_kana": null
  },
  "0847": {
    "zip_code": "4540847",
    "prefecture": "愛知県",
    "prefecture_kana": "アイチケン",
    "prefecture_code": 23,
    "city": "名古屋市中川区",
    "city_kana": "ナゴヤシナカガワク",
    "town": "細米町",
    "town_kana": "ホソコメチョウ",
    "street": null,
    "office_name": null,
    "office_name_kana": null
  },
  "0848": {
    "zip_code": "4540848",
    "prefecture": "愛知県",
    "prefecture_kana": "アイチケン",
    "prefecture_code": 23,
    "city": "名古屋市中川区",
    "city_kana": "ナゴヤシナカガワク",
    "town": "松ノ木町",
    "town_kana": "マツノキチョウ",
    "street": null,
    "office_name": null,
    "office_name_kana": null
  },
  "0849": {
    "zip_code": "4540849",
    "prefecture": "愛知県",
    "prefecture_kana": "アイチケン",
    "prefecture_code": 23,
    "city": "名古屋市中川区",
    "city_kana": "ナゴヤシナカガワク",
    "town": "小塚町",
    "town_kana": "コヅカチョウ",
    "street": null,
    "office_name": null,
    "office_name_kana": null
  },
  "0851": {
    "zip_code": "4540851",
    "prefecture": "愛知県",
    "prefecture_kana": "アイチケン",
    "prefecture_code": 23,
    "city": "名古屋市中川区",
    "city_kana": "ナゴヤシナカガワク",
    "town": "北江町",
    "town_kana": "キタエチョウ",
    "street": null,
    "office_name": null,
    "office_name_kana": null
  },
  "0852": {
    "zip_code": "4540852",
    "prefecture": "愛知県",
    "prefecture_kana": "アイチケン",
    "prefecture_code": 23,
    "city": "名古屋市中川区",
    "city_kana": "ナゴヤシナカガワク",
    "town": "昭和橋通",
    "town_kana": "ショウワバシトオリ",
    "street": null,
    "office_name": null,
    "office_name_kana": null
  },
  "0853": {
    "zip_code": "4540853",
    "prefecture": "愛知県",
    "prefecture_kana": "アイチケン",
    "prefecture_code": 23,
    "city": "名古屋市中川区",
    "city_kana": "ナゴヤシナカガワク",
    "town": "玉船町",
    "town_kana": "タマフネチョウ",
    "street": null,
    "office_name": null,
    "office_name_kana": null
  },
  "0854": {
    "zip_code": "4540854",
    "prefecture": "愛知県",
    "prefecture_kana": "アイチケン",
    "prefecture_code": 23,
    "city": "名古屋市中川区",
    "city_kana": "ナゴヤシナカガワク",
    "town": "松年町",
    "town_kana": "ショウネンチョウ",
    "street": null,
    "office_name": null,
    "office_name_kana": null
  },
  "0855": {
    "zip_code": "4540855",
    "prefecture": "愛知県",
    "prefecture_kana": "アイチケン",
    "prefecture_code": 23,
    "city": "名古屋市中川区",
    "city_kana": "ナゴヤシナカガワク",
    "town": "昭明町",
    "town_kana": "ショウメイチョウ",
    "street": null,
    "office_name": null,
    "office_name_kana": null
  },
  "0856": {
    "zip_code": "4540856",
    "prefecture": "愛知県",
    "prefecture_kana": "アイチケン",
    "prefecture_code": 23,
    "city": "名古屋市中川区",
    "city_kana": "ナゴヤシナカガワク",
    "town": "小碓通",
    "town_kana": "コウスドオリ",
    "street": null,
    "office_name": null,
    "office_name_kana": null
  },
  "0857": {
    "zip_code": "4540857",
    "prefecture": "愛知県",
    "prefecture_kana": "アイチケン",
    "prefecture_code": 23,
    "city": "名古屋市中川区",
    "city_kana": "ナゴヤシナカガワク",
    "town": "明徳町",
    "town_kana": "メイトクチョウ",
    "street": null,
    "office_name": null,
    "office_name_kana": null
  },
  "0858": {
    "zip_code": "4540858",
    "prefecture": "愛知県",
    "prefecture_kana": "アイチケン",
    "prefecture_code": 23,
    "city": "名古屋市中川区",
    "city_kana": "ナゴヤシナカガワク",
    "town": "正徳町",
    "town_kana": "ショウトクチョウ",
    "street": null,
    "office_name": null,
    "office_name_kana": null
  },
  "0859": {
    "zip_code": "4540859",
    "prefecture": "愛知県",
    "prefecture_kana": "アイチケン",
    "prefecture_code": 23,
    "city": "名古屋市中川区",
    "city_kana": "ナゴヤシナカガワク",
    "town": "法蔵町",
    "town_kana": "ホウゾウチョウ",
    "street": null,
    "office_name": null,
    "office_name_kana": null
  },
  "0860": {
    "zip_code": "4540860",
    "prefecture": "愛知県",
    "prefecture_kana": "アイチケン",
    "prefecture_code": 23,
    "city": "名古屋市中川区",
    "city_kana": "ナゴヤシナカガワク",
    "town": "畑田町",
    "town_kana": "ハタダチョウ",
    "street": null,
    "office_name": null,
    "office_name_kana": null
  },
  "0861": {
    "zip_code": "4540861",
    "prefecture": "愛知県",
    "prefecture_kana": "アイチケン",
    "prefecture_code": 23,
    "city": "名古屋市中川区",
    "city_kana": "ナゴヤシナカガワク",
    "town": "荒子町",
    "town_kana": "アラコチョウ",
    "street": null,
    "office_name": null,
    "office_name_kana": null
  },
  "0862": {
    "zip_code": "4540862",
    "prefecture": "愛知県",
    "prefecture_kana": "アイチケン",
    "prefecture_code": 23,
    "city": "名古屋市中川区",
    "city_kana": "ナゴヤシナカガワク",
    "town": "的場町",
    "town_kana": "マトバチョウ",
    "street": null,
    "office_name": null,
    "office_name_kana": null
  },
  "0863": {
    "zip_code": "4540863",
    "prefecture": "愛知県",
    "prefecture_kana": "アイチケン",
    "prefecture_code": 23,
    "city": "名古屋市中川区",
    "city_kana": "ナゴヤシナカガワク",
    "town": "大塩町",
    "town_kana": "オオシオチョウ",
    "street": null,
    "office_name": null,
    "office_name_kana": null
  },
  "0864": {
    "zip_code": "4540864",
    "prefecture": "愛知県",
    "prefecture_kana": "アイチケン",
    "prefecture_code": 23,
    "city": "名古屋市中川区",
    "city_kana": "ナゴヤシナカガワク",
    "town": "平戸町",
    "town_kana": "ヒラトチョウ",
    "street": null,
    "office_name": null,
    "office_name_kana": null
  },
  "0865": {
    "zip_code": "4540865",
    "prefecture": "愛知県",
    "prefecture_kana": "アイチケン",
    "prefecture_code": 23,
    "city": "名古屋市中川区",
    "city_kana": "ナゴヤシナカガワク",
    "town": "掛入町",
    "town_kana": "カケイリチョウ",
    "street": null,
    "office_name": null,
    "office_name_kana": null
  },
  "0866": {
    "zip_code": "4540866",
    "prefecture": "愛知県",
    "prefecture_kana": "アイチケン",
    "prefecture_code": 23,
    "city": "名古屋市中川区",
    "city_kana": "ナゴヤシナカガワク",
    "town": "東中島町",
    "town_kana": "ヒガシナカジマチョウ",
    "street": null,
    "office_name": null,
    "office_name_kana": null
  },
  "0867": {
    "zip_code": "4540867",
    "prefecture": "愛知県",
    "prefecture_kana": "アイチケン",
    "prefecture_code": 23,
    "city": "名古屋市中川区",
    "city_kana": "ナゴヤシナカガワク",
    "town": "広田町",
    "town_kana": "ヒロタチョウ",
    "street": null,
    "office_name": null,
    "office_name_kana": null
  },
  "0868": {
    "zip_code": "4540868",
    "prefecture": "愛知県",
    "prefecture_kana": "アイチケン",
    "prefecture_code": 23,
    "city": "名古屋市中川区",
    "city_kana": "ナゴヤシナカガワク",
    "town": "草平町",
    "town_kana": "クサヒラチョウ",
    "street": null,
    "office_name": null,
    "office_name_kana": null
  },
  "0869": {
    "zip_code": "4540869",
    "prefecture": "愛知県",
    "prefecture_kana": "アイチケン",
    "prefecture_code": 23,
    "city": "名古屋市中川区",
    "city_kana": "ナゴヤシナカガワク",
    "town": "荒子",
    "town_kana": "アラコ",
    "street": null,
    "office_name": null,
    "office_name_kana": null
  },
  "0871": {
    "zip_code": "4540871",
    "prefecture": "愛知県",
    "prefecture_kana": "アイチケン",
    "prefecture_code": 23,
    "city": "名古屋市中川区",
    "city_kana": "ナゴヤシナカガワク",
    "town": "柳森町",
    "town_kana": "ヤナモリチョウ",
    "street": null,
    "office_name": null,
    "office_name_kana": null
  },
  "0872": {
    "zip_code": "4540872",
    "prefecture": "愛知県",
    "prefecture_kana": "アイチケン",
    "prefecture_code": 23,
    "city": "名古屋市中川区",
    "city_kana": "ナゴヤシナカガワク",
    "town": "万町",
    "town_kana": "マンチョウ",
    "street": null,
    "office_name": null,
    "office_name_kana": null
  },
  "0873": {
    "zip_code": "4540873",
    "prefecture": "愛知県",
    "prefecture_kana": "アイチケン",
    "prefecture_code": 23,
    "city": "名古屋市中川区",
    "city_kana": "ナゴヤシナカガワク",
    "town": "上高畑",
    "town_kana": "カミタカバタ",
    "street": null,
    "office_name": null,
    "office_name_kana": null
  },
  "0874": {
    "zip_code": "4540874",
    "prefecture": "愛知県",
    "prefecture_kana": "アイチケン",
    "prefecture_code": 23,
    "city": "名古屋市中川区",
    "city_kana": "ナゴヤシナカガワク",
    "town": "吉良町",
    "town_kana": "キラチョウ",
    "street": null,
    "office_name": null,
    "office_name_kana": null
  },
  "0875": {
    "zip_code": "4540875",
    "prefecture": "愛知県",
    "prefecture_kana": "アイチケン",
    "prefecture_code": 23,
    "city": "名古屋市中川区",
    "city_kana": "ナゴヤシナカガワク",
    "town": "小城町",
    "town_kana": "コシロチョウ",
    "street": null,
    "office_name": null,
    "office_name_kana": null
  },
  "0876": {
    "zip_code": "4540876",
    "prefecture": "愛知県",
    "prefecture_kana": "アイチケン",
    "prefecture_code": 23,
    "city": "名古屋市中川区",
    "city_kana": "ナゴヤシナカガワク",
    "town": "若山町",
    "town_kana": "ワカヤマチョウ",
    "street": null,
    "office_name": null,
    "office_name_kana": null
  },
  "0877": {
    "zip_code": "4540877",
    "prefecture": "愛知県",
    "prefecture_kana": "アイチケン",
    "prefecture_code": 23,
    "city": "名古屋市中川区",
    "city_kana": "ナゴヤシナカガワク",
    "town": "八田町",
    "town_kana": "ハッタチョウ",
    "street": null,
    "office_name": null,
    "office_name_kana": null
  },
  "0901": [
    {
      "zip_code": "4540901",
      "prefecture": "愛知県",
      "prefecture_kana": "アイチケン",
      "prefecture_code": 23,
      "city": "名古屋市中川区",
      "city_kana": "ナゴヤシナカガワク",
      "town": "岩塚町",
      "town_kana": "イワツカチョウ",
      "street": null,
      "office_name": null,
      "office_name_kana": null
    },
    {
      "zip_code": "4540901",
      "prefecture": "愛知県",
      "prefecture_kana": "アイチケン",
      "prefecture_code": 23,
      "city": "名古屋市中川区",
      "city_kana": "ナゴヤシナカガワク",
      "town": "岩塚町本地",
      "town_kana": "イワツカチョウホンヂ",
      "street": null,
      "office_name": null,
      "office_name_kana": null
    }
  ],
  "0902": {
    "zip_code": "4540902",
    "prefecture": "愛知県",
    "prefecture_kana": "アイチケン",
    "prefecture_code": 23,
    "city": "名古屋市中川区",
    "city_kana": "ナゴヤシナカガワク",
    "town": "花池町",
    "town_kana": "ハナイケチョウ",
    "street": null,
    "office_name": null,
    "office_name_kana": null
  },
  "0903": {
    "zip_code": "4540903",
    "prefecture": "愛知県",
    "prefecture_kana": "アイチケン",
    "prefecture_code": 23,
    "city": "名古屋市中川区",
    "city_kana": "ナゴヤシナカガワク",
    "town": "柳瀬町",
    "town_kana": "ヤナセチョウ",
    "street": null,
    "office_name": null,
    "office_name_kana": null
  },
  "0904": {
    "zip_code": "4540904",
    "prefecture": "愛知県",
    "prefecture_kana": "アイチケン",
    "prefecture_code": 23,
    "city": "名古屋市中川区",
    "city_kana": "ナゴヤシナカガワク",
    "town": "八田本町",
    "town_kana": "ハッタホンマチ",
    "street": null,
    "office_name": null,
    "office_name_kana": null
  },
  "0905": {
    "zip_code": "4540905",
    "prefecture": "愛知県",
    "prefecture_kana": "アイチケン",
    "prefecture_code": 23,
    "city": "名古屋市中川区",
    "city_kana": "ナゴヤシナカガワク",
    "town": "一柳通",
    "town_kana": "イチヤナギドオリ",
    "street": null,
    "office_name": null,
    "office_name_kana": null
  },
  "0906": {
    "zip_code": "4540906",
    "prefecture": "愛知県",
    "prefecture_kana": "アイチケン",
    "prefecture_code": 23,
    "city": "名古屋市中川区",
    "city_kana": "ナゴヤシナカガワク",
    "town": "開平町",
    "town_kana": "カイヘイチョウ",
    "street": null,
    "office_name": null,
    "office_name_kana": null
  },
  "0907": {
    "zip_code": "4540907",
    "prefecture": "愛知県",
    "prefecture_kana": "アイチケン",
    "prefecture_code": 23,
    "city": "名古屋市中川区",
    "city_kana": "ナゴヤシナカガワク",
    "town": "柳田町",
    "town_kana": "ヤナギダチョウ",
    "street": null,
    "office_name": null,
    "office_name_kana": null
  },
  "0911": {
    "zip_code": "4540911",
    "prefecture": "愛知県",
    "prefecture_kana": "アイチケン",
    "prefecture_code": 23,
    "city": "名古屋市中川区",
    "city_kana": "ナゴヤシナカガワク",
    "town": "高畑",
    "town_kana": "タカバタ",
    "street": null,
    "office_name": null,
    "office_name_kana": null
  },
  "0912": {
    "zip_code": "4540912",
    "prefecture": "愛知県",
    "prefecture_kana": "アイチケン",
    "prefecture_code": 23,
    "city": "名古屋市中川区",
    "city_kana": "ナゴヤシナカガワク",
    "town": "野田",
    "town_kana": "ノダ",
    "street": null,
    "office_name": null,
    "office_name_kana": null
  },
  "0913": {
    "zip_code": "4540913",
    "prefecture": "愛知県",
    "prefecture_kana": "アイチケン",
    "prefecture_code": 23,
    "city": "名古屋市中川区",
    "city_kana": "ナゴヤシナカガワク",
    "town": "土野町",
    "town_kana": "ツチノチョウ",
    "street": null,
    "office_name": null,
    "office_name_kana": null
  },
  "0914": {
    "zip_code": "4540914",
    "prefecture": "愛知県",
    "prefecture_kana": "アイチケン",
    "prefecture_code": 23,
    "city": "名古屋市中川区",
    "city_kana": "ナゴヤシナカガワク",
    "town": "本前田町",
    "town_kana": "ホンマエダチョウ",
    "street": null,
    "office_name": null,
    "office_name_kana": null
  },
  "0915": {
    "zip_code": "4540915",
    "prefecture": "愛知県",
    "prefecture_kana": "アイチケン",
    "prefecture_code": 23,
    "city": "名古屋市中川区",
    "city_kana": "ナゴヤシナカガワク",
    "town": "横井",
    "town_kana": "ヨコイ",
    "street": null,
    "office_name": null,
    "office_name_kana": null
  },
  "0916": {
    "zip_code": "4540916",
    "prefecture": "愛知県",
    "prefecture_kana": "アイチケン",
    "prefecture_code": 23,
    "city": "名古屋市中川区",
    "city_kana": "ナゴヤシナカガワク",
    "town": "川前町",
    "town_kana": "カワマエチョウ",
    "street": null,
    "office_name": null,
    "office_name_kana": null
  },
  "0917": {
    "zip_code": "4540917",
    "prefecture": "愛知県",
    "prefecture_kana": "アイチケン",
    "prefecture_code": 23,
    "city": "名古屋市中川区",
    "city_kana": "ナゴヤシナカガワク",
    "town": "横前町",
    "town_kana": "ヨコマエチョウ",
    "street": null,
    "office_name": null,
    "office_name_kana": null
  },
  "0921": {
    "zip_code": "4540921",
    "prefecture": "愛知県",
    "prefecture_kana": "アイチケン",
    "prefecture_code": 23,
    "city": "名古屋市中川区",
    "city_kana": "ナゴヤシナカガワク",
    "town": "中郷",
    "town_kana": "チュウゴウ",
    "street": null,
    "office_name": null,
    "office_name_kana": null
  },
  "0922": {
    "zip_code": "4540922",
    "prefecture": "愛知県",
    "prefecture_kana": "アイチケン",
    "prefecture_code": 23,
    "city": "名古屋市中川区",
    "city_kana": "ナゴヤシナカガワク",
    "town": "荒中町",
    "town_kana": "アラナカチョウ",
    "street": null,
    "office_name": null,
    "office_name_kana": null
  },
  "0923": {
    "zip_code": "4540923",
    "prefecture": "愛知県",
    "prefecture_kana": "アイチケン",
    "prefecture_code": 23,
    "city": "名古屋市中川区",
    "city_kana": "ナゴヤシナカガワク",
    "town": "打出本町",
    "town_kana": "ウチデホンマチ",
    "street": null,
    "office_name": null,
    "office_name_kana": null
  },
  "0924": {
    "zip_code": "4540924",
    "prefecture": "愛知県",
    "prefecture_kana": "アイチケン",
    "prefecture_code": 23,
    "city": "名古屋市中川区",
    "city_kana": "ナゴヤシナカガワク",
    "town": "打出町",
    "town_kana": "ウチデチョウ",
    "street": null,
    "office_name": null,
    "office_name_kana": null
  },
  "0925": {
    "zip_code": "4540925",
    "prefecture": "愛知県",
    "prefecture_kana": "アイチケン",
    "prefecture_code": 23,
    "city": "名古屋市中川区",
    "city_kana": "ナゴヤシナカガワク",
    "town": "中須町",
    "town_kana": "ナカスチョウ",
    "street": null,
    "office_name": null,
    "office_name_kana": null
  },
  "0926": {
    "zip_code": "4540926",
    "prefecture": "愛知県",
    "prefecture_kana": "アイチケン",
    "prefecture_code": 23,
    "city": "名古屋市中川区",
    "city_kana": "ナゴヤシナカガワク",
    "town": "打出",
    "town_kana": "ウチデ",
    "street": null,
    "office_name": null,
    "office_name_kana": null
  },
  "0927": {
    "zip_code": "4540927",
    "prefecture": "愛知県",
    "prefecture_kana": "アイチケン",
    "prefecture_code": 23,
    "city": "名古屋市中川区",
    "city_kana": "ナゴヤシナカガワク",
    "town": "打中",
    "town_kana": "ウチナカ",
    "street": null,
    "office_name": null,
    "office_name_kana": null
  },
  "0931": {
    "zip_code": "4540931",
    "prefecture": "愛知県",
    "prefecture_kana": "アイチケン",
    "prefecture_code": 23,
    "city": "名古屋市中川区",
    "city_kana": "ナゴヤシナカガワク",
    "town": "中花町",
    "town_kana": "ナカハナチョウ",
    "street": null,
    "office_name": null,
    "office_name_kana": null
  },
  "0932": {
    "zip_code": "4540932",
    "prefecture": "愛知県",
    "prefecture_kana": "アイチケン",
    "prefecture_code": 23,
    "city": "名古屋市中川区",
    "city_kana": "ナゴヤシナカガワク",
    "town": "中島新町",
    "town_kana": "ナカジマシンチョウ",
    "street": null,
    "office_name": null,
    "office_name_kana": null
  },
  "0933": {
    "zip_code": "4540933",
    "prefecture": "愛知県",
    "prefecture_kana": "アイチケン",
    "prefecture_code": 23,
    "city": "名古屋市中川区",
    "city_kana": "ナゴヤシナカガワク",
    "town": "法華",
    "town_kana": "ホッケ",
    "street": null,
    "office_name": null,
    "office_name_kana": null
  },
  "0934": {
    "zip_code": "4540934",
    "prefecture": "愛知県",
    "prefecture_kana": "アイチケン",
    "prefecture_code": 23,
    "city": "名古屋市中川区",
    "city_kana": "ナゴヤシナカガワク",
    "town": "西中島",
    "town_kana": "ニシナカジマ",
    "street": null,
    "office_name": null,
    "office_name_kana": null
  },
  "0935": {
    "zip_code": "4540935",
    "prefecture": "愛知県",
    "prefecture_kana": "アイチケン",
    "prefecture_code": 23,
    "city": "名古屋市中川区",
    "city_kana": "ナゴヤシナカガワク",
    "town": "東起町",
    "town_kana": "ヒガシオコシチョウ",
    "street": null,
    "office_name": null,
    "office_name_kana": null
  },
  "0936": {
    "zip_code": "4540936",
    "prefecture": "愛知県",
    "prefecture_kana": "アイチケン",
    "prefecture_code": 23,
    "city": "名古屋市中川区",
    "city_kana": "ナゴヤシナカガワク",
    "town": "高杉町",
    "town_kana": "タカスギチョウ",
    "street": null,
    "office_name": null,
    "office_name_kana": null
  },
  "0937": {
    "zip_code": "4540937",
    "prefecture": "愛知県",
    "prefecture_kana": "アイチケン",
    "prefecture_code": 23,
    "city": "名古屋市中川区",
    "city_kana": "ナゴヤシナカガワク",
    "town": "法華西町",
    "town_kana": "ホッケニシマチ",
    "street": null,
    "office_name": null,
    "office_name_kana": null
  },
  "0941": {
    "zip_code": "4540941",
    "prefecture": "愛知県",
    "prefecture_kana": "アイチケン",
    "prefecture_code": 23,
    "city": "名古屋市中川区",
    "city_kana": "ナゴヤシナカガワク",
    "town": "前田西町",
    "town_kana": "マエダニシマチ",
    "street": null,
    "office_name": null,
    "office_name_kana": null
  },
  "0942": {
    "zip_code": "4540942",
    "prefecture": "愛知県",
    "prefecture_kana": "アイチケン",
    "prefecture_code": 23,
    "city": "名古屋市中川区",
    "city_kana": "ナゴヤシナカガワク",
    "town": "富田町前田",
    "town_kana": "トミダチョウマエダ",
    "street": null,
    "office_name": null,
    "office_name_kana": null
  },
  "0943": {
    "zip_code": "4540943",
    "prefecture": "愛知県",
    "prefecture_kana": "アイチケン",
    "prefecture_code": 23,
    "city": "名古屋市中川区",
    "city_kana": "ナゴヤシナカガワク",
    "town": "大当郎",
    "town_kana": "ダイトウロウ",
    "street": null,
    "office_name": null,
    "office_name_kana": null
  },
  "0944": {
    "zip_code": "4540944",
    "prefecture": "愛知県",
    "prefecture_kana": "アイチケン",
    "prefecture_code": 23,
    "city": "名古屋市中川区",
    "city_kana": "ナゴヤシナカガワク",
    "town": "大蟷螂町",
    "town_kana": "ダイトウロウチョウ",
    "street": null,
    "office_name": null,
    "office_name_kana": null
  },
  "0945": {
    "zip_code": "4540945",
    "prefecture": "愛知県",
    "prefecture_kana": "アイチケン",
    "prefecture_code": 23,
    "city": "名古屋市中川区",
    "city_kana": "ナゴヤシナカガワク",
    "town": "下之一色町",
    "town_kana": "シモノイッシキチョウ",
    "street": null,
    "office_name": null,
    "office_name_kana": null
  },
  "0946": {
    "zip_code": "4540946",
    "prefecture": "愛知県",
    "prefecture_kana": "アイチケン",
    "prefecture_code": 23,
    "city": "名古屋市中川区",
    "city_kana": "ナゴヤシナカガワク",
    "town": "一色新町",
    "town_kana": "イシキシンマチ",
    "street": null,
    "office_name": null,
    "office_name_kana": null
  },
  "0947": {
    "zip_code": "4540947",
    "prefecture": "愛知県",
    "prefecture_kana": "アイチケン",
    "prefecture_code": 23,
    "city": "名古屋市中川区",
    "city_kana": "ナゴヤシナカガワク",
    "town": "助光",
    "town_kana": "スケミツ",
    "street": null,
    "office_name": null,
    "office_name_kana": null
  },
  "0951": {
    "zip_code": "4540951",
    "prefecture": "愛知県",
    "prefecture_kana": "アイチケン",
    "prefecture_code": 23,
    "city": "名古屋市中川区",
    "city_kana": "ナゴヤシナカガワク",
    "town": "榎津西町",
    "town_kana": "エノキヅニシマチ",
    "street": null,
    "office_name": null,
    "office_name_kana": null
  },
  "0952": {
    "zip_code": "4540952",
    "prefecture": "愛知県",
    "prefecture_kana": "アイチケン",
    "prefecture_code": 23,
    "city": "名古屋市中川区",
    "city_kana": "ナゴヤシナカガワク",
    "town": "榎松町",
    "town_kana": "エノキマツチョウ",
    "street": null,
    "office_name": null,
    "office_name_kana": null
  },
  "0953": {
    "zip_code": "4540953",
    "prefecture": "愛知県",
    "prefecture_kana": "アイチケン",
    "prefecture_code": 23,
    "city": "名古屋市中川区",
    "city_kana": "ナゴヤシナカガワク",
    "town": "富田町榎津",
    "town_kana": "トミダチョウヨノキヅ",
    "street": null,
    "office_name": null,
    "office_name_kana": null
  },
  "0954": [
    {
      "zip_code": "4540954",
      "prefecture": "愛知県",
      "prefecture_kana": "アイチケン",
      "prefecture_code": 23,
      "city": "名古屋市中川区",
      "city_kana": "ナゴヤシナカガワク",
      "town": "江松",
      "town_kana": "エマツ",
      "street": null,
      "office_name": null,
      "office_name_kana": null
    },
    {
      "zip_code": "4540954",
      "prefecture": "愛知県",
      "prefecture_kana": "アイチケン",
      "prefecture_code": 23,
      "city": "名古屋市中川区",
      "city_kana": "ナゴヤシナカガワク",
      "town": "富田町江松",
      "town_kana": "トミダチョウエマツ",
      "street": null,
      "office_name": null,
      "office_name_kana": null
    }
  ],
  "0955": {
    "zip_code": "4540955",
    "prefecture": "愛知県",
    "prefecture_kana": "アイチケン",
    "prefecture_code": 23,
    "city": "名古屋市中川区",
    "city_kana": "ナゴヤシナカガワク",
    "town": "富田町包里",
    "town_kana": "トミダチョウカノサト",
    "street": null,
    "office_name": null,
    "office_name_kana": null
  },
  "0956": {
    "zip_code": "4540956",
    "prefecture": "愛知県",
    "prefecture_kana": "アイチケン",
    "prefecture_code": 23,
    "city": "名古屋市中川区",
    "city_kana": "ナゴヤシナカガワク",
    "town": "富田町供米田",
    "town_kana": "トミダチョウクマイデン",
    "street": null,
    "office_name": null,
    "office_name_kana": null
  },
  "0957": {
    "zip_code": "4540957",
    "prefecture": "愛知県",
    "prefecture_kana": "アイチケン",
    "prefecture_code": 23,
    "city": "名古屋市中川区",
    "city_kana": "ナゴヤシナカガワク",
    "town": "かの里",
    "town_kana": "カノサト",
    "street": null,
    "office_name": null,
    "office_name_kana": null
  },
  "0958": {
    "zip_code": "4540958",
    "prefecture": "愛知県",
    "prefecture_kana": "アイチケン",
    "prefecture_code": 23,
    "city": "名古屋市中川区",
    "city_kana": "ナゴヤシナカガワク",
    "town": "東かの里町",
    "town_kana": "ヒガシカノサトチョウ",
    "street": null,
    "office_name": null,
    "office_name_kana": null
  },
  "0959": {
    "zip_code": "4540959",
    "prefecture": "愛知県",
    "prefecture_kana": "アイチケン",
    "prefecture_code": 23,
    "city": "名古屋市中川区",
    "city_kana": "ナゴヤシナカガワク",
    "town": "江松西町",
    "town_kana": "エマツニシマチ",
    "street": null,
    "office_name": null,
    "office_name_kana": null
  },
  "0961": [
    {
      "zip_code": "4540961",
      "prefecture": "愛知県",
      "prefecture_kana": "アイチケン",
      "prefecture_code": 23,
      "city": "名古屋市中川区",
      "city_kana": "ナゴヤシナカガワク",
      "town": "戸田明正",
      "town_kana": "トダメイセイ",
      "street": null,
      "office_name": null,
      "office_name_kana": null
    },
    {
      "zip_code": "4540961",
      "prefecture": "愛知県",
      "prefecture_kana": "アイチケン",
      "prefecture_code": 23,
      "city": "名古屋市中川区",
      "city_kana": "ナゴヤシナカガワク",
      "town": "富田町戸田",
      "town_kana": "トミダチョウトダ",
      "street": null,
      "office_name": null,
      "office_name_kana": null
    }
  ],
  "0962": {
    "zip_code": "4540962",
    "prefecture": "愛知県",
    "prefecture_kana": "アイチケン",
    "prefecture_code": 23,
    "city": "名古屋市中川区",
    "city_kana": "ナゴヤシナカガワク",
    "town": "戸田",
    "town_kana": "トダ",
    "street": null,
    "office_name": null,
    "office_name_kana": null
  },
  "0963": {
    "zip_code": "4540963",
    "prefecture": "愛知県",
    "prefecture_kana": "アイチケン",
    "prefecture_code": 23,
    "city": "名古屋市中川区",
    "city_kana": "ナゴヤシナカガワク",
    "town": "水里",
    "town_kana": "ミズサト",
    "street": null,
    "office_name": null,
    "office_name_kana": null
  },
  "0964": {
    "zip_code": "4540964",
    "prefecture": "愛知県",
    "prefecture_kana": "アイチケン",
    "prefecture_code": 23,
    "city": "名古屋市中川区",
    "city_kana": "ナゴヤシナカガワク",
    "town": "富永",
    "town_kana": "トミナガ",
    "street": null,
    "office_name": null,
    "office_name_kana": null
  },
  "0965": {
    "zip_code": "4540965",
    "prefecture": "愛知県",
    "prefecture_kana": "アイチケン",
    "prefecture_code": 23,
    "city": "名古屋市中川区",
    "city_kana": "ナゴヤシナカガワク",
    "town": "福島",
    "town_kana": "フクシマ",
    "street": null,
    "office_name": null,
    "office_name_kana": null
  },
  "0966": {
    "zip_code": "4540966",
    "prefecture": "愛知県",
    "prefecture_kana": "アイチケン",
    "prefecture_code": 23,
    "city": "名古屋市中川区",
    "city_kana": "ナゴヤシナカガワク",
    "town": "戸田ゆたか",
    "town_kana": "トダユタカ",
    "street": null,
    "office_name": null,
    "office_name_kana": null
  },
  "0967": {
    "zip_code": "4540967",
    "prefecture": "愛知県",
    "prefecture_kana": "アイチケン",
    "prefecture_code": 23,
    "city": "名古屋市中川区",
    "city_kana": "ナゴヤシナカガワク",
    "town": "戸田西",
    "town_kana": "トダニシ",
    "street": null,
    "office_name": null,
    "office_name_kana": null
  },
  "0971": {
    "zip_code": "4540971",
    "prefecture": "愛知県",
    "prefecture_kana": "アイチケン",
    "prefecture_code": 23,
    "city": "名古屋市中川区",
    "city_kana": "ナゴヤシナカガワク",
    "town": "富田町千音寺",
    "town_kana": "トミダチョウセンノンジ",
    "street": null,
    "office_name": null,
    "office_name_kana": null
  },
  "0972": {
    "zip_code": "4540972",
    "prefecture": "愛知県",
    "prefecture_kana": "アイチケン",
    "prefecture_code": 23,
    "city": "名古屋市中川区",
    "city_kana": "ナゴヤシナカガワク",
    "town": "新家",
    "town_kana": "ニイエ",
    "street": null,
    "office_name": null,
    "office_name_kana": null
  },
  "0973": {
    "zip_code": "4540973",
    "prefecture": "愛知県",
    "prefecture_kana": "アイチケン",
    "prefecture_code": 23,
    "city": "名古屋市中川区",
    "city_kana": "ナゴヤシナカガワク",
    "town": "富田町服部",
    "town_kana": "トミダチョウハットリ",
    "street": null,
    "office_name": null,
    "office_name_kana": null
  },
  "0974": {
    "zip_code": "4540974",
    "prefecture": "愛知県",
    "prefecture_kana": "アイチケン",
    "prefecture_code": 23,
    "city": "名古屋市中川区",
    "city_kana": "ナゴヤシナカガワク",
    "town": "島井町",
    "town_kana": "シマイチョウ",
    "street": null,
    "office_name": null,
    "office_name_kana": null
  },
  "0975": {
    "zip_code": "4540975",
    "prefecture": "愛知県",
    "prefecture_kana": "アイチケン",
    "prefecture_code": 23,
    "city": "名古屋市中川区",
    "city_kana": "ナゴヤシナカガワク",
    "town": "七反田町",
    "town_kana": "ヒチタンダチョウ",
    "street": null,
    "office_name": null,
    "office_name_kana": null
  },
  "0976": {
    "zip_code": "4540976",
    "prefecture": "愛知県",
    "prefecture_kana": "アイチケン",
    "prefecture_code": 23,
    "city": "名古屋市中川区",
    "city_kana": "ナゴヤシナカガワク",
    "town": "服部",
    "town_kana": "ハットリ",
    "street": null,
    "office_name": null,
    "office_name_kana": null
  },
  "0981": {
    "zip_code": "4540981",
    "prefecture": "愛知県",
    "prefecture_kana": "アイチケン",
    "prefecture_code": 23,
    "city": "名古屋市中川区",
    "city_kana": "ナゴヤシナカガワク",
    "town": "吉津",
    "town_kana": "ヨシヅ",
    "street": null,
    "office_name": null,
    "office_name_kana": null
  },
  "0982": {
    "zip_code": "4540982",
    "prefecture": "愛知県",
    "prefecture_kana": "アイチケン",
    "prefecture_code": 23,
    "city": "名古屋市中川区",
    "city_kana": "ナゴヤシナカガワク",
    "town": "西伏屋",
    "town_kana": "ニシフシヤ",
    "street": null,
    "office_name": null,
    "office_name_kana": null
  },
  "0983": {
    "zip_code": "4540983",
    "prefecture": "愛知県",
    "prefecture_kana": "アイチケン",
    "prefecture_code": 23,
    "city": "名古屋市中川区",
    "city_kana": "ナゴヤシナカガワク",
    "town": "東春田",
    "town_kana": "ヒガシハルタ",
    "street": null,
    "office_name": null,
    "office_name_kana": null
  },
  "0984": {
    "zip_code": "4540984",
    "prefecture": "愛知県",
    "prefecture_kana": "アイチケン",
    "prefecture_code": 23,
    "city": "名古屋市中川区",
    "city_kana": "ナゴヤシナカガワク",
    "town": "供米田",
    "town_kana": "クマイデン",
    "street": null,
    "office_name": null,
    "office_name_kana": null
  },
  "0985": {
    "zip_code": "4540985",
    "prefecture": "愛知県",
    "prefecture_kana": "アイチケン",
    "prefecture_code": 23,
    "city": "名古屋市中川区",
    "city_kana": "ナゴヤシナカガワク",
    "town": "春田",
    "town_kana": "ハルタ",
    "street": null,
    "office_name": null,
    "office_name_kana": null
  },
  "0986": {
    "zip_code": "4540986",
    "prefecture": "愛知県",
    "prefecture_kana": "アイチケン",
    "prefecture_code": 23,
    "city": "名古屋市中川区",
    "city_kana": "ナゴヤシナカガワク",
    "town": "富田町春田",
    "town_kana": "トミダチョウハルタ",
    "street": null,
    "office_name": null,
    "office_name_kana": null
  },
  "0991": {
    "zip_code": "4540991",
    "prefecture": "愛知県",
    "prefecture_kana": "アイチケン",
    "prefecture_code": 23,
    "city": "名古屋市中川区",
    "city_kana": "ナゴヤシナカガワク",
    "town": "大地",
    "town_kana": "ダイチ",
    "street": null,
    "office_name": null,
    "office_name_kana": null
  },
  "0992": {
    "zip_code": "4540992",
    "prefecture": "愛知県",
    "prefecture_kana": "アイチケン",
    "prefecture_code": 23,
    "city": "名古屋市中川区",
    "city_kana": "ナゴヤシナカガワク",
    "town": "富田町万場",
    "town_kana": "トミダチョウマンバ",
    "street": null,
    "office_name": null,
    "office_name_kana": null
  },
  "0993": {
    "zip_code": "4540993",
    "prefecture": "愛知県",
    "prefecture_kana": "アイチケン",
    "prefecture_code": 23,
    "city": "名古屋市中川区",
    "city_kana": "ナゴヤシナカガワク",
    "town": "富田町松下",
    "town_kana": "トミダチョウマツシタ",
    "street": null,
    "office_name": null,
    "office_name_kana": null
  },
  "0994": {
    "zip_code": "4540994",
    "prefecture": "愛知県",
    "prefecture_kana": "アイチケン",
    "prefecture_code": 23,
    "city": "名古屋市中川区",
    "city_kana": "ナゴヤシナカガワク",
    "town": "長須賀",
    "town_kana": "ナガスカ",
    "street": null,
    "office_name": null,
    "office_name_kana": null
  },
  "0995": {
    "zip_code": "4540995",
    "prefecture": "愛知県",
    "prefecture_kana": "アイチケン",
    "prefecture_code": 23,
    "city": "名古屋市中川区",
    "city_kana": "ナゴヤシナカガワク",
    "town": "富田町伏屋",
    "town_kana": "トミダチョウフシヤ",
    "street": null,
    "office_name": null,
    "office_name_kana": null
  },
  "0996": {
    "zip_code": "4540996",
    "prefecture": "愛知県",
    "prefecture_kana": "アイチケン",
    "prefecture_code": 23,
    "city": "名古屋市中川区",
    "city_kana": "ナゴヤシナカガワク",
    "town": "伏屋",
    "town_kana": "フシヤ",
    "street": null,
    "office_name": null,
    "office_name_kana": null
  },
  "0997": {
    "zip_code": "4540997",
    "prefecture": "愛知県",
    "prefecture_kana": "アイチケン",
    "prefecture_code": 23,
    "city": "名古屋市中川区",
    "city_kana": "ナゴヤシナカガワク",
    "town": "万場",
    "town_kana": "マンバ",
    "street": null,
    "office_name": null,
    "office_name_kana": null
  },
  "8501": {
    "zip_code": "4548501",
    "prefecture": "愛知県",
    "prefecture_kana": "アイチケン",
    "prefecture_code": 23,
    "city": "名古屋市中川区",
    "city_kana": "ナゴヤシナカガワク",
    "town": "高畑",
    "town_kana": "タカバタ",
    "street": "１丁目２２３",
    "office_name": "中川区役所",
    "office_name_kana": "ナカガワクヤクシヨ"
  },
  "8502": {
    "zip_code": "4548502",
    "prefecture": "愛知県",
    "prefecture_kana": "アイチケン",
    "prefecture_code": 23,
    "city": "名古屋市中川区",
    "city_kana": "ナゴヤシナカガワク",
    "town": "松年町",
    "town_kana": "ショウネンチョウ",
    "street": "４丁目６６",
    "office_name": "名古屋掖済会病院",
    "office_name_kana": "ナゴヤエキサイカイビヨウイン"
  },
  "8503": {
    "zip_code": "4548503",
    "prefecture": "愛知県",
    "prefecture_kana": "アイチケン",
    "prefecture_code": 23,
    "city": "名古屋市中川区",
    "city_kana": "ナゴヤシナカガワク",
    "town": "中郷",
    "town_kana": "チュウゴウ",
    "street": "１丁目３",
    "office_name": "愛知県　名古屋西部県税事務所",
    "office_name_kana": "アイチケン ナゴヤセイブケンゼイジムシヨ"
  },
  "8504": {
    "zip_code": "4548504",
    "prefecture": "愛知県",
    "prefecture_kana": null,
    "prefecture_code": null,
    "city": "名古屋市中川区",
    "city_kana": null,
    "town": "富田町",
    "town_kana": null,
    "street": "千音寺西尼ケ塚２０２",
    "office_name": "（株）　鈴木商会",
    "office_name_kana": "(カブ) スズキシヨウカイ"
  },
  "8505": {
    "zip_code": "4548505",
    "prefecture": "愛知県",
    "prefecture_kana": "アイチケン",
    "prefecture_code": 23,
    "city": "名古屋市中川区",
    "city_kana": "ナゴヤシナカガワク",
    "town": "乗越町",
    "town_kana": "ノリコシチョウ",
    "street": "１丁目１７",
    "office_name": "株式会社　ナスコム",
    "office_name_kana": "カブシキガイシヤ ナスコム"
  },
  "8506": {
    "zip_code": "4548506",
    "prefecture": "愛知県",
    "prefecture_kana": "アイチケン",
    "prefecture_code": 23,
    "city": "名古屋市中川区",
    "city_kana": "ナゴヤシナカガワク",
    "town": "小碓通",
    "town_kana": "コウスドオリ",
    "street": "５丁目１",
    "office_name": "中部鋼鈑　株式会社",
    "office_name_kana": "チユウブコウハン カブシキガイシヤ"
  },
  "8508": {
    "zip_code": "4548508",
    "prefecture": "愛知県",
    "prefecture_kana": "アイチケン",
    "prefecture_code": 23,
    "city": "名古屋市中川区",
    "city_kana": "ナゴヤシナカガワク",
    "town": "山王",
    "town_kana": "サンノウ",
    "street": "２丁目３−７２",
    "office_name": "上地木材",
    "office_name_kana": "ウエチモクザイ"
  },
  "8509": {
    "zip_code": "4548509",
    "prefecture": "愛知県",
    "prefecture_kana": "アイチケン",
    "prefecture_code": 23,
    "city": "名古屋市中川区",
    "city_kana": "ナゴヤシナカガワク",
    "town": "尾頭橋",
    "town_kana": "オトウバシ",
    "street": "３丁目６−１０",
    "office_name": "藤田保健衛生大学　坂文種報徳會病院",
    "office_name_kana": "フジタホケンエイセイダイガク バンタネホウトクカイビヨウイン"
  },
  "8511": {
    "zip_code": "4548511",
    "prefecture": "愛知県",
    "prefecture_kana": "アイチケン",
    "prefecture_code": 23,
    "city": "名古屋市中川区",
    "city_kana": "ナゴヤシナカガワク",
    "town": "尾頭橋",
    "town_kana": "オトウバシ",
    "street": "１丁目７番１９号",
    "office_name": "中川税務署",
    "office_name_kana": "ナカガワゼイムシヨ"
  },
  "8512": {
    "zip_code": "4548512",
    "prefecture": "愛知県",
    "prefecture_kana": "アイチケン",
    "prefecture_code": 23,
    "city": "名古屋市中川区",
    "city_kana": "ナゴヤシナカガワク",
    "town": "十一番町",
    "town_kana": "ジュウイチバンチョウ",
    "street": "２丁目６番地",
    "office_name": "株式会社　太田廣",
    "office_name_kana": "カブシキガイシヤ オオタヒロ"
  },
  "8514": {
    "zip_code": "4548514",
    "prefecture": "愛知県",
    "prefecture_kana": "アイチケン",
    "prefecture_code": 23,
    "city": "名古屋市中川区",
    "city_kana": "ナゴヤシナカガワク",
    "town": "広川町",
    "town_kana": "ヒロカワチョウ",
    "street": "５丁目１",
    "office_name": "株式会社　ミツウロコ中部事業部",
    "office_name_kana": "カブシキガイシヤ ミツウロコチユウブジギヨウブ"
  },
  "8515": {
    "zip_code": "4548515",
    "prefecture": "愛知県",
    "prefecture_kana": "アイチケン",
    "prefecture_code": 23,
    "city": "名古屋市中川区",
    "city_kana": "ナゴヤシナカガワク",
    "town": "西日置",
    "town_kana": "ニシヒオキ",
    "street": "二丁目３番５号",
    "office_name": "名鉄タクシーホールディングス　株式会社",
    "office_name_kana": "メイテツタクシ-ホ-ルデイングス カブシキガイシヤ"
  },
  "8516": {
    "zip_code": "4548516",
    "prefecture": "愛知県",
    "prefecture_kana": "アイチケン",
    "prefecture_code": 23,
    "city": "名古屋市中川区",
    "city_kana": "ナゴヤシナカガワク",
    "town": "福住町",
    "town_kana": "フクズミチョウ",
    "street": "１−１５",
    "office_name": "大東建託　株式会社　名古屋事務所",
    "office_name_kana": "ダイトウケンタク カブシキガイシヤ ナゴヤジムシヨ"
  },
  "8517": {
    "zip_code": "4548517",
    "prefecture": "愛知県",
    "prefecture_kana": "アイチケン",
    "prefecture_code": 23,
    "city": "名古屋市中川区",
    "city_kana": "ナゴヤシナカガワク",
    "town": "清川町",
    "town_kana": "キヨカワチョウ",
    "street": "２丁目１",
    "office_name": "瀧上工業　株式会社",
    "office_name_kana": "タキガミコウギヨウ カブシキガイシヤ"
  },
  "8518": {
    "zip_code": "4548518",
    "prefecture": "愛知県",
    "prefecture_kana": "アイチケン",
    "prefecture_code": 23,
    "city": "名古屋市中川区",
    "city_kana": "ナゴヤシナカガワク",
    "town": "玉川町",
    "town_kana": "タマカワチョウ",
    "street": "１丁目１番地",
    "office_name": "中日本氷糖　株式会社",
    "office_name_kana": "ナカニホンヒヨウトウ カブシキガイシヤ"
  },
  "8519": {
    "zip_code": "4548519",
    "prefecture": "愛知県",
    "prefecture_kana": "アイチケン",
    "prefecture_code": 23,
    "city": "名古屋市中川区",
    "city_kana": "ナゴヤシナカガワク",
    "town": "山王",
    "town_kana": "サンノウ",
    "street": "３丁目５−５",
    "office_name": "シャープファイナンス　株式会社　中部統轄支店",
    "office_name_kana": "シヤ-プフアイナンス (カ) チユウブトツカシテン"
  },
  "8520": {
    "zip_code": "4548520",
    "prefecture": "愛知県",
    "prefecture_kana": "アイチケン",
    "prefecture_code": 23,
    "city": "名古屋市中川区",
    "city_kana": "ナゴヤシナカガワク",
    "town": "長良町",
    "town_kana": "ナガラチョウ",
    "street": "１丁目１",
    "office_name": "日清製粉　株式会社　名古屋工場",
    "office_name_kana": "ニツシンセイフン カブシキガイシヤ ナゴヤコウジヨウ"
  },
  "8521": {
    "zip_code": "4548521",
    "prefecture": "愛知県",
    "prefecture_kana": "アイチケン",
    "prefecture_code": 23,
    "city": "名古屋市中川区",
    "city_kana": "ナゴヤシナカガワク",
    "town": "丸米町",
    "town_kana": "マルコメチョウ",
    "street": "１丁目１",
    "office_name": "宮崎精鋼　株式会社",
    "office_name_kana": "ミヤザキセイコウ カブシキガイシヤ"
  },
  "8522": {
    "zip_code": "4548522",
    "prefecture": "愛知県",
    "prefecture_kana": "アイチケン",
    "prefecture_code": 23,
    "city": "名古屋市中川区",
    "city_kana": "ナゴヤシナカガワク",
    "town": "篠原橋通",
    "town_kana": "シノハラバシトオリ",
    "street": "１丁目４",
    "office_name": "愛知県　中川警察署",
    "office_name_kana": "アイチケン ナカガワケイサツシヨ"
  },
  "8524": {
    "zip_code": "4548524",
    "prefecture": "愛知県",
    "prefecture_kana": "アイチケン",
    "prefecture_code": 23,
    "city": "名古屋市中川区",
    "city_kana": "ナゴヤシナカガワク",
    "town": "供米田",
    "town_kana": "クマイデン",
    "street": "２丁目１８１５",
    "office_name": "シンコール　株式会社",
    "office_name_kana": "シンコ-ル カブシキガイシヤ"
  },
  "8525": {
    "zip_code": "4548525",
    "prefecture": "愛知県",
    "prefecture_kana": "アイチケン",
    "prefecture_code": 23,
    "city": "名古屋市中川区",
    "city_kana": "ナゴヤシナカガワク",
    "town": "法華",
    "town_kana": "ホッケ",
    "street": "１丁目１７２",
    "office_name": "医療法人　偕行会　名古屋共立病院",
    "office_name_kana": "イリヨウホウジン カイコウカイ ナゴヤキヨウリツビヨウイン"
  },
  "8526": {
    "zip_code": "4548526",
    "prefecture": "愛知県",
    "prefecture_kana": "アイチケン",
    "prefecture_code": 23,
    "city": "名古屋市中川区",
    "city_kana": "ナゴヤシナカガワク",
    "town": "八幡本通",
    "town_kana": "ヤハタホントオリ",
    "street": "２丁目６１",
    "office_name": "金印　株式会社",
    "office_name_kana": "キンジルシ カブシキガイシヤ"
  },
  "8527": {
    "zip_code": "4548527",
    "prefecture": "愛知県",
    "prefecture_kana": "アイチケン",
    "prefecture_code": 23,
    "city": "名古屋市中川区",
    "city_kana": "ナゴヤシナカガワク",
    "town": "露橋",
    "town_kana": "ツユハシ",
    "street": "２丁目１２−２６",
    "office_name": "ワタナベフーマック　株式会社",
    "office_name_kana": "ワタナベフ-マツク カブシキガイシヤ"
  },
  "8529": {
    "zip_code": "4548529",
    "prefecture": "愛知県",
    "prefecture_kana": "アイチケン",
    "prefecture_code": 23,
    "city": "名古屋市中川区",
    "city_kana": "ナゴヤシナカガワク",
    "town": "山王",
    "town_kana": "サンノウ",
    "street": "３丁目５番５号",
    "office_name": "シャープエレクトロニクスマーケティング　株式会社",
    "office_name_kana": "シヤ-プエレクトロニクスマ-ケテイング カブシキガイシヤ"
  },
  "8530": {
    "zip_code": "4548530",
    "prefecture": "愛知県",
    "prefecture_kana": "アイチケン",
    "prefecture_code": 23,
    "city": "名古屋市中川区",
    "city_kana": "ナゴヤシナカガワク",
    "town": "富川町",
    "town_kana": "トミカワチョウ",
    "street": "４丁目１",
    "office_name": "三ツ矢製菓　株式会社",
    "office_name_kana": "ミツヤセイカ カブシキガイシヤ"
  },
  "8533": {
    "zip_code": "4548533",
    "prefecture": "愛知県",
    "prefecture_kana": null,
    "prefecture_code": null,
    "city": "名古屋市中川区",
    "city_kana": null,
    "town": "富田町",
    "town_kana": null,
    "street": "大字千音寺字１６割３７２１番１",
    "office_name": "西山商事　株式会社",
    "office_name_kana": "ニシヤマシヨウジ カブシキガイシヤ"
  },
  "8550": {
    "zip_code": "4548550",
    "prefecture": "愛知県",
    "prefecture_kana": "アイチケン",
    "prefecture_code": 23,
    "city": "名古屋市中川区",
    "city_kana": "ナゴヤシナカガワク",
    "town": "新家",
    "town_kana": "ニイエ",
    "street": "１丁目２４２１番地",
    "office_name": "株式会社　アズパーク",
    "office_name_kana": "カブシキガイシヤ アズパ-ク"
  },
  "8555": {
    "zip_code": "4548555",
    "prefecture": "愛知県",
    "prefecture_kana": "アイチケン",
    "prefecture_code": 23,
    "city": "名古屋市中川区",
    "city_kana": "ナゴヤシナカガワク",
    "town": "西日置",
    "town_kana": "ニシヒオキ",
    "street": "２丁目３番５号",
    "office_name": "株式会社　名鉄交通商事　名鉄タクシーチケットセンター",
    "office_name_kana": "カブシキガイシヤ メイテツコウツウシヨウジ メイテツタクシ-チケツトセンタ-"
  },
  "8558": {
    "zip_code": "4548558",
    "prefecture": "愛知県",
    "prefecture_kana": "アイチケン",
    "prefecture_code": 23,
    "city": "名古屋市中川区",
    "city_kana": "ナゴヤシナカガワク",
    "town": "北江町",
    "town_kana": "キタエチョウ",
    "street": "１丁目１−２",
    "office_name": "中部運輸局　愛知運輸支局",
    "office_name_kana": "チユウブウンユキヨク アイチウンユシキヨク"
  },
  "8560": {
    "zip_code": "4548560",
    "prefecture": "愛知県",
    "prefecture_kana": "アイチケン",
    "prefecture_code": 23,
    "city": "名古屋市中川区",
    "city_kana": "ナゴヤシナカガワク",
    "town": "新家",
    "town_kana": "ニイエ",
    "street": "１丁目２４２１番地",
    "office_name": "（株）　あかのれん　千音寺店",
    "office_name_kana": "(カブ) アカノレン センノンジテン"
  },
  "8565": {
    "zip_code": "4548565",
    "prefecture": "愛知県",
    "prefecture_kana": "アイチケン",
    "prefecture_code": 23,
    "city": "名古屋市中川区",
    "city_kana": "ナゴヤシナカガワク",
    "town": "清川町",
    "town_kana": "キヨカワチョウ",
    "street": "地内中川運河中幹線Ａ地区第２７号地",
    "office_name": "伊藤ハム　株式会社　名古屋事務所",
    "office_name_kana": "イトウハム カブシキガイシヤ ナゴヤジムシヨ"
  },
  "8651": {
    "zip_code": "4548651",
    "prefecture": "愛知県",
    "prefecture_kana": "アイチケン",
    "prefecture_code": 23,
    "city": "名古屋市中川区",
    "city_kana": "ナゴヤシナカガワク",
    "town": "福住町",
    "town_kana": "フクズミチョウ",
    "street": "２−２６（中川郵便局私書箱第７号）",
    "office_name": "リンナイ　株式会社",
    "office_name_kana": "リンナイ カブシキガイシヤ"
  }
}