{
  "8001": {
    "zip_code": "4598001",
    "prefecture": "愛知県",
    "prefecture_kana": "アイチケン",
    "prefecture_code": 23,
    "city": "名古屋市緑区",
    "city_kana": "ナゴヤシミドリク",
    "town": "大高町",
    "town_kana": "オオダカチョウ",
    "street": null,
    "office_name": null,
    "office_name_kana": null
  },
  "8002": {
    "zip_code": "4598002",
    "prefecture": "愛知県",
    "prefecture_kana": "アイチケン",
    "prefecture_code": 23,
    "city": "名古屋市緑区",
    "city_kana": "ナゴヤシミドリク",
    "town": "森の里",
    "town_kana": "モリノサト",
    "street": null,
    "office_name": null,
    "office_name_kana": null
  },
  "8003": {
    "zip_code": "4598003",
    "prefecture": "愛知県",
    "prefecture_kana": "アイチケン",
    "prefecture_code": 23,
    "city": "名古屋市緑区",
    "city_kana": "ナゴヤシミドリク",
    "town": "大高台",
    "town_kana": "オオダカダイ",
    "street": null,
    "office_name": null,
    "office_name_kana": null
  },
  "8004": {
    "zip_code": "4598004",
    "prefecture": "愛知県",
    "prefecture_kana": "アイチケン",
    "prefecture_code": 23,
    "city": "名古屋市緑区",
    "city_kana": "ナゴヤシミドリク",
    "town": "有松南",
    "town_kana": "アリマツミナミ",
    "street": null,
    "office_name": null,
    "office_name_kana": null
  },
  "8005": {
    "zip_code": "4598005",
    "prefecture": "愛知県",
    "prefecture_kana": "アイチケン",
    "prefecture_code": 23,
    "city": "名古屋市緑区",
    "city_kana": "ナゴヤシミドリク",
    "town": "緑花台",
    "town_kana": "リョッカダイ",
    "street": null,
    "office_name": null,
    "office_name_kana": null
  },
  "8006": {
    "zip_code": "4598006",
    "prefecture": "愛知県",
    "prefecture_kana": "アイチケン",
    "prefecture_code": 23,
    "city": "名古屋市緑区",
    "city_kana": "ナゴヤシミドリク",
    "town": "倉坂",
    "town_kana": "クラサカ",
    "street": null,
    "office_name": null,
    "office_name_kana": null
  },
  "8007": {
    "zip_code": "4598007",
    "prefecture": "愛知県",
    "prefecture_kana": "アイチケン",
    "prefecture_code": 23,
    "city": "名古屋市緑区",
    "city_kana": "ナゴヤシミドリク",
    "town": "大根山",
    "town_kana": "オオネヤマ",
    "street": null,
    "office_name": null,
    "office_name_kana": null
  },
  "8008": {
    "zip_code": "4598008",
    "prefecture": "愛知県",
    "prefecture_kana": "アイチケン",
    "prefecture_code": 23,
    "city": "名古屋市緑区",
    "city_kana": "ナゴヤシミドリク",
    "town": "文久山",
    "town_kana": "ブンキュウヤマ",
    "street": null,
    "office_name": null,
    "office_name_kana": null
  },
  "8009": {
    "zip_code": "4598009",
    "prefecture": "愛知県",
    "prefecture_kana": "アイチケン",
    "prefecture_code": 23,
    "city": "名古屋市緑区",
    "city_kana": "ナゴヤシミドリク",
    "town": "清水山",
    "town_kana": "シミズヤマ",
    "street": null,
    "office_name": null,
    "office_name_kana": null
  },
  "8011": {
    "zip_code": "4598011",
    "prefecture": "愛知県",
    "prefecture_kana": "アイチケン",
    "prefecture_code": 23,
    "city": "名古屋市緑区",
    "city_kana": "ナゴヤシミドリク",
    "town": "定納山",
    "town_kana": "ジョウノウヤマ",
    "street": null,
    "office_name": null,
    "office_name_kana": null
  },
  "8012": {
    "zip_code": "4598012",
    "prefecture": "愛知県",
    "prefecture_kana": "アイチケン",
    "prefecture_code": 23,
    "city": "名古屋市緑区",
    "city_kana": "ナゴヤシミドリク",
    "town": "茨谷山",
    "town_kana": "イバラダニヤマ",
    "street": null,
    "office_name": null,
    "office_name_kana": null
  },
  "8013": {
    "zip_code": "4598013",
    "prefecture": "愛知県",
    "prefecture_kana": "アイチケン",
    "prefecture_code": 23,
    "city": "名古屋市緑区",
    "city_kana": "ナゴヤシミドリク",
    "town": "高根山",
    "town_kana": "タカネヤマ",
    "street": null,
    "office_name": null,
    "office_name_kana": null
  },
  "8014": {
    "zip_code": "4598014",
    "prefecture": "愛知県",
    "prefecture_kana": "アイチケン",
    "prefecture_code": 23,
    "city": "名古屋市緑区",
    "city_kana": "ナゴヤシミドリク",
    "town": "忠治山",
    "town_kana": "チュウジヤマ",
    "street": null,
    "office_name": null,
    "office_name_kana": null
  },
  "8015": {
    "zip_code": "4598015",
    "prefecture": "愛知県",
    "prefecture_kana": "アイチケン",
    "prefecture_code": 23,
    "city": "名古屋市緑区",
    "city_kana": "ナゴヤシミドリク",
    "town": "別所山",
    "town_kana": "ベッショヤマ",
    "street": null,
    "office_name": null,
    "office_name_kana": null
  },
  "8016": {
    "zip_code": "4598016",
    "prefecture": "愛知県",
    "prefecture_kana": "アイチケン",
    "prefecture_code": 23,
    "city": "名古屋市緑区",
    "city_kana": "ナゴヤシミドリク",
    "town": "南大高",
    "town_kana": "ミナミオオダカ",
    "street": null,
    "office_name": null,
    "office_name_kana": null
  },
  "8501": {
    "zip_code": "4598501",
    "prefecture": "愛知県",
    "prefecture_kana": "アイチケン",
    "prefecture_code": 23,
    "city": "名古屋市緑区",
    "city_kana": "ナゴヤシミドリク",
    "town": "大高町",
    "town_kana": "オオダカチョウ",
    "street": "字大根山１５−１３５",
    "office_name": "株式会社　プロスチール",
    "office_name_kana": "カブシキガイシヤ プロスチ-ル"
  },
  "8511": {
    "zip_code": "4598511",
    "prefecture": "愛知県",
    "prefecture_kana": "アイチケン",
    "prefecture_code": 23,
    "city": "名古屋市緑区",
    "city_kana": "ナゴヤシミドリク",
    "town": "大高町",
    "town_kana": "オオダカチョウ",
    "street": "字奥中道４１",
    "office_name": "ゴムノイナキ　株式会社　大高本社",
    "office_name_kana": "ゴムノイナキ カブシキガイシヤ オオダカホンシヤ"
  },
  "8522": {
    "zip_code": "4598522",
    "prefecture": "愛知県",
    "prefecture_kana": "アイチケン",
    "prefecture_code": 23,
    "city": "名古屋市緑区",
    "city_kana": "ナゴヤシミドリク",
    "town": "大高町",
    "town_kana": "オオダカチョウ",
    "street": "字北関山２０−１",
    "office_name": "中部電力　株式会社　技術開発本部研究企画部",
    "office_name_kana": "チユウブデンリヨク カブシキガイシヤ ギジユツカイハツホンブケンキユウキカクブ"
  },
  "8540": {
    "zip_code": "4598540",
    "prefecture": "愛知県",
    "prefecture_kana": "アイチケン",
    "prefecture_code": 23,
    "city": "名古屋市緑区",
    "city_kana": "ナゴヤシミドリク",
    "town": "南大高",
    "town_kana": "ミナミオオダカ",
    "street": "２丁目２０４番地",
    "office_name": "総合病院　南生協病院",
    "office_name_kana": "ソウゴウビヨウイン ミナミセイキヨウビヨウイン"
  }
}