{
  "0901": {
    "zip_code": "4730901",
    "prefecture": "愛知県",
    "prefecture_kana": "アイチケン",
    "prefecture_code": 23,
    "city": "豊田市",
    "city_kana": "トヨタシ",
    "town": "御幸本町",
    "town_kana": "ミユキホンマチ",
    "street": null,
    "office_name": null,
    "office_name_kana": null
  },
  "0902": {
    "zip_code": "4730902",
    "prefecture": "愛知県",
    "prefecture_kana": "アイチケン",
    "prefecture_code": 23,
    "city": "豊田市",
    "city_kana": "トヨタシ",
    "town": "大林町",
    "town_kana": "オオバヤシチョウ",
    "street": null,
    "office_name": null,
    "office_name_kana": null
  },
  "0903": {
    "zip_code": "4730903",
    "prefecture": "愛知県",
    "prefecture_kana": "アイチケン",
    "prefecture_code": 23,
    "city": "豊田市",
    "city_kana": "トヨタシ",
    "town": "西田町",
    "town_kana": "ニシダチョウ",
    "street": null,
    "office_name": null,
    "office_name_kana": null
  },
  "0904": {
    "zip_code": "4730904",
    "prefecture": "愛知県",
    "prefecture_kana": "アイチケン",
    "prefecture_code": 23,
    "city": "豊田市",
    "city_kana": "トヨタシ",
    "town": "中町",
    "town_kana": "ナカマチ",
    "street": null,
    "office_name": null,
    "office_name_kana": null
  },
  "0905": {
    "zip_code": "4730905",
    "prefecture": "愛知県",
    "prefecture_kana": "アイチケン",
    "prefecture_code": 23,
    "city": "豊田市",
    "city_kana": "トヨタシ",
    "town": "住吉町",
    "town_kana": "スミヨシチョウ",
    "street": null,
    "office_name": null,
    "office_name_kana": null
  },
  "0906": {
    "zip_code": "4730906",
    "prefecture": "愛知県",
    "prefecture_kana": "アイチケン",
    "prefecture_code": 23,
    "city": "豊田市",
    "city_kana": "トヨタシ",
    "town": "竹町",
    "town_kana": "タケチョウ",
    "street": null,
    "office_name": null,
    "office_name_kana": null
  },
  "0907": {
    "zip_code": "4730907",
    "prefecture": "愛知県",
    "prefecture_kana": "アイチケン",
    "prefecture_code": 23,
    "city": "豊田市",
    "city_kana": "トヨタシ",
    "town": "竜神町",
    "town_kana": "リュウジンチョウ",
    "street": null,
    "office_name": null,
    "office_name_kana": null
  },
  "0908": {
    "zip_code": "4730908",
    "prefecture": "愛知県",
    "prefecture_kana": "アイチケン",
    "prefecture_code": 23,
    "city": "豊田市",
    "city_kana": "トヨタシ",
    "town": "宝町",
    "town_kana": "タカラマチ",
    "street": null,
    "office_name": null,
    "office_name_kana": null
  },
  "0911": {
    "zip_code": "4730911",
    "prefecture": "愛知県",
    "prefecture_kana": "アイチケン",
    "prefecture_code": 23,
    "city": "豊田市",
    "city_kana": "トヨタシ",
    "town": "本町",
    "town_kana": "ホンマチ",
    "street": null,
    "office_name": null,
    "office_name_kana": null
  },
  "0912": {
    "zip_code": "4730912",
    "prefecture": "愛知県",
    "prefecture_kana": "アイチケン",
    "prefecture_code": 23,
    "city": "豊田市",
    "city_kana": "トヨタシ",
    "town": "広田町",
    "town_kana": "ヒロタチョウ",
    "street": null,
    "office_name": null,
    "office_name_kana": null
  },
  "0913": {
    "zip_code": "4730913",
    "prefecture": "愛知県",
    "prefecture_kana": "アイチケン",
    "prefecture_code": 23,
    "city": "豊田市",
    "city_kana": "トヨタシ",
    "town": "竹元町",
    "town_kana": "タケモトチョウ",
    "street": null,
    "office_name": null,
    "office_name_kana": null
  },
  "0914": {
    "zip_code": "4730914",
    "prefecture": "愛知県",
    "prefecture_kana": "アイチケン",
    "prefecture_code": 23,
    "city": "豊田市",
    "city_kana": "トヨタシ",
    "town": "若林東町",
    "town_kana": "ワカバヤシヒガシマチ",
    "street": null,
    "office_name": null,
    "office_name_kana": null
  },
  "0915": {
    "zip_code": "4730915",
    "prefecture": "愛知県",
    "prefecture_kana": "アイチケン",
    "prefecture_code": 23,
    "city": "豊田市",
    "city_kana": "トヨタシ",
    "town": "若林東町中外根",
    "town_kana": "ワカバヤシヒガシマチナカソトネ",
    "street": null,
    "office_name": null,
    "office_name_kana": null
  },
  "0916": {
    "zip_code": "4730916",
    "prefecture": "愛知県",
    "prefecture_kana": "アイチケン",
    "prefecture_code": 23,
    "city": "豊田市",
    "city_kana": "トヨタシ",
    "town": "吉原町",
    "town_kana": "ヨシワラチョウ",
    "street": null,
    "office_name": null,
    "office_name_kana": null
  },
  "0917": {
    "zip_code": "4730917",
    "prefecture": "愛知県",
    "prefecture_kana": "アイチケン",
    "prefecture_code": 23,
    "city": "豊田市",
    "city_kana": "トヨタシ",
    "town": "若林西町",
    "town_kana": "ワカバヤシニシマチ",
    "street": null,
    "office_name": null,
    "office_name_kana": null
  },
  "0918": {
    "zip_code": "4730918",
    "prefecture": "愛知県",
    "prefecture_kana": "アイチケン",
    "prefecture_code": 23,
    "city": "豊田市",
    "city_kana": "トヨタシ",
    "town": "高美町",
    "town_kana": "タカミチョウ",
    "street": null,
    "office_name": null,
    "office_name_kana": null
  },
  "0921": {
    "zip_code": "4730921",
    "prefecture": "愛知県",
    "prefecture_kana": "アイチケン",
    "prefecture_code": 23,
    "city": "豊田市",
    "city_kana": "トヨタシ",
    "town": "高丘新町",
    "town_kana": "タカオカシンマチ",
    "street": null,
    "office_name": null,
    "office_name_kana": null
  },
  "0922": {
    "zip_code": "4730922",
    "prefecture": "愛知県",
    "prefecture_kana": "アイチケン",
    "prefecture_code": 23,
    "city": "豊田市",
    "city_kana": "トヨタシ",
    "town": "高岡本町",
    "town_kana": "タカオカホンマチ",
    "street": null,
    "office_name": null,
    "office_name_kana": null
  },
  "0923": {
    "zip_code": "4730923",
    "prefecture": "愛知県",
    "prefecture_kana": "アイチケン",
    "prefecture_code": 23,
    "city": "豊田市",
    "city_kana": "トヨタシ",
    "town": "中根町",
    "town_kana": "ナカネチョウ",
    "street": null,
    "office_name": null,
    "office_name_kana": null
  },
  "0924": {
    "zip_code": "4730924",
    "prefecture": "愛知県",
    "prefecture_kana": "アイチケン",
    "prefecture_code": 23,
    "city": "豊田市",
    "city_kana": "トヨタシ",
    "town": "花園町",
    "town_kana": "ハナゾノチョウ",
    "street": null,
    "office_name": null,
    "office_name_kana": null
  },
  "0925": {
    "zip_code": "4730925",
    "prefecture": "愛知県",
    "prefecture_kana": "アイチケン",
    "prefecture_code": 23,
    "city": "豊田市",
    "city_kana": "トヨタシ",
    "town": "駒場町",
    "town_kana": "コマバチョウ",
    "street": null,
    "office_name": null,
    "office_name_kana": null
  },
  "0926": {
    "zip_code": "4730926",
    "prefecture": "愛知県",
    "prefecture_kana": "アイチケン",
    "prefecture_code": 23,
    "city": "豊田市",
    "city_kana": "トヨタシ",
    "town": "駒新町",
    "town_kana": "コマシンチョウ",
    "street": null,
    "office_name": null,
    "office_name_kana": null
  },
  "0927": {
    "zip_code": "4730927",
    "prefecture": "愛知県",
    "prefecture_kana": "アイチケン",
    "prefecture_code": 23,
    "city": "豊田市",
    "city_kana": "トヨタシ",
    "town": "中田町",
    "town_kana": "ナカダチョウ",
    "street": null,
    "office_name": null,
    "office_name_kana": null
  },
  "0928": {
    "zip_code": "4730928",
    "prefecture": "愛知県",
    "prefecture_kana": "アイチケン",
    "prefecture_code": 23,
    "city": "豊田市",
    "city_kana": "トヨタシ",
    "town": "生駒町",
    "town_kana": "イコマチョウ",
    "street": null,
    "office_name": null,
    "office_name_kana": null
  },
  "0931": {
    "zip_code": "4730931",
    "prefecture": "愛知県",
    "prefecture_kana": "アイチケン",
    "prefecture_code": 23,
    "city": "豊田市",
    "city_kana": "トヨタシ",
    "town": "上丘町",
    "town_kana": "カミオカチョウ",
    "street": null,
    "office_name": null,
    "office_name_kana": null
  },
  "0932": {
    "zip_code": "4730932",
    "prefecture": "愛知県",
    "prefecture_kana": "アイチケン",
    "prefecture_code": 23,
    "city": "豊田市",
    "city_kana": "トヨタシ",
    "town": "堤町",
    "town_kana": "ツツミチョウ",
    "street": null,
    "office_name": null,
    "office_name_kana": null
  },
  "0933": {
    "zip_code": "4730933",
    "prefecture": "愛知県",
    "prefecture_kana": "アイチケン",
    "prefecture_code": 23,
    "city": "豊田市",
    "city_kana": "トヨタシ",
    "town": "高岡町",
    "town_kana": "タカオカチョウ",
    "street": null,
    "office_name": null,
    "office_name_kana": null
  },
  "0934": {
    "zip_code": "4730934",
    "prefecture": "愛知県",
    "prefecture_kana": "アイチケン",
    "prefecture_code": 23,
    "city": "豊田市",
    "city_kana": "トヨタシ",
    "town": "前林町",
    "town_kana": "マエバヤシチョウ",
    "street": null,
    "office_name": null,
    "office_name_kana": null
  },
  "0935": {
    "zip_code": "4730935",
    "prefecture": "愛知県",
    "prefecture_kana": "アイチケン",
    "prefecture_code": 23,
    "city": "豊田市",
    "city_kana": "トヨタシ",
    "town": "大島町",
    "town_kana": "オオシマチョウ",
    "street": null,
    "office_name": null,
    "office_name_kana": null
  },
  "0936": {
    "zip_code": "4730936",
    "prefecture": "愛知県",
    "prefecture_kana": "アイチケン",
    "prefecture_code": 23,
    "city": "豊田市",
    "city_kana": "トヨタシ",
    "town": "西岡町",
    "town_kana": "ニシオカチョウ",
    "street": null,
    "office_name": null,
    "office_name_kana": null
  },
  "0937": {
    "zip_code": "4730937",
    "prefecture": "愛知県",
    "prefecture_kana": "アイチケン",
    "prefecture_code": 23,
    "city": "豊田市",
    "city_kana": "トヨタシ",
    "town": "西岡町星ケ丘",
    "town_kana": "ニシオカチョウホシガオカ",
    "street": null,
    "office_name": null,
    "office_name_kana": null
  },
  "0938": {
    "zip_code": "4730938",
    "prefecture": "愛知県",
    "prefecture_kana": "アイチケン",
    "prefecture_code": 23,
    "city": "豊田市",
    "city_kana": "トヨタシ",
    "town": "本田町",
    "town_kana": "ホンダチョウ",
    "street": null,
    "office_name": null,
    "office_name_kana": null
  },
  "0939": {
    "zip_code": "4730939",
    "prefecture": "愛知県",
    "prefecture_kana": "アイチケン",
    "prefecture_code": 23,
    "city": "豊田市",
    "city_kana": "トヨタシ",
    "town": "堤本町",
    "town_kana": "ツツミホンマチ",
    "street": null,
    "office_name": null,
    "office_name_kana": null
  },
  "8501": {
    "zip_code": "4738501",
    "prefecture": "愛知県",
    "prefecture_kana": "アイチケン",
    "prefecture_code": 23,
    "city": "豊田市",
    "city_kana": "トヨタシ",
    "town": "高丘新町",
    "town_kana": "タカオカシンマチ",
    "street": "天王１",
    "office_name": "アイシン高丘　株式会社",
    "office_name_kana": "アイシンタカオカ カブシキガイシヤ"
  },
  "8511": {
    "zip_code": "4738511",
    "prefecture": "愛知県",
    "prefecture_kana": "アイチケン",
    "prefecture_code": 23,
    "city": "豊田市",
    "city_kana": "トヨタシ",
    "town": "吉原町",
    "town_kana": "ヨシワラチョウ",
    "street": "平子２６",
    "office_name": "富士精工　株式会社",
    "office_name_kana": "フジセイコウ カブシキガイシヤ"
  }
}