{
  "0000": {
    "zip_code": "4740000",
    "prefecture": "愛知県",
    "prefecture_kana": "アイチケン",
    "prefecture_code": 23,
    "city": "大府市",
    "city_kana": "オオブシ",
    "town": "",
    "town_kana": "",
    "street": null,
    "office_name": null,
    "office_name_kana": null
  },
  "0001": {
    "zip_code": "4740001",
    "prefecture": "愛知県",
    "prefecture_kana": "アイチケン",
    "prefecture_code": 23,
    "city": "大府市",
    "city_kana": "オオブシ",
    "town": "北崎町",
    "town_kana": "キタサキマチ",
    "street": null,
    "office_name": null,
    "office_name_kana": null
  },
  "0002": {
    "zip_code": "4740002",
    "prefecture": "愛知県",
    "prefecture_kana": "アイチケン",
    "prefecture_code": 23,
    "city": "大府市",
    "city_kana": "オオブシ",
    "town": "北崎町",
    "town_kana": "キタサキチョウ",
    "street": null,
    "office_name": null,
    "office_name_kana": null
  },
  "0003": {
    "zip_code": "4740003",
    "prefecture": "愛知県",
    "prefecture_kana": "アイチケン",
    "prefecture_code": 23,
    "city": "大府市",
    "city_kana": "オオブシ",
    "town": "神田町",
    "town_kana": "カンダチョウ",
    "street": null,
    "office_name": null,
    "office_name_kana": null
  },
  "0011": {
    "zip_code": "4740011",
    "prefecture": "愛知県",
    "prefecture_kana": "アイチケン",
    "prefecture_code": 23,
    "city": "大府市",
    "city_kana": "オオブシ",
    "town": "横根町",
    "town_kana": "ヨコネマチ",
    "street": null,
    "office_name": null,
    "office_name_kana": null
  },
  "0021": {
    "zip_code": "4740021",
    "prefecture": "愛知県",
    "prefecture_kana": "アイチケン",
    "prefecture_code": 23,
    "city": "大府市",
    "city_kana": "オオブシ",
    "town": "長根町",
    "town_kana": "ナガネチョウ",
    "street": null,
    "office_name": null,
    "office_name_kana": null
  },
  "0022": {
    "zip_code": "4740022",
    "prefecture": "愛知県",
    "prefecture_kana": "アイチケン",
    "prefecture_code": 23,
    "city": "大府市",
    "city_kana": "オオブシ",
    "town": "若草町",
    "town_kana": "ワカクサチョウ",
    "street": null,
    "office_name": null,
    "office_name_kana": null
  },
  "0023": {
    "zip_code": "4740023",
    "prefecture": "愛知県",
    "prefecture_kana": "アイチケン",
    "prefecture_code": 23,
    "city": "大府市",
    "city_kana": "オオブシ",
    "town": "大東町",
    "town_kana": "ダイトウチョウ",
    "street": null,
    "office_name": null,
    "office_name_kana": null
  },
  "0024": {
    "zip_code": "4740024",
    "prefecture": "愛知県",
    "prefecture_kana": "アイチケン",
    "prefecture_code": 23,
    "city": "大府市",
    "city_kana": "オオブシ",
    "town": "朝日町",
    "town_kana": "アサヒチョウ",
    "street": null,
    "office_name": null,
    "office_name_kana": null
  },
  "0025": {
    "zip_code": "4740025",
    "prefecture": "愛知県",
    "prefecture_kana": "アイチケン",
    "prefecture_code": 23,
    "city": "大府市",
    "city_kana": "オオブシ",
    "town": "中央町",
    "town_kana": "チュウオウチョウ",
    "street": null,
    "office_name": null,
    "office_name_kana": null
  },
  "0026": {
    "zip_code": "4740026",
    "prefecture": "愛知県",
    "prefecture_kana": "アイチケン",
    "prefecture_code": 23,
    "city": "大府市",
    "city_kana": "オオブシ",
    "town": "桃山町",
    "town_kana": "モモヤマチョウ",
    "street": null,
    "office_name": null,
    "office_name_kana": null
  },
  "0027": {
    "zip_code": "4740027",
    "prefecture": "愛知県",
    "prefecture_kana": "アイチケン",
    "prefecture_code": 23,
    "city": "大府市",
    "city_kana": "オオブシ",
    "town": "追分町",
    "town_kana": "オイワケチョウ",
    "street": null,
    "office_name": null,
    "office_name_kana": null
  },
  "0031": {
    "zip_code": "4740031",
    "prefecture": "愛知県",
    "prefecture_kana": "アイチケン",
    "prefecture_code": 23,
    "city": "大府市",
    "city_kana": "オオブシ",
    "town": "森岡町",
    "town_kana": "モリオカマチ",
    "street": null,
    "office_name": null,
    "office_name_kana": null
  },
  "0035": {
    "zip_code": "4740035",
    "prefecture": "愛知県",
    "prefecture_kana": "アイチケン",
    "prefecture_code": 23,
    "city": "大府市",
    "city_kana": "オオブシ",
    "town": "江端町",
    "town_kana": "エバタチョウ",
    "street": null,
    "office_name": null,
    "office_name_kana": null
  },
  "0036": {
    "zip_code": "4740036",
    "prefecture": "愛知県",
    "prefecture_kana": "アイチケン",
    "prefecture_code": 23,
    "city": "大府市",
    "city_kana": "オオブシ",
    "town": "月見町",
    "town_kana": "ツキミチョウ",
    "street": null,
    "office_name": null,
    "office_name_kana": null
  },
  "0037": {
    "zip_code": "4740037",
    "prefecture": "愛知県",
    "prefecture_kana": "アイチケン",
    "prefecture_code": 23,
    "city": "大府市",
    "city_kana": "オオブシ",
    "town": "半月町",
    "town_kana": "ハンツキチョウ",
    "street": null,
    "office_name": null,
    "office_name_kana": null
  },
  "0038": {
    "zip_code": "4740038",
    "prefecture": "愛知県",
    "prefecture_kana": "アイチケン",
    "prefecture_code": 23,
    "city": "大府市",
    "city_kana": "オオブシ",
    "town": "森岡町",
    "town_kana": "モリオカチョウ",
    "street": null,
    "office_name": null,
    "office_name_kana": null
  },
  "0041": {
    "zip_code": "4740041",
    "prefecture": "愛知県",
    "prefecture_kana": "アイチケン",
    "prefecture_code": 23,
    "city": "大府市",
    "city_kana": "オオブシ",
    "town": "吉田町",
    "town_kana": "ヨシダマチ",
    "street": null,
    "office_name": null,
    "office_name_kana": null
  },
  "0042": {
    "zip_code": "4740042",
    "prefecture": "愛知県",
    "prefecture_kana": "アイチケン",
    "prefecture_code": 23,
    "city": "大府市",
    "city_kana": "オオブシ",
    "town": "高丘町",
    "town_kana": "タカオカチョウ",
    "street": null,
    "office_name": null,
    "office_name_kana": null
  },
  "0043": {
    "zip_code": "4740043",
    "prefecture": "愛知県",
    "prefecture_kana": "アイチケン",
    "prefecture_code": 23,
    "city": "大府市",
    "city_kana": "オオブシ",
    "town": "米田町",
    "town_kana": "コメダチョウ",
    "street": null,
    "office_name": null,
    "office_name_kana": null
  },
  "0044": {
    "zip_code": "4740044",
    "prefecture": "愛知県",
    "prefecture_kana": "アイチケン",
    "prefecture_code": 23,
    "city": "大府市",
    "city_kana": "オオブシ",
    "town": "桜木町",
    "town_kana": "サクラギチョウ",
    "street": null,
    "office_name": null,
    "office_name_kana": null
  },
  "0045": {
    "zip_code": "4740045",
    "prefecture": "愛知県",
    "prefecture_kana": "アイチケン",
    "prefecture_code": 23,
    "city": "大府市",
    "city_kana": "オオブシ",
    "town": "馬池町",
    "town_kana": "ウマイケチョウ",
    "street": null,
    "office_name": null,
    "office_name_kana": null
  },
  "0046": {
    "zip_code": "4740046",
    "prefecture": "愛知県",
    "prefecture_kana": "アイチケン",
    "prefecture_code": 23,
    "city": "大府市",
    "city_kana": "オオブシ",
    "town": "吉川町",
    "town_kana": "ヨシカワチョウ",
    "street": null,
    "office_name": null,
    "office_name_kana": null
  },
  "0047": {
    "zip_code": "4740047",
    "prefecture": "愛知県",
    "prefecture_kana": "アイチケン",
    "prefecture_code": 23,
    "city": "大府市",
    "city_kana": "オオブシ",
    "town": "宮内町",
    "town_kana": "ミヤウチチョウ",
    "street": null,
    "office_name": null,
    "office_name_kana": null
  },
  "0048": {
    "zip_code": "4740048",
    "prefecture": "愛知県",
    "prefecture_kana": "アイチケン",
    "prefecture_code": 23,
    "city": "大府市",
    "city_kana": "オオブシ",
    "town": "吉田町",
    "town_kana": "ヨシダチョウ",
    "street": null,
    "office_name": null,
    "office_name_kana": null
  },
  "0051": {
    "zip_code": "4740051",
    "prefecture": "愛知県",
    "prefecture_kana": "アイチケン",
    "prefecture_code": 23,
    "city": "大府市",
    "city_kana": "オオブシ",
    "town": "大府町",
    "town_kana": "オオブマチ",
    "street": null,
    "office_name": null,
    "office_name_kana": null
  },
  "0052": {
    "zip_code": "4740052",
    "prefecture": "愛知県",
    "prefecture_kana": "アイチケン",
    "prefecture_code": 23,
    "city": "大府市",
    "city_kana": "オオブシ",
    "town": "長草町",
    "town_kana": "ナガクサマチ",
    "street": null,
    "office_name": null,
    "office_name_kana": null
  },
  "0053": {
    "zip_code": "4740053",
    "prefecture": "愛知県",
    "prefecture_kana": "アイチケン",
    "prefecture_code": 23,
    "city": "大府市",
    "city_kana": "オオブシ",
    "town": "柊山町",
    "town_kana": "ヒイラギヤマチョウ",
    "street": null,
    "office_name": null,
    "office_name_kana": null
  },
  "0055": {
    "zip_code": "4740055",
    "prefecture": "愛知県",
    "prefecture_kana": "アイチケン",
    "prefecture_code": 23,
    "city": "大府市",
    "city_kana": "オオブシ",
    "town": "一屋町",
    "town_kana": "ヒトツヤチョウ",
    "street": null,
    "office_name": null,
    "office_name_kana": null
  },
  "0056": {
    "zip_code": "4740056",
    "prefecture": "愛知県",
    "prefecture_kana": "アイチケン",
    "prefecture_code": 23,
    "city": "大府市",
    "city_kana": "オオブシ",
    "town": "明成町",
    "town_kana": "メイセイチョウ",
    "street": null,
    "office_name": null,
    "office_name_kana": null
  },
  "0057": {
    "zip_code": "4740057",
    "prefecture": "愛知県",
    "prefecture_kana": "アイチケン",
    "prefecture_code": 23,
    "city": "大府市",
    "city_kana": "オオブシ",
    "town": "共和町",
    "town_kana": "キョウワマチ",
    "street": null,
    "office_name": null,
    "office_name_kana": null
  },
  "0061": {
    "zip_code": "4740061",
    "prefecture": "愛知県",
    "prefecture_kana": "アイチケン",
    "prefecture_code": 23,
    "city": "大府市",
    "city_kana": "オオブシ",
    "town": "共和町",
    "town_kana": "キョウワチョウ",
    "street": null,
    "office_name": null,
    "office_name_kana": null
  },
  "0062": {
    "zip_code": "4740062",
    "prefecture": "愛知県",
    "prefecture_kana": "アイチケン",
    "prefecture_code": 23,
    "city": "大府市",
    "city_kana": "オオブシ",
    "town": "共西町",
    "town_kana": "キョウセイチョウ",
    "street": null,
    "office_name": null,
    "office_name_kana": null
  },
  "0071": {
    "zip_code": "4740071",
    "prefecture": "愛知県",
    "prefecture_kana": "アイチケン",
    "prefecture_code": 23,
    "city": "大府市",
    "city_kana": "オオブシ",
    "town": "梶田町",
    "town_kana": "カジタチョウ",
    "street": null,
    "office_name": null,
    "office_name_kana": null
  },
  "0072": {
    "zip_code": "4740072",
    "prefecture": "愛知県",
    "prefecture_kana": "アイチケン",
    "prefecture_code": 23,
    "city": "大府市",
    "city_kana": "オオブシ",
    "town": "北山町",
    "town_kana": "キタヤマチョウ",
    "street": null,
    "office_name": null,
    "office_name_kana": null
  },
  "0073": {
    "zip_code": "4740073",
    "prefecture": "愛知県",
    "prefecture_kana": "アイチケン",
    "prefecture_code": 23,
    "city": "大府市",
    "city_kana": "オオブシ",
    "town": "東新町",
    "town_kana": "トウシンチョウ",
    "street": null,
    "office_name": null,
    "office_name_kana": null
  },
  "0074": {
    "zip_code": "4740074",
    "prefecture": "愛知県",
    "prefecture_kana": "アイチケン",
    "prefecture_code": 23,
    "city": "大府市",
    "city_kana": "オオブシ",
    "town": "共栄町",
    "town_kana": "キョウエイチョウ",
    "street": null,
    "office_name": null,
    "office_name_kana": null
  },
  "8501": {
    "zip_code": "4748501",
    "prefecture": "愛知県",
    "prefecture_kana": "アイチケン",
    "prefecture_code": 23,
    "city": "大府市",
    "city_kana": "オオブシ",
    "town": "朝日町",
    "town_kana": "アサヒチョウ",
    "street": "６丁目１",
    "office_name": "住友重機械工業　株式会社　名古屋製造所",
    "office_name_kana": "スミトモジユウキカイコウギヨウ カブシキガイシヤ ナゴヤセイゾウシヨ"
  },
  "8502": {
    "zip_code": "4748502",
    "prefecture": "愛知県",
    "prefecture_kana": "アイチケン",
    "prefecture_code": 23,
    "city": "大府市",
    "city_kana": "オオブシ",
    "town": "横根町",
    "town_kana": "ヨコネマチ",
    "street": "惣作２０８",
    "office_name": "株式会社　新居浜鐵工所　名古屋工場",
    "office_name_kana": "カブシキガイシヤ ニイハマテツコウジヨ ナゴヤコウジヨウ"
  },
  "8503": {
    "zip_code": "4748503",
    "prefecture": "愛知県",
    "prefecture_kana": "アイチケン",
    "prefecture_code": 23,
    "city": "大府市",
    "city_kana": "オオブシ",
    "town": "中央町",
    "town_kana": "チュウオウチョウ",
    "street": "５丁目７０",
    "office_name": "大府市商工会",
    "office_name_kana": "オオブシシヨウコウカイ"
  },
  "8505": {
    "zip_code": "4748505",
    "prefecture": "愛知県",
    "prefecture_kana": "アイチケン",
    "prefecture_code": 23,
    "city": "大府市",
    "city_kana": "オオブシ",
    "town": "共栄町",
    "town_kana": "キョウエイチョウ",
    "street": "７丁目１−１",
    "office_name": "愛協産業　株式会社",
    "office_name_kana": "アイキヨウサンギヨウ カブシキガイシヤ"
  },
  "8510": {
    "zip_code": "4748510",
    "prefecture": "愛知県",
    "prefecture_kana": "アイチケン",
    "prefecture_code": 23,
    "city": "大府市",
    "city_kana": "オオブシ",
    "town": "北崎町",
    "town_kana": "キタサキチョウ",
    "street": "清水１−３",
    "office_name": "イヅミ工業　株式会社",
    "office_name_kana": "イヅミコウギヨウ カブシキガイシヤ"
  },
  "8511": {
    "zip_code": "4748511",
    "prefecture": "愛知県",
    "prefecture_kana": "アイチケン",
    "prefecture_code": 23,
    "city": "大府市",
    "city_kana": "オオブシ",
    "town": "森岡町",
    "town_kana": "モリオカチョウ",
    "street": "７−４３０",
    "office_name": "国立研究開発法人　国立長寿医療研究センター",
    "office_name_kana": "コクリツケンキユウカイハツホウジン コクリツチヨウジユイリヨウケンキユウセンタ-"
  },
  "8535": {
    "zip_code": "4748535",
    "prefecture": "愛知県",
    "prefecture_kana": "アイチケン",
    "prefecture_code": 23,
    "city": "大府市",
    "city_kana": "オオブシ",
    "town": "梶田町",
    "town_kana": "カジタチョウ",
    "street": "１丁目１７１番地",
    "office_name": "大和機工　株式会社",
    "office_name_kana": "ダイワキコウ カブシキガイシヤ"
  },
  "8543": {
    "zip_code": "4748543",
    "prefecture": "愛知県",
    "prefecture_kana": "アイチケン",
    "prefecture_code": 23,
    "city": "大府市",
    "city_kana": "オオブシ",
    "town": "梶田町",
    "town_kana": "カジタチョウ",
    "street": "３丁目１３０",
    "office_name": "株式会社　名南製作所",
    "office_name_kana": "カブシキガイシヤ メイナンセイサクジヨ"
  },
  "8550": {
    "zip_code": "4748550",
    "prefecture": "愛知県",
    "prefecture_kana": "アイチケン",
    "prefecture_code": 23,
    "city": "大府市",
    "city_kana": "オオブシ",
    "town": "朝日町",
    "town_kana": "アサヒチョウ",
    "street": "六丁目１番地",
    "office_name": "住友建機　（株）　名古屋工場",
    "office_name_kana": "スミトモケンキ (カブ) ナゴヤコウジヨウ"
  },
  "8555": {
    "zip_code": "4748555",
    "prefecture": "愛知県",
    "prefecture_kana": "アイチケン",
    "prefecture_code": 23,
    "city": "大府市",
    "city_kana": "オオブシ",
    "town": "大東町",
    "town_kana": "ダイトウチョウ",
    "street": "２丁目７５番地",
    "office_name": "住友ナコフォークリフト　株式会社",
    "office_name_kana": "スミトモナコフオ-クリフト カブシキガイシヤ"
  },
  "8557": {
    "zip_code": "4748557",
    "prefecture": "愛知県",
    "prefecture_kana": "アイチケン",
    "prefecture_code": 23,
    "city": "大府市",
    "city_kana": "オオブシ",
    "town": "横根町",
    "town_kana": "ヨコネマチ",
    "street": "惣作７０",
    "office_name": "（株）　東海理機製作所　横根工場",
    "office_name_kana": "(カブ) トウカイリキセイサクシヨ ヨコネコウジヨウ"
  },
  "8558": {
    "zip_code": "4748558",
    "prefecture": "愛知県",
    "prefecture_kana": "アイチケン",
    "prefecture_code": 23,
    "city": "大府市",
    "city_kana": "オオブシ",
    "town": "長根町",
    "town_kana": "ナガネチョウ",
    "street": "２丁目２９０",
    "office_name": "株式会社　東海理機製作所　長根工場",
    "office_name_kana": "カブシキガイシヤ トウカイリキセイサクジヨ ナガネコウジヨウ"
  },
  "8580": {
    "zip_code": "4748580",
    "prefecture": "愛知県",
    "prefecture_kana": "アイチケン",
    "prefecture_code": 23,
    "city": "大府市",
    "city_kana": "オオブシ",
    "town": "共栄町",
    "town_kana": "キョウエイチョウ",
    "street": "七丁目３−３",
    "office_name": "アイサンコンピュータサービス　株式会社",
    "office_name_kana": "アイサンコンピユ-タサ-ビス カブシキガイシヤ"
  },
  "8581": {
    "zip_code": "4748581",
    "prefecture": "愛知県",
    "prefecture_kana": "アイチケン",
    "prefecture_code": 23,
    "city": "大府市",
    "city_kana": "オオブシ",
    "town": "北崎町",
    "town_kana": "キタサキチョウ",
    "street": "大島３０",
    "office_name": "株式会社　アンセイ",
    "office_name_kana": "カブシキガイシヤ アンセイ"
  },
  "8584": {
    "zip_code": "4748584",
    "prefecture": "愛知県",
    "prefecture_kana": "アイチケン",
    "prefecture_code": 23,
    "city": "大府市",
    "city_kana": "オオブシ",
    "town": "共和町",
    "town_kana": "キョウワチョウ",
    "street": "３−８−９",
    "office_name": "株式会社　八神",
    "office_name_kana": "カブシキガイシヤ ハツシン"
  },
  "8585": {
    "zip_code": "4748585",
    "prefecture": "愛知県",
    "prefecture_kana": "アイチケン",
    "prefecture_code": 23,
    "city": "大府市",
    "city_kana": "オオブシ",
    "town": "大府町",
    "town_kana": "オオブマチ",
    "street": "柊山１１",
    "office_name": "株式会社　アペックス",
    "office_name_kana": "カブシキガイシヤ アペツクス"
  },
  "8588": {
    "zip_code": "4748588",
    "prefecture": "愛知県",
    "prefecture_kana": "アイチケン",
    "prefecture_code": 23,
    "city": "大府市",
    "city_kana": "オオブシ",
    "town": "共和町",
    "town_kana": "キョウワチョウ",
    "street": "１丁目１−１",
    "office_name": "愛三工業　株式会社",
    "office_name_kana": "アイサンコウギヨウ カブシキガイシヤ"
  },
  "8601": {
    "zip_code": "4748601",
    "prefecture": "愛知県",
    "prefecture_kana": "アイチケン",
    "prefecture_code": 23,
    "city": "大府市",
    "city_kana": "オオブシ",
    "town": "共和町",
    "town_kana": "キョウワチョウ",
    "street": "茶屋８",
    "office_name": "株式会社　豊田自動織機製作所　共和工場",
    "office_name_kana": "カブシキガイシヤ トヨタジドウシヨツキセイサクシヨ キヨウワコウジヨウ"
  },
  "8610": {
    "zip_code": "4748610",
    "prefecture": "愛知県",
    "prefecture_kana": "アイチケン",
    "prefecture_code": 23,
    "city": "大府市",
    "city_kana": "オオブシ",
    "town": "北崎町",
    "town_kana": "キタサキチョウ",
    "street": "井田１１８",
    "office_name": "株式会社　富士プレス",
    "office_name_kana": "カブシキガイシヤ フジプレス"
  },
  "8611": {
    "zip_code": "4748611",
    "prefecture": "愛知県",
    "prefecture_kana": "アイチケン",
    "prefecture_code": 23,
    "city": "大府市",
    "city_kana": "オオブシ",
    "town": "共栄町",
    "town_kana": "キョウエイチョウ",
    "street": "９丁目１−４",
    "office_name": "株式会社　富新住宅設備",
    "office_name_kana": "カブシキガイシヤ トミシンジユウタクセツビ"
  },
  "8642": {
    "zip_code": "4748642",
    "prefecture": "愛知県",
    "prefecture_kana": "アイチケン",
    "prefecture_code": 23,
    "city": "大府市",
    "city_kana": "オオブシ",
    "town": "追分町",
    "town_kana": "オイワケチョウ",
    "street": "２丁目１番地",
    "office_name": "東洋クッション　株式会社",
    "office_name_kana": "トウヨウクツシヨン カブシキガイシヤ"
  },
  "8651": {
    "zip_code": "4748651",
    "prefecture": "愛知県",
    "prefecture_kana": "アイチケン",
    "prefecture_code": 23,
    "city": "大府市",
    "city_kana": "オオブシ",
    "town": "横根町",
    "town_kana": "ヨコネマチ",
    "street": "名高山５５番地",
    "office_name": "至学館大学",
    "office_name_kana": "シガツカンダイガク"
  },
  "8666": {
    "zip_code": "4748666",
    "prefecture": "愛知県",
    "prefecture_kana": "アイチケン",
    "prefecture_code": 23,
    "city": "大府市",
    "city_kana": "オオブシ",
    "town": "北崎町",
    "town_kana": "キタサキチョウ",
    "street": "大根２",
    "office_name": "（株）　名機製作所",
    "office_name_kana": "(カブ) メイキセイサクシヨ"
  },
  "8686": {
    "zip_code": "4748686",
    "prefecture": "愛知県",
    "prefecture_kana": "アイチケン",
    "prefecture_code": 23,
    "city": "大府市",
    "city_kana": "オオブシ",
    "town": "長草町",
    "town_kana": "ナガクサマチ",
    "street": "山口９−２",
    "office_name": "（株）　豊田自動織機製作所　長草工場",
    "office_name_kana": "(カブ) トヨタジドウシヨツキセイサクシヨ ナガクサコウジヨウ"
  },
  "8688": {
    "zip_code": "4748688",
    "prefecture": "愛知県",
    "prefecture_kana": "アイチケン",
    "prefecture_code": 23,
    "city": "大府市",
    "city_kana": "オオブシ",
    "town": "長根町",
    "town_kana": "ナガネチョウ",
    "street": "４丁目１番地",
    "office_name": "東海興業　（株）",
    "office_name_kana": "トウカイコウギヨウ (カブ)"
  },
  "8701": {
    "zip_code": "4748701",
    "prefecture": "愛知県",
    "prefecture_kana": "アイチケン",
    "prefecture_code": 23,
    "city": "大府市",
    "city_kana": "オオブシ",
    "town": "中央町",
    "town_kana": "チュウオウチョウ",
    "street": "５丁目７０（大府郵便局私書箱第２号）",
    "office_name": "愛知県大府市役所",
    "office_name_kana": "アイチケンオオブシヤクシヨ"
  },
  "8707": {
    "zip_code": "4748707",
    "prefecture": "愛知県",
    "prefecture_kana": "アイチケン",
    "prefecture_code": 23,
    "city": "大府市",
    "city_kana": "オオブシ",
    "town": "中央町",
    "town_kana": "チュウオウチョウ",
    "street": "７丁目３００（大府郵便局私書箱第２２号）",
    "office_name": "東知多農業　協同組合",
    "office_name_kana": "ヒガシチタノウギヨウ キヨウドウクミアイ"
  },
  "8710": {
    "zip_code": "4748710",
    "prefecture": "愛知県",
    "prefecture_kana": "アイチケン",
    "prefecture_code": 23,
    "city": "大府市",
    "city_kana": "オオブシ",
    "town": "森岡町",
    "town_kana": "モリオカチョウ",
    "street": "尾坂田１番２",
    "office_name": "あいち小児保健医療総合センター",
    "office_name_kana": "アイチシヨウニホケンイリヨウソウゴウセンタ-"
  },
  "8766": {
    "zip_code": "4748766",
    "prefecture": "愛知県",
    "prefecture_kana": "アイチケン",
    "prefecture_code": 23,
    "city": "大府市",
    "city_kana": "オオブシ",
    "town": "共和町",
    "town_kana": "キョウワチョウ",
    "street": "下色１−１（第２商品センター１Ｆ）",
    "office_name": "ネットオフ　株式会社　「書籍・ＣＤコース」買取センター",
    "office_name_kana": "ネツトオフ カブシキガイシヤ <シヨセキ・シ-デイ-コ-ス>カイトリセンタ-"
  },
  "8777": {
    "zip_code": "4748777",
    "prefecture": "愛知県",
    "prefecture_kana": "アイチケン",
    "prefecture_code": 23,
    "city": "大府市",
    "city_kana": "オオブシ",
    "town": "共和町",
    "town_kana": "キョウワチョウ",
    "street": "下色１−１（第２商品センター２Ｆ）",
    "office_name": "ネットオフ　株式会社　「ブランド・家電コース」買取センター",
    "office_name_kana": "ネツトオフ カブシキガイシヤ <ブランド・カデンコ-ス>カイトリセンタ-"
  }
}