{
  "0031": {
    "zip_code": "4770031",
    "prefecture": "愛知県",
    "prefecture_kana": "アイチケン",
    "prefecture_code": 23,
    "city": "東海市",
    "city_kana": "トウカイシ",
    "town": "大田町",
    "town_kana": "オオタマチ",
    "street": null,
    "office_name": null,
    "office_name_kana": null
  },
  "0032": {
    "zip_code": "4770032",
    "prefecture": "愛知県",
    "prefecture_kana": "アイチケン",
    "prefecture_code": 23,
    "city": "東海市",
    "city_kana": "トウカイシ",
    "town": "加木屋町",
    "town_kana": "カギヤマチ",
    "street": null,
    "office_name": null,
    "office_name_kana": null
  },
  "0033": {
    "zip_code": "4770033",
    "prefecture": "愛知県",
    "prefecture_kana": "アイチケン",
    "prefecture_code": 23,
    "city": "東海市",
    "city_kana": "トウカイシ",
    "town": "中ノ池",
    "town_kana": "ナカノイケ",
    "street": null,
    "office_name": null,
    "office_name_kana": null
  },
  "0034": {
    "zip_code": "4770034",
    "prefecture": "愛知県",
    "prefecture_kana": "アイチケン",
    "prefecture_code": 23,
    "city": "東海市",
    "city_kana": "トウカイシ",
    "town": "養父町",
    "town_kana": "ヤブマチ",
    "street": null,
    "office_name": null,
    "office_name_kana": null
  },
  "0035": {
    "zip_code": "4770035",
    "prefecture": "愛知県",
    "prefecture_kana": "アイチケン",
    "prefecture_code": 23,
    "city": "東海市",
    "city_kana": "トウカイシ",
    "town": "元浜町",
    "town_kana": "モトハママチ",
    "street": null,
    "office_name": null,
    "office_name_kana": null
  },
  "0036": {
    "zip_code": "4770036",
    "prefecture": "愛知県",
    "prefecture_kana": "アイチケン",
    "prefecture_code": 23,
    "city": "東海市",
    "city_kana": "トウカイシ",
    "town": "横須賀町",
    "town_kana": "ヨコスカマチ",
    "street": null,
    "office_name": null,
    "office_name_kana": null
  },
  "0037": {
    "zip_code": "4770037",
    "prefecture": "愛知県",
    "prefecture_kana": "アイチケン",
    "prefecture_code": 23,
    "city": "東海市",
    "city_kana": "トウカイシ",
    "town": "高横須賀町",
    "town_kana": "タカヨコスカマチ",
    "street": null,
    "office_name": null,
    "office_name_kana": null
  },
  "8521": {
    "zip_code": "4778521",
    "prefecture": "愛知県",
    "prefecture_kana": "アイチケン",
    "prefecture_code": 23,
    "city": "東海市",
    "city_kana": "トウカイシ",
    "town": "大田町",
    "town_kana": "オオタマチ",
    "street": "下浜田１６５",
    "office_name": "知多メディアスネットワーク　（株）",
    "office_name_kana": "チタメデイアスネツトワ-ク カブシキガイシヤ"
  },
  "8522": {
    "zip_code": "4778522",
    "prefecture": "愛知県",
    "prefecture_kana": "アイチケン",
    "prefecture_code": 23,
    "city": "東海市",
    "city_kana": "トウカイシ",
    "town": "中ノ池",
    "town_kana": "ナカノイケ",
    "street": "３丁目１番地の１",
    "office_name": "公立西知多総合病院",
    "office_name_kana": "コウリツニシチタソウゴウビヨウイン"
  }
}