{
  "0000": {
    "zip_code": "4780000",
    "prefecture": "愛知県",
    "prefecture_kana": "アイチケン",
    "prefecture_code": 23,
    "city": "知多市",
    "city_kana": "チタシ",
    "town": "",
    "town_kana": "",
    "street": null,
    "office_name": null,
    "office_name_kana": null
  },
  "0001": {
    "zip_code": "4780001",
    "prefecture": "愛知県",
    "prefecture_kana": "アイチケン",
    "prefecture_code": 23,
    "city": "知多市",
    "city_kana": "チタシ",
    "town": "八幡",
    "town_kana": "ヤワタ",
    "street": null,
    "office_name": null,
    "office_name_kana": null
  },
  "0002": {
    "zip_code": "4780002",
    "prefecture": "愛知県",
    "prefecture_kana": "アイチケン",
    "prefecture_code": 23,
    "city": "知多市",
    "city_kana": "チタシ",
    "town": "平野",
    "town_kana": "ヒラノ",
    "street": null,
    "office_name": null,
    "office_name_kana": null
  },
  "0003": {
    "zip_code": "4780003",
    "prefecture": "愛知県",
    "prefecture_kana": "アイチケン",
    "prefecture_code": 23,
    "city": "知多市",
    "city_kana": "チタシ",
    "town": "寺本台",
    "town_kana": "テラモトダイ",
    "street": null,
    "office_name": null,
    "office_name_kana": null
  },
  "0004": {
    "zip_code": "4780004",
    "prefecture": "愛知県",
    "prefecture_kana": "アイチケン",
    "prefecture_code": 23,
    "city": "知多市",
    "city_kana": "チタシ",
    "town": "伊賀坂",
    "town_kana": "イガサカ",
    "street": null,
    "office_name": null,
    "office_name_kana": null
  },
  "0005": {
    "zip_code": "4780005",
    "prefecture": "愛知県",
    "prefecture_kana": "アイチケン",
    "prefecture_code": 23,
    "city": "知多市",
    "city_kana": "チタシ",
    "town": "阿原",
    "town_kana": "アワラ",
    "street": null,
    "office_name": null,
    "office_name_kana": null
  },
  "0006": {
    "zip_code": "4780006",
    "prefecture": "愛知県",
    "prefecture_kana": "アイチケン",
    "prefecture_code": 23,
    "city": "知多市",
    "city_kana": "チタシ",
    "town": "三反田",
    "town_kana": "サンタンダ",
    "street": null,
    "office_name": null,
    "office_name_kana": null
  },
  "0011": {
    "zip_code": "4780011",
    "prefecture": "愛知県",
    "prefecture_kana": "アイチケン",
    "prefecture_code": 23,
    "city": "知多市",
    "city_kana": "チタシ",
    "town": "原",
    "town_kana": "ハラ",
    "street": null,
    "office_name": null,
    "office_name_kana": null
  },
  "0012": {
    "zip_code": "4780012",
    "prefecture": "愛知県",
    "prefecture_kana": "アイチケン",
    "prefecture_code": 23,
    "city": "知多市",
    "city_kana": "チタシ",
    "town": "巽が丘",
    "town_kana": "タツミガオカ",
    "street": null,
    "office_name": null,
    "office_name_kana": null
  },
  "0013": {
    "zip_code": "4780013",
    "prefecture": "愛知県",
    "prefecture_kana": "アイチケン",
    "prefecture_code": 23,
    "city": "知多市",
    "city_kana": "チタシ",
    "town": "南巽が丘",
    "town_kana": "ミナミタツミガオカ",
    "street": null,
    "office_name": null,
    "office_name_kana": null
  },
  "0014": {
    "zip_code": "4780014",
    "prefecture": "愛知県",
    "prefecture_kana": "アイチケン",
    "prefecture_code": 23,
    "city": "知多市",
    "city_kana": "チタシ",
    "town": "西巽が丘",
    "town_kana": "ニシタツミガオカ",
    "street": null,
    "office_name": null,
    "office_name_kana": null
  },
  "0015": {
    "zip_code": "4780015",
    "prefecture": "愛知県",
    "prefecture_kana": "アイチケン",
    "prefecture_code": 23,
    "city": "知多市",
    "city_kana": "チタシ",
    "town": "佐布里",
    "town_kana": "ソウリ",
    "street": null,
    "office_name": null,
    "office_name_kana": null
  },
  "0016": {
    "zip_code": "4780016",
    "prefecture": "愛知県",
    "prefecture_kana": "アイチケン",
    "prefecture_code": 23,
    "city": "知多市",
    "city_kana": "チタシ",
    "town": "梅が丘",
    "town_kana": "ウメガオカ",
    "street": null,
    "office_name": null,
    "office_name_kana": null
  },
  "0017": {
    "zip_code": "4780017",
    "prefecture": "愛知県",
    "prefecture_kana": "アイチケン",
    "prefecture_code": 23,
    "city": "知多市",
    "city_kana": "チタシ",
    "town": "新知",
    "town_kana": "シンチ",
    "street": null,
    "office_name": null,
    "office_name_kana": null
  },
  "0018": {
    "zip_code": "4780018",
    "prefecture": "愛知県",
    "prefecture_kana": "アイチケン",
    "prefecture_code": 23,
    "city": "知多市",
    "city_kana": "チタシ",
    "town": "佐布里台",
    "town_kana": "ソウリダイ",
    "street": null,
    "office_name": null,
    "office_name_kana": null
  },
  "0021": {
    "zip_code": "4780021",
    "prefecture": "愛知県",
    "prefecture_kana": "アイチケン",
    "prefecture_code": 23,
    "city": "知多市",
    "city_kana": "チタシ",
    "town": "岡田",
    "town_kana": "オカダ",
    "street": null,
    "office_name": null,
    "office_name_kana": null
  },
  "0022": {
    "zip_code": "4780022",
    "prefecture": "愛知県",
    "prefecture_kana": "アイチケン",
    "prefecture_code": 23,
    "city": "知多市",
    "city_kana": "チタシ",
    "town": "大興寺",
    "town_kana": "ダイコウジ",
    "street": null,
    "office_name": null,
    "office_name_kana": null
  },
  "0023": {
    "zip_code": "4780023",
    "prefecture": "愛知県",
    "prefecture_kana": "アイチケン",
    "prefecture_code": 23,
    "city": "知多市",
    "city_kana": "チタシ",
    "town": "南粕谷東坂",
    "town_kana": "ミナミカスヤヒガシザカ",
    "street": null,
    "office_name": null,
    "office_name_kana": null
  },
  "0024": {
    "zip_code": "4780024",
    "prefecture": "愛知県",
    "prefecture_kana": "アイチケン",
    "prefecture_code": 23,
    "city": "知多市",
    "city_kana": "チタシ",
    "town": "南粕谷",
    "town_kana": "ミナミカスヤ",
    "street": null,
    "office_name": null,
    "office_name_kana": null
  },
  "0025": {
    "zip_code": "4780025",
    "prefecture": "愛知県",
    "prefecture_kana": "アイチケン",
    "prefecture_code": 23,
    "city": "知多市",
    "city_kana": "チタシ",
    "town": "南粕谷本町",
    "town_kana": "ミナミカスヤホンマチ",
    "street": null,
    "office_name": null,
    "office_name_kana": null
  },
  "0026": {
    "zip_code": "4780026",
    "prefecture": "愛知県",
    "prefecture_kana": "アイチケン",
    "prefecture_code": 23,
    "city": "知多市",
    "city_kana": "チタシ",
    "town": "南粕谷新海",
    "town_kana": "ミナミカスヤシンカイ",
    "street": null,
    "office_name": null,
    "office_name_kana": null
  },
  "0027": {
    "zip_code": "4780027",
    "prefecture": "愛知県",
    "prefecture_kana": "アイチケン",
    "prefecture_code": 23,
    "city": "知多市",
    "city_kana": "チタシ",
    "town": "新広見",
    "town_kana": "シンヒロミ",
    "street": null,
    "office_name": null,
    "office_name_kana": null
  },
  "0028": {
    "zip_code": "4780028",
    "prefecture": "愛知県",
    "prefecture_kana": "アイチケン",
    "prefecture_code": 23,
    "city": "知多市",
    "city_kana": "チタシ",
    "town": "岡田緑が丘",
    "town_kana": "オカダミドリガオカ",
    "street": null,
    "office_name": null,
    "office_name_kana": null
  },
  "0031": {
    "zip_code": "4780031",
    "prefecture": "愛知県",
    "prefecture_kana": "アイチケン",
    "prefecture_code": 23,
    "city": "知多市",
    "city_kana": "チタシ",
    "town": "旭",
    "town_kana": "アサヒ",
    "street": null,
    "office_name": null,
    "office_name_kana": null
  },
  "0032": {
    "zip_code": "4780032",
    "prefecture": "愛知県",
    "prefecture_kana": "アイチケン",
    "prefecture_code": 23,
    "city": "知多市",
    "city_kana": "チタシ",
    "town": "金沢",
    "town_kana": "カナザワ",
    "street": null,
    "office_name": null,
    "office_name_kana": null
  },
  "0033": {
    "zip_code": "4780033",
    "prefecture": "愛知県",
    "prefecture_kana": "アイチケン",
    "prefecture_code": 23,
    "city": "知多市",
    "city_kana": "チタシ",
    "town": "神田",
    "town_kana": "カンダ",
    "street": null,
    "office_name": null,
    "office_name_kana": null
  },
  "0034": {
    "zip_code": "4780034",
    "prefecture": "愛知県",
    "prefecture_kana": "アイチケン",
    "prefecture_code": 23,
    "city": "知多市",
    "city_kana": "チタシ",
    "town": "旭南",
    "town_kana": "キョクナン",
    "street": null,
    "office_name": null,
    "office_name_kana": null
  },
  "0035": {
    "zip_code": "4780035",
    "prefecture": "愛知県",
    "prefecture_kana": "アイチケン",
    "prefecture_code": 23,
    "city": "知多市",
    "city_kana": "チタシ",
    "town": "大草",
    "town_kana": "オオクサ",
    "street": null,
    "office_name": null,
    "office_name_kana": null
  },
  "0036": {
    "zip_code": "4780036",
    "prefecture": "愛知県",
    "prefecture_kana": "アイチケン",
    "prefecture_code": 23,
    "city": "知多市",
    "city_kana": "チタシ",
    "town": "新舞子",
    "town_kana": "シンマイコ",
    "street": null,
    "office_name": null,
    "office_name_kana": null
  },
  "0037": {
    "zip_code": "4780037",
    "prefecture": "愛知県",
    "prefecture_kana": "アイチケン",
    "prefecture_code": 23,
    "city": "知多市",
    "city_kana": "チタシ",
    "town": "新舞子東町",
    "town_kana": "シンマイコヒガシマチ",
    "street": null,
    "office_name": null,
    "office_name_kana": null
  },
  "0041": {
    "zip_code": "4780041",
    "prefecture": "愛知県",
    "prefecture_kana": "アイチケン",
    "prefecture_code": 23,
    "city": "知多市",
    "city_kana": "チタシ",
    "town": "日長",
    "town_kana": "ヒナガ",
    "street": null,
    "office_name": null,
    "office_name_kana": null
  },
  "0042": {
    "zip_code": "4780042",
    "prefecture": "愛知県",
    "prefecture_kana": "アイチケン",
    "prefecture_code": 23,
    "city": "知多市",
    "city_kana": "チタシ",
    "town": "長浦",
    "town_kana": "ナガウラ",
    "street": null,
    "office_name": null,
    "office_name_kana": null
  },
  "0043": {
    "zip_code": "4780043",
    "prefecture": "愛知県",
    "prefecture_kana": "アイチケン",
    "prefecture_code": 23,
    "city": "知多市",
    "city_kana": "チタシ",
    "town": "日長台",
    "town_kana": "ヒナガダイ",
    "street": null,
    "office_name": null,
    "office_name_kana": null
  },
  "0044": {
    "zip_code": "4780044",
    "prefecture": "愛知県",
    "prefecture_kana": "アイチケン",
    "prefecture_code": 23,
    "city": "知多市",
    "city_kana": "チタシ",
    "town": "旭桃台",
    "town_kana": "キョクトウダイ",
    "street": null,
    "office_name": null,
    "office_name_kana": null
  },
  "0045": {
    "zip_code": "4780045",
    "prefecture": "愛知県",
    "prefecture_kana": "アイチケン",
    "prefecture_code": 23,
    "city": "知多市",
    "city_kana": "チタシ",
    "town": "南浜町",
    "town_kana": "ミナミハママチ",
    "street": null,
    "office_name": null,
    "office_name_kana": null
  },
  "0046": {
    "zip_code": "4780046",
    "prefecture": "愛知県",
    "prefecture_kana": "アイチケン",
    "prefecture_code": 23,
    "city": "知多市",
    "city_kana": "チタシ",
    "town": "北浜町",
    "town_kana": "キタハママチ",
    "street": null,
    "office_name": null,
    "office_name_kana": null
  },
  "0047": {
    "zip_code": "4780047",
    "prefecture": "愛知県",
    "prefecture_kana": "アイチケン",
    "prefecture_code": 23,
    "city": "知多市",
    "city_kana": "チタシ",
    "town": "緑町",
    "town_kana": "ミドリマチ",
    "street": null,
    "office_name": null,
    "office_name_kana": null
  },
  "0051": {
    "zip_code": "4780051",
    "prefecture": "愛知県",
    "prefecture_kana": "アイチケン",
    "prefecture_code": 23,
    "city": "知多市",
    "city_kana": "チタシ",
    "town": "朝倉町",
    "town_kana": "アサクラマチ",
    "street": null,
    "office_name": null,
    "office_name_kana": null
  },
  "0052": {
    "zip_code": "4780052",
    "prefecture": "愛知県",
    "prefecture_kana": "アイチケン",
    "prefecture_code": 23,
    "city": "知多市",
    "city_kana": "チタシ",
    "town": "八幡新町",
    "town_kana": "ヤワタシンマチ",
    "street": null,
    "office_name": null,
    "office_name_kana": null
  },
  "0053": {
    "zip_code": "4780053",
    "prefecture": "愛知県",
    "prefecture_kana": "アイチケン",
    "prefecture_code": 23,
    "city": "知多市",
    "city_kana": "チタシ",
    "town": "清水が丘",
    "town_kana": "シミズガオカ",
    "street": null,
    "office_name": null,
    "office_name_kana": null
  },
  "0054": {
    "zip_code": "4780054",
    "prefecture": "愛知県",
    "prefecture_kana": "アイチケン",
    "prefecture_code": 23,
    "city": "知多市",
    "city_kana": "チタシ",
    "town": "つつじが丘",
    "town_kana": "ツツジガオカ",
    "street": null,
    "office_name": null,
    "office_name_kana": null
  },
  "0055": {
    "zip_code": "4780055",
    "prefecture": "愛知県",
    "prefecture_kana": "アイチケン",
    "prefecture_code": 23,
    "city": "知多市",
    "city_kana": "チタシ",
    "town": "にしの台",
    "town_kana": "ニシノダイ",
    "street": null,
    "office_name": null,
    "office_name_kana": null
  },
  "0056": {
    "zip_code": "4780056",
    "prefecture": "愛知県",
    "prefecture_kana": "アイチケン",
    "prefecture_code": 23,
    "city": "知多市",
    "city_kana": "チタシ",
    "town": "南谷",
    "town_kana": "ミナミダニ",
    "street": null,
    "office_name": null,
    "office_name_kana": null
  },
  "0057": {
    "zip_code": "4780057",
    "prefecture": "愛知県",
    "prefecture_kana": "アイチケン",
    "prefecture_code": 23,
    "city": "知多市",
    "city_kana": "チタシ",
    "town": "吹込",
    "town_kana": "フキコミ",
    "street": null,
    "office_name": null,
    "office_name_kana": null
  },
  "0058": {
    "zip_code": "4780058",
    "prefecture": "愛知県",
    "prefecture_kana": "アイチケン",
    "prefecture_code": 23,
    "city": "知多市",
    "city_kana": "チタシ",
    "town": "上り戸",
    "town_kana": "アガリド",
    "street": null,
    "office_name": null,
    "office_name_kana": null
  },
  "0059": {
    "zip_code": "4780059",
    "prefecture": "愛知県",
    "prefecture_kana": "アイチケン",
    "prefecture_code": 23,
    "city": "知多市",
    "city_kana": "チタシ",
    "town": "新長根",
    "town_kana": "シンナガネ",
    "street": null,
    "office_name": null,
    "office_name_kana": null
  },
  "0060": {
    "zip_code": "4780060",
    "prefecture": "愛知県",
    "prefecture_kana": "アイチケン",
    "prefecture_code": 23,
    "city": "知多市",
    "city_kana": "チタシ",
    "town": "山屋敷",
    "town_kana": "ヤマヤシキ",
    "street": null,
    "office_name": null,
    "office_name_kana": null
  },
  "0061": {
    "zip_code": "4780061",
    "prefecture": "愛知県",
    "prefecture_kana": "アイチケン",
    "prefecture_code": 23,
    "city": "知多市",
    "city_kana": "チタシ",
    "town": "東大僧",
    "town_kana": "ヒガシオオソウ",
    "street": null,
    "office_name": null,
    "office_name_kana": null
  },
  "0062": {
    "zip_code": "4780062",
    "prefecture": "愛知県",
    "prefecture_kana": "アイチケン",
    "prefecture_code": 23,
    "city": "知多市",
    "city_kana": "チタシ",
    "town": "岡田美里町",
    "town_kana": "オカダミサトマチ",
    "street": null,
    "office_name": null,
    "office_name_kana": null
  },
  "0063": {
    "zip_code": "4780063",
    "prefecture": "愛知県",
    "prefecture_kana": "アイチケン",
    "prefecture_code": 23,
    "city": "知多市",
    "city_kana": "チタシ",
    "town": "寺本新町",
    "town_kana": "テラモトシンマチ",
    "street": null,
    "office_name": null,
    "office_name_kana": null
  },
  "0064": {
    "zip_code": "4780064",
    "prefecture": "愛知県",
    "prefecture_kana": "アイチケン",
    "prefecture_code": 23,
    "city": "知多市",
    "city_kana": "チタシ",
    "town": "新知台",
    "town_kana": "シンチダイ",
    "street": null,
    "office_name": null,
    "office_name_kana": null
  },
  "0065": {
    "zip_code": "4780065",
    "prefecture": "愛知県",
    "prefecture_kana": "アイチケン",
    "prefecture_code": 23,
    "city": "知多市",
    "city_kana": "チタシ",
    "town": "新知東町",
    "town_kana": "シンチヒガシマチ",
    "street": null,
    "office_name": null,
    "office_name_kana": null
  },
  "0066": {
    "zip_code": "4780066",
    "prefecture": "愛知県",
    "prefecture_kana": "アイチケン",
    "prefecture_code": 23,
    "city": "知多市",
    "city_kana": "チタシ",
    "town": "新知西町",
    "town_kana": "シンチニシマチ",
    "street": null,
    "office_name": null,
    "office_name_kana": null
  },
  "0067": {
    "zip_code": "4780067",
    "prefecture": "愛知県",
    "prefecture_kana": "アイチケン",
    "prefecture_code": 23,
    "city": "知多市",
    "city_kana": "チタシ",
    "town": "大僧",
    "town_kana": "オオソウ",
    "street": null,
    "office_name": null,
    "office_name_kana": null
  },
  "0068": {
    "zip_code": "4780068",
    "prefecture": "愛知県",
    "prefecture_kana": "アイチケン",
    "prefecture_code": 23,
    "city": "知多市",
    "city_kana": "チタシ",
    "town": "中原",
    "town_kana": "ナカハラ",
    "street": null,
    "office_name": null,
    "office_name_kana": null
  },
  "0069": {
    "zip_code": "4780069",
    "prefecture": "愛知県",
    "prefecture_kana": "アイチケン",
    "prefecture_code": 23,
    "city": "知多市",
    "city_kana": "チタシ",
    "town": "新刀池",
    "town_kana": "シンカタナイケ",
    "street": null,
    "office_name": null,
    "office_name_kana": null
  },
  "8501": {
    "zip_code": "4788501",
    "prefecture": "愛知県",
    "prefecture_kana": "アイチケン",
    "prefecture_code": 23,
    "city": "知多市",
    "city_kana": "チタシ",
    "town": "北浜町",
    "town_kana": "キタハママチ",
    "street": "１２",
    "office_name": "日清丸紅飼料　株式会社　知多工場",
    "office_name_kana": "ニツシンマルベニシリヨウ カブシキガイシヤ チタコウジヨウ"
  },
  "8502": {
    "zip_code": "4788502",
    "prefecture": "愛知県",
    "prefecture_kana": "アイチケン",
    "prefecture_code": 23,
    "city": "知多市",
    "city_kana": "チタシ",
    "town": "北浜町",
    "town_kana": "キタハママチ",
    "street": "１４−６",
    "office_name": "中部飼料　株式会社",
    "office_name_kana": "チユウブシリヨウ カブシキガイシヤ"
  },
  "8503": {
    "zip_code": "4788503",
    "prefecture": "愛知県",
    "prefecture_kana": "アイチケン",
    "prefecture_code": 23,
    "city": "知多市",
    "city_kana": "チタシ",
    "town": "北浜町",
    "town_kana": "キタハママチ",
    "street": "２４−５",
    "office_name": "サンエイ糖化　株式会社",
    "office_name_kana": "サンエイトウカ カブシキガイシヤ"
  },
  "8504": {
    "zip_code": "4788504",
    "prefecture": "愛知県",
    "prefecture_kana": "アイチケン",
    "prefecture_code": 23,
    "city": "知多市",
    "city_kana": "チタシ",
    "town": "北浜町",
    "town_kana": "キタハママチ",
    "street": "２５番地",
    "office_name": "ＪＸ日鉱日石エネルギー　株式会社　知多製造所",
    "office_name_kana": "ジエイエツクスニツコウニツセキエネルギ- カブシキガイシヤ チタセイゾウシヨ"
  },
  "8505": {
    "zip_code": "4788505",
    "prefecture": "愛知県",
    "prefecture_kana": "アイチケン",
    "prefecture_code": 23,
    "city": "知多市",
    "city_kana": "チタシ",
    "town": "北浜町",
    "town_kana": "キタハママチ",
    "street": "２５番地７",
    "office_name": "株式会社　ＬＩＸＩＬ　知多事業所",
    "office_name_kana": "カブシキガイシヤ リクシル チタジギヨウシヨ"
  },
  "8555": {
    "zip_code": "4788555",
    "prefecture": "愛知県",
    "prefecture_kana": "アイチケン",
    "prefecture_code": 23,
    "city": "知多市",
    "city_kana": "チタシ",
    "town": "南浜町",
    "town_kana": "ミナミハママチ",
    "street": "１１",
    "office_name": "出光興産　株式会社　愛知製油所",
    "office_name_kana": "イデミツコウサン カブシキガイシヤ アイチセイユシヨ"
  },
  "8601": {
    "zip_code": "4788601",
    "prefecture": "愛知県",
    "prefecture_kana": "アイチケン",
    "prefecture_code": 23,
    "city": "知多市",
    "city_kana": "チタシ",
    "town": "緑町",
    "town_kana": "ミドリマチ",
    "street": "１",
    "office_name": "知多市役所",
    "office_name_kana": "チタシヤクシヨ"
  },
  "8640": {
    "zip_code": "4788640",
    "prefecture": "愛知県",
    "prefecture_kana": "アイチケン",
    "prefecture_code": 23,
    "city": "知多市",
    "city_kana": "チタシ",
    "town": "新知",
    "town_kana": "シンチ",
    "street": "字永井２−１",
    "office_name": "知多市民病院",
    "office_name_kana": "チタシミンビヨウイン"
  },
  "8641": {
    "zip_code": "4788641",
    "prefecture": "愛知県",
    "prefecture_kana": "アイチケン",
    "prefecture_code": 23,
    "city": "知多市",
    "city_kana": "チタシ",
    "town": "新知",
    "town_kana": "シンチ",
    "street": "字中殿１",
    "office_name": "株式会社　エフエスケー",
    "office_name_kana": "カブシキガイシヤ エフエスケ-"
  }
}