{
  "0000": {
    "zip_code": "4830000",
    "prefecture": "愛知県",
    "prefecture_kana": "アイチケン",
    "prefecture_code": "23",
    "city": "江南市",
    "city_kana": "コウナンシ",
    "town": "",
    "town_kana": "",
    "street": null,
    "office_name": null,
    "office_name_kana": null
  },
  "8001": {
    "zip_code": "4838001",
    "prefecture": "愛知県",
    "prefecture_kana": "アイチケン",
    "prefecture_code": "23",
    "city": "江南市",
    "city_kana": "コウナンシ",
    "town": "中般若町東",
    "town_kana": "ナカハンニャチョウヒガシ",
    "street": null,
    "office_name": null,
    "office_name_kana": null
  },
  "8002": {
    "zip_code": "4838002",
    "prefecture": "愛知県",
    "prefecture_kana": "アイチケン",
    "prefecture_code": "23",
    "city": "江南市",
    "city_kana": "コウナンシ",
    "town": "中般若町西",
    "town_kana": "ナカハンニャチョウニシ",
    "street": null,
    "office_name": null,
    "office_name_kana": null
  },
  "8003": [
    {
      "zip_code": "4838003",
      "prefecture": "愛知県",
      "prefecture_kana": "アイチケン",
      "prefecture_code": "23",
      "city": "江南市",
      "city_kana": "コウナンシ",
      "town": "草井町大野",
      "town_kana": "クサイチョウオオノ",
      "street": null,
      "office_name": null,
      "office_name_kana": null
    },
    {
      "zip_code": "4838003",
      "prefecture": "愛知県",
      "prefecture_kana": "アイチケン",
      "prefecture_code": "23",
      "city": "江南市",
      "city_kana": "コウナンシ",
      "town": "中般若町",
      "town_kana": "ナカハンニャチョウ",
      "street": null,
      "office_name": null,
      "office_name_kana": null
    },
    {
      "zip_code": "4838003",
      "prefecture": "愛知県",
      "prefecture_kana": "アイチケン",
      "prefecture_code": "23",
      "city": "江南市",
      "city_kana": "コウナンシ",
      "town": "中般若町川端",
      "town_kana": "ナカハンニャチョウカワバタ",
      "street": null,
      "office_name": null,
      "office_name_kana": null
    },
    {
      "zip_code": "4838003",
      "prefecture": "愛知県",
      "prefecture_kana": "アイチケン",
      "prefecture_code": "23",
      "city": "江南市",
      "city_kana": "コウナンシ",
      "town": "中般若町北浦",
      "town_kana": "ナカハンニャチョウキタウラ",
      "street": null,
      "office_name": null,
      "office_name_kana": null
    }
  ],
  "8004": {
    "zip_code": "4838004",
    "prefecture": "愛知県",
    "prefecture_kana": "アイチケン",
    "prefecture_code": "23",
    "city": "江南市",
    "city_kana": "コウナンシ",
    "town": "草井町宮東",
    "town_kana": "クサイチョウミヤヒガシ",
    "street": null,
    "office_name": null,
    "office_name_kana": null
  },
  "8005": {
    "zip_code": "4838005",
    "prefecture": "愛知県",
    "prefecture_kana": "アイチケン",
    "prefecture_code": "23",
    "city": "江南市",
    "city_kana": "コウナンシ",
    "town": "草井町宮西",
    "town_kana": "クサイチョウミヤニシ",
    "street": null,
    "office_name": null,
    "office_name_kana": null
  },
  "8006": {
    "zip_code": "4838006",
    "prefecture": "愛知県",
    "prefecture_kana": "アイチケン",
    "prefecture_code": "23",
    "city": "江南市",
    "city_kana": "コウナンシ",
    "town": "草井町中",
    "town_kana": "クサイチョウナカ",
    "street": null,
    "office_name": null,
    "office_name_kana": null
  },
  "8007": {
    "zip_code": "4838007",
    "prefecture": "愛知県",
    "prefecture_kana": "アイチケン",
    "prefecture_code": "23",
    "city": "江南市",
    "city_kana": "コウナンシ",
    "town": "草井町西",
    "town_kana": "クサイチョウニシ",
    "street": null,
    "office_name": null,
    "office_name_kana": null
  },
  "8008": {
    "zip_code": "4838008",
    "prefecture": "愛知県",
    "prefecture_kana": "アイチケン",
    "prefecture_code": "23",
    "city": "江南市",
    "city_kana": "コウナンシ",
    "town": "鹿子島町",
    "town_kana": "カノコジマチョウ",
    "street": null,
    "office_name": null,
    "office_name_kana": null
  },
  "8011": {
    "zip_code": "4838011",
    "prefecture": "愛知県",
    "prefecture_kana": "アイチケン",
    "prefecture_code": "23",
    "city": "江南市",
    "city_kana": "コウナンシ",
    "town": "般若町宮山",
    "town_kana": "ハンニャチョウミヤヤマ",
    "street": null,
    "office_name": null,
    "office_name_kana": null
  },
  "8012": {
    "zip_code": "4838012",
    "prefecture": "愛知県",
    "prefecture_kana": "アイチケン",
    "prefecture_code": "23",
    "city": "江南市",
    "city_kana": "コウナンシ",
    "town": "般若町東山",
    "town_kana": "ハンニャチョウヒガシヤマ",
    "street": null,
    "office_name": null,
    "office_name_kana": null
  },
  "8013": {
    "zip_code": "4838013",
    "prefecture": "愛知県",
    "prefecture_kana": "アイチケン",
    "prefecture_code": "23",
    "city": "江南市",
    "city_kana": "コウナンシ",
    "town": "般若町南山",
    "town_kana": "ハンニャチョウミナミヤマ",
    "street": null,
    "office_name": null,
    "office_name_kana": null
  },
  "8014": {
    "zip_code": "4838014",
    "prefecture": "愛知県",
    "prefecture_kana": "アイチケン",
    "prefecture_code": "23",
    "city": "江南市",
    "city_kana": "コウナンシ",
    "town": "和田町川東",
    "town_kana": "ワダチョウカワヒガシ",
    "street": null,
    "office_name": null,
    "office_name_kana": null
  },
  "8015": {
    "zip_code": "4838015",
    "prefecture": "愛知県",
    "prefecture_kana": "アイチケン",
    "prefecture_code": "23",
    "city": "江南市",
    "city_kana": "コウナンシ",
    "town": "和田町中島",
    "town_kana": "ワダチョウナカジマ",
    "street": null,
    "office_name": null,
    "office_name_kana": null
  },
  "8016": {
    "zip_code": "4838016",
    "prefecture": "愛知県",
    "prefecture_kana": "アイチケン",
    "prefecture_code": "23",
    "city": "江南市",
    "city_kana": "コウナンシ",
    "town": "和田町西島",
    "town_kana": "ワダチョウニシジマ",
    "street": null,
    "office_name": null,
    "office_name_kana": null
  },
  "8017": {
    "zip_code": "4838017",
    "prefecture": "愛知県",
    "prefecture_kana": "アイチケン",
    "prefecture_code": "23",
    "city": "江南市",
    "city_kana": "コウナンシ",
    "town": "般若町前山",
    "town_kana": "ハンニャチョウマエヤマ",
    "street": null,
    "office_name": null,
    "office_name_kana": null
  },
  "8018": {
    "zip_code": "4838018",
    "prefecture": "愛知県",
    "prefecture_kana": "アイチケン",
    "prefecture_code": "23",
    "city": "江南市",
    "city_kana": "コウナンシ",
    "town": "般若町中山",
    "town_kana": "ハンニャチョウナカヤマ",
    "street": null,
    "office_name": null,
    "office_name_kana": null
  },
  "8021": {
    "zip_code": "4838021",
    "prefecture": "愛知県",
    "prefecture_kana": "アイチケン",
    "prefecture_code": "23",
    "city": "江南市",
    "city_kana": "コウナンシ",
    "town": "和田町小島",
    "town_kana": "ワダチョウコジマ",
    "street": null,
    "office_name": null,
    "office_name_kana": null
  },
  "8022": {
    "zip_code": "4838022",
    "prefecture": "愛知県",
    "prefecture_kana": "アイチケン",
    "prefecture_code": "23",
    "city": "江南市",
    "city_kana": "コウナンシ",
    "town": "和田町旭",
    "town_kana": "ワダチョウアサヒ",
    "street": null,
    "office_name": null,
    "office_name_kana": null
  },
  "8023": {
    "zip_code": "4838023",
    "prefecture": "愛知県",
    "prefecture_kana": "アイチケン",
    "prefecture_code": "23",
    "city": "江南市",
    "city_kana": "コウナンシ",
    "town": "和田町二タ子",
    "town_kana": "ワダチョウフタゴ",
    "street": null,
    "office_name": null,
    "office_name_kana": null
  },
  "8024": {
    "zip_code": "4838024",
    "prefecture": "愛知県",
    "prefecture_kana": "アイチケン",
    "prefecture_code": "23",
    "city": "江南市",
    "city_kana": "コウナンシ",
    "town": "和田町天神",
    "town_kana": "ワダチョウテンジン",
    "street": null,
    "office_name": null,
    "office_name_kana": null
  },
  "8025": {
    "zip_code": "4838025",
    "prefecture": "愛知県",
    "prefecture_kana": "アイチケン",
    "prefecture_code": "23",
    "city": "江南市",
    "city_kana": "コウナンシ",
    "town": "和田町宮",
    "town_kana": "ワダチョウミヤ",
    "street": null,
    "office_name": null,
    "office_name_kana": null
  },
  "8026": {
    "zip_code": "4838026",
    "prefecture": "愛知県",
    "prefecture_kana": "アイチケン",
    "prefecture_code": "23",
    "city": "江南市",
    "city_kana": "コウナンシ",
    "town": "和田町中畑",
    "town_kana": "ワダチョウナカハタ",
    "street": null,
    "office_name": null,
    "office_name_kana": null
  },
  "8027": {
    "zip_code": "4838027",
    "prefecture": "愛知県",
    "prefecture_kana": "アイチケン",
    "prefecture_code": "23",
    "city": "江南市",
    "city_kana": "コウナンシ",
    "town": "和田町本郷",
    "town_kana": "ワダチョウホンゴウ",
    "street": null,
    "office_name": null,
    "office_name_kana": null
  },
  "8028": {
    "zip_code": "4838028",
    "prefecture": "愛知県",
    "prefecture_kana": "アイチケン",
    "prefecture_code": "23",
    "city": "江南市",
    "city_kana": "コウナンシ",
    "town": "和田町中",
    "town_kana": "ワダチョウナカ",
    "street": null,
    "office_name": null,
    "office_name_kana": null
  },
  "8029": {
    "zip_code": "4838029",
    "prefecture": "愛知県",
    "prefecture_kana": "アイチケン",
    "prefecture_code": "23",
    "city": "江南市",
    "city_kana": "コウナンシ",
    "town": "和田町栄",
    "town_kana": "ワダチョウサカエ",
    "street": null,
    "office_name": null,
    "office_name_kana": null
  },
  "8031": {
    "zip_code": "4838031",
    "prefecture": "愛知県",
    "prefecture_kana": "アイチケン",
    "prefecture_code": "23",
    "city": "江南市",
    "city_kana": "コウナンシ",
    "town": "山尻町朝日",
    "town_kana": "ヤマジリチョウアサヒ",
    "street": null,
    "office_name": null,
    "office_name_kana": null
  },
  "8032": {
    "zip_code": "4838032",
    "prefecture": "愛知県",
    "prefecture_kana": "アイチケン",
    "prefecture_code": "23",
    "city": "江南市",
    "city_kana": "コウナンシ",
    "town": "山尻町大桑",
    "town_kana": "ヤマジリチョウオオクワ",
    "street": null,
    "office_name": null,
    "office_name_kana": null
  },
  "8033": {
    "zip_code": "4838033",
    "prefecture": "愛知県",
    "prefecture_kana": "アイチケン",
    "prefecture_code": "23",
    "city": "江南市",
    "city_kana": "コウナンシ",
    "town": "山尻町川端",
    "town_kana": "ヤマジリチョウカワバタ",
    "street": null,
    "office_name": null,
    "office_name_kana": null
  },
  "8034": {
    "zip_code": "4838034",
    "prefecture": "愛知県",
    "prefecture_kana": "アイチケン",
    "prefecture_code": "23",
    "city": "江南市",
    "city_kana": "コウナンシ",
    "town": "江森町西",
    "town_kana": "エモリチョウニシ",
    "street": null,
    "office_name": null,
    "office_name_kana": null
  },
  "8035": {
    "zip_code": "4838035",
    "prefecture": "愛知県",
    "prefecture_kana": "アイチケン",
    "prefecture_code": "23",
    "city": "江南市",
    "city_kana": "コウナンシ",
    "town": "高屋町大門",
    "town_kana": "タカヤチョウダイモン",
    "street": null,
    "office_name": null,
    "office_name_kana": null
  },
  "8036": {
    "zip_code": "4838036",
    "prefecture": "愛知県",
    "prefecture_kana": "アイチケン",
    "prefecture_code": "23",
    "city": "江南市",
    "city_kana": "コウナンシ",
    "town": "山尻町本丸西",
    "town_kana": "ヤマジリチョウホンマルニシ",
    "street": null,
    "office_name": null,
    "office_name_kana": null
  },
  "8037": {
    "zip_code": "4838037",
    "prefecture": "愛知県",
    "prefecture_kana": "アイチケン",
    "prefecture_code": "23",
    "city": "江南市",
    "city_kana": "コウナンシ",
    "town": "勝佐町",
    "town_kana": "カツサチョウ",
    "street": null,
    "office_name": null,
    "office_name_kana": null
  },
  "8038": {
    "zip_code": "4838038",
    "prefecture": "愛知県",
    "prefecture_kana": "アイチケン",
    "prefecture_code": "23",
    "city": "江南市",
    "city_kana": "コウナンシ",
    "town": "山尻町本丸",
    "town_kana": "ヤマジリチョウホンマル",
    "street": null,
    "office_name": null,
    "office_name_kana": null
  },
  "8041": {
    "zip_code": "4838041",
    "prefecture": "愛知県",
    "prefecture_kana": "アイチケン",
    "prefecture_code": "23",
    "city": "江南市",
    "city_kana": "コウナンシ",
    "town": "江森町上",
    "town_kana": "エモリチョウカミ",
    "street": null,
    "office_name": null,
    "office_name_kana": null
  },
  "8042": {
    "zip_code": "4838042",
    "prefecture": "愛知県",
    "prefecture_kana": "アイチケン",
    "prefecture_code": "23",
    "city": "江南市",
    "city_kana": "コウナンシ",
    "town": "江森町東",
    "town_kana": "エモリチョウヒガシ",
    "street": null,
    "office_name": null,
    "office_name_kana": null
  },
  "8043": {
    "zip_code": "4838043",
    "prefecture": "愛知県",
    "prefecture_kana": "アイチケン",
    "prefecture_code": "23",
    "city": "江南市",
    "city_kana": "コウナンシ",
    "town": "江森町南",
    "town_kana": "エモリチョウミナミ",
    "street": null,
    "office_name": null,
    "office_name_kana": null
  },
  "8044": {
    "zip_code": "4838044",
    "prefecture": "愛知県",
    "prefecture_kana": "アイチケン",
    "prefecture_code": "23",
    "city": "江南市",
    "city_kana": "コウナンシ",
    "town": "宮後町",
    "town_kana": "ミヤウシロチョウ",
    "street": null,
    "office_name": null,
    "office_name_kana": null
  },
  "8045": {
    "zip_code": "4838045",
    "prefecture": "愛知県",
    "prefecture_kana": "アイチケン",
    "prefecture_code": "23",
    "city": "江南市",
    "city_kana": "コウナンシ",
    "town": "高屋町遠場",
    "town_kana": "タカヤチョウトウバ",
    "street": null,
    "office_name": null,
    "office_name_kana": null
  },
  "8046": {
    "zip_code": "4838046",
    "prefecture": "愛知県",
    "prefecture_kana": "アイチケン",
    "prefecture_code": "23",
    "city": "江南市",
    "city_kana": "コウナンシ",
    "town": "高屋町花戸",
    "town_kana": "タカヤチョウハナド",
    "street": null,
    "office_name": null,
    "office_name_kana": null
  },
  "8047": {
    "zip_code": "4838047",
    "prefecture": "愛知県",
    "prefecture_kana": "アイチケン",
    "prefecture_code": "23",
    "city": "江南市",
    "city_kana": "コウナンシ",
    "town": "高屋町大師",
    "town_kana": "タカヤチョウダイシ",
    "street": null,
    "office_name": null,
    "office_name_kana": null
  },
  "8048": {
    "zip_code": "4838048",
    "prefecture": "愛知県",
    "prefecture_kana": "アイチケン",
    "prefecture_code": "23",
    "city": "江南市",
    "city_kana": "コウナンシ",
    "town": "江森町中",
    "town_kana": "エモリチョウナカ",
    "street": null,
    "office_name": null,
    "office_name_kana": null
  },
  "8051": {
    "zip_code": "4838051",
    "prefecture": "愛知県",
    "prefecture_kana": "アイチケン",
    "prefecture_code": "23",
    "city": "江南市",
    "city_kana": "コウナンシ",
    "town": "前野町新田北",
    "town_kana": "マエノチョウシンデンキタ",
    "street": null,
    "office_name": null,
    "office_name_kana": null
  },
  "8052": {
    "zip_code": "4838052",
    "prefecture": "愛知県",
    "prefecture_kana": "アイチケン",
    "prefecture_code": "23",
    "city": "江南市",
    "city_kana": "コウナンシ",
    "town": "前野町東",
    "town_kana": "マエノチョウヒガシ",
    "street": null,
    "office_name": null,
    "office_name_kana": null
  },
  "8053": {
    "zip_code": "4838053",
    "prefecture": "愛知県",
    "prefecture_kana": "アイチケン",
    "prefecture_code": "23",
    "city": "江南市",
    "city_kana": "コウナンシ",
    "town": "前野町高島",
    "town_kana": "マエノチョウタカシマ",
    "street": null,
    "office_name": null,
    "office_name_kana": null
  },
  "8054": {
    "zip_code": "4838054",
    "prefecture": "愛知県",
    "prefecture_kana": "アイチケン",
    "prefecture_code": "23",
    "city": "江南市",
    "city_kana": "コウナンシ",
    "town": "前野町南",
    "town_kana": "マエノチョウミナミ",
    "street": null,
    "office_name": null,
    "office_name_kana": null
  },
  "8055": {
    "zip_code": "4838055",
    "prefecture": "愛知県",
    "prefecture_kana": "アイチケン",
    "prefecture_code": "23",
    "city": "江南市",
    "city_kana": "コウナンシ",
    "town": "山王町",
    "town_kana": "サンノウチョウ",
    "street": null,
    "office_name": null,
    "office_name_kana": null
  },
  "8056": {
    "zip_code": "4838056",
    "prefecture": "愛知県",
    "prefecture_kana": "アイチケン",
    "prefecture_code": "23",
    "city": "江南市",
    "city_kana": "コウナンシ",
    "town": "宮後町清水",
    "town_kana": "ミヤウシロチョウシミズ",
    "street": null,
    "office_name": null,
    "office_name_kana": null
  },
  "8057": {
    "zip_code": "4838057",
    "prefecture": "愛知県",
    "prefecture_kana": "アイチケン",
    "prefecture_code": "23",
    "city": "江南市",
    "city_kana": "コウナンシ",
    "town": "前野町新田",
    "town_kana": "マエノチョウシンデン",
    "street": null,
    "office_name": null,
    "office_name_kana": null
  },
  "8058": {
    "zip_code": "4838058",
    "prefecture": "愛知県",
    "prefecture_kana": "アイチケン",
    "prefecture_code": "23",
    "city": "江南市",
    "city_kana": "コウナンシ",
    "town": "前野町西",
    "town_kana": "マエノチョウニシ",
    "street": null,
    "office_name": null,
    "office_name_kana": null
  },
  "8061": {
    "zip_code": "4838061",
    "prefecture": "愛知県",
    "prefecture_kana": "アイチケン",
    "prefecture_code": "23",
    "city": "江南市",
    "city_kana": "コウナンシ",
    "town": "高屋町清水",
    "town_kana": "タカヤチョウシミズ",
    "street": null,
    "office_name": null,
    "office_name_kana": null
  },
  "8062": {
    "zip_code": "4838062",
    "prefecture": "愛知県",
    "prefecture_kana": "アイチケン",
    "prefecture_code": "23",
    "city": "江南市",
    "city_kana": "コウナンシ",
    "town": "高屋町神戸",
    "town_kana": "タカヤチョウゴウド",
    "street": null,
    "office_name": null,
    "office_name_kana": null
  },
  "8063": {
    "zip_code": "4838063",
    "prefecture": "愛知県",
    "prefecture_kana": "アイチケン",
    "prefecture_code": "23",
    "city": "江南市",
    "city_kana": "コウナンシ",
    "town": "高屋町八幡",
    "town_kana": "タカヤチョウハチマン",
    "street": null,
    "office_name": null,
    "office_name_kana": null
  },
  "8064": {
    "zip_code": "4838064",
    "prefecture": "愛知県",
    "prefecture_kana": "アイチケン",
    "prefecture_code": "23",
    "city": "江南市",
    "city_kana": "コウナンシ",
    "town": "高屋町十六田",
    "town_kana": "タカヤチョウジュウロクデン",
    "street": null,
    "office_name": null,
    "office_name_kana": null
  },
  "8065": {
    "zip_code": "4838065",
    "prefecture": "愛知県",
    "prefecture_kana": "アイチケン",
    "prefecture_code": "23",
    "city": "江南市",
    "city_kana": "コウナンシ",
    "town": "高屋町旭",
    "town_kana": "タカヤチョウアサヒ",
    "street": null,
    "office_name": null,
    "office_name_kana": null
  },
  "8066": {
    "zip_code": "4838066",
    "prefecture": "愛知県",
    "prefecture_kana": "アイチケン",
    "prefecture_code": "23",
    "city": "江南市",
    "city_kana": "コウナンシ",
    "town": "高屋町西町",
    "town_kana": "タカヤチョウニシマチ",
    "street": null,
    "office_name": null,
    "office_name_kana": null
  },
  "8067": {
    "zip_code": "4838067",
    "prefecture": "愛知県",
    "prefecture_kana": "アイチケン",
    "prefecture_code": "23",
    "city": "江南市",
    "city_kana": "コウナンシ",
    "town": "飛高町中町",
    "town_kana": "ヒダカチョウナカマチ",
    "street": null,
    "office_name": null,
    "office_name_kana": null
  },
  "8068": {
    "zip_code": "4838068",
    "prefecture": "愛知県",
    "prefecture_kana": "アイチケン",
    "prefecture_code": "23",
    "city": "江南市",
    "city_kana": "コウナンシ",
    "town": "飛高町本町",
    "town_kana": "ヒダカチョウホンマチ",
    "street": null,
    "office_name": null,
    "office_name_kana": null
  },
  "8069": {
    "zip_code": "4838069",
    "prefecture": "愛知県",
    "prefecture_kana": "アイチケン",
    "prefecture_code": "23",
    "city": "江南市",
    "city_kana": "コウナンシ",
    "town": "飛高町宮町",
    "town_kana": "ヒダカチョウミヤマチ",
    "street": null,
    "office_name": null,
    "office_name_kana": null
  },
  "8071": {
    "zip_code": "4838071",
    "prefecture": "愛知県",
    "prefecture_kana": "アイチケン",
    "prefecture_code": "23",
    "city": "江南市",
    "city_kana": "コウナンシ",
    "town": "草井町中野",
    "town_kana": "クサイチョウナカノ",
    "street": null,
    "office_name": null,
    "office_name_kana": null
  },
  "8072": {
    "zip_code": "4838072",
    "prefecture": "愛知県",
    "prefecture_kana": "アイチケン",
    "prefecture_code": "23",
    "city": "江南市",
    "city_kana": "コウナンシ",
    "town": "草井町若草",
    "town_kana": "クサイチョウワカクサ",
    "street": null,
    "office_name": null,
    "office_name_kana": null
  },
  "8074": {
    "zip_code": "4838074",
    "prefecture": "愛知県",
    "prefecture_kana": "アイチケン",
    "prefecture_code": "23",
    "city": "江南市",
    "city_kana": "コウナンシ",
    "town": "村久野町平松",
    "town_kana": "ムラクノチョウヒラマツ",
    "street": null,
    "office_name": null,
    "office_name_kana": null
  },
  "8075": {
    "zip_code": "4838075",
    "prefecture": "愛知県",
    "prefecture_kana": "アイチケン",
    "prefecture_code": "23",
    "city": "江南市",
    "city_kana": "コウナンシ",
    "town": "村久野町平河",
    "town_kana": "ムラクノチョウヒラカワ",
    "street": null,
    "office_name": null,
    "office_name_kana": null
  },
  "8076": {
    "zip_code": "4838076",
    "prefecture": "愛知県",
    "prefecture_kana": "アイチケン",
    "prefecture_code": "23",
    "city": "江南市",
    "city_kana": "コウナンシ",
    "town": "村久野町上原",
    "town_kana": "ムラクノチョウウエハラ",
    "street": null,
    "office_name": null,
    "office_name_kana": null
  },
  "8077": [
    {
      "zip_code": "4838077",
      "prefecture": "愛知県",
      "prefecture_kana": "アイチケン",
      "prefecture_code": "23",
      "city": "江南市",
      "city_kana": "コウナンシ",
      "town": "草井町",
      "town_kana": "クサイチョウ",
      "street": null,
      "office_name": null,
      "office_name_kana": null
    },
    {
      "zip_code": "4838077",
      "prefecture": "愛知県",
      "prefecture_kana": "アイチケン",
      "prefecture_code": "23",
      "city": "江南市",
      "city_kana": "コウナンシ",
      "town": "草井町南",
      "town_kana": "クサイチョウミナミ",
      "street": null,
      "office_name": null,
      "office_name_kana": null
    },
    {
      "zip_code": "4838077",
      "prefecture": "愛知県",
      "prefecture_kana": "アイチケン",
      "prefecture_code": "23",
      "city": "江南市",
      "city_kana": "コウナンシ",
      "town": "草井町榊戸",
      "town_kana": "クサイチョウサカキド",
      "street": null,
      "office_name": null,
      "office_name_kana": null
    },
    {
      "zip_code": "4838077",
      "prefecture": "愛知県",
      "prefecture_kana": "アイチケン",
      "prefecture_code": "23",
      "city": "江南市",
      "city_kana": "コウナンシ",
      "town": "草井町千代見",
      "town_kana": "クサイチョウチヨミ",
      "street": null,
      "office_name": null,
      "office_name_kana": null
    }
  ],
  "8081": {
    "zip_code": "4838081",
    "prefecture": "愛知県",
    "prefecture_kana": "アイチケン",
    "prefecture_code": "23",
    "city": "江南市",
    "city_kana": "コウナンシ",
    "town": "高屋町上本郷",
    "town_kana": "タカヤチョウカミホンゴウ",
    "street": null,
    "office_name": null,
    "office_name_kana": null
  },
  "8082": {
    "zip_code": "4838082",
    "prefecture": "愛知県",
    "prefecture_kana": "アイチケン",
    "prefecture_code": "23",
    "city": "江南市",
    "city_kana": "コウナンシ",
    "town": "高屋町本郷",
    "town_kana": "タカヤチョウホンゴウ",
    "street": null,
    "office_name": null,
    "office_name_kana": null
  },
  "8083": {
    "zip_code": "4838083",
    "prefecture": "愛知県",
    "prefecture_kana": "アイチケン",
    "prefecture_code": "23",
    "city": "江南市",
    "city_kana": "コウナンシ",
    "town": "高屋町中屋舗",
    "town_kana": "タカヤチョウナカヤシキ",
    "street": null,
    "office_name": null,
    "office_name_kana": null
  },
  "8084": {
    "zip_code": "4838084",
    "prefecture": "愛知県",
    "prefecture_kana": "アイチケン",
    "prefecture_code": "23",
    "city": "江南市",
    "city_kana": "コウナンシ",
    "town": "高屋町御日塚",
    "town_kana": "タカヤチョウオヒヅカ",
    "street": null,
    "office_name": null,
    "office_name_kana": null
  },
  "8085": {
    "zip_code": "4838085",
    "prefecture": "愛知県",
    "prefecture_kana": "アイチケン",
    "prefecture_code": "23",
    "city": "江南市",
    "city_kana": "コウナンシ",
    "town": "高屋町西里",
    "town_kana": "タカヤチョウニシサト",
    "street": null,
    "office_name": null,
    "office_name_kana": null
  },
  "8086": {
    "zip_code": "4838086",
    "prefecture": "愛知県",
    "prefecture_kana": "アイチケン",
    "prefecture_code": "23",
    "city": "江南市",
    "city_kana": "コウナンシ",
    "town": "高屋町大松原",
    "town_kana": "タカヤチョウオオマツバラ",
    "street": null,
    "office_name": null,
    "office_name_kana": null
  },
  "8087": {
    "zip_code": "4838087",
    "prefecture": "愛知県",
    "prefecture_kana": "アイチケン",
    "prefecture_code": "23",
    "city": "江南市",
    "city_kana": "コウナンシ",
    "town": "高屋町北上",
    "town_kana": "タカヤチョウキタガミ",
    "street": null,
    "office_name": null,
    "office_name_kana": null
  },
  "8088": {
    "zip_code": "4838088",
    "prefecture": "愛知県",
    "prefecture_kana": "アイチケン",
    "prefecture_code": "23",
    "city": "江南市",
    "city_kana": "コウナンシ",
    "town": "高屋町後山",
    "town_kana": "タカヤチョウウシロヤマ",
    "street": null,
    "office_name": null,
    "office_name_kana": null
  },
  "8101": {
    "zip_code": "4838101",
    "prefecture": "愛知県",
    "prefecture_kana": "アイチケン",
    "prefecture_code": "23",
    "city": "江南市",
    "city_kana": "コウナンシ",
    "town": "力長町観音寺",
    "town_kana": "リキナガチョウカンオンジ",
    "street": null,
    "office_name": null,
    "office_name_kana": null
  },
  "8102": {
    "zip_code": "4838102",
    "prefecture": "愛知県",
    "prefecture_kana": "アイチケン",
    "prefecture_code": "23",
    "city": "江南市",
    "city_kana": "コウナンシ",
    "town": "力長町若宮",
    "town_kana": "リキナガチョウワカミヤ",
    "street": null,
    "office_name": null,
    "office_name_kana": null
  },
  "8103": {
    "zip_code": "4838103",
    "prefecture": "愛知県",
    "prefecture_kana": "アイチケン",
    "prefecture_code": "23",
    "city": "江南市",
    "city_kana": "コウナンシ",
    "town": "力長町宮前",
    "town_kana": "リキナガチョウミヤマエ",
    "street": null,
    "office_name": null,
    "office_name_kana": null
  },
  "8104": {
    "zip_code": "4838104",
    "prefecture": "愛知県",
    "prefecture_kana": "アイチケン",
    "prefecture_code": "23",
    "city": "江南市",
    "city_kana": "コウナンシ",
    "town": "力長町大当寺",
    "town_kana": "リキナガチョウダイトウジ",
    "street": null,
    "office_name": null,
    "office_name_kana": null
  },
  "8105": {
    "zip_code": "4838105",
    "prefecture": "愛知県",
    "prefecture_kana": "アイチケン",
    "prefecture_code": "23",
    "city": "江南市",
    "city_kana": "コウナンシ",
    "town": "力長町社宮司",
    "town_kana": "リキナガチョウシャグウジ",
    "street": null,
    "office_name": null,
    "office_name_kana": null
  },
  "8106": {
    "zip_code": "4838106",
    "prefecture": "愛知県",
    "prefecture_kana": "アイチケン",
    "prefecture_code": "23",
    "city": "江南市",
    "city_kana": "コウナンシ",
    "town": "石枕町神明",
    "town_kana": "イシマクラチョウシンメイ",
    "street": null,
    "office_name": null,
    "office_name_kana": null
  },
  "8107": {
    "zip_code": "4838107",
    "prefecture": "愛知県",
    "prefecture_kana": "アイチケン",
    "prefecture_code": "23",
    "city": "江南市",
    "city_kana": "コウナンシ",
    "town": "石枕町白山",
    "town_kana": "イシマクラチョウハクサン",
    "street": null,
    "office_name": null,
    "office_name_kana": null
  },
  "8108": {
    "zip_code": "4838108",
    "prefecture": "愛知県",
    "prefecture_kana": "アイチケン",
    "prefecture_code": "23",
    "city": "江南市",
    "city_kana": "コウナンシ",
    "town": "力長町神明",
    "town_kana": "リキナガチョウシンメイ",
    "street": null,
    "office_name": null,
    "office_name_kana": null
  },
  "8109": {
    "zip_code": "4838109",
    "prefecture": "愛知県",
    "prefecture_kana": "アイチケン",
    "prefecture_code": "23",
    "city": "江南市",
    "city_kana": "コウナンシ",
    "town": "力長町神出",
    "town_kana": "リキナガチョウカミデ",
    "street": null,
    "office_name": null,
    "office_name_kana": null
  },
  "8111": {
    "zip_code": "4838111",
    "prefecture": "愛知県",
    "prefecture_kana": "アイチケン",
    "prefecture_code": "23",
    "city": "江南市",
    "city_kana": "コウナンシ",
    "town": "安良町地蔵",
    "town_kana": "ヤスラチョウジゾウ",
    "street": null,
    "office_name": null,
    "office_name_kana": null
  },
  "8112": {
    "zip_code": "4838112",
    "prefecture": "愛知県",
    "prefecture_kana": "アイチケン",
    "prefecture_code": "23",
    "city": "江南市",
    "city_kana": "コウナンシ",
    "town": "安良町池尻",
    "town_kana": "ヤスラチョウイケジリ",
    "street": null,
    "office_name": null,
    "office_name_kana": null
  },
  "8113": {
    "zip_code": "4838113",
    "prefecture": "愛知県",
    "prefecture_kana": "アイチケン",
    "prefecture_code": "23",
    "city": "江南市",
    "city_kana": "コウナンシ",
    "town": "天王町五反林",
    "town_kana": "テンノウチョウゴタンバヤシ",
    "street": null,
    "office_name": null,
    "office_name_kana": null
  },
  "8114": {
    "zip_code": "4838114",
    "prefecture": "愛知県",
    "prefecture_kana": "アイチケン",
    "prefecture_code": "23",
    "city": "江南市",
    "city_kana": "コウナンシ",
    "town": "天王町駒野",
    "town_kana": "テンノウチョウコマノ",
    "street": null,
    "office_name": null,
    "office_name_kana": null
  },
  "8115": {
    "zip_code": "4838115",
    "prefecture": "愛知県",
    "prefecture_kana": "アイチケン",
    "prefecture_code": "23",
    "city": "江南市",
    "city_kana": "コウナンシ",
    "town": "安良町宮前",
    "town_kana": "ヤスラチョウミヤマエ",
    "street": null,
    "office_name": null,
    "office_name_kana": null
  },
  "8116": {
    "zip_code": "4838116",
    "prefecture": "愛知県",
    "prefecture_kana": "アイチケン",
    "prefecture_code": "23",
    "city": "江南市",
    "city_kana": "コウナンシ",
    "town": "安良町八王子",
    "town_kana": "ヤスラチョウハチオウジ",
    "street": null,
    "office_name": null,
    "office_name_kana": null
  },
  "8117": {
    "zip_code": "4838117",
    "prefecture": "愛知県",
    "prefecture_kana": "アイチケン",
    "prefecture_code": "23",
    "city": "江南市",
    "city_kana": "コウナンシ",
    "town": "安良町上郷",
    "town_kana": "ヤスラチョウカミゴウ",
    "street": null,
    "office_name": null,
    "office_name_kana": null
  },
  "8118": {
    "zip_code": "4838118",
    "prefecture": "愛知県",
    "prefecture_kana": "アイチケン",
    "prefecture_code": "23",
    "city": "江南市",
    "city_kana": "コウナンシ",
    "town": "安良町郷中",
    "town_kana": "ヤスラチョウゴウナカ",
    "street": null,
    "office_name": null,
    "office_name_kana": null
  },
  "8121": {
    "zip_code": "4838121",
    "prefecture": "愛知県",
    "prefecture_kana": "アイチケン",
    "prefecture_code": "23",
    "city": "江南市",
    "city_kana": "コウナンシ",
    "town": "曽本町二子",
    "town_kana": "ソモトチョウフタゴ",
    "street": null,
    "office_name": null,
    "office_name_kana": null
  },
  "8122": {
    "zip_code": "4838122",
    "prefecture": "愛知県",
    "prefecture_kana": "アイチケン",
    "prefecture_code": "23",
    "city": "江南市",
    "city_kana": "コウナンシ",
    "town": "曽本町二子前",
    "town_kana": "ソモトチョウフタゴマエ",
    "street": null,
    "office_name": null,
    "office_name_kana": null
  },
  "8123": {
    "zip_code": "4838123",
    "prefecture": "愛知県",
    "prefecture_kana": "アイチケン",
    "prefecture_code": "23",
    "city": "江南市",
    "city_kana": "コウナンシ",
    "town": "曽本町幼川添",
    "town_kana": "ソモトチョウオサナガワゾエ",
    "street": null,
    "office_name": null,
    "office_name_kana": null
  },
  "8124": {
    "zip_code": "4838124",
    "prefecture": "愛知県",
    "prefecture_kana": "アイチケン",
    "prefecture_code": "23",
    "city": "江南市",
    "city_kana": "コウナンシ",
    "town": "小折本町白山",
    "town_kana": "コオリホンマチハクサン",
    "street": null,
    "office_name": null,
    "office_name_kana": null
  },
  "8125": {
    "zip_code": "4838125",
    "prefecture": "愛知県",
    "prefecture_kana": "アイチケン",
    "prefecture_code": "23",
    "city": "江南市",
    "city_kana": "コウナンシ",
    "town": "小折東町旭",
    "town_kana": "コオリヒガシマチアサヒ",
    "street": null,
    "office_name": null,
    "office_name_kana": null
  },
  "8126": {
    "zip_code": "4838126",
    "prefecture": "愛知県",
    "prefecture_kana": "アイチケン",
    "prefecture_code": "23",
    "city": "江南市",
    "city_kana": "コウナンシ",
    "town": "小折本町栄",
    "town_kana": "コオリホンマチサカエ",
    "street": null,
    "office_name": null,
    "office_name_kana": null
  },
  "8127": {
    "zip_code": "4838127",
    "prefecture": "愛知県",
    "prefecture_kana": "アイチケン",
    "prefecture_code": "23",
    "city": "江南市",
    "city_kana": "コウナンシ",
    "town": "小折本町小松原",
    "town_kana": "コオリホンマチコマツバラ",
    "street": null,
    "office_name": null,
    "office_name_kana": null
  },
  "8128": {
    "zip_code": "4838128",
    "prefecture": "愛知県",
    "prefecture_kana": "アイチケン",
    "prefecture_code": "23",
    "city": "江南市",
    "city_kana": "コウナンシ",
    "town": "小折本町柳橋",
    "town_kana": "コオリホンマチヤナギバシ",
    "street": null,
    "office_name": null,
    "office_name_kana": null
  },
  "8131": [
    {
      "zip_code": "4838131",
      "prefecture": "愛知県",
      "prefecture_kana": "アイチケン",
      "prefecture_code": "23",
      "city": "江南市",
      "city_kana": "コウナンシ",
      "town": "小折町",
      "town_kana": "コオリチョウ",
      "street": null,
      "office_name": null,
      "office_name_kana": null
    },
    {
      "zip_code": "4838131",
      "prefecture": "愛知県",
      "prefecture_kana": "アイチケン",
      "prefecture_code": "23",
      "city": "江南市",
      "city_kana": "コウナンシ",
      "town": "小折町八反畑",
      "town_kana": "コオリチョウハッタンバタ",
      "street": null,
      "office_name": null,
      "office_name_kana": null
    }
  ],
  "8132": {
    "zip_code": "4838132",
    "prefecture": "愛知県",
    "prefecture_kana": "アイチケン",
    "prefecture_code": "23",
    "city": "江南市",
    "city_kana": "コウナンシ",
    "town": "田代町南出",
    "town_kana": "タシロチョウミナミデ",
    "street": null,
    "office_name": null,
    "office_name_kana": null
  },
  "8133": {
    "zip_code": "4838133",
    "prefecture": "愛知県",
    "prefecture_kana": "アイチケン",
    "prefecture_code": "23",
    "city": "江南市",
    "city_kana": "コウナンシ",
    "town": "田代町西ノ丸",
    "town_kana": "タシロチョウニシノマル",
    "street": null,
    "office_name": null,
    "office_name_kana": null
  },
  "8134": [
    {
      "zip_code": "4838134",
      "prefecture": "愛知県",
      "prefecture_kana": "アイチケン",
      "prefecture_code": "23",
      "city": "江南市",
      "city_kana": "コウナンシ",
      "town": "小折町",
      "town_kana": "コオリチョウ",
      "street": null,
      "office_name": null,
      "office_name_kana": null
    },
    {
      "zip_code": "4838134",
      "prefecture": "愛知県",
      "prefecture_kana": "アイチケン",
      "prefecture_code": "23",
      "city": "江南市",
      "city_kana": "コウナンシ",
      "town": "小折町八竜西",
      "town_kana": "コオリチョウハチリュウニシ",
      "street": null,
      "office_name": null,
      "office_name_kana": null
    }
  ],
  "8135": {
    "zip_code": "4838135",
    "prefecture": "愛知県",
    "prefecture_kana": "アイチケン",
    "prefecture_code": "23",
    "city": "江南市",
    "city_kana": "コウナンシ",
    "town": "小郷町粟田木",
    "town_kana": "オゴウチョウアワタギ",
    "street": null,
    "office_name": null,
    "office_name_kana": null
  },
  "8136": [
    {
      "zip_code": "4838136",
      "prefecture": "愛知県",
      "prefecture_kana": "アイチケン",
      "prefecture_code": "23",
      "city": "江南市",
      "city_kana": "コウナンシ",
      "town": "小折町",
      "town_kana": "コオリチョウ",
      "street": null,
      "office_name": null,
      "office_name_kana": null
    },
    {
      "zip_code": "4838136",
      "prefecture": "愛知県",
      "prefecture_kana": "アイチケン",
      "prefecture_code": "23",
      "city": "江南市",
      "city_kana": "コウナンシ",
      "town": "小折町桜雲",
      "town_kana": "コオリチョウサクモ",
      "street": null,
      "office_name": null,
      "office_name_kana": null
    }
  ],
  "8137": [
    {
      "zip_code": "4838137",
      "prefecture": "愛知県",
      "prefecture_kana": "アイチケン",
      "prefecture_code": "23",
      "city": "江南市",
      "city_kana": "コウナンシ",
      "town": "小折町",
      "town_kana": "コオリチョウ",
      "street": null,
      "office_name": null,
      "office_name_kana": null
    },
    {
      "zip_code": "4838137",
      "prefecture": "愛知県",
      "prefecture_kana": "アイチケン",
      "prefecture_code": "23",
      "city": "江南市",
      "city_kana": "コウナンシ",
      "town": "小折町八竜",
      "town_kana": "コオリチョウハチリュウ",
      "street": null,
      "office_name": null,
      "office_name_kana": null
    }
  ],
  "8138": {
    "zip_code": "4838138",
    "prefecture": "愛知県",
    "prefecture_kana": "アイチケン",
    "prefecture_code": "23",
    "city": "江南市",
    "city_kana": "コウナンシ",
    "town": "田代町郷中",
    "town_kana": "タシロチョウゴウナカ",
    "street": null,
    "office_name": null,
    "office_name_kana": null
  },
  "8141": {
    "zip_code": "4838141",
    "prefecture": "愛知県",
    "prefecture_kana": "アイチケン",
    "prefecture_code": "23",
    "city": "江南市",
    "city_kana": "コウナンシ",
    "town": "布袋町西布",
    "town_kana": "ホテイチョウニシホ",
    "street": null,
    "office_name": null,
    "office_name_kana": null
  },
  "8142": {
    "zip_code": "4838142",
    "prefecture": "愛知県",
    "prefecture_kana": "アイチケン",
    "prefecture_code": "23",
    "city": "江南市",
    "city_kana": "コウナンシ",
    "town": "布袋下山町東",
    "town_kana": "ホテイシモヤマチョウヒガシ",
    "street": null,
    "office_name": null,
    "office_name_kana": null
  },
  "8143": {
    "zip_code": "4838143",
    "prefecture": "愛知県",
    "prefecture_kana": "アイチケン",
    "prefecture_code": "23",
    "city": "江南市",
    "city_kana": "コウナンシ",
    "town": "小郷町伍大力",
    "town_kana": "オゴウチョウゴダイリキ",
    "street": null,
    "office_name": null,
    "office_name_kana": null
  },
  "8144": {
    "zip_code": "4838144",
    "prefecture": "愛知県",
    "prefecture_kana": "アイチケン",
    "prefecture_code": "23",
    "city": "江南市",
    "city_kana": "コウナンシ",
    "town": "小郷町楽ノ山",
    "town_kana": "オゴウチョウラクノヤマ",
    "street": null,
    "office_name": null,
    "office_name_kana": null
  },
  "8145": {
    "zip_code": "4838145",
    "prefecture": "愛知県",
    "prefecture_kana": "アイチケン",
    "prefecture_code": "23",
    "city": "江南市",
    "city_kana": "コウナンシ",
    "town": "小郷町西ノ山",
    "town_kana": "オゴウチョウニシノヤマ",
    "street": null,
    "office_name": null,
    "office_name_kana": null
  },
  "8146": {
    "zip_code": "4838146",
    "prefecture": "愛知県",
    "prefecture_kana": "アイチケン",
    "prefecture_code": "23",
    "city": "江南市",
    "city_kana": "コウナンシ",
    "town": "布袋下山町西",
    "town_kana": "ホテイシモヤマチョウニシ",
    "street": null,
    "office_name": null,
    "office_name_kana": null
  },
  "8147": {
    "zip_code": "4838147",
    "prefecture": "愛知県",
    "prefecture_kana": "アイチケン",
    "prefecture_code": "23",
    "city": "江南市",
    "city_kana": "コウナンシ",
    "town": "布袋下山町北",
    "town_kana": "ホテイシモヤマチョウキタ",
    "street": null,
    "office_name": null,
    "office_name_kana": null
  },
  "8148": {
    "zip_code": "4838148",
    "prefecture": "愛知県",
    "prefecture_kana": "アイチケン",
    "prefecture_code": "23",
    "city": "江南市",
    "city_kana": "コウナンシ",
    "town": "布袋下山町南",
    "town_kana": "ホテイシモヤマチョウミナミ",
    "street": null,
    "office_name": null,
    "office_name_kana": null
  },
  "8149": {
    "zip_code": "4838149",
    "prefecture": "愛知県",
    "prefecture_kana": "アイチケン",
    "prefecture_code": "23",
    "city": "江南市",
    "city_kana": "コウナンシ",
    "town": "小郷町手保ノ木",
    "town_kana": "オゴウチョウテホノキ",
    "street": null,
    "office_name": null,
    "office_name_kana": null
  },
  "8151": {
    "zip_code": "4838151",
    "prefecture": "愛知県",
    "prefecture_kana": "アイチケン",
    "prefecture_code": "23",
    "city": "江南市",
    "city_kana": "コウナンシ",
    "town": "寄木町白山",
    "town_kana": "ヨリキチョウハクサン",
    "street": null,
    "office_name": null,
    "office_name_kana": null
  },
  "8152": {
    "zip_code": "4838152",
    "prefecture": "愛知県",
    "prefecture_kana": "アイチケン",
    "prefecture_code": "23",
    "city": "江南市",
    "city_kana": "コウナンシ",
    "town": "寄木町稲木",
    "town_kana": "ヨリキチョウイナキ",
    "street": null,
    "office_name": null,
    "office_name_kana": null
  },
  "8153": {
    "zip_code": "4838153",
    "prefecture": "愛知県",
    "prefecture_kana": "アイチケン",
    "prefecture_code": "23",
    "city": "江南市",
    "city_kana": "コウナンシ",
    "town": "北山町東",
    "town_kana": "キタヤマチョウヒガシ",
    "street": null,
    "office_name": null,
    "office_name_kana": null
  },
  "8154": {
    "zip_code": "4838154",
    "prefecture": "愛知県",
    "prefecture_kana": "アイチケン",
    "prefecture_code": "23",
    "city": "江南市",
    "city_kana": "コウナンシ",
    "town": "南山町東",
    "town_kana": "ミナミヤマチョウヒガシ",
    "street": null,
    "office_name": null,
    "office_name_kana": null
  },
  "8155": {
    "zip_code": "4838155",
    "prefecture": "愛知県",
    "prefecture_kana": "アイチケン",
    "prefecture_code": "23",
    "city": "江南市",
    "city_kana": "コウナンシ",
    "town": "南山町中",
    "town_kana": "ミナミヤマチョウナカ",
    "street": null,
    "office_name": null,
    "office_name_kana": null
  },
  "8156": {
    "zip_code": "4838156",
    "prefecture": "愛知県",
    "prefecture_kana": "アイチケン",
    "prefecture_code": "23",
    "city": "江南市",
    "city_kana": "コウナンシ",
    "town": "南山町西",
    "town_kana": "ミナミヤマチョウニシ",
    "street": null,
    "office_name": null,
    "office_name_kana": null
  },
  "8157": {
    "zip_code": "4838157",
    "prefecture": "愛知県",
    "prefecture_kana": "アイチケン",
    "prefecture_code": "23",
    "city": "江南市",
    "city_kana": "コウナンシ",
    "town": "北山町西",
    "town_kana": "キタヤマチョウニシ",
    "street": null,
    "office_name": null,
    "office_name_kana": null
  },
  "8158": {
    "zip_code": "4838158",
    "prefecture": "愛知県",
    "prefecture_kana": "アイチケン",
    "prefecture_code": "23",
    "city": "江南市",
    "city_kana": "コウナンシ",
    "town": "布袋町東",
    "town_kana": "ホテイチョウヒガシ",
    "street": null,
    "office_name": null,
    "office_name_kana": null
  },
  "8159": {
    "zip_code": "4838159",
    "prefecture": "愛知県",
    "prefecture_kana": "アイチケン",
    "prefecture_code": "23",
    "city": "江南市",
    "city_kana": "コウナンシ",
    "town": "寄木町秋葉",
    "town_kana": "ヨリキチョウアキバ",
    "street": null,
    "office_name": null,
    "office_name_kana": null
  },
  "8161": {
    "zip_code": "4838161",
    "prefecture": "愛知県",
    "prefecture_kana": "アイチケン",
    "prefecture_code": "23",
    "city": "江南市",
    "city_kana": "コウナンシ",
    "town": "尾崎町上田",
    "town_kana": "オサキチョウカミダ",
    "street": null,
    "office_name": null,
    "office_name_kana": null
  },
  "8162": {
    "zip_code": "4838162",
    "prefecture": "愛知県",
    "prefecture_kana": "アイチケン",
    "prefecture_code": "23",
    "city": "江南市",
    "city_kana": "コウナンシ",
    "town": "尾崎町河原",
    "town_kana": "オサキチョウカワハラ",
    "street": null,
    "office_name": null,
    "office_name_kana": null
  },
  "8163": {
    "zip_code": "4838163",
    "prefecture": "愛知県",
    "prefecture_kana": "アイチケン",
    "prefecture_code": "23",
    "city": "江南市",
    "city_kana": "コウナンシ",
    "town": "木賀東町新宮",
    "town_kana": "キガヒガシチョウシングウ",
    "street": null,
    "office_name": null,
    "office_name_kana": null
  },
  "8164": {
    "zip_code": "4838164",
    "prefecture": "愛知県",
    "prefecture_kana": "アイチケン",
    "prefecture_code": "23",
    "city": "江南市",
    "city_kana": "コウナンシ",
    "town": "木賀東町新塚",
    "town_kana": "キガヒガシチョウシンヅカ",
    "street": null,
    "office_name": null,
    "office_name_kana": null
  },
  "8165": {
    "zip_code": "4838165",
    "prefecture": "愛知県",
    "prefecture_kana": "アイチケン",
    "prefecture_code": "23",
    "city": "江南市",
    "city_kana": "コウナンシ",
    "town": "赤童子町福住",
    "town_kana": "アカドウジチョウフクズミ",
    "street": null,
    "office_name": null,
    "office_name_kana": null
  },
  "8166": {
    "zip_code": "4838166",
    "prefecture": "愛知県",
    "prefecture_kana": "アイチケン",
    "prefecture_code": "23",
    "city": "江南市",
    "city_kana": "コウナンシ",
    "town": "赤童子町南山",
    "town_kana": "アカドウジチョウミナミヤマ",
    "street": null,
    "office_name": null,
    "office_name_kana": null
  },
  "8167": {
    "zip_code": "4838167",
    "prefecture": "愛知県",
    "prefecture_kana": "アイチケン",
    "prefecture_code": "23",
    "city": "江南市",
    "city_kana": "コウナンシ",
    "town": "赤童子町南野",
    "town_kana": "アカドウジチョウミナミノ",
    "street": null,
    "office_name": null,
    "office_name_kana": null
  },
  "8168": {
    "zip_code": "4838168",
    "prefecture": "愛知県",
    "prefecture_kana": "アイチケン",
    "prefecture_code": "23",
    "city": "江南市",
    "city_kana": "コウナンシ",
    "town": "尾崎町屋敷",
    "town_kana": "オサキチョウヤシキ",
    "street": null,
    "office_name": null,
    "office_name_kana": null
  },
  "8171": {
    "zip_code": "4838171",
    "prefecture": "愛知県",
    "prefecture_kana": "アイチケン",
    "prefecture_code": "23",
    "city": "江南市",
    "city_kana": "コウナンシ",
    "town": "尾崎町若竹",
    "town_kana": "オサキチョウワカタケ",
    "street": null,
    "office_name": null,
    "office_name_kana": null
  },
  "8172": {
    "zip_code": "4838172",
    "prefecture": "愛知県",
    "prefecture_kana": "アイチケン",
    "prefecture_code": "23",
    "city": "江南市",
    "city_kana": "コウナンシ",
    "town": "尾崎町白山",
    "town_kana": "オサキチョウハクサン",
    "street": null,
    "office_name": null,
    "office_name_kana": null
  },
  "8173": {
    "zip_code": "4838173",
    "prefecture": "愛知県",
    "prefecture_kana": "アイチケン",
    "prefecture_code": "23",
    "city": "江南市",
    "city_kana": "コウナンシ",
    "town": "尾崎町桐野",
    "town_kana": "オサキチョウキリノ",
    "street": null,
    "office_name": null,
    "office_name_kana": null
  },
  "8174": {
    "zip_code": "4838174",
    "prefecture": "愛知県",
    "prefecture_kana": "アイチケン",
    "prefecture_code": "23",
    "city": "江南市",
    "city_kana": "コウナンシ",
    "town": "北野町小松",
    "town_kana": "キタノチョウコマツ",
    "street": null,
    "office_name": null,
    "office_name_kana": null
  },
  "8175": {
    "zip_code": "4838175",
    "prefecture": "愛知県",
    "prefecture_kana": "アイチケン",
    "prefecture_code": "23",
    "city": "江南市",
    "city_kana": "コウナンシ",
    "town": "北野町天神",
    "town_kana": "キタノチョウテンジン",
    "street": null,
    "office_name": null,
    "office_name_kana": null
  },
  "8176": [
    {
      "zip_code": "4838176",
      "prefecture": "愛知県",
      "prefecture_kana": "アイチケン",
      "prefecture_code": "23",
      "city": "江南市",
      "city_kana": "コウナンシ",
      "town": "北野町",
      "town_kana": "キタノチョウ",
      "street": null,
      "office_name": null,
      "office_name_kana": null
    },
    {
      "zip_code": "4838176",
      "prefecture": "愛知県",
      "prefecture_kana": "アイチケン",
      "prefecture_code": "23",
      "city": "江南市",
      "city_kana": "コウナンシ",
      "town": "北野町旭",
      "town_kana": "キタノチョウアサヒ",
      "street": null,
      "office_name": null,
      "office_name_kana": null
    },
    {
      "zip_code": "4838176",
      "prefecture": "愛知県",
      "prefecture_kana": "アイチケン",
      "prefecture_code": "23",
      "city": "江南市",
      "city_kana": "コウナンシ",
      "town": "北野町郷浦",
      "town_kana": "キタノチョウゴウウラ",
      "street": null,
      "office_name": null,
      "office_name_kana": null
    }
  ],
  "8177": {
    "zip_code": "4838177",
    "prefecture": "愛知県",
    "prefecture_kana": "アイチケン",
    "prefecture_code": "23",
    "city": "江南市",
    "city_kana": "コウナンシ",
    "town": "北野町川石",
    "town_kana": "キタノチョウカワイシ",
    "street": null,
    "office_name": null,
    "office_name_kana": null
  },
  "8181": {
    "zip_code": "4838181",
    "prefecture": "愛知県",
    "prefecture_kana": "アイチケン",
    "prefecture_code": "23",
    "city": "江南市",
    "city_kana": "コウナンシ",
    "town": "今市場町秋津",
    "town_kana": "イマイチバチョウアキツ",
    "street": null,
    "office_name": null,
    "office_name_kana": null
  },
  "8182": {
    "zip_code": "4838182",
    "prefecture": "愛知県",
    "prefecture_kana": "アイチケン",
    "prefecture_code": "23",
    "city": "江南市",
    "city_kana": "コウナンシ",
    "town": "今市場町宮前",
    "town_kana": "イマイチバチョウミヤマエ",
    "street": null,
    "office_name": null,
    "office_name_kana": null
  },
  "8183": {
    "zip_code": "4838183",
    "prefecture": "愛知県",
    "prefecture_kana": "アイチケン",
    "prefecture_code": "23",
    "city": "江南市",
    "city_kana": "コウナンシ",
    "town": "今市場町高根",
    "town_kana": "イマイチバチョウタカネ",
    "street": null,
    "office_name": null,
    "office_name_kana": null
  },
  "8184": {
    "zip_code": "4838184",
    "prefecture": "愛知県",
    "prefecture_kana": "アイチケン",
    "prefecture_code": "23",
    "city": "江南市",
    "city_kana": "コウナンシ",
    "town": "寄木町天道",
    "town_kana": "ヨリキチョウテンドウ",
    "street": null,
    "office_name": null,
    "office_name_kana": null
  },
  "8185": {
    "zip_code": "4838185",
    "prefecture": "愛知県",
    "prefecture_kana": "アイチケン",
    "prefecture_code": "23",
    "city": "江南市",
    "city_kana": "コウナンシ",
    "town": "大海道町神明",
    "town_kana": "オオガイドウチョウシンメイ",
    "street": null,
    "office_name": null,
    "office_name_kana": null
  },
  "8186": {
    "zip_code": "4838186",
    "prefecture": "愛知県",
    "prefecture_kana": "アイチケン",
    "prefecture_code": "23",
    "city": "江南市",
    "city_kana": "コウナンシ",
    "town": "大海道町中里",
    "town_kana": "オオガイドウチョウナカサト",
    "street": null,
    "office_name": null,
    "office_name_kana": null
  },
  "8187": {
    "zip_code": "4838187",
    "prefecture": "愛知県",
    "prefecture_kana": "アイチケン",
    "prefecture_code": "23",
    "city": "江南市",
    "city_kana": "コウナンシ",
    "town": "大海道町青木",
    "town_kana": "オオガイドウチョウアオキ",
    "street": null,
    "office_name": null,
    "office_name_kana": null
  },
  "8188": {
    "zip_code": "4838188",
    "prefecture": "愛知県",
    "prefecture_kana": "アイチケン",
    "prefecture_code": "23",
    "city": "江南市",
    "city_kana": "コウナンシ",
    "town": "今市場町美和",
    "town_kana": "イマイチバチョウミワ",
    "street": null,
    "office_name": null,
    "office_name_kana": null
  },
  "8201": {
    "zip_code": "4838201",
    "prefecture": "愛知県",
    "prefecture_kana": "アイチケン",
    "prefecture_code": "23",
    "city": "江南市",
    "city_kana": "コウナンシ",
    "town": "野白町葭場",
    "town_kana": "ノバクチョウヨシバ",
    "street": null,
    "office_name": null,
    "office_name_kana": null
  },
  "8202": {
    "zip_code": "4838202",
    "prefecture": "愛知県",
    "prefecture_kana": "アイチケン",
    "prefecture_code": "23",
    "city": "江南市",
    "city_kana": "コウナンシ",
    "town": "野白町野白",
    "town_kana": "ノバクチョウノバク",
    "street": null,
    "office_name": null,
    "office_name_kana": null
  },
  "8203": {
    "zip_code": "4838203",
    "prefecture": "愛知県",
    "prefecture_kana": "アイチケン",
    "prefecture_code": "23",
    "city": "江南市",
    "city_kana": "コウナンシ",
    "town": "野白町西千丸",
    "town_kana": "ノバクチョウニシセンマル",
    "street": null,
    "office_name": null,
    "office_name_kana": null
  },
  "8204": {
    "zip_code": "4838204",
    "prefecture": "愛知県",
    "prefecture_kana": "アイチケン",
    "prefecture_code": "23",
    "city": "江南市",
    "city_kana": "コウナンシ",
    "town": "野白町東千丸",
    "town_kana": "ノバクチョウヒガシセンマル",
    "street": null,
    "office_name": null,
    "office_name_kana": null
  },
  "8205": {
    "zip_code": "4838205",
    "prefecture": "愛知県",
    "prefecture_kana": "アイチケン",
    "prefecture_code": "23",
    "city": "江南市",
    "city_kana": "コウナンシ",
    "town": "古知野町小金",
    "town_kana": "コチノチョウコガネ",
    "street": null,
    "office_name": null,
    "office_name_kana": null
  },
  "8206": {
    "zip_code": "4838206",
    "prefecture": "愛知県",
    "prefecture_kana": "アイチケン",
    "prefecture_code": "23",
    "city": "江南市",
    "city_kana": "コウナンシ",
    "town": "古知野町千丸",
    "town_kana": "コチノチョウセンマル",
    "street": null,
    "office_name": null,
    "office_name_kana": null
  },
  "8207": {
    "zip_code": "4838207",
    "prefecture": "愛知県",
    "prefecture_kana": "アイチケン",
    "prefecture_code": "23",
    "city": "江南市",
    "city_kana": "コウナンシ",
    "town": "古知野町熱田",
    "town_kana": "コチノチョウアツタ",
    "street": null,
    "office_name": null,
    "office_name_kana": null
  },
  "8208": {
    "zip_code": "4838208",
    "prefecture": "愛知県",
    "prefecture_kana": "アイチケン",
    "prefecture_code": "23",
    "city": "江南市",
    "city_kana": "コウナンシ",
    "town": "古知野町花霞",
    "town_kana": "コチノチョウハナガスミ",
    "street": null,
    "office_name": null,
    "office_name_kana": null
  },
  "8211": {
    "zip_code": "4838211",
    "prefecture": "愛知県",
    "prefecture_kana": "アイチケン",
    "prefecture_code": "23",
    "city": "江南市",
    "city_kana": "コウナンシ",
    "town": "古知野町杉山",
    "town_kana": "コチノチョウスギヤマ",
    "street": null,
    "office_name": null,
    "office_name_kana": null
  },
  "8212": {
    "zip_code": "4838212",
    "prefecture": "愛知県",
    "prefecture_kana": "アイチケン",
    "prefecture_code": "23",
    "city": "江南市",
    "city_kana": "コウナンシ",
    "town": "古知野町瑞穂",
    "town_kana": "コチノチョウミズホ",
    "street": null,
    "office_name": null,
    "office_name_kana": null
  },
  "8213": {
    "zip_code": "4838213",
    "prefecture": "愛知県",
    "prefecture_kana": "アイチケン",
    "prefecture_code": "23",
    "city": "江南市",
    "city_kana": "コウナンシ",
    "town": "古知野町朝日",
    "town_kana": "コチノチョウアサヒ",
    "street": null,
    "office_name": null,
    "office_name_kana": null
  },
  "8214": {
    "zip_code": "4838214",
    "prefecture": "愛知県",
    "prefecture_kana": "アイチケン",
    "prefecture_code": "23",
    "city": "江南市",
    "city_kana": "コウナンシ",
    "town": "古知野町日の出",
    "town_kana": "コチノチョウヒノデ",
    "street": null,
    "office_name": null,
    "office_name_kana": null
  },
  "8215": {
    "zip_code": "4838215",
    "prefecture": "愛知県",
    "prefecture_kana": "アイチケン",
    "prefecture_code": "23",
    "city": "江南市",
    "city_kana": "コウナンシ",
    "town": "古知野町大塔",
    "town_kana": "コチノチョウダイトウ",
    "street": null,
    "office_name": null,
    "office_name_kana": null
  },
  "8216": {
    "zip_code": "4838216",
    "prefecture": "愛知県",
    "prefecture_kana": "アイチケン",
    "prefecture_code": "23",
    "city": "江南市",
    "city_kana": "コウナンシ",
    "town": "古知野町塔塚",
    "town_kana": "コチノチョウトウヅカ",
    "street": null,
    "office_name": null,
    "office_name_kana": null
  },
  "8217": {
    "zip_code": "4838217",
    "prefecture": "愛知県",
    "prefecture_kana": "アイチケン",
    "prefecture_code": "23",
    "city": "江南市",
    "city_kana": "コウナンシ",
    "town": "古知野町古渡",
    "town_kana": "コチノチョウフルワタリ",
    "street": null,
    "office_name": null,
    "office_name_kana": null
  },
  "8221": {
    "zip_code": "4838221",
    "prefecture": "愛知県",
    "prefecture_kana": "アイチケン",
    "prefecture_code": "23",
    "city": "江南市",
    "city_kana": "コウナンシ",
    "town": "赤童子町大堀",
    "town_kana": "アカドウジチョウオオボリ",
    "street": null,
    "office_name": null,
    "office_name_kana": null
  },
  "8222": {
    "zip_code": "4838222",
    "prefecture": "愛知県",
    "prefecture_kana": "アイチケン",
    "prefecture_code": "23",
    "city": "江南市",
    "city_kana": "コウナンシ",
    "town": "赤童子町藤宮",
    "town_kana": "アカドウジチョウフジミヤ",
    "street": null,
    "office_name": null,
    "office_name_kana": null
  },
  "8223": {
    "zip_code": "4838223",
    "prefecture": "愛知県",
    "prefecture_kana": "アイチケン",
    "prefecture_code": "23",
    "city": "江南市",
    "city_kana": "コウナンシ",
    "town": "赤童子町御宿",
    "town_kana": "アカドウジチョウオヤド",
    "street": null,
    "office_name": null,
    "office_name_kana": null
  },
  "8224": {
    "zip_code": "4838224",
    "prefecture": "愛知県",
    "prefecture_kana": "アイチケン",
    "prefecture_code": "23",
    "city": "江南市",
    "city_kana": "コウナンシ",
    "town": "赤童子町白山",
    "town_kana": "アカドウジチョウハクサン",
    "street": null,
    "office_name": null,
    "office_name_kana": null
  },
  "8225": {
    "zip_code": "4838225",
    "prefecture": "愛知県",
    "prefecture_kana": "アイチケン",
    "prefecture_code": "23",
    "city": "江南市",
    "city_kana": "コウナンシ",
    "town": "赤童子町栄",
    "town_kana": "アカドウジチョウサカエ",
    "street": null,
    "office_name": null,
    "office_name_kana": null
  },
  "8226": {
    "zip_code": "4838226",
    "prefecture": "愛知県",
    "prefecture_kana": "アイチケン",
    "prefecture_code": "23",
    "city": "江南市",
    "city_kana": "コウナンシ",
    "town": "赤童子町大間",
    "town_kana": "アカドウジチョウオオマ",
    "street": null,
    "office_name": null,
    "office_name_kana": null
  },
  "8227": {
    "zip_code": "4838227",
    "prefecture": "愛知県",
    "prefecture_kana": "アイチケン",
    "prefecture_code": "23",
    "city": "江南市",
    "city_kana": "コウナンシ",
    "town": "赤童子町良原",
    "town_kana": "アカドウジチョウヨシハラ",
    "street": null,
    "office_name": null,
    "office_name_kana": null
  },
  "8228": {
    "zip_code": "4838228",
    "prefecture": "愛知県",
    "prefecture_kana": "アイチケン",
    "prefecture_code": "23",
    "city": "江南市",
    "city_kana": "コウナンシ",
    "town": "赤童子町桜道",
    "town_kana": "アカドウジチョウサクラミチ",
    "street": null,
    "office_name": null,
    "office_name_kana": null
  },
  "8231": {
    "zip_code": "4838231",
    "prefecture": "愛知県",
    "prefecture_kana": "アイチケン",
    "prefecture_code": "23",
    "city": "江南市",
    "city_kana": "コウナンシ",
    "town": "木賀本郷町東",
    "town_kana": "キガホンゴウチョウヒガシ",
    "street": null,
    "office_name": null,
    "office_name_kana": null
  },
  "8232": {
    "zip_code": "4838232",
    "prefecture": "愛知県",
    "prefecture_kana": "アイチケン",
    "prefecture_code": "23",
    "city": "江南市",
    "city_kana": "コウナンシ",
    "town": "木賀本郷町緑",
    "town_kana": "キガホンゴウチョウミドリ",
    "street": null,
    "office_name": null,
    "office_name_kana": null
  },
  "8233": {
    "zip_code": "4838233",
    "prefecture": "愛知県",
    "prefecture_kana": "アイチケン",
    "prefecture_code": "23",
    "city": "江南市",
    "city_kana": "コウナンシ",
    "town": "木賀町大門",
    "town_kana": "キガチョウダイモン",
    "street": null,
    "office_name": null,
    "office_name_kana": null
  },
  "8234": {
    "zip_code": "4838234",
    "prefecture": "愛知県",
    "prefecture_kana": "アイチケン",
    "prefecture_code": "23",
    "city": "江南市",
    "city_kana": "コウナンシ",
    "town": "布袋町北",
    "town_kana": "ホテイチョウキタ",
    "street": null,
    "office_name": null,
    "office_name_kana": null
  },
  "8235": {
    "zip_code": "4838235",
    "prefecture": "愛知県",
    "prefecture_kana": "アイチケン",
    "prefecture_code": "23",
    "city": "江南市",
    "city_kana": "コウナンシ",
    "town": "布袋町中",
    "town_kana": "ホテイチョウナカ",
    "street": null,
    "office_name": null,
    "office_name_kana": null
  },
  "8236": {
    "zip_code": "4838236",
    "prefecture": "愛知県",
    "prefecture_kana": "アイチケン",
    "prefecture_code": "23",
    "city": "江南市",
    "city_kana": "コウナンシ",
    "town": "布袋町南",
    "town_kana": "ホテイチョウミナミ",
    "street": null,
    "office_name": null,
    "office_name_kana": null
  },
  "8237": {
    "zip_code": "4838237",
    "prefecture": "愛知県",
    "prefecture_kana": "アイチケン",
    "prefecture_code": "23",
    "city": "江南市",
    "city_kana": "コウナンシ",
    "town": "布袋町西",
    "town_kana": "ホテイチョウニシ",
    "street": null,
    "office_name": null,
    "office_name_kana": null
  },
  "8238": {
    "zip_code": "4838238",
    "prefecture": "愛知県",
    "prefecture_kana": "アイチケン",
    "prefecture_code": "23",
    "city": "江南市",
    "city_kana": "コウナンシ",
    "town": "木賀本郷町南",
    "town_kana": "キガホンゴウチョウミナミ",
    "street": null,
    "office_name": null,
    "office_name_kana": null
  },
  "8239": {
    "zip_code": "4838239",
    "prefecture": "愛知県",
    "prefecture_kana": "アイチケン",
    "prefecture_code": "23",
    "city": "江南市",
    "city_kana": "コウナンシ",
    "town": "木賀本郷町西",
    "town_kana": "キガホンゴウチョウニシ",
    "street": null,
    "office_name": null,
    "office_name_kana": null
  },
  "8241": {
    "zip_code": "4838241",
    "prefecture": "愛知県",
    "prefecture_kana": "アイチケン",
    "prefecture_code": "23",
    "city": "江南市",
    "city_kana": "コウナンシ",
    "town": "五明町青木",
    "town_kana": "ゴミョウチョウアオキ",
    "street": null,
    "office_name": null,
    "office_name_kana": null
  },
  "8242": {
    "zip_code": "4838242",
    "prefecture": "愛知県",
    "prefecture_kana": "アイチケン",
    "prefecture_code": "23",
    "city": "江南市",
    "city_kana": "コウナンシ",
    "town": "五明町根場",
    "town_kana": "ゴミョウチョウネバ",
    "street": null,
    "office_name": null,
    "office_name_kana": null
  },
  "8243": {
    "zip_code": "4838243",
    "prefecture": "愛知県",
    "prefecture_kana": "アイチケン",
    "prefecture_code": "23",
    "city": "江南市",
    "city_kana": "コウナンシ",
    "town": "五明町石橋",
    "town_kana": "ゴミョウチョウイシバシ",
    "street": null,
    "office_name": null,
    "office_name_kana": null
  },
  "8244": {
    "zip_code": "4838244",
    "prefecture": "愛知県",
    "prefecture_kana": "アイチケン",
    "prefecture_code": "23",
    "city": "江南市",
    "city_kana": "コウナンシ",
    "town": "五明町高砂",
    "town_kana": "ゴミョウチョウタカス",
    "street": null,
    "office_name": null,
    "office_name_kana": null
  },
  "8245": {
    "zip_code": "4838245",
    "prefecture": "愛知県",
    "prefecture_kana": "アイチケン",
    "prefecture_code": "23",
    "city": "江南市",
    "city_kana": "コウナンシ",
    "town": "五明町大膳",
    "town_kana": "ゴミョウチョウダイゼン",
    "street": null,
    "office_name": null,
    "office_name_kana": null
  },
  "8246": {
    "zip_code": "4838246",
    "prefecture": "愛知県",
    "prefecture_kana": "アイチケン",
    "prefecture_code": "23",
    "city": "江南市",
    "city_kana": "コウナンシ",
    "town": "五明町福森",
    "town_kana": "ゴミョウチョウフクモリ",
    "street": null,
    "office_name": null,
    "office_name_kana": null
  },
  "8247": {
    "zip_code": "4838247",
    "prefecture": "愛知県",
    "prefecture_kana": "アイチケン",
    "prefecture_code": "23",
    "city": "江南市",
    "city_kana": "コウナンシ",
    "town": "五明町太子堂",
    "town_kana": "ゴミョウチョウタイシドウ",
    "street": null,
    "office_name": null,
    "office_name_kana": null
  },
  "8248": {
    "zip_code": "4838248",
    "prefecture": "愛知県",
    "prefecture_kana": "アイチケン",
    "prefecture_code": "23",
    "city": "江南市",
    "city_kana": "コウナンシ",
    "town": "五明町天王",
    "town_kana": "ゴミョウチョウテンノウ",
    "street": null,
    "office_name": null,
    "office_name_kana": null
  },
  "8249": {
    "zip_code": "4838249",
    "prefecture": "愛知県",
    "prefecture_kana": "アイチケン",
    "prefecture_code": "23",
    "city": "江南市",
    "city_kana": "コウナンシ",
    "town": "五明町当光地",
    "town_kana": "ゴミョウチョウトウコウチ",
    "street": null,
    "office_name": null,
    "office_name_kana": null
  },
  "8251": {
    "zip_code": "4838251",
    "prefecture": "愛知県",
    "prefecture_kana": "アイチケン",
    "prefecture_code": "23",
    "city": "江南市",
    "city_kana": "コウナンシ",
    "town": "大間町新町",
    "town_kana": "オオマチョウシンマチ",
    "street": null,
    "office_name": null,
    "office_name_kana": null
  },
  "8252": {
    "zip_code": "4838252",
    "prefecture": "愛知県",
    "prefecture_kana": "アイチケン",
    "prefecture_code": "23",
    "city": "江南市",
    "city_kana": "コウナンシ",
    "town": "大間町南大間",
    "town_kana": "オオマチョウミナミオオマ",
    "street": null,
    "office_name": null,
    "office_name_kana": null
  },
  "8253": {
    "zip_code": "4838253",
    "prefecture": "愛知県",
    "prefecture_kana": "アイチケン",
    "prefecture_code": "23",
    "city": "江南市",
    "city_kana": "コウナンシ",
    "town": "木賀町杉",
    "town_kana": "キガチョウスギ",
    "street": null,
    "office_name": null,
    "office_name_kana": null
  },
  "8254": {
    "zip_code": "4838254",
    "prefecture": "愛知県",
    "prefecture_kana": "アイチケン",
    "prefecture_code": "23",
    "city": "江南市",
    "city_kana": "コウナンシ",
    "town": "木賀町新開",
    "town_kana": "キガチョウシンガイ",
    "street": null,
    "office_name": null,
    "office_name_kana": null
  },
  "8255": {
    "zip_code": "4838255",
    "prefecture": "愛知県",
    "prefecture_kana": "アイチケン",
    "prefecture_code": "23",
    "city": "江南市",
    "city_kana": "コウナンシ",
    "town": "木賀町定和",
    "town_kana": "キガチョウジョウワ",
    "street": null,
    "office_name": null,
    "office_name_kana": null
  },
  "8256": {
    "zip_code": "4838256",
    "prefecture": "愛知県",
    "prefecture_kana": "アイチケン",
    "prefecture_code": "23",
    "city": "江南市",
    "city_kana": "コウナンシ",
    "town": "中奈良町",
    "town_kana": "ナカナラチョウ",
    "street": null,
    "office_name": null,
    "office_name_kana": null
  },
  "8257": [
    {
      "zip_code": "4838257",
      "prefecture": "愛知県",
      "prefecture_kana": "アイチケン",
      "prefecture_code": "23",
      "city": "江南市",
      "city_kana": "コウナンシ",
      "town": "上奈良町",
      "town_kana": "カミナラチョウ",
      "street": null,
      "office_name": null,
      "office_name_kana": null
    },
    {
      "zip_code": "4838257",
      "prefecture": "愛知県",
      "prefecture_kana": "アイチケン",
      "prefecture_code": "23",
      "city": "江南市",
      "city_kana": "コウナンシ",
      "town": "上奈良町神明",
      "town_kana": "カミナラチョウシンメイ",
      "street": null,
      "office_name": null,
      "office_name_kana": null
    },
    {
      "zip_code": "4838257",
      "prefecture": "愛知県",
      "prefecture_kana": "アイチケン",
      "prefecture_code": "23",
      "city": "江南市",
      "city_kana": "コウナンシ",
      "town": "上奈良町豊里",
      "town_kana": "カミナラチョウトヨサト",
      "street": null,
      "office_name": null,
      "office_name_kana": null
    }
  ],
  "8258": [
    {
      "zip_code": "4838258",
      "prefecture": "愛知県",
      "prefecture_kana": "アイチケン",
      "prefecture_code": "23",
      "city": "江南市",
      "city_kana": "コウナンシ",
      "town": "上奈良町",
      "town_kana": "カミナラチョウ",
      "street": null,
      "office_name": null,
      "office_name_kana": null
    },
    {
      "zip_code": "4838258",
      "prefecture": "愛知県",
      "prefecture_kana": "アイチケン",
      "prefecture_code": "23",
      "city": "江南市",
      "city_kana": "コウナンシ",
      "town": "上奈良町瑞穂",
      "town_kana": "カミナラチョウミズホ",
      "street": null,
      "office_name": null,
      "office_name_kana": null
    },
    {
      "zip_code": "4838258",
      "prefecture": "愛知県",
      "prefecture_kana": "アイチケン",
      "prefecture_code": "23",
      "city": "江南市",
      "city_kana": "コウナンシ",
      "town": "上奈良町観音寺",
      "town_kana": "カミナラチョウカンノンジ",
      "street": null,
      "office_name": null,
      "office_name_kana": null
    },
    {
      "zip_code": "4838258",
      "prefecture": "愛知県",
      "prefecture_kana": "アイチケン",
      "prefecture_code": "23",
      "city": "江南市",
      "city_kana": "コウナンシ",
      "town": "上奈良町久保",
      "town_kana": "カミナラチョウクボ",
      "street": null,
      "office_name": null,
      "office_name_kana": null
    },
    {
      "zip_code": "4838258",
      "prefecture": "愛知県",
      "prefecture_kana": "アイチケン",
      "prefecture_code": "23",
      "city": "江南市",
      "city_kana": "コウナンシ",
      "town": "上奈良町郷",
      "town_kana": "カミナラチョウゴウ",
      "street": null,
      "office_name": null,
      "office_name_kana": null
    }
  ],
  "8259": [
    {
      "zip_code": "4838259",
      "prefecture": "愛知県",
      "prefecture_kana": "アイチケン",
      "prefecture_code": "23",
      "city": "江南市",
      "city_kana": "コウナンシ",
      "town": "上奈良町",
      "town_kana": "カミナラチョウ",
      "street": null,
      "office_name": null,
      "office_name_kana": null
    },
    {
      "zip_code": "4838259",
      "prefecture": "愛知県",
      "prefecture_kana": "アイチケン",
      "prefecture_code": "23",
      "city": "江南市",
      "city_kana": "コウナンシ",
      "town": "上奈良町栄",
      "town_kana": "カミナラチョウサカエ",
      "street": null,
      "office_name": null,
      "office_name_kana": null
    },
    {
      "zip_code": "4838259",
      "prefecture": "愛知県",
      "prefecture_kana": "アイチケン",
      "prefecture_code": "23",
      "city": "江南市",
      "city_kana": "コウナンシ",
      "town": "上奈良町旭",
      "town_kana": "カミナラチョウアサヒ",
      "street": null,
      "office_name": null,
      "office_name_kana": null
    },
    {
      "zip_code": "4838259",
      "prefecture": "愛知県",
      "prefecture_kana": "アイチケン",
      "prefecture_code": "23",
      "city": "江南市",
      "city_kana": "コウナンシ",
      "town": "上奈良町錦",
      "town_kana": "カミナラチョウニシキ",
      "street": null,
      "office_name": null,
      "office_name_kana": null
    },
    {
      "zip_code": "4838259",
      "prefecture": "愛知県",
      "prefecture_kana": "アイチケン",
      "prefecture_code": "23",
      "city": "江南市",
      "city_kana": "コウナンシ",
      "town": "上奈良町天王",
      "town_kana": "カミナラチョウテンノウ",
      "street": null,
      "office_name": null,
      "office_name_kana": null
    },
    {
      "zip_code": "4838259",
      "prefecture": "愛知県",
      "prefecture_kana": "アイチケン",
      "prefecture_code": "23",
      "city": "江南市",
      "city_kana": "コウナンシ",
      "town": "上奈良町緑",
      "town_kana": "カミナラチョウミドリ",
      "street": null,
      "office_name": null,
      "office_name_kana": null
    }
  ],
  "8262": {
    "zip_code": "4838262",
    "prefecture": "愛知県",
    "prefecture_kana": "アイチケン",
    "prefecture_code": "23",
    "city": "江南市",
    "city_kana": "コウナンシ",
    "town": "島宮町吉原",
    "town_kana": "シマミヤチョウヨシハラ",
    "street": null,
    "office_name": null,
    "office_name_kana": null
  },
  "8263": {
    "zip_code": "4838263",
    "prefecture": "愛知県",
    "prefecture_kana": "アイチケン",
    "prefecture_code": "23",
    "city": "江南市",
    "city_kana": "コウナンシ",
    "town": "島宮町桐野",
    "town_kana": "シマミヤチョウキリノ",
    "street": null,
    "office_name": null,
    "office_name_kana": null
  },
  "8264": {
    "zip_code": "4838264",
    "prefecture": "愛知県",
    "prefecture_kana": "アイチケン",
    "prefecture_code": "23",
    "city": "江南市",
    "city_kana": "コウナンシ",
    "town": "島宮町城",
    "town_kana": "シマミヤチョウシロ",
    "street": null,
    "office_name": null,
    "office_name_kana": null
  },
  "8265": {
    "zip_code": "4838265",
    "prefecture": "愛知県",
    "prefecture_kana": "アイチケン",
    "prefecture_code": "23",
    "city": "江南市",
    "city_kana": "コウナンシ",
    "town": "島宮町四日市場",
    "town_kana": "シマミヤチョウヨッカイチバ",
    "street": null,
    "office_name": null,
    "office_name_kana": null
  },
  "8266": {
    "zip_code": "4838266",
    "prefecture": "愛知県",
    "prefecture_kana": "アイチケン",
    "prefecture_code": "23",
    "city": "江南市",
    "city_kana": "コウナンシ",
    "town": "島宮町西之宮",
    "town_kana": "シマミヤチョウニシノミヤ",
    "street": null,
    "office_name": null,
    "office_name_kana": null
  },
  "8267": {
    "zip_code": "4838267",
    "prefecture": "愛知県",
    "prefecture_kana": "アイチケン",
    "prefecture_code": "23",
    "city": "江南市",
    "city_kana": "コウナンシ",
    "town": "島宮町郷内",
    "town_kana": "シマミヤチョウゴウナイ",
    "street": null,
    "office_name": null,
    "office_name_kana": null
  },
  "8268": {
    "zip_code": "4838268",
    "prefecture": "愛知県",
    "prefecture_kana": "アイチケン",
    "prefecture_code": "23",
    "city": "江南市",
    "city_kana": "コウナンシ",
    "town": "島宮町水堀",
    "town_kana": "シマミヤチョウミズホリ",
    "street": null,
    "office_name": null,
    "office_name_kana": null
  },
  "8269": {
    "zip_code": "4838269",
    "prefecture": "愛知県",
    "prefecture_kana": "アイチケン",
    "prefecture_code": "23",
    "city": "江南市",
    "city_kana": "コウナンシ",
    "town": "島宮町巡見",
    "town_kana": "シマミヤチョウジュンケン",
    "street": null,
    "office_name": null,
    "office_name_kana": null
  },
  "8271": {
    "zip_code": "4838271",
    "prefecture": "愛知県",
    "prefecture_kana": "アイチケン",
    "prefecture_code": "23",
    "city": "江南市",
    "city_kana": "コウナンシ",
    "town": "古知野町桃源",
    "town_kana": "コチノチョウトウゲン",
    "street": null,
    "office_name": null,
    "office_name_kana": null
  },
  "8272": {
    "zip_code": "4838272",
    "prefecture": "愛知県",
    "prefecture_kana": "アイチケン",
    "prefecture_code": "23",
    "city": "江南市",
    "city_kana": "コウナンシ",
    "town": "古知野町北屋敷",
    "town_kana": "コチノチョウキタヤシキ",
    "street": null,
    "office_name": null,
    "office_name_kana": null
  },
  "8273": {
    "zip_code": "4838273",
    "prefecture": "愛知県",
    "prefecture_kana": "アイチケン",
    "prefecture_code": "23",
    "city": "江南市",
    "city_kana": "コウナンシ",
    "town": "古知野町本郷",
    "town_kana": "コチノチョウホンゴウ",
    "street": null,
    "office_name": null,
    "office_name_kana": null
  },
  "8274": {
    "zip_code": "4838274",
    "prefecture": "愛知県",
    "prefecture_kana": "アイチケン",
    "prefecture_code": "23",
    "city": "江南市",
    "city_kana": "コウナンシ",
    "town": "古知野町広見",
    "town_kana": "コチノチョウヒロミ",
    "street": null,
    "office_name": null,
    "office_name_kana": null
  },
  "8275": {
    "zip_code": "4838275",
    "prefecture": "愛知県",
    "prefecture_kana": "アイチケン",
    "prefecture_code": "23",
    "city": "江南市",
    "city_kana": "コウナンシ",
    "town": "古知野町久保見",
    "town_kana": "コチノチョウクボミ",
    "street": null,
    "office_name": null,
    "office_name_kana": null
  },
  "8276": {
    "zip_code": "4838276",
    "prefecture": "愛知県",
    "prefecture_kana": "アイチケン",
    "prefecture_code": "23",
    "city": "江南市",
    "city_kana": "コウナンシ",
    "town": "古知野町宮前",
    "town_kana": "コチノチョウミヤマエ",
    "street": null,
    "office_name": null,
    "office_name_kana": null
  },
  "8277": {
    "zip_code": "4838277",
    "prefecture": "愛知県",
    "prefecture_kana": "アイチケン",
    "prefecture_code": "23",
    "city": "江南市",
    "city_kana": "コウナンシ",
    "town": "古知野町福寿",
    "town_kana": "コチノチョウフクジュ",
    "street": null,
    "office_name": null,
    "office_name_kana": null
  },
  "8278": {
    "zip_code": "4838278",
    "prefecture": "愛知県",
    "prefecture_kana": "アイチケン",
    "prefecture_code": "23",
    "city": "江南市",
    "city_kana": "コウナンシ",
    "town": "古知野町牧森",
    "town_kana": "コチノチョウマキモリ",
    "street": null,
    "office_name": null,
    "office_name_kana": null
  },
  "8279": {
    "zip_code": "4838279",
    "prefecture": "愛知県",
    "prefecture_kana": "アイチケン",
    "prefecture_code": "23",
    "city": "江南市",
    "city_kana": "コウナンシ",
    "town": "古知野町宮裏",
    "town_kana": "コチノチョウミヤウラ",
    "street": null,
    "office_name": null,
    "office_name_kana": null
  },
  "8301": {
    "zip_code": "4838301",
    "prefecture": "愛知県",
    "prefecture_kana": "アイチケン",
    "prefecture_code": "23",
    "city": "江南市",
    "city_kana": "コウナンシ",
    "town": "宮田神明町緑",
    "town_kana": "ミヤタシンメイチョウミドリ",
    "street": null,
    "office_name": null,
    "office_name_kana": null
  },
  "8302": {
    "zip_code": "4838302",
    "prefecture": "愛知県",
    "prefecture_kana": "アイチケン",
    "prefecture_code": "23",
    "city": "江南市",
    "city_kana": "コウナンシ",
    "town": "宮田神明町天王",
    "town_kana": "ミヤタシンメイチョウテンノウ",
    "street": null,
    "office_name": null,
    "office_name_kana": null
  },
  "8303": {
    "zip_code": "4838303",
    "prefecture": "愛知県",
    "prefecture_kana": "アイチケン",
    "prefecture_code": "23",
    "city": "江南市",
    "city_kana": "コウナンシ",
    "town": "宮田神明町旭",
    "town_kana": "ミヤタシンメイチョウアサヒ",
    "street": null,
    "office_name": null,
    "office_name_kana": null
  },
  "8304": {
    "zip_code": "4838304",
    "prefecture": "愛知県",
    "prefecture_kana": "アイチケン",
    "prefecture_code": "23",
    "city": "江南市",
    "city_kana": "コウナンシ",
    "town": "宮田神明町栄",
    "town_kana": "ミヤタシンメイチョウサカエ",
    "street": null,
    "office_name": null,
    "office_name_kana": null
  },
  "8305": {
    "zip_code": "4838305",
    "prefecture": "愛知県",
    "prefecture_kana": "アイチケン",
    "prefecture_code": "23",
    "city": "江南市",
    "city_kana": "コウナンシ",
    "town": "宮田町生原",
    "town_kana": "ミヤタチョウハイバラ",
    "street": null,
    "office_name": null,
    "office_name_kana": null
  },
  "8306": {
    "zip_code": "4838306",
    "prefecture": "愛知県",
    "prefecture_kana": "アイチケン",
    "prefecture_code": "23",
    "city": "江南市",
    "city_kana": "コウナンシ",
    "town": "宮田町中島",
    "town_kana": "ミヤタチョウナカジマ",
    "street": null,
    "office_name": null,
    "office_name_kana": null
  },
  "8307": {
    "zip_code": "4838307",
    "prefecture": "愛知県",
    "prefecture_kana": "アイチケン",
    "prefecture_code": "23",
    "city": "江南市",
    "city_kana": "コウナンシ",
    "town": "宮田町新田",
    "town_kana": "ミヤタチョウシンデン",
    "street": null,
    "office_name": null,
    "office_name_kana": null
  },
  "8308": {
    "zip_code": "4838308",
    "prefecture": "愛知県",
    "prefecture_kana": "アイチケン",
    "prefecture_code": "23",
    "city": "江南市",
    "city_kana": "コウナンシ",
    "town": "宮田神明町春日",
    "town_kana": "ミヤタシンメイチョウカスガ",
    "street": null,
    "office_name": null,
    "office_name_kana": null
  },
  "8311": {
    "zip_code": "4838311",
    "prefecture": "愛知県",
    "prefecture_kana": "アイチケン",
    "prefecture_code": "23",
    "city": "江南市",
    "city_kana": "コウナンシ",
    "town": "村久野町九郷",
    "town_kana": "ムラクノチョウクゴウ",
    "street": null,
    "office_name": null,
    "office_name_kana": null
  },
  "8312": {
    "zip_code": "4838312",
    "prefecture": "愛知県",
    "prefecture_kana": "アイチケン",
    "prefecture_code": "23",
    "city": "江南市",
    "city_kana": "コウナンシ",
    "town": "村久野町金森",
    "town_kana": "ムラクノチョウカナモリ",
    "street": null,
    "office_name": null,
    "office_name_kana": null
  },
  "8313": {
    "zip_code": "4838313",
    "prefecture": "愛知県",
    "prefecture_kana": "アイチケン",
    "prefecture_code": "23",
    "city": "江南市",
    "city_kana": "コウナンシ",
    "town": "村久野町中郷",
    "town_kana": "ムラクノチョウナカゴウ",
    "street": null,
    "office_name": null,
    "office_name_kana": null
  },
  "8314": {
    "zip_code": "4838314",
    "prefecture": "愛知県",
    "prefecture_kana": "アイチケン",
    "prefecture_code": "23",
    "city": "江南市",
    "city_kana": "コウナンシ",
    "town": "村久野町寺町",
    "town_kana": "ムラクノチョウテラマチ",
    "street": null,
    "office_name": null,
    "office_name_kana": null
  },
  "8315": {
    "zip_code": "4838315",
    "prefecture": "愛知県",
    "prefecture_kana": "アイチケン",
    "prefecture_code": "23",
    "city": "江南市",
    "city_kana": "コウナンシ",
    "town": "村久野町大門",
    "town_kana": "ムラクノチョウダイモン",
    "street": null,
    "office_name": null,
    "office_name_kana": null
  },
  "8316": {
    "zip_code": "4838316",
    "prefecture": "愛知県",
    "prefecture_kana": "アイチケン",
    "prefecture_code": "23",
    "city": "江南市",
    "city_kana": "コウナンシ",
    "town": "村久野町河戸",
    "town_kana": "ムラクノチョウカワド",
    "street": null,
    "office_name": null,
    "office_name_kana": null
  },
  "8317": {
    "zip_code": "4838317",
    "prefecture": "愛知県",
    "prefecture_kana": "アイチケン",
    "prefecture_code": "23",
    "city": "江南市",
    "city_kana": "コウナンシ",
    "town": "村久野町藤里",
    "town_kana": "ムラクノチョウフジサト",
    "street": null,
    "office_name": null,
    "office_name_kana": null
  },
  "8318": {
    "zip_code": "4838318",
    "prefecture": "愛知県",
    "prefecture_kana": "アイチケン",
    "prefecture_code": "23",
    "city": "江南市",
    "city_kana": "コウナンシ",
    "town": "村久野町宮出",
    "town_kana": "ムラクノチョウミヤデ",
    "street": null,
    "office_name": null,
    "office_name_kana": null
  },
  "8319": {
    "zip_code": "4838319",
    "prefecture": "愛知県",
    "prefecture_kana": "アイチケン",
    "prefecture_code": "23",
    "city": "江南市",
    "city_kana": "コウナンシ",
    "town": "村久野町寺東",
    "town_kana": "ムラクノチョウテラヒガシ",
    "street": null,
    "office_name": null,
    "office_name_kana": null
  },
  "8321": {
    "zip_code": "4838321",
    "prefecture": "愛知県",
    "prefecture_kana": "アイチケン",
    "prefecture_code": "23",
    "city": "江南市",
    "city_kana": "コウナンシ",
    "town": "村久野町瀬頭",
    "town_kana": "ムラクノチョウセガシラ",
    "street": null,
    "office_name": null,
    "office_name_kana": null
  },
  "8322": {
    "zip_code": "4838322",
    "prefecture": "愛知県",
    "prefecture_kana": "アイチケン",
    "prefecture_code": "23",
    "city": "江南市",
    "city_kana": "コウナンシ",
    "town": "村久野町鳥附",
    "town_kana": "ムラクノチョウトリツキ",
    "street": null,
    "office_name": null,
    "office_name_kana": null
  },
  "8323": {
    "zip_code": "4838323",
    "prefecture": "愛知県",
    "prefecture_kana": "アイチケン",
    "prefecture_code": "23",
    "city": "江南市",
    "city_kana": "コウナンシ",
    "town": "村久野町門弟山",
    "town_kana": "ムラクノチョウモンテイヤマ",
    "street": null,
    "office_name": null,
    "office_name_kana": null
  },
  "8324": {
    "zip_code": "4838324",
    "prefecture": "愛知県",
    "prefecture_kana": "アイチケン",
    "prefecture_code": "23",
    "city": "江南市",
    "city_kana": "コウナンシ",
    "town": "村久野町南大門",
    "town_kana": "ムラクノチョウミナミダイモン",
    "street": null,
    "office_name": null,
    "office_name_kana": null
  },
  "8325": {
    "zip_code": "4838325",
    "prefecture": "愛知県",
    "prefecture_kana": "アイチケン",
    "prefecture_code": "23",
    "city": "江南市",
    "city_kana": "コウナンシ",
    "town": "村久野町冨士塚",
    "town_kana": "ムラクノチョウフジヅカ",
    "street": null,
    "office_name": null,
    "office_name_kana": null
  },
  "8326": {
    "zip_code": "4838326",
    "prefecture": "愛知県",
    "prefecture_kana": "アイチケン",
    "prefecture_code": "23",
    "city": "江南市",
    "city_kana": "コウナンシ",
    "town": "村久野町仲原",
    "town_kana": "ムラクノチョウナカハラ",
    "street": null,
    "office_name": null,
    "office_name_kana": null
  },
  "8327": {
    "zip_code": "4838327",
    "prefecture": "愛知県",
    "prefecture_kana": "アイチケン",
    "prefecture_code": "23",
    "city": "江南市",
    "city_kana": "コウナンシ",
    "town": "村久野町平野",
    "town_kana": "ムラクノチョウヒラノ",
    "street": null,
    "office_name": null,
    "office_name_kana": null
  },
  "8328": {
    "zip_code": "4838328",
    "prefecture": "愛知県",
    "prefecture_kana": "アイチケン",
    "prefecture_code": "23",
    "city": "江南市",
    "city_kana": "コウナンシ",
    "town": "村久野町鈴道",
    "town_kana": "ムラクノチョウスズミチ",
    "street": null,
    "office_name": null,
    "office_name_kana": null
  },
  "8331": {
    "zip_code": "4838331",
    "prefecture": "愛知県",
    "prefecture_kana": "アイチケン",
    "prefecture_code": "23",
    "city": "江南市",
    "city_kana": "コウナンシ",
    "town": "古知野町高瀬",
    "town_kana": "コチノチョウタカセ",
    "street": null,
    "office_name": null,
    "office_name_kana": null
  },
  "8332": {
    "zip_code": "4838332",
    "prefecture": "愛知県",
    "prefecture_kana": "アイチケン",
    "prefecture_code": "23",
    "city": "江南市",
    "city_kana": "コウナンシ",
    "town": "飛高町門野",
    "town_kana": "ヒダカチョウカドノ",
    "street": null,
    "office_name": null,
    "office_name_kana": null
  },
  "8333": {
    "zip_code": "4838333",
    "prefecture": "愛知県",
    "prefecture_kana": "アイチケン",
    "prefecture_code": "23",
    "city": "江南市",
    "city_kana": "コウナンシ",
    "town": "飛高町泉",
    "town_kana": "ヒダカチョウイズミ",
    "street": null,
    "office_name": null,
    "office_name_kana": null
  },
  "8334": {
    "zip_code": "4838334",
    "prefecture": "愛知県",
    "prefecture_kana": "アイチケン",
    "prefecture_code": "23",
    "city": "江南市",
    "city_kana": "コウナンシ",
    "town": "前飛保町緑ケ丘",
    "town_kana": "マエヒボチョウミドリガオカ",
    "street": null,
    "office_name": null,
    "office_name_kana": null
  },
  "8335": {
    "zip_code": "4838335",
    "prefecture": "愛知県",
    "prefecture_kana": "アイチケン",
    "prefecture_code": "23",
    "city": "江南市",
    "city_kana": "コウナンシ",
    "town": "前飛保町寺前",
    "town_kana": "マエヒボチョウテラマエ",
    "street": null,
    "office_name": null,
    "office_name_kana": null
  },
  "8336": {
    "zip_code": "4838336",
    "prefecture": "愛知県",
    "prefecture_kana": "アイチケン",
    "prefecture_code": "23",
    "city": "江南市",
    "city_kana": "コウナンシ",
    "town": "前飛保町寺町",
    "town_kana": "マエヒボチョウテラマチ",
    "street": null,
    "office_name": null,
    "office_name_kana": null
  },
  "8337": {
    "zip_code": "4838337",
    "prefecture": "愛知県",
    "prefecture_kana": "アイチケン",
    "prefecture_code": "23",
    "city": "江南市",
    "city_kana": "コウナンシ",
    "town": "藤ケ丘",
    "town_kana": "フジガオカ",
    "street": null,
    "office_name": null,
    "office_name_kana": null
  },
  "8338": {
    "zip_code": "4838338",
    "prefecture": "愛知県",
    "prefecture_kana": "アイチケン",
    "prefecture_code": "23",
    "city": "江南市",
    "city_kana": "コウナンシ",
    "town": "前飛保町藤町",
    "town_kana": "マエヒボチョウフジマチ",
    "street": null,
    "office_name": null,
    "office_name_kana": null
  },
  "8339": [
    {
      "zip_code": "4838339",
      "prefecture": "愛知県",
      "prefecture_kana": "アイチケン",
      "prefecture_code": "23",
      "city": "江南市",
      "city_kana": "コウナンシ",
      "town": "飛高町",
      "town_kana": "ヒダカチョウ",
      "street": null,
      "office_name": null,
      "office_name_kana": null
    },
    {
      "zip_code": "4838339",
      "prefecture": "愛知県",
      "prefecture_kana": "アイチケン",
      "prefecture_code": "23",
      "city": "江南市",
      "city_kana": "コウナンシ",
      "town": "飛高町夫見添",
      "town_kana": "ヒダカチョウフミゾエ",
      "street": null,
      "office_name": null,
      "office_name_kana": null
    },
    {
      "zip_code": "4838339",
      "prefecture": "愛知県",
      "prefecture_kana": "アイチケン",
      "prefecture_code": "23",
      "city": "江南市",
      "city_kana": "コウナンシ",
      "town": "飛高町栄",
      "town_kana": "ヒダカチョウサカエ",
      "street": null,
      "office_name": null,
      "office_name_kana": null
    }
  ],
  "8341": {
    "zip_code": "4838341",
    "prefecture": "愛知県",
    "prefecture_kana": "アイチケン",
    "prefecture_code": "23",
    "city": "江南市",
    "city_kana": "コウナンシ",
    "town": "前飛保町栄",
    "town_kana": "マエヒボチョウサカエ",
    "street": null,
    "office_name": null,
    "office_name_kana": null
  },
  "8342": {
    "zip_code": "4838342",
    "prefecture": "愛知県",
    "prefecture_kana": "アイチケン",
    "prefecture_code": "23",
    "city": "江南市",
    "city_kana": "コウナンシ",
    "town": "松竹町上野",
    "town_kana": "マツタケチョウカミノ",
    "street": null,
    "office_name": null,
    "office_name_kana": null
  },
  "8343": {
    "zip_code": "4838343",
    "prefecture": "愛知県",
    "prefecture_kana": "アイチケン",
    "prefecture_code": "23",
    "city": "江南市",
    "city_kana": "コウナンシ",
    "town": "松竹町米野",
    "town_kana": "マツタケチョウコメノ",
    "street": null,
    "office_name": null,
    "office_name_kana": null
  },
  "8344": {
    "zip_code": "4838344",
    "prefecture": "愛知県",
    "prefecture_kana": "アイチケン",
    "prefecture_code": "23",
    "city": "江南市",
    "city_kana": "コウナンシ",
    "town": "後飛保町東高瀬",
    "town_kana": "ウシロヒボチョウヒガシタカセ",
    "street": null,
    "office_name": null,
    "office_name_kana": null
  },
  "8345": {
    "zip_code": "4838345",
    "prefecture": "愛知県",
    "prefecture_kana": "アイチケン",
    "prefecture_code": "23",
    "city": "江南市",
    "city_kana": "コウナンシ",
    "town": "後飛保町高瀬",
    "town_kana": "ウシロヒボチョウタカセ",
    "street": null,
    "office_name": null,
    "office_name_kana": null
  },
  "8346": {
    "zip_code": "4838346",
    "prefecture": "愛知県",
    "prefecture_kana": "アイチケン",
    "prefecture_code": "23",
    "city": "江南市",
    "city_kana": "コウナンシ",
    "town": "後飛保町平野",
    "town_kana": "ウシロヒボチョウヒラノ",
    "street": null,
    "office_name": null,
    "office_name_kana": null
  },
  "8347": {
    "zip_code": "4838347",
    "prefecture": "愛知県",
    "prefecture_kana": "アイチケン",
    "prefecture_code": "23",
    "city": "江南市",
    "city_kana": "コウナンシ",
    "town": "後飛保町神明野",
    "town_kana": "ウシロヒボチョウシンメイノ",
    "street": null,
    "office_name": null,
    "office_name_kana": null
  },
  "8348": {
    "zip_code": "4838348",
    "prefecture": "愛知県",
    "prefecture_kana": "アイチケン",
    "prefecture_code": "23",
    "city": "江南市",
    "city_kana": "コウナンシ",
    "town": "前飛保町河原",
    "town_kana": "マエヒボチョウカワハラ",
    "street": null,
    "office_name": null,
    "office_name_kana": null
  },
  "8349": {
    "zip_code": "4838349",
    "prefecture": "愛知県",
    "prefecture_kana": "アイチケン",
    "prefecture_code": "23",
    "city": "江南市",
    "city_kana": "コウナンシ",
    "town": "前飛保町西町",
    "town_kana": "マエヒボチョウニシマチ",
    "street": null,
    "office_name": null,
    "office_name_kana": null
  },
  "8351": {
    "zip_code": "4838351",
    "prefecture": "愛知県",
    "prefecture_kana": "アイチケン",
    "prefecture_code": "23",
    "city": "江南市",
    "city_kana": "コウナンシ",
    "town": "松竹町切野",
    "town_kana": "マツタケチョウキリノ",
    "street": null,
    "office_name": null,
    "office_name_kana": null
  },
  "8352": {
    "zip_code": "4838352",
    "prefecture": "愛知県",
    "prefecture_kana": "アイチケン",
    "prefecture_code": "23",
    "city": "江南市",
    "city_kana": "コウナンシ",
    "town": "松竹町高山",
    "town_kana": "マツタケチョウタカヤマ",
    "street": null,
    "office_name": null,
    "office_name_kana": null
  },
  "8353": {
    "zip_code": "4838353",
    "prefecture": "愛知県",
    "prefecture_kana": "アイチケン",
    "prefecture_code": "23",
    "city": "江南市",
    "city_kana": "コウナンシ",
    "town": "松竹町元屋敷",
    "town_kana": "マツタケチョウモトヤシキ",
    "street": null,
    "office_name": null,
    "office_name_kana": null
  },
  "8354": {
    "zip_code": "4838354",
    "prefecture": "愛知県",
    "prefecture_kana": "アイチケン",
    "prefecture_code": "23",
    "city": "江南市",
    "city_kana": "コウナンシ",
    "town": "松竹町八幡",
    "town_kana": "マツタケチョウハチマン",
    "street": null,
    "office_name": null,
    "office_name_kana": null
  },
  "8355": {
    "zip_code": "4838355",
    "prefecture": "愛知県",
    "prefecture_kana": "アイチケン",
    "prefecture_code": "23",
    "city": "江南市",
    "city_kana": "コウナンシ",
    "town": "松竹町西瀬古",
    "town_kana": "マツタケチョウニシセコ",
    "street": null,
    "office_name": null,
    "office_name_kana": null
  },
  "8356": {
    "zip_code": "4838356",
    "prefecture": "愛知県",
    "prefecture_kana": "アイチケン",
    "prefecture_code": "23",
    "city": "江南市",
    "city_kana": "コウナンシ",
    "town": "松竹町西松竹",
    "town_kana": "マツタケチョウニシマツタケ",
    "street": null,
    "office_name": null,
    "office_name_kana": null
  },
  "8357": {
    "zip_code": "4838357",
    "prefecture": "愛知県",
    "prefecture_kana": "アイチケン",
    "prefecture_code": "23",
    "city": "江南市",
    "city_kana": "コウナンシ",
    "town": "松竹町向島",
    "town_kana": "マツタケチョウムカイジマ",
    "street": null,
    "office_name": null,
    "office_name_kana": null
  },
  "8358": {
    "zip_code": "4838358",
    "prefecture": "愛知県",
    "prefecture_kana": "アイチケン",
    "prefecture_code": "23",
    "city": "江南市",
    "city_kana": "コウナンシ",
    "town": "松竹町郷浦",
    "town_kana": "マツタケチョウゴウウラ",
    "street": null,
    "office_name": null,
    "office_name_kana": null
  },
  "8359": {
    "zip_code": "4838359",
    "prefecture": "愛知県",
    "prefecture_kana": "アイチケン",
    "prefecture_code": "23",
    "city": "江南市",
    "city_kana": "コウナンシ",
    "town": "松竹町東瀬古",
    "town_kana": "マツタケチョウヒガシセコ",
    "street": null,
    "office_name": null,
    "office_name_kana": null
  },
  "8361": {
    "zip_code": "4838361",
    "prefecture": "愛知県",
    "prefecture_kana": "アイチケン",
    "prefecture_code": "23",
    "city": "江南市",
    "city_kana": "コウナンシ",
    "town": "宮田町平和",
    "town_kana": "ミヤタチョウヘイワ",
    "street": null,
    "office_name": null,
    "office_name_kana": null
  },
  "8362": {
    "zip_code": "4838362",
    "prefecture": "愛知県",
    "prefecture_kana": "アイチケン",
    "prefecture_code": "23",
    "city": "江南市",
    "city_kana": "コウナンシ",
    "town": "河野町小脇",
    "town_kana": "コウノチョウコワキ",
    "street": null,
    "office_name": null,
    "office_name_kana": null
  },
  "8363": {
    "zip_code": "4838363",
    "prefecture": "愛知県",
    "prefecture_kana": "アイチケン",
    "prefecture_code": "23",
    "city": "江南市",
    "city_kana": "コウナンシ",
    "town": "河野町五十間",
    "town_kana": "コウノチョウゴジッケン",
    "street": null,
    "office_name": null,
    "office_name_kana": null
  },
  "8364": {
    "zip_code": "4838364",
    "prefecture": "愛知県",
    "prefecture_kana": "アイチケン",
    "prefecture_code": "23",
    "city": "江南市",
    "city_kana": "コウナンシ",
    "town": "河野町川西",
    "town_kana": "コウノチョウカワニシ",
    "street": null,
    "office_name": null,
    "office_name_kana": null
  },
  "8365": {
    "zip_code": "4838365",
    "prefecture": "愛知県",
    "prefecture_kana": "アイチケン",
    "prefecture_code": "23",
    "city": "江南市",
    "city_kana": "コウナンシ",
    "town": "河野町一色",
    "town_kana": "コウノチョウイッシキ",
    "street": null,
    "office_name": null,
    "office_name_kana": null
  },
  "8366": {
    "zip_code": "4838366",
    "prefecture": "愛知県",
    "prefecture_kana": "アイチケン",
    "prefecture_code": "23",
    "city": "江南市",
    "city_kana": "コウナンシ",
    "town": "河野町管竹",
    "town_kana": "コウノチョウカンチク",
    "street": null,
    "office_name": null,
    "office_name_kana": null
  },
  "8367": {
    "zip_code": "4838367",
    "prefecture": "愛知県",
    "prefecture_kana": "アイチケン",
    "prefecture_code": "23",
    "city": "江南市",
    "city_kana": "コウナンシ",
    "town": "宮田町南野",
    "town_kana": "ミヤタチョウミナミノ",
    "street": null,
    "office_name": null,
    "office_name_kana": null
  },
  "8368": {
    "zip_code": "4838368",
    "prefecture": "愛知県",
    "prefecture_kana": "アイチケン",
    "prefecture_code": "23",
    "city": "江南市",
    "city_kana": "コウナンシ",
    "town": "宮田町南野東",
    "town_kana": "ミヤタチョウミナミノヒガシ",
    "street": null,
    "office_name": null,
    "office_name_kana": null
  },
  "8369": {
    "zip_code": "4838369",
    "prefecture": "愛知県",
    "prefecture_kana": "アイチケン",
    "prefecture_code": "23",
    "city": "江南市",
    "city_kana": "コウナンシ",
    "town": "河野町河野",
    "town_kana": "コウノチョウコウノ",
    "street": null,
    "office_name": null,
    "office_name_kana": null
  },
  "8371": {
    "zip_code": "4838371",
    "prefecture": "愛知県",
    "prefecture_kana": "アイチケン",
    "prefecture_code": "23",
    "city": "江南市",
    "city_kana": "コウナンシ",
    "town": "宮田町河沼",
    "town_kana": "ミヤタチョウカワヌマ",
    "street": null,
    "office_name": null,
    "office_name_kana": null
  },
  "8372": {
    "zip_code": "4838372",
    "prefecture": "愛知県",
    "prefecture_kana": "アイチケン",
    "prefecture_code": "23",
    "city": "江南市",
    "city_kana": "コウナンシ",
    "town": "宮田町宮東",
    "town_kana": "ミヤタチョウミヤヒガシ",
    "street": null,
    "office_name": null,
    "office_name_kana": null
  },
  "8373": {
    "zip_code": "4838373",
    "prefecture": "愛知県",
    "prefecture_kana": "アイチケン",
    "prefecture_code": "23",
    "city": "江南市",
    "city_kana": "コウナンシ",
    "town": "宮田町菖蒲池",
    "town_kana": "ミヤタチョウショウブイケ",
    "street": null,
    "office_name": null,
    "office_name_kana": null
  },
  "8374": {
    "zip_code": "4838374",
    "prefecture": "愛知県",
    "prefecture_kana": "アイチケン",
    "prefecture_code": "23",
    "city": "江南市",
    "city_kana": "コウナンシ",
    "town": "宮田町久保見",
    "town_kana": "ミヤタチョウクボミ",
    "street": null,
    "office_name": null,
    "office_name_kana": null
  },
  "8375": {
    "zip_code": "4838375",
    "prefecture": "愛知県",
    "prefecture_kana": "アイチケン",
    "prefecture_code": "23",
    "city": "江南市",
    "city_kana": "コウナンシ",
    "town": "宮田町泉",
    "town_kana": "ミヤタチョウイズミ",
    "street": null,
    "office_name": null,
    "office_name_kana": null
  },
  "8376": {
    "zip_code": "4838376",
    "prefecture": "愛知県",
    "prefecture_kana": "アイチケン",
    "prefecture_code": "23",
    "city": "江南市",
    "city_kana": "コウナンシ",
    "town": "宮田町藤ノ森",
    "town_kana": "ミヤタチョウフジノモリ",
    "street": null,
    "office_name": null,
    "office_name_kana": null
  },
  "8377": {
    "zip_code": "4838377",
    "prefecture": "愛知県",
    "prefecture_kana": "アイチケン",
    "prefecture_code": "23",
    "city": "江南市",
    "city_kana": "コウナンシ",
    "town": "宮田町本田島",
    "town_kana": "ミヤタチョウホンダジマ",
    "street": null,
    "office_name": null,
    "office_name_kana": null
  },
  "8378": {
    "zip_code": "4838378",
    "prefecture": "愛知県",
    "prefecture_kana": "アイチケン",
    "prefecture_code": "23",
    "city": "江南市",
    "city_kana": "コウナンシ",
    "town": "宮田町四ツ谷",
    "town_kana": "ミヤタチョウヨツヤ",
    "street": null,
    "office_name": null,
    "office_name_kana": null
  },
  "8379": {
    "zip_code": "4838379",
    "prefecture": "愛知県",
    "prefecture_kana": "アイチケン",
    "prefecture_code": "23",
    "city": "江南市",
    "city_kana": "コウナンシ",
    "town": "宮田町本郷",
    "town_kana": "ミヤタチョウホンゴウ",
    "street": null,
    "office_name": null,
    "office_name_kana": null
  },
  "8381": {
    "zip_code": "4838381",
    "prefecture": "愛知県",
    "prefecture_kana": "アイチケン",
    "prefecture_code": "23",
    "city": "江南市",
    "city_kana": "コウナンシ",
    "town": "後飛保町出島",
    "town_kana": "ウシロヒボチョウデシマ",
    "street": null,
    "office_name": null,
    "office_name_kana": null
  },
  "8382": {
    "zip_code": "4838382",
    "prefecture": "愛知県",
    "prefecture_kana": "アイチケン",
    "prefecture_code": "23",
    "city": "江南市",
    "city_kana": "コウナンシ",
    "town": "後飛保町薬師",
    "town_kana": "ウシロヒボチョウヤクシ",
    "street": null,
    "office_name": null,
    "office_name_kana": null
  },
  "8383": {
    "zip_code": "4838383",
    "prefecture": "愛知県",
    "prefecture_kana": "アイチケン",
    "prefecture_code": "23",
    "city": "江南市",
    "city_kana": "コウナンシ",
    "town": "後飛保町前川",
    "town_kana": "ウシロヒボチョウマエカワ",
    "street": null,
    "office_name": null,
    "office_name_kana": null
  },
  "8384": {
    "zip_code": "4838384",
    "prefecture": "愛知県",
    "prefecture_kana": "アイチケン",
    "prefecture_code": "23",
    "city": "江南市",
    "city_kana": "コウナンシ",
    "town": "後飛保町宮前",
    "town_kana": "ウシロヒボチョウミヤマエ",
    "street": null,
    "office_name": null,
    "office_name_kana": null
  },
  "8385": {
    "zip_code": "4838385",
    "prefecture": "愛知県",
    "prefecture_kana": "アイチケン",
    "prefecture_code": "23",
    "city": "江南市",
    "city_kana": "コウナンシ",
    "town": "後飛保町中町",
    "town_kana": "ウシロヒボチョウナカマチ",
    "street": null,
    "office_name": null,
    "office_name_kana": null
  },
  "8386": {
    "zip_code": "4838386",
    "prefecture": "愛知県",
    "prefecture_kana": "アイチケン",
    "prefecture_code": "23",
    "city": "江南市",
    "city_kana": "コウナンシ",
    "town": "後飛保町西町",
    "town_kana": "ウシロヒボチョウニシマチ",
    "street": null,
    "office_name": null,
    "office_name_kana": null
  },
  "8387": {
    "zip_code": "4838387",
    "prefecture": "愛知県",
    "prefecture_kana": "アイチケン",
    "prefecture_code": "23",
    "city": "江南市",
    "city_kana": "コウナンシ",
    "town": "後飛保町新開",
    "town_kana": "ウシロヒボチョウシンカイ",
    "street": null,
    "office_name": null,
    "office_name_kana": null
  },
  "8388": {
    "zip_code": "4838388",
    "prefecture": "愛知県",
    "prefecture_kana": "アイチケン",
    "prefecture_code": "23",
    "city": "江南市",
    "city_kana": "コウナンシ",
    "town": "後飛保町本郷",
    "town_kana": "ウシロヒボチョウホンゴウ",
    "street": null,
    "office_name": null,
    "office_name_kana": null
  },
  "8389": {
    "zip_code": "4838389",
    "prefecture": "愛知県",
    "prefecture_kana": "アイチケン",
    "prefecture_code": "23",
    "city": "江南市",
    "city_kana": "コウナンシ",
    "town": "後飛保町両家",
    "town_kana": "ウシロヒボチョウリョウケ",
    "street": null,
    "office_name": null,
    "office_name_kana": null
  },
  "8401": {
    "zip_code": "4838401",
    "prefecture": "愛知県",
    "prefecture_kana": "アイチケン",
    "prefecture_code": "23",
    "city": "江南市",
    "city_kana": "コウナンシ",
    "town": "慈光堂町北",
    "town_kana": "ジコウドウチョウキタ",
    "street": null,
    "office_name": null,
    "office_name_kana": null
  },
  "8402": {
    "zip_code": "4838402",
    "prefecture": "愛知県",
    "prefecture_kana": "アイチケン",
    "prefecture_code": "23",
    "city": "江南市",
    "city_kana": "コウナンシ",
    "town": "慈光堂町南",
    "town_kana": "ジコウドウチョウミナミ",
    "street": null,
    "office_name": null,
    "office_name_kana": null
  },
  "8403": {
    "zip_code": "4838403",
    "prefecture": "愛知県",
    "prefecture_kana": "アイチケン",
    "prefecture_code": "23",
    "city": "江南市",
    "city_kana": "コウナンシ",
    "town": "小杁町千代見",
    "town_kana": "オイリチョウチヨミ",
    "street": null,
    "office_name": null,
    "office_name_kana": null
  },
  "8404": {
    "zip_code": "4838404",
    "prefecture": "愛知県",
    "prefecture_kana": "アイチケン",
    "prefecture_code": "23",
    "city": "江南市",
    "city_kana": "コウナンシ",
    "town": "小杁町林",
    "town_kana": "オイリチョウハヤシ",
    "street": null,
    "office_name": null,
    "office_name_kana": null
  },
  "8405": {
    "zip_code": "4838405",
    "prefecture": "愛知県",
    "prefecture_kana": "アイチケン",
    "prefecture_code": "23",
    "city": "江南市",
    "city_kana": "コウナンシ",
    "town": "小杁町鴨ケ池",
    "town_kana": "オイリチョウカモガイケ",
    "street": null,
    "office_name": null,
    "office_name_kana": null
  },
  "8406": {
    "zip_code": "4838406",
    "prefecture": "愛知県",
    "prefecture_kana": "アイチケン",
    "prefecture_code": "23",
    "city": "江南市",
    "city_kana": "コウナンシ",
    "town": "小脇町小脇",
    "town_kana": "コワキチョウコワキ",
    "street": null,
    "office_name": null,
    "office_name_kana": null
  },
  "8407": {
    "zip_code": "4838407",
    "prefecture": "愛知県",
    "prefecture_kana": "アイチケン",
    "prefecture_code": "23",
    "city": "江南市",
    "city_kana": "コウナンシ",
    "town": "小杁町明土",
    "town_kana": "オイリチョウミョウド",
    "street": null,
    "office_name": null,
    "office_name_kana": null
  },
  "8408": {
    "zip_code": "4838408",
    "prefecture": "愛知県",
    "prefecture_kana": "アイチケン",
    "prefecture_code": "23",
    "city": "江南市",
    "city_kana": "コウナンシ",
    "town": "小杁町長者毛東",
    "town_kana": "オイリチョウチョウジャゲヒガシ",
    "street": null,
    "office_name": null,
    "office_name_kana": null
  },
  "8409": {
    "zip_code": "4838409",
    "prefecture": "愛知県",
    "prefecture_kana": "アイチケン",
    "prefecture_code": "23",
    "city": "江南市",
    "city_kana": "コウナンシ",
    "town": "小杁町長者毛西",
    "town_kana": "オイリチョウチョウジャゲニシ",
    "street": null,
    "office_name": null,
    "office_name_kana": null
  },
  "8411": {
    "zip_code": "4838411",
    "prefecture": "愛知県",
    "prefecture_kana": "アイチケン",
    "prefecture_code": "23",
    "city": "江南市",
    "city_kana": "コウナンシ",
    "town": "小杁町八幡",
    "town_kana": "オイリチョウハチマン",
    "street": null,
    "office_name": null,
    "office_name_kana": null
  },
  "8412": {
    "zip_code": "4838412",
    "prefecture": "愛知県",
    "prefecture_kana": "アイチケン",
    "prefecture_code": "23",
    "city": "江南市",
    "city_kana": "コウナンシ",
    "town": "小杁町寺ノ内",
    "town_kana": "オイリチョウテラノウチ",
    "street": null,
    "office_name": null,
    "office_name_kana": null
  },
  "8413": {
    "zip_code": "4838413",
    "prefecture": "愛知県",
    "prefecture_kana": "アイチケン",
    "prefecture_code": "23",
    "city": "江南市",
    "city_kana": "コウナンシ",
    "town": "小杁町本郷",
    "town_kana": "オイリチョウホンゴウ",
    "street": null,
    "office_name": null,
    "office_name_kana": null
  },
  "8414": {
    "zip_code": "4838414",
    "prefecture": "愛知県",
    "prefecture_kana": "アイチケン",
    "prefecture_code": "23",
    "city": "江南市",
    "city_kana": "コウナンシ",
    "town": "小杁町一色",
    "town_kana": "オイリチョウイッシキ",
    "street": null,
    "office_name": null,
    "office_name_kana": null
  },
  "8415": {
    "zip_code": "4838415",
    "prefecture": "愛知県",
    "prefecture_kana": "アイチケン",
    "prefecture_code": "23",
    "city": "江南市",
    "city_kana": "コウナンシ",
    "town": "東野町鐘鋳山",
    "town_kana": "ヒガシノチョウカネイリヤマ",
    "street": null,
    "office_name": null,
    "office_name_kana": null
  },
  "8416": {
    "zip_code": "4838416",
    "prefecture": "愛知県",
    "prefecture_kana": "アイチケン",
    "prefecture_code": "23",
    "city": "江南市",
    "city_kana": "コウナンシ",
    "town": "東野町長幡寺",
    "town_kana": "ヒガシノチョウチョウバンジ",
    "street": null,
    "office_name": null,
    "office_name_kana": null
  },
  "8417": {
    "zip_code": "4838417",
    "prefecture": "愛知県",
    "prefecture_kana": "アイチケン",
    "prefecture_code": "23",
    "city": "江南市",
    "city_kana": "コウナンシ",
    "town": "東野町烏森",
    "town_kana": "ヒガシノチョウカラスモリ",
    "street": null,
    "office_name": null,
    "office_name_kana": null
  },
  "8418": {
    "zip_code": "4838418",
    "prefecture": "愛知県",
    "prefecture_kana": "アイチケン",
    "prefecture_code": "23",
    "city": "江南市",
    "city_kana": "コウナンシ",
    "town": "東野町米野",
    "town_kana": "ヒガシノチョウコメノ",
    "street": null,
    "office_name": null,
    "office_name_kana": null
  },
  "8419": {
    "zip_code": "4838419",
    "prefecture": "愛知県",
    "prefecture_kana": "アイチケン",
    "prefecture_code": "23",
    "city": "江南市",
    "city_kana": "コウナンシ",
    "town": "東野町七社宮",
    "town_kana": "ヒガシノチョウナナシャグウ",
    "street": null,
    "office_name": null,
    "office_name_kana": null
  },
  "8421": {
    "zip_code": "4838421",
    "prefecture": "愛知県",
    "prefecture_kana": "アイチケン",
    "prefecture_code": "23",
    "city": "江南市",
    "city_kana": "コウナンシ",
    "town": "東野町郷前",
    "town_kana": "ヒガシノチョウゴウマエ",
    "street": null,
    "office_name": null,
    "office_name_kana": null
  },
  "8422": {
    "zip_code": "4838422",
    "prefecture": "愛知県",
    "prefecture_kana": "アイチケン",
    "prefecture_code": "23",
    "city": "江南市",
    "city_kana": "コウナンシ",
    "town": "東野町神上",
    "town_kana": "ヒガシノチョウカミアゲ",
    "street": null,
    "office_name": null,
    "office_name_kana": null
  },
  "8423": {
    "zip_code": "4838423",
    "prefecture": "愛知県",
    "prefecture_kana": "アイチケン",
    "prefecture_code": "23",
    "city": "江南市",
    "city_kana": "コウナンシ",
    "town": "東野町郷前西",
    "town_kana": "ヒガシノチョウゴウマエニシ",
    "street": null,
    "office_name": null,
    "office_name_kana": null
  },
  "8424": {
    "zip_code": "4838424",
    "prefecture": "愛知県",
    "prefecture_kana": "アイチケン",
    "prefecture_code": "23",
    "city": "江南市",
    "city_kana": "コウナンシ",
    "town": "東野町西出",
    "town_kana": "ヒガシノチョウニシデ",
    "street": null,
    "office_name": null,
    "office_name_kana": null
  },
  "8425": {
    "zip_code": "4838425",
    "prefecture": "愛知県",
    "prefecture_kana": "アイチケン",
    "prefecture_code": "23",
    "city": "江南市",
    "city_kana": "コウナンシ",
    "town": "東野町河戸",
    "town_kana": "ヒガシノチョウコウド",
    "street": null,
    "office_name": null,
    "office_name_kana": null
  },
  "8426": {
    "zip_code": "4838426",
    "prefecture": "愛知県",
    "prefecture_kana": "アイチケン",
    "prefecture_code": "23",
    "city": "江南市",
    "city_kana": "コウナンシ",
    "town": "東野町河原",
    "town_kana": "ヒガシノチョウカワラ",
    "street": null,
    "office_name": null,
    "office_name_kana": null
  },
  "8427": {
    "zip_code": "4838427",
    "prefecture": "愛知県",
    "prefecture_kana": "アイチケン",
    "prefecture_code": "23",
    "city": "江南市",
    "city_kana": "コウナンシ",
    "town": "東野町新田",
    "town_kana": "ヒガシノチョウシンデン",
    "street": null,
    "office_name": null,
    "office_name_kana": null
  },
  "8428": {
    "zip_code": "4838428",
    "prefecture": "愛知県",
    "prefecture_kana": "アイチケン",
    "prefecture_code": "23",
    "city": "江南市",
    "city_kana": "コウナンシ",
    "town": "東野町新田東",
    "town_kana": "ヒガシノチョウシンデンヒガシ",
    "street": null,
    "office_name": null,
    "office_name_kana": null
  },
  "8429": {
    "zip_code": "4838429",
    "prefecture": "愛知県",
    "prefecture_kana": "アイチケン",
    "prefecture_code": "23",
    "city": "江南市",
    "city_kana": "コウナンシ",
    "town": "東野町西神田",
    "town_kana": "ヒガシノチョウニシジンデン",
    "street": null,
    "office_name": null,
    "office_name_kana": null
  },
  "8431": {
    "zip_code": "4838431",
    "prefecture": "愛知県",
    "prefecture_kana": "アイチケン",
    "prefecture_code": "23",
    "city": "江南市",
    "city_kana": "コウナンシ",
    "town": "東野町神田",
    "town_kana": "ヒガシノチョウジンデン",
    "street": null,
    "office_name": null,
    "office_name_kana": null
  },
  "8432": {
    "zip_code": "4838432",
    "prefecture": "愛知県",
    "prefecture_kana": "アイチケン",
    "prefecture_code": "23",
    "city": "江南市",
    "city_kana": "コウナンシ",
    "town": "東野町東神田",
    "town_kana": "ヒガシノチョウヒガシジンデン",
    "street": null,
    "office_name": null,
    "office_name_kana": null
  },
  "8433": {
    "zip_code": "4838433",
    "prefecture": "愛知県",
    "prefecture_kana": "アイチケン",
    "prefecture_code": "23",
    "city": "江南市",
    "city_kana": "コウナンシ",
    "town": "東野町岩見",
    "town_kana": "ヒガシノチョウイワミ",
    "street": null,
    "office_name": null,
    "office_name_kana": null
  },
  "8502": {
    "zip_code": "4838502",
    "prefecture": "愛知県",
    "prefecture_kana": "アイチケン",
    "prefecture_code": "23",
    "city": "江南市",
    "city_kana": "コウナンシ",
    "town": "前野町東",
    "town_kana": "マエノチョウヒガシ",
    "street": "２番地の１",
    "office_name": "株式会社　ミサワテクノ",
    "office_name_kana": "カブシキガイシヤ ミサワテクノ"
  },
  "8505": {
    "zip_code": "4838505",
    "prefecture": "愛知県",
    "prefecture_kana": "アイチケン",
    "prefecture_code": "23",
    "city": "江南市",
    "city_kana": "コウナンシ",
    "town": "古知野町熱田",
    "town_kana": "コチノチョウアツタ",
    "street": "７２",
    "office_name": "ＪＡ　愛知北",
    "office_name_kana": "ジエイエイ アイチキタ"
  },
  "8507": {
    "zip_code": "4838507",
    "prefecture": "愛知県",
    "prefecture_kana": "アイチケン",
    "prefecture_code": "23",
    "city": "江南市",
    "city_kana": "コウナンシ",
    "town": "村久野町瀬頭",
    "town_kana": "ムラクノチョウセガシラ",
    "street": "１６３",
    "office_name": "アピタ　江南店",
    "office_name_kana": "アピタ コウナンテン"
  },
  "8555": {
    "zip_code": "4838555",
    "prefecture": "愛知県",
    "prefecture_kana": "アイチケン",
    "prefecture_code": "23",
    "city": "江南市",
    "city_kana": "コウナンシ",
    "town": "古知野町朝日",
    "town_kana": "コチノチョウアサヒ",
    "street": "２５０",
    "office_name": "サン電子　株式会社",
    "office_name_kana": "サンデンシ カブシキガイシヤ"
  },
  "8701": {
    "zip_code": "4838701",
    "prefecture": "愛知県",
    "prefecture_kana": "アイチケン",
    "prefecture_code": "23",
    "city": "江南市",
    "city_kana": "コウナンシ",
    "town": "赤童子町大堀",
    "town_kana": "アカドウジチョウオオボリ",
    "street": "９０",
    "office_name": "江南市役所",
    "office_name_kana": "コウナンシヤクシヨ"
  },
  "8704": {
    "zip_code": "4838704",
    "prefecture": "愛知県",
    "prefecture_kana": "アイチケン",
    "prefecture_code": "23",
    "city": "江南市",
    "city_kana": "コウナンシ",
    "town": "高屋町大松原",
    "town_kana": "タカヤチョウオオマツバラ",
    "street": "１３７番地",
    "office_name": "愛知県厚生農業協同組合連合会　江南厚生病院",
    "office_name_kana": "アイチケンコウセイノウギヨウキヨウドウクミアイレンゴウカイ コウナンコウセイビヨウイン"
  },
  "8714": {
    "zip_code": "4838714",
    "prefecture": "愛知県",
    "prefecture_kana": "アイチケン",
    "prefecture_code": "23",
    "city": "江南市",
    "city_kana": "コウナンシ",
    "town": "和田町川東",
    "town_kana": "ワダチョウカワヒガシ",
    "street": "１０−１",
    "office_name": "トラスコ中山　株式会社　プラネット名古屋",
    "office_name_kana": "トラスコナカヤマ カブシキガイシヤ プラネツトナゴヤ"
  }
}