{
  "1100": {
    "zip_code": "4901100",
    "prefecture": "愛知県",
    "prefecture_kana": "アイチケン",
    "prefecture_code": "23",
    "city": "海部郡大治町",
    "city_kana": "アマグンオオハルチョウ",
    "town": "",
    "town_kana": "",
    "street": null,
    "office_name": null,
    "office_name_kana": null
  },
  "1101": {
    "zip_code": "4901101",
    "prefecture": "愛知県",
    "prefecture_kana": "アイチケン",
    "prefecture_code": "23",
    "city": "あま市",
    "city_kana": "アマシ",
    "town": "方領",
    "town_kana": "ホウリョウ",
    "street": null,
    "office_name": null,
    "office_name_kana": null
  },
  "1102": {
    "zip_code": "4901102",
    "prefecture": "愛知県",
    "prefecture_kana": "アイチケン",
    "prefecture_code": "23",
    "city": "あま市",
    "city_kana": "アマシ",
    "town": "石作",
    "town_kana": "イシツクリ",
    "street": null,
    "office_name": null,
    "office_name_kana": null
  },
  "1103": {
    "zip_code": "4901103",
    "prefecture": "愛知県",
    "prefecture_kana": "アイチケン",
    "prefecture_code": "23",
    "city": "あま市",
    "city_kana": "アマシ",
    "town": "栄",
    "town_kana": "サカエ",
    "street": null,
    "office_name": null,
    "office_name_kana": null
  },
  "1104": {
    "zip_code": "4901104",
    "prefecture": "愛知県",
    "prefecture_kana": "アイチケン",
    "prefecture_code": "23",
    "city": "あま市",
    "city_kana": "アマシ",
    "town": "西今宿",
    "town_kana": "ニシイマジュク",
    "street": null,
    "office_name": null,
    "office_name_kana": null
  },
  "1105": {
    "zip_code": "4901105",
    "prefecture": "愛知県",
    "prefecture_kana": "アイチケン",
    "prefecture_code": "23",
    "city": "あま市",
    "city_kana": "アマシ",
    "town": "新居屋",
    "town_kana": "ニイヤ",
    "street": null,
    "office_name": null,
    "office_name_kana": null
  },
  "1106": {
    "zip_code": "4901106",
    "prefecture": "愛知県",
    "prefecture_kana": "アイチケン",
    "prefecture_code": "23",
    "city": "あま市",
    "city_kana": "アマシ",
    "town": "小路",
    "town_kana": "ショウジ",
    "street": null,
    "office_name": null,
    "office_name_kana": null
  },
  "1107": {
    "zip_code": "4901107",
    "prefecture": "愛知県",
    "prefecture_kana": "アイチケン",
    "prefecture_code": "23",
    "city": "あま市",
    "city_kana": "アマシ",
    "town": "森",
    "town_kana": "モリ",
    "street": null,
    "office_name": null,
    "office_name_kana": null
  },
  "1111": {
    "zip_code": "4901111",
    "prefecture": "愛知県",
    "prefecture_kana": "アイチケン",
    "prefecture_code": "23",
    "city": "あま市",
    "city_kana": "アマシ",
    "town": "甚目寺",
    "town_kana": "ジモクジ",
    "street": null,
    "office_name": null,
    "office_name_kana": null
  },
  "1112": {
    "zip_code": "4901112",
    "prefecture": "愛知県",
    "prefecture_kana": "アイチケン",
    "prefecture_code": "23",
    "city": "あま市",
    "city_kana": "アマシ",
    "town": "上萱津",
    "town_kana": "カミカヤヅ",
    "street": null,
    "office_name": null,
    "office_name_kana": null
  },
  "1113": {
    "zip_code": "4901113",
    "prefecture": "愛知県",
    "prefecture_kana": "アイチケン",
    "prefecture_code": "23",
    "city": "あま市",
    "city_kana": "アマシ",
    "town": "中萱津",
    "town_kana": "ナカカヤヅ",
    "street": null,
    "office_name": null,
    "office_name_kana": null
  },
  "1114": {
    "zip_code": "4901114",
    "prefecture": "愛知県",
    "prefecture_kana": "アイチケン",
    "prefecture_code": "23",
    "city": "あま市",
    "city_kana": "アマシ",
    "town": "下萱津",
    "town_kana": "シモカヤヅ",
    "street": null,
    "office_name": null,
    "office_name_kana": null
  },
  "1115": {
    "zip_code": "4901115",
    "prefecture": "愛知県",
    "prefecture_kana": "アイチケン",
    "prefecture_code": "23",
    "city": "あま市",
    "city_kana": "アマシ",
    "town": "坂牧",
    "town_kana": "サカマキ",
    "street": null,
    "office_name": null,
    "office_name_kana": null
  },
  "1116": {
    "zip_code": "4901116",
    "prefecture": "愛知県",
    "prefecture_kana": "アイチケン",
    "prefecture_code": "23",
    "city": "あま市",
    "city_kana": "アマシ",
    "town": "本郷",
    "town_kana": "ホンゴウ",
    "street": null,
    "office_name": null,
    "office_name_kana": null
  },
  "1131": {
    "zip_code": "4901131",
    "prefecture": "愛知県",
    "prefecture_kana": "アイチケン",
    "prefecture_code": "23",
    "city": "海部郡大治町",
    "city_kana": "アマグンオオハルチョウ",
    "town": "長牧",
    "town_kana": "ナガマキ",
    "street": null,
    "office_name": null,
    "office_name_kana": null
  },
  "1132": {
    "zip_code": "4901132",
    "prefecture": "愛知県",
    "prefecture_kana": "アイチケン",
    "prefecture_code": "23",
    "city": "海部郡大治町",
    "city_kana": "アマグンオオハルチョウ",
    "town": "北間島",
    "town_kana": "キタマジマ",
    "street": null,
    "office_name": null,
    "office_name_kana": null
  },
  "1133": {
    "zip_code": "4901133",
    "prefecture": "愛知県",
    "prefecture_kana": "アイチケン",
    "prefecture_code": "23",
    "city": "海部郡大治町",
    "city_kana": "アマグンオオハルチョウ",
    "town": "八ツ屋",
    "town_kana": "ヤツヤ",
    "street": null,
    "office_name": null,
    "office_name_kana": null
  },
  "1134": {
    "zip_code": "4901134",
    "prefecture": "愛知県",
    "prefecture_kana": "アイチケン",
    "prefecture_code": "23",
    "city": "海部郡大治町",
    "city_kana": "アマグンオオハルチョウ",
    "town": "東條",
    "town_kana": "ヒガシジョウ",
    "street": null,
    "office_name": null,
    "office_name_kana": null
  },
  "1135": {
    "zip_code": "4901135",
    "prefecture": "愛知県",
    "prefecture_kana": "アイチケン",
    "prefecture_code": "23",
    "city": "海部郡大治町",
    "city_kana": "アマグンオオハルチョウ",
    "town": "鎌須賀",
    "town_kana": "カマスカ",
    "street": null,
    "office_name": null,
    "office_name_kana": null
  },
  "1136": {
    "zip_code": "4901136",
    "prefecture": "愛知県",
    "prefecture_kana": "アイチケン",
    "prefecture_code": "23",
    "city": "海部郡大治町",
    "city_kana": "アマグンオオハルチョウ",
    "town": "花常",
    "town_kana": "ハナツネ",
    "street": null,
    "office_name": null,
    "office_name_kana": null
  },
  "1137": {
    "zip_code": "4901137",
    "prefecture": "愛知県",
    "prefecture_kana": "アイチケン",
    "prefecture_code": "23",
    "city": "海部郡大治町",
    "city_kana": "アマグンオオハルチョウ",
    "town": "堀之内",
    "town_kana": "ホリノウチ",
    "street": null,
    "office_name": null,
    "office_name_kana": null
  },
  "1141": {
    "zip_code": "4901141",
    "prefecture": "愛知県",
    "prefecture_kana": "アイチケン",
    "prefecture_code": "23",
    "city": "海部郡大治町",
    "city_kana": "アマグンオオハルチョウ",
    "town": "馬島",
    "town_kana": "マジマ",
    "street": null,
    "office_name": null,
    "office_name_kana": null
  },
  "1142": {
    "zip_code": "4901142",
    "prefecture": "愛知県",
    "prefecture_kana": "アイチケン",
    "prefecture_code": "23",
    "city": "海部郡大治町",
    "city_kana": "アマグンオオハルチョウ",
    "town": "三本木",
    "town_kana": "サンボンギ",
    "street": null,
    "office_name": null,
    "office_name_kana": null
  },
  "1143": {
    "zip_code": "4901143",
    "prefecture": "愛知県",
    "prefecture_kana": "アイチケン",
    "prefecture_code": "23",
    "city": "海部郡大治町",
    "city_kana": "アマグンオオハルチョウ",
    "town": "砂子",
    "town_kana": "スナゴ",
    "street": null,
    "office_name": null,
    "office_name_kana": null
  },
  "1144": {
    "zip_code": "4901144",
    "prefecture": "愛知県",
    "prefecture_kana": "アイチケン",
    "prefecture_code": "23",
    "city": "海部郡大治町",
    "city_kana": "アマグンオオハルチョウ",
    "town": "西條",
    "town_kana": "ニシジョウ",
    "street": null,
    "office_name": null,
    "office_name_kana": null
  },
  "1145": {
    "zip_code": "4901145",
    "prefecture": "愛知県",
    "prefecture_kana": "アイチケン",
    "prefecture_code": "23",
    "city": "海部郡大治町",
    "city_kana": "アマグンオオハルチョウ",
    "town": "中島",
    "town_kana": "ナカジマ",
    "street": null,
    "office_name": null,
    "office_name_kana": null
  },
  "1192": {
    "zip_code": "4901192",
    "prefecture": "愛知県",
    "prefecture_kana": null,
    "prefecture_code": null,
    "city": "海部郡大治町",
    "city_kana": null,
    "town": "大字馬島",
    "town_kana": null,
    "street": "字大門西１−１",
    "office_name": "海部郡大治町役場",
    "office_name_kana": "アマグンオオハルチヨウヤクバ"
  },
  "1193": {
    "zip_code": "4901193",
    "prefecture": "愛知県",
    "prefecture_kana": "アイチケン",
    "prefecture_code": "23",
    "city": "あま市",
    "city_kana": "アマシ",
    "town": "西今宿",
    "town_kana": "ニシイマジュク",
    "street": "平割一２２",
    "office_name": "株式会社　コーワ",
    "office_name_kana": "カブシキガイシヤ コ-ワ"
  },
  "1194": {
    "zip_code": "4901194",
    "prefecture": "愛知県",
    "prefecture_kana": "アイチケン",
    "prefecture_code": "23",
    "city": "あま市",
    "city_kana": "アマシ",
    "town": "中萱津",
    "town_kana": "ナカカヤヅ",
    "street": "紺屋田３０",
    "office_name": "株式会社　鎌倉ハム",
    "office_name_kana": "カブシキガイシヤ カマクラハム"
  },
  "1198": {
    "zip_code": "4901198",
    "prefecture": "愛知県",
    "prefecture_kana": "アイチケン",
    "prefecture_code": "23",
    "city": "あま市",
    "city_kana": "アマシ",
    "town": "甚目寺",
    "town_kana": "ジモクジ",
    "street": "二伴田７６番地",
    "office_name": "あま市役所　甚目寺庁舎",
    "office_name_kana": "アマシヤクシヨ ジモクジチヨウシヤ"
  },
  "1200": {
    "zip_code": "4901200",
    "prefecture": "愛知県",
    "prefecture_kana": "アイチケン",
    "prefecture_code": "23",
    "city": "あま市",
    "city_kana": "アマシ",
    "town": "",
    "town_kana": "",
    "street": null,
    "office_name": null,
    "office_name_kana": null
  },
  "1201": {
    "zip_code": "4901201",
    "prefecture": "愛知県",
    "prefecture_kana": "アイチケン",
    "prefecture_code": "23",
    "city": "あま市",
    "city_kana": "アマシ",
    "town": "古道",
    "town_kana": "フルミチ",
    "street": null,
    "office_name": null,
    "office_name_kana": null
  },
  "1202": {
    "zip_code": "4901202",
    "prefecture": "愛知県",
    "prefecture_kana": "アイチケン",
    "prefecture_code": "23",
    "city": "あま市",
    "city_kana": "アマシ",
    "town": "富塚",
    "town_kana": "トミツカ",
    "street": null,
    "office_name": null,
    "office_name_kana": null
  },
  "1203": {
    "zip_code": "4901203",
    "prefecture": "愛知県",
    "prefecture_kana": "アイチケン",
    "prefecture_code": "23",
    "city": "あま市",
    "city_kana": "アマシ",
    "town": "木折",
    "town_kana": "キオリ",
    "street": null,
    "office_name": null,
    "office_name_kana": null
  },
  "1204": {
    "zip_code": "4901204",
    "prefecture": "愛知県",
    "prefecture_kana": "アイチケン",
    "prefecture_code": "23",
    "city": "あま市",
    "city_kana": "アマシ",
    "town": "花長",
    "town_kana": "ハナオサ",
    "street": null,
    "office_name": null,
    "office_name_kana": null
  },
  "1205": {
    "zip_code": "4901205",
    "prefecture": "愛知県",
    "prefecture_kana": "アイチケン",
    "prefecture_code": "23",
    "city": "あま市",
    "city_kana": "アマシ",
    "town": "花正",
    "town_kana": "ハナマサ",
    "street": null,
    "office_name": null,
    "office_name_kana": null
  },
  "1206": {
    "zip_code": "4901206",
    "prefecture": "愛知県",
    "prefecture_kana": "アイチケン",
    "prefecture_code": "23",
    "city": "あま市",
    "city_kana": "アマシ",
    "town": "東溝口",
    "town_kana": "ヒガシミゾグチ",
    "street": null,
    "office_name": null,
    "office_name_kana": null
  },
  "1207": {
    "zip_code": "4901207",
    "prefecture": "愛知県",
    "prefecture_kana": "アイチケン",
    "prefecture_code": "23",
    "city": "あま市",
    "city_kana": "アマシ",
    "town": "二ツ寺",
    "town_kana": "フタツデラ",
    "street": null,
    "office_name": null,
    "office_name_kana": null
  },
  "1211": {
    "zip_code": "4901211",
    "prefecture": "愛知県",
    "prefecture_kana": "アイチケン",
    "prefecture_code": "23",
    "city": "あま市",
    "city_kana": "アマシ",
    "town": "篠田",
    "town_kana": "シノダ",
    "street": null,
    "office_name": null,
    "office_name_kana": null
  },
  "1212": {
    "zip_code": "4901212",
    "prefecture": "愛知県",
    "prefecture_kana": "アイチケン",
    "prefecture_code": "23",
    "city": "あま市",
    "city_kana": "アマシ",
    "town": "小橋方",
    "town_kana": "コバシガタ",
    "street": null,
    "office_name": null,
    "office_name_kana": null
  },
  "1213": {
    "zip_code": "4901213",
    "prefecture": "愛知県",
    "prefecture_kana": "アイチケン",
    "prefecture_code": "23",
    "city": "あま市",
    "city_kana": "アマシ",
    "town": "乙之子",
    "town_kana": "オトノコ",
    "street": null,
    "office_name": null,
    "office_name_kana": null
  },
  "1214": {
    "zip_code": "4901214",
    "prefecture": "愛知県",
    "prefecture_kana": "アイチケン",
    "prefecture_code": "23",
    "city": "あま市",
    "city_kana": "アマシ",
    "town": "北苅",
    "town_kana": "キタガリ",
    "street": null,
    "office_name": null,
    "office_name_kana": null
  },
  "1221": {
    "zip_code": "4901221",
    "prefecture": "愛知県",
    "prefecture_kana": "アイチケン",
    "prefecture_code": "23",
    "city": "あま市",
    "city_kana": "アマシ",
    "town": "金岩",
    "town_kana": "カナイワ",
    "street": null,
    "office_name": null,
    "office_name_kana": null
  },
  "1222": {
    "zip_code": "4901222",
    "prefecture": "愛知県",
    "prefecture_kana": "アイチケン",
    "prefecture_code": "23",
    "city": "あま市",
    "city_kana": "アマシ",
    "town": "木田",
    "town_kana": "キダ",
    "street": null,
    "office_name": null,
    "office_name_kana": null
  },
  "1223": {
    "zip_code": "4901223",
    "prefecture": "愛知県",
    "prefecture_kana": "アイチケン",
    "prefecture_code": "23",
    "city": "あま市",
    "city_kana": "アマシ",
    "town": "森山",
    "town_kana": "モリヤマ",
    "street": null,
    "office_name": null,
    "office_name_kana": null
  },
  "1224": {
    "zip_code": "4901224",
    "prefecture": "愛知県",
    "prefecture_kana": "アイチケン",
    "prefecture_code": "23",
    "city": "あま市",
    "city_kana": "アマシ",
    "town": "丹波",
    "town_kana": "タンバ",
    "street": null,
    "office_name": null,
    "office_name_kana": null
  },
  "1225": {
    "zip_code": "4901225",
    "prefecture": "愛知県",
    "prefecture_kana": "アイチケン",
    "prefecture_code": "23",
    "city": "あま市",
    "city_kana": "アマシ",
    "town": "蜂須賀",
    "town_kana": "ハチスカ",
    "street": null,
    "office_name": null,
    "office_name_kana": null
  },
  "1226": {
    "zip_code": "4901226",
    "prefecture": "愛知県",
    "prefecture_kana": "アイチケン",
    "prefecture_code": "23",
    "city": "あま市",
    "city_kana": "アマシ",
    "town": "中橋",
    "town_kana": "ナカハシ",
    "street": null,
    "office_name": null,
    "office_name_kana": null
  },
  "1292": {
    "zip_code": "4901292",
    "prefecture": "愛知県",
    "prefecture_kana": "アイチケン",
    "prefecture_code": "23",
    "city": "あま市",
    "city_kana": "アマシ",
    "town": "木田",
    "town_kana": "キダ",
    "street": "戌亥１８番地１",
    "office_name": "あま市役所",
    "office_name_kana": "アマシヤクシヨ"
  },
  "1293": {
    "zip_code": "4901293",
    "prefecture": "愛知県",
    "prefecture_kana": "アイチケン",
    "prefecture_code": "23",
    "city": "あま市",
    "city_kana": "アマシ",
    "town": "木折",
    "town_kana": "キオリ",
    "street": "戸井田２３",
    "office_name": "株式会社　岩月屋",
    "office_name_kana": "カブシキカイシヤ イワツキヤ"
  },
  "1295": {
    "zip_code": "4901295",
    "prefecture": "愛知県",
    "prefecture_kana": "アイチケン",
    "prefecture_code": "23",
    "city": "あま市",
    "city_kana": "アマシ",
    "town": "篠田",
    "town_kana": "シノダ",
    "street": "五ツ藤１",
    "office_name": "美和高等学校",
    "office_name_kana": "ミワコウトウガツコウ"
  },
  "1296": {
    "zip_code": "4901296",
    "prefecture": "愛知県",
    "prefecture_kana": "アイチケン",
    "prefecture_code": "23",
    "city": "あま市",
    "city_kana": "アマシ",
    "town": "乙之子",
    "town_kana": "オトノコ",
    "street": "八反田１２",
    "office_name": "旭中部資材　株式会社",
    "office_name_kana": "アサヒチユウブシザイ カブシキカイシヤ"
  },
  "1301": {
    "zip_code": "4901301",
    "prefecture": "愛知県",
    "prefecture_kana": "アイチケン",
    "prefecture_code": "23",
    "city": "稲沢市",
    "city_kana": "イナザワシ",
    "town": "平和町須ケ谷",
    "town_kana": "ヘイワチョウスカタニ",
    "street": null,
    "office_name": null,
    "office_name_kana": null
  },
  "1302": {
    "zip_code": "4901302",
    "prefecture": "愛知県",
    "prefecture_kana": "アイチケン",
    "prefecture_code": "23",
    "city": "稲沢市",
    "city_kana": "イナザワシ",
    "town": "平和町観音堂",
    "town_kana": "ヘイワチョウカンノンドウ",
    "street": null,
    "office_name": null,
    "office_name_kana": null
  },
  "1303": {
    "zip_code": "4901303",
    "prefecture": "愛知県",
    "prefecture_kana": "アイチケン",
    "prefecture_code": "23",
    "city": "稲沢市",
    "city_kana": "イナザワシ",
    "town": "平和町上三宅",
    "town_kana": "ヘイワチョウカミミヤケ",
    "street": null,
    "office_name": null,
    "office_name_kana": null
  },
  "1304": {
    "zip_code": "4901304",
    "prefecture": "愛知県",
    "prefecture_kana": "アイチケン",
    "prefecture_code": "23",
    "city": "稲沢市",
    "city_kana": "イナザワシ",
    "town": "平和町法立",
    "town_kana": "ヘイワチョウホウリュウ",
    "street": null,
    "office_name": null,
    "office_name_kana": null
  },
  "1305": [
    {
      "zip_code": "4901305",
      "prefecture": "愛知県",
      "prefecture_kana": "アイチケン",
      "prefecture_code": "23",
      "city": "稲沢市",
      "city_kana": "イナザワシ",
      "town": "平和町",
      "town_kana": "ヘイワチョウ",
      "street": null,
      "office_name": null,
      "office_name_kana": null
    },
    {
      "zip_code": "4901305",
      "prefecture": "愛知県",
      "prefecture_kana": "アイチケン",
      "prefecture_code": "23",
      "city": "稲沢市",
      "city_kana": "イナザワシ",
      "town": "平和町丸渕上",
      "town_kana": "ヘイワチョウマルブチカミ",
      "street": null,
      "office_name": null,
      "office_name_kana": null
    },
    {
      "zip_code": "4901305",
      "prefecture": "愛知県",
      "prefecture_kana": "アイチケン",
      "prefecture_code": "23",
      "city": "稲沢市",
      "city_kana": "イナザワシ",
      "town": "平和町丸渕下",
      "town_kana": "ヘイワチョウマルブチシモ",
      "street": null,
      "office_name": null,
      "office_name_kana": null
    },
    {
      "zip_code": "4901305",
      "prefecture": "愛知県",
      "prefecture_kana": "アイチケン",
      "prefecture_code": "23",
      "city": "稲沢市",
      "city_kana": "イナザワシ",
      "town": "平和町鷲尾",
      "town_kana": "ヘイワチョウワシオ",
      "street": null,
      "office_name": null,
      "office_name_kana": null
    }
  ],
  "1311": {
    "zip_code": "4901311",
    "prefecture": "愛知県",
    "prefecture_kana": "アイチケン",
    "prefecture_code": "23",
    "city": "稲沢市",
    "city_kana": "イナザワシ",
    "town": "平和町中三宅",
    "town_kana": "ヘイワチョウナカミヤケ",
    "street": null,
    "office_name": null,
    "office_name_kana": null
  },
  "1312": {
    "zip_code": "4901312",
    "prefecture": "愛知県",
    "prefecture_kana": "アイチケン",
    "prefecture_code": "23",
    "city": "稲沢市",
    "city_kana": "イナザワシ",
    "town": "平和町下三宅",
    "town_kana": "ヘイワチョウシモミヤケ",
    "street": null,
    "office_name": null,
    "office_name_kana": null
  },
  "1313": {
    "zip_code": "4901313",
    "prefecture": "愛知県",
    "prefecture_kana": "アイチケン",
    "prefecture_code": "23",
    "city": "稲沢市",
    "city_kana": "イナザワシ",
    "town": "平和町横池",
    "town_kana": "ヘイワチョウヨコイケ",
    "street": null,
    "office_name": null,
    "office_name_kana": null
  },
  "1314": {
    "zip_code": "4901314",
    "prefecture": "愛知県",
    "prefecture_kana": "アイチケン",
    "prefecture_code": "23",
    "city": "稲沢市",
    "city_kana": "イナザワシ",
    "town": "平和町西光坊",
    "town_kana": "ヘイワチョウサイコウボウ",
    "street": null,
    "office_name": null,
    "office_name_kana": null
  },
  "1315": {
    "zip_code": "4901315",
    "prefecture": "愛知県",
    "prefecture_kana": "アイチケン",
    "prefecture_code": "23",
    "city": "稲沢市",
    "city_kana": "イナザワシ",
    "town": "平和町平池",
    "town_kana": "ヘイワチョウヒライケ",
    "street": null,
    "office_name": null,
    "office_name_kana": null
  },
  "1321": {
    "zip_code": "4901321",
    "prefecture": "愛知県",
    "prefecture_kana": "アイチケン",
    "prefecture_code": "23",
    "city": "稲沢市",
    "city_kana": "イナザワシ",
    "town": "平和町東城",
    "town_kana": "ヘイワチョウトウジョウ",
    "street": null,
    "office_name": null,
    "office_name_kana": null
  },
  "1322": [
    {
      "zip_code": "4901322",
      "prefecture": "愛知県",
      "prefecture_kana": "アイチケン",
      "prefecture_code": "23",
      "city": "稲沢市",
      "city_kana": "イナザワシ",
      "town": "平和町",
      "town_kana": "ヘイワチョウ",
      "street": null,
      "office_name": null,
      "office_name_kana": null
    },
    {
      "zip_code": "4901322",
      "prefecture": "愛知県",
      "prefecture_kana": "アイチケン",
      "prefecture_code": "23",
      "city": "稲沢市",
      "city_kana": "イナザワシ",
      "town": "平和町上前浪",
      "town_kana": "ヘイワチョウカミマエナミ",
      "street": null,
      "office_name": null,
      "office_name_kana": null
    },
    {
      "zip_code": "4901322",
      "prefecture": "愛知県",
      "prefecture_kana": "アイチケン",
      "prefecture_code": "23",
      "city": "稲沢市",
      "city_kana": "イナザワシ",
      "town": "平和町下前浪",
      "town_kana": "ヘイワチョウシモマエナミ",
      "street": null,
      "office_name": null,
      "office_name_kana": null
    }
  ],
  "1323": [
    {
      "zip_code": "4901323",
      "prefecture": "愛知県",
      "prefecture_kana": "アイチケン",
      "prefecture_code": "23",
      "city": "稲沢市",
      "city_kana": "イナザワシ",
      "town": "平和町",
      "town_kana": "ヘイワチョウ",
      "street": null,
      "office_name": null,
      "office_name_kana": null
    },
    {
      "zip_code": "4901323",
      "prefecture": "愛知県",
      "prefecture_kana": "アイチケン",
      "prefecture_code": "23",
      "city": "稲沢市",
      "city_kana": "イナザワシ",
      "town": "平和町光和",
      "town_kana": "ヘイワチョウコウワ",
      "street": null,
      "office_name": null,
      "office_name_kana": null
    },
    {
      "zip_code": "4901323",
      "prefecture": "愛知県",
      "prefecture_kana": "アイチケン",
      "prefecture_code": "23",
      "city": "稲沢市",
      "city_kana": "イナザワシ",
      "town": "平和町塩川",
      "town_kana": "ヘイワチョウシオカワ",
      "street": null,
      "office_name": null,
      "office_name_kana": null
    },
    {
      "zip_code": "4901323",
      "prefecture": "愛知県",
      "prefecture_kana": "アイチケン",
      "prefecture_code": "23",
      "city": "稲沢市",
      "city_kana": "イナザワシ",
      "town": "平和町下起北",
      "town_kana": "ヘイワチョウシモコシキタ",
      "street": null,
      "office_name": null,
      "office_name_kana": null
    },
    {
      "zip_code": "4901323",
      "prefecture": "愛知県",
      "prefecture_kana": "アイチケン",
      "prefecture_code": "23",
      "city": "稲沢市",
      "city_kana": "イナザワシ",
      "town": "平和町下起中",
      "town_kana": "ヘイワチョウシモコシナカ",
      "street": null,
      "office_name": null,
      "office_name_kana": null
    },
    {
      "zip_code": "4901323",
      "prefecture": "愛知県",
      "prefecture_kana": "アイチケン",
      "prefecture_code": "23",
      "city": "稲沢市",
      "city_kana": "イナザワシ",
      "town": "平和町下起東",
      "town_kana": "ヘイワチョウシモコシヒガシ",
      "street": null,
      "office_name": null,
      "office_name_kana": null
    },
    {
      "zip_code": "4901323",
      "prefecture": "愛知県",
      "prefecture_kana": "アイチケン",
      "prefecture_code": "23",
      "city": "稲沢市",
      "city_kana": "イナザワシ",
      "town": "平和町下起南",
      "town_kana": "ヘイワチョウシモコシミナミ",
      "street": null,
      "office_name": null,
      "office_name_kana": null
    },
    {
      "zip_code": "4901323",
      "prefecture": "愛知県",
      "prefecture_kana": "アイチケン",
      "prefecture_code": "23",
      "city": "稲沢市",
      "city_kana": "イナザワシ",
      "town": "平和町勝幡新田",
      "town_kana": "ヘイワチョウショバタシンデン",
      "street": null,
      "office_name": null,
      "office_name_kana": null
    },
    {
      "zip_code": "4901323",
      "prefecture": "愛知県",
      "prefecture_kana": "アイチケン",
      "prefecture_code": "23",
      "city": "稲沢市",
      "city_kana": "イナザワシ",
      "town": "平和町城西",
      "town_kana": "ヘイワチョウシロニシ",
      "street": null,
      "office_name": null,
      "office_name_kana": null
    },
    {
      "zip_code": "4901323",
      "prefecture": "愛知県",
      "prefecture_kana": "アイチケン",
      "prefecture_code": "23",
      "city": "稲沢市",
      "city_kana": "イナザワシ",
      "town": "平和町城之内",
      "town_kana": "ヘイワチョウシロノウチ",
      "street": null,
      "office_name": null,
      "office_name_kana": null
    },
    {
      "zip_code": "4901323",
      "prefecture": "愛知県",
      "prefecture_kana": "アイチケン",
      "prefecture_code": "23",
      "city": "稲沢市",
      "city_kana": "イナザワシ",
      "town": "平和町須ケ脇",
      "town_kana": "ヘイワチョウスカワキ",
      "street": null,
      "office_name": null,
      "office_name_kana": null
    },
    {
      "zip_code": "4901323",
      "prefecture": "愛知県",
      "prefecture_kana": "アイチケン",
      "prefecture_code": "23",
      "city": "稲沢市",
      "city_kana": "イナザワシ",
      "town": "平和町那古良",
      "town_kana": "ヘイワチョウナコラ",
      "street": null,
      "office_name": null,
      "office_name_kana": null
    },
    {
      "zip_code": "4901323",
      "prefecture": "愛知県",
      "prefecture_kana": "アイチケン",
      "prefecture_code": "23",
      "city": "稲沢市",
      "city_kana": "イナザワシ",
      "town": "平和町平六",
      "town_kana": "ヘイワチョウヘイロク",
      "street": null,
      "office_name": null,
      "office_name_kana": null
    },
    {
      "zip_code": "4901323",
      "prefecture": "愛知県",
      "prefecture_kana": "アイチケン",
      "prefecture_code": "23",
      "city": "稲沢市",
      "city_kana": "イナザワシ",
      "town": "平和町前平",
      "town_kana": "ヘイワチョウマエヒラ",
      "street": null,
      "office_name": null,
      "office_name_kana": null
    },
    {
      "zip_code": "4901323",
      "prefecture": "愛知県",
      "prefecture_kana": "アイチケン",
      "prefecture_code": "23",
      "city": "稲沢市",
      "city_kana": "イナザワシ",
      "town": "平和町明和",
      "town_kana": "ヘイワチョウメイワ",
      "street": null,
      "office_name": null,
      "office_name_kana": null
    },
    {
      "zip_code": "4901323",
      "prefecture": "愛知県",
      "prefecture_kana": "アイチケン",
      "prefecture_code": "23",
      "city": "稲沢市",
      "city_kana": "イナザワシ",
      "town": "平和町嫁振",
      "town_kana": "ヘイワチョウヨメフリ",
      "street": null,
      "office_name": null,
      "office_name_kana": null
    },
    {
      "zip_code": "4901323",
      "prefecture": "愛知県",
      "prefecture_kana": "アイチケン",
      "prefecture_code": "23",
      "city": "稲沢市",
      "city_kana": "イナザワシ",
      "town": "平和町嫁振北",
      "town_kana": "ヘイワチョウヨメフリキタ",
      "street": null,
      "office_name": null,
      "office_name_kana": null
    },
    {
      "zip_code": "4901323",
      "prefecture": "愛知県",
      "prefecture_kana": "アイチケン",
      "prefecture_code": "23",
      "city": "稲沢市",
      "city_kana": "イナザワシ",
      "town": "平和町嫁振東",
      "town_kana": "ヘイワチョウヨメフリヒガシ",
      "street": null,
      "office_name": null,
      "office_name_kana": null
    },
    {
      "zip_code": "4901323",
      "prefecture": "愛知県",
      "prefecture_kana": "アイチケン",
      "prefecture_code": "23",
      "city": "稲沢市",
      "city_kana": "イナザワシ",
      "town": "平和町領内",
      "town_kana": "ヘイワチョウリョウナイ",
      "street": null,
      "office_name": null,
      "office_name_kana": null
    }
  ],
  "1392": {
    "zip_code": "4901392",
    "prefecture": "愛知県",
    "prefecture_kana": "アイチケン",
    "prefecture_code": "23",
    "city": "稲沢市",
    "city_kana": "イナザワシ",
    "town": "平和町横池",
    "town_kana": "ヘイワチョウヨコイケ",
    "street": "中之町１３８",
    "office_name": "愛知県稲沢市　平和支所",
    "office_name_kana": "アイチケンイナザワシ ヘイワシシヨ"
  },
  "1400": {
    "zip_code": "4901400",
    "prefecture": "愛知県",
    "prefecture_kana": "アイチケン",
    "prefecture_code": "23",
    "city": "海部郡飛島村",
    "city_kana": "アマグントビシマムラ",
    "town": "",
    "town_kana": "",
    "street": null,
    "office_name": null,
    "office_name_kana": null
  },
  "1401": {
    "zip_code": "4901401",
    "prefecture": "愛知県",
    "prefecture_kana": "アイチケン",
    "prefecture_code": "23",
    "city": "弥富市",
    "city_kana": "ヤトミシ",
    "town": "六條町",
    "town_kana": "ロクジョウチョウ",
    "street": null,
    "office_name": null,
    "office_name_kana": null
  },
  "1402": {
    "zip_code": "4901402",
    "prefecture": "愛知県",
    "prefecture_kana": "アイチケン",
    "prefecture_code": "23",
    "city": "弥富市",
    "city_kana": "ヤトミシ",
    "town": "五斗山",
    "town_kana": "ゴトヤマ",
    "street": null,
    "office_name": null,
    "office_name_kana": null
  },
  "1403": [
    {
      "zip_code": "4901403",
      "prefecture": "愛知県",
      "prefecture_kana": "アイチケン",
      "prefecture_code": "23",
      "city": "弥富市",
      "city_kana": "ヤトミシ",
      "town": "鳥ケ地",
      "town_kana": "トリガンジ",
      "street": null,
      "office_name": null,
      "office_name_kana": null
    },
    {
      "zip_code": "4901403",
      "prefecture": "愛知県",
      "prefecture_kana": "アイチケン",
      "prefecture_code": "23",
      "city": "弥富市",
      "city_kana": "ヤトミシ",
      "town": "鳥ケ地町",
      "town_kana": "トリガンジチョウ",
      "street": null,
      "office_name": null,
      "office_name_kana": null
    }
  ],
  "1404": {
    "zip_code": "4901404",
    "prefecture": "愛知県",
    "prefecture_kana": "アイチケン",
    "prefecture_code": "23",
    "city": "弥富市",
    "city_kana": "ヤトミシ",
    "town": "桴場",
    "town_kana": "イカダバ",
    "street": null,
    "office_name": null,
    "office_name_kana": null
  },
  "1405": [
    {
      "zip_code": "4901405",
      "prefecture": "愛知県",
      "prefecture_kana": "アイチケン",
      "prefecture_code": "23",
      "city": "弥富市",
      "city_kana": "ヤトミシ",
      "town": "神戸",
      "town_kana": "カンド",
      "street": null,
      "office_name": null,
      "office_name_kana": null
    },
    {
      "zip_code": "4901405",
      "prefecture": "愛知県",
      "prefecture_kana": "アイチケン",
      "prefecture_code": "23",
      "city": "弥富市",
      "city_kana": "ヤトミシ",
      "town": "神戸町",
      "town_kana": "カンドチョウ",
      "street": null,
      "office_name": null,
      "office_name_kana": null
    }
  ],
  "1406": {
    "zip_code": "4901406",
    "prefecture": "愛知県",
    "prefecture_kana": "アイチケン",
    "prefecture_code": "23",
    "city": "弥富市",
    "city_kana": "ヤトミシ",
    "town": "鍋平",
    "town_kana": "ナベヒラ",
    "street": null,
    "office_name": null,
    "office_name_kana": null
  },
  "1407": {
    "zip_code": "4901407",
    "prefecture": "愛知県",
    "prefecture_kana": "アイチケン",
    "prefecture_code": "23",
    "city": "弥富市",
    "city_kana": "ヤトミシ",
    "town": "三百島",
    "town_kana": "サンビャクジマ",
    "street": null,
    "office_name": null,
    "office_name_kana": null
  },
  "1411": {
    "zip_code": "4901411",
    "prefecture": "愛知県",
    "prefecture_kana": "アイチケン",
    "prefecture_code": "23",
    "city": "弥富市",
    "city_kana": "ヤトミシ",
    "town": "善太町",
    "town_kana": "ゼンタチョウ",
    "street": null,
    "office_name": null,
    "office_name_kana": null
  },
  "1412": {
    "zip_code": "4901412",
    "prefecture": "愛知県",
    "prefecture_kana": "アイチケン",
    "prefecture_code": "23",
    "city": "弥富市",
    "city_kana": "ヤトミシ",
    "town": "馬ケ地",
    "town_kana": "ウマガンジ",
    "street": null,
    "office_name": null,
    "office_name_kana": null
  },
  "1413": [
    {
      "zip_code": "4901413",
      "prefecture": "愛知県",
      "prefecture_kana": "アイチケン",
      "prefecture_code": "23",
      "city": "弥富市",
      "city_kana": "ヤトミシ",
      "town": "子宝",
      "town_kana": "コダカラ",
      "street": null,
      "office_name": null,
      "office_name_kana": null
    },
    {
      "zip_code": "4901413",
      "prefecture": "愛知県",
      "prefecture_kana": "アイチケン",
      "prefecture_code": "23",
      "city": "弥富市",
      "city_kana": "ヤトミシ",
      "town": "子宝町",
      "town_kana": "コダカラチョウ",
      "street": null,
      "office_name": null,
      "office_name_kana": null
    }
  ],
  "1414": [
    {
      "zip_code": "4901414",
      "prefecture": "愛知県",
      "prefecture_kana": "アイチケン",
      "prefecture_code": "23",
      "city": "弥富市",
      "city_kana": "ヤトミシ",
      "town": "坂中地",
      "town_kana": "サカナカジ",
      "street": null,
      "office_name": null,
      "office_name_kana": null
    },
    {
      "zip_code": "4901414",
      "prefecture": "愛知県",
      "prefecture_kana": "アイチケン",
      "prefecture_code": "23",
      "city": "弥富市",
      "city_kana": "ヤトミシ",
      "town": "坂中地町",
      "town_kana": "サカナカジチョウ",
      "street": null,
      "office_name": null,
      "office_name_kana": null
    }
  ],
  "1415": [
    {
      "zip_code": "4901415",
      "prefecture": "愛知県",
      "prefecture_kana": "アイチケン",
      "prefecture_code": "23",
      "city": "弥富市",
      "city_kana": "ヤトミシ",
      "town": "鮫ケ地",
      "town_kana": "サメガンジ",
      "street": null,
      "office_name": null,
      "office_name_kana": null
    },
    {
      "zip_code": "4901415",
      "prefecture": "愛知県",
      "prefecture_kana": "アイチケン",
      "prefecture_code": "23",
      "city": "弥富市",
      "city_kana": "ヤトミシ",
      "town": "鮫ケ地町",
      "town_kana": "サメガンジチョウ",
      "street": null,
      "office_name": null,
      "office_name_kana": null
    }
  ],
  "1421": [
    {
      "zip_code": "4901421",
      "prefecture": "愛知県",
      "prefecture_kana": "アイチケン",
      "prefecture_code": "23",
      "city": "弥富市",
      "city_kana": "ヤトミシ",
      "town": "上押萩",
      "town_kana": "カミオシハギ",
      "street": null,
      "office_name": null,
      "office_name_kana": null
    },
    {
      "zip_code": "4901421",
      "prefecture": "愛知県",
      "prefecture_kana": "アイチケン",
      "prefecture_code": "23",
      "city": "弥富市",
      "city_kana": "ヤトミシ",
      "town": "上押萩町",
      "town_kana": "カミオシハギチョウ",
      "street": null,
      "office_name": null,
      "office_name_kana": null
    }
  ],
  "1422": [
    {
      "zip_code": "4901422",
      "prefecture": "愛知県",
      "prefecture_kana": "アイチケン",
      "prefecture_code": "23",
      "city": "弥富市",
      "city_kana": "ヤトミシ",
      "town": "下押萩",
      "town_kana": "シモオシハギ",
      "street": null,
      "office_name": null,
      "office_name_kana": null
    },
    {
      "zip_code": "4901422",
      "prefecture": "愛知県",
      "prefecture_kana": "アイチケン",
      "prefecture_code": "23",
      "city": "弥富市",
      "city_kana": "ヤトミシ",
      "town": "下押萩町",
      "town_kana": "シモオシハギチョウ",
      "street": null,
      "office_name": null,
      "office_name_kana": null
    }
  ],
  "1423": [
    {
      "zip_code": "4901423",
      "prefecture": "愛知県",
      "prefecture_kana": "アイチケン",
      "prefecture_code": "23",
      "city": "弥富市",
      "city_kana": "ヤトミシ",
      "town": "海屋",
      "town_kana": "カイオク",
      "street": null,
      "office_name": null,
      "office_name_kana": null
    },
    {
      "zip_code": "4901423",
      "prefecture": "愛知県",
      "prefecture_kana": "アイチケン",
      "prefecture_code": "23",
      "city": "弥富市",
      "city_kana": "ヤトミシ",
      "town": "海屋町",
      "town_kana": "カイオクチョウ",
      "street": null,
      "office_name": null,
      "office_name_kana": null
    }
  ],
  "1424": {
    "zip_code": "4901424",
    "prefecture": "愛知県",
    "prefecture_kana": "アイチケン",
    "prefecture_code": "23",
    "city": "弥富市",
    "city_kana": "ヤトミシ",
    "town": "亀ケ地",
    "town_kana": "カメガンジ",
    "street": null,
    "office_name": null,
    "office_name_kana": null
  },
  "1425": {
    "zip_code": "4901425",
    "prefecture": "愛知県",
    "prefecture_kana": "アイチケン",
    "prefecture_code": "23",
    "city": "弥富市",
    "city_kana": "ヤトミシ",
    "town": "東蜆",
    "town_kana": "ヒガシシジミ",
    "street": null,
    "office_name": null,
    "office_name_kana": null
  },
  "1426": [
    {
      "zip_code": "4901426",
      "prefecture": "愛知県",
      "prefecture_kana": "アイチケン",
      "prefecture_code": "23",
      "city": "弥富市",
      "city_kana": "ヤトミシ",
      "town": "四郎兵衛",
      "town_kana": "シロベエ",
      "street": null,
      "office_name": null,
      "office_name_kana": null
    },
    {
      "zip_code": "4901426",
      "prefecture": "愛知県",
      "prefecture_kana": "アイチケン",
      "prefecture_code": "23",
      "city": "弥富市",
      "city_kana": "ヤトミシ",
      "town": "四郎兵衛町",
      "town_kana": "シロベエチョウ",
      "street": null,
      "office_name": null,
      "office_name_kana": null
    }
  ],
  "1427": {
    "zip_code": "4901427",
    "prefecture": "愛知県",
    "prefecture_kana": "アイチケン",
    "prefecture_code": "23",
    "city": "弥富市",
    "city_kana": "ヤトミシ",
    "town": "西蜆",
    "town_kana": "ニシシジミ",
    "street": null,
    "office_name": null,
    "office_name_kana": null
  },
  "1428": {
    "zip_code": "4901428",
    "prefecture": "愛知県",
    "prefecture_kana": "アイチケン",
    "prefecture_code": "23",
    "city": "弥富市",
    "city_kana": "ヤトミシ",
    "town": "竹田",
    "town_kana": "タケタ",
    "street": null,
    "office_name": null,
    "office_name_kana": null
  },
  "1431": {
    "zip_code": "4901431",
    "prefecture": "愛知県",
    "prefecture_kana": "アイチケン",
    "prefecture_code": "23",
    "city": "海部郡飛島村",
    "city_kana": "アマグントビシマムラ",
    "town": "服岡",
    "town_kana": "フクオカ",
    "street": null,
    "office_name": null,
    "office_name_kana": null
  },
  "1432": {
    "zip_code": "4901432",
    "prefecture": "愛知県",
    "prefecture_kana": "アイチケン",
    "prefecture_code": "23",
    "city": "海部郡飛島村",
    "city_kana": "アマグントビシマムラ",
    "town": "三福",
    "town_kana": "ミフク",
    "street": null,
    "office_name": null,
    "office_name_kana": null
  },
  "1433": {
    "zip_code": "4901433",
    "prefecture": "愛知県",
    "prefecture_kana": "アイチケン",
    "prefecture_code": "23",
    "city": "海部郡飛島村",
    "city_kana": "アマグントビシマムラ",
    "town": "渚",
    "town_kana": "ナギサ",
    "street": null,
    "office_name": null,
    "office_name_kana": null
  },
  "1434": {
    "zip_code": "4901434",
    "prefecture": "愛知県",
    "prefecture_kana": "アイチケン",
    "prefecture_code": "23",
    "city": "海部郡飛島村",
    "city_kana": "アマグントビシマムラ",
    "town": "松之郷",
    "town_kana": "マツノゴウ",
    "street": null,
    "office_name": null,
    "office_name_kana": null
  },
  "1435": {
    "zip_code": "4901435",
    "prefecture": "愛知県",
    "prefecture_kana": "アイチケン",
    "prefecture_code": "23",
    "city": "海部郡飛島村",
    "city_kana": "アマグントビシマムラ",
    "town": "梅之郷",
    "town_kana": "ウメノゴウ",
    "street": null,
    "office_name": null,
    "office_name_kana": null
  },
  "1436": {
    "zip_code": "4901436",
    "prefecture": "愛知県",
    "prefecture_kana": "アイチケン",
    "prefecture_code": "23",
    "city": "海部郡飛島村",
    "city_kana": "アマグントビシマムラ",
    "town": "竹之郷",
    "town_kana": "タケノゴウ",
    "street": null,
    "office_name": null,
    "office_name_kana": null
  },
  "1437": [
    {
      "zip_code": "4901437",
      "prefecture": "愛知県",
      "prefecture_kana": "アイチケン",
      "prefecture_code": "23",
      "city": "海部郡飛島村",
      "city_kana": "アマグントビシマムラ",
      "town": "飛島新田",
      "town_kana": "トビシマシンデン",
      "street": null,
      "office_name": null,
      "office_name_kana": null
    },
    {
      "zip_code": "4901437",
      "prefecture": "愛知県",
      "prefecture_kana": "アイチケン",
      "prefecture_code": "23",
      "city": "海部郡飛島村",
      "city_kana": "アマグントビシマムラ",
      "town": "飛島新田元起之郷",
      "town_kana": "トビシマシンデンモトキノゴウ",
      "street": null,
      "office_name": null,
      "office_name_kana": null
    },
    {
      "zip_code": "4901437",
      "prefecture": "愛知県",
      "prefecture_kana": "アイチケン",
      "prefecture_code": "23",
      "city": "海部郡飛島村",
      "city_kana": "アマグントビシマムラ",
      "town": "元起",
      "town_kana": "モトキ",
      "street": null,
      "office_name": null,
      "office_name_kana": null
    }
  ],
  "1438": {
    "zip_code": "4901438",
    "prefecture": "愛知県",
    "prefecture_kana": "アイチケン",
    "prefecture_code": "23",
    "city": "海部郡飛島村",
    "city_kana": "アマグントビシマムラ",
    "town": "大宝",
    "town_kana": "オオダカラ",
    "street": null,
    "office_name": null,
    "office_name_kana": null
  },
  "1441": {
    "zip_code": "4901441",
    "prefecture": "愛知県",
    "prefecture_kana": "アイチケン",
    "prefecture_code": "23",
    "city": "海部郡飛島村",
    "city_kana": "アマグントビシマムラ",
    "town": "政成",
    "town_kana": "マサナリ",
    "street": null,
    "office_name": null,
    "office_name_kana": null
  },
  "1442": {
    "zip_code": "4901442",
    "prefecture": "愛知県",
    "prefecture_kana": "アイチケン",
    "prefecture_code": "23",
    "city": "海部郡飛島村",
    "city_kana": "アマグントビシマムラ",
    "town": "古政成",
    "town_kana": "コマサナリ",
    "street": null,
    "office_name": null,
    "office_name_kana": null
  },
  "1443": {
    "zip_code": "4901443",
    "prefecture": "愛知県",
    "prefecture_kana": "アイチケン",
    "prefecture_code": "23",
    "city": "海部郡飛島村",
    "city_kana": "アマグントビシマムラ",
    "town": "新政成",
    "town_kana": "シンマサナリ",
    "street": null,
    "office_name": null,
    "office_name_kana": null
  },
  "1444": {
    "zip_code": "4901444",
    "prefecture": "愛知県",
    "prefecture_kana": "アイチケン",
    "prefecture_code": "23",
    "city": "海部郡飛島村",
    "city_kana": "アマグントビシマムラ",
    "town": "木場",
    "town_kana": "キバ",
    "street": null,
    "office_name": null,
    "office_name_kana": null
  },
  "1445": {
    "zip_code": "4901445",
    "prefecture": "愛知県",
    "prefecture_kana": "アイチケン",
    "prefecture_code": "23",
    "city": "海部郡飛島村",
    "city_kana": "アマグントビシマムラ",
    "town": "金岡",
    "town_kana": "カナオカ",
    "street": null,
    "office_name": null,
    "office_name_kana": null
  },
  "1446": {
    "zip_code": "4901446",
    "prefecture": "愛知県",
    "prefecture_kana": "アイチケン",
    "prefecture_code": "23",
    "city": "海部郡飛島村",
    "city_kana": "アマグントビシマムラ",
    "town": "東浜",
    "town_kana": "ヒガシハマ",
    "street": null,
    "office_name": null,
    "office_name_kana": null
  },
  "1447": {
    "zip_code": "4901447",
    "prefecture": "愛知県",
    "prefecture_kana": "アイチケン",
    "prefecture_code": "23",
    "city": "海部郡飛島村",
    "city_kana": "アマグントビシマムラ",
    "town": "西浜",
    "town_kana": "ニシハマ",
    "street": null,
    "office_name": null,
    "office_name_kana": null
  }
}