{
  "0001": {
    "zip_code": "4940001",
    "prefecture": "愛知県",
    "prefecture_kana": "アイチケン",
    "prefecture_code": 23,
    "city": "一宮市",
    "city_kana": "イチノミヤシ",
    "town": "開明",
    "town_kana": "カイメイ",
    "street": null,
    "office_name": null,
    "office_name_kana": null
  },
  "0002": {
    "zip_code": "4940002",
    "prefecture": "愛知県",
    "prefecture_kana": "アイチケン",
    "prefecture_code": 23,
    "city": "一宮市",
    "city_kana": "イチノミヤシ",
    "town": "篭屋",
    "town_kana": "カゴヤ",
    "street": null,
    "office_name": null,
    "office_name_kana": null
  },
  "0003": {
    "zip_code": "4940003",
    "prefecture": "愛知県",
    "prefecture_kana": "アイチケン",
    "prefecture_code": 23,
    "city": "一宮市",
    "city_kana": "イチノミヤシ",
    "town": "三条",
    "town_kana": "サンジョウ",
    "street": null,
    "office_name": null,
    "office_name_kana": null
  },
  "0004": {
    "zip_code": "4940004",
    "prefecture": "愛知県",
    "prefecture_kana": "アイチケン",
    "prefecture_code": 23,
    "city": "一宮市",
    "city_kana": "イチノミヤシ",
    "town": "北今",
    "town_kana": "キタイマ",
    "street": null,
    "office_name": null,
    "office_name_kana": null
  },
  "0005": {
    "zip_code": "4940005",
    "prefecture": "愛知県",
    "prefecture_kana": "アイチケン",
    "prefecture_code": 23,
    "city": "一宮市",
    "city_kana": "イチノミヤシ",
    "town": "西五城",
    "town_kana": "ニシイツシロ",
    "street": null,
    "office_name": null,
    "office_name_kana": null
  },
  "0006": {
    "zip_code": "4940006",
    "prefecture": "愛知県",
    "prefecture_kana": "アイチケン",
    "prefecture_code": 23,
    "city": "一宮市",
    "city_kana": "イチノミヤシ",
    "town": "起",
    "town_kana": "オコシ",
    "street": null,
    "office_name": null,
    "office_name_kana": null
  },
  "0007": {
    "zip_code": "4940007",
    "prefecture": "愛知県",
    "prefecture_kana": "アイチケン",
    "prefecture_code": 23,
    "city": "一宮市",
    "city_kana": "イチノミヤシ",
    "town": "小信中島",
    "town_kana": "コノブナカシマ",
    "street": null,
    "office_name": null,
    "office_name_kana": null
  },
  "0008": {
    "zip_code": "4940008",
    "prefecture": "愛知県",
    "prefecture_kana": "アイチケン",
    "prefecture_code": 23,
    "city": "一宮市",
    "city_kana": "イチノミヤシ",
    "town": "東五城",
    "town_kana": "ヒガシイツシロ",
    "street": null,
    "office_name": null,
    "office_name_kana": null
  },
  "0011": {
    "zip_code": "4940011",
    "prefecture": "愛知県",
    "prefecture_kana": "アイチケン",
    "prefecture_code": 23,
    "city": "一宮市",
    "city_kana": "イチノミヤシ",
    "town": "西萩原",
    "town_kana": "ニシハギワラ",
    "street": null,
    "office_name": null,
    "office_name_kana": null
  },
  "0012": {
    "zip_code": "4940012",
    "prefecture": "愛知県",
    "prefecture_kana": "アイチケン",
    "prefecture_code": 23,
    "city": "一宮市",
    "city_kana": "イチノミヤシ",
    "town": "明地",
    "town_kana": "メイチ",
    "street": null,
    "office_name": null,
    "office_name_kana": null
  },
  "0013": {
    "zip_code": "4940013",
    "prefecture": "愛知県",
    "prefecture_kana": "アイチケン",
    "prefecture_code": 23,
    "city": "一宮市",
    "city_kana": "イチノミヤシ",
    "town": "玉野",
    "town_kana": "タマノ",
    "street": null,
    "office_name": null,
    "office_name_kana": null
  },
  "0014": {
    "zip_code": "4940014",
    "prefecture": "愛知県",
    "prefecture_kana": "アイチケン",
    "prefecture_code": 23,
    "city": "一宮市",
    "city_kana": "イチノミヤシ",
    "town": "上祖父江",
    "town_kana": "カミソブエ",
    "street": null,
    "office_name": null,
    "office_name_kana": null
  },
  "0015": {
    "zip_code": "4940015",
    "prefecture": "愛知県",
    "prefecture_kana": "アイチケン",
    "prefecture_code": 23,
    "city": "一宮市",
    "city_kana": "イチノミヤシ",
    "town": "西中野",
    "town_kana": "ニシナカノ",
    "street": null,
    "office_name": null,
    "office_name_kana": null
  },
  "0016": {
    "zip_code": "4940016",
    "prefecture": "愛知県",
    "prefecture_kana": "アイチケン",
    "prefecture_code": 23,
    "city": "一宮市",
    "city_kana": "イチノミヤシ",
    "town": "東加賀野井",
    "town_kana": "ヒガシカガノイ",
    "street": null,
    "office_name": null,
    "office_name_kana": null
  },
  "0017": {
    "zip_code": "4940017",
    "prefecture": "愛知県",
    "prefecture_kana": "アイチケン",
    "prefecture_code": 23,
    "city": "一宮市",
    "city_kana": "イチノミヤシ",
    "town": "祐久",
    "town_kana": "ユウク",
    "street": null,
    "office_name": null,
    "office_name_kana": null
  },
  "0018": {
    "zip_code": "4940018",
    "prefecture": "愛知県",
    "prefecture_kana": "アイチケン",
    "prefecture_code": 23,
    "city": "一宮市",
    "city_kana": "イチノミヤシ",
    "town": "冨田",
    "town_kana": "トミダ",
    "street": null,
    "office_name": null,
    "office_name_kana": null
  },
  "0019": {
    "zip_code": "4940019",
    "prefecture": "愛知県",
    "prefecture_kana": "アイチケン",
    "prefecture_code": 23,
    "city": "一宮市",
    "city_kana": "イチノミヤシ",
    "town": "蓮池",
    "town_kana": "ハスイケ",
    "street": null,
    "office_name": null,
    "office_name_kana": null
  },
  "8501": {
    "zip_code": "4948501",
    "prefecture": "愛知県",
    "prefecture_kana": "アイチケン",
    "prefecture_code": 23,
    "city": "一宮市",
    "city_kana": "イチノミヤシ",
    "town": "篭屋",
    "town_kana": "カゴヤ",
    "street": "５丁目１−１",
    "office_name": "株式会社　ソトー　本社",
    "office_name_kana": "カブシキガイシヤ ソト- ホンシヤ"
  },
  "8502": {
    "zip_code": "4948502",
    "prefecture": "愛知県",
    "prefecture_kana": "アイチケン",
    "prefecture_code": 23,
    "city": "一宮市",
    "city_kana": "イチノミヤシ",
    "town": "明地",
    "town_kana": "メイチ",
    "street": "字東下城４０",
    "office_name": "豊田合成　株式会社　尾西工場",
    "office_name_kana": "トヨダゴウセイ カブシキガイシヤ ビサイコウジヨウ"
  },
  "8505": {
    "zip_code": "4948505",
    "prefecture": "愛知県",
    "prefecture_kana": "アイチケン",
    "prefecture_code": 23,
    "city": "一宮市",
    "city_kana": "イチノミヤシ",
    "town": "冨田",
    "town_kana": "トミダ",
    "street": "１７７７",
    "office_name": "尾西市民病院",
    "office_name_kana": "ビサイシミンビヨウイン"
  },
  "8507": {
    "zip_code": "4948507",
    "prefecture": "愛知県",
    "prefecture_kana": "アイチケン",
    "prefecture_code": 23,
    "city": "一宮市",
    "city_kana": "イチノミヤシ",
    "town": "開明",
    "town_kana": "カイメイ",
    "street": "字杁先５",
    "office_name": "栗原産業　株式会社",
    "office_name_kana": "クリハラサンギヨウ カブシキガイシヤ"
  },
  "8511": {
    "zip_code": "4948511",
    "prefecture": "愛知県",
    "prefecture_kana": "アイチケン",
    "prefecture_code": 23,
    "city": "一宮市",
    "city_kana": "イチノミヤシ",
    "town": "玉野",
    "town_kana": "タマノ",
    "street": "字下新田３５",
    "office_name": "株式会社　山田ドビー",
    "office_name_kana": "カブシキガイシヤ ヤマダドビ-"
  },
  "8516": {
    "zip_code": "4948516",
    "prefecture": "愛知県",
    "prefecture_kana": "アイチケン",
    "prefecture_code": 23,
    "city": "一宮市",
    "city_kana": "イチノミヤシ",
    "town": "篭屋",
    "town_kana": "カゴヤ",
    "street": "５丁目８−１",
    "office_name": "株式会社　ソトー　第二事業部",
    "office_name_kana": "カブシキガイシヤ ソト- ダイニジギヨウブ"
  },
  "8601": {
    "zip_code": "4948601",
    "prefecture": "愛知県",
    "prefecture_kana": "アイチケン",
    "prefecture_code": 23,
    "city": "一宮市",
    "city_kana": "イチノミヤシ",
    "town": "東五城",
    "town_kana": "ヒガシイツシロ",
    "street": "字備前１２（尾西郵便局私書箱第６号）",
    "office_name": "一宮市役所　尾西庁舎",
    "office_name_kana": "イチノミヤシヤクシヨ ビサイチヨウシヤ"
  },
  "8611": {
    "zip_code": "4948611",
    "prefecture": "愛知県",
    "prefecture_kana": "アイチケン",
    "prefecture_code": 23,
    "city": "一宮市",
    "city_kana": "イチノミヤシ",
    "town": "篭屋",
    "town_kana": "カゴヤ",
    "street": "１丁目４−３（尾西郵便局私書箱第１６号）",
    "office_name": "尾西信用金庫",
    "office_name_kana": "ビサイシンヨウキンコ"
  },
  "8686": {
    "zip_code": "4948686",
    "prefecture": "愛知県",
    "prefecture_kana": "アイチケン",
    "prefecture_code": 23,
    "city": "一宮市",
    "city_kana": "イチノミヤシ",
    "town": "明地",
    "town_kana": "メイチ",
    "street": "字南茱之木２５−２（尾西郵便局私書箱第１８号）",
    "office_name": "加藤産業　株式会社　名古屋支店",
    "office_name_kana": "カトウサンギヨウ カブシキガイシヤ ナゴヤシテン"
  }
}