{
  "0001": {
    "zip_code": "4950001",
    "prefecture": "愛知県",
    "prefecture_kana": "アイチケン",
    "prefecture_code": 23,
    "city": "稲沢市",
    "city_kana": "イナザワシ",
    "town": "祖父江町祖父江",
    "town_kana": "ソブエチョウソブエ",
    "street": null,
    "office_name": null,
    "office_name_kana": null
  },
  "0002": {
    "zip_code": "4950002",
    "prefecture": "愛知県",
    "prefecture_kana": "アイチケン",
    "prefecture_code": 23,
    "city": "稲沢市",
    "city_kana": "イナザワシ",
    "town": "祖父江町山崎",
    "town_kana": "ソブエチョウヤマザキ",
    "street": null,
    "office_name": null,
    "office_name_kana": null
  },
  "0011": {
    "zip_code": "4950011",
    "prefecture": "愛知県",
    "prefecture_kana": "アイチケン",
    "prefecture_code": 23,
    "city": "稲沢市",
    "city_kana": "イナザワシ",
    "town": "祖父江町森上",
    "town_kana": "ソブエチョウモリカミ",
    "street": null,
    "office_name": null,
    "office_name_kana": null
  },
  "0012": {
    "zip_code": "4950012",
    "prefecture": "愛知県",
    "prefecture_kana": "アイチケン",
    "prefecture_code": 23,
    "city": "稲沢市",
    "city_kana": "イナザワシ",
    "town": "祖父江町本甲",
    "town_kana": "ソブエチョウホンコウ",
    "street": null,
    "office_name": null,
    "office_name_kana": null
  },
  "0013": {
    "zip_code": "4950013",
    "prefecture": "愛知県",
    "prefecture_kana": "アイチケン",
    "prefecture_code": 23,
    "city": "稲沢市",
    "city_kana": "イナザワシ",
    "town": "祖父江町二俣",
    "town_kana": "ソブエチョウフタマタ",
    "street": null,
    "office_name": null,
    "office_name_kana": null
  },
  "0014": {
    "zip_code": "4950014",
    "prefecture": "愛知県",
    "prefecture_kana": "アイチケン",
    "prefecture_code": 23,
    "city": "稲沢市",
    "city_kana": "イナザワシ",
    "town": "祖父江町大牧",
    "town_kana": "ソブエチョウオオマキ",
    "street": null,
    "office_name": null,
    "office_name_kana": null
  },
  "0015": {
    "zip_code": "4950015",
    "prefecture": "愛知県",
    "prefecture_kana": "アイチケン",
    "prefecture_code": 23,
    "city": "稲沢市",
    "city_kana": "イナザワシ",
    "town": "祖父江町桜方",
    "town_kana": "ソブエチョウサクラガタ",
    "street": null,
    "office_name": null,
    "office_name_kana": null
  },
  "0021": {
    "zip_code": "4950021",
    "prefecture": "愛知県",
    "prefecture_kana": "アイチケン",
    "prefecture_code": 23,
    "city": "稲沢市",
    "city_kana": "イナザワシ",
    "town": "祖父江町三丸渕",
    "town_kana": "ソブエチョウサンマルブチ",
    "street": null,
    "office_name": null,
    "office_name_kana": null
  },
  "0022": {
    "zip_code": "4950022",
    "prefecture": "愛知県",
    "prefecture_kana": "アイチケン",
    "prefecture_code": 23,
    "city": "稲沢市",
    "city_kana": "イナザワシ",
    "town": "祖父江町甲新田",
    "town_kana": "ソブエチョウカブトシンデン",
    "street": null,
    "office_name": null,
    "office_name_kana": null
  },
  "0023": {
    "zip_code": "4950023",
    "prefecture": "愛知県",
    "prefecture_kana": "アイチケン",
    "prefecture_code": 23,
    "city": "稲沢市",
    "city_kana": "イナザワシ",
    "town": "祖父江町島本",
    "town_kana": "ソブエチョウシマモト",
    "street": null,
    "office_name": null,
    "office_name_kana": null
  },
  "0024": {
    "zip_code": "4950024",
    "prefecture": "愛知県",
    "prefecture_kana": "アイチケン",
    "prefecture_code": 23,
    "city": "稲沢市",
    "city_kana": "イナザワシ",
    "town": "祖父江町野田",
    "town_kana": "ソブエチョウノダ",
    "street": null,
    "office_name": null,
    "office_name_kana": null
  },
  "0025": {
    "zip_code": "4950025",
    "prefecture": "愛知県",
    "prefecture_kana": "アイチケン",
    "prefecture_code": 23,
    "city": "稲沢市",
    "city_kana": "イナザワシ",
    "town": "祖父江町両寺内",
    "town_kana": "ソブエチョウリョウジナイ",
    "street": null,
    "office_name": null,
    "office_name_kana": null
  },
  "0031": {
    "zip_code": "4950031",
    "prefecture": "愛知県",
    "prefecture_kana": "アイチケン",
    "prefecture_code": 23,
    "city": "稲沢市",
    "city_kana": "イナザワシ",
    "town": "祖父江町上牧",
    "town_kana": "ソブエチョウカンマキ",
    "street": null,
    "office_name": null,
    "office_name_kana": null
  },
  "0032": {
    "zip_code": "4950032",
    "prefecture": "愛知県",
    "prefecture_kana": "アイチケン",
    "prefecture_code": 23,
    "city": "稲沢市",
    "city_kana": "イナザワシ",
    "town": "祖父江町中牧",
    "town_kana": "ソブエチョウナカマキ",
    "street": null,
    "office_name": null,
    "office_name_kana": null
  },
  "0033": {
    "zip_code": "4950033",
    "prefecture": "愛知県",
    "prefecture_kana": "アイチケン",
    "prefecture_code": 23,
    "city": "稲沢市",
    "city_kana": "イナザワシ",
    "town": "祖父江町四貫",
    "town_kana": "ソブエチョウヨツノキ",
    "street": null,
    "office_name": null,
    "office_name_kana": null
  },
  "0034": {
    "zip_code": "4950034",
    "prefecture": "愛知県",
    "prefecture_kana": "アイチケン",
    "prefecture_code": 23,
    "city": "稲沢市",
    "city_kana": "イナザワシ",
    "town": "祖父江町西鵜之本",
    "town_kana": "ソブエチョウニシウノモト",
    "street": null,
    "office_name": null,
    "office_name_kana": null
  },
  "0035": {
    "zip_code": "4950035",
    "prefecture": "愛知県",
    "prefecture_kana": "アイチケン",
    "prefecture_code": 23,
    "city": "稲沢市",
    "city_kana": "イナザワシ",
    "town": "祖父江町神明津",
    "town_kana": "ソブエチョウシンミョウヅ",
    "street": null,
    "office_name": null,
    "office_name_kana": null
  },
  "0036": {
    "zip_code": "4950036",
    "prefecture": "愛知県",
    "prefecture_kana": "アイチケン",
    "prefecture_code": 23,
    "city": "稲沢市",
    "city_kana": "イナザワシ",
    "town": "祖父江町馬飼",
    "town_kana": "ソブエチョウマカイ",
    "street": null,
    "office_name": null,
    "office_name_kana": null
  },
  "0037": {
    "zip_code": "4950037",
    "prefecture": "愛知県",
    "prefecture_kana": "アイチケン",
    "prefecture_code": 23,
    "city": "稲沢市",
    "city_kana": "イナザワシ",
    "town": "祖父江町拾町野",
    "town_kana": "ソブエチョウジッチョウノ",
    "street": null,
    "office_name": null,
    "office_name_kana": null
  },
  "8501": {
    "zip_code": "4958501",
    "prefecture": "愛知県",
    "prefecture_kana": "アイチケン",
    "prefecture_code": 23,
    "city": "稲沢市",
    "city_kana": "イナザワシ",
    "town": "祖父江町森上",
    "town_kana": "ソブエチョウモリカミ",
    "street": "本郷十一４番地１",
    "office_name": "アイコクアルファ　株式会社",
    "office_name_kana": "アイコクアルフア カブシキガイシヤ"
  },
  "8505": {
    "zip_code": "4958505",
    "prefecture": "愛知県",
    "prefecture_kana": "アイチケン",
    "prefecture_code": 23,
    "city": "稲沢市",
    "city_kana": "イナザワシ",
    "town": "祖父江町二俣",
    "town_kana": "ソブエチョウフタマタ",
    "street": "宮西１番地１",
    "office_name": "愛知県立　杏和高等学校",
    "office_name_kana": "アイチケンリツ キヨウワコウトウガツコウ"
  },
  "8510": {
    "zip_code": "4958510",
    "prefecture": "愛知県",
    "prefecture_kana": "アイチケン",
    "prefecture_code": 23,
    "city": "稲沢市",
    "city_kana": "イナザワシ",
    "town": "祖父江町四貫",
    "town_kana": "ソブエチョウヨツノキ",
    "street": "堤外２２番地",
    "office_name": "帝人テクロス　株式会社",
    "office_name_kana": "テイジンテクロス カブシキガイシヤ"
  },
  "8511": {
    "zip_code": "4958511",
    "prefecture": "愛知県",
    "prefecture_kana": "アイチケン",
    "prefecture_code": 23,
    "city": "稲沢市",
    "city_kana": "イナザワシ",
    "town": "祖父江町上牧",
    "town_kana": "ソブエチョウカンマキ",
    "street": "下川田４５４番地",
    "office_name": "稲沢市　祖父江支所",
    "office_name_kana": "イナザワシ ソフエシシヨ"
  },
  "8517": {
    "zip_code": "4958517",
    "prefecture": "愛知県",
    "prefecture_kana": "アイチケン",
    "prefecture_code": 23,
    "city": "稲沢市",
    "city_kana": "イナザワシ",
    "town": "祖父江町甲新田",
    "town_kana": "ソブエチョウカブトシンデン",
    "street": "イ一９",
    "office_name": "株式会社　コメットカトウ",
    "office_name_kana": "カブシキガイシヤ コメツトカトウ"
  },
  "8531": {
    "zip_code": "4958531",
    "prefecture": "愛知県",
    "prefecture_kana": "アイチケン",
    "prefecture_code": 23,
    "city": "稲沢市",
    "city_kana": "イナザワシ",
    "town": "祖父江町本甲",
    "town_kana": "ソブエチョウホンコウ",
    "street": "拾町野７番地",
    "office_name": "愛知県　厚生連　尾西病院",
    "office_name_kana": "アイチケン コウセイレン ビサイビヨウイン"
  },
  "8601": {
    "zip_code": "4958601",
    "prefecture": "愛知県",
    "prefecture_kana": "アイチケン",
    "prefecture_code": 23,
    "city": "稲沢市",
    "city_kana": "イナザワシ",
    "town": "祖父江町祖父江",
    "town_kana": "ソブエチョウソブエ",
    "street": "外平１５０番地（祖父江郵便局私書箱第２号）",
    "office_name": "王子板紙　株式会社　祖父江工場",
    "office_name_kana": "オウジイタガミ カブシキガイシヤ ソフエコウジヨウ"
  }
}