{
  "0000": {
    "zip_code": "5040000",
    "prefecture": "岐阜県",
    "prefecture_kana": "ギフケン",
    "prefecture_code": 21,
    "city": "各務原市",
    "city_kana": "カカミガハラシ",
    "town": "",
    "town_kana": "",
    "street": null,
    "office_name": null,
    "office_name_kana": null
  },
  "0001": {
    "zip_code": "5040001",
    "prefecture": "岐阜県",
    "prefecture_kana": "ギフケン",
    "prefecture_code": 21,
    "city": "各務原市",
    "city_kana": "カカミガハラシ",
    "town": "那加大洞",
    "town_kana": "ナカオオボラ",
    "street": null,
    "office_name": null,
    "office_name_kana": null
  },
  "0002": {
    "zip_code": "5040002",
    "prefecture": "岐阜県",
    "prefecture_kana": "ギフケン",
    "prefecture_code": 21,
    "city": "各務原市",
    "city_kana": "カカミガハラシ",
    "town": "尾崎北町",
    "town_kana": "オザキキタマチ",
    "street": null,
    "office_name": null,
    "office_name_kana": null
  },
  "0003": {
    "zip_code": "5040003",
    "prefecture": "岐阜県",
    "prefecture_kana": "ギフケン",
    "prefecture_code": 21,
    "city": "各務原市",
    "city_kana": "カカミガハラシ",
    "town": "尾崎南町",
    "town_kana": "オザキミナミマチ",
    "street": null,
    "office_name": null,
    "office_name_kana": null
  },
  "0004": {
    "zip_code": "5040004",
    "prefecture": "岐阜県",
    "prefecture_kana": "ギフケン",
    "prefecture_code": 21,
    "city": "各務原市",
    "city_kana": "カカミガハラシ",
    "town": "尾崎西町",
    "town_kana": "オザキニシマチ",
    "street": null,
    "office_name": null,
    "office_name_kana": null
  },
  "0005": {
    "zip_code": "5040005",
    "prefecture": "岐阜県",
    "prefecture_kana": "ギフケン",
    "prefecture_code": 21,
    "city": "各務原市",
    "city_kana": "カカミガハラシ",
    "town": "那加柄山町",
    "town_kana": "ナカカラヤマチョウ",
    "street": null,
    "office_name": null,
    "office_name_kana": null
  },
  "0006": {
    "zip_code": "5040006",
    "prefecture": "岐阜県",
    "prefecture_kana": "ギフケン",
    "prefecture_code": 21,
    "city": "各務原市",
    "city_kana": "カカミガハラシ",
    "town": "那加琴が丘町",
    "town_kana": "ナカコトガオカチョウ",
    "street": null,
    "office_name": null,
    "office_name_kana": null
  },
  "0007": {
    "zip_code": "5040007",
    "prefecture": "岐阜県",
    "prefecture_kana": "ギフケン",
    "prefecture_code": 21,
    "city": "各務原市",
    "city_kana": "カカミガハラシ",
    "town": "那加芦原町",
    "town_kana": "ナカアワラチョウ",
    "street": null,
    "office_name": null,
    "office_name_kana": null
  },
  "0008": {
    "zip_code": "5040008",
    "prefecture": "岐阜県",
    "prefecture_kana": "ギフケン",
    "prefecture_code": 21,
    "city": "各務原市",
    "city_kana": "カカミガハラシ",
    "town": "那加桐野町",
    "town_kana": "ナカキリノチョウ",
    "street": null,
    "office_name": null,
    "office_name_kana": null
  },
  "0009": {
    "zip_code": "5040009",
    "prefecture": "岐阜県",
    "prefecture_kana": "ギフケン",
    "prefecture_code": 21,
    "city": "各務原市",
    "city_kana": "カカミガハラシ",
    "town": "那加扇平",
    "town_kana": "ナカオオギヒラ",
    "street": null,
    "office_name": null,
    "office_name_kana": null
  },
  "0011": {
    "zip_code": "5040011",
    "prefecture": "岐阜県",
    "prefecture_kana": "ギフケン",
    "prefecture_code": 21,
    "city": "各務原市",
    "city_kana": "カカミガハラシ",
    "town": "那加北洞町",
    "town_kana": "ナカキタボラチョウ",
    "street": null,
    "office_name": null,
    "office_name_kana": null
  },
  "0012": {
    "zip_code": "5040012",
    "prefecture": "岐阜県",
    "prefecture_kana": "ギフケン",
    "prefecture_code": 21,
    "city": "各務原市",
    "city_kana": "カカミガハラシ",
    "town": "蘇原宮代町",
    "town_kana": "ソハラミヤダイチョウ",
    "street": null,
    "office_name": null,
    "office_name_kana": null
  },
  "0013": {
    "zip_code": "5040013",
    "prefecture": "岐阜県",
    "prefecture_kana": "ギフケン",
    "prefecture_code": 21,
    "city": "各務原市",
    "city_kana": "カカミガハラシ",
    "town": "蘇原宮塚町",
    "town_kana": "ソハラミヤヅカチョウ",
    "street": null,
    "office_name": null,
    "office_name_kana": null
  },
  "0014": {
    "zip_code": "5040014",
    "prefecture": "岐阜県",
    "prefecture_kana": "ギフケン",
    "prefecture_code": 21,
    "city": "各務原市",
    "city_kana": "カカミガハラシ",
    "town": "那加山崎町",
    "town_kana": "ナカヤマザキチョウ",
    "street": null,
    "office_name": null,
    "office_name_kana": null
  },
  "0015": {
    "zip_code": "5040015",
    "prefecture": "岐阜県",
    "prefecture_kana": "ギフケン",
    "prefecture_code": 21,
    "city": "各務原市",
    "city_kana": "カカミガハラシ",
    "town": "那加東野町",
    "town_kana": "ナカヒガシノチョウ",
    "street": null,
    "office_name": null,
    "office_name_kana": null
  },
  "0016": {
    "zip_code": "5040016",
    "prefecture": "岐阜県",
    "prefecture_kana": "ギフケン",
    "prefecture_code": 21,
    "city": "各務原市",
    "city_kana": "カカミガハラシ",
    "town": "那加御屋敷町",
    "town_kana": "ナカオヤシキチョウ",
    "street": null,
    "office_name": null,
    "office_name_kana": null
  },
  "0017": {
    "zip_code": "5040017",
    "prefecture": "岐阜県",
    "prefecture_kana": "ギフケン",
    "prefecture_code": 21,
    "city": "各務原市",
    "city_kana": "カカミガハラシ",
    "town": "那加山下町",
    "town_kana": "ナカヤマシタチョウ",
    "street": null,
    "office_name": null,
    "office_name_kana": null
  },
  "0018": {
    "zip_code": "5040018",
    "prefecture": "岐阜県",
    "prefecture_kana": "ギフケン",
    "prefecture_code": 21,
    "city": "各務原市",
    "city_kana": "カカミガハラシ",
    "town": "那加西市場町",
    "town_kana": "ナカニシイチバチョウ",
    "street": null,
    "office_name": null,
    "office_name_kana": null
  },
  "0021": {
    "zip_code": "5040021",
    "prefecture": "岐阜県",
    "prefecture_kana": "ギフケン",
    "prefecture_code": 21,
    "city": "各務原市",
    "city_kana": "カカミガハラシ",
    "town": "那加前洞新町",
    "town_kana": "ナカマエボラシンマチ",
    "street": null,
    "office_name": null,
    "office_name_kana": null
  },
  "0022": {
    "zip_code": "5040022",
    "prefecture": "岐阜県",
    "prefecture_kana": "ギフケン",
    "prefecture_code": 21,
    "city": "各務原市",
    "city_kana": "カカミガハラシ",
    "town": "那加東亜町",
    "town_kana": "ナカトウアチョウ",
    "street": null,
    "office_name": null,
    "office_name_kana": null
  },
  "0023": {
    "zip_code": "5040023",
    "prefecture": "岐阜県",
    "prefecture_kana": "ギフケン",
    "prefecture_code": 21,
    "city": "各務原市",
    "city_kana": "カカミガハラシ",
    "town": "那加太平町",
    "town_kana": "ナカタイヘイチョウ",
    "street": null,
    "office_name": null,
    "office_name_kana": null
  },
  "0024": {
    "zip_code": "5040024",
    "prefecture": "岐阜県",
    "prefecture_kana": "ギフケン",
    "prefecture_code": 21,
    "city": "各務原市",
    "city_kana": "カカミガハラシ",
    "town": "那加幸町",
    "town_kana": "ナカサイワイチョウ",
    "street": null,
    "office_name": null,
    "office_name_kana": null
  },
  "0025": {
    "zip_code": "5040025",
    "prefecture": "岐阜県",
    "prefecture_kana": "ギフケン",
    "prefecture_code": 21,
    "city": "各務原市",
    "city_kana": "カカミガハラシ",
    "town": "那加野畑町",
    "town_kana": "ナカノバタチョウ",
    "street": null,
    "office_name": null,
    "office_name_kana": null
  },
  "0026": {
    "zip_code": "5040026",
    "prefecture": "岐阜県",
    "prefecture_kana": "ギフケン",
    "prefecture_code": 21,
    "city": "各務原市",
    "city_kana": "カカミガハラシ",
    "town": "那加前野町",
    "town_kana": "ナカマエノチョウ",
    "street": null,
    "office_name": null,
    "office_name_kana": null
  },
  "0031": {
    "zip_code": "5040031",
    "prefecture": "岐阜県",
    "prefecture_kana": "ギフケン",
    "prefecture_code": 21,
    "city": "各務原市",
    "city_kana": "カカミガハラシ",
    "town": "那加兼橋町",
    "town_kana": "ナカカネハシチョウ",
    "street": null,
    "office_name": null,
    "office_name_kana": null
  },
  "0032": {
    "zip_code": "5040032",
    "prefecture": "岐阜県",
    "prefecture_kana": "ギフケン",
    "prefecture_code": 21,
    "city": "各務原市",
    "city_kana": "カカミガハラシ",
    "town": "那加神田町",
    "town_kana": "ナカジンデンチョウ",
    "street": null,
    "office_name": null,
    "office_name_kana": null
  },
  "0033": {
    "zip_code": "5040033",
    "prefecture": "岐阜県",
    "prefecture_kana": "ギフケン",
    "prefecture_code": 21,
    "city": "各務原市",
    "city_kana": "カカミガハラシ",
    "town": "那加大谷町",
    "town_kana": "ナカオオタニチョウ",
    "street": null,
    "office_name": null,
    "office_name_kana": null
  },
  "0034": {
    "zip_code": "5040034",
    "prefecture": "岐阜県",
    "prefecture_kana": "ギフケン",
    "prefecture_code": 21,
    "city": "各務原市",
    "city_kana": "カカミガハラシ",
    "town": "那加浜見町",
    "town_kana": "ナカハマミチョウ",
    "street": null,
    "office_name": null,
    "office_name_kana": null
  },
  "0035": {
    "zip_code": "5040035",
    "prefecture": "岐阜県",
    "prefecture_kana": "ギフケン",
    "prefecture_code": 21,
    "city": "各務原市",
    "city_kana": "カカミガハラシ",
    "town": "那加宮浦町",
    "town_kana": "ナカミヤウラチョウ",
    "street": null,
    "office_name": null,
    "office_name_kana": null
  },
  "0036": {
    "zip_code": "5040036",
    "prefecture": "岐阜県",
    "prefecture_kana": "ギフケン",
    "prefecture_code": 21,
    "city": "各務原市",
    "city_kana": "カカミガハラシ",
    "town": "那加荒田町",
    "town_kana": "ナカアラタチョウ",
    "street": null,
    "office_name": null,
    "office_name_kana": null
  },
  "0037": {
    "zip_code": "5040037",
    "prefecture": "岐阜県",
    "prefecture_kana": "ギフケン",
    "prefecture_code": 21,
    "city": "各務原市",
    "city_kana": "カカミガハラシ",
    "town": "那加五反田町",
    "town_kana": "ナカゴタンダチョウ",
    "street": null,
    "office_name": null,
    "office_name_kana": null
  },
  "0038": {
    "zip_code": "5040038",
    "prefecture": "岐阜県",
    "prefecture_kana": "ギフケン",
    "prefecture_code": 21,
    "city": "各務原市",
    "city_kana": "カカミガハラシ",
    "town": "那加大門町",
    "town_kana": "ナカダイモンチョウ",
    "street": null,
    "office_name": null,
    "office_name_kana": null
  },
  "0041": {
    "zip_code": "5040041",
    "prefecture": "岐阜県",
    "prefecture_kana": "ギフケン",
    "prefecture_code": 21,
    "city": "各務原市",
    "city_kana": "カカミガハラシ",
    "town": "那加土山町",
    "town_kana": "ナカドヤマチョウ",
    "street": null,
    "office_name": null,
    "office_name_kana": null
  },
  "0042": {
    "zip_code": "5040042",
    "prefecture": "岐阜県",
    "prefecture_kana": "ギフケン",
    "prefecture_code": 21,
    "city": "各務原市",
    "city_kana": "カカミガハラシ",
    "town": "那加山後町",
    "town_kana": "ナカヤマウシロチョウ",
    "street": null,
    "office_name": null,
    "office_name_kana": null
  },
  "0043": {
    "zip_code": "5040043",
    "prefecture": "岐阜県",
    "prefecture_kana": "ギフケン",
    "prefecture_code": 21,
    "city": "各務原市",
    "city_kana": "カカミガハラシ",
    "town": "那加手力町",
    "town_kana": "ナカテヂカラチョウ",
    "street": null,
    "office_name": null,
    "office_name_kana": null
  },
  "0044": {
    "zip_code": "5040044",
    "prefecture": "岐阜県",
    "prefecture_kana": "ギフケン",
    "prefecture_code": 21,
    "city": "各務原市",
    "city_kana": "カカミガハラシ",
    "town": "那加石山町",
    "town_kana": "ナカイシヤマチョウ",
    "street": null,
    "office_name": null,
    "office_name_kana": null
  },
  "0045": {
    "zip_code": "5040045",
    "prefecture": "岐阜県",
    "prefecture_kana": "ギフケン",
    "prefecture_code": 21,
    "city": "各務原市",
    "city_kana": "カカミガハラシ",
    "town": "那加新田町",
    "town_kana": "ナカシンデンチョウ",
    "street": null,
    "office_name": null,
    "office_name_kana": null
  },
  "0046": {
    "zip_code": "5040046",
    "prefecture": "岐阜県",
    "prefecture_kana": "ギフケン",
    "prefecture_code": 21,
    "city": "各務原市",
    "city_kana": "カカミガハラシ",
    "town": "那加長塚町",
    "town_kana": "ナカナガツカチョウ",
    "street": null,
    "office_name": null,
    "office_name_kana": null
  },
  "0047": {
    "zip_code": "5040047",
    "prefecture": "岐阜県",
    "prefecture_kana": "ギフケン",
    "prefecture_code": 21,
    "city": "各務原市",
    "city_kana": "カカミガハラシ",
    "town": "那加岩地町",
    "town_kana": "ナカイワチチョウ",
    "street": null,
    "office_name": null,
    "office_name_kana": null
  },
  "0801": {
    "zip_code": "5040801",
    "prefecture": "岐阜県",
    "prefecture_kana": "ギフケン",
    "prefecture_code": 21,
    "city": "各務原市",
    "city_kana": "カカミガハラシ",
    "town": "蘇原北山町",
    "town_kana": "ソハラキタヤマチョウ",
    "street": null,
    "office_name": null,
    "office_name_kana": null
  },
  "0802": {
    "zip_code": "5040802",
    "prefecture": "岐阜県",
    "prefecture_kana": "ギフケン",
    "prefecture_code": 21,
    "city": "各務原市",
    "city_kana": "カカミガハラシ",
    "town": "蘇原持田町",
    "town_kana": "ソハラモチダチョウ",
    "street": null,
    "office_name": null,
    "office_name_kana": null
  },
  "0803": {
    "zip_code": "5040803",
    "prefecture": "岐阜県",
    "prefecture_kana": "ギフケン",
    "prefecture_code": 21,
    "city": "各務原市",
    "city_kana": "カカミガハラシ",
    "town": "蘇原東門町",
    "town_kana": "ソハラトウモンチョウ",
    "street": null,
    "office_name": null,
    "office_name_kana": null
  },
  "0804": {
    "zip_code": "5040804",
    "prefecture": "岐阜県",
    "prefecture_kana": "ギフケン",
    "prefecture_code": 21,
    "city": "各務原市",
    "city_kana": "カカミガハラシ",
    "town": "蘇原新生町",
    "town_kana": "ソハラシンセイチョウ",
    "street": null,
    "office_name": null,
    "office_name_kana": null
  },
  "0805": {
    "zip_code": "5040805",
    "prefecture": "岐阜県",
    "prefecture_kana": "ギフケン",
    "prefecture_code": 21,
    "city": "各務原市",
    "city_kana": "カカミガハラシ",
    "town": "蘇原昭栄町",
    "town_kana": "ソハラショウエイチョウ",
    "street": null,
    "office_name": null,
    "office_name_kana": null
  },
  "0806": {
    "zip_code": "5040806",
    "prefecture": "岐阜県",
    "prefecture_kana": "ギフケン",
    "prefecture_code": 21,
    "city": "各務原市",
    "city_kana": "カカミガハラシ",
    "town": "蘇原外山町",
    "town_kana": "ソハラトヤマチョウ",
    "street": null,
    "office_name": null,
    "office_name_kana": null
  },
  "0807": {
    "zip_code": "5040807",
    "prefecture": "岐阜県",
    "prefecture_kana": "ギフケン",
    "prefecture_code": 21,
    "city": "各務原市",
    "city_kana": "カカミガハラシ",
    "town": "蘇原清住町",
    "town_kana": "ソハラキヨズミチョウ",
    "street": null,
    "office_name": null,
    "office_name_kana": null
  },
  "0808": {
    "zip_code": "5040808",
    "prefecture": "岐阜県",
    "prefecture_kana": "ギフケン",
    "prefecture_code": 21,
    "city": "各務原市",
    "city_kana": "カカミガハラシ",
    "town": "蘇原飛鳥町",
    "town_kana": "ソハラアズカチョウ",
    "street": null,
    "office_name": null,
    "office_name_kana": null
  },
  "0809": {
    "zip_code": "5040809",
    "prefecture": "岐阜県",
    "prefecture_kana": "ギフケン",
    "prefecture_code": 21,
    "city": "各務原市",
    "city_kana": "カカミガハラシ",
    "town": "蘇原北陽町",
    "town_kana": "ソハラホクヨウチョウ",
    "street": null,
    "office_name": null,
    "office_name_kana": null
  },
  "0811": {
    "zip_code": "5040811",
    "prefecture": "岐阜県",
    "prefecture_kana": "ギフケン",
    "prefecture_code": 21,
    "city": "各務原市",
    "city_kana": "カカミガハラシ",
    "town": "蘇原和合町",
    "town_kana": "ソハラワゴウチョウ",
    "street": null,
    "office_name": null,
    "office_name_kana": null
  },
  "0812": {
    "zip_code": "5040812",
    "prefecture": "岐阜県",
    "prefecture_kana": "ギフケン",
    "prefecture_code": 21,
    "city": "各務原市",
    "city_kana": "カカミガハラシ",
    "town": "蘇原坂井町",
    "town_kana": "ソハラサカイチョウ",
    "street": null,
    "office_name": null,
    "office_name_kana": null
  },
  "0813": {
    "zip_code": "5040813",
    "prefecture": "岐阜県",
    "prefecture_kana": "ギフケン",
    "prefecture_code": 21,
    "city": "各務原市",
    "city_kana": "カカミガハラシ",
    "town": "蘇原中央町",
    "town_kana": "ソハラチュウオウチョウ",
    "street": null,
    "office_name": null,
    "office_name_kana": null
  },
  "0814": {
    "zip_code": "5040814",
    "prefecture": "岐阜県",
    "prefecture_kana": "ギフケン",
    "prefecture_code": 21,
    "city": "各務原市",
    "city_kana": "カカミガハラシ",
    "town": "蘇原興亜町",
    "town_kana": "ソハラコウアマチ",
    "street": null,
    "office_name": null,
    "office_name_kana": null
  },
  "0815": {
    "zip_code": "5040815",
    "prefecture": "岐阜県",
    "prefecture_kana": "ギフケン",
    "prefecture_code": 21,
    "city": "各務原市",
    "city_kana": "カカミガハラシ",
    "town": "蘇原東栄町",
    "town_kana": "ソハラトウエイチョウ",
    "street": null,
    "office_name": null,
    "office_name_kana": null
  },
  "0816": {
    "zip_code": "5040816",
    "prefecture": "岐阜県",
    "prefecture_kana": "ギフケン",
    "prefecture_code": 21,
    "city": "各務原市",
    "city_kana": "カカミガハラシ",
    "town": "蘇原東島町",
    "town_kana": "ソハラヒガシジマチョウ",
    "street": null,
    "office_name": null,
    "office_name_kana": null
  },
  "0821": {
    "zip_code": "5040821",
    "prefecture": "岐阜県",
    "prefecture_kana": "ギフケン",
    "prefecture_code": 21,
    "city": "各務原市",
    "city_kana": "カカミガハラシ",
    "town": "蘇原瑞雲町",
    "town_kana": "ソハラズイウンチョウ",
    "street": null,
    "office_name": null,
    "office_name_kana": null
  },
  "0822": {
    "zip_code": "5040822",
    "prefecture": "岐阜県",
    "prefecture_kana": "ギフケン",
    "prefecture_code": 21,
    "city": "各務原市",
    "city_kana": "カカミガハラシ",
    "town": "蘇原栄町",
    "town_kana": "ソハラサカエマチ",
    "street": null,
    "office_name": null,
    "office_name_kana": null
  },
  "0823": {
    "zip_code": "5040823",
    "prefecture": "岐阜県",
    "prefecture_kana": "ギフケン",
    "prefecture_code": 21,
    "city": "各務原市",
    "city_kana": "カカミガハラシ",
    "town": "蘇原菊園町",
    "town_kana": "ソハラキクゾノチョウ",
    "street": null,
    "office_name": null,
    "office_name_kana": null
  },
  "0824": {
    "zip_code": "5040824",
    "prefecture": "岐阜県",
    "prefecture_kana": "ギフケン",
    "prefecture_code": 21,
    "city": "各務原市",
    "city_kana": "カカミガハラシ",
    "town": "蘇原旭町",
    "town_kana": "ソハラアサヒマチ",
    "street": null,
    "office_name": null,
    "office_name_kana": null
  },
  "0825": {
    "zip_code": "5040825",
    "prefecture": "岐阜県",
    "prefecture_kana": "ギフケン",
    "prefecture_code": 21,
    "city": "各務原市",
    "city_kana": "カカミガハラシ",
    "town": "蘇原柿沢町",
    "town_kana": "ソハラカキザワチョウ",
    "street": null,
    "office_name": null,
    "office_name_kana": null
  },
  "0826": {
    "zip_code": "5040826",
    "prefecture": "岐阜県",
    "prefecture_kana": "ギフケン",
    "prefecture_code": 21,
    "city": "各務原市",
    "city_kana": "カカミガハラシ",
    "town": "蘇原早苗町",
    "town_kana": "ソハラサナエチョウ",
    "street": null,
    "office_name": null,
    "office_name_kana": null
  },
  "0827": {
    "zip_code": "5040827",
    "prefecture": "岐阜県",
    "prefecture_kana": "ギフケン",
    "prefecture_code": 21,
    "city": "各務原市",
    "city_kana": "カカミガハラシ",
    "town": "蘇原沢上町",
    "town_kana": "ソハラサワガミチョウ",
    "street": null,
    "office_name": null,
    "office_name_kana": null
  },
  "0828": {
    "zip_code": "5040828",
    "prefecture": "岐阜県",
    "prefecture_kana": "ギフケン",
    "prefecture_code": 21,
    "city": "各務原市",
    "city_kana": "カカミガハラシ",
    "town": "蘇原村雨町",
    "town_kana": "ソハラムラサメチョウ",
    "street": null,
    "office_name": null,
    "office_name_kana": null
  },
  "0829": {
    "zip_code": "5040829",
    "prefecture": "岐阜県",
    "prefecture_kana": "ギフケン",
    "prefecture_code": 21,
    "city": "各務原市",
    "city_kana": "カカミガハラシ",
    "town": "蘇原希望町",
    "town_kana": "ソハラキボウチョウ",
    "street": null,
    "office_name": null,
    "office_name_kana": null
  },
  "0831": {
    "zip_code": "5040831",
    "prefecture": "岐阜県",
    "prefecture_kana": "ギフケン",
    "prefecture_code": 21,
    "city": "各務原市",
    "city_kana": "カカミガハラシ",
    "town": "蘇原瑞穂町",
    "town_kana": "ソハラミズホチョウ",
    "street": null,
    "office_name": null,
    "office_name_kana": null
  },
  "0832": {
    "zip_code": "5040832",
    "prefecture": "岐阜県",
    "prefecture_kana": "ギフケン",
    "prefecture_code": 21,
    "city": "各務原市",
    "city_kana": "カカミガハラシ",
    "town": "蘇原花園町",
    "town_kana": "ソハラハナゾノチョウ",
    "street": null,
    "office_name": null,
    "office_name_kana": null
  },
  "0833": {
    "zip_code": "5040833",
    "prefecture": "岐阜県",
    "prefecture_kana": "ギフケン",
    "prefecture_code": 21,
    "city": "各務原市",
    "city_kana": "カカミガハラシ",
    "town": "入会町",
    "town_kana": "ニュウカイチョウ",
    "street": null,
    "office_name": null,
    "office_name_kana": null
  },
  "0834": {
    "zip_code": "5040834",
    "prefecture": "岐阜県",
    "prefecture_kana": "ギフケン",
    "prefecture_code": 21,
    "city": "各務原市",
    "city_kana": "カカミガハラシ",
    "town": "那加昭南町",
    "town_kana": "ナカショウナンチョウ",
    "street": null,
    "office_name": null,
    "office_name_kana": null
  },
  "0835": {
    "zip_code": "5040835",
    "prefecture": "岐阜県",
    "prefecture_kana": "ギフケン",
    "prefecture_code": 21,
    "city": "各務原市",
    "city_kana": "カカミガハラシ",
    "town": "那加雄飛ケ丘町",
    "town_kana": "ナカユウヒガオカチョウ",
    "street": null,
    "office_name": null,
    "office_name_kana": null
  },
  "0836": {
    "zip_code": "5040836",
    "prefecture": "岐阜県",
    "prefecture_kana": "ギフケン",
    "prefecture_code": 21,
    "city": "各務原市",
    "city_kana": "カカミガハラシ",
    "town": "那加雲雀町",
    "town_kana": "ナカヒバリチョウ",
    "street": null,
    "office_name": null,
    "office_name_kana": null
  },
  "0837": {
    "zip_code": "5040837",
    "prefecture": "岐阜県",
    "prefecture_kana": "ギフケン",
    "prefecture_code": 21,
    "city": "各務原市",
    "city_kana": "カカミガハラシ",
    "town": "那加甥田町",
    "town_kana": "ナカオイダチョウ",
    "street": null,
    "office_name": null,
    "office_name_kana": null
  },
  "0838": {
    "zip_code": "5040838",
    "prefecture": "岐阜県",
    "prefecture_kana": "ギフケン",
    "prefecture_code": 21,
    "city": "各務原市",
    "city_kana": "カカミガハラシ",
    "town": "那加不動丘",
    "town_kana": "ナカフドウガオカ",
    "street": null,
    "office_name": null,
    "office_name_kana": null
  },
  "0839": {
    "zip_code": "5040839",
    "prefecture": "岐阜県",
    "prefecture_kana": "ギフケン",
    "prefecture_code": 21,
    "city": "各務原市",
    "city_kana": "カカミガハラシ",
    "town": "那加巾下町",
    "town_kana": "ナカハバシタチョウ",
    "street": null,
    "office_name": null,
    "office_name_kana": null
  },
  "0841": {
    "zip_code": "5040841",
    "prefecture": "岐阜県",
    "prefecture_kana": "ギフケン",
    "prefecture_code": 21,
    "city": "各務原市",
    "city_kana": "カカミガハラシ",
    "town": "蘇原赤羽根町",
    "town_kana": "ソハラアカバネチョウ",
    "street": null,
    "office_name": null,
    "office_name_kana": null
  },
  "0842": {
    "zip_code": "5040842",
    "prefecture": "岐阜県",
    "prefecture_kana": "ギフケン",
    "prefecture_code": 21,
    "city": "各務原市",
    "city_kana": "カカミガハラシ",
    "town": "蘇原寺島町",
    "town_kana": "ソハラテラジマチョウ",
    "street": null,
    "office_name": null,
    "office_name_kana": null
  },
  "0843": {
    "zip_code": "5040843",
    "prefecture": "岐阜県",
    "prefecture_kana": "ギフケン",
    "prefecture_code": 21,
    "city": "各務原市",
    "city_kana": "カカミガハラシ",
    "town": "蘇原青雲町",
    "town_kana": "ソハラセイウンチョウ",
    "street": null,
    "office_name": null,
    "office_name_kana": null
  },
  "0844": {
    "zip_code": "5040844",
    "prefecture": "岐阜県",
    "prefecture_kana": "ギフケン",
    "prefecture_code": 21,
    "city": "各務原市",
    "city_kana": "カカミガハラシ",
    "town": "蘇原吉新町",
    "town_kana": "ソハラキチシンチョウ",
    "street": null,
    "office_name": null,
    "office_name_kana": null
  },
  "0845": {
    "zip_code": "5040845",
    "prefecture": "岐阜県",
    "prefecture_kana": "ギフケン",
    "prefecture_code": 21,
    "city": "各務原市",
    "city_kana": "カカミガハラシ",
    "town": "蘇原申子町",
    "town_kana": "ソハラサルコチョウ",
    "street": null,
    "office_name": null,
    "office_name_kana": null
  },
  "0846": {
    "zip_code": "5040846",
    "prefecture": "岐阜県",
    "prefecture_kana": "ギフケン",
    "prefecture_code": 21,
    "city": "各務原市",
    "city_kana": "カカミガハラシ",
    "town": "蘇原吉野町",
    "town_kana": "ソハラヨシノチョウ",
    "street": null,
    "office_name": null,
    "office_name_kana": null
  },
  "0847": {
    "zip_code": "5040847",
    "prefecture": "岐阜県",
    "prefecture_kana": "ギフケン",
    "prefecture_code": 21,
    "city": "各務原市",
    "city_kana": "カカミガハラシ",
    "town": "蘇原大島町",
    "town_kana": "ソハラオオシマチョウ",
    "street": null,
    "office_name": null,
    "office_name_kana": null
  },
  "0851": {
    "zip_code": "5040851",
    "prefecture": "岐阜県",
    "prefecture_kana": "ギフケン",
    "prefecture_code": 21,
    "city": "各務原市",
    "city_kana": "カカミガハラシ",
    "town": "蘇原伊吹町",
    "town_kana": "ソハライブキチョウ",
    "street": null,
    "office_name": null,
    "office_name_kana": null
  },
  "0852": {
    "zip_code": "5040852",
    "prefecture": "岐阜県",
    "prefecture_kana": "ギフケン",
    "prefecture_code": 21,
    "city": "各務原市",
    "city_kana": "カカミガハラシ",
    "town": "蘇原古市場町",
    "town_kana": "ソハラフルイチバチョウ",
    "street": null,
    "office_name": null,
    "office_name_kana": null
  },
  "0853": {
    "zip_code": "5040853",
    "prefecture": "岐阜県",
    "prefecture_kana": "ギフケン",
    "prefecture_code": 21,
    "city": "各務原市",
    "city_kana": "カカミガハラシ",
    "town": "蘇原熊田町",
    "town_kana": "ソハラクマタチョウ",
    "street": null,
    "office_name": null,
    "office_name_kana": null
  },
  "0854": {
    "zip_code": "5040854",
    "prefecture": "岐阜県",
    "prefecture_kana": "ギフケン",
    "prefecture_code": 21,
    "city": "各務原市",
    "city_kana": "カカミガハラシ",
    "town": "蘇原野口町",
    "town_kana": "ソハラノグチチョウ",
    "street": null,
    "office_name": null,
    "office_name_kana": null
  },
  "0855": {
    "zip_code": "5040855",
    "prefecture": "岐阜県",
    "prefecture_kana": "ギフケン",
    "prefecture_code": 21,
    "city": "各務原市",
    "city_kana": "カカミガハラシ",
    "town": "蘇原新栄町",
    "town_kana": "ソハラシンサカエマチ",
    "street": null,
    "office_name": null,
    "office_name_kana": null
  },
  "0856": {
    "zip_code": "5040856",
    "prefecture": "岐阜県",
    "prefecture_kana": "ギフケン",
    "prefecture_code": 21,
    "city": "各務原市",
    "city_kana": "カカミガハラシ",
    "town": "蘇原島崎町",
    "town_kana": "ソハラシマサキチョウ",
    "street": null,
    "office_name": null,
    "office_name_kana": null
  },
  "0861": {
    "zip_code": "5040861",
    "prefecture": "岐阜県",
    "prefecture_kana": "ギフケン",
    "prefecture_code": 21,
    "city": "各務原市",
    "city_kana": "カカミガハラシ",
    "town": "東山",
    "town_kana": "ヒガシヤマ",
    "street": null,
    "office_name": null,
    "office_name_kana": null
  },
  "0901": {
    "zip_code": "5040901",
    "prefecture": "岐阜県",
    "prefecture_kana": "ギフケン",
    "prefecture_code": 21,
    "city": "各務原市",
    "city_kana": "カカミガハラシ",
    "town": "那加東新町",
    "town_kana": "ナカトウシンチョウ",
    "street": null,
    "office_name": null,
    "office_name_kana": null
  },
  "0902": {
    "zip_code": "5040902",
    "prefecture": "岐阜県",
    "prefecture_kana": "ギフケン",
    "prefecture_code": 21,
    "city": "各務原市",
    "city_kana": "カカミガハラシ",
    "town": "蘇原緑町",
    "town_kana": "ソハラミドリマチ",
    "street": null,
    "office_name": null,
    "office_name_kana": null
  },
  "0903": {
    "zip_code": "5040903",
    "prefecture": "岐阜県",
    "prefecture_kana": "ギフケン",
    "prefecture_code": 21,
    "city": "各務原市",
    "city_kana": "カカミガハラシ",
    "town": "蘇原月丘町",
    "town_kana": "ソハラツキオカチョウ",
    "street": null,
    "office_name": null,
    "office_name_kana": null
  },
  "0904": {
    "zip_code": "5040904",
    "prefecture": "岐阜県",
    "prefecture_kana": "ギフケン",
    "prefecture_code": 21,
    "city": "各務原市",
    "city_kana": "カカミガハラシ",
    "town": "蘇原三柿野町",
    "town_kana": "ソハラミカキノチョウ",
    "street": null,
    "office_name": null,
    "office_name_kana": null
  },
  "0905": {
    "zip_code": "5040905",
    "prefecture": "岐阜県",
    "prefecture_kana": "ギフケン",
    "prefecture_code": 21,
    "city": "各務原市",
    "city_kana": "カカミガハラシ",
    "town": "蘇原六軒町",
    "town_kana": "ソハラロッケンチョウ",
    "street": null,
    "office_name": null,
    "office_name_kana": null
  },
  "0906": {
    "zip_code": "5040906",
    "prefecture": "岐阜県",
    "prefecture_kana": "ギフケン",
    "prefecture_code": 21,
    "city": "各務原市",
    "city_kana": "カカミガハラシ",
    "town": "那加桐野外二ケ所大字入会地",
    "town_kana": "ナカキリノホカニカショオオアザニュウカイチ",
    "street": null,
    "office_name": null,
    "office_name_kana": null
  },
  "0907": {
    "zip_code": "5040907",
    "prefecture": "岐阜県",
    "prefecture_kana": "ギフケン",
    "prefecture_code": 21,
    "city": "各務原市",
    "city_kana": "カカミガハラシ",
    "town": "那加住吉町",
    "town_kana": "ナカスミヨシチョウ",
    "street": null,
    "office_name": null,
    "office_name_kana": null
  },
  "0908": {
    "zip_code": "5040908",
    "prefecture": "岐阜県",
    "prefecture_kana": "ギフケン",
    "prefecture_code": 21,
    "city": "各務原市",
    "city_kana": "カカミガハラシ",
    "town": "那加織田町",
    "town_kana": "ナカオダチョウ",
    "street": null,
    "office_name": null,
    "office_name_kana": null
  },
  "0909": {
    "zip_code": "5040909",
    "prefecture": "岐阜県",
    "prefecture_kana": "ギフケン",
    "prefecture_code": 21,
    "city": "各務原市",
    "city_kana": "カカミガハラシ",
    "town": "那加信長町",
    "town_kana": "ナカノブナガチョウ",
    "street": null,
    "office_name": null,
    "office_name_kana": null
  },
  "0911": {
    "zip_code": "5040911",
    "prefecture": "岐阜県",
    "prefecture_kana": "ギフケン",
    "prefecture_code": 21,
    "city": "各務原市",
    "city_kana": "カカミガハラシ",
    "town": "那加門前町",
    "town_kana": "ナカモンゼンチョウ",
    "street": null,
    "office_name": null,
    "office_name_kana": null
  },
  "0912": {
    "zip_code": "5040912",
    "prefecture": "岐阜県",
    "prefecture_kana": "ギフケン",
    "prefecture_code": 21,
    "city": "各務原市",
    "city_kana": "カカミガハラシ",
    "town": "那加桜町",
    "town_kana": "ナカサクラマチ",
    "street": null,
    "office_name": null,
    "office_name_kana": null
  },
  "0913": {
    "zip_code": "5040913",
    "prefecture": "岐阜県",
    "prefecture_kana": "ギフケン",
    "prefecture_code": 21,
    "city": "各務原市",
    "city_kana": "カカミガハラシ",
    "town": "那加大東町",
    "town_kana": "ナカダイトウチョウ",
    "street": null,
    "office_name": null,
    "office_name_kana": null
  },
  "0914": {
    "zip_code": "5040914",
    "prefecture": "岐阜県",
    "prefecture_kana": "ギフケン",
    "prefecture_code": 21,
    "city": "各務原市",
    "city_kana": "カカミガハラシ",
    "town": "三井東町",
    "town_kana": "ミイヒガシマチ",
    "street": null,
    "office_name": null,
    "office_name_kana": null
  },
  "0915": {
    "zip_code": "5040915",
    "prefecture": "岐阜県",
    "prefecture_kana": "ギフケン",
    "prefecture_code": 21,
    "city": "各務原市",
    "city_kana": "カカミガハラシ",
    "town": "三井山町",
    "town_kana": "ミイヤマチョウ",
    "street": null,
    "office_name": null,
    "office_name_kana": null
  },
  "0916": {
    "zip_code": "5040916",
    "prefecture": "岐阜県",
    "prefecture_kana": "ギフケン",
    "prefecture_code": 21,
    "city": "各務原市",
    "city_kana": "カカミガハラシ",
    "town": "那加楠町",
    "town_kana": "ナカクスノキチョウ",
    "street": null,
    "office_name": null,
    "office_name_kana": null
  },
  "0921": {
    "zip_code": "5040921",
    "prefecture": "岐阜県",
    "prefecture_kana": "ギフケン",
    "prefecture_code": 21,
    "city": "各務原市",
    "city_kana": "カカミガハラシ",
    "town": "前渡北町",
    "town_kana": "マエドキタマチ",
    "street": null,
    "office_name": null,
    "office_name_kana": null
  },
  "0922": {
    "zip_code": "5040922",
    "prefecture": "岐阜県",
    "prefecture_kana": "ギフケン",
    "prefecture_code": 21,
    "city": "各務原市",
    "city_kana": "カカミガハラシ",
    "town": "前渡東町",
    "town_kana": "マエドヒガシマチ",
    "street": null,
    "office_name": null,
    "office_name_kana": null
  },
  "0923": {
    "zip_code": "5040923",
    "prefecture": "岐阜県",
    "prefecture_kana": "ギフケン",
    "prefecture_code": 21,
    "city": "各務原市",
    "city_kana": "カカミガハラシ",
    "town": "前渡西町",
    "town_kana": "マエドニシマチ",
    "street": null,
    "office_name": null,
    "office_name_kana": null
  },
  "0924": {
    "zip_code": "5040924",
    "prefecture": "岐阜県",
    "prefecture_kana": "ギフケン",
    "prefecture_code": 21,
    "city": "各務原市",
    "city_kana": "カカミガハラシ",
    "town": "下切町",
    "town_kana": "シモギリチョウ",
    "street": null,
    "office_name": null,
    "office_name_kana": null
  },
  "0925": {
    "zip_code": "5040925",
    "prefecture": "岐阜県",
    "prefecture_kana": "ギフケン",
    "prefecture_code": 21,
    "city": "各務原市",
    "city_kana": "カカミガハラシ",
    "town": "松本町",
    "town_kana": "マツモトチョウ",
    "street": null,
    "office_name": null,
    "office_name_kana": null
  },
  "0926": {
    "zip_code": "5040926",
    "prefecture": "岐阜県",
    "prefecture_kana": "ギフケン",
    "prefecture_code": 21,
    "city": "各務原市",
    "city_kana": "カカミガハラシ",
    "town": "上中屋町",
    "town_kana": "カミナカヤチョウ",
    "street": null,
    "office_name": null,
    "office_name_kana": null
  },
  "0927": {
    "zip_code": "5040927",
    "prefecture": "岐阜県",
    "prefecture_kana": "ギフケン",
    "prefecture_code": 21,
    "city": "各務原市",
    "city_kana": "カカミガハラシ",
    "town": "上戸町",
    "town_kana": "ジョウゴチョウ",
    "street": null,
    "office_name": null,
    "office_name_kana": null
  },
  "0928": {
    "zip_code": "5040928",
    "prefecture": "岐阜県",
    "prefecture_kana": "ギフケン",
    "prefecture_code": 21,
    "city": "各務原市",
    "city_kana": "カカミガハラシ",
    "town": "山脇町",
    "town_kana": "ヤマワキチョウ",
    "street": null,
    "office_name": null,
    "office_name_kana": null
  },
  "0931": {
    "zip_code": "5040931",
    "prefecture": "岐阜県",
    "prefecture_kana": "ギフケン",
    "prefecture_code": 21,
    "city": "各務原市",
    "city_kana": "カカミガハラシ",
    "town": "大佐野町",
    "town_kana": "オオザノチョウ",
    "street": null,
    "office_name": null,
    "office_name_kana": null
  },
  "0932": {
    "zip_code": "5040932",
    "prefecture": "岐阜県",
    "prefecture_kana": "ギフケン",
    "prefecture_code": 21,
    "city": "各務原市",
    "city_kana": "カカミガハラシ",
    "town": "下中屋町",
    "town_kana": "シモナカヤチョウ",
    "street": null,
    "office_name": null,
    "office_name_kana": null
  },
  "0933": {
    "zip_code": "5040933",
    "prefecture": "岐阜県",
    "prefecture_kana": "ギフケン",
    "prefecture_code": 21,
    "city": "各務原市",
    "city_kana": "カカミガハラシ",
    "town": "神置町",
    "town_kana": "カミオキチョウ",
    "street": null,
    "office_name": null,
    "office_name_kana": null
  },
  "0934": {
    "zip_code": "5040934",
    "prefecture": "岐阜県",
    "prefecture_kana": "ギフケン",
    "prefecture_code": 21,
    "city": "各務原市",
    "city_kana": "カカミガハラシ",
    "town": "大野町",
    "town_kana": "オオノチョウ",
    "street": null,
    "office_name": null,
    "office_name_kana": null
  },
  "0935": {
    "zip_code": "5040935",
    "prefecture": "岐阜県",
    "prefecture_kana": "ギフケン",
    "prefecture_code": 21,
    "city": "各務原市",
    "city_kana": "カカミガハラシ",
    "town": "成清町",
    "town_kana": "ナルキヨチョウ",
    "street": null,
    "office_name": null,
    "office_name_kana": null
  },
  "0941": {
    "zip_code": "5040941",
    "prefecture": "岐阜県",
    "prefecture_kana": "ギフケン",
    "prefecture_code": 21,
    "city": "各務原市",
    "city_kana": "カカミガハラシ",
    "town": "三井町",
    "town_kana": "ミイチョウ",
    "street": null,
    "office_name": null,
    "office_name_kana": null
  },
  "0942": {
    "zip_code": "5040942",
    "prefecture": "岐阜県",
    "prefecture_kana": "ギフケン",
    "prefecture_code": 21,
    "city": "各務原市",
    "city_kana": "カカミガハラシ",
    "town": "小佐野町",
    "town_kana": "コザノチョウ",
    "street": null,
    "office_name": null,
    "office_name_kana": null
  },
  "0943": {
    "zip_code": "5040943",
    "prefecture": "岐阜県",
    "prefecture_kana": "ギフケン",
    "prefecture_code": 21,
    "city": "各務原市",
    "city_kana": "カカミガハラシ",
    "town": "那加萱場町",
    "town_kana": "ナカカヤバチョウ",
    "street": null,
    "office_name": null,
    "office_name_kana": null
  },
  "0944": {
    "zip_code": "5040944",
    "prefecture": "岐阜県",
    "prefecture_kana": "ギフケン",
    "prefecture_code": 21,
    "city": "各務原市",
    "city_kana": "カカミガハラシ",
    "town": "那加緑町",
    "town_kana": "ナカミドリマチ",
    "street": null,
    "office_name": null,
    "office_name_kana": null
  },
  "0945": {
    "zip_code": "5040945",
    "prefecture": "岐阜県",
    "prefecture_kana": "ギフケン",
    "prefecture_code": 21,
    "city": "各務原市",
    "city_kana": "カカミガハラシ",
    "town": "那加日新町",
    "town_kana": "ナカニッシンチョウ",
    "street": null,
    "office_name": null,
    "office_name_kana": null
  },
  "0951": {
    "zip_code": "5040951",
    "prefecture": "岐阜県",
    "prefecture_kana": "ギフケン",
    "prefecture_code": 21,
    "city": "各務原市",
    "city_kana": "カカミガハラシ",
    "town": "那加日吉町",
    "town_kana": "ナカヒヨシチョウ",
    "street": null,
    "office_name": null,
    "office_name_kana": null
  },
  "0952": {
    "zip_code": "5040952",
    "prefecture": "岐阜県",
    "prefecture_kana": "ギフケン",
    "prefecture_code": 21,
    "city": "各務原市",
    "city_kana": "カカミガハラシ",
    "town": "那加西那加町",
    "town_kana": "ナカニシナカチョウ",
    "street": null,
    "office_name": null,
    "office_name_kana": null
  },
  "0953": {
    "zip_code": "5040953",
    "prefecture": "岐阜県",
    "prefecture_kana": "ギフケン",
    "prefecture_code": 21,
    "city": "各務原市",
    "city_kana": "カカミガハラシ",
    "town": "那加東那加町",
    "town_kana": "ナカヒガシナカチョウ",
    "street": null,
    "office_name": null,
    "office_name_kana": null
  },
  "0954": {
    "zip_code": "5040954",
    "prefecture": "岐阜県",
    "prefecture_kana": "ギフケン",
    "prefecture_code": 21,
    "city": "各務原市",
    "city_kana": "カカミガハラシ",
    "town": "那加栄町",
    "town_kana": "ナカサカエマチ",
    "street": null,
    "office_name": null,
    "office_name_kana": null
  },
  "0955": {
    "zip_code": "5040955",
    "prefecture": "岐阜県",
    "prefecture_kana": "ギフケン",
    "prefecture_code": 21,
    "city": "各務原市",
    "city_kana": "カカミガハラシ",
    "town": "那加南栄町",
    "town_kana": "ナカミナミサカエマチ",
    "street": null,
    "office_name": null,
    "office_name_kana": null
  },
  "0956": {
    "zip_code": "5040956",
    "prefecture": "岐阜県",
    "prefecture_kana": "ギフケン",
    "prefecture_code": 21,
    "city": "各務原市",
    "city_kana": "カカミガハラシ",
    "town": "三井北町",
    "town_kana": "ミイキタマチ",
    "street": null,
    "office_name": null,
    "office_name_kana": null
  },
  "0957": {
    "zip_code": "5040957",
    "prefecture": "岐阜県",
    "prefecture_kana": "ギフケン",
    "prefecture_code": 21,
    "city": "各務原市",
    "city_kana": "カカミガハラシ",
    "town": "金属団地",
    "town_kana": "キンゾクダンチ",
    "street": null,
    "office_name": null,
    "office_name_kana": null
  },
  "0958": {
    "zip_code": "5040958",
    "prefecture": "岐阜県",
    "prefecture_kana": "ギフケン",
    "prefecture_code": 21,
    "city": "各務原市",
    "city_kana": "カカミガハラシ",
    "town": "那加新加納町",
    "town_kana": "ナカシンカノウチョウ",
    "street": null,
    "office_name": null,
    "office_name_kana": null
  },
  "0959": {
    "zip_code": "5040959",
    "prefecture": "岐阜県",
    "prefecture_kana": "ギフケン",
    "prefecture_code": 21,
    "city": "各務原市",
    "city_kana": "カカミガハラシ",
    "town": "那加西浦町",
    "town_kana": "ナカニシウラチョウ",
    "street": null,
    "office_name": null,
    "office_name_kana": null
  },
  "0961": {
    "zip_code": "5040961",
    "prefecture": "岐阜県",
    "prefecture_kana": "ギフケン",
    "prefecture_code": 21,
    "city": "各務原市",
    "city_kana": "カカミガハラシ",
    "town": "那加新那加町",
    "town_kana": "ナカシンナカチョウ",
    "street": null,
    "office_name": null,
    "office_name_kana": null
  },
  "0962": {
    "zip_code": "5040962",
    "prefecture": "岐阜県",
    "prefecture_kana": "ギフケン",
    "prefecture_code": 21,
    "city": "各務原市",
    "city_kana": "カカミガハラシ",
    "town": "那加吾妻町",
    "town_kana": "ナカアヅマチョウ",
    "street": null,
    "office_name": null,
    "office_name_kana": null
  },
  "0963": {
    "zip_code": "5040963",
    "prefecture": "岐阜県",
    "prefecture_kana": "ギフケン",
    "prefecture_code": 21,
    "city": "各務原市",
    "city_kana": "カカミガハラシ",
    "town": "那加北栄町",
    "town_kana": "ナカキタサカエマチ",
    "street": null,
    "office_name": null,
    "office_name_kana": null
  },
  "0964": {
    "zip_code": "5040964",
    "prefecture": "岐阜県",
    "prefecture_kana": "ギフケン",
    "prefecture_code": 21,
    "city": "各務原市",
    "city_kana": "カカミガハラシ",
    "town": "那加元町",
    "town_kana": "ナカモトマチ",
    "street": null,
    "office_name": null,
    "office_name_kana": null
  },
  "0965": {
    "zip_code": "5040965",
    "prefecture": "岐阜県",
    "prefecture_kana": "ギフケン",
    "prefecture_code": 21,
    "city": "各務原市",
    "city_kana": "カカミガハラシ",
    "town": "那加日之出町",
    "town_kana": "ナカヒノデチョウ",
    "street": null,
    "office_name": null,
    "office_name_kana": null
  },
  "0966": {
    "zip_code": "5040966",
    "prefecture": "岐阜県",
    "prefecture_kana": "ギフケン",
    "prefecture_code": 21,
    "city": "各務原市",
    "city_kana": "カカミガハラシ",
    "town": "那加本町",
    "town_kana": "ナカホンマチ",
    "street": null,
    "office_name": null,
    "office_name_kana": null
  },
  "0967": {
    "zip_code": "5040967",
    "prefecture": "岐阜県",
    "prefecture_kana": "ギフケン",
    "prefecture_code": 21,
    "city": "各務原市",
    "city_kana": "カカミガハラシ",
    "town": "那加楽天地町",
    "town_kana": "ナカラクテンチチョウ",
    "street": null,
    "office_name": null,
    "office_name_kana": null
  },
  "0968": {
    "zip_code": "5040968",
    "prefecture": "岐阜県",
    "prefecture_kana": "ギフケン",
    "prefecture_code": 21,
    "city": "各務原市",
    "city_kana": "カカミガハラシ",
    "town": "那加西野町",
    "town_kana": "ナカニシノマチ",
    "street": null,
    "office_name": null,
    "office_name_kana": null
  },
  "0971": {
    "zip_code": "5040971",
    "prefecture": "岐阜県",
    "prefecture_kana": "ギフケン",
    "prefecture_code": 21,
    "city": "各務原市",
    "city_kana": "カカミガハラシ",
    "town": "川崎町",
    "town_kana": "カワサキチョウ",
    "street": null,
    "office_name": null,
    "office_name_kana": null
  },
  "8501": {
    "zip_code": "5048501",
    "prefecture": "岐阜県",
    "prefecture_kana": "ギフケン",
    "prefecture_code": 21,
    "city": "各務原市",
    "city_kana": "カカミガハラシ",
    "town": "那加手力町",
    "town_kana": "ナカテヂカラチョウ",
    "street": "４１",
    "office_name": "岐阜県立　岐阜各務野高等学　校岐女商校舎",
    "office_name_kana": "ギフケンリツ ギフカガミノコウトウガツコウ ギジヨシヨウコウシヤ"
  },
  "8504": {
    "zip_code": "5048504",
    "prefecture": "岐阜県",
    "prefecture_kana": "ギフケン",
    "prefecture_code": 21,
    "city": "各務原市",
    "city_kana": "カカミガハラシ",
    "town": "那加桐野町",
    "town_kana": "ナカキリノチョウ",
    "street": "２丁目４３",
    "office_name": "東海女子短期大学",
    "office_name_kana": "トウカイジヨシタンキダイガク"
  },
  "8511": {
    "zip_code": "5048511",
    "prefecture": "岐阜県",
    "prefecture_kana": "ギフケン",
    "prefecture_code": 21,
    "city": "各務原市",
    "city_kana": "カカミガハラシ",
    "town": "那加桐野町",
    "town_kana": "ナカキリノチョウ",
    "street": "５丁目６８",
    "office_name": "東海女子大学",
    "office_name_kana": "トウカイジヨシダイガク"
  },
  "8545": {
    "zip_code": "5048545",
    "prefecture": "岐阜県",
    "prefecture_kana": "ギフケン",
    "prefecture_code": 21,
    "city": "各務原市",
    "city_kana": "カカミガハラシ",
    "town": "那加東亜町",
    "town_kana": "ナカトウアチョウ",
    "street": "２４−１",
    "office_name": "各務原西高校",
    "office_name_kana": "カガミハラニシコウコウ"
  },
  "8551": {
    "zip_code": "5048551",
    "prefecture": "岐阜県",
    "prefecture_kana": "ギフケン",
    "prefecture_code": 21,
    "city": "各務原市",
    "city_kana": "カカミガハラシ",
    "town": "蘇原興亜町",
    "town_kana": "ソハラコウアマチ",
    "street": "５丁目１０",
    "office_name": "榎本ビーエー　株式会社",
    "office_name_kana": "エノモトビ-エ- カブシキガイシヤ"
  },
  "8555": {
    "zip_code": "5048555",
    "prefecture": "岐阜県",
    "prefecture_kana": "ギフケン",
    "prefecture_code": 21,
    "city": "各務原市",
    "city_kana": "カカミガハラシ",
    "town": "那加桜町",
    "town_kana": "ナカサクラマチ",
    "street": "１丁目６９",
    "office_name": "各務原市役所",
    "office_name_kana": "カカミガハラシヤクシヨ"
  },
  "8585": {
    "zip_code": "5048585",
    "prefecture": "岐阜県",
    "prefecture_kana": "ギフケン",
    "prefecture_code": 21,
    "city": "各務原市",
    "city_kana": "カカミガハラシ",
    "town": "蘇原新生町",
    "town_kana": "ソハラシンセイチョウ",
    "street": "２丁目６３",
    "office_name": "各務原高校",
    "office_name_kana": "カガミハラコウコウ"
  },
  "8601": {
    "zip_code": "5048601",
    "prefecture": "岐阜県",
    "prefecture_kana": "ギフケン",
    "prefecture_code": 21,
    "city": "各務原市",
    "city_kana": "カカミガハラシ",
    "town": "蘇原東島町",
    "town_kana": "ソハラヒガシジマチョウ",
    "street": "４丁目６番地２",
    "office_name": "公立学校共済組合　東海中央病院",
    "office_name_kana": "コウリツガツコウキヨウサイクミアイ トウカイチユウオウビヨウイン"
  },
  "8642": {
    "zip_code": "5048642",
    "prefecture": "岐阜県",
    "prefecture_kana": "ギフケン",
    "prefecture_code": 21,
    "city": "各務原市",
    "city_kana": "カカミガハラシ",
    "town": "蘇原興亜町",
    "town_kana": "ソハラコウアマチ",
    "street": "４丁目１",
    "office_name": "天龍ホールディングス　株式会社",
    "office_name_kana": "テンリユウホ-ルデイングス カブシキガイシヤ"
  },
  "8701": {
    "zip_code": "5048701",
    "prefecture": "岐阜県",
    "prefecture_kana": null,
    "prefecture_code": null,
    "city": "各務原市",
    "city_kana": null,
    "town": "那加官有地無番地",
    "town_kana": null,
    "street": "（各務原郵便局私書箱第１８号）",
    "office_name": "航空自衛隊",
    "office_name_kana": "コウクウジエイタイ"
  },
  "8702": {
    "zip_code": "5048702",
    "prefecture": "岐阜県",
    "prefecture_kana": "ギフケン",
    "prefecture_code": 21,
    "city": "各務原市",
    "city_kana": "カカミガハラシ",
    "town": "前渡東町",
    "town_kana": "マエドヒガシマチ",
    "street": "４丁目２２２番地",
    "office_name": "岐阜プラスチック工業　（株）　生産本部",
    "office_name_kana": "ギフプラスチツクコウギヨウ (カブ) セイサンホンブ"
  },
  "8710": {
    "zip_code": "5048710",
    "prefecture": "岐阜県",
    "prefecture_kana": "ギフケン",
    "prefecture_code": 21,
    "city": "各務原市",
    "city_kana": "カカミガハラシ",
    "town": "川崎町",
    "town_kana": "カワサキチョウ",
    "street": "１（各務原郵便局私書箱第１０号）",
    "office_name": "川崎重工業　株式会社",
    "office_name_kana": "カワサキジユウコウギヨウ カブシキガイシヤ"
  }
}