{
  "0101": {
    "zip_code": "5090101",
    "prefecture": "岐阜県",
    "prefecture_kana": "ギフケン",
    "prefecture_code": 21,
    "city": "各務原市",
    "city_kana": "カカミガハラシ",
    "town": "須衛",
    "town_kana": "スエ",
    "street": null,
    "office_name": null,
    "office_name_kana": null
  },
  "0102": {
    "zip_code": "5090102",
    "prefecture": "岐阜県",
    "prefecture_kana": "ギフケン",
    "prefecture_code": 21,
    "city": "各務原市",
    "city_kana": "カカミガハラシ",
    "town": "各務車洞",
    "town_kana": "カカミクルマホラ",
    "street": null,
    "office_name": null,
    "office_name_kana": null
  },
  "0103": {
    "zip_code": "5090103",
    "prefecture": "岐阜県",
    "prefecture_kana": "ギフケン",
    "prefecture_code": 21,
    "city": "各務原市",
    "city_kana": "カカミガハラシ",
    "town": "各務東町",
    "town_kana": "カカミヒガシマチ",
    "street": null,
    "office_name": null,
    "office_name_kana": null
  },
  "0104": {
    "zip_code": "5090104",
    "prefecture": "岐阜県",
    "prefecture_kana": "ギフケン",
    "prefecture_code": 21,
    "city": "各務原市",
    "city_kana": "カカミガハラシ",
    "town": "各務おがせ町",
    "town_kana": "カカミオガセチョウ",
    "street": null,
    "office_name": null,
    "office_name_kana": null
  },
  "0105": {
    "zip_code": "5090105",
    "prefecture": "岐阜県",
    "prefecture_kana": "ギフケン",
    "prefecture_code": 21,
    "city": "各務原市",
    "city_kana": "カカミガハラシ",
    "town": "各務山の前町",
    "town_kana": "カカミヤマノマエチョウ",
    "street": null,
    "office_name": null,
    "office_name_kana": null
  },
  "0106": {
    "zip_code": "5090106",
    "prefecture": "岐阜県",
    "prefecture_kana": "ギフケン",
    "prefecture_code": 21,
    "city": "各務原市",
    "city_kana": "カカミガハラシ",
    "town": "各務西町",
    "town_kana": "カカミニシマチ",
    "street": null,
    "office_name": null,
    "office_name_kana": null
  },
  "0107": {
    "zip_code": "5090107",
    "prefecture": "岐阜県",
    "prefecture_kana": "ギフケン",
    "prefecture_code": 21,
    "city": "各務原市",
    "city_kana": "カカミガハラシ",
    "town": "各務船山町",
    "town_kana": "カカミフナヤマチョウ",
    "street": null,
    "office_name": null,
    "office_name_kana": null
  },
  "0108": {
    "zip_code": "5090108",
    "prefecture": "岐阜県",
    "prefecture_kana": "ギフケン",
    "prefecture_code": 21,
    "city": "各務原市",
    "city_kana": "カカミガハラシ",
    "town": "須衛町",
    "town_kana": "スエチョウ",
    "street": null,
    "office_name": null,
    "office_name_kana": null
  },
  "0109": {
    "zip_code": "5090109",
    "prefecture": "岐阜県",
    "prefecture_kana": "ギフケン",
    "prefecture_code": 21,
    "city": "各務原市",
    "city_kana": "カカミガハラシ",
    "town": "テクノプラザ",
    "town_kana": "テクノプラザ",
    "street": null,
    "office_name": null,
    "office_name_kana": null
  },
  "0111": {
    "zip_code": "5090111",
    "prefecture": "岐阜県",
    "prefecture_kana": "ギフケン",
    "prefecture_code": 21,
    "city": "各務原市",
    "city_kana": "カカミガハラシ",
    "town": "鵜沼",
    "town_kana": "ウヌマ",
    "street": null,
    "office_name": null,
    "office_name_kana": null
  },
  "0112": {
    "zip_code": "5090112",
    "prefecture": "岐阜県",
    "prefecture_kana": "ギフケン",
    "prefecture_code": 21,
    "city": "各務原市",
    "city_kana": "カカミガハラシ",
    "town": "緑苑北",
    "town_kana": "リョクエンキタ",
    "street": null,
    "office_name": null,
    "office_name_kana": null
  },
  "0113": {
    "zip_code": "5090113",
    "prefecture": "岐阜県",
    "prefecture_kana": "ギフケン",
    "prefecture_code": 21,
    "city": "各務原市",
    "city_kana": "カカミガハラシ",
    "town": "緑苑東",
    "town_kana": "リョクエンヒガシ",
    "street": null,
    "office_name": null,
    "office_name_kana": null
  },
  "0114": {
    "zip_code": "5090114",
    "prefecture": "岐阜県",
    "prefecture_kana": "ギフケン",
    "prefecture_code": 21,
    "city": "各務原市",
    "city_kana": "カカミガハラシ",
    "town": "緑苑中",
    "town_kana": "リョクエンナカ",
    "street": null,
    "office_name": null,
    "office_name_kana": null
  },
  "0115": {
    "zip_code": "5090115",
    "prefecture": "岐阜県",
    "prefecture_kana": "ギフケン",
    "prefecture_code": 21,
    "city": "各務原市",
    "city_kana": "カカミガハラシ",
    "town": "緑苑南",
    "town_kana": "リョクエンミナミ",
    "street": null,
    "office_name": null,
    "office_name_kana": null
  },
  "0116": {
    "zip_code": "5090116",
    "prefecture": "岐阜県",
    "prefecture_kana": "ギフケン",
    "prefecture_code": 21,
    "city": "各務原市",
    "city_kana": "カカミガハラシ",
    "town": "緑苑西",
    "town_kana": "リョクエンニシ",
    "street": null,
    "office_name": null,
    "office_name_kana": null
  },
  "0117": {
    "zip_code": "5090117",
    "prefecture": "岐阜県",
    "prefecture_kana": "ギフケン",
    "prefecture_code": 21,
    "city": "各務原市",
    "city_kana": "カカミガハラシ",
    "town": "鵜沼大安寺町",
    "town_kana": "ウヌマダイアンジチョウ",
    "street": null,
    "office_name": null,
    "office_name_kana": null
  },
  "0121": {
    "zip_code": "5090121",
    "prefecture": "岐阜県",
    "prefecture_kana": "ギフケン",
    "prefecture_code": 21,
    "city": "各務原市",
    "city_kana": "カカミガハラシ",
    "town": "鵜沼台",
    "town_kana": "ウヌマダイ",
    "street": null,
    "office_name": null,
    "office_name_kana": null
  },
  "0122": {
    "zip_code": "5090122",
    "prefecture": "岐阜県",
    "prefecture_kana": "ギフケン",
    "prefecture_code": 21,
    "city": "各務原市",
    "city_kana": "カカミガハラシ",
    "town": "新鵜沼台",
    "town_kana": "シンウヌマダイ",
    "street": null,
    "office_name": null,
    "office_name_kana": null
  },
  "0123": {
    "zip_code": "5090123",
    "prefecture": "岐阜県",
    "prefecture_kana": "ギフケン",
    "prefecture_code": 21,
    "city": "各務原市",
    "city_kana": "カカミガハラシ",
    "town": "鵜沼宝積寺町",
    "town_kana": "ウヌマホウシャクジチョウ",
    "street": null,
    "office_name": null,
    "office_name_kana": null
  },
  "0124": {
    "zip_code": "5090124",
    "prefecture": "岐阜県",
    "prefecture_kana": "ギフケン",
    "prefecture_code": 21,
    "city": "各務原市",
    "city_kana": "カカミガハラシ",
    "town": "鵜沼山崎町",
    "town_kana": "ウヌマヤマザキチョウ",
    "street": null,
    "office_name": null,
    "office_name_kana": null
  },
  "0125": {
    "zip_code": "5090125",
    "prefecture": "岐阜県",
    "prefecture_kana": "ギフケン",
    "prefecture_code": 21,
    "city": "各務原市",
    "city_kana": "カカミガハラシ",
    "town": "鵜沼南町",
    "town_kana": "ウヌマミナミマチ",
    "street": null,
    "office_name": null,
    "office_name_kana": null
  },
  "0126": {
    "zip_code": "5090126",
    "prefecture": "岐阜県",
    "prefecture_kana": "ギフケン",
    "prefecture_code": 21,
    "city": "各務原市",
    "city_kana": "カカミガハラシ",
    "town": "鵜沼東町",
    "town_kana": "ウヌマヒガシマチ",
    "street": null,
    "office_name": null,
    "office_name_kana": null
  },
  "0127": {
    "zip_code": "5090127",
    "prefecture": "岐阜県",
    "prefecture_kana": "ギフケン",
    "prefecture_code": 21,
    "city": "各務原市",
    "city_kana": "カカミガハラシ",
    "town": "桜木町",
    "town_kana": "サクラギチョウ",
    "street": null,
    "office_name": null,
    "office_name_kana": null
  },
  "0131": {
    "zip_code": "5090131",
    "prefecture": "岐阜県",
    "prefecture_kana": "ギフケン",
    "prefecture_code": 21,
    "city": "各務原市",
    "city_kana": "カカミガハラシ",
    "town": "つつじが丘",
    "town_kana": "ツツジガオカ",
    "street": null,
    "office_name": null,
    "office_name_kana": null
  },
  "0132": {
    "zip_code": "5090132",
    "prefecture": "岐阜県",
    "prefecture_kana": "ギフケン",
    "prefecture_code": 21,
    "city": "各務原市",
    "city_kana": "カカミガハラシ",
    "town": "鵜沼西町",
    "town_kana": "ウヌマニシマチ",
    "street": null,
    "office_name": null,
    "office_name_kana": null
  },
  "0133": {
    "zip_code": "5090133",
    "prefecture": "岐阜県",
    "prefecture_kana": "ギフケン",
    "prefecture_code": 21,
    "city": "各務原市",
    "city_kana": "カカミガハラシ",
    "town": "鵜沼古市場町",
    "town_kana": "ウヌマフルイチバチョウ",
    "street": null,
    "office_name": null,
    "office_name_kana": null
  },
  "0134": {
    "zip_code": "5090134",
    "prefecture": "岐阜県",
    "prefecture_kana": "ギフケン",
    "prefecture_code": 21,
    "city": "各務原市",
    "city_kana": "カカミガハラシ",
    "town": "鵜沼真名越町",
    "town_kana": "ウヌママナゴシチョウ",
    "street": null,
    "office_name": null,
    "office_name_kana": null
  },
  "0135": {
    "zip_code": "5090135",
    "prefecture": "岐阜県",
    "prefecture_kana": "ギフケン",
    "prefecture_code": 21,
    "city": "各務原市",
    "city_kana": "カカミガハラシ",
    "town": "鵜沼羽場町",
    "town_kana": "ウヌマハバチョウ",
    "street": null,
    "office_name": null,
    "office_name_kana": null
  },
  "0136": {
    "zip_code": "5090136",
    "prefecture": "岐阜県",
    "prefecture_kana": "ギフケン",
    "prefecture_code": 21,
    "city": "各務原市",
    "city_kana": "カカミガハラシ",
    "town": "松が丘",
    "town_kana": "マツガオカ",
    "street": null,
    "office_name": null,
    "office_name_kana": null
  },
  "0141": {
    "zip_code": "5090141",
    "prefecture": "岐阜県",
    "prefecture_kana": "ギフケン",
    "prefecture_code": 21,
    "city": "各務原市",
    "city_kana": "カカミガハラシ",
    "town": "鵜沼各務原町",
    "town_kana": "ウヌマカカミガハラチョウ",
    "street": null,
    "office_name": null,
    "office_name_kana": null
  },
  "0142": {
    "zip_code": "5090142",
    "prefecture": "岐阜県",
    "prefecture_kana": "ギフケン",
    "prefecture_code": 21,
    "city": "各務原市",
    "city_kana": "カカミガハラシ",
    "town": "鵜沼丸子町",
    "town_kana": "ウヌママルコチョウ",
    "street": null,
    "office_name": null,
    "office_name_kana": null
  },
  "0143": {
    "zip_code": "5090143",
    "prefecture": "岐阜県",
    "prefecture_kana": "ギフケン",
    "prefecture_code": 21,
    "city": "各務原市",
    "city_kana": "カカミガハラシ",
    "town": "鵜沼小伊木町",
    "town_kana": "ウヌマコイギチョウ",
    "street": null,
    "office_name": null,
    "office_name_kana": null
  },
  "0144": {
    "zip_code": "5090144",
    "prefecture": "岐阜県",
    "prefecture_kana": "ギフケン",
    "prefecture_code": 21,
    "city": "各務原市",
    "city_kana": "カカミガハラシ",
    "town": "鵜沼大伊木町",
    "town_kana": "ウヌマオオイギチョウ",
    "street": null,
    "office_name": null,
    "office_name_kana": null
  },
  "0145": {
    "zip_code": "5090145",
    "prefecture": "岐阜県",
    "prefecture_kana": "ギフケン",
    "prefecture_code": 21,
    "city": "各務原市",
    "city_kana": "カカミガハラシ",
    "town": "鵜沼朝日町",
    "town_kana": "ウヌマアサヒマチ",
    "street": null,
    "office_name": null,
    "office_name_kana": null
  },
  "0146": {
    "zip_code": "5090146",
    "prefecture": "岐阜県",
    "prefecture_kana": "ギフケン",
    "prefecture_code": 21,
    "city": "各務原市",
    "city_kana": "カカミガハラシ",
    "town": "鵜沼三ツ池町",
    "town_kana": "ウヌマミツイケチョウ",
    "street": null,
    "office_name": null,
    "office_name_kana": null
  },
  "0147": {
    "zip_code": "5090147",
    "prefecture": "岐阜県",
    "prefecture_kana": "ギフケン",
    "prefecture_code": 21,
    "city": "各務原市",
    "city_kana": "カカミガハラシ",
    "town": "鵜沼川崎町",
    "town_kana": "ウヌマカワサキチョウ",
    "street": null,
    "office_name": null,
    "office_name_kana": null
  },
  "0192": {
    "zip_code": "5090192",
    "prefecture": "岐阜県",
    "prefecture_kana": "ギフケン",
    "prefecture_code": 21,
    "city": "各務原市",
    "city_kana": "カカミガハラシ",
    "town": "鵜沼三ツ池町",
    "town_kana": "ウヌマミツイケチョウ",
    "street": "６丁目４５５",
    "office_name": "岐阜車体工業　株式会社",
    "office_name_kana": "ギフシヤタイコウギヨウ カブシキガイシヤ"
  },
  "0197": {
    "zip_code": "5090197",
    "prefecture": "岐阜県",
    "prefecture_kana": "ギフケン",
    "prefecture_code": 21,
    "city": "各務原市",
    "city_kana": "カカミガハラシ",
    "town": "鵜沼各務原町",
    "town_kana": "ウヌマカカミガハラチョウ",
    "street": "１丁目４番地の１",
    "office_name": "生活協同組合コープぎふ",
    "office_name_kana": "セイカツキヨウドウクミアイコ-プギフ"
  },
  "0198": {
    "zip_code": "5090198",
    "prefecture": "岐阜県",
    "prefecture_kana": "ギフケン",
    "prefecture_code": 21,
    "city": "各務原市",
    "city_kana": "カカミガハラシ",
    "town": "鵜沼大伊木町",
    "town_kana": "ウヌマオオイギチョウ",
    "street": "５丁目２６５−１",
    "office_name": "（株）　八幡ねじ　Ｈ・Ｉ事業部",
    "office_name_kana": "(カブ) ヤハタネジ エイチ・アイジギヨウブ"
  },
  "0200": {
    "zip_code": "5090200",
    "prefecture": "岐阜県",
    "prefecture_kana": "ギフケン",
    "prefecture_code": 21,
    "city": "可児市",
    "city_kana": "カニシ",
    "town": "",
    "town_kana": "",
    "street": null,
    "office_name": null,
    "office_name_kana": null
  },
  "0201": {
    "zip_code": "5090201",
    "prefecture": "岐阜県",
    "prefecture_kana": "ギフケン",
    "prefecture_code": 21,
    "city": "可児市",
    "city_kana": "カニシ",
    "town": "川合",
    "town_kana": "カワイ",
    "street": null,
    "office_name": null,
    "office_name_kana": null
  },
  "0202": {
    "zip_code": "5090202",
    "prefecture": "岐阜県",
    "prefecture_kana": "ギフケン",
    "prefecture_code": 21,
    "city": "可児市",
    "city_kana": "カニシ",
    "town": "中恵土",
    "town_kana": "ナカエド",
    "street": null,
    "office_name": null,
    "office_name_kana": null
  },
  "0203": {
    "zip_code": "5090203",
    "prefecture": "岐阜県",
    "prefecture_kana": "ギフケン",
    "prefecture_code": 21,
    "city": "可児市",
    "city_kana": "カニシ",
    "town": "下恵土",
    "town_kana": "シモエド",
    "street": null,
    "office_name": null,
    "office_name_kana": null
  },
  "0204": {
    "zip_code": "5090204",
    "prefecture": "岐阜県",
    "prefecture_kana": "ギフケン",
    "prefecture_code": 21,
    "city": "可児市",
    "city_kana": "カニシ",
    "town": "禅台寺",
    "town_kana": "ゼンダイジ",
    "street": null,
    "office_name": null,
    "office_name_kana": null
  },
  "0205": {
    "zip_code": "5090205",
    "prefecture": "岐阜県",
    "prefecture_kana": "ギフケン",
    "prefecture_code": 21,
    "city": "可児市",
    "city_kana": "カニシ",
    "town": "徳野南",
    "town_kana": "トクノミナミ",
    "street": null,
    "office_name": null,
    "office_name_kana": null
  },
  "0206": {
    "zip_code": "5090206",
    "prefecture": "岐阜県",
    "prefecture_kana": "ギフケン",
    "prefecture_code": 21,
    "city": "可児市",
    "city_kana": "カニシ",
    "town": "土田",
    "town_kana": "ドタ",
    "street": null,
    "office_name": null,
    "office_name_kana": null
  },
  "0207": {
    "zip_code": "5090207",
    "prefecture": "岐阜県",
    "prefecture_kana": "ギフケン",
    "prefecture_code": 21,
    "city": "可児市",
    "city_kana": "カニシ",
    "town": "今渡",
    "town_kana": "イマワタリ",
    "street": null,
    "office_name": null,
    "office_name_kana": null
  },
  "0208": {
    "zip_code": "5090208",
    "prefecture": "岐阜県",
    "prefecture_kana": "ギフケン",
    "prefecture_code": 21,
    "city": "可児市",
    "city_kana": "カニシ",
    "town": "川合北",
    "town_kana": "カワイキタ",
    "street": null,
    "office_name": null,
    "office_name_kana": null
  },
  "0211": {
    "zip_code": "5090211",
    "prefecture": "岐阜県",
    "prefecture_kana": "ギフケン",
    "prefecture_code": 21,
    "city": "可児市",
    "city_kana": "カニシ",
    "town": "渕之上",
    "town_kana": "フチノウエ",
    "street": null,
    "office_name": null,
    "office_name_kana": null
  },
  "0212": {
    "zip_code": "5090212",
    "prefecture": "岐阜県",
    "prefecture_kana": "ギフケン",
    "prefecture_code": 21,
    "city": "可児市",
    "city_kana": "カニシ",
    "town": "柿田",
    "town_kana": "カキダ",
    "street": null,
    "office_name": null,
    "office_name_kana": null
  },
  "0213": {
    "zip_code": "5090213",
    "prefecture": "岐阜県",
    "prefecture_kana": "ギフケン",
    "prefecture_code": 21,
    "city": "可児市",
    "city_kana": "カニシ",
    "town": "瀬田",
    "town_kana": "セタ",
    "street": null,
    "office_name": null,
    "office_name_kana": null
  },
  "0214": {
    "zip_code": "5090214",
    "prefecture": "岐阜県",
    "prefecture_kana": "ギフケン",
    "prefecture_code": 21,
    "city": "可児市",
    "city_kana": "カニシ",
    "town": "広見",
    "town_kana": "ヒロミ",
    "street": null,
    "office_name": null,
    "office_name_kana": null
  },
  "0215": {
    "zip_code": "5090215",
    "prefecture": "岐阜県",
    "prefecture_kana": "ギフケン",
    "prefecture_code": 21,
    "city": "可児市",
    "city_kana": "カニシ",
    "town": "石井",
    "town_kana": "イシイ",
    "street": null,
    "office_name": null,
    "office_name_kana": null
  },
  "0216": {
    "zip_code": "5090216",
    "prefecture": "岐阜県",
    "prefecture_kana": "ギフケン",
    "prefecture_code": 21,
    "city": "可児市",
    "city_kana": "カニシ",
    "town": "石森",
    "town_kana": "イシモリ",
    "street": null,
    "office_name": null,
    "office_name_kana": null
  },
  "0217": {
    "zip_code": "5090217",
    "prefecture": "岐阜県",
    "prefecture_kana": "ギフケン",
    "prefecture_code": 21,
    "city": "可児市",
    "city_kana": "カニシ",
    "town": "平貝戸",
    "town_kana": "ヒラガイト",
    "street": null,
    "office_name": null,
    "office_name_kana": null
  },
  "0218": {
    "zip_code": "5090218",
    "prefecture": "岐阜県",
    "prefecture_kana": "ギフケン",
    "prefecture_code": 21,
    "city": "可児市",
    "city_kana": "カニシ",
    "town": "松伏",
    "town_kana": "マツブセ",
    "street": null,
    "office_name": null,
    "office_name_kana": null
  },
  "0221": {
    "zip_code": "5090221",
    "prefecture": "岐阜県",
    "prefecture_kana": "ギフケン",
    "prefecture_code": 21,
    "city": "可児市",
    "city_kana": "カニシ",
    "town": "広眺ケ丘",
    "town_kana": "ヒロミガオカ",
    "street": null,
    "office_name": null,
    "office_name_kana": null
  },
  "0222": {
    "zip_code": "5090222",
    "prefecture": "岐阜県",
    "prefecture_kana": "ギフケン",
    "prefecture_code": 21,
    "city": "可児市",
    "city_kana": "カニシ",
    "town": "羽崎",
    "town_kana": "ハザキ",
    "street": null,
    "office_name": null,
    "office_name_kana": null
  },
  "0223": {
    "zip_code": "5090223",
    "prefecture": "岐阜県",
    "prefecture_kana": "ギフケン",
    "prefecture_code": 21,
    "city": "可児市",
    "city_kana": "カニシ",
    "town": "羽生ケ丘",
    "town_kana": "ハニュウガオカ",
    "street": null,
    "office_name": null,
    "office_name_kana": null
  },
  "0224": {
    "zip_code": "5090224",
    "prefecture": "岐阜県",
    "prefecture_kana": "ギフケン",
    "prefecture_code": 21,
    "city": "可児市",
    "city_kana": "カニシ",
    "town": "久々利",
    "town_kana": "ククリ",
    "street": null,
    "office_name": null,
    "office_name_kana": null
  },
  "0230": {
    "zip_code": "5090230",
    "prefecture": "岐阜県",
    "prefecture_kana": "ギフケン",
    "prefecture_code": 21,
    "city": "可児市",
    "city_kana": "カニシ",
    "town": "星見台",
    "town_kana": "ホシミダイ",
    "street": null,
    "office_name": null,
    "office_name_kana": null
  },
  "0231": {
    "zip_code": "5090231",
    "prefecture": "岐阜県",
    "prefecture_kana": "ギフケン",
    "prefecture_code": 21,
    "city": "可児市",
    "city_kana": "カニシ",
    "town": "緑ケ丘",
    "town_kana": "ミドリガオカ",
    "street": null,
    "office_name": null,
    "office_name_kana": null
  },
  "0232": {
    "zip_code": "5090232",
    "prefecture": "岐阜県",
    "prefecture_kana": "ギフケン",
    "prefecture_code": 21,
    "city": "可児市",
    "city_kana": "カニシ",
    "town": "二野",
    "town_kana": "ニノ",
    "street": null,
    "office_name": null,
    "office_name_kana": null
  },
  "0233": {
    "zip_code": "5090233",
    "prefecture": "岐阜県",
    "prefecture_kana": "ギフケン",
    "prefecture_code": 21,
    "city": "可児市",
    "city_kana": "カニシ",
    "town": "柿下",
    "town_kana": "カキシタ",
    "street": null,
    "office_name": null,
    "office_name_kana": null
  },
  "0234": {
    "zip_code": "5090234",
    "prefecture": "岐阜県",
    "prefecture_kana": "ギフケン",
    "prefecture_code": 21,
    "city": "可児市",
    "city_kana": "カニシ",
    "town": "久々利柿下入会",
    "town_kana": "ククリカキシタニュウカイ",
    "street": null,
    "office_name": null,
    "office_name_kana": null
  },
  "0235": {
    "zip_code": "5090235",
    "prefecture": "岐阜県",
    "prefecture_kana": "ギフケン",
    "prefecture_code": 21,
    "city": "可児市",
    "city_kana": "カニシ",
    "town": "桜ケ丘",
    "town_kana": "サクラガオカ",
    "street": null,
    "office_name": null,
    "office_name_kana": null
  },
  "0236": {
    "zip_code": "5090236",
    "prefecture": "岐阜県",
    "prefecture_kana": "ギフケン",
    "prefecture_code": 21,
    "city": "可児市",
    "city_kana": "カニシ",
    "town": "皐ケ丘",
    "town_kana": "サツキガオカ",
    "street": null,
    "office_name": null,
    "office_name_kana": null
  },
  "0237": {
    "zip_code": "5090237",
    "prefecture": "岐阜県",
    "prefecture_kana": "ギフケン",
    "prefecture_code": 21,
    "city": "可児市",
    "city_kana": "カニシ",
    "town": "桂ケ丘",
    "town_kana": "カツラガオカ",
    "street": null,
    "office_name": null,
    "office_name_kana": null
  },
  "0238": {
    "zip_code": "5090238",
    "prefecture": "岐阜県",
    "prefecture_kana": "ギフケン",
    "prefecture_code": 21,
    "city": "可児市",
    "city_kana": "カニシ",
    "town": "大森",
    "town_kana": "オオモリ",
    "street": null,
    "office_name": null,
    "office_name_kana": null
  },
  "0239": {
    "zip_code": "5090239",
    "prefecture": "岐阜県",
    "prefecture_kana": "ギフケン",
    "prefecture_code": 21,
    "city": "可児市",
    "city_kana": "カニシ",
    "town": "大森台",
    "town_kana": "オオモリダイ",
    "street": null,
    "office_name": null,
    "office_name_kana": null
  },
  "0240": {
    "zip_code": "5090240",
    "prefecture": "岐阜県",
    "prefecture_kana": "ギフケン",
    "prefecture_code": 21,
    "city": "可児市",
    "city_kana": "カニシ",
    "town": "みずきケ丘",
    "town_kana": "ミズキガオカ",
    "street": null,
    "office_name": null,
    "office_name_kana": null
  },
  "0241": {
    "zip_code": "5090241",
    "prefecture": "岐阜県",
    "prefecture_kana": "ギフケン",
    "prefecture_code": 21,
    "city": "可児市",
    "city_kana": "カニシ",
    "town": "坂戸",
    "town_kana": "サカド",
    "street": null,
    "office_name": null,
    "office_name_kana": null
  },
  "0242": {
    "zip_code": "5090242",
    "prefecture": "岐阜県",
    "prefecture_kana": "ギフケン",
    "prefecture_code": 21,
    "city": "可児市",
    "city_kana": "カニシ",
    "town": "谷迫間",
    "town_kana": "ヤバサマ",
    "street": null,
    "office_name": null,
    "office_name_kana": null
  },
  "0245": {
    "zip_code": "5090245",
    "prefecture": "岐阜県",
    "prefecture_kana": "ギフケン",
    "prefecture_code": 21,
    "city": "可児市",
    "city_kana": "カニシ",
    "town": "下切",
    "town_kana": "シモギリ",
    "street": null,
    "office_name": null,
    "office_name_kana": null
  },
  "0246": {
    "zip_code": "5090246",
    "prefecture": "岐阜県",
    "prefecture_kana": "ギフケン",
    "prefecture_code": 21,
    "city": "可児市",
    "city_kana": "カニシ",
    "town": "今",
    "town_kana": "イマ",
    "street": null,
    "office_name": null,
    "office_name_kana": null
  },
  "0247": {
    "zip_code": "5090247",
    "prefecture": "岐阜県",
    "prefecture_kana": "ギフケン",
    "prefecture_code": 21,
    "city": "可児市",
    "city_kana": "カニシ",
    "town": "塩河",
    "town_kana": "シュウガ",
    "street": null,
    "office_name": null,
    "office_name_kana": null
  },
  "0248": {
    "zip_code": "5090248",
    "prefecture": "岐阜県",
    "prefecture_kana": "ギフケン",
    "prefecture_code": 21,
    "city": "可児市",
    "city_kana": "カニシ",
    "town": "清水ケ丘",
    "town_kana": "シミズガオカ",
    "street": null,
    "office_name": null,
    "office_name_kana": null
  },
  "0249": {
    "zip_code": "5090249",
    "prefecture": "岐阜県",
    "prefecture_kana": "ギフケン",
    "prefecture_code": 21,
    "city": "可児市",
    "city_kana": "カニシ",
    "town": "姫ケ丘",
    "town_kana": "ヒメガオカ",
    "street": null,
    "office_name": null,
    "office_name_kana": null
  },
  "0250": {
    "zip_code": "5090250",
    "prefecture": "岐阜県",
    "prefecture_kana": "ギフケン",
    "prefecture_code": 21,
    "city": "可児市",
    "city_kana": "カニシ",
    "town": "美里ケ丘",
    "town_kana": "ミサトガオカ",
    "street": null,
    "office_name": null,
    "office_name_kana": null
  },
  "0251": {
    "zip_code": "5090251",
    "prefecture": "岐阜県",
    "prefecture_kana": "ギフケン",
    "prefecture_code": 21,
    "city": "可児市",
    "city_kana": "カニシ",
    "town": "塩",
    "town_kana": "シオ",
    "street": null,
    "office_name": null,
    "office_name_kana": null
  },
  "0252": {
    "zip_code": "5090252",
    "prefecture": "岐阜県",
    "prefecture_kana": "ギフケン",
    "prefecture_code": 21,
    "city": "可児市",
    "city_kana": "カニシ",
    "town": "矢戸",
    "town_kana": "ヤト",
    "street": null,
    "office_name": null,
    "office_name_kana": null
  },
  "0253": {
    "zip_code": "5090253",
    "prefecture": "岐阜県",
    "prefecture_kana": "ギフケン",
    "prefecture_code": 21,
    "city": "可児市",
    "city_kana": "カニシ",
    "town": "室原",
    "town_kana": "ムロハラ",
    "street": null,
    "office_name": null,
    "office_name_kana": null
  },
  "0254": {
    "zip_code": "5090254",
    "prefecture": "岐阜県",
    "prefecture_kana": "ギフケン",
    "prefecture_code": 21,
    "city": "可児市",
    "city_kana": "カニシ",
    "town": "長洞",
    "town_kana": "ナガホラ",
    "street": null,
    "office_name": null,
    "office_name_kana": null
  },
  "0255": {
    "zip_code": "5090255",
    "prefecture": "岐阜県",
    "prefecture_kana": "ギフケン",
    "prefecture_code": 21,
    "city": "可児市",
    "city_kana": "カニシ",
    "town": "光陽台",
    "town_kana": "コウヨウダイ",
    "street": null,
    "office_name": null,
    "office_name_kana": null
  },
  "0256": {
    "zip_code": "5090256",
    "prefecture": "岐阜県",
    "prefecture_kana": "ギフケン",
    "prefecture_code": 21,
    "city": "可児市",
    "city_kana": "カニシ",
    "town": "東帷子",
    "town_kana": "ヒガシカタビラ",
    "street": null,
    "office_name": null,
    "office_name_kana": null
  },
  "0257": {
    "zip_code": "5090257",
    "prefecture": "岐阜県",
    "prefecture_kana": "ギフケン",
    "prefecture_code": 21,
    "city": "可児市",
    "city_kana": "カニシ",
    "town": "長坂",
    "town_kana": "ナガサカ",
    "street": null,
    "office_name": null,
    "office_name_kana": null
  },
  "0258": {
    "zip_code": "5090258",
    "prefecture": "岐阜県",
    "prefecture_kana": "ギフケン",
    "prefecture_code": 21,
    "city": "可児市",
    "city_kana": "カニシ",
    "town": "若葉台",
    "town_kana": "ワカバダイ",
    "street": null,
    "office_name": null,
    "office_name_kana": null
  },
  "0259": {
    "zip_code": "5090259",
    "prefecture": "岐阜県",
    "prefecture_kana": "ギフケン",
    "prefecture_code": 21,
    "city": "可児市",
    "city_kana": "カニシ",
    "town": "愛岐ケ丘",
    "town_kana": "アイギガオカ",
    "street": null,
    "office_name": null,
    "office_name_kana": null
  },
  "0261": {
    "zip_code": "5090261",
    "prefecture": "岐阜県",
    "prefecture_kana": "ギフケン",
    "prefecture_code": 21,
    "city": "可児市",
    "city_kana": "カニシ",
    "town": "虹ケ丘",
    "town_kana": "ニジガオカ",
    "street": null,
    "office_name": null,
    "office_name_kana": null
  },
  "0262": {
    "zip_code": "5090262",
    "prefecture": "岐阜県",
    "prefecture_kana": "ギフケン",
    "prefecture_code": 21,
    "city": "可児市",
    "city_kana": "カニシ",
    "town": "菅刈",
    "town_kana": "スゲカリ",
    "street": null,
    "office_name": null,
    "office_name_kana": null
  },
  "0263": {
    "zip_code": "5090263",
    "prefecture": "岐阜県",
    "prefecture_kana": "ギフケン",
    "prefecture_code": 21,
    "city": "可児市",
    "city_kana": "カニシ",
    "town": "緑",
    "town_kana": "ミドリ",
    "street": null,
    "office_name": null,
    "office_name_kana": null
  },
  "0264": {
    "zip_code": "5090264",
    "prefecture": "岐阜県",
    "prefecture_kana": "ギフケン",
    "prefecture_code": 21,
    "city": "可児市",
    "city_kana": "カニシ",
    "town": "鳩吹台",
    "town_kana": "ハトフキダイ",
    "street": null,
    "office_name": null,
    "office_name_kana": null
  },
  "0265": {
    "zip_code": "5090265",
    "prefecture": "岐阜県",
    "prefecture_kana": "ギフケン",
    "prefecture_code": 21,
    "city": "可児市",
    "city_kana": "カニシ",
    "town": "西帷子",
    "town_kana": "ニシカタビラ",
    "street": null,
    "office_name": null,
    "office_name_kana": null
  },
  "0266": {
    "zip_code": "5090266",
    "prefecture": "岐阜県",
    "prefecture_kana": "ギフケン",
    "prefecture_code": 21,
    "city": "可児市",
    "city_kana": "カニシ",
    "town": "帷子新町",
    "town_kana": "カタビラシンマチ",
    "street": null,
    "office_name": null,
    "office_name_kana": null
  },
  "0292": {
    "zip_code": "5090292",
    "prefecture": "岐阜県",
    "prefecture_kana": "ギフケン",
    "prefecture_code": 21,
    "city": "可児市",
    "city_kana": "カニシ",
    "town": "広見",
    "town_kana": "ヒロミ",
    "street": "１丁目１（可児郵便局私書箱第２号）",
    "office_name": "可児市役所",
    "office_name_kana": "カニシヤクシヨ"
  },
  "0294": {
    "zip_code": "5090294",
    "prefecture": "岐阜県",
    "prefecture_kana": "ギフケン",
    "prefecture_code": 21,
    "city": "可児市",
    "city_kana": "カニシ",
    "town": "広見",
    "town_kana": "ヒロミ",
    "street": "７−９０ケーブルテレビ可児社屋内４Ｆ",
    "office_name": "ＦＭラインウェーブ　株式会社",
    "office_name_kana": "エフエムラインウエ-ブ カブシキガイシヤ"
  },
  "0295": {
    "zip_code": "5090295",
    "prefecture": "岐阜県",
    "prefecture_kana": "ギフケン",
    "prefecture_code": 21,
    "city": "可児市",
    "city_kana": "カニシ",
    "town": "土田",
    "town_kana": "ドタ",
    "street": "５００",
    "office_name": "名古屋パルプ　株式会社",
    "office_name_kana": "ナゴヤパルプ カブシキガイシヤ"
  },
  "0296": {
    "zip_code": "5090296",
    "prefecture": "岐阜県",
    "prefecture_kana": "ギフケン",
    "prefecture_code": 21,
    "city": "可児市",
    "city_kana": "カニシ",
    "town": "二野",
    "town_kana": "ニノ",
    "street": "字南山２７０６番３",
    "office_name": "株式会社　日特スパークテック東濃",
    "office_name_kana": "カブシキガイシヤ ニツトクスパ-クテツクトウノウ"
  },
  "0297": {
    "zip_code": "5090297",
    "prefecture": "岐阜県",
    "prefecture_kana": "ギフケン",
    "prefecture_code": 21,
    "city": "可児市",
    "city_kana": "カニシ",
    "town": "土田",
    "town_kana": "ドタ",
    "street": "５０５",
    "office_name": "カヤバ工業　株式会社　岐阜南工場",
    "office_name_kana": "カヤバコウギヨウ カブシキガイシヤ ギフミナミコウジヨウ"
  },
  "0298": {
    "zip_code": "5090298",
    "prefecture": "岐阜県",
    "prefecture_kana": "ギフケン",
    "prefecture_code": 21,
    "city": "可児市",
    "city_kana": "カニシ",
    "town": "土田",
    "town_kana": "ドタ",
    "street": "２５４８",
    "office_name": "カヤバ工業　株式会社　岐阜北工場",
    "office_name_kana": "カヤバコウギヨウ カブシキガイシヤ ギフキタコウジヨウ"
  },
  "0300": {
    "zip_code": "5090300",
    "prefecture": "岐阜県",
    "prefecture_kana": "ギフケン",
    "prefecture_code": 21,
    "city": "加茂郡川辺町",
    "city_kana": "カモグンカワベチョウ",
    "town": "",
    "town_kana": "",
    "street": null,
    "office_name": null,
    "office_name_kana": null
  },
  "0301": {
    "zip_code": "5090301",
    "prefecture": "岐阜県",
    "prefecture_kana": "ギフケン",
    "prefecture_code": 21,
    "city": "加茂郡川辺町",
    "city_kana": "カモグンカワベチョウ",
    "town": "下麻生",
    "town_kana": "シモアソウ",
    "street": null,
    "office_name": null,
    "office_name_kana": null
  },
  "0302": {
    "zip_code": "5090302",
    "prefecture": "岐阜県",
    "prefecture_kana": "ギフケン",
    "prefecture_code": 21,
    "city": "加茂郡川辺町",
    "city_kana": "カモグンカワベチョウ",
    "town": "上川辺",
    "town_kana": "カミカワベ",
    "street": null,
    "office_name": null,
    "office_name_kana": null
  },
  "0303": {
    "zip_code": "5090303",
    "prefecture": "岐阜県",
    "prefecture_kana": "ギフケン",
    "prefecture_code": 21,
    "city": "加茂郡川辺町",
    "city_kana": "カモグンカワベチョウ",
    "town": "石神",
    "town_kana": "イシガミ",
    "street": null,
    "office_name": null,
    "office_name_kana": null
  },
  "0304": {
    "zip_code": "5090304",
    "prefecture": "岐阜県",
    "prefecture_kana": "ギフケン",
    "prefecture_code": 21,
    "city": "加茂郡川辺町",
    "city_kana": "カモグンカワベチョウ",
    "town": "中川辺",
    "town_kana": "ナカカワベ",
    "street": null,
    "office_name": null,
    "office_name_kana": null
  },
  "0305": {
    "zip_code": "5090305",
    "prefecture": "岐阜県",
    "prefecture_kana": "ギフケン",
    "prefecture_code": 21,
    "city": "加茂郡川辺町",
    "city_kana": "カモグンカワベチョウ",
    "town": "西栃井",
    "town_kana": "ニシトチイ",
    "street": null,
    "office_name": null,
    "office_name_kana": null
  },
  "0306": {
    "zip_code": "5090306",
    "prefecture": "岐阜県",
    "prefecture_kana": "ギフケン",
    "prefecture_code": 21,
    "city": "加茂郡川辺町",
    "city_kana": "カモグンカワベチョウ",
    "town": "下川辺",
    "town_kana": "シモカワベ",
    "street": null,
    "office_name": null,
    "office_name_kana": null
  },
  "0307": {
    "zip_code": "5090307",
    "prefecture": "岐阜県",
    "prefecture_kana": "ギフケン",
    "prefecture_code": 21,
    "city": "加茂郡川辺町",
    "city_kana": "カモグンカワベチョウ",
    "town": "鹿塩",
    "town_kana": "カシオ",
    "street": null,
    "office_name": null,
    "office_name_kana": null
  },
  "0311": {
    "zip_code": "5090311",
    "prefecture": "岐阜県",
    "prefecture_kana": "ギフケン",
    "prefecture_code": 21,
    "city": "加茂郡川辺町",
    "city_kana": "カモグンカワベチョウ",
    "town": "下吉田",
    "town_kana": "シモヨシダ",
    "street": null,
    "office_name": null,
    "office_name_kana": null
  },
  "0312": {
    "zip_code": "5090312",
    "prefecture": "岐阜県",
    "prefecture_kana": "ギフケン",
    "prefecture_code": 21,
    "city": "加茂郡川辺町",
    "city_kana": "カモグンカワベチョウ",
    "town": "中野",
    "town_kana": "ナカノ",
    "street": null,
    "office_name": null,
    "office_name_kana": null
  },
  "0313": {
    "zip_code": "5090313",
    "prefecture": "岐阜県",
    "prefecture_kana": "ギフケン",
    "prefecture_code": 21,
    "city": "加茂郡川辺町",
    "city_kana": "カモグンカワベチョウ",
    "town": "下飯田",
    "town_kana": "シモイイダ",
    "street": null,
    "office_name": null,
    "office_name_kana": null
  },
  "0314": {
    "zip_code": "5090314",
    "prefecture": "岐阜県",
    "prefecture_kana": "ギフケン",
    "prefecture_code": 21,
    "city": "加茂郡川辺町",
    "city_kana": "カモグンカワベチョウ",
    "town": "福島",
    "town_kana": "フクシマ",
    "street": null,
    "office_name": null,
    "office_name_kana": null
  },
  "0315": {
    "zip_code": "5090315",
    "prefecture": "岐阜県",
    "prefecture_kana": "ギフケン",
    "prefecture_code": 21,
    "city": "加茂郡川辺町",
    "city_kana": "カモグンカワベチョウ",
    "town": "比久見",
    "town_kana": "ヒクミ",
    "street": null,
    "office_name": null,
    "office_name_kana": null
  },
  "0393": {
    "zip_code": "5090393",
    "prefecture": "岐阜県",
    "prefecture_kana": "ギフケン",
    "prefecture_code": 21,
    "city": "加茂郡川辺町",
    "city_kana": "カモグンカワベチョウ",
    "town": "中川辺",
    "town_kana": "ナカカワベ",
    "street": "１５１５−１",
    "office_name": "川辺町役場",
    "office_name_kana": "カワベチヨウヤクバ"
  },
  "0400": {
    "zip_code": "5090400",
    "prefecture": "岐阜県",
    "prefecture_kana": "ギフケン",
    "prefecture_code": 21,
    "city": "加茂郡七宗町",
    "city_kana": "カモグンヒチソウチョウ",
    "town": "",
    "town_kana": "",
    "street": null,
    "office_name": null,
    "office_name_kana": null
  },
  "0401": {
    "zip_code": "5090401",
    "prefecture": "岐阜県",
    "prefecture_kana": "ギフケン",
    "prefecture_code": 21,
    "city": "加茂郡七宗町",
    "city_kana": "カモグンヒチソウチョウ",
    "town": "上麻生",
    "town_kana": "カミアソウ",
    "street": null,
    "office_name": null,
    "office_name_kana": null
  },
  "0402": {
    "zip_code": "5090402",
    "prefecture": "岐阜県",
    "prefecture_kana": "ギフケン",
    "prefecture_code": 21,
    "city": "加茂郡七宗町",
    "city_kana": "カモグンヒチソウチョウ",
    "town": "川並",
    "town_kana": "カワナミ",
    "street": null,
    "office_name": null,
    "office_name_kana": null
  },
  "0403": {
    "zip_code": "5090403",
    "prefecture": "岐阜県",
    "prefecture_kana": "ギフケン",
    "prefecture_code": 21,
    "city": "加茂郡七宗町",
    "city_kana": "カモグンヒチソウチョウ",
    "town": "中麻生",
    "town_kana": "ナカアソウ",
    "street": null,
    "office_name": null,
    "office_name_kana": null
  },
  "0492": {
    "zip_code": "5090492",
    "prefecture": "岐阜県",
    "prefecture_kana": "ギフケン",
    "prefecture_code": 21,
    "city": "加茂郡七宗町",
    "city_kana": "カモグンヒチソウチョウ",
    "town": "上麻生",
    "town_kana": "カミアソウ",
    "street": "２４４２−３",
    "office_name": "七宗町役場",
    "office_name_kana": "ヒチソウチヨウヤクバ"
  },
  "0511": {
    "zip_code": "5090511",
    "prefecture": "岐阜県",
    "prefecture_kana": "ギフケン",
    "prefecture_code": 21,
    "city": "加茂郡七宗町",
    "city_kana": "カモグンヒチソウチョウ",
    "town": "神渕",
    "town_kana": "カブチ",
    "street": null,
    "office_name": null,
    "office_name_kana": null
  },
  "1100": {
    "zip_code": "5091100",
    "prefecture": "岐阜県",
    "prefecture_kana": "ギフケン",
    "prefecture_code": 21,
    "city": "加茂郡白川町",
    "city_kana": "カモグンシラカワチョウ",
    "town": "",
    "town_kana": "",
    "street": null,
    "office_name": null,
    "office_name_kana": null
  },
  "1101": {
    "zip_code": "5091101",
    "prefecture": "岐阜県",
    "prefecture_kana": "ギフケン",
    "prefecture_code": 21,
    "city": "加茂郡白川町",
    "city_kana": "カモグンシラカワチョウ",
    "town": "白山",
    "town_kana": "シラヤマ",
    "street": null,
    "office_name": null,
    "office_name_kana": null
  },
  "1102": {
    "zip_code": "5091102",
    "prefecture": "岐阜県",
    "prefecture_kana": "ギフケン",
    "prefecture_code": 21,
    "city": "加茂郡白川町",
    "city_kana": "カモグンシラカワチョウ",
    "town": "中川",
    "town_kana": "ナカガワ",
    "street": null,
    "office_name": null,
    "office_name_kana": null
  },
  "1103": {
    "zip_code": "5091103",
    "prefecture": "岐阜県",
    "prefecture_kana": "ギフケン",
    "prefecture_code": 21,
    "city": "加茂郡白川町",
    "city_kana": "カモグンシラカワチョウ",
    "town": "水戸野",
    "town_kana": "ミドノ",
    "street": null,
    "office_name": null,
    "office_name_kana": null
  },
  "1104": {
    "zip_code": "5091104",
    "prefecture": "岐阜県",
    "prefecture_kana": "ギフケン",
    "prefecture_code": 21,
    "city": "加茂郡白川町",
    "city_kana": "カモグンシラカワチョウ",
    "town": "和泉",
    "town_kana": "イズミ",
    "street": null,
    "office_name": null,
    "office_name_kana": null
  },
  "1105": {
    "zip_code": "5091105",
    "prefecture": "岐阜県",
    "prefecture_kana": "ギフケン",
    "prefecture_code": 21,
    "city": "加茂郡白川町",
    "city_kana": "カモグンシラカワチョウ",
    "town": "河岐",
    "town_kana": "カワマタ",
    "street": null,
    "office_name": null,
    "office_name_kana": null
  },
  "1106": {
    "zip_code": "5091106",
    "prefecture": "岐阜県",
    "prefecture_kana": "ギフケン",
    "prefecture_code": 21,
    "city": "加茂郡白川町",
    "city_kana": "カモグンシラカワチョウ",
    "town": "坂ノ東",
    "town_kana": "サカノヒガシ",
    "street": null,
    "office_name": null,
    "office_name_kana": null
  },
  "1107": {
    "zip_code": "5091107",
    "prefecture": "岐阜県",
    "prefecture_kana": "ギフケン",
    "prefecture_code": 21,
    "city": "加茂郡白川町",
    "city_kana": "カモグンシラカワチョウ",
    "town": "河東",
    "town_kana": "カトウ",
    "street": null,
    "office_name": null,
    "office_name_kana": null
  },
  "1108": {
    "zip_code": "5091108",
    "prefecture": "岐阜県",
    "prefecture_kana": "ギフケン",
    "prefecture_code": 21,
    "city": "加茂郡白川町",
    "city_kana": "カモグンシラカワチョウ",
    "town": "広野",
    "town_kana": "ヒロノ",
    "street": null,
    "office_name": null,
    "office_name_kana": null
  },
  "1111": {
    "zip_code": "5091111",
    "prefecture": "岐阜県",
    "prefecture_kana": "ギフケン",
    "prefecture_code": 21,
    "city": "加茂郡白川町",
    "city_kana": "カモグンシラカワチョウ",
    "town": "切井",
    "town_kana": "キリイ",
    "street": null,
    "office_name": null,
    "office_name_kana": null
  },
  "1112": {
    "zip_code": "5091112",
    "prefecture": "岐阜県",
    "prefecture_kana": "ギフケン",
    "prefecture_code": 21,
    "city": "加茂郡白川町",
    "city_kana": "カモグンシラカワチョウ",
    "town": "赤河",
    "town_kana": "アコウ",
    "street": null,
    "office_name": null,
    "office_name_kana": null
  },
  "1113": {
    "zip_code": "5091113",
    "prefecture": "岐阜県",
    "prefecture_kana": "ギフケン",
    "prefecture_code": 21,
    "city": "加茂郡白川町",
    "city_kana": "カモグンシラカワチョウ",
    "town": "三川",
    "town_kana": "ミカワ",
    "street": null,
    "office_name": null,
    "office_name_kana": null
  },
  "1192": {
    "zip_code": "5091192",
    "prefecture": "岐阜県",
    "prefecture_kana": "ギフケン",
    "prefecture_code": 21,
    "city": "加茂郡白川町",
    "city_kana": "カモグンシラカワチョウ",
    "town": "河岐",
    "town_kana": "カワマタ",
    "street": "７１５（白川郵便局私書箱第１号）",
    "office_name": "白川町役場",
    "office_name_kana": "シラカワチヨウヤクバ"
  },
  "1193": {
    "zip_code": "5091193",
    "prefecture": "岐阜県",
    "prefecture_kana": "ギフケン",
    "prefecture_code": 21,
    "city": "加茂郡白川町",
    "city_kana": "カモグンシラカワチョウ",
    "town": "白山",
    "town_kana": "シラヤマ",
    "street": "１０３３",
    "office_name": "白川観光開発　株式会社",
    "office_name_kana": "シラカワカンコウカイハツ カブシキガイシヤ"
  },
  "1221": {
    "zip_code": "5091221",
    "prefecture": "岐阜県",
    "prefecture_kana": "ギフケン",
    "prefecture_code": 21,
    "city": "加茂郡白川町",
    "city_kana": "カモグンシラカワチョウ",
    "town": "上佐見",
    "town_kana": "カミサミ",
    "street": null,
    "office_name": null,
    "office_name_kana": null
  },
  "1222": {
    "zip_code": "5091222",
    "prefecture": "岐阜県",
    "prefecture_kana": "ギフケン",
    "prefecture_code": 21,
    "city": "加茂郡白川町",
    "city_kana": "カモグンシラカワチョウ",
    "town": "下佐見",
    "town_kana": "シモサミ",
    "street": null,
    "office_name": null,
    "office_name_kana": null
  },
  "1300": {
    "zip_code": "5091300",
    "prefecture": "岐阜県",
    "prefecture_kana": "ギフケン",
    "prefecture_code": 21,
    "city": "加茂郡東白川村",
    "city_kana": "カモグンヒガシシラカワムラ",
    "town": "",
    "town_kana": "",
    "street": null,
    "office_name": null,
    "office_name_kana": null
  },
  "1301": {
    "zip_code": "5091301",
    "prefecture": "岐阜県",
    "prefecture_kana": "ギフケン",
    "prefecture_code": 21,
    "city": "加茂郡東白川村",
    "city_kana": "カモグンヒガシシラカワムラ",
    "town": "越原",
    "town_kana": "オッパラ",
    "street": null,
    "office_name": null,
    "office_name_kana": null
  },
  "1302": {
    "zip_code": "5091302",
    "prefecture": "岐阜県",
    "prefecture_kana": "ギフケン",
    "prefecture_code": 21,
    "city": "加茂郡東白川村",
    "city_kana": "カモグンヒガシシラカワムラ",
    "town": "神土",
    "town_kana": "カンド",
    "street": null,
    "office_name": null,
    "office_name_kana": null
  },
  "1303": {
    "zip_code": "5091303",
    "prefecture": "岐阜県",
    "prefecture_kana": "ギフケン",
    "prefecture_code": 21,
    "city": "加茂郡東白川村",
    "city_kana": "カモグンヒガシシラカワムラ",
    "town": "五加",
    "town_kana": "ゴカ",
    "street": null,
    "office_name": null,
    "office_name_kana": null
  },
  "1392": {
    "zip_code": "5091392",
    "prefecture": "岐阜県",
    "prefecture_kana": "ギフケン",
    "prefecture_code": 21,
    "city": "加茂郡東白川村",
    "city_kana": "カモグンヒガシシラカワムラ",
    "town": "神土",
    "town_kana": "カンド",
    "street": "５４８",
    "office_name": "東白川村役場",
    "office_name_kana": "ヒガシシラカワムラヤクバ"
  },
  "1393": {
    "zip_code": "5091393",
    "prefecture": "岐阜県",
    "prefecture_kana": "ギフケン",
    "prefecture_code": 21,
    "city": "加茂郡東白川村",
    "city_kana": "カモグンヒガシシラカワムラ",
    "town": "神土",
    "town_kana": "カンド",
    "street": "６９２−２",
    "office_name": "東白川村国民健康保険病院",
    "office_name_kana": "ヒガシシラカワムラコクミンケンコウホケンビヨウイン"
  },
  "1394": {
    "zip_code": "5091394",
    "prefecture": "岐阜県",
    "prefecture_kana": "ギフケン",
    "prefecture_code": 21,
    "city": "加茂郡東白川村",
    "city_kana": "カモグンヒガシシラカワムラ",
    "town": "越原",
    "town_kana": "オッパラ",
    "street": "３３−１",
    "office_name": "株式会社　岐阜部品",
    "office_name_kana": "カブシキガイシヤ ギフブヒン"
  },
  "1395": {
    "zip_code": "5091395",
    "prefecture": "岐阜県",
    "prefecture_kana": "ギフケン",
    "prefecture_code": 21,
    "city": "加茂郡東白川村",
    "city_kana": "カモグンヒガシシラカワムラ",
    "town": "神土",
    "town_kana": "カンド",
    "street": "４２６−１",
    "office_name": "株式会社　ふるさと企画",
    "office_name_kana": "カブシキガイシヤ フルサトキカク"
  },
  "1396": {
    "zip_code": "5091396",
    "prefecture": "岐阜県",
    "prefecture_kana": "ギフケン",
    "prefecture_code": 21,
    "city": "加茂郡東白川村",
    "city_kana": "カモグンヒガシシラカワムラ",
    "town": "神土",
    "town_kana": "カンド",
    "street": "１７７０",
    "office_name": "株式会社　白川物産",
    "office_name_kana": "カブシキガイシヤ シラカワブツサン"
  },
  "1431": {
    "zip_code": "5091431",
    "prefecture": "岐阜県",
    "prefecture_kana": "ギフケン",
    "prefecture_code": 21,
    "city": "加茂郡白川町",
    "city_kana": "カモグンシラカワチョウ",
    "town": "黒川",
    "town_kana": "クロカワ",
    "street": null,
    "office_name": null,
    "office_name_kana": null
  },
  "1492": {
    "zip_code": "5091492",
    "prefecture": "岐阜県",
    "prefecture_kana": "ギフケン",
    "prefecture_code": 21,
    "city": "加茂郡白川町",
    "city_kana": "カモグンシラカワチョウ",
    "town": "黒川",
    "town_kana": "クロカワ",
    "street": "１４００番地",
    "office_name": "（株）　ますぶち園",
    "office_name_kana": "(カブ) マスブチエン"
  },
  "1601": {
    "zip_code": "5091601",
    "prefecture": "岐阜県",
    "prefecture_kana": "ギフケン",
    "prefecture_code": 21,
    "city": "下呂市",
    "city_kana": "ゲロシ",
    "town": "金山町弓掛",
    "town_kana": "カナヤマチョウユガケ",
    "street": null,
    "office_name": null,
    "office_name_kana": null
  },
  "1602": {
    "zip_code": "5091602",
    "prefecture": "岐阜県",
    "prefecture_kana": "ギフケン",
    "prefecture_code": 21,
    "city": "下呂市",
    "city_kana": "ゲロシ",
    "town": "金山町卯野原",
    "town_kana": "カナヤマチョウウノハラ",
    "street": null,
    "office_name": null,
    "office_name_kana": null
  },
  "1603": {
    "zip_code": "5091603",
    "prefecture": "岐阜県",
    "prefecture_kana": "ギフケン",
    "prefecture_code": 21,
    "city": "下呂市",
    "city_kana": "ゲロシ",
    "town": "金山町岩瀬",
    "town_kana": "カナヤマチョウイワセ",
    "street": null,
    "office_name": null,
    "office_name_kana": null
  },
  "1604": {
    "zip_code": "5091604",
    "prefecture": "岐阜県",
    "prefecture_kana": "ギフケン",
    "prefecture_code": 21,
    "city": "下呂市",
    "city_kana": "ゲロシ",
    "town": "金山町東沓部",
    "town_kana": "カナヤマチョウヒガシクツベ",
    "street": null,
    "office_name": null,
    "office_name_kana": null
  },
  "1605": {
    "zip_code": "5091605",
    "prefecture": "岐阜県",
    "prefecture_kana": "ギフケン",
    "prefecture_code": 21,
    "city": "下呂市",
    "city_kana": "ゲロシ",
    "town": "金山町戸部",
    "town_kana": "カナヤマチョウトベ",
    "street": null,
    "office_name": null,
    "office_name_kana": null
  },
  "1606": {
    "zip_code": "5091606",
    "prefecture": "岐阜県",
    "prefecture_kana": "ギフケン",
    "prefecture_code": 21,
    "city": "下呂市",
    "city_kana": "ゲロシ",
    "town": "金山町祖師野",
    "town_kana": "カナヤマチョウソシノ",
    "street": null,
    "office_name": null,
    "office_name_kana": null
  },
  "1607": {
    "zip_code": "5091607",
    "prefecture": "岐阜県",
    "prefecture_kana": "ギフケン",
    "prefecture_code": 21,
    "city": "下呂市",
    "city_kana": "ゲロシ",
    "town": "金山町乙原",
    "town_kana": "カナヤマチョウオッパラ",
    "street": null,
    "office_name": null,
    "office_name_kana": null
  },
  "1611": {
    "zip_code": "5091611",
    "prefecture": "岐阜県",
    "prefecture_kana": "ギフケン",
    "prefecture_code": 21,
    "city": "下呂市",
    "city_kana": "ゲロシ",
    "town": "金山町中切",
    "town_kana": "カナヤマチョウナカギリ",
    "street": null,
    "office_name": null,
    "office_name_kana": null
  },
  "1612": {
    "zip_code": "5091612",
    "prefecture": "岐阜県",
    "prefecture_kana": "ギフケン",
    "prefecture_code": 21,
    "city": "下呂市",
    "city_kana": "ゲロシ",
    "town": "金山町福来",
    "town_kana": "カナヤマチョウフクライ",
    "street": null,
    "office_name": null,
    "office_name_kana": null
  },
  "1613": {
    "zip_code": "5091613",
    "prefecture": "岐阜県",
    "prefecture_kana": "ギフケン",
    "prefecture_code": 21,
    "city": "下呂市",
    "city_kana": "ゲロシ",
    "town": "金山町中津原",
    "town_kana": "カナヤマチョウナカツハラ",
    "street": null,
    "office_name": null,
    "office_name_kana": null
  },
  "1614": {
    "zip_code": "5091614",
    "prefecture": "岐阜県",
    "prefecture_kana": "ギフケン",
    "prefecture_code": 21,
    "city": "下呂市",
    "city_kana": "ゲロシ",
    "town": "金山町大船渡",
    "town_kana": "カナヤマチョウオオフナト",
    "street": null,
    "office_name": null,
    "office_name_kana": null
  },
  "1615": {
    "zip_code": "5091615",
    "prefecture": "岐阜県",
    "prefecture_kana": "ギフケン",
    "prefecture_code": 21,
    "city": "下呂市",
    "city_kana": "ゲロシ",
    "town": "金山町田島",
    "town_kana": "カナヤマチョウタジマ",
    "street": null,
    "office_name": null,
    "office_name_kana": null
  },
  "1616": {
    "zip_code": "5091616",
    "prefecture": "岐阜県",
    "prefecture_kana": "ギフケン",
    "prefecture_code": 21,
    "city": "下呂市",
    "city_kana": "ゲロシ",
    "town": "金山町下原町",
    "town_kana": "カナヤマチョウシモハラマチ",
    "street": null,
    "office_name": null,
    "office_name_kana": null
  },
  "1621": {
    "zip_code": "5091621",
    "prefecture": "岐阜県",
    "prefecture_kana": "ギフケン",
    "prefecture_code": 21,
    "city": "下呂市",
    "city_kana": "ゲロシ",
    "town": "金山町渡",
    "town_kana": "カナヤマチョウワタリ",
    "street": null,
    "office_name": null,
    "office_name_kana": null
  },
  "1622": {
    "zip_code": "5091622",
    "prefecture": "岐阜県",
    "prefecture_kana": "ギフケン",
    "prefecture_code": 21,
    "city": "下呂市",
    "city_kana": "ゲロシ",
    "town": "金山町金山",
    "town_kana": "カナヤマチョウカナヤマ",
    "street": null,
    "office_name": null,
    "office_name_kana": null
  },
  "1623": {
    "zip_code": "5091623",
    "prefecture": "岐阜県",
    "prefecture_kana": "ギフケン",
    "prefecture_code": 21,
    "city": "下呂市",
    "city_kana": "ゲロシ",
    "town": "金山町菅田桐洞",
    "town_kana": "カナヤマチョウスガタキリホラ",
    "street": null,
    "office_name": null,
    "office_name_kana": null
  },
  "1624": {
    "zip_code": "5091624",
    "prefecture": "岐阜県",
    "prefecture_kana": "ギフケン",
    "prefecture_code": 21,
    "city": "下呂市",
    "city_kana": "ゲロシ",
    "town": "金山町菅田笹洞",
    "town_kana": "カナヤマチョウスガタササホラ",
    "street": null,
    "office_name": null,
    "office_name_kana": null
  },
  "1692": {
    "zip_code": "5091692",
    "prefecture": "岐阜県",
    "prefecture_kana": "ギフケン",
    "prefecture_code": 21,
    "city": "下呂市",
    "city_kana": "ゲロシ",
    "town": "金山町下原町",
    "town_kana": "カナヤマチョウシモハラマチ",
    "street": "５４９−１",
    "office_name": "株式会社　マツオカ",
    "office_name_kana": "カブシキガイシヤ マツオカ"
  },
  "1695": {
    "zip_code": "5091695",
    "prefecture": "岐阜県",
    "prefecture_kana": "ギフケン",
    "prefecture_code": 21,
    "city": "下呂市",
    "city_kana": "ゲロシ",
    "town": "金山町大船渡",
    "town_kana": "カナヤマチョウオオフナト",
    "street": "６００−８",
    "office_name": "下呂市役所　金山振興事務所",
    "office_name_kana": "ゲロシヤクシヨ カナヤマシンコウジムシヨ"
  },
  "2131": {
    "zip_code": "5092131",
    "prefecture": "岐阜県",
    "prefecture_kana": "ギフケン",
    "prefecture_code": 21,
    "city": "下呂市",
    "city_kana": "ゲロシ",
    "town": "久野川",
    "town_kana": "クノガワ",
    "street": null,
    "office_name": null,
    "office_name_kana": null
  },
  "2132": {
    "zip_code": "5092132",
    "prefecture": "岐阜県",
    "prefecture_kana": "ギフケン",
    "prefecture_code": 21,
    "city": "下呂市",
    "city_kana": "ゲロシ",
    "town": "火打",
    "town_kana": "ヒウチ",
    "street": null,
    "office_name": null,
    "office_name_kana": null
  },
  "2133": {
    "zip_code": "5092133",
    "prefecture": "岐阜県",
    "prefecture_kana": "ギフケン",
    "prefecture_code": 21,
    "city": "下呂市",
    "city_kana": "ゲロシ",
    "town": "和佐",
    "town_kana": "ワサ",
    "street": null,
    "office_name": null,
    "office_name_kana": null
  },
  "2134": {
    "zip_code": "5092134",
    "prefecture": "岐阜県",
    "prefecture_kana": "ギフケン",
    "prefecture_code": 21,
    "city": "下呂市",
    "city_kana": "ゲロシ",
    "town": "焼石",
    "town_kana": "ヤケイシ",
    "street": null,
    "office_name": null,
    "office_name_kana": null
  },
  "2135": {
    "zip_code": "5092135",
    "prefecture": "岐阜県",
    "prefecture_kana": "ギフケン",
    "prefecture_code": 21,
    "city": "下呂市",
    "city_kana": "ゲロシ",
    "town": "三ツ渕",
    "town_kana": "ミツブチ",
    "street": null,
    "office_name": null,
    "office_name_kana": null
  },
  "2136": {
    "zip_code": "5092136",
    "prefecture": "岐阜県",
    "prefecture_kana": "ギフケン",
    "prefecture_code": 21,
    "city": "下呂市",
    "city_kana": "ゲロシ",
    "town": "瀬戸",
    "town_kana": "セト",
    "street": null,
    "office_name": null,
    "office_name_kana": null
  },
  "2137": {
    "zip_code": "5092137",
    "prefecture": "岐阜県",
    "prefecture_kana": "ギフケン",
    "prefecture_code": 21,
    "city": "下呂市",
    "city_kana": "ゲロシ",
    "town": "保井戸",
    "town_kana": "ホイド",
    "street": null,
    "office_name": null,
    "office_name_kana": null
  },
  "2138": {
    "zip_code": "5092138",
    "prefecture": "岐阜県",
    "prefecture_kana": "ギフケン",
    "prefecture_code": 21,
    "city": "下呂市",
    "city_kana": "ゲロシ",
    "town": "門原",
    "town_kana": "カドハラ",
    "street": null,
    "office_name": null,
    "office_name_kana": null
  },
  "2200": {
    "zip_code": "5092200",
    "prefecture": "岐阜県",
    "prefecture_kana": "ギフケン",
    "prefecture_code": 21,
    "city": "下呂市",
    "city_kana": "ゲロシ",
    "town": "",
    "town_kana": "",
    "street": null,
    "office_name": null,
    "office_name_kana": null
  },
  "2201": {
    "zip_code": "5092201",
    "prefecture": "岐阜県",
    "prefecture_kana": "ギフケン",
    "prefecture_code": 21,
    "city": "下呂市",
    "city_kana": "ゲロシ",
    "town": "東上田",
    "town_kana": "ヒガシウエダ",
    "street": null,
    "office_name": null,
    "office_name_kana": null
  },
  "2202": {
    "zip_code": "5092202",
    "prefecture": "岐阜県",
    "prefecture_kana": "ギフケン",
    "prefecture_code": 21,
    "city": "下呂市",
    "city_kana": "ゲロシ",
    "town": "森",
    "town_kana": "モリ",
    "street": null,
    "office_name": null,
    "office_name_kana": null
  },
  "2203": {
    "zip_code": "5092203",
    "prefecture": "岐阜県",
    "prefecture_kana": "ギフケン",
    "prefecture_code": 21,
    "city": "下呂市",
    "city_kana": "ゲロシ",
    "town": "小川",
    "town_kana": "オガワ",
    "street": null,
    "office_name": null,
    "office_name_kana": null
  },
  "2204": {
    "zip_code": "5092204",
    "prefecture": "岐阜県",
    "prefecture_kana": "ギフケン",
    "prefecture_code": 21,
    "city": "下呂市",
    "city_kana": "ゲロシ",
    "town": "三原",
    "town_kana": "サンバラ",
    "street": null,
    "office_name": null,
    "office_name_kana": null
  },
  "2205": {
    "zip_code": "5092205",
    "prefecture": "岐阜県",
    "prefecture_kana": "ギフケン",
    "prefecture_code": 21,
    "city": "下呂市",
    "city_kana": "ゲロシ",
    "town": "少ケ野",
    "town_kana": "ショウガノ",
    "street": null,
    "office_name": null,
    "office_name_kana": null
  },
  "2206": {
    "zip_code": "5092206",
    "prefecture": "岐阜県",
    "prefecture_kana": "ギフケン",
    "prefecture_code": 21,
    "city": "下呂市",
    "city_kana": "ゲロシ",
    "town": "幸田",
    "town_kana": "コウデン",
    "street": null,
    "office_name": null,
    "office_name_kana": null
  },
  "2207": {
    "zip_code": "5092207",
    "prefecture": "岐阜県",
    "prefecture_kana": "ギフケン",
    "prefecture_code": 21,
    "city": "下呂市",
    "city_kana": "ゲロシ",
    "town": "湯之島",
    "town_kana": "ユノシマ",
    "street": null,
    "office_name": null,
    "office_name_kana": null
  },
  "2292": {
    "zip_code": "5092292",
    "prefecture": "岐阜県",
    "prefecture_kana": "ギフケン",
    "prefecture_code": 21,
    "city": "下呂市",
    "city_kana": "ゲロシ",
    "town": "森",
    "town_kana": "モリ",
    "street": "２２１１",
    "office_name": "地方独立行政法人　岐阜県立　下呂温泉病院",
    "office_name_kana": "チホウドクリツギヨウセイホウジン ギフケンリツ ゲロオンセンビヨウイン"
  },
  "2293": {
    "zip_code": "5092293",
    "prefecture": "岐阜県",
    "prefecture_kana": "ギフケン",
    "prefecture_code": 21,
    "city": "下呂市",
    "city_kana": "ゲロシ",
    "town": "少ケ野",
    "town_kana": "ショウガノ",
    "street": "４２３",
    "office_name": "株式会社　ハウテック",
    "office_name_kana": "カブシキガイシヤ ハウテツク"
  },
  "2295": {
    "zip_code": "5092295",
    "prefecture": "岐阜県",
    "prefecture_kana": "ギフケン",
    "prefecture_code": 21,
    "city": "下呂市",
    "city_kana": "ゲロシ",
    "town": "森",
    "town_kana": "モリ",
    "street": "９６０",
    "office_name": "下呂市役所",
    "office_name_kana": "ゲロシヤクシヨ"
  },
  "2311": {
    "zip_code": "5092311",
    "prefecture": "岐阜県",
    "prefecture_kana": "ギフケン",
    "prefecture_code": 21,
    "city": "下呂市",
    "city_kana": "ゲロシ",
    "town": "乗政",
    "town_kana": "ノリマサ",
    "street": null,
    "office_name": null,
    "office_name_kana": null
  },
  "2312": {
    "zip_code": "5092312",
    "prefecture": "岐阜県",
    "prefecture_kana": "ギフケン",
    "prefecture_code": 21,
    "city": "下呂市",
    "city_kana": "ゲロシ",
    "town": "御厩野",
    "town_kana": "ミマヤノ",
    "street": null,
    "office_name": null,
    "office_name_kana": null
  },
  "2313": {
    "zip_code": "5092313",
    "prefecture": "岐阜県",
    "prefecture_kana": "ギフケン",
    "prefecture_code": 21,
    "city": "下呂市",
    "city_kana": "ゲロシ",
    "town": "野尻",
    "town_kana": "ノジリ",
    "street": null,
    "office_name": null,
    "office_name_kana": null
  },
  "2314": {
    "zip_code": "5092314",
    "prefecture": "岐阜県",
    "prefecture_kana": "ギフケン",
    "prefecture_code": 21,
    "city": "下呂市",
    "city_kana": "ゲロシ",
    "town": "宮地",
    "town_kana": "ミヤジ",
    "street": null,
    "office_name": null,
    "office_name_kana": null
  },
  "2421": {
    "zip_code": "5092421",
    "prefecture": "岐阜県",
    "prefecture_kana": "ギフケン",
    "prefecture_code": 21,
    "city": "下呂市",
    "city_kana": "ゲロシ",
    "town": "夏焼",
    "town_kana": "ナツヤケ",
    "street": null,
    "office_name": null,
    "office_name_kana": null
  },
  "2422": {
    "zip_code": "5092422",
    "prefecture": "岐阜県",
    "prefecture_kana": "ギフケン",
    "prefecture_code": 21,
    "city": "下呂市",
    "city_kana": "ゲロシ",
    "town": "田口",
    "town_kana": "タグチ",
    "street": null,
    "office_name": null,
    "office_name_kana": null
  },
  "2423": {
    "zip_code": "5092423",
    "prefecture": "岐阜県",
    "prefecture_kana": "ギフケン",
    "prefecture_code": 21,
    "city": "下呂市",
    "city_kana": "ゲロシ",
    "town": "蛇之尾",
    "town_kana": "ヘビノオ",
    "street": null,
    "office_name": null,
    "office_name_kana": null
  },
  "2424": {
    "zip_code": "5092424",
    "prefecture": "岐阜県",
    "prefecture_kana": "ギフケン",
    "prefecture_code": 21,
    "city": "下呂市",
    "city_kana": "ゲロシ",
    "town": "門和佐",
    "town_kana": "カドワサ",
    "street": null,
    "office_name": null,
    "office_name_kana": null
  },
  "2501": {
    "zip_code": "5092501",
    "prefecture": "岐阜県",
    "prefecture_kana": "ギフケン",
    "prefecture_code": 21,
    "city": "下呂市",
    "city_kana": "ゲロシ",
    "town": "萩原町山之口",
    "town_kana": "ハギワラチョウヤマノクチ",
    "street": null,
    "office_name": null,
    "office_name_kana": null
  },
  "2502": {
    "zip_code": "5092502",
    "prefecture": "岐阜県",
    "prefecture_kana": "ギフケン",
    "prefecture_code": 21,
    "city": "下呂市",
    "city_kana": "ゲロシ",
    "town": "萩原町四美",
    "town_kana": "ハギワラチョウシミ",
    "street": null,
    "office_name": null,
    "office_name_kana": null
  },
  "2503": {
    "zip_code": "5092503",
    "prefecture": "岐阜県",
    "prefecture_kana": "ギフケン",
    "prefecture_code": 21,
    "city": "下呂市",
    "city_kana": "ゲロシ",
    "town": "萩原町西上田",
    "town_kana": "ハギワラチョウニシウエダ",
    "street": null,
    "office_name": null,
    "office_name_kana": null
  },
  "2504": {
    "zip_code": "5092504",
    "prefecture": "岐阜県",
    "prefecture_kana": "ギフケン",
    "prefecture_code": 21,
    "city": "下呂市",
    "city_kana": "ゲロシ",
    "town": "萩原町跡津",
    "town_kana": "ハギワラチョウアトツ",
    "street": null,
    "office_name": null,
    "office_name_kana": null
  },
  "2505": {
    "zip_code": "5092505",
    "prefecture": "岐阜県",
    "prefecture_kana": "ギフケン",
    "prefecture_code": 21,
    "city": "下呂市",
    "city_kana": "ゲロシ",
    "town": "萩原町古関",
    "town_kana": "ハギワラチョウフルセキ",
    "street": null,
    "office_name": null,
    "office_name_kana": null
  },
  "2506": {
    "zip_code": "5092506",
    "prefecture": "岐阜県",
    "prefecture_kana": "ギフケン",
    "prefecture_code": 21,
    "city": "下呂市",
    "city_kana": "ゲロシ",
    "town": "萩原町羽根",
    "town_kana": "ハギワラチョウハネ",
    "street": null,
    "office_name": null,
    "office_name_kana": null
  },
  "2507": {
    "zip_code": "5092507",
    "prefecture": "岐阜県",
    "prefecture_kana": "ギフケン",
    "prefecture_code": 21,
    "city": "下呂市",
    "city_kana": "ゲロシ",
    "town": "萩原町野上",
    "town_kana": "ハギワラチョウノガミ",
    "street": null,
    "office_name": null,
    "office_name_kana": null
  },
  "2508": {
    "zip_code": "5092508",
    "prefecture": "岐阜県",
    "prefecture_kana": "ギフケン",
    "prefecture_code": 21,
    "city": "下呂市",
    "city_kana": "ゲロシ",
    "town": "萩原町尾崎",
    "town_kana": "ハギワラチョウオサキ",
    "street": null,
    "office_name": null,
    "office_name_kana": null
  },
  "2511": {
    "zip_code": "5092511",
    "prefecture": "岐阜県",
    "prefecture_kana": "ギフケン",
    "prefecture_code": 21,
    "city": "下呂市",
    "city_kana": "ゲロシ",
    "town": "萩原町宮田",
    "town_kana": "ハギワラチョウミヤダ",
    "street": null,
    "office_name": null,
    "office_name_kana": null
  },
  "2512": {
    "zip_code": "5092512",
    "prefecture": "岐阜県",
    "prefecture_kana": "ギフケン",
    "prefecture_code": 21,
    "city": "下呂市",
    "city_kana": "ゲロシ",
    "town": "萩原町大ヶ洞",
    "town_kana": "ハギワラチョウオオカホラ",
    "street": null,
    "office_name": null,
    "office_name_kana": null
  },
  "2513": {
    "zip_code": "5092513",
    "prefecture": "岐阜県",
    "prefecture_kana": "ギフケン",
    "prefecture_code": 21,
    "city": "下呂市",
    "city_kana": "ゲロシ",
    "town": "萩原町桜洞",
    "town_kana": "ハギワラチョウサクラボラ",
    "street": null,
    "office_name": null,
    "office_name_kana": null
  },
  "2514": {
    "zip_code": "5092514",
    "prefecture": "岐阜県",
    "prefecture_kana": "ギフケン",
    "prefecture_code": 21,
    "city": "下呂市",
    "city_kana": "ゲロシ",
    "town": "萩原町中呂",
    "town_kana": "ハギワラチョウチュウロ",
    "street": null,
    "office_name": null,
    "office_name_kana": null
  },
  "2515": {
    "zip_code": "5092515",
    "prefecture": "岐阜県",
    "prefecture_kana": "ギフケン",
    "prefecture_code": 21,
    "city": "下呂市",
    "city_kana": "ゲロシ",
    "town": "萩原町花池",
    "town_kana": "ハギワラチョウハナイケ",
    "street": null,
    "office_name": null,
    "office_name_kana": null
  },
  "2516": {
    "zip_code": "5092516",
    "prefecture": "岐阜県",
    "prefecture_kana": "ギフケン",
    "prefecture_code": 21,
    "city": "下呂市",
    "city_kana": "ゲロシ",
    "town": "萩原町上村",
    "town_kana": "ハギワラチョウウワムラ",
    "street": null,
    "office_name": null,
    "office_name_kana": null
  },
  "2517": {
    "zip_code": "5092517",
    "prefecture": "岐阜県",
    "prefecture_kana": "ギフケン",
    "prefecture_code": 21,
    "city": "下呂市",
    "city_kana": "ゲロシ",
    "town": "萩原町萩原",
    "town_kana": "ハギワラチョウハギワラ",
    "street": null,
    "office_name": null,
    "office_name_kana": null
  },
  "2518": {
    "zip_code": "5092518",
    "prefecture": "岐阜県",
    "prefecture_kana": "ギフケン",
    "prefecture_code": 21,
    "city": "下呂市",
    "city_kana": "ゲロシ",
    "town": "萩原町上呂",
    "town_kana": "ハギワラチョウジョウロ",
    "street": null,
    "office_name": null,
    "office_name_kana": null
  },
  "2519": {
    "zip_code": "5092519",
    "prefecture": "岐阜県",
    "prefecture_kana": "ギフケン",
    "prefecture_code": 21,
    "city": "下呂市",
    "city_kana": "ゲロシ",
    "town": "萩原町奥田洞",
    "town_kana": "ハギワラチョウオクダボラ",
    "street": null,
    "office_name": null,
    "office_name_kana": null
  },
  "2592": {
    "zip_code": "5092592",
    "prefecture": "岐阜県",
    "prefecture_kana": "ギフケン",
    "prefecture_code": 21,
    "city": "下呂市",
    "city_kana": "ゲロシ",
    "town": "萩原町羽根",
    "town_kana": "ハギワラチョウハネ",
    "street": "２６０５−１",
    "office_name": "岐阜県　下呂総合庁舎",
    "office_name_kana": "ギフケン ゲロソウゴウチヨウシヤ"
  },
  "2593": {
    "zip_code": "5092593",
    "prefecture": "岐阜県",
    "prefecture_kana": "ギフケン",
    "prefecture_code": 21,
    "city": "下呂市",
    "city_kana": "ゲロシ",
    "town": "萩原町萩原",
    "town_kana": "ハギワラチョウハギワラ",
    "street": "３２６−１",
    "office_name": "岐阜県立　益田清風高等学校",
    "office_name_kana": "ギフケンリツ マシタセイフウコウトウガツコウ"
  },
  "2595": {
    "zip_code": "5092595",
    "prefecture": "岐阜県",
    "prefecture_kana": "ギフケン",
    "prefecture_code": 21,
    "city": "下呂市",
    "city_kana": "ゲロシ",
    "town": "萩原町萩原",
    "town_kana": "ハギワラチョウハギワラ",
    "street": "１８５６番地",
    "office_name": "下呂市役所　萩原庁舎",
    "office_name_kana": "ゲロシヤクシヨ ハギワラチヨウシヤ"
  },
  "2598": {
    "zip_code": "5092598",
    "prefecture": "岐阜県",
    "prefecture_kana": "ギフケン",
    "prefecture_code": 21,
    "city": "下呂市",
    "city_kana": "ゲロシ",
    "town": "萩原町萩原",
    "town_kana": "ハギワラチョウハギワラ",
    "street": "１５００",
    "office_name": "金子工業　株式会社",
    "office_name_kana": "カネココウギヨウ カブシキガイシヤ"
  },
  "2601": {
    "zip_code": "5092601",
    "prefecture": "岐阜県",
    "prefecture_kana": "ギフケン",
    "prefecture_code": 21,
    "city": "下呂市",
    "city_kana": "ゲロシ",
    "town": "馬瀬川上",
    "town_kana": "マゼカオレ",
    "street": null,
    "office_name": null,
    "office_name_kana": null
  },
  "2602": {
    "zip_code": "5092602",
    "prefecture": "岐阜県",
    "prefecture_kana": "ギフケン",
    "prefecture_code": 21,
    "city": "下呂市",
    "city_kana": "ゲロシ",
    "town": "馬瀬黒石",
    "town_kana": "マゼクロイシ",
    "street": null,
    "office_name": null,
    "office_name_kana": null
  },
  "2603": {
    "zip_code": "5092603",
    "prefecture": "岐阜県",
    "prefecture_kana": "ギフケン",
    "prefecture_code": 21,
    "city": "下呂市",
    "city_kana": "ゲロシ",
    "town": "馬瀬数河",
    "town_kana": "マゼスゴウ",
    "street": null,
    "office_name": null,
    "office_name_kana": null
  },
  "2604": {
    "zip_code": "5092604",
    "prefecture": "岐阜県",
    "prefecture_kana": "ギフケン",
    "prefecture_code": 21,
    "city": "下呂市",
    "city_kana": "ゲロシ",
    "town": "馬瀬中切",
    "town_kana": "マゼナカギリ",
    "street": null,
    "office_name": null,
    "office_name_kana": null
  },
  "2611": {
    "zip_code": "5092611",
    "prefecture": "岐阜県",
    "prefecture_kana": "ギフケン",
    "prefecture_code": 21,
    "city": "下呂市",
    "city_kana": "ゲロシ",
    "town": "馬瀬堀之内",
    "town_kana": "マゼホリノウチ",
    "street": null,
    "office_name": null,
    "office_name_kana": null
  },
  "2612": {
    "zip_code": "5092612",
    "prefecture": "岐阜県",
    "prefecture_kana": "ギフケン",
    "prefecture_code": 21,
    "city": "下呂市",
    "city_kana": "ゲロシ",
    "town": "馬瀬名丸",
    "town_kana": "マゼナマル",
    "street": null,
    "office_name": null,
    "office_name_kana": null
  },
  "2613": {
    "zip_code": "5092613",
    "prefecture": "岐阜県",
    "prefecture_kana": "ギフケン",
    "prefecture_code": 21,
    "city": "下呂市",
    "city_kana": "ゲロシ",
    "town": "馬瀬井谷",
    "town_kana": "マゼイダニ",
    "street": null,
    "office_name": null,
    "office_name_kana": null
  },
  "2614": {
    "zip_code": "5092614",
    "prefecture": "岐阜県",
    "prefecture_kana": "ギフケン",
    "prefecture_code": 21,
    "city": "下呂市",
    "city_kana": "ゲロシ",
    "town": "馬瀬惣島",
    "town_kana": "マゼソウジマ",
    "street": null,
    "office_name": null,
    "office_name_kana": null
  },
  "2615": {
    "zip_code": "5092615",
    "prefecture": "岐阜県",
    "prefecture_kana": "ギフケン",
    "prefecture_code": 21,
    "city": "下呂市",
    "city_kana": "ゲロシ",
    "town": "馬瀬西村",
    "town_kana": "マゼニシムラ",
    "street": null,
    "office_name": null,
    "office_name_kana": null
  },
  "2701": {
    "zip_code": "5092701",
    "prefecture": "岐阜県",
    "prefecture_kana": "ギフケン",
    "prefecture_code": 21,
    "city": "高山市",
    "city_kana": "タカヤマシ",
    "town": "清見町楢谷",
    "town_kana": "キヨミチョウナラダニ",
    "street": null,
    "office_name": null,
    "office_name_kana": null
  },
  "2702": {
    "zip_code": "5092702",
    "prefecture": "岐阜県",
    "prefecture_kana": "ギフケン",
    "prefecture_code": 21,
    "city": "高山市",
    "city_kana": "タカヤマシ",
    "town": "清見町大原",
    "town_kana": "キヨミチョウオッパラ",
    "street": null,
    "office_name": null,
    "office_name_kana": null
  },
  "3101": {
    "zip_code": "5093101",
    "prefecture": "岐阜県",
    "prefecture_kana": "ギフケン",
    "prefecture_code": 21,
    "city": "下呂市",
    "city_kana": "ゲロシ",
    "town": "小坂町岩崎",
    "town_kana": "オサカチョウイワサキ",
    "street": null,
    "office_name": null,
    "office_name_kana": null
  },
  "3102": {
    "zip_code": "5093102",
    "prefecture": "岐阜県",
    "prefecture_kana": "ギフケン",
    "prefecture_code": 21,
    "city": "下呂市",
    "city_kana": "ゲロシ",
    "town": "小坂町門坂",
    "town_kana": "オサカチョウカドサカ",
    "street": null,
    "office_name": null,
    "office_name_kana": null
  },
  "3103": {
    "zip_code": "5093103",
    "prefecture": "岐阜県",
    "prefecture_kana": "ギフケン",
    "prefecture_code": 21,
    "city": "下呂市",
    "city_kana": "ゲロシ",
    "town": "小坂町大垣内",
    "town_kana": "オサカチョウオオガイト",
    "street": null,
    "office_name": null,
    "office_name_kana": null
  },
  "3104": {
    "zip_code": "5093104",
    "prefecture": "岐阜県",
    "prefecture_kana": "ギフケン",
    "prefecture_code": 21,
    "city": "下呂市",
    "city_kana": "ゲロシ",
    "town": "小坂町小坂町",
    "town_kana": "オサカチョウオサカマチ",
    "street": null,
    "office_name": null,
    "office_name_kana": null
  },
  "3105": {
    "zip_code": "5093105",
    "prefecture": "岐阜県",
    "prefecture_kana": "ギフケン",
    "prefecture_code": 21,
    "city": "下呂市",
    "city_kana": "ゲロシ",
    "town": "小坂町坂下",
    "town_kana": "オサカチョウサコレ",
    "street": null,
    "office_name": null,
    "office_name_kana": null
  },
  "3106": {
    "zip_code": "5093106",
    "prefecture": "岐阜県",
    "prefecture_kana": "ギフケン",
    "prefecture_code": 21,
    "city": "下呂市",
    "city_kana": "ゲロシ",
    "town": "小坂町大島",
    "town_kana": "オサカチョウオオシマ",
    "street": null,
    "office_name": null,
    "office_name_kana": null
  },
  "3107": {
    "zip_code": "5093107",
    "prefecture": "岐阜県",
    "prefecture_kana": "ギフケン",
    "prefecture_code": 21,
    "city": "下呂市",
    "city_kana": "ゲロシ",
    "town": "小坂町無数原",
    "town_kana": "オサカチョウムスバラ",
    "street": null,
    "office_name": null,
    "office_name_kana": null
  },
  "3111": {
    "zip_code": "5093111",
    "prefecture": "岐阜県",
    "prefecture_kana": "ギフケン",
    "prefecture_code": 21,
    "city": "下呂市",
    "city_kana": "ゲロシ",
    "town": "小坂町落合",
    "town_kana": "オサカチョウオチアイ",
    "street": null,
    "office_name": null,
    "office_name_kana": null
  },
  "3112": {
    "zip_code": "5093112",
    "prefecture": "岐阜県",
    "prefecture_kana": "ギフケン",
    "prefecture_code": 21,
    "city": "下呂市",
    "city_kana": "ゲロシ",
    "town": "小坂町大洞",
    "town_kana": "オサカチョウオオボラ",
    "street": null,
    "office_name": null,
    "office_name_kana": null
  },
  "3113": {
    "zip_code": "5093113",
    "prefecture": "岐阜県",
    "prefecture_kana": "ギフケン",
    "prefecture_code": 21,
    "city": "下呂市",
    "city_kana": "ゲロシ",
    "town": "小坂町湯屋",
    "town_kana": "オサカチョウユヤ",
    "street": null,
    "office_name": null,
    "office_name_kana": null
  },
  "3114": {
    "zip_code": "5093114",
    "prefecture": "岐阜県",
    "prefecture_kana": "ギフケン",
    "prefecture_code": 21,
    "city": "下呂市",
    "city_kana": "ゲロシ",
    "town": "小坂町赤沼田",
    "town_kana": "オサカチョウアカンタ",
    "street": null,
    "office_name": null,
    "office_name_kana": null
  },
  "3115": {
    "zip_code": "5093115",
    "prefecture": "岐阜県",
    "prefecture_kana": "ギフケン",
    "prefecture_code": 21,
    "city": "下呂市",
    "city_kana": "ゲロシ",
    "town": "小坂町長瀬",
    "town_kana": "オサカチョウナガセ",
    "street": null,
    "office_name": null,
    "office_name_kana": null
  },
  "3195": {
    "zip_code": "5093195",
    "prefecture": "岐阜県",
    "prefecture_kana": "ギフケン",
    "prefecture_code": 21,
    "city": "下呂市",
    "city_kana": "ゲロシ",
    "town": "小坂町小坂町",
    "town_kana": "オサカチョウオサカマチ",
    "street": "８１５−５",
    "office_name": "下呂市役所　小坂振興事務所",
    "office_name_kana": "ゲロシヤクシヨ オサカシンコウジムシヨ"
  },
  "3201": {
    "zip_code": "5093201",
    "prefecture": "岐阜県",
    "prefecture_kana": "ギフケン",
    "prefecture_code": 21,
    "city": "高山市",
    "city_kana": "タカヤマシ",
    "town": "久々野町大西",
    "town_kana": "クグノチョウオオニシ",
    "street": null,
    "office_name": null,
    "office_name_kana": null
  },
  "3202": {
    "zip_code": "5093202",
    "prefecture": "岐阜県",
    "prefecture_kana": "ギフケン",
    "prefecture_code": 21,
    "city": "高山市",
    "city_kana": "タカヤマシ",
    "town": "久々野町小屋名",
    "town_kana": "クグノチョウコヤナ",
    "street": null,
    "office_name": null,
    "office_name_kana": null
  },
  "3203": {
    "zip_code": "5093203",
    "prefecture": "岐阜県",
    "prefecture_kana": "ギフケン",
    "prefecture_code": 21,
    "city": "高山市",
    "city_kana": "タカヤマシ",
    "town": "久々野町柳島",
    "town_kana": "クグノチョウヤナジマ",
    "street": null,
    "office_name": null,
    "office_name_kana": null
  },
  "3204": {
    "zip_code": "5093204",
    "prefecture": "岐阜県",
    "prefecture_kana": "ギフケン",
    "prefecture_code": 21,
    "city": "高山市",
    "city_kana": "タカヤマシ",
    "town": "久々野町久須母",
    "town_kana": "クグノチョウクスモ",
    "street": null,
    "office_name": null,
    "office_name_kana": null
  },
  "3205": {
    "zip_code": "5093205",
    "prefecture": "岐阜県",
    "prefecture_kana": "ギフケン",
    "prefecture_code": 21,
    "city": "高山市",
    "city_kana": "タカヤマシ",
    "town": "久々野町久々野",
    "town_kana": "クグノチョウクグノ",
    "street": null,
    "office_name": null,
    "office_name_kana": null
  },
  "3206": {
    "zip_code": "5093206",
    "prefecture": "岐阜県",
    "prefecture_kana": "ギフケン",
    "prefecture_code": 21,
    "city": "高山市",
    "city_kana": "タカヤマシ",
    "town": "久々野町山梨",
    "town_kana": "クグノチョウヤマナシ",
    "street": null,
    "office_name": null,
    "office_name_kana": null
  },
  "3207": {
    "zip_code": "5093207",
    "prefecture": "岐阜県",
    "prefecture_kana": "ギフケン",
    "prefecture_code": 21,
    "city": "高山市",
    "city_kana": "タカヤマシ",
    "town": "久々野町辻",
    "town_kana": "クグノチョウツジ",
    "street": null,
    "office_name": null,
    "office_name_kana": null
  },
  "3211": {
    "zip_code": "5093211",
    "prefecture": "岐阜県",
    "prefecture_kana": "ギフケン",
    "prefecture_code": 21,
    "city": "高山市",
    "city_kana": "タカヤマシ",
    "town": "久々野町小坊",
    "town_kana": "クグノチョウコボウ",
    "street": null,
    "office_name": null,
    "office_name_kana": null
  },
  "3212": {
    "zip_code": "5093212",
    "prefecture": "岐阜県",
    "prefecture_kana": "ギフケン",
    "prefecture_code": 21,
    "city": "高山市",
    "city_kana": "タカヤマシ",
    "town": "久々野町阿多粕",
    "town_kana": "クグノチョウアタガス",
    "street": null,
    "office_name": null,
    "office_name_kana": null
  },
  "3213": {
    "zip_code": "5093213",
    "prefecture": "岐阜県",
    "prefecture_kana": "ギフケン",
    "prefecture_code": 21,
    "city": "高山市",
    "city_kana": "タカヤマシ",
    "town": "久々野町渚",
    "town_kana": "クグノチョウナギサ",
    "street": null,
    "office_name": null,
    "office_name_kana": null
  },
  "3214": {
    "zip_code": "5093214",
    "prefecture": "岐阜県",
    "prefecture_kana": "ギフケン",
    "prefecture_code": 21,
    "city": "高山市",
    "city_kana": "タカヤマシ",
    "town": "久々野町無数河",
    "town_kana": "クグノチョウムスゴ",
    "street": null,
    "office_name": null,
    "office_name_kana": null
  },
  "3215": {
    "zip_code": "5093215",
    "prefecture": "岐阜県",
    "prefecture_kana": "ギフケン",
    "prefecture_code": 21,
    "city": "高山市",
    "city_kana": "タカヤマシ",
    "town": "久々野町引下",
    "town_kana": "クグノチョウヒキサゲ",
    "street": null,
    "office_name": null,
    "office_name_kana": null
  },
  "3216": {
    "zip_code": "5093216",
    "prefecture": "岐阜県",
    "prefecture_kana": "ギフケン",
    "prefecture_code": 21,
    "city": "高山市",
    "city_kana": "タカヤマシ",
    "town": "久々野町木賊洞",
    "town_kana": "クグノチョウトクサボラ",
    "street": null,
    "office_name": null,
    "office_name_kana": null
  },
  "3217": {
    "zip_code": "5093217",
    "prefecture": "岐阜県",
    "prefecture_kana": "ギフケン",
    "prefecture_code": 21,
    "city": "高山市",
    "city_kana": "タカヤマシ",
    "town": "久々野町長淀",
    "town_kana": "クグノチョウナガトロ",
    "street": null,
    "office_name": null,
    "office_name_kana": null
  },
  "3218": {
    "zip_code": "5093218",
    "prefecture": "岐阜県",
    "prefecture_kana": "ギフケン",
    "prefecture_code": 21,
    "city": "高山市",
    "city_kana": "タカヤマシ",
    "town": "久々野町有道",
    "town_kana": "クグノチョウウトウ",
    "street": null,
    "office_name": null,
    "office_name_kana": null
  },
  "3292": {
    "zip_code": "5093292",
    "prefecture": "岐阜県",
    "prefecture_kana": "ギフケン",
    "prefecture_code": 21,
    "city": "高山市",
    "city_kana": "タカヤマシ",
    "town": "久々野町無数河",
    "town_kana": "クグノチョウムスゴ",
    "street": "５８０番地１",
    "office_name": "高山市　久々野支所",
    "office_name_kana": "タカヤマシ クグノシシヨ"
  },
  "3301": {
    "zip_code": "5093301",
    "prefecture": "岐阜県",
    "prefecture_kana": "ギフケン",
    "prefecture_code": 21,
    "city": "高山市",
    "city_kana": "タカヤマシ",
    "town": "朝日町青屋",
    "town_kana": "アサヒチョウアオヤ",
    "street": null,
    "office_name": null,
    "office_name_kana": null
  },
  "3302": {
    "zip_code": "5093302",
    "prefecture": "岐阜県",
    "prefecture_kana": "ギフケン",
    "prefecture_code": 21,
    "city": "高山市",
    "city_kana": "タカヤマシ",
    "town": "朝日町寺附",
    "town_kana": "アサヒチョウテラヅキ",
    "street": null,
    "office_name": null,
    "office_name_kana": null
  },
  "3303": {
    "zip_code": "5093303",
    "prefecture": "岐阜県",
    "prefecture_kana": "ギフケン",
    "prefecture_code": 21,
    "city": "高山市",
    "city_kana": "タカヤマシ",
    "town": "朝日町浅井",
    "town_kana": "アサヒチョウアサイ",
    "street": null,
    "office_name": null,
    "office_name_kana": null
  },
  "3304": {
    "zip_code": "5093304",
    "prefecture": "岐阜県",
    "prefecture_kana": "ギフケン",
    "prefecture_code": 21,
    "city": "高山市",
    "city_kana": "タカヤマシ",
    "town": "朝日町立岩",
    "town_kana": "アサヒチョウタテイワ",
    "street": null,
    "office_name": null,
    "office_name_kana": null
  },
  "3305": {
    "zip_code": "5093305",
    "prefecture": "岐阜県",
    "prefecture_kana": "ギフケン",
    "prefecture_code": 21,
    "city": "高山市",
    "city_kana": "タカヤマシ",
    "town": "朝日町小瀬",
    "town_kana": "アサヒチョウコセ",
    "street": null,
    "office_name": null,
    "office_name_kana": null
  },
  "3306": {
    "zip_code": "5093306",
    "prefecture": "岐阜県",
    "prefecture_kana": "ギフケン",
    "prefecture_code": 21,
    "city": "高山市",
    "city_kana": "タカヤマシ",
    "town": "朝日町見座",
    "town_kana": "アサヒチョウミザ",
    "street": null,
    "office_name": null,
    "office_name_kana": null
  },
  "3311": {
    "zip_code": "5093311",
    "prefecture": "岐阜県",
    "prefecture_kana": "ギフケン",
    "prefecture_code": 21,
    "city": "高山市",
    "city_kana": "タカヤマシ",
    "town": "朝日町一之宿",
    "town_kana": "アサヒチョウイチノシュク",
    "street": null,
    "office_name": null,
    "office_name_kana": null
  },
  "3312": {
    "zip_code": "5093312",
    "prefecture": "岐阜県",
    "prefecture_kana": "ギフケン",
    "prefecture_code": 21,
    "city": "高山市",
    "city_kana": "タカヤマシ",
    "town": "朝日町桑之島",
    "town_kana": "アサヒチョウクワノシマ",
    "street": null,
    "office_name": null,
    "office_name_kana": null
  },
  "3313": {
    "zip_code": "5093313",
    "prefecture": "岐阜県",
    "prefecture_kana": "ギフケン",
    "prefecture_code": 21,
    "city": "高山市",
    "city_kana": "タカヤマシ",
    "town": "朝日町胡桃島",
    "town_kana": "アサヒチョウクルミシマ",
    "street": null,
    "office_name": null,
    "office_name_kana": null
  },
  "3314": [
    {
      "zip_code": "5093314",
      "prefecture": "岐阜県",
      "prefecture_kana": "ギフケン",
      "prefecture_code": 21,
      "city": "高山市",
      "city_kana": "タカヤマシ",
      "town": "朝日町西洞",
      "town_kana": "アサヒチョウニシボラ",
      "street": null,
      "office_name": null,
      "office_name_kana": null
    },
    {
      "zip_code": "5093314",
      "prefecture": "岐阜県",
      "prefecture_kana": "ギフケン",
      "prefecture_code": 21,
      "city": "高山市",
      "city_kana": "タカヤマシ",
      "town": "朝日町西洞スズラン高原",
      "town_kana": "アサヒチョウニシボラスズランコウゲン",
      "street": null,
      "office_name": null,
      "office_name_kana": null
    }
  ],
  "3315": {
    "zip_code": "5093315",
    "prefecture": "岐阜県",
    "prefecture_kana": "ギフケン",
    "prefecture_code": 21,
    "city": "高山市",
    "city_kana": "タカヤマシ",
    "town": "朝日町宮之前",
    "town_kana": "アサヒチョウミヤノマエ",
    "street": null,
    "office_name": null,
    "office_name_kana": null
  },
  "3316": {
    "zip_code": "5093316",
    "prefecture": "岐阜県",
    "prefecture_kana": "ギフケン",
    "prefecture_code": 21,
    "city": "高山市",
    "city_kana": "タカヤマシ",
    "town": "朝日町黍生谷",
    "town_kana": "アサヒチョウキビュウダニ",
    "street": null,
    "office_name": null,
    "office_name_kana": null
  },
  "3317": {
    "zip_code": "5093317",
    "prefecture": "岐阜県",
    "prefecture_kana": "ギフケン",
    "prefecture_code": 21,
    "city": "高山市",
    "city_kana": "タカヤマシ",
    "town": "朝日町小瀬ケ洞",
    "town_kana": "アサヒチョウコセガホラ",
    "street": null,
    "office_name": null,
    "office_name_kana": null
  },
  "3321": {
    "zip_code": "5093321",
    "prefecture": "岐阜県",
    "prefecture_kana": "ギフケン",
    "prefecture_code": 21,
    "city": "高山市",
    "city_kana": "タカヤマシ",
    "town": "朝日町黒川",
    "town_kana": "アサヒチョウクロカワ",
    "street": null,
    "office_name": null,
    "office_name_kana": null
  },
  "3322": {
    "zip_code": "5093322",
    "prefecture": "岐阜県",
    "prefecture_kana": "ギフケン",
    "prefecture_code": 21,
    "city": "高山市",
    "city_kana": "タカヤマシ",
    "town": "朝日町大廣",
    "town_kana": "アサヒチョウオオヒロ",
    "street": null,
    "office_name": null,
    "office_name_kana": null
  },
  "3323": {
    "zip_code": "5093323",
    "prefecture": "岐阜県",
    "prefecture_kana": "ギフケン",
    "prefecture_code": 21,
    "city": "高山市",
    "city_kana": "タカヤマシ",
    "town": "朝日町寺澤",
    "town_kana": "アサヒチョウテラザワ",
    "street": null,
    "office_name": null,
    "office_name_kana": null
  },
  "3324": {
    "zip_code": "5093324",
    "prefecture": "岐阜県",
    "prefecture_kana": "ギフケン",
    "prefecture_code": 21,
    "city": "高山市",
    "city_kana": "タカヤマシ",
    "town": "朝日町上ケ見",
    "town_kana": "アサヒチョウアゲミ",
    "street": null,
    "office_name": null,
    "office_name_kana": null
  },
  "3325": {
    "zip_code": "5093325",
    "prefecture": "岐阜県",
    "prefecture_kana": "ギフケン",
    "prefecture_code": 21,
    "city": "高山市",
    "city_kana": "タカヤマシ",
    "town": "朝日町万石",
    "town_kana": "アサヒチョウマンゴク",
    "street": null,
    "office_name": null,
    "office_name_kana": null
  },
  "3326": {
    "zip_code": "5093326",
    "prefecture": "岐阜県",
    "prefecture_kana": "ギフケン",
    "prefecture_code": 21,
    "city": "高山市",
    "city_kana": "タカヤマシ",
    "town": "朝日町甲",
    "town_kana": "アサヒチョウカブト",
    "street": null,
    "office_name": null,
    "office_name_kana": null
  },
  "3327": {
    "zip_code": "5093327",
    "prefecture": "岐阜県",
    "prefecture_kana": "ギフケン",
    "prefecture_code": 21,
    "city": "高山市",
    "city_kana": "タカヤマシ",
    "town": "朝日町小谷",
    "town_kana": "アサヒチョウコダニ",
    "street": null,
    "office_name": null,
    "office_name_kana": null
  },
  "3401": {
    "zip_code": "5093401",
    "prefecture": "岐阜県",
    "prefecture_kana": "ギフケン",
    "prefecture_code": 21,
    "city": "高山市",
    "city_kana": "タカヤマシ",
    "town": "高根町阿多野郷",
    "town_kana": "タカネマチアタノゴウ",
    "street": null,
    "office_name": null,
    "office_name_kana": null
  },
  "3402": {
    "zip_code": "5093402",
    "prefecture": "岐阜県",
    "prefecture_kana": "ギフケン",
    "prefecture_code": 21,
    "city": "高山市",
    "city_kana": "タカヤマシ",
    "town": "高根町野麦",
    "town_kana": "タカネマチノムギ",
    "street": null,
    "office_name": null,
    "office_name_kana": null
  },
  "3403": {
    "zip_code": "5093403",
    "prefecture": "岐阜県",
    "prefecture_kana": "ギフケン",
    "prefecture_code": 21,
    "city": "高山市",
    "city_kana": "タカヤマシ",
    "town": "高根町日和田",
    "town_kana": "タカネマチヒワダ",
    "street": null,
    "office_name": null,
    "office_name_kana": null
  },
  "3404": {
    "zip_code": "5093404",
    "prefecture": "岐阜県",
    "prefecture_kana": "ギフケン",
    "prefecture_code": 21,
    "city": "高山市",
    "city_kana": "タカヤマシ",
    "town": "高根町小日和田",
    "town_kana": "タカネマチコヒワダ",
    "street": null,
    "office_name": null,
    "office_name_kana": null
  },
  "3405": {
    "zip_code": "5093405",
    "prefecture": "岐阜県",
    "prefecture_kana": "ギフケン",
    "prefecture_code": 21,
    "city": "高山市",
    "city_kana": "タカヤマシ",
    "town": "高根町留之原",
    "town_kana": "タカネマチトメノハラ",
    "street": null,
    "office_name": null,
    "office_name_kana": null
  },
  "3411": {
    "zip_code": "5093411",
    "prefecture": "岐阜県",
    "prefecture_kana": "ギフケン",
    "prefecture_code": 21,
    "city": "高山市",
    "city_kana": "タカヤマシ",
    "town": "高根町上ケ洞",
    "town_kana": "タカネマチカミガホラ",
    "street": null,
    "office_name": null,
    "office_name_kana": null
  },
  "3412": {
    "zip_code": "5093412",
    "prefecture": "岐阜県",
    "prefecture_kana": "ギフケン",
    "prefecture_code": 21,
    "city": "高山市",
    "city_kana": "タカヤマシ",
    "town": "高根町大古井",
    "town_kana": "タカネマチオオブルイ",
    "street": null,
    "office_name": null,
    "office_name_kana": null
  },
  "3413": {
    "zip_code": "5093413",
    "prefecture": "岐阜県",
    "prefecture_kana": "ギフケン",
    "prefecture_code": 21,
    "city": "高山市",
    "city_kana": "タカヤマシ",
    "town": "高根町下之向",
    "town_kana": "タカネマチシモノムカイ",
    "street": null,
    "office_name": null,
    "office_name_kana": null
  },
  "3414": {
    "zip_code": "5093414",
    "prefecture": "岐阜県",
    "prefecture_kana": "ギフケン",
    "prefecture_code": 21,
    "city": "高山市",
    "city_kana": "タカヤマシ",
    "town": "高根町中之宿",
    "town_kana": "タカネマチナカノシュク",
    "street": null,
    "office_name": null,
    "office_name_kana": null
  },
  "3415": {
    "zip_code": "5093415",
    "prefecture": "岐阜県",
    "prefecture_kana": "ギフケン",
    "prefecture_code": 21,
    "city": "高山市",
    "city_kana": "タカヤマシ",
    "town": "高根町猪之鼻",
    "town_kana": "タカネマチイノハナ",
    "street": null,
    "office_name": null,
    "office_name_kana": null
  },
  "3416": {
    "zip_code": "5093416",
    "prefecture": "岐阜県",
    "prefecture_kana": "ギフケン",
    "prefecture_code": 21,
    "city": "高山市",
    "city_kana": "タカヤマシ",
    "town": "高根町中洞",
    "town_kana": "タカネマチナカボラ",
    "street": null,
    "office_name": null,
    "office_name_kana": null
  },
  "3417": {
    "zip_code": "5093417",
    "prefecture": "岐阜県",
    "prefecture_kana": "ギフケン",
    "prefecture_code": 21,
    "city": "高山市",
    "city_kana": "タカヤマシ",
    "town": "高根町池ケ洞",
    "town_kana": "タカネマチイケガホラ",
    "street": null,
    "office_name": null,
    "office_name_kana": null
  },
  "3418": {
    "zip_code": "5093418",
    "prefecture": "岐阜県",
    "prefecture_kana": "ギフケン",
    "prefecture_code": 21,
    "city": "高山市",
    "city_kana": "タカヤマシ",
    "town": "高根町黍生",
    "town_kana": "タカネマチキビュウ",
    "street": null,
    "office_name": null,
    "office_name_kana": null
  },
  "3419": {
    "zip_code": "5093419",
    "prefecture": "岐阜県",
    "prefecture_kana": "ギフケン",
    "prefecture_code": 21,
    "city": "高山市",
    "city_kana": "タカヤマシ",
    "town": "高根町日影",
    "town_kana": "タカネマチヒカゲ",
    "street": null,
    "office_name": null,
    "office_name_kana": null
  },
  "3505": {
    "zip_code": "5093505",
    "prefecture": "岐阜県",
    "prefecture_kana": "ギフケン",
    "prefecture_code": 21,
    "city": "高山市",
    "city_kana": "タカヤマシ",
    "town": "一之宮町",
    "town_kana": "イチノミヤマチ",
    "street": null,
    "office_name": null,
    "office_name_kana": null
  },
  "4101": {
    "zip_code": "5094101",
    "prefecture": "岐阜県",
    "prefecture_kana": "ギフケン",
    "prefecture_code": 21,
    "city": "高山市",
    "city_kana": "タカヤマシ",
    "town": "国府町桐谷",
    "town_kana": "コクフチョウキリダニ",
    "street": null,
    "office_name": null,
    "office_name_kana": null
  },
  "4102": {
    "zip_code": "5094102",
    "prefecture": "岐阜県",
    "prefecture_kana": "ギフケン",
    "prefecture_code": 21,
    "city": "高山市",
    "city_kana": "タカヤマシ",
    "town": "国府町八日町",
    "town_kana": "コクフチョウヨウカマチ",
    "street": null,
    "office_name": null,
    "office_name_kana": null
  },
  "4103": {
    "zip_code": "5094103",
    "prefecture": "岐阜県",
    "prefecture_kana": "ギフケン",
    "prefecture_code": 21,
    "city": "高山市",
    "city_kana": "タカヤマシ",
    "town": "国府町宮地",
    "town_kana": "コクフチョウミヤジ",
    "street": null,
    "office_name": null,
    "office_name_kana": null
  },
  "4104": {
    "zip_code": "5094104",
    "prefecture": "岐阜県",
    "prefecture_kana": "ギフケン",
    "prefecture_code": 21,
    "city": "高山市",
    "city_kana": "タカヤマシ",
    "town": "国府町今",
    "town_kana": "コクフチョウイマ",
    "street": null,
    "office_name": null,
    "office_name_kana": null
  },
  "4105": {
    "zip_code": "5094105",
    "prefecture": "岐阜県",
    "prefecture_kana": "ギフケン",
    "prefecture_code": 21,
    "city": "高山市",
    "city_kana": "タカヤマシ",
    "town": "国府町蓑輪",
    "town_kana": "コクフチョウミノワ",
    "street": null,
    "office_name": null,
    "office_name_kana": null
  },
  "4106": {
    "zip_code": "5094106",
    "prefecture": "岐阜県",
    "prefecture_kana": "ギフケン",
    "prefecture_code": 21,
    "city": "高山市",
    "city_kana": "タカヤマシ",
    "town": "国府町漆垣内",
    "town_kana": "コクフチョウウルシガイト",
    "street": null,
    "office_name": null,
    "office_name_kana": null
  },
  "4107": {
    "zip_code": "5094107",
    "prefecture": "岐阜県",
    "prefecture_kana": "ギフケン",
    "prefecture_code": 21,
    "city": "高山市",
    "city_kana": "タカヤマシ",
    "town": "国府町西門前",
    "town_kana": "コクフチョウニシモンゼン",
    "street": null,
    "office_name": null,
    "office_name_kana": null
  },
  "4108": {
    "zip_code": "5094108",
    "prefecture": "岐阜県",
    "prefecture_kana": "ギフケン",
    "prefecture_code": 21,
    "city": "高山市",
    "city_kana": "タカヤマシ",
    "town": "国府町東門前",
    "town_kana": "コクフチョウヒガシモンゼン",
    "street": null,
    "office_name": null,
    "office_name_kana": null
  },
  "4111": {
    "zip_code": "5094111",
    "prefecture": "岐阜県",
    "prefecture_kana": "ギフケン",
    "prefecture_code": 21,
    "city": "高山市",
    "city_kana": "タカヤマシ",
    "town": "国府町山本",
    "town_kana": "コクフチョウヤマモト",
    "street": null,
    "office_name": null,
    "office_name_kana": null
  },
  "4112": {
    "zip_code": "5094112",
    "prefecture": "岐阜県",
    "prefecture_kana": "ギフケン",
    "prefecture_code": 21,
    "city": "高山市",
    "city_kana": "タカヤマシ",
    "town": "国府町鶴巣",
    "town_kana": "コクフチョウツルス",
    "street": null,
    "office_name": null,
    "office_name_kana": null
  },
  "4113": {
    "zip_code": "5094113",
    "prefecture": "岐阜県",
    "prefecture_kana": "ギフケン",
    "prefecture_code": 21,
    "city": "高山市",
    "city_kana": "タカヤマシ",
    "town": "国府町木曽垣内",
    "town_kana": "コクフチョウキソガイト",
    "street": null,
    "office_name": null,
    "office_name_kana": null
  },
  "4114": {
    "zip_code": "5094114",
    "prefecture": "岐阜県",
    "prefecture_kana": "ギフケン",
    "prefecture_code": 21,
    "city": "高山市",
    "city_kana": "タカヤマシ",
    "town": "国府町半田",
    "town_kana": "コクフチョウハンダ",
    "street": null,
    "office_name": null,
    "office_name_kana": null
  },
  "4115": {
    "zip_code": "5094115",
    "prefecture": "岐阜県",
    "prefecture_kana": "ギフケン",
    "prefecture_code": 21,
    "city": "高山市",
    "city_kana": "タカヤマシ",
    "town": "国府町三日町",
    "town_kana": "コクフチョウミッカマチ",
    "street": null,
    "office_name": null,
    "office_name_kana": null
  },
  "4116": {
    "zip_code": "5094116",
    "prefecture": "岐阜県",
    "prefecture_kana": "ギフケン",
    "prefecture_code": 21,
    "city": "高山市",
    "city_kana": "タカヤマシ",
    "town": "国府町上広瀬",
    "town_kana": "コクフチョウカミヒロセ",
    "street": null,
    "office_name": null,
    "office_name_kana": null
  },
  "4117": {
    "zip_code": "5094117",
    "prefecture": "岐阜県",
    "prefecture_kana": "ギフケン",
    "prefecture_code": 21,
    "city": "高山市",
    "city_kana": "タカヤマシ",
    "town": "国府町三川",
    "town_kana": "コクフチョウサンガワ",
    "street": null,
    "office_name": null,
    "office_name_kana": null
  },
  "4119": [
    {
      "zip_code": "5094119",
      "prefecture": "岐阜県",
      "prefecture_kana": "ギフケン",
      "prefecture_code": 21,
      "city": "高山市",
      "city_kana": "タカヤマシ",
      "town": "国府町広瀬町",
      "town_kana": "コクフチョウヒロセマチ",
      "street": null,
      "office_name": null,
      "office_name_kana": null
    },
    {
      "zip_code": "5094119",
      "prefecture": "岐阜県",
      "prefecture_kana": "ギフケン",
      "prefecture_code": 21,
      "city": "高山市",
      "city_kana": "タカヤマシ",
      "town": "国府町広瀬町桜野",
      "town_kana": "コクフチョウヒロセマチサクラノ",
      "street": null,
      "office_name": null,
      "office_name_kana": null
    }
  ],
  "4121": {
    "zip_code": "5094121",
    "prefecture": "岐阜県",
    "prefecture_kana": "ギフケン",
    "prefecture_code": 21,
    "city": "高山市",
    "city_kana": "タカヤマシ",
    "town": "国府町宇津江",
    "town_kana": "コクフチョウウツエ",
    "street": null,
    "office_name": null,
    "office_name_kana": null
  },
  "4122": {
    "zip_code": "5094122",
    "prefecture": "岐阜県",
    "prefecture_kana": "ギフケン",
    "prefecture_code": 21,
    "city": "高山市",
    "city_kana": "タカヤマシ",
    "town": "国府町名張",
    "town_kana": "コクフチョウナバリ",
    "street": null,
    "office_name": null,
    "office_name_kana": null
  },
  "4123": {
    "zip_code": "5094123",
    "prefecture": "岐阜県",
    "prefecture_kana": "ギフケン",
    "prefecture_code": 21,
    "city": "高山市",
    "city_kana": "タカヤマシ",
    "town": "国府町金桶",
    "town_kana": "コクフチョウカネオケ",
    "street": null,
    "office_name": null,
    "office_name_kana": null
  },
  "4124": {
    "zip_code": "5094124",
    "prefecture": "岐阜県",
    "prefecture_kana": "ギフケン",
    "prefecture_code": 21,
    "city": "高山市",
    "city_kana": "タカヤマシ",
    "town": "国府町村山",
    "town_kana": "コクフチョウムラヤマ",
    "street": null,
    "office_name": null,
    "office_name_kana": null
  },
  "4125": {
    "zip_code": "5094125",
    "prefecture": "岐阜県",
    "prefecture_kana": "ギフケン",
    "prefecture_code": 21,
    "city": "高山市",
    "city_kana": "タカヤマシ",
    "town": "国府町糠塚",
    "town_kana": "コクフチョウヌカヅカ",
    "street": null,
    "office_name": null,
    "office_name_kana": null
  },
  "4126": {
    "zip_code": "5094126",
    "prefecture": "岐阜県",
    "prefecture_kana": "ギフケン",
    "prefecture_code": 21,
    "city": "高山市",
    "city_kana": "タカヤマシ",
    "town": "国府町瓜巣",
    "town_kana": "コクフチョウウリス",
    "street": null,
    "office_name": null,
    "office_name_kana": null
  },
  "4192": {
    "zip_code": "5094192",
    "prefecture": "岐阜県",
    "prefecture_kana": "ギフケン",
    "prefecture_code": 21,
    "city": "高山市",
    "city_kana": "タカヤマシ",
    "town": "国府町広瀬町",
    "town_kana": "コクフチョウヒロセマチ",
    "street": "１２８０番地",
    "office_name": "高山市　国府支所",
    "office_name_kana": "タカヤマシ コクフシシヨ"
  },
  "4201": {
    "zip_code": "5094201",
    "prefecture": "岐阜県",
    "prefecture_kana": "ギフケン",
    "prefecture_code": 21,
    "city": "飛騨市",
    "city_kana": "ヒダシ",
    "town": "古川町数河",
    "town_kana": "フルカワチョウスゴウ",
    "street": null,
    "office_name": null,
    "office_name_kana": null
  },
  "4202": {
    "zip_code": "5094202",
    "prefecture": "岐阜県",
    "prefecture_kana": "ギフケン",
    "prefecture_code": 21,
    "city": "飛騨市",
    "city_kana": "ヒダシ",
    "town": "古川町戸市",
    "town_kana": "フルカワチョウトイチ",
    "street": null,
    "office_name": null,
    "office_name_kana": null
  },
  "4203": {
    "zip_code": "5094203",
    "prefecture": "岐阜県",
    "prefecture_kana": "ギフケン",
    "prefecture_code": 21,
    "city": "飛騨市",
    "city_kana": "ヒダシ",
    "town": "古川町袈裟丸",
    "town_kana": "フルカワチョウケサマル",
    "street": null,
    "office_name": null,
    "office_name_kana": null
  },
  "4204": {
    "zip_code": "5094204",
    "prefecture": "岐阜県",
    "prefecture_kana": "ギフケン",
    "prefecture_code": 21,
    "city": "飛騨市",
    "city_kana": "ヒダシ",
    "town": "古川町野口",
    "town_kana": "フルカワチョウノグチ",
    "street": null,
    "office_name": null,
    "office_name_kana": null
  },
  "4205": {
    "zip_code": "5094205",
    "prefecture": "岐阜県",
    "prefecture_kana": "ギフケン",
    "prefecture_code": 21,
    "city": "飛騨市",
    "city_kana": "ヒダシ",
    "town": "古川町末真",
    "town_kana": "フルカワチョウスエザネ",
    "street": null,
    "office_name": null,
    "office_name_kana": null
  },
  "4211": {
    "zip_code": "5094211",
    "prefecture": "岐阜県",
    "prefecture_kana": "ギフケン",
    "prefecture_code": 21,
    "city": "飛騨市",
    "city_kana": "ヒダシ",
    "town": "古川町太江",
    "town_kana": "フルカワチョウタイエ",
    "street": null,
    "office_name": null,
    "office_name_kana": null
  },
  "4212": {
    "zip_code": "5094212",
    "prefecture": "岐阜県",
    "prefecture_kana": "ギフケン",
    "prefecture_code": 21,
    "city": "飛騨市",
    "city_kana": "ヒダシ",
    "town": "古川町上気多",
    "town_kana": "フルカワチョウカミキタ",
    "street": null,
    "office_name": null,
    "office_name_kana": null
  },
  "4213": {
    "zip_code": "5094213",
    "prefecture": "岐阜県",
    "prefecture_kana": "ギフケン",
    "prefecture_code": 21,
    "city": "飛騨市",
    "city_kana": "ヒダシ",
    "town": "古川町下気多",
    "town_kana": "フルカワチョウシモキタ",
    "street": null,
    "office_name": null,
    "office_name_kana": null
  },
  "4214": {
    "zip_code": "5094214",
    "prefecture": "岐阜県",
    "prefecture_kana": "ギフケン",
    "prefecture_code": 21,
    "city": "飛騨市",
    "city_kana": "ヒダシ",
    "town": "古川町沼町",
    "town_kana": "フルカワチョウヌママチ",
    "street": null,
    "office_name": null,
    "office_name_kana": null
  },
  "4215": {
    "zip_code": "5094215",
    "prefecture": "岐阜県",
    "prefecture_kana": "ギフケン",
    "prefecture_code": 21,
    "city": "飛騨市",
    "city_kana": "ヒダシ",
    "town": "古川町杉崎",
    "town_kana": "フルカワチョウスギサキ",
    "street": null,
    "office_name": null,
    "office_name_kana": null
  },
  "4221": {
    "zip_code": "5094221",
    "prefecture": "岐阜県",
    "prefecture_kana": "ギフケン",
    "prefecture_code": 21,
    "city": "飛騨市",
    "city_kana": "ヒダシ",
    "town": "古川町若宮",
    "town_kana": "フルカワチョウワカミヤ",
    "street": null,
    "office_name": null,
    "office_name_kana": null
  },
  "4222": {
    "zip_code": "5094222",
    "prefecture": "岐阜県",
    "prefecture_kana": "ギフケン",
    "prefecture_code": 21,
    "city": "飛騨市",
    "city_kana": "ヒダシ",
    "town": "古川町片原町",
    "town_kana": "フルカワチョウカタハラチョウ",
    "street": null,
    "office_name": null,
    "office_name_kana": null
  },
  "4223": {
    "zip_code": "5094223",
    "prefecture": "岐阜県",
    "prefecture_kana": "ギフケン",
    "prefecture_code": 21,
    "city": "飛騨市",
    "city_kana": "ヒダシ",
    "town": "古川町東町",
    "town_kana": "フルカワチョウヒガシマチ",
    "street": null,
    "office_name": null,
    "office_name_kana": null
  },
  "4224": {
    "zip_code": "5094224",
    "prefecture": "岐阜県",
    "prefecture_kana": "ギフケン",
    "prefecture_code": 21,
    "city": "飛騨市",
    "city_kana": "ヒダシ",
    "town": "古川町殿町",
    "town_kana": "フルカワチョウトノマチ",
    "street": null,
    "office_name": null,
    "office_name_kana": null
  },
  "4225": {
    "zip_code": "5094225",
    "prefecture": "岐阜県",
    "prefecture_kana": "ギフケン",
    "prefecture_code": 21,
    "city": "飛騨市",
    "city_kana": "ヒダシ",
    "town": "古川町金森町",
    "town_kana": "フルカワチョウカナモリチョウ",
    "street": null,
    "office_name": null,
    "office_name_kana": null
  },
  "4231": {
    "zip_code": "5094231",
    "prefecture": "岐阜県",
    "prefecture_kana": "ギフケン",
    "prefecture_code": 21,
    "city": "飛騨市",
    "city_kana": "ヒダシ",
    "town": "古川町新栄町",
    "town_kana": "フルカワチョウシンサカエマチ",
    "street": null,
    "office_name": null,
    "office_name_kana": null
  },
  "4232": {
    "zip_code": "5094232",
    "prefecture": "岐阜県",
    "prefecture_kana": "ギフケン",
    "prefecture_code": 21,
    "city": "飛騨市",
    "city_kana": "ヒダシ",
    "town": "古川町本町",
    "town_kana": "フルカワチョウホンマチ",
    "street": null,
    "office_name": null,
    "office_name_kana": null
  },
  "4233": {
    "zip_code": "5094233",
    "prefecture": "岐阜県",
    "prefecture_kana": "ギフケン",
    "prefecture_code": 21,
    "city": "飛騨市",
    "city_kana": "ヒダシ",
    "town": "古川町末広町",
    "town_kana": "フルカワチョウスエヒロチョウ",
    "street": null,
    "office_name": null,
    "office_name_kana": null
  },
  "4234": {
    "zip_code": "5094234",
    "prefecture": "岐阜県",
    "prefecture_kana": "ギフケン",
    "prefecture_code": 21,
    "city": "飛騨市",
    "city_kana": "ヒダシ",
    "town": "古川町壱之町",
    "town_kana": "フルカワチョウイチノマチ",
    "street": null,
    "office_name": null,
    "office_name_kana": null
  },
  "4235": {
    "zip_code": "5094235",
    "prefecture": "岐阜県",
    "prefecture_kana": "ギフケン",
    "prefecture_code": 21,
    "city": "飛騨市",
    "city_kana": "ヒダシ",
    "town": "古川町弐之町",
    "town_kana": "フルカワチョウニノマチ",
    "street": null,
    "office_name": null,
    "office_name_kana": null
  },
  "4236": {
    "zip_code": "5094236",
    "prefecture": "岐阜県",
    "prefecture_kana": "ギフケン",
    "prefecture_code": 21,
    "city": "飛騨市",
    "city_kana": "ヒダシ",
    "town": "古川町三之町",
    "town_kana": "フルカワチョウサンノマチ",
    "street": null,
    "office_name": null,
    "office_name_kana": null
  },
  "4237": {
    "zip_code": "5094237",
    "prefecture": "岐阜県",
    "prefecture_kana": "ギフケン",
    "prefecture_code": 21,
    "city": "飛騨市",
    "city_kana": "ヒダシ",
    "town": "古川町栄",
    "town_kana": "フルカワチョウサカエ",
    "street": null,
    "office_name": null,
    "office_name_kana": null
  },
  "4241": {
    "zip_code": "5094241",
    "prefecture": "岐阜県",
    "prefecture_kana": "ギフケン",
    "prefecture_code": 21,
    "city": "飛騨市",
    "city_kana": "ヒダシ",
    "town": "古川町向町",
    "town_kana": "フルカワチョウムカイマチ",
    "street": null,
    "office_name": null,
    "office_name_kana": null
  },
  "4242": {
    "zip_code": "5094242",
    "prefecture": "岐阜県",
    "prefecture_kana": "ギフケン",
    "prefecture_code": 21,
    "city": "飛騨市",
    "city_kana": "ヒダシ",
    "town": "古川町増島町",
    "town_kana": "フルカワチョウマスシマチョウ",
    "street": null,
    "office_name": null,
    "office_name_kana": null
  },
  "4243": {
    "zip_code": "5094243",
    "prefecture": "岐阜県",
    "prefecture_kana": "ギフケン",
    "prefecture_code": 21,
    "city": "飛騨市",
    "city_kana": "ヒダシ",
    "town": "古川町貴船町",
    "town_kana": "フルカワチョウキフネチョウ",
    "street": null,
    "office_name": null,
    "office_name_kana": null
  },
  "4244": {
    "zip_code": "5094244",
    "prefecture": "岐阜県",
    "prefecture_kana": "ギフケン",
    "prefecture_code": 21,
    "city": "飛騨市",
    "city_kana": "ヒダシ",
    "town": "古川町是重",
    "town_kana": "フルカワチョウコレシゲ",
    "street": null,
    "office_name": null,
    "office_name_kana": null
  },
  "4245": {
    "zip_code": "5094245",
    "prefecture": "岐阜県",
    "prefecture_kana": "ギフケン",
    "prefecture_code": 21,
    "city": "飛騨市",
    "city_kana": "ヒダシ",
    "town": "古川町幸栄町",
    "town_kana": "フルカワチョウコウエイチョウ",
    "street": null,
    "office_name": null,
    "office_name_kana": null
  },
  "4251": {
    "zip_code": "5094251",
    "prefecture": "岐阜県",
    "prefecture_kana": "ギフケン",
    "prefecture_code": 21,
    "city": "飛騨市",
    "city_kana": "ヒダシ",
    "town": "古川町宮城町",
    "town_kana": "フルカワチョウミヤギチョウ",
    "street": null,
    "office_name": null,
    "office_name_kana": null
  },
  "4252": {
    "zip_code": "5094252",
    "prefecture": "岐阜県",
    "prefecture_kana": "ギフケン",
    "prefecture_code": 21,
    "city": "飛騨市",
    "city_kana": "ヒダシ",
    "town": "古川町朝開町",
    "town_kana": "フルカワチョウアサビラキマチ",
    "street": null,
    "office_name": null,
    "office_name_kana": null
  },
  "4253": {
    "zip_code": "5094253",
    "prefecture": "岐阜県",
    "prefecture_kana": "ギフケン",
    "prefecture_code": 21,
    "city": "飛騨市",
    "city_kana": "ヒダシ",
    "town": "古川町南成町",
    "town_kana": "フルカワチョウナンセイチョウ",
    "street": null,
    "office_name": null,
    "office_name_kana": null
  },
  "4254": {
    "zip_code": "5094254",
    "prefecture": "岐阜県",
    "prefecture_kana": "ギフケン",
    "prefecture_code": 21,
    "city": "飛騨市",
    "city_kana": "ヒダシ",
    "town": "古川町上町",
    "town_kana": "フルカワチョウカンマチ",
    "street": null,
    "office_name": null,
    "office_name_kana": null
  },
  "4255": {
    "zip_code": "5094255",
    "prefecture": "岐阜県",
    "prefecture_kana": "ギフケン",
    "prefecture_code": 21,
    "city": "飛騨市",
    "city_kana": "ヒダシ",
    "town": "古川町大野町",
    "town_kana": "フルカワチョウオオノチョウ",
    "street": null,
    "office_name": null,
    "office_name_kana": null
  },
  "4256": {
    "zip_code": "5094256",
    "prefecture": "岐阜県",
    "prefecture_kana": "ギフケン",
    "prefecture_code": 21,
    "city": "飛騨市",
    "city_kana": "ヒダシ",
    "town": "古川町高野",
    "town_kana": "フルカワチョウタカノ",
    "street": null,
    "office_name": null,
    "office_name_kana": null
  },
  "4261": {
    "zip_code": "5094261",
    "prefecture": "岐阜県",
    "prefecture_kana": "ギフケン",
    "prefecture_code": 21,
    "city": "飛騨市",
    "city_kana": "ヒダシ",
    "town": "古川町下野",
    "town_kana": "フルカワチョウシモノ",
    "street": null,
    "office_name": null,
    "office_name_kana": null
  },
  "4262": {
    "zip_code": "5094262",
    "prefecture": "岐阜県",
    "prefecture_kana": "ギフケン",
    "prefecture_code": 21,
    "city": "飛騨市",
    "city_kana": "ヒダシ",
    "town": "古川町中野",
    "town_kana": "フルカワチョウナカノ",
    "street": null,
    "office_name": null,
    "office_name_kana": null
  },
  "4263": {
    "zip_code": "5094263",
    "prefecture": "岐阜県",
    "prefecture_kana": "ギフケン",
    "prefecture_code": 21,
    "city": "飛騨市",
    "city_kana": "ヒダシ",
    "town": "古川町上野",
    "town_kana": "フルカワチョウカミノ",
    "street": null,
    "office_name": null,
    "office_name_kana": null
  },
  "4264": {
    "zip_code": "5094264",
    "prefecture": "岐阜県",
    "prefecture_kana": "ギフケン",
    "prefecture_code": 21,
    "city": "飛騨市",
    "city_kana": "ヒダシ",
    "town": "古川町平岩",
    "town_kana": "フルカワチョウヒライワ",
    "street": null,
    "office_name": null,
    "office_name_kana": null
  },
  "4265": {
    "zip_code": "5094265",
    "prefecture": "岐阜県",
    "prefecture_kana": "ギフケン",
    "prefecture_code": 21,
    "city": "飛騨市",
    "city_kana": "ヒダシ",
    "town": "古川町畦畑",
    "town_kana": "フルカワチョウウネハタ",
    "street": null,
    "office_name": null,
    "office_name_kana": null
  },
  "4271": {
    "zip_code": "5094271",
    "prefecture": "岐阜県",
    "prefecture_kana": "ギフケン",
    "prefecture_code": 21,
    "city": "飛騨市",
    "city_kana": "ヒダシ",
    "town": "古川町谷",
    "town_kana": "フルカワチョウタニ",
    "street": null,
    "office_name": null,
    "office_name_kana": null
  },
  "4272": {
    "zip_code": "5094272",
    "prefecture": "岐阜県",
    "prefecture_kana": "ギフケン",
    "prefecture_code": 21,
    "city": "飛騨市",
    "city_kana": "ヒダシ",
    "town": "古川町信包",
    "town_kana": "フルカワチョウノブカ",
    "street": null,
    "office_name": null,
    "office_name_kana": null
  },
  "4273": {
    "zip_code": "5094273",
    "prefecture": "岐阜県",
    "prefecture_kana": "ギフケン",
    "prefecture_code": 21,
    "city": "飛騨市",
    "city_kana": "ヒダシ",
    "town": "古川町寺地",
    "town_kana": "フルカワチョウテラジ",
    "street": null,
    "office_name": null,
    "office_name_kana": null
  },
  "4274": {
    "zip_code": "5094274",
    "prefecture": "岐阜県",
    "prefecture_kana": "ギフケン",
    "prefecture_code": 21,
    "city": "飛騨市",
    "city_kana": "ヒダシ",
    "town": "古川町笹ケ洞",
    "town_kana": "フルカワチョウササガホラ",
    "street": null,
    "office_name": null,
    "office_name_kana": null
  },
  "4275": {
    "zip_code": "5094275",
    "prefecture": "岐阜県",
    "prefecture_kana": "ギフケン",
    "prefecture_code": 21,
    "city": "飛騨市",
    "city_kana": "ヒダシ",
    "town": "古川町黒内",
    "town_kana": "フルカワチョウクロウチ",
    "street": null,
    "office_name": null,
    "office_name_kana": null
  },
  "4292": {
    "zip_code": "5094292",
    "prefecture": "岐阜県",
    "prefecture_kana": "ギフケン",
    "prefecture_code": 21,
    "city": "飛騨市",
    "city_kana": "ヒダシ",
    "town": "古川町本町",
    "town_kana": "フルカワチョウホンマチ",
    "street": "２番２２号",
    "office_name": "飛騨市役所",
    "office_name_kana": "ヒダシヤクシヨ"
  },
  "4301": {
    "zip_code": "5094301",
    "prefecture": "岐阜県",
    "prefecture_kana": "ギフケン",
    "prefecture_code": 21,
    "city": "飛騨市",
    "city_kana": "ヒダシ",
    "town": "河合町角川",
    "town_kana": "カワイチョウツノガワ",
    "street": null,
    "office_name": null,
    "office_name_kana": null
  },
  "4302": {
    "zip_code": "5094302",
    "prefecture": "岐阜県",
    "prefecture_kana": "ギフケン",
    "prefecture_code": 21,
    "city": "飛騨市",
    "city_kana": "ヒダシ",
    "town": "河合町小無雁",
    "town_kana": "カワイチョウコムカリ",
    "street": null,
    "office_name": null,
    "office_name_kana": null
  },
  "4303": {
    "zip_code": "5094303",
    "prefecture": "岐阜県",
    "prefecture_kana": "ギフケン",
    "prefecture_code": 21,
    "city": "飛騨市",
    "city_kana": "ヒダシ",
    "town": "河合町有家",
    "town_kana": "カワイチョウウケ",
    "street": null,
    "office_name": null,
    "office_name_kana": null
  },
  "4304": {
    "zip_code": "5094304",
    "prefecture": "岐阜県",
    "prefecture_kana": "ギフケン",
    "prefecture_code": 21,
    "city": "飛騨市",
    "city_kana": "ヒダシ",
    "town": "河合町羽根",
    "town_kana": "カワイチョウハネ",
    "street": null,
    "office_name": null,
    "office_name_kana": null
  },
  "4305": {
    "zip_code": "5094305",
    "prefecture": "岐阜県",
    "prefecture_kana": "ギフケン",
    "prefecture_code": 21,
    "city": "飛騨市",
    "city_kana": "ヒダシ",
    "town": "河合町保木林",
    "town_kana": "カワイチョウホキバヤシ",
    "street": null,
    "office_name": null,
    "office_name_kana": null
  },
  "4306": {
    "zip_code": "5094306",
    "prefecture": "岐阜県",
    "prefecture_kana": "ギフケン",
    "prefecture_code": 21,
    "city": "飛騨市",
    "city_kana": "ヒダシ",
    "town": "河合町中沢上",
    "town_kana": "カワイチョウナカゾウレ",
    "street": null,
    "office_name": null,
    "office_name_kana": null
  },
  "4311": {
    "zip_code": "5094311",
    "prefecture": "岐阜県",
    "prefecture_kana": "ギフケン",
    "prefecture_code": 21,
    "city": "飛騨市",
    "city_kana": "ヒダシ",
    "town": "河合町大谷",
    "town_kana": "カワイチョウオオタニ",
    "street": null,
    "office_name": null,
    "office_name_kana": null
  },
  "4312": {
    "zip_code": "5094312",
    "prefecture": "岐阜県",
    "prefecture_kana": "ギフケン",
    "prefecture_code": 21,
    "city": "飛騨市",
    "city_kana": "ヒダシ",
    "town": "河合町稲越",
    "town_kana": "カワイチョウイナゴエ",
    "street": null,
    "office_name": null,
    "office_name_kana": null
  },
  "4313": {
    "zip_code": "5094313",
    "prefecture": "岐阜県",
    "prefecture_kana": "ギフケン",
    "prefecture_code": 21,
    "city": "飛騨市",
    "city_kana": "ヒダシ",
    "town": "河合町保",
    "town_kana": "カワイチョウホ",
    "street": null,
    "office_name": null,
    "office_name_kana": null
  },
  "4314": {
    "zip_code": "5094314",
    "prefecture": "岐阜県",
    "prefecture_kana": "ギフケン",
    "prefecture_code": 21,
    "city": "飛騨市",
    "city_kana": "ヒダシ",
    "town": "河合町月ケ瀬",
    "town_kana": "カワイチョウツキガセ",
    "street": null,
    "office_name": null,
    "office_name_kana": null
  },
  "4315": {
    "zip_code": "5094315",
    "prefecture": "岐阜県",
    "prefecture_kana": "ギフケン",
    "prefecture_code": 21,
    "city": "飛騨市",
    "city_kana": "ヒダシ",
    "town": "河合町天生",
    "town_kana": "カワイチョウアモウ",
    "street": null,
    "office_name": null,
    "office_name_kana": null
  },
  "4316": {
    "zip_code": "5094316",
    "prefecture": "岐阜県",
    "prefecture_kana": "ギフケン",
    "prefecture_code": 21,
    "city": "飛騨市",
    "city_kana": "ヒダシ",
    "town": "河合町元田",
    "town_kana": "カワイチョウゲンダ",
    "street": null,
    "office_name": null,
    "office_name_kana": null
  },
  "4317": {
    "zip_code": "5094317",
    "prefecture": "岐阜県",
    "prefecture_kana": "ギフケン",
    "prefecture_code": 21,
    "city": "飛騨市",
    "city_kana": "ヒダシ",
    "town": "河合町上ケ島",
    "town_kana": "カワイチョウジョウガシマ",
    "street": null,
    "office_name": null,
    "office_name_kana": null
  },
  "4318": {
    "zip_code": "5094318",
    "prefecture": "岐阜県",
    "prefecture_kana": "ギフケン",
    "prefecture_code": 21,
    "city": "飛騨市",
    "city_kana": "ヒダシ",
    "town": "河合町新名",
    "town_kana": "カワイチョウシンミョウ",
    "street": null,
    "office_name": null,
    "office_name_kana": null
  },
  "4392": {
    "zip_code": "5094392",
    "prefecture": "岐阜県",
    "prefecture_kana": "ギフケン",
    "prefecture_code": 21,
    "city": "飛騨市",
    "city_kana": "ヒダシ",
    "town": "河合町角川",
    "town_kana": "カワイチョウツノガワ",
    "street": "２２３番地１",
    "office_name": "飛騨市　河合振興事務所",
    "office_name_kana": "ヒダシ カワイシンコウジムシヨ"
  },
  "4401": {
    "zip_code": "5094401",
    "prefecture": "岐阜県",
    "prefecture_kana": "ギフケン",
    "prefecture_code": 21,
    "city": "飛騨市",
    "city_kana": "ヒダシ",
    "town": "宮川町菅沼",
    "town_kana": "ミヤガワチョウスガヌマ",
    "street": null,
    "office_name": null,
    "office_name_kana": null
  },
  "4402": {
    "zip_code": "5094402",
    "prefecture": "岐阜県",
    "prefecture_kana": "ギフケン",
    "prefecture_code": 21,
    "city": "飛騨市",
    "city_kana": "ヒダシ",
    "town": "宮川町種蔵",
    "town_kana": "ミヤガワチョウタネクラ",
    "street": null,
    "office_name": null,
    "office_name_kana": null
  },
  "4403": {
    "zip_code": "5094403",
    "prefecture": "岐阜県",
    "prefecture_kana": "ギフケン",
    "prefecture_code": 21,
    "city": "飛騨市",
    "city_kana": "ヒダシ",
    "town": "宮川町三川原",
    "town_kana": "ミヤガワチョウサンガワラ",
    "street": null,
    "office_name": null,
    "office_name_kana": null
  },
  "4404": {
    "zip_code": "5094404",
    "prefecture": "岐阜県",
    "prefecture_kana": "ギフケン",
    "prefecture_code": 21,
    "city": "飛騨市",
    "city_kana": "ヒダシ",
    "town": "宮川町巣之内",
    "town_kana": "ミヤガワチョウスノウチ",
    "street": null,
    "office_name": null,
    "office_name_kana": null
  },
  "4405": {
    "zip_code": "5094405",
    "prefecture": "岐阜県",
    "prefecture_kana": "ギフケン",
    "prefecture_code": 21,
    "city": "飛騨市",
    "city_kana": "ヒダシ",
    "town": "宮川町丸山",
    "town_kana": "ミヤガワチョウマルヤマ",
    "street": null,
    "office_name": null,
    "office_name_kana": null
  },
  "4406": {
    "zip_code": "5094406",
    "prefecture": "岐阜県",
    "prefecture_kana": "ギフケン",
    "prefecture_code": 21,
    "city": "飛騨市",
    "city_kana": "ヒダシ",
    "town": "宮川町牧戸",
    "town_kana": "ミヤガワチョウマキド",
    "street": null,
    "office_name": null,
    "office_name_kana": null
  },
  "4411": {
    "zip_code": "5094411",
    "prefecture": "岐阜県",
    "prefecture_kana": "ギフケン",
    "prefecture_code": 21,
    "city": "飛騨市",
    "city_kana": "ヒダシ",
    "town": "宮川町野首",
    "town_kana": "ミヤガワチョウノクビ",
    "street": null,
    "office_name": null,
    "office_name_kana": null
  },
  "4412": {
    "zip_code": "5094412",
    "prefecture": "岐阜県",
    "prefecture_kana": "ギフケン",
    "prefecture_code": 21,
    "city": "飛騨市",
    "city_kana": "ヒダシ",
    "town": "宮川町岸奥",
    "town_kana": "ミヤガワチョウキシオク",
    "street": null,
    "office_name": null,
    "office_name_kana": null
  },
  "4413": {
    "zip_code": "5094413",
    "prefecture": "岐阜県",
    "prefecture_kana": "ギフケン",
    "prefecture_code": 21,
    "city": "飛騨市",
    "city_kana": "ヒダシ",
    "town": "宮川町小谷",
    "town_kana": "ミヤガワチョウコダニ",
    "street": null,
    "office_name": null,
    "office_name_kana": null
  },
  "4414": {
    "zip_code": "5094414",
    "prefecture": "岐阜県",
    "prefecture_kana": "ギフケン",
    "prefecture_code": 21,
    "city": "飛騨市",
    "city_kana": "ヒダシ",
    "town": "宮川町大無雁",
    "town_kana": "ミヤガワチョウオオムカリ",
    "street": null,
    "office_name": null,
    "office_name_kana": null
  },
  "4415": {
    "zip_code": "5094415",
    "prefecture": "岐阜県",
    "prefecture_kana": "ギフケン",
    "prefecture_code": 21,
    "city": "飛騨市",
    "city_kana": "ヒダシ",
    "town": "宮川町落合",
    "town_kana": "ミヤガワチョウオチアイ",
    "street": null,
    "office_name": null,
    "office_name_kana": null
  },
  "4421": {
    "zip_code": "5094421",
    "prefecture": "岐阜県",
    "prefecture_kana": "ギフケン",
    "prefecture_code": 21,
    "city": "飛騨市",
    "city_kana": "ヒダシ",
    "town": "宮川町高牧",
    "town_kana": "ミヤガワチョウタカマキ",
    "street": null,
    "office_name": null,
    "office_name_kana": null
  },
  "4422": {
    "zip_code": "5094422",
    "prefecture": "岐阜県",
    "prefecture_kana": "ギフケン",
    "prefecture_code": 21,
    "city": "飛騨市",
    "city_kana": "ヒダシ",
    "town": "宮川町西忍",
    "town_kana": "ミヤガワチョウニシシノビ",
    "street": null,
    "office_name": null,
    "office_name_kana": null
  },
  "4423": {
    "zip_code": "5094423",
    "prefecture": "岐阜県",
    "prefecture_kana": "ギフケン",
    "prefecture_code": 21,
    "city": "飛騨市",
    "city_kana": "ヒダシ",
    "town": "宮川町林",
    "town_kana": "ミヤガワチョウハヤシ",
    "street": null,
    "office_name": null,
    "office_name_kana": null
  },
  "4424": {
    "zip_code": "5094424",
    "prefecture": "岐阜県",
    "prefecture_kana": "ギフケン",
    "prefecture_code": 21,
    "city": "飛騨市",
    "city_kana": "ヒダシ",
    "town": "宮川町森安",
    "town_kana": "ミヤガワチョウモリヤス",
    "street": null,
    "office_name": null,
    "office_name_kana": null
  },
  "4531": [
    {
      "zip_code": "5094531",
      "prefecture": "岐阜県",
      "prefecture_kana": "ギフケン",
      "prefecture_code": 21,
      "city": "飛騨市",
      "city_kana": "ヒダシ",
      "town": "宮川町鮎飛",
      "town_kana": "ミヤガワチョウアユトビ",
      "street": null,
      "office_name": null,
      "office_name_kana": null
    },
    {
      "zip_code": "5094531",
      "prefecture": "岐阜県",
      "prefecture_kana": "ギフケン",
      "prefecture_code": 21,
      "city": "飛騨市",
      "city_kana": "ヒダシ",
      "town": "宮川町巣納谷",
      "town_kana": "ミヤガワチョウスノダニ",
      "street": null,
      "office_name": null,
      "office_name_kana": null
    }
  ],
  "4532": {
    "zip_code": "5094532",
    "prefecture": "岐阜県",
    "prefecture_kana": "ギフケン",
    "prefecture_code": 21,
    "city": "飛騨市",
    "city_kana": "ヒダシ",
    "town": "宮川町洞",
    "town_kana": "ミヤガワチョウホラ",
    "street": null,
    "office_name": null,
    "office_name_kana": null
  },
  "4533": {
    "zip_code": "5094533",
    "prefecture": "岐阜県",
    "prefecture_kana": "ギフケン",
    "prefecture_code": 21,
    "city": "飛騨市",
    "city_kana": "ヒダシ",
    "town": "宮川町塩屋",
    "town_kana": "ミヤガワチョウシオヤ",
    "street": null,
    "office_name": null,
    "office_name_kana": null
  },
  "4534": {
    "zip_code": "5094534",
    "prefecture": "岐阜県",
    "prefecture_kana": "ギフケン",
    "prefecture_code": 21,
    "city": "飛騨市",
    "city_kana": "ヒダシ",
    "town": "宮川町中沢上",
    "town_kana": "ミヤガワチョウナカゾレ",
    "street": null,
    "office_name": null,
    "office_name_kana": null
  },
  "4535": {
    "zip_code": "5094535",
    "prefecture": "岐阜県",
    "prefecture_kana": "ギフケン",
    "prefecture_code": 21,
    "city": "飛騨市",
    "city_kana": "ヒダシ",
    "town": "宮川町祢宜ケ沢上",
    "town_kana": "ミヤガワチョウネガソレ",
    "street": null,
    "office_name": null,
    "office_name_kana": null
  },
  "4541": {
    "zip_code": "5094541",
    "prefecture": "岐阜県",
    "prefecture_kana": "ギフケン",
    "prefecture_code": 21,
    "city": "飛騨市",
    "city_kana": "ヒダシ",
    "town": "宮川町小豆沢",
    "town_kana": "ミヤガワチョウアズキザワ",
    "street": null,
    "office_name": null,
    "office_name_kana": null
  },
  "4542": {
    "zip_code": "5094542",
    "prefecture": "岐阜県",
    "prefecture_kana": "ギフケン",
    "prefecture_code": 21,
    "city": "飛騨市",
    "city_kana": "ヒダシ",
    "town": "宮川町杉原",
    "town_kana": "ミヤガワチョウスギハラ",
    "street": null,
    "office_name": null,
    "office_name_kana": null
  },
  "4543": {
    "zip_code": "5094543",
    "prefecture": "岐阜県",
    "prefecture_kana": "ギフケン",
    "prefecture_code": 21,
    "city": "飛騨市",
    "city_kana": "ヒダシ",
    "town": "宮川町桑野",
    "town_kana": "ミヤガワチョウクワノ",
    "street": null,
    "office_name": null,
    "office_name_kana": null
  },
  "4544": {
    "zip_code": "5094544",
    "prefecture": "岐阜県",
    "prefecture_kana": "ギフケン",
    "prefecture_code": 21,
    "city": "飛騨市",
    "city_kana": "ヒダシ",
    "town": "宮川町戸谷",
    "town_kana": "ミヤガワチョウトダニ",
    "street": null,
    "office_name": null,
    "office_name_kana": null
  },
  "4545": {
    "zip_code": "5094545",
    "prefecture": "岐阜県",
    "prefecture_kana": "ギフケン",
    "prefecture_code": 21,
    "city": "飛騨市",
    "city_kana": "ヒダシ",
    "town": "宮川町打保",
    "town_kana": "ミヤガワチョウウツボ",
    "street": null,
    "office_name": null,
    "office_name_kana": null
  },
  "5100": {
    "zip_code": "5095100",
    "prefecture": "岐阜県",
    "prefecture_kana": "ギフケン",
    "prefecture_code": 21,
    "city": "土岐市",
    "city_kana": "トキシ",
    "town": "",
    "town_kana": "",
    "street": null,
    "office_name": null,
    "office_name_kana": null
  },
  "5101": {
    "zip_code": "5095101",
    "prefecture": "岐阜県",
    "prefecture_kana": "ギフケン",
    "prefecture_code": 21,
    "city": "土岐市",
    "city_kana": "トキシ",
    "town": "泉町河合",
    "town_kana": "イズミチョウカワイ",
    "street": null,
    "office_name": null,
    "office_name_kana": null
  },
  "5102": {
    "zip_code": "5095102",
    "prefecture": "岐阜県",
    "prefecture_kana": "ギフケン",
    "prefecture_code": 21,
    "city": "土岐市",
    "city_kana": "トキシ",
    "town": "泉町定林寺",
    "town_kana": "イズミチョウジョウリンジ",
    "street": null,
    "office_name": null,
    "office_name_kana": null
  },
  "5103": {
    "zip_code": "5095103",
    "prefecture": "岐阜県",
    "prefecture_kana": "ギフケン",
    "prefecture_code": 21,
    "city": "土岐市",
    "city_kana": "トキシ",
    "town": "泉東窯町",
    "town_kana": "イズミヒガシガマチョウ",
    "street": null,
    "office_name": null,
    "office_name_kana": null
  },
  "5104": {
    "zip_code": "5095104",
    "prefecture": "岐阜県",
    "prefecture_kana": "ギフケン",
    "prefecture_code": 21,
    "city": "土岐市",
    "city_kana": "トキシ",
    "town": "泉中窯町",
    "town_kana": "イズミナカガマチョウ",
    "street": null,
    "office_name": null,
    "office_name_kana": null
  },
  "5105": {
    "zip_code": "5095105",
    "prefecture": "岐阜県",
    "prefecture_kana": "ギフケン",
    "prefecture_code": 21,
    "city": "土岐市",
    "city_kana": "トキシ",
    "town": "泉西窯町",
    "town_kana": "イズミニシガマチョウ",
    "street": null,
    "office_name": null,
    "office_name_kana": null
  },
  "5106": {
    "zip_code": "5095106",
    "prefecture": "岐阜県",
    "prefecture_kana": "ギフケン",
    "prefecture_code": 21,
    "city": "土岐市",
    "city_kana": "トキシ",
    "town": "泉仲森町",
    "town_kana": "イズミナカモリチョウ",
    "street": null,
    "office_name": null,
    "office_name_kana": null
  },
  "5107": {
    "zip_code": "5095107",
    "prefecture": "岐阜県",
    "prefecture_kana": "ギフケン",
    "prefecture_code": 21,
    "city": "土岐市",
    "city_kana": "トキシ",
    "town": "泉梅ノ木町",
    "town_kana": "イズミウメノキチョウ",
    "street": null,
    "office_name": null,
    "office_name_kana": null
  },
  "5111": {
    "zip_code": "5095111",
    "prefecture": "岐阜県",
    "prefecture_kana": "ギフケン",
    "prefecture_code": 21,
    "city": "土岐市",
    "city_kana": "トキシ",
    "town": "肥田浅野双葉町",
    "town_kana": "ヒダアサノフタバチョウ",
    "street": null,
    "office_name": null,
    "office_name_kana": null
  },
  "5112": {
    "zip_code": "5095112",
    "prefecture": "岐阜県",
    "prefecture_kana": "ギフケン",
    "prefecture_code": 21,
    "city": "土岐市",
    "city_kana": "トキシ",
    "town": "肥田浅野笠神町",
    "town_kana": "ヒダアサノカサガミチョウ",
    "street": null,
    "office_name": null,
    "office_name_kana": null
  },
  "5113": {
    "zip_code": "5095113",
    "prefecture": "岐阜県",
    "prefecture_kana": "ギフケン",
    "prefecture_code": 21,
    "city": "土岐市",
    "city_kana": "トキシ",
    "town": "肥田浅野元町",
    "town_kana": "ヒダアサノモトマチ",
    "street": null,
    "office_name": null,
    "office_name_kana": null
  },
  "5114": {
    "zip_code": "5095114",
    "prefecture": "岐阜県",
    "prefecture_kana": "ギフケン",
    "prefecture_code": 21,
    "city": "土岐市",
    "city_kana": "トキシ",
    "town": "肥田町浅野",
    "town_kana": "ヒダチョウアサノ",
    "street": null,
    "office_name": null,
    "office_name_kana": null
  },
  "5115": {
    "zip_code": "5095115",
    "prefecture": "岐阜県",
    "prefecture_kana": "ギフケン",
    "prefecture_code": 21,
    "city": "土岐市",
    "city_kana": "トキシ",
    "town": "肥田町肥田",
    "town_kana": "ヒダチョウヒダ",
    "street": null,
    "office_name": null,
    "office_name_kana": null
  },
  "5116": {
    "zip_code": "5095116",
    "prefecture": "岐阜県",
    "prefecture_kana": "ギフケン",
    "prefecture_code": 21,
    "city": "土岐市",
    "city_kana": "トキシ",
    "town": "肥田浅野矢落町",
    "town_kana": "ヒダアサノヤオチチョウ",
    "street": null,
    "office_name": null,
    "office_name_kana": null
  },
  "5117": {
    "zip_code": "5095117",
    "prefecture": "岐阜県",
    "prefecture_kana": "ギフケン",
    "prefecture_code": 21,
    "city": "土岐市",
    "city_kana": "トキシ",
    "town": "肥田浅野朝日町",
    "town_kana": "ヒダアサノアサヒマチ",
    "street": null,
    "office_name": null,
    "office_name_kana": null
  },
  "5118": {
    "zip_code": "5095118",
    "prefecture": "岐阜県",
    "prefecture_kana": "ギフケン",
    "prefecture_code": 21,
    "city": "土岐市",
    "city_kana": "トキシ",
    "town": "肥田浅野梅ノ木町",
    "town_kana": "ヒダアサノウメノキチョウ",
    "street": null,
    "office_name": null,
    "office_name_kana": null
  },
  "5121": {
    "zip_code": "5095121",
    "prefecture": "岐阜県",
    "prefecture_kana": "ギフケン",
    "prefecture_code": 21,
    "city": "土岐市",
    "city_kana": "トキシ",
    "town": "土岐津町高山",
    "town_kana": "トキツチョウタカヤマ",
    "street": null,
    "office_name": null,
    "office_name_kana": null
  },
  "5122": {
    "zip_code": "5095122",
    "prefecture": "岐阜県",
    "prefecture_kana": "ギフケン",
    "prefecture_code": 21,
    "city": "土岐市",
    "city_kana": "トキシ",
    "town": "土岐津町土岐口",
    "town_kana": "トキツチョウトキグチ",
    "street": null,
    "office_name": null,
    "office_name_kana": null
  },
  "5123": {
    "zip_code": "5095123",
    "prefecture": "岐阜県",
    "prefecture_kana": "ギフケン",
    "prefecture_code": 21,
    "city": "土岐市",
    "city_kana": "トキシ",
    "town": "土岐口南町",
    "town_kana": "トキグチミナミマチ",
    "street": null,
    "office_name": null,
    "office_name_kana": null
  },
  "5124": {
    "zip_code": "5095124",
    "prefecture": "岐阜県",
    "prefecture_kana": "ギフケン",
    "prefecture_code": 21,
    "city": "土岐市",
    "city_kana": "トキシ",
    "town": "土岐口中町",
    "town_kana": "トキグチナカマチ",
    "street": null,
    "office_name": null,
    "office_name_kana": null
  },
  "5125": {
    "zip_code": "5095125",
    "prefecture": "岐阜県",
    "prefecture_kana": "ギフケン",
    "prefecture_code": 21,
    "city": "土岐市",
    "city_kana": "トキシ",
    "town": "御幸町",
    "town_kana": "ミユキチョウ",
    "street": null,
    "office_name": null,
    "office_name_kana": null
  },
  "5126": {
    "zip_code": "5095126",
    "prefecture": "岐阜県",
    "prefecture_kana": "ギフケン",
    "prefecture_code": 21,
    "city": "土岐市",
    "city_kana": "トキシ",
    "town": "土岐口北町",
    "town_kana": "トキグチキタマチ",
    "street": null,
    "office_name": null,
    "office_name_kana": null
  },
  "5127": {
    "zip_code": "5095127",
    "prefecture": "岐阜県",
    "prefecture_kana": "ギフケン",
    "prefecture_code": 21,
    "city": "土岐市",
    "city_kana": "トキシ",
    "town": "土岐ヶ丘",
    "town_kana": "トキガオカ",
    "street": null,
    "office_name": null,
    "office_name_kana": null
  },
  "5131": {
    "zip_code": "5095131",
    "prefecture": "岐阜県",
    "prefecture_kana": "ギフケン",
    "prefecture_code": 21,
    "city": "土岐市",
    "city_kana": "トキシ",
    "town": "泉寺田町",
    "town_kana": "イズミテラダチョウ",
    "street": null,
    "office_name": null,
    "office_name_kana": null
  },
  "5132": {
    "zip_code": "5095132",
    "prefecture": "岐阜県",
    "prefecture_kana": "ギフケン",
    "prefecture_code": 21,
    "city": "土岐市",
    "city_kana": "トキシ",
    "town": "泉町大富",
    "town_kana": "イズミチョウオオトミ",
    "street": null,
    "office_name": null,
    "office_name_kana": null
  },
  "5133": {
    "zip_code": "5095133",
    "prefecture": "岐阜県",
    "prefecture_kana": "ギフケン",
    "prefecture_code": 21,
    "city": "土岐市",
    "city_kana": "トキシ",
    "town": "泉神栄町",
    "town_kana": "イズミシンエイチョウ",
    "street": null,
    "office_name": null,
    "office_name_kana": null
  },
  "5134": {
    "zip_code": "5095134",
    "prefecture": "岐阜県",
    "prefecture_kana": "ギフケン",
    "prefecture_code": 21,
    "city": "土岐市",
    "city_kana": "トキシ",
    "town": "泉島田町",
    "town_kana": "イズミシマダチョウ",
    "street": null,
    "office_name": null,
    "office_name_kana": null
  },
  "5135": {
    "zip_code": "5095135",
    "prefecture": "岐阜県",
    "prefecture_kana": "ギフケン",
    "prefecture_code": 21,
    "city": "土岐市",
    "city_kana": "トキシ",
    "town": "泉森下町",
    "town_kana": "イズミモリシタチョウ",
    "street": null,
    "office_name": null,
    "office_name_kana": null
  },
  "5136": {
    "zip_code": "5095136",
    "prefecture": "岐阜県",
    "prefecture_kana": "ギフケン",
    "prefecture_code": 21,
    "city": "土岐市",
    "city_kana": "トキシ",
    "town": "泉大島町",
    "town_kana": "イズミオオシマチョウ",
    "street": null,
    "office_name": null,
    "office_name_kana": null
  },
  "5141": {
    "zip_code": "5095141",
    "prefecture": "岐阜県",
    "prefecture_kana": "ギフケン",
    "prefecture_code": 21,
    "city": "土岐市",
    "city_kana": "トキシ",
    "town": "泉岩畑町",
    "town_kana": "イズミイワバタチョウ",
    "street": null,
    "office_name": null,
    "office_name_kana": null
  },
  "5142": {
    "zip_code": "5095142",
    "prefecture": "岐阜県",
    "prefecture_kana": "ギフケン",
    "prefecture_code": 21,
    "city": "土岐市",
    "city_kana": "トキシ",
    "town": "泉町久尻",
    "town_kana": "イズミチョウクジリ",
    "street": null,
    "office_name": null,
    "office_name_kana": null
  },
  "5143": {
    "zip_code": "5095143",
    "prefecture": "岐阜県",
    "prefecture_kana": "ギフケン",
    "prefecture_code": 21,
    "city": "土岐市",
    "city_kana": "トキシ",
    "town": "泉日之出町",
    "town_kana": "イズミヒノデチョウ",
    "street": null,
    "office_name": null,
    "office_name_kana": null
  },
  "5144": {
    "zip_code": "5095144",
    "prefecture": "岐阜県",
    "prefecture_kana": "ギフケン",
    "prefecture_code": 21,
    "city": "土岐市",
    "city_kana": "トキシ",
    "town": "泉池ノ上町",
    "town_kana": "イズミイケノウエチョウ",
    "street": null,
    "office_name": null,
    "office_name_kana": null
  },
  "5145": {
    "zip_code": "5095145",
    "prefecture": "岐阜県",
    "prefecture_kana": "ギフケン",
    "prefecture_code": 21,
    "city": "土岐市",
    "city_kana": "トキシ",
    "town": "泉大沼町",
    "town_kana": "イズミオオヌマチョウ",
    "street": null,
    "office_name": null,
    "office_name_kana": null
  },
  "5146": {
    "zip_code": "5095146",
    "prefecture": "岐阜県",
    "prefecture_kana": "ギフケン",
    "prefecture_code": 21,
    "city": "土岐市",
    "city_kana": "トキシ",
    "town": "泉明治町",
    "town_kana": "イズミメイジマチ",
    "street": null,
    "office_name": null,
    "office_name_kana": null
  },
  "5147": {
    "zip_code": "5095147",
    "prefecture": "岐阜県",
    "prefecture_kana": "ギフケン",
    "prefecture_code": 21,
    "city": "土岐市",
    "city_kana": "トキシ",
    "town": "泉郷町",
    "town_kana": "イズミゴウマチ",
    "street": null,
    "office_name": null,
    "office_name_kana": null
  },
  "5151": {
    "zip_code": "5095151",
    "prefecture": "岐阜県",
    "prefecture_kana": "ギフケン",
    "prefecture_code": 21,
    "city": "土岐市",
    "city_kana": "トキシ",
    "town": "泉大坪町",
    "town_kana": "イズミオオツボチョウ",
    "street": null,
    "office_name": null,
    "office_name_kana": null
  },
  "5152": {
    "zip_code": "5095152",
    "prefecture": "岐阜県",
    "prefecture_kana": "ギフケン",
    "prefecture_code": 21,
    "city": "土岐市",
    "city_kana": "トキシ",
    "town": "泉寺下町",
    "town_kana": "イズミテラシタチョウ",
    "street": null,
    "office_name": null,
    "office_name_kana": null
  },
  "5153": {
    "zip_code": "5095153",
    "prefecture": "岐阜県",
    "prefecture_kana": "ギフケン",
    "prefecture_code": 21,
    "city": "土岐市",
    "city_kana": "トキシ",
    "town": "泉西原町",
    "town_kana": "イズミニシハラチョウ",
    "street": null,
    "office_name": null,
    "office_name_kana": null
  },
  "5154": {
    "zip_code": "5095154",
    "prefecture": "岐阜県",
    "prefecture_kana": "ギフケン",
    "prefecture_code": 21,
    "city": "土岐市",
    "city_kana": "トキシ",
    "town": "泉西山町",
    "town_kana": "イズミニシヤマチョウ",
    "street": null,
    "office_name": null,
    "office_name_kana": null
  },
  "5161": {
    "zip_code": "5095161",
    "prefecture": "岐阜県",
    "prefecture_kana": "ギフケン",
    "prefecture_code": 21,
    "city": "土岐市",
    "city_kana": "トキシ",
    "town": "泉が丘町",
    "town_kana": "イズミガオカチョウ",
    "street": null,
    "office_name": null,
    "office_name_kana": null
  },
  "5171": {
    "zip_code": "5095171",
    "prefecture": "岐阜県",
    "prefecture_kana": "ギフケン",
    "prefecture_code": 21,
    "city": "土岐市",
    "city_kana": "トキシ",
    "town": "泉北山町",
    "town_kana": "イズミキタヤマチョウ",
    "street": null,
    "office_name": null,
    "office_name_kana": null
  },
  "5192": {
    "zip_code": "5095192",
    "prefecture": "岐阜県",
    "prefecture_kana": "ギフケン",
    "prefecture_code": 21,
    "city": "土岐市",
    "city_kana": "トキシ",
    "town": "土岐津町土岐口",
    "town_kana": "トキツチョウトキグチ",
    "street": "２１０１",
    "office_name": "土岐市役所",
    "office_name_kana": "トキシヤクシヨ"
  },
  "5193": {
    "zip_code": "5095193",
    "prefecture": "岐阜県",
    "prefecture_kana": "ギフケン",
    "prefecture_code": 21,
    "city": "土岐市",
    "city_kana": "トキシ",
    "town": "土岐津町土岐口",
    "town_kana": "トキツチョウトキグチ",
    "street": "７０３−２４",
    "office_name": "土岐市立総合病院",
    "office_name_kana": "トキシリツソウゴウビヨウイン"
  },
  "5195": {
    "zip_code": "5095195",
    "prefecture": "岐阜県",
    "prefecture_kana": "ギフケン",
    "prefecture_code": 21,
    "city": "土岐市",
    "city_kana": "トキシ",
    "town": "肥田町肥田",
    "town_kana": "ヒダチョウヒダ",
    "street": "２２４２",
    "office_name": "協同組合　王将チェーン",
    "office_name_kana": "キヨウドウクミアイ オウシヨウチエ-ン"
  },
  "5196": {
    "zip_code": "5095196",
    "prefecture": "岐阜県",
    "prefecture_kana": "ギフケン",
    "prefecture_code": 21,
    "city": "土岐市",
    "city_kana": "トキシ",
    "town": "土岐ヶ丘",
    "town_kana": "トキガオカ",
    "street": "１−２",
    "office_name": "土岐プレミアム・アウトレット",
    "office_name_kana": "トキプレミアム・アウトレツト"
  },
  "5198": {
    "zip_code": "5095198",
    "prefecture": "岐阜県",
    "prefecture_kana": "ギフケン",
    "prefecture_code": 21,
    "city": "土岐市",
    "city_kana": "トキシ",
    "town": "土岐津町土岐口",
    "town_kana": "トキツチョウトキグチ",
    "street": "富士平６８２−３",
    "office_name": "株式会社　丸辰",
    "office_name_kana": "カブシキガイシヤ マルタツ"
  },
  "5201": {
    "zip_code": "5095201",
    "prefecture": "岐阜県",
    "prefecture_kana": "ギフケン",
    "prefecture_code": 21,
    "city": "土岐市",
    "city_kana": "トキシ",
    "town": "下石阿庄町",
    "town_kana": "オロシアショウチョウ",
    "street": null,
    "office_name": null,
    "office_name_kana": null
  },
  "5202": {
    "zip_code": "5095202",
    "prefecture": "岐阜県",
    "prefecture_kana": "ギフケン",
    "prefecture_code": 21,
    "city": "土岐市",
    "city_kana": "トキシ",
    "town": "下石町",
    "town_kana": "オロシチョウ",
    "street": null,
    "office_name": null,
    "office_name_kana": null
  },
  "5203": {
    "zip_code": "5095203",
    "prefecture": "岐阜県",
    "prefecture_kana": "ギフケン",
    "prefecture_code": 21,
    "city": "土岐市",
    "city_kana": "トキシ",
    "town": "下石陶史台",
    "town_kana": "オロシトウシダイ",
    "street": null,
    "office_name": null,
    "office_name_kana": null
  },
  "5292": {
    "zip_code": "5095292",
    "prefecture": "岐阜県",
    "prefecture_kana": "ギフケン",
    "prefecture_code": 21,
    "city": "土岐市",
    "city_kana": "トキシ",
    "town": "下石町",
    "town_kana": "オロシチョウ",
    "street": "３２２−６",
    "office_name": "核融合科学研究所",
    "office_name_kana": "カクユウゴウカガクケンキユウジヨ"
  },
  "5301": {
    "zip_code": "5095301",
    "prefecture": "岐阜県",
    "prefecture_kana": "ギフケン",
    "prefecture_code": 21,
    "city": "土岐市",
    "city_kana": "トキシ",
    "town": "妻木町",
    "town_kana": "ツマギチョウ",
    "street": null,
    "office_name": null,
    "office_name_kana": null
  },
  "5302": {
    "zip_code": "5095302",
    "prefecture": "岐阜県",
    "prefecture_kana": "ギフケン",
    "prefecture_code": 21,
    "city": "土岐市",
    "city_kana": "トキシ",
    "town": "妻木平成町",
    "town_kana": "ツマギヘイセイチョウ",
    "street": null,
    "office_name": null,
    "office_name_kana": null
  },
  "5311": {
    "zip_code": "5095311",
    "prefecture": "岐阜県",
    "prefecture_kana": "ギフケン",
    "prefecture_code": 21,
    "city": "土岐市",
    "city_kana": "トキシ",
    "town": "鶴里町細野",
    "town_kana": "ツルサトチョウホソノ",
    "street": null,
    "office_name": null,
    "office_name_kana": null
  },
  "5312": {
    "zip_code": "5095312",
    "prefecture": "岐阜県",
    "prefecture_kana": "ギフケン",
    "prefecture_code": 21,
    "city": "土岐市",
    "city_kana": "トキシ",
    "town": "鶴里町柿野",
    "town_kana": "ツルサトチョウカキノ",
    "street": null,
    "office_name": null,
    "office_name_kana": null
  },
  "5401": {
    "zip_code": "5095401",
    "prefecture": "岐阜県",
    "prefecture_kana": "ギフケン",
    "prefecture_code": 21,
    "city": "土岐市",
    "city_kana": "トキシ",
    "town": "駄知町",
    "town_kana": "ダチチョウ",
    "street": null,
    "office_name": null,
    "office_name_kana": null
  },
  "5402": {
    "zip_code": "5095402",
    "prefecture": "岐阜県",
    "prefecture_kana": "ギフケン",
    "prefecture_code": 21,
    "city": "土岐市",
    "city_kana": "トキシ",
    "town": "曽木町",
    "town_kana": "ソギチョウ",
    "street": null,
    "office_name": null,
    "office_name_kana": null
  },
  "5403": [
    {
      "zip_code": "5095403",
      "prefecture": "岐阜県",
      "prefecture_kana": "ギフケン",
      "prefecture_code": 21,
      "city": "土岐市",
      "city_kana": "トキシ",
      "town": "旭ケ丘町",
      "town_kana": "アサヒガオカチョウ",
      "street": null,
      "office_name": null,
      "office_name_kana": null
    },
    {
      "zip_code": "5095403",
      "prefecture": "岐阜県",
      "prefecture_kana": "ギフケン",
      "prefecture_code": 21,
      "city": "土岐市",
      "city_kana": "トキシ",
      "town": "肥田町肥田",
      "town_kana": "ヒダチョウヒダ",
      "street": null,
      "office_name": null,
      "office_name_kana": null
    }
  ],
  "5494": {
    "zip_code": "5095494",
    "prefecture": "岐阜県",
    "prefecture_kana": "ギフケン",
    "prefecture_code": 21,
    "city": "土岐市",
    "city_kana": "トキシ",
    "town": "肥田町肥田",
    "town_kana": "ヒダチョウヒダ",
    "street": "２８７−１４",
    "office_name": "米井データバンク",
    "office_name_kana": "ヨネイデ-タバンク"
  },
  "6100": {
    "zip_code": "5096100",
    "prefecture": "岐阜県",
    "prefecture_kana": "ギフケン",
    "prefecture_code": 21,
    "city": "瑞浪市",
    "city_kana": "ミズナミシ",
    "town": "",
    "town_kana": "",
    "street": null,
    "office_name": null,
    "office_name_kana": null
  },
  "6101": {
    "zip_code": "5096101",
    "prefecture": "岐阜県",
    "prefecture_kana": "ギフケン",
    "prefecture_code": 21,
    "city": "瑞浪市",
    "city_kana": "ミズナミシ",
    "town": "土岐町",
    "town_kana": "トキチョウ",
    "street": null,
    "office_name": null,
    "office_name_kana": null
  },
  "6102": {
    "zip_code": "5096102",
    "prefecture": "岐阜県",
    "prefecture_kana": "ギフケン",
    "prefecture_code": 21,
    "city": "瑞浪市",
    "city_kana": "ミズナミシ",
    "town": "稲津町萩原",
    "town_kana": "イナツチョウハギワラ",
    "street": null,
    "office_name": null,
    "office_name_kana": null
  },
  "6103": {
    "zip_code": "5096103",
    "prefecture": "岐阜県",
    "prefecture_kana": "ギフケン",
    "prefecture_code": 21,
    "city": "瑞浪市",
    "city_kana": "ミズナミシ",
    "town": "稲津町小里",
    "town_kana": "イナツチョウオリ",
    "street": null,
    "office_name": null,
    "office_name_kana": null
  },
  "6104": {
    "zip_code": "5096104",
    "prefecture": "岐阜県",
    "prefecture_kana": "ギフケン",
    "prefecture_code": 21,
    "city": "瑞浪市",
    "city_kana": "ミズナミシ",
    "town": "山田町",
    "town_kana": "ヤマダチョウ",
    "street": null,
    "office_name": null,
    "office_name_kana": null
  },
  "6105": {
    "zip_code": "5096105",
    "prefecture": "岐阜県",
    "prefecture_kana": "ギフケン",
    "prefecture_code": 21,
    "city": "瑞浪市",
    "city_kana": "ミズナミシ",
    "town": "明賀台",
    "town_kana": "ミョウガダイ",
    "street": null,
    "office_name": null,
    "office_name_kana": null
  },
  "6106": {
    "zip_code": "5096106",
    "prefecture": "岐阜県",
    "prefecture_kana": "ギフケン",
    "prefecture_code": 21,
    "city": "瑞浪市",
    "city_kana": "ミズナミシ",
    "town": "学園台",
    "town_kana": "ガクエンダイ",
    "street": null,
    "office_name": null,
    "office_name_kana": null
  },
  "6107": {
    "zip_code": "5096107",
    "prefecture": "岐阜県",
    "prefecture_kana": "ギフケン",
    "prefecture_code": 21,
    "city": "瑞浪市",
    "city_kana": "ミズナミシ",
    "town": "穂並",
    "town_kana": "ホナミ",
    "street": null,
    "office_name": null,
    "office_name_kana": null
  },
  "6108": {
    "zip_code": "5096108",
    "prefecture": "岐阜県",
    "prefecture_kana": "ギフケン",
    "prefecture_code": 21,
    "city": "瑞浪市",
    "city_kana": "ミズナミシ",
    "town": "益見町",
    "town_kana": "マスミチョウ",
    "street": null,
    "office_name": null,
    "office_name_kana": null
  },
  "6111": {
    "zip_code": "5096111",
    "prefecture": "岐阜県",
    "prefecture_kana": "ギフケン",
    "prefecture_code": 21,
    "city": "瑞浪市",
    "city_kana": "ミズナミシ",
    "town": "下沖町",
    "town_kana": "シタオキチョウ",
    "street": null,
    "office_name": null,
    "office_name_kana": null
  },
  "6112": {
    "zip_code": "5096112",
    "prefecture": "岐阜県",
    "prefecture_kana": "ギフケン",
    "prefecture_code": 21,
    "city": "瑞浪市",
    "city_kana": "ミズナミシ",
    "town": "小田町",
    "town_kana": "オダチョウ",
    "street": null,
    "office_name": null,
    "office_name_kana": null
  },
  "6113": {
    "zip_code": "5096113",
    "prefecture": "岐阜県",
    "prefecture_kana": "ギフケン",
    "prefecture_code": 21,
    "city": "瑞浪市",
    "city_kana": "ミズナミシ",
    "town": "和合町",
    "town_kana": "ワゴウチョウ",
    "street": null,
    "office_name": null,
    "office_name_kana": null
  },
  "6114": {
    "zip_code": "5096114",
    "prefecture": "岐阜県",
    "prefecture_kana": "ギフケン",
    "prefecture_code": 21,
    "city": "瑞浪市",
    "city_kana": "ミズナミシ",
    "town": "西小田町",
    "town_kana": "ニシオダチョウ",
    "street": null,
    "office_name": null,
    "office_name_kana": null
  },
  "6115": {
    "zip_code": "5096115",
    "prefecture": "岐阜県",
    "prefecture_kana": "ギフケン",
    "prefecture_code": 21,
    "city": "瑞浪市",
    "city_kana": "ミズナミシ",
    "town": "北小田町",
    "town_kana": "キタオダチョウ",
    "street": null,
    "office_name": null,
    "office_name_kana": null
  },
  "6116": {
    "zip_code": "5096116",
    "prefecture": "岐阜県",
    "prefecture_kana": "ギフケン",
    "prefecture_code": 21,
    "city": "瑞浪市",
    "city_kana": "ミズナミシ",
    "town": "南小田町",
    "town_kana": "ミナミオダチョウ",
    "street": null,
    "office_name": null,
    "office_name_kana": null
  },
  "6121": {
    "zip_code": "5096121",
    "prefecture": "岐阜県",
    "prefecture_kana": "ギフケン",
    "prefecture_code": 21,
    "city": "瑞浪市",
    "city_kana": "ミズナミシ",
    "town": "寺河戸町",
    "town_kana": "テラカワドチョウ",
    "street": null,
    "office_name": null,
    "office_name_kana": null
  },
  "6122": {
    "zip_code": "5096122",
    "prefecture": "岐阜県",
    "prefecture_kana": "ギフケン",
    "prefecture_code": 21,
    "city": "瑞浪市",
    "city_kana": "ミズナミシ",
    "town": "上平町",
    "town_kana": "ウエダイラチョウ",
    "street": null,
    "office_name": null,
    "office_name_kana": null
  },
  "6123": {
    "zip_code": "5096123",
    "prefecture": "岐阜県",
    "prefecture_kana": "ギフケン",
    "prefecture_code": 21,
    "city": "瑞浪市",
    "city_kana": "ミズナミシ",
    "town": "樽上町",
    "town_kana": "タルウエチョウ",
    "street": null,
    "office_name": null,
    "office_name_kana": null
  },
  "6124": {
    "zip_code": "5096124",
    "prefecture": "岐阜県",
    "prefecture_kana": "ギフケン",
    "prefecture_code": 21,
    "city": "瑞浪市",
    "city_kana": "ミズナミシ",
    "town": "一色町",
    "town_kana": "イシキチョウ",
    "street": null,
    "office_name": null,
    "office_name_kana": null
  },
  "6125": {
    "zip_code": "5096125",
    "prefecture": "岐阜県",
    "prefecture_kana": "ギフケン",
    "prefecture_code": 21,
    "city": "瑞浪市",
    "city_kana": "ミズナミシ",
    "town": "上野町",
    "town_kana": "ウエノマチ",
    "street": null,
    "office_name": null,
    "office_name_kana": null
  },
  "6126": {
    "zip_code": "5096126",
    "prefecture": "岐阜県",
    "prefecture_kana": "ギフケン",
    "prefecture_code": 21,
    "city": "瑞浪市",
    "city_kana": "ミズナミシ",
    "town": "高月町",
    "town_kana": "タカツキチョウ",
    "street": null,
    "office_name": null,
    "office_name_kana": null
  },
  "6127": {
    "zip_code": "5096127",
    "prefecture": "岐阜県",
    "prefecture_kana": "ギフケン",
    "prefecture_code": 21,
    "city": "瑞浪市",
    "city_kana": "ミズナミシ",
    "town": "須野志町",
    "town_kana": "スノシチョウ",
    "street": null,
    "office_name": null,
    "office_name_kana": null
  },
  "6128": {
    "zip_code": "5096128",
    "prefecture": "岐阜県",
    "prefecture_kana": "ギフケン",
    "prefecture_code": 21,
    "city": "瑞浪市",
    "city_kana": "ミズナミシ",
    "town": "宮前町",
    "town_kana": "ミヤマエチョウ",
    "street": null,
    "office_name": null,
    "office_name_kana": null
  },
  "6131": {
    "zip_code": "5096131",
    "prefecture": "岐阜県",
    "prefecture_kana": "ギフケン",
    "prefecture_code": 21,
    "city": "瑞浪市",
    "city_kana": "ミズナミシ",
    "town": "明世町月吉",
    "town_kana": "アキヨチョウツキヨシ",
    "street": null,
    "office_name": null,
    "office_name_kana": null
  },
  "6132": {
    "zip_code": "5096132",
    "prefecture": "岐阜県",
    "prefecture_kana": "ギフケン",
    "prefecture_code": 21,
    "city": "瑞浪市",
    "city_kana": "ミズナミシ",
    "town": "明世町山野内",
    "town_kana": "アキヨチョウヤマノウチ",
    "street": null,
    "office_name": null,
    "office_name_kana": null
  },
  "6133": {
    "zip_code": "5096133",
    "prefecture": "岐阜県",
    "prefecture_kana": "ギフケン",
    "prefecture_code": 21,
    "city": "瑞浪市",
    "city_kana": "ミズナミシ",
    "town": "明世町戸狩",
    "town_kana": "アキヨチョウトガリ",
    "street": null,
    "office_name": null,
    "office_name_kana": null
  },
  "6134": {
    "zip_code": "5096134",
    "prefecture": "岐阜県",
    "prefecture_kana": "ギフケン",
    "prefecture_code": 21,
    "city": "瑞浪市",
    "city_kana": "ミズナミシ",
    "town": "松ケ瀬町",
    "town_kana": "マツガセチョウ",
    "street": null,
    "office_name": null,
    "office_name_kana": null
  },
  "6135": {
    "zip_code": "5096135",
    "prefecture": "岐阜県",
    "prefecture_kana": "ギフケン",
    "prefecture_code": 21,
    "city": "瑞浪市",
    "city_kana": "ミズナミシ",
    "town": "薬師町",
    "town_kana": "ヤクシチョウ",
    "street": null,
    "office_name": null,
    "office_name_kana": null
  },
  "6192": {
    "zip_code": "5096192",
    "prefecture": "岐阜県",
    "prefecture_kana": "ギフケン",
    "prefecture_code": 21,
    "city": "瑞浪市",
    "city_kana": "ミズナミシ",
    "town": "土岐町",
    "town_kana": "トキチョウ",
    "street": "２２１６",
    "office_name": "中京短期大学",
    "office_name_kana": "チユウキヨウタンキダイガク"
  },
  "6193": {
    "zip_code": "5096193",
    "prefecture": "岐阜県",
    "prefecture_kana": "ギフケン",
    "prefecture_code": 21,
    "city": "瑞浪市",
    "city_kana": "ミズナミシ",
    "town": "稲津町萩原",
    "town_kana": "イナツチョウハギワラ",
    "street": "１６６１",
    "office_name": "廣池学園",
    "office_name_kana": "ヒロイケガクエン"
  },
  "6194": {
    "zip_code": "5096194",
    "prefecture": "岐阜県",
    "prefecture_kana": "ギフケン",
    "prefecture_code": 21,
    "city": "瑞浪市",
    "city_kana": "ミズナミシ",
    "town": "稲津町萩原",
    "town_kana": "イナツチョウハギワラ",
    "street": "１６６１番地",
    "office_name": "財団法人　モラロジー研究所",
    "office_name_kana": "ザイダンホウジン モラロジ-ケンキユウシヨ"
  },
  "6195": {
    "zip_code": "5096195",
    "prefecture": "岐阜県",
    "prefecture_kana": "ギフケン",
    "prefecture_code": 21,
    "city": "瑞浪市",
    "city_kana": "ミズナミシ",
    "town": "上平町",
    "town_kana": "ウエダイラチョウ",
    "street": "１丁目１",
    "office_name": "瑞浪市役所",
    "office_name_kana": "ミズナミシヤクシヨ"
  },
  "6196": {
    "zip_code": "5096196",
    "prefecture": "岐阜県",
    "prefecture_kana": "ギフケン",
    "prefecture_code": 21,
    "city": "瑞浪市",
    "city_kana": "ミズナミシ",
    "town": "土岐町",
    "town_kana": "トキチョウ",
    "street": "７９２８−２",
    "office_name": "瑞浪高等学校",
    "office_name_kana": "ミズナミコウトウガツコウ"
  },
  "6251": {
    "zip_code": "5096251",
    "prefecture": "岐阜県",
    "prefecture_kana": "ギフケン",
    "prefecture_code": 21,
    "city": "瑞浪市",
    "city_kana": "ミズナミシ",
    "town": "日吉町",
    "town_kana": "ヒヨシチョウ",
    "street": null,
    "office_name": null,
    "office_name_kana": null
  },
  "6361": {
    "zip_code": "5096361",
    "prefecture": "岐阜県",
    "prefecture_kana": "ギフケン",
    "prefecture_code": 21,
    "city": "瑞浪市",
    "city_kana": "ミズナミシ",
    "town": "陶町猿爪",
    "town_kana": "スエチョウマシヅメ",
    "street": null,
    "office_name": null,
    "office_name_kana": null
  },
  "6362": {
    "zip_code": "5096362",
    "prefecture": "岐阜県",
    "prefecture_kana": "ギフケン",
    "prefecture_code": 21,
    "city": "瑞浪市",
    "city_kana": "ミズナミシ",
    "town": "陶町水上",
    "town_kana": "スエチョウミズカミ",
    "street": null,
    "office_name": null,
    "office_name_kana": null
  },
  "6363": {
    "zip_code": "5096363",
    "prefecture": "岐阜県",
    "prefecture_kana": "ギフケン",
    "prefecture_code": 21,
    "city": "瑞浪市",
    "city_kana": "ミズナミシ",
    "town": "陶町大川",
    "town_kana": "スエチョウオオカワ",
    "street": null,
    "office_name": null,
    "office_name_kana": null
  },
  "6471": {
    "zip_code": "5096471",
    "prefecture": "岐阜県",
    "prefecture_kana": "ギフケン",
    "prefecture_code": 21,
    "city": "瑞浪市",
    "city_kana": "ミズナミシ",
    "town": "大湫町",
    "town_kana": "オオクテチョウ",
    "street": null,
    "office_name": null,
    "office_name_kana": null
  },
  "6472": {
    "zip_code": "5096472",
    "prefecture": "岐阜県",
    "prefecture_kana": "ギフケン",
    "prefecture_code": 21,
    "city": "瑞浪市",
    "city_kana": "ミズナミシ",
    "town": "釜戸町",
    "town_kana": "カマドチョウ",
    "street": null,
    "office_name": null,
    "office_name_kana": null
  },
  "7121": {
    "zip_code": "5097121",
    "prefecture": "岐阜県",
    "prefecture_kana": "ギフケン",
    "prefecture_code": 21,
    "city": "恵那市",
    "city_kana": "エナシ",
    "town": "武並町藤",
    "town_kana": "タケナミチョウフジ",
    "street": null,
    "office_name": null,
    "office_name_kana": null
  },
  "7122": {
    "zip_code": "5097122",
    "prefecture": "岐阜県",
    "prefecture_kana": "ギフケン",
    "prefecture_code": 21,
    "city": "恵那市",
    "city_kana": "エナシ",
    "town": "武並町竹折",
    "town_kana": "タケナミチョウタケオリ",
    "street": null,
    "office_name": null,
    "office_name_kana": null
  },
  "7123": {
    "zip_code": "5097123",
    "prefecture": "岐阜県",
    "prefecture_kana": "ギフケン",
    "prefecture_code": 21,
    "city": "恵那市",
    "city_kana": "エナシ",
    "town": "三郷町野井",
    "town_kana": "ミサトチョウノイ",
    "street": null,
    "office_name": null,
    "office_name_kana": null
  },
  "7124": {
    "zip_code": "5097124",
    "prefecture": "岐阜県",
    "prefecture_kana": "ギフケン",
    "prefecture_code": 21,
    "city": "恵那市",
    "city_kana": "エナシ",
    "town": "三郷町佐々良木",
    "town_kana": "ミサトチョウサザラギ",
    "street": null,
    "office_name": null,
    "office_name_kana": null
  },
  "7125": {
    "zip_code": "5097125",
    "prefecture": "岐阜県",
    "prefecture_kana": "ギフケン",
    "prefecture_code": 21,
    "city": "恵那市",
    "city_kana": "エナシ",
    "town": "三郷町椋実",
    "town_kana": "ミサトチョウムクノミ",
    "street": null,
    "office_name": null,
    "office_name_kana": null
  },
  "7126": {
    "zip_code": "5097126",
    "prefecture": "岐阜県",
    "prefecture_kana": "ギフケン",
    "prefecture_code": 21,
    "city": "恵那市",
    "city_kana": "エナシ",
    "town": "武並町新竹折",
    "town_kana": "タケナミチョウシンタケオリ",
    "street": null,
    "office_name": null,
    "office_name_kana": null
  },
  "7200": {
    "zip_code": "5097200",
    "prefecture": "岐阜県",
    "prefecture_kana": "ギフケン",
    "prefecture_code": 21,
    "city": "恵那市",
    "city_kana": "エナシ",
    "town": "",
    "town_kana": "",
    "street": null,
    "office_name": null,
    "office_name_kana": null
  },
  "7201": {
    "zip_code": "5097201",
    "prefecture": "岐阜県",
    "prefecture_kana": "ギフケン",
    "prefecture_code": 21,
    "city": "恵那市",
    "city_kana": "エナシ",
    "town": "大井町",
    "town_kana": "オオイチョウ",
    "street": null,
    "office_name": null,
    "office_name_kana": null
  },
  "7202": {
    "zip_code": "5097202",
    "prefecture": "岐阜県",
    "prefecture_kana": "ギフケン",
    "prefecture_code": 21,
    "city": "恵那市",
    "city_kana": "エナシ",
    "town": "東野",
    "town_kana": "ヒガシノ",
    "street": null,
    "office_name": null,
    "office_name_kana": null
  },
  "7203": {
    "zip_code": "5097203",
    "prefecture": "岐阜県",
    "prefecture_kana": "ギフケン",
    "prefecture_code": 21,
    "city": "恵那市",
    "city_kana": "エナシ",
    "town": "長島町正家",
    "town_kana": "オサシマチョウショウゲ",
    "street": null,
    "office_name": null,
    "office_name_kana": null
  },
  "7204": {
    "zip_code": "5097204",
    "prefecture": "岐阜県",
    "prefecture_kana": "ギフケン",
    "prefecture_code": 21,
    "city": "恵那市",
    "city_kana": "エナシ",
    "town": "長島町永田",
    "town_kana": "オサシマチョウナガタ",
    "street": null,
    "office_name": null,
    "office_name_kana": null
  },
  "7205": {
    "zip_code": "5097205",
    "prefecture": "岐阜県",
    "prefecture_kana": "ギフケン",
    "prefecture_code": 21,
    "city": "恵那市",
    "city_kana": "エナシ",
    "town": "長島町中野",
    "town_kana": "オサシマチョウナカノ",
    "street": null,
    "office_name": null,
    "office_name_kana": null
  },
  "7206": {
    "zip_code": "5097206",
    "prefecture": "岐阜県",
    "prefecture_kana": "ギフケン",
    "prefecture_code": 21,
    "city": "恵那市",
    "city_kana": "エナシ",
    "town": "長島町久須見",
    "town_kana": "オサシマチョウクスミ",
    "street": null,
    "office_name": null,
    "office_name_kana": null
  },
  "7207": {
    "zip_code": "5097207",
    "prefecture": "岐阜県",
    "prefecture_kana": "ギフケン",
    "prefecture_code": 21,
    "city": "恵那市",
    "city_kana": "エナシ",
    "town": "笠置町河合",
    "town_kana": "カサギチョウカワイ",
    "street": null,
    "office_name": null,
    "office_name_kana": null
  },
  "7208": {
    "zip_code": "5097208",
    "prefecture": "岐阜県",
    "prefecture_kana": "ギフケン",
    "prefecture_code": 21,
    "city": "恵那市",
    "city_kana": "エナシ",
    "town": "笠置町姫栗",
    "town_kana": "カサギチョウヒメグリ",
    "street": null,
    "office_name": null,
    "office_name_kana": null
  },
  "7209": {
    "zip_code": "5097209",
    "prefecture": "岐阜県",
    "prefecture_kana": "ギフケン",
    "prefecture_code": 21,
    "city": "恵那市",
    "city_kana": "エナシ",
    "town": "笠置町毛呂窪",
    "town_kana": "カサギチョウケロクボ",
    "street": null,
    "office_name": null,
    "office_name_kana": null
  },
  "7211": {
    "zip_code": "5097211",
    "prefecture": "岐阜県",
    "prefecture_kana": "ギフケン",
    "prefecture_code": 21,
    "city": "恵那市",
    "city_kana": "エナシ",
    "town": "長島町鍋山",
    "town_kana": "オサシマチョウナベヤマ",
    "street": null,
    "office_name": null,
    "office_name_kana": null
  },
  "7292": {
    "zip_code": "5097292",
    "prefecture": "岐阜県",
    "prefecture_kana": "ギフケン",
    "prefecture_code": 21,
    "city": "恵那市",
    "city_kana": "エナシ",
    "town": "長島町正家",
    "town_kana": "オサシマチョウショウゲ",
    "street": "１丁目１−１",
    "office_name": "恵那市役所",
    "office_name_kana": "エナシヤクシヨ"
  },
  "7321": {
    "zip_code": "5097321",
    "prefecture": "岐阜県",
    "prefecture_kana": "ギフケン",
    "prefecture_code": 21,
    "city": "中津川市",
    "city_kana": "ナカツガワシ",
    "town": "阿木",
    "town_kana": "アギ",
    "street": null,
    "office_name": null,
    "office_name_kana": null
  },
  "7322": {
    "zip_code": "5097322",
    "prefecture": "岐阜県",
    "prefecture_kana": "ギフケン",
    "prefecture_code": 21,
    "city": "中津川市",
    "city_kana": "ナカツガワシ",
    "town": "飯沼",
    "town_kana": "イイヌマ",
    "street": null,
    "office_name": null,
    "office_name_kana": null
  },
  "7401": {
    "zip_code": "5097401",
    "prefecture": "岐阜県",
    "prefecture_kana": "ギフケン",
    "prefecture_code": 21,
    "city": "恵那市",
    "city_kana": "エナシ",
    "town": "岩村町飯羽間",
    "town_kana": "イワムラチョウイイバマ",
    "street": null,
    "office_name": null,
    "office_name_kana": null
  },
  "7402": {
    "zip_code": "5097402",
    "prefecture": "岐阜県",
    "prefecture_kana": "ギフケン",
    "prefecture_code": 21,
    "city": "恵那市",
    "city_kana": "エナシ",
    "town": "岩村町富田",
    "town_kana": "イワムラチョウトミダ",
    "street": null,
    "office_name": null,
    "office_name_kana": null
  },
  "7403": {
    "zip_code": "5097403",
    "prefecture": "岐阜県",
    "prefecture_kana": "ギフケン",
    "prefecture_code": 21,
    "city": "恵那市",
    "city_kana": "エナシ",
    "town": "岩村町",
    "town_kana": "イワムラチョウ",
    "street": null,
    "office_name": null,
    "office_name_kana": null
  },
  "7492": {
    "zip_code": "5097492",
    "prefecture": "岐阜県",
    "prefecture_kana": "ギフケン",
    "prefecture_code": 21,
    "city": "恵那市",
    "city_kana": "エナシ",
    "town": "岩村町",
    "town_kana": "イワムラチョウ",
    "street": "５４５−１",
    "office_name": "恵那市岩村振興事務所",
    "office_name_kana": "エナシイワムラシンコウジムシヨ"
  },
  "7493": {
    "zip_code": "5097493",
    "prefecture": "岐阜県",
    "prefecture_kana": "ギフケン",
    "prefecture_code": 21,
    "city": "恵那市",
    "city_kana": "エナシ",
    "town": "岩村町",
    "town_kana": "イワムラチョウ",
    "street": "１３３",
    "office_name": "岩村高等学校",
    "office_name_kana": "イワムラコウトウガツコウ"
  },
  "7501": [
    {
      "zip_code": "5097501",
      "prefecture": "岐阜県",
      "prefecture_kana": "ギフケン",
      "prefecture_code": 21,
      "city": "恵那市",
      "city_kana": "エナシ",
      "town": "上矢作町",
      "town_kana": "カミヤハギチョウ",
      "street": null,
      "office_name": null,
      "office_name_kana": null
    },
    {
      "zip_code": "5097501",
      "prefecture": "岐阜県",
      "prefecture_kana": "ギフケン",
      "prefecture_code": 21,
      "city": "恵那市",
      "city_kana": "エナシ",
      "town": "上矢作町木ノ実",
      "town_kana": "カミヤハギチョウキノミ",
      "street": null,
      "office_name": null,
      "office_name_kana": null
    }
  ],
  "7502": [
    {
      "zip_code": "5097502",
      "prefecture": "岐阜県",
      "prefecture_kana": "ギフケン",
      "prefecture_code": 21,
      "city": "恵那市",
      "city_kana": "エナシ",
      "town": "上矢作町",
      "town_kana": "カミヤハギチョウ",
      "street": null,
      "office_name": null,
      "office_name_kana": null
    },
    {
      "zip_code": "5097502",
      "prefecture": "岐阜県",
      "prefecture_kana": "ギフケン",
      "prefecture_code": 21,
      "city": "恵那市",
      "city_kana": "エナシ",
      "town": "上矢作町飯田洞",
      "town_kana": "カミヤハギチョウイイダボラ",
      "street": null,
      "office_name": null,
      "office_name_kana": null
    }
  ],
  "7503": [
    {
      "zip_code": "5097503",
      "prefecture": "岐阜県",
      "prefecture_kana": "ギフケン",
      "prefecture_code": 21,
      "city": "恵那市",
      "city_kana": "エナシ",
      "town": "上矢作町",
      "town_kana": "カミヤハギチョウ",
      "street": null,
      "office_name": null,
      "office_name_kana": null
    },
    {
      "zip_code": "5097503",
      "prefecture": "岐阜県",
      "prefecture_kana": "ギフケン",
      "prefecture_code": 21,
      "city": "恵那市",
      "city_kana": "エナシ",
      "town": "上矢作町達原",
      "town_kana": "カミヤハギチョウタツバラ",
      "street": null,
      "office_name": null,
      "office_name_kana": null
    }
  ],
  "7504": [
    {
      "zip_code": "5097504",
      "prefecture": "岐阜県",
      "prefecture_kana": "ギフケン",
      "prefecture_code": 21,
      "city": "恵那市",
      "city_kana": "エナシ",
      "town": "上矢作町",
      "town_kana": "カミヤハギチョウ",
      "street": null,
      "office_name": null,
      "office_name_kana": null
    },
    {
      "zip_code": "5097504",
      "prefecture": "岐阜県",
      "prefecture_kana": "ギフケン",
      "prefecture_code": 21,
      "city": "恵那市",
      "city_kana": "エナシ",
      "town": "上矢作町小笹原",
      "town_kana": "カミヤハギチョウコザサハラ",
      "street": null,
      "office_name": null,
      "office_name_kana": null
    }
  ],
  "7505": [
    {
      "zip_code": "5097505",
      "prefecture": "岐阜県",
      "prefecture_kana": "ギフケン",
      "prefecture_code": 21,
      "city": "恵那市",
      "city_kana": "エナシ",
      "town": "上矢作町",
      "town_kana": "カミヤハギチョウ",
      "street": null,
      "office_name": null,
      "office_name_kana": null
    },
    {
      "zip_code": "5097505",
      "prefecture": "岐阜県",
      "prefecture_kana": "ギフケン",
      "prefecture_code": 21,
      "city": "恵那市",
      "city_kana": "エナシ",
      "town": "上矢作町島",
      "town_kana": "カミヤハギチョウシマ",
      "street": null,
      "office_name": null,
      "office_name_kana": null
    }
  ],
  "7506": [
    {
      "zip_code": "5097506",
      "prefecture": "岐阜県",
      "prefecture_kana": "ギフケン",
      "prefecture_code": 21,
      "city": "恵那市",
      "city_kana": "エナシ",
      "town": "上矢作町",
      "town_kana": "カミヤハギチョウ",
      "street": null,
      "office_name": null,
      "office_name_kana": null
    },
    {
      "zip_code": "5097506",
      "prefecture": "岐阜県",
      "prefecture_kana": "ギフケン",
      "prefecture_code": 21,
      "city": "恵那市",
      "city_kana": "エナシ",
      "town": "上矢作町本郷",
      "town_kana": "カミヤハギチョウホンゴウ",
      "street": null,
      "office_name": null,
      "office_name_kana": null
    }
  ],
  "7507": [
    {
      "zip_code": "5097507",
      "prefecture": "岐阜県",
      "prefecture_kana": "ギフケン",
      "prefecture_code": 21,
      "city": "恵那市",
      "city_kana": "エナシ",
      "town": "上矢作町",
      "town_kana": "カミヤハギチョウ",
      "street": null,
      "office_name": null,
      "office_name_kana": null
    },
    {
      "zip_code": "5097507",
      "prefecture": "岐阜県",
      "prefecture_kana": "ギフケン",
      "prefecture_code": 21,
      "city": "恵那市",
      "city_kana": "エナシ",
      "town": "上矢作町横道",
      "town_kana": "カミヤハギチョウヨコミチ",
      "street": null,
      "office_name": null,
      "office_name_kana": null
    }
  ],
  "7511": {
    "zip_code": "5097511",
    "prefecture": "岐阜県",
    "prefecture_kana": "ギフケン",
    "prefecture_code": 21,
    "city": "恵那市",
    "city_kana": "エナシ",
    "town": "上矢作町漆原",
    "town_kana": "カミヤハギチョウウルシハラ",
    "street": null,
    "office_name": null,
    "office_name_kana": null
  },
  "7512": {
    "zip_code": "5097512",
    "prefecture": "岐阜県",
    "prefecture_kana": "ギフケン",
    "prefecture_code": 21,
    "city": "恵那市",
    "city_kana": "エナシ",
    "town": "上矢作町下",
    "town_kana": "カミヤハギチョウシモ",
    "street": null,
    "office_name": null,
    "office_name_kana": null
  },
  "7513": {
    "zip_code": "5097513",
    "prefecture": "岐阜県",
    "prefecture_kana": "ギフケン",
    "prefecture_code": 21,
    "city": "恵那市",
    "city_kana": "エナシ",
    "town": "上矢作町小田子",
    "town_kana": "カミヤハギチョウコダコ",
    "street": null,
    "office_name": null,
    "office_name_kana": null
  },
  "7521": {
    "zip_code": "5097521",
    "prefecture": "岐阜県",
    "prefecture_kana": "ギフケン",
    "prefecture_code": 21,
    "city": "恵那市",
    "city_kana": "エナシ",
    "town": "上矢作町",
    "town_kana": "カミヤハギチョウ",
    "street": null,
    "office_name": null,
    "office_name_kana": null
  },
  "7592": {
    "zip_code": "5097592",
    "prefecture": "岐阜県",
    "prefecture_kana": "ギフケン",
    "prefecture_code": 21,
    "city": "恵那市",
    "city_kana": "エナシ",
    "town": "上矢作町",
    "town_kana": "カミヤハギチョウ",
    "street": "１８０５−２",
    "office_name": "恵那市上矢作振興事務所",
    "office_name_kana": "エナシカミヤハギシンコウジムシヨ"
  },
  "7601": {
    "zip_code": "5097601",
    "prefecture": "岐阜県",
    "prefecture_kana": "ギフケン",
    "prefecture_code": 21,
    "city": "恵那市",
    "city_kana": "エナシ",
    "town": "山岡町久保原",
    "town_kana": "ヤマオカチョウクボハラ",
    "street": null,
    "office_name": null,
    "office_name_kana": null
  },
  "7602": {
    "zip_code": "5097602",
    "prefecture": "岐阜県",
    "prefecture_kana": "ギフケン",
    "prefecture_code": 21,
    "city": "恵那市",
    "city_kana": "エナシ",
    "town": "山岡町馬場山田",
    "town_kana": "ヤマオカチョウババヤマダ",
    "street": null,
    "office_name": null,
    "office_name_kana": null
  },
  "7603": {
    "zip_code": "5097603",
    "prefecture": "岐阜県",
    "prefecture_kana": "ギフケン",
    "prefecture_code": 21,
    "city": "恵那市",
    "city_kana": "エナシ",
    "town": "山岡町上手向",
    "town_kana": "ヤマオカチョウカミトウゲ",
    "street": null,
    "office_name": null,
    "office_name_kana": null
  },
  "7604": {
    "zip_code": "5097604",
    "prefecture": "岐阜県",
    "prefecture_kana": "ギフケン",
    "prefecture_code": 21,
    "city": "恵那市",
    "city_kana": "エナシ",
    "town": "山岡町釜屋",
    "town_kana": "ヤマオカチョウカマヤ",
    "street": null,
    "office_name": null,
    "office_name_kana": null
  },
  "7605": {
    "zip_code": "5097605",
    "prefecture": "岐阜県",
    "prefecture_kana": "ギフケン",
    "prefecture_code": 21,
    "city": "恵那市",
    "city_kana": "エナシ",
    "town": "山岡町原",
    "town_kana": "ヤマオカチョウハラ",
    "street": null,
    "office_name": null,
    "office_name_kana": null
  },
  "7606": {
    "zip_code": "5097606",
    "prefecture": "岐阜県",
    "prefecture_kana": "ギフケン",
    "prefecture_code": 21,
    "city": "恵那市",
    "city_kana": "エナシ",
    "town": "山岡町田代",
    "town_kana": "ヤマオカチョウタシロ",
    "street": null,
    "office_name": null,
    "office_name_kana": null
  },
  "7607": {
    "zip_code": "5097607",
    "prefecture": "岐阜県",
    "prefecture_kana": "ギフケン",
    "prefecture_code": 21,
    "city": "恵那市",
    "city_kana": "エナシ",
    "town": "山岡町下手向",
    "town_kana": "ヤマオカチョウシモトウゲ",
    "street": null,
    "office_name": null,
    "office_name_kana": null
  },
  "7608": {
    "zip_code": "5097608",
    "prefecture": "岐阜県",
    "prefecture_kana": "ギフケン",
    "prefecture_code": 21,
    "city": "恵那市",
    "city_kana": "エナシ",
    "town": "山岡町田沢",
    "town_kana": "ヤマオカチョウタザワ",
    "street": null,
    "office_name": null,
    "office_name_kana": null
  },
  "7692": {
    "zip_code": "5097692",
    "prefecture": "岐阜県",
    "prefecture_kana": "ギフケン",
    "prefecture_code": 21,
    "city": "恵那市",
    "city_kana": "エナシ",
    "town": "山岡町上手向",
    "town_kana": "ヤマオカチョウカミトウゲ",
    "street": "５８４",
    "office_name": "恵那市役所山岡振興事務所",
    "office_name_kana": "エナシヤクシヨヤマオカシンコウジムシヨ"
  },
  "7693": {
    "zip_code": "5097693",
    "prefecture": "岐阜県",
    "prefecture_kana": "ギフケン",
    "prefecture_code": 21,
    "city": "恵那市",
    "city_kana": "エナシ",
    "town": "山岡町田代",
    "town_kana": "ヤマオカチョウタシロ",
    "street": "１５６５−２１",
    "office_name": "国土交通省　中部地方整備局　小里川ダム管理所",
    "office_name_kana": "コクドコウツウシヨウ チユウブチホウセイビキヨク オリガワダムカンリシヨ"
  },
  "7701": {
    "zip_code": "5097701",
    "prefecture": "岐阜県",
    "prefecture_kana": "ギフケン",
    "prefecture_code": 21,
    "city": "恵那市",
    "city_kana": "エナシ",
    "town": "明智町野志",
    "town_kana": "アケチチョウノシ",
    "street": null,
    "office_name": null,
    "office_name_kana": null
  },
  "7702": {
    "zip_code": "5097702",
    "prefecture": "岐阜県",
    "prefecture_kana": "ギフケン",
    "prefecture_code": 21,
    "city": "恵那市",
    "city_kana": "エナシ",
    "town": "明智町杉野",
    "town_kana": "アケチチョウスギノ",
    "street": null,
    "office_name": null,
    "office_name_kana": null
  },
  "7703": [
    {
      "zip_code": "5097703",
      "prefecture": "岐阜県",
      "prefecture_kana": "ギフケン",
      "prefecture_code": 21,
      "city": "恵那市",
      "city_kana": "エナシ",
      "town": "明智町",
      "town_kana": "アケチチョウ",
      "street": null,
      "office_name": null,
      "office_name_kana": null
    },
    {
      "zip_code": "5097703",
      "prefecture": "岐阜県",
      "prefecture_kana": "ギフケン",
      "prefecture_code": 21,
      "city": "恵那市",
      "city_kana": "エナシ",
      "town": "明智町市場町",
      "town_kana": "アケチチョウイチバチョウ",
      "street": null,
      "office_name": null,
      "office_name_kana": null
    }
  ],
  "7704": [
    {
      "zip_code": "5097704",
      "prefecture": "岐阜県",
      "prefecture_kana": "ギフケン",
      "prefecture_code": 21,
      "city": "恵那市",
      "city_kana": "エナシ",
      "town": "明智町",
      "town_kana": "アケチチョウ",
      "street": null,
      "office_name": null,
      "office_name_kana": null
    },
    {
      "zip_code": "5097704",
      "prefecture": "岐阜県",
      "prefecture_kana": "ギフケン",
      "prefecture_code": 21,
      "city": "恵那市",
      "city_kana": "エナシ",
      "town": "明智町駅前町",
      "town_kana": "アケチチョウエキマエチョウ",
      "street": null,
      "office_name": null,
      "office_name_kana": null
    }
  ],
  "7705": [
    {
      "zip_code": "5097705",
      "prefecture": "岐阜県",
      "prefecture_kana": "ギフケン",
      "prefecture_code": 21,
      "city": "恵那市",
      "city_kana": "エナシ",
      "town": "明智町",
      "town_kana": "アケチチョウ",
      "street": null,
      "office_name": null,
      "office_name_kana": null
    },
    {
      "zip_code": "5097705",
      "prefecture": "岐阜県",
      "prefecture_kana": "ギフケン",
      "prefecture_code": 21,
      "city": "恵那市",
      "city_kana": "エナシ",
      "town": "明智町新町",
      "town_kana": "アケチチョウシンマチ",
      "street": null,
      "office_name": null,
      "office_name_kana": null
    }
  ],
  "7706": [
    {
      "zip_code": "5097706",
      "prefecture": "岐阜県",
      "prefecture_kana": "ギフケン",
      "prefecture_code": 21,
      "city": "恵那市",
      "city_kana": "エナシ",
      "town": "明智町",
      "town_kana": "アケチチョウ",
      "street": null,
      "office_name": null,
      "office_name_kana": null
    },
    {
      "zip_code": "5097706",
      "prefecture": "岐阜県",
      "prefecture_kana": "ギフケン",
      "prefecture_code": 21,
      "city": "恵那市",
      "city_kana": "エナシ",
      "town": "明智町向町",
      "town_kana": "アケチチョウムカイマチ",
      "street": null,
      "office_name": null,
      "office_name_kana": null
    }
  ],
  "7707": {
    "zip_code": "5097707",
    "prefecture": "岐阜県",
    "prefecture_kana": "ギフケン",
    "prefecture_code": 21,
    "city": "恵那市",
    "city_kana": "エナシ",
    "town": "明智町",
    "town_kana": "アケチチョウ",
    "street": null,
    "office_name": null,
    "office_name_kana": null
  },
  "7708": [
    {
      "zip_code": "5097708",
      "prefecture": "岐阜県",
      "prefecture_kana": "ギフケン",
      "prefecture_code": 21,
      "city": "恵那市",
      "city_kana": "エナシ",
      "town": "明智町",
      "town_kana": "アケチチョウ",
      "street": null,
      "office_name": null,
      "office_name_kana": null
    },
    {
      "zip_code": "5097708",
      "prefecture": "岐阜県",
      "prefecture_kana": "ギフケン",
      "prefecture_code": 21,
      "city": "恵那市",
      "city_kana": "エナシ",
      "town": "明智町新井町",
      "town_kana": "アケチチョウアライチョウ",
      "street": null,
      "office_name": null,
      "office_name_kana": null
    }
  ],
  "7711": {
    "zip_code": "5097711",
    "prefecture": "岐阜県",
    "prefecture_kana": "ギフケン",
    "prefecture_code": 21,
    "city": "恵那市",
    "city_kana": "エナシ",
    "town": "明智町東方",
    "town_kana": "アケチチョウヒガシガタ",
    "street": null,
    "office_name": null,
    "office_name_kana": null
  },
  "7712": [
    {
      "zip_code": "5097712",
      "prefecture": "岐阜県",
      "prefecture_kana": "ギフケン",
      "prefecture_code": 21,
      "city": "恵那市",
      "city_kana": "エナシ",
      "town": "明智町",
      "town_kana": "アケチチョウ",
      "street": null,
      "office_name": null,
      "office_name_kana": null
    },
    {
      "zip_code": "5097712",
      "prefecture": "岐阜県",
      "prefecture_kana": "ギフケン",
      "prefecture_code": 21,
      "city": "恵那市",
      "city_kana": "エナシ",
      "town": "明智町的場町",
      "town_kana": "アケチチョウマトバチョウ",
      "street": null,
      "office_name": null,
      "office_name_kana": null
    }
  ],
  "7713": [
    {
      "zip_code": "5097713",
      "prefecture": "岐阜県",
      "prefecture_kana": "ギフケン",
      "prefecture_code": 21,
      "city": "恵那市",
      "city_kana": "エナシ",
      "town": "明智町",
      "town_kana": "アケチチョウ",
      "street": null,
      "office_name": null,
      "office_name_kana": null
    },
    {
      "zip_code": "5097713",
      "prefecture": "岐阜県",
      "prefecture_kana": "ギフケン",
      "prefecture_code": 21,
      "city": "恵那市",
      "city_kana": "エナシ",
      "town": "明智町片平町",
      "town_kana": "アケチチョウカタヒラチョウ",
      "street": null,
      "office_name": null,
      "office_name_kana": null
    }
  ],
  "7714": [
    {
      "zip_code": "5097714",
      "prefecture": "岐阜県",
      "prefecture_kana": "ギフケン",
      "prefecture_code": 21,
      "city": "恵那市",
      "city_kana": "エナシ",
      "town": "明智町",
      "town_kana": "アケチチョウ",
      "street": null,
      "office_name": null,
      "office_name_kana": null
    },
    {
      "zip_code": "5097714",
      "prefecture": "岐阜県",
      "prefecture_kana": "ギフケン",
      "prefecture_code": 21,
      "city": "恵那市",
      "city_kana": "エナシ",
      "town": "明智町常盤町",
      "town_kana": "アケチチョウトキワチョウ",
      "street": null,
      "office_name": null,
      "office_name_kana": null
    }
  ],
  "7715": [
    {
      "zip_code": "5097715",
      "prefecture": "岐阜県",
      "prefecture_kana": "ギフケン",
      "prefecture_code": 21,
      "city": "恵那市",
      "city_kana": "エナシ",
      "town": "明智町",
      "town_kana": "アケチチョウ",
      "street": null,
      "office_name": null,
      "office_name_kana": null
    },
    {
      "zip_code": "5097715",
      "prefecture": "岐阜県",
      "prefecture_kana": "ギフケン",
      "prefecture_code": 21,
      "city": "恵那市",
      "city_kana": "エナシ",
      "town": "明智町東町",
      "town_kana": "アケチチョウヒガシマチ",
      "street": null,
      "office_name": null,
      "office_name_kana": null
    }
  ],
  "7716": [
    {
      "zip_code": "5097716",
      "prefecture": "岐阜県",
      "prefecture_kana": "ギフケン",
      "prefecture_code": 21,
      "city": "恵那市",
      "city_kana": "エナシ",
      "town": "明智町",
      "town_kana": "アケチチョウ",
      "street": null,
      "office_name": null,
      "office_name_kana": null
    },
    {
      "zip_code": "5097716",
      "prefecture": "岐阜県",
      "prefecture_kana": "ギフケン",
      "prefecture_code": 21,
      "city": "恵那市",
      "city_kana": "エナシ",
      "town": "明智町本町",
      "town_kana": "アケチチョウホンマチ",
      "street": null,
      "office_name": null,
      "office_name_kana": null
    }
  ],
  "7717": [
    {
      "zip_code": "5097717",
      "prefecture": "岐阜県",
      "prefecture_kana": "ギフケン",
      "prefecture_code": 21,
      "city": "恵那市",
      "city_kana": "エナシ",
      "town": "明智町",
      "town_kana": "アケチチョウ",
      "street": null,
      "office_name": null,
      "office_name_kana": null
    },
    {
      "zip_code": "5097717",
      "prefecture": "岐阜県",
      "prefecture_kana": "ギフケン",
      "prefecture_code": 21,
      "city": "恵那市",
      "city_kana": "エナシ",
      "town": "明智町宮町",
      "town_kana": "アケチチョウミヤマチ",
      "street": null,
      "office_name": null,
      "office_name_kana": null
    }
  ],
  "7718": [
    {
      "zip_code": "5097718",
      "prefecture": "岐阜県",
      "prefecture_kana": "ギフケン",
      "prefecture_code": 21,
      "city": "恵那市",
      "city_kana": "エナシ",
      "town": "明智町",
      "town_kana": "アケチチョウ",
      "street": null,
      "office_name": null,
      "office_name_kana": null
    },
    {
      "zip_code": "5097718",
      "prefecture": "岐阜県",
      "prefecture_kana": "ギフケン",
      "prefecture_code": 21,
      "city": "恵那市",
      "city_kana": "エナシ",
      "town": "明智町東山町",
      "town_kana": "アケチチョウヒガシヤマチョウ",
      "street": null,
      "office_name": null,
      "office_name_kana": null
    }
  ],
  "7721": {
    "zip_code": "5097721",
    "prefecture": "岐阜県",
    "prefecture_kana": "ギフケン",
    "prefecture_code": 21,
    "city": "恵那市",
    "city_kana": "エナシ",
    "town": "明智町大泉",
    "town_kana": "アケチチョウオオイズミ",
    "street": null,
    "office_name": null,
    "office_name_kana": null
  },
  "7722": [
    {
      "zip_code": "5097722",
      "prefecture": "岐阜県",
      "prefecture_kana": "ギフケン",
      "prefecture_code": 21,
      "city": "恵那市",
      "city_kana": "エナシ",
      "town": "明智町",
      "town_kana": "アケチチョウ",
      "street": null,
      "office_name": null,
      "office_name_kana": null
    },
    {
      "zip_code": "5097722",
      "prefecture": "岐阜県",
      "prefecture_kana": "ギフケン",
      "prefecture_code": 21,
      "city": "恵那市",
      "city_kana": "エナシ",
      "town": "明智町徳間町",
      "town_kana": "アケチチョウトクマチョウ",
      "street": null,
      "office_name": null,
      "office_name_kana": null
    }
  ],
  "7723": {
    "zip_code": "5097723",
    "prefecture": "岐阜県",
    "prefecture_kana": "ギフケン",
    "prefecture_code": 21,
    "city": "恵那市",
    "city_kana": "エナシ",
    "town": "明智町大田",
    "town_kana": "アケチチョウオオタ",
    "street": null,
    "office_name": null,
    "office_name_kana": null
  },
  "7724": {
    "zip_code": "5097724",
    "prefecture": "岐阜県",
    "prefecture_kana": "ギフケン",
    "prefecture_code": 21,
    "city": "恵那市",
    "city_kana": "エナシ",
    "town": "明智町横通",
    "town_kana": "アケチチョウヨコドオリ",
    "street": null,
    "office_name": null,
    "office_name_kana": null
  },
  "7725": {
    "zip_code": "5097725",
    "prefecture": "岐阜県",
    "prefecture_kana": "ギフケン",
    "prefecture_code": 21,
    "city": "恵那市",
    "city_kana": "エナシ",
    "town": "明智町阿妻",
    "town_kana": "アケチチョウアヅマ",
    "street": null,
    "office_name": null,
    "office_name_kana": null
  },
  "7726": {
    "zip_code": "5097726",
    "prefecture": "岐阜県",
    "prefecture_kana": "ギフケン",
    "prefecture_code": 21,
    "city": "恵那市",
    "city_kana": "エナシ",
    "town": "明智町吉良見",
    "town_kana": "アケチチョウキラミ",
    "street": null,
    "office_name": null,
    "office_name_kana": null
  },
  "7731": {
    "zip_code": "5097731",
    "prefecture": "岐阜県",
    "prefecture_kana": "ギフケン",
    "prefecture_code": 21,
    "city": "恵那市",
    "city_kana": "エナシ",
    "town": "明智町",
    "town_kana": "アケチチョウ",
    "street": null,
    "office_name": null,
    "office_name_kana": null
  },
  "7792": {
    "zip_code": "5097792",
    "prefecture": "岐阜県",
    "prefecture_kana": "ギフケン",
    "prefecture_code": 21,
    "city": "恵那市",
    "city_kana": "エナシ",
    "town": "明智町",
    "town_kana": "アケチチョウ",
    "street": "８４３−１",
    "office_name": "恵那市明智振興事務所",
    "office_name_kana": "エナシアケチシンコウジムシヨ"
  },
  "7793": {
    "zip_code": "5097793",
    "prefecture": "岐阜県",
    "prefecture_kana": "ギフケン",
    "prefecture_code": 21,
    "city": "恵那市",
    "city_kana": "エナシ",
    "town": "明智町",
    "town_kana": "アケチチョウ",
    "street": "４１−２",
    "office_name": "岐阜県立　恵那南高等学校",
    "office_name_kana": "ギフケンリツ エナミナミコウトウガツコウ"
  },
  "7795": {
    "zip_code": "5097795",
    "prefecture": "岐阜県",
    "prefecture_kana": "ギフケン",
    "prefecture_code": 21,
    "city": "恵那市",
    "city_kana": "エナシ",
    "town": "明智町",
    "town_kana": "アケチチョウ",
    "street": "１６１４番地",
    "office_name": "明智セラミックス　株式会社",
    "office_name_kana": "アケチセラミツクス カブシキガイシヤ"
  },
  "7797": {
    "zip_code": "5097797",
    "prefecture": "岐阜県",
    "prefecture_kana": "ギフケン",
    "prefecture_code": 21,
    "city": "恵那市",
    "city_kana": "エナシ",
    "town": "明智町吉良見",
    "town_kana": "アケチチョウキラミ",
    "street": "字西山９８０−２",
    "office_name": "株式会社　明智ゴルフ倶楽部",
    "office_name_kana": "カブシキガイシヤ アケチゴルフクラブ"
  },
  "7801": [
    {
      "zip_code": "5097801",
      "prefecture": "岐阜県",
      "prefecture_kana": "ギフケン",
      "prefecture_code": 21,
      "city": "恵那市",
      "city_kana": "エナシ",
      "town": "串原",
      "town_kana": "クシハラ",
      "street": null,
      "office_name": null,
      "office_name_kana": null
    },
    {
      "zip_code": "5097801",
      "prefecture": "岐阜県",
      "prefecture_kana": "ギフケン",
      "prefecture_code": 21,
      "city": "恵那市",
      "city_kana": "エナシ",
      "town": "串原中沢",
      "town_kana": "クシハラナカサワ",
      "street": null,
      "office_name": null,
      "office_name_kana": null
    }
  ],
  "7802": [
    {
      "zip_code": "5097802",
      "prefecture": "岐阜県",
      "prefecture_kana": "ギフケン",
      "prefecture_code": 21,
      "city": "恵那市",
      "city_kana": "エナシ",
      "town": "串原",
      "town_kana": "クシハラ",
      "street": null,
      "office_name": null,
      "office_name_kana": null
    },
    {
      "zip_code": "5097802",
      "prefecture": "岐阜県",
      "prefecture_kana": "ギフケン",
      "prefecture_code": 21,
      "city": "恵那市",
      "city_kana": "エナシ",
      "town": "串原平山",
      "town_kana": "クシハラタイラヤマ",
      "street": null,
      "office_name": null,
      "office_name_kana": null
    }
  ],
  "7803": [
    {
      "zip_code": "5097803",
      "prefecture": "岐阜県",
      "prefecture_kana": "ギフケン",
      "prefecture_code": 21,
      "city": "恵那市",
      "city_kana": "エナシ",
      "town": "串原",
      "town_kana": "クシハラ",
      "street": null,
      "office_name": null,
      "office_name_kana": null
    },
    {
      "zip_code": "5097803",
      "prefecture": "岐阜県",
      "prefecture_kana": "ギフケン",
      "prefecture_code": 21,
      "city": "恵那市",
      "city_kana": "エナシ",
      "town": "串原松本",
      "town_kana": "クシハラマツモト",
      "street": null,
      "office_name": null,
      "office_name_kana": null
    }
  ],
  "7804": [
    {
      "zip_code": "5097804",
      "prefecture": "岐阜県",
      "prefecture_kana": "ギフケン",
      "prefecture_code": 21,
      "city": "恵那市",
      "city_kana": "エナシ",
      "town": "串原",
      "town_kana": "クシハラ",
      "street": null,
      "office_name": null,
      "office_name_kana": null
    },
    {
      "zip_code": "5097804",
      "prefecture": "岐阜県",
      "prefecture_kana": "ギフケン",
      "prefecture_code": 21,
      "city": "恵那市",
      "city_kana": "エナシ",
      "town": "串原戸中",
      "town_kana": "クシハラトチュウ",
      "street": null,
      "office_name": null,
      "office_name_kana": null
    }
  ],
  "7805": [
    {
      "zip_code": "5097805",
      "prefecture": "岐阜県",
      "prefecture_kana": "ギフケン",
      "prefecture_code": 21,
      "city": "恵那市",
      "city_kana": "エナシ",
      "town": "串原",
      "town_kana": "クシハラ",
      "street": null,
      "office_name": null,
      "office_name_kana": null
    },
    {
      "zip_code": "5097805",
      "prefecture": "岐阜県",
      "prefecture_kana": "ギフケン",
      "prefecture_code": 21,
      "city": "恵那市",
      "city_kana": "エナシ",
      "town": "串原峯",
      "town_kana": "クシハラミネ",
      "street": null,
      "office_name": null,
      "office_name_kana": null
    }
  ],
  "7806": [
    {
      "zip_code": "5097806",
      "prefecture": "岐阜県",
      "prefecture_kana": "ギフケン",
      "prefecture_code": 21,
      "city": "恵那市",
      "city_kana": "エナシ",
      "town": "串原",
      "town_kana": "クシハラ",
      "street": null,
      "office_name": null,
      "office_name_kana": null
    },
    {
      "zip_code": "5097806",
      "prefecture": "岐阜県",
      "prefecture_kana": "ギフケン",
      "prefecture_code": 21,
      "city": "恵那市",
      "city_kana": "エナシ",
      "town": "串原松林",
      "town_kana": "クシハラマツバヤシ",
      "street": null,
      "office_name": null,
      "office_name_kana": null
    }
  ],
  "7811": [
    {
      "zip_code": "5097811",
      "prefecture": "岐阜県",
      "prefecture_kana": "ギフケン",
      "prefecture_code": 21,
      "city": "恵那市",
      "city_kana": "エナシ",
      "town": "串原",
      "town_kana": "クシハラ",
      "street": null,
      "office_name": null,
      "office_name_kana": null
    },
    {
      "zip_code": "5097811",
      "prefecture": "岐阜県",
      "prefecture_kana": "ギフケン",
      "prefecture_code": 21,
      "city": "恵那市",
      "city_kana": "エナシ",
      "town": "串原福原",
      "town_kana": "クシハラフクバラ",
      "street": null,
      "office_name": null,
      "office_name_kana": null
    }
  ],
  "7812": [
    {
      "zip_code": "5097812",
      "prefecture": "岐阜県",
      "prefecture_kana": "ギフケン",
      "prefecture_code": 21,
      "city": "恵那市",
      "city_kana": "エナシ",
      "town": "串原",
      "town_kana": "クシハラ",
      "street": null,
      "office_name": null,
      "office_name_kana": null
    },
    {
      "zip_code": "5097812",
      "prefecture": "岐阜県",
      "prefecture_kana": "ギフケン",
      "prefecture_code": 21,
      "city": "恵那市",
      "city_kana": "エナシ",
      "town": "串原森上",
      "town_kana": "クシハラモリアゲ",
      "street": null,
      "office_name": null,
      "office_name_kana": null
    }
  ],
  "7813": [
    {
      "zip_code": "5097813",
      "prefecture": "岐阜県",
      "prefecture_kana": "ギフケン",
      "prefecture_code": 21,
      "city": "恵那市",
      "city_kana": "エナシ",
      "town": "串原",
      "town_kana": "クシハラ",
      "street": null,
      "office_name": null,
      "office_name_kana": null
    },
    {
      "zip_code": "5097813",
      "prefecture": "岐阜県",
      "prefecture_kana": "ギフケン",
      "prefecture_code": 21,
      "city": "恵那市",
      "city_kana": "エナシ",
      "town": "串原大竹",
      "town_kana": "クシハラオオタケ",
      "street": null,
      "office_name": null,
      "office_name_kana": null
    }
  ],
  "7814": [
    {
      "zip_code": "5097814",
      "prefecture": "岐阜県",
      "prefecture_kana": "ギフケン",
      "prefecture_code": 21,
      "city": "恵那市",
      "city_kana": "エナシ",
      "town": "串原",
      "town_kana": "クシハラ",
      "street": null,
      "office_name": null,
      "office_name_kana": null
    },
    {
      "zip_code": "5097814",
      "prefecture": "岐阜県",
      "prefecture_kana": "ギフケン",
      "prefecture_code": 21,
      "city": "恵那市",
      "city_kana": "エナシ",
      "town": "串原相走",
      "town_kana": "クシハラアイバシリ",
      "street": null,
      "office_name": null,
      "office_name_kana": null
    }
  ],
  "7815": [
    {
      "zip_code": "5097815",
      "prefecture": "岐阜県",
      "prefecture_kana": "ギフケン",
      "prefecture_code": 21,
      "city": "恵那市",
      "city_kana": "エナシ",
      "town": "串原",
      "town_kana": "クシハラ",
      "street": null,
      "office_name": null,
      "office_name_kana": null
    },
    {
      "zip_code": "5097815",
      "prefecture": "岐阜県",
      "prefecture_kana": "ギフケン",
      "prefecture_code": 21,
      "city": "恵那市",
      "city_kana": "エナシ",
      "town": "串原大野",
      "town_kana": "クシハラオオノ",
      "street": null,
      "office_name": null,
      "office_name_kana": null
    }
  ],
  "7816": [
    {
      "zip_code": "5097816",
      "prefecture": "岐阜県",
      "prefecture_kana": "ギフケン",
      "prefecture_code": 21,
      "city": "恵那市",
      "city_kana": "エナシ",
      "town": "串原",
      "town_kana": "クシハラ",
      "street": null,
      "office_name": null,
      "office_name_kana": null
    },
    {
      "zip_code": "5097816",
      "prefecture": "岐阜県",
      "prefecture_kana": "ギフケン",
      "prefecture_code": 21,
      "city": "恵那市",
      "city_kana": "エナシ",
      "town": "串原岩倉",
      "town_kana": "クシハライワクラ",
      "street": null,
      "office_name": null,
      "office_name_kana": null
    }
  ],
  "7821": [
    {
      "zip_code": "5097821",
      "prefecture": "岐阜県",
      "prefecture_kana": "ギフケン",
      "prefecture_code": 21,
      "city": "恵那市",
      "city_kana": "エナシ",
      "town": "串原",
      "town_kana": "クシハラ",
      "street": null,
      "office_name": null,
      "office_name_kana": null
    },
    {
      "zip_code": "5097821",
      "prefecture": "岐阜県",
      "prefecture_kana": "ギフケン",
      "prefecture_code": 21,
      "city": "恵那市",
      "city_kana": "エナシ",
      "town": "串原大平",
      "town_kana": "クシハラオオダイラ",
      "street": null,
      "office_name": null,
      "office_name_kana": null
    }
  ],
  "7822": [
    {
      "zip_code": "5097822",
      "prefecture": "岐阜県",
      "prefecture_kana": "ギフケン",
      "prefecture_code": 21,
      "city": "恵那市",
      "city_kana": "エナシ",
      "town": "串原",
      "town_kana": "クシハラ",
      "street": null,
      "office_name": null,
      "office_name_kana": null
    },
    {
      "zip_code": "5097822",
      "prefecture": "岐阜県",
      "prefecture_kana": "ギフケン",
      "prefecture_code": 21,
      "city": "恵那市",
      "city_kana": "エナシ",
      "town": "串原柿畑",
      "town_kana": "クシハラカキバタ",
      "street": null,
      "office_name": null,
      "office_name_kana": null
    }
  ],
  "7823": [
    {
      "zip_code": "5097823",
      "prefecture": "岐阜県",
      "prefecture_kana": "ギフケン",
      "prefecture_code": 21,
      "city": "恵那市",
      "city_kana": "エナシ",
      "town": "串原",
      "town_kana": "クシハラ",
      "street": null,
      "office_name": null,
      "office_name_kana": null
    },
    {
      "zip_code": "5097823",
      "prefecture": "岐阜県",
      "prefecture_kana": "ギフケン",
      "prefecture_code": 21,
      "city": "恵那市",
      "city_kana": "エナシ",
      "town": "串原閑羅瀬",
      "town_kana": "クシハラシズラセ",
      "street": null,
      "office_name": null,
      "office_name_kana": null
    }
  ],
  "7824": [
    {
      "zip_code": "5097824",
      "prefecture": "岐阜県",
      "prefecture_kana": "ギフケン",
      "prefecture_code": 21,
      "city": "恵那市",
      "city_kana": "エナシ",
      "town": "串原",
      "town_kana": "クシハラ",
      "street": null,
      "office_name": null,
      "office_name_kana": null
    },
    {
      "zip_code": "5097824",
      "prefecture": "岐阜県",
      "prefecture_kana": "ギフケン",
      "prefecture_code": 21,
      "city": "恵那市",
      "city_kana": "エナシ",
      "town": "串原大簗",
      "town_kana": "クシハラオオヤナ",
      "street": null,
      "office_name": null,
      "office_name_kana": null
    }
  ],
  "7825": [
    {
      "zip_code": "5097825",
      "prefecture": "岐阜県",
      "prefecture_kana": "ギフケン",
      "prefecture_code": 21,
      "city": "恵那市",
      "city_kana": "エナシ",
      "town": "串原",
      "town_kana": "クシハラ",
      "street": null,
      "office_name": null,
      "office_name_kana": null
    },
    {
      "zip_code": "5097825",
      "prefecture": "岐阜県",
      "prefecture_kana": "ギフケン",
      "prefecture_code": 21,
      "city": "恵那市",
      "city_kana": "エナシ",
      "town": "串原川ケ渡",
      "town_kana": "クシハラカワカド",
      "street": null,
      "office_name": null,
      "office_name_kana": null
    }
  ],
  "7826": [
    {
      "zip_code": "5097826",
      "prefecture": "岐阜県",
      "prefecture_kana": "ギフケン",
      "prefecture_code": 21,
      "city": "恵那市",
      "city_kana": "エナシ",
      "town": "串原",
      "town_kana": "クシハラ",
      "street": null,
      "office_name": null,
      "office_name_kana": null
    },
    {
      "zip_code": "5097826",
      "prefecture": "岐阜県",
      "prefecture_kana": "ギフケン",
      "prefecture_code": 21,
      "city": "恵那市",
      "city_kana": "エナシ",
      "town": "串原木根",
      "town_kana": "クシハラキネ",
      "street": null,
      "office_name": null,
      "office_name_kana": null
    }
  ],
  "7831": {
    "zip_code": "5097831",
    "prefecture": "岐阜県",
    "prefecture_kana": "ギフケン",
    "prefecture_code": 21,
    "city": "恵那市",
    "city_kana": "エナシ",
    "town": "串原",
    "town_kana": "クシハラ",
    "street": null,
    "office_name": null,
    "office_name_kana": null
  },
  "7892": {
    "zip_code": "5097892",
    "prefecture": "岐阜県",
    "prefecture_kana": "ギフケン",
    "prefecture_code": 21,
    "city": "恵那市",
    "city_kana": "エナシ",
    "town": "串原",
    "town_kana": "クシハラ",
    "street": "３１７１−１",
    "office_name": "恵那市串原振興事務所",
    "office_name_kana": "エナシクシハラシンコウジムシヨ"
  },
  "8231": {
    "zip_code": "5098231",
    "prefecture": "岐阜県",
    "prefecture_kana": "ギフケン",
    "prefecture_code": 21,
    "city": "恵那市",
    "city_kana": "エナシ",
    "town": "中野方町",
    "town_kana": "ナカノホウチョウ",
    "street": null,
    "office_name": null,
    "office_name_kana": null
  },
  "8232": {
    "zip_code": "5098232",
    "prefecture": "岐阜県",
    "prefecture_kana": "ギフケン",
    "prefecture_code": 21,
    "city": "恵那市",
    "city_kana": "エナシ",
    "town": "飯地町",
    "town_kana": "イイジチョウ",
    "street": null,
    "office_name": null,
    "office_name_kana": null
  },
  "8301": {
    "zip_code": "5098301",
    "prefecture": "岐阜県",
    "prefecture_kana": "ギフケン",
    "prefecture_code": 21,
    "city": "中津川市",
    "city_kana": "ナカツガワシ",
    "town": "蛭川",
    "town_kana": "ヒルカワ",
    "street": null,
    "office_name": null,
    "office_name_kana": null
  },
  "8392": {
    "zip_code": "5098392",
    "prefecture": "岐阜県",
    "prefecture_kana": "ギフケン",
    "prefecture_code": 21,
    "city": "中津川市",
    "city_kana": "ナカツガワシ",
    "town": "蛭川",
    "town_kana": "ヒルカワ",
    "street": "２１７８番地８",
    "office_name": "蛭川総合事務所",
    "office_name_kana": "ヒルカワソウゴウジムシヨ"
  },
  "9131": {
    "zip_code": "5099131",
    "prefecture": "岐阜県",
    "prefecture_kana": "ギフケン",
    "prefecture_code": 21,
    "city": "中津川市",
    "city_kana": "ナカツガワシ",
    "town": "千旦林",
    "town_kana": "センダンバヤシ",
    "street": null,
    "office_name": null,
    "office_name_kana": null
  },
  "9132": {
    "zip_code": "5099132",
    "prefecture": "岐阜県",
    "prefecture_kana": "ギフケン",
    "prefecture_code": 21,
    "city": "中津川市",
    "city_kana": "ナカツガワシ",
    "town": "茄子川",
    "town_kana": "ナスビガワ",
    "street": null,
    "office_name": null,
    "office_name_kana": null
  },
  "9192": {
    "zip_code": "5099192",
    "prefecture": "岐阜県",
    "prefecture_kana": "ギフケン",
    "prefecture_code": 21,
    "city": "中津川市",
    "city_kana": "ナカツガワシ",
    "town": "茄子川",
    "town_kana": "ナスビガワ",
    "street": "１１９−３",
    "office_name": "恵那峡パークカントリークラブ",
    "office_name_kana": "エナキヨウカントリ-クラブ"
  },
  "9195": {
    "zip_code": "5099195",
    "prefecture": "岐阜県",
    "prefecture_kana": "ギフケン",
    "prefecture_code": 21,
    "city": "中津川市",
    "city_kana": "ナカツガワシ",
    "town": "千旦林",
    "town_kana": "センダンバヤシ",
    "street": "１−１０４",
    "office_name": "中京学院大学",
    "office_name_kana": "チユウキヨウガクインダイガク"
  },
  "9201": {
    "zip_code": "5099201",
    "prefecture": "岐阜県",
    "prefecture_kana": "ギフケン",
    "prefecture_code": 21,
    "city": "中津川市",
    "city_kana": "ナカツガワシ",
    "town": "川上",
    "town_kana": "カワウエ",
    "street": null,
    "office_name": null,
    "office_name_kana": null
  },
  "9231": {
    "zip_code": "5099231",
    "prefecture": "岐阜県",
    "prefecture_kana": "ギフケン",
    "prefecture_code": 21,
    "city": "中津川市",
    "city_kana": "ナカツガワシ",
    "town": "上野",
    "town_kana": "ウエノ",
    "street": null,
    "office_name": null,
    "office_name_kana": null
  },
  "9232": {
    "zip_code": "5099232",
    "prefecture": "岐阜県",
    "prefecture_kana": "ギフケン",
    "prefecture_code": 21,
    "city": "中津川市",
    "city_kana": "ナカツガワシ",
    "town": "坂下",
    "town_kana": "サカシタ",
    "street": null,
    "office_name": null,
    "office_name_kana": null
  },
  "9292": {
    "zip_code": "5099292",
    "prefecture": "岐阜県",
    "prefecture_kana": "ギフケン",
    "prefecture_code": 21,
    "city": "中津川市",
    "city_kana": "ナカツガワシ",
    "town": "坂下",
    "town_kana": "サカシタ",
    "street": "１６６５番地５号",
    "office_name": "中津川市　坂下総合事務所",
    "office_name_kana": "ナカツガワシ サカシタソウゴウジムシヨ"
  },
  "9293": {
    "zip_code": "5099293",
    "prefecture": "岐阜県",
    "prefecture_kana": "ギフケン",
    "prefecture_code": 21,
    "city": "中津川市",
    "city_kana": "ナカツガワシ",
    "town": "坂下",
    "town_kana": "サカシタ",
    "street": "７２２−１",
    "office_name": "国民健康保険　坂下病院",
    "office_name_kana": "コクミンケンコウホケン サカシタビヨウイン"
  },
  "9295": {
    "zip_code": "5099295",
    "prefecture": "岐阜県",
    "prefecture_kana": "ギフケン",
    "prefecture_code": 21,
    "city": "中津川市",
    "city_kana": "ナカツガワシ",
    "town": "川上",
    "town_kana": "カワウエ",
    "street": "１４３７−１",
    "office_name": "中津川市川上総合事務所",
    "office_name_kana": "ナカツガワシカワカミソウゴウジムシヨ"
  },
  "9296": {
    "zip_code": "5099296",
    "prefecture": "岐阜県",
    "prefecture_kana": "ギフケン",
    "prefecture_code": 21,
    "city": "中津川市",
    "city_kana": "ナカツガワシ",
    "town": "坂下",
    "town_kana": "サカシタ",
    "street": "９３３番地",
    "office_name": "株式会社　高峰楽器製作所",
    "office_name_kana": "カブシキガイシヤ タカミネガツキセイサクシヨ"
  },
  "9298": {
    "zip_code": "5099298",
    "prefecture": "岐阜県",
    "prefecture_kana": "ギフケン",
    "prefecture_code": 21,
    "city": "中津川市",
    "city_kana": "ナカツガワシ",
    "town": "坂下",
    "town_kana": "サカシタ",
    "street": "３７７−２",
    "office_name": "ヤマコー　（株）",
    "office_name_kana": "ヤマコ- (カブ)"
  }
}