{
  "0000": [
    {
      "zip_code": "5100000",
      "prefecture": "三重県",
      "prefecture_kana": "ミエケン",
      "prefecture_code": "24",
      "city": "四日市市",
      "city_kana": "ヨッカイチシ",
      "town": "",
      "town_kana": "",
      "street": null,
      "office_name": null,
      "office_name_kana": null
    },
    {
      "zip_code": "5100000",
      "prefecture": "三重県",
      "prefecture_kana": "ミエケン",
      "prefecture_code": "24",
      "city": "三重郡朝日町",
      "city_kana": "ミエグンアサヒチョウ",
      "town": "",
      "town_kana": "",
      "street": null,
      "office_name": null,
      "office_name_kana": null
    },
    {
      "zip_code": "5100000",
      "prefecture": "三重県",
      "prefecture_kana": "ミエケン",
      "prefecture_code": "24",
      "city": "三重郡川越町",
      "city_kana": "ミエグンカワゴエチョウ",
      "town": "",
      "town_kana": "",
      "street": null,
      "office_name": null,
      "office_name_kana": null
    }
  ],
  "0001": {
    "zip_code": "5100001",
    "prefecture": "三重県",
    "prefecture_kana": "ミエケン",
    "prefecture_code": "24",
    "city": "四日市市",
    "city_kana": "ヨッカイチシ",
    "town": "八田",
    "town_kana": "ハッタ",
    "street": null,
    "office_name": null,
    "office_name_kana": null
  },
  "0002": {
    "zip_code": "5100002",
    "prefecture": "三重県",
    "prefecture_kana": "ミエケン",
    "prefecture_code": "24",
    "city": "四日市市",
    "city_kana": "ヨッカイチシ",
    "town": "羽津中",
    "town_kana": "ハヅナカ",
    "street": null,
    "office_name": null,
    "office_name_kana": null
  },
  "0003": {
    "zip_code": "5100003",
    "prefecture": "三重県",
    "prefecture_kana": "ミエケン",
    "prefecture_code": "24",
    "city": "四日市市",
    "city_kana": "ヨッカイチシ",
    "town": "大宮町",
    "town_kana": "オオミヤチョウ",
    "street": null,
    "office_name": null,
    "office_name_kana": null
  },
  "0004": {
    "zip_code": "5100004",
    "prefecture": "三重県",
    "prefecture_kana": "ミエケン",
    "prefecture_code": "24",
    "city": "四日市市",
    "city_kana": "ヨッカイチシ",
    "town": "大宮西町",
    "town_kana": "オオミヤニシマチ",
    "street": null,
    "office_name": null,
    "office_name_kana": null
  },
  "0005": {
    "zip_code": "5100005",
    "prefecture": "三重県",
    "prefecture_kana": "ミエケン",
    "prefecture_code": "24",
    "city": "四日市市",
    "city_kana": "ヨッカイチシ",
    "town": "山手町",
    "town_kana": "ヤマテチョウ",
    "street": null,
    "office_name": null,
    "office_name_kana": null
  },
  "0006": {
    "zip_code": "5100006",
    "prefecture": "三重県",
    "prefecture_kana": "ミエケン",
    "prefecture_code": "24",
    "city": "四日市市",
    "city_kana": "ヨッカイチシ",
    "town": "緑丘町",
    "town_kana": "ミドリガオカチョウ",
    "street": null,
    "office_name": null,
    "office_name_kana": null
  },
  "0007": {
    "zip_code": "5100007",
    "prefecture": "三重県",
    "prefecture_kana": "ミエケン",
    "prefecture_code": "24",
    "city": "四日市市",
    "city_kana": "ヨッカイチシ",
    "town": "別名",
    "town_kana": "ベツメイ",
    "street": null,
    "office_name": null,
    "office_name_kana": null
  },
  "0008": {
    "zip_code": "5100008",
    "prefecture": "三重県",
    "prefecture_kana": "ミエケン",
    "prefecture_code": "24",
    "city": "四日市市",
    "city_kana": "ヨッカイチシ",
    "town": "南いかるが町",
    "town_kana": "ミナミイカルガチョウ",
    "street": null,
    "office_name": null,
    "office_name_kana": null
  },
  "0011": {
    "zip_code": "5100011",
    "prefecture": "三重県",
    "prefecture_kana": "ミエケン",
    "prefecture_code": "24",
    "city": "四日市市",
    "city_kana": "ヨッカイチシ",
    "town": "霞",
    "town_kana": "カスミ",
    "street": null,
    "office_name": null,
    "office_name_kana": null
  },
  "0012": {
    "zip_code": "5100012",
    "prefecture": "三重県",
    "prefecture_kana": "ミエケン",
    "prefecture_code": "24",
    "city": "四日市市",
    "city_kana": "ヨッカイチシ",
    "town": "羽津",
    "town_kana": "ハヅ",
    "street": null,
    "office_name": null,
    "office_name_kana": null
  },
  "0013": {
    "zip_code": "5100013",
    "prefecture": "三重県",
    "prefecture_kana": "ミエケン",
    "prefecture_code": "24",
    "city": "四日市市",
    "city_kana": "ヨッカイチシ",
    "town": "富士町",
    "town_kana": "フジチョウ",
    "street": null,
    "office_name": null,
    "office_name_kana": null
  },
  "0014": {
    "zip_code": "5100014",
    "prefecture": "三重県",
    "prefecture_kana": "ミエケン",
    "prefecture_code": "24",
    "city": "四日市市",
    "city_kana": "ヨッカイチシ",
    "town": "金場町",
    "town_kana": "カネバチョウ",
    "street": null,
    "office_name": null,
    "office_name_kana": null
  },
  "0015": {
    "zip_code": "5100015",
    "prefecture": "三重県",
    "prefecture_kana": "ミエケン",
    "prefecture_code": "24",
    "city": "四日市市",
    "city_kana": "ヨッカイチシ",
    "town": "城山町",
    "town_kana": "シロヤマチョウ",
    "street": null,
    "office_name": null,
    "office_name_kana": null
  },
  "0016": {
    "zip_code": "5100016",
    "prefecture": "三重県",
    "prefecture_kana": "ミエケン",
    "prefecture_code": "24",
    "city": "四日市市",
    "city_kana": "ヨッカイチシ",
    "town": "羽津山町",
    "town_kana": "ハヅヤマチョウ",
    "street": null,
    "office_name": null,
    "office_name_kana": null
  },
  "0017": {
    "zip_code": "5100017",
    "prefecture": "三重県",
    "prefecture_kana": "ミエケン",
    "prefecture_code": "24",
    "city": "四日市市",
    "city_kana": "ヨッカイチシ",
    "town": "羽津町",
    "town_kana": "ハヅチョウ",
    "street": null,
    "office_name": null,
    "office_name_kana": null
  },
  "0018": {
    "zip_code": "5100018",
    "prefecture": "三重県",
    "prefecture_kana": "ミエケン",
    "prefecture_code": "24",
    "city": "四日市市",
    "city_kana": "ヨッカイチシ",
    "town": "白須賀",
    "town_kana": "シラスカ",
    "street": null,
    "office_name": null,
    "office_name_kana": null
  },
  "0021": {
    "zip_code": "5100021",
    "prefecture": "三重県",
    "prefecture_kana": "ミエケン",
    "prefecture_code": "24",
    "city": "四日市市",
    "city_kana": "ヨッカイチシ",
    "town": "三郎町",
    "town_kana": "サブロウマチ",
    "street": null,
    "office_name": null,
    "office_name_kana": null
  },
  "0022": {
    "zip_code": "5100022",
    "prefecture": "三重県",
    "prefecture_kana": "ミエケン",
    "prefecture_code": "24",
    "city": "四日市市",
    "city_kana": "ヨッカイチシ",
    "town": "大協町",
    "town_kana": "ダイキョウチョウ",
    "street": null,
    "office_name": null,
    "office_name_kana": null
  },
  "0023": {
    "zip_code": "5100023",
    "prefecture": "三重県",
    "prefecture_kana": "ミエケン",
    "prefecture_code": "24",
    "city": "四日市市",
    "city_kana": "ヨッカイチシ",
    "town": "午起",
    "town_kana": "ウマオコシ",
    "street": null,
    "office_name": null,
    "office_name_kana": null
  },
  "0024": {
    "zip_code": "5100024",
    "prefecture": "三重県",
    "prefecture_kana": "ミエケン",
    "prefecture_code": "24",
    "city": "四日市市",
    "city_kana": "ヨッカイチシ",
    "town": "新浜町",
    "town_kana": "シンハマチョウ",
    "street": null,
    "office_name": null,
    "office_name_kana": null
  },
  "0025": {
    "zip_code": "5100025",
    "prefecture": "三重県",
    "prefecture_kana": "ミエケン",
    "prefecture_code": "24",
    "city": "四日市市",
    "city_kana": "ヨッカイチシ",
    "town": "東新町",
    "town_kana": "トウシンチョウ",
    "street": null,
    "office_name": null,
    "office_name_kana": null
  },
  "0026": {
    "zip_code": "5100026",
    "prefecture": "三重県",
    "prefecture_kana": "ミエケン",
    "prefecture_code": "24",
    "city": "四日市市",
    "city_kana": "ヨッカイチシ",
    "town": "高浜町",
    "town_kana": "タカハマチョウ",
    "street": null,
    "office_name": null,
    "office_name_kana": null
  },
  "0027": {
    "zip_code": "5100027",
    "prefecture": "三重県",
    "prefecture_kana": "ミエケン",
    "prefecture_code": "24",
    "city": "四日市市",
    "city_kana": "ヨッカイチシ",
    "town": "高浜新町",
    "town_kana": "タカハマシンマチ",
    "street": null,
    "office_name": null,
    "office_name_kana": null
  },
  "0031": {
    "zip_code": "5100031",
    "prefecture": "三重県",
    "prefecture_kana": "ミエケン",
    "prefecture_code": "24",
    "city": "四日市市",
    "city_kana": "ヨッカイチシ",
    "town": "浜一色町",
    "town_kana": "ハマイッシキチョウ",
    "street": null,
    "office_name": null,
    "office_name_kana": null
  },
  "0032": {
    "zip_code": "5100032",
    "prefecture": "三重県",
    "prefecture_kana": "ミエケン",
    "prefecture_code": "24",
    "city": "四日市市",
    "city_kana": "ヨッカイチシ",
    "town": "京町",
    "town_kana": "キョウマチ",
    "street": null,
    "office_name": null,
    "office_name_kana": null
  },
  "0033": {
    "zip_code": "5100033",
    "prefecture": "三重県",
    "prefecture_kana": "ミエケン",
    "prefecture_code": "24",
    "city": "四日市市",
    "city_kana": "ヨッカイチシ",
    "town": "川原町",
    "town_kana": "カワラマチ",
    "street": null,
    "office_name": null,
    "office_name_kana": null
  },
  "0034": {
    "zip_code": "5100034",
    "prefecture": "三重県",
    "prefecture_kana": "ミエケン",
    "prefecture_code": "24",
    "city": "四日市市",
    "city_kana": "ヨッカイチシ",
    "town": "滝川町",
    "town_kana": "タキガワチョウ",
    "street": null,
    "office_name": null,
    "office_name_kana": null
  },
  "0035": {
    "zip_code": "5100035",
    "prefecture": "三重県",
    "prefecture_kana": "ミエケン",
    "prefecture_code": "24",
    "city": "四日市市",
    "city_kana": "ヨッカイチシ",
    "town": "陶栄町",
    "town_kana": "トウエイチョウ",
    "street": null,
    "office_name": null,
    "office_name_kana": null
  },
  "0041": {
    "zip_code": "5100041",
    "prefecture": "三重県",
    "prefecture_kana": "ミエケン",
    "prefecture_code": "24",
    "city": "四日市市",
    "city_kana": "ヨッカイチシ",
    "town": "稲葉町",
    "town_kana": "イナバチョウ",
    "street": null,
    "office_name": null,
    "office_name_kana": null
  },
  "0042": {
    "zip_code": "5100042",
    "prefecture": "三重県",
    "prefecture_kana": "ミエケン",
    "prefecture_code": "24",
    "city": "四日市市",
    "city_kana": "ヨッカイチシ",
    "town": "高砂町",
    "town_kana": "タカサゴチョウ",
    "street": null,
    "office_name": null,
    "office_name_kana": null
  },
  "0043": {
    "zip_code": "5100043",
    "prefecture": "三重県",
    "prefecture_kana": "ミエケン",
    "prefecture_code": "24",
    "city": "四日市市",
    "city_kana": "ヨッカイチシ",
    "town": "南納屋町",
    "town_kana": "ミナミナヤチョウ",
    "street": null,
    "office_name": null,
    "office_name_kana": null
  },
  "0044": {
    "zip_code": "5100044",
    "prefecture": "三重県",
    "prefecture_kana": "ミエケン",
    "prefecture_code": "24",
    "city": "四日市市",
    "city_kana": "ヨッカイチシ",
    "town": "相生町",
    "town_kana": "アイオイチョウ",
    "street": null,
    "office_name": null,
    "office_name_kana": null
  },
  "0045": {
    "zip_code": "5100045",
    "prefecture": "三重県",
    "prefecture_kana": "ミエケン",
    "prefecture_code": "24",
    "city": "四日市市",
    "city_kana": "ヨッカイチシ",
    "town": "蔵町",
    "town_kana": "クラマチ",
    "street": null,
    "office_name": null,
    "office_name_kana": null
  },
  "0046": {
    "zip_code": "5100046",
    "prefecture": "三重県",
    "prefecture_kana": "ミエケン",
    "prefecture_code": "24",
    "city": "四日市市",
    "city_kana": "ヨッカイチシ",
    "town": "浜町",
    "town_kana": "ハママチ",
    "street": null,
    "office_name": null,
    "office_name_kana": null
  },
  "0047": {
    "zip_code": "5100047",
    "prefecture": "三重県",
    "prefecture_kana": "ミエケン",
    "prefecture_code": "24",
    "city": "四日市市",
    "city_kana": "ヨッカイチシ",
    "town": "北納屋町",
    "town_kana": "キタナヤチョウ",
    "street": null,
    "office_name": null,
    "office_name_kana": null
  },
  "0048": {
    "zip_code": "5100048",
    "prefecture": "三重県",
    "prefecture_kana": "ミエケン",
    "prefecture_code": "24",
    "city": "四日市市",
    "city_kana": "ヨッカイチシ",
    "town": "中納屋町",
    "town_kana": "ナカナヤチョウ",
    "street": null,
    "office_name": null,
    "office_name_kana": null
  },
  "0051": {
    "zip_code": "5100051",
    "prefecture": "三重県",
    "prefecture_kana": "ミエケン",
    "prefecture_code": "24",
    "city": "四日市市",
    "city_kana": "ヨッカイチシ",
    "town": "千歳町",
    "town_kana": "チトセチョウ",
    "street": null,
    "office_name": null,
    "office_name_kana": null
  },
  "0052": {
    "zip_code": "5100052",
    "prefecture": "三重県",
    "prefecture_kana": "ミエケン",
    "prefecture_code": "24",
    "city": "四日市市",
    "city_kana": "ヨッカイチシ",
    "town": "末広町",
    "town_kana": "スエヒロチョウ",
    "street": null,
    "office_name": null,
    "office_name_kana": null
  },
  "0053": {
    "zip_code": "5100053",
    "prefecture": "三重県",
    "prefecture_kana": "ミエケン",
    "prefecture_code": "24",
    "city": "四日市市",
    "city_kana": "ヨッカイチシ",
    "town": "曙",
    "town_kana": "アケボノ",
    "street": null,
    "office_name": null,
    "office_name_kana": null
  },
  "0054": {
    "zip_code": "5100054",
    "prefecture": "三重県",
    "prefecture_kana": "ミエケン",
    "prefecture_code": "24",
    "city": "四日市市",
    "city_kana": "ヨッカイチシ",
    "town": "曙町",
    "town_kana": "アケボノチョウ",
    "street": null,
    "office_name": null,
    "office_name_kana": null
  },
  "0055": {
    "zip_code": "5100055",
    "prefecture": "三重県",
    "prefecture_kana": "ミエケン",
    "prefecture_code": "24",
    "city": "四日市市",
    "city_kana": "ヨッカイチシ",
    "town": "寿町",
    "town_kana": "コトブキチョウ",
    "street": null,
    "office_name": null,
    "office_name_kana": null
  },
  "0056": {
    "zip_code": "5100056",
    "prefecture": "三重県",
    "prefecture_kana": "ミエケン",
    "prefecture_code": "24",
    "city": "四日市市",
    "city_kana": "ヨッカイチシ",
    "town": "南起町",
    "town_kana": "ミナミオコシチョウ",
    "street": null,
    "office_name": null,
    "office_name_kana": null
  },
  "0057": {
    "zip_code": "5100057",
    "prefecture": "三重県",
    "prefecture_kana": "ミエケン",
    "prefecture_code": "24",
    "city": "四日市市",
    "city_kana": "ヨッカイチシ",
    "town": "昌栄町",
    "town_kana": "ショウエイチョウ",
    "street": null,
    "office_name": null,
    "office_name_kana": null
  },
  "0058": {
    "zip_code": "5100058",
    "prefecture": "三重県",
    "prefecture_kana": "ミエケン",
    "prefecture_code": "24",
    "city": "四日市市",
    "city_kana": "ヨッカイチシ",
    "town": "西末広町",
    "town_kana": "ニシスエヒロチョウ",
    "street": null,
    "office_name": null,
    "office_name_kana": null
  },
  "0059": {
    "zip_code": "5100059",
    "prefecture": "三重県",
    "prefecture_kana": "ミエケン",
    "prefecture_code": "24",
    "city": "四日市市",
    "city_kana": "ヨッカイチシ",
    "town": "尾上町",
    "town_kana": "オノエチョウ",
    "street": null,
    "office_name": null,
    "office_name_kana": null
  },
  "0061": {
    "zip_code": "5100061",
    "prefecture": "三重県",
    "prefecture_kana": "ミエケン",
    "prefecture_code": "24",
    "city": "四日市市",
    "city_kana": "ヨッカイチシ",
    "town": "朝日町",
    "town_kana": "アサヒマチ",
    "street": null,
    "office_name": null,
    "office_name_kana": null
  },
  "0062": {
    "zip_code": "5100062",
    "prefecture": "三重県",
    "prefecture_kana": "ミエケン",
    "prefecture_code": "24",
    "city": "四日市市",
    "city_kana": "ヨッカイチシ",
    "town": "北浜田町",
    "town_kana": "キタハマダチョウ",
    "street": null,
    "office_name": null,
    "office_name_kana": null
  },
  "0063": {
    "zip_code": "5100063",
    "prefecture": "三重県",
    "prefecture_kana": "ミエケン",
    "prefecture_code": "24",
    "city": "四日市市",
    "city_kana": "ヨッカイチシ",
    "town": "十七軒町",
    "town_kana": "ジュウシチケンチョウ",
    "street": null,
    "office_name": null,
    "office_name_kana": null
  },
  "0064": {
    "zip_code": "5100064",
    "prefecture": "三重県",
    "prefecture_kana": "ミエケン",
    "prefecture_code": "24",
    "city": "四日市市",
    "city_kana": "ヨッカイチシ",
    "town": "新正",
    "town_kana": "シンショウ",
    "street": null,
    "office_name": null,
    "office_name_kana": null
  },
  "0065": {
    "zip_code": "5100065",
    "prefecture": "三重県",
    "prefecture_kana": "ミエケン",
    "prefecture_code": "24",
    "city": "四日市市",
    "city_kana": "ヨッカイチシ",
    "town": "中浜田町",
    "town_kana": "ナカハマダチョウ",
    "street": null,
    "office_name": null,
    "office_name_kana": null
  },
  "0066": {
    "zip_code": "5100066",
    "prefecture": "三重県",
    "prefecture_kana": "ミエケン",
    "prefecture_code": "24",
    "city": "四日市市",
    "city_kana": "ヨッカイチシ",
    "town": "南浜田町",
    "town_kana": "ミナミハマダチョウ",
    "street": null,
    "office_name": null,
    "office_name_kana": null
  },
  "0067": {
    "zip_code": "5100067",
    "prefecture": "三重県",
    "prefecture_kana": "ミエケン",
    "prefecture_code": "24",
    "city": "四日市市",
    "city_kana": "ヨッカイチシ",
    "town": "浜田町",
    "town_kana": "ハマダチョウ",
    "street": null,
    "office_name": null,
    "office_name_kana": null
  },
  "0068": {
    "zip_code": "5100068",
    "prefecture": "三重県",
    "prefecture_kana": "ミエケン",
    "prefecture_code": "24",
    "city": "四日市市",
    "city_kana": "ヨッカイチシ",
    "town": "三栄町",
    "town_kana": "サンエイチョウ",
    "street": null,
    "office_name": null,
    "office_name_kana": null
  },
  "0069": {
    "zip_code": "5100069",
    "prefecture": "三重県",
    "prefecture_kana": "ミエケン",
    "prefecture_code": "24",
    "city": "四日市市",
    "city_kana": "ヨッカイチシ",
    "town": "幸町",
    "town_kana": "サイワイチョウ",
    "street": null,
    "office_name": null,
    "office_name_kana": null
  },
  "0071": {
    "zip_code": "5100071",
    "prefecture": "三重県",
    "prefecture_kana": "ミエケン",
    "prefecture_code": "24",
    "city": "四日市市",
    "city_kana": "ヨッカイチシ",
    "town": "西浦",
    "town_kana": "ニシウラ",
    "street": null,
    "office_name": null,
    "office_name_kana": null
  },
  "0072": {
    "zip_code": "5100072",
    "prefecture": "三重県",
    "prefecture_kana": "ミエケン",
    "prefecture_code": "24",
    "city": "四日市市",
    "city_kana": "ヨッカイチシ",
    "town": "九の城町",
    "town_kana": "クノシロチョウ",
    "street": null,
    "office_name": null,
    "office_name_kana": null
  },
  "0073": {
    "zip_code": "5100073",
    "prefecture": "三重県",
    "prefecture_kana": "ミエケン",
    "prefecture_code": "24",
    "city": "四日市市",
    "city_kana": "ヨッカイチシ",
    "town": "西浜田町",
    "town_kana": "ニシハマダチョウ",
    "street": null,
    "office_name": null,
    "office_name_kana": null
  },
  "0074": {
    "zip_code": "5100074",
    "prefecture": "三重県",
    "prefecture_kana": "ミエケン",
    "prefecture_code": "24",
    "city": "四日市市",
    "city_kana": "ヨッカイチシ",
    "town": "鵜の森",
    "town_kana": "ウノモリ",
    "street": null,
    "office_name": null,
    "office_name_kana": null
  },
  "0075": {
    "zip_code": "5100075",
    "prefecture": "三重県",
    "prefecture_kana": "ミエケン",
    "prefecture_code": "24",
    "city": "四日市市",
    "city_kana": "ヨッカイチシ",
    "town": "安島",
    "town_kana": "ヤスジマ",
    "street": null,
    "office_name": null,
    "office_name_kana": null
  },
  "0076": {
    "zip_code": "5100076",
    "prefecture": "三重県",
    "prefecture_kana": "ミエケン",
    "prefecture_code": "24",
    "city": "四日市市",
    "city_kana": "ヨッカイチシ",
    "town": "堀木",
    "town_kana": "ホリキ",
    "street": null,
    "office_name": null,
    "office_name_kana": null
  },
  "0081": {
    "zip_code": "5100081",
    "prefecture": "三重県",
    "prefecture_kana": "ミエケン",
    "prefecture_code": "24",
    "city": "四日市市",
    "city_kana": "ヨッカイチシ",
    "town": "北町",
    "town_kana": "キタマチ",
    "street": null,
    "office_name": null,
    "office_name_kana": null
  },
  "0082": {
    "zip_code": "5100082",
    "prefecture": "三重県",
    "prefecture_kana": "ミエケン",
    "prefecture_code": "24",
    "city": "四日市市",
    "city_kana": "ヨッカイチシ",
    "town": "中部",
    "town_kana": "チュウブ",
    "street": null,
    "office_name": null,
    "office_name_kana": null
  },
  "0083": {
    "zip_code": "5100083",
    "prefecture": "三重県",
    "prefecture_kana": "ミエケン",
    "prefecture_code": "24",
    "city": "四日市市",
    "city_kana": "ヨッカイチシ",
    "town": "沖の島町",
    "town_kana": "オキノシマチョウ",
    "street": null,
    "office_name": null,
    "office_name_kana": null
  },
  "0084": {
    "zip_code": "5100084",
    "prefecture": "三重県",
    "prefecture_kana": "ミエケン",
    "prefecture_code": "24",
    "city": "四日市市",
    "city_kana": "ヨッカイチシ",
    "town": "栄町",
    "town_kana": "サカエマチ",
    "street": null,
    "office_name": null,
    "office_name_kana": null
  },
  "0085": {
    "zip_code": "5100085",
    "prefecture": "三重県",
    "prefecture_kana": "ミエケン",
    "prefecture_code": "24",
    "city": "四日市市",
    "city_kana": "ヨッカイチシ",
    "town": "諏訪町",
    "town_kana": "スワチョウ",
    "street": null,
    "office_name": null,
    "office_name_kana": null
  },
  "0086": {
    "zip_code": "5100086",
    "prefecture": "三重県",
    "prefecture_kana": "ミエケン",
    "prefecture_code": "24",
    "city": "四日市市",
    "city_kana": "ヨッカイチシ",
    "town": "諏訪栄町",
    "town_kana": "スワサカエマチ",
    "street": null,
    "office_name": null,
    "office_name_kana": null
  },
  "0087": {
    "zip_code": "5100087",
    "prefecture": "三重県",
    "prefecture_kana": "ミエケン",
    "prefecture_code": "24",
    "city": "四日市市",
    "city_kana": "ヨッカイチシ",
    "town": "西新地",
    "town_kana": "ニシシンチ",
    "street": null,
    "office_name": null,
    "office_name_kana": null
  },
  "0088": {
    "zip_code": "5100088",
    "prefecture": "三重県",
    "prefecture_kana": "ミエケン",
    "prefecture_code": "24",
    "city": "四日市市",
    "city_kana": "ヨッカイチシ",
    "town": "元町",
    "town_kana": "モトマチ",
    "street": null,
    "office_name": null,
    "office_name_kana": null
  },
  "0089": {
    "zip_code": "5100089",
    "prefecture": "三重県",
    "prefecture_kana": "ミエケン",
    "prefecture_code": "24",
    "city": "四日市市",
    "city_kana": "ヨッカイチシ",
    "town": "西町",
    "town_kana": "ニシマチ",
    "street": null,
    "office_name": null,
    "office_name_kana": null
  },
  "0091": {
    "zip_code": "5100091",
    "prefecture": "三重県",
    "prefecture_kana": "ミエケン",
    "prefecture_code": "24",
    "city": "四日市市",
    "city_kana": "ヨッカイチシ",
    "town": "北浜町",
    "town_kana": "キタハマチョウ",
    "street": null,
    "office_name": null,
    "office_name_kana": null
  },
  "0092": {
    "zip_code": "5100092",
    "prefecture": "三重県",
    "prefecture_kana": "ミエケン",
    "prefecture_code": "24",
    "city": "四日市市",
    "city_kana": "ヨッカイチシ",
    "town": "新町",
    "town_kana": "シンチョウ",
    "street": null,
    "office_name": null,
    "office_name_kana": null
  },
  "0093": {
    "zip_code": "5100093",
    "prefecture": "三重県",
    "prefecture_kana": "ミエケン",
    "prefecture_code": "24",
    "city": "四日市市",
    "city_kana": "ヨッカイチシ",
    "town": "本町",
    "town_kana": "ホンマチ",
    "street": null,
    "office_name": null,
    "office_name_kana": null
  },
  "0094": {
    "zip_code": "5100094",
    "prefecture": "三重県",
    "prefecture_kana": "ミエケン",
    "prefecture_code": "24",
    "city": "四日市市",
    "city_kana": "ヨッカイチシ",
    "town": "新々町",
    "town_kana": "シンシンマチ",
    "street": null,
    "office_name": null,
    "office_name_kana": null
  },
  "0095": {
    "zip_code": "5100095",
    "prefecture": "三重県",
    "prefecture_kana": "ミエケン",
    "prefecture_code": "24",
    "city": "四日市市",
    "city_kana": "ヨッカイチシ",
    "town": "元新町",
    "town_kana": "モトシンマチ",
    "street": null,
    "office_name": null,
    "office_name_kana": null
  },
  "0096": {
    "zip_code": "5100096",
    "prefecture": "三重県",
    "prefecture_kana": "ミエケン",
    "prefecture_code": "24",
    "city": "四日市市",
    "city_kana": "ヨッカイチシ",
    "town": "中町",
    "town_kana": "ナカマチ",
    "street": null,
    "office_name": null,
    "office_name_kana": null
  },
  "0097": {
    "zip_code": "5100097",
    "prefecture": "三重県",
    "prefecture_kana": "ミエケン",
    "prefecture_code": "24",
    "city": "四日市市",
    "city_kana": "ヨッカイチシ",
    "town": "八幡町",
    "town_kana": "ハチマンチョウ",
    "street": null,
    "office_name": null,
    "office_name_kana": null
  },
  "0098": {
    "zip_code": "5100098",
    "prefecture": "三重県",
    "prefecture_kana": "ミエケン",
    "prefecture_code": "24",
    "city": "四日市市",
    "city_kana": "ヨッカイチシ",
    "town": "北条町",
    "town_kana": "キタジョウマチ",
    "street": null,
    "office_name": null,
    "office_name_kana": null
  },
  "0101": {
    "zip_code": "5100101",
    "prefecture": "三重県",
    "prefecture_kana": "ミエケン",
    "prefecture_code": "24",
    "city": "四日市市",
    "city_kana": "ヨッカイチシ",
    "town": "楠町小倉",
    "town_kana": "クスチョウオグラ",
    "street": null,
    "office_name": null,
    "office_name_kana": null
  },
  "0102": {
    "zip_code": "5100102",
    "prefecture": "三重県",
    "prefecture_kana": "ミエケン",
    "prefecture_code": "24",
    "city": "四日市市",
    "city_kana": "ヨッカイチシ",
    "town": "楠町吉崎",
    "town_kana": "クスチョウヨシザキ",
    "street": null,
    "office_name": null,
    "office_name_kana": null
  },
  "0103": {
    "zip_code": "5100103",
    "prefecture": "三重県",
    "prefecture_kana": "ミエケン",
    "prefecture_code": "24",
    "city": "四日市市",
    "city_kana": "ヨッカイチシ",
    "town": "楠町北五味塚",
    "town_kana": "クスチョウキタゴミヅカ",
    "street": null,
    "office_name": null,
    "office_name_kana": null
  },
  "0104": {
    "zip_code": "5100104",
    "prefecture": "三重県",
    "prefecture_kana": "ミエケン",
    "prefecture_code": "24",
    "city": "四日市市",
    "city_kana": "ヨッカイチシ",
    "town": "楠町南五味塚",
    "town_kana": "クスチョウミナミゴミヅカ",
    "street": null,
    "office_name": null,
    "office_name_kana": null
  },
  "0105": {
    "zip_code": "5100105",
    "prefecture": "三重県",
    "prefecture_kana": "ミエケン",
    "prefecture_code": "24",
    "city": "四日市市",
    "city_kana": "ヨッカイチシ",
    "town": "楠町南川",
    "town_kana": "クスチョウミナミガワ",
    "street": null,
    "office_name": null,
    "office_name_kana": null
  },
  "0106": {
    "zip_code": "5100106",
    "prefecture": "三重県",
    "prefecture_kana": "ミエケン",
    "prefecture_code": "24",
    "city": "四日市市",
    "city_kana": "ヨッカイチシ",
    "town": "楠町本郷",
    "town_kana": "クスチョウホンゴウ",
    "street": null,
    "office_name": null,
    "office_name_kana": null
  },
  "0107": {
    "zip_code": "5100107",
    "prefecture": "三重県",
    "prefecture_kana": "ミエケン",
    "prefecture_code": "24",
    "city": "四日市市",
    "city_kana": "ヨッカイチシ",
    "town": "楠町北一色",
    "town_kana": "クスチョウキタイッシキ",
    "street": null,
    "office_name": null,
    "office_name_kana": null
  },
  "0192": {
    "zip_code": "5100192",
    "prefecture": "三重県",
    "prefecture_kana": "ミエケン",
    "prefecture_code": "24",
    "city": "四日市市",
    "city_kana": "ヨッカイチシ",
    "town": "楠町北五味塚",
    "town_kana": "クスチョウキタゴミヅカ",
    "street": "２０６０番地７２",
    "office_name": "四日市市　楠総合支所",
    "office_name_kana": "ヨツカイチシ クスソウゴウシシヨ"
  },
  "0201": {
    "zip_code": "5100201",
    "prefecture": "三重県",
    "prefecture_kana": "ミエケン",
    "prefecture_code": "24",
    "city": "鈴鹿市",
    "city_kana": "スズカシ",
    "town": "稲生町",
    "town_kana": "イノウチョウ",
    "street": null,
    "office_name": null,
    "office_name_kana": null
  },
  "0202": {
    "zip_code": "5100202",
    "prefecture": "三重県",
    "prefecture_kana": "ミエケン",
    "prefecture_code": "24",
    "city": "鈴鹿市",
    "city_kana": "スズカシ",
    "town": "野町",
    "town_kana": "ノマチ",
    "street": null,
    "office_name": null,
    "office_name_kana": null
  },
  "0203": {
    "zip_code": "5100203",
    "prefecture": "三重県",
    "prefecture_kana": "ミエケン",
    "prefecture_code": "24",
    "city": "鈴鹿市",
    "city_kana": "スズカシ",
    "town": "野村町",
    "town_kana": "ノムラチョウ",
    "street": null,
    "office_name": null,
    "office_name_kana": null
  },
  "0204": {
    "zip_code": "5100204",
    "prefecture": "三重県",
    "prefecture_kana": "ミエケン",
    "prefecture_code": "24",
    "city": "鈴鹿市",
    "city_kana": "スズカシ",
    "town": "稲生西",
    "town_kana": "イノウニシ",
    "street": null,
    "office_name": null,
    "office_name_kana": null
  },
  "0205": {
    "zip_code": "5100205",
    "prefecture": "三重県",
    "prefecture_kana": "ミエケン",
    "prefecture_code": "24",
    "city": "鈴鹿市",
    "city_kana": "スズカシ",
    "town": "稲生",
    "town_kana": "イノウ",
    "street": null,
    "office_name": null,
    "office_name_kana": null
  },
  "0206": {
    "zip_code": "5100206",
    "prefecture": "三重県",
    "prefecture_kana": "ミエケン",
    "prefecture_code": "24",
    "city": "鈴鹿市",
    "city_kana": "スズカシ",
    "town": "稲生こがね園",
    "town_kana": "イノウコガネエン",
    "street": null,
    "office_name": null,
    "office_name_kana": null
  },
  "0207": {
    "zip_code": "5100207",
    "prefecture": "三重県",
    "prefecture_kana": "ミエケン",
    "prefecture_code": "24",
    "city": "鈴鹿市",
    "city_kana": "スズカシ",
    "town": "稲生塩屋",
    "town_kana": "イノウシオヤ",
    "street": null,
    "office_name": null,
    "office_name_kana": null
  },
  "0208": {
    "zip_code": "5100208",
    "prefecture": "三重県",
    "prefecture_kana": "ミエケン",
    "prefecture_code": "24",
    "city": "鈴鹿市",
    "city_kana": "スズカシ",
    "town": "鈴鹿ハイツ",
    "town_kana": "スズカハイツ",
    "street": null,
    "office_name": null,
    "office_name_kana": null
  },
  "0211": {
    "zip_code": "5100211",
    "prefecture": "三重県",
    "prefecture_kana": "ミエケン",
    "prefecture_code": "24",
    "city": "鈴鹿市",
    "city_kana": "スズカシ",
    "town": "東旭が丘",
    "town_kana": "ヒガシアサヒガオカ",
    "street": null,
    "office_name": null,
    "office_name_kana": null
  },
  "0212": {
    "zip_code": "5100212",
    "prefecture": "三重県",
    "prefecture_kana": "ミエケン",
    "prefecture_code": "24",
    "city": "鈴鹿市",
    "city_kana": "スズカシ",
    "town": "中旭が丘",
    "town_kana": "ナカアサヒガオカ",
    "street": null,
    "office_name": null,
    "office_name_kana": null
  },
  "0213": {
    "zip_code": "5100213",
    "prefecture": "三重県",
    "prefecture_kana": "ミエケン",
    "prefecture_code": "24",
    "city": "鈴鹿市",
    "city_kana": "スズカシ",
    "town": "南旭が丘",
    "town_kana": "ミナミアサヒガオカ",
    "street": null,
    "office_name": null,
    "office_name_kana": null
  },
  "0216": {
    "zip_code": "5100216",
    "prefecture": "三重県",
    "prefecture_kana": "ミエケン",
    "prefecture_code": "24",
    "city": "鈴鹿市",
    "city_kana": "スズカシ",
    "town": "野町中",
    "town_kana": "ノマチナカ",
    "street": null,
    "office_name": null,
    "office_name_kana": null
  },
  "0217": {
    "zip_code": "5100217",
    "prefecture": "三重県",
    "prefecture_kana": "ミエケン",
    "prefecture_code": "24",
    "city": "鈴鹿市",
    "city_kana": "スズカシ",
    "town": "野町東",
    "town_kana": "ノマチヒガシ",
    "street": null,
    "office_name": null,
    "office_name_kana": null
  },
  "0218": {
    "zip_code": "5100218",
    "prefecture": "三重県",
    "prefecture_kana": "ミエケン",
    "prefecture_code": "24",
    "city": "鈴鹿市",
    "city_kana": "スズカシ",
    "town": "野町西",
    "town_kana": "ノマチニシ",
    "street": null,
    "office_name": null,
    "office_name_kana": null
  },
  "0219": {
    "zip_code": "5100219",
    "prefecture": "三重県",
    "prefecture_kana": "ミエケン",
    "prefecture_code": "24",
    "city": "鈴鹿市",
    "city_kana": "スズカシ",
    "town": "野町南",
    "town_kana": "ノマチミナミ",
    "street": null,
    "office_name": null,
    "office_name_kana": null
  },
  "0221": {
    "zip_code": "5100221",
    "prefecture": "三重県",
    "prefecture_kana": "ミエケン",
    "prefecture_code": "24",
    "city": "鈴鹿市",
    "city_kana": "スズカシ",
    "town": "北若松町",
    "town_kana": "キタワカマツチョウ",
    "street": null,
    "office_name": null,
    "office_name_kana": null
  },
  "0222": {
    "zip_code": "5100222",
    "prefecture": "三重県",
    "prefecture_kana": "ミエケン",
    "prefecture_code": "24",
    "city": "鈴鹿市",
    "city_kana": "スズカシ",
    "town": "若松西",
    "town_kana": "ワカマツニシ",
    "street": null,
    "office_name": null,
    "office_name_kana": null
  },
  "0223": {
    "zip_code": "5100223",
    "prefecture": "三重県",
    "prefecture_kana": "ミエケン",
    "prefecture_code": "24",
    "city": "鈴鹿市",
    "city_kana": "スズカシ",
    "town": "若松北",
    "town_kana": "ワカマツキタ",
    "street": null,
    "office_name": null,
    "office_name_kana": null
  },
  "0224": {
    "zip_code": "5100224",
    "prefecture": "三重県",
    "prefecture_kana": "ミエケン",
    "prefecture_code": "24",
    "city": "鈴鹿市",
    "city_kana": "スズカシ",
    "town": "若松中",
    "town_kana": "ワカマツナカ",
    "street": null,
    "office_name": null,
    "office_name_kana": null
  },
  "0225": {
    "zip_code": "5100225",
    "prefecture": "三重県",
    "prefecture_kana": "ミエケン",
    "prefecture_code": "24",
    "city": "鈴鹿市",
    "city_kana": "スズカシ",
    "town": "若松東",
    "town_kana": "ワカマツヒガシ",
    "street": null,
    "office_name": null,
    "office_name_kana": null
  },
  "0226": {
    "zip_code": "5100226",
    "prefecture": "三重県",
    "prefecture_kana": "ミエケン",
    "prefecture_code": "24",
    "city": "鈴鹿市",
    "city_kana": "スズカシ",
    "town": "岸岡町",
    "town_kana": "キシオカチョウ",
    "street": null,
    "office_name": null,
    "office_name_kana": null
  },
  "0227": {
    "zip_code": "5100227",
    "prefecture": "三重県",
    "prefecture_kana": "ミエケン",
    "prefecture_code": "24",
    "city": "鈴鹿市",
    "city_kana": "スズカシ",
    "town": "南若松町",
    "town_kana": "ミナミワカマツチョウ",
    "street": null,
    "office_name": null,
    "office_name_kana": null
  },
  "0231": {
    "zip_code": "5100231",
    "prefecture": "三重県",
    "prefecture_kana": "ミエケン",
    "prefecture_code": "24",
    "city": "鈴鹿市",
    "city_kana": "スズカシ",
    "town": "江島台",
    "town_kana": "エジマダイ",
    "street": null,
    "office_name": null,
    "office_name_kana": null
  },
  "0232": {
    "zip_code": "5100232",
    "prefecture": "三重県",
    "prefecture_kana": "ミエケン",
    "prefecture_code": "24",
    "city": "鈴鹿市",
    "city_kana": "スズカシ",
    "town": "北江島町",
    "town_kana": "キタエジマチョウ",
    "street": null,
    "office_name": null,
    "office_name_kana": null
  },
  "0233": {
    "zip_code": "5100233",
    "prefecture": "三重県",
    "prefecture_kana": "ミエケン",
    "prefecture_code": "24",
    "city": "鈴鹿市",
    "city_kana": "スズカシ",
    "town": "東江島町",
    "town_kana": "ヒガシエジマチョウ",
    "street": null,
    "office_name": null,
    "office_name_kana": null
  },
  "0234": {
    "zip_code": "5100234",
    "prefecture": "三重県",
    "prefecture_kana": "ミエケン",
    "prefecture_code": "24",
    "city": "鈴鹿市",
    "city_kana": "スズカシ",
    "town": "江島本町",
    "town_kana": "エジマホンマチ",
    "street": null,
    "office_name": null,
    "office_name_kana": null
  },
  "0235": {
    "zip_code": "5100235",
    "prefecture": "三重県",
    "prefecture_kana": "ミエケン",
    "prefecture_code": "24",
    "city": "鈴鹿市",
    "city_kana": "スズカシ",
    "town": "南江島町",
    "town_kana": "ミナミエジマチョウ",
    "street": null,
    "office_name": null,
    "office_name_kana": null
  },
  "0236": {
    "zip_code": "5100236",
    "prefecture": "三重県",
    "prefecture_kana": "ミエケン",
    "prefecture_code": "24",
    "city": "鈴鹿市",
    "city_kana": "スズカシ",
    "town": "中江島町",
    "town_kana": "ナカエジマチョウ",
    "street": null,
    "office_name": null,
    "office_name_kana": null
  },
  "0237": {
    "zip_code": "5100237",
    "prefecture": "三重県",
    "prefecture_kana": "ミエケン",
    "prefecture_code": "24",
    "city": "鈴鹿市",
    "city_kana": "スズカシ",
    "town": "江島町",
    "town_kana": "エジマチョウ",
    "street": null,
    "office_name": null,
    "office_name_kana": null
  },
  "0241": {
    "zip_code": "5100241",
    "prefecture": "三重県",
    "prefecture_kana": "ミエケン",
    "prefecture_code": "24",
    "city": "鈴鹿市",
    "city_kana": "スズカシ",
    "town": "白子駅前",
    "town_kana": "シロコエキマエ",
    "street": null,
    "office_name": null,
    "office_name_kana": null
  },
  "0242": {
    "zip_code": "5100242",
    "prefecture": "三重県",
    "prefecture_kana": "ミエケン",
    "prefecture_code": "24",
    "city": "鈴鹿市",
    "city_kana": "スズカシ",
    "town": "白子本町",
    "town_kana": "シロコホンマチ",
    "street": null,
    "office_name": null,
    "office_name_kana": null
  },
  "0243": {
    "zip_code": "5100243",
    "prefecture": "三重県",
    "prefecture_kana": "ミエケン",
    "prefecture_code": "24",
    "city": "鈴鹿市",
    "city_kana": "スズカシ",
    "town": "白子",
    "town_kana": "シロコ",
    "street": null,
    "office_name": null,
    "office_name_kana": null
  },
  "0244": {
    "zip_code": "5100244",
    "prefecture": "三重県",
    "prefecture_kana": "ミエケン",
    "prefecture_code": "24",
    "city": "鈴鹿市",
    "city_kana": "スズカシ",
    "town": "白子町",
    "town_kana": "シロコチョウ",
    "street": null,
    "office_name": null,
    "office_name_kana": null
  },
  "0251": {
    "zip_code": "5100251",
    "prefecture": "三重県",
    "prefecture_kana": "ミエケン",
    "prefecture_code": "24",
    "city": "鈴鹿市",
    "city_kana": "スズカシ",
    "town": "徳田町",
    "town_kana": "トクダチョウ",
    "street": null,
    "office_name": null,
    "office_name_kana": null
  },
  "0252": {
    "zip_code": "5100252",
    "prefecture": "三重県",
    "prefecture_kana": "ミエケン",
    "prefecture_code": "24",
    "city": "鈴鹿市",
    "city_kana": "スズカシ",
    "town": "五祝町",
    "town_kana": "イワイチョウ",
    "street": null,
    "office_name": null,
    "office_name_kana": null
  },
  "0253": {
    "zip_code": "5100253",
    "prefecture": "三重県",
    "prefecture_kana": "ミエケン",
    "prefecture_code": "24",
    "city": "鈴鹿市",
    "city_kana": "スズカシ",
    "town": "寺家町",
    "town_kana": "ジケチョウ",
    "street": null,
    "office_name": null,
    "office_name_kana": null
  },
  "0254": {
    "zip_code": "5100254",
    "prefecture": "三重県",
    "prefecture_kana": "ミエケン",
    "prefecture_code": "24",
    "city": "鈴鹿市",
    "city_kana": "スズカシ",
    "town": "寺家",
    "town_kana": "ジケ",
    "street": null,
    "office_name": null,
    "office_name_kana": null
  },
  "0255": {
    "zip_code": "5100255",
    "prefecture": "三重県",
    "prefecture_kana": "ミエケン",
    "prefecture_code": "24",
    "city": "鈴鹿市",
    "city_kana": "スズカシ",
    "town": "磯山町",
    "town_kana": "イソヤマチョウ",
    "street": null,
    "office_name": null,
    "office_name_kana": null
  },
  "0256": {
    "zip_code": "5100256",
    "prefecture": "三重県",
    "prefecture_kana": "ミエケン",
    "prefecture_code": "24",
    "city": "鈴鹿市",
    "city_kana": "スズカシ",
    "town": "磯山",
    "town_kana": "イソヤマ",
    "street": null,
    "office_name": null,
    "office_name_kana": null
  },
  "0257": {
    "zip_code": "5100257",
    "prefecture": "三重県",
    "prefecture_kana": "ミエケン",
    "prefecture_code": "24",
    "city": "鈴鹿市",
    "city_kana": "スズカシ",
    "town": "東磯山",
    "town_kana": "ヒガシイソヤマ",
    "street": null,
    "office_name": null,
    "office_name_kana": null
  },
  "0258": {
    "zip_code": "5100258",
    "prefecture": "三重県",
    "prefecture_kana": "ミエケン",
    "prefecture_code": "24",
    "city": "鈴鹿市",
    "city_kana": "スズカシ",
    "town": "秋永町",
    "town_kana": "アキナガチョウ",
    "street": null,
    "office_name": null,
    "office_name_kana": null
  },
  "0259": {
    "zip_code": "5100259",
    "prefecture": "三重県",
    "prefecture_kana": "ミエケン",
    "prefecture_code": "24",
    "city": "鈴鹿市",
    "city_kana": "スズカシ",
    "town": "中瀬古町",
    "town_kana": "ナカゼコチョウ",
    "street": null,
    "office_name": null,
    "office_name_kana": null
  },
  "0261": {
    "zip_code": "5100261",
    "prefecture": "三重県",
    "prefecture_kana": "ミエケン",
    "prefecture_code": "24",
    "city": "鈴鹿市",
    "city_kana": "スズカシ",
    "town": "御薗町",
    "town_kana": "ミソノチョウ",
    "street": null,
    "office_name": null,
    "office_name_kana": null
  },
  "0262": {
    "zip_code": "5100262",
    "prefecture": "三重県",
    "prefecture_kana": "ミエケン",
    "prefecture_code": "24",
    "city": "鈴鹿市",
    "city_kana": "スズカシ",
    "town": "越知町",
    "town_kana": "オウチチョウ",
    "street": null,
    "office_name": null,
    "office_name_kana": null
  },
  "0263": {
    "zip_code": "5100263",
    "prefecture": "三重県",
    "prefecture_kana": "ミエケン",
    "prefecture_code": "24",
    "city": "鈴鹿市",
    "city_kana": "スズカシ",
    "town": "郡山町",
    "town_kana": "コオリヤマチョウ",
    "street": null,
    "office_name": null,
    "office_name_kana": null
  },
  "0264": {
    "zip_code": "5100264",
    "prefecture": "三重県",
    "prefecture_kana": "ミエケン",
    "prefecture_code": "24",
    "city": "鈴鹿市",
    "city_kana": "スズカシ",
    "town": "徳居町",
    "town_kana": "トクスイチョウ",
    "street": null,
    "office_name": null,
    "office_name_kana": null
  },
  "0265": {
    "zip_code": "5100265",
    "prefecture": "三重県",
    "prefecture_kana": "ミエケン",
    "prefecture_code": "24",
    "city": "鈴鹿市",
    "city_kana": "スズカシ",
    "town": "三宅町",
    "town_kana": "ミヤケチョウ",
    "street": null,
    "office_name": null,
    "office_name_kana": null
  },
  "0266": {
    "zip_code": "5100266",
    "prefecture": "三重県",
    "prefecture_kana": "ミエケン",
    "prefecture_code": "24",
    "city": "鈴鹿市",
    "city_kana": "スズカシ",
    "town": "長法寺町",
    "town_kana": "チョウボウジチョウ",
    "street": null,
    "office_name": null,
    "office_name_kana": null
  },
  "0292": {
    "zip_code": "5100292",
    "prefecture": "三重県",
    "prefecture_kana": "ミエケン",
    "prefecture_code": "24",
    "city": "鈴鹿市",
    "city_kana": "スズカシ",
    "town": "岸岡町",
    "town_kana": "キシオカチョウ",
    "street": "１９３０",
    "office_name": "株式会社　ケーブルネット鈴鹿",
    "office_name_kana": "カブシキガイシヤ ケ-ブルネツトスズカ"
  },
  "0293": {
    "zip_code": "5100293",
    "prefecture": "三重県",
    "prefecture_kana": "ミエケン",
    "prefecture_code": "24",
    "city": "鈴鹿市",
    "city_kana": "スズカシ",
    "town": "岸岡町",
    "town_kana": "キシオカチョウ",
    "street": "１００１−１",
    "office_name": "鈴鹿医療科学大学",
    "office_name_kana": "スズカイリヨウカガクダイガク"
  },
  "0294": {
    "zip_code": "5100294",
    "prefecture": "三重県",
    "prefecture_kana": "ミエケン",
    "prefecture_code": "24",
    "city": "鈴鹿市",
    "city_kana": "スズカシ",
    "town": "白子町",
    "town_kana": "シロコチョウ",
    "street": "",
    "office_name": "鈴鹿工業高等専門学校",
    "office_name_kana": "スズカコウギヨウコウトウセンモンガツコウ"
  },
  "0295": {
    "zip_code": "5100295",
    "prefecture": "三重県",
    "prefecture_kana": "ミエケン",
    "prefecture_code": "24",
    "city": "鈴鹿市",
    "city_kana": "スズカシ",
    "town": "稲生町",
    "town_kana": "イノウチョウ",
    "street": "７９９２",
    "office_name": "モビリティランド　鈴鹿サーキット",
    "office_name_kana": "モビリテイランド スズカサ-キツト"
  },
  "0298": {
    "zip_code": "5100298",
    "prefecture": "三重県",
    "prefecture_kana": "ミエケン",
    "prefecture_code": "24",
    "city": "鈴鹿市",
    "city_kana": "スズカシ",
    "town": "郡山町",
    "town_kana": "コオリヤマチョウ",
    "street": "６６３−２２２",
    "office_name": "鈴鹿国際大学",
    "office_name_kana": "スズカコクサイダイガク"
  },
  "0301": {
    "zip_code": "5100301",
    "prefecture": "三重県",
    "prefecture_kana": "ミエケン",
    "prefecture_code": "24",
    "city": "津市",
    "city_kana": "ツシ",
    "town": "河芸町西千里",
    "town_kana": "カワゲチョウニシチサト",
    "street": null,
    "office_name": null,
    "office_name_kana": null
  },
  "0302": {
    "zip_code": "5100302",
    "prefecture": "三重県",
    "prefecture_kana": "ミエケン",
    "prefecture_code": "24",
    "city": "津市",
    "city_kana": "ツシ",
    "town": "河芸町千里ケ丘",
    "town_kana": "カワゲチョウチサトガオカ",
    "street": null,
    "office_name": null,
    "office_name_kana": null
  },
  "0303": {
    "zip_code": "5100303",
    "prefecture": "三重県",
    "prefecture_kana": "ミエケン",
    "prefecture_code": "24",
    "city": "津市",
    "city_kana": "ツシ",
    "town": "河芸町東千里",
    "town_kana": "カワゲチョウヒガシチサト",
    "street": null,
    "office_name": null,
    "office_name_kana": null
  },
  "0304": {
    "zip_code": "5100304",
    "prefecture": "三重県",
    "prefecture_kana": "ミエケン",
    "prefecture_code": "24",
    "city": "津市",
    "city_kana": "ツシ",
    "town": "河芸町上野",
    "town_kana": "カワゲチョウウエノ",
    "street": null,
    "office_name": null,
    "office_name_kana": null
  },
  "0305": {
    "zip_code": "5100305",
    "prefecture": "三重県",
    "prefecture_kana": "ミエケン",
    "prefecture_code": "24",
    "city": "津市",
    "city_kana": "ツシ",
    "town": "河芸町中別保",
    "town_kana": "カワゲチョウナカベッポ",
    "street": null,
    "office_name": null,
    "office_name_kana": null
  },
  "0306": {
    "zip_code": "5100306",
    "prefecture": "三重県",
    "prefecture_kana": "ミエケン",
    "prefecture_code": "24",
    "city": "津市",
    "city_kana": "ツシ",
    "town": "河芸町一色",
    "town_kana": "カワゲチョウイッシキ",
    "street": null,
    "office_name": null,
    "office_name_kana": null
  },
  "0307": {
    "zip_code": "5100307",
    "prefecture": "三重県",
    "prefecture_kana": "ミエケン",
    "prefecture_code": "24",
    "city": "津市",
    "city_kana": "ツシ",
    "town": "河芸町影重",
    "town_kana": "カワゲチョウカゲシゲ",
    "street": null,
    "office_name": null,
    "office_name_kana": null
  },
  "0308": {
    "zip_code": "5100308",
    "prefecture": "三重県",
    "prefecture_kana": "ミエケン",
    "prefecture_code": "24",
    "city": "津市",
    "city_kana": "ツシ",
    "town": "河芸町中瀬",
    "town_kana": "カワゲチョウナカゼ",
    "street": null,
    "office_name": null,
    "office_name_kana": null
  },
  "0311": {
    "zip_code": "5100311",
    "prefecture": "三重県",
    "prefecture_kana": "ミエケン",
    "prefecture_code": "24",
    "city": "津市",
    "city_kana": "ツシ",
    "town": "河芸町三行",
    "town_kana": "カワゲチョウミユキ",
    "street": null,
    "office_name": null,
    "office_name_kana": null
  },
  "0312": {
    "zip_code": "5100312",
    "prefecture": "三重県",
    "prefecture_kana": "ミエケン",
    "prefecture_code": "24",
    "city": "津市",
    "city_kana": "ツシ",
    "town": "河芸町久知野",
    "town_kana": "カワゲチョウクチノ",
    "street": null,
    "office_name": null,
    "office_name_kana": null
  },
  "0313": {
    "zip_code": "5100313",
    "prefecture": "三重県",
    "prefecture_kana": "ミエケン",
    "prefecture_code": "24",
    "city": "津市",
    "city_kana": "ツシ",
    "town": "河芸町赤部",
    "town_kana": "カワゲチョウアカブ",
    "street": null,
    "office_name": null,
    "office_name_kana": null
  },
  "0314": {
    "zip_code": "5100314",
    "prefecture": "三重県",
    "prefecture_kana": "ミエケン",
    "prefecture_code": "24",
    "city": "津市",
    "city_kana": "ツシ",
    "town": "河芸町浜田",
    "town_kana": "カワゲチョウハマダ",
    "street": null,
    "office_name": null,
    "office_name_kana": null
  },
  "0315": {
    "zip_code": "5100315",
    "prefecture": "三重県",
    "prefecture_kana": "ミエケン",
    "prefecture_code": "24",
    "city": "津市",
    "city_kana": "ツシ",
    "town": "河芸町高佐",
    "town_kana": "カワゲチョウタカサ",
    "street": null,
    "office_name": null,
    "office_name_kana": null
  },
  "0316": {
    "zip_code": "5100316",
    "prefecture": "三重県",
    "prefecture_kana": "ミエケン",
    "prefecture_code": "24",
    "city": "津市",
    "city_kana": "ツシ",
    "town": "河芸町南黒田",
    "town_kana": "カワゲチョウミナミクロダ",
    "street": null,
    "office_name": null,
    "office_name_kana": null
  },
  "0317": {
    "zip_code": "5100317",
    "prefecture": "三重県",
    "prefecture_kana": "ミエケン",
    "prefecture_code": "24",
    "city": "津市",
    "city_kana": "ツシ",
    "town": "河芸町北黒田",
    "town_kana": "カワゲチョウキタクロダ",
    "street": null,
    "office_name": null,
    "office_name_kana": null
  },
  "0318": {
    "zip_code": "5100318",
    "prefecture": "三重県",
    "prefecture_kana": "ミエケン",
    "prefecture_code": "24",
    "city": "津市",
    "city_kana": "ツシ",
    "town": "河芸町杜の街",
    "town_kana": "カワゲチョウモリノマチ",
    "street": null,
    "office_name": null,
    "office_name_kana": null
  },
  "0392": {
    "zip_code": "5100392",
    "prefecture": "三重県",
    "prefecture_kana": "ミエケン",
    "prefecture_code": "24",
    "city": "津市",
    "city_kana": "ツシ",
    "town": "河芸町浜田",
    "town_kana": "カワゲチョウハマダ",
    "street": "８０８",
    "office_name": "津市　河芸総合支所",
    "office_name_kana": "ツシ カワゲソウゴウシシヨ"
  },
  "0801": {
    "zip_code": "5100801",
    "prefecture": "三重県",
    "prefecture_kana": "ミエケン",
    "prefecture_code": "24",
    "city": "四日市市",
    "city_kana": "ヨッカイチシ",
    "town": "三ツ谷東町",
    "town_kana": "ミツヤヒガシマチ",
    "street": null,
    "office_name": null,
    "office_name_kana": null
  },
  "0802": {
    "zip_code": "5100802",
    "prefecture": "三重県",
    "prefecture_kana": "ミエケン",
    "prefecture_code": "24",
    "city": "四日市市",
    "city_kana": "ヨッカイチシ",
    "town": "三ツ谷町",
    "town_kana": "ミツヤチョウ",
    "street": null,
    "office_name": null,
    "office_name_kana": null
  },
  "0803": {
    "zip_code": "5100803",
    "prefecture": "三重県",
    "prefecture_kana": "ミエケン",
    "prefecture_code": "24",
    "city": "四日市市",
    "city_kana": "ヨッカイチシ",
    "town": "阿倉川町",
    "town_kana": "アクラガワチョウ",
    "street": null,
    "office_name": null,
    "office_name_kana": null
  },
  "0804": {
    "zip_code": "5100804",
    "prefecture": "三重県",
    "prefecture_kana": "ミエケン",
    "prefecture_code": "24",
    "city": "四日市市",
    "city_kana": "ヨッカイチシ",
    "town": "万古町",
    "town_kana": "バンコチョウ",
    "street": null,
    "office_name": null,
    "office_name_kana": null
  },
  "0805": {
    "zip_code": "5100805",
    "prefecture": "三重県",
    "prefecture_kana": "ミエケン",
    "prefecture_code": "24",
    "city": "四日市市",
    "city_kana": "ヨッカイチシ",
    "town": "東阿倉川",
    "town_kana": "ヒガシアクラガワ",
    "street": null,
    "office_name": null,
    "office_name_kana": null
  },
  "0806": {
    "zip_code": "5100806",
    "prefecture": "三重県",
    "prefecture_kana": "ミエケン",
    "prefecture_code": "24",
    "city": "四日市市",
    "city_kana": "ヨッカイチシ",
    "town": "本郷町",
    "town_kana": "ホンゴウチョウ",
    "street": null,
    "office_name": null,
    "office_name_kana": null
  },
  "0807": {
    "zip_code": "5100807",
    "prefecture": "三重県",
    "prefecture_kana": "ミエケン",
    "prefecture_code": "24",
    "city": "四日市市",
    "city_kana": "ヨッカイチシ",
    "town": "末永町",
    "town_kana": "スエナガチョウ",
    "street": null,
    "office_name": null,
    "office_name_kana": null
  },
  "0810": {
    "zip_code": "5100810",
    "prefecture": "三重県",
    "prefecture_kana": "ミエケン",
    "prefecture_code": "24",
    "city": "四日市市",
    "city_kana": "ヨッカイチシ",
    "town": "阿倉川新町",
    "town_kana": "アクラガワシンマチ",
    "street": null,
    "office_name": null,
    "office_name_kana": null
  },
  "0811": {
    "zip_code": "5100811",
    "prefecture": "三重県",
    "prefecture_kana": "ミエケン",
    "prefecture_code": "24",
    "city": "四日市市",
    "city_kana": "ヨッカイチシ",
    "town": "みゆきケ丘",
    "town_kana": "ミユキガオカ",
    "street": null,
    "office_name": null,
    "office_name_kana": null
  },
  "0812": {
    "zip_code": "5100812",
    "prefecture": "三重県",
    "prefecture_kana": "ミエケン",
    "prefecture_code": "24",
    "city": "四日市市",
    "city_kana": "ヨッカイチシ",
    "town": "西阿倉川",
    "town_kana": "ニシアクラガワ",
    "street": null,
    "office_name": null,
    "office_name_kana": null
  },
  "0813": {
    "zip_code": "5100813",
    "prefecture": "三重県",
    "prefecture_kana": "ミエケン",
    "prefecture_code": "24",
    "city": "四日市市",
    "city_kana": "ヨッカイチシ",
    "town": "末永",
    "town_kana": "スエナガ",
    "street": null,
    "office_name": null,
    "office_name_kana": null
  },
  "0814": {
    "zip_code": "5100814",
    "prefecture": "三重県",
    "prefecture_kana": "ミエケン",
    "prefecture_code": "24",
    "city": "四日市市",
    "city_kana": "ヨッカイチシ",
    "town": "清水町",
    "town_kana": "シミズチョウ",
    "street": null,
    "office_name": null,
    "office_name_kana": null
  },
  "0815": {
    "zip_code": "5100815",
    "prefecture": "三重県",
    "prefecture_kana": "ミエケン",
    "prefecture_code": "24",
    "city": "四日市市",
    "city_kana": "ヨッカイチシ",
    "town": "野田",
    "town_kana": "ノダ",
    "street": null,
    "office_name": null,
    "office_name_kana": null
  },
  "0821": {
    "zip_code": "5100821",
    "prefecture": "三重県",
    "prefecture_kana": "ミエケン",
    "prefecture_code": "24",
    "city": "四日市市",
    "city_kana": "ヨッカイチシ",
    "town": "久保田",
    "town_kana": "クボタ",
    "street": null,
    "office_name": null,
    "office_name_kana": null
  },
  "0822": {
    "zip_code": "5100822",
    "prefecture": "三重県",
    "prefecture_kana": "ミエケン",
    "prefecture_code": "24",
    "city": "四日市市",
    "city_kana": "ヨッカイチシ",
    "town": "芝田",
    "town_kana": "シバタ",
    "street": null,
    "office_name": null,
    "office_name_kana": null
  },
  "0823": {
    "zip_code": "5100823",
    "prefecture": "三重県",
    "prefecture_kana": "ミエケン",
    "prefecture_code": "24",
    "city": "四日市市",
    "city_kana": "ヨッカイチシ",
    "town": "城北町",
    "town_kana": "シロキタチョウ",
    "street": null,
    "office_name": null,
    "office_name_kana": null
  },
  "0824": {
    "zip_code": "5100824",
    "prefecture": "三重県",
    "prefecture_kana": "ミエケン",
    "prefecture_code": "24",
    "city": "四日市市",
    "city_kana": "ヨッカイチシ",
    "town": "城東町",
    "town_kana": "シロヒガシマチ",
    "street": null,
    "office_name": null,
    "office_name_kana": null
  },
  "0825": {
    "zip_code": "5100825",
    "prefecture": "三重県",
    "prefecture_kana": "ミエケン",
    "prefecture_code": "24",
    "city": "四日市市",
    "city_kana": "ヨッカイチシ",
    "town": "赤堀新町",
    "town_kana": "アカホリシンマチ",
    "street": null,
    "office_name": null,
    "office_name_kana": null
  },
  "0826": {
    "zip_code": "5100826",
    "prefecture": "三重県",
    "prefecture_kana": "ミエケン",
    "prefecture_code": "24",
    "city": "四日市市",
    "city_kana": "ヨッカイチシ",
    "town": "赤堀",
    "town_kana": "アカホリ",
    "street": null,
    "office_name": null,
    "office_name_kana": null
  },
  "0827": {
    "zip_code": "5100827",
    "prefecture": "三重県",
    "prefecture_kana": "ミエケン",
    "prefecture_code": "24",
    "city": "四日市市",
    "city_kana": "ヨッカイチシ",
    "town": "赤堀南町",
    "town_kana": "アカホリミナミマチ",
    "street": null,
    "office_name": null,
    "office_name_kana": null
  },
  "0828": {
    "zip_code": "5100828",
    "prefecture": "三重県",
    "prefecture_kana": "ミエケン",
    "prefecture_code": "24",
    "city": "四日市市",
    "city_kana": "ヨッカイチシ",
    "town": "石塚町",
    "town_kana": "イシヅカチョウ",
    "street": null,
    "office_name": null,
    "office_name_kana": null
  },
  "0829": {
    "zip_code": "5100829",
    "prefecture": "三重県",
    "prefecture_kana": "ミエケン",
    "prefecture_code": "24",
    "city": "四日市市",
    "city_kana": "ヨッカイチシ",
    "town": "城西町",
    "town_kana": "シロニシチョウ",
    "street": null,
    "office_name": null,
    "office_name_kana": null
  },
  "0831": {
    "zip_code": "5100831",
    "prefecture": "三重県",
    "prefecture_kana": "ミエケン",
    "prefecture_code": "24",
    "city": "四日市市",
    "city_kana": "ヨッカイチシ",
    "town": "西伊倉町",
    "town_kana": "ニシイグラチョウ",
    "street": null,
    "office_name": null,
    "office_name_kana": null
  },
  "0832": {
    "zip_code": "5100832",
    "prefecture": "三重県",
    "prefecture_kana": "ミエケン",
    "prefecture_code": "24",
    "city": "四日市市",
    "city_kana": "ヨッカイチシ",
    "town": "伊倉",
    "town_kana": "イグラ",
    "street": null,
    "office_name": null,
    "office_name_kana": null
  },
  "0833": {
    "zip_code": "5100833",
    "prefecture": "三重県",
    "prefecture_kana": "ミエケン",
    "prefecture_code": "24",
    "city": "四日市市",
    "city_kana": "ヨッカイチシ",
    "town": "中川原",
    "town_kana": "ナカガワラ",
    "street": null,
    "office_name": null,
    "office_name_kana": null
  },
  "0834": {
    "zip_code": "5100834",
    "prefecture": "三重県",
    "prefecture_kana": "ミエケン",
    "prefecture_code": "24",
    "city": "四日市市",
    "city_kana": "ヨッカイチシ",
    "town": "ときわ",
    "town_kana": "トキワ",
    "street": null,
    "office_name": null,
    "office_name_kana": null
  },
  "0835": {
    "zip_code": "5100835",
    "prefecture": "三重県",
    "prefecture_kana": "ミエケン",
    "prefecture_code": "24",
    "city": "四日市市",
    "city_kana": "ヨッカイチシ",
    "town": "大井手",
    "town_kana": "オオイデ",
    "street": null,
    "office_name": null,
    "office_name_kana": null
  },
  "0836": {
    "zip_code": "5100836",
    "prefecture": "三重県",
    "prefecture_kana": "ミエケン",
    "prefecture_code": "24",
    "city": "四日市市",
    "city_kana": "ヨッカイチシ",
    "town": "松本",
    "town_kana": "マツモト",
    "street": null,
    "office_name": null,
    "office_name_kana": null
  },
  "0837": {
    "zip_code": "5100837",
    "prefecture": "三重県",
    "prefecture_kana": "ミエケン",
    "prefecture_code": "24",
    "city": "四日市市",
    "city_kana": "ヨッカイチシ",
    "town": "西松本町",
    "town_kana": "ニシマツモトチョウ",
    "street": null,
    "office_name": null,
    "office_name_kana": null
  },
  "0838": {
    "zip_code": "5100838",
    "prefecture": "三重県",
    "prefecture_kana": "ミエケン",
    "prefecture_code": "24",
    "city": "四日市市",
    "city_kana": "ヨッカイチシ",
    "town": "南松本町",
    "town_kana": "ミナミマツモトチョウ",
    "street": null,
    "office_name": null,
    "office_name_kana": null
  },
  "0839": {
    "zip_code": "5100839",
    "prefecture": "三重県",
    "prefecture_kana": "ミエケン",
    "prefecture_code": "24",
    "city": "四日市市",
    "city_kana": "ヨッカイチシ",
    "town": "青葉町",
    "town_kana": "アオバチョウ",
    "street": null,
    "office_name": null,
    "office_name_kana": null
  },
  "0841": {
    "zip_code": "5100841",
    "prefecture": "三重県",
    "prefecture_kana": "ミエケン",
    "prefecture_code": "24",
    "city": "四日市市",
    "city_kana": "ヨッカイチシ",
    "town": "三田町",
    "town_kana": "ミタチョウ",
    "street": null,
    "office_name": null,
    "office_name_kana": null
  },
  "0842": {
    "zip_code": "5100842",
    "prefecture": "三重県",
    "prefecture_kana": "ミエケン",
    "prefecture_code": "24",
    "city": "四日市市",
    "city_kana": "ヨッカイチシ",
    "town": "石原町",
    "town_kana": "イシハラチョウ",
    "street": null,
    "office_name": null,
    "office_name_kana": null
  },
  "0843": {
    "zip_code": "5100843",
    "prefecture": "三重県",
    "prefecture_kana": "ミエケン",
    "prefecture_code": "24",
    "city": "四日市市",
    "city_kana": "ヨッカイチシ",
    "town": "宮東町",
    "town_kana": "ミヤヒガシチョウ",
    "street": null,
    "office_name": null,
    "office_name_kana": null
  },
  "0844": {
    "zip_code": "5100844",
    "prefecture": "三重県",
    "prefecture_kana": "ミエケン",
    "prefecture_code": "24",
    "city": "四日市市",
    "city_kana": "ヨッカイチシ",
    "town": "宝町",
    "town_kana": "タカラマチ",
    "street": null,
    "office_name": null,
    "office_name_kana": null
  },
  "0845": {
    "zip_code": "5100845",
    "prefecture": "三重県",
    "prefecture_kana": "ミエケン",
    "prefecture_code": "24",
    "city": "四日市市",
    "city_kana": "ヨッカイチシ",
    "town": "海山道町",
    "town_kana": "ミヤマドチョウ",
    "street": null,
    "office_name": null,
    "office_name_kana": null
  },
  "0846": {
    "zip_code": "5100846",
    "prefecture": "三重県",
    "prefecture_kana": "ミエケン",
    "prefecture_code": "24",
    "city": "四日市市",
    "city_kana": "ヨッカイチシ",
    "town": "大井の川町",
    "town_kana": "オオイノカワチョウ",
    "street": null,
    "office_name": null,
    "office_name_kana": null
  },
  "0847": {
    "zip_code": "5100847",
    "prefecture": "三重県",
    "prefecture_kana": "ミエケン",
    "prefecture_code": "24",
    "city": "四日市市",
    "city_kana": "ヨッカイチシ",
    "town": "大浜町",
    "town_kana": "オオハマチョウ",
    "street": null,
    "office_name": null,
    "office_name_kana": null
  },
  "0848": {
    "zip_code": "5100848",
    "prefecture": "三重県",
    "prefecture_kana": "ミエケン",
    "prefecture_code": "24",
    "city": "四日市市",
    "city_kana": "ヨッカイチシ",
    "town": "東邦町",
    "town_kana": "トウホウチョウ",
    "street": null,
    "office_name": null,
    "office_name_kana": null
  },
  "0851": {
    "zip_code": "5100851",
    "prefecture": "三重県",
    "prefecture_kana": "ミエケン",
    "prefecture_code": "24",
    "city": "四日市市",
    "city_kana": "ヨッカイチシ",
    "town": "塩浜町",
    "town_kana": "シオハマチョウ",
    "street": null,
    "office_name": null,
    "office_name_kana": null
  },
  "0852": {
    "zip_code": "5100852",
    "prefecture": "三重県",
    "prefecture_kana": "ミエケン",
    "prefecture_code": "24",
    "city": "四日市市",
    "city_kana": "ヨッカイチシ",
    "town": "浜旭町",
    "town_kana": "ハマアサヒチョウ",
    "street": null,
    "office_name": null,
    "office_name_kana": null
  },
  "0853": {
    "zip_code": "5100853",
    "prefecture": "三重県",
    "prefecture_kana": "ミエケン",
    "prefecture_code": "24",
    "city": "四日市市",
    "city_kana": "ヨッカイチシ",
    "town": "川合町",
    "town_kana": "カワイチョウ",
    "street": null,
    "office_name": null,
    "office_name_kana": null
  },
  "0854": {
    "zip_code": "5100854",
    "prefecture": "三重県",
    "prefecture_kana": "ミエケン",
    "prefecture_code": "24",
    "city": "四日市市",
    "city_kana": "ヨッカイチシ",
    "town": "塩浜本町",
    "town_kana": "シオハマホンマチ",
    "street": null,
    "office_name": null,
    "office_name_kana": null
  },
  "0855": {
    "zip_code": "5100855",
    "prefecture": "三重県",
    "prefecture_kana": "ミエケン",
    "prefecture_code": "24",
    "city": "四日市市",
    "city_kana": "ヨッカイチシ",
    "town": "馳出町",
    "town_kana": "ハセダシチョウ",
    "street": null,
    "office_name": null,
    "office_name_kana": null
  },
  "0856": {
    "zip_code": "5100856",
    "prefecture": "三重県",
    "prefecture_kana": "ミエケン",
    "prefecture_code": "24",
    "city": "四日市市",
    "city_kana": "ヨッカイチシ",
    "town": "七つ屋町",
    "town_kana": "ナナツヤチョウ",
    "street": null,
    "office_name": null,
    "office_name_kana": null
  },
  "0857": {
    "zip_code": "5100857",
    "prefecture": "三重県",
    "prefecture_kana": "ミエケン",
    "prefecture_code": "24",
    "city": "四日市市",
    "city_kana": "ヨッカイチシ",
    "town": "高旭町",
    "town_kana": "タカアサヒチョウ",
    "street": null,
    "office_name": null,
    "office_name_kana": null
  },
  "0861": {
    "zip_code": "5100861",
    "prefecture": "三重県",
    "prefecture_kana": "ミエケン",
    "prefecture_code": "24",
    "city": "四日市市",
    "city_kana": "ヨッカイチシ",
    "town": "柳町",
    "town_kana": "ヤナギマチ",
    "street": null,
    "office_name": null,
    "office_name_kana": null
  },
  "0862": {
    "zip_code": "5100862",
    "prefecture": "三重県",
    "prefecture_kana": "ミエケン",
    "prefecture_code": "24",
    "city": "四日市市",
    "city_kana": "ヨッカイチシ",
    "town": "御薗町",
    "town_kana": "ミソノチョウ",
    "street": null,
    "office_name": null,
    "office_name_kana": null
  },
  "0863": [
    {
      "zip_code": "5100863",
      "prefecture": "三重県",
      "prefecture_kana": "ミエケン",
      "prefecture_code": "24",
      "city": "四日市市",
      "city_kana": "ヨッカイチシ",
      "town": "磯津",
      "town_kana": "イソヅ",
      "street": null,
      "office_name": null,
      "office_name_kana": null
    },
    {
      "zip_code": "5100863",
      "prefecture": "三重県",
      "prefecture_kana": "ミエケン",
      "prefecture_code": "24",
      "city": "四日市市",
      "city_kana": "ヨッカイチシ",
      "town": "大里町",
      "town_kana": "オオザトチョウ",
      "street": null,
      "office_name": null,
      "office_name_kana": null
    },
    {
      "zip_code": "5100863",
      "prefecture": "三重県",
      "prefecture_kana": "ミエケン",
      "prefecture_code": "24",
      "city": "四日市市",
      "city_kana": "ヨッカイチシ",
      "town": "塩浜",
      "town_kana": "シオハマ",
      "street": null,
      "office_name": null,
      "office_name_kana": null
    },
    {
      "zip_code": "5100863",
      "prefecture": "三重県",
      "prefecture_kana": "ミエケン",
      "prefecture_code": "24",
      "city": "四日市市",
      "city_kana": "ヨッカイチシ",
      "town": "塩浜栄町",
      "town_kana": "シオハマサカエマチ",
      "street": null,
      "office_name": null,
      "office_name_kana": null
    }
  ],
  "0864": {
    "zip_code": "5100864",
    "prefecture": "三重県",
    "prefecture_kana": "ミエケン",
    "prefecture_code": "24",
    "city": "四日市市",
    "city_kana": "ヨッカイチシ",
    "town": "中里町",
    "town_kana": "ナカザトチョウ",
    "street": null,
    "office_name": null,
    "office_name_kana": null
  },
  "0865": {
    "zip_code": "5100865",
    "prefecture": "三重県",
    "prefecture_kana": "ミエケン",
    "prefecture_code": "24",
    "city": "四日市市",
    "city_kana": "ヨッカイチシ",
    "town": "小浜町",
    "town_kana": "コハマチョウ",
    "street": null,
    "office_name": null,
    "office_name_kana": null
  },
  "0866": {
    "zip_code": "5100866",
    "prefecture": "三重県",
    "prefecture_kana": "ミエケン",
    "prefecture_code": "24",
    "city": "四日市市",
    "city_kana": "ヨッカイチシ",
    "town": "大池町",
    "town_kana": "オオイケチョウ",
    "street": null,
    "office_name": null,
    "office_name_kana": null
  },
  "0867": {
    "zip_code": "5100867",
    "prefecture": "三重県",
    "prefecture_kana": "ミエケン",
    "prefecture_code": "24",
    "city": "四日市市",
    "city_kana": "ヨッカイチシ",
    "town": "松泉町",
    "town_kana": "ショウセンチョウ",
    "street": null,
    "office_name": null,
    "office_name_kana": null
  },
  "0868": {
    "zip_code": "5100868",
    "prefecture": "三重県",
    "prefecture_kana": "ミエケン",
    "prefecture_code": "24",
    "city": "四日市市",
    "city_kana": "ヨッカイチシ",
    "town": "馳出",
    "town_kana": "ハセダシ",
    "street": null,
    "office_name": null,
    "office_name_kana": null
  },
  "0871": {
    "zip_code": "5100871",
    "prefecture": "三重県",
    "prefecture_kana": "ミエケン",
    "prefecture_code": "24",
    "city": "四日市市",
    "city_kana": "ヨッカイチシ",
    "town": "川尻町",
    "town_kana": "カワジリチョウ",
    "street": null,
    "office_name": null,
    "office_name_kana": null
  },
  "0872": {
    "zip_code": "5100872",
    "prefecture": "三重県",
    "prefecture_kana": "ミエケン",
    "prefecture_code": "24",
    "city": "四日市市",
    "city_kana": "ヨッカイチシ",
    "town": "内堀町",
    "town_kana": "ウツボリチョウ",
    "street": null,
    "office_name": null,
    "office_name_kana": null
  },
  "0873": {
    "zip_code": "5100873",
    "prefecture": "三重県",
    "prefecture_kana": "ミエケン",
    "prefecture_code": "24",
    "city": "四日市市",
    "city_kana": "ヨッカイチシ",
    "town": "貝塚町",
    "town_kana": "カイヅカチョウ",
    "street": null,
    "office_name": null,
    "office_name_kana": null
  },
  "0874": {
    "zip_code": "5100874",
    "prefecture": "三重県",
    "prefecture_kana": "ミエケン",
    "prefecture_code": "24",
    "city": "四日市市",
    "city_kana": "ヨッカイチシ",
    "town": "河原田町",
    "town_kana": "カワラダチョウ",
    "street": null,
    "office_name": null,
    "office_name_kana": null
  },
  "0875": {
    "zip_code": "5100875",
    "prefecture": "三重県",
    "prefecture_kana": "ミエケン",
    "prefecture_code": "24",
    "city": "四日市市",
    "city_kana": "ヨッカイチシ",
    "town": "大治田",
    "town_kana": "オバタ",
    "street": null,
    "office_name": null,
    "office_name_kana": null
  },
  "0881": {
    "zip_code": "5100881",
    "prefecture": "三重県",
    "prefecture_kana": "ミエケン",
    "prefecture_code": "24",
    "city": "四日市市",
    "city_kana": "ヨッカイチシ",
    "town": "六呂見",
    "town_kana": "ロクロミ",
    "street": null,
    "office_name": null,
    "office_name_kana": null
  },
  "0882": {
    "zip_code": "5100882",
    "prefecture": "三重県",
    "prefecture_kana": "ミエケン",
    "prefecture_code": "24",
    "city": "四日市市",
    "city_kana": "ヨッカイチシ",
    "town": "追分",
    "town_kana": "オイワケ",
    "street": null,
    "office_name": null,
    "office_name_kana": null
  },
  "0883": {
    "zip_code": "5100883",
    "prefecture": "三重県",
    "prefecture_kana": "ミエケン",
    "prefecture_code": "24",
    "city": "四日市市",
    "city_kana": "ヨッカイチシ",
    "town": "泊小柳町",
    "town_kana": "トマリコヤナギチョウ",
    "street": null,
    "office_name": null,
    "office_name_kana": null
  },
  "0884": {
    "zip_code": "5100884",
    "prefecture": "三重県",
    "prefecture_kana": "ミエケン",
    "prefecture_code": "24",
    "city": "四日市市",
    "city_kana": "ヨッカイチシ",
    "town": "泊町",
    "town_kana": "トマリチョウ",
    "street": null,
    "office_name": null,
    "office_name_kana": null
  },
  "0885": {
    "zip_code": "5100885",
    "prefecture": "三重県",
    "prefecture_kana": "ミエケン",
    "prefecture_code": "24",
    "city": "四日市市",
    "city_kana": "ヨッカイチシ",
    "town": "日永",
    "town_kana": "ヒナガ",
    "street": null,
    "office_name": null,
    "office_name_kana": null
  },
  "0886": {
    "zip_code": "5100886",
    "prefecture": "三重県",
    "prefecture_kana": "ミエケン",
    "prefecture_code": "24",
    "city": "四日市市",
    "city_kana": "ヨッカイチシ",
    "town": "日永東",
    "town_kana": "ヒナガヒガシ",
    "street": null,
    "office_name": null,
    "office_name_kana": null
  },
  "0891": {
    "zip_code": "5100891",
    "prefecture": "三重県",
    "prefecture_kana": "ミエケン",
    "prefecture_code": "24",
    "city": "四日市市",
    "city_kana": "ヨッカイチシ",
    "town": "日永西",
    "town_kana": "ヒナガニシ",
    "street": null,
    "office_name": null,
    "office_name_kana": null
  },
  "0892": {
    "zip_code": "5100892",
    "prefecture": "三重県",
    "prefecture_kana": "ミエケン",
    "prefecture_code": "24",
    "city": "四日市市",
    "city_kana": "ヨッカイチシ",
    "town": "泊山崎町",
    "town_kana": "トマリヤマザキチョウ",
    "street": null,
    "office_name": null,
    "office_name_kana": null
  },
  "0893": {
    "zip_code": "5100893",
    "prefecture": "三重県",
    "prefecture_kana": "ミエケン",
    "prefecture_code": "24",
    "city": "四日市市",
    "city_kana": "ヨッカイチシ",
    "town": "前田町",
    "town_kana": "マエダチョウ",
    "street": null,
    "office_name": null,
    "office_name_kana": null
  },
  "0894": {
    "zip_code": "5100894",
    "prefecture": "三重県",
    "prefecture_kana": "ミエケン",
    "prefecture_code": "24",
    "city": "四日市市",
    "city_kana": "ヨッカイチシ",
    "town": "泊村",
    "town_kana": "トマリムラ",
    "street": null,
    "office_name": null,
    "office_name_kana": null
  },
  "0941": {
    "zip_code": "5100941",
    "prefecture": "三重県",
    "prefecture_kana": "ミエケン",
    "prefecture_code": "24",
    "city": "四日市市",
    "city_kana": "ヨッカイチシ",
    "town": "東日野",
    "town_kana": "ヒガシヒノ",
    "street": null,
    "office_name": null,
    "office_name_kana": null
  },
  "0942": {
    "zip_code": "5100942",
    "prefecture": "三重県",
    "prefecture_kana": "ミエケン",
    "prefecture_code": "24",
    "city": "四日市市",
    "city_kana": "ヨッカイチシ",
    "town": "東日野町",
    "town_kana": "ヒガシヒノチョウ",
    "street": null,
    "office_name": null,
    "office_name_kana": null
  },
  "0943": {
    "zip_code": "5100943",
    "prefecture": "三重県",
    "prefecture_kana": "ミエケン",
    "prefecture_code": "24",
    "city": "四日市市",
    "city_kana": "ヨッカイチシ",
    "town": "西日野町",
    "town_kana": "ニシヒノチョウ",
    "street": null,
    "office_name": null,
    "office_name_kana": null
  },
  "0944": {
    "zip_code": "5100944",
    "prefecture": "三重県",
    "prefecture_kana": "ミエケン",
    "prefecture_code": "24",
    "city": "四日市市",
    "city_kana": "ヨッカイチシ",
    "town": "笹川",
    "town_kana": "ササガワ",
    "street": null,
    "office_name": null,
    "office_name_kana": null
  },
  "0945": {
    "zip_code": "5100945",
    "prefecture": "三重県",
    "prefecture_kana": "ミエケン",
    "prefecture_code": "24",
    "city": "四日市市",
    "city_kana": "ヨッカイチシ",
    "town": "高花平",
    "town_kana": "タカハナダイラ",
    "street": null,
    "office_name": null,
    "office_name_kana": null
  },
  "0946": {
    "zip_code": "5100946",
    "prefecture": "三重県",
    "prefecture_kana": "ミエケン",
    "prefecture_code": "24",
    "city": "四日市市",
    "city_kana": "ヨッカイチシ",
    "town": "小林町",
    "town_kana": "コバヤシチョウ",
    "street": null,
    "office_name": null,
    "office_name_kana": null
  },
  "0947": {
    "zip_code": "5100947",
    "prefecture": "三重県",
    "prefecture_kana": "ミエケン",
    "prefecture_code": "24",
    "city": "四日市市",
    "city_kana": "ヨッカイチシ",
    "town": "八王子町",
    "town_kana": "ハチオウジチョウ",
    "street": null,
    "office_name": null,
    "office_name_kana": null
  },
  "0948": {
    "zip_code": "5100948",
    "prefecture": "三重県",
    "prefecture_kana": "ミエケン",
    "prefecture_code": "24",
    "city": "四日市市",
    "city_kana": "ヨッカイチシ",
    "town": "室山町",
    "town_kana": "ムロヤマチョウ",
    "street": null,
    "office_name": null,
    "office_name_kana": null
  },
  "0951": {
    "zip_code": "5100951",
    "prefecture": "三重県",
    "prefecture_kana": "ミエケン",
    "prefecture_code": "24",
    "city": "四日市市",
    "city_kana": "ヨッカイチシ",
    "town": "小古曽東",
    "town_kana": "オゴソヒガシ",
    "street": null,
    "office_name": null,
    "office_name_kana": null
  },
  "0952": {
    "zip_code": "5100952",
    "prefecture": "三重県",
    "prefecture_kana": "ミエケン",
    "prefecture_code": "24",
    "city": "四日市市",
    "city_kana": "ヨッカイチシ",
    "town": "小古曽町",
    "town_kana": "オゴソチョウ",
    "street": null,
    "office_name": null,
    "office_name_kana": null
  },
  "0953": {
    "zip_code": "5100953",
    "prefecture": "三重県",
    "prefecture_kana": "ミエケン",
    "prefecture_code": "24",
    "city": "四日市市",
    "city_kana": "ヨッカイチシ",
    "town": "釆女が丘",
    "town_kana": "ウネメガオカ",
    "street": null,
    "office_name": null,
    "office_name_kana": null
  },
  "0954": {
    "zip_code": "5100954",
    "prefecture": "三重県",
    "prefecture_kana": "ミエケン",
    "prefecture_code": "24",
    "city": "四日市市",
    "city_kana": "ヨッカイチシ",
    "town": "釆女町",
    "town_kana": "ウネメチョウ",
    "street": null,
    "office_name": null,
    "office_name_kana": null
  },
  "0955": {
    "zip_code": "5100955",
    "prefecture": "三重県",
    "prefecture_kana": "ミエケン",
    "prefecture_code": "24",
    "city": "四日市市",
    "city_kana": "ヨッカイチシ",
    "town": "北小松町",
    "town_kana": "キタコマツチョウ",
    "street": null,
    "office_name": null,
    "office_name_kana": null
  },
  "0956": {
    "zip_code": "5100956",
    "prefecture": "三重県",
    "prefecture_kana": "ミエケン",
    "prefecture_code": "24",
    "city": "四日市市",
    "city_kana": "ヨッカイチシ",
    "town": "貝家町",
    "town_kana": "カイゲチョウ",
    "street": null,
    "office_name": null,
    "office_name_kana": null
  },
  "0957": {
    "zip_code": "5100957",
    "prefecture": "三重県",
    "prefecture_kana": "ミエケン",
    "prefecture_code": "24",
    "city": "四日市市",
    "city_kana": "ヨッカイチシ",
    "town": "森カ山町",
    "town_kana": "モリガヤマチョウ",
    "street": null,
    "office_name": null,
    "office_name_kana": null
  },
  "0958": {
    "zip_code": "5100958",
    "prefecture": "三重県",
    "prefecture_kana": "ミエケン",
    "prefecture_code": "24",
    "city": "四日市市",
    "city_kana": "ヨッカイチシ",
    "town": "小古曽",
    "town_kana": "オゴソ",
    "street": null,
    "office_name": null,
    "office_name_kana": null
  },
  "0961": {
    "zip_code": "5100961",
    "prefecture": "三重県",
    "prefecture_kana": "ミエケン",
    "prefecture_code": "24",
    "city": "四日市市",
    "city_kana": "ヨッカイチシ",
    "town": "波木町",
    "town_kana": "ハギチョウ",
    "street": null,
    "office_name": null,
    "office_name_kana": null
  },
  "0962": {
    "zip_code": "5100962",
    "prefecture": "三重県",
    "prefecture_kana": "ミエケン",
    "prefecture_code": "24",
    "city": "四日市市",
    "city_kana": "ヨッカイチシ",
    "town": "波木が丘町",
    "town_kana": "ハギガオカチョウ",
    "street": null,
    "office_name": null,
    "office_name_kana": null
  },
  "0963": {
    "zip_code": "5100963",
    "prefecture": "三重県",
    "prefecture_kana": "ミエケン",
    "prefecture_code": "24",
    "city": "四日市市",
    "city_kana": "ヨッカイチシ",
    "town": "波木南台",
    "town_kana": "ハギミナミダイ",
    "street": null,
    "office_name": null,
    "office_name_kana": null
  },
  "0971": {
    "zip_code": "5100971",
    "prefecture": "三重県",
    "prefecture_kana": "ミエケン",
    "prefecture_code": "24",
    "city": "四日市市",
    "city_kana": "ヨッカイチシ",
    "town": "南小松町",
    "town_kana": "ミナミコマツチョウ",
    "street": null,
    "office_name": null,
    "office_name_kana": null
  },
  "1200": {
    "zip_code": "5101200",
    "prefecture": "三重県",
    "prefecture_kana": "ミエケン",
    "prefecture_code": "24",
    "city": "三重郡菰野町",
    "city_kana": "ミエグンコモノチョウ",
    "town": "",
    "town_kana": "",
    "street": null,
    "office_name": null,
    "office_name_kana": null
  },
  "1221": {
    "zip_code": "5101221",
    "prefecture": "三重県",
    "prefecture_kana": "ミエケン",
    "prefecture_code": "24",
    "city": "三重郡菰野町",
    "city_kana": "ミエグンコモノチョウ",
    "town": "池底",
    "town_kana": "イケゾコ",
    "street": null,
    "office_name": null,
    "office_name_kana": null
  },
  "1222": {
    "zip_code": "5101222",
    "prefecture": "三重県",
    "prefecture_kana": "ミエケン",
    "prefecture_code": "24",
    "city": "三重郡菰野町",
    "city_kana": "ミエグンコモノチョウ",
    "town": "大強原",
    "town_kana": "オオゴハラ",
    "street": null,
    "office_name": null,
    "office_name_kana": null
  },
  "1223": {
    "zip_code": "5101223",
    "prefecture": "三重県",
    "prefecture_kana": "ミエケン",
    "prefecture_code": "24",
    "city": "三重郡菰野町",
    "city_kana": "ミエグンコモノチョウ",
    "town": "諏訪",
    "town_kana": "スワ",
    "street": null,
    "office_name": null,
    "office_name_kana": null
  },
  "1224": {
    "zip_code": "5101224",
    "prefecture": "三重県",
    "prefecture_kana": "ミエケン",
    "prefecture_code": "24",
    "city": "三重郡菰野町",
    "city_kana": "ミエグンコモノチョウ",
    "town": "川北",
    "town_kana": "カワキタ",
    "street": null,
    "office_name": null,
    "office_name_kana": null
  },
  "1225": {
    "zip_code": "5101225",
    "prefecture": "三重県",
    "prefecture_kana": "ミエケン",
    "prefecture_code": "24",
    "city": "三重郡菰野町",
    "city_kana": "ミエグンコモノチョウ",
    "town": "下村",
    "town_kana": "シモムラ",
    "street": null,
    "office_name": null,
    "office_name_kana": null
  },
  "1226": {
    "zip_code": "5101226",
    "prefecture": "三重県",
    "prefecture_kana": "ミエケン",
    "prefecture_code": "24",
    "city": "三重郡菰野町",
    "city_kana": "ミエグンコモノチョウ",
    "town": "吉沢",
    "town_kana": "ヨシザワ",
    "street": null,
    "office_name": null,
    "office_name_kana": null
  },
  "1231": {
    "zip_code": "5101231",
    "prefecture": "三重県",
    "prefecture_kana": "ミエケン",
    "prefecture_code": "24",
    "city": "三重郡菰野町",
    "city_kana": "ミエグンコモノチョウ",
    "town": "神森",
    "town_kana": "カモリ",
    "street": null,
    "office_name": null,
    "office_name_kana": null
  },
  "1232": {
    "zip_code": "5101232",
    "prefecture": "三重県",
    "prefecture_kana": "ミエケン",
    "prefecture_code": "24",
    "city": "三重郡菰野町",
    "city_kana": "ミエグンコモノチョウ",
    "town": "宿野",
    "town_kana": "シュクノ",
    "street": null,
    "office_name": null,
    "office_name_kana": null
  },
  "1233": {
    "zip_code": "5101233",
    "prefecture": "三重県",
    "prefecture_kana": "ミエケン",
    "prefecture_code": "24",
    "city": "三重郡菰野町",
    "city_kana": "ミエグンコモノチョウ",
    "town": "菰野",
    "town_kana": "コモノ",
    "street": null,
    "office_name": null,
    "office_name_kana": null
  },
  "1234": {
    "zip_code": "5101234",
    "prefecture": "三重県",
    "prefecture_kana": "ミエケン",
    "prefecture_code": "24",
    "city": "三重郡菰野町",
    "city_kana": "ミエグンコモノチョウ",
    "town": "福村",
    "town_kana": "フクムラ",
    "street": null,
    "office_name": null,
    "office_name_kana": null
  },
  "1235": {
    "zip_code": "5101235",
    "prefecture": "三重県",
    "prefecture_kana": "ミエケン",
    "prefecture_code": "24",
    "city": "三重郡菰野町",
    "city_kana": "ミエグンコモノチョウ",
    "town": "宝永台",
    "town_kana": "ホウエイダイ",
    "street": null,
    "office_name": null,
    "office_name_kana": null
  },
  "1236": {
    "zip_code": "5101236",
    "prefecture": "三重県",
    "prefecture_kana": "ミエケン",
    "prefecture_code": "24",
    "city": "三重郡菰野町",
    "city_kana": "ミエグンコモノチョウ",
    "town": "初若の郷",
    "town_kana": "ハツワカノサト",
    "street": null,
    "office_name": null,
    "office_name_kana": null
  },
  "1241": {
    "zip_code": "5101241",
    "prefecture": "三重県",
    "prefecture_kana": "ミエケン",
    "prefecture_code": "24",
    "city": "三重郡菰野町",
    "city_kana": "ミエグンコモノチョウ",
    "town": "大羽根園新林町",
    "town_kana": "オオバネエンシンバヤシチョウ",
    "street": null,
    "office_name": null,
    "office_name_kana": null
  },
  "1242": {
    "zip_code": "5101242",
    "prefecture": "三重県",
    "prefecture_kana": "ミエケン",
    "prefecture_code": "24",
    "city": "三重郡菰野町",
    "city_kana": "ミエグンコモノチョウ",
    "town": "大羽根園柴垣町",
    "town_kana": "オオバネエンシバガキチョウ",
    "street": null,
    "office_name": null,
    "office_name_kana": null
  },
  "1243": {
    "zip_code": "5101243",
    "prefecture": "三重県",
    "prefecture_kana": "ミエケン",
    "prefecture_code": "24",
    "city": "三重郡菰野町",
    "city_kana": "ミエグンコモノチョウ",
    "town": "大羽根園呉竹町",
    "town_kana": "オオバネエンクレタケチョウ",
    "street": null,
    "office_name": null,
    "office_name_kana": null
  },
  "1244": {
    "zip_code": "5101244",
    "prefecture": "三重県",
    "prefecture_kana": "ミエケン",
    "prefecture_code": "24",
    "city": "三重郡菰野町",
    "city_kana": "ミエグンコモノチョウ",
    "town": "大羽根園並木通",
    "town_kana": "オオバネエンナミキドオリ",
    "street": null,
    "office_name": null,
    "office_name_kana": null
  },
  "1245": {
    "zip_code": "5101245",
    "prefecture": "三重県",
    "prefecture_kana": "ミエケン",
    "prefecture_code": "24",
    "city": "三重郡菰野町",
    "city_kana": "ミエグンコモノチョウ",
    "town": "大羽根園松ケ枝町",
    "town_kana": "オオバネエンマツガエチョウ",
    "street": null,
    "office_name": null,
    "office_name_kana": null
  },
  "1246": {
    "zip_code": "5101246",
    "prefecture": "三重県",
    "prefecture_kana": "ミエケン",
    "prefecture_code": "24",
    "city": "三重郡菰野町",
    "city_kana": "ミエグンコモノチョウ",
    "town": "大羽根園青葉町",
    "town_kana": "オオバネエンアオバチョウ",
    "street": null,
    "office_name": null,
    "office_name_kana": null
  },
  "1251": {
    "zip_code": "5101251",
    "prefecture": "三重県",
    "prefecture_kana": "ミエケン",
    "prefecture_code": "24",
    "city": "三重郡菰野町",
    "city_kana": "ミエグンコモノチョウ",
    "town": "千草",
    "town_kana": "チクサ",
    "street": null,
    "office_name": null,
    "office_name_kana": null
  },
  "1252": {
    "zip_code": "5101252",
    "prefecture": "三重県",
    "prefecture_kana": "ミエケン",
    "prefecture_code": "24",
    "city": "三重郡菰野町",
    "city_kana": "ミエグンコモノチョウ",
    "town": "音羽",
    "town_kana": "オトワ",
    "street": null,
    "office_name": null,
    "office_name_kana": null
  },
  "1253": {
    "zip_code": "5101253",
    "prefecture": "三重県",
    "prefecture_kana": "ミエケン",
    "prefecture_code": "24",
    "city": "三重郡菰野町",
    "city_kana": "ミエグンコモノチョウ",
    "town": "潤田",
    "town_kana": "ウルダ",
    "street": null,
    "office_name": null,
    "office_name_kana": null
  },
  "1292": {
    "zip_code": "5101292",
    "prefecture": "三重県",
    "prefecture_kana": null,
    "prefecture_code": null,
    "city": "三重郡菰野町",
    "city_kana": null,
    "town": "大字潤田",
    "town_kana": null,
    "street": "１２５０番地",
    "office_name": "菰野町役場",
    "office_name_kana": "コモノチヨウヤクバ"
  },
  "1311": {
    "zip_code": "5101311",
    "prefecture": "三重県",
    "prefecture_kana": "ミエケン",
    "prefecture_code": "24",
    "city": "三重郡菰野町",
    "city_kana": "ミエグンコモノチョウ",
    "town": "永井",
    "town_kana": "ナガイ",
    "street": null,
    "office_name": null,
    "office_name_kana": null
  },
  "1312": {
    "zip_code": "5101312",
    "prefecture": "三重県",
    "prefecture_kana": "ミエケン",
    "prefecture_code": "24",
    "city": "三重郡菰野町",
    "city_kana": "ミエグンコモノチョウ",
    "town": "竹成",
    "town_kana": "タケナリ",
    "street": null,
    "office_name": null,
    "office_name_kana": null
  },
  "1321": {
    "zip_code": "5101321",
    "prefecture": "三重県",
    "prefecture_kana": "ミエケン",
    "prefecture_code": "24",
    "city": "三重郡菰野町",
    "city_kana": "ミエグンコモノチョウ",
    "town": "田口",
    "town_kana": "タグチ",
    "street": null,
    "office_name": null,
    "office_name_kana": null
  },
  "1322": {
    "zip_code": "5101322",
    "prefecture": "三重県",
    "prefecture_kana": "ミエケン",
    "prefecture_code": "24",
    "city": "三重郡菰野町",
    "city_kana": "ミエグンコモノチョウ",
    "town": "田口新田",
    "town_kana": "タグチシンデン",
    "street": null,
    "office_name": null,
    "office_name_kana": null
  },
  "1323": {
    "zip_code": "5101323",
    "prefecture": "三重県",
    "prefecture_kana": "ミエケン",
    "prefecture_code": "24",
    "city": "三重郡菰野町",
    "city_kana": "ミエグンコモノチョウ",
    "town": "小島",
    "town_kana": "オジマ",
    "street": null,
    "office_name": null,
    "office_name_kana": null
  },
  "1324": {
    "zip_code": "5101324",
    "prefecture": "三重県",
    "prefecture_kana": "ミエケン",
    "prefecture_code": "24",
    "city": "三重郡菰野町",
    "city_kana": "ミエグンコモノチョウ",
    "town": "田光",
    "town_kana": "タビカ",
    "street": null,
    "office_name": null,
    "office_name_kana": null
  },
  "1325": {
    "zip_code": "5101325",
    "prefecture": "三重県",
    "prefecture_kana": "ミエケン",
    "prefecture_code": "24",
    "city": "三重郡菰野町",
    "city_kana": "ミエグンコモノチョウ",
    "town": "榊",
    "town_kana": "サカキ",
    "street": null,
    "office_name": null,
    "office_name_kana": null
  },
  "1326": {
    "zip_code": "5101326",
    "prefecture": "三重県",
    "prefecture_kana": "ミエケン",
    "prefecture_code": "24",
    "city": "三重郡菰野町",
    "city_kana": "ミエグンコモノチョウ",
    "town": "杉谷",
    "town_kana": "スギタニ",
    "street": null,
    "office_name": null,
    "office_name_kana": null
  },
  "1327": {
    "zip_code": "5101327",
    "prefecture": "三重県",
    "prefecture_kana": "ミエケン",
    "prefecture_code": "24",
    "city": "三重郡菰野町",
    "city_kana": "ミエグンコモノチョウ",
    "town": "根の平",
    "town_kana": "ネノヒラ",
    "street": null,
    "office_name": null,
    "office_name_kana": null
  },
  "1328": {
    "zip_code": "5101328",
    "prefecture": "三重県",
    "prefecture_kana": "ミエケン",
    "prefecture_code": "24",
    "city": "三重郡菰野町",
    "city_kana": "ミエグンコモノチョウ",
    "town": "切畑",
    "town_kana": "キリハタ",
    "street": null,
    "office_name": null,
    "office_name_kana": null
  },
  "8001": {
    "zip_code": "5108001",
    "prefecture": "三重県",
    "prefecture_kana": "ミエケン",
    "prefecture_code": "24",
    "city": "四日市市",
    "city_kana": "ヨッカイチシ",
    "town": "天カ須賀",
    "town_kana": "アマガスカ",
    "street": null,
    "office_name": null,
    "office_name_kana": null
  },
  "8002": {
    "zip_code": "5108002",
    "prefecture": "三重県",
    "prefecture_kana": "ミエケン",
    "prefecture_code": "24",
    "city": "四日市市",
    "city_kana": "ヨッカイチシ",
    "town": "天カ須賀新町",
    "town_kana": "アマガスカシンマチ",
    "street": null,
    "office_name": null,
    "office_name_kana": null
  },
  "8003": {
    "zip_code": "5108003",
    "prefecture": "三重県",
    "prefecture_kana": "ミエケン",
    "prefecture_code": "24",
    "city": "四日市市",
    "city_kana": "ヨッカイチシ",
    "town": "住吉町",
    "town_kana": "スミヨシチョウ",
    "street": null,
    "office_name": null,
    "office_name_kana": null
  },
  "8004": {
    "zip_code": "5108004",
    "prefecture": "三重県",
    "prefecture_kana": "ミエケン",
    "prefecture_code": "24",
    "city": "四日市市",
    "city_kana": "ヨッカイチシ",
    "town": "富田一色町",
    "town_kana": "トミダイッシキチョウ",
    "street": null,
    "office_name": null,
    "office_name_kana": null
  },
  "8005": {
    "zip_code": "5108005",
    "prefecture": "三重県",
    "prefecture_kana": "ミエケン",
    "prefecture_code": "24",
    "city": "四日市市",
    "city_kana": "ヨッカイチシ",
    "town": "富双",
    "town_kana": "フソウ",
    "street": null,
    "office_name": null,
    "office_name_kana": null
  },
  "8006": {
    "zip_code": "5108006",
    "prefecture": "三重県",
    "prefecture_kana": "ミエケン",
    "prefecture_code": "24",
    "city": "四日市市",
    "city_kana": "ヨッカイチシ",
    "town": "東富田町",
    "town_kana": "ヒガシトミダチョウ",
    "street": null,
    "office_name": null,
    "office_name_kana": null
  },
  "8007": {
    "zip_code": "5108007",
    "prefecture": "三重県",
    "prefecture_kana": "ミエケン",
    "prefecture_code": "24",
    "city": "四日市市",
    "city_kana": "ヨッカイチシ",
    "town": "富田浜元町",
    "town_kana": "トミダハマモトチョウ",
    "street": null,
    "office_name": null,
    "office_name_kana": null
  },
  "8008": {
    "zip_code": "5108008",
    "prefecture": "三重県",
    "prefecture_kana": "ミエケン",
    "prefecture_code": "24",
    "city": "四日市市",
    "city_kana": "ヨッカイチシ",
    "town": "富田浜町",
    "town_kana": "トミダハマチョウ",
    "street": null,
    "office_name": null,
    "office_name_kana": null
  },
  "8009": {
    "zip_code": "5108009",
    "prefecture": "三重県",
    "prefecture_kana": "ミエケン",
    "prefecture_code": "24",
    "city": "四日市市",
    "city_kana": "ヨッカイチシ",
    "town": "浜園町",
    "town_kana": "ハマゾノチョウ",
    "street": null,
    "office_name": null,
    "office_name_kana": null
  },
  "8011": {
    "zip_code": "5108011",
    "prefecture": "三重県",
    "prefecture_kana": "ミエケン",
    "prefecture_code": "24",
    "city": "四日市市",
    "city_kana": "ヨッカイチシ",
    "town": "東茂福町",
    "town_kana": "ヒガシモチブクチョウ",
    "street": null,
    "office_name": null,
    "office_name_kana": null
  },
  "8012": {
    "zip_code": "5108012",
    "prefecture": "三重県",
    "prefecture_kana": "ミエケン",
    "prefecture_code": "24",
    "city": "四日市市",
    "city_kana": "ヨッカイチシ",
    "town": "茂福町",
    "town_kana": "モチブクチョウ",
    "street": null,
    "office_name": null,
    "office_name_kana": null
  },
  "8013": {
    "zip_code": "5108013",
    "prefecture": "三重県",
    "prefecture_kana": "ミエケン",
    "prefecture_code": "24",
    "city": "四日市市",
    "city_kana": "ヨッカイチシ",
    "town": "南富田町",
    "town_kana": "ミナミトミダチョウ",
    "street": null,
    "office_name": null,
    "office_name_kana": null
  },
  "8014": {
    "zip_code": "5108014",
    "prefecture": "三重県",
    "prefecture_kana": "ミエケン",
    "prefecture_code": "24",
    "city": "四日市市",
    "city_kana": "ヨッカイチシ",
    "town": "富田",
    "town_kana": "トミダ",
    "street": null,
    "office_name": null,
    "office_name_kana": null
  },
  "8015": {
    "zip_code": "5108015",
    "prefecture": "三重県",
    "prefecture_kana": "ミエケン",
    "prefecture_code": "24",
    "city": "四日市市",
    "city_kana": "ヨッカイチシ",
    "town": "松原町",
    "town_kana": "マツバラチョウ",
    "street": null,
    "office_name": null,
    "office_name_kana": null
  },
  "8016": {
    "zip_code": "5108016",
    "prefecture": "三重県",
    "prefecture_kana": "ミエケン",
    "prefecture_code": "24",
    "city": "四日市市",
    "city_kana": "ヨッカイチシ",
    "town": "富州原町",
    "town_kana": "トミスハラチョウ",
    "street": null,
    "office_name": null,
    "office_name_kana": null
  },
  "8017": {
    "zip_code": "5108017",
    "prefecture": "三重県",
    "prefecture_kana": "ミエケン",
    "prefecture_code": "24",
    "city": "四日市市",
    "city_kana": "ヨッカイチシ",
    "town": "平町",
    "town_kana": "タイラマチ",
    "street": null,
    "office_name": null,
    "office_name_kana": null
  },
  "8021": {
    "zip_code": "5108021",
    "prefecture": "三重県",
    "prefecture_kana": "ミエケン",
    "prefecture_code": "24",
    "city": "四日市市",
    "city_kana": "ヨッカイチシ",
    "town": "松寺",
    "town_kana": "マツテラ",
    "street": null,
    "office_name": null,
    "office_name_kana": null
  },
  "8022": {
    "zip_code": "5108022",
    "prefecture": "三重県",
    "prefecture_kana": "ミエケン",
    "prefecture_code": "24",
    "city": "四日市市",
    "city_kana": "ヨッカイチシ",
    "town": "蒔田",
    "town_kana": "マキタ",
    "street": null,
    "office_name": null,
    "office_name_kana": null
  },
  "8023": {
    "zip_code": "5108023",
    "prefecture": "三重県",
    "prefecture_kana": "ミエケン",
    "prefecture_code": "24",
    "city": "四日市市",
    "city_kana": "ヨッカイチシ",
    "town": "西富田",
    "town_kana": "ニシトミダ",
    "street": null,
    "office_name": null,
    "office_name_kana": null
  },
  "8024": {
    "zip_code": "5108024",
    "prefecture": "三重県",
    "prefecture_kana": "ミエケン",
    "prefecture_code": "24",
    "city": "四日市市",
    "city_kana": "ヨッカイチシ",
    "town": "西富田町",
    "town_kana": "ニシトミダチョウ",
    "street": null,
    "office_name": null,
    "office_name_kana": null
  },
  "8025": {
    "zip_code": "5108025",
    "prefecture": "三重県",
    "prefecture_kana": "ミエケン",
    "prefecture_code": "24",
    "city": "四日市市",
    "city_kana": "ヨッカイチシ",
    "town": "富田栄町",
    "town_kana": "トミダサカエマチ",
    "street": null,
    "office_name": null,
    "office_name_kana": null
  },
  "8026": {
    "zip_code": "5108026",
    "prefecture": "三重県",
    "prefecture_kana": "ミエケン",
    "prefecture_code": "24",
    "city": "四日市市",
    "city_kana": "ヨッカイチシ",
    "town": "十志町",
    "town_kana": "ジュウシチョウ",
    "street": null,
    "office_name": null,
    "office_name_kana": null
  },
  "8027": {
    "zip_code": "5108027",
    "prefecture": "三重県",
    "prefecture_kana": "ミエケン",
    "prefecture_code": "24",
    "city": "四日市市",
    "city_kana": "ヨッカイチシ",
    "town": "茂福",
    "town_kana": "モチブク",
    "street": null,
    "office_name": null,
    "office_name_kana": null
  },
  "8028": {
    "zip_code": "5108028",
    "prefecture": "三重県",
    "prefecture_kana": "ミエケン",
    "prefecture_code": "24",
    "city": "四日市市",
    "city_kana": "ヨッカイチシ",
    "town": "下之宮町",
    "town_kana": "シモノミヤチョウ",
    "street": null,
    "office_name": null,
    "office_name_kana": null
  },
  "8031": {
    "zip_code": "5108031",
    "prefecture": "三重県",
    "prefecture_kana": "ミエケン",
    "prefecture_code": "24",
    "city": "四日市市",
    "city_kana": "ヨッカイチシ",
    "town": "川北",
    "town_kana": "カワキタ",
    "street": null,
    "office_name": null,
    "office_name_kana": null
  },
  "8032": {
    "zip_code": "5108032",
    "prefecture": "三重県",
    "prefecture_kana": "ミエケン",
    "prefecture_code": "24",
    "city": "四日市市",
    "city_kana": "ヨッカイチシ",
    "town": "川北町",
    "town_kana": "カワキタチョウ",
    "street": null,
    "office_name": null,
    "office_name_kana": null
  },
  "8033": {
    "zip_code": "5108033",
    "prefecture": "三重県",
    "prefecture_kana": "ミエケン",
    "prefecture_code": "24",
    "city": "四日市市",
    "city_kana": "ヨッカイチシ",
    "town": "下さざらい町",
    "town_kana": "シモサザライチョウ",
    "street": null,
    "office_name": null,
    "office_name_kana": null
  },
  "8034": {
    "zip_code": "5108034",
    "prefecture": "三重県",
    "prefecture_kana": "ミエケン",
    "prefecture_code": "24",
    "city": "四日市市",
    "city_kana": "ヨッカイチシ",
    "town": "大矢知町",
    "town_kana": "オオヤチチョウ",
    "street": null,
    "office_name": null,
    "office_name_kana": null
  },
  "8035": {
    "zip_code": "5108035",
    "prefecture": "三重県",
    "prefecture_kana": "ミエケン",
    "prefecture_code": "24",
    "city": "四日市市",
    "city_kana": "ヨッカイチシ",
    "town": "東垂坂町",
    "town_kana": "ヒガシタルサカチョウ",
    "street": null,
    "office_name": null,
    "office_name_kana": null
  },
  "8036": {
    "zip_code": "5108036",
    "prefecture": "三重県",
    "prefecture_kana": "ミエケン",
    "prefecture_code": "24",
    "city": "四日市市",
    "city_kana": "ヨッカイチシ",
    "town": "南垂坂町",
    "town_kana": "ミナミタルサカチョウ",
    "street": null,
    "office_name": null,
    "office_name_kana": null
  },
  "8037": {
    "zip_code": "5108037",
    "prefecture": "三重県",
    "prefecture_kana": "ミエケン",
    "prefecture_code": "24",
    "city": "四日市市",
    "city_kana": "ヨッカイチシ",
    "town": "垂坂町",
    "town_kana": "タルサカチョウ",
    "street": null,
    "office_name": null,
    "office_name_kana": null
  },
  "8038": {
    "zip_code": "5108038",
    "prefecture": "三重県",
    "prefecture_kana": "ミエケン",
    "prefecture_code": "24",
    "city": "四日市市",
    "city_kana": "ヨッカイチシ",
    "town": "垂坂新町",
    "town_kana": "タルサカシンマチ",
    "street": null,
    "office_name": null,
    "office_name_kana": null
  },
  "8039": {
    "zip_code": "5108039",
    "prefecture": "三重県",
    "prefecture_kana": "ミエケン",
    "prefecture_code": "24",
    "city": "四日市市",
    "city_kana": "ヨッカイチシ",
    "town": "大矢知新町",
    "town_kana": "オオヤチシンマチ",
    "street": null,
    "office_name": null,
    "office_name_kana": null
  },
  "8101": {
    "zip_code": "5108101",
    "prefecture": "三重県",
    "prefecture_kana": "ミエケン",
    "prefecture_code": "24",
    "city": "三重郡朝日町",
    "city_kana": "ミエグンアサヒチョウ",
    "town": "縄生",
    "town_kana": "ナオ",
    "street": null,
    "office_name": null,
    "office_name_kana": null
  },
  "8102": {
    "zip_code": "5108102",
    "prefecture": "三重県",
    "prefecture_kana": "ミエケン",
    "prefecture_code": "24",
    "city": "三重郡朝日町",
    "city_kana": "ミエグンアサヒチョウ",
    "town": "小向",
    "town_kana": "オブケ",
    "street": null,
    "office_name": null,
    "office_name_kana": null
  },
  "8103": {
    "zip_code": "5108103",
    "prefecture": "三重県",
    "prefecture_kana": "ミエケン",
    "prefecture_code": "24",
    "city": "三重郡朝日町",
    "city_kana": "ミエグンアサヒチョウ",
    "town": "柿",
    "town_kana": "カキ",
    "street": null,
    "office_name": null,
    "office_name_kana": null
  },
  "8104": {
    "zip_code": "5108104",
    "prefecture": "三重県",
    "prefecture_kana": "ミエケン",
    "prefecture_code": "24",
    "city": "三重郡朝日町",
    "city_kana": "ミエグンアサヒチョウ",
    "town": "埋縄",
    "town_kana": "ウズナワ",
    "street": null,
    "office_name": null,
    "office_name_kana": null
  },
  "8105": {
    "zip_code": "5108105",
    "prefecture": "三重県",
    "prefecture_kana": "ミエケン",
    "prefecture_code": "24",
    "city": "三重郡朝日町",
    "city_kana": "ミエグンアサヒチョウ",
    "town": "向陽台",
    "town_kana": "コウヨウダイ",
    "street": null,
    "office_name": null,
    "office_name_kana": null
  },
  "8106": {
    "zip_code": "5108106",
    "prefecture": "三重県",
    "prefecture_kana": "ミエケン",
    "prefecture_code": "24",
    "city": "三重郡朝日町",
    "city_kana": "ミエグンアサヒチョウ",
    "town": "白梅の丘東",
    "town_kana": "シラウメノオカヒガシ",
    "street": null,
    "office_name": null,
    "office_name_kana": null
  },
  "8107": {
    "zip_code": "5108107",
    "prefecture": "三重県",
    "prefecture_kana": "ミエケン",
    "prefecture_code": "24",
    "city": "三重郡朝日町",
    "city_kana": "ミエグンアサヒチョウ",
    "town": "白梅の丘西",
    "town_kana": "シラウメノオカニシ",
    "street": null,
    "office_name": null,
    "office_name_kana": null
  },
  "8111": {
    "zip_code": "5108111",
    "prefecture": "三重県",
    "prefecture_kana": "ミエケン",
    "prefecture_code": "24",
    "city": "三重郡川越町",
    "city_kana": "ミエグンカワゴエチョウ",
    "town": "当新田",
    "town_kana": "トウシンデン",
    "street": null,
    "office_name": null,
    "office_name_kana": null
  },
  "8112": {
    "zip_code": "5108112",
    "prefecture": "三重県",
    "prefecture_kana": "ミエケン",
    "prefecture_code": "24",
    "city": "三重郡川越町",
    "city_kana": "ミエグンカワゴエチョウ",
    "town": "亀須新田",
    "town_kana": "カメズシンデン",
    "street": null,
    "office_name": null,
    "office_name_kana": null
  },
  "8113": {
    "zip_code": "5108113",
    "prefecture": "三重県",
    "prefecture_kana": "ミエケン",
    "prefecture_code": "24",
    "city": "三重郡川越町",
    "city_kana": "ミエグンカワゴエチョウ",
    "town": "亀尾新田",
    "town_kana": "カメオシンデン",
    "street": null,
    "office_name": null,
    "office_name_kana": null
  },
  "8114": {
    "zip_code": "5108114",
    "prefecture": "三重県",
    "prefecture_kana": "ミエケン",
    "prefecture_code": "24",
    "city": "三重郡川越町",
    "city_kana": "ミエグンカワゴエチョウ",
    "town": "亀崎新田",
    "town_kana": "カメザキシンデン",
    "street": null,
    "office_name": null,
    "office_name_kana": null
  },
  "8121": {
    "zip_code": "5108121",
    "prefecture": "三重県",
    "prefecture_kana": "ミエケン",
    "prefecture_code": "24",
    "city": "三重郡川越町",
    "city_kana": "ミエグンカワゴエチョウ",
    "town": "高松",
    "town_kana": "タカマツ",
    "street": null,
    "office_name": null,
    "office_name_kana": null
  },
  "8122": {
    "zip_code": "5108122",
    "prefecture": "三重県",
    "prefecture_kana": "ミエケン",
    "prefecture_code": "24",
    "city": "三重郡川越町",
    "city_kana": "ミエグンカワゴエチョウ",
    "town": "豊田",
    "town_kana": "トヨダ",
    "street": null,
    "office_name": null,
    "office_name_kana": null
  },
  "8123": {
    "zip_code": "5108123",
    "prefecture": "三重県",
    "prefecture_kana": "ミエケン",
    "prefecture_code": "24",
    "city": "三重郡川越町",
    "city_kana": "ミエグンカワゴエチョウ",
    "town": "豊田一色",
    "town_kana": "トヨダイッシキ",
    "street": null,
    "office_name": null,
    "office_name_kana": null
  },
  "8124": {
    "zip_code": "5108124",
    "prefecture": "三重県",
    "prefecture_kana": "ミエケン",
    "prefecture_code": "24",
    "city": "三重郡川越町",
    "city_kana": "ミエグンカワゴエチョウ",
    "town": "南福崎",
    "town_kana": "ミナミフクサキ",
    "street": null,
    "office_name": null,
    "office_name_kana": null
  },
  "8125": {
    "zip_code": "5108125",
    "prefecture": "三重県",
    "prefecture_kana": "ミエケン",
    "prefecture_code": "24",
    "city": "三重郡川越町",
    "city_kana": "ミエグンカワゴエチョウ",
    "town": "北福崎",
    "town_kana": "キタフクサキ",
    "street": null,
    "office_name": null,
    "office_name_kana": null
  },
  "8502": {
    "zip_code": "5108502",
    "prefecture": "三重県",
    "prefecture_kana": "ミエケン",
    "prefecture_code": "24",
    "city": "四日市市",
    "city_kana": "ヨッカイチシ",
    "town": "大協町",
    "town_kana": "ダイキョウチョウ",
    "street": "２丁目３番地",
    "office_name": "ＫＨネオケム　株式会社　四日市工場",
    "office_name_kana": "ケイエイチネオケム (カ) ヨツカイチコウジヨウ"
  },
  "8503": {
    "zip_code": "5108503",
    "prefecture": "三重県",
    "prefecture_kana": "ミエケン",
    "prefecture_code": "24",
    "city": "四日市市",
    "city_kana": "ヨッカイチシ",
    "town": "西末広町",
    "town_kana": "ニシスエヒロチョウ",
    "street": "１−１４",
    "office_name": "住友電装　株式会社",
    "office_name_kana": "スミトモデンソウ カブシキガイシヤ"
  },
  "8504": {
    "zip_code": "5108504",
    "prefecture": "三重県",
    "prefecture_kana": "ミエケン",
    "prefecture_code": "24",
    "city": "四日市市",
    "city_kana": "ヨッカイチシ",
    "town": "諏訪栄町",
    "town_kana": "スワサカエマチ",
    "street": "１７番４号",
    "office_name": "ドッグイヤー",
    "office_name_kana": "ドツグイヤ-"
  },
  "8505": {
    "zip_code": "5108505",
    "prefecture": "三重県",
    "prefecture_kana": "ミエケン",
    "prefecture_code": "24",
    "city": "四日市市",
    "city_kana": "ヨッカイチシ",
    "town": "中納屋町",
    "town_kana": "ナカナヤチョウ",
    "street": "９−１４",
    "office_name": "コスモ石油サービス　株式会社　三重カンパニー",
    "office_name_kana": "コスモセキユサ-ビス カブシキガイシヤ ミエカンパニ-"
  },
  "8510": {
    "zip_code": "5108510",
    "prefecture": "三重県",
    "prefecture_kana": "ミエケン",
    "prefecture_code": "24",
    "city": "四日市市",
    "city_kana": "ヨッカイチシ",
    "town": "富田",
    "town_kana": "トミダ",
    "street": "４丁目１−４３",
    "office_name": "三重県立　四日市高等学校",
    "office_name_kana": "ミエケンリツ ヨツカイチコウトウガツコウ"
  },
  "8511": {
    "zip_code": "5108511",
    "prefecture": "三重県",
    "prefecture_kana": "ミエケン",
    "prefecture_code": "24",
    "city": "四日市市",
    "city_kana": "ヨッカイチシ",
    "town": "新正",
    "town_kana": "シンショウ",
    "street": "４丁目２１番５号",
    "office_name": "三重県四日市庁舎",
    "office_name_kana": "ミエケンヨツカイチチヨウシヤ"
  },
  "8512": {
    "zip_code": "5108512",
    "prefecture": "三重県",
    "prefecture_kana": "ミエケン",
    "prefecture_code": "24",
    "city": "四日市市",
    "city_kana": "ヨッカイチシ",
    "town": "日永西",
    "town_kana": "ヒナガニシ",
    "street": "３丁目５番３７号",
    "office_name": "ささがわ通り心・身クリニック",
    "office_name_kana": "ササガワドオリシン・シンクリニツク"
  },
  "8515": {
    "zip_code": "5108515",
    "prefecture": "三重県",
    "prefecture_kana": "ミエケン",
    "prefecture_code": "24",
    "city": "四日市市",
    "city_kana": "ヨッカイチシ",
    "town": "鵜の森",
    "town_kana": "ウノモリ",
    "street": "１丁目３−２０萩ビル６階",
    "office_name": "東京海上日動火災保険　株式会社",
    "office_name_kana": "トウキヨウカイジヨウニチドウカサイホケン カブシキガイシヤ"
  },
  "8520": {
    "zip_code": "5108520",
    "prefecture": "三重県",
    "prefecture_kana": "ミエケン",
    "prefecture_code": "24",
    "city": "四日市市",
    "city_kana": "ヨッカイチシ",
    "town": "新町",
    "town_kana": "シンチョウ",
    "street": "６−１",
    "office_name": "出入国手続センター三重",
    "office_name_kana": "シユツニユウコクテツヅキセンタ-ミエ"
  },
  "8522": {
    "zip_code": "5108522",
    "prefecture": "三重県",
    "prefecture_kana": null,
    "prefecture_code": null,
    "city": "三重郡朝日町",
    "city_kana": null,
    "town": "大字小向",
    "town_kana": null,
    "street": "８９３番地",
    "office_name": "朝日町役場",
    "office_name_kana": "アサヒチヨウヤクバ"
  },
  "8525": {
    "zip_code": "5108525",
    "prefecture": "三重県",
    "prefecture_kana": "ミエケン",
    "prefecture_code": "24",
    "city": "四日市市",
    "city_kana": "ヨッカイチシ",
    "town": "北浜町",
    "town_kana": "キタハマチョウ",
    "street": "８−１６",
    "office_name": "株式会社　扇港電機",
    "office_name_kana": "カブシキガイシヤ センコウデンキ"
  },
  "8526": {
    "zip_code": "5108526",
    "prefecture": "三重県",
    "prefecture_kana": "ミエケン",
    "prefecture_code": "24",
    "city": "四日市市",
    "city_kana": "ヨッカイチシ",
    "town": "三栄町",
    "town_kana": "サンエイチョウ",
    "street": "１の２２",
    "office_name": "津地方裁判所　四日市支部",
    "office_name_kana": "ツチホウサイバンシヨ ヨツカイチシブ"
  },
  "8528": {
    "zip_code": "5108528",
    "prefecture": "三重県",
    "prefecture_kana": "ミエケン",
    "prefecture_code": "24",
    "city": "四日市市",
    "city_kana": "ヨッカイチシ",
    "town": "浜田町",
    "town_kana": "ハマダチョウ",
    "street": "５番２８号",
    "office_name": "住友電装　株式会社",
    "office_name_kana": "スミトモデンソウ カブシキガイシヤ"
  },
  "8530": {
    "zip_code": "5108530",
    "prefecture": "三重県",
    "prefecture_kana": "ミエケン",
    "prefecture_code": "24",
    "city": "四日市市",
    "city_kana": "ヨッカイチシ",
    "town": "東邦町",
    "town_kana": "トウホウチョウ",
    "street": "１",
    "office_name": "三菱化学　株式会社　四日市事業所",
    "office_name_kana": "ミツビシカガク カブシキガイシヤ ヨツカイチジギヨウシヨ"
  },
  "8540": {
    "zip_code": "5108540",
    "prefecture": "三重県",
    "prefecture_kana": "ミエケン",
    "prefecture_code": "24",
    "city": "四日市市",
    "city_kana": "ヨッカイチシ",
    "town": "霞",
    "town_kana": "カスミ",
    "street": "１丁目８",
    "office_name": "東ソー　株式会社　四日市事業所",
    "office_name_kana": "トウソ- カブシキガイシヤ ヨツカイチジギヨウシヨ"
  },
  "8550": {
    "zip_code": "5108550",
    "prefecture": "三重県",
    "prefecture_kana": "ミエケン",
    "prefecture_code": "24",
    "city": "四日市市",
    "city_kana": "ヨッカイチシ",
    "town": "新正",
    "town_kana": "シンショウ",
    "street": "４丁目９番２８号",
    "office_name": "三重三菱自動車販売　株式会社",
    "office_name_kana": "ミエミツビシジドウシヤハンバイ カブシキガイシヤ"
  },
  "8552": {
    "zip_code": "5108552",
    "prefecture": "三重県",
    "prefecture_kana": "ミエケン",
    "prefecture_code": "24",
    "city": "四日市市",
    "city_kana": "ヨッカイチシ",
    "town": "川尻町",
    "town_kana": "カワジリチョウ",
    "street": "１００",
    "office_name": "ＪＳＲ　株式会社　四日市工場",
    "office_name_kana": "ジエイエスア-ル カブシキガイシヤ ヨツカイチコウジヨウ"
  },
  "8555": {
    "zip_code": "5108555",
    "prefecture": "三重県",
    "prefecture_kana": "ミエケン",
    "prefecture_code": "24",
    "city": "四日市市",
    "city_kana": "ヨッカイチシ",
    "town": "北浜田町",
    "town_kana": "キタハマダチョウ",
    "street": "１０−３",
    "office_name": "トヨタカローラ三重　株式会社",
    "office_name_kana": "トヨタカロ-ラミエ カブシキガイシヤ"
  },
  "8557": {
    "zip_code": "5108557",
    "prefecture": "三重県",
    "prefecture_kana": "ミエケン",
    "prefecture_code": "24",
    "city": "四日市市",
    "city_kana": "ヨッカイチシ",
    "town": "西浦",
    "town_kana": "ニシウラ",
    "street": "２丁目２−８",
    "office_name": "四日市税務署",
    "office_name_kana": "ヨツカイチゼイムシヨ"
  },
  "8560": {
    "zip_code": "5108560",
    "prefecture": "三重県",
    "prefecture_kana": "ミエケン",
    "prefecture_code": "24",
    "city": "四日市市",
    "city_kana": "ヨッカイチシ",
    "town": "馳出",
    "town_kana": "ハセダシ",
    "street": "北新開６０番地",
    "office_name": "パナソニック　株式会社　四日市事業所",
    "office_name_kana": "パナソニツク カブシキガイシヤ ヨツカイチジギヨウシヨ"
  },
  "8561": {
    "zip_code": "5108561",
    "prefecture": "三重県",
    "prefecture_kana": null,
    "prefecture_code": null,
    "city": "四日市市",
    "city_kana": null,
    "town": "大字日永",
    "town_kana": null,
    "street": "５４５０−１３２",
    "office_name": "三重県立　総合医療センター",
    "office_name_kana": "ミエケンリツ ソウゴウイリヨウセンタ-"
  },
  "8562": {
    "zip_code": "5108562",
    "prefecture": "三重県",
    "prefecture_kana": null,
    "prefecture_code": null,
    "city": "四日市市",
    "city_kana": null,
    "town": "大字日永",
    "town_kana": null,
    "street": "字岡山４９１７",
    "office_name": "三重県立　四日市南高等学校",
    "office_name_kana": "ミエケンリツ ヨツカイチミナミコウトウガツコウ"
  },
  "8567": {
    "zip_code": "5108567",
    "prefecture": "三重県",
    "prefecture_kana": "ミエケン",
    "prefecture_code": "24",
    "city": "四日市市",
    "city_kana": "ヨッカイチシ",
    "town": "芝田",
    "town_kana": "シバタ",
    "street": "２丁目２−３７",
    "office_name": "市立四日市病院",
    "office_name_kana": "シリツヨツカイチビヨウイン"
  },
  "8575": {
    "zip_code": "5108575",
    "prefecture": "三重県",
    "prefecture_kana": null,
    "prefecture_code": null,
    "city": "四日市市",
    "city_kana": null,
    "town": "大字日永",
    "town_kana": null,
    "street": "５０３９",
    "office_name": "社会医療法人居仁会　総合心療センターひなが",
    "office_name_kana": "シヤカイイリヨウホウジンキヨジンカイ ソウゴウシンリヨウセンタ-ヒナガ"
  },
  "8577": {
    "zip_code": "5108577",
    "prefecture": "三重県",
    "prefecture_kana": "ミエケン",
    "prefecture_code": "24",
    "city": "四日市市",
    "city_kana": "ヨッカイチシ",
    "town": "安島",
    "town_kana": "ヤスジマ",
    "street": "２丁目１０−１６伊藤忠安田生命ビル３階",
    "office_name": "株式会社　オリエントコーポレーション　四日市支店",
    "office_name_kana": "カ) オリエントコ-ポレ-シヨン ヨツカイチシテン"
  },
  "8580": {
    "zip_code": "5108580",
    "prefecture": "三重県",
    "prefecture_kana": "ミエケン",
    "prefecture_code": "24",
    "city": "四日市市",
    "city_kana": "ヨッカイチシ",
    "town": "赤堀新町",
    "town_kana": "アカホリシンマチ",
    "street": "９−５",
    "office_name": "太陽化学　株式会社",
    "office_name_kana": "タイヨウカガク カブシキガイシヤ"
  },
  "8585": {
    "zip_code": "5108585",
    "prefecture": "三重県",
    "prefecture_kana": "ミエケン",
    "prefecture_code": "24",
    "city": "四日市市",
    "city_kana": "ヨッカイチシ",
    "town": "諏訪栄町",
    "town_kana": "スワサカエマチ",
    "street": "７−３４",
    "office_name": "株式会社　中部近鉄百貨店　四日市店",
    "office_name_kana": "カブシキガイシヤ チユウブキンテツヒヤツカテン ヨツカイチテン"
  },
  "8588": {
    "zip_code": "5108588",
    "prefecture": "三重県",
    "prefecture_kana": null,
    "prefecture_code": null,
    "city": "三重郡川越町",
    "city_kana": null,
    "town": "大字豊田一色",
    "town_kana": null,
    "street": "２８０番地",
    "office_name": "川越町役場",
    "office_name_kana": "カワゴエチヨウヤクバ"
  },
  "8601": {
    "zip_code": "5108601",
    "prefecture": "三重県",
    "prefecture_kana": "ミエケン",
    "prefecture_code": "24",
    "city": "四日市市",
    "city_kana": "ヨッカイチシ",
    "town": "諏訪町",
    "town_kana": "スワチョウ",
    "street": "１−５（四日市郵便局私書箱第１８号）",
    "office_name": "四日市市役所",
    "office_name_kana": "ヨツカイチシヤクシヨ"
  },
  "8604": {
    "zip_code": "5108604",
    "prefecture": "三重県",
    "prefecture_kana": "ミエケン",
    "prefecture_code": "24",
    "city": "四日市市",
    "city_kana": "ヨッカイチシ",
    "town": "諏訪栄町",
    "town_kana": "スワサカエマチ",
    "street": "１−１６（四日市郵便局私書箱第３３号）",
    "office_name": "野村証券　（株）　四日市支店",
    "office_name_kana": "ノムラシヨウケン (カブ) ヨツカイチシテン"
  },
  "8605": {
    "zip_code": "5108605",
    "prefecture": "三重県",
    "prefecture_kana": "ミエケン",
    "prefecture_code": "24",
    "city": "四日市市",
    "city_kana": "ヨッカイチシ",
    "town": "尾上町",
    "town_kana": "オノエチョウ",
    "street": "３−１（四日市郵便局私書箱第３６号）",
    "office_name": "伊勢湾倉庫　株式会社",
    "office_name_kana": "イセワンソウコ カブシキガイシヤ"
  },
  "8615": {
    "zip_code": "5108615",
    "prefecture": "三重県",
    "prefecture_kana": "ミエケン",
    "prefecture_code": "24",
    "city": "四日市市",
    "city_kana": "ヨッカイチシ",
    "town": "沖の島町",
    "town_kana": "オキノシマチョウ",
    "street": "１−６（四日市郵便局私書箱第３１号）",
    "office_name": "百五リース　株式会社　四日市支店",
    "office_name_kana": "ヒヤクゴリ-ス カブシキガイシヤ ヨツカイチシテン"
  },
  "8616": {
    "zip_code": "5108616",
    "prefecture": "三重県",
    "prefecture_kana": "ミエケン",
    "prefecture_code": "24",
    "city": "四日市市",
    "city_kana": "ヨッカイチシ",
    "town": "沖の島町",
    "town_kana": "オキノシマチョウ",
    "street": "１−６（四日市郵便局私書箱第７号）",
    "office_name": "百五銀行　四日市支店",
    "office_name_kana": "ヒヤクゴギンコウ ヨツカイチシテン"
  },
  "8621": {
    "zip_code": "5108621",
    "prefecture": "三重県",
    "prefecture_kana": "ミエケン",
    "prefecture_code": "24",
    "city": "四日市市",
    "city_kana": "ヨッカイチシ",
    "town": "西新地",
    "town_kana": "ニシシンチ",
    "street": "１０−２０（四日市郵便局私書箱第４８号）",
    "office_name": "第一信販　株式会社",
    "office_name_kana": "ダイイチシンパン カブシキガイシヤ"
  },
  "8631": {
    "zip_code": "5108631",
    "prefecture": "三重県",
    "prefecture_kana": "ミエケン",
    "prefecture_code": "24",
    "city": "四日市市",
    "city_kana": "ヨッカイチシ",
    "town": "富士町",
    "town_kana": "フジチョウ",
    "street": "１番２７号（四日市郵便局私書箱第２０号）",
    "office_name": "富士電機リテイルシステムズ　株式会社　三重工場",
    "office_name_kana": "フジデンキリテイルシステムズ カブシキガイシヤ ミエコウジヨウ"
  },
  "8642": {
    "zip_code": "5108642",
    "prefecture": "三重県",
    "prefecture_kana": "ミエケン",
    "prefecture_code": "24",
    "city": "四日市市",
    "city_kana": "ヨッカイチシ",
    "town": "諏訪栄町",
    "town_kana": "スワサカエマチ",
    "street": "５−４（四日市郵便局私書箱第２号）",
    "office_name": "商工組合　中央金庫　四日市支店",
    "office_name_kana": "シヨウコウクミアイ チユウオウキンコ ヨツカイチシテン"
  },
  "8651": {
    "zip_code": "5108651",
    "prefecture": "三重県",
    "prefecture_kana": "ミエケン",
    "prefecture_code": "24",
    "city": "四日市市",
    "city_kana": "ヨッカイチシ",
    "town": "千歳町",
    "town_kana": "チトセチョウ",
    "street": "６−６（四日市郵便局私書箱第３５号）",
    "office_name": "日本トランスシティ　株式会社",
    "office_name_kana": "ニホントランスシテイ カブシキガイシヤ"
  },
  "8655": {
    "zip_code": "5108655",
    "prefecture": "三重県",
    "prefecture_kana": "ミエケン",
    "prefecture_code": "24",
    "city": "四日市市",
    "city_kana": "ヨッカイチシ",
    "town": "安島",
    "town_kana": "ヤスジマ",
    "street": "１丁目２−２５（四日市郵便局私書箱第２６号）",
    "office_name": "株式会社　みずほ銀行　四日市支店",
    "office_name_kana": "カブシキガイシヤ ミズホギンコウ ヨツカイチシテン"
  },
  "8666": {
    "zip_code": "5108666",
    "prefecture": "三重県",
    "prefecture_kana": "ミエケン",
    "prefecture_code": "24",
    "city": "四日市市",
    "city_kana": "ヨッカイチシ",
    "town": "安島",
    "town_kana": "ヤスジマ",
    "street": "２丁目２−３（四日市郵便局私書箱第４９号）",
    "office_name": "北伊勢上野信用金庫",
    "office_name_kana": "キタイセウエノシンヨウキンコ"
  },
  "8670": {
    "zip_code": "5108670",
    "prefecture": "三重県",
    "prefecture_kana": "ミエケン",
    "prefecture_code": "24",
    "city": "四日市市",
    "city_kana": "ヨッカイチシ",
    "town": "西新地",
    "town_kana": "ニシシンチ",
    "street": "７−８（四日市郵便局私書箱第１７号）",
    "office_name": "三重銀行　本店",
    "office_name_kana": "ミエギンコウ ホンテン"
  }
}