{
  "0000": {
    "zip_code": "5110000",
    "prefecture": "三重県",
    "prefecture_kana": "ミエケン",
    "prefecture_code": "24",
    "city": "桑名市",
    "city_kana": "クワナシ",
    "town": "",
    "town_kana": "",
    "street": null,
    "office_name": null,
    "office_name_kana": null
  },
  "0001": {
    "zip_code": "5110001",
    "prefecture": "三重県",
    "prefecture_kana": "ミエケン",
    "prefecture_code": "24",
    "city": "桑名市",
    "city_kana": "クワナシ",
    "town": "上之輪新田",
    "town_kana": "カミノワシンデン",
    "street": null,
    "office_name": null,
    "office_name_kana": null
  },
  "0002": {
    "zip_code": "5110002",
    "prefecture": "三重県",
    "prefecture_kana": "ミエケン",
    "prefecture_code": "24",
    "city": "桑名市",
    "city_kana": "クワナシ",
    "town": "福島",
    "town_kana": "フクジマ",
    "street": null,
    "office_name": null,
    "office_name_kana": null
  },
  "0003": {
    "zip_code": "5110003",
    "prefecture": "三重県",
    "prefecture_kana": "ミエケン",
    "prefecture_code": "24",
    "city": "桑名市",
    "city_kana": "クワナシ",
    "town": "東太一丸",
    "town_kana": "ヒガシタイチマル",
    "street": null,
    "office_name": null,
    "office_name_kana": null
  },
  "0004": {
    "zip_code": "5110004",
    "prefecture": "三重県",
    "prefecture_kana": "ミエケン",
    "prefecture_code": "24",
    "city": "桑名市",
    "city_kana": "クワナシ",
    "town": "住吉町",
    "town_kana": "スミヨシチョウ",
    "street": null,
    "office_name": null,
    "office_name_kana": null
  },
  "0005": {
    "zip_code": "5110005",
    "prefecture": "三重県",
    "prefecture_kana": "ミエケン",
    "prefecture_code": "24",
    "city": "桑名市",
    "city_kana": "クワナシ",
    "town": "太一丸",
    "town_kana": "タイチマル",
    "street": null,
    "office_name": null,
    "office_name_kana": null
  },
  "0006": {
    "zip_code": "5110006",
    "prefecture": "三重県",
    "prefecture_kana": "ミエケン",
    "prefecture_code": "24",
    "city": "桑名市",
    "city_kana": "クワナシ",
    "town": "今北町",
    "town_kana": "イマキタマチ",
    "street": null,
    "office_name": null,
    "office_name_kana": null
  },
  "0007": {
    "zip_code": "5110007",
    "prefecture": "三重県",
    "prefecture_kana": "ミエケン",
    "prefecture_code": "24",
    "city": "桑名市",
    "city_kana": "クワナシ",
    "town": "参宮通",
    "town_kana": "サングウドオリ",
    "street": null,
    "office_name": null,
    "office_name_kana": null
  },
  "0008": {
    "zip_code": "5110008",
    "prefecture": "三重県",
    "prefecture_kana": "ミエケン",
    "prefecture_code": "24",
    "city": "桑名市",
    "city_kana": "クワナシ",
    "town": "蓮見町",
    "town_kana": "ハスミチョウ",
    "street": null,
    "office_name": null,
    "office_name_kana": null
  },
  "0009": {
    "zip_code": "5110009",
    "prefecture": "三重県",
    "prefecture_kana": "ミエケン",
    "prefecture_code": "24",
    "city": "桑名市",
    "city_kana": "クワナシ",
    "town": "桑名",
    "town_kana": "クワナ",
    "street": null,
    "office_name": null,
    "office_name_kana": null
  },
  "0011": {
    "zip_code": "5110011",
    "prefecture": "三重県",
    "prefecture_kana": "ミエケン",
    "prefecture_code": "24",
    "city": "桑名市",
    "city_kana": "クワナシ",
    "town": "船馬町",
    "town_kana": "センバチョウ",
    "street": null,
    "office_name": null,
    "office_name_kana": null
  },
  "0012": {
    "zip_code": "5110012",
    "prefecture": "三重県",
    "prefecture_kana": "ミエケン",
    "prefecture_code": "24",
    "city": "桑名市",
    "city_kana": "クワナシ",
    "town": "春日町",
    "town_kana": "カスガチョウ",
    "street": null,
    "office_name": null,
    "office_name_kana": null
  },
  "0013": {
    "zip_code": "5110013",
    "prefecture": "三重県",
    "prefecture_kana": "ミエケン",
    "prefecture_code": "24",
    "city": "桑名市",
    "city_kana": "クワナシ",
    "town": "宝殿町",
    "town_kana": "ホウデンマチ",
    "street": null,
    "office_name": null,
    "office_name_kana": null
  },
  "0014": {
    "zip_code": "5110014",
    "prefecture": "三重県",
    "prefecture_kana": "ミエケン",
    "prefecture_code": "24",
    "city": "桑名市",
    "city_kana": "クワナシ",
    "town": "三崎通",
    "town_kana": "ミサキドオリ",
    "street": null,
    "office_name": null,
    "office_name_kana": null
  },
  "0015": {
    "zip_code": "5110015",
    "prefecture": "三重県",
    "prefecture_kana": "ミエケン",
    "prefecture_code": "24",
    "city": "桑名市",
    "city_kana": "クワナシ",
    "town": "殿町",
    "town_kana": "トノマチ",
    "street": null,
    "office_name": null,
    "office_name_kana": null
  },
  "0016": {
    "zip_code": "5110016",
    "prefecture": "三重県",
    "prefecture_kana": "ミエケン",
    "prefecture_code": "24",
    "city": "桑名市",
    "city_kana": "クワナシ",
    "town": "相生町",
    "town_kana": "アイオイチョウ",
    "street": null,
    "office_name": null,
    "office_name_kana": null
  },
  "0017": {
    "zip_code": "5110017",
    "prefecture": "三重県",
    "prefecture_kana": "ミエケン",
    "prefecture_code": "24",
    "city": "桑名市",
    "city_kana": "クワナシ",
    "town": "今片町",
    "town_kana": "イマカタマチ",
    "street": null,
    "office_name": null,
    "office_name_kana": null
  },
  "0018": {
    "zip_code": "5110018",
    "prefecture": "三重県",
    "prefecture_kana": "ミエケン",
    "prefecture_code": "24",
    "city": "桑名市",
    "city_kana": "クワナシ",
    "town": "今中町",
    "town_kana": "イマナカマチ",
    "street": null,
    "office_name": null,
    "office_name_kana": null
  },
  "0019": {
    "zip_code": "5110019",
    "prefecture": "三重県",
    "prefecture_kana": "ミエケン",
    "prefecture_code": "24",
    "city": "桑名市",
    "city_kana": "クワナシ",
    "town": "清水町",
    "town_kana": "シミズチョウ",
    "street": null,
    "office_name": null,
    "office_name_kana": null
  },
  "0021": {
    "zip_code": "5110021",
    "prefecture": "三重県",
    "prefecture_kana": "ミエケン",
    "prefecture_code": "24",
    "city": "桑名市",
    "city_kana": "クワナシ",
    "town": "川口町",
    "town_kana": "カワグチチョウ",
    "street": null,
    "office_name": null,
    "office_name_kana": null
  },
  "0022": {
    "zip_code": "5110022",
    "prefecture": "三重県",
    "prefecture_kana": "ミエケン",
    "prefecture_code": "24",
    "city": "桑名市",
    "city_kana": "クワナシ",
    "town": "江戸町",
    "town_kana": "エドマチ",
    "street": null,
    "office_name": null,
    "office_name_kana": null
  },
  "0023": {
    "zip_code": "5110023",
    "prefecture": "三重県",
    "prefecture_kana": "ミエケン",
    "prefecture_code": "24",
    "city": "桑名市",
    "city_kana": "クワナシ",
    "town": "本町",
    "town_kana": "ホンマチ",
    "street": null,
    "office_name": null,
    "office_name_kana": null
  },
  "0024": {
    "zip_code": "5110024",
    "prefecture": "三重県",
    "prefecture_kana": "ミエケン",
    "prefecture_code": "24",
    "city": "桑名市",
    "city_kana": "クワナシ",
    "town": "北魚町",
    "town_kana": "キタウオマチ",
    "street": null,
    "office_name": null,
    "office_name_kana": null
  },
  "0025": {
    "zip_code": "5110025",
    "prefecture": "三重県",
    "prefecture_kana": "ミエケン",
    "prefecture_code": "24",
    "city": "桑名市",
    "city_kana": "クワナシ",
    "town": "風呂町",
    "town_kana": "フロマチ",
    "street": null,
    "office_name": null,
    "office_name_kana": null
  },
  "0026": {
    "zip_code": "5110026",
    "prefecture": "三重県",
    "prefecture_kana": "ミエケン",
    "prefecture_code": "24",
    "city": "桑名市",
    "city_kana": "クワナシ",
    "town": "宮町",
    "town_kana": "ミヤマチ",
    "street": null,
    "office_name": null,
    "office_name_kana": null
  },
  "0027": {
    "zip_code": "5110027",
    "prefecture": "三重県",
    "prefecture_kana": "ミエケン",
    "prefecture_code": "24",
    "city": "桑名市",
    "city_kana": "クワナシ",
    "town": "福島新町",
    "town_kana": "フクジマシンマチ",
    "street": null,
    "office_name": null,
    "office_name_kana": null
  },
  "0031": {
    "zip_code": "5110031",
    "prefecture": "三重県",
    "prefecture_kana": "ミエケン",
    "prefecture_code": "24",
    "city": "桑名市",
    "city_kana": "クワナシ",
    "town": "三之丸",
    "town_kana": "サンノマル",
    "street": null,
    "office_name": null,
    "office_name_kana": null
  },
  "0032": {
    "zip_code": "5110032",
    "prefecture": "三重県",
    "prefecture_kana": "ミエケン",
    "prefecture_code": "24",
    "city": "桑名市",
    "city_kana": "クワナシ",
    "town": "吉之丸",
    "town_kana": "ヨシノマル",
    "street": null,
    "office_name": null,
    "office_name_kana": null
  },
  "0033": {
    "zip_code": "5110033",
    "prefecture": "三重県",
    "prefecture_kana": "ミエケン",
    "prefecture_code": "24",
    "city": "桑名市",
    "city_kana": "クワナシ",
    "town": "赤須賀",
    "town_kana": "アカスカ",
    "street": null,
    "office_name": null,
    "office_name_kana": null
  },
  "0034": {
    "zip_code": "5110034",
    "prefecture": "三重県",
    "prefecture_kana": "ミエケン",
    "prefecture_code": "24",
    "city": "桑名市",
    "city_kana": "クワナシ",
    "town": "地蔵",
    "town_kana": "ジゾウ",
    "street": null,
    "office_name": null,
    "office_name_kana": null
  },
  "0035": {
    "zip_code": "5110035",
    "prefecture": "三重県",
    "prefecture_kana": "ミエケン",
    "prefecture_code": "24",
    "city": "桑名市",
    "city_kana": "クワナシ",
    "town": "東野",
    "town_kana": "ヒガシノ",
    "street": null,
    "office_name": null,
    "office_name_kana": null
  },
  "0036": {
    "zip_code": "5110036",
    "prefecture": "三重県",
    "prefecture_kana": "ミエケン",
    "prefecture_code": "24",
    "city": "桑名市",
    "city_kana": "クワナシ",
    "town": "伊賀町",
    "town_kana": "イガマチ",
    "street": null,
    "office_name": null,
    "office_name_kana": null
  },
  "0037": {
    "zip_code": "5110037",
    "prefecture": "三重県",
    "prefecture_kana": "ミエケン",
    "prefecture_code": "24",
    "city": "桑名市",
    "city_kana": "クワナシ",
    "town": "元赤須賀",
    "town_kana": "モトアカスカ",
    "street": null,
    "office_name": null,
    "office_name_kana": null
  },
  "0038": {
    "zip_code": "5110038",
    "prefecture": "三重県",
    "prefecture_kana": "ミエケン",
    "prefecture_code": "24",
    "city": "桑名市",
    "city_kana": "クワナシ",
    "town": "内堀",
    "town_kana": "ウチボリ",
    "street": null,
    "office_name": null,
    "office_name_kana": null
  },
  "0039": {
    "zip_code": "5110039",
    "prefecture": "三重県",
    "prefecture_kana": "ミエケン",
    "prefecture_code": "24",
    "city": "桑名市",
    "city_kana": "クワナシ",
    "town": "京町",
    "town_kana": "キョウマチ",
    "street": null,
    "office_name": null,
    "office_name_kana": null
  },
  "0041": {
    "zip_code": "5110041",
    "prefecture": "三重県",
    "prefecture_kana": "ミエケン",
    "prefecture_code": "24",
    "city": "桑名市",
    "city_kana": "クワナシ",
    "town": "外堀",
    "town_kana": "ソトボリ",
    "street": null,
    "office_name": null,
    "office_name_kana": null
  },
  "0042": {
    "zip_code": "5110042",
    "prefecture": "三重県",
    "prefecture_kana": "ミエケン",
    "prefecture_code": "24",
    "city": "桑名市",
    "city_kana": "クワナシ",
    "town": "柳原",
    "town_kana": "ヤナギハラ",
    "street": null,
    "office_name": null,
    "office_name_kana": null
  },
  "0043": {
    "zip_code": "5110043",
    "prefecture": "三重県",
    "prefecture_kana": "ミエケン",
    "prefecture_code": "24",
    "city": "桑名市",
    "city_kana": "クワナシ",
    "town": "新屋敷",
    "town_kana": "シンヤシキ",
    "street": null,
    "office_name": null,
    "office_name_kana": null
  },
  "0044": {
    "zip_code": "5110044",
    "prefecture": "三重県",
    "prefecture_kana": "ミエケン",
    "prefecture_code": "24",
    "city": "桑名市",
    "city_kana": "クワナシ",
    "town": "萱町",
    "town_kana": "カヤマチ",
    "street": null,
    "office_name": null,
    "office_name_kana": null
  },
  "0045": {
    "zip_code": "5110045",
    "prefecture": "三重県",
    "prefecture_kana": "ミエケン",
    "prefecture_code": "24",
    "city": "桑名市",
    "city_kana": "クワナシ",
    "town": "伝馬町",
    "town_kana": "テンマチョウ",
    "street": null,
    "office_name": null,
    "office_name_kana": null
  },
  "0046": {
    "zip_code": "5110046",
    "prefecture": "三重県",
    "prefecture_kana": "ミエケン",
    "prefecture_code": "24",
    "city": "桑名市",
    "city_kana": "クワナシ",
    "town": "一色町",
    "town_kana": "イッシキマチ",
    "street": null,
    "office_name": null,
    "office_name_kana": null
  },
  "0047": {
    "zip_code": "5110047",
    "prefecture": "三重県",
    "prefecture_kana": "ミエケン",
    "prefecture_code": "24",
    "city": "桑名市",
    "city_kana": "クワナシ",
    "town": "鍛冶町",
    "town_kana": "カジマチ",
    "street": null,
    "office_name": null,
    "office_name_kana": null
  },
  "0048": {
    "zip_code": "5110048",
    "prefecture": "三重県",
    "prefecture_kana": "ミエケン",
    "prefecture_code": "24",
    "city": "桑名市",
    "city_kana": "クワナシ",
    "town": "新町",
    "town_kana": "シンマチ",
    "street": null,
    "office_name": null,
    "office_name_kana": null
  },
  "0049": {
    "zip_code": "5110049",
    "prefecture": "三重県",
    "prefecture_kana": "ミエケン",
    "prefecture_code": "24",
    "city": "桑名市",
    "city_kana": "クワナシ",
    "town": "八幡町",
    "town_kana": "ハチマンチョウ",
    "street": null,
    "office_name": null,
    "office_name_kana": null
  },
  "0051": {
    "zip_code": "5110051",
    "prefecture": "三重県",
    "prefecture_kana": "ミエケン",
    "prefecture_code": "24",
    "city": "桑名市",
    "city_kana": "クワナシ",
    "town": "矢田磧",
    "town_kana": "ヤダカワラ",
    "street": null,
    "office_name": null,
    "office_name_kana": null
  },
  "0052": {
    "zip_code": "5110052",
    "prefecture": "三重県",
    "prefecture_kana": "ミエケン",
    "prefecture_code": "24",
    "city": "桑名市",
    "city_kana": "クワナシ",
    "town": "相川町",
    "town_kana": "アイカワチョウ",
    "street": null,
    "office_name": null,
    "office_name_kana": null
  },
  "0053": {
    "zip_code": "5110053",
    "prefecture": "三重県",
    "prefecture_kana": "ミエケン",
    "prefecture_code": "24",
    "city": "桑名市",
    "city_kana": "クワナシ",
    "town": "東鍋屋町",
    "town_kana": "ヒガシナベヤマチ",
    "street": null,
    "office_name": null,
    "office_name_kana": null
  },
  "0054": {
    "zip_code": "5110054",
    "prefecture": "三重県",
    "prefecture_kana": "ミエケン",
    "prefecture_code": "24",
    "city": "桑名市",
    "city_kana": "クワナシ",
    "town": "西鍋屋町",
    "town_kana": "ニシナベヤマチ",
    "street": null,
    "office_name": null,
    "office_name_kana": null
  },
  "0055": {
    "zip_code": "5110055",
    "prefecture": "三重県",
    "prefecture_kana": "ミエケン",
    "prefecture_code": "24",
    "city": "桑名市",
    "city_kana": "クワナシ",
    "town": "東矢田町",
    "town_kana": "ヒガシヤダマチ",
    "street": null,
    "office_name": null,
    "office_name_kana": null
  },
  "0056": {
    "zip_code": "5110056",
    "prefecture": "三重県",
    "prefecture_kana": "ミエケン",
    "prefecture_code": "24",
    "city": "桑名市",
    "city_kana": "クワナシ",
    "town": "西矢田町",
    "town_kana": "ニシヤダマチ",
    "street": null,
    "office_name": null,
    "office_name_kana": null
  },
  "0057": {
    "zip_code": "5110057",
    "prefecture": "三重県",
    "prefecture_kana": "ミエケン",
    "prefecture_code": "24",
    "city": "桑名市",
    "city_kana": "クワナシ",
    "town": "三ツ矢橋",
    "town_kana": "ミツヤバシ",
    "street": null,
    "office_name": null,
    "office_name_kana": null
  },
  "0058": {
    "zip_code": "5110058",
    "prefecture": "三重県",
    "prefecture_kana": "ミエケン",
    "prefecture_code": "24",
    "city": "桑名市",
    "city_kana": "クワナシ",
    "town": "千代田町",
    "town_kana": "チヨダチョウ",
    "street": null,
    "office_name": null,
    "office_name_kana": null
  },
  "0061": {
    "zip_code": "5110061",
    "prefecture": "三重県",
    "prefecture_kana": "ミエケン",
    "prefecture_code": "24",
    "city": "桑名市",
    "city_kana": "クワナシ",
    "town": "寿町",
    "town_kana": "コトブキチョウ",
    "street": null,
    "office_name": null,
    "office_name_kana": null
  },
  "0062": {
    "zip_code": "5110062",
    "prefecture": "三重県",
    "prefecture_kana": "ミエケン",
    "prefecture_code": "24",
    "city": "桑名市",
    "city_kana": "クワナシ",
    "town": "常盤町",
    "town_kana": "トキワチョウ",
    "street": null,
    "office_name": null,
    "office_name_kana": null
  },
  "0063": {
    "zip_code": "5110063",
    "prefecture": "三重県",
    "prefecture_kana": "ミエケン",
    "prefecture_code": "24",
    "city": "桑名市",
    "city_kana": "クワナシ",
    "town": "京橋町",
    "town_kana": "キョウバシチョウ",
    "street": null,
    "office_name": null,
    "office_name_kana": null
  },
  "0064": {
    "zip_code": "5110064",
    "prefecture": "三重県",
    "prefecture_kana": "ミエケン",
    "prefecture_code": "24",
    "city": "桑名市",
    "city_kana": "クワナシ",
    "town": "新築町",
    "town_kana": "シンチクチョウ",
    "street": null,
    "office_name": null,
    "office_name_kana": null
  },
  "0065": {
    "zip_code": "5110065",
    "prefecture": "三重県",
    "prefecture_kana": "ミエケン",
    "prefecture_code": "24",
    "city": "桑名市",
    "city_kana": "クワナシ",
    "town": "大央町",
    "town_kana": "ダイオウチョウ",
    "street": null,
    "office_name": null,
    "office_name_kana": null
  },
  "0066": {
    "zip_code": "5110066",
    "prefecture": "三重県",
    "prefecture_kana": "ミエケン",
    "prefecture_code": "24",
    "city": "桑名市",
    "city_kana": "クワナシ",
    "town": "北鍋屋町",
    "town_kana": "キタナベヤマチ",
    "street": null,
    "office_name": null,
    "office_name_kana": null
  },
  "0067": {
    "zip_code": "5110067",
    "prefecture": "三重県",
    "prefecture_kana": "ミエケン",
    "prefecture_code": "24",
    "city": "桑名市",
    "city_kana": "クワナシ",
    "town": "掛樋",
    "town_kana": "カケヒ",
    "street": null,
    "office_name": null,
    "office_name_kana": null
  },
  "0068": {
    "zip_code": "5110068",
    "prefecture": "三重県",
    "prefecture_kana": "ミエケン",
    "prefecture_code": "24",
    "city": "桑名市",
    "city_kana": "クワナシ",
    "town": "中央町",
    "town_kana": "チュウオウチョウ",
    "street": null,
    "office_name": null,
    "office_name_kana": null
  },
  "0069": {
    "zip_code": "5110069",
    "prefecture": "三重県",
    "prefecture_kana": "ミエケン",
    "prefecture_code": "24",
    "city": "桑名市",
    "city_kana": "クワナシ",
    "town": "新矢田",
    "town_kana": "シンヤダ",
    "street": null,
    "office_name": null,
    "office_name_kana": null
  },
  "0071": {
    "zip_code": "5110071",
    "prefecture": "三重県",
    "prefecture_kana": "ミエケン",
    "prefecture_code": "24",
    "city": "桑名市",
    "city_kana": "クワナシ",
    "town": "駅元町",
    "town_kana": "エキモトチョウ",
    "street": null,
    "office_name": null,
    "office_name_kana": null
  },
  "0072": {
    "zip_code": "5110072",
    "prefecture": "三重県",
    "prefecture_kana": "ミエケン",
    "prefecture_code": "24",
    "city": "桑名市",
    "city_kana": "クワナシ",
    "town": "堤原",
    "town_kana": "ツツミハラ",
    "street": null,
    "office_name": null,
    "office_name_kana": null
  },
  "0073": {
    "zip_code": "5110073",
    "prefecture": "三重県",
    "prefecture_kana": "ミエケン",
    "prefecture_code": "24",
    "city": "桑名市",
    "city_kana": "クワナシ",
    "town": "北寺町",
    "town_kana": "キタテラマチ",
    "street": null,
    "office_name": null,
    "office_name_kana": null
  },
  "0074": {
    "zip_code": "5110074",
    "prefecture": "三重県",
    "prefecture_kana": "ミエケン",
    "prefecture_code": "24",
    "city": "桑名市",
    "city_kana": "クワナシ",
    "town": "南寺町",
    "town_kana": "ミナミテラマチ",
    "street": null,
    "office_name": null,
    "office_name_kana": null
  },
  "0075": {
    "zip_code": "5110075",
    "prefecture": "三重県",
    "prefecture_kana": "ミエケン",
    "prefecture_code": "24",
    "city": "桑名市",
    "city_kana": "クワナシ",
    "town": "三栄町",
    "town_kana": "サンエイチョウ",
    "street": null,
    "office_name": null,
    "office_name_kana": null
  },
  "0076": {
    "zip_code": "5110076",
    "prefecture": "三重県",
    "prefecture_kana": "ミエケン",
    "prefecture_code": "24",
    "city": "桑名市",
    "city_kana": "クワナシ",
    "town": "八間通",
    "town_kana": "ハチケンドオリ",
    "street": null,
    "office_name": null,
    "office_name_kana": null
  },
  "0077": {
    "zip_code": "5110077",
    "prefecture": "三重県",
    "prefecture_kana": "ミエケン",
    "prefecture_code": "24",
    "city": "桑名市",
    "city_kana": "クワナシ",
    "town": "末広町",
    "town_kana": "スエヒロチョウ",
    "street": null,
    "office_name": null,
    "office_name_kana": null
  },
  "0078": {
    "zip_code": "5110078",
    "prefecture": "三重県",
    "prefecture_kana": "ミエケン",
    "prefecture_code": "24",
    "city": "桑名市",
    "city_kana": "クワナシ",
    "town": "桑栄町",
    "town_kana": "ソウエイチョウ",
    "street": null,
    "office_name": null,
    "office_name_kana": null
  },
  "0079": {
    "zip_code": "5110079",
    "prefecture": "三重県",
    "prefecture_kana": "ミエケン",
    "prefecture_code": "24",
    "city": "桑名市",
    "city_kana": "クワナシ",
    "town": "有楽町",
    "town_kana": "ユウラクチョウ",
    "street": null,
    "office_name": null,
    "office_name_kana": null
  },
  "0081": {
    "zip_code": "5110081",
    "prefecture": "三重県",
    "prefecture_kana": "ミエケン",
    "prefecture_code": "24",
    "city": "桑名市",
    "city_kana": "クワナシ",
    "town": "片町",
    "town_kana": "カタマチ",
    "street": null,
    "office_name": null,
    "office_name_kana": null
  },
  "0082": {
    "zip_code": "5110082",
    "prefecture": "三重県",
    "prefecture_kana": "ミエケン",
    "prefecture_code": "24",
    "city": "桑名市",
    "city_kana": "クワナシ",
    "town": "宮通",
    "town_kana": "ミヤドオリ",
    "street": null,
    "office_name": null,
    "office_name_kana": null
  },
  "0083": {
    "zip_code": "5110083",
    "prefecture": "三重県",
    "prefecture_kana": "ミエケン",
    "prefecture_code": "24",
    "city": "桑名市",
    "city_kana": "クワナシ",
    "town": "職人町",
    "town_kana": "ショクニンマチ",
    "street": null,
    "office_name": null,
    "office_name_kana": null
  },
  "0084": {
    "zip_code": "5110084",
    "prefecture": "三重県",
    "prefecture_kana": "ミエケン",
    "prefecture_code": "24",
    "city": "桑名市",
    "city_kana": "クワナシ",
    "town": "油町",
    "town_kana": "アブラマチ",
    "street": null,
    "office_name": null,
    "office_name_kana": null
  },
  "0085": {
    "zip_code": "5110085",
    "prefecture": "三重県",
    "prefecture_kana": "ミエケン",
    "prefecture_code": "24",
    "city": "桑名市",
    "city_kana": "クワナシ",
    "town": "紺屋町",
    "town_kana": "コンヤマチ",
    "street": null,
    "office_name": null,
    "office_name_kana": null
  },
  "0086": {
    "zip_code": "5110086",
    "prefecture": "三重県",
    "prefecture_kana": "ミエケン",
    "prefecture_code": "24",
    "city": "桑名市",
    "city_kana": "クワナシ",
    "town": "入江葭町",
    "town_kana": "イリエヨシマチ",
    "street": null,
    "office_name": null,
    "office_name_kana": null
  },
  "0087": {
    "zip_code": "5110087",
    "prefecture": "三重県",
    "prefecture_kana": "ミエケン",
    "prefecture_code": "24",
    "city": "桑名市",
    "city_kana": "クワナシ",
    "town": "吉津屋町",
    "town_kana": "ヨツヤチョウ",
    "street": null,
    "office_name": null,
    "office_name_kana": null
  },
  "0088": {
    "zip_code": "5110088",
    "prefecture": "三重県",
    "prefecture_kana": "ミエケン",
    "prefecture_code": "24",
    "city": "桑名市",
    "city_kana": "クワナシ",
    "town": "南魚町",
    "town_kana": "ミナミウオマチ",
    "street": null,
    "office_name": null,
    "office_name_kana": null
  },
  "0089": {
    "zip_code": "5110089",
    "prefecture": "三重県",
    "prefecture_kana": "ミエケン",
    "prefecture_code": "24",
    "city": "桑名市",
    "city_kana": "クワナシ",
    "town": "田町",
    "town_kana": "タマチ",
    "street": null,
    "office_name": null,
    "office_name_kana": null
  },
  "0101": {
    "zip_code": "5110101",
    "prefecture": "三重県",
    "prefecture_kana": "ミエケン",
    "prefecture_code": "24",
    "city": "桑名市",
    "city_kana": "クワナシ",
    "town": "多度町柚井",
    "town_kana": "タドチョウユイ",
    "street": null,
    "office_name": null,
    "office_name_kana": null
  },
  "0102": {
    "zip_code": "5110102",
    "prefecture": "三重県",
    "prefecture_kana": "ミエケン",
    "prefecture_code": "24",
    "city": "桑名市",
    "city_kana": "クワナシ",
    "town": "多度町香取",
    "town_kana": "タドチョウカトリ",
    "street": null,
    "office_name": null,
    "office_name_kana": null
  },
  "0103": {
    "zip_code": "5110103",
    "prefecture": "三重県",
    "prefecture_kana": "ミエケン",
    "prefecture_code": "24",
    "city": "桑名市",
    "city_kana": "クワナシ",
    "town": "多度町戸津",
    "town_kana": "タドチョウトヅ",
    "street": null,
    "office_name": null,
    "office_name_kana": null
  },
  "0104": {
    "zip_code": "5110104",
    "prefecture": "三重県",
    "prefecture_kana": "ミエケン",
    "prefecture_code": "24",
    "city": "桑名市",
    "city_kana": "クワナシ",
    "town": "多度町肱江",
    "town_kana": "タドチョウヒジエ",
    "street": null,
    "office_name": null,
    "office_name_kana": null
  },
  "0105": {
    "zip_code": "5110105",
    "prefecture": "三重県",
    "prefecture_kana": "ミエケン",
    "prefecture_code": "24",
    "city": "桑名市",
    "city_kana": "クワナシ",
    "town": "多度町小山",
    "town_kana": "タドチョウオヤマ",
    "street": null,
    "office_name": null,
    "office_name_kana": null
  },
  "0106": {
    "zip_code": "5110106",
    "prefecture": "三重県",
    "prefecture_kana": "ミエケン",
    "prefecture_code": "24",
    "city": "桑名市",
    "city_kana": "クワナシ",
    "town": "多度町多度",
    "town_kana": "タドチョウタド",
    "street": null,
    "office_name": null,
    "office_name_kana": null
  },
  "0111": {
    "zip_code": "5110111",
    "prefecture": "三重県",
    "prefecture_kana": "ミエケン",
    "prefecture_code": "24",
    "city": "桑名市",
    "city_kana": "クワナシ",
    "town": "多度町平古",
    "town_kana": "タドチョウヒラコ",
    "street": null,
    "office_name": null,
    "office_name_kana": null
  },
  "0112": {
    "zip_code": "5110112",
    "prefecture": "三重県",
    "prefecture_kana": "ミエケン",
    "prefecture_code": "24",
    "city": "桑名市",
    "city_kana": "クワナシ",
    "town": "多度町福永",
    "town_kana": "タドチョウフクナガ",
    "street": null,
    "office_name": null,
    "office_name_kana": null
  },
  "0113": {
    "zip_code": "5110113",
    "prefecture": "三重県",
    "prefecture_kana": "ミエケン",
    "prefecture_code": "24",
    "city": "桑名市",
    "city_kana": "クワナシ",
    "town": "多度町上之郷",
    "town_kana": "タドチョウカミノゴウ",
    "street": null,
    "office_name": null,
    "office_name_kana": null
  },
  "0114": {
    "zip_code": "5110114",
    "prefecture": "三重県",
    "prefecture_kana": "ミエケン",
    "prefecture_code": "24",
    "city": "桑名市",
    "city_kana": "クワナシ",
    "town": "多度町中須",
    "town_kana": "タドチョウナカズ",
    "street": null,
    "office_name": null,
    "office_name_kana": null
  },
  "0115": {
    "zip_code": "5110115",
    "prefecture": "三重県",
    "prefecture_kana": "ミエケン",
    "prefecture_code": "24",
    "city": "桑名市",
    "city_kana": "クワナシ",
    "town": "多度町南之郷",
    "town_kana": "タドチョウミナミノゴウ",
    "street": null,
    "office_name": null,
    "office_name_kana": null
  },
  "0116": {
    "zip_code": "5110116",
    "prefecture": "三重県",
    "prefecture_kana": "ミエケン",
    "prefecture_code": "24",
    "city": "桑名市",
    "city_kana": "クワナシ",
    "town": "多度町大鳥居",
    "town_kana": "タドチョウオオドリイ",
    "street": null,
    "office_name": null,
    "office_name_kana": null
  },
  "0117": {
    "zip_code": "5110117",
    "prefecture": "三重県",
    "prefecture_kana": "ミエケン",
    "prefecture_code": "24",
    "city": "桑名市",
    "city_kana": "クワナシ",
    "town": "多度町下野代",
    "town_kana": "タドチョウシモノシロ",
    "street": null,
    "office_name": null,
    "office_name_kana": null
  },
  "0118": {
    "zip_code": "5110118",
    "prefecture": "三重県",
    "prefecture_kana": "ミエケン",
    "prefecture_code": "24",
    "city": "桑名市",
    "city_kana": "クワナシ",
    "town": "多度町御衣野",
    "town_kana": "タドチョウミゾノ",
    "street": null,
    "office_name": null,
    "office_name_kana": null
  },
  "0121": {
    "zip_code": "5110121",
    "prefecture": "三重県",
    "prefecture_kana": "ミエケン",
    "prefecture_code": "24",
    "city": "桑名市",
    "city_kana": "クワナシ",
    "town": "多度町美鹿",
    "town_kana": "タドチョウビロク",
    "street": null,
    "office_name": null,
    "office_name_kana": null
  },
  "0122": {
    "zip_code": "5110122",
    "prefecture": "三重県",
    "prefecture_kana": "ミエケン",
    "prefecture_code": "24",
    "city": "桑名市",
    "city_kana": "クワナシ",
    "town": "多度町古野",
    "town_kana": "タドチョウコノ",
    "street": null,
    "office_name": null,
    "office_name_kana": null
  },
  "0123": {
    "zip_code": "5110123",
    "prefecture": "三重県",
    "prefecture_kana": "ミエケン",
    "prefecture_code": "24",
    "city": "桑名市",
    "city_kana": "クワナシ",
    "town": "多度町北猪飼",
    "town_kana": "タドチョウキタイカイ",
    "street": null,
    "office_name": null,
    "office_name_kana": null
  },
  "0124": {
    "zip_code": "5110124",
    "prefecture": "三重県",
    "prefecture_kana": "ミエケン",
    "prefecture_code": "24",
    "city": "桑名市",
    "city_kana": "クワナシ",
    "town": "多度町猪飼",
    "town_kana": "タドチョウイカイ",
    "street": null,
    "office_name": null,
    "office_name_kana": null
  },
  "0125": {
    "zip_code": "5110125",
    "prefecture": "三重県",
    "prefecture_kana": "ミエケン",
    "prefecture_code": "24",
    "city": "桑名市",
    "city_kana": "クワナシ",
    "town": "多度町力尾",
    "town_kana": "タドチョウチカラオ",
    "street": null,
    "office_name": null,
    "office_name_kana": null
  },
  "0192": {
    "zip_code": "5110192",
    "prefecture": "三重県",
    "prefecture_kana": "ミエケン",
    "prefecture_code": "24",
    "city": "桑名市",
    "city_kana": "クワナシ",
    "town": "多度町御衣野",
    "town_kana": "タドチョウミゾノ",
    "street": "１５００",
    "office_name": "富士通セミコンダクター　株式会社　三重工場",
    "office_name_kana": "フジツウセミコンダクタ- カブシキガイシヤ ミエコウジヨウ"
  },
  "0198": {
    "zip_code": "5110198",
    "prefecture": "三重県",
    "prefecture_kana": "ミエケン",
    "prefecture_code": "24",
    "city": "桑名市",
    "city_kana": "クワナシ",
    "town": "多度町多度",
    "town_kana": "タドチョウタド",
    "street": "１丁目１−１",
    "office_name": "多度町総合支所",
    "office_name_kana": "タドチヨウソウゴウシシヨ"
  },
  "0200": [
    {
      "zip_code": "5110200",
      "prefecture": "三重県",
      "prefecture_kana": "ミエケン",
      "prefecture_code": "24",
      "city": "いなべ市",
      "city_kana": "イナベシ",
      "town": "",
      "town_kana": "",
      "street": null,
      "office_name": null,
      "office_name_kana": null
    },
    {
      "zip_code": "5110200",
      "prefecture": "三重県",
      "prefecture_kana": "ミエケン",
      "prefecture_code": "24",
      "city": "員弁郡東員町",
      "city_kana": "イナベグントウインチョウ",
      "town": "",
      "town_kana": "",
      "street": null,
      "office_name": null,
      "office_name_kana": null
    }
  ],
  "0201": {
    "zip_code": "5110201",
    "prefecture": "三重県",
    "prefecture_kana": "ミエケン",
    "prefecture_code": "24",
    "city": "いなべ市",
    "city_kana": "イナベシ",
    "town": "員弁町市之原",
    "town_kana": "イナベチョウイチノハラ",
    "street": null,
    "office_name": null,
    "office_name_kana": null
  },
  "0202": {
    "zip_code": "5110202",
    "prefecture": "三重県",
    "prefecture_kana": "ミエケン",
    "prefecture_code": "24",
    "city": "いなべ市",
    "city_kana": "イナベシ",
    "town": "員弁町楚原",
    "town_kana": "イナベチョウソハラ",
    "street": null,
    "office_name": null,
    "office_name_kana": null
  },
  "0203": {
    "zip_code": "5110203",
    "prefecture": "三重県",
    "prefecture_kana": "ミエケン",
    "prefecture_code": "24",
    "city": "いなべ市",
    "city_kana": "イナベシ",
    "town": "員弁町畑新田",
    "town_kana": "イナベチョウハタシンデン",
    "street": null,
    "office_name": null,
    "office_name_kana": null
  },
  "0204": {
    "zip_code": "5110204",
    "prefecture": "三重県",
    "prefecture_kana": "ミエケン",
    "prefecture_code": "24",
    "city": "いなべ市",
    "city_kana": "イナベシ",
    "town": "員弁町石仏",
    "town_kana": "イナベチョウイシボトケ",
    "street": null,
    "office_name": null,
    "office_name_kana": null
  },
  "0205": {
    "zip_code": "5110205",
    "prefecture": "三重県",
    "prefecture_kana": "ミエケン",
    "prefecture_code": "24",
    "city": "いなべ市",
    "city_kana": "イナベシ",
    "town": "員弁町笠田新田",
    "town_kana": "イナベチョウカサダシンデン",
    "street": null,
    "office_name": null,
    "office_name_kana": null
  },
  "0206": {
    "zip_code": "5110206",
    "prefecture": "三重県",
    "prefecture_kana": "ミエケン",
    "prefecture_code": "24",
    "city": "いなべ市",
    "city_kana": "イナベシ",
    "town": "員弁町宇野",
    "town_kana": "イナベチョウウノ",
    "street": null,
    "office_name": null,
    "office_name_kana": null
  },
  "0207": {
    "zip_code": "5110207",
    "prefecture": "三重県",
    "prefecture_kana": "ミエケン",
    "prefecture_code": "24",
    "city": "いなべ市",
    "city_kana": "イナベシ",
    "town": "員弁町上笠田",
    "town_kana": "イナベチョウカミカサダ",
    "street": null,
    "office_name": null,
    "office_name_kana": null
  },
  "0208": {
    "zip_code": "5110208",
    "prefecture": "三重県",
    "prefecture_kana": "ミエケン",
    "prefecture_code": "24",
    "city": "いなべ市",
    "city_kana": "イナベシ",
    "town": "員弁町坂東新田",
    "town_kana": "イナベチョウバンドウシンデン",
    "street": null,
    "office_name": null,
    "office_name_kana": null
  },
  "0211": {
    "zip_code": "5110211",
    "prefecture": "三重県",
    "prefecture_kana": "ミエケン",
    "prefecture_code": "24",
    "city": "いなべ市",
    "city_kana": "イナベシ",
    "town": "員弁町松名新田",
    "town_kana": "イナベチョウマツナシンデン",
    "street": null,
    "office_name": null,
    "office_name_kana": null
  },
  "0212": {
    "zip_code": "5110212",
    "prefecture": "三重県",
    "prefecture_kana": "ミエケン",
    "prefecture_code": "24",
    "city": "いなべ市",
    "city_kana": "イナベシ",
    "town": "員弁町平古",
    "town_kana": "イナベチョウヒラコ",
    "street": null,
    "office_name": null,
    "office_name_kana": null
  },
  "0213": {
    "zip_code": "5110213",
    "prefecture": "三重県",
    "prefecture_kana": "ミエケン",
    "prefecture_code": "24",
    "city": "いなべ市",
    "city_kana": "イナベシ",
    "town": "員弁町暮明",
    "town_kana": "イナベチョウクラガリ",
    "street": null,
    "office_name": null,
    "office_name_kana": null
  },
  "0214": {
    "zip_code": "5110214",
    "prefecture": "三重県",
    "prefecture_kana": "ミエケン",
    "prefecture_code": "24",
    "city": "いなべ市",
    "city_kana": "イナベシ",
    "town": "員弁町岡丁田",
    "town_kana": "イナベチョウオカチョウダ",
    "street": null,
    "office_name": null,
    "office_name_kana": null
  },
  "0215": {
    "zip_code": "5110215",
    "prefecture": "三重県",
    "prefecture_kana": "ミエケン",
    "prefecture_code": "24",
    "city": "いなべ市",
    "city_kana": "イナベシ",
    "town": "員弁町東一色",
    "town_kana": "イナベチョウヒガシイッシキ",
    "street": null,
    "office_name": null,
    "office_name_kana": null
  },
  "0216": {
    "zip_code": "5110216",
    "prefecture": "三重県",
    "prefecture_kana": "ミエケン",
    "prefecture_code": "24",
    "city": "いなべ市",
    "city_kana": "イナベシ",
    "town": "員弁町松之木",
    "town_kana": "イナベチョウマツノキ",
    "street": null,
    "office_name": null,
    "office_name_kana": null
  },
  "0217": {
    "zip_code": "5110217",
    "prefecture": "三重県",
    "prefecture_kana": "ミエケン",
    "prefecture_code": "24",
    "city": "いなべ市",
    "city_kana": "イナベシ",
    "town": "員弁町大泉新田",
    "town_kana": "イナベチョウオオイズミシンデン",
    "street": null,
    "office_name": null,
    "office_name_kana": null
  },
  "0221": {
    "zip_code": "5110221",
    "prefecture": "三重県",
    "prefecture_kana": "ミエケン",
    "prefecture_code": "24",
    "city": "いなべ市",
    "city_kana": "イナベシ",
    "town": "員弁町下笠田",
    "town_kana": "イナベチョウシモカサダ",
    "street": null,
    "office_name": null,
    "office_name_kana": null
  },
  "0222": {
    "zip_code": "5110222",
    "prefecture": "三重県",
    "prefecture_kana": "ミエケン",
    "prefecture_code": "24",
    "city": "いなべ市",
    "city_kana": "イナベシ",
    "town": "員弁町御薗",
    "town_kana": "イナベチョウミソノ",
    "street": null,
    "office_name": null,
    "office_name_kana": null
  },
  "0223": {
    "zip_code": "5110223",
    "prefecture": "三重県",
    "prefecture_kana": "ミエケン",
    "prefecture_code": "24",
    "city": "いなべ市",
    "city_kana": "イナベシ",
    "town": "員弁町北金井",
    "town_kana": "イナベチョウキタカナイ",
    "street": null,
    "office_name": null,
    "office_name_kana": null
  },
  "0224": {
    "zip_code": "5110224",
    "prefecture": "三重県",
    "prefecture_kana": "ミエケン",
    "prefecture_code": "24",
    "city": "いなべ市",
    "city_kana": "イナベシ",
    "town": "員弁町大泉",
    "town_kana": "イナベチョウオオイズミ",
    "street": null,
    "office_name": null,
    "office_name_kana": null
  },
  "0225": {
    "zip_code": "5110225",
    "prefecture": "三重県",
    "prefecture_kana": "ミエケン",
    "prefecture_code": "24",
    "city": "いなべ市",
    "city_kana": "イナベシ",
    "town": "員弁町西方",
    "town_kana": "イナベチョウニシガタ",
    "street": null,
    "office_name": null,
    "office_name_kana": null
  },
  "0231": {
    "zip_code": "5110231",
    "prefecture": "三重県",
    "prefecture_kana": "ミエケン",
    "prefecture_code": "24",
    "city": "員弁郡東員町",
    "city_kana": "イナベグントウインチョウ",
    "town": "笹尾西",
    "town_kana": "ササオニシ",
    "street": null,
    "office_name": null,
    "office_name_kana": null
  },
  "0232": {
    "zip_code": "5110232",
    "prefecture": "三重県",
    "prefecture_kana": "ミエケン",
    "prefecture_code": "24",
    "city": "員弁郡東員町",
    "city_kana": "イナベグントウインチョウ",
    "town": "笹尾東",
    "town_kana": "ササオヒガシ",
    "street": null,
    "office_name": null,
    "office_name_kana": null
  },
  "0233": {
    "zip_code": "5110233",
    "prefecture": "三重県",
    "prefecture_kana": "ミエケン",
    "prefecture_code": "24",
    "city": "員弁郡東員町",
    "city_kana": "イナベグントウインチョウ",
    "town": "城山",
    "town_kana": "シロヤマ",
    "street": null,
    "office_name": null,
    "office_name_kana": null
  },
  "0241": {
    "zip_code": "5110241",
    "prefecture": "三重県",
    "prefecture_kana": "ミエケン",
    "prefecture_code": "24",
    "city": "員弁郡東員町",
    "city_kana": "イナベグントウインチョウ",
    "town": "鳥取",
    "town_kana": "トットリ",
    "street": null,
    "office_name": null,
    "office_name_kana": null
  },
  "0242": {
    "zip_code": "5110242",
    "prefecture": "三重県",
    "prefecture_kana": "ミエケン",
    "prefecture_code": "24",
    "city": "員弁郡東員町",
    "city_kana": "イナベグントウインチョウ",
    "town": "六把野新田",
    "town_kana": "ロッパノシンデン",
    "street": null,
    "office_name": null,
    "office_name_kana": null
  },
  "0243": {
    "zip_code": "5110243",
    "prefecture": "三重県",
    "prefecture_kana": "ミエケン",
    "prefecture_code": "24",
    "city": "員弁郡東員町",
    "city_kana": "イナベグントウインチョウ",
    "town": "穴太",
    "town_kana": "アノウ",
    "street": null,
    "office_name": null,
    "office_name_kana": null
  },
  "0244": {
    "zip_code": "5110244",
    "prefecture": "三重県",
    "prefecture_kana": "ミエケン",
    "prefecture_code": "24",
    "city": "員弁郡東員町",
    "city_kana": "イナベグントウインチョウ",
    "town": "大木",
    "town_kana": "オオキ",
    "street": null,
    "office_name": null,
    "office_name_kana": null
  },
  "0245": {
    "zip_code": "5110245",
    "prefecture": "三重県",
    "prefecture_kana": "ミエケン",
    "prefecture_code": "24",
    "city": "員弁郡東員町",
    "city_kana": "イナベグントウインチョウ",
    "town": "八幡新田",
    "town_kana": "ハチマンシンデン",
    "street": null,
    "office_name": null,
    "office_name_kana": null
  },
  "0251": [
    {
      "zip_code": "5110251",
      "prefecture": "三重県",
      "prefecture_kana": "ミエケン",
      "prefecture_code": "24",
      "city": "員弁郡東員町",
      "city_kana": "イナベグントウインチョウ",
      "town": "北山田",
      "town_kana": "キタヤマダ",
      "street": null,
      "office_name": null,
      "office_name_kana": null
    },
    {
      "zip_code": "5110251",
      "prefecture": "三重県",
      "prefecture_kana": "ミエケン",
      "prefecture_code": "24",
      "city": "員弁郡東員町",
      "city_kana": "イナベグントウインチョウ",
      "town": "山田",
      "town_kana": "ヤマダ",
      "street": null,
      "office_name": null,
      "office_name_kana": null
    }
  ],
  "0252": {
    "zip_code": "5110252",
    "prefecture": "三重県",
    "prefecture_kana": "ミエケン",
    "prefecture_code": "24",
    "city": "員弁郡東員町",
    "city_kana": "イナベグントウインチョウ",
    "town": "瀬古泉",
    "town_kana": "セコイズミ",
    "street": null,
    "office_name": null,
    "office_name_kana": null
  },
  "0253": {
    "zip_code": "5110253",
    "prefecture": "三重県",
    "prefecture_kana": "ミエケン",
    "prefecture_code": "24",
    "city": "員弁郡東員町",
    "city_kana": "イナベグントウインチョウ",
    "town": "筑紫",
    "town_kana": "ツクシ",
    "street": null,
    "office_name": null,
    "office_name_kana": null
  },
  "0254": {
    "zip_code": "5110254",
    "prefecture": "三重県",
    "prefecture_kana": "ミエケン",
    "prefecture_code": "24",
    "city": "員弁郡東員町",
    "city_kana": "イナベグントウインチョウ",
    "town": "中上",
    "town_kana": "ナカガミ",
    "street": null,
    "office_name": null,
    "office_name_kana": null
  },
  "0255": {
    "zip_code": "5110255",
    "prefecture": "三重県",
    "prefecture_kana": "ミエケン",
    "prefecture_code": "24",
    "city": "員弁郡東員町",
    "city_kana": "イナベグントウインチョウ",
    "town": "長深",
    "town_kana": "ナガフケ",
    "street": null,
    "office_name": null,
    "office_name_kana": null
  },
  "0256": {
    "zip_code": "5110256",
    "prefecture": "三重県",
    "prefecture_kana": "ミエケン",
    "prefecture_code": "24",
    "city": "員弁郡東員町",
    "city_kana": "イナベグントウインチョウ",
    "town": "南大社",
    "town_kana": "ミナミオオヤシロ",
    "street": null,
    "office_name": null,
    "office_name_kana": null
  },
  "0257": {
    "zip_code": "5110257",
    "prefecture": "三重県",
    "prefecture_kana": "ミエケン",
    "prefecture_code": "24",
    "city": "員弁郡東員町",
    "city_kana": "イナベグントウインチョウ",
    "town": "北大社",
    "town_kana": "キタオオヤシロ",
    "street": null,
    "office_name": null,
    "office_name_kana": null
  },
  "0261": {
    "zip_code": "5110261",
    "prefecture": "三重県",
    "prefecture_kana": "ミエケン",
    "prefecture_code": "24",
    "city": "いなべ市",
    "city_kana": "イナベシ",
    "town": "大安町丹生川上",
    "town_kana": "ダイアンチョウニュウガワカミ",
    "street": null,
    "office_name": null,
    "office_name_kana": null
  },
  "0262": {
    "zip_code": "5110262",
    "prefecture": "三重県",
    "prefecture_kana": "ミエケン",
    "prefecture_code": "24",
    "city": "いなべ市",
    "city_kana": "イナベシ",
    "town": "大安町丹生川中",
    "town_kana": "ダイアンチョウニュウガワナカ",
    "street": null,
    "office_name": null,
    "office_name_kana": null
  },
  "0263": {
    "zip_code": "5110263",
    "prefecture": "三重県",
    "prefecture_kana": "ミエケン",
    "prefecture_code": "24",
    "city": "いなべ市",
    "city_kana": "イナベシ",
    "town": "大安町丹生川久下",
    "town_kana": "ダイアンチョウニュウガワヒサカ",
    "street": null,
    "office_name": null,
    "office_name_kana": null
  },
  "0264": {
    "zip_code": "5110264",
    "prefecture": "三重県",
    "prefecture_kana": "ミエケン",
    "prefecture_code": "24",
    "city": "いなべ市",
    "city_kana": "イナベシ",
    "town": "大安町石榑東",
    "town_kana": "ダイアンチョウイシグレヒガシ",
    "street": null,
    "office_name": null,
    "office_name_kana": null
  },
  "0265": {
    "zip_code": "5110265",
    "prefecture": "三重県",
    "prefecture_kana": "ミエケン",
    "prefecture_code": "24",
    "city": "いなべ市",
    "city_kana": "イナベシ",
    "town": "大安町石榑北",
    "town_kana": "ダイアンチョウイシグレキタ",
    "street": null,
    "office_name": null,
    "office_name_kana": null
  },
  "0266": {
    "zip_code": "5110266",
    "prefecture": "三重県",
    "prefecture_kana": "ミエケン",
    "prefecture_code": "24",
    "city": "いなべ市",
    "city_kana": "イナベシ",
    "town": "大安町石榑南",
    "town_kana": "ダイアンチョウイシグレミナミ",
    "street": null,
    "office_name": null,
    "office_name_kana": null
  },
  "0267": {
    "zip_code": "5110267",
    "prefecture": "三重県",
    "prefecture_kana": "ミエケン",
    "prefecture_code": "24",
    "city": "いなべ市",
    "city_kana": "イナベシ",
    "town": "大安町石榑北山",
    "town_kana": "ダイアンチョウイシグレキタヤマ",
    "street": null,
    "office_name": null,
    "office_name_kana": null
  },
  "0271": {
    "zip_code": "5110271",
    "prefecture": "三重県",
    "prefecture_kana": "ミエケン",
    "prefecture_code": "24",
    "city": "いなべ市",
    "city_kana": "イナベシ",
    "town": "大安町片樋",
    "town_kana": "ダイアンチョウカタヒ",
    "street": null,
    "office_name": null,
    "office_name_kana": null
  },
  "0272": {
    "zip_code": "5110272",
    "prefecture": "三重県",
    "prefecture_kana": "ミエケン",
    "prefecture_code": "24",
    "city": "いなべ市",
    "city_kana": "イナベシ",
    "town": "大安町高柳",
    "town_kana": "ダイアンチョウタカヤナギ",
    "street": null,
    "office_name": null,
    "office_name_kana": null
  },
  "0273": {
    "zip_code": "5110273",
    "prefecture": "三重県",
    "prefecture_kana": "ミエケン",
    "prefecture_code": "24",
    "city": "いなべ市",
    "city_kana": "イナベシ",
    "town": "大安町平塚",
    "town_kana": "ダイアンチョウヒラツカ",
    "street": null,
    "office_name": null,
    "office_name_kana": null
  },
  "0274": {
    "zip_code": "5110274",
    "prefecture": "三重県",
    "prefecture_kana": "ミエケン",
    "prefecture_code": "24",
    "city": "いなべ市",
    "city_kana": "イナベシ",
    "town": "大安町大井田",
    "town_kana": "ダイアンチョウオオイダ",
    "street": null,
    "office_name": null,
    "office_name_kana": null
  },
  "0275": {
    "zip_code": "5110275",
    "prefecture": "三重県",
    "prefecture_kana": "ミエケン",
    "prefecture_code": "24",
    "city": "いなべ市",
    "city_kana": "イナベシ",
    "town": "大安町鍋坂",
    "town_kana": "ダイアンチョウナベサカ",
    "street": null,
    "office_name": null,
    "office_name_kana": null
  },
  "0276": {
    "zip_code": "5110276",
    "prefecture": "三重県",
    "prefecture_kana": "ミエケン",
    "prefecture_code": "24",
    "city": "いなべ市",
    "city_kana": "イナベシ",
    "town": "大安町石榑下",
    "town_kana": "ダイアンチョウイシグレシモ",
    "street": null,
    "office_name": null,
    "office_name_kana": null
  },
  "0281": {
    "zip_code": "5110281",
    "prefecture": "三重県",
    "prefecture_kana": "ミエケン",
    "prefecture_code": "24",
    "city": "いなべ市",
    "city_kana": "イナベシ",
    "town": "大安町門前",
    "town_kana": "ダイアンチョウモンゼン",
    "street": null,
    "office_name": null,
    "office_name_kana": null
  },
  "0282": {
    "zip_code": "5110282",
    "prefecture": "三重県",
    "prefecture_kana": "ミエケン",
    "prefecture_code": "24",
    "city": "いなべ市",
    "city_kana": "イナベシ",
    "town": "大安町大泉",
    "town_kana": "ダイアンチョウオオイズミ",
    "street": null,
    "office_name": null,
    "office_name_kana": null
  },
  "0283": {
    "zip_code": "5110283",
    "prefecture": "三重県",
    "prefecture_kana": "ミエケン",
    "prefecture_code": "24",
    "city": "いなべ市",
    "city_kana": "イナベシ",
    "town": "大安町南金井",
    "town_kana": "ダイアンチョウミナミカナイ",
    "street": null,
    "office_name": null,
    "office_name_kana": null
  },
  "0284": {
    "zip_code": "5110284",
    "prefecture": "三重県",
    "prefecture_kana": "ミエケン",
    "prefecture_code": "24",
    "city": "いなべ市",
    "city_kana": "イナベシ",
    "town": "大安町梅戸",
    "town_kana": "ダイアンチョウウメド",
    "street": null,
    "office_name": null,
    "office_name_kana": null
  },
  "0285": {
    "zip_code": "5110285",
    "prefecture": "三重県",
    "prefecture_kana": "ミエケン",
    "prefecture_code": "24",
    "city": "いなべ市",
    "city_kana": "イナベシ",
    "town": "大安町宇賀新田",
    "town_kana": "ダイアンチョウウガシンデン",
    "street": null,
    "office_name": null,
    "office_name_kana": null
  },
  "0286": {
    "zip_code": "5110286",
    "prefecture": "三重県",
    "prefecture_kana": "ミエケン",
    "prefecture_code": "24",
    "city": "いなべ市",
    "city_kana": "イナベシ",
    "town": "大安町宇賀",
    "town_kana": "ダイアンチョウウガ",
    "street": null,
    "office_name": null,
    "office_name_kana": null
  },
  "0287": {
    "zip_code": "5110287",
    "prefecture": "三重県",
    "prefecture_kana": "ミエケン",
    "prefecture_code": "24",
    "city": "いなべ市",
    "city_kana": "イナベシ",
    "town": "大安町中央ケ丘",
    "town_kana": "ダイアンチョウチュウオウガオカ",
    "street": null,
    "office_name": null,
    "office_name_kana": null
  },
  "0292": {
    "zip_code": "5110292",
    "prefecture": "三重県",
    "prefecture_kana": "ミエケン",
    "prefecture_code": "24",
    "city": "いなべ市",
    "city_kana": "イナベシ",
    "town": "大安町大井田",
    "town_kana": "ダイアンチョウオオイダ",
    "street": "２７０５",
    "office_name": "いなべ市役所　大安庁舎",
    "office_name_kana": "イナベシヤクシヨ ダイアンチヨウシヤ"
  },
  "0293": {
    "zip_code": "5110293",
    "prefecture": "三重県",
    "prefecture_kana": "ミエケン",
    "prefecture_code": "24",
    "city": "いなべ市",
    "city_kana": "イナベシ",
    "town": "員弁町笠田新田",
    "town_kana": "イナベチョウカサダシンデン",
    "street": "１１１",
    "office_name": "いなべ市役所　員弁庁舎",
    "office_name_kana": "イナベシヤクシヨ イナベチヨウシヤ"
  },
  "0294": {
    "zip_code": "5110294",
    "prefecture": "三重県",
    "prefecture_kana": null,
    "prefecture_code": null,
    "city": "員弁郡東員町",
    "city_kana": null,
    "town": "大字中上",
    "town_kana": null,
    "street": "２４００",
    "office_name": "東洋ゴム工業　株式会社　桑名工場",
    "office_name_kana": "トウヨウゴムコウギヨウ カブシキガイシヤ クワナコウジヨウ"
  },
  "0295": {
    "zip_code": "5110295",
    "prefecture": "三重県",
    "prefecture_kana": null,
    "prefecture_code": null,
    "city": "員弁郡東員町",
    "city_kana": null,
    "town": "大字山田",
    "town_kana": null,
    "street": "１６００",
    "office_name": "東員町役場",
    "office_name_kana": "トウインチヨウヤクバ"
  },
  "0296": {
    "zip_code": "5110296",
    "prefecture": "三重県",
    "prefecture_kana": "ミエケン",
    "prefecture_code": "24",
    "city": "いなべ市",
    "city_kana": "イナベシ",
    "town": "大安町門前",
    "town_kana": "ダイアンチョウモンゼン",
    "street": "１５３０",
    "office_name": "株式会社　デンソー　大安製作所",
    "office_name_kana": "カブシキガイシヤ デンソ- ダイアンセイサクシヨ"
  },
  "0298": {
    "zip_code": "5110298",
    "prefecture": "三重県",
    "prefecture_kana": null,
    "prefecture_code": null,
    "city": "員弁郡東員町",
    "city_kana": null,
    "town": "大字長深",
    "town_kana": null,
    "street": "字築田５１０−１",
    "office_name": "イオンモール　東員",
    "office_name_kana": "イオンモ-ル トウイン"
  },
  "0401": {
    "zip_code": "5110401",
    "prefecture": "三重県",
    "prefecture_kana": "ミエケン",
    "prefecture_code": "24",
    "city": "いなべ市",
    "city_kana": "イナベシ",
    "town": "北勢町川原",
    "town_kana": "ホクセイチョウカワハラ",
    "street": null,
    "office_name": null,
    "office_name_kana": null
  },
  "0402": {
    "zip_code": "5110402",
    "prefecture": "三重県",
    "prefecture_kana": "ミエケン",
    "prefecture_code": "24",
    "city": "いなべ市",
    "city_kana": "イナベシ",
    "town": "北勢町千司久連新田",
    "town_kana": "ホクセイチョウセンジグレシンデン",
    "street": null,
    "office_name": null,
    "office_name_kana": null
  },
  "0403": {
    "zip_code": "5110403",
    "prefecture": "三重県",
    "prefecture_kana": "ミエケン",
    "prefecture_code": "24",
    "city": "いなべ市",
    "city_kana": "イナベシ",
    "town": "北勢町二之瀬",
    "town_kana": "ホクセイチョウニノセ",
    "street": null,
    "office_name": null,
    "office_name_kana": null
  },
  "0404": {
    "zip_code": "5110404",
    "prefecture": "三重県",
    "prefecture_kana": "ミエケン",
    "prefecture_code": "24",
    "city": "いなべ市",
    "city_kana": "イナベシ",
    "town": "北勢町小原一色",
    "town_kana": "ホクセイチョウコハライッシキ",
    "street": null,
    "office_name": null,
    "office_name_kana": null
  },
  "0405": {
    "zip_code": "5110405",
    "prefecture": "三重県",
    "prefecture_kana": "ミエケン",
    "prefecture_code": "24",
    "city": "いなべ市",
    "city_kana": "イナベシ",
    "town": "北勢町田辺",
    "town_kana": "ホクセイチョウタナベ",
    "street": null,
    "office_name": null,
    "office_name_kana": null
  },
  "0406": {
    "zip_code": "5110406",
    "prefecture": "三重県",
    "prefecture_kana": "ミエケン",
    "prefecture_code": "24",
    "city": "いなべ市",
    "city_kana": "イナベシ",
    "town": "北勢町塩崎",
    "town_kana": "ホクセイチョウシオサキ",
    "street": null,
    "office_name": null,
    "office_name_kana": null
  },
  "0411": {
    "zip_code": "5110411",
    "prefecture": "三重県",
    "prefecture_kana": "ミエケン",
    "prefecture_code": "24",
    "city": "いなべ市",
    "city_kana": "イナベシ",
    "town": "北勢町京ケ野新田",
    "town_kana": "ホクセイチョウキョウガノシンデン",
    "street": null,
    "office_name": null,
    "office_name_kana": null
  },
  "0412": {
    "zip_code": "5110412",
    "prefecture": "三重県",
    "prefecture_kana": "ミエケン",
    "prefecture_code": "24",
    "city": "いなべ市",
    "city_kana": "イナベシ",
    "town": "北勢町向平",
    "town_kana": "ホクセイチョウムコヒラ",
    "street": null,
    "office_name": null,
    "office_name_kana": null
  },
  "0413": {
    "zip_code": "5110413",
    "prefecture": "三重県",
    "prefecture_kana": "ミエケン",
    "prefecture_code": "24",
    "city": "いなべ市",
    "city_kana": "イナベシ",
    "town": "北勢町畑毛",
    "town_kana": "ホクセイチョウハタケ",
    "street": null,
    "office_name": null,
    "office_name_kana": null
  },
  "0414": {
    "zip_code": "5110414",
    "prefecture": "三重県",
    "prefecture_kana": "ミエケン",
    "prefecture_code": "24",
    "city": "いなべ市",
    "city_kana": "イナベシ",
    "town": "北勢町西貝野",
    "town_kana": "ホクセイチョウニシカイノ",
    "street": null,
    "office_name": null,
    "office_name_kana": null
  },
  "0415": {
    "zip_code": "5110415",
    "prefecture": "三重県",
    "prefecture_kana": "ミエケン",
    "prefecture_code": "24",
    "city": "いなべ市",
    "city_kana": "イナベシ",
    "town": "北勢町東貝野",
    "town_kana": "ホクセイチョウヒガシカイノ",
    "street": null,
    "office_name": null,
    "office_name_kana": null
  },
  "0416": {
    "zip_code": "5110416",
    "prefecture": "三重県",
    "prefecture_kana": "ミエケン",
    "prefecture_code": "24",
    "city": "いなべ市",
    "city_kana": "イナベシ",
    "town": "北勢町飯倉",
    "town_kana": "ホクセイチョウイグラ",
    "street": null,
    "office_name": null,
    "office_name_kana": null
  },
  "0417": {
    "zip_code": "5110417",
    "prefecture": "三重県",
    "prefecture_kana": "ミエケン",
    "prefecture_code": "24",
    "city": "いなべ市",
    "city_kana": "イナベシ",
    "town": "北勢町瀬木",
    "town_kana": "ホクセイチョウセギ",
    "street": null,
    "office_name": null,
    "office_name_kana": null
  },
  "0418": {
    "zip_code": "5110418",
    "prefecture": "三重県",
    "prefecture_kana": "ミエケン",
    "prefecture_code": "24",
    "city": "いなべ市",
    "city_kana": "イナベシ",
    "town": "北勢町下平",
    "town_kana": "ホクセイチョウシモヒラ",
    "street": null,
    "office_name": null,
    "office_name_kana": null
  },
  "0421": {
    "zip_code": "5110421",
    "prefecture": "三重県",
    "prefecture_kana": "ミエケン",
    "prefecture_code": "24",
    "city": "いなべ市",
    "city_kana": "イナベシ",
    "town": "北勢町皷",
    "town_kana": "ホクセイチョウツヅミ",
    "street": null,
    "office_name": null,
    "office_name_kana": null
  },
  "0422": {
    "zip_code": "5110422",
    "prefecture": "三重県",
    "prefecture_kana": "ミエケン",
    "prefecture_code": "24",
    "city": "いなべ市",
    "city_kana": "イナベシ",
    "town": "北勢町北中津原",
    "town_kana": "ホクセイチョウキタナカツハラ",
    "street": null,
    "office_name": null,
    "office_name_kana": null
  },
  "0423": {
    "zip_code": "5110423",
    "prefecture": "三重県",
    "prefecture_kana": "ミエケン",
    "prefecture_code": "24",
    "city": "いなべ市",
    "city_kana": "イナベシ",
    "town": "北勢町平野新田",
    "town_kana": "ホクセイチョウヒラノシンデン",
    "street": null,
    "office_name": null,
    "office_name_kana": null
  },
  "0424": {
    "zip_code": "5110424",
    "prefecture": "三重県",
    "prefecture_kana": "ミエケン",
    "prefecture_code": "24",
    "city": "いなべ市",
    "city_kana": "イナベシ",
    "town": "北勢町南中津原",
    "town_kana": "ホクセイチョウミナミナカツハラ",
    "street": null,
    "office_name": null,
    "office_name_kana": null
  },
  "0425": {
    "zip_code": "5110425",
    "prefecture": "三重県",
    "prefecture_kana": "ミエケン",
    "prefecture_code": "24",
    "city": "いなべ市",
    "city_kana": "イナベシ",
    "town": "北勢町大辻新田",
    "town_kana": "ホクセイチョウオオツジシンデン",
    "street": null,
    "office_name": null,
    "office_name_kana": null
  },
  "0426": {
    "zip_code": "5110426",
    "prefecture": "三重県",
    "prefecture_kana": "ミエケン",
    "prefecture_code": "24",
    "city": "いなべ市",
    "city_kana": "イナベシ",
    "town": "北勢町其原",
    "town_kana": "ホクセイチョウソノハラ",
    "street": null,
    "office_name": null,
    "office_name_kana": null
  },
  "0427": {
    "zip_code": "5110427",
    "prefecture": "三重県",
    "prefecture_kana": "ミエケン",
    "prefecture_code": "24",
    "city": "いなべ市",
    "city_kana": "イナベシ",
    "town": "北勢町麻生田",
    "town_kana": "ホクセイチョウオウダ",
    "street": null,
    "office_name": null,
    "office_name_kana": null
  },
  "0428": {
    "zip_code": "5110428",
    "prefecture": "三重県",
    "prefecture_kana": "ミエケン",
    "prefecture_code": "24",
    "city": "いなべ市",
    "city_kana": "イナベシ",
    "town": "北勢町阿下喜",
    "town_kana": "ホクセイチョウアゲキ",
    "street": null,
    "office_name": null,
    "office_name_kana": null
  },
  "0431": {
    "zip_code": "5110431",
    "prefecture": "三重県",
    "prefecture_kana": "ミエケン",
    "prefecture_code": "24",
    "city": "いなべ市",
    "city_kana": "イナベシ",
    "town": "北勢町別名",
    "town_kana": "ホクセイチョウベツミョウ",
    "street": null,
    "office_name": null,
    "office_name_kana": null
  },
  "0432": {
    "zip_code": "5110432",
    "prefecture": "三重県",
    "prefecture_kana": "ミエケン",
    "prefecture_code": "24",
    "city": "いなべ市",
    "city_kana": "イナベシ",
    "town": "北勢町東村",
    "town_kana": "ホクセイチョウヒガシムラ",
    "street": null,
    "office_name": null,
    "office_name_kana": null
  },
  "0433": {
    "zip_code": "5110433",
    "prefecture": "三重県",
    "prefecture_kana": "ミエケン",
    "prefecture_code": "24",
    "city": "いなべ市",
    "city_kana": "イナベシ",
    "town": "北勢町中山",
    "town_kana": "ホクセイチョウナカヤマ",
    "street": null,
    "office_name": null,
    "office_name_kana": null
  },
  "0434": {
    "zip_code": "5110434",
    "prefecture": "三重県",
    "prefecture_kana": "ミエケン",
    "prefecture_code": "24",
    "city": "いなべ市",
    "city_kana": "イナベシ",
    "town": "北勢町麓村",
    "town_kana": "ホクセイチョウフモトムラ",
    "street": null,
    "office_name": null,
    "office_name_kana": null
  },
  "0435": {
    "zip_code": "5110435",
    "prefecture": "三重県",
    "prefecture_kana": "ミエケン",
    "prefecture_code": "24",
    "city": "いなべ市",
    "city_kana": "イナベシ",
    "town": "北勢町奥村",
    "town_kana": "ホクセイチョウオクムラ",
    "street": null,
    "office_name": null,
    "office_name_kana": null
  },
  "0436": {
    "zip_code": "5110436",
    "prefecture": "三重県",
    "prefecture_kana": "ミエケン",
    "prefecture_code": "24",
    "city": "いなべ市",
    "city_kana": "イナベシ",
    "town": "北勢町新町",
    "town_kana": "ホクセイチョウシンマチ",
    "street": null,
    "office_name": null,
    "office_name_kana": null
  },
  "0437": {
    "zip_code": "5110437",
    "prefecture": "三重県",
    "prefecture_kana": "ミエケン",
    "prefecture_code": "24",
    "city": "いなべ市",
    "city_kana": "イナベシ",
    "town": "北勢町垣内",
    "town_kana": "ホクセイチョウカイト",
    "street": null,
    "office_name": null,
    "office_name_kana": null
  },
  "0438": {
    "zip_code": "5110438",
    "prefecture": "三重県",
    "prefecture_kana": "ミエケン",
    "prefecture_code": "24",
    "city": "いなべ市",
    "city_kana": "イナベシ",
    "town": "北勢町治田外面",
    "town_kana": "ホクセイチョウハッタドモ",
    "street": null,
    "office_name": null,
    "office_name_kana": null
  },
  "0492": {
    "zip_code": "5110492",
    "prefecture": "三重県",
    "prefecture_kana": "ミエケン",
    "prefecture_code": "24",
    "city": "いなべ市",
    "city_kana": "イナベシ",
    "town": "北勢町阿下喜",
    "town_kana": "ホクセイチョウアゲキ",
    "street": "２６３３",
    "office_name": "いなべ市役所　北勢庁舎",
    "office_name_kana": "イナベシヤクシヨ ホクセイチヨウシヤ"
  },
  "0501": {
    "zip_code": "5110501",
    "prefecture": "三重県",
    "prefecture_kana": "ミエケン",
    "prefecture_code": "24",
    "city": "いなべ市",
    "city_kana": "イナベシ",
    "town": "藤原町鼎",
    "town_kana": "フジワラチョウカナエ",
    "street": null,
    "office_name": null,
    "office_name_kana": null
  },
  "0502": {
    "zip_code": "5110502",
    "prefecture": "三重県",
    "prefecture_kana": "ミエケン",
    "prefecture_code": "24",
    "city": "いなべ市",
    "city_kana": "イナベシ",
    "town": "藤原町上相場",
    "town_kana": "フジワラチョウカミアイバ",
    "street": null,
    "office_name": null,
    "office_name_kana": null
  },
  "0503": {
    "zip_code": "5110503",
    "prefecture": "三重県",
    "prefecture_kana": "ミエケン",
    "prefecture_code": "24",
    "city": "いなべ市",
    "city_kana": "イナベシ",
    "town": "藤原町下相場",
    "town_kana": "フジワラチョウシモアイバ",
    "street": null,
    "office_name": null,
    "office_name_kana": null
  },
  "0504": {
    "zip_code": "5110504",
    "prefecture": "三重県",
    "prefecture_kana": "ミエケン",
    "prefecture_code": "24",
    "city": "いなべ市",
    "city_kana": "イナベシ",
    "town": "藤原町川合",
    "town_kana": "フジワラチョウカワイ",
    "street": null,
    "office_name": null,
    "office_name_kana": null
  },
  "0505": {
    "zip_code": "5110505",
    "prefecture": "三重県",
    "prefecture_kana": "ミエケン",
    "prefecture_code": "24",
    "city": "いなべ市",
    "city_kana": "イナベシ",
    "town": "藤原町日内",
    "town_kana": "フジワラチョウヒナイ",
    "street": null,
    "office_name": null,
    "office_name_kana": null
  },
  "0506": {
    "zip_code": "5110506",
    "prefecture": "三重県",
    "prefecture_kana": "ミエケン",
    "prefecture_code": "24",
    "city": "いなべ市",
    "city_kana": "イナベシ",
    "town": "藤原町長尾",
    "town_kana": "フジワラチョウナガオ",
    "street": null,
    "office_name": null,
    "office_name_kana": null
  },
  "0507": {
    "zip_code": "5110507",
    "prefecture": "三重県",
    "prefecture_kana": "ミエケン",
    "prefecture_code": "24",
    "city": "いなべ市",
    "city_kana": "イナベシ",
    "town": "藤原町上之山田",
    "town_kana": "フジワラチョウウエノヤマダ",
    "street": null,
    "office_name": null,
    "office_name_kana": null
  },
  "0508": {
    "zip_code": "5110508",
    "prefecture": "三重県",
    "prefecture_kana": "ミエケン",
    "prefecture_code": "24",
    "city": "いなべ市",
    "city_kana": "イナベシ",
    "town": "藤原町藤ケ丘",
    "town_kana": "フジワラチョウフジガオカ",
    "street": null,
    "office_name": null,
    "office_name_kana": null
  },
  "0511": {
    "zip_code": "5110511",
    "prefecture": "三重県",
    "prefecture_kana": "ミエケン",
    "prefecture_code": "24",
    "city": "いなべ市",
    "city_kana": "イナベシ",
    "town": "藤原町市場",
    "town_kana": "フジワラチョウイチバ",
    "street": null,
    "office_name": null,
    "office_name_kana": null
  },
  "0512": {
    "zip_code": "5110512",
    "prefecture": "三重県",
    "prefecture_kana": "ミエケン",
    "prefecture_code": "24",
    "city": "いなべ市",
    "city_kana": "イナベシ",
    "town": "藤原町志礼石新田",
    "town_kana": "フジワラチョウシレイシシンデン",
    "street": null,
    "office_name": null,
    "office_name_kana": null
  },
  "0513": {
    "zip_code": "5110513",
    "prefecture": "三重県",
    "prefecture_kana": "ミエケン",
    "prefecture_code": "24",
    "city": "いなべ市",
    "city_kana": "イナベシ",
    "town": "藤原町下野尻",
    "town_kana": "フジワラチョウシモノジリ",
    "street": null,
    "office_name": null,
    "office_name_kana": null
  },
  "0514": {
    "zip_code": "5110514",
    "prefecture": "三重県",
    "prefecture_kana": "ミエケン",
    "prefecture_code": "24",
    "city": "いなべ市",
    "city_kana": "イナベシ",
    "town": "藤原町石川",
    "town_kana": "フジワラチョウイシカワ",
    "street": null,
    "office_name": null,
    "office_name_kana": null
  },
  "0515": {
    "zip_code": "5110515",
    "prefecture": "三重県",
    "prefecture_kana": "ミエケン",
    "prefecture_code": "24",
    "city": "いなべ市",
    "city_kana": "イナベシ",
    "town": "藤原町東禅寺",
    "town_kana": "フジワラチョウトウゼンジ",
    "street": null,
    "office_name": null,
    "office_name_kana": null
  },
  "0516": {
    "zip_code": "5110516",
    "prefecture": "三重県",
    "prefecture_kana": "ミエケン",
    "prefecture_code": "24",
    "city": "いなべ市",
    "city_kana": "イナベシ",
    "town": "藤原町西野尻",
    "town_kana": "フジワラチョウニシノジリ",
    "street": null,
    "office_name": null,
    "office_name_kana": null
  },
  "0517": {
    "zip_code": "5110517",
    "prefecture": "三重県",
    "prefecture_kana": "ミエケン",
    "prefecture_code": "24",
    "city": "いなべ市",
    "city_kana": "イナベシ",
    "town": "藤原町大貝戸",
    "town_kana": "フジワラチョウオオガイト",
    "street": null,
    "office_name": null,
    "office_name_kana": null
  },
  "0518": {
    "zip_code": "5110518",
    "prefecture": "三重県",
    "prefecture_kana": "ミエケン",
    "prefecture_code": "24",
    "city": "いなべ市",
    "city_kana": "イナベシ",
    "town": "藤原町坂本",
    "town_kana": "フジワラチョウサカモト",
    "street": null,
    "office_name": null,
    "office_name_kana": null
  },
  "0519": {
    "zip_code": "5110519",
    "prefecture": "三重県",
    "prefecture_kana": "ミエケン",
    "prefecture_code": "24",
    "city": "いなべ市",
    "city_kana": "イナベシ",
    "town": "藤原町別名",
    "town_kana": "フジワラチョウベツミョウ",
    "street": null,
    "office_name": null,
    "office_name_kana": null
  },
  "0521": {
    "zip_code": "5110521",
    "prefecture": "三重県",
    "prefecture_kana": "ミエケン",
    "prefecture_code": "24",
    "city": "いなべ市",
    "city_kana": "イナベシ",
    "town": "藤原町古田",
    "town_kana": "フジワラチョウフルタ",
    "street": null,
    "office_name": null,
    "office_name_kana": null
  },
  "0522": {
    "zip_code": "5110522",
    "prefecture": "三重県",
    "prefecture_kana": "ミエケン",
    "prefecture_code": "24",
    "city": "いなべ市",
    "city_kana": "イナベシ",
    "town": "藤原町篠立",
    "town_kana": "フジワラチョウシノダチ",
    "street": null,
    "office_name": null,
    "office_name_kana": null
  },
  "0523": {
    "zip_code": "5110523",
    "prefecture": "三重県",
    "prefecture_kana": "ミエケン",
    "prefecture_code": "24",
    "city": "いなべ市",
    "city_kana": "イナベシ",
    "town": "藤原町本郷",
    "town_kana": "フジワラチョウホンゴウ",
    "street": null,
    "office_name": null,
    "office_name_kana": null
  },
  "0524": {
    "zip_code": "5110524",
    "prefecture": "三重県",
    "prefecture_kana": "ミエケン",
    "prefecture_code": "24",
    "city": "いなべ市",
    "city_kana": "イナベシ",
    "town": "藤原町山口",
    "town_kana": "フジワラチョウヤマグチ",
    "street": null,
    "office_name": null,
    "office_name_kana": null
  },
  "0592": {
    "zip_code": "5110592",
    "prefecture": "三重県",
    "prefecture_kana": "ミエケン",
    "prefecture_code": "24",
    "city": "いなべ市",
    "city_kana": "イナベシ",
    "town": "藤原町市場",
    "town_kana": "フジワラチョウイチバ",
    "street": "１１５",
    "office_name": "いなべ市役所　藤原庁舎",
    "office_name_kana": "イナベシヤクシヨ フジワラチヨウシヤ"
  },
  "0593": {
    "zip_code": "5110593",
    "prefecture": "三重県",
    "prefecture_kana": "ミエケン",
    "prefecture_code": "24",
    "city": "いなべ市",
    "city_kana": "イナベシ",
    "town": "藤原町東禅寺",
    "town_kana": "フジワラチョウトウゼンジ",
    "street": "１３６１番地の１",
    "office_name": "太平洋セメント　株式会社　藤原工場",
    "office_name_kana": "タイヘイヨウセメント カブシキガイシヤ フジワラコウジヨウ"
  },
  "0801": {
    "zip_code": "5110801",
    "prefecture": "三重県",
    "prefecture_kana": "ミエケン",
    "prefecture_code": "24",
    "city": "桑名市",
    "city_kana": "クワナシ",
    "town": "今島",
    "town_kana": "イマジマ",
    "street": null,
    "office_name": null,
    "office_name_kana": null
  },
  "0802": {
    "zip_code": "5110802",
    "prefecture": "三重県",
    "prefecture_kana": "ミエケン",
    "prefecture_code": "24",
    "city": "桑名市",
    "city_kana": "クワナシ",
    "town": "川崎町",
    "town_kana": "カワサキチョウ",
    "street": null,
    "office_name": null,
    "office_name_kana": null
  },
  "0803": {
    "zip_code": "5110803",
    "prefecture": "三重県",
    "prefecture_kana": "ミエケン",
    "prefecture_code": "24",
    "city": "桑名市",
    "city_kana": "クワナシ",
    "town": "枇杷島台",
    "town_kana": "ビワジマダイ",
    "street": null,
    "office_name": null,
    "office_name_kana": null
  },
  "0804": {
    "zip_code": "5110804",
    "prefecture": "三重県",
    "prefecture_kana": "ミエケン",
    "prefecture_code": "24",
    "city": "桑名市",
    "city_kana": "クワナシ",
    "town": "北川原台",
    "town_kana": "キタガワラダイ",
    "street": null,
    "office_name": null,
    "office_name_kana": null
  },
  "0805": {
    "zip_code": "5110805",
    "prefecture": "三重県",
    "prefecture_kana": "ミエケン",
    "prefecture_code": "24",
    "city": "桑名市",
    "city_kana": "クワナシ",
    "town": "深谷町",
    "town_kana": "フカヤチョウ",
    "street": null,
    "office_name": null,
    "office_name_kana": null
  },
  "0806": {
    "zip_code": "5110806",
    "prefecture": "三重県",
    "prefecture_kana": "ミエケン",
    "prefecture_code": "24",
    "city": "桑名市",
    "city_kana": "クワナシ",
    "town": "東汰上",
    "town_kana": "ヒガシユリアゲ",
    "street": null,
    "office_name": null,
    "office_name_kana": null
  },
  "0807": {
    "zip_code": "5110807",
    "prefecture": "三重県",
    "prefecture_kana": "ミエケン",
    "prefecture_code": "24",
    "city": "桑名市",
    "city_kana": "クワナシ",
    "town": "西汰上",
    "town_kana": "ニシユリアゲ",
    "street": null,
    "office_name": null,
    "office_name_kana": null
  },
  "0808": {
    "zip_code": "5110808",
    "prefecture": "三重県",
    "prefecture_kana": "ミエケン",
    "prefecture_code": "24",
    "city": "桑名市",
    "city_kana": "クワナシ",
    "town": "下深谷部",
    "town_kana": "シモフカヤベ",
    "street": null,
    "office_name": null,
    "office_name_kana": null
  },
  "0809": {
    "zip_code": "5110809",
    "prefecture": "三重県",
    "prefecture_kana": "ミエケン",
    "prefecture_code": "24",
    "city": "桑名市",
    "city_kana": "クワナシ",
    "town": "上深谷部",
    "town_kana": "カミフカヤベ",
    "street": null,
    "office_name": null,
    "office_name_kana": null
  },
  "0810": {
    "zip_code": "5110810",
    "prefecture": "三重県",
    "prefecture_kana": "ミエケン",
    "prefecture_code": "24",
    "city": "桑名市",
    "city_kana": "クワナシ",
    "town": "清竹の丘",
    "town_kana": "キヨタケノオカ",
    "street": null,
    "office_name": null,
    "office_name_kana": null
  },
  "0811": {
    "zip_code": "5110811",
    "prefecture": "三重県",
    "prefecture_kana": "ミエケン",
    "prefecture_code": "24",
    "city": "桑名市",
    "city_kana": "クワナシ",
    "town": "東方",
    "town_kana": "ヒガシカタ",
    "street": null,
    "office_name": null,
    "office_name_kana": null
  },
  "0812": {
    "zip_code": "5110812",
    "prefecture": "三重県",
    "prefecture_kana": "ミエケン",
    "prefecture_code": "24",
    "city": "桑名市",
    "city_kana": "クワナシ",
    "town": "尾野山",
    "town_kana": "オノヤマ",
    "street": null,
    "office_name": null,
    "office_name_kana": null
  },
  "0813": {
    "zip_code": "5110813",
    "prefecture": "三重県",
    "prefecture_kana": "ミエケン",
    "prefecture_code": "24",
    "city": "桑名市",
    "city_kana": "クワナシ",
    "town": "桜通",
    "town_kana": "サクラドオリ",
    "street": null,
    "office_name": null,
    "office_name_kana": null
  },
  "0814": {
    "zip_code": "5110814",
    "prefecture": "三重県",
    "prefecture_kana": "ミエケン",
    "prefecture_code": "24",
    "city": "桑名市",
    "city_kana": "クワナシ",
    "town": "松並町",
    "town_kana": "マツナミチョウ",
    "street": null,
    "office_name": null,
    "office_name_kana": null
  },
  "0815": {
    "zip_code": "5110815",
    "prefecture": "三重県",
    "prefecture_kana": "ミエケン",
    "prefecture_code": "24",
    "city": "桑名市",
    "city_kana": "クワナシ",
    "town": "梅園通",
    "town_kana": "ウメゾノドオリ",
    "street": null,
    "office_name": null,
    "office_name_kana": null
  },
  "0816": {
    "zip_code": "5110816",
    "prefecture": "三重県",
    "prefecture_kana": "ミエケン",
    "prefecture_code": "24",
    "city": "桑名市",
    "city_kana": "クワナシ",
    "town": "汐見町",
    "town_kana": "シオミチョウ",
    "street": null,
    "office_name": null,
    "office_name_kana": null
  },
  "0817": {
    "zip_code": "5110817",
    "prefecture": "三重県",
    "prefecture_kana": "ミエケン",
    "prefecture_code": "24",
    "city": "桑名市",
    "city_kana": "クワナシ",
    "town": "青葉町",
    "town_kana": "アオバチョウ",
    "street": null,
    "office_name": null,
    "office_name_kana": null
  },
  "0818": {
    "zip_code": "5110818",
    "prefecture": "三重県",
    "prefecture_kana": "ミエケン",
    "prefecture_code": "24",
    "city": "桑名市",
    "city_kana": "クワナシ",
    "town": "高塚町",
    "town_kana": "タカツカチョウ",
    "street": null,
    "office_name": null,
    "office_name_kana": null
  },
  "0819": {
    "zip_code": "5110819",
    "prefecture": "三重県",
    "prefecture_kana": "ミエケン",
    "prefecture_code": "24",
    "city": "桑名市",
    "city_kana": "クワナシ",
    "town": "北別所",
    "town_kana": "キタベッシヨ",
    "street": null,
    "office_name": null,
    "office_name_kana": null
  },
  "0821": {
    "zip_code": "5110821",
    "prefecture": "三重県",
    "prefecture_kana": "ミエケン",
    "prefecture_code": "24",
    "city": "桑名市",
    "city_kana": "クワナシ",
    "town": "矢田",
    "town_kana": "ヤダ",
    "street": null,
    "office_name": null,
    "office_name_kana": null
  },
  "0822": {
    "zip_code": "5110822",
    "prefecture": "三重県",
    "prefecture_kana": "ミエケン",
    "prefecture_code": "24",
    "city": "桑名市",
    "city_kana": "クワナシ",
    "town": "馬道",
    "town_kana": "ウマミチ",
    "street": null,
    "office_name": null,
    "office_name_kana": null
  },
  "0823": {
    "zip_code": "5110823",
    "prefecture": "三重県",
    "prefecture_kana": "ミエケン",
    "prefecture_code": "24",
    "city": "桑名市",
    "city_kana": "クワナシ",
    "town": "明正町",
    "town_kana": "メイセイチョウ",
    "street": null,
    "office_name": null,
    "office_name_kana": null
  },
  "0824": {
    "zip_code": "5110824",
    "prefecture": "三重県",
    "prefecture_kana": "ミエケン",
    "prefecture_code": "24",
    "city": "桑名市",
    "city_kana": "クワナシ",
    "town": "繁松新田",
    "town_kana": "シゲマツシンデン",
    "street": null,
    "office_name": null,
    "office_name_kana": null
  },
  "0825": {
    "zip_code": "5110825",
    "prefecture": "三重県",
    "prefecture_kana": "ミエケン",
    "prefecture_code": "24",
    "city": "桑名市",
    "city_kana": "クワナシ",
    "town": "上野",
    "town_kana": "ウエノ",
    "street": null,
    "office_name": null,
    "office_name_kana": null
  },
  "0826": {
    "zip_code": "5110826",
    "prefecture": "三重県",
    "prefecture_kana": "ミエケン",
    "prefecture_code": "24",
    "city": "桑名市",
    "city_kana": "クワナシ",
    "town": "太夫",
    "town_kana": "タユウ",
    "street": null,
    "office_name": null,
    "office_name_kana": null
  },
  "0827": {
    "zip_code": "5110827",
    "prefecture": "三重県",
    "prefecture_kana": "ミエケン",
    "prefecture_code": "24",
    "city": "桑名市",
    "city_kana": "クワナシ",
    "town": "霞町",
    "town_kana": "カスミチョウ",
    "street": null,
    "office_name": null,
    "office_name_kana": null
  },
  "0828": {
    "zip_code": "5110828",
    "prefecture": "三重県",
    "prefecture_kana": "ミエケン",
    "prefecture_code": "24",
    "city": "桑名市",
    "city_kana": "クワナシ",
    "town": "立花町",
    "town_kana": "タチバナチョウ",
    "street": null,
    "office_name": null,
    "office_name_kana": null
  },
  "0829": {
    "zip_code": "5110829",
    "prefecture": "三重県",
    "prefecture_kana": "ミエケン",
    "prefecture_code": "24",
    "city": "桑名市",
    "city_kana": "クワナシ",
    "town": "神楽町",
    "town_kana": "カグラチョウ",
    "street": null,
    "office_name": null,
    "office_name_kana": null
  },
  "0831": {
    "zip_code": "5110831",
    "prefecture": "三重県",
    "prefecture_kana": "ミエケン",
    "prefecture_code": "24",
    "city": "桑名市",
    "city_kana": "クワナシ",
    "town": "益生町",
    "town_kana": "マスオチョウ",
    "street": null,
    "office_name": null,
    "office_name_kana": null
  },
  "0832": {
    "zip_code": "5110832",
    "prefecture": "三重県",
    "prefecture_kana": "ミエケン",
    "prefecture_code": "24",
    "city": "桑名市",
    "city_kana": "クワナシ",
    "town": "新地",
    "town_kana": "シンチ",
    "street": null,
    "office_name": null,
    "office_name_kana": null
  },
  "0833": {
    "zip_code": "5110833",
    "prefecture": "三重県",
    "prefecture_kana": "ミエケン",
    "prefecture_code": "24",
    "city": "桑名市",
    "city_kana": "クワナシ",
    "town": "福江町",
    "town_kana": "フクエマチ",
    "street": null,
    "office_name": null,
    "office_name_kana": null
  },
  "0834": {
    "zip_code": "5110834",
    "prefecture": "三重県",
    "prefecture_kana": "ミエケン",
    "prefecture_code": "24",
    "city": "桑名市",
    "city_kana": "クワナシ",
    "town": "大福",
    "town_kana": "ダイフク",
    "street": null,
    "office_name": null,
    "office_name_kana": null
  },
  "0835": {
    "zip_code": "5110835",
    "prefecture": "三重県",
    "prefecture_kana": "ミエケン",
    "prefecture_code": "24",
    "city": "桑名市",
    "city_kana": "クワナシ",
    "town": "本願寺",
    "town_kana": "ホンガンジ",
    "street": null,
    "office_name": null,
    "office_name_kana": null
  },
  "0836": {
    "zip_code": "5110836",
    "prefecture": "三重県",
    "prefecture_kana": "ミエケン",
    "prefecture_code": "24",
    "city": "桑名市",
    "city_kana": "クワナシ",
    "town": "江場",
    "town_kana": "エバ",
    "street": null,
    "office_name": null,
    "office_name_kana": null
  },
  "0837": {
    "zip_code": "5110837",
    "prefecture": "三重県",
    "prefecture_kana": "ミエケン",
    "prefecture_code": "24",
    "city": "桑名市",
    "city_kana": "クワナシ",
    "town": "小泉",
    "town_kana": "コイズミ",
    "street": null,
    "office_name": null,
    "office_name_kana": null
  },
  "0838": {
    "zip_code": "5110838",
    "prefecture": "三重県",
    "prefecture_kana": "ミエケン",
    "prefecture_code": "24",
    "city": "桑名市",
    "city_kana": "クワナシ",
    "town": "和泉",
    "town_kana": "イズミ",
    "street": null,
    "office_name": null,
    "office_name_kana": null
  },
  "0839": {
    "zip_code": "5110839",
    "prefecture": "三重県",
    "prefecture_kana": "ミエケン",
    "prefecture_code": "24",
    "city": "桑名市",
    "city_kana": "クワナシ",
    "town": "安永",
    "town_kana": "ヤスナガ",
    "street": null,
    "office_name": null,
    "office_name_kana": null
  },
  "0841": {
    "zip_code": "5110841",
    "prefecture": "三重県",
    "prefecture_kana": "ミエケン",
    "prefecture_code": "24",
    "city": "桑名市",
    "city_kana": "クワナシ",
    "town": "小貝須",
    "town_kana": "コガイス",
    "street": null,
    "office_name": null,
    "office_name_kana": null
  },
  "0842": {
    "zip_code": "5110842",
    "prefecture": "三重県",
    "prefecture_kana": "ミエケン",
    "prefecture_code": "24",
    "city": "桑名市",
    "city_kana": "クワナシ",
    "town": "立田町",
    "town_kana": "タツタチョウ",
    "street": null,
    "office_name": null,
    "office_name_kana": null
  },
  "0843": {
    "zip_code": "5110843",
    "prefecture": "三重県",
    "prefecture_kana": "ミエケン",
    "prefecture_code": "24",
    "city": "桑名市",
    "city_kana": "クワナシ",
    "town": "太平町",
    "town_kana": "タイヘイチョウ",
    "street": null,
    "office_name": null,
    "office_name_kana": null
  },
  "0844": {
    "zip_code": "5110844",
    "prefecture": "三重県",
    "prefecture_kana": "ミエケン",
    "prefecture_code": "24",
    "city": "桑名市",
    "city_kana": "クワナシ",
    "town": "福岡町",
    "town_kana": "フクオカチョウ",
    "street": null,
    "office_name": null,
    "office_name_kana": null
  },
  "0845": {
    "zip_code": "5110845",
    "prefecture": "三重県",
    "prefecture_kana": "ミエケン",
    "prefecture_code": "24",
    "city": "桑名市",
    "city_kana": "クワナシ",
    "town": "福地",
    "town_kana": "フクチ",
    "street": null,
    "office_name": null,
    "office_name_kana": null
  },
  "0846": {
    "zip_code": "5110846",
    "prefecture": "三重県",
    "prefecture_kana": "ミエケン",
    "prefecture_code": "24",
    "city": "桑名市",
    "city_kana": "クワナシ",
    "town": "城南萱町",
    "town_kana": "ジョウナンカヤマチ",
    "street": null,
    "office_name": null,
    "office_name_kana": null
  },
  "0847": {
    "zip_code": "5110847",
    "prefecture": "三重県",
    "prefecture_kana": "ミエケン",
    "prefecture_code": "24",
    "city": "桑名市",
    "city_kana": "クワナシ",
    "town": "福江",
    "town_kana": "フクエ",
    "street": null,
    "office_name": null,
    "office_name_kana": null
  },
  "0848": {
    "zip_code": "5110848",
    "prefecture": "三重県",
    "prefecture_kana": "ミエケン",
    "prefecture_code": "24",
    "city": "桑名市",
    "city_kana": "クワナシ",
    "town": "大貝須",
    "town_kana": "オオガイス",
    "street": null,
    "office_name": null,
    "office_name_kana": null
  },
  "0851": [
    {
      "zip_code": "5110851",
      "prefecture": "三重県",
      "prefecture_kana": "ミエケン",
      "prefecture_code": "24",
      "city": "桑名市",
      "city_kana": "クワナシ",
      "town": "希望ケ丘",
      "town_kana": "キボウガオカ",
      "street": null,
      "office_name": null,
      "office_name_kana": null
    },
    {
      "zip_code": "5110851",
      "prefecture": "三重県",
      "prefecture_kana": "ミエケン",
      "prefecture_code": "24",
      "city": "桑名市",
      "city_kana": "クワナシ",
      "town": "西別所",
      "town_kana": "ニシベッシヨ",
      "street": null,
      "office_name": null,
      "office_name_kana": null
    }
  ],
  "0852": {
    "zip_code": "5110852",
    "prefecture": "三重県",
    "prefecture_kana": "ミエケン",
    "prefecture_code": "24",
    "city": "桑名市",
    "city_kana": "クワナシ",
    "town": "稗田",
    "town_kana": "ヒエダ",
    "street": null,
    "office_name": null,
    "office_name_kana": null
  },
  "0853": {
    "zip_code": "5110853",
    "prefecture": "三重県",
    "prefecture_kana": "ミエケン",
    "prefecture_code": "24",
    "city": "桑名市",
    "city_kana": "クワナシ",
    "town": "増田",
    "town_kana": "マスダ",
    "street": null,
    "office_name": null,
    "office_name_kana": null
  },
  "0854": {
    "zip_code": "5110854",
    "prefecture": "三重県",
    "prefecture_kana": "ミエケン",
    "prefecture_code": "24",
    "city": "桑名市",
    "city_kana": "クワナシ",
    "town": "蓮花寺",
    "town_kana": "レンゲジ",
    "street": null,
    "office_name": null,
    "office_name_kana": null
  },
  "0855": {
    "zip_code": "5110855",
    "prefecture": "三重県",
    "prefecture_kana": "ミエケン",
    "prefecture_code": "24",
    "city": "桑名市",
    "city_kana": "クワナシ",
    "town": "新倉持",
    "town_kana": "シンクラモチ",
    "street": null,
    "office_name": null,
    "office_name_kana": null
  },
  "0861": {
    "zip_code": "5110861",
    "prefecture": "三重県",
    "prefecture_kana": "ミエケン",
    "prefecture_code": "24",
    "city": "桑名市",
    "city_kana": "クワナシ",
    "town": "蠣塚新田",
    "town_kana": "カキヅカシンデン",
    "street": null,
    "office_name": null,
    "office_name_kana": null
  },
  "0862": {
    "zip_code": "5110862",
    "prefecture": "三重県",
    "prefecture_kana": "ミエケン",
    "prefecture_code": "24",
    "city": "桑名市",
    "city_kana": "クワナシ",
    "town": "播磨",
    "town_kana": "ハリマ",
    "street": null,
    "office_name": null,
    "office_name_kana": null
  },
  "0863": {
    "zip_code": "5110863",
    "prefecture": "三重県",
    "prefecture_kana": "ミエケン",
    "prefecture_code": "24",
    "city": "桑名市",
    "city_kana": "クワナシ",
    "town": "新西方",
    "town_kana": "シンニシカタ",
    "street": null,
    "office_name": null,
    "office_name_kana": null
  },
  "0864": {
    "zip_code": "5110864",
    "prefecture": "三重県",
    "prefecture_kana": "ミエケン",
    "prefecture_code": "24",
    "city": "桑名市",
    "city_kana": "クワナシ",
    "town": "西方",
    "town_kana": "ニシカタ",
    "street": null,
    "office_name": null,
    "office_name_kana": null
  },
  "0865": {
    "zip_code": "5110865",
    "prefecture": "三重県",
    "prefecture_kana": "ミエケン",
    "prefecture_code": "24",
    "city": "桑名市",
    "city_kana": "クワナシ",
    "town": "藤が丘",
    "town_kana": "フジガオカ",
    "street": null,
    "office_name": null,
    "office_name_kana": null
  },
  "0866": {
    "zip_code": "5110866",
    "prefecture": "三重県",
    "prefecture_kana": "ミエケン",
    "prefecture_code": "24",
    "city": "桑名市",
    "city_kana": "クワナシ",
    "town": "神成町",
    "town_kana": "シンセイチョウ",
    "street": null,
    "office_name": null,
    "office_name_kana": null
  },
  "0867": {
    "zip_code": "5110867",
    "prefecture": "三重県",
    "prefecture_kana": "ミエケン",
    "prefecture_code": "24",
    "city": "桑名市",
    "city_kana": "クワナシ",
    "town": "陽だまりの丘",
    "town_kana": "ヒダマリノオカ",
    "street": null,
    "office_name": null,
    "office_name_kana": null
  },
  "0901": {
    "zip_code": "5110901",
    "prefecture": "三重県",
    "prefecture_kana": "ミエケン",
    "prefecture_code": "24",
    "city": "桑名市",
    "city_kana": "クワナシ",
    "town": "筒尾",
    "town_kana": "ツツオ",
    "street": null,
    "office_name": null,
    "office_name_kana": null
  },
  "0902": {
    "zip_code": "5110902",
    "prefecture": "三重県",
    "prefecture_kana": "ミエケン",
    "prefecture_code": "24",
    "city": "桑名市",
    "city_kana": "クワナシ",
    "town": "松ノ木",
    "town_kana": "マツノキ",
    "street": null,
    "office_name": null,
    "office_name_kana": null
  },
  "0903": {
    "zip_code": "5110903",
    "prefecture": "三重県",
    "prefecture_kana": "ミエケン",
    "prefecture_code": "24",
    "city": "桑名市",
    "city_kana": "クワナシ",
    "town": "大山田",
    "town_kana": "オオヤマダ",
    "street": null,
    "office_name": null,
    "office_name_kana": null
  },
  "0904": {
    "zip_code": "5110904",
    "prefecture": "三重県",
    "prefecture_kana": "ミエケン",
    "prefecture_code": "24",
    "city": "桑名市",
    "city_kana": "クワナシ",
    "town": "野田",
    "town_kana": "ノダ",
    "street": null,
    "office_name": null,
    "office_name_kana": null
  },
  "0911": {
    "zip_code": "5110911",
    "prefecture": "三重県",
    "prefecture_kana": "ミエケン",
    "prefecture_code": "24",
    "city": "桑名市",
    "city_kana": "クワナシ",
    "town": "額田",
    "town_kana": "ヌカタ",
    "street": null,
    "office_name": null,
    "office_name_kana": null
  },
  "0912": [
    {
      "zip_code": "5110912",
      "prefecture": "三重県",
      "prefecture_kana": "ミエケン",
      "prefecture_code": "24",
      "city": "桑名市",
      "city_kana": "クワナシ",
      "town": "星川",
      "town_kana": "ホシカワ",
      "street": null,
      "office_name": null,
      "office_name_kana": null
    },
    {
      "zip_code": "5110912",
      "prefecture": "三重県",
      "prefecture_kana": "ミエケン",
      "prefecture_code": "24",
      "city": "桑名市",
      "city_kana": "クワナシ",
      "town": "星見ケ丘",
      "town_kana": "ホシミガオカ",
      "street": null,
      "office_name": null,
      "office_name_kana": null
    }
  ],
  "0913": {
    "zip_code": "5110913",
    "prefecture": "三重県",
    "prefecture_kana": "ミエケン",
    "prefecture_code": "24",
    "city": "桑名市",
    "city_kana": "クワナシ",
    "town": "里町",
    "town_kana": "サトマチ",
    "street": null,
    "office_name": null,
    "office_name_kana": null
  },
  "0914": {
    "zip_code": "5110914",
    "prefecture": "三重県",
    "prefecture_kana": "ミエケン",
    "prefecture_code": "24",
    "city": "桑名市",
    "city_kana": "クワナシ",
    "town": "中山町",
    "town_kana": "ナカヤマチョウ",
    "street": null,
    "office_name": null,
    "office_name_kana": null
  },
  "0921": {
    "zip_code": "5110921",
    "prefecture": "三重県",
    "prefecture_kana": "ミエケン",
    "prefecture_code": "24",
    "city": "桑名市",
    "city_kana": "クワナシ",
    "town": "東金井",
    "town_kana": "ヒガシカナイ",
    "street": null,
    "office_name": null,
    "office_name_kana": null
  },
  "0922": {
    "zip_code": "5110922",
    "prefecture": "三重県",
    "prefecture_kana": "ミエケン",
    "prefecture_code": "24",
    "city": "桑名市",
    "city_kana": "クワナシ",
    "town": "西金井",
    "town_kana": "ニシカナイ",
    "street": null,
    "office_name": null,
    "office_name_kana": null
  },
  "0923": {
    "zip_code": "5110923",
    "prefecture": "三重県",
    "prefecture_kana": "ミエケン",
    "prefecture_code": "24",
    "city": "桑名市",
    "city_kana": "クワナシ",
    "town": "桑部",
    "town_kana": "クワベ",
    "street": null,
    "office_name": null,
    "office_name_kana": null
  },
  "0924": {
    "zip_code": "5110924",
    "prefecture": "三重県",
    "prefecture_kana": "ミエケン",
    "prefecture_code": "24",
    "city": "桑名市",
    "city_kana": "クワナシ",
    "town": "城山台",
    "town_kana": "シロヤマダイ",
    "street": null,
    "office_name": null,
    "office_name_kana": null
  },
  "0931": {
    "zip_code": "5110931",
    "prefecture": "三重県",
    "prefecture_kana": "ミエケン",
    "prefecture_code": "24",
    "city": "桑名市",
    "city_kana": "クワナシ",
    "town": "能部",
    "town_kana": "ノンベ",
    "street": null,
    "office_name": null,
    "office_name_kana": null
  },
  "0932": {
    "zip_code": "5110932",
    "prefecture": "三重県",
    "prefecture_kana": "ミエケン",
    "prefecture_code": "24",
    "city": "桑名市",
    "city_kana": "クワナシ",
    "town": "東正和台",
    "town_kana": "ヒガシセイワダイ",
    "street": null,
    "office_name": null,
    "office_name_kana": null
  },
  "0933": {
    "zip_code": "5110933",
    "prefecture": "三重県",
    "prefecture_kana": "ミエケン",
    "prefecture_code": "24",
    "city": "桑名市",
    "city_kana": "クワナシ",
    "town": "西正和台",
    "town_kana": "ニシセイワダイ",
    "street": null,
    "office_name": null,
    "office_name_kana": null
  },
  "0934": {
    "zip_code": "5110934",
    "prefecture": "三重県",
    "prefecture_kana": "ミエケン",
    "prefecture_code": "24",
    "city": "桑名市",
    "city_kana": "クワナシ",
    "town": "赤尾",
    "town_kana": "アコオ",
    "street": null,
    "office_name": null,
    "office_name_kana": null
  },
  "0935": {
    "zip_code": "5110935",
    "prefecture": "三重県",
    "prefecture_kana": "ミエケン",
    "prefecture_code": "24",
    "city": "桑名市",
    "city_kana": "クワナシ",
    "town": "赤尾台",
    "town_kana": "アコオダイ",
    "street": null,
    "office_name": null,
    "office_name_kana": null
  },
  "0936": {
    "zip_code": "5110936",
    "prefecture": "三重県",
    "prefecture_kana": "ミエケン",
    "prefecture_code": "24",
    "city": "桑名市",
    "city_kana": "クワナシ",
    "town": "島田",
    "town_kana": "シマダ",
    "street": null,
    "office_name": null,
    "office_name_kana": null
  },
  "0937": {
    "zip_code": "5110937",
    "prefecture": "三重県",
    "prefecture_kana": "ミエケン",
    "prefecture_code": "24",
    "city": "桑名市",
    "city_kana": "クワナシ",
    "town": "志知",
    "town_kana": "シチ",
    "street": null,
    "office_name": null,
    "office_name_kana": null
  },
  "0938": {
    "zip_code": "5110938",
    "prefecture": "三重県",
    "prefecture_kana": "ミエケン",
    "prefecture_code": "24",
    "city": "桑名市",
    "city_kana": "クワナシ",
    "town": "友村",
    "town_kana": "トモムラ",
    "street": null,
    "office_name": null,
    "office_name_kana": null
  },
  "0939": {
    "zip_code": "5110939",
    "prefecture": "三重県",
    "prefecture_kana": "ミエケン",
    "prefecture_code": "24",
    "city": "桑名市",
    "city_kana": "クワナシ",
    "town": "坂井",
    "town_kana": "サカイ",
    "street": null,
    "office_name": null,
    "office_name_kana": null
  },
  "0941": {
    "zip_code": "5110941",
    "prefecture": "三重県",
    "prefecture_kana": "ミエケン",
    "prefecture_code": "24",
    "city": "桑名市",
    "city_kana": "クワナシ",
    "town": "嘉例川",
    "town_kana": "カレガワ",
    "street": null,
    "office_name": null,
    "office_name_kana": null
  },
  "0942": {
    "zip_code": "5110942",
    "prefecture": "三重県",
    "prefecture_kana": "ミエケン",
    "prefecture_code": "24",
    "city": "桑名市",
    "city_kana": "クワナシ",
    "town": "広見ケ丘",
    "town_kana": "ヒロミガオカ",
    "street": null,
    "office_name": null,
    "office_name_kana": null
  },
  "0943": {
    "zip_code": "5110943",
    "prefecture": "三重県",
    "prefecture_kana": "ミエケン",
    "prefecture_code": "24",
    "city": "桑名市",
    "city_kana": "クワナシ",
    "town": "森忠",
    "town_kana": "モリタダ",
    "street": null,
    "office_name": null,
    "office_name_kana": null
  },
  "0944": {
    "zip_code": "5110944",
    "prefecture": "三重県",
    "prefecture_kana": "ミエケン",
    "prefecture_code": "24",
    "city": "桑名市",
    "city_kana": "クワナシ",
    "town": "芳ケ崎",
    "town_kana": "ハガサキ",
    "street": null,
    "office_name": null,
    "office_name_kana": null
  },
  "0945": {
    "zip_code": "5110945",
    "prefecture": "三重県",
    "prefecture_kana": "ミエケン",
    "prefecture_code": "24",
    "city": "桑名市",
    "city_kana": "クワナシ",
    "town": "筑紫",
    "town_kana": "ツクシ",
    "street": null,
    "office_name": null,
    "office_name_kana": null
  },
  "0946": {
    "zip_code": "5110946",
    "prefecture": "三重県",
    "prefecture_kana": "ミエケン",
    "prefecture_code": "24",
    "city": "桑名市",
    "city_kana": "クワナシ",
    "town": "五反田",
    "town_kana": "ゴタンダ",
    "street": null,
    "office_name": null,
    "office_name_kana": null
  },
  "0947": {
    "zip_code": "5110947",
    "prefecture": "三重県",
    "prefecture_kana": "ミエケン",
    "prefecture_code": "24",
    "city": "桑名市",
    "city_kana": "クワナシ",
    "town": "大仲新田",
    "town_kana": "オオナカシンデン",
    "street": null,
    "office_name": null,
    "office_name_kana": null
  },
  "1101": {
    "zip_code": "5111101",
    "prefecture": "三重県",
    "prefecture_kana": "ミエケン",
    "prefecture_code": "24",
    "city": "桑名市",
    "city_kana": "クワナシ",
    "town": "長島町新所",
    "town_kana": "ナガシマチョウシンショ",
    "street": null,
    "office_name": null,
    "office_name_kana": null
  },
  "1102": {
    "zip_code": "5111102",
    "prefecture": "三重県",
    "prefecture_kana": "ミエケン",
    "prefecture_code": "24",
    "city": "桑名市",
    "city_kana": "クワナシ",
    "town": "長島町西川",
    "town_kana": "ナガシマチョウニシカワ",
    "street": null,
    "office_name": null,
    "office_name_kana": null
  },
  "1103": {
    "zip_code": "5111103",
    "prefecture": "三重県",
    "prefecture_kana": "ミエケン",
    "prefecture_code": "24",
    "city": "桑名市",
    "city_kana": "クワナシ",
    "town": "長島町中川",
    "town_kana": "ナガシマチョウナカガワ",
    "street": null,
    "office_name": null,
    "office_name_kana": null
  },
  "1104": {
    "zip_code": "5111104",
    "prefecture": "三重県",
    "prefecture_kana": "ミエケン",
    "prefecture_code": "24",
    "city": "桑名市",
    "city_kana": "クワナシ",
    "town": "長島町高座",
    "town_kana": "ナガシマチョウコウザ",
    "street": null,
    "office_name": null,
    "office_name_kana": null
  },
  "1105": {
    "zip_code": "5111105",
    "prefecture": "三重県",
    "prefecture_kana": "ミエケン",
    "prefecture_code": "24",
    "city": "桑名市",
    "city_kana": "クワナシ",
    "town": "長島町千倉",
    "town_kana": "ナガシマチョウチクラ",
    "street": null,
    "office_name": null,
    "office_name_kana": null
  },
  "1106": {
    "zip_code": "5111106",
    "prefecture": "三重県",
    "prefecture_kana": "ミエケン",
    "prefecture_code": "24",
    "city": "桑名市",
    "city_kana": "クワナシ",
    "town": "長島町下坂手",
    "town_kana": "ナガシマチョウシモサカテ",
    "street": null,
    "office_name": null,
    "office_name_kana": null
  },
  "1107": {
    "zip_code": "5111107",
    "prefecture": "三重県",
    "prefecture_kana": "ミエケン",
    "prefecture_code": "24",
    "city": "桑名市",
    "city_kana": "クワナシ",
    "town": "長島町上坂手",
    "town_kana": "ナガシマチョウカミサカテ",
    "street": null,
    "office_name": null,
    "office_name_kana": null
  },
  "1108": {
    "zip_code": "5111108",
    "prefecture": "三重県",
    "prefecture_kana": "ミエケン",
    "prefecture_code": "24",
    "city": "桑名市",
    "city_kana": "クワナシ",
    "town": "長島町杉江",
    "town_kana": "ナガシマチョウスギエ",
    "street": null,
    "office_name": null,
    "office_name_kana": null
  },
  "1109": {
    "zip_code": "5111109",
    "prefecture": "三重県",
    "prefecture_kana": "ミエケン",
    "prefecture_code": "24",
    "city": "桑名市",
    "city_kana": "クワナシ",
    "town": "長島町松之木",
    "town_kana": "ナガシマチョウマツノキ",
    "street": null,
    "office_name": null,
    "office_name_kana": null
  },
  "1111": {
    "zip_code": "5111111",
    "prefecture": "三重県",
    "prefecture_kana": "ミエケン",
    "prefecture_code": "24",
    "city": "桑名市",
    "city_kana": "クワナシ",
    "town": "長島町小島",
    "town_kana": "ナガシマチョウコジマ",
    "street": null,
    "office_name": null,
    "office_name_kana": null
  },
  "1112": {
    "zip_code": "5111112",
    "prefecture": "三重県",
    "prefecture_kana": "ミエケン",
    "prefecture_code": "24",
    "city": "桑名市",
    "city_kana": "クワナシ",
    "town": "長島町大倉",
    "town_kana": "ナガシマチョウオオクラ",
    "street": null,
    "office_name": null,
    "office_name_kana": null
  },
  "1113": {
    "zip_code": "5111113",
    "prefecture": "三重県",
    "prefecture_kana": "ミエケン",
    "prefecture_code": "24",
    "city": "桑名市",
    "city_kana": "クワナシ",
    "town": "長島町押付",
    "town_kana": "ナガシマチョウオシツケ",
    "street": null,
    "office_name": null,
    "office_name_kana": null
  },
  "1114": {
    "zip_code": "5111114",
    "prefecture": "三重県",
    "prefecture_kana": "ミエケン",
    "prefecture_code": "24",
    "city": "桑名市",
    "city_kana": "クワナシ",
    "town": "長島町長島下町",
    "town_kana": "ナガシマチョウナガシマシモマチ",
    "street": null,
    "office_name": null,
    "office_name_kana": null
  },
  "1115": {
    "zip_code": "5111115",
    "prefecture": "三重県",
    "prefecture_kana": "ミエケン",
    "prefecture_code": "24",
    "city": "桑名市",
    "city_kana": "クワナシ",
    "town": "長島町長島中町",
    "town_kana": "ナガシマチョウナガシマナカマチ",
    "street": null,
    "office_name": null,
    "office_name_kana": null
  },
  "1116": {
    "zip_code": "5111116",
    "prefecture": "三重県",
    "prefecture_kana": "ミエケン",
    "prefecture_code": "24",
    "city": "桑名市",
    "city_kana": "クワナシ",
    "town": "長島町長島萱町",
    "town_kana": "ナガシマチョウナガシマカヤマチ",
    "street": null,
    "office_name": null,
    "office_name_kana": null
  },
  "1121": {
    "zip_code": "5111121",
    "prefecture": "三重県",
    "prefecture_kana": "ミエケン",
    "prefecture_code": "24",
    "city": "桑名市",
    "city_kana": "クワナシ",
    "town": "長島町東殿名",
    "town_kana": "ナガシマチョウヒガシトノメ",
    "street": null,
    "office_name": null,
    "office_name_kana": null
  },
  "1122": {
    "zip_code": "5111122",
    "prefecture": "三重県",
    "prefecture_kana": "ミエケン",
    "prefecture_code": "24",
    "city": "桑名市",
    "city_kana": "クワナシ",
    "town": "長島町松ケ島",
    "town_kana": "ナガシマチョウマツガシマ",
    "street": null,
    "office_name": null,
    "office_name_kana": null
  },
  "1123": {
    "zip_code": "5111123",
    "prefecture": "三重県",
    "prefecture_kana": "ミエケン",
    "prefecture_code": "24",
    "city": "桑名市",
    "city_kana": "クワナシ",
    "town": "長島町鎌ケ地",
    "town_kana": "ナガシマチョウカマガンジ",
    "street": null,
    "office_name": null,
    "office_name_kana": null
  },
  "1124": {
    "zip_code": "5111124",
    "prefecture": "三重県",
    "prefecture_kana": "ミエケン",
    "prefecture_code": "24",
    "city": "桑名市",
    "city_kana": "クワナシ",
    "town": "長島町葭ケ須",
    "town_kana": "ナガシマチョウヨシガス",
    "street": null,
    "office_name": null,
    "office_name_kana": null
  },
  "1125": {
    "zip_code": "5111125",
    "prefecture": "三重県",
    "prefecture_kana": "ミエケン",
    "prefecture_code": "24",
    "city": "桑名市",
    "city_kana": "クワナシ",
    "town": "長島町源部外面",
    "town_kana": "ナガシマチョウゲンベドモ",
    "street": null,
    "office_name": null,
    "office_name_kana": null
  },
  "1126": {
    "zip_code": "5111126",
    "prefecture": "三重県",
    "prefecture_kana": "ミエケン",
    "prefecture_code": "24",
    "city": "桑名市",
    "city_kana": "クワナシ",
    "town": "長島町又木",
    "town_kana": "ナガシマチョウマタギ",
    "street": null,
    "office_name": null,
    "office_name_kana": null
  },
  "1127": {
    "zip_code": "5111127",
    "prefecture": "三重県",
    "prefecture_kana": "ミエケン",
    "prefecture_code": "24",
    "city": "桑名市",
    "city_kana": "クワナシ",
    "town": "長島町殿名",
    "town_kana": "ナガシマチョウトノメ",
    "street": null,
    "office_name": null,
    "office_name_kana": null
  },
  "1128": {
    "zip_code": "5111128",
    "prefecture": "三重県",
    "prefecture_kana": "ミエケン",
    "prefecture_code": "24",
    "city": "桑名市",
    "city_kana": "クワナシ",
    "town": "長島町又木市街",
    "town_kana": "ナガシマチョウマタギシガイ",
    "street": null,
    "office_name": null,
    "office_name_kana": null
  },
  "1131": {
    "zip_code": "5111131",
    "prefecture": "三重県",
    "prefecture_kana": "ミエケン",
    "prefecture_code": "24",
    "city": "桑名市",
    "city_kana": "クワナシ",
    "town": "長島町赤地",
    "town_kana": "ナガシマチョウアカジ",
    "street": null,
    "office_name": null,
    "office_name_kana": null
  },
  "1132": {
    "zip_code": "5111132",
    "prefecture": "三重県",
    "prefecture_kana": "ミエケン",
    "prefecture_code": "24",
    "city": "桑名市",
    "city_kana": "クワナシ",
    "town": "長島町福豊",
    "town_kana": "ナガシマチョウフクトヨ",
    "street": null,
    "office_name": null,
    "office_name_kana": null
  },
  "1133": {
    "zip_code": "5111133",
    "prefecture": "三重県",
    "prefecture_kana": "ミエケン",
    "prefecture_code": "24",
    "city": "桑名市",
    "city_kana": "クワナシ",
    "town": "長島町横満蔵",
    "town_kana": "ナガシマチョウヨコマクラ",
    "street": null,
    "office_name": null,
    "office_name_kana": null
  },
  "1134": {
    "zip_code": "5111134",
    "prefecture": "三重県",
    "prefecture_kana": "ミエケン",
    "prefecture_code": "24",
    "city": "桑名市",
    "city_kana": "クワナシ",
    "town": "長島町松蔭",
    "town_kana": "ナガシマチョウマツカゲ",
    "street": null,
    "office_name": null,
    "office_name_kana": null
  },
  "1135": {
    "zip_code": "5111135",
    "prefecture": "三重県",
    "prefecture_kana": "ミエケン",
    "prefecture_code": "24",
    "city": "桑名市",
    "city_kana": "クワナシ",
    "town": "長島町浦安",
    "town_kana": "ナガシマチョウウラヤス",
    "street": null,
    "office_name": null,
    "office_name_kana": null
  },
  "1136": {
    "zip_code": "5111136",
    "prefecture": "三重県",
    "prefecture_kana": "ミエケン",
    "prefecture_code": "24",
    "city": "桑名市",
    "city_kana": "クワナシ",
    "town": "長島町白鶏",
    "town_kana": "ナガシマチョウハッケ",
    "street": null,
    "office_name": null,
    "office_name_kana": null
  },
  "1137": {
    "zip_code": "5111137",
    "prefecture": "三重県",
    "prefecture_kana": "ミエケン",
    "prefecture_code": "24",
    "city": "桑名市",
    "city_kana": "クワナシ",
    "town": "長島町福吉",
    "town_kana": "ナガシマチョウフクヨシ",
    "street": null,
    "office_name": null,
    "office_name_kana": null
  },
  "1141": {
    "zip_code": "5111141",
    "prefecture": "三重県",
    "prefecture_kana": "ミエケン",
    "prefecture_code": "24",
    "city": "桑名市",
    "city_kana": "クワナシ",
    "town": "長島町間々",
    "town_kana": "ナガシマチョウママ",
    "street": null,
    "office_name": null,
    "office_name_kana": null
  },
  "1142": {
    "zip_code": "5111142",
    "prefecture": "三重県",
    "prefecture_kana": "ミエケン",
    "prefecture_code": "24",
    "city": "桑名市",
    "city_kana": "クワナシ",
    "town": "長島町出口",
    "town_kana": "ナガシマチョウデグチ",
    "street": null,
    "office_name": null,
    "office_name_kana": null
  },
  "1143": {
    "zip_code": "5111143",
    "prefecture": "三重県",
    "prefecture_kana": "ミエケン",
    "prefecture_code": "24",
    "city": "桑名市",
    "city_kana": "クワナシ",
    "town": "長島町西外面",
    "town_kana": "ナガシマチョウニシドモ",
    "street": null,
    "office_name": null,
    "office_name_kana": null
  },
  "1144": {
    "zip_code": "5111144",
    "prefecture": "三重県",
    "prefecture_kana": "ミエケン",
    "prefecture_code": "24",
    "city": "桑名市",
    "city_kana": "クワナシ",
    "town": "長島町駒江",
    "town_kana": "ナガシマチョウコマエ",
    "street": null,
    "office_name": null,
    "office_name_kana": null
  },
  "1145": {
    "zip_code": "5111145",
    "prefecture": "三重県",
    "prefecture_kana": "ミエケン",
    "prefecture_code": "24",
    "city": "桑名市",
    "city_kana": "クワナシ",
    "town": "長島町大島",
    "town_kana": "ナガシマチョウオオジマ",
    "street": null,
    "office_name": null,
    "office_name_kana": null
  },
  "1146": {
    "zip_code": "5111146",
    "prefecture": "三重県",
    "prefecture_kana": "ミエケン",
    "prefecture_code": "24",
    "city": "桑名市",
    "city_kana": "クワナシ",
    "town": "長島町十日外面",
    "town_kana": "ナガシマチョウトオカドモ",
    "street": null,
    "office_name": null,
    "office_name_kana": null
  },
  "1147": {
    "zip_code": "5111147",
    "prefecture": "三重県",
    "prefecture_kana": "ミエケン",
    "prefecture_code": "24",
    "city": "桑名市",
    "city_kana": "クワナシ",
    "town": "長島町平方",
    "town_kana": "ナガシマチョウヒラカタ",
    "street": null,
    "office_name": null,
    "office_name_kana": null
  },
  "1148": {
    "zip_code": "5111148",
    "prefecture": "三重県",
    "prefecture_kana": "ミエケン",
    "prefecture_code": "24",
    "city": "桑名市",
    "city_kana": "クワナシ",
    "town": "長島町北殿名",
    "town_kana": "ナガシマチョウキタトノメ",
    "street": null,
    "office_name": null,
    "office_name_kana": null
  },
  "1149": {
    "zip_code": "5111149",
    "prefecture": "三重県",
    "prefecture_kana": "ミエケン",
    "prefecture_code": "24",
    "city": "桑名市",
    "city_kana": "クワナシ",
    "town": "長島町西外面市街",
    "town_kana": "ナガシマチョウニシドモシガイ",
    "street": null,
    "office_name": null,
    "office_name_kana": null
  },
  "1192": {
    "zip_code": "5111192",
    "prefecture": "三重県",
    "prefecture_kana": "ミエケン",
    "prefecture_code": "24",
    "city": "桑名市",
    "city_kana": "クワナシ",
    "town": "長島町浦安",
    "town_kana": "ナガシマチョウウラヤス",
    "street": "３３３",
    "office_name": "長島観光開発　株式会社",
    "office_name_kana": "ナガシマカンコウカイハツ カブシキガイシヤ"
  },
  "8502": {
    "zip_code": "5118502",
    "prefecture": "三重県",
    "prefecture_kana": "ミエケン",
    "prefecture_code": "24",
    "city": "桑名市",
    "city_kana": "クワナシ",
    "town": "桑栄町",
    "town_kana": "ソウエイチョウ",
    "street": "２",
    "office_name": "桑栄ビル管理組合法人",
    "office_name_kana": "ソウエイビルカンリクミアイホウジン"
  },
  "8510": {
    "zip_code": "5118510",
    "prefecture": "三重県",
    "prefecture_kana": null,
    "prefecture_code": null,
    "city": "桑名市",
    "city_kana": null,
    "town": "大字江場",
    "town_kana": null,
    "street": "７−６",
    "office_name": "桑名税務署",
    "office_name_kana": "クワナゼイムシヨ"
  },
  "8511": {
    "zip_code": "5118511",
    "prefecture": "三重県",
    "prefecture_kana": null,
    "prefecture_code": null,
    "city": "桑名市",
    "city_kana": null,
    "town": "大字大福",
    "town_kana": null,
    "street": "２",
    "office_name": "日立金属　株式会社　桑名工場",
    "office_name_kana": "ヒタチキンゾク カブシキガイシヤ クワナコウジヨウ"
  },
  "8533": {
    "zip_code": "5118533",
    "prefecture": "三重県",
    "prefecture_kana": null,
    "prefecture_code": null,
    "city": "桑名市",
    "city_kana": null,
    "town": "大字森忠",
    "town_kana": null,
    "street": "４６５−４",
    "office_name": "ヤマモリ　株式会社",
    "office_name_kana": "ヤマモリ カブシキガイシヤ"
  },
  "8550": {
    "zip_code": "5118550",
    "prefecture": "三重県",
    "prefecture_kana": "ミエケン",
    "prefecture_code": "24",
    "city": "桑名市",
    "city_kana": "クワナシ",
    "town": "中央町",
    "town_kana": "チュウオウチョウ",
    "street": "２丁目３８",
    "office_name": "森田フードシステム　株式会社",
    "office_name_kana": "モリタフ-ドシステム カブシキガイシヤ"
  },
  "8555": {
    "zip_code": "5118555",
    "prefecture": "三重県",
    "prefecture_kana": "ミエケン",
    "prefecture_code": "24",
    "city": "桑名市",
    "city_kana": "クワナシ",
    "town": "吉之丸",
    "town_kana": "ヨシノマル",
    "street": "８番地",
    "office_name": "株式会社　柿安本店",
    "office_name_kana": "カブシキガイシヤ カキヤスホンテン"
  },
  "8558": {
    "zip_code": "5118558",
    "prefecture": "三重県",
    "prefecture_kana": null,
    "prefecture_code": null,
    "city": "桑名市",
    "city_kana": null,
    "town": "大字増田",
    "town_kana": null,
    "street": "５００",
    "office_name": "扶桑工機　株式会社",
    "office_name_kana": "フソウコウキ カブシキガイシヤ"
  },
  "8567": {
    "zip_code": "5118567",
    "prefecture": "三重県",
    "prefecture_kana": "ミエケン",
    "prefecture_code": "24",
    "city": "桑名市",
    "city_kana": "クワナシ",
    "town": "中央町",
    "town_kana": "チュウオウチョウ",
    "street": "５丁目７１",
    "office_name": "桑名県税事務所",
    "office_name_kana": "クワナケンゼイジムシヨ"
  },
  "8577": {
    "zip_code": "5118577",
    "prefecture": "三重県",
    "prefecture_kana": "ミエケン",
    "prefecture_code": "24",
    "city": "桑名市",
    "city_kana": "クワナシ",
    "town": "中央町",
    "town_kana": "チュウオウチョウ",
    "street": "３丁目２０",
    "office_name": "桑名商工会議所",
    "office_name_kana": "クワナシヨウコウカイギシヨ"
  },
  "8585": {
    "zip_code": "5118585",
    "prefecture": "三重県",
    "prefecture_kana": null,
    "prefecture_code": null,
    "city": "桑名市",
    "city_kana": null,
    "town": "大字森忠",
    "town_kana": null,
    "street": "４６３",
    "office_name": "株式会社　中部コーポレーション",
    "office_name_kana": "カブシキガイシヤ チユウブコ-ポレ-シヨン"
  },
  "8588": {
    "zip_code": "5118588",
    "prefecture": "三重県",
    "prefecture_kana": "ミエケン",
    "prefecture_code": "24",
    "city": "桑名市",
    "city_kana": "クワナシ",
    "town": "三之丸",
    "town_kana": "サンノマル",
    "street": "４９−１",
    "office_name": "株式会社　杉山コンテック",
    "office_name_kana": "カブシキガイシヤ スギヤマコンテツク"
  },
  "8601": {
    "zip_code": "5118601",
    "prefecture": "三重県",
    "prefecture_kana": "ミエケン",
    "prefecture_code": "24",
    "city": "桑名市",
    "city_kana": "クワナシ",
    "town": "中央町",
    "town_kana": "チュウオウチョウ",
    "street": "２丁目３７",
    "office_name": "桑名市役所",
    "office_name_kana": "クワナシヤクシヨ"
  },
  "8666": {
    "zip_code": "5118666",
    "prefecture": "三重県",
    "prefecture_kana": "ミエケン",
    "prefecture_code": "24",
    "city": "桑名市",
    "city_kana": "クワナシ",
    "town": "大央町",
    "town_kana": "ダイオウチョウ",
    "street": "２０（桑名郵便局私書箱第６号）",
    "office_name": "桑名信用金庫",
    "office_name_kana": "クワナシンヨウキンコ"
  },
  "8678": {
    "zip_code": "5118678",
    "prefecture": "三重県",
    "prefecture_kana": null,
    "prefecture_code": null,
    "city": "桑名市",
    "city_kana": null,
    "town": "大字東方",
    "town_kana": null,
    "street": "字土島２４５４（桑名郵便局私書箱第１４号）",
    "office_name": "ＮＴＮ　株式会社　桑名製作所",
    "office_name_kana": "エヌテイエヌ カブシキガイシヤ クワナセイサクシヨ"
  },
  "8686": {
    "zip_code": "5118686",
    "prefecture": "三重県",
    "prefecture_kana": "ミエケン",
    "prefecture_code": "24",
    "city": "桑名市",
    "city_kana": "クワナシ",
    "town": "中央町",
    "town_kana": "チュウオウチョウ",
    "street": "３丁目２３",
    "office_name": "株式会社　山本　本店",
    "office_name_kana": "カブシキガイシヤ ヤマモト ホンテン"
  },
  "8711": {
    "zip_code": "5118711",
    "prefecture": "三重県",
    "prefecture_kana": "ミエケン",
    "prefecture_code": "24",
    "city": "桑名市",
    "city_kana": "クワナシ",
    "town": "陽だまりの丘",
    "town_kana": "ヒダマリノオカ",
    "street": "６丁目１０３",
    "office_name": "ヤマモリ　株式会社　桑名・大山田事業所",
    "office_name_kana": "ヤマモリ カブシキガイシヤ クワナ・オオヤマダジギヨウシヨ"
  },
  "8798": {
    "zip_code": "5118798",
    "prefecture": "三重県",
    "prefecture_kana": null,
    "prefecture_code": null,
    "city": "桑名市",
    "city_kana": null,
    "town": "大字播磨",
    "town_kana": null,
    "street": "字大山田１５８４−１５０",
    "office_name": "東海郵政研修センター",
    "office_name_kana": "トウカイユウセイケンシユウセンタ-"
  }
}