{
  "0000": {
    "zip_code": "5140000",
    "prefecture": "三重県",
    "prefecture_kana": "ミエケン",
    "prefecture_code": 24,
    "city": "津市",
    "city_kana": "ツシ",
    "town": "",
    "town_kana": "",
    "street": null,
    "office_name": null,
    "office_name_kana": null
  },
  "0001": {
    "zip_code": "5140001",
    "prefecture": "三重県",
    "prefecture_kana": "ミエケン",
    "prefecture_code": 24,
    "city": "津市",
    "city_kana": "ツシ",
    "town": "江戸橋",
    "town_kana": "エドバシ",
    "street": null,
    "office_name": null,
    "office_name_kana": null
  },
  "0002": {
    "zip_code": "5140002",
    "prefecture": "三重県",
    "prefecture_kana": "ミエケン",
    "prefecture_code": 24,
    "city": "津市",
    "city_kana": "ツシ",
    "town": "島崎町",
    "town_kana": "シマザキチョウ",
    "street": null,
    "office_name": null,
    "office_name_kana": null
  },
  "0003": {
    "zip_code": "5140003",
    "prefecture": "三重県",
    "prefecture_kana": "ミエケン",
    "prefecture_code": 24,
    "city": "津市",
    "city_kana": "ツシ",
    "town": "桜橋",
    "town_kana": "サクラバシ",
    "street": null,
    "office_name": null,
    "office_name_kana": null
  },
  "0004": {
    "zip_code": "5140004",
    "prefecture": "三重県",
    "prefecture_kana": "ミエケン",
    "prefecture_code": 24,
    "city": "津市",
    "city_kana": "ツシ",
    "town": "栄町",
    "town_kana": "サカエマチ",
    "street": null,
    "office_name": null,
    "office_name_kana": null
  },
  "0005": {
    "zip_code": "5140005",
    "prefecture": "三重県",
    "prefecture_kana": "ミエケン",
    "prefecture_code": 24,
    "city": "津市",
    "city_kana": "ツシ",
    "town": "鳥居町",
    "town_kana": "トリイチョウ",
    "street": null,
    "office_name": null,
    "office_name_kana": null
  },
  "0006": {
    "zip_code": "5140006",
    "prefecture": "三重県",
    "prefecture_kana": "ミエケン",
    "prefecture_code": 24,
    "city": "津市",
    "city_kana": "ツシ",
    "town": "広明町",
    "town_kana": "コウメイチョウ",
    "street": null,
    "office_name": null,
    "office_name_kana": null
  },
  "0007": {
    "zip_code": "5140007",
    "prefecture": "三重県",
    "prefecture_kana": "ミエケン",
    "prefecture_code": 24,
    "city": "津市",
    "city_kana": "ツシ",
    "town": "大谷町",
    "town_kana": "オオタニチョウ",
    "street": null,
    "office_name": null,
    "office_name_kana": null
  },
  "0008": {
    "zip_code": "5140008",
    "prefecture": "三重県",
    "prefecture_kana": "ミエケン",
    "prefecture_code": 24,
    "city": "津市",
    "city_kana": "ツシ",
    "town": "上浜町",
    "town_kana": "カミハマチョウ",
    "street": null,
    "office_name": null,
    "office_name_kana": null
  },
  "0009": {
    "zip_code": "5140009",
    "prefecture": "三重県",
    "prefecture_kana": "ミエケン",
    "prefecture_code": 24,
    "city": "津市",
    "city_kana": "ツシ",
    "town": "羽所町",
    "town_kana": "ハドコロチョウ",
    "street": null,
    "office_name": null,
    "office_name_kana": null
  },
  "0010": {
    "zip_code": "5140010",
    "prefecture": "三重県",
    "prefecture_kana": "ミエケン",
    "prefecture_code": 24,
    "city": "津市",
    "city_kana": "ツシ",
    "town": "なぎさまち",
    "town_kana": "ナギサマチ",
    "street": null,
    "office_name": null,
    "office_name_kana": null
  },
  "0011": {
    "zip_code": "5140011",
    "prefecture": "三重県",
    "prefecture_kana": "ミエケン",
    "prefecture_code": 24,
    "city": "津市",
    "city_kana": "ツシ",
    "town": "高洲町",
    "town_kana": "タカスチョウ",
    "street": null,
    "office_name": null,
    "office_name_kana": null
  },
  "0012": {
    "zip_code": "5140012",
    "prefecture": "三重県",
    "prefecture_kana": "ミエケン",
    "prefecture_code": 24,
    "city": "津市",
    "city_kana": "ツシ",
    "town": "末広町",
    "town_kana": "スエヒロチョウ",
    "street": null,
    "office_name": null,
    "office_name_kana": null
  },
  "0013": {
    "zip_code": "5140013",
    "prefecture": "三重県",
    "prefecture_kana": "ミエケン",
    "prefecture_code": 24,
    "city": "津市",
    "city_kana": "ツシ",
    "town": "海岸町",
    "town_kana": "カイガンチョウ",
    "street": null,
    "office_name": null,
    "office_name_kana": null
  },
  "0014": {
    "zip_code": "5140014",
    "prefecture": "三重県",
    "prefecture_kana": "ミエケン",
    "prefecture_code": 24,
    "city": "津市",
    "city_kana": "ツシ",
    "town": "港町",
    "town_kana": "ミナトマチ",
    "street": null,
    "office_name": null,
    "office_name_kana": null
  },
  "0015": {
    "zip_code": "5140015",
    "prefecture": "三重県",
    "prefecture_kana": "ミエケン",
    "prefecture_code": 24,
    "city": "津市",
    "city_kana": "ツシ",
    "town": "寿町",
    "town_kana": "コトブキチョウ",
    "street": null,
    "office_name": null,
    "office_name_kana": null
  },
  "0016": {
    "zip_code": "5140016",
    "prefecture": "三重県",
    "prefecture_kana": "ミエケン",
    "prefecture_code": 24,
    "city": "津市",
    "city_kana": "ツシ",
    "town": "乙部",
    "town_kana": "オトベ",
    "street": null,
    "office_name": null,
    "office_name_kana": null
  },
  "0017": {
    "zip_code": "5140017",
    "prefecture": "三重県",
    "prefecture_kana": "ミエケン",
    "prefecture_code": 24,
    "city": "津市",
    "city_kana": "ツシ",
    "town": "相生町",
    "town_kana": "アイオイチョウ",
    "street": null,
    "office_name": null,
    "office_name_kana": null
  },
  "0018": {
    "zip_code": "5140018",
    "prefecture": "三重県",
    "prefecture_kana": "ミエケン",
    "prefecture_code": 24,
    "city": "津市",
    "city_kana": "ツシ",
    "town": "中河原",
    "town_kana": "ナカガワラ",
    "street": null,
    "office_name": null,
    "office_name_kana": null
  },
  "0019": {
    "zip_code": "5140019",
    "prefecture": "三重県",
    "prefecture_kana": "ミエケン",
    "prefecture_code": 24,
    "city": "津市",
    "city_kana": "ツシ",
    "town": "住吉町",
    "town_kana": "スミヨシチョウ",
    "street": null,
    "office_name": null,
    "office_name_kana": null
  },
  "0021": {
    "zip_code": "5140021",
    "prefecture": "三重県",
    "prefecture_kana": "ミエケン",
    "prefecture_code": 24,
    "city": "津市",
    "city_kana": "ツシ",
    "town": "万町津",
    "town_kana": "ヨロズマチツ",
    "street": null,
    "office_name": null,
    "office_name_kana": null
  },
  "0022": {
    "zip_code": "5140022",
    "prefecture": "三重県",
    "prefecture_kana": "ミエケン",
    "prefecture_code": 24,
    "city": "津市",
    "city_kana": "ツシ",
    "town": "愛宕町",
    "town_kana": "アタゴチョウ",
    "street": null,
    "office_name": null,
    "office_name_kana": null
  },
  "0023": {
    "zip_code": "5140023",
    "prefecture": "三重県",
    "prefecture_kana": "ミエケン",
    "prefecture_code": 24,
    "city": "津市",
    "city_kana": "ツシ",
    "town": "北町津",
    "town_kana": "キタマチツ",
    "street": null,
    "office_name": null,
    "office_name_kana": null
  },
  "0024": {
    "zip_code": "5140024",
    "prefecture": "三重県",
    "prefecture_kana": "ミエケン",
    "prefecture_code": 24,
    "city": "津市",
    "city_kana": "ツシ",
    "town": "新立町津",
    "town_kana": "シンタテマチツ",
    "street": null,
    "office_name": null,
    "office_name_kana": null
  },
  "0025": {
    "zip_code": "5140025",
    "prefecture": "三重県",
    "prefecture_kana": "ミエケン",
    "prefecture_code": 24,
    "city": "津市",
    "city_kana": "ツシ",
    "town": "東町津",
    "town_kana": "ヒガシマチツ",
    "street": null,
    "office_name": null,
    "office_name_kana": null
  },
  "0026": {
    "zip_code": "5140026",
    "prefecture": "三重県",
    "prefecture_kana": "ミエケン",
    "prefecture_code": 24,
    "city": "津市",
    "city_kana": "ツシ",
    "town": "新東町塔世",
    "town_kana": "シンヒガシマチトウセ",
    "street": null,
    "office_name": null,
    "office_name_kana": null
  },
  "0027": {
    "zip_code": "5140027",
    "prefecture": "三重県",
    "prefecture_kana": "ミエケン",
    "prefecture_code": 24,
    "city": "津市",
    "city_kana": "ツシ",
    "town": "大門",
    "town_kana": "ダイモン",
    "street": null,
    "office_name": null,
    "office_name_kana": null
  },
  "0028": {
    "zip_code": "5140028",
    "prefecture": "三重県",
    "prefecture_kana": "ミエケン",
    "prefecture_code": 24,
    "city": "津市",
    "city_kana": "ツシ",
    "town": "東丸之内",
    "town_kana": "ヒガシマルノウチ",
    "street": null,
    "office_name": null,
    "office_name_kana": null
  },
  "0031": {
    "zip_code": "5140031",
    "prefecture": "三重県",
    "prefecture_kana": "ミエケン",
    "prefecture_code": 24,
    "city": "津市",
    "city_kana": "ツシ",
    "town": "北丸之内",
    "town_kana": "キタマルノウチ",
    "street": null,
    "office_name": null,
    "office_name_kana": null
  },
  "0032": {
    "zip_code": "5140032",
    "prefecture": "三重県",
    "prefecture_kana": "ミエケン",
    "prefecture_code": 24,
    "city": "津市",
    "city_kana": "ツシ",
    "town": "中央",
    "town_kana": "チュウオウ",
    "street": null,
    "office_name": null,
    "office_name_kana": null
  },
  "0033": {
    "zip_code": "5140033",
    "prefecture": "三重県",
    "prefecture_kana": "ミエケン",
    "prefecture_code": 24,
    "city": "津市",
    "city_kana": "ツシ",
    "town": "丸之内",
    "town_kana": "マルノウチ",
    "street": null,
    "office_name": null,
    "office_name_kana": null
  },
  "0034": {
    "zip_code": "5140034",
    "prefecture": "三重県",
    "prefecture_kana": "ミエケン",
    "prefecture_code": 24,
    "city": "津市",
    "city_kana": "ツシ",
    "town": "南丸之内",
    "town_kana": "ミナミマルノウチ",
    "street": null,
    "office_name": null,
    "office_name_kana": null
  },
  "0035": {
    "zip_code": "5140035",
    "prefecture": "三重県",
    "prefecture_kana": "ミエケン",
    "prefecture_code": 24,
    "city": "津市",
    "city_kana": "ツシ",
    "town": "西丸之内",
    "town_kana": "ニシマルノウチ",
    "street": null,
    "office_name": null,
    "office_name_kana": null
  },
  "0036": {
    "zip_code": "5140036",
    "prefecture": "三重県",
    "prefecture_kana": "ミエケン",
    "prefecture_code": 24,
    "city": "津市",
    "city_kana": "ツシ",
    "town": "丸之内養正町",
    "town_kana": "マルノウチヨウセイチョウ",
    "street": null,
    "office_name": null,
    "office_name_kana": null
  },
  "0037": {
    "zip_code": "5140037",
    "prefecture": "三重県",
    "prefecture_kana": "ミエケン",
    "prefecture_code": 24,
    "city": "津市",
    "city_kana": "ツシ",
    "town": "東古河町",
    "town_kana": "ヒガシフルカワチョウ",
    "street": null,
    "office_name": null,
    "office_name_kana": null
  },
  "0038": {
    "zip_code": "5140038",
    "prefecture": "三重県",
    "prefecture_kana": "ミエケン",
    "prefecture_code": 24,
    "city": "津市",
    "city_kana": "ツシ",
    "town": "西古河町",
    "town_kana": "ニシフルカワチョウ",
    "street": null,
    "office_name": null,
    "office_name_kana": null
  },
  "0039": {
    "zip_code": "5140039",
    "prefecture": "三重県",
    "prefecture_kana": "ミエケン",
    "prefecture_code": 24,
    "city": "津市",
    "city_kana": "ツシ",
    "town": "押加部町",
    "town_kana": "オシカベチョウ",
    "street": null,
    "office_name": null,
    "office_name_kana": null
  },
  "0041": {
    "zip_code": "5140041",
    "prefecture": "三重県",
    "prefecture_kana": "ミエケン",
    "prefecture_code": 24,
    "city": "津市",
    "city_kana": "ツシ",
    "town": "八町",
    "town_kana": "ハッチョウ",
    "street": null,
    "office_name": null,
    "office_name_kana": null
  },
  "0042": {
    "zip_code": "5140042",
    "prefecture": "三重県",
    "prefecture_kana": "ミエケン",
    "prefecture_code": 24,
    "city": "津市",
    "city_kana": "ツシ",
    "town": "新町",
    "town_kana": "シンマチ",
    "street": null,
    "office_name": null,
    "office_name_kana": null
  },
  "0043": {
    "zip_code": "5140043",
    "prefecture": "三重県",
    "prefecture_kana": "ミエケン",
    "prefecture_code": 24,
    "city": "津市",
    "city_kana": "ツシ",
    "town": "南新町",
    "town_kana": "ミナミシンマチ",
    "street": null,
    "office_name": null,
    "office_name_kana": null
  },
  "0044": {
    "zip_code": "5140044",
    "prefecture": "三重県",
    "prefecture_kana": "ミエケン",
    "prefecture_code": 24,
    "city": "津市",
    "city_kana": "ツシ",
    "town": "川添町",
    "town_kana": "カワゾエチョウ",
    "street": null,
    "office_name": null,
    "office_name_kana": null
  },
  "0045": {
    "zip_code": "5140045",
    "prefecture": "三重県",
    "prefecture_kana": "ミエケン",
    "prefecture_code": 24,
    "city": "津市",
    "city_kana": "ツシ",
    "town": "美川町",
    "town_kana": "ミカワチョウ",
    "street": null,
    "office_name": null,
    "office_name_kana": null
  },
  "0046": {
    "zip_code": "5140046",
    "prefecture": "三重県",
    "prefecture_kana": "ミエケン",
    "prefecture_code": 24,
    "city": "津市",
    "city_kana": "ツシ",
    "town": "大園町",
    "town_kana": "オオゾノチョウ",
    "street": null,
    "office_name": null,
    "office_name_kana": null
  },
  "0047": {
    "zip_code": "5140047",
    "prefecture": "三重県",
    "prefecture_kana": "ミエケン",
    "prefecture_code": 24,
    "city": "津市",
    "city_kana": "ツシ",
    "town": "桜田町",
    "town_kana": "サクラダチョウ",
    "street": null,
    "office_name": null,
    "office_name_kana": null
  },
  "0051": {
    "zip_code": "5140051",
    "prefecture": "三重県",
    "prefecture_kana": "ミエケン",
    "prefecture_code": 24,
    "city": "津市",
    "city_kana": "ツシ",
    "town": "納所町",
    "town_kana": "ノウソチョウ",
    "street": null,
    "office_name": null,
    "office_name_kana": null
  },
  "0052": {
    "zip_code": "5140052",
    "prefecture": "三重県",
    "prefecture_kana": "ミエケン",
    "prefecture_code": 24,
    "city": "津市",
    "city_kana": "ツシ",
    "town": "神納町",
    "town_kana": "カノウチョウ",
    "street": null,
    "office_name": null,
    "office_name_kana": null
  },
  "0053": {
    "zip_code": "5140053",
    "prefecture": "三重県",
    "prefecture_kana": "ミエケン",
    "prefecture_code": 24,
    "city": "津市",
    "city_kana": "ツシ",
    "town": "博多町",
    "town_kana": "ハカタチョウ",
    "street": null,
    "office_name": null,
    "office_name_kana": null
  },
  "0054": {
    "zip_code": "5140054",
    "prefecture": "三重県",
    "prefecture_kana": "ミエケン",
    "prefecture_code": 24,
    "city": "津市",
    "city_kana": "ツシ",
    "town": "神納",
    "town_kana": "カノウ",
    "street": null,
    "office_name": null,
    "office_name_kana": null
  },
  "0055": {
    "zip_code": "5140055",
    "prefecture": "三重県",
    "prefecture_kana": "ミエケン",
    "prefecture_code": 24,
    "city": "津市",
    "city_kana": "ツシ",
    "town": "南河路",
    "town_kana": "ミナミコウジ",
    "street": null,
    "office_name": null,
    "office_name_kana": null
  },
  "0056": {
    "zip_code": "5140056",
    "prefecture": "三重県",
    "prefecture_kana": "ミエケン",
    "prefecture_code": 24,
    "city": "津市",
    "city_kana": "ツシ",
    "town": "北河路町",
    "town_kana": "キタコウジチョウ",
    "street": null,
    "office_name": null,
    "office_name_kana": null
  },
  "0057": {
    "zip_code": "5140057",
    "prefecture": "三重県",
    "prefecture_kana": "ミエケン",
    "prefecture_code": 24,
    "city": "津市",
    "city_kana": "ツシ",
    "town": "一色町",
    "town_kana": "イッシキチョウ",
    "street": null,
    "office_name": null,
    "office_name_kana": null
  },
  "0058": {
    "zip_code": "5140058",
    "prefecture": "三重県",
    "prefecture_kana": "ミエケン",
    "prefecture_code": 24,
    "city": "津市",
    "city_kana": "ツシ",
    "town": "安東町",
    "town_kana": "アントウチョウ",
    "street": null,
    "office_name": null,
    "office_name_kana": null
  },
  "0061": {
    "zip_code": "5140061",
    "prefecture": "三重県",
    "prefecture_kana": "ミエケン",
    "prefecture_code": 24,
    "city": "津市",
    "city_kana": "ツシ",
    "town": "一身田上津部田",
    "town_kana": "イッシンデンコウヅベタ",
    "street": null,
    "office_name": null,
    "office_name_kana": null
  },
  "0062": {
    "zip_code": "5140062",
    "prefecture": "三重県",
    "prefecture_kana": "ミエケン",
    "prefecture_code": 24,
    "city": "津市",
    "city_kana": "ツシ",
    "town": "観音寺町",
    "town_kana": "カンオンジチョウ",
    "street": null,
    "office_name": null,
    "office_name_kana": null
  },
  "0063": {
    "zip_code": "5140063",
    "prefecture": "三重県",
    "prefecture_kana": "ミエケン",
    "prefecture_code": 24,
    "city": "津市",
    "city_kana": "ツシ",
    "town": "渋見町",
    "town_kana": "シブミチョウ",
    "street": null,
    "office_name": null,
    "office_name_kana": null
  },
  "0064": {
    "zip_code": "5140064",
    "prefecture": "三重県",
    "prefecture_kana": "ミエケン",
    "prefecture_code": 24,
    "city": "津市",
    "city_kana": "ツシ",
    "town": "長岡町",
    "town_kana": "ナガオカチョウ",
    "street": null,
    "office_name": null,
    "office_name_kana": null
  },
  "0065": {
    "zip_code": "5140065",
    "prefecture": "三重県",
    "prefecture_kana": "ミエケン",
    "prefecture_code": 24,
    "city": "津市",
    "city_kana": "ツシ",
    "town": "河辺町",
    "town_kana": "コウベチョウ",
    "street": null,
    "office_name": null,
    "office_name_kana": null
  },
  "0071": {
    "zip_code": "5140071",
    "prefecture": "三重県",
    "prefecture_kana": "ミエケン",
    "prefecture_code": 24,
    "city": "津市",
    "city_kana": "ツシ",
    "town": "分部",
    "town_kana": "ワケベ",
    "street": null,
    "office_name": null,
    "office_name_kana": null
  },
  "0072": {
    "zip_code": "5140072",
    "prefecture": "三重県",
    "prefecture_kana": "ミエケン",
    "prefecture_code": 24,
    "city": "津市",
    "city_kana": "ツシ",
    "town": "小舟",
    "town_kana": "オブネ",
    "street": null,
    "office_name": null,
    "office_name_kana": null
  },
  "0073": {
    "zip_code": "5140073",
    "prefecture": "三重県",
    "prefecture_kana": "ミエケン",
    "prefecture_code": 24,
    "city": "津市",
    "city_kana": "ツシ",
    "town": "殿村",
    "town_kana": "トノムラ",
    "street": null,
    "office_name": null,
    "office_name_kana": null
  },
  "0074": {
    "zip_code": "5140074",
    "prefecture": "三重県",
    "prefecture_kana": "ミエケン",
    "prefecture_code": 24,
    "city": "津市",
    "city_kana": "ツシ",
    "town": "片田長谷場町",
    "town_kana": "カタダハセバチョウ",
    "street": null,
    "office_name": null,
    "office_name_kana": null
  },
  "0075": {
    "zip_code": "5140075",
    "prefecture": "三重県",
    "prefecture_kana": "ミエケン",
    "prefecture_code": 24,
    "city": "津市",
    "city_kana": "ツシ",
    "town": "片田志袋町",
    "town_kana": "カタダシブクロチョウ",
    "street": null,
    "office_name": null,
    "office_name_kana": null
  },
  "0076": {
    "zip_code": "5140076",
    "prefecture": "三重県",
    "prefecture_kana": "ミエケン",
    "prefecture_code": 24,
    "city": "津市",
    "city_kana": "ツシ",
    "town": "産品",
    "town_kana": "ウブシナ",
    "street": null,
    "office_name": null,
    "office_name_kana": null
  },
  "0077": {
    "zip_code": "5140077",
    "prefecture": "三重県",
    "prefecture_kana": "ミエケン",
    "prefecture_code": 24,
    "city": "津市",
    "city_kana": "ツシ",
    "town": "片田長谷町",
    "town_kana": "カタダハセチョウ",
    "street": null,
    "office_name": null,
    "office_name_kana": null
  },
  "0081": {
    "zip_code": "5140081",
    "prefecture": "三重県",
    "prefecture_kana": "ミエケン",
    "prefecture_code": 24,
    "city": "津市",
    "city_kana": "ツシ",
    "town": "片田田中町",
    "town_kana": "カタダタナカチョウ",
    "street": null,
    "office_name": null,
    "office_name_kana": null
  },
  "0082": {
    "zip_code": "5140082",
    "prefecture": "三重県",
    "prefecture_kana": "ミエケン",
    "prefecture_code": 24,
    "city": "津市",
    "city_kana": "ツシ",
    "town": "片田井戸町",
    "town_kana": "カタダイドチョウ",
    "street": null,
    "office_name": null,
    "office_name_kana": null
  },
  "0083": {
    "zip_code": "5140083",
    "prefecture": "三重県",
    "prefecture_kana": "ミエケン",
    "prefecture_code": 24,
    "city": "津市",
    "city_kana": "ツシ",
    "town": "片田新町",
    "town_kana": "カタダシンマチ",
    "street": null,
    "office_name": null,
    "office_name_kana": null
  },
  "0084": {
    "zip_code": "5140084",
    "prefecture": "三重県",
    "prefecture_kana": "ミエケン",
    "prefecture_code": 24,
    "city": "津市",
    "city_kana": "ツシ",
    "town": "片田町",
    "town_kana": "カタダチョウ",
    "street": null,
    "office_name": null,
    "office_name_kana": null
  },
  "0085": {
    "zip_code": "5140085",
    "prefecture": "三重県",
    "prefecture_kana": "ミエケン",
    "prefecture_code": 24,
    "city": "津市",
    "city_kana": "ツシ",
    "town": "片田久保町",
    "town_kana": "カタダクボチョウ",
    "street": null,
    "office_name": null,
    "office_name_kana": null
  },
  "0086": {
    "zip_code": "5140086",
    "prefecture": "三重県",
    "prefecture_kana": "ミエケン",
    "prefecture_code": 24,
    "city": "津市",
    "city_kana": "ツシ",
    "town": "片田薬王寺町",
    "town_kana": "カタダヤクオウジチョウ",
    "street": null,
    "office_name": null,
    "office_name_kana": null
  },
  "0101": {
    "zip_code": "5140101",
    "prefecture": "三重県",
    "prefecture_kana": "ミエケン",
    "prefecture_code": 24,
    "city": "津市",
    "city_kana": "ツシ",
    "town": "白塚町",
    "town_kana": "シラツカチョウ",
    "street": null,
    "office_name": null,
    "office_name_kana": null
  },
  "0102": {
    "zip_code": "5140102",
    "prefecture": "三重県",
    "prefecture_kana": "ミエケン",
    "prefecture_code": 24,
    "city": "津市",
    "city_kana": "ツシ",
    "town": "栗真町屋町",
    "town_kana": "クリママチヤチョウ",
    "street": null,
    "office_name": null,
    "office_name_kana": null
  },
  "0103": {
    "zip_code": "5140103",
    "prefecture": "三重県",
    "prefecture_kana": "ミエケン",
    "prefecture_code": 24,
    "city": "津市",
    "city_kana": "ツシ",
    "town": "栗真中山町",
    "town_kana": "クリマナカヤマチョウ",
    "street": null,
    "office_name": null,
    "office_name_kana": null
  },
  "0104": {
    "zip_code": "5140104",
    "prefecture": "三重県",
    "prefecture_kana": "ミエケン",
    "prefecture_code": 24,
    "city": "津市",
    "city_kana": "ツシ",
    "town": "栗真小川町",
    "town_kana": "クリマコガワチョウ",
    "street": null,
    "office_name": null,
    "office_name_kana": null
  },
  "0111": {
    "zip_code": "5140111",
    "prefecture": "三重県",
    "prefecture_kana": "ミエケン",
    "prefecture_code": 24,
    "city": "津市",
    "city_kana": "ツシ",
    "town": "一身田平野",
    "town_kana": "イッシンデンヒラノ",
    "street": null,
    "office_name": null,
    "office_name_kana": null
  },
  "0112": {
    "zip_code": "5140112",
    "prefecture": "三重県",
    "prefecture_kana": "ミエケン",
    "prefecture_code": 24,
    "city": "津市",
    "city_kana": "ツシ",
    "town": "一身田中野",
    "town_kana": "イッシンデンナカノ",
    "street": null,
    "office_name": null,
    "office_name_kana": null
  },
  "0113": {
    "zip_code": "5140113",
    "prefecture": "三重県",
    "prefecture_kana": "ミエケン",
    "prefecture_code": 24,
    "city": "津市",
    "city_kana": "ツシ",
    "town": "一身田大古曽",
    "town_kana": "イッシンデンオオゴソ",
    "street": null,
    "office_name": null,
    "office_name_kana": null
  },
  "0114": {
    "zip_code": "5140114",
    "prefecture": "三重県",
    "prefecture_kana": "ミエケン",
    "prefecture_code": 24,
    "city": "津市",
    "city_kana": "ツシ",
    "town": "一身田町",
    "town_kana": "イッシンデンチョウ",
    "street": null,
    "office_name": null,
    "office_name_kana": null
  },
  "0115": {
    "zip_code": "5140115",
    "prefecture": "三重県",
    "prefecture_kana": "ミエケン",
    "prefecture_code": 24,
    "city": "津市",
    "city_kana": "ツシ",
    "town": "一身田豊野",
    "town_kana": "イッシンデントヨノ",
    "street": null,
    "office_name": null,
    "office_name_kana": null
  },
  "0116": {
    "zip_code": "5140116",
    "prefecture": "三重県",
    "prefecture_kana": "ミエケン",
    "prefecture_code": 24,
    "city": "津市",
    "city_kana": "ツシ",
    "town": "夢が丘",
    "town_kana": "ユメガオカ",
    "street": null,
    "office_name": null,
    "office_name_kana": null
  },
  "0121": {
    "zip_code": "5140121",
    "prefecture": "三重県",
    "prefecture_kana": "ミエケン",
    "prefecture_code": 24,
    "city": "津市",
    "city_kana": "ツシ",
    "town": "大里山室町",
    "town_kana": "オオザトヤマムロチョウ",
    "street": null,
    "office_name": null,
    "office_name_kana": null
  },
  "0122": {
    "zip_code": "5140122",
    "prefecture": "三重県",
    "prefecture_kana": "ミエケン",
    "prefecture_code": 24,
    "city": "津市",
    "city_kana": "ツシ",
    "town": "大里野田町",
    "town_kana": "オオザトノダチョウ",
    "street": null,
    "office_name": null,
    "office_name_kana": null
  },
  "0123": {
    "zip_code": "5140123",
    "prefecture": "三重県",
    "prefecture_kana": "ミエケン",
    "prefecture_code": 24,
    "city": "津市",
    "city_kana": "ツシ",
    "town": "大里小野田町",
    "town_kana": "オオザトコノダチョウ",
    "street": null,
    "office_name": null,
    "office_name_kana": null
  },
  "0124": {
    "zip_code": "5140124",
    "prefecture": "三重県",
    "prefecture_kana": "ミエケン",
    "prefecture_code": 24,
    "city": "津市",
    "city_kana": "ツシ",
    "town": "大里川北町",
    "town_kana": "オオザトカワキタチョウ",
    "street": null,
    "office_name": null,
    "office_name_kana": null
  },
  "0125": {
    "zip_code": "5140125",
    "prefecture": "三重県",
    "prefecture_kana": "ミエケン",
    "prefecture_code": 24,
    "city": "津市",
    "city_kana": "ツシ",
    "town": "大里窪田町",
    "town_kana": "オオザトクボタチョウ",
    "street": null,
    "office_name": null,
    "office_name_kana": null
  },
  "0126": {
    "zip_code": "5140126",
    "prefecture": "三重県",
    "prefecture_kana": "ミエケン",
    "prefecture_code": 24,
    "city": "津市",
    "city_kana": "ツシ",
    "town": "大里睦合町",
    "town_kana": "オオザトムツアイチョウ",
    "street": null,
    "office_name": null,
    "office_name_kana": null
  },
  "0131": {
    "zip_code": "5140131",
    "prefecture": "三重県",
    "prefecture_kana": "ミエケン",
    "prefecture_code": 24,
    "city": "津市",
    "city_kana": "ツシ",
    "town": "あのつ台",
    "town_kana": "アノツダイ",
    "street": null,
    "office_name": null,
    "office_name_kana": null
  },
  "0301": {
    "zip_code": "5140301",
    "prefecture": "三重県",
    "prefecture_kana": "ミエケン",
    "prefecture_code": 24,
    "city": "津市",
    "city_kana": "ツシ",
    "town": "雲出鋼管町",
    "town_kana": "クモズコウカンチョウ",
    "street": null,
    "office_name": null,
    "office_name_kana": null
  },
  "0302": {
    "zip_code": "5140302",
    "prefecture": "三重県",
    "prefecture_kana": "ミエケン",
    "prefecture_code": 24,
    "city": "津市",
    "city_kana": "ツシ",
    "town": "雲出伊倉津町",
    "town_kana": "クモズイグラヅチョウ",
    "street": null,
    "office_name": null,
    "office_name_kana": null
  },
  "0303": {
    "zip_code": "5140303",
    "prefecture": "三重県",
    "prefecture_kana": "ミエケン",
    "prefecture_code": 24,
    "city": "津市",
    "city_kana": "ツシ",
    "town": "雲出長常町",
    "town_kana": "クモズナガツネチョウ",
    "street": null,
    "office_name": null,
    "office_name_kana": null
  },
  "0304": {
    "zip_code": "5140304",
    "prefecture": "三重県",
    "prefecture_kana": "ミエケン",
    "prefecture_code": 24,
    "city": "津市",
    "city_kana": "ツシ",
    "town": "雲出本郷町",
    "town_kana": "クモズホンゴウチョウ",
    "street": null,
    "office_name": null,
    "office_name_kana": null
  },
  "0305": {
    "zip_code": "5140305",
    "prefecture": "三重県",
    "prefecture_kana": "ミエケン",
    "prefecture_code": 24,
    "city": "津市",
    "city_kana": "ツシ",
    "town": "雲出島貫町",
    "town_kana": "クモズシマヌキチョウ",
    "street": null,
    "office_name": null,
    "office_name_kana": null
  },
  "0311": [
    {
      "zip_code": "5140311",
      "prefecture": "三重県",
      "prefecture_kana": "ミエケン",
      "prefecture_code": 24,
      "city": "津市",
      "city_kana": "ツシ",
      "town": "香良洲町",
      "town_kana": "カラスチョウ",
      "street": null,
      "office_name": null,
      "office_name_kana": null
    },
    {
      "zip_code": "5140311",
      "prefecture": "三重県",
      "prefecture_kana": "ミエケン",
      "prefecture_code": 24,
      "city": "津市",
      "city_kana": "ツシ",
      "town": "香良洲町稲葉",
      "town_kana": "カラスチョウイナバ",
      "street": null,
      "office_name": null,
      "office_name_kana": null
    }
  ],
  "0312": [
    {
      "zip_code": "5140312",
      "prefecture": "三重県",
      "prefecture_kana": "ミエケン",
      "prefecture_code": 24,
      "city": "津市",
      "city_kana": "ツシ",
      "town": "香良洲町",
      "town_kana": "カラスチョウ",
      "street": null,
      "office_name": null,
      "office_name_kana": null
    },
    {
      "zip_code": "5140312",
      "prefecture": "三重県",
      "prefecture_kana": "ミエケン",
      "prefecture_code": 24,
      "city": "津市",
      "city_kana": "ツシ",
      "town": "香良洲町小松",
      "town_kana": "カラスチョウコマツ",
      "street": null,
      "office_name": null,
      "office_name_kana": null
    }
  ],
  "0313": [
    {
      "zip_code": "5140313",
      "prefecture": "三重県",
      "prefecture_kana": "ミエケン",
      "prefecture_code": 24,
      "city": "津市",
      "city_kana": "ツシ",
      "town": "香良洲町",
      "town_kana": "カラスチョウ",
      "street": null,
      "office_name": null,
      "office_name_kana": null
    },
    {
      "zip_code": "5140313",
      "prefecture": "三重県",
      "prefecture_kana": "ミエケン",
      "prefecture_code": 24,
      "city": "津市",
      "city_kana": "ツシ",
      "town": "香良洲町浜浦",
      "town_kana": "カラスチョウハマウラ",
      "street": null,
      "office_name": null,
      "office_name_kana": null
    }
  ],
  "0314": [
    {
      "zip_code": "5140314",
      "prefecture": "三重県",
      "prefecture_kana": "ミエケン",
      "prefecture_code": 24,
      "city": "津市",
      "city_kana": "ツシ",
      "town": "香良洲町",
      "town_kana": "カラスチョウ",
      "street": null,
      "office_name": null,
      "office_name_kana": null
    },
    {
      "zip_code": "5140314",
      "prefecture": "三重県",
      "prefecture_kana": "ミエケン",
      "prefecture_code": 24,
      "city": "津市",
      "city_kana": "ツシ",
      "town": "香良洲町高砂",
      "town_kana": "カラスチョウタカサゴ",
      "street": null,
      "office_name": null,
      "office_name_kana": null
    }
  ],
  "0315": {
    "zip_code": "5140315",
    "prefecture": "三重県",
    "prefecture_kana": "ミエケン",
    "prefecture_code": 24,
    "city": "津市",
    "city_kana": "ツシ",
    "town": "香良洲町",
    "town_kana": "カラスチョウ",
    "street": null,
    "office_name": null,
    "office_name_kana": null
  },
  "0321": [
    {
      "zip_code": "5140321",
      "prefecture": "三重県",
      "prefecture_kana": "ミエケン",
      "prefecture_code": 24,
      "city": "津市",
      "city_kana": "ツシ",
      "town": "香良洲町",
      "town_kana": "カラスチョウ",
      "street": null,
      "office_name": null,
      "office_name_kana": null
    },
    {
      "zip_code": "5140321",
      "prefecture": "三重県",
      "prefecture_kana": "ミエケン",
      "prefecture_code": 24,
      "city": "津市",
      "city_kana": "ツシ",
      "town": "香良洲町砂原",
      "town_kana": "カラスチョウスナハラ",
      "street": null,
      "office_name": null,
      "office_name_kana": null
    }
  ],
  "0323": [
    {
      "zip_code": "5140323",
      "prefecture": "三重県",
      "prefecture_kana": "ミエケン",
      "prefecture_code": 24,
      "city": "津市",
      "city_kana": "ツシ",
      "town": "香良洲町",
      "town_kana": "カラスチョウ",
      "street": null,
      "office_name": null,
      "office_name_kana": null
    },
    {
      "zip_code": "5140323",
      "prefecture": "三重県",
      "prefecture_kana": "ミエケン",
      "prefecture_code": 24,
      "city": "津市",
      "city_kana": "ツシ",
      "town": "香良洲町馬場",
      "town_kana": "カラスチョウババ",
      "street": null,
      "office_name": null,
      "office_name_kana": null
    }
  ],
  "0324": [
    {
      "zip_code": "5140324",
      "prefecture": "三重県",
      "prefecture_kana": "ミエケン",
      "prefecture_code": 24,
      "city": "津市",
      "city_kana": "ツシ",
      "town": "香良洲町",
      "town_kana": "カラスチョウ",
      "street": null,
      "office_name": null,
      "office_name_kana": null
    },
    {
      "zip_code": "5140324",
      "prefecture": "三重県",
      "prefecture_kana": "ミエケン",
      "prefecture_code": 24,
      "city": "津市",
      "city_kana": "ツシ",
      "town": "香良洲町地家",
      "town_kana": "カラスチョウジケ",
      "street": null,
      "office_name": null,
      "office_name_kana": null
    }
  ],
  "0325": [
    {
      "zip_code": "5140325",
      "prefecture": "三重県",
      "prefecture_kana": "ミエケン",
      "prefecture_code": 24,
      "city": "津市",
      "city_kana": "ツシ",
      "town": "香良洲町",
      "town_kana": "カラスチョウ",
      "street": null,
      "office_name": null,
      "office_name_kana": null
    },
    {
      "zip_code": "5140325",
      "prefecture": "三重県",
      "prefecture_kana": "ミエケン",
      "prefecture_code": 24,
      "city": "津市",
      "city_kana": "ツシ",
      "town": "香良洲町桜町",
      "town_kana": "カラスチョウサクラマチ",
      "street": null,
      "office_name": null,
      "office_name_kana": null
    }
  ],
  "0326": [
    {
      "zip_code": "5140326",
      "prefecture": "三重県",
      "prefecture_kana": "ミエケン",
      "prefecture_code": 24,
      "city": "津市",
      "city_kana": "ツシ",
      "town": "香良洲町",
      "town_kana": "カラスチョウ",
      "street": null,
      "office_name": null,
      "office_name_kana": null
    },
    {
      "zip_code": "5140326",
      "prefecture": "三重県",
      "prefecture_kana": "ミエケン",
      "prefecture_code": 24,
      "city": "津市",
      "city_kana": "ツシ",
      "town": "香良洲町川原",
      "town_kana": "カラスチョウカワハラ",
      "street": null,
      "office_name": null,
      "office_name_kana": null
    }
  ],
  "0392": {
    "zip_code": "5140392",
    "prefecture": "三重県",
    "prefecture_kana": "ミエケン",
    "prefecture_code": 24,
    "city": "津市",
    "city_kana": "ツシ",
    "town": "香良洲町",
    "town_kana": "カラスチョウ",
    "street": "１８７８番地",
    "office_name": "津市　香良洲総合支所",
    "office_name_kana": "ツシ カラスソウゴウシシヨ"
  },
  "0393": {
    "zip_code": "5140393",
    "prefecture": "三重県",
    "prefecture_kana": "ミエケン",
    "prefecture_code": 24,
    "city": "津市",
    "city_kana": "ツシ",
    "town": "雲出鋼管町",
    "town_kana": "クモズコウカンチョウ",
    "street": "１番地",
    "office_name": "ＪＦＥエンジニアリング　株式会社　津製作所",
    "office_name_kana": "ジエイエフイ-エンジニアリング カブシキガイシヤ ツセイサクシヨ"
  },
  "0395": {
    "zip_code": "5140395",
    "prefecture": "三重県",
    "prefecture_kana": "ミエケン",
    "prefecture_code": 24,
    "city": "津市",
    "city_kana": "ツシ",
    "town": "雲出長常町",
    "town_kana": "クモズナガツネチョウ",
    "street": "字六ノ割１１９０−９",
    "office_name": "中部運輸局　三重運輸支局",
    "office_name_kana": "チユウブウンユキヨク ミエウンユシキヨク"
  },
  "0396": {
    "zip_code": "5140396",
    "prefecture": "三重県",
    "prefecture_kana": "ミエケン",
    "prefecture_code": 24,
    "city": "津市",
    "city_kana": "ツシ",
    "town": "雲出鋼管町",
    "town_kana": "クモズコウカンチョウ",
    "street": "６２番地２",
    "office_name": "カヤバシステムマシナリー　株式会社　三重工場",
    "office_name_kana": "カヤバシステムマシナリ- カブシキガイシヤ ミエコウジヨウ"
  },
  "0397": {
    "zip_code": "5140397",
    "prefecture": "三重県",
    "prefecture_kana": "ミエケン",
    "prefecture_code": 24,
    "city": "津市",
    "city_kana": "ツシ",
    "town": "雲出島貫町",
    "town_kana": "クモズシマヌキチョウ",
    "street": "１２７２",
    "office_name": "ＵＤトラックス　株式会社",
    "office_name_kana": "ユ-デイ-トラツクス カブシキガイシヤ"
  },
  "0801": {
    "zip_code": "5140801",
    "prefecture": "三重県",
    "prefecture_kana": "ミエケン",
    "prefecture_code": 24,
    "city": "津市",
    "city_kana": "ツシ",
    "town": "船頭町津興",
    "town_kana": "センドウマチツオキ",
    "street": null,
    "office_name": null,
    "office_name_kana": null
  },
  "0802": {
    "zip_code": "5140802",
    "prefecture": "三重県",
    "prefecture_kana": "ミエケン",
    "prefecture_code": 24,
    "city": "津市",
    "city_kana": "ツシ",
    "town": "三重町津興",
    "town_kana": "ミエチョウツオキ",
    "street": null,
    "office_name": null,
    "office_name_kana": null
  },
  "0803": {
    "zip_code": "5140803",
    "prefecture": "三重県",
    "prefecture_kana": "ミエケン",
    "prefecture_code": 24,
    "city": "津市",
    "city_kana": "ツシ",
    "town": "柳山津興",
    "town_kana": "ヤナギヤマツオキ",
    "street": null,
    "office_name": null,
    "office_name_kana": null
  },
  "0804": {
    "zip_code": "5140804",
    "prefecture": "三重県",
    "prefecture_kana": "ミエケン",
    "prefecture_code": 24,
    "city": "津市",
    "city_kana": "ツシ",
    "town": "上弁財町津興",
    "town_kana": "カミベザイマチツオキ",
    "street": null,
    "office_name": null,
    "office_name_kana": null
  },
  "0805": {
    "zip_code": "5140805",
    "prefecture": "三重県",
    "prefecture_kana": "ミエケン",
    "prefecture_code": 24,
    "city": "津市",
    "city_kana": "ツシ",
    "town": "下弁財町津興",
    "town_kana": "シモベザイマチツオキ",
    "street": null,
    "office_name": null,
    "office_name_kana": null
  },
  "0806": {
    "zip_code": "5140806",
    "prefecture": "三重県",
    "prefecture_kana": "ミエケン",
    "prefecture_code": 24,
    "city": "津市",
    "city_kana": "ツシ",
    "town": "上弁財町",
    "town_kana": "カミベザイチョウ",
    "street": null,
    "office_name": null,
    "office_name_kana": null
  },
  "0811": {
    "zip_code": "5140811",
    "prefecture": "三重県",
    "prefecture_kana": "ミエケン",
    "prefecture_code": 24,
    "city": "津市",
    "city_kana": "ツシ",
    "town": "阿漕町",
    "town_kana": "アコギマチ",
    "street": null,
    "office_name": null,
    "office_name_kana": null
  },
  "0812": {
    "zip_code": "5140812",
    "prefecture": "三重県",
    "prefecture_kana": "ミエケン",
    "prefecture_code": 24,
    "city": "津市",
    "city_kana": "ツシ",
    "town": "津興",
    "town_kana": "ツオキ",
    "street": null,
    "office_name": null,
    "office_name_kana": null
  },
  "0813": {
    "zip_code": "5140813",
    "prefecture": "三重県",
    "prefecture_kana": "ミエケン",
    "prefecture_code": 24,
    "city": "津市",
    "city_kana": "ツシ",
    "town": "八幡町",
    "town_kana": "ヤハタチョウ",
    "street": null,
    "office_name": null,
    "office_name_kana": null
  },
  "0814": {
    "zip_code": "5140814",
    "prefecture": "三重県",
    "prefecture_kana": "ミエケン",
    "prefecture_code": 24,
    "city": "津市",
    "city_kana": "ツシ",
    "town": "藤枝町",
    "town_kana": "フジエダチョウ",
    "street": null,
    "office_name": null,
    "office_name_kana": null
  },
  "0815": {
    "zip_code": "5140815",
    "prefecture": "三重県",
    "prefecture_kana": "ミエケン",
    "prefecture_code": 24,
    "city": "津市",
    "city_kana": "ツシ",
    "town": "藤方",
    "town_kana": "フジカタ",
    "street": null,
    "office_name": null,
    "office_name_kana": null
  },
  "0816": {
    "zip_code": "5140816",
    "prefecture": "三重県",
    "prefecture_kana": "ミエケン",
    "prefecture_code": 24,
    "city": "津市",
    "city_kana": "ツシ",
    "town": "高茶屋小森上野町",
    "town_kana": "タカヂャヤコモリウエノチョウ",
    "street": null,
    "office_name": null,
    "office_name_kana": null
  },
  "0817": {
    "zip_code": "5140817",
    "prefecture": "三重県",
    "prefecture_kana": "ミエケン",
    "prefecture_code": 24,
    "city": "津市",
    "city_kana": "ツシ",
    "town": "高茶屋小森町",
    "town_kana": "タカヂャヤコモリチョウ",
    "street": null,
    "office_name": null,
    "office_name_kana": null
  },
  "0818": {
    "zip_code": "5140818",
    "prefecture": "三重県",
    "prefecture_kana": "ミエケン",
    "prefecture_code": 24,
    "city": "津市",
    "city_kana": "ツシ",
    "town": "城山",
    "town_kana": "シロヤマ",
    "street": null,
    "office_name": null,
    "office_name_kana": null
  },
  "0819": {
    "zip_code": "5140819",
    "prefecture": "三重県",
    "prefecture_kana": "ミエケン",
    "prefecture_code": 24,
    "city": "津市",
    "city_kana": "ツシ",
    "town": "高茶屋",
    "town_kana": "タカヂャヤ",
    "street": null,
    "office_name": null,
    "office_name_kana": null
  },
  "0821": {
    "zip_code": "5140821",
    "prefecture": "三重県",
    "prefecture_kana": "ミエケン",
    "prefecture_code": 24,
    "city": "津市",
    "city_kana": "ツシ",
    "town": "垂水",
    "town_kana": "タルミ",
    "street": null,
    "office_name": null,
    "office_name_kana": null
  },
  "0822": {
    "zip_code": "5140822",
    "prefecture": "三重県",
    "prefecture_kana": "ミエケン",
    "prefecture_code": 24,
    "city": "津市",
    "city_kana": "ツシ",
    "town": "南が丘",
    "town_kana": "ミナミガオカ",
    "street": null,
    "office_name": null,
    "office_name_kana": null
  },
  "0823": {
    "zip_code": "5140823",
    "prefecture": "三重県",
    "prefecture_kana": "ミエケン",
    "prefecture_code": 24,
    "city": "津市",
    "city_kana": "ツシ",
    "town": "半田",
    "town_kana": "ハンダ",
    "street": null,
    "office_name": null,
    "office_name_kana": null
  },
  "0824": {
    "zip_code": "5140824",
    "prefecture": "三重県",
    "prefecture_kana": "ミエケン",
    "prefecture_code": 24,
    "city": "津市",
    "city_kana": "ツシ",
    "town": "神戸",
    "town_kana": "カンベ",
    "street": null,
    "office_name": null,
    "office_name_kana": null
  },
  "0825": {
    "zip_code": "5140825",
    "prefecture": "三重県",
    "prefecture_kana": "ミエケン",
    "prefecture_code": 24,
    "city": "津市",
    "city_kana": "ツシ",
    "town": "緑が丘",
    "town_kana": "ミドリガオカ",
    "street": null,
    "office_name": null,
    "office_name_kana": null
  },
  "0826": {
    "zip_code": "5140826",
    "prefecture": "三重県",
    "prefecture_kana": "ミエケン",
    "prefecture_code": 24,
    "city": "津市",
    "city_kana": "ツシ",
    "town": "野田",
    "town_kana": "ノダ",
    "street": null,
    "office_name": null,
    "office_name_kana": null
  },
  "0831": {
    "zip_code": "5140831",
    "prefecture": "三重県",
    "prefecture_kana": "ミエケン",
    "prefecture_code": 24,
    "city": "津市",
    "city_kana": "ツシ",
    "town": "本町",
    "town_kana": "ホンマチ",
    "street": null,
    "office_name": null,
    "office_name_kana": null
  },
  "0832": {
    "zip_code": "5140832",
    "prefecture": "三重県",
    "prefecture_kana": "ミエケン",
    "prefecture_code": 24,
    "city": "津市",
    "city_kana": "ツシ",
    "town": "南中央",
    "town_kana": "ミナミチュウオウ",
    "street": null,
    "office_name": null,
    "office_name_kana": null
  },
  "0833": {
    "zip_code": "5140833",
    "prefecture": "三重県",
    "prefecture_kana": "ミエケン",
    "prefecture_code": 24,
    "city": "津市",
    "city_kana": "ツシ",
    "town": "西阿漕町岩田",
    "town_kana": "ニシアコギチョウイワタ",
    "street": null,
    "office_name": null,
    "office_name_kana": null
  },
  "0834": {
    "zip_code": "5140834",
    "prefecture": "三重県",
    "prefecture_kana": "ミエケン",
    "prefecture_code": 24,
    "city": "津市",
    "city_kana": "ツシ",
    "town": "大倉",
    "town_kana": "オオクラ",
    "street": null,
    "office_name": null,
    "office_name_kana": null
  },
  "0835": {
    "zip_code": "5140835",
    "prefecture": "三重県",
    "prefecture_kana": "ミエケン",
    "prefecture_code": 24,
    "city": "津市",
    "city_kana": "ツシ",
    "town": "幸町",
    "town_kana": "サイワイチョウ",
    "street": null,
    "office_name": null,
    "office_name_kana": null
  },
  "0836": {
    "zip_code": "5140836",
    "prefecture": "三重県",
    "prefecture_kana": "ミエケン",
    "prefecture_code": 24,
    "city": "津市",
    "city_kana": "ツシ",
    "town": "野崎垣内岩田",
    "town_kana": "ノザキガイトイワタ",
    "street": null,
    "office_name": null,
    "office_name_kana": null
  },
  "0837": {
    "zip_code": "5140837",
    "prefecture": "三重県",
    "prefecture_kana": "ミエケン",
    "prefecture_code": 24,
    "city": "津市",
    "city_kana": "ツシ",
    "town": "修成町",
    "town_kana": "シュウセイチョウ",
    "street": null,
    "office_name": null,
    "office_name_kana": null
  },
  "0838": {
    "zip_code": "5140838",
    "prefecture": "三重県",
    "prefecture_kana": "ミエケン",
    "prefecture_code": 24,
    "city": "津市",
    "city_kana": "ツシ",
    "town": "岩田",
    "town_kana": "イワタ",
    "street": null,
    "office_name": null,
    "office_name_kana": null
  },
  "1101": {
    "zip_code": "5141101",
    "prefecture": "三重県",
    "prefecture_kana": "ミエケン",
    "prefecture_code": 24,
    "city": "津市",
    "city_kana": "ツシ",
    "town": "久居明神町",
    "town_kana": "ヒサイミョウジンチョウ",
    "street": null,
    "office_name": null,
    "office_name_kana": null
  },
  "1102": {
    "zip_code": "5141102",
    "prefecture": "三重県",
    "prefecture_kana": "ミエケン",
    "prefecture_code": 24,
    "city": "津市",
    "city_kana": "ツシ",
    "town": "久居藤ケ丘町",
    "town_kana": "ヒサイフジガオカチョウ",
    "street": null,
    "office_name": null,
    "office_name_kana": null
  },
  "1103": {
    "zip_code": "5141103",
    "prefecture": "三重県",
    "prefecture_kana": "ミエケン",
    "prefecture_code": 24,
    "city": "津市",
    "city_kana": "ツシ",
    "town": "久居相川町",
    "town_kana": "ヒサイアイカワチョウ",
    "street": null,
    "office_name": null,
    "office_name_kana": null
  },
  "1104": {
    "zip_code": "5141104",
    "prefecture": "三重県",
    "prefecture_kana": "ミエケン",
    "prefecture_code": 24,
    "city": "津市",
    "city_kana": "ツシ",
    "town": "久居持川町",
    "town_kana": "ヒサイモチカワチョウ",
    "street": null,
    "office_name": null,
    "office_name_kana": null
  },
  "1105": {
    "zip_code": "5141105",
    "prefecture": "三重県",
    "prefecture_kana": "ミエケン",
    "prefecture_code": 24,
    "city": "津市",
    "city_kana": "ツシ",
    "town": "久居北口町",
    "town_kana": "ヒサイキタグチチョウ",
    "street": null,
    "office_name": null,
    "office_name_kana": null
  },
  "1106": {
    "zip_code": "5141106",
    "prefecture": "三重県",
    "prefecture_kana": "ミエケン",
    "prefecture_code": 24,
    "city": "津市",
    "city_kana": "ツシ",
    "town": "久居寺町",
    "town_kana": "ヒサイテラマチ",
    "street": null,
    "office_name": null,
    "office_name_kana": null
  },
  "1107": {
    "zip_code": "5141107",
    "prefecture": "三重県",
    "prefecture_kana": "ミエケン",
    "prefecture_code": 24,
    "city": "津市",
    "city_kana": "ツシ",
    "town": "久居中町",
    "town_kana": "ヒサイナカマチ",
    "street": null,
    "office_name": null,
    "office_name_kana": null
  },
  "1108": {
    "zip_code": "5141108",
    "prefecture": "三重県",
    "prefecture_kana": "ミエケン",
    "prefecture_code": 24,
    "city": "津市",
    "city_kana": "ツシ",
    "town": "久居射場町",
    "town_kana": "ヒサイイバチョウ",
    "street": null,
    "office_name": null,
    "office_name_kana": null
  },
  "1109": {
    "zip_code": "5141109",
    "prefecture": "三重県",
    "prefecture_kana": "ミエケン",
    "prefecture_code": 24,
    "city": "津市",
    "city_kana": "ツシ",
    "town": "久居烏木町",
    "town_kana": "ヒサイカラスギチョウ",
    "street": null,
    "office_name": null,
    "office_name_kana": null
  },
  "1111": {
    "zip_code": "5141111",
    "prefecture": "三重県",
    "prefecture_kana": "ミエケン",
    "prefecture_code": 24,
    "city": "津市",
    "city_kana": "ツシ",
    "town": "久居桜が丘町",
    "town_kana": "ヒサイサクラガオカチョウ",
    "street": null,
    "office_name": null,
    "office_name_kana": null
  },
  "1112": {
    "zip_code": "5141112",
    "prefecture": "三重県",
    "prefecture_kana": "ミエケン",
    "prefecture_code": 24,
    "city": "津市",
    "city_kana": "ツシ",
    "town": "久居小野辺町",
    "town_kana": "ヒサイコノンベチョウ",
    "street": null,
    "office_name": null,
    "office_name_kana": null
  },
  "1113": {
    "zip_code": "5141113",
    "prefecture": "三重県",
    "prefecture_kana": "ミエケン",
    "prefecture_code": 24,
    "city": "津市",
    "city_kana": "ツシ",
    "town": "久居野村町",
    "town_kana": "ヒサイノムラチョウ",
    "street": null,
    "office_name": null,
    "office_name_kana": null
  },
  "1114": {
    "zip_code": "5141114",
    "prefecture": "三重県",
    "prefecture_kana": "ミエケン",
    "prefecture_code": 24,
    "city": "津市",
    "city_kana": "ツシ",
    "town": "久居井戸山町",
    "town_kana": "ヒサイイドヤマチョウ",
    "street": null,
    "office_name": null,
    "office_name_kana": null
  },
  "1115": {
    "zip_code": "5141115",
    "prefecture": "三重県",
    "prefecture_kana": "ミエケン",
    "prefecture_code": 24,
    "city": "津市",
    "city_kana": "ツシ",
    "town": "木造町",
    "town_kana": "コツクリチョウ",
    "street": null,
    "office_name": null,
    "office_name_kana": null
  },
  "1116": {
    "zip_code": "5141116",
    "prefecture": "三重県",
    "prefecture_kana": "ミエケン",
    "prefecture_code": 24,
    "city": "津市",
    "city_kana": "ツシ",
    "town": "新家町",
    "town_kana": "ニノミチョウ",
    "street": null,
    "office_name": null,
    "office_name_kana": null
  },
  "1117": {
    "zip_code": "5141117",
    "prefecture": "三重県",
    "prefecture_kana": "ミエケン",
    "prefecture_code": 24,
    "city": "津市",
    "city_kana": "ツシ",
    "town": "久居野口町",
    "town_kana": "ヒサイノグチチョウ",
    "street": null,
    "office_name": null,
    "office_name_kana": null
  },
  "1118": {
    "zip_code": "5141118",
    "prefecture": "三重県",
    "prefecture_kana": "ミエケン",
    "prefecture_code": 24,
    "city": "津市",
    "city_kana": "ツシ",
    "town": "久居新町",
    "town_kana": "ヒサイシンマチ",
    "street": null,
    "office_name": null,
    "office_name_kana": null
  },
  "1121": {
    "zip_code": "5141121",
    "prefecture": "三重県",
    "prefecture_kana": "ミエケン",
    "prefecture_code": 24,
    "city": "津市",
    "city_kana": "ツシ",
    "town": "久居二ノ町",
    "town_kana": "ヒサイニノマチ",
    "street": null,
    "office_name": null,
    "office_name_kana": null
  },
  "1122": {
    "zip_code": "5141122",
    "prefecture": "三重県",
    "prefecture_kana": "ミエケン",
    "prefecture_code": 24,
    "city": "津市",
    "city_kana": "ツシ",
    "town": "川方町",
    "town_kana": "カワカタチョウ",
    "street": null,
    "office_name": null,
    "office_name_kana": null
  },
  "1123": {
    "zip_code": "5141123",
    "prefecture": "三重県",
    "prefecture_kana": "ミエケン",
    "prefecture_code": 24,
    "city": "津市",
    "city_kana": "ツシ",
    "town": "牧町",
    "town_kana": "マキチョウ",
    "street": null,
    "office_name": null,
    "office_name_kana": null
  },
  "1124": {
    "zip_code": "5141124",
    "prefecture": "三重県",
    "prefecture_kana": "ミエケン",
    "prefecture_code": 24,
    "city": "津市",
    "city_kana": "ツシ",
    "town": "須ケ瀬町",
    "town_kana": "スガゼチョウ",
    "street": null,
    "office_name": null,
    "office_name_kana": null
  },
  "1125": {
    "zip_code": "5141125",
    "prefecture": "三重県",
    "prefecture_kana": "ミエケン",
    "prefecture_code": 24,
    "city": "津市",
    "city_kana": "ツシ",
    "town": "久居元町",
    "town_kana": "ヒサイモトマチ",
    "street": null,
    "office_name": null,
    "office_name_kana": null
  },
  "1131": {
    "zip_code": "5141131",
    "prefecture": "三重県",
    "prefecture_kana": "ミエケン",
    "prefecture_code": 24,
    "city": "津市",
    "city_kana": "ツシ",
    "town": "久居西鷹跡町",
    "town_kana": "ヒサイニシタカトマチ",
    "street": null,
    "office_name": null,
    "office_name_kana": null
  },
  "1132": {
    "zip_code": "5141132",
    "prefecture": "三重県",
    "prefecture_kana": "ミエケン",
    "prefecture_code": 24,
    "city": "津市",
    "city_kana": "ツシ",
    "town": "久居幸町",
    "town_kana": "ヒサイサヤマチ",
    "street": null,
    "office_name": null,
    "office_name_kana": null
  },
  "1133": {
    "zip_code": "5141133",
    "prefecture": "三重県",
    "prefecture_kana": "ミエケン",
    "prefecture_code": 24,
    "city": "津市",
    "city_kana": "ツシ",
    "town": "久居万町",
    "town_kana": "ヒサイヨロズマチ",
    "street": null,
    "office_name": null,
    "office_name_kana": null
  },
  "1134": {
    "zip_code": "5141134",
    "prefecture": "三重県",
    "prefecture_kana": "ミエケン",
    "prefecture_code": 24,
    "city": "津市",
    "city_kana": "ツシ",
    "town": "久居旅籠町",
    "town_kana": "ヒサイハタゴマチ",
    "street": null,
    "office_name": null,
    "office_name_kana": null
  },
  "1135": {
    "zip_code": "5141135",
    "prefecture": "三重県",
    "prefecture_kana": "ミエケン",
    "prefecture_code": 24,
    "city": "津市",
    "city_kana": "ツシ",
    "town": "久居本町",
    "town_kana": "ヒサイホンマチ",
    "street": null,
    "office_name": null,
    "office_name_kana": null
  },
  "1136": {
    "zip_code": "5141136",
    "prefecture": "三重県",
    "prefecture_kana": "ミエケン",
    "prefecture_code": 24,
    "city": "津市",
    "city_kana": "ツシ",
    "town": "久居東鷹跡町",
    "town_kana": "ヒサイヒガシタカトマチ",
    "street": null,
    "office_name": null,
    "office_name_kana": null
  },
  "1137": {
    "zip_code": "5141137",
    "prefecture": "三重県",
    "prefecture_kana": "ミエケン",
    "prefecture_code": 24,
    "city": "津市",
    "city_kana": "ツシ",
    "town": "久居小戸木町",
    "town_kana": "ヒサイコベキチョウ",
    "street": null,
    "office_name": null,
    "office_name_kana": null
  },
  "1138": {
    "zip_code": "5141138",
    "prefecture": "三重県",
    "prefecture_kana": "ミエケン",
    "prefecture_code": 24,
    "city": "津市",
    "city_kana": "ツシ",
    "town": "戸木町",
    "town_kana": "ヘキチョウ",
    "street": null,
    "office_name": null,
    "office_name_kana": null
  },
  "1139": {
    "zip_code": "5141139",
    "prefecture": "三重県",
    "prefecture_kana": "ミエケン",
    "prefecture_code": 24,
    "city": "津市",
    "city_kana": "ツシ",
    "town": "青葉台",
    "town_kana": "アオバダイ",
    "street": null,
    "office_name": null,
    "office_name_kana": null
  },
  "1192": {
    "zip_code": "5141192",
    "prefecture": "三重県",
    "prefecture_kana": "ミエケン",
    "prefecture_code": 24,
    "city": "津市",
    "city_kana": "ツシ",
    "town": "久居東鷹跡町",
    "town_kana": "ヒサイヒガシタカトマチ",
    "street": "２４６",
    "office_name": "津市　久居総合支所",
    "office_name_kana": "ツシ ヒサイソウゴウシシヨ"
  },
  "1193": {
    "zip_code": "5141193",
    "prefecture": "三重県",
    "prefecture_kana": "ミエケン",
    "prefecture_code": 24,
    "city": "津市",
    "city_kana": "ツシ",
    "town": "久居明神町",
    "town_kana": "ヒサイミョウジンチョウ",
    "street": "字風早２６７０−２",
    "office_name": "中日本高速道路　株式会社　津保全・サービスセンター",
    "office_name_kana": "ナカニホンコウソクドウロ カブシキガイシヤ ツホゼン・サ-ビスセンタ-"
  },
  "1195": {
    "zip_code": "5141195",
    "prefecture": "三重県",
    "prefecture_kana": "ミエケン",
    "prefecture_code": 24,
    "city": "津市",
    "city_kana": "ツシ",
    "town": "栄町",
    "town_kana": "サカエマチ",
    "street": "４丁目２５５番地津栄町三交ビル",
    "office_name": "全国健康保険協会　三重支部",
    "office_name_kana": "ゼンコクケンコウホケンキヨウカイ ミエシブ"
  },
  "1251": {
    "zip_code": "5141251",
    "prefecture": "三重県",
    "prefecture_kana": "ミエケン",
    "prefecture_code": 24,
    "city": "津市",
    "city_kana": "ツシ",
    "town": "榊原町",
    "town_kana": "サカキバラチョウ",
    "street": null,
    "office_name": null,
    "office_name_kana": null
  },
  "1252": {
    "zip_code": "5141252",
    "prefecture": "三重県",
    "prefecture_kana": "ミエケン",
    "prefecture_code": 24,
    "city": "津市",
    "city_kana": "ツシ",
    "town": "稲葉町",
    "town_kana": "イナバチョウ",
    "street": null,
    "office_name": null,
    "office_name_kana": null
  },
  "1253": {
    "zip_code": "5141253",
    "prefecture": "三重県",
    "prefecture_kana": "ミエケン",
    "prefecture_code": 24,
    "city": "津市",
    "city_kana": "ツシ",
    "town": "久居一色町",
    "town_kana": "ヒサイイッシキチョウ",
    "street": null,
    "office_name": null,
    "office_name_kana": null
  },
  "1254": {
    "zip_code": "5141254",
    "prefecture": "三重県",
    "prefecture_kana": "ミエケン",
    "prefecture_code": 24,
    "city": "津市",
    "city_kana": "ツシ",
    "town": "森町",
    "town_kana": "モリチョウ",
    "street": null,
    "office_name": null,
    "office_name_kana": null
  },
  "1255": {
    "zip_code": "5141255",
    "prefecture": "三重県",
    "prefecture_kana": "ミエケン",
    "prefecture_code": 24,
    "city": "津市",
    "city_kana": "ツシ",
    "town": "庄田町",
    "town_kana": "ショウダチョウ",
    "street": null,
    "office_name": null,
    "office_name_kana": null
  },
  "1256": {
    "zip_code": "5141256",
    "prefecture": "三重県",
    "prefecture_kana": "ミエケン",
    "prefecture_code": 24,
    "city": "津市",
    "city_kana": "ツシ",
    "town": "中村町",
    "town_kana": "ナカムラチョウ",
    "street": null,
    "office_name": null,
    "office_name_kana": null
  },
  "1257": {
    "zip_code": "5141257",
    "prefecture": "三重県",
    "prefecture_kana": "ミエケン",
    "prefecture_code": 24,
    "city": "津市",
    "city_kana": "ツシ",
    "town": "大鳥町",
    "town_kana": "オオドリチョウ",
    "street": null,
    "office_name": null,
    "office_name_kana": null
  },
  "1258": {
    "zip_code": "5141258",
    "prefecture": "三重県",
    "prefecture_kana": "ミエケン",
    "prefecture_code": 24,
    "city": "津市",
    "city_kana": "ツシ",
    "town": "久居緑が丘町",
    "town_kana": "ヒサイミドリガオカチョウ",
    "street": null,
    "office_name": null,
    "office_name_kana": null
  },
  "1292": {
    "zip_code": "5141292",
    "prefecture": "三重県",
    "prefecture_kana": "ミエケン",
    "prefecture_code": 24,
    "city": "津市",
    "city_kana": "ツシ",
    "town": "榊原町",
    "town_kana": "サカキバラチョウ",
    "street": "７７７",
    "office_name": "独立行政法人　国立病院機構　榊原病院",
    "office_name_kana": "ドクリツギヨウセイホウジン コクリツビヨウインキコウ サカキバラビヨウイン"
  },
  "1293": {
    "zip_code": "5141293",
    "prefecture": "三重県",
    "prefecture_kana": "ミエケン",
    "prefecture_code": 24,
    "city": "津市",
    "city_kana": "ツシ",
    "town": "榊原町",
    "town_kana": "サカキバラチョウ",
    "street": "１０３３番地の４",
    "office_name": "医療法人　しょう純会　榊原温泉病院",
    "office_name_kana": "イリヨウホウジン シヨウジユンカイ サカキバラオンセンビヨウイン"
  },
  "1294": {
    "zip_code": "5141294",
    "prefecture": "三重県",
    "prefecture_kana": "ミエケン",
    "prefecture_code": 24,
    "city": "津市",
    "city_kana": "ツシ",
    "town": "庄田町",
    "town_kana": "ショウダチョウ",
    "street": "字若林２２０２−２",
    "office_name": "横河マニュファクチャリング　株式会社",
    "office_name_kana": "ヨコガワマニユフアクチヤリング カブシキガイシヤ"
  },
  "1295": {
    "zip_code": "5141295",
    "prefecture": "三重県",
    "prefecture_kana": "ミエケン",
    "prefecture_code": 24,
    "city": "津市",
    "city_kana": "ツシ",
    "town": "大鳥町",
    "town_kana": "オオドリチョウ",
    "street": "４２４番地の１",
    "office_name": "藤田保健衛生大学　七栗サナトリウム",
    "office_name_kana": "フジタホケンエイセイダイガク ナナクリサナトリウム"
  },
  "1296": {
    "zip_code": "5141296",
    "prefecture": "三重県",
    "prefecture_kana": "ミエケン",
    "prefecture_code": 24,
    "city": "津市",
    "city_kana": "ツシ",
    "town": "大鳥町",
    "town_kana": "オオドリチョウ",
    "street": "４２３番地",
    "office_name": "藤田保健衛生大学　藤田記念七栗研究所",
    "office_name_kana": "フジタホケンエイセイダイガク フジタキネンナナクリケンキユウジヨ"
  },
  "1297": {
    "zip_code": "5141297",
    "prefecture": "三重県",
    "prefecture_kana": "ミエケン",
    "prefecture_code": 24,
    "city": "津市",
    "city_kana": "ツシ",
    "town": "大鳥町",
    "town_kana": "オオドリチョウ",
    "street": "４３５番地",
    "office_name": "ユリカ　株式会社",
    "office_name_kana": "ユリカ カブシキガイシヤ"
  },
  "2101": {
    "zip_code": "5142101",
    "prefecture": "三重県",
    "prefecture_kana": "ミエケン",
    "prefecture_code": 24,
    "city": "津市",
    "city_kana": "ツシ",
    "town": "美里町高座原",
    "town_kana": "ミサトチョウコウザワラ",
    "street": null,
    "office_name": null,
    "office_name_kana": null
  },
  "2102": {
    "zip_code": "5142102",
    "prefecture": "三重県",
    "prefecture_kana": "ミエケン",
    "prefecture_code": 24,
    "city": "津市",
    "city_kana": "ツシ",
    "town": "美里町船山",
    "town_kana": "ミサトチョウフナヤマ",
    "street": null,
    "office_name": null,
    "office_name_kana": null
  },
  "2103": {
    "zip_code": "5142103",
    "prefecture": "三重県",
    "prefecture_kana": "ミエケン",
    "prefecture_code": 24,
    "city": "津市",
    "city_kana": "ツシ",
    "town": "美里町日南田",
    "town_kana": "ミサトチョウヒナタ",
    "street": null,
    "office_name": null,
    "office_name_kana": null
  },
  "2104": {
    "zip_code": "5142104",
    "prefecture": "三重県",
    "prefecture_kana": "ミエケン",
    "prefecture_code": 24,
    "city": "津市",
    "city_kana": "ツシ",
    "town": "美里町家所",
    "town_kana": "ミサトチョウイエドコロ",
    "street": null,
    "office_name": null,
    "office_name_kana": null
  },
  "2105": {
    "zip_code": "5142105",
    "prefecture": "三重県",
    "prefecture_kana": "ミエケン",
    "prefecture_code": 24,
    "city": "津市",
    "city_kana": "ツシ",
    "town": "美里町五百野",
    "town_kana": "ミサトチョウイオノ",
    "street": null,
    "office_name": null,
    "office_name_kana": null
  },
  "2106": {
    "zip_code": "5142106",
    "prefecture": "三重県",
    "prefecture_kana": "ミエケン",
    "prefecture_code": 24,
    "city": "津市",
    "city_kana": "ツシ",
    "town": "美里町足坂",
    "town_kana": "ミサトチョウアシザカ",
    "street": null,
    "office_name": null,
    "office_name_kana": null
  },
  "2107": {
    "zip_code": "5142107",
    "prefecture": "三重県",
    "prefecture_kana": "ミエケン",
    "prefecture_code": 24,
    "city": "津市",
    "city_kana": "ツシ",
    "town": "美里町穴倉",
    "town_kana": "ミサトチョウアナクラ",
    "street": null,
    "office_name": null,
    "office_name_kana": null
  },
  "2111": {
    "zip_code": "5142111",
    "prefecture": "三重県",
    "prefecture_kana": "ミエケン",
    "prefecture_code": 24,
    "city": "津市",
    "city_kana": "ツシ",
    "town": "美里町平木",
    "town_kana": "ミサトチョウヒラギ",
    "street": null,
    "office_name": null,
    "office_name_kana": null
  },
  "2112": {
    "zip_code": "5142112",
    "prefecture": "三重県",
    "prefecture_kana": "ミエケン",
    "prefecture_code": 24,
    "city": "津市",
    "city_kana": "ツシ",
    "town": "美里町北長野",
    "town_kana": "ミサトチョウキタナガノ",
    "street": null,
    "office_name": null,
    "office_name_kana": null
  },
  "2113": {
    "zip_code": "5142113",
    "prefecture": "三重県",
    "prefecture_kana": "ミエケン",
    "prefecture_code": 24,
    "city": "津市",
    "city_kana": "ツシ",
    "town": "美里町三郷",
    "town_kana": "ミサトチョウミサト",
    "street": null,
    "office_name": null,
    "office_name_kana": null
  },
  "2114": {
    "zip_code": "5142114",
    "prefecture": "三重県",
    "prefecture_kana": "ミエケン",
    "prefecture_code": 24,
    "city": "津市",
    "city_kana": "ツシ",
    "town": "美里町南長野",
    "town_kana": "ミサトチョウミナミナガノ",
    "street": null,
    "office_name": null,
    "office_name_kana": null
  },
  "2115": {
    "zip_code": "5142115",
    "prefecture": "三重県",
    "prefecture_kana": "ミエケン",
    "prefecture_code": 24,
    "city": "津市",
    "city_kana": "ツシ",
    "town": "美里町桂畑",
    "town_kana": "ミサトチョウカツラハタ",
    "street": null,
    "office_name": null,
    "office_name_kana": null
  },
  "2192": {
    "zip_code": "5142192",
    "prefecture": "三重県",
    "prefecture_kana": "ミエケン",
    "prefecture_code": 24,
    "city": "津市",
    "city_kana": "ツシ",
    "town": "美里町三郷",
    "town_kana": "ミサトチョウミサト",
    "street": "４８番地の１",
    "office_name": "津市　美里総合支所",
    "office_name_kana": "ツシ ミサトソウゴウシシヨ"
  },
  "2201": {
    "zip_code": "5142201",
    "prefecture": "三重県",
    "prefecture_kana": "ミエケン",
    "prefecture_code": 24,
    "city": "津市",
    "city_kana": "ツシ",
    "town": "芸濃町楠原",
    "town_kana": "ゲイノウチョウクスワラ",
    "street": null,
    "office_name": null,
    "office_name_kana": null
  },
  "2202": {
    "zip_code": "5142202",
    "prefecture": "三重県",
    "prefecture_kana": "ミエケン",
    "prefecture_code": 24,
    "city": "津市",
    "city_kana": "ツシ",
    "town": "芸濃町林",
    "town_kana": "ゲイノウチョウハヤシ",
    "street": null,
    "office_name": null,
    "office_name_kana": null
  },
  "2203": {
    "zip_code": "5142203",
    "prefecture": "三重県",
    "prefecture_kana": "ミエケン",
    "prefecture_code": 24,
    "city": "津市",
    "city_kana": "ツシ",
    "town": "芸濃町中縄",
    "town_kana": "ゲイノウチョウナカナワ",
    "street": null,
    "office_name": null,
    "office_name_kana": null
  },
  "2204": {
    "zip_code": "5142204",
    "prefecture": "三重県",
    "prefecture_kana": "ミエケン",
    "prefecture_code": 24,
    "city": "津市",
    "city_kana": "ツシ",
    "town": "芸濃町雲林院",
    "town_kana": "ゲイノウチョウウジイ",
    "street": null,
    "office_name": null,
    "office_name_kana": null
  },
  "2205": {
    "zip_code": "5142205",
    "prefecture": "三重県",
    "prefecture_kana": "ミエケン",
    "prefecture_code": 24,
    "city": "津市",
    "city_kana": "ツシ",
    "town": "芸濃町多門",
    "town_kana": "ゲイノウチョウタモン",
    "street": null,
    "office_name": null,
    "office_name_kana": null
  },
  "2206": {
    "zip_code": "5142206",
    "prefecture": "三重県",
    "prefecture_kana": "ミエケン",
    "prefecture_code": 24,
    "city": "津市",
    "city_kana": "ツシ",
    "town": "芸濃町小野平",
    "town_kana": "ゲイノウチョウオノヒラ",
    "street": null,
    "office_name": null,
    "office_name_kana": null
  },
  "2207": {
    "zip_code": "5142207",
    "prefecture": "三重県",
    "prefecture_kana": "ミエケン",
    "prefecture_code": 24,
    "city": "津市",
    "city_kana": "ツシ",
    "town": "芸濃町河内",
    "town_kana": "ゲイノウチョウコウチ",
    "street": null,
    "office_name": null,
    "office_name_kana": null
  },
  "2208": {
    "zip_code": "5142208",
    "prefecture": "三重県",
    "prefecture_kana": "ミエケン",
    "prefecture_code": 24,
    "city": "津市",
    "city_kana": "ツシ",
    "town": "芸濃町忍田",
    "town_kana": "ゲイノウチョウオシダ",
    "street": null,
    "office_name": null,
    "office_name_kana": null
  },
  "2211": {
    "zip_code": "5142211",
    "prefecture": "三重県",
    "prefecture_kana": "ミエケン",
    "prefecture_code": 24,
    "city": "津市",
    "city_kana": "ツシ",
    "town": "芸濃町椋本",
    "town_kana": "ゲイノウチョウムクモト",
    "street": null,
    "office_name": null,
    "office_name_kana": null
  },
  "2212": {
    "zip_code": "5142212",
    "prefecture": "三重県",
    "prefecture_kana": "ミエケン",
    "prefecture_code": 24,
    "city": "津市",
    "city_kana": "ツシ",
    "town": "芸濃町岡本",
    "town_kana": "ゲイノウチョウオカモト",
    "street": null,
    "office_name": null,
    "office_name_kana": null
  },
  "2213": {
    "zip_code": "5142213",
    "prefecture": "三重県",
    "prefecture_kana": "ミエケン",
    "prefecture_code": 24,
    "city": "津市",
    "city_kana": "ツシ",
    "town": "芸濃町北神山",
    "town_kana": "ゲイノウチョウキタコヤマ",
    "street": null,
    "office_name": null,
    "office_name_kana": null
  },
  "2214": {
    "zip_code": "5142214",
    "prefecture": "三重県",
    "prefecture_kana": "ミエケン",
    "prefecture_code": 24,
    "city": "津市",
    "city_kana": "ツシ",
    "town": "芸濃町萩野",
    "town_kana": "ゲイノウチョウハギノ",
    "street": null,
    "office_name": null,
    "office_name_kana": null
  },
  "2221": {
    "zip_code": "5142221",
    "prefecture": "三重県",
    "prefecture_kana": "ミエケン",
    "prefecture_code": 24,
    "city": "津市",
    "city_kana": "ツシ",
    "town": "高野尾町",
    "town_kana": "タカノオチョウ",
    "street": null,
    "office_name": null,
    "office_name_kana": null
  },
  "2222": {
    "zip_code": "5142222",
    "prefecture": "三重県",
    "prefecture_kana": "ミエケン",
    "prefecture_code": 24,
    "city": "津市",
    "city_kana": "ツシ",
    "town": "豊が丘",
    "town_kana": "トヨガオカ",
    "street": null,
    "office_name": null,
    "office_name_kana": null
  },
  "2292": {
    "zip_code": "5142292",
    "prefecture": "三重県",
    "prefecture_kana": "ミエケン",
    "prefecture_code": 24,
    "city": "津市",
    "city_kana": "ツシ",
    "town": "芸濃町椋本",
    "town_kana": "ゲイノウチョウムクモト",
    "street": "６１４１−１",
    "office_name": "津市庁　芸濃総合支所",
    "office_name_kana": "ツシチヨウ ゲイノウソウゴウシシヨ"
  },
  "2293": {
    "zip_code": "5142293",
    "prefecture": "三重県",
    "prefecture_kana": "ミエケン",
    "prefecture_code": 24,
    "city": "津市",
    "city_kana": "ツシ",
    "town": "高野尾町",
    "town_kana": "タカノオチョウ",
    "street": "１８６８番地の３",
    "office_name": "（株）赤塚植物園、赤塚物産（株）、（株）エフエフシー・ジャパン",
    "office_name_kana": "(カブ)アカツカシヨクブツエン、アカツカブツサン(カブ)、(カブ)エフエフシ-・ジヤパン"
  },
  "2294": {
    "zip_code": "5142294",
    "prefecture": "三重県",
    "prefecture_kana": "ミエケン",
    "prefecture_code": 24,
    "city": "津市",
    "city_kana": "ツシ",
    "town": "高野尾町",
    "town_kana": "タカノオチョウ",
    "street": "５０１０",
    "office_name": "ヤマギシズム社会豊里実顕地・ヤマギシズム生活豊里実顕地農事組合法人",
    "office_name_kana": "ヤマギシズムシヤカイトヨサトジツケンチ・ヤマギシズムセイカツトヨサトジツケンチノウジクミアイホウジン"
  },
  "2301": {
    "zip_code": "5142301",
    "prefecture": "三重県",
    "prefecture_kana": "ミエケン",
    "prefecture_code": 24,
    "city": "津市",
    "city_kana": "ツシ",
    "town": "安濃町荒木",
    "town_kana": "アノウチョウアラキ",
    "street": null,
    "office_name": null,
    "office_name_kana": null
  },
  "2302": {
    "zip_code": "5142302",
    "prefecture": "三重県",
    "prefecture_kana": "ミエケン",
    "prefecture_code": 24,
    "city": "津市",
    "city_kana": "ツシ",
    "town": "安濃町安濃",
    "town_kana": "アノウチョウアノウ",
    "street": null,
    "office_name": null,
    "office_name_kana": null
  },
  "2303": {
    "zip_code": "5142303",
    "prefecture": "三重県",
    "prefecture_kana": "ミエケン",
    "prefecture_code": 24,
    "city": "津市",
    "city_kana": "ツシ",
    "town": "安濃町内多",
    "town_kana": "アノウチョウウチダ",
    "street": null,
    "office_name": null,
    "office_name_kana": null
  },
  "2304": {
    "zip_code": "5142304",
    "prefecture": "三重県",
    "prefecture_kana": "ミエケン",
    "prefecture_code": 24,
    "city": "津市",
    "city_kana": "ツシ",
    "town": "安濃町太田",
    "town_kana": "アノウチョウオオタ",
    "street": null,
    "office_name": null,
    "office_name_kana": null
  },
  "2305": {
    "zip_code": "5142305",
    "prefecture": "三重県",
    "prefecture_kana": "ミエケン",
    "prefecture_code": 24,
    "city": "津市",
    "city_kana": "ツシ",
    "town": "安濃町清水",
    "town_kana": "アノウチョウシミズ",
    "street": null,
    "office_name": null,
    "office_name_kana": null
  },
  "2306": {
    "zip_code": "5142306",
    "prefecture": "三重県",
    "prefecture_kana": "ミエケン",
    "prefecture_code": 24,
    "city": "津市",
    "city_kana": "ツシ",
    "town": "安濃町曽根",
    "town_kana": "アノウチョウソネ",
    "street": null,
    "office_name": null,
    "office_name_kana": null
  },
  "2307": {
    "zip_code": "5142307",
    "prefecture": "三重県",
    "prefecture_kana": "ミエケン",
    "prefecture_code": 24,
    "city": "津市",
    "city_kana": "ツシ",
    "town": "安濃町浄土寺",
    "town_kana": "アノウチョウジョウドウジ",
    "street": null,
    "office_name": null,
    "office_name_kana": null
  },
  "2308": {
    "zip_code": "5142308",
    "prefecture": "三重県",
    "prefecture_kana": "ミエケン",
    "prefecture_code": 24,
    "city": "津市",
    "city_kana": "ツシ",
    "town": "安濃町川西",
    "town_kana": "アノウチョウカワニシ",
    "street": null,
    "office_name": null,
    "office_name_kana": null
  },
  "2311": {
    "zip_code": "5142311",
    "prefecture": "三重県",
    "prefecture_kana": "ミエケン",
    "prefecture_code": 24,
    "city": "津市",
    "city_kana": "ツシ",
    "town": "安濃町神田",
    "town_kana": "アノウチョウコウダ",
    "street": null,
    "office_name": null,
    "office_name_kana": null
  },
  "2312": {
    "zip_code": "5142312",
    "prefecture": "三重県",
    "prefecture_kana": "ミエケン",
    "prefecture_code": 24,
    "city": "津市",
    "city_kana": "ツシ",
    "town": "安濃町連部",
    "town_kana": "アノウチョウツラベ",
    "street": null,
    "office_name": null,
    "office_name_kana": null
  },
  "2313": {
    "zip_code": "5142313",
    "prefecture": "三重県",
    "prefecture_kana": "ミエケン",
    "prefecture_code": 24,
    "city": "津市",
    "city_kana": "ツシ",
    "town": "安濃町今徳",
    "town_kana": "アノウチョウコンドク",
    "street": null,
    "office_name": null,
    "office_name_kana": null
  },
  "2314": {
    "zip_code": "5142314",
    "prefecture": "三重県",
    "prefecture_kana": "ミエケン",
    "prefecture_code": 24,
    "city": "津市",
    "city_kana": "ツシ",
    "town": "安濃町妙法寺",
    "town_kana": "アノウチョウミョウホウジ",
    "street": null,
    "office_name": null,
    "office_name_kana": null
  },
  "2315": {
    "zip_code": "5142315",
    "prefecture": "三重県",
    "prefecture_kana": "ミエケン",
    "prefecture_code": 24,
    "city": "津市",
    "city_kana": "ツシ",
    "town": "安濃町光明寺",
    "town_kana": "アノウチョウコウミョウジ",
    "street": null,
    "office_name": null,
    "office_name_kana": null
  },
  "2316": {
    "zip_code": "5142316",
    "prefecture": "三重県",
    "prefecture_kana": "ミエケン",
    "prefecture_code": 24,
    "city": "津市",
    "city_kana": "ツシ",
    "town": "安濃町南神山",
    "town_kana": "アノウチョウミナミコヤマ",
    "street": null,
    "office_name": null,
    "office_name_kana": null
  },
  "2317": {
    "zip_code": "5142317",
    "prefecture": "三重県",
    "prefecture_kana": "ミエケン",
    "prefecture_code": 24,
    "city": "津市",
    "city_kana": "ツシ",
    "town": "安濃町前野",
    "town_kana": "アノウチョウマエノ",
    "street": null,
    "office_name": null,
    "office_name_kana": null
  },
  "2318": {
    "zip_code": "5142318",
    "prefecture": "三重県",
    "prefecture_kana": "ミエケン",
    "prefecture_code": 24,
    "city": "津市",
    "city_kana": "ツシ",
    "town": "安濃町中川",
    "town_kana": "アノウチョウナカガワ",
    "street": null,
    "office_name": null,
    "office_name_kana": null
  },
  "2321": {
    "zip_code": "5142321",
    "prefecture": "三重県",
    "prefecture_kana": "ミエケン",
    "prefecture_code": 24,
    "city": "津市",
    "city_kana": "ツシ",
    "town": "安濃町野口",
    "town_kana": "アノウチョウノグチ",
    "street": null,
    "office_name": null,
    "office_name_kana": null
  },
  "2322": {
    "zip_code": "5142322",
    "prefecture": "三重県",
    "prefecture_kana": "ミエケン",
    "prefecture_code": 24,
    "city": "津市",
    "city_kana": "ツシ",
    "town": "安濃町戸島",
    "town_kana": "アノウチョウトシマ",
    "street": null,
    "office_name": null,
    "office_name_kana": null
  },
  "2323": {
    "zip_code": "5142323",
    "prefecture": "三重県",
    "prefecture_kana": "ミエケン",
    "prefecture_code": 24,
    "city": "津市",
    "city_kana": "ツシ",
    "town": "安濃町大塚",
    "town_kana": "アノウチョウオオツカ",
    "street": null,
    "office_name": null,
    "office_name_kana": null
  },
  "2324": {
    "zip_code": "5142324",
    "prefecture": "三重県",
    "prefecture_kana": "ミエケン",
    "prefecture_code": 24,
    "city": "津市",
    "city_kana": "ツシ",
    "town": "安濃町粟加",
    "town_kana": "アノウチョウオウカ",
    "street": null,
    "office_name": null,
    "office_name_kana": null
  },
  "2325": {
    "zip_code": "5142325",
    "prefecture": "三重県",
    "prefecture_kana": "ミエケン",
    "prefecture_code": 24,
    "city": "津市",
    "city_kana": "ツシ",
    "town": "安濃町田端上野",
    "town_kana": "アノウチョウタバタウエノ",
    "street": null,
    "office_name": null,
    "office_name_kana": null
  },
  "2326": {
    "zip_code": "5142326",
    "prefecture": "三重県",
    "prefecture_kana": "ミエケン",
    "prefecture_code": 24,
    "city": "津市",
    "city_kana": "ツシ",
    "town": "安濃町東観音寺",
    "town_kana": "アノウチョウトウカンオンジ",
    "street": null,
    "office_name": null,
    "office_name_kana": null
  },
  "2327": {
    "zip_code": "5142327",
    "prefecture": "三重県",
    "prefecture_kana": "ミエケン",
    "prefecture_code": 24,
    "city": "津市",
    "city_kana": "ツシ",
    "town": "安濃町安部",
    "town_kana": "アノウチョウアベ",
    "street": null,
    "office_name": null,
    "office_name_kana": null
  },
  "2328": {
    "zip_code": "5142328",
    "prefecture": "三重県",
    "prefecture_kana": "ミエケン",
    "prefecture_code": 24,
    "city": "津市",
    "city_kana": "ツシ",
    "town": "安濃町草生",
    "town_kana": "アノウチョウクサワ",
    "street": null,
    "office_name": null,
    "office_name_kana": null
  },
  "2392": {
    "zip_code": "5142392",
    "prefecture": "三重県",
    "prefecture_kana": "ミエケン",
    "prefecture_code": 24,
    "city": "津市",
    "city_kana": "ツシ",
    "town": "安濃町草生",
    "town_kana": "アノウチョウクサワ",
    "street": "３６０",
    "office_name": "独立行政法人　農業・食品産業技術総合研究機構　野菜茶業研究所",
    "office_name_kana": "ドクリツギヨウセイホウジン ノウギヨウ・シヨクヒンサンギヨウギジユツソウゴウケンキユウキコウ ヤサイチヤギヨウケンキユウシヨ"
  },
  "2393": {
    "zip_code": "5142393",
    "prefecture": "三重県",
    "prefecture_kana": "ミエケン",
    "prefecture_code": 24,
    "city": "津市",
    "city_kana": "ツシ",
    "town": "安濃町東観音寺",
    "town_kana": "アノウチョウトウカンオンジ",
    "street": "４８３",
    "office_name": "津市　安濃総合支所",
    "office_name_kana": "ツシ アノウソウゴウシシヨ"
  },
  "2395": {
    "zip_code": "5142395",
    "prefecture": "三重県",
    "prefecture_kana": "ミエケン",
    "prefecture_code": 24,
    "city": "津市",
    "city_kana": "ツシ",
    "town": "安濃町荒木",
    "town_kana": "アノウチョウアラキ",
    "street": "５８０−１",
    "office_name": "株式会社　中川製作所",
    "office_name_kana": "カブシキガイシヤ ナカガワセイサクシヨ"
  },
  "2396": {
    "zip_code": "5142396",
    "prefecture": "三重県",
    "prefecture_kana": "ミエケン",
    "prefecture_code": 24,
    "city": "津市",
    "city_kana": "ツシ",
    "town": "安濃町内多",
    "town_kana": "アノウチョウウチダ",
    "street": "４００",
    "office_name": "株式会社　中勢ゴム",
    "office_name_kana": "カブシキガイシヤ チユウセイゴム"
  },
  "2398": {
    "zip_code": "5142398",
    "prefecture": "三重県",
    "prefecture_kana": "ミエケン",
    "prefecture_code": 24,
    "city": "津市",
    "city_kana": "ツシ",
    "town": "安濃町安濃",
    "town_kana": "アノウチョウアノウ",
    "street": "２５６０の８",
    "office_name": "三恵技研工業　株式会社　安濃工場",
    "office_name_kana": "サンケイギケンコウギヨウ カブシキカイシヤ アノウコウジヨウ"
  },
  "8501": {
    "zip_code": "5148501",
    "prefecture": "三重県",
    "prefecture_kana": "ミエケン",
    "prefecture_code": 24,
    "city": "津市",
    "city_kana": "ツシ",
    "town": "島崎町",
    "town_kana": "シマザキチョウ",
    "street": "２４−１",
    "office_name": "伊勢湾飼料畜産　株式会社",
    "office_name_kana": "イセワンシリヨウチクサン カブシキガイシヤ"
  },
  "8502": {
    "zip_code": "5148502",
    "prefecture": "三重県",
    "prefecture_kana": "ミエケン",
    "prefecture_code": 24,
    "city": "津市",
    "city_kana": "ツシ",
    "town": "広明町",
    "town_kana": "コウメイチョウ",
    "street": "２９７",
    "office_name": "三重工事事務所",
    "office_name_kana": "ミエコウジジムシヨ"
  },
  "8503": {
    "zip_code": "5148503",
    "prefecture": "三重県",
    "prefecture_kana": "ミエケン",
    "prefecture_code": 24,
    "city": "津市",
    "city_kana": "ツシ",
    "town": "丸之内",
    "town_kana": "マルノウチ",
    "street": "２６−８",
    "office_name": "津地方法務局",
    "office_name_kana": "ツチホウホウムキヨク"
  },
  "8505": {
    "zip_code": "5148505",
    "prefecture": "三重県",
    "prefecture_kana": "ミエケン",
    "prefecture_code": 24,
    "city": "津市",
    "city_kana": "ツシ",
    "town": "観音寺町",
    "town_kana": "カンオンジチョウ",
    "street": "焼尾１０４３−１",
    "office_name": "三重エフエム放送　株式会社",
    "office_name_kana": "ミエエフエムホウソウ カブシキガイシヤ"
  },
  "8507": {
    "zip_code": "5148507",
    "prefecture": "三重県",
    "prefecture_kana": "ミエケン",
    "prefecture_code": 24,
    "city": "津市",
    "city_kana": "ツシ",
    "town": "栗真町屋町",
    "town_kana": "クリママチヤチョウ",
    "street": "１５７７",
    "office_name": "国立大学法人　三重大学",
    "office_name_kana": "コクリツダイガクホウジン ミエダイガク"
  },
  "8508": {
    "zip_code": "5148508",
    "prefecture": "三重県",
    "prefecture_kana": "ミエケン",
    "prefecture_code": 24,
    "city": "津市",
    "city_kana": "ツシ",
    "town": "西丸之内",
    "town_kana": "ニシマルノウチ",
    "street": "２９−２９",
    "office_name": "医療法人　永井病院",
    "office_name_kana": "イリヨウホウジン ナガイビヨウイン"
  },
  "8510": {
    "zip_code": "5148510",
    "prefecture": "三重県",
    "prefecture_kana": "ミエケン",
    "prefecture_code": 24,
    "city": "津市",
    "city_kana": "ツシ",
    "town": "修成町",
    "town_kana": "シュウセイチョウ",
    "street": "１６−１",
    "office_name": "三重刑務所",
    "office_name_kana": "ミエケイムシヨ"
  },
  "8511": {
    "zip_code": "5148511",
    "prefecture": "三重県",
    "prefecture_kana": "ミエケン",
    "prefecture_code": 24,
    "city": "津市",
    "city_kana": "ツシ",
    "town": "観音寺町",
    "town_kana": "カンオンジチョウ",
    "street": "２５５",
    "office_name": "クレハエラストマー　株式会社",
    "office_name_kana": "クレハエラストマ- カブシキガイシヤ"
  },
  "8512": {
    "zip_code": "5148512",
    "prefecture": "三重県",
    "prefecture_kana": "ミエケン",
    "prefecture_code": 24,
    "city": "津市",
    "city_kana": "ツシ",
    "town": "中央",
    "town_kana": "チュウオウ",
    "street": "３−１２",
    "office_name": "津地方検察庁",
    "office_name_kana": "ツチホウケンサツチヨウ"
  },
  "8513": {
    "zip_code": "5148513",
    "prefecture": "三重県",
    "prefecture_kana": "ミエケン",
    "prefecture_code": 24,
    "city": "津市",
    "city_kana": "ツシ",
    "town": "岩田",
    "town_kana": "イワタ",
    "street": "７−２３",
    "office_name": "株式会社　久居屋",
    "office_name_kana": "カブシキガイシヤ ヒサイヤ"
  },
  "8514": {
    "zip_code": "5148514",
    "prefecture": "三重県",
    "prefecture_kana": "ミエケン",
    "prefecture_code": 24,
    "city": "津市",
    "city_kana": "ツシ",
    "town": "栄町",
    "town_kana": "サカエマチ",
    "street": "１丁目１００",
    "office_name": "三重県警察本部",
    "office_name_kana": "ミエケンケイサツホンブ"
  },
  "8515": {
    "zip_code": "5148515",
    "prefecture": "三重県",
    "prefecture_kana": "ミエケン",
    "prefecture_code": 24,
    "city": "津市",
    "city_kana": "ツシ",
    "town": "桜橋",
    "town_kana": "サクラバシ",
    "street": "３丁目５３−１１",
    "office_name": "三重県トラック協会",
    "office_name_kana": "ミエケントラツクキヨウカイ"
  },
  "8518": {
    "zip_code": "5148518",
    "prefecture": "三重県",
    "prefecture_kana": "ミエケン",
    "prefecture_code": 24,
    "city": "津市",
    "city_kana": "ツシ",
    "town": "垂水",
    "town_kana": "タルミ",
    "street": "２５６６",
    "office_name": "交通部　運転免許センター",
    "office_name_kana": "コウツウブ ウンテンメンキヨセンタ-"
  },
  "8520": {
    "zip_code": "5148520",
    "prefecture": "三重県",
    "prefecture_kana": "ミエケン",
    "prefecture_code": 24,
    "city": "津市",
    "city_kana": "ツシ",
    "town": "丸之内",
    "town_kana": "マルノウチ",
    "street": "２６−８",
    "office_name": "東海農政局　三重統計情報事務所",
    "office_name_kana": "トウカイノウセイキヨク ミエトウケイジヨウホウジムシヨ"
  },
  "8521": {
    "zip_code": "5148521",
    "prefecture": "三重県",
    "prefecture_kana": "ミエケン",
    "prefecture_code": 24,
    "city": "津市",
    "city_kana": "ツシ",
    "town": "島崎町",
    "town_kana": "シマザキチョウ",
    "street": "３２７−２津第２地方合同庁舎",
    "office_name": "津公共職業安定所",
    "office_name_kana": "ツコウキヨウシヨクギヨウアンテイシヨ"
  },
  "8522": {
    "zip_code": "5148522",
    "prefecture": "三重県",
    "prefecture_kana": "ミエケン",
    "prefecture_code": 24,
    "city": "津市",
    "city_kana": "ツシ",
    "town": "桜橋",
    "town_kana": "サクラバシ",
    "street": "３丁目４４６番地３３号",
    "office_name": "津年金事務所",
    "office_name_kana": "ツネンキンジムシヨ"
  },
  "8524": {
    "zip_code": "5148524",
    "prefecture": "三重県",
    "prefecture_kana": "ミエケン",
    "prefecture_code": 24,
    "city": "津市",
    "city_kana": "ツシ",
    "town": "島崎町",
    "town_kana": "シマザキチョウ",
    "street": "３２７番２号津第二地方合同庁舎",
    "office_name": "三重労働局",
    "office_name_kana": "ミエロウドウキヨク"
  },
  "8526": {
    "zip_code": "5148526",
    "prefecture": "三重県",
    "prefecture_kana": "ミエケン",
    "prefecture_code": 24,
    "city": "津市",
    "city_kana": "ツシ",
    "town": "中央",
    "town_kana": "チュウオウ",
    "street": "３−１",
    "office_name": "津地方家庭簡易裁判所",
    "office_name_kana": "ツチホウカテイカンイサイバンシヨ"
  },
  "8528": {
    "zip_code": "5148528",
    "prefecture": "三重県",
    "prefecture_kana": "ミエケン",
    "prefecture_code": 24,
    "city": "津市",
    "city_kana": "ツシ",
    "town": "桜橋",
    "town_kana": "サクラバシ",
    "street": "３丁目４４６−６８",
    "office_name": "三重県　社会保険診療報酬支払基金",
    "office_name_kana": "ミエケン シヤカイホケンシンリヨウホウシユウシハライキキン"
  },
  "8530": {
    "zip_code": "5148530",
    "prefecture": "三重県",
    "prefecture_kana": "ミエケン",
    "prefecture_code": 24,
    "city": "津市",
    "city_kana": "ツシ",
    "town": "高茶屋",
    "town_kana": "タカヂャヤ",
    "street": "７丁目１−１",
    "office_name": "井村屋製菓　株式会社",
    "office_name_kana": "イムラヤセイカ カブシキガイシヤ"
  },
  "8531": {
    "zip_code": "5148531",
    "prefecture": "三重県",
    "prefecture_kana": "ミエケン",
    "prefecture_code": 24,
    "city": "津市",
    "city_kana": "ツシ",
    "town": "丸之内養正町",
    "town_kana": "マルノウチヨウセイチョウ",
    "street": "４−８",
    "office_name": "日本放送協会　津放送局",
    "office_name_kana": "ニホンホウソウキヨウカイ ツホウソウキヨク"
  },
  "8532": {
    "zip_code": "5148532",
    "prefecture": "三重県",
    "prefecture_kana": "ミエケン",
    "prefecture_code": 24,
    "city": "津市",
    "city_kana": "ツシ",
    "town": "垂水",
    "town_kana": "タルミ",
    "street": "字入江１１９−１",
    "office_name": "日産サニー三重販売　（株）",
    "office_name_kana": "ニツサンサニ-ミエハンバイ (カブ)"
  },
  "8533": {
    "zip_code": "5148533",
    "prefecture": "三重県",
    "prefecture_kana": "ミエケン",
    "prefecture_code": 24,
    "city": "津市",
    "city_kana": "ツシ",
    "town": "片田町",
    "town_kana": "カタダチョウ",
    "street": "壱町田５９４",
    "office_name": "ナブテスコ　株式会社　津工場",
    "office_name_kana": "ナブテスコ カブシキカイシヤ ツコウジヨウ"
  },
  "8538": {
    "zip_code": "5148538",
    "prefecture": "三重県",
    "prefecture_kana": "ミエケン",
    "prefecture_code": 24,
    "city": "津市",
    "city_kana": "ツシ",
    "town": "桜橋",
    "town_kana": "サクラバシ",
    "street": "２丁目１９１−４",
    "office_name": "三重県　医師会",
    "office_name_kana": "ミエケン イシカイ"
  },
  "8540": {
    "zip_code": "5148540",
    "prefecture": "三重県",
    "prefecture_kana": "ミエケン",
    "prefecture_code": 24,
    "city": "津市",
    "city_kana": "ツシ",
    "town": "栄町",
    "town_kana": "サカエマチ",
    "street": "１丁目８９１三重県勤労者福祉会館内",
    "office_name": "三重県労働者住宅生活　協同組合",
    "office_name_kana": "ミエケンロウドウシヤジユウタクセイカツ キヨウドウクミアイ"
  },
  "8543": {
    "zip_code": "5148543",
    "prefecture": "三重県",
    "prefecture_kana": "ミエケン",
    "prefecture_code": 24,
    "city": "津市",
    "city_kana": "ツシ",
    "town": "柳山津興",
    "town_kana": "ヤナギヤマツオキ",
    "street": "３３０９",
    "office_name": "日本たばこ産業　（株）　津支店",
    "office_name_kana": "ニホンタバコサンギヨウ (カブ) ツシテン"
  },
  "8545": {
    "zip_code": "5148545",
    "prefecture": "三重県",
    "prefecture_kana": "ミエケン",
    "prefecture_code": 24,
    "city": "津市",
    "city_kana": "ツシ",
    "town": "桜橋",
    "town_kana": "サクラバシ",
    "street": "２丁目９９",
    "office_name": "津税務署",
    "office_name_kana": "ツゼイムシヨ"
  },
  "8546": {
    "zip_code": "5148546",
    "prefecture": "三重県",
    "prefecture_kana": "ミエケン",
    "prefecture_code": 24,
    "city": "津市",
    "city_kana": "ツシ",
    "town": "桜橋",
    "town_kana": "サクラバシ",
    "street": "３丁目５３−５",
    "office_name": "関西紙業　株式会社",
    "office_name_kana": "カンサイシギヨウ カブシキガイシヤ"
  },
  "8550": {
    "zip_code": "5148550",
    "prefecture": "三重県",
    "prefecture_kana": "ミエケン",
    "prefecture_code": 24,
    "city": "津市",
    "city_kana": "ツシ",
    "town": "桜橋",
    "town_kana": "サクラバシ",
    "street": "２丁目１７７−３",
    "office_name": "株式会社　三重電子計算センター",
    "office_name_kana": "カブシキガイシヤ ミエデンシケイサンセンタ-"
  },
  "8552": {
    "zip_code": "5148552",
    "prefecture": "三重県",
    "prefecture_kana": "ミエケン",
    "prefecture_code": 24,
    "city": "津市",
    "city_kana": "ツシ",
    "town": "桜橋",
    "town_kana": "サクラバシ",
    "street": "２丁目１３１",
    "office_name": "社会福祉法人　三重県社会福祉協議会",
    "office_name_kana": "シヤカイフクシホウジン ミエケンシヤカイフクシキヨウギカイ"
  },
  "8553": {
    "zip_code": "5148553",
    "prefecture": "三重県",
    "prefecture_kana": "ミエケン",
    "prefecture_code": 24,
    "city": "津市",
    "city_kana": "ツシ",
    "town": "桜橋",
    "town_kana": "サクラバシ",
    "street": "２丁目９６",
    "office_name": "三重県　国民健康保険団体連合会",
    "office_name_kana": "ミエケン コクミンケンコウホケンダンタイレンゴウカイ"
  },
  "8555": {
    "zip_code": "5148555",
    "prefecture": "三重県",
    "prefecture_kana": "ミエケン",
    "prefecture_code": 24,
    "city": "津市",
    "city_kana": "ツシ",
    "town": "藤方",
    "town_kana": "フジカタ",
    "street": "１６６８",
    "office_name": "松下電工　株式会社　津工場",
    "office_name_kana": "マツシタデンコウ カブシキガイシヤ ツコウジヨウ"
  },
  "8557": {
    "zip_code": "5148557",
    "prefecture": "三重県",
    "prefecture_kana": "ミエケン",
    "prefecture_code": 24,
    "city": "津市",
    "city_kana": "ツシ",
    "town": "あのつ台",
    "town_kana": "アノツダイ",
    "street": "４丁目７番地１",
    "office_name": "株式会社　ＺＴＶ",
    "office_name_kana": "カブシキガイシヤ ゼツトテイヴイ"
  },
  "8558": {
    "zip_code": "5148558",
    "prefecture": "三重県",
    "prefecture_kana": "ミエケン",
    "prefecture_code": 24,
    "city": "津市",
    "city_kana": "ツシ",
    "town": "丸之内",
    "town_kana": "マルノウチ",
    "street": "２−２１",
    "office_name": "中部電力　株式会社　三重支店",
    "office_name_kana": "チユウブデンリヨク カブシキガイシヤ ミエシテン"
  },
  "8560": {
    "zip_code": "5148560",
    "prefecture": "三重県",
    "prefecture_kana": "ミエケン",
    "prefecture_code": 24,
    "city": "津市",
    "city_kana": "ツシ",
    "town": "桜橋",
    "town_kana": "サクラバシ",
    "street": "２丁目１２９",
    "office_name": "東海財務局　津財務事務所",
    "office_name_kana": "トウカイザイムキヨク ツザイムジムシヨ"
  },
  "8566": {
    "zip_code": "5148566",
    "prefecture": "三重県",
    "prefecture_kana": "ミエケン",
    "prefecture_code": 24,
    "city": "津市",
    "city_kana": "ツシ",
    "town": "栄町",
    "town_kana": "サカエマチ",
    "street": "２丁目３０９",
    "office_name": "住友生命保険　相互会社",
    "office_name_kana": "スミトモセイメイホケン ソウゴガイシヤ"
  },
  "8567": {
    "zip_code": "5148567",
    "prefecture": "三重県",
    "prefecture_kana": "ミエケン",
    "prefecture_code": 24,
    "city": "津市",
    "city_kana": "ツシ",
    "town": "桜橋",
    "town_kana": "サクラバシ",
    "street": "３丁目４４６−３４",
    "office_name": "三重県津地方県民局",
    "office_name_kana": "ミエケン ツチホウケンミンキヨク"
  },
  "8568": {
    "zip_code": "5148568",
    "prefecture": "三重県",
    "prefecture_kana": "ミエケン",
    "prefecture_code": 24,
    "city": "津市",
    "city_kana": "ツシ",
    "town": "桜橋",
    "town_kana": "サクラバシ",
    "street": "３−４４６",
    "office_name": "イオンリテール　株式会社　イオン津店",
    "office_name_kana": "イオンリテ-ル カブシキガイシヤ イオンツテン"
  },
  "8570": {
    "zip_code": "5148570",
    "prefecture": "三重県",
    "prefecture_kana": "ミエケン",
    "prefecture_code": 24,
    "city": "津市",
    "city_kana": "ツシ",
    "town": "広明町",
    "town_kana": "コウメイチョウ",
    "street": "１３",
    "office_name": "三重県庁",
    "office_name_kana": "ミエケンチヨウ"
  },
  "8571": {
    "zip_code": "5148571",
    "prefecture": "三重県",
    "prefecture_kana": "ミエケン",
    "prefecture_code": 24,
    "city": "津市",
    "city_kana": "ツシ",
    "town": "羽所町",
    "town_kana": "ハドコロチョウ",
    "street": "３４５",
    "office_name": "日本信販　株式会社",
    "office_name_kana": "ニホンシンパン カブシキガイシヤ"
  },
  "8577": {
    "zip_code": "5148577",
    "prefecture": "三重県",
    "prefecture_kana": "ミエケン",
    "prefecture_code": 24,
    "city": "津市",
    "city_kana": "ツシ",
    "town": "桜橋",
    "town_kana": "サクラバシ",
    "street": "２丁目１４２",
    "office_name": "三重県退職教職員互助会",
    "office_name_kana": "ミエケンタイシヨクキヨウシヨクインゴジヨカイ"
  },
  "8578": {
    "zip_code": "5148578",
    "prefecture": "三重県",
    "prefecture_kana": "ミエケン",
    "prefecture_code": 24,
    "city": "津市",
    "city_kana": "ツシ",
    "town": "栄町",
    "town_kana": "サカエマチ",
    "street": "１丁目８１７番地",
    "office_name": "富士ゼロックス三重　株式会社",
    "office_name_kana": "フジゼロツクスミエ カブシキガイシヤ"
  },
  "8585": {
    "zip_code": "5148585",
    "prefecture": "三重県",
    "prefecture_kana": "ミエケン",
    "prefecture_code": 24,
    "city": "津市",
    "city_kana": "ツシ",
    "town": "桜橋",
    "town_kana": "サクラバシ",
    "street": "２丁目１７７−１",
    "office_name": "株式会社　トーエネック　三重支店",
    "office_name_kana": "カブシキガイシヤ ト-エネツク ミエシテン"
  },
  "8586": {
    "zip_code": "5148586",
    "prefecture": "三重県",
    "prefecture_kana": "ミエケン",
    "prefecture_code": 24,
    "city": "津市",
    "city_kana": "ツシ",
    "town": "大倉",
    "town_kana": "オオクラ",
    "street": "１９−１",
    "office_name": "日本土建　（株）",
    "office_name_kana": "ニホンドケン (カブ)"
  },
  "8588": {
    "zip_code": "5148588",
    "prefecture": "三重県",
    "prefecture_kana": "ミエケン",
    "prefecture_code": 24,
    "city": "津市",
    "city_kana": "ツシ",
    "town": "栄町",
    "town_kana": "サカエマチ",
    "street": "２丁目３６１",
    "office_name": "全日本自治団体労働組合　三重県本部",
    "office_name_kana": "ゼンニホンジチダンタイロウドウクミアイ ミエケンホンブ"
  },
  "8601": {
    "zip_code": "5148601",
    "prefecture": "三重県",
    "prefecture_kana": "ミエケン",
    "prefecture_code": 24,
    "city": "津市",
    "city_kana": "ツシ",
    "town": "丸之内",
    "town_kana": "マルノウチ",
    "street": "３２−１８（津中央郵便局私書箱第８７号）",
    "office_name": "大和証券　株式会社　津支店",
    "office_name_kana": "ダイワシヨウケン カブシキガイシヤ ツシテン"
  },
  "8611": {
    "zip_code": "5148611",
    "prefecture": "三重県",
    "prefecture_kana": "ミエケン",
    "prefecture_code": 24,
    "city": "津市",
    "city_kana": "ツシ",
    "town": "西丸之内",
    "town_kana": "ニシマルノウチ",
    "street": "２３−１（津中央郵便局私書箱第３０号）",
    "office_name": "津市役所",
    "office_name_kana": "ツシヤクシヨ"
  },
  "8633": {
    "zip_code": "5148633",
    "prefecture": "三重県",
    "prefecture_kana": "ミエケン",
    "prefecture_code": 24,
    "city": "津市",
    "city_kana": "ツシ",
    "town": "渋見町",
    "town_kana": "シブミチョウ",
    "street": "６９３−１（津中央郵便局私書箱第２８号）",
    "office_name": "三重テレビ放送",
    "office_name_kana": "ミエテレビホウソウ"
  },
  "8635": {
    "zip_code": "5148635",
    "prefecture": "三重県",
    "prefecture_kana": "ミエケン",
    "prefecture_code": 24,
    "city": "津市",
    "city_kana": "ツシ",
    "town": "中央",
    "town_kana": "チュウオウ",
    "street": "１−１（津中央郵便局私書箱第２２号）",
    "office_name": "三重交通　株式会社",
    "office_name_kana": "ミエコウツウ カブシキガイシヤ"
  },
  "8666": {
    "zip_code": "5148666",
    "prefecture": "三重県",
    "prefecture_kana": "ミエケン",
    "prefecture_code": 24,
    "city": "津市",
    "city_kana": "ツシ",
    "town": "岩田",
    "town_kana": "イワタ",
    "street": "２１番２７号（津中央郵便局私書箱第５号）",
    "office_name": "株式会社　百五銀行",
    "office_name_kana": "カブシキガイシヤ ヒヤクゴギンコウ"
  },
  "8667": {
    "zip_code": "5148667",
    "prefecture": "三重県",
    "prefecture_kana": "ミエケン",
    "prefecture_code": 24,
    "city": "津市",
    "city_kana": "ツシ",
    "town": "丸之内",
    "town_kana": "マルノウチ",
    "street": "３１番２１号（津中央郵便局私書箱第３６号）",
    "office_name": "株式会社　百五銀行",
    "office_name_kana": "カブシキガイシヤ ヒヤクゴギンコウ"
  },
  "8668": {
    "zip_code": "5148668",
    "prefecture": "三重県",
    "prefecture_kana": "ミエケン",
    "prefecture_code": 24,
    "city": "津市",
    "city_kana": "ツシ",
    "town": "岩田",
    "town_kana": "イワタ",
    "street": "２１番２７号（津中央郵便局私書箱第４４号）",
    "office_name": "百五証券　株式会社",
    "office_name_kana": "ヒヤクゴシヨウケン カブシキガイシヤ"
  },
  "8686": {
    "zip_code": "5148686",
    "prefecture": "三重県",
    "prefecture_kana": "ミエケン",
    "prefecture_code": 24,
    "city": "津市",
    "city_kana": "ツシ",
    "town": "中央",
    "town_kana": "チュウオウ",
    "street": "６−３０（津中央郵便局私書箱第２１号）",
    "office_name": "商工中金　津支店",
    "office_name_kana": "シヨウコウチユウキン ツシテン"
  }
}