{
  "0000": {
    "zip_code": "5150000",
    "prefecture": "三重県",
    "prefecture_kana": "ミエケン",
    "prefecture_code": "24",
    "city": "松阪市",
    "city_kana": "マツサカシ",
    "town": "",
    "town_kana": "",
    "street": null,
    "office_name": null,
    "office_name_kana": null
  },
  "0001": {
    "zip_code": "5150001",
    "prefecture": "三重県",
    "prefecture_kana": "ミエケン",
    "prefecture_code": "24",
    "city": "松阪市",
    "city_kana": "マツサカシ",
    "town": "大口町",
    "town_kana": "オオクチチョウ",
    "street": null,
    "office_name": null,
    "office_name_kana": null
  },
  "0002": {
    "zip_code": "5150002",
    "prefecture": "三重県",
    "prefecture_kana": "ミエケン",
    "prefecture_code": "24",
    "city": "松阪市",
    "city_kana": "マツサカシ",
    "town": "郷津町",
    "town_kana": "ゴウヅチョウ",
    "street": null,
    "office_name": null,
    "office_name_kana": null
  },
  "0003": {
    "zip_code": "5150003",
    "prefecture": "三重県",
    "prefecture_kana": "ミエケン",
    "prefecture_code": "24",
    "city": "松阪市",
    "city_kana": "マツサカシ",
    "town": "朝日町一区",
    "town_kana": "アサヒマチ1ク",
    "street": null,
    "office_name": null,
    "office_name_kana": null
  },
  "0004": {
    "zip_code": "5150004",
    "prefecture": "三重県",
    "prefecture_kana": "ミエケン",
    "prefecture_code": "24",
    "city": "松阪市",
    "city_kana": "マツサカシ",
    "town": "朝日町",
    "town_kana": "アサヒマチ",
    "street": null,
    "office_name": null,
    "office_name_kana": null
  },
  "0005": {
    "zip_code": "5150005",
    "prefecture": "三重県",
    "prefecture_kana": "ミエケン",
    "prefecture_code": "24",
    "city": "松阪市",
    "city_kana": "マツサカシ",
    "town": "鎌田町",
    "town_kana": "カマダチョウ",
    "street": null,
    "office_name": null,
    "office_name_kana": null
  },
  "0006": {
    "zip_code": "5150006",
    "prefecture": "三重県",
    "prefecture_kana": "ミエケン",
    "prefecture_code": "24",
    "city": "松阪市",
    "city_kana": "マツサカシ",
    "town": "石津町",
    "town_kana": "イシヅチョウ",
    "street": null,
    "office_name": null,
    "office_name_kana": null
  },
  "0007": {
    "zip_code": "5150007",
    "prefecture": "三重県",
    "prefecture_kana": "ミエケン",
    "prefecture_code": "24",
    "city": "松阪市",
    "city_kana": "マツサカシ",
    "town": "荒木町",
    "town_kana": "アラキチョウ",
    "street": null,
    "office_name": null,
    "office_name_kana": null
  },
  "0011": {
    "zip_code": "5150011",
    "prefecture": "三重県",
    "prefecture_kana": "ミエケン",
    "prefecture_code": "24",
    "city": "松阪市",
    "city_kana": "マツサカシ",
    "town": "高町",
    "town_kana": "タカマチ",
    "street": null,
    "office_name": null,
    "office_name_kana": null
  },
  "0012": {
    "zip_code": "5150012",
    "prefecture": "三重県",
    "prefecture_kana": "ミエケン",
    "prefecture_code": "24",
    "city": "松阪市",
    "city_kana": "マツサカシ",
    "town": "東町",
    "town_kana": "ヒガシマチ",
    "street": null,
    "office_name": null,
    "office_name_kana": null
  },
  "0013": {
    "zip_code": "5150013",
    "prefecture": "三重県",
    "prefecture_kana": "ミエケン",
    "prefecture_code": "24",
    "city": "松阪市",
    "city_kana": "マツサカシ",
    "town": "幸生町",
    "town_kana": "コウセイチョウ",
    "street": null,
    "office_name": null,
    "office_name_kana": null
  },
  "0014": {
    "zip_code": "5150014",
    "prefecture": "三重県",
    "prefecture_kana": "ミエケン",
    "prefecture_code": "24",
    "city": "松阪市",
    "city_kana": "マツサカシ",
    "town": "若葉町",
    "town_kana": "ワカバチョウ",
    "street": null,
    "office_name": null,
    "office_name_kana": null
  },
  "0015": {
    "zip_code": "5150015",
    "prefecture": "三重県",
    "prefecture_kana": "ミエケン",
    "prefecture_code": "24",
    "city": "松阪市",
    "city_kana": "マツサカシ",
    "town": "宮町",
    "town_kana": "ミヤマチ",
    "street": null,
    "office_name": null,
    "office_name_kana": null
  },
  "0016": {
    "zip_code": "5150016",
    "prefecture": "三重県",
    "prefecture_kana": "ミエケン",
    "prefecture_code": "24",
    "city": "松阪市",
    "city_kana": "マツサカシ",
    "town": "末広町",
    "town_kana": "スエヒロチョウ",
    "street": null,
    "office_name": null,
    "office_name_kana": null
  },
  "0017": {
    "zip_code": "5150017",
    "prefecture": "三重県",
    "prefecture_kana": "ミエケン",
    "prefecture_code": "24",
    "city": "松阪市",
    "city_kana": "マツサカシ",
    "town": "京町",
    "town_kana": "キョウマチ",
    "street": null,
    "office_name": null,
    "office_name_kana": null
  },
  "0018": {
    "zip_code": "5150018",
    "prefecture": "三重県",
    "prefecture_kana": "ミエケン",
    "prefecture_code": "24",
    "city": "松阪市",
    "city_kana": "マツサカシ",
    "town": "京町一区",
    "town_kana": "キョウマチ1ク",
    "street": null,
    "office_name": null,
    "office_name_kana": null
  },
  "0019": {
    "zip_code": "5150019",
    "prefecture": "三重県",
    "prefecture_kana": "ミエケン",
    "prefecture_code": "24",
    "city": "松阪市",
    "city_kana": "マツサカシ",
    "town": "中央町",
    "town_kana": "チュウオウチョウ",
    "street": null,
    "office_name": null,
    "office_name_kana": null
  },
  "0021": {
    "zip_code": "5150021",
    "prefecture": "三重県",
    "prefecture_kana": "ミエケン",
    "prefecture_code": "24",
    "city": "松阪市",
    "city_kana": "マツサカシ",
    "town": "古井町",
    "town_kana": "コイチョウ",
    "street": null,
    "office_name": null,
    "office_name_kana": null
  },
  "0022": {
    "zip_code": "5150022",
    "prefecture": "三重県",
    "prefecture_kana": "ミエケン",
    "prefecture_code": "24",
    "city": "松阪市",
    "city_kana": "マツサカシ",
    "town": "新屋敷町",
    "town_kana": "シンヤシキチョウ",
    "street": null,
    "office_name": null,
    "office_name_kana": null
  },
  "0023": {
    "zip_code": "5150023",
    "prefecture": "三重県",
    "prefecture_kana": "ミエケン",
    "prefecture_code": "24",
    "city": "松阪市",
    "city_kana": "マツサカシ",
    "town": "下七見町",
    "town_kana": "シモナナミチョウ",
    "street": null,
    "office_name": null,
    "office_name_kana": null
  },
  "0024": {
    "zip_code": "5150024",
    "prefecture": "三重県",
    "prefecture_kana": "ミエケン",
    "prefecture_code": "24",
    "city": "松阪市",
    "city_kana": "マツサカシ",
    "town": "大宮田町",
    "town_kana": "オオミヤダチョウ",
    "street": null,
    "office_name": null,
    "office_name_kana": null
  },
  "0025": {
    "zip_code": "5150025",
    "prefecture": "三重県",
    "prefecture_kana": "ミエケン",
    "prefecture_code": "24",
    "city": "松阪市",
    "city_kana": "マツサカシ",
    "town": "和屋町",
    "town_kana": "ワヤチョウ",
    "street": null,
    "office_name": null,
    "office_name_kana": null
  },
  "0026": {
    "zip_code": "5150026",
    "prefecture": "三重県",
    "prefecture_kana": "ミエケン",
    "prefecture_code": "24",
    "city": "松阪市",
    "city_kana": "マツサカシ",
    "town": "立田町",
    "town_kana": "タツタチョウ",
    "street": null,
    "office_name": null,
    "office_name_kana": null
  },
  "0027": {
    "zip_code": "5150027",
    "prefecture": "三重県",
    "prefecture_kana": "ミエケン",
    "prefecture_code": "24",
    "city": "松阪市",
    "city_kana": "マツサカシ",
    "town": "朝田町",
    "town_kana": "アサダチョウ",
    "street": null,
    "office_name": null,
    "office_name_kana": null
  },
  "0028": {
    "zip_code": "5150028",
    "prefecture": "三重県",
    "prefecture_kana": "ミエケン",
    "prefecture_code": "24",
    "city": "松阪市",
    "city_kana": "マツサカシ",
    "town": "佐久米町",
    "town_kana": "サクメチョウ",
    "street": null,
    "office_name": null,
    "office_name_kana": null
  },
  "0029": {
    "zip_code": "5150029",
    "prefecture": "三重県",
    "prefecture_kana": "ミエケン",
    "prefecture_code": "24",
    "city": "松阪市",
    "city_kana": "マツサカシ",
    "town": "西野々町",
    "town_kana": "ニシノノチョウ",
    "street": null,
    "office_name": null,
    "office_name_kana": null
  },
  "0031": {
    "zip_code": "5150031",
    "prefecture": "三重県",
    "prefecture_kana": "ミエケン",
    "prefecture_code": "24",
    "city": "松阪市",
    "city_kana": "マツサカシ",
    "town": "大津町",
    "town_kana": "オオツチョウ",
    "street": null,
    "office_name": null,
    "office_name_kana": null
  },
  "0032": {
    "zip_code": "5150032",
    "prefecture": "三重県",
    "prefecture_kana": "ミエケン",
    "prefecture_code": "24",
    "city": "松阪市",
    "city_kana": "マツサカシ",
    "town": "田原町",
    "town_kana": "タワラチョウ",
    "street": null,
    "office_name": null,
    "office_name_kana": null
  },
  "0033": {
    "zip_code": "5150033",
    "prefecture": "三重県",
    "prefecture_kana": "ミエケン",
    "prefecture_code": "24",
    "city": "松阪市",
    "city_kana": "マツサカシ",
    "town": "垣鼻町",
    "town_kana": "カイバナチョウ",
    "street": null,
    "office_name": null,
    "office_name_kana": null
  },
  "0034": {
    "zip_code": "5150034",
    "prefecture": "三重県",
    "prefecture_kana": "ミエケン",
    "prefecture_code": "24",
    "city": "松阪市",
    "city_kana": "マツサカシ",
    "town": "南町",
    "town_kana": "ミナミマチ",
    "street": null,
    "office_name": null,
    "office_name_kana": null
  },
  "0035": {
    "zip_code": "5150035",
    "prefecture": "三重県",
    "prefecture_kana": "ミエケン",
    "prefecture_code": "24",
    "city": "松阪市",
    "city_kana": "マツサカシ",
    "town": "長月町",
    "town_kana": "チョウゲツチョウ",
    "street": null,
    "office_name": null,
    "office_name_kana": null
  },
  "0036": {
    "zip_code": "5150036",
    "prefecture": "三重県",
    "prefecture_kana": "ミエケン",
    "prefecture_code": "24",
    "city": "松阪市",
    "city_kana": "マツサカシ",
    "town": "平生町",
    "town_kana": "ヒラオマチ",
    "street": null,
    "office_name": null,
    "office_name_kana": null
  },
  "0037": {
    "zip_code": "5150037",
    "prefecture": "三重県",
    "prefecture_kana": "ミエケン",
    "prefecture_code": "24",
    "city": "松阪市",
    "city_kana": "マツサカシ",
    "town": "愛宕町",
    "town_kana": "アタゴマチ",
    "street": null,
    "office_name": null,
    "office_name_kana": null
  },
  "0038": {
    "zip_code": "5150038",
    "prefecture": "三重県",
    "prefecture_kana": "ミエケン",
    "prefecture_code": "24",
    "city": "松阪市",
    "city_kana": "マツサカシ",
    "town": "挽木町",
    "town_kana": "ヒキギマチ",
    "street": null,
    "office_name": null,
    "office_name_kana": null
  },
  "0039": {
    "zip_code": "5150039",
    "prefecture": "三重県",
    "prefecture_kana": "ミエケン",
    "prefecture_code": "24",
    "city": "松阪市",
    "city_kana": "マツサカシ",
    "town": "清生町",
    "town_kana": "セイセイチョウ",
    "street": null,
    "office_name": null,
    "office_name_kana": null
  },
  "0041": {
    "zip_code": "5150041",
    "prefecture": "三重県",
    "prefecture_kana": "ミエケン",
    "prefecture_code": "24",
    "city": "松阪市",
    "city_kana": "マツサカシ",
    "town": "上川町",
    "town_kana": "ウエガワチョウ",
    "street": null,
    "office_name": null,
    "office_name_kana": null
  },
  "0042": {
    "zip_code": "5150042",
    "prefecture": "三重県",
    "prefecture_kana": "ミエケン",
    "prefecture_code": "24",
    "city": "松阪市",
    "city_kana": "マツサカシ",
    "town": "虹が丘町",
    "town_kana": "ニジガオカチョウ",
    "street": null,
    "office_name": null,
    "office_name_kana": null
  },
  "0043": {
    "zip_code": "5150043",
    "prefecture": "三重県",
    "prefecture_kana": "ミエケン",
    "prefecture_code": "24",
    "city": "松阪市",
    "city_kana": "マツサカシ",
    "town": "下村町",
    "town_kana": "シモムラチョウ",
    "street": null,
    "office_name": null,
    "office_name_kana": null
  },
  "0044": {
    "zip_code": "5150044",
    "prefecture": "三重県",
    "prefecture_kana": "ミエケン",
    "prefecture_code": "24",
    "city": "松阪市",
    "city_kana": "マツサカシ",
    "town": "久保町",
    "town_kana": "クボチョウ",
    "street": null,
    "office_name": null,
    "office_name_kana": null
  },
  "0045": {
    "zip_code": "5150045",
    "prefecture": "三重県",
    "prefecture_kana": "ミエケン",
    "prefecture_code": "24",
    "city": "松阪市",
    "city_kana": "マツサカシ",
    "town": "駅部田町",
    "town_kana": "マエノヘタチョウ",
    "street": null,
    "office_name": null,
    "office_name_kana": null
  },
  "0046": {
    "zip_code": "5150046",
    "prefecture": "三重県",
    "prefecture_kana": "ミエケン",
    "prefecture_code": "24",
    "city": "松阪市",
    "city_kana": "マツサカシ",
    "town": "南虹が丘町",
    "town_kana": "ミナミニジガオカチョウ",
    "street": null,
    "office_name": null,
    "office_name_kana": null
  },
  "0051": {
    "zip_code": "5150051",
    "prefecture": "三重県",
    "prefecture_kana": "ミエケン",
    "prefecture_code": "24",
    "city": "松阪市",
    "city_kana": "マツサカシ",
    "town": "光町",
    "town_kana": "ヒカリチョウ",
    "street": null,
    "office_name": null,
    "office_name_kana": null
  },
  "0052": {
    "zip_code": "5150052",
    "prefecture": "三重県",
    "prefecture_kana": "ミエケン",
    "prefecture_code": "24",
    "city": "松阪市",
    "city_kana": "マツサカシ",
    "town": "山室町",
    "town_kana": "ヤマムロチョウ",
    "street": null,
    "office_name": null,
    "office_name_kana": null
  },
  "0053": {
    "zip_code": "5150053",
    "prefecture": "三重県",
    "prefecture_kana": "ミエケン",
    "prefecture_code": "24",
    "city": "松阪市",
    "city_kana": "マツサカシ",
    "town": "広陽町",
    "town_kana": "コウヨウチョウ",
    "street": null,
    "office_name": null,
    "office_name_kana": null
  },
  "0054": {
    "zip_code": "5150054",
    "prefecture": "三重県",
    "prefecture_kana": "ミエケン",
    "prefecture_code": "24",
    "city": "松阪市",
    "city_kana": "マツサカシ",
    "town": "立野町",
    "town_kana": "タチノチョウ",
    "street": null,
    "office_name": null,
    "office_name_kana": null
  },
  "0055": {
    "zip_code": "5150055",
    "prefecture": "三重県",
    "prefecture_kana": "ミエケン",
    "prefecture_code": "24",
    "city": "松阪市",
    "city_kana": "マツサカシ",
    "town": "田村町",
    "town_kana": "タムラチョウ",
    "street": null,
    "office_name": null,
    "office_name_kana": null
  },
  "0056": {
    "zip_code": "5150056",
    "prefecture": "三重県",
    "prefecture_kana": "ミエケン",
    "prefecture_code": "24",
    "city": "松阪市",
    "city_kana": "マツサカシ",
    "town": "宝塚町",
    "town_kana": "タカラヅカチョウ",
    "street": null,
    "office_name": null,
    "office_name_kana": null
  },
  "0057": {
    "zip_code": "5150057",
    "prefecture": "三重県",
    "prefecture_kana": "ミエケン",
    "prefecture_code": "24",
    "city": "松阪市",
    "city_kana": "マツサカシ",
    "town": "御殿山町",
    "town_kana": "ゴテンヤマチョウ",
    "street": null,
    "office_name": null,
    "office_name_kana": null
  },
  "0061": {
    "zip_code": "5150061",
    "prefecture": "三重県",
    "prefecture_kana": "ミエケン",
    "prefecture_code": "24",
    "city": "松阪市",
    "city_kana": "マツサカシ",
    "town": "黒田町",
    "town_kana": "クロダマチ",
    "street": null,
    "office_name": null,
    "office_name_kana": null
  },
  "0062": {
    "zip_code": "5150062",
    "prefecture": "三重県",
    "prefecture_kana": "ミエケン",
    "prefecture_code": "24",
    "city": "松阪市",
    "city_kana": "マツサカシ",
    "town": "小黒田町",
    "town_kana": "コクロダチョウ",
    "street": null,
    "office_name": null,
    "office_name_kana": null
  },
  "0063": {
    "zip_code": "5150063",
    "prefecture": "三重県",
    "prefecture_kana": "ミエケン",
    "prefecture_code": "24",
    "city": "松阪市",
    "city_kana": "マツサカシ",
    "town": "大黒田町",
    "town_kana": "オオクロダチョウ",
    "street": null,
    "office_name": null,
    "office_name_kana": null
  },
  "0064": {
    "zip_code": "5150064",
    "prefecture": "三重県",
    "prefecture_kana": "ミエケン",
    "prefecture_code": "24",
    "city": "松阪市",
    "city_kana": "マツサカシ",
    "town": "五反田町",
    "town_kana": "ゴタンダチョウ",
    "street": null,
    "office_name": null,
    "office_name_kana": null
  },
  "0065": {
    "zip_code": "5150065",
    "prefecture": "三重県",
    "prefecture_kana": "ミエケン",
    "prefecture_code": "24",
    "city": "松阪市",
    "city_kana": "マツサカシ",
    "town": "五月町",
    "town_kana": "サツキチョウ",
    "street": null,
    "office_name": null,
    "office_name_kana": null
  },
  "0066": {
    "zip_code": "5150066",
    "prefecture": "三重県",
    "prefecture_kana": "ミエケン",
    "prefecture_code": "24",
    "city": "松阪市",
    "city_kana": "マツサカシ",
    "town": "泉町",
    "town_kana": "イズミチョウ",
    "street": null,
    "office_name": null,
    "office_name_kana": null
  },
  "0071": {
    "zip_code": "5150071",
    "prefecture": "三重県",
    "prefecture_kana": "ミエケン",
    "prefecture_code": "24",
    "city": "松阪市",
    "city_kana": "マツサカシ",
    "town": "桜町",
    "town_kana": "サクラチョウ",
    "street": null,
    "office_name": null,
    "office_name_kana": null
  },
  "0072": {
    "zip_code": "5150072",
    "prefecture": "三重県",
    "prefecture_kana": "ミエケン",
    "prefecture_code": "24",
    "city": "松阪市",
    "city_kana": "マツサカシ",
    "town": "内五曲町",
    "town_kana": "ウチゴマガリチョウ",
    "street": null,
    "office_name": null,
    "office_name_kana": null
  },
  "0073": {
    "zip_code": "5150073",
    "prefecture": "三重県",
    "prefecture_kana": "ミエケン",
    "prefecture_code": "24",
    "city": "松阪市",
    "city_kana": "マツサカシ",
    "town": "殿町",
    "town_kana": "トノマチ",
    "street": null,
    "office_name": null,
    "office_name_kana": null
  },
  "0074": {
    "zip_code": "5150074",
    "prefecture": "三重県",
    "prefecture_kana": "ミエケン",
    "prefecture_code": "24",
    "city": "松阪市",
    "city_kana": "マツサカシ",
    "town": "新座町",
    "town_kana": "シンザマチ",
    "street": null,
    "office_name": null,
    "office_name_kana": null
  },
  "0075": {
    "zip_code": "5150075",
    "prefecture": "三重県",
    "prefecture_kana": "ミエケン",
    "prefecture_code": "24",
    "city": "松阪市",
    "city_kana": "マツサカシ",
    "town": "新町",
    "town_kana": "シンマチ",
    "street": null,
    "office_name": null,
    "office_name_kana": null
  },
  "0076": {
    "zip_code": "5150076",
    "prefecture": "三重県",
    "prefecture_kana": "ミエケン",
    "prefecture_code": "24",
    "city": "松阪市",
    "city_kana": "マツサカシ",
    "town": "白粉町",
    "town_kana": "オシロイマチ",
    "street": null,
    "office_name": null,
    "office_name_kana": null
  },
  "0077": {
    "zip_code": "5150077",
    "prefecture": "三重県",
    "prefecture_kana": "ミエケン",
    "prefecture_code": "24",
    "city": "松阪市",
    "city_kana": "マツサカシ",
    "town": "茶与町",
    "town_kana": "チャヨマチ",
    "street": null,
    "office_name": null,
    "office_name_kana": null
  },
  "0078": {
    "zip_code": "5150078",
    "prefecture": "三重県",
    "prefecture_kana": "ミエケン",
    "prefecture_code": "24",
    "city": "松阪市",
    "city_kana": "マツサカシ",
    "town": "春日町",
    "town_kana": "カスガチョウ",
    "street": null,
    "office_name": null,
    "office_name_kana": null
  },
  "0081": {
    "zip_code": "5150081",
    "prefecture": "三重県",
    "prefecture_kana": "ミエケン",
    "prefecture_code": "24",
    "city": "松阪市",
    "city_kana": "マツサカシ",
    "town": "本町",
    "town_kana": "ホンマチ",
    "street": null,
    "office_name": null,
    "office_name_kana": null
  },
  "0082": {
    "zip_code": "5150082",
    "prefecture": "三重県",
    "prefecture_kana": "ミエケン",
    "prefecture_code": "24",
    "city": "松阪市",
    "city_kana": "マツサカシ",
    "town": "魚町",
    "town_kana": "ウオマチ",
    "street": null,
    "office_name": null,
    "office_name_kana": null
  },
  "0083": {
    "zip_code": "5150083",
    "prefecture": "三重県",
    "prefecture_kana": "ミエケン",
    "prefecture_code": "24",
    "city": "松阪市",
    "city_kana": "マツサカシ",
    "town": "中町",
    "town_kana": "ナカマチ",
    "street": null,
    "office_name": null,
    "office_name_kana": null
  },
  "0084": {
    "zip_code": "5150084",
    "prefecture": "三重県",
    "prefecture_kana": "ミエケン",
    "prefecture_code": "24",
    "city": "松阪市",
    "city_kana": "マツサカシ",
    "town": "日野町",
    "town_kana": "ヒノマチ",
    "street": null,
    "office_name": null,
    "office_name_kana": null
  },
  "0085": {
    "zip_code": "5150085",
    "prefecture": "三重県",
    "prefecture_kana": "ミエケン",
    "prefecture_code": "24",
    "city": "松阪市",
    "city_kana": "マツサカシ",
    "town": "湊町",
    "town_kana": "ミナトマチ",
    "street": null,
    "office_name": null,
    "office_name_kana": null
  },
  "0086": {
    "zip_code": "5150086",
    "prefecture": "三重県",
    "prefecture_kana": "ミエケン",
    "prefecture_code": "24",
    "city": "松阪市",
    "city_kana": "マツサカシ",
    "town": "五十鈴町",
    "town_kana": "イスズチョウ",
    "street": null,
    "office_name": null,
    "office_name_kana": null
  },
  "0087": {
    "zip_code": "5150087",
    "prefecture": "三重県",
    "prefecture_kana": "ミエケン",
    "prefecture_code": "24",
    "city": "松阪市",
    "city_kana": "マツサカシ",
    "town": "萌木町",
    "town_kana": "モエギチョウ",
    "street": null,
    "office_name": null,
    "office_name_kana": null
  },
  "0088": {
    "zip_code": "5150088",
    "prefecture": "三重県",
    "prefecture_kana": "ミエケン",
    "prefecture_code": "24",
    "city": "松阪市",
    "city_kana": "マツサカシ",
    "town": "木の郷町",
    "town_kana": "キノサトチョウ",
    "street": null,
    "office_name": null,
    "office_name_kana": null
  },
  "0101": {
    "zip_code": "5150101",
    "prefecture": "三重県",
    "prefecture_kana": "ミエケン",
    "prefecture_code": "24",
    "city": "松阪市",
    "city_kana": "マツサカシ",
    "town": "東黒部町",
    "town_kana": "ヒガシクロベチョウ",
    "street": null,
    "office_name": null,
    "office_name_kana": null
  },
  "0102": {
    "zip_code": "5150102",
    "prefecture": "三重県",
    "prefecture_kana": "ミエケン",
    "prefecture_code": "24",
    "city": "松阪市",
    "city_kana": "マツサカシ",
    "town": "松名瀬町",
    "town_kana": "マツナセチョウ",
    "street": null,
    "office_name": null,
    "office_name_kana": null
  },
  "0103": {
    "zip_code": "5150103",
    "prefecture": "三重県",
    "prefecture_kana": "ミエケン",
    "prefecture_code": "24",
    "city": "松阪市",
    "city_kana": "マツサカシ",
    "town": "西黒部町",
    "town_kana": "ニシクロベチョウ",
    "street": null,
    "office_name": null,
    "office_name_kana": null
  },
  "0104": {
    "zip_code": "5150104",
    "prefecture": "三重県",
    "prefecture_kana": "ミエケン",
    "prefecture_code": "24",
    "city": "松阪市",
    "city_kana": "マツサカシ",
    "town": "高須町",
    "town_kana": "タカスチョウ",
    "street": null,
    "office_name": null,
    "office_name_kana": null
  },
  "0111": {
    "zip_code": "5150111",
    "prefecture": "三重県",
    "prefecture_kana": "ミエケン",
    "prefecture_code": "24",
    "city": "松阪市",
    "city_kana": "マツサカシ",
    "town": "柿木原町",
    "town_kana": "カキノキハラチョウ",
    "street": null,
    "office_name": null,
    "office_name_kana": null
  },
  "0112": {
    "zip_code": "5150112",
    "prefecture": "三重県",
    "prefecture_kana": "ミエケン",
    "prefecture_code": "24",
    "city": "松阪市",
    "city_kana": "マツサカシ",
    "town": "土古路町",
    "town_kana": "トコロチョウ",
    "street": null,
    "office_name": null,
    "office_name_kana": null
  },
  "0113": {
    "zip_code": "5150113",
    "prefecture": "三重県",
    "prefecture_kana": "ミエケン",
    "prefecture_code": "24",
    "city": "松阪市",
    "city_kana": "マツサカシ",
    "town": "出間町",
    "town_kana": "イズマチョウ",
    "street": null,
    "office_name": null,
    "office_name_kana": null
  },
  "0114": {
    "zip_code": "5150114",
    "prefecture": "三重県",
    "prefecture_kana": "ミエケン",
    "prefecture_code": "24",
    "city": "松阪市",
    "city_kana": "マツサカシ",
    "town": "大垣内町",
    "town_kana": "オオガイトチョウ",
    "street": null,
    "office_name": null,
    "office_name_kana": null
  },
  "0115": {
    "zip_code": "5150115",
    "prefecture": "三重県",
    "prefecture_kana": "ミエケン",
    "prefecture_code": "24",
    "city": "松阪市",
    "city_kana": "マツサカシ",
    "town": "蓮花寺町",
    "town_kana": "レンゲジチョウ",
    "street": null,
    "office_name": null,
    "office_name_kana": null
  },
  "0116": {
    "zip_code": "5150116",
    "prefecture": "三重県",
    "prefecture_kana": "ミエケン",
    "prefecture_code": "24",
    "city": "松阪市",
    "city_kana": "マツサカシ",
    "town": "牛草町",
    "town_kana": "ウシクサチョウ",
    "street": null,
    "office_name": null,
    "office_name_kana": null
  },
  "0117": {
    "zip_code": "5150117",
    "prefecture": "三重県",
    "prefecture_kana": "ミエケン",
    "prefecture_code": "24",
    "city": "松阪市",
    "city_kana": "マツサカシ",
    "town": "乙部町",
    "town_kana": "オトベチョウ",
    "street": null,
    "office_name": null,
    "office_name_kana": null
  },
  "0118": {
    "zip_code": "5150118",
    "prefecture": "三重県",
    "prefecture_kana": "ミエケン",
    "prefecture_code": "24",
    "city": "松阪市",
    "city_kana": "マツサカシ",
    "town": "垣内田町",
    "town_kana": "カイトダチョウ",
    "street": null,
    "office_name": null,
    "office_name_kana": null
  },
  "0119": {
    "zip_code": "5150119",
    "prefecture": "三重県",
    "prefecture_kana": "ミエケン",
    "prefecture_code": "24",
    "city": "松阪市",
    "city_kana": "マツサカシ",
    "town": "神守町",
    "town_kana": "カンモリチョウ",
    "street": null,
    "office_name": null,
    "office_name_kana": null
  },
  "0121": {
    "zip_code": "5150121",
    "prefecture": "三重県",
    "prefecture_kana": "ミエケン",
    "prefecture_code": "24",
    "city": "松阪市",
    "city_kana": "マツサカシ",
    "town": "東久保町",
    "town_kana": "ヒガシクボチョウ",
    "street": null,
    "office_name": null,
    "office_name_kana": null
  },
  "0122": {
    "zip_code": "5150122",
    "prefecture": "三重県",
    "prefecture_kana": "ミエケン",
    "prefecture_code": "24",
    "city": "松阪市",
    "city_kana": "マツサカシ",
    "town": "川島町",
    "town_kana": "カワシマチョウ",
    "street": null,
    "office_name": null,
    "office_name_kana": null
  },
  "0123": {
    "zip_code": "5150123",
    "prefecture": "三重県",
    "prefecture_kana": "ミエケン",
    "prefecture_code": "24",
    "city": "松阪市",
    "city_kana": "マツサカシ",
    "town": "新開町",
    "town_kana": "シンガイチョウ",
    "street": null,
    "office_name": null,
    "office_name_kana": null
  },
  "0124": {
    "zip_code": "5150124",
    "prefecture": "三重県",
    "prefecture_kana": "ミエケン",
    "prefecture_code": "24",
    "city": "松阪市",
    "city_kana": "マツサカシ",
    "town": "保津町",
    "town_kana": "ホウヅチョウ",
    "street": null,
    "office_name": null,
    "office_name_kana": null
  },
  "0125": {
    "zip_code": "5150125",
    "prefecture": "三重県",
    "prefecture_kana": "ミエケン",
    "prefecture_code": "24",
    "city": "松阪市",
    "city_kana": "マツサカシ",
    "town": "腹太町",
    "town_kana": "ハラフトチョウ",
    "street": null,
    "office_name": null,
    "office_name_kana": null
  },
  "0126": {
    "zip_code": "5150126",
    "prefecture": "三重県",
    "prefecture_kana": "ミエケン",
    "prefecture_code": "24",
    "city": "松阪市",
    "city_kana": "マツサカシ",
    "town": "井口中町",
    "town_kana": "イグチナカチョウ",
    "street": null,
    "office_name": null,
    "office_name_kana": null
  },
  "0127": {
    "zip_code": "5150127",
    "prefecture": "三重県",
    "prefecture_kana": "ミエケン",
    "prefecture_code": "24",
    "city": "松阪市",
    "city_kana": "マツサカシ",
    "town": "六根町",
    "town_kana": "ロッコンチョウ",
    "street": null,
    "office_name": null,
    "office_name_kana": null
  },
  "0128": {
    "zip_code": "5150128",
    "prefecture": "三重県",
    "prefecture_kana": "ミエケン",
    "prefecture_code": "24",
    "city": "松阪市",
    "city_kana": "マツサカシ",
    "town": "魚見町",
    "town_kana": "ウオミチョウ",
    "street": null,
    "office_name": null,
    "office_name_kana": null
  },
  "0201": {
    "zip_code": "5150201",
    "prefecture": "三重県",
    "prefecture_kana": "ミエケン",
    "prefecture_code": "24",
    "city": "松阪市",
    "city_kana": "マツサカシ",
    "town": "上七見町",
    "town_kana": "カミナナミチョウ",
    "street": null,
    "office_name": null,
    "office_name_kana": null
  },
  "0202": {
    "zip_code": "5150202",
    "prefecture": "三重県",
    "prefecture_kana": "ミエケン",
    "prefecture_code": "24",
    "city": "松阪市",
    "city_kana": "マツサカシ",
    "town": "菅生町",
    "town_kana": "スギュウチョウ",
    "street": null,
    "office_name": null,
    "office_name_kana": null
  },
  "0203": {
    "zip_code": "5150203",
    "prefecture": "三重県",
    "prefecture_kana": "ミエケン",
    "prefecture_code": "24",
    "city": "松阪市",
    "city_kana": "マツサカシ",
    "town": "清水町",
    "town_kana": "シミズチョウ",
    "street": null,
    "office_name": null,
    "office_name_kana": null
  },
  "0204": {
    "zip_code": "5150204",
    "prefecture": "三重県",
    "prefecture_kana": "ミエケン",
    "prefecture_code": "24",
    "city": "松阪市",
    "city_kana": "マツサカシ",
    "town": "櫛田町",
    "town_kana": "クシダチョウ",
    "street": null,
    "office_name": null,
    "office_name_kana": null
  },
  "0205": {
    "zip_code": "5150205",
    "prefecture": "三重県",
    "prefecture_kana": "ミエケン",
    "prefecture_code": "24",
    "city": "松阪市",
    "city_kana": "マツサカシ",
    "town": "豊原町",
    "town_kana": "トヨハラチョウ",
    "street": null,
    "office_name": null,
    "office_name_kana": null
  },
  "0206": {
    "zip_code": "5150206",
    "prefecture": "三重県",
    "prefecture_kana": "ミエケン",
    "prefecture_code": "24",
    "city": "松阪市",
    "city_kana": "マツサカシ",
    "town": "山下町",
    "town_kana": "ヤマシタチョウ",
    "street": null,
    "office_name": null,
    "office_name_kana": null
  },
  "0207": {
    "zip_code": "5150207",
    "prefecture": "三重県",
    "prefecture_kana": "ミエケン",
    "prefecture_code": "24",
    "city": "松阪市",
    "city_kana": "マツサカシ",
    "town": "安楽町",
    "town_kana": "アンラクチョウ",
    "street": null,
    "office_name": null,
    "office_name_kana": null
  },
  "0208": {
    "zip_code": "5150208",
    "prefecture": "三重県",
    "prefecture_kana": "ミエケン",
    "prefecture_code": "24",
    "city": "松阪市",
    "city_kana": "マツサカシ",
    "town": "山添町",
    "town_kana": "ヤマゾエチョウ",
    "street": null,
    "office_name": null,
    "office_name_kana": null
  },
  "0211": {
    "zip_code": "5150211",
    "prefecture": "三重県",
    "prefecture_kana": "ミエケン",
    "prefecture_code": "24",
    "city": "松阪市",
    "city_kana": "マツサカシ",
    "town": "高木町",
    "town_kana": "タカキチョウ",
    "street": null,
    "office_name": null,
    "office_name_kana": null
  },
  "0212": {
    "zip_code": "5150212",
    "prefecture": "三重県",
    "prefecture_kana": "ミエケン",
    "prefecture_code": "24",
    "city": "松阪市",
    "city_kana": "マツサカシ",
    "town": "稲木町",
    "town_kana": "イナギチョウ",
    "street": null,
    "office_name": null,
    "office_name_kana": null
  },
  "0213": {
    "zip_code": "5150213",
    "prefecture": "三重県",
    "prefecture_kana": "ミエケン",
    "prefecture_code": "24",
    "city": "松阪市",
    "city_kana": "マツサカシ",
    "town": "伊勢場町",
    "town_kana": "イセバチョウ",
    "street": null,
    "office_name": null,
    "office_name_kana": null
  },
  "0214": {
    "zip_code": "5150214",
    "prefecture": "三重県",
    "prefecture_kana": "ミエケン",
    "prefecture_code": "24",
    "city": "松阪市",
    "city_kana": "マツサカシ",
    "town": "法田町",
    "town_kana": "ホウダチョウ",
    "street": null,
    "office_name": null,
    "office_name_kana": null
  },
  "0215": {
    "zip_code": "5150215",
    "prefecture": "三重県",
    "prefecture_kana": "ミエケン",
    "prefecture_code": "24",
    "city": "松阪市",
    "city_kana": "マツサカシ",
    "town": "横地町",
    "town_kana": "ヨコチチョウ",
    "street": null,
    "office_name": null,
    "office_name_kana": null
  },
  "0216": {
    "zip_code": "5150216",
    "prefecture": "三重県",
    "prefecture_kana": "ミエケン",
    "prefecture_code": "24",
    "city": "松阪市",
    "city_kana": "マツサカシ",
    "town": "目田町",
    "town_kana": "メダチョウ",
    "street": null,
    "office_name": null,
    "office_name_kana": null
  },
  "0217": {
    "zip_code": "5150217",
    "prefecture": "三重県",
    "prefecture_kana": "ミエケン",
    "prefecture_code": "24",
    "city": "松阪市",
    "city_kana": "マツサカシ",
    "town": "早馬瀬町",
    "town_kana": "ハヤマゼチョウ",
    "street": null,
    "office_name": null,
    "office_name_kana": null
  },
  "0300": {
    "zip_code": "5150300",
    "prefecture": "三重県",
    "prefecture_kana": "ミエケン",
    "prefecture_code": "24",
    "city": "多気郡明和町",
    "city_kana": "タキグンメイワチョウ",
    "town": "",
    "town_kana": "",
    "street": null,
    "office_name": null,
    "office_name_kana": null
  },
  "0301": {
    "zip_code": "5150301",
    "prefecture": "三重県",
    "prefecture_kana": "ミエケン",
    "prefecture_code": "24",
    "city": "多気郡明和町",
    "city_kana": "タキグンメイワチョウ",
    "town": "大堀川新田",
    "town_kana": "オオホリカワシンデン",
    "street": null,
    "office_name": null,
    "office_name_kana": null
  },
  "0302": {
    "zip_code": "5150302",
    "prefecture": "三重県",
    "prefecture_kana": "ミエケン",
    "prefecture_code": "24",
    "city": "多気郡明和町",
    "city_kana": "タキグンメイワチョウ",
    "town": "大淀",
    "town_kana": "オオヨド",
    "street": null,
    "office_name": null,
    "office_name_kana": null
  },
  "0303": {
    "zip_code": "5150303",
    "prefecture": "三重県",
    "prefecture_kana": "ミエケン",
    "prefecture_code": "24",
    "city": "多気郡明和町",
    "city_kana": "タキグンメイワチョウ",
    "town": "山大淀",
    "town_kana": "ヤマオオヨド",
    "street": null,
    "office_name": null,
    "office_name_kana": null
  },
  "0311": {
    "zip_code": "5150311",
    "prefecture": "三重県",
    "prefecture_kana": "ミエケン",
    "prefecture_code": "24",
    "city": "多気郡明和町",
    "city_kana": "タキグンメイワチョウ",
    "town": "平尾",
    "town_kana": "ヒラオ",
    "street": null,
    "office_name": null,
    "office_name_kana": null
  },
  "0312": {
    "zip_code": "5150312",
    "prefecture": "三重県",
    "prefecture_kana": "ミエケン",
    "prefecture_code": "24",
    "city": "多気郡明和町",
    "city_kana": "タキグンメイワチョウ",
    "town": "上野",
    "town_kana": "ウエノ",
    "street": null,
    "office_name": null,
    "office_name_kana": null
  },
  "0313": {
    "zip_code": "5150313",
    "prefecture": "三重県",
    "prefecture_kana": "ミエケン",
    "prefecture_code": "24",
    "city": "多気郡明和町",
    "city_kana": "タキグンメイワチョウ",
    "town": "明星",
    "town_kana": "ミョウジョウ",
    "street": null,
    "office_name": null,
    "office_name_kana": null
  },
  "0314": {
    "zip_code": "5150314",
    "prefecture": "三重県",
    "prefecture_kana": "ミエケン",
    "prefecture_code": "24",
    "city": "多気郡明和町",
    "city_kana": "タキグンメイワチョウ",
    "town": "新茶屋",
    "town_kana": "シンチャヤ",
    "street": null,
    "office_name": null,
    "office_name_kana": null
  },
  "0315": {
    "zip_code": "5150315",
    "prefecture": "三重県",
    "prefecture_kana": "ミエケン",
    "prefecture_code": "24",
    "city": "多気郡明和町",
    "city_kana": "タキグンメイワチョウ",
    "town": "蓑村",
    "town_kana": "ミノムラ",
    "street": null,
    "office_name": null,
    "office_name_kana": null
  },
  "0316": {
    "zip_code": "5150316",
    "prefecture": "三重県",
    "prefecture_kana": "ミエケン",
    "prefecture_code": "24",
    "city": "多気郡明和町",
    "city_kana": "タキグンメイワチョウ",
    "town": "有爾中",
    "town_kana": "ウニナカ",
    "street": null,
    "office_name": null,
    "office_name_kana": null
  },
  "0317": {
    "zip_code": "5150317",
    "prefecture": "三重県",
    "prefecture_kana": "ミエケン",
    "prefecture_code": "24",
    "city": "多気郡明和町",
    "city_kana": "タキグンメイワチョウ",
    "town": "池村",
    "town_kana": "イケムラ",
    "street": null,
    "office_name": null,
    "office_name_kana": null
  },
  "0321": {
    "zip_code": "5150321",
    "prefecture": "三重県",
    "prefecture_kana": "ミエケン",
    "prefecture_code": "24",
    "city": "多気郡明和町",
    "city_kana": "タキグンメイワチョウ",
    "town": "斎宮",
    "town_kana": "サイクウ",
    "street": null,
    "office_name": null,
    "office_name_kana": null
  },
  "0322": {
    "zip_code": "5150322",
    "prefecture": "三重県",
    "prefecture_kana": "ミエケン",
    "prefecture_code": "24",
    "city": "多気郡明和町",
    "city_kana": "タキグンメイワチョウ",
    "town": "上村",
    "town_kana": "ウエムラ",
    "street": null,
    "office_name": null,
    "office_name_kana": null
  },
  "0323": {
    "zip_code": "5150323",
    "prefecture": "三重県",
    "prefecture_kana": "ミエケン",
    "prefecture_code": "24",
    "city": "多気郡明和町",
    "city_kana": "タキグンメイワチョウ",
    "town": "岩内",
    "town_kana": "ヨウチ",
    "street": null,
    "office_name": null,
    "office_name_kana": null
  },
  "0324": {
    "zip_code": "5150324",
    "prefecture": "三重県",
    "prefecture_kana": "ミエケン",
    "prefecture_code": "24",
    "city": "多気郡明和町",
    "city_kana": "タキグンメイワチョウ",
    "town": "金剛坂",
    "town_kana": "コンゴウザカ",
    "street": null,
    "office_name": null,
    "office_name_kana": null
  },
  "0325": {
    "zip_code": "5150325",
    "prefecture": "三重県",
    "prefecture_kana": "ミエケン",
    "prefecture_code": "24",
    "city": "多気郡明和町",
    "city_kana": "タキグンメイワチョウ",
    "town": "竹川",
    "town_kana": "タケガワ",
    "street": null,
    "office_name": null,
    "office_name_kana": null
  },
  "0331": {
    "zip_code": "5150331",
    "prefecture": "三重県",
    "prefecture_kana": "ミエケン",
    "prefecture_code": "24",
    "city": "多気郡明和町",
    "city_kana": "タキグンメイワチョウ",
    "town": "佐田",
    "town_kana": "サタ",
    "street": null,
    "office_name": null,
    "office_name_kana": null
  },
  "0332": {
    "zip_code": "5150332",
    "prefecture": "三重県",
    "prefecture_kana": "ミエケン",
    "prefecture_code": "24",
    "city": "多気郡明和町",
    "city_kana": "タキグンメイワチョウ",
    "town": "馬之上",
    "town_kana": "ウマノウエ",
    "street": null,
    "office_name": null,
    "office_name_kana": null
  },
  "0333": {
    "zip_code": "5150333",
    "prefecture": "三重県",
    "prefecture_kana": "ミエケン",
    "prefecture_code": "24",
    "city": "多気郡明和町",
    "city_kana": "タキグンメイワチョウ",
    "town": "坂本",
    "town_kana": "サカモト",
    "street": null,
    "office_name": null,
    "office_name_kana": null
  },
  "0334": {
    "zip_code": "5150334",
    "prefecture": "三重県",
    "prefecture_kana": "ミエケン",
    "prefecture_code": "24",
    "city": "多気郡明和町",
    "city_kana": "タキグンメイワチョウ",
    "town": "中海",
    "town_kana": "ナコミ",
    "street": null,
    "office_name": null,
    "office_name_kana": null
  },
  "0341": {
    "zip_code": "5150341",
    "prefecture": "三重県",
    "prefecture_kana": "ミエケン",
    "prefecture_code": "24",
    "city": "多気郡明和町",
    "city_kana": "タキグンメイワチョウ",
    "town": "北藤原",
    "town_kana": "キタフジワラ",
    "street": null,
    "office_name": null,
    "office_name_kana": null
  },
  "0342": {
    "zip_code": "5150342",
    "prefecture": "三重県",
    "prefecture_kana": "ミエケン",
    "prefecture_code": "24",
    "city": "多気郡明和町",
    "city_kana": "タキグンメイワチョウ",
    "town": "南藤原",
    "town_kana": "ミナミフジワラ",
    "street": null,
    "office_name": null,
    "office_name_kana": null
  },
  "0343": {
    "zip_code": "5150343",
    "prefecture": "三重県",
    "prefecture_kana": "ミエケン",
    "prefecture_code": "24",
    "city": "多気郡明和町",
    "city_kana": "タキグンメイワチョウ",
    "town": "内座",
    "town_kana": "ナイザ",
    "street": null,
    "office_name": null,
    "office_name_kana": null
  },
  "0344": {
    "zip_code": "5150344",
    "prefecture": "三重県",
    "prefecture_kana": "ミエケン",
    "prefecture_code": "24",
    "city": "多気郡明和町",
    "city_kana": "タキグンメイワチョウ",
    "town": "養川",
    "town_kana": "ヨウカワ",
    "street": null,
    "office_name": null,
    "office_name_kana": null
  },
  "0345": {
    "zip_code": "5150345",
    "prefecture": "三重県",
    "prefecture_kana": "ミエケン",
    "prefecture_code": "24",
    "city": "多気郡明和町",
    "city_kana": "タキグンメイワチョウ",
    "town": "田屋",
    "town_kana": "タヤ",
    "street": null,
    "office_name": null,
    "office_name_kana": null
  },
  "0346": {
    "zip_code": "5150346",
    "prefecture": "三重県",
    "prefecture_kana": "ミエケン",
    "prefecture_code": "24",
    "city": "多気郡明和町",
    "city_kana": "タキグンメイワチョウ",
    "town": "前野",
    "town_kana": "マエノ",
    "street": null,
    "office_name": null,
    "office_name_kana": null
  },
  "0347": {
    "zip_code": "5150347",
    "prefecture": "三重県",
    "prefecture_kana": "ミエケン",
    "prefecture_code": "24",
    "city": "多気郡明和町",
    "city_kana": "タキグンメイワチョウ",
    "town": "志貴",
    "town_kana": "シキ",
    "street": null,
    "office_name": null,
    "office_name_kana": null
  },
  "0348": {
    "zip_code": "5150348",
    "prefecture": "三重県",
    "prefecture_kana": "ミエケン",
    "prefecture_code": "24",
    "city": "多気郡明和町",
    "city_kana": "タキグンメイワチョウ",
    "town": "中村",
    "town_kana": "ナカムラ",
    "street": null,
    "office_name": null,
    "office_name_kana": null
  },
  "0349": {
    "zip_code": "5150349",
    "prefecture": "三重県",
    "prefecture_kana": "ミエケン",
    "prefecture_code": "24",
    "city": "多気郡明和町",
    "city_kana": "タキグンメイワチョウ",
    "town": "川尻",
    "town_kana": "カワシリ",
    "street": null,
    "office_name": null,
    "office_name_kana": null
  },
  "0351": {
    "zip_code": "5150351",
    "prefecture": "三重県",
    "prefecture_kana": "ミエケン",
    "prefecture_code": "24",
    "city": "多気郡明和町",
    "city_kana": "タキグンメイワチョウ",
    "town": "浜田",
    "town_kana": "ハマダ",
    "street": null,
    "office_name": null,
    "office_name_kana": null
  },
  "0352": {
    "zip_code": "5150352",
    "prefecture": "三重県",
    "prefecture_kana": "ミエケン",
    "prefecture_code": "24",
    "city": "多気郡明和町",
    "city_kana": "タキグンメイワチョウ",
    "town": "八木戸",
    "town_kana": "ヤキド",
    "street": null,
    "office_name": null,
    "office_name_kana": null
  },
  "0353": {
    "zip_code": "5150353",
    "prefecture": "三重県",
    "prefecture_kana": "ミエケン",
    "prefecture_code": "24",
    "city": "多気郡明和町",
    "city_kana": "タキグンメイワチョウ",
    "town": "根倉",
    "town_kana": "ネグラ",
    "street": null,
    "office_name": null,
    "office_name_kana": null
  },
  "0354": {
    "zip_code": "5150354",
    "prefecture": "三重県",
    "prefecture_kana": "ミエケン",
    "prefecture_code": "24",
    "city": "多気郡明和町",
    "city_kana": "タキグンメイワチョウ",
    "town": "行部",
    "town_kana": "ユクベ",
    "street": null,
    "office_name": null,
    "office_name_kana": null
  },
  "0501": {
    "zip_code": "5150501",
    "prefecture": "三重県",
    "prefecture_kana": "ミエケン",
    "prefecture_code": "24",
    "city": "伊勢市",
    "city_kana": "イセシ",
    "town": "有滝町",
    "town_kana": "アリタキチョウ",
    "street": null,
    "office_name": null,
    "office_name_kana": null
  },
  "0502": {
    "zip_code": "5150502",
    "prefecture": "三重県",
    "prefecture_kana": "ミエケン",
    "prefecture_code": "24",
    "city": "伊勢市",
    "city_kana": "イセシ",
    "town": "東豊浜町",
    "town_kana": "ヒガシトヨハマチョウ",
    "street": null,
    "office_name": null,
    "office_name_kana": null
  },
  "0503": {
    "zip_code": "5150503",
    "prefecture": "三重県",
    "prefecture_kana": "ミエケン",
    "prefecture_code": "24",
    "city": "伊勢市",
    "city_kana": "イセシ",
    "town": "樫原町",
    "town_kana": "カシワラチョウ",
    "street": null,
    "office_name": null,
    "office_name_kana": null
  },
  "0504": {
    "zip_code": "5150504",
    "prefecture": "三重県",
    "prefecture_kana": "ミエケン",
    "prefecture_code": "24",
    "city": "伊勢市",
    "city_kana": "イセシ",
    "town": "磯町",
    "town_kana": "イソチョウ",
    "street": null,
    "office_name": null,
    "office_name_kana": null
  },
  "0505": {
    "zip_code": "5150505",
    "prefecture": "三重県",
    "prefecture_kana": "ミエケン",
    "prefecture_code": "24",
    "city": "伊勢市",
    "city_kana": "イセシ",
    "town": "西豊浜町",
    "town_kana": "ニシトヨハマチョウ",
    "street": null,
    "office_name": null,
    "office_name_kana": null
  },
  "0506": {
    "zip_code": "5150506",
    "prefecture": "三重県",
    "prefecture_kana": "ミエケン",
    "prefecture_code": "24",
    "city": "伊勢市",
    "city_kana": "イセシ",
    "town": "植山町",
    "town_kana": "ウエヤマチョウ",
    "street": null,
    "office_name": null,
    "office_name_kana": null
  },
  "0507": {
    "zip_code": "5150507",
    "prefecture": "三重県",
    "prefecture_kana": "ミエケン",
    "prefecture_code": "24",
    "city": "伊勢市",
    "city_kana": "イセシ",
    "town": "村松町",
    "town_kana": "ムラマツチョウ",
    "street": null,
    "office_name": null,
    "office_name_kana": null
  },
  "0508": {
    "zip_code": "5150508",
    "prefecture": "三重県",
    "prefecture_kana": "ミエケン",
    "prefecture_code": "24",
    "city": "伊勢市",
    "city_kana": "イセシ",
    "town": "柏町",
    "town_kana": "カシワチョウ",
    "street": null,
    "office_name": null,
    "office_name_kana": null
  },
  "0509": {
    "zip_code": "5150509",
    "prefecture": "三重県",
    "prefecture_kana": "ミエケン",
    "prefecture_code": "24",
    "city": "伊勢市",
    "city_kana": "イセシ",
    "town": "東大淀町",
    "town_kana": "ヒガシオイズチョウ",
    "street": null,
    "office_name": null,
    "office_name_kana": null
  },
  "0511": {
    "zip_code": "5150511",
    "prefecture": "三重県",
    "prefecture_kana": "ミエケン",
    "prefecture_code": "24",
    "city": "伊勢市",
    "city_kana": "イセシ",
    "town": "野村町",
    "town_kana": "ノムラチョウ",
    "street": null,
    "office_name": null,
    "office_name_kana": null
  },
  "0521": [
    {
      "zip_code": "5150521",
      "prefecture": "三重県",
      "prefecture_kana": "ミエケン",
      "prefecture_code": "24",
      "city": "伊勢市",
      "city_kana": "イセシ",
      "town": "御薗町上條",
      "town_kana": "ミソノチョウカミジョウ",
      "street": null,
      "office_name": null,
      "office_name_kana": null
    },
    {
      "zip_code": "5150521",
      "prefecture": "三重県",
      "prefecture_kana": "ミエケン",
      "prefecture_code": "24",
      "city": "伊勢市",
      "city_kana": "イセシ",
      "town": "御薗町上條三軒屋",
      "town_kana": "ミソノチョウカミジョウサンゲンヤ",
      "street": null,
      "office_name": null,
      "office_name_kana": null
    }
  ],
  "0592": {
    "zip_code": "5150592",
    "prefecture": "三重県",
    "prefecture_kana": "ミエケン",
    "prefecture_code": "24",
    "city": "伊勢市",
    "city_kana": "イセシ",
    "town": "西豊浜町",
    "town_kana": "ニシトヨハマチョウ",
    "street": "６５５−１８",
    "office_name": "株式会社　牛虎",
    "office_name_kana": "カブシキガイシヤ ギユ-トラ"
  },
  "0595": {
    "zip_code": "5150595",
    "prefecture": "三重県",
    "prefecture_kana": "ミエケン",
    "prefecture_code": "24",
    "city": "伊勢市",
    "city_kana": "イセシ",
    "town": "西豊浜町",
    "town_kana": "ニシトヨハマチョウ",
    "street": "出雲１４１",
    "office_name": "株式会社　伊勢魚類市場",
    "office_name_kana": "カブシキガイシヤ イセギヨルイイチバ"
  },
  "0596": {
    "zip_code": "5150596",
    "prefecture": "三重県",
    "prefecture_kana": "ミエケン",
    "prefecture_code": "24",
    "city": "伊勢市",
    "city_kana": "イセシ",
    "town": "村松町",
    "town_kana": "ムラマツチョウ",
    "street": "３７４５",
    "office_name": "ヤマナカフーズ　株式会社",
    "office_name_kana": "ヤマナカフ-ズ カブシキガイシヤ"
  },
  "0598": {
    "zip_code": "5150598",
    "prefecture": "三重県",
    "prefecture_kana": "ミエケン",
    "prefecture_code": "24",
    "city": "伊勢市",
    "city_kana": "イセシ",
    "town": "西豊浜町",
    "town_kana": "ニシトヨハマチョウ",
    "street": "６５６番地の８",
    "office_name": "三重国分　株式会社",
    "office_name_kana": "ミエコクブ カブシキガイシヤ"
  },
  "0801": {
    "zip_code": "5150801",
    "prefecture": "三重県",
    "prefecture_kana": "ミエケン",
    "prefecture_code": "24",
    "city": "松阪市",
    "city_kana": "マツサカシ",
    "town": "新松ケ島町",
    "town_kana": "シンマツガシマチョウ",
    "street": null,
    "office_name": null,
    "office_name_kana": null
  },
  "0802": {
    "zip_code": "5150802",
    "prefecture": "三重県",
    "prefecture_kana": "ミエケン",
    "prefecture_code": "24",
    "city": "松阪市",
    "city_kana": "マツサカシ",
    "town": "猟師町",
    "town_kana": "リョウシチョウ",
    "street": null,
    "office_name": null,
    "office_name_kana": null
  },
  "0803": {
    "zip_code": "5150803",
    "prefecture": "三重県",
    "prefecture_kana": "ミエケン",
    "prefecture_code": "24",
    "city": "松阪市",
    "city_kana": "マツサカシ",
    "town": "町平尾町",
    "town_kana": "マチビラオチョウ",
    "street": null,
    "office_name": null,
    "office_name_kana": null
  },
  "0804": {
    "zip_code": "5150804",
    "prefecture": "三重県",
    "prefecture_kana": "ミエケン",
    "prefecture_code": "24",
    "city": "松阪市",
    "city_kana": "マツサカシ",
    "town": "大平尾町",
    "town_kana": "オオビラオチョウ",
    "street": null,
    "office_name": null,
    "office_name_kana": null
  },
  "0811": {
    "zip_code": "5150811",
    "prefecture": "三重県",
    "prefecture_kana": "ミエケン",
    "prefecture_code": "24",
    "city": "松阪市",
    "city_kana": "マツサカシ",
    "town": "塚本町",
    "town_kana": "ツカモトチョウ",
    "street": null,
    "office_name": null,
    "office_name_kana": null
  },
  "0812": {
    "zip_code": "5150812",
    "prefecture": "三重県",
    "prefecture_kana": "ミエケン",
    "prefecture_code": "24",
    "city": "松阪市",
    "city_kana": "マツサカシ",
    "town": "船江町",
    "town_kana": "フナエチョウ",
    "street": null,
    "office_name": null,
    "office_name_kana": null
  },
  "0813": {
    "zip_code": "5150813",
    "prefecture": "三重県",
    "prefecture_kana": "ミエケン",
    "prefecture_code": "24",
    "city": "松阪市",
    "city_kana": "マツサカシ",
    "town": "大塚町",
    "town_kana": "オオツカチョウ",
    "street": null,
    "office_name": null,
    "office_name_kana": null
  },
  "0814": {
    "zip_code": "5150814",
    "prefecture": "三重県",
    "prefecture_kana": "ミエケン",
    "prefecture_code": "24",
    "city": "松阪市",
    "city_kana": "マツサカシ",
    "town": "久保田町",
    "town_kana": "クボタチョウ",
    "street": null,
    "office_name": null,
    "office_name_kana": null
  },
  "0815": {
    "zip_code": "5150815",
    "prefecture": "三重県",
    "prefecture_kana": "ミエケン",
    "prefecture_code": "24",
    "city": "松阪市",
    "city_kana": "マツサカシ",
    "town": "西町",
    "town_kana": "ニシマチ",
    "street": null,
    "office_name": null,
    "office_name_kana": null
  },
  "0816": {
    "zip_code": "5150816",
    "prefecture": "三重県",
    "prefecture_kana": "ミエケン",
    "prefecture_code": "24",
    "city": "松阪市",
    "city_kana": "マツサカシ",
    "town": "西之庄町",
    "town_kana": "ニシノショウチョウ",
    "street": null,
    "office_name": null,
    "office_name_kana": null
  },
  "0817": {
    "zip_code": "5150817",
    "prefecture": "三重県",
    "prefecture_kana": "ミエケン",
    "prefecture_code": "24",
    "city": "松阪市",
    "city_kana": "マツサカシ",
    "town": "井村町",
    "town_kana": "イムラチョウ",
    "street": null,
    "office_name": null,
    "office_name_kana": null
  },
  "0818": {
    "zip_code": "5150818",
    "prefecture": "三重県",
    "prefecture_kana": "ミエケン",
    "prefecture_code": "24",
    "city": "松阪市",
    "city_kana": "マツサカシ",
    "town": "川井町",
    "town_kana": "カワイマチ",
    "street": null,
    "office_name": null,
    "office_name_kana": null
  },
  "0821": {
    "zip_code": "5150821",
    "prefecture": "三重県",
    "prefecture_kana": "ミエケン",
    "prefecture_code": "24",
    "city": "松阪市",
    "city_kana": "マツサカシ",
    "town": "外五曲町",
    "town_kana": "ソトゴマガリチョウ",
    "street": null,
    "office_name": null,
    "office_name_kana": null
  },
  "0822": {
    "zip_code": "5150822",
    "prefecture": "三重県",
    "prefecture_kana": "ミエケン",
    "prefecture_code": "24",
    "city": "松阪市",
    "city_kana": "マツサカシ",
    "town": "大足町",
    "town_kana": "オワセチョウ",
    "street": null,
    "office_name": null,
    "office_name_kana": null
  },
  "0823": {
    "zip_code": "5150823",
    "prefecture": "三重県",
    "prefecture_kana": "ミエケン",
    "prefecture_code": "24",
    "city": "松阪市",
    "city_kana": "マツサカシ",
    "town": "阿形町",
    "town_kana": "アガタチョウ",
    "street": null,
    "office_name": null,
    "office_name_kana": null
  },
  "0824": {
    "zip_code": "5150824",
    "prefecture": "三重県",
    "prefecture_kana": "ミエケン",
    "prefecture_code": "24",
    "city": "松阪市",
    "city_kana": "マツサカシ",
    "town": "平成町",
    "town_kana": "ヘイセイチョウ",
    "street": null,
    "office_name": null,
    "office_name_kana": null
  },
  "0825": {
    "zip_code": "5150825",
    "prefecture": "三重県",
    "prefecture_kana": "ミエケン",
    "prefecture_code": "24",
    "city": "松阪市",
    "city_kana": "マツサカシ",
    "town": "藤之木町",
    "town_kana": "フジノキチョウ",
    "street": null,
    "office_name": null,
    "office_name_kana": null
  },
  "0831": {
    "zip_code": "5150831",
    "prefecture": "三重県",
    "prefecture_kana": "ミエケン",
    "prefecture_code": "24",
    "city": "松阪市",
    "city_kana": "マツサカシ",
    "town": "岡本町",
    "town_kana": "オカモトチョウ",
    "street": null,
    "office_name": null,
    "office_name_kana": null
  },
  "0832": {
    "zip_code": "5150832",
    "prefecture": "三重県",
    "prefecture_kana": "ミエケン",
    "prefecture_code": "24",
    "city": "松阪市",
    "city_kana": "マツサカシ",
    "town": "丹生寺町",
    "town_kana": "ニュウデラチョウ",
    "street": null,
    "office_name": null,
    "office_name_kana": null
  },
  "0833": {
    "zip_code": "5150833",
    "prefecture": "三重県",
    "prefecture_kana": "ミエケン",
    "prefecture_code": "24",
    "city": "松阪市",
    "city_kana": "マツサカシ",
    "town": "西野町",
    "town_kana": "ニシノチョウ",
    "street": null,
    "office_name": null,
    "office_name_kana": null
  },
  "0834": {
    "zip_code": "5150834",
    "prefecture": "三重県",
    "prefecture_kana": "ミエケン",
    "prefecture_code": "24",
    "city": "松阪市",
    "city_kana": "マツサカシ",
    "town": "岡山町",
    "town_kana": "オカヤマチョウ",
    "street": null,
    "office_name": null,
    "office_name_kana": null
  },
  "0835": {
    "zip_code": "5150835",
    "prefecture": "三重県",
    "prefecture_kana": "ミエケン",
    "prefecture_code": "24",
    "city": "松阪市",
    "city_kana": "マツサカシ",
    "town": "日丘町",
    "town_kana": "ヒオカチョウ",
    "street": null,
    "office_name": null,
    "office_name_kana": null
  },
  "0841": {
    "zip_code": "5150841",
    "prefecture": "三重県",
    "prefecture_kana": "ミエケン",
    "prefecture_code": "24",
    "city": "松阪市",
    "city_kana": "マツサカシ",
    "town": "曲町",
    "town_kana": "マガリチョウ",
    "street": null,
    "office_name": null,
    "office_name_kana": null
  },
  "0842": {
    "zip_code": "5150842",
    "prefecture": "三重県",
    "prefecture_kana": "ミエケン",
    "prefecture_code": "24",
    "city": "松阪市",
    "city_kana": "マツサカシ",
    "town": "田牧町",
    "town_kana": "タイラチョウ",
    "street": null,
    "office_name": null,
    "office_name_kana": null
  },
  "0843": {
    "zip_code": "5150843",
    "prefecture": "三重県",
    "prefecture_kana": "ミエケン",
    "prefecture_code": "24",
    "city": "松阪市",
    "city_kana": "マツサカシ",
    "town": "殿村町",
    "town_kana": "トノムラチョウ",
    "street": null,
    "office_name": null,
    "office_name_kana": null
  },
  "0844": {
    "zip_code": "5150844",
    "prefecture": "三重県",
    "prefecture_kana": "ミエケン",
    "prefecture_code": "24",
    "city": "松阪市",
    "city_kana": "マツサカシ",
    "town": "八重田町",
    "town_kana": "ヤエダチョウ",
    "street": null,
    "office_name": null,
    "office_name_kana": null
  },
  "0845": {
    "zip_code": "5150845",
    "prefecture": "三重県",
    "prefecture_kana": "ミエケン",
    "prefecture_code": "24",
    "city": "松阪市",
    "city_kana": "マツサカシ",
    "town": "伊勢寺町",
    "town_kana": "イセデラチョウ",
    "street": null,
    "office_name": null,
    "office_name_kana": null
  },
  "0846": {
    "zip_code": "5150846",
    "prefecture": "三重県",
    "prefecture_kana": "ミエケン",
    "prefecture_code": "24",
    "city": "松阪市",
    "city_kana": "マツサカシ",
    "town": "深長町",
    "town_kana": "フコサチョウ",
    "street": null,
    "office_name": null,
    "office_name_kana": null
  },
  "0847": {
    "zip_code": "5150847",
    "prefecture": "三重県",
    "prefecture_kana": "ミエケン",
    "prefecture_code": "24",
    "city": "松阪市",
    "city_kana": "マツサカシ",
    "town": "岩内町",
    "town_kana": "ヨウチチョウ",
    "street": null,
    "office_name": null,
    "office_name_kana": null
  },
  "0848": {
    "zip_code": "5150848",
    "prefecture": "三重県",
    "prefecture_kana": "ミエケン",
    "prefecture_code": "24",
    "city": "松阪市",
    "city_kana": "マツサカシ",
    "town": "野村町",
    "town_kana": "ノムラチョウ",
    "street": null,
    "office_name": null,
    "office_name_kana": null
  },
  "1101": {
    "zip_code": "5151101",
    "prefecture": "三重県",
    "prefecture_kana": "ミエケン",
    "prefecture_code": "24",
    "city": "松阪市",
    "city_kana": "マツサカシ",
    "town": "勢津町",
    "town_kana": "セイヅチョウ",
    "street": null,
    "office_name": null,
    "office_name_kana": null
  },
  "1102": {
    "zip_code": "5151102",
    "prefecture": "三重県",
    "prefecture_kana": "ミエケン",
    "prefecture_code": "24",
    "city": "松阪市",
    "city_kana": "マツサカシ",
    "town": "矢津町",
    "town_kana": "ヤヅチョウ",
    "street": null,
    "office_name": null,
    "office_name_kana": null
  },
  "1103": {
    "zip_code": "5151103",
    "prefecture": "三重県",
    "prefecture_kana": "ミエケン",
    "prefecture_code": "24",
    "city": "松阪市",
    "city_kana": "マツサカシ",
    "town": "笹川町",
    "town_kana": "ササガワチョウ",
    "street": null,
    "office_name": null,
    "office_name_kana": null
  },
  "1104": {
    "zip_code": "5151104",
    "prefecture": "三重県",
    "prefecture_kana": "ミエケン",
    "prefecture_code": "24",
    "city": "松阪市",
    "city_kana": "マツサカシ",
    "town": "桂瀬町",
    "town_kana": "カツラセチョウ",
    "street": null,
    "office_name": null,
    "office_name_kana": null
  },
  "1105": {
    "zip_code": "5151105",
    "prefecture": "三重県",
    "prefecture_kana": "ミエケン",
    "prefecture_code": "24",
    "city": "松阪市",
    "city_kana": "マツサカシ",
    "town": "大河内町",
    "town_kana": "オカワチチョウ",
    "street": null,
    "office_name": null,
    "office_name_kana": null
  },
  "1106": {
    "zip_code": "5151106",
    "prefecture": "三重県",
    "prefecture_kana": "ミエケン",
    "prefecture_code": "24",
    "city": "松阪市",
    "city_kana": "マツサカシ",
    "town": "辻原町",
    "town_kana": "ツジワラチョウ",
    "street": null,
    "office_name": null,
    "office_name_kana": null
  },
  "1107": {
    "zip_code": "5151107",
    "prefecture": "三重県",
    "prefecture_kana": "ミエケン",
    "prefecture_code": "24",
    "city": "松阪市",
    "city_kana": "マツサカシ",
    "town": "阪内町",
    "town_kana": "サカナイチョウ",
    "street": null,
    "office_name": null,
    "office_name_kana": null
  },
  "1201": {
    "zip_code": "5151201",
    "prefecture": "三重県",
    "prefecture_kana": "ミエケン",
    "prefecture_code": "24",
    "city": "松阪市",
    "city_kana": "マツサカシ",
    "town": "広瀬町",
    "town_kana": "ヒロセチョウ",
    "street": null,
    "office_name": null,
    "office_name_kana": null
  },
  "1202": {
    "zip_code": "5151202",
    "prefecture": "三重県",
    "prefecture_kana": "ミエケン",
    "prefecture_code": "24",
    "city": "松阪市",
    "city_kana": "マツサカシ",
    "town": "茅原町",
    "town_kana": "チハラチョウ",
    "street": null,
    "office_name": null,
    "office_name_kana": null
  },
  "1203": {
    "zip_code": "5151203",
    "prefecture": "三重県",
    "prefecture_kana": "ミエケン",
    "prefecture_code": "24",
    "city": "松阪市",
    "city_kana": "マツサカシ",
    "town": "六呂木町",
    "town_kana": "ロクロギチョウ",
    "street": null,
    "office_name": null,
    "office_name_kana": null
  },
  "1204": {
    "zip_code": "5151204",
    "prefecture": "三重県",
    "prefecture_kana": "ミエケン",
    "prefecture_code": "24",
    "city": "松阪市",
    "city_kana": "マツサカシ",
    "town": "小片野町",
    "town_kana": "オカタノチョウ",
    "street": null,
    "office_name": null,
    "office_name_kana": null
  },
  "1205": {
    "zip_code": "5151205",
    "prefecture": "三重県",
    "prefecture_kana": "ミエケン",
    "prefecture_code": "24",
    "city": "松阪市",
    "city_kana": "マツサカシ",
    "town": "大石町",
    "town_kana": "オイシチョウ",
    "street": null,
    "office_name": null,
    "office_name_kana": null
  },
  "1301": {
    "zip_code": "5151301",
    "prefecture": "三重県",
    "prefecture_kana": "ミエケン",
    "prefecture_code": "24",
    "city": "松阪市",
    "city_kana": "マツサカシ",
    "town": "飯南町深野",
    "town_kana": "イイナンチョウフカノ",
    "street": null,
    "office_name": null,
    "office_name_kana": null
  },
  "1302": {
    "zip_code": "5151302",
    "prefecture": "三重県",
    "prefecture_kana": "ミエケン",
    "prefecture_code": "24",
    "city": "松阪市",
    "city_kana": "マツサカシ",
    "town": "飯南町横野",
    "town_kana": "イイナンチョウヨコノ",
    "street": null,
    "office_name": null,
    "office_name_kana": null
  },
  "1303": {
    "zip_code": "5151303",
    "prefecture": "三重県",
    "prefecture_kana": "ミエケン",
    "prefecture_code": "24",
    "city": "松阪市",
    "city_kana": "マツサカシ",
    "town": "飯南町下仁柿",
    "town_kana": "イイナンチョウシモニガキ",
    "street": null,
    "office_name": null,
    "office_name_kana": null
  },
  "1304": {
    "zip_code": "5151304",
    "prefecture": "三重県",
    "prefecture_kana": "ミエケン",
    "prefecture_code": "24",
    "city": "松阪市",
    "city_kana": "マツサカシ",
    "town": "飯南町上仁柿",
    "town_kana": "イイナンチョウカミニガキ",
    "street": null,
    "office_name": null,
    "office_name_kana": null
  },
  "1411": {
    "zip_code": "5151411",
    "prefecture": "三重県",
    "prefecture_kana": "ミエケン",
    "prefecture_code": "24",
    "city": "松阪市",
    "city_kana": "マツサカシ",
    "town": "飯南町粥見",
    "town_kana": "イイナンチョウカユミ",
    "street": null,
    "office_name": null,
    "office_name_kana": null
  },
  "1412": {
    "zip_code": "5151412",
    "prefecture": "三重県",
    "prefecture_kana": "ミエケン",
    "prefecture_code": "24",
    "city": "松阪市",
    "city_kana": "マツサカシ",
    "town": "飯南町向粥見",
    "town_kana": "イイナンチョウムコウカユミ",
    "street": null,
    "office_name": null,
    "office_name_kana": null
  },
  "1413": {
    "zip_code": "5151413",
    "prefecture": "三重県",
    "prefecture_kana": "ミエケン",
    "prefecture_code": "24",
    "city": "松阪市",
    "city_kana": "マツサカシ",
    "town": "飯南町有間野",
    "town_kana": "イイナンチョウアリマノ",
    "street": null,
    "office_name": null,
    "office_name_kana": null
  },
  "1501": {
    "zip_code": "5151501",
    "prefecture": "三重県",
    "prefecture_kana": "ミエケン",
    "prefecture_code": "24",
    "city": "松阪市",
    "city_kana": "マツサカシ",
    "town": "飯高町下滝野",
    "town_kana": "イイタカチョウシモタキノ",
    "street": null,
    "office_name": null,
    "office_name_kana": null
  },
  "1502": {
    "zip_code": "5151502",
    "prefecture": "三重県",
    "prefecture_kana": "ミエケン",
    "prefecture_code": "24",
    "city": "松阪市",
    "city_kana": "マツサカシ",
    "town": "飯高町宮前",
    "town_kana": "イイタカチョウミヤマエ",
    "street": null,
    "office_name": null,
    "office_name_kana": null
  },
  "1503": {
    "zip_code": "5151503",
    "prefecture": "三重県",
    "prefecture_kana": "ミエケン",
    "prefecture_code": "24",
    "city": "松阪市",
    "city_kana": "マツサカシ",
    "town": "飯高町野々口",
    "town_kana": "イイタカチョウノノグチ",
    "street": null,
    "office_name": null,
    "office_name_kana": null
  },
  "1504": {
    "zip_code": "5151504",
    "prefecture": "三重県",
    "prefecture_kana": "ミエケン",
    "prefecture_code": "24",
    "city": "松阪市",
    "city_kana": "マツサカシ",
    "town": "飯高町作滝",
    "town_kana": "イイタカチョウサクタキ",
    "street": null,
    "office_name": null,
    "office_name_kana": null
  },
  "1505": {
    "zip_code": "5151505",
    "prefecture": "三重県",
    "prefecture_kana": "ミエケン",
    "prefecture_code": "24",
    "city": "松阪市",
    "city_kana": "マツサカシ",
    "town": "飯高町赤桶",
    "town_kana": "イイタカチョウアコウ",
    "street": null,
    "office_name": null,
    "office_name_kana": null
  },
  "1506": {
    "zip_code": "5151506",
    "prefecture": "三重県",
    "prefecture_kana": "ミエケン",
    "prefecture_code": "24",
    "city": "松阪市",
    "city_kana": "マツサカシ",
    "town": "飯高町田引",
    "town_kana": "イイタカチョウタビキ",
    "street": null,
    "office_name": null,
    "office_name_kana": null
  },
  "1611": {
    "zip_code": "5151611",
    "prefecture": "三重県",
    "prefecture_kana": "ミエケン",
    "prefecture_code": "24",
    "city": "松阪市",
    "city_kana": "マツサカシ",
    "town": "飯高町七日市",
    "town_kana": "イイタカチョウナノカイチ",
    "street": null,
    "office_name": null,
    "office_name_kana": null
  },
  "1612": {
    "zip_code": "5151612",
    "prefecture": "三重県",
    "prefecture_kana": "ミエケン",
    "prefecture_code": "24",
    "city": "松阪市",
    "city_kana": "マツサカシ",
    "town": "飯高町富永",
    "town_kana": "イイタカチョウトミナガ",
    "street": null,
    "office_name": null,
    "office_name_kana": null
  },
  "1613": {
    "zip_code": "5151613",
    "prefecture": "三重県",
    "prefecture_kana": "ミエケン",
    "prefecture_code": "24",
    "city": "松阪市",
    "city_kana": "マツサカシ",
    "town": "飯高町粟野",
    "town_kana": "イイタカチョウアワノ",
    "street": null,
    "office_name": null,
    "office_name_kana": null
  },
  "1614": {
    "zip_code": "5151614",
    "prefecture": "三重県",
    "prefecture_kana": "ミエケン",
    "prefecture_code": "24",
    "city": "松阪市",
    "city_kana": "マツサカシ",
    "town": "飯高町宮本",
    "town_kana": "イイタカチョウミヤモト",
    "street": null,
    "office_name": null,
    "office_name_kana": null
  },
  "1615": {
    "zip_code": "5151615",
    "prefecture": "三重県",
    "prefecture_kana": "ミエケン",
    "prefecture_code": "24",
    "city": "松阪市",
    "city_kana": "マツサカシ",
    "town": "飯高町森",
    "town_kana": "イイタカチョウモリ",
    "street": null,
    "office_name": null,
    "office_name_kana": null
  },
  "1616": {
    "zip_code": "5151616",
    "prefecture": "三重県",
    "prefecture_kana": "ミエケン",
    "prefecture_code": "24",
    "city": "松阪市",
    "city_kana": "マツサカシ",
    "town": "飯高町青田",
    "town_kana": "イイタカチョウオオダ",
    "street": null,
    "office_name": null,
    "office_name_kana": null
  },
  "1617": {
    "zip_code": "5151617",
    "prefecture": "三重県",
    "prefecture_kana": "ミエケン",
    "prefecture_code": "24",
    "city": "松阪市",
    "city_kana": "マツサカシ",
    "town": "飯高町猿山",
    "town_kana": "イイタカチョウエテヤマ",
    "street": null,
    "office_name": null,
    "office_name_kana": null
  },
  "1618": {
    "zip_code": "5151618",
    "prefecture": "三重県",
    "prefecture_kana": "ミエケン",
    "prefecture_code": "24",
    "city": "松阪市",
    "city_kana": "マツサカシ",
    "town": "飯高町蓮",
    "town_kana": "イイタカチョウハチス",
    "street": null,
    "office_name": null,
    "office_name_kana": null
  },
  "1721": {
    "zip_code": "5151721",
    "prefecture": "三重県",
    "prefecture_kana": "ミエケン",
    "prefecture_code": "24",
    "city": "松阪市",
    "city_kana": "マツサカシ",
    "town": "飯高町月出",
    "town_kana": "イイタカチョウツキデ",
    "street": null,
    "office_name": null,
    "office_name_kana": null
  },
  "1722": {
    "zip_code": "5151722",
    "prefecture": "三重県",
    "prefecture_kana": "ミエケン",
    "prefecture_code": "24",
    "city": "松阪市",
    "city_kana": "マツサカシ",
    "town": "飯高町加波",
    "town_kana": "イイタカチョウカバ",
    "street": null,
    "office_name": null,
    "office_name_kana": null
  },
  "1723": {
    "zip_code": "5151723",
    "prefecture": "三重県",
    "prefecture_kana": "ミエケン",
    "prefecture_code": "24",
    "city": "松阪市",
    "city_kana": "マツサカシ",
    "town": "飯高町乙栗子",
    "town_kana": "イイタカチョウオトグルス",
    "street": null,
    "office_name": null,
    "office_name_kana": null
  },
  "1724": {
    "zip_code": "5151724",
    "prefecture": "三重県",
    "prefecture_kana": "ミエケン",
    "prefecture_code": "24",
    "city": "松阪市",
    "city_kana": "マツサカシ",
    "town": "飯高町桑原",
    "town_kana": "イイタカチョウクワバラ",
    "street": null,
    "office_name": null,
    "office_name_kana": null
  },
  "1725": {
    "zip_code": "5151725",
    "prefecture": "三重県",
    "prefecture_kana": "ミエケン",
    "prefecture_code": "24",
    "city": "松阪市",
    "city_kana": "マツサカシ",
    "town": "飯高町波瀬",
    "town_kana": "イイタカチョウハゼ",
    "street": null,
    "office_name": null,
    "office_name_kana": null
  },
  "1726": {
    "zip_code": "5151726",
    "prefecture": "三重県",
    "prefecture_kana": "ミエケン",
    "prefecture_code": "24",
    "city": "松阪市",
    "city_kana": "マツサカシ",
    "town": "飯高町太良木",
    "town_kana": "イイタカチョウタラキ",
    "street": null,
    "office_name": null,
    "office_name_kana": null
  },
  "1727": {
    "zip_code": "5151727",
    "prefecture": "三重県",
    "prefecture_kana": "ミエケン",
    "prefecture_code": "24",
    "city": "松阪市",
    "city_kana": "マツサカシ",
    "town": "飯高町草鹿野",
    "town_kana": "イイタカチョウソウガノ",
    "street": null,
    "office_name": null,
    "office_name_kana": null
  },
  "1731": {
    "zip_code": "5151731",
    "prefecture": "三重県",
    "prefecture_kana": "ミエケン",
    "prefecture_code": "24",
    "city": "松阪市",
    "city_kana": "マツサカシ",
    "town": "飯高町舟戸",
    "town_kana": "イイタカチョウフナト",
    "street": null,
    "office_name": null,
    "office_name_kana": null
  },
  "1732": {
    "zip_code": "5151732",
    "prefecture": "三重県",
    "prefecture_kana": "ミエケン",
    "prefecture_code": "24",
    "city": "松阪市",
    "city_kana": "マツサカシ",
    "town": "飯高町落方",
    "town_kana": "イイタカチョウオチカタ",
    "street": null,
    "office_name": null,
    "office_name_kana": null
  },
  "1733": {
    "zip_code": "5151733",
    "prefecture": "三重県",
    "prefecture_kana": "ミエケン",
    "prefecture_code": "24",
    "city": "松阪市",
    "city_kana": "マツサカシ",
    "town": "飯高町栃谷",
    "town_kana": "イイタカチョウトチダニ",
    "street": null,
    "office_name": null,
    "office_name_kana": null
  },
  "1734": {
    "zip_code": "5151734",
    "prefecture": "三重県",
    "prefecture_kana": "ミエケン",
    "prefecture_code": "24",
    "city": "松阪市",
    "city_kana": "マツサカシ",
    "town": "飯高町木梶",
    "town_kana": "イイタカチョウキカジ",
    "street": null,
    "office_name": null,
    "office_name_kana": null
  },
  "2101": {
    "zip_code": "5152101",
    "prefecture": "三重県",
    "prefecture_kana": "ミエケン",
    "prefecture_code": "24",
    "city": "松阪市",
    "city_kana": "マツサカシ",
    "town": "星合町",
    "town_kana": "ホシアイチョウ",
    "street": null,
    "office_name": null,
    "office_name_kana": null
  },
  "2102": {
    "zip_code": "5152102",
    "prefecture": "三重県",
    "prefecture_kana": "ミエケン",
    "prefecture_code": "24",
    "city": "松阪市",
    "city_kana": "マツサカシ",
    "town": "五主町",
    "town_kana": "ゴヌシチョウ",
    "street": null,
    "office_name": null,
    "office_name_kana": null
  },
  "2103": {
    "zip_code": "5152103",
    "prefecture": "三重県",
    "prefecture_kana": "ミエケン",
    "prefecture_code": "24",
    "city": "松阪市",
    "city_kana": "マツサカシ",
    "town": "笠松町",
    "town_kana": "カサマツチョウ",
    "street": null,
    "office_name": null,
    "office_name_kana": null
  },
  "2104": {
    "zip_code": "5152104",
    "prefecture": "三重県",
    "prefecture_kana": "ミエケン",
    "prefecture_code": "24",
    "city": "松阪市",
    "city_kana": "マツサカシ",
    "town": "小舟江町",
    "town_kana": "コブナエチョウ",
    "street": null,
    "office_name": null,
    "office_name_kana": null
  },
  "2105": {
    "zip_code": "5152105",
    "prefecture": "三重県",
    "prefecture_kana": "ミエケン",
    "prefecture_code": "24",
    "city": "松阪市",
    "city_kana": "マツサカシ",
    "town": "肥留町",
    "town_kana": "ヒルチョウ",
    "street": null,
    "office_name": null,
    "office_name_kana": null
  },
  "2106": {
    "zip_code": "5152106",
    "prefecture": "三重県",
    "prefecture_kana": "ミエケン",
    "prefecture_code": "24",
    "city": "松阪市",
    "city_kana": "マツサカシ",
    "town": "西肥留町",
    "town_kana": "ニシヒルチョウ",
    "street": null,
    "office_name": null,
    "office_name_kana": null
  },
  "2107": {
    "zip_code": "5152107",
    "prefecture": "三重県",
    "prefecture_kana": "ミエケン",
    "prefecture_code": "24",
    "city": "松阪市",
    "city_kana": "マツサカシ",
    "town": "舞出町",
    "town_kana": "マイデチョウ",
    "street": null,
    "office_name": null,
    "office_name_kana": null
  },
  "2108": {
    "zip_code": "5152108",
    "prefecture": "三重県",
    "prefecture_kana": "ミエケン",
    "prefecture_code": "24",
    "city": "松阪市",
    "city_kana": "マツサカシ",
    "town": "甚目町",
    "town_kana": "ハダメチョウ",
    "street": null,
    "office_name": null,
    "office_name_kana": null
  },
  "2109": {
    "zip_code": "5152109",
    "prefecture": "三重県",
    "prefecture_kana": "ミエケン",
    "prefecture_code": "24",
    "city": "松阪市",
    "city_kana": "マツサカシ",
    "town": "小野江町",
    "town_kana": "オノエチョウ",
    "street": null,
    "office_name": null,
    "office_name_kana": null
  },
  "2111": {
    "zip_code": "5152111",
    "prefecture": "三重県",
    "prefecture_kana": "ミエケン",
    "prefecture_code": "24",
    "city": "松阪市",
    "city_kana": "マツサカシ",
    "town": "中林町",
    "town_kana": "ナカバヤシチョウ",
    "street": null,
    "office_name": null,
    "office_name_kana": null
  },
  "2112": {
    "zip_code": "5152112",
    "prefecture": "三重県",
    "prefecture_kana": "ミエケン",
    "prefecture_code": "24",
    "city": "松阪市",
    "city_kana": "マツサカシ",
    "town": "曽原町",
    "town_kana": "ソハラチョウ",
    "street": null,
    "office_name": null,
    "office_name_kana": null
  },
  "2113": {
    "zip_code": "5152113",
    "prefecture": "三重県",
    "prefecture_kana": "ミエケン",
    "prefecture_code": "24",
    "city": "松阪市",
    "city_kana": "マツサカシ",
    "town": "喜多村新田町",
    "town_kana": "キタムラシンデンチョウ",
    "street": null,
    "office_name": null,
    "office_name_kana": null
  },
  "2114": {
    "zip_code": "5152114",
    "prefecture": "三重県",
    "prefecture_kana": "ミエケン",
    "prefecture_code": "24",
    "city": "松阪市",
    "city_kana": "マツサカシ",
    "town": "小津町",
    "town_kana": "オヅチョウ",
    "street": null,
    "office_name": null,
    "office_name_kana": null
  },
  "2115": {
    "zip_code": "5152115",
    "prefecture": "三重県",
    "prefecture_kana": "ミエケン",
    "prefecture_code": "24",
    "city": "松阪市",
    "city_kana": "マツサカシ",
    "town": "中道町",
    "town_kana": "ナカミチチョウ",
    "street": null,
    "office_name": null,
    "office_name_kana": null
  },
  "2121": {
    "zip_code": "5152121",
    "prefecture": "三重県",
    "prefecture_kana": "ミエケン",
    "prefecture_code": "24",
    "city": "松阪市",
    "city_kana": "マツサカシ",
    "town": "市場庄町",
    "town_kana": "イチバショウチョウ",
    "street": null,
    "office_name": null,
    "office_name_kana": null
  },
  "2122": {
    "zip_code": "5152122",
    "prefecture": "三重県",
    "prefecture_kana": "ミエケン",
    "prefecture_code": "24",
    "city": "松阪市",
    "city_kana": "マツサカシ",
    "town": "久米町",
    "town_kana": "クメチョウ",
    "street": null,
    "office_name": null,
    "office_name_kana": null
  },
  "2123": {
    "zip_code": "5152123",
    "prefecture": "三重県",
    "prefecture_kana": "ミエケン",
    "prefecture_code": "24",
    "city": "松阪市",
    "city_kana": "マツサカシ",
    "town": "上ノ庄町",
    "town_kana": "カミノショウチョウ",
    "street": null,
    "office_name": null,
    "office_name_kana": null
  },
  "2124": {
    "zip_code": "5152124",
    "prefecture": "三重県",
    "prefecture_kana": "ミエケン",
    "prefecture_code": "24",
    "city": "松阪市",
    "city_kana": "マツサカシ",
    "town": "中ノ庄町",
    "town_kana": "ナカノショウチョウ",
    "street": null,
    "office_name": null,
    "office_name_kana": null
  },
  "2131": {
    "zip_code": "5152131",
    "prefecture": "三重県",
    "prefecture_kana": "ミエケン",
    "prefecture_code": "24",
    "city": "松阪市",
    "city_kana": "マツサカシ",
    "town": "六軒町",
    "town_kana": "ロッケンチョウ",
    "street": null,
    "office_name": null,
    "office_name_kana": null
  },
  "2132": {
    "zip_code": "5152132",
    "prefecture": "三重県",
    "prefecture_kana": "ミエケン",
    "prefecture_code": "24",
    "city": "松阪市",
    "city_kana": "マツサカシ",
    "town": "松崎浦町",
    "town_kana": "マツサキウラチョウ",
    "street": null,
    "office_name": null,
    "office_name_kana": null
  },
  "2133": {
    "zip_code": "5152133",
    "prefecture": "三重県",
    "prefecture_kana": "ミエケン",
    "prefecture_code": "24",
    "city": "松阪市",
    "city_kana": "マツサカシ",
    "town": "松ケ島町",
    "town_kana": "マツガシマチョウ",
    "street": null,
    "office_name": null,
    "office_name_kana": null
  },
  "2301": {
    "zip_code": "5152301",
    "prefecture": "三重県",
    "prefecture_kana": "ミエケン",
    "prefecture_code": "24",
    "city": "松阪市",
    "city_kana": "マツサカシ",
    "town": "嬉野島田町",
    "town_kana": "ウレシノシマダチョウ",
    "street": null,
    "office_name": null,
    "office_name_kana": null
  },
  "2302": {
    "zip_code": "5152302",
    "prefecture": "三重県",
    "prefecture_kana": "ミエケン",
    "prefecture_code": "24",
    "city": "松阪市",
    "city_kana": "マツサカシ",
    "town": "嬉野天花寺町",
    "town_kana": "ウレシノテンゲエジチョウ",
    "street": null,
    "office_name": null,
    "office_name_kana": null
  },
  "2303": {
    "zip_code": "5152303",
    "prefecture": "三重県",
    "prefecture_kana": "ミエケン",
    "prefecture_code": "24",
    "city": "松阪市",
    "city_kana": "マツサカシ",
    "town": "嬉野宮古町",
    "town_kana": "ウレシノミヤコチョウ",
    "street": null,
    "office_name": null,
    "office_name_kana": null
  },
  "2304": {
    "zip_code": "5152304",
    "prefecture": "三重県",
    "prefecture_kana": "ミエケン",
    "prefecture_code": "24",
    "city": "松阪市",
    "city_kana": "マツサカシ",
    "town": "嬉野平生町",
    "town_kana": "ウレシノヒロチョウ",
    "street": null,
    "office_name": null,
    "office_name_kana": null
  },
  "2305": {
    "zip_code": "5152305",
    "prefecture": "三重県",
    "prefecture_kana": "ミエケン",
    "prefecture_code": "24",
    "city": "松阪市",
    "city_kana": "マツサカシ",
    "town": "嬉野一志町",
    "town_kana": "ウレシノイチシチョウ",
    "street": null,
    "office_name": null,
    "office_name_kana": null
  },
  "2311": {
    "zip_code": "5152311",
    "prefecture": "三重県",
    "prefecture_kana": "ミエケン",
    "prefecture_code": "24",
    "city": "松阪市",
    "city_kana": "マツサカシ",
    "town": "嬉野黒田町",
    "town_kana": "ウレシノクロダチョウ",
    "street": null,
    "office_name": null,
    "office_name_kana": null
  },
  "2312": {
    "zip_code": "5152312",
    "prefecture": "三重県",
    "prefecture_kana": "ミエケン",
    "prefecture_code": "24",
    "city": "松阪市",
    "city_kana": "マツサカシ",
    "town": "嬉野見永町",
    "town_kana": "ウレシノミナガチョウ",
    "street": null,
    "office_name": null,
    "office_name_kana": null
  },
  "2313": {
    "zip_code": "5152313",
    "prefecture": "三重県",
    "prefecture_kana": "ミエケン",
    "prefecture_code": "24",
    "city": "松阪市",
    "city_kana": "マツサカシ",
    "town": "嬉野川原木造町",
    "town_kana": "ウレシノカワラコツクリチョウ",
    "street": null,
    "office_name": null,
    "office_name_kana": null
  },
  "2314": {
    "zip_code": "5152314",
    "prefecture": "三重県",
    "prefecture_kana": "ミエケン",
    "prefecture_code": "24",
    "city": "松阪市",
    "city_kana": "マツサカシ",
    "town": "嬉野新屋庄町",
    "town_kana": "ウレシノニワノショウチョウ",
    "street": null,
    "office_name": null,
    "office_name_kana": null
  },
  "2315": {
    "zip_code": "5152315",
    "prefecture": "三重県",
    "prefecture_kana": "ミエケン",
    "prefecture_code": "24",
    "city": "松阪市",
    "city_kana": "マツサカシ",
    "town": "嬉野小村町",
    "town_kana": "ウレシノコムラチョウ",
    "street": null,
    "office_name": null,
    "office_name_kana": null
  },
  "2316": {
    "zip_code": "5152316",
    "prefecture": "三重県",
    "prefecture_kana": "ミエケン",
    "prefecture_code": "24",
    "city": "松阪市",
    "city_kana": "マツサカシ",
    "town": "嬉野川北町",
    "town_kana": "ウレシノカワギタチョウ",
    "street": null,
    "office_name": null,
    "office_name_kana": null
  },
  "2317": {
    "zip_code": "5152317",
    "prefecture": "三重県",
    "prefecture_kana": "ミエケン",
    "prefecture_code": "24",
    "city": "松阪市",
    "city_kana": "マツサカシ",
    "town": "嬉野野田町",
    "town_kana": "ウレシノノダチョウ",
    "street": null,
    "office_name": null,
    "office_name_kana": null
  },
  "2321": {
    "zip_code": "5152321",
    "prefecture": "三重県",
    "prefecture_kana": "ミエケン",
    "prefecture_code": "24",
    "city": "松阪市",
    "city_kana": "マツサカシ",
    "town": "嬉野中川町",
    "town_kana": "ウレシノナカガワチョウ",
    "street": null,
    "office_name": null,
    "office_name_kana": null
  },
  "2322": {
    "zip_code": "5152322",
    "prefecture": "三重県",
    "prefecture_kana": "ミエケン",
    "prefecture_code": "24",
    "city": "松阪市",
    "city_kana": "マツサカシ",
    "town": "嬉野須賀町",
    "town_kana": "ウレシノスカチョウ",
    "street": null,
    "office_name": null,
    "office_name_kana": null
  },
  "2323": {
    "zip_code": "5152323",
    "prefecture": "三重県",
    "prefecture_kana": "ミエケン",
    "prefecture_code": "24",
    "city": "松阪市",
    "city_kana": "マツサカシ",
    "town": "嬉野権現前町",
    "town_kana": "ウレシノゴンゲンマエチョウ",
    "street": null,
    "office_name": null,
    "office_name_kana": null
  },
  "2324": {
    "zip_code": "5152324",
    "prefecture": "三重県",
    "prefecture_kana": "ミエケン",
    "prefecture_code": "24",
    "city": "松阪市",
    "city_kana": "マツサカシ",
    "town": "嬉野町",
    "town_kana": "ウレシノチョウ",
    "street": null,
    "office_name": null,
    "office_name_kana": null
  },
  "2325": {
    "zip_code": "5152325",
    "prefecture": "三重県",
    "prefecture_kana": "ミエケン",
    "prefecture_code": "24",
    "city": "松阪市",
    "city_kana": "マツサカシ",
    "town": "嬉野中川新町",
    "town_kana": "ウレシノナカガワシンマチ",
    "street": null,
    "office_name": null,
    "office_name_kana": null
  },
  "2331": {
    "zip_code": "5152331",
    "prefecture": "三重県",
    "prefecture_kana": "ミエケン",
    "prefecture_code": "24",
    "city": "松阪市",
    "city_kana": "マツサカシ",
    "town": "嬉野須賀領町",
    "town_kana": "ウレシノスカリョウチョウ",
    "street": null,
    "office_name": null,
    "office_name_kana": null
  },
  "2332": {
    "zip_code": "5152332",
    "prefecture": "三重県",
    "prefecture_kana": "ミエケン",
    "prefecture_code": "24",
    "city": "松阪市",
    "city_kana": "マツサカシ",
    "town": "嬉野津屋城町",
    "town_kana": "ウレシノツヤジョウチョウ",
    "street": null,
    "office_name": null,
    "office_name_kana": null
  },
  "2333": {
    "zip_code": "5152333",
    "prefecture": "三重県",
    "prefecture_kana": "ミエケン",
    "prefecture_code": "24",
    "city": "松阪市",
    "city_kana": "マツサカシ",
    "town": "嬉野田村町",
    "town_kana": "ウレシノタムラチョウ",
    "street": null,
    "office_name": null,
    "office_name_kana": null
  },
  "2334": {
    "zip_code": "5152334",
    "prefecture": "三重県",
    "prefecture_kana": "ミエケン",
    "prefecture_code": "24",
    "city": "松阪市",
    "city_kana": "マツサカシ",
    "town": "嬉野黒野町",
    "town_kana": "ウレシノクロノチョウ",
    "street": null,
    "office_name": null,
    "office_name_kana": null
  },
  "2335": {
    "zip_code": "5152335",
    "prefecture": "三重県",
    "prefecture_kana": "ミエケン",
    "prefecture_code": "24",
    "city": "松阪市",
    "city_kana": "マツサカシ",
    "town": "嬉野算所町",
    "town_kana": "ウレシノサンジョチョウ",
    "street": null,
    "office_name": null,
    "office_name_kana": null
  },
  "2341": {
    "zip_code": "5152341",
    "prefecture": "三重県",
    "prefecture_kana": "ミエケン",
    "prefecture_code": "24",
    "city": "松阪市",
    "city_kana": "マツサカシ",
    "town": "小野町",
    "town_kana": "オオノチョウ",
    "street": null,
    "office_name": null,
    "office_name_kana": null
  },
  "2342": {
    "zip_code": "5152342",
    "prefecture": "三重県",
    "prefecture_kana": "ミエケン",
    "prefecture_code": "24",
    "city": "松阪市",
    "city_kana": "マツサカシ",
    "town": "大阿坂町",
    "town_kana": "オオアザカチョウ",
    "street": null,
    "office_name": null,
    "office_name_kana": null
  },
  "2343": {
    "zip_code": "5152343",
    "prefecture": "三重県",
    "prefecture_kana": "ミエケン",
    "prefecture_code": "24",
    "city": "松阪市",
    "city_kana": "マツサカシ",
    "town": "小阿坂町",
    "town_kana": "コアザカチョウ",
    "street": null,
    "office_name": null,
    "office_name_kana": null
  },
  "2344": {
    "zip_code": "5152344",
    "prefecture": "三重県",
    "prefecture_kana": "ミエケン",
    "prefecture_code": "24",
    "city": "松阪市",
    "city_kana": "マツサカシ",
    "town": "美濃田町",
    "town_kana": "ミノダチョウ",
    "street": null,
    "office_name": null,
    "office_name_kana": null
  },
  "2351": {
    "zip_code": "5152351",
    "prefecture": "三重県",
    "prefecture_kana": "ミエケン",
    "prefecture_code": "24",
    "city": "松阪市",
    "city_kana": "マツサカシ",
    "town": "嬉野井之上町",
    "town_kana": "ウレシノイノウエチョウ",
    "street": null,
    "office_name": null,
    "office_name_kana": null
  },
  "2352": {
    "zip_code": "5152352",
    "prefecture": "三重県",
    "prefecture_kana": "ミエケン",
    "prefecture_code": "24",
    "city": "松阪市",
    "city_kana": "マツサカシ",
    "town": "嬉野八田町",
    "town_kana": "ウレシノハッタチョウ",
    "street": null,
    "office_name": null,
    "office_name_kana": null
  },
  "2353": {
    "zip_code": "5152353",
    "prefecture": "三重県",
    "prefecture_kana": "ミエケン",
    "prefecture_code": "24",
    "city": "松阪市",
    "city_kana": "マツサカシ",
    "town": "嬉野堀之内町",
    "town_kana": "ウレシノホリノウチチョウ",
    "street": null,
    "office_name": null,
    "office_name_kana": null
  },
  "2354": {
    "zip_code": "5152354",
    "prefecture": "三重県",
    "prefecture_kana": "ミエケン",
    "prefecture_code": "24",
    "city": "松阪市",
    "city_kana": "マツサカシ",
    "town": "嬉野下之庄町",
    "town_kana": "ウレシノシモノショウチョウ",
    "street": null,
    "office_name": null,
    "office_name_kana": null
  },
  "2355": {
    "zip_code": "5152355",
    "prefecture": "三重県",
    "prefecture_kana": "ミエケン",
    "prefecture_code": "24",
    "city": "松阪市",
    "city_kana": "マツサカシ",
    "town": "嬉野薬王寺町",
    "town_kana": "ウレシノヤクオウジチョウ",
    "street": null,
    "office_name": null,
    "office_name_kana": null
  },
  "2356": {
    "zip_code": "5152356",
    "prefecture": "三重県",
    "prefecture_kana": "ミエケン",
    "prefecture_code": "24",
    "city": "松阪市",
    "city_kana": "マツサカシ",
    "town": "嬉野上野町",
    "town_kana": "ウレシノウエノチョウ",
    "street": null,
    "office_name": null,
    "office_name_kana": null
  },
  "2357": {
    "zip_code": "5152357",
    "prefecture": "三重県",
    "prefecture_kana": "ミエケン",
    "prefecture_code": "24",
    "city": "松阪市",
    "city_kana": "マツサカシ",
    "town": "嬉野神ノ木町",
    "town_kana": "ウレシノカミノキチョウ",
    "street": null,
    "office_name": null,
    "office_name_kana": null
  },
  "2401": {
    "zip_code": "5152401",
    "prefecture": "三重県",
    "prefecture_kana": "ミエケン",
    "prefecture_code": "24",
    "city": "松阪市",
    "city_kana": "マツサカシ",
    "town": "嬉野釜生田町",
    "town_kana": "ウレシノカモダチョウ",
    "street": null,
    "office_name": null,
    "office_name_kana": null
  },
  "2402": {
    "zip_code": "5152402",
    "prefecture": "三重県",
    "prefecture_kana": "ミエケン",
    "prefecture_code": "24",
    "city": "松阪市",
    "city_kana": "マツサカシ",
    "town": "嬉野森本町",
    "town_kana": "ウレシノモリモトチョウ",
    "street": null,
    "office_name": null,
    "office_name_kana": null
  },
  "2403": {
    "zip_code": "5152403",
    "prefecture": "三重県",
    "prefecture_kana": "ミエケン",
    "prefecture_code": "24",
    "city": "松阪市",
    "city_kana": "マツサカシ",
    "town": "嬉野岩倉町",
    "town_kana": "ウレシノイワクラチョウ",
    "street": null,
    "office_name": null,
    "office_name_kana": null
  },
  "2404": {
    "zip_code": "5152404",
    "prefecture": "三重県",
    "prefecture_kana": "ミエケン",
    "prefecture_code": "24",
    "city": "松阪市",
    "city_kana": "マツサカシ",
    "town": "嬉野上小川町",
    "town_kana": "ウレシノカミオガワチョウ",
    "street": null,
    "office_name": null,
    "office_name_kana": null
  },
  "2405": {
    "zip_code": "5152405",
    "prefecture": "三重県",
    "prefecture_kana": "ミエケン",
    "prefecture_code": "24",
    "city": "松阪市",
    "city_kana": "マツサカシ",
    "town": "嬉野小原町",
    "town_kana": "ウレシノオハラチョウ",
    "street": null,
    "office_name": null,
    "office_name_kana": null
  },
  "2406": {
    "zip_code": "5152406",
    "prefecture": "三重県",
    "prefecture_kana": "ミエケン",
    "prefecture_code": "24",
    "city": "松阪市",
    "city_kana": "マツサカシ",
    "town": "嬉野合ケ野町",
    "town_kana": "ウレシノゴガノチョウ",
    "street": null,
    "office_name": null,
    "office_name_kana": null
  },
  "2407": {
    "zip_code": "5152407",
    "prefecture": "三重県",
    "prefecture_kana": "ミエケン",
    "prefecture_code": "24",
    "city": "松阪市",
    "city_kana": "マツサカシ",
    "town": "嬉野矢下町",
    "town_kana": "ウレシノヤオロシチョウ",
    "street": null,
    "office_name": null,
    "office_name_kana": null
  },
  "2408": {
    "zip_code": "5152408",
    "prefecture": "三重県",
    "prefecture_kana": "ミエケン",
    "prefecture_code": "24",
    "city": "松阪市",
    "city_kana": "マツサカシ",
    "town": "嬉野宮野町",
    "town_kana": "ウレシノミヤノチョウ",
    "street": null,
    "office_name": null,
    "office_name_kana": null
  },
  "2409": {
    "zip_code": "5152409",
    "prefecture": "三重県",
    "prefecture_kana": "ミエケン",
    "prefecture_code": "24",
    "city": "松阪市",
    "city_kana": "マツサカシ",
    "town": "嬉野滝之川町",
    "town_kana": "ウレシノタキノガワチョウ",
    "street": null,
    "office_name": null,
    "office_name_kana": null
  },
  "2411": {
    "zip_code": "5152411",
    "prefecture": "三重県",
    "prefecture_kana": "ミエケン",
    "prefecture_code": "24",
    "city": "松阪市",
    "city_kana": "マツサカシ",
    "town": "与原町",
    "town_kana": "ヨハラチョウ",
    "street": null,
    "office_name": null,
    "office_name_kana": null
  },
  "2412": {
    "zip_code": "5152412",
    "prefecture": "三重県",
    "prefecture_kana": "ミエケン",
    "prefecture_code": "24",
    "city": "松阪市",
    "city_kana": "マツサカシ",
    "town": "飯福田町",
    "town_kana": "イフタチョウ",
    "street": null,
    "office_name": null,
    "office_name_kana": null
  },
  "2413": {
    "zip_code": "5152413",
    "prefecture": "三重県",
    "prefecture_kana": "ミエケン",
    "prefecture_code": "24",
    "city": "松阪市",
    "city_kana": "マツサカシ",
    "town": "後山町",
    "town_kana": "ウシロヤマチョウ",
    "street": null,
    "office_name": null,
    "office_name_kana": null
  },
  "2414": {
    "zip_code": "5152414",
    "prefecture": "三重県",
    "prefecture_kana": "ミエケン",
    "prefecture_code": "24",
    "city": "松阪市",
    "city_kana": "マツサカシ",
    "town": "柚原町",
    "town_kana": "ユノハラチョウ",
    "street": null,
    "office_name": null,
    "office_name_kana": null
  },
  "2501": {
    "zip_code": "5152501",
    "prefecture": "三重県",
    "prefecture_kana": "ミエケン",
    "prefecture_code": "24",
    "city": "津市",
    "city_kana": "ツシ",
    "town": "一志町庄村",
    "town_kana": "イチシチョウショウムラ",
    "street": null,
    "office_name": null,
    "office_name_kana": null
  },
  "2502": {
    "zip_code": "5152502",
    "prefecture": "三重県",
    "prefecture_kana": "ミエケン",
    "prefecture_code": "24",
    "city": "津市",
    "city_kana": "ツシ",
    "town": "一志町其村",
    "town_kana": "イチシチョウソノムラ",
    "street": null,
    "office_name": null,
    "office_name_kana": null
  },
  "2503": {
    "zip_code": "5152503",
    "prefecture": "三重県",
    "prefecture_kana": "ミエケン",
    "prefecture_code": "24",
    "city": "津市",
    "city_kana": "ツシ",
    "town": "一志町日置",
    "town_kana": "イチシチョウヒオキ",
    "street": null,
    "office_name": null,
    "office_name_kana": null
  },
  "2504": [
    {
      "zip_code": "5152504",
      "prefecture": "三重県",
      "prefecture_kana": "ミエケン",
      "prefecture_code": "24",
      "city": "津市",
      "city_kana": "ツシ",
      "town": "一志町高野",
      "town_kana": "イチシチョウタカノ",
      "street": null,
      "office_name": null,
      "office_name_kana": null
    },
    {
      "zip_code": "5152504",
      "prefecture": "三重県",
      "prefecture_kana": "ミエケン",
      "prefecture_code": "24",
      "city": "津市",
      "city_kana": "ツシ",
      "town": "一志町高野高野団地",
      "town_kana": "イチシチョウタカノタカノダンチ",
      "street": null,
      "office_name": null,
      "office_name_kana": null
    },
    {
      "zip_code": "5152504",
      "prefecture": "三重県",
      "prefecture_kana": "ミエケン",
      "prefecture_code": "24",
      "city": "津市",
      "city_kana": "ツシ",
      "town": "一志町高野野田",
      "town_kana": "イチシチョウタカノノダ",
      "street": null,
      "office_name": null,
      "office_name_kana": null
    }
  ],
  "2505": {
    "zip_code": "5152505",
    "prefecture": "三重県",
    "prefecture_kana": "ミエケン",
    "prefecture_code": "24",
    "city": "津市",
    "city_kana": "ツシ",
    "town": "一志町小戸木",
    "town_kana": "イチシチョウコベキ",
    "street": null,
    "office_name": null,
    "office_name_kana": null
  },
  "2511": {
    "zip_code": "5152511",
    "prefecture": "三重県",
    "prefecture_kana": "ミエケン",
    "prefecture_code": "24",
    "city": "津市",
    "city_kana": "ツシ",
    "town": "一志町片野",
    "town_kana": "イチシチョウカタノ",
    "street": null,
    "office_name": null,
    "office_name_kana": null
  },
  "2512": {
    "zip_code": "5152512",
    "prefecture": "三重県",
    "prefecture_kana": "ミエケン",
    "prefecture_code": "24",
    "city": "津市",
    "city_kana": "ツシ",
    "town": "一志町新沢田",
    "town_kana": "イチシチョウシンサワダ",
    "street": null,
    "office_name": null,
    "office_name_kana": null
  },
  "2513": {
    "zip_code": "5152513",
    "prefecture": "三重県",
    "prefecture_kana": "ミエケン",
    "prefecture_code": "24",
    "city": "津市",
    "city_kana": "ツシ",
    "town": "一志町虹が丘",
    "town_kana": "イチシチョウニジガオカ",
    "street": null,
    "office_name": null,
    "office_name_kana": null
  },
  "2514": [
    {
      "zip_code": "5152514",
      "prefecture": "三重県",
      "prefecture_kana": "ミエケン",
      "prefecture_code": "24",
      "city": "津市",
      "city_kana": "ツシ",
      "town": "一志町小山",
      "town_kana": "イチシチョウオヤマ",
      "street": null,
      "office_name": null,
      "office_name_kana": null
    },
    {
      "zip_code": "5152514",
      "prefecture": "三重県",
      "prefecture_kana": "ミエケン",
      "prefecture_code": "24",
      "city": "津市",
      "city_kana": "ツシ",
      "town": "一志町小山小山台地",
      "town_kana": "イチシチョウオヤマオヤマダイチ",
      "street": null,
      "office_name": null,
      "office_name_kana": null
    }
  ],
  "2515": [
    {
      "zip_code": "5152515",
      "prefecture": "三重県",
      "prefecture_kana": "ミエケン",
      "prefecture_code": "24",
      "city": "津市",
      "city_kana": "ツシ",
      "town": "一志町八太",
      "town_kana": "イチシチョウハタ",
      "street": null,
      "office_name": null,
      "office_name_kana": null
    },
    {
      "zip_code": "5152515",
      "prefecture": "三重県",
      "prefecture_kana": "ミエケン",
      "prefecture_code": "24",
      "city": "津市",
      "city_kana": "ツシ",
      "town": "一志町八太一志団地",
      "town_kana": "イチシチョウハタイチシダンチ",
      "street": null,
      "office_name": null,
      "office_name_kana": null
    }
  ],
  "2516": {
    "zip_code": "5152516",
    "prefecture": "三重県",
    "prefecture_kana": "ミエケン",
    "prefecture_code": "24",
    "city": "津市",
    "city_kana": "ツシ",
    "town": "一志町田尻",
    "town_kana": "イチシチョウタジリ",
    "street": null,
    "office_name": null,
    "office_name_kana": null
  },
  "2517": {
    "zip_code": "5152517",
    "prefecture": "三重県",
    "prefecture_kana": "ミエケン",
    "prefecture_code": "24",
    "city": "津市",
    "city_kana": "ツシ",
    "town": "一志町みのりケ丘",
    "town_kana": "イチシチョウミノリガオカ",
    "street": null,
    "office_name": null,
    "office_name_kana": null
  },
  "2521": {
    "zip_code": "5152521",
    "prefecture": "三重県",
    "prefecture_kana": "ミエケン",
    "prefecture_code": "24",
    "city": "津市",
    "city_kana": "ツシ",
    "town": "一志町井関",
    "town_kana": "イチシチョウイセギ",
    "street": null,
    "office_name": null,
    "office_name_kana": null
  },
  "2522": {
    "zip_code": "5152522",
    "prefecture": "三重県",
    "prefecture_kana": "ミエケン",
    "prefecture_code": "24",
    "city": "津市",
    "city_kana": "ツシ",
    "town": "一志町波瀬",
    "town_kana": "イチシチョウハゼ",
    "street": null,
    "office_name": null,
    "office_name_kana": null
  },
  "2523": {
    "zip_code": "5152523",
    "prefecture": "三重県",
    "prefecture_kana": "ミエケン",
    "prefecture_code": "24",
    "city": "津市",
    "city_kana": "ツシ",
    "town": "一志町井生",
    "town_kana": "イチシチョウイウ",
    "street": null,
    "office_name": null,
    "office_name_kana": null
  },
  "2524": {
    "zip_code": "5152524",
    "prefecture": "三重県",
    "prefecture_kana": "ミエケン",
    "prefecture_code": "24",
    "city": "津市",
    "city_kana": "ツシ",
    "town": "一志町大仰",
    "town_kana": "イチシチョウオオノキ",
    "street": null,
    "office_name": null,
    "office_name_kana": null
  },
  "2525": {
    "zip_code": "5152525",
    "prefecture": "三重県",
    "prefecture_kana": "ミエケン",
    "prefecture_code": "24",
    "city": "津市",
    "city_kana": "ツシ",
    "town": "一志町石橋",
    "town_kana": "イチシチョウイシバシ",
    "street": null,
    "office_name": null,
    "office_name_kana": null
  },
  "2526": {
    "zip_code": "5152526",
    "prefecture": "三重県",
    "prefecture_kana": "ミエケン",
    "prefecture_code": "24",
    "city": "津市",
    "city_kana": "ツシ",
    "town": "一志町其倉",
    "town_kana": "イチシチョウソノクラ",
    "street": null,
    "office_name": null,
    "office_name_kana": null
  },
  "2592": {
    "zip_code": "5152592",
    "prefecture": "三重県",
    "prefecture_kana": "ミエケン",
    "prefecture_code": "24",
    "city": "津市",
    "city_kana": "ツシ",
    "town": "一志町田尻",
    "town_kana": "イチシチョウタジリ",
    "street": "４２０",
    "office_name": "株式会社　おやつカンパニー",
    "office_name_kana": "カブシキガイシヤ オヤツカンパニ-"
  },
  "2601": {
    "zip_code": "5152601",
    "prefecture": "三重県",
    "prefecture_kana": "ミエケン",
    "prefecture_code": "24",
    "city": "津市",
    "city_kana": "ツシ",
    "town": "白山町三ケ野",
    "town_kana": "ハクサンチョウミツガノ",
    "street": null,
    "office_name": null,
    "office_name_kana": null
  },
  "2602": {
    "zip_code": "5152602",
    "prefecture": "三重県",
    "prefecture_kana": "ミエケン",
    "prefecture_code": "24",
    "city": "津市",
    "city_kana": "ツシ",
    "town": "白山町二本木",
    "town_kana": "ハクサンチョウニホンギ",
    "street": null,
    "office_name": null,
    "office_name_kana": null
  },
  "2603": {
    "zip_code": "5152603",
    "prefecture": "三重県",
    "prefecture_kana": "ミエケン",
    "prefecture_code": "24",
    "city": "津市",
    "city_kana": "ツシ",
    "town": "白山町川口",
    "town_kana": "ハクサンチョウカワグチ",
    "street": null,
    "office_name": null,
    "office_name_kana": null
  },
  "2604": {
    "zip_code": "5152604",
    "prefecture": "三重県",
    "prefecture_kana": "ミエケン",
    "prefecture_code": "24",
    "city": "津市",
    "city_kana": "ツシ",
    "town": "白山町岡",
    "town_kana": "ハクサンチョウオカ",
    "street": null,
    "office_name": null,
    "office_name_kana": null
  },
  "2605": {
    "zip_code": "5152605",
    "prefecture": "三重県",
    "prefecture_kana": "ミエケン",
    "prefecture_code": "24",
    "city": "津市",
    "city_kana": "ツシ",
    "town": "白山台",
    "town_kana": "ハクサンダイ",
    "street": null,
    "office_name": null,
    "office_name_kana": null
  },
  "2611": {
    "zip_code": "5152611",
    "prefecture": "三重県",
    "prefecture_kana": "ミエケン",
    "prefecture_code": "24",
    "city": "津市",
    "city_kana": "ツシ",
    "town": "白山町南出",
    "town_kana": "ハクサンチョウミナミデ",
    "street": null,
    "office_name": null,
    "office_name_kana": null
  },
  "2612": {
    "zip_code": "5152612",
    "prefecture": "三重県",
    "prefecture_kana": "ミエケン",
    "prefecture_code": "24",
    "city": "津市",
    "city_kana": "ツシ",
    "town": "白山町古市",
    "town_kana": "ハクサンチョウフルイチ",
    "street": null,
    "office_name": null,
    "office_name_kana": null
  },
  "2613": {
    "zip_code": "5152613",
    "prefecture": "三重県",
    "prefecture_kana": "ミエケン",
    "prefecture_code": "24",
    "city": "津市",
    "city_kana": "ツシ",
    "town": "白山町山田野",
    "town_kana": "ハクサンチョウヤマダノ",
    "street": null,
    "office_name": null,
    "office_name_kana": null
  },
  "2614": {
    "zip_code": "5152614",
    "prefecture": "三重県",
    "prefecture_kana": "ミエケン",
    "prefecture_code": "24",
    "city": "津市",
    "city_kana": "ツシ",
    "town": "白山町伊勢見",
    "town_kana": "ハクサンチョウイセミ",
    "street": null,
    "office_name": null,
    "office_name_kana": null
  },
  "2615": {
    "zip_code": "5152615",
    "prefecture": "三重県",
    "prefecture_kana": "ミエケン",
    "prefecture_code": "24",
    "city": "津市",
    "city_kana": "ツシ",
    "town": "白山町八対野",
    "town_kana": "ハクサンチョウハッタイノ",
    "street": null,
    "office_name": null,
    "office_name_kana": null
  },
  "2616": {
    "zip_code": "5152616",
    "prefecture": "三重県",
    "prefecture_kana": "ミエケン",
    "prefecture_code": "24",
    "city": "津市",
    "city_kana": "ツシ",
    "town": "白山町稲垣",
    "town_kana": "ハクサンチョウイナカケ",
    "street": null,
    "office_name": null,
    "office_name_kana": null
  },
  "2617": {
    "zip_code": "5152617",
    "prefecture": "三重県",
    "prefecture_kana": "ミエケン",
    "prefecture_code": "24",
    "city": "津市",
    "city_kana": "ツシ",
    "town": "グリンタウン榊原",
    "town_kana": "グリンタウンサカキバラ",
    "street": null,
    "office_name": null,
    "office_name_kana": null
  },
  "2621": {
    "zip_code": "5152621",
    "prefecture": "三重県",
    "prefecture_kana": "ミエケン",
    "prefecture_code": "24",
    "city": "津市",
    "city_kana": "ツシ",
    "town": "白山町佐田",
    "town_kana": "ハクサンチョウサダ",
    "street": null,
    "office_name": null,
    "office_name_kana": null
  },
  "2622": {
    "zip_code": "5152622",
    "prefecture": "三重県",
    "prefecture_kana": "ミエケン",
    "prefecture_code": "24",
    "city": "津市",
    "city_kana": "ツシ",
    "town": "白山町中ノ村",
    "town_kana": "ハクサンチョウナカノムラ",
    "street": null,
    "office_name": null,
    "office_name_kana": null
  },
  "2623": {
    "zip_code": "5152623",
    "prefecture": "三重県",
    "prefecture_kana": "ミエケン",
    "prefecture_code": "24",
    "city": "津市",
    "city_kana": "ツシ",
    "town": "白山町上ノ村",
    "town_kana": "ハクサンチョウカミノムラ",
    "street": null,
    "office_name": null,
    "office_name_kana": null
  },
  "2624": {
    "zip_code": "5152624",
    "prefecture": "三重県",
    "prefecture_kana": "ミエケン",
    "prefecture_code": "24",
    "city": "津市",
    "city_kana": "ツシ",
    "town": "白山町垣内",
    "town_kana": "ハクサンチョウカイト",
    "street": null,
    "office_name": null,
    "office_name_kana": null
  },
  "2692": {
    "zip_code": "5152692",
    "prefecture": "三重県",
    "prefecture_kana": "ミエケン",
    "prefecture_code": "24",
    "city": "津市",
    "city_kana": "ツシ",
    "town": "白山町八対野",
    "town_kana": "ハクサンチョウハッタイノ",
    "street": "２７３９",
    "office_name": "日生学園第二高等学校",
    "office_name_kana": "ニツセイガクエンダイニコウトウガツコウ"
  },
  "2693": {
    "zip_code": "5152693",
    "prefecture": "三重県",
    "prefecture_kana": "ミエケン",
    "prefecture_code": "24",
    "city": "津市",
    "city_kana": "ツシ",
    "town": "白山町川口",
    "town_kana": "ハクサンチョウカワグチ",
    "street": "８９２",
    "office_name": "津市役所　白山総合支所",
    "office_name_kana": "ツシヤクシヨ ハクサンソウゴウシシヨ"
  },
  "3131": {
    "zip_code": "5153131",
    "prefecture": "三重県",
    "prefecture_kana": "ミエケン",
    "prefecture_code": "24",
    "city": "津市",
    "city_kana": "ツシ",
    "town": "白山町藤",
    "town_kana": "ハクサンチョウフジ",
    "street": null,
    "office_name": null,
    "office_name_kana": null
  },
  "3132": {
    "zip_code": "5153132",
    "prefecture": "三重県",
    "prefecture_kana": "ミエケン",
    "prefecture_code": "24",
    "city": "津市",
    "city_kana": "ツシ",
    "town": "白山町北家城",
    "town_kana": "ハクサンチョウキタイエキ",
    "street": null,
    "office_name": null,
    "office_name_kana": null
  },
  "3133": {
    "zip_code": "5153133",
    "prefecture": "三重県",
    "prefecture_kana": "ミエケン",
    "prefecture_code": "24",
    "city": "津市",
    "city_kana": "ツシ",
    "town": "白山町南家城",
    "town_kana": "ハクサンチョウミナミイエキ",
    "street": null,
    "office_name": null,
    "office_name_kana": null
  },
  "3134": {
    "zip_code": "5153134",
    "prefecture": "三重県",
    "prefecture_kana": "ミエケン",
    "prefecture_code": "24",
    "city": "津市",
    "city_kana": "ツシ",
    "town": "白山町真見",
    "town_kana": "ハクサンチョウマミ",
    "street": null,
    "office_name": null,
    "office_name_kana": null
  },
  "3135": {
    "zip_code": "5153135",
    "prefecture": "三重県",
    "prefecture_kana": "ミエケン",
    "prefecture_code": "24",
    "city": "津市",
    "city_kana": "ツシ",
    "town": "白山町二俣",
    "town_kana": "ハクサンチョウフタマタ",
    "street": null,
    "office_name": null,
    "office_name_kana": null
  },
  "3136": {
    "zip_code": "5153136",
    "prefecture": "三重県",
    "prefecture_kana": "ミエケン",
    "prefecture_code": "24",
    "city": "津市",
    "city_kana": "ツシ",
    "town": "白山町福田山",
    "town_kana": "ハクサンチョウフクタヤマ",
    "street": null,
    "office_name": null,
    "office_name_kana": null
  },
  "3137": {
    "zip_code": "5153137",
    "prefecture": "三重県",
    "prefecture_kana": "ミエケン",
    "prefecture_code": "24",
    "city": "津市",
    "city_kana": "ツシ",
    "town": "白山町大原",
    "town_kana": "ハクサンチョウオオバラ",
    "street": null,
    "office_name": null,
    "office_name_kana": null
  },
  "3138": {
    "zip_code": "5153138",
    "prefecture": "三重県",
    "prefecture_kana": "ミエケン",
    "prefecture_code": "24",
    "city": "津市",
    "city_kana": "ツシ",
    "town": "白山町小杉",
    "town_kana": "ハクサンチョウコスギ",
    "street": null,
    "office_name": null,
    "office_name_kana": null
  },
  "3139": {
    "zip_code": "5153139",
    "prefecture": "三重県",
    "prefecture_kana": "ミエケン",
    "prefecture_code": "24",
    "city": "津市",
    "city_kana": "ツシ",
    "town": "白山町城立",
    "town_kana": "ハクサンチョウジョウリュウ",
    "street": null,
    "office_name": null,
    "office_name_kana": null
  },
  "3201": {
    "zip_code": "5153201",
    "prefecture": "三重県",
    "prefecture_kana": "ミエケン",
    "prefecture_code": "24",
    "city": "津市",
    "city_kana": "ツシ",
    "town": "美杉町竹原",
    "town_kana": "ミスギチョウタケハラ",
    "street": null,
    "office_name": null,
    "office_name_kana": null
  },
  "3202": {
    "zip_code": "5153202",
    "prefecture": "三重県",
    "prefecture_kana": "ミエケン",
    "prefecture_code": "24",
    "city": "津市",
    "city_kana": "ツシ",
    "town": "美杉町八手俣",
    "town_kana": "ミスギチョウハテマタ",
    "street": null,
    "office_name": null,
    "office_name_kana": null
  },
  "3203": {
    "zip_code": "5153203",
    "prefecture": "三重県",
    "prefecture_kana": "ミエケン",
    "prefecture_code": "24",
    "city": "津市",
    "city_kana": "ツシ",
    "town": "美杉町下之川",
    "town_kana": "ミスギチョウシモノガワ",
    "street": null,
    "office_name": null,
    "office_name_kana": null
  },
  "3311": {
    "zip_code": "5153311",
    "prefecture": "三重県",
    "prefecture_kana": "ミエケン",
    "prefecture_code": "24",
    "city": "津市",
    "city_kana": "ツシ",
    "town": "美杉町下多気",
    "town_kana": "ミスギチョウシモタゲ",
    "street": null,
    "office_name": null,
    "office_name_kana": null
  },
  "3312": {
    "zip_code": "5153312",
    "prefecture": "三重県",
    "prefecture_kana": "ミエケン",
    "prefecture_code": "24",
    "city": "津市",
    "city_kana": "ツシ",
    "town": "美杉町上多気",
    "town_kana": "ミスギチョウカミタゲ",
    "street": null,
    "office_name": null,
    "office_name_kana": null
  },
  "3313": {
    "zip_code": "5153313",
    "prefecture": "三重県",
    "prefecture_kana": "ミエケン",
    "prefecture_code": "24",
    "city": "津市",
    "city_kana": "ツシ",
    "town": "美杉町丹生俣",
    "town_kana": "ミスギチョウニュウノマタ",
    "street": null,
    "office_name": null,
    "office_name_kana": null
  },
  "3421": {
    "zip_code": "5153421",
    "prefecture": "三重県",
    "prefecture_kana": "ミエケン",
    "prefecture_code": "24",
    "city": "津市",
    "city_kana": "ツシ",
    "town": "美杉町八知",
    "town_kana": "ミスギチョウヤチ",
    "street": null,
    "office_name": null,
    "office_name_kana": null
  },
  "3531": {
    "zip_code": "5153531",
    "prefecture": "三重県",
    "prefecture_kana": "ミエケン",
    "prefecture_code": "24",
    "city": "津市",
    "city_kana": "ツシ",
    "town": "美杉町奥津",
    "town_kana": "ミスギチョウオキツ",
    "street": null,
    "office_name": null,
    "office_name_kana": null
  },
  "3532": {
    "zip_code": "5153532",
    "prefecture": "三重県",
    "prefecture_kana": "ミエケン",
    "prefecture_code": "24",
    "city": "津市",
    "city_kana": "ツシ",
    "town": "美杉町川上",
    "town_kana": "ミスギチョウカワカミ",
    "street": null,
    "office_name": null,
    "office_name_kana": null
  },
  "3533": {
    "zip_code": "5153533",
    "prefecture": "三重県",
    "prefecture_kana": "ミエケン",
    "prefecture_code": "24",
    "city": "津市",
    "city_kana": "ツシ",
    "town": "美杉町石名原",
    "town_kana": "ミスギチョウイシナハラ",
    "street": null,
    "office_name": null,
    "office_name_kana": null
  },
  "3534": {
    "zip_code": "5153534",
    "prefecture": "三重県",
    "prefecture_kana": "ミエケン",
    "prefecture_code": "24",
    "city": "津市",
    "city_kana": "ツシ",
    "town": "美杉町杉平",
    "town_kana": "ミスギチョウスギヒラ",
    "street": null,
    "office_name": null,
    "office_name_kana": null
  },
  "3535": {
    "zip_code": "5153535",
    "prefecture": "三重県",
    "prefecture_kana": "ミエケン",
    "prefecture_code": "24",
    "city": "津市",
    "city_kana": "ツシ",
    "town": "美杉町三多気",
    "town_kana": "ミスギチョウミタケ",
    "street": null,
    "office_name": null,
    "office_name_kana": null
  },
  "3536": {
    "zip_code": "5153536",
    "prefecture": "三重県",
    "prefecture_kana": "ミエケン",
    "prefecture_code": "24",
    "city": "津市",
    "city_kana": "ツシ",
    "town": "美杉町太郎生",
    "town_kana": "ミスギチョウタロオ",
    "street": null,
    "office_name": null,
    "office_name_kana": null
  },
  "8501": {
    "zip_code": "5158501",
    "prefecture": "三重県",
    "prefecture_kana": "ミエケン",
    "prefecture_code": "24",
    "city": "松阪市",
    "city_kana": "マツサカシ",
    "town": "大口町",
    "town_kana": "オオクチチョウ",
    "street": "１８５−１",
    "office_name": "マックスバリュー中部　株式会社",
    "office_name_kana": "マツクスバリユ-チユウブ カブシキガイシヤ"
  },
  "8503": {
    "zip_code": "5158503",
    "prefecture": "三重県",
    "prefecture_kana": "ミエケン",
    "prefecture_code": "24",
    "city": "松阪市",
    "city_kana": "マツサカシ",
    "town": "久保町",
    "town_kana": "クボチョウ",
    "street": "１８５５−３７０",
    "office_name": "オムロンヘルスケア　株式会社　松阪事業所",
    "office_name_kana": "オムロンヘルスケア カブシキガイシヤ マツサカジギヨウシヨ"
  },
  "8505": {
    "zip_code": "5158505",
    "prefecture": "三重県",
    "prefecture_kana": "ミエケン",
    "prefecture_code": "24",
    "city": "松阪市",
    "city_kana": "マツサカシ",
    "town": "丹生寺町",
    "town_kana": "ニュウデラチョウ",
    "street": "１５０−２（松阪郵便局私書箱第１０号）",
    "office_name": "（有）　パンジィ",
    "office_name_kana": "(ユウ) パンジイ"
  },
  "8509": {
    "zip_code": "5158509",
    "prefecture": "三重県",
    "prefecture_kana": "ミエケン",
    "prefecture_code": "24",
    "city": "松阪市",
    "city_kana": "マツサカシ",
    "town": "高町",
    "town_kana": "タカマチ",
    "street": "４９３番地６",
    "office_name": "松阪公共職業安定所",
    "office_name_kana": "マツザカコウキヨウシヨクギヨウアンテイジヨ"
  },
  "8510": {
    "zip_code": "5158510",
    "prefecture": "三重県",
    "prefecture_kana": "ミエケン",
    "prefecture_code": "24",
    "city": "松阪市",
    "city_kana": "マツサカシ",
    "town": "高町",
    "town_kana": "タカマチ",
    "street": "４９３番地６",
    "office_name": "津地方法務局　松阪支局",
    "office_name_kana": "ツチホウホウムキヨク マツザカシキヨク"
  },
  "8511": {
    "zip_code": "5158511",
    "prefecture": "三重県",
    "prefecture_kana": "ミエケン",
    "prefecture_code": "24",
    "city": "松阪市",
    "city_kana": "マツサカシ",
    "town": "久保町",
    "town_kana": "クボチョウ",
    "street": "１８４６",
    "office_name": "三重中京大学",
    "office_name_kana": "ミエチユウキヨウダイガク"
  },
  "8513": {
    "zip_code": "5158513",
    "prefecture": "三重県",
    "prefecture_kana": "ミエケン",
    "prefecture_code": "24",
    "city": "松阪市",
    "city_kana": "マツサカシ",
    "town": "大口町",
    "town_kana": "オオクチチョウ",
    "street": "字新地１６７２−７",
    "office_name": "ヤマモリ　株式会社　松阪工場",
    "office_name_kana": "ヤマモリ カブシキガイシヤ マツサカコウジヨウ"
  },
  "8515": {
    "zip_code": "5158515",
    "prefecture": "三重県",
    "prefecture_kana": "ミエケン",
    "prefecture_code": "24",
    "city": "松阪市",
    "city_kana": "マツサカシ",
    "town": "殿町",
    "town_kana": "トノマチ",
    "street": "１３４０−１",
    "office_name": "松阪市役所",
    "office_name_kana": "マツサカシヤクシヨ"
  },
  "8522": {
    "zip_code": "5158522",
    "prefecture": "三重県",
    "prefecture_kana": "ミエケン",
    "prefecture_code": "24",
    "city": "松阪市",
    "city_kana": "マツサカシ",
    "town": "久保町",
    "town_kana": "クボチョウ",
    "street": "１８４６",
    "office_name": "三重中京大学短期大学部",
    "office_name_kana": "ミエチユウキヨウダイガクタンキダイガクブ"
  },
  "8525": {
    "zip_code": "5158525",
    "prefecture": "三重県",
    "prefecture_kana": "ミエケン",
    "prefecture_code": "24",
    "city": "松阪市",
    "city_kana": "マツサカシ",
    "town": "中央町",
    "town_kana": "チュウオウチョウ",
    "street": "３６−１",
    "office_name": "津地方裁判所　松阪支部",
    "office_name_kana": "ツチホウサイバンシヨ マツサカシブ"
  },
  "8530": {
    "zip_code": "5158530",
    "prefecture": "三重県",
    "prefecture_kana": "ミエケン",
    "prefecture_code": "24",
    "city": "松阪市",
    "city_kana": "マツサカシ",
    "town": "京町",
    "town_kana": "キョウマチ",
    "street": "５１０（松阪郵便局私書箱第１１号）",
    "office_name": "株式会社　第三銀行",
    "office_name_kana": "カブシキガイシヤ ダイサンギンコウ"
  },
  "8533": {
    "zip_code": "5158533",
    "prefecture": "三重県",
    "prefecture_kana": "ミエケン",
    "prefecture_code": "24",
    "city": "松阪市",
    "city_kana": "マツサカシ",
    "town": "久保町",
    "town_kana": "クボチョウ",
    "street": "１２３２",
    "office_name": "三重高等学校",
    "office_name_kana": "ミエコウトウガツコウ"
  },
  "8550": {
    "zip_code": "5158550",
    "prefecture": "三重県",
    "prefecture_kana": "ミエケン",
    "prefecture_code": "24",
    "city": "松阪市",
    "city_kana": "マツサカシ",
    "town": "高町",
    "town_kana": "タカマチ",
    "street": "４９３番地６",
    "office_name": "松阪税務署",
    "office_name_kana": "マツザカゼイムシヨ"
  },
  "8555": {
    "zip_code": "5158555",
    "prefecture": "三重県",
    "prefecture_kana": "ミエケン",
    "prefecture_code": "24",
    "city": "松阪市",
    "city_kana": "マツサカシ",
    "town": "上川町",
    "town_kana": "ウエガワチョウ",
    "street": "字大黒２４６０−１",
    "office_name": "パナソニックエレクトロニックデバイス　株式会社",
    "office_name_kana": "パナソニツクエレクトロニツクデバイス カブシキガイシヤ"
  },
  "8557": {
    "zip_code": "5158557",
    "prefecture": "三重県",
    "prefecture_kana": null,
    "prefecture_code": null,
    "city": "松阪市",
    "city_kana": null,
    "town": "朝日町１区",
    "town_kana": null,
    "street": "１５−６",
    "office_name": "済生会　松阪総合病院",
    "office_name_kana": "サイセイカイ マツサカソウゴウビヨウイン"
  },
  "8558": {
    "zip_code": "5158558",
    "prefecture": "三重県",
    "prefecture_kana": "ミエケン",
    "prefecture_code": "24",
    "city": "松阪市",
    "city_kana": "マツサカシ",
    "town": "大津町",
    "town_kana": "オオツチョウ",
    "street": "１６０７−１",
    "office_name": "宇野重工　株式会社",
    "office_name_kana": "ウノジユウコウ カブシキガイシヤ"
  },
  "8566": {
    "zip_code": "5158566",
    "prefecture": "三重県",
    "prefecture_kana": "ミエケン",
    "prefecture_code": "24",
    "city": "松阪市",
    "city_kana": "マツサカシ",
    "town": "川井町",
    "town_kana": "カワイマチ",
    "street": "字小望１０２",
    "office_name": "松阪中央総合病院",
    "office_name_kana": "マツサカチユウオウソウゴウビヨウイン"
  },
  "8567": {
    "zip_code": "5158567",
    "prefecture": "三重県",
    "prefecture_kana": "ミエケン",
    "prefecture_code": "24",
    "city": "松阪市",
    "city_kana": "マツサカシ",
    "town": "長月町",
    "town_kana": "チョウゲツチョウ",
    "street": "８８−３０",
    "office_name": "株式会社　オークワ",
    "office_name_kana": "カブシキガイシヤ オ-クワ"
  },
  "8577": {
    "zip_code": "5158577",
    "prefecture": "三重県",
    "prefecture_kana": "ミエケン",
    "prefecture_code": "24",
    "city": "松阪市",
    "city_kana": "マツサカシ",
    "town": "垣鼻町",
    "town_kana": "カイバナチョウ",
    "street": "１６６４",
    "office_name": "三重県立松阪高等学校",
    "office_name_kana": "ミエケンリツマツサカコウトウガツコウ"
  },
  "8585": {
    "zip_code": "5158585",
    "prefecture": "三重県",
    "prefecture_kana": "ミエケン",
    "prefecture_code": "24",
    "city": "松阪市",
    "city_kana": "マツサカシ",
    "town": "京町",
    "town_kana": "キョウマチ",
    "street": "５０９−２",
    "office_name": "株式会社　三交百貨店",
    "office_name_kana": "カブシキガイシヤ サンコウヒヤツカテン"
  },
  "8586": {
    "zip_code": "5158586",
    "prefecture": "三重県",
    "prefecture_kana": null,
    "prefecture_code": null,
    "city": "松阪市",
    "city_kana": null,
    "town": "朝日町１区",
    "town_kana": null,
    "street": "１６−６",
    "office_name": "三重信用金庫",
    "office_name_kana": "ミエシンヨウキンコ"
  },
  "8588": {
    "zip_code": "5158588",
    "prefecture": "三重県",
    "prefecture_kana": "ミエケン",
    "prefecture_code": "24",
    "city": "松阪市",
    "city_kana": "マツサカシ",
    "town": "中町",
    "town_kana": "ナカマチ",
    "street": "１８７８",
    "office_name": "和田金",
    "office_name_kana": "ワダキン"
  },
  "8688": {
    "zip_code": "5158688",
    "prefecture": "三重県",
    "prefecture_kana": "ミエケン",
    "prefecture_code": "24",
    "city": "松阪市",
    "city_kana": "マツサカシ",
    "town": "中央町",
    "town_kana": "チュウオウチョウ",
    "street": "３８−１７（松阪郵便局私書箱第２号）",
    "office_name": "株式会社　中部ハーバー",
    "office_name_kana": "カブシキガイシヤ チユウブハ-バ-"
  }
}