{
  "0000": {
    "zip_code": "5210000",
    "prefecture": "滋賀県",
    "prefecture_kana": "シガケン",
    "prefecture_code": "25",
    "city": "米原市",
    "city_kana": "マイバラシ",
    "town": "",
    "town_kana": "",
    "street": null,
    "office_name": null,
    "office_name_kana": null
  },
  "0001": {
    "zip_code": "5210001",
    "prefecture": "滋賀県",
    "prefecture_kana": "シガケン",
    "prefecture_code": "25",
    "city": "米原市",
    "city_kana": "マイバラシ",
    "town": "朝妻筑摩",
    "town_kana": "アサヅマチクマ",
    "street": null,
    "office_name": null,
    "office_name_kana": null
  },
  "0002": {
    "zip_code": "5210002",
    "prefecture": "滋賀県",
    "prefecture_kana": "シガケン",
    "prefecture_code": "25",
    "city": "米原市",
    "city_kana": "マイバラシ",
    "town": "上多良",
    "town_kana": "カミタラ",
    "street": null,
    "office_name": null,
    "office_name_kana": null
  },
  "0003": {
    "zip_code": "5210003",
    "prefecture": "滋賀県",
    "prefecture_kana": "シガケン",
    "prefecture_code": "25",
    "city": "米原市",
    "city_kana": "マイバラシ",
    "town": "入江",
    "town_kana": "イリエ",
    "street": null,
    "office_name": null,
    "office_name_kana": null
  },
  "0004": {
    "zip_code": "5210004",
    "prefecture": "滋賀県",
    "prefecture_kana": "シガケン",
    "prefecture_code": "25",
    "city": "米原市",
    "city_kana": "マイバラシ",
    "town": "磯",
    "town_kana": "イソ",
    "street": null,
    "office_name": null,
    "office_name_kana": null
  },
  "0011": {
    "zip_code": "5210011",
    "prefecture": "滋賀県",
    "prefecture_kana": "シガケン",
    "prefecture_code": "25",
    "city": "米原市",
    "city_kana": "マイバラシ",
    "town": "中多良",
    "town_kana": "ナカタラ",
    "street": null,
    "office_name": null,
    "office_name_kana": null
  },
  "0012": {
    "zip_code": "5210012",
    "prefecture": "滋賀県",
    "prefecture_kana": "シガケン",
    "prefecture_code": "25",
    "city": "米原市",
    "city_kana": "マイバラシ",
    "town": "米原",
    "town_kana": "マイハラ",
    "street": null,
    "office_name": null,
    "office_name_kana": null
  },
  "0013": {
    "zip_code": "5210013",
    "prefecture": "滋賀県",
    "prefecture_kana": "シガケン",
    "prefecture_code": "25",
    "city": "米原市",
    "city_kana": "マイバラシ",
    "town": "梅ケ原",
    "town_kana": "ウメガハラ",
    "street": null,
    "office_name": null,
    "office_name_kana": null
  },
  "0014": {
    "zip_code": "5210014",
    "prefecture": "滋賀県",
    "prefecture_kana": "シガケン",
    "prefecture_code": "25",
    "city": "米原市",
    "city_kana": "マイバラシ",
    "town": "梅ケ原栄",
    "town_kana": "ウメガハラサカエ",
    "street": null,
    "office_name": null,
    "office_name_kana": null
  },
  "0015": {
    "zip_code": "5210015",
    "prefecture": "滋賀県",
    "prefecture_kana": "シガケン",
    "prefecture_code": "25",
    "city": "米原市",
    "city_kana": "マイバラシ",
    "town": "米原西",
    "town_kana": "マイバラニシ",
    "street": null,
    "office_name": null,
    "office_name_kana": null
  },
  "0016": {
    "zip_code": "5210016",
    "prefecture": "滋賀県",
    "prefecture_kana": "シガケン",
    "prefecture_code": "25",
    "city": "米原市",
    "city_kana": "マイバラシ",
    "town": "下多良",
    "town_kana": "シモタラ",
    "street": null,
    "office_name": null,
    "office_name_kana": null
  },
  "0021": {
    "zip_code": "5210021",
    "prefecture": "滋賀県",
    "prefecture_kana": "シガケン",
    "prefecture_code": "25",
    "city": "米原市",
    "city_kana": "マイバラシ",
    "town": "河南",
    "town_kana": "カワナミ",
    "street": null,
    "office_name": null,
    "office_name_kana": null
  },
  "0022": {
    "zip_code": "5210022",
    "prefecture": "滋賀県",
    "prefecture_kana": "シガケン",
    "prefecture_code": "25",
    "city": "米原市",
    "city_kana": "マイバラシ",
    "town": "樋口",
    "town_kana": "ヒグチ",
    "street": null,
    "office_name": null,
    "office_name_kana": null
  },
  "0023": {
    "zip_code": "5210023",
    "prefecture": "滋賀県",
    "prefecture_kana": "シガケン",
    "prefecture_code": "25",
    "city": "米原市",
    "city_kana": "マイバラシ",
    "town": "三吉",
    "town_kana": "ミヨシ",
    "street": null,
    "office_name": null,
    "office_name_kana": null
  },
  "0024": {
    "zip_code": "5210024",
    "prefecture": "滋賀県",
    "prefecture_kana": "シガケン",
    "prefecture_code": "25",
    "city": "米原市",
    "city_kana": "マイバラシ",
    "town": "西坂",
    "town_kana": "ニシサカ",
    "street": null,
    "office_name": null,
    "office_name_kana": null
  },
  "0025": {
    "zip_code": "5210025",
    "prefecture": "滋賀県",
    "prefecture_kana": "シガケン",
    "prefecture_code": "25",
    "city": "米原市",
    "city_kana": "マイバラシ",
    "town": "番場",
    "town_kana": "バンバ",
    "street": null,
    "office_name": null,
    "office_name_kana": null
  },
  "0031": {
    "zip_code": "5210031",
    "prefecture": "滋賀県",
    "prefecture_kana": "シガケン",
    "prefecture_code": "25",
    "city": "米原市",
    "city_kana": "マイバラシ",
    "town": "一色",
    "town_kana": "イッシキ",
    "street": null,
    "office_name": null,
    "office_name_kana": null
  },
  "0032": {
    "zip_code": "5210032",
    "prefecture": "滋賀県",
    "prefecture_kana": "シガケン",
    "prefecture_code": "25",
    "city": "米原市",
    "city_kana": "マイバラシ",
    "town": "枝折",
    "town_kana": "シオリ",
    "street": null,
    "office_name": null,
    "office_name_kana": null
  },
  "0033": {
    "zip_code": "5210033",
    "prefecture": "滋賀県",
    "prefecture_kana": "シガケン",
    "prefecture_code": "25",
    "city": "米原市",
    "city_kana": "マイバラシ",
    "town": "上丹生",
    "town_kana": "カミニュウ",
    "street": null,
    "office_name": null,
    "office_name_kana": null
  },
  "0034": {
    "zip_code": "5210034",
    "prefecture": "滋賀県",
    "prefecture_kana": "シガケン",
    "prefecture_code": "25",
    "city": "米原市",
    "city_kana": "マイバラシ",
    "town": "下丹生",
    "town_kana": "シモニュウ",
    "street": null,
    "office_name": null,
    "office_name_kana": null
  },
  "0035": {
    "zip_code": "5210035",
    "prefecture": "滋賀県",
    "prefecture_kana": "シガケン",
    "prefecture_code": "25",
    "city": "米原市",
    "city_kana": "マイバラシ",
    "town": "醒井",
    "town_kana": "サメガイ",
    "street": null,
    "office_name": null,
    "office_name_kana": null
  },
  "0061": {
    "zip_code": "5210061",
    "prefecture": "滋賀県",
    "prefecture_kana": "シガケン",
    "prefecture_code": "25",
    "city": "米原市",
    "city_kana": "マイバラシ",
    "town": "長沢",
    "town_kana": "ナガサワ",
    "street": null,
    "office_name": null,
    "office_name_kana": null
  },
  "0062": {
    "zip_code": "5210062",
    "prefecture": "滋賀県",
    "prefecture_kana": "シガケン",
    "prefecture_code": "25",
    "city": "米原市",
    "city_kana": "マイバラシ",
    "town": "宇賀野",
    "town_kana": "ウカノ",
    "street": null,
    "office_name": null,
    "office_name_kana": null
  },
  "0063": {
    "zip_code": "5210063",
    "prefecture": "滋賀県",
    "prefecture_kana": "シガケン",
    "prefecture_code": "25",
    "city": "米原市",
    "city_kana": "マイバラシ",
    "town": "飯",
    "town_kana": "イ",
    "street": null,
    "office_name": null,
    "office_name_kana": null
  },
  "0064": {
    "zip_code": "5210064",
    "prefecture": "滋賀県",
    "prefecture_kana": "シガケン",
    "prefecture_code": "25",
    "city": "米原市",
    "city_kana": "マイバラシ",
    "town": "世継",
    "town_kana": "ヨツギ",
    "street": null,
    "office_name": null,
    "office_name_kana": null
  },
  "0071": {
    "zip_code": "5210071",
    "prefecture": "滋賀県",
    "prefecture_kana": "シガケン",
    "prefecture_code": "25",
    "city": "米原市",
    "city_kana": "マイバラシ",
    "town": "舟崎",
    "town_kana": "フナサキ",
    "street": null,
    "office_name": null,
    "office_name_kana": null
  },
  "0072": {
    "zip_code": "5210072",
    "prefecture": "滋賀県",
    "prefecture_kana": "シガケン",
    "prefecture_code": "25",
    "city": "米原市",
    "city_kana": "マイバラシ",
    "town": "顔戸",
    "town_kana": "ゴウド",
    "street": null,
    "office_name": null,
    "office_name_kana": null
  },
  "0073": {
    "zip_code": "5210073",
    "prefecture": "滋賀県",
    "prefecture_kana": "シガケン",
    "prefecture_code": "25",
    "city": "米原市",
    "city_kana": "マイバラシ",
    "town": "箕浦",
    "town_kana": "ミノウラ",
    "street": null,
    "office_name": null,
    "office_name_kana": null
  },
  "0074": {
    "zip_code": "5210074",
    "prefecture": "滋賀県",
    "prefecture_kana": "シガケン",
    "prefecture_code": "25",
    "city": "米原市",
    "city_kana": "マイバラシ",
    "town": "高溝",
    "town_kana": "タカミゾ",
    "street": null,
    "office_name": null,
    "office_name_kana": null
  },
  "0081": {
    "zip_code": "5210081",
    "prefecture": "滋賀県",
    "prefecture_kana": "シガケン",
    "prefecture_code": "25",
    "city": "米原市",
    "city_kana": "マイバラシ",
    "town": "多和田",
    "town_kana": "タワダ",
    "street": null,
    "office_name": null,
    "office_name_kana": null
  },
  "0082": {
    "zip_code": "5210082",
    "prefecture": "滋賀県",
    "prefecture_kana": "シガケン",
    "prefecture_code": "25",
    "city": "米原市",
    "city_kana": "マイバラシ",
    "town": "能登瀬",
    "town_kana": "ノトセ",
    "street": null,
    "office_name": null,
    "office_name_kana": null
  },
  "0083": {
    "zip_code": "5210083",
    "prefecture": "滋賀県",
    "prefecture_kana": "シガケン",
    "prefecture_code": "25",
    "city": "米原市",
    "city_kana": "マイバラシ",
    "town": "新庄",
    "town_kana": "シンジョウ",
    "street": null,
    "office_name": null,
    "office_name_kana": null
  },
  "0084": {
    "zip_code": "5210084",
    "prefecture": "滋賀県",
    "prefecture_kana": "シガケン",
    "prefecture_code": "25",
    "city": "米原市",
    "city_kana": "マイバラシ",
    "town": "日光寺",
    "town_kana": "ニッコウジ",
    "street": null,
    "office_name": null,
    "office_name_kana": null
  },
  "0091": {
    "zip_code": "5210091",
    "prefecture": "滋賀県",
    "prefecture_kana": "シガケン",
    "prefecture_code": "25",
    "city": "米原市",
    "city_kana": "マイバラシ",
    "town": "岩脇",
    "town_kana": "イオギ",
    "street": null,
    "office_name": null,
    "office_name_kana": null
  },
  "0092": {
    "zip_code": "5210092",
    "prefecture": "滋賀県",
    "prefecture_kana": "シガケン",
    "prefecture_code": "25",
    "city": "米原市",
    "city_kana": "マイバラシ",
    "town": "西円寺",
    "town_kana": "サイエンジ",
    "street": null,
    "office_name": null,
    "office_name_kana": null
  },
  "0093": {
    "zip_code": "5210093",
    "prefecture": "滋賀県",
    "prefecture_kana": "シガケン",
    "prefecture_code": "25",
    "city": "米原市",
    "city_kana": "マイバラシ",
    "town": "寺倉",
    "town_kana": "テラクラ",
    "street": null,
    "office_name": null,
    "office_name_kana": null
  },
  "0201": {
    "zip_code": "5210201",
    "prefecture": "滋賀県",
    "prefecture_kana": "シガケン",
    "prefecture_code": "25",
    "city": "米原市",
    "city_kana": "マイバラシ",
    "town": "長久寺",
    "town_kana": "チョウキュウジ",
    "street": null,
    "office_name": null,
    "office_name_kana": null
  },
  "0202": {
    "zip_code": "5210202",
    "prefecture": "滋賀県",
    "prefecture_kana": "シガケン",
    "prefecture_code": "25",
    "city": "米原市",
    "city_kana": "マイバラシ",
    "town": "柏原",
    "town_kana": "カシワバラ",
    "street": null,
    "office_name": null,
    "office_name_kana": null
  },
  "0203": {
    "zip_code": "5210203",
    "prefecture": "滋賀県",
    "prefecture_kana": "シガケン",
    "prefecture_code": "25",
    "city": "米原市",
    "city_kana": "マイバラシ",
    "town": "清滝",
    "town_kana": "キヨタキ",
    "street": null,
    "office_name": null,
    "office_name_kana": null
  },
  "0211": {
    "zip_code": "5210211",
    "prefecture": "滋賀県",
    "prefecture_kana": "シガケン",
    "prefecture_code": "25",
    "city": "米原市",
    "city_kana": "マイバラシ",
    "town": "梓河内",
    "town_kana": "アンサカワチ",
    "street": null,
    "office_name": null,
    "office_name_kana": null
  },
  "0212": {
    "zip_code": "5210212",
    "prefecture": "滋賀県",
    "prefecture_kana": "シガケン",
    "prefecture_code": "25",
    "city": "米原市",
    "city_kana": "マイバラシ",
    "town": "本郷",
    "town_kana": "ホンゴウ",
    "street": null,
    "office_name": null,
    "office_name_kana": null
  },
  "0213": {
    "zip_code": "5210213",
    "prefecture": "滋賀県",
    "prefecture_kana": "シガケン",
    "prefecture_code": "25",
    "city": "米原市",
    "city_kana": "マイバラシ",
    "town": "堂谷",
    "town_kana": "ドウダニ",
    "street": null,
    "office_name": null,
    "office_name_kana": null
  },
  "0214": {
    "zip_code": "5210214",
    "prefecture": "滋賀県",
    "prefecture_kana": "シガケン",
    "prefecture_code": "25",
    "city": "米原市",
    "city_kana": "マイバラシ",
    "town": "大鹿",
    "town_kana": "オオシカ",
    "street": null,
    "office_name": null,
    "office_name_kana": null
  },
  "0215": {
    "zip_code": "5210215",
    "prefecture": "滋賀県",
    "prefecture_kana": "シガケン",
    "prefecture_code": "25",
    "city": "米原市",
    "city_kana": "マイバラシ",
    "town": "山室",
    "town_kana": "ヤマムロ",
    "street": null,
    "office_name": null,
    "office_name_kana": null
  },
  "0216": {
    "zip_code": "5210216",
    "prefecture": "滋賀県",
    "prefecture_kana": "シガケン",
    "prefecture_code": "25",
    "city": "米原市",
    "city_kana": "マイバラシ",
    "town": "菅江",
    "town_kana": "スエ",
    "street": null,
    "office_name": null,
    "office_name_kana": null
  },
  "0217": {
    "zip_code": "5210217",
    "prefecture": "滋賀県",
    "prefecture_kana": "シガケン",
    "prefecture_code": "25",
    "city": "米原市",
    "city_kana": "マイバラシ",
    "town": "北方",
    "town_kana": "キタガタ",
    "street": null,
    "office_name": null,
    "office_name_kana": null
  },
  "0218": {
    "zip_code": "5210218",
    "prefecture": "滋賀県",
    "prefecture_kana": "シガケン",
    "prefecture_code": "25",
    "city": "米原市",
    "city_kana": "マイバラシ",
    "town": "志賀谷",
    "town_kana": "シガヤ",
    "street": null,
    "office_name": null,
    "office_name_kana": null
  },
  "0219": {
    "zip_code": "5210219",
    "prefecture": "滋賀県",
    "prefecture_kana": "シガケン",
    "prefecture_code": "25",
    "city": "米原市",
    "city_kana": "マイバラシ",
    "town": "加勢野",
    "town_kana": "カセノ",
    "street": null,
    "office_name": null,
    "office_name_kana": null
  },
  "0221": {
    "zip_code": "5210221",
    "prefecture": "滋賀県",
    "prefecture_kana": "シガケン",
    "prefecture_code": "25",
    "city": "米原市",
    "city_kana": "マイバラシ",
    "town": "池下",
    "town_kana": "イケシタ",
    "street": null,
    "office_name": null,
    "office_name_kana": null
  },
  "0222": {
    "zip_code": "5210222",
    "prefecture": "滋賀県",
    "prefecture_kana": "シガケン",
    "prefecture_code": "25",
    "city": "米原市",
    "city_kana": "マイバラシ",
    "town": "天満",
    "town_kana": "テンマ",
    "street": null,
    "office_name": null,
    "office_name_kana": null
  },
  "0223": {
    "zip_code": "5210223",
    "prefecture": "滋賀県",
    "prefecture_kana": "シガケン",
    "prefecture_code": "25",
    "city": "米原市",
    "city_kana": "マイバラシ",
    "town": "本市場",
    "town_kana": "モトイチバ",
    "street": null,
    "office_name": null,
    "office_name_kana": null
  },
  "0224": {
    "zip_code": "5210224",
    "prefecture": "滋賀県",
    "prefecture_kana": "シガケン",
    "prefecture_code": "25",
    "city": "米原市",
    "city_kana": "マイバラシ",
    "town": "夫馬",
    "town_kana": "ブマ",
    "street": null,
    "office_name": null,
    "office_name_kana": null
  },
  "0225": {
    "zip_code": "5210225",
    "prefecture": "滋賀県",
    "prefecture_kana": "シガケン",
    "prefecture_code": "25",
    "city": "米原市",
    "city_kana": "マイバラシ",
    "town": "市場",
    "town_kana": "イチバ",
    "street": null,
    "office_name": null,
    "office_name_kana": null
  },
  "0226": {
    "zip_code": "5210226",
    "prefecture": "滋賀県",
    "prefecture_kana": "シガケン",
    "prefecture_code": "25",
    "city": "米原市",
    "city_kana": "マイバラシ",
    "town": "朝日",
    "town_kana": "アサヒ",
    "street": null,
    "office_name": null,
    "office_name_kana": null
  },
  "0227": {
    "zip_code": "5210227",
    "prefecture": "滋賀県",
    "prefecture_kana": "シガケン",
    "prefecture_code": "25",
    "city": "米原市",
    "city_kana": "マイバラシ",
    "town": "烏脇",
    "town_kana": "カラスワキ",
    "street": null,
    "office_name": null,
    "office_name_kana": null
  },
  "0231": {
    "zip_code": "5210231",
    "prefecture": "滋賀県",
    "prefecture_kana": "シガケン",
    "prefecture_code": "25",
    "city": "米原市",
    "city_kana": "マイバラシ",
    "town": "村居田",
    "town_kana": "ムライダ",
    "street": null,
    "office_name": null,
    "office_name_kana": null
  },
  "0232": {
    "zip_code": "5210232",
    "prefecture": "滋賀県",
    "prefecture_kana": "シガケン",
    "prefecture_code": "25",
    "city": "米原市",
    "city_kana": "マイバラシ",
    "town": "坂口",
    "town_kana": "サカグチ",
    "street": null,
    "office_name": null,
    "office_name_kana": null
  },
  "0233": {
    "zip_code": "5210233",
    "prefecture": "滋賀県",
    "prefecture_kana": "シガケン",
    "prefecture_code": "25",
    "city": "米原市",
    "city_kana": "マイバラシ",
    "town": "野一色",
    "town_kana": "ノイシキ",
    "street": null,
    "office_name": null,
    "office_name_kana": null
  },
  "0234": {
    "zip_code": "5210234",
    "prefecture": "滋賀県",
    "prefecture_kana": "シガケン",
    "prefecture_code": "25",
    "city": "米原市",
    "city_kana": "マイバラシ",
    "town": "井之口",
    "town_kana": "イノクチ",
    "street": null,
    "office_name": null,
    "office_name_kana": null
  },
  "0235": {
    "zip_code": "5210235",
    "prefecture": "滋賀県",
    "prefecture_kana": "シガケン",
    "prefecture_code": "25",
    "city": "米原市",
    "city_kana": "マイバラシ",
    "town": "小田",
    "town_kana": "ヤナイダ",
    "street": null,
    "office_name": null,
    "office_name_kana": null
  },
  "0236": {
    "zip_code": "5210236",
    "prefecture": "滋賀県",
    "prefecture_kana": "シガケン",
    "prefecture_code": "25",
    "city": "米原市",
    "city_kana": "マイバラシ",
    "town": "間田",
    "town_kana": "ハサマタ",
    "street": null,
    "office_name": null,
    "office_name_kana": null
  },
  "0241": {
    "zip_code": "5210241",
    "prefecture": "滋賀県",
    "prefecture_kana": "シガケン",
    "prefecture_code": "25",
    "city": "米原市",
    "city_kana": "マイバラシ",
    "town": "西山",
    "town_kana": "ニシヤマ",
    "street": null,
    "office_name": null,
    "office_name_kana": null
  },
  "0242": {
    "zip_code": "5210242",
    "prefecture": "滋賀県",
    "prefecture_kana": "シガケン",
    "prefecture_code": "25",
    "city": "米原市",
    "city_kana": "マイバラシ",
    "town": "長岡",
    "town_kana": "ナガオカ",
    "street": null,
    "office_name": null,
    "office_name_kana": null
  },
  "0243": {
    "zip_code": "5210243",
    "prefecture": "滋賀県",
    "prefecture_kana": "シガケン",
    "prefecture_code": "25",
    "city": "米原市",
    "city_kana": "マイバラシ",
    "town": "万願寺",
    "town_kana": "マンガンジ",
    "street": null,
    "office_name": null,
    "office_name_kana": null
  },
  "0244": {
    "zip_code": "5210244",
    "prefecture": "滋賀県",
    "prefecture_kana": "シガケン",
    "prefecture_code": "25",
    "city": "米原市",
    "city_kana": "マイバラシ",
    "town": "大野木",
    "town_kana": "オオノギ",
    "street": null,
    "office_name": null,
    "office_name_kana": null
  },
  "0245": {
    "zip_code": "5210245",
    "prefecture": "滋賀県",
    "prefecture_kana": "シガケン",
    "prefecture_code": "25",
    "city": "米原市",
    "city_kana": "マイバラシ",
    "town": "須川",
    "town_kana": "スガワ",
    "street": null,
    "office_name": null,
    "office_name_kana": null
  },
  "0292": {
    "zip_code": "5210292",
    "prefecture": "滋賀県",
    "prefecture_kana": "シガケン",
    "prefecture_code": "25",
    "city": "米原市",
    "city_kana": "マイバラシ",
    "town": "長岡",
    "town_kana": "ナガオカ",
    "street": "１２０６",
    "office_name": "米原市役所　山東庁舎",
    "office_name_kana": "マイバラシヤクシヨ サントウチヨウシヤ"
  },
  "0301": {
    "zip_code": "5210301",
    "prefecture": "滋賀県",
    "prefecture_kana": "シガケン",
    "prefecture_code": "25",
    "city": "米原市",
    "city_kana": "マイバラシ",
    "town": "甲津原",
    "town_kana": "コウヅハラ",
    "street": null,
    "office_name": null,
    "office_name_kana": null
  },
  "0302": {
    "zip_code": "5210302",
    "prefecture": "滋賀県",
    "prefecture_kana": "シガケン",
    "prefecture_code": "25",
    "city": "米原市",
    "city_kana": "マイバラシ",
    "town": "曲谷",
    "town_kana": "マガタニ",
    "street": null,
    "office_name": null,
    "office_name_kana": null
  },
  "0303": {
    "zip_code": "5210303",
    "prefecture": "滋賀県",
    "prefecture_kana": "シガケン",
    "prefecture_code": "25",
    "city": "米原市",
    "city_kana": "マイバラシ",
    "town": "甲賀",
    "town_kana": "コウガ",
    "street": null,
    "office_name": null,
    "office_name_kana": null
  },
  "0304": {
    "zip_code": "5210304",
    "prefecture": "滋賀県",
    "prefecture_kana": "シガケン",
    "prefecture_code": "25",
    "city": "米原市",
    "city_kana": "マイバラシ",
    "town": "吉槻",
    "town_kana": "ヨシツキ",
    "street": null,
    "office_name": null,
    "office_name_kana": null
  },
  "0305": {
    "zip_code": "5210305",
    "prefecture": "滋賀県",
    "prefecture_kana": "シガケン",
    "prefecture_code": "25",
    "city": "米原市",
    "city_kana": "マイバラシ",
    "town": "上板並",
    "town_kana": "カミイタナミ",
    "street": null,
    "office_name": null,
    "office_name_kana": null
  },
  "0306": {
    "zip_code": "5210306",
    "prefecture": "滋賀県",
    "prefecture_kana": "シガケン",
    "prefecture_code": "25",
    "city": "米原市",
    "city_kana": "マイバラシ",
    "town": "下板並",
    "town_kana": "シモイタナミ",
    "street": null,
    "office_name": null,
    "office_name_kana": null
  },
  "0307": {
    "zip_code": "5210307",
    "prefecture": "滋賀県",
    "prefecture_kana": "シガケン",
    "prefecture_code": "25",
    "city": "米原市",
    "city_kana": "マイバラシ",
    "town": "大久保",
    "town_kana": "オオクボ",
    "street": null,
    "office_name": null,
    "office_name_kana": null
  },
  "0308": {
    "zip_code": "5210308",
    "prefecture": "滋賀県",
    "prefecture_kana": "シガケン",
    "prefecture_code": "25",
    "city": "米原市",
    "city_kana": "マイバラシ",
    "town": "小泉",
    "town_kana": "コイズミ",
    "street": null,
    "office_name": null,
    "office_name_kana": null
  },
  "0311": {
    "zip_code": "5210311",
    "prefecture": "滋賀県",
    "prefecture_kana": "シガケン",
    "prefecture_code": "25",
    "city": "米原市",
    "city_kana": "マイバラシ",
    "town": "伊吹",
    "town_kana": "イブキ",
    "street": null,
    "office_name": null,
    "office_name_kana": null
  },
  "0312": {
    "zip_code": "5210312",
    "prefecture": "滋賀県",
    "prefecture_kana": "シガケン",
    "prefecture_code": "25",
    "city": "米原市",
    "city_kana": "マイバラシ",
    "town": "上野",
    "town_kana": "ウエノ",
    "street": null,
    "office_name": null,
    "office_name_kana": null
  },
  "0313": {
    "zip_code": "5210313",
    "prefecture": "滋賀県",
    "prefecture_kana": "シガケン",
    "prefecture_code": "25",
    "city": "米原市",
    "city_kana": "マイバラシ",
    "town": "弥高",
    "town_kana": "ヤタカ",
    "street": null,
    "office_name": null,
    "office_name_kana": null
  },
  "0314": {
    "zip_code": "5210314",
    "prefecture": "滋賀県",
    "prefecture_kana": "シガケン",
    "prefecture_code": "25",
    "city": "米原市",
    "city_kana": "マイバラシ",
    "town": "春照",
    "town_kana": "スイジョウ",
    "street": null,
    "office_name": null,
    "office_name_kana": null
  },
  "0321": {
    "zip_code": "5210321",
    "prefecture": "滋賀県",
    "prefecture_kana": "シガケン",
    "prefecture_code": "25",
    "city": "米原市",
    "city_kana": "マイバラシ",
    "town": "高番",
    "town_kana": "タカバン",
    "street": null,
    "office_name": null,
    "office_name_kana": null
  },
  "0322": {
    "zip_code": "5210322",
    "prefecture": "滋賀県",
    "prefecture_kana": "シガケン",
    "prefecture_code": "25",
    "city": "米原市",
    "city_kana": "マイバラシ",
    "town": "杉沢",
    "town_kana": "スギサワ",
    "street": null,
    "office_name": null,
    "office_name_kana": null
  },
  "0323": {
    "zip_code": "5210323",
    "prefecture": "滋賀県",
    "prefecture_kana": "シガケン",
    "prefecture_code": "25",
    "city": "米原市",
    "city_kana": "マイバラシ",
    "town": "村木",
    "town_kana": "ムラギ",
    "street": null,
    "office_name": null,
    "office_name_kana": null
  },
  "0324": {
    "zip_code": "5210324",
    "prefecture": "滋賀県",
    "prefecture_kana": "シガケン",
    "prefecture_code": "25",
    "city": "米原市",
    "city_kana": "マイバラシ",
    "town": "大清水",
    "town_kana": "オオシミズ",
    "street": null,
    "office_name": null,
    "office_name_kana": null
  },
  "0325": {
    "zip_code": "5210325",
    "prefecture": "滋賀県",
    "prefecture_kana": "シガケン",
    "prefecture_code": "25",
    "city": "米原市",
    "city_kana": "マイバラシ",
    "town": "藤川",
    "town_kana": "フジカワ",
    "street": null,
    "office_name": null,
    "office_name_kana": null
  },
  "0326": {
    "zip_code": "5210326",
    "prefecture": "滋賀県",
    "prefecture_kana": "シガケン",
    "prefecture_code": "25",
    "city": "米原市",
    "city_kana": "マイバラシ",
    "town": "寺林",
    "town_kana": "テラバヤシ",
    "street": null,
    "office_name": null,
    "office_name_kana": null
  },
  "0327": {
    "zip_code": "5210327",
    "prefecture": "滋賀県",
    "prefecture_kana": "シガケン",
    "prefecture_code": "25",
    "city": "米原市",
    "city_kana": "マイバラシ",
    "town": "上平寺",
    "town_kana": "ジョウヘイジ",
    "street": null,
    "office_name": null,
    "office_name_kana": null
  },
  "0392": {
    "zip_code": "5210392",
    "prefecture": "滋賀県",
    "prefecture_kana": "シガケン",
    "prefecture_code": "25",
    "city": "米原市",
    "city_kana": "マイバラシ",
    "town": "春照",
    "town_kana": "スイジョウ",
    "street": "４９０−１",
    "office_name": "米原市役所　伊吹庁舎",
    "office_name_kana": "マイバラシヤクシヨ イブキチヨウシヤ"
  },
  "1101": {
    "zip_code": "5211101",
    "prefecture": "滋賀県",
    "prefecture_kana": "シガケン",
    "prefecture_code": "25",
    "city": "彦根市",
    "city_kana": "ヒコネシ",
    "town": "石寺町",
    "town_kana": "イシデラチョウ",
    "street": null,
    "office_name": null,
    "office_name_kana": null
  },
  "1102": {
    "zip_code": "5211102",
    "prefecture": "滋賀県",
    "prefecture_kana": "シガケン",
    "prefecture_code": "25",
    "city": "彦根市",
    "city_kana": "ヒコネシ",
    "town": "下岡部町",
    "town_kana": "シモオカベチョウ",
    "street": null,
    "office_name": null,
    "office_name_kana": null
  },
  "1103": {
    "zip_code": "5211103",
    "prefecture": "滋賀県",
    "prefecture_kana": "シガケン",
    "prefecture_code": "25",
    "city": "彦根市",
    "city_kana": "ヒコネシ",
    "town": "上岡部町",
    "town_kana": "カミオカベチョウ",
    "street": null,
    "office_name": null,
    "office_name_kana": null
  },
  "1104": {
    "zip_code": "5211104",
    "prefecture": "滋賀県",
    "prefecture_kana": "シガケン",
    "prefecture_code": "25",
    "city": "彦根市",
    "city_kana": "ヒコネシ",
    "town": "出路町",
    "town_kana": "デッチチョウ",
    "street": null,
    "office_name": null,
    "office_name_kana": null
  },
  "1105": {
    "zip_code": "5211105",
    "prefecture": "滋賀県",
    "prefecture_kana": "シガケン",
    "prefecture_code": "25",
    "city": "彦根市",
    "city_kana": "ヒコネシ",
    "town": "田原町",
    "town_kana": "タワラチョウ",
    "street": null,
    "office_name": null,
    "office_name_kana": null
  },
  "1111": {
    "zip_code": "5211111",
    "prefecture": "滋賀県",
    "prefecture_kana": "シガケン",
    "prefecture_code": "25",
    "city": "彦根市",
    "city_kana": "ヒコネシ",
    "town": "稲里町",
    "town_kana": "イナサトチョウ",
    "street": null,
    "office_name": null,
    "office_name_kana": null
  },
  "1112": {
    "zip_code": "5211112",
    "prefecture": "滋賀県",
    "prefecture_kana": "シガケン",
    "prefecture_code": "25",
    "city": "彦根市",
    "city_kana": "ヒコネシ",
    "town": "金沢町",
    "town_kana": "カナザワチョウ",
    "street": null,
    "office_name": null,
    "office_name_kana": null
  },
  "1113": {
    "zip_code": "5211113",
    "prefecture": "滋賀県",
    "prefecture_kana": "シガケン",
    "prefecture_code": "25",
    "city": "彦根市",
    "city_kana": "ヒコネシ",
    "town": "稲部町",
    "town_kana": "イナベチョウ",
    "street": null,
    "office_name": null,
    "office_name_kana": null
  },
  "1114": {
    "zip_code": "5211114",
    "prefecture": "滋賀県",
    "prefecture_kana": "シガケン",
    "prefecture_code": "25",
    "city": "彦根市",
    "city_kana": "ヒコネシ",
    "town": "彦富町",
    "town_kana": "ヒコトミチョウ",
    "street": null,
    "office_name": null,
    "office_name_kana": null
  },
  "1115": {
    "zip_code": "5211115",
    "prefecture": "滋賀県",
    "prefecture_kana": "シガケン",
    "prefecture_code": "25",
    "city": "彦根市",
    "city_kana": "ヒコネシ",
    "town": "金田町",
    "town_kana": "カネダチョウ",
    "street": null,
    "office_name": null,
    "office_name_kana": null
  },
  "1121": {
    "zip_code": "5211121",
    "prefecture": "滋賀県",
    "prefecture_kana": "シガケン",
    "prefecture_code": "25",
    "city": "彦根市",
    "city_kana": "ヒコネシ",
    "town": "海瀬町",
    "town_kana": "カイゼチョウ",
    "street": null,
    "office_name": null,
    "office_name_kana": null
  },
  "1122": {
    "zip_code": "5211122",
    "prefecture": "滋賀県",
    "prefecture_kana": "シガケン",
    "prefecture_code": "25",
    "city": "彦根市",
    "city_kana": "ヒコネシ",
    "town": "三津町",
    "town_kana": "ミツチョウ",
    "street": null,
    "office_name": null,
    "office_name_kana": null
  },
  "1123": {
    "zip_code": "5211123",
    "prefecture": "滋賀県",
    "prefecture_kana": "シガケン",
    "prefecture_code": "25",
    "city": "彦根市",
    "city_kana": "ヒコネシ",
    "town": "肥田町",
    "town_kana": "ヒダチョウ",
    "street": null,
    "office_name": null,
    "office_name_kana": null
  },
  "1124": {
    "zip_code": "5211124",
    "prefecture": "滋賀県",
    "prefecture_kana": "シガケン",
    "prefecture_code": "25",
    "city": "彦根市",
    "city_kana": "ヒコネシ",
    "town": "野良田町",
    "town_kana": "ノラダチョウ",
    "street": null,
    "office_name": null,
    "office_name_kana": null
  },
  "1125": {
    "zip_code": "5211125",
    "prefecture": "滋賀県",
    "prefecture_kana": "シガケン",
    "prefecture_code": "25",
    "city": "彦根市",
    "city_kana": "ヒコネシ",
    "town": "稲枝町",
    "town_kana": "イナエチョウ",
    "street": null,
    "office_name": null,
    "office_name_kana": null
  },
  "1126": {
    "zip_code": "5211126",
    "prefecture": "滋賀県",
    "prefecture_kana": "シガケン",
    "prefecture_code": "25",
    "city": "彦根市",
    "city_kana": "ヒコネシ",
    "town": "服部町",
    "town_kana": "ハツトリチョウ",
    "street": null,
    "office_name": null,
    "office_name_kana": null
  },
  "1131": {
    "zip_code": "5211131",
    "prefecture": "滋賀県",
    "prefecture_kana": "シガケン",
    "prefecture_code": "25",
    "city": "彦根市",
    "city_kana": "ヒコネシ",
    "town": "上稲葉町",
    "town_kana": "カミイナバチョウ",
    "street": null,
    "office_name": null,
    "office_name_kana": null
  },
  "1132": {
    "zip_code": "5211132",
    "prefecture": "滋賀県",
    "prefecture_kana": "シガケン",
    "prefecture_code": "25",
    "city": "彦根市",
    "city_kana": "ヒコネシ",
    "town": "下稲葉町",
    "town_kana": "シモイナバチョウ",
    "street": null,
    "office_name": null,
    "office_name_kana": null
  },
  "1133": {
    "zip_code": "5211133",
    "prefecture": "滋賀県",
    "prefecture_kana": "シガケン",
    "prefecture_code": "25",
    "city": "彦根市",
    "city_kana": "ヒコネシ",
    "town": "本庄町",
    "town_kana": "ホンジョウチョウ",
    "street": null,
    "office_name": null,
    "office_name_kana": null
  },
  "1134": {
    "zip_code": "5211134",
    "prefecture": "滋賀県",
    "prefecture_kana": "シガケン",
    "prefecture_code": "25",
    "city": "彦根市",
    "city_kana": "ヒコネシ",
    "town": "田附町",
    "town_kana": "タヅケチョウ",
    "street": null,
    "office_name": null,
    "office_name_kana": null
  },
  "1135": {
    "zip_code": "5211135",
    "prefecture": "滋賀県",
    "prefecture_kana": "シガケン",
    "prefecture_code": "25",
    "city": "彦根市",
    "city_kana": "ヒコネシ",
    "town": "新海町",
    "town_kana": "シンガイチョウ",
    "street": null,
    "office_name": null,
    "office_name_kana": null
  },
  "1136": {
    "zip_code": "5211136",
    "prefecture": "滋賀県",
    "prefecture_kana": "シガケン",
    "prefecture_code": "25",
    "city": "彦根市",
    "city_kana": "ヒコネシ",
    "town": "新海浜",
    "town_kana": "シンガイハマ",
    "street": null,
    "office_name": null,
    "office_name_kana": null
  },
  "1141": {
    "zip_code": "5211141",
    "prefecture": "滋賀県",
    "prefecture_kana": "シガケン",
    "prefecture_code": "25",
    "city": "彦根市",
    "city_kana": "ヒコネシ",
    "town": "甲崎町",
    "town_kana": "コウザキチョウ",
    "street": null,
    "office_name": null,
    "office_name_kana": null
  },
  "1142": {
    "zip_code": "5211142",
    "prefecture": "滋賀県",
    "prefecture_kana": "シガケン",
    "prefecture_code": "25",
    "city": "彦根市",
    "city_kana": "ヒコネシ",
    "town": "下西川町",
    "town_kana": "シモニシガワチョウ",
    "street": null,
    "office_name": null,
    "office_name_kana": null
  },
  "1143": {
    "zip_code": "5211143",
    "prefecture": "滋賀県",
    "prefecture_kana": "シガケン",
    "prefecture_code": "25",
    "city": "彦根市",
    "city_kana": "ヒコネシ",
    "town": "上西川町",
    "town_kana": "カミニシガワチョウ",
    "street": null,
    "office_name": null,
    "office_name_kana": null
  },
  "1144": {
    "zip_code": "5211144",
    "prefecture": "滋賀県",
    "prefecture_kana": "シガケン",
    "prefecture_code": "25",
    "city": "彦根市",
    "city_kana": "ヒコネシ",
    "town": "普光寺町",
    "town_kana": "フコウジチョウ",
    "street": null,
    "office_name": null,
    "office_name_kana": null
  },
  "1145": {
    "zip_code": "5211145",
    "prefecture": "滋賀県",
    "prefecture_kana": "シガケン",
    "prefecture_code": "25",
    "city": "彦根市",
    "city_kana": "ヒコネシ",
    "town": "南三ツ谷町",
    "town_kana": "ミナミミツヤチョウ",
    "street": null,
    "office_name": null,
    "office_name_kana": null
  },
  "1146": {
    "zip_code": "5211146",
    "prefecture": "滋賀県",
    "prefecture_kana": "シガケン",
    "prefecture_code": "25",
    "city": "彦根市",
    "city_kana": "ヒコネシ",
    "town": "柳川町",
    "town_kana": "ヤナガワチョウ",
    "street": null,
    "office_name": null,
    "office_name_kana": null
  },
  "1147": {
    "zip_code": "5211147",
    "prefecture": "滋賀県",
    "prefecture_kana": "シガケン",
    "prefecture_code": "25",
    "city": "彦根市",
    "city_kana": "ヒコネシ",
    "town": "薩摩町",
    "town_kana": "サツマチョウ",
    "street": null,
    "office_name": null,
    "office_name_kana": null
  },
  "1192": {
    "zip_code": "5211192",
    "prefecture": "滋賀県",
    "prefecture_kana": "シガケン",
    "prefecture_code": "25",
    "city": "彦根市",
    "city_kana": "ヒコネシ",
    "town": "彦富町",
    "town_kana": "ヒコトミチョウ",
    "street": "１５４２",
    "office_name": "タカタ　株式会社　彦根製造所",
    "office_name_kana": "タカタ カブシキガイシヤ ヒコネセイゾウシヨ"
  },
  "1201": {
    "zip_code": "5211201",
    "prefecture": "滋賀県",
    "prefecture_kana": "シガケン",
    "prefecture_code": "25",
    "city": "東近江市",
    "city_kana": "ヒガシオウミシ",
    "town": "新宮町",
    "town_kana": "シングウチョウ",
    "street": null,
    "office_name": null,
    "office_name_kana": null
  },
  "1202": {
    "zip_code": "5211202",
    "prefecture": "滋賀県",
    "prefecture_kana": "シガケン",
    "prefecture_code": "25",
    "city": "東近江市",
    "city_kana": "ヒガシオウミシ",
    "town": "阿弥陀堂町",
    "town_kana": "アミダドウチョウ",
    "street": null,
    "office_name": null,
    "office_name_kana": null
  },
  "1203": {
    "zip_code": "5211203",
    "prefecture": "滋賀県",
    "prefecture_kana": "シガケン",
    "prefecture_code": "25",
    "city": "東近江市",
    "city_kana": "ヒガシオウミシ",
    "town": "川南町",
    "town_kana": "カワミナミチョウ",
    "street": null,
    "office_name": null,
    "office_name_kana": null
  },
  "1204": {
    "zip_code": "5211204",
    "prefecture": "滋賀県",
    "prefecture_kana": "シガケン",
    "prefecture_code": "25",
    "city": "東近江市",
    "city_kana": "ヒガシオウミシ",
    "town": "小川町",
    "town_kana": "オガワチョウ",
    "street": null,
    "office_name": null,
    "office_name_kana": null
  },
  "1205": {
    "zip_code": "5211205",
    "prefecture": "滋賀県",
    "prefecture_kana": "シガケン",
    "prefecture_code": "25",
    "city": "東近江市",
    "city_kana": "ヒガシオウミシ",
    "town": "躰光寺町",
    "town_kana": "タイコウジチョウ",
    "street": null,
    "office_name": null,
    "office_name_kana": null
  },
  "1211": {
    "zip_code": "5211211",
    "prefecture": "滋賀県",
    "prefecture_kana": "シガケン",
    "prefecture_code": "25",
    "city": "東近江市",
    "city_kana": "ヒガシオウミシ",
    "town": "今町",
    "town_kana": "イマチョウ",
    "street": null,
    "office_name": null,
    "office_name_kana": null
  },
  "1212": {
    "zip_code": "5211212",
    "prefecture": "滋賀県",
    "prefecture_kana": "シガケン",
    "prefecture_code": "25",
    "city": "東近江市",
    "city_kana": "ヒガシオウミシ",
    "town": "種町",
    "town_kana": "タネチョウ",
    "street": null,
    "office_name": null,
    "office_name_kana": null
  },
  "1213": {
    "zip_code": "5211213",
    "prefecture": "滋賀県",
    "prefecture_kana": "シガケン",
    "prefecture_code": "25",
    "city": "東近江市",
    "city_kana": "ヒガシオウミシ",
    "town": "神郷町",
    "town_kana": "ジンゴウチョウ",
    "street": null,
    "office_name": null,
    "office_name_kana": null
  },
  "1214": {
    "zip_code": "5211214",
    "prefecture": "滋賀県",
    "prefecture_kana": "シガケン",
    "prefecture_code": "25",
    "city": "東近江市",
    "city_kana": "ヒガシオウミシ",
    "town": "長勝寺町",
    "town_kana": "チョウショウジチョウ",
    "street": null,
    "office_name": null,
    "office_name_kana": null
  },
  "1215": {
    "zip_code": "5211215",
    "prefecture": "滋賀県",
    "prefecture_kana": "シガケン",
    "prefecture_code": "25",
    "city": "東近江市",
    "city_kana": "ヒガシオウミシ",
    "town": "佐生町",
    "town_kana": "サソチョウ",
    "street": null,
    "office_name": null,
    "office_name_kana": null
  },
  "1221": {
    "zip_code": "5211221",
    "prefecture": "滋賀県",
    "prefecture_kana": "シガケン",
    "prefecture_code": "25",
    "city": "東近江市",
    "city_kana": "ヒガシオウミシ",
    "town": "垣見町",
    "town_kana": "カキミチョウ",
    "street": null,
    "office_name": null,
    "office_name_kana": null
  },
  "1222": {
    "zip_code": "5211222",
    "prefecture": "滋賀県",
    "prefecture_kana": "シガケン",
    "prefecture_code": "25",
    "city": "東近江市",
    "city_kana": "ヒガシオウミシ",
    "town": "佐野町",
    "town_kana": "サノチョウ",
    "street": null,
    "office_name": null,
    "office_name_kana": null
  },
  "1223": {
    "zip_code": "5211223",
    "prefecture": "滋賀県",
    "prefecture_kana": "シガケン",
    "prefecture_code": "25",
    "city": "東近江市",
    "city_kana": "ヒガシオウミシ",
    "town": "猪子町",
    "town_kana": "イノコチョウ",
    "street": null,
    "office_name": null,
    "office_name_kana": null
  },
  "1224": {
    "zip_code": "5211224",
    "prefecture": "滋賀県",
    "prefecture_kana": "シガケン",
    "prefecture_code": "25",
    "city": "東近江市",
    "city_kana": "ヒガシオウミシ",
    "town": "林町",
    "town_kana": "ハヤシチョウ",
    "street": null,
    "office_name": null,
    "office_name_kana": null
  },
  "1225": {
    "zip_code": "5211225",
    "prefecture": "滋賀県",
    "prefecture_kana": "シガケン",
    "prefecture_code": "25",
    "city": "東近江市",
    "city_kana": "ヒガシオウミシ",
    "town": "山路町",
    "town_kana": "ヤマジチョウ",
    "street": null,
    "office_name": null,
    "office_name_kana": null
  },
  "1231": {
    "zip_code": "5211231",
    "prefecture": "滋賀県",
    "prefecture_kana": "シガケン",
    "prefecture_code": "25",
    "city": "東近江市",
    "city_kana": "ヒガシオウミシ",
    "town": "能登川町",
    "town_kana": "ノトガワチョウ",
    "street": null,
    "office_name": null,
    "office_name_kana": null
  },
  "1232": {
    "zip_code": "5211232",
    "prefecture": "滋賀県",
    "prefecture_kana": "シガケン",
    "prefecture_code": "25",
    "city": "東近江市",
    "city_kana": "ヒガシオウミシ",
    "town": "北須田町",
    "town_kana": "キタスダチョウ",
    "street": null,
    "office_name": null,
    "office_name_kana": null
  },
  "1233": {
    "zip_code": "5211233",
    "prefecture": "滋賀県",
    "prefecture_kana": "シガケン",
    "prefecture_code": "25",
    "city": "東近江市",
    "city_kana": "ヒガシオウミシ",
    "town": "南須田町",
    "town_kana": "ミナミスダチョウ",
    "street": null,
    "office_name": null,
    "office_name_kana": null
  },
  "1234": {
    "zip_code": "5211234",
    "prefecture": "滋賀県",
    "prefecture_kana": "シガケン",
    "prefecture_code": "25",
    "city": "東近江市",
    "city_kana": "ヒガシオウミシ",
    "town": "きぬがさ町",
    "town_kana": "キヌガサチョウ",
    "street": null,
    "office_name": null,
    "office_name_kana": null
  },
  "1235": {
    "zip_code": "5211235",
    "prefecture": "滋賀県",
    "prefecture_kana": "シガケン",
    "prefecture_code": "25",
    "city": "東近江市",
    "city_kana": "ヒガシオウミシ",
    "town": "伊庭町",
    "town_kana": "イバチョウ",
    "street": null,
    "office_name": null,
    "office_name_kana": null
  },
  "1241": {
    "zip_code": "5211241",
    "prefecture": "滋賀県",
    "prefecture_kana": "シガケン",
    "prefecture_code": "25",
    "city": "東近江市",
    "city_kana": "ヒガシオウミシ",
    "town": "乙女浜町",
    "town_kana": "オトメハマチョウ",
    "street": null,
    "office_name": null,
    "office_name_kana": null
  },
  "1242": {
    "zip_code": "5211242",
    "prefecture": "滋賀県",
    "prefecture_kana": "シガケン",
    "prefecture_code": "25",
    "city": "東近江市",
    "city_kana": "ヒガシオウミシ",
    "town": "福堂町",
    "town_kana": "フクドウチョウ",
    "street": null,
    "office_name": null,
    "office_name_kana": null
  },
  "1243": {
    "zip_code": "5211243",
    "prefecture": "滋賀県",
    "prefecture_kana": "シガケン",
    "prefecture_code": "25",
    "city": "東近江市",
    "city_kana": "ヒガシオウミシ",
    "town": "栗見新田町",
    "town_kana": "クリミシンデンチョウ",
    "street": null,
    "office_name": null,
    "office_name_kana": null
  },
  "1244": {
    "zip_code": "5211244",
    "prefecture": "滋賀県",
    "prefecture_kana": "シガケン",
    "prefecture_code": "25",
    "city": "東近江市",
    "city_kana": "ヒガシオウミシ",
    "town": "大中町",
    "town_kana": "ダイナカチョウ",
    "street": null,
    "office_name": null,
    "office_name_kana": null
  },
  "1245": {
    "zip_code": "5211245",
    "prefecture": "滋賀県",
    "prefecture_kana": "シガケン",
    "prefecture_code": "25",
    "city": "東近江市",
    "city_kana": "ヒガシオウミシ",
    "town": "栗見出在家町",
    "town_kana": "クリミデザイケチョウ",
    "street": null,
    "office_name": null,
    "office_name_kana": null
  },
  "1292": {
    "zip_code": "5211292",
    "prefecture": "滋賀県",
    "prefecture_kana": "シガケン",
    "prefecture_code": "25",
    "city": "東近江市",
    "city_kana": "ヒガシオウミシ",
    "town": "",
    "town_kana": "",
    "street": "躰光寺２６２番地",
    "office_name": "東近江市能登川支所",
    "office_name_kana": "ヒガシオウミシノトガワシシヨ"
  },
  "1295": {
    "zip_code": "5211295",
    "prefecture": "滋賀県",
    "prefecture_kana": "シガケン",
    "prefecture_code": "25",
    "city": "東近江市",
    "city_kana": "ヒガシオウミシ",
    "town": "今町",
    "town_kana": "イマチョウ",
    "street": "９０６番地",
    "office_name": "日本電気硝子　株式会社　能登川事業場",
    "office_name_kana": "ニツポンデンキガラス カブシキカイシヤ ノトガワジギヨウジヨウ"
  },
  "1301": {
    "zip_code": "5211301",
    "prefecture": "滋賀県",
    "prefecture_kana": "シガケン",
    "prefecture_code": "25",
    "city": "近江八幡市",
    "city_kana": "オウミハチマンシ",
    "town": "安土町大中",
    "town_kana": "アヅチチョウダイナカ",
    "street": null,
    "office_name": null,
    "office_name_kana": null
  },
  "1311": {
    "zip_code": "5211311",
    "prefecture": "滋賀県",
    "prefecture_kana": "シガケン",
    "prefecture_code": "25",
    "city": "近江八幡市",
    "city_kana": "オウミハチマンシ",
    "town": "安土町下豊浦",
    "town_kana": "アヅチチョウシモトイラ",
    "street": null,
    "office_name": null,
    "office_name_kana": null
  },
  "1321": {
    "zip_code": "5211321",
    "prefecture": "滋賀県",
    "prefecture_kana": "シガケン",
    "prefecture_code": "25",
    "city": "近江八幡市",
    "city_kana": "オウミハチマンシ",
    "town": "安土町桑実寺",
    "town_kana": "アヅチチョウクワノミジ",
    "street": null,
    "office_name": null,
    "office_name_kana": null
  },
  "1322": {
    "zip_code": "5211322",
    "prefecture": "滋賀県",
    "prefecture_kana": "シガケン",
    "prefecture_code": "25",
    "city": "近江八幡市",
    "city_kana": "オウミハチマンシ",
    "town": "安土町宮津",
    "town_kana": "アヅチチョウミヤヅ",
    "street": null,
    "office_name": null,
    "office_name_kana": null
  },
  "1331": {
    "zip_code": "5211331",
    "prefecture": "滋賀県",
    "prefecture_kana": "シガケン",
    "prefecture_code": "25",
    "city": "近江八幡市",
    "city_kana": "オウミハチマンシ",
    "town": "安土町石寺",
    "town_kana": "アヅチチョウイシデラ",
    "street": null,
    "office_name": null,
    "office_name_kana": null
  },
  "1332": {
    "zip_code": "5211332",
    "prefecture": "滋賀県",
    "prefecture_kana": "シガケン",
    "prefecture_code": "25",
    "city": "近江八幡市",
    "city_kana": "オウミハチマンシ",
    "town": "安土町東老蘇",
    "town_kana": "アヅチチョウヒガシオイソ",
    "street": null,
    "office_name": null,
    "office_name_kana": null
  },
  "1333": {
    "zip_code": "5211333",
    "prefecture": "滋賀県",
    "prefecture_kana": "シガケン",
    "prefecture_code": "25",
    "city": "近江八幡市",
    "city_kana": "オウミハチマンシ",
    "town": "安土町内野",
    "town_kana": "アヅチチョウウチノ",
    "street": null,
    "office_name": null,
    "office_name_kana": null
  },
  "1334": {
    "zip_code": "5211334",
    "prefecture": "滋賀県",
    "prefecture_kana": "シガケン",
    "prefecture_code": "25",
    "city": "近江八幡市",
    "city_kana": "オウミハチマンシ",
    "town": "安土町西老蘇",
    "town_kana": "アヅチチョウニシオイソ",
    "street": null,
    "office_name": null,
    "office_name_kana": null
  },
  "1341": {
    "zip_code": "5211341",
    "prefecture": "滋賀県",
    "prefecture_kana": "シガケン",
    "prefecture_code": "25",
    "city": "近江八幡市",
    "city_kana": "オウミハチマンシ",
    "town": "安土町上豊浦",
    "town_kana": "アヅチチョウカミトヨウラ",
    "street": null,
    "office_name": null,
    "office_name_kana": null
  },
  "1342": {
    "zip_code": "5211342",
    "prefecture": "滋賀県",
    "prefecture_kana": "シガケン",
    "prefecture_code": "25",
    "city": "近江八幡市",
    "city_kana": "オウミハチマンシ",
    "town": "安土町上出",
    "town_kana": "アヅチチョウカミデ",
    "street": null,
    "office_name": null,
    "office_name_kana": null
  },
  "1343": {
    "zip_code": "5211343",
    "prefecture": "滋賀県",
    "prefecture_kana": "シガケン",
    "prefecture_code": "25",
    "city": "近江八幡市",
    "city_kana": "オウミハチマンシ",
    "town": "安土町小中",
    "town_kana": "アヅチチョウコナカ",
    "street": null,
    "office_name": null,
    "office_name_kana": null
  },
  "1344": {
    "zip_code": "5211344",
    "prefecture": "滋賀県",
    "prefecture_kana": "シガケン",
    "prefecture_code": "25",
    "city": "近江八幡市",
    "city_kana": "オウミハチマンシ",
    "town": "安土町中屋",
    "town_kana": "アヅチチョウナカヤ",
    "street": null,
    "office_name": null,
    "office_name_kana": null
  },
  "1345": {
    "zip_code": "5211345",
    "prefecture": "滋賀県",
    "prefecture_kana": "シガケン",
    "prefecture_code": "25",
    "city": "近江八幡市",
    "city_kana": "オウミハチマンシ",
    "town": "安土町慈恩寺",
    "town_kana": "アヅチチョウジオンジ",
    "street": null,
    "office_name": null,
    "office_name_kana": null
  },
  "1346": {
    "zip_code": "5211346",
    "prefecture": "滋賀県",
    "prefecture_kana": "シガケン",
    "prefecture_code": "25",
    "city": "近江八幡市",
    "city_kana": "オウミハチマンシ",
    "town": "安土町香庄",
    "town_kana": "アヅチチョウコノショウ",
    "street": null,
    "office_name": null,
    "office_name_kana": null
  },
  "1351": {
    "zip_code": "5211351",
    "prefecture": "滋賀県",
    "prefecture_kana": "シガケン",
    "prefecture_code": "25",
    "city": "近江八幡市",
    "city_kana": "オウミハチマンシ",
    "town": "安土町常楽寺",
    "town_kana": "アヅチチョウジョウラクジ",
    "street": null,
    "office_name": null,
    "office_name_kana": null
  },
  "1392": {
    "zip_code": "5211392",
    "prefecture": "滋賀県",
    "prefecture_kana": "シガケン",
    "prefecture_code": "25",
    "city": "近江八幡市",
    "city_kana": "オウミハチマンシ",
    "town": "安土町小中",
    "town_kana": "アヅチチョウコナカ",
    "street": "１−８",
    "office_name": "近江八幡市　安土町総合支所",
    "office_name_kana": "オウミハチマンシ アヅチチヨウソウゴウシシヨ"
  },
  "1398": {
    "zip_code": "5211398",
    "prefecture": "滋賀県",
    "prefecture_kana": "シガケン",
    "prefecture_code": "25",
    "city": "近江八幡市",
    "city_kana": "オウミハチマンシ",
    "town": "安土町上豊浦",
    "town_kana": "アヅチチョウカミトヨウラ",
    "street": "１０３０",
    "office_name": "キタイ設計　株式会社",
    "office_name_kana": "キタイセツケイ カブシキガイシヤ"
  },
  "8501": {
    "zip_code": "5218501",
    "prefecture": "滋賀県",
    "prefecture_kana": "シガケン",
    "prefecture_code": "25",
    "city": "米原市",
    "city_kana": "マイバラシ",
    "town": "下多良",
    "town_kana": "シモタラ",
    "street": "３−３",
    "office_name": "米原市役所　米原庁舎",
    "office_name_kana": "マイバラシヤクシヨ マイバラチヨウシヤ"
  },
  "8511": {
    "zip_code": "5218511",
    "prefecture": "滋賀県",
    "prefecture_kana": "シガケン",
    "prefecture_code": "25",
    "city": "米原市",
    "city_kana": "マイバラシ",
    "town": "梅ケ原",
    "town_kana": "ウメガハラ",
    "street": "２４８１番地",
    "office_name": "ヤンマー　株式会社",
    "office_name_kana": "ヤンマ- カブシキガイシヤ"
  },
  "8601": {
    "zip_code": "5218601",
    "prefecture": "滋賀県",
    "prefecture_kana": "シガケン",
    "prefecture_code": "25",
    "city": "米原市",
    "city_kana": "マイバラシ",
    "town": "顔戸",
    "town_kana": "ゴウド",
    "street": "４８８−３",
    "office_name": "米原市役所　近江庁舎",
    "office_name_kana": "マイバラシヤクシヨ オウミチヨウシヤ"
  }
}