{
  "0000": {
    "zip_code": "5230000",
    "prefecture": "滋賀県",
    "prefecture_kana": "シガケン",
    "prefecture_code": 25,
    "city": "近江八幡市",
    "city_kana": "オウミハチマンシ",
    "town": "",
    "town_kana": "",
    "street": null,
    "office_name": null,
    "office_name_kana": null
  },
  "0001": {
    "zip_code": "5230001",
    "prefecture": "滋賀県",
    "prefecture_kana": "シガケン",
    "prefecture_code": 25,
    "city": "近江八幡市",
    "city_kana": "オウミハチマンシ",
    "town": "金剛寺町",
    "town_kana": "コンゴウジチョウ",
    "street": null,
    "office_name": null,
    "office_name_kana": null
  },
  "0002": {
    "zip_code": "5230002",
    "prefecture": "滋賀県",
    "prefecture_kana": "シガケン",
    "prefecture_code": 25,
    "city": "近江八幡市",
    "city_kana": "オウミハチマンシ",
    "town": "野田町",
    "town_kana": "ノダチョウ",
    "street": null,
    "office_name": null,
    "office_name_kana": null
  },
  "0003": {
    "zip_code": "5230003",
    "prefecture": "滋賀県",
    "prefecture_kana": "シガケン",
    "prefecture_code": 25,
    "city": "近江八幡市",
    "city_kana": "オウミハチマンシ",
    "town": "御所内町",
    "town_kana": "ゴショウチチョウ",
    "street": null,
    "office_name": null,
    "office_name_kana": null
  },
  "0004": {
    "zip_code": "5230004",
    "prefecture": "滋賀県",
    "prefecture_kana": "シガケン",
    "prefecture_code": 25,
    "city": "近江八幡市",
    "city_kana": "オウミハチマンシ",
    "town": "西生来町",
    "town_kana": "ニショウライチョウ",
    "street": null,
    "office_name": null,
    "office_name_kana": null
  },
  "0005": {
    "zip_code": "5230005",
    "prefecture": "滋賀県",
    "prefecture_kana": "シガケン",
    "prefecture_code": 25,
    "city": "近江八幡市",
    "city_kana": "オウミハチマンシ",
    "town": "末広町",
    "town_kana": "スエヒロチョウ",
    "street": null,
    "office_name": null,
    "office_name_kana": null
  },
  "0011": {
    "zip_code": "5230011",
    "prefecture": "滋賀県",
    "prefecture_kana": "シガケン",
    "prefecture_code": 25,
    "city": "近江八幡市",
    "city_kana": "オウミハチマンシ",
    "town": "友定町",
    "town_kana": "トモサダチョウ",
    "street": null,
    "office_name": null,
    "office_name_kana": null
  },
  "0012": {
    "zip_code": "5230012",
    "prefecture": "滋賀県",
    "prefecture_kana": "シガケン",
    "prefecture_code": 25,
    "city": "近江八幡市",
    "city_kana": "オウミハチマンシ",
    "town": "武佐町",
    "town_kana": "ムサチョウ",
    "street": null,
    "office_name": null,
    "office_name_kana": null
  },
  "0013": {
    "zip_code": "5230013",
    "prefecture": "滋賀県",
    "prefecture_kana": "シガケン",
    "prefecture_code": 25,
    "city": "近江八幡市",
    "city_kana": "オウミハチマンシ",
    "town": "長光寺町",
    "town_kana": "チョウコウジチョウ",
    "street": null,
    "office_name": null,
    "office_name_kana": null
  },
  "0014": {
    "zip_code": "5230014",
    "prefecture": "滋賀県",
    "prefecture_kana": "シガケン",
    "prefecture_code": 25,
    "city": "近江八幡市",
    "city_kana": "オウミハチマンシ",
    "town": "西宿町",
    "town_kana": "ニシジュクチョウ",
    "street": null,
    "office_name": null,
    "office_name_kana": null
  },
  "0015": {
    "zip_code": "5230015",
    "prefecture": "滋賀県",
    "prefecture_kana": "シガケン",
    "prefecture_code": 25,
    "city": "近江八幡市",
    "city_kana": "オウミハチマンシ",
    "town": "上田町",
    "town_kana": "ウエダチョウ",
    "street": null,
    "office_name": null,
    "office_name_kana": null
  },
  "0016": {
    "zip_code": "5230016",
    "prefecture": "滋賀県",
    "prefecture_kana": "シガケン",
    "prefecture_code": 25,
    "city": "近江八幡市",
    "city_kana": "オウミハチマンシ",
    "town": "千僧供町",
    "town_kana": "センゾクチョウ",
    "street": null,
    "office_name": null,
    "office_name_kana": null
  },
  "0021": {
    "zip_code": "5230021",
    "prefecture": "滋賀県",
    "prefecture_kana": "シガケン",
    "prefecture_code": 25,
    "city": "近江八幡市",
    "city_kana": "オウミハチマンシ",
    "town": "長福寺町",
    "town_kana": "チョウフクジチョウ",
    "street": null,
    "office_name": null,
    "office_name_kana": null
  },
  "0022": {
    "zip_code": "5230022",
    "prefecture": "滋賀県",
    "prefecture_kana": "シガケン",
    "prefecture_code": 25,
    "city": "近江八幡市",
    "city_kana": "オウミハチマンシ",
    "town": "馬淵町",
    "town_kana": "マブチチョウ",
    "street": null,
    "office_name": null,
    "office_name_kana": null
  },
  "0023": {
    "zip_code": "5230023",
    "prefecture": "滋賀県",
    "prefecture_kana": "シガケン",
    "prefecture_code": 25,
    "city": "近江八幡市",
    "city_kana": "オウミハチマンシ",
    "town": "倉橋部町",
    "town_kana": "クラハシベチョウ",
    "street": null,
    "office_name": null,
    "office_name_kana": null
  },
  "0024": {
    "zip_code": "5230024",
    "prefecture": "滋賀県",
    "prefecture_kana": "シガケン",
    "prefecture_code": 25,
    "city": "近江八幡市",
    "city_kana": "オウミハチマンシ",
    "town": "浄土寺町",
    "town_kana": "ジョウドジチョウ",
    "street": null,
    "office_name": null,
    "office_name_kana": null
  },
  "0025": {
    "zip_code": "5230025",
    "prefecture": "滋賀県",
    "prefecture_kana": "シガケン",
    "prefecture_code": 25,
    "city": "近江八幡市",
    "city_kana": "オウミハチマンシ",
    "town": "新巻町",
    "town_kana": "シンマキチョウ",
    "street": null,
    "office_name": null,
    "office_name_kana": null
  },
  "0026": {
    "zip_code": "5230026",
    "prefecture": "滋賀県",
    "prefecture_kana": "シガケン",
    "prefecture_code": 25,
    "city": "近江八幡市",
    "city_kana": "オウミハチマンシ",
    "town": "上畑町",
    "town_kana": "ウエハタチョウ",
    "street": null,
    "office_name": null,
    "office_name_kana": null
  },
  "0027": {
    "zip_code": "5230027",
    "prefecture": "滋賀県",
    "prefecture_kana": "シガケン",
    "prefecture_code": 25,
    "city": "近江八幡市",
    "city_kana": "オウミハチマンシ",
    "town": "東川町",
    "town_kana": "ヒガシガワチョウ",
    "street": null,
    "office_name": null,
    "office_name_kana": null
  },
  "0031": {
    "zip_code": "5230031",
    "prefecture": "滋賀県",
    "prefecture_kana": "シガケン",
    "prefecture_code": 25,
    "city": "近江八幡市",
    "city_kana": "オウミハチマンシ",
    "town": "堀上町",
    "town_kana": "ホリカミチョウ",
    "street": null,
    "office_name": null,
    "office_name_kana": null
  },
  "0032": {
    "zip_code": "5230032",
    "prefecture": "滋賀県",
    "prefecture_kana": "シガケン",
    "prefecture_code": 25,
    "city": "近江八幡市",
    "city_kana": "オウミハチマンシ",
    "town": "白鳥町",
    "town_kana": "シラトリチョウ",
    "street": null,
    "office_name": null,
    "office_name_kana": null
  },
  "0033": {
    "zip_code": "5230033",
    "prefecture": "滋賀県",
    "prefecture_kana": "シガケン",
    "prefecture_code": 25,
    "city": "近江八幡市",
    "city_kana": "オウミハチマンシ",
    "town": "日吉野町",
    "town_kana": "ヒヨノチョウ",
    "street": null,
    "office_name": null,
    "office_name_kana": null
  },
  "0034": {
    "zip_code": "5230034",
    "prefecture": "滋賀県",
    "prefecture_kana": "シガケン",
    "prefecture_code": 25,
    "city": "近江八幡市",
    "city_kana": "オウミハチマンシ",
    "town": "若宮町",
    "town_kana": "ワカミヤチョウ",
    "street": null,
    "office_name": null,
    "office_name_kana": null
  },
  "0035": {
    "zip_code": "5230035",
    "prefecture": "滋賀県",
    "prefecture_kana": "シガケン",
    "prefecture_code": 25,
    "city": "近江八幡市",
    "city_kana": "オウミハチマンシ",
    "town": "東横関町",
    "town_kana": "ヒガシヨコゼキチョウ",
    "street": null,
    "office_name": null,
    "office_name_kana": null
  },
  "0036": {
    "zip_code": "5230036",
    "prefecture": "滋賀県",
    "prefecture_kana": "シガケン",
    "prefecture_code": 25,
    "city": "近江八幡市",
    "city_kana": "オウミハチマンシ",
    "town": "竹町",
    "town_kana": "タケチョウ",
    "street": null,
    "office_name": null,
    "office_name_kana": null
  },
  "0037": {
    "zip_code": "5230037",
    "prefecture": "滋賀県",
    "prefecture_kana": "シガケン",
    "prefecture_code": 25,
    "city": "近江八幡市",
    "city_kana": "オウミハチマンシ",
    "town": "東町",
    "town_kana": "ヒガシチョウ",
    "street": null,
    "office_name": null,
    "office_name_kana": null
  },
  "0041": {
    "zip_code": "5230041",
    "prefecture": "滋賀県",
    "prefecture_kana": "シガケン",
    "prefecture_code": 25,
    "city": "近江八幡市",
    "city_kana": "オウミハチマンシ",
    "town": "中小森町",
    "town_kana": "ナカコモリチョウ",
    "street": null,
    "office_name": null,
    "office_name_kana": null
  },
  "0042": {
    "zip_code": "5230042",
    "prefecture": "滋賀県",
    "prefecture_kana": "シガケン",
    "prefecture_code": 25,
    "city": "近江八幡市",
    "city_kana": "オウミハチマンシ",
    "town": "大森町",
    "town_kana": "オオモリチョウ",
    "street": null,
    "office_name": null,
    "office_name_kana": null
  },
  "0043": {
    "zip_code": "5230043",
    "prefecture": "滋賀県",
    "prefecture_kana": "シガケン",
    "prefecture_code": 25,
    "city": "近江八幡市",
    "city_kana": "オウミハチマンシ",
    "town": "池田本町",
    "town_kana": "イケダホンマチ",
    "street": null,
    "office_name": null,
    "office_name_kana": null
  },
  "0044": {
    "zip_code": "5230044",
    "prefecture": "滋賀県",
    "prefecture_kana": "シガケン",
    "prefecture_code": 25,
    "city": "近江八幡市",
    "city_kana": "オウミハチマンシ",
    "town": "篠原町",
    "town_kana": "シノハラチョウ",
    "street": null,
    "office_name": null,
    "office_name_kana": null
  },
  "0045": {
    "zip_code": "5230045",
    "prefecture": "滋賀県",
    "prefecture_kana": "シガケン",
    "prefecture_code": 25,
    "city": "近江八幡市",
    "city_kana": "オウミハチマンシ",
    "town": "安養寺町",
    "town_kana": "アンヨウジチョウ",
    "street": null,
    "office_name": null,
    "office_name_kana": null
  },
  "0046": {
    "zip_code": "5230046",
    "prefecture": "滋賀県",
    "prefecture_kana": "シガケン",
    "prefecture_code": 25,
    "city": "近江八幡市",
    "city_kana": "オウミハチマンシ",
    "town": "上野町",
    "town_kana": "ウエノチョウ",
    "street": null,
    "office_name": null,
    "office_name_kana": null
  },
  "0047": {
    "zip_code": "5230047",
    "prefecture": "滋賀県",
    "prefecture_kana": "シガケン",
    "prefecture_code": 25,
    "city": "近江八幡市",
    "city_kana": "オウミハチマンシ",
    "town": "川原町",
    "town_kana": "カワラマチ",
    "street": null,
    "office_name": null,
    "office_name_kana": null
  },
  "0048": {
    "zip_code": "5230048",
    "prefecture": "滋賀県",
    "prefecture_kana": "シガケン",
    "prefecture_code": 25,
    "city": "近江八幡市",
    "city_kana": "オウミハチマンシ",
    "town": "緑町",
    "town_kana": "ミドリマチ",
    "street": null,
    "office_name": null,
    "office_name_kana": null
  },
  "0051": {
    "zip_code": "5230051",
    "prefecture": "滋賀県",
    "prefecture_kana": "シガケン",
    "prefecture_code": 25,
    "city": "近江八幡市",
    "city_kana": "オウミハチマンシ",
    "town": "八木町",
    "town_kana": "ヤギチョウ",
    "street": null,
    "office_name": null,
    "office_name_kana": null
  },
  "0052": {
    "zip_code": "5230052",
    "prefecture": "滋賀県",
    "prefecture_kana": "シガケン",
    "prefecture_code": 25,
    "city": "近江八幡市",
    "city_kana": "オウミハチマンシ",
    "town": "赤尾町",
    "town_kana": "アコウチョウ",
    "street": null,
    "office_name": null,
    "office_name_kana": null
  },
  "0053": {
    "zip_code": "5230053",
    "prefecture": "滋賀県",
    "prefecture_kana": "シガケン",
    "prefecture_code": 25,
    "city": "近江八幡市",
    "city_kana": "オウミハチマンシ",
    "town": "益田町",
    "town_kana": "マスダチョウ",
    "street": null,
    "office_name": null,
    "office_name_kana": null
  },
  "0054": {
    "zip_code": "5230054",
    "prefecture": "滋賀県",
    "prefecture_kana": "シガケン",
    "prefecture_code": 25,
    "city": "近江八幡市",
    "city_kana": "オウミハチマンシ",
    "town": "森尻町",
    "town_kana": "モリジリチョウ",
    "street": null,
    "office_name": null,
    "office_name_kana": null
  },
  "0055": {
    "zip_code": "5230055",
    "prefecture": "滋賀県",
    "prefecture_kana": "シガケン",
    "prefecture_code": 25,
    "city": "近江八幡市",
    "city_kana": "オウミハチマンシ",
    "town": "柳町",
    "town_kana": "ヤナギマチ",
    "street": null,
    "office_name": null,
    "office_name_kana": null
  },
  "0056": {
    "zip_code": "5230056",
    "prefecture": "滋賀県",
    "prefecture_kana": "シガケン",
    "prefecture_code": 25,
    "city": "近江八幡市",
    "city_kana": "オウミハチマンシ",
    "town": "古川町",
    "town_kana": "フルカワチョウ",
    "street": null,
    "office_name": null,
    "office_name_kana": null
  },
  "0057": {
    "zip_code": "5230057",
    "prefecture": "滋賀県",
    "prefecture_kana": "シガケン",
    "prefecture_code": 25,
    "city": "近江八幡市",
    "city_kana": "オウミハチマンシ",
    "town": "田中江町",
    "town_kana": "タナカエチョウ",
    "street": null,
    "office_name": null,
    "office_name_kana": null
  },
  "0058": {
    "zip_code": "5230058",
    "prefecture": "滋賀県",
    "prefecture_kana": "シガケン",
    "prefecture_code": 25,
    "city": "近江八幡市",
    "city_kana": "オウミハチマンシ",
    "town": "加茂町",
    "town_kana": "カモチョウ",
    "street": null,
    "office_name": null,
    "office_name_kana": null
  },
  "0061": {
    "zip_code": "5230061",
    "prefecture": "滋賀県",
    "prefecture_kana": "シガケン",
    "prefecture_code": 25,
    "city": "近江八幡市",
    "city_kana": "オウミハチマンシ",
    "town": "江頭町",
    "town_kana": "エガシラチョウ",
    "street": null,
    "office_name": null,
    "office_name_kana": null
  },
  "0062": {
    "zip_code": "5230062",
    "prefecture": "滋賀県",
    "prefecture_kana": "シガケン",
    "prefecture_code": 25,
    "city": "近江八幡市",
    "city_kana": "オウミハチマンシ",
    "town": "丸の内町",
    "town_kana": "マルノウチチョウ",
    "street": null,
    "office_name": null,
    "office_name_kana": null
  },
  "0063": {
    "zip_code": "5230063",
    "prefecture": "滋賀県",
    "prefecture_kana": "シガケン",
    "prefecture_code": 25,
    "city": "近江八幡市",
    "city_kana": "オウミハチマンシ",
    "town": "十王町",
    "town_kana": "ジュウオウチョウ",
    "street": null,
    "office_name": null,
    "office_name_kana": null
  },
  "0064": {
    "zip_code": "5230064",
    "prefecture": "滋賀県",
    "prefecture_kana": "シガケン",
    "prefecture_code": 25,
    "city": "近江八幡市",
    "city_kana": "オウミハチマンシ",
    "town": "小田町",
    "town_kana": "オダチョウ",
    "street": null,
    "office_name": null,
    "office_name_kana": null
  },
  "0071": {
    "zip_code": "5230071",
    "prefecture": "滋賀県",
    "prefecture_kana": "シガケン",
    "prefecture_code": 25,
    "city": "近江八幡市",
    "city_kana": "オウミハチマンシ",
    "town": "大房町",
    "town_kana": "オオブサチョウ",
    "street": null,
    "office_name": null,
    "office_name_kana": null
  },
  "0072": {
    "zip_code": "5230072",
    "prefecture": "滋賀県",
    "prefecture_kana": "シガケン",
    "prefecture_code": 25,
    "city": "近江八幡市",
    "city_kana": "オウミハチマンシ",
    "town": "牧町",
    "town_kana": "マキチョウ",
    "street": null,
    "office_name": null,
    "office_name_kana": null
  },
  "0073": {
    "zip_code": "5230073",
    "prefecture": "滋賀県",
    "prefecture_kana": "シガケン",
    "prefecture_code": 25,
    "city": "近江八幡市",
    "city_kana": "オウミハチマンシ",
    "town": "元水茎町",
    "town_kana": "モトスイケイチョウ",
    "street": null,
    "office_name": null,
    "office_name_kana": null
  },
  "0074": {
    "zip_code": "5230074",
    "prefecture": "滋賀県",
    "prefecture_kana": "シガケン",
    "prefecture_code": 25,
    "city": "近江八幡市",
    "city_kana": "オウミハチマンシ",
    "town": "水茎町",
    "town_kana": "スイケイチョウ",
    "street": null,
    "office_name": null,
    "office_name_kana": null
  },
  "0075": {
    "zip_code": "5230075",
    "prefecture": "滋賀県",
    "prefecture_kana": "シガケン",
    "prefecture_code": 25,
    "city": "近江八幡市",
    "city_kana": "オウミハチマンシ",
    "town": "野村町",
    "town_kana": "ノムラチョウ",
    "street": null,
    "office_name": null,
    "office_name_kana": null
  },
  "0076": {
    "zip_code": "5230076",
    "prefecture": "滋賀県",
    "prefecture_kana": "シガケン",
    "prefecture_code": 25,
    "city": "近江八幡市",
    "city_kana": "オウミハチマンシ",
    "town": "佐波江町",
    "town_kana": "サバエチョウ",
    "street": null,
    "office_name": null,
    "office_name_kana": null
  },
  "0081": {
    "zip_code": "5230081",
    "prefecture": "滋賀県",
    "prefecture_kana": "シガケン",
    "prefecture_code": 25,
    "city": "近江八幡市",
    "city_kana": "オウミハチマンシ",
    "town": "新栄町",
    "town_kana": "シンサカエマチ",
    "street": null,
    "office_name": null,
    "office_name_kana": null
  },
  "0082": {
    "zip_code": "5230082",
    "prefecture": "滋賀県",
    "prefecture_kana": "シガケン",
    "prefecture_code": 25,
    "city": "近江八幡市",
    "city_kana": "オウミハチマンシ",
    "town": "土田町",
    "town_kana": "ツチダチョウ",
    "street": null,
    "office_name": null,
    "office_name_kana": null
  },
  "0083": {
    "zip_code": "5230083",
    "prefecture": "滋賀県",
    "prefecture_kana": "シガケン",
    "prefecture_code": 25,
    "city": "近江八幡市",
    "city_kana": "オウミハチマンシ",
    "town": "小船木町",
    "town_kana": "コブナキチョウ",
    "street": null,
    "office_name": null,
    "office_name_kana": null
  },
  "0084": {
    "zip_code": "5230084",
    "prefecture": "滋賀県",
    "prefecture_kana": "シガケン",
    "prefecture_code": 25,
    "city": "近江八幡市",
    "city_kana": "オウミハチマンシ",
    "town": "船木町",
    "town_kana": "フナキチョウ",
    "street": null,
    "office_name": null,
    "office_name_kana": null
  },
  "0085": {
    "zip_code": "5230085",
    "prefecture": "滋賀県",
    "prefecture_kana": "シガケン",
    "prefecture_code": 25,
    "city": "近江八幡市",
    "city_kana": "オウミハチマンシ",
    "town": "南津田町",
    "town_kana": "ミナミツダチョウ",
    "street": null,
    "office_name": null,
    "office_name_kana": null
  },
  "0086": {
    "zip_code": "5230086",
    "prefecture": "滋賀県",
    "prefecture_kana": "シガケン",
    "prefecture_code": 25,
    "city": "近江八幡市",
    "city_kana": "オウミハチマンシ",
    "town": "津田町",
    "town_kana": "ツダチョウ",
    "street": null,
    "office_name": null,
    "office_name_kana": null
  },
  "0087": {
    "zip_code": "5230087",
    "prefecture": "滋賀県",
    "prefecture_kana": "シガケン",
    "prefecture_code": 25,
    "city": "近江八幡市",
    "city_kana": "オウミハチマンシ",
    "town": "北津田町",
    "town_kana": "キタツダチョウ",
    "street": null,
    "office_name": null,
    "office_name_kana": null
  },
  "0801": {
    "zip_code": "5230801",
    "prefecture": "滋賀県",
    "prefecture_kana": "シガケン",
    "prefecture_code": 25,
    "city": "近江八幡市",
    "city_kana": "オウミハチマンシ",
    "town": "沖島町",
    "town_kana": "オキシマチョウ",
    "street": null,
    "office_name": null,
    "office_name_kana": null
  },
  "0802": {
    "zip_code": "5230802",
    "prefecture": "滋賀県",
    "prefecture_kana": "シガケン",
    "prefecture_code": 25,
    "city": "近江八幡市",
    "city_kana": "オウミハチマンシ",
    "town": "大中町",
    "town_kana": "ダイナカチョウ",
    "street": null,
    "office_name": null,
    "office_name_kana": null
  },
  "0803": {
    "zip_code": "5230803",
    "prefecture": "滋賀県",
    "prefecture_kana": "シガケン",
    "prefecture_code": 25,
    "city": "近江八幡市",
    "city_kana": "オウミハチマンシ",
    "town": "白王町",
    "town_kana": "シラオウチョウ",
    "street": null,
    "office_name": null,
    "office_name_kana": null
  },
  "0804": {
    "zip_code": "5230804",
    "prefecture": "滋賀県",
    "prefecture_kana": "シガケン",
    "prefecture_code": 25,
    "city": "近江八幡市",
    "city_kana": "オウミハチマンシ",
    "town": "島町",
    "town_kana": "シマチョウ",
    "street": null,
    "office_name": null,
    "office_name_kana": null
  },
  "0805": {
    "zip_code": "5230805",
    "prefecture": "滋賀県",
    "prefecture_kana": "シガケン",
    "prefecture_code": 25,
    "city": "近江八幡市",
    "city_kana": "オウミハチマンシ",
    "town": "円山町",
    "town_kana": "マルヤマチョウ",
    "street": null,
    "office_name": null,
    "office_name_kana": null
  },
  "0806": {
    "zip_code": "5230806",
    "prefecture": "滋賀県",
    "prefecture_kana": "シガケン",
    "prefecture_code": 25,
    "city": "近江八幡市",
    "city_kana": "オウミハチマンシ",
    "town": "北之庄町",
    "town_kana": "キタノショウチョウ",
    "street": null,
    "office_name": null,
    "office_name_kana": null
  },
  "0807": {
    "zip_code": "5230807",
    "prefecture": "滋賀県",
    "prefecture_kana": "シガケン",
    "prefecture_code": 25,
    "city": "近江八幡市",
    "city_kana": "オウミハチマンシ",
    "town": "中之庄町",
    "town_kana": "ナカノショウチョウ",
    "street": null,
    "office_name": null,
    "office_name_kana": null
  },
  "0808": {
    "zip_code": "5230808",
    "prefecture": "滋賀県",
    "prefecture_kana": "シガケン",
    "prefecture_code": 25,
    "city": "近江八幡市",
    "city_kana": "オウミハチマンシ",
    "town": "長命寺町",
    "town_kana": "チョウメイジチョウ",
    "street": null,
    "office_name": null,
    "office_name_kana": null
  },
  "0811": {
    "zip_code": "5230811",
    "prefecture": "滋賀県",
    "prefecture_kana": "シガケン",
    "prefecture_code": 25,
    "city": "近江八幡市",
    "city_kana": "オウミハチマンシ",
    "town": "長田町",
    "town_kana": "オサダチョウ",
    "street": null,
    "office_name": null,
    "office_name_kana": null
  },
  "0812": {
    "zip_code": "5230812",
    "prefecture": "滋賀県",
    "prefecture_kana": "シガケン",
    "prefecture_code": 25,
    "city": "近江八幡市",
    "city_kana": "オウミハチマンシ",
    "town": "杉森町",
    "town_kana": "スギノモリチョウ",
    "street": null,
    "office_name": null,
    "office_name_kana": null
  },
  "0813": {
    "zip_code": "5230813",
    "prefecture": "滋賀県",
    "prefecture_kana": "シガケン",
    "prefecture_code": 25,
    "city": "近江八幡市",
    "city_kana": "オウミハチマンシ",
    "town": "西本郷町",
    "town_kana": "ニシホンゴウチョウ",
    "street": null,
    "office_name": null,
    "office_name_kana": null
  },
  "0814": {
    "zip_code": "5230814",
    "prefecture": "滋賀県",
    "prefecture_kana": "シガケン",
    "prefecture_code": 25,
    "city": "近江八幡市",
    "city_kana": "オウミハチマンシ",
    "town": "南本郷町",
    "town_kana": "ミナミホンゴウチョウ",
    "street": null,
    "office_name": null,
    "office_name_kana": null
  },
  "0815": {
    "zip_code": "5230815",
    "prefecture": "滋賀県",
    "prefecture_kana": "シガケン",
    "prefecture_code": 25,
    "city": "近江八幡市",
    "city_kana": "オウミハチマンシ",
    "town": "若葉町",
    "town_kana": "ワカバチョウ",
    "street": null,
    "office_name": null,
    "office_name_kana": null
  },
  "0816": {
    "zip_code": "5230816",
    "prefecture": "滋賀県",
    "prefecture_kana": "シガケン",
    "prefecture_code": 25,
    "city": "近江八幡市",
    "city_kana": "オウミハチマンシ",
    "town": "西庄町",
    "town_kana": "ニシノショウチョウ",
    "street": null,
    "office_name": null,
    "office_name_kana": null
  },
  "0817": {
    "zip_code": "5230817",
    "prefecture": "滋賀県",
    "prefecture_kana": "シガケン",
    "prefecture_code": 25,
    "city": "近江八幡市",
    "city_kana": "オウミハチマンシ",
    "town": "浅小井町",
    "town_kana": "アサゴイチョウ",
    "street": null,
    "office_name": null,
    "office_name_kana": null
  },
  "0818": {
    "zip_code": "5230818",
    "prefecture": "滋賀県",
    "prefecture_kana": "シガケン",
    "prefecture_code": 25,
    "city": "近江八幡市",
    "city_kana": "オウミハチマンシ",
    "town": "西本郷町東",
    "town_kana": "ニシホンゴウチョウヒガシ",
    "street": null,
    "office_name": null,
    "office_name_kana": null
  },
  "0819": {
    "zip_code": "5230819",
    "prefecture": "滋賀県",
    "prefecture_kana": "シガケン",
    "prefecture_code": 25,
    "city": "近江八幡市",
    "city_kana": "オウミハチマンシ",
    "town": "西本郷町西",
    "town_kana": "ニシホンゴウチョウニシ",
    "street": null,
    "office_name": null,
    "office_name_kana": null
  },
  "0821": {
    "zip_code": "5230821",
    "prefecture": "滋賀県",
    "prefecture_kana": "シガケン",
    "prefecture_code": 25,
    "city": "近江八幡市",
    "city_kana": "オウミハチマンシ",
    "town": "多賀町",
    "town_kana": "タガチョウ",
    "street": null,
    "office_name": null,
    "office_name_kana": null
  },
  "0822": {
    "zip_code": "5230822",
    "prefecture": "滋賀県",
    "prefecture_kana": "シガケン",
    "prefecture_code": 25,
    "city": "近江八幡市",
    "city_kana": "オウミハチマンシ",
    "town": "船町",
    "town_kana": "フナマチ",
    "street": null,
    "office_name": null,
    "office_name_kana": null
  },
  "0823": {
    "zip_code": "5230823",
    "prefecture": "滋賀県",
    "prefecture_kana": "シガケン",
    "prefecture_code": 25,
    "city": "近江八幡市",
    "city_kana": "オウミハチマンシ",
    "town": "生須町",
    "town_kana": "イケスチョウ",
    "street": null,
    "office_name": null,
    "office_name_kana": null
  },
  "0824": {
    "zip_code": "5230824",
    "prefecture": "滋賀県",
    "prefecture_kana": "シガケン",
    "prefecture_code": 25,
    "city": "近江八幡市",
    "city_kana": "オウミハチマンシ",
    "town": "大工町",
    "town_kana": "ダイクチョウ",
    "street": null,
    "office_name": null,
    "office_name_kana": null
  },
  "0825": {
    "zip_code": "5230825",
    "prefecture": "滋賀県",
    "prefecture_kana": "シガケン",
    "prefecture_code": 25,
    "city": "近江八幡市",
    "city_kana": "オウミハチマンシ",
    "town": "新左衛門町",
    "town_kana": "シンザエモンチョウ",
    "street": null,
    "office_name": null,
    "office_name_kana": null
  },
  "0826": {
    "zip_code": "5230826",
    "prefecture": "滋賀県",
    "prefecture_kana": "シガケン",
    "prefecture_code": 25,
    "city": "近江八幡市",
    "city_kana": "オウミハチマンシ",
    "town": "薬師町",
    "town_kana": "ヤクシチョウ",
    "street": null,
    "office_name": null,
    "office_name_kana": null
  },
  "0827": {
    "zip_code": "5230827",
    "prefecture": "滋賀県",
    "prefecture_kana": "シガケン",
    "prefecture_code": 25,
    "city": "近江八幡市",
    "city_kana": "オウミハチマンシ",
    "town": "鉄炮町",
    "town_kana": "テッポウチョウ",
    "street": null,
    "office_name": null,
    "office_name_kana": null
  },
  "0828": {
    "zip_code": "5230828",
    "prefecture": "滋賀県",
    "prefecture_kana": "シガケン",
    "prefecture_code": 25,
    "city": "近江八幡市",
    "city_kana": "オウミハチマンシ",
    "town": "宮内町",
    "town_kana": "ミヤウチチョウ",
    "street": null,
    "office_name": null,
    "office_name_kana": null
  },
  "0831": {
    "zip_code": "5230831",
    "prefecture": "滋賀県",
    "prefecture_kana": "シガケン",
    "prefecture_code": 25,
    "city": "近江八幡市",
    "city_kana": "オウミハチマンシ",
    "town": "玉屋町",
    "town_kana": "タマヤチョウ",
    "street": null,
    "office_name": null,
    "office_name_kana": null
  },
  "0832": {
    "zip_code": "5230832",
    "prefecture": "滋賀県",
    "prefecture_kana": "シガケン",
    "prefecture_code": 25,
    "city": "近江八幡市",
    "city_kana": "オウミハチマンシ",
    "town": "江南町",
    "town_kana": "エナミチョウ",
    "street": null,
    "office_name": null,
    "office_name_kana": null
  },
  "0833": {
    "zip_code": "5230833",
    "prefecture": "滋賀県",
    "prefecture_kana": "シガケン",
    "prefecture_code": 25,
    "city": "近江八幡市",
    "city_kana": "オウミハチマンシ",
    "town": "鍛治屋町",
    "town_kana": "カジヤチョウ",
    "street": null,
    "office_name": null,
    "office_name_kana": null
  },
  "0834": {
    "zip_code": "5230834",
    "prefecture": "滋賀県",
    "prefecture_kana": "シガケン",
    "prefecture_code": 25,
    "city": "近江八幡市",
    "city_kana": "オウミハチマンシ",
    "town": "東畳屋町",
    "town_kana": "ヒガシタタミヤチョウ",
    "street": null,
    "office_name": null,
    "office_name_kana": null
  },
  "0835": {
    "zip_code": "5230835",
    "prefecture": "滋賀県",
    "prefecture_kana": "シガケン",
    "prefecture_code": 25,
    "city": "近江八幡市",
    "city_kana": "オウミハチマンシ",
    "town": "西畳屋町",
    "town_kana": "ニシタタミヤチョウ",
    "street": null,
    "office_name": null,
    "office_name_kana": null
  },
  "0836": {
    "zip_code": "5230836",
    "prefecture": "滋賀県",
    "prefecture_kana": "シガケン",
    "prefecture_code": 25,
    "city": "近江八幡市",
    "city_kana": "オウミハチマンシ",
    "town": "間之町",
    "town_kana": "アイノマチ",
    "street": null,
    "office_name": null,
    "office_name_kana": null
  },
  "0837": {
    "zip_code": "5230837",
    "prefecture": "滋賀県",
    "prefecture_kana": "シガケン",
    "prefecture_code": 25,
    "city": "近江八幡市",
    "city_kana": "オウミハチマンシ",
    "town": "大杉町",
    "town_kana": "オオスギチョウ",
    "street": null,
    "office_name": null,
    "office_name_kana": null
  },
  "0841": {
    "zip_code": "5230841",
    "prefecture": "滋賀県",
    "prefecture_kana": "シガケン",
    "prefecture_code": 25,
    "city": "近江八幡市",
    "city_kana": "オウミハチマンシ",
    "town": "慈恩寺町元",
    "town_kana": "ジオンジチョウモト",
    "street": null,
    "office_name": null,
    "office_name_kana": null
  },
  "0842": {
    "zip_code": "5230842",
    "prefecture": "滋賀県",
    "prefecture_kana": "シガケン",
    "prefecture_code": 25,
    "city": "近江八幡市",
    "city_kana": "オウミハチマンシ",
    "town": "慈恩寺町中",
    "town_kana": "ジオンジチョウナカ",
    "street": null,
    "office_name": null,
    "office_name_kana": null
  },
  "0843": {
    "zip_code": "5230843",
    "prefecture": "滋賀県",
    "prefecture_kana": "シガケン",
    "prefecture_code": 25,
    "city": "近江八幡市",
    "city_kana": "オウミハチマンシ",
    "town": "慈恩寺町上",
    "town_kana": "ジオンジチョウカミ",
    "street": null,
    "office_name": null,
    "office_name_kana": null
  },
  "0844": {
    "zip_code": "5230844",
    "prefecture": "滋賀県",
    "prefecture_kana": "シガケン",
    "prefecture_code": 25,
    "city": "近江八幡市",
    "city_kana": "オウミハチマンシ",
    "town": "博労町元",
    "town_kana": "バクロチョウモト",
    "street": null,
    "office_name": null,
    "office_name_kana": null
  },
  "0845": {
    "zip_code": "5230845",
    "prefecture": "滋賀県",
    "prefecture_kana": "シガケン",
    "prefecture_code": 25,
    "city": "近江八幡市",
    "city_kana": "オウミハチマンシ",
    "town": "博労町中",
    "town_kana": "バクロチョウナカ",
    "street": null,
    "office_name": null,
    "office_name_kana": null
  },
  "0846": {
    "zip_code": "5230846",
    "prefecture": "滋賀県",
    "prefecture_kana": "シガケン",
    "prefecture_code": 25,
    "city": "近江八幡市",
    "city_kana": "オウミハチマンシ",
    "town": "博労町上",
    "town_kana": "バクロチョウカミ",
    "street": null,
    "office_name": null,
    "office_name_kana": null
  },
  "0847": {
    "zip_code": "5230847",
    "prefecture": "滋賀県",
    "prefecture_kana": "シガケン",
    "prefecture_code": 25,
    "city": "近江八幡市",
    "city_kana": "オウミハチマンシ",
    "town": "永原町元",
    "town_kana": "ナガハラチョウモト",
    "street": null,
    "office_name": null,
    "office_name_kana": null
  },
  "0848": {
    "zip_code": "5230848",
    "prefecture": "滋賀県",
    "prefecture_kana": "シガケン",
    "prefecture_code": 25,
    "city": "近江八幡市",
    "city_kana": "オウミハチマンシ",
    "town": "永原町中",
    "town_kana": "ナガハラチョウナカ",
    "street": null,
    "office_name": null,
    "office_name_kana": null
  },
  "0849": {
    "zip_code": "5230849",
    "prefecture": "滋賀県",
    "prefecture_kana": "シガケン",
    "prefecture_code": 25,
    "city": "近江八幡市",
    "city_kana": "オウミハチマンシ",
    "town": "永原町上",
    "town_kana": "ナガハラチョウカミ",
    "street": null,
    "office_name": null,
    "office_name_kana": null
  },
  "0851": {
    "zip_code": "5230851",
    "prefecture": "滋賀県",
    "prefecture_kana": "シガケン",
    "prefecture_code": 25,
    "city": "近江八幡市",
    "city_kana": "オウミハチマンシ",
    "town": "市井町",
    "town_kana": "イチイチョウ",
    "street": null,
    "office_name": null,
    "office_name_kana": null
  },
  "0852": {
    "zip_code": "5230852",
    "prefecture": "滋賀県",
    "prefecture_kana": "シガケン",
    "prefecture_code": 25,
    "city": "近江八幡市",
    "city_kana": "オウミハチマンシ",
    "town": "鍵之手町",
    "town_kana": "カギノテチョウ",
    "street": null,
    "office_name": null,
    "office_name_kana": null
  },
  "0853": {
    "zip_code": "5230853",
    "prefecture": "滋賀県",
    "prefecture_kana": "シガケン",
    "prefecture_code": 25,
    "city": "近江八幡市",
    "city_kana": "オウミハチマンシ",
    "town": "縄手町元",
    "town_kana": "ナワテチョウモト",
    "street": null,
    "office_name": null,
    "office_name_kana": null
  },
  "0854": {
    "zip_code": "5230854",
    "prefecture": "滋賀県",
    "prefecture_kana": "シガケン",
    "prefecture_code": 25,
    "city": "近江八幡市",
    "city_kana": "オウミハチマンシ",
    "town": "縄手町中",
    "town_kana": "ナワテチョウナカ",
    "street": null,
    "office_name": null,
    "office_name_kana": null
  },
  "0855": {
    "zip_code": "5230855",
    "prefecture": "滋賀県",
    "prefecture_kana": "シガケン",
    "prefecture_code": 25,
    "city": "近江八幡市",
    "city_kana": "オウミハチマンシ",
    "town": "縄手町末",
    "town_kana": "ナワテチョウスエ",
    "street": null,
    "office_name": null,
    "office_name_kana": null
  },
  "0856": {
    "zip_code": "5230856",
    "prefecture": "滋賀県",
    "prefecture_kana": "シガケン",
    "prefecture_code": 25,
    "city": "近江八幡市",
    "city_kana": "オウミハチマンシ",
    "town": "音羽町",
    "town_kana": "オトワチョウ",
    "street": null,
    "office_name": null,
    "office_name_kana": null
  },
  "0857": {
    "zip_code": "5230857",
    "prefecture": "滋賀県",
    "prefecture_kana": "シガケン",
    "prefecture_code": 25,
    "city": "近江八幡市",
    "city_kana": "オウミハチマンシ",
    "town": "八幡町",
    "town_kana": "ハチマンチョウ",
    "street": null,
    "office_name": null,
    "office_name_kana": null
  },
  "0861": {
    "zip_code": "5230861",
    "prefecture": "滋賀県",
    "prefecture_kana": "シガケン",
    "prefecture_code": 25,
    "city": "近江八幡市",
    "city_kana": "オウミハチマンシ",
    "town": "仲屋町元",
    "town_kana": "スワイチョウモト",
    "street": null,
    "office_name": null,
    "office_name_kana": null
  },
  "0862": {
    "zip_code": "5230862",
    "prefecture": "滋賀県",
    "prefecture_kana": "シガケン",
    "prefecture_code": 25,
    "city": "近江八幡市",
    "city_kana": "オウミハチマンシ",
    "town": "仲屋町中",
    "town_kana": "スワイチョウナカ",
    "street": null,
    "office_name": null,
    "office_name_kana": null
  },
  "0863": {
    "zip_code": "5230863",
    "prefecture": "滋賀県",
    "prefecture_kana": "シガケン",
    "prefecture_code": 25,
    "city": "近江八幡市",
    "city_kana": "オウミハチマンシ",
    "town": "仲屋町上",
    "town_kana": "スワイチョウカミ",
    "street": null,
    "office_name": null,
    "office_name_kana": null
  },
  "0864": {
    "zip_code": "5230864",
    "prefecture": "滋賀県",
    "prefecture_kana": "シガケン",
    "prefecture_code": 25,
    "city": "近江八幡市",
    "city_kana": "オウミハチマンシ",
    "town": "為心町元",
    "town_kana": "イシンチョウモト",
    "street": null,
    "office_name": null,
    "office_name_kana": null
  },
  "0865": {
    "zip_code": "5230865",
    "prefecture": "滋賀県",
    "prefecture_kana": "シガケン",
    "prefecture_code": 25,
    "city": "近江八幡市",
    "city_kana": "オウミハチマンシ",
    "town": "為心町中",
    "town_kana": "イシンチョウナカ",
    "street": null,
    "office_name": null,
    "office_name_kana": null
  },
  "0866": {
    "zip_code": "5230866",
    "prefecture": "滋賀県",
    "prefecture_kana": "シガケン",
    "prefecture_code": 25,
    "city": "近江八幡市",
    "city_kana": "オウミハチマンシ",
    "town": "為心町上",
    "town_kana": "イシンチョウカミ",
    "street": null,
    "office_name": null,
    "office_name_kana": null
  },
  "0867": {
    "zip_code": "5230867",
    "prefecture": "滋賀県",
    "prefecture_kana": "シガケン",
    "prefecture_code": 25,
    "city": "近江八幡市",
    "city_kana": "オウミハチマンシ",
    "town": "魚屋町元",
    "town_kana": "ウワイチョウモト",
    "street": null,
    "office_name": null,
    "office_name_kana": null
  },
  "0868": {
    "zip_code": "5230868",
    "prefecture": "滋賀県",
    "prefecture_kana": "シガケン",
    "prefecture_code": 25,
    "city": "近江八幡市",
    "city_kana": "オウミハチマンシ",
    "town": "魚屋町中",
    "town_kana": "ウワイチョウナカ",
    "street": null,
    "office_name": null,
    "office_name_kana": null
  },
  "0869": {
    "zip_code": "5230869",
    "prefecture": "滋賀県",
    "prefecture_kana": "シガケン",
    "prefecture_code": 25,
    "city": "近江八幡市",
    "city_kana": "オウミハチマンシ",
    "town": "魚屋町上",
    "town_kana": "ウワイチョウカミ",
    "street": null,
    "office_name": null,
    "office_name_kana": null
  },
  "0871": {
    "zip_code": "5230871",
    "prefecture": "滋賀県",
    "prefecture_kana": "シガケン",
    "prefecture_code": 25,
    "city": "近江八幡市",
    "city_kana": "オウミハチマンシ",
    "town": "新町",
    "town_kana": "シンマチ",
    "street": null,
    "office_name": null,
    "office_name_kana": null
  },
  "0872": {
    "zip_code": "5230872",
    "prefecture": "滋賀県",
    "prefecture_kana": "シガケン",
    "prefecture_code": 25,
    "city": "近江八幡市",
    "city_kana": "オウミハチマンシ",
    "town": "玉木町",
    "town_kana": "タマキチョウ",
    "street": null,
    "office_name": null,
    "office_name_kana": null
  },
  "0873": {
    "zip_code": "5230873",
    "prefecture": "滋賀県",
    "prefecture_kana": "シガケン",
    "prefecture_code": 25,
    "city": "近江八幡市",
    "city_kana": "オウミハチマンシ",
    "town": "正神町",
    "town_kana": "ショウガミチョウ",
    "street": null,
    "office_name": null,
    "office_name_kana": null
  },
  "0874": {
    "zip_code": "5230874",
    "prefecture": "滋賀県",
    "prefecture_kana": "シガケン",
    "prefecture_code": 25,
    "city": "近江八幡市",
    "city_kana": "オウミハチマンシ",
    "town": "小幡町中",
    "town_kana": "オバタチョウナカ",
    "street": null,
    "office_name": null,
    "office_name_kana": null
  },
  "0875": {
    "zip_code": "5230875",
    "prefecture": "滋賀県",
    "prefecture_kana": "シガケン",
    "prefecture_code": 25,
    "city": "近江八幡市",
    "city_kana": "オウミハチマンシ",
    "town": "小幡町上",
    "town_kana": "オバタチョウカミ",
    "street": null,
    "office_name": null,
    "office_name_kana": null
  },
  "0876": {
    "zip_code": "5230876",
    "prefecture": "滋賀県",
    "prefecture_kana": "シガケン",
    "prefecture_code": 25,
    "city": "近江八幡市",
    "city_kana": "オウミハチマンシ",
    "town": "本町",
    "town_kana": "ホンマチ",
    "street": null,
    "office_name": null,
    "office_name_kana": null
  },
  "0877": {
    "zip_code": "5230877",
    "prefecture": "滋賀県",
    "prefecture_kana": "シガケン",
    "prefecture_code": 25,
    "city": "近江八幡市",
    "city_kana": "オウミハチマンシ",
    "town": "池田町",
    "town_kana": "イケダマチ",
    "street": null,
    "office_name": null,
    "office_name_kana": null
  },
  "0881": {
    "zip_code": "5230881",
    "prefecture": "滋賀県",
    "prefecture_kana": "シガケン",
    "prefecture_code": 25,
    "city": "近江八幡市",
    "city_kana": "オウミハチマンシ",
    "town": "佐久間町",
    "town_kana": "サクマチョウ",
    "street": null,
    "office_name": null,
    "office_name_kana": null
  },
  "0882": {
    "zip_code": "5230882",
    "prefecture": "滋賀県",
    "prefecture_kana": "シガケン",
    "prefecture_code": 25,
    "city": "近江八幡市",
    "city_kana": "オウミハチマンシ",
    "town": "元玉屋町",
    "town_kana": "モトタマヤチョウ",
    "street": null,
    "office_name": null,
    "office_name_kana": null
  },
  "0883": {
    "zip_code": "5230883",
    "prefecture": "滋賀県",
    "prefecture_kana": "シガケン",
    "prefecture_code": 25,
    "city": "近江八幡市",
    "city_kana": "オウミハチマンシ",
    "town": "北元町",
    "town_kana": "キタモトチョウ",
    "street": null,
    "office_name": null,
    "office_name_kana": null
  },
  "0884": {
    "zip_code": "5230884",
    "prefecture": "滋賀県",
    "prefecture_kana": "シガケン",
    "prefecture_code": 25,
    "city": "近江八幡市",
    "city_kana": "オウミハチマンシ",
    "town": "北末町",
    "town_kana": "キタスエチョウ",
    "street": null,
    "office_name": null,
    "office_name_kana": null
  },
  "0885": {
    "zip_code": "5230885",
    "prefecture": "滋賀県",
    "prefecture_kana": "シガケン",
    "prefecture_code": 25,
    "city": "近江八幡市",
    "city_kana": "オウミハチマンシ",
    "town": "板屋町",
    "town_kana": "イタヤチョウ",
    "street": null,
    "office_name": null,
    "office_name_kana": null
  },
  "0886": {
    "zip_code": "5230886",
    "prefecture": "滋賀県",
    "prefecture_kana": "シガケン",
    "prefecture_code": 25,
    "city": "近江八幡市",
    "city_kana": "オウミハチマンシ",
    "town": "西末町",
    "town_kana": "ニシスエチョウ",
    "street": null,
    "office_name": null,
    "office_name_kana": null
  },
  "0887": {
    "zip_code": "5230887",
    "prefecture": "滋賀県",
    "prefecture_kana": "シガケン",
    "prefecture_code": 25,
    "city": "近江八幡市",
    "city_kana": "オウミハチマンシ",
    "town": "西元町",
    "town_kana": "ニシモトチョウ",
    "street": null,
    "office_name": null,
    "office_name_kana": null
  },
  "0888": {
    "zip_code": "5230888",
    "prefecture": "滋賀県",
    "prefecture_kana": "シガケン",
    "prefecture_code": 25,
    "city": "近江八幡市",
    "city_kana": "オウミハチマンシ",
    "town": "孫平治町",
    "town_kana": "マゴヘイジチョウ",
    "street": null,
    "office_name": null,
    "office_name_kana": null
  },
  "0889": {
    "zip_code": "5230889",
    "prefecture": "滋賀県",
    "prefecture_kana": "シガケン",
    "prefecture_code": 25,
    "city": "近江八幡市",
    "city_kana": "オウミハチマンシ",
    "town": "日杉町",
    "town_kana": "ヒスギチョウ",
    "street": null,
    "office_name": null,
    "office_name_kana": null
  },
  "0891": {
    "zip_code": "5230891",
    "prefecture": "滋賀県",
    "prefecture_kana": "シガケン",
    "prefecture_code": 25,
    "city": "近江八幡市",
    "city_kana": "オウミハチマンシ",
    "town": "鷹飼町",
    "town_kana": "タカカイチョウ",
    "street": null,
    "office_name": null,
    "office_name_kana": null
  },
  "0892": {
    "zip_code": "5230892",
    "prefecture": "滋賀県",
    "prefecture_kana": "シガケン",
    "prefecture_code": 25,
    "city": "近江八幡市",
    "city_kana": "オウミハチマンシ",
    "town": "出町",
    "town_kana": "デマチ",
    "street": null,
    "office_name": null,
    "office_name_kana": null
  },
  "0893": {
    "zip_code": "5230893",
    "prefecture": "滋賀県",
    "prefecture_kana": "シガケン",
    "prefecture_code": 25,
    "city": "近江八幡市",
    "city_kana": "オウミハチマンシ",
    "town": "桜宮町",
    "town_kana": "サクラミヤチョウ",
    "street": null,
    "office_name": null,
    "office_name_kana": null
  },
  "0894": {
    "zip_code": "5230894",
    "prefecture": "滋賀県",
    "prefecture_kana": "シガケン",
    "prefecture_code": 25,
    "city": "近江八幡市",
    "city_kana": "オウミハチマンシ",
    "town": "中村町",
    "town_kana": "ナカムラチョウ",
    "street": null,
    "office_name": null,
    "office_name_kana": null
  },
  "0895": {
    "zip_code": "5230895",
    "prefecture": "滋賀県",
    "prefecture_kana": "シガケン",
    "prefecture_code": 25,
    "city": "近江八幡市",
    "city_kana": "オウミハチマンシ",
    "town": "宇津呂町",
    "town_kana": "ウツロチョウ",
    "street": null,
    "office_name": null,
    "office_name_kana": null
  },
  "0896": {
    "zip_code": "5230896",
    "prefecture": "滋賀県",
    "prefecture_kana": "シガケン",
    "prefecture_code": 25,
    "city": "近江八幡市",
    "city_kana": "オウミハチマンシ",
    "town": "鷹飼町北",
    "town_kana": "タカカイチョウキタ",
    "street": null,
    "office_name": null,
    "office_name_kana": null
  },
  "0897": {
    "zip_code": "5230897",
    "prefecture": "滋賀県",
    "prefecture_kana": "シガケン",
    "prefecture_code": 25,
    "city": "近江八幡市",
    "city_kana": "オウミハチマンシ",
    "town": "鷹飼町東",
    "town_kana": "タカカイチョウヒガシ",
    "street": null,
    "office_name": null,
    "office_name_kana": null
  },
  "0898": {
    "zip_code": "5230898",
    "prefecture": "滋賀県",
    "prefecture_kana": "シガケン",
    "prefecture_code": 25,
    "city": "近江八幡市",
    "city_kana": "オウミハチマンシ",
    "town": "鷹飼町南",
    "town_kana": "タカカイチョウミナミ",
    "street": null,
    "office_name": null,
    "office_name_kana": null
  },
  "8501": {
    "zip_code": "5238501",
    "prefecture": "滋賀県",
    "prefecture_kana": "シガケン",
    "prefecture_code": 25,
    "city": "近江八幡市",
    "city_kana": "オウミハチマンシ",
    "town": "桜宮町",
    "town_kana": "サクラミヤチョウ",
    "street": "２３６",
    "office_name": "近江八幡市役所",
    "office_name_kana": "オウミハチマンシヤクシヨ"
  },
  "8502": {
    "zip_code": "5238502",
    "prefecture": "滋賀県",
    "prefecture_kana": "シガケン",
    "prefecture_code": 25,
    "city": "近江八幡市",
    "city_kana": "オウミハチマンシ",
    "town": "桜宮町",
    "town_kana": "サクラミヤチョウ",
    "street": "２４３−２",
    "office_name": "近江八幡税務署",
    "office_name_kana": "オウミハチマンゼイムシヨ"
  },
  "8503": {
    "zip_code": "5238503",
    "prefecture": "滋賀県",
    "prefecture_kana": "シガケン",
    "prefecture_code": 25,
    "city": "近江八幡市",
    "city_kana": "オウミハチマンシ",
    "town": "鷹飼町",
    "town_kana": "タカカイチョウ",
    "street": "７４４",
    "office_name": "八幡青樹会病院",
    "office_name_kana": "ハチマンセイジユカイビヨウイン"
  },
  "8507": {
    "zip_code": "5238507",
    "prefecture": "滋賀県",
    "prefecture_kana": "シガケン",
    "prefecture_code": 25,
    "city": "蒲生郡竜王町",
    "city_kana": "ガモウグンリュウオウチョウ",
    "town": "小口",
    "town_kana": "オグチ",
    "street": "１１４０−３",
    "office_name": "トラスコ中山　株式会社　プラネット滋賀　竜王支店",
    "office_name_kana": "トラスコナカヤマ カブシキガイシヤ プラネツトシガ リユウオウシテン"
  },
  "8510": {
    "zip_code": "5238510",
    "prefecture": "滋賀県",
    "prefecture_kana": "シガケン",
    "prefecture_code": 25,
    "city": "近江八幡市",
    "city_kana": "オウミハチマンシ",
    "town": "古川町",
    "town_kana": "フルカワチョウ",
    "street": "１４１４",
    "office_name": "滋賀職業能力開発短期大学校",
    "office_name_kana": "シガシヨクギヨウノウリヨクカイハツタンキダイガクコウ"
  },
  "8515": {
    "zip_code": "5238515",
    "prefecture": "滋賀県",
    "prefecture_kana": "シガケン",
    "prefecture_code": 25,
    "city": "近江八幡市",
    "city_kana": "オウミハチマンシ",
    "town": "魚屋町元",
    "town_kana": "ウワイチョウモト",
    "street": "２９",
    "office_name": "株式会社　近江兄弟社",
    "office_name_kana": "カブシキガイシヤ オウミキヨウダイシヤ"
  },
  "8523": {
    "zip_code": "5238523",
    "prefecture": "滋賀県",
    "prefecture_kana": "シガケン",
    "prefecture_code": 25,
    "city": "近江八幡市",
    "city_kana": "オウミハチマンシ",
    "town": "北之庄町",
    "town_kana": "キタノショウチョウ",
    "street": "４９２",
    "office_name": "ヴォーリズ記念病院",
    "office_name_kana": "ヴオ-リズキネンビヨウイン"
  },
  "8533": {
    "zip_code": "5238533",
    "prefecture": "滋賀県",
    "prefecture_kana": "シガケン",
    "prefecture_code": 25,
    "city": "近江八幡市",
    "city_kana": "オウミハチマンシ",
    "town": "北之庄町",
    "town_kana": "キタノショウチョウ",
    "street": "６１５番地",
    "office_name": "株式会社　たねや（ラ・コリーナ）",
    "office_name_kana": "カブシキガイシヤ タネヤ(ラ・コリ-ナ)"
  },
  "8555": {
    "zip_code": "5238555",
    "prefecture": "滋賀県",
    "prefecture_kana": "シガケン",
    "prefecture_code": 25,
    "city": "近江八幡市",
    "city_kana": "オウミハチマンシ",
    "town": "北之庄町",
    "town_kana": "キタノショウチョウ",
    "street": "９０８",
    "office_name": "株式会社　日吉",
    "office_name_kana": "カブシキガイシヤ ヒヨシ"
  },
  "8558": {
    "zip_code": "5238558",
    "prefecture": "滋賀県",
    "prefecture_kana": "シガケン",
    "prefecture_code": 25,
    "city": "近江八幡市",
    "city_kana": "オウミハチマンシ",
    "town": "宮内町",
    "town_kana": "ミヤウチチョウ",
    "street": "３番地",
    "office_name": "株式会社　たねや　日牟禮ヴィレッジ",
    "office_name_kana": "カブシキガイシヤ タネヤ ヒムレヴイレツジ"
  },
  "8651": {
    "zip_code": "5238651",
    "prefecture": "滋賀県",
    "prefecture_kana": "シガケン",
    "prefecture_code": 25,
    "city": "近江八幡市",
    "city_kana": "オウミハチマンシ",
    "town": "桜宮町",
    "town_kana": "サクラミヤチョウ",
    "street": "１９８（近江八幡郵便局私書箱第１６号）",
    "office_name": "滋賀中央信用金庫　本店",
    "office_name_kana": "シガチユウオウシンヨウキンコ ホンテン"
  }
}