{
  "0000": {
    "zip_code": "5250000",
    "prefecture": "滋賀県",
    "prefecture_kana": "シガケン",
    "prefecture_code": 25,
    "city": "草津市",
    "city_kana": "クサツシ",
    "town": "",
    "town_kana": "",
    "street": null,
    "office_name": null,
    "office_name_kana": null
  },
  "0001": {
    "zip_code": "5250001",
    "prefecture": "滋賀県",
    "prefecture_kana": "シガケン",
    "prefecture_code": 25,
    "city": "草津市",
    "city_kana": "クサツシ",
    "town": "下物町",
    "town_kana": "オロシモチョウ",
    "street": null,
    "office_name": null,
    "office_name_kana": null
  },
  "0002": {
    "zip_code": "5250002",
    "prefecture": "滋賀県",
    "prefecture_kana": "シガケン",
    "prefecture_code": 25,
    "city": "草津市",
    "city_kana": "クサツシ",
    "town": "芦浦町",
    "town_kana": "アシウラチョウ",
    "street": null,
    "office_name": null,
    "office_name_kana": null
  },
  "0003": {
    "zip_code": "5250003",
    "prefecture": "滋賀県",
    "prefecture_kana": "シガケン",
    "prefecture_code": 25,
    "city": "草津市",
    "city_kana": "クサツシ",
    "town": "長束町",
    "town_kana": "ナツカチョウ",
    "street": null,
    "office_name": null,
    "office_name_kana": null
  },
  "0004": {
    "zip_code": "5250004",
    "prefecture": "滋賀県",
    "prefecture_kana": "シガケン",
    "prefecture_code": 25,
    "city": "草津市",
    "city_kana": "クサツシ",
    "town": "上寺町",
    "town_kana": "カミデラチョウ",
    "street": null,
    "office_name": null,
    "office_name_kana": null
  },
  "0005": {
    "zip_code": "5250005",
    "prefecture": "滋賀県",
    "prefecture_kana": "シガケン",
    "prefecture_code": 25,
    "city": "草津市",
    "city_kana": "クサツシ",
    "town": "志那町",
    "town_kana": "シナチョウ",
    "street": null,
    "office_name": null,
    "office_name_kana": null
  },
  "0006": {
    "zip_code": "5250006",
    "prefecture": "滋賀県",
    "prefecture_kana": "シガケン",
    "prefecture_code": 25,
    "city": "草津市",
    "city_kana": "クサツシ",
    "town": "志那中町",
    "town_kana": "シナナカチョウ",
    "street": null,
    "office_name": null,
    "office_name_kana": null
  },
  "0007": {
    "zip_code": "5250007",
    "prefecture": "滋賀県",
    "prefecture_kana": "シガケン",
    "prefecture_code": 25,
    "city": "草津市",
    "city_kana": "クサツシ",
    "town": "下寺町",
    "town_kana": "シモデラチョウ",
    "street": null,
    "office_name": null,
    "office_name_kana": null
  },
  "0011": {
    "zip_code": "5250011",
    "prefecture": "滋賀県",
    "prefecture_kana": "シガケン",
    "prefecture_code": 25,
    "city": "草津市",
    "city_kana": "クサツシ",
    "town": "片岡町",
    "town_kana": "カタオカチョウ",
    "street": null,
    "office_name": null,
    "office_name_kana": null
  },
  "0012": {
    "zip_code": "5250012",
    "prefecture": "滋賀県",
    "prefecture_kana": "シガケン",
    "prefecture_code": 25,
    "city": "草津市",
    "city_kana": "クサツシ",
    "town": "穴村町",
    "town_kana": "アナムラチョウ",
    "street": null,
    "office_name": null,
    "office_name_kana": null
  },
  "0013": {
    "zip_code": "5250013",
    "prefecture": "滋賀県",
    "prefecture_kana": "シガケン",
    "prefecture_code": 25,
    "city": "草津市",
    "city_kana": "クサツシ",
    "town": "新堂町",
    "town_kana": "シンドウチョウ",
    "street": null,
    "office_name": null,
    "office_name_kana": null
  },
  "0014": {
    "zip_code": "5250014",
    "prefecture": "滋賀県",
    "prefecture_kana": "シガケン",
    "prefecture_code": 25,
    "city": "草津市",
    "city_kana": "クサツシ",
    "town": "駒井沢町",
    "town_kana": "コマイザワチョウ",
    "street": null,
    "office_name": null,
    "office_name_kana": null
  },
  "0015": {
    "zip_code": "5250015",
    "prefecture": "滋賀県",
    "prefecture_kana": "シガケン",
    "prefecture_code": 25,
    "city": "草津市",
    "city_kana": "クサツシ",
    "town": "集町",
    "town_kana": "アツマリチョウ",
    "street": null,
    "office_name": null,
    "office_name_kana": null
  },
  "0016": {
    "zip_code": "5250016",
    "prefecture": "滋賀県",
    "prefecture_kana": "シガケン",
    "prefecture_code": 25,
    "city": "草津市",
    "city_kana": "クサツシ",
    "town": "北大萱町",
    "town_kana": "キタオオガヤチョウ",
    "street": null,
    "office_name": null,
    "office_name_kana": null
  },
  "0021": {
    "zip_code": "5250021",
    "prefecture": "滋賀県",
    "prefecture_kana": "シガケン",
    "prefecture_code": 25,
    "city": "草津市",
    "city_kana": "クサツシ",
    "town": "川原",
    "town_kana": "カワラ",
    "street": null,
    "office_name": null,
    "office_name_kana": null
  },
  "0022": {
    "zip_code": "5250022",
    "prefecture": "滋賀県",
    "prefecture_kana": "シガケン",
    "prefecture_code": 25,
    "city": "草津市",
    "city_kana": "クサツシ",
    "town": "川原町",
    "town_kana": "カワラチョウ",
    "street": null,
    "office_name": null,
    "office_name_kana": null
  },
  "0023": {
    "zip_code": "5250023",
    "prefecture": "滋賀県",
    "prefecture_kana": "シガケン",
    "prefecture_code": 25,
    "city": "草津市",
    "city_kana": "クサツシ",
    "town": "平井",
    "town_kana": "ヒライ",
    "street": null,
    "office_name": null,
    "office_name_kana": null
  },
  "0024": {
    "zip_code": "5250024",
    "prefecture": "滋賀県",
    "prefecture_kana": "シガケン",
    "prefecture_code": 25,
    "city": "草津市",
    "city_kana": "クサツシ",
    "town": "平井町",
    "town_kana": "ヒライチョウ",
    "street": null,
    "office_name": null,
    "office_name_kana": null
  },
  "0025": {
    "zip_code": "5250025",
    "prefecture": "滋賀県",
    "prefecture_kana": "シガケン",
    "prefecture_code": 25,
    "city": "草津市",
    "city_kana": "クサツシ",
    "town": "西渋川",
    "town_kana": "ニシシブカワ",
    "street": null,
    "office_name": null,
    "office_name_kana": null
  },
  "0026": {
    "zip_code": "5250026",
    "prefecture": "滋賀県",
    "prefecture_kana": "シガケン",
    "prefecture_code": 25,
    "city": "草津市",
    "city_kana": "クサツシ",
    "town": "渋川",
    "town_kana": "シブカワ",
    "street": null,
    "office_name": null,
    "office_name_kana": null
  },
  "0027": {
    "zip_code": "5250027",
    "prefecture": "滋賀県",
    "prefecture_kana": "シガケン",
    "prefecture_code": 25,
    "city": "草津市",
    "city_kana": "クサツシ",
    "town": "野村",
    "town_kana": "ノムラ",
    "street": null,
    "office_name": null,
    "office_name_kana": null
  },
  "0028": {
    "zip_code": "5250028",
    "prefecture": "滋賀県",
    "prefecture_kana": "シガケン",
    "prefecture_code": 25,
    "city": "草津市",
    "city_kana": "クサツシ",
    "town": "上笠",
    "town_kana": "カミガサ",
    "street": null,
    "office_name": null,
    "office_name_kana": null
  },
  "0029": {
    "zip_code": "5250029",
    "prefecture": "滋賀県",
    "prefecture_kana": "シガケン",
    "prefecture_code": 25,
    "city": "草津市",
    "city_kana": "クサツシ",
    "town": "下笠町",
    "town_kana": "シモガサチョウ",
    "street": null,
    "office_name": null,
    "office_name_kana": null
  },
  "0031": {
    "zip_code": "5250031",
    "prefecture": "滋賀県",
    "prefecture_kana": "シガケン",
    "prefecture_code": 25,
    "city": "草津市",
    "city_kana": "クサツシ",
    "town": "若竹町",
    "town_kana": "ワカタケチョウ",
    "street": null,
    "office_name": null,
    "office_name_kana": null
  },
  "0032": {
    "zip_code": "5250032",
    "prefecture": "滋賀県",
    "prefecture_kana": "シガケン",
    "prefecture_code": 25,
    "city": "草津市",
    "city_kana": "クサツシ",
    "town": "大路",
    "town_kana": "オオジ",
    "street": null,
    "office_name": null,
    "office_name_kana": null
  },
  "0033": {
    "zip_code": "5250033",
    "prefecture": "滋賀県",
    "prefecture_kana": "シガケン",
    "prefecture_code": 25,
    "city": "草津市",
    "city_kana": "クサツシ",
    "town": "東草津",
    "town_kana": "ヒガシクサツ",
    "street": null,
    "office_name": null,
    "office_name_kana": null
  },
  "0034": {
    "zip_code": "5250034",
    "prefecture": "滋賀県",
    "prefecture_kana": "シガケン",
    "prefecture_code": 25,
    "city": "草津市",
    "city_kana": "クサツシ",
    "town": "草津",
    "town_kana": "クサツ",
    "street": null,
    "office_name": null,
    "office_name_kana": null
  },
  "0035": {
    "zip_code": "5250035",
    "prefecture": "滋賀県",
    "prefecture_kana": "シガケン",
    "prefecture_code": 25,
    "city": "草津市",
    "city_kana": "クサツシ",
    "town": "西草津",
    "town_kana": "ニシクサツ",
    "street": null,
    "office_name": null,
    "office_name_kana": null
  },
  "0036": {
    "zip_code": "5250036",
    "prefecture": "滋賀県",
    "prefecture_kana": "シガケン",
    "prefecture_code": 25,
    "city": "草津市",
    "city_kana": "クサツシ",
    "town": "草津町",
    "town_kana": "クサツチョウ",
    "street": null,
    "office_name": null,
    "office_name_kana": null
  },
  "0037": {
    "zip_code": "5250037",
    "prefecture": "滋賀県",
    "prefecture_kana": "シガケン",
    "prefecture_code": 25,
    "city": "草津市",
    "city_kana": "クサツシ",
    "town": "西大路町",
    "town_kana": "ニシオオジチョウ",
    "street": null,
    "office_name": null,
    "office_name_kana": null
  },
  "0041": {
    "zip_code": "5250041",
    "prefecture": "滋賀県",
    "prefecture_kana": "シガケン",
    "prefecture_code": 25,
    "city": "草津市",
    "city_kana": "クサツシ",
    "town": "青地町",
    "town_kana": "アオジチョウ",
    "street": null,
    "office_name": null,
    "office_name_kana": null
  },
  "0042": {
    "zip_code": "5250042",
    "prefecture": "滋賀県",
    "prefecture_kana": "シガケン",
    "prefecture_code": 25,
    "city": "草津市",
    "city_kana": "クサツシ",
    "town": "山寺町",
    "town_kana": "ヤマデラチョウ",
    "street": null,
    "office_name": null,
    "office_name_kana": null
  },
  "0043": {
    "zip_code": "5250043",
    "prefecture": "滋賀県",
    "prefecture_kana": "シガケン",
    "prefecture_code": 25,
    "city": "草津市",
    "city_kana": "クサツシ",
    "town": "馬場町",
    "town_kana": "バンバチョウ",
    "street": null,
    "office_name": null,
    "office_name_kana": null
  },
  "0044": {
    "zip_code": "5250044",
    "prefecture": "滋賀県",
    "prefecture_kana": "シガケン",
    "prefecture_code": 25,
    "city": "草津市",
    "city_kana": "クサツシ",
    "town": "岡本町",
    "town_kana": "オカモトチョウ",
    "street": null,
    "office_name": null,
    "office_name_kana": null
  },
  "0045": {
    "zip_code": "5250045",
    "prefecture": "滋賀県",
    "prefecture_kana": "シガケン",
    "prefecture_code": 25,
    "city": "草津市",
    "city_kana": "クサツシ",
    "town": "若草",
    "town_kana": "ワカクサ",
    "street": null,
    "office_name": null,
    "office_name_kana": null
  },
  "0047": {
    "zip_code": "5250047",
    "prefecture": "滋賀県",
    "prefecture_kana": "シガケン",
    "prefecture_code": 25,
    "city": "草津市",
    "city_kana": "クサツシ",
    "town": "追分",
    "town_kana": "オイワケ",
    "street": null,
    "office_name": null,
    "office_name_kana": null
  },
  "0048": {
    "zip_code": "5250048",
    "prefecture": "滋賀県",
    "prefecture_kana": "シガケン",
    "prefecture_code": 25,
    "city": "草津市",
    "city_kana": "クサツシ",
    "town": "追分南",
    "town_kana": "オイワケミナミ",
    "street": null,
    "office_name": null,
    "office_name_kana": null
  },
  "0050": {
    "zip_code": "5250050",
    "prefecture": "滋賀県",
    "prefecture_kana": "シガケン",
    "prefecture_code": 25,
    "city": "草津市",
    "city_kana": "クサツシ",
    "town": "南草津",
    "town_kana": "ミナミクサツ",
    "street": null,
    "office_name": null,
    "office_name_kana": null
  },
  "0051": {
    "zip_code": "5250051",
    "prefecture": "滋賀県",
    "prefecture_kana": "シガケン",
    "prefecture_code": 25,
    "city": "草津市",
    "city_kana": "クサツシ",
    "town": "木川町",
    "town_kana": "キノカワチョウ",
    "street": null,
    "office_name": null,
    "office_name_kana": null
  },
  "0052": {
    "zip_code": "5250052",
    "prefecture": "滋賀県",
    "prefecture_kana": "シガケン",
    "prefecture_code": 25,
    "city": "草津市",
    "city_kana": "クサツシ",
    "town": "西矢倉",
    "town_kana": "ニシヤグラ",
    "street": null,
    "office_name": null,
    "office_name_kana": null
  },
  "0053": {
    "zip_code": "5250053",
    "prefecture": "滋賀県",
    "prefecture_kana": "シガケン",
    "prefecture_code": 25,
    "city": "草津市",
    "city_kana": "クサツシ",
    "town": "矢倉",
    "town_kana": "ヤグラ",
    "street": null,
    "office_name": null,
    "office_name_kana": null
  },
  "0054": {
    "zip_code": "5250054",
    "prefecture": "滋賀県",
    "prefecture_kana": "シガケン",
    "prefecture_code": 25,
    "city": "草津市",
    "city_kana": "クサツシ",
    "town": "東矢倉",
    "town_kana": "ヒガシヤグラ",
    "street": null,
    "office_name": null,
    "office_name_kana": null
  },
  "0055": {
    "zip_code": "5250055",
    "prefecture": "滋賀県",
    "prefecture_kana": "シガケン",
    "prefecture_code": 25,
    "city": "草津市",
    "city_kana": "クサツシ",
    "town": "野路町",
    "town_kana": "ノジチョウ",
    "street": null,
    "office_name": null,
    "office_name_kana": null
  },
  "0056": {
    "zip_code": "5250056",
    "prefecture": "滋賀県",
    "prefecture_kana": "シガケン",
    "prefecture_code": 25,
    "city": "草津市",
    "city_kana": "クサツシ",
    "town": "南笠町",
    "town_kana": "ミナミガサチョウ",
    "street": null,
    "office_name": null,
    "office_name_kana": null
  },
  "0057": {
    "zip_code": "5250057",
    "prefecture": "滋賀県",
    "prefecture_kana": "シガケン",
    "prefecture_code": 25,
    "city": "草津市",
    "city_kana": "クサツシ",
    "town": "桜ケ丘",
    "town_kana": "サクラガオカ",
    "street": null,
    "office_name": null,
    "office_name_kana": null
  },
  "0058": {
    "zip_code": "5250058",
    "prefecture": "滋賀県",
    "prefecture_kana": "シガケン",
    "prefecture_code": 25,
    "city": "草津市",
    "city_kana": "クサツシ",
    "town": "野路東",
    "town_kana": "ノジヒガシ",
    "street": null,
    "office_name": null,
    "office_name_kana": null
  },
  "0059": {
    "zip_code": "5250059",
    "prefecture": "滋賀県",
    "prefecture_kana": "シガケン",
    "prefecture_code": 25,
    "city": "草津市",
    "city_kana": "クサツシ",
    "town": "野路",
    "town_kana": "ノジ",
    "street": null,
    "office_name": null,
    "office_name_kana": null
  },
  "0061": {
    "zip_code": "5250061",
    "prefecture": "滋賀県",
    "prefecture_kana": "シガケン",
    "prefecture_code": 25,
    "city": "草津市",
    "city_kana": "クサツシ",
    "town": "北山田町",
    "town_kana": "キタヤマダチョウ",
    "street": null,
    "office_name": null,
    "office_name_kana": null
  },
  "0062": {
    "zip_code": "5250062",
    "prefecture": "滋賀県",
    "prefecture_kana": "シガケン",
    "prefecture_code": 25,
    "city": "草津市",
    "city_kana": "クサツシ",
    "town": "山田町",
    "town_kana": "ヤマダチョウ",
    "street": null,
    "office_name": null,
    "office_name_kana": null
  },
  "0063": {
    "zip_code": "5250063",
    "prefecture": "滋賀県",
    "prefecture_kana": "シガケン",
    "prefecture_code": 25,
    "city": "草津市",
    "city_kana": "クサツシ",
    "town": "南山田町",
    "town_kana": "ミナミヤマダチョウ",
    "street": null,
    "office_name": null,
    "office_name_kana": null
  },
  "0064": {
    "zip_code": "5250064",
    "prefecture": "滋賀県",
    "prefecture_kana": "シガケン",
    "prefecture_code": 25,
    "city": "草津市",
    "city_kana": "クサツシ",
    "town": "御倉町",
    "town_kana": "ミクラチョウ",
    "street": null,
    "office_name": null,
    "office_name_kana": null
  },
  "0065": {
    "zip_code": "5250065",
    "prefecture": "滋賀県",
    "prefecture_kana": "シガケン",
    "prefecture_code": 25,
    "city": "草津市",
    "city_kana": "クサツシ",
    "town": "橋岡町",
    "town_kana": "ハシオカチョウ",
    "street": null,
    "office_name": null,
    "office_name_kana": null
  },
  "0066": {
    "zip_code": "5250066",
    "prefecture": "滋賀県",
    "prefecture_kana": "シガケン",
    "prefecture_code": 25,
    "city": "草津市",
    "city_kana": "クサツシ",
    "town": "矢橋町",
    "town_kana": "ヤバセチョウ",
    "street": null,
    "office_name": null,
    "office_name_kana": null
  },
  "0067": {
    "zip_code": "5250067",
    "prefecture": "滋賀県",
    "prefecture_kana": "シガケン",
    "prefecture_code": 25,
    "city": "草津市",
    "city_kana": "クサツシ",
    "town": "新浜町",
    "town_kana": "シンハマチョウ",
    "street": null,
    "office_name": null,
    "office_name_kana": null
  },
  "0071": {
    "zip_code": "5250071",
    "prefecture": "滋賀県",
    "prefecture_kana": "シガケン",
    "prefecture_code": 25,
    "city": "草津市",
    "city_kana": "クサツシ",
    "town": "南笠東",
    "town_kana": "ミナミガサヒガシ",
    "street": null,
    "office_name": null,
    "office_name_kana": null
  },
  "0072": {
    "zip_code": "5250072",
    "prefecture": "滋賀県",
    "prefecture_kana": "シガケン",
    "prefecture_code": 25,
    "city": "草津市",
    "city_kana": "クサツシ",
    "town": "笠山",
    "town_kana": "カサヤマ",
    "street": null,
    "office_name": null,
    "office_name_kana": null
  },
  "8501": {
    "zip_code": "5258501",
    "prefecture": "滋賀県",
    "prefecture_kana": "シガケン",
    "prefecture_code": 25,
    "city": "草津市",
    "city_kana": "クサツシ",
    "town": "東草津",
    "town_kana": "ヒガシクサツ",
    "street": "２丁目３−３８",
    "office_name": "草津電機　株式会社",
    "office_name_kana": "クサツデンキ カブシキガイシヤ"
  },
  "8502": {
    "zip_code": "5258502",
    "prefecture": "滋賀県",
    "prefecture_kana": "シガケン",
    "prefecture_code": 25,
    "city": "草津市",
    "city_kana": "クサツシ",
    "town": "桜ケ丘",
    "town_kana": "サクラガオカ",
    "street": "５丁目１番５号",
    "office_name": "松下電器産業　株式会社　カーエアコン部",
    "office_name_kana": "マツシタデンキサンギヨウ カブシキガイシヤ カ-エアコンブ"
  },
  "8505": {
    "zip_code": "5258505",
    "prefecture": "滋賀県",
    "prefecture_kana": "シガケン",
    "prefecture_code": 25,
    "city": "草津市",
    "city_kana": "クサツシ",
    "town": "南笠町",
    "town_kana": "ミナミガサチョウ",
    "street": "新池１０２",
    "office_name": "滋賀県　赤十字血液センター",
    "office_name_kana": "シガケン セキジユウジケツエキセンタ-"
  },
  "8511": {
    "zip_code": "5258511",
    "prefecture": "滋賀県",
    "prefecture_kana": "シガケン",
    "prefecture_code": 25,
    "city": "草津市",
    "city_kana": "クサツシ",
    "town": "南山田町",
    "town_kana": "ミナミヤマダチョウ",
    "street": "８５番地",
    "office_name": "キヤノンマシナリー　株式会社",
    "office_name_kana": "キヤノンマシナリ- カブシキガイシヤ"
  },
  "8515": {
    "zip_code": "5258515",
    "prefecture": "滋賀県",
    "prefecture_kana": "シガケン",
    "prefecture_code": 25,
    "city": "草津市",
    "city_kana": "クサツシ",
    "town": "渋川",
    "town_kana": "シブカワ",
    "street": "１丁目１０６０−２１",
    "office_name": "株式会社　草津近鉄百貨店",
    "office_name_kana": "カブシキガイシヤ クサツキンテツヒヤツカテン"
  },
  "8520": {
    "zip_code": "5258520",
    "prefecture": "滋賀県",
    "prefecture_kana": "シガケン",
    "prefecture_code": 25,
    "city": "草津市",
    "city_kana": "クサツシ",
    "town": "野路東",
    "town_kana": "ノジヒガシ",
    "street": "２丁目３−１−１",
    "office_name": "松下電器産業　株式会社　エアコン事業部",
    "office_name_kana": "マツシタデンキサンギヨウ カブシキガイシヤ エアコンジギヨウブ"
  },
  "8521": {
    "zip_code": "5258521",
    "prefecture": "滋賀県",
    "prefecture_kana": "シガケン",
    "prefecture_code": 25,
    "city": "草津市",
    "city_kana": "クサツシ",
    "town": "野村",
    "town_kana": "ノムラ",
    "street": "３丁目４−１",
    "office_name": "不二電機工業　株式会社",
    "office_name_kana": "フジデンキコウギヨウ カブシキガイシヤ"
  },
  "8522": {
    "zip_code": "5258522",
    "prefecture": "滋賀県",
    "prefecture_kana": "シガケン",
    "prefecture_code": 25,
    "city": "草津市",
    "city_kana": "クサツシ",
    "town": "馬場町",
    "town_kana": "バンバチョウ",
    "street": "１２００−２２",
    "office_name": "東西電工　株式会社",
    "office_name_kana": "トウザイデンコウ カブシキガイシヤ"
  },
  "8525": {
    "zip_code": "5258525",
    "prefecture": "滋賀県",
    "prefecture_kana": "シガケン",
    "prefecture_code": 25,
    "city": "草津市",
    "city_kana": "クサツシ",
    "town": "草津",
    "town_kana": "クサツ",
    "street": "３丁目１４−７５",
    "office_name": "滋賀県草津県事務所",
    "office_name_kana": "シガケンクサツケンジムシヨ"
  },
  "8526": {
    "zip_code": "5258526",
    "prefecture": "滋賀県",
    "prefecture_kana": "シガケン",
    "prefecture_code": 25,
    "city": "草津市",
    "city_kana": "クサツシ",
    "town": "岡本町",
    "town_kana": "オカモトチョウ",
    "street": "大谷１０００番地２",
    "office_name": "ダイキン工業　株式会社　滋賀製作所",
    "office_name_kana": "ダイキンコウギヨウ カブシキガイシヤ シガセイサクシヨ"
  },
  "8555": {
    "zip_code": "5258555",
    "prefecture": "滋賀県",
    "prefecture_kana": "シガケン",
    "prefecture_code": 25,
    "city": "草津市",
    "city_kana": "クサツシ",
    "town": "野路東",
    "town_kana": "ノジヒガシ",
    "street": "２丁目３番１−２号",
    "office_name": "松下冷機　株式会社　冷蔵庫事業部",
    "office_name_kana": "マツシタレイキ カブシキガイシヤ レイゾウコジギヨウブ"
  },
  "8558": {
    "zip_code": "5258558",
    "prefecture": "滋賀県",
    "prefecture_kana": "シガケン",
    "prefecture_code": 25,
    "city": "草津市",
    "city_kana": "クサツシ",
    "town": "青地町",
    "town_kana": "アオジチョウ",
    "street": "１０００",
    "office_name": "川重冷熱工業　株式会社",
    "office_name_kana": "カワジユウレイネツコウギヨウ カブシキガイシヤ"
  },
  "8566": {
    "zip_code": "5258566",
    "prefecture": "滋賀県",
    "prefecture_kana": "シガケン",
    "prefecture_code": 25,
    "city": "草津市",
    "city_kana": "クサツシ",
    "town": "野路町",
    "town_kana": "ノジチョウ",
    "street": "１７８番地",
    "office_name": "学校法人　聖パウロ学園　光泉中学・高等学校",
    "office_name_kana": "ガツコウホウジン セイパウロガクエン コウセンチユウガク・コウトウガツコウ"
  },
  "8567": {
    "zip_code": "5258567",
    "prefecture": "滋賀県",
    "prefecture_kana": "シガケン",
    "prefecture_code": 25,
    "city": "草津市",
    "city_kana": "クサツシ",
    "town": "山寺町",
    "town_kana": "ヤマデラチョウ",
    "street": "４００",
    "office_name": "新世代　株式会社",
    "office_name_kana": "シンセダイ カブシキガイシヤ"
  },
  "8577": {
    "zip_code": "5258577",
    "prefecture": "滋賀県",
    "prefecture_kana": "シガケン",
    "prefecture_code": 25,
    "city": "草津市",
    "city_kana": "クサツシ",
    "town": "野路東",
    "town_kana": "ノジヒガシ",
    "street": "１丁目１番１号",
    "office_name": "立命館大学　びわこくさつキャンパス",
    "office_name_kana": "リツメイカンダイガク ビワコクサツキヤンパス"
  },
  "8585": {
    "zip_code": "5258585",
    "prefecture": "滋賀県",
    "prefecture_kana": "シガケン",
    "prefecture_code": 25,
    "city": "草津市",
    "city_kana": "クサツシ",
    "town": "矢橋町",
    "town_kana": "ヤバセチョウ",
    "street": "１６６０",
    "office_name": "医療法人　誠光会　草津総合病院",
    "office_name_kana": "イリヨウホウジン セイコウカイ クサツソウゴウビヨウイン"
  },
  "8588": {
    "zip_code": "5258588",
    "prefecture": "滋賀県",
    "prefecture_kana": "シガケン",
    "prefecture_code": 25,
    "city": "草津市",
    "city_kana": "クサツシ",
    "town": "草津",
    "town_kana": "クサツ",
    "street": "３丁目１３−３０",
    "office_name": "草津市役所",
    "office_name_kana": "クサツシヤクシヨ"
  }
}