{
  "0101": {
    "zip_code": "5290101",
    "prefecture": "滋賀県",
    "prefecture_kana": "シガケン",
    "prefecture_code": "25",
    "city": "長浜市",
    "city_kana": "ナガハマシ",
    "town": "唐国町",
    "town_kana": "カラクニチョウ",
    "street": null,
    "office_name": null,
    "office_name_kana": null
  },
  "0102": {
    "zip_code": "5290102",
    "prefecture": "滋賀県",
    "prefecture_kana": "シガケン",
    "prefecture_code": "25",
    "city": "長浜市",
    "city_kana": "ナガハマシ",
    "town": "月ヶ瀬町",
    "town_kana": "ツキガセチョウ",
    "street": null,
    "office_name": null,
    "office_name_kana": null
  },
  "0103": {
    "zip_code": "5290103",
    "prefecture": "滋賀県",
    "prefecture_kana": "シガケン",
    "prefecture_code": "25",
    "city": "長浜市",
    "city_kana": "ナガハマシ",
    "town": "中野町",
    "town_kana": "ナカノチョウ",
    "street": null,
    "office_name": null,
    "office_name_kana": null
  },
  "0111": {
    "zip_code": "5290111",
    "prefecture": "滋賀県",
    "prefecture_kana": "シガケン",
    "prefecture_code": "25",
    "city": "長浜市",
    "city_kana": "ナガハマシ",
    "town": "三川町",
    "town_kana": "ミカワチョウ",
    "street": null,
    "office_name": null,
    "office_name_kana": null
  },
  "0112": {
    "zip_code": "5290112",
    "prefecture": "滋賀県",
    "prefecture_kana": "シガケン",
    "prefecture_code": "25",
    "city": "長浜市",
    "city_kana": "ナガハマシ",
    "town": "宮部町",
    "town_kana": "ミヤベチョウ",
    "street": null,
    "office_name": null,
    "office_name_kana": null
  },
  "0113": {
    "zip_code": "5290113",
    "prefecture": "滋賀県",
    "prefecture_kana": "シガケン",
    "prefecture_code": "25",
    "city": "長浜市",
    "city_kana": "ナガハマシ",
    "town": "大井町",
    "town_kana": "オオイチョウ",
    "street": null,
    "office_name": null,
    "office_name_kana": null
  },
  "0121": {
    "zip_code": "5290121",
    "prefecture": "滋賀県",
    "prefecture_kana": "シガケン",
    "prefecture_code": "25",
    "city": "長浜市",
    "city_kana": "ナガハマシ",
    "town": "桜町",
    "town_kana": "サクラチョウ",
    "street": null,
    "office_name": null,
    "office_name_kana": null
  },
  "0122": {
    "zip_code": "5290122",
    "prefecture": "滋賀県",
    "prefecture_kana": "シガケン",
    "prefecture_code": "25",
    "city": "長浜市",
    "city_kana": "ナガハマシ",
    "town": "酢",
    "town_kana": "ス",
    "street": null,
    "office_name": null,
    "office_name_kana": null
  },
  "0123": {
    "zip_code": "5290123",
    "prefecture": "滋賀県",
    "prefecture_kana": "シガケン",
    "prefecture_code": "25",
    "city": "長浜市",
    "city_kana": "ナガハマシ",
    "town": "西大井町",
    "town_kana": "ニシオオイチョウ",
    "street": null,
    "office_name": null,
    "office_name_kana": null
  },
  "0131": {
    "zip_code": "5290131",
    "prefecture": "滋賀県",
    "prefecture_kana": "シガケン",
    "prefecture_code": "25",
    "city": "長浜市",
    "city_kana": "ナガハマシ",
    "town": "柿ノ木",
    "town_kana": "カキノキ",
    "street": null,
    "office_name": null,
    "office_name_kana": null
  },
  "0132": {
    "zip_code": "5290132",
    "prefecture": "滋賀県",
    "prefecture_kana": "シガケン",
    "prefecture_code": "25",
    "city": "長浜市",
    "city_kana": "ナガハマシ",
    "town": "長田町",
    "town_kana": "ナガタチョウ",
    "street": null,
    "office_name": null,
    "office_name_kana": null
  },
  "0133": {
    "zip_code": "5290133",
    "prefecture": "滋賀県",
    "prefecture_kana": "シガケン",
    "prefecture_code": "25",
    "city": "長浜市",
    "city_kana": "ナガハマシ",
    "town": "新旭町",
    "town_kana": "シンアサヒマチ",
    "street": null,
    "office_name": null,
    "office_name_kana": null
  },
  "0141": {
    "zip_code": "5290141",
    "prefecture": "滋賀県",
    "prefecture_kana": "シガケン",
    "prefecture_code": "25",
    "city": "長浜市",
    "city_kana": "ナガハマシ",
    "town": "五村",
    "town_kana": "ゴムラ",
    "street": null,
    "office_name": null,
    "office_name_kana": null
  },
  "0142": {
    "zip_code": "5290142",
    "prefecture": "滋賀県",
    "prefecture_kana": "シガケン",
    "prefecture_code": "25",
    "city": "長浜市",
    "city_kana": "ナガハマシ",
    "town": "田町",
    "town_kana": "タチョウ",
    "street": null,
    "office_name": null,
    "office_name_kana": null
  },
  "0143": {
    "zip_code": "5290143",
    "prefecture": "滋賀県",
    "prefecture_kana": "シガケン",
    "prefecture_code": "25",
    "city": "長浜市",
    "city_kana": "ナガハマシ",
    "town": "本町",
    "town_kana": "ホンチョウ",
    "street": null,
    "office_name": null,
    "office_name_kana": null
  },
  "0144": {
    "zip_code": "5290144",
    "prefecture": "滋賀県",
    "prefecture_kana": "シガケン",
    "prefecture_code": "25",
    "city": "長浜市",
    "city_kana": "ナガハマシ",
    "town": "大寺町",
    "town_kana": "ダイジチョウ",
    "street": null,
    "office_name": null,
    "office_name_kana": null
  },
  "0201": {
    "zip_code": "5290201",
    "prefecture": "滋賀県",
    "prefecture_kana": "シガケン",
    "prefecture_code": "25",
    "city": "長浜市",
    "city_kana": "ナガハマシ",
    "town": "高月町横山",
    "town_kana": "タカツキチョウヨコヤマ",
    "street": null,
    "office_name": null,
    "office_name_kana": null
  },
  "0202": {
    "zip_code": "5290202",
    "prefecture": "滋賀県",
    "prefecture_kana": "シガケン",
    "prefecture_code": "25",
    "city": "長浜市",
    "city_kana": "ナガハマシ",
    "town": "高月町東高田",
    "town_kana": "タカツキチョウヒガシタカタ",
    "street": null,
    "office_name": null,
    "office_name_kana": null
  },
  "0203": {
    "zip_code": "5290203",
    "prefecture": "滋賀県",
    "prefecture_kana": "シガケン",
    "prefecture_code": "25",
    "city": "長浜市",
    "city_kana": "ナガハマシ",
    "town": "高月町磯野",
    "town_kana": "タカツキチョウイソノ",
    "street": null,
    "office_name": null,
    "office_name_kana": null
  },
  "0204": {
    "zip_code": "5290204",
    "prefecture": "滋賀県",
    "prefecture_kana": "シガケン",
    "prefecture_code": "25",
    "city": "長浜市",
    "city_kana": "ナガハマシ",
    "town": "高月町布施",
    "town_kana": "タカツキチョウフセ",
    "street": null,
    "office_name": null,
    "office_name_kana": null
  },
  "0205": {
    "zip_code": "5290205",
    "prefecture": "滋賀県",
    "prefecture_kana": "シガケン",
    "prefecture_code": "25",
    "city": "長浜市",
    "city_kana": "ナガハマシ",
    "town": "高月町唐川",
    "town_kana": "タカツキチョウカラカワ",
    "street": null,
    "office_name": null,
    "office_name_kana": null
  },
  "0211": {
    "zip_code": "5290211",
    "prefecture": "滋賀県",
    "prefecture_kana": "シガケン",
    "prefecture_code": "25",
    "city": "長浜市",
    "city_kana": "ナガハマシ",
    "town": "高月町保延寺",
    "town_kana": "タカツキチョウホウエンジ",
    "street": null,
    "office_name": null,
    "office_name_kana": null
  },
  "0212": {
    "zip_code": "5290212",
    "prefecture": "滋賀県",
    "prefecture_kana": "シガケン",
    "prefecture_code": "25",
    "city": "長浜市",
    "city_kana": "ナガハマシ",
    "town": "高月町井口",
    "town_kana": "タカツキチョウイノクチ",
    "street": null,
    "office_name": null,
    "office_name_kana": null
  },
  "0213": {
    "zip_code": "5290213",
    "prefecture": "滋賀県",
    "prefecture_kana": "シガケン",
    "prefecture_code": "25",
    "city": "長浜市",
    "city_kana": "ナガハマシ",
    "town": "高月町持寺",
    "town_kana": "タカツキチョウモチデラ",
    "street": null,
    "office_name": null,
    "office_name_kana": null
  },
  "0214": {
    "zip_code": "5290214",
    "prefecture": "滋賀県",
    "prefecture_kana": "シガケン",
    "prefecture_code": "25",
    "city": "長浜市",
    "city_kana": "ナガハマシ",
    "town": "高月町洞戸",
    "town_kana": "タカツキチョウホラド",
    "street": null,
    "office_name": null,
    "office_name_kana": null
  },
  "0215": {
    "zip_code": "5290215",
    "prefecture": "滋賀県",
    "prefecture_kana": "シガケン",
    "prefecture_code": "25",
    "city": "長浜市",
    "city_kana": "ナガハマシ",
    "town": "高月町尾山",
    "town_kana": "タカツキチョウオヤマ",
    "street": null,
    "office_name": null,
    "office_name_kana": null
  },
  "0221": {
    "zip_code": "5290221",
    "prefecture": "滋賀県",
    "prefecture_kana": "シガケン",
    "prefecture_code": "25",
    "city": "長浜市",
    "city_kana": "ナガハマシ",
    "town": "高月町高野",
    "town_kana": "タカツキチョウタカノ",
    "street": null,
    "office_name": null,
    "office_name_kana": null
  },
  "0222": {
    "zip_code": "5290222",
    "prefecture": "滋賀県",
    "prefecture_kana": "シガケン",
    "prefecture_code": "25",
    "city": "長浜市",
    "city_kana": "ナガハマシ",
    "town": "高月町雨森",
    "town_kana": "タカツキチョウアメノモリ",
    "street": null,
    "office_name": null,
    "office_name_kana": null
  },
  "0223": {
    "zip_code": "5290223",
    "prefecture": "滋賀県",
    "prefecture_kana": "シガケン",
    "prefecture_code": "25",
    "city": "長浜市",
    "city_kana": "ナガハマシ",
    "town": "高月町馬上",
    "town_kana": "タカツキチョウマケ",
    "street": null,
    "office_name": null,
    "office_name_kana": null
  },
  "0231": {
    "zip_code": "5290231",
    "prefecture": "滋賀県",
    "prefecture_kana": "シガケン",
    "prefecture_code": "25",
    "city": "長浜市",
    "city_kana": "ナガハマシ",
    "town": "高月町森本",
    "town_kana": "タカツキチョウモリモト",
    "street": null,
    "office_name": null,
    "office_name_kana": null
  },
  "0232": {
    "zip_code": "5290232",
    "prefecture": "滋賀県",
    "prefecture_kana": "シガケン",
    "prefecture_code": "25",
    "city": "長浜市",
    "city_kana": "ナガハマシ",
    "town": "高月町落川",
    "town_kana": "タカツキチョウオチカワ",
    "street": null,
    "office_name": null,
    "office_name_kana": null
  },
  "0233": {
    "zip_code": "5290233",
    "prefecture": "滋賀県",
    "prefecture_kana": "シガケン",
    "prefecture_code": "25",
    "city": "長浜市",
    "city_kana": "ナガハマシ",
    "town": "高月町渡岸寺",
    "town_kana": "タカツキチョウドウガンジ",
    "street": null,
    "office_name": null,
    "office_name_kana": null
  },
  "0234": {
    "zip_code": "5290234",
    "prefecture": "滋賀県",
    "prefecture_kana": "シガケン",
    "prefecture_code": "25",
    "city": "長浜市",
    "city_kana": "ナガハマシ",
    "town": "高月町柏原",
    "town_kana": "タカツキチョウカシハラ",
    "street": null,
    "office_name": null,
    "office_name_kana": null
  },
  "0241": {
    "zip_code": "5290241",
    "prefecture": "滋賀県",
    "prefecture_kana": "シガケン",
    "prefecture_code": "25",
    "city": "長浜市",
    "city_kana": "ナガハマシ",
    "town": "高月町高月",
    "town_kana": "タカツキチョウタカツキ",
    "street": null,
    "office_name": null,
    "office_name_kana": null
  },
  "0251": {
    "zip_code": "5290251",
    "prefecture": "滋賀県",
    "prefecture_kana": "シガケン",
    "prefecture_code": "25",
    "city": "長浜市",
    "city_kana": "ナガハマシ",
    "town": "高月町宇根",
    "town_kana": "タカツキチョウウネ",
    "street": null,
    "office_name": null,
    "office_name_kana": null
  },
  "0252": {
    "zip_code": "5290252",
    "prefecture": "滋賀県",
    "prefecture_kana": "シガケン",
    "prefecture_code": "25",
    "city": "長浜市",
    "city_kana": "ナガハマシ",
    "town": "高月町東阿閉",
    "town_kana": "タカツキチョウヒガシアツジ",
    "street": null,
    "office_name": null,
    "office_name_kana": null
  },
  "0253": {
    "zip_code": "5290253",
    "prefecture": "滋賀県",
    "prefecture_kana": "シガケン",
    "prefecture_code": "25",
    "city": "長浜市",
    "city_kana": "ナガハマシ",
    "town": "高月町西阿閉",
    "town_kana": "タカツキチョウニシアツジ",
    "street": null,
    "office_name": null,
    "office_name_kana": null
  },
  "0261": {
    "zip_code": "5290261",
    "prefecture": "滋賀県",
    "prefecture_kana": "シガケン",
    "prefecture_code": "25",
    "city": "長浜市",
    "city_kana": "ナガハマシ",
    "town": "高月町東物部",
    "town_kana": "タカツキチョウヒガシモノベ",
    "street": null,
    "office_name": null,
    "office_name_kana": null
  },
  "0262": {
    "zip_code": "5290262",
    "prefecture": "滋賀県",
    "prefecture_kana": "シガケン",
    "prefecture_code": "25",
    "city": "長浜市",
    "city_kana": "ナガハマシ",
    "town": "高月町西物部",
    "town_kana": "タカツキチョウニシモノベ",
    "street": null,
    "office_name": null,
    "office_name_kana": null
  },
  "0263": {
    "zip_code": "5290263",
    "prefecture": "滋賀県",
    "prefecture_kana": "シガケン",
    "prefecture_code": "25",
    "city": "長浜市",
    "city_kana": "ナガハマシ",
    "town": "高月町東柳野",
    "town_kana": "タカツキチョウヒガシヤナギノ",
    "street": null,
    "office_name": null,
    "office_name_kana": null
  },
  "0264": {
    "zip_code": "5290264",
    "prefecture": "滋賀県",
    "prefecture_kana": "シガケン",
    "prefecture_code": "25",
    "city": "長浜市",
    "city_kana": "ナガハマシ",
    "town": "高月町柳野中",
    "town_kana": "タカツキチョウヤナギノナカ",
    "street": null,
    "office_name": null,
    "office_name_kana": null
  },
  "0265": {
    "zip_code": "5290265",
    "prefecture": "滋賀県",
    "prefecture_kana": "シガケン",
    "prefecture_code": "25",
    "city": "長浜市",
    "city_kana": "ナガハマシ",
    "town": "高月町西柳野",
    "town_kana": "タカツキチョウニシヤナギノ",
    "street": null,
    "office_name": null,
    "office_name_kana": null
  },
  "0271": {
    "zip_code": "5290271",
    "prefecture": "滋賀県",
    "prefecture_kana": "シガケン",
    "prefecture_code": "25",
    "city": "長浜市",
    "city_kana": "ナガハマシ",
    "town": "高月町熊野",
    "town_kana": "タカツキチョウクマノ",
    "street": null,
    "office_name": null,
    "office_name_kana": null
  },
  "0272": {
    "zip_code": "5290272",
    "prefecture": "滋賀県",
    "prefecture_kana": "シガケン",
    "prefecture_code": "25",
    "city": "長浜市",
    "city_kana": "ナガハマシ",
    "town": "高月町片山",
    "town_kana": "タカツキチョウカタヤマ",
    "street": null,
    "office_name": null,
    "office_name_kana": null
  },
  "0273": {
    "zip_code": "5290273",
    "prefecture": "滋賀県",
    "prefecture_kana": "シガケン",
    "prefecture_code": "25",
    "city": "長浜市",
    "city_kana": "ナガハマシ",
    "town": "高月町西野",
    "town_kana": "タカツキチョウニシノ",
    "street": null,
    "office_name": null,
    "office_name_kana": null
  },
  "0274": {
    "zip_code": "5290274",
    "prefecture": "滋賀県",
    "prefecture_kana": "シガケン",
    "prefecture_code": "25",
    "city": "長浜市",
    "city_kana": "ナガハマシ",
    "town": "高月町松尾",
    "town_kana": "タカツキチョウマツオ",
    "street": null,
    "office_name": null,
    "office_name_kana": null
  },
  "0275": {
    "zip_code": "5290275",
    "prefecture": "滋賀県",
    "prefecture_kana": "シガケン",
    "prefecture_code": "25",
    "city": "長浜市",
    "city_kana": "ナガハマシ",
    "town": "高月町重則",
    "town_kana": "タカツキチョウシゲノリ",
    "street": null,
    "office_name": null,
    "office_name_kana": null
  },
  "0292": {
    "zip_code": "5290292",
    "prefecture": "滋賀県",
    "prefecture_kana": "シガケン",
    "prefecture_code": "25",
    "city": "長浜市",
    "city_kana": "ナガハマシ",
    "town": "高月町高月",
    "town_kana": "タカツキチョウタカツキ",
    "street": "１９７９",
    "office_name": "日本電気硝子　株式会社　滋賀高月事業場",
    "office_name_kana": "ニツポンデンキガラス カブシキガイシヤ シガタカツキジギヨウジヨウ"
  },
  "0301": {
    "zip_code": "5290301",
    "prefecture": "滋賀県",
    "prefecture_kana": "シガケン",
    "prefecture_code": "25",
    "city": "長浜市",
    "city_kana": "ナガハマシ",
    "town": "小谷上山田町",
    "town_kana": "オダニカミヤマダチョウ",
    "street": null,
    "office_name": null,
    "office_name_kana": null
  },
  "0302": {
    "zip_code": "5290302",
    "prefecture": "滋賀県",
    "prefecture_kana": "シガケン",
    "prefecture_code": "25",
    "city": "長浜市",
    "city_kana": "ナガハマシ",
    "town": "下山田",
    "town_kana": "シモヤマダ",
    "street": null,
    "office_name": null,
    "office_name_kana": null
  },
  "0303": {
    "zip_code": "5290303",
    "prefecture": "滋賀県",
    "prefecture_kana": "シガケン",
    "prefecture_code": "25",
    "city": "長浜市",
    "city_kana": "ナガハマシ",
    "town": "湖北町二俣",
    "town_kana": "コホクチョウフタマタ",
    "street": null,
    "office_name": null,
    "office_name_kana": null
  },
  "0304": {
    "zip_code": "5290304",
    "prefecture": "滋賀県",
    "prefecture_kana": "シガケン",
    "prefecture_code": "25",
    "city": "長浜市",
    "city_kana": "ナガハマシ",
    "town": "小谷丁野町",
    "town_kana": "オダニヨウノチョウ",
    "street": null,
    "office_name": null,
    "office_name_kana": null
  },
  "0311": {
    "zip_code": "5290311",
    "prefecture": "滋賀県",
    "prefecture_kana": "シガケン",
    "prefecture_code": "25",
    "city": "長浜市",
    "city_kana": "ナガハマシ",
    "town": "小谷美濃山町",
    "town_kana": "オダニミノヤマチョウ",
    "street": null,
    "office_name": null,
    "office_name_kana": null
  },
  "0312": {
    "zip_code": "5290312",
    "prefecture": "滋賀県",
    "prefecture_kana": "シガケン",
    "prefecture_code": "25",
    "city": "長浜市",
    "city_kana": "ナガハマシ",
    "town": "小谷郡上町",
    "town_kana": "オダニグジョウチョウ",
    "street": null,
    "office_name": null,
    "office_name_kana": null
  },
  "0313": {
    "zip_code": "5290313",
    "prefecture": "滋賀県",
    "prefecture_kana": "シガケン",
    "prefecture_code": "25",
    "city": "長浜市",
    "city_kana": "ナガハマシ",
    "town": "湖北町伊部",
    "town_kana": "コホクチョウイベ",
    "street": null,
    "office_name": null,
    "office_name_kana": null
  },
  "0314": {
    "zip_code": "5290314",
    "prefecture": "滋賀県",
    "prefecture_kana": "シガケン",
    "prefecture_code": "25",
    "city": "長浜市",
    "city_kana": "ナガハマシ",
    "town": "湖北町留目",
    "town_kana": "コホクチョウトドメ",
    "street": null,
    "office_name": null,
    "office_name_kana": null
  },
  "0315": {
    "zip_code": "5290315",
    "prefecture": "滋賀県",
    "prefecture_kana": "シガケン",
    "prefecture_code": "25",
    "city": "長浜市",
    "city_kana": "ナガハマシ",
    "town": "湖北町別所",
    "town_kana": "コホクチョウベッシヨ",
    "street": null,
    "office_name": null,
    "office_name_kana": null
  },
  "0316": {
    "zip_code": "5290316",
    "prefecture": "滋賀県",
    "prefecture_kana": "シガケン",
    "prefecture_code": "25",
    "city": "長浜市",
    "city_kana": "ナガハマシ",
    "town": "湖北町河毛",
    "town_kana": "コホクチョウカワケ",
    "street": null,
    "office_name": null,
    "office_name_kana": null
  },
  "0317": {
    "zip_code": "5290317",
    "prefecture": "滋賀県",
    "prefecture_kana": "シガケン",
    "prefecture_code": "25",
    "city": "長浜市",
    "city_kana": "ナガハマシ",
    "town": "湖北町山脇",
    "town_kana": "コホクチョウヤマワキ",
    "street": null,
    "office_name": null,
    "office_name_kana": null
  },
  "0321": {
    "zip_code": "5290321",
    "prefecture": "滋賀県",
    "prefecture_kana": "シガケン",
    "prefecture_code": "25",
    "city": "長浜市",
    "city_kana": "ナガハマシ",
    "town": "湖北町賀",
    "town_kana": "コホクチョウカ",
    "street": null,
    "office_name": null,
    "office_name_kana": null
  },
  "0322": {
    "zip_code": "5290322",
    "prefecture": "滋賀県",
    "prefecture_kana": "シガケン",
    "prefecture_code": "25",
    "city": "長浜市",
    "city_kana": "ナガハマシ",
    "town": "湖北町小今",
    "town_kana": "コホクチョウコイマ",
    "street": null,
    "office_name": null,
    "office_name_kana": null
  },
  "0331": {
    "zip_code": "5290331",
    "prefecture": "滋賀県",
    "prefecture_kana": "シガケン",
    "prefecture_code": "25",
    "city": "長浜市",
    "city_kana": "ナガハマシ",
    "town": "湖北町八日市",
    "town_kana": "コホクチョウヨウカイチ",
    "street": null,
    "office_name": null,
    "office_name_kana": null
  },
  "0332": {
    "zip_code": "5290332",
    "prefecture": "滋賀県",
    "prefecture_kana": "シガケン",
    "prefecture_code": "25",
    "city": "長浜市",
    "city_kana": "ナガハマシ",
    "town": "湖北町青名",
    "town_kana": "コホクチョウアオナ",
    "street": null,
    "office_name": null,
    "office_name_kana": null
  },
  "0333": {
    "zip_code": "5290333",
    "prefecture": "滋賀県",
    "prefecture_kana": "シガケン",
    "prefecture_code": "25",
    "city": "長浜市",
    "city_kana": "ナガハマシ",
    "town": "湖北今町",
    "town_kana": "コホクイマチョウ",
    "street": null,
    "office_name": null,
    "office_name_kana": null
  },
  "0334": {
    "zip_code": "5290334",
    "prefecture": "滋賀県",
    "prefecture_kana": "シガケン",
    "prefecture_code": "25",
    "city": "長浜市",
    "city_kana": "ナガハマシ",
    "town": "湖北町沢",
    "town_kana": "コホクチョウサワ",
    "street": null,
    "office_name": null,
    "office_name_kana": null
  },
  "0335": {
    "zip_code": "5290335",
    "prefecture": "滋賀県",
    "prefecture_kana": "シガケン",
    "prefecture_code": "25",
    "city": "長浜市",
    "city_kana": "ナガハマシ",
    "town": "湖北町猫口",
    "town_kana": "コホクチョウネコグチ",
    "street": null,
    "office_name": null,
    "office_name_kana": null
  },
  "0341": {
    "zip_code": "5290341",
    "prefecture": "滋賀県",
    "prefecture_kana": "シガケン",
    "prefecture_code": "25",
    "city": "長浜市",
    "city_kana": "ナガハマシ",
    "town": "湖北町速水",
    "town_kana": "コホクチョウハヤミ",
    "street": null,
    "office_name": null,
    "office_name_kana": null
  },
  "0342": {
    "zip_code": "5290342",
    "prefecture": "滋賀県",
    "prefecture_kana": "シガケン",
    "prefecture_code": "25",
    "city": "長浜市",
    "city_kana": "ナガハマシ",
    "town": "湖北高田町",
    "town_kana": "コホクタカタチョウ",
    "street": null,
    "office_name": null,
    "office_name_kana": null
  },
  "0343": {
    "zip_code": "5290343",
    "prefecture": "滋賀県",
    "prefecture_kana": "シガケン",
    "prefecture_code": "25",
    "city": "長浜市",
    "city_kana": "ナガハマシ",
    "town": "湖北町小倉",
    "town_kana": "コホクチョウオグラ",
    "street": null,
    "office_name": null,
    "office_name_kana": null
  },
  "0344": {
    "zip_code": "5290344",
    "prefecture": "滋賀県",
    "prefecture_kana": "シガケン",
    "prefecture_code": "25",
    "city": "長浜市",
    "city_kana": "ナガハマシ",
    "town": "湖北町馬渡",
    "town_kana": "コホクチョウモウタリ",
    "street": null,
    "office_name": null,
    "office_name_kana": null
  },
  "0345": {
    "zip_code": "5290345",
    "prefecture": "滋賀県",
    "prefecture_kana": "シガケン",
    "prefecture_code": "25",
    "city": "長浜市",
    "city_kana": "ナガハマシ",
    "town": "湖北町大安寺",
    "town_kana": "コホクチョウダイアンジ",
    "street": null,
    "office_name": null,
    "office_name_kana": null
  },
  "0346": {
    "zip_code": "5290346",
    "prefecture": "滋賀県",
    "prefecture_kana": "シガケン",
    "prefecture_code": "25",
    "city": "長浜市",
    "city_kana": "ナガハマシ",
    "town": "湖北町南速水",
    "town_kana": "コホクチョウミナミハヤミ",
    "street": null,
    "office_name": null,
    "office_name_kana": null
  },
  "0351": {
    "zip_code": "5290351",
    "prefecture": "滋賀県",
    "prefecture_kana": "シガケン",
    "prefecture_code": "25",
    "city": "長浜市",
    "city_kana": "ナガハマシ",
    "town": "大光寺町",
    "town_kana": "ダイコウジチョウ",
    "street": null,
    "office_name": null,
    "office_name_kana": null
  },
  "0352": {
    "zip_code": "5290352",
    "prefecture": "滋賀県",
    "prefecture_kana": "シガケン",
    "prefecture_code": "25",
    "city": "長浜市",
    "city_kana": "ナガハマシ",
    "town": "湖北町五坪",
    "town_kana": "コホクチョウゴノツボ",
    "street": null,
    "office_name": null,
    "office_name_kana": null
  },
  "0353": {
    "zip_code": "5290353",
    "prefecture": "滋賀県",
    "prefecture_kana": "シガケン",
    "prefecture_code": "25",
    "city": "長浜市",
    "city_kana": "ナガハマシ",
    "town": "湖北町田中",
    "town_kana": "コホクチョウタナカ",
    "street": null,
    "office_name": null,
    "office_name_kana": null
  },
  "0354": {
    "zip_code": "5290354",
    "prefecture": "滋賀県",
    "prefecture_kana": "シガケン",
    "prefecture_code": "25",
    "city": "長浜市",
    "city_kana": "ナガハマシ",
    "town": "湖北町山本",
    "town_kana": "コホクチョウヤマモト",
    "street": null,
    "office_name": null,
    "office_name_kana": null
  },
  "0361": {
    "zip_code": "5290361",
    "prefecture": "滋賀県",
    "prefecture_kana": "シガケン",
    "prefecture_code": "25",
    "city": "長浜市",
    "city_kana": "ナガハマシ",
    "town": "湖北町石川",
    "town_kana": "コホクチョウイシカワ",
    "street": null,
    "office_name": null,
    "office_name_kana": null
  },
  "0362": {
    "zip_code": "5290362",
    "prefecture": "滋賀県",
    "prefecture_kana": "シガケン",
    "prefecture_code": "25",
    "city": "長浜市",
    "city_kana": "ナガハマシ",
    "town": "湖北町津里",
    "town_kana": "コホクチョウツノサト",
    "street": null,
    "office_name": null,
    "office_name_kana": null
  },
  "0363": {
    "zip_code": "5290363",
    "prefecture": "滋賀県",
    "prefecture_kana": "シガケン",
    "prefecture_code": "25",
    "city": "長浜市",
    "city_kana": "ナガハマシ",
    "town": "湖北東尾上町",
    "town_kana": "コホクヒガシオノエチョウ",
    "street": null,
    "office_name": null,
    "office_name_kana": null
  },
  "0364": {
    "zip_code": "5290364",
    "prefecture": "滋賀県",
    "prefecture_kana": "シガケン",
    "prefecture_code": "25",
    "city": "長浜市",
    "city_kana": "ナガハマシ",
    "town": "湖北町尾上",
    "town_kana": "コホクチョウオノエ",
    "street": null,
    "office_name": null,
    "office_name_kana": null
  },
  "0365": {
    "zip_code": "5290365",
    "prefecture": "滋賀県",
    "prefecture_kana": "シガケン",
    "prefecture_code": "25",
    "city": "長浜市",
    "city_kana": "ナガハマシ",
    "town": "湖北町今西",
    "town_kana": "コホクチョウイマニシ",
    "street": null,
    "office_name": null,
    "office_name_kana": null
  },
  "0366": {
    "zip_code": "5290366",
    "prefecture": "滋賀県",
    "prefecture_kana": "シガケン",
    "prefecture_code": "25",
    "city": "長浜市",
    "city_kana": "ナガハマシ",
    "town": "湖北町延勝寺",
    "town_kana": "コホクチョウエンショウジ",
    "street": null,
    "office_name": null,
    "office_name_kana": null
  },
  "0367": {
    "zip_code": "5290367",
    "prefecture": "滋賀県",
    "prefecture_kana": "シガケン",
    "prefecture_code": "25",
    "city": "長浜市",
    "city_kana": "ナガハマシ",
    "town": "湖北町海老江",
    "town_kana": "コホクチョウエビエ",
    "street": null,
    "office_name": null,
    "office_name_kana": null
  },
  "0401": {
    "zip_code": "5290401",
    "prefecture": "滋賀県",
    "prefecture_kana": "シガケン",
    "prefecture_code": "25",
    "city": "長浜市",
    "city_kana": "ナガハマシ",
    "town": "木之本町金居原",
    "town_kana": "キノモトチョウカネイハラ",
    "street": null,
    "office_name": null,
    "office_name_kana": null
  },
  "0402": {
    "zip_code": "5290402",
    "prefecture": "滋賀県",
    "prefecture_kana": "シガケン",
    "prefecture_code": "25",
    "city": "長浜市",
    "city_kana": "ナガハマシ",
    "town": "木之本町杉野",
    "town_kana": "キノモトチョウスギノ",
    "street": null,
    "office_name": null,
    "office_name_kana": null
  },
  "0403": {
    "zip_code": "5290403",
    "prefecture": "滋賀県",
    "prefecture_kana": "シガケン",
    "prefecture_code": "25",
    "city": "長浜市",
    "city_kana": "ナガハマシ",
    "town": "木之本町音羽",
    "town_kana": "キノモトチョウオトワ",
    "street": null,
    "office_name": null,
    "office_name_kana": null
  },
  "0404": {
    "zip_code": "5290404",
    "prefecture": "滋賀県",
    "prefecture_kana": "シガケン",
    "prefecture_code": "25",
    "city": "長浜市",
    "city_kana": "ナガハマシ",
    "town": "木之本町杉本",
    "town_kana": "キノモトチョウスギモト",
    "street": null,
    "office_name": null,
    "office_name_kana": null
  },
  "0411": {
    "zip_code": "5290411",
    "prefecture": "滋賀県",
    "prefecture_kana": "シガケン",
    "prefecture_code": "25",
    "city": "長浜市",
    "city_kana": "ナガハマシ",
    "town": "木之本町古橋",
    "town_kana": "キノモトチョウフルハシ",
    "street": null,
    "office_name": null,
    "office_name_kana": null
  },
  "0412": {
    "zip_code": "5290412",
    "prefecture": "滋賀県",
    "prefecture_kana": "シガケン",
    "prefecture_code": "25",
    "city": "長浜市",
    "city_kana": "ナガハマシ",
    "town": "木之本町石道",
    "town_kana": "キノモトチョウイシミチ",
    "street": null,
    "office_name": null,
    "office_name_kana": null
  },
  "0413": {
    "zip_code": "5290413",
    "prefecture": "滋賀県",
    "prefecture_kana": "シガケン",
    "prefecture_code": "25",
    "city": "長浜市",
    "city_kana": "ナガハマシ",
    "town": "木之本町小山",
    "town_kana": "キノモトチョウコヤマ",
    "street": null,
    "office_name": null,
    "office_name_kana": null
  },
  "0414": {
    "zip_code": "5290414",
    "prefecture": "滋賀県",
    "prefecture_kana": "シガケン",
    "prefecture_code": "25",
    "city": "長浜市",
    "city_kana": "ナガハマシ",
    "town": "木之本町川合",
    "town_kana": "キノモトチョウカワイ",
    "street": null,
    "office_name": null,
    "office_name_kana": null
  },
  "0415": {
    "zip_code": "5290415",
    "prefecture": "滋賀県",
    "prefecture_kana": "シガケン",
    "prefecture_code": "25",
    "city": "長浜市",
    "city_kana": "ナガハマシ",
    "town": "木之本町大見",
    "town_kana": "キノモトチョウオオミ",
    "street": null,
    "office_name": null,
    "office_name_kana": null
  },
  "0421": {
    "zip_code": "5290421",
    "prefecture": "滋賀県",
    "prefecture_kana": "シガケン",
    "prefecture_code": "25",
    "city": "長浜市",
    "city_kana": "ナガハマシ",
    "town": "木之本町アットリ",
    "town_kana": "キノモトチョウアットリ",
    "street": null,
    "office_name": null,
    "office_name_kana": null
  },
  "0422": {
    "zip_code": "5290422",
    "prefecture": "滋賀県",
    "prefecture_kana": "シガケン",
    "prefecture_code": "25",
    "city": "長浜市",
    "city_kana": "ナガハマシ",
    "town": "木之本町田部",
    "town_kana": "キノモトチョウタベ",
    "street": null,
    "office_name": null,
    "office_name_kana": null
  },
  "0423": {
    "zip_code": "5290423",
    "prefecture": "滋賀県",
    "prefecture_kana": "シガケン",
    "prefecture_code": "25",
    "city": "長浜市",
    "city_kana": "ナガハマシ",
    "town": "木之本町千田",
    "town_kana": "キノモトチョウセンダ",
    "street": null,
    "office_name": null,
    "office_name_kana": null
  },
  "0424": {
    "zip_code": "5290424",
    "prefecture": "滋賀県",
    "prefecture_kana": "シガケン",
    "prefecture_code": "25",
    "city": "長浜市",
    "city_kana": "ナガハマシ",
    "town": "木之本町廣瀬",
    "town_kana": "キノモトチョウヒロセ",
    "street": null,
    "office_name": null,
    "office_name_kana": null
  },
  "0425": {
    "zip_code": "5290425",
    "prefecture": "滋賀県",
    "prefecture_kana": "シガケン",
    "prefecture_code": "25",
    "city": "長浜市",
    "city_kana": "ナガハマシ",
    "town": "木之本町木之本",
    "town_kana": "キノモトチョウキノモト",
    "street": null,
    "office_name": null,
    "office_name_kana": null
  },
  "0426": {
    "zip_code": "5290426",
    "prefecture": "滋賀県",
    "prefecture_kana": "シガケン",
    "prefecture_code": "25",
    "city": "長浜市",
    "city_kana": "ナガハマシ",
    "town": "木之本町黒田",
    "town_kana": "キノモトチョウクロダ",
    "street": null,
    "office_name": null,
    "office_name_kana": null
  },
  "0431": {
    "zip_code": "5290431",
    "prefecture": "滋賀県",
    "prefecture_kana": "シガケン",
    "prefecture_code": "25",
    "city": "長浜市",
    "city_kana": "ナガハマシ",
    "town": "木之本町大音",
    "town_kana": "キノモトチョウオオト",
    "street": null,
    "office_name": null,
    "office_name_kana": null
  },
  "0432": {
    "zip_code": "5290432",
    "prefecture": "滋賀県",
    "prefecture_kana": "シガケン",
    "prefecture_code": "25",
    "city": "長浜市",
    "city_kana": "ナガハマシ",
    "town": "木之本町田居",
    "town_kana": "キノモトチョウタイ",
    "street": null,
    "office_name": null,
    "office_name_kana": null
  },
  "0433": {
    "zip_code": "5290433",
    "prefecture": "滋賀県",
    "prefecture_kana": "シガケン",
    "prefecture_code": "25",
    "city": "長浜市",
    "city_kana": "ナガハマシ",
    "town": "木之本町西山",
    "town_kana": "キノモトチョウニシヤマ",
    "street": null,
    "office_name": null,
    "office_name_kana": null
  },
  "0434": {
    "zip_code": "5290434",
    "prefecture": "滋賀県",
    "prefecture_kana": "シガケン",
    "prefecture_code": "25",
    "city": "長浜市",
    "city_kana": "ナガハマシ",
    "town": "木之本町北布施",
    "town_kana": "キノモトチョウキタフセ",
    "street": null,
    "office_name": null,
    "office_name_kana": null
  },
  "0435": {
    "zip_code": "5290435",
    "prefecture": "滋賀県",
    "prefecture_kana": "シガケン",
    "prefecture_code": "25",
    "city": "長浜市",
    "city_kana": "ナガハマシ",
    "town": "木之本町赤尾",
    "town_kana": "キノモトチョウアカオ",
    "street": null,
    "office_name": null,
    "office_name_kana": null
  },
  "0436": {
    "zip_code": "5290436",
    "prefecture": "滋賀県",
    "prefecture_kana": "シガケン",
    "prefecture_code": "25",
    "city": "長浜市",
    "city_kana": "ナガハマシ",
    "town": "木之本町山梨子",
    "town_kana": "キノモトチョウヤマナシ",
    "street": null,
    "office_name": null,
    "office_name_kana": null
  },
  "0437": {
    "zip_code": "5290437",
    "prefecture": "滋賀県",
    "prefecture_kana": "シガケン",
    "prefecture_code": "25",
    "city": "長浜市",
    "city_kana": "ナガハマシ",
    "town": "木之本町飯浦",
    "town_kana": "キノモトチョウハンノウラ",
    "street": null,
    "office_name": null,
    "office_name_kana": null
  },
  "0492": {
    "zip_code": "5290492",
    "prefecture": "滋賀県",
    "prefecture_kana": "シガケン",
    "prefecture_code": "25",
    "city": "長浜市",
    "city_kana": "ナガハマシ",
    "town": "木之本町木之本",
    "town_kana": "キノモトチョウキノモト",
    "street": "１７５７−２",
    "office_name": "長浜市役所　木之本支所",
    "office_name_kana": "ナガハマシヤクシヨ キノモトシシヨ"
  },
  "0493": {
    "zip_code": "5290493",
    "prefecture": "滋賀県",
    "prefecture_kana": "シガケン",
    "prefecture_code": "25",
    "city": "長浜市",
    "city_kana": "ナガハマシ",
    "town": "木之本町黒田",
    "town_kana": "キノモトチョウクロダ",
    "street": "１２２１",
    "office_name": "湖北総合病院",
    "office_name_kana": "コホクソウゴウビヨウイン"
  },
  "0498": {
    "zip_code": "5290498",
    "prefecture": "滋賀県",
    "prefecture_kana": "シガケン",
    "prefecture_code": "25",
    "city": "長浜市",
    "city_kana": "ナガハマシ",
    "town": "木之本町黒田",
    "town_kana": "キノモトチョウクロダ",
    "street": "３１３−２",
    "office_name": "ハヤミ工産　株式会社",
    "office_name_kana": "ハヤミコウサン カブシキガイシヤ"
  },
  "0501": {
    "zip_code": "5290501",
    "prefecture": "滋賀県",
    "prefecture_kana": "シガケン",
    "prefecture_code": "25",
    "city": "長浜市",
    "city_kana": "ナガハマシ",
    "town": "余呉町針川",
    "town_kana": "ヨゴチョウハリカワ",
    "street": null,
    "office_name": null,
    "office_name_kana": null
  },
  "0502": {
    "zip_code": "5290502",
    "prefecture": "滋賀県",
    "prefecture_kana": "シガケン",
    "prefecture_code": "25",
    "city": "長浜市",
    "city_kana": "ナガハマシ",
    "town": "余呉町尾羽梨",
    "town_kana": "ヨゴチョウオバナシ",
    "street": null,
    "office_name": null,
    "office_name_kana": null
  },
  "0503": {
    "zip_code": "5290503",
    "prefecture": "滋賀県",
    "prefecture_kana": "シガケン",
    "prefecture_code": "25",
    "city": "長浜市",
    "city_kana": "ナガハマシ",
    "town": "余呉町奥川並",
    "town_kana": "ヨゴチョウオクカワナミ",
    "street": null,
    "office_name": null,
    "office_name_kana": null
  },
  "0504": {
    "zip_code": "5290504",
    "prefecture": "滋賀県",
    "prefecture_kana": "シガケン",
    "prefecture_code": "25",
    "city": "長浜市",
    "city_kana": "ナガハマシ",
    "town": "余呉町田戸",
    "town_kana": "ヨゴチョウタド",
    "street": null,
    "office_name": null,
    "office_name_kana": null
  },
  "0505": {
    "zip_code": "5290505",
    "prefecture": "滋賀県",
    "prefecture_kana": "シガケン",
    "prefecture_code": "25",
    "city": "長浜市",
    "city_kana": "ナガハマシ",
    "town": "余呉町小原",
    "town_kana": "ヨゴチョウオハラ",
    "street": null,
    "office_name": null,
    "office_name_kana": null
  },
  "0506": {
    "zip_code": "5290506",
    "prefecture": "滋賀県",
    "prefecture_kana": "シガケン",
    "prefecture_code": "25",
    "city": "長浜市",
    "city_kana": "ナガハマシ",
    "town": "余呉町鷲見",
    "town_kana": "ヨゴチョウワシミ",
    "street": null,
    "office_name": null,
    "office_name_kana": null
  },
  "0511": {
    "zip_code": "5290511",
    "prefecture": "滋賀県",
    "prefecture_kana": "シガケン",
    "prefecture_code": "25",
    "city": "長浜市",
    "city_kana": "ナガハマシ",
    "town": "余呉町菅並",
    "town_kana": "ヨゴチョウスガナミ",
    "street": null,
    "office_name": null,
    "office_name_kana": null
  },
  "0512": {
    "zip_code": "5290512",
    "prefecture": "滋賀県",
    "prefecture_kana": "シガケン",
    "prefecture_code": "25",
    "city": "長浜市",
    "city_kana": "ナガハマシ",
    "town": "余呉町上丹生",
    "town_kana": "ヨゴチョウカミニュウ",
    "street": null,
    "office_name": null,
    "office_name_kana": null
  },
  "0513": {
    "zip_code": "5290513",
    "prefecture": "滋賀県",
    "prefecture_kana": "シガケン",
    "prefecture_code": "25",
    "city": "長浜市",
    "city_kana": "ナガハマシ",
    "town": "余呉町摺墨",
    "town_kana": "ヨゴチョウスルスミ",
    "street": null,
    "office_name": null,
    "office_name_kana": null
  },
  "0514": {
    "zip_code": "5290514",
    "prefecture": "滋賀県",
    "prefecture_kana": "シガケン",
    "prefecture_code": "25",
    "city": "長浜市",
    "city_kana": "ナガハマシ",
    "town": "余呉町下丹生",
    "town_kana": "ヨゴチョウシモニュウ",
    "street": null,
    "office_name": null,
    "office_name_kana": null
  },
  "0515": {
    "zip_code": "5290515",
    "prefecture": "滋賀県",
    "prefecture_kana": "シガケン",
    "prefecture_code": "25",
    "city": "長浜市",
    "city_kana": "ナガハマシ",
    "town": "余呉町中之郷",
    "town_kana": "ヨゴチョウナカノゴウ",
    "street": null,
    "office_name": null,
    "office_name_kana": null
  },
  "0521": {
    "zip_code": "5290521",
    "prefecture": "滋賀県",
    "prefecture_kana": "シガケン",
    "prefecture_code": "25",
    "city": "長浜市",
    "city_kana": "ナガハマシ",
    "town": "余呉町下余呉",
    "town_kana": "ヨゴチョウシモヨゴ",
    "street": null,
    "office_name": null,
    "office_name_kana": null
  },
  "0522": {
    "zip_code": "5290522",
    "prefecture": "滋賀県",
    "prefecture_kana": "シガケン",
    "prefecture_code": "25",
    "city": "長浜市",
    "city_kana": "ナガハマシ",
    "town": "余呉町坂口",
    "town_kana": "ヨゴチョウサカグチ",
    "street": null,
    "office_name": null,
    "office_name_kana": null
  },
  "0523": {
    "zip_code": "5290523",
    "prefecture": "滋賀県",
    "prefecture_kana": "シガケン",
    "prefecture_code": "25",
    "city": "長浜市",
    "city_kana": "ナガハマシ",
    "town": "余呉町川並",
    "town_kana": "ヨゴチョウカワナミ",
    "street": null,
    "office_name": null,
    "office_name_kana": null
  },
  "0524": {
    "zip_code": "5290524",
    "prefecture": "滋賀県",
    "prefecture_kana": "シガケン",
    "prefecture_code": "25",
    "city": "長浜市",
    "city_kana": "ナガハマシ",
    "town": "余呉町八戸",
    "town_kana": "ヨゴチョウヤト",
    "street": null,
    "office_name": null,
    "office_name_kana": null
  },
  "0525": {
    "zip_code": "5290525",
    "prefecture": "滋賀県",
    "prefecture_kana": "シガケン",
    "prefecture_code": "25",
    "city": "長浜市",
    "city_kana": "ナガハマシ",
    "town": "余呉町文室",
    "town_kana": "ヨゴチョウフムロ",
    "street": null,
    "office_name": null,
    "office_name_kana": null
  },
  "0526": {
    "zip_code": "5290526",
    "prefecture": "滋賀県",
    "prefecture_kana": "シガケン",
    "prefecture_code": "25",
    "city": "長浜市",
    "city_kana": "ナガハマシ",
    "town": "余呉町国安",
    "town_kana": "ヨゴチョウクニヤス",
    "street": null,
    "office_name": null,
    "office_name_kana": null
  },
  "0527": {
    "zip_code": "5290527",
    "prefecture": "滋賀県",
    "prefecture_kana": "シガケン",
    "prefecture_code": "25",
    "city": "長浜市",
    "city_kana": "ナガハマシ",
    "town": "余呉町東野",
    "town_kana": "ヨゴチョウヒガシノ",
    "street": null,
    "office_name": null,
    "office_name_kana": null
  },
  "0531": {
    "zip_code": "5290531",
    "prefecture": "滋賀県",
    "prefecture_kana": "シガケン",
    "prefecture_code": "25",
    "city": "長浜市",
    "city_kana": "ナガハマシ",
    "town": "余呉町中河内",
    "town_kana": "ヨゴチョウナカノカワチ",
    "street": null,
    "office_name": null,
    "office_name_kana": null
  },
  "0532": {
    "zip_code": "5290532",
    "prefecture": "滋賀県",
    "prefecture_kana": "シガケン",
    "prefecture_code": "25",
    "city": "長浜市",
    "city_kana": "ナガハマシ",
    "town": "余呉町椿坂",
    "town_kana": "ヨゴチョウツバキザカ",
    "street": null,
    "office_name": null,
    "office_name_kana": null
  },
  "0533": {
    "zip_code": "5290533",
    "prefecture": "滋賀県",
    "prefecture_kana": "シガケン",
    "prefecture_code": "25",
    "city": "長浜市",
    "city_kana": "ナガハマシ",
    "town": "余呉町柳ケ瀬",
    "town_kana": "ヨゴチョウヤナガセ",
    "street": null,
    "office_name": null,
    "office_name_kana": null
  },
  "0534": {
    "zip_code": "5290534",
    "prefecture": "滋賀県",
    "prefecture_kana": "シガケン",
    "prefecture_code": "25",
    "city": "長浜市",
    "city_kana": "ナガハマシ",
    "town": "余呉町小谷",
    "town_kana": "ヨゴチョウオオタニ",
    "street": null,
    "office_name": null,
    "office_name_kana": null
  },
  "0535": {
    "zip_code": "5290535",
    "prefecture": "滋賀県",
    "prefecture_kana": "シガケン",
    "prefecture_code": "25",
    "city": "長浜市",
    "city_kana": "ナガハマシ",
    "town": "余呉町今市",
    "town_kana": "ヨゴチョウイマイチ",
    "street": null,
    "office_name": null,
    "office_name_kana": null
  },
  "0536": {
    "zip_code": "5290536",
    "prefecture": "滋賀県",
    "prefecture_kana": "シガケン",
    "prefecture_code": "25",
    "city": "長浜市",
    "city_kana": "ナガハマシ",
    "town": "余呉町池原",
    "town_kana": "ヨゴチョウイケハラ",
    "street": null,
    "office_name": null,
    "office_name_kana": null
  },
  "0537": {
    "zip_code": "5290537",
    "prefecture": "滋賀県",
    "prefecture_kana": "シガケン",
    "prefecture_code": "25",
    "city": "長浜市",
    "city_kana": "ナガハマシ",
    "town": "余呉町新堂",
    "town_kana": "ヨゴチョウシンドウ",
    "street": null,
    "office_name": null,
    "office_name_kana": null
  },
  "0541": [
    {
      "zip_code": "5290541",
      "prefecture": "滋賀県",
      "prefecture_kana": "シガケン",
      "prefecture_code": "25",
      "city": "長浜市",
      "city_kana": "ナガハマシ",
      "town": "木之本町飯浦",
      "town_kana": "キノモトチョウハンノウラ",
      "street": null,
      "office_name": null,
      "office_name_kana": null
    },
    {
      "zip_code": "5290541",
      "prefecture": "滋賀県",
      "prefecture_kana": "シガケン",
      "prefecture_code": "25",
      "city": "長浜市",
      "city_kana": "ナガハマシ",
      "town": "木之本町飯浦坂尻",
      "town_kana": "キノモトチョウハンノウラサカジリ",
      "street": null,
      "office_name": null,
      "office_name_kana": null
    }
  ],
  "0701": {
    "zip_code": "5290701",
    "prefecture": "滋賀県",
    "prefecture_kana": "シガケン",
    "prefecture_code": "25",
    "city": "長浜市",
    "city_kana": "ナガハマシ",
    "town": "西浅井町塩津浜",
    "town_kana": "ニシアザイチョウシオツハマ",
    "street": null,
    "office_name": null,
    "office_name_kana": null
  },
  "0702": {
    "zip_code": "5290702",
    "prefecture": "滋賀県",
    "prefecture_kana": "シガケン",
    "prefecture_code": "25",
    "city": "長浜市",
    "city_kana": "ナガハマシ",
    "town": "西浅井町祝山",
    "town_kana": "ニシアザイチョウホリヤマ",
    "street": null,
    "office_name": null,
    "office_name_kana": null
  },
  "0703": {
    "zip_code": "5290703",
    "prefecture": "滋賀県",
    "prefecture_kana": "シガケン",
    "prefecture_code": "25",
    "city": "長浜市",
    "city_kana": "ナガハマシ",
    "town": "西浅井町野坂",
    "town_kana": "ニシアザイチョウノザカ",
    "street": null,
    "office_name": null,
    "office_name_kana": null
  },
  "0704": {
    "zip_code": "5290704",
    "prefecture": "滋賀県",
    "prefecture_kana": "シガケン",
    "prefecture_code": "25",
    "city": "長浜市",
    "city_kana": "ナガハマシ",
    "town": "西浅井町塩津中",
    "town_kana": "ニシアザイチョウシオツナカ",
    "street": null,
    "office_name": null,
    "office_name_kana": null
  },
  "0705": {
    "zip_code": "5290705",
    "prefecture": "滋賀県",
    "prefecture_kana": "シガケン",
    "prefecture_code": "25",
    "city": "長浜市",
    "city_kana": "ナガハマシ",
    "town": "西浅井町横波",
    "town_kana": "ニシアザイチョウヨコナミ",
    "street": null,
    "office_name": null,
    "office_name_kana": null
  },
  "0706": {
    "zip_code": "5290706",
    "prefecture": "滋賀県",
    "prefecture_kana": "シガケン",
    "prefecture_code": "25",
    "city": "長浜市",
    "city_kana": "ナガハマシ",
    "town": "西浅井町余",
    "town_kana": "ニシアザイチョウヨ",
    "street": null,
    "office_name": null,
    "office_name_kana": null
  },
  "0707": {
    "zip_code": "5290707",
    "prefecture": "滋賀県",
    "prefecture_kana": "シガケン",
    "prefecture_code": "25",
    "city": "長浜市",
    "city_kana": "ナガハマシ",
    "town": "西浅井町集福寺",
    "town_kana": "ニシアザイチョウシュウフクジ",
    "street": null,
    "office_name": null,
    "office_name_kana": null
  },
  "0708": {
    "zip_code": "5290708",
    "prefecture": "滋賀県",
    "prefecture_kana": "シガケン",
    "prefecture_code": "25",
    "city": "長浜市",
    "city_kana": "ナガハマシ",
    "town": "西浅井町沓掛",
    "town_kana": "ニシアザイチョウクツカケ",
    "street": null,
    "office_name": null,
    "office_name_kana": null
  },
  "0711": {
    "zip_code": "5290711",
    "prefecture": "滋賀県",
    "prefecture_kana": "シガケン",
    "prefecture_code": "25",
    "city": "長浜市",
    "city_kana": "ナガハマシ",
    "town": "西浅井町岩熊",
    "town_kana": "ニシアザイチョウヤノクマ",
    "street": null,
    "office_name": null,
    "office_name_kana": null
  },
  "0712": {
    "zip_code": "5290712",
    "prefecture": "滋賀県",
    "prefecture_kana": "シガケン",
    "prefecture_code": "25",
    "city": "長浜市",
    "city_kana": "ナガハマシ",
    "town": "西浅井町月出",
    "town_kana": "ニシアザイチョウツキデ",
    "street": null,
    "office_name": null,
    "office_name_kana": null
  },
  "0713": {
    "zip_code": "5290713",
    "prefecture": "滋賀県",
    "prefecture_kana": "シガケン",
    "prefecture_code": "25",
    "city": "長浜市",
    "city_kana": "ナガハマシ",
    "town": "西浅井町八田部",
    "town_kana": "ニシアザイチョウハタベ",
    "street": null,
    "office_name": null,
    "office_name_kana": null
  },
  "0714": {
    "zip_code": "5290714",
    "prefecture": "滋賀県",
    "prefecture_kana": "シガケン",
    "prefecture_code": "25",
    "city": "長浜市",
    "city_kana": "ナガハマシ",
    "town": "西浅井町小山",
    "town_kana": "ニシアザイチョウオヤマ",
    "street": null,
    "office_name": null,
    "office_name_kana": null
  },
  "0715": {
    "zip_code": "5290715",
    "prefecture": "滋賀県",
    "prefecture_kana": "シガケン",
    "prefecture_code": "25",
    "city": "長浜市",
    "city_kana": "ナガハマシ",
    "town": "西浅井町山田",
    "town_kana": "ニシアザイチョウヤマダ",
    "street": null,
    "office_name": null,
    "office_name_kana": null
  },
  "0721": {
    "zip_code": "5290721",
    "prefecture": "滋賀県",
    "prefecture_kana": "シガケン",
    "prefecture_code": "25",
    "city": "長浜市",
    "city_kana": "ナガハマシ",
    "town": "西浅井町大浦",
    "town_kana": "ニシアザイチョウオオウラ",
    "street": null,
    "office_name": null,
    "office_name_kana": null
  },
  "0722": {
    "zip_code": "5290722",
    "prefecture": "滋賀県",
    "prefecture_kana": "シガケン",
    "prefecture_code": "25",
    "city": "長浜市",
    "city_kana": "ナガハマシ",
    "town": "西浅井町庄",
    "town_kana": "ニシアザイチョウショウ",
    "street": null,
    "office_name": null,
    "office_name_kana": null
  },
  "0723": {
    "zip_code": "5290723",
    "prefecture": "滋賀県",
    "prefecture_kana": "シガケン",
    "prefecture_code": "25",
    "city": "長浜市",
    "city_kana": "ナガハマシ",
    "town": "西浅井町中",
    "town_kana": "ニシアザイチョウナカ",
    "street": null,
    "office_name": null,
    "office_name_kana": null
  },
  "0724": {
    "zip_code": "5290724",
    "prefecture": "滋賀県",
    "prefecture_kana": "シガケン",
    "prefecture_code": "25",
    "city": "長浜市",
    "city_kana": "ナガハマシ",
    "town": "西浅井町山門",
    "town_kana": "ニシアザイチョウヤマカド",
    "street": null,
    "office_name": null,
    "office_name_kana": null
  },
  "0725": {
    "zip_code": "5290725",
    "prefecture": "滋賀県",
    "prefecture_kana": "シガケン",
    "prefecture_code": "25",
    "city": "長浜市",
    "city_kana": "ナガハマシ",
    "town": "西浅井町黒山",
    "town_kana": "ニシアザイチョウクロヤマ",
    "street": null,
    "office_name": null,
    "office_name_kana": null
  },
  "0726": {
    "zip_code": "5290726",
    "prefecture": "滋賀県",
    "prefecture_kana": "シガケン",
    "prefecture_code": "25",
    "city": "長浜市",
    "city_kana": "ナガハマシ",
    "town": "西浅井町菅浦",
    "town_kana": "ニシアザイチョウスガウラ",
    "street": null,
    "office_name": null,
    "office_name_kana": null
  },
  "0792": {
    "zip_code": "5290792",
    "prefecture": "滋賀県",
    "prefecture_kana": "シガケン",
    "prefecture_code": "25",
    "city": "長浜市",
    "city_kana": "ナガハマシ",
    "town": "西浅井町大浦",
    "town_kana": "ニシアザイチョウオオウラ",
    "street": "２５９０",
    "office_name": "長浜市役所　西浅井支所",
    "office_name_kana": "ナガハマシヤクシヨ ニシアザイシシヨ"
  },
  "1100": {
    "zip_code": "5291100",
    "prefecture": "滋賀県",
    "prefecture_kana": "シガケン",
    "prefecture_code": "25",
    "city": "犬上郡豊郷町",
    "city_kana": "イヌカミグントヨサトチョウ",
    "town": "",
    "town_kana": "",
    "street": null,
    "office_name": null,
    "office_name_kana": null
  },
  "1151": {
    "zip_code": "5291151",
    "prefecture": "滋賀県",
    "prefecture_kana": "シガケン",
    "prefecture_code": "25",
    "city": "彦根市",
    "city_kana": "ヒコネシ",
    "town": "楡町",
    "town_kana": "ニレチョウ",
    "street": null,
    "office_name": null,
    "office_name_kana": null
  },
  "1152": {
    "zip_code": "5291152",
    "prefecture": "滋賀県",
    "prefecture_kana": "シガケン",
    "prefecture_code": "25",
    "city": "彦根市",
    "city_kana": "ヒコネシ",
    "town": "安食中町",
    "town_kana": "アンジキナカマチ",
    "street": null,
    "office_name": null,
    "office_name_kana": null
  },
  "1153": {
    "zip_code": "5291153",
    "prefecture": "滋賀県",
    "prefecture_kana": "シガケン",
    "prefecture_code": "25",
    "city": "彦根市",
    "city_kana": "ヒコネシ",
    "town": "太堂町",
    "town_kana": "タイドウチョウ",
    "street": null,
    "office_name": null,
    "office_name_kana": null
  },
  "1154": {
    "zip_code": "5291154",
    "prefecture": "滋賀県",
    "prefecture_kana": "シガケン",
    "prefecture_code": "25",
    "city": "彦根市",
    "city_kana": "ヒコネシ",
    "town": "千尋町",
    "town_kana": "チヒロチョウ",
    "street": null,
    "office_name": null,
    "office_name_kana": null
  },
  "1155": {
    "zip_code": "5291155",
    "prefecture": "滋賀県",
    "prefecture_kana": "シガケン",
    "prefecture_code": "25",
    "city": "彦根市",
    "city_kana": "ヒコネシ",
    "town": "賀田山町",
    "town_kana": "カタヤマチョウ",
    "street": null,
    "office_name": null,
    "office_name_kana": null
  },
  "1156": {
    "zip_code": "5291156",
    "prefecture": "滋賀県",
    "prefecture_kana": "シガケン",
    "prefecture_code": "25",
    "city": "彦根市",
    "city_kana": "ヒコネシ",
    "town": "清崎町",
    "town_kana": "キヨサキチョウ",
    "street": null,
    "office_name": null,
    "office_name_kana": null
  },
  "1161": {
    "zip_code": "5291161",
    "prefecture": "滋賀県",
    "prefecture_kana": "シガケン",
    "prefecture_code": "25",
    "city": "犬上郡豊郷町",
    "city_kana": "イヌカミグントヨサトチョウ",
    "town": "四十九院",
    "town_kana": "シジュウクイン",
    "street": null,
    "office_name": null,
    "office_name_kana": null
  },
  "1162": {
    "zip_code": "5291162",
    "prefecture": "滋賀県",
    "prefecture_kana": "シガケン",
    "prefecture_code": "25",
    "city": "犬上郡豊郷町",
    "city_kana": "イヌカミグントヨサトチョウ",
    "town": "八町",
    "town_kana": "ハッチョウ",
    "street": null,
    "office_name": null,
    "office_name_kana": null
  },
  "1163": {
    "zip_code": "5291163",
    "prefecture": "滋賀県",
    "prefecture_kana": "シガケン",
    "prefecture_code": "25",
    "city": "犬上郡豊郷町",
    "city_kana": "イヌカミグントヨサトチョウ",
    "town": "雨降野",
    "town_kana": "アメフリノ",
    "street": null,
    "office_name": null,
    "office_name_kana": null
  },
  "1164": {
    "zip_code": "5291164",
    "prefecture": "滋賀県",
    "prefecture_kana": "シガケン",
    "prefecture_code": "25",
    "city": "犬上郡豊郷町",
    "city_kana": "イヌカミグントヨサトチョウ",
    "town": "日栄",
    "town_kana": "ヒエ",
    "street": null,
    "office_name": null,
    "office_name_kana": null
  },
  "1165": {
    "zip_code": "5291165",
    "prefecture": "滋賀県",
    "prefecture_kana": "シガケン",
    "prefecture_code": "25",
    "city": "犬上郡豊郷町",
    "city_kana": "イヌカミグントヨサトチョウ",
    "town": "吉田",
    "town_kana": "ヨシダ",
    "street": null,
    "office_name": null,
    "office_name_kana": null
  },
  "1166": {
    "zip_code": "5291166",
    "prefecture": "滋賀県",
    "prefecture_kana": "シガケン",
    "prefecture_code": "25",
    "city": "犬上郡豊郷町",
    "city_kana": "イヌカミグントヨサトチョウ",
    "town": "上枝",
    "town_kana": "カミエダ",
    "street": null,
    "office_name": null,
    "office_name_kana": null
  },
  "1167": {
    "zip_code": "5291167",
    "prefecture": "滋賀県",
    "prefecture_kana": "シガケン",
    "prefecture_code": "25",
    "city": "犬上郡豊郷町",
    "city_kana": "イヌカミグントヨサトチョウ",
    "town": "杉",
    "town_kana": "スギ",
    "street": null,
    "office_name": null,
    "office_name_kana": null
  },
  "1168": {
    "zip_code": "5291168",
    "prefecture": "滋賀県",
    "prefecture_kana": "シガケン",
    "prefecture_code": "25",
    "city": "犬上郡豊郷町",
    "city_kana": "イヌカミグントヨサトチョウ",
    "town": "八目",
    "town_kana": "ハチメ",
    "street": null,
    "office_name": null,
    "office_name_kana": null
  },
  "1169": {
    "zip_code": "5291169",
    "prefecture": "滋賀県",
    "prefecture_kana": "シガケン",
    "prefecture_code": "25",
    "city": "犬上郡豊郷町",
    "city_kana": "イヌカミグントヨサトチョウ",
    "town": "石畑",
    "town_kana": "イシバタケ",
    "street": null,
    "office_name": null,
    "office_name_kana": null
  },
  "1171": {
    "zip_code": "5291171",
    "prefecture": "滋賀県",
    "prefecture_kana": "シガケン",
    "prefecture_code": "25",
    "city": "犬上郡豊郷町",
    "city_kana": "イヌカミグントヨサトチョウ",
    "town": "安食西",
    "town_kana": "アンジキニシ",
    "street": null,
    "office_name": null,
    "office_name_kana": null
  },
  "1172": {
    "zip_code": "5291172",
    "prefecture": "滋賀県",
    "prefecture_kana": "シガケン",
    "prefecture_code": "25",
    "city": "犬上郡豊郷町",
    "city_kana": "イヌカミグントヨサトチョウ",
    "town": "安食南",
    "town_kana": "アンジキミナミ",
    "street": null,
    "office_name": null,
    "office_name_kana": null
  },
  "1173": {
    "zip_code": "5291173",
    "prefecture": "滋賀県",
    "prefecture_kana": "シガケン",
    "prefecture_code": "25",
    "city": "犬上郡豊郷町",
    "city_kana": "イヌカミグントヨサトチョウ",
    "town": "高野瀬",
    "town_kana": "タカノセ",
    "street": null,
    "office_name": null,
    "office_name_kana": null
  },
  "1174": {
    "zip_code": "5291174",
    "prefecture": "滋賀県",
    "prefecture_kana": "シガケン",
    "prefecture_code": "25",
    "city": "犬上郡豊郷町",
    "city_kana": "イヌカミグントヨサトチョウ",
    "town": "下枝",
    "town_kana": "シモエダ",
    "street": null,
    "office_name": null,
    "office_name_kana": null
  },
  "1175": {
    "zip_code": "5291175",
    "prefecture": "滋賀県",
    "prefecture_kana": "シガケン",
    "prefecture_code": "25",
    "city": "犬上郡豊郷町",
    "city_kana": "イヌカミグントヨサトチョウ",
    "town": "沢",
    "town_kana": "サワ",
    "street": null,
    "office_name": null,
    "office_name_kana": null
  },
  "1176": {
    "zip_code": "5291176",
    "prefecture": "滋賀県",
    "prefecture_kana": "シガケン",
    "prefecture_code": "25",
    "city": "犬上郡豊郷町",
    "city_kana": "イヌカミグントヨサトチョウ",
    "town": "大町",
    "town_kana": "オオマチ",
    "street": null,
    "office_name": null,
    "office_name_kana": null
  },
  "1177": {
    "zip_code": "5291177",
    "prefecture": "滋賀県",
    "prefecture_kana": "シガケン",
    "prefecture_code": "25",
    "city": "犬上郡豊郷町",
    "city_kana": "イヌカミグントヨサトチョウ",
    "town": "三ツ池",
    "town_kana": "ミツイケ",
    "street": null,
    "office_name": null,
    "office_name_kana": null
  },
  "1195": {
    "zip_code": "5291195",
    "prefecture": "滋賀県",
    "prefecture_kana": "シガケン",
    "prefecture_code": "25",
    "city": "彦根市",
    "city_kana": "ヒコネシ",
    "town": "清崎町",
    "town_kana": "キヨサキチョウ",
    "street": "６０",
    "office_name": "昭和電工　（株）　彦根事業所",
    "office_name_kana": "シヨウワデンコウ (カブ) ヒコネジギヨウシヨ"
  },
  "1201": {
    "zip_code": "5291201",
    "prefecture": "滋賀県",
    "prefecture_kana": "シガケン",
    "prefecture_code": "25",
    "city": "愛知郡愛荘町",
    "city_kana": "エチグンアイショウチョウ",
    "town": "斧磨",
    "town_kana": "ヨキトギ",
    "street": null,
    "office_name": null,
    "office_name_kana": null
  },
  "1202": {
    "zip_code": "5291202",
    "prefecture": "滋賀県",
    "prefecture_kana": "シガケン",
    "prefecture_code": "25",
    "city": "愛知郡愛荘町",
    "city_kana": "エチグンアイショウチョウ",
    "town": "松尾寺",
    "town_kana": "マツオジ",
    "street": null,
    "office_name": null,
    "office_name_kana": null
  },
  "1203": {
    "zip_code": "5291203",
    "prefecture": "滋賀県",
    "prefecture_kana": "シガケン",
    "prefecture_code": "25",
    "city": "愛知郡愛荘町",
    "city_kana": "エチグンアイショウチョウ",
    "town": "上蚊野",
    "town_kana": "カミガノ",
    "street": null,
    "office_name": null,
    "office_name_kana": null
  },
  "1204": {
    "zip_code": "5291204",
    "prefecture": "滋賀県",
    "prefecture_kana": "シガケン",
    "prefecture_code": "25",
    "city": "愛知郡愛荘町",
    "city_kana": "エチグンアイショウチョウ",
    "town": "蚊野外",
    "town_kana": "カノトノ",
    "street": null,
    "office_name": null,
    "office_name_kana": null
  },
  "1205": {
    "zip_code": "5291205",
    "prefecture": "滋賀県",
    "prefecture_kana": "シガケン",
    "prefecture_code": "25",
    "city": "愛知郡愛荘町",
    "city_kana": "エチグンアイショウチョウ",
    "town": "軽野",
    "town_kana": "カルノ",
    "street": null,
    "office_name": null,
    "office_name_kana": null
  },
  "1206": {
    "zip_code": "5291206",
    "prefecture": "滋賀県",
    "prefecture_kana": "シガケン",
    "prefecture_code": "25",
    "city": "愛知郡愛荘町",
    "city_kana": "エチグンアイショウチョウ",
    "town": "蚊野",
    "town_kana": "カノ",
    "street": null,
    "office_name": null,
    "office_name_kana": null
  },
  "1207": {
    "zip_code": "5291207",
    "prefecture": "滋賀県",
    "prefecture_kana": "シガケン",
    "prefecture_code": "25",
    "city": "愛知郡愛荘町",
    "city_kana": "エチグンアイショウチョウ",
    "town": "岩倉",
    "town_kana": "イワクラ",
    "street": null,
    "office_name": null,
    "office_name_kana": null
  },
  "1208": {
    "zip_code": "5291208",
    "prefecture": "滋賀県",
    "prefecture_kana": "シガケン",
    "prefecture_code": "25",
    "city": "愛知郡愛荘町",
    "city_kana": "エチグンアイショウチョウ",
    "town": "竹原",
    "town_kana": "タケハラ",
    "street": null,
    "office_name": null,
    "office_name_kana": null
  },
  "1211": {
    "zip_code": "5291211",
    "prefecture": "滋賀県",
    "prefecture_kana": "シガケン",
    "prefecture_code": "25",
    "city": "愛知郡愛荘町",
    "city_kana": "エチグンアイショウチョウ",
    "town": "香之庄",
    "town_kana": "コノショウ",
    "street": null,
    "office_name": null,
    "office_name_kana": null
  },
  "1212": {
    "zip_code": "5291212",
    "prefecture": "滋賀県",
    "prefecture_kana": "シガケン",
    "prefecture_code": "25",
    "city": "愛知郡愛荘町",
    "city_kana": "エチグンアイショウチョウ",
    "town": "元持",
    "town_kana": "モトモチ",
    "street": null,
    "office_name": null,
    "office_name_kana": null
  },
  "1213": {
    "zip_code": "5291213",
    "prefecture": "滋賀県",
    "prefecture_kana": "シガケン",
    "prefecture_code": "25",
    "city": "愛知郡愛荘町",
    "city_kana": "エチグンアイショウチョウ",
    "town": "沖",
    "town_kana": "オキ",
    "street": null,
    "office_name": null,
    "office_name_kana": null
  },
  "1214": {
    "zip_code": "5291214",
    "prefecture": "滋賀県",
    "prefecture_kana": "シガケン",
    "prefecture_code": "25",
    "city": "愛知郡愛荘町",
    "city_kana": "エチグンアイショウチョウ",
    "town": "宮後",
    "town_kana": "ミヤウシロ",
    "street": null,
    "office_name": null,
    "office_name_kana": null
  },
  "1221": {
    "zip_code": "5291221",
    "prefecture": "滋賀県",
    "prefecture_kana": "シガケン",
    "prefecture_code": "25",
    "city": "愛知郡愛荘町",
    "city_kana": "エチグンアイショウチョウ",
    "town": "下八木",
    "town_kana": "シモヤギ",
    "street": null,
    "office_name": null,
    "office_name_kana": null
  },
  "1222": {
    "zip_code": "5291222",
    "prefecture": "滋賀県",
    "prefecture_kana": "シガケン",
    "prefecture_code": "25",
    "city": "愛知郡愛荘町",
    "city_kana": "エチグンアイショウチョウ",
    "town": "北八木",
    "town_kana": "キタヤギ",
    "street": null,
    "office_name": null,
    "office_name_kana": null
  },
  "1223": {
    "zip_code": "5291223",
    "prefecture": "滋賀県",
    "prefecture_kana": "シガケン",
    "prefecture_code": "25",
    "city": "愛知郡愛荘町",
    "city_kana": "エチグンアイショウチョウ",
    "town": "島川",
    "town_kana": "シマガワ",
    "street": null,
    "office_name": null,
    "office_name_kana": null
  },
  "1224": {
    "zip_code": "5291224",
    "prefecture": "滋賀県",
    "prefecture_kana": "シガケン",
    "prefecture_code": "25",
    "city": "愛知郡愛荘町",
    "city_kana": "エチグンアイショウチョウ",
    "town": "長塚",
    "town_kana": "ナガツカ",
    "street": null,
    "office_name": null,
    "office_name_kana": null
  },
  "1225": {
    "zip_code": "5291225",
    "prefecture": "滋賀県",
    "prefecture_kana": "シガケン",
    "prefecture_code": "25",
    "city": "愛知郡愛荘町",
    "city_kana": "エチグンアイショウチョウ",
    "town": "栗田",
    "town_kana": "クリタ",
    "street": null,
    "office_name": null,
    "office_name_kana": null
  },
  "1226": {
    "zip_code": "5291226",
    "prefecture": "滋賀県",
    "prefecture_kana": "シガケン",
    "prefecture_code": "25",
    "city": "愛知郡愛荘町",
    "city_kana": "エチグンアイショウチョウ",
    "town": "南野々目",
    "town_kana": "ミナミノノメ",
    "street": null,
    "office_name": null,
    "office_name_kana": null
  },
  "1227": {
    "zip_code": "5291227",
    "prefecture": "滋賀県",
    "prefecture_kana": "シガケン",
    "prefecture_code": "25",
    "city": "愛知郡愛荘町",
    "city_kana": "エチグンアイショウチョウ",
    "town": "野々目",
    "town_kana": "ノノメ",
    "street": null,
    "office_name": null,
    "office_name_kana": null
  },
  "1228": {
    "zip_code": "5291228",
    "prefecture": "滋賀県",
    "prefecture_kana": "シガケン",
    "prefecture_code": "25",
    "city": "愛知郡愛荘町",
    "city_kana": "エチグンアイショウチョウ",
    "town": "矢守",
    "town_kana": "ヤモリ",
    "street": null,
    "office_name": null,
    "office_name_kana": null
  },
  "1231": {
    "zip_code": "5291231",
    "prefecture": "滋賀県",
    "prefecture_kana": "シガケン",
    "prefecture_code": "25",
    "city": "愛知郡愛荘町",
    "city_kana": "エチグンアイショウチョウ",
    "town": "円城寺",
    "town_kana": "エンジョウジ",
    "street": null,
    "office_name": null,
    "office_name_kana": null
  },
  "1232": {
    "zip_code": "5291232",
    "prefecture": "滋賀県",
    "prefecture_kana": "シガケン",
    "prefecture_code": "25",
    "city": "愛知郡愛荘町",
    "city_kana": "エチグンアイショウチョウ",
    "town": "常安寺",
    "town_kana": "ジョウアンジ",
    "street": null,
    "office_name": null,
    "office_name_kana": null
  },
  "1233": {
    "zip_code": "5291233",
    "prefecture": "滋賀県",
    "prefecture_kana": "シガケン",
    "prefecture_code": "25",
    "city": "愛知郡愛荘町",
    "city_kana": "エチグンアイショウチョウ",
    "town": "東出",
    "town_kana": "ヒガシデ",
    "street": null,
    "office_name": null,
    "office_name_kana": null
  },
  "1234": {
    "zip_code": "5291234",
    "prefecture": "滋賀県",
    "prefecture_kana": "シガケン",
    "prefecture_code": "25",
    "city": "愛知郡愛荘町",
    "city_kana": "エチグンアイショウチョウ",
    "town": "安孫子",
    "town_kana": "アビコ",
    "street": null,
    "office_name": null,
    "office_name_kana": null
  },
  "1235": {
    "zip_code": "5291235",
    "prefecture": "滋賀県",
    "prefecture_kana": "シガケン",
    "prefecture_code": "25",
    "city": "愛知郡愛荘町",
    "city_kana": "エチグンアイショウチョウ",
    "town": "目加田",
    "town_kana": "メカダ",
    "street": null,
    "office_name": null,
    "office_name_kana": null
  },
  "1236": {
    "zip_code": "5291236",
    "prefecture": "滋賀県",
    "prefecture_kana": "シガケン",
    "prefecture_code": "25",
    "city": "愛知郡愛荘町",
    "city_kana": "エチグンアイショウチョウ",
    "town": "深草",
    "town_kana": "フコソ",
    "street": null,
    "office_name": null,
    "office_name_kana": null
  },
  "1237": {
    "zip_code": "5291237",
    "prefecture": "滋賀県",
    "prefecture_kana": "シガケン",
    "prefecture_code": "25",
    "city": "愛知郡愛荘町",
    "city_kana": "エチグンアイショウチョウ",
    "town": "西出",
    "town_kana": "ニシデ",
    "street": null,
    "office_name": null,
    "office_name_kana": null
  },
  "1300": {
    "zip_code": "5291300",
    "prefecture": "滋賀県",
    "prefecture_kana": "シガケン",
    "prefecture_code": "25",
    "city": "愛知郡愛荘町",
    "city_kana": "エチグンアイショウチョウ",
    "town": "",
    "town_kana": "",
    "street": null,
    "office_name": null,
    "office_name_kana": null
  },
  "1301": {
    "zip_code": "5291301",
    "prefecture": "滋賀県",
    "prefecture_kana": "シガケン",
    "prefecture_code": "25",
    "city": "愛知郡愛荘町",
    "city_kana": "エチグンアイショウチョウ",
    "town": "山川原",
    "town_kana": "ヤマガワラ",
    "street": null,
    "office_name": null,
    "office_name_kana": null
  },
  "1302": {
    "zip_code": "5291302",
    "prefecture": "滋賀県",
    "prefecture_kana": "シガケン",
    "prefecture_code": "25",
    "city": "愛知郡愛荘町",
    "city_kana": "エチグンアイショウチョウ",
    "town": "川原",
    "town_kana": "カワラ",
    "street": null,
    "office_name": null,
    "office_name_kana": null
  },
  "1303": {
    "zip_code": "5291303",
    "prefecture": "滋賀県",
    "prefecture_kana": "シガケン",
    "prefecture_code": "25",
    "city": "愛知郡愛荘町",
    "city_kana": "エチグンアイショウチョウ",
    "town": "長野",
    "town_kana": "ナガノ",
    "street": null,
    "office_name": null,
    "office_name_kana": null
  },
  "1311": {
    "zip_code": "5291311",
    "prefecture": "滋賀県",
    "prefecture_kana": "シガケン",
    "prefecture_code": "25",
    "city": "愛知郡愛荘町",
    "city_kana": "エチグンアイショウチョウ",
    "town": "石橋",
    "town_kana": "イシハシ",
    "street": null,
    "office_name": null,
    "office_name_kana": null
  },
  "1312": {
    "zip_code": "5291312",
    "prefecture": "滋賀県",
    "prefecture_kana": "シガケン",
    "prefecture_code": "25",
    "city": "愛知郡愛荘町",
    "city_kana": "エチグンアイショウチョウ",
    "town": "川久保",
    "town_kana": "カワクボ",
    "street": null,
    "office_name": null,
    "office_name_kana": null
  },
  "1313": {
    "zip_code": "5291313",
    "prefecture": "滋賀県",
    "prefecture_kana": "シガケン",
    "prefecture_code": "25",
    "city": "愛知郡愛荘町",
    "city_kana": "エチグンアイショウチョウ",
    "town": "市",
    "town_kana": "イチ",
    "street": null,
    "office_name": null,
    "office_name_kana": null
  },
  "1314": {
    "zip_code": "5291314",
    "prefecture": "滋賀県",
    "prefecture_kana": "シガケン",
    "prefecture_code": "25",
    "city": "愛知郡愛荘町",
    "city_kana": "エチグンアイショウチョウ",
    "town": "中宿",
    "town_kana": "ナカジュク",
    "street": null,
    "office_name": null,
    "office_name_kana": null
  },
  "1315": {
    "zip_code": "5291315",
    "prefecture": "滋賀県",
    "prefecture_kana": "シガケン",
    "prefecture_code": "25",
    "city": "愛知郡愛荘町",
    "city_kana": "エチグンアイショウチョウ",
    "town": "沓掛",
    "town_kana": "クツカケ",
    "street": null,
    "office_name": null,
    "office_name_kana": null
  },
  "1321": {
    "zip_code": "5291321",
    "prefecture": "滋賀県",
    "prefecture_kana": "シガケン",
    "prefecture_code": "25",
    "city": "愛知郡愛荘町",
    "city_kana": "エチグンアイショウチョウ",
    "town": "豊満",
    "town_kana": "トヨミツ",
    "street": null,
    "office_name": null,
    "office_name_kana": null
  },
  "1322": {
    "zip_code": "5291322",
    "prefecture": "滋賀県",
    "prefecture_kana": "シガケン",
    "prefecture_code": "25",
    "city": "愛知郡愛荘町",
    "city_kana": "エチグンアイショウチョウ",
    "town": "平居",
    "town_kana": "ヒライ",
    "street": null,
    "office_name": null,
    "office_name_kana": null
  },
  "1323": {
    "zip_code": "5291323",
    "prefecture": "滋賀県",
    "prefecture_kana": "シガケン",
    "prefecture_code": "25",
    "city": "愛知郡愛荘町",
    "city_kana": "エチグンアイショウチョウ",
    "town": "畑田",
    "town_kana": "ハタケダ",
    "street": null,
    "office_name": null,
    "office_name_kana": null
  },
  "1324": {
    "zip_code": "5291324",
    "prefecture": "滋賀県",
    "prefecture_kana": "シガケン",
    "prefecture_code": "25",
    "city": "愛知郡愛荘町",
    "city_kana": "エチグンアイショウチョウ",
    "town": "苅間",
    "town_kana": "カリマ",
    "street": null,
    "office_name": null,
    "office_name_kana": null
  },
  "1325": {
    "zip_code": "5291325",
    "prefecture": "滋賀県",
    "prefecture_kana": "シガケン",
    "prefecture_code": "25",
    "city": "愛知郡愛荘町",
    "city_kana": "エチグンアイショウチョウ",
    "town": "東円堂",
    "town_kana": "トウエンドウ",
    "street": null,
    "office_name": null,
    "office_name_kana": null
  },
  "1331": {
    "zip_code": "5291331",
    "prefecture": "滋賀県",
    "prefecture_kana": "シガケン",
    "prefecture_code": "25",
    "city": "愛知郡愛荘町",
    "city_kana": "エチグンアイショウチョウ",
    "town": "愛知川",
    "town_kana": "エチガワ",
    "street": null,
    "office_name": null,
    "office_name_kana": null
  },
  "1380": {
    "zip_code": "5291380",
    "prefecture": "滋賀県",
    "prefecture_kana": "シガケン",
    "prefecture_code": "25",
    "city": "愛知郡愛荘町",
    "city_kana": "エチグンアイショウチョウ",
    "town": "愛知川",
    "town_kana": "エチガワ",
    "street": "７２",
    "office_name": "愛荘町役場　愛知川庁舎",
    "office_name_kana": "アイシヨウチヨウヤクバ エチガワチヨウシヤ"
  },
  "1381": {
    "zip_code": "5291381",
    "prefecture": "滋賀県",
    "prefecture_kana": "シガケン",
    "prefecture_code": "25",
    "city": "愛知郡愛荘町",
    "city_kana": "エチグンアイショウチョウ",
    "town": "市",
    "town_kana": "イチ",
    "street": "７０１",
    "office_name": "青木産商　株式会社",
    "office_name_kana": "アオキサンシヨウ カブシキガイシヤ"
  },
  "1382": {
    "zip_code": "5291382",
    "prefecture": "滋賀県",
    "prefecture_kana": "シガケン",
    "prefecture_code": "25",
    "city": "愛知郡愛荘町",
    "city_kana": "エチグンアイショウチョウ",
    "town": "東円堂",
    "town_kana": "トウエンドウ",
    "street": "土武５３３−３",
    "office_name": "キユーピー醸造　株式会社　滋賀工場",
    "office_name_kana": "キユ-ピ-ジヨウゾウ カブシキガイシヤ シガコウジヨウ"
  },
  "1383": {
    "zip_code": "5291383",
    "prefecture": "滋賀県",
    "prefecture_kana": "シガケン",
    "prefecture_code": "25",
    "city": "愛知郡愛荘町",
    "city_kana": "エチグンアイショウチョウ",
    "town": "東円堂",
    "town_kana": "トウエンドウ",
    "street": "９６１",
    "office_name": "栗本コンクリート工業　株式会社",
    "office_name_kana": "クリモトコンクリ-トコウギヨウ カブシキガイシヤ"
  },
  "1386": {
    "zip_code": "5291386",
    "prefecture": "滋賀県",
    "prefecture_kana": "シガケン",
    "prefecture_code": "25",
    "city": "愛知郡愛荘町",
    "city_kana": "エチグンアイショウチョウ",
    "town": "愛知川",
    "town_kana": "エチガワ",
    "street": "８２１−１",
    "office_name": "株式会社　ユニックス",
    "office_name_kana": "カブシキガイシヤ ユニツクス"
  },
  "1388": {
    "zip_code": "5291388",
    "prefecture": "滋賀県",
    "prefecture_kana": "シガケン",
    "prefecture_code": "25",
    "city": "愛知郡愛荘町",
    "city_kana": "エチグンアイショウチョウ",
    "town": "愛知川",
    "town_kana": "エチガワ",
    "street": "６５８",
    "office_name": "タカタ　株式会社　愛知川製造所",
    "office_name_kana": "タカタ カブシキガイシヤ エチガワセイゾウシヨ"
  },
  "1393": {
    "zip_code": "5291393",
    "prefecture": "滋賀県",
    "prefecture_kana": "シガケン",
    "prefecture_code": "25",
    "city": "愛知郡愛荘町",
    "city_kana": "エチグンアイショウチョウ",
    "town": "長野",
    "town_kana": "ナガノ",
    "street": "３８０（愛知川郵便局私書箱第３号）",
    "office_name": "大丸工業　株式会社　滋賀支店",
    "office_name_kana": "ダイマルコウギヨウ カブシキガイシヤ シガシテン"
  },
  "1401": {
    "zip_code": "5291401",
    "prefecture": "滋賀県",
    "prefecture_kana": "シガケン",
    "prefecture_code": "25",
    "city": "東近江市",
    "city_kana": "ヒガシオウミシ",
    "town": "五個荘石馬寺町",
    "town_kana": "ゴカショウイシバジチョウ",
    "street": null,
    "office_name": null,
    "office_name_kana": null
  },
  "1402": {
    "zip_code": "5291402",
    "prefecture": "滋賀県",
    "prefecture_kana": "シガケン",
    "prefecture_code": "25",
    "city": "東近江市",
    "city_kana": "ヒガシオウミシ",
    "town": "五個荘七里町",
    "town_kana": "ゴカショウシチリチョウ",
    "street": null,
    "office_name": null,
    "office_name_kana": null
  },
  "1403": {
    "zip_code": "5291403",
    "prefecture": "滋賀県",
    "prefecture_kana": "シガケン",
    "prefecture_code": "25",
    "city": "東近江市",
    "city_kana": "ヒガシオウミシ",
    "town": "五個荘日吉町",
    "town_kana": "ゴカショウヒヨシチョウ",
    "street": null,
    "office_name": null,
    "office_name_kana": null
  },
  "1404": {
    "zip_code": "5291404",
    "prefecture": "滋賀県",
    "prefecture_kana": "シガケン",
    "prefecture_code": "25",
    "city": "東近江市",
    "city_kana": "ヒガシオウミシ",
    "town": "宮荘町",
    "town_kana": "ミヤショウチョウ",
    "street": null,
    "office_name": null,
    "office_name_kana": null
  },
  "1405": {
    "zip_code": "5291405",
    "prefecture": "滋賀県",
    "prefecture_kana": "シガケン",
    "prefecture_code": "25",
    "city": "東近江市",
    "city_kana": "ヒガシオウミシ",
    "town": "五個荘金堂町",
    "town_kana": "ゴカショウコンドウチョウ",
    "street": null,
    "office_name": null,
    "office_name_kana": null
  },
  "1411": {
    "zip_code": "5291411",
    "prefecture": "滋賀県",
    "prefecture_kana": "シガケン",
    "prefecture_code": "25",
    "city": "東近江市",
    "city_kana": "ヒガシオウミシ",
    "town": "五個荘河曲町",
    "town_kana": "ゴカショウカマガリチョウ",
    "street": null,
    "office_name": null,
    "office_name_kana": null
  },
  "1412": {
    "zip_code": "5291412",
    "prefecture": "滋賀県",
    "prefecture_kana": "シガケン",
    "prefecture_code": "25",
    "city": "東近江市",
    "city_kana": "ヒガシオウミシ",
    "town": "五個荘和田町",
    "town_kana": "ゴカショウワダチョウ",
    "street": null,
    "office_name": null,
    "office_name_kana": null
  },
  "1413": {
    "zip_code": "5291413",
    "prefecture": "滋賀県",
    "prefecture_kana": "シガケン",
    "prefecture_code": "25",
    "city": "東近江市",
    "city_kana": "ヒガシオウミシ",
    "town": "五個荘簗瀬町",
    "town_kana": "ゴカショウヤナゼチョウ",
    "street": null,
    "office_name": null,
    "office_name_kana": null
  },
  "1414": {
    "zip_code": "5291414",
    "prefecture": "滋賀県",
    "prefecture_kana": "シガケン",
    "prefecture_code": "25",
    "city": "東近江市",
    "city_kana": "ヒガシオウミシ",
    "town": "五個荘中町",
    "town_kana": "ゴカショウナカチョウ",
    "street": null,
    "office_name": null,
    "office_name_kana": null
  },
  "1415": {
    "zip_code": "5291415",
    "prefecture": "滋賀県",
    "prefecture_kana": "シガケン",
    "prefecture_code": "25",
    "city": "東近江市",
    "city_kana": "ヒガシオウミシ",
    "town": "五個荘五位田町",
    "town_kana": "ゴカショウゴイデチョウ",
    "street": null,
    "office_name": null,
    "office_name_kana": null
  },
  "1421": {
    "zip_code": "5291421",
    "prefecture": "滋賀県",
    "prefecture_kana": "シガケン",
    "prefecture_code": "25",
    "city": "東近江市",
    "city_kana": "ヒガシオウミシ",
    "town": "五個荘竜田町",
    "town_kana": "ゴカショウタツタチョウ",
    "street": null,
    "office_name": null,
    "office_name_kana": null
  },
  "1422": {
    "zip_code": "5291422",
    "prefecture": "滋賀県",
    "prefecture_kana": "シガケン",
    "prefecture_code": "25",
    "city": "東近江市",
    "city_kana": "ヒガシオウミシ",
    "town": "五個荘小幡町",
    "town_kana": "ゴカショウオバタチョウ",
    "street": null,
    "office_name": null,
    "office_name_kana": null
  },
  "1423": {
    "zip_code": "5291423",
    "prefecture": "滋賀県",
    "prefecture_kana": "シガケン",
    "prefecture_code": "25",
    "city": "東近江市",
    "city_kana": "ヒガシオウミシ",
    "town": "五個荘奥町",
    "town_kana": "ゴカショウオクチョウ",
    "street": null,
    "office_name": null,
    "office_name_kana": null
  },
  "1424": {
    "zip_code": "5291424",
    "prefecture": "滋賀県",
    "prefecture_kana": "シガケン",
    "prefecture_code": "25",
    "city": "東近江市",
    "city_kana": "ヒガシオウミシ",
    "town": "五個荘三俣町",
    "town_kana": "ゴカショウミツマタチョウ",
    "street": null,
    "office_name": null,
    "office_name_kana": null
  },
  "1425": {
    "zip_code": "5291425",
    "prefecture": "滋賀県",
    "prefecture_kana": "シガケン",
    "prefecture_code": "25",
    "city": "東近江市",
    "city_kana": "ヒガシオウミシ",
    "town": "五個荘石川町",
    "town_kana": "ゴカショウイシカワチョウ",
    "street": null,
    "office_name": null,
    "office_name_kana": null
  },
  "1431": {
    "zip_code": "5291431",
    "prefecture": "滋賀県",
    "prefecture_kana": "シガケン",
    "prefecture_code": "25",
    "city": "東近江市",
    "city_kana": "ヒガシオウミシ",
    "town": "五個荘山本町",
    "town_kana": "ゴカショウヤマモトチョウ",
    "street": null,
    "office_name": null,
    "office_name_kana": null
  },
  "1432": {
    "zip_code": "5291432",
    "prefecture": "滋賀県",
    "prefecture_kana": "シガケン",
    "prefecture_code": "25",
    "city": "東近江市",
    "city_kana": "ヒガシオウミシ",
    "town": "五個荘新堂町",
    "town_kana": "ゴカショウシンドウチョウ",
    "street": null,
    "office_name": null,
    "office_name_kana": null
  },
  "1433": {
    "zip_code": "5291433",
    "prefecture": "滋賀県",
    "prefecture_kana": "シガケン",
    "prefecture_code": "25",
    "city": "東近江市",
    "city_kana": "ヒガシオウミシ",
    "town": "五個荘木流町",
    "town_kana": "ゴカショウキナガセチョウ",
    "street": null,
    "office_name": null,
    "office_name_kana": null
  },
  "1434": {
    "zip_code": "5291434",
    "prefecture": "滋賀県",
    "prefecture_kana": "シガケン",
    "prefecture_code": "25",
    "city": "東近江市",
    "city_kana": "ヒガシオウミシ",
    "town": "五個荘平阪町",
    "town_kana": "ゴカショウヒラサカチョウ",
    "street": null,
    "office_name": null,
    "office_name_kana": null
  },
  "1435": {
    "zip_code": "5291435",
    "prefecture": "滋賀県",
    "prefecture_kana": "シガケン",
    "prefecture_code": "25",
    "city": "東近江市",
    "city_kana": "ヒガシオウミシ",
    "town": "五個荘伊野部町",
    "town_kana": "ゴカショウイノベチョウ",
    "street": null,
    "office_name": null,
    "office_name_kana": null
  },
  "1441": {
    "zip_code": "5291441",
    "prefecture": "滋賀県",
    "prefecture_kana": "シガケン",
    "prefecture_code": "25",
    "city": "東近江市",
    "city_kana": "ヒガシオウミシ",
    "town": "五個荘川並町",
    "town_kana": "ゴカショウカワナミチョウ",
    "street": null,
    "office_name": null,
    "office_name_kana": null
  },
  "1442": {
    "zip_code": "5291442",
    "prefecture": "滋賀県",
    "prefecture_kana": "シガケン",
    "prefecture_code": "25",
    "city": "東近江市",
    "city_kana": "ヒガシオウミシ",
    "town": "五個荘塚本町",
    "town_kana": "ゴカショウツカモトチョウ",
    "street": null,
    "office_name": null,
    "office_name_kana": null
  },
  "1443": {
    "zip_code": "5291443",
    "prefecture": "滋賀県",
    "prefecture_kana": "シガケン",
    "prefecture_code": "25",
    "city": "東近江市",
    "city_kana": "ヒガシオウミシ",
    "town": "五個荘北町屋町",
    "town_kana": "ゴカショウキタマチヤチョウ",
    "street": null,
    "office_name": null,
    "office_name_kana": null
  },
  "1444": {
    "zip_code": "5291444",
    "prefecture": "滋賀県",
    "prefecture_kana": "シガケン",
    "prefecture_code": "25",
    "city": "東近江市",
    "city_kana": "ヒガシオウミシ",
    "town": "五個荘石塚町",
    "town_kana": "ゴカショウイシヅカチョウ",
    "street": null,
    "office_name": null,
    "office_name_kana": null
  },
  "1445": {
    "zip_code": "5291445",
    "prefecture": "滋賀県",
    "prefecture_kana": "シガケン",
    "prefecture_code": "25",
    "city": "東近江市",
    "city_kana": "ヒガシオウミシ",
    "town": "五個荘清水鼻町",
    "town_kana": "ゴカショウシミズハナチョウ",
    "street": null,
    "office_name": null,
    "office_name_kana": null
  },
  "1492": {
    "zip_code": "5291492",
    "prefecture": "滋賀県",
    "prefecture_kana": "シガケン",
    "prefecture_code": "25",
    "city": "東近江市",
    "city_kana": "ヒガシオウミシ",
    "town": "五個荘小幡町",
    "town_kana": "ゴカショウオバタチョウ",
    "street": "３１８番地",
    "office_name": "東近江市役所　五個荘支所",
    "office_name_kana": "ヒガシオウミシヤクシヨ ゴカシヨウシシヨ"
  },
  "1493": {
    "zip_code": "5291493",
    "prefecture": "滋賀県",
    "prefecture_kana": "シガケン",
    "prefecture_code": "25",
    "city": "東近江市",
    "city_kana": "ヒガシオウミシ",
    "town": "五個荘簗瀬町",
    "town_kana": "ゴカショウヤナゼチョウ",
    "street": "１１−３",
    "office_name": "藤野商事　株式会社",
    "office_name_kana": "フジノシヨウジ カブシキガイシヤ"
  },
  "1495": {
    "zip_code": "5291495",
    "prefecture": "滋賀県",
    "prefecture_kana": "シガケン",
    "prefecture_code": "25",
    "city": "東近江市",
    "city_kana": "ヒガシオウミシ",
    "town": "宮荘町",
    "town_kana": "ミヤショウチョウ",
    "street": "６１０",
    "office_name": "フジノ食品　株式会社",
    "office_name_kana": "フジノシヨクヒン カブシキガイシヤ"
  },
  "1501": {
    "zip_code": "5291501",
    "prefecture": "滋賀県",
    "prefecture_kana": "シガケン",
    "prefecture_code": "25",
    "city": "東近江市",
    "city_kana": "ヒガシオウミシ",
    "town": "石塔町",
    "town_kana": "イシドウチョウ",
    "street": null,
    "office_name": null,
    "office_name_kana": null
  },
  "1502": {
    "zip_code": "5291502",
    "prefecture": "滋賀県",
    "prefecture_kana": "シガケン",
    "prefecture_code": "25",
    "city": "東近江市",
    "city_kana": "ヒガシオウミシ",
    "town": "平林町",
    "town_kana": "ヒラバヤシチョウ",
    "street": null,
    "office_name": null,
    "office_name_kana": null
  },
  "1503": {
    "zip_code": "5291503",
    "prefecture": "滋賀県",
    "prefecture_kana": "シガケン",
    "prefecture_code": "25",
    "city": "東近江市",
    "city_kana": "ヒガシオウミシ",
    "town": "綺田町",
    "town_kana": "カバタチョウ",
    "street": null,
    "office_name": null,
    "office_name_kana": null
  },
  "1504": {
    "zip_code": "5291504",
    "prefecture": "滋賀県",
    "prefecture_kana": "シガケン",
    "prefecture_code": "25",
    "city": "東近江市",
    "city_kana": "ヒガシオウミシ",
    "town": "蒲生寺町",
    "town_kana": "ガモウテラマチ",
    "street": null,
    "office_name": null,
    "office_name_kana": null
  },
  "1511": {
    "zip_code": "5291511",
    "prefecture": "滋賀県",
    "prefecture_kana": "シガケン",
    "prefecture_code": "25",
    "city": "東近江市",
    "city_kana": "ヒガシオウミシ",
    "town": "桜川東町",
    "town_kana": "サクラガワヒガシチョウ",
    "street": null,
    "office_name": null,
    "office_name_kana": null
  },
  "1512": {
    "zip_code": "5291512",
    "prefecture": "滋賀県",
    "prefecture_kana": "シガケン",
    "prefecture_code": "25",
    "city": "東近江市",
    "city_kana": "ヒガシオウミシ",
    "town": "大塚町",
    "town_kana": "オオツカチョウ",
    "street": null,
    "office_name": null,
    "office_name_kana": null
  },
  "1513": {
    "zip_code": "5291513",
    "prefecture": "滋賀県",
    "prefecture_kana": "シガケン",
    "prefecture_code": "25",
    "city": "東近江市",
    "city_kana": "ヒガシオウミシ",
    "town": "田井町",
    "town_kana": "タイチョウ",
    "street": null,
    "office_name": null,
    "office_name_kana": null
  },
  "1514": {
    "zip_code": "5291514",
    "prefecture": "滋賀県",
    "prefecture_kana": "シガケン",
    "prefecture_code": "25",
    "city": "東近江市",
    "city_kana": "ヒガシオウミシ",
    "town": "蒲生大森町",
    "town_kana": "ガモウオオモリチョウ",
    "street": null,
    "office_name": null,
    "office_name_kana": null
  },
  "1521": {
    "zip_code": "5291521",
    "prefecture": "滋賀県",
    "prefecture_kana": "シガケン",
    "prefecture_code": "25",
    "city": "東近江市",
    "city_kana": "ヒガシオウミシ",
    "town": "蒲生岡本町",
    "town_kana": "ガモウオカモトチョウ",
    "street": null,
    "office_name": null,
    "office_name_kana": null
  },
  "1522": {
    "zip_code": "5291522",
    "prefecture": "滋賀県",
    "prefecture_kana": "シガケン",
    "prefecture_code": "25",
    "city": "東近江市",
    "city_kana": "ヒガシオウミシ",
    "town": "鋳物師町",
    "town_kana": "イモノシチョウ",
    "street": null,
    "office_name": null,
    "office_name_kana": null
  },
  "1523": {
    "zip_code": "5291523",
    "prefecture": "滋賀県",
    "prefecture_kana": "シガケン",
    "prefecture_code": "25",
    "city": "東近江市",
    "city_kana": "ヒガシオウミシ",
    "town": "上麻生町",
    "town_kana": "カミアソウチョウ",
    "street": null,
    "office_name": null,
    "office_name_kana": null
  },
  "1524": {
    "zip_code": "5291524",
    "prefecture": "滋賀県",
    "prefecture_kana": "シガケン",
    "prefecture_code": "25",
    "city": "東近江市",
    "city_kana": "ヒガシオウミシ",
    "town": "下麻生町",
    "town_kana": "シモアソウチョウ",
    "street": null,
    "office_name": null,
    "office_name_kana": null
  },
  "1531": {
    "zip_code": "5291531",
    "prefecture": "滋賀県",
    "prefecture_kana": "シガケン",
    "prefecture_code": "25",
    "city": "東近江市",
    "city_kana": "ヒガシオウミシ",
    "town": "市子川原町",
    "town_kana": "イチコカワラチョウ",
    "street": null,
    "office_name": null,
    "office_name_kana": null
  },
  "1532": {
    "zip_code": "5291532",
    "prefecture": "滋賀県",
    "prefecture_kana": "シガケン",
    "prefecture_code": "25",
    "city": "東近江市",
    "city_kana": "ヒガシオウミシ",
    "town": "市子松井町",
    "town_kana": "イチコマツイチョウ",
    "street": null,
    "office_name": null,
    "office_name_kana": null
  },
  "1533": {
    "zip_code": "5291533",
    "prefecture": "滋賀県",
    "prefecture_kana": "シガケン",
    "prefecture_code": "25",
    "city": "東近江市",
    "city_kana": "ヒガシオウミシ",
    "town": "市子沖町",
    "town_kana": "イチコオキチョウ",
    "street": null,
    "office_name": null,
    "office_name_kana": null
  },
  "1534": {
    "zip_code": "5291534",
    "prefecture": "滋賀県",
    "prefecture_kana": "シガケン",
    "prefecture_code": "25",
    "city": "東近江市",
    "city_kana": "ヒガシオウミシ",
    "town": "鈴町",
    "town_kana": "スズチョウ",
    "street": null,
    "office_name": null,
    "office_name_kana": null
  },
  "1535": {
    "zip_code": "5291535",
    "prefecture": "滋賀県",
    "prefecture_kana": "シガケン",
    "prefecture_code": "25",
    "city": "東近江市",
    "city_kana": "ヒガシオウミシ",
    "town": "上南町",
    "town_kana": "カミナチョウ",
    "street": null,
    "office_name": null,
    "office_name_kana": null
  },
  "1536": {
    "zip_code": "5291536",
    "prefecture": "滋賀県",
    "prefecture_kana": "シガケン",
    "prefecture_code": "25",
    "city": "東近江市",
    "city_kana": "ヒガシオウミシ",
    "town": "合戸町",
    "town_kana": "ゴウドチョウ",
    "street": null,
    "office_name": null,
    "office_name_kana": null
  },
  "1537": {
    "zip_code": "5291537",
    "prefecture": "滋賀県",
    "prefecture_kana": "シガケン",
    "prefecture_code": "25",
    "city": "東近江市",
    "city_kana": "ヒガシオウミシ",
    "town": "市子殿町",
    "town_kana": "イチコトノチョウ",
    "street": null,
    "office_name": null,
    "office_name_kana": null
  },
  "1541": {
    "zip_code": "5291541",
    "prefecture": "滋賀県",
    "prefecture_kana": "シガケン",
    "prefecture_code": "25",
    "city": "東近江市",
    "city_kana": "ヒガシオウミシ",
    "town": "蒲生堂町",
    "town_kana": "カモウドウチョウ",
    "street": null,
    "office_name": null,
    "office_name_kana": null
  },
  "1551": {
    "zip_code": "5291551",
    "prefecture": "滋賀県",
    "prefecture_kana": "シガケン",
    "prefecture_code": "25",
    "city": "東近江市",
    "city_kana": "ヒガシオウミシ",
    "town": "宮川町",
    "town_kana": "ミヤガワチョウ",
    "street": null,
    "office_name": null,
    "office_name_kana": null
  },
  "1561": {
    "zip_code": "5291561",
    "prefecture": "滋賀県",
    "prefecture_kana": "シガケン",
    "prefecture_code": "25",
    "city": "東近江市",
    "city_kana": "ヒガシオウミシ",
    "town": "稲垂町",
    "town_kana": "イナタリチョウ",
    "street": null,
    "office_name": null,
    "office_name_kana": null
  },
  "1562": {
    "zip_code": "5291562",
    "prefecture": "滋賀県",
    "prefecture_kana": "シガケン",
    "prefecture_code": "25",
    "city": "東近江市",
    "city_kana": "ヒガシオウミシ",
    "town": "木村町",
    "town_kana": "キムラチョウ",
    "street": null,
    "office_name": null,
    "office_name_kana": null
  },
  "1563": {
    "zip_code": "5291563",
    "prefecture": "滋賀県",
    "prefecture_kana": "シガケン",
    "prefecture_code": "25",
    "city": "東近江市",
    "city_kana": "ヒガシオウミシ",
    "town": "横山町",
    "town_kana": "ヨコヤマチョウ",
    "street": null,
    "office_name": null,
    "office_name_kana": null
  },
  "1564": {
    "zip_code": "5291564",
    "prefecture": "滋賀県",
    "prefecture_kana": "シガケン",
    "prefecture_code": "25",
    "city": "東近江市",
    "city_kana": "ヒガシオウミシ",
    "town": "宮井町",
    "town_kana": "ミヤイチョウ",
    "street": null,
    "office_name": null,
    "office_name_kana": null
  },
  "1565": {
    "zip_code": "5291565",
    "prefecture": "滋賀県",
    "prefecture_kana": "シガケン",
    "prefecture_code": "25",
    "city": "東近江市",
    "city_kana": "ヒガシオウミシ",
    "town": "外原町",
    "town_kana": "トノハラチョウ",
    "street": null,
    "office_name": null,
    "office_name_kana": null
  },
  "1566": {
    "zip_code": "5291566",
    "prefecture": "滋賀県",
    "prefecture_kana": "シガケン",
    "prefecture_code": "25",
    "city": "東近江市",
    "city_kana": "ヒガシオウミシ",
    "town": "葛巻町",
    "town_kana": "カズラマキチョウ",
    "street": null,
    "office_name": null,
    "office_name_kana": null
  },
  "1571": {
    "zip_code": "5291571",
    "prefecture": "滋賀県",
    "prefecture_kana": "シガケン",
    "prefecture_code": "25",
    "city": "東近江市",
    "city_kana": "ヒガシオウミシ",
    "town": "川合町",
    "town_kana": "カワイチョウ",
    "street": null,
    "office_name": null,
    "office_name_kana": null
  },
  "1572": {
    "zip_code": "5291572",
    "prefecture": "滋賀県",
    "prefecture_kana": "シガケン",
    "prefecture_code": "25",
    "city": "東近江市",
    "city_kana": "ヒガシオウミシ",
    "town": "桜川西町",
    "town_kana": "サクラガワニシチョウ",
    "street": null,
    "office_name": null,
    "office_name_kana": null
  },
  "1592": {
    "zip_code": "5291592",
    "prefecture": "滋賀県",
    "prefecture_kana": "シガケン",
    "prefecture_code": "25",
    "city": "東近江市",
    "city_kana": "ヒガシオウミシ",
    "town": "市子川原町",
    "town_kana": "イチコカワラチョウ",
    "street": "６７６番地",
    "office_name": "東近江市　蒲生支所",
    "office_name_kana": "ヒガシオウミシ ガモウシシヨ"
  },
  "1595": {
    "zip_code": "5291595",
    "prefecture": "滋賀県",
    "prefecture_kana": "シガケン",
    "prefecture_code": "25",
    "city": "東近江市",
    "city_kana": "ヒガシオウミシ",
    "town": "川合町",
    "town_kana": "カワイチョウ",
    "street": "１０−１",
    "office_name": "京セラ　株式会社　滋賀蒲生工場",
    "office_name_kana": "キヨウセラ カブシキガイシヤ シガガモウコウジヨウ"
  },
  "1597": {
    "zip_code": "5291597",
    "prefecture": "滋賀県",
    "prefecture_kana": "シガケン",
    "prefecture_code": "25",
    "city": "東近江市",
    "city_kana": "ヒガシオウミシ",
    "town": "石塔町",
    "town_kana": "イシドウチョウ",
    "street": "９８３−１５０",
    "office_name": "株式会社　名神八日市カントリー倶楽部",
    "office_name_kana": "カブシキガイシヤ メイシンヨウカイチカントリ-クラブ"
  },
  "1598": {
    "zip_code": "5291598",
    "prefecture": "滋賀県",
    "prefecture_kana": "シガケン",
    "prefecture_code": "25",
    "city": "東近江市",
    "city_kana": "ヒガシオウミシ",
    "town": "鈴町",
    "town_kana": "スズチョウ",
    "street": "１１２０",
    "office_name": "朝日野カントリー倶楽部",
    "office_name_kana": "アサヒノカントリ-クラブ"
  },
  "1600": {
    "zip_code": "5291600",
    "prefecture": "滋賀県",
    "prefecture_kana": "シガケン",
    "prefecture_code": "25",
    "city": "蒲生郡日野町",
    "city_kana": "ガモウグンヒノチョウ",
    "town": "",
    "town_kana": "",
    "street": null,
    "office_name": null,
    "office_name_kana": null
  },
  "1601": {
    "zip_code": "5291601",
    "prefecture": "滋賀県",
    "prefecture_kana": "シガケン",
    "prefecture_code": "25",
    "city": "蒲生郡日野町",
    "city_kana": "ガモウグンヒノチョウ",
    "town": "松尾",
    "town_kana": "マツオ",
    "street": null,
    "office_name": null,
    "office_name_kana": null
  },
  "1602": {
    "zip_code": "5291602",
    "prefecture": "滋賀県",
    "prefecture_kana": "シガケン",
    "prefecture_code": "25",
    "city": "蒲生郡日野町",
    "city_kana": "ガモウグンヒノチョウ",
    "town": "河原",
    "town_kana": "カワラ",
    "street": null,
    "office_name": null,
    "office_name_kana": null
  },
  "1603": {
    "zip_code": "5291603",
    "prefecture": "滋賀県",
    "prefecture_kana": "シガケン",
    "prefecture_code": "25",
    "city": "蒲生郡日野町",
    "city_kana": "ガモウグンヒノチョウ",
    "town": "大窪",
    "town_kana": "オオクボ",
    "street": null,
    "office_name": null,
    "office_name_kana": null
  },
  "1604": {
    "zip_code": "5291604",
    "prefecture": "滋賀県",
    "prefecture_kana": "シガケン",
    "prefecture_code": "25",
    "city": "蒲生郡日野町",
    "city_kana": "ガモウグンヒノチョウ",
    "town": "村井",
    "town_kana": "ムライ",
    "street": null,
    "office_name": null,
    "office_name_kana": null
  },
  "1605": {
    "zip_code": "5291605",
    "prefecture": "滋賀県",
    "prefecture_kana": "シガケン",
    "prefecture_code": "25",
    "city": "蒲生郡日野町",
    "city_kana": "ガモウグンヒノチョウ",
    "town": "小井口",
    "town_kana": "オイグチ",
    "street": null,
    "office_name": null,
    "office_name_kana": null
  },
  "1606": {
    "zip_code": "5291606",
    "prefecture": "滋賀県",
    "prefecture_kana": "シガケン",
    "prefecture_code": "25",
    "city": "蒲生郡日野町",
    "city_kana": "ガモウグンヒノチョウ",
    "town": "寺尻",
    "town_kana": "テラジリ",
    "street": null,
    "office_name": null,
    "office_name_kana": null
  },
  "1607": {
    "zip_code": "5291607",
    "prefecture": "滋賀県",
    "prefecture_kana": "シガケン",
    "prefecture_code": "25",
    "city": "蒲生郡日野町",
    "city_kana": "ガモウグンヒノチョウ",
    "town": "木津",
    "town_kana": "キヅ",
    "street": null,
    "office_name": null,
    "office_name_kana": null
  },
  "1608": {
    "zip_code": "5291608",
    "prefecture": "滋賀県",
    "prefecture_kana": "シガケン",
    "prefecture_code": "25",
    "city": "蒲生郡日野町",
    "city_kana": "ガモウグンヒノチョウ",
    "town": "大谷",
    "town_kana": "オオタニ",
    "street": null,
    "office_name": null,
    "office_name_kana": null
  },
  "1609": {
    "zip_code": "5291609",
    "prefecture": "滋賀県",
    "prefecture_kana": "シガケン",
    "prefecture_code": "25",
    "city": "蒲生郡日野町",
    "city_kana": "ガモウグンヒノチョウ",
    "town": "中道",
    "town_kana": "ナカミチ",
    "street": null,
    "office_name": null,
    "office_name_kana": null
  },
  "1610": {
    "zip_code": "5291610",
    "prefecture": "滋賀県",
    "prefecture_kana": "シガケン",
    "prefecture_code": "25",
    "city": "蒲生郡日野町",
    "city_kana": "ガモウグンヒノチョウ",
    "town": "奥之池",
    "town_kana": "オクノイケ",
    "street": null,
    "office_name": null,
    "office_name_kana": null
  },
  "1611": {
    "zip_code": "5291611",
    "prefecture": "滋賀県",
    "prefecture_kana": "シガケン",
    "prefecture_code": "25",
    "city": "蒲生郡日野町",
    "city_kana": "ガモウグンヒノチョウ",
    "town": "杣",
    "town_kana": "ソマ",
    "street": null,
    "office_name": null,
    "office_name_kana": null
  },
  "1612": {
    "zip_code": "5291612",
    "prefecture": "滋賀県",
    "prefecture_kana": "シガケン",
    "prefecture_code": "25",
    "city": "蒲生郡日野町",
    "city_kana": "ガモウグンヒノチョウ",
    "town": "杉",
    "town_kana": "スギ",
    "street": null,
    "office_name": null,
    "office_name_kana": null
  },
  "1613": {
    "zip_code": "5291613",
    "prefecture": "滋賀県",
    "prefecture_kana": "シガケン",
    "prefecture_code": "25",
    "city": "蒲生郡日野町",
    "city_kana": "ガモウグンヒノチョウ",
    "town": "川原",
    "town_kana": "カワラ",
    "street": null,
    "office_name": null,
    "office_name_kana": null
  },
  "1614": {
    "zip_code": "5291614",
    "prefecture": "滋賀県",
    "prefecture_kana": "シガケン",
    "prefecture_code": "25",
    "city": "蒲生郡日野町",
    "city_kana": "ガモウグンヒノチョウ",
    "town": "原",
    "town_kana": "ハラ",
    "street": null,
    "office_name": null,
    "office_name_kana": null
  },
  "1615": {
    "zip_code": "5291615",
    "prefecture": "滋賀県",
    "prefecture_kana": "シガケン",
    "prefecture_code": "25",
    "city": "蒲生郡日野町",
    "city_kana": "ガモウグンヒノチョウ",
    "town": "小野",
    "town_kana": "コノ",
    "street": null,
    "office_name": null,
    "office_name_kana": null
  },
  "1616": {
    "zip_code": "5291616",
    "prefecture": "滋賀県",
    "prefecture_kana": "シガケン",
    "prefecture_code": "25",
    "city": "蒲生郡日野町",
    "city_kana": "ガモウグンヒノチョウ",
    "town": "奥師",
    "town_kana": "オクシ",
    "street": null,
    "office_name": null,
    "office_name_kana": null
  },
  "1617": {
    "zip_code": "5291617",
    "prefecture": "滋賀県",
    "prefecture_kana": "シガケン",
    "prefecture_code": "25",
    "city": "蒲生郡日野町",
    "city_kana": "ガモウグンヒノチョウ",
    "town": "中之郷",
    "town_kana": "ナカノゴウ",
    "street": null,
    "office_name": null,
    "office_name_kana": null
  },
  "1618": {
    "zip_code": "5291618",
    "prefecture": "滋賀県",
    "prefecture_kana": "シガケン",
    "prefecture_code": "25",
    "city": "蒲生郡日野町",
    "city_kana": "ガモウグンヒノチョウ",
    "town": "鳥居平",
    "town_kana": "トリイヒラ",
    "street": null,
    "office_name": null,
    "office_name_kana": null
  },
  "1619": {
    "zip_code": "5291619",
    "prefecture": "滋賀県",
    "prefecture_kana": "シガケン",
    "prefecture_code": "25",
    "city": "蒲生郡日野町",
    "city_kana": "ガモウグンヒノチョウ",
    "town": "佐久良",
    "town_kana": "サクラ",
    "street": null,
    "office_name": null,
    "office_name_kana": null
  },
  "1621": {
    "zip_code": "5291621",
    "prefecture": "滋賀県",
    "prefecture_kana": "シガケン",
    "prefecture_code": "25",
    "city": "蒲生郡日野町",
    "city_kana": "ガモウグンヒノチョウ",
    "town": "西明寺",
    "town_kana": "サイミョウジ",
    "street": null,
    "office_name": null,
    "office_name_kana": null
  },
  "1622": {
    "zip_code": "5291622",
    "prefecture": "滋賀県",
    "prefecture_kana": "シガケン",
    "prefecture_code": "25",
    "city": "蒲生郡日野町",
    "city_kana": "ガモウグンヒノチョウ",
    "town": "北畑",
    "town_kana": "キタバタ",
    "street": null,
    "office_name": null,
    "office_name_kana": null
  },
  "1623": {
    "zip_code": "5291623",
    "prefecture": "滋賀県",
    "prefecture_kana": "シガケン",
    "prefecture_code": "25",
    "city": "蒲生郡日野町",
    "city_kana": "ガモウグンヒノチョウ",
    "town": "熊野",
    "town_kana": "クマノ",
    "street": null,
    "office_name": null,
    "office_name_kana": null
  },
  "1624": {
    "zip_code": "5291624",
    "prefecture": "滋賀県",
    "prefecture_kana": "シガケン",
    "prefecture_code": "25",
    "city": "蒲生郡日野町",
    "city_kana": "ガモウグンヒノチョウ",
    "town": "平子",
    "town_kana": "ヒラコ",
    "street": null,
    "office_name": null,
    "office_name_kana": null
  },
  "1625": {
    "zip_code": "5291625",
    "prefecture": "滋賀県",
    "prefecture_kana": "シガケン",
    "prefecture_code": "25",
    "city": "蒲生郡日野町",
    "city_kana": "ガモウグンヒノチョウ",
    "town": "蔵王",
    "town_kana": "ザオウ",
    "street": null,
    "office_name": null,
    "office_name_kana": null
  },
  "1626": {
    "zip_code": "5291626",
    "prefecture": "滋賀県",
    "prefecture_kana": "シガケン",
    "prefecture_code": "25",
    "city": "蒲生郡日野町",
    "city_kana": "ガモウグンヒノチョウ",
    "town": "音羽",
    "town_kana": "オトワ",
    "street": null,
    "office_name": null,
    "office_name_kana": null
  },
  "1627": {
    "zip_code": "5291627",
    "prefecture": "滋賀県",
    "prefecture_kana": "シガケン",
    "prefecture_code": "25",
    "city": "蒲生郡日野町",
    "city_kana": "ガモウグンヒノチョウ",
    "town": "仁本木",
    "town_kana": "ニホンギ",
    "street": null,
    "office_name": null,
    "office_name_kana": null
  },
  "1628": {
    "zip_code": "5291628",
    "prefecture": "滋賀県",
    "prefecture_kana": "シガケン",
    "prefecture_code": "25",
    "city": "蒲生郡日野町",
    "city_kana": "ガモウグンヒノチョウ",
    "town": "西大路",
    "town_kana": "ニシオオジ",
    "street": null,
    "office_name": null,
    "office_name_kana": null
  },
  "1631": {
    "zip_code": "5291631",
    "prefecture": "滋賀県",
    "prefecture_kana": "シガケン",
    "prefecture_code": "25",
    "city": "蒲生郡日野町",
    "city_kana": "ガモウグンヒノチョウ",
    "town": "鎌掛",
    "town_kana": "カイガケ",
    "street": null,
    "office_name": null,
    "office_name_kana": null
  },
  "1632": {
    "zip_code": "5291632",
    "prefecture": "滋賀県",
    "prefecture_kana": "シガケン",
    "prefecture_code": "25",
    "city": "蒲生郡日野町",
    "city_kana": "ガモウグンヒノチョウ",
    "town": "上駒月",
    "town_kana": "カミコマヅキ",
    "street": null,
    "office_name": null,
    "office_name_kana": null
  },
  "1633": {
    "zip_code": "5291633",
    "prefecture": "滋賀県",
    "prefecture_kana": "シガケン",
    "prefecture_code": "25",
    "city": "蒲生郡日野町",
    "city_kana": "ガモウグンヒノチョウ",
    "town": "下駒月",
    "town_kana": "シモコマヅキ",
    "street": null,
    "office_name": null,
    "office_name_kana": null
  },
  "1634": {
    "zip_code": "5291634",
    "prefecture": "滋賀県",
    "prefecture_kana": "シガケン",
    "prefecture_code": "25",
    "city": "蒲生郡日野町",
    "city_kana": "ガモウグンヒノチョウ",
    "town": "深山口",
    "town_kana": "ミヤマグチ",
    "street": null,
    "office_name": null,
    "office_name_kana": null
  },
  "1635": {
    "zip_code": "5291635",
    "prefecture": "滋賀県",
    "prefecture_kana": "シガケン",
    "prefecture_code": "25",
    "city": "蒲生郡日野町",
    "city_kana": "ガモウグンヒノチョウ",
    "town": "迫",
    "town_kana": "ハサマ",
    "street": null,
    "office_name": null,
    "office_name_kana": null
  },
  "1636": {
    "zip_code": "5291636",
    "prefecture": "滋賀県",
    "prefecture_kana": "シガケン",
    "prefecture_code": "25",
    "city": "蒲生郡日野町",
    "city_kana": "ガモウグンヒノチョウ",
    "town": "清田",
    "town_kana": "キヨタ",
    "street": null,
    "office_name": null,
    "office_name_kana": null
  },
  "1641": {
    "zip_code": "5291641",
    "prefecture": "滋賀県",
    "prefecture_kana": "シガケン",
    "prefecture_code": "25",
    "city": "蒲生郡日野町",
    "city_kana": "ガモウグンヒノチョウ",
    "town": "日田",
    "town_kana": "ヒダ",
    "street": null,
    "office_name": null,
    "office_name_kana": null
  },
  "1642": {
    "zip_code": "5291642",
    "prefecture": "滋賀県",
    "prefecture_kana": "シガケン",
    "prefecture_code": "25",
    "city": "蒲生郡日野町",
    "city_kana": "ガモウグンヒノチョウ",
    "town": "上野田",
    "town_kana": "コウズケダ",
    "street": null,
    "office_name": null,
    "office_name_kana": null
  },
  "1643": {
    "zip_code": "5291643",
    "prefecture": "滋賀県",
    "prefecture_kana": "シガケン",
    "prefecture_code": "25",
    "city": "蒲生郡日野町",
    "city_kana": "ガモウグンヒノチョウ",
    "town": "里口",
    "town_kana": "サトグチ",
    "street": null,
    "office_name": null,
    "office_name_kana": null
  },
  "1644": {
    "zip_code": "5291644",
    "prefecture": "滋賀県",
    "prefecture_kana": "シガケン",
    "prefecture_code": "25",
    "city": "蒲生郡日野町",
    "city_kana": "ガモウグンヒノチョウ",
    "town": "内池",
    "town_kana": "ウチイケ",
    "street": null,
    "office_name": null,
    "office_name_kana": null
  },
  "1645": {
    "zip_code": "5291645",
    "prefecture": "滋賀県",
    "prefecture_kana": "シガケン",
    "prefecture_code": "25",
    "city": "蒲生郡日野町",
    "city_kana": "ガモウグンヒノチョウ",
    "town": "十禅師",
    "town_kana": "ジュウゼンジ",
    "street": null,
    "office_name": null,
    "office_name_kana": null
  },
  "1646": {
    "zip_code": "5291646",
    "prefecture": "滋賀県",
    "prefecture_kana": "シガケン",
    "prefecture_code": "25",
    "city": "蒲生郡日野町",
    "city_kana": "ガモウグンヒノチョウ",
    "town": "猫田",
    "town_kana": "ネコダ",
    "street": null,
    "office_name": null,
    "office_name_kana": null
  },
  "1647": {
    "zip_code": "5291647",
    "prefecture": "滋賀県",
    "prefecture_kana": "シガケン",
    "prefecture_code": "25",
    "city": "蒲生郡日野町",
    "city_kana": "ガモウグンヒノチョウ",
    "town": "別所",
    "town_kana": "ベッシヨ",
    "street": null,
    "office_name": null,
    "office_name_kana": null
  },
  "1648": {
    "zip_code": "5291648",
    "prefecture": "滋賀県",
    "prefecture_kana": "シガケン",
    "prefecture_code": "25",
    "city": "蒲生郡日野町",
    "city_kana": "ガモウグンヒノチョウ",
    "town": "いせの",
    "town_kana": "イセノ",
    "street": null,
    "office_name": null,
    "office_name_kana": null
  },
  "1651": {
    "zip_code": "5291651",
    "prefecture": "滋賀県",
    "prefecture_kana": "シガケン",
    "prefecture_code": "25",
    "city": "蒲生郡日野町",
    "city_kana": "ガモウグンヒノチョウ",
    "town": "山本",
    "town_kana": "ヤマモト",
    "street": null,
    "office_name": null,
    "office_name_kana": null
  },
  "1652": {
    "zip_code": "5291652",
    "prefecture": "滋賀県",
    "prefecture_kana": "シガケン",
    "prefecture_code": "25",
    "city": "蒲生郡日野町",
    "city_kana": "ガモウグンヒノチョウ",
    "town": "小御門",
    "town_kana": "コミカド",
    "street": null,
    "office_name": null,
    "office_name_kana": null
  },
  "1653": {
    "zip_code": "5291653",
    "prefecture": "滋賀県",
    "prefecture_kana": "シガケン",
    "prefecture_code": "25",
    "city": "蒲生郡日野町",
    "city_kana": "ガモウグンヒノチョウ",
    "town": "三十坪",
    "town_kana": "ミソツ",
    "street": null,
    "office_name": null,
    "office_name_kana": null
  },
  "1654": {
    "zip_code": "5291654",
    "prefecture": "滋賀県",
    "prefecture_kana": "シガケン",
    "prefecture_code": "25",
    "city": "蒲生郡日野町",
    "city_kana": "ガモウグンヒノチョウ",
    "town": "小谷",
    "town_kana": "コダニ",
    "street": null,
    "office_name": null,
    "office_name_kana": null
  },
  "1655": {
    "zip_code": "5291655",
    "prefecture": "滋賀県",
    "prefecture_kana": "シガケン",
    "prefecture_code": "25",
    "city": "蒲生郡日野町",
    "city_kana": "ガモウグンヒノチョウ",
    "town": "石原",
    "town_kana": "イシハラ",
    "street": null,
    "office_name": null,
    "office_name_kana": null
  },
  "1656": {
    "zip_code": "5291656",
    "prefecture": "滋賀県",
    "prefecture_kana": "シガケン",
    "prefecture_code": "25",
    "city": "蒲生郡日野町",
    "city_kana": "ガモウグンヒノチョウ",
    "town": "増田",
    "town_kana": "マシダ",
    "street": null,
    "office_name": null,
    "office_name_kana": null
  },
  "1657": {
    "zip_code": "5291657",
    "prefecture": "滋賀県",
    "prefecture_kana": "シガケン",
    "prefecture_code": "25",
    "city": "蒲生郡日野町",
    "city_kana": "ガモウグンヒノチョウ",
    "town": "豊田",
    "town_kana": "トヨタ",
    "street": null,
    "office_name": null,
    "office_name_kana": null
  },
  "1658": {
    "zip_code": "5291658",
    "prefecture": "滋賀県",
    "prefecture_kana": "シガケン",
    "prefecture_code": "25",
    "city": "蒲生郡日野町",
    "city_kana": "ガモウグンヒノチョウ",
    "town": "中山",
    "town_kana": "ナカヤマ",
    "street": null,
    "office_name": null,
    "office_name_kana": null
  },
  "1661": {
    "zip_code": "5291661",
    "prefecture": "滋賀県",
    "prefecture_kana": "シガケン",
    "prefecture_code": "25",
    "city": "蒲生郡日野町",
    "city_kana": "ガモウグンヒノチョウ",
    "town": "安部居",
    "town_kana": "アベイ",
    "street": null,
    "office_name": null,
    "office_name_kana": null
  },
  "1662": {
    "zip_code": "5291662",
    "prefecture": "滋賀県",
    "prefecture_kana": "シガケン",
    "prefecture_code": "25",
    "city": "蒲生郡日野町",
    "city_kana": "ガモウグンヒノチョウ",
    "town": "中在寺",
    "town_kana": "ナカザイジ",
    "street": null,
    "office_name": null,
    "office_name_kana": null
  },
  "1663": {
    "zip_code": "5291663",
    "prefecture": "滋賀県",
    "prefecture_kana": "シガケン",
    "prefecture_code": "25",
    "city": "蒲生郡日野町",
    "city_kana": "ガモウグンヒノチョウ",
    "town": "北脇",
    "town_kana": "キタワキ",
    "street": null,
    "office_name": null,
    "office_name_kana": null
  },
  "1664": {
    "zip_code": "5291664",
    "prefecture": "滋賀県",
    "prefecture_kana": "シガケン",
    "prefecture_code": "25",
    "city": "蒲生郡日野町",
    "city_kana": "ガモウグンヒノチョウ",
    "town": "蓮花寺",
    "town_kana": "レンゲジ",
    "street": null,
    "office_name": null,
    "office_name_kana": null
  },
  "1665": {
    "zip_code": "5291665",
    "prefecture": "滋賀県",
    "prefecture_kana": "シガケン",
    "prefecture_code": "25",
    "city": "蒲生郡日野町",
    "city_kana": "ガモウグンヒノチョウ",
    "town": "野出",
    "town_kana": "ノデ",
    "street": null,
    "office_name": null,
    "office_name_kana": null
  },
  "1692": {
    "zip_code": "5291692",
    "prefecture": "滋賀県",
    "prefecture_kana": null,
    "prefecture_code": null,
    "city": "蒲生郡日野町",
    "city_kana": null,
    "town": "大字中在寺",
    "town_kana": null,
    "street": "１２２５",
    "office_name": "株式会社　ダイフク　滋賀事業所",
    "office_name_kana": "カブシキガイシヤ ダイフク シガジギヨウシヨ"
  },
  "1698": {
    "zip_code": "5291698",
    "prefecture": "滋賀県",
    "prefecture_kana": "シガケン",
    "prefecture_code": "25",
    "city": "蒲生郡日野町",
    "city_kana": "ガモウグンヒノチョウ",
    "town": "河原",
    "town_kana": "カワラ",
    "street": "１丁目１番地",
    "office_name": "日野町役場",
    "office_name_kana": "ヒノチヨウヤクバ"
  },
  "1801": {
    "zip_code": "5291801",
    "prefecture": "滋賀県",
    "prefecture_kana": "シガケン",
    "prefecture_code": "25",
    "city": "甲賀市",
    "city_kana": "コウカシ",
    "town": "信楽町宮町",
    "town_kana": "シガラキチョウミヤマチ",
    "street": null,
    "office_name": null,
    "office_name_kana": null
  },
  "1802": {
    "zip_code": "5291802",
    "prefecture": "滋賀県",
    "prefecture_kana": "シガケン",
    "prefecture_code": "25",
    "city": "甲賀市",
    "city_kana": "コウカシ",
    "town": "信楽町黄瀬",
    "town_kana": "シガラキチョウキノセ",
    "street": null,
    "office_name": null,
    "office_name_kana": null
  },
  "1803": {
    "zip_code": "5291803",
    "prefecture": "滋賀県",
    "prefecture_kana": "シガケン",
    "prefecture_code": "25",
    "city": "甲賀市",
    "city_kana": "コウカシ",
    "town": "信楽町牧",
    "town_kana": "シガラキチョウマキ",
    "street": null,
    "office_name": null,
    "office_name_kana": null
  },
  "1804": {
    "zip_code": "5291804",
    "prefecture": "滋賀県",
    "prefecture_kana": "シガケン",
    "prefecture_code": "25",
    "city": "甲賀市",
    "city_kana": "コウカシ",
    "town": "信楽町勅旨",
    "town_kana": "シガラキチョウチョクシ",
    "street": null,
    "office_name": null,
    "office_name_kana": null
  },
  "1811": {
    "zip_code": "5291811",
    "prefecture": "滋賀県",
    "prefecture_kana": "シガケン",
    "prefecture_code": "25",
    "city": "甲賀市",
    "city_kana": "コウカシ",
    "town": "信楽町江田",
    "town_kana": "シガラキチョウエダ",
    "street": null,
    "office_name": null,
    "office_name_kana": null
  },
  "1812": {
    "zip_code": "5291812",
    "prefecture": "滋賀県",
    "prefecture_kana": "シガケン",
    "prefecture_code": "25",
    "city": "甲賀市",
    "city_kana": "コウカシ",
    "town": "信楽町神山",
    "town_kana": "シガラキチョウコウヤマ",
    "street": null,
    "office_name": null,
    "office_name_kana": null
  },
  "1813": {
    "zip_code": "5291813",
    "prefecture": "滋賀県",
    "prefecture_kana": "シガケン",
    "prefecture_code": "25",
    "city": "甲賀市",
    "city_kana": "コウカシ",
    "town": "信楽町畑",
    "town_kana": "シガラキチョウハタ",
    "street": null,
    "office_name": null,
    "office_name_kana": null
  },
  "1814": {
    "zip_code": "5291814",
    "prefecture": "滋賀県",
    "prefecture_kana": "シガケン",
    "prefecture_code": "25",
    "city": "甲賀市",
    "city_kana": "コウカシ",
    "town": "信楽町田代",
    "town_kana": "シガラキチョウタシロ",
    "street": null,
    "office_name": null,
    "office_name_kana": null
  },
  "1821": {
    "zip_code": "5291821",
    "prefecture": "滋賀県",
    "prefecture_kana": "シガケン",
    "prefecture_code": "25",
    "city": "甲賀市",
    "city_kana": "コウカシ",
    "town": "信楽町多羅尾",
    "town_kana": "シガラキチョウタラオ",
    "street": null,
    "office_name": null,
    "office_name_kana": null
  },
  "1831": {
    "zip_code": "5291831",
    "prefecture": "滋賀県",
    "prefecture_kana": "シガケン",
    "prefecture_code": "25",
    "city": "甲賀市",
    "city_kana": "コウカシ",
    "town": "信楽町西",
    "town_kana": "シガラキチョウニシ",
    "street": null,
    "office_name": null,
    "office_name_kana": null
  },
  "1832": {
    "zip_code": "5291832",
    "prefecture": "滋賀県",
    "prefecture_kana": "シガケン",
    "prefecture_code": "25",
    "city": "甲賀市",
    "city_kana": "コウカシ",
    "town": "信楽町小川出",
    "town_kana": "シガラキチョウオガワデ",
    "street": null,
    "office_name": null,
    "office_name_kana": null
  },
  "1833": {
    "zip_code": "5291833",
    "prefecture": "滋賀県",
    "prefecture_kana": "シガケン",
    "prefecture_code": "25",
    "city": "甲賀市",
    "city_kana": "コウカシ",
    "town": "信楽町小川",
    "town_kana": "シガラキチョウオガワ",
    "street": null,
    "office_name": null,
    "office_name_kana": null
  },
  "1834": {
    "zip_code": "5291834",
    "prefecture": "滋賀県",
    "prefecture_kana": "シガケン",
    "prefecture_code": "25",
    "city": "甲賀市",
    "city_kana": "コウカシ",
    "town": "信楽町杉山",
    "town_kana": "シガラキチョウスギヤマ",
    "street": null,
    "office_name": null,
    "office_name_kana": null
  },
  "1835": {
    "zip_code": "5291835",
    "prefecture": "滋賀県",
    "prefecture_kana": "シガケン",
    "prefecture_code": "25",
    "city": "甲賀市",
    "city_kana": "コウカシ",
    "town": "信楽町中野",
    "town_kana": "シガラキチョウナカノ",
    "street": null,
    "office_name": null,
    "office_name_kana": null
  },
  "1836": {
    "zip_code": "5291836",
    "prefecture": "滋賀県",
    "prefecture_kana": "シガケン",
    "prefecture_code": "25",
    "city": "甲賀市",
    "city_kana": "コウカシ",
    "town": "信楽町柞原",
    "town_kana": "シガラキチョウホソハラ",
    "street": null,
    "office_name": null,
    "office_name_kana": null
  },
  "1841": {
    "zip_code": "5291841",
    "prefecture": "滋賀県",
    "prefecture_kana": "シガケン",
    "prefecture_code": "25",
    "city": "甲賀市",
    "city_kana": "コウカシ",
    "town": "信楽町上朝宮",
    "town_kana": "シガラキチョウカミアサミヤ",
    "street": null,
    "office_name": null,
    "office_name_kana": null
  },
  "1842": {
    "zip_code": "5291842",
    "prefecture": "滋賀県",
    "prefecture_kana": "シガケン",
    "prefecture_code": "25",
    "city": "甲賀市",
    "city_kana": "コウカシ",
    "town": "信楽町下朝宮",
    "town_kana": "シガラキチョウシモアサミヤ",
    "street": null,
    "office_name": null,
    "office_name_kana": null
  },
  "1843": {
    "zip_code": "5291843",
    "prefecture": "滋賀県",
    "prefecture_kana": "シガケン",
    "prefecture_code": "25",
    "city": "甲賀市",
    "city_kana": "コウカシ",
    "town": "信楽町宮尻",
    "town_kana": "シガラキチョウミヤジリ",
    "street": null,
    "office_name": null,
    "office_name_kana": null
  },
  "1851": {
    "zip_code": "5291851",
    "prefecture": "滋賀県",
    "prefecture_kana": "シガケン",
    "prefecture_code": "25",
    "city": "甲賀市",
    "city_kana": "コウカシ",
    "town": "信楽町長野",
    "town_kana": "シガラキチョウナガノ",
    "street": null,
    "office_name": null,
    "office_name_kana": null
  },
  "1892": {
    "zip_code": "5291892",
    "prefecture": "滋賀県",
    "prefecture_kana": "シガケン",
    "prefecture_code": "25",
    "city": "甲賀市",
    "city_kana": "コウカシ",
    "town": "信楽町長野",
    "town_kana": "シガラキチョウナガノ",
    "street": "１２０３",
    "office_name": "甲賀市役所　信楽支所",
    "office_name_kana": "コウカシヤクシヨ シガラキシシヨ"
  }
}