{
  "0052": {
    "zip_code": "5410052",
    "prefecture": "大阪府",
    "prefecture_kana": "オオサカフ",
    "city": "大阪市中央区",
    "city_kana": "オオサカシチュウオウク",
    "town": "安土町",
    "town_kana": "アヅチマチ",
    "prefecture_code": 27
  },
  "0047": {
    "zip_code": "5410047",
    "prefecture": "大阪府",
    "prefecture_kana": "オオサカフ",
    "city": "大阪市中央区",
    "city_kana": "オオサカシチュウオウク",
    "town": "淡路町",
    "town_kana": "アワジマチ",
    "prefecture_code": 27
  },
  "0042": {
    "zip_code": "5410042",
    "prefecture": "大阪府",
    "prefecture_kana": "オオサカフ",
    "city": "大阪市中央区",
    "city_kana": "オオサカシチュウオウク",
    "town": "今橋",
    "town_kana": "イマバシ",
    "prefecture_code": 27
  },
  "0048": {
    "zip_code": "5410048",
    "prefecture": "大阪府",
    "prefecture_kana": "オオサカフ",
    "city": "大阪市中央区",
    "city_kana": "オオサカシチュウオウク",
    "town": "瓦町",
    "town_kana": "カワラマチ",
    "prefecture_code": 27
  },
  "0057": {
    "zip_code": "5410057",
    "prefecture": "大阪府",
    "prefecture_kana": "オオサカフ",
    "city": "大阪市中央区",
    "city_kana": "オオサカシチュウオウク",
    "town": "北久宝寺町",
    "town_kana": "キタキュウホウジマチ",
    "prefecture_code": 27
  },
  "0041": {
    "zip_code": "5410041",
    "prefecture": "大阪府",
    "prefecture_kana": "オオサカフ",
    "city": "大阪市中央区",
    "city_kana": "オオサカシチュウオウク",
    "town": "北浜",
    "town_kana": "キタハマ",
    "prefecture_code": 27
  },
  "0056": {
    "zip_code": "5410056",
    "prefecture": "大阪府",
    "prefecture_kana": "オオサカフ",
    "city": "大阪市中央区",
    "city_kana": "オオサカシチュウオウク",
    "town": "久太郎町",
    "town_kana": "キュウタロウマチ",
    "prefecture_code": 27
  },
  "0043": {
    "zip_code": "5410043",
    "prefecture": "大阪府",
    "prefecture_kana": "オオサカフ",
    "city": "大阪市中央区",
    "city_kana": "オオサカシチュウオウク",
    "town": "高麗橋",
    "town_kana": "コウライバシ",
    "prefecture_code": 27
  },
  "0055": {
    "zip_code": "5410055",
    "prefecture": "大阪府",
    "prefecture_kana": "オオサカフ",
    "city": "大阪市中央区",
    "city_kana": "オオサカシチュウオウク",
    "town": "船場中央",
    "town_kana": "センバチュウオウ",
    "prefecture_code": 27
  },
  "0045": {
    "zip_code": "5410045",
    "prefecture": "大阪府",
    "prefecture_kana": "オオサカフ",
    "city": "大阪市中央区",
    "city_kana": "オオサカシチュウオウク",
    "town": "道修町",
    "town_kana": "ドショウマチ",
    "prefecture_code": 27
  },
  "0059": {
    "zip_code": "5410059",
    "prefecture": "大阪府",
    "prefecture_kana": "オオサカフ",
    "city": "大阪市中央区",
    "city_kana": "オオサカシチュウオウク",
    "town": "博労町",
    "town_kana": "バクロウマチ",
    "prefecture_code": 27
  },
  "0046": {
    "zip_code": "5410046",
    "prefecture": "大阪府",
    "prefecture_kana": "オオサカフ",
    "city": "大阪市中央区",
    "city_kana": "オオサカシチュウオウク",
    "town": "平野町",
    "town_kana": "ヒラノマチ",
    "prefecture_code": 27
  },
  "0051": {
    "zip_code": "5410051",
    "prefecture": "大阪府",
    "prefecture_kana": "オオサカフ",
    "city": "大阪市中央区",
    "city_kana": "オオサカシチュウオウク",
    "town": "備後町",
    "town_kana": "ビンゴマチ",
    "prefecture_code": 27
  },
  "0044": {
    "zip_code": "5410044",
    "prefecture": "大阪府",
    "prefecture_kana": "オオサカフ",
    "city": "大阪市中央区",
    "city_kana": "オオサカシチュウオウク",
    "town": "伏見町",
    "town_kana": "フシミマチ",
    "prefecture_code": 27
  },
  "0053": {
    "zip_code": "5410053",
    "prefecture": "大阪府",
    "prefecture_kana": "オオサカフ",
    "city": "大阪市中央区",
    "city_kana": "オオサカシチュウオウク",
    "town": "本町",
    "town_kana": "ホンマチ",
    "prefecture_code": 27
  },
  "0058": {
    "zip_code": "5410058",
    "prefecture": "大阪府",
    "prefecture_kana": "オオサカフ",
    "city": "大阪市中央区",
    "city_kana": "オオサカシチュウオウク",
    "town": "南久宝寺町",
    "town_kana": "ミナミキュウホウジマチ",
    "prefecture_code": 27
  },
  "0054": {
    "zip_code": "5410054",
    "prefecture": "大阪府",
    "prefecture_kana": "オオサカフ",
    "city": "大阪市中央区",
    "city_kana": "オオサカシチュウオウク",
    "town": "南本町",
    "town_kana": "ミナミホンマチ",
    "prefecture_code": 27
  }
}