{
  "0000": {
    "zip_code": "5540000",
    "prefecture": "大阪府",
    "prefecture_kana": "オオサカフ",
    "prefecture_code": "27",
    "city": "大阪市此花区",
    "city_kana": "オオサカシコノハナク",
    "town": "",
    "town_kana": "",
    "street": null,
    "office_name": null,
    "office_name_kana": null
  },
  "0001": {
    "zip_code": "5540001",
    "prefecture": "大阪府",
    "prefecture_kana": "オオサカフ",
    "prefecture_code": "27",
    "city": "大阪市此花区",
    "city_kana": "オオサカシコノハナク",
    "town": "高見",
    "town_kana": "タカミ",
    "street": null,
    "office_name": null,
    "office_name_kana": null
  },
  "0002": {
    "zip_code": "5540002",
    "prefecture": "大阪府",
    "prefecture_kana": "オオサカフ",
    "prefecture_code": "27",
    "city": "大阪市此花区",
    "city_kana": "オオサカシコノハナク",
    "town": "伝法",
    "town_kana": "デンポウ",
    "street": null,
    "office_name": null,
    "office_name_kana": null
  },
  "0011": {
    "zip_code": "5540011",
    "prefecture": "大阪府",
    "prefecture_kana": "オオサカフ",
    "prefecture_code": "27",
    "city": "大阪市此花区",
    "city_kana": "オオサカシコノハナク",
    "town": "朝日",
    "town_kana": "アサヒ",
    "street": null,
    "office_name": null,
    "office_name_kana": null
  },
  "0012": {
    "zip_code": "5540012",
    "prefecture": "大阪府",
    "prefecture_kana": "オオサカフ",
    "prefecture_code": "27",
    "city": "大阪市此花区",
    "city_kana": "オオサカシコノハナク",
    "town": "西九条",
    "town_kana": "ニシクジョウ",
    "street": null,
    "office_name": null,
    "office_name_kana": null
  },
  "0013": {
    "zip_code": "5540013",
    "prefecture": "大阪府",
    "prefecture_kana": "オオサカフ",
    "prefecture_code": "27",
    "city": "大阪市此花区",
    "city_kana": "オオサカシコノハナク",
    "town": "梅香",
    "town_kana": "バイカ",
    "street": null,
    "office_name": null,
    "office_name_kana": null
  },
  "0014": {
    "zip_code": "5540014",
    "prefecture": "大阪府",
    "prefecture_kana": "オオサカフ",
    "prefecture_code": "27",
    "city": "大阪市此花区",
    "city_kana": "オオサカシコノハナク",
    "town": "四貫島",
    "town_kana": "シカンジマ",
    "street": null,
    "office_name": null,
    "office_name_kana": null
  },
  "0021": {
    "zip_code": "5540021",
    "prefecture": "大阪府",
    "prefecture_kana": "オオサカフ",
    "prefecture_code": "27",
    "city": "大阪市此花区",
    "city_kana": "オオサカシコノハナク",
    "town": "春日出北",
    "town_kana": "カスガデキタ",
    "street": null,
    "office_name": null,
    "office_name_kana": null
  },
  "0022": {
    "zip_code": "5540022",
    "prefecture": "大阪府",
    "prefecture_kana": "オオサカフ",
    "prefecture_code": "27",
    "city": "大阪市此花区",
    "city_kana": "オオサカシコノハナク",
    "town": "春日出中",
    "town_kana": "カスガデナカ",
    "street": null,
    "office_name": null,
    "office_name_kana": null
  },
  "0023": {
    "zip_code": "5540023",
    "prefecture": "大阪府",
    "prefecture_kana": "オオサカフ",
    "prefecture_code": "27",
    "city": "大阪市此花区",
    "city_kana": "オオサカシコノハナク",
    "town": "春日出南",
    "town_kana": "カスガデミナミ",
    "street": null,
    "office_name": null,
    "office_name_kana": null
  },
  "0024": {
    "zip_code": "5540024",
    "prefecture": "大阪府",
    "prefecture_kana": "オオサカフ",
    "prefecture_code": "27",
    "city": "大阪市此花区",
    "city_kana": "オオサカシコノハナク",
    "town": "島屋",
    "town_kana": "シマヤ",
    "street": null,
    "office_name": null,
    "office_name_kana": null
  },
  "0031": {
    "zip_code": "5540031",
    "prefecture": "大阪府",
    "prefecture_kana": "オオサカフ",
    "prefecture_code": "27",
    "city": "大阪市此花区",
    "city_kana": "オオサカシコノハナク",
    "town": "桜島",
    "town_kana": "サクラジマ",
    "street": null,
    "office_name": null,
    "office_name_kana": null
  },
  "0032": {
    "zip_code": "5540032",
    "prefecture": "大阪府",
    "prefecture_kana": "オオサカフ",
    "prefecture_code": "27",
    "city": "大阪市此花区",
    "city_kana": "オオサカシコノハナク",
    "town": "梅町",
    "town_kana": "ウメマチ",
    "street": null,
    "office_name": null,
    "office_name_kana": null
  },
  "0033": {
    "zip_code": "5540033",
    "prefecture": "大阪府",
    "prefecture_kana": "オオサカフ",
    "prefecture_code": "27",
    "city": "大阪市此花区",
    "city_kana": "オオサカシコノハナク",
    "town": "北港",
    "town_kana": "ホクコウ",
    "street": null,
    "office_name": null,
    "office_name_kana": null
  },
  "0041": {
    "zip_code": "5540041",
    "prefecture": "大阪府",
    "prefecture_kana": "オオサカフ",
    "prefecture_code": "27",
    "city": "大阪市此花区",
    "city_kana": "オオサカシコノハナク",
    "town": "北港白津",
    "town_kana": "ホクコウシラツ",
    "street": null,
    "office_name": null,
    "office_name_kana": null
  },
  "0042": {
    "zip_code": "5540042",
    "prefecture": "大阪府",
    "prefecture_kana": "オオサカフ",
    "prefecture_code": "27",
    "city": "大阪市此花区",
    "city_kana": "オオサカシコノハナク",
    "town": "北港緑地",
    "town_kana": "ホクコウリョクチ",
    "street": null,
    "office_name": null,
    "office_name_kana": null
  },
  "0043": {
    "zip_code": "5540043",
    "prefecture": "大阪府",
    "prefecture_kana": "オオサカフ",
    "prefecture_code": "27",
    "city": "大阪市此花区",
    "city_kana": "オオサカシコノハナク",
    "town": "夢洲東",
    "town_kana": "ユメシマヒガシ",
    "street": null,
    "office_name": null,
    "office_name_kana": null
  },
  "0051": {
    "zip_code": "5540051",
    "prefecture": "大阪府",
    "prefecture_kana": "オオサカフ",
    "prefecture_code": "27",
    "city": "大阪市此花区",
    "city_kana": "オオサカシコノハナク",
    "town": "酉島",
    "town_kana": "トリシマ",
    "street": null,
    "office_name": null,
    "office_name_kana": null
  },
  "0052": {
    "zip_code": "5540052",
    "prefecture": "大阪府",
    "prefecture_kana": "オオサカフ",
    "prefecture_code": "27",
    "city": "大阪市此花区",
    "city_kana": "オオサカシコノハナク",
    "town": "常吉",
    "town_kana": "ツネヨシ",
    "street": null,
    "office_name": null,
    "office_name_kana": null
  },
  "8501": {
    "zip_code": "5548501",
    "prefecture": "大阪府",
    "prefecture_kana": "オオサカフ",
    "prefecture_code": "27",
    "city": "大阪市此花区",
    "city_kana": "オオサカシコノハナク",
    "town": "春日出北",
    "town_kana": "カスガデキタ",
    "street": "１丁目８−４",
    "office_name": "大阪市此花区役所",
    "office_name_kana": "オオサカシコノハナクヤクシヨ"
  },
  "8511": {
    "zip_code": "5548511",
    "prefecture": "大阪府",
    "prefecture_kana": "オオサカフ",
    "prefecture_code": "27",
    "city": "大阪市此花区",
    "city_kana": "オオサカシコノハナク",
    "town": "島屋",
    "town_kana": "シマヤ",
    "street": "１丁目１−３",
    "office_name": "住友電気工業　株式会社　大阪製作所",
    "office_name_kana": "スミトモデンキコウギヨウ カブシキガイシヤ オオサカセイサクシヨ"
  },
  "8585": {
    "zip_code": "5548585",
    "prefecture": "大阪府",
    "prefecture_kana": "オオサカフ",
    "prefecture_code": "27",
    "city": "大阪市此花区",
    "city_kana": "オオサカシコノハナク",
    "town": "島屋",
    "town_kana": "シマヤ",
    "street": "６丁目２−７８",
    "office_name": "ホテル京阪　ユニバーサル・シティ",
    "office_name_kana": "ホテルケイハン ユニバ-サル・シテイ"
  },
  "8588": {
    "zip_code": "5548588",
    "prefecture": "大阪府",
    "prefecture_kana": "オオサカフ",
    "prefecture_code": "27",
    "city": "大阪市此花区",
    "city_kana": "オオサカシコノハナク",
    "town": "常吉",
    "town_kana": "ツネヨシ",
    "street": "１丁目１−６０",
    "office_name": "株式会社　アド・ダイセン",
    "office_name_kana": "カブシキガイシヤ アド・ダイセン"
  }
}