{
  "0000": {
    "zip_code": "5550000",
    "prefecture": "大阪府",
    "prefecture_kana": "オオサカフ",
    "prefecture_code": 27,
    "city": "大阪市西淀川区",
    "city_kana": "オオサカシニシヨドガワク",
    "town": "",
    "town_kana": "",
    "street": null,
    "office_name": null,
    "office_name_kana": null
  },
  "0001": {
    "zip_code": "5550001",
    "prefecture": "大阪府",
    "prefecture_kana": "オオサカフ",
    "prefecture_code": 27,
    "city": "大阪市西淀川区",
    "city_kana": "オオサカシニシヨドガワク",
    "town": "佃",
    "town_kana": "ツクダ",
    "street": null,
    "office_name": null,
    "office_name_kana": null
  },
  "0011": {
    "zip_code": "5550011",
    "prefecture": "大阪府",
    "prefecture_kana": "オオサカフ",
    "prefecture_code": 27,
    "city": "大阪市西淀川区",
    "city_kana": "オオサカシニシヨドガワク",
    "town": "竹島",
    "town_kana": "タケシマ",
    "street": null,
    "office_name": null,
    "office_name_kana": null
  },
  "0012": {
    "zip_code": "5550012",
    "prefecture": "大阪府",
    "prefecture_kana": "オオサカフ",
    "prefecture_code": 27,
    "city": "大阪市西淀川区",
    "city_kana": "オオサカシニシヨドガワク",
    "town": "御幣島",
    "town_kana": "ミテジマ",
    "street": null,
    "office_name": null,
    "office_name_kana": null
  },
  "0013": {
    "zip_code": "5550013",
    "prefecture": "大阪府",
    "prefecture_kana": "オオサカフ",
    "prefecture_code": 27,
    "city": "大阪市西淀川区",
    "city_kana": "オオサカシニシヨドガワク",
    "town": "千舟",
    "town_kana": "チブネ",
    "street": null,
    "office_name": null,
    "office_name_kana": null
  },
  "0021": {
    "zip_code": "5550021",
    "prefecture": "大阪府",
    "prefecture_kana": "オオサカフ",
    "prefecture_code": 27,
    "city": "大阪市西淀川区",
    "city_kana": "オオサカシニシヨドガワク",
    "town": "歌島",
    "town_kana": "ウタジマ",
    "street": null,
    "office_name": null,
    "office_name_kana": null
  },
  "0022": {
    "zip_code": "5550022",
    "prefecture": "大阪府",
    "prefecture_kana": "オオサカフ",
    "prefecture_code": 27,
    "city": "大阪市西淀川区",
    "city_kana": "オオサカシニシヨドガワク",
    "town": "柏里",
    "town_kana": "カシワザト",
    "street": null,
    "office_name": null,
    "office_name_kana": null
  },
  "0023": {
    "zip_code": "5550023",
    "prefecture": "大阪府",
    "prefecture_kana": "オオサカフ",
    "prefecture_code": 27,
    "city": "大阪市西淀川区",
    "city_kana": "オオサカシニシヨドガワク",
    "town": "花川",
    "town_kana": "ハナカワ",
    "street": null,
    "office_name": null,
    "office_name_kana": null
  },
  "0024": {
    "zip_code": "5550024",
    "prefecture": "大阪府",
    "prefecture_kana": "オオサカフ",
    "prefecture_code": 27,
    "city": "大阪市西淀川区",
    "city_kana": "オオサカシニシヨドガワク",
    "town": "野里",
    "town_kana": "ノザト",
    "street": null,
    "office_name": null,
    "office_name_kana": null
  },
  "0025": {
    "zip_code": "5550025",
    "prefecture": "大阪府",
    "prefecture_kana": "オオサカフ",
    "prefecture_code": 27,
    "city": "大阪市西淀川区",
    "city_kana": "オオサカシニシヨドガワク",
    "town": "姫里",
    "town_kana": "ヒメサト",
    "street": null,
    "office_name": null,
    "office_name_kana": null
  },
  "0031": {
    "zip_code": "5550031",
    "prefecture": "大阪府",
    "prefecture_kana": "オオサカフ",
    "prefecture_code": 27,
    "city": "大阪市西淀川区",
    "city_kana": "オオサカシニシヨドガワク",
    "town": "出来島",
    "town_kana": "デキジマ",
    "street": null,
    "office_name": null,
    "office_name_kana": null
  },
  "0032": {
    "zip_code": "5550032",
    "prefecture": "大阪府",
    "prefecture_kana": "オオサカフ",
    "prefecture_code": 27,
    "city": "大阪市西淀川区",
    "city_kana": "オオサカシニシヨドガワク",
    "town": "大和田",
    "town_kana": "オオワダ",
    "street": null,
    "office_name": null,
    "office_name_kana": null
  },
  "0033": {
    "zip_code": "5550033",
    "prefecture": "大阪府",
    "prefecture_kana": "オオサカフ",
    "prefecture_code": 27,
    "city": "大阪市西淀川区",
    "city_kana": "オオサカシニシヨドガワク",
    "town": "姫島",
    "town_kana": "ヒメシマ",
    "street": null,
    "office_name": null,
    "office_name_kana": null
  },
  "0034": {
    "zip_code": "5550034",
    "prefecture": "大阪府",
    "prefecture_kana": "オオサカフ",
    "prefecture_code": 27,
    "city": "大阪市西淀川区",
    "city_kana": "オオサカシニシヨドガワク",
    "town": "福町",
    "town_kana": "フクマチ",
    "street": null,
    "office_name": null,
    "office_name_kana": null
  },
  "0041": {
    "zip_code": "5550041",
    "prefecture": "大阪府",
    "prefecture_kana": "オオサカフ",
    "prefecture_code": 27,
    "city": "大阪市西淀川区",
    "city_kana": "オオサカシニシヨドガワク",
    "town": "中島",
    "town_kana": "ナカシマ",
    "street": null,
    "office_name": null,
    "office_name_kana": null
  },
  "0042": {
    "zip_code": "5550042",
    "prefecture": "大阪府",
    "prefecture_kana": "オオサカフ",
    "prefecture_code": 27,
    "city": "大阪市西淀川区",
    "city_kana": "オオサカシニシヨドガワク",
    "town": "西島",
    "town_kana": "ニシシマ",
    "street": null,
    "office_name": null,
    "office_name_kana": null
  },
  "0043": {
    "zip_code": "5550043",
    "prefecture": "大阪府",
    "prefecture_kana": "オオサカフ",
    "prefecture_code": 27,
    "city": "大阪市西淀川区",
    "city_kana": "オオサカシニシヨドガワク",
    "town": "大野",
    "town_kana": "オオノ",
    "street": null,
    "office_name": null,
    "office_name_kana": null
  },
  "0044": {
    "zip_code": "5550044",
    "prefecture": "大阪府",
    "prefecture_kana": "オオサカフ",
    "prefecture_code": 27,
    "city": "大阪市西淀川区",
    "city_kana": "オオサカシニシヨドガワク",
    "town": "百島",
    "town_kana": "ヒャクシマ",
    "street": null,
    "office_name": null,
    "office_name_kana": null
  },
  "8501": {
    "zip_code": "5558501",
    "prefecture": "大阪府",
    "prefecture_kana": "オオサカフ",
    "prefecture_code": 27,
    "city": "大阪市西淀川区",
    "city_kana": "オオサカシニシヨドガワク",
    "town": "御幣島",
    "town_kana": "ミテジマ",
    "street": "１丁目２番１０号",
    "office_name": "大阪市西淀川区役所",
    "office_name_kana": "オオサカシニシヨドガワクヤクシヨ"
  },
  "8502": {
    "zip_code": "5558502",
    "prefecture": "大阪府",
    "prefecture_kana": "オオサカフ",
    "prefecture_code": 27,
    "city": "大阪市西淀川区",
    "city_kana": "オオサカシニシヨドガワク",
    "town": "歌島",
    "town_kana": "ウタジマ",
    "street": "４丁目６−５",
    "office_name": "江崎グリコ　株式会社",
    "office_name_kana": "エザキグリコ カブシキガイシヤ"
  },
  "8555": {
    "zip_code": "5558555",
    "prefecture": "大阪府",
    "prefecture_kana": "オオサカフ",
    "prefecture_code": 27,
    "city": "大阪市西淀川区",
    "city_kana": "オオサカシニシヨドガワク",
    "town": "西島",
    "town_kana": "ニシシマ",
    "street": "１丁目１番６０号",
    "office_name": "国分　株式会社　近畿支社　西淀川流通センター",
    "office_name_kana": "コクブ カブシキガイシヤ キンキシシヤ ニシヨドガワリユウツウセンタ-"
  }
}