{
  "0000": {
    "zip_code": "5620000",
    "prefecture": "大阪府",
    "prefecture_kana": "オオサカフ",
    "prefecture_code": 27,
    "city": "箕面市",
    "city_kana": "ミノオシ",
    "town": "",
    "town_kana": "",
    "street": null,
    "office_name": null,
    "office_name_kana": null
  },
  "0001": {
    "zip_code": "5620001",
    "prefecture": "大阪府",
    "prefecture_kana": "オオサカフ",
    "prefecture_code": 27,
    "city": "箕面市",
    "city_kana": "ミノオシ",
    "town": "箕面",
    "town_kana": "ミノオ",
    "street": null,
    "office_name": null,
    "office_name_kana": null
  },
  "0002": {
    "zip_code": "5620002",
    "prefecture": "大阪府",
    "prefecture_kana": "オオサカフ",
    "prefecture_code": 27,
    "city": "箕面市",
    "city_kana": "ミノオシ",
    "town": "箕面公園",
    "town_kana": "ミノオコウエン",
    "street": null,
    "office_name": null,
    "office_name_kana": null
  },
  "0003": {
    "zip_code": "5620003",
    "prefecture": "大阪府",
    "prefecture_kana": "オオサカフ",
    "prefecture_code": 27,
    "city": "箕面市",
    "city_kana": "ミノオシ",
    "town": "西小路",
    "town_kana": "ニシショウジ",
    "street": null,
    "office_name": null,
    "office_name_kana": null
  },
  "0004": {
    "zip_code": "5620004",
    "prefecture": "大阪府",
    "prefecture_kana": "オオサカフ",
    "prefecture_code": 27,
    "city": "箕面市",
    "city_kana": "ミノオシ",
    "town": "牧落",
    "town_kana": "マキオチ",
    "street": null,
    "office_name": null,
    "office_name_kana": null
  },
  "0005": {
    "zip_code": "5620005",
    "prefecture": "大阪府",
    "prefecture_kana": "オオサカフ",
    "prefecture_code": 27,
    "city": "箕面市",
    "city_kana": "ミノオシ",
    "town": "新稲",
    "town_kana": "ニイナ",
    "street": null,
    "office_name": null,
    "office_name_kana": null
  },
  "0006": {
    "zip_code": "5620006",
    "prefecture": "大阪府",
    "prefecture_kana": "オオサカフ",
    "prefecture_code": 27,
    "city": "箕面市",
    "city_kana": "ミノオシ",
    "town": "温泉町",
    "town_kana": "オンセンマチ",
    "street": null,
    "office_name": null,
    "office_name_kana": null
  },
  "0011": {
    "zip_code": "5620011",
    "prefecture": "大阪府",
    "prefecture_kana": "オオサカフ",
    "prefecture_code": 27,
    "city": "箕面市",
    "city_kana": "ミノオシ",
    "town": "如意谷",
    "town_kana": "ニョイダニ",
    "street": null,
    "office_name": null,
    "office_name_kana": null
  },
  "0012": {
    "zip_code": "5620012",
    "prefecture": "大阪府",
    "prefecture_kana": "オオサカフ",
    "prefecture_code": 27,
    "city": "箕面市",
    "city_kana": "ミノオシ",
    "town": "白島",
    "town_kana": "ハクシマ",
    "street": null,
    "office_name": null,
    "office_name_kana": null
  },
  "0013": {
    "zip_code": "5620013",
    "prefecture": "大阪府",
    "prefecture_kana": "オオサカフ",
    "prefecture_code": 27,
    "city": "箕面市",
    "city_kana": "ミノオシ",
    "town": "坊島",
    "town_kana": "ボウシマ",
    "street": null,
    "office_name": null,
    "office_name_kana": null
  },
  "0014": {
    "zip_code": "5620014",
    "prefecture": "大阪府",
    "prefecture_kana": "オオサカフ",
    "prefecture_code": 27,
    "city": "箕面市",
    "city_kana": "ミノオシ",
    "town": "萱野",
    "town_kana": "カヤノ",
    "street": null,
    "office_name": null,
    "office_name_kana": null
  },
  "0015": {
    "zip_code": "5620015",
    "prefecture": "大阪府",
    "prefecture_kana": "オオサカフ",
    "prefecture_code": 27,
    "city": "箕面市",
    "city_kana": "ミノオシ",
    "town": "稲",
    "town_kana": "イナ",
    "street": null,
    "office_name": null,
    "office_name_kana": null
  },
  "0021": {
    "zip_code": "5620021",
    "prefecture": "大阪府",
    "prefecture_kana": "オオサカフ",
    "prefecture_code": 27,
    "city": "箕面市",
    "city_kana": "ミノオシ",
    "town": "粟生間谷",
    "town_kana": "アオマタニ",
    "street": null,
    "office_name": null,
    "office_name_kana": null
  },
  "0022": {
    "zip_code": "5620022",
    "prefecture": "大阪府",
    "prefecture_kana": "オオサカフ",
    "prefecture_code": 27,
    "city": "箕面市",
    "city_kana": "ミノオシ",
    "town": "粟生間谷東",
    "town_kana": "アオマタニヒガシ",
    "street": null,
    "office_name": null,
    "office_name_kana": null
  },
  "0023": {
    "zip_code": "5620023",
    "prefecture": "大阪府",
    "prefecture_kana": "オオサカフ",
    "prefecture_code": 27,
    "city": "箕面市",
    "city_kana": "ミノオシ",
    "town": "粟生間谷西",
    "town_kana": "アオマタニニシ",
    "street": null,
    "office_name": null,
    "office_name_kana": null
  },
  "0024": {
    "zip_code": "5620024",
    "prefecture": "大阪府",
    "prefecture_kana": "オオサカフ",
    "prefecture_code": 27,
    "city": "箕面市",
    "city_kana": "ミノオシ",
    "town": "粟生新家",
    "town_kana": "アオシンケ",
    "street": null,
    "office_name": null,
    "office_name_kana": null
  },
  "0025": {
    "zip_code": "5620025",
    "prefecture": "大阪府",
    "prefecture_kana": "オオサカフ",
    "prefecture_code": 27,
    "city": "箕面市",
    "city_kana": "ミノオシ",
    "town": "粟生外院",
    "town_kana": "アオゲイン",
    "street": null,
    "office_name": null,
    "office_name_kana": null
  },
  "0026": {
    "zip_code": "5620026",
    "prefecture": "大阪府",
    "prefecture_kana": "オオサカフ",
    "prefecture_code": 27,
    "city": "箕面市",
    "city_kana": "ミノオシ",
    "town": "外院",
    "town_kana": "ゲイン",
    "street": null,
    "office_name": null,
    "office_name_kana": null
  },
  "0027": {
    "zip_code": "5620027",
    "prefecture": "大阪府",
    "prefecture_kana": "オオサカフ",
    "prefecture_code": 27,
    "city": "箕面市",
    "city_kana": "ミノオシ",
    "town": "石丸",
    "town_kana": "イシマル",
    "street": null,
    "office_name": null,
    "office_name_kana": null
  },
  "0028": {
    "zip_code": "5620028",
    "prefecture": "大阪府",
    "prefecture_kana": "オオサカフ",
    "prefecture_code": 27,
    "city": "箕面市",
    "city_kana": "ミノオシ",
    "town": "彩都粟生南",
    "town_kana": "サイトアオミナミ",
    "street": null,
    "office_name": null,
    "office_name_kana": null
  },
  "0029": {
    "zip_code": "5620029",
    "prefecture": "大阪府",
    "prefecture_kana": "オオサカフ",
    "prefecture_code": 27,
    "city": "箕面市",
    "city_kana": "ミノオシ",
    "town": "彩都粟生北",
    "town_kana": "サイトアオキタ",
    "street": null,
    "office_name": null,
    "office_name_kana": null
  },
  "0031": {
    "zip_code": "5620031",
    "prefecture": "大阪府",
    "prefecture_kana": "オオサカフ",
    "prefecture_code": 27,
    "city": "箕面市",
    "city_kana": "ミノオシ",
    "town": "小野原東",
    "town_kana": "オノハラヒガシ",
    "street": null,
    "office_name": null,
    "office_name_kana": null
  },
  "0032": {
    "zip_code": "5620032",
    "prefecture": "大阪府",
    "prefecture_kana": "オオサカフ",
    "prefecture_code": 27,
    "city": "箕面市",
    "city_kana": "ミノオシ",
    "town": "小野原西",
    "town_kana": "オノハラニシ",
    "street": null,
    "office_name": null,
    "office_name_kana": null
  },
  "0033": {
    "zip_code": "5620033",
    "prefecture": "大阪府",
    "prefecture_kana": "オオサカフ",
    "prefecture_code": 27,
    "city": "箕面市",
    "city_kana": "ミノオシ",
    "town": "今宮",
    "town_kana": "イマミヤ",
    "street": null,
    "office_name": null,
    "office_name_kana": null
  },
  "0034": {
    "zip_code": "5620034",
    "prefecture": "大阪府",
    "prefecture_kana": "オオサカフ",
    "prefecture_code": 27,
    "city": "箕面市",
    "city_kana": "ミノオシ",
    "town": "西宿",
    "town_kana": "ニシジュク",
    "street": null,
    "office_name": null,
    "office_name_kana": null
  },
  "0035": {
    "zip_code": "5620035",
    "prefecture": "大阪府",
    "prefecture_kana": "オオサカフ",
    "prefecture_code": 27,
    "city": "箕面市",
    "city_kana": "ミノオシ",
    "town": "船場東",
    "town_kana": "センバヒガシ",
    "street": null,
    "office_name": null,
    "office_name_kana": null
  },
  "0036": {
    "zip_code": "5620036",
    "prefecture": "大阪府",
    "prefecture_kana": "オオサカフ",
    "prefecture_code": 27,
    "city": "箕面市",
    "city_kana": "ミノオシ",
    "town": "船場西",
    "town_kana": "センバニシ",
    "street": null,
    "office_name": null,
    "office_name_kana": null
  },
  "0041": {
    "zip_code": "5620041",
    "prefecture": "大阪府",
    "prefecture_kana": "オオサカフ",
    "prefecture_code": 27,
    "city": "箕面市",
    "city_kana": "ミノオシ",
    "town": "桜",
    "town_kana": "サクラ",
    "street": null,
    "office_name": null,
    "office_name_kana": null
  },
  "0042": {
    "zip_code": "5620042",
    "prefecture": "大阪府",
    "prefecture_kana": "オオサカフ",
    "prefecture_code": 27,
    "city": "箕面市",
    "city_kana": "ミノオシ",
    "town": "百楽荘",
    "town_kana": "ヒャクラクソウ",
    "street": null,
    "office_name": null,
    "office_name_kana": null
  },
  "0043": {
    "zip_code": "5620043",
    "prefecture": "大阪府",
    "prefecture_kana": "オオサカフ",
    "prefecture_code": 27,
    "city": "箕面市",
    "city_kana": "ミノオシ",
    "town": "桜井",
    "town_kana": "サクライ",
    "street": null,
    "office_name": null,
    "office_name_kana": null
  },
  "0044": {
    "zip_code": "5620044",
    "prefecture": "大阪府",
    "prefecture_kana": "オオサカフ",
    "prefecture_code": 27,
    "city": "箕面市",
    "city_kana": "ミノオシ",
    "town": "半町",
    "town_kana": "ハンジョ",
    "street": null,
    "office_name": null,
    "office_name_kana": null
  },
  "0045": {
    "zip_code": "5620045",
    "prefecture": "大阪府",
    "prefecture_kana": "オオサカフ",
    "prefecture_code": 27,
    "city": "箕面市",
    "city_kana": "ミノオシ",
    "town": "瀬川",
    "town_kana": "セガワ",
    "street": null,
    "office_name": null,
    "office_name_kana": null
  },
  "0046": {
    "zip_code": "5620046",
    "prefecture": "大阪府",
    "prefecture_kana": "オオサカフ",
    "prefecture_code": 27,
    "city": "箕面市",
    "city_kana": "ミノオシ",
    "town": "桜ケ丘",
    "town_kana": "サクラガオカ",
    "street": null,
    "office_name": null,
    "office_name_kana": null
  },
  "8505": {
    "zip_code": "5628505",
    "prefecture": "大阪府",
    "prefecture_kana": "オオサカフ",
    "prefecture_code": 27,
    "city": "箕面市",
    "city_kana": "ミノオシ",
    "town": "船場西",
    "town_kana": "センバニシ",
    "street": "１丁目５−３",
    "office_name": "フィガロ技研　株式会社",
    "office_name_kana": "フイガロギケン カブシキガイシヤ"
  },
  "8508": {
    "zip_code": "5628508",
    "prefecture": "大阪府",
    "prefecture_kana": null,
    "prefecture_code": null,
    "city": "箕面市",
    "city_kana": null,
    "town": "大字粟生間谷",
    "town_kana": null,
    "street": "２９１４−１",
    "office_name": "宗教法人　勝尾寺",
    "office_name_kana": "シユウキヨウホウジン カツオウジ"
  },
  "8511": {
    "zip_code": "5628511",
    "prefecture": "大阪府",
    "prefecture_kana": "オオサカフ",
    "prefecture_code": 27,
    "city": "箕面市",
    "city_kana": "ミノオシ",
    "town": "船場東",
    "town_kana": "センバヒガシ",
    "street": "１丁目１１−４６",
    "office_name": "株式会社　ロイネ",
    "office_name_kana": "カブシキガイシヤ ロイネ"
  },
  "8522": {
    "zip_code": "5628522",
    "prefecture": "大阪府",
    "prefecture_kana": "オオサカフ",
    "prefecture_code": 27,
    "city": "箕面市",
    "city_kana": "ミノオシ",
    "town": "船場東",
    "town_kana": "センバヒガシ",
    "street": "２丁目５番４７号ＣＯＭ３号館４階",
    "office_name": "宇野　株式会社",
    "office_name_kana": "ウノ カブシキガイシヤ"
  },
  "8543": {
    "zip_code": "5628543",
    "prefecture": "大阪府",
    "prefecture_kana": "オオサカフ",
    "prefecture_code": 27,
    "city": "箕面市",
    "city_kana": "ミノオシ",
    "town": "如意谷",
    "town_kana": "ニョイダニ",
    "street": "１丁目１３−２３",
    "office_name": "学校法人　聖母被昇天学院",
    "office_name_kana": "ガツコウホウジン セイボヒシヨウテンガクイン"
  },
  "8555": {
    "zip_code": "5628555",
    "prefecture": "大阪府",
    "prefecture_kana": "オオサカフ",
    "prefecture_code": 27,
    "city": "箕面市",
    "city_kana": "ミノオシ",
    "town": "船場東",
    "town_kana": "センバヒガシ",
    "street": "１丁目１２−５",
    "office_name": "株式会社　アラミック",
    "office_name_kana": "カブシキガイシヤ アラミツク"
  },
  "8558": {
    "zip_code": "5628558",
    "prefecture": "大阪府",
    "prefecture_kana": "オオサカフ",
    "prefecture_code": 27,
    "city": "箕面市",
    "city_kana": "ミノオシ",
    "town": "粟生間谷東",
    "town_kana": "アオマタニヒガシ",
    "street": "八丁目１番１号",
    "office_name": "国立大学法人　大阪大学言語文化研究科・外国語学部",
    "office_name_kana": "コクリツダイガクホウジン オオサカダイガクゲンゴブンカケンキユウカ・ガイコクゴガクブ"
  },
  "8560": {
    "zip_code": "5628560",
    "prefecture": "大阪府",
    "prefecture_kana": "オオサカフ",
    "prefecture_code": 27,
    "city": "箕面市",
    "city_kana": "ミノオシ",
    "town": "船場東",
    "town_kana": "センバヒガシ",
    "street": "２丁目３−５０",
    "office_name": "株式会社　理喜",
    "office_name_kana": "カブシキガイシヤ リキ"
  },
  "8562": {
    "zip_code": "5628562",
    "prefecture": "大阪府",
    "prefecture_kana": "オオサカフ",
    "prefecture_code": 27,
    "city": "箕面市",
    "city_kana": "ミノオシ",
    "town": "萱野",
    "town_kana": "カヤノ",
    "street": "５丁目７番１号",
    "office_name": "箕面市立病院",
    "office_name_kana": "ミノオシリツビヨウイン"
  },
  "8567": {
    "zip_code": "5628567",
    "prefecture": "大阪府",
    "prefecture_kana": "オオサカフ",
    "prefecture_code": 27,
    "city": "箕面市",
    "city_kana": "ミノオシ",
    "town": "粟生間谷西",
    "town_kana": "アオマタニニシ",
    "street": "６丁目１４−１",
    "office_name": "ガラシア病院",
    "office_name_kana": "ガラシアビヨウイン"
  },
  "8568": {
    "zip_code": "5628568",
    "prefecture": "大阪府",
    "prefecture_kana": "オオサカフ",
    "prefecture_code": 27,
    "city": "箕面市",
    "city_kana": "ミノオシ",
    "town": "船場東",
    "town_kana": "センバヒガシ",
    "street": "１丁目１１−１６",
    "office_name": "キングベビー　株式会社",
    "office_name_kana": "キングベビ- カブシキガイシヤ"
  },
  "8580": {
    "zip_code": "5628580",
    "prefecture": "大阪府",
    "prefecture_kana": "オオサカフ",
    "prefecture_code": 27,
    "city": "箕面市",
    "city_kana": "ミノオシ",
    "town": "新稲",
    "town_kana": "ニイナ",
    "street": "２丁目１１−１",
    "office_name": "大阪青山短期大学・大阪青山大学",
    "office_name_kana": "オオサカアオヤマタンキダイガク・オオサカアオヤマダイガク"
  },
  "8585": {
    "zip_code": "5628585",
    "prefecture": "大阪府",
    "prefecture_kana": "オオサカフ",
    "prefecture_code": 27,
    "city": "箕面市",
    "city_kana": "ミノオシ",
    "town": "船場東",
    "town_kana": "センバヒガシ",
    "street": "３丁目１１−２２",
    "office_name": "おたふく手袋　株式会社",
    "office_name_kana": "オタフクテブクロ カブシキガイシヤ"
  },
  "8586": {
    "zip_code": "5628586",
    "prefecture": "大阪府",
    "prefecture_kana": "オオサカフ",
    "prefecture_code": 27,
    "city": "箕面市",
    "city_kana": "ミノオシ",
    "town": "船場東",
    "town_kana": "センバヒガシ",
    "street": "１丁目１１番９号",
    "office_name": "ヘンケルジャパン　株式会社",
    "office_name_kana": "ヘンケルジヤパン カブシキガイシヤ"
  },
  "8588": {
    "zip_code": "5628588",
    "prefecture": "大阪府",
    "prefecture_kana": "オオサカフ",
    "prefecture_code": 27,
    "city": "箕面市",
    "city_kana": "ミノオシ",
    "town": "船場東",
    "town_kana": "センバヒガシ",
    "street": "１丁目５−１３ＰＤセンタービル",
    "office_name": "センコー　株式会社　東大阪支店船場ＰＤセンター",
    "office_name_kana": "センコ- カブシキガイシヤ ヒガシオオサカシテンセンバピ-デイ-センタ-"
  },
  "8686": {
    "zip_code": "5628686",
    "prefecture": "大阪府",
    "prefecture_kana": "オオサカフ",
    "prefecture_code": 27,
    "city": "箕面市",
    "city_kana": "ミノオシ",
    "town": "稲",
    "town_kana": "イナ",
    "street": "４丁目１−２",
    "office_name": "一般財団法人　蛋白質研究奨励会、株式会社　千里インターナショナル",
    "office_name_kana": "イツパンザイダンホウジン タンパクシツケンキユウシヨウレイカイ、カブシキガイシヤ センリインタ-ナシヨナル"
  }
}