{
  "0000": {
    "zip_code": "5690000",
    "prefecture": "大阪府",
    "prefecture_kana": "オオサカフ",
    "prefecture_code": "27",
    "city": "高槻市",
    "city_kana": "タカツキシ",
    "town": "",
    "town_kana": "",
    "street": null,
    "office_name": null,
    "office_name_kana": null
  },
  "0001": {
    "zip_code": "5690001",
    "prefecture": "大阪府",
    "prefecture_kana": "オオサカフ",
    "prefecture_code": "27",
    "city": "高槻市",
    "city_kana": "タカツキシ",
    "town": "淀の原町",
    "town_kana": "ヨドノハラチョウ",
    "street": null,
    "office_name": null,
    "office_name_kana": null
  },
  "0002": {
    "zip_code": "5690002",
    "prefecture": "大阪府",
    "prefecture_kana": "オオサカフ",
    "prefecture_code": "27",
    "city": "高槻市",
    "city_kana": "タカツキシ",
    "town": "東上牧",
    "town_kana": "ヒガシカンマキ",
    "street": null,
    "office_name": null,
    "office_name_kana": null
  },
  "0003": {
    "zip_code": "5690003",
    "prefecture": "大阪府",
    "prefecture_kana": "オオサカフ",
    "prefecture_code": "27",
    "city": "高槻市",
    "city_kana": "タカツキシ",
    "town": "上牧町",
    "town_kana": "カンマキチョウ",
    "street": null,
    "office_name": null,
    "office_name_kana": null
  },
  "0004": {
    "zip_code": "5690004",
    "prefecture": "大阪府",
    "prefecture_kana": "オオサカフ",
    "prefecture_code": "27",
    "city": "高槻市",
    "city_kana": "タカツキシ",
    "town": "上牧南駅前町",
    "town_kana": "カンマキミナミエキマエチョウ",
    "street": null,
    "office_name": null,
    "office_name_kana": null
  },
  "0005": {
    "zip_code": "5690005",
    "prefecture": "大阪府",
    "prefecture_kana": "オオサカフ",
    "prefecture_code": "27",
    "city": "高槻市",
    "city_kana": "タカツキシ",
    "town": "上牧北駅前町",
    "town_kana": "カンマキキタエキマエチョウ",
    "street": null,
    "office_name": null,
    "office_name_kana": null
  },
  "0006": {
    "zip_code": "5690006",
    "prefecture": "大阪府",
    "prefecture_kana": "オオサカフ",
    "prefecture_code": "27",
    "city": "高槻市",
    "city_kana": "タカツキシ",
    "town": "上牧山手町",
    "town_kana": "カンマキヤマテチョウ",
    "street": null,
    "office_name": null,
    "office_name_kana": null
  },
  "0007": {
    "zip_code": "5690007",
    "prefecture": "大阪府",
    "prefecture_kana": "オオサカフ",
    "prefecture_code": "27",
    "city": "高槻市",
    "city_kana": "タカツキシ",
    "town": "神内",
    "town_kana": "コウナイ",
    "street": null,
    "office_name": null,
    "office_name_kana": null
  },
  "0011": {
    "zip_code": "5690011",
    "prefecture": "大阪府",
    "prefecture_kana": "オオサカフ",
    "prefecture_code": "27",
    "city": "高槻市",
    "city_kana": "タカツキシ",
    "town": "道鵜町",
    "town_kana": "ドウウチョウ",
    "street": null,
    "office_name": null,
    "office_name_kana": null
  },
  "0012": {
    "zip_code": "5690012",
    "prefecture": "大阪府",
    "prefecture_kana": "オオサカフ",
    "prefecture_code": "27",
    "city": "高槻市",
    "city_kana": "タカツキシ",
    "town": "東天川",
    "town_kana": "ヒガシアマガワ",
    "street": null,
    "office_name": null,
    "office_name_kana": null
  },
  "0013": {
    "zip_code": "5690013",
    "prefecture": "大阪府",
    "prefecture_kana": "オオサカフ",
    "prefecture_code": "27",
    "city": "高槻市",
    "city_kana": "タカツキシ",
    "town": "野田",
    "town_kana": "ノダ",
    "street": null,
    "office_name": null,
    "office_name_kana": null
  },
  "0014": {
    "zip_code": "5690014",
    "prefecture": "大阪府",
    "prefecture_kana": "オオサカフ",
    "prefecture_code": "27",
    "city": "高槻市",
    "city_kana": "タカツキシ",
    "town": "野田東",
    "town_kana": "ノダヒガシ",
    "street": null,
    "office_name": null,
    "office_name_kana": null
  },
  "0015": {
    "zip_code": "5690015",
    "prefecture": "大阪府",
    "prefecture_kana": "オオサカフ",
    "prefecture_code": "27",
    "city": "高槻市",
    "city_kana": "タカツキシ",
    "town": "井尻",
    "town_kana": "イジリ",
    "street": null,
    "office_name": null,
    "office_name_kana": null
  },
  "0016": {
    "zip_code": "5690016",
    "prefecture": "大阪府",
    "prefecture_kana": "オオサカフ",
    "prefecture_code": "27",
    "city": "高槻市",
    "city_kana": "タカツキシ",
    "town": "五領町",
    "town_kana": "ゴリョウチョウ",
    "street": null,
    "office_name": null,
    "office_name_kana": null
  },
  "0021": {
    "zip_code": "5690021",
    "prefecture": "大阪府",
    "prefecture_kana": "オオサカフ",
    "prefecture_code": "27",
    "city": "高槻市",
    "city_kana": "タカツキシ",
    "town": "前島",
    "town_kana": "マエシマ",
    "street": null,
    "office_name": null,
    "office_name_kana": null
  },
  "0022": {
    "zip_code": "5690022",
    "prefecture": "大阪府",
    "prefecture_kana": "オオサカフ",
    "prefecture_code": "27",
    "city": "高槻市",
    "city_kana": "タカツキシ",
    "town": "須賀町",
    "town_kana": "スガチョウ",
    "street": null,
    "office_name": null,
    "office_name_kana": null
  },
  "0023": {
    "zip_code": "5690023",
    "prefecture": "大阪府",
    "prefecture_kana": "オオサカフ",
    "prefecture_code": "27",
    "city": "高槻市",
    "city_kana": "タカツキシ",
    "town": "松川町",
    "town_kana": "マツカワチョウ",
    "street": null,
    "office_name": null,
    "office_name_kana": null
  },
  "0024": {
    "zip_code": "5690024",
    "prefecture": "大阪府",
    "prefecture_kana": "オオサカフ",
    "prefecture_code": "27",
    "city": "高槻市",
    "city_kana": "タカツキシ",
    "town": "日向町",
    "town_kana": "ヒュウガチョウ",
    "street": null,
    "office_name": null,
    "office_name_kana": null
  },
  "0025": {
    "zip_code": "5690025",
    "prefecture": "大阪府",
    "prefecture_kana": "オオサカフ",
    "prefecture_code": "27",
    "city": "高槻市",
    "city_kana": "タカツキシ",
    "town": "藤の里町",
    "town_kana": "フジノサトチョウ",
    "street": null,
    "office_name": null,
    "office_name_kana": null
  },
  "0026": {
    "zip_code": "5690026",
    "prefecture": "大阪府",
    "prefecture_kana": "オオサカフ",
    "prefecture_code": "27",
    "city": "高槻市",
    "city_kana": "タカツキシ",
    "town": "天川町",
    "town_kana": "アマガワチョウ",
    "street": null,
    "office_name": null,
    "office_name_kana": null
  },
  "0027": {
    "zip_code": "5690027",
    "prefecture": "大阪府",
    "prefecture_kana": "オオサカフ",
    "prefecture_code": "27",
    "city": "高槻市",
    "city_kana": "タカツキシ",
    "town": "天川新町",
    "town_kana": "アマガワシンマチ",
    "street": null,
    "office_name": null,
    "office_name_kana": null
  },
  "0031": {
    "zip_code": "5690031",
    "prefecture": "大阪府",
    "prefecture_kana": "オオサカフ",
    "prefecture_code": "27",
    "city": "高槻市",
    "city_kana": "タカツキシ",
    "town": "大冠町",
    "town_kana": "オオカンムリチョウ",
    "street": null,
    "office_name": null,
    "office_name_kana": null
  },
  "0032": {
    "zip_code": "5690032",
    "prefecture": "大阪府",
    "prefecture_kana": "オオサカフ",
    "prefecture_code": "27",
    "city": "高槻市",
    "city_kana": "タカツキシ",
    "town": "東和町",
    "town_kana": "トウワチョウ",
    "street": null,
    "office_name": null,
    "office_name_kana": null
  },
  "0033": {
    "zip_code": "5690033",
    "prefecture": "大阪府",
    "prefecture_kana": "オオサカフ",
    "prefecture_code": "27",
    "city": "高槻市",
    "city_kana": "タカツキシ",
    "town": "深沢本町",
    "town_kana": "フカザワホンマチ",
    "street": null,
    "office_name": null,
    "office_name_kana": null
  },
  "0034": {
    "zip_code": "5690034",
    "prefecture": "大阪府",
    "prefecture_kana": "オオサカフ",
    "prefecture_code": "27",
    "city": "高槻市",
    "city_kana": "タカツキシ",
    "town": "大塚町",
    "town_kana": "オオツカチョウ",
    "street": null,
    "office_name": null,
    "office_name_kana": null
  },
  "0035": {
    "zip_code": "5690035",
    "prefecture": "大阪府",
    "prefecture_kana": "オオサカフ",
    "prefecture_code": "27",
    "city": "高槻市",
    "city_kana": "タカツキシ",
    "town": "深沢町",
    "town_kana": "フカザワチョウ",
    "street": null,
    "office_name": null,
    "office_name_kana": null
  },
  "0036": {
    "zip_code": "5690036",
    "prefecture": "大阪府",
    "prefecture_kana": "オオサカフ",
    "prefecture_code": "27",
    "city": "高槻市",
    "city_kana": "タカツキシ",
    "town": "辻子",
    "town_kana": "ズシ",
    "street": null,
    "office_name": null,
    "office_name_kana": null
  },
  "0041": {
    "zip_code": "5690041",
    "prefecture": "大阪府",
    "prefecture_kana": "オオサカフ",
    "prefecture_code": "27",
    "city": "高槻市",
    "city_kana": "タカツキシ",
    "town": "北大樋町",
    "town_kana": "キタオオヒチョウ",
    "street": null,
    "office_name": null,
    "office_name_kana": null
  },
  "0042": {
    "zip_code": "5690042",
    "prefecture": "大阪府",
    "prefecture_kana": "オオサカフ",
    "prefecture_code": "27",
    "city": "高槻市",
    "city_kana": "タカツキシ",
    "town": "南大樋町",
    "town_kana": "ミナミオオヒチョウ",
    "street": null,
    "office_name": null,
    "office_name_kana": null
  },
  "0043": {
    "zip_code": "5690043",
    "prefecture": "大阪府",
    "prefecture_kana": "オオサカフ",
    "prefecture_code": "27",
    "city": "高槻市",
    "city_kana": "タカツキシ",
    "town": "竹の内町",
    "town_kana": "タケノウチチョウ",
    "street": null,
    "office_name": null,
    "office_name_kana": null
  },
  "0044": {
    "zip_code": "5690044",
    "prefecture": "大阪府",
    "prefecture_kana": "オオサカフ",
    "prefecture_code": "27",
    "city": "高槻市",
    "city_kana": "タカツキシ",
    "town": "番田",
    "town_kana": "バンダ",
    "street": null,
    "office_name": null,
    "office_name_kana": null
  },
  "0045": {
    "zip_code": "5690045",
    "prefecture": "大阪府",
    "prefecture_kana": "オオサカフ",
    "prefecture_code": "27",
    "city": "高槻市",
    "city_kana": "タカツキシ",
    "town": "西大樋町",
    "town_kana": "ニシオオヒチョウ",
    "street": null,
    "office_name": null,
    "office_name_kana": null
  },
  "0046": {
    "zip_code": "5690046",
    "prefecture": "大阪府",
    "prefecture_kana": "オオサカフ",
    "prefecture_code": "27",
    "city": "高槻市",
    "city_kana": "タカツキシ",
    "town": "登町",
    "town_kana": "ノボリマチ",
    "street": null,
    "office_name": null,
    "office_name_kana": null
  },
  "0047": {
    "zip_code": "5690047",
    "prefecture": "大阪府",
    "prefecture_kana": "オオサカフ",
    "prefecture_code": "27",
    "city": "高槻市",
    "city_kana": "タカツキシ",
    "town": "堤町",
    "town_kana": "ツツミチョウ",
    "street": null,
    "office_name": null,
    "office_name_kana": null
  },
  "0051": {
    "zip_code": "5690051",
    "prefecture": "大阪府",
    "prefecture_kana": "オオサカフ",
    "prefecture_code": "27",
    "city": "高槻市",
    "city_kana": "タカツキシ",
    "town": "八幡町",
    "town_kana": "ヤハタマチ",
    "street": null,
    "office_name": null,
    "office_name_kana": null
  },
  "0052": {
    "zip_code": "5690052",
    "prefecture": "大阪府",
    "prefecture_kana": "オオサカフ",
    "prefecture_code": "27",
    "city": "高槻市",
    "city_kana": "タカツキシ",
    "town": "城東町",
    "town_kana": "ジョウトウチョウ",
    "street": null,
    "office_name": null,
    "office_name_kana": null
  },
  "0053": {
    "zip_code": "5690053",
    "prefecture": "大阪府",
    "prefecture_kana": "オオサカフ",
    "prefecture_code": "27",
    "city": "高槻市",
    "city_kana": "タカツキシ",
    "town": "春日町",
    "town_kana": "カスガチョウ",
    "street": null,
    "office_name": null,
    "office_name_kana": null
  },
  "0054": {
    "zip_code": "5690054",
    "prefecture": "大阪府",
    "prefecture_kana": "オオサカフ",
    "prefecture_code": "27",
    "city": "高槻市",
    "city_kana": "タカツキシ",
    "town": "若松町",
    "town_kana": "ワカマツチョウ",
    "street": null,
    "office_name": null,
    "office_name_kana": null
  },
  "0055": {
    "zip_code": "5690055",
    "prefecture": "大阪府",
    "prefecture_kana": "オオサカフ",
    "prefecture_code": "27",
    "city": "高槻市",
    "city_kana": "タカツキシ",
    "town": "西冠",
    "town_kana": "ニシカンムリ",
    "street": null,
    "office_name": null,
    "office_name_kana": null
  },
  "0056": {
    "zip_code": "5690056",
    "prefecture": "大阪府",
    "prefecture_kana": "オオサカフ",
    "prefecture_code": "27",
    "city": "高槻市",
    "city_kana": "タカツキシ",
    "town": "城南町",
    "town_kana": "ジョウナンチョウ",
    "street": null,
    "office_name": null,
    "office_name_kana": null
  },
  "0057": {
    "zip_code": "5690057",
    "prefecture": "大阪府",
    "prefecture_kana": "オオサカフ",
    "prefecture_code": "27",
    "city": "高槻市",
    "city_kana": "タカツキシ",
    "town": "土橋町",
    "town_kana": "ドバシチョウ",
    "street": null,
    "office_name": null,
    "office_name_kana": null
  },
  "0061": {
    "zip_code": "5690061",
    "prefecture": "大阪府",
    "prefecture_kana": "オオサカフ",
    "prefecture_code": "27",
    "city": "高槻市",
    "city_kana": "タカツキシ",
    "town": "高西町",
    "town_kana": "コウサイチョウ",
    "street": null,
    "office_name": null,
    "office_name_kana": null
  },
  "0062": {
    "zip_code": "5690062",
    "prefecture": "大阪府",
    "prefecture_kana": "オオサカフ",
    "prefecture_code": "27",
    "city": "高槻市",
    "city_kana": "タカツキシ",
    "town": "下田部町",
    "town_kana": "シモタナベチョウ",
    "street": null,
    "office_name": null,
    "office_name_kana": null
  },
  "0063": {
    "zip_code": "5690063",
    "prefecture": "大阪府",
    "prefecture_kana": "オオサカフ",
    "prefecture_code": "27",
    "city": "高槻市",
    "city_kana": "タカツキシ",
    "town": "南庄所町",
    "town_kana": "ミナミショウドコロチョウ",
    "street": null,
    "office_name": null,
    "office_name_kana": null
  },
  "0064": {
    "zip_code": "5690064",
    "prefecture": "大阪府",
    "prefecture_kana": "オオサカフ",
    "prefecture_code": "27",
    "city": "高槻市",
    "city_kana": "タカツキシ",
    "town": "庄所町",
    "town_kana": "ショウドコロチョウ",
    "street": null,
    "office_name": null,
    "office_name_kana": null
  },
  "0065": {
    "zip_code": "5690065",
    "prefecture": "大阪府",
    "prefecture_kana": "オオサカフ",
    "prefecture_code": "27",
    "city": "高槻市",
    "city_kana": "タカツキシ",
    "town": "城西町",
    "town_kana": "ジョウサイチョウ",
    "street": null,
    "office_name": null,
    "office_name_kana": null
  },
  "0066": {
    "zip_code": "5690066",
    "prefecture": "大阪府",
    "prefecture_kana": "オオサカフ",
    "prefecture_code": "27",
    "city": "高槻市",
    "city_kana": "タカツキシ",
    "town": "中川町",
    "town_kana": "ナカガワチョウ",
    "street": null,
    "office_name": null,
    "office_name_kana": null
  },
  "0067": {
    "zip_code": "5690067",
    "prefecture": "大阪府",
    "prefecture_kana": "オオサカフ",
    "prefecture_code": "27",
    "city": "高槻市",
    "city_kana": "タカツキシ",
    "town": "桃園町",
    "town_kana": "トウエンチョウ",
    "street": null,
    "office_name": null,
    "office_name_kana": null
  },
  "0071": {
    "zip_code": "5690071",
    "prefecture": "大阪府",
    "prefecture_kana": "オオサカフ",
    "prefecture_code": "27",
    "city": "高槻市",
    "city_kana": "タカツキシ",
    "town": "城北町",
    "town_kana": "ジョウホクチョウ",
    "street": null,
    "office_name": null,
    "office_name_kana": null
  },
  "0072": {
    "zip_code": "5690072",
    "prefecture": "大阪府",
    "prefecture_kana": "オオサカフ",
    "prefecture_code": "27",
    "city": "高槻市",
    "city_kana": "タカツキシ",
    "town": "京口町",
    "town_kana": "キョウグチマチ",
    "street": null,
    "office_name": null,
    "office_name_kana": null
  },
  "0073": {
    "zip_code": "5690073",
    "prefecture": "大阪府",
    "prefecture_kana": "オオサカフ",
    "prefecture_code": "27",
    "city": "高槻市",
    "city_kana": "タカツキシ",
    "town": "上本町",
    "town_kana": "カミホンマチ",
    "street": null,
    "office_name": null,
    "office_name_kana": null
  },
  "0074": {
    "zip_code": "5690074",
    "prefecture": "大阪府",
    "prefecture_kana": "オオサカフ",
    "prefecture_code": "27",
    "city": "高槻市",
    "city_kana": "タカツキシ",
    "town": "本町",
    "town_kana": "ホンマチ",
    "street": null,
    "office_name": null,
    "office_name_kana": null
  },
  "0075": {
    "zip_code": "5690075",
    "prefecture": "大阪府",
    "prefecture_kana": "オオサカフ",
    "prefecture_code": "27",
    "city": "高槻市",
    "city_kana": "タカツキシ",
    "town": "城内町",
    "town_kana": "ジョウナイチョウ",
    "street": null,
    "office_name": null,
    "office_name_kana": null
  },
  "0076": {
    "zip_code": "5690076",
    "prefecture": "大阪府",
    "prefecture_kana": "オオサカフ",
    "prefecture_code": "27",
    "city": "高槻市",
    "city_kana": "タカツキシ",
    "town": "出丸町",
    "town_kana": "デマルチョウ",
    "street": null,
    "office_name": null,
    "office_name_kana": null
  },
  "0077": {
    "zip_code": "5690077",
    "prefecture": "大阪府",
    "prefecture_kana": "オオサカフ",
    "prefecture_code": "27",
    "city": "高槻市",
    "city_kana": "タカツキシ",
    "town": "野見町",
    "town_kana": "ノミチョウ",
    "street": null,
    "office_name": null,
    "office_name_kana": null
  },
  "0078": {
    "zip_code": "5690078",
    "prefecture": "大阪府",
    "prefecture_kana": "オオサカフ",
    "prefecture_code": "27",
    "city": "高槻市",
    "city_kana": "タカツキシ",
    "town": "大手町",
    "town_kana": "オオテチョウ",
    "street": null,
    "office_name": null,
    "office_name_kana": null
  },
  "0081": {
    "zip_code": "5690081",
    "prefecture": "大阪府",
    "prefecture_kana": "オオサカフ",
    "prefecture_code": "27",
    "city": "高槻市",
    "city_kana": "タカツキシ",
    "town": "宮野町",
    "town_kana": "ミヤノチョウ",
    "street": null,
    "office_name": null,
    "office_name_kana": null
  },
  "0082": {
    "zip_code": "5690082",
    "prefecture": "大阪府",
    "prefecture_kana": "オオサカフ",
    "prefecture_code": "27",
    "city": "高槻市",
    "city_kana": "タカツキシ",
    "town": "明野町",
    "town_kana": "アケノチョウ",
    "street": null,
    "office_name": null,
    "office_name_kana": null
  },
  "0083": {
    "zip_code": "5690083",
    "prefecture": "大阪府",
    "prefecture_kana": "オオサカフ",
    "prefecture_code": "27",
    "city": "高槻市",
    "city_kana": "タカツキシ",
    "town": "永楽町",
    "town_kana": "エイラクチョウ",
    "street": null,
    "office_name": null,
    "office_name_kana": null
  },
  "0084": {
    "zip_code": "5690084",
    "prefecture": "大阪府",
    "prefecture_kana": "オオサカフ",
    "prefecture_code": "27",
    "city": "高槻市",
    "city_kana": "タカツキシ",
    "town": "沢良木町",
    "town_kana": "サワラギチョウ",
    "street": null,
    "office_name": null,
    "office_name_kana": null
  },
  "0085": {
    "zip_code": "5690085",
    "prefecture": "大阪府",
    "prefecture_kana": "オオサカフ",
    "prefecture_code": "27",
    "city": "高槻市",
    "city_kana": "タカツキシ",
    "town": "南松原町",
    "town_kana": "ミナミマツバラチョウ",
    "street": null,
    "office_name": null,
    "office_name_kana": null
  },
  "0086": {
    "zip_code": "5690086",
    "prefecture": "大阪府",
    "prefecture_kana": "オオサカフ",
    "prefecture_code": "27",
    "city": "高槻市",
    "city_kana": "タカツキシ",
    "town": "松原町",
    "town_kana": "マツバラチョウ",
    "street": null,
    "office_name": null,
    "office_name_kana": null
  },
  "0087": {
    "zip_code": "5690087",
    "prefecture": "大阪府",
    "prefecture_kana": "オオサカフ",
    "prefecture_code": "27",
    "city": "高槻市",
    "city_kana": "タカツキシ",
    "town": "千代田町",
    "town_kana": "チヨダチョウ",
    "street": null,
    "office_name": null,
    "office_name_kana": null
  },
  "0088": {
    "zip_code": "5690088",
    "prefecture": "大阪府",
    "prefecture_kana": "オオサカフ",
    "prefecture_code": "27",
    "city": "高槻市",
    "city_kana": "タカツキシ",
    "town": "天王町",
    "town_kana": "テンノウチョウ",
    "street": null,
    "office_name": null,
    "office_name_kana": null
  },
  "0091": {
    "zip_code": "5690091",
    "prefecture": "大阪府",
    "prefecture_kana": "オオサカフ",
    "prefecture_code": "27",
    "city": "高槻市",
    "city_kana": "タカツキシ",
    "town": "梶原",
    "town_kana": "カジハラ",
    "street": null,
    "office_name": null,
    "office_name_kana": null
  },
  "0092": {
    "zip_code": "5690092",
    "prefecture": "大阪府",
    "prefecture_kana": "オオサカフ",
    "prefecture_code": "27",
    "city": "高槻市",
    "city_kana": "タカツキシ",
    "town": "梶原中村町",
    "town_kana": "カジハラナカムラチョウ",
    "street": null,
    "office_name": null,
    "office_name_kana": null
  },
  "0093": {
    "zip_code": "5690093",
    "prefecture": "大阪府",
    "prefecture_kana": "オオサカフ",
    "prefecture_code": "27",
    "city": "高槻市",
    "city_kana": "タカツキシ",
    "town": "萩之庄",
    "town_kana": "ハギノショウ",
    "street": null,
    "office_name": null,
    "office_name_kana": null
  },
  "0094": {
    "zip_code": "5690094",
    "prefecture": "大阪府",
    "prefecture_kana": "オオサカフ",
    "prefecture_code": "27",
    "city": "高槻市",
    "city_kana": "タカツキシ",
    "town": "緑町",
    "town_kana": "ミドリチョウ",
    "street": null,
    "office_name": null,
    "office_name_kana": null
  },
  "0095": {
    "zip_code": "5690095",
    "prefecture": "大阪府",
    "prefecture_kana": "オオサカフ",
    "prefecture_code": "27",
    "city": "高槻市",
    "city_kana": "タカツキシ",
    "town": "八丁西町",
    "town_kana": "ハッチョウニシマチ",
    "street": null,
    "office_name": null,
    "office_name_kana": null
  },
  "0096": {
    "zip_code": "5690096",
    "prefecture": "大阪府",
    "prefecture_kana": "オオサカフ",
    "prefecture_code": "27",
    "city": "高槻市",
    "city_kana": "タカツキシ",
    "town": "八丁畷町",
    "town_kana": "ハッチョウナワテチョウ",
    "street": null,
    "office_name": null,
    "office_name_kana": null
  },
  "0097": {
    "zip_code": "5690097",
    "prefecture": "大阪府",
    "prefecture_kana": "オオサカフ",
    "prefecture_code": "27",
    "city": "高槻市",
    "city_kana": "タカツキシ",
    "town": "高垣町",
    "town_kana": "タカガキチョウ",
    "street": null,
    "office_name": null,
    "office_name_kana": null
  },
  "0801": {
    "zip_code": "5690801",
    "prefecture": "大阪府",
    "prefecture_kana": "オオサカフ",
    "prefecture_code": "27",
    "city": "高槻市",
    "city_kana": "タカツキシ",
    "town": "大学町",
    "town_kana": "ダイガクマチ",
    "street": null,
    "office_name": null,
    "office_name_kana": null
  },
  "0802": {
    "zip_code": "5690802",
    "prefecture": "大阪府",
    "prefecture_kana": "オオサカフ",
    "prefecture_code": "27",
    "city": "高槻市",
    "city_kana": "タカツキシ",
    "town": "北園町",
    "town_kana": "キタソノマチ",
    "street": null,
    "office_name": null,
    "office_name_kana": null
  },
  "0803": {
    "zip_code": "5690803",
    "prefecture": "大阪府",
    "prefecture_kana": "オオサカフ",
    "prefecture_code": "27",
    "city": "高槻市",
    "city_kana": "タカツキシ",
    "town": "高槻町",
    "town_kana": "タカツキマチ",
    "street": null,
    "office_name": null,
    "office_name_kana": null
  },
  "0804": {
    "zip_code": "5690804",
    "prefecture": "大阪府",
    "prefecture_kana": "オオサカフ",
    "prefecture_code": "27",
    "city": "高槻市",
    "city_kana": "タカツキシ",
    "town": "紺屋町",
    "town_kana": "コンヤマチ",
    "street": null,
    "office_name": null,
    "office_name_kana": null
  },
  "0805": {
    "zip_code": "5690805",
    "prefecture": "大阪府",
    "prefecture_kana": "オオサカフ",
    "prefecture_code": "27",
    "city": "高槻市",
    "city_kana": "タカツキシ",
    "town": "上田辺町",
    "town_kana": "カミタナベチョウ",
    "street": null,
    "office_name": null,
    "office_name_kana": null
  },
  "0806": {
    "zip_code": "5690806",
    "prefecture": "大阪府",
    "prefecture_kana": "オオサカフ",
    "prefecture_code": "27",
    "city": "高槻市",
    "city_kana": "タカツキシ",
    "town": "明田町",
    "town_kana": "アケタチョウ",
    "street": null,
    "office_name": null,
    "office_name_kana": null
  },
  "0807": {
    "zip_code": "5690807",
    "prefecture": "大阪府",
    "prefecture_kana": "オオサカフ",
    "prefecture_code": "27",
    "city": "高槻市",
    "city_kana": "タカツキシ",
    "town": "桜町",
    "town_kana": "サクラマチ",
    "street": null,
    "office_name": null,
    "office_name_kana": null
  },
  "0811": {
    "zip_code": "5690811",
    "prefecture": "大阪府",
    "prefecture_kana": "オオサカフ",
    "prefecture_code": "27",
    "city": "高槻市",
    "city_kana": "タカツキシ",
    "town": "東五百住町",
    "town_kana": "ヒガシヨスミチョウ",
    "street": null,
    "office_name": null,
    "office_name_kana": null
  },
  "0812": {
    "zip_code": "5690812",
    "prefecture": "大阪府",
    "prefecture_kana": "オオサカフ",
    "prefecture_code": "27",
    "city": "高槻市",
    "city_kana": "タカツキシ",
    "town": "登美の里町",
    "town_kana": "トミノサトチョウ",
    "street": null,
    "office_name": null,
    "office_name_kana": null
  },
  "0813": {
    "zip_code": "5690813",
    "prefecture": "大阪府",
    "prefecture_kana": "オオサカフ",
    "prefecture_code": "27",
    "city": "高槻市",
    "city_kana": "タカツキシ",
    "town": "西五百住町",
    "town_kana": "ニシヨスミチョウ",
    "street": null,
    "office_name": null,
    "office_name_kana": null
  },
  "0814": {
    "zip_code": "5690814",
    "prefecture": "大阪府",
    "prefecture_kana": "オオサカフ",
    "prefecture_code": "27",
    "city": "高槻市",
    "city_kana": "タカツキシ",
    "town": "富田町",
    "town_kana": "トンダチョウ",
    "street": null,
    "office_name": null,
    "office_name_kana": null
  },
  "0815": {
    "zip_code": "5690815",
    "prefecture": "大阪府",
    "prefecture_kana": "オオサカフ",
    "prefecture_code": "27",
    "city": "高槻市",
    "city_kana": "タカツキシ",
    "town": "昭和台町",
    "town_kana": "ショウワダイチョウ",
    "street": null,
    "office_name": null,
    "office_name_kana": null
  },
  "0816": {
    "zip_code": "5690816",
    "prefecture": "大阪府",
    "prefecture_kana": "オオサカフ",
    "prefecture_code": "27",
    "city": "高槻市",
    "city_kana": "タカツキシ",
    "town": "北昭和台町",
    "town_kana": "キタショウワダイチョウ",
    "street": null,
    "office_name": null,
    "office_name_kana": null
  },
  "0817": {
    "zip_code": "5690817",
    "prefecture": "大阪府",
    "prefecture_kana": "オオサカフ",
    "prefecture_code": "27",
    "city": "高槻市",
    "city_kana": "タカツキシ",
    "town": "桜ケ丘北町",
    "town_kana": "サクラガオカキタマチ",
    "street": null,
    "office_name": null,
    "office_name_kana": null
  },
  "0818": {
    "zip_code": "5690818",
    "prefecture": "大阪府",
    "prefecture_kana": "オオサカフ",
    "prefecture_code": "27",
    "city": "高槻市",
    "city_kana": "タカツキシ",
    "town": "桜ケ丘南町",
    "town_kana": "サクラガオカミナミマチ",
    "street": null,
    "office_name": null,
    "office_name_kana": null
  },
  "0821": {
    "zip_code": "5690821",
    "prefecture": "大阪府",
    "prefecture_kana": "オオサカフ",
    "prefecture_code": "27",
    "city": "高槻市",
    "city_kana": "タカツキシ",
    "town": "津之江北町",
    "town_kana": "ツノエキタマチ",
    "street": null,
    "office_name": null,
    "office_name_kana": null
  },
  "0822": {
    "zip_code": "5690822",
    "prefecture": "大阪府",
    "prefecture_kana": "オオサカフ",
    "prefecture_code": "27",
    "city": "高槻市",
    "city_kana": "タカツキシ",
    "town": "津之江町",
    "town_kana": "ツノエチョウ",
    "street": null,
    "office_name": null,
    "office_name_kana": null
  },
  "0823": {
    "zip_code": "5690823",
    "prefecture": "大阪府",
    "prefecture_kana": "オオサカフ",
    "prefecture_code": "27",
    "city": "高槻市",
    "city_kana": "タカツキシ",
    "town": "芝生町",
    "town_kana": "シボチョウ",
    "street": null,
    "office_name": null,
    "office_name_kana": null
  },
  "0824": {
    "zip_code": "5690824",
    "prefecture": "大阪府",
    "prefecture_kana": "オオサカフ",
    "prefecture_code": "27",
    "city": "高槻市",
    "city_kana": "タカツキシ",
    "town": "川添",
    "town_kana": "カワゾエ",
    "street": null,
    "office_name": null,
    "office_name_kana": null
  },
  "0825": {
    "zip_code": "5690825",
    "prefecture": "大阪府",
    "prefecture_kana": "オオサカフ",
    "prefecture_code": "27",
    "city": "高槻市",
    "city_kana": "タカツキシ",
    "town": "栄町",
    "town_kana": "サカエマチ",
    "street": null,
    "office_name": null,
    "office_name_kana": null
  },
  "0826": {
    "zip_code": "5690826",
    "prefecture": "大阪府",
    "prefecture_kana": "オオサカフ",
    "prefecture_code": "27",
    "city": "高槻市",
    "city_kana": "タカツキシ",
    "town": "寿町",
    "town_kana": "コトブキチョウ",
    "street": null,
    "office_name": null,
    "office_name_kana": null
  },
  "0827": {
    "zip_code": "5690827",
    "prefecture": "大阪府",
    "prefecture_kana": "オオサカフ",
    "prefecture_code": "27",
    "city": "高槻市",
    "city_kana": "タカツキシ",
    "town": "如是町",
    "town_kana": "ニョゼチョウ",
    "street": null,
    "office_name": null,
    "office_name_kana": null
  },
  "0831": {
    "zip_code": "5690831",
    "prefecture": "大阪府",
    "prefecture_kana": "オオサカフ",
    "prefecture_code": "27",
    "city": "高槻市",
    "city_kana": "タカツキシ",
    "town": "唐崎北",
    "town_kana": "カラサキキタ",
    "street": null,
    "office_name": null,
    "office_name_kana": null
  },
  "0832": {
    "zip_code": "5690832",
    "prefecture": "大阪府",
    "prefecture_kana": "オオサカフ",
    "prefecture_code": "27",
    "city": "高槻市",
    "city_kana": "タカツキシ",
    "town": "唐崎中",
    "town_kana": "カラサキナカ",
    "street": null,
    "office_name": null,
    "office_name_kana": null
  },
  "0833": {
    "zip_code": "5690833",
    "prefecture": "大阪府",
    "prefecture_kana": "オオサカフ",
    "prefecture_code": "27",
    "city": "高槻市",
    "city_kana": "タカツキシ",
    "town": "唐崎南",
    "town_kana": "カラサキミナミ",
    "street": null,
    "office_name": null,
    "office_name_kana": null
  },
  "0834": {
    "zip_code": "5690834",
    "prefecture": "大阪府",
    "prefecture_kana": "オオサカフ",
    "prefecture_code": "27",
    "city": "高槻市",
    "city_kana": "タカツキシ",
    "town": "唐崎",
    "town_kana": "カラサキ",
    "street": null,
    "office_name": null,
    "office_name_kana": null
  },
  "0835": {
    "zip_code": "5690835",
    "prefecture": "大阪府",
    "prefecture_kana": "オオサカフ",
    "prefecture_code": "27",
    "city": "高槻市",
    "city_kana": "タカツキシ",
    "town": "三島江",
    "town_kana": "ミシマエ",
    "street": null,
    "office_name": null,
    "office_name_kana": null
  },
  "0836": {
    "zip_code": "5690836",
    "prefecture": "大阪府",
    "prefecture_kana": "オオサカフ",
    "prefecture_code": "27",
    "city": "高槻市",
    "city_kana": "タカツキシ",
    "town": "唐崎西",
    "town_kana": "カラサキニシ",
    "street": null,
    "office_name": null,
    "office_name_kana": null
  },
  "0841": {
    "zip_code": "5690841",
    "prefecture": "大阪府",
    "prefecture_kana": "オオサカフ",
    "prefecture_code": "27",
    "city": "高槻市",
    "city_kana": "タカツキシ",
    "town": "西面北",
    "town_kana": "サイメキタ",
    "street": null,
    "office_name": null,
    "office_name_kana": null
  },
  "0842": {
    "zip_code": "5690842",
    "prefecture": "大阪府",
    "prefecture_kana": "オオサカフ",
    "prefecture_code": "27",
    "city": "高槻市",
    "city_kana": "タカツキシ",
    "town": "西面中",
    "town_kana": "サイメナカ",
    "street": null,
    "office_name": null,
    "office_name_kana": null
  },
  "0843": {
    "zip_code": "5690843",
    "prefecture": "大阪府",
    "prefecture_kana": "オオサカフ",
    "prefecture_code": "27",
    "city": "高槻市",
    "city_kana": "タカツキシ",
    "town": "三箇牧",
    "town_kana": "サンガマキ",
    "street": null,
    "office_name": null,
    "office_name_kana": null
  },
  "0844": {
    "zip_code": "5690844",
    "prefecture": "大阪府",
    "prefecture_kana": "オオサカフ",
    "prefecture_code": "27",
    "city": "高槻市",
    "city_kana": "タカツキシ",
    "town": "柱本",
    "town_kana": "ハシラモト",
    "street": null,
    "office_name": null,
    "office_name_kana": null
  },
  "0845": {
    "zip_code": "5690845",
    "prefecture": "大阪府",
    "prefecture_kana": "オオサカフ",
    "prefecture_code": "27",
    "city": "高槻市",
    "city_kana": "タカツキシ",
    "town": "柱本南町",
    "town_kana": "ハシラモトミナミマチ",
    "street": null,
    "office_name": null,
    "office_name_kana": null
  },
  "0846": {
    "zip_code": "5690846",
    "prefecture": "大阪府",
    "prefecture_kana": "オオサカフ",
    "prefecture_code": "27",
    "city": "高槻市",
    "city_kana": "タカツキシ",
    "town": "柱本新町",
    "town_kana": "ハシラモトシンマチ",
    "street": null,
    "office_name": null,
    "office_name_kana": null
  },
  "0847": {
    "zip_code": "5690847",
    "prefecture": "大阪府",
    "prefecture_kana": "オオサカフ",
    "prefecture_code": "27",
    "city": "高槻市",
    "city_kana": "タカツキシ",
    "town": "西面南",
    "town_kana": "サイメミナミ",
    "street": null,
    "office_name": null,
    "office_name_kana": null
  },
  "0851": {
    "zip_code": "5690851",
    "prefecture": "大阪府",
    "prefecture_kana": "オオサカフ",
    "prefecture_code": "27",
    "city": "高槻市",
    "city_kana": "タカツキシ",
    "town": "南総持寺町",
    "town_kana": "ミナミソウジジチョウ",
    "street": null,
    "office_name": null,
    "office_name_kana": null
  },
  "0852": {
    "zip_code": "5690852",
    "prefecture": "大阪府",
    "prefecture_kana": "オオサカフ",
    "prefecture_code": "27",
    "city": "高槻市",
    "city_kana": "タカツキシ",
    "town": "北柳川町",
    "town_kana": "キタヤナガワチョウ",
    "street": null,
    "office_name": null,
    "office_name_kana": null
  },
  "0853": {
    "zip_code": "5690853",
    "prefecture": "大阪府",
    "prefecture_kana": "オオサカフ",
    "prefecture_code": "27",
    "city": "高槻市",
    "city_kana": "タカツキシ",
    "town": "柳川町",
    "town_kana": "ヤナガワチョウ",
    "street": null,
    "office_name": null,
    "office_name_kana": null
  },
  "0854": {
    "zip_code": "5690854",
    "prefecture": "大阪府",
    "prefecture_kana": "オオサカフ",
    "prefecture_code": "27",
    "city": "高槻市",
    "city_kana": "タカツキシ",
    "town": "西町",
    "town_kana": "ニシマチ",
    "street": null,
    "office_name": null,
    "office_name_kana": null
  },
  "0855": {
    "zip_code": "5690855",
    "prefecture": "大阪府",
    "prefecture_kana": "オオサカフ",
    "prefecture_code": "27",
    "city": "高槻市",
    "city_kana": "タカツキシ",
    "town": "牧田町",
    "town_kana": "マキタチョウ",
    "street": null,
    "office_name": null,
    "office_name_kana": null
  },
  "0856": {
    "zip_code": "5690856",
    "prefecture": "大阪府",
    "prefecture_kana": "オオサカフ",
    "prefecture_code": "27",
    "city": "高槻市",
    "city_kana": "タカツキシ",
    "town": "玉川新町",
    "town_kana": "タマガワシンマチ",
    "street": null,
    "office_name": null,
    "office_name_kana": null
  },
  "0857": {
    "zip_code": "5690857",
    "prefecture": "大阪府",
    "prefecture_kana": "オオサカフ",
    "prefecture_code": "27",
    "city": "高槻市",
    "city_kana": "タカツキシ",
    "town": "玉川",
    "town_kana": "タマガワ",
    "street": null,
    "office_name": null,
    "office_name_kana": null
  },
  "1001": {
    "zip_code": "5691001",
    "prefecture": "大阪府",
    "prefecture_kana": "オオサカフ",
    "prefecture_code": "27",
    "city": "高槻市",
    "city_kana": "タカツキシ",
    "town": "中畑",
    "town_kana": "ナカハタ",
    "street": null,
    "office_name": null,
    "office_name_kana": null
  },
  "1002": {
    "zip_code": "5691002",
    "prefecture": "大阪府",
    "prefecture_kana": "オオサカフ",
    "prefecture_code": "27",
    "city": "高槻市",
    "city_kana": "タカツキシ",
    "town": "田能",
    "town_kana": "タノウ",
    "street": null,
    "office_name": null,
    "office_name_kana": null
  },
  "1003": {
    "zip_code": "5691003",
    "prefecture": "大阪府",
    "prefecture_kana": "オオサカフ",
    "prefecture_code": "27",
    "city": "高槻市",
    "city_kana": "タカツキシ",
    "town": "出灰",
    "town_kana": "イズリハ",
    "street": null,
    "office_name": null,
    "office_name_kana": null
  },
  "1004": {
    "zip_code": "5691004",
    "prefecture": "大阪府",
    "prefecture_kana": "オオサカフ",
    "prefecture_code": "27",
    "city": "高槻市",
    "city_kana": "タカツキシ",
    "town": "二料",
    "town_kana": "ニリョウ",
    "street": null,
    "office_name": null,
    "office_name_kana": null
  },
  "1005": {
    "zip_code": "5691005",
    "prefecture": "大阪府",
    "prefecture_kana": "オオサカフ",
    "prefecture_code": "27",
    "city": "高槻市",
    "city_kana": "タカツキシ",
    "town": "杉生",
    "town_kana": "スギオ",
    "street": null,
    "office_name": null,
    "office_name_kana": null
  },
  "1011": {
    "zip_code": "5691011",
    "prefecture": "大阪府",
    "prefecture_kana": "オオサカフ",
    "prefecture_code": "27",
    "city": "高槻市",
    "city_kana": "タカツキシ",
    "town": "川久保",
    "town_kana": "カワクボ",
    "street": null,
    "office_name": null,
    "office_name_kana": null
  },
  "1012": {
    "zip_code": "5691012",
    "prefecture": "大阪府",
    "prefecture_kana": "オオサカフ",
    "prefecture_code": "27",
    "city": "高槻市",
    "city_kana": "タカツキシ",
    "town": "成合",
    "town_kana": "ナリアイ",
    "street": null,
    "office_name": null,
    "office_name_kana": null
  },
  "1013": {
    "zip_code": "5691013",
    "prefecture": "大阪府",
    "prefecture_kana": "オオサカフ",
    "prefecture_code": "27",
    "city": "高槻市",
    "city_kana": "タカツキシ",
    "town": "成合南の町",
    "town_kana": "ナリアイミナミノチョウ",
    "street": null,
    "office_name": null,
    "office_name_kana": null
  },
  "1014": {
    "zip_code": "5691014",
    "prefecture": "大阪府",
    "prefecture_kana": "オオサカフ",
    "prefecture_code": "27",
    "city": "高槻市",
    "city_kana": "タカツキシ",
    "town": "成合東の町",
    "town_kana": "ナリアイヒガシノチョウ",
    "street": null,
    "office_name": null,
    "office_name_kana": null
  },
  "1015": {
    "zip_code": "5691015",
    "prefecture": "大阪府",
    "prefecture_kana": "オオサカフ",
    "prefecture_code": "27",
    "city": "高槻市",
    "city_kana": "タカツキシ",
    "town": "成合中の町",
    "town_kana": "ナリアイナカノチョウ",
    "street": null,
    "office_name": null,
    "office_name_kana": null
  },
  "1016": {
    "zip_code": "5691016",
    "prefecture": "大阪府",
    "prefecture_kana": "オオサカフ",
    "prefecture_code": "27",
    "city": "高槻市",
    "city_kana": "タカツキシ",
    "town": "成合西の町",
    "town_kana": "ナリアイニシノチョウ",
    "street": null,
    "office_name": null,
    "office_name_kana": null
  },
  "1017": {
    "zip_code": "5691017",
    "prefecture": "大阪府",
    "prefecture_kana": "オオサカフ",
    "prefecture_code": "27",
    "city": "高槻市",
    "city_kana": "タカツキシ",
    "town": "成合北の町",
    "town_kana": "ナリアイキタノチョウ",
    "street": null,
    "office_name": null,
    "office_name_kana": null
  },
  "1018": {
    "zip_code": "5691018",
    "prefecture": "大阪府",
    "prefecture_kana": "オオサカフ",
    "prefecture_code": "27",
    "city": "高槻市",
    "city_kana": "タカツキシ",
    "town": "花林苑",
    "town_kana": "カリンエン",
    "street": null,
    "office_name": null,
    "office_name_kana": null
  },
  "1020": {
    "zip_code": "5691020",
    "prefecture": "大阪府",
    "prefecture_kana": "オオサカフ",
    "prefecture_code": "27",
    "city": "高槻市",
    "city_kana": "タカツキシ",
    "town": "高見台",
    "town_kana": "タカミダイ",
    "street": null,
    "office_name": null,
    "office_name_kana": null
  },
  "1021": {
    "zip_code": "5691021",
    "prefecture": "大阪府",
    "prefecture_kana": "オオサカフ",
    "prefecture_code": "27",
    "city": "高槻市",
    "city_kana": "タカツキシ",
    "town": "弥生が丘町",
    "town_kana": "ヤヨイガオカチョウ",
    "street": null,
    "office_name": null,
    "office_name_kana": null
  },
  "1022": {
    "zip_code": "5691022",
    "prefecture": "大阪府",
    "prefecture_kana": "オオサカフ",
    "prefecture_code": "27",
    "city": "高槻市",
    "city_kana": "タカツキシ",
    "town": "日吉台",
    "town_kana": "ヒヨシダイ",
    "street": null,
    "office_name": null,
    "office_name_kana": null
  },
  "1023": {
    "zip_code": "5691023",
    "prefecture": "大阪府",
    "prefecture_kana": "オオサカフ",
    "prefecture_code": "27",
    "city": "高槻市",
    "city_kana": "タカツキシ",
    "town": "宮が谷町",
    "town_kana": "ミヤガダニチョウ",
    "street": null,
    "office_name": null,
    "office_name_kana": null
  },
  "1024": {
    "zip_code": "5691024",
    "prefecture": "大阪府",
    "prefecture_kana": "オオサカフ",
    "prefecture_code": "27",
    "city": "高槻市",
    "city_kana": "タカツキシ",
    "town": "寺谷町",
    "town_kana": "テラタニチョウ",
    "street": null,
    "office_name": null,
    "office_name_kana": null
  },
  "1025": {
    "zip_code": "5691025",
    "prefecture": "大阪府",
    "prefecture_kana": "オオサカフ",
    "prefecture_code": "27",
    "city": "高槻市",
    "city_kana": "タカツキシ",
    "town": "芝谷町",
    "town_kana": "シバタニチョウ",
    "street": null,
    "office_name": null,
    "office_name_kana": null
  },
  "1026": {
    "zip_code": "5691026",
    "prefecture": "大阪府",
    "prefecture_kana": "オオサカフ",
    "prefecture_code": "27",
    "city": "高槻市",
    "city_kana": "タカツキシ",
    "town": "緑が丘",
    "town_kana": "ミドリガオカ",
    "street": null,
    "office_name": null,
    "office_name_kana": null
  },
  "1027": {
    "zip_code": "5691027",
    "prefecture": "大阪府",
    "prefecture_kana": "オオサカフ",
    "prefecture_code": "27",
    "city": "高槻市",
    "city_kana": "タカツキシ",
    "town": "浦堂",
    "town_kana": "ウラドウ",
    "street": null,
    "office_name": null,
    "office_name_kana": null
  },
  "1028": {
    "zip_code": "5691028",
    "prefecture": "大阪府",
    "prefecture_kana": "オオサカフ",
    "prefecture_code": "27",
    "city": "高槻市",
    "city_kana": "タカツキシ",
    "town": "浦堂本町",
    "town_kana": "ウラドウホンマチ",
    "street": null,
    "office_name": null,
    "office_name_kana": null
  },
  "1029": {
    "zip_code": "5691029",
    "prefecture": "大阪府",
    "prefecture_kana": "オオサカフ",
    "prefecture_code": "27",
    "city": "高槻市",
    "city_kana": "タカツキシ",
    "town": "安岡寺町",
    "town_kana": "アンコウジチョウ",
    "street": null,
    "office_name": null,
    "office_name_kana": null
  },
  "1031": {
    "zip_code": "5691031",
    "prefecture": "大阪府",
    "prefecture_kana": "オオサカフ",
    "prefecture_code": "27",
    "city": "高槻市",
    "city_kana": "タカツキシ",
    "town": "松が丘",
    "town_kana": "マツガオカ",
    "street": null,
    "office_name": null,
    "office_name_kana": null
  },
  "1032": {
    "zip_code": "5691032",
    "prefecture": "大阪府",
    "prefecture_kana": "オオサカフ",
    "prefecture_code": "27",
    "city": "高槻市",
    "city_kana": "タカツキシ",
    "town": "宮之川原",
    "town_kana": "ミヤノカワラ",
    "street": null,
    "office_name": null,
    "office_name_kana": null
  },
  "1033": {
    "zip_code": "5691033",
    "prefecture": "大阪府",
    "prefecture_kana": "オオサカフ",
    "prefecture_code": "27",
    "city": "高槻市",
    "city_kana": "タカツキシ",
    "town": "宮之川原元町",
    "town_kana": "ミヤノカワラモトマチ",
    "street": null,
    "office_name": null,
    "office_name_kana": null
  },
  "1034": {
    "zip_code": "5691034",
    "prefecture": "大阪府",
    "prefecture_kana": "オオサカフ",
    "prefecture_code": "27",
    "city": "高槻市",
    "city_kana": "タカツキシ",
    "town": "大蔵司",
    "town_kana": "ダイゾウジ",
    "street": null,
    "office_name": null,
    "office_name_kana": null
  },
  "1035": {
    "zip_code": "5691035",
    "prefecture": "大阪府",
    "prefecture_kana": "オオサカフ",
    "prefecture_code": "27",
    "city": "高槻市",
    "city_kana": "タカツキシ",
    "town": "西之川原",
    "town_kana": "ニシノカワラ",
    "street": null,
    "office_name": null,
    "office_name_kana": null
  },
  "1036": {
    "zip_code": "5691036",
    "prefecture": "大阪府",
    "prefecture_kana": "オオサカフ",
    "prefecture_code": "27",
    "city": "高槻市",
    "city_kana": "タカツキシ",
    "town": "塚脇",
    "town_kana": "ツカワキ",
    "street": null,
    "office_name": null,
    "office_name_kana": null
  },
  "1037": {
    "zip_code": "5691037",
    "prefecture": "大阪府",
    "prefecture_kana": "オオサカフ",
    "prefecture_code": "27",
    "city": "高槻市",
    "city_kana": "タカツキシ",
    "town": "東城山町",
    "town_kana": "ヒガシシロヤマチョウ",
    "street": null,
    "office_name": null,
    "office_name_kana": null
  },
  "1038": {
    "zip_code": "5691038",
    "prefecture": "大阪府",
    "prefecture_kana": "オオサカフ",
    "prefecture_code": "27",
    "city": "高槻市",
    "city_kana": "タカツキシ",
    "town": "黄金の里",
    "town_kana": "コガネノサト",
    "street": null,
    "office_name": null,
    "office_name_kana": null
  },
  "1039": {
    "zip_code": "5691039",
    "prefecture": "大阪府",
    "prefecture_kana": "オオサカフ",
    "prefecture_code": "27",
    "city": "高槻市",
    "city_kana": "タカツキシ",
    "town": "清水台",
    "town_kana": "シミズダイ",
    "street": null,
    "office_name": null,
    "office_name_kana": null
  },
  "1041": {
    "zip_code": "5691041",
    "prefecture": "大阪府",
    "prefecture_kana": "オオサカフ",
    "prefecture_code": "27",
    "city": "高槻市",
    "city_kana": "タカツキシ",
    "town": "奈佐原",
    "town_kana": "ナサハラ",
    "street": null,
    "office_name": null,
    "office_name_kana": null
  },
  "1042": {
    "zip_code": "5691042",
    "prefecture": "大阪府",
    "prefecture_kana": "オオサカフ",
    "prefecture_code": "27",
    "city": "高槻市",
    "city_kana": "タカツキシ",
    "town": "南平台",
    "town_kana": "ナンペイダイ",
    "street": null,
    "office_name": null,
    "office_name_kana": null
  },
  "1043": {
    "zip_code": "5691043",
    "prefecture": "大阪府",
    "prefecture_kana": "オオサカフ",
    "prefecture_code": "27",
    "city": "高槻市",
    "city_kana": "タカツキシ",
    "town": "奈佐原元町",
    "town_kana": "ナサハラモトマチ",
    "street": null,
    "office_name": null,
    "office_name_kana": null
  },
  "1044": {
    "zip_code": "5691044",
    "prefecture": "大阪府",
    "prefecture_kana": "オオサカフ",
    "prefecture_code": "27",
    "city": "高槻市",
    "city_kana": "タカツキシ",
    "town": "上土室",
    "town_kana": "カミハムロ",
    "street": null,
    "office_name": null,
    "office_name_kana": null
  },
  "1045": {
    "zip_code": "5691045",
    "prefecture": "大阪府",
    "prefecture_kana": "オオサカフ",
    "prefecture_code": "27",
    "city": "高槻市",
    "city_kana": "タカツキシ",
    "town": "阿武野",
    "town_kana": "アブノ",
    "street": null,
    "office_name": null,
    "office_name_kana": null
  },
  "1046": {
    "zip_code": "5691046",
    "prefecture": "大阪府",
    "prefecture_kana": "オオサカフ",
    "prefecture_code": "27",
    "city": "高槻市",
    "city_kana": "タカツキシ",
    "town": "塚原",
    "town_kana": "ツカハラ",
    "street": null,
    "office_name": null,
    "office_name_kana": null
  },
  "1047": {
    "zip_code": "5691047",
    "prefecture": "大阪府",
    "prefecture_kana": "オオサカフ",
    "prefecture_code": "27",
    "city": "高槻市",
    "city_kana": "タカツキシ",
    "town": "大和",
    "town_kana": "ダイワ",
    "street": null,
    "office_name": null,
    "office_name_kana": null
  },
  "1051": {
    "zip_code": "5691051",
    "prefecture": "大阪府",
    "prefecture_kana": "オオサカフ",
    "prefecture_code": "27",
    "city": "高槻市",
    "city_kana": "タカツキシ",
    "town": "原",
    "town_kana": "ハラ",
    "street": null,
    "office_name": null,
    "office_name_kana": null
  },
  "1052": {
    "zip_code": "5691052",
    "prefecture": "大阪府",
    "prefecture_kana": "オオサカフ",
    "prefecture_code": "27",
    "city": "高槻市",
    "city_kana": "タカツキシ",
    "town": "霊仙寺町",
    "town_kana": "リョウゼンジチョウ",
    "street": null,
    "office_name": null,
    "office_name_kana": null
  },
  "1053": {
    "zip_code": "5691053",
    "prefecture": "大阪府",
    "prefecture_kana": "オオサカフ",
    "prefecture_code": "27",
    "city": "高槻市",
    "city_kana": "タカツキシ",
    "town": "萩谷月見台",
    "town_kana": "ハギタニツキミダイ",
    "street": null,
    "office_name": null,
    "office_name_kana": null
  },
  "1054": {
    "zip_code": "5691054",
    "prefecture": "大阪府",
    "prefecture_kana": "オオサカフ",
    "prefecture_code": "27",
    "city": "高槻市",
    "city_kana": "タカツキシ",
    "town": "萩谷",
    "town_kana": "ハギタニ",
    "street": null,
    "office_name": null,
    "office_name_kana": null
  },
  "1092": {
    "zip_code": "5691092",
    "prefecture": "大阪府",
    "prefecture_kana": "オオサカフ",
    "prefecture_code": "27",
    "city": "高槻市",
    "city_kana": "タカツキシ",
    "town": "南平台",
    "town_kana": "ナンペイダイ",
    "street": "５丁目８１−１",
    "office_name": "平安女学院大学",
    "office_name_kana": "ヘイアンジヨガクインダイガク"
  },
  "1094": {
    "zip_code": "5691094",
    "prefecture": "大阪府",
    "prefecture_kana": "オオサカフ",
    "prefecture_code": "27",
    "city": "高槻市",
    "city_kana": "タカツキシ",
    "town": "奈佐原",
    "town_kana": "ナサハラ",
    "street": "４丁目２０−１",
    "office_name": "大阪薬科大学",
    "office_name_kana": "オオサカヤツカダイガク"
  },
  "1095": {
    "zip_code": "5691095",
    "prefecture": "大阪府",
    "prefecture_kana": "オオサカフ",
    "prefecture_code": "27",
    "city": "高槻市",
    "city_kana": "タカツキシ",
    "town": "霊仙寺町",
    "town_kana": "リョウゼンジチョウ",
    "street": "２丁目１−１",
    "office_name": "関西大学　高槻キャンパス",
    "office_name_kana": "カンサイダイガク タカツキキヤンパス"
  },
  "1096": {
    "zip_code": "5691096",
    "prefecture": "大阪府",
    "prefecture_kana": "オオサカフ",
    "prefecture_code": "27",
    "city": "高槻市",
    "city_kana": "タカツキシ",
    "town": "阿武野",
    "town_kana": "アブノ",
    "street": "１丁目１−１",
    "office_name": "高槻赤十字病院",
    "office_name_kana": "タカツキセキジユウジビヨウイン"
  },
  "1098": {
    "zip_code": "5691098",
    "prefecture": "大阪府",
    "prefecture_kana": "オオサカフ",
    "prefecture_code": "27",
    "city": "高槻市",
    "city_kana": "タカツキシ",
    "town": "白梅町",
    "town_kana": "ハクバイチョウ",
    "street": "７−１",
    "office_name": "関西大学　高槻ミューズキャンパス",
    "office_name_kana": "カンサイダイガク タカツキミユ-ズキヤンパス"
  },
  "1101": {
    "zip_code": "5691101",
    "prefecture": "大阪府",
    "prefecture_kana": "オオサカフ",
    "prefecture_code": "27",
    "city": "高槻市",
    "city_kana": "タカツキシ",
    "town": "安満御所の町",
    "town_kana": "アマゴショノチョウ",
    "street": null,
    "office_name": null,
    "office_name_kana": null
  },
  "1102": {
    "zip_code": "5691102",
    "prefecture": "大阪府",
    "prefecture_kana": "オオサカフ",
    "prefecture_code": "27",
    "city": "高槻市",
    "city_kana": "タカツキシ",
    "town": "安満磐手町",
    "town_kana": "アマイワテチョウ",
    "street": null,
    "office_name": null,
    "office_name_kana": null
  },
  "1103": {
    "zip_code": "5691103",
    "prefecture": "大阪府",
    "prefecture_kana": "オオサカフ",
    "prefecture_code": "27",
    "city": "高槻市",
    "city_kana": "タカツキシ",
    "town": "山手町",
    "town_kana": "ヤマテチョウ",
    "street": null,
    "office_name": null,
    "office_name_kana": null
  },
  "1104": {
    "zip_code": "5691104",
    "prefecture": "大阪府",
    "prefecture_kana": "オオサカフ",
    "prefecture_code": "27",
    "city": "高槻市",
    "city_kana": "タカツキシ",
    "town": "安満東の町",
    "town_kana": "アマヒガシノチョウ",
    "street": null,
    "office_name": null,
    "office_name_kana": null
  },
  "1105": {
    "zip_code": "5691105",
    "prefecture": "大阪府",
    "prefecture_kana": "オオサカフ",
    "prefecture_code": "27",
    "city": "高槻市",
    "city_kana": "タカツキシ",
    "town": "安満中の町",
    "town_kana": "アマナカノチョウ",
    "street": null,
    "office_name": null,
    "office_name_kana": null
  },
  "1106": {
    "zip_code": "5691106",
    "prefecture": "大阪府",
    "prefecture_kana": "オオサカフ",
    "prefecture_code": "27",
    "city": "高槻市",
    "city_kana": "タカツキシ",
    "town": "安満新町",
    "town_kana": "アマシンマチ",
    "street": null,
    "office_name": null,
    "office_name_kana": null
  },
  "1107": {
    "zip_code": "5691107",
    "prefecture": "大阪府",
    "prefecture_kana": "オオサカフ",
    "prefecture_code": "27",
    "city": "高槻市",
    "city_kana": "タカツキシ",
    "town": "安満西の町",
    "town_kana": "アマニシノチョウ",
    "street": null,
    "office_name": null,
    "office_name_kana": null
  },
  "1108": {
    "zip_code": "5691108",
    "prefecture": "大阪府",
    "prefecture_kana": "オオサカフ",
    "prefecture_code": "27",
    "city": "高槻市",
    "city_kana": "タカツキシ",
    "town": "安満北の町",
    "town_kana": "アマキタノチョウ",
    "street": null,
    "office_name": null,
    "office_name_kana": null
  },
  "1109": {
    "zip_code": "5691109",
    "prefecture": "大阪府",
    "prefecture_kana": "オオサカフ",
    "prefecture_code": "27",
    "city": "高槻市",
    "city_kana": "タカツキシ",
    "town": "紅茸町",
    "town_kana": "ベニタケチョウ",
    "street": null,
    "office_name": null,
    "office_name_kana": null
  },
  "1111": {
    "zip_code": "5691111",
    "prefecture": "大阪府",
    "prefecture_kana": "オオサカフ",
    "prefecture_code": "27",
    "city": "高槻市",
    "city_kana": "タカツキシ",
    "town": "美しが丘",
    "town_kana": "ウツクシガオカ",
    "street": null,
    "office_name": null,
    "office_name_kana": null
  },
  "1112": {
    "zip_code": "5691112",
    "prefecture": "大阪府",
    "prefecture_kana": "オオサカフ",
    "prefecture_code": "27",
    "city": "高槻市",
    "city_kana": "タカツキシ",
    "town": "別所本町",
    "town_kana": "ベッショホンマチ",
    "street": null,
    "office_name": null,
    "office_name_kana": null
  },
  "1113": {
    "zip_code": "5691113",
    "prefecture": "大阪府",
    "prefecture_kana": "オオサカフ",
    "prefecture_code": "27",
    "city": "高槻市",
    "city_kana": "タカツキシ",
    "town": "別所中の町",
    "town_kana": "ベッシヨナカノチョウ",
    "street": null,
    "office_name": null,
    "office_name_kana": null
  },
  "1114": {
    "zip_code": "5691114",
    "prefecture": "大阪府",
    "prefecture_kana": "オオサカフ",
    "prefecture_code": "27",
    "city": "高槻市",
    "city_kana": "タカツキシ",
    "town": "別所新町",
    "town_kana": "ベッシヨシンマチ",
    "street": null,
    "office_name": null,
    "office_name_kana": null
  },
  "1115": {
    "zip_code": "5691115",
    "prefecture": "大阪府",
    "prefecture_kana": "オオサカフ",
    "prefecture_code": "27",
    "city": "高槻市",
    "city_kana": "タカツキシ",
    "town": "古曽部町",
    "town_kana": "コソベチョウ",
    "street": null,
    "office_name": null,
    "office_name_kana": null
  },
  "1116": {
    "zip_code": "5691116",
    "prefecture": "大阪府",
    "prefecture_kana": "オオサカフ",
    "prefecture_code": "27",
    "city": "高槻市",
    "city_kana": "タカツキシ",
    "town": "白梅町",
    "town_kana": "ハクバイチョウ",
    "street": null,
    "office_name": null,
    "office_name_kana": null
  },
  "1117": {
    "zip_code": "5691117",
    "prefecture": "大阪府",
    "prefecture_kana": "オオサカフ",
    "prefecture_code": "27",
    "city": "高槻市",
    "city_kana": "タカツキシ",
    "town": "天神町",
    "town_kana": "テンジンマチ",
    "street": null,
    "office_name": null,
    "office_name_kana": null
  },
  "1118": {
    "zip_code": "5691118",
    "prefecture": "大阪府",
    "prefecture_kana": "オオサカフ",
    "prefecture_code": "27",
    "city": "高槻市",
    "city_kana": "タカツキシ",
    "town": "奥天神町",
    "town_kana": "オクテンジンチョウ",
    "street": null,
    "office_name": null,
    "office_name_kana": null
  },
  "1121": {
    "zip_code": "5691121",
    "prefecture": "大阪府",
    "prefecture_kana": "オオサカフ",
    "prefecture_code": "27",
    "city": "高槻市",
    "city_kana": "タカツキシ",
    "town": "真上町",
    "town_kana": "マカミチョウ",
    "street": null,
    "office_name": null,
    "office_name_kana": null
  },
  "1122": {
    "zip_code": "5691122",
    "prefecture": "大阪府",
    "prefecture_kana": "オオサカフ",
    "prefecture_code": "27",
    "city": "高槻市",
    "city_kana": "タカツキシ",
    "town": "月見町",
    "town_kana": "ツキミチョウ",
    "street": null,
    "office_name": null,
    "office_name_kana": null
  },
  "1123": {
    "zip_code": "5691123",
    "prefecture": "大阪府",
    "prefecture_kana": "オオサカフ",
    "prefecture_code": "27",
    "city": "高槻市",
    "city_kana": "タカツキシ",
    "town": "芥川町",
    "town_kana": "アクタガワチョウ",
    "street": null,
    "office_name": null,
    "office_name_kana": null
  },
  "1124": {
    "zip_code": "5691124",
    "prefecture": "大阪府",
    "prefecture_kana": "オオサカフ",
    "prefecture_code": "27",
    "city": "高槻市",
    "city_kana": "タカツキシ",
    "town": "南芥川町",
    "town_kana": "ミナミアクタガワチョウ",
    "street": null,
    "office_name": null,
    "office_name_kana": null
  },
  "1125": {
    "zip_code": "5691125",
    "prefecture": "大阪府",
    "prefecture_kana": "オオサカフ",
    "prefecture_code": "27",
    "city": "高槻市",
    "city_kana": "タカツキシ",
    "town": "紫町",
    "town_kana": "ムラサキチョウ",
    "street": null,
    "office_name": null,
    "office_name_kana": null
  },
  "1126": {
    "zip_code": "5691126",
    "prefecture": "大阪府",
    "prefecture_kana": "オオサカフ",
    "prefecture_code": "27",
    "city": "高槻市",
    "city_kana": "タカツキシ",
    "town": "殿町",
    "town_kana": "トノマチ",
    "street": null,
    "office_name": null,
    "office_name_kana": null
  },
  "1127": {
    "zip_code": "5691127",
    "prefecture": "大阪府",
    "prefecture_kana": "オオサカフ",
    "prefecture_code": "27",
    "city": "高槻市",
    "city_kana": "タカツキシ",
    "town": "西真上",
    "town_kana": "ニシマカミ",
    "street": null,
    "office_name": null,
    "office_name_kana": null
  },
  "1128": {
    "zip_code": "5691128",
    "prefecture": "大阪府",
    "prefecture_kana": "オオサカフ",
    "prefecture_code": "27",
    "city": "高槻市",
    "city_kana": "タカツキシ",
    "town": "名神町",
    "town_kana": "メイシンチョウ",
    "street": null,
    "office_name": null,
    "office_name_kana": null
  },
  "1131": {
    "zip_code": "5691131",
    "prefecture": "大阪府",
    "prefecture_kana": "オオサカフ",
    "prefecture_code": "27",
    "city": "高槻市",
    "city_kana": "タカツキシ",
    "town": "郡家本町",
    "town_kana": "グンゲホンマチ",
    "street": null,
    "office_name": null,
    "office_name_kana": null
  },
  "1132": {
    "zip_code": "5691132",
    "prefecture": "大阪府",
    "prefecture_kana": "オオサカフ",
    "prefecture_code": "27",
    "city": "高槻市",
    "city_kana": "タカツキシ",
    "town": "清福寺町",
    "town_kana": "セイフクジチョウ",
    "street": null,
    "office_name": null,
    "office_name_kana": null
  },
  "1133": {
    "zip_code": "5691133",
    "prefecture": "大阪府",
    "prefecture_kana": "オオサカフ",
    "prefecture_code": "27",
    "city": "高槻市",
    "city_kana": "タカツキシ",
    "town": "川西町",
    "town_kana": "カワニシチョウ",
    "street": null,
    "office_name": null,
    "office_name_kana": null
  },
  "1134": {
    "zip_code": "5691134",
    "prefecture": "大阪府",
    "prefecture_kana": "オオサカフ",
    "prefecture_code": "27",
    "city": "高槻市",
    "city_kana": "タカツキシ",
    "town": "朝日町",
    "town_kana": "アサヒマチ",
    "street": null,
    "office_name": null,
    "office_name_kana": null
  },
  "1135": {
    "zip_code": "5691135",
    "prefecture": "大阪府",
    "prefecture_kana": "オオサカフ",
    "prefecture_code": "27",
    "city": "高槻市",
    "city_kana": "タカツキシ",
    "town": "今城町",
    "town_kana": "イマシロチョウ",
    "street": null,
    "office_name": null,
    "office_name_kana": null
  },
  "1136": {
    "zip_code": "5691136",
    "prefecture": "大阪府",
    "prefecture_kana": "オオサカフ",
    "prefecture_code": "27",
    "city": "高槻市",
    "city_kana": "タカツキシ",
    "town": "郡家新町",
    "town_kana": "グンゲシンマチ",
    "street": null,
    "office_name": null,
    "office_name_kana": null
  },
  "1137": {
    "zip_code": "5691137",
    "prefecture": "大阪府",
    "prefecture_kana": "オオサカフ",
    "prefecture_code": "27",
    "city": "高槻市",
    "city_kana": "タカツキシ",
    "town": "岡本町",
    "town_kana": "オカモトチョウ",
    "street": null,
    "office_name": null,
    "office_name_kana": null
  },
  "1141": {
    "zip_code": "5691141",
    "prefecture": "大阪府",
    "prefecture_kana": "オオサカフ",
    "prefecture_code": "27",
    "city": "高槻市",
    "city_kana": "タカツキシ",
    "town": "氷室町",
    "town_kana": "ヒムロチョウ",
    "street": null,
    "office_name": null,
    "office_name_kana": null
  },
  "1142": {
    "zip_code": "5691142",
    "prefecture": "大阪府",
    "prefecture_kana": "オオサカフ",
    "prefecture_code": "27",
    "city": "高槻市",
    "city_kana": "タカツキシ",
    "town": "宮田町",
    "town_kana": "ミヤダチョウ",
    "street": null,
    "office_name": null,
    "office_name_kana": null
  },
  "1143": {
    "zip_code": "5691143",
    "prefecture": "大阪府",
    "prefecture_kana": "オオサカフ",
    "prefecture_code": "27",
    "city": "高槻市",
    "city_kana": "タカツキシ",
    "town": "幸町",
    "town_kana": "サイワイチョウ",
    "street": null,
    "office_name": null,
    "office_name_kana": null
  },
  "1144": {
    "zip_code": "5691144",
    "prefecture": "大阪府",
    "prefecture_kana": "オオサカフ",
    "prefecture_code": "27",
    "city": "高槻市",
    "city_kana": "タカツキシ",
    "town": "大畑町",
    "town_kana": "オオハタチョウ",
    "street": null,
    "office_name": null,
    "office_name_kana": null
  },
  "1145": {
    "zip_code": "5691145",
    "prefecture": "大阪府",
    "prefecture_kana": "オオサカフ",
    "prefecture_code": "27",
    "city": "高槻市",
    "city_kana": "タカツキシ",
    "town": "富田丘町",
    "town_kana": "トンダオカマチ",
    "street": null,
    "office_name": null,
    "office_name_kana": null
  },
  "1146": {
    "zip_code": "5691146",
    "prefecture": "大阪府",
    "prefecture_kana": "オオサカフ",
    "prefecture_code": "27",
    "city": "高槻市",
    "city_kana": "タカツキシ",
    "town": "赤大路町",
    "town_kana": "アカオオジチョウ",
    "street": null,
    "office_name": null,
    "office_name_kana": null
  },
  "1147": {
    "zip_code": "5691147",
    "prefecture": "大阪府",
    "prefecture_kana": "オオサカフ",
    "prefecture_code": "27",
    "city": "高槻市",
    "city_kana": "タカツキシ",
    "town": "土室町",
    "town_kana": "ハムロチョウ",
    "street": null,
    "office_name": null,
    "office_name_kana": null
  },
  "1192": {
    "zip_code": "5691192",
    "prefecture": "大阪府",
    "prefecture_kana": "オオサカフ",
    "prefecture_code": "27",
    "city": "高槻市",
    "city_kana": "タカツキシ",
    "town": "古曽部町",
    "town_kana": "コソベチョウ",
    "street": "１丁目３−１３",
    "office_name": "医療法人　愛仁会　高槻病院",
    "office_name_kana": "イリヨウホウジン アイジンカイ タカツキビヨウイン"
  },
  "1193": {
    "zip_code": "5691193",
    "prefecture": "大阪府",
    "prefecture_kana": "オオサカフ",
    "prefecture_code": "27",
    "city": "高槻市",
    "city_kana": "タカツキシ",
    "town": "幸町",
    "town_kana": "サイワイチョウ",
    "street": "１−１",
    "office_name": "松下電器産業　株式会社・松下東芝映像ディスプレイ　株式会社",
    "office_name_kana": "マツシタデンキサンギヨウ カブシキガイシヤ・マツシタトウシバエイゾウデイスプレイ カブシキガイシヤ"
  },
  "1194": {
    "zip_code": "5691194",
    "prefecture": "大阪府",
    "prefecture_kana": "オオサカフ",
    "prefecture_code": "27",
    "city": "高槻市",
    "city_kana": "タカツキシ",
    "town": "幸町",
    "town_kana": "サイワイチョウ",
    "street": "１−１",
    "office_name": "松下プラズマディスプレイ　株式会社",
    "office_name_kana": "マツシタプラズマデイスプレイ カブシキガイシヤ"
  },
  "1195": {
    "zip_code": "5691195",
    "prefecture": "大阪府",
    "prefecture_kana": "オオサカフ",
    "prefecture_code": "27",
    "city": "高槻市",
    "city_kana": "タカツキシ",
    "town": "朝日町",
    "town_kana": "アサヒマチ",
    "street": "３−１",
    "office_name": "サンスター　株式会社",
    "office_name_kana": "サンスタ- カブシキガイシヤ"
  },
  "1196": {
    "zip_code": "5691196",
    "prefecture": "大阪府",
    "prefecture_kana": "オオサカフ",
    "prefecture_code": "27",
    "city": "高槻市",
    "city_kana": "タカツキシ",
    "town": "白梅町",
    "town_kana": "ハクバイチョウ",
    "street": "４番１号",
    "office_name": "株式会社　西武百貨店　高槻店",
    "office_name_kana": "カブシキガイシヤ セイブヒヤツカテン タカツキテン"
  },
  "1197": {
    "zip_code": "5691197",
    "prefecture": "大阪府",
    "prefecture_kana": null,
    "prefecture_code": null,
    "city": "高槻市",
    "city_kana": null,
    "town": "大字奈佐原",
    "town_kana": null,
    "street": "１０−１０",
    "office_name": "医療法人　美喜和会　美喜和会オレンジホスピタル",
    "office_name_kana": "イリヨウホウジン ミキワカイ ミキワカイオレンジホスピタル"
  },
  "8501": {
    "zip_code": "5698501",
    "prefecture": "大阪府",
    "prefecture_kana": "オオサカフ",
    "prefecture_code": "27",
    "city": "高槻市",
    "city_kana": "タカツキシ",
    "town": "桃園町",
    "town_kana": "トウエンチョウ",
    "street": "２−１",
    "office_name": "高槻市役所",
    "office_name_kana": "タカツキシヤクシヨ"
  },
  "8503": {
    "zip_code": "5698503",
    "prefecture": "大阪府",
    "prefecture_kana": "オオサカフ",
    "prefecture_code": "27",
    "city": "高槻市",
    "city_kana": "タカツキシ",
    "town": "桜町",
    "town_kana": "サクラマチ",
    "street": "１−２",
    "office_name": "コニカミノルタ　高槻サイト",
    "office_name_kana": "コニカミノルタ タカツキサイト"
  },
  "8505": {
    "zip_code": "5698505",
    "prefecture": "大阪府",
    "prefecture_kana": "オオサカフ",
    "prefecture_code": "27",
    "city": "高槻市",
    "city_kana": "タカツキシ",
    "town": "沢良木町",
    "town_kana": "サワラギチョウ",
    "street": "２番５号",
    "office_name": "学校法人　大阪医科大学高槻高等学校",
    "office_name_kana": "ガツコウホウジン オオサカイカダイガクタカツキコウトウガツコウ"
  },
  "8510": {
    "zip_code": "5698510",
    "prefecture": "大阪府",
    "prefecture_kana": "オオサカフ",
    "prefecture_code": "27",
    "city": "高槻市",
    "city_kana": "タカツキシ",
    "town": "三島江",
    "town_kana": "ミシマエ",
    "street": "１丁目１−１",
    "office_name": "アルインコ　（株）",
    "office_name_kana": "アルインコ カブシキガイシヤ"
  },
  "8511": {
    "zip_code": "5698511",
    "prefecture": "大阪府",
    "prefecture_kana": "オオサカフ",
    "prefecture_code": "27",
    "city": "高槻市",
    "city_kana": "タカツキシ",
    "town": "沢良木町",
    "town_kana": "サワラギチョウ",
    "street": "１７−３",
    "office_name": "関西電力　（株）　高槻営業所",
    "office_name_kana": "カンサイデンリヨク (カブ) タカツキエイギヨウシヨ"
  },
  "8512": {
    "zip_code": "5698512",
    "prefecture": "大阪府",
    "prefecture_kana": "オオサカフ",
    "prefecture_code": "27",
    "city": "高槻市",
    "city_kana": "タカツキシ",
    "town": "大塚町",
    "town_kana": "オオツカチョウ",
    "street": "５丁目１−２",
    "office_name": "シンワ　（株）",
    "office_name_kana": "シンワ カブシキガイシヤ"
  },
  "8520": {
    "zip_code": "5698520",
    "prefecture": "大阪府",
    "prefecture_kana": "オオサカフ",
    "prefecture_code": "27",
    "city": "高槻市",
    "city_kana": "タカツキシ",
    "town": "大塚町",
    "town_kana": "オオツカチョウ",
    "street": "１丁目２−１２",
    "office_name": "（株）　日新化学研究所",
    "office_name_kana": "カブシキガイシヤ ニツシンカガクケンキユウシヨ"
  },
  "8522": {
    "zip_code": "5698522",
    "prefecture": "大阪府",
    "prefecture_kana": "オオサカフ",
    "prefecture_code": "27",
    "city": "高槻市",
    "city_kana": "タカツキシ",
    "town": "紺屋町",
    "town_kana": "コンヤマチ",
    "street": "２−１",
    "office_name": "（株）　松坂屋　高槻店",
    "office_name_kana": "カブシキガイシヤ マツザカヤ タカツキテン"
  },
  "8533": {
    "zip_code": "5698533",
    "prefecture": "大阪府",
    "prefecture_kana": "オオサカフ",
    "prefecture_code": "27",
    "city": "高槻市",
    "city_kana": "タカツキシ",
    "town": "辻子",
    "town_kana": "ズシ",
    "street": "１丁目１−３０",
    "office_name": "ムネカタ　（株）",
    "office_name_kana": "ムネカタ カブシキガイシヤ"
  },
  "8549": {
    "zip_code": "5698549",
    "prefecture": "大阪府",
    "prefecture_kana": "オオサカフ",
    "prefecture_code": "27",
    "city": "高槻市",
    "city_kana": "タカツキシ",
    "town": "大塚町",
    "town_kana": "オオツカチョウ",
    "street": "５丁目４−９",
    "office_name": "太陽エンジニヤ　（株）",
    "office_name_kana": "タイヨウエンジニヤ カブシキガイシヤ"
  },
  "8551": {
    "zip_code": "5698551",
    "prefecture": "大阪府",
    "prefecture_kana": "オオサカフ",
    "prefecture_code": "27",
    "city": "高槻市",
    "city_kana": "タカツキシ",
    "town": "大塚町",
    "town_kana": "オオツカチョウ",
    "street": "５−１−１",
    "office_name": "矢崎化工　株式会社　大阪支店",
    "office_name_kana": "ヤザキカコウ カブシキガイシヤ オオサカシテン"
  },
  "8555": {
    "zip_code": "5698555",
    "prefecture": "大阪府",
    "prefecture_kana": "オオサカフ",
    "prefecture_code": "27",
    "city": "高槻市",
    "city_kana": "タカツキシ",
    "town": "大塚町",
    "town_kana": "オオツカチョウ",
    "street": "５丁目２−１",
    "office_name": "山下鉄工　（株）",
    "office_name_kana": "ヤマシタテツコウ カブシキガイシヤ"
  },
  "8558": {
    "zip_code": "5698558",
    "prefecture": "大阪府",
    "prefecture_kana": "オオサカフ",
    "prefecture_code": "27",
    "city": "高槻市",
    "city_kana": "タカツキシ",
    "town": "道鵜町",
    "town_kana": "ドウウチョウ",
    "street": "３丁目５−１",
    "office_name": "サンユレジン　（株）",
    "office_name_kana": "サンユレジン カブシキガイシヤ"
  },
  "8566": {
    "zip_code": "5698566",
    "prefecture": "大阪府",
    "prefecture_kana": "オオサカフ",
    "prefecture_code": "27",
    "city": "高槻市",
    "city_kana": "タカツキシ",
    "town": "芝生町",
    "town_kana": "シボチョウ",
    "street": "１丁目５１−２",
    "office_name": "岩谷物流　（株）",
    "office_name_kana": "イワタニブツリユウ カブシキガイシヤ"
  },
  "8567": {
    "zip_code": "5698567",
    "prefecture": "大阪府",
    "prefecture_kana": "オオサカフ",
    "prefecture_code": "27",
    "city": "高槻市",
    "city_kana": "タカツキシ",
    "town": "萩之庄",
    "town_kana": "ハギノショウ",
    "street": "３丁目４７−２",
    "office_name": "イオン　（株）　ジャスコシティー　高槻店",
    "office_name_kana": "イオン (カブ) ジヤスコシテイ- タカツキテン"
  },
  "8569": {
    "zip_code": "5698569",
    "prefecture": "大阪府",
    "prefecture_kana": "オオサカフ",
    "prefecture_code": "27",
    "city": "高槻市",
    "city_kana": "タカツキシ",
    "town": "藤の里町",
    "town_kana": "フジノサトチョウ",
    "street": "３９−６",
    "office_name": "大阪ガス　（株）　北東部事業本部北部事業所",
    "office_name_kana": "オオサカガス (カブ) ホクトウブジギヨウホンブホクブジギヨウシヨ"
  },
  "8577": {
    "zip_code": "5698577",
    "prefecture": "大阪府",
    "prefecture_kana": "オオサカフ",
    "prefecture_code": "27",
    "city": "高槻市",
    "city_kana": "タカツキシ",
    "town": "緑町",
    "town_kana": "ミドリチョウ",
    "street": "２１−３",
    "office_name": "丸大食品　（株）",
    "office_name_kana": "マルダイシヨクヒン カブシキガイシヤ"
  },
  "8585": {
    "zip_code": "5698585",
    "prefecture": "大阪府",
    "prefecture_kana": "オオサカフ",
    "prefecture_code": "27",
    "city": "高槻市",
    "city_kana": "タカツキシ",
    "town": "北柳川町",
    "town_kana": "キタヤナガワチョウ",
    "street": "６番２４号",
    "office_name": "医療法人　仙養会　北摂総合病院",
    "office_name_kana": "イリヨウホウジン センヨウカイ ホクセツソウゴウビヨウイン"
  },
  "8588": {
    "zip_code": "5698588",
    "prefecture": "大阪府",
    "prefecture_kana": "オオサカフ",
    "prefecture_code": "27",
    "city": "高槻市",
    "city_kana": "タカツキシ",
    "town": "唐崎中",
    "town_kana": "カラサキナカ",
    "street": "３丁目２０−７",
    "office_name": "港製器工業　（株）",
    "office_name_kana": "ミナトセイキコウギヨウ カブシキガイシヤ"
  },
  "8660": {
    "zip_code": "5698660",
    "prefecture": "大阪府",
    "prefecture_kana": "オオサカフ",
    "prefecture_code": "27",
    "city": "高槻市",
    "city_kana": "タカツキシ",
    "town": "宮田町",
    "town_kana": "ミヤダチョウ",
    "street": "１丁目１−８（高槻郵便局私書箱第５号）",
    "office_name": "酉島製作所",
    "office_name_kana": "トリシマセイサクシヨ"
  },
  "8686": {
    "zip_code": "5698686",
    "prefecture": "大阪府",
    "prefecture_kana": "オオサカフ",
    "prefecture_code": "27",
    "city": "高槻市",
    "city_kana": "タカツキシ",
    "town": "大学町",
    "town_kana": "ダイガクマチ",
    "street": "２−７（高槻郵便局私書箱第７号）",
    "office_name": "大阪医科大学",
    "office_name_kana": "オオサカイカダイガク"
  }
}