{
  "0000": {
    "zip_code": "5730000",
    "prefecture": "大阪府",
    "prefecture_kana": "オオサカフ",
    "prefecture_code": 27,
    "city": "枚方市",
    "city_kana": "ヒラカタシ",
    "town": "",
    "town_kana": "",
    "street": null,
    "office_name": null,
    "office_name_kana": null
  },
  "0001": {
    "zip_code": "5730001",
    "prefecture": "大阪府",
    "prefecture_kana": "オオサカフ",
    "prefecture_code": 27,
    "city": "枚方市",
    "city_kana": "ヒラカタシ",
    "town": "田口山",
    "town_kana": "タグチヤマ",
    "street": null,
    "office_name": null,
    "office_name_kana": null
  },
  "0002": {
    "zip_code": "5730002",
    "prefecture": "大阪府",
    "prefecture_kana": "オオサカフ",
    "prefecture_code": 27,
    "city": "枚方市",
    "city_kana": "ヒラカタシ",
    "town": "出屋敷元町",
    "town_kana": "デヤシキモトマチ",
    "street": null,
    "office_name": null,
    "office_name_kana": null
  },
  "0003": {
    "zip_code": "5730003",
    "prefecture": "大阪府",
    "prefecture_kana": "オオサカフ",
    "prefecture_code": 27,
    "city": "枚方市",
    "city_kana": "ヒラカタシ",
    "town": "出屋敷西町",
    "town_kana": "デヤシキニシマチ",
    "street": null,
    "office_name": null,
    "office_name_kana": null
  },
  "0004": {
    "zip_code": "5730004",
    "prefecture": "大阪府",
    "prefecture_kana": "オオサカフ",
    "prefecture_code": 27,
    "city": "枚方市",
    "city_kana": "ヒラカタシ",
    "town": "中宮大池",
    "town_kana": "ナカミヤオオイケ",
    "street": null,
    "office_name": null,
    "office_name_kana": null
  },
  "0005": {
    "zip_code": "5730005",
    "prefecture": "大阪府",
    "prefecture_kana": "オオサカフ",
    "prefecture_code": 27,
    "city": "枚方市",
    "city_kana": "ヒラカタシ",
    "town": "池之宮",
    "town_kana": "イケノミヤ",
    "street": null,
    "office_name": null,
    "office_name_kana": null
  },
  "0006": {
    "zip_code": "5730006",
    "prefecture": "大阪府",
    "prefecture_kana": "オオサカフ",
    "prefecture_code": 27,
    "city": "枚方市",
    "city_kana": "ヒラカタシ",
    "town": "堂山東町",
    "town_kana": "ドウヤマヒガシマチ",
    "street": null,
    "office_name": null,
    "office_name_kana": null
  },
  "0007": {
    "zip_code": "5730007",
    "prefecture": "大阪府",
    "prefecture_kana": "オオサカフ",
    "prefecture_code": 27,
    "city": "枚方市",
    "city_kana": "ヒラカタシ",
    "town": "堂山",
    "town_kana": "ドウヤマ",
    "street": null,
    "office_name": null,
    "office_name_kana": null
  },
  "0011": {
    "zip_code": "5730011",
    "prefecture": "大阪府",
    "prefecture_kana": "オオサカフ",
    "prefecture_code": 27,
    "city": "枚方市",
    "city_kana": "ヒラカタシ",
    "town": "中宮山戸町",
    "town_kana": "ナカミヤヤマトチョウ",
    "street": null,
    "office_name": null,
    "office_name_kana": null
  },
  "0012": {
    "zip_code": "5730012",
    "prefecture": "大阪府",
    "prefecture_kana": "オオサカフ",
    "prefecture_code": 27,
    "city": "枚方市",
    "city_kana": "ヒラカタシ",
    "town": "松丘町",
    "town_kana": "マツガオカチョウ",
    "street": null,
    "office_name": null,
    "office_name_kana": null
  },
  "0013": {
    "zip_code": "5730013",
    "prefecture": "大阪府",
    "prefecture_kana": "オオサカフ",
    "prefecture_code": 27,
    "city": "枚方市",
    "city_kana": "ヒラカタシ",
    "town": "星丘",
    "town_kana": "ホシガオカ",
    "street": null,
    "office_name": null,
    "office_name_kana": null
  },
  "0014": {
    "zip_code": "5730014",
    "prefecture": "大阪府",
    "prefecture_kana": "オオサカフ",
    "prefecture_code": 27,
    "city": "枚方市",
    "city_kana": "ヒラカタシ",
    "town": "村野高見台",
    "town_kana": "ムラノタカミダイ",
    "street": null,
    "office_name": null,
    "office_name_kana": null
  },
  "0015": {
    "zip_code": "5730015",
    "prefecture": "大阪府",
    "prefecture_kana": "オオサカフ",
    "prefecture_code": 27,
    "city": "枚方市",
    "city_kana": "ヒラカタシ",
    "town": "村野東町",
    "town_kana": "ムラノヒガシマチ",
    "street": null,
    "office_name": null,
    "office_name_kana": null
  },
  "0016": {
    "zip_code": "5730016",
    "prefecture": "大阪府",
    "prefecture_kana": "オオサカフ",
    "prefecture_code": 27,
    "city": "枚方市",
    "city_kana": "ヒラカタシ",
    "town": "村野本町",
    "town_kana": "ムラノホンマチ",
    "street": null,
    "office_name": null,
    "office_name_kana": null
  },
  "0017": {
    "zip_code": "5730017",
    "prefecture": "大阪府",
    "prefecture_kana": "オオサカフ",
    "prefecture_code": 27,
    "city": "枚方市",
    "city_kana": "ヒラカタシ",
    "town": "印田町",
    "town_kana": "インダチョウ",
    "street": null,
    "office_name": null,
    "office_name_kana": null
  },
  "0018": {
    "zip_code": "5730018",
    "prefecture": "大阪府",
    "prefecture_kana": "オオサカフ",
    "prefecture_code": 27,
    "city": "枚方市",
    "city_kana": "ヒラカタシ",
    "town": "桜丘町",
    "town_kana": "サクラガオカチョウ",
    "street": null,
    "office_name": null,
    "office_name_kana": null
  },
  "0021": {
    "zip_code": "5730021",
    "prefecture": "大阪府",
    "prefecture_kana": "オオサカフ",
    "prefecture_code": 27,
    "city": "枚方市",
    "city_kana": "ヒラカタシ",
    "town": "中宮西之町",
    "town_kana": "ナカミヤニシノチョウ",
    "street": null,
    "office_name": null,
    "office_name_kana": null
  },
  "0022": {
    "zip_code": "5730022",
    "prefecture": "大阪府",
    "prefecture_kana": "オオサカフ",
    "prefecture_code": 27,
    "city": "枚方市",
    "city_kana": "ヒラカタシ",
    "town": "宮之阪",
    "town_kana": "ミヤノサカ",
    "street": null,
    "office_name": null,
    "office_name_kana": null
  },
  "0023": {
    "zip_code": "5730023",
    "prefecture": "大阪府",
    "prefecture_kana": "オオサカフ",
    "prefecture_code": 27,
    "city": "枚方市",
    "city_kana": "ヒラカタシ",
    "town": "東田宮",
    "town_kana": "ヒガシタミヤ",
    "street": null,
    "office_name": null,
    "office_name_kana": null
  },
  "0024": {
    "zip_code": "5730024",
    "prefecture": "大阪府",
    "prefecture_kana": "オオサカフ",
    "prefecture_code": 27,
    "city": "枚方市",
    "city_kana": "ヒラカタシ",
    "town": "田宮本町",
    "town_kana": "タミヤホンマチ",
    "street": null,
    "office_name": null,
    "office_name_kana": null
  },
  "0025": {
    "zip_code": "5730025",
    "prefecture": "大阪府",
    "prefecture_kana": "オオサカフ",
    "prefecture_code": 27,
    "city": "枚方市",
    "city_kana": "ヒラカタシ",
    "town": "西田宮町",
    "town_kana": "ニシタミヤチョウ",
    "street": null,
    "office_name": null,
    "office_name_kana": null
  },
  "0026": {
    "zip_code": "5730026",
    "prefecture": "大阪府",
    "prefecture_kana": "オオサカフ",
    "prefecture_code": 27,
    "city": "枚方市",
    "city_kana": "ヒラカタシ",
    "town": "朝日丘町",
    "town_kana": "アサヒガオカチョウ",
    "street": null,
    "office_name": null,
    "office_name_kana": null
  },
  "0027": {
    "zip_code": "5730027",
    "prefecture": "大阪府",
    "prefecture_kana": "オオサカフ",
    "prefecture_code": 27,
    "city": "枚方市",
    "city_kana": "ヒラカタシ",
    "town": "大垣内町",
    "town_kana": "オオガイトチョウ",
    "street": null,
    "office_name": null,
    "office_name_kana": null
  },
  "0028": {
    "zip_code": "5730028",
    "prefecture": "大阪府",
    "prefecture_kana": "オオサカフ",
    "prefecture_code": 27,
    "city": "枚方市",
    "city_kana": "ヒラカタシ",
    "town": "川原町",
    "town_kana": "カワハラチョウ",
    "street": null,
    "office_name": null,
    "office_name_kana": null
  },
  "0031": {
    "zip_code": "5730031",
    "prefecture": "大阪府",
    "prefecture_kana": "オオサカフ",
    "prefecture_code": 27,
    "city": "枚方市",
    "city_kana": "ヒラカタシ",
    "town": "岡本町",
    "town_kana": "オカホンマチ",
    "street": null,
    "office_name": null,
    "office_name_kana": null
  },
  "0032": {
    "zip_code": "5730032",
    "prefecture": "大阪府",
    "prefecture_kana": "オオサカフ",
    "prefecture_code": 27,
    "city": "枚方市",
    "city_kana": "ヒラカタシ",
    "town": "岡東町",
    "town_kana": "オカヒガシチョウ",
    "street": null,
    "office_name": null,
    "office_name_kana": null
  },
  "0033": {
    "zip_code": "5730033",
    "prefecture": "大阪府",
    "prefecture_kana": "オオサカフ",
    "prefecture_code": 27,
    "city": "枚方市",
    "city_kana": "ヒラカタシ",
    "town": "岡南町",
    "town_kana": "オカミナミチョウ",
    "street": null,
    "office_name": null,
    "office_name_kana": null
  },
  "0034": {
    "zip_code": "5730034",
    "prefecture": "大阪府",
    "prefecture_kana": "オオサカフ",
    "prefecture_code": 27,
    "city": "枚方市",
    "city_kana": "ヒラカタシ",
    "town": "岡山手町",
    "town_kana": "オカヤマテチョウ",
    "street": null,
    "office_name": null,
    "office_name_kana": null
  },
  "0035": {
    "zip_code": "5730035",
    "prefecture": "大阪府",
    "prefecture_kana": "オオサカフ",
    "prefecture_code": 27,
    "city": "枚方市",
    "city_kana": "ヒラカタシ",
    "town": "高塚町",
    "town_kana": "タカツカチョウ",
    "street": null,
    "office_name": null,
    "office_name_kana": null
  },
  "0036": {
    "zip_code": "5730036",
    "prefecture": "大阪府",
    "prefecture_kana": "オオサカフ",
    "prefecture_code": 27,
    "city": "枚方市",
    "city_kana": "ヒラカタシ",
    "town": "伊加賀北町",
    "town_kana": "イカガキタマチ",
    "street": null,
    "office_name": null,
    "office_name_kana": null
  },
  "0037": {
    "zip_code": "5730037",
    "prefecture": "大阪府",
    "prefecture_kana": "オオサカフ",
    "prefecture_code": 27,
    "city": "枚方市",
    "city_kana": "ヒラカタシ",
    "town": "枚方上之町",
    "town_kana": "ヒラカタカミノチョウ",
    "street": null,
    "office_name": null,
    "office_name_kana": null
  },
  "0041": {
    "zip_code": "5730041",
    "prefecture": "大阪府",
    "prefecture_kana": "オオサカフ",
    "prefecture_code": 27,
    "city": "枚方市",
    "city_kana": "ヒラカタシ",
    "town": "山之上東町",
    "town_kana": "ヤマノウエヒガシマチ",
    "street": null,
    "office_name": null,
    "office_name_kana": null
  },
  "0042": {
    "zip_code": "5730042",
    "prefecture": "大阪府",
    "prefecture_kana": "オオサカフ",
    "prefecture_code": 27,
    "city": "枚方市",
    "city_kana": "ヒラカタシ",
    "town": "村野西町",
    "town_kana": "ムラノニシマチ",
    "street": null,
    "office_name": null,
    "office_name_kana": null
  },
  "0043": {
    "zip_code": "5730043",
    "prefecture": "大阪府",
    "prefecture_kana": "オオサカフ",
    "prefecture_code": 27,
    "city": "枚方市",
    "city_kana": "ヒラカタシ",
    "town": "村野南町",
    "town_kana": "ムラノミナミマチ",
    "street": null,
    "office_name": null,
    "office_name_kana": null
  },
  "0044": {
    "zip_code": "5730044",
    "prefecture": "大阪府",
    "prefecture_kana": "オオサカフ",
    "prefecture_code": 27,
    "city": "枚方市",
    "city_kana": "ヒラカタシ",
    "town": "東藤田町",
    "town_kana": "ヒガシトウダチョウ",
    "street": null,
    "office_name": null,
    "office_name_kana": null
  },
  "0045": {
    "zip_code": "5730045",
    "prefecture": "大阪府",
    "prefecture_kana": "オオサカフ",
    "prefecture_code": 27,
    "city": "枚方市",
    "city_kana": "ヒラカタシ",
    "town": "藤田町",
    "town_kana": "トウダチョウ",
    "street": null,
    "office_name": null,
    "office_name_kana": null
  },
  "0046": {
    "zip_code": "5730046",
    "prefecture": "大阪府",
    "prefecture_kana": "オオサカフ",
    "prefecture_code": 27,
    "city": "枚方市",
    "city_kana": "ヒラカタシ",
    "town": "宮之下町",
    "town_kana": "ミヤノシタチョウ",
    "street": null,
    "office_name": null,
    "office_name_kana": null
  },
  "0047": {
    "zip_code": "5730047",
    "prefecture": "大阪府",
    "prefecture_kana": "オオサカフ",
    "prefecture_code": 27,
    "city": "枚方市",
    "city_kana": "ヒラカタシ",
    "town": "山之上",
    "town_kana": "ヤマノウエ",
    "street": null,
    "office_name": null,
    "office_name_kana": null
  },
  "0048": {
    "zip_code": "5730048",
    "prefecture": "大阪府",
    "prefecture_kana": "オオサカフ",
    "prefecture_code": 27,
    "city": "枚方市",
    "city_kana": "ヒラカタシ",
    "town": "山之上西町",
    "town_kana": "ヤマノウエニシマチ",
    "street": null,
    "office_name": null,
    "office_name_kana": null
  },
  "0049": {
    "zip_code": "5730049",
    "prefecture": "大阪府",
    "prefecture_kana": "オオサカフ",
    "prefecture_code": 27,
    "city": "枚方市",
    "city_kana": "ヒラカタシ",
    "town": "山之上北町",
    "town_kana": "ヤマノウエキタマチ",
    "street": null,
    "office_name": null,
    "office_name_kana": null
  },
  "0051": {
    "zip_code": "5730051",
    "prefecture": "大阪府",
    "prefecture_kana": "オオサカフ",
    "prefecture_code": 27,
    "city": "枚方市",
    "city_kana": "ヒラカタシ",
    "town": "三矢町",
    "town_kana": "ミツヤチョウ",
    "street": null,
    "office_name": null,
    "office_name_kana": null
  },
  "0052": {
    "zip_code": "5730052",
    "prefecture": "大阪府",
    "prefecture_kana": "オオサカフ",
    "prefecture_code": 27,
    "city": "枚方市",
    "city_kana": "ヒラカタシ",
    "town": "枚方元町",
    "town_kana": "ヒラカタモトマチ",
    "street": null,
    "office_name": null,
    "office_name_kana": null
  },
  "0053": {
    "zip_code": "5730053",
    "prefecture": "大阪府",
    "prefecture_kana": "オオサカフ",
    "prefecture_code": 27,
    "city": "枚方市",
    "city_kana": "ヒラカタシ",
    "town": "伊加賀南町",
    "town_kana": "イカガミナミマチ",
    "street": null,
    "office_name": null,
    "office_name_kana": null
  },
  "0054": {
    "zip_code": "5730054",
    "prefecture": "大阪府",
    "prefecture_kana": "オオサカフ",
    "prefecture_code": 27,
    "city": "枚方市",
    "city_kana": "ヒラカタシ",
    "town": "枚方公園町",
    "town_kana": "ヒラカタコウエンチョウ",
    "street": null,
    "office_name": null,
    "office_name_kana": null
  },
  "0055": {
    "zip_code": "5730055",
    "prefecture": "大阪府",
    "prefecture_kana": "オオサカフ",
    "prefecture_code": 27,
    "city": "枚方市",
    "city_kana": "ヒラカタシ",
    "town": "伊加賀本町",
    "town_kana": "イカガホンマチ",
    "street": null,
    "office_name": null,
    "office_name_kana": null
  },
  "0056": {
    "zip_code": "5730056",
    "prefecture": "大阪府",
    "prefecture_kana": "オオサカフ",
    "prefecture_code": 27,
    "city": "枚方市",
    "city_kana": "ヒラカタシ",
    "town": "桜町",
    "town_kana": "サクラマチ",
    "street": null,
    "office_name": null,
    "office_name_kana": null
  },
  "0057": {
    "zip_code": "5730057",
    "prefecture": "大阪府",
    "prefecture_kana": "オオサカフ",
    "prefecture_code": 27,
    "city": "枚方市",
    "city_kana": "ヒラカタシ",
    "town": "堤町",
    "town_kana": "ツツミチョウ",
    "street": null,
    "office_name": null,
    "office_name_kana": null
  },
  "0058": {
    "zip_code": "5730058",
    "prefecture": "大阪府",
    "prefecture_kana": "オオサカフ",
    "prefecture_code": 27,
    "city": "枚方市",
    "city_kana": "ヒラカタシ",
    "town": "伊加賀東町",
    "town_kana": "イカガヒガシマチ",
    "street": null,
    "office_name": null,
    "office_name_kana": null
  },
  "0061": {
    "zip_code": "5730061",
    "prefecture": "大阪府",
    "prefecture_kana": "オオサカフ",
    "prefecture_code": 27,
    "city": "枚方市",
    "city_kana": "ヒラカタシ",
    "town": "伊加賀寿町",
    "town_kana": "イカガコトブキチョウ",
    "street": null,
    "office_name": null,
    "office_name_kana": null
  },
  "0062": {
    "zip_code": "5730062",
    "prefecture": "大阪府",
    "prefecture_kana": "オオサカフ",
    "prefecture_code": 27,
    "city": "枚方市",
    "city_kana": "ヒラカタシ",
    "town": "伊加賀栄町",
    "town_kana": "イカガサカエマチ",
    "street": null,
    "office_name": null,
    "office_name_kana": null
  },
  "0063": {
    "zip_code": "5730063",
    "prefecture": "大阪府",
    "prefecture_kana": "オオサカフ",
    "prefecture_code": 27,
    "city": "枚方市",
    "city_kana": "ヒラカタシ",
    "town": "走谷",
    "town_kana": "ハシリダニ",
    "street": null,
    "office_name": null,
    "office_name_kana": null
  },
  "0064": {
    "zip_code": "5730064",
    "prefecture": "大阪府",
    "prefecture_kana": "オオサカフ",
    "prefecture_code": 27,
    "city": "枚方市",
    "city_kana": "ヒラカタシ",
    "town": "北中振",
    "town_kana": "キタナカブリ",
    "street": null,
    "office_name": null,
    "office_name_kana": null
  },
  "0065": {
    "zip_code": "5730065",
    "prefecture": "大阪府",
    "prefecture_kana": "オオサカフ",
    "prefecture_code": 27,
    "city": "枚方市",
    "city_kana": "ヒラカタシ",
    "town": "出口",
    "town_kana": "デグチ",
    "street": null,
    "office_name": null,
    "office_name_kana": null
  },
  "0066": {
    "zip_code": "5730066",
    "prefecture": "大阪府",
    "prefecture_kana": "オオサカフ",
    "prefecture_code": 27,
    "city": "枚方市",
    "city_kana": "ヒラカタシ",
    "town": "伊加賀西町",
    "town_kana": "イカガニシマチ",
    "street": null,
    "office_name": null,
    "office_name_kana": null
  },
  "0067": {
    "zip_code": "5730067",
    "prefecture": "大阪府",
    "prefecture_kana": "オオサカフ",
    "prefecture_code": 27,
    "city": "枚方市",
    "city_kana": "ヒラカタシ",
    "town": "伊加賀緑町",
    "town_kana": "イカガミドリマチ",
    "street": null,
    "office_name": null,
    "office_name_kana": null
  },
  "0071": {
    "zip_code": "5730071",
    "prefecture": "大阪府",
    "prefecture_kana": "オオサカフ",
    "prefecture_code": 27,
    "city": "枚方市",
    "city_kana": "ヒラカタシ",
    "town": "茄子作",
    "town_kana": "ナスヅクリ",
    "street": null,
    "office_name": null,
    "office_name_kana": null
  },
  "0072": {
    "zip_code": "5730072",
    "prefecture": "大阪府",
    "prefecture_kana": "オオサカフ",
    "prefecture_code": 27,
    "city": "枚方市",
    "city_kana": "ヒラカタシ",
    "town": "茄子作南町",
    "town_kana": "ナスヅクリミナミマチ",
    "street": null,
    "office_name": null,
    "office_name_kana": null
  },
  "0073": {
    "zip_code": "5730073",
    "prefecture": "大阪府",
    "prefecture_kana": "オオサカフ",
    "prefecture_code": 27,
    "city": "枚方市",
    "city_kana": "ヒラカタシ",
    "town": "高田",
    "town_kana": "コウダ",
    "street": null,
    "office_name": null,
    "office_name_kana": null
  },
  "0074": {
    "zip_code": "5730074",
    "prefecture": "大阪府",
    "prefecture_kana": "オオサカフ",
    "prefecture_code": 27,
    "city": "枚方市",
    "city_kana": "ヒラカタシ",
    "town": "東香里南町",
    "town_kana": "ヒガシコウリミナミマチ",
    "street": null,
    "office_name": null,
    "office_name_kana": null
  },
  "0075": {
    "zip_code": "5730075",
    "prefecture": "大阪府",
    "prefecture_kana": "オオサカフ",
    "prefecture_code": 27,
    "city": "枚方市",
    "city_kana": "ヒラカタシ",
    "town": "東香里",
    "town_kana": "ヒガシコウリ",
    "street": null,
    "office_name": null,
    "office_name_kana": null
  },
  "0076": {
    "zip_code": "5730076",
    "prefecture": "大阪府",
    "prefecture_kana": "オオサカフ",
    "prefecture_code": 27,
    "city": "枚方市",
    "city_kana": "ヒラカタシ",
    "town": "東香里元町",
    "town_kana": "ヒガシコウリモトマチ",
    "street": null,
    "office_name": null,
    "office_name_kana": null
  },
  "0077": {
    "zip_code": "5730077",
    "prefecture": "大阪府",
    "prefecture_kana": "オオサカフ",
    "prefecture_code": 27,
    "city": "枚方市",
    "city_kana": "ヒラカタシ",
    "town": "東香里新町",
    "town_kana": "ヒガシコウリシンマチ",
    "street": null,
    "office_name": null,
    "office_name_kana": null
  },
  "0081": {
    "zip_code": "5730081",
    "prefecture": "大阪府",
    "prefecture_kana": "オオサカフ",
    "prefecture_code": 27,
    "city": "枚方市",
    "city_kana": "ヒラカタシ",
    "town": "釈尊寺町",
    "town_kana": "シャクソンジチョウ",
    "street": null,
    "office_name": null,
    "office_name_kana": null
  },
  "0082": {
    "zip_code": "5730082",
    "prefecture": "大阪府",
    "prefecture_kana": "オオサカフ",
    "prefecture_code": 27,
    "city": "枚方市",
    "city_kana": "ヒラカタシ",
    "town": "茄子作東町",
    "town_kana": "ナスヅクリヒガシマチ",
    "street": null,
    "office_name": null,
    "office_name_kana": null
  },
  "0083": {
    "zip_code": "5730083",
    "prefecture": "大阪府",
    "prefecture_kana": "オオサカフ",
    "prefecture_code": 27,
    "city": "枚方市",
    "city_kana": "ヒラカタシ",
    "town": "茄子作北町",
    "town_kana": "ナスヅクリキタマチ",
    "street": null,
    "office_name": null,
    "office_name_kana": null
  },
  "0084": {
    "zip_code": "5730084",
    "prefecture": "大阪府",
    "prefecture_kana": "オオサカフ",
    "prefecture_code": 27,
    "city": "枚方市",
    "city_kana": "ヒラカタシ",
    "town": "香里ケ丘",
    "town_kana": "コウリガオカ",
    "street": null,
    "office_name": null,
    "office_name_kana": null
  },
  "0085": {
    "zip_code": "5730085",
    "prefecture": "大阪府",
    "prefecture_kana": "オオサカフ",
    "prefecture_code": 27,
    "city": "枚方市",
    "city_kana": "ヒラカタシ",
    "town": "香里園東之町",
    "town_kana": "コウリエンヒガシノチョウ",
    "street": null,
    "office_name": null,
    "office_name_kana": null
  },
  "0086": {
    "zip_code": "5730086",
    "prefecture": "大阪府",
    "prefecture_kana": "オオサカフ",
    "prefecture_code": 27,
    "city": "枚方市",
    "city_kana": "ヒラカタシ",
    "town": "香里園町",
    "town_kana": "コウリエンチョウ",
    "street": null,
    "office_name": null,
    "office_name_kana": null
  },
  "0087": {
    "zip_code": "5730087",
    "prefecture": "大阪府",
    "prefecture_kana": "オオサカフ",
    "prefecture_code": 27,
    "city": "枚方市",
    "city_kana": "ヒラカタシ",
    "town": "香里園山之手町",
    "town_kana": "コウリエンヤマノテチョウ",
    "street": null,
    "office_name": null,
    "office_name_kana": null
  },
  "0088": {
    "zip_code": "5730088",
    "prefecture": "大阪府",
    "prefecture_kana": "オオサカフ",
    "prefecture_code": 27,
    "city": "枚方市",
    "city_kana": "ヒラカタシ",
    "town": "香里園桜木町",
    "town_kana": "コウリエンサクラギチョウ",
    "street": null,
    "office_name": null,
    "office_name_kana": null
  },
  "0091": {
    "zip_code": "5730091",
    "prefecture": "大阪府",
    "prefecture_kana": "オオサカフ",
    "prefecture_code": 27,
    "city": "枚方市",
    "city_kana": "ヒラカタシ",
    "town": "菊丘町",
    "town_kana": "キクガオカチョウ",
    "street": null,
    "office_name": null,
    "office_name_kana": null
  },
  "0092": {
    "zip_code": "5730092",
    "prefecture": "大阪府",
    "prefecture_kana": "オオサカフ",
    "prefecture_code": 27,
    "city": "枚方市",
    "city_kana": "ヒラカタシ",
    "town": "菊丘南町",
    "town_kana": "キクガオカミナミマチ",
    "street": null,
    "office_name": null,
    "office_name_kana": null
  },
  "0093": {
    "zip_code": "5730093",
    "prefecture": "大阪府",
    "prefecture_kana": "オオサカフ",
    "prefecture_code": 27,
    "city": "枚方市",
    "city_kana": "ヒラカタシ",
    "town": "東中振",
    "town_kana": "ヒガシナカブリ",
    "street": null,
    "office_name": null,
    "office_name_kana": null
  },
  "0094": {
    "zip_code": "5730094",
    "prefecture": "大阪府",
    "prefecture_kana": "オオサカフ",
    "prefecture_code": 27,
    "city": "枚方市",
    "city_kana": "ヒラカタシ",
    "town": "南中振",
    "town_kana": "ミナミナカブリ",
    "street": null,
    "office_name": null,
    "office_name_kana": null
  },
  "0095": {
    "zip_code": "5730095",
    "prefecture": "大阪府",
    "prefecture_kana": "オオサカフ",
    "prefecture_code": 27,
    "city": "枚方市",
    "city_kana": "ヒラカタシ",
    "town": "翠香園町",
    "town_kana": "スイコウエンチョウ",
    "street": null,
    "office_name": null,
    "office_name_kana": null
  },
  "0101": {
    "zip_code": "5730101",
    "prefecture": "大阪府",
    "prefecture_kana": "オオサカフ",
    "prefecture_code": 27,
    "city": "枚方市",
    "city_kana": "ヒラカタシ",
    "town": "長尾峠町",
    "town_kana": "ナガオトウゲチョウ",
    "street": null,
    "office_name": null,
    "office_name_kana": null
  },
  "0102": {
    "zip_code": "5730102",
    "prefecture": "大阪府",
    "prefecture_kana": "オオサカフ",
    "prefecture_code": 27,
    "city": "枚方市",
    "city_kana": "ヒラカタシ",
    "town": "長尾家具町",
    "town_kana": "ナガオカグマチ",
    "street": null,
    "office_name": null,
    "office_name_kana": null
  },
  "0103": {
    "zip_code": "5730103",
    "prefecture": "大阪府",
    "prefecture_kana": "オオサカフ",
    "prefecture_code": 27,
    "city": "枚方市",
    "city_kana": "ヒラカタシ",
    "town": "長尾荒阪",
    "town_kana": "ナガオアラサカ",
    "street": null,
    "office_name": null,
    "office_name_kana": null
  },
  "0104": {
    "zip_code": "5730104",
    "prefecture": "大阪府",
    "prefecture_kana": "オオサカフ",
    "prefecture_code": 27,
    "city": "枚方市",
    "city_kana": "ヒラカタシ",
    "town": "長尾播磨谷",
    "town_kana": "ナガオハリマダニ",
    "street": null,
    "office_name": null,
    "office_name_kana": null
  },
  "0105": {
    "zip_code": "5730105",
    "prefecture": "大阪府",
    "prefecture_kana": "オオサカフ",
    "prefecture_code": 27,
    "city": "枚方市",
    "city_kana": "ヒラカタシ",
    "town": "長尾東町",
    "town_kana": "ナガオヒガシマチ",
    "street": null,
    "office_name": null,
    "office_name_kana": null
  },
  "0106": {
    "zip_code": "5730106",
    "prefecture": "大阪府",
    "prefecture_kana": "オオサカフ",
    "prefecture_code": 27,
    "city": "枚方市",
    "city_kana": "ヒラカタシ",
    "town": "長尾台",
    "town_kana": "ナガオダイ",
    "street": null,
    "office_name": null,
    "office_name_kana": null
  },
  "0107": {
    "zip_code": "5730107",
    "prefecture": "大阪府",
    "prefecture_kana": "オオサカフ",
    "prefecture_code": 27,
    "city": "枚方市",
    "city_kana": "ヒラカタシ",
    "town": "長尾宮前",
    "town_kana": "ナガオミヤマエ",
    "street": null,
    "office_name": null,
    "office_name_kana": null
  },
  "0111": {
    "zip_code": "5730111",
    "prefecture": "大阪府",
    "prefecture_kana": "オオサカフ",
    "prefecture_code": 27,
    "city": "枚方市",
    "city_kana": "ヒラカタシ",
    "town": "杉北町",
    "town_kana": "スギキタマチ",
    "street": null,
    "office_name": null,
    "office_name_kana": null
  },
  "0112": {
    "zip_code": "5730112",
    "prefecture": "大阪府",
    "prefecture_kana": "オオサカフ",
    "prefecture_code": 27,
    "city": "枚方市",
    "city_kana": "ヒラカタシ",
    "town": "尊延寺",
    "town_kana": "ソンエンジ",
    "street": null,
    "office_name": null,
    "office_name_kana": null
  },
  "0113": {
    "zip_code": "5730113",
    "prefecture": "大阪府",
    "prefecture_kana": "オオサカフ",
    "prefecture_code": 27,
    "city": "枚方市",
    "city_kana": "ヒラカタシ",
    "town": "宗谷",
    "town_kana": "ソウヤ",
    "street": null,
    "office_name": null,
    "office_name_kana": null
  },
  "0114": {
    "zip_code": "5730114",
    "prefecture": "大阪府",
    "prefecture_kana": "オオサカフ",
    "prefecture_code": 27,
    "city": "枚方市",
    "city_kana": "ヒラカタシ",
    "town": "穂谷",
    "town_kana": "ホタニ",
    "street": null,
    "office_name": null,
    "office_name_kana": null
  },
  "0115": {
    "zip_code": "5730115",
    "prefecture": "大阪府",
    "prefecture_kana": "オオサカフ",
    "prefecture_code": 27,
    "city": "枚方市",
    "city_kana": "ヒラカタシ",
    "town": "氷室台",
    "town_kana": "ヒムロダイ",
    "street": null,
    "office_name": null,
    "office_name_kana": null
  },
  "0116": {
    "zip_code": "5730116",
    "prefecture": "大阪府",
    "prefecture_kana": "オオサカフ",
    "prefecture_code": 27,
    "city": "枚方市",
    "city_kana": "ヒラカタシ",
    "town": "杉責谷",
    "town_kana": "スギセメダニ",
    "street": null,
    "office_name": null,
    "office_name_kana": null
  },
  "0117": {
    "zip_code": "5730117",
    "prefecture": "大阪府",
    "prefecture_kana": "オオサカフ",
    "prefecture_code": 27,
    "city": "枚方市",
    "city_kana": "ヒラカタシ",
    "town": "杉",
    "town_kana": "スギ",
    "street": null,
    "office_name": null,
    "office_name_kana": null
  },
  "0118": {
    "zip_code": "5730118",
    "prefecture": "大阪府",
    "prefecture_kana": "オオサカフ",
    "prefecture_code": 27,
    "city": "枚方市",
    "city_kana": "ヒラカタシ",
    "town": "杉山手",
    "town_kana": "スギヤマテ",
    "street": null,
    "office_name": null,
    "office_name_kana": null
  },
  "0121": {
    "zip_code": "5730121",
    "prefecture": "大阪府",
    "prefecture_kana": "オオサカフ",
    "prefecture_code": 27,
    "city": "枚方市",
    "city_kana": "ヒラカタシ",
    "town": "津田北町",
    "town_kana": "ツダキタマチ",
    "street": null,
    "office_name": null,
    "office_name_kana": null
  },
  "0122": {
    "zip_code": "5730122",
    "prefecture": "大阪府",
    "prefecture_kana": "オオサカフ",
    "prefecture_code": 27,
    "city": "枚方市",
    "city_kana": "ヒラカタシ",
    "town": "津田東町",
    "town_kana": "ツダヒガシマチ",
    "street": null,
    "office_name": null,
    "office_name_kana": null
  },
  "0123": {
    "zip_code": "5730123",
    "prefecture": "大阪府",
    "prefecture_kana": "オオサカフ",
    "prefecture_code": 27,
    "city": "枚方市",
    "city_kana": "ヒラカタシ",
    "town": "津田",
    "town_kana": "ツダ",
    "street": null,
    "office_name": null,
    "office_name_kana": null
  },
  "0124": {
    "zip_code": "5730124",
    "prefecture": "大阪府",
    "prefecture_kana": "オオサカフ",
    "prefecture_code": 27,
    "city": "枚方市",
    "city_kana": "ヒラカタシ",
    "town": "津田南町",
    "town_kana": "ツダミナミマチ",
    "street": null,
    "office_name": null,
    "office_name_kana": null
  },
  "0125": {
    "zip_code": "5730125",
    "prefecture": "大阪府",
    "prefecture_kana": "オオサカフ",
    "prefecture_code": 27,
    "city": "枚方市",
    "city_kana": "ヒラカタシ",
    "town": "津田駅前",
    "town_kana": "ツダエキマエ",
    "street": null,
    "office_name": null,
    "office_name_kana": null
  },
  "0126": {
    "zip_code": "5730126",
    "prefecture": "大阪府",
    "prefecture_kana": "オオサカフ",
    "prefecture_code": 27,
    "city": "枚方市",
    "city_kana": "ヒラカタシ",
    "town": "津田西町",
    "town_kana": "ツダニシマチ",
    "street": null,
    "office_name": null,
    "office_name_kana": null
  },
  "0127": {
    "zip_code": "5730127",
    "prefecture": "大阪府",
    "prefecture_kana": "オオサカフ",
    "prefecture_code": 27,
    "city": "枚方市",
    "city_kana": "ヒラカタシ",
    "town": "津田元町",
    "town_kana": "ツダモトマチ",
    "street": null,
    "office_name": null,
    "office_name_kana": null
  },
  "0128": {
    "zip_code": "5730128",
    "prefecture": "大阪府",
    "prefecture_kana": "オオサカフ",
    "prefecture_code": 27,
    "city": "枚方市",
    "city_kana": "ヒラカタシ",
    "town": "津田山手",
    "town_kana": "ツダヤマテ",
    "street": null,
    "office_name": null,
    "office_name_kana": null
  },
  "0131": {
    "zip_code": "5730131",
    "prefecture": "大阪府",
    "prefecture_kana": "オオサカフ",
    "prefecture_code": 27,
    "city": "枚方市",
    "city_kana": "ヒラカタシ",
    "town": "春日野",
    "town_kana": "カスガノ",
    "street": null,
    "office_name": null,
    "office_name_kana": null
  },
  "0132": {
    "zip_code": "5730132",
    "prefecture": "大阪府",
    "prefecture_kana": "オオサカフ",
    "prefecture_code": 27,
    "city": "枚方市",
    "city_kana": "ヒラカタシ",
    "town": "野村元町",
    "town_kana": "ノムラモトマチ",
    "street": null,
    "office_name": null,
    "office_name_kana": null
  },
  "0133": {
    "zip_code": "5730133",
    "prefecture": "大阪府",
    "prefecture_kana": "オオサカフ",
    "prefecture_code": 27,
    "city": "枚方市",
    "city_kana": "ヒラカタシ",
    "town": "野村南町",
    "town_kana": "ノムラミナミマチ",
    "street": null,
    "office_name": null,
    "office_name_kana": null
  },
  "0134": {
    "zip_code": "5730134",
    "prefecture": "大阪府",
    "prefecture_kana": "オオサカフ",
    "prefecture_code": 27,
    "city": "枚方市",
    "city_kana": "ヒラカタシ",
    "town": "春日東町",
    "town_kana": "カスガヒガシマチ",
    "street": null,
    "office_name": null,
    "office_name_kana": null
  },
  "0135": {
    "zip_code": "5730135",
    "prefecture": "大阪府",
    "prefecture_kana": "オオサカフ",
    "prefecture_code": 27,
    "city": "枚方市",
    "city_kana": "ヒラカタシ",
    "town": "春日元町",
    "town_kana": "カスガモトマチ",
    "street": null,
    "office_name": null,
    "office_name_kana": null
  },
  "0136": {
    "zip_code": "5730136",
    "prefecture": "大阪府",
    "prefecture_kana": "オオサカフ",
    "prefecture_code": 27,
    "city": "枚方市",
    "city_kana": "ヒラカタシ",
    "town": "春日西町",
    "town_kana": "カスガニシマチ",
    "street": null,
    "office_name": null,
    "office_name_kana": null
  },
  "0137": {
    "zip_code": "5730137",
    "prefecture": "大阪府",
    "prefecture_kana": "オオサカフ",
    "prefecture_code": 27,
    "city": "枚方市",
    "city_kana": "ヒラカタシ",
    "town": "春日北町",
    "town_kana": "カスガキタマチ",
    "street": null,
    "office_name": null,
    "office_name_kana": null
  },
  "0141": {
    "zip_code": "5730141",
    "prefecture": "大阪府",
    "prefecture_kana": "オオサカフ",
    "prefecture_code": 27,
    "city": "枚方市",
    "city_kana": "ヒラカタシ",
    "town": "大峰北町",
    "town_kana": "オオミネキタマチ",
    "street": null,
    "office_name": null,
    "office_name_kana": null
  },
  "0142": {
    "zip_code": "5730142",
    "prefecture": "大阪府",
    "prefecture_kana": "オオサカフ",
    "prefecture_code": 27,
    "city": "枚方市",
    "city_kana": "ヒラカタシ",
    "town": "大峰東町",
    "town_kana": "オオミネヒガシマチ",
    "street": null,
    "office_name": null,
    "office_name_kana": null
  },
  "0143": {
    "zip_code": "5730143",
    "prefecture": "大阪府",
    "prefecture_kana": "オオサカフ",
    "prefecture_code": 27,
    "city": "枚方市",
    "city_kana": "ヒラカタシ",
    "town": "野村北町",
    "town_kana": "ノムラキタマチ",
    "street": null,
    "office_name": null,
    "office_name_kana": null
  },
  "0144": {
    "zip_code": "5730144",
    "prefecture": "大阪府",
    "prefecture_kana": "オオサカフ",
    "prefecture_code": 27,
    "city": "枚方市",
    "city_kana": "ヒラカタシ",
    "town": "野村中町",
    "town_kana": "ノムラナカマチ",
    "street": null,
    "office_name": null,
    "office_name_kana": null
  },
  "0145": {
    "zip_code": "5730145",
    "prefecture": "大阪府",
    "prefecture_kana": "オオサカフ",
    "prefecture_code": 27,
    "city": "枚方市",
    "city_kana": "ヒラカタシ",
    "town": "大峰南町",
    "town_kana": "オオミネミナミマチ",
    "street": null,
    "office_name": null,
    "office_name_kana": null
  },
  "0146": {
    "zip_code": "5730146",
    "prefecture": "大阪府",
    "prefecture_kana": "オオサカフ",
    "prefecture_code": 27,
    "city": "枚方市",
    "city_kana": "ヒラカタシ",
    "town": "大峰元町",
    "town_kana": "オオミネモトマチ",
    "street": null,
    "office_name": null,
    "office_name_kana": null
  },
  "0151": {
    "zip_code": "5730151",
    "prefecture": "大阪府",
    "prefecture_kana": "オオサカフ",
    "prefecture_code": 27,
    "city": "枚方市",
    "city_kana": "ヒラカタシ",
    "town": "藤阪北町",
    "town_kana": "フジサカキタマチ",
    "street": null,
    "office_name": null,
    "office_name_kana": null
  },
  "0152": {
    "zip_code": "5730152",
    "prefecture": "大阪府",
    "prefecture_kana": "オオサカフ",
    "prefecture_code": 27,
    "city": "枚方市",
    "city_kana": "ヒラカタシ",
    "town": "藤阪中町",
    "town_kana": "フジサカナカマチ",
    "street": null,
    "office_name": null,
    "office_name_kana": null
  },
  "0153": {
    "zip_code": "5730153",
    "prefecture": "大阪府",
    "prefecture_kana": "オオサカフ",
    "prefecture_code": 27,
    "city": "枚方市",
    "city_kana": "ヒラカタシ",
    "town": "藤阪東町",
    "town_kana": "フジサカヒガシマチ",
    "street": null,
    "office_name": null,
    "office_name_kana": null
  },
  "0154": {
    "zip_code": "5730154",
    "prefecture": "大阪府",
    "prefecture_kana": "オオサカフ",
    "prefecture_code": 27,
    "city": "枚方市",
    "city_kana": "ヒラカタシ",
    "town": "王仁公園",
    "town_kana": "ワニコウエン",
    "street": null,
    "office_name": null,
    "office_name_kana": null
  },
  "0155": {
    "zip_code": "5730155",
    "prefecture": "大阪府",
    "prefecture_kana": "オオサカフ",
    "prefecture_code": 27,
    "city": "枚方市",
    "city_kana": "ヒラカタシ",
    "town": "藤阪天神町",
    "town_kana": "フジサカテンジンチョウ",
    "street": null,
    "office_name": null,
    "office_name_kana": null
  },
  "0156": {
    "zip_code": "5730156",
    "prefecture": "大阪府",
    "prefecture_kana": "オオサカフ",
    "prefecture_code": 27,
    "city": "枚方市",
    "city_kana": "ヒラカタシ",
    "town": "藤阪南町",
    "town_kana": "フジサカミナミマチ",
    "street": null,
    "office_name": null,
    "office_name_kana": null
  },
  "0157": {
    "zip_code": "5730157",
    "prefecture": "大阪府",
    "prefecture_kana": "オオサカフ",
    "prefecture_code": 27,
    "city": "枚方市",
    "city_kana": "ヒラカタシ",
    "town": "藤阪元町",
    "town_kana": "フジサカモトマチ",
    "street": null,
    "office_name": null,
    "office_name_kana": null
  },
  "0158": {
    "zip_code": "5730158",
    "prefecture": "大阪府",
    "prefecture_kana": "オオサカフ",
    "prefecture_code": 27,
    "city": "枚方市",
    "city_kana": "ヒラカタシ",
    "town": "藤阪西町",
    "town_kana": "フジサカニシマチ",
    "street": null,
    "office_name": null,
    "office_name_kana": null
  },
  "0161": {
    "zip_code": "5730161",
    "prefecture": "大阪府",
    "prefecture_kana": "オオサカフ",
    "prefecture_code": 27,
    "city": "枚方市",
    "city_kana": "ヒラカタシ",
    "town": "長尾北町",
    "town_kana": "ナガオキタマチ",
    "street": null,
    "office_name": null,
    "office_name_kana": null
  },
  "0162": {
    "zip_code": "5730162",
    "prefecture": "大阪府",
    "prefecture_kana": "オオサカフ",
    "prefecture_code": 27,
    "city": "枚方市",
    "city_kana": "ヒラカタシ",
    "town": "長尾西町",
    "town_kana": "ナガオニシマチ",
    "street": null,
    "office_name": null,
    "office_name_kana": null
  },
  "0163": {
    "zip_code": "5730163",
    "prefecture": "大阪府",
    "prefecture_kana": "オオサカフ",
    "prefecture_code": 27,
    "city": "枚方市",
    "city_kana": "ヒラカタシ",
    "town": "長尾元町",
    "town_kana": "ナガオモトマチ",
    "street": null,
    "office_name": null,
    "office_name_kana": null
  },
  "0164": {
    "zip_code": "5730164",
    "prefecture": "大阪府",
    "prefecture_kana": "オオサカフ",
    "prefecture_code": 27,
    "city": "枚方市",
    "city_kana": "ヒラカタシ",
    "town": "長尾谷町",
    "town_kana": "ナガオタニマチ",
    "street": null,
    "office_name": null,
    "office_name_kana": null
  },
  "0165": {
    "zip_code": "5730165",
    "prefecture": "大阪府",
    "prefecture_kana": "オオサカフ",
    "prefecture_code": 27,
    "city": "枚方市",
    "city_kana": "ヒラカタシ",
    "town": "山田池東町",
    "town_kana": "ヤマダイケヒガシマチ",
    "street": null,
    "office_name": null,
    "office_name_kana": null
  },
  "0166": {
    "zip_code": "5730166",
    "prefecture": "大阪府",
    "prefecture_kana": "オオサカフ",
    "prefecture_code": 27,
    "city": "枚方市",
    "city_kana": "ヒラカタシ",
    "town": "山田池北町",
    "town_kana": "ヤマダイケキタマチ",
    "street": null,
    "office_name": null,
    "office_name_kana": null
  },
  "0167": {
    "zip_code": "5730167",
    "prefecture": "大阪府",
    "prefecture_kana": "オオサカフ",
    "prefecture_code": 27,
    "city": "枚方市",
    "city_kana": "ヒラカタシ",
    "town": "山田池公園",
    "town_kana": "ヤマダイケコウエン",
    "street": null,
    "office_name": null,
    "office_name_kana": null
  },
  "0168": {
    "zip_code": "5730168",
    "prefecture": "大阪府",
    "prefecture_kana": "オオサカフ",
    "prefecture_code": 27,
    "city": "枚方市",
    "city_kana": "ヒラカタシ",
    "town": "山田池南町",
    "town_kana": "ヤマダイケミナミマチ",
    "street": null,
    "office_name": null,
    "office_name_kana": null
  },
  "0171": {
    "zip_code": "5730171",
    "prefecture": "大阪府",
    "prefecture_kana": "オオサカフ",
    "prefecture_code": 27,
    "city": "枚方市",
    "city_kana": "ヒラカタシ",
    "town": "北山",
    "town_kana": "キタヤマ",
    "street": null,
    "office_name": null,
    "office_name_kana": null
  },
  "0192": {
    "zip_code": "5730192",
    "prefecture": "大阪府",
    "prefecture_kana": "オオサカフ",
    "prefecture_code": 27,
    "city": "枚方市",
    "city_kana": "ヒラカタシ",
    "town": "杉",
    "town_kana": "スギ",
    "street": "３丁目５０−１",
    "office_name": "大阪国際大学",
    "office_name_kana": "オオサカコクサイダイガク"
  },
  "0195": {
    "zip_code": "5730195",
    "prefecture": "大阪府",
    "prefecture_kana": "オオサカフ",
    "prefecture_code": 27,
    "city": "枚方市",
    "city_kana": "ヒラカタシ",
    "town": "穂谷",
    "town_kana": "ホタニ",
    "street": "１丁目１０−１",
    "office_name": "関西外語大学　穂谷学舎",
    "office_name_kana": "カンサイガイゴダイガク ホタニガクシヤ"
  },
  "1001": {
    "zip_code": "5731001",
    "prefecture": "大阪府",
    "prefecture_kana": "オオサカフ",
    "prefecture_code": 27,
    "city": "枚方市",
    "city_kana": "ヒラカタシ",
    "town": "中宮東之町",
    "town_kana": "ナカミヤヒガシノチョウ",
    "street": "１６−１",
    "office_name": "学校法人　関西外国語大学",
    "office_name_kana": "ガツコウホウジン カンサイガイコクゴダイガク"
  },
  "1007": {
    "zip_code": "5731007",
    "prefecture": "大阪府",
    "prefecture_kana": "オオサカフ",
    "prefecture_code": 27,
    "city": "枚方市",
    "city_kana": "ヒラカタシ",
    "town": "招提田近",
    "town_kana": "ショウダイタヂカ",
    "street": "２−９",
    "office_name": "株式会社　ＫＨＤ",
    "office_name_kana": "カブシキガイシヤ ケイエツチデイ"
  },
  "1010": {
    "zip_code": "5731010",
    "prefecture": "大阪府",
    "prefecture_kana": "オオサカフ",
    "prefecture_code": 27,
    "city": "枚方市",
    "city_kana": "ヒラカタシ",
    "town": "新町",
    "town_kana": "シンマチ",
    "street": "２丁目５番１号",
    "office_name": "関西医科大学",
    "office_name_kana": "カンサイイカダイガク"
  },
  "1030": {
    "zip_code": "5731030",
    "prefecture": "大阪府",
    "prefecture_kana": "オオサカフ",
    "prefecture_code": 27,
    "city": "枚方市",
    "city_kana": "ヒラカタシ",
    "town": "中宮北町",
    "town_kana": "ナカミヤキタマチ",
    "street": "２０番３号",
    "office_name": "枚方市上下水道局",
    "office_name_kana": "ヒラカタシジヨウゲスイドウキヨク"
  },
  "1040": {
    "zip_code": "5731040",
    "prefecture": "大阪府",
    "prefecture_kana": "オオサカフ",
    "prefecture_code": 27,
    "city": "枚方市",
    "city_kana": "ヒラカタシ",
    "town": "招提東町",
    "town_kana": "ショウダイヒガシマチ",
    "street": "１丁目１番１号",
    "office_name": "（株）　枚方自動車教習所",
    "office_name_kana": "(カブ) ヒラカタジドウシヤキヨウシユウジヨ"
  },
  "1101": {
    "zip_code": "5731101",
    "prefecture": "大阪府",
    "prefecture_kana": "オオサカフ",
    "prefecture_code": 27,
    "city": "枚方市",
    "city_kana": "ヒラカタシ",
    "town": "楠葉中之芝",
    "town_kana": "クズハナカノシバ",
    "street": null,
    "office_name": null,
    "office_name_kana": null
  },
  "1102": {
    "zip_code": "5731102",
    "prefecture": "大阪府",
    "prefecture_kana": "オオサカフ",
    "prefecture_code": 27,
    "city": "枚方市",
    "city_kana": "ヒラカタシ",
    "town": "北楠葉町",
    "town_kana": "キタクズハチョウ",
    "street": null,
    "office_name": null,
    "office_name_kana": null
  },
  "1103": {
    "zip_code": "5731103",
    "prefecture": "大阪府",
    "prefecture_kana": "オオサカフ",
    "prefecture_code": 27,
    "city": "枚方市",
    "city_kana": "ヒラカタシ",
    "town": "楠葉野田",
    "town_kana": "クズハノダ",
    "street": null,
    "office_name": null,
    "office_name_kana": null
  },
  "1104": {
    "zip_code": "5731104",
    "prefecture": "大阪府",
    "prefecture_kana": "オオサカフ",
    "prefecture_code": 27,
    "city": "枚方市",
    "city_kana": "ヒラカタシ",
    "town": "楠葉丘",
    "town_kana": "クズハオカ",
    "street": null,
    "office_name": null,
    "office_name_kana": null
  },
  "1105": {
    "zip_code": "5731105",
    "prefecture": "大阪府",
    "prefecture_kana": "オオサカフ",
    "prefecture_code": 27,
    "city": "枚方市",
    "city_kana": "ヒラカタシ",
    "town": "南楠葉",
    "town_kana": "ミナミクズハ",
    "street": null,
    "office_name": null,
    "office_name_kana": null
  },
  "1106": {
    "zip_code": "5731106",
    "prefecture": "大阪府",
    "prefecture_kana": "オオサカフ",
    "prefecture_code": 27,
    "city": "枚方市",
    "city_kana": "ヒラカタシ",
    "town": "町楠葉",
    "town_kana": "マチクズハ",
    "street": null,
    "office_name": null,
    "office_name_kana": null
  },
  "1107": {
    "zip_code": "5731107",
    "prefecture": "大阪府",
    "prefecture_kana": "オオサカフ",
    "prefecture_code": 27,
    "city": "枚方市",
    "city_kana": "ヒラカタシ",
    "town": "楠葉中町",
    "town_kana": "クズハナカマチ",
    "street": null,
    "office_name": null,
    "office_name_kana": null
  },
  "1111": {
    "zip_code": "5731111",
    "prefecture": "大阪府",
    "prefecture_kana": "オオサカフ",
    "prefecture_code": 27,
    "city": "枚方市",
    "city_kana": "ヒラカタシ",
    "town": "楠葉朝日",
    "town_kana": "クズハアサヒ",
    "street": null,
    "office_name": null,
    "office_name_kana": null
  },
  "1112": {
    "zip_code": "5731112",
    "prefecture": "大阪府",
    "prefecture_kana": "オオサカフ",
    "prefecture_code": 27,
    "city": "枚方市",
    "city_kana": "ヒラカタシ",
    "town": "楠葉美咲",
    "town_kana": "クズハミサキ",
    "street": null,
    "office_name": null,
    "office_name_kana": null
  },
  "1113": {
    "zip_code": "5731113",
    "prefecture": "大阪府",
    "prefecture_kana": "オオサカフ",
    "prefecture_code": 27,
    "city": "枚方市",
    "city_kana": "ヒラカタシ",
    "town": "楠葉面取町",
    "town_kana": "クズハメンドリチョウ",
    "street": null,
    "office_name": null,
    "office_name_kana": null
  },
  "1114": {
    "zip_code": "5731114",
    "prefecture": "大阪府",
    "prefecture_kana": "オオサカフ",
    "prefecture_code": 27,
    "city": "枚方市",
    "city_kana": "ヒラカタシ",
    "town": "東山",
    "town_kana": "ヒガシヤマ",
    "street": null,
    "office_name": null,
    "office_name_kana": null
  },
  "1115": {
    "zip_code": "5731115",
    "prefecture": "大阪府",
    "prefecture_kana": "オオサカフ",
    "prefecture_code": 27,
    "city": "枚方市",
    "city_kana": "ヒラカタシ",
    "town": "東船橋",
    "town_kana": "ヒガシフナハシ",
    "street": null,
    "office_name": null,
    "office_name_kana": null
  },
  "1116": {
    "zip_code": "5731116",
    "prefecture": "大阪府",
    "prefecture_kana": "オオサカフ",
    "prefecture_code": 27,
    "city": "枚方市",
    "city_kana": "ヒラカタシ",
    "town": "船橋本町",
    "town_kana": "フナハシホンマチ",
    "street": null,
    "office_name": null,
    "office_name_kana": null
  },
  "1117": {
    "zip_code": "5731117",
    "prefecture": "大阪府",
    "prefecture_kana": "オオサカフ",
    "prefecture_code": 27,
    "city": "枚方市",
    "city_kana": "ヒラカタシ",
    "town": "北船橋町",
    "town_kana": "キタフナハシチョウ",
    "street": null,
    "office_name": null,
    "office_name_kana": null
  },
  "1118": {
    "zip_code": "5731118",
    "prefecture": "大阪府",
    "prefecture_kana": "オオサカフ",
    "prefecture_code": 27,
    "city": "枚方市",
    "city_kana": "ヒラカタシ",
    "town": "楠葉並木",
    "town_kana": "クズハナミキ",
    "street": null,
    "office_name": null,
    "office_name_kana": null
  },
  "1121": {
    "zip_code": "5731121",
    "prefecture": "大阪府",
    "prefecture_kana": "オオサカフ",
    "prefecture_code": 27,
    "city": "枚方市",
    "city_kana": "ヒラカタシ",
    "town": "楠葉花園町",
    "town_kana": "クズハハナゾノチョウ",
    "street": null,
    "office_name": null,
    "office_name_kana": null
  },
  "1122": {
    "zip_code": "5731122",
    "prefecture": "大阪府",
    "prefecture_kana": "オオサカフ",
    "prefecture_code": 27,
    "city": "枚方市",
    "city_kana": "ヒラカタシ",
    "town": "西船橋",
    "town_kana": "ニシフナハシ",
    "street": null,
    "office_name": null,
    "office_name_kana": null
  },
  "1123": {
    "zip_code": "5731123",
    "prefecture": "大阪府",
    "prefecture_kana": "オオサカフ",
    "prefecture_code": 27,
    "city": "枚方市",
    "city_kana": "ヒラカタシ",
    "town": "南船橋",
    "town_kana": "ミナミフナハシ",
    "street": null,
    "office_name": null,
    "office_name_kana": null
  },
  "1124": {
    "zip_code": "5731124",
    "prefecture": "大阪府",
    "prefecture_kana": "オオサカフ",
    "prefecture_code": 27,
    "city": "枚方市",
    "city_kana": "ヒラカタシ",
    "town": "養父東町",
    "town_kana": "ヤブヒガシマチ",
    "street": null,
    "office_name": null,
    "office_name_kana": null
  },
  "1125": {
    "zip_code": "5731125",
    "prefecture": "大阪府",
    "prefecture_kana": "オオサカフ",
    "prefecture_code": 27,
    "city": "枚方市",
    "city_kana": "ヒラカタシ",
    "town": "養父元町",
    "town_kana": "ヤブモトマチ",
    "street": null,
    "office_name": null,
    "office_name_kana": null
  },
  "1126": {
    "zip_code": "5731126",
    "prefecture": "大阪府",
    "prefecture_kana": "オオサカフ",
    "prefecture_code": 27,
    "city": "枚方市",
    "city_kana": "ヒラカタシ",
    "town": "上島東町",
    "town_kana": "カミジマヒガシマチ",
    "street": null,
    "office_name": null,
    "office_name_kana": null
  },
  "1127": {
    "zip_code": "5731127",
    "prefecture": "大阪府",
    "prefecture_kana": "オオサカフ",
    "prefecture_code": 27,
    "city": "枚方市",
    "city_kana": "ヒラカタシ",
    "town": "上島町",
    "town_kana": "カミジマチョウ",
    "street": null,
    "office_name": null,
    "office_name_kana": null
  },
  "1128": {
    "zip_code": "5731128",
    "prefecture": "大阪府",
    "prefecture_kana": "オオサカフ",
    "prefecture_code": 27,
    "city": "枚方市",
    "city_kana": "ヒラカタシ",
    "town": "樋之上町",
    "town_kana": "ヒノウエチョウ",
    "street": null,
    "office_name": null,
    "office_name_kana": null
  },
  "1131": {
    "zip_code": "5731131",
    "prefecture": "大阪府",
    "prefecture_kana": "オオサカフ",
    "prefecture_code": 27,
    "city": "枚方市",
    "city_kana": "ヒラカタシ",
    "town": "高野道",
    "town_kana": "コウヤミチ",
    "street": null,
    "office_name": null,
    "office_name_kana": null
  },
  "1132": {
    "zip_code": "5731132",
    "prefecture": "大阪府",
    "prefecture_kana": "オオサカフ",
    "prefecture_code": 27,
    "city": "枚方市",
    "city_kana": "ヒラカタシ",
    "town": "招提田近",
    "town_kana": "ショウダイタヂカ",
    "street": null,
    "office_name": null,
    "office_name_kana": null
  },
  "1133": {
    "zip_code": "5731133",
    "prefecture": "大阪府",
    "prefecture_kana": "オオサカフ",
    "prefecture_code": 27,
    "city": "枚方市",
    "city_kana": "ヒラカタシ",
    "town": "招提元町",
    "town_kana": "ショウダイモトマチ",
    "street": null,
    "office_name": null,
    "office_name_kana": null
  },
  "1134": {
    "zip_code": "5731134",
    "prefecture": "大阪府",
    "prefecture_kana": "オオサカフ",
    "prefecture_code": 27,
    "city": "枚方市",
    "city_kana": "ヒラカタシ",
    "town": "養父丘",
    "town_kana": "ヤブガオカ",
    "street": null,
    "office_name": null,
    "office_name_kana": null
  },
  "1135": {
    "zip_code": "5731135",
    "prefecture": "大阪府",
    "prefecture_kana": "オオサカフ",
    "prefecture_code": 27,
    "city": "枚方市",
    "city_kana": "ヒラカタシ",
    "town": "招提平野町",
    "town_kana": "ショウダイヒラノチョウ",
    "street": null,
    "office_name": null,
    "office_name_kana": null
  },
  "1136": {
    "zip_code": "5731136",
    "prefecture": "大阪府",
    "prefecture_kana": "オオサカフ",
    "prefecture_code": 27,
    "city": "枚方市",
    "city_kana": "ヒラカタシ",
    "town": "宇山東町",
    "town_kana": "ウヤマヒガシマチ",
    "street": null,
    "office_name": null,
    "office_name_kana": null
  },
  "1137": {
    "zip_code": "5731137",
    "prefecture": "大阪府",
    "prefecture_kana": "オオサカフ",
    "prefecture_code": 27,
    "city": "枚方市",
    "city_kana": "ヒラカタシ",
    "town": "西招提町",
    "town_kana": "ニシショウダイチョウ",
    "street": null,
    "office_name": null,
    "office_name_kana": null
  },
  "1138": {
    "zip_code": "5731138",
    "prefecture": "大阪府",
    "prefecture_kana": "オオサカフ",
    "prefecture_code": 27,
    "city": "枚方市",
    "city_kana": "ヒラカタシ",
    "town": "招提北町",
    "town_kana": "ショウダイキタマチ",
    "street": null,
    "office_name": null,
    "office_name_kana": null
  },
  "1141": {
    "zip_code": "5731141",
    "prefecture": "大阪府",
    "prefecture_kana": "オオサカフ",
    "prefecture_code": 27,
    "city": "枚方市",
    "city_kana": "ヒラカタシ",
    "town": "養父西町",
    "town_kana": "ヤブニシマチ",
    "street": null,
    "office_name": null,
    "office_name_kana": null
  },
  "1142": {
    "zip_code": "5731142",
    "prefecture": "大阪府",
    "prefecture_kana": "オオサカフ",
    "prefecture_code": 27,
    "city": "枚方市",
    "city_kana": "ヒラカタシ",
    "town": "牧野下島町",
    "town_kana": "マキノシモジマチョウ",
    "street": null,
    "office_name": null,
    "office_name_kana": null
  },
  "1143": {
    "zip_code": "5731143",
    "prefecture": "大阪府",
    "prefecture_kana": "オオサカフ",
    "prefecture_code": 27,
    "city": "枚方市",
    "city_kana": "ヒラカタシ",
    "town": "宇山町",
    "town_kana": "ウヤマチョウ",
    "street": null,
    "office_name": null,
    "office_name_kana": null
  },
  "1144": {
    "zip_code": "5731144",
    "prefecture": "大阪府",
    "prefecture_kana": "オオサカフ",
    "prefecture_code": 27,
    "city": "枚方市",
    "city_kana": "ヒラカタシ",
    "town": "牧野本町",
    "town_kana": "マキノホンマチ",
    "street": null,
    "office_name": null,
    "office_name_kana": null
  },
  "1145": {
    "zip_code": "5731145",
    "prefecture": "大阪府",
    "prefecture_kana": "オオサカフ",
    "prefecture_code": 27,
    "city": "枚方市",
    "city_kana": "ヒラカタシ",
    "town": "黄金野",
    "town_kana": "コガネノ",
    "street": null,
    "office_name": null,
    "office_name_kana": null
  },
  "1146": {
    "zip_code": "5731146",
    "prefecture": "大阪府",
    "prefecture_kana": "オオサカフ",
    "prefecture_code": 27,
    "city": "枚方市",
    "city_kana": "ヒラカタシ",
    "town": "牧野阪",
    "town_kana": "マキノサカ",
    "street": null,
    "office_name": null,
    "office_name_kana": null
  },
  "1147": {
    "zip_code": "5731147",
    "prefecture": "大阪府",
    "prefecture_kana": "オオサカフ",
    "prefecture_code": 27,
    "city": "枚方市",
    "city_kana": "ヒラカタシ",
    "town": "渚内野",
    "town_kana": "ナギサウチノ",
    "street": null,
    "office_name": null,
    "office_name_kana": null
  },
  "1148": {
    "zip_code": "5731148",
    "prefecture": "大阪府",
    "prefecture_kana": "オオサカフ",
    "prefecture_code": 27,
    "city": "枚方市",
    "city_kana": "ヒラカタシ",
    "town": "西牧野",
    "town_kana": "ニシマキノ",
    "street": null,
    "office_name": null,
    "office_name_kana": null
  },
  "1149": {
    "zip_code": "5731149",
    "prefecture": "大阪府",
    "prefecture_kana": "オオサカフ",
    "prefecture_code": 27,
    "city": "枚方市",
    "city_kana": "ヒラカタシ",
    "town": "牧野北町",
    "town_kana": "マキノキタマチ",
    "street": null,
    "office_name": null,
    "office_name_kana": null
  },
  "1151": {
    "zip_code": "5731151",
    "prefecture": "大阪府",
    "prefecture_kana": "オオサカフ",
    "prefecture_code": 27,
    "city": "枚方市",
    "city_kana": "ヒラカタシ",
    "town": "東牧野町",
    "town_kana": "ヒガシマキノチョウ",
    "street": null,
    "office_name": null,
    "office_name_kana": null
  },
  "1152": {
    "zip_code": "5731152",
    "prefecture": "大阪府",
    "prefecture_kana": "オオサカフ",
    "prefecture_code": 27,
    "city": "枚方市",
    "city_kana": "ヒラカタシ",
    "town": "招提中町",
    "town_kana": "ショウダイナカマチ",
    "street": null,
    "office_name": null,
    "office_name_kana": null
  },
  "1153": {
    "zip_code": "5731153",
    "prefecture": "大阪府",
    "prefecture_kana": "オオサカフ",
    "prefecture_code": 27,
    "city": "枚方市",
    "city_kana": "ヒラカタシ",
    "town": "招提大谷",
    "town_kana": "ショウダイオオタニ",
    "street": null,
    "office_name": null,
    "office_name_kana": null
  },
  "1154": {
    "zip_code": "5731154",
    "prefecture": "大阪府",
    "prefecture_kana": "オオサカフ",
    "prefecture_code": 27,
    "city": "枚方市",
    "city_kana": "ヒラカタシ",
    "town": "招提東町",
    "town_kana": "ショウダイヒガシマチ",
    "street": null,
    "office_name": null,
    "office_name_kana": null
  },
  "1155": {
    "zip_code": "5731155",
    "prefecture": "大阪府",
    "prefecture_kana": "オオサカフ",
    "prefecture_code": 27,
    "city": "枚方市",
    "city_kana": "ヒラカタシ",
    "town": "招提南町",
    "town_kana": "ショウダイミナミマチ",
    "street": null,
    "office_name": null,
    "office_name_kana": null
  },
  "1156": {
    "zip_code": "5731156",
    "prefecture": "大阪府",
    "prefecture_kana": "オオサカフ",
    "prefecture_code": 27,
    "city": "枚方市",
    "city_kana": "ヒラカタシ",
    "town": "片鉾東町",
    "town_kana": "カタホコヒガシマチ",
    "street": null,
    "office_name": null,
    "office_name_kana": null
  },
  "1157": {
    "zip_code": "5731157",
    "prefecture": "大阪府",
    "prefecture_kana": "オオサカフ",
    "prefecture_code": 27,
    "city": "枚方市",
    "city_kana": "ヒラカタシ",
    "town": "片鉾本町",
    "town_kana": "カタホコホンマチ",
    "street": null,
    "office_name": null,
    "office_name_kana": null
  },
  "1158": {
    "zip_code": "5731158",
    "prefecture": "大阪府",
    "prefecture_kana": "オオサカフ",
    "prefecture_code": 27,
    "city": "枚方市",
    "city_kana": "ヒラカタシ",
    "town": "北片鉾町",
    "town_kana": "キタカタホコチョウ",
    "street": null,
    "office_name": null,
    "office_name_kana": null
  },
  "1159": {
    "zip_code": "5731159",
    "prefecture": "大阪府",
    "prefecture_kana": "オオサカフ",
    "prefecture_code": 27,
    "city": "枚方市",
    "city_kana": "ヒラカタシ",
    "town": "車塚",
    "town_kana": "クルマヅカ",
    "street": null,
    "office_name": null,
    "office_name_kana": null
  },
  "1161": {
    "zip_code": "5731161",
    "prefecture": "大阪府",
    "prefecture_kana": "オオサカフ",
    "prefecture_code": 27,
    "city": "枚方市",
    "city_kana": "ヒラカタシ",
    "town": "交北",
    "town_kana": "コウホク",
    "street": null,
    "office_name": null,
    "office_name_kana": null
  },
  "1162": {
    "zip_code": "5731162",
    "prefecture": "大阪府",
    "prefecture_kana": "オオサカフ",
    "prefecture_code": 27,
    "city": "枚方市",
    "city_kana": "ヒラカタシ",
    "town": "田口",
    "town_kana": "タグチ",
    "street": null,
    "office_name": null,
    "office_name_kana": null
  },
  "1163": {
    "zip_code": "5731163",
    "prefecture": "大阪府",
    "prefecture_kana": "オオサカフ",
    "prefecture_code": 27,
    "city": "枚方市",
    "city_kana": "ヒラカタシ",
    "town": "甲斐田新町",
    "town_kana": "カイダシンマチ",
    "street": null,
    "office_name": null,
    "office_name_kana": null
  },
  "1164": {
    "zip_code": "5731164",
    "prefecture": "大阪府",
    "prefecture_kana": "オオサカフ",
    "prefecture_code": 27,
    "city": "枚方市",
    "city_kana": "ヒラカタシ",
    "town": "須山町",
    "town_kana": "スヤマチョウ",
    "street": null,
    "office_name": null,
    "office_name_kana": null
  },
  "1165": {
    "zip_code": "5731165",
    "prefecture": "大阪府",
    "prefecture_kana": "オオサカフ",
    "prefecture_code": 27,
    "city": "枚方市",
    "city_kana": "ヒラカタシ",
    "town": "都丘町",
    "town_kana": "ミヤコガオカチョウ",
    "street": null,
    "office_name": null,
    "office_name_kana": null
  },
  "1166": {
    "zip_code": "5731166",
    "prefecture": "大阪府",
    "prefecture_kana": "オオサカフ",
    "prefecture_code": 27,
    "city": "枚方市",
    "city_kana": "ヒラカタシ",
    "town": "新之栄町",
    "town_kana": "シンノエチョウ",
    "street": null,
    "office_name": null,
    "office_name_kana": null
  },
  "1167": {
    "zip_code": "5731167",
    "prefecture": "大阪府",
    "prefecture_kana": "オオサカフ",
    "prefecture_code": 27,
    "city": "枚方市",
    "city_kana": "ヒラカタシ",
    "town": "甲斐田町",
    "town_kana": "カイダチョウ",
    "street": null,
    "office_name": null,
    "office_name_kana": null
  },
  "1168": {
    "zip_code": "5731168",
    "prefecture": "大阪府",
    "prefecture_kana": "オオサカフ",
    "prefecture_code": 27,
    "city": "枚方市",
    "city_kana": "ヒラカタシ",
    "town": "甲斐田東町",
    "town_kana": "カイダヒガシマチ",
    "street": null,
    "office_name": null,
    "office_name_kana": null
  },
  "1171": {
    "zip_code": "5731171",
    "prefecture": "大阪府",
    "prefecture_kana": "オオサカフ",
    "prefecture_code": 27,
    "city": "枚方市",
    "city_kana": "ヒラカタシ",
    "town": "三栗",
    "town_kana": "メグリ",
    "street": null,
    "office_name": null,
    "office_name_kana": null
  },
  "1172": {
    "zip_code": "5731172",
    "prefecture": "大阪府",
    "prefecture_kana": "オオサカフ",
    "prefecture_code": 27,
    "city": "枚方市",
    "city_kana": "ヒラカタシ",
    "town": "渚栄町",
    "town_kana": "ナギササカエマチ",
    "street": null,
    "office_name": null,
    "office_name_kana": null
  },
  "1173": {
    "zip_code": "5731173",
    "prefecture": "大阪府",
    "prefecture_kana": "オオサカフ",
    "prefecture_code": 27,
    "city": "枚方市",
    "city_kana": "ヒラカタシ",
    "town": "小倉町",
    "town_kana": "オグラチョウ",
    "street": null,
    "office_name": null,
    "office_name_kana": null
  },
  "1174": {
    "zip_code": "5731174",
    "prefecture": "大阪府",
    "prefecture_kana": "オオサカフ",
    "prefecture_code": 27,
    "city": "枚方市",
    "city_kana": "ヒラカタシ",
    "town": "小倉東町",
    "town_kana": "オグラヒガシマチ",
    "street": null,
    "office_name": null,
    "office_name_kana": null
  },
  "1175": {
    "zip_code": "5731175",
    "prefecture": "大阪府",
    "prefecture_kana": "オオサカフ",
    "prefecture_code": 27,
    "city": "枚方市",
    "city_kana": "ヒラカタシ",
    "town": "上野",
    "town_kana": "ウエノ",
    "street": null,
    "office_name": null,
    "office_name_kana": null
  },
  "1176": {
    "zip_code": "5731176",
    "prefecture": "大阪府",
    "prefecture_kana": "オオサカフ",
    "prefecture_code": 27,
    "city": "枚方市",
    "city_kana": "ヒラカタシ",
    "town": "渚東町",
    "town_kana": "ナギサヒガシマチ",
    "street": null,
    "office_name": null,
    "office_name_kana": null
  },
  "1177": {
    "zip_code": "5731177",
    "prefecture": "大阪府",
    "prefecture_kana": "オオサカフ",
    "prefecture_code": 27,
    "city": "枚方市",
    "city_kana": "ヒラカタシ",
    "town": "渚元町",
    "town_kana": "ナギサモトマチ",
    "street": null,
    "office_name": null,
    "office_name_kana": null
  },
  "1178": {
    "zip_code": "5731178",
    "prefecture": "大阪府",
    "prefecture_kana": "オオサカフ",
    "prefecture_code": 27,
    "city": "枚方市",
    "city_kana": "ヒラカタシ",
    "town": "渚西",
    "town_kana": "ナギサニシ",
    "street": null,
    "office_name": null,
    "office_name_kana": null
  },
  "1181": {
    "zip_code": "5731181",
    "prefecture": "大阪府",
    "prefecture_kana": "オオサカフ",
    "prefecture_code": 27,
    "city": "枚方市",
    "city_kana": "ヒラカタシ",
    "town": "渚本町",
    "town_kana": "ナギサホンマチ",
    "street": null,
    "office_name": null,
    "office_name_kana": null
  },
  "1182": {
    "zip_code": "5731182",
    "prefecture": "大阪府",
    "prefecture_kana": "オオサカフ",
    "prefecture_code": 27,
    "city": "枚方市",
    "city_kana": "ヒラカタシ",
    "town": "御殿山町",
    "town_kana": "ゴテンヤマチョウ",
    "street": null,
    "office_name": null,
    "office_name_kana": null
  },
  "1183": {
    "zip_code": "5731183",
    "prefecture": "大阪府",
    "prefecture_kana": "オオサカフ",
    "prefecture_code": 27,
    "city": "枚方市",
    "city_kana": "ヒラカタシ",
    "town": "渚南町",
    "town_kana": "ナギサミナミマチ",
    "street": null,
    "office_name": null,
    "office_name_kana": null
  },
  "1184": {
    "zip_code": "5731184",
    "prefecture": "大阪府",
    "prefecture_kana": "オオサカフ",
    "prefecture_code": 27,
    "city": "枚方市",
    "city_kana": "ヒラカタシ",
    "town": "磯島茶屋町",
    "town_kana": "イソシマチャヤマチ",
    "street": null,
    "office_name": null,
    "office_name_kana": null
  },
  "1185": {
    "zip_code": "5731185",
    "prefecture": "大阪府",
    "prefecture_kana": "オオサカフ",
    "prefecture_code": 27,
    "city": "枚方市",
    "city_kana": "ヒラカタシ",
    "town": "天之川町",
    "town_kana": "アマノガワチョウ",
    "street": null,
    "office_name": null,
    "office_name_kana": null
  },
  "1186": {
    "zip_code": "5731186",
    "prefecture": "大阪府",
    "prefecture_kana": "オオサカフ",
    "prefecture_code": 27,
    "city": "枚方市",
    "city_kana": "ヒラカタシ",
    "town": "磯島南町",
    "town_kana": "イソシマミナミマチ",
    "street": null,
    "office_name": null,
    "office_name_kana": null
  },
  "1187": {
    "zip_code": "5731187",
    "prefecture": "大阪府",
    "prefecture_kana": "オオサカフ",
    "prefecture_code": 27,
    "city": "枚方市",
    "city_kana": "ヒラカタシ",
    "town": "磯島元町",
    "town_kana": "イソシマモトマチ",
    "street": null,
    "office_name": null,
    "office_name_kana": null
  },
  "1188": {
    "zip_code": "5731188",
    "prefecture": "大阪府",
    "prefecture_kana": "オオサカフ",
    "prefecture_code": 27,
    "city": "枚方市",
    "city_kana": "ヒラカタシ",
    "town": "磯島北町",
    "town_kana": "イソシマキタマチ",
    "street": null,
    "office_name": null,
    "office_name_kana": null
  },
  "1191": {
    "zip_code": "5731191",
    "prefecture": "大阪府",
    "prefecture_kana": "オオサカフ",
    "prefecture_code": 27,
    "city": "枚方市",
    "city_kana": "ヒラカタシ",
    "town": "新町",
    "town_kana": "シンマチ",
    "street": null,
    "office_name": null,
    "office_name_kana": null
  },
  "1192": {
    "zip_code": "5731192",
    "prefecture": "大阪府",
    "prefecture_kana": "オオサカフ",
    "prefecture_code": 27,
    "city": "枚方市",
    "city_kana": "ヒラカタシ",
    "town": "西禁野",
    "town_kana": "ニシキンヤ",
    "street": null,
    "office_name": null,
    "office_name_kana": null
  },
  "1193": {
    "zip_code": "5731193",
    "prefecture": "大阪府",
    "prefecture_kana": "オオサカフ",
    "prefecture_code": 27,
    "city": "枚方市",
    "city_kana": "ヒラカタシ",
    "town": "御殿山南町",
    "town_kana": "ゴテンヤマミナミマチ",
    "street": null,
    "office_name": null,
    "office_name_kana": null
  },
  "1194": {
    "zip_code": "5731194",
    "prefecture": "大阪府",
    "prefecture_kana": "オオサカフ",
    "prefecture_code": 27,
    "city": "枚方市",
    "city_kana": "ヒラカタシ",
    "town": "中宮北町",
    "town_kana": "ナカミヤキタマチ",
    "street": null,
    "office_name": null,
    "office_name_kana": null
  },
  "1195": {
    "zip_code": "5731195",
    "prefecture": "大阪府",
    "prefecture_kana": "オオサカフ",
    "prefecture_code": 27,
    "city": "枚方市",
    "city_kana": "ヒラカタシ",
    "town": "中宮東之町",
    "town_kana": "ナカミヤヒガシノチョウ",
    "street": null,
    "office_name": null,
    "office_name_kana": null
  },
  "1196": {
    "zip_code": "5731196",
    "prefecture": "大阪府",
    "prefecture_kana": "オオサカフ",
    "prefecture_code": 27,
    "city": "枚方市",
    "city_kana": "ヒラカタシ",
    "town": "中宮本町",
    "town_kana": "ナカミヤホンマチ",
    "street": null,
    "office_name": null,
    "office_name_kana": null
  },
  "1197": {
    "zip_code": "5731197",
    "prefecture": "大阪府",
    "prefecture_kana": "オオサカフ",
    "prefecture_code": 27,
    "city": "枚方市",
    "city_kana": "ヒラカタシ",
    "town": "禁野本町",
    "town_kana": "キンヤホンマチ",
    "street": null,
    "office_name": null,
    "office_name_kana": null
  },
  "8505": {
    "zip_code": "5738505",
    "prefecture": "大阪府",
    "prefecture_kana": "オオサカフ",
    "prefecture_code": 27,
    "city": "枚方市",
    "city_kana": "ヒラカタシ",
    "town": "大垣内町",
    "town_kana": "オオガイトチョウ",
    "street": "２−９−３７",
    "office_name": "枚方簡易裁判所",
    "office_name_kana": "ヒラカタカンイサイバンシヨ"
  },
  "8508": {
    "zip_code": "5738508",
    "prefecture": "大阪府",
    "prefecture_kana": "オオサカフ",
    "prefecture_code": 27,
    "city": "枚方市",
    "city_kana": "ヒラカタシ",
    "town": "菊丘南町",
    "town_kana": "キクガオカミナミマチ",
    "street": "２番１０号",
    "office_name": "パナソニック　株式会社　人材開発カンパニー",
    "office_name_kana": "パナソニツク カブシキガイシヤ ジンザイカイハツカンパニ-"
  },
  "8510": {
    "zip_code": "5738510",
    "prefecture": "大阪府",
    "prefecture_kana": "オオサカフ",
    "prefecture_code": 27,
    "city": "枚方市",
    "city_kana": "ヒラカタシ",
    "town": "三矢町",
    "town_kana": "ミツヤチョウ",
    "street": "５−１８メゾン枚方ビル１Ｆ",
    "office_name": "株式会社　関西ぱど",
    "office_name_kana": "カブシキガイシヤ カンサイパド"
  },
  "8511": {
    "zip_code": "5738511",
    "prefecture": "大阪府",
    "prefecture_kana": "オオサカフ",
    "prefecture_code": 27,
    "city": "枚方市",
    "city_kana": "ヒラカタシ",
    "town": "星丘",
    "town_kana": "ホシガオカ",
    "street": "４丁目８番１号",
    "office_name": "星ヶ丘厚生年金病院",
    "office_name_kana": "ホシガオカコウセイネンキンビヨウイン"
  },
  "8534": {
    "zip_code": "5738534",
    "prefecture": "大阪府",
    "prefecture_kana": "オオサカフ",
    "prefecture_code": 27,
    "city": "枚方市",
    "city_kana": "ヒラカタシ",
    "town": "走谷",
    "town_kana": "ハシリダニ",
    "street": "１丁目１８−１３",
    "office_name": "三洋電機　株式会社　研究開発本部",
    "office_name_kana": "サンヨウデンキ カブシキガイシヤ ケンキユウカイハツホンブ"
  },
  "8556": {
    "zip_code": "5738556",
    "prefecture": "大阪府",
    "prefecture_kana": "オオサカフ",
    "prefecture_code": 27,
    "city": "枚方市",
    "city_kana": "ヒラカタシ",
    "town": "東田宮",
    "town_kana": "ヒガシタミヤ",
    "street": "１−１−６",
    "office_name": "関西電力　株式会社　枚方営業所",
    "office_name_kana": "カンサイデンリヨク カブシキカイシヤ ヒラカタエイギヨウシヨ"
  },
  "8573": {
    "zip_code": "5738573",
    "prefecture": "大阪府",
    "prefecture_kana": "オオサカフ",
    "prefecture_code": 27,
    "city": "枚方市",
    "city_kana": "ヒラカタシ",
    "town": "中宮大池",
    "town_kana": "ナカミヤオオイケ",
    "street": "１丁目１番１号",
    "office_name": "株式会社　クボタ　枚方製造所",
    "office_name_kana": "カブシキガイシヤ クボタ ヒラカタセイゾウシヨ"
  },
  "8666": {
    "zip_code": "5738666",
    "prefecture": "大阪府",
    "prefecture_kana": "オオサカフ",
    "prefecture_code": 27,
    "city": "枚方市",
    "city_kana": "ヒラカタシ",
    "town": "大垣内町",
    "town_kana": "オオガイトチョウ",
    "street": "２丁目１−２０（枚方郵便局私書箱第２０号）",
    "office_name": "枚方市役所",
    "office_name_kana": "ヒラカタシヤクシヨ"
  }
}