{
  "0901": {
    "zip_code": "5780901",
    "prefecture": "大阪府",
    "prefecture_kana": "オオサカフ",
    "prefecture_code": "27",
    "city": "東大阪市",
    "city_kana": "ヒガシオオサカシ",
    "town": "加納",
    "town_kana": "カノウ",
    "street": null,
    "office_name": null,
    "office_name_kana": null
  },
  "0902": {
    "zip_code": "5780902",
    "prefecture": "大阪府",
    "prefecture_kana": "オオサカフ",
    "prefecture_code": "27",
    "city": "東大阪市",
    "city_kana": "ヒガシオオサカシ",
    "town": "川中",
    "town_kana": "カワナカ",
    "street": null,
    "office_name": null,
    "office_name_kana": null
  },
  "0903": {
    "zip_code": "5780903",
    "prefecture": "大阪府",
    "prefecture_kana": "オオサカフ",
    "prefecture_code": "27",
    "city": "東大阪市",
    "city_kana": "ヒガシオオサカシ",
    "town": "今米",
    "town_kana": "イマゴメ",
    "street": null,
    "office_name": null,
    "office_name_kana": null
  },
  "0904": {
    "zip_code": "5780904",
    "prefecture": "大阪府",
    "prefecture_kana": "オオサカフ",
    "prefecture_code": "27",
    "city": "東大阪市",
    "city_kana": "ヒガシオオサカシ",
    "town": "吉原",
    "town_kana": "ヨシハラ",
    "street": null,
    "office_name": null,
    "office_name_kana": null
  },
  "0905": {
    "zip_code": "5780905",
    "prefecture": "大阪府",
    "prefecture_kana": "オオサカフ",
    "prefecture_code": "27",
    "city": "東大阪市",
    "city_kana": "ヒガシオオサカシ",
    "town": "川田",
    "town_kana": "カワダ",
    "street": null,
    "office_name": null,
    "office_name_kana": null
  },
  "0911": {
    "zip_code": "5780911",
    "prefecture": "大阪府",
    "prefecture_kana": "オオサカフ",
    "prefecture_code": "27",
    "city": "東大阪市",
    "city_kana": "ヒガシオオサカシ",
    "town": "中新開",
    "town_kana": "ナカシンカイ",
    "street": null,
    "office_name": null,
    "office_name_kana": null
  },
  "0912": {
    "zip_code": "5780912",
    "prefecture": "大阪府",
    "prefecture_kana": "オオサカフ",
    "prefecture_code": "27",
    "city": "東大阪市",
    "city_kana": "ヒガシオオサカシ",
    "town": "角田",
    "town_kana": "スミダ",
    "street": null,
    "office_name": null,
    "office_name_kana": null
  },
  "0913": {
    "zip_code": "5780913",
    "prefecture": "大阪府",
    "prefecture_kana": "オオサカフ",
    "prefecture_code": "27",
    "city": "東大阪市",
    "city_kana": "ヒガシオオサカシ",
    "town": "中野",
    "town_kana": "ナカノ",
    "street": null,
    "office_name": null,
    "office_name_kana": null
  },
  "0914": {
    "zip_code": "5780914",
    "prefecture": "大阪府",
    "prefecture_kana": "オオサカフ",
    "prefecture_code": "27",
    "city": "東大阪市",
    "city_kana": "ヒガシオオサカシ",
    "town": "箕輪",
    "town_kana": "ミノワ",
    "street": null,
    "office_name": null,
    "office_name_kana": null
  },
  "0915": {
    "zip_code": "5780915",
    "prefecture": "大阪府",
    "prefecture_kana": "オオサカフ",
    "prefecture_code": "27",
    "city": "東大阪市",
    "city_kana": "ヒガシオオサカシ",
    "town": "古箕輪",
    "town_kana": "コミノワ",
    "street": null,
    "office_name": null,
    "office_name_kana": null
  },
  "0921": {
    "zip_code": "5780921",
    "prefecture": "大阪府",
    "prefecture_kana": "オオサカフ",
    "prefecture_code": "27",
    "city": "東大阪市",
    "city_kana": "ヒガシオオサカシ",
    "town": "水走",
    "town_kana": "ミズハイ",
    "street": null,
    "office_name": null,
    "office_name_kana": null
  },
  "0922": {
    "zip_code": "5780922",
    "prefecture": "大阪府",
    "prefecture_kana": "オオサカフ",
    "prefecture_code": "27",
    "city": "東大阪市",
    "city_kana": "ヒガシオオサカシ",
    "town": "松原",
    "town_kana": "マツバラ",
    "street": null,
    "office_name": null,
    "office_name_kana": null
  },
  "0923": {
    "zip_code": "5780923",
    "prefecture": "大阪府",
    "prefecture_kana": "オオサカフ",
    "prefecture_code": "27",
    "city": "東大阪市",
    "city_kana": "ヒガシオオサカシ",
    "town": "松原南",
    "town_kana": "マツバラミナミ",
    "street": null,
    "office_name": null,
    "office_name_kana": null
  },
  "0924": {
    "zip_code": "5780924",
    "prefecture": "大阪府",
    "prefecture_kana": "オオサカフ",
    "prefecture_code": "27",
    "city": "東大阪市",
    "city_kana": "ヒガシオオサカシ",
    "town": "吉田",
    "town_kana": "ヨシタ",
    "street": null,
    "office_name": null,
    "office_name_kana": null
  },
  "0925": {
    "zip_code": "5780925",
    "prefecture": "大阪府",
    "prefecture_kana": "オオサカフ",
    "prefecture_code": "27",
    "city": "東大阪市",
    "city_kana": "ヒガシオオサカシ",
    "town": "稲葉",
    "town_kana": "イナバ",
    "street": null,
    "office_name": null,
    "office_name_kana": null
  },
  "0931": {
    "zip_code": "5780931",
    "prefecture": "大阪府",
    "prefecture_kana": "オオサカフ",
    "prefecture_code": "27",
    "city": "東大阪市",
    "city_kana": "ヒガシオオサカシ",
    "town": "花園東町",
    "town_kana": "ハナゾノヒガシマチ",
    "street": null,
    "office_name": null,
    "office_name_kana": null
  },
  "0932": {
    "zip_code": "5780932",
    "prefecture": "大阪府",
    "prefecture_kana": "オオサカフ",
    "prefecture_code": "27",
    "city": "東大阪市",
    "city_kana": "ヒガシオオサカシ",
    "town": "玉串町東",
    "town_kana": "タマクシチョウヒガシ",
    "street": null,
    "office_name": null,
    "office_name_kana": null
  },
  "0933": {
    "zip_code": "5780933",
    "prefecture": "大阪府",
    "prefecture_kana": "オオサカフ",
    "prefecture_code": "27",
    "city": "東大阪市",
    "city_kana": "ヒガシオオサカシ",
    "town": "玉串元町",
    "town_kana": "タマクシモトマチ",
    "street": null,
    "office_name": null,
    "office_name_kana": null
  },
  "0934": {
    "zip_code": "5780934",
    "prefecture": "大阪府",
    "prefecture_kana": "オオサカフ",
    "prefecture_code": "27",
    "city": "東大阪市",
    "city_kana": "ヒガシオオサカシ",
    "town": "玉串町西",
    "town_kana": "タマクシチョウニシ",
    "street": null,
    "office_name": null,
    "office_name_kana": null
  },
  "0935": {
    "zip_code": "5780935",
    "prefecture": "大阪府",
    "prefecture_kana": "オオサカフ",
    "prefecture_code": "27",
    "city": "東大阪市",
    "city_kana": "ヒガシオオサカシ",
    "town": "若江東町",
    "town_kana": "ワカエヒガシマチ",
    "street": null,
    "office_name": null,
    "office_name_kana": null
  },
  "0936": {
    "zip_code": "5780936",
    "prefecture": "大阪府",
    "prefecture_kana": "オオサカフ",
    "prefecture_code": "27",
    "city": "東大阪市",
    "city_kana": "ヒガシオオサカシ",
    "town": "花園西町",
    "town_kana": "ハナゾノニシマチ",
    "street": null,
    "office_name": null,
    "office_name_kana": null
  },
  "0937": {
    "zip_code": "5780937",
    "prefecture": "大阪府",
    "prefecture_kana": "オオサカフ",
    "prefecture_code": "27",
    "city": "東大阪市",
    "city_kana": "ヒガシオオサカシ",
    "town": "花園本町",
    "town_kana": "ハナゾノホンマチ",
    "street": null,
    "office_name": null,
    "office_name_kana": null
  },
  "0941": {
    "zip_code": "5780941",
    "prefecture": "大阪府",
    "prefecture_kana": "オオサカフ",
    "prefecture_code": "27",
    "city": "東大阪市",
    "city_kana": "ヒガシオオサカシ",
    "town": "岩田町",
    "town_kana": "イワタチョウ",
    "street": null,
    "office_name": null,
    "office_name_kana": null
  },
  "0942": {
    "zip_code": "5780942",
    "prefecture": "大阪府",
    "prefecture_kana": "オオサカフ",
    "prefecture_code": "27",
    "city": "東大阪市",
    "city_kana": "ヒガシオオサカシ",
    "town": "若江本町",
    "town_kana": "ワカエホンマチ",
    "street": null,
    "office_name": null,
    "office_name_kana": null
  },
  "0943": {
    "zip_code": "5780943",
    "prefecture": "大阪府",
    "prefecture_kana": "オオサカフ",
    "prefecture_code": "27",
    "city": "東大阪市",
    "city_kana": "ヒガシオオサカシ",
    "town": "若江南町",
    "town_kana": "ワカエミナミマチ",
    "street": null,
    "office_name": null,
    "office_name_kana": null
  },
  "0944": {
    "zip_code": "5780944",
    "prefecture": "大阪府",
    "prefecture_kana": "オオサカフ",
    "prefecture_code": "27",
    "city": "東大阪市",
    "city_kana": "ヒガシオオサカシ",
    "town": "若江西新町",
    "town_kana": "ワカエニシシンマチ",
    "street": null,
    "office_name": null,
    "office_name_kana": null
  },
  "0945": {
    "zip_code": "5780945",
    "prefecture": "大阪府",
    "prefecture_kana": "オオサカフ",
    "prefecture_code": "27",
    "city": "東大阪市",
    "city_kana": "ヒガシオオサカシ",
    "town": "若江北町",
    "town_kana": "ワカエキタマチ",
    "street": null,
    "office_name": null,
    "office_name_kana": null
  },
  "0946": {
    "zip_code": "5780946",
    "prefecture": "大阪府",
    "prefecture_kana": "オオサカフ",
    "prefecture_code": "27",
    "city": "東大阪市",
    "city_kana": "ヒガシオオサカシ",
    "town": "瓜生堂",
    "town_kana": "ウリュウドウ",
    "street": null,
    "office_name": null,
    "office_name_kana": null
  },
  "0947": {
    "zip_code": "5780947",
    "prefecture": "大阪府",
    "prefecture_kana": "オオサカフ",
    "prefecture_code": "27",
    "city": "東大阪市",
    "city_kana": "ヒガシオオサカシ",
    "town": "西岩田",
    "town_kana": "ニシイワタ",
    "street": null,
    "office_name": null,
    "office_name_kana": null
  },
  "0948": {
    "zip_code": "5780948",
    "prefecture": "大阪府",
    "prefecture_kana": "オオサカフ",
    "prefecture_code": "27",
    "city": "東大阪市",
    "city_kana": "ヒガシオオサカシ",
    "town": "菱屋東",
    "town_kana": "ヒシヤヒガシ",
    "street": null,
    "office_name": null,
    "office_name_kana": null
  },
  "0951": {
    "zip_code": "5780951",
    "prefecture": "大阪府",
    "prefecture_kana": "オオサカフ",
    "prefecture_code": "27",
    "city": "東大阪市",
    "city_kana": "ヒガシオオサカシ",
    "town": "新庄東",
    "town_kana": "シンジョウヒガシ",
    "street": null,
    "office_name": null,
    "office_name_kana": null
  },
  "0952": {
    "zip_code": "5780952",
    "prefecture": "大阪府",
    "prefecture_kana": "オオサカフ",
    "prefecture_code": "27",
    "city": "東大阪市",
    "city_kana": "ヒガシオオサカシ",
    "town": "本庄東",
    "town_kana": "ホンジョウヒガシ",
    "street": null,
    "office_name": null,
    "office_name_kana": null
  },
  "0953": {
    "zip_code": "5780953",
    "prefecture": "大阪府",
    "prefecture_kana": "オオサカフ",
    "prefecture_code": "27",
    "city": "東大阪市",
    "city_kana": "ヒガシオオサカシ",
    "town": "本庄",
    "town_kana": "ホンジョウ",
    "street": null,
    "office_name": null,
    "office_name_kana": null
  },
  "0954": {
    "zip_code": "5780954",
    "prefecture": "大阪府",
    "prefecture_kana": "オオサカフ",
    "prefecture_code": "27",
    "city": "東大阪市",
    "city_kana": "ヒガシオオサカシ",
    "town": "横枕",
    "town_kana": "ヨコマクラ",
    "street": null,
    "office_name": null,
    "office_name_kana": null
  },
  "0955": {
    "zip_code": "5780955",
    "prefecture": "大阪府",
    "prefecture_kana": "オオサカフ",
    "prefecture_code": "27",
    "city": "東大阪市",
    "city_kana": "ヒガシオオサカシ",
    "town": "横枕南",
    "town_kana": "ヨコマクラミナミ",
    "street": null,
    "office_name": null,
    "office_name_kana": null
  },
  "0956": {
    "zip_code": "5780956",
    "prefecture": "大阪府",
    "prefecture_kana": "オオサカフ",
    "prefecture_code": "27",
    "city": "東大阪市",
    "city_kana": "ヒガシオオサカシ",
    "town": "横枕西",
    "town_kana": "ヨコマクラニシ",
    "street": null,
    "office_name": null,
    "office_name_kana": null
  },
  "0957": {
    "zip_code": "5780957",
    "prefecture": "大阪府",
    "prefecture_kana": "オオサカフ",
    "prefecture_code": "27",
    "city": "東大阪市",
    "city_kana": "ヒガシオオサカシ",
    "town": "本庄中",
    "town_kana": "ホンジョウナカ",
    "street": null,
    "office_name": null,
    "office_name_kana": null
  },
  "0958": {
    "zip_code": "5780958",
    "prefecture": "大阪府",
    "prefecture_kana": "オオサカフ",
    "prefecture_code": "27",
    "city": "東大阪市",
    "city_kana": "ヒガシオオサカシ",
    "town": "新庄南",
    "town_kana": "シンジョウミナミ",
    "street": null,
    "office_name": null,
    "office_name_kana": null
  },
  "0961": {
    "zip_code": "5780961",
    "prefecture": "大阪府",
    "prefecture_kana": "オオサカフ",
    "prefecture_code": "27",
    "city": "東大阪市",
    "city_kana": "ヒガシオオサカシ",
    "town": "南鴻池町",
    "town_kana": "ミナミコウノイケチョウ",
    "street": null,
    "office_name": null,
    "office_name_kana": null
  },
  "0963": {
    "zip_code": "5780963",
    "prefecture": "大阪府",
    "prefecture_kana": "オオサカフ",
    "prefecture_code": "27",
    "city": "東大阪市",
    "city_kana": "ヒガシオオサカシ",
    "town": "新庄",
    "town_kana": "シンジョウ",
    "street": null,
    "office_name": null,
    "office_name_kana": null
  },
  "0964": {
    "zip_code": "5780964",
    "prefecture": "大阪府",
    "prefecture_kana": "オオサカフ",
    "prefecture_code": "27",
    "city": "東大阪市",
    "city_kana": "ヒガシオオサカシ",
    "town": "新庄西",
    "town_kana": "シンジョウニシ",
    "street": null,
    "office_name": null,
    "office_name_kana": null
  },
  "0965": {
    "zip_code": "5780965",
    "prefecture": "大阪府",
    "prefecture_kana": "オオサカフ",
    "prefecture_code": "27",
    "city": "東大阪市",
    "city_kana": "ヒガシオオサカシ",
    "town": "本庄西",
    "town_kana": "ホンジョウニシ",
    "street": null,
    "office_name": null,
    "office_name_kana": null
  },
  "0966": {
    "zip_code": "5780966",
    "prefecture": "大阪府",
    "prefecture_kana": "オオサカフ",
    "prefecture_code": "27",
    "city": "東大阪市",
    "city_kana": "ヒガシオオサカシ",
    "town": "三島",
    "town_kana": "ミシマ",
    "street": null,
    "office_name": null,
    "office_name_kana": null
  },
  "0967": {
    "zip_code": "5780967",
    "prefecture": "大阪府",
    "prefecture_kana": "オオサカフ",
    "prefecture_code": "27",
    "city": "東大阪市",
    "city_kana": "ヒガシオオサカシ",
    "town": "新鴻池町",
    "town_kana": "シンコウノイケチョウ",
    "street": null,
    "office_name": null,
    "office_name_kana": null
  },
  "0971": {
    "zip_code": "5780971",
    "prefecture": "大阪府",
    "prefecture_kana": "オオサカフ",
    "prefecture_code": "27",
    "city": "東大阪市",
    "city_kana": "ヒガシオオサカシ",
    "town": "鴻池本町",
    "town_kana": "コウノイケホンマチ",
    "street": null,
    "office_name": null,
    "office_name_kana": null
  },
  "0972": {
    "zip_code": "5780972",
    "prefecture": "大阪府",
    "prefecture_kana": "オオサカフ",
    "prefecture_code": "27",
    "city": "東大阪市",
    "city_kana": "ヒガシオオサカシ",
    "town": "鴻池町",
    "town_kana": "コウノイケチョウ",
    "street": null,
    "office_name": null,
    "office_name_kana": null
  },
  "0973": {
    "zip_code": "5780973",
    "prefecture": "大阪府",
    "prefecture_kana": "オオサカフ",
    "prefecture_code": "27",
    "city": "東大阪市",
    "city_kana": "ヒガシオオサカシ",
    "town": "東鴻池町",
    "town_kana": "ヒガシコウノイケチョウ",
    "street": null,
    "office_name": null,
    "office_name_kana": null
  },
  "0974": {
    "zip_code": "5780974",
    "prefecture": "大阪府",
    "prefecture_kana": "オオサカフ",
    "prefecture_code": "27",
    "city": "東大阪市",
    "city_kana": "ヒガシオオサカシ",
    "town": "鴻池元町",
    "town_kana": "コウノイケモトマチ",
    "street": null,
    "office_name": null,
    "office_name_kana": null
  },
  "0975": {
    "zip_code": "5780975",
    "prefecture": "大阪府",
    "prefecture_kana": "オオサカフ",
    "prefecture_code": "27",
    "city": "東大阪市",
    "city_kana": "ヒガシオオサカシ",
    "town": "中鴻池町",
    "town_kana": "ナカコウノイケチョウ",
    "street": null,
    "office_name": null,
    "office_name_kana": null
  },
  "0976": {
    "zip_code": "5780976",
    "prefecture": "大阪府",
    "prefecture_kana": "オオサカフ",
    "prefecture_code": "27",
    "city": "東大阪市",
    "city_kana": "ヒガシオオサカシ",
    "town": "西鴻池町",
    "town_kana": "ニシコウノイケチョウ",
    "street": null,
    "office_name": null,
    "office_name_kana": null
  },
  "0977": {
    "zip_code": "5780977",
    "prefecture": "大阪府",
    "prefecture_kana": "オオサカフ",
    "prefecture_code": "27",
    "city": "東大阪市",
    "city_kana": "ヒガシオオサカシ",
    "town": "鴻池徳庵町",
    "town_kana": "コウノイケトクアンチョウ",
    "street": null,
    "office_name": null,
    "office_name_kana": null
  },
  "0978": {
    "zip_code": "5780978",
    "prefecture": "大阪府",
    "prefecture_kana": "オオサカフ",
    "prefecture_code": "27",
    "city": "東大阪市",
    "city_kana": "ヒガシオオサカシ",
    "town": "北鴻池町",
    "town_kana": "キタコウノイケチョウ",
    "street": null,
    "office_name": null,
    "office_name_kana": null
  },
  "0981": {
    "zip_code": "5780981",
    "prefecture": "大阪府",
    "prefecture_kana": "オオサカフ",
    "prefecture_code": "27",
    "city": "東大阪市",
    "city_kana": "ヒガシオオサカシ",
    "town": "島之内",
    "town_kana": "シマノウチ",
    "street": null,
    "office_name": null,
    "office_name_kana": null
  },
  "0982": {
    "zip_code": "5780982",
    "prefecture": "大阪府",
    "prefecture_kana": "オオサカフ",
    "prefecture_code": "27",
    "city": "東大阪市",
    "city_kana": "ヒガシオオサカシ",
    "town": "吉田本町",
    "town_kana": "ヨシタホンマチ",
    "street": null,
    "office_name": null,
    "office_name_kana": null
  },
  "0983": {
    "zip_code": "5780983",
    "prefecture": "大阪府",
    "prefecture_kana": "オオサカフ",
    "prefecture_code": "27",
    "city": "東大阪市",
    "city_kana": "ヒガシオオサカシ",
    "town": "吉田下島",
    "town_kana": "ヨシタシモジマ",
    "street": null,
    "office_name": null,
    "office_name_kana": null
  },
  "0984": {
    "zip_code": "5780984",
    "prefecture": "大阪府",
    "prefecture_kana": "オオサカフ",
    "prefecture_code": "27",
    "city": "東大阪市",
    "city_kana": "ヒガシオオサカシ",
    "town": "菱江",
    "town_kana": "ヒシエ",
    "street": null,
    "office_name": null,
    "office_name_kana": null
  },
  "0985": {
    "zip_code": "5780985",
    "prefecture": "大阪府",
    "prefecture_kana": "オオサカフ",
    "prefecture_code": "27",
    "city": "東大阪市",
    "city_kana": "ヒガシオオサカシ",
    "town": "中野南",
    "town_kana": "ナカノミナミ",
    "street": null,
    "office_name": null,
    "office_name_kana": null
  },
  "8501": {
    "zip_code": "5788501",
    "prefecture": "大阪府",
    "prefecture_kana": "オオサカフ",
    "prefecture_code": "27",
    "city": "東大阪市",
    "city_kana": "ヒガシオオサカシ",
    "town": "新庄西",
    "town_kana": "シンジョウニシ",
    "street": "４番１２号",
    "office_name": "トラスコ中山　株式会社　大阪支店",
    "office_name_kana": "トラスコナカヤマ カブシキカイシヤ オオサカシテン"
  },
  "8502": {
    "zip_code": "5788502",
    "prefecture": "大阪府",
    "prefecture_kana": "オオサカフ",
    "prefecture_code": "27",
    "city": "東大阪市",
    "city_kana": "ヒガシオオサカシ",
    "town": "稲葉",
    "town_kana": "イナバ",
    "street": "２丁目３番１７号",
    "office_name": "大阪ガス　株式会社　北東部事業本部",
    "office_name_kana": "オオサカガス カブシキガイシヤ ホクトウブジギヨウホンブ"
  },
  "8511": {
    "zip_code": "5788511",
    "prefecture": "大阪府",
    "prefecture_kana": "オオサカフ",
    "prefecture_code": "27",
    "city": "東大阪市",
    "city_kana": "ヒガシオオサカシ",
    "town": "本庄西",
    "town_kana": "ホンジョウニシ",
    "street": "２丁目３番２７号",
    "office_name": "株式会社　日伝",
    "office_name_kana": "カブシキカイシヤ ニチデン"
  },
  "8515": {
    "zip_code": "5788515",
    "prefecture": "大阪府",
    "prefecture_kana": "オオサカフ",
    "prefecture_code": "27",
    "city": "東大阪市",
    "city_kana": "ヒガシオオサカシ",
    "town": "水走",
    "town_kana": "ミズハイ",
    "street": "３丁目６番４１号",
    "office_name": "ホーチキ　株式会社",
    "office_name_kana": "ホ-チキ カブシキカイシヤ"
  },
  "8522": {
    "zip_code": "5788522",
    "prefecture": "大阪府",
    "prefecture_kana": "オオサカフ",
    "prefecture_code": "27",
    "city": "東大阪市",
    "city_kana": "ヒガシオオサカシ",
    "town": "本庄西",
    "town_kana": "ホンジョウニシ",
    "street": "２丁目３番７号",
    "office_name": "株式会社　不二越　西日本支社",
    "office_name_kana": "カブシキカイシヤ フジコシ ニシニホンシシヤ"
  },
  "8555": {
    "zip_code": "5788555",
    "prefecture": "大阪府",
    "prefecture_kana": "オオサカフ",
    "prefecture_code": "27",
    "city": "東大阪市",
    "city_kana": "ヒガシオオサカシ",
    "town": "本庄西",
    "town_kana": "ホンジョウニシ",
    "street": "１丁目８番３９号",
    "office_name": "トラスコ中山　株式会社",
    "office_name_kana": "トラスコナカヤマ カブシキカイシヤ"
  },
  "8577": {
    "zip_code": "5788577",
    "prefecture": "大阪府",
    "prefecture_kana": "オオサカフ",
    "prefecture_code": "27",
    "city": "東大阪市",
    "city_kana": "ヒガシオオサカシ",
    "town": "水走",
    "town_kana": "ミズハイ",
    "street": "１丁目１２番１６号",
    "office_name": "白子　株式会社　大阪支店",
    "office_name_kana": "シラコ カブシキカイシヤ オオサカシテン"
  },
  "8585": {
    "zip_code": "5788585",
    "prefecture": "大阪府",
    "prefecture_kana": "オオサカフ",
    "prefecture_code": "27",
    "city": "東大阪市",
    "city_kana": "ヒガシオオサカシ",
    "town": "岩田町",
    "town_kana": "イワタチョウ",
    "street": "２丁目３−１",
    "office_name": "タツタ電線　株式会社",
    "office_name_kana": "タツタデンセン カブシキガイシヤ"
  },
  "8588": {
    "zip_code": "5788588",
    "prefecture": "大阪府",
    "prefecture_kana": "オオサカフ",
    "prefecture_code": "27",
    "city": "東大阪市",
    "city_kana": "ヒガシオオサカシ",
    "town": "西岩田",
    "town_kana": "ニシイワタ",
    "street": "３丁目４−５",
    "office_name": "東大阪市立　総合病院",
    "office_name_kana": "ヒガシオオサカシリツ ソウゴウビヨウイン"
  }
}