{
  "8001": {
    "zip_code": "5798001",
    "prefecture": "大阪府",
    "prefecture_kana": "オオサカフ",
    "prefecture_code": "27",
    "city": "東大阪市",
    "city_kana": "ヒガシオオサカシ",
    "town": "善根寺町",
    "town_kana": "ゼンコンジチョウ",
    "street": null,
    "office_name": null,
    "office_name_kana": null
  },
  "8002": {
    "zip_code": "5798002",
    "prefecture": "大阪府",
    "prefecture_kana": "オオサカフ",
    "prefecture_code": "27",
    "city": "東大阪市",
    "city_kana": "ヒガシオオサカシ",
    "town": "池之端町",
    "town_kana": "イケノハタチョウ",
    "street": null,
    "office_name": null,
    "office_name_kana": null
  },
  "8003": {
    "zip_code": "5798003",
    "prefecture": "大阪府",
    "prefecture_kana": "オオサカフ",
    "prefecture_code": "27",
    "city": "東大阪市",
    "city_kana": "ヒガシオオサカシ",
    "town": "日下町",
    "town_kana": "クサカチョウ",
    "street": null,
    "office_name": null,
    "office_name_kana": null
  },
  "8004": {
    "zip_code": "5798004",
    "prefecture": "大阪府",
    "prefecture_kana": "オオサカフ",
    "prefecture_code": "27",
    "city": "東大阪市",
    "city_kana": "ヒガシオオサカシ",
    "town": "布市町",
    "town_kana": "ヌノイチチョウ",
    "street": null,
    "office_name": null,
    "office_name_kana": null
  },
  "8005": {
    "zip_code": "5798005",
    "prefecture": "大阪府",
    "prefecture_kana": "オオサカフ",
    "prefecture_code": "27",
    "city": "東大阪市",
    "city_kana": "ヒガシオオサカシ",
    "town": "元町",
    "town_kana": "モトマチ",
    "street": null,
    "office_name": null,
    "office_name_kana": null
  },
  "8011": {
    "zip_code": "5798011",
    "prefecture": "大阪府",
    "prefecture_kana": "オオサカフ",
    "prefecture_code": "27",
    "city": "東大阪市",
    "city_kana": "ヒガシオオサカシ",
    "town": "東石切町",
    "town_kana": "ヒガシイシキリチョウ",
    "street": null,
    "office_name": null,
    "office_name_kana": null
  },
  "8012": {
    "zip_code": "5798012",
    "prefecture": "大阪府",
    "prefecture_kana": "オオサカフ",
    "prefecture_code": "27",
    "city": "東大阪市",
    "city_kana": "ヒガシオオサカシ",
    "town": "上石切町",
    "town_kana": "カミイシキリチョウ",
    "street": null,
    "office_name": null,
    "office_name_kana": null
  },
  "8013": {
    "zip_code": "5798013",
    "prefecture": "大阪府",
    "prefecture_kana": "オオサカフ",
    "prefecture_code": "27",
    "city": "東大阪市",
    "city_kana": "ヒガシオオサカシ",
    "town": "西石切町",
    "town_kana": "ニシイシキリチョウ",
    "street": null,
    "office_name": null,
    "office_name_kana": null
  },
  "8014": {
    "zip_code": "5798014",
    "prefecture": "大阪府",
    "prefecture_kana": "オオサカフ",
    "prefecture_code": "27",
    "city": "東大阪市",
    "city_kana": "ヒガシオオサカシ",
    "town": "中石切町",
    "town_kana": "ナカイシキリチョウ",
    "street": null,
    "office_name": null,
    "office_name_kana": null
  },
  "8015": {
    "zip_code": "5798015",
    "prefecture": "大阪府",
    "prefecture_kana": "オオサカフ",
    "prefecture_code": "27",
    "city": "東大阪市",
    "city_kana": "ヒガシオオサカシ",
    "town": "北石切町",
    "town_kana": "キタイシキリチョウ",
    "street": null,
    "office_name": null,
    "office_name_kana": null
  },
  "8021": {
    "zip_code": "5798021",
    "prefecture": "大阪府",
    "prefecture_kana": "オオサカフ",
    "prefecture_code": "27",
    "city": "東大阪市",
    "city_kana": "ヒガシオオサカシ",
    "town": "額田町",
    "town_kana": "ヌカタチョウ",
    "street": null,
    "office_name": null,
    "office_name_kana": null
  },
  "8022": {
    "zip_code": "5798022",
    "prefecture": "大阪府",
    "prefecture_kana": "オオサカフ",
    "prefecture_code": "27",
    "city": "東大阪市",
    "city_kana": "ヒガシオオサカシ",
    "town": "山手町",
    "town_kana": "ヤマテチョウ",
    "street": null,
    "office_name": null,
    "office_name_kana": null
  },
  "8023": {
    "zip_code": "5798023",
    "prefecture": "大阪府",
    "prefecture_kana": "オオサカフ",
    "prefecture_code": "27",
    "city": "東大阪市",
    "city_kana": "ヒガシオオサカシ",
    "town": "立花町",
    "town_kana": "タチバナチョウ",
    "street": null,
    "office_name": null,
    "office_name_kana": null
  },
  "8024": {
    "zip_code": "5798024",
    "prefecture": "大阪府",
    "prefecture_kana": "オオサカフ",
    "prefecture_code": "27",
    "city": "東大阪市",
    "city_kana": "ヒガシオオサカシ",
    "town": "南荘町",
    "town_kana": "ナンソウチョウ",
    "street": null,
    "office_name": null,
    "office_name_kana": null
  },
  "8025": {
    "zip_code": "5798025",
    "prefecture": "大阪府",
    "prefecture_kana": "オオサカフ",
    "prefecture_code": "27",
    "city": "東大阪市",
    "city_kana": "ヒガシオオサカシ",
    "town": "宝町",
    "town_kana": "タカラマチ",
    "street": null,
    "office_name": null,
    "office_name_kana": null
  },
  "8026": {
    "zip_code": "5798026",
    "prefecture": "大阪府",
    "prefecture_kana": "オオサカフ",
    "prefecture_code": "27",
    "city": "東大阪市",
    "city_kana": "ヒガシオオサカシ",
    "town": "弥生町",
    "town_kana": "ヤヨイチョウ",
    "street": null,
    "office_name": null,
    "office_name_kana": null
  },
  "8027": {
    "zip_code": "5798027",
    "prefecture": "大阪府",
    "prefecture_kana": "オオサカフ",
    "prefecture_code": "27",
    "city": "東大阪市",
    "city_kana": "ヒガシオオサカシ",
    "town": "東山町",
    "town_kana": "ヒガシヤマチョウ",
    "street": null,
    "office_name": null,
    "office_name_kana": null
  },
  "8031": {
    "zip_code": "5798031",
    "prefecture": "大阪府",
    "prefecture_kana": "オオサカフ",
    "prefecture_code": "27",
    "city": "東大阪市",
    "city_kana": "ヒガシオオサカシ",
    "town": "豊浦町",
    "town_kana": "トヨウラチョウ",
    "street": null,
    "office_name": null,
    "office_name_kana": null
  },
  "8032": {
    "zip_code": "5798032",
    "prefecture": "大阪府",
    "prefecture_kana": "オオサカフ",
    "prefecture_code": "27",
    "city": "東大阪市",
    "city_kana": "ヒガシオオサカシ",
    "town": "東豊浦町",
    "town_kana": "ヒガシトヨウラチョウ",
    "street": null,
    "office_name": null,
    "office_name_kana": null
  },
  "8033": {
    "zip_code": "5798033",
    "prefecture": "大阪府",
    "prefecture_kana": "オオサカフ",
    "prefecture_code": "27",
    "city": "東大阪市",
    "city_kana": "ヒガシオオサカシ",
    "town": "出雲井町",
    "town_kana": "イズモイチョウ",
    "street": null,
    "office_name": null,
    "office_name_kana": null
  },
  "8034": {
    "zip_code": "5798034",
    "prefecture": "大阪府",
    "prefecture_kana": "オオサカフ",
    "prefecture_code": "27",
    "city": "東大阪市",
    "city_kana": "ヒガシオオサカシ",
    "town": "出雲井本町",
    "town_kana": "イズモイホンマチ",
    "street": null,
    "office_name": null,
    "office_name_kana": null
  },
  "8035": {
    "zip_code": "5798035",
    "prefecture": "大阪府",
    "prefecture_kana": "オオサカフ",
    "prefecture_code": "27",
    "city": "東大阪市",
    "city_kana": "ヒガシオオサカシ",
    "town": "鳥居町",
    "town_kana": "トリイチョウ",
    "street": null,
    "office_name": null,
    "office_name_kana": null
  },
  "8036": {
    "zip_code": "5798036",
    "prefecture": "大阪府",
    "prefecture_kana": "オオサカフ",
    "prefecture_code": "27",
    "city": "東大阪市",
    "city_kana": "ヒガシオオサカシ",
    "town": "鷹殿町",
    "town_kana": "タカドノチョウ",
    "street": null,
    "office_name": null,
    "office_name_kana": null
  },
  "8037": {
    "zip_code": "5798037",
    "prefecture": "大阪府",
    "prefecture_kana": "オオサカフ",
    "prefecture_code": "27",
    "city": "東大阪市",
    "city_kana": "ヒガシオオサカシ",
    "town": "新町",
    "town_kana": "シンマチ",
    "street": null,
    "office_name": null,
    "office_name_kana": null
  },
  "8038": {
    "zip_code": "5798038",
    "prefecture": "大阪府",
    "prefecture_kana": "オオサカフ",
    "prefecture_code": "27",
    "city": "東大阪市",
    "city_kana": "ヒガシオオサカシ",
    "town": "箱殿町",
    "town_kana": "ハコドノチョウ",
    "street": null,
    "office_name": null,
    "office_name_kana": null
  },
  "8041": {
    "zip_code": "5798041",
    "prefecture": "大阪府",
    "prefecture_kana": "オオサカフ",
    "prefecture_code": "27",
    "city": "東大阪市",
    "city_kana": "ヒガシオオサカシ",
    "town": "喜里川町",
    "town_kana": "キリカワチョウ",
    "street": null,
    "office_name": null,
    "office_name_kana": null
  },
  "8042": {
    "zip_code": "5798042",
    "prefecture": "大阪府",
    "prefecture_kana": "オオサカフ",
    "prefecture_code": "27",
    "city": "東大阪市",
    "city_kana": "ヒガシオオサカシ",
    "town": "五条町",
    "town_kana": "ゴジョウチョウ",
    "street": null,
    "office_name": null,
    "office_name_kana": null
  },
  "8043": {
    "zip_code": "5798043",
    "prefecture": "大阪府",
    "prefecture_kana": "オオサカフ",
    "prefecture_code": "27",
    "city": "東大阪市",
    "city_kana": "ヒガシオオサカシ",
    "town": "客坊町",
    "town_kana": "キャクボウチョウ",
    "street": null,
    "office_name": null,
    "office_name_kana": null
  },
  "8044": {
    "zip_code": "5798044",
    "prefecture": "大阪府",
    "prefecture_kana": "オオサカフ",
    "prefecture_code": "27",
    "city": "東大阪市",
    "city_kana": "ヒガシオオサカシ",
    "town": "河内町",
    "town_kana": "カワチチョウ",
    "street": null,
    "office_name": null,
    "office_name_kana": null
  },
  "8045": {
    "zip_code": "5798045",
    "prefecture": "大阪府",
    "prefecture_kana": "オオサカフ",
    "prefecture_code": "27",
    "city": "東大阪市",
    "city_kana": "ヒガシオオサカシ",
    "town": "本町",
    "town_kana": "ホンマチ",
    "street": null,
    "office_name": null,
    "office_name_kana": null
  },
  "8046": {
    "zip_code": "5798046",
    "prefecture": "大阪府",
    "prefecture_kana": "オオサカフ",
    "prefecture_code": "27",
    "city": "東大阪市",
    "city_kana": "ヒガシオオサカシ",
    "town": "昭和町",
    "town_kana": "ショウワチョウ",
    "street": null,
    "office_name": null,
    "office_name_kana": null
  },
  "8047": {
    "zip_code": "5798047",
    "prefecture": "大阪府",
    "prefecture_kana": "オオサカフ",
    "prefecture_code": "27",
    "city": "東大阪市",
    "city_kana": "ヒガシオオサカシ",
    "town": "桜町",
    "town_kana": "サクラマチ",
    "street": null,
    "office_name": null,
    "office_name_kana": null
  },
  "8048": {
    "zip_code": "5798048",
    "prefecture": "大阪府",
    "prefecture_kana": "オオサカフ",
    "prefecture_code": "27",
    "city": "東大阪市",
    "city_kana": "ヒガシオオサカシ",
    "town": "旭町",
    "town_kana": "アサヒマチ",
    "street": null,
    "office_name": null,
    "office_name_kana": null
  },
  "8051": {
    "zip_code": "5798051",
    "prefecture": "大阪府",
    "prefecture_kana": "オオサカフ",
    "prefecture_code": "27",
    "city": "東大阪市",
    "city_kana": "ヒガシオオサカシ",
    "town": "瓢箪山町",
    "town_kana": "ヒョウタンヤマチョウ",
    "street": null,
    "office_name": null,
    "office_name_kana": null
  },
  "8052": {
    "zip_code": "5798052",
    "prefecture": "大阪府",
    "prefecture_kana": "オオサカフ",
    "prefecture_code": "27",
    "city": "東大阪市",
    "city_kana": "ヒガシオオサカシ",
    "town": "上四条町",
    "town_kana": "カミシジョウチョウ",
    "street": null,
    "office_name": null,
    "office_name_kana": null
  },
  "8053": {
    "zip_code": "5798053",
    "prefecture": "大阪府",
    "prefecture_kana": "オオサカフ",
    "prefecture_code": "27",
    "city": "東大阪市",
    "city_kana": "ヒガシオオサカシ",
    "town": "四条町",
    "town_kana": "シジョウチョウ",
    "street": null,
    "office_name": null,
    "office_name_kana": null
  },
  "8054": {
    "zip_code": "5798054",
    "prefecture": "大阪府",
    "prefecture_kana": "オオサカフ",
    "prefecture_code": "27",
    "city": "東大阪市",
    "city_kana": "ヒガシオオサカシ",
    "town": "南四条町",
    "town_kana": "ミナミシジョウチョウ",
    "street": null,
    "office_name": null,
    "office_name_kana": null
  },
  "8055": {
    "zip_code": "5798055",
    "prefecture": "大阪府",
    "prefecture_kana": "オオサカフ",
    "prefecture_code": "27",
    "city": "東大阪市",
    "city_kana": "ヒガシオオサカシ",
    "town": "末広町",
    "town_kana": "スエヒロチョウ",
    "street": null,
    "office_name": null,
    "office_name_kana": null
  },
  "8056": {
    "zip_code": "5798056",
    "prefecture": "大阪府",
    "prefecture_kana": "オオサカフ",
    "prefecture_code": "27",
    "city": "東大阪市",
    "city_kana": "ヒガシオオサカシ",
    "town": "若草町",
    "town_kana": "ワカクサチョウ",
    "street": null,
    "office_name": null,
    "office_name_kana": null
  },
  "8057": {
    "zip_code": "5798057",
    "prefecture": "大阪府",
    "prefecture_kana": "オオサカフ",
    "prefecture_code": "27",
    "city": "東大阪市",
    "city_kana": "ヒガシオオサカシ",
    "town": "御幸町",
    "town_kana": "ミユキチョウ",
    "street": null,
    "office_name": null,
    "office_name_kana": null
  },
  "8058": {
    "zip_code": "5798058",
    "prefecture": "大阪府",
    "prefecture_kana": "オオサカフ",
    "prefecture_code": "27",
    "city": "東大阪市",
    "city_kana": "ヒガシオオサカシ",
    "town": "神田町",
    "town_kana": "カンダチョウ",
    "street": null,
    "office_name": null,
    "office_name_kana": null
  },
  "8061": {
    "zip_code": "5798061",
    "prefecture": "大阪府",
    "prefecture_kana": "オオサカフ",
    "prefecture_code": "27",
    "city": "東大阪市",
    "city_kana": "ヒガシオオサカシ",
    "town": "六万寺町",
    "town_kana": "ロクマンジチョウ",
    "street": null,
    "office_name": null,
    "office_name_kana": null
  },
  "8062": {
    "zip_code": "5798062",
    "prefecture": "大阪府",
    "prefecture_kana": "オオサカフ",
    "prefecture_code": "27",
    "city": "東大阪市",
    "city_kana": "ヒガシオオサカシ",
    "town": "上六万寺町",
    "town_kana": "カミロクマンジチョウ",
    "street": null,
    "office_name": null,
    "office_name_kana": null
  },
  "8063": {
    "zip_code": "5798063",
    "prefecture": "大阪府",
    "prefecture_kana": "オオサカフ",
    "prefecture_code": "27",
    "city": "東大阪市",
    "city_kana": "ヒガシオオサカシ",
    "town": "横小路町",
    "town_kana": "ヨコショウジチョウ",
    "street": null,
    "office_name": null,
    "office_name_kana": null
  },
  "8064": {
    "zip_code": "5798064",
    "prefecture": "大阪府",
    "prefecture_kana": "オオサカフ",
    "prefecture_code": "27",
    "city": "東大阪市",
    "city_kana": "ヒガシオオサカシ",
    "town": "池島町",
    "town_kana": "イケシマチョウ",
    "street": null,
    "office_name": null,
    "office_name_kana": null
  },
  "8065": {
    "zip_code": "5798065",
    "prefecture": "大阪府",
    "prefecture_kana": "オオサカフ",
    "prefecture_code": "27",
    "city": "東大阪市",
    "city_kana": "ヒガシオオサカシ",
    "town": "新池島町",
    "town_kana": "シンイケシマチョウ",
    "street": null,
    "office_name": null,
    "office_name_kana": null
  },
  "8066": {
    "zip_code": "5798066",
    "prefecture": "大阪府",
    "prefecture_kana": "オオサカフ",
    "prefecture_code": "27",
    "city": "東大阪市",
    "city_kana": "ヒガシオオサカシ",
    "town": "下六万寺町",
    "town_kana": "シモロクマンジチョウ",
    "street": null,
    "office_name": null,
    "office_name_kana": null
  },
  "8501": {
    "zip_code": "5798501",
    "prefecture": "大阪府",
    "prefecture_kana": "オオサカフ",
    "prefecture_code": "27",
    "city": "東大阪市",
    "city_kana": "ヒガシオオサカシ",
    "town": "旭町",
    "town_kana": "アサヒマチ",
    "street": "２０−２８",
    "office_name": "法務省　大阪法務局　枚岡出張所",
    "office_name_kana": "ホウムシヨウ オオサカホウムキヨク ヒラオカシユツチヨウシヨ"
  },
  "8502": {
    "zip_code": "5798502",
    "prefecture": "大阪府",
    "prefecture_kana": "オオサカフ",
    "prefecture_code": "27",
    "city": "東大阪市",
    "city_kana": "ヒガシオオサカシ",
    "town": "西石切町",
    "town_kana": "ニシイシキリチョウ",
    "street": "７丁目５番１号",
    "office_name": "三浦工業　株式会社",
    "office_name_kana": "ミウラコウギヨウ カブシキガイシヤ"
  }
}