{
  "0000": {
    "zip_code": "5960000",
    "prefecture": "大阪府",
    "prefecture_kana": "オオサカフ",
    "prefecture_code": 27,
    "city": "岸和田市",
    "city_kana": "キシワダシ",
    "town": "",
    "town_kana": "",
    "street": null,
    "office_name": null,
    "office_name_kana": null
  },
  "0001": {
    "zip_code": "5960001",
    "prefecture": "大阪府",
    "prefecture_kana": "オオサカフ",
    "prefecture_code": 27,
    "city": "岸和田市",
    "city_kana": "キシワダシ",
    "town": "磯上町",
    "town_kana": "イソノカミチョウ",
    "street": null,
    "office_name": null,
    "office_name_kana": null
  },
  "0002": {
    "zip_code": "5960002",
    "prefecture": "大阪府",
    "prefecture_kana": "オオサカフ",
    "prefecture_code": 27,
    "city": "岸和田市",
    "city_kana": "キシワダシ",
    "town": "吉井町",
    "town_kana": "ヨシイチョウ",
    "street": null,
    "office_name": null,
    "office_name_kana": null
  },
  "0003": {
    "zip_code": "5960003",
    "prefecture": "大阪府",
    "prefecture_kana": "オオサカフ",
    "prefecture_code": 27,
    "city": "岸和田市",
    "city_kana": "キシワダシ",
    "town": "中井町",
    "town_kana": "ナカイチョウ",
    "street": null,
    "office_name": null,
    "office_name_kana": null
  },
  "0004": {
    "zip_code": "5960004",
    "prefecture": "大阪府",
    "prefecture_kana": "オオサカフ",
    "prefecture_code": 27,
    "city": "岸和田市",
    "city_kana": "キシワダシ",
    "town": "荒木町",
    "town_kana": "アラキチョウ",
    "street": null,
    "office_name": null,
    "office_name_kana": null
  },
  "0005": {
    "zip_code": "5960005",
    "prefecture": "大阪府",
    "prefecture_kana": "オオサカフ",
    "prefecture_code": 27,
    "city": "岸和田市",
    "city_kana": "キシワダシ",
    "town": "春木旭町",
    "town_kana": "ハルキアサヒマチ",
    "street": null,
    "office_name": null,
    "office_name_kana": null
  },
  "0006": {
    "zip_code": "5960006",
    "prefecture": "大阪府",
    "prefecture_kana": "オオサカフ",
    "prefecture_code": 27,
    "city": "岸和田市",
    "city_kana": "キシワダシ",
    "town": "春木若松町",
    "town_kana": "ハルキワカマツチョウ",
    "street": null,
    "office_name": null,
    "office_name_kana": null
  },
  "0011": {
    "zip_code": "5960011",
    "prefecture": "大阪府",
    "prefecture_kana": "オオサカフ",
    "prefecture_code": 27,
    "city": "岸和田市",
    "city_kana": "キシワダシ",
    "town": "木材町",
    "town_kana": "モクザイチョウ",
    "street": null,
    "office_name": null,
    "office_name_kana": null
  },
  "0012": {
    "zip_code": "5960012",
    "prefecture": "大阪府",
    "prefecture_kana": "オオサカフ",
    "prefecture_code": 27,
    "city": "岸和田市",
    "city_kana": "キシワダシ",
    "town": "新港町",
    "town_kana": "シンミナトマチ",
    "street": null,
    "office_name": null,
    "office_name_kana": null
  },
  "0013": {
    "zip_code": "5960013",
    "prefecture": "大阪府",
    "prefecture_kana": "オオサカフ",
    "prefecture_code": 27,
    "city": "岸和田市",
    "city_kana": "キシワダシ",
    "town": "臨海町",
    "town_kana": "リンカイチョウ",
    "street": null,
    "office_name": null,
    "office_name_kana": null
  },
  "0014": {
    "zip_code": "5960014",
    "prefecture": "大阪府",
    "prefecture_kana": "オオサカフ",
    "prefecture_code": 27,
    "city": "岸和田市",
    "city_kana": "キシワダシ",
    "town": "港緑町",
    "town_kana": "ミナトミドリマチ",
    "street": null,
    "office_name": null,
    "office_name_kana": null
  },
  "0015": {
    "zip_code": "5960015",
    "prefecture": "大阪府",
    "prefecture_kana": "オオサカフ",
    "prefecture_code": 27,
    "city": "岸和田市",
    "city_kana": "キシワダシ",
    "town": "地蔵浜町",
    "town_kana": "ジゾウハマチョウ",
    "street": null,
    "office_name": null,
    "office_name_kana": null
  },
  "0016": {
    "zip_code": "5960016",
    "prefecture": "大阪府",
    "prefecture_kana": "オオサカフ",
    "prefecture_code": 27,
    "city": "岸和田市",
    "city_kana": "キシワダシ",
    "town": "岸之浦町",
    "town_kana": "キシノウラチョウ",
    "street": null,
    "office_name": null,
    "office_name_kana": null
  },
  "0021": {
    "zip_code": "5960021",
    "prefecture": "大阪府",
    "prefecture_kana": "オオサカフ",
    "prefecture_code": 27,
    "city": "岸和田市",
    "city_kana": "キシワダシ",
    "town": "松風町",
    "town_kana": "マツカゼチョウ",
    "street": null,
    "office_name": null,
    "office_name_kana": null
  },
  "0022": {
    "zip_code": "5960022",
    "prefecture": "大阪府",
    "prefecture_kana": "オオサカフ",
    "prefecture_code": 27,
    "city": "岸和田市",
    "city_kana": "キシワダシ",
    "town": "戎町",
    "town_kana": "エビスチョウ",
    "street": null,
    "office_name": null,
    "office_name_kana": null
  },
  "0023": {
    "zip_code": "5960023",
    "prefecture": "大阪府",
    "prefecture_kana": "オオサカフ",
    "prefecture_code": 27,
    "city": "岸和田市",
    "city_kana": "キシワダシ",
    "town": "八幡町",
    "town_kana": "ハチマンチョウ",
    "street": null,
    "office_name": null,
    "office_name_kana": null
  },
  "0024": {
    "zip_code": "5960024",
    "prefecture": "大阪府",
    "prefecture_kana": "オオサカフ",
    "prefecture_code": 27,
    "city": "岸和田市",
    "city_kana": "キシワダシ",
    "town": "春木宮川町",
    "town_kana": "ハルキミヤガワチョウ",
    "street": null,
    "office_name": null,
    "office_name_kana": null
  },
  "0025": {
    "zip_code": "5960025",
    "prefecture": "大阪府",
    "prefecture_kana": "オオサカフ",
    "prefecture_code": 27,
    "city": "岸和田市",
    "city_kana": "キシワダシ",
    "town": "春木宮本町",
    "town_kana": "ハルキミヤモトチョウ",
    "street": null,
    "office_name": null,
    "office_name_kana": null
  },
  "0026": {
    "zip_code": "5960026",
    "prefecture": "大阪府",
    "prefecture_kana": "オオサカフ",
    "prefecture_code": 27,
    "city": "岸和田市",
    "city_kana": "キシワダシ",
    "town": "春木大国町",
    "town_kana": "ハルキダイコクチョウ",
    "street": null,
    "office_name": null,
    "office_name_kana": null
  },
  "0031": {
    "zip_code": "5960031",
    "prefecture": "大阪府",
    "prefecture_kana": "オオサカフ",
    "prefecture_code": 27,
    "city": "岸和田市",
    "city_kana": "キシワダシ",
    "town": "春木大小路町",
    "town_kana": "ハルキオオショウジチョウ",
    "street": null,
    "office_name": null,
    "office_name_kana": null
  },
  "0032": {
    "zip_code": "5960032",
    "prefecture": "大阪府",
    "prefecture_kana": "オオサカフ",
    "prefecture_code": 27,
    "city": "岸和田市",
    "city_kana": "キシワダシ",
    "town": "春木元町",
    "town_kana": "ハルキモトマチ",
    "street": null,
    "office_name": null,
    "office_name_kana": null
  },
  "0033": {
    "zip_code": "5960033",
    "prefecture": "大阪府",
    "prefecture_kana": "オオサカフ",
    "prefecture_code": 27,
    "city": "岸和田市",
    "city_kana": "キシワダシ",
    "town": "春木中町",
    "town_kana": "ハルキナカマチ",
    "street": null,
    "office_name": null,
    "office_name_kana": null
  },
  "0034": {
    "zip_code": "5960034",
    "prefecture": "大阪府",
    "prefecture_kana": "オオサカフ",
    "prefecture_code": 27,
    "city": "岸和田市",
    "city_kana": "キシワダシ",
    "town": "春木本町",
    "town_kana": "ハルキホンマチ",
    "street": null,
    "office_name": null,
    "office_name_kana": null
  },
  "0035": {
    "zip_code": "5960035",
    "prefecture": "大阪府",
    "prefecture_kana": "オオサカフ",
    "prefecture_code": 27,
    "city": "岸和田市",
    "city_kana": "キシワダシ",
    "town": "春木泉町",
    "town_kana": "ハルキイズミチョウ",
    "street": null,
    "office_name": null,
    "office_name_kana": null
  },
  "0036": {
    "zip_code": "5960036",
    "prefecture": "大阪府",
    "prefecture_kana": "オオサカフ",
    "prefecture_code": 27,
    "city": "岸和田市",
    "city_kana": "キシワダシ",
    "town": "春木南浜町",
    "town_kana": "ハルキミナミハマチョウ",
    "street": null,
    "office_name": null,
    "office_name_kana": null
  },
  "0037": {
    "zip_code": "5960037",
    "prefecture": "大阪府",
    "prefecture_kana": "オオサカフ",
    "prefecture_code": 27,
    "city": "岸和田市",
    "city_kana": "キシワダシ",
    "town": "春木北浜町",
    "town_kana": "ハルキキタハマチョウ",
    "street": null,
    "office_name": null,
    "office_name_kana": null
  },
  "0041": {
    "zip_code": "5960041",
    "prefecture": "大阪府",
    "prefecture_kana": "オオサカフ",
    "prefecture_code": 27,
    "city": "岸和田市",
    "city_kana": "キシワダシ",
    "town": "下野町",
    "town_kana": "シモノチョウ",
    "street": null,
    "office_name": null,
    "office_name_kana": null
  },
  "0042": {
    "zip_code": "5960042",
    "prefecture": "大阪府",
    "prefecture_kana": "オオサカフ",
    "prefecture_code": 27,
    "city": "岸和田市",
    "city_kana": "キシワダシ",
    "town": "加守町",
    "town_kana": "カモリチョウ",
    "street": null,
    "office_name": null,
    "office_name_kana": null
  },
  "0043": {
    "zip_code": "5960043",
    "prefecture": "大阪府",
    "prefecture_kana": "オオサカフ",
    "prefecture_code": 27,
    "city": "岸和田市",
    "city_kana": "キシワダシ",
    "town": "宮前町",
    "town_kana": "ミヤマエチョウ",
    "street": null,
    "office_name": null,
    "office_name_kana": null
  },
  "0044": {
    "zip_code": "5960044",
    "prefecture": "大阪府",
    "prefecture_kana": "オオサカフ",
    "prefecture_code": 27,
    "city": "岸和田市",
    "city_kana": "キシワダシ",
    "town": "西之内町",
    "town_kana": "ニシノウチチョウ",
    "street": null,
    "office_name": null,
    "office_name_kana": null
  },
  "0045": {
    "zip_code": "5960045",
    "prefecture": "大阪府",
    "prefecture_kana": "オオサカフ",
    "prefecture_code": 27,
    "city": "岸和田市",
    "city_kana": "キシワダシ",
    "town": "別所町",
    "town_kana": "ベッシヨチョウ",
    "street": null,
    "office_name": null,
    "office_name_kana": null
  },
  "0046": {
    "zip_code": "5960046",
    "prefecture": "大阪府",
    "prefecture_kana": "オオサカフ",
    "prefecture_code": 27,
    "city": "岸和田市",
    "city_kana": "キシワダシ",
    "town": "藤井町",
    "town_kana": "フジイチョウ",
    "street": null,
    "office_name": null,
    "office_name_kana": null
  },
  "0047": {
    "zip_code": "5960047",
    "prefecture": "大阪府",
    "prefecture_kana": "オオサカフ",
    "prefecture_code": 27,
    "city": "岸和田市",
    "city_kana": "キシワダシ",
    "town": "上野町東",
    "town_kana": "カミノチョウヒガシ",
    "street": null,
    "office_name": null,
    "office_name_kana": null
  },
  "0048": {
    "zip_code": "5960048",
    "prefecture": "大阪府",
    "prefecture_kana": "オオサカフ",
    "prefecture_code": 27,
    "city": "岸和田市",
    "city_kana": "キシワダシ",
    "town": "上野町西",
    "town_kana": "カミノチョウニシ",
    "street": null,
    "office_name": null,
    "office_name_kana": null
  },
  "0049": {
    "zip_code": "5960049",
    "prefecture": "大阪府",
    "prefecture_kana": "オオサカフ",
    "prefecture_code": 27,
    "city": "岸和田市",
    "city_kana": "キシワダシ",
    "town": "八阪町",
    "town_kana": "ヤサカチョウ",
    "street": null,
    "office_name": null,
    "office_name_kana": null
  },
  "0051": {
    "zip_code": "5960051",
    "prefecture": "大阪府",
    "prefecture_kana": "オオサカフ",
    "prefecture_code": 27,
    "city": "岸和田市",
    "city_kana": "キシワダシ",
    "town": "岸野町",
    "town_kana": "キシノチョウ",
    "street": null,
    "office_name": null,
    "office_name_kana": null
  },
  "0052": {
    "zip_code": "5960052",
    "prefecture": "大阪府",
    "prefecture_kana": "オオサカフ",
    "prefecture_code": 27,
    "city": "岸和田市",
    "city_kana": "キシワダシ",
    "town": "並松町",
    "town_kana": "ナンマツチョウ",
    "street": null,
    "office_name": null,
    "office_name_kana": null
  },
  "0053": {
    "zip_code": "5960053",
    "prefecture": "大阪府",
    "prefecture_kana": "オオサカフ",
    "prefecture_code": 27,
    "city": "岸和田市",
    "city_kana": "キシワダシ",
    "town": "沼町",
    "town_kana": "ヌマチョウ",
    "street": null,
    "office_name": null,
    "office_name_kana": null
  },
  "0054": {
    "zip_code": "5960054",
    "prefecture": "大阪府",
    "prefecture_kana": "オオサカフ",
    "prefecture_code": 27,
    "city": "岸和田市",
    "city_kana": "キシワダシ",
    "town": "宮本町",
    "town_kana": "ミヤモトチョウ",
    "street": null,
    "office_name": null,
    "office_name_kana": null
  },
  "0055": {
    "zip_code": "5960055",
    "prefecture": "大阪府",
    "prefecture_kana": "オオサカフ",
    "prefecture_code": 27,
    "city": "岸和田市",
    "city_kana": "キシワダシ",
    "town": "五軒屋町",
    "town_kana": "ゴケンヤマチ",
    "street": null,
    "office_name": null,
    "office_name_kana": null
  },
  "0056": {
    "zip_code": "5960056",
    "prefecture": "大阪府",
    "prefecture_kana": "オオサカフ",
    "prefecture_code": 27,
    "city": "岸和田市",
    "city_kana": "キシワダシ",
    "town": "北町",
    "town_kana": "キタマチ",
    "street": null,
    "office_name": null,
    "office_name_kana": null
  },
  "0057": {
    "zip_code": "5960057",
    "prefecture": "大阪府",
    "prefecture_kana": "オオサカフ",
    "prefecture_code": 27,
    "city": "岸和田市",
    "city_kana": "キシワダシ",
    "town": "筋海町",
    "town_kana": "スジカイチョウ",
    "street": null,
    "office_name": null,
    "office_name_kana": null
  },
  "0061": {
    "zip_code": "5960061",
    "prefecture": "大阪府",
    "prefecture_kana": "オオサカフ",
    "prefecture_code": 27,
    "city": "岸和田市",
    "city_kana": "キシワダシ",
    "town": "大北町",
    "town_kana": "オオキタチョウ",
    "street": null,
    "office_name": null,
    "office_name_kana": null
  },
  "0062": {
    "zip_code": "5960062",
    "prefecture": "大阪府",
    "prefecture_kana": "オオサカフ",
    "prefecture_code": 27,
    "city": "岸和田市",
    "city_kana": "キシワダシ",
    "town": "中北町",
    "town_kana": "ナカキタチョウ",
    "street": null,
    "office_name": null,
    "office_name_kana": null
  },
  "0063": {
    "zip_code": "5960063",
    "prefecture": "大阪府",
    "prefecture_kana": "オオサカフ",
    "prefecture_code": 27,
    "city": "岸和田市",
    "city_kana": "キシワダシ",
    "town": "大手町",
    "town_kana": "オオテチョウ",
    "street": null,
    "office_name": null,
    "office_name_kana": null
  },
  "0064": {
    "zip_code": "5960064",
    "prefecture": "大阪府",
    "prefecture_kana": "オオサカフ",
    "prefecture_code": 27,
    "city": "岸和田市",
    "city_kana": "キシワダシ",
    "town": "紙屋町",
    "town_kana": "カミヤチョウ",
    "street": null,
    "office_name": null,
    "office_name_kana": null
  },
  "0065": {
    "zip_code": "5960065",
    "prefecture": "大阪府",
    "prefecture_kana": "オオサカフ",
    "prefecture_code": 27,
    "city": "岸和田市",
    "city_kana": "キシワダシ",
    "town": "中之浜町",
    "town_kana": "ナカノハマチョウ",
    "street": null,
    "office_name": null,
    "office_name_kana": null
  },
  "0066": {
    "zip_code": "5960066",
    "prefecture": "大阪府",
    "prefecture_kana": "オオサカフ",
    "prefecture_code": 27,
    "city": "岸和田市",
    "city_kana": "キシワダシ",
    "town": "大工町",
    "town_kana": "ダイクマチ",
    "street": null,
    "office_name": null,
    "office_name_kana": null
  },
  "0067": {
    "zip_code": "5960067",
    "prefecture": "大阪府",
    "prefecture_kana": "オオサカフ",
    "prefecture_code": 27,
    "city": "岸和田市",
    "city_kana": "キシワダシ",
    "town": "南町",
    "town_kana": "ミナミマチ",
    "street": null,
    "office_name": null,
    "office_name_kana": null
  },
  "0071": {
    "zip_code": "5960071",
    "prefecture": "大阪府",
    "prefecture_kana": "オオサカフ",
    "prefecture_code": 27,
    "city": "岸和田市",
    "city_kana": "キシワダシ",
    "town": "魚屋町",
    "town_kana": "ウオヤマチ",
    "street": null,
    "office_name": null,
    "office_name_kana": null
  },
  "0072": {
    "zip_code": "5960072",
    "prefecture": "大阪府",
    "prefecture_kana": "オオサカフ",
    "prefecture_code": 27,
    "city": "岸和田市",
    "city_kana": "キシワダシ",
    "town": "堺町",
    "town_kana": "サカイマチ",
    "street": null,
    "office_name": null,
    "office_name_kana": null
  },
  "0073": {
    "zip_code": "5960073",
    "prefecture": "大阪府",
    "prefecture_kana": "オオサカフ",
    "prefecture_code": 27,
    "city": "岸和田市",
    "city_kana": "キシワダシ",
    "town": "岸城町",
    "town_kana": "キシキチョウ",
    "street": null,
    "office_name": null,
    "office_name_kana": null
  },
  "0074": {
    "zip_code": "5960074",
    "prefecture": "大阪府",
    "prefecture_kana": "オオサカフ",
    "prefecture_code": 27,
    "city": "岸和田市",
    "city_kana": "キシワダシ",
    "town": "本町",
    "town_kana": "ホンマチ",
    "street": null,
    "office_name": null,
    "office_name_kana": null
  },
  "0075": {
    "zip_code": "5960075",
    "prefecture": "大阪府",
    "prefecture_kana": "オオサカフ",
    "prefecture_code": 27,
    "city": "岸和田市",
    "city_kana": "キシワダシ",
    "town": "中町",
    "town_kana": "ナカマチ",
    "street": null,
    "office_name": null,
    "office_name_kana": null
  },
  "0076": {
    "zip_code": "5960076",
    "prefecture": "大阪府",
    "prefecture_kana": "オオサカフ",
    "prefecture_code": 27,
    "city": "岸和田市",
    "city_kana": "キシワダシ",
    "town": "野田町",
    "town_kana": "ノダチョウ",
    "street": null,
    "office_name": null,
    "office_name_kana": null
  },
  "0077": {
    "zip_code": "5960077",
    "prefecture": "大阪府",
    "prefecture_kana": "オオサカフ",
    "prefecture_code": 27,
    "city": "岸和田市",
    "city_kana": "キシワダシ",
    "town": "上町",
    "town_kana": "ウエマチ",
    "street": null,
    "office_name": null,
    "office_name_kana": null
  },
  "0078": {
    "zip_code": "5960078",
    "prefecture": "大阪府",
    "prefecture_kana": "オオサカフ",
    "prefecture_code": 27,
    "city": "岸和田市",
    "city_kana": "キシワダシ",
    "town": "南上町",
    "town_kana": "ミナミウエマチ",
    "street": null,
    "office_name": null,
    "office_name_kana": null
  },
  "0101": {
    "zip_code": "5960101",
    "prefecture": "大阪府",
    "prefecture_kana": "オオサカフ",
    "prefecture_code": 27,
    "city": "岸和田市",
    "city_kana": "キシワダシ",
    "town": "包近町",
    "town_kana": "カネチカチョウ",
    "street": null,
    "office_name": null,
    "office_name_kana": null
  },
  "0102": {
    "zip_code": "5960102",
    "prefecture": "大阪府",
    "prefecture_kana": "オオサカフ",
    "prefecture_code": 27,
    "city": "岸和田市",
    "city_kana": "キシワダシ",
    "town": "山直中町",
    "town_kana": "ヤマダイナカチョウ",
    "street": null,
    "office_name": null,
    "office_name_kana": null
  },
  "0103": {
    "zip_code": "5960103",
    "prefecture": "大阪府",
    "prefecture_kana": "オオサカフ",
    "prefecture_code": 27,
    "city": "岸和田市",
    "city_kana": "キシワダシ",
    "town": "稲葉町",
    "town_kana": "イナバチョウ",
    "street": null,
    "office_name": null,
    "office_name_kana": null
  },
  "0104": {
    "zip_code": "5960104",
    "prefecture": "大阪府",
    "prefecture_kana": "オオサカフ",
    "prefecture_code": 27,
    "city": "岸和田市",
    "city_kana": "キシワダシ",
    "town": "積川町",
    "town_kana": "ツガワチョウ",
    "street": null,
    "office_name": null,
    "office_name_kana": null
  },
  "0105": {
    "zip_code": "5960105",
    "prefecture": "大阪府",
    "prefecture_kana": "オオサカフ",
    "prefecture_code": 27,
    "city": "岸和田市",
    "city_kana": "キシワダシ",
    "town": "内畑町",
    "town_kana": "ウチハタチョウ",
    "street": null,
    "office_name": null,
    "office_name_kana": null
  },
  "0111": {
    "zip_code": "5960111",
    "prefecture": "大阪府",
    "prefecture_kana": "オオサカフ",
    "prefecture_code": 27,
    "city": "岸和田市",
    "city_kana": "キシワダシ",
    "town": "上白原町",
    "town_kana": "カミシラハラチョウ",
    "street": null,
    "office_name": null,
    "office_name_kana": null
  },
  "0112": {
    "zip_code": "5960112",
    "prefecture": "大阪府",
    "prefecture_kana": "オオサカフ",
    "prefecture_code": 27,
    "city": "岸和田市",
    "city_kana": "キシワダシ",
    "town": "神於町",
    "town_kana": "コウノチョウ",
    "street": null,
    "office_name": null,
    "office_name_kana": null
  },
  "0113": {
    "zip_code": "5960113",
    "prefecture": "大阪府",
    "prefecture_kana": "オオサカフ",
    "prefecture_code": 27,
    "city": "岸和田市",
    "city_kana": "キシワダシ",
    "town": "河合町",
    "town_kana": "カアイチョウ",
    "street": null,
    "office_name": null,
    "office_name_kana": null
  },
  "0114": {
    "zip_code": "5960114",
    "prefecture": "大阪府",
    "prefecture_kana": "オオサカフ",
    "prefecture_code": 27,
    "city": "岸和田市",
    "city_kana": "キシワダシ",
    "town": "大沢町",
    "town_kana": "オオサワチョウ",
    "street": null,
    "office_name": null,
    "office_name_kana": null
  },
  "0115": {
    "zip_code": "5960115",
    "prefecture": "大阪府",
    "prefecture_kana": "オオサカフ",
    "prefecture_code": 27,
    "city": "岸和田市",
    "city_kana": "キシワダシ",
    "town": "相川町",
    "town_kana": "ソウガワチョウ",
    "street": null,
    "office_name": null,
    "office_name_kana": null
  },
  "0116": {
    "zip_code": "5960116",
    "prefecture": "大阪府",
    "prefecture_kana": "オオサカフ",
    "prefecture_code": 27,
    "city": "岸和田市",
    "city_kana": "キシワダシ",
    "town": "塔原町",
    "town_kana": "トノハラチョウ",
    "street": null,
    "office_name": null,
    "office_name_kana": null
  },
  "0801": {
    "zip_code": "5960801",
    "prefecture": "大阪府",
    "prefecture_kana": "オオサカフ",
    "prefecture_code": 27,
    "city": "岸和田市",
    "city_kana": "キシワダシ",
    "town": "箕土路町",
    "town_kana": "ミドロチョウ",
    "street": null,
    "office_name": null,
    "office_name_kana": null
  },
  "0802": {
    "zip_code": "5960802",
    "prefecture": "大阪府",
    "prefecture_kana": "オオサカフ",
    "prefecture_code": 27,
    "city": "岸和田市",
    "city_kana": "キシワダシ",
    "town": "西大路町",
    "town_kana": "ニシオオジチョウ",
    "street": null,
    "office_name": null,
    "office_name_kana": null
  },
  "0803": {
    "zip_code": "5960803",
    "prefecture": "大阪府",
    "prefecture_kana": "オオサカフ",
    "prefecture_code": 27,
    "city": "岸和田市",
    "city_kana": "キシワダシ",
    "town": "東大路町",
    "town_kana": "ヒガシオオジチョウ",
    "street": null,
    "office_name": null,
    "office_name_kana": null
  },
  "0804": {
    "zip_code": "5960804",
    "prefecture": "大阪府",
    "prefecture_kana": "オオサカフ",
    "prefecture_code": 27,
    "city": "岸和田市",
    "city_kana": "キシワダシ",
    "town": "今木町",
    "town_kana": "イマキチョウ",
    "street": null,
    "office_name": null,
    "office_name_kana": null
  },
  "0805": {
    "zip_code": "5960805",
    "prefecture": "大阪府",
    "prefecture_kana": "オオサカフ",
    "prefecture_code": 27,
    "city": "岸和田市",
    "city_kana": "キシワダシ",
    "town": "田治米町",
    "town_kana": "タジメチョウ",
    "street": null,
    "office_name": null,
    "office_name_kana": null
  },
  "0806": {
    "zip_code": "5960806",
    "prefecture": "大阪府",
    "prefecture_kana": "オオサカフ",
    "prefecture_code": 27,
    "city": "岸和田市",
    "city_kana": "キシワダシ",
    "town": "摩湯町",
    "town_kana": "マユチョウ",
    "street": null,
    "office_name": null,
    "office_name_kana": null
  },
  "0807": {
    "zip_code": "5960807",
    "prefecture": "大阪府",
    "prefecture_kana": "オオサカフ",
    "prefecture_code": 27,
    "city": "岸和田市",
    "city_kana": "キシワダシ",
    "town": "東ケ丘町",
    "town_kana": "ヒガシガオカチョウ",
    "street": null,
    "office_name": null,
    "office_name_kana": null
  },
  "0808": {
    "zip_code": "5960808",
    "prefecture": "大阪府",
    "prefecture_kana": "オオサカフ",
    "prefecture_code": 27,
    "city": "岸和田市",
    "city_kana": "キシワダシ",
    "town": "三田町",
    "town_kana": "ミタチョウ",
    "street": null,
    "office_name": null,
    "office_name_kana": null
  },
  "0811": {
    "zip_code": "5960811",
    "prefecture": "大阪府",
    "prefecture_kana": "オオサカフ",
    "prefecture_code": 27,
    "city": "岸和田市",
    "city_kana": "キシワダシ",
    "town": "下池田町",
    "town_kana": "シモイケダチョウ",
    "street": null,
    "office_name": null,
    "office_name_kana": null
  },
  "0812": {
    "zip_code": "5960812",
    "prefecture": "大阪府",
    "prefecture_kana": "オオサカフ",
    "prefecture_code": 27,
    "city": "岸和田市",
    "city_kana": "キシワダシ",
    "town": "大町",
    "town_kana": "オオマチ",
    "street": null,
    "office_name": null,
    "office_name_kana": null
  },
  "0813": {
    "zip_code": "5960813",
    "prefecture": "大阪府",
    "prefecture_kana": "オオサカフ",
    "prefecture_code": 27,
    "city": "岸和田市",
    "city_kana": "キシワダシ",
    "town": "池尻町",
    "town_kana": "イケジリチョウ",
    "street": null,
    "office_name": null,
    "office_name_kana": null
  },
  "0814": {
    "zip_code": "5960814",
    "prefecture": "大阪府",
    "prefecture_kana": "オオサカフ",
    "prefecture_code": 27,
    "city": "岸和田市",
    "city_kana": "キシワダシ",
    "town": "岡山町",
    "town_kana": "オカヤマチョウ",
    "street": null,
    "office_name": null,
    "office_name_kana": null
  },
  "0815": {
    "zip_code": "5960815",
    "prefecture": "大阪府",
    "prefecture_kana": "オオサカフ",
    "prefecture_code": 27,
    "city": "岸和田市",
    "city_kana": "キシワダシ",
    "town": "三ケ山町",
    "town_kana": "サンガヤマチョウ",
    "street": null,
    "office_name": null,
    "office_name_kana": null
  },
  "0816": {
    "zip_code": "5960816",
    "prefecture": "大阪府",
    "prefecture_kana": "オオサカフ",
    "prefecture_code": 27,
    "city": "岸和田市",
    "city_kana": "キシワダシ",
    "town": "尾生町",
    "town_kana": "オブチョウ",
    "street": null,
    "office_name": null,
    "office_name_kana": null
  },
  "0817": {
    "zip_code": "5960817",
    "prefecture": "大阪府",
    "prefecture_kana": "オオサカフ",
    "prefecture_code": 27,
    "city": "岸和田市",
    "city_kana": "キシワダシ",
    "town": "岸の丘町",
    "town_kana": "キシノオカチョウ",
    "street": null,
    "office_name": null,
    "office_name_kana": null
  },
  "0821": {
    "zip_code": "5960821",
    "prefecture": "大阪府",
    "prefecture_kana": "オオサカフ",
    "prefecture_code": 27,
    "city": "岸和田市",
    "city_kana": "キシワダシ",
    "town": "小松里町",
    "town_kana": "コマツリチョウ",
    "street": null,
    "office_name": null,
    "office_name_kana": null
  },
  "0822": {
    "zip_code": "5960822",
    "prefecture": "大阪府",
    "prefecture_kana": "オオサカフ",
    "prefecture_code": 27,
    "city": "岸和田市",
    "city_kana": "キシワダシ",
    "town": "額原町",
    "town_kana": "ガクハラチョウ",
    "street": null,
    "office_name": null,
    "office_name_kana": null
  },
  "0823": {
    "zip_code": "5960823",
    "prefecture": "大阪府",
    "prefecture_kana": "オオサカフ",
    "prefecture_code": 27,
    "city": "岸和田市",
    "city_kana": "キシワダシ",
    "town": "下松町",
    "town_kana": "シモマツチョウ",
    "street": null,
    "office_name": null,
    "office_name_kana": null
  },
  "0824": {
    "zip_code": "5960824",
    "prefecture": "大阪府",
    "prefecture_kana": "オオサカフ",
    "prefecture_code": 27,
    "city": "岸和田市",
    "city_kana": "キシワダシ",
    "town": "葛城町",
    "town_kana": "カツラギチョウ",
    "street": null,
    "office_name": null,
    "office_name_kana": null
  },
  "0825": {
    "zip_code": "5960825",
    "prefecture": "大阪府",
    "prefecture_kana": "オオサカフ",
    "prefecture_code": 27,
    "city": "岸和田市",
    "city_kana": "キシワダシ",
    "town": "土生町",
    "town_kana": "ハブチョウ",
    "street": null,
    "office_name": null,
    "office_name_kana": null
  },
  "0826": {
    "zip_code": "5960826",
    "prefecture": "大阪府",
    "prefecture_kana": "オオサカフ",
    "prefecture_code": 27,
    "city": "岸和田市",
    "city_kana": "キシワダシ",
    "town": "作才町",
    "town_kana": "ザクザイチョウ",
    "street": null,
    "office_name": null,
    "office_name_kana": null
  },
  "0827": {
    "zip_code": "5960827",
    "prefecture": "大阪府",
    "prefecture_kana": "オオサカフ",
    "prefecture_code": 27,
    "city": "岸和田市",
    "city_kana": "キシワダシ",
    "town": "上松町",
    "town_kana": "カミマツチョウ",
    "street": null,
    "office_name": null,
    "office_name_kana": null
  },
  "0828": {
    "zip_code": "5960828",
    "prefecture": "大阪府",
    "prefecture_kana": "オオサカフ",
    "prefecture_code": 27,
    "city": "岸和田市",
    "city_kana": "キシワダシ",
    "town": "門前町",
    "town_kana": "モンゼンチョウ",
    "street": null,
    "office_name": null,
    "office_name_kana": null
  },
  "0831": {
    "zip_code": "5960831",
    "prefecture": "大阪府",
    "prefecture_kana": "オオサカフ",
    "prefecture_code": 27,
    "city": "岸和田市",
    "city_kana": "キシワダシ",
    "town": "畑町",
    "town_kana": "ハタマチ",
    "street": null,
    "office_name": null,
    "office_name_kana": null
  },
  "0832": {
    "zip_code": "5960832",
    "prefecture": "大阪府",
    "prefecture_kana": "オオサカフ",
    "prefecture_code": 27,
    "city": "岸和田市",
    "city_kana": "キシワダシ",
    "town": "極楽寺町",
    "town_kana": "ゴクラクジチョウ",
    "street": null,
    "office_name": null,
    "office_name_kana": null
  },
  "0833": {
    "zip_code": "5960833",
    "prefecture": "大阪府",
    "prefecture_kana": "オオサカフ",
    "prefecture_code": 27,
    "city": "岸和田市",
    "city_kana": "キシワダシ",
    "town": "神須屋町",
    "town_kana": "コウズヤチョウ",
    "street": null,
    "office_name": null,
    "office_name_kana": null
  },
  "0834": {
    "zip_code": "5960834",
    "prefecture": "大阪府",
    "prefecture_kana": "オオサカフ",
    "prefecture_code": 27,
    "city": "岸和田市",
    "city_kana": "キシワダシ",
    "town": "天神山町",
    "town_kana": "テンジンヤマチョウ",
    "street": null,
    "office_name": null,
    "office_name_kana": null
  },
  "0835": {
    "zip_code": "5960835",
    "prefecture": "大阪府",
    "prefecture_kana": "オオサカフ",
    "prefecture_code": 27,
    "city": "岸和田市",
    "city_kana": "キシワダシ",
    "town": "流木町",
    "town_kana": "ナガレギチョウ",
    "street": null,
    "office_name": null,
    "office_name_kana": null
  },
  "0836": {
    "zip_code": "5960836",
    "prefecture": "大阪府",
    "prefecture_kana": "オオサカフ",
    "prefecture_code": 27,
    "city": "岸和田市",
    "city_kana": "キシワダシ",
    "town": "行遇町",
    "town_kana": "ユキアイチョウ",
    "street": null,
    "office_name": null,
    "office_name_kana": null
  },
  "0841": {
    "zip_code": "5960841",
    "prefecture": "大阪府",
    "prefecture_kana": "オオサカフ",
    "prefecture_code": 27,
    "city": "岸和田市",
    "city_kana": "キシワダシ",
    "town": "八田町",
    "town_kana": "ハツタチョウ",
    "street": null,
    "office_name": null,
    "office_name_kana": null
  },
  "0842": {
    "zip_code": "5960842",
    "prefecture": "大阪府",
    "prefecture_kana": "オオサカフ",
    "prefecture_code": 27,
    "city": "岸和田市",
    "city_kana": "キシワダシ",
    "town": "真上町",
    "town_kana": "マガミチョウ",
    "street": null,
    "office_name": null,
    "office_name_kana": null
  },
  "0843": {
    "zip_code": "5960843",
    "prefecture": "大阪府",
    "prefecture_kana": "オオサカフ",
    "prefecture_code": 27,
    "city": "岸和田市",
    "city_kana": "キシワダシ",
    "town": "北阪町",
    "town_kana": "キタサカチョウ",
    "street": null,
    "office_name": null,
    "office_name_kana": null
  },
  "0844": {
    "zip_code": "5960844",
    "prefecture": "大阪府",
    "prefecture_kana": "オオサカフ",
    "prefecture_code": 27,
    "city": "岸和田市",
    "city_kana": "キシワダシ",
    "town": "土生滝町",
    "town_kana": "ハブタキチョウ",
    "street": null,
    "office_name": null,
    "office_name_kana": null
  },
  "0845": {
    "zip_code": "5960845",
    "prefecture": "大阪府",
    "prefecture_kana": "オオサカフ",
    "prefecture_code": 27,
    "city": "岸和田市",
    "city_kana": "キシワダシ",
    "town": "阿間河滝町",
    "town_kana": "アマカダキチョウ",
    "street": null,
    "office_name": null,
    "office_name_kana": null
  },
  "0901": {
    "zip_code": "5960901",
    "prefecture": "大阪府",
    "prefecture_kana": "オオサカフ",
    "prefecture_code": 27,
    "city": "貝塚市",
    "city_kana": "カイヅカシ",
    "town": "清児新町",
    "town_kana": "セチゴシンマチ",
    "street": null,
    "office_name": null,
    "office_name_kana": null
  },
  "8510": {
    "zip_code": "5968510",
    "prefecture": "大阪府",
    "prefecture_kana": "オオサカフ",
    "prefecture_code": 27,
    "city": "岸和田市",
    "city_kana": "キシワダシ",
    "town": "岸城町",
    "town_kana": "キシキチョウ",
    "street": "７−１",
    "office_name": "岸和田市役所",
    "office_name_kana": "キシワダシヤクシヨ"
  },
  "8588": {
    "zip_code": "5968588",
    "prefecture": "大阪府",
    "prefecture_kana": "オオサカフ",
    "prefecture_code": 27,
    "city": "岸和田市",
    "city_kana": "キシワダシ",
    "town": "土生町",
    "town_kana": "ハブチョウ",
    "street": "１丁目４番２３号",
    "office_name": "フジ住宅　株式会社",
    "office_name_kana": "フジジユウタク カブシキガイシヤ"
  },
  "8624": {
    "zip_code": "5968624",
    "prefecture": "大阪府",
    "prefecture_kana": "オオサカフ",
    "prefecture_code": 27,
    "city": "岸和田市",
    "city_kana": "キシワダシ",
    "town": "土生町",
    "town_kana": "ハブチョウ",
    "street": "２丁目３０番１０号",
    "office_name": "フジ住宅　株式会社　フジホームバンク　おうち館",
    "office_name_kana": "フジジユウタク カブシキカイシヤ フジホ-ムバンク オウチカン"
  },
  "8654": {
    "zip_code": "5968654",
    "prefecture": "大阪府",
    "prefecture_kana": "オオサカフ",
    "prefecture_code": 27,
    "city": "岸和田市",
    "city_kana": "キシワダシ",
    "town": "宮本町",
    "town_kana": "ミヤモトチョウ",
    "street": "２６−１５（岸和田郵便局私書箱第５号）",
    "office_name": "株式会社　泉州銀行　本店",
    "office_name_kana": "カブシキガイシヤ センシユウギンコウ ホンテン"
  },
  "8686": {
    "zip_code": "5968686",
    "prefecture": "大阪府",
    "prefecture_kana": "オオサカフ",
    "prefecture_code": 27,
    "city": "岸和田市",
    "city_kana": "キシワダシ",
    "town": "春木若松町",
    "town_kana": "ハルキワカマツチョウ",
    "street": "１−３５（岸和田郵便局私書箱第１６号）",
    "office_name": "泉州信用金庫　本部",
    "office_name_kana": "センシユウシンヨウキンコ ホンブ"
  }
}