{
  "0000": {
    "zip_code": "5970000",
    "prefecture": "大阪府",
    "prefecture_kana": "オオサカフ",
    "prefecture_code": 27,
    "city": "貝塚市",
    "city_kana": "カイヅカシ",
    "town": "",
    "town_kana": "",
    "street": null,
    "office_name": null,
    "office_name_kana": null
  },
  "0001": [
    {
      "zip_code": "5970001",
      "prefecture": "大阪府",
      "prefecture_kana": "オオサカフ",
      "prefecture_code": 27,
      "city": "貝塚市",
      "city_kana": "カイヅカシ",
      "town": "近木",
      "town_kana": "コギ",
      "street": null,
      "office_name": null,
      "office_name_kana": null
    },
    {
      "zip_code": "5970001",
      "prefecture": "大阪府",
      "prefecture_kana": "オオサカフ",
      "prefecture_code": 27,
      "city": "貝塚市",
      "city_kana": "カイヅカシ",
      "town": "近木町",
      "town_kana": "コギチョウ",
      "street": null,
      "office_name": null,
      "office_name_kana": null
    }
  ],
  "0002": {
    "zip_code": "5970002",
    "prefecture": "大阪府",
    "prefecture_kana": "オオサカフ",
    "prefecture_code": 27,
    "city": "貝塚市",
    "city_kana": "カイヅカシ",
    "town": "新町",
    "town_kana": "シンマチ",
    "street": null,
    "office_name": null,
    "office_name_kana": null
  },
  "0003": {
    "zip_code": "5970003",
    "prefecture": "大阪府",
    "prefecture_kana": "オオサカフ",
    "prefecture_code": 27,
    "city": "貝塚市",
    "city_kana": "カイヅカシ",
    "town": "中",
    "town_kana": "ナカ",
    "street": null,
    "office_name": null,
    "office_name_kana": null
  },
  "0004": {
    "zip_code": "5970004",
    "prefecture": "大阪府",
    "prefecture_kana": "オオサカフ",
    "prefecture_code": 27,
    "city": "貝塚市",
    "city_kana": "カイヅカシ",
    "town": "西町",
    "town_kana": "ニシチョウ",
    "street": null,
    "office_name": null,
    "office_name_kana": null
  },
  "0005": {
    "zip_code": "5970005",
    "prefecture": "大阪府",
    "prefecture_kana": "オオサカフ",
    "prefecture_code": 27,
    "city": "貝塚市",
    "city_kana": "カイヅカシ",
    "town": "南町",
    "town_kana": "ミナミチョウ",
    "street": null,
    "office_name": null,
    "office_name_kana": null
  },
  "0011": {
    "zip_code": "5970011",
    "prefecture": "大阪府",
    "prefecture_kana": "オオサカフ",
    "prefecture_code": 27,
    "city": "貝塚市",
    "city_kana": "カイヅカシ",
    "town": "北町",
    "town_kana": "キタチョウ",
    "street": null,
    "office_name": null,
    "office_name_kana": null
  },
  "0012": {
    "zip_code": "5970012",
    "prefecture": "大阪府",
    "prefecture_kana": "オオサカフ",
    "prefecture_code": 27,
    "city": "貝塚市",
    "city_kana": "カイヅカシ",
    "town": "津田",
    "town_kana": "ツダ",
    "street": null,
    "office_name": null,
    "office_name_kana": null
  },
  "0013": {
    "zip_code": "5970013",
    "prefecture": "大阪府",
    "prefecture_kana": "オオサカフ",
    "prefecture_code": 27,
    "city": "貝塚市",
    "city_kana": "カイヅカシ",
    "town": "津田北町",
    "town_kana": "ツダキタチョウ",
    "street": null,
    "office_name": null,
    "office_name_kana": null
  },
  "0014": {
    "zip_code": "5970014",
    "prefecture": "大阪府",
    "prefecture_kana": "オオサカフ",
    "prefecture_code": 27,
    "city": "貝塚市",
    "city_kana": "カイヅカシ",
    "town": "津田南町",
    "town_kana": "ツダミナミチョウ",
    "street": null,
    "office_name": null,
    "office_name_kana": null
  },
  "0015": {
    "zip_code": "5970015",
    "prefecture": "大阪府",
    "prefecture_kana": "オオサカフ",
    "prefecture_code": 27,
    "city": "貝塚市",
    "city_kana": "カイヅカシ",
    "town": "堀",
    "town_kana": "ホリ",
    "street": null,
    "office_name": null,
    "office_name_kana": null
  },
  "0021": {
    "zip_code": "5970021",
    "prefecture": "大阪府",
    "prefecture_kana": "オオサカフ",
    "prefecture_code": 27,
    "city": "貝塚市",
    "city_kana": "カイヅカシ",
    "town": "小瀬",
    "town_kana": "コセ",
    "street": null,
    "office_name": null,
    "office_name_kana": null
  },
  "0022": {
    "zip_code": "5970022",
    "prefecture": "大阪府",
    "prefecture_kana": "オオサカフ",
    "prefecture_code": 27,
    "city": "貝塚市",
    "city_kana": "カイヅカシ",
    "town": "新井",
    "town_kana": "ニイ",
    "street": null,
    "office_name": null,
    "office_name_kana": null
  },
  "0023": {
    "zip_code": "5970023",
    "prefecture": "大阪府",
    "prefecture_kana": "オオサカフ",
    "prefecture_code": 27,
    "city": "貝塚市",
    "city_kana": "カイヅカシ",
    "town": "福田",
    "town_kana": "フクダ",
    "street": null,
    "office_name": null,
    "office_name_kana": null
  },
  "0031": {
    "zip_code": "5970031",
    "prefecture": "大阪府",
    "prefecture_kana": "オオサカフ",
    "prefecture_code": 27,
    "city": "貝塚市",
    "city_kana": "カイヅカシ",
    "town": "久保",
    "town_kana": "クボ",
    "street": null,
    "office_name": null,
    "office_name_kana": null
  },
  "0032": {
    "zip_code": "5970032",
    "prefecture": "大阪府",
    "prefecture_kana": "オオサカフ",
    "prefecture_code": 27,
    "city": "貝塚市",
    "city_kana": "カイヅカシ",
    "town": "永吉",
    "town_kana": "ナガヨシ",
    "street": null,
    "office_name": null,
    "office_name_kana": null
  },
  "0033": {
    "zip_code": "5970033",
    "prefecture": "大阪府",
    "prefecture_kana": "オオサカフ",
    "prefecture_code": 27,
    "city": "貝塚市",
    "city_kana": "カイヅカシ",
    "town": "半田",
    "town_kana": "ハンダ",
    "street": null,
    "office_name": null,
    "office_name_kana": null
  },
  "0041": {
    "zip_code": "5970041",
    "prefecture": "大阪府",
    "prefecture_kana": "オオサカフ",
    "prefecture_code": 27,
    "city": "貝塚市",
    "city_kana": "カイヅカシ",
    "town": "清児",
    "town_kana": "セチゴ",
    "street": null,
    "office_name": null,
    "office_name_kana": null
  },
  "0042": {
    "zip_code": "5970042",
    "prefecture": "大阪府",
    "prefecture_kana": "オオサカフ",
    "prefecture_code": 27,
    "city": "貝塚市",
    "city_kana": "カイヅカシ",
    "town": "名越",
    "town_kana": "ナゴセ",
    "street": null,
    "office_name": null,
    "office_name_kana": null
  },
  "0043": {
    "zip_code": "5970043",
    "prefecture": "大阪府",
    "prefecture_kana": "オオサカフ",
    "prefecture_code": 27,
    "city": "貝塚市",
    "city_kana": "カイヅカシ",
    "town": "橋本",
    "town_kana": "ハシモト",
    "street": null,
    "office_name": null,
    "office_name_kana": null
  },
  "0044": {
    "zip_code": "5970044",
    "prefecture": "大阪府",
    "prefecture_kana": "オオサカフ",
    "prefecture_code": 27,
    "city": "貝塚市",
    "city_kana": "カイヅカシ",
    "town": "森",
    "town_kana": "モリ",
    "street": null,
    "office_name": null,
    "office_name_kana": null
  },
  "0045": {
    "zip_code": "5970045",
    "prefecture": "大阪府",
    "prefecture_kana": "オオサカフ",
    "prefecture_code": 27,
    "city": "貝塚市",
    "city_kana": "カイヅカシ",
    "town": "三ツ松",
    "town_kana": "ミツマツ",
    "street": null,
    "office_name": null,
    "office_name_kana": null
  },
  "0046": {
    "zip_code": "5970046",
    "prefecture": "大阪府",
    "prefecture_kana": "オオサカフ",
    "prefecture_code": 27,
    "city": "貝塚市",
    "city_kana": "カイヅカシ",
    "town": "東山",
    "town_kana": "ヒガシヤマ",
    "street": null,
    "office_name": null,
    "office_name_kana": null
  },
  "0051": {
    "zip_code": "5970051",
    "prefecture": "大阪府",
    "prefecture_kana": "オオサカフ",
    "prefecture_code": 27,
    "city": "貝塚市",
    "city_kana": "カイヅカシ",
    "town": "王子",
    "town_kana": "オウジ",
    "street": null,
    "office_name": null,
    "office_name_kana": null
  },
  "0052": {
    "zip_code": "5970052",
    "prefecture": "大阪府",
    "prefecture_kana": "オオサカフ",
    "prefecture_code": 27,
    "city": "貝塚市",
    "city_kana": "カイヅカシ",
    "town": "窪田",
    "town_kana": "クボタ",
    "street": null,
    "office_name": null,
    "office_name_kana": null
  },
  "0053": {
    "zip_code": "5970053",
    "prefecture": "大阪府",
    "prefecture_kana": "オオサカフ",
    "prefecture_code": 27,
    "city": "貝塚市",
    "city_kana": "カイヅカシ",
    "town": "地蔵堂",
    "town_kana": "ジゾウドウ",
    "street": null,
    "office_name": null,
    "office_name_kana": null
  },
  "0054": {
    "zip_code": "5970054",
    "prefecture": "大阪府",
    "prefecture_kana": "オオサカフ",
    "prefecture_code": 27,
    "city": "貝塚市",
    "city_kana": "カイヅカシ",
    "town": "堤",
    "town_kana": "ツツミ",
    "street": null,
    "office_name": null,
    "office_name_kana": null
  },
  "0061": {
    "zip_code": "5970061",
    "prefecture": "大阪府",
    "prefecture_kana": "オオサカフ",
    "prefecture_code": 27,
    "city": "貝塚市",
    "city_kana": "カイヅカシ",
    "town": "浦田",
    "town_kana": "ウラダ",
    "street": null,
    "office_name": null,
    "office_name_kana": null
  },
  "0062": {
    "zip_code": "5970062",
    "prefecture": "大阪府",
    "prefecture_kana": "オオサカフ",
    "prefecture_code": 27,
    "city": "貝塚市",
    "city_kana": "カイヅカシ",
    "town": "澤",
    "town_kana": "サワ",
    "street": null,
    "office_name": null,
    "office_name_kana": null
  },
  "0063": {
    "zip_code": "5970063",
    "prefecture": "大阪府",
    "prefecture_kana": "オオサカフ",
    "prefecture_code": 27,
    "city": "貝塚市",
    "city_kana": "カイヅカシ",
    "town": "二色港町",
    "town_kana": "ニシキミナトマチ",
    "street": null,
    "office_name": null,
    "office_name_kana": null
  },
  "0071": {
    "zip_code": "5970071",
    "prefecture": "大阪府",
    "prefecture_kana": "オオサカフ",
    "prefecture_code": 27,
    "city": "貝塚市",
    "city_kana": "カイヅカシ",
    "town": "加神",
    "town_kana": "カシン",
    "street": null,
    "office_name": null,
    "office_name_kana": null
  },
  "0072": {
    "zip_code": "5970072",
    "prefecture": "大阪府",
    "prefecture_kana": "オオサカフ",
    "prefecture_code": 27,
    "city": "貝塚市",
    "city_kana": "カイヅカシ",
    "town": "畠中",
    "town_kana": "ハタケナカ",
    "street": null,
    "office_name": null,
    "office_name_kana": null
  },
  "0073": {
    "zip_code": "5970073",
    "prefecture": "大阪府",
    "prefecture_kana": "オオサカフ",
    "prefecture_code": 27,
    "city": "貝塚市",
    "city_kana": "カイヅカシ",
    "town": "脇浜",
    "town_kana": "ワキハマ",
    "street": null,
    "office_name": null,
    "office_name_kana": null
  },
  "0074": {
    "zip_code": "5970074",
    "prefecture": "大阪府",
    "prefecture_kana": "オオサカフ",
    "prefecture_code": 27,
    "city": "貝塚市",
    "city_kana": "カイヅカシ",
    "town": "加治",
    "town_kana": "カジ",
    "street": null,
    "office_name": null,
    "office_name_kana": null
  },
  "0075": {
    "zip_code": "5970075",
    "prefecture": "大阪府",
    "prefecture_kana": "オオサカフ",
    "prefecture_code": 27,
    "city": "貝塚市",
    "city_kana": "カイヅカシ",
    "town": "神前",
    "town_kana": "コウザキ",
    "street": null,
    "office_name": null,
    "office_name_kana": null
  },
  "0081": {
    "zip_code": "5970081",
    "prefecture": "大阪府",
    "prefecture_kana": "オオサカフ",
    "prefecture_code": 27,
    "city": "貝塚市",
    "city_kana": "カイヅカシ",
    "town": "麻生中",
    "town_kana": "アソナカ",
    "street": null,
    "office_name": null,
    "office_name_kana": null
  },
  "0082": {
    "zip_code": "5970082",
    "prefecture": "大阪府",
    "prefecture_kana": "オオサカフ",
    "prefecture_code": 27,
    "city": "貝塚市",
    "city_kana": "カイヅカシ",
    "town": "石才",
    "town_kana": "イシザイ",
    "street": null,
    "office_name": null,
    "office_name_kana": null
  },
  "0083": {
    "zip_code": "5970083",
    "prefecture": "大阪府",
    "prefecture_kana": "オオサカフ",
    "prefecture_code": 27,
    "city": "貝塚市",
    "city_kana": "カイヅカシ",
    "town": "海塚",
    "town_kana": "ウミヅカ",
    "street": null,
    "office_name": null,
    "office_name_kana": null
  },
  "0084": {
    "zip_code": "5970084",
    "prefecture": "大阪府",
    "prefecture_kana": "オオサカフ",
    "prefecture_code": 27,
    "city": "貝塚市",
    "city_kana": "カイヅカシ",
    "town": "鳥羽",
    "town_kana": "トバ",
    "street": null,
    "office_name": null,
    "office_name_kana": null
  },
  "0085": {
    "zip_code": "5970085",
    "prefecture": "大阪府",
    "prefecture_kana": "オオサカフ",
    "prefecture_code": 27,
    "city": "貝塚市",
    "city_kana": "カイヅカシ",
    "town": "東",
    "town_kana": "ヒガシ",
    "street": null,
    "office_name": null,
    "office_name_kana": null
  },
  "0091": {
    "zip_code": "5970091",
    "prefecture": "大阪府",
    "prefecture_kana": "オオサカフ",
    "prefecture_code": 27,
    "city": "貝塚市",
    "city_kana": "カイヅカシ",
    "town": "二色",
    "town_kana": "ニシキ",
    "street": null,
    "office_name": null,
    "office_name_kana": null
  },
  "0092": {
    "zip_code": "5970092",
    "prefecture": "大阪府",
    "prefecture_kana": "オオサカフ",
    "prefecture_code": 27,
    "city": "貝塚市",
    "city_kana": "カイヅカシ",
    "town": "二色北町",
    "town_kana": "ニシキキタマチ",
    "street": null,
    "office_name": null,
    "office_name_kana": null
  },
  "0093": {
    "zip_code": "5970093",
    "prefecture": "大阪府",
    "prefecture_kana": "オオサカフ",
    "prefecture_code": 27,
    "city": "貝塚市",
    "city_kana": "カイヅカシ",
    "town": "二色中町",
    "town_kana": "ニシキナカマチ",
    "street": null,
    "office_name": null,
    "office_name_kana": null
  },
  "0094": {
    "zip_code": "5970094",
    "prefecture": "大阪府",
    "prefecture_kana": "オオサカフ",
    "prefecture_code": 27,
    "city": "貝塚市",
    "city_kana": "カイヅカシ",
    "town": "二色南町",
    "town_kana": "ニシキミナミマチ",
    "street": null,
    "office_name": null,
    "office_name_kana": null
  },
  "0095": {
    "zip_code": "5970095",
    "prefecture": "大阪府",
    "prefecture_kana": "オオサカフ",
    "prefecture_code": 27,
    "city": "貝塚市",
    "city_kana": "カイヅカシ",
    "town": "港",
    "town_kana": "ミナト",
    "street": null,
    "office_name": null,
    "office_name_kana": null
  },
  "0101": {
    "zip_code": "5970101",
    "prefecture": "大阪府",
    "prefecture_kana": "オオサカフ",
    "prefecture_code": 27,
    "city": "貝塚市",
    "city_kana": "カイヅカシ",
    "town": "三ケ山",
    "town_kana": "ミケヤマ",
    "street": null,
    "office_name": null,
    "office_name_kana": null
  },
  "0102": {
    "zip_code": "5970102",
    "prefecture": "大阪府",
    "prefecture_kana": "オオサカフ",
    "prefecture_code": 27,
    "city": "貝塚市",
    "city_kana": "カイヅカシ",
    "town": "木積",
    "town_kana": "コツミ",
    "street": null,
    "office_name": null,
    "office_name_kana": null
  },
  "0103": {
    "zip_code": "5970103",
    "prefecture": "大阪府",
    "prefecture_kana": "オオサカフ",
    "prefecture_code": 27,
    "city": "貝塚市",
    "city_kana": "カイヅカシ",
    "town": "馬場",
    "town_kana": "ババ",
    "street": null,
    "office_name": null,
    "office_name_kana": null
  },
  "0104": {
    "zip_code": "5970104",
    "prefecture": "大阪府",
    "prefecture_kana": "オオサカフ",
    "prefecture_code": 27,
    "city": "貝塚市",
    "city_kana": "カイヅカシ",
    "town": "水間",
    "town_kana": "ミズマ",
    "street": null,
    "office_name": null,
    "office_name_kana": null
  },
  "0105": {
    "zip_code": "5970105",
    "prefecture": "大阪府",
    "prefecture_kana": "オオサカフ",
    "prefecture_code": 27,
    "city": "貝塚市",
    "city_kana": "カイヅカシ",
    "town": "三ツ松",
    "town_kana": "ミツマツ",
    "street": null,
    "office_name": null,
    "office_name_kana": null
  },
  "0106": {
    "zip_code": "5970106",
    "prefecture": "大阪府",
    "prefecture_kana": "オオサカフ",
    "prefecture_code": 27,
    "city": "貝塚市",
    "city_kana": "カイヅカシ",
    "town": "畠中",
    "town_kana": "ハタケナカ",
    "street": null,
    "office_name": null,
    "office_name_kana": null
  },
  "0107": {
    "zip_code": "5970107",
    "prefecture": "大阪府",
    "prefecture_kana": "オオサカフ",
    "prefecture_code": 27,
    "city": "貝塚市",
    "city_kana": "カイヅカシ",
    "town": "地蔵堂",
    "town_kana": "ジゾウドウ",
    "street": null,
    "office_name": null,
    "office_name_kana": null
  },
  "0111": {
    "zip_code": "5970111",
    "prefecture": "大阪府",
    "prefecture_kana": "オオサカフ",
    "prefecture_code": 27,
    "city": "貝塚市",
    "city_kana": "カイヅカシ",
    "town": "蕎原",
    "town_kana": "ソブラ",
    "street": null,
    "office_name": null,
    "office_name_kana": null
  },
  "0112": {
    "zip_code": "5970112",
    "prefecture": "大阪府",
    "prefecture_kana": "オオサカフ",
    "prefecture_code": 27,
    "city": "貝塚市",
    "city_kana": "カイヅカシ",
    "town": "大川",
    "town_kana": "オオカワ",
    "street": null,
    "office_name": null,
    "office_name_kana": null
  },
  "0113": {
    "zip_code": "5970113",
    "prefecture": "大阪府",
    "prefecture_kana": "オオサカフ",
    "prefecture_code": 27,
    "city": "貝塚市",
    "city_kana": "カイヅカシ",
    "town": "秬谷",
    "town_kana": "キビタニ",
    "street": null,
    "office_name": null,
    "office_name_kana": null
  },
  "8501": {
    "zip_code": "5978501",
    "prefecture": "大阪府",
    "prefecture_kana": "オオサカフ",
    "prefecture_code": 27,
    "city": "貝塚市",
    "city_kana": "カイヅカシ",
    "town": "二色中町",
    "town_kana": "ニシキナカマチ",
    "street": "１１−１",
    "office_name": "株式会社　デザック二色浜製造所",
    "office_name_kana": "カブシキガイシヤ テザツクニシキノハマセイゾウシヨ"
  },
  "8502": {
    "zip_code": "5978502",
    "prefecture": "大阪府",
    "prefecture_kana": "オオサカフ",
    "prefecture_code": 27,
    "city": "貝塚市",
    "city_kana": "カイヅカシ",
    "town": "二色中町",
    "town_kana": "ニシキナカマチ",
    "street": "１−１",
    "office_name": "根来産業　株式会社",
    "office_name_kana": "ネゴロサンギヨウ カブシキガイシヤ"
  },
  "8511": {
    "zip_code": "5978511",
    "prefecture": "大阪府",
    "prefecture_kana": "オオサカフ",
    "prefecture_code": 27,
    "city": "貝塚市",
    "city_kana": "カイヅカシ",
    "town": "津田南町",
    "town_kana": "ツダミナミチョウ",
    "street": "２８番５５号",
    "office_name": "寺田紡績　株式会社",
    "office_name_kana": "テラダボウセキ カブシキガイシヤ"
  },
  "8515": {
    "zip_code": "5978515",
    "prefecture": "大阪府",
    "prefecture_kana": "オオサカフ",
    "prefecture_code": 27,
    "city": "貝塚市",
    "city_kana": "カイヅカシ",
    "town": "港",
    "town_kana": "ミナト",
    "street": "１５",
    "office_name": "奥本製粉　株式会社",
    "office_name_kana": "オクモトセイフン カブシキガイシヤ"
  },
  "8522": {
    "zip_code": "5978522",
    "prefecture": "大阪府",
    "prefecture_kana": "オオサカフ",
    "prefecture_code": 27,
    "city": "貝塚市",
    "city_kana": "カイヅカシ",
    "town": "澤",
    "town_kana": "サワ",
    "street": "２２０",
    "office_name": "マルフク事業　協同組合",
    "office_name_kana": "マルフクジギヨウ キヨウドウクミアイ"
  },
  "8555": {
    "zip_code": "5978555",
    "prefecture": "大阪府",
    "prefecture_kana": "オオサカフ",
    "prefecture_code": 27,
    "city": "貝塚市",
    "city_kana": "カイヅカシ",
    "town": "脇浜",
    "town_kana": "ワキハマ",
    "street": "４丁目１６番１号",
    "office_name": "株式会社　セイサ",
    "office_name_kana": "カブシキガイシヤ セイサ"
  },
  "8585": {
    "zip_code": "5978585",
    "prefecture": "大阪府",
    "prefecture_kana": "オオサカフ",
    "prefecture_code": 27,
    "city": "貝塚市",
    "city_kana": "カイヅカシ",
    "town": "畠中",
    "town_kana": "ハタケナカ",
    "street": "１丁目１７−１",
    "office_name": "貝塚市役所",
    "office_name_kana": "カイヅカシヤクシヨ"
  },
  "8588": {
    "zip_code": "5978588",
    "prefecture": "大阪府",
    "prefecture_kana": "オオサカフ",
    "prefecture_code": 27,
    "city": "貝塚市",
    "city_kana": "カイヅカシ",
    "town": "新井",
    "town_kana": "ニイ",
    "street": "１番地",
    "office_name": "宮崎鉄工　株式会社",
    "office_name_kana": "ミヤザキテツコウ カブシキガイシヤ"
  },
  "8686": {
    "zip_code": "5978686",
    "prefecture": "大阪府",
    "prefecture_kana": "オオサカフ",
    "prefecture_code": 27,
    "city": "貝塚市",
    "city_kana": "カイヅカシ",
    "town": "海塚",
    "town_kana": "ウミヅカ",
    "street": "３０５−１（貝塚郵便局私書箱第１７号）",
    "office_name": "日本年金機構　貝塚年金事務所",
    "office_name_kana": "ニツポンネンキンキコウ カイヅカネンキンジムシヨ"
  }
}