{
  "0000": {
    "zip_code": "6050000",
    "prefecture": "京都府",
    "prefecture_kana": "キョウトフ",
    "prefecture_code": 26,
    "city": "京都市東山区",
    "city_kana": "キョウトシヒガシヤマク",
    "town": "",
    "town_kana": "",
    "street": null,
    "office_name": null,
    "office_name_kana": null
  },
  "0001": {
    "zip_code": "6050001",
    "prefecture": "京都府",
    "prefecture_kana": "キョウトフ",
    "prefecture_code": 26,
    "city": "京都市東山区",
    "city_kana": "キョウトシヒガシヤマク",
    "town": "二町目",
    "town_kana": "ニチョウメ",
    "street": null,
    "office_name": null,
    "office_name_kana": null
  },
  "0002": {
    "zip_code": "6050002",
    "prefecture": "京都府",
    "prefecture_kana": "キョウトフ",
    "prefecture_code": 26,
    "city": "京都市東山区",
    "city_kana": "キョウトシヒガシヤマク",
    "town": "教業町",
    "town_kana": "キョウギョウチョウ",
    "street": null,
    "office_name": null,
    "office_name_kana": null
  },
  "0003": {
    "zip_code": "6050003",
    "prefecture": "京都府",
    "prefecture_kana": "キョウトフ",
    "prefecture_code": 26,
    "city": "京都市東山区",
    "city_kana": "キョウトシヒガシヤマク",
    "town": "若竹町",
    "town_kana": "ワカタケチョウ",
    "street": null,
    "office_name": null,
    "office_name_kana": null
  },
  "0004": {
    "zip_code": "6050004",
    "prefecture": "京都府",
    "prefecture_kana": "キョウトフ",
    "prefecture_code": 26,
    "city": "京都市東山区",
    "city_kana": "キョウトシヒガシヤマク",
    "town": "若松町",
    "town_kana": "ワカマツチョウ",
    "street": null,
    "office_name": null,
    "office_name_kana": null
  },
  "0005": {
    "zip_code": "6050005",
    "prefecture": "京都府",
    "prefecture_kana": "キョウトフ",
    "prefecture_code": 26,
    "city": "京都市東山区",
    "city_kana": "キョウトシヒガシヤマク",
    "town": "三町目",
    "town_kana": "サンチョウメ",
    "street": null,
    "office_name": null,
    "office_name_kana": null
  },
  "0006": {
    "zip_code": "6050006",
    "prefecture": "京都府",
    "prefecture_kana": "キョウトフ",
    "prefecture_code": 26,
    "city": "京都市東山区",
    "city_kana": "キョウトシヒガシヤマク",
    "town": "新五軒町",
    "town_kana": "シンゴケンチョウ",
    "street": null,
    "office_name": null,
    "office_name_kana": null
  },
  "0007": [
    {
      "zip_code": "6050007",
      "prefecture": "京都府",
      "prefecture_kana": "キョウトフ",
      "prefecture_code": 26,
      "city": "京都市東山区",
      "city_kana": "キョウトシヒガシヤマク",
      "town": "五軒町",
      "town_kana": "ゴケンチョウ",
      "street": null,
      "office_name": null,
      "office_name_kana": null
    },
    {
      "zip_code": "6050007",
      "prefecture": "京都府",
      "prefecture_kana": "キョウトフ",
      "prefecture_code": 26,
      "city": "京都市東山区",
      "city_kana": "キョウトシヒガシヤマク",
      "town": "五軒町大和大路通三条下る",
      "town_kana": "ゴケンチョウヤマトオオジドオリサンジョウサガル",
      "street": null,
      "office_name": null,
      "office_name_kana": null
    },
    {
      "zip_code": "6050007",
      "prefecture": "京都府",
      "prefecture_kana": "キョウトフ",
      "prefecture_code": 26,
      "city": "京都市東山区",
      "city_kana": "キョウトシヒガシヤマク",
      "town": "五軒町大和大路通三条下る西入",
      "town_kana": "ゴケンチョウヤマトオオジドオリサンジョウサガルニシイル",
      "street": null,
      "office_name": null,
      "office_name_kana": null
    }
  ],
  "0008": [
    {
      "zip_code": "6050008",
      "prefecture": "京都府",
      "prefecture_kana": "キョウトフ",
      "prefecture_code": 26,
      "city": "京都市東山区",
      "city_kana": "キョウトシヒガシヤマク",
      "town": "大黒町",
      "town_kana": "ダイコクチョウ",
      "street": null,
      "office_name": null,
      "office_name_kana": null
    },
    {
      "zip_code": "6050008",
      "prefecture": "京都府",
      "prefecture_kana": "キョウトフ",
      "prefecture_code": 26,
      "city": "京都市東山区",
      "city_kana": "キョウトシヒガシヤマク",
      "town": "大黒町大和大路三条下る",
      "town_kana": "ダイコクチョウヤマトオオジ3ジョウサガル",
      "street": null,
      "office_name": null,
      "office_name_kana": null
    }
  ],
  "0009": {
    "zip_code": "6050009",
    "prefecture": "京都府",
    "prefecture_kana": "キョウトフ",
    "prefecture_code": 26,
    "city": "京都市東山区",
    "city_kana": "キョウトシヒガシヤマク",
    "town": "大橋町",
    "town_kana": "オオハシチョウ",
    "street": null,
    "office_name": null,
    "office_name_kana": null
  },
  "0011": {
    "zip_code": "6050011",
    "prefecture": "京都府",
    "prefecture_kana": "キョウトフ",
    "prefecture_code": 26,
    "city": "京都市東山区",
    "city_kana": "キョウトシヒガシヤマク",
    "town": "七軒町",
    "town_kana": "シチケンチョウ",
    "street": null,
    "office_name": null,
    "office_name_kana": null
  },
  "0012": {
    "zip_code": "6050012",
    "prefecture": "京都府",
    "prefecture_kana": "キョウトフ",
    "prefecture_code": 26,
    "city": "京都市東山区",
    "city_kana": "キョウトシヒガシヤマク",
    "town": "西海子町",
    "town_kana": "サイカイシチョウ",
    "street": null,
    "office_name": null,
    "office_name_kana": null
  },
  "0013": {
    "zip_code": "6050013",
    "prefecture": "京都府",
    "prefecture_kana": "キョウトフ",
    "prefecture_code": 26,
    "city": "京都市東山区",
    "city_kana": "キョウトシヒガシヤマク",
    "town": "南西海子町",
    "town_kana": "ミナミサイカイシチョウ",
    "street": null,
    "office_name": null,
    "office_name_kana": null
  },
  "0014": {
    "zip_code": "6050014",
    "prefecture": "京都府",
    "prefecture_kana": "キョウトフ",
    "prefecture_code": 26,
    "city": "京都市東山区",
    "city_kana": "キョウトシヒガシヤマク",
    "town": "北木之元町",
    "town_kana": "キタキノモトチョウ",
    "street": null,
    "office_name": null,
    "office_name_kana": null
  },
  "0015": {
    "zip_code": "6050015",
    "prefecture": "京都府",
    "prefecture_kana": "キョウトフ",
    "prefecture_code": 26,
    "city": "京都市東山区",
    "city_kana": "キョウトシヒガシヤマク",
    "town": "南木之元町",
    "town_kana": "ミナミキノモトチョウ",
    "street": null,
    "office_name": null,
    "office_name_kana": null
  },
  "0016": {
    "zip_code": "6050016",
    "prefecture": "京都府",
    "prefecture_kana": "キョウトフ",
    "prefecture_code": 26,
    "city": "京都市東山区",
    "city_kana": "キョウトシヒガシヤマク",
    "town": "進之町",
    "town_kana": "シンノチョウ",
    "street": null,
    "office_name": null,
    "office_name_kana": null
  },
  "0017": {
    "zip_code": "6050017",
    "prefecture": "京都府",
    "prefecture_kana": "キョウトフ",
    "prefecture_code": 26,
    "city": "京都市東山区",
    "city_kana": "キョウトシヒガシヤマク",
    "town": "高畑町",
    "town_kana": "タカバタケチョウ",
    "street": null,
    "office_name": null,
    "office_name_kana": null
  },
  "0018": {
    "zip_code": "6050018",
    "prefecture": "京都府",
    "prefecture_kana": "キョウトフ",
    "prefecture_code": 26,
    "city": "京都市東山区",
    "city_kana": "キョウトシヒガシヤマク",
    "town": "巽町",
    "town_kana": "タツミチョウ",
    "street": null,
    "office_name": null,
    "office_name_kana": null
  },
  "0019": {
    "zip_code": "6050019",
    "prefecture": "京都府",
    "prefecture_kana": "キョウトフ",
    "prefecture_code": 26,
    "city": "京都市東山区",
    "city_kana": "キョウトシヒガシヤマク",
    "town": "長光町",
    "town_kana": "ナガミツチョウ",
    "street": null,
    "office_name": null,
    "office_name_kana": null
  },
  "0021": {
    "zip_code": "6050021",
    "prefecture": "京都府",
    "prefecture_kana": "キョウトフ",
    "prefecture_code": 26,
    "city": "京都市東山区",
    "city_kana": "キョウトシヒガシヤマク",
    "town": "石泉院町",
    "town_kana": "セキセンインチョウ",
    "street": null,
    "office_name": null,
    "office_name_kana": null
  },
  "0022": {
    "zip_code": "6050022",
    "prefecture": "京都府",
    "prefecture_kana": "キョウトフ",
    "prefecture_code": 26,
    "city": "京都市東山区",
    "city_kana": "キョウトシヒガシヤマク",
    "town": "大井手町",
    "town_kana": "オオイデチョウ",
    "street": null,
    "office_name": null,
    "office_name_kana": null
  },
  "0023": {
    "zip_code": "6050023",
    "prefecture": "京都府",
    "prefecture_kana": "キョウトフ",
    "prefecture_code": 26,
    "city": "京都市東山区",
    "city_kana": "キョウトシヒガシヤマク",
    "town": "今小路町",
    "town_kana": "イマコウジチョウ",
    "street": null,
    "office_name": null,
    "office_name_kana": null
  },
  "0024": {
    "zip_code": "6050024",
    "prefecture": "京都府",
    "prefecture_kana": "キョウトフ",
    "prefecture_code": 26,
    "city": "京都市東山区",
    "city_kana": "キョウトシヒガシヤマク",
    "town": "土居之内町",
    "town_kana": "ドイノウチチョウ",
    "street": null,
    "office_name": null,
    "office_name_kana": null
  },
  "0025": {
    "zip_code": "6050025",
    "prefecture": "京都府",
    "prefecture_kana": "キョウトフ",
    "prefecture_code": 26,
    "city": "京都市東山区",
    "city_kana": "キョウトシヒガシヤマク",
    "town": "堤町",
    "town_kana": "ツツミチョウ",
    "street": null,
    "office_name": null,
    "office_name_kana": null
  },
  "0026": {
    "zip_code": "6050026",
    "prefecture": "京都府",
    "prefecture_kana": "キョウトフ",
    "prefecture_code": 26,
    "city": "京都市東山区",
    "city_kana": "キョウトシヒガシヤマク",
    "town": "古川町",
    "town_kana": "フルカワチョウ",
    "street": null,
    "office_name": null,
    "office_name_kana": null
  },
  "0027": {
    "zip_code": "6050027",
    "prefecture": "京都府",
    "prefecture_kana": "キョウトフ",
    "prefecture_code": 26,
    "city": "京都市東山区",
    "city_kana": "キョウトシヒガシヤマク",
    "town": "八軒町",
    "town_kana": "ハチケンチョウ",
    "street": null,
    "office_name": null,
    "office_name_kana": null
  },
  "0028": {
    "zip_code": "6050028",
    "prefecture": "京都府",
    "prefecture_kana": "キョウトフ",
    "prefecture_code": 26,
    "city": "京都市東山区",
    "city_kana": "キョウトシヒガシヤマク",
    "town": "分木町",
    "town_kana": "ブンキチョウ",
    "street": null,
    "office_name": null,
    "office_name_kana": null
  },
  "0029": {
    "zip_code": "6050029",
    "prefecture": "京都府",
    "prefecture_kana": "キョウトフ",
    "prefecture_code": 26,
    "city": "京都市東山区",
    "city_kana": "キョウトシヒガシヤマク",
    "town": "東姉小路町",
    "town_kana": "ヒガシアネコウジチョウ",
    "street": null,
    "office_name": null,
    "office_name_kana": null
  },
  "0031": {
    "zip_code": "6050031",
    "prefecture": "京都府",
    "prefecture_kana": "キョウトフ",
    "prefecture_code": 26,
    "city": "京都市東山区",
    "city_kana": "キョウトシヒガシヤマク",
    "town": "定法寺町",
    "town_kana": "ジョウホウジチョウ",
    "street": null,
    "office_name": null,
    "office_name_kana": null
  },
  "0032": {
    "zip_code": "6050032",
    "prefecture": "京都府",
    "prefecture_kana": "キョウトフ",
    "prefecture_code": 26,
    "city": "京都市東山区",
    "city_kana": "キョウトシヒガシヤマク",
    "town": "柚之木町",
    "town_kana": "ユノキチョウ",
    "street": null,
    "office_name": null,
    "office_name_kana": null
  },
  "0033": {
    "zip_code": "6050033",
    "prefecture": "京都府",
    "prefecture_kana": "キョウトフ",
    "prefecture_code": 26,
    "city": "京都市東山区",
    "city_kana": "キョウトシヒガシヤマク",
    "town": "夷町",
    "town_kana": "エビスチョウ",
    "street": null,
    "office_name": null,
    "office_name_kana": null
  },
  "0034": {
    "zip_code": "6050034",
    "prefecture": "京都府",
    "prefecture_kana": "キョウトフ",
    "prefecture_code": 26,
    "city": "京都市東山区",
    "city_kana": "キョウトシヒガシヤマク",
    "town": "中之町",
    "town_kana": "ナカノチョウ",
    "street": null,
    "office_name": null,
    "office_name_kana": null
  },
  "0035": {
    "zip_code": "6050035",
    "prefecture": "京都府",
    "prefecture_kana": "キョウトフ",
    "prefecture_code": 26,
    "city": "京都市東山区",
    "city_kana": "キョウトシヒガシヤマク",
    "town": "粟田口三条坊町",
    "town_kana": "アワタグチサンジョウボウチョウ",
    "street": null,
    "office_name": null,
    "office_name_kana": null
  },
  "0036": [
    {
      "zip_code": "6050036",
      "prefecture": "京都府",
      "prefecture_kana": "キョウトフ",
      "prefecture_code": 26,
      "city": "京都市東山区",
      "city_kana": "キョウトシヒガシヤマク",
      "town": "五軒町",
      "town_kana": "ゴケンチョウ",
      "street": null,
      "office_name": null,
      "office_name_kana": null
    },
    {
      "zip_code": "6050036",
      "prefecture": "京都府",
      "prefecture_kana": "キョウトフ",
      "prefecture_code": 26,
      "city": "京都市東山区",
      "city_kana": "キョウトシヒガシヤマク",
      "town": "五軒町三条通白川橋東入",
      "town_kana": "ゴケンチョウサンジョウドオリシラカワバシヒガシイル",
      "street": null,
      "office_name": null,
      "office_name_kana": null
    },
    {
      "zip_code": "6050036",
      "prefecture": "京都府",
      "prefecture_kana": "キョウトフ",
      "prefecture_code": 26,
      "city": "京都市東山区",
      "city_kana": "キョウトシヒガシヤマク",
      "town": "五軒町三条通白川橋下る東入",
      "town_kana": "ゴケンチョウサンジョウドオリシラカワバシサガルヒガシイル",
      "street": null,
      "office_name": null,
      "office_name_kana": null
    },
    {
      "zip_code": "6050036",
      "prefecture": "京都府",
      "prefecture_kana": "キョウトフ",
      "prefecture_code": 26,
      "city": "京都市東山区",
      "city_kana": "キョウトシヒガシヤマク",
      "town": "五軒町白川筋三条下る",
      "town_kana": "ゴケンチョウシラカワスジサンジョウサガル",
      "street": null,
      "office_name": null,
      "office_name_kana": null
    }
  ],
  "0037": {
    "zip_code": "6050037",
    "prefecture": "京都府",
    "prefecture_kana": "キョウトフ",
    "prefecture_code": 26,
    "city": "京都市東山区",
    "city_kana": "キョウトシヒガシヤマク",
    "town": "西町",
    "town_kana": "ニシマチ",
    "street": null,
    "office_name": null,
    "office_name_kana": null
  },
  "0038": {
    "zip_code": "6050038",
    "prefecture": "京都府",
    "prefecture_kana": "キョウトフ",
    "prefecture_code": 26,
    "city": "京都市東山区",
    "city_kana": "キョウトシヒガシヤマク",
    "town": "堀池町",
    "town_kana": "ホリイケチョウ",
    "street": null,
    "office_name": null,
    "office_name_kana": null
  },
  "0041": {
    "zip_code": "6050041",
    "prefecture": "京都府",
    "prefecture_kana": "キョウトフ",
    "prefecture_code": 26,
    "city": "京都市東山区",
    "city_kana": "キョウトシヒガシヤマク",
    "town": "東町",
    "town_kana": "ヒガシチョウ",
    "street": null,
    "office_name": null,
    "office_name_kana": null
  },
  "0042": {
    "zip_code": "6050042",
    "prefecture": "京都府",
    "prefecture_kana": "キョウトフ",
    "prefecture_code": 26,
    "city": "京都市東山区",
    "city_kana": "キョウトシヒガシヤマク",
    "town": "今道町",
    "town_kana": "イマミチチョウ",
    "street": null,
    "office_name": null,
    "office_name_kana": null
  },
  "0043": {
    "zip_code": "6050043",
    "prefecture": "京都府",
    "prefecture_kana": "キョウトフ",
    "prefecture_code": 26,
    "city": "京都市東山区",
    "city_kana": "キョウトシヒガシヤマク",
    "town": "西小物座町",
    "town_kana": "ニシコモノザチョウ",
    "street": null,
    "office_name": null,
    "office_name_kana": null
  },
  "0044": {
    "zip_code": "6050044",
    "prefecture": "京都府",
    "prefecture_kana": "キョウトフ",
    "prefecture_code": 26,
    "city": "京都市東山区",
    "city_kana": "キョウトシヒガシヤマク",
    "town": "東小物座町",
    "town_kana": "ヒガシコモノザチョウ",
    "street": null,
    "office_name": null,
    "office_name_kana": null
  },
  "0045": {
    "zip_code": "6050045",
    "prefecture": "京都府",
    "prefecture_kana": "キョウトフ",
    "prefecture_code": 26,
    "city": "京都市東山区",
    "city_kana": "キョウトシヒガシヤマク",
    "town": "谷川町",
    "town_kana": "タニガワチョウ",
    "street": null,
    "office_name": null,
    "office_name_kana": null
  },
  "0046": {
    "zip_code": "6050046",
    "prefecture": "京都府",
    "prefecture_kana": "キョウトフ",
    "prefecture_code": 26,
    "city": "京都市東山区",
    "city_kana": "キョウトシヒガシヤマク",
    "town": "東分木町",
    "town_kana": "ヒガシブンキチョウ",
    "street": null,
    "office_name": null,
    "office_name_kana": null
  },
  "0051": {
    "zip_code": "6050051",
    "prefecture": "京都府",
    "prefecture_kana": "キョウトフ",
    "prefecture_code": 26,
    "city": "京都市東山区",
    "city_kana": "キョウトシヒガシヤマク",
    "town": "粟田口鍛冶町",
    "town_kana": "アワタグチカジチョウ",
    "street": null,
    "office_name": null,
    "office_name_kana": null
  },
  "0052": {
    "zip_code": "6050052",
    "prefecture": "京都府",
    "prefecture_kana": "キョウトフ",
    "prefecture_code": 26,
    "city": "京都市東山区",
    "city_kana": "キョウトシヒガシヤマク",
    "town": "粟田口華頂町",
    "town_kana": "アワタグチカチョウチョウ",
    "street": null,
    "office_name": null,
    "office_name_kana": null
  },
  "0061": {
    "zip_code": "6050061",
    "prefecture": "京都府",
    "prefecture_kana": "キョウトフ",
    "prefecture_code": 26,
    "city": "京都市東山区",
    "city_kana": "キョウトシヒガシヤマク",
    "town": "梅宮町",
    "town_kana": "ウメミヤチョウ",
    "street": null,
    "office_name": null,
    "office_name_kana": null
  },
  "0062": {
    "zip_code": "6050062",
    "prefecture": "京都府",
    "prefecture_kana": "キョウトフ",
    "prefecture_code": 26,
    "city": "京都市東山区",
    "city_kana": "キョウトシヒガシヤマク",
    "town": "林下町",
    "town_kana": "リンカチョウ",
    "street": null,
    "office_name": null,
    "office_name_kana": null
  },
  "0063": {
    "zip_code": "6050063",
    "prefecture": "京都府",
    "prefecture_kana": "キョウトフ",
    "prefecture_code": 26,
    "city": "京都市東山区",
    "city_kana": "キョウトシヒガシヤマク",
    "town": "松原町",
    "town_kana": "マツバラチョウ",
    "street": null,
    "office_name": null,
    "office_name_kana": null
  },
  "0064": {
    "zip_code": "6050064",
    "prefecture": "京都府",
    "prefecture_kana": "キョウトフ",
    "prefecture_code": 26,
    "city": "京都市東山区",
    "city_kana": "キョウトシヒガシヤマク",
    "town": "梅本町",
    "town_kana": "ウメモトチョウ",
    "street": null,
    "office_name": null,
    "office_name_kana": null
  },
  "0065": {
    "zip_code": "6050065",
    "prefecture": "京都府",
    "prefecture_kana": "キョウトフ",
    "prefecture_code": 26,
    "city": "京都市東山区",
    "city_kana": "キョウトシヒガシヤマク",
    "town": "古西町",
    "town_kana": "フルニシチョウ",
    "street": null,
    "office_name": null,
    "office_name_kana": null
  },
  "0066": {
    "zip_code": "6050066",
    "prefecture": "京都府",
    "prefecture_kana": "キョウトフ",
    "prefecture_code": 26,
    "city": "京都市東山区",
    "city_kana": "キョウトシヒガシヤマク",
    "town": "石橋町",
    "town_kana": "イシバシチョウ",
    "street": null,
    "office_name": null,
    "office_name_kana": null
  },
  "0067": {
    "zip_code": "6050067",
    "prefecture": "京都府",
    "prefecture_kana": "キョウトフ",
    "prefecture_code": 26,
    "city": "京都市東山区",
    "city_kana": "キョウトシヒガシヤマク",
    "town": "稲荷町南組",
    "town_kana": "イナリチョウミナミグミ",
    "street": null,
    "office_name": null,
    "office_name_kana": null
  },
  "0068": {
    "zip_code": "6050068",
    "prefecture": "京都府",
    "prefecture_kana": "キョウトフ",
    "prefecture_code": 26,
    "city": "京都市東山区",
    "city_kana": "キョウトシヒガシヤマク",
    "town": "稲荷町北組",
    "town_kana": "イナリチョウキタグミ",
    "street": null,
    "office_name": null,
    "office_name_kana": null
  },
  "0069": {
    "zip_code": "6050069",
    "prefecture": "京都府",
    "prefecture_kana": "キョウトフ",
    "prefecture_code": 26,
    "city": "京都市東山区",
    "city_kana": "キョウトシヒガシヤマク",
    "town": "唐戸鼻町",
    "town_kana": "カラトハナチョウ",
    "street": null,
    "office_name": null,
    "office_name_kana": null
  },
  "0071": {
    "zip_code": "6050071",
    "prefecture": "京都府",
    "prefecture_kana": "キョウトフ",
    "prefecture_code": 26,
    "city": "京都市東山区",
    "city_kana": "キョウトシヒガシヤマク",
    "town": "円山町",
    "town_kana": "マルヤマチョウ",
    "street": null,
    "office_name": null,
    "office_name_kana": null
  },
  "0072": {
    "zip_code": "6050072",
    "prefecture": "京都府",
    "prefecture_kana": "キョウトフ",
    "prefecture_code": 26,
    "city": "京都市東山区",
    "city_kana": "キョウトシヒガシヤマク",
    "town": "鷲尾町",
    "town_kana": "ワシオチョウ",
    "street": null,
    "office_name": null,
    "office_name_kana": null
  },
  "0073": {
    "zip_code": "6050073",
    "prefecture": "京都府",
    "prefecture_kana": "キョウトフ",
    "prefecture_code": 26,
    "city": "京都市東山区",
    "city_kana": "キョウトシヒガシヤマク",
    "town": "祇園町北側",
    "town_kana": "ギオンマチキタガワ",
    "street": null,
    "office_name": null,
    "office_name_kana": null
  },
  "0074": {
    "zip_code": "6050074",
    "prefecture": "京都府",
    "prefecture_kana": "キョウトフ",
    "prefecture_code": 26,
    "city": "京都市東山区",
    "city_kana": "キョウトシヒガシヤマク",
    "town": "祇園町南側",
    "town_kana": "ギオンマチミナミガワ",
    "street": null,
    "office_name": null,
    "office_name_kana": null
  },
  "0075": [
    {
      "zip_code": "6050075",
      "prefecture": "京都府",
      "prefecture_kana": "キョウトフ",
      "prefecture_code": 26,
      "city": "京都市東山区",
      "city_kana": "キョウトシヒガシヤマク",
      "town": "中之町",
      "town_kana": "ナカノチョウ",
      "street": null,
      "office_name": null,
      "office_name_kana": null
    },
    {
      "zip_code": "6050075",
      "prefecture": "京都府",
      "prefecture_kana": "キョウトフ",
      "prefecture_code": 26,
      "city": "京都市東山区",
      "city_kana": "キョウトシヒガシヤマク",
      "town": "中之町四条通大和大路西入",
      "town_kana": "ナカノチョウ4ジョウドオリヤマトオオジニシイル",
      "street": null,
      "office_name": null,
      "office_name_kana": null
    }
  ],
  "0076": {
    "zip_code": "6050076",
    "prefecture": "京都府",
    "prefecture_kana": "キョウトフ",
    "prefecture_code": 26,
    "city": "京都市東山区",
    "city_kana": "キョウトシヒガシヤマク",
    "town": "川端町",
    "town_kana": "カワバタチョウ",
    "street": null,
    "office_name": null,
    "office_name_kana": null
  },
  "0077": {
    "zip_code": "6050077",
    "prefecture": "京都府",
    "prefecture_kana": "キョウトフ",
    "prefecture_code": 26,
    "city": "京都市東山区",
    "city_kana": "キョウトシヒガシヤマク",
    "town": "廿一軒町",
    "town_kana": "ニジュウイッケンチョウ",
    "street": null,
    "office_name": null,
    "office_name_kana": null
  },
  "0078": {
    "zip_code": "6050078",
    "prefecture": "京都府",
    "prefecture_kana": "キョウトフ",
    "prefecture_code": 26,
    "city": "京都市東山区",
    "city_kana": "キョウトシヒガシヤマク",
    "town": "富永町",
    "town_kana": "トミナガチョウ",
    "street": null,
    "office_name": null,
    "office_name_kana": null
  },
  "0079": [
    {
      "zip_code": "6050079",
      "prefecture": "京都府",
      "prefecture_kana": "キョウトフ",
      "prefecture_code": 26,
      "city": "京都市東山区",
      "city_kana": "キョウトシヒガシヤマク",
      "town": "常盤町",
      "town_kana": "トキワチョウ",
      "street": null,
      "office_name": null,
      "office_name_kana": null
    },
    {
      "zip_code": "6050079",
      "prefecture": "京都府",
      "prefecture_kana": "キョウトフ",
      "prefecture_code": 26,
      "city": "京都市東山区",
      "city_kana": "キョウトシヒガシヤマク",
      "town": "常盤町大和大路通四条上る",
      "town_kana": "トキワチョウヤマトオオジドオリ4ジョウアガル",
      "street": null,
      "office_name": null,
      "office_name_kana": null
    },
    {
      "zip_code": "6050079",
      "prefecture": "京都府",
      "prefecture_kana": "キョウトフ",
      "prefecture_code": 26,
      "city": "京都市東山区",
      "city_kana": "キョウトシヒガシヤマク",
      "town": "常盤町川端通四条上る",
      "town_kana": "トキワチョウカワバタドオリ4ジョウアガル",
      "street": null,
      "office_name": null,
      "office_name_kana": null
    }
  ],
  "0081": {
    "zip_code": "6050081",
    "prefecture": "京都府",
    "prefecture_kana": "キョウトフ",
    "prefecture_code": 26,
    "city": "京都市東山区",
    "city_kana": "キョウトシヒガシヤマク",
    "town": "三吉町",
    "town_kana": "ミヨシチョウ",
    "street": null,
    "office_name": null,
    "office_name_kana": null
  },
  "0082": [
    {
      "zip_code": "6050082",
      "prefecture": "京都府",
      "prefecture_kana": "キョウトフ",
      "prefecture_code": 26,
      "city": "京都市東山区",
      "city_kana": "キョウトシヒガシヤマク",
      "town": "中之町",
      "town_kana": "ナカノチョウ",
      "street": null,
      "office_name": null,
      "office_name_kana": null
    },
    {
      "zip_code": "6050082",
      "prefecture": "京都府",
      "prefecture_kana": "キョウトフ",
      "prefecture_code": 26,
      "city": "京都市東山区",
      "city_kana": "キョウトシヒガシヤマク",
      "town": "中之町新門前通大和大路東入",
      "town_kana": "ナカノチョウシンモンゼンドオリヤマトオオジヒガシイル",
      "street": null,
      "office_name": null,
      "office_name_kana": null
    }
  ],
  "0083": {
    "zip_code": "6050083",
    "prefecture": "京都府",
    "prefecture_kana": "キョウトフ",
    "prefecture_code": 26,
    "city": "京都市東山区",
    "city_kana": "キョウトシヒガシヤマク",
    "town": "橋本町",
    "town_kana": "ハシモトチョウ",
    "street": null,
    "office_name": null,
    "office_name_kana": null
  },
  "0084": {
    "zip_code": "6050084",
    "prefecture": "京都府",
    "prefecture_kana": "キョウトフ",
    "prefecture_code": 26,
    "city": "京都市東山区",
    "city_kana": "キョウトシヒガシヤマク",
    "town": "清本町",
    "town_kana": "キヨモトチョウ",
    "street": null,
    "office_name": null,
    "office_name_kana": null
  },
  "0085": {
    "zip_code": "6050085",
    "prefecture": "京都府",
    "prefecture_kana": "キョウトフ",
    "prefecture_code": 26,
    "city": "京都市東山区",
    "city_kana": "キョウトシヒガシヤマク",
    "town": "末吉町",
    "town_kana": "スエヨシチョウ",
    "street": null,
    "office_name": null,
    "office_name_kana": null
  },
  "0086": {
    "zip_code": "6050086",
    "prefecture": "京都府",
    "prefecture_kana": "キョウトフ",
    "prefecture_code": 26,
    "city": "京都市東山区",
    "city_kana": "キョウトシヒガシヤマク",
    "town": "弁財天町",
    "town_kana": "ベンザイテンチョウ",
    "street": null,
    "office_name": null,
    "office_name_kana": null
  },
  "0087": {
    "zip_code": "6050087",
    "prefecture": "京都府",
    "prefecture_kana": "キョウトフ",
    "prefecture_code": 26,
    "city": "京都市東山区",
    "city_kana": "キョウトシヒガシヤマク",
    "town": "元吉町",
    "town_kana": "モトヨシチョウ",
    "street": null,
    "office_name": null,
    "office_name_kana": null
  },
  "0088": {
    "zip_code": "6050088",
    "prefecture": "京都府",
    "prefecture_kana": "キョウトフ",
    "prefecture_code": 26,
    "city": "京都市東山区",
    "city_kana": "キョウトシヒガシヤマク",
    "town": "西之町",
    "town_kana": "ニシノチョウ",
    "street": null,
    "office_name": null,
    "office_name_kana": null
  },
  "0089": {
    "zip_code": "6050089",
    "prefecture": "京都府",
    "prefecture_kana": "キョウトフ",
    "prefecture_code": 26,
    "city": "京都市東山区",
    "city_kana": "キョウトシヒガシヤマク",
    "town": "元町",
    "town_kana": "モトマチ",
    "street": null,
    "office_name": null,
    "office_name_kana": null
  },
  "0801": {
    "zip_code": "6050801",
    "prefecture": "京都府",
    "prefecture_kana": "キョウトフ",
    "prefecture_code": 26,
    "city": "京都市東山区",
    "city_kana": "キョウトシヒガシヤマク",
    "town": "宮川筋",
    "town_kana": "ミヤガワスジ",
    "street": null,
    "office_name": null,
    "office_name_kana": null
  },
  "0802": {
    "zip_code": "6050802",
    "prefecture": "京都府",
    "prefecture_kana": "キョウトフ",
    "prefecture_code": 26,
    "city": "京都市東山区",
    "city_kana": "キョウトシヒガシヤマク",
    "town": "大和町",
    "town_kana": "ヤマトチョウ",
    "street": null,
    "office_name": null,
    "office_name_kana": null
  },
  "0803": {
    "zip_code": "6050803",
    "prefecture": "京都府",
    "prefecture_kana": "キョウトフ",
    "prefecture_code": 26,
    "city": "京都市東山区",
    "city_kana": "キョウトシヒガシヤマク",
    "town": "亀井町",
    "town_kana": "カメイチョウ",
    "street": null,
    "office_name": null,
    "office_name_kana": null
  },
  "0804": {
    "zip_code": "6050804",
    "prefecture": "京都府",
    "prefecture_kana": "キョウトフ",
    "prefecture_code": 26,
    "city": "京都市東山区",
    "city_kana": "キョウトシヒガシヤマク",
    "town": "井手町",
    "town_kana": "イデチョウ",
    "street": null,
    "office_name": null,
    "office_name_kana": null
  },
  "0805": {
    "zip_code": "6050805",
    "prefecture": "京都府",
    "prefecture_kana": "キョウトフ",
    "prefecture_code": 26,
    "city": "京都市東山区",
    "city_kana": "キョウトシヒガシヤマク",
    "town": "博多町",
    "town_kana": "ハカタチョウ",
    "street": null,
    "office_name": null,
    "office_name_kana": null
  },
  "0806": {
    "zip_code": "6050806",
    "prefecture": "京都府",
    "prefecture_kana": "キョウトフ",
    "prefecture_code": 26,
    "city": "京都市東山区",
    "city_kana": "キョウトシヒガシヤマク",
    "town": "六軒町",
    "town_kana": "ロッケンチョウ",
    "street": null,
    "office_name": null,
    "office_name_kana": null
  },
  "0807": {
    "zip_code": "6050807",
    "prefecture": "京都府",
    "prefecture_kana": "キョウトフ",
    "prefecture_code": 26,
    "city": "京都市東山区",
    "city_kana": "キョウトシヒガシヤマク",
    "town": "上柳町",
    "town_kana": "カミヤナギチョウ",
    "street": null,
    "office_name": null,
    "office_name_kana": null
  },
  "0808": {
    "zip_code": "6050808",
    "prefecture": "京都府",
    "prefecture_kana": "キョウトフ",
    "prefecture_code": 26,
    "city": "京都市東山区",
    "city_kana": "キョウトシヒガシヤマク",
    "town": "下柳町",
    "town_kana": "シモヤナギチョウ",
    "street": null,
    "office_name": null,
    "office_name_kana": null
  },
  "0811": {
    "zip_code": "6050811",
    "prefecture": "京都府",
    "prefecture_kana": "キョウトフ",
    "prefecture_code": 26,
    "city": "京都市東山区",
    "city_kana": "キョウトシヒガシヤマク",
    "town": "小松町",
    "town_kana": "コマツチョウ",
    "street": null,
    "office_name": null,
    "office_name_kana": null
  },
  "0812": {
    "zip_code": "6050812",
    "prefecture": "京都府",
    "prefecture_kana": "キョウトフ",
    "prefecture_code": 26,
    "city": "京都市東山区",
    "city_kana": "キョウトシヒガシヤマク",
    "town": "毘沙門町",
    "town_kana": "ビシャモンチョウ",
    "street": null,
    "office_name": null,
    "office_name_kana": null
  },
  "0813": {
    "zip_code": "6050813",
    "prefecture": "京都府",
    "prefecture_kana": "キョウトフ",
    "prefecture_code": 26,
    "city": "京都市東山区",
    "city_kana": "キョウトシヒガシヤマク",
    "town": "轆轤町",
    "town_kana": "ロクロチョウ",
    "street": null,
    "office_name": null,
    "office_name_kana": null
  },
  "0814": {
    "zip_code": "6050814",
    "prefecture": "京都府",
    "prefecture_kana": "キョウトフ",
    "prefecture_code": 26,
    "city": "京都市東山区",
    "city_kana": "キョウトシヒガシヤマク",
    "town": "薬師町",
    "town_kana": "ヤクシチョウ",
    "street": null,
    "office_name": null,
    "office_name_kana": null
  },
  "0815": {
    "zip_code": "6050815",
    "prefecture": "京都府",
    "prefecture_kana": "キョウトフ",
    "prefecture_code": 26,
    "city": "京都市東山区",
    "city_kana": "キョウトシヒガシヤマク",
    "town": "北御門町",
    "town_kana": "キタゴモンチョウ",
    "street": null,
    "office_name": null,
    "office_name_kana": null
  },
  "0816": {
    "zip_code": "6050816",
    "prefecture": "京都府",
    "prefecture_kana": "キョウトフ",
    "prefecture_code": 26,
    "city": "京都市東山区",
    "city_kana": "キョウトシヒガシヤマク",
    "town": "西御門町",
    "town_kana": "ニシゴモンチョウ",
    "street": null,
    "office_name": null,
    "office_name_kana": null
  },
  "0817": {
    "zip_code": "6050817",
    "prefecture": "京都府",
    "prefecture_kana": "キョウトフ",
    "prefecture_code": 26,
    "city": "京都市東山区",
    "city_kana": "キョウトシヒガシヤマク",
    "town": "弓矢町",
    "town_kana": "ユミヤチョウ",
    "street": null,
    "office_name": null,
    "office_name_kana": null
  },
  "0821": {
    "zip_code": "6050821",
    "prefecture": "京都府",
    "prefecture_kana": "キョウトフ",
    "prefecture_code": 26,
    "city": "京都市東山区",
    "city_kana": "キョウトシヒガシヤマク",
    "town": "清井町",
    "town_kana": "キヨイチョウ",
    "street": null,
    "office_name": null,
    "office_name_kana": null
  },
  "0822": {
    "zip_code": "6050822",
    "prefecture": "京都府",
    "prefecture_kana": "キョウトフ",
    "prefecture_code": 26,
    "city": "京都市東山区",
    "city_kana": "キョウトシヒガシヤマク",
    "town": "上弁天町",
    "town_kana": "カミベンテンチョウ",
    "street": null,
    "office_name": null,
    "office_name_kana": null
  },
  "0823": {
    "zip_code": "6050823",
    "prefecture": "京都府",
    "prefecture_kana": "キョウトフ",
    "prefecture_code": 26,
    "city": "京都市東山区",
    "city_kana": "キョウトシヒガシヤマク",
    "town": "下弁天町",
    "town_kana": "シモベンテンチョウ",
    "street": null,
    "office_name": null,
    "office_name_kana": null
  },
  "0824": {
    "zip_code": "6050824",
    "prefecture": "京都府",
    "prefecture_kana": "キョウトフ",
    "prefecture_code": 26,
    "city": "京都市東山区",
    "city_kana": "キョウトシヒガシヤマク",
    "town": "南町",
    "town_kana": "ミナミマチ",
    "street": null,
    "office_name": null,
    "office_name_kana": null
  },
  "0825": {
    "zip_code": "6050825",
    "prefecture": "京都府",
    "prefecture_kana": "キョウトフ",
    "prefecture_code": 26,
    "city": "京都市東山区",
    "city_kana": "キョウトシヒガシヤマク",
    "town": "下河原町",
    "town_kana": "シモカワラチョウ",
    "street": null,
    "office_name": null,
    "office_name_kana": null
  },
  "0826": {
    "zip_code": "6050826",
    "prefecture": "京都府",
    "prefecture_kana": "キョウトフ",
    "prefecture_code": 26,
    "city": "京都市東山区",
    "city_kana": "キョウトシヒガシヤマク",
    "town": "桝屋町",
    "town_kana": "マスヤチョウ",
    "street": null,
    "office_name": null,
    "office_name_kana": null
  },
  "0827": {
    "zip_code": "6050827",
    "prefecture": "京都府",
    "prefecture_kana": "キョウトフ",
    "prefecture_code": 26,
    "city": "京都市東山区",
    "city_kana": "キョウトシヒガシヤマク",
    "town": "八坂上町",
    "town_kana": "ヤサカカミマチ",
    "street": null,
    "office_name": null,
    "office_name_kana": null
  },
  "0828": {
    "zip_code": "6050828",
    "prefecture": "京都府",
    "prefecture_kana": "キョウトフ",
    "prefecture_code": 26,
    "city": "京都市東山区",
    "city_kana": "キョウトシヒガシヤマク",
    "town": "金園町",
    "town_kana": "キンエンチョウ",
    "street": null,
    "office_name": null,
    "office_name_kana": null
  },
  "0829": {
    "zip_code": "6050829",
    "prefecture": "京都府",
    "prefecture_kana": "キョウトフ",
    "prefecture_code": 26,
    "city": "京都市東山区",
    "city_kana": "キョウトシヒガシヤマク",
    "town": "月見町",
    "town_kana": "ツキミチョウ",
    "street": null,
    "office_name": null,
    "office_name_kana": null
  },
  "0831": {
    "zip_code": "6050831",
    "prefecture": "京都府",
    "prefecture_kana": "キョウトフ",
    "prefecture_code": 26,
    "city": "京都市東山区",
    "city_kana": "キョウトシヒガシヤマク",
    "town": "山城町",
    "town_kana": "ヤマシロチョウ",
    "street": null,
    "office_name": null,
    "office_name_kana": null
  },
  "0832": {
    "zip_code": "6050832",
    "prefecture": "京都府",
    "prefecture_kana": "キョウトフ",
    "prefecture_code": 26,
    "city": "京都市東山区",
    "city_kana": "キョウトシヒガシヤマク",
    "town": "大黒町",
    "town_kana": "ダイコクチョウ",
    "street": null,
    "office_name": null,
    "office_name_kana": null
  },
  "0833": {
    "zip_code": "6050833",
    "prefecture": "京都府",
    "prefecture_kana": "キョウトフ",
    "prefecture_code": 26,
    "city": "京都市東山区",
    "city_kana": "キョウトシヒガシヤマク",
    "town": "音羽町",
    "town_kana": "オトワチョウ",
    "street": null,
    "office_name": null,
    "office_name_kana": null
  },
  "0834": {
    "zip_code": "6050834",
    "prefecture": "京都府",
    "prefecture_kana": "キョウトフ",
    "prefecture_code": 26,
    "city": "京都市東山区",
    "city_kana": "キョウトシヒガシヤマク",
    "town": "金屋町",
    "town_kana": "カナヤチョウ",
    "street": null,
    "office_name": null,
    "office_name_kana": null
  },
  "0835": {
    "zip_code": "6050835",
    "prefecture": "京都府",
    "prefecture_kana": "キョウトフ",
    "prefecture_code": 26,
    "city": "京都市東山区",
    "city_kana": "キョウトシヒガシヤマク",
    "town": "田中町",
    "town_kana": "タナカチョウ",
    "street": null,
    "office_name": null,
    "office_name_kana": null
  },
  "0836": {
    "zip_code": "6050836",
    "prefecture": "京都府",
    "prefecture_kana": "キョウトフ",
    "prefecture_code": 26,
    "city": "京都市東山区",
    "city_kana": "キョウトシヒガシヤマク",
    "town": "森下町",
    "town_kana": "モリシタチョウ",
    "street": null,
    "office_name": null,
    "office_name_kana": null
  },
  "0837": {
    "zip_code": "6050837",
    "prefecture": "京都府",
    "prefecture_kana": "キョウトフ",
    "prefecture_code": 26,
    "city": "京都市東山区",
    "city_kana": "キョウトシヒガシヤマク",
    "town": "山田町",
    "town_kana": "ヤマダチョウ",
    "street": null,
    "office_name": null,
    "office_name_kana": null
  },
  "0838": {
    "zip_code": "6050838",
    "prefecture": "京都府",
    "prefecture_kana": "キョウトフ",
    "prefecture_code": 26,
    "city": "京都市東山区",
    "city_kana": "キョウトシヒガシヤマク",
    "town": "西川原町",
    "town_kana": "ニシカワラチョウ",
    "street": null,
    "office_name": null,
    "office_name_kana": null
  },
  "0839": {
    "zip_code": "6050839",
    "prefecture": "京都府",
    "prefecture_kana": "キョウトフ",
    "prefecture_code": 26,
    "city": "京都市東山区",
    "city_kana": "キョウトシヒガシヤマク",
    "town": "東川原町",
    "town_kana": "ヒガシカワラチョウ",
    "street": null,
    "office_name": null,
    "office_name_kana": null
  },
  "0841": {
    "zip_code": "6050841",
    "prefecture": "京都府",
    "prefecture_kana": "キョウトフ",
    "prefecture_code": 26,
    "city": "京都市東山区",
    "city_kana": "キョウトシヒガシヤマク",
    "town": "山崎町",
    "town_kana": "ヤマザキチョウ",
    "street": null,
    "office_name": null,
    "office_name_kana": null
  },
  "0842": {
    "zip_code": "6050842",
    "prefecture": "京都府",
    "prefecture_kana": "キョウトフ",
    "prefecture_code": 26,
    "city": "京都市東山区",
    "city_kana": "キョウトシヒガシヤマク",
    "town": "三盛町",
    "town_kana": "ミツモリチョウ",
    "street": null,
    "office_name": null,
    "office_name_kana": null
  },
  "0843": {
    "zip_code": "6050843",
    "prefecture": "京都府",
    "prefecture_kana": "キョウトフ",
    "prefecture_code": 26,
    "city": "京都市東山区",
    "city_kana": "キョウトシヒガシヤマク",
    "town": "門脇町",
    "town_kana": "カドワキチョウ",
    "street": null,
    "office_name": null,
    "office_name_kana": null
  },
  "0844": {
    "zip_code": "6050844",
    "prefecture": "京都府",
    "prefecture_kana": "キョウトフ",
    "prefecture_code": 26,
    "city": "京都市東山区",
    "city_kana": "キョウトシヒガシヤマク",
    "town": "多門町",
    "town_kana": "タモンチョウ",
    "street": null,
    "office_name": null,
    "office_name_kana": null
  },
  "0845": {
    "zip_code": "6050845",
    "prefecture": "京都府",
    "prefecture_kana": "キョウトフ",
    "prefecture_code": 26,
    "city": "京都市東山区",
    "city_kana": "キョウトシヒガシヤマク",
    "town": "竹村町",
    "town_kana": "タケムラチョウ",
    "street": null,
    "office_name": null,
    "office_name_kana": null
  },
  "0846": {
    "zip_code": "6050846",
    "prefecture": "京都府",
    "prefecture_kana": "キョウトフ",
    "prefecture_code": 26,
    "city": "京都市東山区",
    "city_kana": "キョウトシヒガシヤマク",
    "town": "五条橋東",
    "town_kana": "ゴジョウハシヒガシ",
    "street": null,
    "office_name": null,
    "office_name_kana": null
  },
  "0847": {
    "zip_code": "6050847",
    "prefecture": "京都府",
    "prefecture_kana": "キョウトフ",
    "prefecture_code": 26,
    "city": "京都市東山区",
    "city_kana": "キョウトシヒガシヤマク",
    "town": "東橋詰町",
    "town_kana": "ヒガシハシヅメチョウ",
    "street": null,
    "office_name": null,
    "office_name_kana": null
  },
  "0848": {
    "zip_code": "6050848",
    "prefecture": "京都府",
    "prefecture_kana": "キョウトフ",
    "prefecture_code": 26,
    "city": "京都市東山区",
    "city_kana": "キョウトシヒガシヤマク",
    "town": "池殿町",
    "town_kana": "イケドノチョウ",
    "street": null,
    "office_name": null,
    "office_name_kana": null
  },
  "0851": {
    "zip_code": "6050851",
    "prefecture": "京都府",
    "prefecture_kana": "キョウトフ",
    "prefecture_code": 26,
    "city": "京都市東山区",
    "city_kana": "キョウトシヒガシヤマク",
    "town": "玉水町",
    "town_kana": "タマミズチョウ",
    "street": null,
    "office_name": null,
    "office_name_kana": null
  },
  "0852": {
    "zip_code": "6050852",
    "prefecture": "京都府",
    "prefecture_kana": "キョウトフ",
    "prefecture_code": 26,
    "city": "京都市東山区",
    "city_kana": "キョウトシヒガシヤマク",
    "town": "上田町",
    "town_kana": "ウエダチョウ",
    "street": null,
    "office_name": null,
    "office_name_kana": null
  },
  "0853": {
    "zip_code": "6050853",
    "prefecture": "京都府",
    "prefecture_kana": "キョウトフ",
    "prefecture_code": 26,
    "city": "京都市東山区",
    "city_kana": "キョウトシヒガシヤマク",
    "town": "星野町",
    "town_kana": "ホシノチョウ",
    "street": null,
    "office_name": null,
    "office_name_kana": null
  },
  "0854": {
    "zip_code": "6050854",
    "prefecture": "京都府",
    "prefecture_kana": "キョウトフ",
    "prefecture_code": 26,
    "city": "京都市東山区",
    "city_kana": "キョウトシヒガシヤマク",
    "town": "月輪町",
    "town_kana": "ツキノワチョウ",
    "street": null,
    "office_name": null,
    "office_name_kana": null
  },
  "0855": [
    {
      "zip_code": "6050855",
      "prefecture": "京都府",
      "prefecture_kana": "キョウトフ",
      "prefecture_code": 26,
      "city": "京都市東山区",
      "city_kana": "キョウトシヒガシヤマク",
      "town": "辰巳町",
      "town_kana": "タツミチョウ",
      "street": null,
      "office_name": null,
      "office_name_kana": null
    },
    {
      "zip_code": "6050855",
      "prefecture": "京都府",
      "prefecture_kana": "キョウトフ",
      "prefecture_code": 26,
      "city": "京都市東山区",
      "city_kana": "キョウトシヒガシヤマク",
      "town": "辰巳町東大路松原上る",
      "town_kana": "タツミチョウヒガシオオジマツバラアガル",
      "street": null,
      "office_name": null,
      "office_name_kana": null
    }
  ],
  "0856": {
    "zip_code": "6050856",
    "prefecture": "京都府",
    "prefecture_kana": "キョウトフ",
    "prefecture_code": 26,
    "city": "京都市東山区",
    "city_kana": "キョウトシヒガシヤマク",
    "town": "新シ町",
    "town_kana": "アタラシチョウ",
    "street": null,
    "office_name": null,
    "office_name_kana": null
  },
  "0857": {
    "zip_code": "6050857",
    "prefecture": "京都府",
    "prefecture_kana": "キョウトフ",
    "prefecture_code": 26,
    "city": "京都市東山区",
    "city_kana": "キョウトシヒガシヤマク",
    "town": "興善町",
    "town_kana": "コウゼンチョウ",
    "street": null,
    "office_name": null,
    "office_name_kana": null
  },
  "0858": {
    "zip_code": "6050858",
    "prefecture": "京都府",
    "prefecture_kana": "キョウトフ",
    "prefecture_code": 26,
    "city": "京都市東山区",
    "city_kana": "キョウトシヒガシヤマク",
    "town": "小島町",
    "town_kana": "コジマチョウ",
    "street": null,
    "office_name": null,
    "office_name_kana": null
  },
  "0861": {
    "zip_code": "6050861",
    "prefecture": "京都府",
    "prefecture_kana": "キョウトフ",
    "prefecture_code": 26,
    "city": "京都市東山区",
    "city_kana": "キョウトシヒガシヤマク",
    "town": "清閑寺霊山町",
    "town_kana": "セイカンジリョウザンチョウ",
    "street": null,
    "office_name": null,
    "office_name_kana": null
  },
  "0862": {
    "zip_code": "6050862",
    "prefecture": "京都府",
    "prefecture_kana": "キョウトフ",
    "prefecture_code": 26,
    "city": "京都市東山区",
    "city_kana": "キョウトシヒガシヤマク",
    "town": "清水",
    "town_kana": "キヨミズ",
    "street": null,
    "office_name": null,
    "office_name_kana": null
  },
  "0863": {
    "zip_code": "6050863",
    "prefecture": "京都府",
    "prefecture_kana": "キョウトフ",
    "prefecture_code": 26,
    "city": "京都市東山区",
    "city_kana": "キョウトシヒガシヤマク",
    "town": "梅林町",
    "town_kana": "バイリンチョウ",
    "street": null,
    "office_name": null,
    "office_name_kana": null
  },
  "0864": {
    "zip_code": "6050864",
    "prefecture": "京都府",
    "prefecture_kana": "キョウトフ",
    "prefecture_code": 26,
    "city": "京都市東山区",
    "city_kana": "キョウトシヒガシヤマク",
    "town": "遊行前町",
    "town_kana": "ユウギョウマエチョウ",
    "street": null,
    "office_name": null,
    "office_name_kana": null
  },
  "0865": {
    "zip_code": "6050865",
    "prefecture": "京都府",
    "prefecture_kana": "キョウトフ",
    "prefecture_code": 26,
    "city": "京都市東山区",
    "city_kana": "キョウトシヒガシヤマク",
    "town": "白糸町",
    "town_kana": "シライトチョウ",
    "street": null,
    "office_name": null,
    "office_name_kana": null
  },
  "0871": {
    "zip_code": "6050871",
    "prefecture": "京都府",
    "prefecture_kana": "キョウトフ",
    "prefecture_code": 26,
    "city": "京都市東山区",
    "city_kana": "キョウトシヒガシヤマク",
    "town": "慈法院庵町",
    "town_kana": "ジホウインアンマチ",
    "street": null,
    "office_name": null,
    "office_name_kana": null
  },
  "0872": {
    "zip_code": "6050872",
    "prefecture": "京都府",
    "prefecture_kana": "キョウトフ",
    "prefecture_code": 26,
    "city": "京都市東山区",
    "city_kana": "キョウトシヒガシヤマク",
    "town": "東音羽町",
    "town_kana": "ヒガシオトワチョウ",
    "street": null,
    "office_name": null,
    "office_name_kana": null
  },
  "0873": {
    "zip_code": "6050873",
    "prefecture": "京都府",
    "prefecture_kana": "キョウトフ",
    "prefecture_code": 26,
    "city": "京都市東山区",
    "city_kana": "キョウトシヒガシヤマク",
    "town": "下馬町",
    "town_kana": "シモウマチョウ",
    "street": null,
    "office_name": null,
    "office_name_kana": null
  },
  "0874": [
    {
      "zip_code": "6050874",
      "prefecture": "京都府",
      "prefecture_kana": "キョウトフ",
      "prefecture_code": 26,
      "city": "京都市東山区",
      "city_kana": "キョウトシヒガシヤマク",
      "town": "常盤町",
      "town_kana": "トキワチョウ",
      "street": null,
      "office_name": null,
      "office_name_kana": null
    },
    {
      "zip_code": "6050874",
      "prefecture": "京都府",
      "prefecture_kana": "キョウトフ",
      "prefecture_code": 26,
      "city": "京都市東山区",
      "city_kana": "キョウトシヒガシヤマク",
      "town": "常盤町東大路通渋谷上る",
      "town_kana": "トキワチョウ",
      "street": null,
      "office_name": null,
      "office_name_kana": null
    },
    {
      "zip_code": "6050874",
      "prefecture": "京都府",
      "prefecture_kana": "キョウトフ",
      "prefecture_code": 26,
      "city": "京都市東山区",
      "city_kana": "キョウトシヒガシヤマク",
      "town": "常盤町渋谷通東大路東入",
      "town_kana": "トキワチョウ",
      "street": null,
      "office_name": null,
      "office_name_kana": null
    },
    {
      "zip_code": "6050874",
      "prefecture": "京都府",
      "prefecture_kana": "キョウトフ",
      "prefecture_code": 26,
      "city": "京都市東山区",
      "city_kana": "キョウトシヒガシヤマク",
      "town": "常盤町東大路五条下る",
      "town_kana": "トキワチョウ",
      "street": null,
      "office_name": null,
      "office_name_kana": null
    }
  ],
  "0875": {
    "zip_code": "6050875",
    "prefecture": "京都府",
    "prefecture_kana": "キョウトフ",
    "prefecture_code": 26,
    "city": "京都市東山区",
    "city_kana": "キョウトシヒガシヤマク",
    "town": "鐘鋳町",
    "town_kana": "カネイチョウ",
    "street": null,
    "office_name": null,
    "office_name_kana": null
  },
  "0876": {
    "zip_code": "6050876",
    "prefecture": "京都府",
    "prefecture_kana": "キョウトフ",
    "prefecture_code": 26,
    "city": "京都市東山区",
    "city_kana": "キョウトシヒガシヤマク",
    "town": "上梅屋町",
    "town_kana": "カミウメヤチョウ",
    "street": null,
    "office_name": null,
    "office_name_kana": null
  },
  "0877": {
    "zip_code": "6050877",
    "prefecture": "京都府",
    "prefecture_kana": "キョウトフ",
    "prefecture_code": 26,
    "city": "京都市東山区",
    "city_kana": "キョウトシヒガシヤマク",
    "town": "上新シ町",
    "town_kana": "カミアタラシチョウ",
    "street": null,
    "office_name": null,
    "office_name_kana": null
  },
  "0878": {
    "zip_code": "6050878",
    "prefecture": "京都府",
    "prefecture_kana": "キョウトフ",
    "prefecture_code": 26,
    "city": "京都市東山区",
    "city_kana": "キョウトシヒガシヤマク",
    "town": "芳野町",
    "town_kana": "ヨシノチョウ",
    "street": null,
    "office_name": null,
    "office_name_kana": null
  },
  "0901": {
    "zip_code": "6050901",
    "prefecture": "京都府",
    "prefecture_kana": "キョウトフ",
    "prefecture_code": 26,
    "city": "京都市東山区",
    "city_kana": "キョウトシヒガシヤマク",
    "town": "朱雀町",
    "town_kana": "スジャクチョウ",
    "street": null,
    "office_name": null,
    "office_name_kana": null
  },
  "0902": {
    "zip_code": "6050902",
    "prefecture": "京都府",
    "prefecture_kana": "キョウトフ",
    "prefecture_code": 26,
    "city": "京都市東山区",
    "city_kana": "キョウトシヒガシヤマク",
    "town": "鞘町",
    "town_kana": "サヤマチ",
    "street": null,
    "office_name": null,
    "office_name_kana": null
  },
  "0903": {
    "zip_code": "6050903",
    "prefecture": "京都府",
    "prefecture_kana": "キョウトフ",
    "prefecture_code": 26,
    "city": "京都市東山区",
    "city_kana": "キョウトシヒガシヤマク",
    "town": "上人町",
    "town_kana": "ショウニンチョウ",
    "street": null,
    "office_name": null,
    "office_name_kana": null
  },
  "0904": {
    "zip_code": "6050904",
    "prefecture": "京都府",
    "prefecture_kana": "キョウトフ",
    "prefecture_code": 26,
    "city": "京都市東山区",
    "city_kana": "キョウトシヒガシヤマク",
    "town": "大阪町",
    "town_kana": "オオサカチョウ",
    "street": null,
    "office_name": null,
    "office_name_kana": null
  },
  "0905": {
    "zip_code": "6050905",
    "prefecture": "京都府",
    "prefecture_kana": "キョウトフ",
    "prefecture_code": 26,
    "city": "京都市東山区",
    "city_kana": "キョウトシヒガシヤマク",
    "town": "豊浦町",
    "town_kana": "トヨウラチョウ",
    "street": null,
    "office_name": null,
    "office_name_kana": null
  },
  "0906": {
    "zip_code": "6050906",
    "prefecture": "京都府",
    "prefecture_kana": "キョウトフ",
    "prefecture_code": 26,
    "city": "京都市東山区",
    "city_kana": "キョウトシヒガシヤマク",
    "town": "東橘町",
    "town_kana": "ヒガシタチバナチョウ",
    "street": null,
    "office_name": null,
    "office_name_kana": null
  },
  "0907": {
    "zip_code": "6050907",
    "prefecture": "京都府",
    "prefecture_kana": "キョウトフ",
    "prefecture_code": 26,
    "city": "京都市東山区",
    "city_kana": "キョウトシヒガシヤマク",
    "town": "西橘町",
    "town_kana": "ニシタチバナチョウ",
    "street": null,
    "office_name": null,
    "office_name_kana": null
  },
  "0908": {
    "zip_code": "6050908",
    "prefecture": "京都府",
    "prefecture_kana": "キョウトフ",
    "prefecture_code": 26,
    "city": "京都市東山区",
    "city_kana": "キョウトシヒガシヤマク",
    "town": "正面町",
    "town_kana": "ショウメンチョウ",
    "street": null,
    "office_name": null,
    "office_name_kana": null
  },
  "0909": {
    "zip_code": "6050909",
    "prefecture": "京都府",
    "prefecture_kana": "キョウトフ",
    "prefecture_code": 26,
    "city": "京都市東山区",
    "city_kana": "キョウトシヒガシヤマク",
    "town": "鍵屋町",
    "town_kana": "カギヤチョウ",
    "street": null,
    "office_name": null,
    "office_name_kana": null
  },
  "0911": {
    "zip_code": "6050911",
    "prefecture": "京都府",
    "prefecture_kana": "キョウトフ",
    "prefecture_code": 26,
    "city": "京都市東山区",
    "city_kana": "キョウトシヒガシヤマク",
    "town": "袋町",
    "town_kana": "フクロチョウ",
    "street": null,
    "office_name": null,
    "office_name_kana": null
  },
  "0912": {
    "zip_code": "6050912",
    "prefecture": "京都府",
    "prefecture_kana": "キョウトフ",
    "prefecture_code": 26,
    "city": "京都市東山区",
    "city_kana": "キョウトシヒガシヤマク",
    "town": "石垣町西側",
    "town_kana": "イシガキマチニシガワ",
    "street": null,
    "office_name": null,
    "office_name_kana": null
  },
  "0913": {
    "zip_code": "6050913",
    "prefecture": "京都府",
    "prefecture_kana": "キョウトフ",
    "prefecture_code": 26,
    "city": "京都市東山区",
    "city_kana": "キョウトシヒガシヤマク",
    "town": "石垣町東側",
    "town_kana": "イシガキマチヒガシガワ",
    "street": null,
    "office_name": null,
    "office_name_kana": null
  },
  "0914": {
    "zip_code": "6050914",
    "prefecture": "京都府",
    "prefecture_kana": "キョウトフ",
    "prefecture_code": 26,
    "city": "京都市東山区",
    "city_kana": "キョウトシヒガシヤマク",
    "town": "下新シ町",
    "town_kana": "シモアタラシチョウ",
    "street": null,
    "office_name": null,
    "office_name_kana": null
  },
  "0915": {
    "zip_code": "6050915",
    "prefecture": "京都府",
    "prefecture_kana": "キョウトフ",
    "prefecture_code": 26,
    "city": "京都市東山区",
    "city_kana": "キョウトシヒガシヤマク",
    "town": "下梅屋町",
    "town_kana": "シモウメヤチョウ",
    "street": null,
    "office_name": null,
    "office_name_kana": null
  },
  "0916": {
    "zip_code": "6050916",
    "prefecture": "京都府",
    "prefecture_kana": "キョウトフ",
    "prefecture_code": 26,
    "city": "京都市東山区",
    "city_kana": "キョウトシヒガシヤマク",
    "town": "上棟梁町",
    "town_kana": "カミトウリョウチョウ",
    "street": null,
    "office_name": null,
    "office_name_kana": null
  },
  "0917": {
    "zip_code": "6050917",
    "prefecture": "京都府",
    "prefecture_kana": "キョウトフ",
    "prefecture_code": 26,
    "city": "京都市東山区",
    "city_kana": "キョウトシヒガシヤマク",
    "town": "蛭子町北組",
    "town_kana": "エビスチョウキタグミ",
    "street": null,
    "office_name": null,
    "office_name_kana": null
  },
  "0918": {
    "zip_code": "6050918",
    "prefecture": "京都府",
    "prefecture_kana": "キョウトフ",
    "prefecture_code": 26,
    "city": "京都市東山区",
    "city_kana": "キョウトシヒガシヤマク",
    "town": "北棟梁町",
    "town_kana": "キタトウリョウチョウ",
    "street": null,
    "office_name": null,
    "office_name_kana": null
  },
  "0921": {
    "zip_code": "6050921",
    "prefecture": "京都府",
    "prefecture_kana": "キョウトフ",
    "prefecture_code": 26,
    "city": "京都市東山区",
    "city_kana": "キョウトシヒガシヤマク",
    "town": "瓦役町",
    "town_kana": "カワラヤクチョウ",
    "street": null,
    "office_name": null,
    "office_name_kana": null
  },
  "0922": {
    "zip_code": "6050922",
    "prefecture": "京都府",
    "prefecture_kana": "キョウトフ",
    "prefecture_code": 26,
    "city": "京都市東山区",
    "city_kana": "キョウトシヒガシヤマク",
    "town": "清閑寺山ノ内町",
    "town_kana": "セイカンジヤマノウチチョウ",
    "street": null,
    "office_name": null,
    "office_name_kana": null
  },
  "0923": {
    "zip_code": "6050923",
    "prefecture": "京都府",
    "prefecture_kana": "キョウトフ",
    "prefecture_code": 26,
    "city": "京都市東山区",
    "city_kana": "キョウトシヒガシヤマク",
    "town": "清閑寺池田町",
    "town_kana": "セイカンジイケダチョウ",
    "street": null,
    "office_name": null,
    "office_name_kana": null
  },
  "0924": {
    "zip_code": "6050924",
    "prefecture": "京都府",
    "prefecture_kana": "キョウトフ",
    "prefecture_code": 26,
    "city": "京都市東山区",
    "city_kana": "キョウトシヒガシヤマク",
    "town": "今熊野阿弥陀ケ峰町",
    "town_kana": "イマグマノアミダガミネチョウ",
    "street": null,
    "office_name": null,
    "office_name_kana": null
  },
  "0925": {
    "zip_code": "6050925",
    "prefecture": "京都府",
    "prefecture_kana": "キョウトフ",
    "prefecture_code": 26,
    "city": "京都市東山区",
    "city_kana": "キョウトシヒガシヤマク",
    "town": "今熊野日吉町",
    "town_kana": "イマグマノヒヨシチョウ",
    "street": null,
    "office_name": null,
    "office_name_kana": null
  },
  "0926": {
    "zip_code": "6050926",
    "prefecture": "京都府",
    "prefecture_kana": "キョウトフ",
    "prefecture_code": 26,
    "city": "京都市東山区",
    "city_kana": "キョウトシヒガシヤマク",
    "town": "今熊野北日吉町",
    "town_kana": "イマグマノキタヒヨシチョウ",
    "street": null,
    "office_name": null,
    "office_name_kana": null
  },
  "0927": {
    "zip_code": "6050927",
    "prefecture": "京都府",
    "prefecture_kana": "キョウトフ",
    "prefecture_code": 26,
    "city": "京都市東山区",
    "city_kana": "キョウトシヒガシヤマク",
    "town": "上馬町",
    "town_kana": "カミウマチョウ",
    "street": null,
    "office_name": null,
    "office_name_kana": null
  },
  "0931": {
    "zip_code": "6050931",
    "prefecture": "京都府",
    "prefecture_kana": "キョウトフ",
    "prefecture_code": 26,
    "city": "京都市東山区",
    "city_kana": "キョウトシヒガシヤマク",
    "town": "茶屋町",
    "town_kana": "チャヤチョウ",
    "street": null,
    "office_name": null,
    "office_name_kana": null
  },
  "0932": {
    "zip_code": "6050932",
    "prefecture": "京都府",
    "prefecture_kana": "キョウトフ",
    "prefecture_code": 26,
    "city": "京都市東山区",
    "city_kana": "キョウトシヒガシヤマク",
    "town": "妙法院前側町",
    "town_kana": "ミョウホウインマエカワチョウ",
    "street": null,
    "office_name": null,
    "office_name_kana": null
  },
  "0933": {
    "zip_code": "6050933",
    "prefecture": "京都府",
    "prefecture_kana": "キョウトフ",
    "prefecture_code": 26,
    "city": "京都市東山区",
    "city_kana": "キョウトシヒガシヤマク",
    "town": "大和大路",
    "town_kana": "ヤマトオオジ",
    "street": null,
    "office_name": null,
    "office_name_kana": null
  },
  "0934": {
    "zip_code": "6050934",
    "prefecture": "京都府",
    "prefecture_kana": "キョウトフ",
    "prefecture_code": 26,
    "city": "京都市東山区",
    "city_kana": "キョウトシヒガシヤマク",
    "town": "塗師屋町",
    "town_kana": "ヌシヤチョウ",
    "street": null,
    "office_name": null,
    "office_name_kana": null
  },
  "0935": {
    "zip_code": "6050935",
    "prefecture": "京都府",
    "prefecture_kana": "キョウトフ",
    "prefecture_code": 26,
    "city": "京都市東山区",
    "city_kana": "キョウトシヒガシヤマク",
    "town": "西棟梁町",
    "town_kana": "ニシトウリョウチョウ",
    "street": null,
    "office_name": null,
    "office_name_kana": null
  },
  "0936": {
    "zip_code": "6050936",
    "prefecture": "京都府",
    "prefecture_kana": "キョウトフ",
    "prefecture_code": 26,
    "city": "京都市東山区",
    "city_kana": "キョウトシヒガシヤマク",
    "town": "蛭子町南組",
    "town_kana": "エビスチョウミナミグミ",
    "street": null,
    "office_name": null,
    "office_name_kana": null
  },
  "0937": {
    "zip_code": "6050937",
    "prefecture": "京都府",
    "prefecture_kana": "キョウトフ",
    "prefecture_code": 26,
    "city": "京都市東山区",
    "city_kana": "キョウトシヒガシヤマク",
    "town": "下棟梁町",
    "town_kana": "シモトウリョウチョウ",
    "street": null,
    "office_name": null,
    "office_name_kana": null
  },
  "0938": {
    "zip_code": "6050938",
    "prefecture": "京都府",
    "prefecture_kana": "キョウトフ",
    "prefecture_code": 26,
    "city": "京都市東山区",
    "city_kana": "キョウトシヒガシヤマク",
    "town": "南梅屋町",
    "town_kana": "ミナミウメヤチョウ",
    "street": null,
    "office_name": null,
    "office_name_kana": null
  },
  "0941": {
    "zip_code": "6050941",
    "prefecture": "京都府",
    "prefecture_kana": "キョウトフ",
    "prefecture_code": 26,
    "city": "京都市東山区",
    "city_kana": "キョウトシヒガシヤマク",
    "town": "三十三間堂廻り町",
    "town_kana": "サンジュウサンゲンドウマワリチョウ",
    "street": null,
    "office_name": null,
    "office_name_kana": null
  },
  "0942": {
    "zip_code": "6050942",
    "prefecture": "京都府",
    "prefecture_kana": "キョウトフ",
    "prefecture_code": 26,
    "city": "京都市東山区",
    "city_kana": "キョウトシヒガシヤマク",
    "town": "蒔田町",
    "town_kana": "マキタチョウ",
    "street": null,
    "office_name": null,
    "office_name_kana": null
  },
  "0943": [
    {
      "zip_code": "6050943",
      "prefecture": "京都府",
      "prefecture_kana": "キョウトフ",
      "prefecture_code": 26,
      "city": "京都市東山区",
      "city_kana": "キョウトシヒガシヤマク",
      "town": "七軒町",
      "town_kana": "シチケンチョウ",
      "street": null,
      "office_name": null,
      "office_name_kana": null
    },
    {
      "zip_code": "6050943",
      "prefecture": "京都府",
      "prefecture_kana": "キョウトフ",
      "prefecture_code": 26,
      "city": "京都市東山区",
      "city_kana": "キョウトシヒガシヤマク",
      "town": "七軒町塩小路通大和大路西入",
      "town_kana": "シチケンチョウシオコウジドオリヤマトオオジニシイル",
      "street": null,
      "office_name": null,
      "office_name_kana": null
    }
  ],
  "0944": {
    "zip_code": "6050944",
    "prefecture": "京都府",
    "prefecture_kana": "キョウトフ",
    "prefecture_code": 26,
    "city": "京都市東山区",
    "city_kana": "キョウトシヒガシヤマク",
    "town": "南棟梁町",
    "town_kana": "ミナミトウリョウチョウ",
    "street": null,
    "office_name": null,
    "office_name_kana": null
  },
  "0945": {
    "zip_code": "6050945",
    "prefecture": "京都府",
    "prefecture_kana": "キョウトフ",
    "prefecture_code": 26,
    "city": "京都市東山区",
    "city_kana": "キョウトシヒガシヤマク",
    "town": "辰巳町",
    "town_kana": "タツミチョウ",
    "street": null,
    "office_name": null,
    "office_name_kana": null
  },
  "0946": {
    "zip_code": "6050946",
    "prefecture": "京都府",
    "prefecture_kana": "キョウトフ",
    "prefecture_code": 26,
    "city": "京都市東山区",
    "city_kana": "キョウトシヒガシヤマク",
    "town": "北斗町",
    "town_kana": "ホクトチョウ",
    "street": null,
    "office_name": null,
    "office_name_kana": null
  },
  "0947": {
    "zip_code": "6050947",
    "prefecture": "京都府",
    "prefecture_kana": "キョウトフ",
    "prefecture_code": 26,
    "city": "京都市東山区",
    "city_kana": "キョウトシヒガシヤマク",
    "town": "西之門町",
    "town_kana": "ニシノモンチョウ",
    "street": null,
    "office_name": null,
    "office_name_kana": null
  },
  "0951": {
    "zip_code": "6050951",
    "prefecture": "京都府",
    "prefecture_kana": "キョウトフ",
    "prefecture_code": 26,
    "city": "京都市東山区",
    "city_kana": "キョウトシヒガシヤマク",
    "town": "東瓦町",
    "town_kana": "ヒガシカワラチョウ",
    "street": null,
    "office_name": null,
    "office_name_kana": null
  },
  "0952": {
    "zip_code": "6050952",
    "prefecture": "京都府",
    "prefecture_kana": "キョウトフ",
    "prefecture_code": 26,
    "city": "京都市東山区",
    "city_kana": "キョウトシヒガシヤマク",
    "town": "今熊野宝蔵町",
    "town_kana": "イマグマノホウゾウチョウ",
    "street": null,
    "office_name": null,
    "office_name_kana": null
  },
  "0953": {
    "zip_code": "6050953",
    "prefecture": "京都府",
    "prefecture_kana": "キョウトフ",
    "prefecture_code": 26,
    "city": "京都市東山区",
    "city_kana": "キョウトシヒガシヤマク",
    "town": "今熊野南日吉町",
    "town_kana": "イマグマノミナミヒヨシチョウ",
    "street": null,
    "office_name": null,
    "office_name_kana": null
  },
  "0954": {
    "zip_code": "6050954",
    "prefecture": "京都府",
    "prefecture_kana": "キョウトフ",
    "prefecture_code": 26,
    "city": "京都市東山区",
    "city_kana": "キョウトシヒガシヤマク",
    "town": "今熊野小松山町",
    "town_kana": "イマグマノコマツヤマチョウ",
    "street": null,
    "office_name": null,
    "office_name_kana": null
  },
  "0955": {
    "zip_code": "6050955",
    "prefecture": "京都府",
    "prefecture_kana": "キョウトフ",
    "prefecture_code": 26,
    "city": "京都市東山区",
    "city_kana": "キョウトシヒガシヤマク",
    "town": "今熊野総山町",
    "town_kana": "イマグマノソウザンチョウ",
    "street": null,
    "office_name": null,
    "office_name_kana": null
  },
  "0956": {
    "zip_code": "6050956",
    "prefecture": "京都府",
    "prefecture_kana": "キョウトフ",
    "prefecture_code": 26,
    "city": "京都市東山区",
    "city_kana": "キョウトシヒガシヤマク",
    "town": "今熊野梅ケ谷町",
    "town_kana": "イマグマノウメガタニチョウ",
    "street": null,
    "office_name": null,
    "office_name_kana": null
  },
  "0957": {
    "zip_code": "6050957",
    "prefecture": "京都府",
    "prefecture_kana": "キョウトフ",
    "prefecture_code": 26,
    "city": "京都市東山区",
    "city_kana": "キョウトシヒガシヤマク",
    "town": "今熊野泉山町",
    "town_kana": "イマグマノセンザンチョウ",
    "street": null,
    "office_name": null,
    "office_name_kana": null
  },
  "0961": {
    "zip_code": "6050961",
    "prefecture": "京都府",
    "prefecture_kana": "キョウトフ",
    "prefecture_code": 26,
    "city": "京都市東山区",
    "city_kana": "キョウトシヒガシヤマク",
    "town": "新瓦町西組",
    "town_kana": "シンカワラチョウニシグミ",
    "street": null,
    "office_name": null,
    "office_name_kana": null
  },
  "0962": {
    "zip_code": "6050962",
    "prefecture": "京都府",
    "prefecture_kana": "キョウトフ",
    "prefecture_code": 26,
    "city": "京都市東山区",
    "city_kana": "キョウトシヒガシヤマク",
    "town": "新瓦町東組",
    "town_kana": "シンカワラチョウヒガシグミ",
    "street": null,
    "office_name": null,
    "office_name_kana": null
  },
  "0963": {
    "zip_code": "6050963",
    "prefecture": "京都府",
    "prefecture_kana": "キョウトフ",
    "prefecture_code": 26,
    "city": "京都市東山区",
    "city_kana": "キョウトシヒガシヤマク",
    "town": "本瓦町",
    "town_kana": "ホンカワラチョウ",
    "street": null,
    "office_name": null,
    "office_name_kana": null
  },
  "0964": {
    "zip_code": "6050964",
    "prefecture": "京都府",
    "prefecture_kana": "キョウトフ",
    "prefecture_code": 26,
    "city": "京都市東山区",
    "city_kana": "キョウトシヒガシヤマク",
    "town": "南瓦町",
    "town_kana": "ミナミカワラチョウ",
    "street": null,
    "office_name": null,
    "office_name_kana": null
  },
  "0965": {
    "zip_code": "6050965",
    "prefecture": "京都府",
    "prefecture_kana": "キョウトフ",
    "prefecture_code": 26,
    "city": "京都市東山区",
    "city_kana": "キョウトシヒガシヤマク",
    "town": "今熊野池田町",
    "town_kana": "イマグマノイケダチョウ",
    "street": null,
    "office_name": null,
    "office_name_kana": null
  },
  "0966": {
    "zip_code": "6050966",
    "prefecture": "京都府",
    "prefecture_kana": "キョウトフ",
    "prefecture_code": 26,
    "city": "京都市東山区",
    "city_kana": "キョウトシヒガシヤマク",
    "town": "下池田町",
    "town_kana": "シモイケダチョウ",
    "street": null,
    "office_name": null,
    "office_name_kana": null
  },
  "0967": {
    "zip_code": "6050967",
    "prefecture": "京都府",
    "prefecture_kana": "キョウトフ",
    "prefecture_code": 26,
    "city": "京都市東山区",
    "city_kana": "キョウトシヒガシヤマク",
    "town": "本池田町",
    "town_kana": "ホンイケダチョウ",
    "street": null,
    "office_name": null,
    "office_name_kana": null
  },
  "0968": {
    "zip_code": "6050968",
    "prefecture": "京都府",
    "prefecture_kana": "キョウトフ",
    "prefecture_code": 26,
    "city": "京都市東山区",
    "city_kana": "キョウトシヒガシヤマク",
    "town": "上池田町",
    "town_kana": "カミイケダチョウ",
    "street": null,
    "office_name": null,
    "office_name_kana": null
  },
  "0971": {
    "zip_code": "6050971",
    "prefecture": "京都府",
    "prefecture_kana": "キョウトフ",
    "prefecture_code": 26,
    "city": "京都市東山区",
    "city_kana": "キョウトシヒガシヤマク",
    "town": "今熊野椥ノ森町",
    "town_kana": "イマグマノナギノモリチョウ",
    "street": null,
    "office_name": null,
    "office_name_kana": null
  },
  "0972": {
    "zip_code": "6050972",
    "prefecture": "京都府",
    "prefecture_kana": "キョウトフ",
    "prefecture_code": 26,
    "city": "京都市東山区",
    "city_kana": "キョウトシヒガシヤマク",
    "town": "今熊野剣宮町",
    "town_kana": "イマグマノツルギノミヤチョウ",
    "street": null,
    "office_name": null,
    "office_name_kana": null
  },
  "0973": {
    "zip_code": "6050973",
    "prefecture": "京都府",
    "prefecture_kana": "キョウトフ",
    "prefecture_code": 26,
    "city": "京都市東山区",
    "city_kana": "キョウトシヒガシヤマク",
    "town": "泉涌寺門前町",
    "town_kana": "センニュウジモンゼンチョウ",
    "street": null,
    "office_name": null,
    "office_name_kana": null
  },
  "0974": {
    "zip_code": "6050974",
    "prefecture": "京都府",
    "prefecture_kana": "キョウトフ",
    "prefecture_code": 26,
    "city": "京都市東山区",
    "city_kana": "キョウトシヒガシヤマク",
    "town": "泉涌寺五葉ノ辻町",
    "town_kana": "センニュウジゴヨウノツジチョウ",
    "street": null,
    "office_name": null,
    "office_name_kana": null
  },
  "0975": {
    "zip_code": "6050975",
    "prefecture": "京都府",
    "prefecture_kana": "キョウトフ",
    "prefecture_code": 26,
    "city": "京都市東山区",
    "city_kana": "キョウトシヒガシヤマク",
    "town": "泉涌寺雀ケ森町",
    "town_kana": "センニュウジスズメガモリチョウ",
    "street": null,
    "office_name": null,
    "office_name_kana": null
  },
  "0976": {
    "zip_code": "6050976",
    "prefecture": "京都府",
    "prefecture_kana": "キョウトフ",
    "prefecture_code": 26,
    "city": "京都市東山区",
    "city_kana": "キョウトシヒガシヤマク",
    "town": "泉涌寺東林町",
    "town_kana": "センニュウジトウリンチョウ",
    "street": null,
    "office_name": null,
    "office_name_kana": null
  },
  "0977": {
    "zip_code": "6050977",
    "prefecture": "京都府",
    "prefecture_kana": "キョウトフ",
    "prefecture_code": 26,
    "city": "京都市東山区",
    "city_kana": "キョウトシヒガシヤマク",
    "town": "泉涌寺山内町",
    "town_kana": "センニュウジヤマノウチチョウ",
    "street": null,
    "office_name": null,
    "office_name_kana": null
  },
  "0978": {
    "zip_code": "6050978",
    "prefecture": "京都府",
    "prefecture_kana": "キョウトフ",
    "prefecture_code": 26,
    "city": "京都市東山区",
    "city_kana": "キョウトシヒガシヤマク",
    "town": "今熊野本多山町",
    "town_kana": "イマグマノホンダヤマチョウ",
    "street": null,
    "office_name": null,
    "office_name_kana": null
  },
  "0979": {
    "zip_code": "6050979",
    "prefecture": "京都府",
    "prefecture_kana": "キョウトフ",
    "prefecture_code": 26,
    "city": "京都市東山区",
    "city_kana": "キョウトシヒガシヤマク",
    "town": "今熊野南谷町",
    "town_kana": "イマグマノミナミダニチョウ",
    "street": null,
    "office_name": null,
    "office_name_kana": null
  },
  "0981": {
    "zip_code": "6050981",
    "prefecture": "京都府",
    "prefecture_kana": "キョウトフ",
    "prefecture_code": 26,
    "city": "京都市東山区",
    "city_kana": "キョウトシヒガシヤマク",
    "town": "本町",
    "town_kana": "ホンマチ",
    "street": null,
    "office_name": null,
    "office_name_kana": null
  },
  "0982": {
    "zip_code": "6050982",
    "prefecture": "京都府",
    "prefecture_kana": "キョウトフ",
    "prefecture_code": 26,
    "city": "京都市東山区",
    "city_kana": "キョウトシヒガシヤマク",
    "town": "福稲下高松町",
    "town_kana": "フクイネシモタカマツチョウ",
    "street": null,
    "office_name": null,
    "office_name_kana": null
  },
  "0983": {
    "zip_code": "6050983",
    "prefecture": "京都府",
    "prefecture_kana": "キョウトフ",
    "prefecture_code": 26,
    "city": "京都市東山区",
    "city_kana": "キョウトシヒガシヤマク",
    "town": "福稲上高松町",
    "town_kana": "フクイネカミタカマツチョウ",
    "street": null,
    "office_name": null,
    "office_name_kana": null
  },
  "0984": {
    "zip_code": "6050984",
    "prefecture": "京都府",
    "prefecture_kana": "キョウトフ",
    "prefecture_code": 26,
    "city": "京都市東山区",
    "city_kana": "キョウトシヒガシヤマク",
    "town": "福稲高原町",
    "town_kana": "フクイネタカハラチョウ",
    "street": null,
    "office_name": null,
    "office_name_kana": null
  },
  "0985": {
    "zip_code": "6050985",
    "prefecture": "京都府",
    "prefecture_kana": "キョウトフ",
    "prefecture_code": 26,
    "city": "京都市東山区",
    "city_kana": "キョウトシヒガシヤマク",
    "town": "福稲柿本町",
    "town_kana": "フクイネカキモトチョウ",
    "street": null,
    "office_name": null,
    "office_name_kana": null
  },
  "0986": {
    "zip_code": "6050986",
    "prefecture": "京都府",
    "prefecture_kana": "キョウトフ",
    "prefecture_code": 26,
    "city": "京都市東山区",
    "city_kana": "キョウトシヒガシヤマク",
    "town": "福稲岸ノ上町",
    "town_kana": "フクイネキシノカミチョウ",
    "street": null,
    "office_name": null,
    "office_name_kana": null
  },
  "0987": {
    "zip_code": "6050987",
    "prefecture": "京都府",
    "prefecture_kana": "キョウトフ",
    "prefecture_code": 26,
    "city": "京都市東山区",
    "city_kana": "キョウトシヒガシヤマク",
    "town": "福稲御所ノ内町",
    "town_kana": "フクイネゴショノウチチョウ",
    "street": null,
    "office_name": null,
    "office_name_kana": null
  },
  "0988": {
    "zip_code": "6050988",
    "prefecture": "京都府",
    "prefecture_kana": "キョウトフ",
    "prefecture_code": 26,
    "city": "京都市東山区",
    "city_kana": "キョウトシヒガシヤマク",
    "town": "福稲川原町",
    "town_kana": "フクイネカワラチョウ",
    "street": null,
    "office_name": null,
    "office_name_kana": null
  },
  "0989": {
    "zip_code": "6050989",
    "prefecture": "京都府",
    "prefecture_kana": "キョウトフ",
    "prefecture_code": 26,
    "city": "京都市東山区",
    "city_kana": "キョウトシヒガシヤマク",
    "town": "本町新",
    "town_kana": "ホンマチシン",
    "street": null,
    "office_name": null,
    "office_name_kana": null
  },
  "0991": {
    "zip_code": "6050991",
    "prefecture": "京都府",
    "prefecture_kana": "キョウトフ",
    "prefecture_code": 26,
    "city": "京都市東山区",
    "city_kana": "キョウトシヒガシヤマク",
    "town": "上堀詰町",
    "town_kana": "カミホリツメチョウ",
    "street": null,
    "office_name": null,
    "office_name_kana": null
  },
  "0992": {
    "zip_code": "6050992",
    "prefecture": "京都府",
    "prefecture_kana": "キョウトフ",
    "prefecture_code": 26,
    "city": "京都市東山区",
    "city_kana": "キョウトシヒガシヤマク",
    "town": "下堀詰町",
    "town_kana": "シモホリツメチョウ",
    "street": null,
    "office_name": null,
    "office_name_kana": null
  },
  "0993": {
    "zip_code": "6050993",
    "prefecture": "京都府",
    "prefecture_kana": "キョウトフ",
    "prefecture_code": 26,
    "city": "京都市東山区",
    "city_kana": "キョウトシヒガシヤマク",
    "town": "日吉町",
    "town_kana": "ヒヨシチョウ",
    "street": null,
    "office_name": null,
    "office_name_kana": null
  },
  "0994": {
    "zip_code": "6050994",
    "prefecture": "京都府",
    "prefecture_kana": "キョウトフ",
    "prefecture_code": 26,
    "city": "京都市東山区",
    "city_kana": "キョウトシヒガシヤマク",
    "town": "一橋宮ノ内町",
    "town_kana": "イチノハシミヤノウチチョウ",
    "street": null,
    "office_name": null,
    "office_name_kana": null
  },
  "0995": {
    "zip_code": "6050995",
    "prefecture": "京都府",
    "prefecture_kana": "キョウトフ",
    "prefecture_code": 26,
    "city": "京都市東山区",
    "city_kana": "キョウトシヒガシヤマク",
    "town": "一橋野本町",
    "town_kana": "イチノハシノモトチョウ",
    "street": null,
    "office_name": null,
    "office_name_kana": null
  },
  "8501": {
    "zip_code": "6058501",
    "prefecture": "京都府",
    "prefecture_kana": "キョウトフ",
    "prefecture_code": 26,
    "city": "京都市東山区",
    "city_kana": "キョウトシヒガシヤマク",
    "town": "今熊野北日吉町",
    "town_kana": "イマグマノキタヒヨシチョウ",
    "street": "３５",
    "office_name": "学校法人　京都女子学園（京都女子大学・京都女子短期大学部・京都女子高等学校・京都女子中学校・京都女子大学附属小学校・京都幼稚園）",
    "office_name_kana": "ガツコウホウジン キヨウトジヨシガクエン(キヨウトジヨシダイガク.キヨウトジヨシタンキダイガクブ.キヨウトジヨシコウトウガツコウ.キヨウトジヨシチユウガツコウ.キヨウトシ"
  },
  "8511": {
    "zip_code": "6058511",
    "prefecture": "京都府",
    "prefecture_kana": null,
    "prefecture_code": null,
    "city": "京都市東山区",
    "city_kana": null,
    "town": "清水５丁目",
    "town_kana": null,
    "street": "１３０番地の６",
    "office_name": "東山区役所",
    "office_name_kana": "ヒガシヤマクヤクシヨ"
  },
  "8686": {
    "zip_code": "6058686",
    "prefecture": "京都府",
    "prefecture_kana": "キョウトフ",
    "prefecture_code": 26,
    "city": "京都市東山区",
    "city_kana": "キョウトシヒガシヤマク",
    "town": "林下町",
    "town_kana": "リンカチョウ",
    "street": "４００",
    "office_name": "宗教法人　知恩院",
    "office_name_kana": "シユウキヨウホウジン チオンイン"
  }
}