{
  "0000": {
    "zip_code": "6120000",
    "prefecture": "京都府",
    "prefecture_kana": "キョウトフ",
    "prefecture_code": 26,
    "city": "京都市伏見区",
    "city_kana": "キョウトシフシミク",
    "town": "",
    "town_kana": "",
    "street": null,
    "office_name": null,
    "office_name_kana": null
  },
  "0001": {
    "zip_code": "6120001",
    "prefecture": "京都府",
    "prefecture_kana": "キョウトフ",
    "prefecture_code": 26,
    "city": "京都市伏見区",
    "city_kana": "キョウトシフシミク",
    "town": "深草下高松町",
    "town_kana": "フカクサシモタカマツチョウ",
    "street": null,
    "office_name": null,
    "office_name_kana": null
  },
  "0002": {
    "zip_code": "6120002",
    "prefecture": "京都府",
    "prefecture_kana": "キョウトフ",
    "prefecture_code": 26,
    "city": "京都市伏見区",
    "city_kana": "キョウトシフシミク",
    "town": "深草中川原町",
    "town_kana": "フカクサナカガワラチョウ",
    "street": null,
    "office_name": null,
    "office_name_kana": null
  },
  "0003": {
    "zip_code": "6120003",
    "prefecture": "京都府",
    "prefecture_kana": "キョウトフ",
    "prefecture_code": 26,
    "city": "京都市伏見区",
    "city_kana": "キョウトシフシミク",
    "town": "深草藤田坪町",
    "town_kana": "フカクサフジタノツボチョウ",
    "street": null,
    "office_name": null,
    "office_name_kana": null
  },
  "0004": {
    "zip_code": "6120004",
    "prefecture": "京都府",
    "prefecture_kana": "キョウトフ",
    "prefecture_code": 26,
    "city": "京都市伏見区",
    "city_kana": "キョウトシフシミク",
    "town": "深草相深町",
    "town_kana": "フカクサアイフカチョウ",
    "street": null,
    "office_name": null,
    "office_name_kana": null
  },
  "0005": {
    "zip_code": "6120005",
    "prefecture": "京都府",
    "prefecture_kana": "キョウトフ",
    "prefecture_code": 26,
    "city": "京都市伏見区",
    "city_kana": "キョウトシフシミク",
    "town": "深草森吉町",
    "town_kana": "フカクサモリヨシチョウ",
    "street": null,
    "office_name": null,
    "office_name_kana": null
  },
  "0006": {
    "zip_code": "6120006",
    "prefecture": "京都府",
    "prefecture_kana": "キョウトフ",
    "prefecture_code": 26,
    "city": "京都市伏見区",
    "city_kana": "キョウトシフシミク",
    "town": "深草上横縄町",
    "town_kana": "フカクサカミヨコナワチョウ",
    "street": null,
    "office_name": null,
    "office_name_kana": null
  },
  "0007": {
    "zip_code": "6120007",
    "prefecture": "京都府",
    "prefecture_kana": "キョウトフ",
    "prefecture_code": 26,
    "city": "京都市伏見区",
    "city_kana": "キョウトシフシミク",
    "town": "深草下横縄町",
    "town_kana": "フカクサシモヨコナワチョウ",
    "street": null,
    "office_name": null,
    "office_name_kana": null
  },
  "0008": {
    "zip_code": "6120008",
    "prefecture": "京都府",
    "prefecture_kana": "キョウトフ",
    "prefecture_code": 26,
    "city": "京都市伏見区",
    "city_kana": "キョウトシフシミク",
    "town": "深草六反田町",
    "town_kana": "フカクサロクタンダチョウ",
    "street": null,
    "office_name": null,
    "office_name_kana": null
  },
  "0009": {
    "zip_code": "6120009",
    "prefecture": "京都府",
    "prefecture_kana": "キョウトフ",
    "prefecture_code": 26,
    "city": "京都市伏見区",
    "city_kana": "キョウトシフシミク",
    "town": "深草西川原町",
    "town_kana": "フカクサニシガワラチョウ",
    "street": null,
    "office_name": null,
    "office_name_kana": null
  },
  "0011": {
    "zip_code": "6120011",
    "prefecture": "京都府",
    "prefecture_kana": "キョウトフ",
    "prefecture_code": 26,
    "city": "京都市伏見区",
    "city_kana": "キョウトシフシミク",
    "town": "深草鈴塚町",
    "town_kana": "フカクサスズツカチョウ",
    "street": null,
    "office_name": null,
    "office_name_kana": null
  },
  "0012": {
    "zip_code": "6120012",
    "prefecture": "京都府",
    "prefecture_kana": "キョウトフ",
    "prefecture_code": 26,
    "city": "京都市伏見区",
    "city_kana": "キョウトシフシミク",
    "town": "深草一ノ坪町",
    "town_kana": "フカクサイチノツボチョウ",
    "street": null,
    "office_name": null,
    "office_name_kana": null
  },
  "0013": {
    "zip_code": "6120013",
    "prefecture": "京都府",
    "prefecture_kana": "キョウトフ",
    "prefecture_code": 26,
    "city": "京都市伏見区",
    "city_kana": "キョウトシフシミク",
    "town": "深草祓川町",
    "town_kana": "フカクサハライガワチョウ",
    "street": null,
    "office_name": null,
    "office_name_kana": null
  },
  "0014": {
    "zip_code": "6120014",
    "prefecture": "京都府",
    "prefecture_kana": "キョウトフ",
    "prefecture_code": 26,
    "city": "京都市伏見区",
    "city_kana": "キョウトシフシミク",
    "town": "深草稲荷鳥居前町",
    "town_kana": "フカクサイナリトリイマエチョウ",
    "street": null,
    "office_name": null,
    "office_name_kana": null
  },
  "0015": {
    "zip_code": "6120015",
    "prefecture": "京都府",
    "prefecture_kana": "キョウトフ",
    "prefecture_code": 26,
    "city": "京都市伏見区",
    "city_kana": "キョウトシフシミク",
    "town": "深草ススハキ町",
    "town_kana": "フカクサススハキチョウ",
    "street": null,
    "office_name": null,
    "office_name_kana": null
  },
  "0016": {
    "zip_code": "6120016",
    "prefecture": "京都府",
    "prefecture_kana": "キョウトフ",
    "prefecture_code": 26,
    "city": "京都市伏見区",
    "city_kana": "キョウトシフシミク",
    "town": "深草ケナサ町",
    "town_kana": "フカクサケナサチョウ",
    "street": null,
    "office_name": null,
    "office_name_kana": null
  },
  "0017": {
    "zip_code": "6120017",
    "prefecture": "京都府",
    "prefecture_kana": "キョウトフ",
    "prefecture_code": 26,
    "city": "京都市伏見区",
    "city_kana": "キョウトシフシミク",
    "town": "深草今在家町",
    "town_kana": "フカクサイマザイケチョウ",
    "street": null,
    "office_name": null,
    "office_name_kana": null
  },
  "0018": {
    "zip_code": "6120018",
    "prefecture": "京都府",
    "prefecture_kana": "キョウトフ",
    "prefecture_code": 26,
    "city": "京都市伏見区",
    "city_kana": "キョウトシフシミク",
    "town": "深草フケノ内町",
    "town_kana": "フカクサフケノウチチョウ",
    "street": null,
    "office_name": null,
    "office_name_kana": null
  },
  "0019": {
    "zip_code": "6120019",
    "prefecture": "京都府",
    "prefecture_kana": "キョウトフ",
    "prefecture_code": 26,
    "city": "京都市伏見区",
    "city_kana": "キョウトシフシミク",
    "town": "深草平田町",
    "town_kana": "フカクサヒラタチョウ",
    "street": null,
    "office_name": null,
    "office_name_kana": null
  },
  "0021": {
    "zip_code": "6120021",
    "prefecture": "京都府",
    "prefecture_kana": "キョウトフ",
    "prefecture_code": 26,
    "city": "京都市伏見区",
    "city_kana": "キョウトシフシミク",
    "town": "深草塚本町",
    "town_kana": "フカクサツカモトチョウ",
    "street": null,
    "office_name": null,
    "office_name_kana": null
  },
  "0022": {
    "zip_code": "6120022",
    "prefecture": "京都府",
    "prefecture_kana": "キョウトフ",
    "prefecture_code": 26,
    "city": "京都市伏見区",
    "city_kana": "キョウトシフシミク",
    "town": "深草綿森町",
    "town_kana": "フカクサワタモリチョウ",
    "street": null,
    "office_name": null,
    "office_name_kana": null
  },
  "0023": {
    "zip_code": "6120023",
    "prefecture": "京都府",
    "prefecture_kana": "キョウトフ",
    "prefecture_code": 26,
    "city": "京都市伏見区",
    "city_kana": "キョウトシフシミク",
    "town": "深草町通町",
    "town_kana": "フカクサチョウドオリチョウ",
    "street": null,
    "office_name": null,
    "office_name_kana": null
  },
  "0024": {
    "zip_code": "6120024",
    "prefecture": "京都府",
    "prefecture_kana": "キョウトフ",
    "prefecture_code": 26,
    "city": "京都市伏見区",
    "city_kana": "キョウトシフシミク",
    "town": "深草野田町",
    "town_kana": "フカクサノダチョウ",
    "street": null,
    "office_name": null,
    "office_name_kana": null
  },
  "0025": {
    "zip_code": "6120025",
    "prefecture": "京都府",
    "prefecture_kana": "キョウトフ",
    "prefecture_code": 26,
    "city": "京都市伏見区",
    "city_kana": "キョウトシフシミク",
    "town": "深草キトロ町",
    "town_kana": "フカクサキトロチョウ",
    "street": null,
    "office_name": null,
    "office_name_kana": null
  },
  "0026": {
    "zip_code": "6120026",
    "prefecture": "京都府",
    "prefecture_kana": "キョウトフ",
    "prefecture_code": 26,
    "city": "京都市伏見区",
    "city_kana": "キョウトシフシミク",
    "town": "深草堀田町",
    "town_kana": "フカクサホツタチョウ",
    "street": null,
    "office_name": null,
    "office_name_kana": null
  },
  "0027": {
    "zip_code": "6120027",
    "prefecture": "京都府",
    "prefecture_kana": "キョウトフ",
    "prefecture_code": 26,
    "city": "京都市伏見区",
    "city_kana": "キョウトシフシミク",
    "town": "深草極楽町",
    "town_kana": "フカクサゴクラクチョウ",
    "street": null,
    "office_name": null,
    "office_name_kana": null
  },
  "0028": {
    "zip_code": "6120028",
    "prefecture": "京都府",
    "prefecture_kana": "キョウトフ",
    "prefecture_code": 26,
    "city": "京都市伏見区",
    "city_kana": "キョウトシフシミク",
    "town": "深草飯食町",
    "town_kana": "フカクサイジキチョウ",
    "street": null,
    "office_name": null,
    "office_name_kana": null
  },
  "0029": {
    "zip_code": "6120029",
    "prefecture": "京都府",
    "prefecture_kana": "キョウトフ",
    "prefecture_code": 26,
    "city": "京都市伏見区",
    "city_kana": "キョウトシフシミク",
    "town": "深草西浦町",
    "town_kana": "フカクサニシウラチョウ",
    "street": null,
    "office_name": null,
    "office_name_kana": null
  },
  "0031": {
    "zip_code": "6120031",
    "prefecture": "京都府",
    "prefecture_kana": "キョウトフ",
    "prefecture_code": 26,
    "city": "京都市伏見区",
    "city_kana": "キョウトシフシミク",
    "town": "深草池ノ内町",
    "town_kana": "フカクサイケノウチチョウ",
    "street": null,
    "office_name": null,
    "office_name_kana": null
  },
  "0032": {
    "zip_code": "6120032",
    "prefecture": "京都府",
    "prefecture_kana": "キョウトフ",
    "prefecture_code": 26,
    "city": "京都市伏見区",
    "city_kana": "キョウトシフシミク",
    "town": "深草西飯食町",
    "town_kana": "フカクサニシイジキチョウ",
    "street": null,
    "office_name": null,
    "office_name_kana": null
  },
  "0033": {
    "zip_code": "6120033",
    "prefecture": "京都府",
    "prefecture_kana": "キョウトフ",
    "prefecture_code": 26,
    "city": "京都市伏見区",
    "city_kana": "キョウトシフシミク",
    "town": "深草寺内町",
    "town_kana": "フカクサテラウチチョウ",
    "street": null,
    "office_name": null,
    "office_name_kana": null
  },
  "0034": {
    "zip_code": "6120034",
    "prefecture": "京都府",
    "prefecture_kana": "キョウトフ",
    "prefecture_code": 26,
    "city": "京都市伏見区",
    "city_kana": "キョウトシフシミク",
    "town": "深草七瀬川町",
    "town_kana": "フカクサナナセガワチョウ",
    "street": null,
    "office_name": null,
    "office_name_kana": null
  },
  "0035": {
    "zip_code": "6120035",
    "prefecture": "京都府",
    "prefecture_kana": "キョウトフ",
    "prefecture_code": 26,
    "city": "京都市伏見区",
    "city_kana": "キョウトシフシミク",
    "town": "深草北蓮池町",
    "town_kana": "フカクサキタハスイケチョウ",
    "street": null,
    "office_name": null,
    "office_name_kana": null
  },
  "0036": {
    "zip_code": "6120036",
    "prefecture": "京都府",
    "prefecture_kana": "キョウトフ",
    "prefecture_code": 26,
    "city": "京都市伏見区",
    "city_kana": "キョウトシフシミク",
    "town": "深草南蓮池町",
    "town_kana": "フカクサミナミハスイケチョウ",
    "street": null,
    "office_name": null,
    "office_name_kana": null
  },
  "0037": {
    "zip_code": "6120037",
    "prefecture": "京都府",
    "prefecture_kana": "キョウトフ",
    "prefecture_code": 26,
    "city": "京都市伏見区",
    "city_kana": "キョウトシフシミク",
    "town": "深草関屋敷町",
    "town_kana": "フカクサセキヤシキチョウ",
    "street": null,
    "office_name": null,
    "office_name_kana": null
  },
  "0038": {
    "zip_code": "6120038",
    "prefecture": "京都府",
    "prefecture_kana": "キョウトフ",
    "prefecture_code": 26,
    "city": "京都市伏見区",
    "city_kana": "キョウトシフシミク",
    "town": "深草仙石屋敷町",
    "town_kana": "フカクサセンゴクヤシキチョウ",
    "street": null,
    "office_name": null,
    "office_name_kana": null
  },
  "0041": {
    "zip_code": "6120041",
    "prefecture": "京都府",
    "prefecture_kana": "キョウトフ",
    "prefecture_code": 26,
    "city": "京都市伏見区",
    "city_kana": "キョウトシフシミク",
    "town": "深草北鍵屋町",
    "town_kana": "フカクサキタカギヤチョウ",
    "street": null,
    "office_name": null,
    "office_name_kana": null
  },
  "0042": {
    "zip_code": "6120042",
    "prefecture": "京都府",
    "prefecture_kana": "キョウトフ",
    "prefecture_code": 26,
    "city": "京都市伏見区",
    "city_kana": "キョウトシフシミク",
    "town": "深草芳永町",
    "town_kana": "フカクサヨシナガチョウ",
    "street": null,
    "office_name": null,
    "office_name_kana": null
  },
  "0043": {
    "zip_code": "6120043",
    "prefecture": "京都府",
    "prefecture_kana": "キョウトフ",
    "prefecture_code": 26,
    "city": "京都市伏見区",
    "city_kana": "キョウトシフシミク",
    "town": "深草芳本町",
    "town_kana": "フカクサヨシモトチョウ",
    "street": null,
    "office_name": null,
    "office_name_kana": null
  },
  "0044": {
    "zip_code": "6120044",
    "prefecture": "京都府",
    "prefecture_kana": "キョウトフ",
    "prefecture_code": 26,
    "city": "京都市伏見区",
    "city_kana": "キョウトシフシミク",
    "town": "深草北新町",
    "town_kana": "フカクサキタシンマチ",
    "street": null,
    "office_name": null,
    "office_name_kana": null
  },
  "0045": {
    "zip_code": "6120045",
    "prefecture": "京都府",
    "prefecture_kana": "キョウトフ",
    "prefecture_code": 26,
    "city": "京都市伏見区",
    "city_kana": "キョウトシフシミク",
    "town": "深草石橋町",
    "town_kana": "フカクサイシバシチョウ",
    "street": null,
    "office_name": null,
    "office_name_kana": null
  },
  "0046": {
    "zip_code": "6120046",
    "prefecture": "京都府",
    "prefecture_kana": "キョウトフ",
    "prefecture_code": 26,
    "city": "京都市伏見区",
    "city_kana": "キョウトシフシミク",
    "town": "深草大亀谷八島町",
    "town_kana": "フカクサオオカメダニヤシマチョウ",
    "street": null,
    "office_name": null,
    "office_name_kana": null
  },
  "0047": {
    "zip_code": "6120047",
    "prefecture": "京都府",
    "prefecture_kana": "キョウトフ",
    "prefecture_code": 26,
    "city": "京都市伏見区",
    "city_kana": "キョウトシフシミク",
    "town": "深草大亀谷内膳町",
    "town_kana": "フカクサオオカメダニナイゼンチョウ",
    "street": null,
    "office_name": null,
    "office_name_kana": null
  },
  "0048": {
    "zip_code": "6120048",
    "prefecture": "京都府",
    "prefecture_kana": "キョウトフ",
    "prefecture_code": 26,
    "city": "京都市伏見区",
    "city_kana": "キョウトシフシミク",
    "town": "深草大亀谷金森出雲町",
    "town_kana": "フカクサオオカメダニカナモリイズモチョウ",
    "street": null,
    "office_name": null,
    "office_name_kana": null
  },
  "0049": {
    "zip_code": "6120049",
    "prefecture": "京都府",
    "prefecture_kana": "キョウトフ",
    "prefecture_code": 26,
    "city": "京都市伏見区",
    "city_kana": "キョウトシフシミク",
    "town": "深草中ノ島町",
    "town_kana": "フカクサナカノシマチョウ",
    "street": null,
    "office_name": null,
    "office_name_kana": null
  },
  "0051": {
    "zip_code": "6120051",
    "prefecture": "京都府",
    "prefecture_kana": "キョウトフ",
    "prefecture_code": 26,
    "city": "京都市伏見区",
    "city_kana": "キョウトシフシミク",
    "town": "墨染町",
    "town_kana": "スミゾメチョウ",
    "street": null,
    "office_name": null,
    "office_name_kana": null
  },
  "0052": {
    "zip_code": "6120052",
    "prefecture": "京都府",
    "prefecture_kana": "キョウトフ",
    "prefecture_code": 26,
    "city": "京都市伏見区",
    "city_kana": "キョウトシフシミク",
    "town": "深草墨染町",
    "town_kana": "フカクサスミゾメチョウ",
    "street": null,
    "office_name": null,
    "office_name_kana": null
  },
  "0053": {
    "zip_code": "6120053",
    "prefecture": "京都府",
    "prefecture_kana": "キョウトフ",
    "prefecture_code": 26,
    "city": "京都市伏見区",
    "city_kana": "キョウトシフシミク",
    "town": "桃山町丹下",
    "town_kana": "モモヤマチョウタンゲ",
    "street": null,
    "office_name": null,
    "office_name_kana": null
  },
  "0054": {
    "zip_code": "6120054",
    "prefecture": "京都府",
    "prefecture_kana": "キョウトフ",
    "prefecture_code": 26,
    "city": "京都市伏見区",
    "city_kana": "キョウトシフシミク",
    "town": "桃山最上町",
    "town_kana": "モモヤマモガミチョウ",
    "street": null,
    "office_name": null,
    "office_name_kana": null
  },
  "0055": {
    "zip_code": "6120055",
    "prefecture": "京都府",
    "prefecture_kana": "キョウトフ",
    "prefecture_code": 26,
    "city": "京都市伏見区",
    "city_kana": "キョウトシフシミク",
    "town": "桃山水野左近東町",
    "town_kana": "モモヤマミズノサコンヒガシマチ",
    "street": null,
    "office_name": null,
    "office_name_kana": null
  },
  "0056": {
    "zip_code": "6120056",
    "prefecture": "京都府",
    "prefecture_kana": "キョウトフ",
    "prefecture_code": 26,
    "city": "京都市伏見区",
    "city_kana": "キョウトシフシミク",
    "town": "桃山長岡越中北町",
    "town_kana": "モモヤマナガオカエッチュウキタマチ",
    "street": null,
    "office_name": null,
    "office_name_kana": null
  },
  "0057": {
    "zip_code": "6120057",
    "prefecture": "京都府",
    "prefecture_kana": "キョウトフ",
    "prefecture_code": 26,
    "city": "京都市伏見区",
    "city_kana": "キョウトシフシミク",
    "town": "桃山長岡越中東町",
    "town_kana": "モモヤマナガオカエッチュウヒガシマチ",
    "street": null,
    "office_name": null,
    "office_name_kana": null
  },
  "0058": {
    "zip_code": "6120058",
    "prefecture": "京都府",
    "prefecture_kana": "キョウトフ",
    "prefecture_code": 26,
    "city": "京都市伏見区",
    "city_kana": "キョウトシフシミク",
    "town": "桃山長岡越中南町",
    "town_kana": "モモヤマナガオカエッチュウミナミマチ",
    "street": null,
    "office_name": null,
    "office_name_kana": null
  },
  "0059": {
    "zip_code": "6120059",
    "prefecture": "京都府",
    "prefecture_kana": "キョウトフ",
    "prefecture_code": 26,
    "city": "京都市伏見区",
    "city_kana": "キョウトシフシミク",
    "town": "桃山水野左近西町",
    "town_kana": "モモヤマミズノサコンニシマチ",
    "street": null,
    "office_name": null,
    "office_name_kana": null
  },
  "0061": {
    "zip_code": "6120061",
    "prefecture": "京都府",
    "prefecture_kana": "キョウトフ",
    "prefecture_code": 26,
    "city": "京都市伏見区",
    "city_kana": "キョウトシフシミク",
    "town": "桃山福島太夫北町",
    "town_kana": "モモヤマフクシマダユウキタマチ",
    "street": null,
    "office_name": null,
    "office_name_kana": null
  },
  "0062": {
    "zip_code": "6120062",
    "prefecture": "京都府",
    "prefecture_kana": "キョウトフ",
    "prefecture_code": 26,
    "city": "京都市伏見区",
    "city_kana": "キョウトシフシミク",
    "town": "桃山福島太夫南町",
    "town_kana": "モモヤマフクシマダユウミナミマチ",
    "street": null,
    "office_name": null,
    "office_name_kana": null
  },
  "0063": {
    "zip_code": "6120063",
    "prefecture": "京都府",
    "prefecture_kana": "キョウトフ",
    "prefecture_code": 26,
    "city": "京都市伏見区",
    "city_kana": "キョウトシフシミク",
    "town": "桃山毛利長門東町",
    "town_kana": "モモヤマモウリナガトヒガシマチ",
    "street": null,
    "office_name": null,
    "office_name_kana": null
  },
  "0064": {
    "zip_code": "6120064",
    "prefecture": "京都府",
    "prefecture_kana": "キョウトフ",
    "prefecture_code": 26,
    "city": "京都市伏見区",
    "city_kana": "キョウトシフシミク",
    "town": "桃山毛利長門西町",
    "town_kana": "モモヤマモウリナガトニシマチ",
    "street": null,
    "office_name": null,
    "office_name_kana": null
  },
  "0065": {
    "zip_code": "6120065",
    "prefecture": "京都府",
    "prefecture_kana": "キョウトフ",
    "prefecture_code": 26,
    "city": "京都市伏見区",
    "city_kana": "キョウトシフシミク",
    "town": "桃山羽柴長吉東町",
    "town_kana": "モモヤマハシバチョウキチヒガシマチ",
    "street": null,
    "office_name": null,
    "office_name_kana": null
  },
  "0066": {
    "zip_code": "6120066",
    "prefecture": "京都府",
    "prefecture_kana": "キョウトフ",
    "prefecture_code": 26,
    "city": "京都市伏見区",
    "city_kana": "キョウトシフシミク",
    "town": "桃山羽柴長吉中町",
    "town_kana": "モモヤマハシバチョウキチナカマチ",
    "street": null,
    "office_name": null,
    "office_name_kana": null
  },
  "0067": {
    "zip_code": "6120067",
    "prefecture": "京都府",
    "prefecture_kana": "キョウトフ",
    "prefecture_code": 26,
    "city": "京都市伏見区",
    "city_kana": "キョウトシフシミク",
    "town": "桃山羽柴長吉西町",
    "town_kana": "モモヤマハシバチョウキチニシマチ",
    "street": null,
    "office_name": null,
    "office_name_kana": null
  },
  "0068": {
    "zip_code": "6120068",
    "prefecture": "京都府",
    "prefecture_kana": "キョウトフ",
    "prefecture_code": 26,
    "city": "京都市伏見区",
    "city_kana": "キョウトシフシミク",
    "town": "桃山福島太夫西町",
    "town_kana": "モモヤマフクシマダユウニシマチ",
    "street": null,
    "office_name": null,
    "office_name_kana": null
  },
  "0071": {
    "zip_code": "6120071",
    "prefecture": "京都府",
    "prefecture_kana": "キョウトフ",
    "prefecture_code": 26,
    "city": "京都市伏見区",
    "city_kana": "キョウトシフシミク",
    "town": "桃山井伊掃部東町",
    "town_kana": "モモヤマイイカモンヒガシマチ",
    "street": null,
    "office_name": null,
    "office_name_kana": null
  },
  "0072": {
    "zip_code": "6120072",
    "prefecture": "京都府",
    "prefecture_kana": "キョウトフ",
    "prefecture_code": 26,
    "city": "京都市伏見区",
    "city_kana": "キョウトシフシミク",
    "town": "桃山筒井伊賀東町",
    "town_kana": "モモヤマツツイイガヒガシマチ",
    "street": null,
    "office_name": null,
    "office_name_kana": null
  },
  "0073": {
    "zip_code": "6120073",
    "prefecture": "京都府",
    "prefecture_kana": "キョウトフ",
    "prefecture_code": 26,
    "city": "京都市伏見区",
    "city_kana": "キョウトシフシミク",
    "town": "桃山筒井伊賀西町",
    "town_kana": "モモヤマツツイイガニシマチ",
    "street": null,
    "office_name": null,
    "office_name_kana": null
  },
  "0074": {
    "zip_code": "6120074",
    "prefecture": "京都府",
    "prefecture_kana": "キョウトフ",
    "prefecture_code": 26,
    "city": "京都市伏見区",
    "city_kana": "キョウトシフシミク",
    "town": "桃山井伊掃部西町",
    "town_kana": "モモヤマイイカモンニシマチ",
    "street": null,
    "office_name": null,
    "office_name_kana": null
  },
  "0081": {
    "zip_code": "6120081",
    "prefecture": "京都府",
    "prefecture_kana": "キョウトフ",
    "prefecture_code": 26,
    "city": "京都市伏見区",
    "city_kana": "キョウトシフシミク",
    "town": "深草大島屋敷町",
    "town_kana": "フカクサオオシマヤシキチョウ",
    "street": null,
    "office_name": null,
    "office_name_kana": null
  },
  "0082": {
    "zip_code": "6120082",
    "prefecture": "京都府",
    "prefecture_kana": "キョウトフ",
    "prefecture_code": 26,
    "city": "京都市伏見区",
    "city_kana": "キョウトシフシミク",
    "town": "深草山村町",
    "town_kana": "フカクサヤマムラチョウ",
    "street": null,
    "office_name": null,
    "office_name_kana": null
  },
  "0083": {
    "zip_code": "6120083",
    "prefecture": "京都府",
    "prefecture_kana": "キョウトフ",
    "prefecture_code": 26,
    "city": "京都市伏見区",
    "city_kana": "キョウトシフシミク",
    "town": "西桝屋町",
    "town_kana": "ニシマスヤチョウ",
    "street": null,
    "office_name": null,
    "office_name_kana": null
  },
  "0084": {
    "zip_code": "6120084",
    "prefecture": "京都府",
    "prefecture_kana": "キョウトフ",
    "prefecture_code": 26,
    "city": "京都市伏見区",
    "city_kana": "キョウトシフシミク",
    "town": "鑓屋町",
    "town_kana": "ヤリヤマチ",
    "street": null,
    "office_name": null,
    "office_name_kana": null
  },
  "0085": {
    "zip_code": "6120085",
    "prefecture": "京都府",
    "prefecture_kana": "キョウトフ",
    "prefecture_code": 26,
    "city": "京都市伏見区",
    "city_kana": "キョウトシフシミク",
    "town": "撞木町",
    "town_kana": "シュモクマチ",
    "street": null,
    "office_name": null,
    "office_name_kana": null
  },
  "0086": {
    "zip_code": "6120086",
    "prefecture": "京都府",
    "prefecture_kana": "キョウトフ",
    "prefecture_code": 26,
    "city": "京都市伏見区",
    "city_kana": "キョウトシフシミク",
    "town": "桃山町真斉",
    "town_kana": "モモヤマチョウシンサイ",
    "street": null,
    "office_name": null,
    "office_name_kana": null
  },
  "0087": {
    "zip_code": "6120087",
    "prefecture": "京都府",
    "prefecture_kana": "キョウトフ",
    "prefecture_code": 26,
    "city": "京都市伏見区",
    "city_kana": "キョウトシフシミク",
    "town": "深草紺屋町",
    "town_kana": "フカクサコンヤチョウ",
    "street": null,
    "office_name": null,
    "office_name_kana": null
  },
  "0088": {
    "zip_code": "6120088",
    "prefecture": "京都府",
    "prefecture_kana": "キョウトフ",
    "prefecture_code": 26,
    "city": "京都市伏見区",
    "city_kana": "キョウトシフシミク",
    "town": "深草出羽屋敷町",
    "town_kana": "フカクサデワヤシキチョウ",
    "street": null,
    "office_name": null,
    "office_name_kana": null
  },
  "0089": {
    "zip_code": "6120089",
    "prefecture": "京都府",
    "prefecture_kana": "キョウトフ",
    "prefecture_code": 26,
    "city": "京都市伏見区",
    "city_kana": "キョウトシフシミク",
    "town": "深草佐野屋敷町",
    "town_kana": "フカクササノヤシキチョウ",
    "street": null,
    "office_name": null,
    "office_name_kana": null
  },
  "0801": {
    "zip_code": "6120801",
    "prefecture": "京都府",
    "prefecture_kana": "キョウトフ",
    "prefecture_code": 26,
    "city": "京都市伏見区",
    "city_kana": "キョウトシフシミク",
    "town": "深草正覚町",
    "town_kana": "フカクサショウカクチョウ",
    "street": null,
    "office_name": null,
    "office_name_kana": null
  },
  "0802": {
    "zip_code": "6120802",
    "prefecture": "京都府",
    "prefecture_kana": "キョウトフ",
    "prefecture_code": 26,
    "city": "京都市伏見区",
    "city_kana": "キョウトシフシミク",
    "town": "深草南明町",
    "town_kana": "フカクサナンメイチョウ",
    "street": null,
    "office_name": null,
    "office_name_kana": null
  },
  "0803": {
    "zip_code": "6120803",
    "prefecture": "京都府",
    "prefecture_kana": "キョウトフ",
    "prefecture_code": 26,
    "city": "京都市伏見区",
    "city_kana": "キョウトシフシミク",
    "town": "深草車阪町",
    "town_kana": "フカクサクルマザカチョウ",
    "street": null,
    "office_name": null,
    "office_name_kana": null
  },
  "0804": {
    "zip_code": "6120804",
    "prefecture": "京都府",
    "prefecture_kana": "キョウトフ",
    "prefecture_code": 26,
    "city": "京都市伏見区",
    "city_kana": "キョウトシフシミク",
    "town": "稲荷山官有地",
    "town_kana": "イナリヤマカンユウチ",
    "street": null,
    "office_name": null,
    "office_name_kana": null
  },
  "0805": {
    "zip_code": "6120805",
    "prefecture": "京都府",
    "prefecture_kana": "キョウトフ",
    "prefecture_code": 26,
    "city": "京都市伏見区",
    "city_kana": "キョウトシフシミク",
    "town": "深草開土口町",
    "town_kana": "フカクサカイドグチチョウ",
    "street": null,
    "office_name": null,
    "office_name_kana": null
  },
  "0806": {
    "zip_code": "6120806",
    "prefecture": "京都府",
    "prefecture_kana": "キョウトフ",
    "prefecture_code": 26,
    "city": "京都市伏見区",
    "city_kana": "キョウトシフシミク",
    "town": "深草開土町",
    "town_kana": "フカクサカイドチョウ",
    "street": null,
    "office_name": null,
    "office_name_kana": null
  },
  "0807": {
    "zip_code": "6120807",
    "prefecture": "京都府",
    "prefecture_kana": "キョウトフ",
    "prefecture_code": 26,
    "city": "京都市伏見区",
    "city_kana": "キョウトシフシミク",
    "town": "深草稲荷中之町",
    "town_kana": "フカクサイナリナカノチョウ",
    "street": null,
    "office_name": null,
    "office_name_kana": null
  },
  "0808": {
    "zip_code": "6120808",
    "prefecture": "京都府",
    "prefecture_kana": "キョウトフ",
    "prefecture_code": 26,
    "city": "京都市伏見区",
    "city_kana": "キョウトシフシミク",
    "town": "深草稲荷榎木橋町",
    "town_kana": "フカクサイナリエノキバシチョウ",
    "street": null,
    "office_name": null,
    "office_name_kana": null
  },
  "0809": {
    "zip_code": "6120809",
    "prefecture": "京都府",
    "prefecture_kana": "キョウトフ",
    "prefecture_code": 26,
    "city": "京都市伏見区",
    "city_kana": "キョウトシフシミク",
    "town": "深草願成町",
    "town_kana": "フカクサガンショウチョウ",
    "street": null,
    "office_name": null,
    "office_name_kana": null
  },
  "0811": {
    "zip_code": "6120811",
    "prefecture": "京都府",
    "prefecture_kana": "キョウトフ",
    "prefecture_code": 26,
    "city": "京都市伏見区",
    "city_kana": "キョウトシフシミク",
    "town": "深草笹山町",
    "town_kana": "フカクサササヤマチョウ",
    "street": null,
    "office_name": null,
    "office_name_kana": null
  },
  "0812": {
    "zip_code": "6120812",
    "prefecture": "京都府",
    "prefecture_kana": "キョウトフ",
    "prefecture_code": 26,
    "city": "京都市伏見区",
    "city_kana": "キョウトシフシミク",
    "town": "深草坊山町",
    "town_kana": "フカクサボウヤマチョウ",
    "street": null,
    "office_name": null,
    "office_name_kana": null
  },
  "0813": {
    "zip_code": "6120813",
    "prefecture": "京都府",
    "prefecture_kana": "キョウトフ",
    "prefecture_code": 26,
    "city": "京都市伏見区",
    "city_kana": "キョウトシフシミク",
    "town": "深草極楽寺山町",
    "town_kana": "フカクサゴクラクジヤマチョウ",
    "street": null,
    "office_name": null,
    "office_name_kana": null
  },
  "0814": {
    "zip_code": "6120814",
    "prefecture": "京都府",
    "prefecture_kana": "キョウトフ",
    "prefecture_code": 26,
    "city": "京都市伏見区",
    "city_kana": "キョウトシフシミク",
    "town": "深草砥粉山町",
    "town_kana": "フカクサトノコヤマチョウ",
    "street": null,
    "office_name": null,
    "office_name_kana": null
  },
  "0815": {
    "zip_code": "6120815",
    "prefecture": "京都府",
    "prefecture_kana": "キョウトフ",
    "prefecture_code": 26,
    "city": "京都市伏見区",
    "city_kana": "キョウトシフシミク",
    "town": "深草飯食山町",
    "town_kana": "フカクサイジキヤマチョウ",
    "street": null,
    "office_name": null,
    "office_name_kana": null
  },
  "0816": {
    "zip_code": "6120816",
    "prefecture": "京都府",
    "prefecture_kana": "キョウトフ",
    "prefecture_code": 26,
    "city": "京都市伏見区",
    "city_kana": "キョウトシフシミク",
    "town": "深草馬谷町",
    "town_kana": "フカクサウマタニチョウ",
    "street": null,
    "office_name": null,
    "office_name_kana": null
  },
  "0817": {
    "zip_code": "6120817",
    "prefecture": "京都府",
    "prefecture_kana": "キョウトフ",
    "prefecture_code": 26,
    "city": "京都市伏見区",
    "city_kana": "キョウトシフシミク",
    "town": "深草向ケ原町",
    "town_kana": "フカクサムカイガハラチョウ",
    "street": null,
    "office_name": null,
    "office_name_kana": null
  },
  "0818": {
    "zip_code": "6120818",
    "prefecture": "京都府",
    "prefecture_kana": "キョウトフ",
    "prefecture_code": 26,
    "city": "京都市伏見区",
    "city_kana": "キョウトシフシミク",
    "town": "深草中ノ郷山町",
    "town_kana": "フカクサナカノゴウヤマチョウ",
    "street": null,
    "office_name": null,
    "office_name_kana": null
  },
  "0819": {
    "zip_code": "6120819",
    "prefecture": "京都府",
    "prefecture_kana": "キョウトフ",
    "prefecture_code": 26,
    "city": "京都市伏見区",
    "city_kana": "キョウトシフシミク",
    "town": "深草僧坊山町",
    "town_kana": "フカクサソウボウヤマチョウ",
    "street": null,
    "office_name": null,
    "office_name_kana": null
  },
  "0821": {
    "zip_code": "6120821",
    "prefecture": "京都府",
    "prefecture_kana": "キョウトフ",
    "prefecture_code": 26,
    "city": "京都市伏見区",
    "city_kana": "キョウトシフシミク",
    "town": "深草東瓦町",
    "town_kana": "フカクサヒガシガワラマチ",
    "street": null,
    "office_name": null,
    "office_name_kana": null
  },
  "0822": {
    "zip_code": "6120822",
    "prefecture": "京都府",
    "prefecture_kana": "キョウトフ",
    "prefecture_code": 26,
    "city": "京都市伏見区",
    "city_kana": "キョウトシフシミク",
    "town": "深草鞍ケ谷",
    "town_kana": "フカクサクラガタニ",
    "street": null,
    "office_name": null,
    "office_name_kana": null
  },
  "0823": {
    "zip_code": "6120823",
    "prefecture": "京都府",
    "prefecture_kana": "キョウトフ",
    "prefecture_code": 26,
    "city": "京都市伏見区",
    "city_kana": "キョウトシフシミク",
    "town": "深草東軸町",
    "town_kana": "フカクサトウジクチョウ",
    "street": null,
    "office_name": null,
    "office_name_kana": null
  },
  "0824": {
    "zip_code": "6120824",
    "prefecture": "京都府",
    "prefecture_kana": "キョウトフ",
    "prefecture_code": 26,
    "city": "京都市伏見区",
    "city_kana": "キョウトシフシミク",
    "town": "深草霧ケ谷町",
    "town_kana": "フカクサキリガタニチョウ",
    "street": null,
    "office_name": null,
    "office_name_kana": null
  },
  "0825": {
    "zip_code": "6120825",
    "prefecture": "京都府",
    "prefecture_kana": "キョウトフ",
    "prefecture_code": 26,
    "city": "京都市伏見区",
    "city_kana": "キョウトシフシミク",
    "town": "深草鐙ケ谷町",
    "town_kana": "フカクサアブミガタニチョウ",
    "street": null,
    "office_name": null,
    "office_name_kana": null
  },
  "0826": {
    "zip_code": "6120826",
    "prefecture": "京都府",
    "prefecture_kana": "キョウトフ",
    "prefecture_code": 26,
    "city": "京都市伏見区",
    "city_kana": "キョウトシフシミク",
    "town": "深草兜山町",
    "town_kana": "フカクサカブトヤマチョウ",
    "street": null,
    "office_name": null,
    "office_name_kana": null
  },
  "0827": {
    "zip_code": "6120827",
    "prefecture": "京都府",
    "prefecture_kana": "キョウトフ",
    "prefecture_code": 26,
    "city": "京都市伏見区",
    "city_kana": "キョウトシフシミク",
    "town": "深草宮谷町",
    "town_kana": "フカクサミヤタニチョウ",
    "street": null,
    "office_name": null,
    "office_name_kana": null
  },
  "0828": {
    "zip_code": "6120828",
    "prefecture": "京都府",
    "prefecture_kana": "キョウトフ",
    "prefecture_code": 26,
    "city": "京都市伏見区",
    "city_kana": "キョウトシフシミク",
    "town": "深草砂子谷町",
    "town_kana": "フカクサスナコダニチョウ",
    "street": null,
    "office_name": null,
    "office_name_kana": null
  },
  "0829": {
    "zip_code": "6120829",
    "prefecture": "京都府",
    "prefecture_kana": "キョウトフ",
    "prefecture_code": 26,
    "city": "京都市伏見区",
    "city_kana": "キョウトシフシミク",
    "town": "深草谷口町",
    "town_kana": "フカクサタニグチチョウ",
    "street": null,
    "office_name": null,
    "office_name_kana": null
  },
  "0831": {
    "zip_code": "6120831",
    "prefecture": "京都府",
    "prefecture_kana": "キョウトフ",
    "prefecture_code": 26,
    "city": "京都市伏見区",
    "city_kana": "キョウトシフシミク",
    "town": "桃山町古城山",
    "town_kana": "モモヤマチョウコジョウザン",
    "street": null,
    "office_name": null,
    "office_name_kana": null
  },
  "0832": {
    "zip_code": "6120832",
    "prefecture": "京都府",
    "prefecture_kana": "キョウトフ",
    "prefecture_code": 26,
    "city": "京都市伏見区",
    "city_kana": "キョウトシフシミク",
    "town": "深草大亀谷東安信町",
    "town_kana": "フカクサオオカメダニヒガシアンシンチョウ",
    "street": null,
    "office_name": null,
    "office_name_kana": null
  },
  "0833": {
    "zip_code": "6120833",
    "prefecture": "京都府",
    "prefecture_kana": "キョウトフ",
    "prefecture_code": 26,
    "city": "京都市伏見区",
    "city_kana": "キョウトシフシミク",
    "town": "深草大亀谷岩山町",
    "town_kana": "フカクサオオカメダニイワヤマチョウ",
    "street": null,
    "office_name": null,
    "office_name_kana": null
  },
  "0834": {
    "zip_code": "6120834",
    "prefecture": "京都府",
    "prefecture_kana": "キョウトフ",
    "prefecture_code": 26,
    "city": "京都市伏見区",
    "city_kana": "キョウトシフシミク",
    "town": "桃山町安芸山",
    "town_kana": "モモヤマチョウアキヤマ",
    "street": null,
    "office_name": null,
    "office_name_kana": null
  },
  "0835": {
    "zip_code": "6120835",
    "prefecture": "京都府",
    "prefecture_kana": "キョウトフ",
    "prefecture_code": 26,
    "city": "京都市伏見区",
    "city_kana": "キョウトシフシミク",
    "town": "桃山紅雪町",
    "town_kana": "モモヤマコウセツチョウ",
    "street": null,
    "office_name": null,
    "office_name_kana": null
  },
  "0836": {
    "zip_code": "6120836",
    "prefecture": "京都府",
    "prefecture_kana": "キョウトフ",
    "prefecture_code": 26,
    "city": "京都市伏見区",
    "city_kana": "キョウトシフシミク",
    "town": "深草大亀谷安信町",
    "town_kana": "フカクサオオカメダニアンシンチョウ",
    "street": null,
    "office_name": null,
    "office_name_kana": null
  },
  "0837": {
    "zip_code": "6120837",
    "prefecture": "京都府",
    "prefecture_kana": "キョウトフ",
    "prefecture_code": 26,
    "city": "京都市伏見区",
    "city_kana": "キョウトシフシミク",
    "town": "深草稲荷山町",
    "town_kana": "フカクサイナリヤマチョウ",
    "street": null,
    "office_name": null,
    "office_name_kana": null
  },
  "0838": {
    "zip_code": "6120838",
    "prefecture": "京都府",
    "prefecture_kana": "キョウトフ",
    "prefecture_code": 26,
    "city": "京都市伏見区",
    "city_kana": "キョウトシフシミク",
    "town": "深草神明講谷町",
    "town_kana": "フカクサシンメイコウダニチョウ",
    "street": null,
    "office_name": null,
    "office_name_kana": null
  },
  "0839": {
    "zip_code": "6120839",
    "prefecture": "京都府",
    "prefecture_kana": "キョウトフ",
    "prefecture_code": 26,
    "city": "京都市伏見区",
    "city_kana": "キョウトシフシミク",
    "town": "深草本寺山町",
    "town_kana": "フカクサホンジヤマチョウ",
    "street": null,
    "office_name": null,
    "office_name_kana": null
  },
  "0841": {
    "zip_code": "6120841",
    "prefecture": "京都府",
    "prefecture_kana": "キョウトフ",
    "prefecture_code": 26,
    "city": "京都市伏見区",
    "city_kana": "キョウトシフシミク",
    "town": "深草大亀谷東久宝寺町",
    "town_kana": "フカクサオオカメダニヒガシキュウホウジチョウ",
    "street": null,
    "office_name": null,
    "office_name_kana": null
  },
  "0842": {
    "zip_code": "6120842",
    "prefecture": "京都府",
    "prefecture_kana": "キョウトフ",
    "prefecture_code": 26,
    "city": "京都市伏見区",
    "city_kana": "キョウトシフシミク",
    "town": "深草大亀谷大谷町",
    "town_kana": "フカクサオオカメダニオオタニチョウ",
    "street": null,
    "office_name": null,
    "office_name_kana": null
  },
  "0843": {
    "zip_code": "6120843",
    "prefecture": "京都府",
    "prefecture_kana": "キョウトフ",
    "prefecture_code": 26,
    "city": "京都市伏見区",
    "city_kana": "キョウトシフシミク",
    "town": "深草大亀谷古御香町",
    "town_kana": "フカクサオオカメダニフルゴコウチョウ",
    "street": null,
    "office_name": null,
    "office_name_kana": null
  },
  "0844": {
    "zip_code": "6120844",
    "prefecture": "京都府",
    "prefecture_kana": "キョウトフ",
    "prefecture_code": 26,
    "city": "京都市伏見区",
    "city_kana": "キョウトシフシミク",
    "town": "深草大亀谷東古御香町",
    "town_kana": "フカクサオオカメダニヒガシフルゴコウチョウ",
    "street": null,
    "office_name": null,
    "office_name_kana": null
  },
  "0845": {
    "zip_code": "6120845",
    "prefecture": "京都府",
    "prefecture_kana": "キョウトフ",
    "prefecture_code": 26,
    "city": "京都市伏見区",
    "city_kana": "キョウトシフシミク",
    "town": "深草大亀谷敦賀町",
    "town_kana": "フカクサオオカメダニツルガチョウ",
    "street": null,
    "office_name": null,
    "office_name_kana": null
  },
  "0846": {
    "zip_code": "6120846",
    "prefecture": "京都府",
    "prefecture_kana": "キョウトフ",
    "prefecture_code": 26,
    "city": "京都市伏見区",
    "city_kana": "キョウトシフシミク",
    "town": "深草大亀谷万帖敷町",
    "town_kana": "フカクサオオカメダニマンジョウジキチョウ",
    "street": null,
    "office_name": null,
    "office_name_kana": null
  },
  "0847": {
    "zip_code": "6120847",
    "prefecture": "京都府",
    "prefecture_kana": "キョウトフ",
    "prefecture_code": 26,
    "city": "京都市伏見区",
    "city_kana": "キョウトシフシミク",
    "town": "深草大亀谷大山町",
    "town_kana": "フカクサオオカメダニオオヤマチョウ",
    "street": null,
    "office_name": null,
    "office_name_kana": null
  },
  "0848": {
    "zip_code": "6120848",
    "prefecture": "京都府",
    "prefecture_kana": "キョウトフ",
    "prefecture_code": 26,
    "city": "京都市伏見区",
    "city_kana": "キョウトシフシミク",
    "town": "深草大亀谷東寺町",
    "town_kana": "フカクサオオカメダニヒガシデラチョウ",
    "street": null,
    "office_name": null,
    "office_name_kana": null
  },
  "0849": {
    "zip_code": "6120849",
    "prefecture": "京都府",
    "prefecture_kana": "キョウトフ",
    "prefecture_code": 26,
    "city": "京都市伏見区",
    "city_kana": "キョウトシフシミク",
    "town": "深草大亀谷西寺町",
    "town_kana": "フカクサオオカメダニニシデラチョウ",
    "street": null,
    "office_name": null,
    "office_name_kana": null
  },
  "0851": {
    "zip_code": "6120851",
    "prefecture": "京都府",
    "prefecture_kana": "キョウトフ",
    "prefecture_code": 26,
    "city": "京都市伏見区",
    "city_kana": "キョウトシフシミク",
    "town": "深草大亀谷六躰町",
    "town_kana": "フカクサオオカメダニロクタイチョウ",
    "street": null,
    "office_name": null,
    "office_name_kana": null
  },
  "0852": {
    "zip_code": "6120852",
    "prefecture": "京都府",
    "prefecture_kana": "キョウトフ",
    "prefecture_code": 26,
    "city": "京都市伏見区",
    "city_kana": "キョウトシフシミク",
    "town": "深草大亀谷五郎太町",
    "town_kana": "フカクサオオカメダニゴロウタチョウ",
    "street": null,
    "office_name": null,
    "office_name_kana": null
  },
  "0853": {
    "zip_code": "6120853",
    "prefecture": "京都府",
    "prefecture_kana": "キョウトフ",
    "prefecture_code": 26,
    "city": "京都市伏見区",
    "city_kana": "キョウトシフシミク",
    "town": "桃山町大蔵",
    "town_kana": "モモヤマチョウオオクラ",
    "street": null,
    "office_name": null,
    "office_name_kana": null
  },
  "0854": {
    "zip_code": "6120854",
    "prefecture": "京都府",
    "prefecture_kana": "キョウトフ",
    "prefecture_code": 26,
    "city": "京都市伏見区",
    "city_kana": "キョウトシフシミク",
    "town": "桃山町島津",
    "town_kana": "モモヤマチョウシマヅ",
    "street": null,
    "office_name": null,
    "office_name_kana": null
  },
  "0855": {
    "zip_code": "6120855",
    "prefecture": "京都府",
    "prefecture_kana": "キョウトフ",
    "prefecture_code": 26,
    "city": "京都市伏見区",
    "city_kana": "キョウトシフシミク",
    "town": "桃山町永井久太郎",
    "town_kana": "モモヤマチョウナガイキュウタロウ",
    "street": null,
    "office_name": null,
    "office_name_kana": null
  },
  "0856": {
    "zip_code": "6120856",
    "prefecture": "京都府",
    "prefecture_kana": "キョウトフ",
    "prefecture_code": 26,
    "city": "京都市伏見区",
    "city_kana": "キョウトシフシミク",
    "town": "桃山町正宗",
    "town_kana": "モモヤマチョウマサムネ",
    "street": null,
    "office_name": null,
    "office_name_kana": null
  },
  "0861": {
    "zip_code": "6120861",
    "prefecture": "京都府",
    "prefecture_kana": "キョウトフ",
    "prefecture_code": 26,
    "city": "京都市伏見区",
    "city_kana": "キョウトシフシミク",
    "town": "深草向畑町",
    "town_kana": "フカクサムカイハタチョウ",
    "street": null,
    "office_name": null,
    "office_name_kana": null
  },
  "0862": {
    "zip_code": "6120862",
    "prefecture": "京都府",
    "prefecture_kana": "キョウトフ",
    "prefecture_code": 26,
    "city": "京都市伏見区",
    "city_kana": "キョウトシフシミク",
    "town": "深草大亀谷西久宝寺町",
    "town_kana": "フカクサオオカメダニニシキュウホウジチョウ",
    "street": null,
    "office_name": null,
    "office_name_kana": null
  },
  "0863": {
    "zip_code": "6120863",
    "prefecture": "京都府",
    "prefecture_kana": "キョウトフ",
    "prefecture_code": 26,
    "city": "京都市伏見区",
    "city_kana": "キョウトシフシミク",
    "town": "深草藤森町",
    "town_kana": "フカクサフジノモリチョウ",
    "street": null,
    "office_name": null,
    "office_name_kana": null
  },
  "0864": {
    "zip_code": "6120864",
    "prefecture": "京都府",
    "prefecture_kana": "キョウトフ",
    "prefecture_code": 26,
    "city": "京都市伏見区",
    "city_kana": "キョウトシフシミク",
    "town": "深草鳥居崎町",
    "town_kana": "フカクサトリイザキチョウ",
    "street": null,
    "office_name": null,
    "office_name_kana": null
  },
  "0865": {
    "zip_code": "6120865",
    "prefecture": "京都府",
    "prefecture_kana": "キョウトフ",
    "prefecture_code": 26,
    "city": "京都市伏見区",
    "city_kana": "キョウトシフシミク",
    "town": "深草藤森玄蕃町",
    "town_kana": "フカクサフジノモリゲンバチョウ",
    "street": null,
    "office_name": null,
    "office_name_kana": null
  },
  "0866": {
    "zip_code": "6120866",
    "prefecture": "京都府",
    "prefecture_kana": "キョウトフ",
    "prefecture_code": 26,
    "city": "京都市伏見区",
    "city_kana": "キョウトシフシミク",
    "town": "深草十九軒町",
    "town_kana": "フカクサジュウキュウケンチョウ",
    "street": null,
    "office_name": null,
    "office_name_kana": null
  },
  "0867": {
    "zip_code": "6120867",
    "prefecture": "京都府",
    "prefecture_kana": "キョウトフ",
    "prefecture_code": 26,
    "city": "京都市伏見区",
    "city_kana": "キョウトシフシミク",
    "town": "深草直違橋片町",
    "town_kana": "フカクサスジカイバシカタマチ",
    "street": null,
    "office_name": null,
    "office_name_kana": null
  },
  "0868": {
    "zip_code": "6120868",
    "prefecture": "京都府",
    "prefecture_kana": "キョウトフ",
    "prefecture_code": 26,
    "city": "京都市伏見区",
    "city_kana": "キョウトシフシミク",
    "town": "深草直違橋南",
    "town_kana": "フカクサスジカイバシミナミ",
    "street": null,
    "office_name": null,
    "office_name_kana": null
  },
  "0869": {
    "zip_code": "6120869",
    "prefecture": "京都府",
    "prefecture_kana": "キョウトフ",
    "prefecture_code": 26,
    "city": "京都市伏見区",
    "city_kana": "キョウトシフシミク",
    "town": "深草直違橋北",
    "town_kana": "フカクサスジカイバシキタ",
    "street": null,
    "office_name": null,
    "office_name_kana": null
  },
  "0871": {
    "zip_code": "6120871",
    "prefecture": "京都府",
    "prefecture_kana": "キョウトフ",
    "prefecture_code": 26,
    "city": "京都市伏見区",
    "city_kana": "キョウトシフシミク",
    "town": "深草坊町",
    "town_kana": "フカクサボウチョウ",
    "street": null,
    "office_name": null,
    "office_name_kana": null
  },
  "0872": {
    "zip_code": "6120872",
    "prefecture": "京都府",
    "prefecture_kana": "キョウトフ",
    "prefecture_code": 26,
    "city": "京都市伏見区",
    "city_kana": "キョウトシフシミク",
    "town": "深草真宗院山町",
    "town_kana": "フカクサシンジュウインヤマチョウ",
    "street": null,
    "office_name": null,
    "office_name_kana": null
  },
  "0873": {
    "zip_code": "6120873",
    "prefecture": "京都府",
    "prefecture_kana": "キョウトフ",
    "prefecture_code": 26,
    "city": "京都市伏見区",
    "city_kana": "キョウトシフシミク",
    "town": "深草瓦町",
    "town_kana": "フカクサカワラマチ",
    "street": null,
    "office_name": null,
    "office_name_kana": null
  },
  "0874": {
    "zip_code": "6120874",
    "prefecture": "京都府",
    "prefecture_kana": "キョウトフ",
    "prefecture_code": 26,
    "city": "京都市伏見区",
    "city_kana": "キョウトシフシミク",
    "town": "深草東伊達町",
    "town_kana": "フカクサヒガシダテチョウ",
    "street": null,
    "office_name": null,
    "office_name_kana": null
  },
  "0875": {
    "zip_code": "6120875",
    "prefecture": "京都府",
    "prefecture_kana": "キョウトフ",
    "prefecture_code": 26,
    "city": "京都市伏見区",
    "city_kana": "キョウトシフシミク",
    "town": "深草枯木町",
    "town_kana": "フカクサカレキチョウ",
    "street": null,
    "office_name": null,
    "office_name_kana": null
  },
  "0876": {
    "zip_code": "6120876",
    "prefecture": "京都府",
    "prefecture_kana": "キョウトフ",
    "prefecture_code": 26,
    "city": "京都市伏見区",
    "city_kana": "キョウトシフシミク",
    "town": "深草西伊達町",
    "town_kana": "フカクサニシダテチョウ",
    "street": null,
    "office_name": null,
    "office_name_kana": null
  },
  "0877": {
    "zip_code": "6120877",
    "prefecture": "京都府",
    "prefecture_kana": "キョウトフ",
    "prefecture_code": 26,
    "city": "京都市伏見区",
    "city_kana": "キョウトシフシミク",
    "town": "深草僧坊町",
    "town_kana": "フカクサソウボウチョウ",
    "street": null,
    "office_name": null,
    "office_name_kana": null
  },
  "0878": {
    "zip_code": "6120878",
    "prefecture": "京都府",
    "prefecture_kana": "キョウトフ",
    "prefecture_code": 26,
    "city": "京都市伏見区",
    "city_kana": "キョウトシフシミク",
    "town": "深草田谷町",
    "town_kana": "フカクサタヤチョウ",
    "street": null,
    "office_name": null,
    "office_name_kana": null
  },
  "0879": {
    "zip_code": "6120879",
    "prefecture": "京都府",
    "prefecture_kana": "キョウトフ",
    "prefecture_code": 26,
    "city": "京都市伏見区",
    "city_kana": "キョウトシフシミク",
    "town": "深草西出町",
    "town_kana": "フカクサニシデチョウ",
    "street": null,
    "office_name": null,
    "office_name_kana": null
  },
  "0881": {
    "zip_code": "6120881",
    "prefecture": "京都府",
    "prefecture_kana": "キョウトフ",
    "prefecture_code": 26,
    "city": "京都市伏見区",
    "city_kana": "キョウトシフシミク",
    "town": "深草稲荷御前町",
    "town_kana": "フカクサイナリオンマエチョウ",
    "street": null,
    "office_name": null,
    "office_name_kana": null
  },
  "0882": {
    "zip_code": "6120882",
    "prefecture": "京都府",
    "prefecture_kana": "キョウトフ",
    "prefecture_code": 26,
    "city": "京都市伏見区",
    "city_kana": "キョウトシフシミク",
    "town": "深草薮之内町",
    "town_kana": "フカクサヤブノウチチョウ",
    "street": null,
    "office_name": null,
    "office_name_kana": null
  },
  "0883": {
    "zip_code": "6120883",
    "prefecture": "京都府",
    "prefecture_kana": "キョウトフ",
    "prefecture_code": 26,
    "city": "京都市伏見区",
    "city_kana": "キョウトシフシミク",
    "town": "深草石峰寺山町",
    "town_kana": "フカクサセキホウジヤマチョウ",
    "street": null,
    "office_name": null,
    "office_name_kana": null
  },
  "0884": {
    "zip_code": "6120884",
    "prefecture": "京都府",
    "prefecture_kana": "キョウトフ",
    "prefecture_code": 26,
    "city": "京都市伏見区",
    "city_kana": "キョウトシフシミク",
    "town": "深草西出山町",
    "town_kana": "フカクサニシデヤマチョウ",
    "street": null,
    "office_name": null,
    "office_name_kana": null
  },
  "0885": {
    "zip_code": "6120885",
    "prefecture": "京都府",
    "prefecture_kana": "キョウトフ",
    "prefecture_code": 26,
    "city": "京都市伏見区",
    "city_kana": "キョウトシフシミク",
    "town": "深草宝塔寺山町",
    "town_kana": "フカクサホウトウジヤマチョウ",
    "street": null,
    "office_name": null,
    "office_name_kana": null
  },
  "0886": {
    "zip_code": "6120886",
    "prefecture": "京都府",
    "prefecture_kana": "キョウトフ",
    "prefecture_code": 26,
    "city": "京都市伏見区",
    "city_kana": "キョウトシフシミク",
    "town": "深草極楽寺町",
    "town_kana": "フカクサゴクラクジチョウ",
    "street": null,
    "office_name": null,
    "office_name_kana": null
  },
  "0887": {
    "zip_code": "6120887",
    "prefecture": "京都府",
    "prefecture_kana": "キョウトフ",
    "prefecture_code": 26,
    "city": "京都市伏見区",
    "city_kana": "キョウトシフシミク",
    "town": "深草野手町",
    "town_kana": "フカクサノデチョウ",
    "street": null,
    "office_name": null,
    "office_name_kana": null
  },
  "0888": {
    "zip_code": "6120888",
    "prefecture": "京都府",
    "prefecture_kana": "キョウトフ",
    "prefecture_code": 26,
    "city": "京都市伏見区",
    "city_kana": "キョウトシフシミク",
    "town": "深草大門町",
    "town_kana": "フカクサダイモンチョウ",
    "street": null,
    "office_name": null,
    "office_name_kana": null
  },
  "0889": {
    "zip_code": "6120889",
    "prefecture": "京都府",
    "prefecture_kana": "キョウトフ",
    "prefecture_code": 26,
    "city": "京都市伏見区",
    "city_kana": "キョウトシフシミク",
    "town": "深草直違橋",
    "town_kana": "フカクサスジカイバシ",
    "street": null,
    "office_name": null,
    "office_name_kana": null
  },
  "8001": {
    "zip_code": "6128001",
    "prefecture": "京都府",
    "prefecture_kana": "キョウトフ",
    "prefecture_code": 26,
    "city": "京都市伏見区",
    "city_kana": "キョウトシフシミク",
    "town": "桃山町日向",
    "town_kana": "モモヤマチョウヒュウガ",
    "street": null,
    "office_name": null,
    "office_name_kana": null
  },
  "8002": {
    "zip_code": "6128002",
    "prefecture": "京都府",
    "prefecture_kana": "キョウトフ",
    "prefecture_code": 26,
    "city": "京都市伏見区",
    "city_kana": "キョウトシフシミク",
    "town": "桃山町山ノ下",
    "town_kana": "モモヤマチョウヤマノシタ",
    "street": null,
    "office_name": null,
    "office_name_kana": null
  },
  "8003": {
    "zip_code": "6128003",
    "prefecture": "京都府",
    "prefecture_kana": "キョウトフ",
    "prefecture_code": 26,
    "city": "京都市伏見区",
    "city_kana": "キョウトシフシミク",
    "town": "桃山町西尾",
    "town_kana": "モモヤマチョウニシオ",
    "street": null,
    "office_name": null,
    "office_name_kana": null
  },
  "8004": {
    "zip_code": "6128004",
    "prefecture": "京都府",
    "prefecture_kana": "キョウトフ",
    "prefecture_code": 26,
    "city": "京都市伏見区",
    "city_kana": "キョウトシフシミク",
    "town": "桃山町町並",
    "town_kana": "モモヤマチョウマチナミ",
    "street": null,
    "office_name": null,
    "office_name_kana": null
  },
  "8005": {
    "zip_code": "6128005",
    "prefecture": "京都府",
    "prefecture_kana": "キョウトフ",
    "prefecture_code": 26,
    "city": "京都市伏見区",
    "city_kana": "キョウトシフシミク",
    "town": "桃山町中島町",
    "town_kana": "モモヤマチョウナカジマチョウ",
    "street": null,
    "office_name": null,
    "office_name_kana": null
  },
  "8006": {
    "zip_code": "6128006",
    "prefecture": "京都府",
    "prefecture_kana": "キョウトフ",
    "prefecture_code": 26,
    "city": "京都市伏見区",
    "city_kana": "キョウトシフシミク",
    "town": "桃山町大島",
    "town_kana": "モモヤマチョウオオシマ",
    "street": null,
    "office_name": null,
    "office_name_kana": null
  },
  "8007": {
    "zip_code": "6128007",
    "prefecture": "京都府",
    "prefecture_kana": "キョウトフ",
    "prefecture_code": 26,
    "city": "京都市伏見区",
    "city_kana": "キョウトシフシミク",
    "town": "桃山町因幡",
    "town_kana": "モモヤマチョウイナバ",
    "street": null,
    "office_name": null,
    "office_name_kana": null
  },
  "8008": {
    "zip_code": "6128008",
    "prefecture": "京都府",
    "prefecture_kana": "キョウトフ",
    "prefecture_code": 26,
    "city": "京都市伏見区",
    "city_kana": "キョウトシフシミク",
    "town": "桃山町東町",
    "town_kana": "モモヤマチョウヒガシマチ",
    "street": null,
    "office_name": null,
    "office_name_kana": null
  },
  "8009": {
    "zip_code": "6128009",
    "prefecture": "京都府",
    "prefecture_kana": "キョウトフ",
    "prefecture_code": 26,
    "city": "京都市伏見区",
    "city_kana": "キョウトシフシミク",
    "town": "桃山町見附町",
    "town_kana": "モモヤマチョウミツケチョウ",
    "street": null,
    "office_name": null,
    "office_name_kana": null
  },
  "8011": {
    "zip_code": "6128011",
    "prefecture": "京都府",
    "prefecture_kana": "キョウトフ",
    "prefecture_code": 26,
    "city": "京都市伏見区",
    "city_kana": "キョウトシフシミク",
    "town": "桃山町伊庭",
    "town_kana": "モモヤマチョウイバ",
    "street": null,
    "office_name": null,
    "office_name_kana": null
  },
  "8012": {
    "zip_code": "6128012",
    "prefecture": "京都府",
    "prefecture_kana": "キョウトフ",
    "prefecture_code": 26,
    "city": "京都市伏見区",
    "city_kana": "キョウトシフシミク",
    "town": "桃山町遠山",
    "town_kana": "モモヤマチョウトオヤマ",
    "street": null,
    "office_name": null,
    "office_name_kana": null
  },
  "8013": {
    "zip_code": "6128013",
    "prefecture": "京都府",
    "prefecture_kana": "キョウトフ",
    "prefecture_code": 26,
    "city": "京都市伏見区",
    "city_kana": "キョウトシフシミク",
    "town": "桃山町西町",
    "town_kana": "モモヤマチョウニシマチ",
    "street": null,
    "office_name": null,
    "office_name_kana": null
  },
  "8014": {
    "zip_code": "6128014",
    "prefecture": "京都府",
    "prefecture_kana": "キョウトフ",
    "prefecture_code": 26,
    "city": "京都市伏見区",
    "city_kana": "キョウトシフシミク",
    "town": "桃山町大津町",
    "town_kana": "モモヤマチョウオオツマチ",
    "street": null,
    "office_name": null,
    "office_name_kana": null
  },
  "8015": {
    "zip_code": "6128015",
    "prefecture": "京都府",
    "prefecture_kana": "キョウトフ",
    "prefecture_code": 26,
    "city": "京都市伏見区",
    "city_kana": "キョウトシフシミク",
    "town": "桃山町和泉",
    "town_kana": "モモヤマチョウイズミ",
    "street": null,
    "office_name": null,
    "office_name_kana": null
  },
  "8016": {
    "zip_code": "6128016",
    "prefecture": "京都府",
    "prefecture_kana": "キョウトフ",
    "prefecture_code": 26,
    "city": "京都市伏見区",
    "city_kana": "キョウトシフシミク",
    "town": "桃山町養斉",
    "town_kana": "モモヤマチョウヨウサイ",
    "street": null,
    "office_name": null,
    "office_name_kana": null
  },
  "8017": {
    "zip_code": "6128017",
    "prefecture": "京都府",
    "prefecture_kana": "キョウトフ",
    "prefecture_code": 26,
    "city": "京都市伏見区",
    "city_kana": "キョウトシフシミク",
    "town": "桃山南大島町",
    "town_kana": "モモヤマミナミオオシマチョウ",
    "street": null,
    "office_name": null,
    "office_name_kana": null
  },
  "8018": {
    "zip_code": "6128018",
    "prefecture": "京都府",
    "prefecture_kana": "キョウトフ",
    "prefecture_code": 26,
    "city": "京都市伏見区",
    "city_kana": "キョウトシフシミク",
    "town": "桃山町丹後",
    "town_kana": "モモヤマチョウタンゴ",
    "street": null,
    "office_name": null,
    "office_name_kana": null
  },
  "8019": {
    "zip_code": "6128019",
    "prefecture": "京都府",
    "prefecture_kana": "キョウトフ",
    "prefecture_code": 26,
    "city": "京都市伏見区",
    "city_kana": "キョウトシフシミク",
    "town": "桃山町新町",
    "town_kana": "モモヤマチョウシンマチ",
    "street": null,
    "office_name": null,
    "office_name_kana": null
  },
  "8021": {
    "zip_code": "6128021",
    "prefecture": "京都府",
    "prefecture_kana": "キョウトフ",
    "prefecture_code": 26,
    "city": "京都市伏見区",
    "city_kana": "キョウトシフシミク",
    "town": "桃山町下野",
    "town_kana": "モモヤマチョウシモズケ",
    "street": null,
    "office_name": null,
    "office_name_kana": null
  },
  "8022": {
    "zip_code": "6128022",
    "prefecture": "京都府",
    "prefecture_kana": "キョウトフ",
    "prefecture_code": 26,
    "city": "京都市伏見区",
    "city_kana": "キョウトシフシミク",
    "town": "桃山町駿河",
    "town_kana": "モモヤマチョウスルガ",
    "street": null,
    "office_name": null,
    "office_name_kana": null
  },
  "8023": {
    "zip_code": "6128023",
    "prefecture": "京都府",
    "prefecture_kana": "キョウトフ",
    "prefecture_code": 26,
    "city": "京都市伏見区",
    "city_kana": "キョウトシフシミク",
    "town": "桃山町美濃",
    "town_kana": "モモヤマチョウミノ",
    "street": null,
    "office_name": null,
    "office_name_kana": null
  },
  "8024": {
    "zip_code": "6128024",
    "prefecture": "京都府",
    "prefecture_kana": "キョウトフ",
    "prefecture_code": 26,
    "city": "京都市伏見区",
    "city_kana": "キョウトシフシミク",
    "town": "桃山町根来",
    "town_kana": "モモヤマチョウネゴロ",
    "street": null,
    "office_name": null,
    "office_name_kana": null
  },
  "8025": {
    "zip_code": "6128025",
    "prefecture": "京都府",
    "prefecture_kana": "キョウトフ",
    "prefecture_code": 26,
    "city": "京都市伏見区",
    "city_kana": "キョウトシフシミク",
    "town": "桃山与五郎町",
    "town_kana": "モモヤマヨゴロウチョウ",
    "street": null,
    "office_name": null,
    "office_name_kana": null
  },
  "8026": {
    "zip_code": "6128026",
    "prefecture": "京都府",
    "prefecture_kana": "キョウトフ",
    "prefecture_code": 26,
    "city": "京都市伏見区",
    "city_kana": "キョウトシフシミク",
    "town": "桃山町伊賀",
    "town_kana": "モモヤマチョウイガ",
    "street": null,
    "office_name": null,
    "office_name_kana": null
  },
  "8027": {
    "zip_code": "6128027",
    "prefecture": "京都府",
    "prefecture_kana": "キョウトフ",
    "prefecture_code": 26,
    "city": "京都市伏見区",
    "city_kana": "キョウトシフシミク",
    "town": "桃山町本多上野",
    "town_kana": "モモヤマチョウホンダコウズケ",
    "street": null,
    "office_name": null,
    "office_name_kana": null
  },
  "8028": {
    "zip_code": "6128028",
    "prefecture": "京都府",
    "prefecture_kana": "キョウトフ",
    "prefecture_code": 26,
    "city": "京都市伏見区",
    "city_kana": "キョウトシフシミク",
    "town": "桃山町板倉周防",
    "town_kana": "モモヤマチョウイタクラスオウ",
    "street": null,
    "office_name": null,
    "office_name_kana": null
  },
  "8029": {
    "zip_code": "6128029",
    "prefecture": "京都府",
    "prefecture_kana": "キョウトフ",
    "prefecture_code": 26,
    "city": "京都市伏見区",
    "city_kana": "キョウトシフシミク",
    "town": "桃山町三河",
    "town_kana": "モモヤマチョウミカワ",
    "street": null,
    "office_name": null,
    "office_name_kana": null
  },
  "8031": {
    "zip_code": "6128031",
    "prefecture": "京都府",
    "prefecture_kana": "キョウトフ",
    "prefecture_code": 26,
    "city": "京都市伏見区",
    "city_kana": "キョウトシフシミク",
    "town": "桃山町松平筑前",
    "town_kana": "モモヤマチョウマツダイラチクゼン",
    "street": null,
    "office_name": null,
    "office_name_kana": null
  },
  "8032": {
    "zip_code": "6128032",
    "prefecture": "京都府",
    "prefecture_kana": "キョウトフ",
    "prefecture_code": 26,
    "city": "京都市伏見区",
    "city_kana": "キョウトシフシミク",
    "town": "桃山筑前台町",
    "town_kana": "モモヤマチクゼンダイマチ",
    "street": null,
    "office_name": null,
    "office_name_kana": null
  },
  "8033": {
    "zip_code": "6128033",
    "prefecture": "京都府",
    "prefecture_kana": "キョウトフ",
    "prefecture_code": 26,
    "city": "京都市伏見区",
    "city_kana": "キョウトシフシミク",
    "town": "桃山町松平武蔵",
    "town_kana": "モモヤマチョウマツダイラムサシ",
    "street": null,
    "office_name": null,
    "office_name_kana": null
  },
  "8034": {
    "zip_code": "6128034",
    "prefecture": "京都府",
    "prefecture_kana": "キョウトフ",
    "prefecture_code": 26,
    "city": "京都市伏見区",
    "city_kana": "キョウトシフシミク",
    "town": "桃山町泰長老",
    "town_kana": "モモヤマチョウタイチョウロウ",
    "street": null,
    "office_name": null,
    "office_name_kana": null
  },
  "8036": {
    "zip_code": "6128036",
    "prefecture": "京都府",
    "prefecture_kana": "キョウトフ",
    "prefecture_code": 26,
    "city": "京都市伏見区",
    "city_kana": "キョウトシフシミク",
    "town": "桃山町立売",
    "town_kana": "モモヤマチョウタチウリ",
    "street": null,
    "office_name": null,
    "office_name_kana": null
  },
  "8037": {
    "zip_code": "6128037",
    "prefecture": "京都府",
    "prefecture_kana": "キョウトフ",
    "prefecture_code": 26,
    "city": "京都市伏見区",
    "city_kana": "キョウトシフシミク",
    "town": "桃山町鍋島",
    "town_kana": "モモヤマチョウナベシマ",
    "street": null,
    "office_name": null,
    "office_name_kana": null
  },
  "8038": {
    "zip_code": "6128038",
    "prefecture": "京都府",
    "prefecture_kana": "キョウトフ",
    "prefecture_code": 26,
    "city": "京都市伏見区",
    "city_kana": "キョウトシフシミク",
    "town": "鍋島町",
    "town_kana": "ナベシマチョウ",
    "street": null,
    "office_name": null,
    "office_name_kana": null
  },
  "8039": {
    "zip_code": "6128039",
    "prefecture": "京都府",
    "prefecture_kana": "キョウトフ",
    "prefecture_code": 26,
    "city": "京都市伏見区",
    "city_kana": "キョウトシフシミク",
    "town": "御香宮門前町",
    "town_kana": "ゴコウグウモンゼンチョウ",
    "street": null,
    "office_name": null,
    "office_name_kana": null
  },
  "8041": {
    "zip_code": "6128041",
    "prefecture": "京都府",
    "prefecture_kana": "キョウトフ",
    "prefecture_code": 26,
    "city": "京都市伏見区",
    "city_kana": "キョウトシフシミク",
    "town": "魚屋町",
    "town_kana": "ウオヤチョウ",
    "street": null,
    "office_name": null,
    "office_name_kana": null
  },
  "8042": {
    "zip_code": "6128042",
    "prefecture": "京都府",
    "prefecture_kana": "キョウトフ",
    "prefecture_code": 26,
    "city": "京都市伏見区",
    "city_kana": "キョウトシフシミク",
    "town": "柿木浜町",
    "town_kana": "カキノキハマチョウ",
    "street": null,
    "office_name": null,
    "office_name_kana": null
  },
  "8043": {
    "zip_code": "6128043",
    "prefecture": "京都府",
    "prefecture_kana": "キョウトフ",
    "prefecture_code": 26,
    "city": "京都市伏見区",
    "city_kana": "キョウトシフシミク",
    "town": "本材木町",
    "town_kana": "モトザイモクチョウ",
    "street": null,
    "office_name": null,
    "office_name_kana": null
  },
  "8044": {
    "zip_code": "6128044",
    "prefecture": "京都府",
    "prefecture_kana": "キョウトフ",
    "prefecture_code": 26,
    "city": "京都市伏見区",
    "city_kana": "キョウトシフシミク",
    "town": "丹後町",
    "town_kana": "タンゴチョウ",
    "street": null,
    "office_name": null,
    "office_name_kana": null
  },
  "8045": {
    "zip_code": "6128045",
    "prefecture": "京都府",
    "prefecture_kana": "キョウトフ",
    "prefecture_code": 26,
    "city": "京都市伏見区",
    "city_kana": "キョウトシフシミク",
    "town": "南浜町",
    "town_kana": "ミナミハマチョウ",
    "street": null,
    "office_name": null,
    "office_name_kana": null
  },
  "8046": {
    "zip_code": "6128046",
    "prefecture": "京都府",
    "prefecture_kana": "キョウトフ",
    "prefecture_code": 26,
    "city": "京都市伏見区",
    "city_kana": "キョウトシフシミク",
    "town": "塩屋町",
    "town_kana": "シオヤマチ",
    "street": null,
    "office_name": null,
    "office_name_kana": null
  },
  "8047": {
    "zip_code": "6128047",
    "prefecture": "京都府",
    "prefecture_kana": "キョウトフ",
    "prefecture_code": 26,
    "city": "京都市伏見区",
    "city_kana": "キョウトシフシミク",
    "town": "上油掛町",
    "town_kana": "カミアブラカケチョウ",
    "street": null,
    "office_name": null,
    "office_name_kana": null
  },
  "8048": {
    "zip_code": "6128048",
    "prefecture": "京都府",
    "prefecture_kana": "キョウトフ",
    "prefecture_code": 26,
    "city": "京都市伏見区",
    "city_kana": "キョウトシフシミク",
    "town": "大阪町",
    "town_kana": "オオサカマチ",
    "street": null,
    "office_name": null,
    "office_name_kana": null
  },
  "8051": {
    "zip_code": "6128051",
    "prefecture": "京都府",
    "prefecture_kana": "キョウトフ",
    "prefecture_code": 26,
    "city": "京都市伏見区",
    "city_kana": "キョウトシフシミク",
    "town": "今町",
    "town_kana": "イママチ",
    "street": null,
    "office_name": null,
    "office_name_kana": null
  },
  "8052": {
    "zip_code": "6128052",
    "prefecture": "京都府",
    "prefecture_kana": "キョウトフ",
    "prefecture_code": 26,
    "city": "京都市伏見区",
    "city_kana": "キョウトシフシミク",
    "town": "瀬戸物町",
    "town_kana": "セトモノチョウ",
    "street": null,
    "office_name": null,
    "office_name_kana": null
  },
  "8053": {
    "zip_code": "6128053",
    "prefecture": "京都府",
    "prefecture_kana": "キョウトフ",
    "prefecture_code": 26,
    "city": "京都市伏見区",
    "city_kana": "キョウトシフシミク",
    "town": "東大手町",
    "town_kana": "ヒガシオオテチョウ",
    "street": null,
    "office_name": null,
    "office_name_kana": null
  },
  "8054": {
    "zip_code": "6128054",
    "prefecture": "京都府",
    "prefecture_kana": "キョウトフ",
    "prefecture_code": 26,
    "city": "京都市伏見区",
    "city_kana": "キョウトシフシミク",
    "town": "御堂前町",
    "town_kana": "ミドウマエチョウ",
    "street": null,
    "office_name": null,
    "office_name_kana": null
  },
  "8055": {
    "zip_code": "6128055",
    "prefecture": "京都府",
    "prefecture_kana": "キョウトフ",
    "prefecture_code": 26,
    "city": "京都市伏見区",
    "city_kana": "キョウトシフシミク",
    "town": "伯耆町",
    "town_kana": "ホウキチョウ",
    "street": null,
    "office_name": null,
    "office_name_kana": null
  },
  "8056": {
    "zip_code": "6128056",
    "prefecture": "京都府",
    "prefecture_kana": "キョウトフ",
    "prefecture_code": 26,
    "city": "京都市伏見区",
    "city_kana": "キョウトシフシミク",
    "town": "中油掛町",
    "town_kana": "ナカアブラカケチョウ",
    "street": null,
    "office_name": null,
    "office_name_kana": null
  },
  "8057": {
    "zip_code": "6128057",
    "prefecture": "京都府",
    "prefecture_kana": "キョウトフ",
    "prefecture_code": 26,
    "city": "京都市伏見区",
    "city_kana": "キョウトシフシミク",
    "town": "平野町",
    "town_kana": "ヒラノチョウ",
    "street": null,
    "office_name": null,
    "office_name_kana": null
  },
  "8058": {
    "zip_code": "6128058",
    "prefecture": "京都府",
    "prefecture_kana": "キョウトフ",
    "prefecture_code": 26,
    "city": "京都市伏見区",
    "city_kana": "キョウトシフシミク",
    "town": "風呂屋町",
    "town_kana": "フロヤマチ",
    "street": null,
    "office_name": null,
    "office_name_kana": null
  },
  "8059": {
    "zip_code": "6128059",
    "prefecture": "京都府",
    "prefecture_kana": "キョウトフ",
    "prefecture_code": 26,
    "city": "京都市伏見区",
    "city_kana": "キョウトシフシミク",
    "town": "南部町",
    "town_kana": "ナンブマチ",
    "street": null,
    "office_name": null,
    "office_name_kana": null
  },
  "8061": {
    "zip_code": "6128061",
    "prefecture": "京都府",
    "prefecture_kana": "キョウトフ",
    "prefecture_code": 26,
    "city": "京都市伏見区",
    "city_kana": "キョウトシフシミク",
    "town": "竹中町",
    "town_kana": "タケナカチョウ",
    "street": null,
    "office_name": null,
    "office_name_kana": null
  },
  "8062": {
    "zip_code": "6128062",
    "prefecture": "京都府",
    "prefecture_kana": "キョウトフ",
    "prefecture_code": 26,
    "city": "京都市伏見区",
    "city_kana": "キョウトシフシミク",
    "town": "鷹匠町",
    "town_kana": "タカジョウチョウ",
    "street": null,
    "office_name": null,
    "office_name_kana": null
  },
  "8063": {
    "zip_code": "6128063",
    "prefecture": "京都府",
    "prefecture_kana": "キョウトフ",
    "prefecture_code": 26,
    "city": "京都市伏見区",
    "city_kana": "キョウトシフシミク",
    "town": "東組町",
    "town_kana": "ヒガシクミチョウ",
    "street": null,
    "office_name": null,
    "office_name_kana": null
  },
  "8064": {
    "zip_code": "6128064",
    "prefecture": "京都府",
    "prefecture_kana": "キョウトフ",
    "prefecture_code": 26,
    "city": "京都市伏見区",
    "city_kana": "キョウトシフシミク",
    "town": "紺屋町",
    "town_kana": "コンヤマチ",
    "street": null,
    "office_name": null,
    "office_name_kana": null
  },
  "8065": {
    "zip_code": "6128065",
    "prefecture": "京都府",
    "prefecture_kana": "キョウトフ",
    "prefecture_code": 26,
    "city": "京都市伏見区",
    "city_kana": "キョウトシフシミク",
    "town": "御駕篭町",
    "town_kana": "オカゴチョウ",
    "street": null,
    "office_name": null,
    "office_name_kana": null
  },
  "8066": {
    "zip_code": "6128066",
    "prefecture": "京都府",
    "prefecture_kana": "キョウトフ",
    "prefecture_code": 26,
    "city": "京都市伏見区",
    "city_kana": "キョウトシフシミク",
    "town": "東堺町",
    "town_kana": "ヒガシサカイマチ",
    "street": null,
    "office_name": null,
    "office_name_kana": null
  },
  "8067": {
    "zip_code": "6128067",
    "prefecture": "京都府",
    "prefecture_kana": "キョウトフ",
    "prefecture_code": 26,
    "city": "京都市伏見区",
    "city_kana": "キョウトシフシミク",
    "town": "城通町",
    "town_kana": "ジョウドオリチョウ",
    "street": null,
    "office_name": null,
    "office_name_kana": null
  },
  "8071": {
    "zip_code": "6128071",
    "prefecture": "京都府",
    "prefecture_kana": "キョウトフ",
    "prefecture_code": 26,
    "city": "京都市伏見区",
    "city_kana": "キョウトシフシミク",
    "town": "鍛冶屋町",
    "town_kana": "カジヤマチ",
    "street": null,
    "office_name": null,
    "office_name_kana": null
  },
  "8072": {
    "zip_code": "6128072",
    "prefecture": "京都府",
    "prefecture_kana": "キョウトフ",
    "prefecture_code": 26,
    "city": "京都市伏見区",
    "city_kana": "キョウトシフシミク",
    "town": "丹波橋町",
    "town_kana": "タンババシチョウ",
    "street": null,
    "office_name": null,
    "office_name_kana": null
  },
  "8073": {
    "zip_code": "6128073",
    "prefecture": "京都府",
    "prefecture_kana": "キョウトフ",
    "prefecture_code": 26,
    "city": "京都市伏見区",
    "city_kana": "キョウトシフシミク",
    "town": "下板橋町",
    "town_kana": "シモイタバシチョウ",
    "street": null,
    "office_name": null,
    "office_name_kana": null
  },
  "8074": {
    "zip_code": "6128074",
    "prefecture": "京都府",
    "prefecture_kana": "キョウトフ",
    "prefecture_code": 26,
    "city": "京都市伏見区",
    "city_kana": "キョウトシフシミク",
    "town": "指物町",
    "town_kana": "サシモノチョウ",
    "street": null,
    "office_name": null,
    "office_name_kana": null
  },
  "8075": {
    "zip_code": "6128075",
    "prefecture": "京都府",
    "prefecture_kana": "キョウトフ",
    "prefecture_code": 26,
    "city": "京都市伏見区",
    "city_kana": "キョウトシフシミク",
    "town": "桝形町",
    "town_kana": "マスガタチョウ",
    "street": null,
    "office_name": null,
    "office_name_kana": null
  },
  "8076": {
    "zip_code": "6128076",
    "prefecture": "京都府",
    "prefecture_kana": "キョウトフ",
    "prefecture_code": 26,
    "city": "京都市伏見区",
    "city_kana": "キョウトシフシミク",
    "town": "南尼崎町",
    "town_kana": "ミナミアマガサキチョウ",
    "street": null,
    "office_name": null,
    "office_name_kana": null
  },
  "8077": {
    "zip_code": "6128077",
    "prefecture": "京都府",
    "prefecture_kana": "キョウトフ",
    "prefecture_code": 26,
    "city": "京都市伏見区",
    "city_kana": "キョウトシフシミク",
    "town": "北尼崎町",
    "town_kana": "キタアマガサキチョウ",
    "street": null,
    "office_name": null,
    "office_name_kana": null
  },
  "8078": {
    "zip_code": "6128078",
    "prefecture": "京都府",
    "prefecture_kana": "キョウトフ",
    "prefecture_code": 26,
    "city": "京都市伏見区",
    "city_kana": "キョウトシフシミク",
    "town": "大宮町",
    "town_kana": "オオミヤチョウ",
    "street": null,
    "office_name": null,
    "office_name_kana": null
  },
  "8081": {
    "zip_code": "6128081",
    "prefecture": "京都府",
    "prefecture_kana": "キョウトフ",
    "prefecture_code": 26,
    "city": "京都市伏見区",
    "city_kana": "キョウトシフシミク",
    "town": "新町",
    "town_kana": "シンマチ",
    "street": null,
    "office_name": null,
    "office_name_kana": null
  },
  "8082": {
    "zip_code": "6128082",
    "prefecture": "京都府",
    "prefecture_kana": "キョウトフ",
    "prefecture_code": 26,
    "city": "京都市伏見区",
    "city_kana": "キョウトシフシミク",
    "town": "両替町",
    "town_kana": "リョウガエマチ",
    "street": null,
    "office_name": null,
    "office_name_kana": null
  },
  "8083": {
    "zip_code": "6128083",
    "prefecture": "京都府",
    "prefecture_kana": "キョウトフ",
    "prefecture_code": 26,
    "city": "京都市伏見区",
    "city_kana": "キョウトシフシミク",
    "town": "京町",
    "town_kana": "キョウマチ",
    "street": null,
    "office_name": null,
    "office_name_kana": null
  },
  "8084": {
    "zip_code": "6128084",
    "prefecture": "京都府",
    "prefecture_kana": "キョウトフ",
    "prefecture_code": 26,
    "city": "京都市伏見区",
    "city_kana": "キョウトシフシミク",
    "town": "京町８丁目横町",
    "town_kana": "キョウマチハッチョウメヨコマチ",
    "street": null,
    "office_name": null,
    "office_name_kana": null
  },
  "8085": {
    "zip_code": "6128085",
    "prefecture": "京都府",
    "prefecture_kana": "キョウトフ",
    "prefecture_code": 26,
    "city": "京都市伏見区",
    "city_kana": "キョウトシフシミク",
    "town": "京町南",
    "town_kana": "キョウマチミナミ",
    "street": null,
    "office_name": null,
    "office_name_kana": null
  },
  "8086": {
    "zip_code": "6128086",
    "prefecture": "京都府",
    "prefecture_kana": "キョウトフ",
    "prefecture_code": 26,
    "city": "京都市伏見区",
    "city_kana": "キョウトシフシミク",
    "town": "京町北",
    "town_kana": "キョウマチキタ",
    "street": null,
    "office_name": null,
    "office_name_kana": null
  },
  "8087": {
    "zip_code": "6128087",
    "prefecture": "京都府",
    "prefecture_kana": "キョウトフ",
    "prefecture_code": 26,
    "city": "京都市伏見区",
    "city_kana": "キョウトシフシミク",
    "town": "京町大黒町",
    "town_kana": "キョウマチダイコクチョウ",
    "street": null,
    "office_name": null,
    "office_name_kana": null
  },
  "8088": {
    "zip_code": "6128088",
    "prefecture": "京都府",
    "prefecture_kana": "キョウトフ",
    "prefecture_code": 26,
    "city": "京都市伏見区",
    "city_kana": "キョウトシフシミク",
    "town": "桃山町金森出雲",
    "town_kana": "モモヤマチョウカナモリイズモ",
    "street": null,
    "office_name": null,
    "office_name_kana": null
  },
  "8089": {
    "zip_code": "6128089",
    "prefecture": "京都府",
    "prefecture_kana": "キョウトフ",
    "prefecture_code": 26,
    "city": "京都市伏見区",
    "city_kana": "キョウトシフシミク",
    "town": "銀座町",
    "town_kana": "ギンザチョウ",
    "street": null,
    "office_name": null,
    "office_name_kana": null
  },
  "8101": {
    "zip_code": "6128101",
    "prefecture": "京都府",
    "prefecture_kana": "キョウトフ",
    "prefecture_code": 26,
    "city": "京都市伏見区",
    "city_kana": "キョウトシフシミク",
    "town": "観音寺町",
    "town_kana": "カンノンジチョウ",
    "street": null,
    "office_name": null,
    "office_name_kana": null
  },
  "8102": {
    "zip_code": "6128102",
    "prefecture": "京都府",
    "prefecture_kana": "キョウトフ",
    "prefecture_code": 26,
    "city": "京都市伏見区",
    "city_kana": "キョウトシフシミク",
    "town": "道阿弥町",
    "town_kana": "ドウアミチョウ",
    "street": null,
    "office_name": null,
    "office_name_kana": null
  },
  "8103": {
    "zip_code": "6128103",
    "prefecture": "京都府",
    "prefecture_kana": "キョウトフ",
    "prefecture_code": 26,
    "city": "京都市伏見区",
    "city_kana": "キョウトシフシミク",
    "town": "片桐町",
    "town_kana": "カタギリチョウ",
    "street": null,
    "office_name": null,
    "office_name_kana": null
  },
  "8104": {
    "zip_code": "6128104",
    "prefecture": "京都府",
    "prefecture_kana": "キョウトフ",
    "prefecture_code": 26,
    "city": "京都市伏見区",
    "city_kana": "キョウトシフシミク",
    "town": "西奉行町",
    "town_kana": "ニシブギョウチョウ",
    "street": null,
    "office_name": null,
    "office_name_kana": null
  },
  "8105": {
    "zip_code": "6128105",
    "prefecture": "京都府",
    "prefecture_kana": "キョウトフ",
    "prefecture_code": 26,
    "city": "京都市伏見区",
    "city_kana": "キョウトシフシミク",
    "town": "東奉行町",
    "town_kana": "ヒガシブギョウチョウ",
    "street": null,
    "office_name": null,
    "office_name_kana": null
  },
  "8106": {
    "zip_code": "6128106",
    "prefecture": "京都府",
    "prefecture_kana": "キョウトフ",
    "prefecture_code": 26,
    "city": "京都市伏見区",
    "city_kana": "キョウトシフシミク",
    "town": "豊後橋町",
    "town_kana": "ブンゴバシチョウ",
    "street": null,
    "office_name": null,
    "office_name_kana": null
  },
  "8107": {
    "zip_code": "6128107",
    "prefecture": "京都府",
    "prefecture_kana": "キョウトフ",
    "prefecture_code": 26,
    "city": "京都市伏見区",
    "city_kana": "キョウトシフシミク",
    "town": "桃陵町",
    "town_kana": "トウリョウチョウ",
    "street": null,
    "office_name": null,
    "office_name_kana": null
  },
  "8108": {
    "zip_code": "6128108",
    "prefecture": "京都府",
    "prefecture_kana": "キョウトフ",
    "prefecture_code": 26,
    "city": "京都市伏見区",
    "city_kana": "キョウトシフシミク",
    "town": "奉行前町",
    "town_kana": "ブギョウマエチョウ",
    "street": null,
    "office_name": null,
    "office_name_kana": null
  },
  "8109": {
    "zip_code": "6128109",
    "prefecture": "京都府",
    "prefecture_kana": "キョウトフ",
    "prefecture_code": 26,
    "city": "京都市伏見区",
    "city_kana": "キョウトシフシミク",
    "town": "讃岐町",
    "town_kana": "サヌキチョウ",
    "street": null,
    "office_name": null,
    "office_name_kana": null
  },
  "8111": {
    "zip_code": "6128111",
    "prefecture": "京都府",
    "prefecture_kana": "キョウトフ",
    "prefecture_code": 26,
    "city": "京都市伏見区",
    "city_kana": "キョウトシフシミク",
    "town": "向島橋詰町",
    "town_kana": "ムカイジマハシヅメチョウ",
    "street": null,
    "office_name": null,
    "office_name_kana": null
  },
  "8112": {
    "zip_code": "6128112",
    "prefecture": "京都府",
    "prefecture_kana": "キョウトフ",
    "prefecture_code": 26,
    "city": "京都市伏見区",
    "city_kana": "キョウトシフシミク",
    "town": "向島本丸町",
    "town_kana": "ムカイジマホンマルチョウ",
    "street": null,
    "office_name": null,
    "office_name_kana": null
  },
  "8113": {
    "zip_code": "6128113",
    "prefecture": "京都府",
    "prefecture_kana": "キョウトフ",
    "prefecture_code": 26,
    "city": "京都市伏見区",
    "city_kana": "キョウトシフシミク",
    "town": "向島中島町",
    "town_kana": "ムカイジマナカジマチョウ",
    "street": null,
    "office_name": null,
    "office_name_kana": null
  },
  "8114": {
    "zip_code": "6128114",
    "prefecture": "京都府",
    "prefecture_kana": "キョウトフ",
    "prefecture_code": 26,
    "city": "京都市伏見区",
    "city_kana": "キョウトシフシミク",
    "town": "向島下之町",
    "town_kana": "ムカイジマシモノチョウ",
    "street": null,
    "office_name": null,
    "office_name_kana": null
  },
  "8115": {
    "zip_code": "6128115",
    "prefecture": "京都府",
    "prefecture_kana": "キョウトフ",
    "prefecture_code": 26,
    "city": "京都市伏見区",
    "city_kana": "キョウトシフシミク",
    "town": "向島中之町",
    "town_kana": "ムカイジマナカノチョウ",
    "street": null,
    "office_name": null,
    "office_name_kana": null
  },
  "8116": {
    "zip_code": "6128116",
    "prefecture": "京都府",
    "prefecture_kana": "キョウトフ",
    "prefecture_code": 26,
    "city": "京都市伏見区",
    "city_kana": "キョウトシフシミク",
    "town": "向島西堤町",
    "town_kana": "ムカイジマニシツツミチョウ",
    "street": null,
    "office_name": null,
    "office_name_kana": null
  },
  "8121": {
    "zip_code": "6128121",
    "prefecture": "京都府",
    "prefecture_kana": "キョウトフ",
    "prefecture_code": 26,
    "city": "京都市伏見区",
    "city_kana": "キョウトシフシミク",
    "town": "向島善阿弥町",
    "town_kana": "ムカイジマゼンアミチョウ",
    "street": null,
    "office_name": null,
    "office_name_kana": null
  },
  "8122": {
    "zip_code": "6128122",
    "prefecture": "京都府",
    "prefecture_kana": "キョウトフ",
    "prefecture_code": 26,
    "city": "京都市伏見区",
    "city_kana": "キョウトシフシミク",
    "town": "向島庚申町",
    "town_kana": "ムカイジマコウシンチョウ",
    "street": null,
    "office_name": null,
    "office_name_kana": null
  },
  "8123": {
    "zip_code": "6128123",
    "prefecture": "京都府",
    "prefecture_kana": "キョウトフ",
    "prefecture_code": 26,
    "city": "京都市伏見区",
    "city_kana": "キョウトシフシミク",
    "town": "向島立河原町",
    "town_kana": "ムカイジマタテガワラチョウ",
    "street": null,
    "office_name": null,
    "office_name_kana": null
  },
  "8124": {
    "zip_code": "6128124",
    "prefecture": "京都府",
    "prefecture_kana": "キョウトフ",
    "prefecture_code": 26,
    "city": "京都市伏見区",
    "city_kana": "キョウトシフシミク",
    "town": "向島吹田河原町",
    "town_kana": "ムカイジマスイタガワラチョウ",
    "street": null,
    "office_name": null,
    "office_name_kana": null
  },
  "8125": {
    "zip_code": "6128125",
    "prefecture": "京都府",
    "prefecture_kana": "キョウトフ",
    "prefecture_code": 26,
    "city": "京都市伏見区",
    "city_kana": "キョウトシフシミク",
    "town": "向島東泉寺町",
    "town_kana": "ムカイジマトウセンジチョウ",
    "street": null,
    "office_name": null,
    "office_name_kana": null
  },
  "8131": {
    "zip_code": "6128131",
    "prefecture": "京都府",
    "prefecture_kana": "キョウトフ",
    "prefecture_code": 26,
    "city": "京都市伏見区",
    "city_kana": "キョウトシフシミク",
    "town": "向島丸町",
    "town_kana": "ムカイジママルマチ",
    "street": null,
    "office_name": null,
    "office_name_kana": null
  },
  "8132": {
    "zip_code": "6128132",
    "prefecture": "京都府",
    "prefecture_kana": "キョウトフ",
    "prefecture_code": 26,
    "city": "京都市伏見区",
    "city_kana": "キョウトシフシミク",
    "town": "向島藤ノ木町",
    "town_kana": "ムカイジマフジノキチョウ",
    "street": null,
    "office_name": null,
    "office_name_kana": null
  },
  "8133": {
    "zip_code": "6128133",
    "prefecture": "京都府",
    "prefecture_kana": "キョウトフ",
    "prefecture_code": 26,
    "city": "京都市伏見区",
    "city_kana": "キョウトシフシミク",
    "town": "向島鷹場町",
    "town_kana": "ムカイジマタカバチョウ",
    "street": null,
    "office_name": null,
    "office_name_kana": null
  },
  "8134": {
    "zip_code": "6128134",
    "prefecture": "京都府",
    "prefecture_kana": "キョウトフ",
    "prefecture_code": 26,
    "city": "京都市伏見区",
    "city_kana": "キョウトシフシミク",
    "town": "向島清水町",
    "town_kana": "ムカイジマシミズチョウ",
    "street": null,
    "office_name": null,
    "office_name_kana": null
  },
  "8135": {
    "zip_code": "6128135",
    "prefecture": "京都府",
    "prefecture_kana": "キョウトフ",
    "prefecture_code": 26,
    "city": "京都市伏見区",
    "city_kana": "キョウトシフシミク",
    "town": "向島渡シ場町",
    "town_kana": "ムカイジマワタシバチョウ",
    "street": null,
    "office_name": null,
    "office_name_kana": null
  },
  "8136": {
    "zip_code": "6128136",
    "prefecture": "京都府",
    "prefecture_kana": "キョウトフ",
    "prefecture_code": 26,
    "city": "京都市伏見区",
    "city_kana": "キョウトシフシミク",
    "town": "向島四ツ谷池",
    "town_kana": "ムカイジマヨツヤイケ",
    "street": null,
    "office_name": null,
    "office_name_kana": null
  },
  "8141": {
    "zip_code": "6128141",
    "prefecture": "京都府",
    "prefecture_kana": "キョウトフ",
    "prefecture_code": 26,
    "city": "京都市伏見区",
    "city_kana": "キョウトシフシミク",
    "town": "向島二ノ丸町",
    "town_kana": "ムカイジマニノマルチョウ",
    "street": null,
    "office_name": null,
    "office_name_kana": null
  },
  "8151": {
    "zip_code": "6128151",
    "prefecture": "京都府",
    "prefecture_kana": "キョウトフ",
    "prefecture_code": 26,
    "city": "京都市伏見区",
    "city_kana": "キョウトシフシミク",
    "town": "向島上林町",
    "town_kana": "ムカイジマカンバヤシチョウ",
    "street": null,
    "office_name": null,
    "office_name_kana": null
  },
  "8152": {
    "zip_code": "6128152",
    "prefecture": "京都府",
    "prefecture_kana": "キョウトフ",
    "prefecture_code": 26,
    "city": "京都市伏見区",
    "city_kana": "キョウトシフシミク",
    "town": "向島新上林",
    "town_kana": "ムカイジマシンカンバヤシ",
    "street": null,
    "office_name": null,
    "office_name_kana": null
  },
  "8153": {
    "zip_code": "6128153",
    "prefecture": "京都府",
    "prefecture_kana": "キョウトフ",
    "prefecture_code": 26,
    "city": "京都市伏見区",
    "city_kana": "キョウトシフシミク",
    "town": "向島二本柳",
    "town_kana": "ムカイジマニホンヤナギ",
    "street": null,
    "office_name": null,
    "office_name_kana": null
  },
  "8154": {
    "zip_code": "6128154",
    "prefecture": "京都府",
    "prefecture_kana": "キョウトフ",
    "prefecture_code": 26,
    "city": "京都市伏見区",
    "city_kana": "キョウトシフシミク",
    "town": "向島津田町",
    "town_kana": "ムカイジマツダチョウ",
    "street": null,
    "office_name": null,
    "office_name_kana": null
  },
  "8155": {
    "zip_code": "6128155",
    "prefecture": "京都府",
    "prefecture_kana": "キョウトフ",
    "prefecture_code": 26,
    "city": "京都市伏見区",
    "city_kana": "キョウトシフシミク",
    "town": "向島東定請",
    "town_kana": "ムカイジマヒガシジョウウケ",
    "street": null,
    "office_name": null,
    "office_name_kana": null
  },
  "8156": {
    "zip_code": "6128156",
    "prefecture": "京都府",
    "prefecture_kana": "キョウトフ",
    "prefecture_code": 26,
    "city": "京都市伏見区",
    "city_kana": "キョウトシフシミク",
    "town": "向島西定請",
    "town_kana": "ムカイジマニシジョウウケ",
    "street": null,
    "office_name": null,
    "office_name_kana": null
  },
  "8157": {
    "zip_code": "6128157",
    "prefecture": "京都府",
    "prefecture_kana": "キョウトフ",
    "prefecture_code": 26,
    "city": "京都市伏見区",
    "city_kana": "キョウトシフシミク",
    "town": "向島大黒",
    "town_kana": "ムカイジマダイコク",
    "street": null,
    "office_name": null,
    "office_name_kana": null
  },
  "8158": {
    "zip_code": "6128158",
    "prefecture": "京都府",
    "prefecture_kana": "キョウトフ",
    "prefecture_code": 26,
    "city": "京都市伏見区",
    "city_kana": "キョウトシフシミク",
    "town": "向島上五反田",
    "town_kana": "ムカイジマカミゴタンダ",
    "street": null,
    "office_name": null,
    "office_name_kana": null
  },
  "8201": {
    "zip_code": "6128201",
    "prefecture": "京都府",
    "prefecture_kana": "キョウトフ",
    "prefecture_code": 26,
    "city": "京都市伏見区",
    "city_kana": "キョウトシフシミク",
    "town": "恵美酒町",
    "town_kana": "エビスチョウ",
    "street": null,
    "office_name": null,
    "office_name_kana": null
  },
  "8202": {
    "zip_code": "6128202",
    "prefecture": "京都府",
    "prefecture_kana": "キョウトフ",
    "prefecture_code": 26,
    "city": "京都市伏見区",
    "city_kana": "キョウトシフシミク",
    "town": "過書町",
    "town_kana": "カショマチ",
    "street": null,
    "office_name": null,
    "office_name_kana": null
  },
  "8203": {
    "zip_code": "6128203",
    "prefecture": "京都府",
    "prefecture_kana": "キョウトフ",
    "prefecture_code": 26,
    "city": "京都市伏見区",
    "city_kana": "キョウトシフシミク",
    "town": "阿波橋町",
    "town_kana": "アワバシチョウ",
    "street": null,
    "office_name": null,
    "office_name_kana": null
  },
  "8204": {
    "zip_code": "6128204",
    "prefecture": "京都府",
    "prefecture_kana": "キョウトフ",
    "prefecture_code": 26,
    "city": "京都市伏見区",
    "city_kana": "キョウトシフシミク",
    "town": "八幡町",
    "town_kana": "ヤワタチョウ",
    "street": null,
    "office_name": null,
    "office_name_kana": null
  },
  "8205": {
    "zip_code": "6128205",
    "prefecture": "京都府",
    "prefecture_kana": "キョウトフ",
    "prefecture_code": 26,
    "city": "京都市伏見区",
    "city_kana": "キョウトシフシミク",
    "town": "横大路三栖大黒町",
    "town_kana": "ヨコオオジミスダイコクチョウ",
    "street": null,
    "office_name": null,
    "office_name_kana": null
  },
  "8206": {
    "zip_code": "6128206",
    "prefecture": "京都府",
    "prefecture_kana": "キョウトフ",
    "prefecture_code": 26,
    "city": "京都市伏見区",
    "city_kana": "キョウトシフシミク",
    "town": "下鳥羽六反長町",
    "town_kana": "シモトバロクタンナガチョウ",
    "street": null,
    "office_name": null,
    "office_name_kana": null
  },
  "8207": {
    "zip_code": "6128207",
    "prefecture": "京都府",
    "prefecture_kana": "キョウトフ",
    "prefecture_code": 26,
    "city": "京都市伏見区",
    "city_kana": "キョウトシフシミク",
    "town": "横大路三栖山城屋敷町",
    "town_kana": "ヨコオオジミスヤマシロヤシキチョウ",
    "street": null,
    "office_name": null,
    "office_name_kana": null
  },
  "8208": {
    "zip_code": "6128208",
    "prefecture": "京都府",
    "prefecture_kana": "キョウトフ",
    "prefecture_code": 26,
    "city": "京都市伏見区",
    "city_kana": "キョウトシフシミク",
    "town": "下鳥羽但馬町",
    "town_kana": "シモトバタジマチョウ",
    "street": null,
    "office_name": null,
    "office_name_kana": null
  },
  "8209": {
    "zip_code": "6128209",
    "prefecture": "京都府",
    "prefecture_kana": "キョウトフ",
    "prefecture_code": 26,
    "city": "京都市伏見区",
    "city_kana": "キョウトシフシミク",
    "town": "下鳥羽南六反長町",
    "town_kana": "シモトバミナミロクタンナガチョウ",
    "street": null,
    "office_name": null,
    "office_name_kana": null
  },
  "8211": {
    "zip_code": "6128211",
    "prefecture": "京都府",
    "prefecture_kana": "キョウトフ",
    "prefecture_code": 26,
    "city": "京都市伏見区",
    "city_kana": "キョウトシフシミク",
    "town": "東柳町",
    "town_kana": "ヒガシヤナギチョウ",
    "street": null,
    "office_name": null,
    "office_name_kana": null
  },
  "8212": {
    "zip_code": "6128212",
    "prefecture": "京都府",
    "prefecture_kana": "キョウトフ",
    "prefecture_code": 26,
    "city": "京都市伏見区",
    "city_kana": "キョウトシフシミク",
    "town": "西柳町",
    "town_kana": "ニシヤナギチョウ",
    "street": null,
    "office_name": null,
    "office_name_kana": null
  },
  "8213": {
    "zip_code": "6128213",
    "prefecture": "京都府",
    "prefecture_kana": "キョウトフ",
    "prefecture_code": 26,
    "city": "京都市伏見区",
    "city_kana": "キョウトシフシミク",
    "town": "東浜南町",
    "town_kana": "ヒガシハマミナミチョウ",
    "street": null,
    "office_name": null,
    "office_name_kana": null
  },
  "8214": {
    "zip_code": "6128214",
    "prefecture": "京都府",
    "prefecture_kana": "キョウトフ",
    "prefecture_code": 26,
    "city": "京都市伏見区",
    "city_kana": "キョウトシフシミク",
    "town": "西浜町",
    "town_kana": "ニシハマチョウ",
    "street": null,
    "office_name": null,
    "office_name_kana": null
  },
  "8215": {
    "zip_code": "6128215",
    "prefecture": "京都府",
    "prefecture_kana": "キョウトフ",
    "prefecture_code": 26,
    "city": "京都市伏見区",
    "city_kana": "キョウトシフシミク",
    "town": "新中町",
    "town_kana": "シンナカチョウ",
    "street": null,
    "office_name": null,
    "office_name_kana": null
  },
  "8216": {
    "zip_code": "6128216",
    "prefecture": "京都府",
    "prefecture_kana": "キョウトフ",
    "prefecture_code": 26,
    "city": "京都市伏見区",
    "city_kana": "キョウトシフシミク",
    "town": "下中町",
    "town_kana": "シモナカチョウ",
    "street": null,
    "office_name": null,
    "office_name_kana": null
  },
  "8217": {
    "zip_code": "6128217",
    "prefecture": "京都府",
    "prefecture_kana": "キョウトフ",
    "prefecture_code": 26,
    "city": "京都市伏見区",
    "city_kana": "キョウトシフシミク",
    "town": "上中町",
    "town_kana": "カミナカチョウ",
    "street": null,
    "office_name": null,
    "office_name_kana": null
  },
  "8218": {
    "zip_code": "6128218",
    "prefecture": "京都府",
    "prefecture_kana": "キョウトフ",
    "prefecture_code": 26,
    "city": "京都市伏見区",
    "city_kana": "キョウトシフシミク",
    "town": "北浜町",
    "town_kana": "キタハマチョウ",
    "street": null,
    "office_name": null,
    "office_name_kana": null
  },
  "8219": {
    "zip_code": "6128219",
    "prefecture": "京都府",
    "prefecture_kana": "キョウトフ",
    "prefecture_code": 26,
    "city": "京都市伏見区",
    "city_kana": "キョウトシフシミク",
    "town": "表町",
    "town_kana": "オモテマチ",
    "street": null,
    "office_name": null,
    "office_name_kana": null
  },
  "8221": {
    "zip_code": "6128221",
    "prefecture": "京都府",
    "prefecture_kana": "キョウトフ",
    "prefecture_code": 26,
    "city": "京都市伏見区",
    "city_kana": "キョウトシフシミク",
    "town": "弾正町",
    "town_kana": "ダンジョウチョウ",
    "street": null,
    "office_name": null,
    "office_name_kana": null
  },
  "8222": {
    "zip_code": "6128222",
    "prefecture": "京都府",
    "prefecture_kana": "キョウトフ",
    "prefecture_code": 26,
    "city": "京都市伏見区",
    "city_kana": "キョウトシフシミク",
    "town": "平戸町",
    "town_kana": "ヒラドチョウ",
    "street": null,
    "office_name": null,
    "office_name_kana": null
  },
  "8223": {
    "zip_code": "6128223",
    "prefecture": "京都府",
    "prefecture_kana": "キョウトフ",
    "prefecture_code": 26,
    "city": "京都市伏見区",
    "city_kana": "キョウトシフシミク",
    "town": "桃山町弾正島",
    "town_kana": "モモヤマチョウダンジョウジマ",
    "street": null,
    "office_name": null,
    "office_name_kana": null
  },
  "8224": {
    "zip_code": "6128224",
    "prefecture": "京都府",
    "prefecture_kana": "キョウトフ",
    "prefecture_code": 26,
    "city": "京都市伏見区",
    "city_kana": "キョウトシフシミク",
    "town": "葭島矢倉町",
    "town_kana": "ヨシジマヤグラチョウ",
    "street": null,
    "office_name": null,
    "office_name_kana": null
  },
  "8225": {
    "zip_code": "6128225",
    "prefecture": "京都府",
    "prefecture_kana": "キョウトフ",
    "prefecture_code": 26,
    "city": "京都市伏見区",
    "city_kana": "キョウトシフシミク",
    "town": "葭島金井戸町",
    "town_kana": "ヨシジマカナイドチョウ",
    "street": null,
    "office_name": null,
    "office_name_kana": null
  },
  "8226": {
    "zip_code": "6128226",
    "prefecture": "京都府",
    "prefecture_kana": "キョウトフ",
    "prefecture_code": 26,
    "city": "京都市伏見区",
    "city_kana": "キョウトシフシミク",
    "town": "桃山町金井戸島",
    "town_kana": "モモヤマチョウカナイドジマ",
    "street": null,
    "office_name": null,
    "office_name_kana": null
  },
  "8227": {
    "zip_code": "6128227",
    "prefecture": "京都府",
    "prefecture_kana": "キョウトフ",
    "prefecture_code": 26,
    "city": "京都市伏見区",
    "city_kana": "キョウトシフシミク",
    "town": "三栖向町",
    "town_kana": "ミスムコウチョウ",
    "street": null,
    "office_name": null,
    "office_name_kana": null
  },
  "8228": {
    "zip_code": "6128228",
    "prefecture": "京都府",
    "prefecture_kana": "キョウトフ",
    "prefecture_code": 26,
    "city": "京都市伏見区",
    "city_kana": "キョウトシフシミク",
    "town": "南新地",
    "town_kana": "ミナミシンチ",
    "street": null,
    "office_name": null,
    "office_name_kana": null
  },
  "8231": {
    "zip_code": "6128231",
    "prefecture": "京都府",
    "prefecture_kana": "キョウトフ",
    "prefecture_code": 26,
    "city": "京都市伏見区",
    "city_kana": "キョウトシフシミク",
    "town": "杉本町",
    "town_kana": "スギモトチョウ",
    "street": null,
    "office_name": null,
    "office_name_kana": null
  },
  "8232": {
    "zip_code": "6128232",
    "prefecture": "京都府",
    "prefecture_kana": "キョウトフ",
    "prefecture_code": 26,
    "city": "京都市伏見区",
    "city_kana": "キョウトシフシミク",
    "town": "三栖半町",
    "town_kana": "ミスハンチョウ",
    "street": null,
    "office_name": null,
    "office_name_kana": null
  },
  "8233": {
    "zip_code": "6128233",
    "prefecture": "京都府",
    "prefecture_kana": "キョウトフ",
    "prefecture_code": 26,
    "city": "京都市伏見区",
    "city_kana": "キョウトシフシミク",
    "town": "三栖町",
    "town_kana": "ミスチョウ",
    "street": null,
    "office_name": null,
    "office_name_kana": null
  },
  "8234": {
    "zip_code": "6128234",
    "prefecture": "京都府",
    "prefecture_kana": "キョウトフ",
    "prefecture_code": 26,
    "city": "京都市伏見区",
    "city_kana": "キョウトシフシミク",
    "town": "横大路三栖木下屋敷町",
    "town_kana": "ヨコオオジミスキノシタヤシキチョウ",
    "street": null,
    "office_name": null,
    "office_name_kana": null
  },
  "8235": {
    "zip_code": "6128235",
    "prefecture": "京都府",
    "prefecture_kana": "キョウトフ",
    "prefecture_code": 26,
    "city": "京都市伏見区",
    "city_kana": "キョウトシフシミク",
    "town": "横大路下三栖東ノ口",
    "town_kana": "ヨコオオジシモミスヒガシノクチ",
    "street": null,
    "office_name": null,
    "office_name_kana": null
  },
  "8236": {
    "zip_code": "6128236",
    "prefecture": "京都府",
    "prefecture_kana": "キョウトフ",
    "prefecture_code": 26,
    "city": "京都市伏見区",
    "city_kana": "キョウトシフシミク",
    "town": "横大路下三栖里ノ内",
    "town_kana": "ヨコオオジシモミスサトノウチ",
    "street": null,
    "office_name": null,
    "office_name_kana": null
  },
  "8237": {
    "zip_code": "6128237",
    "prefecture": "京都府",
    "prefecture_kana": "キョウトフ",
    "prefecture_code": 26,
    "city": "京都市伏見区",
    "city_kana": "キョウトシフシミク",
    "town": "横大路三栖池田屋敷町",
    "town_kana": "ヨコオオジミスイケダヤシキチョウ",
    "street": null,
    "office_name": null,
    "office_name_kana": null
  },
  "8238": {
    "zip_code": "6128238",
    "prefecture": "京都府",
    "prefecture_kana": "キョウトフ",
    "prefecture_code": 26,
    "city": "京都市伏見区",
    "city_kana": "キョウトシフシミク",
    "town": "横大路下三栖山殿",
    "town_kana": "ヨコオオジシモミスヤマデン",
    "street": null,
    "office_name": null,
    "office_name_kana": null
  },
  "8239": {
    "zip_code": "6128239",
    "prefecture": "京都府",
    "prefecture_kana": "キョウトフ",
    "prefecture_code": 26,
    "city": "京都市伏見区",
    "city_kana": "キョウトシフシミク",
    "town": "横大路三栖泥町跡町",
    "town_kana": "ヨコオオジミスドロマチアトチョウ",
    "street": null,
    "office_name": null,
    "office_name_kana": null
  },
  "8241": {
    "zip_code": "6128241",
    "prefecture": "京都府",
    "prefecture_kana": "キョウトフ",
    "prefecture_code": 26,
    "city": "京都市伏見区",
    "city_kana": "キョウトシフシミク",
    "town": "横大路下三栖辻堂町",
    "town_kana": "ヨコオオジシモミスツジドウチョウ",
    "street": null,
    "office_name": null,
    "office_name_kana": null
  },
  "8242": {
    "zip_code": "6128242",
    "prefecture": "京都府",
    "prefecture_kana": "キョウトフ",
    "prefecture_code": 26,
    "city": "京都市伏見区",
    "city_kana": "キョウトシフシミク",
    "town": "横大路下三栖梶原町",
    "town_kana": "ヨコオオジシモミスカジワラチョウ",
    "street": null,
    "office_name": null,
    "office_name_kana": null
  },
  "8243": {
    "zip_code": "6128243",
    "prefecture": "京都府",
    "prefecture_kana": "キョウトフ",
    "prefecture_code": 26,
    "city": "京都市伏見区",
    "city_kana": "キョウトシフシミク",
    "town": "横大路下三栖城ノ前町",
    "town_kana": "ヨコオオジシモミスジョウノマエチョウ",
    "street": null,
    "office_name": null,
    "office_name_kana": null
  },
  "8244": {
    "zip_code": "6128244",
    "prefecture": "京都府",
    "prefecture_kana": "キョウトフ",
    "prefecture_code": 26,
    "city": "京都市伏見区",
    "city_kana": "キョウトシフシミク",
    "town": "横大路千両松町",
    "town_kana": "ヨコオオジセンリョウマツチョウ",
    "street": null,
    "office_name": null,
    "office_name_kana": null
  },
  "8245": {
    "zip_code": "6128245",
    "prefecture": "京都府",
    "prefecture_kana": "キョウトフ",
    "prefecture_code": 26,
    "city": "京都市伏見区",
    "city_kana": "キョウトシフシミク",
    "town": "横大路下三栖宮ノ後",
    "town_kana": "ヨコオオジシモミスミヤノゴウ",
    "street": null,
    "office_name": null,
    "office_name_kana": null
  },
  "8246": {
    "zip_code": "6128246",
    "prefecture": "京都府",
    "prefecture_kana": "キョウトフ",
    "prefecture_code": 26,
    "city": "京都市伏見区",
    "city_kana": "キョウトシフシミク",
    "town": "横大路芝生",
    "town_kana": "ヨコオオジシバフ",
    "street": null,
    "office_name": null,
    "office_name_kana": null
  },
  "8247": {
    "zip_code": "6128247",
    "prefecture": "京都府",
    "prefecture_kana": "キョウトフ",
    "prefecture_code": 26,
    "city": "京都市伏見区",
    "city_kana": "キョウトシフシミク",
    "town": "横大路下三栖南郷",
    "town_kana": "ヨコオオジシモミスナンゴウ",
    "street": null,
    "office_name": null,
    "office_name_kana": null
  },
  "8248": {
    "zip_code": "6128248",
    "prefecture": "京都府",
    "prefecture_kana": "キョウトフ",
    "prefecture_code": 26,
    "city": "京都市伏見区",
    "city_kana": "キョウトシフシミク",
    "town": "下鳥羽上三栖町",
    "town_kana": "シモトバカミミスチョウ",
    "street": null,
    "office_name": null,
    "office_name_kana": null
  },
  "8249": {
    "zip_code": "6128249",
    "prefecture": "京都府",
    "prefecture_kana": "キョウトフ",
    "prefecture_code": 26,
    "city": "京都市伏見区",
    "city_kana": "キョウトシフシミク",
    "town": "横大路沼",
    "town_kana": "ヨコオオジヌマ",
    "street": null,
    "office_name": null,
    "office_name_kana": null
  },
  "8251": {
    "zip_code": "6128251",
    "prefecture": "京都府",
    "prefecture_kana": "キョウトフ",
    "prefecture_code": 26,
    "city": "京都市伏見区",
    "city_kana": "キョウトシフシミク",
    "town": "横大路菅本",
    "town_kana": "ヨコオオジスガモト",
    "street": null,
    "office_name": null,
    "office_name_kana": null
  },
  "8252": {
    "zip_code": "6128252",
    "prefecture": "京都府",
    "prefecture_kana": "キョウトフ",
    "prefecture_code": 26,
    "city": "京都市伏見区",
    "city_kana": "キョウトシフシミク",
    "town": "横大路一本木",
    "town_kana": "ヨコオオジイッポンギ",
    "street": null,
    "office_name": null,
    "office_name_kana": null
  },
  "8253": {
    "zip_code": "6128253",
    "prefecture": "京都府",
    "prefecture_kana": "キョウトフ",
    "prefecture_code": 26,
    "city": "京都市伏見区",
    "city_kana": "キョウトシフシミク",
    "town": "横大路八反田",
    "town_kana": "ヨコオオジハッタンダ",
    "street": null,
    "office_name": null,
    "office_name_kana": null
  },
  "8254": {
    "zip_code": "6128254",
    "prefecture": "京都府",
    "prefecture_kana": "キョウトフ",
    "prefecture_code": 26,
    "city": "京都市伏見区",
    "city_kana": "キョウトシフシミク",
    "town": "横大路北ノ口町",
    "town_kana": "ヨコオオジキタノクチチョウ",
    "street": null,
    "office_name": null,
    "office_name_kana": null
  },
  "8255": {
    "zip_code": "6128255",
    "prefecture": "京都府",
    "prefecture_kana": "キョウトフ",
    "prefecture_code": 26,
    "city": "京都市伏見区",
    "city_kana": "キョウトシフシミク",
    "town": "横大路六反畑",
    "town_kana": "ヨコオオジロクタンハタ",
    "street": null,
    "office_name": null,
    "office_name_kana": null
  },
  "8256": {
    "zip_code": "6128256",
    "prefecture": "京都府",
    "prefecture_kana": "キョウトフ",
    "prefecture_code": 26,
    "city": "京都市伏見区",
    "city_kana": "キョウトシフシミク",
    "town": "横大路前川町",
    "town_kana": "ヨコオオジマエガワチョウ",
    "street": null,
    "office_name": null,
    "office_name_kana": null
  },
  "8257": {
    "zip_code": "6128257",
    "prefecture": "京都府",
    "prefecture_kana": "キョウトフ",
    "prefecture_code": 26,
    "city": "京都市伏見区",
    "city_kana": "キョウトシフシミク",
    "town": "横大路富ノ森町",
    "town_kana": "ヨコオオジトミノモリチョウ",
    "street": null,
    "office_name": null,
    "office_name_kana": null
  },
  "8261": {
    "zip_code": "6128261",
    "prefecture": "京都府",
    "prefecture_kana": "キョウトフ",
    "prefecture_code": 26,
    "city": "京都市伏見区",
    "city_kana": "キョウトシフシミク",
    "town": "横大路西海道",
    "town_kana": "ヨコオオジサイカイドウ",
    "street": null,
    "office_name": null,
    "office_name_kana": null
  },
  "8262": {
    "zip_code": "6128262",
    "prefecture": "京都府",
    "prefecture_kana": "キョウトフ",
    "prefecture_code": 26,
    "city": "京都市伏見区",
    "city_kana": "キョウトシフシミク",
    "town": "横大路神宮寺",
    "town_kana": "ヨコオオジジングウジ",
    "street": null,
    "office_name": null,
    "office_name_kana": null
  },
  "8263": {
    "zip_code": "6128263",
    "prefecture": "京都府",
    "prefecture_kana": "キョウトフ",
    "prefecture_code": 26,
    "city": "京都市伏見区",
    "city_kana": "キョウトシフシミク",
    "town": "横大路下ノ坪",
    "town_kana": "ヨコオオジシモノツボ",
    "street": null,
    "office_name": null,
    "office_name_kana": null
  },
  "8264": {
    "zip_code": "6128264",
    "prefecture": "京都府",
    "prefecture_kana": "キョウトフ",
    "prefecture_code": 26,
    "city": "京都市伏見区",
    "city_kana": "キョウトシフシミク",
    "town": "横大路松林",
    "town_kana": "ヨコオオジマツバヤシ",
    "street": null,
    "office_name": null,
    "office_name_kana": null
  },
  "8265": {
    "zip_code": "6128265",
    "prefecture": "京都府",
    "prefecture_kana": "キョウトフ",
    "prefecture_code": 26,
    "city": "京都市伏見区",
    "city_kana": "キョウトシフシミク",
    "town": "葭島渡場島町",
    "town_kana": "ヨシジマワタシバジマチョウ",
    "street": null,
    "office_name": null,
    "office_name_kana": null
  },
  "8266": {
    "zip_code": "6128266",
    "prefecture": "京都府",
    "prefecture_kana": "キョウトフ",
    "prefecture_code": 26,
    "city": "京都市伏見区",
    "city_kana": "キョウトシフシミク",
    "town": "向島又兵衛",
    "town_kana": "ムカイジママタベエ",
    "street": null,
    "office_name": null,
    "office_name_kana": null
  },
  "8267": {
    "zip_code": "6128267",
    "prefecture": "京都府",
    "prefecture_kana": "キョウトフ",
    "prefecture_code": 26,
    "city": "京都市伏見区",
    "city_kana": "キョウトシフシミク",
    "town": "納所下野",
    "town_kana": "ノウソシモノ",
    "street": null,
    "office_name": null,
    "office_name_kana": null
  },
  "8268": {
    "zip_code": "6128268",
    "prefecture": "京都府",
    "prefecture_kana": "キョウトフ",
    "prefecture_code": 26,
    "city": "京都市伏見区",
    "city_kana": "キョウトシフシミク",
    "town": "納所大野",
    "town_kana": "ノウソオオノ",
    "street": null,
    "office_name": null,
    "office_name_kana": null
  },
  "8271": {
    "zip_code": "6128271",
    "prefecture": "京都府",
    "prefecture_kana": "キョウトフ",
    "prefecture_code": 26,
    "city": "京都市伏見区",
    "city_kana": "キョウトシフシミク",
    "town": "納所岸ノ下",
    "town_kana": "ノウソキシノシタ",
    "street": null,
    "office_name": null,
    "office_name_kana": null
  },
  "8272": {
    "zip_code": "6128272",
    "prefecture": "京都府",
    "prefecture_kana": "キョウトフ",
    "prefecture_code": 26,
    "city": "京都市伏見区",
    "city_kana": "キョウトシフシミク",
    "town": "納所中河原",
    "town_kana": "ノウソナカガワラ",
    "street": null,
    "office_name": null,
    "office_name_kana": null
  },
  "8273": {
    "zip_code": "6128273",
    "prefecture": "京都府",
    "prefecture_kana": "キョウトフ",
    "prefecture_code": 26,
    "city": "京都市伏見区",
    "city_kana": "キョウトシフシミク",
    "town": "納所和泉屋",
    "town_kana": "ノウソイズミヤ",
    "street": null,
    "office_name": null,
    "office_name_kana": null
  },
  "8274": {
    "zip_code": "6128274",
    "prefecture": "京都府",
    "prefecture_kana": "キョウトフ",
    "prefecture_code": 26,
    "city": "京都市伏見区",
    "city_kana": "キョウトシフシミク",
    "town": "納所星柳",
    "town_kana": "ノウソホシヤナギ",
    "street": null,
    "office_name": null,
    "office_name_kana": null
  },
  "8275": {
    "zip_code": "6128275",
    "prefecture": "京都府",
    "prefecture_kana": "キョウトフ",
    "prefecture_code": 26,
    "city": "京都市伏見区",
    "city_kana": "キョウトシフシミク",
    "town": "納所町",
    "town_kana": "ノウソチョウ",
    "street": null,
    "office_name": null,
    "office_name_kana": null
  },
  "8276": {
    "zip_code": "6128276",
    "prefecture": "京都府",
    "prefecture_kana": "キョウトフ",
    "prefecture_code": 26,
    "city": "京都市伏見区",
    "city_kana": "キョウトシフシミク",
    "town": "納所薬師堂",
    "town_kana": "ノウソヤクシドウ",
    "street": null,
    "office_name": null,
    "office_name_kana": null
  },
  "8277": {
    "zip_code": "6128277",
    "prefecture": "京都府",
    "prefecture_kana": "キョウトフ",
    "prefecture_code": 26,
    "city": "京都市伏見区",
    "city_kana": "キョウトシフシミク",
    "town": "納所妙徳寺",
    "town_kana": "ノウソミョウトクジ",
    "street": null,
    "office_name": null,
    "office_name_kana": null
  },
  "8278": {
    "zip_code": "6128278",
    "prefecture": "京都府",
    "prefecture_kana": "キョウトフ",
    "prefecture_code": 26,
    "city": "京都市伏見区",
    "city_kana": "キョウトシフシミク",
    "town": "納所南城堀",
    "town_kana": "ノウソミナミシロボリ",
    "street": null,
    "office_name": null,
    "office_name_kana": null
  },
  "8279": {
    "zip_code": "6128279",
    "prefecture": "京都府",
    "prefecture_kana": "キョウトフ",
    "prefecture_code": 26,
    "city": "京都市伏見区",
    "city_kana": "キョウトシフシミク",
    "town": "納所北城堀",
    "town_kana": "ノウソキタシロボリ",
    "street": null,
    "office_name": null,
    "office_name_kana": null
  },
  "8281": {
    "zip_code": "6128281",
    "prefecture": "京都府",
    "prefecture_kana": "キョウトフ",
    "prefecture_code": 26,
    "city": "京都市伏見区",
    "city_kana": "キョウトシフシミク",
    "town": "横大路上ノ浜町",
    "town_kana": "ヨコオオジカミノハマチョウ",
    "street": null,
    "office_name": null,
    "office_name_kana": null
  },
  "8282": {
    "zip_code": "6128282",
    "prefecture": "京都府",
    "prefecture_kana": "キョウトフ",
    "prefecture_code": 26,
    "city": "京都市伏見区",
    "city_kana": "キョウトシフシミク",
    "town": "横大路畑中町",
    "town_kana": "ヨコオオジハタナカチョウ",
    "street": null,
    "office_name": null,
    "office_name_kana": null
  },
  "8283": {
    "zip_code": "6128283",
    "prefecture": "京都府",
    "prefecture_kana": "キョウトフ",
    "prefecture_code": 26,
    "city": "京都市伏見区",
    "city_kana": "キョウトシフシミク",
    "town": "横大路向ヒ",
    "town_kana": "ヨコオオジムカイ",
    "street": null,
    "office_name": null,
    "office_name_kana": null
  },
  "8284": {
    "zip_code": "6128284",
    "prefecture": "京都府",
    "prefecture_kana": "キョウトフ",
    "prefecture_code": 26,
    "city": "京都市伏見区",
    "city_kana": "キョウトシフシミク",
    "town": "横大路畔ノ内",
    "town_kana": "ヨコオオジクロノウチ",
    "street": null,
    "office_name": null,
    "office_name_kana": null
  },
  "8285": {
    "zip_code": "6128285",
    "prefecture": "京都府",
    "prefecture_kana": "キョウトフ",
    "prefecture_code": 26,
    "city": "京都市伏見区",
    "city_kana": "キョウトシフシミク",
    "town": "横大路龍ケ池",
    "town_kana": "ヨコオオジタツガイケ",
    "street": null,
    "office_name": null,
    "office_name_kana": null
  },
  "8286": {
    "zip_code": "6128286",
    "prefecture": "京都府",
    "prefecture_kana": "キョウトフ",
    "prefecture_code": 26,
    "city": "京都市伏見区",
    "city_kana": "キョウトシフシミク",
    "town": "横大路長畑町",
    "town_kana": "ヨコオオジナガハタチョウ",
    "street": null,
    "office_name": null,
    "office_name_kana": null
  },
  "8287": {
    "zip_code": "6128287",
    "prefecture": "京都府",
    "prefecture_kana": "キョウトフ",
    "prefecture_code": 26,
    "city": "京都市伏見区",
    "city_kana": "キョウトシフシミク",
    "town": "横大路中ノ島町",
    "town_kana": "ヨコオオジナカノシマチョウ",
    "street": null,
    "office_name": null,
    "office_name_kana": null
  },
  "8291": {
    "zip_code": "6128291",
    "prefecture": "京都府",
    "prefecture_kana": "キョウトフ",
    "prefecture_code": 26,
    "city": "京都市伏見区",
    "city_kana": "キョウトシフシミク",
    "town": "横大路天王後",
    "town_kana": "ヨコオオジテンノウゴウ",
    "street": null,
    "office_name": null,
    "office_name_kana": null
  },
  "8292": {
    "zip_code": "6128292",
    "prefecture": "京都府",
    "prefecture_kana": "キョウトフ",
    "prefecture_code": 26,
    "city": "京都市伏見区",
    "city_kana": "キョウトシフシミク",
    "town": "横大路朱雀",
    "town_kana": "ヨコオオジシュジャク",
    "street": null,
    "office_name": null,
    "office_name_kana": null
  },
  "8293": {
    "zip_code": "6128293",
    "prefecture": "京都府",
    "prefecture_kana": "キョウトフ",
    "prefecture_code": 26,
    "city": "京都市伏見区",
    "city_kana": "キョウトシフシミク",
    "town": "横大路橋本",
    "town_kana": "ヨコオオジハシモト",
    "street": null,
    "office_name": null,
    "office_name_kana": null
  },
  "8294": {
    "zip_code": "6128294",
    "prefecture": "京都府",
    "prefecture_kana": "キョウトフ",
    "prefecture_code": 26,
    "city": "京都市伏見区",
    "city_kana": "キョウトシフシミク",
    "town": "横大路天王前",
    "town_kana": "ヨコオオジテンノウマエ",
    "street": null,
    "office_name": null,
    "office_name_kana": null
  },
  "8295": {
    "zip_code": "6128295",
    "prefecture": "京都府",
    "prefecture_kana": "キョウトフ",
    "prefecture_code": 26,
    "city": "京都市伏見区",
    "city_kana": "キョウトシフシミク",
    "town": "横大路鍬ノ本",
    "town_kana": "ヨコオオジクワノモト",
    "street": null,
    "office_name": null,
    "office_name_kana": null
  },
  "8296": {
    "zip_code": "6128296",
    "prefecture": "京都府",
    "prefecture_kana": "キョウトフ",
    "prefecture_code": 26,
    "city": "京都市伏見区",
    "city_kana": "キョウトシフシミク",
    "town": "横大路柿ノ本町",
    "town_kana": "ヨコオオジカキノモトチョウ",
    "street": null,
    "office_name": null,
    "office_name_kana": null
  },
  "8297": {
    "zip_code": "6128297",
    "prefecture": "京都府",
    "prefecture_kana": "キョウトフ",
    "prefecture_code": 26,
    "city": "京都市伏見区",
    "city_kana": "キョウトシフシミク",
    "town": "横大路貴船",
    "town_kana": "ヨコオオジキフネ",
    "street": null,
    "office_name": null,
    "office_name_kana": null
  },
  "8301": {
    "zip_code": "6128301",
    "prefecture": "京都府",
    "prefecture_kana": "キョウトフ",
    "prefecture_code": 26,
    "city": "京都市伏見区",
    "city_kana": "キョウトシフシミク",
    "town": "加賀屋町",
    "town_kana": "カガヤチョウ",
    "street": null,
    "office_name": null,
    "office_name_kana": null
  },
  "8302": {
    "zip_code": "6128302",
    "prefecture": "京都府",
    "prefecture_kana": "キョウトフ",
    "prefecture_code": 26,
    "city": "京都市伏見区",
    "city_kana": "キョウトシフシミク",
    "town": "雁金町",
    "town_kana": "カリガネチョウ",
    "street": null,
    "office_name": null,
    "office_name_kana": null
  },
  "8303": {
    "zip_code": "6128303",
    "prefecture": "京都府",
    "prefecture_kana": "キョウトフ",
    "prefecture_code": 26,
    "city": "京都市伏見区",
    "city_kana": "キョウトシフシミク",
    "town": "菱屋町",
    "town_kana": "ヒシヤチョウ",
    "street": null,
    "office_name": null,
    "office_name_kana": null
  },
  "8304": {
    "zip_code": "6128304",
    "prefecture": "京都府",
    "prefecture_kana": "キョウトフ",
    "prefecture_code": 26,
    "city": "京都市伏見区",
    "city_kana": "キョウトシフシミク",
    "town": "榎町",
    "town_kana": "エノキチョウ",
    "street": null,
    "office_name": null,
    "office_name_kana": null
  },
  "8305": {
    "zip_code": "6128305",
    "prefecture": "京都府",
    "prefecture_kana": "キョウトフ",
    "prefecture_code": 26,
    "city": "京都市伏見区",
    "city_kana": "キョウトシフシミク",
    "town": "上神泉苑町",
    "town_kana": "カミシンセンエンチョウ",
    "street": null,
    "office_name": null,
    "office_name_kana": null
  },
  "8306": {
    "zip_code": "6128306",
    "prefecture": "京都府",
    "prefecture_kana": "キョウトフ",
    "prefecture_code": 26,
    "city": "京都市伏見区",
    "city_kana": "キョウトシフシミク",
    "town": "下神泉苑町",
    "town_kana": "シモシンセンエンチョウ",
    "street": null,
    "office_name": null,
    "office_name_kana": null
  },
  "8307": {
    "zip_code": "6128307",
    "prefecture": "京都府",
    "prefecture_kana": "キョウトフ",
    "prefecture_code": 26,
    "city": "京都市伏見区",
    "city_kana": "キョウトシフシミク",
    "town": "景勝町",
    "town_kana": "カゲカツチョウ",
    "street": null,
    "office_name": null,
    "office_name_kana": null
  },
  "8308": {
    "zip_code": "6128308",
    "prefecture": "京都府",
    "prefecture_kana": "キョウトフ",
    "prefecture_code": 26,
    "city": "京都市伏見区",
    "city_kana": "キョウトシフシミク",
    "town": "鳥羽町",
    "town_kana": "トバマチ",
    "street": null,
    "office_name": null,
    "office_name_kana": null
  },
  "8311": {
    "zip_code": "6128311",
    "prefecture": "京都府",
    "prefecture_kana": "キョウトフ",
    "prefecture_code": 26,
    "city": "京都市伏見区",
    "city_kana": "キョウトシフシミク",
    "town": "奈良屋町",
    "town_kana": "ナラヤチョウ",
    "street": null,
    "office_name": null,
    "office_name_kana": null
  },
  "8312": {
    "zip_code": "6128312",
    "prefecture": "京都府",
    "prefecture_kana": "キョウトフ",
    "prefecture_code": 26,
    "city": "京都市伏見区",
    "city_kana": "キョウトシフシミク",
    "town": "津知橋町",
    "town_kana": "ツチバシチョウ",
    "street": null,
    "office_name": null,
    "office_name_kana": null
  },
  "8313": {
    "zip_code": "6128313",
    "prefecture": "京都府",
    "prefecture_kana": "キョウトフ",
    "prefecture_code": 26,
    "city": "京都市伏見区",
    "city_kana": "キョウトシフシミク",
    "town": "西鍵屋町",
    "town_kana": "ニシカギヤチョウ",
    "street": null,
    "office_name": null,
    "office_name_kana": null
  },
  "8314": {
    "zip_code": "6128314",
    "prefecture": "京都府",
    "prefecture_kana": "キョウトフ",
    "prefecture_code": 26,
    "city": "京都市伏見区",
    "city_kana": "キョウトシフシミク",
    "town": "住吉町",
    "town_kana": "スミヨシチョウ",
    "street": null,
    "office_name": null,
    "office_name_kana": null
  },
  "8315": {
    "zip_code": "6128315",
    "prefecture": "京都府",
    "prefecture_kana": "キョウトフ",
    "prefecture_code": 26,
    "city": "京都市伏見区",
    "city_kana": "キョウトシフシミク",
    "town": "中之町",
    "town_kana": "ナカノチョウ",
    "street": null,
    "office_name": null,
    "office_name_kana": null
  },
  "8316": {
    "zip_code": "6128316",
    "prefecture": "京都府",
    "prefecture_kana": "キョウトフ",
    "prefecture_code": 26,
    "city": "京都市伏見区",
    "city_kana": "キョウトシフシミク",
    "town": "上板橋町",
    "town_kana": "カミイタバシチョウ",
    "street": null,
    "office_name": null,
    "office_name_kana": null
  },
  "8317": {
    "zip_code": "6128317",
    "prefecture": "京都府",
    "prefecture_kana": "キョウトフ",
    "prefecture_code": 26,
    "city": "京都市伏見区",
    "city_kana": "キョウトシフシミク",
    "town": "堀詰町",
    "town_kana": "ホリヅメチョウ",
    "street": null,
    "office_name": null,
    "office_name_kana": null
  },
  "8318": {
    "zip_code": "6128318",
    "prefecture": "京都府",
    "prefecture_kana": "キョウトフ",
    "prefecture_code": 26,
    "city": "京都市伏見区",
    "city_kana": "キョウトシフシミク",
    "town": "紙子屋町",
    "town_kana": "カミコヤチョウ",
    "street": null,
    "office_name": null,
    "office_name_kana": null
  },
  "8319": {
    "zip_code": "6128319",
    "prefecture": "京都府",
    "prefecture_kana": "キョウトフ",
    "prefecture_code": 26,
    "city": "京都市伏見区",
    "city_kana": "キョウトシフシミク",
    "town": "石屋町",
    "town_kana": "イシヤチョウ",
    "street": null,
    "office_name": null,
    "office_name_kana": null
  },
  "8321": {
    "zip_code": "6128321",
    "prefecture": "京都府",
    "prefecture_kana": "キョウトフ",
    "prefecture_code": 26,
    "city": "京都市伏見区",
    "city_kana": "キョウトシフシミク",
    "town": "越前町",
    "town_kana": "エチゼンチョウ",
    "street": null,
    "office_name": null,
    "office_name_kana": null
  },
  "8322": {
    "zip_code": "6128322",
    "prefecture": "京都府",
    "prefecture_kana": "キョウトフ",
    "prefecture_code": 26,
    "city": "京都市伏見区",
    "city_kana": "キョウトシフシミク",
    "town": "桝屋町",
    "town_kana": "マスヤチョウ",
    "street": null,
    "office_name": null,
    "office_name_kana": null
  },
  "8323": {
    "zip_code": "6128323",
    "prefecture": "京都府",
    "prefecture_kana": "キョウトフ",
    "prefecture_code": 26,
    "city": "京都市伏見区",
    "city_kana": "キョウトシフシミク",
    "town": "大和町",
    "town_kana": "ヤマトチョウ",
    "street": null,
    "office_name": null,
    "office_name_kana": null
  },
  "8324": {
    "zip_code": "6128324",
    "prefecture": "京都府",
    "prefecture_kana": "キョウトフ",
    "prefecture_code": 26,
    "city": "京都市伏見区",
    "city_kana": "キョウトシフシミク",
    "town": "小豆屋町",
    "town_kana": "アズキヤチョウ",
    "street": null,
    "office_name": null,
    "office_name_kana": null
  },
  "8325": {
    "zip_code": "6128325",
    "prefecture": "京都府",
    "prefecture_kana": "キョウトフ",
    "prefecture_code": 26,
    "city": "京都市伏見区",
    "city_kana": "キョウトシフシミク",
    "town": "清水町",
    "town_kana": "シミズチョウ",
    "street": null,
    "office_name": null,
    "office_name_kana": null
  },
  "8326": {
    "zip_code": "6128326",
    "prefecture": "京都府",
    "prefecture_kana": "キョウトフ",
    "prefecture_code": 26,
    "city": "京都市伏見区",
    "city_kana": "キョウトシフシミク",
    "town": "東朱雀町",
    "town_kana": "ヒガシシュジャクチョウ",
    "street": null,
    "office_name": null,
    "office_name_kana": null
  },
  "8327": {
    "zip_code": "6128327",
    "prefecture": "京都府",
    "prefecture_kana": "キョウトフ",
    "prefecture_code": 26,
    "city": "京都市伏見区",
    "city_kana": "キョウトシフシミク",
    "town": "西朱雀町",
    "town_kana": "ニシシュジャクチョウ",
    "street": null,
    "office_name": null,
    "office_name_kana": null
  },
  "8328": {
    "zip_code": "6128328",
    "prefecture": "京都府",
    "prefecture_kana": "キョウトフ",
    "prefecture_code": 26,
    "city": "京都市伏見区",
    "city_kana": "キョウトシフシミク",
    "town": "等安町",
    "town_kana": "トウアンチョウ",
    "street": null,
    "office_name": null,
    "office_name_kana": null
  },
  "8329": {
    "zip_code": "6128329",
    "prefecture": "京都府",
    "prefecture_kana": "キョウトフ",
    "prefecture_code": 26,
    "city": "京都市伏見区",
    "city_kana": "キョウトシフシミク",
    "town": "黒茶屋町",
    "town_kana": "クロチャヤチョウ",
    "street": null,
    "office_name": null,
    "office_name_kana": null
  },
  "8331": {
    "zip_code": "6128331",
    "prefecture": "京都府",
    "prefecture_kana": "キョウトフ",
    "prefecture_code": 26,
    "city": "京都市伏見区",
    "city_kana": "キョウトシフシミク",
    "town": "菊屋町",
    "town_kana": "キクヤチョウ",
    "street": null,
    "office_name": null,
    "office_name_kana": null
  },
  "8332": {
    "zip_code": "6128332",
    "prefecture": "京都府",
    "prefecture_kana": "キョウトフ",
    "prefecture_code": 26,
    "city": "京都市伏見区",
    "city_kana": "キョウトシフシミク",
    "town": "樽屋町",
    "town_kana": "タルヤチョウ",
    "street": null,
    "office_name": null,
    "office_name_kana": null
  },
  "8333": {
    "zip_code": "6128333",
    "prefecture": "京都府",
    "prefecture_kana": "キョウトフ",
    "prefecture_code": 26,
    "city": "京都市伏見区",
    "city_kana": "キョウトシフシミク",
    "town": "白銀町",
    "town_kana": "シロガネチョウ",
    "street": null,
    "office_name": null,
    "office_name_kana": null
  },
  "8334": {
    "zip_code": "6128334",
    "prefecture": "京都府",
    "prefecture_kana": "キョウトフ",
    "prefecture_code": 26,
    "city": "京都市伏見区",
    "city_kana": "キョウトシフシミク",
    "town": "東大文字町",
    "town_kana": "ヒガシダイモンジチョウ",
    "street": null,
    "office_name": null,
    "office_name_kana": null
  },
  "8335": {
    "zip_code": "6128335",
    "prefecture": "京都府",
    "prefecture_kana": "キョウトフ",
    "prefecture_code": 26,
    "city": "京都市伏見区",
    "city_kana": "キョウトシフシミク",
    "town": "海老屋町",
    "town_kana": "エビヤチョウ",
    "street": null,
    "office_name": null,
    "office_name_kana": null
  },
  "8336": {
    "zip_code": "6128336",
    "prefecture": "京都府",
    "prefecture_kana": "キョウトフ",
    "prefecture_code": 26,
    "city": "京都市伏見区",
    "city_kana": "キョウトシフシミク",
    "town": "東大黒町",
    "town_kana": "ヒガシダイコクチョウ",
    "street": null,
    "office_name": null,
    "office_name_kana": null
  },
  "8337": {
    "zip_code": "6128337",
    "prefecture": "京都府",
    "prefecture_kana": "キョウトフ",
    "prefecture_code": 26,
    "city": "京都市伏見区",
    "city_kana": "キョウトシフシミク",
    "town": "西大黒町",
    "town_kana": "ニシダイコクチョウ",
    "street": null,
    "office_name": null,
    "office_name_kana": null
  },
  "8338": {
    "zip_code": "6128338",
    "prefecture": "京都府",
    "prefecture_kana": "キョウトフ",
    "prefecture_code": 26,
    "city": "京都市伏見区",
    "city_kana": "キョウトシフシミク",
    "town": "舞台町",
    "town_kana": "ブタイチョウ",
    "street": null,
    "office_name": null,
    "office_name_kana": null
  },
  "8341": {
    "zip_code": "6128341",
    "prefecture": "京都府",
    "prefecture_kana": "キョウトフ",
    "prefecture_code": 26,
    "city": "京都市伏見区",
    "city_kana": "キョウトシフシミク",
    "town": "聚楽町",
    "town_kana": "ジュラクマチ",
    "street": null,
    "office_name": null,
    "office_name_kana": null
  },
  "8342": {
    "zip_code": "6128342",
    "prefecture": "京都府",
    "prefecture_kana": "キョウトフ",
    "prefecture_code": 26,
    "city": "京都市伏見区",
    "city_kana": "キョウトシフシミク",
    "town": "久米町",
    "town_kana": "クメチョウ",
    "street": null,
    "office_name": null,
    "office_name_kana": null
  },
  "8343": {
    "zip_code": "6128343",
    "prefecture": "京都府",
    "prefecture_kana": "キョウトフ",
    "prefecture_code": 26,
    "city": "京都市伏見区",
    "city_kana": "キョウトシフシミク",
    "town": "聚楽町",
    "town_kana": "ジュラクマチ",
    "street": null,
    "office_name": null,
    "office_name_kana": null
  },
  "8344": {
    "zip_code": "6128344",
    "prefecture": "京都府",
    "prefecture_kana": "キョウトフ",
    "prefecture_code": 26,
    "city": "京都市伏見区",
    "city_kana": "キョウトシフシミク",
    "town": "大津町",
    "town_kana": "オオツマチ",
    "street": null,
    "office_name": null,
    "office_name_kana": null
  },
  "8345": {
    "zip_code": "6128345",
    "prefecture": "京都府",
    "prefecture_kana": "キョウトフ",
    "prefecture_code": 26,
    "city": "京都市伏見区",
    "city_kana": "キョウトシフシミク",
    "town": "西堺町",
    "town_kana": "ニシサカイマチ",
    "street": null,
    "office_name": null,
    "office_name_kana": null
  },
  "8346": {
    "zip_code": "6128346",
    "prefecture": "京都府",
    "prefecture_kana": "キョウトフ",
    "prefecture_code": 26,
    "city": "京都市伏見区",
    "city_kana": "キョウトシフシミク",
    "town": "松屋町",
    "town_kana": "マツヤチョウ",
    "street": null,
    "office_name": null,
    "office_name_kana": null
  },
  "8347": {
    "zip_code": "6128347",
    "prefecture": "京都府",
    "prefecture_kana": "キョウトフ",
    "prefecture_code": 26,
    "city": "京都市伏見区",
    "city_kana": "キョウトシフシミク",
    "town": "成町",
    "town_kana": "ナルマチ",
    "street": null,
    "office_name": null,
    "office_name_kana": null
  },
  "8351": {
    "zip_code": "6128351",
    "prefecture": "京都府",
    "prefecture_kana": "キョウトフ",
    "prefecture_code": 26,
    "city": "京都市伏見区",
    "city_kana": "キョウトシフシミク",
    "town": "土橋町",
    "town_kana": "ドバシチョウ",
    "street": null,
    "office_name": null,
    "office_name_kana": null
  },
  "8352": {
    "zip_code": "6128352",
    "prefecture": "京都府",
    "prefecture_kana": "キョウトフ",
    "prefecture_code": 26,
    "city": "京都市伏見区",
    "city_kana": "キョウトシフシミク",
    "town": "肥後町",
    "town_kana": "ヒゴマチ",
    "street": null,
    "office_name": null,
    "office_name_kana": null
  },
  "8353": {
    "zip_code": "6128353",
    "prefecture": "京都府",
    "prefecture_kana": "キョウトフ",
    "prefecture_code": 26,
    "city": "京都市伏見区",
    "city_kana": "キョウトシフシミク",
    "town": "東町",
    "town_kana": "ヒガシマチ",
    "street": null,
    "office_name": null,
    "office_name_kana": null
  },
  "8354": {
    "zip_code": "6128354",
    "prefecture": "京都府",
    "prefecture_kana": "キョウトフ",
    "prefecture_code": 26,
    "city": "京都市伏見区",
    "city_kana": "キョウトシフシミク",
    "town": "西町",
    "town_kana": "ニシマチ",
    "street": null,
    "office_name": null,
    "office_name_kana": null
  },
  "8355": {
    "zip_code": "6128355",
    "prefecture": "京都府",
    "prefecture_kana": "キョウトフ",
    "prefecture_code": 26,
    "city": "京都市伏見区",
    "city_kana": "キョウトシフシミク",
    "town": "東菱屋町",
    "town_kana": "ヒガシヒシヤチョウ",
    "street": null,
    "office_name": null,
    "office_name_kana": null
  },
  "8356": {
    "zip_code": "6128356",
    "prefecture": "京都府",
    "prefecture_kana": "キョウトフ",
    "prefecture_code": 26,
    "city": "京都市伏見区",
    "city_kana": "キョウトシフシミク",
    "town": "革屋町",
    "town_kana": "カワヤチョウ",
    "street": null,
    "office_name": null,
    "office_name_kana": null
  },
  "8357": {
    "zip_code": "6128357",
    "prefecture": "京都府",
    "prefecture_kana": "キョウトフ",
    "prefecture_code": 26,
    "city": "京都市伏見区",
    "city_kana": "キョウトシフシミク",
    "town": "帯屋町",
    "town_kana": "オビヤチョウ",
    "street": null,
    "office_name": null,
    "office_name_kana": null
  },
  "8358": {
    "zip_code": "6128358",
    "prefecture": "京都府",
    "prefecture_kana": "キョウトフ",
    "prefecture_code": 26,
    "city": "京都市伏見区",
    "city_kana": "キョウトシフシミク",
    "town": "西尼崎町",
    "town_kana": "ニシアマガサキチョウ",
    "street": null,
    "office_name": null,
    "office_name_kana": null
  },
  "8359": {
    "zip_code": "6128359",
    "prefecture": "京都府",
    "prefecture_kana": "キョウトフ",
    "prefecture_code": 26,
    "city": "京都市伏見区",
    "city_kana": "キョウトシフシミク",
    "town": "問屋町",
    "town_kana": "トイヤマチ",
    "street": null,
    "office_name": null,
    "office_name_kana": null
  },
  "8361": {
    "zip_code": "6128361",
    "prefecture": "京都府",
    "prefecture_kana": "キョウトフ",
    "prefecture_code": 26,
    "city": "京都市伏見区",
    "city_kana": "キョウトシフシミク",
    "town": "片原町",
    "town_kana": "カタハラチョウ",
    "street": null,
    "office_name": null,
    "office_name_kana": null
  },
  "8362": {
    "zip_code": "6128362",
    "prefecture": "京都府",
    "prefecture_kana": "キョウトフ",
    "prefecture_code": 26,
    "city": "京都市伏見区",
    "city_kana": "キョウトシフシミク",
    "town": "西大手町",
    "town_kana": "ニシオオテチョウ",
    "street": null,
    "office_name": null,
    "office_name_kana": null
  },
  "8363": {
    "zip_code": "6128363",
    "prefecture": "京都府",
    "prefecture_kana": "キョウトフ",
    "prefecture_code": 26,
    "city": "京都市伏見区",
    "city_kana": "キョウトシフシミク",
    "town": "納屋町",
    "town_kana": "ナヤマチ",
    "street": null,
    "office_name": null,
    "office_name_kana": null
  },
  "8364": {
    "zip_code": "6128364",
    "prefecture": "京都府",
    "prefecture_kana": "キョウトフ",
    "prefecture_code": 26,
    "city": "京都市伏見区",
    "city_kana": "キョウトシフシミク",
    "town": "下油掛町",
    "town_kana": "シモアブラカケチョウ",
    "street": null,
    "office_name": null,
    "office_name_kana": null
  },
  "8365": {
    "zip_code": "6128365",
    "prefecture": "京都府",
    "prefecture_kana": "キョウトフ",
    "prefecture_code": 26,
    "city": "京都市伏見区",
    "city_kana": "キョウトシフシミク",
    "town": "車町",
    "town_kana": "クルママチ",
    "street": null,
    "office_name": null,
    "office_name_kana": null
  },
  "8366": {
    "zip_code": "6128366",
    "prefecture": "京都府",
    "prefecture_kana": "キョウトフ",
    "prefecture_code": 26,
    "city": "京都市伏見区",
    "city_kana": "キョウトシフシミク",
    "town": "京橋町",
    "town_kana": "キョウバシチョウ",
    "street": null,
    "office_name": null,
    "office_name_kana": null
  },
  "8367": {
    "zip_code": "6128367",
    "prefecture": "京都府",
    "prefecture_kana": "キョウトフ",
    "prefecture_code": 26,
    "city": "京都市伏見区",
    "city_kana": "キョウトシフシミク",
    "town": "山崎町",
    "town_kana": "ヤマザキチョウ",
    "street": null,
    "office_name": null,
    "office_name_kana": null
  },
  "8368": {
    "zip_code": "6128368",
    "prefecture": "京都府",
    "prefecture_kana": "キョウトフ",
    "prefecture_code": 26,
    "city": "京都市伏見区",
    "city_kana": "キョウトシフシミク",
    "town": "周防町",
    "town_kana": "スオウチョウ",
    "street": null,
    "office_name": null,
    "office_name_kana": null
  },
  "8369": {
    "zip_code": "6128369",
    "prefecture": "京都府",
    "prefecture_kana": "キョウトフ",
    "prefecture_code": 26,
    "city": "京都市伏見区",
    "city_kana": "キョウトシフシミク",
    "town": "村上町",
    "town_kana": "ムラカミチョウ",
    "street": null,
    "office_name": null,
    "office_name_kana": null
  },
  "8371": {
    "zip_code": "6128371",
    "prefecture": "京都府",
    "prefecture_kana": "キョウトフ",
    "prefecture_code": 26,
    "city": "京都市伏見区",
    "city_kana": "キョウトシフシミク",
    "town": "竹田松林町",
    "town_kana": "タケダマツバヤシチョウ",
    "street": null,
    "office_name": null,
    "office_name_kana": null
  },
  "8372": {
    "zip_code": "6128372",
    "prefecture": "京都府",
    "prefecture_kana": "キョウトフ",
    "prefecture_code": 26,
    "city": "京都市伏見区",
    "city_kana": "キョウトシフシミク",
    "town": "北端町",
    "town_kana": "キタハタチョウ",
    "street": null,
    "office_name": null,
    "office_name_kana": null
  },
  "8373": {
    "zip_code": "6128373",
    "prefecture": "京都府",
    "prefecture_kana": "キョウトフ",
    "prefecture_code": 26,
    "city": "京都市伏見区",
    "city_kana": "キョウトシフシミク",
    "town": "毛利町",
    "town_kana": "モウリチョウ",
    "street": null,
    "office_name": null,
    "office_name_kana": null
  },
  "8374": {
    "zip_code": "6128374",
    "prefecture": "京都府",
    "prefecture_kana": "キョウトフ",
    "prefecture_code": 26,
    "city": "京都市伏見区",
    "city_kana": "キョウトシフシミク",
    "town": "治部町",
    "town_kana": "ジブチョウ",
    "street": null,
    "office_name": null,
    "office_name_kana": null
  },
  "8375": {
    "zip_code": "6128375",
    "prefecture": "京都府",
    "prefecture_kana": "キョウトフ",
    "prefecture_code": 26,
    "city": "京都市伏見区",
    "city_kana": "キョウトシフシミク",
    "town": "川東町",
    "town_kana": "カワヒガシチョウ",
    "street": null,
    "office_name": null,
    "office_name_kana": null
  },
  "8376": {
    "zip_code": "6128376",
    "prefecture": "京都府",
    "prefecture_kana": "キョウトフ",
    "prefecture_code": 26,
    "city": "京都市伏見区",
    "city_kana": "キョウトシフシミク",
    "town": "西大文字町",
    "town_kana": "ニシダイモンジチョウ",
    "street": null,
    "office_name": null,
    "office_name_kana": null
  },
  "8377": {
    "zip_code": "6128377",
    "prefecture": "京都府",
    "prefecture_kana": "キョウトフ",
    "prefecture_code": 26,
    "city": "京都市伏見区",
    "city_kana": "キョウトシフシミク",
    "town": "島津町",
    "town_kana": "シマヅチョウ",
    "street": null,
    "office_name": null,
    "office_name_kana": null
  },
  "8379": {
    "zip_code": "6128379",
    "prefecture": "京都府",
    "prefecture_kana": "キョウトフ",
    "prefecture_code": 26,
    "city": "京都市伏見区",
    "city_kana": "キョウトシフシミク",
    "town": "南寝小屋町",
    "town_kana": "ミナミネコヤチョウ",
    "street": null,
    "office_name": null,
    "office_name_kana": null
  },
  "8381": {
    "zip_code": "6128381",
    "prefecture": "京都府",
    "prefecture_kana": "キョウトフ",
    "prefecture_code": 26,
    "city": "京都市伏見区",
    "city_kana": "キョウトシフシミク",
    "town": "下鳥羽葭田町",
    "town_kana": "シモトバヨシデンチョウ",
    "street": null,
    "office_name": null,
    "office_name_kana": null
  },
  "8384": {
    "zip_code": "6128384",
    "prefecture": "京都府",
    "prefecture_kana": "キョウトフ",
    "prefecture_code": 26,
    "city": "京都市伏見区",
    "city_kana": "キョウトシフシミク",
    "town": "下鳥羽浄春ケ前町",
    "town_kana": "シモトバジョウシュンガマエチョウ",
    "street": null,
    "office_name": null,
    "office_name_kana": null
  },
  "8385": {
    "zip_code": "6128385",
    "prefecture": "京都府",
    "prefecture_kana": "キョウトフ",
    "prefecture_code": 26,
    "city": "京都市伏見区",
    "city_kana": "キョウトシフシミク",
    "town": "下鳥羽小柳町",
    "town_kana": "シモトバコヤナギチョウ",
    "street": null,
    "office_name": null,
    "office_name_kana": null
  },
  "8386": {
    "zip_code": "6128386",
    "prefecture": "京都府",
    "prefecture_kana": "キョウトフ",
    "prefecture_code": 26,
    "city": "京都市伏見区",
    "city_kana": "キョウトシフシミク",
    "town": "下鳥羽澱女町",
    "town_kana": "シモトバヨドメチョウ",
    "street": null,
    "office_name": null,
    "office_name_kana": null
  },
  "8387": {
    "zip_code": "6128387",
    "prefecture": "京都府",
    "prefecture_kana": "キョウトフ",
    "prefecture_code": 26,
    "city": "京都市伏見区",
    "city_kana": "キョウトシフシミク",
    "town": "下鳥羽平塚町",
    "town_kana": "シモトバヒラツカチョウ",
    "street": null,
    "office_name": null,
    "office_name_kana": null
  },
  "8388": {
    "zip_code": "6128388",
    "prefecture": "京都府",
    "prefecture_kana": "キョウトフ",
    "prefecture_code": 26,
    "city": "京都市伏見区",
    "city_kana": "キョウトシフシミク",
    "town": "北寝小屋町",
    "town_kana": "キタネコヤチョウ",
    "street": null,
    "office_name": null,
    "office_name_kana": null
  },
  "8391": {
    "zip_code": "6128391",
    "prefecture": "京都府",
    "prefecture_kana": "キョウトフ",
    "prefecture_code": 26,
    "city": "京都市伏見区",
    "city_kana": "キョウトシフシミク",
    "town": "下鳥羽芹川町",
    "town_kana": "シモトバセリカワチョウ",
    "street": null,
    "office_name": null,
    "office_name_kana": null
  },
  "8392": {
    "zip_code": "6128392",
    "prefecture": "京都府",
    "prefecture_kana": "キョウトフ",
    "prefecture_code": 26,
    "city": "京都市伏見区",
    "city_kana": "キョウトシフシミク",
    "town": "下鳥羽北ノ口町",
    "town_kana": "シモトバキタノクチチョウ",
    "street": null,
    "office_name": null,
    "office_name_kana": null
  },
  "8393": {
    "zip_code": "6128393",
    "prefecture": "京都府",
    "prefecture_kana": "キョウトフ",
    "prefecture_code": 26,
    "city": "京都市伏見区",
    "city_kana": "キョウトシフシミク",
    "town": "下鳥羽渡瀬町",
    "town_kana": "シモトバワタリセチョウ",
    "street": null,
    "office_name": null,
    "office_name_kana": null
  },
  "8394": {
    "zip_code": "6128394",
    "prefecture": "京都府",
    "prefecture_kana": "キョウトフ",
    "prefecture_code": 26,
    "city": "京都市伏見区",
    "city_kana": "キョウトシフシミク",
    "town": "下鳥羽西芹川町",
    "town_kana": "シモトバニシセリカワチョウ",
    "street": null,
    "office_name": null,
    "office_name_kana": null
  },
  "8395": {
    "zip_code": "6128395",
    "prefecture": "京都府",
    "prefecture_kana": "キョウトフ",
    "prefecture_code": 26,
    "city": "京都市伏見区",
    "city_kana": "キョウトシフシミク",
    "town": "下鳥羽東芹川町",
    "town_kana": "シモトバヒガシセリカワチョウ",
    "street": null,
    "office_name": null,
    "office_name_kana": null
  },
  "8401": {
    "zip_code": "6128401",
    "prefecture": "京都府",
    "prefecture_kana": "キョウトフ",
    "prefecture_code": 26,
    "city": "京都市伏見区",
    "city_kana": "キョウトシフシミク",
    "town": "深草下川原町",
    "town_kana": "フカクサシモガワラチョウ",
    "street": null,
    "office_name": null,
    "office_name_kana": null
  },
  "8402": {
    "zip_code": "6128402",
    "prefecture": "京都府",
    "prefecture_kana": "キョウトフ",
    "prefecture_code": 26,
    "city": "京都市伏見区",
    "city_kana": "キョウトシフシミク",
    "town": "深草川久保町",
    "town_kana": "フカクサカワクボチョウ",
    "street": null,
    "office_name": null,
    "office_name_kana": null
  },
  "8403": {
    "zip_code": "6128403",
    "prefecture": "京都府",
    "prefecture_kana": "キョウトフ",
    "prefecture_code": 26,
    "city": "京都市伏見区",
    "city_kana": "キョウトシフシミク",
    "town": "深草ヲカヤ町",
    "town_kana": "フカクサオカヤチョウ",
    "street": null,
    "office_name": null,
    "office_name_kana": null
  },
  "8404": {
    "zip_code": "6128404",
    "prefecture": "京都府",
    "prefecture_kana": "キョウトフ",
    "prefecture_code": 26,
    "city": "京都市伏見区",
    "city_kana": "キョウトシフシミク",
    "town": "深草向川原町",
    "town_kana": "フカクサムカイガワラチョウ",
    "street": null,
    "office_name": null,
    "office_name_kana": null
  },
  "8405": {
    "zip_code": "6128405",
    "prefecture": "京都府",
    "prefecture_kana": "キョウトフ",
    "prefecture_code": 26,
    "city": "京都市伏見区",
    "city_kana": "キョウトシフシミク",
    "town": "深草勧進橋町",
    "town_kana": "フカクサカンジンバシチョウ",
    "street": null,
    "office_name": null,
    "office_name_kana": null
  },
  "8411": {
    "zip_code": "6128411",
    "prefecture": "京都府",
    "prefecture_kana": "キョウトフ",
    "prefecture_code": 26,
    "city": "京都市伏見区",
    "city_kana": "キョウトシフシミク",
    "town": "竹田久保町",
    "town_kana": "タケダクボチョウ",
    "street": null,
    "office_name": null,
    "office_name_kana": null
  },
  "8412": {
    "zip_code": "6128412",
    "prefecture": "京都府",
    "prefecture_kana": "キョウトフ",
    "prefecture_code": 26,
    "city": "京都市伏見区",
    "city_kana": "キョウトシフシミク",
    "town": "竹田中川原町",
    "town_kana": "タケダナカガワラチョウ",
    "street": null,
    "office_name": null,
    "office_name_kana": null
  },
  "8413": {
    "zip_code": "6128413",
    "prefecture": "京都府",
    "prefecture_kana": "キョウトフ",
    "prefecture_code": 26,
    "city": "京都市伏見区",
    "city_kana": "キョウトシフシミク",
    "town": "竹田三ツ杭町",
    "town_kana": "タケダミツグイチョウ",
    "street": null,
    "office_name": null,
    "office_name_kana": null
  },
  "8414": {
    "zip_code": "6128414",
    "prefecture": "京都府",
    "prefecture_kana": "キョウトフ",
    "prefecture_code": 26,
    "city": "京都市伏見区",
    "city_kana": "キョウトシフシミク",
    "town": "竹田段川原町",
    "town_kana": "タケダダンガワラチョウ",
    "street": null,
    "office_name": null,
    "office_name_kana": null
  },
  "8415": {
    "zip_code": "6128415",
    "prefecture": "京都府",
    "prefecture_kana": "キョウトフ",
    "prefecture_code": 26,
    "city": "京都市伏見区",
    "city_kana": "キョウトシフシミク",
    "town": "竹田中島町",
    "town_kana": "タケダナカジマチョウ",
    "street": null,
    "office_name": null,
    "office_name_kana": null
  },
  "8416": {
    "zip_code": "6128416",
    "prefecture": "京都府",
    "prefecture_kana": "キョウトフ",
    "prefecture_code": 26,
    "city": "京都市伏見区",
    "city_kana": "キョウトシフシミク",
    "town": "竹田流池町",
    "town_kana": "タケダリュウチチョウ",
    "street": null,
    "office_name": null,
    "office_name_kana": null
  },
  "8417": {
    "zip_code": "6128417",
    "prefecture": "京都府",
    "prefecture_kana": "キョウトフ",
    "prefecture_code": 26,
    "city": "京都市伏見区",
    "city_kana": "キョウトシフシミク",
    "town": "竹田向代町川町",
    "town_kana": "タケダムカイシロチョウカワマチ",
    "street": null,
    "office_name": null,
    "office_name_kana": null
  },
  "8418": {
    "zip_code": "6128418",
    "prefecture": "京都府",
    "prefecture_kana": "キョウトフ",
    "prefecture_code": 26,
    "city": "京都市伏見区",
    "city_kana": "キョウトシフシミク",
    "town": "竹田向代町",
    "town_kana": "タケダムカイシロチョウ",
    "street": null,
    "office_name": null,
    "office_name_kana": null
  },
  "8419": {
    "zip_code": "6128419",
    "prefecture": "京都府",
    "prefecture_kana": "キョウトフ",
    "prefecture_code": 26,
    "city": "京都市伏見区",
    "city_kana": "キョウトシフシミク",
    "town": "竹田北三ツ杭町",
    "town_kana": "タケダキタミツグイチョウ",
    "street": null,
    "office_name": null,
    "office_name_kana": null
  },
  "8421": {
    "zip_code": "6128421",
    "prefecture": "京都府",
    "prefecture_kana": "キョウトフ",
    "prefecture_code": 26,
    "city": "京都市伏見区",
    "city_kana": "キョウトシフシミク",
    "town": "竹田桶ノ井町",
    "town_kana": "タケダオケノイチョウ",
    "street": null,
    "office_name": null,
    "office_name_kana": null
  },
  "8422": {
    "zip_code": "6128422",
    "prefecture": "京都府",
    "prefecture_kana": "キョウトフ",
    "prefecture_code": 26,
    "city": "京都市伏見区",
    "city_kana": "キョウトシフシミク",
    "town": "竹田七瀬川町",
    "town_kana": "タケダナナセガワチョウ",
    "street": null,
    "office_name": null,
    "office_name_kana": null
  },
  "8423": {
    "zip_code": "6128423",
    "prefecture": "京都府",
    "prefecture_kana": "キョウトフ",
    "prefecture_code": 26,
    "city": "京都市伏見区",
    "city_kana": "キョウトシフシミク",
    "town": "竹田内畑町",
    "town_kana": "タケダウチハタチョウ",
    "street": null,
    "office_name": null,
    "office_name_kana": null
  },
  "8425": {
    "zip_code": "6128425",
    "prefecture": "京都府",
    "prefecture_kana": "キョウトフ",
    "prefecture_code": 26,
    "city": "京都市伏見区",
    "city_kana": "キョウトシフシミク",
    "town": "竹田田中殿町",
    "town_kana": "タケダタナカデンチョウ",
    "street": null,
    "office_name": null,
    "office_name_kana": null
  },
  "8426": {
    "zip_code": "6128426",
    "prefecture": "京都府",
    "prefecture_kana": "キョウトフ",
    "prefecture_code": 26,
    "city": "京都市伏見区",
    "city_kana": "キョウトシフシミク",
    "town": "竹田青池町",
    "town_kana": "タケダアオイケチョウ",
    "street": null,
    "office_name": null,
    "office_name_kana": null
  },
  "8427": {
    "zip_code": "6128427",
    "prefecture": "京都府",
    "prefecture_kana": "キョウトフ",
    "prefecture_code": 26,
    "city": "京都市伏見区",
    "city_kana": "キョウトシフシミク",
    "town": "竹田真幡木町",
    "town_kana": "タケダマハタギチョウ",
    "street": null,
    "office_name": null,
    "office_name_kana": null
  },
  "8428": {
    "zip_code": "6128428",
    "prefecture": "京都府",
    "prefecture_kana": "キョウトフ",
    "prefecture_code": 26,
    "city": "京都市伏見区",
    "city_kana": "キョウトシフシミク",
    "town": "竹田西桶ノ井町",
    "town_kana": "タケダニシオケノイチョウ",
    "street": null,
    "office_name": null,
    "office_name_kana": null
  },
  "8429": {
    "zip_code": "6128429",
    "prefecture": "京都府",
    "prefecture_kana": "キョウトフ",
    "prefecture_code": 26,
    "city": "京都市伏見区",
    "city_kana": "キョウトシフシミク",
    "town": "竹田西段川原町",
    "town_kana": "タケダニシダンガワラチョウ",
    "street": null,
    "office_name": null,
    "office_name_kana": null
  },
  "8431": {
    "zip_code": "6128431",
    "prefecture": "京都府",
    "prefecture_kana": "キョウトフ",
    "prefecture_code": 26,
    "city": "京都市伏見区",
    "city_kana": "キョウトシフシミク",
    "town": "深草越後屋敷町",
    "town_kana": "フカクサエチゴヤシキチョウ",
    "street": null,
    "office_name": null,
    "office_name_kana": null
  },
  "8432": {
    "zip_code": "6128432",
    "prefecture": "京都府",
    "prefecture_kana": "キョウトフ",
    "prefecture_code": 26,
    "city": "京都市伏見区",
    "city_kana": "キョウトシフシミク",
    "town": "深草柴田屋敷町",
    "town_kana": "フカクサシバタヤシキチョウ",
    "street": null,
    "office_name": null,
    "office_name_kana": null
  },
  "8433": {
    "zip_code": "6128433",
    "prefecture": "京都府",
    "prefecture_kana": "キョウトフ",
    "prefecture_code": 26,
    "city": "京都市伏見区",
    "city_kana": "キョウトシフシミク",
    "town": "深草善導寺町",
    "town_kana": "フカクサゼンドウジチョウ",
    "street": null,
    "office_name": null,
    "office_name_kana": null
  },
  "8434": {
    "zip_code": "6128434",
    "prefecture": "京都府",
    "prefecture_kana": "キョウトフ",
    "prefecture_code": 26,
    "city": "京都市伏見区",
    "city_kana": "キョウトシフシミク",
    "town": "深草加賀屋敷町",
    "town_kana": "フカクサカガヤシキチョウ",
    "street": null,
    "office_name": null,
    "office_name_kana": null
  },
  "8435": {
    "zip_code": "6128435",
    "prefecture": "京都府",
    "prefecture_kana": "キョウトフ",
    "prefecture_code": 26,
    "city": "京都市伏見区",
    "city_kana": "キョウトシフシミク",
    "town": "深草泓ノ壺町",
    "town_kana": "フカクサフケノツボチョウ",
    "street": null,
    "office_name": null,
    "office_name_kana": null
  },
  "8436": {
    "zip_code": "6128436",
    "prefecture": "京都府",
    "prefecture_kana": "キョウトフ",
    "prefecture_code": 26,
    "city": "京都市伏見区",
    "city_kana": "キョウトシフシミク",
    "town": "深草新門丈町",
    "town_kana": "フカクサシンモンジョウチョウ",
    "street": null,
    "office_name": null,
    "office_name_kana": null
  },
  "8437": {
    "zip_code": "6128437",
    "prefecture": "京都府",
    "prefecture_kana": "キョウトフ",
    "prefecture_code": 26,
    "city": "京都市伏見区",
    "city_kana": "キョウトシフシミク",
    "town": "深草小久保町",
    "town_kana": "フカクサコクボチョウ",
    "street": null,
    "office_name": null,
    "office_name_kana": null
  },
  "8438": {
    "zip_code": "6128438",
    "prefecture": "京都府",
    "prefecture_kana": "キョウトフ",
    "prefecture_code": 26,
    "city": "京都市伏見区",
    "city_kana": "キョウトシフシミク",
    "town": "深草フチ町",
    "town_kana": "フカクサフチチョウ",
    "street": null,
    "office_name": null,
    "office_name_kana": null
  },
  "8439": {
    "zip_code": "6128439",
    "prefecture": "京都府",
    "prefecture_kana": "キョウトフ",
    "prefecture_code": 26,
    "city": "京都市伏見区",
    "city_kana": "キョウトシフシミク",
    "town": "深草五反田町",
    "town_kana": "フカクサゴタンダチョウ",
    "street": null,
    "office_name": null,
    "office_name_kana": null
  },
  "8441": {
    "zip_code": "6128441",
    "prefecture": "京都府",
    "prefecture_kana": "キョウトフ",
    "prefecture_code": 26,
    "city": "京都市伏見区",
    "city_kana": "キョウトシフシミク",
    "town": "竹田醍醐田町",
    "town_kana": "タケダダイゴデンチョウ",
    "street": null,
    "office_name": null,
    "office_name_kana": null
  },
  "8442": {
    "zip_code": "6128442",
    "prefecture": "京都府",
    "prefecture_kana": "キョウトフ",
    "prefecture_code": 26,
    "city": "京都市伏見区",
    "city_kana": "キョウトシフシミク",
    "town": "竹田狩賀町",
    "town_kana": "タケダカルガチョウ",
    "street": null,
    "office_name": null,
    "office_name_kana": null
  },
  "8443": {
    "zip_code": "6128443",
    "prefecture": "京都府",
    "prefecture_kana": "キョウトフ",
    "prefecture_code": 26,
    "city": "京都市伏見区",
    "city_kana": "キョウトシフシミク",
    "town": "竹田藁屋町",
    "town_kana": "タケダワラヤチョウ",
    "street": null,
    "office_name": null,
    "office_name_kana": null
  },
  "8444": {
    "zip_code": "6128444",
    "prefecture": "京都府",
    "prefecture_kana": "キョウトフ",
    "prefecture_code": 26,
    "city": "京都市伏見区",
    "city_kana": "キョウトシフシミク",
    "town": "竹田田中宮町",
    "town_kana": "タケダタナカミヤチョウ",
    "street": null,
    "office_name": null,
    "office_name_kana": null
  },
  "8445": {
    "zip_code": "6128445",
    "prefecture": "京都府",
    "prefecture_kana": "キョウトフ",
    "prefecture_code": 26,
    "city": "京都市伏見区",
    "city_kana": "キョウトシフシミク",
    "town": "竹田浄菩提院町",
    "town_kana": "タケダジョウボダイインチョウ",
    "street": null,
    "office_name": null,
    "office_name_kana": null
  },
  "8446": {
    "zip_code": "6128446",
    "prefecture": "京都府",
    "prefecture_kana": "キョウトフ",
    "prefecture_code": 26,
    "city": "京都市伏見区",
    "city_kana": "キョウトシフシミク",
    "town": "竹田中内畑町",
    "town_kana": "タケダナカウチハタチョウ",
    "street": null,
    "office_name": null,
    "office_name_kana": null
  },
  "8447": {
    "zip_code": "6128447",
    "prefecture": "京都府",
    "prefecture_kana": "キョウトフ",
    "prefecture_code": 26,
    "city": "京都市伏見区",
    "city_kana": "キョウトシフシミク",
    "town": "竹田西内畑町",
    "town_kana": "タケダニシウチハタチョウ",
    "street": null,
    "office_name": null,
    "office_name_kana": null
  },
  "8448": {
    "zip_code": "6128448",
    "prefecture": "京都府",
    "prefecture_kana": "キョウトフ",
    "prefecture_code": 26,
    "city": "京都市伏見区",
    "city_kana": "キョウトシフシミク",
    "town": "竹田東小屋ノ内町",
    "town_kana": "タケダヒガシコヤノウチチョウ",
    "street": null,
    "office_name": null,
    "office_name_kana": null
  },
  "8449": {
    "zip_code": "6128449",
    "prefecture": "京都府",
    "prefecture_kana": "キョウトフ",
    "prefecture_code": 26,
    "city": "京都市伏見区",
    "city_kana": "キョウトシフシミク",
    "town": "竹田西小屋ノ内町",
    "town_kana": "タケダニシコヤノウチチョウ",
    "street": null,
    "office_name": null,
    "office_name_kana": null
  },
  "8450": {
    "zip_code": "6128450",
    "prefecture": "京都府",
    "prefecture_kana": "キョウトフ",
    "prefecture_code": 26,
    "city": "京都市伏見区",
    "city_kana": "キョウトシフシミク",
    "town": "竹田鳥羽殿町",
    "town_kana": "タケダトバドノチョウ",
    "street": null,
    "office_name": null,
    "office_name_kana": null
  },
  "8451": {
    "zip_code": "6128451",
    "prefecture": "京都府",
    "prefecture_kana": "キョウトフ",
    "prefecture_code": 26,
    "city": "京都市伏見区",
    "city_kana": "キョウトシフシミク",
    "town": "中島北ノ口町",
    "town_kana": "ナカジマキタノクチチョウ",
    "street": null,
    "office_name": null,
    "office_name_kana": null
  },
  "8452": {
    "zip_code": "6128452",
    "prefecture": "京都府",
    "prefecture_kana": "キョウトフ",
    "prefecture_code": 26,
    "city": "京都市伏見区",
    "city_kana": "キョウトシフシミク",
    "town": "中島堀端町",
    "town_kana": "ナカジマホリバタチョウ",
    "street": null,
    "office_name": null,
    "office_name_kana": null
  },
  "8454": {
    "zip_code": "6128454",
    "prefecture": "京都府",
    "prefecture_kana": "キョウトフ",
    "prefecture_code": 26,
    "city": "京都市伏見区",
    "city_kana": "キョウトシフシミク",
    "town": "竹田泓ノ川町",
    "town_kana": "タケダフケノガワチョウ",
    "street": null,
    "office_name": null,
    "office_name_kana": null
  },
  "8455": {
    "zip_code": "6128455",
    "prefecture": "京都府",
    "prefecture_kana": "キョウトフ",
    "prefecture_code": 26,
    "city": "京都市伏見区",
    "city_kana": "キョウトシフシミク",
    "town": "中島外山町",
    "town_kana": "ナカジマソトヤマチョウ",
    "street": null,
    "office_name": null,
    "office_name_kana": null
  },
  "8456": {
    "zip_code": "6128456",
    "prefecture": "京都府",
    "prefecture_kana": "キョウトフ",
    "prefecture_code": 26,
    "city": "京都市伏見区",
    "city_kana": "キョウトシフシミク",
    "town": "中島中道町",
    "town_kana": "ナカジマナカミチチョウ",
    "street": null,
    "office_name": null,
    "office_name_kana": null
  },
  "8457": {
    "zip_code": "6128457",
    "prefecture": "京都府",
    "prefecture_kana": "キョウトフ",
    "prefecture_code": 26,
    "city": "京都市伏見区",
    "city_kana": "キョウトシフシミク",
    "town": "中島宮ノ前町",
    "town_kana": "ナカジマミヤノマエチョウ",
    "street": null,
    "office_name": null,
    "office_name_kana": null
  },
  "8459": {
    "zip_code": "6128459",
    "prefecture": "京都府",
    "prefecture_kana": "キョウトフ",
    "prefecture_code": 26,
    "city": "京都市伏見区",
    "city_kana": "キョウトシフシミク",
    "town": "中島鳥羽離宮町",
    "town_kana": "ナカジマトバリキュウチョウ",
    "street": null,
    "office_name": null,
    "office_name_kana": null
  },
  "8461": {
    "zip_code": "6128461",
    "prefecture": "京都府",
    "prefecture_kana": "キョウトフ",
    "prefecture_code": 26,
    "city": "京都市伏見区",
    "city_kana": "キョウトシフシミク",
    "town": "中島流作町",
    "town_kana": "ナカジマリュウサクチョウ",
    "street": null,
    "office_name": null,
    "office_name_kana": null
  },
  "8462": {
    "zip_code": "6128462",
    "prefecture": "京都府",
    "prefecture_kana": "キョウトフ",
    "prefecture_code": 26,
    "city": "京都市伏見区",
    "city_kana": "キョウトシフシミク",
    "town": "中島秋ノ山町",
    "town_kana": "ナカジマアキノヤマチョウ",
    "street": null,
    "office_name": null,
    "office_name_kana": null
  },
  "8463": {
    "zip_code": "6128463",
    "prefecture": "京都府",
    "prefecture_kana": "キョウトフ",
    "prefecture_code": 26,
    "city": "京都市伏見区",
    "city_kana": "キョウトシフシミク",
    "town": "中島御所ノ内町",
    "town_kana": "ナカジマゴショノウチチョウ",
    "street": null,
    "office_name": null,
    "office_name_kana": null
  },
  "8464": {
    "zip_code": "6128464",
    "prefecture": "京都府",
    "prefecture_kana": "キョウトフ",
    "prefecture_code": 26,
    "city": "京都市伏見区",
    "city_kana": "キョウトシフシミク",
    "town": "中島前山町",
    "town_kana": "ナカジママエヤマチョウ",
    "street": null,
    "office_name": null,
    "office_name_kana": null
  },
  "8465": {
    "zip_code": "6128465",
    "prefecture": "京都府",
    "prefecture_kana": "キョウトフ",
    "prefecture_code": 26,
    "city": "京都市伏見区",
    "city_kana": "キョウトシフシミク",
    "town": "中島樋ノ上町",
    "town_kana": "ナカジマヒノカミチョウ",
    "street": null,
    "office_name": null,
    "office_name_kana": null
  },
  "8466": {
    "zip_code": "6128466",
    "prefecture": "京都府",
    "prefecture_kana": "キョウトフ",
    "prefecture_code": 26,
    "city": "京都市伏見区",
    "city_kana": "キョウトシフシミク",
    "town": "下鳥羽城ノ越町",
    "town_kana": "シモトバシロノコシチョウ",
    "street": null,
    "office_name": null,
    "office_name_kana": null
  },
  "8467": {
    "zip_code": "6128467",
    "prefecture": "京都府",
    "prefecture_kana": "キョウトフ",
    "prefecture_code": 26,
    "city": "京都市伏見区",
    "city_kana": "キョウトシフシミク",
    "town": "下鳥羽前田町",
    "town_kana": "シモトバマエダチョウ",
    "street": null,
    "office_name": null,
    "office_name_kana": null
  },
  "8468": {
    "zip_code": "6128468",
    "prefecture": "京都府",
    "prefecture_kana": "キョウトフ",
    "prefecture_code": 26,
    "city": "京都市伏見区",
    "city_kana": "キョウトシフシミク",
    "town": "下鳥羽上向島町",
    "town_kana": "シモトバカミムカイジマチョウ",
    "street": null,
    "office_name": null,
    "office_name_kana": null
  },
  "8469": {
    "zip_code": "6128469",
    "prefecture": "京都府",
    "prefecture_kana": "キョウトフ",
    "prefecture_code": 26,
    "city": "京都市伏見区",
    "city_kana": "キョウトシフシミク",
    "town": "中島河原田町",
    "town_kana": "ナカジマカワラデンチョウ",
    "street": null,
    "office_name": null,
    "office_name_kana": null
  },
  "8471": {
    "zip_code": "6128471",
    "prefecture": "京都府",
    "prefecture_kana": "キョウトフ",
    "prefecture_code": 26,
    "city": "京都市伏見区",
    "city_kana": "キョウトシフシミク",
    "town": "下鳥羽長田町",
    "town_kana": "シモトバオサダチョウ",
    "street": null,
    "office_name": null,
    "office_name_kana": null
  },
  "8473": {
    "zip_code": "6128473",
    "prefecture": "京都府",
    "prefecture_kana": "キョウトフ",
    "prefecture_code": 26,
    "city": "京都市伏見区",
    "city_kana": "キョウトシフシミク",
    "town": "下鳥羽広長町",
    "town_kana": "シモトバヒロオサチョウ",
    "street": null,
    "office_name": null,
    "office_name_kana": null
  },
  "8476": {
    "zip_code": "6128476",
    "prefecture": "京都府",
    "prefecture_kana": "キョウトフ",
    "prefecture_code": 26,
    "city": "京都市伏見区",
    "city_kana": "キョウトシフシミク",
    "town": "下鳥羽北三町",
    "town_kana": "シモトバキタサンチョウ",
    "street": null,
    "office_name": null,
    "office_name_kana": null
  },
  "8477": {
    "zip_code": "6128477",
    "prefecture": "京都府",
    "prefecture_kana": "キョウトフ",
    "prefecture_code": 26,
    "city": "京都市伏見区",
    "city_kana": "キョウトシフシミク",
    "town": "下鳥羽中三町",
    "town_kana": "シモトバナカサンチョウ",
    "street": null,
    "office_name": null,
    "office_name_kana": null
  },
  "8478": {
    "zip_code": "6128478",
    "prefecture": "京都府",
    "prefecture_kana": "キョウトフ",
    "prefecture_code": 26,
    "city": "京都市伏見区",
    "city_kana": "キョウトシフシミク",
    "town": "下鳥羽南三町",
    "town_kana": "シモトバミナミサンチョウ",
    "street": null,
    "office_name": null,
    "office_name_kana": null
  },
  "8481": {
    "zip_code": "6128481",
    "prefecture": "京都府",
    "prefecture_kana": "キョウトフ",
    "prefecture_code": 26,
    "city": "京都市伏見区",
    "city_kana": "キョウトシフシミク",
    "town": "横大路東裏町",
    "town_kana": "ヨコオオジヒガシウラチョウ",
    "street": null,
    "office_name": null,
    "office_name_kana": null
  },
  "8482": {
    "zip_code": "6128482",
    "prefecture": "京都府",
    "prefecture_kana": "キョウトフ",
    "prefecture_code": 26,
    "city": "京都市伏見区",
    "city_kana": "キョウトシフシミク",
    "town": "横大路中ノ庄町",
    "town_kana": "ヨコオオジナカノショウチョウ",
    "street": null,
    "office_name": null,
    "office_name_kana": null
  },
  "8483": {
    "zip_code": "6128483",
    "prefecture": "京都府",
    "prefecture_kana": "キョウトフ",
    "prefecture_code": 26,
    "city": "京都市伏見区",
    "city_kana": "キョウトシフシミク",
    "town": "横大路草津町",
    "town_kana": "ヨコオオジクサツチョウ",
    "street": null,
    "office_name": null,
    "office_name_kana": null
  },
  "8484": {
    "zip_code": "6128484",
    "prefecture": "京都府",
    "prefecture_kana": "キョウトフ",
    "prefecture_code": 26,
    "city": "京都市伏見区",
    "city_kana": "キョウトシフシミク",
    "town": "羽束師鴨川町",
    "town_kana": "ハヅカシカモガワチョウ",
    "street": null,
    "office_name": null,
    "office_name_kana": null
  },
  "8485": {
    "zip_code": "6128485",
    "prefecture": "京都府",
    "prefecture_kana": "キョウトフ",
    "prefecture_code": 26,
    "city": "京都市伏見区",
    "city_kana": "キョウトシフシミク",
    "town": "羽束師志水町",
    "town_kana": "ハヅカシシミズチョウ",
    "street": null,
    "office_name": null,
    "office_name_kana": null
  },
  "8486": {
    "zip_code": "6128486",
    "prefecture": "京都府",
    "prefecture_kana": "キョウトフ",
    "prefecture_code": 26,
    "city": "京都市伏見区",
    "city_kana": "キョウトシフシミク",
    "town": "羽束師古川町",
    "town_kana": "ハヅカシフルカワチョウ",
    "street": null,
    "office_name": null,
    "office_name_kana": null
  },
  "8487": {
    "zip_code": "6128487",
    "prefecture": "京都府",
    "prefecture_kana": "キョウトフ",
    "prefecture_code": 26,
    "city": "京都市伏見区",
    "city_kana": "キョウトシフシミク",
    "town": "羽束師菱川町",
    "town_kana": "ハヅカシヒシカワチョウ",
    "street": null,
    "office_name": null,
    "office_name_kana": null
  },
  "8488": {
    "zip_code": "6128488",
    "prefecture": "京都府",
    "prefecture_kana": "キョウトフ",
    "prefecture_code": 26,
    "city": "京都市伏見区",
    "city_kana": "キョウトシフシミク",
    "town": "下鳥羽東柳長町",
    "town_kana": "シモトバヒガシヤナギオサチョウ",
    "street": null,
    "office_name": null,
    "office_name_kana": null
  },
  "8489": {
    "zip_code": "6128489",
    "prefecture": "京都府",
    "prefecture_kana": "キョウトフ",
    "prefecture_code": 26,
    "city": "京都市伏見区",
    "city_kana": "キョウトシフシミク",
    "town": "下鳥羽西柳長町",
    "town_kana": "シモトバニシヤナギオサチョウ",
    "street": null,
    "office_name": null,
    "office_name_kana": null
  },
  "8490": {
    "zip_code": "6128490",
    "prefecture": "京都府",
    "prefecture_kana": "キョウトフ",
    "prefecture_code": 26,
    "city": "京都市伏見区",
    "city_kana": "キョウトシフシミク",
    "town": "下鳥羽南柳長町",
    "town_kana": "シモトバミナミヤナギオサチョウ",
    "street": null,
    "office_name": null,
    "office_name_kana": null
  },
  "8491": {
    "zip_code": "6128491",
    "prefecture": "京都府",
    "prefecture_kana": "キョウトフ",
    "prefecture_code": 26,
    "city": "京都市伏見区",
    "city_kana": "キョウトシフシミク",
    "town": "久我石原町",
    "town_kana": "コガイシハラチョウ",
    "street": null,
    "office_name": null,
    "office_name_kana": null
  },
  "8492": {
    "zip_code": "6128492",
    "prefecture": "京都府",
    "prefecture_kana": "キョウトフ",
    "prefecture_code": 26,
    "city": "京都市伏見区",
    "city_kana": "キョウトシフシミク",
    "town": "久我本町",
    "town_kana": "コガホンマチ",
    "street": null,
    "office_name": null,
    "office_name_kana": null
  },
  "8493": {
    "zip_code": "6128493",
    "prefecture": "京都府",
    "prefecture_kana": "キョウトフ",
    "prefecture_code": 26,
    "city": "京都市伏見区",
    "city_kana": "キョウトシフシミク",
    "town": "久我御旅町",
    "town_kana": "コガオタビチョウ",
    "street": null,
    "office_name": null,
    "office_name_kana": null
  },
  "8494": {
    "zip_code": "6128494",
    "prefecture": "京都府",
    "prefecture_kana": "キョウトフ",
    "prefecture_code": 26,
    "city": "京都市伏見区",
    "city_kana": "キョウトシフシミク",
    "town": "久我東町",
    "town_kana": "コガアズマチョウ",
    "street": null,
    "office_name": null,
    "office_name_kana": null
  },
  "8495": {
    "zip_code": "6128495",
    "prefecture": "京都府",
    "prefecture_kana": "キョウトフ",
    "prefecture_code": 26,
    "city": "京都市伏見区",
    "city_kana": "キョウトシフシミク",
    "town": "久我森の宮町",
    "town_kana": "コガモリノミヤチョウ",
    "street": null,
    "office_name": null,
    "office_name_kana": null
  },
  "8496": {
    "zip_code": "6128496",
    "prefecture": "京都府",
    "prefecture_kana": "キョウトフ",
    "prefecture_code": 26,
    "city": "京都市伏見区",
    "city_kana": "キョウトシフシミク",
    "town": "久我西出町",
    "town_kana": "コガニシデチョウ",
    "street": null,
    "office_name": null,
    "office_name_kana": null
  },
  "8497": {
    "zip_code": "6128497",
    "prefecture": "京都府",
    "prefecture_kana": "キョウトフ",
    "prefecture_code": 26,
    "city": "京都市伏見区",
    "city_kana": "キョウトシフシミク",
    "town": "下鳥羽北円面田町",
    "town_kana": "シモトバキタエンメンデンチョウ",
    "street": null,
    "office_name": null,
    "office_name_kana": null
  },
  "8498": {
    "zip_code": "6128498",
    "prefecture": "京都府",
    "prefecture_kana": "キョウトフ",
    "prefecture_code": 26,
    "city": "京都市伏見区",
    "city_kana": "キョウトシフシミク",
    "town": "下鳥羽中円面田町",
    "town_kana": "シモトバナカエンメンデンチョウ",
    "street": null,
    "office_name": null,
    "office_name_kana": null
  },
  "8499": {
    "zip_code": "6128499",
    "prefecture": "京都府",
    "prefecture_kana": "キョウトフ",
    "prefecture_code": 26,
    "city": "京都市伏見区",
    "city_kana": "キョウトシフシミク",
    "town": "下鳥羽南円面田町",
    "town_kana": "シモトバミナミエンメンデンチョウ",
    "street": null,
    "office_name": null,
    "office_name_kana": null
  },
  "8501": {
    "zip_code": "6128501",
    "prefecture": "京都府",
    "prefecture_kana": "キョウトフ",
    "prefecture_code": 26,
    "city": "京都市伏見区",
    "city_kana": "キョウトシフシミク",
    "town": "竹田鳥羽殿町",
    "town_kana": "タケダトバドノチョウ",
    "street": "６",
    "office_name": "京セラ　株式会社",
    "office_name_kana": "キヨウセラ カブシキガイシヤ"
  },
  "8511": {
    "zip_code": "6128511",
    "prefecture": "京都府",
    "prefecture_kana": "キョウトフ",
    "prefecture_code": 26,
    "city": "京都市伏見区",
    "city_kana": "キョウトシフシミク",
    "town": "鷹匠町",
    "town_kana": "タカジョウチョウ",
    "street": "３９−２",
    "office_name": "京都市伏見区役所",
    "office_name_kana": "キヨウトシフシミクヤクシヨ"
  },
  "8522": {
    "zip_code": "6128522",
    "prefecture": "京都府",
    "prefecture_kana": "キョウトフ",
    "prefecture_code": 26,
    "city": "京都市伏見区",
    "city_kana": "キョウトシフシミク",
    "town": "深草藤森町",
    "town_kana": "フカクサフジノモリチョウ",
    "street": "一番地",
    "office_name": "京都教育大学",
    "office_name_kana": "キヨウトキヨウイクダイガク"
  },
  "8530": {
    "zip_code": "6128530",
    "prefecture": "京都府",
    "prefecture_kana": "キョウトフ",
    "prefecture_code": 26,
    "city": "京都市伏見区",
    "city_kana": "キョウトシフシミク",
    "town": "中島北ノ口町",
    "town_kana": "ナカジマキタノクチチョウ",
    "street": "２２",
    "office_name": "株式会社　ワコールウイングブランド事業部",
    "office_name_kana": "カブシキガイシヤ ワコ-ルウイングブランドジギヨウブ"
  },
  "8533": {
    "zip_code": "6128533",
    "prefecture": "京都府",
    "prefecture_kana": "キョウトフ",
    "prefecture_code": 26,
    "city": "京都市伏見区",
    "city_kana": "キョウトシフシミク",
    "town": "東浜南町",
    "town_kana": "ヒガシハマミナミチョウ",
    "street": "６８０",
    "office_name": "株式会社　モリタ製作所",
    "office_name_kana": "カブシキガイシヤ モリタセイサクシヨ"
  },
  "8550": {
    "zip_code": "6128550",
    "prefecture": "京都府",
    "prefecture_kana": "キョウトフ",
    "prefecture_code": 26,
    "city": "京都市伏見区",
    "city_kana": "キョウトシフシミク",
    "town": "桃山町山ノ下",
    "town_kana": "モモヤマチョウヤマノシタ",
    "street": "３２番地",
    "office_name": "株式会社　近鉄百貨店　桃山店",
    "office_name_kana": "カブシキガイシヤ キンテツヒヤツカテン モモヤマテン"
  },
  "8555": {
    "zip_code": "6128555",
    "prefecture": "京都府",
    "prefecture_kana": "キョウトフ",
    "prefecture_code": 26,
    "city": "京都市伏見区",
    "city_kana": "キョウトシフシミク",
    "town": "深草向畑町",
    "town_kana": "フカクサムカイハタチョウ",
    "street": "１−１",
    "office_name": "独立行政法人　国立病院機構　京都医療センター",
    "office_name_kana": "ドクリツギヨウセイホウジン コクリツビヨウインキコウ キヨウトイリヨウセンタ-"
  },
  "8558": {
    "zip_code": "6128558",
    "prefecture": "京都府",
    "prefecture_kana": "キョウトフ",
    "prefecture_code": 26,
    "city": "京都市伏見区",
    "city_kana": "キョウトシフシミク",
    "town": "竹田七瀬川町",
    "town_kana": "タケダナナセガワチョウ",
    "street": "８番地の１",
    "office_name": "日本年金機構　京都南年金事務所",
    "office_name_kana": "ニツポンネンキンキコウ キヨウトミナミネンキンジムシヨ"
  },
  "8577": {
    "zip_code": "6128577",
    "prefecture": "京都府",
    "prefecture_kana": "キョウトフ",
    "prefecture_code": 26,
    "city": "京都市伏見区",
    "city_kana": "キョウトシフシミク",
    "town": "深草塚本町",
    "town_kana": "フカクサツカモトチョウ",
    "street": "６７",
    "office_name": "龍谷大学",
    "office_name_kana": "リユウコクダイガク"
  },
  "8585": {
    "zip_code": "6128585",
    "prefecture": "京都府",
    "prefecture_kana": "キョウトフ",
    "prefecture_code": 26,
    "city": "京都市伏見区",
    "city_kana": "キョウトシフシミク",
    "town": "竹田向代町",
    "town_kana": "タケダムカイシロチョウ",
    "street": "５１−５",
    "office_name": "株式会社　京都自動車会館",
    "office_name_kana": "カブシキガイシヤ キヨウトジドウシヤカイカン"
  },
  "8660": {
    "zip_code": "6128660",
    "prefecture": "京都府",
    "prefecture_kana": "キョウトフ",
    "prefecture_code": 26,
    "city": "京都市伏見区",
    "city_kana": "キョウトシフシミク",
    "town": "南浜町",
    "town_kana": "ミナミハマチョウ",
    "street": "２４７（伏見郵便局私書箱第１５号）",
    "office_name": "月桂冠　株式会社",
    "office_name_kana": "ゲツケイカン カブシキガイシヤ"
  },
  "8677": {
    "zip_code": "6128677",
    "prefecture": "京都府",
    "prefecture_kana": "キョウトフ",
    "prefecture_code": 26,
    "city": "京都市伏見区",
    "city_kana": "キョウトシフシミク",
    "town": "竹田向代町",
    "town_kana": "タケダムカイシロチョウ",
    "street": "５１−７",
    "office_name": "京都府自動車税管理事務所",
    "office_name_kana": "キヨウトフジドウシヤゼイカンリジムシヨ"
  },
  "8686": {
    "zip_code": "6128686",
    "prefecture": "京都府",
    "prefecture_kana": "キョウトフ",
    "prefecture_code": 26,
    "city": "京都市伏見区",
    "city_kana": "キョウトシフシミク",
    "town": "竹田向代町",
    "town_kana": "タケダムカイシロチョウ",
    "street": "１３６（伏見郵便局私書箱第５１号）",
    "office_name": "村田機械　株式会社",
    "office_name_kana": "ムラタキカイ カブシキガイシヤ"
  }
}