{
  "0000": {
    "zip_code": "6130000",
    "prefecture": "京都府",
    "prefecture_kana": "キョウトフ",
    "prefecture_code": "26",
    "city": "久世郡久御山町",
    "city_kana": "クセグンクミヤマチョウ",
    "town": "",
    "town_kana": "",
    "street": null,
    "office_name": null,
    "office_name_kana": null
  },
  "0021": {
    "zip_code": "6130021",
    "prefecture": "京都府",
    "prefecture_kana": "キョウトフ",
    "prefecture_code": "26",
    "city": "久世郡久御山町",
    "city_kana": "クセグンクミヤマチョウ",
    "town": "東一口",
    "town_kana": "ヒガシイモアライ",
    "street": null,
    "office_name": null,
    "office_name_kana": null
  },
  "0022": {
    "zip_code": "6130022",
    "prefecture": "京都府",
    "prefecture_kana": "キョウトフ",
    "prefecture_code": "26",
    "city": "久世郡久御山町",
    "city_kana": "クセグンクミヤマチョウ",
    "town": "市田",
    "town_kana": "イチダ",
    "street": null,
    "office_name": null,
    "office_name_kana": null
  },
  "0023": {
    "zip_code": "6130023",
    "prefecture": "京都府",
    "prefecture_kana": "キョウトフ",
    "prefecture_code": "26",
    "city": "久世郡久御山町",
    "city_kana": "クセグンクミヤマチョウ",
    "town": "野村",
    "town_kana": "ノムラ",
    "street": null,
    "office_name": null,
    "office_name_kana": null
  },
  "0024": {
    "zip_code": "6130024",
    "prefecture": "京都府",
    "prefecture_kana": "キョウトフ",
    "prefecture_code": "26",
    "city": "久世郡久御山町",
    "city_kana": "クセグンクミヤマチョウ",
    "town": "森",
    "town_kana": "モリ",
    "street": null,
    "office_name": null,
    "office_name_kana": null
  },
  "0025": {
    "zip_code": "6130025",
    "prefecture": "京都府",
    "prefecture_kana": "キョウトフ",
    "prefecture_code": "26",
    "city": "久世郡久御山町",
    "city_kana": "クセグンクミヤマチョウ",
    "town": "相島",
    "town_kana": "オジマ",
    "street": null,
    "office_name": null,
    "office_name_kana": null
  },
  "0026": {
    "zip_code": "6130026",
    "prefecture": "京都府",
    "prefecture_kana": "キョウトフ",
    "prefecture_code": "26",
    "city": "久世郡久御山町",
    "city_kana": "クセグンクミヤマチョウ",
    "town": "西一口",
    "town_kana": "ニシイモアライ",
    "street": null,
    "office_name": null,
    "office_name_kana": null
  },
  "0031": {
    "zip_code": "6130031",
    "prefecture": "京都府",
    "prefecture_kana": "キョウトフ",
    "prefecture_code": "26",
    "city": "久世郡久御山町",
    "city_kana": "クセグンクミヤマチョウ",
    "town": "佐古",
    "town_kana": "サコ",
    "street": null,
    "office_name": null,
    "office_name_kana": null
  },
  "0032": {
    "zip_code": "6130032",
    "prefecture": "京都府",
    "prefecture_kana": "キョウトフ",
    "prefecture_code": "26",
    "city": "久世郡久御山町",
    "city_kana": "クセグンクミヤマチョウ",
    "town": "栄",
    "town_kana": "サカエ",
    "street": null,
    "office_name": null,
    "office_name_kana": null
  },
  "0033": {
    "zip_code": "6130033",
    "prefecture": "京都府",
    "prefecture_kana": "キョウトフ",
    "prefecture_code": "26",
    "city": "久世郡久御山町",
    "city_kana": "クセグンクミヤマチョウ",
    "town": "林",
    "town_kana": "ハヤシ",
    "street": null,
    "office_name": null,
    "office_name_kana": null
  },
  "0034": {
    "zip_code": "6130034",
    "prefecture": "京都府",
    "prefecture_kana": "キョウトフ",
    "prefecture_code": "26",
    "city": "久世郡久御山町",
    "city_kana": "クセグンクミヤマチョウ",
    "town": "佐山",
    "town_kana": "サヤマ",
    "street": null,
    "office_name": null,
    "office_name_kana": null
  },
  "0035": {
    "zip_code": "6130035",
    "prefecture": "京都府",
    "prefecture_kana": "キョウトフ",
    "prefecture_code": "26",
    "city": "久世郡久御山町",
    "city_kana": "クセグンクミヤマチョウ",
    "town": "下津屋",
    "town_kana": "シモツヤ",
    "street": null,
    "office_name": null,
    "office_name_kana": null
  },
  "0036": {
    "zip_code": "6130036",
    "prefecture": "京都府",
    "prefecture_kana": "キョウトフ",
    "prefecture_code": "26",
    "city": "久世郡久御山町",
    "city_kana": "クセグンクミヤマチョウ",
    "town": "田井",
    "town_kana": "タイ",
    "street": null,
    "office_name": null,
    "office_name_kana": null
  },
  "0041": {
    "zip_code": "6130041",
    "prefecture": "京都府",
    "prefecture_kana": "キョウトフ",
    "prefecture_code": "26",
    "city": "久世郡久御山町",
    "city_kana": "クセグンクミヤマチョウ",
    "town": "中島",
    "town_kana": "ナカジマ",
    "street": null,
    "office_name": null,
    "office_name_kana": null
  },
  "0042": {
    "zip_code": "6130042",
    "prefecture": "京都府",
    "prefecture_kana": "キョウトフ",
    "prefecture_code": "26",
    "city": "久世郡久御山町",
    "city_kana": "クセグンクミヤマチョウ",
    "town": "坊之池",
    "town_kana": "ボウノイケ",
    "street": null,
    "office_name": null,
    "office_name_kana": null
  },
  "0043": {
    "zip_code": "6130043",
    "prefecture": "京都府",
    "prefecture_kana": "キョウトフ",
    "prefecture_code": "26",
    "city": "久世郡久御山町",
    "city_kana": "クセグンクミヤマチョウ",
    "town": "島田",
    "town_kana": "シマタ",
    "street": null,
    "office_name": null,
    "office_name_kana": null
  },
  "0044": {
    "zip_code": "6130044",
    "prefecture": "京都府",
    "prefecture_kana": "キョウトフ",
    "prefecture_code": "26",
    "city": "久世郡久御山町",
    "city_kana": "クセグンクミヤマチョウ",
    "town": "藤和田",
    "town_kana": "フジワダ",
    "street": null,
    "office_name": null,
    "office_name_kana": null
  },
  "0045": {
    "zip_code": "6130045",
    "prefecture": "京都府",
    "prefecture_kana": "キョウトフ",
    "prefecture_code": "26",
    "city": "久世郡久御山町",
    "city_kana": "クセグンクミヤマチョウ",
    "town": "北川顔",
    "town_kana": "キタカワヅラ",
    "street": null,
    "office_name": null,
    "office_name_kana": null
  },
  "0046": {
    "zip_code": "6130046",
    "prefecture": "京都府",
    "prefecture_kana": "キョウトフ",
    "prefecture_code": "26",
    "city": "久世郡久御山町",
    "city_kana": "クセグンクミヤマチョウ",
    "town": "大橋辺",
    "town_kana": "オオハシベリ",
    "street": null,
    "office_name": null,
    "office_name_kana": null
  },
  "0851": {
    "zip_code": "6130851",
    "prefecture": "京都府",
    "prefecture_kana": "キョウトフ",
    "prefecture_code": "26",
    "city": "八幡市",
    "city_kana": "ヤワタシ",
    "town": "川口高原",
    "town_kana": "カワグチタカハラ",
    "street": null,
    "office_name": null,
    "office_name_kana": null
  },
  "0852": {
    "zip_code": "6130852",
    "prefecture": "京都府",
    "prefecture_kana": "キョウトフ",
    "prefecture_code": "26",
    "city": "八幡市",
    "city_kana": "ヤワタシ",
    "town": "八幡樋ノ口",
    "town_kana": "ヤワタヒノクチ",
    "street": null,
    "office_name": null,
    "office_name_kana": null
  },
  "0853": {
    "zip_code": "6130853",
    "prefecture": "京都府",
    "prefecture_kana": "キョウトフ",
    "prefecture_code": "26",
    "city": "八幡市",
    "city_kana": "ヤワタシ",
    "town": "八幡長町",
    "town_kana": "ヤワタナガマチ",
    "street": null,
    "office_name": null,
    "office_name_kana": null
  },
  "0901": {
    "zip_code": "6130901",
    "prefecture": "京都府",
    "prefecture_kana": "キョウトフ",
    "prefecture_code": "26",
    "city": "京都市伏見区",
    "city_kana": "キョウトシフシミク",
    "town": "淀樋爪町",
    "town_kana": "ヨドヒヅメチョウ",
    "street": null,
    "office_name": null,
    "office_name_kana": null
  },
  "0902": {
    "zip_code": "6130902",
    "prefecture": "京都府",
    "prefecture_kana": "キョウトフ",
    "prefecture_code": "26",
    "city": "京都市伏見区",
    "city_kana": "キョウトシフシミク",
    "town": "淀水垂町",
    "town_kana": "ヨドミズタレチョウ",
    "street": null,
    "office_name": null,
    "office_name_kana": null
  },
  "0903": {
    "zip_code": "6130903",
    "prefecture": "京都府",
    "prefecture_kana": "キョウトフ",
    "prefecture_code": "26",
    "city": "京都市伏見区",
    "city_kana": "キョウトシフシミク",
    "town": "淀本町",
    "town_kana": "ヨドホンマチ",
    "street": null,
    "office_name": null,
    "office_name_kana": null
  },
  "0904": {
    "zip_code": "6130904",
    "prefecture": "京都府",
    "prefecture_kana": "キョウトフ",
    "prefecture_code": "26",
    "city": "京都市伏見区",
    "city_kana": "キョウトシフシミク",
    "town": "淀池上町",
    "town_kana": "ヨドイケガミチョウ",
    "street": null,
    "office_name": null,
    "office_name_kana": null
  },
  "0905": {
    "zip_code": "6130905",
    "prefecture": "京都府",
    "prefecture_kana": "キョウトフ",
    "prefecture_code": "26",
    "city": "京都市伏見区",
    "city_kana": "キョウトシフシミク",
    "town": "淀下津町",
    "town_kana": "ヨドシモヅチョウ",
    "street": null,
    "office_name": null,
    "office_name_kana": null
  },
  "0906": {
    "zip_code": "6130906",
    "prefecture": "京都府",
    "prefecture_kana": "キョウトフ",
    "prefecture_code": "26",
    "city": "京都市伏見区",
    "city_kana": "キョウトシフシミク",
    "town": "淀新町",
    "town_kana": "ヨドシンマチ",
    "street": null,
    "office_name": null,
    "office_name_kana": null
  },
  "0907": {
    "zip_code": "6130907",
    "prefecture": "京都府",
    "prefecture_kana": "キョウトフ",
    "prefecture_code": "26",
    "city": "京都市伏見区",
    "city_kana": "キョウトシフシミク",
    "town": "淀大下津町",
    "town_kana": "ヨドオオシモヅチョウ",
    "street": null,
    "office_name": null,
    "office_name_kana": null
  },
  "0911": {
    "zip_code": "6130911",
    "prefecture": "京都府",
    "prefecture_kana": "キョウトフ",
    "prefecture_code": "26",
    "city": "京都市伏見区",
    "city_kana": "キョウトシフシミク",
    "town": "淀木津町",
    "town_kana": "ヨドキヅチョウ",
    "street": null,
    "office_name": null,
    "office_name_kana": null
  },
  "0912": {
    "zip_code": "6130912",
    "prefecture": "京都府",
    "prefecture_kana": "キョウトフ",
    "prefecture_code": "26",
    "city": "京都市伏見区",
    "city_kana": "キョウトシフシミク",
    "town": "淀川顔町",
    "town_kana": "ヨドカワヅラチョウ",
    "street": null,
    "office_name": null,
    "office_name_kana": null
  },
  "0913": {
    "zip_code": "6130913",
    "prefecture": "京都府",
    "prefecture_kana": "キョウトフ",
    "prefecture_code": "26",
    "city": "京都市伏見区",
    "city_kana": "キョウトシフシミク",
    "town": "向島下五反田",
    "town_kana": "ムカイジマシモゴタンダ",
    "street": null,
    "office_name": null,
    "office_name_kana": null
  },
  "0914": {
    "zip_code": "6130914",
    "prefecture": "京都府",
    "prefecture_kana": "キョウトフ",
    "prefecture_code": "26",
    "city": "京都市伏見区",
    "city_kana": "キョウトシフシミク",
    "town": "淀生津町",
    "town_kana": "ヨドナマヅチョウ",
    "street": null,
    "office_name": null,
    "office_name_kana": null
  },
  "0915": {
    "zip_code": "6130915",
    "prefecture": "京都府",
    "prefecture_kana": "キョウトフ",
    "prefecture_code": "26",
    "city": "京都市伏見区",
    "city_kana": "キョウトシフシミク",
    "town": "淀際目町",
    "town_kana": "ヨドサイメチョウ",
    "street": null,
    "office_name": null,
    "office_name_kana": null
  },
  "0916": {
    "zip_code": "6130916",
    "prefecture": "京都府",
    "prefecture_kana": "キョウトフ",
    "prefecture_code": "26",
    "city": "京都市伏見区",
    "city_kana": "キョウトシフシミク",
    "town": "淀美豆町",
    "town_kana": "ヨドミヅチョウ",
    "street": null,
    "office_name": null,
    "office_name_kana": null
  },
  "8585": {
    "zip_code": "6138585",
    "prefecture": "京都府",
    "prefecture_kana": null,
    "prefecture_code": null,
    "city": "久世郡久御山町",
    "city_kana": null,
    "town": "大字田井",
    "town_kana": null,
    "street": "小字浜代１−２",
    "office_name": "久御山町役場",
    "office_name_kana": "クミヤマチヨウヤクバ"
  }
}