{
  "0000": {
    "zip_code": "6200000",
    "prefecture": "京都府",
    "prefecture_kana": "キョウトフ",
    "prefecture_code": "26",
    "city": "福知山市",
    "city_kana": "フクチヤマシ",
    "town": "",
    "town_kana": "",
    "street": null,
    "office_name": null,
    "office_name_kana": null
  },
  "0001": {
    "zip_code": "6200001",
    "prefecture": "京都府",
    "prefecture_kana": "キョウトフ",
    "prefecture_code": "26",
    "city": "福知山市",
    "city_kana": "フクチヤマシ",
    "town": "山野口",
    "town_kana": "ヤマノクチ",
    "street": null,
    "office_name": null,
    "office_name_kana": null
  },
  "0002": {
    "zip_code": "6200002",
    "prefecture": "京都府",
    "prefecture_kana": "キョウトフ",
    "prefecture_code": "26",
    "city": "福知山市",
    "city_kana": "フクチヤマシ",
    "town": "報恩寺",
    "town_kana": "ホオジ",
    "street": null,
    "office_name": null,
    "office_name_kana": null
  },
  "0003": {
    "zip_code": "6200003",
    "prefecture": "京都府",
    "prefecture_kana": "キョウトフ",
    "prefecture_code": "26",
    "city": "福知山市",
    "city_kana": "フクチヤマシ",
    "town": "私市",
    "town_kana": "キサイチ",
    "street": null,
    "office_name": null,
    "office_name_kana": null
  },
  "0004": {
    "zip_code": "6200004",
    "prefecture": "京都府",
    "prefecture_kana": "キョウトフ",
    "prefecture_code": "26",
    "city": "福知山市",
    "city_kana": "フクチヤマシ",
    "town": "川北",
    "town_kana": "カワギタ",
    "street": null,
    "office_name": null,
    "office_name_kana": null
  },
  "0005": {
    "zip_code": "6200005",
    "prefecture": "京都府",
    "prefecture_kana": "キョウトフ",
    "prefecture_code": "26",
    "city": "福知山市",
    "city_kana": "フクチヤマシ",
    "town": "印内",
    "town_kana": "インナイ",
    "street": null,
    "office_name": null,
    "office_name_kana": null
  },
  "0011": {
    "zip_code": "6200011",
    "prefecture": "京都府",
    "prefecture_kana": "キョウトフ",
    "prefecture_code": "26",
    "city": "福知山市",
    "city_kana": "フクチヤマシ",
    "town": "筈巻",
    "town_kana": "ハズマキ",
    "street": null,
    "office_name": null,
    "office_name_kana": null
  },
  "0012": {
    "zip_code": "6200012",
    "prefecture": "京都府",
    "prefecture_kana": "キョウトフ",
    "prefecture_code": "26",
    "city": "福知山市",
    "city_kana": "フクチヤマシ",
    "town": "安井",
    "town_kana": "ヤスイ",
    "street": null,
    "office_name": null,
    "office_name_kana": null
  },
  "0013": {
    "zip_code": "6200013",
    "prefecture": "京都府",
    "prefecture_kana": "キョウトフ",
    "prefecture_code": "26",
    "city": "福知山市",
    "city_kana": "フクチヤマシ",
    "town": "池部",
    "town_kana": "イケベ",
    "street": null,
    "office_name": null,
    "office_name_kana": null
  },
  "0014": {
    "zip_code": "6200014",
    "prefecture": "京都府",
    "prefecture_kana": "キョウトフ",
    "prefecture_code": "26",
    "city": "福知山市",
    "city_kana": "フクチヤマシ",
    "town": "中",
    "town_kana": "ナカ",
    "street": null,
    "office_name": null,
    "office_name_kana": null
  },
  "0015": {
    "zip_code": "6200015",
    "prefecture": "京都府",
    "prefecture_kana": "キョウトフ",
    "prefecture_code": "26",
    "city": "福知山市",
    "city_kana": "フクチヤマシ",
    "town": "下猪崎",
    "town_kana": "シモイザキ",
    "street": null,
    "office_name": null,
    "office_name_kana": null
  },
  "0016": {
    "zip_code": "6200016",
    "prefecture": "京都府",
    "prefecture_kana": "キョウトフ",
    "prefecture_code": "26",
    "city": "福知山市",
    "city_kana": "フクチヤマシ",
    "town": "城山",
    "town_kana": "シロヤマ",
    "street": null,
    "office_name": null,
    "office_name_kana": null
  },
  "0017": {
    "zip_code": "6200017",
    "prefecture": "京都府",
    "prefecture_kana": "キョウトフ",
    "prefecture_code": "26",
    "city": "福知山市",
    "city_kana": "フクチヤマシ",
    "town": "猪崎",
    "town_kana": "イザキ",
    "street": null,
    "office_name": null,
    "office_name_kana": null
  },
  "0021": {
    "zip_code": "6200021",
    "prefecture": "京都府",
    "prefecture_kana": "キョウトフ",
    "prefecture_code": "26",
    "city": "福知山市",
    "city_kana": "フクチヤマシ",
    "town": "寺",
    "town_kana": "テラ",
    "street": null,
    "office_name": null,
    "office_name_kana": null
  },
  "0022": {
    "zip_code": "6200022",
    "prefecture": "京都府",
    "prefecture_kana": "キョウトフ",
    "prefecture_code": "26",
    "city": "福知山市",
    "city_kana": "フクチヤマシ",
    "town": "下柳",
    "town_kana": "シモヤナギ",
    "street": null,
    "office_name": null,
    "office_name_kana": null
  },
  "0023": {
    "zip_code": "6200023",
    "prefecture": "京都府",
    "prefecture_kana": "キョウトフ",
    "prefecture_code": "26",
    "city": "福知山市",
    "city_kana": "フクチヤマシ",
    "town": "菱屋",
    "town_kana": "ヒシヤ",
    "street": null,
    "office_name": null,
    "office_name_kana": null
  },
  "0024": {
    "zip_code": "6200024",
    "prefecture": "京都府",
    "prefecture_kana": "キョウトフ",
    "prefecture_code": "26",
    "city": "福知山市",
    "city_kana": "フクチヤマシ",
    "town": "東長町",
    "town_kana": "ヒガシナガマチ",
    "street": null,
    "office_name": null,
    "office_name_kana": null
  },
  "0025": {
    "zip_code": "6200025",
    "prefecture": "京都府",
    "prefecture_kana": "キョウトフ",
    "prefecture_code": "26",
    "city": "福知山市",
    "city_kana": "フクチヤマシ",
    "town": "西長町",
    "town_kana": "ニシナガマチ",
    "street": null,
    "office_name": null,
    "office_name_kana": null
  },
  "0026": {
    "zip_code": "6200026",
    "prefecture": "京都府",
    "prefecture_kana": "キョウトフ",
    "prefecture_code": "26",
    "city": "福知山市",
    "city_kana": "フクチヤマシ",
    "town": "呉服",
    "town_kana": "ゴフク",
    "street": null,
    "office_name": null,
    "office_name_kana": null
  },
  "0027": {
    "zip_code": "6200027",
    "prefecture": "京都府",
    "prefecture_kana": "キョウトフ",
    "prefecture_code": "26",
    "city": "福知山市",
    "city_kana": "フクチヤマシ",
    "town": "京",
    "town_kana": "キョウ",
    "street": null,
    "office_name": null,
    "office_name_kana": null
  },
  "0028": {
    "zip_code": "6200028",
    "prefecture": "京都府",
    "prefecture_kana": "キョウトフ",
    "prefecture_code": "26",
    "city": "福知山市",
    "city_kana": "フクチヤマシ",
    "town": "上新",
    "town_kana": "カミシン",
    "street": null,
    "office_name": null,
    "office_name_kana": null
  },
  "0029": {
    "zip_code": "6200029",
    "prefecture": "京都府",
    "prefecture_kana": "キョウトフ",
    "prefecture_code": "26",
    "city": "福知山市",
    "city_kana": "フクチヤマシ",
    "town": "下新",
    "town_kana": "シモシン",
    "street": null,
    "office_name": null,
    "office_name_kana": null
  },
  "0031": {
    "zip_code": "6200031",
    "prefecture": "京都府",
    "prefecture_kana": "キョウトフ",
    "prefecture_code": "26",
    "city": "福知山市",
    "city_kana": "フクチヤマシ",
    "town": "鋳物師",
    "town_kana": "イモジ",
    "street": null,
    "office_name": null,
    "office_name_kana": null
  },
  "0032": {
    "zip_code": "6200032",
    "prefecture": "京都府",
    "prefecture_kana": "キョウトフ",
    "prefecture_code": "26",
    "city": "福知山市",
    "city_kana": "フクチヤマシ",
    "town": "下紺屋",
    "town_kana": "シモコヤ",
    "street": null,
    "office_name": null,
    "office_name_kana": null
  },
  "0033": {
    "zip_code": "6200033",
    "prefecture": "京都府",
    "prefecture_kana": "キョウトフ",
    "prefecture_code": "26",
    "city": "福知山市",
    "city_kana": "フクチヤマシ",
    "town": "上紺屋",
    "town_kana": "カミコヤ",
    "street": null,
    "office_name": null,
    "office_name_kana": null
  },
  "0034": {
    "zip_code": "6200034",
    "prefecture": "京都府",
    "prefecture_kana": "キョウトフ",
    "prefecture_code": "26",
    "city": "福知山市",
    "city_kana": "フクチヤマシ",
    "town": "鍛冶",
    "town_kana": "カジ",
    "street": null,
    "office_name": null,
    "office_name_kana": null
  },
  "0035": {
    "zip_code": "6200035",
    "prefecture": "京都府",
    "prefecture_kana": "キョウトフ",
    "prefecture_code": "26",
    "city": "福知山市",
    "city_kana": "フクチヤマシ",
    "town": "内記",
    "town_kana": "ナイキ",
    "street": null,
    "office_name": null,
    "office_name_kana": null
  },
  "0036": {
    "zip_code": "6200036",
    "prefecture": "京都府",
    "prefecture_kana": "キョウトフ",
    "prefecture_code": "26",
    "city": "福知山市",
    "city_kana": "フクチヤマシ",
    "town": "中ノ町",
    "town_kana": "ナカノマチ",
    "street": null,
    "office_name": null,
    "office_name_kana": null
  },
  "0037": {
    "zip_code": "6200037",
    "prefecture": "京都府",
    "prefecture_kana": "キョウトフ",
    "prefecture_code": "26",
    "city": "福知山市",
    "city_kana": "フクチヤマシ",
    "town": "東中ノ町",
    "town_kana": "ヒガシナカノマチ",
    "street": null,
    "office_name": null,
    "office_name_kana": null
  },
  "0038": {
    "zip_code": "6200038",
    "prefecture": "京都府",
    "prefecture_kana": "キョウトフ",
    "prefecture_code": "26",
    "city": "福知山市",
    "city_kana": "フクチヤマシ",
    "town": "西中ノ町",
    "town_kana": "ニシナカノマチ",
    "street": null,
    "office_name": null,
    "office_name_kana": null
  },
  "0039": {
    "zip_code": "6200039",
    "prefecture": "京都府",
    "prefecture_kana": "キョウトフ",
    "prefecture_code": "26",
    "city": "福知山市",
    "city_kana": "フクチヤマシ",
    "town": "西町",
    "town_kana": "ニシマチ",
    "street": null,
    "office_name": null,
    "office_name_kana": null
  },
  "0041": {
    "zip_code": "6200041",
    "prefecture": "京都府",
    "prefecture_kana": "キョウトフ",
    "prefecture_code": "26",
    "city": "福知山市",
    "city_kana": "フクチヤマシ",
    "town": "北本町一区",
    "town_kana": "キタホンマチイック",
    "street": null,
    "office_name": null,
    "office_name_kana": null
  },
  "0042": {
    "zip_code": "6200042",
    "prefecture": "京都府",
    "prefecture_kana": "キョウトフ",
    "prefecture_code": "26",
    "city": "福知山市",
    "city_kana": "フクチヤマシ",
    "town": "北本町二区",
    "town_kana": "キタホンマチニク",
    "street": null,
    "office_name": null,
    "office_name_kana": null
  },
  "0043": {
    "zip_code": "6200043",
    "prefecture": "京都府",
    "prefecture_kana": "キョウトフ",
    "prefecture_code": "26",
    "city": "福知山市",
    "city_kana": "フクチヤマシ",
    "town": "北栄町",
    "town_kana": "キタサカエマチ",
    "street": null,
    "office_name": null,
    "office_name_kana": null
  },
  "0044": {
    "zip_code": "6200044",
    "prefecture": "京都府",
    "prefecture_kana": "キョウトフ",
    "prefecture_code": "26",
    "city": "福知山市",
    "city_kana": "フクチヤマシ",
    "town": "南栄町",
    "town_kana": "ミナミサカエマチ",
    "street": null,
    "office_name": null,
    "office_name_kana": null
  },
  "0045": {
    "zip_code": "6200045",
    "prefecture": "京都府",
    "prefecture_kana": "キョウトフ",
    "prefecture_code": "26",
    "city": "福知山市",
    "city_kana": "フクチヤマシ",
    "town": "駅前町",
    "town_kana": "エキマエチョウ",
    "street": null,
    "office_name": null,
    "office_name_kana": null
  },
  "0046": {
    "zip_code": "6200046",
    "prefecture": "京都府",
    "prefecture_kana": "キョウトフ",
    "prefecture_code": "26",
    "city": "福知山市",
    "city_kana": "フクチヤマシ",
    "town": "南本町",
    "town_kana": "ミナミホンマチ",
    "street": null,
    "office_name": null,
    "office_name_kana": null
  },
  "0047": {
    "zip_code": "6200047",
    "prefecture": "京都府",
    "prefecture_kana": "キョウトフ",
    "prefecture_code": "26",
    "city": "福知山市",
    "city_kana": "フクチヤマシ",
    "town": "東本町",
    "town_kana": "ヒガシホンマチ",
    "street": null,
    "office_name": null,
    "office_name_kana": null
  },
  "0051": {
    "zip_code": "6200051",
    "prefecture": "京都府",
    "prefecture_kana": "キョウトフ",
    "prefecture_code": "26",
    "city": "福知山市",
    "city_kana": "フクチヤマシ",
    "town": "昭和新町",
    "town_kana": "ショウワシンマチ",
    "street": null,
    "office_name": null,
    "office_name_kana": null
  },
  "0052": {
    "zip_code": "6200052",
    "prefecture": "京都府",
    "prefecture_kana": "キョウトフ",
    "prefecture_code": "26",
    "city": "福知山市",
    "city_kana": "フクチヤマシ",
    "town": "昭和町",
    "town_kana": "ショウワチョウ",
    "street": null,
    "office_name": null,
    "office_name_kana": null
  },
  "0053": {
    "zip_code": "6200053",
    "prefecture": "京都府",
    "prefecture_kana": "キョウトフ",
    "prefecture_code": "26",
    "city": "福知山市",
    "city_kana": "フクチヤマシ",
    "town": "西本町",
    "town_kana": "ニシホンマチ",
    "street": null,
    "office_name": null,
    "office_name_kana": null
  },
  "0054": {
    "zip_code": "6200054",
    "prefecture": "京都府",
    "prefecture_kana": "キョウトフ",
    "prefecture_code": "26",
    "city": "福知山市",
    "city_kana": "フクチヤマシ",
    "town": "末広町",
    "town_kana": "スエヒロチョウ",
    "street": null,
    "office_name": null,
    "office_name_kana": null
  },
  "0055": {
    "zip_code": "6200055",
    "prefecture": "京都府",
    "prefecture_kana": "キョウトフ",
    "prefecture_code": "26",
    "city": "福知山市",
    "city_kana": "フクチヤマシ",
    "town": "篠尾新町",
    "town_kana": "サソオシンマチ",
    "street": null,
    "office_name": null,
    "office_name_kana": null
  },
  "0056": {
    "zip_code": "6200056",
    "prefecture": "京都府",
    "prefecture_kana": "キョウトフ",
    "prefecture_code": "26",
    "city": "福知山市",
    "city_kana": "フクチヤマシ",
    "town": "厚中町",
    "town_kana": "アツナカマチ",
    "street": null,
    "office_name": null,
    "office_name_kana": null
  },
  "0057": {
    "zip_code": "6200057",
    "prefecture": "京都府",
    "prefecture_kana": "キョウトフ",
    "prefecture_code": "26",
    "city": "福知山市",
    "city_kana": "フクチヤマシ",
    "town": "問屋町",
    "town_kana": "トンヤマチ",
    "street": null,
    "office_name": null,
    "office_name_kana": null
  },
  "0058": {
    "zip_code": "6200058",
    "prefecture": "京都府",
    "prefecture_kana": "キョウトフ",
    "prefecture_code": "26",
    "city": "福知山市",
    "city_kana": "フクチヤマシ",
    "town": "厚",
    "town_kana": "アツ",
    "street": null,
    "office_name": null,
    "office_name_kana": null
  },
  "0059": {
    "zip_code": "6200059",
    "prefecture": "京都府",
    "prefecture_kana": "キョウトフ",
    "prefecture_code": "26",
    "city": "福知山市",
    "city_kana": "フクチヤマシ",
    "town": "厚東町",
    "town_kana": "アツヒガシマチ",
    "street": null,
    "office_name": null,
    "office_name_kana": null
  },
  "0061": {
    "zip_code": "6200061",
    "prefecture": "京都府",
    "prefecture_kana": "キョウトフ",
    "prefecture_code": "26",
    "city": "福知山市",
    "city_kana": "フクチヤマシ",
    "town": "荒河東町",
    "town_kana": "アラガヒガシマチ",
    "street": null,
    "office_name": null,
    "office_name_kana": null
  },
  "0062": {
    "zip_code": "6200062",
    "prefecture": "京都府",
    "prefecture_kana": "キョウトフ",
    "prefecture_code": "26",
    "city": "福知山市",
    "city_kana": "フクチヤマシ",
    "town": "和久市町",
    "town_kana": "ワクイチチョウ",
    "street": null,
    "office_name": null,
    "office_name_kana": null
  },
  "0063": {
    "zip_code": "6200063",
    "prefecture": "京都府",
    "prefecture_kana": "キョウトフ",
    "prefecture_code": "26",
    "city": "福知山市",
    "city_kana": "フクチヤマシ",
    "town": "荒河新町",
    "town_kana": "アラガシンマチ",
    "street": null,
    "office_name": null,
    "office_name_kana": null
  },
  "0064": {
    "zip_code": "6200064",
    "prefecture": "京都府",
    "prefecture_kana": "キョウトフ",
    "prefecture_code": "26",
    "city": "福知山市",
    "city_kana": "フクチヤマシ",
    "town": "岩井東町",
    "town_kana": "イワイヒガシマチ",
    "street": null,
    "office_name": null,
    "office_name_kana": null
  },
  "0065": {
    "zip_code": "6200065",
    "prefecture": "京都府",
    "prefecture_kana": "キョウトフ",
    "prefecture_code": "26",
    "city": "福知山市",
    "city_kana": "フクチヤマシ",
    "town": "上荒河",
    "town_kana": "カミアラガ",
    "street": null,
    "office_name": null,
    "office_name_kana": null
  },
  "0066": {
    "zip_code": "6200066",
    "prefecture": "京都府",
    "prefecture_kana": "キョウトフ",
    "prefecture_code": "26",
    "city": "福知山市",
    "city_kana": "フクチヤマシ",
    "town": "下荒河",
    "town_kana": "シモアラガ",
    "street": null,
    "office_name": null,
    "office_name_kana": null
  },
  "0071": {
    "zip_code": "6200071",
    "prefecture": "京都府",
    "prefecture_kana": "キョウトフ",
    "prefecture_code": "26",
    "city": "福知山市",
    "city_kana": "フクチヤマシ",
    "town": "一尾",
    "town_kana": "イチオ",
    "street": null,
    "office_name": null,
    "office_name_kana": null
  },
  "0072": {
    "zip_code": "6200072",
    "prefecture": "京都府",
    "prefecture_kana": "キョウトフ",
    "prefecture_code": "26",
    "city": "福知山市",
    "city_kana": "フクチヤマシ",
    "town": "下天津",
    "town_kana": "シモアマヅ",
    "street": null,
    "office_name": null,
    "office_name_kana": null
  },
  "0073": {
    "zip_code": "6200073",
    "prefecture": "京都府",
    "prefecture_kana": "キョウトフ",
    "prefecture_code": "26",
    "city": "福知山市",
    "city_kana": "フクチヤマシ",
    "town": "勅使",
    "town_kana": "チョクシ",
    "street": null,
    "office_name": null,
    "office_name_kana": null
  },
  "0074": {
    "zip_code": "6200074",
    "prefecture": "京都府",
    "prefecture_kana": "キョウトフ",
    "prefecture_code": "26",
    "city": "福知山市",
    "city_kana": "フクチヤマシ",
    "town": "石本",
    "town_kana": "イシモト",
    "street": null,
    "office_name": null,
    "office_name_kana": null
  },
  "0075": {
    "zip_code": "6200075",
    "prefecture": "京都府",
    "prefecture_kana": "キョウトフ",
    "prefecture_code": "26",
    "city": "福知山市",
    "city_kana": "フクチヤマシ",
    "town": "波江",
    "town_kana": "ハエ",
    "street": null,
    "office_name": null,
    "office_name_kana": null
  },
  "0076": {
    "zip_code": "6200076",
    "prefecture": "京都府",
    "prefecture_kana": "キョウトフ",
    "prefecture_code": "26",
    "city": "福知山市",
    "city_kana": "フクチヤマシ",
    "town": "漆端",
    "town_kana": "ウルシガハナ",
    "street": null,
    "office_name": null,
    "office_name_kana": null
  },
  "0077": {
    "zip_code": "6200077",
    "prefecture": "京都府",
    "prefecture_kana": "キョウトフ",
    "prefecture_code": "26",
    "city": "福知山市",
    "city_kana": "フクチヤマシ",
    "town": "大呂",
    "town_kana": "オオロ",
    "street": null,
    "office_name": null,
    "office_name_kana": null
  },
  "0078": {
    "zip_code": "6200078",
    "prefecture": "京都府",
    "prefecture_kana": "キョウトフ",
    "prefecture_code": "26",
    "city": "福知山市",
    "city_kana": "フクチヤマシ",
    "town": "瘤木",
    "town_kana": "コブノキ",
    "street": null,
    "office_name": null,
    "office_name_kana": null
  },
  "0201": {
    "zip_code": "6200201",
    "prefecture": "京都府",
    "prefecture_kana": "キョウトフ",
    "prefecture_code": "26",
    "city": "福知山市",
    "city_kana": "フクチヤマシ",
    "town": "天座",
    "town_kana": "アマザ",
    "street": null,
    "office_name": null,
    "office_name_kana": null
  },
  "0211": {
    "zip_code": "6200211",
    "prefecture": "京都府",
    "prefecture_kana": "キョウトフ",
    "prefecture_code": "26",
    "city": "福知山市",
    "city_kana": "フクチヤマシ",
    "town": "下野条",
    "town_kana": "シモノウジョウ",
    "street": null,
    "office_name": null,
    "office_name_kana": null
  },
  "0212": {
    "zip_code": "6200212",
    "prefecture": "京都府",
    "prefecture_kana": "キョウトフ",
    "prefecture_code": "26",
    "city": "福知山市",
    "city_kana": "フクチヤマシ",
    "town": "行積",
    "town_kana": "イツモリ",
    "street": null,
    "office_name": null,
    "office_name_kana": null
  },
  "0213": {
    "zip_code": "6200213",
    "prefecture": "京都府",
    "prefecture_kana": "キョウトフ",
    "prefecture_code": "26",
    "city": "福知山市",
    "city_kana": "フクチヤマシ",
    "town": "長尾",
    "town_kana": "ナガオ",
    "street": null,
    "office_name": null,
    "office_name_kana": null
  },
  "0214": {
    "zip_code": "6200214",
    "prefecture": "京都府",
    "prefecture_kana": "キョウトフ",
    "prefecture_code": "26",
    "city": "福知山市",
    "city_kana": "フクチヤマシ",
    "town": "上野条",
    "town_kana": "カミノウジョウ",
    "street": null,
    "office_name": null,
    "office_name_kana": null
  },
  "0221": {
    "zip_code": "6200221",
    "prefecture": "京都府",
    "prefecture_kana": "キョウトフ",
    "prefecture_code": "26",
    "city": "福知山市",
    "city_kana": "フクチヤマシ",
    "town": "雲原",
    "town_kana": "クモハラ",
    "street": null,
    "office_name": null,
    "office_name_kana": null
  },
  "0301": {
    "zip_code": "6200301",
    "prefecture": "京都府",
    "prefecture_kana": "キョウトフ",
    "prefecture_code": "26",
    "city": "福知山市",
    "city_kana": "フクチヤマシ",
    "town": "大江町河守",
    "town_kana": "オオエチョウコウモリ",
    "street": null,
    "office_name": null,
    "office_name_kana": null
  },
  "0302": {
    "zip_code": "6200302",
    "prefecture": "京都府",
    "prefecture_kana": "キョウトフ",
    "prefecture_code": "26",
    "city": "福知山市",
    "city_kana": "フクチヤマシ",
    "town": "大江町関",
    "town_kana": "オオエチョウセキ",
    "street": null,
    "office_name": null,
    "office_name_kana": null
  },
  "0303": {
    "zip_code": "6200303",
    "prefecture": "京都府",
    "prefecture_kana": "キョウトフ",
    "prefecture_code": "26",
    "city": "福知山市",
    "city_kana": "フクチヤマシ",
    "town": "大江町金屋",
    "town_kana": "オオエチョウカナヤ",
    "street": null,
    "office_name": null,
    "office_name_kana": null
  },
  "0304": {
    "zip_code": "6200304",
    "prefecture": "京都府",
    "prefecture_kana": "キョウトフ",
    "prefecture_code": "26",
    "city": "福知山市",
    "city_kana": "フクチヤマシ",
    "town": "大江町上野",
    "town_kana": "オオエチョウウエノ",
    "street": null,
    "office_name": null,
    "office_name_kana": null
  },
  "0305": {
    "zip_code": "6200305",
    "prefecture": "京都府",
    "prefecture_kana": "キョウトフ",
    "prefecture_code": "26",
    "city": "福知山市",
    "city_kana": "フクチヤマシ",
    "town": "大江町波美",
    "town_kana": "オオエチョウハビ",
    "street": null,
    "office_name": null,
    "office_name_kana": null
  },
  "0311": {
    "zip_code": "6200311",
    "prefecture": "京都府",
    "prefecture_kana": "キョウトフ",
    "prefecture_code": "26",
    "city": "福知山市",
    "city_kana": "フクチヤマシ",
    "town": "大江町蓼原",
    "town_kana": "オオエチョウタデワラ",
    "street": null,
    "office_name": null,
    "office_name_kana": null
  },
  "0312": {
    "zip_code": "6200312",
    "prefecture": "京都府",
    "prefecture_kana": "キョウトフ",
    "prefecture_code": "26",
    "city": "福知山市",
    "city_kana": "フクチヤマシ",
    "town": "大江町公庄",
    "town_kana": "オオエチョウグジョウ",
    "street": null,
    "office_name": null,
    "office_name_kana": null
  },
  "0313": {
    "zip_code": "6200313",
    "prefecture": "京都府",
    "prefecture_kana": "キョウトフ",
    "prefecture_code": "26",
    "city": "福知山市",
    "city_kana": "フクチヤマシ",
    "town": "大江町日藤",
    "town_kana": "オオエチョウヒトウ",
    "street": null,
    "office_name": null,
    "office_name_kana": null
  },
  "0314": {
    "zip_code": "6200314",
    "prefecture": "京都府",
    "prefecture_kana": "キョウトフ",
    "prefecture_code": "26",
    "city": "福知山市",
    "city_kana": "フクチヤマシ",
    "town": "大江町小原田",
    "town_kana": "オオエチョウオワラタ",
    "street": null,
    "office_name": null,
    "office_name_kana": null
  },
  "0321": {
    "zip_code": "6200321",
    "prefecture": "京都府",
    "prefecture_kana": "キョウトフ",
    "prefecture_code": "26",
    "city": "福知山市",
    "city_kana": "フクチヤマシ",
    "town": "大江町仏性寺",
    "town_kana": "オオエチョウブツショウジ",
    "street": null,
    "office_name": null,
    "office_name_kana": null
  },
  "0322": {
    "zip_code": "6200322",
    "prefecture": "京都府",
    "prefecture_kana": "キョウトフ",
    "prefecture_code": "26",
    "city": "福知山市",
    "city_kana": "フクチヤマシ",
    "town": "大江町毛原",
    "town_kana": "オオエチョウケワラ",
    "street": null,
    "office_name": null,
    "office_name_kana": null
  },
  "0323": {
    "zip_code": "6200323",
    "prefecture": "京都府",
    "prefecture_kana": "キョウトフ",
    "prefecture_code": "26",
    "city": "福知山市",
    "city_kana": "フクチヤマシ",
    "town": "大江町内宮",
    "town_kana": "オオエチョウナイク",
    "street": null,
    "office_name": null,
    "office_name_kana": null
  },
  "0324": {
    "zip_code": "6200324",
    "prefecture": "京都府",
    "prefecture_kana": "キョウトフ",
    "prefecture_code": "26",
    "city": "福知山市",
    "city_kana": "フクチヤマシ",
    "town": "大江町二俣",
    "town_kana": "オオエチョウフタマタ",
    "street": null,
    "office_name": null,
    "office_name_kana": null
  },
  "0325": {
    "zip_code": "6200325",
    "prefecture": "京都府",
    "prefecture_kana": "キョウトフ",
    "prefecture_code": "26",
    "city": "福知山市",
    "city_kana": "フクチヤマシ",
    "town": "大江町天田内",
    "town_kana": "オオエチョウアマダウチ",
    "street": null,
    "office_name": null,
    "office_name_kana": null
  },
  "0326": {
    "zip_code": "6200326",
    "prefecture": "京都府",
    "prefecture_kana": "キョウトフ",
    "prefecture_code": "26",
    "city": "福知山市",
    "city_kana": "フクチヤマシ",
    "town": "大江町橋谷",
    "town_kana": "オオエチョウハシダニ",
    "street": null,
    "office_name": null,
    "office_name_kana": null
  },
  "0327": {
    "zip_code": "6200327",
    "prefecture": "京都府",
    "prefecture_kana": "キョウトフ",
    "prefecture_code": "26",
    "city": "福知山市",
    "city_kana": "フクチヤマシ",
    "town": "大江町北原",
    "town_kana": "オオエチョウキタバラ",
    "street": null,
    "office_name": null,
    "office_name_kana": null
  },
  "0331": {
    "zip_code": "6200331",
    "prefecture": "京都府",
    "prefecture_kana": "キョウトフ",
    "prefecture_code": "26",
    "city": "福知山市",
    "city_kana": "フクチヤマシ",
    "town": "大江町三河",
    "town_kana": "オオエチョウソウゴ",
    "street": null,
    "office_name": null,
    "office_name_kana": null
  },
  "0332": {
    "zip_code": "6200332",
    "prefecture": "京都府",
    "prefecture_kana": "キョウトフ",
    "prefecture_code": "26",
    "city": "福知山市",
    "city_kana": "フクチヤマシ",
    "town": "大江町高津江",
    "town_kana": "オオエチョウタカツエ",
    "street": null,
    "office_name": null,
    "office_name_kana": null
  },
  "0333": {
    "zip_code": "6200333",
    "prefecture": "京都府",
    "prefecture_kana": "キョウトフ",
    "prefecture_code": "26",
    "city": "福知山市",
    "city_kana": "フクチヤマシ",
    "town": "大江町二箇",
    "town_kana": "オオエチョウニカ",
    "street": null,
    "office_name": null,
    "office_name_kana": null
  },
  "0334": {
    "zip_code": "6200334",
    "prefecture": "京都府",
    "prefecture_kana": "キョウトフ",
    "prefecture_code": "26",
    "city": "福知山市",
    "city_kana": "フクチヤマシ",
    "town": "大江町市原谷",
    "town_kana": "オオエチョウイチワラダニ",
    "street": null,
    "office_name": null,
    "office_name_kana": null
  },
  "0341": {
    "zip_code": "6200341",
    "prefecture": "京都府",
    "prefecture_kana": "キョウトフ",
    "prefecture_code": "26",
    "city": "福知山市",
    "city_kana": "フクチヤマシ",
    "town": "大江町北有路",
    "town_kana": "オオエチョウキタアリジ",
    "street": null,
    "office_name": null,
    "office_name_kana": null
  },
  "0342": {
    "zip_code": "6200342",
    "prefecture": "京都府",
    "prefecture_kana": "キョウトフ",
    "prefecture_code": "26",
    "city": "福知山市",
    "city_kana": "フクチヤマシ",
    "town": "大江町南有路",
    "town_kana": "オオエチョウミナミアリジ",
    "street": null,
    "office_name": null,
    "office_name_kana": null
  },
  "0351": {
    "zip_code": "6200351",
    "prefecture": "京都府",
    "prefecture_kana": "キョウトフ",
    "prefecture_code": "26",
    "city": "福知山市",
    "city_kana": "フクチヤマシ",
    "town": "大江町千原",
    "town_kana": "オオエチョウセンバラ",
    "street": null,
    "office_name": null,
    "office_name_kana": null
  },
  "0352": {
    "zip_code": "6200352",
    "prefecture": "京都府",
    "prefecture_kana": "キョウトフ",
    "prefecture_code": "26",
    "city": "福知山市",
    "city_kana": "フクチヤマシ",
    "town": "大江町南山",
    "town_kana": "オオエチョウミナミヤマ",
    "street": null,
    "office_name": null,
    "office_name_kana": null
  },
  "0353": {
    "zip_code": "6200353",
    "prefecture": "京都府",
    "prefecture_kana": "キョウトフ",
    "prefecture_code": "26",
    "city": "福知山市",
    "city_kana": "フクチヤマシ",
    "town": "大江町夏間",
    "town_kana": "オオエチョウナツマ",
    "street": null,
    "office_name": null,
    "office_name_kana": null
  },
  "0354": {
    "zip_code": "6200354",
    "prefecture": "京都府",
    "prefecture_kana": "キョウトフ",
    "prefecture_code": "26",
    "city": "福知山市",
    "city_kana": "フクチヤマシ",
    "town": "大江町在田",
    "town_kana": "オオエチョウアリタ",
    "street": null,
    "office_name": null,
    "office_name_kana": null
  },
  "0355": {
    "zip_code": "6200355",
    "prefecture": "京都府",
    "prefecture_kana": "キョウトフ",
    "prefecture_code": "26",
    "city": "福知山市",
    "city_kana": "フクチヤマシ",
    "town": "大江町常津",
    "town_kana": "オオエチョウツネヅ",
    "street": null,
    "office_name": null,
    "office_name_kana": null
  },
  "0356": {
    "zip_code": "6200356",
    "prefecture": "京都府",
    "prefecture_kana": "キョウトフ",
    "prefecture_code": "26",
    "city": "福知山市",
    "city_kana": "フクチヤマシ",
    "town": "大江町尾藤",
    "town_kana": "オオエチョウビトウ",
    "street": null,
    "office_name": null,
    "office_name_kana": null
  },
  "0801": {
    "zip_code": "6200801",
    "prefecture": "京都府",
    "prefecture_kana": "キョウトフ",
    "prefecture_code": "26",
    "city": "福知山市",
    "city_kana": "フクチヤマシ",
    "town": "戸田",
    "town_kana": "トダ",
    "street": null,
    "office_name": null,
    "office_name_kana": null
  },
  "0802": {
    "zip_code": "6200802",
    "prefecture": "京都府",
    "prefecture_kana": "キョウトフ",
    "prefecture_code": "26",
    "city": "福知山市",
    "city_kana": "フクチヤマシ",
    "town": "興",
    "town_kana": "オキ",
    "street": null,
    "office_name": null,
    "office_name_kana": null
  },
  "0803": {
    "zip_code": "6200803",
    "prefecture": "京都府",
    "prefecture_kana": "キョウトフ",
    "prefecture_code": "26",
    "city": "福知山市",
    "city_kana": "フクチヤマシ",
    "town": "観音寺",
    "town_kana": "カンノンジ",
    "street": null,
    "office_name": null,
    "office_name_kana": null
  },
  "0804": {
    "zip_code": "6200804",
    "prefecture": "京都府",
    "prefecture_kana": "キョウトフ",
    "prefecture_code": "26",
    "city": "福知山市",
    "city_kana": "フクチヤマシ",
    "town": "石原",
    "town_kana": "イサ",
    "street": null,
    "office_name": null,
    "office_name_kana": null
  },
  "0805": {
    "zip_code": "6200805",
    "prefecture": "京都府",
    "prefecture_kana": "キョウトフ",
    "prefecture_code": "26",
    "city": "福知山市",
    "city_kana": "フクチヤマシ",
    "town": "南土野町",
    "town_kana": "ミナミツチノチョウ",
    "street": null,
    "office_name": null,
    "office_name_kana": null
  },
  "0806": {
    "zip_code": "6200806",
    "prefecture": "京都府",
    "prefecture_kana": "キョウトフ",
    "prefecture_code": "26",
    "city": "福知山市",
    "city_kana": "フクチヤマシ",
    "town": "聖佳町",
    "town_kana": "セイカチョウ",
    "street": null,
    "office_name": null,
    "office_name_kana": null
  },
  "0807": {
    "zip_code": "6200807",
    "prefecture": "京都府",
    "prefecture_kana": "キョウトフ",
    "prefecture_code": "26",
    "city": "福知山市",
    "city_kana": "フクチヤマシ",
    "town": "東野町",
    "town_kana": "ヒガシノチョウ",
    "street": null,
    "office_name": null,
    "office_name_kana": null
  },
  "0808": {
    "zip_code": "6200808",
    "prefecture": "京都府",
    "prefecture_kana": "キョウトフ",
    "prefecture_code": "26",
    "city": "福知山市",
    "city_kana": "フクチヤマシ",
    "town": "土",
    "town_kana": "ツチ",
    "street": null,
    "office_name": null,
    "office_name_kana": null
  },
  "0811": {
    "zip_code": "6200811",
    "prefecture": "京都府",
    "prefecture_kana": "キョウトフ",
    "prefecture_code": "26",
    "city": "福知山市",
    "city_kana": "フクチヤマシ",
    "town": "北平野町",
    "town_kana": "キタヒラノチョウ",
    "street": null,
    "office_name": null,
    "office_name_kana": null
  },
  "0812": {
    "zip_code": "6200812",
    "prefecture": "京都府",
    "prefecture_kana": "キョウトフ",
    "prefecture_code": "26",
    "city": "福知山市",
    "city_kana": "フクチヤマシ",
    "town": "東平野町",
    "town_kana": "ヒガシヒラノチョウ",
    "street": null,
    "office_name": null,
    "office_name_kana": null
  },
  "0813": {
    "zip_code": "6200813",
    "prefecture": "京都府",
    "prefecture_kana": "キョウトフ",
    "prefecture_code": "26",
    "city": "福知山市",
    "city_kana": "フクチヤマシ",
    "town": "南平野町",
    "town_kana": "ミナミヒラノチョウ",
    "street": null,
    "office_name": null,
    "office_name_kana": null
  },
  "0814": {
    "zip_code": "6200814",
    "prefecture": "京都府",
    "prefecture_kana": "キョウトフ",
    "prefecture_code": "26",
    "city": "福知山市",
    "city_kana": "フクチヤマシ",
    "town": "西平野町",
    "town_kana": "ニシヒラノチョウ",
    "street": null,
    "office_name": null,
    "office_name_kana": null
  },
  "0815": {
    "zip_code": "6200815",
    "prefecture": "京都府",
    "prefecture_kana": "キョウトフ",
    "prefecture_code": "26",
    "city": "福知山市",
    "city_kana": "フクチヤマシ",
    "town": "長山町",
    "town_kana": "ナガヤマチョウ",
    "street": null,
    "office_name": null,
    "office_name_kana": null
  },
  "0816": {
    "zip_code": "6200816",
    "prefecture": "京都府",
    "prefecture_kana": "キョウトフ",
    "prefecture_code": "26",
    "city": "福知山市",
    "city_kana": "フクチヤマシ",
    "town": "大池坂町",
    "town_kana": "オオイケザカチョウ",
    "street": null,
    "office_name": null,
    "office_name_kana": null
  },
  "0817": {
    "zip_code": "6200817",
    "prefecture": "京都府",
    "prefecture_kana": "キョウトフ",
    "prefecture_code": "26",
    "city": "福知山市",
    "city_kana": "フクチヤマシ",
    "town": "中坂町",
    "town_kana": "ナカサカチョウ",
    "street": null,
    "office_name": null,
    "office_name_kana": null
  },
  "0821": {
    "zip_code": "6200821",
    "prefecture": "京都府",
    "prefecture_kana": "キョウトフ",
    "prefecture_code": "26",
    "city": "福知山市",
    "city_kana": "フクチヤマシ",
    "town": "三俣",
    "town_kana": "ミマタ",
    "street": null,
    "office_name": null,
    "office_name_kana": null
  },
  "0822": {
    "zip_code": "6200822",
    "prefecture": "京都府",
    "prefecture_kana": "キョウトフ",
    "prefecture_code": "26",
    "city": "福知山市",
    "city_kana": "フクチヤマシ",
    "town": "萩原",
    "town_kana": "ハギワラ",
    "street": null,
    "office_name": null,
    "office_name_kana": null
  },
  "0823": {
    "zip_code": "6200823",
    "prefecture": "京都府",
    "prefecture_kana": "キョウトフ",
    "prefecture_code": "26",
    "city": "福知山市",
    "city_kana": "フクチヤマシ",
    "town": "生野",
    "town_kana": "イクノ",
    "street": null,
    "office_name": null,
    "office_name_kana": null
  },
  "0824": {
    "zip_code": "6200824",
    "prefecture": "京都府",
    "prefecture_kana": "キョウトフ",
    "prefecture_code": "26",
    "city": "福知山市",
    "city_kana": "フクチヤマシ",
    "town": "堀越",
    "town_kana": "ホリコシ",
    "street": null,
    "office_name": null,
    "office_name_kana": null
  },
  "0825": {
    "zip_code": "6200825",
    "prefecture": "京都府",
    "prefecture_kana": "キョウトフ",
    "prefecture_code": "26",
    "city": "福知山市",
    "city_kana": "フクチヤマシ",
    "town": "上野",
    "town_kana": "ウエノ",
    "street": null,
    "office_name": null,
    "office_name_kana": null
  },
  "0826": {
    "zip_code": "6200826",
    "prefecture": "京都府",
    "prefecture_kana": "キョウトフ",
    "prefecture_code": "26",
    "city": "福知山市",
    "city_kana": "フクチヤマシ",
    "town": "正後寺",
    "town_kana": "ショウゴジ",
    "street": null,
    "office_name": null,
    "office_name_kana": null
  },
  "0827": {
    "zip_code": "6200827",
    "prefecture": "京都府",
    "prefecture_kana": "キョウトフ",
    "prefecture_code": "26",
    "city": "福知山市",
    "city_kana": "フクチヤマシ",
    "town": "坂室",
    "town_kana": "サカムロ",
    "street": null,
    "office_name": null,
    "office_name_kana": null
  },
  "0828": {
    "zip_code": "6200828",
    "prefecture": "京都府",
    "prefecture_kana": "キョウトフ",
    "prefecture_code": "26",
    "city": "福知山市",
    "city_kana": "フクチヤマシ",
    "town": "正坂",
    "town_kana": "ショウサカ",
    "street": null,
    "office_name": null,
    "office_name_kana": null
  },
  "0831": {
    "zip_code": "6200831",
    "prefecture": "京都府",
    "prefecture_kana": "キョウトフ",
    "prefecture_code": "26",
    "city": "福知山市",
    "city_kana": "フクチヤマシ",
    "town": "岩崎",
    "town_kana": "イワサキ",
    "street": null,
    "office_name": null,
    "office_name_kana": null
  },
  "0832": {
    "zip_code": "6200832",
    "prefecture": "京都府",
    "prefecture_kana": "キョウトフ",
    "prefecture_code": "26",
    "city": "福知山市",
    "city_kana": "フクチヤマシ",
    "town": "池田",
    "town_kana": "イケダ",
    "street": null,
    "office_name": null,
    "office_name_kana": null
  },
  "0833": {
    "zip_code": "6200833",
    "prefecture": "京都府",
    "prefecture_kana": "キョウトフ",
    "prefecture_code": "26",
    "city": "福知山市",
    "city_kana": "フクチヤマシ",
    "town": "宮",
    "town_kana": "ミヤ",
    "street": null,
    "office_name": null,
    "office_name_kana": null
  },
  "0834": {
    "zip_code": "6200834",
    "prefecture": "京都府",
    "prefecture_kana": "キョウトフ",
    "prefecture_code": "26",
    "city": "福知山市",
    "city_kana": "フクチヤマシ",
    "town": "中地",
    "town_kana": "ナカチ",
    "street": null,
    "office_name": null,
    "office_name_kana": null
  },
  "0835": {
    "zip_code": "6200835",
    "prefecture": "京都府",
    "prefecture_kana": "キョウトフ",
    "prefecture_code": "26",
    "city": "福知山市",
    "city_kana": "フクチヤマシ",
    "town": "後正寺",
    "town_kana": "ゴショウジ",
    "street": null,
    "office_name": null,
    "office_name_kana": null
  },
  "0836": {
    "zip_code": "6200836",
    "prefecture": "京都府",
    "prefecture_kana": "キョウトフ",
    "prefecture_code": "26",
    "city": "福知山市",
    "city_kana": "フクチヤマシ",
    "town": "大内",
    "town_kana": "オオチ",
    "street": null,
    "office_name": null,
    "office_name_kana": null
  },
  "0837": {
    "zip_code": "6200837",
    "prefecture": "京都府",
    "prefecture_kana": "キョウトフ",
    "prefecture_code": "26",
    "city": "福知山市",
    "city_kana": "フクチヤマシ",
    "town": "田野",
    "town_kana": "タノ",
    "street": null,
    "office_name": null,
    "office_name_kana": null
  },
  "0838": {
    "zip_code": "6200838",
    "prefecture": "京都府",
    "prefecture_kana": "キョウトフ",
    "prefecture_code": "26",
    "city": "福知山市",
    "city_kana": "フクチヤマシ",
    "town": "笹場",
    "town_kana": "ササバ",
    "street": null,
    "office_name": null,
    "office_name_kana": null
  },
  "0839": {
    "zip_code": "6200839",
    "prefecture": "京都府",
    "prefecture_kana": "キョウトフ",
    "prefecture_code": "26",
    "city": "福知山市",
    "city_kana": "フクチヤマシ",
    "town": "下地",
    "town_kana": "シモジ",
    "street": null,
    "office_name": null,
    "office_name_kana": null
  },
  "0841": {
    "zip_code": "6200841",
    "prefecture": "京都府",
    "prefecture_kana": "キョウトフ",
    "prefecture_code": "26",
    "city": "福知山市",
    "city_kana": "フクチヤマシ",
    "town": "駒場新町",
    "town_kana": "コマバシンマチ",
    "street": null,
    "office_name": null,
    "office_name_kana": null
  },
  "0842": {
    "zip_code": "6200842",
    "prefecture": "京都府",
    "prefecture_kana": "キョウトフ",
    "prefecture_code": "26",
    "city": "福知山市",
    "city_kana": "フクチヤマシ",
    "town": "長田北",
    "town_kana": "オサダキタ",
    "street": null,
    "office_name": null,
    "office_name_kana": null
  },
  "0843": {
    "zip_code": "6200843",
    "prefecture": "京都府",
    "prefecture_kana": "キョウトフ",
    "prefecture_code": "26",
    "city": "福知山市",
    "city_kana": "フクチヤマシ",
    "town": "長田南",
    "town_kana": "オサダミナミ",
    "street": null,
    "office_name": null,
    "office_name_kana": null
  },
  "0844": {
    "zip_code": "6200844",
    "prefecture": "京都府",
    "prefecture_kana": "キョウトフ",
    "prefecture_code": "26",
    "city": "福知山市",
    "city_kana": "フクチヤマシ",
    "town": "多保市",
    "town_kana": "トオノイチ",
    "street": null,
    "office_name": null,
    "office_name_kana": null
  },
  "0845": {
    "zip_code": "6200845",
    "prefecture": "京都府",
    "prefecture_kana": "キョウトフ",
    "prefecture_code": "26",
    "city": "福知山市",
    "city_kana": "フクチヤマシ",
    "town": "上松",
    "town_kana": "ウエマツ",
    "street": null,
    "office_name": null,
    "office_name_kana": null
  },
  "0846": {
    "zip_code": "6200846",
    "prefecture": "京都府",
    "prefecture_kana": "キョウトフ",
    "prefecture_code": "26",
    "city": "福知山市",
    "city_kana": "フクチヤマシ",
    "town": "長田段",
    "town_kana": "オサダダン",
    "street": null,
    "office_name": null,
    "office_name_kana": null
  },
  "0847": {
    "zip_code": "6200847",
    "prefecture": "京都府",
    "prefecture_kana": "キョウトフ",
    "prefecture_code": "26",
    "city": "福知山市",
    "city_kana": "フクチヤマシ",
    "town": "岩間",
    "town_kana": "イワマ",
    "street": null,
    "office_name": null,
    "office_name_kana": null
  },
  "0848": {
    "zip_code": "6200848",
    "prefecture": "京都府",
    "prefecture_kana": "キョウトフ",
    "prefecture_code": "26",
    "city": "福知山市",
    "city_kana": "フクチヤマシ",
    "town": "市の谷",
    "town_kana": "イチノタニ",
    "street": null,
    "office_name": null,
    "office_name_kana": null
  },
  "0849": {
    "zip_code": "6200849",
    "prefecture": "京都府",
    "prefecture_kana": "キョウトフ",
    "prefecture_code": "26",
    "city": "福知山市",
    "city_kana": "フクチヤマシ",
    "town": "砂子町",
    "town_kana": "スナゴマチ",
    "street": null,
    "office_name": null,
    "office_name_kana": null
  },
  "0851": {
    "zip_code": "6200851",
    "prefecture": "京都府",
    "prefecture_kana": "キョウトフ",
    "prefecture_code": "26",
    "city": "福知山市",
    "city_kana": "フクチヤマシ",
    "town": "大野下",
    "town_kana": "オオノシタ",
    "street": null,
    "office_name": null,
    "office_name_kana": null
  },
  "0852": {
    "zip_code": "6200852",
    "prefecture": "京都府",
    "prefecture_kana": "キョウトフ",
    "prefecture_code": "26",
    "city": "福知山市",
    "city_kana": "フクチヤマシ",
    "town": "大野上",
    "town_kana": "オオノウエ",
    "street": null,
    "office_name": null,
    "office_name_kana": null
  },
  "0853": {
    "zip_code": "6200853",
    "prefecture": "京都府",
    "prefecture_kana": "キョウトフ",
    "prefecture_code": "26",
    "city": "福知山市",
    "city_kana": "フクチヤマシ",
    "town": "長田野町",
    "town_kana": "オサダノチョウ",
    "street": null,
    "office_name": null,
    "office_name_kana": null
  },
  "0854": {
    "zip_code": "6200854",
    "prefecture": "京都府",
    "prefecture_kana": "キョウトフ",
    "prefecture_code": "26",
    "city": "福知山市",
    "city_kana": "フクチヤマシ",
    "town": "高畑",
    "town_kana": "タカバタケ",
    "street": null,
    "office_name": null,
    "office_name_kana": null
  },
  "0855": [
    {
      "zip_code": "6200855",
      "prefecture": "京都府",
      "prefecture_kana": "キョウトフ",
      "prefecture_code": "26",
      "city": "福知山市",
      "city_kana": "フクチヤマシ",
      "town": "土師",
      "town_kana": "ハゼ",
      "street": null,
      "office_name": null,
      "office_name_kana": null
    },
    {
      "zip_code": "6200855",
      "prefecture": "京都府",
      "prefecture_kana": "キョウトフ",
      "prefecture_code": "26",
      "city": "福知山市",
      "city_kana": "フクチヤマシ",
      "town": "土師新町",
      "town_kana": "ハゼシンマチ",
      "street": null,
      "office_name": null,
      "office_name_kana": null
    }
  ],
  "0856": [
    {
      "zip_code": "6200856",
      "prefecture": "京都府",
      "prefecture_kana": "キョウトフ",
      "prefecture_code": "26",
      "city": "福知山市",
      "city_kana": "フクチヤマシ",
      "town": "土師",
      "town_kana": "ハゼ",
      "street": null,
      "office_name": null,
      "office_name_kana": null
    },
    {
      "zip_code": "6200856",
      "prefecture": "京都府",
      "prefecture_kana": "キョウトフ",
      "prefecture_code": "26",
      "city": "福知山市",
      "city_kana": "フクチヤマシ",
      "town": "土師宮町",
      "town_kana": "ハゼミヤマチ",
      "street": null,
      "office_name": null,
      "office_name_kana": null
    }
  ],
  "0857": {
    "zip_code": "6200857",
    "prefecture": "京都府",
    "prefecture_kana": "キョウトフ",
    "prefecture_code": "26",
    "city": "福知山市",
    "city_kana": "フクチヤマシ",
    "town": "土師",
    "town_kana": "ハゼ",
    "street": null,
    "office_name": null,
    "office_name_kana": null
  },
  "0858": {
    "zip_code": "6200858",
    "prefecture": "京都府",
    "prefecture_kana": "キョウトフ",
    "prefecture_code": "26",
    "city": "福知山市",
    "city_kana": "フクチヤマシ",
    "town": "大野",
    "town_kana": "オオノ",
    "street": null,
    "office_name": null,
    "office_name_kana": null
  },
  "0859": {
    "zip_code": "6200859",
    "prefecture": "京都府",
    "prefecture_kana": "キョウトフ",
    "prefecture_code": "26",
    "city": "福知山市",
    "city_kana": "フクチヤマシ",
    "town": "桔梗が丘",
    "town_kana": "キキョウガオカ",
    "street": null,
    "office_name": null,
    "office_name_kana": null
  },
  "0861": {
    "zip_code": "6200861",
    "prefecture": "京都府",
    "prefecture_kana": "キョウトフ",
    "prefecture_code": "26",
    "city": "福知山市",
    "city_kana": "フクチヤマシ",
    "town": "秋津が丘",
    "town_kana": "アキツガオカ",
    "street": null,
    "office_name": null,
    "office_name_kana": null
  },
  "0862": {
    "zip_code": "6200862",
    "prefecture": "京都府",
    "prefecture_kana": "キョウトフ",
    "prefecture_code": "26",
    "city": "福知山市",
    "city_kana": "フクチヤマシ",
    "town": "東佳屋野町",
    "town_kana": "ヒガシカヤノチョウ",
    "street": null,
    "office_name": null,
    "office_name_kana": null
  },
  "0863": {
    "zip_code": "6200863",
    "prefecture": "京都府",
    "prefecture_kana": "キョウトフ",
    "prefecture_code": "26",
    "city": "福知山市",
    "city_kana": "フクチヤマシ",
    "town": "小松ケ丘",
    "town_kana": "コマツガオカ",
    "street": null,
    "office_name": null,
    "office_name_kana": null
  },
  "0864": {
    "zip_code": "6200864",
    "prefecture": "京都府",
    "prefecture_kana": "キョウトフ",
    "prefecture_code": "26",
    "city": "福知山市",
    "city_kana": "フクチヤマシ",
    "town": "南佳屋野町",
    "town_kana": "ミナミカヤノチョウ",
    "street": null,
    "office_name": null,
    "office_name_kana": null
  },
  "0865": {
    "zip_code": "6200865",
    "prefecture": "京都府",
    "prefecture_kana": "キョウトフ",
    "prefecture_code": "26",
    "city": "福知山市",
    "city_kana": "フクチヤマシ",
    "town": "西佳屋野町",
    "town_kana": "ニシカヤノチョウ",
    "street": null,
    "office_name": null,
    "office_name_kana": null
  },
  "0866": {
    "zip_code": "6200866",
    "prefecture": "京都府",
    "prefecture_kana": "キョウトフ",
    "prefecture_code": "26",
    "city": "福知山市",
    "city_kana": "フクチヤマシ",
    "town": "前田新町",
    "town_kana": "マエダシンマチ",
    "street": null,
    "office_name": null,
    "office_name_kana": null
  },
  "0867": {
    "zip_code": "6200867",
    "prefecture": "京都府",
    "prefecture_kana": "キョウトフ",
    "prefecture_code": "26",
    "city": "福知山市",
    "city_kana": "フクチヤマシ",
    "town": "前田",
    "town_kana": "マエダ",
    "street": null,
    "office_name": null,
    "office_name_kana": null
  },
  "0871": {
    "zip_code": "6200871",
    "prefecture": "京都府",
    "prefecture_kana": "キョウトフ",
    "prefecture_code": "26",
    "city": "福知山市",
    "city_kana": "フクチヤマシ",
    "town": "岡ノ二町",
    "town_kana": "オカノ2マチ",
    "street": null,
    "office_name": null,
    "office_name_kana": null
  },
  "0872": {
    "zip_code": "6200872",
    "prefecture": "京都府",
    "prefecture_kana": "キョウトフ",
    "prefecture_code": "26",
    "city": "福知山市",
    "city_kana": "フクチヤマシ",
    "town": "岡ノ一町",
    "town_kana": "オカノ1マチ",
    "street": null,
    "office_name": null,
    "office_name_kana": null
  },
  "0873": {
    "zip_code": "6200873",
    "prefecture": "京都府",
    "prefecture_kana": "キョウトフ",
    "prefecture_code": "26",
    "city": "福知山市",
    "city_kana": "フクチヤマシ",
    "town": "岡ノ三町",
    "town_kana": "オカノ3マチ",
    "street": null,
    "office_name": null,
    "office_name_kana": null
  },
  "0874": {
    "zip_code": "6200874",
    "prefecture": "京都府",
    "prefecture_kana": "キョウトフ",
    "prefecture_code": "26",
    "city": "福知山市",
    "city_kana": "フクチヤマシ",
    "town": "堀口",
    "town_kana": "ホリグチ",
    "street": null,
    "office_name": null,
    "office_name_kana": null
  },
  "0875": {
    "zip_code": "6200875",
    "prefecture": "京都府",
    "prefecture_kana": "キョウトフ",
    "prefecture_code": "26",
    "city": "福知山市",
    "city_kana": "フクチヤマシ",
    "town": "蛇ケ端",
    "town_kana": "ジャガハナ",
    "street": null,
    "office_name": null,
    "office_name_kana": null
  },
  "0876": {
    "zip_code": "6200876",
    "prefecture": "京都府",
    "prefecture_kana": "キョウトフ",
    "prefecture_code": "26",
    "city": "福知山市",
    "city_kana": "フクチヤマシ",
    "town": "水内",
    "town_kana": "ミズウチ",
    "street": null,
    "office_name": null,
    "office_name_kana": null
  },
  "0877": {
    "zip_code": "6200877",
    "prefecture": "京都府",
    "prefecture_kana": "キョウトフ",
    "prefecture_code": "26",
    "city": "福知山市",
    "city_kana": "フクチヤマシ",
    "town": "森垣",
    "town_kana": "モリガイ",
    "street": null,
    "office_name": null,
    "office_name_kana": null
  },
  "0878": {
    "zip_code": "6200878",
    "prefecture": "京都府",
    "prefecture_kana": "キョウトフ",
    "prefecture_code": "26",
    "city": "福知山市",
    "city_kana": "フクチヤマシ",
    "town": "日吉ケ丘",
    "town_kana": "ヒヨシガオカ",
    "street": null,
    "office_name": null,
    "office_name_kana": null
  },
  "0879": {
    "zip_code": "6200879",
    "prefecture": "京都府",
    "prefecture_kana": "キョウトフ",
    "prefecture_code": "26",
    "city": "福知山市",
    "city_kana": "フクチヤマシ",
    "town": "荒木",
    "town_kana": "アラキ",
    "street": null,
    "office_name": null,
    "office_name_kana": null
  },
  "0881": {
    "zip_code": "6200881",
    "prefecture": "京都府",
    "prefecture_kana": "キョウトフ",
    "prefecture_code": "26",
    "city": "福知山市",
    "city_kana": "フクチヤマシ",
    "town": "内田町",
    "town_kana": "ウチダチョウ",
    "street": null,
    "office_name": null,
    "office_name_kana": null
  },
  "0882": {
    "zip_code": "6200882",
    "prefecture": "京都府",
    "prefecture_kana": "キョウトフ",
    "prefecture_code": "26",
    "city": "福知山市",
    "city_kana": "フクチヤマシ",
    "town": "東堀",
    "town_kana": "ヒガシボリ",
    "street": null,
    "office_name": null,
    "office_name_kana": null
  },
  "0883": {
    "zip_code": "6200883",
    "prefecture": "京都府",
    "prefecture_kana": "キョウトフ",
    "prefecture_code": "26",
    "city": "福知山市",
    "city_kana": "フクチヤマシ",
    "town": "本堀",
    "town_kana": "ホンボリ",
    "street": null,
    "office_name": null,
    "office_name_kana": null
  },
  "0884": {
    "zip_code": "6200884",
    "prefecture": "京都府",
    "prefecture_kana": "キョウトフ",
    "prefecture_code": "26",
    "city": "福知山市",
    "city_kana": "フクチヤマシ",
    "town": "南本堀",
    "town_kana": "ミナミホンボリ",
    "street": null,
    "office_name": null,
    "office_name_kana": null
  },
  "0885": {
    "zip_code": "6200885",
    "prefecture": "京都府",
    "prefecture_kana": "キョウトフ",
    "prefecture_code": "26",
    "city": "福知山市",
    "city_kana": "フクチヤマシ",
    "town": "南小谷ケ丘",
    "town_kana": "ミナミコタニガオカ",
    "street": null,
    "office_name": null,
    "office_name_kana": null
  },
  "0886": {
    "zip_code": "6200886",
    "prefecture": "京都府",
    "prefecture_kana": "キョウトフ",
    "prefecture_code": "26",
    "city": "福知山市",
    "city_kana": "フクチヤマシ",
    "town": "西小谷ケ丘",
    "town_kana": "ニシコタニガオカ",
    "street": null,
    "office_name": null,
    "office_name_kana": null
  },
  "0887": {
    "zip_code": "6200887",
    "prefecture": "京都府",
    "prefecture_kana": "キョウトフ",
    "prefecture_code": "26",
    "city": "福知山市",
    "city_kana": "フクチヤマシ",
    "town": "東小谷ケ丘",
    "town_kana": "ヒガシコタニガオカ",
    "street": null,
    "office_name": null,
    "office_name_kana": null
  },
  "0888": {
    "zip_code": "6200888",
    "prefecture": "京都府",
    "prefecture_kana": "キョウトフ",
    "prefecture_code": "26",
    "city": "福知山市",
    "city_kana": "フクチヤマシ",
    "town": "野家",
    "town_kana": "ノケ",
    "street": null,
    "office_name": null,
    "office_name_kana": null
  },
  "0891": {
    "zip_code": "6200891",
    "prefecture": "京都府",
    "prefecture_kana": "キョウトフ",
    "prefecture_code": "26",
    "city": "福知山市",
    "city_kana": "フクチヤマシ",
    "town": "岡ノ上町",
    "town_kana": "オカノウエマチ",
    "street": null,
    "office_name": null,
    "office_name_kana": null
  },
  "0892": {
    "zip_code": "6200892",
    "prefecture": "京都府",
    "prefecture_kana": "キョウトフ",
    "prefecture_code": "26",
    "city": "福知山市",
    "city_kana": "フクチヤマシ",
    "town": "東岡町",
    "town_kana": "ヒガシオカチョウ",
    "street": null,
    "office_name": null,
    "office_name_kana": null
  },
  "0893": {
    "zip_code": "6200893",
    "prefecture": "京都府",
    "prefecture_kana": "キョウトフ",
    "prefecture_code": "26",
    "city": "福知山市",
    "city_kana": "フクチヤマシ",
    "town": "北小谷ケ丘",
    "town_kana": "キタコタニガオカ",
    "street": null,
    "office_name": null,
    "office_name_kana": null
  },
  "0894": {
    "zip_code": "6200894",
    "prefecture": "京都府",
    "prefecture_kana": "キョウトフ",
    "prefecture_code": "26",
    "city": "福知山市",
    "city_kana": "フクチヤマシ",
    "town": "丸田ケ丘",
    "town_kana": "マルタガオカ",
    "street": null,
    "office_name": null,
    "office_name_kana": null
  },
  "0895": {
    "zip_code": "6200895",
    "prefecture": "京都府",
    "prefecture_kana": "キョウトフ",
    "prefecture_code": "26",
    "city": "福知山市",
    "city_kana": "フクチヤマシ",
    "town": "緑ケ丘町",
    "town_kana": "ミドリガオカチョウ",
    "street": null,
    "office_name": null,
    "office_name_kana": null
  },
  "0901": {
    "zip_code": "6200901",
    "prefecture": "京都府",
    "prefecture_kana": "キョウトフ",
    "prefecture_code": "26",
    "city": "福知山市",
    "city_kana": "フクチヤマシ",
    "town": "上佐々木",
    "town_kana": "カミササキ",
    "street": null,
    "office_name": null,
    "office_name_kana": null
  },
  "0902": {
    "zip_code": "6200902",
    "prefecture": "京都府",
    "prefecture_kana": "キョウトフ",
    "prefecture_code": "26",
    "city": "福知山市",
    "city_kana": "フクチヤマシ",
    "town": "喜多",
    "town_kana": "キタ",
    "street": null,
    "office_name": null,
    "office_name_kana": null
  },
  "0903": {
    "zip_code": "6200903",
    "prefecture": "京都府",
    "prefecture_kana": "キョウトフ",
    "prefecture_code": "26",
    "city": "福知山市",
    "city_kana": "フクチヤマシ",
    "town": "日尾",
    "town_kana": "ヒノオ",
    "street": null,
    "office_name": null,
    "office_name_kana": null
  },
  "0904": {
    "zip_code": "6200904",
    "prefecture": "京都府",
    "prefecture_kana": "キョウトフ",
    "prefecture_code": "26",
    "city": "福知山市",
    "city_kana": "フクチヤマシ",
    "town": "常願寺",
    "town_kana": "ジョウガンジ",
    "street": null,
    "office_name": null,
    "office_name_kana": null
  },
  "0905": {
    "zip_code": "6200905",
    "prefecture": "京都府",
    "prefecture_kana": "キョウトフ",
    "prefecture_code": "26",
    "city": "福知山市",
    "city_kana": "フクチヤマシ",
    "town": "田和",
    "town_kana": "タワ",
    "street": null,
    "office_name": null,
    "office_name_kana": null
  },
  "0906": {
    "zip_code": "6200906",
    "prefecture": "京都府",
    "prefecture_kana": "キョウトフ",
    "prefecture_code": "26",
    "city": "福知山市",
    "city_kana": "フクチヤマシ",
    "town": "新宮",
    "town_kana": "シングウ",
    "street": null,
    "office_name": null,
    "office_name_kana": null
  },
  "0907": {
    "zip_code": "6200907",
    "prefecture": "京都府",
    "prefecture_kana": "キョウトフ",
    "prefecture_code": "26",
    "city": "福知山市",
    "city_kana": "フクチヤマシ",
    "town": "一ノ宮",
    "town_kana": "イチノミヤ",
    "street": null,
    "office_name": null,
    "office_name_kana": null
  },
  "0908": {
    "zip_code": "6200908",
    "prefecture": "京都府",
    "prefecture_kana": "キョウトフ",
    "prefecture_code": "26",
    "city": "福知山市",
    "city_kana": "フクチヤマシ",
    "town": "下佐々木",
    "town_kana": "シモササキ",
    "street": null,
    "office_name": null,
    "office_name_kana": null
  },
  "0909": {
    "zip_code": "6200909",
    "prefecture": "京都府",
    "prefecture_kana": "キョウトフ",
    "prefecture_code": "26",
    "city": "福知山市",
    "city_kana": "フクチヤマシ",
    "town": "中佐々木",
    "town_kana": "ナカササキ",
    "street": null,
    "office_name": null,
    "office_name_kana": null
  },
  "0911": {
    "zip_code": "6200911",
    "prefecture": "京都府",
    "prefecture_kana": "キョウトフ",
    "prefecture_code": "26",
    "city": "福知山市",
    "city_kana": "フクチヤマシ",
    "town": "上大内",
    "town_kana": "カミオオチ",
    "street": null,
    "office_name": null,
    "office_name_kana": null
  },
  "0912": {
    "zip_code": "6200912",
    "prefecture": "京都府",
    "prefecture_kana": "キョウトフ",
    "prefecture_code": "26",
    "city": "福知山市",
    "city_kana": "フクチヤマシ",
    "town": "下大内",
    "town_kana": "シモオオチ",
    "street": null,
    "office_name": null,
    "office_name_kana": null
  },
  "0913": {
    "zip_code": "6200913",
    "prefecture": "京都府",
    "prefecture_kana": "キョウトフ",
    "prefecture_code": "26",
    "city": "福知山市",
    "city_kana": "フクチヤマシ",
    "town": "牧",
    "town_kana": "マキ",
    "street": null,
    "office_name": null,
    "office_name_kana": null
  },
  "0914": {
    "zip_code": "6200914",
    "prefecture": "京都府",
    "prefecture_kana": "キョウトフ",
    "prefecture_code": "26",
    "city": "福知山市",
    "city_kana": "フクチヤマシ",
    "town": "立原",
    "town_kana": "タツワラ",
    "street": null,
    "office_name": null,
    "office_name_kana": null
  },
  "0915": {
    "zip_code": "6200915",
    "prefecture": "京都府",
    "prefecture_kana": "キョウトフ",
    "prefecture_code": "26",
    "city": "福知山市",
    "city_kana": "フクチヤマシ",
    "town": "十二",
    "town_kana": "ジュウニ",
    "street": null,
    "office_name": null,
    "office_name_kana": null
  },
  "0916": {
    "zip_code": "6200916",
    "prefecture": "京都府",
    "prefecture_kana": "キョウトフ",
    "prefecture_code": "26",
    "city": "福知山市",
    "city_kana": "フクチヤマシ",
    "town": "六十内",
    "town_kana": "ムソチ",
    "street": null,
    "office_name": null,
    "office_name_kana": null
  },
  "0917": {
    "zip_code": "6200917",
    "prefecture": "京都府",
    "prefecture_kana": "キョウトフ",
    "prefecture_code": "26",
    "city": "福知山市",
    "city_kana": "フクチヤマシ",
    "town": "野花",
    "town_kana": "ノバナ",
    "street": null,
    "office_name": null,
    "office_name_kana": null
  },
  "0918": {
    "zip_code": "6200918",
    "prefecture": "京都府",
    "prefecture_kana": "キョウトフ",
    "prefecture_code": "26",
    "city": "福知山市",
    "city_kana": "フクチヤマシ",
    "town": "夷",
    "town_kana": "エビス",
    "street": null,
    "office_name": null,
    "office_name_kana": null
  },
  "0920": {
    "zip_code": "6200920",
    "prefecture": "京都府",
    "prefecture_kana": "キョウトフ",
    "prefecture_code": "26",
    "city": "福知山市",
    "city_kana": "フクチヤマシ",
    "town": "岩井新町",
    "town_kana": "イワイシンマチ",
    "street": null,
    "office_name": null,
    "office_name_kana": null
  },
  "0921": {
    "zip_code": "6200921",
    "prefecture": "京都府",
    "prefecture_kana": "キョウトフ",
    "prefecture_code": "26",
    "city": "福知山市",
    "city_kana": "フクチヤマシ",
    "town": "かしの木台",
    "town_kana": "カシノキダイ",
    "street": null,
    "office_name": null,
    "office_name_kana": null
  },
  "0922": {
    "zip_code": "6200922",
    "prefecture": "京都府",
    "prefecture_kana": "キョウトフ",
    "prefecture_code": "26",
    "city": "福知山市",
    "city_kana": "フクチヤマシ",
    "town": "岩井",
    "town_kana": "イワイ",
    "street": null,
    "office_name": null,
    "office_name_kana": null
  },
  "0923": {
    "zip_code": "6200923",
    "prefecture": "京都府",
    "prefecture_kana": "キョウトフ",
    "prefecture_code": "26",
    "city": "福知山市",
    "city_kana": "フクチヤマシ",
    "town": "本庄",
    "town_kana": "ホンショウ",
    "street": null,
    "office_name": null,
    "office_name_kana": null
  },
  "0924": {
    "zip_code": "6200924",
    "prefecture": "京都府",
    "prefecture_kana": "キョウトフ",
    "prefecture_code": "26",
    "city": "福知山市",
    "city_kana": "フクチヤマシ",
    "town": "下篠尾",
    "town_kana": "シモサソオ",
    "street": null,
    "office_name": null,
    "office_name_kana": null
  },
  "0925": {
    "zip_code": "6200925",
    "prefecture": "京都府",
    "prefecture_kana": "キョウトフ",
    "prefecture_code": "26",
    "city": "福知山市",
    "city_kana": "フクチヤマシ",
    "town": "上篠尾",
    "town_kana": "カミサソオ",
    "street": null,
    "office_name": null,
    "office_name_kana": null
  },
  "0926": {
    "zip_code": "6200926",
    "prefecture": "京都府",
    "prefecture_kana": "キョウトフ",
    "prefecture_code": "26",
    "city": "福知山市",
    "city_kana": "フクチヤマシ",
    "town": "新庄",
    "town_kana": "シンジョウ",
    "street": null,
    "office_name": null,
    "office_name_kana": null
  },
  "0927": {
    "zip_code": "6200927",
    "prefecture": "京都府",
    "prefecture_kana": "キョウトフ",
    "prefecture_code": "26",
    "city": "福知山市",
    "city_kana": "フクチヤマシ",
    "town": "和久寺",
    "town_kana": "ワクデラ",
    "street": null,
    "office_name": null,
    "office_name_kana": null
  },
  "0928": {
    "zip_code": "6200928",
    "prefecture": "京都府",
    "prefecture_kana": "キョウトフ",
    "prefecture_code": "26",
    "city": "福知山市",
    "city_kana": "フクチヤマシ",
    "town": "奥野部",
    "town_kana": "オクノベ",
    "street": null,
    "office_name": null,
    "office_name_kana": null
  },
  "0931": {
    "zip_code": "6200931",
    "prefecture": "京都府",
    "prefecture_kana": "キョウトフ",
    "prefecture_code": "26",
    "city": "福知山市",
    "city_kana": "フクチヤマシ",
    "town": "北羽合",
    "town_kana": "キタハゴウ",
    "street": null,
    "office_name": null,
    "office_name_kana": null
  },
  "0932": {
    "zip_code": "6200932",
    "prefecture": "京都府",
    "prefecture_kana": "キョウトフ",
    "prefecture_code": "26",
    "city": "福知山市",
    "city_kana": "フクチヤマシ",
    "town": "西羽合",
    "town_kana": "ニシハゴウ",
    "street": null,
    "office_name": null,
    "office_name_kana": null
  },
  "0933": {
    "zip_code": "6200933",
    "prefecture": "京都府",
    "prefecture_kana": "キョウトフ",
    "prefecture_code": "26",
    "city": "福知山市",
    "city_kana": "フクチヤマシ",
    "town": "東羽合",
    "town_kana": "ヒガシハゴウ",
    "street": null,
    "office_name": null,
    "office_name_kana": null
  },
  "0934": {
    "zip_code": "6200934",
    "prefecture": "京都府",
    "prefecture_kana": "キョウトフ",
    "prefecture_code": "26",
    "city": "福知山市",
    "city_kana": "フクチヤマシ",
    "town": "南羽合",
    "town_kana": "ミナミハゴウ",
    "street": null,
    "office_name": null,
    "office_name_kana": null
  },
  "0935": {
    "zip_code": "6200935",
    "prefecture": "京都府",
    "prefecture_kana": "キョウトフ",
    "prefecture_code": "26",
    "city": "福知山市",
    "city_kana": "フクチヤマシ",
    "town": "向野",
    "town_kana": "ムカイノ",
    "street": null,
    "office_name": null,
    "office_name_kana": null
  },
  "0936": {
    "zip_code": "6200936",
    "prefecture": "京都府",
    "prefecture_kana": "キョウトフ",
    "prefecture_code": "26",
    "city": "福知山市",
    "city_kana": "フクチヤマシ",
    "town": "正明寺",
    "town_kana": "ショウミョウジ",
    "street": null,
    "office_name": null,
    "office_name_kana": null
  },
  "0937": {
    "zip_code": "6200937",
    "prefecture": "京都府",
    "prefecture_kana": "キョウトフ",
    "prefecture_code": "26",
    "city": "福知山市",
    "city_kana": "フクチヤマシ",
    "town": "室",
    "town_kana": "ムロ",
    "street": null,
    "office_name": null,
    "office_name_kana": null
  },
  "0938": {
    "zip_code": "6200938",
    "prefecture": "京都府",
    "prefecture_kana": "キョウトフ",
    "prefecture_code": "26",
    "city": "福知山市",
    "city_kana": "フクチヤマシ",
    "town": "小野脇",
    "town_kana": "オノワキ",
    "street": null,
    "office_name": null,
    "office_name_kana": null
  },
  "0939": {
    "zip_code": "6200939",
    "prefecture": "京都府",
    "prefecture_kana": "キョウトフ",
    "prefecture_code": "26",
    "city": "福知山市",
    "city_kana": "フクチヤマシ",
    "town": "市寺",
    "town_kana": "イチデラ",
    "street": null,
    "office_name": null,
    "office_name_kana": null
  },
  "0940": {
    "zip_code": "6200940",
    "prefecture": "京都府",
    "prefecture_kana": "キョウトフ",
    "prefecture_code": "26",
    "city": "福知山市",
    "city_kana": "フクチヤマシ",
    "town": "駅南町",
    "town_kana": "エキナンチョウ",
    "street": null,
    "office_name": null,
    "office_name_kana": null
  },
  "0943": {
    "zip_code": "6200943",
    "prefecture": "京都府",
    "prefecture_kana": "キョウトフ",
    "prefecture_code": "26",
    "city": "福知山市",
    "city_kana": "フクチヤマシ",
    "town": "北岡町",
    "town_kana": "キタオカチョウ",
    "street": null,
    "office_name": null,
    "office_name_kana": null
  },
  "0944": {
    "zip_code": "6200944",
    "prefecture": "京都府",
    "prefecture_kana": "キョウトフ",
    "prefecture_code": "26",
    "city": "福知山市",
    "city_kana": "フクチヤマシ",
    "town": "南岡町",
    "town_kana": "ミナミオカマチ",
    "street": null,
    "office_name": null,
    "office_name_kana": null
  },
  "0945": {
    "zip_code": "6200945",
    "prefecture": "京都府",
    "prefecture_kana": "キョウトフ",
    "prefecture_code": "26",
    "city": "福知山市",
    "city_kana": "フクチヤマシ",
    "town": "広峯町",
    "town_kana": "ヒロミネチョウ",
    "street": null,
    "office_name": null,
    "office_name_kana": null
  },
  "0946": {
    "zip_code": "6200946",
    "prefecture": "京都府",
    "prefecture_kana": "キョウトフ",
    "prefecture_code": "26",
    "city": "福知山市",
    "city_kana": "フクチヤマシ",
    "town": "南天田町",
    "town_kana": "ミナミアマダチョウ",
    "street": null,
    "office_name": null,
    "office_name_kana": null
  },
  "0947": {
    "zip_code": "6200947",
    "prefecture": "京都府",
    "prefecture_kana": "キョウトフ",
    "prefecture_code": "26",
    "city": "福知山市",
    "city_kana": "フクチヤマシ",
    "town": "旭が丘",
    "town_kana": "アサヒガオカ",
    "street": null,
    "office_name": null,
    "office_name_kana": null
  },
  "0948": {
    "zip_code": "6200948",
    "prefecture": "京都府",
    "prefecture_kana": "キョウトフ",
    "prefecture_code": "26",
    "city": "福知山市",
    "city_kana": "フクチヤマシ",
    "town": "夕陽が丘",
    "town_kana": "ユウヒガオカ",
    "street": null,
    "office_name": null,
    "office_name_kana": null
  },
  "0949": {
    "zip_code": "6200949",
    "prefecture": "京都府",
    "prefecture_kana": "キョウトフ",
    "prefecture_code": "26",
    "city": "福知山市",
    "city_kana": "フクチヤマシ",
    "town": "つつじケ丘",
    "town_kana": "ツツジガオカ",
    "street": null,
    "office_name": null,
    "office_name_kana": null
  },
  "0951": {
    "zip_code": "6200951",
    "prefecture": "京都府",
    "prefecture_kana": "キョウトフ",
    "prefecture_code": "26",
    "city": "福知山市",
    "city_kana": "フクチヤマシ",
    "town": "十三丘",
    "town_kana": "トミオカ",
    "street": null,
    "office_name": null,
    "office_name_kana": null
  },
  "0952": {
    "zip_code": "6200952",
    "prefecture": "京都府",
    "prefecture_kana": "キョウトフ",
    "prefecture_code": "26",
    "city": "福知山市",
    "city_kana": "フクチヤマシ",
    "town": "大門",
    "town_kana": "ダイモン",
    "street": null,
    "office_name": null,
    "office_name_kana": null
  },
  "0953": {
    "zip_code": "6200953",
    "prefecture": "京都府",
    "prefecture_kana": "キョウトフ",
    "prefecture_code": "26",
    "city": "福知山市",
    "city_kana": "フクチヤマシ",
    "town": "今安",
    "town_kana": "イマヤス",
    "street": null,
    "office_name": null,
    "office_name_kana": null
  },
  "0954": {
    "zip_code": "6200954",
    "prefecture": "京都府",
    "prefecture_kana": "キョウトフ",
    "prefecture_code": "26",
    "city": "福知山市",
    "city_kana": "フクチヤマシ",
    "town": "半田",
    "town_kana": "ハンダ",
    "street": null,
    "office_name": null,
    "office_name_kana": null
  },
  "0955": {
    "zip_code": "6200955",
    "prefecture": "京都府",
    "prefecture_kana": "キョウトフ",
    "prefecture_code": "26",
    "city": "福知山市",
    "city_kana": "フクチヤマシ",
    "town": "拝師",
    "town_kana": "ハイシ",
    "street": null,
    "office_name": null,
    "office_name_kana": null
  },
  "0956": {
    "zip_code": "6200956",
    "prefecture": "京都府",
    "prefecture_kana": "キョウトフ",
    "prefecture_code": "26",
    "city": "福知山市",
    "city_kana": "フクチヤマシ",
    "town": "額塚",
    "town_kana": "スクモヅカ",
    "street": null,
    "office_name": null,
    "office_name_kana": null
  },
  "0957": {
    "zip_code": "6200957",
    "prefecture": "京都府",
    "prefecture_kana": "キョウトフ",
    "prefecture_code": "26",
    "city": "福知山市",
    "city_kana": "フクチヤマシ",
    "town": "山崎",
    "town_kana": "ヤマザキ",
    "street": null,
    "office_name": null,
    "office_name_kana": null
  },
  "0958": {
    "zip_code": "6200958",
    "prefecture": "京都府",
    "prefecture_kana": "キョウトフ",
    "prefecture_code": "26",
    "city": "福知山市",
    "city_kana": "フクチヤマシ",
    "town": "さつきケ丘",
    "town_kana": "サツキガオカ",
    "street": null,
    "office_name": null,
    "office_name_kana": null
  },
  "0961": {
    "zip_code": "6200961",
    "prefecture": "京都府",
    "prefecture_kana": "キョウトフ",
    "prefecture_code": "26",
    "city": "福知山市",
    "city_kana": "フクチヤマシ",
    "town": "石場",
    "town_kana": "イシバ",
    "street": null,
    "office_name": null,
    "office_name_kana": null
  },
  "0962": {
    "zip_code": "6200962",
    "prefecture": "京都府",
    "prefecture_kana": "キョウトフ",
    "prefecture_code": "26",
    "city": "福知山市",
    "city_kana": "フクチヤマシ",
    "town": "口榎原",
    "town_kana": "クチエバラ",
    "street": null,
    "office_name": null,
    "office_name_kana": null
  },
  "0963": {
    "zip_code": "6200963",
    "prefecture": "京都府",
    "prefecture_kana": "キョウトフ",
    "prefecture_code": "26",
    "city": "福知山市",
    "city_kana": "フクチヤマシ",
    "town": "奥榎原",
    "town_kana": "オクエバラ",
    "street": null,
    "office_name": null,
    "office_name_kana": null
  },
  "0964": {
    "zip_code": "6200964",
    "prefecture": "京都府",
    "prefecture_kana": "キョウトフ",
    "prefecture_code": "26",
    "city": "福知山市",
    "city_kana": "フクチヤマシ",
    "town": "甘栗",
    "town_kana": "アマグリ",
    "street": null,
    "office_name": null,
    "office_name_kana": null
  },
  "0965": {
    "zip_code": "6200965",
    "prefecture": "京都府",
    "prefecture_kana": "キョウトフ",
    "prefecture_code": "26",
    "city": "福知山市",
    "city_kana": "フクチヤマシ",
    "town": "樽水",
    "town_kana": "タルミ",
    "street": null,
    "office_name": null,
    "office_name_kana": null
  },
  "0966": {
    "zip_code": "6200966",
    "prefecture": "京都府",
    "prefecture_kana": "キョウトフ",
    "prefecture_code": "26",
    "city": "福知山市",
    "city_kana": "フクチヤマシ",
    "town": "辻",
    "town_kana": "ツジ",
    "street": null,
    "office_name": null,
    "office_name_kana": null
  },
  "0967": {
    "zip_code": "6200967",
    "prefecture": "京都府",
    "prefecture_kana": "キョウトフ",
    "prefecture_code": "26",
    "city": "福知山市",
    "city_kana": "フクチヤマシ",
    "town": "畑中",
    "town_kana": "ハタケナカ",
    "street": null,
    "office_name": null,
    "office_name_kana": null
  },
  "0968": {
    "zip_code": "6200968",
    "prefecture": "京都府",
    "prefecture_kana": "キョウトフ",
    "prefecture_code": "26",
    "city": "福知山市",
    "city_kana": "フクチヤマシ",
    "town": "北山",
    "town_kana": "キタヤマ",
    "street": null,
    "office_name": null,
    "office_name_kana": null
  },
  "0969": {
    "zip_code": "6200969",
    "prefecture": "京都府",
    "prefecture_kana": "キョウトフ",
    "prefecture_code": "26",
    "city": "福知山市",
    "city_kana": "フクチヤマシ",
    "town": "茅ノ台",
    "town_kana": "カヤノダイ",
    "street": null,
    "office_name": null,
    "office_name_kana": null
  },
  "0971": {
    "zip_code": "6200971",
    "prefecture": "京都府",
    "prefecture_kana": "キョウトフ",
    "prefecture_code": "26",
    "city": "福知山市",
    "city_kana": "フクチヤマシ",
    "town": "下戸",
    "town_kana": "サゲト",
    "street": null,
    "office_name": null,
    "office_name_kana": null
  },
  "0972": {
    "zip_code": "6200972",
    "prefecture": "京都府",
    "prefecture_kana": "キョウトフ",
    "prefecture_code": "26",
    "city": "福知山市",
    "city_kana": "フクチヤマシ",
    "town": "小牧",
    "town_kana": "コマキ",
    "street": null,
    "office_name": null,
    "office_name_kana": null
  },
  "0973": {
    "zip_code": "6200973",
    "prefecture": "京都府",
    "prefecture_kana": "キョウトフ",
    "prefecture_code": "26",
    "city": "福知山市",
    "city_kana": "フクチヤマシ",
    "town": "談",
    "town_kana": "ダン",
    "street": null,
    "office_name": null,
    "office_name_kana": null
  },
  "0974": {
    "zip_code": "6200974",
    "prefecture": "京都府",
    "prefecture_kana": "キョウトフ",
    "prefecture_code": "26",
    "city": "福知山市",
    "city_kana": "フクチヤマシ",
    "town": "法用",
    "town_kana": "ホウヨウ",
    "street": null,
    "office_name": null,
    "office_name_kana": null
  },
  "0981": {
    "zip_code": "6200981",
    "prefecture": "京都府",
    "prefecture_kana": "キョウトフ",
    "prefecture_code": "26",
    "city": "福知山市",
    "city_kana": "フクチヤマシ",
    "town": "小田",
    "town_kana": "オダ",
    "street": null,
    "office_name": null,
    "office_name_kana": null
  },
  "0982": {
    "zip_code": "6200982",
    "prefecture": "京都府",
    "prefecture_kana": "キョウトフ",
    "prefecture_code": "26",
    "city": "福知山市",
    "city_kana": "フクチヤマシ",
    "town": "下小田",
    "town_kana": "シモオダ",
    "street": null,
    "office_name": null,
    "office_name_kana": null
  },
  "0983": {
    "zip_code": "6200983",
    "prefecture": "京都府",
    "prefecture_kana": "キョウトフ",
    "prefecture_code": "26",
    "city": "福知山市",
    "city_kana": "フクチヤマシ",
    "town": "野笹",
    "town_kana": "ノザサ",
    "street": null,
    "office_name": null,
    "office_name_kana": null
  },
  "0984": {
    "zip_code": "6200984",
    "prefecture": "京都府",
    "prefecture_kana": "キョウトフ",
    "prefecture_code": "26",
    "city": "福知山市",
    "city_kana": "フクチヤマシ",
    "town": "猪野々",
    "town_kana": "イノノ",
    "street": null,
    "office_name": null,
    "office_name_kana": null
  },
  "0985": {
    "zip_code": "6200985",
    "prefecture": "京都府",
    "prefecture_kana": "キョウトフ",
    "prefecture_code": "26",
    "city": "福知山市",
    "city_kana": "フクチヤマシ",
    "town": "梅谷",
    "town_kana": "ウメダニ",
    "street": null,
    "office_name": null,
    "office_name_kana": null
  },
  "0986": {
    "zip_code": "6200986",
    "prefecture": "京都府",
    "prefecture_kana": "キョウトフ",
    "prefecture_code": "26",
    "city": "福知山市",
    "city_kana": "フクチヤマシ",
    "town": "宮垣",
    "town_kana": "ミヤガキ",
    "street": null,
    "office_name": null,
    "office_name_kana": null
  },
  "0987": {
    "zip_code": "6200987",
    "prefecture": "京都府",
    "prefecture_kana": "キョウトフ",
    "prefecture_code": "26",
    "city": "福知山市",
    "city_kana": "フクチヤマシ",
    "town": "鴨野町",
    "town_kana": "カモノチョウ",
    "street": null,
    "office_name": null,
    "office_name_kana": null
  },
  "0988": {
    "zip_code": "6200988",
    "prefecture": "京都府",
    "prefecture_kana": "キョウトフ",
    "prefecture_code": "26",
    "city": "福知山市",
    "city_kana": "フクチヤマシ",
    "town": "大見長祖",
    "town_kana": "オオミナガソ",
    "street": null,
    "office_name": null,
    "office_name_kana": null
  },
  "0989": {
    "zip_code": "6200989",
    "prefecture": "京都府",
    "prefecture_kana": "キョウトフ",
    "prefecture_code": "26",
    "city": "福知山市",
    "city_kana": "フクチヤマシ",
    "town": "住所大山",
    "town_kana": "スミンジョオオヤマ",
    "street": null,
    "office_name": null,
    "office_name_kana": null
  },
  "1301": {
    "zip_code": "6201301",
    "prefecture": "京都府",
    "prefecture_kana": "キョウトフ",
    "prefecture_code": "26",
    "city": "福知山市",
    "city_kana": "フクチヤマシ",
    "town": "三和町大原",
    "town_kana": "ミワチョウオオバラ",
    "street": null,
    "office_name": null,
    "office_name_kana": null
  },
  "1302": {
    "zip_code": "6201302",
    "prefecture": "京都府",
    "prefecture_kana": "キョウトフ",
    "prefecture_code": "26",
    "city": "福知山市",
    "city_kana": "フクチヤマシ",
    "town": "三和町台頭",
    "town_kana": "ミワチョウダイト",
    "street": null,
    "office_name": null,
    "office_name_kana": null
  },
  "1311": {
    "zip_code": "6201311",
    "prefecture": "京都府",
    "prefecture_kana": "キョウトフ",
    "prefecture_code": "26",
    "city": "福知山市",
    "city_kana": "フクチヤマシ",
    "town": "三和町上川合",
    "town_kana": "ミワチョウカミガワイ",
    "street": null,
    "office_name": null,
    "office_name_kana": null
  },
  "1312": {
    "zip_code": "6201312",
    "prefecture": "京都府",
    "prefecture_kana": "キョウトフ",
    "prefecture_code": "26",
    "city": "福知山市",
    "city_kana": "フクチヤマシ",
    "town": "三和町岼",
    "town_kana": "ミワチョウユリ",
    "street": null,
    "office_name": null,
    "office_name_kana": null
  },
  "1313": {
    "zip_code": "6201313",
    "prefecture": "京都府",
    "prefecture_kana": "キョウトフ",
    "prefecture_code": "26",
    "city": "福知山市",
    "city_kana": "フクチヤマシ",
    "town": "三和町下川合",
    "town_kana": "ミワチョウシモカワイ",
    "street": null,
    "office_name": null,
    "office_name_kana": null
  },
  "1314": {
    "zip_code": "6201314",
    "prefecture": "京都府",
    "prefecture_kana": "キョウトフ",
    "prefecture_code": "26",
    "city": "福知山市",
    "city_kana": "フクチヤマシ",
    "town": "三和町加用",
    "town_kana": "ミワチョウカヨウ",
    "street": null,
    "office_name": null,
    "office_name_kana": null
  },
  "1421": {
    "zip_code": "6201421",
    "prefecture": "京都府",
    "prefecture_kana": "キョウトフ",
    "prefecture_code": "26",
    "city": "福知山市",
    "city_kana": "フクチヤマシ",
    "town": "三和町大身",
    "town_kana": "ミワチョウオオミ",
    "street": null,
    "office_name": null,
    "office_name_kana": null
  },
  "1422": {
    "zip_code": "6201422",
    "prefecture": "京都府",
    "prefecture_kana": "キョウトフ",
    "prefecture_code": "26",
    "city": "福知山市",
    "city_kana": "フクチヤマシ",
    "town": "三和町菟原中",
    "town_kana": "ミワチョウウバラナカ",
    "street": null,
    "office_name": null,
    "office_name_kana": null
  },
  "1423": {
    "zip_code": "6201423",
    "prefecture": "京都府",
    "prefecture_kana": "キョウトフ",
    "prefecture_code": "26",
    "city": "福知山市",
    "city_kana": "フクチヤマシ",
    "town": "三和町高杉",
    "town_kana": "ミワチョウタカスギ",
    "street": null,
    "office_name": null,
    "office_name_kana": null
  },
  "1424": {
    "zip_code": "6201424",
    "prefecture": "京都府",
    "prefecture_kana": "キョウトフ",
    "prefecture_code": "26",
    "city": "福知山市",
    "city_kana": "フクチヤマシ",
    "town": "三和町友渕",
    "town_kana": "ミワチョウトモブチ",
    "street": null,
    "office_name": null,
    "office_name_kana": null
  },
  "1425": {
    "zip_code": "6201425",
    "prefecture": "京都府",
    "prefecture_kana": "キョウトフ",
    "prefecture_code": "26",
    "city": "福知山市",
    "city_kana": "フクチヤマシ",
    "town": "三和町菟原下",
    "town_kana": "ミワチョウウバラシモ",
    "street": null,
    "office_name": null,
    "office_name_kana": null
  },
  "1431": {
    "zip_code": "6201431",
    "prefecture": "京都府",
    "prefecture_kana": "キョウトフ",
    "prefecture_code": "26",
    "city": "福知山市",
    "city_kana": "フクチヤマシ",
    "town": "三和町辻",
    "town_kana": "ミワチョウツジ",
    "street": null,
    "office_name": null,
    "office_name_kana": null
  },
  "1432": {
    "zip_code": "6201432",
    "prefecture": "京都府",
    "prefecture_kana": "キョウトフ",
    "prefecture_code": "26",
    "city": "福知山市",
    "city_kana": "フクチヤマシ",
    "town": "三和町中出",
    "town_kana": "ミワチョウナカデ",
    "street": null,
    "office_name": null,
    "office_name_kana": null
  },
  "1433": {
    "zip_code": "6201433",
    "prefecture": "京都府",
    "prefecture_kana": "キョウトフ",
    "prefecture_code": "26",
    "city": "福知山市",
    "city_kana": "フクチヤマシ",
    "town": "三和町田ノ谷",
    "town_kana": "ミワチョウタノタニ",
    "street": null,
    "office_name": null,
    "office_name_kana": null
  },
  "1434": {
    "zip_code": "6201434",
    "prefecture": "京都府",
    "prefecture_kana": "キョウトフ",
    "prefecture_code": "26",
    "city": "福知山市",
    "city_kana": "フクチヤマシ",
    "town": "三和町西松",
    "town_kana": "ミワチョウサイマツ",
    "street": null,
    "office_name": null,
    "office_name_kana": null
  },
  "1435": {
    "zip_code": "6201435",
    "prefecture": "京都府",
    "prefecture_kana": "キョウトフ",
    "prefecture_code": "26",
    "city": "福知山市",
    "city_kana": "フクチヤマシ",
    "town": "三和町草山",
    "town_kana": "ミワチョウクサヤマ",
    "street": null,
    "office_name": null,
    "office_name_kana": null
  },
  "1441": {
    "zip_code": "6201441",
    "prefecture": "京都府",
    "prefecture_kana": "キョウトフ",
    "prefecture_code": "26",
    "city": "福知山市",
    "city_kana": "フクチヤマシ",
    "town": "三和町梅原",
    "town_kana": "ミワチョウウメハラ",
    "street": null,
    "office_name": null,
    "office_name_kana": null
  },
  "1442": {
    "zip_code": "6201442",
    "prefecture": "京都府",
    "prefecture_kana": "キョウトフ",
    "prefecture_code": "26",
    "city": "福知山市",
    "city_kana": "フクチヤマシ",
    "town": "三和町千束",
    "town_kana": "ミワチョウセンゾク",
    "street": null,
    "office_name": null,
    "office_name_kana": null
  },
  "1443": {
    "zip_code": "6201443",
    "prefecture": "京都府",
    "prefecture_kana": "キョウトフ",
    "prefecture_code": "26",
    "city": "福知山市",
    "city_kana": "フクチヤマシ",
    "town": "三和町寺尾",
    "town_kana": "ミワチョウテラオ",
    "street": null,
    "office_name": null,
    "office_name_kana": null
  },
  "1444": {
    "zip_code": "6201444",
    "prefecture": "京都府",
    "prefecture_kana": "キョウトフ",
    "prefecture_code": "26",
    "city": "福知山市",
    "city_kana": "フクチヤマシ",
    "town": "三和町芦渕",
    "town_kana": "ミワチョウアシブチ",
    "street": null,
    "office_name": null,
    "office_name_kana": null
  },
  "1445": {
    "zip_code": "6201445",
    "prefecture": "京都府",
    "prefecture_kana": "キョウトフ",
    "prefecture_code": "26",
    "city": "福知山市",
    "city_kana": "フクチヤマシ",
    "town": "三和町みわ",
    "town_kana": "ミワチョウミワ",
    "street": null,
    "office_name": null,
    "office_name_kana": null
  },
  "1492": {
    "zip_code": "6201492",
    "prefecture": "京都府",
    "prefecture_kana": "キョウトフ",
    "prefecture_code": "26",
    "city": "福知山市",
    "city_kana": "フクチヤマシ",
    "town": "三和町千束",
    "town_kana": "ミワチョウセンゾク",
    "street": "５１５番地",
    "office_name": "福知山市役所　三和支所",
    "office_name_kana": "フクチヤマシヤクシヨ ミワシシヨ"
  },
  "1493": {
    "zip_code": "6201493",
    "prefecture": "京都府",
    "prefecture_kana": "キョウトフ",
    "prefecture_code": "26",
    "city": "福知山市",
    "city_kana": "フクチヤマシ",
    "town": "三和町芦渕",
    "town_kana": "ミワチョウアシブチ",
    "street": "綿ノ谷２−１４",
    "office_name": "京都機械　株式会社",
    "office_name_kana": "キヨウトキカイ カブシキガイシヤ"
  },
  "8501": {
    "zip_code": "6208501",
    "prefecture": "京都府",
    "prefecture_kana": null,
    "prefecture_code": null,
    "city": "福知山市",
    "city_kana": null,
    "town": "字内記",
    "town_kana": null,
    "street": "１３−１",
    "office_name": "福知山市役所",
    "office_name_kana": "フクチヤマシヤクシヨ"
  },
  "8502": {
    "zip_code": "6208502",
    "prefecture": "京都府",
    "prefecture_kana": null,
    "prefecture_code": null,
    "city": "福知山市",
    "city_kana": null,
    "town": "字天田",
    "town_kana": null,
    "street": "無番地",
    "office_name": "陸上自衛隊",
    "office_name_kana": "リクジヨウジエイタイ"
  },
  "8503": {
    "zip_code": "6208503",
    "prefecture": "京都府",
    "prefecture_kana": null,
    "prefecture_code": null,
    "city": "福知山市",
    "city_kana": null,
    "town": "字上紺屋",
    "town_kana": null,
    "street": "１５",
    "office_name": "株式会社　さとう",
    "office_name_kana": "カブシキガイシヤ サトウ"
  },
  "8504": {
    "zip_code": "6208504",
    "prefecture": "京都府",
    "prefecture_kana": null,
    "prefecture_code": null,
    "city": "福知山市",
    "city_kana": null,
    "town": "字天田",
    "town_kana": null,
    "street": "１１８−１",
    "office_name": "ＪＲ西日本　福知山支社",
    "office_name_kana": "ジエイア-ルニシニホン フクチヤマシシヤ"
  },
  "8505": {
    "zip_code": "6208505",
    "prefecture": "京都府",
    "prefecture_kana": "キョウトフ",
    "prefecture_code": "26",
    "city": "福知山市",
    "city_kana": "フクチヤマシ",
    "town": "厚中町",
    "town_kana": "アツナカマチ",
    "street": "２３１",
    "office_name": "市立福知山市民病院",
    "office_name_kana": "イチリツフクチヤマシミンビヨウイン"
  },
  "8506": {
    "zip_code": "6208506",
    "prefecture": "京都府",
    "prefecture_kana": "キョウトフ",
    "prefecture_code": "26",
    "city": "福知山市",
    "city_kana": "フクチヤマシ",
    "town": "末広町",
    "town_kana": "スエヒロチョウ",
    "street": "１丁目３８",
    "office_name": "京都ルネス病院",
    "office_name_kana": "キヨウトルネスビヨウイン"
  },
  "8507": {
    "zip_code": "6208507",
    "prefecture": "京都府",
    "prefecture_kana": "キョウトフ",
    "prefecture_code": "26",
    "city": "福知山市",
    "city_kana": "フクチヤマシ",
    "town": "土師宮町",
    "town_kana": "ハゼミヤマチ",
    "street": "２丁目１６２",
    "office_name": "株式会社　雪印アクセス　北近畿支店",
    "office_name_kana": "カブシキガイシヤ ユキジルシアクセス キタキンキシテン"
  },
  "8508": {
    "zip_code": "6208508",
    "prefecture": "京都府",
    "prefecture_kana": "キョウトフ",
    "prefecture_code": "26",
    "city": "福知山市",
    "city_kana": "フクチヤマシ",
    "town": "多保市",
    "town_kana": "トオノイチ",
    "street": "１３２−４９",
    "office_name": "有限会社　えいと",
    "office_name_kana": "ユウゲンガイシヤ エイト"
  }
}