{
  "0000": {
    "zip_code": "6230000",
    "prefecture": "京都府",
    "prefecture_kana": "キョウトフ",
    "prefecture_code": "26",
    "city": "綾部市",
    "city_kana": "アヤベシ",
    "town": "",
    "town_kana": "",
    "street": null,
    "office_name": null,
    "office_name_kana": null
  },
  "0001": {
    "zip_code": "6230001",
    "prefecture": "京都府",
    "prefecture_kana": "キョウトフ",
    "prefecture_code": "26",
    "city": "綾部市",
    "city_kana": "アヤベシ",
    "town": "小呂町",
    "town_kana": "オロチョウ",
    "street": null,
    "office_name": null,
    "office_name_kana": null
  },
  "0002": {
    "zip_code": "6230002",
    "prefecture": "京都府",
    "prefecture_kana": "キョウトフ",
    "prefecture_code": "26",
    "city": "綾部市",
    "city_kana": "アヤベシ",
    "town": "高倉町",
    "town_kana": "タカクラチョウ",
    "street": null,
    "office_name": null,
    "office_name_kana": null
  },
  "0003": {
    "zip_code": "6230003",
    "prefecture": "京都府",
    "prefecture_kana": "キョウトフ",
    "prefecture_code": "26",
    "city": "綾部市",
    "city_kana": "アヤベシ",
    "town": "城山町",
    "town_kana": "シロヤマチョウ",
    "street": null,
    "office_name": null,
    "office_name_kana": null
  },
  "0004": {
    "zip_code": "6230004",
    "prefecture": "京都府",
    "prefecture_kana": "キョウトフ",
    "prefecture_code": "26",
    "city": "綾部市",
    "city_kana": "アヤベシ",
    "town": "多田町",
    "town_kana": "タダチョウ",
    "street": null,
    "office_name": null,
    "office_name_kana": null
  },
  "0005": {
    "zip_code": "6230005",
    "prefecture": "京都府",
    "prefecture_kana": "キョウトフ",
    "prefecture_code": "26",
    "city": "綾部市",
    "city_kana": "アヤベシ",
    "town": "里町",
    "town_kana": "サトチョウ",
    "street": null,
    "office_name": null,
    "office_name_kana": null
  },
  "0006": {
    "zip_code": "6230006",
    "prefecture": "京都府",
    "prefecture_kana": "キョウトフ",
    "prefecture_code": "26",
    "city": "綾部市",
    "city_kana": "アヤベシ",
    "town": "有岡町",
    "town_kana": "アリオカチョウ",
    "street": null,
    "office_name": null,
    "office_name_kana": null
  },
  "0007": {
    "zip_code": "6230007",
    "prefecture": "京都府",
    "prefecture_kana": "キョウトフ",
    "prefecture_code": "26",
    "city": "綾部市",
    "city_kana": "アヤベシ",
    "town": "星原町",
    "town_kana": "ホシバラチョウ",
    "street": null,
    "office_name": null,
    "office_name_kana": null
  },
  "0008": {
    "zip_code": "6230008",
    "prefecture": "京都府",
    "prefecture_kana": "キョウトフ",
    "prefecture_code": "26",
    "city": "綾部市",
    "city_kana": "アヤベシ",
    "town": "桜が丘",
    "town_kana": "サクラガオカ",
    "street": null,
    "office_name": null,
    "office_name_kana": null
  },
  "0011": {
    "zip_code": "6230011",
    "prefecture": "京都府",
    "prefecture_kana": "キョウトフ",
    "prefecture_code": "26",
    "city": "綾部市",
    "city_kana": "アヤベシ",
    "town": "青野町",
    "town_kana": "アオノチョウ",
    "street": null,
    "office_name": null,
    "office_name_kana": null
  },
  "0012": {
    "zip_code": "6230012",
    "prefecture": "京都府",
    "prefecture_kana": "キョウトフ",
    "prefecture_code": "26",
    "city": "綾部市",
    "city_kana": "アヤベシ",
    "town": "川糸町",
    "town_kana": "カワイトチョウ",
    "street": null,
    "office_name": null,
    "office_name_kana": null
  },
  "0013": {
    "zip_code": "6230013",
    "prefecture": "京都府",
    "prefecture_kana": "キョウトフ",
    "prefecture_code": "26",
    "city": "綾部市",
    "city_kana": "アヤベシ",
    "town": "綾中町",
    "town_kana": "アヤナカチョウ",
    "street": null,
    "office_name": null,
    "office_name_kana": null
  },
  "0014": {
    "zip_code": "6230014",
    "prefecture": "京都府",
    "prefecture_kana": "キョウトフ",
    "prefecture_code": "26",
    "city": "綾部市",
    "city_kana": "アヤベシ",
    "town": "若竹町",
    "town_kana": "ワカタケチョウ",
    "street": null,
    "office_name": null,
    "office_name_kana": null
  },
  "0015": {
    "zip_code": "6230015",
    "prefecture": "京都府",
    "prefecture_kana": "キョウトフ",
    "prefecture_code": "26",
    "city": "綾部市",
    "city_kana": "アヤベシ",
    "town": "若松町",
    "town_kana": "ワカマツチョウ",
    "street": null,
    "office_name": null,
    "office_name_kana": null
  },
  "0016": {
    "zip_code": "6230016",
    "prefecture": "京都府",
    "prefecture_kana": "キョウトフ",
    "prefecture_code": "26",
    "city": "綾部市",
    "city_kana": "アヤベシ",
    "town": "西町",
    "town_kana": "ニシマチ",
    "street": null,
    "office_name": null,
    "office_name_kana": null
  },
  "0021": {
    "zip_code": "6230021",
    "prefecture": "京都府",
    "prefecture_kana": "キョウトフ",
    "prefecture_code": "26",
    "city": "綾部市",
    "city_kana": "アヤベシ",
    "town": "本町",
    "town_kana": "ホンマチ",
    "street": null,
    "office_name": null,
    "office_name_kana": null
  },
  "0022": {
    "zip_code": "6230022",
    "prefecture": "京都府",
    "prefecture_kana": "キョウトフ",
    "prefecture_code": "26",
    "city": "綾部市",
    "city_kana": "アヤベシ",
    "town": "新宮町",
    "town_kana": "シングウチョウ",
    "street": null,
    "office_name": null,
    "office_name_kana": null
  },
  "0023": {
    "zip_code": "6230023",
    "prefecture": "京都府",
    "prefecture_kana": "キョウトフ",
    "prefecture_code": "26",
    "city": "綾部市",
    "city_kana": "アヤベシ",
    "town": "新町",
    "town_kana": "シンマチ",
    "street": null,
    "office_name": null,
    "office_name_kana": null
  },
  "0024": {
    "zip_code": "6230024",
    "prefecture": "京都府",
    "prefecture_kana": "キョウトフ",
    "prefecture_code": "26",
    "city": "綾部市",
    "city_kana": "アヤベシ",
    "town": "田町",
    "town_kana": "タマチ",
    "street": null,
    "office_name": null,
    "office_name_kana": null
  },
  "0025": {
    "zip_code": "6230025",
    "prefecture": "京都府",
    "prefecture_kana": "キョウトフ",
    "prefecture_code": "26",
    "city": "綾部市",
    "city_kana": "アヤベシ",
    "town": "月見町",
    "town_kana": "ツキミチョウ",
    "street": null,
    "office_name": null,
    "office_name_kana": null
  },
  "0026": {
    "zip_code": "6230026",
    "prefecture": "京都府",
    "prefecture_kana": "キョウトフ",
    "prefecture_code": "26",
    "city": "綾部市",
    "city_kana": "アヤベシ",
    "town": "神宮寺町",
    "town_kana": "ジングウジチョウ",
    "street": null,
    "office_name": null,
    "office_name_kana": null
  },
  "0031": {
    "zip_code": "6230031",
    "prefecture": "京都府",
    "prefecture_kana": "キョウトフ",
    "prefecture_code": "26",
    "city": "綾部市",
    "city_kana": "アヤベシ",
    "town": "味方町",
    "town_kana": "ミカタチョウ",
    "street": null,
    "office_name": null,
    "office_name_kana": null
  },
  "0032": {
    "zip_code": "6230032",
    "prefecture": "京都府",
    "prefecture_kana": "キョウトフ",
    "prefecture_code": "26",
    "city": "綾部市",
    "city_kana": "アヤベシ",
    "town": "野田町",
    "town_kana": "ノダチョウ",
    "street": null,
    "office_name": null,
    "office_name_kana": null
  },
  "0033": {
    "zip_code": "6230033",
    "prefecture": "京都府",
    "prefecture_kana": "キョウトフ",
    "prefecture_code": "26",
    "city": "綾部市",
    "city_kana": "アヤベシ",
    "town": "寺町",
    "town_kana": "テラマチ",
    "street": null,
    "office_name": null,
    "office_name_kana": null
  },
  "0034": {
    "zip_code": "6230034",
    "prefecture": "京都府",
    "prefecture_kana": "キョウトフ",
    "prefecture_code": "26",
    "city": "綾部市",
    "city_kana": "アヤベシ",
    "town": "田野町",
    "town_kana": "タノチョウ",
    "street": null,
    "office_name": null,
    "office_name_kana": null
  },
  "0035": {
    "zip_code": "6230035",
    "prefecture": "京都府",
    "prefecture_kana": "キョウトフ",
    "prefecture_code": "26",
    "city": "綾部市",
    "city_kana": "アヤベシ",
    "town": "上野町",
    "town_kana": "ウエノチョウ",
    "street": null,
    "office_name": null,
    "office_name_kana": null
  },
  "0036": {
    "zip_code": "6230036",
    "prefecture": "京都府",
    "prefecture_kana": "キョウトフ",
    "prefecture_code": "26",
    "city": "綾部市",
    "city_kana": "アヤベシ",
    "town": "本宮町",
    "town_kana": "ホングウチョウ",
    "street": null,
    "office_name": null,
    "office_name_kana": null
  },
  "0037": {
    "zip_code": "6230037",
    "prefecture": "京都府",
    "prefecture_kana": "キョウトフ",
    "prefecture_code": "26",
    "city": "綾部市",
    "city_kana": "アヤベシ",
    "town": "並松町",
    "town_kana": "ナンマツチョウ",
    "street": null,
    "office_name": null,
    "office_name_kana": null
  },
  "0041": {
    "zip_code": "6230041",
    "prefecture": "京都府",
    "prefecture_kana": "キョウトフ",
    "prefecture_code": "26",
    "city": "綾部市",
    "city_kana": "アヤベシ",
    "town": "延町",
    "town_kana": "ノブチョウ",
    "street": null,
    "office_name": null,
    "office_name_kana": null
  },
  "0042": {
    "zip_code": "6230042",
    "prefecture": "京都府",
    "prefecture_kana": "キョウトフ",
    "prefecture_code": "26",
    "city": "綾部市",
    "city_kana": "アヤベシ",
    "town": "岡町",
    "town_kana": "オカチョウ",
    "street": null,
    "office_name": null,
    "office_name_kana": null
  },
  "0043": {
    "zip_code": "6230043",
    "prefecture": "京都府",
    "prefecture_kana": "キョウトフ",
    "prefecture_code": "26",
    "city": "綾部市",
    "city_kana": "アヤベシ",
    "town": "上延町",
    "town_kana": "ウワノブチョウ",
    "street": null,
    "office_name": null,
    "office_name_kana": null
  },
  "0044": {
    "zip_code": "6230044",
    "prefecture": "京都府",
    "prefecture_kana": "キョウトフ",
    "prefecture_code": "26",
    "city": "綾部市",
    "city_kana": "アヤベシ",
    "town": "安場町",
    "town_kana": "ヤスバチョウ",
    "street": null,
    "office_name": null,
    "office_name_kana": null
  },
  "0045": {
    "zip_code": "6230045",
    "prefecture": "京都府",
    "prefecture_kana": "キョウトフ",
    "prefecture_code": "26",
    "city": "綾部市",
    "city_kana": "アヤベシ",
    "town": "高津町",
    "town_kana": "タカツチョウ",
    "street": null,
    "office_name": null,
    "office_name_kana": null
  },
  "0046": {
    "zip_code": "6230046",
    "prefecture": "京都府",
    "prefecture_kana": "キョウトフ",
    "prefecture_code": "26",
    "city": "綾部市",
    "city_kana": "アヤベシ",
    "town": "大島町",
    "town_kana": "オオシマチョウ",
    "street": null,
    "office_name": null,
    "office_name_kana": null
  },
  "0051": {
    "zip_code": "6230051",
    "prefecture": "京都府",
    "prefecture_kana": "キョウトフ",
    "prefecture_code": "26",
    "city": "綾部市",
    "city_kana": "アヤベシ",
    "town": "井倉新町",
    "town_kana": "イノクラシンマチ",
    "street": null,
    "office_name": null,
    "office_name_kana": null
  },
  "0052": {
    "zip_code": "6230052",
    "prefecture": "京都府",
    "prefecture_kana": "キョウトフ",
    "prefecture_code": "26",
    "city": "綾部市",
    "city_kana": "アヤベシ",
    "town": "幸通",
    "town_kana": "サイワイドオリ",
    "street": null,
    "office_name": null,
    "office_name_kana": null
  },
  "0053": {
    "zip_code": "6230053",
    "prefecture": "京都府",
    "prefecture_kana": "キョウトフ",
    "prefecture_code": "26",
    "city": "綾部市",
    "city_kana": "アヤベシ",
    "town": "宮代町",
    "town_kana": "ミヤシロチョウ",
    "street": null,
    "office_name": null,
    "office_name_kana": null
  },
  "0054": {
    "zip_code": "6230054",
    "prefecture": "京都府",
    "prefecture_kana": "キョウトフ",
    "prefecture_code": "26",
    "city": "綾部市",
    "city_kana": "アヤベシ",
    "town": "井倉町",
    "town_kana": "イノクラチョウ",
    "street": null,
    "office_name": null,
    "office_name_kana": null
  },
  "0061": {
    "zip_code": "6230061",
    "prefecture": "京都府",
    "prefecture_kana": "キョウトフ",
    "prefecture_code": "26",
    "city": "綾部市",
    "city_kana": "アヤベシ",
    "town": "天神町",
    "town_kana": "テンジンチョウ",
    "street": null,
    "office_name": null,
    "office_name_kana": null
  },
  "0062": {
    "zip_code": "6230062",
    "prefecture": "京都府",
    "prefecture_kana": "キョウトフ",
    "prefecture_code": "26",
    "city": "綾部市",
    "city_kana": "アヤベシ",
    "town": "相生町",
    "town_kana": "アイオイチョウ",
    "street": null,
    "office_name": null,
    "office_name_kana": null
  },
  "0063": {
    "zip_code": "6230063",
    "prefecture": "京都府",
    "prefecture_kana": "キョウトフ",
    "prefecture_code": "26",
    "city": "綾部市",
    "city_kana": "アヤベシ",
    "town": "広小路",
    "town_kana": "ヒロコウジ",
    "street": null,
    "office_name": null,
    "office_name_kana": null
  },
  "0064": {
    "zip_code": "6230064",
    "prefecture": "京都府",
    "prefecture_kana": "キョウトフ",
    "prefecture_code": "26",
    "city": "綾部市",
    "city_kana": "アヤベシ",
    "town": "中ノ町",
    "town_kana": "ナカノチョウ",
    "street": null,
    "office_name": null,
    "office_name_kana": null
  },
  "0065": {
    "zip_code": "6230065",
    "prefecture": "京都府",
    "prefecture_kana": "キョウトフ",
    "prefecture_code": "26",
    "city": "綾部市",
    "city_kana": "アヤベシ",
    "town": "西新町",
    "town_kana": "ニシシンマチ",
    "street": null,
    "office_name": null,
    "office_name_kana": null
  },
  "0066": {
    "zip_code": "6230066",
    "prefecture": "京都府",
    "prefecture_kana": "キョウトフ",
    "prefecture_code": "26",
    "city": "綾部市",
    "city_kana": "アヤベシ",
    "town": "駅前通",
    "town_kana": "エキマエドオリ",
    "street": null,
    "office_name": null,
    "office_name_kana": null
  },
  "0101": {
    "zip_code": "6230101",
    "prefecture": "京都府",
    "prefecture_kana": "キョウトフ",
    "prefecture_code": "26",
    "city": "綾部市",
    "city_kana": "アヤベシ",
    "town": "於与岐町",
    "town_kana": "オヨギチョウ",
    "street": null,
    "office_name": null,
    "office_name_kana": null
  },
  "0102": {
    "zip_code": "6230102",
    "prefecture": "京都府",
    "prefecture_kana": "キョウトフ",
    "prefecture_code": "26",
    "city": "綾部市",
    "city_kana": "アヤベシ",
    "town": "上杉町",
    "town_kana": "ウエスギチョウ",
    "street": null,
    "office_name": null,
    "office_name_kana": null
  },
  "0103": {
    "zip_code": "6230103",
    "prefecture": "京都府",
    "prefecture_kana": "キョウトフ",
    "prefecture_code": "26",
    "city": "綾部市",
    "city_kana": "アヤベシ",
    "town": "梅迫町",
    "town_kana": "ウメザコチョウ",
    "street": null,
    "office_name": null,
    "office_name_kana": null
  },
  "0104": {
    "zip_code": "6230104",
    "prefecture": "京都府",
    "prefecture_kana": "キョウトフ",
    "prefecture_code": "26",
    "city": "綾部市",
    "city_kana": "アヤベシ",
    "town": "安国寺町",
    "town_kana": "アンコクジチョウ",
    "street": null,
    "office_name": null,
    "office_name_kana": null
  },
  "0105": {
    "zip_code": "6230105",
    "prefecture": "京都府",
    "prefecture_kana": "キョウトフ",
    "prefecture_code": "26",
    "city": "綾部市",
    "city_kana": "アヤベシ",
    "town": "中山町",
    "town_kana": "ナカヤマチョウ",
    "street": null,
    "office_name": null,
    "office_name_kana": null
  },
  "0106": {
    "zip_code": "6230106",
    "prefecture": "京都府",
    "prefecture_kana": "キョウトフ",
    "prefecture_code": "26",
    "city": "綾部市",
    "city_kana": "アヤベシ",
    "town": "高槻町",
    "town_kana": "タカツキチョウ",
    "street": null,
    "office_name": null,
    "office_name_kana": null
  },
  "0107": {
    "zip_code": "6230107",
    "prefecture": "京都府",
    "prefecture_kana": "キョウトフ",
    "prefecture_code": "26",
    "city": "綾部市",
    "city_kana": "アヤベシ",
    "town": "八代町",
    "town_kana": "ヤシロチョウ",
    "street": null,
    "office_name": null,
    "office_name_kana": null
  },
  "0108": {
    "zip_code": "6230108",
    "prefecture": "京都府",
    "prefecture_kana": "キョウトフ",
    "prefecture_code": "26",
    "city": "綾部市",
    "city_kana": "アヤベシ",
    "town": "黒谷町",
    "town_kana": "クロタニチョウ",
    "street": null,
    "office_name": null,
    "office_name_kana": null
  },
  "0111": {
    "zip_code": "6230111",
    "prefecture": "京都府",
    "prefecture_kana": "キョウトフ",
    "prefecture_code": "26",
    "city": "綾部市",
    "city_kana": "アヤベシ",
    "town": "七百石町",
    "town_kana": "シチヒャクコクチョウ",
    "street": null,
    "office_name": null,
    "office_name_kana": null
  },
  "0112": {
    "zip_code": "6230112",
    "prefecture": "京都府",
    "prefecture_kana": "キョウトフ",
    "prefecture_code": "26",
    "city": "綾部市",
    "city_kana": "アヤベシ",
    "town": "上八田町",
    "town_kana": "カミヤタチョウ",
    "street": null,
    "office_name": null,
    "office_name_kana": null
  },
  "0113": {
    "zip_code": "6230113",
    "prefecture": "京都府",
    "prefecture_kana": "キョウトフ",
    "prefecture_code": "26",
    "city": "綾部市",
    "city_kana": "アヤベシ",
    "town": "中筋町",
    "town_kana": "ナカスジチョウ",
    "street": null,
    "office_name": null,
    "office_name_kana": null
  },
  "0114": {
    "zip_code": "6230114",
    "prefecture": "京都府",
    "prefecture_kana": "キョウトフ",
    "prefecture_code": "26",
    "city": "綾部市",
    "city_kana": "アヤベシ",
    "town": "岡安町",
    "town_kana": "オカヤスチョウ",
    "street": null,
    "office_name": null,
    "office_name_kana": null
  },
  "0115": {
    "zip_code": "6230115",
    "prefecture": "京都府",
    "prefecture_kana": "キョウトフ",
    "prefecture_code": "26",
    "city": "綾部市",
    "city_kana": "アヤベシ",
    "town": "渕垣町",
    "town_kana": "フチガキチョウ",
    "street": null,
    "office_name": null,
    "office_name_kana": null
  },
  "0116": {
    "zip_code": "6230116",
    "prefecture": "京都府",
    "prefecture_kana": "キョウトフ",
    "prefecture_code": "26",
    "city": "綾部市",
    "city_kana": "アヤベシ",
    "town": "下八田町",
    "town_kana": "シモヤタチョウ",
    "street": null,
    "office_name": null,
    "office_name_kana": null
  },
  "0117": {
    "zip_code": "6230117",
    "prefecture": "京都府",
    "prefecture_kana": "キョウトフ",
    "prefecture_code": "26",
    "city": "綾部市",
    "city_kana": "アヤベシ",
    "town": "とよさか町",
    "town_kana": "トヨサカチョウ",
    "street": null,
    "office_name": null,
    "office_name_kana": null
  },
  "0221": {
    "zip_code": "6230221",
    "prefecture": "京都府",
    "prefecture_kana": "キョウトフ",
    "prefecture_code": "26",
    "city": "綾部市",
    "city_kana": "アヤベシ",
    "town": "位田町",
    "town_kana": "イデンチョウ",
    "street": null,
    "office_name": null,
    "office_name_kana": null
  },
  "0222": {
    "zip_code": "6230222",
    "prefecture": "京都府",
    "prefecture_kana": "キョウトフ",
    "prefecture_code": "26",
    "city": "綾部市",
    "city_kana": "アヤベシ",
    "town": "栗町",
    "town_kana": "クリチョウ",
    "street": null,
    "office_name": null,
    "office_name_kana": null
  },
  "0223": {
    "zip_code": "6230223",
    "prefecture": "京都府",
    "prefecture_kana": "キョウトフ",
    "prefecture_code": "26",
    "city": "綾部市",
    "city_kana": "アヤベシ",
    "town": "豊里町",
    "town_kana": "トヨサトチョウ",
    "street": null,
    "office_name": null,
    "office_name_kana": null
  },
  "0224": {
    "zip_code": "6230224",
    "prefecture": "京都府",
    "prefecture_kana": "キョウトフ",
    "prefecture_code": "26",
    "city": "綾部市",
    "city_kana": "アヤベシ",
    "town": "石原町",
    "town_kana": "イシワラチョウ",
    "street": null,
    "office_name": null,
    "office_name_kana": null
  },
  "0225": {
    "zip_code": "6230225",
    "prefecture": "京都府",
    "prefecture_kana": "キョウトフ",
    "prefecture_code": "26",
    "city": "綾部市",
    "city_kana": "アヤベシ",
    "town": "小貝町",
    "town_kana": "オガイチョウ",
    "street": null,
    "office_name": null,
    "office_name_kana": null
  },
  "0226": {
    "zip_code": "6230226",
    "prefecture": "京都府",
    "prefecture_kana": "キョウトフ",
    "prefecture_code": "26",
    "city": "綾部市",
    "city_kana": "アヤベシ",
    "town": "私市町",
    "town_kana": "キサイチチョウ",
    "street": null,
    "office_name": null,
    "office_name_kana": null
  },
  "0231": {
    "zip_code": "6230231",
    "prefecture": "京都府",
    "prefecture_kana": "キョウトフ",
    "prefecture_code": "26",
    "city": "綾部市",
    "city_kana": "アヤベシ",
    "town": "大畠町",
    "town_kana": "オオバタケチョウ",
    "street": null,
    "office_name": null,
    "office_name_kana": null
  },
  "0232": {
    "zip_code": "6230232",
    "prefecture": "京都府",
    "prefecture_kana": "キョウトフ",
    "prefecture_code": "26",
    "city": "綾部市",
    "city_kana": "アヤベシ",
    "town": "舘町",
    "town_kana": "タチチョウ",
    "street": null,
    "office_name": null,
    "office_name_kana": null
  },
  "0233": {
    "zip_code": "6230233",
    "prefecture": "京都府",
    "prefecture_kana": "キョウトフ",
    "prefecture_code": "26",
    "city": "綾部市",
    "city_kana": "アヤベシ",
    "town": "今田町",
    "town_kana": "イマダチョウ",
    "street": null,
    "office_name": null,
    "office_name_kana": null
  },
  "0234": {
    "zip_code": "6230234",
    "prefecture": "京都府",
    "prefecture_kana": "キョウトフ",
    "prefecture_code": "26",
    "city": "綾部市",
    "city_kana": "アヤベシ",
    "town": "小西町",
    "town_kana": "コニシチョウ",
    "street": null,
    "office_name": null,
    "office_name_kana": null
  },
  "0235": {
    "zip_code": "6230235",
    "prefecture": "京都府",
    "prefecture_kana": "キョウトフ",
    "prefecture_code": "26",
    "city": "綾部市",
    "city_kana": "アヤベシ",
    "town": "鍛治屋町",
    "town_kana": "カジヤチョウ",
    "street": null,
    "office_name": null,
    "office_name_kana": null
  },
  "0236": {
    "zip_code": "6230236",
    "prefecture": "京都府",
    "prefecture_kana": "キョウトフ",
    "prefecture_code": "26",
    "city": "綾部市",
    "city_kana": "アヤベシ",
    "town": "小畑町",
    "town_kana": "オバタチョウ",
    "street": null,
    "office_name": null,
    "office_name_kana": null
  },
  "0341": {
    "zip_code": "6230341",
    "prefecture": "京都府",
    "prefecture_kana": "キョウトフ",
    "prefecture_code": "26",
    "city": "綾部市",
    "city_kana": "アヤベシ",
    "town": "内久井町",
    "town_kana": "ウチグイチョウ",
    "street": null,
    "office_name": null,
    "office_name_kana": null
  },
  "0342": {
    "zip_code": "6230342",
    "prefecture": "京都府",
    "prefecture_kana": "キョウトフ",
    "prefecture_code": "26",
    "city": "綾部市",
    "city_kana": "アヤベシ",
    "town": "金河内町",
    "town_kana": "カネゴチチョウ",
    "street": null,
    "office_name": null,
    "office_name_kana": null
  },
  "0343": {
    "zip_code": "6230343",
    "prefecture": "京都府",
    "prefecture_kana": "キョウトフ",
    "prefecture_code": "26",
    "city": "綾部市",
    "city_kana": "アヤベシ",
    "town": "志賀郷町",
    "town_kana": "シガサトチョウ",
    "street": null,
    "office_name": null,
    "office_name_kana": null
  },
  "0344": {
    "zip_code": "6230344",
    "prefecture": "京都府",
    "prefecture_kana": "キョウトフ",
    "prefecture_code": "26",
    "city": "綾部市",
    "city_kana": "アヤベシ",
    "town": "西方町",
    "town_kana": "ニシガタチョウ",
    "street": null,
    "office_name": null,
    "office_name_kana": null
  },
  "0345": {
    "zip_code": "6230345",
    "prefecture": "京都府",
    "prefecture_kana": "キョウトフ",
    "prefecture_code": "26",
    "city": "綾部市",
    "city_kana": "アヤベシ",
    "town": "仁和町",
    "town_kana": "ニワチョウ",
    "street": null,
    "office_name": null,
    "office_name_kana": null
  },
  "0346": {
    "zip_code": "6230346",
    "prefecture": "京都府",
    "prefecture_kana": "キョウトフ",
    "prefecture_code": "26",
    "city": "綾部市",
    "city_kana": "アヤベシ",
    "town": "坊口町",
    "town_kana": "ボウグチチョウ",
    "street": null,
    "office_name": null,
    "office_name_kana": null
  },
  "0351": {
    "zip_code": "6230351",
    "prefecture": "京都府",
    "prefecture_kana": "キョウトフ",
    "prefecture_code": "26",
    "city": "綾部市",
    "city_kana": "アヤベシ",
    "town": "篠田町",
    "town_kana": "シノダチョウ",
    "street": null,
    "office_name": null,
    "office_name_kana": null
  },
  "0352": {
    "zip_code": "6230352",
    "prefecture": "京都府",
    "prefecture_kana": "キョウトフ",
    "prefecture_code": "26",
    "city": "綾部市",
    "city_kana": "アヤベシ",
    "town": "向田町",
    "town_kana": "ムコウダチョウ",
    "street": null,
    "office_name": null,
    "office_name_kana": null
  },
  "0353": {
    "zip_code": "6230353",
    "prefecture": "京都府",
    "prefecture_kana": "キョウトフ",
    "prefecture_code": "26",
    "city": "綾部市",
    "city_kana": "アヤベシ",
    "town": "別所町",
    "town_kana": "ベッシヨチョウ",
    "street": null,
    "office_name": null,
    "office_name_kana": null
  },
  "0361": {
    "zip_code": "6230361",
    "prefecture": "京都府",
    "prefecture_kana": "キョウトフ",
    "prefecture_code": "26",
    "city": "綾部市",
    "city_kana": "アヤベシ",
    "town": "白道路町",
    "town_kana": "ハソウジチョウ",
    "street": null,
    "office_name": null,
    "office_name_kana": null
  },
  "0362": {
    "zip_code": "6230362",
    "prefecture": "京都府",
    "prefecture_kana": "キョウトフ",
    "prefecture_code": "26",
    "city": "綾部市",
    "city_kana": "アヤベシ",
    "town": "物部町",
    "town_kana": "モノベチョウ",
    "street": null,
    "office_name": null,
    "office_name_kana": null
  },
  "0363": {
    "zip_code": "6230363",
    "prefecture": "京都府",
    "prefecture_kana": "キョウトフ",
    "prefecture_code": "26",
    "city": "綾部市",
    "city_kana": "アヤベシ",
    "town": "新庄町",
    "town_kana": "シンジョウチョウ",
    "street": null,
    "office_name": null,
    "office_name_kana": null
  },
  "0364": {
    "zip_code": "6230364",
    "prefecture": "京都府",
    "prefecture_kana": "キョウトフ",
    "prefecture_code": "26",
    "city": "綾部市",
    "city_kana": "アヤベシ",
    "town": "西坂町",
    "town_kana": "ニシザカチョウ",
    "street": null,
    "office_name": null,
    "office_name_kana": null
  },
  "1121": {
    "zip_code": "6231121",
    "prefecture": "京都府",
    "prefecture_kana": "キョウトフ",
    "prefecture_code": "26",
    "city": "綾部市",
    "city_kana": "アヤベシ",
    "town": "睦合町",
    "town_kana": "ムツアイチョウ",
    "street": null,
    "office_name": null,
    "office_name_kana": null
  },
  "1122": {
    "zip_code": "6231122",
    "prefecture": "京都府",
    "prefecture_kana": "キョウトフ",
    "prefecture_code": "26",
    "city": "綾部市",
    "city_kana": "アヤベシ",
    "town": "八津合町",
    "town_kana": "ヤツアイチョウ",
    "street": null,
    "office_name": null,
    "office_name_kana": null
  },
  "1123": {
    "zip_code": "6231123",
    "prefecture": "京都府",
    "prefecture_kana": "キョウトフ",
    "prefecture_code": "26",
    "city": "綾部市",
    "city_kana": "アヤベシ",
    "town": "五津合町",
    "town_kana": "イツアイチョウ",
    "street": null,
    "office_name": null,
    "office_name_kana": null
  },
  "1124": {
    "zip_code": "6231124",
    "prefecture": "京都府",
    "prefecture_kana": "キョウトフ",
    "prefecture_code": "26",
    "city": "綾部市",
    "city_kana": "アヤベシ",
    "town": "五泉町",
    "town_kana": "イイズミチョウ",
    "street": null,
    "office_name": null,
    "office_name_kana": null
  },
  "1131": {
    "zip_code": "6231131",
    "prefecture": "京都府",
    "prefecture_kana": "キョウトフ",
    "prefecture_code": "26",
    "city": "綾部市",
    "city_kana": "アヤベシ",
    "town": "睦寄町",
    "town_kana": "ムツヨリチョウ",
    "street": null,
    "office_name": null,
    "office_name_kana": null
  },
  "1132": {
    "zip_code": "6231132",
    "prefecture": "京都府",
    "prefecture_kana": "キョウトフ",
    "prefecture_code": "26",
    "city": "綾部市",
    "city_kana": "アヤベシ",
    "town": "故屋岡町",
    "town_kana": "コヤオカチョウ",
    "street": null,
    "office_name": null,
    "office_name_kana": null
  },
  "1133": {
    "zip_code": "6231133",
    "prefecture": "京都府",
    "prefecture_kana": "キョウトフ",
    "prefecture_code": "26",
    "city": "綾部市",
    "city_kana": "アヤベシ",
    "town": "光野町",
    "town_kana": "ミツノチョウ",
    "street": null,
    "office_name": null,
    "office_name_kana": null
  },
  "1134": {
    "zip_code": "6231134",
    "prefecture": "京都府",
    "prefecture_kana": "キョウトフ",
    "prefecture_code": "26",
    "city": "綾部市",
    "city_kana": "アヤベシ",
    "town": "老富町",
    "town_kana": "オイトミチョウ",
    "street": null,
    "office_name": null,
    "office_name_kana": null
  },
  "8501": {
    "zip_code": "6238501",
    "prefecture": "京都府",
    "prefecture_kana": "キョウトフ",
    "prefecture_code": "26",
    "city": "綾部市",
    "city_kana": "アヤベシ",
    "town": "若竹町",
    "town_kana": "ワカタケチョウ",
    "street": "８番地の１",
    "office_name": "綾部市役所",
    "office_name_kana": "アヤベシヤクシヨ"
  },
  "8588": {
    "zip_code": "6238588",
    "prefecture": "京都府",
    "prefecture_kana": "キョウトフ",
    "prefecture_code": "26",
    "city": "綾部市",
    "city_kana": "アヤベシ",
    "town": "味方町",
    "town_kana": "ミカタチョウ",
    "street": "１番地",
    "office_name": "京セラＳＬＣコンポーネンツ　株式会社",
    "office_name_kana": "キヨウセラエスエルシ-コンポ-ネンツ カブシキガイシヤ"
  }
}