{
  "0101": {
    "zip_code": "6240101",
    "prefecture": "京都府",
    "prefecture_kana": "キョウトフ",
    "prefecture_code": "26",
    "city": "舞鶴市",
    "city_kana": "マイヅルシ",
    "town": "大川",
    "town_kana": "オオカワ",
    "street": null,
    "office_name": null,
    "office_name_kana": null
  },
  "0102": {
    "zip_code": "6240102",
    "prefecture": "京都府",
    "prefecture_kana": "キョウトフ",
    "prefecture_code": "26",
    "city": "舞鶴市",
    "city_kana": "マイヅルシ",
    "town": "志高",
    "town_kana": "シダカ",
    "street": null,
    "office_name": null,
    "office_name_kana": null
  },
  "0103": {
    "zip_code": "6240103",
    "prefecture": "京都府",
    "prefecture_kana": "キョウトフ",
    "prefecture_code": "26",
    "city": "舞鶴市",
    "city_kana": "マイヅルシ",
    "town": "久田美",
    "town_kana": "クタミ",
    "street": null,
    "office_name": null,
    "office_name_kana": null
  },
  "0111": {
    "zip_code": "6240111",
    "prefecture": "京都府",
    "prefecture_kana": "キョウトフ",
    "prefecture_code": "26",
    "city": "舞鶴市",
    "city_kana": "マイヅルシ",
    "town": "長谷",
    "town_kana": "ナガタニ",
    "street": null,
    "office_name": null,
    "office_name_kana": null
  },
  "0112": {
    "zip_code": "6240112",
    "prefecture": "京都府",
    "prefecture_kana": "キョウトフ",
    "prefecture_code": "26",
    "city": "舞鶴市",
    "city_kana": "マイヅルシ",
    "town": "上漆原",
    "town_kana": "カミウルシバラ",
    "street": null,
    "office_name": null,
    "office_name_kana": null
  },
  "0113": {
    "zip_code": "6240113",
    "prefecture": "京都府",
    "prefecture_kana": "キョウトフ",
    "prefecture_code": "26",
    "city": "舞鶴市",
    "city_kana": "マイヅルシ",
    "town": "下漆原",
    "town_kana": "シモウルシバラ",
    "street": null,
    "office_name": null,
    "office_name_kana": null
  },
  "0114": {
    "zip_code": "6240114",
    "prefecture": "京都府",
    "prefecture_kana": "キョウトフ",
    "prefecture_code": "26",
    "city": "舞鶴市",
    "city_kana": "マイヅルシ",
    "town": "下見谷",
    "town_kana": "シモミダニ",
    "street": null,
    "office_name": null,
    "office_name_kana": null
  },
  "0115": {
    "zip_code": "6240115",
    "prefecture": "京都府",
    "prefecture_kana": "キョウトフ",
    "prefecture_code": "26",
    "city": "舞鶴市",
    "city_kana": "マイヅルシ",
    "town": "河原",
    "town_kana": "コウラ",
    "street": null,
    "office_name": null,
    "office_name_kana": null
  },
  "0116": {
    "zip_code": "6240116",
    "prefecture": "京都府",
    "prefecture_kana": "キョウトフ",
    "prefecture_code": "26",
    "city": "舞鶴市",
    "city_kana": "マイヅルシ",
    "town": "富室",
    "town_kana": "フムロ",
    "street": null,
    "office_name": null,
    "office_name_kana": null
  },
  "0117": {
    "zip_code": "6240117",
    "prefecture": "京都府",
    "prefecture_kana": "キョウトフ",
    "prefecture_code": "26",
    "city": "舞鶴市",
    "city_kana": "マイヅルシ",
    "town": "岡田由里",
    "town_kana": "オカダユリ",
    "street": null,
    "office_name": null,
    "office_name_kana": null
  },
  "0118": {
    "zip_code": "6240118",
    "prefecture": "京都府",
    "prefecture_kana": "キョウトフ",
    "prefecture_code": "26",
    "city": "舞鶴市",
    "city_kana": "マイヅルシ",
    "town": "西方寺",
    "town_kana": "サイホウジ",
    "street": null,
    "office_name": null,
    "office_name_kana": null
  },
  "0121": {
    "zip_code": "6240121",
    "prefecture": "京都府",
    "prefecture_kana": "キョウトフ",
    "prefecture_code": "26",
    "city": "舞鶴市",
    "city_kana": "マイヅルシ",
    "town": "滝ケ宇呂",
    "town_kana": "タキガウロ",
    "street": null,
    "office_name": null,
    "office_name_kana": null
  },
  "0122": {
    "zip_code": "6240122",
    "prefecture": "京都府",
    "prefecture_kana": "キョウトフ",
    "prefecture_code": "26",
    "city": "舞鶴市",
    "city_kana": "マイヅルシ",
    "town": "地頭",
    "town_kana": "ジトウ",
    "street": null,
    "office_name": null,
    "office_name_kana": null
  },
  "0123": {
    "zip_code": "6240123",
    "prefecture": "京都府",
    "prefecture_kana": "キョウトフ",
    "prefecture_code": "26",
    "city": "舞鶴市",
    "city_kana": "マイヅルシ",
    "town": "大俣",
    "town_kana": "オオマタ",
    "street": null,
    "office_name": null,
    "office_name_kana": null
  },
  "0124": {
    "zip_code": "6240124",
    "prefecture": "京都府",
    "prefecture_kana": "キョウトフ",
    "prefecture_code": "26",
    "city": "舞鶴市",
    "city_kana": "マイヅルシ",
    "town": "桑飼下",
    "town_kana": "クワガイシモ",
    "street": null,
    "office_name": null,
    "office_name_kana": null
  },
  "0125": {
    "zip_code": "6240125",
    "prefecture": "京都府",
    "prefecture_kana": "キョウトフ",
    "prefecture_code": "26",
    "city": "舞鶴市",
    "city_kana": "マイヅルシ",
    "town": "桑飼上",
    "town_kana": "クワガイカミ",
    "street": null,
    "office_name": null,
    "office_name_kana": null
  },
  "0801": {
    "zip_code": "6240801",
    "prefecture": "京都府",
    "prefecture_kana": "キョウトフ",
    "prefecture_code": "26",
    "city": "舞鶴市",
    "city_kana": "マイヅルシ",
    "town": "寺田",
    "town_kana": "テラダ",
    "street": null,
    "office_name": null,
    "office_name_kana": null
  },
  "0802": {
    "zip_code": "6240802",
    "prefecture": "京都府",
    "prefecture_kana": "キョウトフ",
    "prefecture_code": "26",
    "city": "舞鶴市",
    "city_kana": "マイヅルシ",
    "town": "上根",
    "town_kana": "ウエネ",
    "street": null,
    "office_name": null,
    "office_name_kana": null
  },
  "0803": {
    "zip_code": "6240803",
    "prefecture": "京都府",
    "prefecture_kana": "キョウトフ",
    "prefecture_code": "26",
    "city": "舞鶴市",
    "city_kana": "マイヅルシ",
    "town": "白滝",
    "town_kana": "シラタキ",
    "street": null,
    "office_name": null,
    "office_name_kana": null
  },
  "0804": {
    "zip_code": "6240804",
    "prefecture": "京都府",
    "prefecture_kana": "キョウトフ",
    "prefecture_code": "26",
    "city": "舞鶴市",
    "city_kana": "マイヅルシ",
    "town": "岸谷",
    "town_kana": "キシダニ",
    "street": null,
    "office_name": null,
    "office_name_kana": null
  },
  "0805": {
    "zip_code": "6240805",
    "prefecture": "京都府",
    "prefecture_kana": "キョウトフ",
    "prefecture_code": "26",
    "city": "舞鶴市",
    "city_kana": "マイヅルシ",
    "town": "別所",
    "town_kana": "ベッシヨ",
    "street": null,
    "office_name": null,
    "office_name_kana": null
  },
  "0806": {
    "zip_code": "6240806",
    "prefecture": "京都府",
    "prefecture_kana": "キョウトフ",
    "prefecture_code": "26",
    "city": "舞鶴市",
    "city_kana": "マイヅルシ",
    "town": "布敷",
    "town_kana": "ヌノシキ",
    "street": null,
    "office_name": null,
    "office_name_kana": null
  },
  "0811": {
    "zip_code": "6240811",
    "prefecture": "京都府",
    "prefecture_kana": "キョウトフ",
    "prefecture_code": "26",
    "city": "舞鶴市",
    "city_kana": "マイヅルシ",
    "town": "池ノ内下",
    "town_kana": "イケノウチシモ",
    "street": null,
    "office_name": null,
    "office_name_kana": null
  },
  "0812": {
    "zip_code": "6240812",
    "prefecture": "京都府",
    "prefecture_kana": "キョウトフ",
    "prefecture_code": "26",
    "city": "舞鶴市",
    "city_kana": "マイヅルシ",
    "town": "堀",
    "town_kana": "ホリ",
    "street": null,
    "office_name": null,
    "office_name_kana": null
  },
  "0813": {
    "zip_code": "6240813",
    "prefecture": "京都府",
    "prefecture_kana": "キョウトフ",
    "prefecture_code": "26",
    "city": "舞鶴市",
    "city_kana": "マイヅルシ",
    "town": "今田",
    "town_kana": "イマダ",
    "street": null,
    "office_name": null,
    "office_name_kana": null
  },
  "0814": {
    "zip_code": "6240814",
    "prefecture": "京都府",
    "prefecture_kana": "キョウトフ",
    "prefecture_code": "26",
    "city": "舞鶴市",
    "city_kana": "マイヅルシ",
    "town": "万願寺",
    "town_kana": "マンガンジ",
    "street": null,
    "office_name": null,
    "office_name_kana": null
  },
  "0815": {
    "zip_code": "6240815",
    "prefecture": "京都府",
    "prefecture_kana": "キョウトフ",
    "prefecture_code": "26",
    "city": "舞鶴市",
    "city_kana": "マイヅルシ",
    "town": "境谷",
    "town_kana": "サカイダニ",
    "street": null,
    "office_name": null,
    "office_name_kana": null
  },
  "0816": {
    "zip_code": "6240816",
    "prefecture": "京都府",
    "prefecture_kana": "キョウトフ",
    "prefecture_code": "26",
    "city": "舞鶴市",
    "city_kana": "マイヅルシ",
    "town": "伊佐津",
    "town_kana": "イサヅ",
    "street": null,
    "office_name": null,
    "office_name_kana": null
  },
  "0821": {
    "zip_code": "6240821",
    "prefecture": "京都府",
    "prefecture_kana": "キョウトフ",
    "prefecture_code": "26",
    "city": "舞鶴市",
    "city_kana": "マイヅルシ",
    "town": "公文名",
    "town_kana": "クモンナ",
    "street": null,
    "office_name": null,
    "office_name_kana": null
  },
  "0822": {
    "zip_code": "6240822",
    "prefecture": "京都府",
    "prefecture_kana": "キョウトフ",
    "prefecture_code": "26",
    "city": "舞鶴市",
    "city_kana": "マイヅルシ",
    "town": "七日市",
    "town_kana": "ナヌカイチ",
    "street": null,
    "office_name": null,
    "office_name_kana": null
  },
  "0823": {
    "zip_code": "6240823",
    "prefecture": "京都府",
    "prefecture_kana": "キョウトフ",
    "prefecture_code": "26",
    "city": "舞鶴市",
    "city_kana": "マイヅルシ",
    "town": "京田",
    "town_kana": "キョウダ",
    "street": null,
    "office_name": null,
    "office_name_kana": null
  },
  "0824": {
    "zip_code": "6240824",
    "prefecture": "京都府",
    "prefecture_kana": "キョウトフ",
    "prefecture_code": "26",
    "city": "舞鶴市",
    "city_kana": "マイヅルシ",
    "town": "真倉",
    "town_kana": "マグラ",
    "street": null,
    "office_name": null,
    "office_name_kana": null
  },
  "0825": {
    "zip_code": "6240825",
    "prefecture": "京都府",
    "prefecture_kana": "キョウトフ",
    "prefecture_code": "26",
    "city": "舞鶴市",
    "city_kana": "マイヅルシ",
    "town": "十倉",
    "town_kana": "トクラ",
    "street": null,
    "office_name": null,
    "office_name_kana": null
  },
  "0826": {
    "zip_code": "6240826",
    "prefecture": "京都府",
    "prefecture_kana": "キョウトフ",
    "prefecture_code": "26",
    "city": "舞鶴市",
    "city_kana": "マイヅルシ",
    "town": "京田新町",
    "town_kana": "キョウダシンマチ",
    "street": null,
    "office_name": null,
    "office_name_kana": null
  },
  "0831": {
    "zip_code": "6240831",
    "prefecture": "京都府",
    "prefecture_kana": "キョウトフ",
    "prefecture_code": "26",
    "city": "舞鶴市",
    "city_kana": "マイヅルシ",
    "town": "女布",
    "town_kana": "ニョウ",
    "street": null,
    "office_name": null,
    "office_name_kana": null
  },
  "0832": {
    "zip_code": "6240832",
    "prefecture": "京都府",
    "prefecture_kana": "キョウトフ",
    "prefecture_code": "26",
    "city": "舞鶴市",
    "city_kana": "マイヅルシ",
    "town": "高野台",
    "town_kana": "タカノダイ",
    "street": null,
    "office_name": null,
    "office_name_kana": null
  },
  "0833": {
    "zip_code": "6240833",
    "prefecture": "京都府",
    "prefecture_kana": "キョウトフ",
    "prefecture_code": "26",
    "city": "舞鶴市",
    "city_kana": "マイヅルシ",
    "town": "野村寺",
    "town_kana": "ノムラジ",
    "street": null,
    "office_name": null,
    "office_name_kana": null
  },
  "0834": {
    "zip_code": "6240834",
    "prefecture": "京都府",
    "prefecture_kana": "キョウトフ",
    "prefecture_code": "26",
    "city": "舞鶴市",
    "city_kana": "マイヅルシ",
    "town": "城屋",
    "town_kana": "ジョウヤ",
    "street": null,
    "office_name": null,
    "office_name_kana": null
  },
  "0835": {
    "zip_code": "6240835",
    "prefecture": "京都府",
    "prefecture_kana": "キョウトフ",
    "prefecture_code": "26",
    "city": "舞鶴市",
    "city_kana": "マイヅルシ",
    "town": "高野由里",
    "town_kana": "タカノユリ",
    "street": null,
    "office_name": null,
    "office_name_kana": null
  },
  "0836": {
    "zip_code": "6240836",
    "prefecture": "京都府",
    "prefecture_kana": "キョウトフ",
    "prefecture_code": "26",
    "city": "舞鶴市",
    "city_kana": "マイヅルシ",
    "town": "女布北町",
    "town_kana": "ニョウキタマチ",
    "street": null,
    "office_name": null,
    "office_name_kana": null
  },
  "0841": {
    "zip_code": "6240841",
    "prefecture": "京都府",
    "prefecture_kana": "キョウトフ",
    "prefecture_code": "26",
    "city": "舞鶴市",
    "city_kana": "マイヅルシ",
    "town": "引土",
    "town_kana": "ヒキツチ",
    "street": null,
    "office_name": null,
    "office_name_kana": null
  },
  "0842": {
    "zip_code": "6240842",
    "prefecture": "京都府",
    "prefecture_kana": "キョウトフ",
    "prefecture_code": "26",
    "city": "舞鶴市",
    "city_kana": "マイヅルシ",
    "town": "朝代",
    "town_kana": "アサシロ",
    "street": null,
    "office_name": null,
    "office_name_kana": null
  },
  "0843": {
    "zip_code": "6240843",
    "prefecture": "京都府",
    "prefecture_kana": "キョウトフ",
    "prefecture_code": "26",
    "city": "舞鶴市",
    "city_kana": "マイヅルシ",
    "town": "引土新",
    "town_kana": "ヒキツチシン",
    "street": null,
    "office_name": null,
    "office_name_kana": null
  },
  "0851": {
    "zip_code": "6240851",
    "prefecture": "京都府",
    "prefecture_kana": "キョウトフ",
    "prefecture_code": "26",
    "city": "舞鶴市",
    "city_kana": "マイヅルシ",
    "town": "大内野町",
    "town_kana": "オオチノチョウ",
    "street": null,
    "office_name": null,
    "office_name_kana": null
  },
  "0852": {
    "zip_code": "6240852",
    "prefecture": "京都府",
    "prefecture_kana": "キョウトフ",
    "prefecture_code": "26",
    "city": "舞鶴市",
    "city_kana": "マイヅルシ",
    "town": "大内",
    "town_kana": "オオウチ",
    "street": null,
    "office_name": null,
    "office_name_kana": null
  },
  "0853": {
    "zip_code": "6240853",
    "prefecture": "京都府",
    "prefecture_kana": "キョウトフ",
    "prefecture_code": "26",
    "city": "舞鶴市",
    "city_kana": "マイヅルシ",
    "town": "南田辺",
    "town_kana": "ミナミタナベ",
    "street": null,
    "office_name": null,
    "office_name_kana": null
  },
  "0854": {
    "zip_code": "6240854",
    "prefecture": "京都府",
    "prefecture_kana": "キョウトフ",
    "prefecture_code": "26",
    "city": "舞鶴市",
    "city_kana": "マイヅルシ",
    "town": "円満寺",
    "town_kana": "エンマンジ",
    "street": null,
    "office_name": null,
    "office_name_kana": null
  },
  "0855": {
    "zip_code": "6240855",
    "prefecture": "京都府",
    "prefecture_kana": "キョウトフ",
    "prefecture_code": "26",
    "city": "舞鶴市",
    "city_kana": "マイヅルシ",
    "town": "北田辺",
    "town_kana": "キタタナベ",
    "street": null,
    "office_name": null,
    "office_name_kana": null
  },
  "0901": {
    "zip_code": "6240901",
    "prefecture": "京都府",
    "prefecture_kana": "キョウトフ",
    "prefecture_code": "26",
    "city": "舞鶴市",
    "city_kana": "マイヅルシ",
    "town": "清美が丘",
    "town_kana": "キヨミガオカ",
    "street": null,
    "office_name": null,
    "office_name_kana": null
  },
  "0902": {
    "zip_code": "6240902",
    "prefecture": "京都府",
    "prefecture_kana": "キョウトフ",
    "prefecture_code": "26",
    "city": "舞鶴市",
    "city_kana": "マイヅルシ",
    "town": "清道",
    "town_kana": "キヨミチ",
    "street": null,
    "office_name": null,
    "office_name_kana": null
  },
  "0903": {
    "zip_code": "6240903",
    "prefecture": "京都府",
    "prefecture_kana": "キョウトフ",
    "prefecture_code": "26",
    "city": "舞鶴市",
    "city_kana": "マイヅルシ",
    "town": "天台",
    "town_kana": "テンダイ",
    "street": null,
    "office_name": null,
    "office_name_kana": null
  },
  "0904": {
    "zip_code": "6240904",
    "prefecture": "京都府",
    "prefecture_kana": "キョウトフ",
    "prefecture_code": "26",
    "city": "舞鶴市",
    "city_kana": "マイヅルシ",
    "town": "昭和台",
    "town_kana": "ショウワダイ",
    "street": null,
    "office_name": null,
    "office_name_kana": null
  },
  "0905": {
    "zip_code": "6240905",
    "prefecture": "京都府",
    "prefecture_kana": "キョウトフ",
    "prefecture_code": "26",
    "city": "舞鶴市",
    "city_kana": "マイヅルシ",
    "town": "福来",
    "town_kana": "フキ",
    "street": null,
    "office_name": null,
    "office_name_kana": null
  },
  "0906": {
    "zip_code": "6240906",
    "prefecture": "京都府",
    "prefecture_kana": "キョウトフ",
    "prefecture_code": "26",
    "city": "舞鶴市",
    "city_kana": "マイヅルシ",
    "town": "倉谷",
    "town_kana": "クラタニ",
    "street": null,
    "office_name": null,
    "office_name_kana": null
  },
  "0907": {
    "zip_code": "6240907",
    "prefecture": "京都府",
    "prefecture_kana": "キョウトフ",
    "prefecture_code": "26",
    "city": "舞鶴市",
    "city_kana": "マイヅルシ",
    "town": "福来問屋町",
    "town_kana": "フキトンヤマチ",
    "street": null,
    "office_name": null,
    "office_name_kana": null
  },
  "0908": {
    "zip_code": "6240908",
    "prefecture": "京都府",
    "prefecture_kana": "キョウトフ",
    "prefecture_code": "26",
    "city": "舞鶴市",
    "city_kana": "マイヅルシ",
    "town": "清道新町",
    "town_kana": "キヨミチシンマチ",
    "street": null,
    "office_name": null,
    "office_name_kana": null
  },
  "0909": {
    "zip_code": "6240909",
    "prefecture": "京都府",
    "prefecture_kana": "キョウトフ",
    "prefecture_code": "26",
    "city": "舞鶴市",
    "city_kana": "マイヅルシ",
    "town": "天台新町",
    "town_kana": "テンダイシンマチ",
    "street": null,
    "office_name": null,
    "office_name_kana": null
  },
  "0911": {
    "zip_code": "6240911",
    "prefecture": "京都府",
    "prefecture_kana": "キョウトフ",
    "prefecture_code": "26",
    "city": "舞鶴市",
    "city_kana": "マイヅルシ",
    "town": "上安東町",
    "town_kana": "ウエヤスヒガシマチ",
    "street": null,
    "office_name": null,
    "office_name_kana": null
  },
  "0912": {
    "zip_code": "6240912",
    "prefecture": "京都府",
    "prefecture_kana": "キョウトフ",
    "prefecture_code": "26",
    "city": "舞鶴市",
    "city_kana": "マイヅルシ",
    "town": "上安",
    "town_kana": "ウエヤス",
    "street": null,
    "office_name": null,
    "office_name_kana": null
  },
  "0913": {
    "zip_code": "6240913",
    "prefecture": "京都府",
    "prefecture_kana": "キョウトフ",
    "prefecture_code": "26",
    "city": "舞鶴市",
    "city_kana": "マイヅルシ",
    "town": "上安久",
    "town_kana": "カミアグ",
    "street": null,
    "office_name": null,
    "office_name_kana": null
  },
  "0914": {
    "zip_code": "6240914",
    "prefecture": "京都府",
    "prefecture_kana": "キョウトフ",
    "prefecture_code": "26",
    "city": "舞鶴市",
    "city_kana": "マイヅルシ",
    "town": "下安久",
    "town_kana": "シモアグ",
    "street": null,
    "office_name": null,
    "office_name_kana": null
  },
  "0921": {
    "zip_code": "6240921",
    "prefecture": "京都府",
    "prefecture_kana": "キョウトフ",
    "prefecture_code": "26",
    "city": "舞鶴市",
    "city_kana": "マイヅルシ",
    "town": "東吉原",
    "town_kana": "ヒガシヨシハラ",
    "street": null,
    "office_name": null,
    "office_name_kana": null
  },
  "0922": {
    "zip_code": "6240922",
    "prefecture": "京都府",
    "prefecture_kana": "キョウトフ",
    "prefecture_code": "26",
    "city": "舞鶴市",
    "city_kana": "マイヅルシ",
    "town": "西吉原",
    "town_kana": "ニシヨシハラ",
    "street": null,
    "office_name": null,
    "office_name_kana": null
  },
  "0923": {
    "zip_code": "6240923",
    "prefecture": "京都府",
    "prefecture_kana": "キョウトフ",
    "prefecture_code": "26",
    "city": "舞鶴市",
    "city_kana": "マイヅルシ",
    "town": "魚屋",
    "town_kana": "ウオヤ",
    "street": null,
    "office_name": null,
    "office_name_kana": null
  },
  "0924": {
    "zip_code": "6240924",
    "prefecture": "京都府",
    "prefecture_kana": "キョウトフ",
    "prefecture_code": "26",
    "city": "舞鶴市",
    "city_kana": "マイヅルシ",
    "town": "職人",
    "town_kana": "ショクニン",
    "street": null,
    "office_name": null,
    "office_name_kana": null
  },
  "0925": {
    "zip_code": "6240925",
    "prefecture": "京都府",
    "prefecture_kana": "キョウトフ",
    "prefecture_code": "26",
    "city": "舞鶴市",
    "city_kana": "マイヅルシ",
    "town": "丹波",
    "town_kana": "タンバ",
    "street": null,
    "office_name": null,
    "office_name_kana": null
  },
  "0926": {
    "zip_code": "6240926",
    "prefecture": "京都府",
    "prefecture_kana": "キョウトフ",
    "prefecture_code": "26",
    "city": "舞鶴市",
    "city_kana": "マイヅルシ",
    "town": "本",
    "town_kana": "ホン",
    "street": null,
    "office_name": null,
    "office_name_kana": null
  },
  "0927": {
    "zip_code": "6240927",
    "prefecture": "京都府",
    "prefecture_kana": "キョウトフ",
    "prefecture_code": "26",
    "city": "舞鶴市",
    "city_kana": "マイヅルシ",
    "town": "平野屋",
    "town_kana": "ヒラノヤ",
    "street": null,
    "office_name": null,
    "office_name_kana": null
  },
  "0928": {
    "zip_code": "6240928",
    "prefecture": "京都府",
    "prefecture_kana": "キョウトフ",
    "prefecture_code": "26",
    "city": "舞鶴市",
    "city_kana": "マイヅルシ",
    "town": "竹屋",
    "town_kana": "タケヤ",
    "street": null,
    "office_name": null,
    "office_name_kana": null
  },
  "0929": {
    "zip_code": "6240929",
    "prefecture": "京都府",
    "prefecture_kana": "キョウトフ",
    "prefecture_code": "26",
    "city": "舞鶴市",
    "city_kana": "マイヅルシ",
    "town": "寺内",
    "town_kana": "ジナイ",
    "street": null,
    "office_name": null,
    "office_name_kana": null
  },
  "0931": {
    "zip_code": "6240931",
    "prefecture": "京都府",
    "prefecture_kana": "キョウトフ",
    "prefecture_code": "26",
    "city": "舞鶴市",
    "city_kana": "マイヅルシ",
    "town": "松陰",
    "town_kana": "マツカゲ",
    "street": null,
    "office_name": null,
    "office_name_kana": null
  },
  "0932": {
    "zip_code": "6240932",
    "prefecture": "京都府",
    "prefecture_kana": "キョウトフ",
    "prefecture_code": "26",
    "city": "舞鶴市",
    "city_kana": "マイヅルシ",
    "town": "宮津口",
    "town_kana": "ミヤヅグチ",
    "street": null,
    "office_name": null,
    "office_name_kana": null
  },
  "0933": {
    "zip_code": "6240933",
    "prefecture": "京都府",
    "prefecture_kana": "キョウトフ",
    "prefecture_code": "26",
    "city": "舞鶴市",
    "city_kana": "マイヅルシ",
    "town": "新",
    "town_kana": "シン",
    "street": null,
    "office_name": null,
    "office_name_kana": null
  },
  "0934": {
    "zip_code": "6240934",
    "prefecture": "京都府",
    "prefecture_kana": "キョウトフ",
    "prefecture_code": "26",
    "city": "舞鶴市",
    "city_kana": "マイヅルシ",
    "town": "堀上",
    "town_kana": "ホリカミ",
    "street": null,
    "office_name": null,
    "office_name_kana": null
  },
  "0935": {
    "zip_code": "6240935",
    "prefecture": "京都府",
    "prefecture_kana": "キョウトフ",
    "prefecture_code": "26",
    "city": "舞鶴市",
    "city_kana": "マイヅルシ",
    "town": "京口",
    "town_kana": "キョウグチ",
    "street": null,
    "office_name": null,
    "office_name_kana": null
  },
  "0936": {
    "zip_code": "6240936",
    "prefecture": "京都府",
    "prefecture_kana": "キョウトフ",
    "prefecture_code": "26",
    "city": "舞鶴市",
    "city_kana": "マイヅルシ",
    "town": "紺屋",
    "town_kana": "コンヤ",
    "street": null,
    "office_name": null,
    "office_name_kana": null
  },
  "0937": {
    "zip_code": "6240937",
    "prefecture": "京都府",
    "prefecture_kana": "キョウトフ",
    "prefecture_code": "26",
    "city": "舞鶴市",
    "city_kana": "マイヅルシ",
    "town": "西",
    "town_kana": "ニシ",
    "street": null,
    "office_name": null,
    "office_name_kana": null
  },
  "0941": {
    "zip_code": "6240941",
    "prefecture": "京都府",
    "prefecture_kana": "キョウトフ",
    "prefecture_code": "26",
    "city": "舞鶴市",
    "city_kana": "マイヅルシ",
    "town": "白杉",
    "town_kana": "シラスギ",
    "street": null,
    "office_name": null,
    "office_name_kana": null
  },
  "0942": {
    "zip_code": "6240942",
    "prefecture": "京都府",
    "prefecture_kana": "キョウトフ",
    "prefecture_code": "26",
    "city": "舞鶴市",
    "city_kana": "マイヅルシ",
    "town": "青井",
    "town_kana": "アオイ",
    "street": null,
    "office_name": null,
    "office_name_kana": null
  },
  "0943": {
    "zip_code": "6240943",
    "prefecture": "京都府",
    "prefecture_kana": "キョウトフ",
    "prefecture_code": "26",
    "city": "舞鶴市",
    "city_kana": "マイヅルシ",
    "town": "吉田",
    "town_kana": "ヨシダ",
    "street": null,
    "office_name": null,
    "office_name_kana": null
  },
  "0944": {
    "zip_code": "6240944",
    "prefecture": "京都府",
    "prefecture_kana": "キョウトフ",
    "prefecture_code": "26",
    "city": "舞鶴市",
    "city_kana": "マイヅルシ",
    "town": "大君",
    "town_kana": "オオキミ",
    "street": null,
    "office_name": null,
    "office_name_kana": null
  },
  "0945": {
    "zip_code": "6240945",
    "prefecture": "京都府",
    "prefecture_kana": "キョウトフ",
    "prefecture_code": "26",
    "city": "舞鶴市",
    "city_kana": "マイヅルシ",
    "town": "喜多",
    "town_kana": "キタ",
    "street": null,
    "office_name": null,
    "office_name_kana": null
  },
  "0946": {
    "zip_code": "6240946",
    "prefecture": "京都府",
    "prefecture_kana": "キョウトフ",
    "prefecture_code": "26",
    "city": "舞鶴市",
    "city_kana": "マイヅルシ",
    "town": "下福井",
    "town_kana": "シモフクイ",
    "street": null,
    "office_name": null,
    "office_name_kana": null
  },
  "0951": {
    "zip_code": "6240951",
    "prefecture": "京都府",
    "prefecture_kana": "キョウトフ",
    "prefecture_code": "26",
    "city": "舞鶴市",
    "city_kana": "マイヅルシ",
    "town": "上福井",
    "town_kana": "カミフクイ",
    "street": null,
    "office_name": null,
    "office_name_kana": null
  },
  "0952": {
    "zip_code": "6240952",
    "prefecture": "京都府",
    "prefecture_kana": "キョウトフ",
    "prefecture_code": "26",
    "city": "舞鶴市",
    "city_kana": "マイヅルシ",
    "town": "三日市",
    "town_kana": "ミッカイチ",
    "street": null,
    "office_name": null,
    "office_name_kana": null
  },
  "0953": {
    "zip_code": "6240953",
    "prefecture": "京都府",
    "prefecture_kana": "キョウトフ",
    "prefecture_code": "26",
    "city": "舞鶴市",
    "city_kana": "マイヅルシ",
    "town": "八戸地",
    "town_kana": "ハトチ",
    "street": null,
    "office_name": null,
    "office_name_kana": null
  },
  "0954": {
    "zip_code": "6240954",
    "prefecture": "京都府",
    "prefecture_kana": "キョウトフ",
    "prefecture_code": "26",
    "city": "舞鶴市",
    "city_kana": "マイヅルシ",
    "town": "八田",
    "town_kana": "ハッタ",
    "street": null,
    "office_name": null,
    "office_name_kana": null
  },
  "0955": {
    "zip_code": "6240955",
    "prefecture": "京都府",
    "prefecture_kana": "キョウトフ",
    "prefecture_code": "26",
    "city": "舞鶴市",
    "city_kana": "マイヅルシ",
    "town": "丸田",
    "town_kana": "マルタ",
    "street": null,
    "office_name": null,
    "office_name_kana": null
  },
  "0956": {
    "zip_code": "6240956",
    "prefecture": "京都府",
    "prefecture_kana": "キョウトフ",
    "prefecture_code": "26",
    "city": "舞鶴市",
    "city_kana": "マイヅルシ",
    "town": "和江",
    "town_kana": "ワエ",
    "street": null,
    "office_name": null,
    "office_name_kana": null
  },
  "0961": {
    "zip_code": "6240961",
    "prefecture": "京都府",
    "prefecture_kana": "キョウトフ",
    "prefecture_code": "26",
    "city": "舞鶴市",
    "city_kana": "マイヅルシ",
    "town": "西神崎",
    "town_kana": "ニシカンザキ",
    "street": null,
    "office_name": null,
    "office_name_kana": null
  },
  "0962": {
    "zip_code": "6240962",
    "prefecture": "京都府",
    "prefecture_kana": "キョウトフ",
    "prefecture_code": "26",
    "city": "舞鶴市",
    "city_kana": "マイヅルシ",
    "town": "東神崎",
    "town_kana": "ヒガシカンザキ",
    "street": null,
    "office_name": null,
    "office_name_kana": null
  },
  "0963": {
    "zip_code": "6240963",
    "prefecture": "京都府",
    "prefecture_kana": "キョウトフ",
    "prefecture_code": "26",
    "city": "舞鶴市",
    "city_kana": "マイヅルシ",
    "town": "油江",
    "town_kana": "ユゴ",
    "street": null,
    "office_name": null,
    "office_name_kana": null
  },
  "0964": {
    "zip_code": "6240964",
    "prefecture": "京都府",
    "prefecture_kana": "キョウトフ",
    "prefecture_code": "26",
    "city": "舞鶴市",
    "city_kana": "マイヅルシ",
    "town": "蒲江",
    "town_kana": "カマヤ",
    "street": null,
    "office_name": null,
    "office_name_kana": null
  },
  "0965": {
    "zip_code": "6240965",
    "prefecture": "京都府",
    "prefecture_kana": "キョウトフ",
    "prefecture_code": "26",
    "city": "舞鶴市",
    "city_kana": "マイヅルシ",
    "town": "水間",
    "town_kana": "ミズマ",
    "street": null,
    "office_name": null,
    "office_name_kana": null
  },
  "0966": {
    "zip_code": "6240966",
    "prefecture": "京都府",
    "prefecture_kana": "キョウトフ",
    "prefecture_code": "26",
    "city": "舞鶴市",
    "city_kana": "マイヅルシ",
    "town": "中山",
    "town_kana": "ナカヤマ",
    "street": null,
    "office_name": null,
    "office_name_kana": null
  },
  "0967": {
    "zip_code": "6240967",
    "prefecture": "京都府",
    "prefecture_kana": "キョウトフ",
    "prefecture_code": "26",
    "city": "舞鶴市",
    "city_kana": "マイヅルシ",
    "town": "下東",
    "town_kana": "シモヒガシ",
    "street": null,
    "office_name": null,
    "office_name_kana": null
  },
  "0968": {
    "zip_code": "6240968",
    "prefecture": "京都府",
    "prefecture_kana": "キョウトフ",
    "prefecture_code": "26",
    "city": "舞鶴市",
    "city_kana": "マイヅルシ",
    "town": "上東",
    "town_kana": "カミヒガシ",
    "street": null,
    "office_name": null,
    "office_name_kana": null
  },
  "8555": {
    "zip_code": "6248555",
    "prefecture": "京都府",
    "prefecture_kana": null,
    "prefecture_code": null,
    "city": "舞鶴市",
    "city_kana": null,
    "town": "字南田辺",
    "town_kana": null,
    "street": "５０−８",
    "office_name": "日本年金機構　舞鶴年金事務所",
    "office_name_kana": "ニツポンネンキンキコウ マイヅルネンキンジムシヨ"
  },
  "8686": {
    "zip_code": "6248686",
    "prefecture": "京都府",
    "prefecture_kana": null,
    "prefecture_code": null,
    "city": "舞鶴市",
    "city_kana": null,
    "town": "字下福井",
    "town_kana": null,
    "street": "９０１",
    "office_name": "第八管区海上保安本部",
    "office_name_kana": "ダイハチカンクカイジヨウホアンホンブ"
  }
}