{
  "0101": {
    "zip_code": "6290101",
    "prefecture": "京都府",
    "prefecture_kana": "キョウトフ",
    "prefecture_code": "26",
    "city": "南丹市",
    "city_kana": "ナンタンシ",
    "town": "八木町船枝",
    "town_kana": "ヤギチョウフナエダ",
    "street": null,
    "office_name": null,
    "office_name_kana": null
  },
  "0102": {
    "zip_code": "6290102",
    "prefecture": "京都府",
    "prefecture_kana": "キョウトフ",
    "prefecture_code": "26",
    "city": "南丹市",
    "city_kana": "ナンタンシ",
    "town": "八木町室橋",
    "town_kana": "ヤギチョウムロハシ",
    "street": null,
    "office_name": null,
    "office_name_kana": null
  },
  "0103": {
    "zip_code": "6290103",
    "prefecture": "京都府",
    "prefecture_kana": "キョウトフ",
    "prefecture_code": "26",
    "city": "南丹市",
    "city_kana": "ナンタンシ",
    "town": "八木町諸畑",
    "town_kana": "ヤギチョウモロハタ",
    "street": null,
    "office_name": null,
    "office_name_kana": null
  },
  "0104": {
    "zip_code": "6290104",
    "prefecture": "京都府",
    "prefecture_kana": "キョウトフ",
    "prefecture_code": "26",
    "city": "南丹市",
    "city_kana": "ナンタンシ",
    "town": "八木町日置",
    "town_kana": "ヤギチョウヒオキ",
    "street": null,
    "office_name": null,
    "office_name_kana": null
  },
  "0111": {
    "zip_code": "6290111",
    "prefecture": "京都府",
    "prefecture_kana": "キョウトフ",
    "prefecture_code": "26",
    "city": "南丹市",
    "city_kana": "ナンタンシ",
    "town": "八木町野条",
    "town_kana": "ヤギチョウノジョウ",
    "street": null,
    "office_name": null,
    "office_name_kana": null
  },
  "0112": {
    "zip_code": "6290112",
    "prefecture": "京都府",
    "prefecture_kana": "キョウトフ",
    "prefecture_code": "26",
    "city": "南丹市",
    "city_kana": "ナンタンシ",
    "town": "八木町池上",
    "town_kana": "ヤギチョウイケガミ",
    "street": null,
    "office_name": null,
    "office_name_kana": null
  },
  "0113": {
    "zip_code": "6290113",
    "prefecture": "京都府",
    "prefecture_kana": "キョウトフ",
    "prefecture_code": "26",
    "city": "南丹市",
    "city_kana": "ナンタンシ",
    "town": "八木町刑部",
    "town_kana": "ヤギチョウオサベ",
    "street": null,
    "office_name": null,
    "office_name_kana": null
  },
  "0114": {
    "zip_code": "6290114",
    "prefecture": "京都府",
    "prefecture_kana": "キョウトフ",
    "prefecture_code": "26",
    "city": "南丹市",
    "city_kana": "ナンタンシ",
    "town": "八木町北廣瀬",
    "town_kana": "ヤギチョウキタヒロセ",
    "street": null,
    "office_name": null,
    "office_name_kana": null
  },
  "0115": {
    "zip_code": "6290115",
    "prefecture": "京都府",
    "prefecture_kana": "キョウトフ",
    "prefecture_code": "26",
    "city": "南丹市",
    "city_kana": "ナンタンシ",
    "town": "八木町山室",
    "town_kana": "ヤギチョウヤマムロ",
    "street": null,
    "office_name": null,
    "office_name_kana": null
  },
  "0121": {
    "zip_code": "6290121",
    "prefecture": "京都府",
    "prefecture_kana": "キョウトフ",
    "prefecture_code": "26",
    "city": "南丹市",
    "city_kana": "ナンタンシ",
    "town": "八木町氷所",
    "town_kana": "ヤギチョウヒドコロ",
    "street": null,
    "office_name": null,
    "office_name_kana": null
  },
  "0122": {
    "zip_code": "6290122",
    "prefecture": "京都府",
    "prefecture_kana": "キョウトフ",
    "prefecture_code": "26",
    "city": "南丹市",
    "city_kana": "ナンタンシ",
    "town": "八木町青戸",
    "town_kana": "ヤギチョウアオト",
    "street": null,
    "office_name": null,
    "office_name_kana": null
  },
  "0131": {
    "zip_code": "6290131",
    "prefecture": "京都府",
    "prefecture_kana": "キョウトフ",
    "prefecture_code": "26",
    "city": "南丹市",
    "city_kana": "ナンタンシ",
    "town": "八木町北屋賀",
    "town_kana": "ヤギチョウキタヤガ",
    "street": null,
    "office_name": null,
    "office_name_kana": null
  },
  "0132": {
    "zip_code": "6290132",
    "prefecture": "京都府",
    "prefecture_kana": "キョウトフ",
    "prefecture_code": "26",
    "city": "南丹市",
    "city_kana": "ナンタンシ",
    "town": "八木町屋賀",
    "town_kana": "ヤギチョウヤガ",
    "street": null,
    "office_name": null,
    "office_name_kana": null
  },
  "0133": {
    "zip_code": "6290133",
    "prefecture": "京都府",
    "prefecture_kana": "キョウトフ",
    "prefecture_code": "26",
    "city": "南丹市",
    "city_kana": "ナンタンシ",
    "town": "八木町観音寺",
    "town_kana": "ヤギチョウカンオンジ",
    "street": null,
    "office_name": null,
    "office_name_kana": null
  },
  "0134": {
    "zip_code": "6290134",
    "prefecture": "京都府",
    "prefecture_kana": "キョウトフ",
    "prefecture_code": "26",
    "city": "南丹市",
    "city_kana": "ナンタンシ",
    "town": "八木町西田",
    "town_kana": "ヤギチョウニシダ",
    "street": null,
    "office_name": null,
    "office_name_kana": null
  },
  "0141": {
    "zip_code": "6290141",
    "prefecture": "京都府",
    "prefecture_kana": "キョウトフ",
    "prefecture_code": "26",
    "city": "南丹市",
    "city_kana": "ナンタンシ",
    "town": "八木町八木",
    "town_kana": "ヤギチョウヤギ",
    "street": null,
    "office_name": null,
    "office_name_kana": null
  },
  "0151": {
    "zip_code": "6290151",
    "prefecture": "京都府",
    "prefecture_kana": "キョウトフ",
    "prefecture_code": "26",
    "city": "南丹市",
    "city_kana": "ナンタンシ",
    "town": "八木町南廣瀬",
    "town_kana": "ヤギチョウミナミヒロセ",
    "street": null,
    "office_name": null,
    "office_name_kana": null
  },
  "0152": {
    "zip_code": "6290152",
    "prefecture": "京都府",
    "prefecture_kana": "キョウトフ",
    "prefecture_code": "26",
    "city": "南丹市",
    "city_kana": "ナンタンシ",
    "town": "八木町大藪",
    "town_kana": "ヤギチョウオオヤブ",
    "street": null,
    "office_name": null,
    "office_name_kana": null
  },
  "0153": {
    "zip_code": "6290153",
    "prefecture": "京都府",
    "prefecture_kana": "キョウトフ",
    "prefecture_code": "26",
    "city": "南丹市",
    "city_kana": "ナンタンシ",
    "town": "八木町八木嶋",
    "town_kana": "ヤギチョウヤギノシマ",
    "street": null,
    "office_name": null,
    "office_name_kana": null
  },
  "0154": {
    "zip_code": "6290154",
    "prefecture": "京都府",
    "prefecture_kana": "キョウトフ",
    "prefecture_code": "26",
    "city": "南丹市",
    "city_kana": "ナンタンシ",
    "town": "八木町柴山",
    "town_kana": "ヤギチョウシバヤマ",
    "street": null,
    "office_name": null,
    "office_name_kana": null
  },
  "0161": {
    "zip_code": "6290161",
    "prefecture": "京都府",
    "prefecture_kana": "キョウトフ",
    "prefecture_code": "26",
    "city": "南丹市",
    "city_kana": "ナンタンシ",
    "town": "八木町美里",
    "town_kana": "ヤギチョウミサト",
    "street": null,
    "office_name": null,
    "office_name_kana": null
  },
  "0162": {
    "zip_code": "6290162",
    "prefecture": "京都府",
    "prefecture_kana": "キョウトフ",
    "prefecture_code": "26",
    "city": "南丹市",
    "city_kana": "ナンタンシ",
    "town": "八木町鳥羽",
    "town_kana": "ヤギチョウトバ",
    "street": null,
    "office_name": null,
    "office_name_kana": null
  },
  "0163": {
    "zip_code": "6290163",
    "prefecture": "京都府",
    "prefecture_kana": "キョウトフ",
    "prefecture_code": "26",
    "city": "南丹市",
    "city_kana": "ナンタンシ",
    "town": "八木町玉ノ井",
    "town_kana": "ヤギチョウタマノイ",
    "street": null,
    "office_name": null,
    "office_name_kana": null
  },
  "0164": {
    "zip_code": "6290164",
    "prefecture": "京都府",
    "prefecture_kana": "キョウトフ",
    "prefecture_code": "26",
    "city": "南丹市",
    "city_kana": "ナンタンシ",
    "town": "八木町池ノ内",
    "town_kana": "ヤギチョウイケノウチ",
    "street": null,
    "office_name": null,
    "office_name_kana": null
  },
  "0165": {
    "zip_code": "6290165",
    "prefecture": "京都府",
    "prefecture_kana": "キョウトフ",
    "prefecture_code": "26",
    "city": "南丹市",
    "city_kana": "ナンタンシ",
    "town": "八木町木原",
    "town_kana": "ヤギチョウキワラ",
    "street": null,
    "office_name": null,
    "office_name_kana": null
  },
  "0166": {
    "zip_code": "6290166",
    "prefecture": "京都府",
    "prefecture_kana": "キョウトフ",
    "prefecture_code": "26",
    "city": "南丹市",
    "city_kana": "ナンタンシ",
    "town": "八木町室河原",
    "town_kana": "ヤギチョウムロガワラ",
    "street": null,
    "office_name": null,
    "office_name_kana": null
  },
  "0192": {
    "zip_code": "6290192",
    "prefecture": "京都府",
    "prefecture_kana": "キョウトフ",
    "prefecture_code": "26",
    "city": "南丹市",
    "city_kana": "ナンタンシ",
    "town": "八木町氷所",
    "town_kana": "ヤギチョウヒドコロ",
    "street": "河原１６",
    "office_name": "泰宏商事",
    "office_name_kana": "タイコウシヨウジ"
  },
  "0196": {
    "zip_code": "6290196",
    "prefecture": "京都府",
    "prefecture_kana": null,
    "prefecture_code": null,
    "city": "南丹市",
    "city_kana": null,
    "town": "八木町南広瀬",
    "town_kana": null,
    "street": "上野３−１",
    "office_name": "公立　南丹看護専門学校",
    "office_name_kana": "コウリツ ナンタンカンゴセンモンガツコウ"
  },
  "0197": {
    "zip_code": "6290197",
    "prefecture": "京都府",
    "prefecture_kana": "キョウトフ",
    "prefecture_code": "26",
    "city": "南丹市",
    "city_kana": "ナンタンシ",
    "town": "八木町八木",
    "town_kana": "ヤギチョウヤギ",
    "street": "上野２５",
    "office_name": "公立　南丹病院",
    "office_name_kana": "コウリツ ナンタンビヨウイン"
  },
  "0198": {
    "zip_code": "6290198",
    "prefecture": "京都府",
    "prefecture_kana": "キョウトフ",
    "prefecture_code": "26",
    "city": "南丹市",
    "city_kana": "ナンタンシ",
    "town": "八木町八木",
    "town_kana": "ヤギチョウヤギ",
    "street": "東久保２９番地１",
    "office_name": "南丹市役所　八木支所",
    "office_name_kana": "ナンタンシヤクシヨ ヤギシシヨ"
  },
  "0271": {
    "zip_code": "6290271",
    "prefecture": "京都府",
    "prefecture_kana": "キョウトフ",
    "prefecture_code": "26",
    "city": "南丹市",
    "city_kana": "ナンタンシ",
    "town": "八木町神吉",
    "town_kana": "ヤギチョウカミヨシ",
    "street": null,
    "office_name": null,
    "office_name_kana": null
  },
  "0301": {
    "zip_code": "6290301",
    "prefecture": "京都府",
    "prefecture_kana": "キョウトフ",
    "prefecture_code": "26",
    "city": "南丹市",
    "city_kana": "ナンタンシ",
    "town": "日吉町保野田",
    "town_kana": "ヒヨシチョウホノダ",
    "street": null,
    "office_name": null,
    "office_name_kana": null
  },
  "0302": {
    "zip_code": "6290302",
    "prefecture": "京都府",
    "prefecture_kana": "キョウトフ",
    "prefecture_code": "26",
    "city": "南丹市",
    "city_kana": "ナンタンシ",
    "town": "日吉町志和賀",
    "town_kana": "ヒヨシチョウシワガ",
    "street": null,
    "office_name": null,
    "office_name_kana": null
  },
  "0311": {
    "zip_code": "6290311",
    "prefecture": "京都府",
    "prefecture_kana": "キョウトフ",
    "prefecture_code": "26",
    "city": "南丹市",
    "city_kana": "ナンタンシ",
    "town": "日吉町胡麻",
    "town_kana": "ヒヨシチョウゴマ",
    "street": null,
    "office_name": null,
    "office_name_kana": null
  },
  "0312": {
    "zip_code": "6290312",
    "prefecture": "京都府",
    "prefecture_kana": "キョウトフ",
    "prefecture_code": "26",
    "city": "南丹市",
    "city_kana": "ナンタンシ",
    "town": "日吉町上胡麻",
    "town_kana": "ヒヨシチョウカミゴマ",
    "street": null,
    "office_name": null,
    "office_name_kana": null
  },
  "0313": {
    "zip_code": "6290313",
    "prefecture": "京都府",
    "prefecture_kana": "キョウトフ",
    "prefecture_code": "26",
    "city": "南丹市",
    "city_kana": "ナンタンシ",
    "town": "日吉町畑郷",
    "town_kana": "ヒヨシチョウハタゴウ",
    "street": null,
    "office_name": null,
    "office_name_kana": null
  },
  "0321": {
    "zip_code": "6290321",
    "prefecture": "京都府",
    "prefecture_kana": "キョウトフ",
    "prefecture_code": "26",
    "city": "南丹市",
    "city_kana": "ナンタンシ",
    "town": "日吉町佐々江",
    "town_kana": "ヒヨシチョウササエ",
    "street": null,
    "office_name": null,
    "office_name_kana": null
  },
  "0322": {
    "zip_code": "6290322",
    "prefecture": "京都府",
    "prefecture_kana": "キョウトフ",
    "prefecture_code": "26",
    "city": "南丹市",
    "city_kana": "ナンタンシ",
    "town": "日吉町四ツ谷",
    "town_kana": "ヒヨシチョウヨツヤ",
    "street": null,
    "office_name": null,
    "office_name_kana": null
  },
  "0323": {
    "zip_code": "6290323",
    "prefecture": "京都府",
    "prefecture_kana": "キョウトフ",
    "prefecture_code": "26",
    "city": "南丹市",
    "city_kana": "ナンタンシ",
    "town": "日吉町田原",
    "town_kana": "ヒヨシチョウタワラ",
    "street": null,
    "office_name": null,
    "office_name_kana": null
  },
  "0331": {
    "zip_code": "6290331",
    "prefecture": "京都府",
    "prefecture_kana": "キョウトフ",
    "prefecture_code": "26",
    "city": "南丹市",
    "city_kana": "ナンタンシ",
    "town": "日吉町生畑",
    "town_kana": "ヒヨシチョウキハタ",
    "street": null,
    "office_name": null,
    "office_name_kana": null
  },
  "0332": {
    "zip_code": "6290332",
    "prefecture": "京都府",
    "prefecture_kana": "キョウトフ",
    "prefecture_code": "26",
    "city": "南丹市",
    "city_kana": "ナンタンシ",
    "town": "日吉町木住",
    "town_kana": "ヒヨシチョウコズミ",
    "street": null,
    "office_name": null,
    "office_name_kana": null
  },
  "0333": {
    "zip_code": "6290333",
    "prefecture": "京都府",
    "prefecture_kana": "キョウトフ",
    "prefecture_code": "26",
    "city": "南丹市",
    "city_kana": "ナンタンシ",
    "town": "日吉町中世木",
    "town_kana": "ヒヨシチョウナカセキ",
    "street": null,
    "office_name": null,
    "office_name_kana": null
  },
  "0334": {
    "zip_code": "6290334",
    "prefecture": "京都府",
    "prefecture_kana": "キョウトフ",
    "prefecture_code": "26",
    "city": "南丹市",
    "city_kana": "ナンタンシ",
    "town": "日吉町天若",
    "town_kana": "ヒヨシチョウアマワカ",
    "street": null,
    "office_name": null,
    "office_name_kana": null
  },
  "0335": {
    "zip_code": "6290335",
    "prefecture": "京都府",
    "prefecture_kana": "キョウトフ",
    "prefecture_code": "26",
    "city": "南丹市",
    "city_kana": "ナンタンシ",
    "town": "日吉町中",
    "town_kana": "ヒヨシチョウナカ",
    "street": null,
    "office_name": null,
    "office_name_kana": null
  },
  "0341": {
    "zip_code": "6290341",
    "prefecture": "京都府",
    "prefecture_kana": "キョウトフ",
    "prefecture_code": "26",
    "city": "南丹市",
    "city_kana": "ナンタンシ",
    "town": "日吉町殿田",
    "town_kana": "ヒヨシチョウトノダ",
    "street": null,
    "office_name": null,
    "office_name_kana": null
  },
  "0392": {
    "zip_code": "6290392",
    "prefecture": "京都府",
    "prefecture_kana": "キョウトフ",
    "prefecture_code": "26",
    "city": "南丹市",
    "city_kana": "ナンタンシ",
    "town": "日吉町保野田",
    "town_kana": "ヒヨシチョウホノダ",
    "street": "ヒノ谷６番地１",
    "office_name": "明治国際医療大学",
    "office_name_kana": "メイジコクサイイリヨウダイガク"
  },
  "0398": {
    "zip_code": "6290398",
    "prefecture": "京都府",
    "prefecture_kana": "キョウトフ",
    "prefecture_code": "26",
    "city": "南丹市",
    "city_kana": "ナンタンシ",
    "town": "日吉町保野田",
    "town_kana": "ヒヨシチョウホノダ",
    "street": "市野３番地１",
    "office_name": "南丹市役所　日吉支所",
    "office_name_kana": "ナンタンシヤクシヨ ヒヨシシシヨ"
  },
  "1101": {
    "zip_code": "6291101",
    "prefecture": "京都府",
    "prefecture_kana": "キョウトフ",
    "prefecture_code": "26",
    "city": "船井郡京丹波町",
    "city_kana": "フナイグンキョウタンバチョウ",
    "town": "仏主",
    "town_kana": "ホドス",
    "street": null,
    "office_name": null,
    "office_name_kana": null
  },
  "1102": {
    "zip_code": "6291102",
    "prefecture": "京都府",
    "prefecture_kana": "キョウトフ",
    "prefecture_code": "26",
    "city": "船井郡京丹波町",
    "city_kana": "フナイグンキョウタンバチョウ",
    "town": "上乙見",
    "town_kana": "カミオトミ",
    "street": null,
    "office_name": null,
    "office_name_kana": null
  },
  "1103": {
    "zip_code": "6291103",
    "prefecture": "京都府",
    "prefecture_kana": "キョウトフ",
    "prefecture_code": "26",
    "city": "船井郡京丹波町",
    "city_kana": "フナイグンキョウタンバチョウ",
    "town": "下乙見",
    "town_kana": "シモオトミ",
    "street": null,
    "office_name": null,
    "office_name_kana": null
  },
  "1104": {
    "zip_code": "6291104",
    "prefecture": "京都府",
    "prefecture_kana": "キョウトフ",
    "prefecture_code": "26",
    "city": "船井郡京丹波町",
    "city_kana": "フナイグンキョウタンバチョウ",
    "town": "篠原",
    "town_kana": "シノハラ",
    "street": null,
    "office_name": null,
    "office_name_kana": null
  },
  "1105": {
    "zip_code": "6291105",
    "prefecture": "京都府",
    "prefecture_kana": "キョウトフ",
    "prefecture_code": "26",
    "city": "船井郡京丹波町",
    "city_kana": "フナイグンキョウタンバチョウ",
    "town": "下粟野",
    "town_kana": "シモアワノ",
    "street": null,
    "office_name": null,
    "office_name_kana": null
  },
  "1106": {
    "zip_code": "6291106",
    "prefecture": "京都府",
    "prefecture_kana": "キョウトフ",
    "prefecture_code": "26",
    "city": "船井郡京丹波町",
    "city_kana": "フナイグンキョウタンバチョウ",
    "town": "細谷",
    "town_kana": "ホソタニ",
    "street": null,
    "office_name": null,
    "office_name_kana": null
  },
  "1107": {
    "zip_code": "6291107",
    "prefecture": "京都府",
    "prefecture_kana": "キョウトフ",
    "prefecture_code": "26",
    "city": "船井郡京丹波町",
    "city_kana": "フナイグンキョウタンバチョウ",
    "town": "西河内",
    "town_kana": "ニシカワウチ",
    "street": null,
    "office_name": null,
    "office_name_kana": null
  },
  "1108": {
    "zip_code": "6291108",
    "prefecture": "京都府",
    "prefecture_kana": "キョウトフ",
    "prefecture_code": "26",
    "city": "船井郡京丹波町",
    "city_kana": "フナイグンキョウタンバチョウ",
    "town": "上粟野",
    "town_kana": "カミアワノ",
    "street": null,
    "office_name": null,
    "office_name_kana": null
  },
  "1111": {
    "zip_code": "6291111",
    "prefecture": "京都府",
    "prefecture_kana": "キョウトフ",
    "prefecture_code": "26",
    "city": "船井郡京丹波町",
    "city_kana": "フナイグンキョウタンバチョウ",
    "town": "大迫",
    "town_kana": "オオサコ",
    "street": null,
    "office_name": null,
    "office_name_kana": null
  },
  "1112": {
    "zip_code": "6291112",
    "prefecture": "京都府",
    "prefecture_kana": "キョウトフ",
    "prefecture_code": "26",
    "city": "船井郡京丹波町",
    "city_kana": "フナイグンキョウタンバチョウ",
    "town": "塩谷",
    "town_kana": "シオタニ",
    "street": null,
    "office_name": null,
    "office_name_kana": null
  },
  "1113": {
    "zip_code": "6291113",
    "prefecture": "京都府",
    "prefecture_kana": "キョウトフ",
    "prefecture_code": "26",
    "city": "船井郡京丹波町",
    "city_kana": "フナイグンキョウタンバチョウ",
    "town": "長瀬",
    "town_kana": "ナガセ",
    "street": null,
    "office_name": null,
    "office_name_kana": null
  },
  "1114": {
    "zip_code": "6291114",
    "prefecture": "京都府",
    "prefecture_kana": "キョウトフ",
    "prefecture_code": "26",
    "city": "船井郡京丹波町",
    "city_kana": "フナイグンキョウタンバチョウ",
    "town": "升谷",
    "town_kana": "マスタニ",
    "street": null,
    "office_name": null,
    "office_name_kana": null
  },
  "1115": {
    "zip_code": "6291115",
    "prefecture": "京都府",
    "prefecture_kana": "キョウトフ",
    "prefecture_code": "26",
    "city": "船井郡京丹波町",
    "city_kana": "フナイグンキョウタンバチョウ",
    "town": "中山",
    "town_kana": "ナカヤマ",
    "street": null,
    "office_name": null,
    "office_name_kana": null
  },
  "1116": {
    "zip_code": "6291116",
    "prefecture": "京都府",
    "prefecture_kana": "キョウトフ",
    "prefecture_code": "26",
    "city": "船井郡京丹波町",
    "city_kana": "フナイグンキョウタンバチョウ",
    "town": "市場",
    "town_kana": "イチバ",
    "street": null,
    "office_name": null,
    "office_name_kana": null
  },
  "1117": {
    "zip_code": "6291117",
    "prefecture": "京都府",
    "prefecture_kana": "キョウトフ",
    "prefecture_code": "26",
    "city": "船井郡京丹波町",
    "city_kana": "フナイグンキョウタンバチョウ",
    "town": "大倉",
    "town_kana": "オオクラ",
    "street": null,
    "office_name": null,
    "office_name_kana": null
  },
  "1121": {
    "zip_code": "6291121",
    "prefecture": "京都府",
    "prefecture_kana": "キョウトフ",
    "prefecture_code": "26",
    "city": "船井郡京丹波町",
    "city_kana": "フナイグンキョウタンバチョウ",
    "town": "本庄",
    "town_kana": "ホンジョウ",
    "street": null,
    "office_name": null,
    "office_name_kana": null
  },
  "1122": {
    "zip_code": "6291122",
    "prefecture": "京都府",
    "prefecture_kana": "キョウトフ",
    "prefecture_code": "26",
    "city": "船井郡京丹波町",
    "city_kana": "フナイグンキョウタンバチョウ",
    "town": "小畑",
    "town_kana": "オバタ",
    "street": null,
    "office_name": null,
    "office_name_kana": null
  },
  "1131": {
    "zip_code": "6291131",
    "prefecture": "京都府",
    "prefecture_kana": "キョウトフ",
    "prefecture_code": "26",
    "city": "船井郡京丹波町",
    "city_kana": "フナイグンキョウタンバチョウ",
    "town": "坂原",
    "town_kana": "サカバラ",
    "street": null,
    "office_name": null,
    "office_name_kana": null
  },
  "1132": {
    "zip_code": "6291132",
    "prefecture": "京都府",
    "prefecture_kana": "キョウトフ",
    "prefecture_code": "26",
    "city": "船井郡京丹波町",
    "city_kana": "フナイグンキョウタンバチョウ",
    "town": "中",
    "town_kana": "ナカ",
    "street": null,
    "office_name": null,
    "office_name_kana": null
  },
  "1133": {
    "zip_code": "6291133",
    "prefecture": "京都府",
    "prefecture_kana": "キョウトフ",
    "prefecture_code": "26",
    "city": "船井郡京丹波町",
    "city_kana": "フナイグンキョウタンバチョウ",
    "town": "角",
    "town_kana": "カド",
    "street": null,
    "office_name": null,
    "office_name_kana": null
  },
  "1134": {
    "zip_code": "6291134",
    "prefecture": "京都府",
    "prefecture_kana": "キョウトフ",
    "prefecture_code": "26",
    "city": "船井郡京丹波町",
    "city_kana": "フナイグンキョウタンバチョウ",
    "town": "広瀬",
    "town_kana": "ヒロセ",
    "street": null,
    "office_name": null,
    "office_name_kana": null
  },
  "1135": {
    "zip_code": "6291135",
    "prefecture": "京都府",
    "prefecture_kana": "キョウトフ",
    "prefecture_code": "26",
    "city": "船井郡京丹波町",
    "city_kana": "フナイグンキョウタンバチョウ",
    "town": "才原",
    "town_kana": "サイバラ",
    "street": null,
    "office_name": null,
    "office_name_kana": null
  },
  "1141": {
    "zip_code": "6291141",
    "prefecture": "京都府",
    "prefecture_kana": "キョウトフ",
    "prefecture_code": "26",
    "city": "船井郡京丹波町",
    "city_kana": "フナイグンキョウタンバチョウ",
    "town": "安栖里",
    "town_kana": "アセリ",
    "street": null,
    "office_name": null,
    "office_name_kana": null
  },
  "1142": {
    "zip_code": "6291142",
    "prefecture": "京都府",
    "prefecture_kana": "キョウトフ",
    "prefecture_code": "26",
    "city": "船井郡京丹波町",
    "city_kana": "フナイグンキョウタンバチョウ",
    "town": "稲次",
    "town_kana": "イナツギ",
    "street": null,
    "office_name": null,
    "office_name_kana": null
  },
  "1143": {
    "zip_code": "6291143",
    "prefecture": "京都府",
    "prefecture_kana": "キョウトフ",
    "prefecture_code": "26",
    "city": "船井郡京丹波町",
    "city_kana": "フナイグンキョウタンバチョウ",
    "town": "出野",
    "town_kana": "イデノ",
    "street": null,
    "office_name": null,
    "office_name_kana": null
  },
  "1144": {
    "zip_code": "6291144",
    "prefecture": "京都府",
    "prefecture_kana": "キョウトフ",
    "prefecture_code": "26",
    "city": "船井郡京丹波町",
    "city_kana": "フナイグンキョウタンバチョウ",
    "town": "広野",
    "town_kana": "ヒロノ",
    "street": null,
    "office_name": null,
    "office_name_kana": null
  },
  "1145": {
    "zip_code": "6291145",
    "prefecture": "京都府",
    "prefecture_kana": "キョウトフ",
    "prefecture_code": "26",
    "city": "船井郡京丹波町",
    "city_kana": "フナイグンキョウタンバチョウ",
    "town": "大簾",
    "town_kana": "オオミス",
    "street": null,
    "office_name": null,
    "office_name_kana": null
  },
  "1192": {
    "zip_code": "6291192",
    "prefecture": "京都府",
    "prefecture_kana": "キョウトフ",
    "prefecture_code": "26",
    "city": "船井郡京丹波町",
    "city_kana": "フナイグンキョウタンバチョウ",
    "town": "本庄",
    "town_kana": "ホンジョウ",
    "street": "ウエ１６",
    "office_name": "京丹波町　和知支所",
    "office_name_kana": "キヨウタンバチヨウ ワチシシヨ"
  },
  "1241": {
    "zip_code": "6291241",
    "prefecture": "京都府",
    "prefecture_kana": "キョウトフ",
    "prefecture_code": "26",
    "city": "綾部市",
    "city_kana": "アヤベシ",
    "town": "井根町",
    "town_kana": "イネチョウ",
    "street": null,
    "office_name": null,
    "office_name_kana": null
  },
  "1242": {
    "zip_code": "6291242",
    "prefecture": "京都府",
    "prefecture_kana": "キョウトフ",
    "prefecture_code": "26",
    "city": "綾部市",
    "city_kana": "アヤベシ",
    "town": "十倉名畑町",
    "town_kana": "トクラナバタケチョウ",
    "street": null,
    "office_name": null,
    "office_name_kana": null
  },
  "1243": {
    "zip_code": "6291243",
    "prefecture": "京都府",
    "prefecture_kana": "キョウトフ",
    "prefecture_code": "26",
    "city": "綾部市",
    "city_kana": "アヤベシ",
    "town": "十倉向町",
    "town_kana": "トクラムカイチョウ",
    "street": null,
    "office_name": null,
    "office_name_kana": null
  },
  "1244": {
    "zip_code": "6291244",
    "prefecture": "京都府",
    "prefecture_kana": "キョウトフ",
    "prefecture_code": "26",
    "city": "綾部市",
    "city_kana": "アヤベシ",
    "town": "十倉中町",
    "town_kana": "トクラナカマチ",
    "street": null,
    "office_name": null,
    "office_name_kana": null
  },
  "1245": {
    "zip_code": "6291245",
    "prefecture": "京都府",
    "prefecture_kana": "キョウトフ",
    "prefecture_code": "26",
    "city": "綾部市",
    "city_kana": "アヤベシ",
    "town": "十倉志茂町",
    "town_kana": "トクラシモチョウ",
    "street": null,
    "office_name": null,
    "office_name_kana": null
  },
  "1251": {
    "zip_code": "6291251",
    "prefecture": "京都府",
    "prefecture_kana": "キョウトフ",
    "prefecture_code": "26",
    "city": "綾部市",
    "city_kana": "アヤベシ",
    "town": "忠町",
    "town_kana": "タダチョウ",
    "street": null,
    "office_name": null,
    "office_name_kana": null
  },
  "1252": {
    "zip_code": "6291252",
    "prefecture": "京都府",
    "prefecture_kana": "キョウトフ",
    "prefecture_code": "26",
    "city": "綾部市",
    "city_kana": "アヤベシ",
    "town": "佃町",
    "town_kana": "ツクダチョウ",
    "street": null,
    "office_name": null,
    "office_name_kana": null
  },
  "1253": {
    "zip_code": "6291253",
    "prefecture": "京都府",
    "prefecture_kana": "キョウトフ",
    "prefecture_code": "26",
    "city": "綾部市",
    "city_kana": "アヤベシ",
    "town": "武吉町",
    "town_kana": "タケヨシチョウ",
    "street": null,
    "office_name": null,
    "office_name_kana": null
  },
  "1254": {
    "zip_code": "6291254",
    "prefecture": "京都府",
    "prefecture_kana": "キョウトフ",
    "prefecture_code": "26",
    "city": "綾部市",
    "city_kana": "アヤベシ",
    "town": "釜輪町",
    "town_kana": "カマノワチョウ",
    "street": null,
    "office_name": null,
    "office_name_kana": null
  },
  "1255": {
    "zip_code": "6291255",
    "prefecture": "京都府",
    "prefecture_kana": "キョウトフ",
    "prefecture_code": "26",
    "city": "綾部市",
    "city_kana": "アヤベシ",
    "town": "戸奈瀬町",
    "town_kana": "トナセチョウ",
    "street": null,
    "office_name": null,
    "office_name_kana": null
  },
  "1256": {
    "zip_code": "6291256",
    "prefecture": "京都府",
    "prefecture_kana": "キョウトフ",
    "prefecture_code": "26",
    "city": "綾部市",
    "city_kana": "アヤベシ",
    "town": "広瀬町",
    "town_kana": "ヒロセチョウ",
    "street": null,
    "office_name": null,
    "office_name_kana": null
  },
  "1257": {
    "zip_code": "6291257",
    "prefecture": "京都府",
    "prefecture_kana": "キョウトフ",
    "prefecture_code": "26",
    "city": "綾部市",
    "city_kana": "アヤベシ",
    "town": "橋上町",
    "town_kana": "ハシカミチョウ",
    "street": null,
    "office_name": null,
    "office_name_kana": null
  },
  "1261": {
    "zip_code": "6291261",
    "prefecture": "京都府",
    "prefecture_kana": "キョウトフ",
    "prefecture_code": "26",
    "city": "綾部市",
    "city_kana": "アヤベシ",
    "town": "旭町",
    "town_kana": "アサヒチョウ",
    "street": null,
    "office_name": null,
    "office_name_kana": null
  },
  "1262": {
    "zip_code": "6291262",
    "prefecture": "京都府",
    "prefecture_kana": "キョウトフ",
    "prefecture_code": "26",
    "city": "綾部市",
    "city_kana": "アヤベシ",
    "town": "東山町",
    "town_kana": "ヒガシヤマチョウ",
    "street": null,
    "office_name": null,
    "office_name_kana": null
  },
  "1263": {
    "zip_code": "6291263",
    "prefecture": "京都府",
    "prefecture_kana": "キョウトフ",
    "prefecture_code": "26",
    "city": "綾部市",
    "city_kana": "アヤベシ",
    "town": "鷹栖町",
    "town_kana": "タカノスチョウ",
    "street": null,
    "office_name": null,
    "office_name_kana": null
  },
  "1264": {
    "zip_code": "6291264",
    "prefecture": "京都府",
    "prefecture_kana": "キョウトフ",
    "prefecture_code": "26",
    "city": "綾部市",
    "city_kana": "アヤベシ",
    "town": "西原町",
    "town_kana": "ニシバラチョウ",
    "street": null,
    "office_name": null,
    "office_name_kana": null
  },
  "1271": {
    "zip_code": "6291271",
    "prefecture": "京都府",
    "prefecture_kana": "キョウトフ",
    "prefecture_code": "26",
    "city": "綾部市",
    "city_kana": "アヤベシ",
    "town": "上原町",
    "town_kana": "カンバラチョウ",
    "street": null,
    "office_name": null,
    "office_name_kana": null
  },
  "1272": {
    "zip_code": "6291272",
    "prefecture": "京都府",
    "prefecture_kana": "キョウトフ",
    "prefecture_code": "26",
    "city": "綾部市",
    "city_kana": "アヤベシ",
    "town": "下替地町",
    "town_kana": "シタノカチチョウ",
    "street": null,
    "office_name": null,
    "office_name_kana": null
  },
  "1273": {
    "zip_code": "6291273",
    "prefecture": "京都府",
    "prefecture_kana": "キョウトフ",
    "prefecture_code": "26",
    "city": "綾部市",
    "city_kana": "アヤベシ",
    "town": "下原町",
    "town_kana": "シモバラチョウ",
    "street": null,
    "office_name": null,
    "office_name_kana": null
  },
  "1274": {
    "zip_code": "6291274",
    "prefecture": "京都府",
    "prefecture_kana": "キョウトフ",
    "prefecture_code": "26",
    "city": "綾部市",
    "city_kana": "アヤベシ",
    "town": "和木町",
    "town_kana": "ワギチョウ",
    "street": null,
    "office_name": null,
    "office_name_kana": null
  },
  "1301": {
    "zip_code": "6291301",
    "prefecture": "京都府",
    "prefecture_kana": "キョウトフ",
    "prefecture_code": "26",
    "city": "福知山市",
    "city_kana": "フクチヤマシ",
    "town": "夜久野町畑",
    "town_kana": "ヤクノチョウハタ",
    "street": null,
    "office_name": null,
    "office_name_kana": null
  },
  "1302": {
    "zip_code": "6291302",
    "prefecture": "京都府",
    "prefecture_kana": "キョウトフ",
    "prefecture_code": "26",
    "city": "福知山市",
    "city_kana": "フクチヤマシ",
    "town": "夜久野町今西中",
    "town_kana": "ヤクノチョウイマニシナカ",
    "street": null,
    "office_name": null,
    "office_name_kana": null
  },
  "1303": {
    "zip_code": "6291303",
    "prefecture": "京都府",
    "prefecture_kana": "キョウトフ",
    "prefecture_code": "26",
    "city": "福知山市",
    "city_kana": "フクチヤマシ",
    "town": "夜久野町井田",
    "town_kana": "ヤクノチョウイダ",
    "street": null,
    "office_name": null,
    "office_name_kana": null
  },
  "1304": {
    "zip_code": "6291304",
    "prefecture": "京都府",
    "prefecture_kana": "キョウトフ",
    "prefecture_code": "26",
    "city": "福知山市",
    "city_kana": "フクチヤマシ",
    "town": "夜久野町額田",
    "town_kana": "ヤクノチョウヌカタ",
    "street": null,
    "office_name": null,
    "office_name_kana": null
  },
  "1305": {
    "zip_code": "6291305",
    "prefecture": "京都府",
    "prefecture_kana": "キョウトフ",
    "prefecture_code": "26",
    "city": "福知山市",
    "city_kana": "フクチヤマシ",
    "town": "夜久野町千原",
    "town_kana": "ヤクノチョウチハラ",
    "street": null,
    "office_name": null,
    "office_name_kana": null
  },
  "1311": {
    "zip_code": "6291311",
    "prefecture": "京都府",
    "prefecture_kana": "キョウトフ",
    "prefecture_code": "26",
    "city": "福知山市",
    "city_kana": "フクチヤマシ",
    "town": "夜久野町日置",
    "town_kana": "ヤクノチョウヘキ",
    "street": null,
    "office_name": null,
    "office_name_kana": null
  },
  "1312": {
    "zip_code": "6291312",
    "prefecture": "京都府",
    "prefecture_kana": "キョウトフ",
    "prefecture_code": "26",
    "city": "福知山市",
    "city_kana": "フクチヤマシ",
    "town": "夜久野町末",
    "town_kana": "ヤクノチョウスエ",
    "street": null,
    "office_name": null,
    "office_name_kana": null
  },
  "1313": {
    "zip_code": "6291313",
    "prefecture": "京都府",
    "prefecture_kana": "キョウトフ",
    "prefecture_code": "26",
    "city": "福知山市",
    "city_kana": "フクチヤマシ",
    "town": "夜久野町高内",
    "town_kana": "ヤクノチョウタカウチ",
    "street": null,
    "office_name": null,
    "office_name_kana": null
  },
  "1314": {
    "zip_code": "6291314",
    "prefecture": "京都府",
    "prefecture_kana": "キョウトフ",
    "prefecture_code": "26",
    "city": "福知山市",
    "city_kana": "フクチヤマシ",
    "town": "夜久野町小倉",
    "town_kana": "ヤクノチョウオグラ",
    "street": null,
    "office_name": null,
    "office_name_kana": null
  },
  "1315": {
    "zip_code": "6291315",
    "prefecture": "京都府",
    "prefecture_kana": "キョウトフ",
    "prefecture_code": "26",
    "city": "福知山市",
    "city_kana": "フクチヤマシ",
    "town": "夜久野町大油子",
    "town_kana": "ヤクノチョウオユゴ",
    "street": null,
    "office_name": null,
    "office_name_kana": null
  },
  "1321": {
    "zip_code": "6291321",
    "prefecture": "京都府",
    "prefecture_kana": "キョウトフ",
    "prefecture_code": "26",
    "city": "福知山市",
    "city_kana": "フクチヤマシ",
    "town": "夜久野町直見",
    "town_kana": "ヤクノチョウナオミ",
    "street": null,
    "office_name": null,
    "office_name_kana": null
  },
  "1322": {
    "zip_code": "6291322",
    "prefecture": "京都府",
    "prefecture_kana": "キョウトフ",
    "prefecture_code": "26",
    "city": "福知山市",
    "city_kana": "フクチヤマシ",
    "town": "夜久野町平野",
    "town_kana": "ヤクノチョウヒラノ",
    "street": null,
    "office_name": null,
    "office_name_kana": null
  },
  "1323": {
    "zip_code": "6291323",
    "prefecture": "京都府",
    "prefecture_kana": "キョウトフ",
    "prefecture_code": "26",
    "city": "福知山市",
    "city_kana": "フクチヤマシ",
    "town": "夜久野町板生",
    "town_kana": "ヤクノチョウイトウ",
    "street": null,
    "office_name": null,
    "office_name_kana": null
  },
  "2200": {
    "zip_code": "6292200",
    "prefecture": "京都府",
    "prefecture_kana": "キョウトフ",
    "prefecture_code": "26",
    "city": "与謝郡与謝野町",
    "city_kana": "ヨサグンヨサノチョウ",
    "town": "",
    "town_kana": "",
    "street": null,
    "office_name": null,
    "office_name_kana": null
  },
  "2231": {
    "zip_code": "6292231",
    "prefecture": "京都府",
    "prefecture_kana": "キョウトフ",
    "prefecture_code": "26",
    "city": "宮津市",
    "city_kana": "ミヤヅシ",
    "town": "小松",
    "town_kana": "コマツ",
    "street": null,
    "office_name": null,
    "office_name_kana": null
  },
  "2232": {
    "zip_code": "6292232",
    "prefecture": "京都府",
    "prefecture_kana": "キョウトフ",
    "prefecture_code": "26",
    "city": "宮津市",
    "city_kana": "ミヤヅシ",
    "town": "中野",
    "town_kana": "ナカノ",
    "street": null,
    "office_name": null,
    "office_name_kana": null
  },
  "2233": {
    "zip_code": "6292233",
    "prefecture": "京都府",
    "prefecture_kana": "キョウトフ",
    "prefecture_code": "26",
    "city": "宮津市",
    "city_kana": "ミヤヅシ",
    "town": "溝尻",
    "town_kana": "ミゾシリ",
    "street": null,
    "office_name": null,
    "office_name_kana": null
  },
  "2234": {
    "zip_code": "6292234",
    "prefecture": "京都府",
    "prefecture_kana": "キョウトフ",
    "prefecture_code": "26",
    "city": "宮津市",
    "city_kana": "ミヤヅシ",
    "town": "国分",
    "town_kana": "コクブン",
    "street": null,
    "office_name": null,
    "office_name_kana": null
  },
  "2241": {
    "zip_code": "6292241",
    "prefecture": "京都府",
    "prefecture_kana": "キョウトフ",
    "prefecture_code": "26",
    "city": "宮津市",
    "city_kana": "ミヤヅシ",
    "town": "成相寺",
    "town_kana": "ナリアイジ",
    "street": null,
    "office_name": null,
    "office_name_kana": null
  },
  "2242": {
    "zip_code": "6292242",
    "prefecture": "京都府",
    "prefecture_kana": "キョウトフ",
    "prefecture_code": "26",
    "city": "宮津市",
    "city_kana": "ミヤヅシ",
    "town": "大垣",
    "town_kana": "オオガキ",
    "street": null,
    "office_name": null,
    "office_name_kana": null
  },
  "2243": {
    "zip_code": "6292243",
    "prefecture": "京都府",
    "prefecture_kana": "キョウトフ",
    "prefecture_code": "26",
    "city": "宮津市",
    "city_kana": "ミヤヅシ",
    "town": "難波野",
    "town_kana": "ナンバノ",
    "street": null,
    "office_name": null,
    "office_name_kana": null
  },
  "2244": {
    "zip_code": "6292244",
    "prefecture": "京都府",
    "prefecture_kana": "キョウトフ",
    "prefecture_code": "26",
    "city": "宮津市",
    "city_kana": "ミヤヅシ",
    "town": "江尻",
    "town_kana": "エジリ",
    "street": null,
    "office_name": null,
    "office_name_kana": null
  },
  "2251": {
    "zip_code": "6292251",
    "prefecture": "京都府",
    "prefecture_kana": "キョウトフ",
    "prefecture_code": "26",
    "city": "宮津市",
    "city_kana": "ミヤヅシ",
    "town": "須津",
    "town_kana": "スヅ",
    "street": null,
    "office_name": null,
    "office_name_kana": null
  },
  "2261": {
    "zip_code": "6292261",
    "prefecture": "京都府",
    "prefecture_kana": "キョウトフ",
    "prefecture_code": "26",
    "city": "与謝郡与謝野町",
    "city_kana": "ヨサグンヨサノチョウ",
    "town": "男山",
    "town_kana": "オトコヤマ",
    "street": null,
    "office_name": null,
    "office_name_kana": null
  },
  "2262": {
    "zip_code": "6292262",
    "prefecture": "京都府",
    "prefecture_kana": "キョウトフ",
    "prefecture_code": "26",
    "city": "与謝郡与謝野町",
    "city_kana": "ヨサグンヨサノチョウ",
    "town": "岩滝",
    "town_kana": "イワタキ",
    "street": null,
    "office_name": null,
    "office_name_kana": null
  },
  "2263": {
    "zip_code": "6292263",
    "prefecture": "京都府",
    "prefecture_kana": "キョウトフ",
    "prefecture_code": "26",
    "city": "与謝郡与謝野町",
    "city_kana": "ヨサグンヨサノチョウ",
    "town": "弓木",
    "town_kana": "ユミキ",
    "street": null,
    "office_name": null,
    "office_name_kana": null
  },
  "2292": {
    "zip_code": "6292292",
    "prefecture": "京都府",
    "prefecture_kana": null,
    "prefecture_code": null,
    "city": "与謝郡与謝野町",
    "city_kana": null,
    "town": "字岩滝",
    "town_kana": null,
    "street": "１７９８番地１",
    "office_name": "与謝野町役場",
    "office_name_kana": "ヨサノチヨウヤクバ"
  },
  "2301": {
    "zip_code": "6292301",
    "prefecture": "京都府",
    "prefecture_kana": "キョウトフ",
    "prefecture_code": "26",
    "city": "与謝郡与謝野町",
    "city_kana": "ヨサグンヨサノチョウ",
    "town": "上山田",
    "town_kana": "カミヤマダ",
    "street": null,
    "office_name": null,
    "office_name_kana": null
  },
  "2302": {
    "zip_code": "6292302",
    "prefecture": "京都府",
    "prefecture_kana": "キョウトフ",
    "prefecture_code": "26",
    "city": "与謝郡与謝野町",
    "city_kana": "ヨサグンヨサノチョウ",
    "town": "下山田",
    "town_kana": "シモヤマダ",
    "street": null,
    "office_name": null,
    "office_name_kana": null
  },
  "2303": {
    "zip_code": "6292303",
    "prefecture": "京都府",
    "prefecture_kana": "キョウトフ",
    "prefecture_code": "26",
    "city": "与謝郡与謝野町",
    "city_kana": "ヨサグンヨサノチョウ",
    "town": "石川",
    "town_kana": "イシカワ",
    "street": null,
    "office_name": null,
    "office_name_kana": null
  },
  "2311": {
    "zip_code": "6292311",
    "prefecture": "京都府",
    "prefecture_kana": "キョウトフ",
    "prefecture_code": "26",
    "city": "与謝郡与謝野町",
    "city_kana": "ヨサグンヨサノチョウ",
    "town": "幾地",
    "town_kana": "イクジ",
    "street": null,
    "office_name": null,
    "office_name_kana": null
  },
  "2312": {
    "zip_code": "6292312",
    "prefecture": "京都府",
    "prefecture_kana": "キョウトフ",
    "prefecture_code": "26",
    "city": "与謝郡与謝野町",
    "city_kana": "ヨサグンヨサノチョウ",
    "town": "四辻",
    "town_kana": "ヨツツジ",
    "street": null,
    "office_name": null,
    "office_name_kana": null
  },
  "2313": {
    "zip_code": "6292313",
    "prefecture": "京都府",
    "prefecture_kana": "キョウトフ",
    "prefecture_code": "26",
    "city": "与謝郡与謝野町",
    "city_kana": "ヨサグンヨサノチョウ",
    "town": "三河内",
    "town_kana": "ミゴウチ",
    "street": null,
    "office_name": null,
    "office_name_kana": null
  },
  "2314": {
    "zip_code": "6292314",
    "prefecture": "京都府",
    "prefecture_kana": "キョウトフ",
    "prefecture_code": "26",
    "city": "与謝郡与謝野町",
    "city_kana": "ヨサグンヨサノチョウ",
    "town": "岩屋",
    "town_kana": "イワヤ",
    "street": null,
    "office_name": null,
    "office_name_kana": null
  },
  "2401": {
    "zip_code": "6292401",
    "prefecture": "京都府",
    "prefecture_kana": "キョウトフ",
    "prefecture_code": "26",
    "city": "与謝郡与謝野町",
    "city_kana": "ヨサグンヨサノチョウ",
    "town": "加悦奥",
    "town_kana": "カヤオク",
    "street": null,
    "office_name": null,
    "office_name_kana": null
  },
  "2402": {
    "zip_code": "6292402",
    "prefecture": "京都府",
    "prefecture_kana": "キョウトフ",
    "prefecture_code": "26",
    "city": "与謝郡与謝野町",
    "city_kana": "ヨサグンヨサノチョウ",
    "town": "算所",
    "town_kana": "サンジョ",
    "street": null,
    "office_name": null,
    "office_name_kana": null
  },
  "2403": {
    "zip_code": "6292403",
    "prefecture": "京都府",
    "prefecture_kana": "キョウトフ",
    "prefecture_code": "26",
    "city": "与謝郡与謝野町",
    "city_kana": "ヨサグンヨサノチョウ",
    "town": "加悦",
    "town_kana": "カヤ",
    "street": null,
    "office_name": null,
    "office_name_kana": null
  },
  "2404": {
    "zip_code": "6292404",
    "prefecture": "京都府",
    "prefecture_kana": "キョウトフ",
    "prefecture_code": "26",
    "city": "与謝郡与謝野町",
    "city_kana": "ヨサグンヨサノチョウ",
    "town": "後野",
    "town_kana": "ウシロノ",
    "street": null,
    "office_name": null,
    "office_name_kana": null
  },
  "2411": {
    "zip_code": "6292411",
    "prefecture": "京都府",
    "prefecture_kana": "キョウトフ",
    "prefecture_code": "26",
    "city": "与謝郡与謝野町",
    "city_kana": "ヨサグンヨサノチョウ",
    "town": "明石",
    "town_kana": "アケシ",
    "street": null,
    "office_name": null,
    "office_name_kana": null
  },
  "2412": {
    "zip_code": "6292412",
    "prefecture": "京都府",
    "prefecture_kana": "キョウトフ",
    "prefecture_code": "26",
    "city": "与謝郡与謝野町",
    "city_kana": "ヨサグンヨサノチョウ",
    "town": "香河",
    "town_kana": "カゴ",
    "street": null,
    "office_name": null,
    "office_name_kana": null
  },
  "2413": {
    "zip_code": "6292413",
    "prefecture": "京都府",
    "prefecture_kana": "キョウトフ",
    "prefecture_code": "26",
    "city": "与謝郡与謝野町",
    "city_kana": "ヨサグンヨサノチョウ",
    "town": "温江",
    "town_kana": "アツエ",
    "street": null,
    "office_name": null,
    "office_name_kana": null
  },
  "2421": {
    "zip_code": "6292421",
    "prefecture": "京都府",
    "prefecture_kana": "キョウトフ",
    "prefecture_code": "26",
    "city": "与謝郡与謝野町",
    "city_kana": "ヨサグンヨサノチョウ",
    "town": "金屋",
    "town_kana": "カナヤ",
    "street": null,
    "office_name": null,
    "office_name_kana": null
  },
  "2422": {
    "zip_code": "6292422",
    "prefecture": "京都府",
    "prefecture_kana": "キョウトフ",
    "prefecture_code": "26",
    "city": "与謝郡与謝野町",
    "city_kana": "ヨサグンヨサノチョウ",
    "town": "滝",
    "town_kana": "タキ",
    "street": null,
    "office_name": null,
    "office_name_kana": null
  },
  "2423": {
    "zip_code": "6292423",
    "prefecture": "京都府",
    "prefecture_kana": "キョウトフ",
    "prefecture_code": "26",
    "city": "与謝郡与謝野町",
    "city_kana": "ヨサグンヨサノチョウ",
    "town": "与謝",
    "town_kana": "ヨザ",
    "street": null,
    "office_name": null,
    "office_name_kana": null
  },
  "2498": {
    "zip_code": "6292498",
    "prefecture": "京都府",
    "prefecture_kana": null,
    "prefecture_code": null,
    "city": "与謝郡与謝野町",
    "city_kana": null,
    "town": "字加悦",
    "town_kana": null,
    "street": "４３３番地",
    "office_name": "与謝野町　加悦庁舎",
    "office_name_kana": "ヨサノチヨウ カヤチヨウシヤ"
  },
  "2501": {
    "zip_code": "6292501",
    "prefecture": "京都府",
    "prefecture_kana": "キョウトフ",
    "prefecture_code": "26",
    "city": "京丹後市",
    "city_kana": "キョウタンゴシ",
    "town": "大宮町口大野",
    "town_kana": "オオミヤチョウクチオオノ",
    "street": null,
    "office_name": null,
    "office_name_kana": null
  },
  "2502": {
    "zip_code": "6292502",
    "prefecture": "京都府",
    "prefecture_kana": "キョウトフ",
    "prefecture_code": "26",
    "city": "京丹後市",
    "city_kana": "キョウタンゴシ",
    "town": "大宮町河辺",
    "town_kana": "オオミヤチョウコウベ",
    "street": null,
    "office_name": null,
    "office_name_kana": null
  },
  "2503": {
    "zip_code": "6292503",
    "prefecture": "京都府",
    "prefecture_kana": "キョウトフ",
    "prefecture_code": "26",
    "city": "京丹後市",
    "city_kana": "キョウタンゴシ",
    "town": "大宮町周枳",
    "town_kana": "オオミヤチョウスキ",
    "street": null,
    "office_name": null,
    "office_name_kana": null
  },
  "2504": {
    "zip_code": "6292504",
    "prefecture": "京都府",
    "prefecture_kana": "キョウトフ",
    "prefecture_code": "26",
    "city": "京丹後市",
    "city_kana": "キョウタンゴシ",
    "town": "大宮町善王寺",
    "town_kana": "オオミヤチョウゼンノウジ",
    "street": null,
    "office_name": null,
    "office_name_kana": null
  },
  "2511": {
    "zip_code": "6292511",
    "prefecture": "京都府",
    "prefecture_kana": "キョウトフ",
    "prefecture_code": "26",
    "city": "京丹後市",
    "city_kana": "キョウタンゴシ",
    "town": "大宮町久住",
    "town_kana": "オオミヤチョウクスミ",
    "street": null,
    "office_name": null,
    "office_name_kana": null
  },
  "2512": {
    "zip_code": "6292512",
    "prefecture": "京都府",
    "prefecture_kana": "キョウトフ",
    "prefecture_code": "26",
    "city": "京丹後市",
    "city_kana": "キョウタンゴシ",
    "town": "大宮町五十河",
    "town_kana": "オオミヤチョウイカガ",
    "street": null,
    "office_name": null,
    "office_name_kana": null
  },
  "2513": {
    "zip_code": "6292513",
    "prefecture": "京都府",
    "prefecture_kana": "キョウトフ",
    "prefecture_code": "26",
    "city": "京丹後市",
    "city_kana": "キョウタンゴシ",
    "town": "大宮町延利",
    "town_kana": "オオミヤチョウノブトシ",
    "street": null,
    "office_name": null,
    "office_name_kana": null
  },
  "2514": {
    "zip_code": "6292514",
    "prefecture": "京都府",
    "prefecture_kana": "キョウトフ",
    "prefecture_code": "26",
    "city": "京丹後市",
    "city_kana": "キョウタンゴシ",
    "town": "大宮町明田",
    "town_kana": "オオミヤチョウアケダ",
    "street": null,
    "office_name": null,
    "office_name_kana": null
  },
  "2515": {
    "zip_code": "6292515",
    "prefecture": "京都府",
    "prefecture_kana": "キョウトフ",
    "prefecture_code": "26",
    "city": "京丹後市",
    "city_kana": "キョウタンゴシ",
    "town": "大宮町新宮",
    "town_kana": "オオミヤチョウシングウ",
    "street": null,
    "office_name": null,
    "office_name_kana": null
  },
  "2521": {
    "zip_code": "6292521",
    "prefecture": "京都府",
    "prefecture_kana": "キョウトフ",
    "prefecture_code": "26",
    "city": "京丹後市",
    "city_kana": "キョウタンゴシ",
    "town": "大宮町森本",
    "town_kana": "オオミヤチョウモリモト",
    "street": null,
    "office_name": null,
    "office_name_kana": null
  },
  "2522": {
    "zip_code": "6292522",
    "prefecture": "京都府",
    "prefecture_kana": "キョウトフ",
    "prefecture_code": "26",
    "city": "京丹後市",
    "city_kana": "キョウタンゴシ",
    "town": "大宮町三重",
    "town_kana": "オオミヤチョウミエ",
    "street": null,
    "office_name": null,
    "office_name_kana": null
  },
  "2523": {
    "zip_code": "6292523",
    "prefecture": "京都府",
    "prefecture_kana": "キョウトフ",
    "prefecture_code": "26",
    "city": "京丹後市",
    "city_kana": "キョウタンゴシ",
    "town": "大宮町三坂",
    "town_kana": "オオミヤチョウミサカ",
    "street": null,
    "office_name": null,
    "office_name_kana": null
  },
  "2531": {
    "zip_code": "6292531",
    "prefecture": "京都府",
    "prefecture_kana": "キョウトフ",
    "prefecture_code": "26",
    "city": "京丹後市",
    "city_kana": "キョウタンゴシ",
    "town": "大宮町奥大野",
    "town_kana": "オオミヤチョウオクオオノ",
    "street": null,
    "office_name": null,
    "office_name_kana": null
  },
  "2532": {
    "zip_code": "6292532",
    "prefecture": "京都府",
    "prefecture_kana": "キョウトフ",
    "prefecture_code": "26",
    "city": "京丹後市",
    "city_kana": "キョウタンゴシ",
    "town": "大宮町谷内",
    "town_kana": "オオミヤチョウタニウチ",
    "street": null,
    "office_name": null,
    "office_name_kana": null
  },
  "2533": {
    "zip_code": "6292533",
    "prefecture": "京都府",
    "prefecture_kana": "キョウトフ",
    "prefecture_code": "26",
    "city": "京丹後市",
    "city_kana": "キョウタンゴシ",
    "town": "大宮町上常吉",
    "town_kana": "オオミヤチョウカミツネヨシ",
    "street": null,
    "office_name": null,
    "office_name_kana": null
  },
  "2534": {
    "zip_code": "6292534",
    "prefecture": "京都府",
    "prefecture_kana": "キョウトフ",
    "prefecture_code": "26",
    "city": "京丹後市",
    "city_kana": "キョウタンゴシ",
    "town": "大宮町下常吉",
    "town_kana": "オオミヤチョウシモツネヨシ",
    "street": null,
    "office_name": null,
    "office_name_kana": null
  },
  "3101": {
    "zip_code": "6293101",
    "prefecture": "京都府",
    "prefecture_kana": "キョウトフ",
    "prefecture_code": "26",
    "city": "京丹後市",
    "city_kana": "キョウタンゴシ",
    "town": "網野町網野",
    "town_kana": "アミノチョウアミノ",
    "street": null,
    "office_name": null,
    "office_name_kana": null
  },
  "3102": {
    "zip_code": "6293102",
    "prefecture": "京都府",
    "prefecture_kana": "キョウトフ",
    "prefecture_code": "26",
    "city": "京丹後市",
    "city_kana": "キョウタンゴシ",
    "town": "網野町下岡",
    "town_kana": "アミノチョウシモオカ",
    "street": null,
    "office_name": null,
    "office_name_kana": null
  },
  "3103": {
    "zip_code": "6293103",
    "prefecture": "京都府",
    "prefecture_kana": "キョウトフ",
    "prefecture_code": "26",
    "city": "京丹後市",
    "city_kana": "キョウタンゴシ",
    "town": "網野町磯",
    "town_kana": "アミノチョウイソ",
    "street": null,
    "office_name": null,
    "office_name_kana": null
  },
  "3104": {
    "zip_code": "6293104",
    "prefecture": "京都府",
    "prefecture_kana": "キョウトフ",
    "prefecture_code": "26",
    "city": "京丹後市",
    "city_kana": "キョウタンゴシ",
    "town": "網野町浅茂川",
    "town_kana": "アミノチョウアサモガワ",
    "street": null,
    "office_name": null,
    "office_name_kana": null
  },
  "3111": {
    "zip_code": "6293111",
    "prefecture": "京都府",
    "prefecture_kana": "キョウトフ",
    "prefecture_code": "26",
    "city": "京丹後市",
    "city_kana": "キョウタンゴシ",
    "town": "網野町三津",
    "town_kana": "アミノチョウミツ",
    "street": null,
    "office_name": null,
    "office_name_kana": null
  },
  "3112": {
    "zip_code": "6293112",
    "prefecture": "京都府",
    "prefecture_kana": "キョウトフ",
    "prefecture_code": "26",
    "city": "京丹後市",
    "city_kana": "キョウタンゴシ",
    "town": "網野町掛津",
    "town_kana": "アミノチョウカケヅ",
    "street": null,
    "office_name": null,
    "office_name_kana": null
  },
  "3113": {
    "zip_code": "6293113",
    "prefecture": "京都府",
    "prefecture_kana": "キョウトフ",
    "prefecture_code": "26",
    "city": "京丹後市",
    "city_kana": "キョウタンゴシ",
    "town": "網野町小浜",
    "town_kana": "アミノチョウコバマ",
    "street": null,
    "office_name": null,
    "office_name_kana": null
  },
  "3121": {
    "zip_code": "6293121",
    "prefecture": "京都府",
    "prefecture_kana": "キョウトフ",
    "prefecture_code": "26",
    "city": "京丹後市",
    "city_kana": "キョウタンゴシ",
    "town": "網野町島津",
    "town_kana": "アミノチョウシマヅ",
    "street": null,
    "office_name": null,
    "office_name_kana": null
  },
  "3122": {
    "zip_code": "6293122",
    "prefecture": "京都府",
    "prefecture_kana": "キョウトフ",
    "prefecture_code": "26",
    "city": "京丹後市",
    "city_kana": "キョウタンゴシ",
    "town": "網野町仲禅寺",
    "town_kana": "アミノチョウチュウゼンジ",
    "street": null,
    "office_name": null,
    "office_name_kana": null
  },
  "3131": {
    "zip_code": "6293131",
    "prefecture": "京都府",
    "prefecture_kana": "キョウトフ",
    "prefecture_code": "26",
    "city": "京丹後市",
    "city_kana": "キョウタンゴシ",
    "town": "網野町高橋",
    "town_kana": "アミノチョウタカハシ",
    "street": null,
    "office_name": null,
    "office_name_kana": null
  },
  "3132": {
    "zip_code": "6293132",
    "prefecture": "京都府",
    "prefecture_kana": "キョウトフ",
    "prefecture_code": "26",
    "city": "京丹後市",
    "city_kana": "キョウタンゴシ",
    "town": "網野町公庄",
    "town_kana": "アミノチョウグジョウ",
    "street": null,
    "office_name": null,
    "office_name_kana": null
  },
  "3133": {
    "zip_code": "6293133",
    "prefecture": "京都府",
    "prefecture_kana": "キョウトフ",
    "prefecture_code": "26",
    "city": "京丹後市",
    "city_kana": "キョウタンゴシ",
    "town": "網野町郷",
    "town_kana": "アミノチョウゴウ",
    "street": null,
    "office_name": null,
    "office_name_kana": null
  },
  "3134": {
    "zip_code": "6293134",
    "prefecture": "京都府",
    "prefecture_kana": "キョウトフ",
    "prefecture_code": "26",
    "city": "京丹後市",
    "city_kana": "キョウタンゴシ",
    "town": "網野町生野内",
    "town_kana": "アミノチョウイクノウチ",
    "street": null,
    "office_name": null,
    "office_name_kana": null
  },
  "3135": {
    "zip_code": "6293135",
    "prefecture": "京都府",
    "prefecture_kana": "キョウトフ",
    "prefecture_code": "26",
    "city": "京丹後市",
    "city_kana": "キョウタンゴシ",
    "town": "網野町切畑",
    "town_kana": "アミノチョウキリハタ",
    "street": null,
    "office_name": null,
    "office_name_kana": null
  },
  "3136": {
    "zip_code": "6293136",
    "prefecture": "京都府",
    "prefecture_kana": "キョウトフ",
    "prefecture_code": "26",
    "city": "京丹後市",
    "city_kana": "キョウタンゴシ",
    "town": "網野町新庄",
    "town_kana": "アミノチョウシンジョウ",
    "street": null,
    "office_name": null,
    "office_name_kana": null
  },
  "3241": {
    "zip_code": "6293241",
    "prefecture": "京都府",
    "prefecture_kana": "キョウトフ",
    "prefecture_code": "26",
    "city": "京丹後市",
    "city_kana": "キョウタンゴシ",
    "town": "網野町木津",
    "town_kana": "アミノチョウキツ",
    "street": null,
    "office_name": null,
    "office_name_kana": null
  },
  "3242": {
    "zip_code": "6293242",
    "prefecture": "京都府",
    "prefecture_kana": "キョウトフ",
    "prefecture_code": "26",
    "city": "京丹後市",
    "city_kana": "キョウタンゴシ",
    "town": "網野町日和田",
    "town_kana": "アミノチョウヒワダ",
    "street": null,
    "office_name": null,
    "office_name_kana": null
  },
  "3243": {
    "zip_code": "6293243",
    "prefecture": "京都府",
    "prefecture_kana": "キョウトフ",
    "prefecture_code": "26",
    "city": "京丹後市",
    "city_kana": "キョウタンゴシ",
    "town": "網野町溝野",
    "town_kana": "アミノチョウミゾノ",
    "street": null,
    "office_name": null,
    "office_name_kana": null
  },
  "3244": {
    "zip_code": "6293244",
    "prefecture": "京都府",
    "prefecture_kana": "キョウトフ",
    "prefecture_code": "26",
    "city": "京丹後市",
    "city_kana": "キョウタンゴシ",
    "town": "網野町俵野",
    "town_kana": "アミノチョウタワラノ",
    "street": null,
    "office_name": null,
    "office_name_kana": null
  },
  "3245": {
    "zip_code": "6293245",
    "prefecture": "京都府",
    "prefecture_kana": "キョウトフ",
    "prefecture_code": "26",
    "city": "京丹後市",
    "city_kana": "キョウタンゴシ",
    "town": "網野町浜詰",
    "town_kana": "アミノチョウハマヅメ",
    "street": null,
    "office_name": null,
    "office_name_kana": null
  },
  "3246": {
    "zip_code": "6293246",
    "prefecture": "京都府",
    "prefecture_kana": "キョウトフ",
    "prefecture_code": "26",
    "city": "京丹後市",
    "city_kana": "キョウタンゴシ",
    "town": "網野町塩江",
    "town_kana": "アミノチョウシオエ",
    "street": null,
    "office_name": null,
    "office_name_kana": null
  },
  "3401": {
    "zip_code": "6293401",
    "prefecture": "京都府",
    "prefecture_kana": "キョウトフ",
    "prefecture_code": "26",
    "city": "京丹後市",
    "city_kana": "キョウタンゴシ",
    "town": "久美浜町十楽",
    "town_kana": "クミハマチョウジュウラク",
    "street": null,
    "office_name": null,
    "office_name_kana": null
  },
  "3402": {
    "zip_code": "6293402",
    "prefecture": "京都府",
    "prefecture_kana": "キョウトフ",
    "prefecture_code": "26",
    "city": "京丹後市",
    "city_kana": "キョウタンゴシ",
    "town": "久美浜町仲町",
    "town_kana": "クミハマチョウナカマチ",
    "street": null,
    "office_name": null,
    "office_name_kana": null
  },
  "3403": {
    "zip_code": "6293403",
    "prefecture": "京都府",
    "prefecture_kana": "キョウトフ",
    "prefecture_code": "26",
    "city": "京丹後市",
    "city_kana": "キョウタンゴシ",
    "town": "久美浜町向町",
    "town_kana": "クミハマチョウムコウマチ",
    "street": null,
    "office_name": null,
    "office_name_kana": null
  },
  "3404": {
    "zip_code": "6293404",
    "prefecture": "京都府",
    "prefecture_kana": "キョウトフ",
    "prefecture_code": "26",
    "city": "京丹後市",
    "city_kana": "キョウタンゴシ",
    "town": "久美浜町土居",
    "town_kana": "クミハマチョウドイ",
    "street": null,
    "office_name": null,
    "office_name_kana": null
  },
  "3405": {
    "zip_code": "6293405",
    "prefecture": "京都府",
    "prefecture_kana": "キョウトフ",
    "prefecture_code": "26",
    "city": "京丹後市",
    "city_kana": "キョウタンゴシ",
    "town": "久美浜町栄町",
    "town_kana": "クミハマチョウサカエマチ",
    "street": null,
    "office_name": null,
    "office_name_kana": null
  },
  "3406": {
    "zip_code": "6293406",
    "prefecture": "京都府",
    "prefecture_kana": "キョウトフ",
    "prefecture_code": "26",
    "city": "京丹後市",
    "city_kana": "キョウタンゴシ",
    "town": "久美浜町東本町",
    "town_kana": "クミハマチョウヒガシホンマチ",
    "street": null,
    "office_name": null,
    "office_name_kana": null
  },
  "3407": {
    "zip_code": "6293407",
    "prefecture": "京都府",
    "prefecture_kana": "キョウトフ",
    "prefecture_code": "26",
    "city": "京丹後市",
    "city_kana": "キョウタンゴシ",
    "town": "久美浜町新橋",
    "town_kana": "クミハマチョウシンバシ",
    "street": null,
    "office_name": null,
    "office_name_kana": null
  },
  "3408": {
    "zip_code": "6293408",
    "prefecture": "京都府",
    "prefecture_kana": "キョウトフ",
    "prefecture_code": "26",
    "city": "京丹後市",
    "city_kana": "キョウタンゴシ",
    "town": "久美浜町新町",
    "town_kana": "クミハマチョウシンマチ",
    "street": null,
    "office_name": null,
    "office_name_kana": null
  },
  "3409": {
    "zip_code": "6293409",
    "prefecture": "京都府",
    "prefecture_kana": "キョウトフ",
    "prefecture_code": "26",
    "city": "京丹後市",
    "city_kana": "キョウタンゴシ",
    "town": "久美浜町西本町",
    "town_kana": "クミハマチョウニシホンマチ",
    "street": null,
    "office_name": null,
    "office_name_kana": null
  },
  "3410": {
    "zip_code": "6293410",
    "prefecture": "京都府",
    "prefecture_kana": "キョウトフ",
    "prefecture_code": "26",
    "city": "京丹後市",
    "city_kana": "キョウタンゴシ",
    "town": "久美浜町",
    "town_kana": "クミハマチョウ",
    "street": null,
    "office_name": null,
    "office_name_kana": null
  },
  "3411": [
    {
      "zip_code": "6293411",
      "prefecture": "京都府",
      "prefecture_kana": "キョウトフ",
      "prefecture_code": "26",
      "city": "京丹後市",
      "city_kana": "キョウタンゴシ",
      "town": "久美浜町甲坂",
      "town_kana": "クミハマチョウコウサカ",
      "street": null,
      "office_name": null,
      "office_name_kana": null
    },
    {
      "zip_code": "6293411",
      "prefecture": "京都府",
      "prefecture_kana": "キョウトフ",
      "prefecture_code": "26",
      "city": "京丹後市",
      "city_kana": "キョウタンゴシ",
      "town": "久美浜町栃谷",
      "town_kana": "クミハマチョウトチダニ",
      "street": null,
      "office_name": null,
      "office_name_kana": null
    }
  ],
  "3412": [
    {
      "zip_code": "6293412",
      "prefecture": "京都府",
      "prefecture_kana": "キョウトフ",
      "prefecture_code": "26",
      "city": "京丹後市",
      "city_kana": "キョウタンゴシ",
      "town": "久美浜町奥三谷",
      "town_kana": "クミハマチョウオクミタニ",
      "street": null,
      "office_name": null,
      "office_name_kana": null
    },
    {
      "zip_code": "6293412",
      "prefecture": "京都府",
      "prefecture_kana": "キョウトフ",
      "prefecture_code": "26",
      "city": "京丹後市",
      "city_kana": "キョウタンゴシ",
      "town": "久美浜町口三谷",
      "town_kana": "クミハマチョウクチミタニ",
      "street": null,
      "office_name": null,
      "office_name_kana": null
    },
    {
      "zip_code": "6293412",
      "prefecture": "京都府",
      "prefecture_kana": "キョウトフ",
      "prefecture_code": "26",
      "city": "京丹後市",
      "city_kana": "キョウタンゴシ",
      "town": "久美浜町三谷",
      "town_kana": "クミハマチョウミタニ",
      "street": null,
      "office_name": null,
      "office_name_kana": null
    }
  ],
  "3413": {
    "zip_code": "6293413",
    "prefecture": "京都府",
    "prefecture_kana": "キョウトフ",
    "prefecture_code": "26",
    "city": "京丹後市",
    "city_kana": "キョウタンゴシ",
    "town": "久美浜町口馬地",
    "town_kana": "クミハマチョウクチマジ",
    "street": null,
    "office_name": null,
    "office_name_kana": null
  },
  "3414": {
    "zip_code": "6293414",
    "prefecture": "京都府",
    "prefecture_kana": "キョウトフ",
    "prefecture_code": "26",
    "city": "京丹後市",
    "city_kana": "キョウタンゴシ",
    "town": "久美浜町奥馬地",
    "town_kana": "クミハマチョウオクマジ",
    "street": null,
    "office_name": null,
    "office_name_kana": null
  },
  "3415": {
    "zip_code": "6293415",
    "prefecture": "京都府",
    "prefecture_kana": "キョウトフ",
    "prefecture_code": "26",
    "city": "京丹後市",
    "city_kana": "キョウタンゴシ",
    "town": "久美浜町河梨",
    "town_kana": "クミハマチョウコウナシ",
    "street": null,
    "office_name": null,
    "office_name_kana": null
  },
  "3416": {
    "zip_code": "6293416",
    "prefecture": "京都府",
    "prefecture_kana": "キョウトフ",
    "prefecture_code": "26",
    "city": "京丹後市",
    "city_kana": "キョウタンゴシ",
    "town": "久美浜町神谷",
    "town_kana": "クミハマチョウカンダニ",
    "street": null,
    "office_name": null,
    "office_name_kana": null
  },
  "3421": {
    "zip_code": "6293421",
    "prefecture": "京都府",
    "prefecture_kana": "キョウトフ",
    "prefecture_code": "26",
    "city": "京丹後市",
    "city_kana": "キョウタンゴシ",
    "town": "久美浜町葛野",
    "town_kana": "クミハマチョウカヅラノ",
    "street": null,
    "office_name": null,
    "office_name_kana": null
  },
  "3422": [
    {
      "zip_code": "6293422",
      "prefecture": "京都府",
      "prefecture_kana": "キョウトフ",
      "prefecture_code": "26",
      "city": "京丹後市",
      "city_kana": "キョウタンゴシ",
      "town": "久美浜町河内",
      "town_kana": "クミハマチョウカッチ",
      "street": null,
      "office_name": null,
      "office_name_kana": null
    },
    {
      "zip_code": "6293422",
      "prefecture": "京都府",
      "prefecture_kana": "キョウトフ",
      "prefecture_code": "26",
      "city": "京丹後市",
      "city_kana": "キョウタンゴシ",
      "town": "久美浜町箱石",
      "town_kana": "クミハマチョウハコイシ",
      "street": null,
      "office_name": null,
      "office_name_kana": null
    },
    {
      "zip_code": "6293422",
      "prefecture": "京都府",
      "prefecture_kana": "キョウトフ",
      "prefecture_code": "26",
      "city": "京丹後市",
      "city_kana": "キョウタンゴシ",
      "town": "久美浜町湊宮",
      "town_kana": "クミハマチョウミナトミヤ",
      "street": null,
      "office_name": null,
      "office_name_kana": null
    }
  ],
  "3423": {
    "zip_code": "6293423",
    "prefecture": "京都府",
    "prefecture_kana": "キョウトフ",
    "prefecture_code": "26",
    "city": "京丹後市",
    "city_kana": "キョウタンゴシ",
    "town": "久美浜町大向",
    "town_kana": "クミハマチョウオオムカイ",
    "street": null,
    "office_name": null,
    "office_name_kana": null
  },
  "3424": [
    {
      "zip_code": "6293424",
      "prefecture": "京都府",
      "prefecture_kana": "キョウトフ",
      "prefecture_code": "26",
      "city": "京丹後市",
      "city_kana": "キョウタンゴシ",
      "town": "久美浜町旭",
      "town_kana": "クミハマチョウアサヒ",
      "street": null,
      "office_name": null,
      "office_name_kana": null
    },
    {
      "zip_code": "6293424",
      "prefecture": "京都府",
      "prefecture_kana": "キョウトフ",
      "prefecture_code": "26",
      "city": "京丹後市",
      "city_kana": "キョウタンゴシ",
      "town": "久美浜町蒲井",
      "town_kana": "クミハマチョウカマイ",
      "street": null,
      "office_name": null,
      "office_name_kana": null
    }
  ],
  "3431": {
    "zip_code": "6293431",
    "prefecture": "京都府",
    "prefecture_kana": "キョウトフ",
    "prefecture_code": "26",
    "city": "京丹後市",
    "city_kana": "キョウタンゴシ",
    "town": "久美浜町鹿野",
    "town_kana": "クミハマチョウカノ",
    "street": null,
    "office_name": null,
    "office_name_kana": null
  },
  "3432": {
    "zip_code": "6293432",
    "prefecture": "京都府",
    "prefecture_kana": "キョウトフ",
    "prefecture_code": "26",
    "city": "京丹後市",
    "city_kana": "キョウタンゴシ",
    "town": "久美浜町平田",
    "town_kana": "クミハマチョウヒラタ",
    "street": null,
    "office_name": null,
    "office_name_kana": null
  },
  "3433": {
    "zip_code": "6293433",
    "prefecture": "京都府",
    "prefecture_kana": "キョウトフ",
    "prefecture_code": "26",
    "city": "京丹後市",
    "city_kana": "キョウタンゴシ",
    "town": "久美浜町三分",
    "town_kana": "クミハマチョウサンブ",
    "street": null,
    "office_name": null,
    "office_name_kana": null
  },
  "3434": {
    "zip_code": "6293434",
    "prefecture": "京都府",
    "prefecture_kana": "キョウトフ",
    "prefecture_code": "26",
    "city": "京丹後市",
    "city_kana": "キョウタンゴシ",
    "town": "久美浜町三原",
    "town_kana": "クミハマチョウミハラ",
    "street": null,
    "office_name": null,
    "office_name_kana": null
  },
  "3435": {
    "zip_code": "6293435",
    "prefecture": "京都府",
    "prefecture_kana": "キョウトフ",
    "prefecture_code": "26",
    "city": "京丹後市",
    "city_kana": "キョウタンゴシ",
    "town": "久美浜町壱分",
    "town_kana": "クミハマチョウイチブ",
    "street": null,
    "office_name": null,
    "office_name_kana": null
  },
  "3436": {
    "zip_code": "6293436",
    "prefecture": "京都府",
    "prefecture_kana": "キョウトフ",
    "prefecture_code": "26",
    "city": "京丹後市",
    "city_kana": "キョウタンゴシ",
    "town": "久美浜町大井",
    "town_kana": "クミハマチョウオオイ",
    "street": null,
    "office_name": null,
    "office_name_kana": null
  },
  "3437": {
    "zip_code": "6293437",
    "prefecture": "京都府",
    "prefecture_kana": "キョウトフ",
    "prefecture_code": "26",
    "city": "京丹後市",
    "city_kana": "キョウタンゴシ",
    "town": "久美浜町関",
    "town_kana": "クミハマチョウセキ",
    "street": null,
    "office_name": null,
    "office_name_kana": null
  },
  "3438": [
    {
      "zip_code": "6293438",
      "prefecture": "京都府",
      "prefecture_kana": "キョウトフ",
      "prefecture_code": "26",
      "city": "京丹後市",
      "city_kana": "キョウタンゴシ",
      "town": "久美浜町浦明",
      "town_kana": "クミハマチョウウラケ",
      "street": null,
      "office_name": null,
      "office_name_kana": null
    },
    {
      "zip_code": "6293438",
      "prefecture": "京都府",
      "prefecture_kana": "キョウトフ",
      "prefecture_code": "26",
      "city": "京丹後市",
      "city_kana": "キョウタンゴシ",
      "town": "久美浜町長柄",
      "town_kana": "クミハマチョウナガラ",
      "street": null,
      "office_name": null,
      "office_name_kana": null
    }
  ],
  "3441": {
    "zip_code": "6293441",
    "prefecture": "京都府",
    "prefecture_kana": "キョウトフ",
    "prefecture_code": "26",
    "city": "京丹後市",
    "city_kana": "キョウタンゴシ",
    "town": "久美浜町神崎",
    "town_kana": "クミハマチョウカンザキ",
    "street": null,
    "office_name": null,
    "office_name_kana": null
  },
  "3442": {
    "zip_code": "6293442",
    "prefecture": "京都府",
    "prefecture_kana": "キョウトフ",
    "prefecture_code": "26",
    "city": "京丹後市",
    "city_kana": "キョウタンゴシ",
    "town": "久美浜町甲山",
    "town_kana": "クミハマチョウコウヤマ",
    "street": null,
    "office_name": null,
    "office_name_kana": null
  },
  "3443": {
    "zip_code": "6293443",
    "prefecture": "京都府",
    "prefecture_kana": "キョウトフ",
    "prefecture_code": "26",
    "city": "京丹後市",
    "city_kana": "キョウタンゴシ",
    "town": "久美浜町海士",
    "town_kana": "クミハマチョウアマ",
    "street": null,
    "office_name": null,
    "office_name_kana": null
  },
  "3444": [
    {
      "zip_code": "6293444",
      "prefecture": "京都府",
      "prefecture_kana": "キョウトフ",
      "prefecture_code": "26",
      "city": "京丹後市",
      "city_kana": "キョウタンゴシ",
      "town": "久美浜町西橋爪",
      "town_kana": "クミハマチョウニシハシヅメ",
      "street": null,
      "office_name": null,
      "office_name_kana": null
    },
    {
      "zip_code": "6293444",
      "prefecture": "京都府",
      "prefecture_kana": "キョウトフ",
      "prefecture_code": "26",
      "city": "京丹後市",
      "city_kana": "キョウタンゴシ",
      "town": "久美浜町橋爪",
      "town_kana": "クミハマチョウハシヅメ",
      "street": null,
      "office_name": null,
      "office_name_kana": null
    }
  ],
  "3445": {
    "zip_code": "6293445",
    "prefecture": "京都府",
    "prefecture_kana": "キョウトフ",
    "prefecture_code": "26",
    "city": "京丹後市",
    "city_kana": "キョウタンゴシ",
    "town": "久美浜町島",
    "town_kana": "クミハマチョウシマ",
    "street": null,
    "office_name": null,
    "office_name_kana": null
  },
  "3446": {
    "zip_code": "6293446",
    "prefecture": "京都府",
    "prefecture_kana": "キョウトフ",
    "prefecture_code": "26",
    "city": "京丹後市",
    "city_kana": "キョウタンゴシ",
    "town": "久美浜町品田",
    "town_kana": "クミハマチョウホンデ",
    "street": null,
    "office_name": null,
    "office_name_kana": null
  },
  "3447": {
    "zip_code": "6293447",
    "prefecture": "京都府",
    "prefecture_kana": "キョウトフ",
    "prefecture_code": "26",
    "city": "京丹後市",
    "city_kana": "キョウタンゴシ",
    "town": "久美浜町友重",
    "town_kana": "クミハマチョウトモシゲ",
    "street": null,
    "office_name": null,
    "office_name_kana": null
  },
  "3448": {
    "zip_code": "6293448",
    "prefecture": "京都府",
    "prefecture_kana": "キョウトフ",
    "prefecture_code": "26",
    "city": "京丹後市",
    "city_kana": "キョウタンゴシ",
    "town": "久美浜町坂井",
    "town_kana": "クミハマチョウサカイ",
    "street": null,
    "office_name": null,
    "office_name_kana": null
  },
  "3449": {
    "zip_code": "6293449",
    "prefecture": "京都府",
    "prefecture_kana": "キョウトフ",
    "prefecture_code": "26",
    "city": "京丹後市",
    "city_kana": "キョウタンゴシ",
    "town": "久美浜町油池",
    "town_kana": "クミハマチョウユイケ",
    "street": null,
    "office_name": null,
    "office_name_kana": null
  },
  "3551": {
    "zip_code": "6293551",
    "prefecture": "京都府",
    "prefecture_kana": "キョウトフ",
    "prefecture_code": "26",
    "city": "京丹後市",
    "city_kana": "キョウタンゴシ",
    "town": "久美浜町永留",
    "town_kana": "クミハマチョウナガドメ",
    "street": null,
    "office_name": null,
    "office_name_kana": null
  },
  "3552": {
    "zip_code": "6293552",
    "prefecture": "京都府",
    "prefecture_kana": "キョウトフ",
    "prefecture_code": "26",
    "city": "京丹後市",
    "city_kana": "キョウタンゴシ",
    "town": "久美浜町女布",
    "town_kana": "クミハマチョウニョウ",
    "street": null,
    "office_name": null,
    "office_name_kana": null
  },
  "3553": {
    "zip_code": "6293553",
    "prefecture": "京都府",
    "prefecture_kana": "キョウトフ",
    "prefecture_code": "26",
    "city": "京丹後市",
    "city_kana": "キョウタンゴシ",
    "town": "久美浜町長野",
    "town_kana": "クミハマチョウナガノ",
    "street": null,
    "office_name": null,
    "office_name_kana": null
  },
  "3554": {
    "zip_code": "6293554",
    "prefecture": "京都府",
    "prefecture_kana": "キョウトフ",
    "prefecture_code": "26",
    "city": "京丹後市",
    "city_kana": "キョウタンゴシ",
    "town": "久美浜町坂谷",
    "town_kana": "クミハマチョウサカダニ",
    "street": null,
    "office_name": null,
    "office_name_kana": null
  },
  "3555": {
    "zip_code": "6293555",
    "prefecture": "京都府",
    "prefecture_kana": "キョウトフ",
    "prefecture_code": "26",
    "city": "京丹後市",
    "city_kana": "キョウタンゴシ",
    "town": "久美浜町円頓寺",
    "town_kana": "クミハマチョウエンドンジ",
    "street": null,
    "office_name": null,
    "office_name_kana": null
  },
  "3556": {
    "zip_code": "6293556",
    "prefecture": "京都府",
    "prefecture_kana": "キョウトフ",
    "prefecture_code": "26",
    "city": "京丹後市",
    "city_kana": "キョウタンゴシ",
    "town": "久美浜町郷",
    "town_kana": "クミハマチョウゴウ",
    "street": null,
    "office_name": null,
    "office_name_kana": null
  },
  "3557": {
    "zip_code": "6293557",
    "prefecture": "京都府",
    "prefecture_kana": "キョウトフ",
    "prefecture_code": "26",
    "city": "京丹後市",
    "city_kana": "キョウタンゴシ",
    "town": "久美浜町竹藤",
    "town_kana": "クミハマチョウタケフジ",
    "street": null,
    "office_name": null,
    "office_name_kana": null
  },
  "3558": {
    "zip_code": "6293558",
    "prefecture": "京都府",
    "prefecture_kana": "キョウトフ",
    "prefecture_code": "26",
    "city": "京丹後市",
    "city_kana": "キョウタンゴシ",
    "town": "久美浜町丸山",
    "town_kana": "クミハマチョウマルヤマ",
    "street": null,
    "office_name": null,
    "office_name_kana": null
  },
  "3559": {
    "zip_code": "6293559",
    "prefecture": "京都府",
    "prefecture_kana": "キョウトフ",
    "prefecture_code": "26",
    "city": "京丹後市",
    "city_kana": "キョウタンゴシ",
    "town": "久美浜町谷",
    "town_kana": "クミハマチョウタニ",
    "street": null,
    "office_name": null,
    "office_name_kana": null
  },
  "3561": {
    "zip_code": "6293561",
    "prefecture": "京都府",
    "prefecture_kana": "キョウトフ",
    "prefecture_code": "26",
    "city": "京丹後市",
    "city_kana": "キョウタンゴシ",
    "town": "久美浜町野中",
    "town_kana": "クミハマチョウノナカ",
    "street": null,
    "office_name": null,
    "office_name_kana": null
  },
  "3562": {
    "zip_code": "6293562",
    "prefecture": "京都府",
    "prefecture_kana": "キョウトフ",
    "prefecture_code": "26",
    "city": "京丹後市",
    "city_kana": "キョウタンゴシ",
    "town": "久美浜町佐野",
    "town_kana": "クミハマチョウサノ",
    "street": null,
    "office_name": null,
    "office_name_kana": null
  },
  "3563": {
    "zip_code": "6293563",
    "prefecture": "京都府",
    "prefecture_kana": "キョウトフ",
    "prefecture_code": "26",
    "city": "京丹後市",
    "city_kana": "キョウタンゴシ",
    "town": "久美浜町二俣",
    "town_kana": "クミハマチョウフタマタ",
    "street": null,
    "office_name": null,
    "office_name_kana": null
  },
  "3564": {
    "zip_code": "6293564",
    "prefecture": "京都府",
    "prefecture_kana": "キョウトフ",
    "prefecture_code": "26",
    "city": "京丹後市",
    "city_kana": "キョウタンゴシ",
    "town": "久美浜町尉ケ畑",
    "town_kana": "クミハマチョウジョウガハタ",
    "street": null,
    "office_name": null,
    "office_name_kana": null
  },
  "3565": {
    "zip_code": "6293565",
    "prefecture": "京都府",
    "prefecture_kana": "キョウトフ",
    "prefecture_code": "26",
    "city": "京丹後市",
    "city_kana": "キョウタンゴシ",
    "town": "久美浜町小桑",
    "town_kana": "クミハマチョウコグワ",
    "street": null,
    "office_name": null,
    "office_name_kana": null
  },
  "3566": {
    "zip_code": "6293566",
    "prefecture": "京都府",
    "prefecture_kana": "キョウトフ",
    "prefecture_code": "26",
    "city": "京丹後市",
    "city_kana": "キョウタンゴシ",
    "town": "久美浜町安養寺",
    "town_kana": "クミハマチョウアンヨウジ",
    "street": null,
    "office_name": null,
    "office_name_kana": null
  },
  "3570": {
    "zip_code": "6293570",
    "prefecture": "京都府",
    "prefecture_kana": "キョウトフ",
    "prefecture_code": "26",
    "city": "京丹後市",
    "city_kana": "キョウタンゴシ",
    "town": "久美浜町新庄",
    "town_kana": "クミハマチョウシンジョウ",
    "street": null,
    "office_name": null,
    "office_name_kana": null
  },
  "3571": {
    "zip_code": "6293571",
    "prefecture": "京都府",
    "prefecture_kana": "キョウトフ",
    "prefecture_code": "26",
    "city": "京丹後市",
    "city_kana": "キョウタンゴシ",
    "town": "久美浜町芦原",
    "town_kana": "クミハマチョウアシワラ",
    "street": null,
    "office_name": null,
    "office_name_kana": null
  },
  "3572": {
    "zip_code": "6293572",
    "prefecture": "京都府",
    "prefecture_kana": "キョウトフ",
    "prefecture_code": "26",
    "city": "京丹後市",
    "city_kana": "キョウタンゴシ",
    "town": "久美浜町新谷",
    "town_kana": "クミハマチョウニイダニ",
    "street": null,
    "office_name": null,
    "office_name_kana": null
  },
  "3573": {
    "zip_code": "6293573",
    "prefecture": "京都府",
    "prefecture_kana": "キョウトフ",
    "prefecture_code": "26",
    "city": "京丹後市",
    "city_kana": "キョウタンゴシ",
    "town": "久美浜町出角",
    "town_kana": "クミハマチョウイズスミ",
    "street": null,
    "office_name": null,
    "office_name_kana": null
  },
  "3574": {
    "zip_code": "6293574",
    "prefecture": "京都府",
    "prefecture_kana": "キョウトフ",
    "prefecture_code": "26",
    "city": "京丹後市",
    "city_kana": "キョウタンゴシ",
    "town": "久美浜町市場",
    "town_kana": "クミハマチョウイチバ",
    "street": null,
    "office_name": null,
    "office_name_kana": null
  },
  "3575": {
    "zip_code": "6293575",
    "prefecture": "京都府",
    "prefecture_kana": "キョウトフ",
    "prefecture_code": "26",
    "city": "京丹後市",
    "city_kana": "キョウタンゴシ",
    "town": "久美浜町金谷",
    "town_kana": "クミハマチョウカナヤ",
    "street": null,
    "office_name": null,
    "office_name_kana": null
  },
  "3576": {
    "zip_code": "6293576",
    "prefecture": "京都府",
    "prefecture_kana": "キョウトフ",
    "prefecture_code": "26",
    "city": "京丹後市",
    "city_kana": "キョウタンゴシ",
    "town": "久美浜町市野々",
    "town_kana": "クミハマチョウイチノノ",
    "street": null,
    "office_name": null,
    "office_name_kana": null
  },
  "3577": {
    "zip_code": "6293577",
    "prefecture": "京都府",
    "prefecture_kana": "キョウトフ",
    "prefecture_code": "26",
    "city": "京丹後市",
    "city_kana": "キョウタンゴシ",
    "town": "久美浜町布袋野",
    "town_kana": "クミハマチョウホタイノ",
    "street": null,
    "office_name": null,
    "office_name_kana": null
  },
  "3578": {
    "zip_code": "6293578",
    "prefecture": "京都府",
    "prefecture_kana": "キョウトフ",
    "prefecture_code": "26",
    "city": "京丹後市",
    "city_kana": "キョウタンゴシ",
    "town": "久美浜町畑",
    "town_kana": "クミハマチョウハタ",
    "street": null,
    "office_name": null,
    "office_name_kana": null
  },
  "3579": {
    "zip_code": "6293579",
    "prefecture": "京都府",
    "prefecture_kana": "キョウトフ",
    "prefecture_code": "26",
    "city": "京丹後市",
    "city_kana": "キョウタンゴシ",
    "town": "久美浜町須田",
    "town_kana": "クミハマチョウスダ",
    "street": null,
    "office_name": null,
    "office_name_kana": null
  }
}