{
  "0000": {
    "zip_code": "6330000",
    "prefecture": "奈良県",
    "prefecture_kana": "ナラケン",
    "prefecture_code": "29",
    "city": "桜井市",
    "city_kana": "サクライシ",
    "town": "",
    "town_kana": "",
    "street": null,
    "office_name": null,
    "office_name_kana": null
  },
  "0001": {
    "zip_code": "6330001",
    "prefecture": "奈良県",
    "prefecture_kana": "ナラケン",
    "prefecture_code": "29",
    "city": "桜井市",
    "city_kana": "サクライシ",
    "town": "三輪",
    "town_kana": "ミワ",
    "street": null,
    "office_name": null,
    "office_name_kana": null
  },
  "0002": {
    "zip_code": "6330002",
    "prefecture": "奈良県",
    "prefecture_kana": "ナラケン",
    "prefecture_code": "29",
    "city": "桜井市",
    "city_kana": "サクライシ",
    "town": "金屋",
    "town_kana": "カナヤ",
    "street": null,
    "office_name": null,
    "office_name_kana": null
  },
  "0003": {
    "zip_code": "6330003",
    "prefecture": "奈良県",
    "prefecture_kana": "ナラケン",
    "prefecture_code": "29",
    "city": "桜井市",
    "city_kana": "サクライシ",
    "town": "朝倉台東",
    "town_kana": "アサクラダイヒガシ",
    "street": null,
    "office_name": null,
    "office_name_kana": null
  },
  "0004": {
    "zip_code": "6330004",
    "prefecture": "奈良県",
    "prefecture_kana": "ナラケン",
    "prefecture_code": "29",
    "city": "桜井市",
    "city_kana": "サクライシ",
    "town": "朝倉台西",
    "town_kana": "アサクラダイニシ",
    "street": null,
    "office_name": null,
    "office_name_kana": null
  },
  "0005": {
    "zip_code": "6330005",
    "prefecture": "奈良県",
    "prefecture_kana": "ナラケン",
    "prefecture_code": "29",
    "city": "桜井市",
    "city_kana": "サクライシ",
    "town": "忍阪",
    "town_kana": "オッサカ",
    "street": null,
    "office_name": null,
    "office_name_kana": null
  },
  "0006": {
    "zip_code": "6330006",
    "prefecture": "奈良県",
    "prefecture_kana": "ナラケン",
    "prefecture_code": "29",
    "city": "桜井市",
    "city_kana": "サクライシ",
    "town": "赤尾",
    "town_kana": "アカオ",
    "street": null,
    "office_name": null,
    "office_name_kana": null
  },
  "0007": {
    "zip_code": "6330007",
    "prefecture": "奈良県",
    "prefecture_kana": "ナラケン",
    "prefecture_code": "29",
    "city": "桜井市",
    "city_kana": "サクライシ",
    "town": "外山",
    "town_kana": "トビ",
    "street": null,
    "office_name": null,
    "office_name_kana": null
  },
  "0011": {
    "zip_code": "6330011",
    "prefecture": "奈良県",
    "prefecture_kana": "ナラケン",
    "prefecture_code": "29",
    "city": "桜井市",
    "city_kana": "サクライシ",
    "town": "黒崎",
    "town_kana": "クロザキ",
    "street": null,
    "office_name": null,
    "office_name_kana": null
  },
  "0012": {
    "zip_code": "6330012",
    "prefecture": "奈良県",
    "prefecture_kana": "ナラケン",
    "prefecture_code": "29",
    "city": "桜井市",
    "city_kana": "サクライシ",
    "town": "狛",
    "town_kana": "コマ",
    "street": null,
    "office_name": null,
    "office_name_kana": null
  },
  "0013": {
    "zip_code": "6330013",
    "prefecture": "奈良県",
    "prefecture_kana": "ナラケン",
    "prefecture_code": "29",
    "city": "桜井市",
    "city_kana": "サクライシ",
    "town": "岩坂",
    "town_kana": "イワサカ",
    "street": null,
    "office_name": null,
    "office_name_kana": null
  },
  "0014": {
    "zip_code": "6330014",
    "prefecture": "奈良県",
    "prefecture_kana": "ナラケン",
    "prefecture_code": "29",
    "city": "桜井市",
    "city_kana": "サクライシ",
    "town": "粟原",
    "town_kana": "オオバラ",
    "street": null,
    "office_name": null,
    "office_name_kana": null
  },
  "0015": {
    "zip_code": "6330015",
    "prefecture": "奈良県",
    "prefecture_kana": "ナラケン",
    "prefecture_code": "29",
    "city": "桜井市",
    "city_kana": "サクライシ",
    "town": "下り尾",
    "town_kana": "サガリオ",
    "street": null,
    "office_name": null,
    "office_name_kana": null
  },
  "0016": {
    "zip_code": "6330016",
    "prefecture": "奈良県",
    "prefecture_kana": "ナラケン",
    "prefecture_code": "29",
    "city": "桜井市",
    "city_kana": "サクライシ",
    "town": "竜谷",
    "town_kana": "リュウタニ",
    "street": null,
    "office_name": null,
    "office_name_kana": null
  },
  "0017": {
    "zip_code": "6330017",
    "prefecture": "奈良県",
    "prefecture_kana": "ナラケン",
    "prefecture_code": "29",
    "city": "桜井市",
    "city_kana": "サクライシ",
    "town": "慈恩寺",
    "town_kana": "ジオンジ",
    "street": null,
    "office_name": null,
    "office_name_kana": null
  },
  "0018": {
    "zip_code": "6330018",
    "prefecture": "奈良県",
    "prefecture_kana": "ナラケン",
    "prefecture_code": "29",
    "city": "桜井市",
    "city_kana": "サクライシ",
    "town": "脇本",
    "town_kana": "ワキモト",
    "street": null,
    "office_name": null,
    "office_name_kana": null
  },
  "0021": {
    "zip_code": "6330021",
    "prefecture": "奈良県",
    "prefecture_kana": "ナラケン",
    "prefecture_code": "29",
    "city": "桜井市",
    "city_kana": "サクライシ",
    "town": "倉橋",
    "town_kana": "クラハシ",
    "street": null,
    "office_name": null,
    "office_name_kana": null
  },
  "0022": {
    "zip_code": "6330022",
    "prefecture": "奈良県",
    "prefecture_kana": "ナラケン",
    "prefecture_code": "29",
    "city": "桜井市",
    "city_kana": "サクライシ",
    "town": "北音羽",
    "town_kana": "キタオトワ",
    "street": null,
    "office_name": null,
    "office_name_kana": null
  },
  "0023": {
    "zip_code": "6330023",
    "prefecture": "奈良県",
    "prefecture_kana": "ナラケン",
    "prefecture_code": "29",
    "city": "桜井市",
    "city_kana": "サクライシ",
    "town": "南音羽",
    "town_kana": "ミナミオトワ",
    "street": null,
    "office_name": null,
    "office_name_kana": null
  },
  "0024": {
    "zip_code": "6330024",
    "prefecture": "奈良県",
    "prefecture_kana": "ナラケン",
    "prefecture_code": "29",
    "city": "桜井市",
    "city_kana": "サクライシ",
    "town": "針道",
    "town_kana": "ハリミチ",
    "street": null,
    "office_name": null,
    "office_name_kana": null
  },
  "0025": {
    "zip_code": "6330025",
    "prefecture": "奈良県",
    "prefecture_kana": "ナラケン",
    "prefecture_code": "29",
    "city": "桜井市",
    "city_kana": "サクライシ",
    "town": "八井内",
    "town_kana": "ヤイナイ",
    "street": null,
    "office_name": null,
    "office_name_kana": null
  },
  "0026": {
    "zip_code": "6330026",
    "prefecture": "奈良県",
    "prefecture_kana": "ナラケン",
    "prefecture_code": "29",
    "city": "桜井市",
    "city_kana": "サクライシ",
    "town": "飯盛塚",
    "town_kana": "イイモリヅカ",
    "street": null,
    "office_name": null,
    "office_name_kana": null
  },
  "0027": {
    "zip_code": "6330027",
    "prefecture": "奈良県",
    "prefecture_kana": "ナラケン",
    "prefecture_code": "29",
    "city": "桜井市",
    "city_kana": "サクライシ",
    "town": "鹿路",
    "town_kana": "ロクロ",
    "street": null,
    "office_name": null,
    "office_name_kana": null
  },
  "0028": {
    "zip_code": "6330028",
    "prefecture": "奈良県",
    "prefecture_kana": "ナラケン",
    "prefecture_code": "29",
    "city": "桜井市",
    "city_kana": "サクライシ",
    "town": "百市",
    "town_kana": "モモノイチ",
    "street": null,
    "office_name": null,
    "office_name_kana": null
  },
  "0031": {
    "zip_code": "6330031",
    "prefecture": "奈良県",
    "prefecture_kana": "ナラケン",
    "prefecture_code": "29",
    "city": "桜井市",
    "city_kana": "サクライシ",
    "town": "下居",
    "town_kana": "オリイ",
    "street": null,
    "office_name": null,
    "office_name_kana": null
  },
  "0032": {
    "zip_code": "6330032",
    "prefecture": "奈良県",
    "prefecture_kana": "ナラケン",
    "prefecture_code": "29",
    "city": "桜井市",
    "city_kana": "サクライシ",
    "town": "多武峰",
    "town_kana": "トウノミネ",
    "street": null,
    "office_name": null,
    "office_name_kana": null
  },
  "0033": {
    "zip_code": "6330033",
    "prefecture": "奈良県",
    "prefecture_kana": "ナラケン",
    "prefecture_code": "29",
    "city": "桜井市",
    "city_kana": "サクライシ",
    "town": "西口",
    "town_kana": "ニシグチ",
    "street": null,
    "office_name": null,
    "office_name_kana": null
  },
  "0034": {
    "zip_code": "6330034",
    "prefecture": "奈良県",
    "prefecture_kana": "ナラケン",
    "prefecture_code": "29",
    "city": "桜井市",
    "city_kana": "サクライシ",
    "town": "北山",
    "town_kana": "キタヤマ",
    "street": null,
    "office_name": null,
    "office_name_kana": null
  },
  "0035": {
    "zip_code": "6330035",
    "prefecture": "奈良県",
    "prefecture_kana": "ナラケン",
    "prefecture_code": "29",
    "city": "桜井市",
    "city_kana": "サクライシ",
    "town": "今井谷",
    "town_kana": "イマイダニ",
    "street": null,
    "office_name": null,
    "office_name_kana": null
  },
  "0036": {
    "zip_code": "6330036",
    "prefecture": "奈良県",
    "prefecture_kana": "ナラケン",
    "prefecture_code": "29",
    "city": "桜井市",
    "city_kana": "サクライシ",
    "town": "横柿",
    "town_kana": "ヨコガキ",
    "street": null,
    "office_name": null,
    "office_name_kana": null
  },
  "0041": {
    "zip_code": "6330041",
    "prefecture": "奈良県",
    "prefecture_kana": "ナラケン",
    "prefecture_code": "29",
    "city": "桜井市",
    "city_kana": "サクライシ",
    "town": "上之宮",
    "town_kana": "ウエノミヤ",
    "street": null,
    "office_name": null,
    "office_name_kana": null
  },
  "0042": {
    "zip_code": "6330042",
    "prefecture": "奈良県",
    "prefecture_kana": "ナラケン",
    "prefecture_code": "29",
    "city": "桜井市",
    "city_kana": "サクライシ",
    "town": "下",
    "town_kana": "シモ",
    "street": null,
    "office_name": null,
    "office_name_kana": null
  },
  "0043": {
    "zip_code": "6330043",
    "prefecture": "奈良県",
    "prefecture_kana": "ナラケン",
    "prefecture_code": "29",
    "city": "桜井市",
    "city_kana": "サクライシ",
    "town": "高田",
    "town_kana": "タカタ",
    "street": null,
    "office_name": null,
    "office_name_kana": null
  },
  "0044": {
    "zip_code": "6330044",
    "prefecture": "奈良県",
    "prefecture_kana": "ナラケン",
    "prefecture_code": "29",
    "city": "桜井市",
    "city_kana": "サクライシ",
    "town": "高家",
    "town_kana": "タイエ",
    "street": null,
    "office_name": null,
    "office_name_kana": null
  },
  "0045": {
    "zip_code": "6330045",
    "prefecture": "奈良県",
    "prefecture_kana": "ナラケン",
    "prefecture_code": "29",
    "city": "桜井市",
    "city_kana": "サクライシ",
    "town": "山田",
    "town_kana": "ヤマダ",
    "street": null,
    "office_name": null,
    "office_name_kana": null
  },
  "0046": {
    "zip_code": "6330046",
    "prefecture": "奈良県",
    "prefecture_kana": "ナラケン",
    "prefecture_code": "29",
    "city": "桜井市",
    "city_kana": "サクライシ",
    "town": "池之内",
    "town_kana": "イケノウチ",
    "street": null,
    "office_name": null,
    "office_name_kana": null
  },
  "0047": {
    "zip_code": "6330047",
    "prefecture": "奈良県",
    "prefecture_kana": "ナラケン",
    "prefecture_code": "29",
    "city": "桜井市",
    "city_kana": "サクライシ",
    "town": "橋本",
    "town_kana": "ハシモト",
    "street": null,
    "office_name": null,
    "office_name_kana": null
  },
  "0048": {
    "zip_code": "6330048",
    "prefecture": "奈良県",
    "prefecture_kana": "ナラケン",
    "prefecture_code": "29",
    "city": "桜井市",
    "city_kana": "サクライシ",
    "town": "生田",
    "town_kana": "オイダ",
    "street": null,
    "office_name": null,
    "office_name_kana": null
  },
  "0051": {
    "zip_code": "6330051",
    "prefecture": "奈良県",
    "prefecture_kana": "ナラケン",
    "prefecture_code": "29",
    "city": "桜井市",
    "city_kana": "サクライシ",
    "town": "河西",
    "town_kana": "カワニシ",
    "street": null,
    "office_name": null,
    "office_name_kana": null
  },
  "0052": {
    "zip_code": "6330052",
    "prefecture": "奈良県",
    "prefecture_kana": "ナラケン",
    "prefecture_code": "29",
    "city": "桜井市",
    "city_kana": "サクライシ",
    "town": "浅古",
    "town_kana": "アサゴ",
    "street": null,
    "office_name": null,
    "office_name_kana": null
  },
  "0053": {
    "zip_code": "6330053",
    "prefecture": "奈良県",
    "prefecture_kana": "ナラケン",
    "prefecture_code": "29",
    "city": "桜井市",
    "city_kana": "サクライシ",
    "town": "谷",
    "town_kana": "タニ",
    "street": null,
    "office_name": null,
    "office_name_kana": null
  },
  "0054": {
    "zip_code": "6330054",
    "prefecture": "奈良県",
    "prefecture_kana": "ナラケン",
    "prefecture_code": "29",
    "city": "桜井市",
    "city_kana": "サクライシ",
    "town": "阿部",
    "town_kana": "アベ",
    "street": null,
    "office_name": null,
    "office_name_kana": null
  },
  "0055": {
    "zip_code": "6330055",
    "prefecture": "奈良県",
    "prefecture_kana": "ナラケン",
    "prefecture_code": "29",
    "city": "桜井市",
    "city_kana": "サクライシ",
    "town": "安倍木材団地",
    "town_kana": "アベモクザイダンチ",
    "street": null,
    "office_name": null,
    "office_name_kana": null
  },
  "0061": {
    "zip_code": "6330061",
    "prefecture": "奈良県",
    "prefecture_kana": "ナラケン",
    "prefecture_code": "29",
    "city": "桜井市",
    "city_kana": "サクライシ",
    "town": "上之庄",
    "town_kana": "カミノショウ",
    "street": null,
    "office_name": null,
    "office_name_kana": null
  },
  "0062": {
    "zip_code": "6330062",
    "prefecture": "奈良県",
    "prefecture_kana": "ナラケン",
    "prefecture_code": "29",
    "city": "桜井市",
    "city_kana": "サクライシ",
    "town": "粟殿",
    "town_kana": "オオドノ",
    "street": null,
    "office_name": null,
    "office_name_kana": null
  },
  "0063": {
    "zip_code": "6330063",
    "prefecture": "奈良県",
    "prefecture_kana": "ナラケン",
    "prefecture_code": "29",
    "city": "桜井市",
    "city_kana": "サクライシ",
    "town": "川合",
    "town_kana": "カワイ",
    "street": null,
    "office_name": null,
    "office_name_kana": null
  },
  "0064": {
    "zip_code": "6330064",
    "prefecture": "奈良県",
    "prefecture_kana": "ナラケン",
    "prefecture_code": "29",
    "city": "桜井市",
    "city_kana": "サクライシ",
    "town": "戒重",
    "town_kana": "カイジュウ",
    "street": null,
    "office_name": null,
    "office_name_kana": null
  },
  "0065": {
    "zip_code": "6330065",
    "prefecture": "奈良県",
    "prefecture_kana": "ナラケン",
    "prefecture_code": "29",
    "city": "桜井市",
    "city_kana": "サクライシ",
    "town": "吉備",
    "town_kana": "キビ",
    "street": null,
    "office_name": null,
    "office_name_kana": null
  },
  "0066": {
    "zip_code": "6330066",
    "prefecture": "奈良県",
    "prefecture_kana": "ナラケン",
    "prefecture_code": "29",
    "city": "桜井市",
    "city_kana": "サクライシ",
    "town": "西之宮",
    "town_kana": "ニシノミヤ",
    "street": null,
    "office_name": null,
    "office_name_kana": null
  },
  "0067": {
    "zip_code": "6330067",
    "prefecture": "奈良県",
    "prefecture_kana": "ナラケン",
    "prefecture_code": "29",
    "city": "桜井市",
    "city_kana": "サクライシ",
    "town": "大福",
    "town_kana": "ダイフク",
    "street": null,
    "office_name": null,
    "office_name_kana": null
  },
  "0068": {
    "zip_code": "6330068",
    "prefecture": "奈良県",
    "prefecture_kana": "ナラケン",
    "prefecture_code": "29",
    "city": "桜井市",
    "city_kana": "サクライシ",
    "town": "東新堂",
    "town_kana": "ヒガシシンドウ",
    "street": null,
    "office_name": null,
    "office_name_kana": null
  },
  "0071": {
    "zip_code": "6330071",
    "prefecture": "奈良県",
    "prefecture_kana": "ナラケン",
    "prefecture_code": "29",
    "city": "桜井市",
    "city_kana": "サクライシ",
    "town": "穴師",
    "town_kana": "アナシ",
    "street": null,
    "office_name": null,
    "office_name_kana": null
  },
  "0072": {
    "zip_code": "6330072",
    "prefecture": "奈良県",
    "prefecture_kana": "ナラケン",
    "prefecture_code": "29",
    "city": "桜井市",
    "city_kana": "サクライシ",
    "town": "箸中",
    "town_kana": "ハシナカ",
    "street": null,
    "office_name": null,
    "office_name_kana": null
  },
  "0073": {
    "zip_code": "6330073",
    "prefecture": "奈良県",
    "prefecture_kana": "ナラケン",
    "prefecture_code": "29",
    "city": "桜井市",
    "city_kana": "サクライシ",
    "town": "茅原",
    "town_kana": "チワラ",
    "street": null,
    "office_name": null,
    "office_name_kana": null
  },
  "0074": {
    "zip_code": "6330074",
    "prefecture": "奈良県",
    "prefecture_kana": "ナラケン",
    "prefecture_code": "29",
    "city": "桜井市",
    "city_kana": "サクライシ",
    "town": "芝",
    "town_kana": "シバ",
    "street": null,
    "office_name": null,
    "office_name_kana": null
  },
  "0075": {
    "zip_code": "6330075",
    "prefecture": "奈良県",
    "prefecture_kana": "ナラケン",
    "prefecture_code": "29",
    "city": "桜井市",
    "city_kana": "サクライシ",
    "town": "新屋敷",
    "town_kana": "シンヤシキ",
    "street": null,
    "office_name": null,
    "office_name_kana": null
  },
  "0076": {
    "zip_code": "6330076",
    "prefecture": "奈良県",
    "prefecture_kana": "ナラケン",
    "prefecture_code": "29",
    "city": "桜井市",
    "city_kana": "サクライシ",
    "town": "大泉",
    "town_kana": "オイズミ",
    "street": null,
    "office_name": null,
    "office_name_kana": null
  },
  "0077": {
    "zip_code": "6330077",
    "prefecture": "奈良県",
    "prefecture_kana": "ナラケン",
    "prefecture_code": "29",
    "city": "桜井市",
    "city_kana": "サクライシ",
    "town": "大西",
    "town_kana": "オオニシ",
    "street": null,
    "office_name": null,
    "office_name_kana": null
  },
  "0078": {
    "zip_code": "6330078",
    "prefecture": "奈良県",
    "prefecture_kana": "ナラケン",
    "prefecture_code": "29",
    "city": "桜井市",
    "city_kana": "サクライシ",
    "town": "豊前",
    "town_kana": "ブンゼ",
    "street": null,
    "office_name": null,
    "office_name_kana": null
  },
  "0079": {
    "zip_code": "6330079",
    "prefecture": "奈良県",
    "prefecture_kana": "ナラケン",
    "prefecture_code": "29",
    "city": "桜井市",
    "city_kana": "サクライシ",
    "town": "豊田",
    "town_kana": "トヨダ",
    "street": null,
    "office_name": null,
    "office_name_kana": null
  },
  "0081": {
    "zip_code": "6330081",
    "prefecture": "奈良県",
    "prefecture_kana": "ナラケン",
    "prefecture_code": "29",
    "city": "桜井市",
    "city_kana": "サクライシ",
    "town": "草川",
    "town_kana": "クサカワ",
    "street": null,
    "office_name": null,
    "office_name_kana": null
  },
  "0082": {
    "zip_code": "6330082",
    "prefecture": "奈良県",
    "prefecture_kana": "ナラケン",
    "prefecture_code": "29",
    "city": "桜井市",
    "city_kana": "サクライシ",
    "town": "巻野内",
    "town_kana": "マキノウチ",
    "street": null,
    "office_name": null,
    "office_name_kana": null
  },
  "0083": {
    "zip_code": "6330083",
    "prefecture": "奈良県",
    "prefecture_kana": "ナラケン",
    "prefecture_code": "29",
    "city": "桜井市",
    "city_kana": "サクライシ",
    "town": "辻",
    "town_kana": "ツジ",
    "street": null,
    "office_name": null,
    "office_name_kana": null
  },
  "0084": {
    "zip_code": "6330084",
    "prefecture": "奈良県",
    "prefecture_kana": "ナラケン",
    "prefecture_code": "29",
    "city": "桜井市",
    "city_kana": "サクライシ",
    "town": "太田",
    "town_kana": "オオタ",
    "street": null,
    "office_name": null,
    "office_name_kana": null
  },
  "0085": {
    "zip_code": "6330085",
    "prefecture": "奈良県",
    "prefecture_kana": "ナラケン",
    "prefecture_code": "29",
    "city": "桜井市",
    "city_kana": "サクライシ",
    "town": "東田",
    "town_kana": "ヒガシダ",
    "street": null,
    "office_name": null,
    "office_name_kana": null
  },
  "0086": {
    "zip_code": "6330086",
    "prefecture": "奈良県",
    "prefecture_kana": "ナラケン",
    "prefecture_code": "29",
    "city": "桜井市",
    "city_kana": "サクライシ",
    "town": "江包",
    "town_kana": "エツツミ",
    "street": null,
    "office_name": null,
    "office_name_kana": null
  },
  "0087": {
    "zip_code": "6330087",
    "prefecture": "奈良県",
    "prefecture_kana": "ナラケン",
    "prefecture_code": "29",
    "city": "桜井市",
    "city_kana": "サクライシ",
    "town": "大豆越",
    "town_kana": "マメゴシ",
    "street": null,
    "office_name": null,
    "office_name_kana": null
  },
  "0091": {
    "zip_code": "6330091",
    "prefecture": "奈良県",
    "prefecture_kana": "ナラケン",
    "prefecture_code": "29",
    "city": "桜井市",
    "city_kana": "サクライシ",
    "town": "桜井",
    "town_kana": "サクライ",
    "street": null,
    "office_name": null,
    "office_name_kana": null
  },
  "0101": {
    "zip_code": "6330101",
    "prefecture": "奈良県",
    "prefecture_kana": "ナラケン",
    "prefecture_code": "29",
    "city": "桜井市",
    "city_kana": "サクライシ",
    "town": "小夫",
    "town_kana": "オオブ",
    "street": null,
    "office_name": null,
    "office_name_kana": null
  },
  "0102": {
    "zip_code": "6330102",
    "prefecture": "奈良県",
    "prefecture_kana": "ナラケン",
    "prefecture_code": "29",
    "city": "桜井市",
    "city_kana": "サクライシ",
    "town": "三谷",
    "town_kana": "ミタニ",
    "street": null,
    "office_name": null,
    "office_name_kana": null
  },
  "0103": {
    "zip_code": "6330103",
    "prefecture": "奈良県",
    "prefecture_kana": "ナラケン",
    "prefecture_code": "29",
    "city": "桜井市",
    "city_kana": "サクライシ",
    "town": "小夫嵩方",
    "town_kana": "オオブダケホウ",
    "street": null,
    "office_name": null,
    "office_name_kana": null
  },
  "0104": {
    "zip_code": "6330104",
    "prefecture": "奈良県",
    "prefecture_kana": "ナラケン",
    "prefecture_code": "29",
    "city": "桜井市",
    "city_kana": "サクライシ",
    "town": "芹井",
    "town_kana": "セリイ",
    "street": null,
    "office_name": null,
    "office_name_kana": null
  },
  "0105": {
    "zip_code": "6330105",
    "prefecture": "奈良県",
    "prefecture_kana": "ナラケン",
    "prefecture_code": "29",
    "city": "桜井市",
    "city_kana": "サクライシ",
    "town": "白木",
    "town_kana": "シラキ",
    "street": null,
    "office_name": null,
    "office_name_kana": null
  },
  "0106": {
    "zip_code": "6330106",
    "prefecture": "奈良県",
    "prefecture_kana": "ナラケン",
    "prefecture_code": "29",
    "city": "桜井市",
    "city_kana": "サクライシ",
    "town": "萱森",
    "town_kana": "カヤモリ",
    "street": null,
    "office_name": null,
    "office_name_kana": null
  },
  "0107": {
    "zip_code": "6330107",
    "prefecture": "奈良県",
    "prefecture_kana": "ナラケン",
    "prefecture_code": "29",
    "city": "桜井市",
    "city_kana": "サクライシ",
    "town": "中谷",
    "town_kana": "ナカタニ",
    "street": null,
    "office_name": null,
    "office_name_kana": null
  },
  "0108": {
    "zip_code": "6330108",
    "prefecture": "奈良県",
    "prefecture_kana": "ナラケン",
    "prefecture_code": "29",
    "city": "桜井市",
    "city_kana": "サクライシ",
    "town": "滝倉",
    "town_kana": "タキノクラ",
    "street": null,
    "office_name": null,
    "office_name_kana": null
  },
  "0111": {
    "zip_code": "6330111",
    "prefecture": "奈良県",
    "prefecture_kana": "ナラケン",
    "prefecture_code": "29",
    "city": "桜井市",
    "city_kana": "サクライシ",
    "town": "吉隠",
    "town_kana": "ヨナバリ",
    "street": null,
    "office_name": null,
    "office_name_kana": null
  },
  "0112": {
    "zip_code": "6330112",
    "prefecture": "奈良県",
    "prefecture_kana": "ナラケン",
    "prefecture_code": "29",
    "city": "桜井市",
    "city_kana": "サクライシ",
    "town": "初瀬",
    "town_kana": "ハセ",
    "street": null,
    "office_name": null,
    "office_name_kana": null
  },
  "0121": {
    "zip_code": "6330121",
    "prefecture": "奈良県",
    "prefecture_kana": "ナラケン",
    "prefecture_code": "29",
    "city": "桜井市",
    "city_kana": "サクライシ",
    "town": "白河",
    "town_kana": "シラガ",
    "street": null,
    "office_name": null,
    "office_name_kana": null
  },
  "0122": {
    "zip_code": "6330122",
    "prefecture": "奈良県",
    "prefecture_kana": "ナラケン",
    "prefecture_code": "29",
    "city": "桜井市",
    "city_kana": "サクライシ",
    "town": "出雲",
    "town_kana": "イズモ",
    "street": null,
    "office_name": null,
    "office_name_kana": null
  },
  "0131": {
    "zip_code": "6330131",
    "prefecture": "奈良県",
    "prefecture_kana": "ナラケン",
    "prefecture_code": "29",
    "city": "桜井市",
    "city_kana": "サクライシ",
    "town": "修理枝",
    "town_kana": "シュリエダ",
    "street": null,
    "office_name": null,
    "office_name_kana": null
  },
  "0132": {
    "zip_code": "6330132",
    "prefecture": "奈良県",
    "prefecture_kana": "ナラケン",
    "prefecture_code": "29",
    "city": "桜井市",
    "city_kana": "サクライシ",
    "town": "和田",
    "town_kana": "ワダ",
    "street": null,
    "office_name": null,
    "office_name_kana": null
  },
  "0133": {
    "zip_code": "6330133",
    "prefecture": "奈良県",
    "prefecture_kana": "ナラケン",
    "prefecture_code": "29",
    "city": "桜井市",
    "city_kana": "サクライシ",
    "town": "笠",
    "town_kana": "カサ",
    "street": null,
    "office_name": null,
    "office_name_kana": null
  },
  "0200": {
    "zip_code": "6330200",
    "prefecture": "奈良県",
    "prefecture_kana": "ナラケン",
    "prefecture_code": "29",
    "city": "宇陀市",
    "city_kana": "ウダシ",
    "town": "",
    "town_kana": "",
    "street": null,
    "office_name": null,
    "office_name_kana": null
  },
  "0201": {
    "zip_code": "6330201",
    "prefecture": "奈良県",
    "prefecture_kana": "ナラケン",
    "prefecture_code": "29",
    "city": "宇陀市",
    "city_kana": "ウダシ",
    "town": "榛原戒場",
    "town_kana": "ハイバラカイバ",
    "street": null,
    "office_name": null,
    "office_name_kana": null
  },
  "0202": {
    "zip_code": "6330202",
    "prefecture": "奈良県",
    "prefecture_kana": "ナラケン",
    "prefecture_code": "29",
    "city": "宇陀市",
    "city_kana": "ウダシ",
    "town": "榛原山辺三",
    "town_kana": "ハイバラヤマベサン",
    "street": null,
    "office_name": null,
    "office_name_kana": null
  },
  "0203": {
    "zip_code": "6330203",
    "prefecture": "奈良県",
    "prefecture_kana": "ナラケン",
    "prefecture_code": "29",
    "city": "宇陀市",
    "city_kana": "ウダシ",
    "town": "榛原長峯",
    "town_kana": "ハイバラナガミネ",
    "street": null,
    "office_name": null,
    "office_name_kana": null
  },
  "0204": {
    "zip_code": "6330204",
    "prefecture": "奈良県",
    "prefecture_kana": "ナラケン",
    "prefecture_code": "29",
    "city": "宇陀市",
    "city_kana": "ウダシ",
    "town": "榛原福地",
    "town_kana": "ハイバラフクチ",
    "street": null,
    "office_name": null,
    "office_name_kana": null
  },
  "0205": {
    "zip_code": "6330205",
    "prefecture": "奈良県",
    "prefecture_kana": "ナラケン",
    "prefecture_code": "29",
    "city": "宇陀市",
    "city_kana": "ウダシ",
    "town": "榛原天満台東",
    "town_kana": "ハイバラテンマダイヒガシ",
    "street": null,
    "office_name": null,
    "office_name_kana": null
  },
  "0206": {
    "zip_code": "6330206",
    "prefecture": "奈良県",
    "prefecture_kana": "ナラケン",
    "prefecture_code": "29",
    "city": "宇陀市",
    "city_kana": "ウダシ",
    "town": "榛原天満台西",
    "town_kana": "ハイバラテンマダイニシ",
    "street": null,
    "office_name": null,
    "office_name_kana": null
  },
  "0207": {
    "zip_code": "6330207",
    "prefecture": "奈良県",
    "prefecture_kana": "ナラケン",
    "prefecture_code": "29",
    "city": "宇陀市",
    "city_kana": "ウダシ",
    "town": "榛原赤瀬",
    "town_kana": "ハイバラアカゼ",
    "street": null,
    "office_name": null,
    "office_name_kana": null
  },
  "0208": {
    "zip_code": "6330208",
    "prefecture": "奈良県",
    "prefecture_kana": "ナラケン",
    "prefecture_code": "29",
    "city": "宇陀市",
    "city_kana": "ウダシ",
    "town": "榛原額井",
    "town_kana": "ハイバラヌカイ",
    "street": null,
    "office_name": null,
    "office_name_kana": null
  },
  "0211": {
    "zip_code": "6330211",
    "prefecture": "奈良県",
    "prefecture_kana": "ナラケン",
    "prefecture_code": "29",
    "city": "宇陀市",
    "city_kana": "ウダシ",
    "town": "榛原荷阪",
    "town_kana": "ハイバラニザカ",
    "street": null,
    "office_name": null,
    "office_name_kana": null
  },
  "0212": {
    "zip_code": "6330212",
    "prefecture": "奈良県",
    "prefecture_kana": "ナラケン",
    "prefecture_code": "29",
    "city": "宇陀市",
    "city_kana": "ウダシ",
    "town": "榛原高井",
    "town_kana": "ハイバラタカイ",
    "street": null,
    "office_name": null,
    "office_name_kana": null
  },
  "0213": {
    "zip_code": "6330213",
    "prefecture": "奈良県",
    "prefecture_kana": "ナラケン",
    "prefecture_code": "29",
    "city": "宇陀市",
    "city_kana": "ウダシ",
    "town": "榛原赤埴",
    "town_kana": "ハイバラアカバネ",
    "street": null,
    "office_name": null,
    "office_name_kana": null
  },
  "0214": {
    "zip_code": "6330214",
    "prefecture": "奈良県",
    "prefecture_kana": "ナラケン",
    "prefecture_code": "29",
    "city": "宇陀市",
    "city_kana": "ウダシ",
    "town": "榛原諸木野",
    "town_kana": "ハイバラモロキノ",
    "street": null,
    "office_name": null,
    "office_name_kana": null
  },
  "0215": {
    "zip_code": "6330215",
    "prefecture": "奈良県",
    "prefecture_kana": "ナラケン",
    "prefecture_code": "29",
    "city": "宇陀市",
    "city_kana": "ウダシ",
    "town": "榛原内牧",
    "town_kana": "ハイバラウチマキ",
    "street": null,
    "office_name": null,
    "office_name_kana": null
  },
  "0216": {
    "zip_code": "6330216",
    "prefecture": "奈良県",
    "prefecture_kana": "ナラケン",
    "prefecture_code": "29",
    "city": "宇陀市",
    "city_kana": "ウダシ",
    "town": "榛原八滝",
    "town_kana": "ハイバラヤタキ",
    "street": null,
    "office_name": null,
    "office_name_kana": null
  },
  "0217": {
    "zip_code": "6330217",
    "prefecture": "奈良県",
    "prefecture_kana": "ナラケン",
    "prefecture_code": "29",
    "city": "宇陀市",
    "city_kana": "ウダシ",
    "town": "榛原自明",
    "town_kana": "ハイバラジミョウ",
    "street": null,
    "office_name": null,
    "office_name_kana": null
  },
  "0218": {
    "zip_code": "6330218",
    "prefecture": "奈良県",
    "prefecture_kana": "ナラケン",
    "prefecture_code": "29",
    "city": "宇陀市",
    "city_kana": "ウダシ",
    "town": "榛原檜牧",
    "town_kana": "ハイバラヒノマキ",
    "street": null,
    "office_name": null,
    "office_name_kana": null
  },
  "0221": {
    "zip_code": "6330221",
    "prefecture": "奈良県",
    "prefecture_kana": "ナラケン",
    "prefecture_code": "29",
    "city": "宇陀市",
    "city_kana": "ウダシ",
    "town": "榛原萩乃里",
    "town_kana": "ハイバラハギノサト",
    "street": null,
    "office_name": null,
    "office_name_kana": null
  },
  "0222": {
    "zip_code": "6330222",
    "prefecture": "奈良県",
    "prefecture_kana": "ナラケン",
    "prefecture_code": "29",
    "city": "宇陀市",
    "city_kana": "ウダシ",
    "town": "榛原上井足",
    "town_kana": "ハイバラカミイダニ",
    "street": null,
    "office_name": null,
    "office_name_kana": null
  },
  "0223": {
    "zip_code": "6330223",
    "prefecture": "奈良県",
    "prefecture_kana": "ナラケン",
    "prefecture_code": "29",
    "city": "宇陀市",
    "city_kana": "ウダシ",
    "town": "榛原石田",
    "town_kana": "ハイバライシダ",
    "street": null,
    "office_name": null,
    "office_name_kana": null
  },
  "0224": {
    "zip_code": "6330224",
    "prefecture": "奈良県",
    "prefecture_kana": "ナラケン",
    "prefecture_code": "29",
    "city": "宇陀市",
    "city_kana": "ウダシ",
    "town": "榛原山路",
    "town_kana": "ハイバラヤマジ",
    "street": null,
    "office_name": null,
    "office_name_kana": null
  },
  "0225": {
    "zip_code": "6330225",
    "prefecture": "奈良県",
    "prefecture_kana": "ナラケン",
    "prefecture_code": "29",
    "city": "宇陀市",
    "city_kana": "ウダシ",
    "town": "榛原大貝",
    "town_kana": "ハイバラオオガイ",
    "street": null,
    "office_name": null,
    "office_name_kana": null
  },
  "0226": {
    "zip_code": "6330226",
    "prefecture": "奈良県",
    "prefecture_kana": "ナラケン",
    "prefecture_code": "29",
    "city": "宇陀市",
    "city_kana": "ウダシ",
    "town": "榛原澤",
    "town_kana": "ハイバラサワ",
    "street": null,
    "office_name": null,
    "office_name_kana": null
  },
  "0227": {
    "zip_code": "6330227",
    "prefecture": "奈良県",
    "prefecture_kana": "ナラケン",
    "prefecture_code": "29",
    "city": "宇陀市",
    "city_kana": "ウダシ",
    "town": "榛原三宮寺",
    "town_kana": "ハイバラサングウジ",
    "street": null,
    "office_name": null,
    "office_name_kana": null
  },
  "0228": {
    "zip_code": "6330228",
    "prefecture": "奈良県",
    "prefecture_kana": "ナラケン",
    "prefecture_code": "29",
    "city": "宇陀市",
    "city_kana": "ウダシ",
    "town": "榛原栗谷",
    "town_kana": "ハイバラクリダニ",
    "street": null,
    "office_name": null,
    "office_name_kana": null
  },
  "0231": {
    "zip_code": "6330231",
    "prefecture": "奈良県",
    "prefecture_kana": "ナラケン",
    "prefecture_code": "29",
    "city": "宇陀市",
    "city_kana": "ウダシ",
    "town": "榛原足立",
    "town_kana": "ハイバラアダチ",
    "street": null,
    "office_name": null,
    "office_name_kana": null
  },
  "0232": {
    "zip_code": "6330232",
    "prefecture": "奈良県",
    "prefecture_kana": "ナラケン",
    "prefecture_code": "29",
    "city": "宇陀市",
    "city_kana": "ウダシ",
    "town": "榛原池上",
    "town_kana": "ハイバライケガミ",
    "street": null,
    "office_name": null,
    "office_name_kana": null
  },
  "0233": {
    "zip_code": "6330233",
    "prefecture": "奈良県",
    "prefecture_kana": "ナラケン",
    "prefecture_code": "29",
    "city": "宇陀市",
    "city_kana": "ウダシ",
    "town": "榛原福西",
    "town_kana": "ハイバラフクニシ",
    "street": null,
    "office_name": null,
    "office_name_kana": null
  },
  "0234": {
    "zip_code": "6330234",
    "prefecture": "奈良県",
    "prefecture_kana": "ナラケン",
    "prefecture_code": "29",
    "city": "宇陀市",
    "city_kana": "ウダシ",
    "town": "榛原高塚",
    "town_kana": "ハイバラタカツカ",
    "street": null,
    "office_name": null,
    "office_name_kana": null
  },
  "0235": {
    "zip_code": "6330235",
    "prefecture": "奈良県",
    "prefecture_kana": "ナラケン",
    "prefecture_code": "29",
    "city": "宇陀市",
    "city_kana": "ウダシ",
    "town": "榛原比布",
    "town_kana": "ハイバラヒフ",
    "street": null,
    "office_name": null,
    "office_name_kana": null
  },
  "0236": {
    "zip_code": "6330236",
    "prefecture": "奈良県",
    "prefecture_kana": "ナラケン",
    "prefecture_code": "29",
    "city": "宇陀市",
    "city_kana": "ウダシ",
    "town": "榛原母里",
    "town_kana": "ハイバラモリ",
    "street": null,
    "office_name": null,
    "office_name_kana": null
  },
  "0241": {
    "zip_code": "6330241",
    "prefecture": "奈良県",
    "prefecture_kana": "ナラケン",
    "prefecture_code": "29",
    "city": "宇陀市",
    "city_kana": "ウダシ",
    "town": "榛原下井足",
    "town_kana": "ハイバラシモイダニ",
    "street": null,
    "office_name": null,
    "office_name_kana": null
  },
  "0242": {
    "zip_code": "6330242",
    "prefecture": "奈良県",
    "prefecture_kana": "ナラケン",
    "prefecture_code": "29",
    "city": "宇陀市",
    "city_kana": "ウダシ",
    "town": "榛原篠楽",
    "town_kana": "ハイバラササガク",
    "street": null,
    "office_name": null,
    "office_name_kana": null
  },
  "0243": {
    "zip_code": "6330243",
    "prefecture": "奈良県",
    "prefecture_kana": "ナラケン",
    "prefecture_code": "29",
    "city": "宇陀市",
    "city_kana": "ウダシ",
    "town": "榛原雨師",
    "town_kana": "ハイバラアメシ",
    "street": null,
    "office_name": null,
    "office_name_kana": null
  },
  "0244": {
    "zip_code": "6330244",
    "prefecture": "奈良県",
    "prefecture_kana": "ナラケン",
    "prefecture_code": "29",
    "city": "宇陀市",
    "city_kana": "ウダシ",
    "town": "榛原安田",
    "town_kana": "ハイバラヤスダ",
    "street": null,
    "office_name": null,
    "office_name_kana": null
  },
  "0245": {
    "zip_code": "6330245",
    "prefecture": "奈良県",
    "prefecture_kana": "ナラケン",
    "prefecture_code": "29",
    "city": "宇陀市",
    "city_kana": "ウダシ",
    "town": "榛原笠間",
    "town_kana": "ハイバラカサマ",
    "street": null,
    "office_name": null,
    "office_name_kana": null
  },
  "0246": {
    "zip_code": "6330246",
    "prefecture": "奈良県",
    "prefecture_kana": "ナラケン",
    "prefecture_code": "29",
    "city": "宇陀市",
    "city_kana": "ウダシ",
    "town": "榛原柳",
    "town_kana": "ハイバラヤナギ",
    "street": null,
    "office_name": null,
    "office_name_kana": null
  },
  "0251": {
    "zip_code": "6330251",
    "prefecture": "奈良県",
    "prefecture_kana": "ナラケン",
    "prefecture_code": "29",
    "city": "宇陀市",
    "city_kana": "ウダシ",
    "town": "榛原ひのき坂",
    "town_kana": "ハイバラヒノキザカ",
    "street": null,
    "office_name": null,
    "office_name_kana": null
  },
  "0252": {
    "zip_code": "6330252",
    "prefecture": "奈良県",
    "prefecture_kana": "ナラケン",
    "prefecture_code": "29",
    "city": "宇陀市",
    "city_kana": "ウダシ",
    "town": "榛原桜が丘",
    "town_kana": "ハイバラサクラガオカ",
    "street": null,
    "office_name": null,
    "office_name_kana": null
  },
  "0253": {
    "zip_code": "6330253",
    "prefecture": "奈良県",
    "prefecture_kana": "ナラケン",
    "prefecture_code": "29",
    "city": "宇陀市",
    "city_kana": "ウダシ",
    "town": "榛原萩原",
    "town_kana": "ハイバラハギハラ",
    "street": null,
    "office_name": null,
    "office_name_kana": null
  },
  "0254": {
    "zip_code": "6330254",
    "prefecture": "奈良県",
    "prefecture_kana": "ナラケン",
    "prefecture_code": "29",
    "city": "宇陀市",
    "city_kana": "ウダシ",
    "town": "榛原高萩台",
    "town_kana": "ハイバラタカハギダイ",
    "street": null,
    "office_name": null,
    "office_name_kana": null
  },
  "0255": {
    "zip_code": "6330255",
    "prefecture": "奈良県",
    "prefecture_kana": "ナラケン",
    "prefecture_code": "29",
    "city": "宇陀市",
    "city_kana": "ウダシ",
    "town": "榛原角柄",
    "town_kana": "ハイバラツノガワラ",
    "street": null,
    "office_name": null,
    "office_name_kana": null
  },
  "0256": {
    "zip_code": "6330256",
    "prefecture": "奈良県",
    "prefecture_kana": "ナラケン",
    "prefecture_code": "29",
    "city": "宇陀市",
    "city_kana": "ウダシ",
    "town": "榛原あかね台",
    "town_kana": "ハイバラアカネダイ",
    "street": null,
    "office_name": null,
    "office_name_kana": null
  },
  "0257": {
    "zip_code": "6330257",
    "prefecture": "奈良県",
    "prefecture_kana": "ナラケン",
    "prefecture_code": "29",
    "city": "宇陀市",
    "city_kana": "ウダシ",
    "town": "榛原榛見が丘",
    "town_kana": "ハイバラハルミガオカ",
    "street": null,
    "office_name": null,
    "office_name_kana": null
  },
  "0292": {
    "zip_code": "6330292",
    "prefecture": "奈良県",
    "prefecture_kana": null,
    "prefecture_code": null,
    "city": "宇陀市",
    "city_kana": null,
    "town": "榛原区下井足",
    "town_kana": null,
    "street": "１７−３",
    "office_name": "宇陀市役所",
    "office_name_kana": "ウダシヤクシヨ"
  },
  "0298": {
    "zip_code": "6330298",
    "prefecture": "奈良県",
    "prefecture_kana": null,
    "prefecture_code": null,
    "city": "宇陀市",
    "city_kana": null,
    "town": "榛原区萩原",
    "town_kana": null,
    "street": "８１５",
    "office_name": "宇陀市立病院",
    "office_name_kana": "ウダシリツビヨウイン"
  },
  "0311": {
    "zip_code": "6330311",
    "prefecture": "奈良県",
    "prefecture_kana": "ナラケン",
    "prefecture_code": "29",
    "city": "宇陀市",
    "city_kana": "ウダシ",
    "town": "室生龍口",
    "town_kana": "ムロウリュウグチ",
    "street": null,
    "office_name": null,
    "office_name_kana": null
  },
  "0312": {
    "zip_code": "6330312",
    "prefecture": "奈良県",
    "prefecture_kana": "ナラケン",
    "prefecture_code": "29",
    "city": "宇陀市",
    "city_kana": "ウダシ",
    "town": "室生西谷",
    "town_kana": "ムロウニシタニ",
    "street": null,
    "office_name": null,
    "office_name_kana": null
  },
  "0313": {
    "zip_code": "6330313",
    "prefecture": "奈良県",
    "prefecture_kana": "ナラケン",
    "prefecture_code": "29",
    "city": "宇陀市",
    "city_kana": "ウダシ",
    "town": "室生瀧谷",
    "town_kana": "ムロウタキダニ",
    "street": null,
    "office_name": null,
    "office_name_kana": null
  },
  "0314": {
    "zip_code": "6330314",
    "prefecture": "奈良県",
    "prefecture_kana": "ナラケン",
    "prefecture_code": "29",
    "city": "宇陀市",
    "city_kana": "ウダシ",
    "town": "室生砥取",
    "town_kana": "ムロウトトリ",
    "street": null,
    "office_name": null,
    "office_name_kana": null
  },
  "0315": {
    "zip_code": "6330315",
    "prefecture": "奈良県",
    "prefecture_kana": "ナラケン",
    "prefecture_code": "29",
    "city": "宇陀市",
    "city_kana": "ウダシ",
    "town": "室生大野",
    "town_kana": "ムロウオオノ",
    "street": null,
    "office_name": null,
    "office_name_kana": null
  },
  "0316": {
    "zip_code": "6330316",
    "prefecture": "奈良県",
    "prefecture_kana": "ナラケン",
    "prefecture_code": "29",
    "city": "宇陀市",
    "city_kana": "ウダシ",
    "town": "室生向渕",
    "town_kana": "ムロウムコウヂ",
    "street": null,
    "office_name": null,
    "office_name_kana": null
  },
  "0317": {
    "zip_code": "6330317",
    "prefecture": "奈良県",
    "prefecture_kana": "ナラケン",
    "prefecture_code": "29",
    "city": "宇陀市",
    "city_kana": "ウダシ",
    "town": "室生三本松",
    "town_kana": "ムロウサンボンマツ",
    "street": null,
    "office_name": null,
    "office_name_kana": null
  },
  "0392": {
    "zip_code": "6330392",
    "prefecture": "奈良県",
    "prefecture_kana": null,
    "prefecture_code": null,
    "city": "宇陀市",
    "city_kana": null,
    "town": "室生区大野",
    "town_kana": null,
    "street": "１６４１番地",
    "office_name": "室生地域事務所",
    "office_name_kana": "ムロウチイキジムシヨ"
  },
  "0398": {
    "zip_code": "6330398",
    "prefecture": "奈良県",
    "prefecture_kana": null,
    "prefecture_code": null,
    "city": "宇陀市",
    "city_kana": null,
    "town": "室生区向渕",
    "town_kana": null,
    "street": "２２４８",
    "office_name": "株式会社　室生ロイヤルカントリークラブ",
    "office_name_kana": "カブシキガイシヤ ムロウロイヤルカントリ-クラブ"
  },
  "0421": {
    "zip_code": "6330421",
    "prefecture": "奈良県",
    "prefecture_kana": "ナラケン",
    "prefecture_code": "29",
    "city": "宇陀市",
    "city_kana": "ウダシ",
    "town": "室生",
    "town_kana": "ムロウ",
    "street": null,
    "office_name": null,
    "office_name_kana": null
  },
  "0422": {
    "zip_code": "6330422",
    "prefecture": "奈良県",
    "prefecture_kana": "ナラケン",
    "prefecture_code": "29",
    "city": "宇陀市",
    "city_kana": "ウダシ",
    "town": "室生下田口",
    "town_kana": "ムロウシモタグチ",
    "street": null,
    "office_name": null,
    "office_name_kana": null
  },
  "0423": {
    "zip_code": "6330423",
    "prefecture": "奈良県",
    "prefecture_kana": "ナラケン",
    "prefecture_code": "29",
    "city": "宇陀市",
    "city_kana": "ウダシ",
    "town": "室生田口元角川",
    "town_kana": "ムロウタグチモトツノガワ",
    "street": null,
    "office_name": null,
    "office_name_kana": null
  },
  "0424": {
    "zip_code": "6330424",
    "prefecture": "奈良県",
    "prefecture_kana": "ナラケン",
    "prefecture_code": "29",
    "city": "宇陀市",
    "city_kana": "ウダシ",
    "town": "室生田口元上田口",
    "town_kana": "ムロウタグチモトカミタグチ",
    "street": null,
    "office_name": null,
    "office_name_kana": null
  },
  "0425": {
    "zip_code": "6330425",
    "prefecture": "奈良県",
    "prefecture_kana": "ナラケン",
    "prefecture_code": "29",
    "city": "宇陀市",
    "city_kana": "ウダシ",
    "town": "室生黒岩",
    "town_kana": "ムロウクロイワ",
    "street": null,
    "office_name": null,
    "office_name_kana": null
  },
  "1200": {
    "zip_code": "6331200",
    "prefecture": "奈良県",
    "prefecture_kana": "ナラケン",
    "prefecture_code": "29",
    "city": "宇陀郡曽爾村",
    "city_kana": "ウダグンソニムラ",
    "town": "",
    "town_kana": "",
    "street": null,
    "office_name": null,
    "office_name_kana": null
  },
  "1201": {
    "zip_code": "6331201",
    "prefecture": "奈良県",
    "prefecture_kana": "ナラケン",
    "prefecture_code": "29",
    "city": "宇陀郡曽爾村",
    "city_kana": "ウダグンソニムラ",
    "town": "伊賀見",
    "town_kana": "イガミ",
    "street": null,
    "office_name": null,
    "office_name_kana": null
  },
  "1202": {
    "zip_code": "6331202",
    "prefecture": "奈良県",
    "prefecture_kana": "ナラケン",
    "prefecture_code": "29",
    "city": "宇陀郡曽爾村",
    "city_kana": "ウダグンソニムラ",
    "town": "太良路",
    "town_kana": "タロジ",
    "street": null,
    "office_name": null,
    "office_name_kana": null
  },
  "1203": {
    "zip_code": "6331203",
    "prefecture": "奈良県",
    "prefecture_kana": "ナラケン",
    "prefecture_code": "29",
    "city": "宇陀郡曽爾村",
    "city_kana": "ウダグンソニムラ",
    "town": "葛",
    "town_kana": "カズラ",
    "street": null,
    "office_name": null,
    "office_name_kana": null
  },
  "1211": {
    "zip_code": "6331211",
    "prefecture": "奈良県",
    "prefecture_kana": "ナラケン",
    "prefecture_code": "29",
    "city": "宇陀郡曽爾村",
    "city_kana": "ウダグンソニムラ",
    "town": "塩井",
    "town_kana": "シオイ",
    "street": null,
    "office_name": null,
    "office_name_kana": null
  },
  "1212": {
    "zip_code": "6331212",
    "prefecture": "奈良県",
    "prefecture_kana": "ナラケン",
    "prefecture_code": "29",
    "city": "宇陀郡曽爾村",
    "city_kana": "ウダグンソニムラ",
    "town": "今井",
    "town_kana": "イマイ",
    "street": null,
    "office_name": null,
    "office_name_kana": null
  },
  "1213": {
    "zip_code": "6331213",
    "prefecture": "奈良県",
    "prefecture_kana": "ナラケン",
    "prefecture_code": "29",
    "city": "宇陀郡曽爾村",
    "city_kana": "ウダグンソニムラ",
    "town": "小長尾",
    "town_kana": "コナガオ",
    "street": null,
    "office_name": null,
    "office_name_kana": null
  },
  "1214": {
    "zip_code": "6331214",
    "prefecture": "奈良県",
    "prefecture_kana": "ナラケン",
    "prefecture_code": "29",
    "city": "宇陀郡曽爾村",
    "city_kana": "ウダグンソニムラ",
    "town": "長野",
    "town_kana": "ナガノ",
    "street": null,
    "office_name": null,
    "office_name_kana": null
  },
  "1215": {
    "zip_code": "6331215",
    "prefecture": "奈良県",
    "prefecture_kana": "ナラケン",
    "prefecture_code": "29",
    "city": "宇陀郡曽爾村",
    "city_kana": "ウダグンソニムラ",
    "town": "掛",
    "town_kana": "カケ",
    "street": null,
    "office_name": null,
    "office_name_kana": null
  },
  "1216": {
    "zip_code": "6331216",
    "prefecture": "奈良県",
    "prefecture_kana": "ナラケン",
    "prefecture_code": "29",
    "city": "宇陀郡曽爾村",
    "city_kana": "ウダグンソニムラ",
    "town": "山粕",
    "town_kana": "ヤマガス",
    "street": null,
    "office_name": null,
    "office_name_kana": null
  },
  "1300": {
    "zip_code": "6331300",
    "prefecture": "奈良県",
    "prefecture_kana": "ナラケン",
    "prefecture_code": "29",
    "city": "宇陀郡御杖村",
    "city_kana": "ウダグンミツエムラ",
    "town": "",
    "town_kana": "",
    "street": null,
    "office_name": null,
    "office_name_kana": null
  },
  "1301": {
    "zip_code": "6331301",
    "prefecture": "奈良県",
    "prefecture_kana": "ナラケン",
    "prefecture_code": "29",
    "city": "宇陀郡御杖村",
    "city_kana": "ウダグンミツエムラ",
    "town": "神末",
    "town_kana": "コウズエ",
    "street": null,
    "office_name": null,
    "office_name_kana": null
  },
  "1302": {
    "zip_code": "6331302",
    "prefecture": "奈良県",
    "prefecture_kana": "ナラケン",
    "prefecture_code": "29",
    "city": "宇陀郡御杖村",
    "city_kana": "ウダグンミツエムラ",
    "town": "菅野",
    "town_kana": "スガノ",
    "street": null,
    "office_name": null,
    "office_name_kana": null
  },
  "1303": {
    "zip_code": "6331303",
    "prefecture": "奈良県",
    "prefecture_kana": "ナラケン",
    "prefecture_code": "29",
    "city": "宇陀郡御杖村",
    "city_kana": "ウダグンミツエムラ",
    "town": "土屋原",
    "town_kana": "ツチヤハラ",
    "street": null,
    "office_name": null,
    "office_name_kana": null
  },
  "1304": {
    "zip_code": "6331304",
    "prefecture": "奈良県",
    "prefecture_kana": "ナラケン",
    "prefecture_code": "29",
    "city": "宇陀郡御杖村",
    "city_kana": "ウダグンミツエムラ",
    "town": "桃俣",
    "town_kana": "モモノマタ",
    "street": null,
    "office_name": null,
    "office_name_kana": null
  },
  "2101": {
    "zip_code": "6332101",
    "prefecture": "奈良県",
    "prefecture_kana": "ナラケン",
    "prefecture_code": "29",
    "city": "宇陀市",
    "city_kana": "ウダシ",
    "town": "大宇陀五津",
    "town_kana": "オオウダイツツ",
    "street": null,
    "office_name": null,
    "office_name_kana": null
  },
  "2102": {
    "zip_code": "6332102",
    "prefecture": "奈良県",
    "prefecture_kana": "ナラケン",
    "prefecture_code": "29",
    "city": "宇陀市",
    "city_kana": "ウダシ",
    "town": "大宇陀平尾",
    "town_kana": "オオウダヒラオ",
    "street": null,
    "office_name": null,
    "office_name_kana": null
  },
  "2103": {
    "zip_code": "6332103",
    "prefecture": "奈良県",
    "prefecture_kana": "ナラケン",
    "prefecture_code": "29",
    "city": "宇陀市",
    "city_kana": "ウダシ",
    "town": "大宇陀野依",
    "town_kana": "オオウダノヨリ",
    "street": null,
    "office_name": null,
    "office_name_kana": null
  },
  "2104": {
    "zip_code": "6332104",
    "prefecture": "奈良県",
    "prefecture_kana": "ナラケン",
    "prefecture_code": "29",
    "city": "宇陀市",
    "city_kana": "ウダシ",
    "town": "大宇陀口今井",
    "town_kana": "オオウダクチイマイ",
    "street": null,
    "office_name": null,
    "office_name_kana": null
  },
  "2105": {
    "zip_code": "6332105",
    "prefecture": "奈良県",
    "prefecture_kana": "ナラケン",
    "prefecture_code": "29",
    "city": "宇陀市",
    "city_kana": "ウダシ",
    "town": "大宇陀麻生田",
    "town_kana": "オオウダアソダ",
    "street": null,
    "office_name": null,
    "office_name_kana": null
  },
  "2106": {
    "zip_code": "6332106",
    "prefecture": "奈良県",
    "prefecture_kana": "ナラケン",
    "prefecture_code": "29",
    "city": "宇陀市",
    "city_kana": "ウダシ",
    "town": "大宇陀馬取柿",
    "town_kana": "オオウダマトリガキ",
    "street": null,
    "office_name": null,
    "office_name_kana": null
  },
  "2107": {
    "zip_code": "6332107",
    "prefecture": "奈良県",
    "prefecture_kana": "ナラケン",
    "prefecture_code": "29",
    "city": "宇陀市",
    "city_kana": "ウダシ",
    "town": "大宇陀嬉河原",
    "town_kana": "オオウダウレシガワラ",
    "street": null,
    "office_name": null,
    "office_name_kana": null
  },
  "2108": {
    "zip_code": "6332108",
    "prefecture": "奈良県",
    "prefecture_kana": "ナラケン",
    "prefecture_code": "29",
    "city": "宇陀市",
    "city_kana": "ウダシ",
    "town": "大宇陀半阪",
    "town_kana": "オオウダハンサカ",
    "street": null,
    "office_name": null,
    "office_name_kana": null
  },
  "2111": {
    "zip_code": "6332111",
    "prefecture": "奈良県",
    "prefecture_kana": "ナラケン",
    "prefecture_code": "29",
    "city": "宇陀市",
    "city_kana": "ウダシ",
    "town": "大宇陀内原",
    "town_kana": "オオウダウチハラ",
    "street": null,
    "office_name": null,
    "office_name_kana": null
  },
  "2112": {
    "zip_code": "6332112",
    "prefecture": "奈良県",
    "prefecture_kana": "ナラケン",
    "prefecture_code": "29",
    "city": "宇陀市",
    "city_kana": "ウダシ",
    "town": "大宇陀小附",
    "town_kana": "オオウダコウツケ",
    "street": null,
    "office_name": null,
    "office_name_kana": null
  },
  "2113": {
    "zip_code": "6332113",
    "prefecture": "奈良県",
    "prefecture_kana": "ナラケン",
    "prefecture_code": "29",
    "city": "宇陀市",
    "city_kana": "ウダシ",
    "town": "大宇陀下竹",
    "town_kana": "オオウダシモタケ",
    "street": null,
    "office_name": null,
    "office_name_kana": null
  },
  "2114": {
    "zip_code": "6332114",
    "prefecture": "奈良県",
    "prefecture_kana": "ナラケン",
    "prefecture_code": "29",
    "city": "宇陀市",
    "city_kana": "ウダシ",
    "town": "大宇陀春日",
    "town_kana": "オオウダカスガ",
    "street": null,
    "office_name": null,
    "office_name_kana": null
  },
  "2115": {
    "zip_code": "6332115",
    "prefecture": "奈良県",
    "prefecture_kana": "ナラケン",
    "prefecture_code": "29",
    "city": "宇陀市",
    "city_kana": "ウダシ",
    "town": "大宇陀西山",
    "town_kana": "オオウダニシヤマ",
    "street": null,
    "office_name": null,
    "office_name_kana": null
  },
  "2116": {
    "zip_code": "6332116",
    "prefecture": "奈良県",
    "prefecture_kana": "ナラケン",
    "prefecture_code": "29",
    "city": "宇陀市",
    "city_kana": "ウダシ",
    "town": "大宇陀岩室",
    "town_kana": "オオウダイワムロ",
    "street": null,
    "office_name": null,
    "office_name_kana": null
  },
  "2117": {
    "zip_code": "6332117",
    "prefecture": "奈良県",
    "prefecture_kana": "ナラケン",
    "prefecture_code": "29",
    "city": "宇陀市",
    "city_kana": "ウダシ",
    "town": "大宇陀芝生",
    "town_kana": "オオウダシボウ",
    "street": null,
    "office_name": null,
    "office_name_kana": null
  },
  "2121": {
    "zip_code": "6332121",
    "prefecture": "奈良県",
    "prefecture_kana": "ナラケン",
    "prefecture_code": "29",
    "city": "宇陀市",
    "city_kana": "ウダシ",
    "town": "大宇陀塚脇",
    "town_kana": "オオウダツカワキ",
    "street": null,
    "office_name": null,
    "office_name_kana": null
  },
  "2122": {
    "zip_code": "6332122",
    "prefecture": "奈良県",
    "prefecture_kana": "ナラケン",
    "prefecture_code": "29",
    "city": "宇陀市",
    "city_kana": "ウダシ",
    "town": "大宇陀調子",
    "town_kana": "オオウダチョウシ",
    "street": null,
    "office_name": null,
    "office_name_kana": null
  },
  "2123": {
    "zip_code": "6332123",
    "prefecture": "奈良県",
    "prefecture_kana": "ナラケン",
    "prefecture_code": "29",
    "city": "宇陀市",
    "city_kana": "ウダシ",
    "town": "大宇陀藤井",
    "town_kana": "オオウダフジイ",
    "street": null,
    "office_name": null,
    "office_name_kana": null
  },
  "2124": {
    "zip_code": "6332124",
    "prefecture": "奈良県",
    "prefecture_kana": "ナラケン",
    "prefecture_code": "29",
    "city": "宇陀市",
    "city_kana": "ウダシ",
    "town": "大宇陀才ケ辻",
    "town_kana": "オオウダサイガツジ",
    "street": null,
    "office_name": null,
    "office_name_kana": null
  },
  "2125": {
    "zip_code": "6332125",
    "prefecture": "奈良県",
    "prefecture_kana": "ナラケン",
    "prefecture_code": "29",
    "city": "宇陀市",
    "city_kana": "ウダシ",
    "town": "大宇陀守道",
    "town_kana": "オオウダモチ",
    "street": null,
    "office_name": null,
    "office_name_kana": null
  },
  "2126": {
    "zip_code": "6332126",
    "prefecture": "奈良県",
    "prefecture_kana": "ナラケン",
    "prefecture_code": "29",
    "city": "宇陀市",
    "city_kana": "ウダシ",
    "town": "大宇陀岩清水",
    "town_kana": "オオウダイワシミズ",
    "street": null,
    "office_name": null,
    "office_name_kana": null
  },
  "2131": {
    "zip_code": "6332131",
    "prefecture": "奈良県",
    "prefecture_kana": "ナラケン",
    "prefecture_code": "29",
    "city": "宇陀市",
    "city_kana": "ウダシ",
    "town": "大宇陀和田",
    "town_kana": "オオウダワダ",
    "street": null,
    "office_name": null,
    "office_name_kana": null
  },
  "2132": {
    "zip_code": "6332132",
    "prefecture": "奈良県",
    "prefecture_kana": "ナラケン",
    "prefecture_code": "29",
    "city": "宇陀市",
    "city_kana": "ウダシ",
    "town": "大宇陀下品",
    "town_kana": "オオウダシモシナ",
    "street": null,
    "office_name": null,
    "office_name_kana": null
  },
  "2133": {
    "zip_code": "6332133",
    "prefecture": "奈良県",
    "prefecture_kana": "ナラケン",
    "prefecture_code": "29",
    "city": "宇陀市",
    "city_kana": "ウダシ",
    "town": "大宇陀上品",
    "town_kana": "オオウダカミシナ",
    "street": null,
    "office_name": null,
    "office_name_kana": null
  },
  "2134": {
    "zip_code": "6332134",
    "prefecture": "奈良県",
    "prefecture_kana": "ナラケン",
    "prefecture_code": "29",
    "city": "宇陀市",
    "city_kana": "ウダシ",
    "town": "大宇陀小和田",
    "town_kana": "オオウダコワダ",
    "street": null,
    "office_name": null,
    "office_name_kana": null
  },
  "2135": {
    "zip_code": "6332135",
    "prefecture": "奈良県",
    "prefecture_kana": "ナラケン",
    "prefecture_code": "29",
    "city": "宇陀市",
    "city_kana": "ウダシ",
    "town": "大宇陀東平尾",
    "town_kana": "オオウダヒガシヒラオ",
    "street": null,
    "office_name": null,
    "office_name_kana": null
  },
  "2136": {
    "zip_code": "6332136",
    "prefecture": "奈良県",
    "prefecture_kana": "ナラケン",
    "prefecture_code": "29",
    "city": "宇陀市",
    "city_kana": "ウダシ",
    "town": "大宇陀大熊",
    "town_kana": "オオウダオオクマ",
    "street": null,
    "office_name": null,
    "office_name_kana": null
  },
  "2137": {
    "zip_code": "6332137",
    "prefecture": "奈良県",
    "prefecture_kana": "ナラケン",
    "prefecture_code": "29",
    "city": "宇陀市",
    "city_kana": "ウダシ",
    "town": "大宇陀下片岡",
    "town_kana": "オオウダシモカタオカ",
    "street": null,
    "office_name": null,
    "office_name_kana": null
  },
  "2138": {
    "zip_code": "6332138",
    "prefecture": "奈良県",
    "prefecture_kana": "ナラケン",
    "prefecture_code": "29",
    "city": "宇陀市",
    "city_kana": "ウダシ",
    "town": "大宇陀白鳥居",
    "town_kana": "オオウダシラトリイ",
    "street": null,
    "office_name": null,
    "office_name_kana": null
  },
  "2139": {
    "zip_code": "6332139",
    "prefecture": "奈良県",
    "prefecture_kana": "ナラケン",
    "prefecture_code": "29",
    "city": "宇陀市",
    "city_kana": "ウダシ",
    "town": "大宇陀山口",
    "town_kana": "オオウダヤマグチ",
    "street": null,
    "office_name": null,
    "office_name_kana": null
  },
  "2141": {
    "zip_code": "6332141",
    "prefecture": "奈良県",
    "prefecture_kana": "ナラケン",
    "prefecture_code": "29",
    "city": "宇陀市",
    "city_kana": "ウダシ",
    "town": "大宇陀上片岡",
    "town_kana": "オオウダカミカタオカ",
    "street": null,
    "office_name": null,
    "office_name_kana": null
  },
  "2142": {
    "zip_code": "6332142",
    "prefecture": "奈良県",
    "prefecture_kana": "ナラケン",
    "prefecture_code": "29",
    "city": "宇陀市",
    "city_kana": "ウダシ",
    "town": "大宇陀田原",
    "town_kana": "オオウダタワラ",
    "street": null,
    "office_name": null,
    "office_name_kana": null
  },
  "2143": {
    "zip_code": "6332143",
    "prefecture": "奈良県",
    "prefecture_kana": "ナラケン",
    "prefecture_code": "29",
    "city": "宇陀市",
    "city_kana": "ウダシ",
    "town": "大宇陀牧",
    "town_kana": "オオウダマキ",
    "street": null,
    "office_name": null,
    "office_name_kana": null
  },
  "2144": {
    "zip_code": "6332144",
    "prefecture": "奈良県",
    "prefecture_kana": "ナラケン",
    "prefecture_code": "29",
    "city": "宇陀市",
    "city_kana": "ウダシ",
    "town": "大宇陀栗野",
    "town_kana": "オオウダクリノ",
    "street": null,
    "office_name": null,
    "office_name_kana": null
  },
  "2151": {
    "zip_code": "6332151",
    "prefecture": "奈良県",
    "prefecture_kana": "ナラケン",
    "prefecture_code": "29",
    "city": "宇陀市",
    "city_kana": "ウダシ",
    "town": "大宇陀大東",
    "town_kana": "オオウダダイトウ",
    "street": null,
    "office_name": null,
    "office_name_kana": null
  },
  "2152": {
    "zip_code": "6332152",
    "prefecture": "奈良県",
    "prefecture_kana": "ナラケン",
    "prefecture_code": "29",
    "city": "宇陀市",
    "city_kana": "ウダシ",
    "town": "大宇陀関戸",
    "town_kana": "オオウダセキド",
    "street": null,
    "office_name": null,
    "office_name_kana": null
  },
  "2153": {
    "zip_code": "6332153",
    "prefecture": "奈良県",
    "prefecture_kana": "ナラケン",
    "prefecture_code": "29",
    "city": "宇陀市",
    "city_kana": "ウダシ",
    "town": "大宇陀下宮奥",
    "town_kana": "オオウダシモミヤノオク",
    "street": null,
    "office_name": null,
    "office_name_kana": null
  },
  "2154": {
    "zip_code": "6332154",
    "prefecture": "奈良県",
    "prefecture_kana": "ナラケン",
    "prefecture_code": "29",
    "city": "宇陀市",
    "city_kana": "ウダシ",
    "town": "大宇陀宮奥",
    "town_kana": "オオウダミヤノオク",
    "street": null,
    "office_name": null,
    "office_name_kana": null
  },
  "2155": {
    "zip_code": "6332155",
    "prefecture": "奈良県",
    "prefecture_kana": "ナラケン",
    "prefecture_code": "29",
    "city": "宇陀市",
    "city_kana": "ウダシ",
    "town": "大宇陀黒木",
    "town_kana": "オオウダクロギ",
    "street": null,
    "office_name": null,
    "office_name_kana": null
  },
  "2156": {
    "zip_code": "6332156",
    "prefecture": "奈良県",
    "prefecture_kana": "ナラケン",
    "prefecture_code": "29",
    "city": "宇陀市",
    "city_kana": "ウダシ",
    "town": "大宇陀本郷",
    "town_kana": "オオウダホンゴウ",
    "street": null,
    "office_name": null,
    "office_name_kana": null
  },
  "2161": {
    "zip_code": "6332161",
    "prefecture": "奈良県",
    "prefecture_kana": "ナラケン",
    "prefecture_code": "29",
    "city": "宇陀市",
    "city_kana": "ウダシ",
    "town": "大宇陀上新",
    "town_kana": "オオウダカミシン",
    "street": null,
    "office_name": null,
    "office_name_kana": null
  },
  "2162": {
    "zip_code": "6332162",
    "prefecture": "奈良県",
    "prefecture_kana": "ナラケン",
    "prefecture_code": "29",
    "city": "宇陀市",
    "city_kana": "ウダシ",
    "town": "大宇陀出新",
    "town_kana": "オオウダイデシン",
    "street": null,
    "office_name": null,
    "office_name_kana": null
  },
  "2163": {
    "zip_code": "6332163",
    "prefecture": "奈良県",
    "prefecture_kana": "ナラケン",
    "prefecture_code": "29",
    "city": "宇陀市",
    "city_kana": "ウダシ",
    "town": "大宇陀万六",
    "town_kana": "オオウダマンロク",
    "street": null,
    "office_name": null,
    "office_name_kana": null
  },
  "2164": {
    "zip_code": "6332164",
    "prefecture": "奈良県",
    "prefecture_kana": "ナラケン",
    "prefecture_code": "29",
    "city": "宇陀市",
    "city_kana": "ウダシ",
    "town": "大宇陀拾生",
    "town_kana": "オオウダヒロウ",
    "street": null,
    "office_name": null,
    "office_name_kana": null
  },
  "2165": {
    "zip_code": "6332165",
    "prefecture": "奈良県",
    "prefecture_kana": "ナラケン",
    "prefecture_code": "29",
    "city": "宇陀市",
    "city_kana": "ウダシ",
    "town": "大宇陀中庄",
    "town_kana": "オオウダナカノショウ",
    "street": null,
    "office_name": null,
    "office_name_kana": null
  },
  "2166": {
    "zip_code": "6332166",
    "prefecture": "奈良県",
    "prefecture_kana": "ナラケン",
    "prefecture_code": "29",
    "city": "宇陀市",
    "city_kana": "ウダシ",
    "town": "大宇陀迫間",
    "town_kana": "オオウダハサマ",
    "street": null,
    "office_name": null,
    "office_name_kana": null
  },
  "2170": {
    "zip_code": "6332170",
    "prefecture": "奈良県",
    "prefecture_kana": "ナラケン",
    "prefecture_code": "29",
    "city": "宇陀市",
    "city_kana": "ウダシ",
    "town": "大宇陀下茶",
    "town_kana": "オオウダシモチャ",
    "street": null,
    "office_name": null,
    "office_name_kana": null
  },
  "2171": {
    "zip_code": "6332171",
    "prefecture": "奈良県",
    "prefecture_kana": "ナラケン",
    "prefecture_code": "29",
    "city": "宇陀市",
    "city_kana": "ウダシ",
    "town": "大宇陀上茶",
    "town_kana": "オオウダカミチャ",
    "street": null,
    "office_name": null,
    "office_name_kana": null
  },
  "2172": {
    "zip_code": "6332172",
    "prefecture": "奈良県",
    "prefecture_kana": "ナラケン",
    "prefecture_code": "29",
    "city": "宇陀市",
    "city_kana": "ウダシ",
    "town": "大宇陀上本",
    "town_kana": "オオウダカミホン",
    "street": null,
    "office_name": null,
    "office_name_kana": null
  },
  "2173": {
    "zip_code": "6332173",
    "prefecture": "奈良県",
    "prefecture_kana": "ナラケン",
    "prefecture_code": "29",
    "city": "宇陀市",
    "city_kana": "ウダシ",
    "town": "大宇陀上中",
    "town_kana": "オオウダカミナカ",
    "street": null,
    "office_name": null,
    "office_name_kana": null
  },
  "2174": {
    "zip_code": "6332174",
    "prefecture": "奈良県",
    "prefecture_kana": "ナラケン",
    "prefecture_code": "29",
    "city": "宇陀市",
    "city_kana": "ウダシ",
    "town": "大宇陀上",
    "town_kana": "オオウダカミ",
    "street": null,
    "office_name": null,
    "office_name_kana": null
  },
  "2175": {
    "zip_code": "6332175",
    "prefecture": "奈良県",
    "prefecture_kana": "ナラケン",
    "prefecture_code": "29",
    "city": "宇陀市",
    "city_kana": "ウダシ",
    "town": "大宇陀中新",
    "town_kana": "オオウダナカシン",
    "street": null,
    "office_name": null,
    "office_name_kana": null
  },
  "2176": {
    "zip_code": "6332176",
    "prefecture": "奈良県",
    "prefecture_kana": "ナラケン",
    "prefecture_code": "29",
    "city": "宇陀市",
    "city_kana": "ウダシ",
    "town": "大宇陀小出口",
    "town_kana": "オオウダコイデグチ",
    "street": null,
    "office_name": null,
    "office_name_kana": null
  },
  "2177": {
    "zip_code": "6332177",
    "prefecture": "奈良県",
    "prefecture_kana": "ナラケン",
    "prefecture_code": "29",
    "city": "宇陀市",
    "city_kana": "ウダシ",
    "town": "大宇陀下出口",
    "town_kana": "オオウダシモデグチ",
    "street": null,
    "office_name": null,
    "office_name_kana": null
  },
  "2178": {
    "zip_code": "6332178",
    "prefecture": "奈良県",
    "prefecture_kana": "ナラケン",
    "prefecture_code": "29",
    "city": "宇陀市",
    "city_kana": "ウダシ",
    "town": "大宇陀下中",
    "town_kana": "オオウダシモナカ",
    "street": null,
    "office_name": null,
    "office_name_kana": null
  },
  "2179": {
    "zip_code": "6332179",
    "prefecture": "奈良県",
    "prefecture_kana": "ナラケン",
    "prefecture_code": "29",
    "city": "宇陀市",
    "city_kana": "ウダシ",
    "town": "大宇陀下本",
    "town_kana": "オオウダシモホン",
    "street": null,
    "office_name": null,
    "office_name_kana": null
  },
  "2192": {
    "zip_code": "6332192",
    "prefecture": "奈良県",
    "prefecture_kana": null,
    "prefecture_code": null,
    "city": "宇陀市",
    "city_kana": null,
    "town": "大宇陀区迫間",
    "town_kana": null,
    "street": "２５番地",
    "office_name": "宇陀市大宇陀地域事務所",
    "office_name_kana": "ウダシオオウダチイキジムシヨ"
  },
  "2201": {
    "zip_code": "6332201",
    "prefecture": "奈良県",
    "prefecture_kana": "ナラケン",
    "prefecture_code": "29",
    "city": "宇陀市",
    "city_kana": "ウダシ",
    "town": "菟田野平井",
    "town_kana": "ウタノヒライ",
    "street": null,
    "office_name": null,
    "office_name_kana": null
  },
  "2202": {
    "zip_code": "6332202",
    "prefecture": "奈良県",
    "prefecture_kana": "ナラケン",
    "prefecture_code": "29",
    "city": "宇陀市",
    "city_kana": "ウダシ",
    "town": "菟田野大神",
    "town_kana": "ウタノオオガミ",
    "street": null,
    "office_name": null,
    "office_name_kana": null
  },
  "2203": {
    "zip_code": "6332203",
    "prefecture": "奈良県",
    "prefecture_kana": "ナラケン",
    "prefecture_code": "29",
    "city": "宇陀市",
    "city_kana": "ウダシ",
    "town": "菟田野見田",
    "town_kana": "ウタノミタ",
    "street": null,
    "office_name": null,
    "office_name_kana": null
  },
  "2204": {
    "zip_code": "6332204",
    "prefecture": "奈良県",
    "prefecture_kana": "ナラケン",
    "prefecture_code": "29",
    "city": "宇陀市",
    "city_kana": "ウダシ",
    "town": "菟田野大澤",
    "town_kana": "ウタノオオサワ",
    "street": null,
    "office_name": null,
    "office_name_kana": null
  },
  "2205": {
    "zip_code": "6332205",
    "prefecture": "奈良県",
    "prefecture_kana": "ナラケン",
    "prefecture_code": "29",
    "city": "宇陀市",
    "city_kana": "ウダシ",
    "town": "菟田野別所",
    "town_kana": "ウタノベッショ",
    "street": null,
    "office_name": null,
    "office_name_kana": null
  },
  "2211": {
    "zip_code": "6332211",
    "prefecture": "奈良県",
    "prefecture_kana": "ナラケン",
    "prefecture_code": "29",
    "city": "宇陀市",
    "city_kana": "ウダシ",
    "town": "菟田野入谷",
    "town_kana": "ウタノニュウダニ",
    "street": null,
    "office_name": null,
    "office_name_kana": null
  },
  "2212": {
    "zip_code": "6332212",
    "prefecture": "奈良県",
    "prefecture_kana": "ナラケン",
    "prefecture_code": "29",
    "city": "宇陀市",
    "city_kana": "ウダシ",
    "town": "菟田野下芳野",
    "town_kana": "ウタノシモホウノ",
    "street": null,
    "office_name": null,
    "office_name_kana": null
  },
  "2213": {
    "zip_code": "6332213",
    "prefecture": "奈良県",
    "prefecture_kana": "ナラケン",
    "prefecture_code": "29",
    "city": "宇陀市",
    "city_kana": "ウダシ",
    "town": "菟田野上芳野",
    "town_kana": "ウタノカミホウノ",
    "street": null,
    "office_name": null,
    "office_name_kana": null
  },
  "2214": {
    "zip_code": "6332214",
    "prefecture": "奈良県",
    "prefecture_kana": "ナラケン",
    "prefecture_code": "29",
    "city": "宇陀市",
    "city_kana": "ウダシ",
    "town": "菟田野岩端",
    "town_kana": "ウタノイワハシ",
    "street": null,
    "office_name": null,
    "office_name_kana": null
  },
  "2215": {
    "zip_code": "6332215",
    "prefecture": "奈良県",
    "prefecture_kana": "ナラケン",
    "prefecture_code": "29",
    "city": "宇陀市",
    "city_kana": "ウダシ",
    "town": "菟田野東郷",
    "town_kana": "ウタノトウゴウ",
    "street": null,
    "office_name": null,
    "office_name_kana": null
  },
  "2221": {
    "zip_code": "6332221",
    "prefecture": "奈良県",
    "prefecture_kana": "ナラケン",
    "prefecture_code": "29",
    "city": "宇陀市",
    "city_kana": "ウダシ",
    "town": "菟田野松井",
    "town_kana": "ウタノマツイ",
    "street": null,
    "office_name": null,
    "office_name_kana": null
  },
  "2222": {
    "zip_code": "6332222",
    "prefecture": "奈良県",
    "prefecture_kana": "ナラケン",
    "prefecture_code": "29",
    "city": "宇陀市",
    "city_kana": "ウダシ",
    "town": "菟田野駒帰",
    "town_kana": "ウタノコマガエリ",
    "street": null,
    "office_name": null,
    "office_name_kana": null
  },
  "2223": {
    "zip_code": "6332223",
    "prefecture": "奈良県",
    "prefecture_kana": "ナラケン",
    "prefecture_code": "29",
    "city": "宇陀市",
    "city_kana": "ウダシ",
    "town": "菟田野宇賀志",
    "town_kana": "ウタノウカシ",
    "street": null,
    "office_name": null,
    "office_name_kana": null
  },
  "2224": {
    "zip_code": "6332224",
    "prefecture": "奈良県",
    "prefecture_kana": "ナラケン",
    "prefecture_code": "29",
    "city": "宇陀市",
    "city_kana": "ウダシ",
    "town": "菟田野佐倉",
    "town_kana": "ウタノサクラ",
    "street": null,
    "office_name": null,
    "office_name_kana": null
  },
  "2225": {
    "zip_code": "6332225",
    "prefecture": "奈良県",
    "prefecture_kana": "ナラケン",
    "prefecture_code": "29",
    "city": "宇陀市",
    "city_kana": "ウダシ",
    "town": "菟田野稲戸",
    "town_kana": "ウタノイナド",
    "street": null,
    "office_name": null,
    "office_name_kana": null
  },
  "2226": {
    "zip_code": "6332226",
    "prefecture": "奈良県",
    "prefecture_kana": "ナラケン",
    "prefecture_code": "29",
    "city": "宇陀市",
    "city_kana": "ウダシ",
    "town": "菟田野古市場",
    "town_kana": "ウタノフルイチバ",
    "street": null,
    "office_name": null,
    "office_name_kana": null
  },
  "2227": {
    "zip_code": "6332227",
    "prefecture": "奈良県",
    "prefecture_kana": "ナラケン",
    "prefecture_code": "29",
    "city": "宇陀市",
    "city_kana": "ウダシ",
    "town": "菟田野岩崎",
    "town_kana": "ウタノイワサキ",
    "street": null,
    "office_name": null,
    "office_name_kana": null
  },
  "2301": {
    "zip_code": "6332301",
    "prefecture": "奈良県",
    "prefecture_kana": "ナラケン",
    "prefecture_code": "29",
    "city": "吉野郡東吉野村",
    "city_kana": "ヨシノグンヒガシヨシノムラ",
    "town": "滝野",
    "town_kana": "タキノ",
    "street": null,
    "office_name": null,
    "office_name_kana": null
  },
  "2302": {
    "zip_code": "6332302",
    "prefecture": "奈良県",
    "prefecture_kana": "ナラケン",
    "prefecture_code": "29",
    "city": "吉野郡東吉野村",
    "city_kana": "ヨシノグンヒガシヨシノムラ",
    "town": "谷尻",
    "town_kana": "タニジリ",
    "street": null,
    "office_name": null,
    "office_name_kana": null
  },
  "2303": {
    "zip_code": "6332303",
    "prefecture": "奈良県",
    "prefecture_kana": "ナラケン",
    "prefecture_code": "29",
    "city": "吉野郡東吉野村",
    "city_kana": "ヨシノグンヒガシヨシノムラ",
    "town": "平野",
    "town_kana": "ヒラノ",
    "street": null,
    "office_name": null,
    "office_name_kana": null
  },
  "2304": {
    "zip_code": "6332304",
    "prefecture": "奈良県",
    "prefecture_kana": "ナラケン",
    "prefecture_code": "29",
    "city": "吉野郡東吉野村",
    "city_kana": "ヨシノグンヒガシヨシノムラ",
    "town": "杉谷",
    "town_kana": "スギタニ",
    "street": null,
    "office_name": null,
    "office_name_kana": null
  },
  "2311": {
    "zip_code": "6332311",
    "prefecture": "奈良県",
    "prefecture_kana": "ナラケン",
    "prefecture_code": "29",
    "city": "吉野郡東吉野村",
    "city_kana": "ヨシノグンヒガシヨシノムラ",
    "town": "木津",
    "town_kana": "コツ",
    "street": null,
    "office_name": null,
    "office_name_kana": null
  },
  "2312": {
    "zip_code": "6332312",
    "prefecture": "奈良県",
    "prefecture_kana": "ナラケン",
    "prefecture_code": "29",
    "city": "吉野郡東吉野村",
    "city_kana": "ヨシノグンヒガシヨシノムラ",
    "town": "伊豆尾",
    "town_kana": "イズオ",
    "street": null,
    "office_name": null,
    "office_name_kana": null
  },
  "2313": {
    "zip_code": "6332313",
    "prefecture": "奈良県",
    "prefecture_kana": "ナラケン",
    "prefecture_code": "29",
    "city": "吉野郡東吉野村",
    "city_kana": "ヨシノグンヒガシヨシノムラ",
    "town": "日裏",
    "town_kana": "ヒウラ",
    "street": null,
    "office_name": null,
    "office_name_kana": null
  },
  "2314": {
    "zip_code": "6332314",
    "prefecture": "奈良県",
    "prefecture_kana": "ナラケン",
    "prefecture_code": "29",
    "city": "吉野郡東吉野村",
    "city_kana": "ヨシノグンヒガシヨシノムラ",
    "town": "萩原",
    "town_kana": "ハギワラ",
    "street": null,
    "office_name": null,
    "office_name_kana": null
  },
  "2400": {
    "zip_code": "6332400",
    "prefecture": "奈良県",
    "prefecture_kana": "ナラケン",
    "prefecture_code": "29",
    "city": "吉野郡東吉野村",
    "city_kana": "ヨシノグンヒガシヨシノムラ",
    "town": "",
    "town_kana": "",
    "street": null,
    "office_name": null,
    "office_name_kana": null
  },
  "2421": {
    "zip_code": "6332421",
    "prefecture": "奈良県",
    "prefecture_kana": "ナラケン",
    "prefecture_code": "29",
    "city": "吉野郡東吉野村",
    "city_kana": "ヨシノグンヒガシヨシノムラ",
    "town": "小川",
    "town_kana": "オガワ",
    "street": null,
    "office_name": null,
    "office_name_kana": null
  },
  "2422": {
    "zip_code": "6332422",
    "prefecture": "奈良県",
    "prefecture_kana": "ナラケン",
    "prefecture_code": "29",
    "city": "吉野郡東吉野村",
    "city_kana": "ヨシノグンヒガシヨシノムラ",
    "town": "鷲家",
    "town_kana": "ワシカ",
    "street": null,
    "office_name": null,
    "office_name_kana": null
  },
  "2423": {
    "zip_code": "6332423",
    "prefecture": "奈良県",
    "prefecture_kana": "ナラケン",
    "prefecture_code": "29",
    "city": "吉野郡東吉野村",
    "city_kana": "ヨシノグンヒガシヨシノムラ",
    "town": "小栗栖",
    "town_kana": "コグリス",
    "street": null,
    "office_name": null,
    "office_name_kana": null
  },
  "2424": {
    "zip_code": "6332424",
    "prefecture": "奈良県",
    "prefecture_kana": "ナラケン",
    "prefecture_code": "29",
    "city": "吉野郡東吉野村",
    "city_kana": "ヨシノグンヒガシヨシノムラ",
    "town": "中黒",
    "town_kana": "ナカグロ",
    "street": null,
    "office_name": null,
    "office_name_kana": null
  },
  "2431": {
    "zip_code": "6332431",
    "prefecture": "奈良県",
    "prefecture_kana": "ナラケン",
    "prefecture_code": "29",
    "city": "吉野郡東吉野村",
    "city_kana": "ヨシノグンヒガシヨシノムラ",
    "town": "小",
    "town_kana": "オムラ",
    "street": null,
    "office_name": null,
    "office_name_kana": null
  },
  "2432": {
    "zip_code": "6332432",
    "prefecture": "奈良県",
    "prefecture_kana": "ナラケン",
    "prefecture_code": "29",
    "city": "吉野郡東吉野村",
    "city_kana": "ヨシノグンヒガシヨシノムラ",
    "town": "木津川",
    "town_kana": "コツガワ",
    "street": null,
    "office_name": null,
    "office_name_kana": null
  },
  "2433": {
    "zip_code": "6332433",
    "prefecture": "奈良県",
    "prefecture_kana": "ナラケン",
    "prefecture_code": "29",
    "city": "吉野郡東吉野村",
    "city_kana": "ヨシノグンヒガシヨシノムラ",
    "town": "三尾",
    "town_kana": "ミオ",
    "street": null,
    "office_name": null,
    "office_name_kana": null
  },
  "2441": {
    "zip_code": "6332441",
    "prefecture": "奈良県",
    "prefecture_kana": "ナラケン",
    "prefecture_code": "29",
    "city": "吉野郡東吉野村",
    "city_kana": "ヨシノグンヒガシヨシノムラ",
    "town": "狭戸",
    "town_kana": "セバト",
    "street": null,
    "office_name": null,
    "office_name_kana": null
  },
  "2442": {
    "zip_code": "6332442",
    "prefecture": "奈良県",
    "prefecture_kana": "ナラケン",
    "prefecture_code": "29",
    "city": "吉野郡東吉野村",
    "city_kana": "ヨシノグンヒガシヨシノムラ",
    "town": "大豆生",
    "town_kana": "マメオ",
    "street": null,
    "office_name": null,
    "office_name_kana": null
  },
  "2443": {
    "zip_code": "6332443",
    "prefecture": "奈良県",
    "prefecture_kana": "ナラケン",
    "prefecture_code": "29",
    "city": "吉野郡東吉野村",
    "city_kana": "ヨシノグンヒガシヨシノムラ",
    "town": "麦谷",
    "town_kana": "ムギタニ",
    "street": null,
    "office_name": null,
    "office_name_kana": null
  },
  "2444": {
    "zip_code": "6332444",
    "prefecture": "奈良県",
    "prefecture_kana": "ナラケン",
    "prefecture_code": "29",
    "city": "吉野郡東吉野村",
    "city_kana": "ヨシノグンヒガシヨシノムラ",
    "town": "大又",
    "town_kana": "オオマタ",
    "street": null,
    "office_name": null,
    "office_name_kana": null
  },
  "2492": {
    "zip_code": "6332492",
    "prefecture": "奈良県",
    "prefecture_kana": null,
    "prefecture_code": null,
    "city": "吉野郡東吉野村",
    "city_kana": null,
    "town": "大字小川",
    "town_kana": null,
    "street": "",
    "office_name": "東吉野村役場",
    "office_name_kana": "ヒガシヨシノムラヤクバ"
  },
  "8501": {
    "zip_code": "6338501",
    "prefecture": "奈良県",
    "prefecture_kana": null,
    "prefecture_code": null,
    "city": "桜井市",
    "city_kana": null,
    "town": "大字谷",
    "town_kana": null,
    "street": "８８−１",
    "office_name": "桜井年金事務所",
    "office_name_kana": "サクライネンキンジムシヨ"
  },
  "8538": {
    "zip_code": "6338538",
    "prefecture": "奈良県",
    "prefecture_kana": null,
    "prefecture_code": null,
    "city": "桜井市",
    "city_kana": null,
    "town": "大字三輪",
    "town_kana": null,
    "street": "１４２２",
    "office_name": "大神神社",
    "office_name_kana": "オオミワジンジヤ"
  },
  "8585": {
    "zip_code": "6338585",
    "prefecture": "奈良県",
    "prefecture_kana": null,
    "prefecture_code": null,
    "city": "桜井市",
    "city_kana": null,
    "town": "大字粟殿",
    "town_kana": null,
    "street": "４３２−１",
    "office_name": "桜井市役所",
    "office_name_kana": "サクライシヤクシヨ"
  },
  "8686": {
    "zip_code": "6338686",
    "prefecture": "奈良県",
    "prefecture_kana": null,
    "prefecture_code": null,
    "city": "桜井市",
    "city_kana": null,
    "town": "大字桜井",
    "town_kana": null,
    "street": "２８１−１１（桜井郵便局私書箱第５号）",
    "office_name": "大和信用金庫",
    "office_name_kana": "ヤマトシンヨウキンコ"
  }
}