{
  "0000": {
    "zip_code": "6420000",
    "prefecture": "和歌山県",
    "prefecture_kana": "ワカヤマケン",
    "prefecture_code": "30",
    "city": "海南市",
    "city_kana": "カイナンシ",
    "town": "",
    "town_kana": "",
    "street": null,
    "office_name": null,
    "office_name_kana": null
  },
  "0001": {
    "zip_code": "6420001",
    "prefecture": "和歌山県",
    "prefecture_kana": "ワカヤマケン",
    "prefecture_code": "30",
    "city": "海南市",
    "city_kana": "カイナンシ",
    "town": "船尾",
    "town_kana": "フノオ",
    "street": null,
    "office_name": null,
    "office_name_kana": null
  },
  "0002": {
    "zip_code": "6420002",
    "prefecture": "和歌山県",
    "prefecture_kana": "ワカヤマケン",
    "prefecture_code": "30",
    "city": "海南市",
    "city_kana": "カイナンシ",
    "town": "日方",
    "town_kana": "ヒカタ",
    "street": null,
    "office_name": null,
    "office_name_kana": null
  },
  "0003": {
    "zip_code": "6420003",
    "prefecture": "和歌山県",
    "prefecture_kana": "ワカヤマケン",
    "prefecture_code": "30",
    "city": "海南市",
    "city_kana": "カイナンシ",
    "town": "山崎町",
    "town_kana": "ヤマサキチョウ",
    "street": null,
    "office_name": null,
    "office_name_kana": null
  },
  "0004": {
    "zip_code": "6420004",
    "prefecture": "和歌山県",
    "prefecture_kana": "ワカヤマケン",
    "prefecture_code": "30",
    "city": "海南市",
    "city_kana": "カイナンシ",
    "town": "馬場町",
    "town_kana": "ババチョウ",
    "street": null,
    "office_name": null,
    "office_name_kana": null
  },
  "0011": {
    "zip_code": "6420011",
    "prefecture": "和歌山県",
    "prefecture_kana": "ワカヤマケン",
    "prefecture_code": "30",
    "city": "海南市",
    "city_kana": "カイナンシ",
    "town": "黒江",
    "town_kana": "クロエ",
    "street": null,
    "office_name": null,
    "office_name_kana": null
  },
  "0012": {
    "zip_code": "6420012",
    "prefecture": "和歌山県",
    "prefecture_kana": "ワカヤマケン",
    "prefecture_code": "30",
    "city": "海南市",
    "city_kana": "カイナンシ",
    "town": "岡田",
    "town_kana": "オカダ",
    "street": null,
    "office_name": null,
    "office_name_kana": null
  },
  "0013": {
    "zip_code": "6420013",
    "prefecture": "和歌山県",
    "prefecture_kana": "ワカヤマケン",
    "prefecture_code": "30",
    "city": "海南市",
    "city_kana": "カイナンシ",
    "town": "多田",
    "town_kana": "オオタ",
    "street": null,
    "office_name": null,
    "office_name_kana": null
  },
  "0014": {
    "zip_code": "6420014",
    "prefecture": "和歌山県",
    "prefecture_kana": "ワカヤマケン",
    "prefecture_code": "30",
    "city": "海南市",
    "city_kana": "カイナンシ",
    "town": "小野田",
    "town_kana": "オノダ",
    "street": null,
    "office_name": null,
    "office_name_kana": null
  },
  "0015": {
    "zip_code": "6420015",
    "prefecture": "和歌山県",
    "prefecture_kana": "ワカヤマケン",
    "prefecture_code": "30",
    "city": "海南市",
    "city_kana": "カイナンシ",
    "town": "且来",
    "town_kana": "アッソ",
    "street": null,
    "office_name": null,
    "office_name_kana": null
  },
  "0016": {
    "zip_code": "6420016",
    "prefecture": "和歌山県",
    "prefecture_kana": "ワカヤマケン",
    "prefecture_code": "30",
    "city": "海南市",
    "city_kana": "カイナンシ",
    "town": "北赤坂",
    "town_kana": "キタアカサカ",
    "street": null,
    "office_name": null,
    "office_name_kana": null
  },
  "0017": {
    "zip_code": "6420017",
    "prefecture": "和歌山県",
    "prefecture_kana": "ワカヤマケン",
    "prefecture_code": "30",
    "city": "海南市",
    "city_kana": "カイナンシ",
    "town": "南赤坂",
    "town_kana": "ミナミアカサカ",
    "street": null,
    "office_name": null,
    "office_name_kana": null
  },
  "0018": {
    "zip_code": "6420018",
    "prefecture": "和歌山県",
    "prefecture_kana": "ワカヤマケン",
    "prefecture_code": "30",
    "city": "海南市",
    "city_kana": "カイナンシ",
    "town": "重根東",
    "town_kana": "シコネヒガシ",
    "street": null,
    "office_name": null,
    "office_name_kana": null
  },
  "0019": {
    "zip_code": "6420019",
    "prefecture": "和歌山県",
    "prefecture_kana": "ワカヤマケン",
    "prefecture_code": "30",
    "city": "海南市",
    "city_kana": "カイナンシ",
    "town": "重根西",
    "town_kana": "シコネニシ",
    "street": null,
    "office_name": null,
    "office_name_kana": null
  },
  "0021": {
    "zip_code": "6420021",
    "prefecture": "和歌山県",
    "prefecture_kana": "ワカヤマケン",
    "prefecture_code": "30",
    "city": "海南市",
    "city_kana": "カイナンシ",
    "town": "井田",
    "town_kana": "イダ",
    "street": null,
    "office_name": null,
    "office_name_kana": null
  },
  "0022": {
    "zip_code": "6420022",
    "prefecture": "和歌山県",
    "prefecture_kana": "ワカヤマケン",
    "prefecture_code": "30",
    "city": "海南市",
    "city_kana": "カイナンシ",
    "town": "大野中",
    "town_kana": "オオノナカ",
    "street": null,
    "office_name": null,
    "office_name_kana": null
  },
  "0023": {
    "zip_code": "6420023",
    "prefecture": "和歌山県",
    "prefecture_kana": "ワカヤマケン",
    "prefecture_code": "30",
    "city": "海南市",
    "city_kana": "カイナンシ",
    "town": "重根",
    "town_kana": "シコネ",
    "street": null,
    "office_name": null,
    "office_name_kana": null
  },
  "0024": {
    "zip_code": "6420024",
    "prefecture": "和歌山県",
    "prefecture_kana": "ワカヤマケン",
    "prefecture_code": "30",
    "city": "海南市",
    "city_kana": "カイナンシ",
    "town": "阪井",
    "town_kana": "サカイ",
    "street": null,
    "office_name": null,
    "office_name_kana": null
  },
  "0025": {
    "zip_code": "6420025",
    "prefecture": "和歌山県",
    "prefecture_kana": "ワカヤマケン",
    "prefecture_code": "30",
    "city": "海南市",
    "city_kana": "カイナンシ",
    "town": "東畑",
    "town_kana": "ヒガシバタ",
    "street": null,
    "office_name": null,
    "office_name_kana": null
  },
  "0026": {
    "zip_code": "6420026",
    "prefecture": "和歌山県",
    "prefecture_kana": "ワカヤマケン",
    "prefecture_code": "30",
    "city": "海南市",
    "city_kana": "カイナンシ",
    "town": "別所",
    "town_kana": "ベッシヨ",
    "street": null,
    "office_name": null,
    "office_name_kana": null
  },
  "0027": {
    "zip_code": "6420027",
    "prefecture": "和歌山県",
    "prefecture_kana": "ワカヤマケン",
    "prefecture_code": "30",
    "city": "海南市",
    "city_kana": "カイナンシ",
    "town": "扱沢",
    "town_kana": "グミザワ",
    "street": null,
    "office_name": null,
    "office_name_kana": null
  },
  "0028": {
    "zip_code": "6420028",
    "prefecture": "和歌山県",
    "prefecture_kana": "ワカヤマケン",
    "prefecture_code": "30",
    "city": "海南市",
    "city_kana": "カイナンシ",
    "town": "幡川",
    "town_kana": "ハタガワ",
    "street": null,
    "office_name": null,
    "office_name_kana": null
  },
  "0029": {
    "zip_code": "6420029",
    "prefecture": "和歌山県",
    "prefecture_kana": "ワカヤマケン",
    "prefecture_code": "30",
    "city": "海南市",
    "city_kana": "カイナンシ",
    "town": "山田",
    "town_kana": "ヤマダ",
    "street": null,
    "office_name": null,
    "office_name_kana": null
  },
  "0031": {
    "zip_code": "6420031",
    "prefecture": "和歌山県",
    "prefecture_kana": "ワカヤマケン",
    "prefecture_code": "30",
    "city": "海南市",
    "city_kana": "カイナンシ",
    "town": "築地",
    "town_kana": "ツキジ",
    "street": null,
    "office_name": null,
    "office_name_kana": null
  },
  "0032": {
    "zip_code": "6420032",
    "prefecture": "和歌山県",
    "prefecture_kana": "ワカヤマケン",
    "prefecture_code": "30",
    "city": "海南市",
    "city_kana": "カイナンシ",
    "town": "名高",
    "town_kana": "ナタカ",
    "street": null,
    "office_name": null,
    "office_name_kana": null
  },
  "0033": {
    "zip_code": "6420033",
    "prefecture": "和歌山県",
    "prefecture_kana": "ワカヤマケン",
    "prefecture_code": "30",
    "city": "海南市",
    "city_kana": "カイナンシ",
    "town": "鳥居",
    "town_kana": "トリイ",
    "street": null,
    "office_name": null,
    "office_name_kana": null
  },
  "0034": {
    "zip_code": "6420034",
    "prefecture": "和歌山県",
    "prefecture_kana": "ワカヤマケン",
    "prefecture_code": "30",
    "city": "海南市",
    "city_kana": "カイナンシ",
    "town": "藤白",
    "town_kana": "フジシロ",
    "street": null,
    "office_name": null,
    "office_name_kana": null
  },
  "0035": {
    "zip_code": "6420035",
    "prefecture": "和歌山県",
    "prefecture_kana": "ワカヤマケン",
    "prefecture_code": "30",
    "city": "海南市",
    "city_kana": "カイナンシ",
    "town": "冷水",
    "town_kana": "シミズ",
    "street": null,
    "office_name": null,
    "office_name_kana": null
  },
  "8501": {
    "zip_code": "6428501",
    "prefecture": "和歌山県",
    "prefecture_kana": "ワカヤマケン",
    "prefecture_code": "30",
    "city": "海南市",
    "city_kana": "カイナンシ",
    "town": "日方",
    "town_kana": "ヒカタ",
    "street": "１５２５−６",
    "office_name": "海南市役所",
    "office_name_kana": "カイナンシヤクシヨ"
  }
}