{
  "0000": {
    "zip_code": "6460000",
    "prefecture": "和歌山県",
    "prefecture_kana": "ワカヤマケン",
    "prefecture_code": 30,
    "city": "田辺市",
    "city_kana": "タナベシ",
    "town": "",
    "town_kana": "",
    "street": null,
    "office_name": null,
    "office_name_kana": null
  },
  "0001": {
    "zip_code": "6460001",
    "prefecture": "和歌山県",
    "prefecture_kana": "ワカヤマケン",
    "prefecture_code": 30,
    "city": "田辺市",
    "city_kana": "タナベシ",
    "town": "上秋津",
    "town_kana": "カミアキヅ",
    "street": null,
    "office_name": null,
    "office_name_kana": null
  },
  "0002": {
    "zip_code": "6460002",
    "prefecture": "和歌山県",
    "prefecture_kana": "ワカヤマケン",
    "prefecture_code": 30,
    "city": "田辺市",
    "city_kana": "タナベシ",
    "town": "上万呂",
    "town_kana": "カミマロ",
    "street": null,
    "office_name": null,
    "office_name_kana": null
  },
  "0003": {
    "zip_code": "6460003",
    "prefecture": "和歌山県",
    "prefecture_kana": "ワカヤマケン",
    "prefecture_code": 30,
    "city": "田辺市",
    "city_kana": "タナベシ",
    "town": "中万呂",
    "town_kana": "ナカマロ",
    "street": null,
    "office_name": null,
    "office_name_kana": null
  },
  "0004": {
    "zip_code": "6460004",
    "prefecture": "和歌山県",
    "prefecture_kana": "ワカヤマケン",
    "prefecture_code": 30,
    "city": "田辺市",
    "city_kana": "タナベシ",
    "town": "下万呂",
    "town_kana": "シモマロ",
    "street": null,
    "office_name": null,
    "office_name_kana": null
  },
  "0005": {
    "zip_code": "6460005",
    "prefecture": "和歌山県",
    "prefecture_kana": "ワカヤマケン",
    "prefecture_code": 30,
    "city": "田辺市",
    "city_kana": "タナベシ",
    "town": "秋津町",
    "town_kana": "アキヅチョウ",
    "street": null,
    "office_name": null,
    "office_name_kana": null
  },
  "0011": {
    "zip_code": "6460011",
    "prefecture": "和歌山県",
    "prefecture_kana": "ワカヤマケン",
    "prefecture_code": 30,
    "city": "田辺市",
    "city_kana": "タナベシ",
    "town": "新庄町",
    "town_kana": "シンジョウチョウ",
    "street": null,
    "office_name": null,
    "office_name_kana": null
  },
  "0012": {
    "zip_code": "6460012",
    "prefecture": "和歌山県",
    "prefecture_kana": "ワカヤマケン",
    "prefecture_code": 30,
    "city": "田辺市",
    "city_kana": "タナベシ",
    "town": "神島台",
    "town_kana": "カシマダイ",
    "street": null,
    "office_name": null,
    "office_name_kana": null
  },
  "0013": {
    "zip_code": "6460013",
    "prefecture": "和歌山県",
    "prefecture_kana": "ワカヤマケン",
    "prefecture_code": 30,
    "city": "田辺市",
    "city_kana": "タナベシ",
    "town": "南新万",
    "town_kana": "ミナミシンマン",
    "street": null,
    "office_name": null,
    "office_name_kana": null
  },
  "0014": {
    "zip_code": "6460014",
    "prefecture": "和歌山県",
    "prefecture_kana": "ワカヤマケン",
    "prefecture_code": 30,
    "city": "田辺市",
    "city_kana": "タナベシ",
    "town": "新万",
    "town_kana": "シンマン",
    "street": null,
    "office_name": null,
    "office_name_kana": null
  },
  "0015": {
    "zip_code": "6460015",
    "prefecture": "和歌山県",
    "prefecture_kana": "ワカヤマケン",
    "prefecture_code": 30,
    "city": "田辺市",
    "city_kana": "タナベシ",
    "town": "たきない町",
    "town_kana": "タキナイチョウ",
    "street": null,
    "office_name": null,
    "office_name_kana": null
  },
  "0021": {
    "zip_code": "6460021",
    "prefecture": "和歌山県",
    "prefecture_kana": "ワカヤマケン",
    "prefecture_code": 30,
    "city": "田辺市",
    "city_kana": "タナベシ",
    "town": "あけぼの",
    "town_kana": "アケボノ",
    "street": null,
    "office_name": null,
    "office_name_kana": null
  },
  "0022": {
    "zip_code": "6460022",
    "prefecture": "和歌山県",
    "prefecture_kana": "ワカヤマケン",
    "prefecture_code": 30,
    "city": "田辺市",
    "city_kana": "タナベシ",
    "town": "東山",
    "town_kana": "ヒガシヤマ",
    "street": null,
    "office_name": null,
    "office_name_kana": null
  },
  "0023": {
    "zip_code": "6460023",
    "prefecture": "和歌山県",
    "prefecture_kana": "ワカヤマケン",
    "prefecture_code": 30,
    "city": "田辺市",
    "city_kana": "タナベシ",
    "town": "文里",
    "town_kana": "モリ",
    "street": null,
    "office_name": null,
    "office_name_kana": null
  },
  "0024": {
    "zip_code": "6460024",
    "prefecture": "和歌山県",
    "prefecture_kana": "ワカヤマケン",
    "prefecture_code": 30,
    "city": "田辺市",
    "city_kana": "タナベシ",
    "town": "学園",
    "town_kana": "ガクエン",
    "street": null,
    "office_name": null,
    "office_name_kana": null
  },
  "0025": {
    "zip_code": "6460025",
    "prefecture": "和歌山県",
    "prefecture_kana": "ワカヤマケン",
    "prefecture_code": 30,
    "city": "田辺市",
    "city_kana": "タナベシ",
    "town": "神子浜",
    "town_kana": "ミコノハマ",
    "street": null,
    "office_name": null,
    "office_name_kana": null
  },
  "0026": {
    "zip_code": "6460026",
    "prefecture": "和歌山県",
    "prefecture_kana": "ワカヤマケン",
    "prefecture_code": 30,
    "city": "田辺市",
    "city_kana": "タナベシ",
    "town": "宝来町",
    "town_kana": "ホウライチョウ",
    "street": null,
    "office_name": null,
    "office_name_kana": null
  },
  "0027": {
    "zip_code": "6460027",
    "prefecture": "和歌山県",
    "prefecture_kana": "ワカヤマケン",
    "prefecture_code": 30,
    "city": "田辺市",
    "city_kana": "タナベシ",
    "town": "朝日ヶ丘",
    "town_kana": "アサヒガオカ",
    "street": null,
    "office_name": null,
    "office_name_kana": null
  },
  "0028": {
    "zip_code": "6460028",
    "prefecture": "和歌山県",
    "prefecture_kana": "ワカヤマケン",
    "prefecture_code": 30,
    "city": "田辺市",
    "city_kana": "タナベシ",
    "town": "高雄",
    "town_kana": "タカオ",
    "street": null,
    "office_name": null,
    "office_name_kana": null
  },
  "0029": {
    "zip_code": "6460029",
    "prefecture": "和歌山県",
    "prefecture_kana": "ワカヤマケン",
    "prefecture_code": 30,
    "city": "田辺市",
    "city_kana": "タナベシ",
    "town": "東陽",
    "town_kana": "トウヨウ",
    "street": null,
    "office_name": null,
    "office_name_kana": null
  },
  "0031": {
    "zip_code": "6460031",
    "prefecture": "和歌山県",
    "prefecture_kana": "ワカヤマケン",
    "prefecture_code": 30,
    "city": "田辺市",
    "city_kana": "タナベシ",
    "town": "湊",
    "town_kana": "ミナト",
    "street": null,
    "office_name": null,
    "office_name_kana": null
  },
  "0032": {
    "zip_code": "6460032",
    "prefecture": "和歌山県",
    "prefecture_kana": "ワカヤマケン",
    "prefecture_code": 30,
    "city": "田辺市",
    "city_kana": "タナベシ",
    "town": "下屋敷町",
    "town_kana": "シモヤシキマチ",
    "street": null,
    "office_name": null,
    "office_name_kana": null
  },
  "0033": {
    "zip_code": "6460033",
    "prefecture": "和歌山県",
    "prefecture_kana": "ワカヤマケン",
    "prefecture_code": 30,
    "city": "田辺市",
    "city_kana": "タナベシ",
    "town": "新屋敷町",
    "town_kana": "シンヤシキマチ",
    "street": null,
    "office_name": null,
    "office_name_kana": null
  },
  "0034": {
    "zip_code": "6460034",
    "prefecture": "和歌山県",
    "prefecture_kana": "ワカヤマケン",
    "prefecture_code": 30,
    "city": "田辺市",
    "city_kana": "タナベシ",
    "town": "扇ケ浜",
    "town_kana": "オウギガハマ",
    "street": null,
    "office_name": null,
    "office_name_kana": null
  },
  "0035": {
    "zip_code": "6460035",
    "prefecture": "和歌山県",
    "prefecture_kana": "ワカヤマケン",
    "prefecture_code": 30,
    "city": "田辺市",
    "city_kana": "タナベシ",
    "town": "中屋敷町",
    "town_kana": "ナカヤシキマチ",
    "street": null,
    "office_name": null,
    "office_name_kana": null
  },
  "0036": {
    "zip_code": "6460036",
    "prefecture": "和歌山県",
    "prefecture_kana": "ワカヤマケン",
    "prefecture_code": 30,
    "city": "田辺市",
    "city_kana": "タナベシ",
    "town": "上屋敷",
    "town_kana": "カミヤシキ",
    "street": null,
    "office_name": null,
    "office_name_kana": null
  },
  "0037": {
    "zip_code": "6460037",
    "prefecture": "和歌山県",
    "prefecture_kana": "ワカヤマケン",
    "prefecture_code": 30,
    "city": "田辺市",
    "city_kana": "タナベシ",
    "town": "磯間",
    "town_kana": "イソマ",
    "street": null,
    "office_name": null,
    "office_name_kana": null
  },
  "0038": {
    "zip_code": "6460038",
    "prefecture": "和歌山県",
    "prefecture_kana": "ワカヤマケン",
    "prefecture_code": 30,
    "city": "田辺市",
    "city_kana": "タナベシ",
    "town": "末広町",
    "town_kana": "スエヒロチョウ",
    "street": null,
    "office_name": null,
    "office_name_kana": null
  },
  "0041": {
    "zip_code": "6460041",
    "prefecture": "和歌山県",
    "prefecture_kana": "ワカヤマケン",
    "prefecture_code": 30,
    "city": "田辺市",
    "city_kana": "タナベシ",
    "town": "北新町",
    "town_kana": "キタシンマチ",
    "street": null,
    "office_name": null,
    "office_name_kana": null
  },
  "0042": {
    "zip_code": "6460042",
    "prefecture": "和歌山県",
    "prefecture_kana": "ワカヤマケン",
    "prefecture_code": 30,
    "city": "田辺市",
    "city_kana": "タナベシ",
    "town": "南新町",
    "town_kana": "ミナミシンマチ",
    "street": null,
    "office_name": null,
    "office_name_kana": null
  },
  "0043": {
    "zip_code": "6460043",
    "prefecture": "和歌山県",
    "prefecture_kana": "ワカヤマケン",
    "prefecture_code": 30,
    "city": "田辺市",
    "city_kana": "タナベシ",
    "town": "今福町",
    "town_kana": "イマフクマチ",
    "street": null,
    "office_name": null,
    "office_name_kana": null
  },
  "0044": {
    "zip_code": "6460044",
    "prefecture": "和歌山県",
    "prefecture_kana": "ワカヤマケン",
    "prefecture_code": 30,
    "city": "田辺市",
    "city_kana": "タナベシ",
    "town": "福路町",
    "town_kana": "フクロマチ",
    "street": null,
    "office_name": null,
    "office_name_kana": null
  },
  "0045": {
    "zip_code": "6460045",
    "prefecture": "和歌山県",
    "prefecture_kana": "ワカヤマケン",
    "prefecture_code": 30,
    "city": "田辺市",
    "city_kana": "タナベシ",
    "town": "片町",
    "town_kana": "カタマチ",
    "street": null,
    "office_name": null,
    "office_name_kana": null
  },
  "0046": {
    "zip_code": "6460046",
    "prefecture": "和歌山県",
    "prefecture_kana": "ワカヤマケン",
    "prefecture_code": 30,
    "city": "田辺市",
    "city_kana": "タナベシ",
    "town": "本町",
    "town_kana": "ホンマチ",
    "street": null,
    "office_name": null,
    "office_name_kana": null
  },
  "0047": {
    "zip_code": "6460047",
    "prefecture": "和歌山県",
    "prefecture_kana": "ワカヤマケン",
    "prefecture_code": 30,
    "city": "田辺市",
    "city_kana": "タナベシ",
    "town": "紺屋町",
    "town_kana": "コンヤマチ",
    "street": null,
    "office_name": null,
    "office_name_kana": null
  },
  "0048": {
    "zip_code": "6460048",
    "prefecture": "和歌山県",
    "prefecture_kana": "ワカヤマケン",
    "prefecture_code": 30,
    "city": "田辺市",
    "city_kana": "タナベシ",
    "town": "栄町",
    "town_kana": "サカエマチ",
    "street": null,
    "office_name": null,
    "office_name_kana": null
  },
  "0050": {
    "zip_code": "6460050",
    "prefecture": "和歌山県",
    "prefecture_kana": "ワカヤマケン",
    "prefecture_code": 30,
    "city": "田辺市",
    "city_kana": "タナベシ",
    "town": "天神崎",
    "town_kana": "テンジンザキ",
    "street": null,
    "office_name": null,
    "office_name_kana": null
  },
  "0051": {
    "zip_code": "6460051",
    "prefecture": "和歌山県",
    "prefecture_kana": "ワカヤマケン",
    "prefecture_code": 30,
    "city": "田辺市",
    "city_kana": "タナベシ",
    "town": "稲成町",
    "town_kana": "イナリチョウ",
    "street": null,
    "office_name": null,
    "office_name_kana": null
  },
  "0052": {
    "zip_code": "6460052",
    "prefecture": "和歌山県",
    "prefecture_kana": "ワカヤマケン",
    "prefecture_code": 30,
    "city": "田辺市",
    "city_kana": "タナベシ",
    "town": "むつみ",
    "town_kana": "ムツミ",
    "street": null,
    "office_name": null,
    "office_name_kana": null
  },
  "0053": {
    "zip_code": "6460053",
    "prefecture": "和歌山県",
    "prefecture_kana": "ワカヤマケン",
    "prefecture_code": 30,
    "city": "田辺市",
    "city_kana": "タナベシ",
    "town": "元町",
    "town_kana": "モトマチ",
    "street": null,
    "office_name": null,
    "office_name_kana": null
  },
  "0054": {
    "zip_code": "6460054",
    "prefecture": "和歌山県",
    "prefecture_kana": "ワカヤマケン",
    "prefecture_code": 30,
    "city": "田辺市",
    "city_kana": "タナベシ",
    "town": "江川",
    "town_kana": "エガワ",
    "street": null,
    "office_name": null,
    "office_name_kana": null
  },
  "0056": {
    "zip_code": "6460056",
    "prefecture": "和歌山県",
    "prefecture_kana": "ワカヤマケン",
    "prefecture_code": 30,
    "city": "田辺市",
    "city_kana": "タナベシ",
    "town": "芳養町",
    "town_kana": "ハヤチョウ",
    "street": null,
    "office_name": null,
    "office_name_kana": null
  },
  "0057": {
    "zip_code": "6460057",
    "prefecture": "和歌山県",
    "prefecture_kana": "ワカヤマケン",
    "prefecture_code": 30,
    "city": "田辺市",
    "city_kana": "タナベシ",
    "town": "中芳養",
    "town_kana": "ナカハヤ",
    "street": null,
    "office_name": null,
    "office_name_kana": null
  },
  "0058": {
    "zip_code": "6460058",
    "prefecture": "和歌山県",
    "prefecture_kana": "ワカヤマケン",
    "prefecture_code": 30,
    "city": "田辺市",
    "city_kana": "タナベシ",
    "town": "目良",
    "town_kana": "メラ",
    "street": null,
    "office_name": null,
    "office_name_kana": null
  },
  "0059": {
    "zip_code": "6460059",
    "prefecture": "和歌山県",
    "prefecture_kana": "ワカヤマケン",
    "prefecture_code": 30,
    "city": "田辺市",
    "city_kana": "タナベシ",
    "town": "古尾",
    "town_kana": "フルオ",
    "street": null,
    "office_name": null,
    "office_name_kana": null
  },
  "0061": {
    "zip_code": "6460061",
    "prefecture": "和歌山県",
    "prefecture_kana": "ワカヤマケン",
    "prefecture_code": 30,
    "city": "田辺市",
    "city_kana": "タナベシ",
    "town": "上の山",
    "town_kana": "ウエノヤマ",
    "street": null,
    "office_name": null,
    "office_name_kana": null
  },
  "0062": {
    "zip_code": "6460062",
    "prefecture": "和歌山県",
    "prefecture_kana": "ワカヤマケン",
    "prefecture_code": 30,
    "city": "田辺市",
    "city_kana": "タナベシ",
    "town": "明洋",
    "town_kana": "メイヨウ",
    "street": null,
    "office_name": null,
    "office_name_kana": null
  },
  "0063": {
    "zip_code": "6460063",
    "prefecture": "和歌山県",
    "prefecture_kana": "ワカヤマケン",
    "prefecture_code": 30,
    "city": "田辺市",
    "city_kana": "タナベシ",
    "town": "芳養松原",
    "town_kana": "ハヤマツバラ",
    "street": null,
    "office_name": null,
    "office_name_kana": null
  },
  "0101": {
    "zip_code": "6460101",
    "prefecture": "和歌山県",
    "prefecture_kana": "ワカヤマケン",
    "prefecture_code": 30,
    "city": "田辺市",
    "city_kana": "タナベシ",
    "town": "上芳養",
    "town_kana": "カミハヤ",
    "street": null,
    "office_name": null,
    "office_name_kana": null
  },
  "0102": {
    "zip_code": "6460102",
    "prefecture": "和歌山県",
    "prefecture_kana": "ワカヤマケン",
    "prefecture_code": 30,
    "city": "田辺市",
    "city_kana": "タナベシ",
    "town": "秋津川",
    "town_kana": "アキヅガワ",
    "street": null,
    "office_name": null,
    "office_name_kana": null
  },
  "0211": {
    "zip_code": "6460211",
    "prefecture": "和歌山県",
    "prefecture_kana": "ワカヤマケン",
    "prefecture_code": 30,
    "city": "田辺市",
    "city_kana": "タナベシ",
    "town": "伏菟野",
    "town_kana": "フドノ",
    "street": null,
    "office_name": null,
    "office_name_kana": null
  },
  "0212": {
    "zip_code": "6460212",
    "prefecture": "和歌山県",
    "prefecture_kana": "ワカヤマケン",
    "prefecture_code": 30,
    "city": "田辺市",
    "city_kana": "タナベシ",
    "town": "上野",
    "town_kana": "ウエノ",
    "street": null,
    "office_name": null,
    "office_name_kana": null
  },
  "0213": {
    "zip_code": "6460213",
    "prefecture": "和歌山県",
    "prefecture_kana": "ワカヤマケン",
    "prefecture_code": 30,
    "city": "田辺市",
    "city_kana": "タナベシ",
    "town": "長野",
    "town_kana": "ナガノ",
    "street": null,
    "office_name": null,
    "office_name_kana": null
  },
  "0214": {
    "zip_code": "6460214",
    "prefecture": "和歌山県",
    "prefecture_kana": "ワカヤマケン",
    "prefecture_code": 30,
    "city": "田辺市",
    "city_kana": "タナベシ",
    "town": "上三栖",
    "town_kana": "カミミス",
    "street": null,
    "office_name": null,
    "office_name_kana": null
  },
  "0215": {
    "zip_code": "6460215",
    "prefecture": "和歌山県",
    "prefecture_kana": "ワカヤマケン",
    "prefecture_code": 30,
    "city": "田辺市",
    "city_kana": "タナベシ",
    "town": "中三栖",
    "town_kana": "ナカミス",
    "street": null,
    "office_name": null,
    "office_name_kana": null
  },
  "0216": {
    "zip_code": "6460216",
    "prefecture": "和歌山県",
    "prefecture_kana": "ワカヤマケン",
    "prefecture_code": 30,
    "city": "田辺市",
    "city_kana": "タナベシ",
    "town": "下三栖",
    "town_kana": "シモミス",
    "street": null,
    "office_name": null,
    "office_name_kana": null
  },
  "0217": {
    "zip_code": "6460217",
    "prefecture": "和歌山県",
    "prefecture_kana": "ワカヤマケン",
    "prefecture_code": 30,
    "city": "田辺市",
    "city_kana": "タナベシ",
    "town": "城山台",
    "town_kana": "シロヤマダイ",
    "street": null,
    "office_name": null,
    "office_name_kana": null
  },
  "0292": {
    "zip_code": "6460292",
    "prefecture": "和歌山県",
    "prefecture_kana": "ワカヤマケン",
    "prefecture_code": 30,
    "city": "田辺市",
    "city_kana": "タナベシ",
    "town": "下三栖",
    "town_kana": "シモミス",
    "street": "１４７５",
    "office_name": "中田食品　株式会社・株式会社　ナカタ",
    "office_name_kana": "ナカタシヨクヒン カブシキガイシヤ・カブシキガイシヤ ナカタ"
  },
  "0301": {
    "zip_code": "6460301",
    "prefecture": "和歌山県",
    "prefecture_kana": "ワカヤマケン",
    "prefecture_code": 30,
    "city": "西牟婁郡白浜町",
    "city_kana": "ニシムログンシラハマチョウ",
    "town": "市鹿野",
    "town_kana": "イチカノ",
    "street": null,
    "office_name": null,
    "office_name_kana": null
  },
  "0302": {
    "zip_code": "6460302",
    "prefecture": "和歌山県",
    "prefecture_kana": "ワカヤマケン",
    "prefecture_code": 30,
    "city": "西牟婁郡白浜町",
    "city_kana": "ニシムログンシラハマチョウ",
    "town": "上露",
    "town_kana": "コウヅユ",
    "street": null,
    "office_name": null,
    "office_name_kana": null
  },
  "0303": {
    "zip_code": "6460303",
    "prefecture": "和歌山県",
    "prefecture_kana": "ワカヤマケン",
    "prefecture_code": 30,
    "city": "西牟婁郡白浜町",
    "city_kana": "ニシムログンシラハマチョウ",
    "town": "大瀬",
    "town_kana": "オオセ",
    "street": null,
    "office_name": null,
    "office_name_kana": null
  },
  "0304": {
    "zip_code": "6460304",
    "prefecture": "和歌山県",
    "prefecture_kana": "ワカヤマケン",
    "prefecture_code": 30,
    "city": "西牟婁郡白浜町",
    "city_kana": "ニシムログンシラハマチョウ",
    "town": "竹垣内",
    "town_kana": "タケガイト",
    "street": null,
    "office_name": null,
    "office_name_kana": null
  },
  "0305": {
    "zip_code": "6460305",
    "prefecture": "和歌山県",
    "prefecture_kana": "ワカヤマケン",
    "prefecture_code": 30,
    "city": "西牟婁郡白浜町",
    "city_kana": "ニシムログンシラハマチョウ",
    "town": "北谷",
    "town_kana": "キタダニ",
    "street": null,
    "office_name": null,
    "office_name_kana": null
  },
  "0311": {
    "zip_code": "6460311",
    "prefecture": "和歌山県",
    "prefecture_kana": "ワカヤマケン",
    "prefecture_code": 30,
    "city": "西牟婁郡白浜町",
    "city_kana": "ニシムログンシラハマチョウ",
    "town": "小房",
    "town_kana": "オブサ",
    "street": null,
    "office_name": null,
    "office_name_kana": null
  },
  "0312": {
    "zip_code": "6460312",
    "prefecture": "和歌山県",
    "prefecture_kana": "ワカヤマケン",
    "prefecture_code": 30,
    "city": "西牟婁郡白浜町",
    "city_kana": "ニシムログンシラハマチョウ",
    "town": "大",
    "town_kana": "オオ",
    "street": null,
    "office_name": null,
    "office_name_kana": null
  },
  "0313": {
    "zip_code": "6460313",
    "prefecture": "和歌山県",
    "prefecture_kana": "ワカヤマケン",
    "prefecture_code": 30,
    "city": "西牟婁郡白浜町",
    "city_kana": "ニシムログンシラハマチョウ",
    "town": "玉伝",
    "town_kana": "タマデ",
    "street": null,
    "office_name": null,
    "office_name_kana": null
  },
  "0314": {
    "zip_code": "6460314",
    "prefecture": "和歌山県",
    "prefecture_kana": "ワカヤマケン",
    "prefecture_code": 30,
    "city": "西牟婁郡白浜町",
    "city_kana": "ニシムログンシラハマチョウ",
    "town": "里谷",
    "town_kana": "サトダニ",
    "street": null,
    "office_name": null,
    "office_name_kana": null
  },
  "1101": {
    "zip_code": "6461101",
    "prefecture": "和歌山県",
    "prefecture_kana": "ワカヤマケン",
    "prefecture_code": 30,
    "city": "田辺市",
    "city_kana": "タナベシ",
    "town": "鮎川",
    "town_kana": "アユカワ",
    "street": null,
    "office_name": null,
    "office_name_kana": null
  },
  "1192": {
    "zip_code": "6461192",
    "prefecture": "和歌山県",
    "prefecture_kana": "ワカヤマケン",
    "prefecture_code": 30,
    "city": "田辺市",
    "city_kana": "タナベシ",
    "town": "鮎川",
    "town_kana": "アユカワ",
    "street": "２５６７",
    "office_name": "田辺市　大塔行政局",
    "office_name_kana": "タナベシ オオトウギヨウセイキヨク"
  },
  "1211": {
    "zip_code": "6461211",
    "prefecture": "和歌山県",
    "prefecture_kana": "ワカヤマケン",
    "prefecture_code": 30,
    "city": "田辺市",
    "city_kana": "タナベシ",
    "town": "和田",
    "town_kana": "ワダ",
    "street": null,
    "office_name": null,
    "office_name_kana": null
  },
  "1212": {
    "zip_code": "6461212",
    "prefecture": "和歌山県",
    "prefecture_kana": "ワカヤマケン",
    "prefecture_code": 30,
    "city": "田辺市",
    "city_kana": "タナベシ",
    "town": "下川上",
    "town_kana": "シモガワカミ",
    "street": null,
    "office_name": null,
    "office_name_kana": null
  },
  "1213": {
    "zip_code": "6461213",
    "prefecture": "和歌山県",
    "prefecture_kana": "ワカヤマケン",
    "prefecture_code": 30,
    "city": "田辺市",
    "city_kana": "タナベシ",
    "town": "下川下",
    "town_kana": "シモガワシモ",
    "street": null,
    "office_name": null,
    "office_name_kana": null
  },
  "1214": {
    "zip_code": "6461214",
    "prefecture": "和歌山県",
    "prefecture_kana": "ワカヤマケン",
    "prefecture_code": 30,
    "city": "田辺市",
    "city_kana": "タナベシ",
    "town": "平瀬",
    "town_kana": "ヒラセ",
    "street": null,
    "office_name": null,
    "office_name_kana": null
  },
  "1321": {
    "zip_code": "6461321",
    "prefecture": "和歌山県",
    "prefecture_kana": "ワカヤマケン",
    "prefecture_code": 30,
    "city": "田辺市",
    "city_kana": "タナベシ",
    "town": "熊野",
    "town_kana": "イヤ",
    "street": null,
    "office_name": null,
    "office_name_kana": null
  },
  "1322": {
    "zip_code": "6461322",
    "prefecture": "和歌山県",
    "prefecture_kana": "ワカヤマケン",
    "prefecture_code": 30,
    "city": "田辺市",
    "city_kana": "タナベシ",
    "town": "面川",
    "town_kana": "メンガワ",
    "street": null,
    "office_name": null,
    "office_name_kana": null
  },
  "1323": {
    "zip_code": "6461323",
    "prefecture": "和歌山県",
    "prefecture_kana": "ワカヤマケン",
    "prefecture_code": 30,
    "city": "田辺市",
    "city_kana": "タナベシ",
    "town": "向山",
    "town_kana": "ムカイヤマ",
    "street": null,
    "office_name": null,
    "office_name_kana": null
  },
  "1324": {
    "zip_code": "6461324",
    "prefecture": "和歌山県",
    "prefecture_kana": "ワカヤマケン",
    "prefecture_code": 30,
    "city": "田辺市",
    "city_kana": "タナベシ",
    "town": "竹ノ平",
    "town_kana": "タケノタイラ",
    "street": null,
    "office_name": null,
    "office_name_kana": null
  },
  "1325": {
    "zip_code": "6461325",
    "prefecture": "和歌山県",
    "prefecture_kana": "ワカヤマケン",
    "prefecture_code": 30,
    "city": "田辺市",
    "city_kana": "タナベシ",
    "town": "小谷",
    "town_kana": "コダニ",
    "street": null,
    "office_name": null,
    "office_name_kana": null
  },
  "1326": {
    "zip_code": "6461326",
    "prefecture": "和歌山県",
    "prefecture_kana": "ワカヤマケン",
    "prefecture_code": 30,
    "city": "田辺市",
    "city_kana": "タナベシ",
    "town": "深谷",
    "town_kana": "フカタニ",
    "street": null,
    "office_name": null,
    "office_name_kana": null
  },
  "1331": {
    "zip_code": "6461331",
    "prefecture": "和歌山県",
    "prefecture_kana": "ワカヤマケン",
    "prefecture_code": 30,
    "city": "田辺市",
    "city_kana": "タナベシ",
    "town": "木守",
    "town_kana": "コモリ",
    "street": null,
    "office_name": null,
    "office_name_kana": null
  },
  "1332": {
    "zip_code": "6461332",
    "prefecture": "和歌山県",
    "prefecture_kana": "ワカヤマケン",
    "prefecture_code": 30,
    "city": "田辺市",
    "city_kana": "タナベシ",
    "town": "五味",
    "town_kana": "ゴミ",
    "street": null,
    "office_name": null,
    "office_name_kana": null
  },
  "1333": {
    "zip_code": "6461333",
    "prefecture": "和歌山県",
    "prefecture_kana": "ワカヤマケン",
    "prefecture_code": 30,
    "city": "田辺市",
    "city_kana": "タナベシ",
    "town": "東伏菟野",
    "town_kana": "ヒガシフドノ",
    "street": null,
    "office_name": null,
    "office_name_kana": null
  },
  "1334": {
    "zip_code": "6461334",
    "prefecture": "和歌山県",
    "prefecture_kana": "ワカヤマケン",
    "prefecture_code": 30,
    "city": "田辺市",
    "city_kana": "タナベシ",
    "town": "九川",
    "town_kana": "クガワ",
    "street": null,
    "office_name": null,
    "office_name_kana": null
  },
  "1335": {
    "zip_code": "6461335",
    "prefecture": "和歌山県",
    "prefecture_kana": "ワカヤマケン",
    "prefecture_code": 30,
    "city": "田辺市",
    "city_kana": "タナベシ",
    "town": "串",
    "town_kana": "クシ",
    "street": null,
    "office_name": null,
    "office_name_kana": null
  },
  "1336": {
    "zip_code": "6461336",
    "prefecture": "和歌山県",
    "prefecture_kana": "ワカヤマケン",
    "prefecture_code": 30,
    "city": "田辺市",
    "city_kana": "タナベシ",
    "town": "谷野口",
    "town_kana": "タニノクチ",
    "street": null,
    "office_name": null,
    "office_name_kana": null
  },
  "1337": {
    "zip_code": "6461337",
    "prefecture": "和歌山県",
    "prefecture_kana": "ワカヤマケン",
    "prefecture_code": 30,
    "city": "田辺市",
    "city_kana": "タナベシ",
    "town": "下露",
    "town_kana": "シモツユ",
    "street": null,
    "office_name": null,
    "office_name_kana": null
  },
  "1338": {
    "zip_code": "6461338",
    "prefecture": "和歌山県",
    "prefecture_kana": "ワカヤマケン",
    "prefecture_code": 30,
    "city": "田辺市",
    "city_kana": "タナベシ",
    "town": "合川",
    "town_kana": "ゴウガワ",
    "street": null,
    "office_name": null,
    "office_name_kana": null
  },
  "1339": {
    "zip_code": "6461339",
    "prefecture": "和歌山県",
    "prefecture_kana": "ワカヤマケン",
    "prefecture_code": 30,
    "city": "田辺市",
    "city_kana": "タナベシ",
    "town": "長瀬",
    "town_kana": "ナガセ",
    "street": null,
    "office_name": null,
    "office_name_kana": null
  },
  "1401": {
    "zip_code": "6461401",
    "prefecture": "和歌山県",
    "prefecture_kana": "ワカヤマケン",
    "prefecture_code": 30,
    "city": "田辺市",
    "city_kana": "タナベシ",
    "town": "中辺路町野中",
    "town_kana": "ナカヘチチョウノナカ",
    "street": null,
    "office_name": null,
    "office_name_kana": null
  },
  "1402": {
    "zip_code": "6461402",
    "prefecture": "和歌山県",
    "prefecture_kana": "ワカヤマケン",
    "prefecture_code": 30,
    "city": "田辺市",
    "city_kana": "タナベシ",
    "town": "中辺路町近露",
    "town_kana": "ナカヘチチョウチカツユ",
    "street": null,
    "office_name": null,
    "office_name_kana": null
  },
  "1411": {
    "zip_code": "6461411",
    "prefecture": "和歌山県",
    "prefecture_kana": "ワカヤマケン",
    "prefecture_code": 30,
    "city": "田辺市",
    "city_kana": "タナベシ",
    "town": "中辺路町大内川",
    "town_kana": "ナカヘチチョウオオウチガワ",
    "street": null,
    "office_name": null,
    "office_name_kana": null
  },
  "1412": {
    "zip_code": "6461412",
    "prefecture": "和歌山県",
    "prefecture_kana": "ワカヤマケン",
    "prefecture_code": 30,
    "city": "田辺市",
    "city_kana": "タナベシ",
    "town": "中辺路町石船",
    "town_kana": "ナカヘチチョウイシブリ",
    "street": null,
    "office_name": null,
    "office_name_kana": null
  },
  "1413": {
    "zip_code": "6461413",
    "prefecture": "和歌山県",
    "prefecture_kana": "ワカヤマケン",
    "prefecture_code": 30,
    "city": "田辺市",
    "city_kana": "タナベシ",
    "town": "中辺路町北郡",
    "town_kana": "ナカヘチチョウホクソギ",
    "street": null,
    "office_name": null,
    "office_name_kana": null
  },
  "1414": {
    "zip_code": "6461414",
    "prefecture": "和歌山県",
    "prefecture_kana": "ワカヤマケン",
    "prefecture_code": 30,
    "city": "田辺市",
    "city_kana": "タナベシ",
    "town": "中辺路町西谷",
    "town_kana": "ナカヘチチョウニシダニ",
    "street": null,
    "office_name": null,
    "office_name_kana": null
  },
  "1415": {
    "zip_code": "6461415",
    "prefecture": "和歌山県",
    "prefecture_kana": "ワカヤマケン",
    "prefecture_code": 30,
    "city": "田辺市",
    "city_kana": "タナベシ",
    "town": "中辺路町真砂",
    "town_kana": "ナカヘチチョウマナゴ",
    "street": null,
    "office_name": null,
    "office_name_kana": null
  },
  "1416": {
    "zip_code": "6461416",
    "prefecture": "和歌山県",
    "prefecture_kana": "ワカヤマケン",
    "prefecture_code": 30,
    "city": "田辺市",
    "city_kana": "タナベシ",
    "town": "中辺路町高原",
    "town_kana": "ナカヘチチョウタカハラ",
    "street": null,
    "office_name": null,
    "office_name_kana": null
  },
  "1417": {
    "zip_code": "6461417",
    "prefecture": "和歌山県",
    "prefecture_kana": "ワカヤマケン",
    "prefecture_code": 30,
    "city": "田辺市",
    "city_kana": "タナベシ",
    "town": "中辺路町川合",
    "town_kana": "ナカヘチチョウカワイ",
    "street": null,
    "office_name": null,
    "office_name_kana": null
  },
  "1421": {
    "zip_code": "6461421",
    "prefecture": "和歌山県",
    "prefecture_kana": "ワカヤマケン",
    "prefecture_code": 30,
    "city": "田辺市",
    "city_kana": "タナベシ",
    "town": "中辺路町栗栖川",
    "town_kana": "ナカヘチチョウクリスガワ",
    "street": null,
    "office_name": null,
    "office_name_kana": null
  },
  "1431": {
    "zip_code": "6461431",
    "prefecture": "和歌山県",
    "prefecture_kana": "ワカヤマケン",
    "prefecture_code": 30,
    "city": "田辺市",
    "city_kana": "タナベシ",
    "town": "中辺路町小松原",
    "town_kana": "ナカヘチチョウコマツバラ",
    "street": null,
    "office_name": null,
    "office_name_kana": null
  },
  "1432": {
    "zip_code": "6461432",
    "prefecture": "和歌山県",
    "prefecture_kana": "ワカヤマケン",
    "prefecture_code": 30,
    "city": "田辺市",
    "city_kana": "タナベシ",
    "town": "中辺路町福定",
    "town_kana": "ナカヘチチョウフクサダ",
    "street": null,
    "office_name": null,
    "office_name_kana": null
  },
  "1433": {
    "zip_code": "6461433",
    "prefecture": "和歌山県",
    "prefecture_kana": "ワカヤマケン",
    "prefecture_code": 30,
    "city": "田辺市",
    "city_kana": "タナベシ",
    "town": "中辺路町大川",
    "town_kana": "ナカヘチチョウオオカワ",
    "street": null,
    "office_name": null,
    "office_name_kana": null
  },
  "1434": {
    "zip_code": "6461434",
    "prefecture": "和歌山県",
    "prefecture_kana": "ワカヤマケン",
    "prefecture_code": 30,
    "city": "田辺市",
    "city_kana": "タナベシ",
    "town": "中辺路町温川",
    "town_kana": "ナカヘチチョウヌルミガワ",
    "street": null,
    "office_name": null,
    "office_name_kana": null
  },
  "1435": {
    "zip_code": "6461435",
    "prefecture": "和歌山県",
    "prefecture_kana": "ワカヤマケン",
    "prefecture_code": 30,
    "city": "田辺市",
    "city_kana": "タナベシ",
    "town": "中辺路町小皆",
    "town_kana": "ナカヘチチョウコカイ",
    "street": null,
    "office_name": null,
    "office_name_kana": null
  },
  "1436": {
    "zip_code": "6461436",
    "prefecture": "和歌山県",
    "prefecture_kana": "ワカヤマケン",
    "prefecture_code": 30,
    "city": "田辺市",
    "city_kana": "タナベシ",
    "town": "中辺路町熊野川",
    "town_kana": "ナカヘチチョウクマノガワ",
    "street": null,
    "office_name": null,
    "office_name_kana": null
  },
  "1437": {
    "zip_code": "6461437",
    "prefecture": "和歌山県",
    "prefecture_kana": "ワカヤマケン",
    "prefecture_code": 30,
    "city": "田辺市",
    "city_kana": "タナベシ",
    "town": "中辺路町沢",
    "town_kana": "ナカヘチチョウサワ",
    "street": null,
    "office_name": null,
    "office_name_kana": null
  },
  "1438": {
    "zip_code": "6461438",
    "prefecture": "和歌山県",
    "prefecture_kana": "ワカヤマケン",
    "prefecture_code": 30,
    "city": "田辺市",
    "city_kana": "タナベシ",
    "town": "中辺路町水上",
    "town_kana": "ナカヘチチョウミズカミ",
    "street": null,
    "office_name": null,
    "office_name_kana": null
  },
  "1439": {
    "zip_code": "6461439",
    "prefecture": "和歌山県",
    "prefecture_kana": "ワカヤマケン",
    "prefecture_code": 30,
    "city": "田辺市",
    "city_kana": "タナベシ",
    "town": "中辺路町内井川",
    "town_kana": "ナカヘチチョウウチイガワ",
    "street": null,
    "office_name": null,
    "office_name_kana": null
  },
  "1492": {
    "zip_code": "6461492",
    "prefecture": "和歌山県",
    "prefecture_kana": "ワカヤマケン",
    "prefecture_code": 30,
    "city": "田辺市",
    "city_kana": "タナベシ",
    "town": "中辺路町栗栖川",
    "town_kana": "ナカヘチチョウクリスガワ",
    "street": "３６１−１",
    "office_name": "田辺市　中辺路行政局",
    "office_name_kana": "タナベシ ナカヘチギヨウセイキヨク"
  },
  "8501": {
    "zip_code": "6468501",
    "prefecture": "和歌山県",
    "prefecture_kana": "ワカヤマケン",
    "prefecture_code": 30,
    "city": "田辺市",
    "city_kana": "タナベシ",
    "town": "元町",
    "town_kana": "モトマチ",
    "street": "２４２８",
    "office_name": "紀伊田辺簡易保険保養センター",
    "office_name_kana": "キイタナベカンイホケンホヨウセンタ-"
  },
  "8511": {
    "zip_code": "6468511",
    "prefecture": "和歌山県",
    "prefecture_kana": "ワカヤマケン",
    "prefecture_code": 30,
    "city": "田辺市",
    "city_kana": "タナベシ",
    "town": "芳養町",
    "town_kana": "ハヤチョウ",
    "street": "字浜田３９８１−３２８",
    "office_name": "田辺労働基準監督署",
    "office_name_kana": "タナベロウドウキジユンカントクシヨ"
  },
  "8544": {
    "zip_code": "6468544",
    "prefecture": "和歌山県",
    "prefecture_kana": "ワカヤマケン",
    "prefecture_code": 30,
    "city": "田辺市",
    "city_kana": "タナベシ",
    "town": "元町",
    "town_kana": "モトマチ",
    "street": "６４２−１",
    "office_name": "大阪松下ライフエレクトロニクス　株式会社",
    "office_name_kana": "オオサカマツシタライフエレクトロニクス カブシキガイシヤ"
  },
  "8545": {
    "zip_code": "6468545",
    "prefecture": "和歌山県",
    "prefecture_kana": "ワカヤマケン",
    "prefecture_code": 30,
    "city": "田辺市",
    "city_kana": "タナベシ",
    "town": "新屋敷町",
    "town_kana": "シンヤシキマチ",
    "street": "１",
    "office_name": "田辺市役所",
    "office_name_kana": "タナベシヤクシヨ"
  },
  "8550": {
    "zip_code": "6468550",
    "prefecture": "和歌山県",
    "prefecture_kana": "ワカヤマケン",
    "prefecture_code": 30,
    "city": "田辺市",
    "city_kana": "タナベシ",
    "town": "元町",
    "town_kana": "モトマチ",
    "street": "５５",
    "office_name": "丸惣食品",
    "office_name_kana": "マルソウシヨクヒン"
  },
  "8558": {
    "zip_code": "6468558",
    "prefecture": "和歌山県",
    "prefecture_kana": "ワカヤマケン",
    "prefecture_code": 30,
    "city": "田辺市",
    "city_kana": "タナベシ",
    "town": "新庄町",
    "town_kana": "シンジョウチョウ",
    "street": "滝内２９７４",
    "office_name": "国立南和歌山病院",
    "office_name_kana": "コクリツミナミワカヤマビヨウイン"
  },
  "8580": {
    "zip_code": "6468580",
    "prefecture": "和歌山県",
    "prefecture_kana": null,
    "prefecture_code": null,
    "city": "田辺市",
    "city_kana": null,
    "town": "朝日ケ丘",
    "town_kana": null,
    "street": "２３−１",
    "office_name": "西牟婁振興局",
    "office_name_kana": "ニシムロシンコウキヨク"
  },
  "8585": {
    "zip_code": "6468585",
    "prefecture": "和歌山県",
    "prefecture_kana": null,
    "prefecture_code": null,
    "city": "田辺市",
    "city_kana": null,
    "town": "上屋敷町",
    "town_kana": null,
    "street": "３１−１",
    "office_name": "日本電信電話　株式会社　田辺支店",
    "office_name_kana": "ニホンデンシンデンワ カブシキガイシヤ タナベシテン"
  },
  "8588": {
    "zip_code": "6468588",
    "prefecture": "和歌山県",
    "prefecture_kana": "ワカヤマケン",
    "prefecture_code": 30,
    "city": "田辺市",
    "city_kana": "タナベシ",
    "town": "新庄町",
    "town_kana": "シンジョウチョウ",
    "street": "４６番地の７０",
    "office_name": "社会保険紀南病院",
    "office_name_kana": "シヤカイホケンキナンビヨウイン"
  },
  "8660": {
    "zip_code": "6468660",
    "prefecture": "和歌山県",
    "prefecture_kana": "ワカヤマケン",
    "prefecture_code": 30,
    "city": "田辺市",
    "city_kana": "タナベシ",
    "town": "秋津町",
    "town_kana": "アキヅチョウ",
    "street": "１００（田辺郵便局私書箱第３号）",
    "office_name": "紀伊民報社",
    "office_name_kana": "キイミンポウシヤ"
  }
}