{
  "0000": {
    "zip_code": "6540000",
    "prefecture": "兵庫県",
    "prefecture_kana": "ヒョウゴケン",
    "prefecture_code": "28",
    "city": "神戸市須磨区",
    "city_kana": "コウベシスマク",
    "town": "",
    "town_kana": "",
    "street": null,
    "office_name": null,
    "office_name_kana": null
  },
  "0001": {
    "zip_code": "6540001",
    "prefecture": "兵庫県",
    "prefecture_kana": "ヒョウゴケン",
    "prefecture_code": "28",
    "city": "神戸市須磨区",
    "city_kana": "コウベシスマク",
    "town": "禅昌寺町",
    "town_kana": "ゼンショウジチョウ",
    "street": null,
    "office_name": null,
    "office_name_kana": null
  },
  "0002": {
    "zip_code": "6540002",
    "prefecture": "兵庫県",
    "prefecture_kana": "ヒョウゴケン",
    "prefecture_code": "28",
    "city": "神戸市須磨区",
    "city_kana": "コウベシスマク",
    "town": "明神町",
    "town_kana": "ミョウジンチョウ",
    "street": null,
    "office_name": null,
    "office_name_kana": null
  },
  "0003": {
    "zip_code": "6540003",
    "prefecture": "兵庫県",
    "prefecture_kana": "ヒョウゴケン",
    "prefecture_code": "28",
    "city": "神戸市須磨区",
    "city_kana": "コウベシスマク",
    "town": "神撫町",
    "town_kana": "ジンブチョウ",
    "street": null,
    "office_name": null,
    "office_name_kana": null
  },
  "0004": {
    "zip_code": "6540004",
    "prefecture": "兵庫県",
    "prefecture_kana": "ヒョウゴケン",
    "prefecture_code": "28",
    "city": "神戸市須磨区",
    "city_kana": "コウベシスマク",
    "town": "永楽町",
    "town_kana": "エイラクチョウ",
    "street": null,
    "office_name": null,
    "office_name_kana": null
  },
  "0005": {
    "zip_code": "6540005",
    "prefecture": "兵庫県",
    "prefecture_kana": "ヒョウゴケン",
    "prefecture_code": "28",
    "city": "神戸市須磨区",
    "city_kana": "コウベシスマク",
    "town": "川上町",
    "town_kana": "カワカミチョウ",
    "street": null,
    "office_name": null,
    "office_name_kana": null
  },
  "0006": {
    "zip_code": "6540006",
    "prefecture": "兵庫県",
    "prefecture_kana": "ヒョウゴケン",
    "prefecture_code": "28",
    "city": "神戸市須磨区",
    "city_kana": "コウベシスマク",
    "town": "養老町",
    "town_kana": "ヨウロウチョウ",
    "street": null,
    "office_name": null,
    "office_name_kana": null
  },
  "0007": {
    "zip_code": "6540007",
    "prefecture": "兵庫県",
    "prefecture_kana": "ヒョウゴケン",
    "prefecture_code": "28",
    "city": "神戸市須磨区",
    "city_kana": "コウベシスマク",
    "town": "宝田町",
    "town_kana": "ホウデンチョウ",
    "street": null,
    "office_name": null,
    "office_name_kana": null
  },
  "0008": {
    "zip_code": "6540008",
    "prefecture": "兵庫県",
    "prefecture_kana": "ヒョウゴケン",
    "prefecture_code": "28",
    "city": "神戸市須磨区",
    "city_kana": "コウベシスマク",
    "town": "菊池町",
    "town_kana": "キクイケチョウ",
    "street": null,
    "office_name": null,
    "office_name_kana": null
  },
  "0009": {
    "zip_code": "6540009",
    "prefecture": "兵庫県",
    "prefecture_kana": "ヒョウゴケン",
    "prefecture_code": "28",
    "city": "神戸市須磨区",
    "city_kana": "コウベシスマク",
    "town": "板宿町",
    "town_kana": "イタヤドチョウ",
    "street": null,
    "office_name": null,
    "office_name_kana": null
  },
  "0011": {
    "zip_code": "6540011",
    "prefecture": "兵庫県",
    "prefecture_kana": "ヒョウゴケン",
    "prefecture_code": "28",
    "city": "神戸市須磨区",
    "city_kana": "コウベシスマク",
    "town": "前池町",
    "town_kana": "マエイケチョウ",
    "street": null,
    "office_name": null,
    "office_name_kana": null
  },
  "0012": {
    "zip_code": "6540012",
    "prefecture": "兵庫県",
    "prefecture_kana": "ヒョウゴケン",
    "prefecture_code": "28",
    "city": "神戸市須磨区",
    "city_kana": "コウベシスマク",
    "town": "飛松町",
    "town_kana": "トビマツチョウ",
    "street": null,
    "office_name": null,
    "office_name_kana": null
  },
  "0013": {
    "zip_code": "6540013",
    "prefecture": "兵庫県",
    "prefecture_kana": "ヒョウゴケン",
    "prefecture_code": "28",
    "city": "神戸市須磨区",
    "city_kana": "コウベシスマク",
    "town": "大手町",
    "town_kana": "オオテチョウ",
    "street": null,
    "office_name": null,
    "office_name_kana": null
  },
  "0014": {
    "zip_code": "6540014",
    "prefecture": "兵庫県",
    "prefecture_kana": "ヒョウゴケン",
    "prefecture_code": "28",
    "city": "神戸市須磨区",
    "city_kana": "コウベシスマク",
    "town": "若木町",
    "town_kana": "ワカギチョウ",
    "street": null,
    "office_name": null,
    "office_name_kana": null
  },
  "0015": {
    "zip_code": "6540015",
    "prefecture": "兵庫県",
    "prefecture_kana": "ヒョウゴケン",
    "prefecture_code": "28",
    "city": "神戸市須磨区",
    "city_kana": "コウベシスマク",
    "town": "奥山畑町",
    "town_kana": "オクヤマハタチョウ",
    "street": null,
    "office_name": null,
    "office_name_kana": null
  },
  "0016": {
    "zip_code": "6540016",
    "prefecture": "兵庫県",
    "prefecture_kana": "ヒョウゴケン",
    "prefecture_code": "28",
    "city": "神戸市須磨区",
    "city_kana": "コウベシスマク",
    "town": "上細沢町",
    "town_kana": "カミホソザワチョウ",
    "street": null,
    "office_name": null,
    "office_name_kana": null
  },
  "0017": {
    "zip_code": "6540017",
    "prefecture": "兵庫県",
    "prefecture_kana": "ヒョウゴケン",
    "prefecture_code": "28",
    "city": "神戸市須磨区",
    "city_kana": "コウベシスマク",
    "town": "大手",
    "town_kana": "オオテ",
    "street": null,
    "office_name": null,
    "office_name_kana": null
  },
  "0018": {
    "zip_code": "6540018",
    "prefecture": "兵庫県",
    "prefecture_kana": "ヒョウゴケン",
    "prefecture_code": "28",
    "city": "神戸市須磨区",
    "city_kana": "コウベシスマク",
    "town": "東須磨",
    "town_kana": "ヒガシスマ",
    "street": null,
    "office_name": null,
    "office_name_kana": null
  },
  "0021": {
    "zip_code": "6540021",
    "prefecture": "兵庫県",
    "prefecture_kana": "ヒョウゴケン",
    "prefecture_code": "28",
    "city": "神戸市須磨区",
    "city_kana": "コウベシスマク",
    "town": "平田町",
    "town_kana": "ヒラタチョウ",
    "street": null,
    "office_name": null,
    "office_name_kana": null
  },
  "0022": {
    "zip_code": "6540022",
    "prefecture": "兵庫県",
    "prefecture_kana": "ヒョウゴケン",
    "prefecture_code": "28",
    "city": "神戸市須磨区",
    "city_kana": "コウベシスマク",
    "town": "大黒町",
    "town_kana": "ダイコクチョウ",
    "street": null,
    "office_name": null,
    "office_name_kana": null
  },
  "0023": {
    "zip_code": "6540023",
    "prefecture": "兵庫県",
    "prefecture_kana": "ヒョウゴケン",
    "prefecture_code": "28",
    "city": "神戸市須磨区",
    "city_kana": "コウベシスマク",
    "town": "戎町",
    "town_kana": "エビスチョウ",
    "street": null,
    "office_name": null,
    "office_name_kana": null
  },
  "0024": {
    "zip_code": "6540024",
    "prefecture": "兵庫県",
    "prefecture_kana": "ヒョウゴケン",
    "prefecture_code": "28",
    "city": "神戸市須磨区",
    "city_kana": "コウベシスマク",
    "town": "大田町",
    "town_kana": "オオタチョウ",
    "street": null,
    "office_name": null,
    "office_name_kana": null
  },
  "0025": {
    "zip_code": "6540025",
    "prefecture": "兵庫県",
    "prefecture_kana": "ヒョウゴケン",
    "prefecture_code": "28",
    "city": "神戸市須磨区",
    "city_kana": "コウベシスマク",
    "town": "寺田町",
    "town_kana": "テラダチョウ",
    "street": null,
    "office_name": null,
    "office_name_kana": null
  },
  "0026": {
    "zip_code": "6540026",
    "prefecture": "兵庫県",
    "prefecture_kana": "ヒョウゴケン",
    "prefecture_code": "28",
    "city": "神戸市須磨区",
    "city_kana": "コウベシスマク",
    "town": "大池町",
    "town_kana": "オオイケチョウ",
    "street": null,
    "office_name": null,
    "office_name_kana": null
  },
  "0027": {
    "zip_code": "6540027",
    "prefecture": "兵庫県",
    "prefecture_kana": "ヒョウゴケン",
    "prefecture_code": "28",
    "city": "神戸市須磨区",
    "city_kana": "コウベシスマク",
    "town": "千歳町",
    "town_kana": "チトセチョウ",
    "street": null,
    "office_name": null,
    "office_name_kana": null
  },
  "0028": {
    "zip_code": "6540028",
    "prefecture": "兵庫県",
    "prefecture_kana": "ヒョウゴケン",
    "prefecture_code": "28",
    "city": "神戸市須磨区",
    "city_kana": "コウベシスマク",
    "town": "常盤町",
    "town_kana": "トキワチョウ",
    "street": null,
    "office_name": null,
    "office_name_kana": null
  },
  "0031": {
    "zip_code": "6540031",
    "prefecture": "兵庫県",
    "prefecture_kana": "ヒョウゴケン",
    "prefecture_code": "28",
    "city": "神戸市須磨区",
    "city_kana": "コウベシスマク",
    "town": "権現町",
    "town_kana": "ゴンゲンチョウ",
    "street": null,
    "office_name": null,
    "office_name_kana": null
  },
  "0032": {
    "zip_code": "6540032",
    "prefecture": "兵庫県",
    "prefecture_kana": "ヒョウゴケン",
    "prefecture_code": "28",
    "city": "神戸市須磨区",
    "city_kana": "コウベシスマク",
    "town": "堀池町",
    "town_kana": "ホリイケチョウ",
    "street": null,
    "office_name": null,
    "office_name_kana": null
  },
  "0033": {
    "zip_code": "6540033",
    "prefecture": "兵庫県",
    "prefecture_kana": "ヒョウゴケン",
    "prefecture_code": "28",
    "city": "神戸市須磨区",
    "city_kana": "コウベシスマク",
    "town": "東町",
    "town_kana": "ヒガシマチ",
    "street": null,
    "office_name": null,
    "office_name_kana": null
  },
  "0034": {
    "zip_code": "6540034",
    "prefecture": "兵庫県",
    "prefecture_kana": "ヒョウゴケン",
    "prefecture_code": "28",
    "city": "神戸市須磨区",
    "city_kana": "コウベシスマク",
    "town": "戸政町",
    "town_kana": "トマサチョウ",
    "street": null,
    "office_name": null,
    "office_name_kana": null
  },
  "0035": {
    "zip_code": "6540035",
    "prefecture": "兵庫県",
    "prefecture_kana": "ヒョウゴケン",
    "prefecture_code": "28",
    "city": "神戸市須磨区",
    "city_kana": "コウベシスマク",
    "town": "中島町",
    "town_kana": "ナカジマチョウ",
    "street": null,
    "office_name": null,
    "office_name_kana": null
  },
  "0036": {
    "zip_code": "6540036",
    "prefecture": "兵庫県",
    "prefecture_kana": "ヒョウゴケン",
    "prefecture_code": "28",
    "city": "神戸市須磨区",
    "city_kana": "コウベシスマク",
    "town": "南町",
    "town_kana": "ミナミマチ",
    "street": null,
    "office_name": null,
    "office_name_kana": null
  },
  "0037": {
    "zip_code": "6540037",
    "prefecture": "兵庫県",
    "prefecture_kana": "ヒョウゴケン",
    "prefecture_code": "28",
    "city": "神戸市須磨区",
    "city_kana": "コウベシスマク",
    "town": "行平町",
    "town_kana": "ユキヒラチョウ",
    "street": null,
    "office_name": null,
    "office_name_kana": null
  },
  "0038": {
    "zip_code": "6540038",
    "prefecture": "兵庫県",
    "prefecture_kana": "ヒョウゴケン",
    "prefecture_code": "28",
    "city": "神戸市須磨区",
    "city_kana": "コウベシスマク",
    "town": "青葉町",
    "town_kana": "アオバチョウ",
    "street": null,
    "office_name": null,
    "office_name_kana": null
  },
  "0039": {
    "zip_code": "6540039",
    "prefecture": "兵庫県",
    "prefecture_kana": "ヒョウゴケン",
    "prefecture_code": "28",
    "city": "神戸市須磨区",
    "city_kana": "コウベシスマク",
    "town": "鷹取町",
    "town_kana": "タカトリチョウ",
    "street": null,
    "office_name": null,
    "office_name_kana": null
  },
  "0041": {
    "zip_code": "6540041",
    "prefecture": "兵庫県",
    "prefecture_kana": "ヒョウゴケン",
    "prefecture_code": "28",
    "city": "神戸市須磨区",
    "city_kana": "コウベシスマク",
    "town": "古川町",
    "town_kana": "フルカワチョウ",
    "street": null,
    "office_name": null,
    "office_name_kana": null
  },
  "0042": {
    "zip_code": "6540042",
    "prefecture": "兵庫県",
    "prefecture_kana": "ヒョウゴケン",
    "prefecture_code": "28",
    "city": "神戸市須磨区",
    "city_kana": "コウベシスマク",
    "town": "小寺町",
    "town_kana": "コデラチョウ",
    "street": null,
    "office_name": null,
    "office_name_kana": null
  },
  "0043": {
    "zip_code": "6540043",
    "prefecture": "兵庫県",
    "prefecture_kana": "ヒョウゴケン",
    "prefecture_code": "28",
    "city": "神戸市須磨区",
    "city_kana": "コウベシスマク",
    "town": "外浜町",
    "town_kana": "ソトハマチョウ",
    "street": null,
    "office_name": null,
    "office_name_kana": null
  },
  "0044": {
    "zip_code": "6540044",
    "prefecture": "兵庫県",
    "prefecture_kana": "ヒョウゴケン",
    "prefecture_code": "28",
    "city": "神戸市須磨区",
    "city_kana": "コウベシスマク",
    "town": "稲葉町",
    "town_kana": "イナバチョウ",
    "street": null,
    "office_name": null,
    "office_name_kana": null
  },
  "0045": {
    "zip_code": "6540045",
    "prefecture": "兵庫県",
    "prefecture_kana": "ヒョウゴケン",
    "prefecture_code": "28",
    "city": "神戸市須磨区",
    "city_kana": "コウベシスマク",
    "town": "松風町",
    "town_kana": "マツカゼチョウ",
    "street": null,
    "office_name": null,
    "office_name_kana": null
  },
  "0046": {
    "zip_code": "6540046",
    "prefecture": "兵庫県",
    "prefecture_kana": "ヒョウゴケン",
    "prefecture_code": "28",
    "city": "神戸市須磨区",
    "city_kana": "コウベシスマク",
    "town": "村雨町",
    "town_kana": "ムラサメチョウ",
    "street": null,
    "office_name": null,
    "office_name_kana": null
  },
  "0047": {
    "zip_code": "6540047",
    "prefecture": "兵庫県",
    "prefecture_kana": "ヒョウゴケン",
    "prefecture_code": "28",
    "city": "神戸市須磨区",
    "city_kana": "コウベシスマク",
    "town": "磯馴町",
    "town_kana": "イソナレチョウ",
    "street": null,
    "office_name": null,
    "office_name_kana": null
  },
  "0048": {
    "zip_code": "6540048",
    "prefecture": "兵庫県",
    "prefecture_kana": "ヒョウゴケン",
    "prefecture_code": "28",
    "city": "神戸市須磨区",
    "city_kana": "コウベシスマク",
    "town": "衣掛町",
    "town_kana": "キヌガケチョウ",
    "street": null,
    "office_name": null,
    "office_name_kana": null
  },
  "0049": {
    "zip_code": "6540049",
    "prefecture": "兵庫県",
    "prefecture_kana": "ヒョウゴケン",
    "prefecture_code": "28",
    "city": "神戸市須磨区",
    "city_kana": "コウベシスマク",
    "town": "若宮町",
    "town_kana": "ワカミヤチョウ",
    "street": null,
    "office_name": null,
    "office_name_kana": null
  },
  "0051": {
    "zip_code": "6540051",
    "prefecture": "兵庫県",
    "prefecture_kana": "ヒョウゴケン",
    "prefecture_code": "28",
    "city": "神戸市須磨区",
    "city_kana": "コウベシスマク",
    "town": "月見山本町",
    "town_kana": "ツキミヤマホンマチ",
    "street": null,
    "office_name": null,
    "office_name_kana": null
  },
  "0052": {
    "zip_code": "6540052",
    "prefecture": "兵庫県",
    "prefecture_kana": "ヒョウゴケン",
    "prefecture_code": "28",
    "city": "神戸市須磨区",
    "city_kana": "コウベシスマク",
    "town": "行幸町",
    "town_kana": "ミユキチョウ",
    "street": null,
    "office_name": null,
    "office_name_kana": null
  },
  "0053": {
    "zip_code": "6540053",
    "prefecture": "兵庫県",
    "prefecture_kana": "ヒョウゴケン",
    "prefecture_code": "28",
    "city": "神戸市須磨区",
    "city_kana": "コウベシスマク",
    "town": "天神町",
    "town_kana": "テンジンチョウ",
    "street": null,
    "office_name": null,
    "office_name_kana": null
  },
  "0054": {
    "zip_code": "6540054",
    "prefecture": "兵庫県",
    "prefecture_kana": "ヒョウゴケン",
    "prefecture_code": "28",
    "city": "神戸市須磨区",
    "city_kana": "コウベシスマク",
    "town": "須磨本町",
    "town_kana": "スマホンマチ",
    "street": null,
    "office_name": null,
    "office_name_kana": null
  },
  "0055": {
    "zip_code": "6540055",
    "prefecture": "兵庫県",
    "prefecture_kana": "ヒョウゴケン",
    "prefecture_code": "28",
    "city": "神戸市須磨区",
    "city_kana": "コウベシスマク",
    "town": "須磨浦通",
    "town_kana": "スマウラドオリ",
    "street": null,
    "office_name": null,
    "office_name_kana": null
  },
  "0061": {
    "zip_code": "6540061",
    "prefecture": "兵庫県",
    "prefecture_kana": "ヒョウゴケン",
    "prefecture_code": "28",
    "city": "神戸市須磨区",
    "city_kana": "コウベシスマク",
    "town": "高尾台",
    "town_kana": "タカオダイ",
    "street": null,
    "office_name": null,
    "office_name_kana": null
  },
  "0062": {
    "zip_code": "6540062",
    "prefecture": "兵庫県",
    "prefecture_kana": "ヒョウゴケン",
    "prefecture_code": "28",
    "city": "神戸市須磨区",
    "city_kana": "コウベシスマク",
    "town": "水野町",
    "town_kana": "ミズノチョウ",
    "street": null,
    "office_name": null,
    "office_name_kana": null
  },
  "0063": {
    "zip_code": "6540063",
    "prefecture": "兵庫県",
    "prefecture_kana": "ヒョウゴケン",
    "prefecture_code": "28",
    "city": "神戸市須磨区",
    "city_kana": "コウベシスマク",
    "town": "月見山町",
    "town_kana": "ツキミヤマチョウ",
    "street": null,
    "office_name": null,
    "office_name_kana": null
  },
  "0064": {
    "zip_code": "6540064",
    "prefecture": "兵庫県",
    "prefecture_kana": "ヒョウゴケン",
    "prefecture_code": "28",
    "city": "神戸市須磨区",
    "city_kana": "コウベシスマク",
    "town": "北町",
    "town_kana": "キタマチ",
    "street": null,
    "office_name": null,
    "office_name_kana": null
  },
  "0065": {
    "zip_code": "6540065",
    "prefecture": "兵庫県",
    "prefecture_kana": "ヒョウゴケン",
    "prefecture_code": "28",
    "city": "神戸市須磨区",
    "city_kana": "コウベシスマク",
    "town": "離宮前町",
    "town_kana": "リキュウマエマチ",
    "street": null,
    "office_name": null,
    "office_name_kana": null
  },
  "0066": {
    "zip_code": "6540066",
    "prefecture": "兵庫県",
    "prefecture_kana": "ヒョウゴケン",
    "prefecture_code": "28",
    "city": "神戸市須磨区",
    "city_kana": "コウベシスマク",
    "town": "桜木町",
    "town_kana": "サクラギチョウ",
    "street": null,
    "office_name": null,
    "office_name_kana": null
  },
  "0067": {
    "zip_code": "6540067",
    "prefecture": "兵庫県",
    "prefecture_kana": "ヒョウゴケン",
    "prefecture_code": "28",
    "city": "神戸市須磨区",
    "city_kana": "コウベシスマク",
    "town": "離宮西町",
    "town_kana": "リキュウニシチョウ",
    "street": null,
    "office_name": null,
    "office_name_kana": null
  },
  "0068": {
    "zip_code": "6540068",
    "prefecture": "兵庫県",
    "prefecture_kana": "ヒョウゴケン",
    "prefecture_code": "28",
    "city": "神戸市須磨区",
    "city_kana": "コウベシスマク",
    "town": "西須磨",
    "town_kana": "ニシスマ",
    "street": null,
    "office_name": null,
    "office_name_kana": null
  },
  "0071": {
    "zip_code": "6540071",
    "prefecture": "兵庫県",
    "prefecture_kana": "ヒョウゴケン",
    "prefecture_code": "28",
    "city": "神戸市須磨区",
    "city_kana": "コウベシスマク",
    "town": "須磨寺町",
    "town_kana": "スマデラチョウ",
    "street": null,
    "office_name": null,
    "office_name_kana": null
  },
  "0072": {
    "zip_code": "6540072",
    "prefecture": "兵庫県",
    "prefecture_kana": "ヒョウゴケン",
    "prefecture_code": "28",
    "city": "神戸市須磨区",
    "city_kana": "コウベシスマク",
    "town": "千守町",
    "town_kana": "チモリチョウ",
    "street": null,
    "office_name": null,
    "office_name_kana": null
  },
  "0073": {
    "zip_code": "6540073",
    "prefecture": "兵庫県",
    "prefecture_kana": "ヒョウゴケン",
    "prefecture_code": "28",
    "city": "神戸市須磨区",
    "city_kana": "コウベシスマク",
    "town": "関守町",
    "town_kana": "セキモリチョウ",
    "street": null,
    "office_name": null,
    "office_name_kana": null
  },
  "0074": {
    "zip_code": "6540074",
    "prefecture": "兵庫県",
    "prefecture_kana": "ヒョウゴケン",
    "prefecture_code": "28",
    "city": "神戸市須磨区",
    "city_kana": "コウベシスマク",
    "town": "高倉町",
    "town_kana": "タカクラチョウ",
    "street": null,
    "office_name": null,
    "office_name_kana": null
  },
  "0075": {
    "zip_code": "6540075",
    "prefecture": "兵庫県",
    "prefecture_kana": "ヒョウゴケン",
    "prefecture_code": "28",
    "city": "神戸市須磨区",
    "city_kana": "コウベシスマク",
    "town": "潮見台町",
    "town_kana": "シオミダイチョウ",
    "street": null,
    "office_name": null,
    "office_name_kana": null
  },
  "0076": {
    "zip_code": "6540076",
    "prefecture": "兵庫県",
    "prefecture_kana": "ヒョウゴケン",
    "prefecture_code": "28",
    "city": "神戸市須磨区",
    "city_kana": "コウベシスマク",
    "town": "一ノ谷町",
    "town_kana": "イチノタニチョウ",
    "street": null,
    "office_name": null,
    "office_name_kana": null
  },
  "0081": {
    "zip_code": "6540081",
    "prefecture": "兵庫県",
    "prefecture_kana": "ヒョウゴケン",
    "prefecture_code": "28",
    "city": "神戸市須磨区",
    "city_kana": "コウベシスマク",
    "town": "高倉台",
    "town_kana": "タカクラダイ",
    "street": null,
    "office_name": null,
    "office_name_kana": null
  },
  "0101": {
    "zip_code": "6540101",
    "prefecture": "兵庫県",
    "prefecture_kana": "ヒョウゴケン",
    "prefecture_code": "28",
    "city": "神戸市須磨区",
    "city_kana": "コウベシスマク",
    "town": "白川",
    "town_kana": "シラカワ",
    "street": null,
    "office_name": null,
    "office_name_kana": null
  },
  "0102": {
    "zip_code": "6540102",
    "prefecture": "兵庫県",
    "prefecture_kana": "ヒョウゴケン",
    "prefecture_code": "28",
    "city": "神戸市須磨区",
    "city_kana": "コウベシスマク",
    "town": "東白川台",
    "town_kana": "ヒガシシラカワダイ",
    "street": null,
    "office_name": null,
    "office_name_kana": null
  },
  "0103": {
    "zip_code": "6540103",
    "prefecture": "兵庫県",
    "prefecture_kana": "ヒョウゴケン",
    "prefecture_code": "28",
    "city": "神戸市須磨区",
    "city_kana": "コウベシスマク",
    "town": "白川台",
    "town_kana": "シラカワダイ",
    "street": null,
    "office_name": null,
    "office_name_kana": null
  },
  "0111": {
    "zip_code": "6540111",
    "prefecture": "兵庫県",
    "prefecture_kana": "ヒョウゴケン",
    "prefecture_code": "28",
    "city": "神戸市須磨区",
    "city_kana": "コウベシスマク",
    "town": "車",
    "town_kana": "クルマ",
    "street": null,
    "office_name": null,
    "office_name_kana": null
  },
  "0112": {
    "zip_code": "6540112",
    "prefecture": "兵庫県",
    "prefecture_kana": "ヒョウゴケン",
    "prefecture_code": "28",
    "city": "神戸市須磨区",
    "city_kana": "コウベシスマク",
    "town": "若草町",
    "town_kana": "ワカクサチョウ",
    "street": null,
    "office_name": null,
    "office_name_kana": null
  },
  "0113": {
    "zip_code": "6540113",
    "prefecture": "兵庫県",
    "prefecture_kana": "ヒョウゴケン",
    "prefecture_code": "28",
    "city": "神戸市須磨区",
    "city_kana": "コウベシスマク",
    "town": "緑が丘",
    "town_kana": "ミドリガオカ",
    "street": null,
    "office_name": null,
    "office_name_kana": null
  },
  "0114": {
    "zip_code": "6540114",
    "prefecture": "兵庫県",
    "prefecture_kana": "ヒョウゴケン",
    "prefecture_code": "28",
    "city": "神戸市須磨区",
    "city_kana": "コウベシスマク",
    "town": "桜の杜",
    "town_kana": "サクラノモリ",
    "street": null,
    "office_name": null,
    "office_name_kana": null
  },
  "0121": {
    "zip_code": "6540121",
    "prefecture": "兵庫県",
    "prefecture_kana": "ヒョウゴケン",
    "prefecture_code": "28",
    "city": "神戸市須磨区",
    "city_kana": "コウベシスマク",
    "town": "妙法寺",
    "town_kana": "ミョウホウジ",
    "street": null,
    "office_name": null,
    "office_name_kana": null
  },
  "0122": {
    "zip_code": "6540122",
    "prefecture": "兵庫県",
    "prefecture_kana": "ヒョウゴケン",
    "prefecture_code": "28",
    "city": "神戸市須磨区",
    "city_kana": "コウベシスマク",
    "town": "道正台",
    "town_kana": "ドウショウダイ",
    "street": null,
    "office_name": null,
    "office_name_kana": null
  },
  "0123": {
    "zip_code": "6540123",
    "prefecture": "兵庫県",
    "prefecture_kana": "ヒョウゴケン",
    "prefecture_code": "28",
    "city": "神戸市須磨区",
    "city_kana": "コウベシスマク",
    "town": "清水台",
    "town_kana": "シミズダイ",
    "street": null,
    "office_name": null,
    "office_name_kana": null
  },
  "0131": {
    "zip_code": "6540131",
    "prefecture": "兵庫県",
    "prefecture_kana": "ヒョウゴケン",
    "prefecture_code": "28",
    "city": "神戸市須磨区",
    "city_kana": "コウベシスマク",
    "town": "横尾",
    "town_kana": "ヨコオ",
    "street": null,
    "office_name": null,
    "office_name_kana": null
  },
  "0132": {
    "zip_code": "6540132",
    "prefecture": "兵庫県",
    "prefecture_kana": "ヒョウゴケン",
    "prefecture_code": "28",
    "city": "神戸市須磨区",
    "city_kana": "コウベシスマク",
    "town": "多井畑南町",
    "town_kana": "タイノハタミナミマチ",
    "street": null,
    "office_name": null,
    "office_name_kana": null
  },
  "0133": {
    "zip_code": "6540133",
    "prefecture": "兵庫県",
    "prefecture_kana": "ヒョウゴケン",
    "prefecture_code": "28",
    "city": "神戸市須磨区",
    "city_kana": "コウベシスマク",
    "town": "多井畑",
    "town_kana": "タイノハタ",
    "street": null,
    "office_name": null,
    "office_name_kana": null
  },
  "0134": {
    "zip_code": "6540134",
    "prefecture": "兵庫県",
    "prefecture_kana": "ヒョウゴケン",
    "prefecture_code": "28",
    "city": "神戸市須磨区",
    "city_kana": "コウベシスマク",
    "town": "多井畑東町",
    "town_kana": "タイノハタヒガシマチ",
    "street": null,
    "office_name": null,
    "office_name_kana": null
  },
  "0141": {
    "zip_code": "6540141",
    "prefecture": "兵庫県",
    "prefecture_kana": "ヒョウゴケン",
    "prefecture_code": "28",
    "city": "神戸市須磨区",
    "city_kana": "コウベシスマク",
    "town": "竜が台",
    "town_kana": "リュウガダイ",
    "street": null,
    "office_name": null,
    "office_name_kana": null
  },
  "0142": {
    "zip_code": "6540142",
    "prefecture": "兵庫県",
    "prefecture_kana": "ヒョウゴケン",
    "prefecture_code": "28",
    "city": "神戸市須磨区",
    "city_kana": "コウベシスマク",
    "town": "友が丘",
    "town_kana": "トモガオカ",
    "street": null,
    "office_name": null,
    "office_name_kana": null
  },
  "0143": {
    "zip_code": "6540143",
    "prefecture": "兵庫県",
    "prefecture_kana": "ヒョウゴケン",
    "prefecture_code": "28",
    "city": "神戸市須磨区",
    "city_kana": "コウベシスマク",
    "town": "菅の台",
    "town_kana": "スガノダイ",
    "street": null,
    "office_name": null,
    "office_name_kana": null
  },
  "0151": {
    "zip_code": "6540151",
    "prefecture": "兵庫県",
    "prefecture_kana": "ヒョウゴケン",
    "prefecture_code": "28",
    "city": "神戸市須磨区",
    "city_kana": "コウベシスマク",
    "town": "北落合",
    "town_kana": "キタオチアイ",
    "street": null,
    "office_name": null,
    "office_name_kana": null
  },
  "0152": {
    "zip_code": "6540152",
    "prefecture": "兵庫県",
    "prefecture_kana": "ヒョウゴケン",
    "prefecture_code": "28",
    "city": "神戸市須磨区",
    "city_kana": "コウベシスマク",
    "town": "東落合",
    "town_kana": "ヒガシオチアイ",
    "street": null,
    "office_name": null,
    "office_name_kana": null
  },
  "0153": {
    "zip_code": "6540153",
    "prefecture": "兵庫県",
    "prefecture_kana": "ヒョウゴケン",
    "prefecture_code": "28",
    "city": "神戸市須磨区",
    "city_kana": "コウベシスマク",
    "town": "南落合",
    "town_kana": "ミナミオチアイ",
    "street": null,
    "office_name": null,
    "office_name_kana": null
  },
  "0154": {
    "zip_code": "6540154",
    "prefecture": "兵庫県",
    "prefecture_kana": "ヒョウゴケン",
    "prefecture_code": "28",
    "city": "神戸市須磨区",
    "city_kana": "コウベシスマク",
    "town": "中落合",
    "town_kana": "ナカオチアイ",
    "street": null,
    "office_name": null,
    "office_name_kana": null
  },
  "0155": {
    "zip_code": "6540155",
    "prefecture": "兵庫県",
    "prefecture_kana": "ヒョウゴケン",
    "prefecture_code": "28",
    "city": "神戸市須磨区",
    "city_kana": "コウベシスマク",
    "town": "西落合",
    "town_kana": "ニシオチアイ",
    "street": null,
    "office_name": null,
    "office_name_kana": null
  },
  "0161": {
    "zip_code": "6540161",
    "prefecture": "兵庫県",
    "prefecture_kana": "ヒョウゴケン",
    "prefecture_code": "28",
    "city": "神戸市須磨区",
    "city_kana": "コウベシスマク",
    "town": "弥栄台",
    "town_kana": "ヤサカダイ",
    "street": null,
    "office_name": null,
    "office_name_kana": null
  },
  "0162": {
    "zip_code": "6540162",
    "prefecture": "兵庫県",
    "prefecture_kana": "ヒョウゴケン",
    "prefecture_code": "28",
    "city": "神戸市須磨区",
    "city_kana": "コウベシスマク",
    "town": "神の谷",
    "town_kana": "カミノタニ",
    "street": null,
    "office_name": null,
    "office_name_kana": null
  },
  "0163": {
    "zip_code": "6540163",
    "prefecture": "兵庫県",
    "prefecture_kana": "ヒョウゴケン",
    "prefecture_code": "28",
    "city": "神戸市須磨区",
    "city_kana": "コウベシスマク",
    "town": "緑台",
    "town_kana": "ミドリダイ",
    "street": null,
    "office_name": null,
    "office_name_kana": null
  },
  "0192": {
    "zip_code": "6540192",
    "prefecture": "兵庫県",
    "prefecture_kana": "ヒョウゴケン",
    "prefecture_code": "28",
    "city": "神戸市須磨区",
    "city_kana": "コウベシスマク",
    "town": "弥栄台",
    "town_kana": "ヤサカダイ",
    "street": "３丁目１−２",
    "office_name": "株式会社　シャルレ",
    "office_name_kana": "カブシキガイシヤ シヤルレ"
  },
  "0193": {
    "zip_code": "6540193",
    "prefecture": "兵庫県",
    "prefecture_kana": "ヒョウゴケン",
    "prefecture_code": "28",
    "city": "神戸市須磨区",
    "city_kana": "コウベシスマク",
    "town": "弥栄台",
    "town_kana": "ヤサカダイ",
    "street": "３丁目１６−４",
    "office_name": "カネボウ薬品　株式会社　関西配送センター",
    "office_name_kana": "カネボウヤクヒン カブシキガイシヤ カンサイハイソウセンタ-"
  },
  "0195": {
    "zip_code": "6540195",
    "prefecture": "兵庫県",
    "prefecture_kana": "ヒョウゴケン",
    "prefecture_code": "28",
    "city": "神戸市須磨区",
    "city_kana": "コウベシスマク",
    "town": "中落合",
    "town_kana": "ナカオチアイ",
    "street": "２丁目２−５",
    "office_name": "須磨区役所　北須磨支所",
    "office_name_kana": "スマクヤクシヨ キタスマシシヨ"
  },
  "0198": {
    "zip_code": "6540198",
    "prefecture": "兵庫県",
    "prefecture_kana": "ヒョウゴケン",
    "prefecture_code": "28",
    "city": "神戸市須磨区",
    "city_kana": "コウベシスマク",
    "town": "弥栄台",
    "town_kana": "ヤサカダイ",
    "street": "２丁目７",
    "office_name": "（株）　フェリシモ",
    "office_name_kana": "カブシキガイシヤ フエリシモ"
  },
  "8570": {
    "zip_code": "6548570",
    "prefecture": "兵庫県",
    "prefecture_kana": "ヒョウゴケン",
    "prefecture_code": "28",
    "city": "神戸市須磨区",
    "city_kana": "コウベシスマク",
    "town": "大黒町",
    "town_kana": "ダイコクチョウ",
    "street": "４丁目１−１",
    "office_name": "須磨区役所",
    "office_name_kana": "スマクヤクシヨ"
  },
  "8585": {
    "zip_code": "6548585",
    "prefecture": "兵庫県",
    "prefecture_kana": "ヒョウゴケン",
    "prefecture_code": "28",
    "city": "神戸市須磨区",
    "city_kana": "コウベシスマク",
    "town": "東須磨",
    "town_kana": "ヒガシスマ",
    "street": "青山２−１",
    "office_name": "神戸女子大学",
    "office_name_kana": "コウベジヨシダイガク"
  }
}