{
  "0000": {
    "zip_code": "6590000",
    "prefecture": "兵庫県",
    "prefecture_kana": "ヒョウゴケン",
    "prefecture_code": "28",
    "city": "芦屋市",
    "city_kana": "アシヤシ",
    "town": "",
    "town_kana": "",
    "street": null,
    "office_name": null,
    "office_name_kana": null
  },
  "0001": {
    "zip_code": "6590001",
    "prefecture": "兵庫県",
    "prefecture_kana": "ヒョウゴケン",
    "prefecture_code": "28",
    "city": "芦屋市",
    "city_kana": "アシヤシ",
    "town": "剣谷",
    "town_kana": "ケンタニ",
    "street": null,
    "office_name": null,
    "office_name_kana": null
  },
  "0002": {
    "zip_code": "6590002",
    "prefecture": "兵庫県",
    "prefecture_kana": "ヒョウゴケン",
    "prefecture_code": "28",
    "city": "芦屋市",
    "city_kana": "アシヤシ",
    "town": "奥山",
    "town_kana": "オクヤマ",
    "street": null,
    "office_name": null,
    "office_name_kana": null
  },
  "0003": {
    "zip_code": "6590003",
    "prefecture": "兵庫県",
    "prefecture_kana": "ヒョウゴケン",
    "prefecture_code": "28",
    "city": "芦屋市",
    "city_kana": "アシヤシ",
    "town": "奥池町",
    "town_kana": "オクイケチョウ",
    "street": null,
    "office_name": null,
    "office_name_kana": null
  },
  "0004": {
    "zip_code": "6590004",
    "prefecture": "兵庫県",
    "prefecture_kana": "ヒョウゴケン",
    "prefecture_code": "28",
    "city": "芦屋市",
    "city_kana": "アシヤシ",
    "town": "奥池南町",
    "town_kana": "オクイケミナミチョウ",
    "street": null,
    "office_name": null,
    "office_name_kana": null
  },
  "0011": {
    "zip_code": "6590011",
    "prefecture": "兵庫県",
    "prefecture_kana": "ヒョウゴケン",
    "prefecture_code": "28",
    "city": "芦屋市",
    "city_kana": "アシヤシ",
    "town": "六麓荘町",
    "town_kana": "ロクロクソウチョウ",
    "street": null,
    "office_name": null,
    "office_name_kana": null
  },
  "0012": {
    "zip_code": "6590012",
    "prefecture": "兵庫県",
    "prefecture_kana": "ヒョウゴケン",
    "prefecture_code": "28",
    "city": "芦屋市",
    "city_kana": "アシヤシ",
    "town": "朝日ケ丘町",
    "town_kana": "アサヒガオカチョウ",
    "street": null,
    "office_name": null,
    "office_name_kana": null
  },
  "0013": {
    "zip_code": "6590013",
    "prefecture": "兵庫県",
    "prefecture_kana": "ヒョウゴケン",
    "prefecture_code": "28",
    "city": "芦屋市",
    "city_kana": "アシヤシ",
    "town": "岩園町",
    "town_kana": "イワゾノチョウ",
    "street": null,
    "office_name": null,
    "office_name_kana": null
  },
  "0014": {
    "zip_code": "6590014",
    "prefecture": "兵庫県",
    "prefecture_kana": "ヒョウゴケン",
    "prefecture_code": "28",
    "city": "芦屋市",
    "city_kana": "アシヤシ",
    "town": "翠ケ丘町",
    "town_kana": "ミドリガオカチョウ",
    "street": null,
    "office_name": null,
    "office_name_kana": null
  },
  "0015": {
    "zip_code": "6590015",
    "prefecture": "兵庫県",
    "prefecture_kana": "ヒョウゴケン",
    "prefecture_code": "28",
    "city": "芦屋市",
    "city_kana": "アシヤシ",
    "town": "楠町",
    "town_kana": "クスノキチョウ",
    "street": null,
    "office_name": null,
    "office_name_kana": null
  },
  "0016": {
    "zip_code": "6590016",
    "prefecture": "兵庫県",
    "prefecture_kana": "ヒョウゴケン",
    "prefecture_code": "28",
    "city": "芦屋市",
    "city_kana": "アシヤシ",
    "town": "親王塚町",
    "town_kana": "シンノウヅカチョウ",
    "street": null,
    "office_name": null,
    "office_name_kana": null
  },
  "0021": {
    "zip_code": "6590021",
    "prefecture": "兵庫県",
    "prefecture_kana": "ヒョウゴケン",
    "prefecture_code": "28",
    "city": "芦屋市",
    "city_kana": "アシヤシ",
    "town": "春日町",
    "town_kana": "カスガチョウ",
    "street": null,
    "office_name": null,
    "office_name_kana": null
  },
  "0022": {
    "zip_code": "6590022",
    "prefecture": "兵庫県",
    "prefecture_kana": "ヒョウゴケン",
    "prefecture_code": "28",
    "city": "芦屋市",
    "city_kana": "アシヤシ",
    "town": "打出町",
    "town_kana": "ウチデチョウ",
    "street": null,
    "office_name": null,
    "office_name_kana": null
  },
  "0023": {
    "zip_code": "6590023",
    "prefecture": "兵庫県",
    "prefecture_kana": "ヒョウゴケン",
    "prefecture_code": "28",
    "city": "芦屋市",
    "city_kana": "アシヤシ",
    "town": "大東町",
    "town_kana": "ダイトウチョウ",
    "street": null,
    "office_name": null,
    "office_name_kana": null
  },
  "0024": {
    "zip_code": "6590024",
    "prefecture": "兵庫県",
    "prefecture_kana": "ヒョウゴケン",
    "prefecture_code": "28",
    "city": "芦屋市",
    "city_kana": "アシヤシ",
    "town": "南宮町",
    "town_kana": "ナングウチョウ",
    "street": null,
    "office_name": null,
    "office_name_kana": null
  },
  "0025": {
    "zip_code": "6590025",
    "prefecture": "兵庫県",
    "prefecture_kana": "ヒョウゴケン",
    "prefecture_code": "28",
    "city": "芦屋市",
    "city_kana": "アシヤシ",
    "town": "浜町",
    "town_kana": "ハマチョウ",
    "street": null,
    "office_name": null,
    "office_name_kana": null
  },
  "0026": {
    "zip_code": "6590026",
    "prefecture": "兵庫県",
    "prefecture_kana": "ヒョウゴケン",
    "prefecture_code": "28",
    "city": "芦屋市",
    "city_kana": "アシヤシ",
    "town": "西蔵町",
    "town_kana": "ニシクラチョウ",
    "street": null,
    "office_name": null,
    "office_name_kana": null
  },
  "0027": {
    "zip_code": "6590027",
    "prefecture": "兵庫県",
    "prefecture_kana": "ヒョウゴケン",
    "prefecture_code": "28",
    "city": "芦屋市",
    "city_kana": "アシヤシ",
    "town": "若宮町",
    "town_kana": "ワカミヤチョウ",
    "street": null,
    "office_name": null,
    "office_name_kana": null
  },
  "0028": {
    "zip_code": "6590028",
    "prefecture": "兵庫県",
    "prefecture_kana": "ヒョウゴケン",
    "prefecture_code": "28",
    "city": "芦屋市",
    "city_kana": "アシヤシ",
    "town": "打出小槌町",
    "town_kana": "ウチデコヅチチョウ",
    "street": null,
    "office_name": null,
    "office_name_kana": null
  },
  "0031": {
    "zip_code": "6590031",
    "prefecture": "兵庫県",
    "prefecture_kana": "ヒョウゴケン",
    "prefecture_code": "28",
    "city": "芦屋市",
    "city_kana": "アシヤシ",
    "town": "新浜町",
    "town_kana": "ニイハマチョウ",
    "street": null,
    "office_name": null,
    "office_name_kana": null
  },
  "0032": {
    "zip_code": "6590032",
    "prefecture": "兵庫県",
    "prefecture_kana": "ヒョウゴケン",
    "prefecture_code": "28",
    "city": "芦屋市",
    "city_kana": "アシヤシ",
    "town": "浜風町",
    "town_kana": "ハマカゼチョウ",
    "street": null,
    "office_name": null,
    "office_name_kana": null
  },
  "0033": {
    "zip_code": "6590033",
    "prefecture": "兵庫県",
    "prefecture_kana": "ヒョウゴケン",
    "prefecture_code": "28",
    "city": "芦屋市",
    "city_kana": "アシヤシ",
    "town": "高浜町",
    "town_kana": "タカハマチョウ",
    "street": null,
    "office_name": null,
    "office_name_kana": null
  },
  "0034": {
    "zip_code": "6590034",
    "prefecture": "兵庫県",
    "prefecture_kana": "ヒョウゴケン",
    "prefecture_code": "28",
    "city": "芦屋市",
    "city_kana": "アシヤシ",
    "town": "陽光町",
    "town_kana": "ヨウコウチョウ",
    "street": null,
    "office_name": null,
    "office_name_kana": null
  },
  "0035": {
    "zip_code": "6590035",
    "prefecture": "兵庫県",
    "prefecture_kana": "ヒョウゴケン",
    "prefecture_code": "28",
    "city": "芦屋市",
    "city_kana": "アシヤシ",
    "town": "海洋町",
    "town_kana": "カイヨウチョウ",
    "street": null,
    "office_name": null,
    "office_name_kana": null
  },
  "0036": {
    "zip_code": "6590036",
    "prefecture": "兵庫県",
    "prefecture_kana": "ヒョウゴケン",
    "prefecture_code": "28",
    "city": "芦屋市",
    "city_kana": "アシヤシ",
    "town": "涼風町",
    "town_kana": "スズカゼチョウ",
    "street": null,
    "office_name": null,
    "office_name_kana": null
  },
  "0037": {
    "zip_code": "6590037",
    "prefecture": "兵庫県",
    "prefecture_kana": "ヒョウゴケン",
    "prefecture_code": "28",
    "city": "芦屋市",
    "city_kana": "アシヤシ",
    "town": "南浜町",
    "town_kana": "ミナミハマチョウ",
    "street": null,
    "office_name": null,
    "office_name_kana": null
  },
  "0041": {
    "zip_code": "6590041",
    "prefecture": "兵庫県",
    "prefecture_kana": "ヒョウゴケン",
    "prefecture_code": "28",
    "city": "芦屋市",
    "city_kana": "アシヤシ",
    "town": "若葉町",
    "town_kana": "ワカバチョウ",
    "street": null,
    "office_name": null,
    "office_name_kana": null
  },
  "0042": {
    "zip_code": "6590042",
    "prefecture": "兵庫県",
    "prefecture_kana": "ヒョウゴケン",
    "prefecture_code": "28",
    "city": "芦屋市",
    "city_kana": "アシヤシ",
    "town": "緑町",
    "town_kana": "ミドリチョウ",
    "street": null,
    "office_name": null,
    "office_name_kana": null
  },
  "0043": {
    "zip_code": "6590043",
    "prefecture": "兵庫県",
    "prefecture_kana": "ヒョウゴケン",
    "prefecture_code": "28",
    "city": "芦屋市",
    "city_kana": "アシヤシ",
    "town": "潮見町",
    "town_kana": "シオミチョウ",
    "street": null,
    "office_name": null,
    "office_name_kana": null
  },
  "0051": {
    "zip_code": "6590051",
    "prefecture": "兵庫県",
    "prefecture_kana": "ヒョウゴケン",
    "prefecture_code": "28",
    "city": "芦屋市",
    "city_kana": "アシヤシ",
    "town": "呉川町",
    "town_kana": "クレカワチョウ",
    "street": null,
    "office_name": null,
    "office_name_kana": null
  },
  "0052": {
    "zip_code": "6590052",
    "prefecture": "兵庫県",
    "prefecture_kana": "ヒョウゴケン",
    "prefecture_code": "28",
    "city": "芦屋市",
    "city_kana": "アシヤシ",
    "town": "伊勢町",
    "town_kana": "イセチョウ",
    "street": null,
    "office_name": null,
    "office_name_kana": null
  },
  "0053": {
    "zip_code": "6590053",
    "prefecture": "兵庫県",
    "prefecture_kana": "ヒョウゴケン",
    "prefecture_code": "28",
    "city": "芦屋市",
    "city_kana": "アシヤシ",
    "town": "松浜町",
    "town_kana": "マツハマチョウ",
    "street": null,
    "office_name": null,
    "office_name_kana": null
  },
  "0054": {
    "zip_code": "6590054",
    "prefecture": "兵庫県",
    "prefecture_kana": "ヒョウゴケン",
    "prefecture_code": "28",
    "city": "芦屋市",
    "city_kana": "アシヤシ",
    "town": "浜芦屋町",
    "town_kana": "ハマアシヤチョウ",
    "street": null,
    "office_name": null,
    "office_name_kana": null
  },
  "0055": {
    "zip_code": "6590055",
    "prefecture": "兵庫県",
    "prefecture_kana": "ヒョウゴケン",
    "prefecture_code": "28",
    "city": "芦屋市",
    "city_kana": "アシヤシ",
    "town": "竹園町",
    "town_kana": "タケゾノチョウ",
    "street": null,
    "office_name": null,
    "office_name_kana": null
  },
  "0061": {
    "zip_code": "6590061",
    "prefecture": "兵庫県",
    "prefecture_kana": "ヒョウゴケン",
    "prefecture_code": "28",
    "city": "芦屋市",
    "city_kana": "アシヤシ",
    "town": "上宮川町",
    "town_kana": "カミミヤガワチョウ",
    "street": null,
    "office_name": null,
    "office_name_kana": null
  },
  "0062": {
    "zip_code": "6590062",
    "prefecture": "兵庫県",
    "prefecture_kana": "ヒョウゴケン",
    "prefecture_code": "28",
    "city": "芦屋市",
    "city_kana": "アシヤシ",
    "town": "宮塚町",
    "town_kana": "ミヤヅカチョウ",
    "street": null,
    "office_name": null,
    "office_name_kana": null
  },
  "0063": {
    "zip_code": "6590063",
    "prefecture": "兵庫県",
    "prefecture_kana": "ヒョウゴケン",
    "prefecture_code": "28",
    "city": "芦屋市",
    "city_kana": "アシヤシ",
    "town": "宮川町",
    "town_kana": "ミヤガワチョウ",
    "street": null,
    "office_name": null,
    "office_name_kana": null
  },
  "0064": {
    "zip_code": "6590064",
    "prefecture": "兵庫県",
    "prefecture_kana": "ヒョウゴケン",
    "prefecture_code": "28",
    "city": "芦屋市",
    "city_kana": "アシヤシ",
    "town": "精道町",
    "town_kana": "セイドウチョウ",
    "street": null,
    "office_name": null,
    "office_name_kana": null
  },
  "0065": {
    "zip_code": "6590065",
    "prefecture": "兵庫県",
    "prefecture_kana": "ヒョウゴケン",
    "prefecture_code": "28",
    "city": "芦屋市",
    "city_kana": "アシヤシ",
    "town": "公光町",
    "town_kana": "キンミツチョウ",
    "street": null,
    "office_name": null,
    "office_name_kana": null
  },
  "0066": {
    "zip_code": "6590066",
    "prefecture": "兵庫県",
    "prefecture_kana": "ヒョウゴケン",
    "prefecture_code": "28",
    "city": "芦屋市",
    "city_kana": "アシヤシ",
    "town": "大桝町",
    "town_kana": "オオマスチョウ",
    "street": null,
    "office_name": null,
    "office_name_kana": null
  },
  "0067": {
    "zip_code": "6590067",
    "prefecture": "兵庫県",
    "prefecture_kana": "ヒョウゴケン",
    "prefecture_code": "28",
    "city": "芦屋市",
    "city_kana": "アシヤシ",
    "town": "茶屋之町",
    "town_kana": "チャヤノチョウ",
    "street": null,
    "office_name": null,
    "office_name_kana": null
  },
  "0068": {
    "zip_code": "6590068",
    "prefecture": "兵庫県",
    "prefecture_kana": "ヒョウゴケン",
    "prefecture_code": "28",
    "city": "芦屋市",
    "city_kana": "アシヤシ",
    "town": "業平町",
    "town_kana": "ナリヒラチョウ",
    "street": null,
    "office_name": null,
    "office_name_kana": null
  },
  "0071": {
    "zip_code": "6590071",
    "prefecture": "兵庫県",
    "prefecture_kana": "ヒョウゴケン",
    "prefecture_code": "28",
    "city": "芦屋市",
    "city_kana": "アシヤシ",
    "town": "前田町",
    "town_kana": "マエダチョウ",
    "street": null,
    "office_name": null,
    "office_name_kana": null
  },
  "0072": {
    "zip_code": "6590072",
    "prefecture": "兵庫県",
    "prefecture_kana": "ヒョウゴケン",
    "prefecture_code": "28",
    "city": "芦屋市",
    "city_kana": "アシヤシ",
    "town": "川西町",
    "town_kana": "カワニシチョウ",
    "street": null,
    "office_name": null,
    "office_name_kana": null
  },
  "0073": {
    "zip_code": "6590073",
    "prefecture": "兵庫県",
    "prefecture_kana": "ヒョウゴケン",
    "prefecture_code": "28",
    "city": "芦屋市",
    "city_kana": "アシヤシ",
    "town": "平田北町",
    "town_kana": "ヒラタキタチョウ",
    "street": null,
    "office_name": null,
    "office_name_kana": null
  },
  "0074": {
    "zip_code": "6590074",
    "prefecture": "兵庫県",
    "prefecture_kana": "ヒョウゴケン",
    "prefecture_code": "28",
    "city": "芦屋市",
    "city_kana": "アシヤシ",
    "town": "平田町",
    "town_kana": "ヒラタチョウ",
    "street": null,
    "office_name": null,
    "office_name_kana": null
  },
  "0075": {
    "zip_code": "6590075",
    "prefecture": "兵庫県",
    "prefecture_kana": "ヒョウゴケン",
    "prefecture_code": "28",
    "city": "芦屋市",
    "city_kana": "アシヤシ",
    "town": "津知町",
    "town_kana": "ツチチョウ",
    "street": null,
    "office_name": null,
    "office_name_kana": null
  },
  "0076": {
    "zip_code": "6590076",
    "prefecture": "兵庫県",
    "prefecture_kana": "ヒョウゴケン",
    "prefecture_code": "28",
    "city": "芦屋市",
    "city_kana": "アシヤシ",
    "town": "清水町",
    "town_kana": "シミズチョウ",
    "street": null,
    "office_name": null,
    "office_name_kana": null
  },
  "0081": {
    "zip_code": "6590081",
    "prefecture": "兵庫県",
    "prefecture_kana": "ヒョウゴケン",
    "prefecture_code": "28",
    "city": "芦屋市",
    "city_kana": "アシヤシ",
    "town": "城山",
    "town_kana": "シロヤマ",
    "street": null,
    "office_name": null,
    "office_name_kana": null
  },
  "0082": {
    "zip_code": "6590082",
    "prefecture": "兵庫県",
    "prefecture_kana": "ヒョウゴケン",
    "prefecture_code": "28",
    "city": "芦屋市",
    "city_kana": "アシヤシ",
    "town": "山芦屋町",
    "town_kana": "ヤマアシヤチョウ",
    "street": null,
    "office_name": null,
    "office_name_kana": null
  },
  "0083": {
    "zip_code": "6590083",
    "prefecture": "兵庫県",
    "prefecture_kana": "ヒョウゴケン",
    "prefecture_code": "28",
    "city": "芦屋市",
    "city_kana": "アシヤシ",
    "town": "西山町",
    "town_kana": "ニシヤマチョウ",
    "street": null,
    "office_name": null,
    "office_name_kana": null
  },
  "0084": {
    "zip_code": "6590084",
    "prefecture": "兵庫県",
    "prefecture_kana": "ヒョウゴケン",
    "prefecture_code": "28",
    "city": "芦屋市",
    "city_kana": "アシヤシ",
    "town": "月若町",
    "town_kana": "ツキワカチョウ",
    "street": null,
    "office_name": null,
    "office_name_kana": null
  },
  "0085": {
    "zip_code": "6590085",
    "prefecture": "兵庫県",
    "prefecture_kana": "ヒョウゴケン",
    "prefecture_code": "28",
    "city": "芦屋市",
    "city_kana": "アシヤシ",
    "town": "西芦屋町",
    "town_kana": "ニシアシヤチョウ",
    "street": null,
    "office_name": null,
    "office_name_kana": null
  },
  "0086": {
    "zip_code": "6590086",
    "prefecture": "兵庫県",
    "prefecture_kana": "ヒョウゴケン",
    "prefecture_code": "28",
    "city": "芦屋市",
    "city_kana": "アシヤシ",
    "town": "三条南町",
    "town_kana": "サンジョウミナミチョウ",
    "street": null,
    "office_name": null,
    "office_name_kana": null
  },
  "0087": {
    "zip_code": "6590087",
    "prefecture": "兵庫県",
    "prefecture_kana": "ヒョウゴケン",
    "prefecture_code": "28",
    "city": "芦屋市",
    "city_kana": "アシヤシ",
    "town": "三条町",
    "town_kana": "サンジョウチョウ",
    "street": null,
    "office_name": null,
    "office_name_kana": null
  },
  "0091": {
    "zip_code": "6590091",
    "prefecture": "兵庫県",
    "prefecture_kana": "ヒョウゴケン",
    "prefecture_code": "28",
    "city": "芦屋市",
    "city_kana": "アシヤシ",
    "town": "東山町",
    "town_kana": "ヒガシヤマチョウ",
    "street": null,
    "office_name": null,
    "office_name_kana": null
  },
  "0092": {
    "zip_code": "6590092",
    "prefecture": "兵庫県",
    "prefecture_kana": "ヒョウゴケン",
    "prefecture_code": "28",
    "city": "芦屋市",
    "city_kana": "アシヤシ",
    "town": "大原町",
    "town_kana": "オオハラチョウ",
    "street": null,
    "office_name": null,
    "office_name_kana": null
  },
  "0093": {
    "zip_code": "6590093",
    "prefecture": "兵庫県",
    "prefecture_kana": "ヒョウゴケン",
    "prefecture_code": "28",
    "city": "芦屋市",
    "city_kana": "アシヤシ",
    "town": "船戸町",
    "town_kana": "フナドチョウ",
    "street": null,
    "office_name": null,
    "office_name_kana": null
  },
  "0094": {
    "zip_code": "6590094",
    "prefecture": "兵庫県",
    "prefecture_kana": "ヒョウゴケン",
    "prefecture_code": "28",
    "city": "芦屋市",
    "city_kana": "アシヤシ",
    "town": "松ノ内町",
    "town_kana": "マツノウチチョウ",
    "street": null,
    "office_name": null,
    "office_name_kana": null
  },
  "0095": {
    "zip_code": "6590095",
    "prefecture": "兵庫県",
    "prefecture_kana": "ヒョウゴケン",
    "prefecture_code": "28",
    "city": "芦屋市",
    "city_kana": "アシヤシ",
    "town": "東芦屋町",
    "town_kana": "ヒガシアシヤチョウ",
    "street": null,
    "office_name": null,
    "office_name_kana": null
  },
  "0096": {
    "zip_code": "6590096",
    "prefecture": "兵庫県",
    "prefecture_kana": "ヒョウゴケン",
    "prefecture_code": "28",
    "city": "芦屋市",
    "city_kana": "アシヤシ",
    "town": "山手町",
    "town_kana": "ヤマテチョウ",
    "street": null,
    "office_name": null,
    "office_name_kana": null
  },
  "8501": {
    "zip_code": "6598501",
    "prefecture": "兵庫県",
    "prefecture_kana": "ヒョウゴケン",
    "prefecture_code": "28",
    "city": "芦屋市",
    "city_kana": "アシヤシ",
    "town": "精道町",
    "town_kana": "セイドウチョウ",
    "street": "７−６",
    "office_name": "芦屋市役所",
    "office_name_kana": "アシヤシヤクシヨ"
  },
  "8502": {
    "zip_code": "6598502",
    "prefecture": "兵庫県",
    "prefecture_kana": "ヒョウゴケン",
    "prefecture_code": "28",
    "city": "芦屋市",
    "city_kana": "アシヤシ",
    "town": "朝日ケ丘町",
    "town_kana": "アサヒガオカチョウ",
    "street": "３９−１",
    "office_name": "市立　芦屋病院",
    "office_name_kana": "シリツ アシヤビヨウイン"
  },
  "8503": {
    "zip_code": "6598503",
    "prefecture": "兵庫県",
    "prefecture_kana": "ヒョウゴケン",
    "prefecture_code": "28",
    "city": "芦屋市",
    "city_kana": "アシヤシ",
    "town": "公光町",
    "town_kana": "キンミツチョウ",
    "street": "６−２",
    "office_name": "芦屋税務署",
    "office_name_kana": "アシヤゼイムシヨ"
  },
  "8511": {
    "zip_code": "6598511",
    "prefecture": "兵庫県",
    "prefecture_kana": "ヒョウゴケン",
    "prefecture_code": "28",
    "city": "芦屋市",
    "city_kana": "アシヤシ",
    "town": "六麓荘町",
    "town_kana": "ロクロクソウチョウ",
    "street": "１３−２２",
    "office_name": "学校法人　芦屋学園",
    "office_name_kana": "ガツコウホウジン アシヤガクエン"
  }
}