{
  "0000": {
    "zip_code": "6640000",
    "prefecture": "兵庫県",
    "prefecture_kana": "ヒョウゴケン",
    "prefecture_code": 28,
    "city": "伊丹市",
    "city_kana": "イタミシ",
    "town": "",
    "town_kana": "",
    "street": null,
    "office_name": null,
    "office_name_kana": null
  },
  "0001": {
    "zip_code": "6640001",
    "prefecture": "兵庫県",
    "prefecture_kana": "ヒョウゴケン",
    "prefecture_code": 28,
    "city": "伊丹市",
    "city_kana": "イタミシ",
    "town": "荒牧",
    "town_kana": "アラマキ",
    "street": null,
    "office_name": null,
    "office_name_kana": null
  },
  "0002": {
    "zip_code": "6640002",
    "prefecture": "兵庫県",
    "prefecture_kana": "ヒョウゴケン",
    "prefecture_code": 28,
    "city": "伊丹市",
    "city_kana": "イタミシ",
    "town": "荻野",
    "town_kana": "オギノ",
    "street": null,
    "office_name": null,
    "office_name_kana": null
  },
  "0003": {
    "zip_code": "6640003",
    "prefecture": "兵庫県",
    "prefecture_kana": "ヒョウゴケン",
    "prefecture_code": 28,
    "city": "伊丹市",
    "city_kana": "イタミシ",
    "town": "大野",
    "town_kana": "オオノ",
    "street": null,
    "office_name": null,
    "office_name_kana": null
  },
  "0004": {
    "zip_code": "6640004",
    "prefecture": "兵庫県",
    "prefecture_kana": "ヒョウゴケン",
    "prefecture_code": 28,
    "city": "伊丹市",
    "city_kana": "イタミシ",
    "town": "東野",
    "town_kana": "ヒガシノ",
    "street": null,
    "office_name": null,
    "office_name_kana": null
  },
  "0005": {
    "zip_code": "6640005",
    "prefecture": "兵庫県",
    "prefecture_kana": "ヒョウゴケン",
    "prefecture_code": 28,
    "city": "伊丹市",
    "city_kana": "イタミシ",
    "town": "瑞原",
    "town_kana": "ミズハラ",
    "street": null,
    "office_name": null,
    "office_name_kana": null
  },
  "0006": {
    "zip_code": "6640006",
    "prefecture": "兵庫県",
    "prefecture_kana": "ヒョウゴケン",
    "prefecture_code": 28,
    "city": "伊丹市",
    "city_kana": "イタミシ",
    "town": "鴻池",
    "town_kana": "コウノイケ",
    "street": null,
    "office_name": null,
    "office_name_kana": null
  },
  "0007": {
    "zip_code": "6640007",
    "prefecture": "兵庫県",
    "prefecture_kana": "ヒョウゴケン",
    "prefecture_code": 28,
    "city": "伊丹市",
    "city_kana": "イタミシ",
    "town": "北野",
    "town_kana": "キタノ",
    "street": null,
    "office_name": null,
    "office_name_kana": null
  },
  "0008": {
    "zip_code": "6640008",
    "prefecture": "兵庫県",
    "prefecture_kana": "ヒョウゴケン",
    "prefecture_code": 28,
    "city": "伊丹市",
    "city_kana": "イタミシ",
    "town": "荒牧南",
    "town_kana": "アラマキミナミ",
    "street": null,
    "office_name": null,
    "office_name_kana": null
  },
  "0011": {
    "zip_code": "6640011",
    "prefecture": "兵庫県",
    "prefecture_kana": "ヒョウゴケン",
    "prefecture_code": 28,
    "city": "伊丹市",
    "city_kana": "イタミシ",
    "town": "鋳物師",
    "town_kana": "イモジ",
    "street": null,
    "office_name": null,
    "office_name_kana": null
  },
  "0012": {
    "zip_code": "6640012",
    "prefecture": "兵庫県",
    "prefecture_kana": "ヒョウゴケン",
    "prefecture_code": 28,
    "city": "伊丹市",
    "city_kana": "イタミシ",
    "town": "緑ケ丘",
    "town_kana": "ミドリガオカ",
    "street": null,
    "office_name": null,
    "office_name_kana": null
  },
  "0013": {
    "zip_code": "6640013",
    "prefecture": "兵庫県",
    "prefecture_kana": "ヒョウゴケン",
    "prefecture_code": 28,
    "city": "伊丹市",
    "city_kana": "イタミシ",
    "town": "瑞穂町",
    "town_kana": "ミズホチョウ",
    "street": null,
    "office_name": null,
    "office_name_kana": null
  },
  "0014": {
    "zip_code": "6640014",
    "prefecture": "兵庫県",
    "prefecture_kana": "ヒョウゴケン",
    "prefecture_code": 28,
    "city": "伊丹市",
    "city_kana": "イタミシ",
    "town": "広畑",
    "town_kana": "ヒロハタ",
    "street": null,
    "office_name": null,
    "office_name_kana": null
  },
  "0015": {
    "zip_code": "6640015",
    "prefecture": "兵庫県",
    "prefecture_kana": "ヒョウゴケン",
    "prefecture_code": 28,
    "city": "伊丹市",
    "city_kana": "イタミシ",
    "town": "昆陽池",
    "town_kana": "コヤイケ",
    "street": null,
    "office_name": null,
    "office_name_kana": null
  },
  "0016": {
    "zip_code": "6640016",
    "prefecture": "兵庫県",
    "prefecture_kana": "ヒョウゴケン",
    "prefecture_code": 28,
    "city": "伊丹市",
    "city_kana": "イタミシ",
    "town": "昆陽北",
    "town_kana": "コヤキタ",
    "street": null,
    "office_name": null,
    "office_name_kana": null
  },
  "0017": {
    "zip_code": "6640017",
    "prefecture": "兵庫県",
    "prefecture_kana": "ヒョウゴケン",
    "prefecture_code": 28,
    "city": "伊丹市",
    "city_kana": "イタミシ",
    "town": "瑞ケ丘",
    "town_kana": "ミズガオカ",
    "street": null,
    "office_name": null,
    "office_name_kana": null
  },
  "0020": {
    "zip_code": "6640020",
    "prefecture": "兵庫県",
    "prefecture_kana": "ヒョウゴケン",
    "prefecture_code": 28,
    "city": "伊丹市",
    "city_kana": "イタミシ",
    "town": "寺本東",
    "town_kana": "テラモトヒガシ",
    "street": null,
    "office_name": null,
    "office_name_kana": null
  },
  "0022": {
    "zip_code": "6640022",
    "prefecture": "兵庫県",
    "prefecture_kana": "ヒョウゴケン",
    "prefecture_code": 28,
    "city": "伊丹市",
    "city_kana": "イタミシ",
    "town": "中野東",
    "town_kana": "ナカノヒガシ",
    "street": null,
    "office_name": null,
    "office_name_kana": null
  },
  "0023": {
    "zip_code": "6640023",
    "prefecture": "兵庫県",
    "prefecture_kana": "ヒョウゴケン",
    "prefecture_code": 28,
    "city": "伊丹市",
    "city_kana": "イタミシ",
    "town": "中野西",
    "town_kana": "ナカノニシ",
    "street": null,
    "office_name": null,
    "office_name_kana": null
  },
  "0024": {
    "zip_code": "6640024",
    "prefecture": "兵庫県",
    "prefecture_kana": "ヒョウゴケン",
    "prefecture_code": 28,
    "city": "伊丹市",
    "city_kana": "イタミシ",
    "town": "松ケ丘",
    "town_kana": "マツガオカ",
    "street": null,
    "office_name": null,
    "office_name_kana": null
  },
  "0025": {
    "zip_code": "6640025",
    "prefecture": "兵庫県",
    "prefecture_kana": "ヒョウゴケン",
    "prefecture_code": 28,
    "city": "伊丹市",
    "city_kana": "イタミシ",
    "town": "奥畑",
    "town_kana": "オクハタ",
    "street": null,
    "office_name": null,
    "office_name_kana": null
  },
  "0026": {
    "zip_code": "6640026",
    "prefecture": "兵庫県",
    "prefecture_kana": "ヒョウゴケン",
    "prefecture_code": 28,
    "city": "伊丹市",
    "city_kana": "イタミシ",
    "town": "寺本",
    "town_kana": "テラモト",
    "street": null,
    "office_name": null,
    "office_name_kana": null
  },
  "0027": {
    "zip_code": "6640027",
    "prefecture": "兵庫県",
    "prefecture_kana": "ヒョウゴケン",
    "prefecture_code": 28,
    "city": "伊丹市",
    "city_kana": "イタミシ",
    "town": "池尻",
    "town_kana": "イケジリ",
    "street": null,
    "office_name": null,
    "office_name_kana": null
  },
  "0028": {
    "zip_code": "6640028",
    "prefecture": "兵庫県",
    "prefecture_kana": "ヒョウゴケン",
    "prefecture_code": 28,
    "city": "伊丹市",
    "city_kana": "イタミシ",
    "town": "西野",
    "town_kana": "ニシノ",
    "street": null,
    "office_name": null,
    "office_name_kana": null
  },
  "0029": {
    "zip_code": "6640029",
    "prefecture": "兵庫県",
    "prefecture_kana": "ヒョウゴケン",
    "prefecture_code": 28,
    "city": "伊丹市",
    "city_kana": "イタミシ",
    "town": "中野北",
    "town_kana": "ナカノキタ",
    "street": null,
    "office_name": null,
    "office_name_kana": null
  },
  "0031": {
    "zip_code": "6640031",
    "prefecture": "兵庫県",
    "prefecture_kana": "ヒョウゴケン",
    "prefecture_code": 28,
    "city": "伊丹市",
    "city_kana": "イタミシ",
    "town": "荻野西",
    "town_kana": "オギノニシ",
    "street": null,
    "office_name": null,
    "office_name_kana": null
  },
  "0831": {
    "zip_code": "6640831",
    "prefecture": "兵庫県",
    "prefecture_kana": "ヒョウゴケン",
    "prefecture_code": 28,
    "city": "伊丹市",
    "city_kana": "イタミシ",
    "town": "北伊丹",
    "town_kana": "キタイタミ",
    "street": null,
    "office_name": null,
    "office_name_kana": null
  },
  "0832": {
    "zip_code": "6640832",
    "prefecture": "兵庫県",
    "prefecture_kana": "ヒョウゴケン",
    "prefecture_code": 28,
    "city": "伊丹市",
    "city_kana": "イタミシ",
    "town": "下河原",
    "town_kana": "シモガワラ",
    "street": null,
    "office_name": null,
    "office_name_kana": null
  },
  "0833": [
    {
      "zip_code": "6640833",
      "prefecture": "兵庫県",
      "prefecture_kana": "ヒョウゴケン",
      "prefecture_code": 28,
      "city": "伊丹市",
      "city_kana": "イタミシ",
      "town": "小阪田",
      "town_kana": "オサカデン",
      "street": null,
      "office_name": null,
      "office_name_kana": null
    },
    {
      "zip_code": "6640833",
      "prefecture": "兵庫県",
      "prefecture_kana": "ヒョウゴケン",
      "prefecture_code": 28,
      "city": "伊丹市",
      "city_kana": "イタミシ",
      "town": "小阪田都賀元",
      "town_kana": "オサカデントガモト",
      "street": null,
      "office_name": null,
      "office_name_kana": null
    }
  ],
  "0834": {
    "zip_code": "6640834",
    "prefecture": "兵庫県",
    "prefecture_kana": "ヒョウゴケン",
    "prefecture_code": 28,
    "city": "伊丹市",
    "city_kana": "イタミシ",
    "town": "西桑津",
    "town_kana": "ニシクワヅ",
    "street": null,
    "office_name": null,
    "office_name_kana": null
  },
  "0835": {
    "zip_code": "6640835",
    "prefecture": "兵庫県",
    "prefecture_kana": "ヒョウゴケン",
    "prefecture_code": 28,
    "city": "伊丹市",
    "city_kana": "イタミシ",
    "town": "東桑津",
    "town_kana": "ヒガシクワヅ",
    "street": null,
    "office_name": null,
    "office_name_kana": null
  },
  "0836": {
    "zip_code": "6640836",
    "prefecture": "兵庫県",
    "prefecture_kana": "ヒョウゴケン",
    "prefecture_code": 28,
    "city": "伊丹市",
    "city_kana": "イタミシ",
    "town": "北本町",
    "town_kana": "キタホンマチ",
    "street": null,
    "office_name": null,
    "office_name_kana": null
  },
  "0837": {
    "zip_code": "6640837",
    "prefecture": "兵庫県",
    "prefecture_kana": "ヒョウゴケン",
    "prefecture_code": 28,
    "city": "伊丹市",
    "city_kana": "イタミシ",
    "town": "北河原",
    "town_kana": "キタガワラ",
    "street": null,
    "office_name": null,
    "office_name_kana": null
  },
  "0838": {
    "zip_code": "6640838",
    "prefecture": "兵庫県",
    "prefecture_kana": "ヒョウゴケン",
    "prefecture_code": 28,
    "city": "伊丹市",
    "city_kana": "イタミシ",
    "town": "中村",
    "town_kana": "ナカムラ",
    "street": null,
    "office_name": null,
    "office_name_kana": null
  },
  "0839": {
    "zip_code": "6640839",
    "prefecture": "兵庫県",
    "prefecture_kana": "ヒョウゴケン",
    "prefecture_code": 28,
    "city": "伊丹市",
    "city_kana": "イタミシ",
    "town": "桑津",
    "town_kana": "クワヅ",
    "street": null,
    "office_name": null,
    "office_name_kana": null
  },
  "0842": {
    "zip_code": "6640842",
    "prefecture": "兵庫県",
    "prefecture_kana": "ヒョウゴケン",
    "prefecture_code": 28,
    "city": "伊丹市",
    "city_kana": "イタミシ",
    "town": "森本",
    "town_kana": "モリモト",
    "street": null,
    "office_name": null,
    "office_name_kana": null
  },
  "0843": {
    "zip_code": "6640843",
    "prefecture": "兵庫県",
    "prefecture_kana": "ヒョウゴケン",
    "prefecture_code": 28,
    "city": "伊丹市",
    "city_kana": "イタミシ",
    "town": "岩屋",
    "town_kana": "イワヤ",
    "street": null,
    "office_name": null,
    "office_name_kana": null
  },
  "0844": {
    "zip_code": "6640844",
    "prefecture": "兵庫県",
    "prefecture_kana": "ヒョウゴケン",
    "prefecture_code": 28,
    "city": "伊丹市",
    "city_kana": "イタミシ",
    "town": "口酒井",
    "town_kana": "クチサカイ",
    "street": null,
    "office_name": null,
    "office_name_kana": null
  },
  "0845": {
    "zip_code": "6640845",
    "prefecture": "兵庫県",
    "prefecture_kana": "ヒョウゴケン",
    "prefecture_code": 28,
    "city": "伊丹市",
    "city_kana": "イタミシ",
    "town": "東有岡",
    "town_kana": "ヒガシアリオカ",
    "street": null,
    "office_name": null,
    "office_name_kana": null
  },
  "0846": {
    "zip_code": "6640846",
    "prefecture": "兵庫県",
    "prefecture_kana": "ヒョウゴケン",
    "prefecture_code": 28,
    "city": "伊丹市",
    "city_kana": "イタミシ",
    "town": "伊丹",
    "town_kana": "イタミ",
    "street": null,
    "office_name": null,
    "office_name_kana": null
  },
  "0847": {
    "zip_code": "6640847",
    "prefecture": "兵庫県",
    "prefecture_kana": "ヒョウゴケン",
    "prefecture_code": 28,
    "city": "伊丹市",
    "city_kana": "イタミシ",
    "town": "藤ノ木",
    "town_kana": "フジノキ",
    "street": null,
    "office_name": null,
    "office_name_kana": null
  },
  "0851": {
    "zip_code": "6640851",
    "prefecture": "兵庫県",
    "prefecture_kana": "ヒョウゴケン",
    "prefecture_code": 28,
    "city": "伊丹市",
    "city_kana": "イタミシ",
    "town": "中央",
    "town_kana": "チュウオウ",
    "street": null,
    "office_name": null,
    "office_name_kana": null
  },
  "0852": {
    "zip_code": "6640852",
    "prefecture": "兵庫県",
    "prefecture_kana": "ヒョウゴケン",
    "prefecture_code": 28,
    "city": "伊丹市",
    "city_kana": "イタミシ",
    "town": "南本町",
    "town_kana": "ミナミホンマチ",
    "street": null,
    "office_name": null,
    "office_name_kana": null
  },
  "0853": {
    "zip_code": "6640853",
    "prefecture": "兵庫県",
    "prefecture_kana": "ヒョウゴケン",
    "prefecture_code": 28,
    "city": "伊丹市",
    "city_kana": "イタミシ",
    "town": "平松",
    "town_kana": "ヒラマツ",
    "street": null,
    "office_name": null,
    "office_name_kana": null
  },
  "0854": {
    "zip_code": "6640854",
    "prefecture": "兵庫県",
    "prefecture_kana": "ヒョウゴケン",
    "prefecture_code": 28,
    "city": "伊丹市",
    "city_kana": "イタミシ",
    "town": "南町",
    "town_kana": "ミナミチョウ",
    "street": null,
    "office_name": null,
    "office_name_kana": null
  },
  "0855": {
    "zip_code": "6640855",
    "prefecture": "兵庫県",
    "prefecture_kana": "ヒョウゴケン",
    "prefecture_code": 28,
    "city": "伊丹市",
    "city_kana": "イタミシ",
    "town": "御願塚",
    "town_kana": "ゴガヅカ",
    "street": null,
    "office_name": null,
    "office_name_kana": null
  },
  "0856": {
    "zip_code": "6640856",
    "prefecture": "兵庫県",
    "prefecture_kana": "ヒョウゴケン",
    "prefecture_code": 28,
    "city": "伊丹市",
    "city_kana": "イタミシ",
    "town": "梅ノ木",
    "town_kana": "ウメノキ",
    "street": null,
    "office_name": null,
    "office_name_kana": null
  },
  "0857": {
    "zip_code": "6640857",
    "prefecture": "兵庫県",
    "prefecture_kana": "ヒョウゴケン",
    "prefecture_code": 28,
    "city": "伊丹市",
    "city_kana": "イタミシ",
    "town": "行基町",
    "town_kana": "ギョウギチョウ",
    "street": null,
    "office_name": null,
    "office_name_kana": null
  },
  "0858": {
    "zip_code": "6640858",
    "prefecture": "兵庫県",
    "prefecture_kana": "ヒョウゴケン",
    "prefecture_code": 28,
    "city": "伊丹市",
    "city_kana": "イタミシ",
    "town": "西台",
    "town_kana": "ニシダイ",
    "street": null,
    "office_name": null,
    "office_name_kana": null
  },
  "0861": {
    "zip_code": "6640861",
    "prefecture": "兵庫県",
    "prefecture_kana": "ヒョウゴケン",
    "prefecture_code": 28,
    "city": "伊丹市",
    "city_kana": "イタミシ",
    "town": "稲野町",
    "town_kana": "イナノチョウ",
    "street": null,
    "office_name": null,
    "office_name_kana": null
  },
  "0862": {
    "zip_code": "6640862",
    "prefecture": "兵庫県",
    "prefecture_kana": "ヒョウゴケン",
    "prefecture_code": 28,
    "city": "伊丹市",
    "city_kana": "イタミシ",
    "town": "若菱町",
    "town_kana": "ワカビシチョウ",
    "street": null,
    "office_name": null,
    "office_name_kana": null
  },
  "0863": {
    "zip_code": "6640863",
    "prefecture": "兵庫県",
    "prefecture_kana": "ヒョウゴケン",
    "prefecture_code": 28,
    "city": "伊丹市",
    "city_kana": "イタミシ",
    "town": "柏木町",
    "town_kana": "カシワギチョウ",
    "street": null,
    "office_name": null,
    "office_name_kana": null
  },
  "0864": {
    "zip_code": "6640864",
    "prefecture": "兵庫県",
    "prefecture_kana": "ヒョウゴケン",
    "prefecture_code": 28,
    "city": "伊丹市",
    "city_kana": "イタミシ",
    "town": "安堂寺町",
    "town_kana": "アンドウジチョウ",
    "street": null,
    "office_name": null,
    "office_name_kana": null
  },
  "0865": {
    "zip_code": "6640865",
    "prefecture": "兵庫県",
    "prefecture_kana": "ヒョウゴケン",
    "prefecture_code": 28,
    "city": "伊丹市",
    "city_kana": "イタミシ",
    "town": "南野",
    "town_kana": "ミナミノ",
    "street": null,
    "office_name": null,
    "office_name_kana": null
  },
  "0871": {
    "zip_code": "6640871",
    "prefecture": "兵庫県",
    "prefecture_kana": "ヒョウゴケン",
    "prefecture_code": 28,
    "city": "伊丹市",
    "city_kana": "イタミシ",
    "town": "堀池",
    "town_kana": "ホリイケ",
    "street": null,
    "office_name": null,
    "office_name_kana": null
  },
  "0872": {
    "zip_code": "6640872",
    "prefecture": "兵庫県",
    "prefecture_kana": "ヒョウゴケン",
    "prefecture_code": 28,
    "city": "伊丹市",
    "city_kana": "イタミシ",
    "town": "車塚",
    "town_kana": "クルマヅカ",
    "street": null,
    "office_name": null,
    "office_name_kana": null
  },
  "0873": {
    "zip_code": "6640873",
    "prefecture": "兵庫県",
    "prefecture_kana": "ヒョウゴケン",
    "prefecture_code": 28,
    "city": "伊丹市",
    "city_kana": "イタミシ",
    "town": "野間",
    "town_kana": "ノマ",
    "street": null,
    "office_name": null,
    "office_name_kana": null
  },
  "0874": {
    "zip_code": "6640874",
    "prefecture": "兵庫県",
    "prefecture_kana": "ヒョウゴケン",
    "prefecture_code": 28,
    "city": "伊丹市",
    "city_kana": "イタミシ",
    "town": "山田",
    "town_kana": "ヤマダ",
    "street": null,
    "office_name": null,
    "office_name_kana": null
  },
  "0875": {
    "zip_code": "6640875",
    "prefecture": "兵庫県",
    "prefecture_kana": "ヒョウゴケン",
    "prefecture_code": 28,
    "city": "伊丹市",
    "city_kana": "イタミシ",
    "town": "野間北",
    "town_kana": "ノマキタ",
    "street": null,
    "office_name": null,
    "office_name_kana": null
  },
  "0881": {
    "zip_code": "6640881",
    "prefecture": "兵庫県",
    "prefecture_kana": "ヒョウゴケン",
    "prefecture_code": 28,
    "city": "伊丹市",
    "city_kana": "イタミシ",
    "town": "昆陽",
    "town_kana": "コヤ",
    "street": null,
    "office_name": null,
    "office_name_kana": null
  },
  "0882": {
    "zip_code": "6640882",
    "prefecture": "兵庫県",
    "prefecture_kana": "ヒョウゴケン",
    "prefecture_code": 28,
    "city": "伊丹市",
    "city_kana": "イタミシ",
    "town": "鈴原町",
    "town_kana": "スズハラチョウ",
    "street": null,
    "office_name": null,
    "office_name_kana": null
  },
  "0883": {
    "zip_code": "6640883",
    "prefecture": "兵庫県",
    "prefecture_kana": "ヒョウゴケン",
    "prefecture_code": 28,
    "city": "伊丹市",
    "city_kana": "イタミシ",
    "town": "南鈴原",
    "town_kana": "ミナミスズハラ",
    "street": null,
    "office_name": null,
    "office_name_kana": null
  },
  "0884": {
    "zip_code": "6640884",
    "prefecture": "兵庫県",
    "prefecture_kana": "ヒョウゴケン",
    "prefecture_code": 28,
    "city": "伊丹市",
    "city_kana": "イタミシ",
    "town": "美鈴町",
    "town_kana": "ミスズチョウ",
    "street": null,
    "office_name": null,
    "office_name_kana": null
  },
  "0885": {
    "zip_code": "6640885",
    "prefecture": "兵庫県",
    "prefecture_kana": "ヒョウゴケン",
    "prefecture_code": 28,
    "city": "伊丹市",
    "city_kana": "イタミシ",
    "town": "昆陽泉町",
    "town_kana": "コヤイズミチョウ",
    "street": null,
    "office_name": null,
    "office_name_kana": null
  },
  "0886": {
    "zip_code": "6640886",
    "prefecture": "兵庫県",
    "prefecture_kana": "ヒョウゴケン",
    "prefecture_code": 28,
    "city": "伊丹市",
    "city_kana": "イタミシ",
    "town": "昆陽東",
    "town_kana": "コヤヒガシ",
    "street": null,
    "office_name": null,
    "office_name_kana": null
  },
  "0887": {
    "zip_code": "6640887",
    "prefecture": "兵庫県",
    "prefecture_kana": "ヒョウゴケン",
    "prefecture_code": 28,
    "city": "伊丹市",
    "city_kana": "イタミシ",
    "town": "南野北",
    "town_kana": "ミナミノキタ",
    "street": null,
    "office_name": null,
    "office_name_kana": null
  },
  "0888": {
    "zip_code": "6640888",
    "prefecture": "兵庫県",
    "prefecture_kana": "ヒョウゴケン",
    "prefecture_code": 28,
    "city": "伊丹市",
    "city_kana": "イタミシ",
    "town": "昆陽南",
    "town_kana": "コヤミナミ",
    "street": null,
    "office_name": null,
    "office_name_kana": null
  },
  "0891": {
    "zip_code": "6640891",
    "prefecture": "兵庫県",
    "prefecture_kana": "ヒョウゴケン",
    "prefecture_code": 28,
    "city": "伊丹市",
    "city_kana": "イタミシ",
    "town": "北園",
    "town_kana": "キタゾノ",
    "street": null,
    "office_name": null,
    "office_name_kana": null
  },
  "0892": {
    "zip_code": "6640892",
    "prefecture": "兵庫県",
    "prefecture_kana": "ヒョウゴケン",
    "prefecture_code": 28,
    "city": "伊丹市",
    "city_kana": "イタミシ",
    "town": "高台",
    "town_kana": "タカダイ",
    "street": null,
    "office_name": null,
    "office_name_kana": null
  },
  "0893": {
    "zip_code": "6640893",
    "prefecture": "兵庫県",
    "prefecture_kana": "ヒョウゴケン",
    "prefecture_code": 28,
    "city": "伊丹市",
    "city_kana": "イタミシ",
    "town": "春日丘",
    "town_kana": "カスガオカ",
    "street": null,
    "office_name": null,
    "office_name_kana": null
  },
  "0894": {
    "zip_code": "6640894",
    "prefecture": "兵庫県",
    "prefecture_kana": "ヒョウゴケン",
    "prefecture_code": 28,
    "city": "伊丹市",
    "city_kana": "イタミシ",
    "town": "清水",
    "town_kana": "シミズ",
    "street": null,
    "office_name": null,
    "office_name_kana": null
  },
  "0895": {
    "zip_code": "6640895",
    "prefecture": "兵庫県",
    "prefecture_kana": "ヒョウゴケン",
    "prefecture_code": 28,
    "city": "伊丹市",
    "city_kana": "イタミシ",
    "town": "宮ノ前",
    "town_kana": "ミヤノマエ",
    "street": null,
    "office_name": null,
    "office_name_kana": null
  },
  "0896": {
    "zip_code": "6640896",
    "prefecture": "兵庫県",
    "prefecture_kana": "ヒョウゴケン",
    "prefecture_code": 28,
    "city": "伊丹市",
    "city_kana": "イタミシ",
    "town": "船原",
    "town_kana": "フナハラ",
    "street": null,
    "office_name": null,
    "office_name_kana": null
  },
  "0897": {
    "zip_code": "6640897",
    "prefecture": "兵庫県",
    "prefecture_kana": "ヒョウゴケン",
    "prefecture_code": 28,
    "city": "伊丹市",
    "city_kana": "イタミシ",
    "town": "桜ケ丘",
    "town_kana": "サクラガオカ",
    "street": null,
    "office_name": null,
    "office_name_kana": null
  },
  "0898": {
    "zip_code": "6640898",
    "prefecture": "兵庫県",
    "prefecture_kana": "ヒョウゴケン",
    "prefecture_code": 28,
    "city": "伊丹市",
    "city_kana": "イタミシ",
    "town": "千僧",
    "town_kana": "センゾ",
    "street": null,
    "office_name": null,
    "office_name_kana": null
  },
  "0899": {
    "zip_code": "6640899",
    "prefecture": "兵庫県",
    "prefecture_kana": "ヒョウゴケン",
    "prefecture_code": 28,
    "city": "伊丹市",
    "city_kana": "イタミシ",
    "town": "大鹿",
    "town_kana": "オオジカ",
    "street": null,
    "office_name": null,
    "office_name_kana": null
  },
  "8501": {
    "zip_code": "6648501",
    "prefecture": "兵庫県",
    "prefecture_kana": "ヒョウゴケン",
    "prefecture_code": 28,
    "city": "伊丹市",
    "city_kana": "イタミシ",
    "town": "桑津",
    "town_kana": "クワヅ",
    "street": "１丁目６−１",
    "office_name": "日東紡績　株式会社　伊丹生産センター",
    "office_name_kana": "ニツトウボウセキ カブシキガイシヤ イタミセイサンセンタ-"
  },
  "8502": {
    "zip_code": "6648502",
    "prefecture": "兵庫県",
    "prefecture_kana": "ヒョウゴケン",
    "prefecture_code": 28,
    "city": "伊丹市",
    "city_kana": "イタミシ",
    "town": "鴻池",
    "town_kana": "コウノイケ",
    "street": "字街道下１０",
    "office_name": "パスカル　株式会社",
    "office_name_kana": "パスカル カブシキガイシヤ"
  },
  "8503": {
    "zip_code": "6648503",
    "prefecture": "兵庫県",
    "prefecture_kana": "ヒョウゴケン",
    "prefecture_code": 28,
    "city": "伊丹市",
    "city_kana": "イタミシ",
    "town": "千僧",
    "town_kana": "センゾ",
    "street": "１丁目１番地",
    "office_name": "伊丹市役所",
    "office_name_kana": "イタミシヤクシヨ"
  },
  "8505": {
    "zip_code": "6648505",
    "prefecture": "兵庫県",
    "prefecture_kana": "ヒョウゴケン",
    "prefecture_code": 28,
    "city": "伊丹市",
    "city_kana": "イタミシ",
    "town": "千僧",
    "town_kana": "センゾ",
    "street": "１丁目４７−３",
    "office_name": "伊丹税務署",
    "office_name_kana": "イタミゼイムシヨ"
  },
  "8507": {
    "zip_code": "6648507",
    "prefecture": "兵庫県",
    "prefecture_kana": "ヒョウゴケン",
    "prefecture_code": 28,
    "city": "伊丹市",
    "city_kana": "イタミシ",
    "town": "北河原",
    "town_kana": "キタガワラ",
    "street": "４丁目１番１２号",
    "office_name": "サカタインクス　株式会社　大阪工場",
    "office_name_kana": "サカタインクス カブシキガイシヤ オオサカコウジヨウ"
  },
  "8508": {
    "zip_code": "6648508",
    "prefecture": "兵庫県",
    "prefecture_kana": "ヒョウゴケン",
    "prefecture_code": 28,
    "city": "伊丹市",
    "city_kana": "イタミシ",
    "town": "北伊丹",
    "town_kana": "キタイタミ",
    "street": "５丁目３",
    "office_name": "松谷化学工業　株式会社",
    "office_name_kana": "マツタニカガクコウギヨウ カブシキガイシヤ"
  },
  "8510": {
    "zip_code": "6648510",
    "prefecture": "兵庫県",
    "prefecture_kana": "ヒョウゴケン",
    "prefecture_code": 28,
    "city": "伊丹市",
    "city_kana": "イタミシ",
    "town": "中央",
    "town_kana": "チュウオウ",
    "street": "５丁目５−１０",
    "office_name": "伊丹産業　株式会社",
    "office_name_kana": "イタミサンギヨウ カブシキガイシヤ"
  },
  "8511": {
    "zip_code": "6648511",
    "prefecture": "兵庫県",
    "prefecture_kana": "ヒョウゴケン",
    "prefecture_code": 28,
    "city": "伊丹市",
    "city_kana": "イタミシ",
    "town": "高台",
    "town_kana": "タカダイ",
    "street": "４丁目１８",
    "office_name": "コニカミノルタ　伊丹サイト",
    "office_name_kana": "コニカミノルタ イタミサイト"
  },
  "8520": {
    "zip_code": "6648520",
    "prefecture": "兵庫県",
    "prefecture_kana": "ヒョウゴケン",
    "prefecture_code": 28,
    "city": "伊丹市",
    "city_kana": "イタミシ",
    "town": "鴻池",
    "town_kana": "コウノイケ",
    "street": "字街道下１",
    "office_name": "日本板硝子　株式会社　技術研究所",
    "office_name_kana": "ニホンイタガラス カブシキガイシヤ ギジユツケンキユウシヨ"
  },
  "8522": {
    "zip_code": "6648522",
    "prefecture": "兵庫県",
    "prefecture_kana": "ヒョウゴケン",
    "prefecture_code": 28,
    "city": "伊丹市",
    "city_kana": "イタミシ",
    "town": "千僧",
    "town_kana": "センゾ",
    "street": "１丁目５１番地",
    "office_name": "兵庫県阪神北県民局　企画調整部　伊丹県税事務所",
    "office_name_kana": "ヒヨウゴケンハンシンキタケンミンキヨク キカクチヨウセイブ イタミケンゼイジムシヨ"
  },
  "8533": {
    "zip_code": "6648533",
    "prefecture": "兵庫県",
    "prefecture_kana": "ヒョウゴケン",
    "prefecture_code": 28,
    "city": "伊丹市",
    "city_kana": "イタミシ",
    "town": "車塚",
    "town_kana": "クルマヅカ",
    "street": "３丁目１番地",
    "office_name": "公立学校共済組合　近畿中央病院",
    "office_name_kana": "コウリツガツコウキヨウサイクミアイ キンキチユウオウビヨウイン"
  },
  "8540": {
    "zip_code": "6648540",
    "prefecture": "兵庫県",
    "prefecture_kana": "ヒョウゴケン",
    "prefecture_code": 28,
    "city": "伊丹市",
    "city_kana": "イタミシ",
    "town": "昆陽池",
    "town_kana": "コヤイケ",
    "street": "１丁目１００番地",
    "office_name": "市立　伊丹病院",
    "office_name_kana": "シリツ イタミビヨウイン"
  },
  "8545": {
    "zip_code": "6648545",
    "prefecture": "兵庫県",
    "prefecture_kana": "ヒョウゴケン",
    "prefecture_code": 28,
    "city": "伊丹市",
    "city_kana": "イタミシ",
    "town": "千僧",
    "town_kana": "センゾ",
    "street": "１丁目４７−１",
    "office_name": "伊丹簡易裁判所",
    "office_name_kana": "イタミカンイサイバンシヨ"
  },
  "8558": {
    "zip_code": "6648558",
    "prefecture": "兵庫県",
    "prefecture_kana": "ヒョウゴケン",
    "prefecture_code": 28,
    "city": "伊丹市",
    "city_kana": "イタミシ",
    "town": "宮ノ前",
    "town_kana": "ミヤノマエ",
    "street": "２丁目２−２",
    "office_name": "伊丹コミュニティ放送　株式会社",
    "office_name_kana": "イタミコミユニテイホウソウ カブシキガイシヤ"
  },
  "8588": {
    "zip_code": "6648588",
    "prefecture": "兵庫県",
    "prefecture_kana": "ヒョウゴケン",
    "prefecture_code": 28,
    "city": "伊丹市",
    "city_kana": "イタミシ",
    "town": "北河原",
    "town_kana": "キタガワラ",
    "street": "１丁目２−１",
    "office_name": "凸版印刷　株式会社　伊丹工場",
    "office_name_kana": "トツパンインサツ カブシキガイシヤ イタミコウジヨウ"
  },
  "8610": {
    "zip_code": "6648610",
    "prefecture": "兵庫県",
    "prefecture_kana": "ヒョウゴケン",
    "prefecture_code": 28,
    "city": "伊丹市",
    "city_kana": "イタミシ",
    "town": "東有岡",
    "town_kana": "ヒガシアリオカ",
    "street": "５丁目１２５番地（伊丹郵便局私書箱第１号）",
    "office_name": "東リ　株式会社",
    "office_name_kana": "トウリ カブシキガイシヤ"
  },
  "8611": {
    "zip_code": "6648611",
    "prefecture": "兵庫県",
    "prefecture_kana": "ヒョウゴケン",
    "prefecture_code": 28,
    "city": "伊丹市",
    "city_kana": "イタミシ",
    "town": "昆陽北",
    "town_kana": "コヤキタ",
    "street": "１丁目１番１号（伊丹郵便局私書箱第２４号）",
    "office_name": "住友電気工業　株式会社　伊丹製作所",
    "office_name_kana": "スミトモデンキコウギヨウ カブシキガイシヤ イタミセイサクシヨ"
  },
  "8615": {
    "zip_code": "6648615",
    "prefecture": "兵庫県",
    "prefecture_kana": "ヒョウゴケン",
    "prefecture_code": 28,
    "city": "伊丹市",
    "city_kana": "イタミシ",
    "town": "行基町",
    "town_kana": "ギョウギチョウ",
    "street": "１丁目５（伊丹郵便局私書箱第１５号）",
    "office_name": "株式会社　フジコー",
    "office_name_kana": "カブシキガイシヤ フジコ-"
  },
  "8624": {
    "zip_code": "6648624",
    "prefecture": "兵庫県",
    "prefecture_kana": "ヒョウゴケン",
    "prefecture_code": 28,
    "city": "伊丹市",
    "city_kana": "イタミシ",
    "town": "中央",
    "town_kana": "チュウオウ",
    "street": "３丁目５−８（伊丹郵便局私書箱第４８号）",
    "office_name": "小西酒造　株式会社",
    "office_name_kana": "コニシシユゾウ カブシキガイシヤ"
  },
  "8641": {
    "zip_code": "6648641",
    "prefecture": "兵庫県",
    "prefecture_kana": "ヒョウゴケン",
    "prefecture_code": 28,
    "city": "伊丹市",
    "city_kana": "イタミシ",
    "town": "瑞原",
    "town_kana": "ミズハラ",
    "street": "４丁目１番地（伊丹郵便局私書箱第５０号）",
    "office_name": "三菱電機　株式会社　高周波光デバイス製作所",
    "office_name_kana": "ミツビシデンキ カブシキガイシヤ コウシユウハヒカリデバイスセイサクシヨ"
  },
  "8650": {
    "zip_code": "6648650",
    "prefecture": "兵庫県",
    "prefecture_kana": "ヒョウゴケン",
    "prefecture_code": 28,
    "city": "伊丹市",
    "city_kana": "イタミシ",
    "town": "緑ケ丘",
    "town_kana": "ミドリガオカ",
    "street": "７丁目１−１（伊丹郵便局私書箱第２９号）",
    "office_name": "陸上自衛隊　中部方面総監部",
    "office_name_kana": "リクジヨウジエイタイ チユウブホウメンソウカンブ"
  }
}