{
  "0000": {
    "zip_code": "6660000",
    "prefecture": "兵庫県",
    "prefecture_kana": "ヒョウゴケン",
    "prefecture_code": "28",
    "city": "川西市",
    "city_kana": "カワニシシ",
    "town": "",
    "town_kana": "",
    "street": null,
    "office_name": null,
    "office_name_kana": null
  },
  "0001": {
    "zip_code": "6660001",
    "prefecture": "兵庫県",
    "prefecture_kana": "ヒョウゴケン",
    "prefecture_code": "28",
    "city": "川西市",
    "city_kana": "カワニシシ",
    "town": "鴬の森町",
    "town_kana": "ウグイスノモリチョウ",
    "street": null,
    "office_name": null,
    "office_name_kana": null
  },
  "0002": {
    "zip_code": "6660002",
    "prefecture": "兵庫県",
    "prefecture_kana": "ヒョウゴケン",
    "prefecture_code": "28",
    "city": "川西市",
    "city_kana": "カワニシシ",
    "town": "滝山町",
    "town_kana": "タキヤマチョウ",
    "street": null,
    "office_name": null,
    "office_name_kana": null
  },
  "0003": {
    "zip_code": "6660003",
    "prefecture": "兵庫県",
    "prefecture_kana": "ヒョウゴケン",
    "prefecture_code": "28",
    "city": "川西市",
    "city_kana": "カワニシシ",
    "town": "丸の内町",
    "town_kana": "マルノウチチョウ",
    "street": null,
    "office_name": null,
    "office_name_kana": null
  },
  "0004": {
    "zip_code": "6660004",
    "prefecture": "兵庫県",
    "prefecture_kana": "ヒョウゴケン",
    "prefecture_code": "28",
    "city": "川西市",
    "city_kana": "カワニシシ",
    "town": "萩原",
    "town_kana": "ハギハラ",
    "street": null,
    "office_name": null,
    "office_name_kana": null
  },
  "0005": {
    "zip_code": "6660005",
    "prefecture": "兵庫県",
    "prefecture_kana": "ヒョウゴケン",
    "prefecture_code": "28",
    "city": "川西市",
    "city_kana": "カワニシシ",
    "town": "萩原台東",
    "town_kana": "ハギハラダイヒガシ",
    "street": null,
    "office_name": null,
    "office_name_kana": null
  },
  "0006": {
    "zip_code": "6660006",
    "prefecture": "兵庫県",
    "prefecture_kana": "ヒョウゴケン",
    "prefecture_code": "28",
    "city": "川西市",
    "city_kana": "カワニシシ",
    "town": "萩原台西",
    "town_kana": "ハギハラダイニシ",
    "street": null,
    "office_name": null,
    "office_name_kana": null
  },
  "0007": {
    "zip_code": "6660007",
    "prefecture": "兵庫県",
    "prefecture_kana": "ヒョウゴケン",
    "prefecture_code": "28",
    "city": "川西市",
    "city_kana": "カワニシシ",
    "town": "鴬が丘",
    "town_kana": "ウグイスガオカ",
    "street": null,
    "office_name": null,
    "office_name_kana": null
  },
  "0011": {
    "zip_code": "6660011",
    "prefecture": "兵庫県",
    "prefecture_kana": "ヒョウゴケン",
    "prefecture_code": "28",
    "city": "川西市",
    "city_kana": "カワニシシ",
    "town": "出在家町",
    "town_kana": "デザイケチョウ",
    "street": null,
    "office_name": null,
    "office_name_kana": null
  },
  "0012": {
    "zip_code": "6660012",
    "prefecture": "兵庫県",
    "prefecture_kana": "ヒョウゴケン",
    "prefecture_code": "28",
    "city": "川西市",
    "city_kana": "カワニシシ",
    "town": "絹延町",
    "town_kana": "キヌノベチョウ",
    "street": null,
    "office_name": null,
    "office_name_kana": null
  },
  "0013": {
    "zip_code": "6660013",
    "prefecture": "兵庫県",
    "prefecture_kana": "ヒョウゴケン",
    "prefecture_code": "28",
    "city": "川西市",
    "city_kana": "カワニシシ",
    "town": "美園町",
    "town_kana": "ミソノチョウ",
    "street": null,
    "office_name": null,
    "office_name_kana": null
  },
  "0014": {
    "zip_code": "6660014",
    "prefecture": "兵庫県",
    "prefecture_kana": "ヒョウゴケン",
    "prefecture_code": "28",
    "city": "川西市",
    "city_kana": "カワニシシ",
    "town": "小戸",
    "town_kana": "オオベ",
    "street": null,
    "office_name": null,
    "office_name_kana": null
  },
  "0015": {
    "zip_code": "6660015",
    "prefecture": "兵庫県",
    "prefecture_kana": "ヒョウゴケン",
    "prefecture_code": "28",
    "city": "川西市",
    "city_kana": "カワニシシ",
    "town": "小花",
    "town_kana": "オバナ",
    "street": null,
    "office_name": null,
    "office_name_kana": null
  },
  "0016": {
    "zip_code": "6660016",
    "prefecture": "兵庫県",
    "prefecture_kana": "ヒョウゴケン",
    "prefecture_code": "28",
    "city": "川西市",
    "city_kana": "カワニシシ",
    "town": "中央町",
    "town_kana": "チュウオウチョウ",
    "street": null,
    "office_name": null,
    "office_name_kana": null
  },
  "0017": {
    "zip_code": "6660017",
    "prefecture": "兵庫県",
    "prefecture_kana": "ヒョウゴケン",
    "prefecture_code": "28",
    "city": "川西市",
    "city_kana": "カワニシシ",
    "town": "火打",
    "town_kana": "ヒウチ",
    "street": null,
    "office_name": null,
    "office_name_kana": null
  },
  "0021": {
    "zip_code": "6660021",
    "prefecture": "兵庫県",
    "prefecture_kana": "ヒョウゴケン",
    "prefecture_code": "28",
    "city": "川西市",
    "city_kana": "カワニシシ",
    "town": "栄根",
    "town_kana": "サカネ",
    "street": null,
    "office_name": null,
    "office_name_kana": null
  },
  "0022": {
    "zip_code": "6660022",
    "prefecture": "兵庫県",
    "prefecture_kana": "ヒョウゴケン",
    "prefecture_code": "28",
    "city": "川西市",
    "city_kana": "カワニシシ",
    "town": "下加茂",
    "town_kana": "シタカモ",
    "street": null,
    "office_name": null,
    "office_name_kana": null
  },
  "0023": {
    "zip_code": "6660023",
    "prefecture": "兵庫県",
    "prefecture_kana": "ヒョウゴケン",
    "prefecture_code": "28",
    "city": "川西市",
    "city_kana": "カワニシシ",
    "town": "東久代",
    "town_kana": "ヒガシクシロ",
    "street": null,
    "office_name": null,
    "office_name_kana": null
  },
  "0024": {
    "zip_code": "6660024",
    "prefecture": "兵庫県",
    "prefecture_kana": "ヒョウゴケン",
    "prefecture_code": "28",
    "city": "川西市",
    "city_kana": "カワニシシ",
    "town": "久代",
    "town_kana": "クシロ",
    "street": null,
    "office_name": null,
    "office_name_kana": null
  },
  "0025": {
    "zip_code": "6660025",
    "prefecture": "兵庫県",
    "prefecture_kana": "ヒョウゴケン",
    "prefecture_code": "28",
    "city": "川西市",
    "city_kana": "カワニシシ",
    "town": "加茂",
    "town_kana": "カモ",
    "street": null,
    "office_name": null,
    "office_name_kana": null
  },
  "0026": {
    "zip_code": "6660026",
    "prefecture": "兵庫県",
    "prefecture_kana": "ヒョウゴケン",
    "prefecture_code": "28",
    "city": "川西市",
    "city_kana": "カワニシシ",
    "town": "南花屋敷",
    "town_kana": "ミナミハナヤシキ",
    "street": null,
    "office_name": null,
    "office_name_kana": null
  },
  "0031": {
    "zip_code": "6660031",
    "prefecture": "兵庫県",
    "prefecture_kana": "ヒョウゴケン",
    "prefecture_code": "28",
    "city": "川西市",
    "city_kana": "カワニシシ",
    "town": "霞ケ丘",
    "town_kana": "カスミガオカ",
    "street": null,
    "office_name": null,
    "office_name_kana": null
  },
  "0032": {
    "zip_code": "6660032",
    "prefecture": "兵庫県",
    "prefecture_kana": "ヒョウゴケン",
    "prefecture_code": "28",
    "city": "川西市",
    "city_kana": "カワニシシ",
    "town": "日高町",
    "town_kana": "ヒダカチョウ",
    "street": null,
    "office_name": null,
    "office_name_kana": null
  },
  "0033": {
    "zip_code": "6660033",
    "prefecture": "兵庫県",
    "prefecture_kana": "ヒョウゴケン",
    "prefecture_code": "28",
    "city": "川西市",
    "city_kana": "カワニシシ",
    "town": "栄町",
    "town_kana": "サカエマチ",
    "street": null,
    "office_name": null,
    "office_name_kana": null
  },
  "0034": {
    "zip_code": "6660034",
    "prefecture": "兵庫県",
    "prefecture_kana": "ヒョウゴケン",
    "prefecture_code": "28",
    "city": "川西市",
    "city_kana": "カワニシシ",
    "town": "寺畑",
    "town_kana": "テラハタ",
    "street": null,
    "office_name": null,
    "office_name_kana": null
  },
  "0035": {
    "zip_code": "6660035",
    "prefecture": "兵庫県",
    "prefecture_kana": "ヒョウゴケン",
    "prefecture_code": "28",
    "city": "川西市",
    "city_kana": "カワニシシ",
    "town": "花屋敷",
    "town_kana": "ハナヤシキ",
    "street": null,
    "office_name": null,
    "office_name_kana": null
  },
  "0036": {
    "zip_code": "6660036",
    "prefecture": "兵庫県",
    "prefecture_kana": "ヒョウゴケン",
    "prefecture_code": "28",
    "city": "川西市",
    "city_kana": "カワニシシ",
    "town": "花屋敷山手町",
    "town_kana": "ハナヤシキヤマテチョウ",
    "street": null,
    "office_name": null,
    "office_name_kana": null
  },
  "0037": {
    "zip_code": "6660037",
    "prefecture": "兵庫県",
    "prefecture_kana": "ヒョウゴケン",
    "prefecture_code": "28",
    "city": "川西市",
    "city_kana": "カワニシシ",
    "town": "松が丘町",
    "town_kana": "マツガオカチョウ",
    "street": null,
    "office_name": null,
    "office_name_kana": null
  },
  "0101": {
    "zip_code": "6660101",
    "prefecture": "兵庫県",
    "prefecture_kana": "ヒョウゴケン",
    "prefecture_code": "28",
    "city": "川西市",
    "city_kana": "カワニシシ",
    "town": "黒川",
    "town_kana": "クロカワ",
    "street": null,
    "office_name": null,
    "office_name_kana": null
  },
  "0102": {
    "zip_code": "6660102",
    "prefecture": "兵庫県",
    "prefecture_kana": "ヒョウゴケン",
    "prefecture_code": "28",
    "city": "川西市",
    "city_kana": "カワニシシ",
    "town": "横路",
    "town_kana": "ヨコジ",
    "street": null,
    "office_name": null,
    "office_name_kana": null
  },
  "0103": {
    "zip_code": "6660103",
    "prefecture": "兵庫県",
    "prefecture_kana": "ヒョウゴケン",
    "prefecture_code": "28",
    "city": "川西市",
    "city_kana": "カワニシシ",
    "town": "国崎",
    "town_kana": "クニサキ",
    "street": null,
    "office_name": null,
    "office_name_kana": null
  },
  "0104": {
    "zip_code": "6660104",
    "prefecture": "兵庫県",
    "prefecture_kana": "ヒョウゴケン",
    "prefecture_code": "28",
    "city": "川西市",
    "city_kana": "カワニシシ",
    "town": "笹部",
    "town_kana": "ササベ",
    "street": null,
    "office_name": null,
    "office_name_kana": null
  },
  "0105": {
    "zip_code": "6660105",
    "prefecture": "兵庫県",
    "prefecture_kana": "ヒョウゴケン",
    "prefecture_code": "28",
    "city": "川西市",
    "city_kana": "カワニシシ",
    "town": "見野",
    "town_kana": "ミノ",
    "street": null,
    "office_name": null,
    "office_name_kana": null
  },
  "0106": {
    "zip_code": "6660106",
    "prefecture": "兵庫県",
    "prefecture_kana": "ヒョウゴケン",
    "prefecture_code": "28",
    "city": "川西市",
    "city_kana": "カワニシシ",
    "town": "山下町",
    "town_kana": "ヤマシタチョウ",
    "street": null,
    "office_name": null,
    "office_name_kana": null
  },
  "0107": {
    "zip_code": "6660107",
    "prefecture": "兵庫県",
    "prefecture_kana": "ヒョウゴケン",
    "prefecture_code": "28",
    "city": "川西市",
    "city_kana": "カワニシシ",
    "town": "下財町",
    "town_kana": "ゲザイチョウ",
    "street": null,
    "office_name": null,
    "office_name_kana": null
  },
  "0111": {
    "zip_code": "6660111",
    "prefecture": "兵庫県",
    "prefecture_kana": "ヒョウゴケン",
    "prefecture_code": "28",
    "city": "川西市",
    "city_kana": "カワニシシ",
    "town": "大和東",
    "town_kana": "ダイワヒガシ",
    "street": null,
    "office_name": null,
    "office_name_kana": null
  },
  "0112": {
    "zip_code": "6660112",
    "prefecture": "兵庫県",
    "prefecture_kana": "ヒョウゴケン",
    "prefecture_code": "28",
    "city": "川西市",
    "city_kana": "カワニシシ",
    "town": "大和西",
    "town_kana": "ダイワニシ",
    "street": null,
    "office_name": null,
    "office_name_kana": null
  },
  "0113": {
    "zip_code": "6660113",
    "prefecture": "兵庫県",
    "prefecture_kana": "ヒョウゴケン",
    "prefecture_code": "28",
    "city": "川西市",
    "city_kana": "カワニシシ",
    "town": "長尾町",
    "town_kana": "ナガオチョウ",
    "street": null,
    "office_name": null,
    "office_name_kana": null
  },
  "0114": {
    "zip_code": "6660114",
    "prefecture": "兵庫県",
    "prefecture_kana": "ヒョウゴケン",
    "prefecture_code": "28",
    "city": "川西市",
    "city_kana": "カワニシシ",
    "town": "東畦野山手",
    "town_kana": "ヒガシウネノヤマテ",
    "street": null,
    "office_name": null,
    "office_name_kana": null
  },
  "0115": {
    "zip_code": "6660115",
    "prefecture": "兵庫県",
    "prefecture_kana": "ヒョウゴケン",
    "prefecture_code": "28",
    "city": "川西市",
    "city_kana": "カワニシシ",
    "town": "向陽台",
    "town_kana": "コウヨウダイ",
    "street": null,
    "office_name": null,
    "office_name_kana": null
  },
  "0116": {
    "zip_code": "6660116",
    "prefecture": "兵庫県",
    "prefecture_kana": "ヒョウゴケン",
    "prefecture_code": "28",
    "city": "川西市",
    "city_kana": "カワニシシ",
    "town": "水明台",
    "town_kana": "スイメイダイ",
    "street": null,
    "office_name": null,
    "office_name_kana": null
  },
  "0117": {
    "zip_code": "6660117",
    "prefecture": "兵庫県",
    "prefecture_kana": "ヒョウゴケン",
    "prefecture_code": "28",
    "city": "川西市",
    "city_kana": "カワニシシ",
    "town": "東畦野",
    "town_kana": "ヒガシウネノ",
    "street": null,
    "office_name": null,
    "office_name_kana": null
  },
  "0121": {
    "zip_code": "6660121",
    "prefecture": "兵庫県",
    "prefecture_kana": "ヒョウゴケン",
    "prefecture_code": "28",
    "city": "川西市",
    "city_kana": "カワニシシ",
    "town": "平野",
    "town_kana": "ヒラノ",
    "street": null,
    "office_name": null,
    "office_name_kana": null
  },
  "0122": {
    "zip_code": "6660122",
    "prefecture": "兵庫県",
    "prefecture_kana": "ヒョウゴケン",
    "prefecture_code": "28",
    "city": "川西市",
    "city_kana": "カワニシシ",
    "town": "東多田",
    "town_kana": "ヒガシタダ",
    "street": null,
    "office_name": null,
    "office_name_kana": null
  },
  "0123": {
    "zip_code": "6660123",
    "prefecture": "兵庫県",
    "prefecture_kana": "ヒョウゴケン",
    "prefecture_code": "28",
    "city": "川西市",
    "city_kana": "カワニシシ",
    "town": "鼓が滝",
    "town_kana": "ツツミガタキ",
    "street": null,
    "office_name": null,
    "office_name_kana": null
  },
  "0124": {
    "zip_code": "6660124",
    "prefecture": "兵庫県",
    "prefecture_kana": "ヒョウゴケン",
    "prefecture_code": "28",
    "city": "川西市",
    "city_kana": "カワニシシ",
    "town": "多田桜木",
    "town_kana": "タダサクラギ",
    "street": null,
    "office_name": null,
    "office_name_kana": null
  },
  "0125": {
    "zip_code": "6660125",
    "prefecture": "兵庫県",
    "prefecture_kana": "ヒョウゴケン",
    "prefecture_code": "28",
    "city": "川西市",
    "city_kana": "カワニシシ",
    "town": "新田",
    "town_kana": "シンデン",
    "street": null,
    "office_name": null,
    "office_name_kana": null
  },
  "0126": {
    "zip_code": "6660126",
    "prefecture": "兵庫県",
    "prefecture_kana": "ヒョウゴケン",
    "prefecture_code": "28",
    "city": "川西市",
    "city_kana": "カワニシシ",
    "town": "多田院",
    "town_kana": "タダイン",
    "street": null,
    "office_name": null,
    "office_name_kana": null
  },
  "0127": {
    "zip_code": "6660127",
    "prefecture": "兵庫県",
    "prefecture_kana": "ヒョウゴケン",
    "prefecture_code": "28",
    "city": "川西市",
    "city_kana": "カワニシシ",
    "town": "多田院多田所町",
    "town_kana": "タダインタダドコロチョウ",
    "street": null,
    "office_name": null,
    "office_name_kana": null
  },
  "0128": {
    "zip_code": "6660128",
    "prefecture": "兵庫県",
    "prefecture_kana": "ヒョウゴケン",
    "prefecture_code": "28",
    "city": "川西市",
    "city_kana": "カワニシシ",
    "town": "多田院西",
    "town_kana": "タダインニシ",
    "street": null,
    "office_name": null,
    "office_name_kana": null
  },
  "0129": {
    "zip_code": "6660129",
    "prefecture": "兵庫県",
    "prefecture_kana": "ヒョウゴケン",
    "prefecture_code": "28",
    "city": "川西市",
    "city_kana": "カワニシシ",
    "town": "緑台",
    "town_kana": "ミドリダイ",
    "street": null,
    "office_name": null,
    "office_name_kana": null
  },
  "0131": {
    "zip_code": "6660131",
    "prefecture": "兵庫県",
    "prefecture_kana": "ヒョウゴケン",
    "prefecture_code": "28",
    "city": "川西市",
    "city_kana": "カワニシシ",
    "town": "矢問",
    "town_kana": "ヤトウ",
    "street": null,
    "office_name": null,
    "office_name_kana": null
  },
  "0132": {
    "zip_code": "6660132",
    "prefecture": "兵庫県",
    "prefecture_kana": "ヒョウゴケン",
    "prefecture_code": "28",
    "city": "川西市",
    "city_kana": "カワニシシ",
    "town": "矢問東町",
    "town_kana": "ヤトウヒガシマチ",
    "street": null,
    "office_name": null,
    "office_name_kana": null
  },
  "0133": {
    "zip_code": "6660133",
    "prefecture": "兵庫県",
    "prefecture_kana": "ヒョウゴケン",
    "prefecture_code": "28",
    "city": "川西市",
    "city_kana": "カワニシシ",
    "town": "鴬台",
    "town_kana": "ウグイスダイ",
    "street": null,
    "office_name": null,
    "office_name_kana": null
  },
  "0134": {
    "zip_code": "6660134",
    "prefecture": "兵庫県",
    "prefecture_kana": "ヒョウゴケン",
    "prefecture_code": "28",
    "city": "川西市",
    "city_kana": "カワニシシ",
    "town": "萩原台西",
    "town_kana": "ハギハラダイニシ",
    "street": null,
    "office_name": null,
    "office_name_kana": null
  },
  "0135": {
    "zip_code": "6660135",
    "prefecture": "兵庫県",
    "prefecture_kana": "ヒョウゴケン",
    "prefecture_code": "28",
    "city": "川西市",
    "city_kana": "カワニシシ",
    "town": "錦松台",
    "town_kana": "キンショウダイ",
    "street": null,
    "office_name": null,
    "office_name_kana": null
  },
  "0136": {
    "zip_code": "6660136",
    "prefecture": "兵庫県",
    "prefecture_kana": "ヒョウゴケン",
    "prefecture_code": "28",
    "city": "川西市",
    "city_kana": "カワニシシ",
    "town": "南野坂",
    "town_kana": "ミナミノサカ",
    "street": null,
    "office_name": null,
    "office_name_kana": null
  },
  "0137": {
    "zip_code": "6660137",
    "prefecture": "兵庫県",
    "prefecture_kana": "ヒョウゴケン",
    "prefecture_code": "28",
    "city": "川西市",
    "city_kana": "カワニシシ",
    "town": "湯山台",
    "town_kana": "ユヤマダイ",
    "street": null,
    "office_name": null,
    "office_name_kana": null
  },
  "0138": {
    "zip_code": "6660138",
    "prefecture": "兵庫県",
    "prefecture_kana": "ヒョウゴケン",
    "prefecture_code": "28",
    "city": "川西市",
    "city_kana": "カワニシシ",
    "town": "西多田",
    "town_kana": "ニシタダ",
    "street": null,
    "office_name": null,
    "office_name_kana": null
  },
  "0141": {
    "zip_code": "6660141",
    "prefecture": "兵庫県",
    "prefecture_kana": "ヒョウゴケン",
    "prefecture_code": "28",
    "city": "川西市",
    "city_kana": "カワニシシ",
    "town": "虫生",
    "town_kana": "ムシュウ",
    "street": null,
    "office_name": null,
    "office_name_kana": null
  },
  "0142": {
    "zip_code": "6660142",
    "prefecture": "兵庫県",
    "prefecture_kana": "ヒョウゴケン",
    "prefecture_code": "28",
    "city": "川西市",
    "city_kana": "カワニシシ",
    "town": "清和台東",
    "town_kana": "セイワダイヒガシ",
    "street": null,
    "office_name": null,
    "office_name_kana": null
  },
  "0143": {
    "zip_code": "6660143",
    "prefecture": "兵庫県",
    "prefecture_kana": "ヒョウゴケン",
    "prefecture_code": "28",
    "city": "川西市",
    "city_kana": "カワニシシ",
    "town": "清和台西",
    "town_kana": "セイワダイニシ",
    "street": null,
    "office_name": null,
    "office_name_kana": null
  },
  "0144": {
    "zip_code": "6660144",
    "prefecture": "兵庫県",
    "prefecture_kana": "ヒョウゴケン",
    "prefecture_code": "28",
    "city": "川西市",
    "city_kana": "カワニシシ",
    "town": "柳谷",
    "town_kana": "ヤナギタニ",
    "street": null,
    "office_name": null,
    "office_name_kana": null
  },
  "0145": {
    "zip_code": "6660145",
    "prefecture": "兵庫県",
    "prefecture_kana": "ヒョウゴケン",
    "prefecture_code": "28",
    "city": "川西市",
    "city_kana": "カワニシシ",
    "town": "けやき坂",
    "town_kana": "ケヤキザカ",
    "street": null,
    "office_name": null,
    "office_name_kana": null
  },
  "0146": {
    "zip_code": "6660146",
    "prefecture": "兵庫県",
    "prefecture_kana": "ヒョウゴケン",
    "prefecture_code": "28",
    "city": "川西市",
    "city_kana": "カワニシシ",
    "town": "芋生",
    "town_kana": "イモオ",
    "street": null,
    "office_name": null,
    "office_name_kana": null
  },
  "0147": {
    "zip_code": "6660147",
    "prefecture": "兵庫県",
    "prefecture_kana": "ヒョウゴケン",
    "prefecture_code": "28",
    "city": "川西市",
    "city_kana": "カワニシシ",
    "town": "若宮",
    "town_kana": "ワカミヤ",
    "street": null,
    "office_name": null,
    "office_name_kana": null
  },
  "0148": {
    "zip_code": "6660148",
    "prefecture": "兵庫県",
    "prefecture_kana": "ヒョウゴケン",
    "prefecture_code": "28",
    "city": "川西市",
    "city_kana": "カワニシシ",
    "town": "赤松",
    "town_kana": "アカマツ",
    "street": null,
    "office_name": null,
    "office_name_kana": null
  },
  "0151": {
    "zip_code": "6660151",
    "prefecture": "兵庫県",
    "prefecture_kana": "ヒョウゴケン",
    "prefecture_code": "28",
    "city": "川西市",
    "city_kana": "カワニシシ",
    "town": "美山台",
    "town_kana": "ミヤマダイ",
    "street": null,
    "office_name": null,
    "office_name_kana": null
  },
  "0152": {
    "zip_code": "6660152",
    "prefecture": "兵庫県",
    "prefecture_kana": "ヒョウゴケン",
    "prefecture_code": "28",
    "city": "川西市",
    "city_kana": "カワニシシ",
    "town": "丸山台",
    "town_kana": "マルヤマダイ",
    "street": null,
    "office_name": null,
    "office_name_kana": null
  },
  "0153": {
    "zip_code": "6660153",
    "prefecture": "兵庫県",
    "prefecture_kana": "ヒョウゴケン",
    "prefecture_code": "28",
    "city": "川西市",
    "city_kana": "カワニシシ",
    "town": "一庫",
    "town_kana": "ヒトクラ",
    "street": null,
    "office_name": null,
    "office_name_kana": null
  },
  "0154": {
    "zip_code": "6660154",
    "prefecture": "兵庫県",
    "prefecture_kana": "ヒョウゴケン",
    "prefecture_code": "28",
    "city": "川西市",
    "city_kana": "カワニシシ",
    "town": "山原",
    "town_kana": "ヤマハラ",
    "street": null,
    "office_name": null,
    "office_name_kana": null
  },
  "0155": {
    "zip_code": "6660155",
    "prefecture": "兵庫県",
    "prefecture_kana": "ヒョウゴケン",
    "prefecture_code": "28",
    "city": "川西市",
    "city_kana": "カワニシシ",
    "town": "西畦野",
    "town_kana": "ニシウネノ",
    "street": null,
    "office_name": null,
    "office_name_kana": null
  },
  "0156": {
    "zip_code": "6660156",
    "prefecture": "兵庫県",
    "prefecture_kana": "ヒョウゴケン",
    "prefecture_code": "28",
    "city": "川西市",
    "city_kana": "カワニシシ",
    "town": "石道",
    "town_kana": "イシミチ",
    "street": null,
    "office_name": null,
    "office_name_kana": null
  },
  "0157": {
    "zip_code": "6660157",
    "prefecture": "兵庫県",
    "prefecture_kana": "ヒョウゴケン",
    "prefecture_code": "28",
    "city": "川西市",
    "city_kana": "カワニシシ",
    "town": "緑が丘",
    "town_kana": "ミドリガオカ",
    "street": null,
    "office_name": null,
    "office_name_kana": null
  },
  "0158": {
    "zip_code": "6660158",
    "prefecture": "兵庫県",
    "prefecture_kana": "ヒョウゴケン",
    "prefecture_code": "28",
    "city": "川西市",
    "city_kana": "カワニシシ",
    "town": "清流台",
    "town_kana": "セイリュウダイ",
    "street": null,
    "office_name": null,
    "office_name_kana": null
  },
  "0161": {
    "zip_code": "6660161",
    "prefecture": "兵庫県",
    "prefecture_kana": "ヒョウゴケン",
    "prefecture_code": "28",
    "city": "宝塚市",
    "city_kana": "タカラヅカシ",
    "town": "切畑",
    "town_kana": "キリハタ",
    "street": null,
    "office_name": null,
    "office_name_kana": null
  },
  "0162": {
    "zip_code": "6660162",
    "prefecture": "兵庫県",
    "prefecture_kana": "ヒョウゴケン",
    "prefecture_code": "28",
    "city": "宝塚市",
    "city_kana": "タカラヅカシ",
    "town": "花屋敷緑ガ丘",
    "town_kana": "ハナヤシキミドリガオカ",
    "street": null,
    "office_name": null,
    "office_name_kana": null
  },
  "0200": {
    "zip_code": "6660200",
    "prefecture": "兵庫県",
    "prefecture_kana": "ヒョウゴケン",
    "prefecture_code": "28",
    "city": "川辺郡猪名川町",
    "city_kana": "カワベグンイナガワチョウ",
    "town": "",
    "town_kana": "",
    "street": null,
    "office_name": null,
    "office_name_kana": null
  },
  "0201": {
    "zip_code": "6660201",
    "prefecture": "兵庫県",
    "prefecture_kana": "ヒョウゴケン",
    "prefecture_code": "28",
    "city": "川辺郡猪名川町",
    "city_kana": "カワベグンイナガワチョウ",
    "town": "杉生",
    "town_kana": "スギオ",
    "street": null,
    "office_name": null,
    "office_name_kana": null
  },
  "0202": {
    "zip_code": "6660202",
    "prefecture": "兵庫県",
    "prefecture_kana": "ヒョウゴケン",
    "prefecture_code": "28",
    "city": "川辺郡猪名川町",
    "city_kana": "カワベグンイナガワチョウ",
    "town": "鎌倉",
    "town_kana": "カマクラ",
    "street": null,
    "office_name": null,
    "office_name_kana": null
  },
  "0203": {
    "zip_code": "6660203",
    "prefecture": "兵庫県",
    "prefecture_kana": "ヒョウゴケン",
    "prefecture_code": "28",
    "city": "川辺郡猪名川町",
    "city_kana": "カワベグンイナガワチョウ",
    "town": "西畑",
    "town_kana": "ニシハタ",
    "street": null,
    "office_name": null,
    "office_name_kana": null
  },
  "0204": {
    "zip_code": "6660204",
    "prefecture": "兵庫県",
    "prefecture_kana": "ヒョウゴケン",
    "prefecture_code": "28",
    "city": "川辺郡猪名川町",
    "city_kana": "カワベグンイナガワチョウ",
    "town": "柏原",
    "town_kana": "カシハラ",
    "street": null,
    "office_name": null,
    "office_name_kana": null
  },
  "0211": {
    "zip_code": "6660211",
    "prefecture": "兵庫県",
    "prefecture_kana": "ヒョウゴケン",
    "prefecture_code": "28",
    "city": "川辺郡猪名川町",
    "city_kana": "カワベグンイナガワチョウ",
    "town": "仁頂寺",
    "town_kana": "ニジョウジ",
    "street": null,
    "office_name": null,
    "office_name_kana": null
  },
  "0212": {
    "zip_code": "6660212",
    "prefecture": "兵庫県",
    "prefecture_kana": "ヒョウゴケン",
    "prefecture_code": "28",
    "city": "川辺郡猪名川町",
    "city_kana": "カワベグンイナガワチョウ",
    "town": "旭ケ丘",
    "town_kana": "アサヒガオカ",
    "street": null,
    "office_name": null,
    "office_name_kana": null
  },
  "0213": {
    "zip_code": "6660213",
    "prefecture": "兵庫県",
    "prefecture_kana": "ヒョウゴケン",
    "prefecture_code": "28",
    "city": "川辺郡猪名川町",
    "city_kana": "カワベグンイナガワチョウ",
    "town": "清水東",
    "town_kana": "シミズヒガシ",
    "street": null,
    "office_name": null,
    "office_name_kana": null
  },
  "0214": {
    "zip_code": "6660214",
    "prefecture": "兵庫県",
    "prefecture_kana": "ヒョウゴケン",
    "prefecture_code": "28",
    "city": "川辺郡猪名川町",
    "city_kana": "カワベグンイナガワチョウ",
    "town": "清水",
    "town_kana": "シミズ",
    "street": null,
    "office_name": null,
    "office_name_kana": null
  },
  "0215": {
    "zip_code": "6660215",
    "prefecture": "兵庫県",
    "prefecture_kana": "ヒョウゴケン",
    "prefecture_code": "28",
    "city": "川辺郡猪名川町",
    "city_kana": "カワベグンイナガワチョウ",
    "town": "島",
    "town_kana": "シマ",
    "street": null,
    "office_name": null,
    "office_name_kana": null
  },
  "0221": {
    "zip_code": "6660221",
    "prefecture": "兵庫県",
    "prefecture_kana": "ヒョウゴケン",
    "prefecture_code": "28",
    "city": "川辺郡猪名川町",
    "city_kana": "カワベグンイナガワチョウ",
    "town": "杤原",
    "town_kana": "トチハラ",
    "street": null,
    "office_name": null,
    "office_name_kana": null
  },
  "0222": {
    "zip_code": "6660222",
    "prefecture": "兵庫県",
    "prefecture_kana": "ヒョウゴケン",
    "prefecture_code": "28",
    "city": "川辺郡猪名川町",
    "city_kana": "カワベグンイナガワチョウ",
    "town": "槻並",
    "town_kana": "ツクナミ",
    "street": null,
    "office_name": null,
    "office_name_kana": null
  },
  "0223": {
    "zip_code": "6660223",
    "prefecture": "兵庫県",
    "prefecture_kana": "ヒョウゴケン",
    "prefecture_code": "28",
    "city": "川辺郡猪名川町",
    "city_kana": "カワベグンイナガワチョウ",
    "town": "木間生",
    "town_kana": "コモオ",
    "street": null,
    "office_name": null,
    "office_name_kana": null
  },
  "0224": {
    "zip_code": "6660224",
    "prefecture": "兵庫県",
    "prefecture_kana": "ヒョウゴケン",
    "prefecture_code": "28",
    "city": "川辺郡猪名川町",
    "city_kana": "カワベグンイナガワチョウ",
    "town": "万善",
    "town_kana": "マンゼン",
    "street": null,
    "office_name": null,
    "office_name_kana": null
  },
  "0225": {
    "zip_code": "6660225",
    "prefecture": "兵庫県",
    "prefecture_kana": "ヒョウゴケン",
    "prefecture_code": "28",
    "city": "川辺郡猪名川町",
    "city_kana": "カワベグンイナガワチョウ",
    "town": "木津",
    "town_kana": "キヅ",
    "street": null,
    "office_name": null,
    "office_name_kana": null
  },
  "0226": {
    "zip_code": "6660226",
    "prefecture": "兵庫県",
    "prefecture_kana": "ヒョウゴケン",
    "prefecture_code": "28",
    "city": "川辺郡猪名川町",
    "city_kana": "カワベグンイナガワチョウ",
    "town": "林田",
    "town_kana": "ハヤシタ",
    "street": null,
    "office_name": null,
    "office_name_kana": null
  },
  "0227": {
    "zip_code": "6660227",
    "prefecture": "兵庫県",
    "prefecture_kana": "ヒョウゴケン",
    "prefecture_code": "28",
    "city": "川辺郡猪名川町",
    "city_kana": "カワベグンイナガワチョウ",
    "town": "笹尾",
    "town_kana": "ササオ",
    "street": null,
    "office_name": null,
    "office_name_kana": null
  },
  "0231": {
    "zip_code": "6660231",
    "prefecture": "兵庫県",
    "prefecture_kana": "ヒョウゴケン",
    "prefecture_code": "28",
    "city": "川辺郡猪名川町",
    "city_kana": "カワベグンイナガワチョウ",
    "town": "上阿古谷",
    "town_kana": "カミアコタニ",
    "street": null,
    "office_name": null,
    "office_name_kana": null
  },
  "0232": {
    "zip_code": "6660232",
    "prefecture": "兵庫県",
    "prefecture_kana": "ヒョウゴケン",
    "prefecture_code": "28",
    "city": "川辺郡猪名川町",
    "city_kana": "カワベグンイナガワチョウ",
    "town": "民田",
    "town_kana": "タミダ",
    "street": null,
    "office_name": null,
    "office_name_kana": null
  },
  "0233": {
    "zip_code": "6660233",
    "prefecture": "兵庫県",
    "prefecture_kana": "ヒョウゴケン",
    "prefecture_code": "28",
    "city": "川辺郡猪名川町",
    "city_kana": "カワベグンイナガワチョウ",
    "town": "紫合",
    "town_kana": "ユウダ",
    "street": null,
    "office_name": null,
    "office_name_kana": null
  },
  "0234": {
    "zip_code": "6660234",
    "prefecture": "兵庫県",
    "prefecture_kana": "ヒョウゴケン",
    "prefecture_code": "28",
    "city": "川辺郡猪名川町",
    "city_kana": "カワベグンイナガワチョウ",
    "town": "北野",
    "town_kana": "キタノ",
    "street": null,
    "office_name": null,
    "office_name_kana": null
  },
  "0235": {
    "zip_code": "6660235",
    "prefecture": "兵庫県",
    "prefecture_kana": "ヒョウゴケン",
    "prefecture_code": "28",
    "city": "川辺郡猪名川町",
    "city_kana": "カワベグンイナガワチョウ",
    "town": "南田原",
    "town_kana": "ミナミタハラ",
    "street": null,
    "office_name": null,
    "office_name_kana": null
  },
  "0236": {
    "zip_code": "6660236",
    "prefecture": "兵庫県",
    "prefecture_kana": "ヒョウゴケン",
    "prefecture_code": "28",
    "city": "川辺郡猪名川町",
    "city_kana": "カワベグンイナガワチョウ",
    "town": "北田原",
    "town_kana": "キタタハラ",
    "street": null,
    "office_name": null,
    "office_name_kana": null
  },
  "0237": {
    "zip_code": "6660237",
    "prefecture": "兵庫県",
    "prefecture_kana": "ヒョウゴケン",
    "prefecture_code": "28",
    "city": "川辺郡猪名川町",
    "city_kana": "カワベグンイナガワチョウ",
    "town": "下阿古谷",
    "town_kana": "シモアコタニ",
    "street": null,
    "office_name": null,
    "office_name_kana": null
  },
  "0238": {
    "zip_code": "6660238",
    "prefecture": "兵庫県",
    "prefecture_kana": "ヒョウゴケン",
    "prefecture_code": "28",
    "city": "川辺郡猪名川町",
    "city_kana": "カワベグンイナガワチョウ",
    "town": "荘苑",
    "town_kana": "ソウエン",
    "street": null,
    "office_name": null,
    "office_name_kana": null
  },
  "0241": {
    "zip_code": "6660241",
    "prefecture": "兵庫県",
    "prefecture_kana": "ヒョウゴケン",
    "prefecture_code": "28",
    "city": "川辺郡猪名川町",
    "city_kana": "カワベグンイナガワチョウ",
    "town": "内馬場",
    "town_kana": "ウチババ",
    "street": null,
    "office_name": null,
    "office_name_kana": null
  },
  "0242": {
    "zip_code": "6660242",
    "prefecture": "兵庫県",
    "prefecture_kana": "ヒョウゴケン",
    "prefecture_code": "28",
    "city": "川辺郡猪名川町",
    "city_kana": "カワベグンイナガワチョウ",
    "town": "原",
    "town_kana": "ハラ",
    "street": null,
    "office_name": null,
    "office_name_kana": null
  },
  "0243": {
    "zip_code": "6660243",
    "prefecture": "兵庫県",
    "prefecture_kana": "ヒョウゴケン",
    "prefecture_code": "28",
    "city": "川辺郡猪名川町",
    "city_kana": "カワベグンイナガワチョウ",
    "town": "柏梨田",
    "town_kana": "カシウダ",
    "street": null,
    "office_name": null,
    "office_name_kana": null
  },
  "0244": {
    "zip_code": "6660244",
    "prefecture": "兵庫県",
    "prefecture_kana": "ヒョウゴケン",
    "prefecture_code": "28",
    "city": "川辺郡猪名川町",
    "city_kana": "カワベグンイナガワチョウ",
    "town": "上野",
    "town_kana": "ウエノ",
    "street": null,
    "office_name": null,
    "office_name_kana": null
  },
  "0245": {
    "zip_code": "6660245",
    "prefecture": "兵庫県",
    "prefecture_kana": "ヒョウゴケン",
    "prefecture_code": "28",
    "city": "川辺郡猪名川町",
    "city_kana": "カワベグンイナガワチョウ",
    "town": "つつじが丘",
    "town_kana": "ツツジガオカ",
    "street": null,
    "office_name": null,
    "office_name_kana": null
  },
  "0246": {
    "zip_code": "6660246",
    "prefecture": "兵庫県",
    "prefecture_kana": "ヒョウゴケン",
    "prefecture_code": "28",
    "city": "川辺郡猪名川町",
    "city_kana": "カワベグンイナガワチョウ",
    "town": "猪名川台",
    "town_kana": "イナガワダイ",
    "street": null,
    "office_name": null,
    "office_name_kana": null
  },
  "0251": {
    "zip_code": "6660251",
    "prefecture": "兵庫県",
    "prefecture_kana": "ヒョウゴケン",
    "prefecture_code": "28",
    "city": "川辺郡猪名川町",
    "city_kana": "カワベグンイナガワチョウ",
    "town": "若葉",
    "town_kana": "ワカバ",
    "street": null,
    "office_name": null,
    "office_name_kana": null
  },
  "0252": {
    "zip_code": "6660252",
    "prefecture": "兵庫県",
    "prefecture_kana": "ヒョウゴケン",
    "prefecture_code": "28",
    "city": "川辺郡猪名川町",
    "city_kana": "カワベグンイナガワチョウ",
    "town": "広根",
    "town_kana": "ヒロネ",
    "street": null,
    "office_name": null,
    "office_name_kana": null
  },
  "0253": {
    "zip_code": "6660253",
    "prefecture": "兵庫県",
    "prefecture_kana": "ヒョウゴケン",
    "prefecture_code": "28",
    "city": "川辺郡猪名川町",
    "city_kana": "カワベグンイナガワチョウ",
    "town": "差組",
    "town_kana": "サシクミ",
    "street": null,
    "office_name": null,
    "office_name_kana": null
  },
  "0254": {
    "zip_code": "6660254",
    "prefecture": "兵庫県",
    "prefecture_kana": "ヒョウゴケン",
    "prefecture_code": "28",
    "city": "川辺郡猪名川町",
    "city_kana": "カワベグンイナガワチョウ",
    "town": "肝川",
    "town_kana": "キモカワ",
    "street": null,
    "office_name": null,
    "office_name_kana": null
  },
  "0255": {
    "zip_code": "6660255",
    "prefecture": "兵庫県",
    "prefecture_kana": "ヒョウゴケン",
    "prefecture_code": "28",
    "city": "川辺郡猪名川町",
    "city_kana": "カワベグンイナガワチョウ",
    "town": "猪渕",
    "town_kana": "イブチ",
    "street": null,
    "office_name": null,
    "office_name_kana": null
  },
  "0256": {
    "zip_code": "6660256",
    "prefecture": "兵庫県",
    "prefecture_kana": "ヒョウゴケン",
    "prefecture_code": "28",
    "city": "川辺郡猪名川町",
    "city_kana": "カワベグンイナガワチョウ",
    "town": "銀山",
    "town_kana": "ギンザン",
    "street": null,
    "office_name": null,
    "office_name_kana": null
  },
  "0257": {
    "zip_code": "6660257",
    "prefecture": "兵庫県",
    "prefecture_kana": "ヒョウゴケン",
    "prefecture_code": "28",
    "city": "川辺郡猪名川町",
    "city_kana": "カワベグンイナガワチョウ",
    "town": "白金",
    "town_kana": "シロガネ",
    "street": null,
    "office_name": null,
    "office_name_kana": null
  },
  "0261": {
    "zip_code": "6660261",
    "prefecture": "兵庫県",
    "prefecture_kana": "ヒョウゴケン",
    "prefecture_code": "28",
    "city": "川辺郡猪名川町",
    "city_kana": "カワベグンイナガワチョウ",
    "town": "松尾台",
    "town_kana": "マツオダイ",
    "street": null,
    "office_name": null,
    "office_name_kana": null
  },
  "0262": {
    "zip_code": "6660262",
    "prefecture": "兵庫県",
    "prefecture_kana": "ヒョウゴケン",
    "prefecture_code": "28",
    "city": "川辺郡猪名川町",
    "city_kana": "カワベグンイナガワチョウ",
    "town": "伏見台",
    "town_kana": "フシミダイ",
    "street": null,
    "office_name": null,
    "office_name_kana": null
  },
  "0292": {
    "zip_code": "6660292",
    "prefecture": "兵庫県",
    "prefecture_kana": "ヒョウゴケン",
    "prefecture_code": "28",
    "city": "川辺郡猪名川町",
    "city_kana": "カワベグンイナガワチョウ",
    "town": "上野",
    "town_kana": "ウエノ",
    "street": "字北畑１１−１",
    "office_name": "猪名川町役場",
    "office_name_kana": "イナガワチヨウヤクバ"
  },
  "8501": {
    "zip_code": "6668501",
    "prefecture": "兵庫県",
    "prefecture_kana": "ヒョウゴケン",
    "prefecture_code": "28",
    "city": "川西市",
    "city_kana": "カワニシシ",
    "town": "中央町",
    "town_kana": "チュウオウチョウ",
    "street": "１２−１",
    "office_name": "川西市役所",
    "office_name_kana": "カワニシシヤクシヨ"
  }
}