{
  "0000": {
    "zip_code": "6760000",
    "prefecture": "兵庫県",
    "prefecture_kana": "ヒョウゴケン",
    "prefecture_code": "28",
    "city": "高砂市",
    "city_kana": "タカサゴシ",
    "town": "",
    "town_kana": "",
    "street": null,
    "office_name": null,
    "office_name_kana": null
  },
  "0001": {
    "zip_code": "6760001",
    "prefecture": "兵庫県",
    "prefecture_kana": "ヒョウゴケン",
    "prefecture_code": "28",
    "city": "高砂市",
    "city_kana": "タカサゴシ",
    "town": "中島",
    "town_kana": "ナカシマ",
    "street": null,
    "office_name": null,
    "office_name_kana": null
  },
  "0002": {
    "zip_code": "6760002",
    "prefecture": "兵庫県",
    "prefecture_kana": "ヒョウゴケン",
    "prefecture_code": "28",
    "city": "高砂市",
    "city_kana": "タカサゴシ",
    "town": "末広町",
    "town_kana": "スエヒロチョウ",
    "street": null,
    "office_name": null,
    "office_name_kana": null
  },
  "0003": {
    "zip_code": "6760003",
    "prefecture": "兵庫県",
    "prefecture_kana": "ヒョウゴケン",
    "prefecture_code": "28",
    "city": "高砂市",
    "city_kana": "タカサゴシ",
    "town": "今市",
    "town_kana": "イマイチ",
    "street": null,
    "office_name": null,
    "office_name_kana": null
  },
  "0004": {
    "zip_code": "6760004",
    "prefecture": "兵庫県",
    "prefecture_kana": "ヒョウゴケン",
    "prefecture_code": "28",
    "city": "高砂市",
    "city_kana": "タカサゴシ",
    "town": "荒井町千鳥",
    "town_kana": "アライチョウチドリ",
    "street": null,
    "office_name": null,
    "office_name_kana": null
  },
  "0005": {
    "zip_code": "6760005",
    "prefecture": "兵庫県",
    "prefecture_kana": "ヒョウゴケン",
    "prefecture_code": "28",
    "city": "高砂市",
    "city_kana": "タカサゴシ",
    "town": "荒井町御旅",
    "town_kana": "アライチョウオタビ",
    "street": null,
    "office_name": null,
    "office_name_kana": null
  },
  "0006": {
    "zip_code": "6760006",
    "prefecture": "兵庫県",
    "prefecture_kana": "ヒョウゴケン",
    "prefecture_code": "28",
    "city": "高砂市",
    "city_kana": "タカサゴシ",
    "town": "荒井町南栄町",
    "town_kana": "アライチョウミナミサカエマチ",
    "street": null,
    "office_name": null,
    "office_name_kana": null
  },
  "0007": {
    "zip_code": "6760007",
    "prefecture": "兵庫県",
    "prefecture_kana": "ヒョウゴケン",
    "prefecture_code": "28",
    "city": "高砂市",
    "city_kana": "タカサゴシ",
    "town": "荒井町中町",
    "town_kana": "アライチョウナカマチ",
    "street": null,
    "office_name": null,
    "office_name_kana": null
  },
  "0008": {
    "zip_code": "6760008",
    "prefecture": "兵庫県",
    "prefecture_kana": "ヒョウゴケン",
    "prefecture_code": "28",
    "city": "高砂市",
    "city_kana": "タカサゴシ",
    "town": "荒井町新浜",
    "town_kana": "アライチョウシンハマ",
    "street": null,
    "office_name": null,
    "office_name_kana": null
  },
  "0011": {
    "zip_code": "6760011",
    "prefecture": "兵庫県",
    "prefecture_kana": "ヒョウゴケン",
    "prefecture_code": "28",
    "city": "高砂市",
    "city_kana": "タカサゴシ",
    "town": "荒井町小松原",
    "town_kana": "アライチョウコマツバラ",
    "street": null,
    "office_name": null,
    "office_name_kana": null
  },
  "0012": {
    "zip_code": "6760012",
    "prefecture": "兵庫県",
    "prefecture_kana": "ヒョウゴケン",
    "prefecture_code": "28",
    "city": "高砂市",
    "city_kana": "タカサゴシ",
    "town": "荒井町中新町",
    "town_kana": "アライチョウナカシンマチ",
    "street": null,
    "office_name": null,
    "office_name_kana": null
  },
  "0013": {
    "zip_code": "6760013",
    "prefecture": "兵庫県",
    "prefecture_kana": "ヒョウゴケン",
    "prefecture_code": "28",
    "city": "高砂市",
    "city_kana": "タカサゴシ",
    "town": "荒井町蓮池",
    "town_kana": "アライチョウハスイケ",
    "street": null,
    "office_name": null,
    "office_name_kana": null
  },
  "0014": {
    "zip_code": "6760014",
    "prefecture": "兵庫県",
    "prefecture_kana": "ヒョウゴケン",
    "prefecture_code": "28",
    "city": "高砂市",
    "city_kana": "タカサゴシ",
    "town": "荒井町日之出町",
    "town_kana": "アライチョウヒノデチョウ",
    "street": null,
    "office_name": null,
    "office_name_kana": null
  },
  "0015": {
    "zip_code": "6760015",
    "prefecture": "兵庫県",
    "prefecture_kana": "ヒョウゴケン",
    "prefecture_code": "28",
    "city": "高砂市",
    "city_kana": "タカサゴシ",
    "town": "荒井町紙町",
    "town_kana": "アライチョウカミマチ",
    "street": null,
    "office_name": null,
    "office_name_kana": null
  },
  "0016": {
    "zip_code": "6760016",
    "prefecture": "兵庫県",
    "prefecture_kana": "ヒョウゴケン",
    "prefecture_code": "28",
    "city": "高砂市",
    "city_kana": "タカサゴシ",
    "town": "荒井町扇町",
    "town_kana": "アライチョウオオギマチ",
    "street": null,
    "office_name": null,
    "office_name_kana": null
  },
  "0017": {
    "zip_code": "6760017",
    "prefecture": "兵庫県",
    "prefecture_kana": "ヒョウゴケン",
    "prefecture_code": "28",
    "city": "高砂市",
    "city_kana": "タカサゴシ",
    "town": "荒井町東本町",
    "town_kana": "アライチョウヒガシホンマチ",
    "street": null,
    "office_name": null,
    "office_name_kana": null
  },
  "0018": {
    "zip_code": "6760018",
    "prefecture": "兵庫県",
    "prefecture_kana": "ヒョウゴケン",
    "prefecture_code": "28",
    "city": "高砂市",
    "city_kana": "タカサゴシ",
    "town": "荒井町若宮町",
    "town_kana": "アライチョウワカミヤマチ",
    "street": null,
    "office_name": null,
    "office_name_kana": null
  },
  "0019": {
    "zip_code": "6760019",
    "prefecture": "兵庫県",
    "prefecture_kana": "ヒョウゴケン",
    "prefecture_code": "28",
    "city": "高砂市",
    "city_kana": "タカサゴシ",
    "town": "緑丘",
    "town_kana": "ミドリガオカ",
    "street": null,
    "office_name": null,
    "office_name_kana": null
  },
  "0021": {
    "zip_code": "6760021",
    "prefecture": "兵庫県",
    "prefecture_kana": "ヒョウゴケン",
    "prefecture_code": "28",
    "city": "高砂市",
    "city_kana": "タカサゴシ",
    "town": "高砂町朝日町",
    "town_kana": "タカサゴチョウアサヒマチ",
    "street": null,
    "office_name": null,
    "office_name_kana": null
  },
  "0022": {
    "zip_code": "6760022",
    "prefecture": "兵庫県",
    "prefecture_kana": "ヒョウゴケン",
    "prefecture_code": "28",
    "city": "高砂市",
    "city_kana": "タカサゴシ",
    "town": "高砂町浜田町",
    "town_kana": "タカサゴチョウハマダマチ",
    "street": null,
    "office_name": null,
    "office_name_kana": null
  },
  "0023": {
    "zip_code": "6760023",
    "prefecture": "兵庫県",
    "prefecture_kana": "ヒョウゴケン",
    "prefecture_code": "28",
    "city": "高砂市",
    "city_kana": "タカサゴシ",
    "town": "高砂町松波町",
    "town_kana": "タカサゴチョウマツナミチョウ",
    "street": null,
    "office_name": null,
    "office_name_kana": null
  },
  "0024": {
    "zip_code": "6760024",
    "prefecture": "兵庫県",
    "prefecture_kana": "ヒョウゴケン",
    "prefecture_code": "28",
    "city": "高砂市",
    "city_kana": "タカサゴシ",
    "town": "高砂町木曽町",
    "town_kana": "タカサゴチョウキソマチ",
    "street": null,
    "office_name": null,
    "office_name_kana": null
  },
  "0025": {
    "zip_code": "6760025",
    "prefecture": "兵庫県",
    "prefecture_kana": "ヒョウゴケン",
    "prefecture_code": "28",
    "city": "高砂市",
    "city_kana": "タカサゴシ",
    "town": "西畑",
    "town_kana": "ニシハタ",
    "street": null,
    "office_name": null,
    "office_name_kana": null
  },
  "0026": {
    "zip_code": "6760026",
    "prefecture": "兵庫県",
    "prefecture_kana": "ヒョウゴケン",
    "prefecture_code": "28",
    "city": "高砂市",
    "city_kana": "タカサゴシ",
    "town": "高砂町沖浜町",
    "town_kana": "タカサゴチョウオキハマチョウ",
    "street": null,
    "office_name": null,
    "office_name_kana": null
  },
  "0027": {
    "zip_code": "6760027",
    "prefecture": "兵庫県",
    "prefecture_kana": "ヒョウゴケン",
    "prefecture_code": "28",
    "city": "高砂市",
    "city_kana": "タカサゴシ",
    "town": "高砂町宮前町",
    "town_kana": "タカサゴチョウミヤマエチョウ",
    "street": null,
    "office_name": null,
    "office_name_kana": null
  },
  "0028": {
    "zip_code": "6760028",
    "prefecture": "兵庫県",
    "prefecture_kana": "ヒョウゴケン",
    "prefecture_code": "28",
    "city": "高砂市",
    "city_kana": "タカサゴシ",
    "town": "高砂町相生町",
    "town_kana": "タカサゴチョウアイオイチョウ",
    "street": null,
    "office_name": null,
    "office_name_kana": null
  },
  "0031": {
    "zip_code": "6760031",
    "prefecture": "兵庫県",
    "prefecture_kana": "ヒョウゴケン",
    "prefecture_code": "28",
    "city": "高砂市",
    "city_kana": "タカサゴシ",
    "town": "高砂町向島町",
    "town_kana": "タカサゴチョウムコウジマチョウ",
    "street": null,
    "office_name": null,
    "office_name_kana": null
  },
  "0032": {
    "zip_code": "6760032",
    "prefecture": "兵庫県",
    "prefecture_kana": "ヒョウゴケン",
    "prefecture_code": "28",
    "city": "高砂市",
    "city_kana": "タカサゴシ",
    "town": "高砂町東浜町",
    "town_kana": "タカサゴチョウヒガシハママチ",
    "street": null,
    "office_name": null,
    "office_name_kana": null
  },
  "0033": {
    "zip_code": "6760033",
    "prefecture": "兵庫県",
    "prefecture_kana": "ヒョウゴケン",
    "prefecture_code": "28",
    "city": "高砂市",
    "city_kana": "タカサゴシ",
    "town": "高砂町材木町",
    "town_kana": "タカサゴチョウザイモクマチ",
    "street": null,
    "office_name": null,
    "office_name_kana": null
  },
  "0034": {
    "zip_code": "6760034",
    "prefecture": "兵庫県",
    "prefecture_kana": "ヒョウゴケン",
    "prefecture_code": "28",
    "city": "高砂市",
    "city_kana": "タカサゴシ",
    "town": "高砂町船頭町",
    "town_kana": "タカサゴチョウセンドウマチ",
    "street": null,
    "office_name": null,
    "office_name_kana": null
  },
  "0035": {
    "zip_code": "6760035",
    "prefecture": "兵庫県",
    "prefecture_kana": "ヒョウゴケン",
    "prefecture_code": "28",
    "city": "高砂市",
    "city_kana": "タカサゴシ",
    "town": "高砂町清水町",
    "town_kana": "タカサゴチョウシミズマチ",
    "street": null,
    "office_name": null,
    "office_name_kana": null
  },
  "0036": {
    "zip_code": "6760036",
    "prefecture": "兵庫県",
    "prefecture_kana": "ヒョウゴケン",
    "prefecture_code": "28",
    "city": "高砂市",
    "city_kana": "タカサゴシ",
    "town": "高砂町高瀬町",
    "town_kana": "タカサゴチョウタカセマチ",
    "street": null,
    "office_name": null,
    "office_name_kana": null
  },
  "0037": {
    "zip_code": "6760037",
    "prefecture": "兵庫県",
    "prefecture_kana": "ヒョウゴケン",
    "prefecture_code": "28",
    "city": "高砂市",
    "city_kana": "タカサゴシ",
    "town": "高砂町藍屋町",
    "town_kana": "タカサゴチョウアイヤマチ",
    "street": null,
    "office_name": null,
    "office_name_kana": null
  },
  "0038": {
    "zip_code": "6760038",
    "prefecture": "兵庫県",
    "prefecture_kana": "ヒョウゴケン",
    "prefecture_code": "28",
    "city": "高砂市",
    "city_kana": "タカサゴシ",
    "town": "高砂町栄町",
    "town_kana": "タカサゴチョウサカエマチ",
    "street": null,
    "office_name": null,
    "office_name_kana": null
  },
  "0041": {
    "zip_code": "6760041",
    "prefecture": "兵庫県",
    "prefecture_kana": "ヒョウゴケン",
    "prefecture_code": "28",
    "city": "高砂市",
    "city_kana": "タカサゴシ",
    "town": "高砂町今津町",
    "town_kana": "タカサゴチョウイマヅマチ",
    "street": null,
    "office_name": null,
    "office_name_kana": null
  },
  "0042": {
    "zip_code": "6760042",
    "prefecture": "兵庫県",
    "prefecture_kana": "ヒョウゴケン",
    "prefecture_code": "28",
    "city": "高砂市",
    "city_kana": "タカサゴシ",
    "town": "高砂町南浜町",
    "town_kana": "タカサゴチョウミナミハママチ",
    "street": null,
    "office_name": null,
    "office_name_kana": null
  },
  "0043": {
    "zip_code": "6760043",
    "prefecture": "兵庫県",
    "prefecture_kana": "ヒョウゴケン",
    "prefecture_code": "28",
    "city": "高砂市",
    "city_kana": "タカサゴシ",
    "town": "高砂町東宮町",
    "town_kana": "タカサゴチョウヒガシミヤマチ",
    "street": null,
    "office_name": null,
    "office_name_kana": null
  },
  "0044": {
    "zip_code": "6760044",
    "prefecture": "兵庫県",
    "prefecture_kana": "ヒョウゴケン",
    "prefecture_code": "28",
    "city": "高砂市",
    "city_kana": "タカサゴシ",
    "town": "高砂町南材木町",
    "town_kana": "タカサゴチョウミナミザイモクマチ",
    "street": null,
    "office_name": null,
    "office_name_kana": null
  },
  "0045": {
    "zip_code": "6760045",
    "prefecture": "兵庫県",
    "prefecture_kana": "ヒョウゴケン",
    "prefecture_code": "28",
    "city": "高砂市",
    "city_kana": "タカサゴシ",
    "town": "高砂町戎町",
    "town_kana": "タカサゴチョウエビスマチ",
    "street": null,
    "office_name": null,
    "office_name_kana": null
  },
  "0046": {
    "zip_code": "6760046",
    "prefecture": "兵庫県",
    "prefecture_kana": "ヒョウゴケン",
    "prefecture_code": "28",
    "city": "高砂市",
    "city_kana": "タカサゴシ",
    "town": "高砂町西宮町",
    "town_kana": "タカサゴチョウニシミヤマチ",
    "street": null,
    "office_name": null,
    "office_name_kana": null
  },
  "0047": {
    "zip_code": "6760047",
    "prefecture": "兵庫県",
    "prefecture_kana": "ヒョウゴケン",
    "prefecture_code": "28",
    "city": "高砂市",
    "city_kana": "タカサゴシ",
    "town": "高砂町南本町",
    "town_kana": "タカサゴチョウミナミホンマチ",
    "street": null,
    "office_name": null,
    "office_name_kana": null
  },
  "0048": {
    "zip_code": "6760048",
    "prefecture": "兵庫県",
    "prefecture_kana": "ヒョウゴケン",
    "prefecture_code": "28",
    "city": "高砂市",
    "city_kana": "タカサゴシ",
    "town": "高砂町猟師町",
    "town_kana": "タカサゴチョウリョウシマチ",
    "street": null,
    "office_name": null,
    "office_name_kana": null
  },
  "0049": {
    "zip_code": "6760049",
    "prefecture": "兵庫県",
    "prefecture_kana": "ヒョウゴケン",
    "prefecture_code": "28",
    "city": "高砂市",
    "city_kana": "タカサゴシ",
    "town": "高砂町田町",
    "town_kana": "タカサゴチョウタマチ",
    "street": null,
    "office_name": null,
    "office_name_kana": null
  },
  "0051": {
    "zip_code": "6760051",
    "prefecture": "兵庫県",
    "prefecture_kana": "ヒョウゴケン",
    "prefecture_code": "28",
    "city": "高砂市",
    "city_kana": "タカサゴシ",
    "town": "高砂町横町",
    "town_kana": "タカサゴチョウヨコマチ",
    "street": null,
    "office_name": null,
    "office_name_kana": null
  },
  "0052": {
    "zip_code": "6760052",
    "prefecture": "兵庫県",
    "prefecture_kana": "ヒョウゴケン",
    "prefecture_code": "28",
    "city": "高砂市",
    "city_kana": "タカサゴシ",
    "town": "高砂町南渡海町",
    "town_kana": "タカサゴチョウミナミトカイマチ",
    "street": null,
    "office_name": null,
    "office_name_kana": null
  },
  "0053": {
    "zip_code": "6760053",
    "prefecture": "兵庫県",
    "prefecture_kana": "ヒョウゴケン",
    "prefecture_code": "28",
    "city": "高砂市",
    "city_kana": "タカサゴシ",
    "town": "高砂町魚町",
    "town_kana": "タカサゴチョウウオマチ",
    "street": null,
    "office_name": null,
    "office_name_kana": null
  },
  "0054": {
    "zip_code": "6760054",
    "prefecture": "兵庫県",
    "prefecture_kana": "ヒョウゴケン",
    "prefecture_code": "28",
    "city": "高砂市",
    "city_kana": "タカサゴシ",
    "town": "高砂町狩網町",
    "town_kana": "タカサゴチョウカリアミマチ",
    "street": null,
    "office_name": null,
    "office_name_kana": null
  },
  "0055": {
    "zip_code": "6760055",
    "prefecture": "兵庫県",
    "prefecture_kana": "ヒョウゴケン",
    "prefecture_code": "28",
    "city": "高砂市",
    "city_kana": "タカサゴシ",
    "town": "高砂町釣船町",
    "town_kana": "タカサゴチョウツリフネマチ",
    "street": null,
    "office_name": null,
    "office_name_kana": null
  },
  "0056": {
    "zip_code": "6760056",
    "prefecture": "兵庫県",
    "prefecture_kana": "ヒョウゴケン",
    "prefecture_code": "28",
    "city": "高砂市",
    "city_kana": "タカサゴシ",
    "town": "高砂町大工町",
    "town_kana": "タカサゴチョウダイクマチ",
    "street": null,
    "office_name": null,
    "office_name_kana": null
  },
  "0061": {
    "zip_code": "6760061",
    "prefecture": "兵庫県",
    "prefecture_kana": "ヒョウゴケン",
    "prefecture_code": "28",
    "city": "高砂市",
    "city_kana": "タカサゴシ",
    "town": "高砂町農人町",
    "town_kana": "タカサゴチョウノウニンマチ",
    "street": null,
    "office_name": null,
    "office_name_kana": null
  },
  "0062": {
    "zip_code": "6760062",
    "prefecture": "兵庫県",
    "prefecture_kana": "ヒョウゴケン",
    "prefecture_code": "28",
    "city": "高砂市",
    "city_kana": "タカサゴシ",
    "town": "高砂町北渡海町",
    "town_kana": "タカサゴチョウキタトカイマチ",
    "street": null,
    "office_name": null,
    "office_name_kana": null
  },
  "0063": {
    "zip_code": "6760063",
    "prefecture": "兵庫県",
    "prefecture_kana": "ヒョウゴケン",
    "prefecture_code": "28",
    "city": "高砂市",
    "city_kana": "タカサゴシ",
    "town": "高砂町次郎助町",
    "town_kana": "タカサゴチョウジロスケマチ",
    "street": null,
    "office_name": null,
    "office_name_kana": null
  },
  "0064": {
    "zip_code": "6760064",
    "prefecture": "兵庫県",
    "prefecture_kana": "ヒョウゴケン",
    "prefecture_code": "28",
    "city": "高砂市",
    "city_kana": "タカサゴシ",
    "town": "高砂町北本町",
    "town_kana": "タカサゴチョウキタホンマチ",
    "street": null,
    "office_name": null,
    "office_name_kana": null
  },
  "0065": {
    "zip_code": "6760065",
    "prefecture": "兵庫県",
    "prefecture_kana": "ヒョウゴケン",
    "prefecture_code": "28",
    "city": "高砂市",
    "city_kana": "タカサゴシ",
    "town": "高砂町細工町",
    "town_kana": "タカサゴチョウサイクマチ",
    "street": null,
    "office_name": null,
    "office_name_kana": null
  },
  "0066": {
    "zip_code": "6760066",
    "prefecture": "兵庫県",
    "prefecture_kana": "ヒョウゴケン",
    "prefecture_code": "28",
    "city": "高砂市",
    "city_kana": "タカサゴシ",
    "town": "高砂町鍵町",
    "town_kana": "タカサゴチョウカギマチ",
    "street": null,
    "office_name": null,
    "office_name_kana": null
  },
  "0067": {
    "zip_code": "6760067",
    "prefecture": "兵庫県",
    "prefecture_kana": "ヒョウゴケン",
    "prefecture_code": "28",
    "city": "高砂市",
    "city_kana": "タカサゴシ",
    "town": "高砂町東農人町",
    "town_kana": "タカサゴチョウヒガシノウニンマチ",
    "street": null,
    "office_name": null,
    "office_name_kana": null
  },
  "0068": {
    "zip_code": "6760068",
    "prefecture": "兵庫県",
    "prefecture_kana": "ヒョウゴケン",
    "prefecture_code": "28",
    "city": "高砂市",
    "city_kana": "タカサゴシ",
    "town": "高砂町鍛冶屋町",
    "town_kana": "タカサゴチョウカジヤマチ",
    "street": null,
    "office_name": null,
    "office_name_kana": null
  },
  "0071": {
    "zip_code": "6760071",
    "prefecture": "兵庫県",
    "prefecture_kana": "ヒョウゴケン",
    "prefecture_code": "28",
    "city": "高砂市",
    "city_kana": "タカサゴシ",
    "town": "伊保東",
    "town_kana": "イホヒガシ",
    "street": null,
    "office_name": null,
    "office_name_kana": null
  },
  "0072": {
    "zip_code": "6760072",
    "prefecture": "兵庫県",
    "prefecture_kana": "ヒョウゴケン",
    "prefecture_code": "28",
    "city": "高砂市",
    "city_kana": "タカサゴシ",
    "town": "伊保港町",
    "town_kana": "イホミナトマチ",
    "street": null,
    "office_name": null,
    "office_name_kana": null
  },
  "0073": {
    "zip_code": "6760073",
    "prefecture": "兵庫県",
    "prefecture_kana": "ヒョウゴケン",
    "prefecture_code": "28",
    "city": "高砂市",
    "city_kana": "タカサゴシ",
    "town": "高須",
    "town_kana": "タカス",
    "street": null,
    "office_name": null,
    "office_name_kana": null
  },
  "0074": {
    "zip_code": "6760074",
    "prefecture": "兵庫県",
    "prefecture_kana": "ヒョウゴケン",
    "prefecture_code": "28",
    "city": "高砂市",
    "city_kana": "タカサゴシ",
    "town": "梅井",
    "town_kana": "ウメイ",
    "street": null,
    "office_name": null,
    "office_name_kana": null
  },
  "0075": {
    "zip_code": "6760075",
    "prefecture": "兵庫県",
    "prefecture_kana": "ヒョウゴケン",
    "prefecture_code": "28",
    "city": "高砂市",
    "city_kana": "タカサゴシ",
    "town": "伊保崎南",
    "town_kana": "イホザキミナミ",
    "street": null,
    "office_name": null,
    "office_name_kana": null
  },
  "0076": {
    "zip_code": "6760076",
    "prefecture": "兵庫県",
    "prefecture_kana": "ヒョウゴケン",
    "prefecture_code": "28",
    "city": "高砂市",
    "city_kana": "タカサゴシ",
    "town": "伊保崎",
    "town_kana": "イホザキ",
    "street": null,
    "office_name": null,
    "office_name_kana": null
  },
  "0077": {
    "zip_code": "6760077",
    "prefecture": "兵庫県",
    "prefecture_kana": "ヒョウゴケン",
    "prefecture_code": "28",
    "city": "高砂市",
    "city_kana": "タカサゴシ",
    "town": "松陽",
    "town_kana": "ショウヨウ",
    "street": null,
    "office_name": null,
    "office_name_kana": null
  },
  "0078": {
    "zip_code": "6760078",
    "prefecture": "兵庫県",
    "prefecture_kana": "ヒョウゴケン",
    "prefecture_code": "28",
    "city": "高砂市",
    "city_kana": "タカサゴシ",
    "town": "伊保",
    "town_kana": "イホ",
    "street": null,
    "office_name": null,
    "office_name_kana": null
  },
  "0081": {
    "zip_code": "6760081",
    "prefecture": "兵庫県",
    "prefecture_kana": "ヒョウゴケン",
    "prefecture_code": "28",
    "city": "高砂市",
    "city_kana": "タカサゴシ",
    "town": "伊保町中筋",
    "town_kana": "イホチョウナカスジ",
    "street": null,
    "office_name": null,
    "office_name_kana": null
  },
  "0082": {
    "zip_code": "6760082",
    "prefecture": "兵庫県",
    "prefecture_kana": "ヒョウゴケン",
    "prefecture_code": "28",
    "city": "高砂市",
    "city_kana": "タカサゴシ",
    "town": "曽根町",
    "town_kana": "ソネチョウ",
    "street": null,
    "office_name": null,
    "office_name_kana": null
  },
  "0801": {
    "zip_code": "6760801",
    "prefecture": "兵庫県",
    "prefecture_kana": "ヒョウゴケン",
    "prefecture_code": "28",
    "city": "高砂市",
    "city_kana": "タカサゴシ",
    "town": "米田町米田新",
    "town_kana": "ヨネダチョウヨネダシン",
    "street": null,
    "office_name": null,
    "office_name_kana": null
  },
  "0802": {
    "zip_code": "6760802",
    "prefecture": "兵庫県",
    "prefecture_kana": "ヒョウゴケン",
    "prefecture_code": "28",
    "city": "高砂市",
    "city_kana": "タカサゴシ",
    "town": "米田町古新",
    "town_kana": "ヨネダチョウコシン",
    "street": null,
    "office_name": null,
    "office_name_kana": null
  },
  "0803": {
    "zip_code": "6760803",
    "prefecture": "兵庫県",
    "prefecture_kana": "ヒョウゴケン",
    "prefecture_code": "28",
    "city": "高砂市",
    "city_kana": "タカサゴシ",
    "town": "百合丘",
    "town_kana": "ユリガオカ",
    "street": null,
    "office_name": null,
    "office_name_kana": null
  },
  "0804": {
    "zip_code": "6760804",
    "prefecture": "兵庫県",
    "prefecture_kana": "ヒョウゴケン",
    "prefecture_code": "28",
    "city": "高砂市",
    "city_kana": "タカサゴシ",
    "town": "美保里",
    "town_kana": "ミホノサト",
    "street": null,
    "office_name": null,
    "office_name_kana": null
  },
  "0805": {
    "zip_code": "6760805",
    "prefecture": "兵庫県",
    "prefecture_kana": "ヒョウゴケン",
    "prefecture_code": "28",
    "city": "高砂市",
    "city_kana": "タカサゴシ",
    "town": "米田町米田",
    "town_kana": "ヨネダチョウヨネダ",
    "street": null,
    "office_name": null,
    "office_name_kana": null
  },
  "0806": {
    "zip_code": "6760806",
    "prefecture": "兵庫県",
    "prefecture_kana": "ヒョウゴケン",
    "prefecture_code": "28",
    "city": "高砂市",
    "city_kana": "タカサゴシ",
    "town": "米田町塩市",
    "town_kana": "ヨネダチョウシオイチ",
    "street": null,
    "office_name": null,
    "office_name_kana": null
  },
  "0807": {
    "zip_code": "6760807",
    "prefecture": "兵庫県",
    "prefecture_kana": "ヒョウゴケン",
    "prefecture_code": "28",
    "city": "高砂市",
    "city_kana": "タカサゴシ",
    "town": "米田町島",
    "town_kana": "ヨネダチョウシマ",
    "street": null,
    "office_name": null,
    "office_name_kana": null
  },
  "0808": {
    "zip_code": "6760808",
    "prefecture": "兵庫県",
    "prefecture_kana": "ヒョウゴケン",
    "prefecture_code": "28",
    "city": "高砂市",
    "city_kana": "タカサゴシ",
    "town": "神爪",
    "town_kana": "カヅメ",
    "street": null,
    "office_name": null,
    "office_name_kana": null
  },
  "0809": {
    "zip_code": "6760809",
    "prefecture": "兵庫県",
    "prefecture_kana": "ヒョウゴケン",
    "prefecture_code": "28",
    "city": "高砂市",
    "city_kana": "タカサゴシ",
    "town": "米田団地",
    "town_kana": "ヨネダダンチ",
    "street": null,
    "office_name": null,
    "office_name_kana": null
  },
  "0811": {
    "zip_code": "6760811",
    "prefecture": "兵庫県",
    "prefecture_kana": "ヒョウゴケン",
    "prefecture_code": "28",
    "city": "高砂市",
    "city_kana": "タカサゴシ",
    "town": "竜山",
    "town_kana": "タツヤマ",
    "street": null,
    "office_name": null,
    "office_name_kana": null
  },
  "0812": {
    "zip_code": "6760812",
    "prefecture": "兵庫県",
    "prefecture_kana": "ヒョウゴケン",
    "prefecture_code": "28",
    "city": "高砂市",
    "city_kana": "タカサゴシ",
    "town": "中筋",
    "town_kana": "ナカスジ",
    "street": null,
    "office_name": null,
    "office_name_kana": null
  },
  "0813": {
    "zip_code": "6760813",
    "prefecture": "兵庫県",
    "prefecture_kana": "ヒョウゴケン",
    "prefecture_code": "28",
    "city": "高砂市",
    "city_kana": "タカサゴシ",
    "town": "時光寺町",
    "town_kana": "ジコウジチョウ",
    "street": null,
    "office_name": null,
    "office_name_kana": null
  },
  "0814": {
    "zip_code": "6760814",
    "prefecture": "兵庫県",
    "prefecture_kana": "ヒョウゴケン",
    "prefecture_code": "28",
    "city": "高砂市",
    "city_kana": "タカサゴシ",
    "town": "春日野町",
    "town_kana": "カスガノチョウ",
    "street": null,
    "office_name": null,
    "office_name_kana": null
  },
  "0815": {
    "zip_code": "6760815",
    "prefecture": "兵庫県",
    "prefecture_kana": "ヒョウゴケン",
    "prefecture_code": "28",
    "city": "高砂市",
    "city_kana": "タカサゴシ",
    "town": "阿弥陀",
    "town_kana": "アミダ",
    "street": null,
    "office_name": null,
    "office_name_kana": null
  },
  "0816": {
    "zip_code": "6760816",
    "prefecture": "兵庫県",
    "prefecture_kana": "ヒョウゴケン",
    "prefecture_code": "28",
    "city": "高砂市",
    "city_kana": "タカサゴシ",
    "town": "金ケ田町",
    "town_kana": "カナケダチョウ",
    "street": null,
    "office_name": null,
    "office_name_kana": null
  },
  "0821": {
    "zip_code": "6760821",
    "prefecture": "兵庫県",
    "prefecture_kana": "ヒョウゴケン",
    "prefecture_code": "28",
    "city": "高砂市",
    "city_kana": "タカサゴシ",
    "town": "阿弥陀町長尾",
    "town_kana": "アミダチョウナガオ",
    "street": null,
    "office_name": null,
    "office_name_kana": null
  },
  "0822": {
    "zip_code": "6760822",
    "prefecture": "兵庫県",
    "prefecture_kana": "ヒョウゴケン",
    "prefecture_code": "28",
    "city": "高砂市",
    "city_kana": "タカサゴシ",
    "town": "阿弥陀町魚橋",
    "town_kana": "アミダチョウウオハシ",
    "street": null,
    "office_name": null,
    "office_name_kana": null
  },
  "0823": {
    "zip_code": "6760823",
    "prefecture": "兵庫県",
    "prefecture_kana": "ヒョウゴケン",
    "prefecture_code": "28",
    "city": "高砂市",
    "city_kana": "タカサゴシ",
    "town": "阿弥陀町生石",
    "town_kana": "アミダチョウオオシコ",
    "street": null,
    "office_name": null,
    "office_name_kana": null
  },
  "0824": {
    "zip_code": "6760824",
    "prefecture": "兵庫県",
    "prefecture_kana": "ヒョウゴケン",
    "prefecture_code": "28",
    "city": "高砂市",
    "city_kana": "タカサゴシ",
    "town": "阿弥陀町南池",
    "town_kana": "アミダチョウミナミイケ",
    "street": null,
    "office_name": null,
    "office_name_kana": null
  },
  "0825": {
    "zip_code": "6760825",
    "prefecture": "兵庫県",
    "prefecture_kana": "ヒョウゴケン",
    "prefecture_code": "28",
    "city": "高砂市",
    "city_kana": "タカサゴシ",
    "town": "阿弥陀町北池",
    "town_kana": "アミダチョウキタイケ",
    "street": null,
    "office_name": null,
    "office_name_kana": null
  },
  "0826": {
    "zip_code": "6760826",
    "prefecture": "兵庫県",
    "prefecture_kana": "ヒョウゴケン",
    "prefecture_code": "28",
    "city": "高砂市",
    "city_kana": "タカサゴシ",
    "town": "阿弥陀町北山",
    "town_kana": "アミダチョウキタヤマ",
    "street": null,
    "office_name": null,
    "office_name_kana": null
  },
  "0827": {
    "zip_code": "6760827",
    "prefecture": "兵庫県",
    "prefecture_kana": "ヒョウゴケン",
    "prefecture_code": "28",
    "city": "高砂市",
    "city_kana": "タカサゴシ",
    "town": "阿弥陀町阿弥陀",
    "town_kana": "アミダチョウアミダ",
    "street": null,
    "office_name": null,
    "office_name_kana": null
  },
  "0828": {
    "zip_code": "6760828",
    "prefecture": "兵庫県",
    "prefecture_kana": "ヒョウゴケン",
    "prefecture_code": "28",
    "city": "高砂市",
    "city_kana": "タカサゴシ",
    "town": "阿弥陀町地徳",
    "town_kana": "アミダチョウジトク",
    "street": null,
    "office_name": null,
    "office_name_kana": null
  },
  "8501": {
    "zip_code": "6768501",
    "prefecture": "兵庫県",
    "prefecture_kana": "ヒョウゴケン",
    "prefecture_code": "28",
    "city": "高砂市",
    "city_kana": "タカサゴシ",
    "town": "荒井町千鳥",
    "town_kana": "アライチョウチドリ",
    "street": "１丁目１−１",
    "office_name": "高砂市役所",
    "office_name_kana": "タカサゴシヤクシヨ"
  },
  "8510": {
    "zip_code": "6768510",
    "prefecture": "兵庫県",
    "prefecture_kana": "ヒョウゴケン",
    "prefecture_code": "28",
    "city": "高砂市",
    "city_kana": "タカサゴシ",
    "town": "荒井町新浜",
    "town_kana": "アライチョウシンハマ",
    "street": "１丁目１−１",
    "office_name": "キッコーマン　株式会社　高砂工場",
    "office_name_kana": "キツコ-マン カブシキガイシヤ タカサゴコウジヨウ"
  },
  "8513": {
    "zip_code": "6768513",
    "prefecture": "兵庫県",
    "prefecture_kana": "ヒョウゴケン",
    "prefecture_code": "28",
    "city": "高砂市",
    "city_kana": "タカサゴシ",
    "town": "荒井町新浜",
    "town_kana": "アライチョウシンハマ",
    "street": "１丁目３−１",
    "office_name": "黒崎播磨　株式会社",
    "office_name_kana": "クロサキハリマ カブシキガイシヤ"
  },
  "8533": {
    "zip_code": "6768533",
    "prefecture": "兵庫県",
    "prefecture_kana": "ヒョウゴケン",
    "prefecture_code": "28",
    "city": "高砂市",
    "city_kana": "タカサゴシ",
    "town": "米田町島",
    "town_kana": "ヨネダチョウシマ",
    "street": "２番地",
    "office_name": "ヤング開発　株式会社",
    "office_name_kana": "ヤングカイハツ カブシキガイシヤ"
  },
  "8540": {
    "zip_code": "6768540",
    "prefecture": "兵庫県",
    "prefecture_kana": "ヒョウゴケン",
    "prefecture_code": "28",
    "city": "高砂市",
    "city_kana": "タカサゴシ",
    "town": "荒井町新浜",
    "town_kana": "アライチョウシンハマ",
    "street": "１丁目２−１",
    "office_name": "株式会社　タクマ　播磨工場",
    "office_name_kana": "カブシキガイシヤ タクマ ハリマコウジヨウ"
  },
  "8558": {
    "zip_code": "6768558",
    "prefecture": "兵庫県",
    "prefecture_kana": "ヒョウゴケン",
    "prefecture_code": "28",
    "city": "高砂市",
    "city_kana": "タカサゴシ",
    "town": "高砂町北本町",
    "town_kana": "タカサゴチョウキタホンマチ",
    "street": "１１０４",
    "office_name": "高砂商工会議所",
    "office_name_kana": "タカサゴシヨウコウカイギシヨ"
  },
  "8566": {
    "zip_code": "6768566",
    "prefecture": "兵庫県",
    "prefecture_kana": "ヒョウゴケン",
    "prefecture_code": "28",
    "city": "高砂市",
    "city_kana": "タカサゴシ",
    "town": "神爪",
    "town_kana": "カヅメ",
    "street": "１丁目１１−３３",
    "office_name": "丸山印刷　株式会社",
    "office_name_kana": "マルヤマインサツ カブシキガイシヤ"
  },
  "8585": {
    "zip_code": "6768585",
    "prefecture": "兵庫県",
    "prefecture_kana": "ヒョウゴケン",
    "prefecture_code": "28",
    "city": "高砂市",
    "city_kana": "タカサゴシ",
    "town": "荒井町紙町",
    "town_kana": "アライチョウカミマチ",
    "street": "３３−１",
    "office_name": "高砂市民病院",
    "office_name_kana": "タカサゴシミンビヨウイン"
  },
  "8655": {
    "zip_code": "6768655",
    "prefecture": "兵庫県",
    "prefecture_kana": "ヒョウゴケン",
    "prefecture_code": "28",
    "city": "高砂市",
    "city_kana": "タカサゴシ",
    "town": "梅井",
    "town_kana": "ウメイ",
    "street": "５丁目６−１",
    "office_name": "旭硝子　株式会社　高砂工場",
    "office_name_kana": "アサヒガラス カブシキガイシヤ タカサゴコウジヨウ"
  },
  "8670": {
    "zip_code": "6768670",
    "prefecture": "兵庫県",
    "prefecture_kana": "ヒョウゴケン",
    "prefecture_code": "28",
    "city": "高砂市",
    "city_kana": "タカサゴシ",
    "town": "荒井町新浜",
    "town_kana": "アライチョウシンハマ",
    "street": "２丁目３−１（高砂郵便局私書箱第２４号）",
    "office_name": "株式会社　神戸製鋼所　高砂製作所",
    "office_name_kana": "カブシキガイシヤ コウベセイコウシヨ タカサゴセイサクシヨ"
  },
  "8677": {
    "zip_code": "6768677",
    "prefecture": "兵庫県",
    "prefecture_kana": "ヒョウゴケン",
    "prefecture_code": "28",
    "city": "高砂市",
    "city_kana": "タカサゴシ",
    "town": "高砂町栄町",
    "town_kana": "タカサゴチョウサカエマチ",
    "street": "１０５番地",
    "office_name": "三菱製紙　株式会社　高砂工場",
    "office_name_kana": "ミツビシセイシ カブシキガイシヤ タカサゴコウジヨウ"
  },
  "8686": {
    "zip_code": "6768686",
    "prefecture": "兵庫県",
    "prefecture_kana": "ヒョウゴケン",
    "prefecture_code": "28",
    "city": "高砂市",
    "city_kana": "タカサゴシ",
    "town": "荒井町新浜",
    "town_kana": "アライチョウシンハマ",
    "street": "２丁目１−１（高砂郵便局私書箱第２５号）",
    "office_name": "三菱重工業　株式会社　高砂製作所",
    "office_name_kana": "ミツビシジユウコウギヨウ カブシキガイシヤ タカサゴセイサクシヨ"
  },
  "8688": {
    "zip_code": "6768688",
    "prefecture": "兵庫県",
    "prefecture_kana": "ヒョウゴケン",
    "prefecture_code": "28",
    "city": "高砂市",
    "city_kana": "タカサゴシ",
    "town": "高砂町宮前町",
    "town_kana": "タカサゴチョウミヤマエチョウ",
    "street": "１−８（高砂郵便局私書箱第１２号）",
    "office_name": "株式会社　カネカ　高砂工業所",
    "office_name_kana": "カブシキガイシヤ カネカ タカサゴコウギヨウシヨ"
  }
}