{
  "0000": {
    "zip_code": "6800000",
    "prefecture": "鳥取県",
    "prefecture_kana": "トットリケン",
    "prefecture_code": 31,
    "city": "鳥取市",
    "city_kana": "トットリシ",
    "town": "",
    "town_kana": "",
    "street": null,
    "office_name": null,
    "office_name_kana": null
  },
  "0001": {
    "zip_code": "6800001",
    "prefecture": "鳥取県",
    "prefecture_kana": "トットリケン",
    "prefecture_code": 31,
    "city": "鳥取市",
    "city_kana": "トットリシ",
    "town": "浜坂",
    "town_kana": "ハマサカ",
    "street": null,
    "office_name": null,
    "office_name_kana": null
  },
  "0002": {
    "zip_code": "6800002",
    "prefecture": "鳥取県",
    "prefecture_kana": "トットリケン",
    "prefecture_code": 31,
    "city": "鳥取市",
    "city_kana": "トットリシ",
    "town": "浜坂東",
    "town_kana": "ハマサカヒガシ",
    "street": null,
    "office_name": null,
    "office_name_kana": null
  },
  "0003": {
    "zip_code": "6800003",
    "prefecture": "鳥取県",
    "prefecture_kana": "トットリケン",
    "prefecture_code": 31,
    "city": "鳥取市",
    "city_kana": "トットリシ",
    "town": "覚寺",
    "town_kana": "カクジ",
    "street": null,
    "office_name": null,
    "office_name_kana": null
  },
  "0004": {
    "zip_code": "6800004",
    "prefecture": "鳥取県",
    "prefecture_kana": "トットリケン",
    "prefecture_code": 31,
    "city": "鳥取市",
    "city_kana": "トットリシ",
    "town": "北園",
    "town_kana": "キタゾノ",
    "street": null,
    "office_name": null,
    "office_name_kana": null
  },
  "0005": {
    "zip_code": "6800005",
    "prefecture": "鳥取県",
    "prefecture_kana": "トットリケン",
    "prefecture_code": 31,
    "city": "鳥取市",
    "city_kana": "トットリシ",
    "town": "円護寺",
    "town_kana": "エンゴジ",
    "street": null,
    "office_name": null,
    "office_name_kana": null
  },
  "0006": {
    "zip_code": "6800006",
    "prefecture": "鳥取県",
    "prefecture_kana": "トットリケン",
    "prefecture_code": 31,
    "city": "鳥取市",
    "city_kana": "トットリシ",
    "town": "丸山町",
    "town_kana": "マルヤマチョウ",
    "street": null,
    "office_name": null,
    "office_name_kana": null
  },
  "0007": {
    "zip_code": "6800007",
    "prefecture": "鳥取県",
    "prefecture_kana": "トットリケン",
    "prefecture_code": 31,
    "city": "鳥取市",
    "city_kana": "トットリシ",
    "town": "湯所町",
    "town_kana": "ユトコロチョウ",
    "street": null,
    "office_name": null,
    "office_name_kana": null
  },
  "0008": {
    "zip_code": "6800008",
    "prefecture": "鳥取県",
    "prefecture_kana": "トットリケン",
    "prefecture_code": 31,
    "city": "鳥取市",
    "city_kana": "トットリシ",
    "town": "山城町",
    "town_kana": "ヤマシロチョウ",
    "street": null,
    "office_name": null,
    "office_name_kana": null
  },
  "0011": {
    "zip_code": "6800011",
    "prefecture": "鳥取県",
    "prefecture_kana": "トットリケン",
    "prefecture_code": 31,
    "city": "鳥取市",
    "city_kana": "トットリシ",
    "town": "東町",
    "town_kana": "ヒガシマチ",
    "street": null,
    "office_name": null,
    "office_name_kana": null
  },
  "0012": {
    "zip_code": "6800012",
    "prefecture": "鳥取県",
    "prefecture_kana": "トットリケン",
    "prefecture_code": 31,
    "city": "鳥取市",
    "city_kana": "トットリシ",
    "town": "栗谷町",
    "town_kana": "クリタニチョウ",
    "street": null,
    "office_name": null,
    "office_name_kana": null
  },
  "0013": {
    "zip_code": "6800013",
    "prefecture": "鳥取県",
    "prefecture_kana": "トットリケン",
    "prefecture_code": 31,
    "city": "鳥取市",
    "city_kana": "トットリシ",
    "town": "江崎町",
    "town_kana": "エザキチョウ",
    "street": null,
    "office_name": null,
    "office_name_kana": null
  },
  "0014": {
    "zip_code": "6800014",
    "prefecture": "鳥取県",
    "prefecture_kana": "トットリケン",
    "prefecture_code": 31,
    "city": "鳥取市",
    "city_kana": "トットリシ",
    "town": "馬場町",
    "town_kana": "ババノチョウ",
    "street": null,
    "office_name": null,
    "office_name_kana": null
  },
  "0015": {
    "zip_code": "6800015",
    "prefecture": "鳥取県",
    "prefecture_kana": "トットリケン",
    "prefecture_code": 31,
    "city": "鳥取市",
    "city_kana": "トットリシ",
    "town": "上町",
    "town_kana": "ウエマチ",
    "street": null,
    "office_name": null,
    "office_name_kana": null
  },
  "0016": {
    "zip_code": "6800016",
    "prefecture": "鳥取県",
    "prefecture_kana": "トットリケン",
    "prefecture_code": 31,
    "city": "鳥取市",
    "city_kana": "トットリシ",
    "town": "中町",
    "town_kana": "ナカマチ",
    "street": null,
    "office_name": null,
    "office_name_kana": null
  },
  "0017": {
    "zip_code": "6800017",
    "prefecture": "鳥取県",
    "prefecture_kana": "トットリケン",
    "prefecture_code": 31,
    "city": "鳥取市",
    "city_kana": "トットリシ",
    "town": "尚徳町",
    "town_kana": "ショウトクチョウ",
    "street": null,
    "office_name": null,
    "office_name_kana": null
  },
  "0021": {
    "zip_code": "6800021",
    "prefecture": "鳥取県",
    "prefecture_kana": "トットリケン",
    "prefecture_code": 31,
    "city": "鳥取市",
    "city_kana": "トットリシ",
    "town": "材木町",
    "town_kana": "ザイモクチョウ",
    "street": null,
    "office_name": null,
    "office_name_kana": null
  },
  "0022": {
    "zip_code": "6800022",
    "prefecture": "鳥取県",
    "prefecture_kana": "トットリケン",
    "prefecture_code": 31,
    "city": "鳥取市",
    "city_kana": "トットリシ",
    "town": "西町",
    "town_kana": "ニシマチ",
    "street": null,
    "office_name": null,
    "office_name_kana": null
  },
  "0023": {
    "zip_code": "6800023",
    "prefecture": "鳥取県",
    "prefecture_kana": "トットリケン",
    "prefecture_code": 31,
    "city": "鳥取市",
    "city_kana": "トットリシ",
    "town": "片原",
    "town_kana": "カタハラ",
    "street": null,
    "office_name": null,
    "office_name_kana": null
  },
  "0024": {
    "zip_code": "6800024",
    "prefecture": "鳥取県",
    "prefecture_kana": "トットリケン",
    "prefecture_code": 31,
    "city": "鳥取市",
    "city_kana": "トットリシ",
    "town": "玄好町",
    "town_kana": "ゲンコウチョウ",
    "street": null,
    "office_name": null,
    "office_name_kana": null
  },
  "0031": {
    "zip_code": "6800031",
    "prefecture": "鳥取県",
    "prefecture_kana": "トットリケン",
    "prefecture_code": 31,
    "city": "鳥取市",
    "city_kana": "トットリシ",
    "town": "本町",
    "town_kana": "ホンマチ",
    "street": null,
    "office_name": null,
    "office_name_kana": null
  },
  "0032": {
    "zip_code": "6800032",
    "prefecture": "鳥取県",
    "prefecture_kana": "トットリケン",
    "prefecture_code": 31,
    "city": "鳥取市",
    "city_kana": "トットリシ",
    "town": "茶町",
    "town_kana": "チャマチ",
    "street": null,
    "office_name": null,
    "office_name_kana": null
  },
  "0033": {
    "zip_code": "6800033",
    "prefecture": "鳥取県",
    "prefecture_kana": "トットリケン",
    "prefecture_code": 31,
    "city": "鳥取市",
    "city_kana": "トットリシ",
    "town": "二階町",
    "town_kana": "ニカイマチ",
    "street": null,
    "office_name": null,
    "office_name_kana": null
  },
  "0034": {
    "zip_code": "6800034",
    "prefecture": "鳥取県",
    "prefecture_kana": "トットリケン",
    "prefecture_code": 31,
    "city": "鳥取市",
    "city_kana": "トットリシ",
    "town": "元魚町",
    "town_kana": "モトウオマチ",
    "street": null,
    "office_name": null,
    "office_name_kana": null
  },
  "0035": {
    "zip_code": "6800035",
    "prefecture": "鳥取県",
    "prefecture_kana": "トットリケン",
    "prefecture_code": 31,
    "city": "鳥取市",
    "city_kana": "トットリシ",
    "town": "新町",
    "town_kana": "シンマチ",
    "street": null,
    "office_name": null,
    "office_name_kana": null
  },
  "0036": {
    "zip_code": "6800036",
    "prefecture": "鳥取県",
    "prefecture_kana": "トットリケン",
    "prefecture_code": 31,
    "city": "鳥取市",
    "city_kana": "トットリシ",
    "town": "川端",
    "town_kana": "カワバタ",
    "street": null,
    "office_name": null,
    "office_name_kana": null
  },
  "0037": {
    "zip_code": "6800037",
    "prefecture": "鳥取県",
    "prefecture_kana": "トットリケン",
    "prefecture_code": 31,
    "city": "鳥取市",
    "city_kana": "トットリシ",
    "town": "元町",
    "town_kana": "モトマチ",
    "street": null,
    "office_name": null,
    "office_name_kana": null
  },
  "0041": {
    "zip_code": "6800041",
    "prefecture": "鳥取県",
    "prefecture_kana": "トットリケン",
    "prefecture_code": 31,
    "city": "鳥取市",
    "city_kana": "トットリシ",
    "town": "掛出町",
    "town_kana": "カケダシチョウ",
    "street": null,
    "office_name": null,
    "office_name_kana": null
  },
  "0042": {
    "zip_code": "6800042",
    "prefecture": "鳥取県",
    "prefecture_kana": "トットリケン",
    "prefecture_code": 31,
    "city": "鳥取市",
    "city_kana": "トットリシ",
    "town": "庖丁人町",
    "town_kana": "ホウチョウニンマチ",
    "street": null,
    "office_name": null,
    "office_name_kana": null
  },
  "0043": {
    "zip_code": "6800043",
    "prefecture": "鳥取県",
    "prefecture_kana": "トットリケン",
    "prefecture_code": 31,
    "city": "鳥取市",
    "city_kana": "トットリシ",
    "town": "大榎町",
    "town_kana": "オオエノキチョウ",
    "street": null,
    "office_name": null,
    "office_name_kana": null
  },
  "0044": {
    "zip_code": "6800044",
    "prefecture": "鳥取県",
    "prefecture_kana": "トットリケン",
    "prefecture_code": 31,
    "city": "鳥取市",
    "city_kana": "トットリシ",
    "town": "御弓町",
    "town_kana": "オユミノチョウ",
    "street": null,
    "office_name": null,
    "office_name_kana": null
  },
  "0045": {
    "zip_code": "6800045",
    "prefecture": "鳥取県",
    "prefecture_kana": "トットリケン",
    "prefecture_code": 31,
    "city": "鳥取市",
    "city_kana": "トットリシ",
    "town": "大工町頭",
    "town_kana": "ダイクマチガシラ",
    "street": null,
    "office_name": null,
    "office_name_kana": null
  },
  "0046": {
    "zip_code": "6800046",
    "prefecture": "鳥取県",
    "prefecture_kana": "トットリケン",
    "prefecture_code": 31,
    "city": "鳥取市",
    "city_kana": "トットリシ",
    "town": "元大工町",
    "town_kana": "モトダイクマチ",
    "street": null,
    "office_name": null,
    "office_name_kana": null
  },
  "0047": {
    "zip_code": "6800047",
    "prefecture": "鳥取県",
    "prefecture_kana": "トットリケン",
    "prefecture_code": 31,
    "city": "鳥取市",
    "city_kana": "トットリシ",
    "town": "上魚町",
    "town_kana": "カミウオマチ",
    "street": null,
    "office_name": null,
    "office_name_kana": null
  },
  "0051": {
    "zip_code": "6800051",
    "prefecture": "鳥取県",
    "prefecture_kana": "トットリケン",
    "prefecture_code": 31,
    "city": "鳥取市",
    "city_kana": "トットリシ",
    "town": "若桜町",
    "town_kana": "ワカサマチ",
    "street": null,
    "office_name": null,
    "office_name_kana": null
  },
  "0052": {
    "zip_code": "6800052",
    "prefecture": "鳥取県",
    "prefecture_kana": "トットリケン",
    "prefecture_code": 31,
    "city": "鳥取市",
    "city_kana": "トットリシ",
    "town": "鍛冶町",
    "town_kana": "カジマチ",
    "street": null,
    "office_name": null,
    "office_name_kana": null
  },
  "0053": {
    "zip_code": "6800053",
    "prefecture": "鳥取県",
    "prefecture_kana": "トットリケン",
    "prefecture_code": 31,
    "city": "鳥取市",
    "city_kana": "トットリシ",
    "town": "寺町",
    "town_kana": "テラマチ",
    "street": null,
    "office_name": null,
    "office_name_kana": null
  },
  "0054": {
    "zip_code": "6800054",
    "prefecture": "鳥取県",
    "prefecture_kana": "トットリケン",
    "prefecture_code": 31,
    "city": "鳥取市",
    "city_kana": "トットリシ",
    "town": "桶屋町",
    "town_kana": "オケヤマチ",
    "street": null,
    "office_name": null,
    "office_name_kana": null
  },
  "0055": {
    "zip_code": "6800055",
    "prefecture": "鳥取県",
    "prefecture_kana": "トットリケン",
    "prefecture_code": 31,
    "city": "鳥取市",
    "city_kana": "トットリシ",
    "town": "戎町",
    "town_kana": "エビスマチ",
    "street": null,
    "office_name": null,
    "office_name_kana": null
  },
  "0056": {
    "zip_code": "6800056",
    "prefecture": "鳥取県",
    "prefecture_kana": "トットリケン",
    "prefecture_code": 31,
    "city": "鳥取市",
    "city_kana": "トットリシ",
    "town": "職人町",
    "town_kana": "ショクニンマチ",
    "street": null,
    "office_name": null,
    "office_name_kana": null
  },
  "0061": {
    "zip_code": "6800061",
    "prefecture": "鳥取県",
    "prefecture_kana": "トットリケン",
    "prefecture_code": 31,
    "city": "鳥取市",
    "city_kana": "トットリシ",
    "town": "立川町",
    "town_kana": "タチカワチョウ",
    "street": null,
    "office_name": null,
    "office_name_kana": null
  },
  "0062": {
    "zip_code": "6800062",
    "prefecture": "鳥取県",
    "prefecture_kana": "トットリケン",
    "prefecture_code": 31,
    "city": "鳥取市",
    "city_kana": "トットリシ",
    "town": "吉方町",
    "town_kana": "ヨシカタチョウ",
    "street": null,
    "office_name": null,
    "office_name_kana": null
  },
  "0071": {
    "zip_code": "6800071",
    "prefecture": "鳥取県",
    "prefecture_kana": "トットリケン",
    "prefecture_code": 31,
    "city": "鳥取市",
    "city_kana": "トットリシ",
    "town": "百谷",
    "town_kana": "モモダニ",
    "street": null,
    "office_name": null,
    "office_name_kana": null
  },
  "0072": {
    "zip_code": "6800072",
    "prefecture": "鳥取県",
    "prefecture_kana": "トットリケン",
    "prefecture_code": 31,
    "city": "鳥取市",
    "city_kana": "トットリシ",
    "town": "滝山",
    "town_kana": "タキヤマ",
    "street": null,
    "office_name": null,
    "office_name_kana": null
  },
  "0073": {
    "zip_code": "6800073",
    "prefecture": "鳥取県",
    "prefecture_kana": "トットリケン",
    "prefecture_code": 31,
    "city": "鳥取市",
    "city_kana": "トットリシ",
    "town": "小西谷",
    "town_kana": "コザイ",
    "street": null,
    "office_name": null,
    "office_name_kana": null
  },
  "0074": {
    "zip_code": "6800074",
    "prefecture": "鳥取県",
    "prefecture_kana": "トットリケン",
    "prefecture_code": 31,
    "city": "鳥取市",
    "city_kana": "トットリシ",
    "town": "卯垣",
    "town_kana": "ボウガキ",
    "street": null,
    "office_name": null,
    "office_name_kana": null
  },
  "0081": {
    "zip_code": "6800081",
    "prefecture": "鳥取県",
    "prefecture_kana": "トットリケン",
    "prefecture_code": 31,
    "city": "鳥取市",
    "city_kana": "トットリシ",
    "town": "岩倉",
    "town_kana": "イワクラ",
    "street": null,
    "office_name": null,
    "office_name_kana": null
  },
  "0131": {
    "zip_code": "6800131",
    "prefecture": "鳥取県",
    "prefecture_kana": "トットリケン",
    "prefecture_code": 31,
    "city": "鳥取市",
    "city_kana": "トットリシ",
    "town": "国府町高岡",
    "town_kana": "コクフチョウタカオカ",
    "street": null,
    "office_name": null,
    "office_name_kana": null
  },
  "0132": {
    "zip_code": "6800132",
    "prefecture": "鳥取県",
    "prefecture_kana": "トットリケン",
    "prefecture_code": 31,
    "city": "鳥取市",
    "city_kana": "トットリシ",
    "town": "国府町神垣",
    "town_kana": "コクフチョウコウガケ",
    "street": null,
    "office_name": null,
    "office_name_kana": null
  },
  "0133": {
    "zip_code": "6800133",
    "prefecture": "鳥取県",
    "prefecture_kana": "トットリケン",
    "prefecture_code": 31,
    "city": "鳥取市",
    "city_kana": "トットリシ",
    "town": "国府町山根",
    "town_kana": "コクフチョウヤマネ",
    "street": null,
    "office_name": null,
    "office_name_kana": null
  },
  "0134": {
    "zip_code": "6800134",
    "prefecture": "鳥取県",
    "prefecture_kana": "トットリケン",
    "prefecture_code": 31,
    "city": "鳥取市",
    "city_kana": "トットリシ",
    "town": "国府町清水",
    "town_kana": "コクフチョウスンズ",
    "street": null,
    "office_name": null,
    "office_name_kana": null
  },
  "0135": {
    "zip_code": "6800135",
    "prefecture": "鳥取県",
    "prefecture_kana": "トットリケン",
    "prefecture_code": 31,
    "city": "鳥取市",
    "city_kana": "トットリシ",
    "town": "国府町谷",
    "town_kana": "コクフチョウタニ",
    "street": null,
    "office_name": null,
    "office_name_kana": null
  },
  "0136": {
    "zip_code": "6800136",
    "prefecture": "鳥取県",
    "prefecture_kana": "トットリケン",
    "prefecture_code": 31,
    "city": "鳥取市",
    "city_kana": "トットリシ",
    "town": "国府町糸谷",
    "town_kana": "コクフチョウイトタニ",
    "street": null,
    "office_name": null,
    "office_name_kana": null
  },
  "0141": {
    "zip_code": "6800141",
    "prefecture": "鳥取県",
    "prefecture_kana": "トットリケン",
    "prefecture_code": 31,
    "city": "鳥取市",
    "city_kana": "トットリシ",
    "town": "国府町美歎",
    "town_kana": "コクフチョウミタニ",
    "street": null,
    "office_name": null,
    "office_name_kana": null
  },
  "0142": {
    "zip_code": "6800142",
    "prefecture": "鳥取県",
    "prefecture_kana": "トットリケン",
    "prefecture_code": 31,
    "city": "鳥取市",
    "city_kana": "トットリシ",
    "town": "国府町麻生",
    "town_kana": "コクフチョウアソウ",
    "street": null,
    "office_name": null,
    "office_name_kana": null
  },
  "0143": {
    "zip_code": "6800143",
    "prefecture": "鳥取県",
    "prefecture_kana": "トットリケン",
    "prefecture_code": 31,
    "city": "鳥取市",
    "city_kana": "トットリシ",
    "town": "国府町玉鉾",
    "town_kana": "コクフチョウタマボコ",
    "street": null,
    "office_name": null,
    "office_name_kana": null
  },
  "0144": {
    "zip_code": "6800144",
    "prefecture": "鳥取県",
    "prefecture_kana": "トットリケン",
    "prefecture_code": 31,
    "city": "鳥取市",
    "city_kana": "トットリシ",
    "town": "国府町岡益",
    "town_kana": "コクフチョウオカマス",
    "street": null,
    "office_name": null,
    "office_name_kana": null
  },
  "0145": {
    "zip_code": "6800145",
    "prefecture": "鳥取県",
    "prefecture_kana": "トットリケン",
    "prefecture_code": 31,
    "city": "鳥取市",
    "city_kana": "トットリシ",
    "town": "国府町広西",
    "town_kana": "コクフチョウヒロセ",
    "street": null,
    "office_name": null,
    "office_name_kana": null
  },
  "0146": {
    "zip_code": "6800146",
    "prefecture": "鳥取県",
    "prefecture_kana": "トットリケン",
    "prefecture_code": 31,
    "city": "鳥取市",
    "city_kana": "トットリシ",
    "town": "国府町町屋",
    "town_kana": "コクフチョウマチヤ",
    "street": null,
    "office_name": null,
    "office_name_kana": null
  },
  "0151": {
    "zip_code": "6800151",
    "prefecture": "鳥取県",
    "prefecture_kana": "トットリケン",
    "prefecture_code": 31,
    "city": "鳥取市",
    "city_kana": "トットリシ",
    "town": "国府町宮下",
    "town_kana": "コクフチョウミヤノシタ",
    "street": null,
    "office_name": null,
    "office_name_kana": null
  },
  "0152": {
    "zip_code": "6800152",
    "prefecture": "鳥取県",
    "prefecture_kana": "トットリケン",
    "prefecture_code": 31,
    "city": "鳥取市",
    "city_kana": "トットリシ",
    "town": "国府町庁",
    "town_kana": "コクフチョウチョウ",
    "street": null,
    "office_name": null,
    "office_name_kana": null
  },
  "0153": {
    "zip_code": "6800153",
    "prefecture": "鳥取県",
    "prefecture_kana": "トットリケン",
    "prefecture_code": 31,
    "city": "鳥取市",
    "city_kana": "トットリシ",
    "town": "国府町法花寺",
    "town_kana": "コクフチョウホッケジ",
    "street": null,
    "office_name": null,
    "office_name_kana": null
  },
  "0154": {
    "zip_code": "6800154",
    "prefecture": "鳥取県",
    "prefecture_kana": "トットリケン",
    "prefecture_code": 31,
    "city": "鳥取市",
    "city_kana": "トットリシ",
    "town": "国府町三代寺",
    "town_kana": "コクフチョウサンダイジ",
    "street": null,
    "office_name": null,
    "office_name_kana": null
  },
  "0155": {
    "zip_code": "6800155",
    "prefecture": "鳥取県",
    "prefecture_kana": "トットリケン",
    "prefecture_code": 31,
    "city": "鳥取市",
    "city_kana": "トットリシ",
    "town": "国府町国分寺",
    "town_kana": "コクフチョウコクブンジ",
    "street": null,
    "office_name": null,
    "office_name_kana": null
  },
  "0156": {
    "zip_code": "6800156",
    "prefecture": "鳥取県",
    "prefecture_kana": "トットリケン",
    "prefecture_code": 31,
    "city": "鳥取市",
    "city_kana": "トットリシ",
    "town": "国府町中郷",
    "town_kana": "コクフチョウチュウゴウ",
    "street": null,
    "office_name": null,
    "office_name_kana": null
  },
  "0197": {
    "zip_code": "6800197",
    "prefecture": "鳥取県",
    "prefecture_kana": "トットリケン",
    "prefecture_code": 31,
    "city": "鳥取市",
    "city_kana": "トットリシ",
    "town": "国府町宮下",
    "town_kana": "コクフチョウミヤノシタ",
    "street": "１２２１",
    "office_name": "国府町　総合支所",
    "office_name_kana": "コクフチヨウ ソウゴウシシヨ"
  },
  "0201": {
    "zip_code": "6800201",
    "prefecture": "鳥取県",
    "prefecture_kana": "トットリケン",
    "prefecture_code": 31,
    "city": "鳥取市",
    "city_kana": "トットリシ",
    "town": "国府町雨滝",
    "town_kana": "コクフチョウアメダキ",
    "street": null,
    "office_name": null,
    "office_name_kana": null
  },
  "0202": {
    "zip_code": "6800202",
    "prefecture": "鳥取県",
    "prefecture_kana": "トットリケン",
    "prefecture_code": 31,
    "city": "鳥取市",
    "city_kana": "トットリシ",
    "town": "国府町石井谷",
    "town_kana": "コクフチョウイワイダニ",
    "street": null,
    "office_name": null,
    "office_name_kana": null
  },
  "0203": {
    "zip_code": "6800203",
    "prefecture": "鳥取県",
    "prefecture_kana": "トットリケン",
    "prefecture_code": 31,
    "city": "鳥取市",
    "city_kana": "トットリシ",
    "town": "国府町大石",
    "town_kana": "コクフチョウオオイシ",
    "street": null,
    "office_name": null,
    "office_name_kana": null
  },
  "0204": {
    "zip_code": "6800204",
    "prefecture": "鳥取県",
    "prefecture_kana": "トットリケン",
    "prefecture_code": 31,
    "city": "鳥取市",
    "city_kana": "トットリシ",
    "town": "国府町楠城",
    "town_kana": "コクフチョウナワシロ",
    "street": null,
    "office_name": null,
    "office_name_kana": null
  },
  "0205": {
    "zip_code": "6800205",
    "prefecture": "鳥取県",
    "prefecture_kana": "トットリケン",
    "prefecture_code": 31,
    "city": "鳥取市",
    "city_kana": "トットリシ",
    "town": "国府町拾石",
    "town_kana": "コクフチョウジッコク",
    "street": null,
    "office_name": null,
    "office_name_kana": null
  },
  "0206": {
    "zip_code": "6800206",
    "prefecture": "鳥取県",
    "prefecture_kana": "トットリケン",
    "prefecture_code": 31,
    "city": "鳥取市",
    "city_kana": "トットリシ",
    "town": "国府町栃本",
    "town_kana": "コクフチョウトチモト",
    "street": null,
    "office_name": null,
    "office_name_kana": null
  },
  "0207": {
    "zip_code": "6800207",
    "prefecture": "鳥取県",
    "prefecture_kana": "トットリケン",
    "prefecture_code": 31,
    "city": "鳥取市",
    "city_kana": "トットリシ",
    "town": "国府町下木原",
    "town_kana": "コクフチョウシモキハラ",
    "street": null,
    "office_name": null,
    "office_name_kana": null
  },
  "0208": {
    "zip_code": "6800208",
    "prefecture": "鳥取県",
    "prefecture_kana": "トットリケン",
    "prefecture_code": 31,
    "city": "鳥取市",
    "city_kana": "トットリシ",
    "town": "国府町木原",
    "town_kana": "コクフチョウキハラ",
    "street": null,
    "office_name": null,
    "office_name_kana": null
  },
  "0211": {
    "zip_code": "6800211",
    "prefecture": "鳥取県",
    "prefecture_kana": "トットリケン",
    "prefecture_code": 31,
    "city": "鳥取市",
    "city_kana": "トットリシ",
    "town": "国府町菅野",
    "town_kana": "コクフチョウスガノ",
    "street": null,
    "office_name": null,
    "office_name_kana": null
  },
  "0212": {
    "zip_code": "6800212",
    "prefecture": "鳥取県",
    "prefecture_kana": "トットリケン",
    "prefecture_code": 31,
    "city": "鳥取市",
    "city_kana": "トットリシ",
    "town": "国府町上地",
    "town_kana": "コクフチョウワジ",
    "street": null,
    "office_name": null,
    "office_name_kana": null
  },
  "0213": {
    "zip_code": "6800213",
    "prefecture": "鳥取県",
    "prefecture_kana": "トットリケン",
    "prefecture_code": 31,
    "city": "鳥取市",
    "city_kana": "トットリシ",
    "town": "国府町上上地",
    "town_kana": "コクフチョウカミワジ",
    "street": null,
    "office_name": null,
    "office_name_kana": null
  },
  "0214": {
    "zip_code": "6800214",
    "prefecture": "鳥取県",
    "prefecture_kana": "トットリケン",
    "prefecture_code": 31,
    "city": "鳥取市",
    "city_kana": "トットリシ",
    "town": "国府町上荒舟",
    "town_kana": "コクフチョウカミアラフネ",
    "street": null,
    "office_name": null,
    "office_name_kana": null
  },
  "0215": {
    "zip_code": "6800215",
    "prefecture": "鳥取県",
    "prefecture_kana": "トットリケン",
    "prefecture_code": 31,
    "city": "鳥取市",
    "city_kana": "トットリシ",
    "town": "国府町山崎",
    "town_kana": "コクフチョウヤマサキ",
    "street": null,
    "office_name": null,
    "office_name_kana": null
  },
  "0216": {
    "zip_code": "6800216",
    "prefecture": "鳥取県",
    "prefecture_kana": "トットリケン",
    "prefecture_code": 31,
    "city": "鳥取市",
    "city_kana": "トットリシ",
    "town": "国府町荒舟",
    "town_kana": "コクフチョウアラフネ",
    "street": null,
    "office_name": null,
    "office_name_kana": null
  },
  "0221": {
    "zip_code": "6800221",
    "prefecture": "鳥取県",
    "prefecture_kana": "トットリケン",
    "prefecture_code": 31,
    "city": "鳥取市",
    "city_kana": "トットリシ",
    "town": "国府町神護",
    "town_kana": "コクフチョウカンゴ",
    "street": null,
    "office_name": null,
    "office_name_kana": null
  },
  "0222": {
    "zip_code": "6800222",
    "prefecture": "鳥取県",
    "prefecture_kana": "トットリケン",
    "prefecture_code": 31,
    "city": "鳥取市",
    "city_kana": "トットリシ",
    "town": "国府町殿",
    "town_kana": "コクフチョウトノ",
    "street": null,
    "office_name": null,
    "office_name_kana": null
  },
  "0223": {
    "zip_code": "6800223",
    "prefecture": "鳥取県",
    "prefecture_kana": "トットリケン",
    "prefecture_code": 31,
    "city": "鳥取市",
    "city_kana": "トットリシ",
    "town": "国府町中河原",
    "town_kana": "コクフチョウナカガワラ",
    "street": null,
    "office_name": null,
    "office_name_kana": null
  },
  "0224": {
    "zip_code": "6800224",
    "prefecture": "鳥取県",
    "prefecture_kana": "トットリケン",
    "prefecture_code": 31,
    "city": "鳥取市",
    "city_kana": "トットリシ",
    "town": "国府町松尾",
    "town_kana": "コクフチョウマツオ",
    "street": null,
    "office_name": null,
    "office_name_kana": null
  },
  "0225": {
    "zip_code": "6800225",
    "prefecture": "鳥取県",
    "prefecture_kana": "トットリケン",
    "prefecture_code": 31,
    "city": "鳥取市",
    "city_kana": "トットリシ",
    "town": "国府町吉野",
    "town_kana": "コクフチョウヨシノ",
    "street": null,
    "office_name": null,
    "office_name_kana": null
  },
  "0226": {
    "zip_code": "6800226",
    "prefecture": "鳥取県",
    "prefecture_kana": "トットリケン",
    "prefecture_code": 31,
    "city": "鳥取市",
    "city_kana": "トットリシ",
    "town": "国府町新井",
    "town_kana": "コクフチョウニイ",
    "street": null,
    "office_name": null,
    "office_name_kana": null
  },
  "0301": {
    "zip_code": "6800301",
    "prefecture": "鳥取県",
    "prefecture_kana": "トットリケン",
    "prefecture_code": 31,
    "city": "八頭郡八頭町",
    "city_kana": "ヤズグンヤズチョウ",
    "town": "姫路",
    "town_kana": "ヒメジ",
    "street": null,
    "office_name": null,
    "office_name_kana": null
  },
  "0302": {
    "zip_code": "6800302",
    "prefecture": "鳥取県",
    "prefecture_kana": "トットリケン",
    "prefecture_code": 31,
    "city": "八頭郡八頭町",
    "city_kana": "ヤズグンヤズチョウ",
    "town": "明辺",
    "town_kana": "アケナベ",
    "street": null,
    "office_name": null,
    "office_name_kana": null
  },
  "0303": {
    "zip_code": "6800303",
    "prefecture": "鳥取県",
    "prefecture_kana": "トットリケン",
    "prefecture_code": 31,
    "city": "八頭郡八頭町",
    "city_kana": "ヤズグンヤズチョウ",
    "town": "落岩",
    "town_kana": "オチイワ",
    "street": null,
    "office_name": null,
    "office_name_kana": null
  },
  "0304": {
    "zip_code": "6800304",
    "prefecture": "鳥取県",
    "prefecture_kana": "トットリケン",
    "prefecture_code": 31,
    "city": "八頭郡八頭町",
    "city_kana": "ヤズグンヤズチョウ",
    "town": "山志谷",
    "town_kana": "ヤマシダニ",
    "street": null,
    "office_name": null,
    "office_name_kana": null
  },
  "0305": {
    "zip_code": "6800305",
    "prefecture": "鳥取県",
    "prefecture_kana": "トットリケン",
    "prefecture_code": 31,
    "city": "八頭郡八頭町",
    "city_kana": "ヤズグンヤズチョウ",
    "town": "麻生",
    "town_kana": "アソウ",
    "street": null,
    "office_name": null,
    "office_name_kana": null
  },
  "0306": {
    "zip_code": "6800306",
    "prefecture": "鳥取県",
    "prefecture_kana": "トットリケン",
    "prefecture_code": 31,
    "city": "八頭郡八頭町",
    "city_kana": "ヤズグンヤズチョウ",
    "town": "野町",
    "town_kana": "ノマチ",
    "street": null,
    "office_name": null,
    "office_name_kana": null
  },
  "0307": {
    "zip_code": "6800307",
    "prefecture": "鳥取県",
    "prefecture_kana": "トットリケン",
    "prefecture_code": 31,
    "city": "八頭郡八頭町",
    "city_kana": "ヤズグンヤズチョウ",
    "town": "福地",
    "town_kana": "フクチ",
    "street": null,
    "office_name": null,
    "office_name_kana": null
  },
  "0311": {
    "zip_code": "6800311",
    "prefecture": "鳥取県",
    "prefecture_kana": "トットリケン",
    "prefecture_code": 31,
    "city": "八頭郡八頭町",
    "city_kana": "ヤズグンヤズチョウ",
    "town": "市場",
    "town_kana": "イチバ",
    "street": null,
    "office_name": null,
    "office_name_kana": null
  },
  "0312": {
    "zip_code": "6800312",
    "prefecture": "鳥取県",
    "prefecture_kana": "トットリケン",
    "prefecture_code": 31,
    "city": "八頭郡八頭町",
    "city_kana": "ヤズグンヤズチョウ",
    "town": "覚王寺",
    "town_kana": "カクオウジ",
    "street": null,
    "office_name": null,
    "office_name_kana": null
  },
  "0313": {
    "zip_code": "6800313",
    "prefecture": "鳥取県",
    "prefecture_kana": "トットリケン",
    "prefecture_code": 31,
    "city": "八頭郡八頭町",
    "city_kana": "ヤズグンヤズチョウ",
    "town": "上津黒",
    "town_kana": "カミツグロ",
    "street": null,
    "office_name": null,
    "office_name_kana": null
  },
  "0314": {
    "zip_code": "6800314",
    "prefecture": "鳥取県",
    "prefecture_kana": "トットリケン",
    "prefecture_code": 31,
    "city": "八頭郡八頭町",
    "city_kana": "ヤズグンヤズチョウ",
    "town": "下津黒",
    "town_kana": "シモツグロ",
    "street": null,
    "office_name": null,
    "office_name_kana": null
  },
  "0315": {
    "zip_code": "6800315",
    "prefecture": "鳥取県",
    "prefecture_kana": "トットリケン",
    "prefecture_code": 31,
    "city": "八頭郡八頭町",
    "city_kana": "ヤズグンヤズチョウ",
    "town": "別府",
    "town_kana": "ベフ",
    "street": null,
    "office_name": null,
    "office_name_kana": null
  },
  "0316": {
    "zip_code": "6800316",
    "prefecture": "鳥取県",
    "prefecture_kana": "トットリケン",
    "prefecture_code": 31,
    "city": "八頭郡八頭町",
    "city_kana": "ヤズグンヤズチョウ",
    "town": "篠波",
    "town_kana": "ササナミ",
    "street": null,
    "office_name": null,
    "office_name_kana": null
  },
  "0400": {
    "zip_code": "6800400",
    "prefecture": "鳥取県",
    "prefecture_kana": "トットリケン",
    "prefecture_code": 31,
    "city": "八頭郡八頭町",
    "city_kana": "ヤズグンヤズチョウ",
    "town": "",
    "town_kana": "",
    "street": null,
    "office_name": null,
    "office_name_kana": null
  },
  "0401": {
    "zip_code": "6800401",
    "prefecture": "鳥取県",
    "prefecture_kana": "トットリケン",
    "prefecture_code": 31,
    "city": "八頭郡八頭町",
    "city_kana": "ヤズグンヤズチョウ",
    "town": "上野",
    "town_kana": "カミノ",
    "street": null,
    "office_name": null,
    "office_name_kana": null
  },
  "0402": {
    "zip_code": "6800402",
    "prefecture": "鳥取県",
    "prefecture_kana": "トットリケン",
    "prefecture_code": 31,
    "city": "八頭郡八頭町",
    "city_kana": "ヤズグンヤズチョウ",
    "town": "隼福",
    "town_kana": "ハヤフク",
    "street": null,
    "office_name": null,
    "office_name_kana": null
  },
  "0403": {
    "zip_code": "6800403",
    "prefecture": "鳥取県",
    "prefecture_kana": "トットリケン",
    "prefecture_code": 31,
    "city": "八頭郡八頭町",
    "city_kana": "ヤズグンヤズチョウ",
    "town": "福井",
    "town_kana": "フクイ",
    "street": null,
    "office_name": null,
    "office_name_kana": null
  },
  "0404": {
    "zip_code": "6800404",
    "prefecture": "鳥取県",
    "prefecture_kana": "トットリケン",
    "prefecture_code": 31,
    "city": "八頭郡八頭町",
    "city_kana": "ヤズグンヤズチョウ",
    "town": "見槻中",
    "town_kana": "ミヅキナカ",
    "street": null,
    "office_name": null,
    "office_name_kana": null
  },
  "0405": {
    "zip_code": "6800405",
    "prefecture": "鳥取県",
    "prefecture_kana": "トットリケン",
    "prefecture_code": 31,
    "city": "八頭郡八頭町",
    "city_kana": "ヤズグンヤズチョウ",
    "town": "隼郡家",
    "town_kana": "ハヤブサコオゲ",
    "street": null,
    "office_name": null,
    "office_name_kana": null
  },
  "0406": {
    "zip_code": "6800406",
    "prefecture": "鳥取県",
    "prefecture_kana": "トットリケン",
    "prefecture_code": 31,
    "city": "八頭郡八頭町",
    "city_kana": "ヤズグンヤズチョウ",
    "town": "見槻",
    "town_kana": "ミヅキ",
    "street": null,
    "office_name": null,
    "office_name_kana": null
  },
  "0407": {
    "zip_code": "6800407",
    "prefecture": "鳥取県",
    "prefecture_kana": "トットリケン",
    "prefecture_code": 31,
    "city": "八頭郡八頭町",
    "city_kana": "ヤズグンヤズチョウ",
    "town": "志子部",
    "town_kana": "シコベ",
    "street": null,
    "office_name": null,
    "office_name_kana": null
  },
  "0408": {
    "zip_code": "6800408",
    "prefecture": "鳥取県",
    "prefecture_kana": "トットリケン",
    "prefecture_code": 31,
    "city": "八頭郡八頭町",
    "city_kana": "ヤズグンヤズチョウ",
    "town": "西谷",
    "town_kana": "ニシダニ",
    "street": null,
    "office_name": null,
    "office_name_kana": null
  },
  "0411": {
    "zip_code": "6800411",
    "prefecture": "鳥取県",
    "prefecture_kana": "トットリケン",
    "prefecture_code": 31,
    "city": "八頭郡八頭町",
    "city_kana": "ヤズグンヤズチョウ",
    "town": "船岡殿",
    "town_kana": "フナオカトノ",
    "street": null,
    "office_name": null,
    "office_name_kana": null
  },
  "0412": {
    "zip_code": "6800412",
    "prefecture": "鳥取県",
    "prefecture_kana": "トットリケン",
    "prefecture_code": 31,
    "city": "八頭郡八頭町",
    "city_kana": "ヤズグンヤズチョウ",
    "town": "水口",
    "town_kana": "ミナクチ",
    "street": null,
    "office_name": null,
    "office_name_kana": null
  },
  "0413": {
    "zip_code": "6800413",
    "prefecture": "鳥取県",
    "prefecture_kana": "トットリケン",
    "prefecture_code": 31,
    "city": "八頭郡八頭町",
    "city_kana": "ヤズグンヤズチョウ",
    "town": "塩上",
    "town_kana": "シオノウエ",
    "street": null,
    "office_name": null,
    "office_name_kana": null
  },
  "0414": {
    "zip_code": "6800414",
    "prefecture": "鳥取県",
    "prefecture_kana": "トットリケン",
    "prefecture_code": 31,
    "city": "八頭郡八頭町",
    "city_kana": "ヤズグンヤズチョウ",
    "town": "橋本",
    "town_kana": "ハシモト",
    "street": null,
    "office_name": null,
    "office_name_kana": null
  },
  "0415": {
    "zip_code": "6800415",
    "prefecture": "鳥取県",
    "prefecture_kana": "トットリケン",
    "prefecture_code": 31,
    "city": "八頭郡八頭町",
    "city_kana": "ヤズグンヤズチョウ",
    "town": "下野",
    "town_kana": "シモツケ",
    "street": null,
    "office_name": null,
    "office_name_kana": null
  },
  "0416": {
    "zip_code": "6800416",
    "prefecture": "鳥取県",
    "prefecture_kana": "トットリケン",
    "prefecture_code": 31,
    "city": "八頭郡八頭町",
    "city_kana": "ヤズグンヤズチョウ",
    "town": "大江",
    "town_kana": "オオエ",
    "street": null,
    "office_name": null,
    "office_name_kana": null
  },
  "0421": {
    "zip_code": "6800421",
    "prefecture": "鳥取県",
    "prefecture_kana": "トットリケン",
    "prefecture_code": 31,
    "city": "八頭郡八頭町",
    "city_kana": "ヤズグンヤズチョウ",
    "town": "下門尾",
    "town_kana": "シモカドオ",
    "street": null,
    "office_name": null,
    "office_name_kana": null
  },
  "0422": {
    "zip_code": "6800422",
    "prefecture": "鳥取県",
    "prefecture_kana": "トットリケン",
    "prefecture_code": 31,
    "city": "八頭郡八頭町",
    "city_kana": "ヤズグンヤズチョウ",
    "town": "門尾",
    "town_kana": "カドオ",
    "street": null,
    "office_name": null,
    "office_name_kana": null
  },
  "0423": {
    "zip_code": "6800423",
    "prefecture": "鳥取県",
    "prefecture_kana": "トットリケン",
    "prefecture_code": 31,
    "city": "八頭郡八頭町",
    "city_kana": "ヤズグンヤズチョウ",
    "town": "堀越",
    "town_kana": "ホリゴシ",
    "street": null,
    "office_name": null,
    "office_name_kana": null
  },
  "0424": {
    "zip_code": "6800424",
    "prefecture": "鳥取県",
    "prefecture_kana": "トットリケン",
    "prefecture_code": 31,
    "city": "八頭郡八頭町",
    "city_kana": "ヤズグンヤズチョウ",
    "town": "稲荷",
    "town_kana": "イナリ",
    "street": null,
    "office_name": null,
    "office_name_kana": null
  },
  "0425": {
    "zip_code": "6800425",
    "prefecture": "鳥取県",
    "prefecture_kana": "トットリケン",
    "prefecture_code": 31,
    "city": "八頭郡八頭町",
    "city_kana": "ヤズグンヤズチョウ",
    "town": "井古",
    "town_kana": "イゴ",
    "street": null,
    "office_name": null,
    "office_name_kana": null
  },
  "0426": {
    "zip_code": "6800426",
    "prefecture": "鳥取県",
    "prefecture_kana": "トットリケン",
    "prefecture_code": 31,
    "city": "八頭郡八頭町",
    "city_kana": "ヤズグンヤズチョウ",
    "town": "下坂",
    "town_kana": "オリサカ",
    "street": null,
    "office_name": null,
    "office_name_kana": null
  },
  "0427": {
    "zip_code": "6800427",
    "prefecture": "鳥取県",
    "prefecture_kana": "トットリケン",
    "prefecture_code": 31,
    "city": "八頭郡八頭町",
    "city_kana": "ヤズグンヤズチョウ",
    "town": "奥谷",
    "town_kana": "オクダニ",
    "street": null,
    "office_name": null,
    "office_name_kana": null
  },
  "0431": {
    "zip_code": "6800431",
    "prefecture": "鳥取県",
    "prefecture_kana": "トットリケン",
    "prefecture_code": 31,
    "city": "八頭郡八頭町",
    "city_kana": "ヤズグンヤズチョウ",
    "town": "下峰寺",
    "town_kana": "シモミネデラ",
    "street": null,
    "office_name": null,
    "office_name_kana": null
  },
  "0432": {
    "zip_code": "6800432",
    "prefecture": "鳥取県",
    "prefecture_kana": "トットリケン",
    "prefecture_code": 31,
    "city": "八頭郡八頭町",
    "city_kana": "ヤズグンヤズチョウ",
    "town": "上峰寺",
    "town_kana": "カミミネデラ",
    "street": null,
    "office_name": null,
    "office_name_kana": null
  },
  "0433": {
    "zip_code": "6800433",
    "prefecture": "鳥取県",
    "prefecture_kana": "トットリケン",
    "prefecture_code": 31,
    "city": "八頭郡八頭町",
    "city_kana": "ヤズグンヤズチョウ",
    "town": "山上",
    "town_kana": "ヤマノウエ",
    "street": null,
    "office_name": null,
    "office_name_kana": null
  },
  "0434": {
    "zip_code": "6800434",
    "prefecture": "鳥取県",
    "prefecture_kana": "トットリケン",
    "prefecture_code": 31,
    "city": "八頭郡八頭町",
    "city_kana": "ヤズグンヤズチョウ",
    "town": "延命寺",
    "town_kana": "エンメイジ",
    "street": null,
    "office_name": null,
    "office_name_kana": null
  },
  "0435": {
    "zip_code": "6800435",
    "prefecture": "鳥取県",
    "prefecture_kana": "トットリケン",
    "prefecture_code": 31,
    "city": "八頭郡八頭町",
    "city_kana": "ヤズグンヤズチョウ",
    "town": "大坪",
    "town_kana": "オオツボ",
    "street": null,
    "office_name": null,
    "office_name_kana": null
  },
  "0436": {
    "zip_code": "6800436",
    "prefecture": "鳥取県",
    "prefecture_kana": "トットリケン",
    "prefecture_code": 31,
    "city": "八頭郡八頭町",
    "city_kana": "ヤズグンヤズチョウ",
    "town": "山路",
    "town_kana": "ヤマジ",
    "street": null,
    "office_name": null,
    "office_name_kana": null
  },
  "0437": {
    "zip_code": "6800437",
    "prefecture": "鳥取県",
    "prefecture_kana": "トットリケン",
    "prefecture_code": 31,
    "city": "八頭郡八頭町",
    "city_kana": "ヤズグンヤズチョウ",
    "town": "花原",
    "town_kana": "ハナバラ",
    "street": null,
    "office_name": null,
    "office_name_kana": null
  },
  "0438": {
    "zip_code": "6800438",
    "prefecture": "鳥取県",
    "prefecture_kana": "トットリケン",
    "prefecture_code": 31,
    "city": "八頭郡八頭町",
    "city_kana": "ヤズグンヤズチョウ",
    "town": "山田",
    "town_kana": "ヤマダ",
    "street": null,
    "office_name": null,
    "office_name_kana": null
  },
  "0441": {
    "zip_code": "6800441",
    "prefecture": "鳥取県",
    "prefecture_kana": "トットリケン",
    "prefecture_code": 31,
    "city": "八頭郡八頭町",
    "city_kana": "ヤズグンヤズチョウ",
    "town": "西御門",
    "town_kana": "ニシミカド",
    "street": null,
    "office_name": null,
    "office_name_kana": null
  },
  "0442": {
    "zip_code": "6800442",
    "prefecture": "鳥取県",
    "prefecture_kana": "トットリケン",
    "prefecture_code": 31,
    "city": "八頭郡八頭町",
    "city_kana": "ヤズグンヤズチョウ",
    "town": "市谷",
    "town_kana": "イチノタニ",
    "street": null,
    "office_name": null,
    "office_name_kana": null
  },
  "0443": {
    "zip_code": "6800443",
    "prefecture": "鳥取県",
    "prefecture_kana": "トットリケン",
    "prefecture_code": 31,
    "city": "八頭郡八頭町",
    "city_kana": "ヤズグンヤズチョウ",
    "town": "郡家殿",
    "town_kana": "コウゲトノ",
    "street": null,
    "office_name": null,
    "office_name_kana": null
  },
  "0444": {
    "zip_code": "6800444",
    "prefecture": "鳥取県",
    "prefecture_kana": "トットリケン",
    "prefecture_code": 31,
    "city": "八頭郡八頭町",
    "city_kana": "ヤズグンヤズチョウ",
    "town": "花",
    "town_kana": "ハナ",
    "street": null,
    "office_name": null,
    "office_name_kana": null
  },
  "0445": {
    "zip_code": "6800445",
    "prefecture": "鳥取県",
    "prefecture_kana": "トットリケン",
    "prefecture_code": 31,
    "city": "八頭郡八頭町",
    "city_kana": "ヤズグンヤズチョウ",
    "town": "大門",
    "town_kana": "ダイモン",
    "street": null,
    "office_name": null,
    "office_name_kana": null
  },
  "0451": {
    "zip_code": "6800451",
    "prefecture": "鳥取県",
    "prefecture_kana": "トットリケン",
    "prefecture_code": 31,
    "city": "八頭郡八頭町",
    "city_kana": "ヤズグンヤズチョウ",
    "town": "久能寺",
    "town_kana": "クノウジ",
    "street": null,
    "office_name": null,
    "office_name_kana": null
  },
  "0452": {
    "zip_code": "6800452",
    "prefecture": "鳥取県",
    "prefecture_kana": "トットリケン",
    "prefecture_code": 31,
    "city": "八頭郡八頭町",
    "city_kana": "ヤズグンヤズチョウ",
    "town": "池田",
    "town_kana": "イケダ",
    "street": null,
    "office_name": null,
    "office_name_kana": null
  },
  "0453": {
    "zip_code": "6800453",
    "prefecture": "鳥取県",
    "prefecture_kana": "トットリケン",
    "prefecture_code": 31,
    "city": "八頭郡八頭町",
    "city_kana": "ヤズグンヤズチョウ",
    "town": "万代寺",
    "town_kana": "マンタイジ",
    "street": null,
    "office_name": null,
    "office_name_kana": null
  },
  "0454": {
    "zip_code": "6800454",
    "prefecture": "鳥取県",
    "prefecture_kana": "トットリケン",
    "prefecture_code": 31,
    "city": "八頭郡八頭町",
    "city_kana": "ヤズグンヤズチョウ",
    "town": "石田百井",
    "town_kana": "イシダモモイ",
    "street": null,
    "office_name": null,
    "office_name_kana": null
  },
  "0455": {
    "zip_code": "6800455",
    "prefecture": "鳥取県",
    "prefecture_kana": "トットリケン",
    "prefecture_code": 31,
    "city": "八頭郡八頭町",
    "city_kana": "ヤズグンヤズチョウ",
    "town": "土師百井",
    "town_kana": "ハジモモイ",
    "street": null,
    "office_name": null,
    "office_name_kana": null
  },
  "0456": {
    "zip_code": "6800456",
    "prefecture": "鳥取県",
    "prefecture_kana": "トットリケン",
    "prefecture_code": 31,
    "city": "八頭郡八頭町",
    "city_kana": "ヤズグンヤズチョウ",
    "town": "米岡",
    "town_kana": "ヨネオカ",
    "street": null,
    "office_name": null,
    "office_name_kana": null
  },
  "0457": {
    "zip_code": "6800457",
    "prefecture": "鳥取県",
    "prefecture_kana": "トットリケン",
    "prefecture_code": 31,
    "city": "八頭郡八頭町",
    "city_kana": "ヤズグンヤズチョウ",
    "town": "国中",
    "town_kana": "クニナカ",
    "street": null,
    "office_name": null,
    "office_name_kana": null
  },
  "0461": {
    "zip_code": "6800461",
    "prefecture": "鳥取県",
    "prefecture_kana": "トットリケン",
    "prefecture_code": 31,
    "city": "八頭郡八頭町",
    "city_kana": "ヤズグンヤズチョウ",
    "town": "郡家",
    "town_kana": "コオゲ",
    "street": null,
    "office_name": null,
    "office_name_kana": null
  },
  "0462": {
    "zip_code": "6800462",
    "prefecture": "鳥取県",
    "prefecture_kana": "トットリケン",
    "prefecture_code": 31,
    "city": "八頭郡八頭町",
    "city_kana": "ヤズグンヤズチョウ",
    "town": "福本",
    "town_kana": "フクモト",
    "street": null,
    "office_name": null,
    "office_name_kana": null
  },
  "0463": {
    "zip_code": "6800463",
    "prefecture": "鳥取県",
    "prefecture_kana": "トットリケン",
    "prefecture_code": 31,
    "city": "八頭郡八頭町",
    "city_kana": "ヤズグンヤズチョウ",
    "town": "宮谷",
    "town_kana": "ミヤダニ",
    "street": null,
    "office_name": null,
    "office_name_kana": null
  },
  "0471": {
    "zip_code": "6800471",
    "prefecture": "鳥取県",
    "prefecture_kana": "トットリケン",
    "prefecture_code": 31,
    "city": "八頭郡八頭町",
    "city_kana": "ヤズグンヤズチョウ",
    "town": "船岡",
    "town_kana": "フナオカ",
    "street": null,
    "office_name": null,
    "office_name_kana": null
  },
  "0472": {
    "zip_code": "6800472",
    "prefecture": "鳥取県",
    "prefecture_kana": "トットリケン",
    "prefecture_code": 31,
    "city": "八頭郡八頭町",
    "city_kana": "ヤズグンヤズチョウ",
    "town": "下濃",
    "town_kana": "シモノ",
    "street": null,
    "office_name": null,
    "office_name_kana": null
  },
  "0473": {
    "zip_code": "6800473",
    "prefecture": "鳥取県",
    "prefecture_kana": "トットリケン",
    "prefecture_code": 31,
    "city": "八頭郡八頭町",
    "city_kana": "ヤズグンヤズチョウ",
    "town": "坂田",
    "town_kana": "サカダ",
    "street": null,
    "office_name": null,
    "office_name_kana": null
  },
  "0474": {
    "zip_code": "6800474",
    "prefecture": "鳥取県",
    "prefecture_kana": "トットリケン",
    "prefecture_code": 31,
    "city": "八頭郡八頭町",
    "city_kana": "ヤズグンヤズチョウ",
    "town": "破岩",
    "town_kana": "ワレイワ",
    "street": null,
    "office_name": null,
    "office_name_kana": null
  },
  "0492": {
    "zip_code": "6800492",
    "prefecture": "鳥取県",
    "prefecture_kana": null,
    "prefecture_code": null,
    "city": "八頭郡八頭町",
    "city_kana": null,
    "town": "大字久能寺",
    "town_kana": null,
    "street": "７２５",
    "office_name": "鳥取県立　八頭高等学校",
    "office_name_kana": "トツトリケンリツ ヤズコウトウガツコウ"
  },
  "0493": {
    "zip_code": "6800493",
    "prefecture": "鳥取県",
    "prefecture_kana": "トットリケン",
    "prefecture_code": 31,
    "city": "八頭郡八頭町",
    "city_kana": "ヤズグンヤズチョウ",
    "town": "郡家",
    "town_kana": "コオゲ",
    "street": "４９３",
    "office_name": "八頭町役場",
    "office_name_kana": "ヤズチヨウヤクバ"
  },
  "0495": {
    "zip_code": "6800495",
    "prefecture": "鳥取県",
    "prefecture_kana": "トットリケン",
    "prefecture_code": 31,
    "city": "八頭郡八頭町",
    "city_kana": "ヤズグンヤズチョウ",
    "town": "船岡",
    "town_kana": "フナオカ",
    "street": "５３９",
    "office_name": "八頭町役場船岡支所",
    "office_name_kana": "ヤズチヨウヤクバフナオカシシヨ"
  },
  "0521": {
    "zip_code": "6800521",
    "prefecture": "鳥取県",
    "prefecture_kana": "トットリケン",
    "prefecture_code": 31,
    "city": "八頭郡八頭町",
    "city_kana": "ヤズグンヤズチョウ",
    "town": "安井宿",
    "town_kana": "ヤスイシュク",
    "street": null,
    "office_name": null,
    "office_name_kana": null
  },
  "0522": {
    "zip_code": "6800522",
    "prefecture": "鳥取県",
    "prefecture_kana": "トットリケン",
    "prefecture_code": 31,
    "city": "八頭郡八頭町",
    "city_kana": "ヤズグンヤズチョウ",
    "town": "新興寺",
    "town_kana": "シンゴウジ",
    "street": null,
    "office_name": null,
    "office_name_kana": null
  },
  "0523": {
    "zip_code": "6800523",
    "prefecture": "鳥取県",
    "prefecture_kana": "トットリケン",
    "prefecture_code": 31,
    "city": "八頭郡八頭町",
    "city_kana": "ヤズグンヤズチョウ",
    "town": "小別府",
    "town_kana": "コベフ",
    "street": null,
    "office_name": null,
    "office_name_kana": null
  },
  "0524": {
    "zip_code": "6800524",
    "prefecture": "鳥取県",
    "prefecture_kana": "トットリケン",
    "prefecture_code": 31,
    "city": "八頭郡八頭町",
    "city_kana": "ヤズグンヤズチョウ",
    "town": "茂田",
    "town_kana": "モダ",
    "street": null,
    "office_name": null,
    "office_name_kana": null
  },
  "0525": {
    "zip_code": "6800525",
    "prefecture": "鳥取県",
    "prefecture_kana": "トットリケン",
    "prefecture_code": 31,
    "city": "八頭郡八頭町",
    "city_kana": "ヤズグンヤズチョウ",
    "town": "横田",
    "town_kana": "ヨコタ",
    "street": null,
    "office_name": null,
    "office_name_kana": null
  },
  "0526": {
    "zip_code": "6800526",
    "prefecture": "鳥取県",
    "prefecture_kana": "トットリケン",
    "prefecture_code": 31,
    "city": "八頭郡八頭町",
    "city_kana": "ヤズグンヤズチョウ",
    "town": "日下部",
    "town_kana": "クサカベ",
    "street": null,
    "office_name": null,
    "office_name_kana": null
  },
  "0527": {
    "zip_code": "6800527",
    "prefecture": "鳥取県",
    "prefecture_kana": "トットリケン",
    "prefecture_code": 31,
    "city": "八頭郡八頭町",
    "city_kana": "ヤズグンヤズチョウ",
    "town": "桜ヶ丘",
    "town_kana": "サクラガオカ",
    "street": null,
    "office_name": null,
    "office_name_kana": null
  },
  "0531": {
    "zip_code": "6800531",
    "prefecture": "鳥取県",
    "prefecture_kana": "トットリケン",
    "prefecture_code": 31,
    "city": "八頭郡八頭町",
    "city_kana": "ヤズグンヤズチョウ",
    "town": "才代",
    "town_kana": "サイタイ",
    "street": null,
    "office_name": null,
    "office_name_kana": null
  },
  "0532": {
    "zip_code": "6800532",
    "prefecture": "鳥取県",
    "prefecture_kana": "トットリケン",
    "prefecture_code": 31,
    "city": "八頭郡八頭町",
    "city_kana": "ヤズグンヤズチョウ",
    "town": "東",
    "town_kana": "ヒガシ",
    "street": null,
    "office_name": null,
    "office_name_kana": null
  },
  "0533": {
    "zip_code": "6800533",
    "prefecture": "鳥取県",
    "prefecture_kana": "トットリケン",
    "prefecture_code": 31,
    "city": "八頭郡八頭町",
    "city_kana": "ヤズグンヤズチョウ",
    "town": "皆原",
    "town_kana": "カイハラ",
    "street": null,
    "office_name": null,
    "office_name_kana": null
  },
  "0534": {
    "zip_code": "6800534",
    "prefecture": "鳥取県",
    "prefecture_kana": "トットリケン",
    "prefecture_code": 31,
    "city": "八頭郡八頭町",
    "city_kana": "ヤズグンヤズチョウ",
    "town": "鍛冶屋",
    "town_kana": "カジヤ",
    "street": null,
    "office_name": null,
    "office_name_kana": null
  },
  "0535": {
    "zip_code": "6800535",
    "prefecture": "鳥取県",
    "prefecture_kana": "トットリケン",
    "prefecture_code": 31,
    "city": "八頭郡八頭町",
    "city_kana": "ヤズグンヤズチョウ",
    "town": "三山口",
    "town_kana": "ミヤマグチ",
    "street": null,
    "office_name": null,
    "office_name_kana": null
  },
  "0536": {
    "zip_code": "6800536",
    "prefecture": "鳥取県",
    "prefecture_kana": "トットリケン",
    "prefecture_code": 31,
    "city": "八頭郡八頭町",
    "city_kana": "ヤズグンヤズチョウ",
    "town": "三浦",
    "town_kana": "ミウラ",
    "street": null,
    "office_name": null,
    "office_name_kana": null
  },
  "0537": {
    "zip_code": "6800537",
    "prefecture": "鳥取県",
    "prefecture_kana": "トットリケン",
    "prefecture_code": 31,
    "city": "八頭郡八頭町",
    "city_kana": "ヤズグンヤズチョウ",
    "town": "岩淵",
    "town_kana": "イワブチ",
    "street": null,
    "office_name": null,
    "office_name_kana": null
  },
  "0541": {
    "zip_code": "6800541",
    "prefecture": "鳥取県",
    "prefecture_kana": "トットリケン",
    "prefecture_code": 31,
    "city": "八頭郡八頭町",
    "city_kana": "ヤズグンヤズチョウ",
    "town": "清徳",
    "town_kana": "セイトク",
    "street": null,
    "office_name": null,
    "office_name_kana": null
  },
  "0542": {
    "zip_code": "6800542",
    "prefecture": "鳥取県",
    "prefecture_kana": "トットリケン",
    "prefecture_code": 31,
    "city": "八頭郡八頭町",
    "city_kana": "ヤズグンヤズチョウ",
    "town": "茂谷",
    "town_kana": "モタニ",
    "street": null,
    "office_name": null,
    "office_name_kana": null
  },
  "0543": {
    "zip_code": "6800543",
    "prefecture": "鳥取県",
    "prefecture_kana": "トットリケン",
    "prefecture_code": 31,
    "city": "八頭郡八頭町",
    "city_kana": "ヤズグンヤズチョウ",
    "town": "奥野",
    "town_kana": "オクノ",
    "street": null,
    "office_name": null,
    "office_name_kana": null
  },
  "0544": {
    "zip_code": "6800544",
    "prefecture": "鳥取県",
    "prefecture_kana": "トットリケン",
    "prefecture_code": 31,
    "city": "八頭郡八頭町",
    "city_kana": "ヤズグンヤズチョウ",
    "town": "佐崎",
    "town_kana": "ササキ",
    "street": null,
    "office_name": null,
    "office_name_kana": null
  },
  "0545": {
    "zip_code": "6800545",
    "prefecture": "鳥取県",
    "prefecture_kana": "トットリケン",
    "prefecture_code": 31,
    "city": "八頭郡八頭町",
    "city_kana": "ヤズグンヤズチョウ",
    "town": "柿原",
    "town_kana": "カキハラ",
    "street": null,
    "office_name": null,
    "office_name_kana": null
  },
  "0601": {
    "zip_code": "6800601",
    "prefecture": "鳥取県",
    "prefecture_kana": "トットリケン",
    "prefecture_code": 31,
    "city": "八頭郡八頭町",
    "city_kana": "ヤズグンヤズチョウ",
    "town": "北山",
    "town_kana": "キタヤマ",
    "street": null,
    "office_name": null,
    "office_name_kana": null
  },
  "0602": {
    "zip_code": "6800602",
    "prefecture": "鳥取県",
    "prefecture_kana": "トットリケン",
    "prefecture_code": 31,
    "city": "八頭郡八頭町",
    "city_kana": "ヤズグンヤズチョウ",
    "town": "用呂",
    "town_kana": "ヨウロ",
    "street": null,
    "office_name": null,
    "office_name_kana": null
  },
  "0603": {
    "zip_code": "6800603",
    "prefecture": "鳥取県",
    "prefecture_kana": "トットリケン",
    "prefecture_code": 31,
    "city": "八頭郡八頭町",
    "city_kana": "ヤズグンヤズチョウ",
    "town": "日田",
    "town_kana": "ヒダ",
    "street": null,
    "office_name": null,
    "office_name_kana": null
  },
  "0604": {
    "zip_code": "6800604",
    "prefecture": "鳥取県",
    "prefecture_kana": "トットリケン",
    "prefecture_code": 31,
    "city": "八頭郡八頭町",
    "city_kana": "ヤズグンヤズチョウ",
    "town": "南",
    "town_kana": "ミナミ",
    "street": null,
    "office_name": null,
    "office_name_kana": null
  },
  "0605": {
    "zip_code": "6800605",
    "prefecture": "鳥取県",
    "prefecture_kana": "トットリケン",
    "prefecture_code": 31,
    "city": "八頭郡八頭町",
    "city_kana": "ヤズグンヤズチョウ",
    "town": "島",
    "town_kana": "シマ",
    "street": null,
    "office_name": null,
    "office_name_kana": null
  },
  "0606": {
    "zip_code": "6800606",
    "prefecture": "鳥取県",
    "prefecture_kana": "トットリケン",
    "prefecture_code": 31,
    "city": "八頭郡八頭町",
    "city_kana": "ヤズグンヤズチョウ",
    "town": "重枝",
    "town_kana": "シゲエダ",
    "street": null,
    "office_name": null,
    "office_name_kana": null
  },
  "0607": {
    "zip_code": "6800607",
    "prefecture": "鳥取県",
    "prefecture_kana": "トットリケン",
    "prefecture_code": 31,
    "city": "八頭郡八頭町",
    "city_kana": "ヤズグンヤズチョウ",
    "town": "徳丸",
    "town_kana": "トクマル",
    "street": null,
    "office_name": null,
    "office_name_kana": null
  },
  "0611": {
    "zip_code": "6800611",
    "prefecture": "鳥取県",
    "prefecture_kana": "トットリケン",
    "prefecture_code": 31,
    "city": "八頭郡八頭町",
    "city_kana": "ヤズグンヤズチョウ",
    "town": "富枝",
    "town_kana": "トミエダ",
    "street": null,
    "office_name": null,
    "office_name_kana": null
  },
  "0612": {
    "zip_code": "6800612",
    "prefecture": "鳥取県",
    "prefecture_kana": "トットリケン",
    "prefecture_code": 31,
    "city": "八頭郡八頭町",
    "city_kana": "ヤズグンヤズチョウ",
    "town": "志谷",
    "town_kana": "シタニ",
    "street": null,
    "office_name": null,
    "office_name_kana": null
  },
  "0613": {
    "zip_code": "6800613",
    "prefecture": "鳥取県",
    "prefecture_kana": "トットリケン",
    "prefecture_code": 31,
    "city": "八頭郡八頭町",
    "city_kana": "ヤズグンヤズチョウ",
    "town": "稗谷",
    "town_kana": "ヒエダニ",
    "street": null,
    "office_name": null,
    "office_name_kana": null
  },
  "0614": {
    "zip_code": "6800614",
    "prefecture": "鳥取県",
    "prefecture_kana": "トットリケン",
    "prefecture_code": 31,
    "city": "八頭郡八頭町",
    "city_kana": "ヤズグンヤズチョウ",
    "town": "中",
    "town_kana": "ナカ",
    "street": null,
    "office_name": null,
    "office_name_kana": null
  },
  "0700": {
    "zip_code": "6800700",
    "prefecture": "鳥取県",
    "prefecture_kana": "トットリケン",
    "prefecture_code": 31,
    "city": "八頭郡若桜町",
    "city_kana": "ヤズグンワカサチョウ",
    "town": "",
    "town_kana": "",
    "street": null,
    "office_name": null,
    "office_name_kana": null
  },
  "0701": {
    "zip_code": "6800701",
    "prefecture": "鳥取県",
    "prefecture_kana": "トットリケン",
    "prefecture_code": 31,
    "city": "八頭郡若桜町",
    "city_kana": "ヤズグンワカサチョウ",
    "town": "若桜",
    "town_kana": "ワカサ",
    "street": null,
    "office_name": null,
    "office_name_kana": null
  },
  "0711": {
    "zip_code": "6800711",
    "prefecture": "鳥取県",
    "prefecture_kana": "トットリケン",
    "prefecture_code": 31,
    "city": "八頭郡若桜町",
    "city_kana": "ヤズグンワカサチョウ",
    "town": "三倉",
    "town_kana": "ミクラ",
    "street": null,
    "office_name": null,
    "office_name_kana": null
  },
  "0712": {
    "zip_code": "6800712",
    "prefecture": "鳥取県",
    "prefecture_kana": "トットリケン",
    "prefecture_code": 31,
    "city": "八頭郡若桜町",
    "city_kana": "ヤズグンワカサチョウ",
    "town": "高野",
    "town_kana": "タカノ",
    "street": null,
    "office_name": null,
    "office_name_kana": null
  },
  "0713": {
    "zip_code": "6800713",
    "prefecture": "鳥取県",
    "prefecture_kana": "トットリケン",
    "prefecture_code": 31,
    "city": "八頭郡若桜町",
    "city_kana": "ヤズグンワカサチョウ",
    "town": "赤松",
    "town_kana": "アカマツ",
    "street": null,
    "office_name": null,
    "office_name_kana": null
  },
  "0714": {
    "zip_code": "6800714",
    "prefecture": "鳥取県",
    "prefecture_kana": "トットリケン",
    "prefecture_code": 31,
    "city": "八頭郡若桜町",
    "city_kana": "ヤズグンワカサチョウ",
    "town": "来見野",
    "town_kana": "クルミノ",
    "street": null,
    "office_name": null,
    "office_name_kana": null
  },
  "0715": {
    "zip_code": "6800715",
    "prefecture": "鳥取県",
    "prefecture_kana": "トットリケン",
    "prefecture_code": 31,
    "city": "八頭郡若桜町",
    "city_kana": "ヤズグンワカサチョウ",
    "town": "諸鹿",
    "town_kana": "モロガ",
    "street": null,
    "office_name": null,
    "office_name_kana": null
  },
  "0721": {
    "zip_code": "6800721",
    "prefecture": "鳥取県",
    "prefecture_kana": "トットリケン",
    "prefecture_code": 31,
    "city": "八頭郡若桜町",
    "city_kana": "ヤズグンワカサチョウ",
    "town": "屋堂羅",
    "town_kana": "ヤドラ",
    "street": null,
    "office_name": null,
    "office_name_kana": null
  },
  "0722": {
    "zip_code": "6800722",
    "prefecture": "鳥取県",
    "prefecture_kana": "トットリケン",
    "prefecture_code": 31,
    "city": "八頭郡若桜町",
    "city_kana": "ヤズグンワカサチョウ",
    "town": "浅井",
    "town_kana": "アサイ",
    "street": null,
    "office_name": null,
    "office_name_kana": null
  },
  "0723": {
    "zip_code": "6800723",
    "prefecture": "鳥取県",
    "prefecture_kana": "トットリケン",
    "prefecture_code": 31,
    "city": "八頭郡若桜町",
    "city_kana": "ヤズグンワカサチョウ",
    "town": "香田",
    "town_kana": "コウダ",
    "street": null,
    "office_name": null,
    "office_name_kana": null
  },
  "0724": {
    "zip_code": "6800724",
    "prefecture": "鳥取県",
    "prefecture_kana": "トットリケン",
    "prefecture_code": 31,
    "city": "八頭郡若桜町",
    "city_kana": "ヤズグンワカサチョウ",
    "town": "長砂",
    "town_kana": "ナガスナ",
    "street": null,
    "office_name": null,
    "office_name_kana": null
  },
  "0725": {
    "zip_code": "6800725",
    "prefecture": "鳥取県",
    "prefecture_kana": "トットリケン",
    "prefecture_code": 31,
    "city": "八頭郡若桜町",
    "city_kana": "ヤズグンワカサチョウ",
    "town": "湯原",
    "town_kana": "ユワラ",
    "street": null,
    "office_name": null,
    "office_name_kana": null
  },
  "0726": {
    "zip_code": "6800726",
    "prefecture": "鳥取県",
    "prefecture_kana": "トットリケン",
    "prefecture_code": 31,
    "city": "八頭郡若桜町",
    "city_kana": "ヤズグンワカサチョウ",
    "town": "淵見",
    "town_kana": "フチミ",
    "street": null,
    "office_name": null,
    "office_name_kana": null
  },
  "0727": {
    "zip_code": "6800727",
    "prefecture": "鳥取県",
    "prefecture_kana": "トットリケン",
    "prefecture_code": 31,
    "city": "八頭郡若桜町",
    "city_kana": "ヤズグンワカサチョウ",
    "town": "茗荷谷",
    "town_kana": "ミョウガダニ",
    "street": null,
    "office_name": null,
    "office_name_kana": null
  },
  "0728": {
    "zip_code": "6800728",
    "prefecture": "鳥取県",
    "prefecture_kana": "トットリケン",
    "prefecture_code": 31,
    "city": "八頭郡若桜町",
    "city_kana": "ヤズグンワカサチョウ",
    "town": "つく米",
    "town_kana": "ツクヨネ",
    "street": null,
    "office_name": null,
    "office_name_kana": null
  },
  "0731": {
    "zip_code": "6800731",
    "prefecture": "鳥取県",
    "prefecture_kana": "トットリケン",
    "prefecture_code": 31,
    "city": "八頭郡若桜町",
    "city_kana": "ヤズグンワカサチョウ",
    "town": "岩屋堂",
    "town_kana": "イワヤドウ",
    "street": null,
    "office_name": null,
    "office_name_kana": null
  },
  "0732": {
    "zip_code": "6800732",
    "prefecture": "鳥取県",
    "prefecture_kana": "トットリケン",
    "prefecture_code": 31,
    "city": "八頭郡若桜町",
    "city_kana": "ヤズグンワカサチョウ",
    "town": "中原",
    "town_kana": "ナカハラ",
    "street": null,
    "office_name": null,
    "office_name_kana": null
  },
  "0733": {
    "zip_code": "6800733",
    "prefecture": "鳥取県",
    "prefecture_kana": "トットリケン",
    "prefecture_code": 31,
    "city": "八頭郡若桜町",
    "city_kana": "ヤズグンワカサチョウ",
    "town": "大野",
    "town_kana": "オオノ",
    "street": null,
    "office_name": null,
    "office_name_kana": null
  },
  "0734": {
    "zip_code": "6800734",
    "prefecture": "鳥取県",
    "prefecture_kana": "トットリケン",
    "prefecture_code": 31,
    "city": "八頭郡若桜町",
    "city_kana": "ヤズグンワカサチョウ",
    "town": "小船",
    "town_kana": "オブネ",
    "street": null,
    "office_name": null,
    "office_name_kana": null
  },
  "0735": {
    "zip_code": "6800735",
    "prefecture": "鳥取県",
    "prefecture_kana": "トットリケン",
    "prefecture_code": 31,
    "city": "八頭郡若桜町",
    "city_kana": "ヤズグンワカサチョウ",
    "town": "落折",
    "town_kana": "オチオリ",
    "street": null,
    "office_name": null,
    "office_name_kana": null
  },
  "0741": {
    "zip_code": "6800741",
    "prefecture": "鳥取県",
    "prefecture_kana": "トットリケン",
    "prefecture_code": 31,
    "city": "八頭郡若桜町",
    "city_kana": "ヤズグンワカサチョウ",
    "town": "大炊",
    "town_kana": "オオイ",
    "street": null,
    "office_name": null,
    "office_name_kana": null
  },
  "0742": {
    "zip_code": "6800742",
    "prefecture": "鳥取県",
    "prefecture_kana": "トットリケン",
    "prefecture_code": 31,
    "city": "八頭郡若桜町",
    "city_kana": "ヤズグンワカサチョウ",
    "town": "岸野",
    "town_kana": "キシノ",
    "street": null,
    "office_name": null,
    "office_name_kana": null
  },
  "0743": {
    "zip_code": "6800743",
    "prefecture": "鳥取県",
    "prefecture_kana": "トットリケン",
    "prefecture_code": 31,
    "city": "八頭郡若桜町",
    "city_kana": "ヤズグンワカサチョウ",
    "town": "糸白見",
    "town_kana": "イトシロミ",
    "street": null,
    "office_name": null,
    "office_name_kana": null
  },
  "0744": {
    "zip_code": "6800744",
    "prefecture": "鳥取県",
    "prefecture_kana": "トットリケン",
    "prefecture_code": 31,
    "city": "八頭郡若桜町",
    "city_kana": "ヤズグンワカサチョウ",
    "town": "根安",
    "town_kana": "ネヤス",
    "street": null,
    "office_name": null,
    "office_name_kana": null
  },
  "0745": {
    "zip_code": "6800745",
    "prefecture": "鳥取県",
    "prefecture_kana": "トットリケン",
    "prefecture_code": 31,
    "city": "八頭郡若桜町",
    "city_kana": "ヤズグンワカサチョウ",
    "town": "須澄",
    "town_kana": "ススミ",
    "street": null,
    "office_name": null,
    "office_name_kana": null
  },
  "0746": {
    "zip_code": "6800746",
    "prefecture": "鳥取県",
    "prefecture_kana": "トットリケン",
    "prefecture_code": 31,
    "city": "八頭郡若桜町",
    "city_kana": "ヤズグンワカサチョウ",
    "town": "吉川",
    "town_kana": "ヨシカワ",
    "street": null,
    "office_name": null,
    "office_name_kana": null
  },
  "0792": {
    "zip_code": "6800792",
    "prefecture": "鳥取県",
    "prefecture_kana": null,
    "prefecture_code": null,
    "city": "八頭郡若桜町",
    "city_kana": null,
    "town": "大字若桜",
    "town_kana": null,
    "street": "８０１−５",
    "office_name": "若桜町役場",
    "office_name_kana": "ワカサチヨウヤクバ"
  },
  "0801": {
    "zip_code": "6800801",
    "prefecture": "鳥取県",
    "prefecture_kana": "トットリケン",
    "prefecture_code": 31,
    "city": "鳥取市",
    "city_kana": "トットリシ",
    "town": "松並町",
    "town_kana": "マツナミチョウ",
    "street": null,
    "office_name": null,
    "office_name_kana": null
  },
  "0802": {
    "zip_code": "6800802",
    "prefecture": "鳥取県",
    "prefecture_kana": "トットリケン",
    "prefecture_code": 31,
    "city": "鳥取市",
    "city_kana": "トットリシ",
    "town": "青葉町",
    "town_kana": "アオバチョウ",
    "street": null,
    "office_name": null,
    "office_name_kana": null
  },
  "0803": {
    "zip_code": "6800803",
    "prefecture": "鳥取県",
    "prefecture_kana": "トットリケン",
    "prefecture_code": 31,
    "city": "鳥取市",
    "city_kana": "トットリシ",
    "town": "田園町",
    "town_kana": "デンエンチョウ",
    "street": null,
    "office_name": null,
    "office_name_kana": null
  },
  "0804": {
    "zip_code": "6800804",
    "prefecture": "鳥取県",
    "prefecture_kana": "トットリケン",
    "prefecture_code": 31,
    "city": "鳥取市",
    "city_kana": "トットリシ",
    "town": "田島",
    "town_kana": "タシマ",
    "street": null,
    "office_name": null,
    "office_name_kana": null
  },
  "0805": {
    "zip_code": "6800805",
    "prefecture": "鳥取県",
    "prefecture_kana": "トットリケン",
    "prefecture_code": 31,
    "city": "鳥取市",
    "city_kana": "トットリシ",
    "town": "相生町",
    "town_kana": "アイオイチョウ",
    "street": null,
    "office_name": null,
    "office_name_kana": null
  },
  "0806": {
    "zip_code": "6800806",
    "prefecture": "鳥取県",
    "prefecture_kana": "トットリケン",
    "prefecture_code": 31,
    "city": "鳥取市",
    "city_kana": "トットリシ",
    "town": "薬師町",
    "town_kana": "ヤクシマチ",
    "street": null,
    "office_name": null,
    "office_name_kana": null
  },
  "0811": {
    "zip_code": "6800811",
    "prefecture": "鳥取県",
    "prefecture_kana": "トットリケン",
    "prefecture_code": 31,
    "city": "鳥取市",
    "city_kana": "トットリシ",
    "town": "西品治",
    "town_kana": "ニシホンジ",
    "street": null,
    "office_name": null,
    "office_name_kana": null
  },
  "0812": {
    "zip_code": "6800812",
    "prefecture": "鳥取県",
    "prefecture_kana": "トットリケン",
    "prefecture_code": 31,
    "city": "鳥取市",
    "city_kana": "トットリシ",
    "town": "新品治町",
    "town_kana": "シンホンジチョウ",
    "street": null,
    "office_name": null,
    "office_name_kana": null
  },
  "0813": {
    "zip_code": "6800813",
    "prefecture": "鳥取県",
    "prefecture_kana": "トットリケン",
    "prefecture_code": 31,
    "city": "鳥取市",
    "city_kana": "トットリシ",
    "town": "寿町",
    "town_kana": "コトブキチョウ",
    "street": null,
    "office_name": null,
    "office_name_kana": null
  },
  "0814": {
    "zip_code": "6800814",
    "prefecture": "鳥取県",
    "prefecture_kana": "トットリケン",
    "prefecture_code": 31,
    "city": "鳥取市",
    "city_kana": "トットリシ",
    "town": "南町",
    "town_kana": "ミナミマチ",
    "street": null,
    "office_name": null,
    "office_name_kana": null
  },
  "0821": {
    "zip_code": "6800821",
    "prefecture": "鳥取県",
    "prefecture_kana": "トットリケン",
    "prefecture_code": 31,
    "city": "鳥取市",
    "city_kana": "トットリシ",
    "town": "瓦町",
    "town_kana": "カワラマチ",
    "street": null,
    "office_name": null,
    "office_name_kana": null
  },
  "0822": {
    "zip_code": "6800822",
    "prefecture": "鳥取県",
    "prefecture_kana": "トットリケン",
    "prefecture_code": 31,
    "city": "鳥取市",
    "city_kana": "トットリシ",
    "town": "今町",
    "town_kana": "イママチ",
    "street": null,
    "office_name": null,
    "office_name_kana": null
  },
  "0823": {
    "zip_code": "6800823",
    "prefecture": "鳥取県",
    "prefecture_kana": "トットリケン",
    "prefecture_code": 31,
    "city": "鳥取市",
    "city_kana": "トットリシ",
    "town": "幸町",
    "town_kana": "サイワイチョウ",
    "street": null,
    "office_name": null,
    "office_name_kana": null
  },
  "0824": {
    "zip_code": "6800824",
    "prefecture": "鳥取県",
    "prefecture_kana": "トットリケン",
    "prefecture_code": 31,
    "city": "鳥取市",
    "city_kana": "トットリシ",
    "town": "行徳",
    "town_kana": "ギョウトク",
    "street": null,
    "office_name": null,
    "office_name_kana": null
  },
  "0831": {
    "zip_code": "6800831",
    "prefecture": "鳥取県",
    "prefecture_kana": "トットリケン",
    "prefecture_code": 31,
    "city": "鳥取市",
    "city_kana": "トットリシ",
    "town": "栄町",
    "town_kana": "サカエマチ",
    "street": null,
    "office_name": null,
    "office_name_kana": null
  },
  "0832": {
    "zip_code": "6800832",
    "prefecture": "鳥取県",
    "prefecture_kana": "トットリケン",
    "prefecture_code": 31,
    "city": "鳥取市",
    "city_kana": "トットリシ",
    "town": "弥生町",
    "town_kana": "ヤヨイチョウ",
    "street": null,
    "office_name": null,
    "office_name_kana": null
  },
  "0833": {
    "zip_code": "6800833",
    "prefecture": "鳥取県",
    "prefecture_kana": "トットリケン",
    "prefecture_code": 31,
    "city": "鳥取市",
    "city_kana": "トットリシ",
    "town": "末広温泉町",
    "town_kana": "スエヒロオンセンチョウ",
    "street": null,
    "office_name": null,
    "office_name_kana": null
  },
  "0834": {
    "zip_code": "6800834",
    "prefecture": "鳥取県",
    "prefecture_kana": "トットリケン",
    "prefecture_code": 31,
    "city": "鳥取市",
    "city_kana": "トットリシ",
    "town": "永楽温泉町",
    "town_kana": "エイラクオンセンチョウ",
    "street": null,
    "office_name": null,
    "office_name_kana": null
  },
  "0835": {
    "zip_code": "6800835",
    "prefecture": "鳥取県",
    "prefecture_kana": "トットリケン",
    "prefecture_code": 31,
    "city": "鳥取市",
    "city_kana": "トットリシ",
    "town": "東品治町",
    "town_kana": "ヒガシホンジチョウ",
    "street": null,
    "office_name": null,
    "office_name_kana": null
  },
  "0841": {
    "zip_code": "6800841",
    "prefecture": "鳥取県",
    "prefecture_kana": "トットリケン",
    "prefecture_code": 31,
    "city": "鳥取市",
    "city_kana": "トットリシ",
    "town": "吉方温泉",
    "town_kana": "ヨシカタオンセン",
    "street": null,
    "office_name": null,
    "office_name_kana": null
  },
  "0842": {
    "zip_code": "6800842",
    "prefecture": "鳥取県",
    "prefecture_kana": "トットリケン",
    "prefecture_code": 31,
    "city": "鳥取市",
    "city_kana": "トットリシ",
    "town": "吉方",
    "town_kana": "ヨシカタ",
    "street": null,
    "office_name": null,
    "office_name_kana": null
  },
  "0843": {
    "zip_code": "6800843",
    "prefecture": "鳥取県",
    "prefecture_kana": "トットリケン",
    "prefecture_code": 31,
    "city": "鳥取市",
    "city_kana": "トットリシ",
    "town": "南吉方",
    "town_kana": "ミナミヨシカタ",
    "street": null,
    "office_name": null,
    "office_name_kana": null
  },
  "0844": {
    "zip_code": "6800844",
    "prefecture": "鳥取県",
    "prefecture_kana": "トットリケン",
    "prefecture_code": 31,
    "city": "鳥取市",
    "city_kana": "トットリシ",
    "town": "興南町",
    "town_kana": "コウナンチョウ",
    "street": null,
    "office_name": null,
    "office_name_kana": null
  },
  "0845": {
    "zip_code": "6800845",
    "prefecture": "鳥取県",
    "prefecture_kana": "トットリケン",
    "prefecture_code": 31,
    "city": "鳥取市",
    "city_kana": "トットリシ",
    "town": "富安",
    "town_kana": "トミヤス",
    "street": null,
    "office_name": null,
    "office_name_kana": null
  },
  "0846": {
    "zip_code": "6800846",
    "prefecture": "鳥取県",
    "prefecture_kana": "トットリケン",
    "prefecture_code": 31,
    "city": "鳥取市",
    "city_kana": "トットリシ",
    "town": "扇町",
    "town_kana": "オウギマチ",
    "street": null,
    "office_name": null,
    "office_name_kana": null
  },
  "0847": {
    "zip_code": "6800847",
    "prefecture": "鳥取県",
    "prefecture_kana": "トットリケン",
    "prefecture_code": 31,
    "city": "鳥取市",
    "city_kana": "トットリシ",
    "town": "天神町",
    "town_kana": "テンジンチョウ",
    "street": null,
    "office_name": null,
    "office_name_kana": null
  },
  "0851": {
    "zip_code": "6800851",
    "prefecture": "鳥取県",
    "prefecture_kana": "トットリケン",
    "prefecture_code": 31,
    "city": "鳥取市",
    "city_kana": "トットリシ",
    "town": "大杙",
    "town_kana": "オオクイ",
    "street": null,
    "office_name": null,
    "office_name_kana": null
  },
  "0852": {
    "zip_code": "6800852",
    "prefecture": "鳥取県",
    "prefecture_kana": "トットリケン",
    "prefecture_code": 31,
    "city": "鳥取市",
    "city_kana": "トットリシ",
    "town": "東今在家",
    "town_kana": "ヒガシイマザイケ",
    "street": null,
    "office_name": null,
    "office_name_kana": null
  },
  "0853": {
    "zip_code": "6800853",
    "prefecture": "鳥取県",
    "prefecture_kana": "トットリケン",
    "prefecture_code": 31,
    "city": "鳥取市",
    "city_kana": "トットリシ",
    "town": "桜谷",
    "town_kana": "サクラダニ",
    "street": null,
    "office_name": null,
    "office_name_kana": null
  },
  "0854": {
    "zip_code": "6800854",
    "prefecture": "鳥取県",
    "prefecture_kana": "トットリケン",
    "prefecture_code": 31,
    "city": "鳥取市",
    "city_kana": "トットリシ",
    "town": "正蓮寺",
    "town_kana": "ショウレンジ",
    "street": null,
    "office_name": null,
    "office_name_kana": null
  },
  "0855": {
    "zip_code": "6800855",
    "prefecture": "鳥取県",
    "prefecture_kana": "トットリケン",
    "prefecture_code": 31,
    "city": "鳥取市",
    "city_kana": "トットリシ",
    "town": "面影",
    "town_kana": "オモカゲ",
    "street": null,
    "office_name": null,
    "office_name_kana": null
  },
  "0861": {
    "zip_code": "6800861",
    "prefecture": "鳥取県",
    "prefecture_kana": "トットリケン",
    "prefecture_code": 31,
    "city": "鳥取市",
    "city_kana": "トットリシ",
    "town": "新",
    "town_kana": "シン",
    "street": null,
    "office_name": null,
    "office_name_kana": null
  },
  "0862": {
    "zip_code": "6800862",
    "prefecture": "鳥取県",
    "prefecture_kana": "トットリケン",
    "prefecture_code": 31,
    "city": "鳥取市",
    "city_kana": "トットリシ",
    "town": "雲山",
    "town_kana": "クモヤマ",
    "street": null,
    "office_name": null,
    "office_name_kana": null
  },
  "0863": {
    "zip_code": "6800863",
    "prefecture": "鳥取県",
    "prefecture_kana": "トットリケン",
    "prefecture_code": 31,
    "city": "鳥取市",
    "city_kana": "トットリシ",
    "town": "大覚寺",
    "town_kana": "ダイカクジ",
    "street": null,
    "office_name": null,
    "office_name_kana": null
  },
  "0864": {
    "zip_code": "6800864",
    "prefecture": "鳥取県",
    "prefecture_kana": "トットリケン",
    "prefecture_code": 31,
    "city": "鳥取市",
    "city_kana": "トットリシ",
    "town": "吉成",
    "town_kana": "ヨシナリ",
    "street": null,
    "office_name": null,
    "office_name_kana": null
  },
  "0865": {
    "zip_code": "6800865",
    "prefecture": "鳥取県",
    "prefecture_kana": "トットリケン",
    "prefecture_code": 31,
    "city": "鳥取市",
    "city_kana": "トットリシ",
    "town": "古市",
    "town_kana": "フルイチ",
    "street": null,
    "office_name": null,
    "office_name_kana": null
  },
  "0871": {
    "zip_code": "6800871",
    "prefecture": "鳥取県",
    "prefecture_kana": "トットリケン",
    "prefecture_code": 31,
    "city": "鳥取市",
    "city_kana": "トットリシ",
    "town": "吉成南町",
    "town_kana": "ヨシナリミナミマチ",
    "street": null,
    "office_name": null,
    "office_name_kana": null
  },
  "0872": {
    "zip_code": "6800872",
    "prefecture": "鳥取県",
    "prefecture_kana": "トットリケン",
    "prefecture_code": 31,
    "city": "鳥取市",
    "city_kana": "トットリシ",
    "town": "宮長",
    "town_kana": "ミヤナガ",
    "street": null,
    "office_name": null,
    "office_name_kana": null
  },
  "0873": {
    "zip_code": "6800873",
    "prefecture": "鳥取県",
    "prefecture_kana": "トットリケン",
    "prefecture_code": 31,
    "city": "鳥取市",
    "city_kana": "トットリシ",
    "town": "的場",
    "town_kana": "マトバ",
    "street": null,
    "office_name": null,
    "office_name_kana": null
  },
  "0874": {
    "zip_code": "6800874",
    "prefecture": "鳥取県",
    "prefecture_kana": "トットリケン",
    "prefecture_code": 31,
    "city": "鳥取市",
    "city_kana": "トットリシ",
    "town": "叶",
    "town_kana": "カノウ",
    "street": null,
    "office_name": null,
    "office_name_kana": null
  },
  "0875": {
    "zip_code": "6800875",
    "prefecture": "鳥取県",
    "prefecture_kana": "トットリケン",
    "prefecture_code": 31,
    "city": "鳥取市",
    "city_kana": "トットリシ",
    "town": "数津",
    "town_kana": "スヅ",
    "street": null,
    "office_name": null,
    "office_name_kana": null
  },
  "0901": {
    "zip_code": "6800901",
    "prefecture": "鳥取県",
    "prefecture_kana": "トットリケン",
    "prefecture_code": 31,
    "city": "鳥取市",
    "city_kana": "トットリシ",
    "town": "江津",
    "town_kana": "エヅ",
    "street": null,
    "office_name": null,
    "office_name_kana": null
  },
  "0902": {
    "zip_code": "6800902",
    "prefecture": "鳥取県",
    "prefecture_kana": "トットリケン",
    "prefecture_code": 31,
    "city": "鳥取市",
    "city_kana": "トットリシ",
    "town": "秋里",
    "town_kana": "アキサト",
    "street": null,
    "office_name": null,
    "office_name_kana": null
  },
  "0903": {
    "zip_code": "6800903",
    "prefecture": "鳥取県",
    "prefecture_kana": "トットリケン",
    "prefecture_code": 31,
    "city": "鳥取市",
    "city_kana": "トットリシ",
    "town": "南隈",
    "town_kana": "ミナミガクマ",
    "street": null,
    "office_name": null,
    "office_name_kana": null
  },
  "0904": {
    "zip_code": "6800904",
    "prefecture": "鳥取県",
    "prefecture_kana": "トットリケン",
    "prefecture_code": 31,
    "city": "鳥取市",
    "city_kana": "トットリシ",
    "town": "晩稲",
    "town_kana": "オクテ",
    "street": null,
    "office_name": null,
    "office_name_kana": null
  },
  "0905": {
    "zip_code": "6800905",
    "prefecture": "鳥取県",
    "prefecture_kana": "トットリケン",
    "prefecture_code": 31,
    "city": "鳥取市",
    "city_kana": "トットリシ",
    "town": "賀露町",
    "town_kana": "カロチョウ",
    "street": null,
    "office_name": null,
    "office_name_kana": null
  },
  "0906": {
    "zip_code": "6800906",
    "prefecture": "鳥取県",
    "prefecture_kana": "トットリケン",
    "prefecture_code": 31,
    "city": "鳥取市",
    "city_kana": "トットリシ",
    "town": "港町",
    "town_kana": "ミナトマチ",
    "street": null,
    "office_name": null,
    "office_name_kana": null
  },
  "0907": {
    "zip_code": "6800907",
    "prefecture": "鳥取県",
    "prefecture_kana": "トットリケン",
    "prefecture_code": 31,
    "city": "鳥取市",
    "city_kana": "トットリシ",
    "town": "賀露町北",
    "town_kana": "カロチョウキタ",
    "street": null,
    "office_name": null,
    "office_name_kana": null
  },
  "0908": {
    "zip_code": "6800908",
    "prefecture": "鳥取県",
    "prefecture_kana": "トットリケン",
    "prefecture_code": 31,
    "city": "鳥取市",
    "city_kana": "トットリシ",
    "town": "賀露町西",
    "town_kana": "カロチョウニシ",
    "street": null,
    "office_name": null,
    "office_name_kana": null
  },
  "0909": {
    "zip_code": "6800909",
    "prefecture": "鳥取県",
    "prefecture_kana": "トットリケン",
    "prefecture_code": 31,
    "city": "鳥取市",
    "city_kana": "トットリシ",
    "town": "賀露町南",
    "town_kana": "カロチョウミナミ",
    "street": null,
    "office_name": null,
    "office_name_kana": null
  },
  "0911": {
    "zip_code": "6800911",
    "prefecture": "鳥取県",
    "prefecture_kana": "トットリケン",
    "prefecture_code": 31,
    "city": "鳥取市",
    "city_kana": "トットリシ",
    "town": "千代水",
    "town_kana": "チヨミ",
    "street": null,
    "office_name": null,
    "office_name_kana": null
  },
  "0912": {
    "zip_code": "6800912",
    "prefecture": "鳥取県",
    "prefecture_kana": "トットリケン",
    "prefecture_code": 31,
    "city": "鳥取市",
    "city_kana": "トットリシ",
    "town": "商栄町",
    "town_kana": "ショウエイチョウ",
    "street": null,
    "office_name": null,
    "office_name_kana": null
  },
  "0913": {
    "zip_code": "6800913",
    "prefecture": "鳥取県",
    "prefecture_kana": "トットリケン",
    "prefecture_code": 31,
    "city": "鳥取市",
    "city_kana": "トットリシ",
    "town": "安長",
    "town_kana": "ヤスナガ",
    "street": null,
    "office_name": null,
    "office_name_kana": null
  },
  "0914": {
    "zip_code": "6800914",
    "prefecture": "鳥取県",
    "prefecture_kana": "トットリケン",
    "prefecture_code": 31,
    "city": "鳥取市",
    "city_kana": "トットリシ",
    "town": "南安長",
    "town_kana": "ミナミヤスナガ",
    "street": null,
    "office_name": null,
    "office_name_kana": null
  },
  "0915": {
    "zip_code": "6800915",
    "prefecture": "鳥取県",
    "prefecture_kana": "トットリケン",
    "prefecture_code": 31,
    "city": "鳥取市",
    "city_kana": "トットリシ",
    "town": "緑ケ丘",
    "town_kana": "ミドリガオカ",
    "street": null,
    "office_name": null,
    "office_name_kana": null
  },
  "0921": {
    "zip_code": "6800921",
    "prefecture": "鳥取県",
    "prefecture_kana": "トットリケン",
    "prefecture_code": 31,
    "city": "鳥取市",
    "city_kana": "トットリシ",
    "town": "古海",
    "town_kana": "フルミ",
    "street": null,
    "office_name": null,
    "office_name_kana": null
  },
  "0922": {
    "zip_code": "6800922",
    "prefecture": "鳥取県",
    "prefecture_kana": "トットリケン",
    "prefecture_code": 31,
    "city": "鳥取市",
    "city_kana": "トットリシ",
    "town": "菖蒲",
    "town_kana": "ショウブ",
    "street": null,
    "office_name": null,
    "office_name_kana": null
  },
  "0923": {
    "zip_code": "6800923",
    "prefecture": "鳥取県",
    "prefecture_kana": "トットリケン",
    "prefecture_code": 31,
    "city": "鳥取市",
    "city_kana": "トットリシ",
    "town": "服部",
    "town_kana": "ハットリ",
    "street": null,
    "office_name": null,
    "office_name_kana": null
  },
  "0924": {
    "zip_code": "6800924",
    "prefecture": "鳥取県",
    "prefecture_kana": "トットリケン",
    "prefecture_code": 31,
    "city": "鳥取市",
    "city_kana": "トットリシ",
    "town": "野寺",
    "town_kana": "ノデラ",
    "street": null,
    "office_name": null,
    "office_name_kana": null
  },
  "0931": {
    "zip_code": "6800931",
    "prefecture": "鳥取県",
    "prefecture_kana": "トットリケン",
    "prefecture_code": 31,
    "city": "鳥取市",
    "city_kana": "トットリシ",
    "town": "岩吉",
    "town_kana": "イワヨシ",
    "street": null,
    "office_name": null,
    "office_name_kana": null
  },
  "0932": {
    "zip_code": "6800932",
    "prefecture": "鳥取県",
    "prefecture_kana": "トットリケン",
    "prefecture_code": 31,
    "city": "鳥取市",
    "city_kana": "トットリシ",
    "town": "五反田町",
    "town_kana": "ゴタンダチョウ",
    "street": null,
    "office_name": null,
    "office_name_kana": null
  },
  "0933": {
    "zip_code": "6800933",
    "prefecture": "鳥取県",
    "prefecture_kana": "トットリケン",
    "prefecture_code": 31,
    "city": "鳥取市",
    "city_kana": "トットリシ",
    "town": "徳吉",
    "town_kana": "トクヨシ",
    "street": null,
    "office_name": null,
    "office_name_kana": null
  },
  "0934": {
    "zip_code": "6800934",
    "prefecture": "鳥取県",
    "prefecture_kana": "トットリケン",
    "prefecture_code": 31,
    "city": "鳥取市",
    "city_kana": "トットリシ",
    "town": "徳尾",
    "town_kana": "トクノオ",
    "street": null,
    "office_name": null,
    "office_name_kana": null
  },
  "0935": {
    "zip_code": "6800935",
    "prefecture": "鳥取県",
    "prefecture_kana": "トットリケン",
    "prefecture_code": 31,
    "city": "鳥取市",
    "city_kana": "トットリシ",
    "town": "里仁",
    "town_kana": "サトニ",
    "street": null,
    "office_name": null,
    "office_name_kana": null
  },
  "0941": {
    "zip_code": "6800941",
    "prefecture": "鳥取県",
    "prefecture_kana": "トットリケン",
    "prefecture_code": 31,
    "city": "鳥取市",
    "city_kana": "トットリシ",
    "town": "湖山町北",
    "town_kana": "コヤマチョウキタ",
    "street": null,
    "office_name": null,
    "office_name_kana": null
  },
  "0942": {
    "zip_code": "6800942",
    "prefecture": "鳥取県",
    "prefecture_kana": "トットリケン",
    "prefecture_code": 31,
    "city": "鳥取市",
    "city_kana": "トットリシ",
    "town": "湖山町東",
    "town_kana": "コヤマチョウヒガシ",
    "street": null,
    "office_name": null,
    "office_name_kana": null
  },
  "0943": {
    "zip_code": "6800943",
    "prefecture": "鳥取県",
    "prefecture_kana": "トットリケン",
    "prefecture_code": 31,
    "city": "鳥取市",
    "city_kana": "トットリシ",
    "town": "足山",
    "town_kana": "タリヤマ",
    "street": null,
    "office_name": null,
    "office_name_kana": null
  },
  "0944": {
    "zip_code": "6800944",
    "prefecture": "鳥取県",
    "prefecture_kana": "トットリケン",
    "prefecture_code": 31,
    "city": "鳥取市",
    "city_kana": "トットリシ",
    "town": "布勢",
    "town_kana": "フセ",
    "street": null,
    "office_name": null,
    "office_name_kana": null
  },
  "0945": {
    "zip_code": "6800945",
    "prefecture": "鳥取県",
    "prefecture_kana": "トットリケン",
    "prefecture_code": 31,
    "city": "鳥取市",
    "city_kana": "トットリシ",
    "town": "湖山町南",
    "town_kana": "コヤマチョウミナミ",
    "street": null,
    "office_name": null,
    "office_name_kana": null
  },
  "0946": {
    "zip_code": "6800946",
    "prefecture": "鳥取県",
    "prefecture_kana": "トットリケン",
    "prefecture_code": 31,
    "city": "鳥取市",
    "city_kana": "トットリシ",
    "town": "湖山町",
    "town_kana": "コヤマチョウ",
    "street": null,
    "office_name": null,
    "office_name_kana": null
  },
  "0947": {
    "zip_code": "6800947",
    "prefecture": "鳥取県",
    "prefecture_kana": "トットリケン",
    "prefecture_code": 31,
    "city": "鳥取市",
    "city_kana": "トットリシ",
    "town": "湖山町西",
    "town_kana": "コヤマチョウニシ",
    "street": null,
    "office_name": null,
    "office_name_kana": null
  },
  "1131": {
    "zip_code": "6801131",
    "prefecture": "鳥取県",
    "prefecture_kana": "トットリケン",
    "prefecture_code": 31,
    "city": "鳥取市",
    "city_kana": "トットリシ",
    "town": "馬場",
    "town_kana": "ババ",
    "street": null,
    "office_name": null,
    "office_name_kana": null
  },
  "1132": {
    "zip_code": "6801132",
    "prefecture": "鳥取県",
    "prefecture_kana": "トットリケン",
    "prefecture_code": 31,
    "city": "鳥取市",
    "city_kana": "トットリシ",
    "town": "国安",
    "town_kana": "クニヤス",
    "street": null,
    "office_name": null,
    "office_name_kana": null
  },
  "1133": {
    "zip_code": "6801133",
    "prefecture": "鳥取県",
    "prefecture_kana": "トットリケン",
    "prefecture_code": 31,
    "city": "鳥取市",
    "city_kana": "トットリシ",
    "town": "源太",
    "town_kana": "ゲンタ",
    "street": null,
    "office_name": null,
    "office_name_kana": null
  },
  "1141": {
    "zip_code": "6801141",
    "prefecture": "鳥取県",
    "prefecture_kana": "トットリケン",
    "prefecture_code": 31,
    "city": "鳥取市",
    "city_kana": "トットリシ",
    "town": "蔵田",
    "town_kana": "クラダ",
    "street": null,
    "office_name": null,
    "office_name_kana": null
  },
  "1142": {
    "zip_code": "6801142",
    "prefecture": "鳥取県",
    "prefecture_kana": "トットリケン",
    "prefecture_code": 31,
    "city": "鳥取市",
    "city_kana": "トットリシ",
    "town": "橋本",
    "town_kana": "ハシモト",
    "street": null,
    "office_name": null,
    "office_name_kana": null
  },
  "1143": {
    "zip_code": "6801143",
    "prefecture": "鳥取県",
    "prefecture_kana": "トットリケン",
    "prefecture_code": 31,
    "city": "鳥取市",
    "city_kana": "トットリシ",
    "town": "八坂",
    "town_kana": "ハツサカ",
    "street": null,
    "office_name": null,
    "office_name_kana": null
  },
  "1144": {
    "zip_code": "6801144",
    "prefecture": "鳥取県",
    "prefecture_kana": "トットリケン",
    "prefecture_code": 31,
    "city": "鳥取市",
    "city_kana": "トットリシ",
    "town": "円通寺",
    "town_kana": "エンツウジ",
    "street": null,
    "office_name": null,
    "office_name_kana": null
  },
  "1145": {
    "zip_code": "6801145",
    "prefecture": "鳥取県",
    "prefecture_kana": "トットリケン",
    "prefecture_code": 31,
    "city": "鳥取市",
    "city_kana": "トットリシ",
    "town": "西円通寺",
    "town_kana": "ニシエンツウジ",
    "street": null,
    "office_name": null,
    "office_name_kana": null
  },
  "1146": {
    "zip_code": "6801146",
    "prefecture": "鳥取県",
    "prefecture_kana": "トットリケン",
    "prefecture_code": 31,
    "city": "鳥取市",
    "city_kana": "トットリシ",
    "town": "赤子田",
    "town_kana": "アコダ",
    "street": null,
    "office_name": null,
    "office_name_kana": null
  },
  "1151": {
    "zip_code": "6801151",
    "prefecture": "鳥取県",
    "prefecture_kana": "トットリケン",
    "prefecture_code": 31,
    "city": "鳥取市",
    "city_kana": "トットリシ",
    "town": "倭文",
    "town_kana": "シトリ",
    "street": null,
    "office_name": null,
    "office_name_kana": null
  },
  "1152": {
    "zip_code": "6801152",
    "prefecture": "鳥取県",
    "prefecture_kana": "トットリケン",
    "prefecture_code": 31,
    "city": "鳥取市",
    "city_kana": "トットリシ",
    "town": "玉津",
    "town_kana": "タマヅ",
    "street": null,
    "office_name": null,
    "office_name_kana": null
  },
  "1153": {
    "zip_code": "6801153",
    "prefecture": "鳥取県",
    "prefecture_kana": "トットリケン",
    "prefecture_code": 31,
    "city": "鳥取市",
    "city_kana": "トットリシ",
    "town": "長谷",
    "town_kana": "ハセ",
    "street": null,
    "office_name": null,
    "office_name_kana": null
  },
  "1154": {
    "zip_code": "6801154",
    "prefecture": "鳥取県",
    "prefecture_kana": "トットリケン",
    "prefecture_code": 31,
    "city": "鳥取市",
    "city_kana": "トットリシ",
    "town": "下砂見",
    "town_kana": "シモスナミ",
    "street": null,
    "office_name": null,
    "office_name_kana": null
  },
  "1155": {
    "zip_code": "6801155",
    "prefecture": "鳥取県",
    "prefecture_kana": "トットリケン",
    "prefecture_code": 31,
    "city": "鳥取市",
    "city_kana": "トットリシ",
    "town": "中砂見",
    "town_kana": "ナカスナミ",
    "street": null,
    "office_name": null,
    "office_name_kana": null
  },
  "1156": {
    "zip_code": "6801156",
    "prefecture": "鳥取県",
    "prefecture_kana": "トットリケン",
    "prefecture_code": 31,
    "city": "鳥取市",
    "city_kana": "トットリシ",
    "town": "上砂見",
    "town_kana": "カミスナミ",
    "street": null,
    "office_name": null,
    "office_name_kana": null
  },
  "1157": {
    "zip_code": "6801157",
    "prefecture": "鳥取県",
    "prefecture_kana": "トットリケン",
    "prefecture_code": 31,
    "city": "鳥取市",
    "city_kana": "トットリシ",
    "town": "岩坪",
    "town_kana": "イワツボ",
    "street": null,
    "office_name": null,
    "office_name_kana": null
  },
  "1161": {
    "zip_code": "6801161",
    "prefecture": "鳥取県",
    "prefecture_kana": "トットリケン",
    "prefecture_code": 31,
    "city": "鳥取市",
    "city_kana": "トットリシ",
    "town": "向国安",
    "town_kana": "ムコウグニヤス",
    "street": null,
    "office_name": null,
    "office_name_kana": null
  },
  "1162": {
    "zip_code": "6801162",
    "prefecture": "鳥取県",
    "prefecture_kana": "トットリケン",
    "prefecture_code": 31,
    "city": "鳥取市",
    "city_kana": "トットリシ",
    "town": "竹生",
    "town_kana": "タケナリ",
    "street": null,
    "office_name": null,
    "office_name_kana": null
  },
  "1163": {
    "zip_code": "6801163",
    "prefecture": "鳥取県",
    "prefecture_kana": "トットリケン",
    "prefecture_code": 31,
    "city": "鳥取市",
    "city_kana": "トットリシ",
    "town": "横枕",
    "town_kana": "ヨコマクラ",
    "street": null,
    "office_name": null,
    "office_name_kana": null
  },
  "1164": {
    "zip_code": "6801164",
    "prefecture": "鳥取県",
    "prefecture_kana": "トットリケン",
    "prefecture_code": 31,
    "city": "鳥取市",
    "city_kana": "トットリシ",
    "town": "猪子",
    "town_kana": "イノコ",
    "street": null,
    "office_name": null,
    "office_name_kana": null
  },
  "1165": {
    "zip_code": "6801165",
    "prefecture": "鳥取県",
    "prefecture_kana": "トットリケン",
    "prefecture_code": 31,
    "city": "鳥取市",
    "city_kana": "トットリシ",
    "town": "下味野",
    "town_kana": "シモアジノ",
    "street": null,
    "office_name": null,
    "office_name_kana": null
  },
  "1166": {
    "zip_code": "6801166",
    "prefecture": "鳥取県",
    "prefecture_kana": "トットリケン",
    "prefecture_code": 31,
    "city": "鳥取市",
    "city_kana": "トットリシ",
    "town": "朝月",
    "town_kana": "アサヅキ",
    "street": null,
    "office_name": null,
    "office_name_kana": null
  },
  "1167": {
    "zip_code": "6801167",
    "prefecture": "鳥取県",
    "prefecture_kana": "トットリケン",
    "prefecture_code": 31,
    "city": "鳥取市",
    "city_kana": "トットリシ",
    "town": "上味野",
    "town_kana": "カミアジノ",
    "street": null,
    "office_name": null,
    "office_name_kana": null
  },
  "1171": {
    "zip_code": "6801171",
    "prefecture": "鳥取県",
    "prefecture_kana": "トットリケン",
    "prefecture_code": 31,
    "city": "鳥取市",
    "city_kana": "トットリシ",
    "town": "本高",
    "town_kana": "モトダカ",
    "street": null,
    "office_name": null,
    "office_name_kana": null
  },
  "1172": {
    "zip_code": "6801172",
    "prefecture": "鳥取県",
    "prefecture_kana": "トットリケン",
    "prefecture_code": 31,
    "city": "鳥取市",
    "city_kana": "トットリシ",
    "town": "北村",
    "town_kana": "キタムラ",
    "street": null,
    "office_name": null,
    "office_name_kana": null
  },
  "1173": {
    "zip_code": "6801173",
    "prefecture": "鳥取県",
    "prefecture_kana": "トットリケン",
    "prefecture_code": 31,
    "city": "鳥取市",
    "city_kana": "トットリシ",
    "town": "西今在家",
    "town_kana": "ニシイマザイケ",
    "street": null,
    "office_name": null,
    "office_name_kana": null
  },
  "1174": {
    "zip_code": "6801174",
    "prefecture": "鳥取県",
    "prefecture_kana": "トットリケン",
    "prefecture_code": 31,
    "city": "鳥取市",
    "city_kana": "トットリシ",
    "town": "篠坂",
    "town_kana": "シノザカ",
    "street": null,
    "office_name": null,
    "office_name_kana": null
  },
  "1175": {
    "zip_code": "6801175",
    "prefecture": "鳥取県",
    "prefecture_kana": "トットリケン",
    "prefecture_code": 31,
    "city": "鳥取市",
    "city_kana": "トットリシ",
    "town": "中村",
    "town_kana": "ナカムラ",
    "street": null,
    "office_name": null,
    "office_name_kana": null
  },
  "1176": {
    "zip_code": "6801176",
    "prefecture": "鳥取県",
    "prefecture_kana": "トットリケン",
    "prefecture_code": 31,
    "city": "鳥取市",
    "city_kana": "トットリシ",
    "town": "有富",
    "town_kana": "アリドメ",
    "street": null,
    "office_name": null,
    "office_name_kana": null
  },
  "1177": {
    "zip_code": "6801177",
    "prefecture": "鳥取県",
    "prefecture_kana": "トットリケン",
    "prefecture_code": 31,
    "city": "鳥取市",
    "city_kana": "トットリシ",
    "town": "高路",
    "town_kana": "コウロ",
    "street": null,
    "office_name": null,
    "office_name_kana": null
  },
  "1192": {
    "zip_code": "6801192",
    "prefecture": "鳥取県",
    "prefecture_kana": "トットリケン",
    "prefecture_code": 31,
    "city": "鳥取市",
    "city_kana": "トットリシ",
    "town": "下味野",
    "town_kana": "シモアジノ",
    "street": "７１９",
    "office_name": "鳥取刑務所",
    "office_name_kana": "トツトリケイムシヨ"
  },
  "1201": {
    "zip_code": "6801201",
    "prefecture": "鳥取県",
    "prefecture_kana": "トットリケン",
    "prefecture_code": 31,
    "city": "鳥取市",
    "city_kana": "トットリシ",
    "town": "河原町袋河原",
    "town_kana": "カワハラチョウフクロガワラ",
    "street": null,
    "office_name": null,
    "office_name_kana": null
  },
  "1202": {
    "zip_code": "6801202",
    "prefecture": "鳥取県",
    "prefecture_kana": "トットリケン",
    "prefecture_code": 31,
    "city": "鳥取市",
    "city_kana": "トットリシ",
    "town": "河原町布袋",
    "town_kana": "カワハラチョウホテイ",
    "street": null,
    "office_name": null,
    "office_name_kana": null
  },
  "1203": {
    "zip_code": "6801203",
    "prefecture": "鳥取県",
    "prefecture_kana": "トットリケン",
    "prefecture_code": 31,
    "city": "鳥取市",
    "city_kana": "トットリシ",
    "town": "河原町稲常",
    "town_kana": "カワハラチョウイナツネ",
    "street": null,
    "office_name": null,
    "office_name_kana": null
  },
  "1204": {
    "zip_code": "6801204",
    "prefecture": "鳥取県",
    "prefecture_kana": "トットリケン",
    "prefecture_code": 31,
    "city": "鳥取市",
    "city_kana": "トットリシ",
    "town": "河原町片山",
    "town_kana": "カワハラチョウカタヤマ",
    "street": null,
    "office_name": null,
    "office_name_kana": null
  },
  "1205": {
    "zip_code": "6801205",
    "prefecture": "鳥取県",
    "prefecture_kana": "トットリケン",
    "prefecture_code": 31,
    "city": "鳥取市",
    "city_kana": "トットリシ",
    "town": "河原町今在家",
    "town_kana": "カワハラチョウイマザイケ",
    "street": null,
    "office_name": null,
    "office_name_kana": null
  },
  "1206": {
    "zip_code": "6801206",
    "prefecture": "鳥取県",
    "prefecture_kana": "トットリケン",
    "prefecture_code": 31,
    "city": "鳥取市",
    "city_kana": "トットリシ",
    "town": "河原町三谷",
    "town_kana": "カワハラチョウミタニ",
    "street": null,
    "office_name": null,
    "office_name_kana": null
  },
  "1207": {
    "zip_code": "6801207",
    "prefecture": "鳥取県",
    "prefecture_kana": "トットリケン",
    "prefecture_code": 31,
    "city": "鳥取市",
    "city_kana": "トットリシ",
    "town": "河原町郷原",
    "town_kana": "カワハラチョウゴウバラ",
    "street": null,
    "office_name": null,
    "office_name_kana": null
  },
  "1208": {
    "zip_code": "6801208",
    "prefecture": "鳥取県",
    "prefecture_kana": "トットリケン",
    "prefecture_code": 31,
    "city": "鳥取市",
    "city_kana": "トットリシ",
    "town": "河原町鮎ケ丘",
    "town_kana": "カワハラチョウアユガオカ",
    "street": null,
    "office_name": null,
    "office_name_kana": null
  },
  "1209": {
    "zip_code": "6801209",
    "prefecture": "鳥取県",
    "prefecture_kana": "トットリケン",
    "prefecture_code": 31,
    "city": "鳥取市",
    "city_kana": "トットリシ",
    "town": "河原町西円通寺",
    "town_kana": "カワハラチョウニシエンツウジ",
    "street": null,
    "office_name": null,
    "office_name_kana": null
  },
  "1211": {
    "zip_code": "6801211",
    "prefecture": "鳥取県",
    "prefecture_kana": "トットリケン",
    "prefecture_code": 31,
    "city": "鳥取市",
    "city_kana": "トットリシ",
    "town": "河原町山手",
    "town_kana": "カワハラチョウヤマテ",
    "street": null,
    "office_name": null,
    "office_name_kana": null
  },
  "1212": {
    "zip_code": "6801212",
    "prefecture": "鳥取県",
    "prefecture_kana": "トットリケン",
    "prefecture_code": 31,
    "city": "鳥取市",
    "city_kana": "トットリシ",
    "town": "河原町徳吉",
    "town_kana": "カワハラチョウトクヨシ",
    "street": null,
    "office_name": null,
    "office_name_kana": null
  },
  "1213": {
    "zip_code": "6801213",
    "prefecture": "鳥取県",
    "prefecture_kana": "トットリケン",
    "prefecture_code": 31,
    "city": "鳥取市",
    "city_kana": "トットリシ",
    "town": "河原町高福",
    "town_kana": "カワハラチョウタカフク",
    "street": null,
    "office_name": null,
    "office_name_kana": null
  },
  "1214": {
    "zip_code": "6801214",
    "prefecture": "鳥取県",
    "prefecture_kana": "トットリケン",
    "prefecture_code": 31,
    "city": "鳥取市",
    "city_kana": "トットリシ",
    "town": "河原町八日市",
    "town_kana": "カワハラチョウヨウカイチ",
    "street": null,
    "office_name": null,
    "office_name_kana": null
  },
  "1215": {
    "zip_code": "6801215",
    "prefecture": "鳥取県",
    "prefecture_kana": "トットリケン",
    "prefecture_code": 31,
    "city": "鳥取市",
    "city_kana": "トットリシ",
    "town": "河原町和奈見",
    "town_kana": "カワハラチョウワナミ",
    "street": null,
    "office_name": null,
    "office_name_kana": null
  },
  "1216": {
    "zip_code": "6801216",
    "prefecture": "鳥取県",
    "prefecture_kana": "トットリケン",
    "prefecture_code": 31,
    "city": "鳥取市",
    "city_kana": "トットリシ",
    "town": "河原町釜口",
    "town_kana": "カワハラチョウカマグチ",
    "street": null,
    "office_name": null,
    "office_name_kana": null
  },
  "1221": {
    "zip_code": "6801221",
    "prefecture": "鳥取県",
    "prefecture_kana": "トットリケン",
    "prefecture_code": 31,
    "city": "鳥取市",
    "city_kana": "トットリシ",
    "town": "河原町渡一木",
    "town_kana": "カワハラチョウワタリヒトツギ",
    "street": null,
    "office_name": null,
    "office_name_kana": null
  },
  "1222": {
    "zip_code": "6801222",
    "prefecture": "鳥取県",
    "prefecture_kana": "トットリケン",
    "prefecture_code": 31,
    "city": "鳥取市",
    "city_kana": "トットリシ",
    "town": "河原町曳田",
    "town_kana": "カワハラチョウヒケタ",
    "street": null,
    "office_name": null,
    "office_name_kana": null
  },
  "1223": {
    "zip_code": "6801223",
    "prefecture": "鳥取県",
    "prefecture_kana": "トットリケン",
    "prefecture_code": 31,
    "city": "鳥取市",
    "city_kana": "トットリシ",
    "town": "河原町天神原",
    "town_kana": "カワハラチョウテンジンバラ",
    "street": null,
    "office_name": null,
    "office_name_kana": null
  },
  "1224": {
    "zip_code": "6801224",
    "prefecture": "鳥取県",
    "prefecture_kana": "トットリケン",
    "prefecture_code": 31,
    "city": "鳥取市",
    "city_kana": "トットリシ",
    "town": "河原町中井",
    "town_kana": "カワハラチョウナカイ",
    "street": null,
    "office_name": null,
    "office_name_kana": null
  },
  "1225": {
    "zip_code": "6801225",
    "prefecture": "鳥取県",
    "prefecture_kana": "トットリケン",
    "prefecture_code": 31,
    "city": "鳥取市",
    "city_kana": "トットリシ",
    "town": "河原町牛戸",
    "town_kana": "カワハラチョウウシト",
    "street": null,
    "office_name": null,
    "office_name_kana": null
  },
  "1231": {
    "zip_code": "6801231",
    "prefecture": "鳥取県",
    "prefecture_kana": "トットリケン",
    "prefecture_code": 31,
    "city": "鳥取市",
    "city_kana": "トットリシ",
    "town": "河原町湯谷",
    "town_kana": "カワハラチョウユダニ",
    "street": null,
    "office_name": null,
    "office_name_kana": null
  },
  "1232": {
    "zip_code": "6801232",
    "prefecture": "鳥取県",
    "prefecture_kana": "トットリケン",
    "prefecture_code": 31,
    "city": "鳥取市",
    "city_kana": "トットリシ",
    "town": "河原町小畑",
    "town_kana": "カワハラチョウオバタ",
    "street": null,
    "office_name": null,
    "office_name_kana": null
  },
  "1233": {
    "zip_code": "6801233",
    "prefecture": "鳥取県",
    "prefecture_kana": "トットリケン",
    "prefecture_code": 31,
    "city": "鳥取市",
    "city_kana": "トットリシ",
    "town": "河原町弓河内",
    "town_kana": "カワハラチョウユミゴウチ",
    "street": null,
    "office_name": null,
    "office_name_kana": null
  },
  "1234": {
    "zip_code": "6801234",
    "prefecture": "鳥取県",
    "prefecture_kana": "トットリケン",
    "prefecture_code": 31,
    "city": "鳥取市",
    "city_kana": "トットリシ",
    "town": "河原町北村",
    "town_kana": "カワハラチョウキタムラ",
    "street": null,
    "office_name": null,
    "office_name_kana": null
  },
  "1241": {
    "zip_code": "6801241",
    "prefecture": "鳥取県",
    "prefecture_kana": "トットリケン",
    "prefecture_code": 31,
    "city": "鳥取市",
    "city_kana": "トットリシ",
    "town": "河原町長瀬",
    "town_kana": "カワハラチョウナガセ",
    "street": null,
    "office_name": null,
    "office_name_kana": null
  },
  "1242": {
    "zip_code": "6801242",
    "prefecture": "鳥取県",
    "prefecture_kana": "トットリケン",
    "prefecture_code": 31,
    "city": "鳥取市",
    "city_kana": "トットリシ",
    "town": "河原町谷一木",
    "town_kana": "カワハラチョウタニヒトツギ",
    "street": null,
    "office_name": null,
    "office_name_kana": null
  },
  "1243": {
    "zip_code": "6801243",
    "prefecture": "鳥取県",
    "prefecture_kana": "トットリケン",
    "prefecture_code": 31,
    "city": "鳥取市",
    "city_kana": "トットリシ",
    "town": "河原町佐貫",
    "town_kana": "カワハラチョウサヌキ",
    "street": null,
    "office_name": null,
    "office_name_kana": null
  },
  "1244": {
    "zip_code": "6801244",
    "prefecture": "鳥取県",
    "prefecture_kana": "トットリケン",
    "prefecture_code": 31,
    "city": "鳥取市",
    "city_kana": "トットリシ",
    "town": "河原町水根",
    "town_kana": "カワハラチョウミズネ",
    "street": null,
    "office_name": null,
    "office_name_kana": null
  },
  "1245": {
    "zip_code": "6801245",
    "prefecture": "鳥取県",
    "prefecture_kana": "トットリケン",
    "prefecture_code": 31,
    "city": "鳥取市",
    "city_kana": "トットリシ",
    "town": "河原町小倉",
    "town_kana": "カワハラチョウオグラ",
    "street": null,
    "office_name": null,
    "office_name_kana": null
  },
  "1246": {
    "zip_code": "6801246",
    "prefecture": "鳥取県",
    "prefecture_kana": "トットリケン",
    "prefecture_code": 31,
    "city": "鳥取市",
    "city_kana": "トットリシ",
    "town": "河原町山上",
    "town_kana": "カワハラチョウヤマガミ",
    "street": null,
    "office_name": null,
    "office_name_kana": null
  },
  "1251": {
    "zip_code": "6801251",
    "prefecture": "鳥取県",
    "prefecture_kana": "トットリケン",
    "prefecture_code": 31,
    "city": "鳥取市",
    "city_kana": "トットリシ",
    "town": "河原町河原",
    "town_kana": "カワハラチョウカワハラ",
    "street": null,
    "office_name": null,
    "office_name_kana": null
  },
  "1252": {
    "zip_code": "6801252",
    "prefecture": "鳥取県",
    "prefecture_kana": "トットリケン",
    "prefecture_code": 31,
    "city": "鳥取市",
    "city_kana": "トットリシ",
    "town": "河原町本鹿",
    "town_kana": "カワハラチョウホンガ",
    "street": null,
    "office_name": null,
    "office_name_kana": null
  },
  "1253": {
    "zip_code": "6801253",
    "prefecture": "鳥取県",
    "prefecture_kana": "トットリケン",
    "prefecture_code": 31,
    "city": "鳥取市",
    "city_kana": "トットリシ",
    "town": "河原町小河内",
    "town_kana": "カワハラチョウオゴウチ",
    "street": null,
    "office_name": null,
    "office_name_kana": null
  },
  "1254": {
    "zip_code": "6801254",
    "prefecture": "鳥取県",
    "prefecture_kana": "トットリケン",
    "prefecture_code": 31,
    "city": "鳥取市",
    "city_kana": "トットリシ",
    "town": "河原町神馬",
    "town_kana": "カワハラチョウカンバ",
    "street": null,
    "office_name": null,
    "office_name_kana": null
  },
  "1411": {
    "zip_code": "6801411",
    "prefecture": "鳥取県",
    "prefecture_kana": "トットリケン",
    "prefecture_code": 31,
    "city": "鳥取市",
    "city_kana": "トットリシ",
    "town": "嶋",
    "town_kana": "シマ",
    "street": null,
    "office_name": null,
    "office_name_kana": null
  },
  "1412": {
    "zip_code": "6801412",
    "prefecture": "鳥取県",
    "prefecture_kana": "トットリケン",
    "prefecture_code": 31,
    "city": "鳥取市",
    "city_kana": "トットリシ",
    "town": "宮谷",
    "town_kana": "ミヤダニ",
    "street": null,
    "office_name": null,
    "office_name_kana": null
  },
  "1413": {
    "zip_code": "6801413",
    "prefecture": "鳥取県",
    "prefecture_kana": "トットリケン",
    "prefecture_code": 31,
    "city": "鳥取市",
    "city_kana": "トットリシ",
    "town": "野坂",
    "town_kana": "ノサカ",
    "street": null,
    "office_name": null,
    "office_name_kana": null
  },
  "1414": {
    "zip_code": "6801414",
    "prefecture": "鳥取県",
    "prefecture_kana": "トットリケン",
    "prefecture_code": 31,
    "city": "鳥取市",
    "city_kana": "トットリシ",
    "town": "下段",
    "town_kana": "シモダン",
    "street": null,
    "office_name": null,
    "office_name_kana": null
  },
  "1415": {
    "zip_code": "6801415",
    "prefecture": "鳥取県",
    "prefecture_kana": "トットリケン",
    "prefecture_code": 31,
    "city": "鳥取市",
    "city_kana": "トットリシ",
    "town": "大塚",
    "town_kana": "オオヅカ",
    "street": null,
    "office_name": null,
    "office_name_kana": null
  },
  "1416": {
    "zip_code": "6801416",
    "prefecture": "鳥取県",
    "prefecture_kana": "トットリケン",
    "prefecture_code": 31,
    "city": "鳥取市",
    "city_kana": "トットリシ",
    "town": "高住",
    "town_kana": "タカズミ",
    "street": null,
    "office_name": null,
    "office_name_kana": null
  },
  "1417": {
    "zip_code": "6801417",
    "prefecture": "鳥取県",
    "prefecture_kana": "トットリケン",
    "prefecture_code": 31,
    "city": "鳥取市",
    "city_kana": "トットリシ",
    "town": "桂見",
    "town_kana": "カツラミ",
    "street": null,
    "office_name": null,
    "office_name_kana": null
  },
  "1418": {
    "zip_code": "6801418",
    "prefecture": "鳥取県",
    "prefecture_kana": "トットリケン",
    "prefecture_code": 31,
    "city": "鳥取市",
    "city_kana": "トットリシ",
    "town": "大桷",
    "town_kana": "ダイカク",
    "street": null,
    "office_name": null,
    "office_name_kana": null
  },
  "1421": {
    "zip_code": "6801421",
    "prefecture": "鳥取県",
    "prefecture_kana": "トットリケン",
    "prefecture_code": 31,
    "city": "鳥取市",
    "city_kana": "トットリシ",
    "town": "上段",
    "town_kana": "カミダン",
    "street": null,
    "office_name": null,
    "office_name_kana": null
  },
  "1422": {
    "zip_code": "6801422",
    "prefecture": "鳥取県",
    "prefecture_kana": "トットリケン",
    "prefecture_code": 31,
    "city": "鳥取市",
    "city_kana": "トットリシ",
    "town": "上原",
    "town_kana": "ウエバラ",
    "street": null,
    "office_name": null,
    "office_name_kana": null
  },
  "1423": {
    "zip_code": "6801423",
    "prefecture": "鳥取県",
    "prefecture_kana": "トットリケン",
    "prefecture_code": 31,
    "city": "鳥取市",
    "city_kana": "トットリシ",
    "town": "松上",
    "town_kana": "マツガミ",
    "street": null,
    "office_name": null,
    "office_name_kana": null
  },
  "1424": {
    "zip_code": "6801424",
    "prefecture": "鳥取県",
    "prefecture_kana": "トットリケン",
    "prefecture_code": 31,
    "city": "鳥取市",
    "city_kana": "トットリシ",
    "town": "槇原",
    "town_kana": "マキバラ",
    "street": null,
    "office_name": null,
    "office_name_kana": null
  },
  "1425": {
    "zip_code": "6801425",
    "prefecture": "鳥取県",
    "prefecture_kana": "トットリケン",
    "prefecture_code": 31,
    "city": "鳥取市",
    "city_kana": "トットリシ",
    "town": "河内",
    "town_kana": "コウチ",
    "street": null,
    "office_name": null,
    "office_name_kana": null
  },
  "1426": {
    "zip_code": "6801426",
    "prefecture": "鳥取県",
    "prefecture_kana": "トットリケン",
    "prefecture_code": 31,
    "city": "鳥取市",
    "city_kana": "トットリシ",
    "town": "細見",
    "town_kana": "ホソミ",
    "street": null,
    "office_name": null,
    "office_name_kana": null
  },
  "1427": {
    "zip_code": "6801427",
    "prefecture": "鳥取県",
    "prefecture_kana": "トットリケン",
    "prefecture_code": 31,
    "city": "鳥取市",
    "city_kana": "トットリシ",
    "town": "尾崎",
    "town_kana": "オサキ",
    "street": null,
    "office_name": null,
    "office_name_kana": null
  },
  "1428": {
    "zip_code": "6801428",
    "prefecture": "鳥取県",
    "prefecture_kana": "トットリケン",
    "prefecture_code": 31,
    "city": "鳥取市",
    "city_kana": "トットリシ",
    "town": "三山口",
    "town_kana": "ミヤマグチ",
    "street": null,
    "office_name": null,
    "office_name_kana": null
  },
  "1431": {
    "zip_code": "6801431",
    "prefecture": "鳥取県",
    "prefecture_kana": "トットリケン",
    "prefecture_code": 31,
    "city": "鳥取市",
    "city_kana": "トットリシ",
    "town": "妙徳寺",
    "town_kana": "ミョウトクジ",
    "street": null,
    "office_name": null,
    "office_name_kana": null
  },
  "1432": {
    "zip_code": "6801432",
    "prefecture": "鳥取県",
    "prefecture_kana": "トットリケン",
    "prefecture_code": 31,
    "city": "鳥取市",
    "city_kana": "トットリシ",
    "town": "双六原",
    "town_kana": "ソウロクバラ",
    "street": null,
    "office_name": null,
    "office_name_kana": null
  },
  "1433": {
    "zip_code": "6801433",
    "prefecture": "鳥取県",
    "prefecture_kana": "トットリケン",
    "prefecture_code": 31,
    "city": "鳥取市",
    "city_kana": "トットリシ",
    "town": "矢矯",
    "town_kana": "ヤハギ",
    "street": null,
    "office_name": null,
    "office_name_kana": null
  },
  "1434": {
    "zip_code": "6801434",
    "prefecture": "鳥取県",
    "prefecture_kana": "トットリケン",
    "prefecture_code": 31,
    "city": "鳥取市",
    "city_kana": "トットリシ",
    "town": "洞谷",
    "town_kana": "ホラダニ",
    "street": null,
    "office_name": null,
    "office_name_kana": null
  },
  "1435": {
    "zip_code": "6801435",
    "prefecture": "鳥取県",
    "prefecture_kana": "トットリケン",
    "prefecture_code": 31,
    "city": "鳥取市",
    "city_kana": "トットリシ",
    "town": "瀬田蔵",
    "town_kana": "セタグラ",
    "street": null,
    "office_name": null,
    "office_name_kana": null
  },
  "1436": {
    "zip_code": "6801436",
    "prefecture": "鳥取県",
    "prefecture_kana": "トットリケン",
    "prefecture_code": 31,
    "city": "鳥取市",
    "city_kana": "トットリシ",
    "town": "長柄",
    "town_kana": "ナガラ",
    "street": null,
    "office_name": null,
    "office_name_kana": null
  },
  "1437": {
    "zip_code": "6801437",
    "prefecture": "鳥取県",
    "prefecture_kana": "トットリケン",
    "prefecture_code": 31,
    "city": "鳥取市",
    "city_kana": "トットリシ",
    "town": "大畑",
    "town_kana": "オオバタケ",
    "street": null,
    "office_name": null,
    "office_name_kana": null
  },
  "1438": {
    "zip_code": "6801438",
    "prefecture": "鳥取県",
    "prefecture_kana": "トットリケン",
    "prefecture_code": 31,
    "city": "鳥取市",
    "city_kana": "トットリシ",
    "town": "福井",
    "town_kana": "フクイ",
    "street": null,
    "office_name": null,
    "office_name_kana": null
  },
  "1439": {
    "zip_code": "6801439",
    "prefecture": "鳥取県",
    "prefecture_kana": "トットリケン",
    "prefecture_code": 31,
    "city": "鳥取市",
    "city_kana": "トットリシ",
    "town": "金沢",
    "town_kana": "カナザワ",
    "street": null,
    "office_name": null,
    "office_name_kana": null
  },
  "1441": {
    "zip_code": "6801441",
    "prefecture": "鳥取県",
    "prefecture_kana": "トットリケン",
    "prefecture_code": 31,
    "city": "鳥取市",
    "city_kana": "トットリシ",
    "town": "良田",
    "town_kana": "ヨシダ",
    "street": null,
    "office_name": null,
    "office_name_kana": null
  },
  "1442": {
    "zip_code": "6801442",
    "prefecture": "鳥取県",
    "prefecture_kana": "トットリケン",
    "prefecture_code": 31,
    "city": "鳥取市",
    "city_kana": "トットリシ",
    "town": "吉岡温泉町",
    "town_kana": "ヨシオカオンセンチョウ",
    "street": null,
    "office_name": null,
    "office_name_kana": null
  },
  "1443": {
    "zip_code": "6801443",
    "prefecture": "鳥取県",
    "prefecture_kana": "トットリケン",
    "prefecture_code": 31,
    "city": "鳥取市",
    "city_kana": "トットリシ",
    "town": "六反田",
    "town_kana": "ロクタンダ",
    "street": null,
    "office_name": null,
    "office_name_kana": null
  },
  "1444": {
    "zip_code": "6801444",
    "prefecture": "鳥取県",
    "prefecture_kana": "トットリケン",
    "prefecture_code": 31,
    "city": "鳥取市",
    "city_kana": "トットリシ",
    "town": "松原",
    "town_kana": "マツバラ",
    "street": null,
    "office_name": null,
    "office_name_kana": null
  },
  "8021": [
    {
      "zip_code": "6808021",
      "prefecture": "鳥取県",
      "prefecture_kana": "トットリケン",
      "prefecture_code": 31,
      "city": "鳥取市",
      "city_kana": "トットリシ",
      "town": "福部町久志羅",
      "town_kana": "フクベチョウクジラ",
      "street": null,
      "office_name": null,
      "office_name_kana": null
    },
    {
      "zip_code": "6808021",
      "prefecture": "鳥取県",
      "prefecture_kana": "トットリケン",
      "prefecture_code": 31,
      "city": "鳥取市",
      "city_kana": "トットリシ",
      "town": "福部町久志羅上野",
      "town_kana": "フクベチョウクジラウエノ",
      "street": null,
      "office_name": null,
      "office_name_kana": null
    }
  ],
  "8022": [
    {
      "zip_code": "6808022",
      "prefecture": "鳥取県",
      "prefecture_kana": "トットリケン",
      "prefecture_code": 31,
      "city": "鳥取市",
      "city_kana": "トットリシ",
      "town": "福部町左近",
      "town_kana": "フクベチョウサコ",
      "street": null,
      "office_name": null,
      "office_name_kana": null
    },
    {
      "zip_code": "6808022",
      "prefecture": "鳥取県",
      "prefecture_kana": "トットリケン",
      "prefecture_code": 31,
      "city": "鳥取市",
      "city_kana": "トットリシ",
      "town": "福部町左近上野",
      "town_kana": "フクベチョウサコウエノ",
      "street": null,
      "office_name": null,
      "office_name_kana": null
    }
  ],
  "8062": {
    "zip_code": "6808062",
    "prefecture": "鳥取県",
    "prefecture_kana": "トットリケン",
    "prefecture_code": 31,
    "city": "鳥取市",
    "city_kana": "トットリシ",
    "town": "国府町稲葉丘",
    "town_kana": "コクフチョウイナバガオカ",
    "street": null,
    "office_name": null,
    "office_name_kana": null
  },
  "8063": {
    "zip_code": "6808063",
    "prefecture": "鳥取県",
    "prefecture_kana": "トットリケン",
    "prefecture_code": 31,
    "city": "鳥取市",
    "city_kana": "トットリシ",
    "town": "国府町奥谷",
    "town_kana": "コクフチョウオクダニ",
    "street": null,
    "office_name": null,
    "office_name_kana": null
  },
  "8064": {
    "zip_code": "6808064",
    "prefecture": "鳥取県",
    "prefecture_kana": "トットリケン",
    "prefecture_code": 31,
    "city": "鳥取市",
    "city_kana": "トットリシ",
    "town": "国府町分上",
    "town_kana": "コクフチョウブンジョウ",
    "street": null,
    "office_name": null,
    "office_name_kana": null
  },
  "8065": {
    "zip_code": "6808065",
    "prefecture": "鳥取県",
    "prefecture_kana": "トットリケン",
    "prefecture_code": 31,
    "city": "鳥取市",
    "city_kana": "トットリシ",
    "town": "国府町新町",
    "town_kana": "コクフチョウシンマチ",
    "street": null,
    "office_name": null,
    "office_name_kana": null
  },
  "8066": {
    "zip_code": "6808066",
    "prefecture": "鳥取県",
    "prefecture_kana": "トットリケン",
    "prefecture_code": 31,
    "city": "鳥取市",
    "city_kana": "トットリシ",
    "town": "国府町新通り",
    "town_kana": "コクフチョウシンドオリ",
    "street": null,
    "office_name": null,
    "office_name_kana": null
  },
  "8501": {
    "zip_code": "6808501",
    "prefecture": "鳥取県",
    "prefecture_kana": "トットリケン",
    "prefecture_code": 31,
    "city": "鳥取市",
    "city_kana": "トットリシ",
    "town": "的場",
    "town_kana": "マトバ",
    "street": "１丁目１",
    "office_name": "鳥取市立病院",
    "office_name_kana": "トツトリシリツビヨウイン"
  },
  "8502": {
    "zip_code": "6808502",
    "prefecture": "鳥取県",
    "prefecture_kana": "トットリケン",
    "prefecture_code": 31,
    "city": "鳥取市",
    "city_kana": "トットリシ",
    "town": "末広温泉町",
    "town_kana": "スエヒロオンセンチョウ",
    "street": "７２４",
    "office_name": "全国農業協同組合連合会　鳥取県本部",
    "office_name_kana": "ゼンコクノウギヨウキヨウドウクミアイレンゴウカイ トツトリケンホンブ"
  },
  "8510": {
    "zip_code": "6808510",
    "prefecture": "鳥取県",
    "prefecture_kana": "トットリケン",
    "prefecture_code": 31,
    "city": "鳥取市",
    "city_kana": "トットリシ",
    "town": "今町",
    "town_kana": "イママチ",
    "street": "１丁目１０３",
    "office_name": "住友生命保険　相互会社　鳥取支社",
    "office_name_kana": "スミトモセイメイホケン ソウゴガイシヤ トツトリシシヤ"
  },
  "8511": {
    "zip_code": "6808511",
    "prefecture": "鳥取県",
    "prefecture_kana": "トットリケン",
    "prefecture_code": 31,
    "city": "鳥取市",
    "city_kana": "トットリシ",
    "town": "今町",
    "town_kana": "イママチ",
    "street": "１丁目１２１",
    "office_name": "大和証券　株式会社　鳥取支店",
    "office_name_kana": "ダイワシヨウケン カブシキガイシヤ トツトリシテン"
  },
  "8517": {
    "zip_code": "6808517",
    "prefecture": "鳥取県",
    "prefecture_kana": "トットリケン",
    "prefecture_code": 31,
    "city": "鳥取市",
    "city_kana": "トットリシ",
    "town": "尚徳町",
    "town_kana": "ショウトクチョウ",
    "street": "１１７",
    "office_name": "鳥取赤十字病院",
    "office_name_kana": "トツトリセキジユウジビヨウイン"
  },
  "8520": {
    "zip_code": "6808520",
    "prefecture": "鳥取県",
    "prefecture_kana": "トットリケン",
    "prefecture_code": 31,
    "city": "鳥取市",
    "city_kana": "トットリシ",
    "town": "東町",
    "town_kana": "ヒガシマチ",
    "street": "１丁目２２０",
    "office_name": "鳥取県警察本部",
    "office_name_kana": "トツトリケンケイサツホンブ"
  },
  "8522": {
    "zip_code": "6808522",
    "prefecture": "鳥取県",
    "prefecture_kana": "トットリケン",
    "prefecture_code": 31,
    "city": "鳥取市",
    "city_kana": "トットリシ",
    "town": "富安",
    "town_kana": "トミヤス",
    "street": "２丁目８９−９",
    "office_name": "鳥取労働局",
    "office_name_kana": "トツトリロウドウキヨク"
  },
  "8531": {
    "zip_code": "6808531",
    "prefecture": "鳥取県",
    "prefecture_kana": "トットリケン",
    "prefecture_code": 31,
    "city": "鳥取市",
    "city_kana": "トットリシ",
    "town": "扇町",
    "town_kana": "オウギマチ",
    "street": "１１７",
    "office_name": "鳥取県　社会保険診療報酬支払基金",
    "office_name_kana": "トツトリケン シヤカイホケンシンリヨウホウシユウシハライキキン"
  },
  "8533": {
    "zip_code": "6808533",
    "prefecture": "鳥取県",
    "prefecture_kana": "トットリケン",
    "prefecture_code": 31,
    "city": "鳥取市",
    "city_kana": "トットリシ",
    "town": "富安",
    "town_kana": "トミヤス",
    "street": "２丁目７０",
    "office_name": "株式会社　ナカニシ",
    "office_name_kana": "カブシキガイシヤ ナカニシ"
  },
  "8541": {
    "zip_code": "6808541",
    "prefecture": "鳥取県",
    "prefecture_kana": "トットリケン",
    "prefecture_code": 31,
    "city": "鳥取市",
    "city_kana": "トットリシ",
    "town": "富安",
    "town_kana": "トミヤス",
    "street": "２丁目８９−４鳥取第１地方合同庁舎（鳥取中央郵便局私書箱第２６号）",
    "office_name": "鳥取税務署",
    "office_name_kana": "トツトリゼイムシヨ"
  },
  "8550": {
    "zip_code": "6808550",
    "prefecture": "鳥取県",
    "prefecture_kana": "トットリケン",
    "prefecture_code": 31,
    "city": "鳥取市",
    "city_kana": "トットリシ",
    "town": "湖山町南",
    "town_kana": "コヤマチョウミナミ",
    "street": "４丁目１０１",
    "office_name": "鳥取大学　本部",
    "office_name_kana": "トツトリダイガク ホンブ"
  },
  "8551": {
    "zip_code": "6808551",
    "prefecture": "鳥取県",
    "prefecture_kana": "トットリケン",
    "prefecture_code": 31,
    "city": "鳥取市",
    "city_kana": "トットリシ",
    "town": "湖山町南",
    "town_kana": "コヤマチョウミナミ",
    "street": "４丁目１０１",
    "office_name": "鳥取大学　地域学部",
    "office_name_kana": "トツトリダイガク チイキガクブ"
  },
  "8552": {
    "zip_code": "6808552",
    "prefecture": "鳥取県",
    "prefecture_kana": "トットリケン",
    "prefecture_code": 31,
    "city": "鳥取市",
    "city_kana": "トットリシ",
    "town": "湖山町南",
    "town_kana": "コヤマチョウミナミ",
    "street": "４丁目１０１",
    "office_name": "鳥取大学　工学部",
    "office_name_kana": "トツトリダイガク コウガクブ"
  },
  "8553": {
    "zip_code": "6808553",
    "prefecture": "鳥取県",
    "prefecture_kana": "トットリケン",
    "prefecture_code": 31,
    "city": "鳥取市",
    "city_kana": "トットリシ",
    "town": "湖山町南",
    "town_kana": "コヤマチョウミナミ",
    "street": "４丁目１０１",
    "office_name": "鳥取大学　農学部",
    "office_name_kana": "トツトリダイガク ノウガクブ"
  },
  "8554": {
    "zip_code": "6808554",
    "prefecture": "鳥取県",
    "prefecture_kana": "トットリケン",
    "prefecture_code": 31,
    "city": "鳥取市",
    "city_kana": "トットリシ",
    "town": "湖山町南",
    "town_kana": "コヤマチョウミナミ",
    "street": "４丁目１０１",
    "office_name": "鳥取大学附属図書館",
    "office_name_kana": "トツトリダイガクフゾクトシヨカン"
  },
  "8555": {
    "zip_code": "6808555",
    "prefecture": "鳥取県",
    "prefecture_kana": "トットリケン",
    "prefecture_code": 31,
    "city": "鳥取市",
    "city_kana": "トットリシ",
    "town": "戎町",
    "town_kana": "エビスマチ",
    "street": "４７１",
    "office_name": "日本海信販　株式会社",
    "office_name_kana": "ニホンカイシンパン カブシキガイシヤ"
  },
  "8560": {
    "zip_code": "6808560",
    "prefecture": "鳥取県",
    "prefecture_kana": "トットリケン",
    "prefecture_code": 31,
    "city": "鳥取市",
    "city_kana": "トットリシ",
    "town": "扇町",
    "town_kana": "オウギマチ",
    "street": "５８ナカヤビル",
    "office_name": "全国健康保険協会　鳥取支部",
    "office_name_kana": "ゼンコクケンコウホケンキヨウカイ トツトリシブ"
  },
  "8561": {
    "zip_code": "6808561",
    "prefecture": "鳥取県",
    "prefecture_kana": "トットリケン",
    "prefecture_code": 31,
    "city": "鳥取市",
    "city_kana": "トットリシ",
    "town": "扇町",
    "town_kana": "オウギマチ",
    "street": "５８ナカヤビル５階",
    "office_name": "日本年金機構　鳥取事務センター",
    "office_name_kana": "ニツポンネンキンキコウ トツトリジムセンタ-"
  },
  "8566": {
    "zip_code": "6808566",
    "prefecture": "鳥取県",
    "prefecture_kana": "トットリケン",
    "prefecture_code": 31,
    "city": "鳥取市",
    "city_kana": "トットリシ",
    "town": "本町",
    "town_kana": "ホンマチ",
    "street": "３丁目１０２",
    "office_name": "鳥取商工会議所",
    "office_name_kana": "トツトリシヨウコウカイギシヨ"
  },
  "8570": {
    "zip_code": "6808570",
    "prefecture": "鳥取県",
    "prefecture_kana": "トットリケン",
    "prefecture_code": 31,
    "city": "鳥取市",
    "city_kana": "トットリシ",
    "town": "東町",
    "town_kana": "ヒガシマチ",
    "street": "１丁目２２０",
    "office_name": "鳥取県庁",
    "office_name_kana": "トツトリケンチヨウ"
  },
  "8571": {
    "zip_code": "6808571",
    "prefecture": "鳥取県",
    "prefecture_kana": "トットリケン",
    "prefecture_code": 31,
    "city": "鳥取市",
    "city_kana": "トットリシ",
    "town": "尚徳町",
    "town_kana": "ショウトクチョウ",
    "street": "１１６",
    "office_name": "鳥取市役所",
    "office_name_kana": "トツトリシヤクシヨ"
  },
  "8572": {
    "zip_code": "6808572",
    "prefecture": "鳥取県",
    "prefecture_kana": "トットリケン",
    "prefecture_code": 31,
    "city": "鳥取市",
    "city_kana": "トットリシ",
    "town": "田園町",
    "town_kana": "デンエンチョウ",
    "street": "４丁目３６０",
    "office_name": "日本海テレビジョン放送　株式会社",
    "office_name_kana": "ニホンカイテレビジヨンホウソウ カブシキガイシヤ"
  },
  "8575": {
    "zip_code": "6808575",
    "prefecture": "鳥取県",
    "prefecture_kana": "トットリケン",
    "prefecture_code": 31,
    "city": "鳥取市",
    "city_kana": "トットリシ",
    "town": "南吉方",
    "town_kana": "ミナミヨシカタ",
    "street": "３丁目１１７−２",
    "office_name": "株式会社　ジャパンディスプレイ",
    "office_name_kana": "カブシキカイシヤ ジヤパンデイスプレイ"
  },
  "8577": {
    "zip_code": "6808577",
    "prefecture": "鳥取県",
    "prefecture_kana": "トットリケン",
    "prefecture_code": 31,
    "city": "鳥取市",
    "city_kana": "トットリシ",
    "town": "南吉方",
    "town_kana": "ミナミヨシカタ",
    "street": "３丁目１０１",
    "office_name": "三洋エプソンイメージングデバイス　株式会社　鳥取事業所",
    "office_name_kana": "サンヨウエプソンイメ-ジングデバイス カブシキカイシヤ トツトリジギヨウシヨ"
  },
  "8578": {
    "zip_code": "6808578",
    "prefecture": "鳥取県",
    "prefecture_kana": "トットリケン",
    "prefecture_code": 31,
    "city": "鳥取市",
    "city_kana": "トットリシ",
    "town": "南栄町",
    "town_kana": "ナンエイチョウ",
    "street": "２６−１",
    "office_name": "エプソンリペア　株式会社",
    "office_name_kana": "エプソンリペア カブシキガイシヤ"
  },
  "8585": {
    "zip_code": "6808585",
    "prefecture": "鳥取県",
    "prefecture_kana": "トットリケン",
    "prefecture_code": 31,
    "city": "鳥取市",
    "city_kana": "トットリシ",
    "town": "戎町",
    "town_kana": "エビスマチ",
    "street": "３１７",
    "office_name": "鳥取県医師会",
    "office_name_kana": "トツトリケンイシカイ"
  },
  "8588": {
    "zip_code": "6808588",
    "prefecture": "鳥取県",
    "prefecture_kana": "トットリケン",
    "prefecture_code": 31,
    "city": "鳥取市",
    "city_kana": "トットリシ",
    "town": "富安",
    "town_kana": "トミヤス",
    "street": "２丁目７０",
    "office_name": "株式会社　山陰カラー綜合現像所",
    "office_name_kana": "カブシキガイシヤ サンインカラ-ソウゴウゲンゾウジヨ"
  },
  "8601": {
    "zip_code": "6808601",
    "prefecture": "鳥取県",
    "prefecture_kana": "トットリケン",
    "prefecture_code": 31,
    "city": "鳥取市",
    "city_kana": "トットリシ",
    "town": "今町",
    "town_kana": "イママチ",
    "street": "２丁目１５１",
    "office_name": "株式会社　鳥取大丸",
    "office_name_kana": "カブシキガイシヤ トツトリダイマル"
  },
  "8611": {
    "zip_code": "6808611",
    "prefecture": "鳥取県",
    "prefecture_kana": "トットリケン",
    "prefecture_code": 31,
    "city": "鳥取市",
    "city_kana": "トットリシ",
    "town": "栄町",
    "town_kana": "サカエマチ",
    "street": "６４５（鳥取中央郵便局私書箱第８号）",
    "office_name": "鳥取信用金庫",
    "office_name_kana": "トツトリシンヨウキンコ"
  },
  "8622": {
    "zip_code": "6808622",
    "prefecture": "鳥取県",
    "prefecture_kana": "トットリケン",
    "prefecture_code": 31,
    "city": "鳥取市",
    "city_kana": "トットリシ",
    "town": "新品治町",
    "town_kana": "シンホンジチョウ",
    "street": "１−６",
    "office_name": "中国電力　株式会社　鳥取営業所",
    "office_name_kana": "チユウゴクデンリヨク カブシキガイシヤ トツトリエイギヨウシヨ"
  },
  "8634": {
    "zip_code": "6808634",
    "prefecture": "鳥取県",
    "prefecture_kana": "トットリケン",
    "prefecture_code": 31,
    "city": "鳥取市",
    "city_kana": "トットリシ",
    "town": "南吉方",
    "town_kana": "ミナミヨシカタ",
    "street": "３丁目２０１",
    "office_name": "鳥取三洋電機　株式会社",
    "office_name_kana": "トツトリサンヨウデンキ カブシキガイシヤ"
  },
  "8644": {
    "zip_code": "6808644",
    "prefecture": "鳥取県",
    "prefecture_kana": "トットリケン",
    "prefecture_code": 31,
    "city": "鳥取市",
    "city_kana": "トットリシ",
    "town": "片原",
    "town_kana": "カタハラ",
    "street": "２丁目２１８（鳥取中央郵便局私書箱第５６号）",
    "office_name": "商工組合中央金庫　鳥取支店",
    "office_name_kana": "シヨウコウクミアイチユウオウキンコ トツトリシテン"
  },
  "8678": {
    "zip_code": "6808678",
    "prefecture": "鳥取県",
    "prefecture_kana": "トットリケン",
    "prefecture_code": 31,
    "city": "鳥取市",
    "city_kana": "トットリシ",
    "town": "今町",
    "town_kana": "イママチ",
    "street": "２丁目２５１（鳥取中央郵便局私書箱第５号）",
    "office_name": "日本生命保険　相互会社　鳥取支社",
    "office_name_kana": "ニホンセイメイホケン ソウゴガイシヤ トツトリシシヤ"
  },
  "8686": {
    "zip_code": "6808686",
    "prefecture": "鳥取県",
    "prefecture_kana": "トットリケン",
    "prefecture_code": 31,
    "city": "鳥取市",
    "city_kana": "トットリシ",
    "town": "永楽温泉町",
    "town_kana": "エイラクオンセンチョウ",
    "street": "１７１（鳥取中央郵便局私書箱第２２号）",
    "office_name": "株式会社　鳥取銀行",
    "office_name_kana": "カブシキガイシヤ トツトリギンコウ"
  },
  "8688": {
    "zip_code": "6808688",
    "prefecture": "鳥取県",
    "prefecture_kana": "トットリケン",
    "prefecture_code": 31,
    "city": "鳥取市",
    "city_kana": "トットリシ",
    "town": "富安",
    "town_kana": "トミヤス",
    "street": "２丁目１３７（鳥取中央郵便局私書箱第５８号）",
    "office_name": "株式会社　新日本海新聞社",
    "office_name_kana": "カブシキガイシヤ シンニホンカイシンブンシヤ"
  },
  "8701": {
    "zip_code": "6808701",
    "prefecture": "鳥取県",
    "prefecture_kana": "トットリケン",
    "prefecture_code": 31,
    "city": "鳥取市",
    "city_kana": "トットリシ",
    "town": "寺町",
    "town_kana": "テラマチ",
    "street": "１００（鳥取中央郵便局私書箱第１６号）",
    "office_name": "日本放送協会　鳥取放送局",
    "office_name_kana": "ニツポンホウソウキヨウカイ トツトリホウソウキヨク"
  }
}