{
  "0000": {
    "zip_code": "6820000",
    "prefecture": "鳥取県",
    "prefecture_kana": "トットリケン",
    "prefecture_code": "31",
    "city": "倉吉市",
    "city_kana": "クラヨシシ",
    "town": "",
    "town_kana": "",
    "street": null,
    "office_name": null,
    "office_name_kana": null
  },
  "0001": {
    "zip_code": "6820001",
    "prefecture": "鳥取県",
    "prefecture_kana": "トットリケン",
    "prefecture_code": "31",
    "city": "倉吉市",
    "city_kana": "クラヨシシ",
    "town": "穴窪",
    "town_kana": "アナクボ",
    "street": null,
    "office_name": null,
    "office_name_kana": null
  },
  "0002": {
    "zip_code": "6820002",
    "prefecture": "鳥取県",
    "prefecture_kana": "トットリケン",
    "prefecture_code": "31",
    "city": "倉吉市",
    "city_kana": "クラヨシシ",
    "town": "中江",
    "town_kana": "ナカエ",
    "street": null,
    "office_name": null,
    "office_name_kana": null
  },
  "0003": {
    "zip_code": "6820003",
    "prefecture": "鳥取県",
    "prefecture_kana": "トットリケン",
    "prefecture_code": "31",
    "city": "倉吉市",
    "city_kana": "クラヨシシ",
    "town": "新田",
    "town_kana": "シンデン",
    "street": null,
    "office_name": null,
    "office_name_kana": null
  },
  "0004": {
    "zip_code": "6820004",
    "prefecture": "鳥取県",
    "prefecture_kana": "トットリケン",
    "prefecture_code": "31",
    "city": "倉吉市",
    "city_kana": "クラヨシシ",
    "town": "古川沢",
    "town_kana": "フルカワサワ",
    "street": null,
    "office_name": null,
    "office_name_kana": null
  },
  "0005": {
    "zip_code": "6820005",
    "prefecture": "鳥取県",
    "prefecture_kana": "トットリケン",
    "prefecture_code": "31",
    "city": "倉吉市",
    "city_kana": "クラヨシシ",
    "town": "下古川",
    "town_kana": "シモフルカワ",
    "street": null,
    "office_name": null,
    "office_name_kana": null
  },
  "0006": {
    "zip_code": "6820006",
    "prefecture": "鳥取県",
    "prefecture_kana": "トットリケン",
    "prefecture_code": "31",
    "city": "倉吉市",
    "city_kana": "クラヨシシ",
    "town": "井手畑",
    "town_kana": "イデバタ",
    "street": null,
    "office_name": null,
    "office_name_kana": null
  },
  "0011": {
    "zip_code": "6820011",
    "prefecture": "鳥取県",
    "prefecture_kana": "トットリケン",
    "prefecture_code": "31",
    "city": "倉吉市",
    "city_kana": "クラヨシシ",
    "town": "大塚",
    "town_kana": "オオツカ",
    "street": null,
    "office_name": null,
    "office_name_kana": null
  },
  "0012": {
    "zip_code": "6820012",
    "prefecture": "鳥取県",
    "prefecture_kana": "トットリケン",
    "prefecture_code": "31",
    "city": "倉吉市",
    "city_kana": "クラヨシシ",
    "town": "清谷",
    "town_kana": "セイダニ",
    "street": null,
    "office_name": null,
    "office_name_kana": null
  },
  "0013": {
    "zip_code": "6820013",
    "prefecture": "鳥取県",
    "prefecture_kana": "トットリケン",
    "prefecture_code": "31",
    "city": "倉吉市",
    "city_kana": "クラヨシシ",
    "town": "福庭",
    "town_kana": "フクバ",
    "street": null,
    "office_name": null,
    "office_name_kana": null
  },
  "0014": {
    "zip_code": "6820014",
    "prefecture": "鳥取県",
    "prefecture_kana": "トットリケン",
    "prefecture_code": "31",
    "city": "倉吉市",
    "city_kana": "クラヨシシ",
    "town": "海田東町",
    "town_kana": "カイダヒガシマチ",
    "street": null,
    "office_name": null,
    "office_name_kana": null
  },
  "0015": {
    "zip_code": "6820015",
    "prefecture": "鳥取県",
    "prefecture_kana": "トットリケン",
    "prefecture_code": "31",
    "city": "倉吉市",
    "city_kana": "クラヨシシ",
    "town": "海田南町",
    "town_kana": "カイダミナミマチ",
    "street": null,
    "office_name": null,
    "office_name_kana": null
  },
  "0016": {
    "zip_code": "6820016",
    "prefecture": "鳥取県",
    "prefecture_kana": "トットリケン",
    "prefecture_code": "31",
    "city": "倉吉市",
    "city_kana": "クラヨシシ",
    "town": "海田西町",
    "town_kana": "カイダニシマチ",
    "street": null,
    "office_name": null,
    "office_name_kana": null
  },
  "0017": {
    "zip_code": "6820017",
    "prefecture": "鳥取県",
    "prefecture_kana": "トットリケン",
    "prefecture_code": "31",
    "city": "倉吉市",
    "city_kana": "クラヨシシ",
    "town": "清谷町",
    "town_kana": "セイダニチョウ",
    "street": null,
    "office_name": null,
    "office_name_kana": null
  },
  "0018": {
    "zip_code": "6820018",
    "prefecture": "鳥取県",
    "prefecture_kana": "トットリケン",
    "prefecture_code": "31",
    "city": "倉吉市",
    "city_kana": "クラヨシシ",
    "town": "福庭町",
    "town_kana": "フクバチョウ",
    "street": null,
    "office_name": null,
    "office_name_kana": null
  },
  "0021": {
    "zip_code": "6820021",
    "prefecture": "鳥取県",
    "prefecture_kana": "トットリケン",
    "prefecture_code": "31",
    "city": "倉吉市",
    "city_kana": "クラヨシシ",
    "town": "上井",
    "town_kana": "アゲイ",
    "street": null,
    "office_name": null,
    "office_name_kana": null
  },
  "0022": {
    "zip_code": "6820022",
    "prefecture": "鳥取県",
    "prefecture_kana": "トットリケン",
    "prefecture_code": "31",
    "city": "倉吉市",
    "city_kana": "クラヨシシ",
    "town": "上井町",
    "town_kana": "アゲイチョウ",
    "street": null,
    "office_name": null,
    "office_name_kana": null
  },
  "0023": {
    "zip_code": "6820023",
    "prefecture": "鳥取県",
    "prefecture_kana": "トットリケン",
    "prefecture_code": "31",
    "city": "倉吉市",
    "city_kana": "クラヨシシ",
    "town": "山根",
    "town_kana": "ヤマネ",
    "street": null,
    "office_name": null,
    "office_name_kana": null
  },
  "0024": {
    "zip_code": "6820024",
    "prefecture": "鳥取県",
    "prefecture_kana": "トットリケン",
    "prefecture_code": "31",
    "city": "倉吉市",
    "city_kana": "クラヨシシ",
    "town": "伊木",
    "town_kana": "イギ",
    "street": null,
    "office_name": null,
    "office_name_kana": null
  },
  "0025": {
    "zip_code": "6820025",
    "prefecture": "鳥取県",
    "prefecture_kana": "トットリケン",
    "prefecture_code": "31",
    "city": "倉吉市",
    "city_kana": "クラヨシシ",
    "town": "八屋",
    "town_kana": "ヤツヤ",
    "street": null,
    "office_name": null,
    "office_name_kana": null
  },
  "0031": {
    "zip_code": "6820031",
    "prefecture": "鳥取県",
    "prefecture_kana": "トットリケン",
    "prefecture_code": "31",
    "city": "倉吉市",
    "city_kana": "クラヨシシ",
    "town": "下余戸",
    "town_kana": "シモヨド",
    "street": null,
    "office_name": null,
    "office_name_kana": null
  },
  "0032": {
    "zip_code": "6820032",
    "prefecture": "鳥取県",
    "prefecture_kana": "トットリケン",
    "prefecture_code": "31",
    "city": "倉吉市",
    "city_kana": "クラヨシシ",
    "town": "上余戸",
    "town_kana": "カミヨド",
    "street": null,
    "office_name": null,
    "office_name_kana": null
  },
  "0033": {
    "zip_code": "6820033",
    "prefecture": "鳥取県",
    "prefecture_kana": "トットリケン",
    "prefecture_code": "31",
    "city": "倉吉市",
    "city_kana": "クラヨシシ",
    "town": "栗尾",
    "town_kana": "クリオ",
    "street": null,
    "office_name": null,
    "office_name_kana": null
  },
  "0034": {
    "zip_code": "6820034",
    "prefecture": "鳥取県",
    "prefecture_kana": "トットリケン",
    "prefecture_code": "31",
    "city": "倉吉市",
    "city_kana": "クラヨシシ",
    "town": "大原",
    "town_kana": "オハラ",
    "street": null,
    "office_name": null,
    "office_name_kana": null
  },
  "0035": {
    "zip_code": "6820035",
    "prefecture": "鳥取県",
    "prefecture_kana": "トットリケン",
    "prefecture_code": "31",
    "city": "倉吉市",
    "city_kana": "クラヨシシ",
    "town": "広栄町",
    "town_kana": "コウエイチョウ",
    "street": null,
    "office_name": null,
    "office_name_kana": null
  },
  "0036": {
    "zip_code": "6820036",
    "prefecture": "鳥取県",
    "prefecture_kana": "トットリケン",
    "prefecture_code": "31",
    "city": "倉吉市",
    "city_kana": "クラヨシシ",
    "town": "虹ケ丘町",
    "town_kana": "ニジガオカチョウ",
    "street": null,
    "office_name": null,
    "office_name_kana": null
  },
  "0041": {
    "zip_code": "6820041",
    "prefecture": "鳥取県",
    "prefecture_kana": "トットリケン",
    "prefecture_code": "31",
    "city": "倉吉市",
    "city_kana": "クラヨシシ",
    "town": "河北町",
    "town_kana": "カホクチョウ",
    "street": null,
    "office_name": null,
    "office_name_kana": null
  },
  "0042": {
    "zip_code": "6820042",
    "prefecture": "鳥取県",
    "prefecture_kana": "トットリケン",
    "prefecture_code": "31",
    "city": "倉吉市",
    "city_kana": "クラヨシシ",
    "town": "大平町",
    "town_kana": "オオヒラチョウ",
    "street": null,
    "office_name": null,
    "office_name_kana": null
  },
  "0043": {
    "zip_code": "6820043",
    "prefecture": "鳥取県",
    "prefecture_kana": "トットリケン",
    "prefecture_code": "31",
    "city": "倉吉市",
    "city_kana": "クラヨシシ",
    "town": "天神町",
    "town_kana": "テンジンチョウ",
    "street": null,
    "office_name": null,
    "office_name_kana": null
  },
  "0044": {
    "zip_code": "6820044",
    "prefecture": "鳥取県",
    "prefecture_kana": "トットリケン",
    "prefecture_code": "31",
    "city": "倉吉市",
    "city_kana": "クラヨシシ",
    "town": "小田",
    "town_kana": "コダ",
    "street": null,
    "office_name": null,
    "office_name_kana": null
  },
  "0045": {
    "zip_code": "6820045",
    "prefecture": "鳥取県",
    "prefecture_kana": "トットリケン",
    "prefecture_code": "31",
    "city": "倉吉市",
    "city_kana": "クラヨシシ",
    "town": "小田東",
    "town_kana": "コダヒガシ",
    "street": null,
    "office_name": null,
    "office_name_kana": null
  },
  "0100": {
    "zip_code": "6820100",
    "prefecture": "鳥取県",
    "prefecture_kana": "トットリケン",
    "prefecture_code": "31",
    "city": "東伯郡三朝町",
    "city_kana": "トウハクグンミササチョウ",
    "town": "",
    "town_kana": "",
    "street": null,
    "office_name": null,
    "office_name_kana": null
  },
  "0121": {
    "zip_code": "6820121",
    "prefecture": "鳥取県",
    "prefecture_kana": "トットリケン",
    "prefecture_code": "31",
    "city": "東伯郡三朝町",
    "city_kana": "トウハクグンミササチョウ",
    "town": "大瀬",
    "town_kana": "オオゼ",
    "street": null,
    "office_name": null,
    "office_name_kana": null
  },
  "0122": {
    "zip_code": "6820122",
    "prefecture": "鳥取県",
    "prefecture_kana": "トットリケン",
    "prefecture_code": "31",
    "city": "東伯郡三朝町",
    "city_kana": "トウハクグンミササチョウ",
    "town": "山田",
    "town_kana": "ヤマダ",
    "street": null,
    "office_name": null,
    "office_name_kana": null
  },
  "0123": [
    {
      "zip_code": "6820123",
      "prefecture": "鳥取県",
      "prefecture_kana": "トットリケン",
      "prefecture_code": "31",
      "city": "東伯郡三朝町",
      "city_kana": "トウハクグンミササチョウ",
      "town": "恋谷",
      "town_kana": "コイダニ",
      "street": null,
      "office_name": null,
      "office_name_kana": null
    },
    {
      "zip_code": "6820123",
      "prefecture": "鳥取県",
      "prefecture_kana": "トットリケン",
      "prefecture_code": "31",
      "city": "東伯郡三朝町",
      "city_kana": "トウハクグンミササチョウ",
      "town": "三朝",
      "town_kana": "ミササ",
      "street": null,
      "office_name": null,
      "office_name_kana": null
    }
  ],
  "0124": {
    "zip_code": "6820124",
    "prefecture": "鳥取県",
    "prefecture_kana": "トットリケン",
    "prefecture_code": "31",
    "city": "東伯郡三朝町",
    "city_kana": "トウハクグンミササチョウ",
    "town": "砂原",
    "town_kana": "スナワラ",
    "street": null,
    "office_name": null,
    "office_name_kana": null
  },
  "0125": [
    {
      "zip_code": "6820125",
      "prefecture": "鳥取県",
      "prefecture_kana": "トットリケン",
      "prefecture_code": "31",
      "city": "東伯郡三朝町",
      "city_kana": "トウハクグンミササチョウ",
      "town": "徳本",
      "town_kana": "トクモト",
      "street": null,
      "office_name": null,
      "office_name_kana": null
    },
    {
      "zip_code": "6820125",
      "prefecture": "鳥取県",
      "prefecture_kana": "トットリケン",
      "prefecture_code": "31",
      "city": "東伯郡三朝町",
      "city_kana": "トウハクグンミササチョウ",
      "town": "横手",
      "town_kana": "ヨコテ",
      "street": null,
      "office_name": null,
      "office_name_kana": null
    }
  ],
  "0131": {
    "zip_code": "6820131",
    "prefecture": "鳥取県",
    "prefecture_kana": "トットリケン",
    "prefecture_code": "31",
    "city": "東伯郡三朝町",
    "city_kana": "トウハクグンミササチョウ",
    "town": "俵原",
    "town_kana": "タワラ",
    "street": null,
    "office_name": null,
    "office_name_kana": null
  },
  "0132": {
    "zip_code": "6820132",
    "prefecture": "鳥取県",
    "prefecture_kana": "トットリケン",
    "prefecture_code": "31",
    "city": "東伯郡三朝町",
    "city_kana": "トウハクグンミササチョウ",
    "town": "三徳",
    "town_kana": "ミトク",
    "street": null,
    "office_name": null,
    "office_name_kana": null
  },
  "0133": [
    {
      "zip_code": "6820133",
      "prefecture": "鳥取県",
      "prefecture_kana": "トットリケン",
      "prefecture_code": "31",
      "city": "東伯郡三朝町",
      "city_kana": "トウハクグンミササチョウ",
      "town": "桜ケ丘",
      "town_kana": "サクラガオカ",
      "street": null,
      "office_name": null,
      "office_name_kana": null
    },
    {
      "zip_code": "6820133",
      "prefecture": "鳥取県",
      "prefecture_kana": "トットリケン",
      "prefecture_code": "31",
      "city": "東伯郡三朝町",
      "city_kana": "トウハクグンミササチョウ",
      "town": "吉田",
      "town_kana": "ヨシダ",
      "street": null,
      "office_name": null,
      "office_name_kana": null
    }
  ],
  "0134": {
    "zip_code": "6820134",
    "prefecture": "鳥取県",
    "prefecture_kana": "トットリケン",
    "prefecture_code": "31",
    "city": "東伯郡三朝町",
    "city_kana": "トウハクグンミササチョウ",
    "town": "余戸",
    "town_kana": "ヨド",
    "street": null,
    "office_name": null,
    "office_name_kana": null
  },
  "0135": {
    "zip_code": "6820135",
    "prefecture": "鳥取県",
    "prefecture_kana": "トットリケン",
    "prefecture_code": "31",
    "city": "東伯郡三朝町",
    "city_kana": "トウハクグンミササチョウ",
    "town": "片柴",
    "town_kana": "カタシバ",
    "street": null,
    "office_name": null,
    "office_name_kana": null
  },
  "0136": {
    "zip_code": "6820136",
    "prefecture": "鳥取県",
    "prefecture_kana": "トットリケン",
    "prefecture_code": "31",
    "city": "東伯郡三朝町",
    "city_kana": "トウハクグンミササチョウ",
    "town": "坂本",
    "town_kana": "サカモト",
    "street": null,
    "office_name": null,
    "office_name_kana": null
  },
  "0141": {
    "zip_code": "6820141",
    "prefecture": "鳥取県",
    "prefecture_kana": "トットリケン",
    "prefecture_code": "31",
    "city": "東伯郡三朝町",
    "city_kana": "トウハクグンミササチョウ",
    "town": "中津",
    "town_kana": "ナカツ",
    "street": null,
    "office_name": null,
    "office_name_kana": null
  },
  "0142": {
    "zip_code": "6820142",
    "prefecture": "鳥取県",
    "prefecture_kana": "トットリケン",
    "prefecture_code": "31",
    "city": "東伯郡三朝町",
    "city_kana": "トウハクグンミササチョウ",
    "town": "神倉",
    "town_kana": "カンノクラ",
    "street": null,
    "office_name": null,
    "office_name_kana": null
  },
  "0143": {
    "zip_code": "6820143",
    "prefecture": "鳥取県",
    "prefecture_kana": "トットリケン",
    "prefecture_code": "31",
    "city": "東伯郡三朝町",
    "city_kana": "トウハクグンミササチョウ",
    "town": "東小鹿",
    "town_kana": "ヒガシオシカ",
    "street": null,
    "office_name": null,
    "office_name_kana": null
  },
  "0144": {
    "zip_code": "6820144",
    "prefecture": "鳥取県",
    "prefecture_kana": "トットリケン",
    "prefecture_code": "31",
    "city": "東伯郡三朝町",
    "city_kana": "トウハクグンミササチョウ",
    "town": "西小鹿",
    "town_kana": "ニシオシカ",
    "street": null,
    "office_name": null,
    "office_name_kana": null
  },
  "0145": {
    "zip_code": "6820145",
    "prefecture": "鳥取県",
    "prefecture_kana": "トットリケン",
    "prefecture_code": "31",
    "city": "東伯郡三朝町",
    "city_kana": "トウハクグンミササチョウ",
    "town": "西尾",
    "town_kana": "ニシオ",
    "street": null,
    "office_name": null,
    "office_name_kana": null
  },
  "0146": {
    "zip_code": "6820146",
    "prefecture": "鳥取県",
    "prefecture_kana": "トットリケン",
    "prefecture_code": "31",
    "city": "東伯郡三朝町",
    "city_kana": "トウハクグンミササチョウ",
    "town": "高橋",
    "town_kana": "タカハシ",
    "street": null,
    "office_name": null,
    "office_name_kana": null
  },
  "0151": [
    {
      "zip_code": "6820151",
      "prefecture": "鳥取県",
      "prefecture_kana": "トットリケン",
      "prefecture_code": "31",
      "city": "東伯郡三朝町",
      "city_kana": "トウハクグンミササチョウ",
      "town": "今泉",
      "town_kana": "イマイズミ",
      "street": null,
      "office_name": null,
      "office_name_kana": null
    },
    {
      "zip_code": "6820151",
      "prefecture": "鳥取県",
      "prefecture_kana": "トットリケン",
      "prefecture_code": "31",
      "city": "東伯郡三朝町",
      "city_kana": "トウハクグンミササチョウ",
      "town": "若宮",
      "town_kana": "ワカミヤ",
      "street": null,
      "office_name": null,
      "office_name_kana": null
    }
  ],
  "0152": {
    "zip_code": "6820152",
    "prefecture": "鳥取県",
    "prefecture_kana": "トットリケン",
    "prefecture_code": "31",
    "city": "東伯郡三朝町",
    "city_kana": "トウハクグンミササチョウ",
    "town": "本泉",
    "town_kana": "モトイズミ",
    "street": null,
    "office_name": null,
    "office_name_kana": null
  },
  "0153": [
    {
      "zip_code": "6820153",
      "prefecture": "鳥取県",
      "prefecture_kana": "トットリケン",
      "prefecture_code": "31",
      "city": "東伯郡三朝町",
      "city_kana": "トウハクグンミササチョウ",
      "town": "天神",
      "town_kana": "テンジン",
      "street": null,
      "office_name": null,
      "office_name_kana": null
    },
    {
      "zip_code": "6820153",
      "prefecture": "鳥取県",
      "prefecture_kana": "トットリケン",
      "prefecture_code": "31",
      "city": "東伯郡三朝町",
      "city_kana": "トウハクグンミササチョウ",
      "town": "森",
      "town_kana": "モリ",
      "street": null,
      "office_name": null,
      "office_name_kana": null
    }
  ],
  "0154": {
    "zip_code": "6820154",
    "prefecture": "鳥取県",
    "prefecture_kana": "トットリケン",
    "prefecture_code": "31",
    "city": "東伯郡三朝町",
    "city_kana": "トウハクグンミササチョウ",
    "town": "鎌田",
    "town_kana": "カマダ",
    "street": null,
    "office_name": null,
    "office_name_kana": null
  },
  "0155": {
    "zip_code": "6820155",
    "prefecture": "鳥取県",
    "prefecture_kana": "トットリケン",
    "prefecture_code": "31",
    "city": "東伯郡三朝町",
    "city_kana": "トウハクグンミササチョウ",
    "town": "吉尾",
    "town_kana": "ヨシオ",
    "street": null,
    "office_name": null,
    "office_name_kana": null
  },
  "0156": {
    "zip_code": "6820156",
    "prefecture": "鳥取県",
    "prefecture_kana": "トットリケン",
    "prefecture_code": "31",
    "city": "東伯郡三朝町",
    "city_kana": "トウハクグンミササチョウ",
    "town": "下谷",
    "town_kana": "シモダニ",
    "street": null,
    "office_name": null,
    "office_name_kana": null
  },
  "0157": {
    "zip_code": "6820157",
    "prefecture": "鳥取県",
    "prefecture_kana": "トットリケン",
    "prefecture_code": "31",
    "city": "東伯郡三朝町",
    "city_kana": "トウハクグンミササチョウ",
    "town": "小河内",
    "town_kana": "オゴチ",
    "street": null,
    "office_name": null,
    "office_name_kana": null
  },
  "0158": {
    "zip_code": "6820158",
    "prefecture": "鳥取県",
    "prefecture_kana": "トットリケン",
    "prefecture_code": "31",
    "city": "東伯郡三朝町",
    "city_kana": "トウハクグンミササチョウ",
    "town": "笏賀",
    "town_kana": "ツガ",
    "street": null,
    "office_name": null,
    "office_name_kana": null
  },
  "0159": {
    "zip_code": "6820159",
    "prefecture": "鳥取県",
    "prefecture_kana": "トットリケン",
    "prefecture_code": "31",
    "city": "東伯郡三朝町",
    "city_kana": "トウハクグンミササチョウ",
    "town": "福田",
    "town_kana": "フクダ",
    "street": null,
    "office_name": null,
    "office_name_kana": null
  },
  "0161": {
    "zip_code": "6820161",
    "prefecture": "鳥取県",
    "prefecture_kana": "トットリケン",
    "prefecture_code": "31",
    "city": "東伯郡三朝町",
    "city_kana": "トウハクグンミササチョウ",
    "town": "柿谷",
    "town_kana": "カキダニ",
    "street": null,
    "office_name": null,
    "office_name_kana": null
  },
  "0162": {
    "zip_code": "6820162",
    "prefecture": "鳥取県",
    "prefecture_kana": "トットリケン",
    "prefecture_code": "31",
    "city": "東伯郡三朝町",
    "city_kana": "トウハクグンミササチョウ",
    "town": "鉛山",
    "town_kana": "ナマリヤマ",
    "street": null,
    "office_name": null,
    "office_name_kana": null
  },
  "0163": {
    "zip_code": "6820163",
    "prefecture": "鳥取県",
    "prefecture_kana": "トットリケン",
    "prefecture_code": "31",
    "city": "東伯郡三朝町",
    "city_kana": "トウハクグンミササチョウ",
    "town": "福吉",
    "town_kana": "フクヨシ",
    "street": null,
    "office_name": null,
    "office_name_kana": null
  },
  "0171": {
    "zip_code": "6820171",
    "prefecture": "鳥取県",
    "prefecture_kana": "トットリケン",
    "prefecture_code": "31",
    "city": "東伯郡三朝町",
    "city_kana": "トウハクグンミササチョウ",
    "town": "湯谷",
    "town_kana": "ユタニ",
    "street": null,
    "office_name": null,
    "office_name_kana": null
  },
  "0172": {
    "zip_code": "6820172",
    "prefecture": "鳥取県",
    "prefecture_kana": "トットリケン",
    "prefecture_code": "31",
    "city": "東伯郡三朝町",
    "city_kana": "トウハクグンミササチョウ",
    "town": "赤松",
    "town_kana": "アカマツ",
    "street": null,
    "office_name": null,
    "office_name_kana": null
  },
  "0173": {
    "zip_code": "6820173",
    "prefecture": "鳥取県",
    "prefecture_kana": "トットリケン",
    "prefecture_code": "31",
    "city": "東伯郡三朝町",
    "city_kana": "トウハクグンミササチョウ",
    "town": "恩地",
    "town_kana": "オンジ",
    "street": null,
    "office_name": null,
    "office_name_kana": null
  },
  "0176": {
    "zip_code": "6820176",
    "prefecture": "鳥取県",
    "prefecture_kana": "トットリケン",
    "prefecture_code": "31",
    "city": "東伯郡三朝町",
    "city_kana": "トウハクグンミササチョウ",
    "town": "助谷",
    "town_kana": "スケダニ",
    "street": null,
    "office_name": null,
    "office_name_kana": null
  },
  "0177": {
    "zip_code": "6820177",
    "prefecture": "鳥取県",
    "prefecture_kana": "トットリケン",
    "prefecture_code": "31",
    "city": "東伯郡三朝町",
    "city_kana": "トウハクグンミササチョウ",
    "town": "大柿",
    "town_kana": "オオガキ",
    "street": null,
    "office_name": null,
    "office_name_kana": null
  },
  "0178": {
    "zip_code": "6820178",
    "prefecture": "鳥取県",
    "prefecture_kana": "トットリケン",
    "prefecture_code": "31",
    "city": "東伯郡三朝町",
    "city_kana": "トウハクグンミササチョウ",
    "town": "牧",
    "town_kana": "マキ",
    "street": null,
    "office_name": null,
    "office_name_kana": null
  },
  "0192": {
    "zip_code": "6820192",
    "prefecture": "鳥取県",
    "prefecture_kana": null,
    "prefecture_code": null,
    "city": "東伯郡三朝町",
    "city_kana": null,
    "town": "大字山田",
    "town_kana": null,
    "street": "８２７",
    "office_name": "岡山大学医学部・歯学部付属病院　三朝医療センター",
    "office_name_kana": "オカヤマダイガクイガクブ・シガクブフゾクビヨウイン ミササイリヨウセンタ-"
  },
  "0193": {
    "zip_code": "6820193",
    "prefecture": "鳥取県",
    "prefecture_kana": null,
    "prefecture_code": null,
    "city": "東伯郡三朝町",
    "city_kana": null,
    "town": "大字山田",
    "town_kana": null,
    "street": "８２７",
    "office_name": "岡山大学固体地球研究センター",
    "office_name_kana": "オカヤマダイガクコタイチキユウケンキユウセンタ-"
  },
  "0195": {
    "zip_code": "6820195",
    "prefecture": "鳥取県",
    "prefecture_kana": null,
    "prefecture_code": null,
    "city": "東伯郡三朝町",
    "city_kana": null,
    "town": "大字大瀬",
    "town_kana": null,
    "street": "９９９−２",
    "office_name": "三朝町役場",
    "office_name_kana": "ミササチヨウヤクバ"
  },
  "0197": {
    "zip_code": "6820197",
    "prefecture": "鳥取県",
    "prefecture_kana": null,
    "prefecture_code": null,
    "city": "東伯郡三朝町",
    "city_kana": null,
    "town": "大字山田",
    "town_kana": null,
    "street": "６９０",
    "office_name": "鳥取県中部医師会立三朝温泉病院",
    "office_name_kana": "トツトリケンチユウブイシカイリツミササオンセンビヨウイン"
  },
  "0301": {
    "zip_code": "6820301",
    "prefecture": "鳥取県",
    "prefecture_kana": "トットリケン",
    "prefecture_code": "31",
    "city": "東伯郡三朝町",
    "city_kana": "トウハクグンミササチョウ",
    "town": "木地山",
    "town_kana": "キジヤマ",
    "street": null,
    "office_name": null,
    "office_name_kana": null
  },
  "0302": {
    "zip_code": "6820302",
    "prefecture": "鳥取県",
    "prefecture_kana": "トットリケン",
    "prefecture_code": "31",
    "city": "東伯郡三朝町",
    "city_kana": "トウハクグンミササチョウ",
    "town": "加谷",
    "town_kana": "カダニ",
    "street": null,
    "office_name": null,
    "office_name_kana": null
  },
  "0303": {
    "zip_code": "6820303",
    "prefecture": "鳥取県",
    "prefecture_kana": "トットリケン",
    "prefecture_code": "31",
    "city": "東伯郡三朝町",
    "city_kana": "トウハクグンミササチョウ",
    "town": "穴鴨",
    "town_kana": "アナガモ",
    "street": null,
    "office_name": null,
    "office_name_kana": null
  },
  "0311": {
    "zip_code": "6820311",
    "prefecture": "鳥取県",
    "prefecture_kana": "トットリケン",
    "prefecture_code": "31",
    "city": "東伯郡三朝町",
    "city_kana": "トウハクグンミササチョウ",
    "town": "福山",
    "town_kana": "フクヤマ",
    "street": null,
    "office_name": null,
    "office_name_kana": null
  },
  "0312": {
    "zip_code": "6820312",
    "prefecture": "鳥取県",
    "prefecture_kana": "トットリケン",
    "prefecture_code": "31",
    "city": "東伯郡三朝町",
    "city_kana": "トウハクグンミササチョウ",
    "town": "下西谷",
    "town_kana": "シモニシダニ",
    "street": null,
    "office_name": null,
    "office_name_kana": null
  },
  "0313": {
    "zip_code": "6820313",
    "prefecture": "鳥取県",
    "prefecture_kana": "トットリケン",
    "prefecture_code": "31",
    "city": "東伯郡三朝町",
    "city_kana": "トウハクグンミササチョウ",
    "town": "上西谷",
    "town_kana": "カミニシダニ",
    "street": null,
    "office_name": null,
    "office_name_kana": null
  },
  "0314": {
    "zip_code": "6820314",
    "prefecture": "鳥取県",
    "prefecture_kana": "トットリケン",
    "prefecture_code": "31",
    "city": "東伯郡三朝町",
    "city_kana": "トウハクグンミササチョウ",
    "town": "田代",
    "town_kana": "タシロ",
    "street": null,
    "office_name": null,
    "office_name_kana": null
  },
  "0315": {
    "zip_code": "6820315",
    "prefecture": "鳥取県",
    "prefecture_kana": "トットリケン",
    "prefecture_code": "31",
    "city": "東伯郡三朝町",
    "city_kana": "トウハクグンミササチョウ",
    "town": "大谷",
    "town_kana": "オオタニ",
    "street": null,
    "office_name": null,
    "office_name_kana": null
  },
  "0316": {
    "zip_code": "6820316",
    "prefecture": "鳥取県",
    "prefecture_kana": "トットリケン",
    "prefecture_code": "31",
    "city": "東伯郡三朝町",
    "city_kana": "トウハクグンミササチョウ",
    "town": "下畑",
    "town_kana": "シモバタ",
    "street": null,
    "office_name": null,
    "office_name_kana": null
  },
  "0317": {
    "zip_code": "6820317",
    "prefecture": "鳥取県",
    "prefecture_kana": "トットリケン",
    "prefecture_code": "31",
    "city": "東伯郡三朝町",
    "city_kana": "トウハクグンミササチョウ",
    "town": "福本",
    "town_kana": "フクモト",
    "street": null,
    "office_name": null,
    "office_name_kana": null
  },
  "0374": {
    "zip_code": "6820374",
    "prefecture": "鳥取県",
    "prefecture_kana": "トットリケン",
    "prefecture_code": "31",
    "city": "東伯郡三朝町",
    "city_kana": "トウハクグンミササチョウ",
    "town": "曹源寺",
    "town_kana": "ソウゲンジ",
    "street": null,
    "office_name": null,
    "office_name_kana": null
  },
  "0375": {
    "zip_code": "6820375",
    "prefecture": "鳥取県",
    "prefecture_kana": "トットリケン",
    "prefecture_code": "31",
    "city": "東伯郡三朝町",
    "city_kana": "トウハクグンミササチョウ",
    "town": "久原",
    "town_kana": "クバラ",
    "street": null,
    "office_name": null,
    "office_name_kana": null
  },
  "0401": {
    "zip_code": "6820401",
    "prefecture": "鳥取県",
    "prefecture_kana": "トットリケン",
    "prefecture_code": "31",
    "city": "倉吉市",
    "city_kana": "クラヨシシ",
    "town": "関金町安歩",
    "town_kana": "セキガネチョウアブ",
    "street": null,
    "office_name": null,
    "office_name_kana": null
  },
  "0402": {
    "zip_code": "6820402",
    "prefecture": "鳥取県",
    "prefecture_kana": "トットリケン",
    "prefecture_code": "31",
    "city": "倉吉市",
    "city_kana": "クラヨシシ",
    "town": "関金町大鳥居",
    "town_kana": "セキガネチョウオオドリイ",
    "street": null,
    "office_name": null,
    "office_name_kana": null
  },
  "0403": {
    "zip_code": "6820403",
    "prefecture": "鳥取県",
    "prefecture_kana": "トットリケン",
    "prefecture_code": "31",
    "city": "倉吉市",
    "city_kana": "クラヨシシ",
    "town": "関金町松河原",
    "town_kana": "セキガネチョウマツガワラ",
    "street": null,
    "office_name": null,
    "office_name_kana": null
  },
  "0404": {
    "zip_code": "6820404",
    "prefecture": "鳥取県",
    "prefecture_kana": "トットリケン",
    "prefecture_code": "31",
    "city": "倉吉市",
    "city_kana": "クラヨシシ",
    "town": "関金町泰久寺",
    "town_kana": "セキガネチョウタイキュウジ",
    "street": null,
    "office_name": null,
    "office_name_kana": null
  },
  "0411": {
    "zip_code": "6820411",
    "prefecture": "鳥取県",
    "prefecture_kana": "トットリケン",
    "prefecture_code": "31",
    "city": "倉吉市",
    "city_kana": "クラヨシシ",
    "town": "関金町関金宿",
    "town_kana": "セキガネチョウセキガネシュク",
    "street": null,
    "office_name": null,
    "office_name_kana": null
  },
  "0412": {
    "zip_code": "6820412",
    "prefecture": "鳥取県",
    "prefecture_kana": "トットリケン",
    "prefecture_code": "31",
    "city": "倉吉市",
    "city_kana": "クラヨシシ",
    "town": "関金町山口",
    "town_kana": "セキガネチョウヤマグチ",
    "street": null,
    "office_name": null,
    "office_name_kana": null
  },
  "0413": {
    "zip_code": "6820413",
    "prefecture": "鳥取県",
    "prefecture_kana": "トットリケン",
    "prefecture_code": "31",
    "city": "倉吉市",
    "city_kana": "クラヨシシ",
    "town": "関金町郡家",
    "town_kana": "セキガネチョウコオゲ",
    "street": null,
    "office_name": null,
    "office_name_kana": null
  },
  "0421": {
    "zip_code": "6820421",
    "prefecture": "鳥取県",
    "prefecture_kana": "トットリケン",
    "prefecture_code": "31",
    "city": "倉吉市",
    "city_kana": "クラヨシシ",
    "town": "関金町今西",
    "town_kana": "セキガネチョウイマニシ",
    "street": null,
    "office_name": null,
    "office_name_kana": null
  },
  "0422": {
    "zip_code": "6820422",
    "prefecture": "鳥取県",
    "prefecture_kana": "トットリケン",
    "prefecture_code": "31",
    "city": "倉吉市",
    "city_kana": "クラヨシシ",
    "town": "関金町堀",
    "town_kana": "セキガネチョウホリ",
    "street": null,
    "office_name": null,
    "office_name_kana": null
  },
  "0423": {
    "zip_code": "6820423",
    "prefecture": "鳥取県",
    "prefecture_kana": "トットリケン",
    "prefecture_code": "31",
    "city": "倉吉市",
    "city_kana": "クラヨシシ",
    "town": "関金町明高",
    "town_kana": "セキガネチョウミョウコウ",
    "street": null,
    "office_name": null,
    "office_name_kana": null
  },
  "0431": {
    "zip_code": "6820431",
    "prefecture": "鳥取県",
    "prefecture_kana": "トットリケン",
    "prefecture_code": "31",
    "city": "倉吉市",
    "city_kana": "クラヨシシ",
    "town": "関金町米富",
    "town_kana": "セキガネチョウヨネドメ",
    "street": null,
    "office_name": null,
    "office_name_kana": null
  },
  "0432": {
    "zip_code": "6820432",
    "prefecture": "鳥取県",
    "prefecture_kana": "トットリケン",
    "prefecture_code": "31",
    "city": "倉吉市",
    "city_kana": "クラヨシシ",
    "town": "関金町福原",
    "town_kana": "セキガネチョウフクハラ",
    "street": null,
    "office_name": null,
    "office_name_kana": null
  },
  "0433": {
    "zip_code": "6820433",
    "prefecture": "鳥取県",
    "prefecture_kana": "トットリケン",
    "prefecture_code": "31",
    "city": "倉吉市",
    "city_kana": "クラヨシシ",
    "town": "関金町小泉",
    "town_kana": "セキガネチョウコイズミ",
    "street": null,
    "office_name": null,
    "office_name_kana": null
  },
  "0434": {
    "zip_code": "6820434",
    "prefecture": "鳥取県",
    "prefecture_kana": "トットリケン",
    "prefecture_code": "31",
    "city": "倉吉市",
    "city_kana": "クラヨシシ",
    "town": "関金町野添",
    "town_kana": "セキガネチョウノゾエ",
    "street": null,
    "office_name": null,
    "office_name_kana": null
  },
  "0498": {
    "zip_code": "6820498",
    "prefecture": "鳥取県",
    "prefecture_kana": "トットリケン",
    "prefecture_code": "31",
    "city": "倉吉市",
    "city_kana": "クラヨシシ",
    "town": "関金町大鳥居",
    "town_kana": "セキガネチョウオオドリイ",
    "street": "１９３−１",
    "office_name": "倉吉市役所　関金支所",
    "office_name_kana": "クラヨシシヤクシヨ セキガネシシヨ"
  },
  "0601": {
    "zip_code": "6820601",
    "prefecture": "鳥取県",
    "prefecture_kana": "トットリケン",
    "prefecture_code": "31",
    "city": "倉吉市",
    "city_kana": "クラヨシシ",
    "town": "下米積",
    "town_kana": "シモヨナヅミ",
    "street": null,
    "office_name": null,
    "office_name_kana": null
  },
  "0602": {
    "zip_code": "6820602",
    "prefecture": "鳥取県",
    "prefecture_kana": "トットリケン",
    "prefecture_code": "31",
    "city": "倉吉市",
    "city_kana": "クラヨシシ",
    "town": "上米積",
    "town_kana": "カミヨナヅミ",
    "street": null,
    "office_name": null,
    "office_name_kana": null
  },
  "0603": {
    "zip_code": "6820603",
    "prefecture": "鳥取県",
    "prefecture_kana": "トットリケン",
    "prefecture_code": "31",
    "city": "倉吉市",
    "city_kana": "クラヨシシ",
    "town": "三江",
    "town_kana": "ミエ",
    "street": null,
    "office_name": null,
    "office_name_kana": null
  },
  "0604": {
    "zip_code": "6820604",
    "prefecture": "鳥取県",
    "prefecture_kana": "トットリケン",
    "prefecture_code": "31",
    "city": "倉吉市",
    "city_kana": "クラヨシシ",
    "town": "福本",
    "town_kana": "フクモト",
    "street": null,
    "office_name": null,
    "office_name_kana": null
  },
  "0605": {
    "zip_code": "6820605",
    "prefecture": "鳥取県",
    "prefecture_kana": "トットリケン",
    "prefecture_code": "31",
    "city": "倉吉市",
    "city_kana": "クラヨシシ",
    "town": "福富",
    "town_kana": "フクドミ",
    "street": null,
    "office_name": null,
    "office_name_kana": null
  },
  "0606": {
    "zip_code": "6820606",
    "prefecture": "鳥取県",
    "prefecture_kana": "トットリケン",
    "prefecture_code": "31",
    "city": "倉吉市",
    "city_kana": "クラヨシシ",
    "town": "沢谷",
    "town_kana": "サワダニ",
    "street": null,
    "office_name": null,
    "office_name_kana": null
  },
  "0607": {
    "zip_code": "6820607",
    "prefecture": "鳥取県",
    "prefecture_kana": "トットリケン",
    "prefecture_code": "31",
    "city": "倉吉市",
    "city_kana": "クラヨシシ",
    "town": "尾田",
    "town_kana": "オダ",
    "street": null,
    "office_name": null,
    "office_name_kana": null
  },
  "0611": {
    "zip_code": "6820611",
    "prefecture": "鳥取県",
    "prefecture_kana": "トットリケン",
    "prefecture_code": "31",
    "city": "倉吉市",
    "city_kana": "クラヨシシ",
    "town": "杉野",
    "town_kana": "スギノ",
    "street": null,
    "office_name": null,
    "office_name_kana": null
  },
  "0612": {
    "zip_code": "6820612",
    "prefecture": "鳥取県",
    "prefecture_kana": "トットリケン",
    "prefecture_code": "31",
    "city": "倉吉市",
    "city_kana": "クラヨシシ",
    "town": "中野",
    "town_kana": "ナカノ",
    "street": null,
    "office_name": null,
    "office_name_kana": null
  },
  "0613": {
    "zip_code": "6820613",
    "prefecture": "鳥取県",
    "prefecture_kana": "トットリケン",
    "prefecture_code": "31",
    "city": "倉吉市",
    "city_kana": "クラヨシシ",
    "town": "志津",
    "town_kana": "シツ",
    "street": null,
    "office_name": null,
    "office_name_kana": null
  },
  "0615": {
    "zip_code": "6820615",
    "prefecture": "鳥取県",
    "prefecture_kana": "トットリケン",
    "prefecture_code": "31",
    "city": "倉吉市",
    "city_kana": "クラヨシシ",
    "town": "森",
    "town_kana": "モリ",
    "street": null,
    "office_name": null,
    "office_name_kana": null
  },
  "0621": {
    "zip_code": "6820621",
    "prefecture": "鳥取県",
    "prefecture_kana": "トットリケン",
    "prefecture_code": "31",
    "city": "倉吉市",
    "city_kana": "クラヨシシ",
    "town": "忰谷",
    "town_kana": "カセダニ",
    "street": null,
    "office_name": null,
    "office_name_kana": null
  },
  "0622": {
    "zip_code": "6820622",
    "prefecture": "鳥取県",
    "prefecture_kana": "トットリケン",
    "prefecture_code": "31",
    "city": "倉吉市",
    "city_kana": "クラヨシシ",
    "town": "長谷",
    "town_kana": "ナガタニ",
    "street": null,
    "office_name": null,
    "office_name_kana": null
  },
  "0623": {
    "zip_code": "6820623",
    "prefecture": "鳥取県",
    "prefecture_kana": "トットリケン",
    "prefecture_code": "31",
    "city": "倉吉市",
    "city_kana": "クラヨシシ",
    "town": "大河内",
    "town_kana": "オオカチ",
    "street": null,
    "office_name": null,
    "office_name_kana": null
  },
  "0624": {
    "zip_code": "6820624",
    "prefecture": "鳥取県",
    "prefecture_kana": "トットリケン",
    "prefecture_code": "31",
    "city": "倉吉市",
    "city_kana": "クラヨシシ",
    "town": "般若",
    "town_kana": "ハンニャ",
    "street": null,
    "office_name": null,
    "office_name_kana": null
  },
  "0625": {
    "zip_code": "6820625",
    "prefecture": "鳥取県",
    "prefecture_kana": "トットリケン",
    "prefecture_code": "31",
    "city": "倉吉市",
    "city_kana": "クラヨシシ",
    "town": "椋波",
    "town_kana": "モクナミ",
    "street": null,
    "office_name": null,
    "office_name_kana": null
  },
  "0626": {
    "zip_code": "6820626",
    "prefecture": "鳥取県",
    "prefecture_kana": "トットリケン",
    "prefecture_code": "31",
    "city": "倉吉市",
    "city_kana": "クラヨシシ",
    "town": "立見",
    "town_kana": "タテミ",
    "street": null,
    "office_name": null,
    "office_name_kana": null
  },
  "0631": {
    "zip_code": "6820631",
    "prefecture": "鳥取県",
    "prefecture_kana": "トットリケン",
    "prefecture_code": "31",
    "city": "倉吉市",
    "city_kana": "クラヨシシ",
    "town": "上大立",
    "town_kana": "カミオオタチ",
    "street": null,
    "office_name": null,
    "office_name_kana": null
  },
  "0632": {
    "zip_code": "6820632",
    "prefecture": "鳥取県",
    "prefecture_kana": "トットリケン",
    "prefecture_code": "31",
    "city": "倉吉市",
    "city_kana": "クラヨシシ",
    "town": "大立",
    "town_kana": "オオタチ",
    "street": null,
    "office_name": null,
    "office_name_kana": null
  },
  "0633": {
    "zip_code": "6820633",
    "prefecture": "鳥取県",
    "prefecture_kana": "トットリケン",
    "prefecture_code": "31",
    "city": "倉吉市",
    "city_kana": "クラヨシシ",
    "town": "河来見",
    "town_kana": "カワクルミ",
    "street": null,
    "office_name": null,
    "office_name_kana": null
  },
  "0634": {
    "zip_code": "6820634",
    "prefecture": "鳥取県",
    "prefecture_kana": "トットリケン",
    "prefecture_code": "31",
    "city": "倉吉市",
    "city_kana": "クラヨシシ",
    "town": "桜",
    "town_kana": "サクラ",
    "street": null,
    "office_name": null,
    "office_name_kana": null
  },
  "0635": {
    "zip_code": "6820635",
    "prefecture": "鳥取県",
    "prefecture_kana": "トットリケン",
    "prefecture_code": "31",
    "city": "倉吉市",
    "city_kana": "クラヨシシ",
    "town": "服部",
    "town_kana": "ハットリ",
    "street": null,
    "office_name": null,
    "office_name_kana": null
  },
  "0641": {
    "zip_code": "6820641",
    "prefecture": "鳥取県",
    "prefecture_kana": "トットリケン",
    "prefecture_code": "31",
    "city": "倉吉市",
    "city_kana": "クラヨシシ",
    "town": "今在家",
    "town_kana": "イマザイケ",
    "street": null,
    "office_name": null,
    "office_name_kana": null
  },
  "0642": {
    "zip_code": "6820642",
    "prefecture": "鳥取県",
    "prefecture_kana": "トットリケン",
    "prefecture_code": "31",
    "city": "倉吉市",
    "city_kana": "クラヨシシ",
    "town": "上福田",
    "town_kana": "カミフクダ",
    "street": null,
    "office_name": null,
    "office_name_kana": null
  },
  "0643": {
    "zip_code": "6820643",
    "prefecture": "鳥取県",
    "prefecture_kana": "トットリケン",
    "prefecture_code": "31",
    "city": "倉吉市",
    "city_kana": "クラヨシシ",
    "town": "下福田",
    "town_kana": "シモフクダ",
    "street": null,
    "office_name": null,
    "office_name_kana": null
  },
  "0644": {
    "zip_code": "6820644",
    "prefecture": "鳥取県",
    "prefecture_kana": "トットリケン",
    "prefecture_code": "31",
    "city": "倉吉市",
    "city_kana": "クラヨシシ",
    "town": "福積",
    "town_kana": "フクヅミ",
    "street": null,
    "office_name": null,
    "office_name_kana": null
  },
  "0645": {
    "zip_code": "6820645",
    "prefecture": "鳥取県",
    "prefecture_kana": "トットリケン",
    "prefecture_code": "31",
    "city": "倉吉市",
    "city_kana": "クラヨシシ",
    "town": "岡",
    "town_kana": "オカ",
    "street": null,
    "office_name": null,
    "office_name_kana": null
  },
  "0700": {
    "zip_code": "6820700",
    "prefecture": "鳥取県",
    "prefecture_kana": "トットリケン",
    "prefecture_code": "31",
    "city": "東伯郡湯梨浜町",
    "city_kana": "トウハクグンユリハマチョウ",
    "town": "",
    "town_kana": "",
    "street": null,
    "office_name": null,
    "office_name_kana": null
  },
  "0701": {
    "zip_code": "6820701",
    "prefecture": "鳥取県",
    "prefecture_kana": "トットリケン",
    "prefecture_code": "31",
    "city": "東伯郡湯梨浜町",
    "city_kana": "トウハクグンユリハマチョウ",
    "town": "宇野",
    "town_kana": "ウノ",
    "street": null,
    "office_name": null,
    "office_name_kana": null
  },
  "0702": {
    "zip_code": "6820702",
    "prefecture": "鳥取県",
    "prefecture_kana": "トットリケン",
    "prefecture_code": "31",
    "city": "東伯郡湯梨浜町",
    "city_kana": "トウハクグンユリハマチョウ",
    "town": "橋津",
    "town_kana": "ハシヅ",
    "street": null,
    "office_name": null,
    "office_name_kana": null
  },
  "0703": {
    "zip_code": "6820703",
    "prefecture": "鳥取県",
    "prefecture_kana": "トットリケン",
    "prefecture_code": "31",
    "city": "東伯郡湯梨浜町",
    "city_kana": "トウハクグンユリハマチョウ",
    "town": "上橋津",
    "town_kana": "カミハシヅ",
    "street": null,
    "office_name": null,
    "office_name_kana": null
  },
  "0704": {
    "zip_code": "6820704",
    "prefecture": "鳥取県",
    "prefecture_kana": "トットリケン",
    "prefecture_code": "31",
    "city": "東伯郡湯梨浜町",
    "city_kana": "トウハクグンユリハマチョウ",
    "town": "南谷",
    "town_kana": "ミナミダニ",
    "street": null,
    "office_name": null,
    "office_name_kana": null
  },
  "0711": {
    "zip_code": "6820711",
    "prefecture": "鳥取県",
    "prefecture_kana": "トットリケン",
    "prefecture_code": "31",
    "city": "東伯郡湯梨浜町",
    "city_kana": "トウハクグンユリハマチョウ",
    "town": "下浅津",
    "town_kana": "シモアソヅ",
    "street": null,
    "office_name": null,
    "office_name_kana": null
  },
  "0712": {
    "zip_code": "6820712",
    "prefecture": "鳥取県",
    "prefecture_kana": "トットリケン",
    "prefecture_code": "31",
    "city": "東伯郡湯梨浜町",
    "city_kana": "トウハクグンユリハマチョウ",
    "town": "上浅津",
    "town_kana": "カミアソヅ",
    "street": null,
    "office_name": null,
    "office_name_kana": null
  },
  "0713": {
    "zip_code": "6820713",
    "prefecture": "鳥取県",
    "prefecture_kana": "トットリケン",
    "prefecture_code": "31",
    "city": "東伯郡湯梨浜町",
    "city_kana": "トウハクグンユリハマチョウ",
    "town": "光吉",
    "town_kana": "ミツヨシ",
    "street": null,
    "office_name": null,
    "office_name_kana": null
  },
  "0714": {
    "zip_code": "6820714",
    "prefecture": "鳥取県",
    "prefecture_kana": "トットリケン",
    "prefecture_code": "31",
    "city": "東伯郡湯梨浜町",
    "city_kana": "トウハクグンユリハマチョウ",
    "town": "赤池",
    "town_kana": "アカイケ",
    "street": null,
    "office_name": null,
    "office_name_kana": null
  },
  "0715": {
    "zip_code": "6820715",
    "prefecture": "鳥取県",
    "prefecture_kana": "トットリケン",
    "prefecture_code": "31",
    "city": "東伯郡湯梨浜町",
    "city_kana": "トウハクグンユリハマチョウ",
    "town": "はわい温泉",
    "town_kana": "ハワイオンセン",
    "street": null,
    "office_name": null,
    "office_name_kana": null
  },
  "0721": {
    "zip_code": "6820721",
    "prefecture": "鳥取県",
    "prefecture_kana": "トットリケン",
    "prefecture_code": "31",
    "city": "東伯郡湯梨浜町",
    "city_kana": "トウハクグンユリハマチョウ",
    "town": "田後",
    "town_kana": "タジリ",
    "street": null,
    "office_name": null,
    "office_name_kana": null
  },
  "0722": {
    "zip_code": "6820722",
    "prefecture": "鳥取県",
    "prefecture_kana": "トットリケン",
    "prefecture_code": "31",
    "city": "東伯郡湯梨浜町",
    "city_kana": "トウハクグンユリハマチョウ",
    "town": "はわい長瀬",
    "town_kana": "ハワイナガセ",
    "street": null,
    "office_name": null,
    "office_name_kana": null
  },
  "0723": {
    "zip_code": "6820723",
    "prefecture": "鳥取県",
    "prefecture_kana": "トットリケン",
    "prefecture_code": "31",
    "city": "東伯郡湯梨浜町",
    "city_kana": "トウハクグンユリハマチョウ",
    "town": "久留",
    "town_kana": "ヒサドメ",
    "street": null,
    "office_name": null,
    "office_name_kana": null
  },
  "0724": {
    "zip_code": "6820724",
    "prefecture": "鳥取県",
    "prefecture_kana": "トットリケン",
    "prefecture_code": "31",
    "city": "東伯郡湯梨浜町",
    "city_kana": "トウハクグンユリハマチョウ",
    "town": "水下",
    "town_kana": "ミズオチ",
    "street": null,
    "office_name": null,
    "office_name_kana": null
  },
  "0801": {
    "zip_code": "6820801",
    "prefecture": "鳥取県",
    "prefecture_kana": "トットリケン",
    "prefecture_code": "31",
    "city": "倉吉市",
    "city_kana": "クラヨシシ",
    "town": "巌城",
    "town_kana": "イワキ",
    "street": null,
    "office_name": null,
    "office_name_kana": null
  },
  "0802": {
    "zip_code": "6820802",
    "prefecture": "鳥取県",
    "prefecture_kana": "トットリケン",
    "prefecture_code": "31",
    "city": "倉吉市",
    "city_kana": "クラヨシシ",
    "town": "東巌城町",
    "town_kana": "ヒガシイワキチョウ",
    "street": null,
    "office_name": null,
    "office_name_kana": null
  },
  "0803": {
    "zip_code": "6820803",
    "prefecture": "鳥取県",
    "prefecture_kana": "トットリケン",
    "prefecture_code": "31",
    "city": "倉吉市",
    "city_kana": "クラヨシシ",
    "town": "見日町",
    "town_kana": "ミルカチョウ",
    "street": null,
    "office_name": null,
    "office_name_kana": null
  },
  "0804": {
    "zip_code": "6820804",
    "prefecture": "鳥取県",
    "prefecture_kana": "トットリケン",
    "prefecture_code": "31",
    "city": "倉吉市",
    "city_kana": "クラヨシシ",
    "town": "東昭和町",
    "town_kana": "ヒガシショウワマチ",
    "street": null,
    "office_name": null,
    "office_name_kana": null
  },
  "0805": {
    "zip_code": "6820805",
    "prefecture": "鳥取県",
    "prefecture_kana": "トットリケン",
    "prefecture_code": "31",
    "city": "倉吉市",
    "city_kana": "クラヨシシ",
    "town": "南昭和町",
    "town_kana": "ミナミショウワマチ",
    "street": null,
    "office_name": null,
    "office_name_kana": null
  },
  "0806": {
    "zip_code": "6820806",
    "prefecture": "鳥取県",
    "prefecture_kana": "トットリケン",
    "prefecture_code": "31",
    "city": "倉吉市",
    "city_kana": "クラヨシシ",
    "town": "昭和町",
    "town_kana": "ショウワマチ",
    "street": null,
    "office_name": null,
    "office_name_kana": null
  },
  "0807": {
    "zip_code": "6820807",
    "prefecture": "鳥取県",
    "prefecture_kana": "トットリケン",
    "prefecture_code": "31",
    "city": "倉吉市",
    "city_kana": "クラヨシシ",
    "town": "幸町",
    "town_kana": "サイワイマチ",
    "street": null,
    "office_name": null,
    "office_name_kana": null
  },
  "0811": {
    "zip_code": "6820811",
    "prefecture": "鳥取県",
    "prefecture_kana": "トットリケン",
    "prefecture_code": "31",
    "city": "倉吉市",
    "city_kana": "クラヨシシ",
    "town": "上灘町",
    "town_kana": "ウワナダチョウ",
    "street": null,
    "office_name": null,
    "office_name_kana": null
  },
  "0812": {
    "zip_code": "6820812",
    "prefecture": "鳥取県",
    "prefecture_kana": "トットリケン",
    "prefecture_code": "31",
    "city": "倉吉市",
    "city_kana": "クラヨシシ",
    "town": "下田中町",
    "town_kana": "シモタナカチョウ",
    "street": null,
    "office_name": null,
    "office_name_kana": null
  },
  "0813": {
    "zip_code": "6820813",
    "prefecture": "鳥取県",
    "prefecture_kana": "トットリケン",
    "prefecture_code": "31",
    "city": "倉吉市",
    "city_kana": "クラヨシシ",
    "town": "円谷町",
    "town_kana": "エンダニチョウ",
    "street": null,
    "office_name": null,
    "office_name_kana": null
  },
  "0814": {
    "zip_code": "6820814",
    "prefecture": "鳥取県",
    "prefecture_kana": "トットリケン",
    "prefecture_code": "31",
    "city": "倉吉市",
    "city_kana": "クラヨシシ",
    "town": "米田町",
    "town_kana": "ヨネダチョウ",
    "street": null,
    "office_name": null,
    "office_name_kana": null
  },
  "0815": {
    "zip_code": "6820815",
    "prefecture": "鳥取県",
    "prefecture_kana": "トットリケン",
    "prefecture_code": "31",
    "city": "倉吉市",
    "city_kana": "クラヨシシ",
    "town": "新陽町",
    "town_kana": "シンヨウチョウ",
    "street": null,
    "office_name": null,
    "office_name_kana": null
  },
  "0816": {
    "zip_code": "6820816",
    "prefecture": "鳥取県",
    "prefecture_kana": "トットリケン",
    "prefecture_code": "31",
    "city": "倉吉市",
    "city_kana": "クラヨシシ",
    "town": "駄経寺町",
    "town_kana": "ダキョウジチョウ",
    "street": null,
    "office_name": null,
    "office_name_kana": null
  },
  "0817": {
    "zip_code": "6820817",
    "prefecture": "鳥取県",
    "prefecture_kana": "トットリケン",
    "prefecture_code": "31",
    "city": "倉吉市",
    "city_kana": "クラヨシシ",
    "town": "住吉町",
    "town_kana": "スミヨシチョウ",
    "street": null,
    "office_name": null,
    "office_name_kana": null
  },
  "0821": {
    "zip_code": "6820821",
    "prefecture": "鳥取県",
    "prefecture_kana": "トットリケン",
    "prefecture_code": "31",
    "city": "倉吉市",
    "city_kana": "クラヨシシ",
    "town": "魚町",
    "town_kana": "ウオマチ",
    "street": null,
    "office_name": null,
    "office_name_kana": null
  },
  "0822": {
    "zip_code": "6820822",
    "prefecture": "鳥取県",
    "prefecture_kana": "トットリケン",
    "prefecture_code": "31",
    "city": "倉吉市",
    "city_kana": "クラヨシシ",
    "town": "葵町",
    "town_kana": "アオイマチ",
    "street": null,
    "office_name": null,
    "office_name_kana": null
  },
  "0823": {
    "zip_code": "6820823",
    "prefecture": "鳥取県",
    "prefecture_kana": "トットリケン",
    "prefecture_code": "31",
    "city": "倉吉市",
    "city_kana": "クラヨシシ",
    "town": "東町",
    "town_kana": "ヒガシマチ",
    "street": null,
    "office_name": null,
    "office_name_kana": null
  },
  "0824": {
    "zip_code": "6820824",
    "prefecture": "鳥取県",
    "prefecture_kana": "トットリケン",
    "prefecture_code": "31",
    "city": "倉吉市",
    "city_kana": "クラヨシシ",
    "town": "仲ノ町",
    "town_kana": "ナカノチョウ",
    "street": null,
    "office_name": null,
    "office_name_kana": null
  },
  "0825": {
    "zip_code": "6820825",
    "prefecture": "鳥取県",
    "prefecture_kana": "トットリケン",
    "prefecture_code": "31",
    "city": "倉吉市",
    "city_kana": "クラヨシシ",
    "town": "西仲町",
    "town_kana": "ニシナカマチ",
    "street": null,
    "office_name": null,
    "office_name_kana": null
  },
  "0826": {
    "zip_code": "6820826",
    "prefecture": "鳥取県",
    "prefecture_kana": "トットリケン",
    "prefecture_code": "31",
    "city": "倉吉市",
    "city_kana": "クラヨシシ",
    "town": "東仲町",
    "town_kana": "ヒガシナカマチ",
    "street": null,
    "office_name": null,
    "office_name_kana": null
  },
  "0831": {
    "zip_code": "6820831",
    "prefecture": "鳥取県",
    "prefecture_kana": "トットリケン",
    "prefecture_code": "31",
    "city": "倉吉市",
    "city_kana": "クラヨシシ",
    "town": "八幡町",
    "town_kana": "ハチマンチョウ",
    "street": null,
    "office_name": null,
    "office_name_kana": null
  },
  "0832": {
    "zip_code": "6820832",
    "prefecture": "鳥取県",
    "prefecture_kana": "トットリケン",
    "prefecture_code": "31",
    "city": "倉吉市",
    "city_kana": "クラヨシシ",
    "town": "富海",
    "town_kana": "トドミ",
    "street": null,
    "office_name": null,
    "office_name_kana": null
  },
  "0833": {
    "zip_code": "6820833",
    "prefecture": "鳥取県",
    "prefecture_kana": "トットリケン",
    "prefecture_code": "31",
    "city": "倉吉市",
    "city_kana": "クラヨシシ",
    "town": "東鴨新町",
    "town_kana": "ヒガシガモシンマチ",
    "street": null,
    "office_name": null,
    "office_name_kana": null
  },
  "0834": {
    "zip_code": "6820834",
    "prefecture": "鳥取県",
    "prefecture_kana": "トットリケン",
    "prefecture_code": "31",
    "city": "倉吉市",
    "city_kana": "クラヨシシ",
    "town": "東鴨",
    "town_kana": "ヒガシガモ",
    "street": null,
    "office_name": null,
    "office_name_kana": null
  },
  "0835": {
    "zip_code": "6820835",
    "prefecture": "鳥取県",
    "prefecture_kana": "トットリケン",
    "prefecture_code": "31",
    "city": "倉吉市",
    "city_kana": "クラヨシシ",
    "town": "長坂町",
    "town_kana": "ナガサカチョウ",
    "street": null,
    "office_name": null,
    "office_name_kana": null
  },
  "0836": {
    "zip_code": "6820836",
    "prefecture": "鳥取県",
    "prefecture_kana": "トットリケン",
    "prefecture_code": "31",
    "city": "倉吉市",
    "city_kana": "クラヨシシ",
    "town": "長坂新町",
    "town_kana": "ナガサカシンマチ",
    "street": null,
    "office_name": null,
    "office_name_kana": null
  },
  "0837": {
    "zip_code": "6820837",
    "prefecture": "鳥取県",
    "prefecture_kana": "トットリケン",
    "prefecture_code": "31",
    "city": "倉吉市",
    "city_kana": "クラヨシシ",
    "town": "下大江",
    "town_kana": "シモオオエ",
    "street": null,
    "office_name": null,
    "office_name_kana": null
  },
  "0841": {
    "zip_code": "6820841",
    "prefecture": "鳥取県",
    "prefecture_kana": "トットリケン",
    "prefecture_code": "31",
    "city": "倉吉市",
    "city_kana": "クラヨシシ",
    "town": "大宮",
    "town_kana": "オオミヤ",
    "street": null,
    "office_name": null,
    "office_name_kana": null
  },
  "0842": {
    "zip_code": "6820842",
    "prefecture": "鳥取県",
    "prefecture_kana": "トットリケン",
    "prefecture_code": "31",
    "city": "倉吉市",
    "city_kana": "クラヨシシ",
    "town": "岩倉",
    "town_kana": "イワクラ",
    "street": null,
    "office_name": null,
    "office_name_kana": null
  },
  "0843": {
    "zip_code": "6820843",
    "prefecture": "鳥取県",
    "prefecture_kana": "トットリケン",
    "prefecture_code": "31",
    "city": "倉吉市",
    "city_kana": "クラヨシシ",
    "town": "菅原",
    "town_kana": "スゲガハラ",
    "street": null,
    "office_name": null,
    "office_name_kana": null
  },
  "0844": {
    "zip_code": "6820844",
    "prefecture": "鳥取県",
    "prefecture_kana": "トットリケン",
    "prefecture_code": "31",
    "city": "倉吉市",
    "city_kana": "クラヨシシ",
    "town": "広瀬",
    "town_kana": "ヒロセ",
    "street": null,
    "office_name": null,
    "office_name_kana": null
  },
  "0845": {
    "zip_code": "6820845",
    "prefecture": "鳥取県",
    "prefecture_kana": "トットリケン",
    "prefecture_code": "31",
    "city": "倉吉市",
    "city_kana": "クラヨシシ",
    "town": "耳",
    "town_kana": "ミミ",
    "street": null,
    "office_name": null,
    "office_name_kana": null
  },
  "0846": {
    "zip_code": "6820846",
    "prefecture": "鳥取県",
    "prefecture_kana": "トットリケン",
    "prefecture_code": "31",
    "city": "倉吉市",
    "city_kana": "クラヨシシ",
    "town": "鴨河内",
    "town_kana": "カモゴウチ",
    "street": null,
    "office_name": null,
    "office_name_kana": null
  },
  "0847": {
    "zip_code": "6820847",
    "prefecture": "鳥取県",
    "prefecture_kana": "トットリケン",
    "prefecture_code": "31",
    "city": "倉吉市",
    "city_kana": "クラヨシシ",
    "town": "福山",
    "town_kana": "フクヤマ",
    "street": null,
    "office_name": null,
    "office_name_kana": null
  },
  "0851": {
    "zip_code": "6820851",
    "prefecture": "鳥取県",
    "prefecture_kana": "トットリケン",
    "prefecture_code": "31",
    "city": "倉吉市",
    "city_kana": "クラヨシシ",
    "town": "西倉吉町",
    "town_kana": "ニシクラヨシチョウ",
    "street": null,
    "office_name": null,
    "office_name_kana": null
  },
  "0852": {
    "zip_code": "6820852",
    "prefecture": "鳥取県",
    "prefecture_kana": "トットリケン",
    "prefecture_code": "31",
    "city": "倉吉市",
    "city_kana": "クラヨシシ",
    "town": "丸山町",
    "town_kana": "マルヤマチョウ",
    "street": null,
    "office_name": null,
    "office_name_kana": null
  },
  "0853": {
    "zip_code": "6820853",
    "prefecture": "鳥取県",
    "prefecture_kana": "トットリケン",
    "prefecture_code": "31",
    "city": "倉吉市",
    "city_kana": "クラヨシシ",
    "town": "余戸谷町",
    "town_kana": "ヨドヤチョウ",
    "street": null,
    "office_name": null,
    "office_name_kana": null
  },
  "0854": {
    "zip_code": "6820854",
    "prefecture": "鳥取県",
    "prefecture_kana": "トットリケン",
    "prefecture_code": "31",
    "city": "倉吉市",
    "city_kana": "クラヨシシ",
    "town": "みどり町",
    "town_kana": "ミドリマチ",
    "street": null,
    "office_name": null,
    "office_name_kana": null
  },
  "0855": {
    "zip_code": "6820855",
    "prefecture": "鳥取県",
    "prefecture_kana": "トットリケン",
    "prefecture_code": "31",
    "city": "倉吉市",
    "city_kana": "クラヨシシ",
    "town": "生田",
    "town_kana": "イクタ",
    "street": null,
    "office_name": null,
    "office_name_kana": null
  },
  "0856": {
    "zip_code": "6820856",
    "prefecture": "鳥取県",
    "prefecture_kana": "トットリケン",
    "prefecture_code": "31",
    "city": "倉吉市",
    "city_kana": "クラヨシシ",
    "town": "中河原",
    "town_kana": "ナカガワラ",
    "street": null,
    "office_name": null,
    "office_name_kana": null
  },
  "0857": {
    "zip_code": "6820857",
    "prefecture": "鳥取県",
    "prefecture_kana": "トットリケン",
    "prefecture_code": "31",
    "city": "倉吉市",
    "city_kana": "クラヨシシ",
    "town": "北野",
    "town_kana": "キタノ",
    "street": null,
    "office_name": null,
    "office_name_kana": null
  },
  "0861": {
    "zip_code": "6820861",
    "prefecture": "鳥取県",
    "prefecture_kana": "トットリケン",
    "prefecture_code": "31",
    "city": "倉吉市",
    "city_kana": "クラヨシシ",
    "town": "新町",
    "town_kana": "シンマチ",
    "street": null,
    "office_name": null,
    "office_name_kana": null
  },
  "0862": {
    "zip_code": "6820862",
    "prefecture": "鳥取県",
    "prefecture_kana": "トットリケン",
    "prefecture_code": "31",
    "city": "倉吉市",
    "city_kana": "クラヨシシ",
    "town": "西町",
    "town_kana": "ニシマチ",
    "street": null,
    "office_name": null,
    "office_name_kana": null
  },
  "0863": {
    "zip_code": "6820863",
    "prefecture": "鳥取県",
    "prefecture_kana": "トットリケン",
    "prefecture_code": "31",
    "city": "倉吉市",
    "city_kana": "クラヨシシ",
    "town": "瀬崎町",
    "town_kana": "セサキマチ",
    "street": null,
    "office_name": null,
    "office_name_kana": null
  },
  "0864": {
    "zip_code": "6820864",
    "prefecture": "鳥取県",
    "prefecture_kana": "トットリケン",
    "prefecture_code": "31",
    "city": "倉吉市",
    "city_kana": "クラヨシシ",
    "town": "鍛冶町",
    "town_kana": "カジマチ",
    "street": null,
    "office_name": null,
    "office_name_kana": null
  },
  "0865": {
    "zip_code": "6820865",
    "prefecture": "鳥取県",
    "prefecture_kana": "トットリケン",
    "prefecture_code": "31",
    "city": "倉吉市",
    "city_kana": "クラヨシシ",
    "town": "越中町",
    "town_kana": "エッチュウマチ",
    "street": null,
    "office_name": null,
    "office_name_kana": null
  },
  "0866": {
    "zip_code": "6820866",
    "prefecture": "鳥取県",
    "prefecture_kana": "トットリケン",
    "prefecture_code": "31",
    "city": "倉吉市",
    "city_kana": "クラヨシシ",
    "town": "広瀬町",
    "town_kana": "ヒロセマチ",
    "street": null,
    "office_name": null,
    "office_name_kana": null
  },
  "0867": {
    "zip_code": "6820867",
    "prefecture": "鳥取県",
    "prefecture_kana": "トットリケン",
    "prefecture_code": "31",
    "city": "倉吉市",
    "city_kana": "クラヨシシ",
    "town": "越殿町",
    "town_kana": "コシドノチョウ",
    "street": null,
    "office_name": null,
    "office_name_kana": null
  },
  "0871": {
    "zip_code": "6820871",
    "prefecture": "鳥取県",
    "prefecture_kana": "トットリケン",
    "prefecture_code": "31",
    "city": "倉吉市",
    "city_kana": "クラヨシシ",
    "town": "旭田町",
    "town_kana": "アサヒダチョウ",
    "street": null,
    "office_name": null,
    "office_name_kana": null
  },
  "0872": {
    "zip_code": "6820872",
    "prefecture": "鳥取県",
    "prefecture_kana": "トットリケン",
    "prefecture_code": "31",
    "city": "倉吉市",
    "city_kana": "クラヨシシ",
    "town": "福吉町",
    "town_kana": "フクヨシチョウ",
    "street": null,
    "office_name": null,
    "office_name_kana": null
  },
  "0873": {
    "zip_code": "6820873",
    "prefecture": "鳥取県",
    "prefecture_kana": "トットリケン",
    "prefecture_code": "31",
    "city": "倉吉市",
    "city_kana": "クラヨシシ",
    "town": "東岩倉町",
    "town_kana": "ヒガシイワクラマチ",
    "street": null,
    "office_name": null,
    "office_name_kana": null
  },
  "0874": {
    "zip_code": "6820874",
    "prefecture": "鳥取県",
    "prefecture_kana": "トットリケン",
    "prefecture_code": "31",
    "city": "倉吉市",
    "city_kana": "クラヨシシ",
    "town": "西岩倉町",
    "town_kana": "ニシイワクラマチ",
    "street": null,
    "office_name": null,
    "office_name_kana": null
  },
  "0875": {
    "zip_code": "6820875",
    "prefecture": "鳥取県",
    "prefecture_kana": "トットリケン",
    "prefecture_code": "31",
    "city": "倉吉市",
    "city_kana": "クラヨシシ",
    "town": "金森町",
    "town_kana": "カナモリチョウ",
    "street": null,
    "office_name": null,
    "office_name_kana": null
  },
  "0881": {
    "zip_code": "6820881",
    "prefecture": "鳥取県",
    "prefecture_kana": "トットリケン",
    "prefecture_code": "31",
    "city": "倉吉市",
    "city_kana": "クラヨシシ",
    "town": "宮川町",
    "town_kana": "ミヤガワチョウ",
    "street": null,
    "office_name": null,
    "office_name_kana": null
  },
  "0882": {
    "zip_code": "6820882",
    "prefecture": "鳥取県",
    "prefecture_kana": "トットリケン",
    "prefecture_code": "31",
    "city": "倉吉市",
    "city_kana": "クラヨシシ",
    "town": "湊町",
    "town_kana": "ミナトマチ",
    "street": null,
    "office_name": null,
    "office_name_kana": null
  },
  "0883": {
    "zip_code": "6820883",
    "prefecture": "鳥取県",
    "prefecture_kana": "トットリケン",
    "prefecture_code": "31",
    "city": "倉吉市",
    "city_kana": "クラヨシシ",
    "town": "荒神町",
    "town_kana": "コウジンチョウ",
    "street": null,
    "office_name": null,
    "office_name_kana": null
  },
  "0884": {
    "zip_code": "6820884",
    "prefecture": "鳥取県",
    "prefecture_kana": "トットリケン",
    "prefecture_code": "31",
    "city": "倉吉市",
    "city_kana": "クラヨシシ",
    "town": "研屋町",
    "town_kana": "トギヤマチ",
    "street": null,
    "office_name": null,
    "office_name_kana": null
  },
  "0885": {
    "zip_code": "6820885",
    "prefecture": "鳥取県",
    "prefecture_kana": "トットリケン",
    "prefecture_code": "31",
    "city": "倉吉市",
    "city_kana": "クラヨシシ",
    "town": "堺町",
    "town_kana": "サカエマチ",
    "street": null,
    "office_name": null,
    "office_name_kana": null
  },
  "0886": {
    "zip_code": "6820886",
    "prefecture": "鳥取県",
    "prefecture_kana": "トットリケン",
    "prefecture_code": "31",
    "city": "倉吉市",
    "city_kana": "クラヨシシ",
    "town": "大正町",
    "town_kana": "タイショウマチ",
    "street": null,
    "office_name": null,
    "office_name_kana": null
  },
  "0887": {
    "zip_code": "6820887",
    "prefecture": "鳥取県",
    "prefecture_kana": "トットリケン",
    "prefecture_code": "31",
    "city": "倉吉市",
    "city_kana": "クラヨシシ",
    "town": "明治町",
    "town_kana": "メイジマチ",
    "street": null,
    "office_name": null,
    "office_name_kana": null
  },
  "0901": {
    "zip_code": "6820901",
    "prefecture": "鳥取県",
    "prefecture_kana": "トットリケン",
    "prefecture_code": "31",
    "city": "倉吉市",
    "city_kana": "クラヨシシ",
    "town": "穴沢",
    "town_kana": "アナザワ",
    "street": null,
    "office_name": null,
    "office_name_kana": null
  },
  "0902": {
    "zip_code": "6820902",
    "prefecture": "鳥取県",
    "prefecture_kana": "トットリケン",
    "prefecture_code": "31",
    "city": "倉吉市",
    "city_kana": "クラヨシシ",
    "town": "上神",
    "town_kana": "カズワ",
    "street": null,
    "office_name": null,
    "office_name_kana": null
  },
  "0903": {
    "zip_code": "6820903",
    "prefecture": "鳥取県",
    "prefecture_kana": "トットリケン",
    "prefecture_code": "31",
    "city": "倉吉市",
    "city_kana": "クラヨシシ",
    "town": "北面",
    "town_kana": "キタモ",
    "street": null,
    "office_name": null,
    "office_name_kana": null
  },
  "0904": {
    "zip_code": "6820904",
    "prefecture": "鳥取県",
    "prefecture_kana": "トットリケン",
    "prefecture_code": "31",
    "city": "倉吉市",
    "city_kana": "クラヨシシ",
    "town": "尾原",
    "town_kana": "オワラ",
    "street": null,
    "office_name": null,
    "office_name_kana": null
  },
  "0905": {
    "zip_code": "6820905",
    "prefecture": "鳥取県",
    "prefecture_kana": "トットリケン",
    "prefecture_code": "31",
    "city": "倉吉市",
    "city_kana": "クラヨシシ",
    "town": "別所",
    "town_kana": "ベッシヨ",
    "street": null,
    "office_name": null,
    "office_name_kana": null
  },
  "0911": {
    "zip_code": "6820911",
    "prefecture": "鳥取県",
    "prefecture_kana": "トットリケン",
    "prefecture_code": "31",
    "city": "倉吉市",
    "city_kana": "クラヨシシ",
    "town": "寺谷",
    "town_kana": "テラダニ",
    "street": null,
    "office_name": null,
    "office_name_kana": null
  },
  "0912": {
    "zip_code": "6820912",
    "prefecture": "鳥取県",
    "prefecture_kana": "トットリケン",
    "prefecture_code": "31",
    "city": "倉吉市",
    "city_kana": "クラヨシシ",
    "town": "和田",
    "town_kana": "ワダ",
    "street": null,
    "office_name": null,
    "office_name_kana": null
  },
  "0913": {
    "zip_code": "6820913",
    "prefecture": "鳥取県",
    "prefecture_kana": "トットリケン",
    "prefecture_code": "31",
    "city": "倉吉市",
    "city_kana": "クラヨシシ",
    "town": "和田東町",
    "town_kana": "ワダヒガシマチ",
    "street": null,
    "office_name": null,
    "office_name_kana": null
  },
  "0914": {
    "zip_code": "6820914",
    "prefecture": "鳥取県",
    "prefecture_kana": "トットリケン",
    "prefecture_code": "31",
    "city": "倉吉市",
    "city_kana": "クラヨシシ",
    "town": "馬場町",
    "town_kana": "ババチョウ",
    "street": null,
    "office_name": null,
    "office_name_kana": null
  },
  "0915": {
    "zip_code": "6820915",
    "prefecture": "鳥取県",
    "prefecture_kana": "トットリケン",
    "prefecture_code": "31",
    "city": "倉吉市",
    "city_kana": "クラヨシシ",
    "town": "不入岡",
    "town_kana": "フニオカ",
    "street": null,
    "office_name": null,
    "office_name_kana": null
  },
  "0921": {
    "zip_code": "6820921",
    "prefecture": "鳥取県",
    "prefecture_kana": "トットリケン",
    "prefecture_code": "31",
    "city": "倉吉市",
    "city_kana": "クラヨシシ",
    "town": "西福守町",
    "town_kana": "ニシフクモリチョウ",
    "street": null,
    "office_name": null,
    "office_name_kana": null
  },
  "0922": {
    "zip_code": "6820922",
    "prefecture": "鳥取県",
    "prefecture_kana": "トットリケン",
    "prefecture_code": "31",
    "city": "倉吉市",
    "city_kana": "クラヨシシ",
    "town": "福守町",
    "town_kana": "フクモリチョウ",
    "street": null,
    "office_name": null,
    "office_name_kana": null
  },
  "0923": {
    "zip_code": "6820923",
    "prefecture": "鳥取県",
    "prefecture_kana": "トットリケン",
    "prefecture_code": "31",
    "city": "倉吉市",
    "city_kana": "クラヨシシ",
    "town": "鴨川町",
    "town_kana": "カモガワチョウ",
    "street": null,
    "office_name": null,
    "office_name_kana": null
  },
  "0924": {
    "zip_code": "6820924",
    "prefecture": "鳥取県",
    "prefecture_kana": "トットリケン",
    "prefecture_code": "31",
    "city": "倉吉市",
    "city_kana": "クラヨシシ",
    "town": "河原町",
    "town_kana": "カワラマチ",
    "street": null,
    "office_name": null,
    "office_name_kana": null
  },
  "0925": {
    "zip_code": "6820925",
    "prefecture": "鳥取県",
    "prefecture_kana": "トットリケン",
    "prefecture_code": "31",
    "city": "倉吉市",
    "city_kana": "クラヨシシ",
    "town": "秋喜",
    "town_kana": "シュウキ",
    "street": null,
    "office_name": null,
    "office_name_kana": null
  },
  "0926": {
    "zip_code": "6820926",
    "prefecture": "鳥取県",
    "prefecture_kana": "トットリケン",
    "prefecture_code": "31",
    "city": "倉吉市",
    "city_kana": "クラヨシシ",
    "town": "秋喜西町",
    "town_kana": "シュウキニシマチ",
    "street": null,
    "office_name": null,
    "office_name_kana": null
  },
  "0931": {
    "zip_code": "6820931",
    "prefecture": "鳥取県",
    "prefecture_kana": "トットリケン",
    "prefecture_code": "31",
    "city": "倉吉市",
    "city_kana": "クラヨシシ",
    "town": "小鴨",
    "town_kana": "オガモ",
    "street": null,
    "office_name": null,
    "office_name_kana": null
  },
  "0932": {
    "zip_code": "6820932",
    "prefecture": "鳥取県",
    "prefecture_kana": "トットリケン",
    "prefecture_code": "31",
    "city": "倉吉市",
    "city_kana": "クラヨシシ",
    "town": "蔵内",
    "town_kana": "クラウチ",
    "street": null,
    "office_name": null,
    "office_name_kana": null
  },
  "0933": {
    "zip_code": "6820933",
    "prefecture": "鳥取県",
    "prefecture_kana": "トットリケン",
    "prefecture_code": "31",
    "city": "倉吉市",
    "city_kana": "クラヨシシ",
    "town": "石塚",
    "town_kana": "イシヅカ",
    "street": null,
    "office_name": null,
    "office_name_kana": null
  },
  "0934": {
    "zip_code": "6820934",
    "prefecture": "鳥取県",
    "prefecture_kana": "トットリケン",
    "prefecture_code": "31",
    "city": "倉吉市",
    "city_kana": "クラヨシシ",
    "town": "上古川",
    "town_kana": "カミフルカワ",
    "street": null,
    "office_name": null,
    "office_name_kana": null
  },
  "0941": {
    "zip_code": "6820941",
    "prefecture": "鳥取県",
    "prefecture_kana": "トットリケン",
    "prefecture_code": "31",
    "city": "倉吉市",
    "city_kana": "クラヨシシ",
    "town": "大谷",
    "town_kana": "オオタニ",
    "street": null,
    "office_name": null,
    "office_name_kana": null
  },
  "0942": {
    "zip_code": "6820942",
    "prefecture": "鳥取県",
    "prefecture_kana": "トットリケン",
    "prefecture_code": "31",
    "city": "倉吉市",
    "city_kana": "クラヨシシ",
    "town": "国府",
    "town_kana": "コウ",
    "street": null,
    "office_name": null,
    "office_name_kana": null
  },
  "0943": {
    "zip_code": "6820943",
    "prefecture": "鳥取県",
    "prefecture_kana": "トットリケン",
    "prefecture_code": "31",
    "city": "倉吉市",
    "city_kana": "クラヨシシ",
    "town": "国分寺",
    "town_kana": "コクブンジ",
    "street": null,
    "office_name": null,
    "office_name_kana": null
  },
  "0944": {
    "zip_code": "6820944",
    "prefecture": "鳥取県",
    "prefecture_kana": "トットリケン",
    "prefecture_code": "31",
    "city": "倉吉市",
    "city_kana": "クラヨシシ",
    "town": "福光",
    "town_kana": "フクミツ",
    "street": null,
    "office_name": null,
    "office_name_kana": null
  },
  "0945": {
    "zip_code": "6820945",
    "prefecture": "鳥取県",
    "prefecture_kana": "トットリケン",
    "prefecture_code": "31",
    "city": "倉吉市",
    "city_kana": "クラヨシシ",
    "town": "黒見",
    "town_kana": "クロミ",
    "street": null,
    "office_name": null,
    "office_name_kana": null
  },
  "0946": {
    "zip_code": "6820946",
    "prefecture": "鳥取県",
    "prefecture_kana": "トットリケン",
    "prefecture_code": "31",
    "city": "倉吉市",
    "city_kana": "クラヨシシ",
    "town": "横田",
    "town_kana": "ヨコタ",
    "street": null,
    "office_name": null,
    "office_name_kana": null
  },
  "0947": {
    "zip_code": "6820947",
    "prefecture": "鳥取県",
    "prefecture_kana": "トットリケン",
    "prefecture_code": "31",
    "city": "倉吉市",
    "city_kana": "クラヨシシ",
    "town": "大沢",
    "town_kana": "オオサワ",
    "street": null,
    "office_name": null,
    "office_name_kana": null
  },
  "0948": {
    "zip_code": "6820948",
    "prefecture": "鳥取県",
    "prefecture_kana": "トットリケン",
    "prefecture_code": "31",
    "city": "倉吉市",
    "city_kana": "クラヨシシ",
    "town": "大谷茶屋",
    "town_kana": "オオタニチャヤ",
    "street": null,
    "office_name": null,
    "office_name_kana": null
  },
  "0951": {
    "zip_code": "6820951",
    "prefecture": "鳥取県",
    "prefecture_kana": "トットリケン",
    "prefecture_code": "31",
    "city": "倉吉市",
    "city_kana": "クラヨシシ",
    "town": "津原",
    "town_kana": "ツワラ",
    "street": null,
    "office_name": null,
    "office_name_kana": null
  },
  "0952": {
    "zip_code": "6820952",
    "prefecture": "鳥取県",
    "prefecture_kana": "トットリケン",
    "prefecture_code": "31",
    "city": "倉吉市",
    "city_kana": "クラヨシシ",
    "town": "鋤",
    "town_kana": "スキ",
    "street": null,
    "office_name": null,
    "office_name_kana": null
  },
  "0953": {
    "zip_code": "6820953",
    "prefecture": "鳥取県",
    "prefecture_kana": "トットリケン",
    "prefecture_code": "31",
    "city": "倉吉市",
    "city_kana": "クラヨシシ",
    "town": "半坂",
    "town_kana": "ハンザカ",
    "street": null,
    "office_name": null,
    "office_name_kana": null
  },
  "0954": {
    "zip_code": "6820954",
    "prefecture": "鳥取県",
    "prefecture_kana": "トットリケン",
    "prefecture_code": "31",
    "city": "倉吉市",
    "city_kana": "クラヨシシ",
    "town": "谷",
    "town_kana": "タニ",
    "street": null,
    "office_name": null,
    "office_name_kana": null
  },
  "8501": {
    "zip_code": "6828501",
    "prefecture": "鳥取県",
    "prefecture_kana": "トットリケン",
    "prefecture_code": "31",
    "city": "倉吉市",
    "city_kana": "クラヨシシ",
    "town": "巌城",
    "town_kana": "イワキ",
    "street": "１００５",
    "office_name": "オムロン倉吉　株式会社",
    "office_name_kana": "オムロンクラヨシ カブシキガイシヤ"
  },
  "8505": {
    "zip_code": "6828505",
    "prefecture": "鳥取県",
    "prefecture_kana": "トットリケン",
    "prefecture_code": "31",
    "city": "倉吉市",
    "city_kana": "クラヨシシ",
    "town": "上井町",
    "town_kana": "アゲイチョウ",
    "street": "１丁目１５６",
    "office_name": "新日本海新聞社　中部本社",
    "office_name_kana": "シンニホンカイシンブンシヤ チユウブホンシヤ"
  },
  "8522": {
    "zip_code": "6828522",
    "prefecture": "鳥取県",
    "prefecture_kana": "トットリケン",
    "prefecture_code": "31",
    "city": "倉吉市",
    "city_kana": "クラヨシシ",
    "town": "上井",
    "town_kana": "アゲイ",
    "street": "５８７−１",
    "office_name": "倉吉　税務署",
    "office_name_kana": "クラヨシ ゼイムシヨ"
  },
  "8555": {
    "zip_code": "6828555",
    "prefecture": "鳥取県",
    "prefecture_kana": "トットリケン",
    "prefecture_code": "31",
    "city": "倉吉市",
    "city_kana": "クラヨシシ",
    "town": "福庭",
    "town_kana": "フクバ",
    "street": "８５４",
    "office_name": "学校法人　藤田学院　鳥取看護大学　鳥取短期大学",
    "office_name_kana": "ガツコウホウジン フジタガクイン トツトリカンゴダイガク トツトリタンキダイガク"
  },
  "8585": {
    "zip_code": "6828585",
    "prefecture": "鳥取県",
    "prefecture_kana": "トットリケン",
    "prefecture_code": "31",
    "city": "倉吉市",
    "city_kana": "クラヨシシ",
    "town": "堺町",
    "town_kana": "サカエマチ",
    "street": "２丁目２４４",
    "office_name": "有限会社　ホテイ堂",
    "office_name_kana": "ユウゲンガイシヤ ホテイドウ"
  },
  "8601": {
    "zip_code": "6828601",
    "prefecture": "鳥取県",
    "prefecture_kana": "トットリケン",
    "prefecture_code": "31",
    "city": "倉吉市",
    "city_kana": "クラヨシシ",
    "town": "昭和町",
    "town_kana": "ショウワマチ",
    "street": "１丁目６０",
    "office_name": "倉吉信用金庫",
    "office_name_kana": "クラヨシシンヨウキンコ"
  },
  "8611": {
    "zip_code": "6828611",
    "prefecture": "鳥取県",
    "prefecture_kana": "トットリケン",
    "prefecture_code": "31",
    "city": "倉吉市",
    "city_kana": "クラヨシシ",
    "town": "葵町",
    "town_kana": "アオイマチ",
    "street": "７２２",
    "office_name": "倉吉市役所",
    "office_name_kana": "クラヨシシヤクシヨ"
  }
}