{
  "8101": {
    "zip_code": "7048101",
    "prefecture": "岡山県",
    "prefecture_kana": "オカヤマケン",
    "prefecture_code": 33,
    "city": "岡山市東区",
    "city_kana": "オカヤマシヒガシク",
    "town": "西隆寺",
    "town_kana": "サイリュウジ",
    "street": null,
    "office_name": null,
    "office_name_kana": null
  },
  "8102": {
    "zip_code": "7048102",
    "prefecture": "岡山県",
    "prefecture_kana": "オカヤマケン",
    "prefecture_code": 33,
    "city": "岡山市東区",
    "city_kana": "オカヤマシヒガシク",
    "town": "久保",
    "town_kana": "クボ",
    "street": null,
    "office_name": null,
    "office_name_kana": null
  },
  "8103": {
    "zip_code": "7048103",
    "prefecture": "岡山県",
    "prefecture_kana": "オカヤマケン",
    "prefecture_code": 33,
    "city": "岡山市東区",
    "city_kana": "オカヤマシヒガシク",
    "town": "河本町",
    "town_kana": "コウモトチョウ",
    "street": null,
    "office_name": null,
    "office_name_kana": null
  },
  "8104": {
    "zip_code": "7048104",
    "prefecture": "岡山県",
    "prefecture_kana": "オカヤマケン",
    "prefecture_code": 33,
    "city": "岡山市東区",
    "city_kana": "オカヤマシヒガシク",
    "town": "富崎",
    "town_kana": "トミサキ",
    "street": null,
    "office_name": null,
    "office_name_kana": null
  },
  "8105": {
    "zip_code": "7048105",
    "prefecture": "岡山県",
    "prefecture_kana": "オカヤマケン",
    "prefecture_code": 33,
    "city": "岡山市東区",
    "city_kana": "オカヤマシヒガシク",
    "town": "吉原",
    "town_kana": "ヨシワラ",
    "street": null,
    "office_name": null,
    "office_name_kana": null
  },
  "8106": {
    "zip_code": "7048106",
    "prefecture": "岡山県",
    "prefecture_kana": "オカヤマケン",
    "prefecture_code": 33,
    "city": "岡山市東区",
    "city_kana": "オカヤマシヒガシク",
    "town": "西庄",
    "town_kana": "ニシショウ",
    "street": null,
    "office_name": null,
    "office_name_kana": null
  },
  "8107": {
    "zip_code": "7048107",
    "prefecture": "岡山県",
    "prefecture_kana": "オカヤマケン",
    "prefecture_code": 33,
    "city": "岡山市東区",
    "city_kana": "オカヤマシヒガシク",
    "town": "福治",
    "town_kana": "フクジ",
    "street": null,
    "office_name": null,
    "office_name_kana": null
  },
  "8111": {
    "zip_code": "7048111",
    "prefecture": "岡山県",
    "prefecture_kana": "オカヤマケン",
    "prefecture_code": 33,
    "city": "岡山市東区",
    "city_kana": "オカヤマシヒガシク",
    "town": "西大寺北",
    "town_kana": "サイダイジキタ",
    "street": null,
    "office_name": null,
    "office_name_kana": null
  },
  "8112": {
    "zip_code": "7048112",
    "prefecture": "岡山県",
    "prefecture_kana": "オカヤマケン",
    "prefecture_code": 33,
    "city": "岡山市東区",
    "city_kana": "オカヤマシヒガシク",
    "town": "西大寺上",
    "town_kana": "サイダイジカミ",
    "street": null,
    "office_name": null,
    "office_name_kana": null
  },
  "8113": {
    "zip_code": "7048113",
    "prefecture": "岡山県",
    "prefecture_kana": "オカヤマケン",
    "prefecture_code": 33,
    "city": "岡山市東区",
    "city_kana": "オカヤマシヒガシク",
    "town": "西大寺",
    "town_kana": "サイダイジ",
    "street": null,
    "office_name": null,
    "office_name_kana": null
  },
  "8114": {
    "zip_code": "7048114",
    "prefecture": "岡山県",
    "prefecture_kana": "オカヤマケン",
    "prefecture_code": 33,
    "city": "岡山市東区",
    "city_kana": "オカヤマシヒガシク",
    "town": "西大寺東",
    "town_kana": "サイダイジヒガシ",
    "street": null,
    "office_name": null,
    "office_name_kana": null
  },
  "8115": {
    "zip_code": "7048115",
    "prefecture": "岡山県",
    "prefecture_kana": "オカヤマケン",
    "prefecture_code": 33,
    "city": "岡山市東区",
    "city_kana": "オカヤマシヒガシク",
    "town": "向州",
    "town_kana": "ムコウス",
    "street": null,
    "office_name": null,
    "office_name_kana": null
  },
  "8116": {
    "zip_code": "7048116",
    "prefecture": "岡山県",
    "prefecture_kana": "オカヤマケン",
    "prefecture_code": 33,
    "city": "岡山市東区",
    "city_kana": "オカヤマシヒガシク",
    "town": "西大寺中",
    "town_kana": "サイダイジナカ",
    "street": null,
    "office_name": null,
    "office_name_kana": null
  },
  "8117": {
    "zip_code": "7048117",
    "prefecture": "岡山県",
    "prefecture_kana": "オカヤマケン",
    "prefecture_code": 33,
    "city": "岡山市東区",
    "city_kana": "オカヤマシヒガシク",
    "town": "西大寺南",
    "town_kana": "サイダイジミナミ",
    "street": null,
    "office_name": null,
    "office_name_kana": null
  },
  "8121": {
    "zip_code": "7048121",
    "prefecture": "岡山県",
    "prefecture_kana": "オカヤマケン",
    "prefecture_code": 33,
    "city": "岡山市東区",
    "city_kana": "オカヤマシヒガシク",
    "town": "西大寺射越",
    "town_kana": "サイダイジイコシ",
    "street": null,
    "office_name": null,
    "office_name_kana": null
  },
  "8122": {
    "zip_code": "7048122",
    "prefecture": "岡山県",
    "prefecture_kana": "オカヤマケン",
    "prefecture_code": 33,
    "city": "岡山市東区",
    "city_kana": "オカヤマシヒガシク",
    "town": "西大寺新地",
    "town_kana": "サイダイジシンチ",
    "street": null,
    "office_name": null,
    "office_name_kana": null
  },
  "8123": {
    "zip_code": "7048123",
    "prefecture": "岡山県",
    "prefecture_kana": "オカヤマケン",
    "prefecture_code": 33,
    "city": "岡山市東区",
    "city_kana": "オカヤマシヒガシク",
    "town": "西大寺門前",
    "town_kana": "サイダイジモンゼン",
    "street": null,
    "office_name": null,
    "office_name_kana": null
  },
  "8124": {
    "zip_code": "7048124",
    "prefecture": "岡山県",
    "prefecture_kana": "オカヤマケン",
    "prefecture_code": 33,
    "city": "岡山市東区",
    "city_kana": "オカヤマシヒガシク",
    "town": "西大寺五明",
    "town_kana": "サイダイジゴミョウ",
    "street": null,
    "office_name": null,
    "office_name_kana": null
  },
  "8125": {
    "zip_code": "7048125",
    "prefecture": "岡山県",
    "prefecture_kana": "オカヤマケン",
    "prefecture_code": 33,
    "city": "岡山市東区",
    "city_kana": "オカヤマシヒガシク",
    "town": "西大寺川口",
    "town_kana": "サイダイジカワグチ",
    "street": null,
    "office_name": null,
    "office_name_kana": null
  },
  "8126": {
    "zip_code": "7048126",
    "prefecture": "岡山県",
    "prefecture_kana": "オカヤマケン",
    "prefecture_code": 33,
    "city": "岡山市東区",
    "city_kana": "オカヤマシヒガシク",
    "town": "西大寺浜",
    "town_kana": "サイダイジハマ",
    "street": null,
    "office_name": null,
    "office_name_kana": null
  },
  "8127": {
    "zip_code": "7048127",
    "prefecture": "岡山県",
    "prefecture_kana": "オカヤマケン",
    "prefecture_code": 33,
    "city": "岡山市東区",
    "city_kana": "オカヤマシヒガシク",
    "town": "西大寺新",
    "town_kana": "サイダイジシン",
    "street": null,
    "office_name": null,
    "office_name_kana": null
  },
  "8131": {
    "zip_code": "7048131",
    "prefecture": "岡山県",
    "prefecture_kana": "オカヤマケン",
    "prefecture_code": 33,
    "city": "岡山市東区",
    "city_kana": "オカヤマシヒガシク",
    "town": "長沼",
    "town_kana": "ナガヌマ",
    "street": null,
    "office_name": null,
    "office_name_kana": null
  },
  "8132": {
    "zip_code": "7048132",
    "prefecture": "岡山県",
    "prefecture_kana": "オカヤマケン",
    "prefecture_code": 33,
    "city": "岡山市東区",
    "city_kana": "オカヤマシヒガシク",
    "town": "邑久郷",
    "town_kana": "オクノゴウ",
    "street": null,
    "office_name": null,
    "office_name_kana": null
  },
  "8133": {
    "zip_code": "7048133",
    "prefecture": "岡山県",
    "prefecture_kana": "オカヤマケン",
    "prefecture_code": 33,
    "city": "岡山市東区",
    "city_kana": "オカヤマシヒガシク",
    "town": "宿毛",
    "town_kana": "シュクモ",
    "street": null,
    "office_name": null,
    "office_name_kana": null
  },
  "8134": {
    "zip_code": "7048134",
    "prefecture": "岡山県",
    "prefecture_kana": "オカヤマケン",
    "prefecture_code": 33,
    "city": "岡山市東区",
    "city_kana": "オカヤマシヒガシク",
    "town": "北幸田",
    "town_kana": "キタコウダ",
    "street": null,
    "office_name": null,
    "office_name_kana": null
  },
  "8135": {
    "zip_code": "7048135",
    "prefecture": "岡山県",
    "prefecture_kana": "オカヤマケン",
    "prefecture_code": 33,
    "city": "岡山市東区",
    "city_kana": "オカヤマシヒガシク",
    "town": "東幸西",
    "town_kana": "ヒガシコウザイ",
    "street": null,
    "office_name": null,
    "office_name_kana": null
  },
  "8136": {
    "zip_code": "7048136",
    "prefecture": "岡山県",
    "prefecture_kana": "オカヤマケン",
    "prefecture_code": 33,
    "city": "岡山市東区",
    "city_kana": "オカヤマシヒガシク",
    "town": "西幸西",
    "town_kana": "ニシコウザイ",
    "street": null,
    "office_name": null,
    "office_name_kana": null
  },
  "8137": {
    "zip_code": "7048137",
    "prefecture": "岡山県",
    "prefecture_kana": "オカヤマケン",
    "prefecture_code": 33,
    "city": "岡山市東区",
    "city_kana": "オカヤマシヒガシク",
    "town": "乙子",
    "town_kana": "オトゴ",
    "street": null,
    "office_name": null,
    "office_name_kana": null
  },
  "8138": {
    "zip_code": "7048138",
    "prefecture": "岡山県",
    "prefecture_kana": "オカヤマケン",
    "prefecture_code": 33,
    "city": "岡山市東区",
    "city_kana": "オカヤマシヒガシク",
    "town": "神崎町",
    "town_kana": "カンザキチョウ",
    "street": null,
    "office_name": null,
    "office_name_kana": null
  },
  "8141": {
    "zip_code": "7048141",
    "prefecture": "岡山県",
    "prefecture_kana": "オカヤマケン",
    "prefecture_code": 33,
    "city": "岡山市東区",
    "city_kana": "オカヤマシヒガシク",
    "town": "下阿知",
    "town_kana": "シモアチ",
    "street": null,
    "office_name": null,
    "office_name_kana": null
  },
  "8142": {
    "zip_code": "7048142",
    "prefecture": "岡山県",
    "prefecture_kana": "オカヤマケン",
    "prefecture_code": 33,
    "city": "岡山市東区",
    "city_kana": "オカヤマシヒガシク",
    "town": "上阿知",
    "town_kana": "カミアチ",
    "street": null,
    "office_name": null,
    "office_name_kana": null
  },
  "8143": {
    "zip_code": "7048143",
    "prefecture": "岡山県",
    "prefecture_kana": "オカヤマケン",
    "prefecture_code": 33,
    "city": "岡山市東区",
    "city_kana": "オカヤマシヒガシク",
    "town": "千手",
    "town_kana": "センジュ",
    "street": null,
    "office_name": null,
    "office_name_kana": null
  },
  "8144": {
    "zip_code": "7048144",
    "prefecture": "岡山県",
    "prefecture_kana": "オカヤマケン",
    "prefecture_code": 33,
    "city": "岡山市東区",
    "city_kana": "オカヤマシヒガシク",
    "town": "西大寺一宮",
    "town_kana": "サイダイジイチノミヤ",
    "street": null,
    "office_name": null,
    "office_name_kana": null
  },
  "8145": {
    "zip_code": "7048145",
    "prefecture": "岡山県",
    "prefecture_kana": "オカヤマケン",
    "prefecture_code": 33,
    "city": "岡山市東区",
    "city_kana": "オカヤマシヒガシク",
    "town": "東幸崎",
    "town_kana": "ヒガシコウザキ",
    "street": null,
    "office_name": null,
    "office_name_kana": null
  },
  "8146": {
    "zip_code": "7048146",
    "prefecture": "岡山県",
    "prefecture_kana": "オカヤマケン",
    "prefecture_code": 33,
    "city": "岡山市東区",
    "city_kana": "オカヤマシヒガシク",
    "town": "南水門町",
    "town_kana": "ミナミスイモンチョウ",
    "street": null,
    "office_name": null,
    "office_name_kana": null
  },
  "8147": {
    "zip_code": "7048147",
    "prefecture": "岡山県",
    "prefecture_kana": "オカヤマケン",
    "prefecture_code": 33,
    "city": "岡山市東区",
    "city_kana": "オカヤマシヒガシク",
    "town": "正儀",
    "town_kana": "マサキ",
    "street": null,
    "office_name": null,
    "office_name_kana": null
  },
  "8148": {
    "zip_code": "7048148",
    "prefecture": "岡山県",
    "prefecture_kana": "オカヤマケン",
    "prefecture_code": 33,
    "city": "岡山市東区",
    "city_kana": "オカヤマシヒガシク",
    "town": "水門町",
    "town_kana": "スイモンチョウ",
    "street": null,
    "office_name": null,
    "office_name_kana": null
  },
  "8149": {
    "zip_code": "7048149",
    "prefecture": "岡山県",
    "prefecture_kana": "オカヤマケン",
    "prefecture_code": 33,
    "city": "岡山市東区",
    "city_kana": "オカヤマシヒガシク",
    "town": "幸地崎町",
    "town_kana": "コウチザキチョウ",
    "street": null,
    "office_name": null,
    "office_name_kana": null
  },
  "8151": {
    "zip_code": "7048151",
    "prefecture": "岡山県",
    "prefecture_kana": "オカヤマケン",
    "prefecture_code": 33,
    "city": "岡山市東区",
    "city_kana": "オカヤマシヒガシク",
    "town": "東片岡",
    "town_kana": "ヒガシカタオカ",
    "street": null,
    "office_name": null,
    "office_name_kana": null
  },
  "8152": {
    "zip_code": "7048152",
    "prefecture": "岡山県",
    "prefecture_kana": "オカヤマケン",
    "prefecture_code": 33,
    "city": "岡山市東区",
    "city_kana": "オカヤマシヒガシク",
    "town": "宝伝",
    "town_kana": "ホウデン",
    "street": null,
    "office_name": null,
    "office_name_kana": null
  },
  "8153": {
    "zip_code": "7048153",
    "prefecture": "岡山県",
    "prefecture_kana": "オカヤマケン",
    "prefecture_code": 33,
    "city": "岡山市東区",
    "city_kana": "オカヤマシヒガシク",
    "town": "犬島",
    "town_kana": "イヌジマ",
    "street": null,
    "office_name": null,
    "office_name_kana": null
  },
  "8154": {
    "zip_code": "7048154",
    "prefecture": "岡山県",
    "prefecture_kana": "オカヤマケン",
    "prefecture_code": 33,
    "city": "岡山市東区",
    "city_kana": "オカヤマシヒガシク",
    "town": "久々井",
    "town_kana": "クグイ",
    "street": null,
    "office_name": null,
    "office_name_kana": null
  },
  "8155": {
    "zip_code": "7048155",
    "prefecture": "岡山県",
    "prefecture_kana": "オカヤマケン",
    "prefecture_code": 33,
    "city": "岡山市東区",
    "city_kana": "オカヤマシヒガシク",
    "town": "西片岡",
    "town_kana": "ニシカタオカ",
    "street": null,
    "office_name": null,
    "office_name_kana": null
  },
  "8161": {
    "zip_code": "7048161",
    "prefecture": "岡山県",
    "prefecture_kana": "オカヤマケン",
    "prefecture_code": 33,
    "city": "岡山市東区",
    "city_kana": "オカヤマシヒガシク",
    "town": "九蟠",
    "town_kana": "クバン",
    "street": null,
    "office_name": null,
    "office_name_kana": null
  },
  "8162": {
    "zip_code": "7048162",
    "prefecture": "岡山県",
    "prefecture_kana": "オカヤマケン",
    "prefecture_code": 33,
    "city": "岡山市東区",
    "city_kana": "オカヤマシヒガシク",
    "town": "豊田",
    "town_kana": "トヨタ",
    "street": null,
    "office_name": null,
    "office_name_kana": null
  },
  "8163": {
    "zip_code": "7048163",
    "prefecture": "岡山県",
    "prefecture_kana": "オカヤマケン",
    "prefecture_code": 33,
    "city": "岡山市東区",
    "city_kana": "オカヤマシヒガシク",
    "town": "升田",
    "town_kana": "マスダ",
    "street": null,
    "office_name": null,
    "office_name_kana": null
  },
  "8164": {
    "zip_code": "7048164",
    "prefecture": "岡山県",
    "prefecture_kana": "オカヤマケン",
    "prefecture_code": 33,
    "city": "岡山市東区",
    "city_kana": "オカヤマシヒガシク",
    "town": "光津",
    "town_kana": "コウツ",
    "street": null,
    "office_name": null,
    "office_name_kana": null
  },
  "8165": {
    "zip_code": "7048165",
    "prefecture": "岡山県",
    "prefecture_kana": "オカヤマケン",
    "prefecture_code": 33,
    "city": "岡山市東区",
    "city_kana": "オカヤマシヒガシク",
    "town": "政津",
    "town_kana": "マサツ",
    "street": null,
    "office_name": null,
    "office_name_kana": null
  },
  "8166": {
    "zip_code": "7048166",
    "prefecture": "岡山県",
    "prefecture_kana": "オカヤマケン",
    "prefecture_code": 33,
    "city": "岡山市東区",
    "city_kana": "オカヤマシヒガシク",
    "town": "君津",
    "town_kana": "キミツ",
    "street": null,
    "office_name": null,
    "office_name_kana": null
  },
  "8171": {
    "zip_code": "7048171",
    "prefecture": "岡山県",
    "prefecture_kana": "オカヤマケン",
    "prefecture_code": 33,
    "city": "岡山市東区",
    "city_kana": "オカヤマシヒガシク",
    "town": "目黒町",
    "town_kana": "メグロチョウ",
    "street": null,
    "office_name": null,
    "office_name_kana": null
  },
  "8172": {
    "zip_code": "7048172",
    "prefecture": "岡山県",
    "prefecture_kana": "オカヤマケン",
    "prefecture_code": 33,
    "city": "岡山市東区",
    "city_kana": "オカヤマシヒガシク",
    "town": "大多羅町",
    "town_kana": "オオダラチョウ",
    "street": null,
    "office_name": null,
    "office_name_kana": null
  },
  "8173": {
    "zip_code": "7048173",
    "prefecture": "岡山県",
    "prefecture_kana": "オカヤマケン",
    "prefecture_code": 33,
    "city": "岡山市東区",
    "city_kana": "オカヤマシヒガシク",
    "town": "可知",
    "town_kana": "カチ",
    "street": null,
    "office_name": null,
    "office_name_kana": null
  },
  "8174": {
    "zip_code": "7048174",
    "prefecture": "岡山県",
    "prefecture_kana": "オカヤマケン",
    "prefecture_code": 33,
    "city": "岡山市東区",
    "city_kana": "オカヤマシヒガシク",
    "town": "松新町",
    "town_kana": "マツシンチョウ",
    "street": null,
    "office_name": null,
    "office_name_kana": null
  },
  "8175": {
    "zip_code": "7048175",
    "prefecture": "岡山県",
    "prefecture_kana": "オカヤマケン",
    "prefecture_code": 33,
    "city": "岡山市東区",
    "city_kana": "オカヤマシヒガシク",
    "town": "益野町",
    "town_kana": "マスノチョウ",
    "street": null,
    "office_name": null,
    "office_name_kana": null
  },
  "8176": {
    "zip_code": "7048176",
    "prefecture": "岡山県",
    "prefecture_kana": "オカヤマケン",
    "prefecture_code": 33,
    "city": "岡山市東区",
    "city_kana": "オカヤマシヒガシク",
    "town": "中川町",
    "town_kana": "ナカガワチョウ",
    "street": null,
    "office_name": null,
    "office_name_kana": null
  },
  "8181": {
    "zip_code": "7048181",
    "prefecture": "岡山県",
    "prefecture_kana": "オカヤマケン",
    "prefecture_code": 33,
    "city": "岡山市東区",
    "city_kana": "オカヤマシヒガシク",
    "town": "浅越",
    "town_kana": "アサゴエ",
    "street": null,
    "office_name": null,
    "office_name_kana": null
  },
  "8182": {
    "zip_code": "7048182",
    "prefecture": "岡山県",
    "prefecture_kana": "オカヤマケン",
    "prefecture_code": 33,
    "city": "岡山市東区",
    "city_kana": "オカヤマシヒガシク",
    "town": "広谷",
    "town_kana": "ヒロタニ",
    "street": null,
    "office_name": null,
    "office_name_kana": null
  },
  "8183": {
    "zip_code": "7048183",
    "prefecture": "岡山県",
    "prefecture_kana": "オカヤマケン",
    "prefecture_code": 33,
    "city": "岡山市東区",
    "city_kana": "オカヤマシヒガシク",
    "town": "西大寺松崎",
    "town_kana": "サイダイジマツザキ",
    "street": null,
    "office_name": null,
    "office_name_kana": null
  },
  "8184": {
    "zip_code": "7048184",
    "prefecture": "岡山県",
    "prefecture_kana": "オカヤマケン",
    "prefecture_code": 33,
    "city": "岡山市東区",
    "city_kana": "オカヤマシヒガシク",
    "town": "富士見町",
    "town_kana": "フジミチョウ",
    "street": null,
    "office_name": null,
    "office_name_kana": null
  },
  "8191": {
    "zip_code": "7048191",
    "prefecture": "岡山県",
    "prefecture_kana": "オカヤマケン",
    "prefecture_code": 33,
    "city": "岡山市東区",
    "city_kana": "オカヤマシヒガシク",
    "town": "西大寺中野",
    "town_kana": "サイダイジナカノ",
    "street": null,
    "office_name": null,
    "office_name_kana": null
  },
  "8192": {
    "zip_code": "7048192",
    "prefecture": "岡山県",
    "prefecture_kana": "オカヤマケン",
    "prefecture_code": 33,
    "city": "岡山市東区",
    "city_kana": "オカヤマシヒガシク",
    "town": "西大寺中野本町",
    "town_kana": "サイダイジナカノホンマチ",
    "street": null,
    "office_name": null,
    "office_name_kana": null
  },
  "8193": {
    "zip_code": "7048193",
    "prefecture": "岡山県",
    "prefecture_kana": "オカヤマケン",
    "prefecture_code": 33,
    "city": "岡山市東区",
    "city_kana": "オカヤマシヒガシク",
    "town": "金岡西町",
    "town_kana": "カナオカニシマチ",
    "street": null,
    "office_name": null,
    "office_name_kana": null
  },
  "8194": {
    "zip_code": "7048194",
    "prefecture": "岡山県",
    "prefecture_kana": "オカヤマケン",
    "prefecture_code": 33,
    "city": "岡山市東区",
    "city_kana": "オカヤマシヒガシク",
    "town": "金岡東町",
    "town_kana": "カナオカヒガシマチ",
    "street": null,
    "office_name": null,
    "office_name_kana": null
  },
  "8195": {
    "zip_code": "7048195",
    "prefecture": "岡山県",
    "prefecture_kana": "オカヤマケン",
    "prefecture_code": 33,
    "city": "岡山市東区",
    "city_kana": "オカヤマシヒガシク",
    "town": "西大寺金岡",
    "town_kana": "サイダイジカナオカ",
    "street": null,
    "office_name": null,
    "office_name_kana": null
  },
  "8196": {
    "zip_code": "7048196",
    "prefecture": "岡山県",
    "prefecture_kana": "オカヤマケン",
    "prefecture_code": 33,
    "city": "岡山市東区",
    "city_kana": "オカヤマシヒガシク",
    "town": "金田",
    "town_kana": "カナダ",
    "street": null,
    "office_name": null,
    "office_name_kana": null
  },
  "8501": {
    "zip_code": "7048501",
    "prefecture": "岡山県",
    "prefecture_kana": "オカヤマケン",
    "prefecture_code": 33,
    "city": "岡山市東区",
    "city_kana": "オカヤマシヒガシク",
    "town": "西大寺中野",
    "town_kana": "サイダイジナカノ",
    "street": "３７７−１",
    "office_name": "ＪＡ西大寺　西大寺農業協同組合",
    "office_name_kana": "ジエイエイサイダイジ サイダイジノウギヨウキヨウドウクミアイ"
  },
  "8502": {
    "zip_code": "7048502",
    "prefecture": "岡山県",
    "prefecture_kana": "オカヤマケン",
    "prefecture_code": 33,
    "city": "岡山市東区",
    "city_kana": "オカヤマシヒガシク",
    "town": "西大寺上",
    "town_kana": "サイダイジカミ",
    "street": "１丁目１９−１９",
    "office_name": "岡山学芸館高等学校",
    "office_name_kana": "オカヤマガクゲイカンコウトウガツコウ"
  },
  "8510": {
    "zip_code": "7048510",
    "prefecture": "岡山県",
    "prefecture_kana": "オカヤマケン",
    "prefecture_code": 33,
    "city": "岡山市東区",
    "city_kana": "オカヤマシヒガシク",
    "town": "金岡東町",
    "town_kana": "カナオカヒガシマチ",
    "street": "３丁目３−１",
    "office_name": "日本エクスラン工業　株式会社　西大寺工場",
    "office_name_kana": "ニホンエクスランコウギヨウ カブシキガイシヤ サイダイジコウジヨウ"
  },
  "8555": {
    "zip_code": "7048555",
    "prefecture": "岡山県",
    "prefecture_kana": "オカヤマケン",
    "prefecture_code": 33,
    "city": "岡山市東区",
    "city_kana": "オカヤマシヒガシク",
    "town": "西大寺上",
    "town_kana": "サイダイジカミ",
    "street": "２丁目７−３１",
    "office_name": "東区役所",
    "office_name_kana": "ヒガシクヤクシヨ"
  },
  "8588": {
    "zip_code": "7048588",
    "prefecture": "岡山県",
    "prefecture_kana": "オカヤマケン",
    "prefecture_code": 33,
    "city": "岡山市東区",
    "city_kana": "オカヤマシヒガシク",
    "town": "西大寺五明",
    "town_kana": "サイダイジゴミョウ",
    "street": "３８７−１",
    "office_name": "カーツ　株式会社　本部",
    "office_name_kana": "カ-ツ カブシキガイシヤ ホンブ"
  }
}