{
  "0000": {
    "zip_code": "7100000",
    "prefecture": "岡山県",
    "prefecture_kana": "オカヤマケン",
    "prefecture_code": 33,
    "city": "倉敷市",
    "city_kana": "クラシキシ",
    "town": "",
    "town_kana": "",
    "street": null,
    "office_name": null,
    "office_name_kana": null
  },
  "0001": {
    "zip_code": "7100001",
    "prefecture": "岡山県",
    "prefecture_kana": "オカヤマケン",
    "prefecture_code": 33,
    "city": "倉敷市",
    "city_kana": "クラシキシ",
    "town": "三田",
    "town_kana": "ミツダ",
    "street": null,
    "office_name": null,
    "office_name_kana": null
  },
  "0002": {
    "zip_code": "7100002",
    "prefecture": "岡山県",
    "prefecture_kana": "オカヤマケン",
    "prefecture_code": 33,
    "city": "倉敷市",
    "city_kana": "クラシキシ",
    "town": "生坂",
    "town_kana": "イクサカ",
    "street": null,
    "office_name": null,
    "office_name_kana": null
  },
  "0003": {
    "zip_code": "7100003",
    "prefecture": "岡山県",
    "prefecture_kana": "オカヤマケン",
    "prefecture_code": 33,
    "city": "倉敷市",
    "city_kana": "クラシキシ",
    "town": "平田",
    "town_kana": "ヒラタ",
    "street": null,
    "office_name": null,
    "office_name_kana": null
  },
  "0004": {
    "zip_code": "7100004",
    "prefecture": "岡山県",
    "prefecture_kana": "オカヤマケン",
    "prefecture_code": 33,
    "city": "倉敷市",
    "city_kana": "クラシキシ",
    "town": "西坂",
    "town_kana": "ニシザカ",
    "street": null,
    "office_name": null,
    "office_name_kana": null
  },
  "0005": {
    "zip_code": "7100005",
    "prefecture": "岡山県",
    "prefecture_kana": "オカヤマケン",
    "prefecture_code": 33,
    "city": "倉敷市",
    "city_kana": "クラシキシ",
    "town": "西岡",
    "town_kana": "ニシオカ",
    "street": null,
    "office_name": null,
    "office_name_kana": null
  },
  "0006": {
    "zip_code": "7100006",
    "prefecture": "岡山県",
    "prefecture_kana": "オカヤマケン",
    "prefecture_code": 33,
    "city": "倉敷市",
    "city_kana": "クラシキシ",
    "town": "祐安",
    "town_kana": "スケヤス",
    "street": null,
    "office_name": null,
    "office_name_kana": null
  },
  "0007": {
    "zip_code": "7100007",
    "prefecture": "岡山県",
    "prefecture_kana": "オカヤマケン",
    "prefecture_code": 33,
    "city": "倉敷市",
    "city_kana": "クラシキシ",
    "town": "浅原",
    "town_kana": "アサバラ",
    "street": null,
    "office_name": null,
    "office_name_kana": null
  },
  "0011": {
    "zip_code": "7100011",
    "prefecture": "岡山県",
    "prefecture_kana": "オカヤマケン",
    "prefecture_code": 33,
    "city": "倉敷市",
    "city_kana": "クラシキシ",
    "town": "徳芳",
    "town_kana": "トクボウ",
    "street": null,
    "office_name": null,
    "office_name_kana": null
  },
  "0012": {
    "zip_code": "7100012",
    "prefecture": "岡山県",
    "prefecture_kana": "オカヤマケン",
    "prefecture_code": 33,
    "city": "倉敷市",
    "city_kana": "クラシキシ",
    "town": "鳥羽",
    "town_kana": "トバ",
    "street": null,
    "office_name": null,
    "office_name_kana": null
  },
  "0013": {
    "zip_code": "7100013",
    "prefecture": "岡山県",
    "prefecture_kana": "オカヤマケン",
    "prefecture_code": 33,
    "city": "倉敷市",
    "city_kana": "クラシキシ",
    "town": "中帯江",
    "town_kana": "ナカオビエ",
    "street": null,
    "office_name": null,
    "office_name_kana": null
  },
  "0014": {
    "zip_code": "7100014",
    "prefecture": "岡山県",
    "prefecture_kana": "オカヤマケン",
    "prefecture_code": 33,
    "city": "倉敷市",
    "city_kana": "クラシキシ",
    "town": "黒崎",
    "town_kana": "クロサキ",
    "street": null,
    "office_name": null,
    "office_name_kana": null
  },
  "0015": {
    "zip_code": "7100015",
    "prefecture": "岡山県",
    "prefecture_kana": "オカヤマケン",
    "prefecture_code": 33,
    "city": "倉敷市",
    "city_kana": "クラシキシ",
    "town": "中庄団地",
    "town_kana": "ナカショウダンチ",
    "street": null,
    "office_name": null,
    "office_name_kana": null
  },
  "0016": {
    "zip_code": "7100016",
    "prefecture": "岡山県",
    "prefecture_kana": "オカヤマケン",
    "prefecture_code": 33,
    "city": "倉敷市",
    "city_kana": "クラシキシ",
    "town": "中庄",
    "town_kana": "ナカショウ",
    "street": null,
    "office_name": null,
    "office_name_kana": null
  },
  "0021": {
    "zip_code": "7100021",
    "prefecture": "岡山県",
    "prefecture_kana": "オカヤマケン",
    "prefecture_code": 33,
    "city": "倉敷市",
    "city_kana": "クラシキシ",
    "town": "高須賀",
    "town_kana": "タカスカ",
    "street": null,
    "office_name": null,
    "office_name_kana": null
  },
  "0022": {
    "zip_code": "7100022",
    "prefecture": "岡山県",
    "prefecture_kana": "オカヤマケン",
    "prefecture_code": 33,
    "city": "倉敷市",
    "city_kana": "クラシキシ",
    "town": "早高",
    "town_kana": "ハヤタカ",
    "street": null,
    "office_name": null,
    "office_name_kana": null
  },
  "0023": {
    "zip_code": "7100023",
    "prefecture": "岡山県",
    "prefecture_kana": "オカヤマケン",
    "prefecture_code": 33,
    "city": "倉敷市",
    "city_kana": "クラシキシ",
    "town": "帯高",
    "town_kana": "オビタカ",
    "street": null,
    "office_name": null,
    "office_name_kana": null
  },
  "0024": {
    "zip_code": "7100024",
    "prefecture": "岡山県",
    "prefecture_kana": "オカヤマケン",
    "prefecture_code": 33,
    "city": "倉敷市",
    "city_kana": "クラシキシ",
    "town": "亀山",
    "town_kana": "カメヤマ",
    "street": null,
    "office_name": null,
    "office_name_kana": null
  },
  "0025": {
    "zip_code": "7100025",
    "prefecture": "岡山県",
    "prefecture_kana": "オカヤマケン",
    "prefecture_code": 33,
    "city": "倉敷市",
    "city_kana": "クラシキシ",
    "town": "倉敷ハイツ",
    "town_kana": "クラシキハイツ",
    "street": null,
    "office_name": null,
    "office_name_kana": null
  },
  "0026": {
    "zip_code": "7100026",
    "prefecture": "岡山県",
    "prefecture_kana": "オカヤマケン",
    "prefecture_code": 33,
    "city": "倉敷市",
    "city_kana": "クラシキシ",
    "town": "加須山",
    "town_kana": "カスヤマ",
    "street": null,
    "office_name": null,
    "office_name_kana": null
  },
  "0027": {
    "zip_code": "7100027",
    "prefecture": "岡山県",
    "prefecture_kana": "オカヤマケン",
    "prefecture_code": 33,
    "city": "倉敷市",
    "city_kana": "クラシキシ",
    "town": "西田",
    "town_kana": "ニシダ",
    "street": null,
    "office_name": null,
    "office_name_kana": null
  },
  "0031": {
    "zip_code": "7100031",
    "prefecture": "岡山県",
    "prefecture_kana": "オカヤマケン",
    "prefecture_code": 33,
    "city": "倉敷市",
    "city_kana": "クラシキシ",
    "town": "有城",
    "town_kana": "アルキ",
    "street": null,
    "office_name": null,
    "office_name_kana": null
  },
  "0032": {
    "zip_code": "7100032",
    "prefecture": "岡山県",
    "prefecture_kana": "オカヤマケン",
    "prefecture_code": 33,
    "city": "倉敷市",
    "city_kana": "クラシキシ",
    "town": "東粒浦",
    "town_kana": "ヒガシツブウラ",
    "street": null,
    "office_name": null,
    "office_name_kana": null
  },
  "0033": {
    "zip_code": "7100033",
    "prefecture": "岡山県",
    "prefecture_kana": "オカヤマケン",
    "prefecture_code": 33,
    "city": "倉敷市",
    "city_kana": "クラシキシ",
    "town": "粒江団地",
    "town_kana": "ツブエダンチ",
    "street": null,
    "office_name": null,
    "office_name_kana": null
  },
  "0034": {
    "zip_code": "7100034",
    "prefecture": "岡山県",
    "prefecture_kana": "オカヤマケン",
    "prefecture_code": 33,
    "city": "倉敷市",
    "city_kana": "クラシキシ",
    "town": "粒江",
    "town_kana": "ツブエ",
    "street": null,
    "office_name": null,
    "office_name_kana": null
  },
  "0035": {
    "zip_code": "7100035",
    "prefecture": "岡山県",
    "prefecture_kana": "オカヤマケン",
    "prefecture_code": 33,
    "city": "倉敷市",
    "city_kana": "クラシキシ",
    "town": "黒石",
    "town_kana": "クロイシ",
    "street": null,
    "office_name": null,
    "office_name_kana": null
  },
  "0036": {
    "zip_code": "7100036",
    "prefecture": "岡山県",
    "prefecture_kana": "オカヤマケン",
    "prefecture_code": 33,
    "city": "倉敷市",
    "city_kana": "クラシキシ",
    "town": "粒浦",
    "town_kana": "ツブウラ",
    "street": null,
    "office_name": null,
    "office_name_kana": null
  },
  "0037": {
    "zip_code": "7100037",
    "prefecture": "岡山県",
    "prefecture_kana": "オカヤマケン",
    "prefecture_code": 33,
    "city": "倉敷市",
    "city_kana": "クラシキシ",
    "town": "八軒屋",
    "town_kana": "ハチケンヤ",
    "street": null,
    "office_name": null,
    "office_name_kana": null
  },
  "0038": {
    "zip_code": "7100038",
    "prefecture": "岡山県",
    "prefecture_kana": "オカヤマケン",
    "prefecture_code": 33,
    "city": "倉敷市",
    "city_kana": "クラシキシ",
    "town": "新田",
    "town_kana": "シンデン",
    "street": null,
    "office_name": null,
    "office_name_kana": null
  },
  "0041": {
    "zip_code": "7100041",
    "prefecture": "岡山県",
    "prefecture_kana": "オカヤマケン",
    "prefecture_code": 33,
    "city": "倉敷市",
    "city_kana": "クラシキシ",
    "town": "五日市",
    "town_kana": "イツカイチ",
    "street": null,
    "office_name": null,
    "office_name_kana": null
  },
  "0042": {
    "zip_code": "7100042",
    "prefecture": "岡山県",
    "prefecture_kana": "オカヤマケン",
    "prefecture_code": 33,
    "city": "倉敷市",
    "city_kana": "クラシキシ",
    "town": "二日市",
    "town_kana": "フツカイチ",
    "street": null,
    "office_name": null,
    "office_name_kana": null
  },
  "0043": {
    "zip_code": "7100043",
    "prefecture": "岡山県",
    "prefecture_kana": "オカヤマケン",
    "prefecture_code": 33,
    "city": "倉敷市",
    "city_kana": "クラシキシ",
    "town": "羽島",
    "town_kana": "ハシマ",
    "street": null,
    "office_name": null,
    "office_name_kana": null
  },
  "0044": {
    "zip_code": "7100044",
    "prefecture": "岡山県",
    "prefecture_kana": "オカヤマケン",
    "prefecture_code": 33,
    "city": "倉敷市",
    "city_kana": "クラシキシ",
    "town": "向山",
    "town_kana": "ムコウヤマ",
    "street": null,
    "office_name": null,
    "office_name_kana": null
  },
  "0045": {
    "zip_code": "7100045",
    "prefecture": "岡山県",
    "prefecture_kana": "オカヤマケン",
    "prefecture_code": 33,
    "city": "倉敷市",
    "city_kana": "クラシキシ",
    "town": "船倉町",
    "town_kana": "フナグラチョウ",
    "street": null,
    "office_name": null,
    "office_name_kana": null
  },
  "0046": {
    "zip_code": "7100046",
    "prefecture": "岡山県",
    "prefecture_kana": "オカヤマケン",
    "prefecture_code": 33,
    "city": "倉敷市",
    "city_kana": "クラシキシ",
    "town": "中央",
    "town_kana": "チュウオウ",
    "street": null,
    "office_name": null,
    "office_name_kana": null
  },
  "0047": {
    "zip_code": "7100047",
    "prefecture": "岡山県",
    "prefecture_kana": "オカヤマケン",
    "prefecture_code": 33,
    "city": "倉敷市",
    "city_kana": "クラシキシ",
    "town": "大島",
    "town_kana": "オオジマ",
    "street": null,
    "office_name": null,
    "office_name_kana": null
  },
  "0048": {
    "zip_code": "7100048",
    "prefecture": "岡山県",
    "prefecture_kana": "オカヤマケン",
    "prefecture_code": 33,
    "city": "倉敷市",
    "city_kana": "クラシキシ",
    "town": "福島",
    "town_kana": "フクシマ",
    "street": null,
    "office_name": null,
    "office_name_kana": null
  },
  "0051": {
    "zip_code": "7100051",
    "prefecture": "岡山県",
    "prefecture_kana": "オカヤマケン",
    "prefecture_code": 33,
    "city": "倉敷市",
    "city_kana": "クラシキシ",
    "town": "幸町",
    "town_kana": "サイワイチョウ",
    "street": null,
    "office_name": null,
    "office_name_kana": null
  },
  "0052": {
    "zip_code": "7100052",
    "prefecture": "岡山県",
    "prefecture_kana": "オカヤマケン",
    "prefecture_code": 33,
    "city": "倉敷市",
    "city_kana": "クラシキシ",
    "town": "美和",
    "town_kana": "ミワ",
    "street": null,
    "office_name": null,
    "office_name_kana": null
  },
  "0053": {
    "zip_code": "7100053",
    "prefecture": "岡山県",
    "prefecture_kana": "オカヤマケン",
    "prefecture_code": 33,
    "city": "倉敷市",
    "city_kana": "クラシキシ",
    "town": "東町",
    "town_kana": "ヒガシマチ",
    "street": null,
    "office_name": null,
    "office_name_kana": null
  },
  "0054": {
    "zip_code": "7100054",
    "prefecture": "岡山県",
    "prefecture_kana": "オカヤマケン",
    "prefecture_code": 33,
    "city": "倉敷市",
    "city_kana": "クラシキシ",
    "town": "本町",
    "town_kana": "ホンマチ",
    "street": null,
    "office_name": null,
    "office_name_kana": null
  },
  "0055": {
    "zip_code": "7100055",
    "prefecture": "岡山県",
    "prefecture_kana": "オカヤマケン",
    "prefecture_code": 33,
    "city": "倉敷市",
    "city_kana": "クラシキシ",
    "town": "阿知",
    "town_kana": "アチ",
    "street": null,
    "office_name": null,
    "office_name_kana": null
  },
  "0056": {
    "zip_code": "7100056",
    "prefecture": "岡山県",
    "prefecture_kana": "オカヤマケン",
    "prefecture_code": 33,
    "city": "倉敷市",
    "city_kana": "クラシキシ",
    "town": "鶴形",
    "town_kana": "ツルガタ",
    "street": null,
    "office_name": null,
    "office_name_kana": null
  },
  "0057": {
    "zip_code": "7100057",
    "prefecture": "岡山県",
    "prefecture_kana": "オカヤマケン",
    "prefecture_code": 33,
    "city": "倉敷市",
    "city_kana": "クラシキシ",
    "town": "昭和",
    "town_kana": "ショウワ",
    "street": null,
    "office_name": null,
    "office_name_kana": null
  },
  "0061": {
    "zip_code": "7100061",
    "prefecture": "岡山県",
    "prefecture_kana": "オカヤマケン",
    "prefecture_code": 33,
    "city": "倉敷市",
    "city_kana": "クラシキシ",
    "town": "浜ノ茶屋",
    "town_kana": "ハマノチャヤ",
    "street": null,
    "office_name": null,
    "office_name_kana": null
  },
  "0062": {
    "zip_code": "7100062",
    "prefecture": "岡山県",
    "prefecture_kana": "オカヤマケン",
    "prefecture_code": 33,
    "city": "倉敷市",
    "city_kana": "クラシキシ",
    "town": "浜町",
    "town_kana": "ハママチ",
    "street": null,
    "office_name": null,
    "office_name_kana": null
  },
  "0063": {
    "zip_code": "7100063",
    "prefecture": "岡山県",
    "prefecture_kana": "オカヤマケン",
    "prefecture_code": 33,
    "city": "倉敷市",
    "city_kana": "クラシキシ",
    "town": "日ノ出町",
    "town_kana": "ヒノデチョウ",
    "street": null,
    "office_name": null,
    "office_name_kana": null
  },
  "0064": {
    "zip_code": "7100064",
    "prefecture": "岡山県",
    "prefecture_kana": "オカヤマケン",
    "prefecture_code": 33,
    "city": "倉敷市",
    "city_kana": "クラシキシ",
    "town": "青江",
    "town_kana": "アオエ",
    "street": null,
    "office_name": null,
    "office_name_kana": null
  },
  "0065": {
    "zip_code": "7100065",
    "prefecture": "岡山県",
    "prefecture_kana": "オカヤマケン",
    "prefecture_code": 33,
    "city": "倉敷市",
    "city_kana": "クラシキシ",
    "town": "宮前",
    "town_kana": "ミヤマエ",
    "street": null,
    "office_name": null,
    "office_name_kana": null
  },
  "0131": {
    "zip_code": "7100131",
    "prefecture": "岡山県",
    "prefecture_kana": "オカヤマケン",
    "prefecture_code": 33,
    "city": "倉敷市",
    "city_kana": "クラシキシ",
    "town": "天城台",
    "town_kana": "アマキダイ",
    "street": null,
    "office_name": null,
    "office_name_kana": null
  },
  "0132": {
    "zip_code": "7100132",
    "prefecture": "岡山県",
    "prefecture_kana": "オカヤマケン",
    "prefecture_code": 33,
    "city": "倉敷市",
    "city_kana": "クラシキシ",
    "town": "藤戸町天城",
    "town_kana": "フジトチョウアマキ",
    "street": null,
    "office_name": null,
    "office_name_kana": null
  },
  "0133": {
    "zip_code": "7100133",
    "prefecture": "岡山県",
    "prefecture_kana": "オカヤマケン",
    "prefecture_code": 33,
    "city": "倉敷市",
    "city_kana": "クラシキシ",
    "town": "藤戸町藤戸",
    "town_kana": "フジトチョウフジト",
    "street": null,
    "office_name": null,
    "office_name_kana": null
  },
  "0141": {
    "zip_code": "7100141",
    "prefecture": "岡山県",
    "prefecture_kana": "オカヤマケン",
    "prefecture_code": 33,
    "city": "倉敷市",
    "city_kana": "クラシキシ",
    "town": "串田",
    "town_kana": "クシダ",
    "street": null,
    "office_name": null,
    "office_name_kana": null
  },
  "0142": {
    "zip_code": "7100142",
    "prefecture": "岡山県",
    "prefecture_kana": "オカヤマケン",
    "prefecture_code": 33,
    "city": "倉敷市",
    "city_kana": "クラシキシ",
    "town": "林",
    "town_kana": "ハヤシ",
    "street": null,
    "office_name": null,
    "office_name_kana": null
  },
  "0143": {
    "zip_code": "7100143",
    "prefecture": "岡山県",
    "prefecture_kana": "オカヤマケン",
    "prefecture_code": 33,
    "city": "倉敷市",
    "city_kana": "クラシキシ",
    "town": "木見",
    "town_kana": "キミ",
    "street": null,
    "office_name": null,
    "office_name_kana": null
  },
  "0144": {
    "zip_code": "7100144",
    "prefecture": "岡山県",
    "prefecture_kana": "オカヤマケン",
    "prefecture_code": 33,
    "city": "倉敷市",
    "city_kana": "クラシキシ",
    "town": "尾原",
    "town_kana": "オバラ",
    "street": null,
    "office_name": null,
    "office_name_kana": null
  },
  "0145": {
    "zip_code": "7100145",
    "prefecture": "岡山県",
    "prefecture_kana": "オカヤマケン",
    "prefecture_code": 33,
    "city": "倉敷市",
    "city_kana": "クラシキシ",
    "town": "福江",
    "town_kana": "フクエ",
    "street": null,
    "office_name": null,
    "office_name_kana": null
  },
  "0146": {
    "zip_code": "7100146",
    "prefecture": "岡山県",
    "prefecture_kana": "オカヤマケン",
    "prefecture_code": 33,
    "city": "倉敷市",
    "city_kana": "クラシキシ",
    "town": "曽原",
    "town_kana": "ソバラ",
    "street": null,
    "office_name": null,
    "office_name_kana": null
  },
  "0151": {
    "zip_code": "7100151",
    "prefecture": "岡山県",
    "prefecture_kana": "オカヤマケン",
    "prefecture_code": 33,
    "city": "岡山市南区",
    "city_kana": "オカヤマシミナミク",
    "town": "植松",
    "town_kana": "ウエマツ",
    "street": null,
    "office_name": null,
    "office_name_kana": null
  },
  "0251": {
    "zip_code": "7100251",
    "prefecture": "岡山県",
    "prefecture_kana": "オカヤマケン",
    "prefecture_code": 33,
    "city": "倉敷市",
    "city_kana": "クラシキシ",
    "town": "玉島長尾",
    "town_kana": "タマシマナガオ",
    "street": null,
    "office_name": null,
    "office_name_kana": null
  },
  "0252": {
    "zip_code": "7100252",
    "prefecture": "岡山県",
    "prefecture_kana": "オカヤマケン",
    "prefecture_code": 33,
    "city": "倉敷市",
    "city_kana": "クラシキシ",
    "town": "玉島爪崎",
    "town_kana": "タマシマツマサキ",
    "street": null,
    "office_name": null,
    "office_name_kana": null
  },
  "0253": {
    "zip_code": "7100253",
    "prefecture": "岡山県",
    "prefecture_kana": "オカヤマケン",
    "prefecture_code": 33,
    "city": "倉敷市",
    "city_kana": "クラシキシ",
    "town": "新倉敷駅前",
    "town_kana": "シンクラシキエキマエ",
    "street": null,
    "office_name": null,
    "office_name_kana": null
  },
  "0261": {
    "zip_code": "7100261",
    "prefecture": "岡山県",
    "prefecture_kana": "オカヤマケン",
    "prefecture_code": 33,
    "city": "倉敷市",
    "city_kana": "クラシキシ",
    "town": "船穂町船穂",
    "town_kana": "フナオチョウフナオ",
    "street": null,
    "office_name": null,
    "office_name_kana": null
  },
  "0262": {
    "zip_code": "7100262",
    "prefecture": "岡山県",
    "prefecture_kana": "オカヤマケン",
    "prefecture_code": 33,
    "city": "倉敷市",
    "city_kana": "クラシキシ",
    "town": "船穂町水江",
    "town_kana": "フナオチョウミズエ",
    "street": null,
    "office_name": null,
    "office_name_kana": null
  },
  "0263": {
    "zip_code": "7100263",
    "prefecture": "岡山県",
    "prefecture_kana": "オカヤマケン",
    "prefecture_code": 33,
    "city": "倉敷市",
    "city_kana": "クラシキシ",
    "town": "船穂町柳井原",
    "town_kana": "フナオチョウヤナイハラ",
    "street": null,
    "office_name": null,
    "office_name_kana": null
  },
  "0292": {
    "zip_code": "7100292",
    "prefecture": "岡山県",
    "prefecture_kana": "オカヤマケン",
    "prefecture_code": 33,
    "city": "倉敷市",
    "city_kana": "クラシキシ",
    "town": "玉島長尾",
    "town_kana": "タマシマナガオ",
    "street": "３５１５",
    "office_name": "学校法人　作陽学園",
    "office_name_kana": "ガツコウホウジン サクヨウガクエン"
  },
  "0293": {
    "zip_code": "7100293",
    "prefecture": "岡山県",
    "prefecture_kana": "オカヤマケン",
    "prefecture_code": 33,
    "city": "倉敷市",
    "city_kana": "クラシキシ",
    "town": "船穂町船穂",
    "town_kana": "フナオチョウフナオ",
    "street": "２８９７番地",
    "office_name": "倉敷市　船穂支所",
    "office_name_kana": "クラシキシ フナオシシヨ"
  },
  "0294": {
    "zip_code": "7100294",
    "prefecture": "岡山県",
    "prefecture_kana": "オカヤマケン",
    "prefecture_code": 33,
    "city": "倉敷市",
    "city_kana": "クラシキシ",
    "town": "船穂町船穂",
    "town_kana": "フナオチョウフナオ",
    "street": "２６３６−２",
    "office_name": "ＪＡ岡山西　農業協同組合　船穂支店",
    "office_name_kana": "ジエイエ-オカヤマニシ ノウギヨウキヨウドウクミアイ フナオシテン"
  },
  "0298": {
    "zip_code": "7100298",
    "prefecture": "岡山県",
    "prefecture_kana": "オカヤマケン",
    "prefecture_code": 33,
    "city": "倉敷市",
    "city_kana": "クラシキシ",
    "town": "新倉敷駅前",
    "town_kana": "シンクラシキエキマエ",
    "street": "５丁目１４１",
    "office_name": "株式会社　北原産業",
    "office_name_kana": "カブシキガイシヤ キタハラサンギヨウ"
  },
  "0801": {
    "zip_code": "7100801",
    "prefecture": "岡山県",
    "prefecture_kana": "オカヤマケン",
    "prefecture_code": 33,
    "city": "倉敷市",
    "city_kana": "クラシキシ",
    "town": "酒津",
    "town_kana": "サカヅ",
    "street": null,
    "office_name": null,
    "office_name_kana": null
  },
  "0802": {
    "zip_code": "7100802",
    "prefecture": "岡山県",
    "prefecture_kana": "オカヤマケン",
    "prefecture_code": 33,
    "city": "倉敷市",
    "city_kana": "クラシキシ",
    "town": "水江",
    "town_kana": "ミズエ",
    "street": null,
    "office_name": null,
    "office_name_kana": null
  },
  "0803": {
    "zip_code": "7100803",
    "prefecture": "岡山県",
    "prefecture_kana": "オカヤマケン",
    "prefecture_code": 33,
    "city": "倉敷市",
    "city_kana": "クラシキシ",
    "town": "中島",
    "town_kana": "ナカシマ",
    "street": null,
    "office_name": null,
    "office_name_kana": null
  },
  "0804": {
    "zip_code": "7100804",
    "prefecture": "岡山県",
    "prefecture_kana": "オカヤマケン",
    "prefecture_code": 33,
    "city": "倉敷市",
    "city_kana": "クラシキシ",
    "town": "西阿知町新田",
    "town_kana": "ニシアチチョウシンデン",
    "street": null,
    "office_name": null,
    "office_name_kana": null
  },
  "0805": {
    "zip_code": "7100805",
    "prefecture": "岡山県",
    "prefecture_kana": "オカヤマケン",
    "prefecture_code": 33,
    "city": "倉敷市",
    "city_kana": "クラシキシ",
    "town": "片島町",
    "town_kana": "カタシマチョウ",
    "street": null,
    "office_name": null,
    "office_name_kana": null
  },
  "0806": {
    "zip_code": "7100806",
    "prefecture": "岡山県",
    "prefecture_kana": "オカヤマケン",
    "prefecture_code": 33,
    "city": "倉敷市",
    "city_kana": "クラシキシ",
    "town": "西阿知町西原",
    "town_kana": "ニシアチチョウニシバラ",
    "street": null,
    "office_name": null,
    "office_name_kana": null
  },
  "0807": {
    "zip_code": "7100807",
    "prefecture": "岡山県",
    "prefecture_kana": "オカヤマケン",
    "prefecture_code": 33,
    "city": "倉敷市",
    "city_kana": "クラシキシ",
    "town": "西阿知町",
    "town_kana": "ニシアチチョウ",
    "street": null,
    "office_name": null,
    "office_name_kana": null
  },
  "0811": {
    "zip_code": "7100811",
    "prefecture": "岡山県",
    "prefecture_kana": "オカヤマケン",
    "prefecture_code": 33,
    "city": "倉敷市",
    "city_kana": "クラシキシ",
    "town": "川入",
    "town_kana": "カワイリ",
    "street": null,
    "office_name": null,
    "office_name_kana": null
  },
  "0812": {
    "zip_code": "7100812",
    "prefecture": "岡山県",
    "prefecture_kana": "オカヤマケン",
    "prefecture_code": 33,
    "city": "倉敷市",
    "city_kana": "クラシキシ",
    "town": "北浜町",
    "town_kana": "キタハマチョウ",
    "street": null,
    "office_name": null,
    "office_name_kana": null
  },
  "0813": {
    "zip_code": "7100813",
    "prefecture": "岡山県",
    "prefecture_kana": "オカヤマケン",
    "prefecture_code": 33,
    "city": "倉敷市",
    "city_kana": "クラシキシ",
    "town": "寿町",
    "town_kana": "コトブキチョウ",
    "street": null,
    "office_name": null,
    "office_name_kana": null
  },
  "0814": {
    "zip_code": "7100814",
    "prefecture": "岡山県",
    "prefecture_kana": "オカヤマケン",
    "prefecture_code": 33,
    "city": "倉敷市",
    "city_kana": "クラシキシ",
    "town": "石見町",
    "town_kana": "イワミチョウ",
    "street": null,
    "office_name": null,
    "office_name_kana": null
  },
  "0815": {
    "zip_code": "7100815",
    "prefecture": "岡山県",
    "prefecture_kana": "オカヤマケン",
    "prefecture_code": 33,
    "city": "倉敷市",
    "city_kana": "クラシキシ",
    "town": "日吉町",
    "town_kana": "ヒヨセチョウ",
    "street": null,
    "office_name": null,
    "office_name_kana": null
  },
  "0816": {
    "zip_code": "7100816",
    "prefecture": "岡山県",
    "prefecture_kana": "オカヤマケン",
    "prefecture_code": 33,
    "city": "倉敷市",
    "city_kana": "クラシキシ",
    "town": "八王寺町",
    "town_kana": "ハチオウジチョウ",
    "street": null,
    "office_name": null,
    "office_name_kana": null
  },
  "0817": {
    "zip_code": "7100817",
    "prefecture": "岡山県",
    "prefecture_kana": "オカヤマケン",
    "prefecture_code": 33,
    "city": "倉敷市",
    "city_kana": "クラシキシ",
    "town": "大内",
    "town_kana": "オオウチ",
    "street": null,
    "office_name": null,
    "office_name_kana": null
  },
  "0821": {
    "zip_code": "7100821",
    "prefecture": "岡山県",
    "prefecture_kana": "オカヤマケン",
    "prefecture_code": 33,
    "city": "倉敷市",
    "city_kana": "クラシキシ",
    "town": "川西町",
    "town_kana": "カワニシマチ",
    "street": null,
    "office_name": null,
    "office_name_kana": null
  },
  "0822": {
    "zip_code": "7100822",
    "prefecture": "岡山県",
    "prefecture_kana": "オカヤマケン",
    "prefecture_code": 33,
    "city": "倉敷市",
    "city_kana": "クラシキシ",
    "town": "稲荷町",
    "town_kana": "イナリマチ",
    "street": null,
    "office_name": null,
    "office_name_kana": null
  },
  "0823": {
    "zip_code": "7100823",
    "prefecture": "岡山県",
    "prefecture_kana": "オカヤマケン",
    "prefecture_code": 33,
    "city": "倉敷市",
    "city_kana": "クラシキシ",
    "town": "南町",
    "town_kana": "ミナミマチ",
    "street": null,
    "office_name": null,
    "office_name_kana": null
  },
  "0824": {
    "zip_code": "7100824",
    "prefecture": "岡山県",
    "prefecture_kana": "オカヤマケン",
    "prefecture_code": 33,
    "city": "倉敷市",
    "city_kana": "クラシキシ",
    "town": "白楽町",
    "town_kana": "バクロチョウ",
    "street": null,
    "office_name": null,
    "office_name_kana": null
  },
  "0825": {
    "zip_code": "7100825",
    "prefecture": "岡山県",
    "prefecture_kana": "オカヤマケン",
    "prefecture_code": 33,
    "city": "倉敷市",
    "city_kana": "クラシキシ",
    "town": "安江",
    "town_kana": "ヤスエ",
    "street": null,
    "office_name": null,
    "office_name_kana": null
  },
  "0826": {
    "zip_code": "7100826",
    "prefecture": "岡山県",
    "prefecture_kana": "オカヤマケン",
    "prefecture_code": 33,
    "city": "倉敷市",
    "city_kana": "クラシキシ",
    "town": "老松町",
    "town_kana": "オイマツチョウ",
    "street": null,
    "office_name": null,
    "office_name_kana": null
  },
  "0831": {
    "zip_code": "7100831",
    "prefecture": "岡山県",
    "prefecture_kana": "オカヤマケン",
    "prefecture_code": 33,
    "city": "倉敷市",
    "city_kana": "クラシキシ",
    "town": "田ノ上",
    "town_kana": "タノウエ",
    "street": null,
    "office_name": null,
    "office_name_kana": null
  },
  "0832": {
    "zip_code": "7100832",
    "prefecture": "岡山県",
    "prefecture_kana": "オカヤマケン",
    "prefecture_code": 33,
    "city": "倉敷市",
    "city_kana": "クラシキシ",
    "town": "田ノ上新町",
    "town_kana": "タノウエシンマチ",
    "street": null,
    "office_name": null,
    "office_name_kana": null
  },
  "0833": {
    "zip_code": "7100833",
    "prefecture": "岡山県",
    "prefecture_kana": "オカヤマケン",
    "prefecture_code": 33,
    "city": "倉敷市",
    "city_kana": "クラシキシ",
    "town": "西中新田",
    "town_kana": "ニシナカシンデン",
    "street": null,
    "office_name": null,
    "office_name_kana": null
  },
  "0834": {
    "zip_code": "7100834",
    "prefecture": "岡山県",
    "prefecture_kana": "オカヤマケン",
    "prefecture_code": 33,
    "city": "倉敷市",
    "city_kana": "クラシキシ",
    "town": "笹沖",
    "town_kana": "ササオキ",
    "street": null,
    "office_name": null,
    "office_name_kana": null
  },
  "0835": {
    "zip_code": "7100835",
    "prefecture": "岡山県",
    "prefecture_kana": "オカヤマケン",
    "prefecture_code": 33,
    "city": "倉敷市",
    "city_kana": "クラシキシ",
    "town": "四十瀬",
    "town_kana": "シジュウセ",
    "street": null,
    "office_name": null,
    "office_name_kana": null
  },
  "0836": {
    "zip_code": "7100836",
    "prefecture": "岡山県",
    "prefecture_kana": "オカヤマケン",
    "prefecture_code": 33,
    "city": "倉敷市",
    "city_kana": "クラシキシ",
    "town": "沖",
    "town_kana": "オキ",
    "street": null,
    "office_name": null,
    "office_name_kana": null
  },
  "0837": {
    "zip_code": "7100837",
    "prefecture": "岡山県",
    "prefecture_kana": "オカヤマケン",
    "prefecture_code": 33,
    "city": "倉敷市",
    "city_kana": "クラシキシ",
    "town": "沖新町",
    "town_kana": "オキシンマチ",
    "street": null,
    "office_name": null,
    "office_name_kana": null
  },
  "0841": {
    "zip_code": "7100841",
    "prefecture": "岡山県",
    "prefecture_kana": "オカヤマケン",
    "prefecture_code": 33,
    "city": "倉敷市",
    "city_kana": "クラシキシ",
    "town": "堀南",
    "town_kana": "ホリナン",
    "street": null,
    "office_name": null,
    "office_name_kana": null
  },
  "0842": {
    "zip_code": "7100842",
    "prefecture": "岡山県",
    "prefecture_kana": "オカヤマケン",
    "prefecture_code": 33,
    "city": "倉敷市",
    "city_kana": "クラシキシ",
    "town": "吉岡",
    "town_kana": "ヨシオカ",
    "street": null,
    "office_name": null,
    "office_name_kana": null
  },
  "0843": {
    "zip_code": "7100843",
    "prefecture": "岡山県",
    "prefecture_kana": "オカヤマケン",
    "prefecture_code": 33,
    "city": "倉敷市",
    "city_kana": "クラシキシ",
    "town": "浦田",
    "town_kana": "ウラダ",
    "street": null,
    "office_name": null,
    "office_name_kana": null
  },
  "0844": {
    "zip_code": "7100844",
    "prefecture": "岡山県",
    "prefecture_kana": "オカヤマケン",
    "prefecture_code": 33,
    "city": "倉敷市",
    "city_kana": "クラシキシ",
    "town": "福井",
    "town_kana": "フクイ",
    "street": null,
    "office_name": null,
    "office_name_kana": null
  },
  "0845": {
    "zip_code": "7100845",
    "prefecture": "岡山県",
    "prefecture_kana": "オカヤマケン",
    "prefecture_code": 33,
    "city": "倉敷市",
    "city_kana": "クラシキシ",
    "town": "西富井",
    "town_kana": "ニシトミイ",
    "street": null,
    "office_name": null,
    "office_name_kana": null
  },
  "0846": {
    "zip_code": "7100846",
    "prefecture": "岡山県",
    "prefecture_kana": "オカヤマケン",
    "prefecture_code": 33,
    "city": "倉敷市",
    "city_kana": "クラシキシ",
    "town": "上富井",
    "town_kana": "カミトミイ",
    "street": null,
    "office_name": null,
    "office_name_kana": null
  },
  "0847": {
    "zip_code": "7100847",
    "prefecture": "岡山県",
    "prefecture_kana": "オカヤマケン",
    "prefecture_code": 33,
    "city": "倉敷市",
    "city_kana": "クラシキシ",
    "town": "東富井",
    "town_kana": "ヒガシトミイ",
    "street": null,
    "office_name": null,
    "office_name_kana": null
  },
  "1101": {
    "zip_code": "7101101",
    "prefecture": "岡山県",
    "prefecture_kana": "オカヤマケン",
    "prefecture_code": 33,
    "city": "倉敷市",
    "city_kana": "クラシキシ",
    "town": "茶屋町",
    "town_kana": "チャヤマチ",
    "street": null,
    "office_name": null,
    "office_name_kana": null
  },
  "1102": {
    "zip_code": "7101102",
    "prefecture": "岡山県",
    "prefecture_kana": "オカヤマケン",
    "prefecture_code": 33,
    "city": "倉敷市",
    "city_kana": "クラシキシ",
    "town": "茶屋町早沖",
    "town_kana": "チャヤマチハヤオキ",
    "street": null,
    "office_name": null,
    "office_name_kana": null
  },
  "1201": {
    "zip_code": "7101201",
    "prefecture": "岡山県",
    "prefecture_kana": "オカヤマケン",
    "prefecture_code": 33,
    "city": "総社市",
    "city_kana": "ソウジャシ",
    "town": "久代",
    "town_kana": "クシロ",
    "street": null,
    "office_name": null,
    "office_name_kana": null
  },
  "1202": {
    "zip_code": "7101202",
    "prefecture": "岡山県",
    "prefecture_kana": "オカヤマケン",
    "prefecture_code": 33,
    "city": "総社市",
    "city_kana": "ソウジャシ",
    "town": "山田",
    "town_kana": "ヤマダ",
    "street": null,
    "office_name": null,
    "office_name_kana": null
  },
  "1203": {
    "zip_code": "7101203",
    "prefecture": "岡山県",
    "prefecture_kana": "オカヤマケン",
    "prefecture_code": 33,
    "city": "総社市",
    "city_kana": "ソウジャシ",
    "town": "新本",
    "town_kana": "シンポン",
    "street": null,
    "office_name": null,
    "office_name_kana": null
  },
  "1301": {
    "zip_code": "7101301",
    "prefecture": "岡山県",
    "prefecture_kana": "オカヤマケン",
    "prefecture_code": 33,
    "city": "倉敷市",
    "city_kana": "クラシキシ",
    "town": "真備町箭田",
    "town_kana": "マビチョウヤタ",
    "street": null,
    "office_name": null,
    "office_name_kana": null
  },
  "1302": {
    "zip_code": "7101302",
    "prefecture": "岡山県",
    "prefecture_kana": "オカヤマケン",
    "prefecture_code": 33,
    "city": "倉敷市",
    "city_kana": "クラシキシ",
    "town": "真備町服部",
    "town_kana": "マビチョウハットリ",
    "street": null,
    "office_name": null,
    "office_name_kana": null
  },
  "1303": {
    "zip_code": "7101303",
    "prefecture": "岡山県",
    "prefecture_kana": "オカヤマケン",
    "prefecture_code": 33,
    "city": "倉敷市",
    "city_kana": "クラシキシ",
    "town": "真備町妹",
    "town_kana": "マビチョウセ",
    "street": null,
    "office_name": null,
    "office_name_kana": null
  },
  "1304": {
    "zip_code": "7101304",
    "prefecture": "岡山県",
    "prefecture_kana": "オカヤマケン",
    "prefecture_code": 33,
    "city": "倉敷市",
    "city_kana": "クラシキシ",
    "town": "真備町尾崎",
    "town_kana": "マビチョウオサキ",
    "street": null,
    "office_name": null,
    "office_name_kana": null
  },
  "1305": {
    "zip_code": "7101305",
    "prefecture": "岡山県",
    "prefecture_kana": "オカヤマケン",
    "prefecture_code": 33,
    "city": "倉敷市",
    "city_kana": "クラシキシ",
    "town": "真備町市場",
    "town_kana": "マビチョウイチバ",
    "street": null,
    "office_name": null,
    "office_name_kana": null
  },
  "1306": {
    "zip_code": "7101306",
    "prefecture": "岡山県",
    "prefecture_kana": "オカヤマケン",
    "prefecture_code": 33,
    "city": "倉敷市",
    "city_kana": "クラシキシ",
    "town": "真備町有井",
    "town_kana": "マビチョウアリイ",
    "street": null,
    "office_name": null,
    "office_name_kana": null
  },
  "1311": {
    "zip_code": "7101311",
    "prefecture": "岡山県",
    "prefecture_kana": "オカヤマケン",
    "prefecture_code": 33,
    "city": "倉敷市",
    "city_kana": "クラシキシ",
    "town": "真備町岡田",
    "town_kana": "マビチョウオカダ",
    "street": null,
    "office_name": null,
    "office_name_kana": null
  },
  "1312": {
    "zip_code": "7101312",
    "prefecture": "岡山県",
    "prefecture_kana": "オカヤマケン",
    "prefecture_code": 33,
    "city": "倉敷市",
    "city_kana": "クラシキシ",
    "town": "真備町辻田",
    "town_kana": "マビチョウツジタ",
    "street": null,
    "office_name": null,
    "office_name_kana": null
  },
  "1313": {
    "zip_code": "7101313",
    "prefecture": "岡山県",
    "prefecture_kana": "オカヤマケン",
    "prefecture_code": 33,
    "city": "倉敷市",
    "city_kana": "クラシキシ",
    "town": "真備町川辺",
    "town_kana": "マビチョウカワベ",
    "street": null,
    "office_name": null,
    "office_name_kana": null
  },
  "1314": {
    "zip_code": "7101314",
    "prefecture": "岡山県",
    "prefecture_kana": "オカヤマケン",
    "prefecture_code": 33,
    "city": "倉敷市",
    "city_kana": "クラシキシ",
    "town": "真備町下二万",
    "town_kana": "マビチョウシモニマ",
    "street": null,
    "office_name": null,
    "office_name_kana": null
  },
  "1315": {
    "zip_code": "7101315",
    "prefecture": "岡山県",
    "prefecture_kana": "オカヤマケン",
    "prefecture_code": 33,
    "city": "倉敷市",
    "city_kana": "クラシキシ",
    "town": "真備町上二万",
    "town_kana": "マビチョウカミニマ",
    "street": null,
    "office_name": null,
    "office_name_kana": null
  },
  "1398": {
    "zip_code": "7101398",
    "prefecture": "岡山県",
    "prefecture_kana": "オカヤマケン",
    "prefecture_code": 33,
    "city": "倉敷市",
    "city_kana": "クラシキシ",
    "town": "真備町箭田",
    "town_kana": "マビチョウヤタ",
    "street": "１１４１−１",
    "office_name": "倉敷市役所　真備支所",
    "office_name_kana": "クラシキシヤクシヨ マビシシヨ"
  },
  "8501": {
    "zip_code": "7108501",
    "prefecture": "岡山県",
    "prefecture_kana": "オカヤマケン",
    "prefecture_code": 33,
    "city": "倉敷市",
    "city_kana": "クラシキシ",
    "town": "西阿知町西原",
    "town_kana": "ニシアチチョウニシバラ",
    "street": "８８４",
    "office_name": "萩原　株式会社",
    "office_name_kana": "ハギハラ カブシキガイシヤ"
  },
  "8505": {
    "zip_code": "7108505",
    "prefecture": "岡山県",
    "prefecture_kana": "オカヤマケン",
    "prefecture_code": 33,
    "city": "倉敷市",
    "city_kana": "クラシキシ",
    "town": "上富井",
    "town_kana": "カミトミイ",
    "street": "５８",
    "office_name": "丸五ゴム工業　株式会社",
    "office_name_kana": "マルゴゴムコウギヨウ カブシキガイシヤ"
  },
  "8511": {
    "zip_code": "7108511",
    "prefecture": "岡山県",
    "prefecture_kana": "オカヤマケン",
    "prefecture_code": 33,
    "city": "倉敷市",
    "city_kana": "クラシキシ",
    "town": "有城",
    "town_kana": "アルキ",
    "street": "７８７",
    "office_name": "岡山学院大学・岡山短期大学",
    "office_name_kana": "オカヤマガクインダイガク・オカヤマタンキダイガク"
  },
  "8520": {
    "zip_code": "7108520",
    "prefecture": "岡山県",
    "prefecture_kana": "オカヤマケン",
    "prefecture_code": 33,
    "city": "倉敷市",
    "city_kana": "クラシキシ",
    "town": "幸町",
    "town_kana": "サイワイチョウ",
    "street": "３−４６",
    "office_name": "岡山地方法務局　倉敷支局",
    "office_name_kana": "オカヤマチホウホウムキヨク クラシキシキヨク"
  },
  "8522": {
    "zip_code": "7108522",
    "prefecture": "岡山県",
    "prefecture_kana": "オカヤマケン",
    "prefecture_code": 33,
    "city": "倉敷市",
    "city_kana": "クラシキシ",
    "town": "白楽町",
    "town_kana": "バクロチョウ",
    "street": "広堀２５０",
    "office_name": "財団法人　倉敷成人病センター",
    "office_name_kana": "ザイダンホウジン クラシキセイジンビヨウセンタ-"
  },
  "8525": {
    "zip_code": "7108525",
    "prefecture": "岡山県",
    "prefecture_kana": "オカヤマケン",
    "prefecture_code": 33,
    "city": "倉敷市",
    "city_kana": "クラシキシ",
    "town": "白楽町",
    "town_kana": "バクロチョウ",
    "street": "５２４−９",
    "office_name": "株式会社　帝国データバンク　倉敷支店",
    "office_name_kana": "カブシキガイシヤ テイコクデ-タバンク クラシキシテン"
  },
  "8528": {
    "zip_code": "7108528",
    "prefecture": "岡山県",
    "prefecture_kana": "オカヤマケン",
    "prefecture_code": 33,
    "city": "倉敷市",
    "city_kana": "クラシキシ",
    "town": "白楽町",
    "town_kana": "バクロチョウ",
    "street": "５２０−２８",
    "office_name": "株式会社　エフエムくらしき",
    "office_name_kana": "カブシキガイシヤ エフエムクラシキ"
  },
  "8530": {
    "zip_code": "7108530",
    "prefecture": "岡山県",
    "prefecture_kana": "オカヤマケン",
    "prefecture_code": 33,
    "city": "倉敷市",
    "city_kana": "クラシキシ",
    "town": "羽島",
    "town_kana": "ハシマ",
    "street": "１０８３",
    "office_name": "岡山県　備中県民局",
    "office_name_kana": "オカヤマケン ビツチユウケンミンキヨク"
  },
  "8535": {
    "zip_code": "7108535",
    "prefecture": "岡山県",
    "prefecture_kana": "オカヤマケン",
    "prefecture_code": 33,
    "city": "倉敷市",
    "city_kana": "クラシキシ",
    "town": "鶴形",
    "town_kana": "ツルガタ",
    "street": "１丁目９番７号",
    "office_name": "倉敷中央天寿会",
    "office_name_kana": "クラシキチユウオウテンジユカイ"
  },
  "8543": {
    "zip_code": "7108543",
    "prefecture": "岡山県",
    "prefecture_kana": "オカヤマケン",
    "prefecture_code": 33,
    "city": "倉敷市",
    "city_kana": "クラシキシ",
    "town": "中庄",
    "town_kana": "ナカショウ",
    "street": "２２９３−２",
    "office_name": "中国電力　株式会社　倉敷営業所",
    "office_name_kana": "チユウゴクデンリヨク カブシキガイシヤ クラシキエイギヨウシヨ"
  },
  "8550": {
    "zip_code": "7108550",
    "prefecture": "岡山県",
    "prefecture_kana": "オカヤマケン",
    "prefecture_code": 33,
    "city": "倉敷市",
    "city_kana": "クラシキシ",
    "town": "阿知",
    "town_kana": "アチ",
    "street": "２丁目６−６",
    "office_name": "株式会社　天満屋　倉敷店",
    "office_name_kana": "カブシキガイシヤ テンマヤ クラシキテン"
  },
  "8555": {
    "zip_code": "7108555",
    "prefecture": "岡山県",
    "prefecture_kana": "オカヤマケン",
    "prefecture_code": 33,
    "city": "倉敷市",
    "city_kana": "クラシキシ",
    "town": "片島町",
    "town_kana": "カタシマチョウ",
    "street": "１０１８−６",
    "office_name": "株式会社　日之出運輸",
    "office_name_kana": "カブシキガイシヤ ヒノデウンユ"
  },
  "8558": {
    "zip_code": "7108558",
    "prefecture": "岡山県",
    "prefecture_kana": "オカヤマケン",
    "prefecture_code": 33,
    "city": "倉敷市",
    "city_kana": "クラシキシ",
    "town": "幸町",
    "town_kana": "サイワイチョウ",
    "street": "３−３３",
    "office_name": "倉敷簡易裁判所",
    "office_name_kana": "クラシキカンイサイバンシヨ"
  },
  "8560": {
    "zip_code": "7108560",
    "prefecture": "岡山県",
    "prefecture_kana": "オカヤマケン",
    "prefecture_code": 33,
    "city": "倉敷市",
    "city_kana": "クラシキシ",
    "town": "水江",
    "town_kana": "ミズエ",
    "street": "１番地",
    "office_name": "イオン倉敷ショッピングセンター",
    "office_name_kana": "イオンクラシキシヨツピングセンタ-"
  },
  "8565": {
    "zip_code": "7108565",
    "prefecture": "岡山県",
    "prefecture_kana": "オカヤマケン",
    "prefecture_code": 33,
    "city": "倉敷市",
    "city_kana": "クラシキシ",
    "town": "西中新田",
    "town_kana": "ニシナカシンデン",
    "street": "６４０",
    "office_name": "倉敷市役所",
    "office_name_kana": "クラシキシヤクシヨ"
  },
  "8575": {
    "zip_code": "7108575",
    "prefecture": "岡山県",
    "prefecture_kana": "オカヤマケン",
    "prefecture_code": 33,
    "city": "倉敷市",
    "city_kana": "クラシキシ",
    "town": "中央",
    "town_kana": "チュウオウ",
    "street": "１丁目１−１５",
    "office_name": "（財）　大原美術館",
    "office_name_kana": "(ザイ) オオハラビジユツカン"
  },
  "8581": {
    "zip_code": "7108581",
    "prefecture": "岡山県",
    "prefecture_kana": "オカヤマケン",
    "prefecture_code": 33,
    "city": "倉敷市",
    "city_kana": "クラシキシ",
    "town": "中島",
    "town_kana": "ナカシマ",
    "street": "１０００−１",
    "office_name": "倉敷木材　株式会社",
    "office_name_kana": "クラシキモクザイ カブシキガイシヤ"
  },
  "8585": {
    "zip_code": "7108585",
    "prefecture": "岡山県",
    "prefecture_kana": "オカヤマケン",
    "prefecture_code": 33,
    "city": "倉敷市",
    "city_kana": "クラシキシ",
    "town": "白楽町",
    "town_kana": "バクロチョウ",
    "street": "２４９−５",
    "office_name": "倉敷商工会議所",
    "office_name_kana": "クラシキシヨウコウカイギシヨ"
  },
  "8588": {
    "zip_code": "7108588",
    "prefecture": "岡山県",
    "prefecture_kana": "オカヤマケン",
    "prefecture_code": 33,
    "city": "倉敷市",
    "city_kana": "クラシキシ",
    "town": "西阿知町",
    "town_kana": "ニシアチチョウ",
    "street": "１２８６",
    "office_name": "明治乳業　株式会社　中国支店　岡山オフィス",
    "office_name_kana": "メイジニユウギヨウ カブシキガイシヤ チユウゴクシテン オカヤマオフイス"
  },
  "8601": {
    "zip_code": "7108601",
    "prefecture": "岡山県",
    "prefecture_kana": "オカヤマケン",
    "prefecture_code": 33,
    "city": "倉敷市",
    "city_kana": "クラシキシ",
    "town": "阿知",
    "town_kana": "アチ",
    "street": "２丁目２−２（倉敷郵便局私書箱第４８号）",
    "office_name": "株式会社　中国銀行　倉敷駅前支店",
    "office_name_kana": "カブシキガイシヤ チユウゴクギンコウ クラシキエキマエシテン"
  },
  "8602": {
    "zip_code": "7108602",
    "prefecture": "岡山県",
    "prefecture_kana": "オカヤマケン",
    "prefecture_code": 33,
    "city": "倉敷市",
    "city_kana": "クラシキシ",
    "town": "美和",
    "town_kana": "ミワ",
    "street": "１丁目１−１（倉敷郵便局私書箱第２７号）",
    "office_name": "財団法人　倉敷中央病院",
    "office_name_kana": "ザイダンホウジン クラシキチユウオウビヨウイン"
  },
  "8605": {
    "zip_code": "7108605",
    "prefecture": "岡山県",
    "prefecture_kana": "オカヤマケン",
    "prefecture_code": 33,
    "city": "倉敷市",
    "city_kana": "クラシキシ",
    "town": "老松町",
    "town_kana": "オイマツチョウ",
    "street": "３丁目１０−２５（倉敷郵便局私書箱第７５号）",
    "office_name": "日本生命保険相互会社　倉敷支社",
    "office_name_kana": "ニホンセイメイホケンソウゴガイシヤ クラシキシシヤ"
  },
  "8611": {
    "zip_code": "7108611",
    "prefecture": "岡山県",
    "prefecture_kana": "オカヤマケン",
    "prefecture_code": 33,
    "city": "倉敷市",
    "city_kana": "クラシキシ",
    "town": "片島町",
    "town_kana": "カタシマチョウ",
    "street": "２３６（倉敷郵便局私書箱第１１号）",
    "office_name": "カモ井加工紙　株式会社",
    "office_name_kana": "カモイカコウシ カブシキガイシヤ"
  },
  "8615": {
    "zip_code": "7108615",
    "prefecture": "岡山県",
    "prefecture_kana": "オカヤマケン",
    "prefecture_code": 33,
    "city": "倉敷市",
    "city_kana": "クラシキシ",
    "town": "白楽町",
    "town_kana": "バクロチョウ",
    "street": "２５７−１（倉敷郵便局私書箱第１５号）",
    "office_name": "株式会社　中国銀行　倉敷支店",
    "office_name_kana": "カブシキガイシヤ チユウゴクギンコウ クラシキシテン"
  },
  "8622": {
    "zip_code": "7108622",
    "prefecture": "岡山県",
    "prefecture_kana": "オカヤマケン",
    "prefecture_code": 33,
    "city": "倉敷市",
    "city_kana": "クラシキシ",
    "town": "酒津",
    "town_kana": "サカヅ",
    "street": "１６２１（倉敷郵便局私書箱第２２号）",
    "office_name": "株式会社　クラレ　倉敷事業所",
    "office_name_kana": "カブシキガイシヤ クラレ クラシキジギヨウシヨ"
  },
  "8638": {
    "zip_code": "7108638",
    "prefecture": "岡山県",
    "prefecture_kana": "オカヤマケン",
    "prefecture_code": 33,
    "city": "倉敷市",
    "city_kana": "クラシキシ",
    "town": "昭和",
    "town_kana": "ショウワ",
    "street": "１丁目２−２２（倉敷郵便局私書箱第３８号）",
    "office_name": "平松エンタープライズ　株式会社",
    "office_name_kana": "ヒラマツエンタ-プライズ カブシキガイシヤ"
  },
  "8648": {
    "zip_code": "7108648",
    "prefecture": "岡山県",
    "prefecture_kana": "オカヤマケン",
    "prefecture_code": 33,
    "city": "倉敷市",
    "city_kana": "クラシキシ",
    "town": "幸町",
    "town_kana": "サイワイチョウ",
    "street": "２−３７（倉敷郵便局私書箱第６２号）",
    "office_name": "倉敷　税務署",
    "office_name_kana": "クラシキ ゼイムシヨ"
  },
  "8666": {
    "zip_code": "7108666",
    "prefecture": "岡山県",
    "prefecture_kana": "オカヤマケン",
    "prefecture_code": 33,
    "city": "倉敷市",
    "city_kana": "クラシキシ",
    "town": "西中新田",
    "town_kana": "ニシナカシンデン",
    "street": "５２５−６",
    "office_name": "藤徳物産　株式会社",
    "office_name_kana": "フジトクブツサン カブシキガイシヤ"
  },
  "8678": {
    "zip_code": "7108678",
    "prefecture": "岡山県",
    "prefecture_kana": "オカヤマケン",
    "prefecture_code": 33,
    "city": "倉敷市",
    "city_kana": "クラシキシ",
    "town": "中島",
    "town_kana": "ナカシマ",
    "street": "１１３８（倉敷郵便局私書箱第５４号）",
    "office_name": "カモ井食品工業　株式会社",
    "office_name_kana": "カモイシヨクヒンコウギヨウ カブシキガイシヤ"
  },
  "8686": {
    "zip_code": "7108686",
    "prefecture": "岡山県",
    "prefecture_kana": "オカヤマケン",
    "prefecture_code": 33,
    "city": "倉敷市",
    "city_kana": "クラシキシ",
    "town": "水江",
    "town_kana": "ミズエ",
    "street": "１５９９（倉敷郵便局私書箱第１４号）",
    "office_name": "株式会社　トクラ",
    "office_name_kana": "カブシキガイシヤ トクラ"
  }
}