{
  "8001": {
    "zip_code": "7128001",
    "prefecture": "岡山県",
    "prefecture_kana": "オカヤマケン",
    "prefecture_code": 33,
    "city": "倉敷市",
    "city_kana": "クラシキシ",
    "town": "連島町西之浦",
    "town_kana": "ツラジマチョウニシノウラ",
    "street": null,
    "office_name": null,
    "office_name_kana": null
  },
  "8002": {
    "zip_code": "7128002",
    "prefecture": "岡山県",
    "prefecture_kana": "オカヤマケン",
    "prefecture_code": 33,
    "city": "倉敷市",
    "city_kana": "クラシキシ",
    "town": "連島町亀島新田",
    "town_kana": "ツラジマチョウカメジマシンデン",
    "street": null,
    "office_name": null,
    "office_name_kana": null
  },
  "8003": {
    "zip_code": "7128003",
    "prefecture": "岡山県",
    "prefecture_kana": "オカヤマケン",
    "prefecture_code": 33,
    "city": "倉敷市",
    "city_kana": "クラシキシ",
    "town": "水島明神町",
    "town_kana": "ミズシマミョウジンチョウ",
    "street": null,
    "office_name": null,
    "office_name_kana": null
  },
  "8004": {
    "zip_code": "7128004",
    "prefecture": "岡山県",
    "prefecture_kana": "オカヤマケン",
    "prefecture_code": 33,
    "city": "倉敷市",
    "city_kana": "クラシキシ",
    "town": "水島南亀島町",
    "town_kana": "ミズシマミナミカメジマチョウ",
    "street": null,
    "office_name": null,
    "office_name_kana": null
  },
  "8005": {
    "zip_code": "7128005",
    "prefecture": "岡山県",
    "prefecture_kana": "オカヤマケン",
    "prefecture_code": 33,
    "city": "倉敷市",
    "city_kana": "クラシキシ",
    "town": "水島北亀島町",
    "town_kana": "ミズシマキタカメジマチョウ",
    "street": null,
    "office_name": null,
    "office_name_kana": null
  },
  "8006": {
    "zip_code": "7128006",
    "prefecture": "岡山県",
    "prefecture_kana": "オカヤマケン",
    "prefecture_code": 33,
    "city": "倉敷市",
    "city_kana": "クラシキシ",
    "town": "連島町鶴新田",
    "town_kana": "ツラジマチョウツルシンデン",
    "street": null,
    "office_name": null,
    "office_name_kana": null
  },
  "8007": {
    "zip_code": "7128007",
    "prefecture": "岡山県",
    "prefecture_kana": "オカヤマケン",
    "prefecture_code": 33,
    "city": "倉敷市",
    "city_kana": "クラシキシ",
    "town": "鶴の浦",
    "town_kana": "ツルノウラ",
    "street": null,
    "office_name": null,
    "office_name_kana": null
  },
  "8011": {
    "zip_code": "7128011",
    "prefecture": "岡山県",
    "prefecture_kana": "オカヤマケン",
    "prefecture_code": 33,
    "city": "倉敷市",
    "city_kana": "クラシキシ",
    "town": "連島町連島",
    "town_kana": "ツラジマチョウツラジマ",
    "street": null,
    "office_name": null,
    "office_name_kana": null
  },
  "8012": {
    "zip_code": "7128012",
    "prefecture": "岡山県",
    "prefecture_kana": "オカヤマケン",
    "prefecture_code": 33,
    "city": "倉敷市",
    "city_kana": "クラシキシ",
    "town": "連島",
    "town_kana": "ツラジマ",
    "street": null,
    "office_name": null,
    "office_name_kana": null
  },
  "8013": {
    "zip_code": "7128013",
    "prefecture": "岡山県",
    "prefecture_kana": "オカヤマケン",
    "prefecture_code": 33,
    "city": "倉敷市",
    "city_kana": "クラシキシ",
    "town": "亀島",
    "town_kana": "カメジマ",
    "street": null,
    "office_name": null,
    "office_name_kana": null
  },
  "8014": {
    "zip_code": "7128014",
    "prefecture": "岡山県",
    "prefecture_kana": "オカヤマケン",
    "prefecture_code": 33,
    "city": "倉敷市",
    "city_kana": "クラシキシ",
    "town": "連島中央",
    "town_kana": "ツラジマチュウオウ",
    "street": null,
    "office_name": null,
    "office_name_kana": null
  },
  "8015": {
    "zip_code": "7128015",
    "prefecture": "岡山県",
    "prefecture_kana": "オカヤマケン",
    "prefecture_code": 33,
    "city": "倉敷市",
    "city_kana": "クラシキシ",
    "town": "連島町矢柄",
    "town_kana": "ツラジマチョウヤガラ",
    "street": null,
    "office_name": null,
    "office_name_kana": null
  },
  "8021": {
    "zip_code": "7128021",
    "prefecture": "岡山県",
    "prefecture_kana": "オカヤマケン",
    "prefecture_code": 33,
    "city": "倉敷市",
    "city_kana": "クラシキシ",
    "town": "水島東川町",
    "town_kana": "ミズシマヒガシガワチョウ",
    "street": null,
    "office_name": null,
    "office_name_kana": null
  },
  "8022": {
    "zip_code": "7128022",
    "prefecture": "岡山県",
    "prefecture_kana": "オカヤマケン",
    "prefecture_code": 33,
    "city": "倉敷市",
    "city_kana": "クラシキシ",
    "town": "水島北緑町",
    "town_kana": "ミズシマキタミドリマチ",
    "street": null,
    "office_name": null,
    "office_name_kana": null
  },
  "8023": {
    "zip_code": "7128023",
    "prefecture": "岡山県",
    "prefecture_kana": "オカヤマケン",
    "prefecture_code": 33,
    "city": "倉敷市",
    "city_kana": "クラシキシ",
    "town": "水島南緑町",
    "town_kana": "ミズシマミナミミドリマチ",
    "street": null,
    "office_name": null,
    "office_name_kana": null
  },
  "8024": {
    "zip_code": "7128024",
    "prefecture": "岡山県",
    "prefecture_kana": "オカヤマケン",
    "prefecture_code": 33,
    "city": "倉敷市",
    "city_kana": "クラシキシ",
    "town": "水島北春日町",
    "town_kana": "ミズシマキタカスガチョウ",
    "street": null,
    "office_name": null,
    "office_name_kana": null
  },
  "8025": {
    "zip_code": "7128025",
    "prefecture": "岡山県",
    "prefecture_kana": "オカヤマケン",
    "prefecture_code": 33,
    "city": "倉敷市",
    "city_kana": "クラシキシ",
    "town": "水島南春日町",
    "town_kana": "ミズシマミナミカスガチョウ",
    "street": null,
    "office_name": null,
    "office_name_kana": null
  },
  "8026": {
    "zip_code": "7128026",
    "prefecture": "岡山県",
    "prefecture_kana": "オカヤマケン",
    "prefecture_code": 33,
    "city": "倉敷市",
    "city_kana": "クラシキシ",
    "town": "水島南瑞穂町",
    "town_kana": "ミズシマミナミミズホチョウ",
    "street": null,
    "office_name": null,
    "office_name_kana": null
  },
  "8027": {
    "zip_code": "7128027",
    "prefecture": "岡山県",
    "prefecture_kana": "オカヤマケン",
    "prefecture_code": 33,
    "city": "倉敷市",
    "city_kana": "クラシキシ",
    "town": "水島北瑞穂町",
    "town_kana": "ミズシマキタミズホチョウ",
    "street": null,
    "office_name": null,
    "office_name_kana": null
  },
  "8031": {
    "zip_code": "7128031",
    "prefecture": "岡山県",
    "prefecture_kana": "オカヤマケン",
    "prefecture_code": 33,
    "city": "倉敷市",
    "city_kana": "クラシキシ",
    "town": "福田町浦田",
    "town_kana": "フクダチョウウラダ",
    "street": null,
    "office_name": null,
    "office_name_kana": null
  },
  "8032": {
    "zip_code": "7128032",
    "prefecture": "岡山県",
    "prefecture_kana": "オカヤマケン",
    "prefecture_code": 33,
    "city": "倉敷市",
    "city_kana": "クラシキシ",
    "town": "北畝",
    "town_kana": "キタセ",
    "street": null,
    "office_name": null,
    "office_name_kana": null
  },
  "8033": {
    "zip_code": "7128033",
    "prefecture": "岡山県",
    "prefecture_kana": "オカヤマケン",
    "prefecture_code": 33,
    "city": "倉敷市",
    "city_kana": "クラシキシ",
    "town": "水島東栄町",
    "town_kana": "ミズシマヒガシサカエマチ",
    "street": null,
    "office_name": null,
    "office_name_kana": null
  },
  "8034": {
    "zip_code": "7128034",
    "prefecture": "岡山県",
    "prefecture_kana": "オカヤマケン",
    "prefecture_code": 33,
    "city": "倉敷市",
    "city_kana": "クラシキシ",
    "town": "水島西栄町",
    "town_kana": "ミズシマニシサカエマチ",
    "street": null,
    "office_name": null,
    "office_name_kana": null
  },
  "8035": {
    "zip_code": "7128035",
    "prefecture": "岡山県",
    "prefecture_kana": "オカヤマケン",
    "prefecture_code": 33,
    "city": "倉敷市",
    "city_kana": "クラシキシ",
    "town": "水島東弥生町",
    "town_kana": "ミズシマヒガシヤヨイチョウ",
    "street": null,
    "office_name": null,
    "office_name_kana": null
  },
  "8036": {
    "zip_code": "7128036",
    "prefecture": "岡山県",
    "prefecture_kana": "オカヤマケン",
    "prefecture_code": 33,
    "city": "倉敷市",
    "city_kana": "クラシキシ",
    "town": "水島西弥生町",
    "town_kana": "ミズシマニシヤヨイチョウ",
    "street": null,
    "office_name": null,
    "office_name_kana": null
  },
  "8037": {
    "zip_code": "7128037",
    "prefecture": "岡山県",
    "prefecture_kana": "オカヤマケン",
    "prefecture_code": 33,
    "city": "倉敷市",
    "city_kana": "クラシキシ",
    "town": "水島東寿町",
    "town_kana": "ミズシマヒガシコトブキチョウ",
    "street": null,
    "office_name": null,
    "office_name_kana": null
  },
  "8038": {
    "zip_code": "7128038",
    "prefecture": "岡山県",
    "prefecture_kana": "オカヤマケン",
    "prefecture_code": 33,
    "city": "倉敷市",
    "city_kana": "クラシキシ",
    "town": "水島西寿町",
    "town_kana": "ミズシマニシコトブキチョウ",
    "street": null,
    "office_name": null,
    "office_name_kana": null
  },
  "8039": {
    "zip_code": "7128039",
    "prefecture": "岡山県",
    "prefecture_kana": "オカヤマケン",
    "prefecture_code": 33,
    "city": "倉敷市",
    "city_kana": "クラシキシ",
    "town": "水島相生町",
    "town_kana": "ミズシマアイオイチョウ",
    "street": null,
    "office_name": null,
    "office_name_kana": null
  },
  "8041": {
    "zip_code": "7128041",
    "prefecture": "岡山県",
    "prefecture_kana": "オカヤマケン",
    "prefecture_code": 33,
    "city": "倉敷市",
    "city_kana": "クラシキシ",
    "town": "福田町福田",
    "town_kana": "フクダチョウフクダ",
    "street": null,
    "office_name": null,
    "office_name_kana": null
  },
  "8042": {
    "zip_code": "7128042",
    "prefecture": "岡山県",
    "prefecture_kana": "オカヤマケン",
    "prefecture_code": 33,
    "city": "倉敷市",
    "city_kana": "クラシキシ",
    "town": "福田町広江",
    "town_kana": "フクダチョウヒロエ",
    "street": null,
    "office_name": null,
    "office_name_kana": null
  },
  "8043": {
    "zip_code": "7128043",
    "prefecture": "岡山県",
    "prefecture_kana": "オカヤマケン",
    "prefecture_code": 33,
    "city": "倉敷市",
    "city_kana": "クラシキシ",
    "town": "広江",
    "town_kana": "ヒロエ",
    "street": null,
    "office_name": null,
    "office_name_kana": null
  },
  "8044": {
    "zip_code": "7128044",
    "prefecture": "岡山県",
    "prefecture_kana": "オカヤマケン",
    "prefecture_code": 33,
    "city": "倉敷市",
    "city_kana": "クラシキシ",
    "town": "東塚",
    "town_kana": "ヒガシヅカ",
    "street": null,
    "office_name": null,
    "office_name_kana": null
  },
  "8045": {
    "zip_code": "7128045",
    "prefecture": "岡山県",
    "prefecture_kana": "オカヤマケン",
    "prefecture_code": 33,
    "city": "倉敷市",
    "city_kana": "クラシキシ",
    "town": "福田町東塚",
    "town_kana": "フクダチョウヒガシヅカ",
    "street": null,
    "office_name": null,
    "office_name_kana": null
  },
  "8046": {
    "zip_code": "7128046",
    "prefecture": "岡山県",
    "prefecture_kana": "オカヤマケン",
    "prefecture_code": 33,
    "city": "倉敷市",
    "city_kana": "クラシキシ",
    "town": "福田町古新田",
    "town_kana": "フクダチョウコシンデン",
    "street": null,
    "office_name": null,
    "office_name_kana": null
  },
  "8051": {
    "zip_code": "7128051",
    "prefecture": "岡山県",
    "prefecture_kana": "オカヤマケン",
    "prefecture_code": 33,
    "city": "倉敷市",
    "city_kana": "クラシキシ",
    "town": "中畝",
    "town_kana": "ナカセ",
    "street": null,
    "office_name": null,
    "office_name_kana": null
  },
  "8052": {
    "zip_code": "7128052",
    "prefecture": "岡山県",
    "prefecture_kana": "オカヤマケン",
    "prefecture_code": 33,
    "city": "倉敷市",
    "city_kana": "クラシキシ",
    "town": "松江",
    "town_kana": "マツエ",
    "street": null,
    "office_name": null,
    "office_name_kana": null
  },
  "8053": [
    {
      "zip_code": "7128053",
      "prefecture": "岡山県",
      "prefecture_kana": "オカヤマケン",
      "prefecture_code": 33,
      "city": "倉敷市",
      "city_kana": "クラシキシ",
      "town": "呼松",
      "town_kana": "ヨビマツ",
      "street": null,
      "office_name": null,
      "office_name_kana": null
    },
    {
      "zip_code": "7128053",
      "prefecture": "岡山県",
      "prefecture_kana": "オカヤマケン",
      "prefecture_code": 33,
      "city": "倉敷市",
      "city_kana": "クラシキシ",
      "town": "呼松町",
      "town_kana": "ヨビマツチョウ",
      "street": null,
      "office_name": null,
      "office_name_kana": null
    }
  ],
  "8054": {
    "zip_code": "7128054",
    "prefecture": "岡山県",
    "prefecture_kana": "オカヤマケン",
    "prefecture_code": 33,
    "city": "倉敷市",
    "city_kana": "クラシキシ",
    "town": "潮通",
    "town_kana": "ウシオドオリ",
    "street": null,
    "office_name": null,
    "office_name_kana": null
  },
  "8055": {
    "zip_code": "7128055",
    "prefecture": "岡山県",
    "prefecture_kana": "オカヤマケン",
    "prefecture_code": 33,
    "city": "倉敷市",
    "city_kana": "クラシキシ",
    "town": "南畝",
    "town_kana": "ミナミセ",
    "street": null,
    "office_name": null,
    "office_name_kana": null
  },
  "8056": {
    "zip_code": "7128056",
    "prefecture": "岡山県",
    "prefecture_kana": "オカヤマケン",
    "prefecture_code": 33,
    "city": "倉敷市",
    "city_kana": "クラシキシ",
    "town": "水島福崎町",
    "town_kana": "ミズシマフクサキチョウ",
    "street": null,
    "office_name": null,
    "office_name_kana": null
  },
  "8057": {
    "zip_code": "7128057",
    "prefecture": "岡山県",
    "prefecture_kana": "オカヤマケン",
    "prefecture_code": 33,
    "city": "倉敷市",
    "city_kana": "クラシキシ",
    "town": "水島東千鳥町",
    "town_kana": "ミズシマヒガシチドリチョウ",
    "street": null,
    "office_name": null,
    "office_name_kana": null
  },
  "8058": {
    "zip_code": "7128058",
    "prefecture": "岡山県",
    "prefecture_kana": "オカヤマケン",
    "prefecture_code": 33,
    "city": "倉敷市",
    "city_kana": "クラシキシ",
    "town": "水島東常盤町",
    "town_kana": "ミズシマヒガシトキワチョウ",
    "street": null,
    "office_name": null,
    "office_name_kana": null
  },
  "8059": {
    "zip_code": "7128059",
    "prefecture": "岡山県",
    "prefecture_kana": "オカヤマケン",
    "prefecture_code": 33,
    "city": "倉敷市",
    "city_kana": "クラシキシ",
    "town": "水島西常盤町",
    "town_kana": "ミズシマニシトキワチョウ",
    "street": null,
    "office_name": null,
    "office_name_kana": null
  },
  "8061": {
    "zip_code": "7128061",
    "prefecture": "岡山県",
    "prefecture_kana": "オカヤマケン",
    "prefecture_code": 33,
    "city": "倉敷市",
    "city_kana": "クラシキシ",
    "town": "神田",
    "town_kana": "カンダ",
    "street": null,
    "office_name": null,
    "office_name_kana": null
  },
  "8062": {
    "zip_code": "7128062",
    "prefecture": "岡山県",
    "prefecture_kana": "オカヤマケン",
    "prefecture_code": 33,
    "city": "倉敷市",
    "city_kana": "クラシキシ",
    "town": "水島北幸町",
    "town_kana": "ミズシマキタサイワイチョウ",
    "street": null,
    "office_name": null,
    "office_name_kana": null
  },
  "8063": {
    "zip_code": "7128063",
    "prefecture": "岡山県",
    "prefecture_kana": "オカヤマケン",
    "prefecture_code": 33,
    "city": "倉敷市",
    "city_kana": "クラシキシ",
    "town": "水島南幸町",
    "town_kana": "ミズシマミナミサイワイチョウ",
    "street": null,
    "office_name": null,
    "office_name_kana": null
  },
  "8064": {
    "zip_code": "7128064",
    "prefecture": "岡山県",
    "prefecture_kana": "オカヤマケン",
    "prefecture_code": 33,
    "city": "倉敷市",
    "city_kana": "クラシキシ",
    "town": "水島青葉町",
    "town_kana": "ミズシマアオバチョウ",
    "street": null,
    "office_name": null,
    "office_name_kana": null
  },
  "8065": {
    "zip_code": "7128065",
    "prefecture": "岡山県",
    "prefecture_kana": "オカヤマケン",
    "prefecture_code": 33,
    "city": "倉敷市",
    "city_kana": "クラシキシ",
    "town": "水島西千鳥町",
    "town_kana": "ミズシマニシチドリチョウ",
    "street": null,
    "office_name": null,
    "office_name_kana": null
  },
  "8066": {
    "zip_code": "7128066",
    "prefecture": "岡山県",
    "prefecture_kana": "オカヤマケン",
    "prefecture_code": 33,
    "city": "倉敷市",
    "city_kana": "クラシキシ",
    "town": "水島高砂町",
    "town_kana": "ミズシマタカサゴチョウ",
    "street": null,
    "office_name": null,
    "office_name_kana": null
  },
  "8071": {
    "zip_code": "7128071",
    "prefecture": "岡山県",
    "prefecture_kana": "オカヤマケン",
    "prefecture_code": 33,
    "city": "倉敷市",
    "city_kana": "クラシキシ",
    "town": "水島海岸通",
    "town_kana": "ミズシマカイガンドオリ",
    "street": null,
    "office_name": null,
    "office_name_kana": null
  },
  "8072": {
    "zip_code": "7128072",
    "prefecture": "岡山県",
    "prefecture_kana": "オカヤマケン",
    "prefecture_code": 33,
    "city": "倉敷市",
    "city_kana": "クラシキシ",
    "town": "水島中通",
    "town_kana": "ミズシマナカドオリ",
    "street": null,
    "office_name": null,
    "office_name_kana": null
  },
  "8073": {
    "zip_code": "7128073",
    "prefecture": "岡山県",
    "prefecture_kana": "オカヤマケン",
    "prefecture_code": 33,
    "city": "倉敷市",
    "city_kana": "クラシキシ",
    "town": "水島西通",
    "town_kana": "ミズシマニシドオリ",
    "street": null,
    "office_name": null,
    "office_name_kana": null
  },
  "8074": {
    "zip_code": "7128074",
    "prefecture": "岡山県",
    "prefecture_kana": "オカヤマケン",
    "prefecture_code": 33,
    "city": "倉敷市",
    "city_kana": "クラシキシ",
    "town": "水島川崎通",
    "town_kana": "ミズシマカワサキドオリ",
    "street": null,
    "office_name": null,
    "office_name_kana": null
  },
  "8501": {
    "zip_code": "7128501",
    "prefecture": "岡山県",
    "prefecture_kana": "オカヤマケン",
    "prefecture_code": 33,
    "city": "倉敷市",
    "city_kana": "クラシキシ",
    "town": "水島海岸通",
    "town_kana": "ミズシマカイガンドオリ",
    "street": "１丁目１番地",
    "office_name": "三菱自動車工業　株式会社　生産・物流本部　水島製作所",
    "office_name_kana": "ミツビシジドウシヤコウギヨウ カブシキガイシヤ セイサン・ブツリユウホンブ ミズシマセイサクシヨ"
  },
  "8502": {
    "zip_code": "7128502",
    "prefecture": "岡山県",
    "prefecture_kana": "オカヤマケン",
    "prefecture_code": 33,
    "city": "倉敷市",
    "city_kana": "クラシキシ",
    "town": "水島中通",
    "town_kana": "ミズシマナカドオリ",
    "street": "１丁目４",
    "office_name": "萩原工業　株式会社",
    "office_name_kana": "ハギハラコウギヨウ カブシキガイシヤ"
  },
  "8505": {
    "zip_code": "7128505",
    "prefecture": "岡山県",
    "prefecture_kana": "オカヤマケン",
    "prefecture_code": 33,
    "city": "倉敷市",
    "city_kana": "クラシキシ",
    "town": "連島町西之浦",
    "town_kana": "ツラジマチョウニシノウラ",
    "street": "２６４０番地",
    "office_name": "倉敷芸術科学大学　倉敷　食と器　専門学校",
    "office_name_kana": "クラシキゲイジユツカガクダイガク クラシキ シヨクトウツワ センモンガツコウ"
  },
  "8511": {
    "zip_code": "7128511",
    "prefecture": "岡山県",
    "prefecture_kana": "オカヤマケン",
    "prefecture_code": 33,
    "city": "倉敷市",
    "city_kana": "クラシキシ",
    "town": "水島川崎通",
    "town_kana": "ミズシマカワサキドオリ",
    "street": "１丁目１",
    "office_name": "ＪＦＥスチール　株式会社　西日本製鉄所　倉敷地区",
    "office_name_kana": "ジエイエフイ-スチ-ル カブシキガイシヤ ニシニホンセイテツシヨ クラシキチク"
  },
  "8512": {
    "zip_code": "7128512",
    "prefecture": "岡山県",
    "prefecture_kana": "オカヤマケン",
    "prefecture_code": 33,
    "city": "倉敷市",
    "city_kana": "クラシキシ",
    "town": "水島川崎通",
    "town_kana": "ミズシマカワサキドオリ",
    "street": "１丁目",
    "office_name": "ＪＦＥ物流　株式会社",
    "office_name_kana": "ジエイエフイ-ブツリユウ カブシキガイシヤ"
  },
  "8513": {
    "zip_code": "7128513",
    "prefecture": "岡山県",
    "prefecture_kana": "オカヤマケン",
    "prefecture_code": 33,
    "city": "倉敷市",
    "city_kana": "クラシキシ",
    "town": "水島川崎通",
    "town_kana": "ミズシマカワサキドオリ",
    "street": "１丁目１",
    "office_name": "水島合金鉄　株式会社",
    "office_name_kana": "ミズシマゴウキンテツ カブシキガイシヤ"
  },
  "8514": {
    "zip_code": "7128514",
    "prefecture": "岡山県",
    "prefecture_kana": "オカヤマケン",
    "prefecture_code": 33,
    "city": "倉敷市",
    "city_kana": "クラシキシ",
    "town": "水島川崎通",
    "town_kana": "ミズシマカワサキドオリ",
    "street": "１丁目",
    "office_name": "ＪＦＥシステムズ　株式会社",
    "office_name_kana": "ジエイエフイ-システムズ カブシキガイシヤ"
  },
  "8525": {
    "zip_code": "7128525",
    "prefecture": "岡山県",
    "prefecture_kana": "オカヤマケン",
    "prefecture_code": 33,
    "city": "倉敷市",
    "city_kana": "クラシキシ",
    "town": "水島海岸通",
    "town_kana": "ミズシマカイガンドオリ",
    "street": "３丁目１０",
    "office_name": "三菱ガス化学　株式会社　水島工場",
    "office_name_kana": "ミツビシガスカガク カブシキガイシヤ ミズシマコウジヨウ"
  },
  "8533": {
    "zip_code": "7128533",
    "prefecture": "岡山県",
    "prefecture_kana": "オカヤマケン",
    "prefecture_code": 33,
    "city": "倉敷市",
    "city_kana": "クラシキシ",
    "town": "松江",
    "town_kana": "マツエ",
    "street": "４丁目４−８",
    "office_name": "関東電化工業　株式会社　水島工場",
    "office_name_kana": "カントウデンカコウギヨウ カブシキガイシヤ ミズシマコウジヨウ"
  },
  "8534": {
    "zip_code": "7128534",
    "prefecture": "岡山県",
    "prefecture_kana": "オカヤマケン",
    "prefecture_code": 33,
    "city": "倉敷市",
    "city_kana": "クラシキシ",
    "town": "東塚",
    "town_kana": "ヒガシヅカ",
    "street": "７丁目３４７−１",
    "office_name": "小林産業　株式会社　山陽支店",
    "office_name_kana": "コバヤシサンギヨウ カブシキガイシヤ サンヨウシテン"
  },
  "8550": {
    "zip_code": "7128550",
    "prefecture": "岡山県",
    "prefecture_kana": null,
    "prefecture_code": null,
    "city": "倉敷市",
    "city_kana": null,
    "town": "東常磐町",
    "town_kana": null,
    "street": "１０−５",
    "office_name": "株式会社　仁科百貨店　本部",
    "office_name_kana": "カブシキガイシヤ ニシナヒヤツカテン ホンブ"
  },
  "8555": {
    "zip_code": "7128555",
    "prefecture": "岡山県",
    "prefecture_kana": "オカヤマケン",
    "prefecture_code": 33,
    "city": "倉敷市",
    "city_kana": "クラシキシ",
    "town": "連島町矢柄",
    "town_kana": "ツラジマチョウヤガラ",
    "street": "四の町４６３０",
    "office_name": "倉敷化工　株式会社",
    "office_name_kana": "クラシキカコウ カブシキガイシヤ"
  },
  "8558": {
    "zip_code": "7128558",
    "prefecture": "岡山県",
    "prefecture_kana": "オカヤマケン",
    "prefecture_code": 33,
    "city": "倉敷市",
    "city_kana": "クラシキシ",
    "town": "水島海岸通",
    "town_kana": "ミズシマカイガンドオリ",
    "street": "４丁目２番",
    "office_name": "ＪＸ日鉱日石エネルギー　株式会社　水島製油所",
    "office_name_kana": "ジエイエツクスニツコウニツセキエネルギ- カブシキガイシヤ ミズシマセイユシヨ"
  },
  "8565": {
    "zip_code": "7128565",
    "prefecture": "岡山県",
    "prefecture_kana": "オカヤマケン",
    "prefecture_code": 33,
    "city": "倉敷市",
    "city_kana": "クラシキシ",
    "town": "水島北幸町",
    "town_kana": "ミズシマキタサイワイチョウ",
    "street": "１−１",
    "office_name": "倉敷市　水島支所",
    "office_name_kana": "クラシキシ ミズシマシシヨ"
  },
  "8567": {
    "zip_code": "7128567",
    "prefecture": "岡山県",
    "prefecture_kana": "オカヤマケン",
    "prefecture_code": 33,
    "city": "倉敷市",
    "city_kana": "クラシキシ",
    "town": "水島南春日町",
    "town_kana": "ミズシマミナミカスガチョウ",
    "street": "１−１",
    "office_name": "総合病院　水島協同病院",
    "office_name_kana": "ソウゴウビヨウイン ミズシマキヨウドウビヨウイン"
  },
  "8577": {
    "zip_code": "7128577",
    "prefecture": "岡山県",
    "prefecture_kana": "オカヤマケン",
    "prefecture_code": 33,
    "city": "倉敷市",
    "city_kana": "クラシキシ",
    "town": "潮通",
    "town_kana": "ウシオドオリ",
    "street": "１丁目１",
    "office_name": "中国電力　株式会社　水島発電所",
    "office_name_kana": "チユウゴクデンリヨク カブシキガイシヤ ミズシマハツデンシヨ"
  },
  "8585": {
    "zip_code": "7128585",
    "prefecture": "岡山県",
    "prefecture_kana": "オカヤマケン",
    "prefecture_code": 33,
    "city": "倉敷市",
    "city_kana": "クラシキシ",
    "town": "南畝",
    "town_kana": "ミナミセ",
    "street": "４丁目１−１",
    "office_name": "東京製鐵　株式会社　岡山工場",
    "office_name_kana": "トウキヨウセイテツ カブシキガイシヤ オカヤマコウジヨウ"
  },
  "8588": {
    "zip_code": "7128588",
    "prefecture": "岡山県",
    "prefecture_kana": "オカヤマケン",
    "prefecture_code": 33,
    "city": "倉敷市",
    "city_kana": "クラシキシ",
    "town": "潮通",
    "town_kana": "ウシオドオリ",
    "street": "２丁目１",
    "office_name": "ＪＸ日鉱日石エネルギー　株式会社　水島製油所",
    "office_name_kana": "ジエイエツクスニツコウニツセキエネルギ- カブシキガイシヤ ミズシマセイユシヨ"
  },
  "8611": {
    "zip_code": "7128611",
    "prefecture": "岡山県",
    "prefecture_kana": "オカヤマケン",
    "prefecture_code": 33,
    "city": "倉敷市",
    "city_kana": "クラシキシ",
    "town": "水島福崎町",
    "town_kana": "ミズシマフクサキチョウ",
    "street": "３−３０",
    "office_name": "水島ガス　株式会社",
    "office_name_kana": "ミズシマガス カブシキガイシヤ"
  },
  "8633": {
    "zip_code": "7128633",
    "prefecture": "岡山県",
    "prefecture_kana": "オカヤマケン",
    "prefecture_code": 33,
    "city": "倉敷市",
    "city_kana": "クラシキシ",
    "town": "潮通",
    "town_kana": "ウシオドオリ",
    "street": "３丁目１３",
    "office_name": "旭化成ケミカルズ　株式会社　水島製造所",
    "office_name_kana": "アサヒカセイケミカルズ カブシキガイシヤ ミズシマセイゾウシヨ"
  },
  "8686": {
    "zip_code": "7128686",
    "prefecture": "岡山県",
    "prefecture_kana": "オカヤマケン",
    "prefecture_code": 33,
    "city": "倉敷市",
    "city_kana": "クラシキシ",
    "town": "水島西常盤町",
    "town_kana": "ミズシマニシトキワチョウ",
    "street": "８−２３（水島郵便局私書箱第９号）",
    "office_name": "水島信用金庫",
    "office_name_kana": "ミズシマシンヨウキンコ"
  }
}