{
  "0000": {
    "zip_code": "7140000",
    "prefecture": "岡山県",
    "prefecture_kana": "オカヤマケン",
    "prefecture_code": "33",
    "city": "笠岡市",
    "city_kana": "カサオカシ",
    "town": "",
    "town_kana": "",
    "street": null,
    "office_name": null,
    "office_name_kana": null
  },
  "0001": {
    "zip_code": "7140001",
    "prefecture": "岡山県",
    "prefecture_kana": "オカヤマケン",
    "prefecture_code": "33",
    "city": "笠岡市",
    "city_kana": "カサオカシ",
    "town": "走出",
    "town_kana": "ハシリデ",
    "street": null,
    "office_name": null,
    "office_name_kana": null
  },
  "0002": {
    "zip_code": "7140002",
    "prefecture": "岡山県",
    "prefecture_kana": "オカヤマケン",
    "prefecture_code": "33",
    "city": "笠岡市",
    "city_kana": "カサオカシ",
    "town": "甲弩",
    "town_kana": "コウノ",
    "street": null,
    "office_name": null,
    "office_name_kana": null
  },
  "0003": {
    "zip_code": "7140003",
    "prefecture": "岡山県",
    "prefecture_kana": "オカヤマケン",
    "prefecture_code": "33",
    "city": "笠岡市",
    "city_kana": "カサオカシ",
    "town": "尾坂",
    "town_kana": "オサカ",
    "street": null,
    "office_name": null,
    "office_name_kana": null
  },
  "0004": {
    "zip_code": "7140004",
    "prefecture": "岡山県",
    "prefecture_kana": "オカヤマケン",
    "prefecture_code": "33",
    "city": "笠岡市",
    "city_kana": "カサオカシ",
    "town": "関戸",
    "town_kana": "セキド",
    "street": null,
    "office_name": null,
    "office_name_kana": null
  },
  "0005": {
    "zip_code": "7140005",
    "prefecture": "岡山県",
    "prefecture_kana": "オカヤマケン",
    "prefecture_code": "33",
    "city": "笠岡市",
    "city_kana": "カサオカシ",
    "town": "新賀",
    "town_kana": "シンガ",
    "street": null,
    "office_name": null,
    "office_name_kana": null
  },
  "0006": {
    "zip_code": "7140006",
    "prefecture": "岡山県",
    "prefecture_kana": "オカヤマケン",
    "prefecture_code": "33",
    "city": "笠岡市",
    "city_kana": "カサオカシ",
    "town": "みの越",
    "town_kana": "ミノコシ",
    "street": null,
    "office_name": null,
    "office_name_kana": null
  },
  "0007": {
    "zip_code": "7140007",
    "prefecture": "岡山県",
    "prefecture_kana": "オカヤマケン",
    "prefecture_code": "33",
    "city": "笠岡市",
    "city_kana": "カサオカシ",
    "town": "山口",
    "town_kana": "ヤマグチ",
    "street": null,
    "office_name": null,
    "office_name_kana": null
  },
  "0011": {
    "zip_code": "7140011",
    "prefecture": "岡山県",
    "prefecture_kana": "オカヤマケン",
    "prefecture_code": "33",
    "city": "笠岡市",
    "city_kana": "カサオカシ",
    "town": "吉田",
    "town_kana": "ヨシダ",
    "street": null,
    "office_name": null,
    "office_name_kana": null
  },
  "0012": {
    "zip_code": "7140012",
    "prefecture": "岡山県",
    "prefecture_kana": "オカヤマケン",
    "prefecture_code": "33",
    "city": "笠岡市",
    "city_kana": "カサオカシ",
    "town": "小平井",
    "town_kana": "オビライ",
    "street": null,
    "office_name": null,
    "office_name_kana": null
  },
  "0013": {
    "zip_code": "7140013",
    "prefecture": "岡山県",
    "prefecture_kana": "オカヤマケン",
    "prefecture_code": "33",
    "city": "笠岡市",
    "city_kana": "カサオカシ",
    "town": "大井南",
    "town_kana": "オオイミナミ",
    "street": null,
    "office_name": null,
    "office_name_kana": null
  },
  "0014": {
    "zip_code": "7140014",
    "prefecture": "岡山県",
    "prefecture_kana": "オカヤマケン",
    "prefecture_code": "33",
    "city": "笠岡市",
    "city_kana": "カサオカシ",
    "town": "相生",
    "town_kana": "アイオイ",
    "street": null,
    "office_name": null,
    "office_name_kana": null
  },
  "0021": {
    "zip_code": "7140021",
    "prefecture": "岡山県",
    "prefecture_kana": "オカヤマケン",
    "prefecture_code": "33",
    "city": "笠岡市",
    "city_kana": "カサオカシ",
    "town": "園井",
    "town_kana": "ソノイ",
    "street": null,
    "office_name": null,
    "office_name_kana": null
  },
  "0022": {
    "zip_code": "7140022",
    "prefecture": "岡山県",
    "prefecture_kana": "オカヤマケン",
    "prefecture_code": "33",
    "city": "笠岡市",
    "city_kana": "カサオカシ",
    "town": "今立",
    "town_kana": "イマダテ",
    "street": null,
    "office_name": null,
    "office_name_kana": null
  },
  "0023": {
    "zip_code": "7140023",
    "prefecture": "岡山県",
    "prefecture_kana": "オカヤマケン",
    "prefecture_code": "33",
    "city": "笠岡市",
    "city_kana": "カサオカシ",
    "town": "広浜",
    "town_kana": "ヒロハマ",
    "street": null,
    "office_name": null,
    "office_name_kana": null
  },
  "0024": {
    "zip_code": "7140024",
    "prefecture": "岡山県",
    "prefecture_kana": "オカヤマケン",
    "prefecture_code": "33",
    "city": "笠岡市",
    "city_kana": "カサオカシ",
    "town": "馬飼",
    "town_kana": "マカイ",
    "street": null,
    "office_name": null,
    "office_name_kana": null
  },
  "0025": {
    "zip_code": "7140025",
    "prefecture": "岡山県",
    "prefecture_kana": "オカヤマケン",
    "prefecture_code": "33",
    "city": "笠岡市",
    "city_kana": "カサオカシ",
    "town": "春日台",
    "town_kana": "カスガダイ",
    "street": null,
    "office_name": null,
    "office_name_kana": null
  },
  "0031": {
    "zip_code": "7140031",
    "prefecture": "岡山県",
    "prefecture_kana": "オカヤマケン",
    "prefecture_code": "33",
    "city": "笠岡市",
    "city_kana": "カサオカシ",
    "town": "西大島新田",
    "town_kana": "ニシオオシマシンデン",
    "street": null,
    "office_name": null,
    "office_name_kana": null
  },
  "0032": {
    "zip_code": "7140032",
    "prefecture": "岡山県",
    "prefecture_kana": "オカヤマケン",
    "prefecture_code": "33",
    "city": "笠岡市",
    "city_kana": "カサオカシ",
    "town": "西大島",
    "town_kana": "ニシオオシマ",
    "street": null,
    "office_name": null,
    "office_name_kana": null
  },
  "0033": {
    "zip_code": "7140033",
    "prefecture": "岡山県",
    "prefecture_kana": "オカヤマケン",
    "prefecture_code": "33",
    "city": "笠岡市",
    "city_kana": "カサオカシ",
    "town": "大島中",
    "town_kana": "オオシマナカ",
    "street": null,
    "office_name": null,
    "office_name_kana": null
  },
  "0034": {
    "zip_code": "7140034",
    "prefecture": "岡山県",
    "prefecture_kana": "オカヤマケン",
    "prefecture_code": "33",
    "city": "笠岡市",
    "city_kana": "カサオカシ",
    "town": "神島外浦",
    "town_kana": "コウノシマソトウラ",
    "street": null,
    "office_name": null,
    "office_name_kana": null
  },
  "0035": {
    "zip_code": "7140035",
    "prefecture": "岡山県",
    "prefecture_kana": "オカヤマケン",
    "prefecture_code": "33",
    "city": "笠岡市",
    "city_kana": "カサオカシ",
    "town": "高島",
    "town_kana": "タカシマ",
    "street": null,
    "office_name": null,
    "office_name_kana": null
  },
  "0036": {
    "zip_code": "7140036",
    "prefecture": "岡山県",
    "prefecture_kana": "オカヤマケン",
    "prefecture_code": "33",
    "city": "笠岡市",
    "city_kana": "カサオカシ",
    "town": "白石島",
    "town_kana": "シライシジマ",
    "street": null,
    "office_name": null,
    "office_name_kana": null
  },
  "0037": {
    "zip_code": "7140037",
    "prefecture": "岡山県",
    "prefecture_kana": "オカヤマケン",
    "prefecture_code": "33",
    "city": "笠岡市",
    "city_kana": "カサオカシ",
    "town": "真鍋島",
    "town_kana": "マナベシマ",
    "street": null,
    "office_name": null,
    "office_name_kana": null
  },
  "0038": {
    "zip_code": "7140038",
    "prefecture": "岡山県",
    "prefecture_kana": "オカヤマケン",
    "prefecture_code": "33",
    "city": "笠岡市",
    "city_kana": "カサオカシ",
    "town": "六島",
    "town_kana": "ムシマ",
    "street": null,
    "office_name": null,
    "office_name_kana": null
  },
  "0041": {
    "zip_code": "7140041",
    "prefecture": "岡山県",
    "prefecture_kana": "オカヤマケン",
    "prefecture_code": "33",
    "city": "笠岡市",
    "city_kana": "カサオカシ",
    "town": "入江",
    "town_kana": "イリエ",
    "street": null,
    "office_name": null,
    "office_name_kana": null
  },
  "0042": {
    "zip_code": "7140042",
    "prefecture": "岡山県",
    "prefecture_kana": "オカヤマケン",
    "prefecture_code": "33",
    "city": "笠岡市",
    "city_kana": "カサオカシ",
    "town": "美の浜",
    "town_kana": "ミノハマ",
    "street": null,
    "office_name": null,
    "office_name_kana": null
  },
  "0043": {
    "zip_code": "7140043",
    "prefecture": "岡山県",
    "prefecture_kana": "オカヤマケン",
    "prefecture_code": "33",
    "city": "笠岡市",
    "city_kana": "カサオカシ",
    "town": "横島",
    "town_kana": "ヨコシマ",
    "street": null,
    "office_name": null,
    "office_name_kana": null
  },
  "0044": {
    "zip_code": "7140044",
    "prefecture": "岡山県",
    "prefecture_kana": "オカヤマケン",
    "prefecture_code": "33",
    "city": "笠岡市",
    "city_kana": "カサオカシ",
    "town": "神島",
    "town_kana": "コウノシマ",
    "street": null,
    "office_name": null,
    "office_name_kana": null
  },
  "0045": {
    "zip_code": "7140045",
    "prefecture": "岡山県",
    "prefecture_kana": "オカヤマケン",
    "prefecture_code": "33",
    "city": "笠岡市",
    "city_kana": "カサオカシ",
    "town": "港町",
    "town_kana": "ミナトチョウ",
    "street": null,
    "office_name": null,
    "office_name_kana": null
  },
  "0046": {
    "zip_code": "7140046",
    "prefecture": "岡山県",
    "prefecture_kana": "オカヤマケン",
    "prefecture_code": "33",
    "city": "笠岡市",
    "city_kana": "カサオカシ",
    "town": "カブト南町",
    "town_kana": "カブトミナミマチ",
    "street": null,
    "office_name": null,
    "office_name_kana": null
  },
  "0047": {
    "zip_code": "7140047",
    "prefecture": "岡山県",
    "prefecture_kana": "オカヤマケン",
    "prefecture_code": "33",
    "city": "笠岡市",
    "city_kana": "カサオカシ",
    "town": "拓海町",
    "town_kana": "タクミチョウ",
    "street": null,
    "office_name": null,
    "office_name_kana": null
  },
  "0048": {
    "zip_code": "7140048",
    "prefecture": "岡山県",
    "prefecture_kana": "オカヤマケン",
    "prefecture_code": "33",
    "city": "笠岡市",
    "city_kana": "カサオカシ",
    "town": "緑町",
    "town_kana": "ミドリマチ",
    "street": null,
    "office_name": null,
    "office_name_kana": null
  },
  "0051": {
    "zip_code": "7140051",
    "prefecture": "岡山県",
    "prefecture_kana": "オカヤマケン",
    "prefecture_code": "33",
    "city": "笠岡市",
    "city_kana": "カサオカシ",
    "town": "カブト東町",
    "town_kana": "カブトヒガシマチ",
    "street": null,
    "office_name": null,
    "office_name_kana": null
  },
  "0052": {
    "zip_code": "7140052",
    "prefecture": "岡山県",
    "prefecture_kana": "オカヤマケン",
    "prefecture_code": "33",
    "city": "笠岡市",
    "city_kana": "カサオカシ",
    "town": "カブト中央町",
    "town_kana": "カブトチュウオウチョウ",
    "street": null,
    "office_name": null,
    "office_name_kana": null
  },
  "0053": {
    "zip_code": "7140053",
    "prefecture": "岡山県",
    "prefecture_kana": "オカヤマケン",
    "prefecture_code": "33",
    "city": "笠岡市",
    "city_kana": "カサオカシ",
    "town": "カブト西町",
    "town_kana": "カブトニシマチ",
    "street": null,
    "office_name": null,
    "office_name_kana": null
  },
  "0054": {
    "zip_code": "7140054",
    "prefecture": "岡山県",
    "prefecture_kana": "オカヤマケン",
    "prefecture_code": "33",
    "city": "笠岡市",
    "city_kana": "カサオカシ",
    "town": "平成町",
    "town_kana": "ヘイセイチョウ",
    "street": null,
    "office_name": null,
    "office_name_kana": null
  },
  "0055": {
    "zip_code": "7140055",
    "prefecture": "岡山県",
    "prefecture_kana": "オカヤマケン",
    "prefecture_code": "33",
    "city": "笠岡市",
    "city_kana": "カサオカシ",
    "town": "生江浜",
    "town_kana": "オエハマ",
    "street": null,
    "office_name": null,
    "office_name_kana": null
  },
  "0056": {
    "zip_code": "7140056",
    "prefecture": "岡山県",
    "prefecture_kana": "オカヤマケン",
    "prefecture_code": "33",
    "city": "笠岡市",
    "city_kana": "カサオカシ",
    "town": "旭が丘",
    "town_kana": "アサヒガオカ",
    "street": null,
    "office_name": null,
    "office_name_kana": null
  },
  "0057": {
    "zip_code": "7140057",
    "prefecture": "岡山県",
    "prefecture_kana": "オカヤマケン",
    "prefecture_code": "33",
    "city": "笠岡市",
    "city_kana": "カサオカシ",
    "town": "金浦",
    "town_kana": "カナウラ",
    "street": null,
    "office_name": null,
    "office_name_kana": null
  },
  "0061": {
    "zip_code": "7140061",
    "prefecture": "岡山県",
    "prefecture_kana": "オカヤマケン",
    "prefecture_code": "33",
    "city": "笠岡市",
    "city_kana": "カサオカシ",
    "town": "大げ",
    "town_kana": "オオゲ",
    "street": null,
    "office_name": null,
    "office_name_kana": null
  },
  "0062": {
    "zip_code": "7140062",
    "prefecture": "岡山県",
    "prefecture_kana": "オカヤマケン",
    "prefecture_code": "33",
    "city": "笠岡市",
    "city_kana": "カサオカシ",
    "town": "茂平",
    "town_kana": "モビラ",
    "street": null,
    "office_name": null,
    "office_name_kana": null
  },
  "0063": {
    "zip_code": "7140063",
    "prefecture": "岡山県",
    "prefecture_kana": "オカヤマケン",
    "prefecture_code": "33",
    "city": "笠岡市",
    "city_kana": "カサオカシ",
    "town": "鋼管町",
    "town_kana": "コウカンチョウ",
    "street": null,
    "office_name": null,
    "office_name_kana": null
  },
  "0064": {
    "zip_code": "7140064",
    "prefecture": "岡山県",
    "prefecture_kana": "オカヤマケン",
    "prefecture_code": "33",
    "city": "笠岡市",
    "city_kana": "カサオカシ",
    "town": "西茂平",
    "town_kana": "ニシモビラ",
    "street": null,
    "office_name": null,
    "office_name_kana": null
  },
  "0065": {
    "zip_code": "7140065",
    "prefecture": "岡山県",
    "prefecture_kana": "オカヤマケン",
    "prefecture_code": "33",
    "city": "笠岡市",
    "city_kana": "カサオカシ",
    "town": "城見台",
    "town_kana": "シロミダイ",
    "street": null,
    "office_name": null,
    "office_name_kana": null
  },
  "0066": {
    "zip_code": "7140066",
    "prefecture": "岡山県",
    "prefecture_kana": "オカヤマケン",
    "prefecture_code": "33",
    "city": "笠岡市",
    "city_kana": "カサオカシ",
    "town": "用之江",
    "town_kana": "モチノエ",
    "street": null,
    "office_name": null,
    "office_name_kana": null
  },
  "0071": {
    "zip_code": "7140071",
    "prefecture": "岡山県",
    "prefecture_kana": "オカヤマケン",
    "prefecture_code": "33",
    "city": "笠岡市",
    "city_kana": "カサオカシ",
    "town": "東大戸",
    "town_kana": "ヒガシオオド",
    "street": null,
    "office_name": null,
    "office_name_kana": null
  },
  "0072": {
    "zip_code": "7140072",
    "prefecture": "岡山県",
    "prefecture_kana": "オカヤマケン",
    "prefecture_code": "33",
    "city": "笠岡市",
    "city_kana": "カサオカシ",
    "town": "西大戸",
    "town_kana": "ニシオオド",
    "street": null,
    "office_name": null,
    "office_name_kana": null
  },
  "0073": {
    "zip_code": "7140073",
    "prefecture": "岡山県",
    "prefecture_kana": "オカヤマケン",
    "prefecture_code": "33",
    "city": "笠岡市",
    "city_kana": "カサオカシ",
    "town": "大河",
    "town_kana": "オオコウ",
    "street": null,
    "office_name": null,
    "office_name_kana": null
  },
  "0074": {
    "zip_code": "7140074",
    "prefecture": "岡山県",
    "prefecture_kana": "オカヤマケン",
    "prefecture_code": "33",
    "city": "笠岡市",
    "city_kana": "カサオカシ",
    "town": "吉浜",
    "town_kana": "ヨシハマ",
    "street": null,
    "office_name": null,
    "office_name_kana": null
  },
  "0075": {
    "zip_code": "7140075",
    "prefecture": "岡山県",
    "prefecture_kana": "オカヤマケン",
    "prefecture_code": "33",
    "city": "笠岡市",
    "city_kana": "カサオカシ",
    "town": "有田",
    "town_kana": "アリダ",
    "street": null,
    "office_name": null,
    "office_name_kana": null
  },
  "0076": {
    "zip_code": "7140076",
    "prefecture": "岡山県",
    "prefecture_kana": "オカヤマケン",
    "prefecture_code": "33",
    "city": "笠岡市",
    "city_kana": "カサオカシ",
    "town": "押撫",
    "town_kana": "オシナデ",
    "street": null,
    "office_name": null,
    "office_name_kana": null
  },
  "0077": {
    "zip_code": "7140077",
    "prefecture": "岡山県",
    "prefecture_kana": "オカヤマケン",
    "prefecture_code": "33",
    "city": "笠岡市",
    "city_kana": "カサオカシ",
    "town": "篠坂",
    "town_kana": "シノサカ",
    "street": null,
    "office_name": null,
    "office_name_kana": null
  },
  "0078": {
    "zip_code": "7140078",
    "prefecture": "岡山県",
    "prefecture_kana": "オカヤマケン",
    "prefecture_code": "33",
    "city": "笠岡市",
    "city_kana": "カサオカシ",
    "town": "入田",
    "town_kana": "ニュウタ",
    "street": null,
    "office_name": null,
    "office_name_kana": null
  },
  "0081": {
    "zip_code": "7140081",
    "prefecture": "岡山県",
    "prefecture_kana": "オカヤマケン",
    "prefecture_code": "33",
    "city": "笠岡市",
    "city_kana": "カサオカシ",
    "town": "笠岡",
    "town_kana": "カサオカ",
    "street": null,
    "office_name": null,
    "office_name_kana": null
  },
  "0082": {
    "zip_code": "7140082",
    "prefecture": "岡山県",
    "prefecture_kana": "オカヤマケン",
    "prefecture_code": "33",
    "city": "笠岡市",
    "city_kana": "カサオカシ",
    "town": "一番町",
    "town_kana": "イチバンチョウ",
    "street": null,
    "office_name": null,
    "office_name_kana": null
  },
  "0083": {
    "zip_code": "7140083",
    "prefecture": "岡山県",
    "prefecture_kana": "オカヤマケン",
    "prefecture_code": "33",
    "city": "笠岡市",
    "city_kana": "カサオカシ",
    "town": "二番町",
    "town_kana": "ニバンチョウ",
    "street": null,
    "office_name": null,
    "office_name_kana": null
  },
  "0084": {
    "zip_code": "7140084",
    "prefecture": "岡山県",
    "prefecture_kana": "オカヤマケン",
    "prefecture_code": "33",
    "city": "笠岡市",
    "city_kana": "カサオカシ",
    "town": "三番町",
    "town_kana": "サンバンチョウ",
    "street": null,
    "office_name": null,
    "office_name_kana": null
  },
  "0085": {
    "zip_code": "7140085",
    "prefecture": "岡山県",
    "prefecture_kana": "オカヤマケン",
    "prefecture_code": "33",
    "city": "笠岡市",
    "city_kana": "カサオカシ",
    "town": "四番町",
    "town_kana": "ヨンバンチョウ",
    "street": null,
    "office_name": null,
    "office_name_kana": null
  },
  "0086": {
    "zip_code": "7140086",
    "prefecture": "岡山県",
    "prefecture_kana": "オカヤマケン",
    "prefecture_code": "33",
    "city": "笠岡市",
    "city_kana": "カサオカシ",
    "town": "五番町",
    "town_kana": "ゴバンチョウ",
    "street": null,
    "office_name": null,
    "office_name_kana": null
  },
  "0087": {
    "zip_code": "7140087",
    "prefecture": "岡山県",
    "prefecture_kana": "オカヤマケン",
    "prefecture_code": "33",
    "city": "笠岡市",
    "city_kana": "カサオカシ",
    "town": "六番町",
    "town_kana": "ロクバンチョウ",
    "street": null,
    "office_name": null,
    "office_name_kana": null
  },
  "0088": {
    "zip_code": "7140088",
    "prefecture": "岡山県",
    "prefecture_kana": "オカヤマケン",
    "prefecture_code": "33",
    "city": "笠岡市",
    "city_kana": "カサオカシ",
    "town": "中央町",
    "town_kana": "チュウオウチョウ",
    "street": null,
    "office_name": null,
    "office_name_kana": null
  },
  "0091": {
    "zip_code": "7140091",
    "prefecture": "岡山県",
    "prefecture_kana": "オカヤマケン",
    "prefecture_code": "33",
    "city": "笠岡市",
    "city_kana": "カサオカシ",
    "town": "絵師",
    "town_kana": "エシ",
    "street": null,
    "office_name": null,
    "office_name_kana": null
  },
  "0092": {
    "zip_code": "7140092",
    "prefecture": "岡山県",
    "prefecture_kana": "オカヤマケン",
    "prefecture_code": "33",
    "city": "笠岡市",
    "city_kana": "カサオカシ",
    "town": "富岡",
    "town_kana": "トミオカ",
    "street": null,
    "office_name": null,
    "office_name_kana": null
  },
  "0093": {
    "zip_code": "7140093",
    "prefecture": "岡山県",
    "prefecture_kana": "オカヤマケン",
    "prefecture_code": "33",
    "city": "笠岡市",
    "city_kana": "カサオカシ",
    "town": "新横島",
    "town_kana": "シンヨコシマ",
    "street": null,
    "office_name": null,
    "office_name_kana": null
  },
  "0094": {
    "zip_code": "7140094",
    "prefecture": "岡山県",
    "prefecture_kana": "オカヤマケン",
    "prefecture_code": "33",
    "city": "笠岡市",
    "city_kana": "カサオカシ",
    "town": "七番町",
    "town_kana": "ナナバンチョウ",
    "street": null,
    "office_name": null,
    "office_name_kana": null
  },
  "0095": {
    "zip_code": "7140095",
    "prefecture": "岡山県",
    "prefecture_kana": "オカヤマケン",
    "prefecture_code": "33",
    "city": "笠岡市",
    "city_kana": "カサオカシ",
    "town": "八番町",
    "town_kana": "ハチバンチョウ",
    "street": null,
    "office_name": null,
    "office_name_kana": null
  },
  "0096": {
    "zip_code": "7140096",
    "prefecture": "岡山県",
    "prefecture_kana": "オカヤマケン",
    "prefecture_code": "33",
    "city": "笠岡市",
    "city_kana": "カサオカシ",
    "town": "九番町",
    "town_kana": "キュウバンチョウ",
    "street": null,
    "office_name": null,
    "office_name_kana": null
  },
  "0097": {
    "zip_code": "7140097",
    "prefecture": "岡山県",
    "prefecture_kana": "オカヤマケン",
    "prefecture_code": "33",
    "city": "笠岡市",
    "city_kana": "カサオカシ",
    "town": "十番町",
    "town_kana": "ジュウバンチョウ",
    "street": null,
    "office_name": null,
    "office_name_kana": null
  },
  "0098": {
    "zip_code": "7140098",
    "prefecture": "岡山県",
    "prefecture_kana": "オカヤマケン",
    "prefecture_code": "33",
    "city": "笠岡市",
    "city_kana": "カサオカシ",
    "town": "十一番町",
    "town_kana": "ジュウイチバンチョウ",
    "street": null,
    "office_name": null,
    "office_name_kana": null
  },
  "0101": {
    "zip_code": "7140101",
    "prefecture": "岡山県",
    "prefecture_kana": "オカヤマケン",
    "prefecture_code": "33",
    "city": "浅口市",
    "city_kana": "アサクチシ",
    "town": "寄島町",
    "town_kana": "ヨリシマチョウ",
    "street": null,
    "office_name": null,
    "office_name_kana": null
  },
  "0192": {
    "zip_code": "7140192",
    "prefecture": "岡山県",
    "prefecture_kana": "オカヤマケン",
    "prefecture_code": "33",
    "city": "浅口市",
    "city_kana": "アサクチシ",
    "town": "寄島町",
    "town_kana": "ヨリシマチョウ",
    "street": "１６０１０（寄島郵便局私書箱第７号）",
    "office_name": "浅口市役所　寄島総合支所",
    "office_name_kana": "アサクチシヤクシヨ ヨリシマソウゴウシシヨ"
  },
  "0301": {
    "zip_code": "7140301",
    "prefecture": "岡山県",
    "prefecture_kana": "オカヤマケン",
    "prefecture_code": "33",
    "city": "笠岡市",
    "city_kana": "カサオカシ",
    "town": "北木島町",
    "town_kana": "キタギシマチョウ",
    "street": null,
    "office_name": null,
    "office_name_kana": null
  },
  "0302": {
    "zip_code": "7140302",
    "prefecture": "岡山県",
    "prefecture_kana": "オカヤマケン",
    "prefecture_code": "33",
    "city": "笠岡市",
    "city_kana": "カサオカシ",
    "town": "飛島",
    "town_kana": "ヒシマ",
    "street": null,
    "office_name": null,
    "office_name_kana": null
  },
  "1200": {
    "zip_code": "7141200",
    "prefecture": "岡山県",
    "prefecture_kana": "オカヤマケン",
    "prefecture_code": "33",
    "city": "小田郡矢掛町",
    "city_kana": "オダグンヤカゲチョウ",
    "town": "",
    "town_kana": "",
    "street": null,
    "office_name": null,
    "office_name_kana": null
  },
  "1201": {
    "zip_code": "7141201",
    "prefecture": "岡山県",
    "prefecture_kana": "オカヤマケン",
    "prefecture_code": "33",
    "city": "小田郡矢掛町",
    "city_kana": "オダグンヤカゲチョウ",
    "town": "矢掛",
    "town_kana": "ヤカゲ",
    "street": null,
    "office_name": null,
    "office_name_kana": null
  },
  "1202": {
    "zip_code": "7141202",
    "prefecture": "岡山県",
    "prefecture_kana": "オカヤマケン",
    "prefecture_code": "33",
    "city": "小田郡矢掛町",
    "city_kana": "オダグンヤカゲチョウ",
    "town": "小林",
    "town_kana": "オバヤシ",
    "street": null,
    "office_name": null,
    "office_name_kana": null
  },
  "1203": {
    "zip_code": "7141203",
    "prefecture": "岡山県",
    "prefecture_kana": "オカヤマケン",
    "prefecture_code": "33",
    "city": "小田郡矢掛町",
    "city_kana": "オダグンヤカゲチョウ",
    "town": "上高末",
    "town_kana": "カミコウズエ",
    "street": null,
    "office_name": null,
    "office_name_kana": null
  },
  "1204": {
    "zip_code": "7141204",
    "prefecture": "岡山県",
    "prefecture_kana": "オカヤマケン",
    "prefecture_code": "33",
    "city": "小田郡矢掛町",
    "city_kana": "オダグンヤカゲチョウ",
    "town": "下高末",
    "town_kana": "シモコウズエ",
    "street": null,
    "office_name": null,
    "office_name_kana": null
  },
  "1205": {
    "zip_code": "7141205",
    "prefecture": "岡山県",
    "prefecture_kana": "オカヤマケン",
    "prefecture_code": "33",
    "city": "小田郡矢掛町",
    "city_kana": "オダグンヤカゲチョウ",
    "town": "宇角",
    "town_kana": "ウズミ",
    "street": null,
    "office_name": null,
    "office_name_kana": null
  },
  "1206": {
    "zip_code": "7141206",
    "prefecture": "岡山県",
    "prefecture_kana": "オカヤマケン",
    "prefecture_code": "33",
    "city": "小田郡矢掛町",
    "city_kana": "オダグンヤカゲチョウ",
    "town": "内田",
    "town_kana": "ウチダ",
    "street": null,
    "office_name": null,
    "office_name_kana": null
  },
  "1211": {
    "zip_code": "7141211",
    "prefecture": "岡山県",
    "prefecture_kana": "オカヤマケン",
    "prefecture_code": "33",
    "city": "小田郡矢掛町",
    "city_kana": "オダグンヤカゲチョウ",
    "town": "東三成",
    "town_kana": "ヒガシミナリ",
    "street": null,
    "office_name": null,
    "office_name_kana": null
  },
  "1212": {
    "zip_code": "7141212",
    "prefecture": "岡山県",
    "prefecture_kana": "オカヤマケン",
    "prefecture_code": "33",
    "city": "小田郡矢掛町",
    "city_kana": "オダグンヤカゲチョウ",
    "town": "横谷",
    "town_kana": "ヨコダニ",
    "street": null,
    "office_name": null,
    "office_name_kana": null
  },
  "1213": {
    "zip_code": "7141213",
    "prefecture": "岡山県",
    "prefecture_kana": "オカヤマケン",
    "prefecture_code": "33",
    "city": "小田郡矢掛町",
    "city_kana": "オダグンヤカゲチョウ",
    "town": "里山田",
    "town_kana": "サトヤマダ",
    "street": null,
    "office_name": null,
    "office_name_kana": null
  },
  "1214": {
    "zip_code": "7141214",
    "prefecture": "岡山県",
    "prefecture_kana": "オカヤマケン",
    "prefecture_code": "33",
    "city": "小田郡矢掛町",
    "city_kana": "オダグンヤカゲチョウ",
    "town": "南山田",
    "town_kana": "ミナミヤマダ",
    "street": null,
    "office_name": null,
    "office_name_kana": null
  },
  "1215": {
    "zip_code": "7141215",
    "prefecture": "岡山県",
    "prefecture_kana": "オカヤマケン",
    "prefecture_code": "33",
    "city": "小田郡矢掛町",
    "city_kana": "オダグンヤカゲチョウ",
    "town": "中",
    "town_kana": "ナカ",
    "street": null,
    "office_name": null,
    "office_name_kana": null
  },
  "1221": {
    "zip_code": "7141221",
    "prefecture": "岡山県",
    "prefecture_kana": "オカヤマケン",
    "prefecture_code": "33",
    "city": "小田郡矢掛町",
    "city_kana": "オダグンヤカゲチョウ",
    "town": "宇内",
    "town_kana": "ウナイ",
    "street": null,
    "office_name": null,
    "office_name_kana": null
  },
  "1222": {
    "zip_code": "7141222",
    "prefecture": "岡山県",
    "prefecture_kana": "オカヤマケン",
    "prefecture_code": "33",
    "city": "小田郡矢掛町",
    "city_kana": "オダグンヤカゲチョウ",
    "town": "西川面",
    "town_kana": "ニシカワモ",
    "street": null,
    "office_name": null,
    "office_name_kana": null
  },
  "1223": {
    "zip_code": "7141223",
    "prefecture": "岡山県",
    "prefecture_kana": "オカヤマケン",
    "prefecture_code": "33",
    "city": "小田郡矢掛町",
    "city_kana": "オダグンヤカゲチョウ",
    "town": "東川面",
    "town_kana": "ヒガシカワモ",
    "street": null,
    "office_name": null,
    "office_name_kana": null
  },
  "1224": {
    "zip_code": "7141224",
    "prefecture": "岡山県",
    "prefecture_kana": "オカヤマケン",
    "prefecture_code": "33",
    "city": "小田郡矢掛町",
    "city_kana": "オダグンヤカゲチョウ",
    "town": "本堀",
    "town_kana": "モトホリ",
    "street": null,
    "office_name": null,
    "office_name_kana": null
  },
  "1225": {
    "zip_code": "7141225",
    "prefecture": "岡山県",
    "prefecture_kana": "オカヤマケン",
    "prefecture_code": "33",
    "city": "小田郡矢掛町",
    "city_kana": "オダグンヤカゲチョウ",
    "town": "浅海",
    "town_kana": "アスミ",
    "street": null,
    "office_name": null,
    "office_name_kana": null
  },
  "1226": {
    "zip_code": "7141226",
    "prefecture": "岡山県",
    "prefecture_kana": "オカヤマケン",
    "prefecture_code": "33",
    "city": "小田郡矢掛町",
    "city_kana": "オダグンヤカゲチョウ",
    "town": "江良",
    "town_kana": "エラ",
    "street": null,
    "office_name": null,
    "office_name_kana": null
  },
  "1227": {
    "zip_code": "7141227",
    "prefecture": "岡山県",
    "prefecture_kana": "オカヤマケン",
    "prefecture_code": "33",
    "city": "小田郡矢掛町",
    "city_kana": "オダグンヤカゲチョウ",
    "town": "小田",
    "town_kana": "オダ",
    "street": null,
    "office_name": null,
    "office_name_kana": null
  },
  "1297": {
    "zip_code": "7141297",
    "prefecture": "岡山県",
    "prefecture_kana": "オカヤマケン",
    "prefecture_code": "33",
    "city": "小田郡矢掛町",
    "city_kana": "オダグンヤカゲチョウ",
    "town": "矢掛",
    "town_kana": "ヤカゲ",
    "street": "３０１８（矢掛郵便局私書箱第７号）",
    "office_name": "矢掛町役場",
    "office_name_kana": "ヤカゲチヨウヤクバ"
  },
  "1298": {
    "zip_code": "7141298",
    "prefecture": "岡山県",
    "prefecture_kana": "オカヤマケン",
    "prefecture_code": "33",
    "city": "小田郡矢掛町",
    "city_kana": "オダグンヤカゲチョウ",
    "town": "小田",
    "town_kana": "オダ",
    "street": "６５００",
    "office_name": "冨士ベークライト　株式会社",
    "office_name_kana": "フジベ-クライト カブシキガイシヤ"
  },
  "1401": {
    "zip_code": "7141401",
    "prefecture": "岡山県",
    "prefecture_kana": "オカヤマケン",
    "prefecture_code": "33",
    "city": "井原市",
    "city_kana": "イバラシ",
    "town": "美星町明治",
    "town_kana": "ビセイチョウメイジ",
    "street": null,
    "office_name": null,
    "office_name_kana": null
  },
  "1402": {
    "zip_code": "7141402",
    "prefecture": "岡山県",
    "prefecture_kana": "オカヤマケン",
    "prefecture_code": "33",
    "city": "井原市",
    "city_kana": "イバラシ",
    "town": "美星町宇戸谷",
    "town_kana": "ビセイチョウウトダニ",
    "street": null,
    "office_name": null,
    "office_name_kana": null
  },
  "1403": {
    "zip_code": "7141403",
    "prefecture": "岡山県",
    "prefecture_kana": "オカヤマケン",
    "prefecture_code": "33",
    "city": "井原市",
    "city_kana": "イバラシ",
    "town": "美星町上高末",
    "town_kana": "ビセイチョウカミコウズエ",
    "street": null,
    "office_name": null,
    "office_name_kana": null
  },
  "1404": {
    "zip_code": "7141404",
    "prefecture": "岡山県",
    "prefecture_kana": "オカヤマケン",
    "prefecture_code": "33",
    "city": "井原市",
    "city_kana": "イバラシ",
    "town": "美星町烏頭",
    "town_kana": "ビセイチョウウトウ",
    "street": null,
    "office_name": null,
    "office_name_kana": null
  },
  "1405": {
    "zip_code": "7141405",
    "prefecture": "岡山県",
    "prefecture_kana": "オカヤマケン",
    "prefecture_code": "33",
    "city": "井原市",
    "city_kana": "イバラシ",
    "town": "美星町宇戸",
    "town_kana": "ビセイチョウウト",
    "street": null,
    "office_name": null,
    "office_name_kana": null
  },
  "1406": {
    "zip_code": "7141406",
    "prefecture": "岡山県",
    "prefecture_kana": "オカヤマケン",
    "prefecture_code": "33",
    "city": "井原市",
    "city_kana": "イバラシ",
    "town": "美星町三山",
    "town_kana": "ビセイチョウミヤマ",
    "street": null,
    "office_name": null,
    "office_name_kana": null
  },
  "1407": {
    "zip_code": "7141407",
    "prefecture": "岡山県",
    "prefecture_kana": "オカヤマケン",
    "prefecture_code": "33",
    "city": "井原市",
    "city_kana": "イバラシ",
    "town": "美星町黒忠",
    "town_kana": "ビセイチョウクロタダ",
    "street": null,
    "office_name": null,
    "office_name_kana": null
  },
  "1411": {
    "zip_code": "7141411",
    "prefecture": "岡山県",
    "prefecture_kana": "オカヤマケン",
    "prefecture_code": "33",
    "city": "井原市",
    "city_kana": "イバラシ",
    "town": "美星町大倉",
    "town_kana": "ビセイチョウオオクラ",
    "street": null,
    "office_name": null,
    "office_name_kana": null
  },
  "1412": {
    "zip_code": "7141412",
    "prefecture": "岡山県",
    "prefecture_kana": "オカヤマケン",
    "prefecture_code": "33",
    "city": "井原市",
    "city_kana": "イバラシ",
    "town": "美星町東水砂",
    "town_kana": "ビセイチョウヒガシミズスナ",
    "street": null,
    "office_name": null,
    "office_name_kana": null
  },
  "1413": {
    "zip_code": "7141413",
    "prefecture": "岡山県",
    "prefecture_kana": "オカヤマケン",
    "prefecture_code": "33",
    "city": "井原市",
    "city_kana": "イバラシ",
    "town": "美星町西水砂",
    "town_kana": "ビセイチョウニシミズスナ",
    "street": null,
    "office_name": null,
    "office_name_kana": null
  },
  "1414": {
    "zip_code": "7141414",
    "prefecture": "岡山県",
    "prefecture_kana": "オカヤマケン",
    "prefecture_code": "33",
    "city": "井原市",
    "city_kana": "イバラシ",
    "town": "美星町黒木",
    "town_kana": "ビセイチョウクロギ",
    "street": null,
    "office_name": null,
    "office_name_kana": null
  },
  "1415": {
    "zip_code": "7141415",
    "prefecture": "岡山県",
    "prefecture_kana": "オカヤマケン",
    "prefecture_code": "33",
    "city": "井原市",
    "city_kana": "イバラシ",
    "town": "美星町星田",
    "town_kana": "ビセイチョウホシダ",
    "street": null,
    "office_name": null,
    "office_name_kana": null
  },
  "2101": {
    "zip_code": "7142101",
    "prefecture": "岡山県",
    "prefecture_kana": "オカヤマケン",
    "prefecture_code": "33",
    "city": "井原市",
    "city_kana": "イバラシ",
    "town": "芳井町梶江",
    "town_kana": "ヨシイチョウカジエ",
    "street": null,
    "office_name": null,
    "office_name_kana": null
  },
  "2102": {
    "zip_code": "7142102",
    "prefecture": "岡山県",
    "prefecture_kana": "オカヤマケン",
    "prefecture_code": "33",
    "city": "井原市",
    "city_kana": "イバラシ",
    "town": "芳井町与井",
    "town_kana": "ヨシイチョウヨイ",
    "street": null,
    "office_name": null,
    "office_name_kana": null
  },
  "2103": {
    "zip_code": "7142103",
    "prefecture": "岡山県",
    "prefecture_kana": "オカヤマケン",
    "prefecture_code": "33",
    "city": "井原市",
    "city_kana": "イバラシ",
    "town": "芳井町宇戸川",
    "town_kana": "ヨシイチョウウトガワ",
    "street": null,
    "office_name": null,
    "office_name_kana": null
  },
  "2104": {
    "zip_code": "7142104",
    "prefecture": "岡山県",
    "prefecture_kana": "オカヤマケン",
    "prefecture_code": "33",
    "city": "井原市",
    "city_kana": "イバラシ",
    "town": "芳井町花滝",
    "town_kana": "ヨシイチョウハナダキ",
    "street": null,
    "office_name": null,
    "office_name_kana": null
  },
  "2111": {
    "zip_code": "7142111",
    "prefecture": "岡山県",
    "prefecture_kana": "オカヤマケン",
    "prefecture_code": "33",
    "city": "井原市",
    "city_kana": "イバラシ",
    "town": "芳井町吉井",
    "town_kana": "ヨシイチョウヨシイ",
    "street": null,
    "office_name": null,
    "office_name_kana": null
  },
  "2112": {
    "zip_code": "7142112",
    "prefecture": "岡山県",
    "prefecture_kana": "オカヤマケン",
    "prefecture_code": "33",
    "city": "井原市",
    "city_kana": "イバラシ",
    "town": "芳井町簗瀬",
    "town_kana": "ヨシイチョウヤナセ",
    "street": null,
    "office_name": null,
    "office_name_kana": null
  },
  "2113": {
    "zip_code": "7142113",
    "prefecture": "岡山県",
    "prefecture_kana": "オカヤマケン",
    "prefecture_code": "33",
    "city": "井原市",
    "city_kana": "イバラシ",
    "town": "芳井町天神山",
    "town_kana": "ヨシイチョウテンジンヤマ",
    "street": null,
    "office_name": null,
    "office_name_kana": null
  },
  "2114": {
    "zip_code": "7142114",
    "prefecture": "岡山県",
    "prefecture_kana": "オカヤマケン",
    "prefecture_code": "33",
    "city": "井原市",
    "city_kana": "イバラシ",
    "town": "芳井町川相",
    "town_kana": "ヨシイチョウカワイ",
    "street": null,
    "office_name": null,
    "office_name_kana": null
  },
  "2121": {
    "zip_code": "7142121",
    "prefecture": "岡山県",
    "prefecture_kana": "オカヤマケン",
    "prefecture_code": "33",
    "city": "井原市",
    "city_kana": "イバラシ",
    "town": "芳井町佐屋",
    "town_kana": "ヨシイチョウサヤ",
    "street": null,
    "office_name": null,
    "office_name_kana": null
  },
  "2122": {
    "zip_code": "7142122",
    "prefecture": "岡山県",
    "prefecture_kana": "オカヤマケン",
    "prefecture_code": "33",
    "city": "井原市",
    "city_kana": "イバラシ",
    "town": "芳井町種",
    "town_kana": "ヨシイチョウタネ",
    "street": null,
    "office_name": null,
    "office_name_kana": null
  },
  "2123": {
    "zip_code": "7142123",
    "prefecture": "岡山県",
    "prefecture_kana": "オカヤマケン",
    "prefecture_code": "33",
    "city": "井原市",
    "city_kana": "イバラシ",
    "town": "芳井町片塚",
    "town_kana": "ヨシイチョウカタヅカ",
    "street": null,
    "office_name": null,
    "office_name_kana": null
  },
  "2124": {
    "zip_code": "7142124",
    "prefecture": "岡山県",
    "prefecture_kana": "オカヤマケン",
    "prefecture_code": "33",
    "city": "井原市",
    "city_kana": "イバラシ",
    "town": "芳井町井山",
    "town_kana": "ヨシイチョウイヤマ",
    "street": null,
    "office_name": null,
    "office_name_kana": null
  },
  "2125": {
    "zip_code": "7142125",
    "prefecture": "岡山県",
    "prefecture_kana": "オカヤマケン",
    "prefecture_code": "33",
    "city": "井原市",
    "city_kana": "イバラシ",
    "town": "芳井町池谷",
    "town_kana": "ヨシイチョウイケダニ",
    "street": null,
    "office_name": null,
    "office_name_kana": null
  },
  "2231": {
    "zip_code": "7142231",
    "prefecture": "岡山県",
    "prefecture_kana": "オカヤマケン",
    "prefecture_code": "33",
    "city": "井原市",
    "city_kana": "イバラシ",
    "town": "芳井町下鴫",
    "town_kana": "ヨシイチョウシモシギ",
    "street": null,
    "office_name": null,
    "office_name_kana": null
  },
  "2232": {
    "zip_code": "7142232",
    "prefecture": "岡山県",
    "prefecture_kana": "オカヤマケン",
    "prefecture_code": "33",
    "city": "井原市",
    "city_kana": "イバラシ",
    "town": "芳井町上鴫",
    "town_kana": "ヨシイチョウカミシギ",
    "street": null,
    "office_name": null,
    "office_name_kana": null
  },
  "2233": {
    "zip_code": "7142233",
    "prefecture": "岡山県",
    "prefecture_kana": "オカヤマケン",
    "prefecture_code": "33",
    "city": "井原市",
    "city_kana": "イバラシ",
    "town": "芳井町山村",
    "town_kana": "ヨシイチョウヤマムラ",
    "street": null,
    "office_name": null,
    "office_name_kana": null
  },
  "2234": {
    "zip_code": "7142234",
    "prefecture": "岡山県",
    "prefecture_kana": "オカヤマケン",
    "prefecture_code": "33",
    "city": "井原市",
    "city_kana": "イバラシ",
    "town": "芳井町西三原",
    "town_kana": "ヨシイチョウニシミハラ",
    "street": null,
    "office_name": null,
    "office_name_kana": null
  },
  "2341": {
    "zip_code": "7142341",
    "prefecture": "岡山県",
    "prefecture_kana": "オカヤマケン",
    "prefecture_code": "33",
    "city": "井原市",
    "city_kana": "イバラシ",
    "town": "芳井町東三原",
    "town_kana": "ヨシイチョウヒガシミハラ",
    "street": null,
    "office_name": null,
    "office_name_kana": null
  },
  "8585": {
    "zip_code": "7148585",
    "prefecture": "岡山県",
    "prefecture_kana": "オカヤマケン",
    "prefecture_code": "33",
    "city": "笠岡市",
    "city_kana": "カサオカシ",
    "town": "富岡",
    "town_kana": "トミオカ",
    "street": "１００",
    "office_name": "ローム・ワコー　株式会社",
    "office_name_kana": "ロ-ム・ワコ- カブシキガイシヤ"
  },
  "8601": {
    "zip_code": "7148601",
    "prefecture": "岡山県",
    "prefecture_kana": "オカヤマケン",
    "prefecture_code": "33",
    "city": "笠岡市",
    "city_kana": "カサオカシ",
    "town": "中央町",
    "town_kana": "チュウオウチョウ",
    "street": "１−１",
    "office_name": "笠岡市役所",
    "office_name_kana": "カサオカシヤクシヨ"
  }
}