{
  "0101": {
    "zip_code": "7190101",
    "prefecture": "岡山県",
    "prefecture_kana": "オカヤマケン",
    "prefecture_code": "33",
    "city": "浅口市",
    "city_kana": "アサクチシ",
    "town": "金光町上竹",
    "town_kana": "コンコウチョウカミダケ",
    "street": null,
    "office_name": null,
    "office_name_kana": null
  },
  "0102": {
    "zip_code": "7190102",
    "prefecture": "岡山県",
    "prefecture_kana": "オカヤマケン",
    "prefecture_code": "33",
    "city": "浅口市",
    "city_kana": "アサクチシ",
    "town": "金光町下竹",
    "town_kana": "コンコウチョウシモダケ",
    "street": null,
    "office_name": null,
    "office_name_kana": null
  },
  "0103": {
    "zip_code": "7190103",
    "prefecture": "岡山県",
    "prefecture_kana": "オカヤマケン",
    "prefecture_code": "33",
    "city": "浅口市",
    "city_kana": "アサクチシ",
    "town": "金光町八重",
    "town_kana": "コンコウチョウヤエ",
    "street": null,
    "office_name": null,
    "office_name_kana": null
  },
  "0104": {
    "zip_code": "7190104",
    "prefecture": "岡山県",
    "prefecture_kana": "オカヤマケン",
    "prefecture_code": "33",
    "city": "浅口市",
    "city_kana": "アサクチシ",
    "town": "金光町占見新田",
    "town_kana": "コンコウチョウウラミシンデン",
    "street": null,
    "office_name": null,
    "office_name_kana": null
  },
  "0105": {
    "zip_code": "7190105",
    "prefecture": "岡山県",
    "prefecture_kana": "オカヤマケン",
    "prefecture_code": "33",
    "city": "浅口市",
    "city_kana": "アサクチシ",
    "town": "金光町占見",
    "town_kana": "コンコウチョウウラミ",
    "street": null,
    "office_name": null,
    "office_name_kana": null
  },
  "0106": {
    "zip_code": "7190106",
    "prefecture": "岡山県",
    "prefecture_kana": "オカヤマケン",
    "prefecture_code": "33",
    "city": "浅口市",
    "city_kana": "アサクチシ",
    "town": "金光町地頭下",
    "town_kana": "コンコウチョウジトウシモ",
    "street": null,
    "office_name": null,
    "office_name_kana": null
  },
  "0111": {
    "zip_code": "7190111",
    "prefecture": "岡山県",
    "prefecture_kana": "オカヤマケン",
    "prefecture_code": "33",
    "city": "浅口市",
    "city_kana": "アサクチシ",
    "town": "金光町大谷",
    "town_kana": "コンコウチョウオオタニ",
    "street": null,
    "office_name": null,
    "office_name_kana": null
  },
  "0112": {
    "zip_code": "7190112",
    "prefecture": "岡山県",
    "prefecture_kana": "オカヤマケン",
    "prefecture_code": "33",
    "city": "浅口市",
    "city_kana": "アサクチシ",
    "town": "金光町須恵",
    "town_kana": "コンコウチョウスエ",
    "street": null,
    "office_name": null,
    "office_name_kana": null
  },
  "0113": {
    "zip_code": "7190113",
    "prefecture": "岡山県",
    "prefecture_kana": "オカヤマケン",
    "prefecture_code": "33",
    "city": "浅口市",
    "city_kana": "アサクチシ",
    "town": "金光町佐方",
    "town_kana": "コンコウチョウサガタ",
    "street": null,
    "office_name": null,
    "office_name_kana": null
  },
  "0192": {
    "zip_code": "7190192",
    "prefecture": "岡山県",
    "prefecture_kana": "オカヤマケン",
    "prefecture_code": "33",
    "city": "浅口市",
    "city_kana": "アサクチシ",
    "town": "金光町占見新田",
    "town_kana": "コンコウチョウウラミシンデン",
    "street": "７５１",
    "office_name": "浅口市役所　金光総合支所",
    "office_name_kana": "アサクチシヤクシヨ コンコウソウゴウシシヨ"
  },
  "0195": {
    "zip_code": "7190195",
    "prefecture": "岡山県",
    "prefecture_kana": "オカヤマケン",
    "prefecture_code": "33",
    "city": "浅口市",
    "city_kana": "アサクチシ",
    "town": "金光町須恵",
    "town_kana": "コンコウチョウスエ",
    "street": "３９",
    "office_name": "株式会社　サニーマスコット",
    "office_name_kana": "カブシキガイシヤ サニ-マスコツト"
  },
  "0200": {
    "zip_code": "7190200",
    "prefecture": "岡山県",
    "prefecture_kana": "オカヤマケン",
    "prefecture_code": "33",
    "city": "浅口市",
    "city_kana": "アサクチシ",
    "town": "",
    "town_kana": "",
    "street": null,
    "office_name": null,
    "office_name_kana": null
  },
  "0221": [
    {
      "zip_code": "7190221",
      "prefecture": "岡山県",
      "prefecture_kana": "オカヤマケン",
      "prefecture_code": "33",
      "city": "浅口市",
      "city_kana": "アサクチシ",
      "town": "金光町上竹",
      "town_kana": "コンコウチョウカミダケ",
      "street": null,
      "office_name": null,
      "office_name_kana": null
    },
    {
      "zip_code": "7190221",
      "prefecture": "岡山県",
      "prefecture_kana": "オカヤマケン",
      "prefecture_code": "33",
      "city": "浅口市",
      "city_kana": "アサクチシ",
      "town": "金光町上竹遙照山",
      "town_kana": "コンコウチョウカミダケヨウショウザン",
      "street": null,
      "office_name": null,
      "office_name_kana": null
    }
  ],
  "0231": {
    "zip_code": "7190231",
    "prefecture": "岡山県",
    "prefecture_kana": "オカヤマケン",
    "prefecture_code": "33",
    "city": "浅口市",
    "city_kana": "アサクチシ",
    "town": "鴨方町小坂西",
    "town_kana": "カモガタチョウコサカニシ",
    "street": null,
    "office_name": null,
    "office_name_kana": null
  },
  "0232": {
    "zip_code": "7190232",
    "prefecture": "岡山県",
    "prefecture_kana": "オカヤマケン",
    "prefecture_code": "33",
    "city": "浅口市",
    "city_kana": "アサクチシ",
    "town": "鴨方町本庄",
    "town_kana": "カモガタチョウホンジョ",
    "street": null,
    "office_name": null,
    "office_name_kana": null
  },
  "0233": {
    "zip_code": "7190233",
    "prefecture": "岡山県",
    "prefecture_kana": "オカヤマケン",
    "prefecture_code": "33",
    "city": "浅口市",
    "city_kana": "アサクチシ",
    "town": "鴨方町地頭上",
    "town_kana": "カモガタチョウヂトウカミ",
    "street": null,
    "office_name": null,
    "office_name_kana": null
  },
  "0234": {
    "zip_code": "7190234",
    "prefecture": "岡山県",
    "prefecture_kana": "オカヤマケン",
    "prefecture_code": "33",
    "city": "浅口市",
    "city_kana": "アサクチシ",
    "town": "鴨方町益坂",
    "town_kana": "カモガタチョウマスサカ",
    "street": null,
    "office_name": null,
    "office_name_kana": null
  },
  "0241": {
    "zip_code": "7190241",
    "prefecture": "岡山県",
    "prefecture_kana": "オカヤマケン",
    "prefecture_code": "33",
    "city": "浅口市",
    "city_kana": "アサクチシ",
    "town": "鴨方町小坂東",
    "town_kana": "カモガタチョウコサカヒガシ",
    "street": null,
    "office_name": null,
    "office_name_kana": null
  },
  "0242": {
    "zip_code": "7190242",
    "prefecture": "岡山県",
    "prefecture_kana": "オカヤマケン",
    "prefecture_code": "33",
    "city": "浅口市",
    "city_kana": "アサクチシ",
    "town": "鴨方町みどりケ丘",
    "town_kana": "カモガタチョウミドリガオカ",
    "street": null,
    "office_name": null,
    "office_name_kana": null
  },
  "0243": {
    "zip_code": "7190243",
    "prefecture": "岡山県",
    "prefecture_kana": "オカヤマケン",
    "prefecture_code": "33",
    "city": "浅口市",
    "city_kana": "アサクチシ",
    "town": "鴨方町鴨方",
    "town_kana": "カモガタチョウカモガタ",
    "street": null,
    "office_name": null,
    "office_name_kana": null
  },
  "0244": {
    "zip_code": "7190244",
    "prefecture": "岡山県",
    "prefecture_kana": "オカヤマケン",
    "prefecture_code": "33",
    "city": "浅口市",
    "city_kana": "アサクチシ",
    "town": "鴨方町深田",
    "town_kana": "カモガタチョウフカダ",
    "street": null,
    "office_name": null,
    "office_name_kana": null
  },
  "0251": {
    "zip_code": "7190251",
    "prefecture": "岡山県",
    "prefecture_kana": "オカヤマケン",
    "prefecture_code": "33",
    "city": "浅口市",
    "city_kana": "アサクチシ",
    "town": "鴨方町六条院西",
    "town_kana": "カモガタチョウロクジョウインニシ",
    "street": null,
    "office_name": null,
    "office_name_kana": null
  },
  "0252": {
    "zip_code": "7190252",
    "prefecture": "岡山県",
    "prefecture_kana": "オカヤマケン",
    "prefecture_code": "33",
    "city": "浅口市",
    "city_kana": "アサクチシ",
    "town": "鴨方町六条院中",
    "town_kana": "カモガタチョウロクジョウインナカ",
    "street": null,
    "office_name": null,
    "office_name_kana": null
  },
  "0253": {
    "zip_code": "7190253",
    "prefecture": "岡山県",
    "prefecture_kana": "オカヤマケン",
    "prefecture_code": "33",
    "city": "浅口市",
    "city_kana": "アサクチシ",
    "town": "鴨方町鳩ケ丘",
    "town_kana": "カモガタチョウハトガオカ",
    "street": null,
    "office_name": null,
    "office_name_kana": null
  },
  "0254": {
    "zip_code": "7190254",
    "prefecture": "岡山県",
    "prefecture_kana": "オカヤマケン",
    "prefecture_code": "33",
    "city": "浅口市",
    "city_kana": "アサクチシ",
    "town": "鴨方町六条院東",
    "town_kana": "カモガタチョウロクジョウインヒガシ",
    "street": null,
    "office_name": null,
    "office_name_kana": null
  },
  "0295": {
    "zip_code": "7190295",
    "prefecture": "岡山県",
    "prefecture_kana": "オカヤマケン",
    "prefecture_code": "33",
    "city": "浅口市",
    "city_kana": "アサクチシ",
    "town": "鴨方町六条院中",
    "town_kana": "カモガタチョウロクジョウインナカ",
    "street": "３０５０",
    "office_name": "浅口市役所",
    "office_name_kana": "アサクチシヤクシヨ"
  },
  "0300": {
    "zip_code": "7190300",
    "prefecture": "岡山県",
    "prefecture_kana": "オカヤマケン",
    "prefecture_code": "33",
    "city": "浅口郡里庄町",
    "city_kana": "アサクチグンサトショウチョウ",
    "town": "",
    "town_kana": "",
    "street": null,
    "office_name": null,
    "office_name_kana": null
  },
  "0301": {
    "zip_code": "7190301",
    "prefecture": "岡山県",
    "prefecture_kana": "オカヤマケン",
    "prefecture_code": "33",
    "city": "浅口郡里庄町",
    "city_kana": "アサクチグンサトショウチョウ",
    "town": "里見",
    "town_kana": "サトミ",
    "street": null,
    "office_name": null,
    "office_name_kana": null
  },
  "0302": {
    "zip_code": "7190302",
    "prefecture": "岡山県",
    "prefecture_kana": "オカヤマケン",
    "prefecture_code": "33",
    "city": "浅口郡里庄町",
    "city_kana": "アサクチグンサトショウチョウ",
    "town": "新庄",
    "town_kana": "シンジョウ",
    "street": null,
    "office_name": null,
    "office_name_kana": null
  },
  "0303": {
    "zip_code": "7190303",
    "prefecture": "岡山県",
    "prefecture_kana": "オカヤマケン",
    "prefecture_code": "33",
    "city": "浅口郡里庄町",
    "city_kana": "アサクチグンサトショウチョウ",
    "town": "浜中",
    "town_kana": "ハマナカ",
    "street": null,
    "office_name": null,
    "office_name_kana": null
  },
  "0304": {
    "zip_code": "7190304",
    "prefecture": "岡山県",
    "prefecture_kana": "オカヤマケン",
    "prefecture_code": "33",
    "city": "浅口郡里庄町",
    "city_kana": "アサクチグンサトショウチョウ",
    "town": "新庄グリーンクレスト",
    "town_kana": "シンジョウグリーンクレスト",
    "street": null,
    "office_name": null,
    "office_name_kana": null
  },
  "0392": {
    "zip_code": "7190392",
    "prefecture": "岡山県",
    "prefecture_kana": null,
    "prefecture_code": null,
    "city": "浅口郡里庄町",
    "city_kana": null,
    "town": "大字新庄",
    "town_kana": null,
    "street": "３８５８",
    "office_name": "三陽機器　株式会社",
    "office_name_kana": "サンヨウキキ カブシキガイシヤ"
  },
  "0393": {
    "zip_code": "7190393",
    "prefecture": "岡山県",
    "prefecture_kana": null,
    "prefecture_code": null,
    "city": "浅口郡里庄町",
    "city_kana": null,
    "town": "大字里見",
    "town_kana": null,
    "street": "４２１５",
    "office_name": "天野実業　（株）　里庄第一工場",
    "office_name_kana": "アマノジツギヨウ (カブ) サトシヨウダイイチコウジヨウ"
  },
  "0398": {
    "zip_code": "7190398",
    "prefecture": "岡山県",
    "prefecture_kana": null,
    "prefecture_code": null,
    "city": "浅口郡里庄町",
    "city_kana": null,
    "town": "大字里見",
    "town_kana": null,
    "street": "１１０７−２",
    "office_name": "里庄町役場",
    "office_name_kana": "サトシヨウチヨウヤクバ"
  },
  "1100": {
    "zip_code": "7191100",
    "prefecture": "岡山県",
    "prefecture_kana": "オカヤマケン",
    "prefecture_code": "33",
    "city": "総社市",
    "city_kana": "ソウジャシ",
    "town": "",
    "town_kana": "",
    "street": null,
    "office_name": null,
    "office_name_kana": null
  },
  "1101": {
    "zip_code": "7191101",
    "prefecture": "岡山県",
    "prefecture_kana": "オカヤマケン",
    "prefecture_code": "33",
    "city": "総社市",
    "city_kana": "ソウジャシ",
    "town": "奥坂",
    "town_kana": "オクサカ",
    "street": null,
    "office_name": null,
    "office_name_kana": null
  },
  "1102": {
    "zip_code": "7191102",
    "prefecture": "岡山県",
    "prefecture_kana": "オカヤマケン",
    "prefecture_code": "33",
    "city": "総社市",
    "city_kana": "ソウジャシ",
    "town": "東阿曽",
    "town_kana": "ヒガシアゾ",
    "street": null,
    "office_name": null,
    "office_name_kana": null
  },
  "1103": {
    "zip_code": "7191103",
    "prefecture": "岡山県",
    "prefecture_kana": "オカヤマケン",
    "prefecture_code": "33",
    "city": "総社市",
    "city_kana": "ソウジャシ",
    "town": "西阿曽",
    "town_kana": "ニシアゾ",
    "street": null,
    "office_name": null,
    "office_name_kana": null
  },
  "1104": {
    "zip_code": "7191104",
    "prefecture": "岡山県",
    "prefecture_kana": "オカヤマケン",
    "prefecture_code": "33",
    "city": "総社市",
    "city_kana": "ソウジャシ",
    "town": "久米",
    "town_kana": "クメ",
    "street": null,
    "office_name": null,
    "office_name_kana": null
  },
  "1105": {
    "zip_code": "7191105",
    "prefecture": "岡山県",
    "prefecture_kana": "オカヤマケン",
    "prefecture_code": "33",
    "city": "総社市",
    "city_kana": "ソウジャシ",
    "town": "黒尾",
    "town_kana": "クロオ",
    "street": null,
    "office_name": null,
    "office_name_kana": null
  },
  "1106": {
    "zip_code": "7191106",
    "prefecture": "岡山県",
    "prefecture_kana": "オカヤマケン",
    "prefecture_code": "33",
    "city": "総社市",
    "city_kana": "ソウジャシ",
    "town": "泉",
    "town_kana": "イズミ",
    "street": null,
    "office_name": null,
    "office_name_kana": null
  },
  "1111": {
    "zip_code": "7191111",
    "prefecture": "岡山県",
    "prefecture_kana": "オカヤマケン",
    "prefecture_code": "33",
    "city": "総社市",
    "city_kana": "ソウジャシ",
    "town": "長良",
    "town_kana": "ナガラ",
    "street": null,
    "office_name": null,
    "office_name_kana": null
  },
  "1112": {
    "zip_code": "7191112",
    "prefecture": "岡山県",
    "prefecture_kana": "オカヤマケン",
    "prefecture_code": "33",
    "city": "総社市",
    "city_kana": "ソウジャシ",
    "town": "窪木",
    "town_kana": "クボキ",
    "street": null,
    "office_name": null,
    "office_name_kana": null
  },
  "1113": {
    "zip_code": "7191113",
    "prefecture": "岡山県",
    "prefecture_kana": "オカヤマケン",
    "prefecture_code": "33",
    "city": "総社市",
    "city_kana": "ソウジャシ",
    "town": "南溝手",
    "town_kana": "ミナミミゾテ",
    "street": null,
    "office_name": null,
    "office_name_kana": null
  },
  "1114": {
    "zip_code": "7191114",
    "prefecture": "岡山県",
    "prefecture_kana": "オカヤマケン",
    "prefecture_code": "33",
    "city": "総社市",
    "city_kana": "ソウジャシ",
    "town": "金井戸",
    "town_kana": "カナイド",
    "street": null,
    "office_name": null,
    "office_name_kana": null
  },
  "1115": {
    "zip_code": "7191115",
    "prefecture": "岡山県",
    "prefecture_kana": "オカヤマケン",
    "prefecture_code": "33",
    "city": "総社市",
    "city_kana": "ソウジャシ",
    "town": "福井",
    "town_kana": "フクイ",
    "street": null,
    "office_name": null,
    "office_name_kana": null
  },
  "1116": {
    "zip_code": "7191116",
    "prefecture": "岡山県",
    "prefecture_kana": "オカヤマケン",
    "prefecture_code": "33",
    "city": "総社市",
    "city_kana": "ソウジャシ",
    "town": "刑部",
    "town_kana": "オシカベ",
    "street": null,
    "office_name": null,
    "office_name_kana": null
  },
  "1117": {
    "zip_code": "7191117",
    "prefecture": "岡山県",
    "prefecture_kana": "オカヤマケン",
    "prefecture_code": "33",
    "city": "総社市",
    "city_kana": "ソウジャシ",
    "town": "北溝手",
    "town_kana": "キタミゾテ",
    "street": null,
    "office_name": null,
    "office_name_kana": null
  },
  "1121": {
    "zip_code": "7191121",
    "prefecture": "岡山県",
    "prefecture_kana": "オカヤマケン",
    "prefecture_code": "33",
    "city": "総社市",
    "city_kana": "ソウジャシ",
    "town": "赤浜",
    "town_kana": "アカハマ",
    "street": null,
    "office_name": null,
    "office_name_kana": null
  },
  "1122": {
    "zip_code": "7191122",
    "prefecture": "岡山県",
    "prefecture_kana": "オカヤマケン",
    "prefecture_code": "33",
    "city": "総社市",
    "city_kana": "ソウジャシ",
    "town": "下林",
    "town_kana": "シモバヤシ",
    "street": null,
    "office_name": null,
    "office_name_kana": null
  },
  "1123": {
    "zip_code": "7191123",
    "prefecture": "岡山県",
    "prefecture_kana": "オカヤマケン",
    "prefecture_code": "33",
    "city": "総社市",
    "city_kana": "ソウジャシ",
    "town": "上林",
    "town_kana": "カンバヤシ",
    "street": null,
    "office_name": null,
    "office_name_kana": null
  },
  "1124": {
    "zip_code": "7191124",
    "prefecture": "岡山県",
    "prefecture_kana": "オカヤマケン",
    "prefecture_code": "33",
    "city": "総社市",
    "city_kana": "ソウジャシ",
    "town": "三須",
    "town_kana": "ミス",
    "street": null,
    "office_name": null,
    "office_name_kana": null
  },
  "1125": {
    "zip_code": "7191125",
    "prefecture": "岡山県",
    "prefecture_kana": "オカヤマケン",
    "prefecture_code": "33",
    "city": "総社市",
    "city_kana": "ソウジャシ",
    "town": "井手",
    "town_kana": "イデ",
    "street": null,
    "office_name": null,
    "office_name_kana": null
  },
  "1126": {
    "zip_code": "7191126",
    "prefecture": "岡山県",
    "prefecture_kana": "オカヤマケン",
    "prefecture_code": "33",
    "city": "総社市",
    "city_kana": "ソウジャシ",
    "town": "総社",
    "town_kana": "ソウジャ",
    "street": null,
    "office_name": null,
    "office_name_kana": null
  },
  "1131": {
    "zip_code": "7191131",
    "prefecture": "岡山県",
    "prefecture_kana": "オカヤマケン",
    "prefecture_code": "33",
    "city": "総社市",
    "city_kana": "ソウジャシ",
    "town": "中央",
    "town_kana": "チュウオウ",
    "street": null,
    "office_name": null,
    "office_name_kana": null
  },
  "1132": {
    "zip_code": "7191132",
    "prefecture": "岡山県",
    "prefecture_kana": "オカヤマケン",
    "prefecture_code": "33",
    "city": "総社市",
    "city_kana": "ソウジャシ",
    "town": "三輪",
    "town_kana": "ミワ",
    "street": null,
    "office_name": null,
    "office_name_kana": null
  },
  "1133": {
    "zip_code": "7191133",
    "prefecture": "岡山県",
    "prefecture_kana": "オカヤマケン",
    "prefecture_code": "33",
    "city": "総社市",
    "city_kana": "ソウジャシ",
    "town": "中原",
    "town_kana": "ナカバラ",
    "street": null,
    "office_name": null,
    "office_name_kana": null
  },
  "1134": {
    "zip_code": "7191134",
    "prefecture": "岡山県",
    "prefecture_kana": "オカヤマケン",
    "prefecture_code": "33",
    "city": "総社市",
    "city_kana": "ソウジャシ",
    "town": "真壁",
    "town_kana": "マカベ",
    "street": null,
    "office_name": null,
    "office_name_kana": null
  },
  "1135": {
    "zip_code": "7191135",
    "prefecture": "岡山県",
    "prefecture_kana": "オカヤマケン",
    "prefecture_code": "33",
    "city": "総社市",
    "city_kana": "ソウジャシ",
    "town": "溝口",
    "town_kana": "ミゾクチ",
    "street": null,
    "office_name": null,
    "office_name_kana": null
  },
  "1136": {
    "zip_code": "7191136",
    "prefecture": "岡山県",
    "prefecture_kana": "オカヤマケン",
    "prefecture_code": "33",
    "city": "総社市",
    "city_kana": "ソウジャシ",
    "town": "駅前",
    "town_kana": "エキマエ",
    "street": null,
    "office_name": null,
    "office_name_kana": null
  },
  "1141": {
    "zip_code": "7191141",
    "prefecture": "岡山県",
    "prefecture_kana": "オカヤマケン",
    "prefecture_code": "33",
    "city": "総社市",
    "city_kana": "ソウジャシ",
    "town": "福谷",
    "town_kana": "フクタニ",
    "street": null,
    "office_name": null,
    "office_name_kana": null
  },
  "1142": {
    "zip_code": "7191142",
    "prefecture": "岡山県",
    "prefecture_kana": "オカヤマケン",
    "prefecture_code": "33",
    "city": "総社市",
    "city_kana": "ソウジャシ",
    "town": "秦",
    "town_kana": "ハダ",
    "street": null,
    "office_name": null,
    "office_name_kana": null
  },
  "1143": {
    "zip_code": "7191143",
    "prefecture": "岡山県",
    "prefecture_kana": "オカヤマケン",
    "prefecture_code": "33",
    "city": "総社市",
    "city_kana": "ソウジャシ",
    "town": "上原",
    "town_kana": "カンバラ",
    "street": null,
    "office_name": null,
    "office_name_kana": null
  },
  "1144": {
    "zip_code": "7191144",
    "prefecture": "岡山県",
    "prefecture_kana": "オカヤマケン",
    "prefecture_code": "33",
    "city": "総社市",
    "city_kana": "ソウジャシ",
    "town": "富原",
    "town_kana": "トンバラ",
    "street": null,
    "office_name": null,
    "office_name_kana": null
  },
  "1145": {
    "zip_code": "7191145",
    "prefecture": "岡山県",
    "prefecture_kana": "オカヤマケン",
    "prefecture_code": "33",
    "city": "総社市",
    "city_kana": "ソウジャシ",
    "town": "下原",
    "town_kana": "シモバラ",
    "street": null,
    "office_name": null,
    "office_name_kana": null
  },
  "1146": {
    "zip_code": "7191146",
    "prefecture": "岡山県",
    "prefecture_kana": "オカヤマケン",
    "prefecture_code": "33",
    "city": "総社市",
    "city_kana": "ソウジャシ",
    "town": "八代",
    "town_kana": "ヤシロ",
    "street": null,
    "office_name": null,
    "office_name_kana": null
  },
  "1151": {
    "zip_code": "7191151",
    "prefecture": "岡山県",
    "prefecture_kana": "オカヤマケン",
    "prefecture_code": "33",
    "city": "総社市",
    "city_kana": "ソウジャシ",
    "town": "槇谷",
    "town_kana": "マキダニ",
    "street": null,
    "office_name": null,
    "office_name_kana": null
  },
  "1152": {
    "zip_code": "7191152",
    "prefecture": "岡山県",
    "prefecture_kana": "オカヤマケン",
    "prefecture_code": "33",
    "city": "総社市",
    "city_kana": "ソウジャシ",
    "town": "見延",
    "town_kana": "ミノベ",
    "street": null,
    "office_name": null,
    "office_name_kana": null
  },
  "1153": {
    "zip_code": "7191153",
    "prefecture": "岡山県",
    "prefecture_kana": "オカヤマケン",
    "prefecture_code": "33",
    "city": "総社市",
    "city_kana": "ソウジャシ",
    "town": "宍粟",
    "town_kana": "シサワ",
    "street": null,
    "office_name": null,
    "office_name_kana": null
  },
  "1154": {
    "zip_code": "7191154",
    "prefecture": "岡山県",
    "prefecture_kana": "オカヤマケン",
    "prefecture_code": "33",
    "city": "総社市",
    "city_kana": "ソウジャシ",
    "town": "井尻野",
    "town_kana": "イジリノ",
    "street": null,
    "office_name": null,
    "office_name_kana": null
  },
  "1155": {
    "zip_code": "7191155",
    "prefecture": "岡山県",
    "prefecture_kana": "オカヤマケン",
    "prefecture_code": "33",
    "city": "総社市",
    "city_kana": "ソウジャシ",
    "town": "小寺",
    "town_kana": "コデラ",
    "street": null,
    "office_name": null,
    "office_name_kana": null
  },
  "1156": {
    "zip_code": "7191156",
    "prefecture": "岡山県",
    "prefecture_kana": "オカヤマケン",
    "prefecture_code": "33",
    "city": "総社市",
    "city_kana": "ソウジャシ",
    "town": "門田",
    "town_kana": "モンデ",
    "street": null,
    "office_name": null,
    "office_name_kana": null
  },
  "1161": {
    "zip_code": "7191161",
    "prefecture": "岡山県",
    "prefecture_kana": "オカヤマケン",
    "prefecture_code": "33",
    "city": "総社市",
    "city_kana": "ソウジャシ",
    "town": "宿",
    "town_kana": "シュク",
    "street": null,
    "office_name": null,
    "office_name_kana": null
  },
  "1162": {
    "zip_code": "7191162",
    "prefecture": "岡山県",
    "prefecture_kana": "オカヤマケン",
    "prefecture_code": "33",
    "city": "総社市",
    "city_kana": "ソウジャシ",
    "town": "岡谷",
    "town_kana": "オカダニ",
    "street": null,
    "office_name": null,
    "office_name_kana": null
  },
  "1163": {
    "zip_code": "7191163",
    "prefecture": "岡山県",
    "prefecture_kana": "オカヤマケン",
    "prefecture_code": "33",
    "city": "総社市",
    "city_kana": "ソウジャシ",
    "town": "地頭片山",
    "town_kana": "ジトウカタヤマ",
    "street": null,
    "office_name": null,
    "office_name_kana": null
  },
  "1164": {
    "zip_code": "7191164",
    "prefecture": "岡山県",
    "prefecture_kana": "オカヤマケン",
    "prefecture_code": "33",
    "city": "総社市",
    "city_kana": "ソウジャシ",
    "town": "西郡",
    "town_kana": "ニシゴオリ",
    "street": null,
    "office_name": null,
    "office_name_kana": null
  },
  "1165": {
    "zip_code": "7191165",
    "prefecture": "岡山県",
    "prefecture_kana": "オカヤマケン",
    "prefecture_code": "33",
    "city": "総社市",
    "city_kana": "ソウジャシ",
    "town": "西坂台",
    "town_kana": "ニシサカダイ",
    "street": null,
    "office_name": null,
    "office_name_kana": null
  },
  "1171": {
    "zip_code": "7191171",
    "prefecture": "岡山県",
    "prefecture_kana": "オカヤマケン",
    "prefecture_code": "33",
    "city": "総社市",
    "city_kana": "ソウジャシ",
    "town": "清音三因",
    "town_kana": "キヨネミヨリ",
    "street": null,
    "office_name": null,
    "office_name_kana": null
  },
  "1172": {
    "zip_code": "7191172",
    "prefecture": "岡山県",
    "prefecture_kana": "オカヤマケン",
    "prefecture_code": "33",
    "city": "総社市",
    "city_kana": "ソウジャシ",
    "town": "清音軽部",
    "town_kana": "キヨネカルベ",
    "street": null,
    "office_name": null,
    "office_name_kana": null
  },
  "1173": {
    "zip_code": "7191173",
    "prefecture": "岡山県",
    "prefecture_kana": "オカヤマケン",
    "prefecture_code": "33",
    "city": "総社市",
    "city_kana": "ソウジャシ",
    "town": "清音黒田",
    "town_kana": "キヨネクロタ",
    "street": null,
    "office_name": null,
    "office_name_kana": null
  },
  "1174": {
    "zip_code": "7191174",
    "prefecture": "岡山県",
    "prefecture_kana": "オカヤマケン",
    "prefecture_code": "33",
    "city": "総社市",
    "city_kana": "ソウジャシ",
    "town": "清音古地",
    "town_kana": "キヨネコチ",
    "street": null,
    "office_name": null,
    "office_name_kana": null
  },
  "1175": {
    "zip_code": "7191175",
    "prefecture": "岡山県",
    "prefecture_kana": "オカヤマケン",
    "prefecture_code": "33",
    "city": "総社市",
    "city_kana": "ソウジャシ",
    "town": "清音上中島",
    "town_kana": "キヨネカミナカシマ",
    "street": null,
    "office_name": null,
    "office_name_kana": null
  },
  "1176": {
    "zip_code": "7191176",
    "prefecture": "岡山県",
    "prefecture_kana": "オカヤマケン",
    "prefecture_code": "33",
    "city": "総社市",
    "city_kana": "ソウジャシ",
    "town": "清音柿木",
    "town_kana": "キヨネカキノキ",
    "street": null,
    "office_name": null,
    "office_name_kana": null
  },
  "1192": {
    "zip_code": "7191192",
    "prefecture": "岡山県",
    "prefecture_kana": "オカヤマケン",
    "prefecture_code": "33",
    "city": "総社市",
    "city_kana": "ソウジャシ",
    "town": "中央",
    "town_kana": "チュウオウ",
    "street": "１丁目１−１",
    "office_name": "総社市役所",
    "office_name_kana": "ソウジヤシヤクシヨ"
  },
  "1193": {
    "zip_code": "7191193",
    "prefecture": "岡山県",
    "prefecture_kana": "オカヤマケン",
    "prefecture_code": "33",
    "city": "総社市",
    "city_kana": "ソウジャシ",
    "town": "中央",
    "town_kana": "チュウオウ",
    "street": "２丁目１−１",
    "office_name": "吉備信用金庫",
    "office_name_kana": "キビシンヨウキンコ"
  },
  "1195": {
    "zip_code": "7191195",
    "prefecture": "岡山県",
    "prefecture_kana": "オカヤマケン",
    "prefecture_code": "33",
    "city": "総社市",
    "city_kana": "ソウジャシ",
    "town": "中原",
    "town_kana": "ナカバラ",
    "street": "８８",
    "office_name": "ユニチカ　株式会社　常盤工場",
    "office_name_kana": "ユニチカ カブシキガイシヤ トキワコウジヨウ"
  },
  "1197": {
    "zip_code": "7191197",
    "prefecture": "岡山県",
    "prefecture_kana": "オカヤマケン",
    "prefecture_code": "33",
    "city": "総社市",
    "city_kana": "ソウジャシ",
    "town": "窪木",
    "town_kana": "クボキ",
    "street": "１１１",
    "office_name": "岡山県立大学",
    "office_name_kana": "オカヤマケンリツダイガク"
  },
  "1198": {
    "zip_code": "7191198",
    "prefecture": "岡山県",
    "prefecture_kana": "オカヤマケン",
    "prefecture_code": "33",
    "city": "総社市",
    "city_kana": "ソウジャシ",
    "town": "井尻野",
    "town_kana": "イジリノ",
    "street": "８００",
    "office_name": "山崎製パン　株式会社　岡山工場",
    "office_name_kana": "ヤマザキセイパン カブシキガイシヤ オカヤマコウジヨウ"
  },
  "1311": {
    "zip_code": "7191311",
    "prefecture": "岡山県",
    "prefecture_kana": "オカヤマケン",
    "prefecture_code": "33",
    "city": "総社市",
    "city_kana": "ソウジャシ",
    "town": "美袋",
    "town_kana": "ミナギ",
    "street": null,
    "office_name": null,
    "office_name_kana": null
  },
  "1312": {
    "zip_code": "7191312",
    "prefecture": "岡山県",
    "prefecture_kana": "オカヤマケン",
    "prefecture_code": "33",
    "city": "総社市",
    "city_kana": "ソウジャシ",
    "town": "種井",
    "town_kana": "タネイ",
    "street": null,
    "office_name": null,
    "office_name_kana": null
  },
  "1313": {
    "zip_code": "7191313",
    "prefecture": "岡山県",
    "prefecture_kana": "オカヤマケン",
    "prefecture_code": "33",
    "city": "総社市",
    "city_kana": "ソウジャシ",
    "town": "槁",
    "town_kana": "ケヤキ",
    "street": null,
    "office_name": null,
    "office_name_kana": null
  },
  "1314": {
    "zip_code": "7191314",
    "prefecture": "岡山県",
    "prefecture_kana": "オカヤマケン",
    "prefecture_code": "33",
    "city": "総社市",
    "city_kana": "ソウジャシ",
    "town": "延原",
    "town_kana": "ノブハラ",
    "street": null,
    "office_name": null,
    "office_name_kana": null
  },
  "1315": {
    "zip_code": "7191315",
    "prefecture": "岡山県",
    "prefecture_kana": "オカヤマケン",
    "prefecture_code": "33",
    "city": "総社市",
    "city_kana": "ソウジャシ",
    "town": "宇山",
    "town_kana": "ウヤマ",
    "street": null,
    "office_name": null,
    "office_name_kana": null
  },
  "1316": {
    "zip_code": "7191316",
    "prefecture": "岡山県",
    "prefecture_kana": "オカヤマケン",
    "prefecture_code": "33",
    "city": "総社市",
    "city_kana": "ソウジャシ",
    "town": "日羽",
    "town_kana": "ヒワ",
    "street": null,
    "office_name": null,
    "office_name_kana": null
  },
  "1321": {
    "zip_code": "7191321",
    "prefecture": "岡山県",
    "prefecture_kana": "オカヤマケン",
    "prefecture_code": "33",
    "city": "総社市",
    "city_kana": "ソウジャシ",
    "town": "下倉",
    "town_kana": "シタグラ",
    "street": null,
    "office_name": null,
    "office_name_kana": null
  },
  "1322": {
    "zip_code": "7191322",
    "prefecture": "岡山県",
    "prefecture_kana": "オカヤマケン",
    "prefecture_code": "33",
    "city": "総社市",
    "city_kana": "ソウジャシ",
    "town": "影",
    "town_kana": "カゲ",
    "street": null,
    "office_name": null,
    "office_name_kana": null
  },
  "1323": {
    "zip_code": "7191323",
    "prefecture": "岡山県",
    "prefecture_kana": "オカヤマケン",
    "prefecture_code": "33",
    "city": "総社市",
    "city_kana": "ソウジャシ",
    "town": "中尾",
    "town_kana": "ナカオ",
    "street": null,
    "office_name": null,
    "office_name_kana": null
  },
  "1324": {
    "zip_code": "7191324",
    "prefecture": "岡山県",
    "prefecture_kana": "オカヤマケン",
    "prefecture_code": "33",
    "city": "総社市",
    "city_kana": "ソウジャシ",
    "town": "原",
    "town_kana": "ハラ",
    "street": null,
    "office_name": null,
    "office_name_kana": null
  },
  "2121": {
    "zip_code": "7192121",
    "prefecture": "岡山県",
    "prefecture_kana": "オカヤマケン",
    "prefecture_code": "33",
    "city": "高梁市",
    "city_kana": "タカハシシ",
    "town": "川面町",
    "town_kana": "カワモチョウ",
    "street": null,
    "office_name": null,
    "office_name_kana": null
  },
  "2122": {
    "zip_code": "7192122",
    "prefecture": "岡山県",
    "prefecture_kana": "オカヤマケン",
    "prefecture_code": "33",
    "city": "高梁市",
    "city_kana": "タカハシシ",
    "town": "高倉町田井",
    "town_kana": "タカクラチョウタイ",
    "street": null,
    "office_name": null,
    "office_name_kana": null
  },
  "2123": {
    "zip_code": "7192123",
    "prefecture": "岡山県",
    "prefecture_kana": "オカヤマケン",
    "prefecture_code": "33",
    "city": "高梁市",
    "city_kana": "タカハシシ",
    "town": "高倉町飯部",
    "town_kana": "タカクラチョウイイベ",
    "street": null,
    "office_name": null,
    "office_name_kana": null
  },
  "2231": {
    "zip_code": "7192231",
    "prefecture": "岡山県",
    "prefecture_kana": "オカヤマケン",
    "prefecture_code": "33",
    "city": "高梁市",
    "city_kana": "タカハシシ",
    "town": "宇治町遠原",
    "town_kana": "ウジチョウトオバラ",
    "street": null,
    "office_name": null,
    "office_name_kana": null
  },
  "2232": {
    "zip_code": "7192232",
    "prefecture": "岡山県",
    "prefecture_kana": "オカヤマケン",
    "prefecture_code": "33",
    "city": "高梁市",
    "city_kana": "タカハシシ",
    "town": "宇治町宇治",
    "town_kana": "ウジチョウウジ",
    "street": null,
    "office_name": null,
    "office_name_kana": null
  },
  "2233": {
    "zip_code": "7192233",
    "prefecture": "岡山県",
    "prefecture_kana": "オカヤマケン",
    "prefecture_code": "33",
    "city": "高梁市",
    "city_kana": "タカハシシ",
    "town": "宇治町穴田",
    "town_kana": "ウジチョウアナダ",
    "street": null,
    "office_name": null,
    "office_name_kana": null
  },
  "2234": {
    "zip_code": "7192234",
    "prefecture": "岡山県",
    "prefecture_kana": "オカヤマケン",
    "prefecture_code": "33",
    "city": "高梁市",
    "city_kana": "タカハシシ",
    "town": "宇治町本郷",
    "town_kana": "ウジチョウホンゴウ",
    "street": null,
    "office_name": null,
    "office_name_kana": null
  },
  "2341": {
    "zip_code": "7192341",
    "prefecture": "岡山県",
    "prefecture_kana": "オカヤマケン",
    "prefecture_code": "33",
    "city": "高梁市",
    "city_kana": "タカハシシ",
    "town": "成羽町吹屋",
    "town_kana": "ナリワチョウフキヤ",
    "street": null,
    "office_name": null,
    "office_name_kana": null
  },
  "2342": {
    "zip_code": "7192342",
    "prefecture": "岡山県",
    "prefecture_kana": "オカヤマケン",
    "prefecture_code": "33",
    "city": "高梁市",
    "city_kana": "タカハシシ",
    "town": "成羽町中野",
    "town_kana": "ナリワチョウナカノ",
    "street": null,
    "office_name": null,
    "office_name_kana": null
  },
  "2343": {
    "zip_code": "7192343",
    "prefecture": "岡山県",
    "prefecture_kana": "オカヤマケン",
    "prefecture_code": "33",
    "city": "高梁市",
    "city_kana": "タカハシシ",
    "town": "成羽町坂本",
    "town_kana": "ナリワチョウサカモト",
    "street": null,
    "office_name": null,
    "office_name_kana": null
  },
  "2401": {
    "zip_code": "7192401",
    "prefecture": "岡山県",
    "prefecture_kana": "オカヤマケン",
    "prefecture_code": "33",
    "city": "高梁市",
    "city_kana": "タカハシシ",
    "town": "中井町津々",
    "town_kana": "ナカイチョウツツ",
    "street": null,
    "office_name": null,
    "office_name_kana": null
  },
  "2402": {
    "zip_code": "7192402",
    "prefecture": "岡山県",
    "prefecture_kana": "オカヤマケン",
    "prefecture_code": "33",
    "city": "高梁市",
    "city_kana": "タカハシシ",
    "town": "中井町西方",
    "town_kana": "ナカイチョウニシガタ",
    "street": null,
    "office_name": null,
    "office_name_kana": null
  },
  "2551": {
    "zip_code": "7192551",
    "prefecture": "岡山県",
    "prefecture_kana": "オカヤマケン",
    "prefecture_code": "33",
    "city": "新見市",
    "city_kana": "ニイミシ",
    "town": "井倉",
    "town_kana": "イクラ",
    "street": null,
    "office_name": null,
    "office_name_kana": null
  },
  "2552": {
    "zip_code": "7192552",
    "prefecture": "岡山県",
    "prefecture_kana": "オカヤマケン",
    "prefecture_code": "33",
    "city": "新見市",
    "city_kana": "ニイミシ",
    "town": "法曽",
    "town_kana": "ホウソ",
    "street": null,
    "office_name": null,
    "office_name_kana": null
  },
  "2641": {
    "zip_code": "7192641",
    "prefecture": "岡山県",
    "prefecture_kana": "オカヤマケン",
    "prefecture_code": "33",
    "city": "新見市",
    "city_kana": "ニイミシ",
    "town": "草間",
    "town_kana": "クサマ",
    "street": null,
    "office_name": null,
    "office_name_kana": null
  },
  "2642": {
    "zip_code": "7192642",
    "prefecture": "岡山県",
    "prefecture_kana": "オカヤマケン",
    "prefecture_code": "33",
    "city": "新見市",
    "city_kana": "ニイミシ",
    "town": "足見",
    "town_kana": "タルミ",
    "street": null,
    "office_name": null,
    "office_name_kana": null
  },
  "2643": {
    "zip_code": "7192643",
    "prefecture": "岡山県",
    "prefecture_kana": "オカヤマケン",
    "prefecture_code": "33",
    "city": "新見市",
    "city_kana": "ニイミシ",
    "town": "土橋",
    "town_kana": "ツチハシ",
    "street": null,
    "office_name": null,
    "office_name_kana": null
  },
  "2721": {
    "zip_code": "7192721",
    "prefecture": "岡山県",
    "prefecture_kana": "オカヤマケン",
    "prefecture_code": "33",
    "city": "新見市",
    "city_kana": "ニイミシ",
    "town": "豊永赤馬",
    "town_kana": "トヨナガアコウマ",
    "street": null,
    "office_name": null,
    "office_name_kana": null
  },
  "2722": {
    "zip_code": "7192722",
    "prefecture": "岡山県",
    "prefecture_kana": "オカヤマケン",
    "prefecture_code": "33",
    "city": "新見市",
    "city_kana": "ニイミシ",
    "town": "豊永佐伏",
    "town_kana": "トヨナガサブシ",
    "street": null,
    "office_name": null,
    "office_name_kana": null
  },
  "2723": {
    "zip_code": "7192723",
    "prefecture": "岡山県",
    "prefecture_kana": "オカヤマケン",
    "prefecture_code": "33",
    "city": "新見市",
    "city_kana": "ニイミシ",
    "town": "豊永宇山",
    "town_kana": "トヨナガウヤマ",
    "street": null,
    "office_name": null,
    "office_name_kana": null
  },
  "2731": [
    {
      "zip_code": "7192731",
      "prefecture": "岡山県",
      "prefecture_kana": "オカヤマケン",
      "prefecture_code": "33",
      "city": "新見市",
      "city_kana": "ニイミシ",
      "town": "土橋",
      "town_kana": "ツチハシ",
      "street": null,
      "office_name": null,
      "office_name_kana": null
    },
    {
      "zip_code": "7192731",
      "prefecture": "岡山県",
      "prefecture_kana": "オカヤマケン",
      "prefecture_code": "33",
      "city": "新見市",
      "city_kana": "ニイミシ",
      "town": "土橋落方",
      "town_kana": "ツチハシオチカタ",
      "street": null,
      "office_name": null,
      "office_name_kana": null
    },
    {
      "zip_code": "7192731",
      "prefecture": "岡山県",
      "prefecture_kana": "オカヤマケン",
      "prefecture_code": "33",
      "city": "新見市",
      "city_kana": "ニイミシ",
      "town": "土橋寺内",
      "town_kana": "ツチハシテラウチ",
      "street": null,
      "office_name": null,
      "office_name_kana": null
    }
  ],
  "2732": [
    {
      "zip_code": "7192732",
      "prefecture": "岡山県",
      "prefecture_kana": "オカヤマケン",
      "prefecture_code": "33",
      "city": "新見市",
      "city_kana": "ニイミシ",
      "town": "草間",
      "town_kana": "クサマ",
      "street": null,
      "office_name": null,
      "office_name_kana": null
    },
    {
      "zip_code": "7192732",
      "prefecture": "岡山県",
      "prefecture_kana": "オカヤマケン",
      "prefecture_code": "33",
      "city": "新見市",
      "city_kana": "ニイミシ",
      "town": "草間下湯川",
      "town_kana": "クサマシモユカワ",
      "street": null,
      "office_name": null,
      "office_name_kana": null
    },
    {
      "zip_code": "7192732",
      "prefecture": "岡山県",
      "prefecture_kana": "オカヤマケン",
      "prefecture_code": "33",
      "city": "新見市",
      "city_kana": "ニイミシ",
      "town": "草間横畑",
      "town_kana": "クサマヨコハタ",
      "street": null,
      "office_name": null,
      "office_name_kana": null
    }
  ],
  "2801": {
    "zip_code": "7192801",
    "prefecture": "岡山県",
    "prefecture_kana": "オカヤマケン",
    "prefecture_code": "33",
    "city": "新見市",
    "city_kana": "ニイミシ",
    "town": "神郷釜村",
    "town_kana": "シンゴウカマムラ",
    "street": null,
    "office_name": null,
    "office_name_kana": null
  },
  "2802": {
    "zip_code": "7192802",
    "prefecture": "岡山県",
    "prefecture_kana": "オカヤマケン",
    "prefecture_code": "33",
    "city": "新見市",
    "city_kana": "ニイミシ",
    "town": "神郷高瀬",
    "town_kana": "シンゴウタカセ",
    "street": null,
    "office_name": null,
    "office_name_kana": null
  },
  "3100": {
    "zip_code": "7193100",
    "prefecture": "岡山県",
    "prefecture_kana": "オカヤマケン",
    "prefecture_code": "33",
    "city": "真庭市",
    "city_kana": "マニワシ",
    "town": "",
    "town_kana": "",
    "street": null,
    "office_name": null,
    "office_name_kana": null
  },
  "3101": {
    "zip_code": "7193101",
    "prefecture": "岡山県",
    "prefecture_kana": "オカヤマケン",
    "prefecture_code": "33",
    "city": "真庭市",
    "city_kana": "マニワシ",
    "town": "赤野",
    "town_kana": "アカノ",
    "street": null,
    "office_name": null,
    "office_name_kana": null
  },
  "3102": {
    "zip_code": "7193102",
    "prefecture": "岡山県",
    "prefecture_kana": "オカヤマケン",
    "prefecture_code": "33",
    "city": "真庭市",
    "city_kana": "マニワシ",
    "town": "大庭",
    "town_kana": "オオバ",
    "street": null,
    "office_name": null,
    "office_name_kana": null
  },
  "3103": {
    "zip_code": "7193103",
    "prefecture": "岡山県",
    "prefecture_kana": "オカヤマケン",
    "prefecture_code": "33",
    "city": "真庭市",
    "city_kana": "マニワシ",
    "town": "古見",
    "town_kana": "コミ",
    "street": null,
    "office_name": null,
    "office_name_kana": null
  },
  "3104": {
    "zip_code": "7193104",
    "prefecture": "岡山県",
    "prefecture_kana": "オカヤマケン",
    "prefecture_code": "33",
    "city": "真庭市",
    "city_kana": "マニワシ",
    "town": "田原",
    "town_kana": "タハラ",
    "street": null,
    "office_name": null,
    "office_name_kana": null
  },
  "3105": {
    "zip_code": "7193105",
    "prefecture": "岡山県",
    "prefecture_kana": "オカヤマケン",
    "prefecture_code": "33",
    "city": "真庭市",
    "city_kana": "マニワシ",
    "town": "西原",
    "town_kana": "ニシバラ",
    "street": null,
    "office_name": null,
    "office_name_kana": null
  },
  "3106": {
    "zip_code": "7193106",
    "prefecture": "岡山県",
    "prefecture_kana": "オカヤマケン",
    "prefecture_code": "33",
    "city": "真庭市",
    "city_kana": "マニワシ",
    "town": "野川",
    "town_kana": "ノガワ",
    "street": null,
    "office_name": null,
    "office_name_kana": null
  },
  "3107": {
    "zip_code": "7193107",
    "prefecture": "岡山県",
    "prefecture_kana": "オカヤマケン",
    "prefecture_code": "33",
    "city": "真庭市",
    "city_kana": "マニワシ",
    "town": "平松",
    "town_kana": "ヒラマツ",
    "street": null,
    "office_name": null,
    "office_name_kana": null
  },
  "3111": {
    "zip_code": "7193111",
    "prefecture": "岡山県",
    "prefecture_kana": "オカヤマケン",
    "prefecture_code": "33",
    "city": "真庭市",
    "city_kana": "マニワシ",
    "town": "開田",
    "town_kana": "カイデ",
    "street": null,
    "office_name": null,
    "office_name_kana": null
  },
  "3112": {
    "zip_code": "7193112",
    "prefecture": "岡山県",
    "prefecture_kana": "オカヤマケン",
    "prefecture_code": "33",
    "city": "真庭市",
    "city_kana": "マニワシ",
    "town": "影",
    "town_kana": "カゲ",
    "street": null,
    "office_name": null,
    "office_name_kana": null
  },
  "3113": {
    "zip_code": "7193113",
    "prefecture": "岡山県",
    "prefecture_kana": "オカヤマケン",
    "prefecture_code": "33",
    "city": "真庭市",
    "city_kana": "マニワシ",
    "town": "杉山",
    "town_kana": "スギヤマ",
    "street": null,
    "office_name": null,
    "office_name_kana": null
  },
  "3114": {
    "zip_code": "7193114",
    "prefecture": "岡山県",
    "prefecture_kana": "オカヤマケン",
    "prefecture_code": "33",
    "city": "真庭市",
    "city_kana": "マニワシ",
    "town": "高屋",
    "town_kana": "タカヤ",
    "street": null,
    "office_name": null,
    "office_name_kana": null
  },
  "3115": {
    "zip_code": "7193115",
    "prefecture": "岡山県",
    "prefecture_kana": "オカヤマケン",
    "prefecture_code": "33",
    "city": "真庭市",
    "city_kana": "マニワシ",
    "town": "中",
    "town_kana": "ナカ",
    "street": null,
    "office_name": null,
    "office_name_kana": null
  },
  "3116": {
    "zip_code": "7193116",
    "prefecture": "岡山県",
    "prefecture_kana": "オカヤマケン",
    "prefecture_code": "33",
    "city": "真庭市",
    "city_kana": "マニワシ",
    "town": "日名",
    "town_kana": "ヒナ",
    "street": null,
    "office_name": null,
    "office_name_kana": null
  },
  "3117": {
    "zip_code": "7193117",
    "prefecture": "岡山県",
    "prefecture_kana": "オカヤマケン",
    "prefecture_code": "33",
    "city": "真庭市",
    "city_kana": "マニワシ",
    "town": "福田",
    "town_kana": "フクダ",
    "street": null,
    "office_name": null,
    "office_name_kana": null
  },
  "3121": {
    "zip_code": "7193121",
    "prefecture": "岡山県",
    "prefecture_kana": "オカヤマケン",
    "prefecture_code": "33",
    "city": "真庭市",
    "city_kana": "マニワシ",
    "town": "上河内",
    "town_kana": "カミゴウチ",
    "street": null,
    "office_name": null,
    "office_name_kana": null
  },
  "3122": {
    "zip_code": "7193122",
    "prefecture": "岡山県",
    "prefecture_kana": "オカヤマケン",
    "prefecture_code": "33",
    "city": "真庭市",
    "city_kana": "マニワシ",
    "town": "下河内",
    "town_kana": "シモゴウチ",
    "street": null,
    "office_name": null,
    "office_name_kana": null
  },
  "3123": {
    "zip_code": "7193123",
    "prefecture": "岡山県",
    "prefecture_kana": "オカヤマケン",
    "prefecture_code": "33",
    "city": "真庭市",
    "city_kana": "マニワシ",
    "town": "下見",
    "town_kana": "シモミ",
    "street": null,
    "office_name": null,
    "office_name_kana": null
  },
  "3124": {
    "zip_code": "7193124",
    "prefecture": "岡山県",
    "prefecture_kana": "オカヤマケン",
    "prefecture_code": "33",
    "city": "真庭市",
    "city_kana": "マニワシ",
    "town": "中河内",
    "town_kana": "ナカゴウチ",
    "street": null,
    "office_name": null,
    "office_name_kana": null
  },
  "3125": {
    "zip_code": "7193125",
    "prefecture": "岡山県",
    "prefecture_kana": "オカヤマケン",
    "prefecture_code": "33",
    "city": "真庭市",
    "city_kana": "マニワシ",
    "town": "法界寺",
    "town_kana": "ホウカイジ",
    "street": null,
    "office_name": null,
    "office_name_kana": null
  },
  "3126": {
    "zip_code": "7193126",
    "prefecture": "岡山県",
    "prefecture_kana": "オカヤマケン",
    "prefecture_code": "33",
    "city": "真庭市",
    "city_kana": "マニワシ",
    "town": "向津矢",
    "town_kana": "ムカツヤ",
    "street": null,
    "office_name": null,
    "office_name_kana": null
  },
  "3131": {
    "zip_code": "7193131",
    "prefecture": "岡山県",
    "prefecture_kana": "オカヤマケン",
    "prefecture_code": "33",
    "city": "真庭市",
    "city_kana": "マニワシ",
    "town": "上山",
    "town_kana": "ウエヤマ",
    "street": null,
    "office_name": null,
    "office_name_kana": null
  },
  "3132": {
    "zip_code": "7193132",
    "prefecture": "岡山県",
    "prefecture_kana": "オカヤマケン",
    "prefecture_code": "33",
    "city": "真庭市",
    "city_kana": "マニワシ",
    "town": "田原山上",
    "town_kana": "タハラサンジョウ",
    "street": null,
    "office_name": null,
    "office_name_kana": null
  },
  "3133": {
    "zip_code": "7193133",
    "prefecture": "岡山県",
    "prefecture_kana": "オカヤマケン",
    "prefecture_code": "33",
    "city": "真庭市",
    "city_kana": "マニワシ",
    "town": "旦土",
    "town_kana": "ダンド",
    "street": null,
    "office_name": null,
    "office_name_kana": null
  },
  "3134": {
    "zip_code": "7193134",
    "prefecture": "岡山県",
    "prefecture_kana": "オカヤマケン",
    "prefecture_code": "33",
    "city": "真庭市",
    "city_kana": "マニワシ",
    "town": "野原",
    "town_kana": "ノハラ",
    "street": null,
    "office_name": null,
    "office_name_kana": null
  },
  "3135": {
    "zip_code": "7193135",
    "prefecture": "岡山県",
    "prefecture_kana": "オカヤマケン",
    "prefecture_code": "33",
    "city": "真庭市",
    "city_kana": "マニワシ",
    "town": "舞高",
    "town_kana": "マイタカ",
    "street": null,
    "office_name": null,
    "office_name_kana": null
  },
  "3136": {
    "zip_code": "7193136",
    "prefecture": "岡山県",
    "prefecture_kana": "オカヤマケン",
    "prefecture_code": "33",
    "city": "真庭市",
    "city_kana": "マニワシ",
    "town": "吉",
    "town_kana": "ヨシ",
    "street": null,
    "office_name": null,
    "office_name_kana": null
  },
  "3141": {
    "zip_code": "7193141",
    "prefecture": "岡山県",
    "prefecture_kana": "オカヤマケン",
    "prefecture_code": "33",
    "city": "真庭市",
    "city_kana": "マニワシ",
    "town": "上市瀬",
    "town_kana": "カミイチゼ",
    "street": null,
    "office_name": null,
    "office_name_kana": null
  },
  "3142": {
    "zip_code": "7193142",
    "prefecture": "岡山県",
    "prefecture_kana": "オカヤマケン",
    "prefecture_code": "33",
    "city": "真庭市",
    "city_kana": "マニワシ",
    "town": "木山",
    "town_kana": "キヤマ",
    "street": null,
    "office_name": null,
    "office_name_kana": null
  },
  "3143": {
    "zip_code": "7193143",
    "prefecture": "岡山県",
    "prefecture_kana": "オカヤマケン",
    "prefecture_code": "33",
    "city": "真庭市",
    "city_kana": "マニワシ",
    "town": "下市瀬",
    "town_kana": "シモイチゼ",
    "street": null,
    "office_name": null,
    "office_name_kana": null
  },
  "3144": {
    "zip_code": "7193144",
    "prefecture": "岡山県",
    "prefecture_kana": "オカヤマケン",
    "prefecture_code": "33",
    "city": "真庭市",
    "city_kana": "マニワシ",
    "town": "落合垂水",
    "town_kana": "オチアイタルミ",
    "street": null,
    "office_name": null,
    "office_name_kana": null
  },
  "3145": {
    "zip_code": "7193145",
    "prefecture": "岡山県",
    "prefecture_kana": "オカヤマケン",
    "prefecture_code": "33",
    "city": "真庭市",
    "city_kana": "マニワシ",
    "town": "西河内",
    "town_kana": "ニシゴウチ",
    "street": null,
    "office_name": null,
    "office_name_kana": null
  },
  "3146": {
    "zip_code": "7193146",
    "prefecture": "岡山県",
    "prefecture_kana": "オカヤマケン",
    "prefecture_code": "33",
    "city": "真庭市",
    "city_kana": "マニワシ",
    "town": "日野上",
    "town_kana": "ヒノウエ",
    "street": null,
    "office_name": null,
    "office_name_kana": null
  },
  "3151": {
    "zip_code": "7193151",
    "prefecture": "岡山県",
    "prefecture_kana": "オカヤマケン",
    "prefecture_code": "33",
    "city": "真庭市",
    "city_kana": "マニワシ",
    "town": "一色",
    "town_kana": "イシキ",
    "street": null,
    "office_name": null,
    "office_name_kana": null
  },
  "3152": {
    "zip_code": "7193152",
    "prefecture": "岡山県",
    "prefecture_kana": "オカヤマケン",
    "prefecture_code": "33",
    "city": "真庭市",
    "city_kana": "マニワシ",
    "town": "鹿田",
    "town_kana": "カツタ",
    "street": null,
    "office_name": null,
    "office_name_kana": null
  },
  "3153": {
    "zip_code": "7193153",
    "prefecture": "岡山県",
    "prefecture_kana": "オカヤマケン",
    "prefecture_code": "33",
    "city": "真庭市",
    "city_kana": "マニワシ",
    "town": "栗原",
    "town_kana": "クリハラ",
    "street": null,
    "office_name": null,
    "office_name_kana": null
  },
  "3154": {
    "zip_code": "7193154",
    "prefecture": "岡山県",
    "prefecture_kana": "オカヤマケン",
    "prefecture_code": "33",
    "city": "真庭市",
    "city_kana": "マニワシ",
    "town": "佐引",
    "town_kana": "サビキ",
    "street": null,
    "office_name": null,
    "office_name_kana": null
  },
  "3155": {
    "zip_code": "7193155",
    "prefecture": "岡山県",
    "prefecture_kana": "オカヤマケン",
    "prefecture_code": "33",
    "city": "真庭市",
    "city_kana": "マニワシ",
    "town": "下方",
    "town_kana": "シモガタ",
    "street": null,
    "office_name": null,
    "office_name_kana": null
  },
  "3156": {
    "zip_code": "7193156",
    "prefecture": "岡山県",
    "prefecture_kana": "オカヤマケン",
    "prefecture_code": "33",
    "city": "真庭市",
    "city_kana": "マニワシ",
    "town": "関",
    "town_kana": "セキ",
    "street": null,
    "office_name": null,
    "office_name_kana": null
  },
  "3157": {
    "zip_code": "7193157",
    "prefecture": "岡山県",
    "prefecture_kana": "オカヤマケン",
    "prefecture_code": "33",
    "city": "真庭市",
    "city_kana": "マニワシ",
    "town": "別所",
    "town_kana": "ベッシヨ",
    "street": null,
    "office_name": null,
    "office_name_kana": null
  },
  "3192": {
    "zip_code": "7193192",
    "prefecture": "岡山県",
    "prefecture_kana": "オカヤマケン",
    "prefecture_code": "33",
    "city": "真庭市",
    "city_kana": "マニワシ",
    "town": "開田",
    "town_kana": "カイデ",
    "street": "６３０−１",
    "office_name": "ランデス　株式会社",
    "office_name_kana": "ランデス カブシキガイシヤ"
  },
  "3193": {
    "zip_code": "7193193",
    "prefecture": "岡山県",
    "prefecture_kana": "オカヤマケン",
    "prefecture_code": "33",
    "city": "真庭市",
    "city_kana": "マニワシ",
    "town": "西原",
    "town_kana": "ニシバラ",
    "street": "６３",
    "office_name": "金田病院",
    "office_name_kana": "カネダビヨウイン"
  },
  "3194": {
    "zip_code": "7193194",
    "prefecture": "岡山県",
    "prefecture_kana": "オカヤマケン",
    "prefecture_code": "33",
    "city": "真庭市",
    "city_kana": "マニワシ",
    "town": "落合垂水",
    "town_kana": "オチアイタルミ",
    "street": "１９０１−５",
    "office_name": "真庭市役所　落合庁舎",
    "office_name_kana": "マニワシヤクシヨ オチアイチヨウシヤ"
  },
  "3195": {
    "zip_code": "7193195",
    "prefecture": "岡山県",
    "prefecture_kana": "オカヤマケン",
    "prefecture_code": "33",
    "city": "真庭市",
    "city_kana": "マニワシ",
    "town": "下河内",
    "town_kana": "シモゴウチ",
    "street": "３１４−２",
    "office_name": "医療法人　福寿会　河本医院",
    "office_name_kana": "イリヨウホウジン フクジユカイ コウモトイイン"
  },
  "3197": {
    "zip_code": "7193197",
    "prefecture": "岡山県",
    "prefecture_kana": "オカヤマケン",
    "prefecture_code": "33",
    "city": "真庭市",
    "city_kana": "マニワシ",
    "town": "落合垂水",
    "town_kana": "オチアイタルミ",
    "street": "２５１",
    "office_name": "落合病院",
    "office_name_kana": "オチアイビヨウイン"
  },
  "3201": {
    "zip_code": "7193201",
    "prefecture": "岡山県",
    "prefecture_kana": "オカヤマケン",
    "prefecture_code": "33",
    "city": "真庭市",
    "city_kana": "マニワシ",
    "town": "久世",
    "town_kana": "クセ",
    "street": null,
    "office_name": null,
    "office_name_kana": null
  },
  "3202": {
    "zip_code": "7193202",
    "prefecture": "岡山県",
    "prefecture_kana": "オカヤマケン",
    "prefecture_code": "33",
    "city": "真庭市",
    "city_kana": "マニワシ",
    "town": "中島",
    "town_kana": "ナカシマ",
    "street": null,
    "office_name": null,
    "office_name_kana": null
  },
  "3203": {
    "zip_code": "7193203",
    "prefecture": "岡山県",
    "prefecture_kana": "オカヤマケン",
    "prefecture_code": "33",
    "city": "真庭市",
    "city_kana": "マニワシ",
    "town": "富尾",
    "town_kana": "トミノオ",
    "street": null,
    "office_name": null,
    "office_name_kana": null
  },
  "3204": {
    "zip_code": "7193204",
    "prefecture": "岡山県",
    "prefecture_kana": "オカヤマケン",
    "prefecture_code": "33",
    "city": "真庭市",
    "city_kana": "マニワシ",
    "town": "惣",
    "town_kana": "ソウ",
    "street": null,
    "office_name": null,
    "office_name_kana": null
  },
  "3205": {
    "zip_code": "7193205",
    "prefecture": "岡山県",
    "prefecture_kana": "オカヤマケン",
    "prefecture_code": "33",
    "city": "真庭市",
    "city_kana": "マニワシ",
    "town": "草加部",
    "town_kana": "クサカベ",
    "street": null,
    "office_name": null,
    "office_name_kana": null
  },
  "3206": {
    "zip_code": "7193206",
    "prefecture": "岡山県",
    "prefecture_kana": "オカヤマケン",
    "prefecture_code": "33",
    "city": "真庭市",
    "city_kana": "マニワシ",
    "town": "神",
    "town_kana": "コウ",
    "street": null,
    "office_name": null,
    "office_name_kana": null
  },
  "3211": {
    "zip_code": "7193211",
    "prefecture": "岡山県",
    "prefecture_kana": "オカヤマケン",
    "prefecture_code": "33",
    "city": "真庭市",
    "city_kana": "マニワシ",
    "town": "樫西",
    "town_kana": "カシニシ",
    "street": null,
    "office_name": null,
    "office_name_kana": null
  },
  "3212": {
    "zip_code": "7193212",
    "prefecture": "岡山県",
    "prefecture_kana": "オカヤマケン",
    "prefecture_code": "33",
    "city": "真庭市",
    "city_kana": "マニワシ",
    "town": "三阪",
    "town_kana": "ミサカ",
    "street": null,
    "office_name": null,
    "office_name_kana": null
  },
  "3213": {
    "zip_code": "7193213",
    "prefecture": "岡山県",
    "prefecture_kana": "オカヤマケン",
    "prefecture_code": "33",
    "city": "真庭市",
    "city_kana": "マニワシ",
    "town": "多田",
    "town_kana": "タダ",
    "street": null,
    "office_name": null,
    "office_name_kana": null
  },
  "3214": {
    "zip_code": "7193214",
    "prefecture": "岡山県",
    "prefecture_kana": "オカヤマケン",
    "prefecture_code": "33",
    "city": "真庭市",
    "city_kana": "マニワシ",
    "town": "鍋屋",
    "town_kana": "ナベヤ",
    "street": null,
    "office_name": null,
    "office_name_kana": null
  },
  "3221": {
    "zip_code": "7193221",
    "prefecture": "岡山県",
    "prefecture_kana": "オカヤマケン",
    "prefecture_code": "33",
    "city": "真庭市",
    "city_kana": "マニワシ",
    "town": "余野上",
    "town_kana": "ヨノカミ",
    "street": null,
    "office_name": null,
    "office_name_kana": null
  },
  "3222": {
    "zip_code": "7193222",
    "prefecture": "岡山県",
    "prefecture_kana": "オカヤマケン",
    "prefecture_code": "33",
    "city": "真庭市",
    "city_kana": "マニワシ",
    "town": "余野下",
    "town_kana": "ヨノシモ",
    "street": null,
    "office_name": null,
    "office_name_kana": null
  },
  "3223": {
    "zip_code": "7193223",
    "prefecture": "岡山県",
    "prefecture_kana": "オカヤマケン",
    "prefecture_code": "33",
    "city": "真庭市",
    "city_kana": "マニワシ",
    "town": "樫東",
    "town_kana": "カシヒガシ",
    "street": null,
    "office_name": null,
    "office_name_kana": null
  },
  "3224": {
    "zip_code": "7193224",
    "prefecture": "岡山県",
    "prefecture_kana": "オカヤマケン",
    "prefecture_code": "33",
    "city": "真庭市",
    "city_kana": "マニワシ",
    "town": "目木",
    "town_kana": "メキ",
    "street": null,
    "office_name": null,
    "office_name_kana": null
  },
  "3225": {
    "zip_code": "7193225",
    "prefecture": "岡山県",
    "prefecture_kana": "オカヤマケン",
    "prefecture_code": "33",
    "city": "真庭市",
    "city_kana": "マニワシ",
    "town": "中原",
    "town_kana": "ナカバラ",
    "street": null,
    "office_name": null,
    "office_name_kana": null
  },
  "3226": {
    "zip_code": "7193226",
    "prefecture": "岡山県",
    "prefecture_kana": "オカヤマケン",
    "prefecture_code": "33",
    "city": "真庭市",
    "city_kana": "マニワシ",
    "town": "三崎",
    "town_kana": "ミサキ",
    "street": null,
    "office_name": null,
    "office_name_kana": null
  },
  "3227": {
    "zip_code": "7193227",
    "prefecture": "岡山県",
    "prefecture_kana": "オカヤマケン",
    "prefecture_code": "33",
    "city": "真庭市",
    "city_kana": "マニワシ",
    "town": "台金屋",
    "town_kana": "ダイカナヤ",
    "street": null,
    "office_name": null,
    "office_name_kana": null
  },
  "3228": {
    "zip_code": "7193228",
    "prefecture": "岡山県",
    "prefecture_kana": "オカヤマケン",
    "prefecture_code": "33",
    "city": "真庭市",
    "city_kana": "マニワシ",
    "town": "五反",
    "town_kana": "ゴタン",
    "street": null,
    "office_name": null,
    "office_name_kana": null
  },
  "3292": {
    "zip_code": "7193292",
    "prefecture": "岡山県",
    "prefecture_kana": "オカヤマケン",
    "prefecture_code": "33",
    "city": "真庭市",
    "city_kana": "マニワシ",
    "town": "久世",
    "town_kana": "クセ",
    "street": "２９２７−２",
    "office_name": "真庭市役所",
    "office_name_kana": "マニワシヤクシヨ"
  },
  "3501": {
    "zip_code": "7193501",
    "prefecture": "岡山県",
    "prefecture_kana": "オカヤマケン",
    "prefecture_code": "33",
    "city": "新見市",
    "city_kana": "ニイミシ",
    "town": "大佐大井野",
    "town_kana": "オオサオオイノ",
    "street": null,
    "office_name": null,
    "office_name_kana": null
  },
  "3502": {
    "zip_code": "7193502",
    "prefecture": "岡山県",
    "prefecture_kana": "オカヤマケン",
    "prefecture_code": "33",
    "city": "新見市",
    "city_kana": "ニイミシ",
    "town": "大佐上刑部",
    "town_kana": "オオサカミオサカベ",
    "street": null,
    "office_name": null,
    "office_name_kana": null
  },
  "3503": {
    "zip_code": "7193503",
    "prefecture": "岡山県",
    "prefecture_kana": "オカヤマケン",
    "prefecture_code": "33",
    "city": "新見市",
    "city_kana": "ニイミシ",
    "town": "大佐小阪部",
    "town_kana": "オオサオサカベ",
    "street": null,
    "office_name": null,
    "office_name_kana": null
  },
  "3504": {
    "zip_code": "7193504",
    "prefecture": "岡山県",
    "prefecture_kana": "オカヤマケン",
    "prefecture_code": "33",
    "city": "新見市",
    "city_kana": "ニイミシ",
    "town": "大佐永富",
    "town_kana": "オオサナガドミ",
    "street": null,
    "office_name": null,
    "office_name_kana": null
  },
  "3505": {
    "zip_code": "7193505",
    "prefecture": "岡山県",
    "prefecture_kana": "オカヤマケン",
    "prefecture_code": "33",
    "city": "新見市",
    "city_kana": "ニイミシ",
    "town": "大佐布瀬",
    "town_kana": "オオサフセ",
    "street": null,
    "office_name": null,
    "office_name_kana": null
  },
  "3506": {
    "zip_code": "7193506",
    "prefecture": "岡山県",
    "prefecture_kana": "オカヤマケン",
    "prefecture_code": "33",
    "city": "新見市",
    "city_kana": "ニイミシ",
    "town": "大佐田治部",
    "town_kana": "オオサタジベ",
    "street": null,
    "office_name": null,
    "office_name_kana": null
  },
  "3507": {
    "zip_code": "7193507",
    "prefecture": "岡山県",
    "prefecture_kana": "オカヤマケン",
    "prefecture_code": "33",
    "city": "新見市",
    "city_kana": "ニイミシ",
    "town": "大佐小南",
    "town_kana": "オオサコミナミ",
    "street": null,
    "office_name": null,
    "office_name_kana": null
  },
  "3611": {
    "zip_code": "7193611",
    "prefecture": "岡山県",
    "prefecture_kana": "オカヤマケン",
    "prefecture_code": "33",
    "city": "新見市",
    "city_kana": "ニイミシ",
    "town": "神郷下神代",
    "town_kana": "シンゴウシモコウジロ",
    "street": null,
    "office_name": null,
    "office_name_kana": null
  },
  "3612": {
    "zip_code": "7193612",
    "prefecture": "岡山県",
    "prefecture_kana": "オカヤマケン",
    "prefecture_code": "33",
    "city": "新見市",
    "city_kana": "ニイミシ",
    "town": "神郷油野",
    "town_kana": "シンゴウユノ",
    "street": null,
    "office_name": null,
    "office_name_kana": null
  },
  "3701": {
    "zip_code": "7193701",
    "prefecture": "岡山県",
    "prefecture_kana": "オカヤマケン",
    "prefecture_code": "33",
    "city": "新見市",
    "city_kana": "ニイミシ",
    "town": "哲西町矢田",
    "town_kana": "テッセイチョウヤダ",
    "street": null,
    "office_name": null,
    "office_name_kana": null
  },
  "3702": {
    "zip_code": "7193702",
    "prefecture": "岡山県",
    "prefecture_kana": "オカヤマケン",
    "prefecture_code": "33",
    "city": "新見市",
    "city_kana": "ニイミシ",
    "town": "哲西町上神代",
    "town_kana": "テッセイチョウカミコウジロ",
    "street": null,
    "office_name": null,
    "office_name_kana": null
  },
  "3811": {
    "zip_code": "7193811",
    "prefecture": "岡山県",
    "prefecture_kana": "オカヤマケン",
    "prefecture_code": "33",
    "city": "新見市",
    "city_kana": "ニイミシ",
    "town": "哲西町大竹",
    "town_kana": "テッセイチョウオオタケ",
    "street": null,
    "office_name": null,
    "office_name_kana": null
  },
  "3812": {
    "zip_code": "7193812",
    "prefecture": "岡山県",
    "prefecture_kana": "オカヤマケン",
    "prefecture_code": "33",
    "city": "新見市",
    "city_kana": "ニイミシ",
    "town": "哲西町畑木",
    "town_kana": "テッセイチョウハタキ",
    "street": null,
    "office_name": null,
    "office_name_kana": null
  },
  "3813": {
    "zip_code": "7193813",
    "prefecture": "岡山県",
    "prefecture_kana": "オカヤマケン",
    "prefecture_code": "33",
    "city": "新見市",
    "city_kana": "ニイミシ",
    "town": "哲西町八鳥",
    "town_kana": "テッセイチョウハットリ",
    "street": null,
    "office_name": null,
    "office_name_kana": null
  },
  "3814": {
    "zip_code": "7193814",
    "prefecture": "岡山県",
    "prefecture_kana": "オカヤマケン",
    "prefecture_code": "33",
    "city": "新見市",
    "city_kana": "ニイミシ",
    "town": "哲西町大野部",
    "town_kana": "テッセイチョウオオノベ",
    "street": null,
    "office_name": null,
    "office_name_kana": null
  }
}