{
  "0000": {
    "zip_code": "7220000",
    "prefecture": "広島県",
    "prefecture_kana": "ヒロシマケン",
    "prefecture_code": "34",
    "city": "尾道市",
    "city_kana": "オノミチシ",
    "town": "",
    "town_kana": "",
    "street": null,
    "office_name": null,
    "office_name_kana": null
  },
  "0001": {
    "zip_code": "7220001",
    "prefecture": "広島県",
    "prefecture_kana": "ヒロシマケン",
    "prefecture_code": "34",
    "city": "尾道市",
    "city_kana": "オノミチシ",
    "town": "手崎町",
    "town_kana": "テサキチョウ",
    "street": null,
    "office_name": null,
    "office_name_kana": null
  },
  "0002": {
    "zip_code": "7220002",
    "prefecture": "広島県",
    "prefecture_kana": "ヒロシマケン",
    "prefecture_code": "34",
    "city": "尾道市",
    "city_kana": "オノミチシ",
    "town": "古浜町",
    "town_kana": "コハマチョウ",
    "street": null,
    "office_name": null,
    "office_name_kana": null
  },
  "0003": {
    "zip_code": "7220003",
    "prefecture": "広島県",
    "prefecture_kana": "ヒロシマケン",
    "prefecture_code": "34",
    "city": "尾道市",
    "city_kana": "オノミチシ",
    "town": "東元町",
    "town_kana": "ヒガシモトマチ",
    "street": null,
    "office_name": null,
    "office_name_kana": null
  },
  "0004": {
    "zip_code": "7220004",
    "prefecture": "広島県",
    "prefecture_kana": "ヒロシマケン",
    "prefecture_code": "34",
    "city": "尾道市",
    "city_kana": "オノミチシ",
    "town": "正徳町",
    "town_kana": "ショウトクチョウ",
    "street": null,
    "office_name": null,
    "office_name_kana": null
  },
  "0005": {
    "zip_code": "7220005",
    "prefecture": "広島県",
    "prefecture_kana": "ヒロシマケン",
    "prefecture_code": "34",
    "city": "尾道市",
    "city_kana": "オノミチシ",
    "town": "福地町",
    "town_kana": "フクチチョウ",
    "street": null,
    "office_name": null,
    "office_name_kana": null
  },
  "0006": {
    "zip_code": "7220006",
    "prefecture": "広島県",
    "prefecture_kana": "ヒロシマケン",
    "prefecture_code": "34",
    "city": "尾道市",
    "city_kana": "オノミチシ",
    "town": "沖側町",
    "town_kana": "オキガワチョウ",
    "street": null,
    "office_name": null,
    "office_name_kana": null
  },
  "0007": {
    "zip_code": "7220007",
    "prefecture": "広島県",
    "prefecture_kana": "ヒロシマケン",
    "prefecture_code": "34",
    "city": "尾道市",
    "city_kana": "オノミチシ",
    "town": "吉和西元町",
    "town_kana": "ヨシワニシモトマチ",
    "street": null,
    "office_name": null,
    "office_name_kana": null
  },
  "0008": {
    "zip_code": "7220008",
    "prefecture": "広島県",
    "prefecture_kana": "ヒロシマケン",
    "prefecture_code": "34",
    "city": "尾道市",
    "city_kana": "オノミチシ",
    "town": "吉和町",
    "town_kana": "ヨシワチョウ",
    "street": null,
    "office_name": null,
    "office_name_kana": null
  },
  "0011": {
    "zip_code": "7220011",
    "prefecture": "広島県",
    "prefecture_kana": "ヒロシマケン",
    "prefecture_code": "34",
    "city": "尾道市",
    "city_kana": "オノミチシ",
    "town": "桜町",
    "town_kana": "サクラマチ",
    "street": null,
    "office_name": null,
    "office_name_kana": null
  },
  "0012": {
    "zip_code": "7220012",
    "prefecture": "広島県",
    "prefecture_kana": "ヒロシマケン",
    "prefecture_code": "34",
    "city": "尾道市",
    "city_kana": "オノミチシ",
    "town": "潮見町",
    "town_kana": "シオミチョウ",
    "street": null,
    "office_name": null,
    "office_name_kana": null
  },
  "0013": {
    "zip_code": "7220013",
    "prefecture": "広島県",
    "prefecture_kana": "ヒロシマケン",
    "prefecture_code": "34",
    "city": "尾道市",
    "city_kana": "オノミチシ",
    "town": "日比崎町",
    "town_kana": "ヒビザキチョウ",
    "street": null,
    "office_name": null,
    "office_name_kana": null
  },
  "0014": {
    "zip_code": "7220014",
    "prefecture": "広島県",
    "prefecture_kana": "ヒロシマケン",
    "prefecture_code": "34",
    "city": "尾道市",
    "city_kana": "オノミチシ",
    "town": "新浜",
    "town_kana": "シンハマ",
    "street": null,
    "office_name": null,
    "office_name_kana": null
  },
  "0015": {
    "zip_code": "7220015",
    "prefecture": "広島県",
    "prefecture_kana": "ヒロシマケン",
    "prefecture_code": "34",
    "city": "尾道市",
    "city_kana": "オノミチシ",
    "town": "吉浦町",
    "town_kana": "ヨシウラチョウ",
    "street": null,
    "office_name": null,
    "office_name_kana": null
  },
  "0016": {
    "zip_code": "7220016",
    "prefecture": "広島県",
    "prefecture_kana": "ヒロシマケン",
    "prefecture_code": "34",
    "city": "尾道市",
    "city_kana": "オノミチシ",
    "town": "神田町",
    "town_kana": "カンダチョウ",
    "street": null,
    "office_name": null,
    "office_name_kana": null
  },
  "0017": {
    "zip_code": "7220017",
    "prefecture": "広島県",
    "prefecture_kana": "ヒロシマケン",
    "prefecture_code": "34",
    "city": "尾道市",
    "city_kana": "オノミチシ",
    "town": "門田町",
    "town_kana": "モンデンチョウ",
    "street": null,
    "office_name": null,
    "office_name_kana": null
  },
  "0018": {
    "zip_code": "7220018",
    "prefecture": "広島県",
    "prefecture_kana": "ヒロシマケン",
    "prefecture_code": "34",
    "city": "尾道市",
    "city_kana": "オノミチシ",
    "town": "平原",
    "town_kana": "ヒラハラ",
    "street": null,
    "office_name": null,
    "office_name_kana": null
  },
  "0021": {
    "zip_code": "7220021",
    "prefecture": "広島県",
    "prefecture_kana": "ヒロシマケン",
    "prefecture_code": "34",
    "city": "尾道市",
    "city_kana": "オノミチシ",
    "town": "久山田町",
    "town_kana": "ヒサヤマダチョウ",
    "street": null,
    "office_name": null,
    "office_name_kana": null
  },
  "0022": {
    "zip_code": "7220022",
    "prefecture": "広島県",
    "prefecture_kana": "ヒロシマケン",
    "prefecture_code": "34",
    "city": "尾道市",
    "city_kana": "オノミチシ",
    "town": "栗原町",
    "town_kana": "クリハラチョウ",
    "street": null,
    "office_name": null,
    "office_name_kana": null
  },
  "0023": {
    "zip_code": "7220023",
    "prefecture": "広島県",
    "prefecture_kana": "ヒロシマケン",
    "prefecture_code": "34",
    "city": "尾道市",
    "city_kana": "オノミチシ",
    "town": "東則末町",
    "town_kana": "ヒガシノリスエチョウ",
    "street": null,
    "office_name": null,
    "office_name_kana": null
  },
  "0024": {
    "zip_code": "7220024",
    "prefecture": "広島県",
    "prefecture_kana": "ヒロシマケン",
    "prefecture_code": "34",
    "city": "尾道市",
    "city_kana": "オノミチシ",
    "town": "西則末町",
    "town_kana": "ニシノリスエチョウ",
    "street": null,
    "office_name": null,
    "office_name_kana": null
  },
  "0025": {
    "zip_code": "7220025",
    "prefecture": "広島県",
    "prefecture_kana": "ヒロシマケン",
    "prefecture_code": "34",
    "city": "尾道市",
    "city_kana": "オノミチシ",
    "town": "栗原東",
    "town_kana": "クリハラヒガシ",
    "street": null,
    "office_name": null,
    "office_name_kana": null
  },
  "0026": {
    "zip_code": "7220026",
    "prefecture": "広島県",
    "prefecture_kana": "ヒロシマケン",
    "prefecture_code": "34",
    "city": "尾道市",
    "city_kana": "オノミチシ",
    "town": "栗原西",
    "town_kana": "クリハラニシ",
    "street": null,
    "office_name": null,
    "office_name_kana": null
  },
  "0031": {
    "zip_code": "7220031",
    "prefecture": "広島県",
    "prefecture_kana": "ヒロシマケン",
    "prefecture_code": "34",
    "city": "尾道市",
    "city_kana": "オノミチシ",
    "town": "三軒家町",
    "town_kana": "サンゲンヤチョウ",
    "street": null,
    "office_name": null,
    "office_name_kana": null
  },
  "0032": {
    "zip_code": "7220032",
    "prefecture": "広島県",
    "prefecture_kana": "ヒロシマケン",
    "prefecture_code": "34",
    "city": "尾道市",
    "city_kana": "オノミチシ",
    "town": "西土堂町",
    "town_kana": "ニシツチドウチョウ",
    "street": null,
    "office_name": null,
    "office_name_kana": null
  },
  "0033": {
    "zip_code": "7220033",
    "prefecture": "広島県",
    "prefecture_kana": "ヒロシマケン",
    "prefecture_code": "34",
    "city": "尾道市",
    "city_kana": "オノミチシ",
    "town": "東土堂町",
    "town_kana": "ヒガシツチドウチョウ",
    "street": null,
    "office_name": null,
    "office_name_kana": null
  },
  "0034": {
    "zip_code": "7220034",
    "prefecture": "広島県",
    "prefecture_kana": "ヒロシマケン",
    "prefecture_code": "34",
    "city": "尾道市",
    "city_kana": "オノミチシ",
    "town": "十四日元町",
    "town_kana": "トヨヒモトマチ",
    "street": null,
    "office_name": null,
    "office_name_kana": null
  },
  "0035": {
    "zip_code": "7220035",
    "prefecture": "広島県",
    "prefecture_kana": "ヒロシマケン",
    "prefecture_code": "34",
    "city": "尾道市",
    "city_kana": "オノミチシ",
    "town": "土堂",
    "town_kana": "ツチドウ",
    "street": null,
    "office_name": null,
    "office_name_kana": null
  },
  "0036": {
    "zip_code": "7220036",
    "prefecture": "広島県",
    "prefecture_kana": "ヒロシマケン",
    "prefecture_code": "34",
    "city": "尾道市",
    "city_kana": "オノミチシ",
    "town": "東御所町",
    "town_kana": "ヒガシゴショチョウ",
    "street": null,
    "office_name": null,
    "office_name_kana": null
  },
  "0037": {
    "zip_code": "7220037",
    "prefecture": "広島県",
    "prefecture_kana": "ヒロシマケン",
    "prefecture_code": "34",
    "city": "尾道市",
    "city_kana": "オノミチシ",
    "town": "西御所町",
    "town_kana": "ニシゴショチョウ",
    "street": null,
    "office_name": null,
    "office_name_kana": null
  },
  "0038": {
    "zip_code": "7220038",
    "prefecture": "広島県",
    "prefecture_kana": "ヒロシマケン",
    "prefecture_code": "34",
    "city": "尾道市",
    "city_kana": "オノミチシ",
    "town": "天満町",
    "town_kana": "テンマチョウ",
    "street": null,
    "office_name": null,
    "office_name_kana": null
  },
  "0041": {
    "zip_code": "7220041",
    "prefecture": "広島県",
    "prefecture_kana": "ヒロシマケン",
    "prefecture_code": "34",
    "city": "尾道市",
    "city_kana": "オノミチシ",
    "town": "防地町",
    "town_kana": "ボウジチョウ",
    "street": null,
    "office_name": null,
    "office_name_kana": null
  },
  "0042": {
    "zip_code": "7220042",
    "prefecture": "広島県",
    "prefecture_kana": "ヒロシマケン",
    "prefecture_code": "34",
    "city": "尾道市",
    "city_kana": "オノミチシ",
    "town": "久保町",
    "town_kana": "クボチョウ",
    "street": null,
    "office_name": null,
    "office_name_kana": null
  },
  "0043": {
    "zip_code": "7220043",
    "prefecture": "広島県",
    "prefecture_kana": "ヒロシマケン",
    "prefecture_code": "34",
    "city": "尾道市",
    "city_kana": "オノミチシ",
    "town": "東久保町",
    "town_kana": "ヒガシクボチョウ",
    "street": null,
    "office_name": null,
    "office_name_kana": null
  },
  "0044": {
    "zip_code": "7220044",
    "prefecture": "広島県",
    "prefecture_kana": "ヒロシマケン",
    "prefecture_code": "34",
    "city": "尾道市",
    "city_kana": "オノミチシ",
    "town": "西久保町",
    "town_kana": "ニシクボチョウ",
    "street": null,
    "office_name": null,
    "office_name_kana": null
  },
  "0045": {
    "zip_code": "7220045",
    "prefecture": "広島県",
    "prefecture_kana": "ヒロシマケン",
    "prefecture_code": "34",
    "city": "尾道市",
    "city_kana": "オノミチシ",
    "town": "久保",
    "town_kana": "クボ",
    "street": null,
    "office_name": null,
    "office_name_kana": null
  },
  "0046": {
    "zip_code": "7220046",
    "prefecture": "広島県",
    "prefecture_kana": "ヒロシマケン",
    "prefecture_code": "34",
    "city": "尾道市",
    "city_kana": "オノミチシ",
    "town": "長江",
    "town_kana": "ナガエ",
    "street": null,
    "office_name": null,
    "office_name_kana": null
  },
  "0047": {
    "zip_code": "7220047",
    "prefecture": "広島県",
    "prefecture_kana": "ヒロシマケン",
    "prefecture_code": "34",
    "city": "尾道市",
    "city_kana": "オノミチシ",
    "town": "十四日町",
    "town_kana": "トヨヒチョウ",
    "street": null,
    "office_name": null,
    "office_name_kana": null
  },
  "0051": {
    "zip_code": "7220051",
    "prefecture": "広島県",
    "prefecture_kana": "ヒロシマケン",
    "prefecture_code": "34",
    "city": "尾道市",
    "city_kana": "オノミチシ",
    "town": "東尾道",
    "town_kana": "ヒガシオノミチ",
    "street": null,
    "office_name": null,
    "office_name_kana": null
  },
  "0052": {
    "zip_code": "7220052",
    "prefecture": "広島県",
    "prefecture_kana": "ヒロシマケン",
    "prefecture_code": "34",
    "city": "尾道市",
    "city_kana": "オノミチシ",
    "town": "山波町",
    "town_kana": "サンバチョウ",
    "street": null,
    "office_name": null,
    "office_name_kana": null
  },
  "0053": {
    "zip_code": "7220053",
    "prefecture": "広島県",
    "prefecture_kana": "ヒロシマケン",
    "prefecture_code": "34",
    "city": "尾道市",
    "city_kana": "オノミチシ",
    "town": "尾崎町",
    "town_kana": "オザキチョウ",
    "street": null,
    "office_name": null,
    "office_name_kana": null
  },
  "0054": {
    "zip_code": "7220054",
    "prefecture": "広島県",
    "prefecture_kana": "ヒロシマケン",
    "prefecture_code": "34",
    "city": "尾道市",
    "city_kana": "オノミチシ",
    "town": "尾崎本町",
    "town_kana": "オザキホンマチ",
    "street": null,
    "office_name": null,
    "office_name_kana": null
  },
  "0055": {
    "zip_code": "7220055",
    "prefecture": "広島県",
    "prefecture_kana": "ヒロシマケン",
    "prefecture_code": "34",
    "city": "尾道市",
    "city_kana": "オノミチシ",
    "town": "新高山",
    "town_kana": "シンタカヤマ",
    "street": null,
    "office_name": null,
    "office_name_kana": null
  },
  "0061": {
    "zip_code": "7220061",
    "prefecture": "広島県",
    "prefecture_kana": "ヒロシマケン",
    "prefecture_code": "34",
    "city": "尾道市",
    "city_kana": "オノミチシ",
    "town": "百島町",
    "town_kana": "モモシマチョウ",
    "street": null,
    "office_name": null,
    "office_name_kana": null
  },
  "0062": {
    "zip_code": "7220062",
    "prefecture": "広島県",
    "prefecture_kana": "ヒロシマケン",
    "prefecture_code": "34",
    "city": "尾道市",
    "city_kana": "オノミチシ",
    "town": "向東町",
    "town_kana": "ムカイヒガシチョウ",
    "street": null,
    "office_name": null,
    "office_name_kana": null
  },
  "0071": {
    "zip_code": "7220071",
    "prefecture": "広島県",
    "prefecture_kana": "ヒロシマケン",
    "prefecture_code": "34",
    "city": "尾道市",
    "city_kana": "オノミチシ",
    "town": "向島町立花",
    "town_kana": "ムカイシマチョウタチバナ",
    "street": null,
    "office_name": null,
    "office_name_kana": null
  },
  "0072": {
    "zip_code": "7220072",
    "prefecture": "広島県",
    "prefecture_kana": "ヒロシマケン",
    "prefecture_code": "34",
    "city": "尾道市",
    "city_kana": "オノミチシ",
    "town": "向島町岩子島",
    "town_kana": "ムカイシマチョウイワシジマ",
    "street": null,
    "office_name": null,
    "office_name_kana": null
  },
  "0073": {
    "zip_code": "7220073",
    "prefecture": "広島県",
    "prefecture_kana": "ヒロシマケン",
    "prefecture_code": "34",
    "city": "尾道市",
    "city_kana": "オノミチシ",
    "town": "向島町",
    "town_kana": "ムカイシマチョウ",
    "street": null,
    "office_name": null,
    "office_name_kana": null
  },
  "0201": {
    "zip_code": "7220201",
    "prefecture": "広島県",
    "prefecture_kana": "ヒロシマケン",
    "prefecture_code": "34",
    "city": "尾道市",
    "city_kana": "オノミチシ",
    "town": "原田町小原",
    "town_kana": "ハラダチョウオバラ",
    "street": null,
    "office_name": null,
    "office_name_kana": null
  },
  "0202": {
    "zip_code": "7220202",
    "prefecture": "広島県",
    "prefecture_kana": "ヒロシマケン",
    "prefecture_code": "34",
    "city": "尾道市",
    "city_kana": "オノミチシ",
    "town": "原田町梶山田",
    "town_kana": "ハラダチョウカジヤマダ",
    "street": null,
    "office_name": null,
    "office_name_kana": null
  },
  "0211": {
    "zip_code": "7220211",
    "prefecture": "広島県",
    "prefecture_kana": "ヒロシマケン",
    "prefecture_code": "34",
    "city": "尾道市",
    "city_kana": "オノミチシ",
    "town": "美ノ郷町中野",
    "town_kana": "ミノゴウチョウナカノ",
    "street": null,
    "office_name": null,
    "office_name_kana": null
  },
  "0212": {
    "zip_code": "7220212",
    "prefecture": "広島県",
    "prefecture_kana": "ヒロシマケン",
    "prefecture_code": "34",
    "city": "尾道市",
    "city_kana": "オノミチシ",
    "town": "美ノ郷町本郷",
    "town_kana": "ミノゴウチョウホンゴウ",
    "street": null,
    "office_name": null,
    "office_name_kana": null
  },
  "0213": {
    "zip_code": "7220213",
    "prefecture": "広島県",
    "prefecture_kana": "ヒロシマケン",
    "prefecture_code": "34",
    "city": "尾道市",
    "city_kana": "オノミチシ",
    "town": "美ノ郷町白江",
    "town_kana": "ミノゴウチョウシロエ",
    "street": null,
    "office_name": null,
    "office_name_kana": null
  },
  "0214": {
    "zip_code": "7220214",
    "prefecture": "広島県",
    "prefecture_kana": "ヒロシマケン",
    "prefecture_code": "34",
    "city": "尾道市",
    "city_kana": "オノミチシ",
    "town": "美ノ郷町猪子迫",
    "town_kana": "ミノゴウチョウイノコザコ",
    "street": null,
    "office_name": null,
    "office_name_kana": null
  },
  "0215": {
    "zip_code": "7220215",
    "prefecture": "広島県",
    "prefecture_kana": "ヒロシマケン",
    "prefecture_code": "34",
    "city": "尾道市",
    "city_kana": "オノミチシ",
    "town": "美ノ郷町三成",
    "town_kana": "ミノゴウチョウミナリ",
    "street": null,
    "office_name": null,
    "office_name_kana": null
  },
  "0221": {
    "zip_code": "7220221",
    "prefecture": "広島県",
    "prefecture_kana": "ヒロシマケン",
    "prefecture_code": "34",
    "city": "尾道市",
    "city_kana": "オノミチシ",
    "town": "長者原",
    "town_kana": "チョウジャバラ",
    "street": null,
    "office_name": null,
    "office_name_kana": null
  },
  "0231": {
    "zip_code": "7220231",
    "prefecture": "広島県",
    "prefecture_kana": "ヒロシマケン",
    "prefecture_code": "34",
    "city": "尾道市",
    "city_kana": "オノミチシ",
    "town": "木ノ庄町畑",
    "town_kana": "キノショウチョウハタ",
    "street": null,
    "office_name": null,
    "office_name_kana": null
  },
  "0232": {
    "zip_code": "7220232",
    "prefecture": "広島県",
    "prefecture_kana": "ヒロシマケン",
    "prefecture_code": "34",
    "city": "尾道市",
    "city_kana": "オノミチシ",
    "town": "木ノ庄町木門田",
    "town_kana": "キノショウチョウキモンデン",
    "street": null,
    "office_name": null,
    "office_name_kana": null
  },
  "0233": {
    "zip_code": "7220233",
    "prefecture": "広島県",
    "prefecture_kana": "ヒロシマケン",
    "prefecture_code": "34",
    "city": "尾道市",
    "city_kana": "オノミチシ",
    "town": "木ノ庄町市原",
    "town_kana": "キノショウチョウイチバラ",
    "street": null,
    "office_name": null,
    "office_name_kana": null
  },
  "0234": {
    "zip_code": "7220234",
    "prefecture": "広島県",
    "prefecture_kana": "ヒロシマケン",
    "prefecture_code": "34",
    "city": "尾道市",
    "city_kana": "オノミチシ",
    "town": "木ノ庄町木梨",
    "town_kana": "キノショウチョウキナシ",
    "street": null,
    "office_name": null,
    "office_name_kana": null
  },
  "0235": {
    "zip_code": "7220235",
    "prefecture": "広島県",
    "prefecture_kana": "ヒロシマケン",
    "prefecture_code": "34",
    "city": "尾道市",
    "city_kana": "オノミチシ",
    "town": "木ノ庄町木梨山方",
    "town_kana": "キノショウチョウキナシヤマガタ",
    "street": null,
    "office_name": null,
    "office_name_kana": null
  },
  "0311": {
    "zip_code": "7220311",
    "prefecture": "広島県",
    "prefecture_kana": "ヒロシマケン",
    "prefecture_code": "34",
    "city": "尾道市",
    "city_kana": "オノミチシ",
    "town": "御調町市",
    "town_kana": "ミツギチョウイチ",
    "street": null,
    "office_name": null,
    "office_name_kana": null
  },
  "0312": {
    "zip_code": "7220312",
    "prefecture": "広島県",
    "prefecture_kana": "ヒロシマケン",
    "prefecture_code": "34",
    "city": "尾道市",
    "city_kana": "オノミチシ",
    "town": "御調町貝ケ原",
    "town_kana": "ミツギチョウカイガハラ",
    "street": null,
    "office_name": null,
    "office_name_kana": null
  },
  "0313": {
    "zip_code": "7220313",
    "prefecture": "広島県",
    "prefecture_kana": "ヒロシマケン",
    "prefecture_code": "34",
    "city": "尾道市",
    "city_kana": "オノミチシ",
    "town": "御調町平",
    "town_kana": "ミツギチョウヒラ",
    "street": null,
    "office_name": null,
    "office_name_kana": null
  },
  "0314": {
    "zip_code": "7220314",
    "prefecture": "広島県",
    "prefecture_kana": "ヒロシマケン",
    "prefecture_code": "34",
    "city": "尾道市",
    "city_kana": "オノミチシ",
    "town": "御調町大町",
    "town_kana": "ミツギチョウオオマチ",
    "street": null,
    "office_name": null,
    "office_name_kana": null
  },
  "0315": {
    "zip_code": "7220315",
    "prefecture": "広島県",
    "prefecture_kana": "ヒロシマケン",
    "prefecture_code": "34",
    "city": "尾道市",
    "city_kana": "オノミチシ",
    "town": "御調町釜窪",
    "town_kana": "ミツギチョウカマクボ",
    "street": null,
    "office_name": null,
    "office_name_kana": null
  },
  "0316": {
    "zip_code": "7220316",
    "prefecture": "広島県",
    "prefecture_kana": "ヒロシマケン",
    "prefecture_code": "34",
    "city": "尾道市",
    "city_kana": "オノミチシ",
    "town": "御調町花尻",
    "town_kana": "ミツギチョウハナジリ",
    "street": null,
    "office_name": null,
    "office_name_kana": null
  },
  "0321": {
    "zip_code": "7220321",
    "prefecture": "広島県",
    "prefecture_kana": "ヒロシマケン",
    "prefecture_code": "34",
    "city": "尾道市",
    "city_kana": "オノミチシ",
    "town": "御調町本",
    "town_kana": "ミツギチョウホン",
    "street": null,
    "office_name": null,
    "office_name_kana": null
  },
  "0322": {
    "zip_code": "7220322",
    "prefecture": "広島県",
    "prefecture_kana": "ヒロシマケン",
    "prefecture_code": "34",
    "city": "尾道市",
    "city_kana": "オノミチシ",
    "town": "御調町三郎丸",
    "town_kana": "ミツギチョウサブロウマル",
    "street": null,
    "office_name": null,
    "office_name_kana": null
  },
  "0323": {
    "zip_code": "7220323",
    "prefecture": "広島県",
    "prefecture_kana": "ヒロシマケン",
    "prefecture_code": "34",
    "city": "尾道市",
    "city_kana": "オノミチシ",
    "town": "御調町大蔵",
    "town_kana": "ミツギチョウダイゾウ",
    "street": null,
    "office_name": null,
    "office_name_kana": null
  },
  "0324": {
    "zip_code": "7220324",
    "prefecture": "広島県",
    "prefecture_kana": "ヒロシマケン",
    "prefecture_code": "34",
    "city": "尾道市",
    "city_kana": "オノミチシ",
    "town": "御調町白太",
    "town_kana": "ミツギチョウハカタ",
    "street": null,
    "office_name": null,
    "office_name_kana": null
  },
  "0325": {
    "zip_code": "7220325",
    "prefecture": "広島県",
    "prefecture_kana": "ヒロシマケン",
    "prefecture_code": "34",
    "city": "尾道市",
    "city_kana": "オノミチシ",
    "town": "御調町中原",
    "town_kana": "ミツギチョウナカバラ",
    "street": null,
    "office_name": null,
    "office_name_kana": null
  },
  "0326": {
    "zip_code": "7220326",
    "prefecture": "広島県",
    "prefecture_kana": "ヒロシマケン",
    "prefecture_code": "34",
    "city": "尾道市",
    "city_kana": "オノミチシ",
    "town": "御調町岩根",
    "town_kana": "ミツギチョウイワネ",
    "street": null,
    "office_name": null,
    "office_name_kana": null
  },
  "0331": {
    "zip_code": "7220331",
    "prefecture": "広島県",
    "prefecture_kana": "ヒロシマケン",
    "prefecture_code": "34",
    "city": "尾道市",
    "city_kana": "オノミチシ",
    "town": "御調町仁野",
    "town_kana": "ミツギチョウニノ",
    "street": null,
    "office_name": null,
    "office_name_kana": null
  },
  "0332": {
    "zip_code": "7220332",
    "prefecture": "広島県",
    "prefecture_kana": "ヒロシマケン",
    "prefecture_code": "34",
    "city": "尾道市",
    "city_kana": "オノミチシ",
    "town": "御調町平木",
    "town_kana": "ミツギチョウヒラギ",
    "street": null,
    "office_name": null,
    "office_name_kana": null
  },
  "0333": {
    "zip_code": "7220333",
    "prefecture": "広島県",
    "prefecture_kana": "ヒロシマケン",
    "prefecture_code": "34",
    "city": "尾道市",
    "city_kana": "オノミチシ",
    "town": "御調町大塔",
    "town_kana": "ミツギチョウダイトウ",
    "street": null,
    "office_name": null,
    "office_name_kana": null
  },
  "0334": {
    "zip_code": "7220334",
    "prefecture": "広島県",
    "prefecture_kana": "ヒロシマケン",
    "prefecture_code": "34",
    "city": "尾道市",
    "city_kana": "オノミチシ",
    "town": "御調町菅",
    "town_kana": "ミツギチョウスゲ",
    "street": null,
    "office_name": null,
    "office_name_kana": null
  },
  "0335": {
    "zip_code": "7220335",
    "prefecture": "広島県",
    "prefecture_kana": "ヒロシマケン",
    "prefecture_code": "34",
    "city": "尾道市",
    "city_kana": "オノミチシ",
    "town": "御調町国守",
    "town_kana": "ミツギチョウクニモリ",
    "street": null,
    "office_name": null,
    "office_name_kana": null
  },
  "0336": {
    "zip_code": "7220336",
    "prefecture": "広島県",
    "prefecture_kana": "ヒロシマケン",
    "prefecture_code": "34",
    "city": "尾道市",
    "city_kana": "オノミチシ",
    "town": "御調町江田",
    "town_kana": "ミツギチョウエタ",
    "street": null,
    "office_name": null,
    "office_name_kana": null
  },
  "0341": {
    "zip_code": "7220341",
    "prefecture": "広島県",
    "prefecture_kana": "ヒロシマケン",
    "prefecture_code": "34",
    "city": "尾道市",
    "city_kana": "オノミチシ",
    "town": "御調町神",
    "town_kana": "ミツギチョウカミ",
    "street": null,
    "office_name": null,
    "office_name_kana": null
  },
  "0342": {
    "zip_code": "7220342",
    "prefecture": "広島県",
    "prefecture_kana": "ヒロシマケン",
    "prefecture_code": "34",
    "city": "尾道市",
    "city_kana": "オノミチシ",
    "town": "御調町大田",
    "town_kana": "ミツギチョウオオダ",
    "street": null,
    "office_name": null,
    "office_name_kana": null
  },
  "0343": {
    "zip_code": "7220343",
    "prefecture": "広島県",
    "prefecture_kana": "ヒロシマケン",
    "prefecture_code": "34",
    "city": "尾道市",
    "city_kana": "オノミチシ",
    "town": "御調町丸河南",
    "town_kana": "ミツギチョウマルカナン",
    "street": null,
    "office_name": null,
    "office_name_kana": null
  },
  "0344": {
    "zip_code": "7220344",
    "prefecture": "広島県",
    "prefecture_kana": "ヒロシマケン",
    "prefecture_code": "34",
    "city": "尾道市",
    "city_kana": "オノミチシ",
    "town": "御調町丸門田",
    "town_kana": "ミツギチョウマルモンデン",
    "street": null,
    "office_name": null,
    "office_name_kana": null
  },
  "0345": {
    "zip_code": "7220345",
    "prefecture": "広島県",
    "prefecture_kana": "ヒロシマケン",
    "prefecture_code": "34",
    "city": "尾道市",
    "city_kana": "オノミチシ",
    "town": "御調町徳永",
    "town_kana": "ミツギチョウトクナガ",
    "street": null,
    "office_name": null,
    "office_name_kana": null
  },
  "0351": {
    "zip_code": "7220351",
    "prefecture": "広島県",
    "prefecture_kana": "ヒロシマケン",
    "prefecture_code": "34",
    "city": "尾道市",
    "city_kana": "オノミチシ",
    "town": "御調町大原",
    "town_kana": "ミツギチョウオオバラ",
    "street": null,
    "office_name": null,
    "office_name_kana": null
  },
  "0352": {
    "zip_code": "7220352",
    "prefecture": "広島県",
    "prefecture_kana": "ヒロシマケン",
    "prefecture_code": "34",
    "city": "尾道市",
    "city_kana": "オノミチシ",
    "town": "御調町公文",
    "town_kana": "ミツギチョウクモン",
    "street": null,
    "office_name": null,
    "office_name_kana": null
  },
  "0353": {
    "zip_code": "7220353",
    "prefecture": "広島県",
    "prefecture_kana": "ヒロシマケン",
    "prefecture_code": "34",
    "city": "尾道市",
    "city_kana": "オノミチシ",
    "town": "御調町高尾",
    "town_kana": "ミツギチョウタカオ",
    "street": null,
    "office_name": null,
    "office_name_kana": null
  },
  "0354": {
    "zip_code": "7220354",
    "prefecture": "広島県",
    "prefecture_kana": "ヒロシマケン",
    "prefecture_code": "34",
    "city": "尾道市",
    "city_kana": "オノミチシ",
    "town": "御調町綾目",
    "town_kana": "ミツギチョウアヤメ",
    "street": null,
    "office_name": null,
    "office_name_kana": null
  },
  "0355": {
    "zip_code": "7220355",
    "prefecture": "広島県",
    "prefecture_kana": "ヒロシマケン",
    "prefecture_code": "34",
    "city": "尾道市",
    "city_kana": "オノミチシ",
    "town": "御調町山岡",
    "town_kana": "ミツギチョウヤマオカ",
    "street": null,
    "office_name": null,
    "office_name_kana": null
  },
  "0392": {
    "zip_code": "7220392",
    "prefecture": "広島県",
    "prefecture_kana": "ヒロシマケン",
    "prefecture_code": "34",
    "city": "尾道市",
    "city_kana": "オノミチシ",
    "town": "御調町市",
    "town_kana": "ミツギチョウイチ",
    "street": "２４５",
    "office_name": "尾道市役所　御調支所",
    "office_name_kana": "オノミチシヤクシヨ ミツギシシヨ"
  },
  "0393": {
    "zip_code": "7220393",
    "prefecture": "広島県",
    "prefecture_kana": "ヒロシマケン",
    "prefecture_code": "34",
    "city": "尾道市",
    "city_kana": "オノミチシ",
    "town": "御調町市",
    "town_kana": "ミツギチョウイチ",
    "street": "１２４",
    "office_name": "公立　みつぎ総合病院",
    "office_name_kana": "コウリツ ミツギソウゴウビヨウイン"
  },
  "0401": {
    "zip_code": "7220401",
    "prefecture": "広島県",
    "prefecture_kana": "ヒロシマケン",
    "prefecture_code": "34",
    "city": "尾道市",
    "city_kana": "オノミチシ",
    "town": "御調町千堂",
    "town_kana": "ミツギチョウセンドウ",
    "street": null,
    "office_name": null,
    "office_name_kana": null
  },
  "0402": {
    "zip_code": "7220402",
    "prefecture": "広島県",
    "prefecture_kana": "ヒロシマケン",
    "prefecture_code": "34",
    "city": "尾道市",
    "city_kana": "オノミチシ",
    "town": "御調町下山田",
    "town_kana": "ミツギチョウシモヤマダ",
    "street": null,
    "office_name": null,
    "office_name_kana": null
  },
  "0403": {
    "zip_code": "7220403",
    "prefecture": "広島県",
    "prefecture_kana": "ヒロシマケン",
    "prefecture_code": "34",
    "city": "尾道市",
    "city_kana": "オノミチシ",
    "town": "御調町大山田",
    "town_kana": "ミツギチョウオオヤマダ",
    "street": null,
    "office_name": null,
    "office_name_kana": null
  },
  "0411": {
    "zip_code": "7220411",
    "prefecture": "広島県",
    "prefecture_kana": "ヒロシマケン",
    "prefecture_code": "34",
    "city": "世羅郡世羅町",
    "city_kana": "セラグンセラチョウ",
    "town": "宇津戸",
    "town_kana": "ウヅト",
    "street": null,
    "office_name": null,
    "office_name_kana": null
  },
  "0431": {
    "zip_code": "7220431",
    "prefecture": "広島県",
    "prefecture_kana": "ヒロシマケン",
    "prefecture_code": "34",
    "city": "府中市",
    "city_kana": "フチュウシ",
    "town": "諸毛町",
    "town_kana": "モロケチョウ",
    "street": null,
    "office_name": null,
    "office_name_kana": null
  },
  "0432": {
    "zip_code": "7220432",
    "prefecture": "広島県",
    "prefecture_kana": "ヒロシマケン",
    "prefecture_code": "34",
    "city": "府中市",
    "city_kana": "フチュウシ",
    "town": "小国町",
    "town_kana": "オグニチョウ",
    "street": null,
    "office_name": null,
    "office_name_kana": null
  },
  "1100": {
    "zip_code": "7221100",
    "prefecture": "広島県",
    "prefecture_kana": "ヒロシマケン",
    "prefecture_code": "34",
    "city": "世羅郡世羅町",
    "city_kana": "セラグンセラチョウ",
    "town": "",
    "town_kana": "",
    "street": null,
    "office_name": null,
    "office_name_kana": null
  },
  "1111": {
    "zip_code": "7221111",
    "prefecture": "広島県",
    "prefecture_kana": "ヒロシマケン",
    "prefecture_code": "34",
    "city": "世羅郡世羅町",
    "city_kana": "セラグンセラチョウ",
    "town": "寺町",
    "town_kana": "テラマチ",
    "street": null,
    "office_name": null,
    "office_name_kana": null
  },
  "1112": {
    "zip_code": "7221112",
    "prefecture": "広島県",
    "prefecture_kana": "ヒロシマケン",
    "prefecture_code": "34",
    "city": "世羅郡世羅町",
    "city_kana": "セラグンセラチョウ",
    "town": "本郷",
    "town_kana": "ホンゴウ",
    "street": null,
    "office_name": null,
    "office_name_kana": null
  },
  "1113": {
    "zip_code": "7221113",
    "prefecture": "広島県",
    "prefecture_kana": "ヒロシマケン",
    "prefecture_code": "34",
    "city": "世羅郡世羅町",
    "city_kana": "セラグンセラチョウ",
    "town": "井折",
    "town_kana": "イオリ",
    "street": null,
    "office_name": null,
    "office_name_kana": null
  },
  "1114": {
    "zip_code": "7221114",
    "prefecture": "広島県",
    "prefecture_kana": "ヒロシマケン",
    "prefecture_code": "34",
    "city": "世羅郡世羅町",
    "city_kana": "セラグンセラチョウ",
    "town": "東神崎",
    "town_kana": "ヒガシカンザキ",
    "street": null,
    "office_name": null,
    "office_name_kana": null
  },
  "1115": {
    "zip_code": "7221115",
    "prefecture": "広島県",
    "prefecture_kana": "ヒロシマケン",
    "prefecture_code": "34",
    "city": "世羅郡世羅町",
    "city_kana": "セラグンセラチョウ",
    "town": "西神崎",
    "town_kana": "ニシカンザキ",
    "street": null,
    "office_name": null,
    "office_name_kana": null
  },
  "1116": {
    "zip_code": "7221116",
    "prefecture": "広島県",
    "prefecture_kana": "ヒロシマケン",
    "prefecture_code": "34",
    "city": "世羅郡世羅町",
    "city_kana": "セラグンセラチョウ",
    "town": "青山",
    "town_kana": "アオヤマ",
    "street": null,
    "office_name": null,
    "office_name_kana": null
  },
  "1117": {
    "zip_code": "7221117",
    "prefecture": "広島県",
    "prefecture_kana": "ヒロシマケン",
    "prefecture_code": "34",
    "city": "世羅郡世羅町",
    "city_kana": "セラグンセラチョウ",
    "town": "三郎丸",
    "town_kana": "サブロウマル",
    "street": null,
    "office_name": null,
    "office_name_kana": null
  },
  "1121": {
    "zip_code": "7221121",
    "prefecture": "広島県",
    "prefecture_kana": "ヒロシマケン",
    "prefecture_code": "34",
    "city": "世羅郡世羅町",
    "city_kana": "セラグンセラチョウ",
    "town": "西上原",
    "town_kana": "ニシウエハラ",
    "street": null,
    "office_name": null,
    "office_name_kana": null
  },
  "1122": {
    "zip_code": "7221122",
    "prefecture": "広島県",
    "prefecture_kana": "ヒロシマケン",
    "prefecture_code": "34",
    "city": "世羅郡世羅町",
    "city_kana": "セラグンセラチョウ",
    "town": "小世良",
    "town_kana": "オゼラ",
    "street": null,
    "office_name": null,
    "office_name_kana": null
  },
  "1123": {
    "zip_code": "7221123",
    "prefecture": "広島県",
    "prefecture_kana": "ヒロシマケン",
    "prefecture_code": "34",
    "city": "世羅郡世羅町",
    "city_kana": "セラグンセラチョウ",
    "town": "甲山",
    "town_kana": "コウザン",
    "street": null,
    "office_name": null,
    "office_name_kana": null
  },
  "1192": {
    "zip_code": "7221192",
    "prefecture": "広島県",
    "prefecture_kana": null,
    "prefecture_code": null,
    "city": "世羅郡世羅町",
    "city_kana": null,
    "town": "大字西上原",
    "town_kana": null,
    "street": "１２３−１（甲山郵便局私書箱第４号）",
    "office_name": "世羅町役場",
    "office_name_kana": "セラチヨウヤクバ"
  },
  "1193": {
    "zip_code": "7221193",
    "prefecture": "広島県",
    "prefecture_kana": null,
    "prefecture_code": null,
    "city": "世羅郡世羅町",
    "city_kana": null,
    "town": "大字本郷",
    "town_kana": null,
    "street": "８７０",
    "office_name": "広島県立世羅高等学校",
    "office_name_kana": "ヒロシマケンリツセラコウトウガツコウ"
  },
  "1201": {
    "zip_code": "7221201",
    "prefecture": "広島県",
    "prefecture_kana": "ヒロシマケン",
    "prefecture_code": "34",
    "city": "世羅郡世羅町",
    "city_kana": "セラグンセラチョウ",
    "town": "戸張",
    "town_kana": "トバリ",
    "street": null,
    "office_name": null,
    "office_name_kana": null
  },
  "1202": {
    "zip_code": "7221202",
    "prefecture": "広島県",
    "prefecture_kana": "ヒロシマケン",
    "prefecture_code": "34",
    "city": "世羅郡世羅町",
    "city_kana": "セラグンセラチョウ",
    "town": "安田",
    "town_kana": "ヤスダ",
    "street": null,
    "office_name": null,
    "office_name_kana": null
  },
  "1203": {
    "zip_code": "7221203",
    "prefecture": "広島県",
    "prefecture_kana": "ヒロシマケン",
    "prefecture_code": "34",
    "city": "世羅郡世羅町",
    "city_kana": "セラグンセラチョウ",
    "town": "徳市",
    "town_kana": "トクイチ",
    "street": null,
    "office_name": null,
    "office_name_kana": null
  },
  "1204": [
    {
      "zip_code": "7221204",
      "prefecture": "広島県",
      "prefecture_kana": "ヒロシマケン",
      "prefecture_code": "34",
      "city": "世羅郡世羅町",
      "city_kana": "セラグンセラチョウ",
      "town": "京丸",
      "town_kana": "キョウマル",
      "street": null,
      "office_name": null,
      "office_name_kana": null
    },
    {
      "zip_code": "7221204",
      "prefecture": "広島県",
      "prefecture_kana": "ヒロシマケン",
      "prefecture_code": "34",
      "city": "世羅郡世羅町",
      "city_kana": "セラグンセラチョウ",
      "town": "京丸石川",
      "town_kana": "キョウマルイシカワ",
      "street": null,
      "office_name": null,
      "office_name_kana": null
    },
    {
      "zip_code": "7221204",
      "prefecture": "広島県",
      "prefecture_kana": "ヒロシマケン",
      "prefecture_code": "34",
      "city": "世羅郡世羅町",
      "city_kana": "セラグンセラチョウ",
      "town": "京丸水の別",
      "town_kana": "キョウマルミズノワカレ",
      "street": null,
      "office_name": null,
      "office_name_kana": null
    }
  ],
  "1301": {
    "zip_code": "7221301",
    "prefecture": "広島県",
    "prefecture_kana": "ヒロシマケン",
    "prefecture_code": "34",
    "city": "三原市",
    "city_kana": "ミハラシ",
    "town": "久井町莇原",
    "town_kana": "クイチョウアゾウバラ",
    "street": null,
    "office_name": null,
    "office_name_kana": null
  },
  "1302": {
    "zip_code": "7221302",
    "prefecture": "広島県",
    "prefecture_kana": "ヒロシマケン",
    "prefecture_code": "34",
    "city": "三原市",
    "city_kana": "ミハラシ",
    "town": "久井町吉田",
    "town_kana": "クイチョウヨシダ",
    "street": null,
    "office_name": null,
    "office_name_kana": null
  },
  "1303": {
    "zip_code": "7221303",
    "prefecture": "広島県",
    "prefecture_kana": "ヒロシマケン",
    "prefecture_code": "34",
    "city": "三原市",
    "city_kana": "ミハラシ",
    "town": "久井町下津",
    "town_kana": "クイチョウシモツ",
    "street": null,
    "office_name": null,
    "office_name_kana": null
  },
  "1304": {
    "zip_code": "7221304",
    "prefecture": "広島県",
    "prefecture_kana": "ヒロシマケン",
    "prefecture_code": "34",
    "city": "三原市",
    "city_kana": "ミハラシ",
    "town": "久井町江木",
    "town_kana": "クイチョウエギ",
    "street": null,
    "office_name": null,
    "office_name_kana": null
  },
  "1401": [
    {
      "zip_code": "7221401",
      "prefecture": "広島県",
      "prefecture_kana": "ヒロシマケン",
      "prefecture_code": "34",
      "city": "三原市",
      "city_kana": "ミハラシ",
      "town": "本郷町船木",
      "town_kana": "ホンゴウチョウフナキ",
      "street": null,
      "office_name": null,
      "office_name_kana": null
    },
    {
      "zip_code": "7221401",
      "prefecture": "広島県",
      "prefecture_kana": "ヒロシマケン",
      "prefecture_code": "34",
      "city": "三原市",
      "city_kana": "ミハラシ",
      "town": "本郷町船木芋堀",
      "town_kana": "ホンゴウチョウフナキイモホリ",
      "street": null,
      "office_name": null,
      "office_name_kana": null
    }
  ],
  "1411": {
    "zip_code": "7221411",
    "prefecture": "広島県",
    "prefecture_kana": "ヒロシマケン",
    "prefecture_code": "34",
    "city": "三原市",
    "city_kana": "ミハラシ",
    "town": "久井町泉",
    "town_kana": "クイチョウイズミ",
    "street": null,
    "office_name": null,
    "office_name_kana": null
  },
  "1412": {
    "zip_code": "7221412",
    "prefecture": "広島県",
    "prefecture_kana": "ヒロシマケン",
    "prefecture_code": "34",
    "city": "三原市",
    "city_kana": "ミハラシ",
    "town": "久井町和草",
    "town_kana": "クイチョウワソウ",
    "street": null,
    "office_name": null,
    "office_name_kana": null
  },
  "1413": {
    "zip_code": "7221413",
    "prefecture": "広島県",
    "prefecture_kana": "ヒロシマケン",
    "prefecture_code": "34",
    "city": "三原市",
    "city_kana": "ミハラシ",
    "town": "久井町羽倉",
    "town_kana": "クイチョウハグラ",
    "street": null,
    "office_name": null,
    "office_name_kana": null
  },
  "1414": {
    "zip_code": "7221414",
    "prefecture": "広島県",
    "prefecture_kana": "ヒロシマケン",
    "prefecture_code": "34",
    "city": "三原市",
    "city_kana": "ミハラシ",
    "town": "久井町坂井原",
    "town_kana": "クイチョウサカイバラ",
    "street": null,
    "office_name": null,
    "office_name_kana": null
  },
  "1415": {
    "zip_code": "7221415",
    "prefecture": "広島県",
    "prefecture_kana": "ヒロシマケン",
    "prefecture_code": "34",
    "city": "三原市",
    "city_kana": "ミハラシ",
    "town": "久井町土取",
    "town_kana": "クイチョウツチトリ",
    "street": null,
    "office_name": null,
    "office_name_kana": null
  },
  "1416": {
    "zip_code": "7221416",
    "prefecture": "広島県",
    "prefecture_kana": "ヒロシマケン",
    "prefecture_code": "34",
    "city": "三原市",
    "city_kana": "ミハラシ",
    "town": "久井町山中野",
    "town_kana": "クイチョウヤマナカノ",
    "street": null,
    "office_name": null,
    "office_name_kana": null
  },
  "1417": {
    "zip_code": "7221417",
    "prefecture": "広島県",
    "prefecture_kana": "ヒロシマケン",
    "prefecture_code": "34",
    "city": "三原市",
    "city_kana": "ミハラシ",
    "town": "久井町小林",
    "town_kana": "クイチョウコバヤシ",
    "street": null,
    "office_name": null,
    "office_name_kana": null
  },
  "1492": {
    "zip_code": "7221492",
    "prefecture": "広島県",
    "prefecture_kana": "ヒロシマケン",
    "prefecture_code": "34",
    "city": "三原市",
    "city_kana": "ミハラシ",
    "town": "久井町和草",
    "town_kana": "クイチョウワソウ",
    "street": "６１５−１",
    "office_name": "三原市　久井支所",
    "office_name_kana": "ミハラシ クイシシヨ"
  },
  "1501": {
    "zip_code": "7221501",
    "prefecture": "広島県",
    "prefecture_kana": "ヒロシマケン",
    "prefecture_code": "34",
    "city": "三原市",
    "city_kana": "ミハラシ",
    "town": "八幡町垣内",
    "town_kana": "ヤハタチョウカイチ",
    "street": null,
    "office_name": null,
    "office_name_kana": null
  },
  "1511": {
    "zip_code": "7221511",
    "prefecture": "広島県",
    "prefecture_kana": "ヒロシマケン",
    "prefecture_code": "34",
    "city": "三原市",
    "city_kana": "ミハラシ",
    "town": "八幡町篝",
    "town_kana": "ヤハタチョウカガリ",
    "street": null,
    "office_name": null,
    "office_name_kana": null
  },
  "1512": {
    "zip_code": "7221512",
    "prefecture": "広島県",
    "prefecture_kana": "ヒロシマケン",
    "prefecture_code": "34",
    "city": "三原市",
    "city_kana": "ミハラシ",
    "town": "八幡町野串",
    "town_kana": "ヤハタチョウノグシ",
    "street": null,
    "office_name": null,
    "office_name_kana": null
  },
  "1513": {
    "zip_code": "7221513",
    "prefecture": "広島県",
    "prefecture_kana": "ヒロシマケン",
    "prefecture_code": "34",
    "city": "三原市",
    "city_kana": "ミハラシ",
    "town": "八幡町宮内",
    "town_kana": "ヤハタチョウミヤウチ",
    "street": null,
    "office_name": null,
    "office_name_kana": null
  },
  "1514": {
    "zip_code": "7221514",
    "prefecture": "広島県",
    "prefecture_kana": "ヒロシマケン",
    "prefecture_code": "34",
    "city": "三原市",
    "city_kana": "ミハラシ",
    "town": "八幡町屋中",
    "town_kana": "ヤハタチョウヤナカ",
    "street": null,
    "office_name": null,
    "office_name_kana": null
  },
  "1515": {
    "zip_code": "7221515",
    "prefecture": "広島県",
    "prefecture_kana": "ヒロシマケン",
    "prefecture_code": "34",
    "city": "三原市",
    "city_kana": "ミハラシ",
    "town": "八幡町美生",
    "town_kana": "ヤハタチョウミノウ",
    "street": null,
    "office_name": null,
    "office_name_kana": null
  },
  "1516": {
    "zip_code": "7221516",
    "prefecture": "広島県",
    "prefecture_kana": "ヒロシマケン",
    "prefecture_code": "34",
    "city": "三原市",
    "city_kana": "ミハラシ",
    "town": "八幡町本庄",
    "town_kana": "ヤハタチョウホンジョウ",
    "street": null,
    "office_name": null,
    "office_name_kana": null
  },
  "1561": {
    "zip_code": "7221561",
    "prefecture": "広島県",
    "prefecture_kana": "ヒロシマケン",
    "prefecture_code": "34",
    "city": "尾道市",
    "city_kana": "オノミチシ",
    "town": "御調町福井",
    "town_kana": "ミツギチョウフクイ",
    "street": null,
    "office_name": null,
    "office_name_kana": null
  },
  "1562": {
    "zip_code": "7221562",
    "prefecture": "広島県",
    "prefecture_kana": "ヒロシマケン",
    "prefecture_code": "34",
    "city": "尾道市",
    "city_kana": "オノミチシ",
    "town": "御調町津蟹",
    "town_kana": "ミツギチョウツガニ",
    "street": null,
    "office_name": null,
    "office_name_kana": null
  },
  "1563": {
    "zip_code": "7221563",
    "prefecture": "広島県",
    "prefecture_kana": "ヒロシマケン",
    "prefecture_code": "34",
    "city": "尾道市",
    "city_kana": "オノミチシ",
    "town": "御調町植野",
    "town_kana": "ミツギチョウウエノ",
    "street": null,
    "office_name": null,
    "office_name_kana": null
  },
  "1564": {
    "zip_code": "7221564",
    "prefecture": "広島県",
    "prefecture_kana": "ヒロシマケン",
    "prefecture_code": "34",
    "city": "尾道市",
    "city_kana": "オノミチシ",
    "town": "御調町今田",
    "town_kana": "ミツギチョウイマダ",
    "street": null,
    "office_name": null,
    "office_name_kana": null
  },
  "1565": {
    "zip_code": "7221565",
    "prefecture": "広島県",
    "prefecture_kana": "ヒロシマケン",
    "prefecture_code": "34",
    "city": "尾道市",
    "city_kana": "オノミチシ",
    "town": "御調町野間",
    "town_kana": "ミツギチョウノマ",
    "street": null,
    "office_name": null,
    "office_name_kana": null
  },
  "1621": {
    "zip_code": "7221621",
    "prefecture": "広島県",
    "prefecture_kana": "ヒロシマケン",
    "prefecture_code": "34",
    "city": "世羅郡世羅町",
    "city_kana": "セラグンセラチョウ",
    "town": "京丸",
    "town_kana": "キョウマル",
    "street": null,
    "office_name": null,
    "office_name_kana": null
  },
  "1622": {
    "zip_code": "7221622",
    "prefecture": "広島県",
    "prefecture_kana": "ヒロシマケン",
    "prefecture_code": "34",
    "city": "世羅郡世羅町",
    "city_kana": "セラグンセラチョウ",
    "town": "堀越",
    "town_kana": "ホリコシ",
    "street": null,
    "office_name": null,
    "office_name_kana": null
  },
  "1623": {
    "zip_code": "7221623",
    "prefecture": "広島県",
    "prefecture_kana": "ヒロシマケン",
    "prefecture_code": "34",
    "city": "世羅郡世羅町",
    "city_kana": "セラグンセラチョウ",
    "town": "中原",
    "town_kana": "ナカバラ",
    "street": null,
    "office_name": null,
    "office_name_kana": null
  },
  "1624": {
    "zip_code": "7221624",
    "prefecture": "広島県",
    "prefecture_kana": "ヒロシマケン",
    "prefecture_code": "34",
    "city": "世羅郡世羅町",
    "city_kana": "セラグンセラチョウ",
    "town": "田打",
    "town_kana": "トウチ",
    "street": null,
    "office_name": null,
    "office_name_kana": null
  },
  "1625": {
    "zip_code": "7221625",
    "prefecture": "広島県",
    "prefecture_kana": "ヒロシマケン",
    "prefecture_code": "34",
    "city": "世羅郡世羅町",
    "city_kana": "セラグンセラチョウ",
    "town": "重永",
    "town_kana": "シゲナガ",
    "street": null,
    "office_name": null,
    "office_name_kana": null
  },
  "1626": {
    "zip_code": "7221626",
    "prefecture": "広島県",
    "prefecture_kana": "ヒロシマケン",
    "prefecture_code": "34",
    "city": "世羅郡世羅町",
    "city_kana": "セラグンセラチョウ",
    "town": "賀茂",
    "town_kana": "カモ",
    "street": null,
    "office_name": null,
    "office_name_kana": null
  },
  "1627": {
    "zip_code": "7221627",
    "prefecture": "広島県",
    "prefecture_kana": "ヒロシマケン",
    "prefecture_code": "34",
    "city": "世羅郡世羅町",
    "city_kana": "セラグンセラチョウ",
    "town": "青水",
    "town_kana": "アオミズ",
    "street": null,
    "office_name": null,
    "office_name_kana": null
  },
  "1701": {
    "zip_code": "7221701",
    "prefecture": "広島県",
    "prefecture_kana": "ヒロシマケン",
    "prefecture_code": "34",
    "city": "世羅郡世羅町",
    "city_kana": "セラグンセラチョウ",
    "town": "小国",
    "town_kana": "オグニ",
    "street": null,
    "office_name": null,
    "office_name_kana": null
  },
  "1702": {
    "zip_code": "7221702",
    "prefecture": "広島県",
    "prefecture_kana": "ヒロシマケン",
    "prefecture_code": "34",
    "city": "世羅郡世羅町",
    "city_kana": "セラグンセラチョウ",
    "town": "山中福田",
    "town_kana": "ヤマナカフクダ",
    "street": null,
    "office_name": null,
    "office_name_kana": null
  },
  "1731": {
    "zip_code": "7221731",
    "prefecture": "広島県",
    "prefecture_kana": "ヒロシマケン",
    "prefecture_code": "34",
    "city": "世羅郡世羅町",
    "city_kana": "セラグンセラチョウ",
    "town": "津口",
    "town_kana": "ツクチ",
    "street": null,
    "office_name": null,
    "office_name_kana": null
  },
  "1732": {
    "zip_code": "7221732",
    "prefecture": "広島県",
    "prefecture_kana": "ヒロシマケン",
    "prefecture_code": "34",
    "city": "世羅郡世羅町",
    "city_kana": "セラグンセラチョウ",
    "town": "黒渕",
    "town_kana": "クロブチ",
    "street": null,
    "office_name": null,
    "office_name_kana": null
  },
  "1792": {
    "zip_code": "7221792",
    "prefecture": "広島県",
    "prefecture_kana": null,
    "prefecture_code": null,
    "city": "世羅郡世羅町",
    "city_kana": null,
    "town": "大字小国",
    "town_kana": null,
    "street": "３３９３",
    "office_name": "世羅町役場　せらにし支所",
    "office_name_kana": "セラチヨウヤクバ セラニシシシヨ"
  },
  "2101": {
    "zip_code": "7222101",
    "prefecture": "広島県",
    "prefecture_kana": "ヒロシマケン",
    "prefecture_code": "34",
    "city": "尾道市",
    "city_kana": "オノミチシ",
    "town": "因島大浜町",
    "town_kana": "インノシマオオハマチョウ",
    "street": null,
    "office_name": null,
    "office_name_kana": null
  },
  "2102": {
    "zip_code": "7222102",
    "prefecture": "広島県",
    "prefecture_kana": "ヒロシマケン",
    "prefecture_code": "34",
    "city": "尾道市",
    "city_kana": "オノミチシ",
    "town": "因島重井町",
    "town_kana": "インノシマシゲイチョウ",
    "street": null,
    "office_name": null,
    "office_name_kana": null
  },
  "2192": {
    "zip_code": "7222192",
    "prefecture": "広島県",
    "prefecture_kana": "ヒロシマケン",
    "prefecture_code": "34",
    "city": "尾道市",
    "city_kana": "オノミチシ",
    "town": "因島重井町",
    "town_kana": "インノシマシゲイチョウ",
    "street": "５８００−９５",
    "office_name": "万田発酵　株式会社",
    "office_name_kana": "マンダハツコウ カブシキガイシヤ"
  },
  "2193": {
    "zip_code": "7222193",
    "prefecture": "広島県",
    "prefecture_kana": "ヒロシマケン",
    "prefecture_code": "34",
    "city": "尾道市",
    "city_kana": "オノミチシ",
    "town": "因島重井町",
    "town_kana": "インノシマシゲイチョウ",
    "street": "６００",
    "office_name": "株式会社　三和ドック",
    "office_name_kana": "カブシキガイシヤ サンワドツク"
  },
  "2198": {
    "zip_code": "7222198",
    "prefecture": "広島県",
    "prefecture_kana": "ヒロシマケン",
    "prefecture_code": "34",
    "city": "尾道市",
    "city_kana": "オノミチシ",
    "town": "因島重井町",
    "town_kana": "インノシマシゲイチョウ",
    "street": "４７４",
    "office_name": "因島鉄工業団地内",
    "office_name_kana": "インノシマテツコウギヨウダンチナイ"
  },
  "2211": {
    "zip_code": "7222211",
    "prefecture": "広島県",
    "prefecture_kana": "ヒロシマケン",
    "prefecture_code": "34",
    "city": "尾道市",
    "city_kana": "オノミチシ",
    "town": "因島中庄町",
    "town_kana": "インノシマナカノショウチョウ",
    "street": null,
    "office_name": null,
    "office_name_kana": null
  },
  "2212": {
    "zip_code": "7222212",
    "prefecture": "広島県",
    "prefecture_kana": "ヒロシマケン",
    "prefecture_code": "34",
    "city": "尾道市",
    "city_kana": "オノミチシ",
    "town": "因島鏡浦町",
    "town_kana": "インノシマカガミウラチョウ",
    "street": null,
    "office_name": null,
    "office_name_kana": null
  },
  "2213": {
    "zip_code": "7222213",
    "prefecture": "広島県",
    "prefecture_kana": "ヒロシマケン",
    "prefecture_code": "34",
    "city": "尾道市",
    "city_kana": "オノミチシ",
    "town": "因島外浦町",
    "town_kana": "インノシマトノウラチョウ",
    "street": null,
    "office_name": null,
    "office_name_kana": null
  },
  "2321": {
    "zip_code": "7222321",
    "prefecture": "広島県",
    "prefecture_kana": "ヒロシマケン",
    "prefecture_code": "34",
    "city": "尾道市",
    "city_kana": "オノミチシ",
    "town": "因島椋浦町",
    "town_kana": "インノシマムクノウラチョウ",
    "street": null,
    "office_name": null,
    "office_name_kana": null
  },
  "2322": {
    "zip_code": "7222322",
    "prefecture": "広島県",
    "prefecture_kana": "ヒロシマケン",
    "prefecture_code": "34",
    "city": "尾道市",
    "city_kana": "オノミチシ",
    "town": "因島三庄町",
    "town_kana": "インノシマミツノショウチョウ",
    "street": null,
    "office_name": null,
    "office_name_kana": null
  },
  "2323": {
    "zip_code": "7222323",
    "prefecture": "広島県",
    "prefecture_kana": "ヒロシマケン",
    "prefecture_code": "34",
    "city": "尾道市",
    "city_kana": "オノミチシ",
    "town": "因島土生町",
    "town_kana": "インノシマハブチョウ",
    "street": null,
    "office_name": null,
    "office_name_kana": null
  },
  "2324": {
    "zip_code": "7222324",
    "prefecture": "広島県",
    "prefecture_kana": "ヒロシマケン",
    "prefecture_code": "34",
    "city": "尾道市",
    "city_kana": "オノミチシ",
    "town": "因島田熊町",
    "town_kana": "インノシマタクマチョウ",
    "street": null,
    "office_name": null,
    "office_name_kana": null
  },
  "2392": {
    "zip_code": "7222392",
    "prefecture": "広島県",
    "prefecture_kana": "ヒロシマケン",
    "prefecture_code": "34",
    "city": "尾道市",
    "city_kana": "オノミチシ",
    "town": "因島土生町",
    "town_kana": "インノシマハブチョウ",
    "street": "７番地４",
    "office_name": "尾道市　因島総合支所",
    "office_name_kana": "オノミチシ インノシマソウゴウシシヨ"
  },
  "2393": {
    "zip_code": "7222393",
    "prefecture": "広島県",
    "prefecture_kana": "ヒロシマケン",
    "prefecture_code": "34",
    "city": "尾道市",
    "city_kana": "オノミチシ",
    "town": "因島土生町",
    "town_kana": "インノシマハブチョウ",
    "street": "２４７７番地１６",
    "office_name": "日立造船　株式会社　因島工場",
    "office_name_kana": "ヒタチゾウセン カブシキガイシヤ インノシマコウジヨウ"
  },
  "2401": {
    "zip_code": "7222401",
    "prefecture": "広島県",
    "prefecture_kana": "ヒロシマケン",
    "prefecture_code": "34",
    "city": "尾道市",
    "city_kana": "オノミチシ",
    "town": "瀬戸田町御寺",
    "town_kana": "セトダチョウミテラ",
    "street": null,
    "office_name": null,
    "office_name_kana": null
  },
  "2402": {
    "zip_code": "7222402",
    "prefecture": "広島県",
    "prefecture_kana": "ヒロシマケン",
    "prefecture_code": "34",
    "city": "尾道市",
    "city_kana": "オノミチシ",
    "town": "瀬戸田町宮原",
    "town_kana": "セトダチョウミヤバラ",
    "street": null,
    "office_name": null,
    "office_name_kana": null
  },
  "2403": {
    "zip_code": "7222403",
    "prefecture": "広島県",
    "prefecture_kana": "ヒロシマケン",
    "prefecture_code": "34",
    "city": "尾道市",
    "city_kana": "オノミチシ",
    "town": "瀬戸田町荻",
    "town_kana": "セトダチョウオギ",
    "street": null,
    "office_name": null,
    "office_name_kana": null
  },
  "2404": {
    "zip_code": "7222404",
    "prefecture": "広島県",
    "prefecture_kana": "ヒロシマケン",
    "prefecture_code": "34",
    "city": "尾道市",
    "city_kana": "オノミチシ",
    "town": "瀬戸田町垂水",
    "town_kana": "セトダチョウタルミ",
    "street": null,
    "office_name": null,
    "office_name_kana": null
  },
  "2405": {
    "zip_code": "7222405",
    "prefecture": "広島県",
    "prefecture_kana": "ヒロシマケン",
    "prefecture_code": "34",
    "city": "尾道市",
    "city_kana": "オノミチシ",
    "town": "瀬戸田町福田",
    "town_kana": "セトダチョウフクダ",
    "street": null,
    "office_name": null,
    "office_name_kana": null
  },
  "2411": {
    "zip_code": "7222411",
    "prefecture": "広島県",
    "prefecture_kana": "ヒロシマケン",
    "prefecture_code": "34",
    "city": "尾道市",
    "city_kana": "オノミチシ",
    "town": "瀬戸田町瀬戸田",
    "town_kana": "セトダチョウセトダ",
    "street": null,
    "office_name": null,
    "office_name_kana": null
  },
  "2412": {
    "zip_code": "7222412",
    "prefecture": "広島県",
    "prefecture_kana": "ヒロシマケン",
    "prefecture_code": "34",
    "city": "尾道市",
    "city_kana": "オノミチシ",
    "town": "瀬戸田町高根",
    "town_kana": "セトダチョウコウネ",
    "street": null,
    "office_name": null,
    "office_name_kana": null
  },
  "2413": {
    "zip_code": "7222413",
    "prefecture": "広島県",
    "prefecture_kana": "ヒロシマケン",
    "prefecture_code": "34",
    "city": "尾道市",
    "city_kana": "オノミチシ",
    "town": "瀬戸田町沢",
    "town_kana": "セトダチョウサワ",
    "street": null,
    "office_name": null,
    "office_name_kana": null
  },
  "2414": {
    "zip_code": "7222414",
    "prefecture": "広島県",
    "prefecture_kana": "ヒロシマケン",
    "prefecture_code": "34",
    "city": "尾道市",
    "city_kana": "オノミチシ",
    "town": "瀬戸田町鹿田原",
    "town_kana": "セトダチョウシカタハラ",
    "street": null,
    "office_name": null,
    "office_name_kana": null
  },
  "2415": {
    "zip_code": "7222415",
    "prefecture": "広島県",
    "prefecture_kana": "ヒロシマケン",
    "prefecture_code": "34",
    "city": "尾道市",
    "city_kana": "オノミチシ",
    "town": "瀬戸田町中野",
    "town_kana": "セトダチョウナカノ",
    "street": null,
    "office_name": null,
    "office_name_kana": null
  },
  "2416": {
    "zip_code": "7222416",
    "prefecture": "広島県",
    "prefecture_kana": "ヒロシマケン",
    "prefecture_code": "34",
    "city": "尾道市",
    "city_kana": "オノミチシ",
    "town": "瀬戸田町林",
    "town_kana": "セトダチョウハヤシ",
    "street": null,
    "office_name": null,
    "office_name_kana": null
  },
  "2417": {
    "zip_code": "7222417",
    "prefecture": "広島県",
    "prefecture_kana": "ヒロシマケン",
    "prefecture_code": "34",
    "city": "尾道市",
    "city_kana": "オノミチシ",
    "town": "瀬戸田町名荷",
    "town_kana": "セトダチョウミョウガ",
    "street": null,
    "office_name": null,
    "office_name_kana": null
  },
  "2431": {
    "zip_code": "7222431",
    "prefecture": "広島県",
    "prefecture_kana": "ヒロシマケン",
    "prefecture_code": "34",
    "city": "尾道市",
    "city_kana": "オノミチシ",
    "town": "因島洲江町",
    "town_kana": "インノシマスノエチョウ",
    "street": null,
    "office_name": null,
    "office_name_kana": null
  },
  "2432": {
    "zip_code": "7222432",
    "prefecture": "広島県",
    "prefecture_kana": "ヒロシマケン",
    "prefecture_code": "34",
    "city": "尾道市",
    "city_kana": "オノミチシ",
    "town": "因島原町",
    "town_kana": "インノシマハラチョウ",
    "street": null,
    "office_name": null,
    "office_name_kana": null
  },
  "2492": {
    "zip_code": "7222492",
    "prefecture": "広島県",
    "prefecture_kana": "ヒロシマケン",
    "prefecture_code": "34",
    "city": "尾道市",
    "city_kana": "オノミチシ",
    "town": "瀬戸田町鹿田原",
    "town_kana": "セトダチョウシカタハラ",
    "street": "１番地９",
    "office_name": "尾道市役所　瀬戸田支所",
    "office_name_kana": "オノミチシヤクシヨ セトダシシヨ"
  },
  "2493": {
    "zip_code": "7222493",
    "prefecture": "広島県",
    "prefecture_kana": "ヒロシマケン",
    "prefecture_code": "34",
    "city": "尾道市",
    "city_kana": "オノミチシ",
    "town": "瀬戸田町沢",
    "town_kana": "セトダチョウサワ",
    "street": "２２６−６",
    "office_name": "内海造船　株式会社",
    "office_name_kana": "ナイカイゾウセン カブシキガイシヤ"
  },
  "2494": {
    "zip_code": "7222494",
    "prefecture": "広島県",
    "prefecture_kana": "ヒロシマケン",
    "prefecture_code": "34",
    "city": "尾道市",
    "city_kana": "オノミチシ",
    "town": "瀬戸田町沢",
    "town_kana": "セトダチョウサワ",
    "street": "２２６−６",
    "office_name": "株式会社　テスビック",
    "office_name_kana": "カブシキガイシヤ テスビツク"
  },
  "2631": {
    "zip_code": "7222631",
    "prefecture": "広島県",
    "prefecture_kana": "ヒロシマケン",
    "prefecture_code": "34",
    "city": "福山市",
    "city_kana": "フクヤマシ",
    "town": "内海町イ",
    "town_kana": "ウツミチョウイ",
    "street": null,
    "office_name": null,
    "office_name_kana": null
  },
  "2632": {
    "zip_code": "7222632",
    "prefecture": "広島県",
    "prefecture_kana": "ヒロシマケン",
    "prefecture_code": "34",
    "city": "福山市",
    "city_kana": "フクヤマシ",
    "town": "内海町ロ",
    "town_kana": "ウツミチョウロ",
    "street": null,
    "office_name": null,
    "office_name_kana": null
  },
  "2633": {
    "zip_code": "7222633",
    "prefecture": "広島県",
    "prefecture_kana": "ヒロシマケン",
    "prefecture_code": "34",
    "city": "福山市",
    "city_kana": "フクヤマシ",
    "town": "内海町ハ",
    "town_kana": "ウツミチョウハ",
    "street": null,
    "office_name": null,
    "office_name_kana": null
  },
  "2641": {
    "zip_code": "7222641",
    "prefecture": "広島県",
    "prefecture_kana": "ヒロシマケン",
    "prefecture_code": "34",
    "city": "福山市",
    "city_kana": "フクヤマシ",
    "town": "内海町",
    "town_kana": "ウツミチョウ",
    "street": null,
    "office_name": null,
    "office_name_kana": null
  },
  "8501": {
    "zip_code": "7228501",
    "prefecture": "広島県",
    "prefecture_kana": "ヒロシマケン",
    "prefecture_code": "34",
    "city": "尾道市",
    "city_kana": "オノミチシ",
    "town": "久保",
    "town_kana": "クボ",
    "street": "１丁目１５−１",
    "office_name": "尾道市役所",
    "office_name_kana": "オノミチシヤクシヨ"
  },
  "8502": {
    "zip_code": "7228502",
    "prefecture": "広島県",
    "prefecture_kana": "ヒロシマケン",
    "prefecture_code": "34",
    "city": "尾道市",
    "city_kana": "オノミチシ",
    "town": "栗原西",
    "town_kana": "クリハラニシ",
    "street": "２丁目４−２２",
    "office_name": "共和工機　株式会社　本社",
    "office_name_kana": "キヨウワコウキ カブシキガイシヤ ホンシヤ"
  },
  "8503": {
    "zip_code": "7228503",
    "prefecture": "広島県",
    "prefecture_kana": "ヒロシマケン",
    "prefecture_code": "34",
    "city": "尾道市",
    "city_kana": "オノミチシ",
    "town": "新高山",
    "town_kana": "シンタカヤマ",
    "street": "３丁目１１７０−１７７",
    "office_name": "尾道市立市民病院",
    "office_name_kana": "オノミチシリツシミンビヨウイン"
  },
  "8505": {
    "zip_code": "7228505",
    "prefecture": "広島県",
    "prefecture_kana": "ヒロシマケン",
    "prefecture_code": "34",
    "city": "尾道市",
    "city_kana": "オノミチシ",
    "town": "古浜町",
    "town_kana": "コハマチョウ",
    "street": "２７−１８",
    "office_name": "尾道税務署",
    "office_name_kana": "オノミチゼイムシヨ"
  },
  "8506": {
    "zip_code": "7228506",
    "prefecture": "広島県",
    "prefecture_kana": "ヒロシマケン",
    "prefecture_code": "34",
    "city": "尾道市",
    "city_kana": "オノミチシ",
    "town": "久山田町",
    "town_kana": "ヒサヤマダチョウ",
    "street": "１６００",
    "office_name": "尾道大学",
    "office_name_kana": "オノミチダイガク"
  },
  "8507": {
    "zip_code": "7228507",
    "prefecture": "広島県",
    "prefecture_kana": "ヒロシマケン",
    "prefecture_code": "34",
    "city": "尾道市",
    "city_kana": "オノミチシ",
    "town": "美ノ郷町本郷",
    "town_kana": "ミノゴウチョウホンゴウ",
    "street": "１番地１８０",
    "office_name": "大信産業　株式会社",
    "office_name_kana": "タイシンサンギヨウ カブシキガイシヤ"
  },
  "8508": {
    "zip_code": "7228508",
    "prefecture": "広島県",
    "prefecture_kana": "ヒロシマケン",
    "prefecture_code": "34",
    "city": "尾道市",
    "city_kana": "オノミチシ",
    "town": "平原",
    "town_kana": "ヒラハラ",
    "street": "一丁目１０番２３号",
    "office_name": "広島県厚生農業　協同組合連合会　尾道総合病院",
    "office_name_kana": "ヒロシマケンコウセイノウギヨウ キヨウドウクミアイレンゴウカイ オノミチソウゴウビヨウイン"
  },
  "8510": {
    "zip_code": "7228510",
    "prefecture": "広島県",
    "prefecture_kana": "ヒロシマケン",
    "prefecture_code": "34",
    "city": "尾道市",
    "city_kana": "オノミチシ",
    "town": "向島町",
    "town_kana": "ムカイシマチョウ",
    "street": "５５３１−１",
    "office_name": "尾道市役所　向島支所",
    "office_name_kana": "オノミチシヤクシヨ ムカイシマシシヨ"
  },
  "8601": {
    "zip_code": "7228601",
    "prefecture": "広島県",
    "prefecture_kana": "ヒロシマケン",
    "prefecture_code": "34",
    "city": "尾道市",
    "city_kana": "オノミチシ",
    "town": "向東町",
    "town_kana": "ムカイヒガシチョウ",
    "street": "１４７０３−１０",
    "office_name": "丸善製薬　株式会社",
    "office_name_kana": "マルゼンセイヤク カブシキガイシヤ"
  },
  "8602": {
    "zip_code": "7228602",
    "prefecture": "広島県",
    "prefecture_kana": "ヒロシマケン",
    "prefecture_code": "34",
    "city": "尾道市",
    "city_kana": "オノミチシ",
    "town": "山波町",
    "town_kana": "サンバチョウ",
    "street": "１００５（尾道郵便局私書箱第２５号）",
    "office_name": "尾道造船　株式会社",
    "office_name_kana": "オノミチゾウセン カブシキガイシヤ"
  },
  "8604": {
    "zip_code": "7228604",
    "prefecture": "広島県",
    "prefecture_kana": "ヒロシマケン",
    "prefecture_code": "34",
    "city": "尾道市",
    "city_kana": "オノミチシ",
    "town": "向東町",
    "town_kana": "ムカイヒガシチョウ",
    "street": "１４７５５",
    "office_name": "日立造船　株式会社　向島工場",
    "office_name_kana": "ヒタチゾウセン カブシキガイシヤ ムカイシマコウジヨウ"
  },
  "8605": {
    "zip_code": "7228605",
    "prefecture": "広島県",
    "prefecture_kana": "ヒロシマケン",
    "prefecture_code": "34",
    "city": "尾道市",
    "city_kana": "オノミチシ",
    "town": "向島町",
    "town_kana": "ムカイシマチョウ",
    "street": "８６４−１（尾道郵便局私書箱第９７号）",
    "office_name": "向島ドック　株式会社",
    "office_name_kana": "ムカイシマドツク カブシキガイシヤ"
  }
}