{
  "0000": [
    {
      "zip_code": "7360000",
      "prefecture": "広島県",
      "prefecture_kana": "ヒロシマケン",
      "prefecture_code": 34,
      "city": "広島市安芸区",
      "city_kana": "ヒロシマシアキク",
      "town": "",
      "town_kana": "",
      "street": null,
      "office_name": null,
      "office_name_kana": null
    },
    {
      "zip_code": "7360000",
      "prefecture": "広島県",
      "prefecture_kana": "ヒロシマケン",
      "prefecture_code": 34,
      "city": "安芸郡海田町",
      "city_kana": "アキグンカイタチョウ",
      "town": "",
      "town_kana": "",
      "street": null,
      "office_name": null,
      "office_name_kana": null
    }
  ],
  "0001": {
    "zip_code": "7360001",
    "prefecture": "広島県",
    "prefecture_kana": "ヒロシマケン",
    "prefecture_code": 34,
    "city": "安芸郡海田町",
    "city_kana": "アキグンカイタチョウ",
    "town": "砂走",
    "town_kana": "スナバシリ",
    "street": null,
    "office_name": null,
    "office_name_kana": null
  },
  "0002": {
    "zip_code": "7360002",
    "prefecture": "広島県",
    "prefecture_kana": "ヒロシマケン",
    "prefecture_code": 34,
    "city": "安芸郡海田町",
    "city_kana": "アキグンカイタチョウ",
    "town": "国信",
    "town_kana": "クニノブ",
    "street": null,
    "office_name": null,
    "office_name_kana": null
  },
  "0003": {
    "zip_code": "7360003",
    "prefecture": "広島県",
    "prefecture_kana": "ヒロシマケン",
    "prefecture_code": 34,
    "city": "安芸郡海田町",
    "city_kana": "アキグンカイタチョウ",
    "town": "曽田",
    "town_kana": "ソダ",
    "street": null,
    "office_name": null,
    "office_name_kana": null
  },
  "0004": {
    "zip_code": "7360004",
    "prefecture": "広島県",
    "prefecture_kana": "ヒロシマケン",
    "prefecture_code": 34,
    "city": "安芸郡海田町",
    "city_kana": "アキグンカイタチョウ",
    "town": "石原",
    "town_kana": "イシハラ",
    "street": null,
    "office_name": null,
    "office_name_kana": null
  },
  "0005": {
    "zip_code": "7360005",
    "prefecture": "広島県",
    "prefecture_kana": "ヒロシマケン",
    "prefecture_code": 34,
    "city": "安芸郡海田町",
    "city_kana": "アキグンカイタチョウ",
    "town": "畝",
    "town_kana": "ウネ",
    "street": null,
    "office_name": null,
    "office_name_kana": null
  },
  "0011": {
    "zip_code": "7360011",
    "prefecture": "広島県",
    "prefecture_kana": "ヒロシマケン",
    "prefecture_code": 34,
    "city": "安芸郡海田町",
    "city_kana": "アキグンカイタチョウ",
    "town": "寺迫",
    "town_kana": "テラサコ",
    "street": null,
    "office_name": null,
    "office_name_kana": null
  },
  "0012": {
    "zip_code": "7360012",
    "prefecture": "広島県",
    "prefecture_kana": "ヒロシマケン",
    "prefecture_code": 34,
    "city": "安芸郡海田町",
    "city_kana": "アキグンカイタチョウ",
    "town": "稲葉",
    "town_kana": "イナバ",
    "street": null,
    "office_name": null,
    "office_name_kana": null
  },
  "0013": {
    "zip_code": "7360013",
    "prefecture": "広島県",
    "prefecture_kana": "ヒロシマケン",
    "prefecture_code": 34,
    "city": "安芸郡海田町",
    "city_kana": "アキグンカイタチョウ",
    "town": "東",
    "town_kana": "ヒガシ",
    "street": null,
    "office_name": null,
    "office_name_kana": null
  },
  "0014": {
    "zip_code": "7360014",
    "prefecture": "広島県",
    "prefecture_kana": "ヒロシマケン",
    "prefecture_code": 34,
    "city": "安芸郡海田町",
    "city_kana": "アキグンカイタチョウ",
    "town": "三迫",
    "town_kana": "ミサコ",
    "street": null,
    "office_name": null,
    "office_name_kana": null
  },
  "0021": {
    "zip_code": "7360021",
    "prefecture": "広島県",
    "prefecture_kana": "ヒロシマケン",
    "prefecture_code": 34,
    "city": "安芸郡海田町",
    "city_kana": "アキグンカイタチョウ",
    "town": "成本",
    "town_kana": "ナリモト",
    "street": null,
    "office_name": null,
    "office_name_kana": null
  },
  "0022": {
    "zip_code": "7360022",
    "prefecture": "広島県",
    "prefecture_kana": "ヒロシマケン",
    "prefecture_code": 34,
    "city": "安芸郡海田町",
    "city_kana": "アキグンカイタチョウ",
    "town": "蟹原",
    "town_kana": "カニハラ",
    "street": null,
    "office_name": null,
    "office_name_kana": null
  },
  "0023": {
    "zip_code": "7360023",
    "prefecture": "広島県",
    "prefecture_kana": "ヒロシマケン",
    "prefecture_code": 34,
    "city": "安芸郡海田町",
    "city_kana": "アキグンカイタチョウ",
    "town": "浜角",
    "town_kana": "ハマカド",
    "street": null,
    "office_name": null,
    "office_name_kana": null
  },
  "0024": {
    "zip_code": "7360024",
    "prefecture": "広島県",
    "prefecture_kana": "ヒロシマケン",
    "prefecture_code": 34,
    "city": "安芸郡海田町",
    "city_kana": "アキグンカイタチョウ",
    "town": "西浜",
    "town_kana": "ニシハマ",
    "street": null,
    "office_name": null,
    "office_name_kana": null
  },
  "0025": {
    "zip_code": "7360025",
    "prefecture": "広島県",
    "prefecture_kana": "ヒロシマケン",
    "prefecture_code": 34,
    "city": "安芸郡海田町",
    "city_kana": "アキグンカイタチョウ",
    "town": "大立町",
    "town_kana": "オオダテマチ",
    "street": null,
    "office_name": null,
    "office_name_kana": null
  },
  "0026": {
    "zip_code": "7360026",
    "prefecture": "広島県",
    "prefecture_kana": "ヒロシマケン",
    "prefecture_code": 34,
    "city": "安芸郡海田町",
    "city_kana": "アキグンカイタチョウ",
    "town": "幸町",
    "town_kana": "サイワイマチ",
    "street": null,
    "office_name": null,
    "office_name_kana": null
  },
  "0031": {
    "zip_code": "7360031",
    "prefecture": "広島県",
    "prefecture_kana": "ヒロシマケン",
    "prefecture_code": 34,
    "city": "安芸郡海田町",
    "city_kana": "アキグンカイタチョウ",
    "town": "曙町",
    "town_kana": "アケボノマチ",
    "street": null,
    "office_name": null,
    "office_name_kana": null
  },
  "0032": {
    "zip_code": "7360032",
    "prefecture": "広島県",
    "prefecture_kana": "ヒロシマケン",
    "prefecture_code": 34,
    "city": "安芸郡海田町",
    "city_kana": "アキグンカイタチョウ",
    "town": "南幸町",
    "town_kana": "ミナミサイワイマチ",
    "street": null,
    "office_name": null,
    "office_name_kana": null
  },
  "0033": {
    "zip_code": "7360033",
    "prefecture": "広島県",
    "prefecture_kana": "ヒロシマケン",
    "prefecture_code": 34,
    "city": "安芸郡海田町",
    "city_kana": "アキグンカイタチョウ",
    "town": "南本町",
    "town_kana": "ミナミホンマチ",
    "street": null,
    "office_name": null,
    "office_name_kana": null
  },
  "0034": {
    "zip_code": "7360034",
    "prefecture": "広島県",
    "prefecture_kana": "ヒロシマケン",
    "prefecture_code": 34,
    "city": "安芸郡海田町",
    "city_kana": "アキグンカイタチョウ",
    "town": "月見町",
    "town_kana": "ツキミマチ",
    "street": null,
    "office_name": null,
    "office_name_kana": null
  },
  "0035": {
    "zip_code": "7360035",
    "prefecture": "広島県",
    "prefecture_kana": "ヒロシマケン",
    "prefecture_code": 34,
    "city": "安芸郡海田町",
    "city_kana": "アキグンカイタチョウ",
    "town": "日の出町",
    "town_kana": "ヒノデマチ",
    "street": null,
    "office_name": null,
    "office_name_kana": null
  },
  "0041": {
    "zip_code": "7360041",
    "prefecture": "広島県",
    "prefecture_kana": "ヒロシマケン",
    "prefecture_code": 34,
    "city": "安芸郡海田町",
    "city_kana": "アキグンカイタチョウ",
    "town": "大正町",
    "town_kana": "タイショウマチ",
    "street": null,
    "office_name": null,
    "office_name_kana": null
  },
  "0042": {
    "zip_code": "7360042",
    "prefecture": "広島県",
    "prefecture_kana": "ヒロシマケン",
    "prefecture_code": 34,
    "city": "安芸郡海田町",
    "city_kana": "アキグンカイタチョウ",
    "town": "南大正町",
    "town_kana": "ミナミタイショウマチ",
    "street": null,
    "office_name": null,
    "office_name_kana": null
  },
  "0043": {
    "zip_code": "7360043",
    "prefecture": "広島県",
    "prefecture_kana": "ヒロシマケン",
    "prefecture_code": 34,
    "city": "安芸郡海田町",
    "city_kana": "アキグンカイタチョウ",
    "town": "栄町",
    "town_kana": "サカエマチ",
    "street": null,
    "office_name": null,
    "office_name_kana": null
  },
  "0044": {
    "zip_code": "7360044",
    "prefecture": "広島県",
    "prefecture_kana": "ヒロシマケン",
    "prefecture_code": 34,
    "city": "安芸郡海田町",
    "city_kana": "アキグンカイタチョウ",
    "town": "南堀川町",
    "town_kana": "ミナミホリカワマチ",
    "street": null,
    "office_name": null,
    "office_name_kana": null
  },
  "0045": {
    "zip_code": "7360045",
    "prefecture": "広島県",
    "prefecture_kana": "ヒロシマケン",
    "prefecture_code": 34,
    "city": "安芸郡海田町",
    "city_kana": "アキグンカイタチョウ",
    "town": "堀川町",
    "town_kana": "ホリカワマチ",
    "street": null,
    "office_name": null,
    "office_name_kana": null
  },
  "0046": {
    "zip_code": "7360046",
    "prefecture": "広島県",
    "prefecture_kana": "ヒロシマケン",
    "prefecture_code": 34,
    "city": "安芸郡海田町",
    "city_kana": "アキグンカイタチョウ",
    "town": "窪町",
    "town_kana": "クボマチ",
    "street": null,
    "office_name": null,
    "office_name_kana": null
  },
  "0051": {
    "zip_code": "7360051",
    "prefecture": "広島県",
    "prefecture_kana": "ヒロシマケン",
    "prefecture_code": 34,
    "city": "安芸郡海田町",
    "city_kana": "アキグンカイタチョウ",
    "town": "つくも町",
    "town_kana": "ツクモマチ",
    "street": null,
    "office_name": null,
    "office_name_kana": null
  },
  "0052": {
    "zip_code": "7360052",
    "prefecture": "広島県",
    "prefecture_kana": "ヒロシマケン",
    "prefecture_code": 34,
    "city": "安芸郡海田町",
    "city_kana": "アキグンカイタチョウ",
    "town": "南つくも町",
    "town_kana": "ミナミツクモマチ",
    "street": null,
    "office_name": null,
    "office_name_kana": null
  },
  "0053": {
    "zip_code": "7360053",
    "prefecture": "広島県",
    "prefecture_kana": "ヒロシマケン",
    "prefecture_code": 34,
    "city": "安芸郡海田町",
    "city_kana": "アキグンカイタチョウ",
    "town": "寿町",
    "town_kana": "コトブキマチ",
    "street": null,
    "office_name": null,
    "office_name_kana": null
  },
  "0054": {
    "zip_code": "7360054",
    "prefecture": "広島県",
    "prefecture_kana": "ヒロシマケン",
    "prefecture_code": 34,
    "city": "安芸郡海田町",
    "city_kana": "アキグンカイタチョウ",
    "town": "西明神町",
    "town_kana": "ニシミョウジンマチ",
    "street": null,
    "office_name": null,
    "office_name_kana": null
  },
  "0055": {
    "zip_code": "7360055",
    "prefecture": "広島県",
    "prefecture_kana": "ヒロシマケン",
    "prefecture_code": 34,
    "city": "安芸郡海田町",
    "city_kana": "アキグンカイタチョウ",
    "town": "南明神町",
    "town_kana": "ミナミミョウジンマチ",
    "street": null,
    "office_name": null,
    "office_name_kana": null
  },
  "0056": {
    "zip_code": "7360056",
    "prefecture": "広島県",
    "prefecture_kana": "ヒロシマケン",
    "prefecture_code": 34,
    "city": "安芸郡海田町",
    "city_kana": "アキグンカイタチョウ",
    "town": "明神町",
    "town_kana": "ミョウジンマチ",
    "street": null,
    "office_name": null,
    "office_name_kana": null
  },
  "0061": {
    "zip_code": "7360061",
    "prefecture": "広島県",
    "prefecture_kana": "ヒロシマケン",
    "prefecture_code": 34,
    "city": "安芸郡海田町",
    "city_kana": "アキグンカイタチョウ",
    "town": "上市",
    "town_kana": "カミイチ",
    "street": null,
    "office_name": null,
    "office_name_kana": null
  },
  "0062": {
    "zip_code": "7360062",
    "prefecture": "広島県",
    "prefecture_kana": "ヒロシマケン",
    "prefecture_code": 34,
    "city": "安芸郡海田町",
    "city_kana": "アキグンカイタチョウ",
    "town": "昭和町",
    "town_kana": "ショウワマチ",
    "street": null,
    "office_name": null,
    "office_name_kana": null
  },
  "0063": {
    "zip_code": "7360063",
    "prefecture": "広島県",
    "prefecture_kana": "ヒロシマケン",
    "prefecture_code": 34,
    "city": "安芸郡海田町",
    "city_kana": "アキグンカイタチョウ",
    "town": "東昭和町",
    "town_kana": "ヒガシショウワマチ",
    "street": null,
    "office_name": null,
    "office_name_kana": null
  },
  "0064": {
    "zip_code": "7360064",
    "prefecture": "広島県",
    "prefecture_kana": "ヒロシマケン",
    "prefecture_code": 34,
    "city": "安芸郡海田町",
    "city_kana": "アキグンカイタチョウ",
    "town": "昭和中町",
    "town_kana": "ショウワナカマチ",
    "street": null,
    "office_name": null,
    "office_name_kana": null
  },
  "0065": {
    "zip_code": "7360065",
    "prefecture": "広島県",
    "prefecture_kana": "ヒロシマケン",
    "prefecture_code": 34,
    "city": "安芸郡海田町",
    "city_kana": "アキグンカイタチョウ",
    "town": "南昭和町",
    "town_kana": "ミナミショウワマチ",
    "street": null,
    "office_name": null,
    "office_name_kana": null
  },
  "0066": {
    "zip_code": "7360066",
    "prefecture": "広島県",
    "prefecture_kana": "ヒロシマケン",
    "prefecture_code": 34,
    "city": "安芸郡海田町",
    "city_kana": "アキグンカイタチョウ",
    "town": "中店",
    "town_kana": "ナカミセ",
    "street": null,
    "office_name": null,
    "office_name_kana": null
  },
  "0067": {
    "zip_code": "7360067",
    "prefecture": "広島県",
    "prefecture_kana": "ヒロシマケン",
    "prefecture_code": 34,
    "city": "安芸郡海田町",
    "city_kana": "アキグンカイタチョウ",
    "town": "稲荷町",
    "town_kana": "イナリマチ",
    "street": null,
    "office_name": null,
    "office_name_kana": null
  },
  "0068": {
    "zip_code": "7360068",
    "prefecture": "広島県",
    "prefecture_kana": "ヒロシマケン",
    "prefecture_code": 34,
    "city": "安芸郡海田町",
    "city_kana": "アキグンカイタチョウ",
    "town": "新町",
    "town_kana": "シンマチ",
    "street": null,
    "office_name": null,
    "office_name_kana": null
  },
  "0071": {
    "zip_code": "7360071",
    "prefecture": "広島県",
    "prefecture_kana": "ヒロシマケン",
    "prefecture_code": 34,
    "city": "安芸郡海田町",
    "city_kana": "アキグンカイタチョウ",
    "town": "東海田",
    "town_kana": "ヒガシカイタ",
    "street": null,
    "office_name": null,
    "office_name_kana": null
  },
  "0081": {
    "zip_code": "7360081",
    "prefecture": "広島県",
    "prefecture_kana": "ヒロシマケン",
    "prefecture_code": 34,
    "city": "広島市安芸区",
    "city_kana": "ヒロシマシアキク",
    "town": "船越",
    "town_kana": "フナコシ",
    "street": null,
    "office_name": null,
    "office_name_kana": null
  },
  "0082": {
    "zip_code": "7360082",
    "prefecture": "広島県",
    "prefecture_kana": "ヒロシマケン",
    "prefecture_code": 34,
    "city": "広島市安芸区",
    "city_kana": "ヒロシマシアキク",
    "town": "船越南",
    "town_kana": "フナコシミナミ",
    "street": null,
    "office_name": null,
    "office_name_kana": null
  },
  "0083": {
    "zip_code": "7360083",
    "prefecture": "広島県",
    "prefecture_kana": "ヒロシマケン",
    "prefecture_code": 34,
    "city": "広島市安芸区",
    "city_kana": "ヒロシマシアキク",
    "town": "矢野東",
    "town_kana": "ヤノヒガシ",
    "street": null,
    "office_name": null,
    "office_name_kana": null
  },
  "0084": {
    "zip_code": "7360084",
    "prefecture": "広島県",
    "prefecture_kana": "ヒロシマケン",
    "prefecture_code": 34,
    "city": "広島市安芸区",
    "city_kana": "ヒロシマシアキク",
    "town": "矢野新町",
    "town_kana": "ヤノシンマチ",
    "street": null,
    "office_name": null,
    "office_name_kana": null
  },
  "0085": {
    "zip_code": "7360085",
    "prefecture": "広島県",
    "prefecture_kana": "ヒロシマケン",
    "prefecture_code": 34,
    "city": "広島市安芸区",
    "city_kana": "ヒロシマシアキク",
    "town": "矢野西",
    "town_kana": "ヤノニシ",
    "street": null,
    "office_name": null,
    "office_name_kana": null
  },
  "0086": {
    "zip_code": "7360086",
    "prefecture": "広島県",
    "prefecture_kana": "ヒロシマケン",
    "prefecture_code": 34,
    "city": "広島市安芸区",
    "city_kana": "ヒロシマシアキク",
    "town": "矢野南",
    "town_kana": "ヤノミナミ",
    "street": null,
    "office_name": null,
    "office_name_kana": null
  },
  "0087": {
    "zip_code": "7360087",
    "prefecture": "広島県",
    "prefecture_kana": "ヒロシマケン",
    "prefecture_code": 34,
    "city": "広島市安芸区",
    "city_kana": "ヒロシマシアキク",
    "town": "矢野町",
    "town_kana": "ヤノチョウ",
    "street": null,
    "office_name": null,
    "office_name_kana": null
  },
  "0088": {
    "zip_code": "7360088",
    "prefecture": "広島県",
    "prefecture_kana": "ヒロシマケン",
    "prefecture_code": 34,
    "city": "広島市安芸区",
    "city_kana": "ヒロシマシアキク",
    "town": "畑賀",
    "town_kana": "ハタカ",
    "street": null,
    "office_name": null,
    "office_name_kana": null
  },
  "0089": {
    "zip_code": "7360089",
    "prefecture": "広島県",
    "prefecture_kana": "ヒロシマケン",
    "prefecture_code": 34,
    "city": "広島市安芸区",
    "city_kana": "ヒロシマシアキク",
    "town": "畑賀町",
    "town_kana": "ハタカチョウ",
    "street": null,
    "office_name": null,
    "office_name_kana": null
  },
  "8501": {
    "zip_code": "7368501",
    "prefecture": "広島県",
    "prefecture_kana": "ヒロシマケン",
    "prefecture_code": 34,
    "city": "広島市安芸区",
    "city_kana": "ヒロシマシアキク",
    "town": "船越南",
    "town_kana": "フナコシミナミ",
    "street": "３丁目４−３６",
    "office_name": "広島市安芸区役所",
    "office_name_kana": "ヒロシマシアキクヤクシヨ"
  },
  "8502": {
    "zip_code": "7368502",
    "prefecture": "広島県",
    "prefecture_kana": "ヒロシマケン",
    "prefecture_code": 34,
    "city": "安芸郡海田町",
    "city_kana": "アキグンカイタチョウ",
    "town": "寿町",
    "town_kana": "コトブキマチ",
    "street": "２−１",
    "office_name": "陸上自衛隊　海田市駐屯地",
    "office_name_kana": "リクジヨウジエイタイ カイタイチチユウトンチ"
  },
  "8504": {
    "zip_code": "7368504",
    "prefecture": "広島県",
    "prefecture_kana": "ヒロシマケン",
    "prefecture_code": 34,
    "city": "安芸郡海田町",
    "city_kana": "アキグンカイタチョウ",
    "town": "南堀川町",
    "town_kana": "ミナミホリカワマチ",
    "street": "４−１１",
    "office_name": "株式会社　ユアーズ",
    "office_name_kana": "カブシキガイシヤ ユア-ズ"
  },
  "8505": {
    "zip_code": "7368505",
    "prefecture": "広島県",
    "prefecture_kana": "ヒロシマケン",
    "prefecture_code": 34,
    "city": "安芸郡海田町",
    "city_kana": "アキグンカイタチョウ",
    "town": "大正町",
    "town_kana": "タイショウマチ",
    "street": "１−１３",
    "office_name": "海田　税務署",
    "office_name_kana": "カイタ ゼイムシヨ"
  },
  "8506": {
    "zip_code": "7368506",
    "prefecture": "広島県",
    "prefecture_kana": "ヒロシマケン",
    "prefecture_code": 34,
    "city": "広島市安芸区",
    "city_kana": "ヒロシマシアキク",
    "town": "矢野新町",
    "town_kana": "ヤノシンマチ",
    "street": "２丁目３−１２",
    "office_name": "株式会社　やま磯",
    "office_name_kana": "カブシキガイシヤ ヤマイソ"
  },
  "8507": {
    "zip_code": "7368507",
    "prefecture": "広島県",
    "prefecture_kana": "ヒロシマケン",
    "prefecture_code": 34,
    "city": "広島市安芸区",
    "city_kana": "ヒロシマシアキク",
    "town": "矢野新町",
    "town_kana": "ヤノシンマチ",
    "street": "２丁目４−３７",
    "office_name": "株式会社　日本アクセス　広島支店",
    "office_name_kana": "カブシキガイシヤ ニホンアクセス ヒロシマシテン"
  },
  "8508": {
    "zip_code": "7368508",
    "prefecture": "広島県",
    "prefecture_kana": "ヒロシマケン",
    "prefecture_code": 34,
    "city": "広島市安芸区",
    "city_kana": "ヒロシマシアキク",
    "town": "船越南",
    "town_kana": "フナコシミナミ",
    "street": "３丁目２−１６",
    "office_name": "広島市立安芸区図書館",
    "office_name_kana": "ヒロシマシリツアキクトシヨカン"
  },
  "8509": {
    "zip_code": "7368509",
    "prefecture": "広島県",
    "prefecture_kana": "ヒロシマケン",
    "prefecture_code": 34,
    "city": "広島市安芸区",
    "city_kana": "ヒロシマシアキク",
    "town": "船越南",
    "town_kana": "フナコシミナミ",
    "street": "３丁目２−１６",
    "office_name": "安芸区民文化センター",
    "office_name_kana": "アキクミンブンカセンタ-"
  },
  "8555": {
    "zip_code": "7368555",
    "prefecture": "広島県",
    "prefecture_kana": "ヒロシマケン",
    "prefecture_code": 34,
    "city": "広島市安芸区",
    "city_kana": "ヒロシマシアキク",
    "town": "船越南",
    "town_kana": "フナコシミナミ",
    "street": "３丁目２−１６",
    "office_name": "安芸区総合福祉センター",
    "office_name_kana": "アキクソウゴウフクシセンタ-"
  },
  "8601": {
    "zip_code": "7368601",
    "prefecture": "広島県",
    "prefecture_kana": "ヒロシマケン",
    "prefecture_code": 34,
    "city": "安芸郡海田町",
    "city_kana": "アキグンカイタチョウ",
    "town": "上市",
    "town_kana": "カミイチ",
    "street": "１４−１８（海田郵便局私書箱第７号）",
    "office_name": "海田町役場",
    "office_name_kana": "カイタチヨウヤクバ"
  },
  "8602": {
    "zip_code": "7368602",
    "prefecture": "広島県",
    "prefecture_kana": "ヒロシマケン",
    "prefecture_code": 34,
    "city": "広島市安芸区",
    "city_kana": "ヒロシマシアキク",
    "town": "船越南",
    "town_kana": "フナコシミナミ",
    "street": "１丁目６−１",
    "office_name": "株式会社　日本製鋼所　広島製作所",
    "office_name_kana": "カブシキガイシヤ ニホンセイコウシヨ ヒロシマセイサクシヨ"
  }
}