{
  "0000": {
    "zip_code": "7420000",
    "prefecture": "山口県",
    "prefecture_kana": "ヤマグチケン",
    "prefecture_code": 35,
    "city": "柳井市",
    "city_kana": "ヤナイシ",
    "town": "",
    "town_kana": "",
    "street": null,
    "office_name": null,
    "office_name_kana": null
  },
  "0001": {
    "zip_code": "7420001",
    "prefecture": "山口県",
    "prefecture_kana": "ヤマグチケン",
    "prefecture_code": 35,
    "city": "柳井市",
    "city_kana": "ヤナイシ",
    "town": "姫田",
    "town_kana": "ヒメダ",
    "street": null,
    "office_name": null,
    "office_name_kana": null
  },
  "0002": {
    "zip_code": "7420002",
    "prefecture": "山口県",
    "prefecture_kana": "ヤマグチケン",
    "prefecture_code": 35,
    "city": "柳井市",
    "city_kana": "ヤナイシ",
    "town": "山根",
    "town_kana": "ヤマネ",
    "street": null,
    "office_name": null,
    "office_name_kana": null
  },
  "0003": {
    "zip_code": "7420003",
    "prefecture": "山口県",
    "prefecture_kana": "ヤマグチケン",
    "prefecture_code": 35,
    "city": "柳井市",
    "city_kana": "ヤナイシ",
    "town": "片野西",
    "town_kana": "カタノニシ",
    "street": null,
    "office_name": null,
    "office_name_kana": null
  },
  "0004": {
    "zip_code": "7420004",
    "prefecture": "山口県",
    "prefecture_kana": "ヤマグチケン",
    "prefecture_code": 35,
    "city": "柳井市",
    "city_kana": "ヤナイシ",
    "town": "土手町",
    "town_kana": "ドテマチ",
    "street": null,
    "office_name": null,
    "office_name_kana": null
  },
  "0005": {
    "zip_code": "7420005",
    "prefecture": "山口県",
    "prefecture_kana": "ヤマグチケン",
    "prefecture_code": 35,
    "city": "柳井市",
    "city_kana": "ヤナイシ",
    "town": "天神",
    "town_kana": "テンジン",
    "street": null,
    "office_name": null,
    "office_name_kana": null
  },
  "0006": {
    "zip_code": "7420006",
    "prefecture": "山口県",
    "prefecture_kana": "ヤマグチケン",
    "prefecture_code": 35,
    "city": "柳井市",
    "city_kana": "ヤナイシ",
    "town": "新天地",
    "town_kana": "シンテンチ",
    "street": null,
    "office_name": null,
    "office_name_kana": null
  },
  "0007": {
    "zip_code": "7420007",
    "prefecture": "山口県",
    "prefecture_kana": "ヤマグチケン",
    "prefecture_code": 35,
    "city": "柳井市",
    "city_kana": "ヤナイシ",
    "town": "東土手",
    "town_kana": "ヒガシドテ",
    "street": null,
    "office_name": null,
    "office_name_kana": null
  },
  "0008": {
    "zip_code": "7420008",
    "prefecture": "山口県",
    "prefecture_kana": "ヤマグチケン",
    "prefecture_code": 35,
    "city": "柳井市",
    "city_kana": "ヤナイシ",
    "town": "新市北",
    "town_kana": "シンイチキタ",
    "street": null,
    "office_name": null,
    "office_name_kana": null
  },
  "0009": {
    "zip_code": "7420009",
    "prefecture": "山口県",
    "prefecture_kana": "ヤマグチケン",
    "prefecture_code": 35,
    "city": "柳井市",
    "city_kana": "ヤナイシ",
    "town": "新市",
    "town_kana": "シンイチ",
    "street": null,
    "office_name": null,
    "office_name_kana": null
  },
  "0010": {
    "zip_code": "7420010",
    "prefecture": "山口県",
    "prefecture_kana": "ヤマグチケン",
    "prefecture_code": 35,
    "city": "柳井市",
    "city_kana": "ヤナイシ",
    "town": "新市南",
    "town_kana": "シンイチミナミ",
    "street": null,
    "office_name": null,
    "office_name_kana": null
  },
  "0011": {
    "zip_code": "7420011",
    "prefecture": "山口県",
    "prefecture_kana": "ヤマグチケン",
    "prefecture_code": 35,
    "city": "柳井市",
    "city_kana": "ヤナイシ",
    "town": "新市沖",
    "town_kana": "シンイチオキ",
    "street": null,
    "office_name": null,
    "office_name_kana": null
  },
  "0012": {
    "zip_code": "7420012",
    "prefecture": "山口県",
    "prefecture_kana": "ヤマグチケン",
    "prefecture_code": 35,
    "city": "柳井市",
    "city_kana": "ヤナイシ",
    "town": "北浜",
    "town_kana": "キタハマ",
    "street": null,
    "office_name": null,
    "office_name_kana": null
  },
  "0021": {
    "zip_code": "7420021",
    "prefecture": "山口県",
    "prefecture_kana": "ヤマグチケン",
    "prefecture_code": 35,
    "city": "柳井市",
    "city_kana": "ヤナイシ",
    "town": "柳井",
    "town_kana": "ヤナイ",
    "street": null,
    "office_name": null,
    "office_name_kana": null
  },
  "0022": {
    "zip_code": "7420022",
    "prefecture": "山口県",
    "prefecture_kana": "ヤマグチケン",
    "prefecture_code": 35,
    "city": "柳井市",
    "city_kana": "ヤナイシ",
    "town": "柳井津",
    "town_kana": "ヤナイツ",
    "street": null,
    "office_name": null,
    "office_name_kana": null
  },
  "0023": {
    "zip_code": "7420023",
    "prefecture": "山口県",
    "prefecture_kana": "ヤマグチケン",
    "prefecture_code": 35,
    "city": "柳井市",
    "city_kana": "ヤナイシ",
    "town": "南浜",
    "town_kana": "ミナミハマ",
    "street": null,
    "office_name": null,
    "office_name_kana": null
  },
  "0024": {
    "zip_code": "7420024",
    "prefecture": "山口県",
    "prefecture_kana": "ヤマグチケン",
    "prefecture_code": 35,
    "city": "柳井市",
    "city_kana": "ヤナイシ",
    "town": "ニュータウン南町",
    "town_kana": "ニュータウンミナミマチ",
    "street": null,
    "office_name": null,
    "office_name_kana": null
  },
  "0031": {
    "zip_code": "7420031",
    "prefecture": "山口県",
    "prefecture_kana": "ヤマグチケン",
    "prefecture_code": 35,
    "city": "柳井市",
    "city_kana": "ヤナイシ",
    "town": "南町",
    "town_kana": "ミナミマチ",
    "street": null,
    "office_name": null,
    "office_name_kana": null
  },
  "0032": {
    "zip_code": "7420032",
    "prefecture": "山口県",
    "prefecture_kana": "ヤマグチケン",
    "prefecture_code": 35,
    "city": "柳井市",
    "city_kana": "ヤナイシ",
    "town": "古開作",
    "town_kana": "コガイサク",
    "street": null,
    "office_name": null,
    "office_name_kana": null
  },
  "0033": {
    "zip_code": "7420033",
    "prefecture": "山口県",
    "prefecture_kana": "ヤマグチケン",
    "prefecture_code": 35,
    "city": "柳井市",
    "city_kana": "ヤナイシ",
    "town": "新庄",
    "town_kana": "シンジョウ",
    "street": null,
    "office_name": null,
    "office_name_kana": null
  },
  "0034": {
    "zip_code": "7420034",
    "prefecture": "山口県",
    "prefecture_kana": "ヤマグチケン",
    "prefecture_code": 35,
    "city": "柳井市",
    "city_kana": "ヤナイシ",
    "town": "余田",
    "town_kana": "ヨタ",
    "street": null,
    "office_name": null,
    "office_name_kana": null
  },
  "0035": {
    "zip_code": "7420035",
    "prefecture": "山口県",
    "prefecture_kana": "ヤマグチケン",
    "prefecture_code": 35,
    "city": "柳井市",
    "city_kana": "ヤナイシ",
    "town": "中央",
    "town_kana": "チュウオウ",
    "street": null,
    "office_name": null,
    "office_name_kana": null
  },
  "0036": {
    "zip_code": "7420036",
    "prefecture": "山口県",
    "prefecture_kana": "ヤマグチケン",
    "prefecture_code": 35,
    "city": "柳井市",
    "city_kana": "ヤナイシ",
    "town": "駅南",
    "town_kana": "エキナン",
    "street": null,
    "office_name": null,
    "office_name_kana": null
  },
  "0041": {
    "zip_code": "7420041",
    "prefecture": "山口県",
    "prefecture_kana": "ヤマグチケン",
    "prefecture_code": 35,
    "city": "柳井市",
    "city_kana": "ヤナイシ",
    "town": "平郡",
    "town_kana": "ヘイグン",
    "street": null,
    "office_name": null,
    "office_name_kana": null
  },
  "0111": {
    "zip_code": "7420111",
    "prefecture": "山口県",
    "prefecture_kana": "ヤマグチケン",
    "prefecture_code": 35,
    "city": "柳井市",
    "city_kana": "ヤナイシ",
    "town": "日積",
    "town_kana": "ヒヅミ",
    "street": null,
    "office_name": null,
    "office_name_kana": null
  },
  "0201": {
    "zip_code": "7420201",
    "prefecture": "山口県",
    "prefecture_kana": "ヤマグチケン",
    "prefecture_code": 35,
    "city": "柳井市",
    "city_kana": "ヤナイシ",
    "town": "伊陸",
    "town_kana": "イカチ",
    "street": null,
    "office_name": null,
    "office_name_kana": null
  },
  "0301": {
    "zip_code": "7420301",
    "prefecture": "山口県",
    "prefecture_kana": "ヤマグチケン",
    "prefecture_code": 35,
    "city": "岩国市",
    "city_kana": "イワクニシ",
    "town": "周東町祖生",
    "town_kana": "シュウトウマチソオ",
    "street": null,
    "office_name": null,
    "office_name_kana": null
  },
  "0311": [
    {
      "zip_code": "7420311",
      "prefecture": "山口県",
      "prefecture_kana": "ヤマグチケン",
      "prefecture_code": 35,
      "city": "岩国市",
      "city_kana": "イワクニシ",
      "town": "玖珂町",
      "town_kana": "クガマチ",
      "street": null,
      "office_name": null,
      "office_name_kana": null
    },
    {
      "zip_code": "7420311",
      "prefecture": "山口県",
      "prefecture_kana": "ヤマグチケン",
      "prefecture_code": 35,
      "city": "岩国市",
      "city_kana": "イワクニシ",
      "town": "玖珂町欽明路",
      "town_kana": "クガマチキンメイジ",
      "street": null,
      "office_name": null,
      "office_name_kana": null
    }
  ],
  "0312": [
    {
      "zip_code": "7420312",
      "prefecture": "山口県",
      "prefecture_kana": "ヤマグチケン",
      "prefecture_code": 35,
      "city": "岩国市",
      "city_kana": "イワクニシ",
      "town": "玖珂町",
      "town_kana": "クガマチ",
      "street": null,
      "office_name": null,
      "office_name_kana": null
    },
    {
      "zip_code": "7420312",
      "prefecture": "山口県",
      "prefecture_kana": "ヤマグチケン",
      "prefecture_code": 35,
      "city": "岩国市",
      "city_kana": "イワクニシ",
      "town": "玖珂町上谷",
      "town_kana": "クガマチカミダニ",
      "street": null,
      "office_name": null,
      "office_name_kana": null
    }
  ],
  "0313": [
    {
      "zip_code": "7420313",
      "prefecture": "山口県",
      "prefecture_kana": "ヤマグチケン",
      "prefecture_code": 35,
      "city": "岩国市",
      "city_kana": "イワクニシ",
      "town": "玖珂町",
      "town_kana": "クガマチ",
      "street": null,
      "office_name": null,
      "office_name_kana": null
    },
    {
      "zip_code": "7420313",
      "prefecture": "山口県",
      "prefecture_kana": "ヤマグチケン",
      "prefecture_code": 35,
      "city": "岩国市",
      "city_kana": "イワクニシ",
      "town": "玖珂町下谷",
      "town_kana": "クガマチシモダニ",
      "street": null,
      "office_name": null,
      "office_name_kana": null
    }
  ],
  "0314": [
    {
      "zip_code": "7420314",
      "prefecture": "山口県",
      "prefecture_kana": "ヤマグチケン",
      "prefecture_code": 35,
      "city": "岩国市",
      "city_kana": "イワクニシ",
      "town": "玖珂町",
      "town_kana": "クガマチ",
      "street": null,
      "office_name": null,
      "office_name_kana": null
    },
    {
      "zip_code": "7420314",
      "prefecture": "山口県",
      "prefecture_kana": "ヤマグチケン",
      "prefecture_code": 35,
      "city": "岩国市",
      "city_kana": "イワクニシ",
      "town": "玖珂町野口",
      "town_kana": "クガマチノグチ",
      "street": null,
      "office_name": null,
      "office_name_kana": null
    }
  ],
  "0315": [
    {
      "zip_code": "7420315",
      "prefecture": "山口県",
      "prefecture_kana": "ヤマグチケン",
      "prefecture_code": 35,
      "city": "岩国市",
      "city_kana": "イワクニシ",
      "town": "玖珂町",
      "town_kana": "クガマチ",
      "street": null,
      "office_name": null,
      "office_name_kana": null
    },
    {
      "zip_code": "7420315",
      "prefecture": "山口県",
      "prefecture_kana": "ヤマグチケン",
      "prefecture_code": 35,
      "city": "岩国市",
      "city_kana": "イワクニシ",
      "town": "玖珂町瀬田",
      "town_kana": "クガマチセダ",
      "street": null,
      "office_name": null,
      "office_name_kana": null
    }
  ],
  "0321": [
    {
      "zip_code": "7420321",
      "prefecture": "山口県",
      "prefecture_kana": "ヤマグチケン",
      "prefecture_code": 35,
      "city": "岩国市",
      "city_kana": "イワクニシ",
      "town": "玖珂町",
      "town_kana": "クガマチ",
      "street": null,
      "office_name": null,
      "office_name_kana": null
    },
    {
      "zip_code": "7420321",
      "prefecture": "山口県",
      "prefecture_kana": "ヤマグチケン",
      "prefecture_code": 35,
      "city": "岩国市",
      "city_kana": "イワクニシ",
      "town": "玖珂町市頭",
      "town_kana": "クガマチイチガシラ",
      "street": null,
      "office_name": null,
      "office_name_kana": null
    }
  ],
  "0322": [
    {
      "zip_code": "7420322",
      "prefecture": "山口県",
      "prefecture_kana": "ヤマグチケン",
      "prefecture_code": 35,
      "city": "岩国市",
      "city_kana": "イワクニシ",
      "town": "玖珂町",
      "town_kana": "クガマチ",
      "street": null,
      "office_name": null,
      "office_name_kana": null
    },
    {
      "zip_code": "7420322",
      "prefecture": "山口県",
      "prefecture_kana": "ヤマグチケン",
      "prefecture_code": 35,
      "city": "岩国市",
      "city_kana": "イワクニシ",
      "town": "玖珂町上市",
      "town_kana": "クガマチウワイチ",
      "street": null,
      "office_name": null,
      "office_name_kana": null
    }
  ],
  "0323": [
    {
      "zip_code": "7420323",
      "prefecture": "山口県",
      "prefecture_kana": "ヤマグチケン",
      "prefecture_code": 35,
      "city": "岩国市",
      "city_kana": "イワクニシ",
      "town": "玖珂町",
      "town_kana": "クガマチ",
      "street": null,
      "office_name": null,
      "office_name_kana": null
    },
    {
      "zip_code": "7420323",
      "prefecture": "山口県",
      "prefecture_kana": "ヤマグチケン",
      "prefecture_code": 35,
      "city": "岩国市",
      "city_kana": "イワクニシ",
      "town": "玖珂町谷津",
      "town_kana": "クガマチヤツ",
      "street": null,
      "office_name": null,
      "office_name_kana": null
    }
  ],
  "0324": [
    {
      "zip_code": "7420324",
      "prefecture": "山口県",
      "prefecture_kana": "ヤマグチケン",
      "prefecture_code": 35,
      "city": "岩国市",
      "city_kana": "イワクニシ",
      "town": "玖珂町",
      "town_kana": "クガマチ",
      "street": null,
      "office_name": null,
      "office_name_kana": null
    },
    {
      "zip_code": "7420324",
      "prefecture": "山口県",
      "prefecture_kana": "ヤマグチケン",
      "prefecture_code": 35,
      "city": "岩国市",
      "city_kana": "イワクニシ",
      "town": "玖珂町駅通",
      "town_kana": "クガマチエキドオリ",
      "street": null,
      "office_name": null,
      "office_name_kana": null
    }
  ],
  "0325": [
    {
      "zip_code": "7420325",
      "prefecture": "山口県",
      "prefecture_kana": "ヤマグチケン",
      "prefecture_code": 35,
      "city": "岩国市",
      "city_kana": "イワクニシ",
      "town": "玖珂町",
      "town_kana": "クガマチ",
      "street": null,
      "office_name": null,
      "office_name_kana": null
    },
    {
      "zip_code": "7420325",
      "prefecture": "山口県",
      "prefecture_kana": "ヤマグチケン",
      "prefecture_code": 35,
      "city": "岩国市",
      "city_kana": "イワクニシ",
      "town": "玖珂町本町",
      "town_kana": "クガマチホンマチ",
      "street": null,
      "office_name": null,
      "office_name_kana": null
    }
  ],
  "0326": [
    {
      "zip_code": "7420326",
      "prefecture": "山口県",
      "prefecture_kana": "ヤマグチケン",
      "prefecture_code": 35,
      "city": "岩国市",
      "city_kana": "イワクニシ",
      "town": "玖珂町",
      "town_kana": "クガマチ",
      "street": null,
      "office_name": null,
      "office_name_kana": null
    },
    {
      "zip_code": "7420326",
      "prefecture": "山口県",
      "prefecture_kana": "ヤマグチケン",
      "prefecture_code": 35,
      "city": "岩国市",
      "city_kana": "イワクニシ",
      "town": "玖珂町同道",
      "town_kana": "クガマチドウドウ",
      "street": null,
      "office_name": null,
      "office_name_kana": null
    }
  ],
  "0331": [
    {
      "zip_code": "7420331",
      "prefecture": "山口県",
      "prefecture_kana": "ヤマグチケン",
      "prefecture_code": 35,
      "city": "岩国市",
      "city_kana": "イワクニシ",
      "town": "玖珂町",
      "town_kana": "クガマチ",
      "street": null,
      "office_name": null,
      "office_name_kana": null
    },
    {
      "zip_code": "7420331",
      "prefecture": "山口県",
      "prefecture_kana": "ヤマグチケン",
      "prefecture_code": 35,
      "city": "岩国市",
      "city_kana": "イワクニシ",
      "town": "玖珂町鞍掛",
      "town_kana": "クガマチクラカケ",
      "street": null,
      "office_name": null,
      "office_name_kana": null
    }
  ],
  "0332": [
    {
      "zip_code": "7420332",
      "prefecture": "山口県",
      "prefecture_kana": "ヤマグチケン",
      "prefecture_code": 35,
      "city": "岩国市",
      "city_kana": "イワクニシ",
      "town": "玖珂町",
      "town_kana": "クガマチ",
      "street": null,
      "office_name": null,
      "office_name_kana": null
    },
    {
      "zip_code": "7420332",
      "prefecture": "山口県",
      "prefecture_kana": "ヤマグチケン",
      "prefecture_code": 35,
      "city": "岩国市",
      "city_kana": "イワクニシ",
      "town": "玖珂町阿山",
      "town_kana": "クガマチアヤマ",
      "street": null,
      "office_name": null,
      "office_name_kana": null
    }
  ],
  "0333": [
    {
      "zip_code": "7420333",
      "prefecture": "山口県",
      "prefecture_kana": "ヤマグチケン",
      "prefecture_code": 35,
      "city": "岩国市",
      "city_kana": "イワクニシ",
      "town": "玖珂町",
      "town_kana": "クガマチ",
      "street": null,
      "office_name": null,
      "office_name_kana": null
    },
    {
      "zip_code": "7420333",
      "prefecture": "山口県",
      "prefecture_kana": "ヤマグチケン",
      "prefecture_code": 35,
      "city": "岩国市",
      "city_kana": "イワクニシ",
      "town": "玖珂町千束",
      "town_kana": "クガマチセンゾク",
      "street": null,
      "office_name": null,
      "office_name_kana": null
    }
  ],
  "0334": [
    {
      "zip_code": "7420334",
      "prefecture": "山口県",
      "prefecture_kana": "ヤマグチケン",
      "prefecture_code": 35,
      "city": "岩国市",
      "city_kana": "イワクニシ",
      "town": "玖珂町",
      "town_kana": "クガマチ",
      "street": null,
      "office_name": null,
      "office_name_kana": null
    },
    {
      "zip_code": "7420334",
      "prefecture": "山口県",
      "prefecture_kana": "ヤマグチケン",
      "prefecture_code": 35,
      "city": "岩国市",
      "city_kana": "イワクニシ",
      "town": "玖珂町臼田",
      "town_kana": "クガマチウスダ",
      "street": null,
      "office_name": null,
      "office_name_kana": null
    }
  ],
  "0335": [
    {
      "zip_code": "7420335",
      "prefecture": "山口県",
      "prefecture_kana": "ヤマグチケン",
      "prefecture_code": 35,
      "city": "岩国市",
      "city_kana": "イワクニシ",
      "town": "玖珂町",
      "town_kana": "クガマチ",
      "street": null,
      "office_name": null,
      "office_name_kana": null
    },
    {
      "zip_code": "7420335",
      "prefecture": "山口県",
      "prefecture_kana": "ヤマグチケン",
      "prefecture_code": 35,
      "city": "岩国市",
      "city_kana": "イワクニシ",
      "town": "玖珂町新町",
      "town_kana": "クガマチシンマチ",
      "street": null,
      "office_name": null,
      "office_name_kana": null
    }
  ],
  "0336": [
    {
      "zip_code": "7420336",
      "prefecture": "山口県",
      "prefecture_kana": "ヤマグチケン",
      "prefecture_code": 35,
      "city": "岩国市",
      "city_kana": "イワクニシ",
      "town": "玖珂町",
      "town_kana": "クガマチ",
      "street": null,
      "office_name": null,
      "office_name_kana": null
    },
    {
      "zip_code": "7420336",
      "prefecture": "山口県",
      "prefecture_kana": "ヤマグチケン",
      "prefecture_code": 35,
      "city": "岩国市",
      "city_kana": "イワクニシ",
      "town": "玖珂町新市",
      "town_kana": "クガマチシンイチ",
      "street": null,
      "office_name": null,
      "office_name_kana": null
    }
  ],
  "0337": [
    {
      "zip_code": "7420337",
      "prefecture": "山口県",
      "prefecture_kana": "ヤマグチケン",
      "prefecture_code": 35,
      "city": "岩国市",
      "city_kana": "イワクニシ",
      "town": "玖珂町",
      "town_kana": "クガマチ",
      "street": null,
      "office_name": null,
      "office_name_kana": null
    },
    {
      "zip_code": "7420337",
      "prefecture": "山口県",
      "prefecture_kana": "ヤマグチケン",
      "prefecture_code": 35,
      "city": "岩国市",
      "city_kana": "イワクニシ",
      "town": "玖珂町久門給",
      "town_kana": "クガマチクモンキュウ",
      "street": null,
      "office_name": null,
      "office_name_kana": null
    }
  ],
  "0338": [
    {
      "zip_code": "7420338",
      "prefecture": "山口県",
      "prefecture_kana": "ヤマグチケン",
      "prefecture_code": 35,
      "city": "岩国市",
      "city_kana": "イワクニシ",
      "town": "玖珂町",
      "town_kana": "クガマチ",
      "street": null,
      "office_name": null,
      "office_name_kana": null
    },
    {
      "zip_code": "7420338",
      "prefecture": "山口県",
      "prefecture_kana": "ヤマグチケン",
      "prefecture_code": 35,
      "city": "岩国市",
      "city_kana": "イワクニシ",
      "town": "玖珂町有延",
      "town_kana": "クガマチアリノブ",
      "street": null,
      "office_name": null,
      "office_name_kana": null
    }
  ],
  "0341": [
    {
      "zip_code": "7420341",
      "prefecture": "山口県",
      "prefecture_kana": "ヤマグチケン",
      "prefecture_code": 35,
      "city": "岩国市",
      "city_kana": "イワクニシ",
      "town": "玖珂町",
      "town_kana": "クガマチ",
      "street": null,
      "office_name": null,
      "office_name_kana": null
    },
    {
      "zip_code": "7420341",
      "prefecture": "山口県",
      "prefecture_kana": "ヤマグチケン",
      "prefecture_code": 35,
      "city": "岩国市",
      "city_kana": "イワクニシ",
      "town": "玖珂町柳井田",
      "town_kana": "クガマチヤナイダ",
      "street": null,
      "office_name": null,
      "office_name_kana": null
    }
  ],
  "0342": [
    {
      "zip_code": "7420342",
      "prefecture": "山口県",
      "prefecture_kana": "ヤマグチケン",
      "prefecture_code": 35,
      "city": "岩国市",
      "city_kana": "イワクニシ",
      "town": "玖珂町",
      "town_kana": "クガマチ",
      "street": null,
      "office_name": null,
      "office_name_kana": null
    },
    {
      "zip_code": "7420342",
      "prefecture": "山口県",
      "prefecture_kana": "ヤマグチケン",
      "prefecture_code": 35,
      "city": "岩国市",
      "city_kana": "イワクニシ",
      "town": "玖珂町大田",
      "town_kana": "クガマチオオタ",
      "street": null,
      "office_name": null,
      "office_name_kana": null
    }
  ],
  "0343": [
    {
      "zip_code": "7420343",
      "prefecture": "山口県",
      "prefecture_kana": "ヤマグチケン",
      "prefecture_code": 35,
      "city": "岩国市",
      "city_kana": "イワクニシ",
      "town": "玖珂町",
      "town_kana": "クガマチ",
      "street": null,
      "office_name": null,
      "office_name_kana": null
    },
    {
      "zip_code": "7420343",
      "prefecture": "山口県",
      "prefecture_kana": "ヤマグチケン",
      "prefecture_code": 35,
      "city": "岩国市",
      "city_kana": "イワクニシ",
      "town": "玖珂町野地",
      "town_kana": "クガマチノジ",
      "street": null,
      "office_name": null,
      "office_name_kana": null
    }
  ],
  "0344": {
    "zip_code": "7420344",
    "prefecture": "山口県",
    "prefecture_kana": "ヤマグチケン",
    "prefecture_code": 35,
    "city": "岩国市",
    "city_kana": "イワクニシ",
    "town": "玖珂町",
    "town_kana": "クガマチ",
    "street": null,
    "office_name": null,
    "office_name_kana": null
  },
  "0392": {
    "zip_code": "7420392",
    "prefecture": "山口県",
    "prefecture_kana": "ヤマグチケン",
    "prefecture_code": 35,
    "city": "岩国市",
    "city_kana": "イワクニシ",
    "town": "玖珂町",
    "town_kana": "クガマチ",
    "street": "５９９０",
    "office_name": "岩国市　玖珂総合支所",
    "office_name_kana": "イワクニシ クガソウゴウシシヨ"
  },
  "0411": {
    "zip_code": "7420411",
    "prefecture": "山口県",
    "prefecture_kana": "ヤマグチケン",
    "prefecture_code": 35,
    "city": "岩国市",
    "city_kana": "イワクニシ",
    "town": "周東町明見谷",
    "town_kana": "シュウトウマチアケミダニ",
    "street": null,
    "office_name": null,
    "office_name_kana": null
  },
  "0412": {
    "zip_code": "7420412",
    "prefecture": "山口県",
    "prefecture_kana": "ヤマグチケン",
    "prefecture_code": 35,
    "city": "岩国市",
    "city_kana": "イワクニシ",
    "town": "周東町川上",
    "town_kana": "シュウトウマチカワカミ",
    "street": null,
    "office_name": null,
    "office_name_kana": null
  },
  "0413": {
    "zip_code": "7420413",
    "prefecture": "山口県",
    "prefecture_kana": "ヤマグチケン",
    "prefecture_code": 35,
    "city": "岩国市",
    "city_kana": "イワクニシ",
    "town": "周東町上久原",
    "town_kana": "シュウトウマチカミクバラ",
    "street": null,
    "office_name": null,
    "office_name_kana": null
  },
  "0414": {
    "zip_code": "7420414",
    "prefecture": "山口県",
    "prefecture_kana": "ヤマグチケン",
    "prefecture_code": 35,
    "city": "岩国市",
    "city_kana": "イワクニシ",
    "town": "周東町田尻",
    "town_kana": "シュウトウマチタジリ",
    "street": null,
    "office_name": null,
    "office_name_kana": null
  },
  "0415": {
    "zip_code": "7420415",
    "prefecture": "山口県",
    "prefecture_kana": "ヤマグチケン",
    "prefecture_code": 35,
    "city": "岩国市",
    "city_kana": "イワクニシ",
    "town": "周東町中山",
    "town_kana": "シュウトウマチナカヤマ",
    "street": null,
    "office_name": null,
    "office_name_kana": null
  },
  "0416": {
    "zip_code": "7420416",
    "prefecture": "山口県",
    "prefecture_kana": "ヤマグチケン",
    "prefecture_code": 35,
    "city": "岩国市",
    "city_kana": "イワクニシ",
    "town": "周東町用田",
    "town_kana": "シュウトウマチヨウダ",
    "street": null,
    "office_name": null,
    "office_name_kana": null
  },
  "0417": {
    "zip_code": "7420417",
    "prefecture": "山口県",
    "prefecture_kana": "ヤマグチケン",
    "prefecture_code": 35,
    "city": "岩国市",
    "city_kana": "イワクニシ",
    "town": "周東町下久原",
    "town_kana": "シュウトウマチシモクバラ",
    "street": null,
    "office_name": null,
    "office_name_kana": null
  },
  "0421": {
    "zip_code": "7420421",
    "prefecture": "山口県",
    "prefecture_kana": "ヤマグチケン",
    "prefecture_code": 35,
    "city": "岩国市",
    "city_kana": "イワクニシ",
    "town": "周東町三瀬川",
    "town_kana": "シュウトウマチサンゼガワ",
    "street": null,
    "office_name": null,
    "office_name_kana": null
  },
  "0422": {
    "zip_code": "7420422",
    "prefecture": "山口県",
    "prefecture_kana": "ヤマグチケン",
    "prefecture_code": 35,
    "city": "岩国市",
    "city_kana": "イワクニシ",
    "town": "周東町獺越",
    "town_kana": "シュウトウマチオソゴエ",
    "street": null,
    "office_name": null,
    "office_name_kana": null
  },
  "0423": {
    "zip_code": "7420423",
    "prefecture": "山口県",
    "prefecture_kana": "ヤマグチケン",
    "prefecture_code": 35,
    "city": "岩国市",
    "city_kana": "イワクニシ",
    "town": "周東町下須通",
    "town_kana": "シュウトウマチシモスドオリ",
    "street": null,
    "office_name": null,
    "office_name_kana": null
  },
  "0424": {
    "zip_code": "7420424",
    "prefecture": "山口県",
    "prefecture_kana": "ヤマグチケン",
    "prefecture_code": 35,
    "city": "岩国市",
    "city_kana": "イワクニシ",
    "town": "周東町差川",
    "town_kana": "シュウトウマチサスガワ",
    "street": null,
    "office_name": null,
    "office_name_kana": null
  },
  "0425": {
    "zip_code": "7420425",
    "prefecture": "山口県",
    "prefecture_kana": "ヤマグチケン",
    "prefecture_code": 35,
    "city": "岩国市",
    "city_kana": "イワクニシ",
    "town": "周東町西長野",
    "town_kana": "シュウトウマチニシナガノ",
    "street": null,
    "office_name": null,
    "office_name_kana": null
  },
  "0426": {
    "zip_code": "7420426",
    "prefecture": "山口県",
    "prefecture_kana": "ヤマグチケン",
    "prefecture_code": 35,
    "city": "岩国市",
    "city_kana": "イワクニシ",
    "town": "周東町上須通",
    "town_kana": "シュウトウマチカミスドオリ",
    "street": null,
    "office_name": null,
    "office_name_kana": null
  },
  "0427": {
    "zip_code": "7420427",
    "prefecture": "山口県",
    "prefecture_kana": "ヤマグチケン",
    "prefecture_code": 35,
    "city": "岩国市",
    "city_kana": "イワクニシ",
    "town": "周東町樋余地",
    "town_kana": "シュウトウマチヒヨジ",
    "street": null,
    "office_name": null,
    "office_name_kana": null
  },
  "0492": {
    "zip_code": "7420492",
    "prefecture": "山口県",
    "prefecture_kana": "ヤマグチケン",
    "prefecture_code": 35,
    "city": "岩国市",
    "city_kana": "イワクニシ",
    "town": "周東町下久原",
    "town_kana": "シュウトウマチシモクバラ",
    "street": "１２０９−１",
    "office_name": "岩国市　周東総合支所",
    "office_name_kana": "イワクニシ シユウトウソウゴウシシヨ"
  },
  "1100": {
    "zip_code": "7421100",
    "prefecture": "山口県",
    "prefecture_kana": "ヤマグチケン",
    "prefecture_code": 35,
    "city": "熊毛郡平生町",
    "city_kana": "クマゲグンヒラオチョウ",
    "town": "",
    "town_kana": "",
    "street": null,
    "office_name": null,
    "office_name_kana": null
  },
  "1101": {
    "zip_code": "7421101",
    "prefecture": "山口県",
    "prefecture_kana": "ヤマグチケン",
    "prefecture_code": 35,
    "city": "熊毛郡平生町",
    "city_kana": "クマゲグンヒラオチョウ",
    "town": "平生町",
    "town_kana": "ヒラオマチ",
    "street": null,
    "office_name": null,
    "office_name_kana": null
  },
  "1102": {
    "zip_code": "7421102",
    "prefecture": "山口県",
    "prefecture_kana": "ヤマグチケン",
    "prefecture_code": 35,
    "city": "熊毛郡平生町",
    "city_kana": "クマゲグンヒラオチョウ",
    "town": "平生村",
    "town_kana": "ヒラオムラ",
    "street": null,
    "office_name": null,
    "office_name_kana": null
  },
  "1103": {
    "zip_code": "7421103",
    "prefecture": "山口県",
    "prefecture_kana": "ヤマグチケン",
    "prefecture_code": 35,
    "city": "熊毛郡平生町",
    "city_kana": "クマゲグンヒラオチョウ",
    "town": "竪ケ浜",
    "town_kana": "タテガハマ",
    "street": null,
    "office_name": null,
    "office_name_kana": null
  },
  "1104": {
    "zip_code": "7421104",
    "prefecture": "山口県",
    "prefecture_kana": "ヤマグチケン",
    "prefecture_code": 35,
    "city": "熊毛郡平生町",
    "city_kana": "クマゲグンヒラオチョウ",
    "town": "宇佐木",
    "town_kana": "ウサナギ",
    "street": null,
    "office_name": null,
    "office_name_kana": null
  },
  "1105": {
    "zip_code": "7421105",
    "prefecture": "山口県",
    "prefecture_kana": "ヤマグチケン",
    "prefecture_code": 35,
    "city": "熊毛郡平生町",
    "city_kana": "クマゲグンヒラオチョウ",
    "town": "大野北",
    "town_kana": "オオノキタ",
    "street": null,
    "office_name": null,
    "office_name_kana": null
  },
  "1106": {
    "zip_code": "7421106",
    "prefecture": "山口県",
    "prefecture_kana": "ヤマグチケン",
    "prefecture_code": 35,
    "city": "熊毛郡平生町",
    "city_kana": "クマゲグンヒラオチョウ",
    "town": "大野南",
    "town_kana": "オオノミナミ",
    "street": null,
    "office_name": null,
    "office_name_kana": null
  },
  "1107": {
    "zip_code": "7421107",
    "prefecture": "山口県",
    "prefecture_kana": "ヤマグチケン",
    "prefecture_code": 35,
    "city": "熊毛郡平生町",
    "city_kana": "クマゲグンヒラオチョウ",
    "town": "曽根",
    "town_kana": "ソネ",
    "street": null,
    "office_name": null,
    "office_name_kana": null
  },
  "1111": {
    "zip_code": "7421111",
    "prefecture": "山口県",
    "prefecture_kana": "ヤマグチケン",
    "prefecture_code": 35,
    "city": "熊毛郡平生町",
    "city_kana": "クマゲグンヒラオチョウ",
    "town": "佐賀",
    "town_kana": "サガ",
    "street": null,
    "office_name": null,
    "office_name_kana": null
  },
  "1112": {
    "zip_code": "7421112",
    "prefecture": "山口県",
    "prefecture_kana": "ヤマグチケン",
    "prefecture_code": 35,
    "city": "熊毛郡平生町",
    "city_kana": "クマゲグンヒラオチョウ",
    "town": "小郡",
    "town_kana": "オグニ",
    "street": null,
    "office_name": null,
    "office_name_kana": null
  },
  "1113": {
    "zip_code": "7421113",
    "prefecture": "山口県",
    "prefecture_kana": "ヤマグチケン",
    "prefecture_code": 35,
    "city": "熊毛郡平生町",
    "city_kana": "クマゲグンヒラオチョウ",
    "town": "尾国",
    "town_kana": "オクニ",
    "street": null,
    "office_name": null,
    "office_name_kana": null
  },
  "1114": {
    "zip_code": "7421114",
    "prefecture": "山口県",
    "prefecture_kana": "ヤマグチケン",
    "prefecture_code": 35,
    "city": "熊毛郡平生町",
    "city_kana": "クマゲグンヒラオチョウ",
    "town": "佐合島",
    "town_kana": "サゴウジマ",
    "street": null,
    "office_name": null,
    "office_name_kana": null
  },
  "1192": {
    "zip_code": "7421192",
    "prefecture": "山口県",
    "prefecture_kana": null,
    "prefecture_code": null,
    "city": "熊毛郡平生町",
    "city_kana": null,
    "town": "大字曽根",
    "town_kana": null,
    "street": "２３８８",
    "office_name": "永大産業　株式会社　山口・平生事業所",
    "office_name_kana": "エイダイサンギヨウ カブシキガイシヤ ヤマグチ・ヒラオジギヨウシヨ"
  },
  "1193": {
    "zip_code": "7421193",
    "prefecture": "山口県",
    "prefecture_kana": null,
    "prefecture_code": null,
    "city": "熊毛郡平生町",
    "city_kana": null,
    "town": "大字佐賀",
    "town_kana": null,
    "street": "鳩ヶ峯２−７７",
    "office_name": "医療法人．光輝会　光輝病院",
    "office_name_kana": "イリヨウホウジン コウキカイ コウキビヨウイン"
  },
  "1194": {
    "zip_code": "7421194",
    "prefecture": "山口県",
    "prefecture_kana": null,
    "prefecture_code": null,
    "city": "熊毛郡平生町",
    "city_kana": null,
    "town": "大字平生町",
    "town_kana": null,
    "street": "長浜５３１",
    "office_name": "三新化学工業　株式会社　平生工場",
    "office_name_kana": "サンシンカガクコウギヨウ カブシキガイシヤ ヒラオコウジヨウ"
  },
  "1195": {
    "zip_code": "7421195",
    "prefecture": "山口県",
    "prefecture_kana": null,
    "prefecture_code": null,
    "city": "熊毛郡平生町",
    "city_kana": null,
    "town": "大字平生町",
    "town_kana": null,
    "street": "２１０−１",
    "office_name": "平生町役場",
    "office_name_kana": "ヒラオチヨウヤクバ"
  },
  "1196": {
    "zip_code": "7421196",
    "prefecture": "山口県",
    "prefecture_kana": null,
    "prefecture_code": null,
    "city": "熊毛郡平生町",
    "city_kana": null,
    "town": "大字平生村",
    "town_kana": null,
    "street": "横割５８４（平生郵便局私書箱第４号）",
    "office_name": "柳井紙工　株式会社",
    "office_name_kana": "ヤナイシコウ カブシキガイシヤ"
  },
  "1351": {
    "zip_code": "7421351",
    "prefecture": "山口県",
    "prefecture_kana": "ヤマグチケン",
    "prefecture_code": 35,
    "city": "柳井市",
    "city_kana": "ヤナイシ",
    "town": "旭ケ丘",
    "town_kana": "アサヒガオカ",
    "street": null,
    "office_name": null,
    "office_name_kana": null
  },
  "1352": {
    "zip_code": "7421352",
    "prefecture": "山口県",
    "prefecture_kana": "ヤマグチケン",
    "prefecture_code": 35,
    "city": "柳井市",
    "city_kana": "ヤナイシ",
    "town": "伊保庄",
    "town_kana": "イホノショウ",
    "street": null,
    "office_name": null,
    "office_name_kana": null
  },
  "1353": {
    "zip_code": "7421353",
    "prefecture": "山口県",
    "prefecture_kana": "ヤマグチケン",
    "prefecture_code": 35,
    "city": "柳井市",
    "city_kana": "ヤナイシ",
    "town": "阿月",
    "town_kana": "アツキ",
    "street": null,
    "office_name": null,
    "office_name_kana": null
  },
  "1398": {
    "zip_code": "7421398",
    "prefecture": "山口県",
    "prefecture_kana": null,
    "prefecture_code": null,
    "city": "柳井市",
    "city_kana": null,
    "town": "大字伊保庄",
    "town_kana": null,
    "street": "４９０７",
    "office_name": "井森工業　株式会社",
    "office_name_kana": "イモリコウギヨウ カブシキガイシヤ"
  },
  "1400": {
    "zip_code": "7421400",
    "prefecture": "山口県",
    "prefecture_kana": "ヤマグチケン",
    "prefecture_code": 35,
    "city": "熊毛郡上関町",
    "city_kana": "クマゲグンカミノセキチョウ",
    "town": "",
    "town_kana": "",
    "street": null,
    "office_name": null,
    "office_name_kana": null
  },
  "1401": {
    "zip_code": "7421401",
    "prefecture": "山口県",
    "prefecture_kana": "ヤマグチケン",
    "prefecture_code": 35,
    "city": "熊毛郡上関町",
    "city_kana": "クマゲグンカミノセキチョウ",
    "town": "祝島",
    "town_kana": "イワイシマ",
    "street": null,
    "office_name": null,
    "office_name_kana": null
  },
  "1402": {
    "zip_code": "7421402",
    "prefecture": "山口県",
    "prefecture_kana": "ヤマグチケン",
    "prefecture_code": 35,
    "city": "熊毛郡上関町",
    "city_kana": "クマゲグンカミノセキチョウ",
    "town": "長島",
    "town_kana": "ナガシマ",
    "street": null,
    "office_name": null,
    "office_name_kana": null
  },
  "1403": {
    "zip_code": "7421403",
    "prefecture": "山口県",
    "prefecture_kana": "ヤマグチケン",
    "prefecture_code": 35,
    "city": "熊毛郡上関町",
    "city_kana": "クマゲグンカミノセキチョウ",
    "town": "室津",
    "town_kana": "ムロツ",
    "street": null,
    "office_name": null,
    "office_name_kana": null
  },
  "1404": {
    "zip_code": "7421404",
    "prefecture": "山口県",
    "prefecture_kana": "ヤマグチケン",
    "prefecture_code": 35,
    "city": "熊毛郡上関町",
    "city_kana": "クマゲグンカミノセキチョウ",
    "town": "八島",
    "town_kana": "ヤシマ",
    "street": null,
    "office_name": null,
    "office_name_kana": null
  },
  "1500": {
    "zip_code": "7421500",
    "prefecture": "山口県",
    "prefecture_kana": "ヤマグチケン",
    "prefecture_code": 35,
    "city": "熊毛郡田布施町",
    "city_kana": "クマゲグンタブセチョウ",
    "town": "",
    "town_kana": "",
    "street": null,
    "office_name": null,
    "office_name_kana": null
  },
  "1501": {
    "zip_code": "7421501",
    "prefecture": "山口県",
    "prefecture_kana": "ヤマグチケン",
    "prefecture_code": 35,
    "city": "熊毛郡田布施町",
    "city_kana": "クマゲグンタブセチョウ",
    "town": "大波野",
    "town_kana": "オオハノ",
    "street": null,
    "office_name": null,
    "office_name_kana": null
  },
  "1502": {
    "zip_code": "7421502",
    "prefecture": "山口県",
    "prefecture_kana": "ヤマグチケン",
    "prefecture_code": 35,
    "city": "熊毛郡田布施町",
    "city_kana": "クマゲグンタブセチョウ",
    "town": "波野",
    "town_kana": "ハノ",
    "street": null,
    "office_name": null,
    "office_name_kana": null
  },
  "1503": {
    "zip_code": "7421503",
    "prefecture": "山口県",
    "prefecture_kana": "ヤマグチケン",
    "prefecture_code": 35,
    "city": "熊毛郡田布施町",
    "city_kana": "クマゲグンタブセチョウ",
    "town": "宿井",
    "town_kana": "シュクイ",
    "street": null,
    "office_name": null,
    "office_name_kana": null
  },
  "1504": {
    "zip_code": "7421504",
    "prefecture": "山口県",
    "prefecture_kana": "ヤマグチケン",
    "prefecture_code": 35,
    "city": "熊毛郡田布施町",
    "city_kana": "クマゲグンタブセチョウ",
    "town": "川西",
    "town_kana": "カワニシ",
    "street": null,
    "office_name": null,
    "office_name_kana": null
  },
  "1511": {
    "zip_code": "7421511",
    "prefecture": "山口県",
    "prefecture_kana": "ヤマグチケン",
    "prefecture_code": 35,
    "city": "熊毛郡田布施町",
    "city_kana": "クマゲグンタブセチョウ",
    "town": "下田布施",
    "town_kana": "シモタブセ",
    "street": null,
    "office_name": null,
    "office_name_kana": null
  },
  "1512": {
    "zip_code": "7421512",
    "prefecture": "山口県",
    "prefecture_kana": "ヤマグチケン",
    "prefecture_code": 35,
    "city": "熊毛郡田布施町",
    "city_kana": "クマゲグンタブセチョウ",
    "town": "麻郷奥",
    "town_kana": "オゴウオク",
    "street": null,
    "office_name": null,
    "office_name_kana": null
  },
  "1513": [
    {
      "zip_code": "7421513",
      "prefecture": "山口県",
      "prefecture_kana": "ヤマグチケン",
      "prefecture_code": 35,
      "city": "熊毛郡田布施町",
      "city_kana": "クマゲグンタブセチョウ",
      "town": "麻郷",
      "town_kana": "オゴウ",
      "street": null,
      "office_name": null,
      "office_name_kana": null
    },
    {
      "zip_code": "7421513",
      "prefecture": "山口県",
      "prefecture_kana": "ヤマグチケン",
      "prefecture_code": 35,
      "city": "熊毛郡田布施町",
      "city_kana": "クマゲグンタブセチョウ",
      "town": "麻郷団地",
      "town_kana": "オゴウダンチ",
      "street": null,
      "office_name": null,
      "office_name_kana": null
    }
  ],
  "1514": {
    "zip_code": "7421514",
    "prefecture": "山口県",
    "prefecture_kana": "ヤマグチケン",
    "prefecture_code": 35,
    "city": "熊毛郡田布施町",
    "city_kana": "クマゲグンタブセチョウ",
    "town": "別府",
    "town_kana": "ベフ",
    "street": null,
    "office_name": null,
    "office_name_kana": null
  },
  "1515": {
    "zip_code": "7421515",
    "prefecture": "山口県",
    "prefecture_kana": "ヤマグチケン",
    "prefecture_code": 35,
    "city": "熊毛郡田布施町",
    "city_kana": "クマゲグンタブセチョウ",
    "town": "上田布施",
    "town_kana": "カミタブセ",
    "street": null,
    "office_name": null,
    "office_name_kana": null
  },
  "1516": {
    "zip_code": "7421516",
    "prefecture": "山口県",
    "prefecture_kana": "ヤマグチケン",
    "prefecture_code": 35,
    "city": "熊毛郡田布施町",
    "city_kana": "クマゲグンタブセチョウ",
    "town": "馬島",
    "town_kana": "ウマシマ",
    "street": null,
    "office_name": null,
    "office_name_kana": null
  },
  "1517": {
    "zip_code": "7421517",
    "prefecture": "山口県",
    "prefecture_kana": "ヤマグチケン",
    "prefecture_code": 35,
    "city": "熊毛郡田布施町",
    "city_kana": "クマゲグンタブセチョウ",
    "town": "中央南",
    "town_kana": "チュウオウミナミ",
    "street": null,
    "office_name": null,
    "office_name_kana": null
  },
  "1592": {
    "zip_code": "7421592",
    "prefecture": "山口県",
    "prefecture_kana": null,
    "prefecture_code": null,
    "city": "熊毛郡田布施町",
    "city_kana": null,
    "town": "大字下田布施",
    "town_kana": null,
    "street": "３４４０−１（田布施郵便局私書箱第１０号）",
    "office_name": "田布施町役場",
    "office_name_kana": "タブセチヨウヤクバ"
  },
  "1598": {
    "zip_code": "7421598",
    "prefecture": "山口県",
    "prefecture_kana": null,
    "prefecture_code": null,
    "city": "熊毛郡田布施町",
    "city_kana": null,
    "town": "大字下田布施",
    "town_kana": null,
    "street": "２０９−１",
    "office_name": "大晃機械工業　株式会社",
    "office_name_kana": "タイコウキカイコウギヨウ カブシキガイシヤ"
  },
  "2100": {
    "zip_code": "7422100",
    "prefecture": "山口県",
    "prefecture_kana": "ヤマグチケン",
    "prefecture_code": 35,
    "city": "大島郡周防大島町",
    "city_kana": "オオシマグンスオウオオシマチョウ",
    "town": "",
    "town_kana": "",
    "street": null,
    "office_name": null,
    "office_name_kana": null
  },
  "2101": {
    "zip_code": "7422101",
    "prefecture": "山口県",
    "prefecture_kana": "ヤマグチケン",
    "prefecture_code": 35,
    "city": "大島郡周防大島町",
    "city_kana": "オオシマグンスオウオオシマチョウ",
    "town": "西三蒲",
    "town_kana": "ニシミガマ",
    "street": null,
    "office_name": null,
    "office_name_kana": null
  },
  "2102": {
    "zip_code": "7422102",
    "prefecture": "山口県",
    "prefecture_kana": "ヤマグチケン",
    "prefecture_code": 35,
    "city": "大島郡周防大島町",
    "city_kana": "オオシマグンスオウオオシマチョウ",
    "town": "東三蒲",
    "town_kana": "ヒガシミガマ",
    "street": null,
    "office_name": null,
    "office_name_kana": null
  },
  "2103": {
    "zip_code": "7422103",
    "prefecture": "山口県",
    "prefecture_kana": "ヤマグチケン",
    "prefecture_code": 35,
    "city": "大島郡周防大島町",
    "city_kana": "オオシマグンスオウオオシマチョウ",
    "town": "西屋代",
    "town_kana": "ニシヤシロ",
    "street": null,
    "office_name": null,
    "office_name_kana": null
  },
  "2104": {
    "zip_code": "7422104",
    "prefecture": "山口県",
    "prefecture_kana": "ヤマグチケン",
    "prefecture_code": 35,
    "city": "大島郡周防大島町",
    "city_kana": "オオシマグンスオウオオシマチョウ",
    "town": "志佐",
    "town_kana": "シサ",
    "street": null,
    "office_name": null,
    "office_name_kana": null
  },
  "2105": {
    "zip_code": "7422105",
    "prefecture": "山口県",
    "prefecture_kana": "ヤマグチケン",
    "prefecture_code": 35,
    "city": "大島郡周防大島町",
    "city_kana": "オオシマグンスオウオオシマチョウ",
    "town": "小松開作",
    "town_kana": "コマツカイサク",
    "street": null,
    "office_name": null,
    "office_name_kana": null
  },
  "2106": {
    "zip_code": "7422106",
    "prefecture": "山口県",
    "prefecture_kana": "ヤマグチケン",
    "prefecture_code": 35,
    "city": "大島郡周防大島町",
    "city_kana": "オオシマグンスオウオオシマチョウ",
    "town": "小松",
    "town_kana": "コマツ",
    "street": null,
    "office_name": null,
    "office_name_kana": null
  },
  "2107": {
    "zip_code": "7422107",
    "prefecture": "山口県",
    "prefecture_kana": "ヤマグチケン",
    "prefecture_code": 35,
    "city": "大島郡周防大島町",
    "city_kana": "オオシマグンスオウオオシマチョウ",
    "town": "東屋代",
    "town_kana": "ヒガシヤシロ",
    "street": null,
    "office_name": null,
    "office_name_kana": null
  },
  "2108": {
    "zip_code": "7422108",
    "prefecture": "山口県",
    "prefecture_kana": "ヤマグチケン",
    "prefecture_code": 35,
    "city": "大島郡周防大島町",
    "city_kana": "オオシマグンスオウオオシマチョウ",
    "town": "笠佐島",
    "town_kana": "カササジマ",
    "street": null,
    "office_name": null,
    "office_name_kana": null
  },
  "2192": {
    "zip_code": "7422192",
    "prefecture": "山口県",
    "prefecture_kana": null,
    "prefecture_code": null,
    "city": "大島郡周防大島町",
    "city_kana": null,
    "town": "大字小松",
    "town_kana": null,
    "street": "１２６番地２",
    "office_name": "周防大島町役場",
    "office_name_kana": "スオウオオシマチヨウヤクバ"
  },
  "2193": {
    "zip_code": "7422193",
    "prefecture": "山口県",
    "prefecture_kana": null,
    "prefecture_code": null,
    "city": "大島郡周防大島町",
    "city_kana": null,
    "town": "大字小松",
    "town_kana": null,
    "street": "１０９１−１",
    "office_name": "大島商船高等専門学校",
    "office_name_kana": "オオシマシヨウセンコウトウセンモンガツコウ"
  },
  "2301": {
    "zip_code": "7422301",
    "prefecture": "山口県",
    "prefecture_kana": "ヤマグチケン",
    "prefecture_code": 35,
    "city": "大島郡周防大島町",
    "city_kana": "オオシマグンスオウオオシマチョウ",
    "town": "久賀",
    "town_kana": "クカ",
    "street": null,
    "office_name": null,
    "office_name_kana": null
  },
  "2302": {
    "zip_code": "7422302",
    "prefecture": "山口県",
    "prefecture_kana": "ヤマグチケン",
    "prefecture_code": 35,
    "city": "大島郡周防大島町",
    "city_kana": "オオシマグンスオウオオシマチョウ",
    "town": "椋野",
    "town_kana": "ムクノ",
    "street": null,
    "office_name": null,
    "office_name_kana": null
  },
  "2511": {
    "zip_code": "7422511",
    "prefecture": "山口県",
    "prefecture_kana": "ヤマグチケン",
    "prefecture_code": 35,
    "city": "大島郡周防大島町",
    "city_kana": "オオシマグンスオウオオシマチョウ",
    "town": "片添",
    "town_kana": "カタゾエ",
    "street": null,
    "office_name": null,
    "office_name_kana": null
  },
  "2512": {
    "zip_code": "7422512",
    "prefecture": "山口県",
    "prefecture_kana": "ヤマグチケン",
    "prefecture_code": 35,
    "city": "大島郡周防大島町",
    "city_kana": "オオシマグンスオウオオシマチョウ",
    "town": "平野",
    "town_kana": "ヒラノ",
    "street": null,
    "office_name": null,
    "office_name_kana": null
  },
  "2513": {
    "zip_code": "7422513",
    "prefecture": "山口県",
    "prefecture_kana": "ヤマグチケン",
    "prefecture_code": 35,
    "city": "大島郡周防大島町",
    "city_kana": "オオシマグンスオウオオシマチョウ",
    "town": "森",
    "town_kana": "モリ",
    "street": null,
    "office_name": null,
    "office_name_kana": null
  },
  "2514": {
    "zip_code": "7422514",
    "prefecture": "山口県",
    "prefecture_kana": "ヤマグチケン",
    "prefecture_code": 35,
    "city": "大島郡周防大島町",
    "city_kana": "オオシマグンスオウオオシマチョウ",
    "town": "神浦",
    "town_kana": "コウノウラ",
    "street": null,
    "office_name": null,
    "office_name_kana": null
  },
  "2515": {
    "zip_code": "7422515",
    "prefecture": "山口県",
    "prefecture_kana": "ヤマグチケン",
    "prefecture_code": 35,
    "city": "大島郡周防大島町",
    "city_kana": "オオシマグンスオウオオシマチョウ",
    "town": "内入",
    "town_kana": "ウチノニュウ",
    "street": null,
    "office_name": null,
    "office_name_kana": null
  },
  "2516": {
    "zip_code": "7422516",
    "prefecture": "山口県",
    "prefecture_kana": "ヤマグチケン",
    "prefecture_code": 35,
    "city": "大島郡周防大島町",
    "city_kana": "オオシマグンスオウオオシマチョウ",
    "town": "和田",
    "town_kana": "ワダ",
    "street": null,
    "office_name": null,
    "office_name_kana": null
  },
  "2517": {
    "zip_code": "7422517",
    "prefecture": "山口県",
    "prefecture_kana": "ヤマグチケン",
    "prefecture_code": 35,
    "city": "大島郡周防大島町",
    "city_kana": "オオシマグンスオウオオシマチョウ",
    "town": "小泊",
    "town_kana": "コドマリ",
    "street": null,
    "office_name": null,
    "office_name_kana": null
  },
  "2518": {
    "zip_code": "7422518",
    "prefecture": "山口県",
    "prefecture_kana": "ヤマグチケン",
    "prefecture_code": 35,
    "city": "大島郡周防大島町",
    "city_kana": "オオシマグンスオウオオシマチョウ",
    "town": "和佐",
    "town_kana": "ワサ",
    "street": null,
    "office_name": null,
    "office_name_kana": null
  },
  "2601": [
    {
      "zip_code": "7422601",
      "prefecture": "山口県",
      "prefecture_kana": "ヤマグチケン",
      "prefecture_code": 35,
      "city": "大島郡周防大島町",
      "city_kana": "オオシマグンスオウオオシマチョウ",
      "town": "伊保田",
      "town_kana": "イホタ",
      "street": null,
      "office_name": null,
      "office_name_kana": null
    },
    {
      "zip_code": "7422601",
      "prefecture": "山口県",
      "prefecture_kana": "ヤマグチケン",
      "prefecture_code": 35,
      "city": "大島郡周防大島町",
      "city_kana": "オオシマグンスオウオオシマチョウ",
      "town": "伊保田",
      "town_kana": "イホタ",
      "street": null,
      "office_name": null,
      "office_name_kana": null
    },
    {
      "zip_code": "7422601",
      "prefecture": "山口県",
      "prefecture_kana": "ヤマグチケン",
      "prefecture_code": 35,
      "city": "大島郡周防大島町",
      "city_kana": "オオシマグンスオウオオシマチョウ",
      "town": "伊保田雨振",
      "town_kana": "イホタアマフリ",
      "street": null,
      "office_name": null,
      "office_name_kana": null
    },
    {
      "zip_code": "7422601",
      "prefecture": "山口県",
      "prefecture_kana": "ヤマグチケン",
      "prefecture_code": 35,
      "city": "大島郡周防大島町",
      "city_kana": "オオシマグンスオウオオシマチョウ",
      "town": "伊保田小伊保田",
      "town_kana": "イホタコイホタ",
      "street": null,
      "office_name": null,
      "office_name_kana": null
    },
    {
      "zip_code": "7422601",
      "prefecture": "山口県",
      "prefecture_kana": "ヤマグチケン",
      "prefecture_code": 35,
      "city": "大島郡周防大島町",
      "city_kana": "オオシマグンスオウオオシマチョウ",
      "town": "伊保田情島",
      "town_kana": "イホタナサケジマ",
      "street": null,
      "office_name": null,
      "office_name_kana": null
    },
    {
      "zip_code": "7422601",
      "prefecture": "山口県",
      "prefecture_kana": "ヤマグチケン",
      "prefecture_code": 35,
      "city": "大島郡周防大島町",
      "city_kana": "オオシマグンスオウオオシマチョウ",
      "town": "伊保田両源田",
      "town_kana": "イホタリョウゲンダ",
      "street": null,
      "office_name": null,
      "office_name_kana": null
    }
  ],
  "2602": [
    {
      "zip_code": "7422602",
      "prefecture": "山口県",
      "prefecture_kana": "ヤマグチケン",
      "prefecture_code": 35,
      "city": "大島郡周防大島町",
      "city_kana": "オオシマグンスオウオオシマチョウ",
      "town": "油宇",
      "town_kana": "ユウ",
      "street": null,
      "office_name": null,
      "office_name_kana": null
    },
    {
      "zip_code": "7422602",
      "prefecture": "山口県",
      "prefecture_kana": "ヤマグチケン",
      "prefecture_code": 35,
      "city": "大島郡周防大島町",
      "city_kana": "オオシマグンスオウオオシマチョウ",
      "town": "油宇",
      "town_kana": "ユウ",
      "street": null,
      "office_name": null,
      "office_name_kana": null
    },
    {
      "zip_code": "7422602",
      "prefecture": "山口県",
      "prefecture_kana": "ヤマグチケン",
      "prefecture_code": 35,
      "city": "大島郡周防大島町",
      "city_kana": "オオシマグンスオウオオシマチョウ",
      "town": "油宇馬ケ原",
      "town_kana": "ユウウマガハラ",
      "street": null,
      "office_name": null,
      "office_name_kana": null
    },
    {
      "zip_code": "7422602",
      "prefecture": "山口県",
      "prefecture_kana": "ヤマグチケン",
      "prefecture_code": 35,
      "city": "大島郡周防大島町",
      "city_kana": "オオシマグンスオウオオシマチョウ",
      "town": "油宇日向泊",
      "town_kana": "ユウヒュウガドマリ",
      "street": null,
      "office_name": null,
      "office_name_kana": null
    }
  ],
  "2711": {
    "zip_code": "7422711",
    "prefecture": "山口県",
    "prefecture_kana": "ヤマグチケン",
    "prefecture_code": 35,
    "city": "大島郡周防大島町",
    "city_kana": "オオシマグンスオウオオシマチョウ",
    "town": "家房",
    "town_kana": "カボウ",
    "street": null,
    "office_name": null,
    "office_name_kana": null
  },
  "2712": {
    "zip_code": "7422712",
    "prefecture": "山口県",
    "prefecture_kana": "ヤマグチケン",
    "prefecture_code": 35,
    "city": "大島郡周防大島町",
    "city_kana": "オオシマグンスオウオオシマチョウ",
    "town": "出井",
    "town_kana": "イズイ",
    "street": null,
    "office_name": null,
    "office_name_kana": null
  },
  "2713": {
    "zip_code": "7422713",
    "prefecture": "山口県",
    "prefecture_kana": "ヤマグチケン",
    "prefecture_code": 35,
    "city": "大島郡周防大島町",
    "city_kana": "オオシマグンスオウオオシマチョウ",
    "town": "津海木",
    "town_kana": "ツノウギ",
    "street": null,
    "office_name": null,
    "office_name_kana": null
  },
  "2714": {
    "zip_code": "7422714",
    "prefecture": "山口県",
    "prefecture_kana": "ヤマグチケン",
    "prefecture_code": 35,
    "city": "大島郡周防大島町",
    "city_kana": "オオシマグンスオウオオシマチョウ",
    "town": "戸田",
    "town_kana": "ヘタ",
    "street": null,
    "office_name": null,
    "office_name_kana": null
  },
  "2715": {
    "zip_code": "7422715",
    "prefecture": "山口県",
    "prefecture_kana": "ヤマグチケン",
    "prefecture_code": 35,
    "city": "大島郡周防大島町",
    "city_kana": "オオシマグンスオウオオシマチョウ",
    "town": "横見",
    "town_kana": "ヨコミ",
    "street": null,
    "office_name": null,
    "office_name_kana": null
  },
  "2716": {
    "zip_code": "7422716",
    "prefecture": "山口県",
    "prefecture_kana": "ヤマグチケン",
    "prefecture_code": 35,
    "city": "大島郡周防大島町",
    "city_kana": "オオシマグンスオウオオシマチョウ",
    "town": "日見",
    "town_kana": "ヒミ",
    "street": null,
    "office_name": null,
    "office_name_kana": null
  },
  "2801": {
    "zip_code": "7422801",
    "prefecture": "山口県",
    "prefecture_kana": "ヤマグチケン",
    "prefecture_code": 35,
    "city": "大島郡周防大島町",
    "city_kana": "オオシマグンスオウオオシマチョウ",
    "town": "浮島",
    "town_kana": "ウカシマ",
    "street": null,
    "office_name": null,
    "office_name_kana": null
  },
  "2802": {
    "zip_code": "7422802",
    "prefecture": "山口県",
    "prefecture_kana": "ヤマグチケン",
    "prefecture_code": 35,
    "city": "大島郡周防大島町",
    "city_kana": "オオシマグンスオウオオシマチョウ",
    "town": "油良",
    "town_kana": "ユラ",
    "street": null,
    "office_name": null,
    "office_name_kana": null
  },
  "2803": {
    "zip_code": "7422803",
    "prefecture": "山口県",
    "prefecture_kana": "ヤマグチケン",
    "prefecture_code": 35,
    "city": "大島郡周防大島町",
    "city_kana": "オオシマグンスオウオオシマチョウ",
    "town": "土居",
    "town_kana": "ドイ",
    "street": null,
    "office_name": null,
    "office_name_kana": null
  },
  "2804": {
    "zip_code": "7422804",
    "prefecture": "山口県",
    "prefecture_kana": "ヤマグチケン",
    "prefecture_code": 35,
    "city": "大島郡周防大島町",
    "city_kana": "オオシマグンスオウオオシマチョウ",
    "town": "日前",
    "town_kana": "ヒクマ",
    "street": null,
    "office_name": null,
    "office_name_kana": null
  },
  "2805": {
    "zip_code": "7422805",
    "prefecture": "山口県",
    "prefecture_kana": "ヤマグチケン",
    "prefecture_code": 35,
    "city": "大島郡周防大島町",
    "city_kana": "オオシマグンスオウオオシマチョウ",
    "town": "東安下庄",
    "town_kana": "ヒガシアゲノショウ",
    "street": null,
    "office_name": null,
    "office_name_kana": null
  },
  "2806": {
    "zip_code": "7422806",
    "prefecture": "山口県",
    "prefecture_kana": "ヤマグチケン",
    "prefecture_code": 35,
    "city": "大島郡周防大島町",
    "city_kana": "オオシマグンスオウオオシマチョウ",
    "town": "西安下庄",
    "town_kana": "ニシアゲノショウ",
    "street": null,
    "office_name": null,
    "office_name_kana": null
  },
  "2807": {
    "zip_code": "7422807",
    "prefecture": "山口県",
    "prefecture_kana": "ヤマグチケン",
    "prefecture_code": 35,
    "city": "大島郡周防大島町",
    "city_kana": "オオシマグンスオウオオシマチョウ",
    "town": "秋",
    "town_kana": "アキ",
    "street": null,
    "office_name": null,
    "office_name_kana": null
  },
  "2921": [
    {
      "zip_code": "7422921",
      "prefecture": "山口県",
      "prefecture_kana": "ヤマグチケン",
      "prefecture_code": 35,
      "city": "大島郡周防大島町",
      "city_kana": "オオシマグンスオウオオシマチョウ",
      "town": "西方",
      "town_kana": "ニシガタ",
      "street": null,
      "office_name": null,
      "office_name_kana": null
    },
    {
      "zip_code": "7422921",
      "prefecture": "山口県",
      "prefecture_kana": "ヤマグチケン",
      "prefecture_code": 35,
      "city": "大島郡周防大島町",
      "city_kana": "オオシマグンスオウオオシマチョウ",
      "town": "西方",
      "town_kana": "ニシガタ",
      "street": null,
      "office_name": null,
      "office_name_kana": null
    },
    {
      "zip_code": "7422921",
      "prefecture": "山口県",
      "prefecture_kana": "ヤマグチケン",
      "prefecture_code": 35,
      "city": "大島郡周防大島町",
      "city_kana": "オオシマグンスオウオオシマチョウ",
      "town": "西方大積",
      "town_kana": "ニシガタオオツミ",
      "street": null,
      "office_name": null,
      "office_name_kana": null
    },
    {
      "zip_code": "7422921",
      "prefecture": "山口県",
      "prefecture_kana": "ヤマグチケン",
      "prefecture_code": 35,
      "city": "大島郡周防大島町",
      "city_kana": "オオシマグンスオウオオシマチョウ",
      "town": "西方小積",
      "town_kana": "ニシガタオツミ",
      "street": null,
      "office_name": null,
      "office_name_kana": null
    },
    {
      "zip_code": "7422921",
      "prefecture": "山口県",
      "prefecture_kana": "ヤマグチケン",
      "prefecture_code": 35,
      "city": "大島郡周防大島町",
      "city_kana": "オオシマグンスオウオオシマチョウ",
      "town": "西方下田",
      "town_kana": "ニシガタシタタ",
      "street": null,
      "office_name": null,
      "office_name_kana": null
    },
    {
      "zip_code": "7422921",
      "prefecture": "山口県",
      "prefecture_kana": "ヤマグチケン",
      "prefecture_code": 35,
      "city": "大島郡周防大島町",
      "city_kana": "オオシマグンスオウオオシマチョウ",
      "town": "西方長崎",
      "town_kana": "ニシガタナガサキ",
      "street": null,
      "office_name": null,
      "office_name_kana": null
    },
    {
      "zip_code": "7422921",
      "prefecture": "山口県",
      "prefecture_kana": "ヤマグチケン",
      "prefecture_code": 35,
      "city": "大島郡周防大島町",
      "city_kana": "オオシマグンスオウオオシマチョウ",
      "town": "西方船越",
      "town_kana": "ニシガタフナコシ",
      "street": null,
      "office_name": null,
      "office_name_kana": null
    }
  ],
  "2922": {
    "zip_code": "7422922",
    "prefecture": "山口県",
    "prefecture_kana": "ヤマグチケン",
    "prefecture_code": 35,
    "city": "大島郡周防大島町",
    "city_kana": "オオシマグンスオウオオシマチョウ",
    "town": "沖家室島",
    "town_kana": "オキカムロジマ",
    "street": null,
    "office_name": null,
    "office_name_kana": null
  },
  "2923": [
    {
      "zip_code": "7422923",
      "prefecture": "山口県",
      "prefecture_kana": "ヤマグチケン",
      "prefecture_code": 35,
      "city": "大島郡周防大島町",
      "city_kana": "オオシマグンスオウオオシマチョウ",
      "town": "地家室",
      "town_kana": "ジカムロ",
      "street": null,
      "office_name": null,
      "office_name_kana": null
    },
    {
      "zip_code": "7422923",
      "prefecture": "山口県",
      "prefecture_kana": "ヤマグチケン",
      "prefecture_code": 35,
      "city": "大島郡周防大島町",
      "city_kana": "オオシマグンスオウオオシマチョウ",
      "town": "地家室佐連",
      "town_kana": "ジカムロサレ",
      "street": null,
      "office_name": null,
      "office_name_kana": null
    }
  ],
  "2924": [
    {
      "zip_code": "7422924",
      "prefecture": "山口県",
      "prefecture_kana": "ヤマグチケン",
      "prefecture_code": 35,
      "city": "大島郡周防大島町",
      "city_kana": "オオシマグンスオウオオシマチョウ",
      "town": "外入",
      "town_kana": "トノニュウ",
      "street": null,
      "office_name": null,
      "office_name_kana": null
    },
    {
      "zip_code": "7422924",
      "prefecture": "山口県",
      "prefecture_kana": "ヤマグチケン",
      "prefecture_code": 35,
      "city": "大島郡周防大島町",
      "city_kana": "オオシマグンスオウオオシマチョウ",
      "town": "外入伊崎",
      "town_kana": "トノニュウイザキ",
      "street": null,
      "office_name": null,
      "office_name_kana": null
    }
  ],
  "8510": {
    "zip_code": "7428510",
    "prefecture": "山口県",
    "prefecture_kana": "ヤマグチケン",
    "prefecture_code": 35,
    "city": "柳井市",
    "city_kana": "ヤナイシ",
    "town": "南町",
    "town_kana": "ミナミマチ",
    "street": "４丁目５−３",
    "office_name": "（株）　イズミ　柳井店",
    "office_name_kana": "(カブ) イズミ ヤナイテン"
  },
  "8511": {
    "zip_code": "7428511",
    "prefecture": "山口県",
    "prefecture_kana": "ヤマグチケン",
    "prefecture_code": 35,
    "city": "柳井市",
    "city_kana": "ヤナイシ",
    "town": "",
    "town_kana": "",
    "street": "宮本塩浜１５７８−８",
    "office_name": "中国電力　柳井発電所",
    "office_name_kana": "チユウゴクデンリヨク ヤナイハツデンシヨ"
  },
  "8555": {
    "zip_code": "7428555",
    "prefecture": "山口県",
    "prefecture_kana": null,
    "prefecture_code": null,
    "city": "柳井市",
    "city_kana": null,
    "town": "大字柳井",
    "town_kana": null,
    "street": "９８７",
    "office_name": "株式会社　フジマ",
    "office_name_kana": "カブシキガイシヤ フジマ"
  },
  "8576": {
    "zip_code": "7428576",
    "prefecture": "山口県",
    "prefecture_kana": "ヤマグチケン",
    "prefecture_code": 35,
    "city": "柳井市",
    "city_kana": "ヤナイシ",
    "town": "南町",
    "town_kana": "ミナミマチ",
    "street": "４丁目１−４１",
    "office_name": "三新化学工業　株式会社",
    "office_name_kana": "サンシンカガクコウギヨウ カブシキガイシヤ"
  },
  "8605": {
    "zip_code": "7428605",
    "prefecture": "山口県",
    "prefecture_kana": "ヤマグチケン",
    "prefecture_code": 35,
    "city": "柳井市",
    "city_kana": "ヤナイシ",
    "town": "柳井",
    "town_kana": "ヤナイ",
    "street": "３７４５−１（柳井郵便局私書箱第５号）",
    "office_name": "柳井　税務署",
    "office_name_kana": "ヤナイ ゼイムシヨ"
  },
  "8608": {
    "zip_code": "7428608",
    "prefecture": "山口県",
    "prefecture_kana": "ヤマグチケン",
    "prefecture_code": 35,
    "city": "柳井市",
    "city_kana": "ヤナイシ",
    "town": "伊保庄",
    "town_kana": "イホノショウ",
    "street": "４９０７（柳井郵便局私書箱第８号）",
    "office_name": "井森工業",
    "office_name_kana": "イモリコウギヨウ"
  },
  "8622": {
    "zip_code": "7428622",
    "prefecture": "山口県",
    "prefecture_kana": "ヤマグチケン",
    "prefecture_code": 35,
    "city": "柳井市",
    "city_kana": "ヤナイシ",
    "town": "柳井",
    "town_kana": "ヤナイ",
    "street": "１５７４−１３（柳井郵便局私書箱第２２号）",
    "office_name": "株式会社　エム・オン",
    "office_name_kana": "カブシキガイシヤ エム・オン"
  },
  "8625": {
    "zip_code": "7428625",
    "prefecture": "山口県",
    "prefecture_kana": null,
    "prefecture_code": null,
    "city": "柳井市",
    "city_kana": null,
    "town": "大字古開作",
    "town_kana": null,
    "street": "字東条６８５−１１",
    "office_name": "中国電力　株式会社　柳井営業所",
    "office_name_kana": "チユウゴクデンリヨク カブシキガイシヤ ヤナイエイギヨウシヨ"
  },
  "8645": {
    "zip_code": "7428645",
    "prefecture": "山口県",
    "prefecture_kana": "ヤマグチケン",
    "prefecture_code": 35,
    "city": "柳井市",
    "city_kana": "ヤナイシ",
    "town": "中央",
    "town_kana": "チュウオウ",
    "street": "２丁目１５−１（柳井郵便局私書箱第４５号）",
    "office_name": "柳井商工会議所",
    "office_name_kana": "ヤナイシヨウコウカイギシヨ"
  },
  "8646": {
    "zip_code": "7428646",
    "prefecture": "山口県",
    "prefecture_kana": "ヤマグチケン",
    "prefecture_code": 35,
    "city": "柳井市",
    "city_kana": "ヤナイシ",
    "town": "中央",
    "town_kana": "チュウオウ",
    "street": "３丁目１６−１（柳井郵便局私書箱第４６号）",
    "office_name": "ＪＡ　南すおう",
    "office_name_kana": "ジエイエ- ミナミスオウ"
  },
  "8666": {
    "zip_code": "7428666",
    "prefecture": "山口県",
    "prefecture_kana": "ヤマグチケン",
    "prefecture_code": 35,
    "city": "柳井市",
    "city_kana": "ヤナイシ",
    "town": "南町",
    "town_kana": "ミナミマチ",
    "street": "４丁目１−１",
    "office_name": "株式会社　柳井クルーズホテル",
    "office_name_kana": "カブシキガイシヤ ヤナイクル-ズホテル"
  },
  "8669": {
    "zip_code": "7428669",
    "prefecture": "山口県",
    "prefecture_kana": "ヤマグチケン",
    "prefecture_code": 35,
    "city": "柳井市",
    "city_kana": "ヤナイシ",
    "town": "中央",
    "town_kana": "チュウオウ",
    "street": "２丁目９−１４（柳井郵便局私書箱第９号）",
    "office_name": "株式会社　山口銀行　柳井支店",
    "office_name_kana": "カブシキガイシヤ ヤマグチギンコウ ヤナイシテン"
  },
  "8688": {
    "zip_code": "7428688",
    "prefecture": "山口県",
    "prefecture_kana": "ヤマグチケン",
    "prefecture_code": 35,
    "city": "柳井市",
    "city_kana": "ヤナイシ",
    "town": "中央",
    "town_kana": "チュウオウ",
    "street": "２丁目７−３１（柳井郵便局私書箱第２号）",
    "office_name": "東山口信用金庫",
    "office_name_kana": "ヒガシヤマグチシンヨウキンコ"
  },
  "8714": {
    "zip_code": "7428714",
    "prefecture": "山口県",
    "prefecture_kana": "ヤマグチケン",
    "prefecture_code": 35,
    "city": "柳井市",
    "city_kana": "ヤナイシ",
    "town": "南町",
    "town_kana": "ミナミマチ",
    "street": "１丁目１０−２（柳井郵便局私書箱第１８号）",
    "office_name": "柳井市役所",
    "office_name_kana": "ヤナイシヤクシヨ"
  },
  "8787": {
    "zip_code": "7428787",
    "prefecture": "山口県",
    "prefecture_kana": "ヤマグチケン",
    "prefecture_code": 35,
    "city": "柳井市",
    "city_kana": "ヤナイシ",
    "town": "新庄",
    "town_kana": "シンジョウ",
    "street": "５００番地１",
    "office_name": "やまぐちフラワーランド　財団法人　やない花のまちづくり振興財団",
    "office_name_kana": "ヤマグチフラワ-ランド ザイダンホウジン ヤナイハナノマチヅクリシンコウザイダン"
  }
}