{
  "0001": {
    "zip_code": "7540001",
    "prefecture": "山口県",
    "prefecture_kana": "ヤマグチケン",
    "prefecture_code": "35",
    "city": "山口市",
    "city_kana": "ヤマグチシ",
    "town": "小郡上郷",
    "town_kana": "オゴオリカミゴウ",
    "street": null,
    "office_name": null,
    "office_name_kana": null
  },
  "0002": {
    "zip_code": "7540002",
    "prefecture": "山口県",
    "prefecture_kana": "ヤマグチケン",
    "prefecture_code": "35",
    "city": "山口市",
    "city_kana": "ヤマグチシ",
    "town": "小郡下郷",
    "town_kana": "オゴオリシモゴウ",
    "street": null,
    "office_name": null,
    "office_name_kana": null
  },
  "0003": {
    "zip_code": "7540003",
    "prefecture": "山口県",
    "prefecture_kana": "ヤマグチケン",
    "prefecture_code": "35",
    "city": "山口市",
    "city_kana": "ヤマグチシ",
    "town": "小郡真名",
    "town_kana": "オゴオリマナ",
    "street": null,
    "office_name": null,
    "office_name_kana": null
  },
  "0004": {
    "zip_code": "7540004",
    "prefecture": "山口県",
    "prefecture_kana": "ヤマグチケン",
    "prefecture_code": "35",
    "city": "山口市",
    "city_kana": "ヤマグチシ",
    "town": "小郡金堀町",
    "town_kana": "オゴオリカナホリチョウ",
    "street": null,
    "office_name": null,
    "office_name_kana": null
  },
  "0005": {
    "zip_code": "7540005",
    "prefecture": "山口県",
    "prefecture_kana": "ヤマグチケン",
    "prefecture_code": "35",
    "city": "山口市",
    "city_kana": "ヤマグチシ",
    "town": "小郡山手上町",
    "town_kana": "オゴオリヤマテカミマチ",
    "street": null,
    "office_name": null,
    "office_name_kana": null
  },
  "0006": {
    "zip_code": "7540006",
    "prefecture": "山口県",
    "prefecture_kana": "ヤマグチケン",
    "prefecture_code": "35",
    "city": "山口市",
    "city_kana": "ヤマグチシ",
    "town": "小郡尾崎町",
    "town_kana": "オゴオリオザキチョウ",
    "street": null,
    "office_name": null,
    "office_name_kana": null
  },
  "0007": {
    "zip_code": "7540007",
    "prefecture": "山口県",
    "prefecture_kana": "ヤマグチケン",
    "prefecture_code": "35",
    "city": "山口市",
    "city_kana": "ヤマグチシ",
    "town": "小郡円座東町",
    "town_kana": "オゴオリエンザヒガシチョウ",
    "street": null,
    "office_name": null,
    "office_name_kana": null
  },
  "0008": {
    "zip_code": "7540008",
    "prefecture": "山口県",
    "prefecture_kana": "ヤマグチケン",
    "prefecture_code": "35",
    "city": "山口市",
    "city_kana": "ヤマグチシ",
    "town": "小郡円座西町",
    "town_kana": "オゴオリエンザニシチョウ",
    "street": null,
    "office_name": null,
    "office_name_kana": null
  },
  "0011": {
    "zip_code": "7540011",
    "prefecture": "山口県",
    "prefecture_kana": "ヤマグチケン",
    "prefecture_code": "35",
    "city": "山口市",
    "city_kana": "ヤマグチシ",
    "town": "小郡御幸町",
    "town_kana": "オゴオリミユキマチ",
    "street": null,
    "office_name": null,
    "office_name_kana": null
  },
  "0012": {
    "zip_code": "7540012",
    "prefecture": "山口県",
    "prefecture_kana": "ヤマグチケン",
    "prefecture_code": "35",
    "city": "山口市",
    "city_kana": "ヤマグチシ",
    "town": "小郡船倉町",
    "town_kana": "オゴオリフナクラマチ",
    "street": null,
    "office_name": null,
    "office_name_kana": null
  },
  "0013": {
    "zip_code": "7540013",
    "prefecture": "山口県",
    "prefecture_kana": "ヤマグチケン",
    "prefecture_code": "35",
    "city": "山口市",
    "city_kana": "ヤマグチシ",
    "town": "小郡緑町",
    "town_kana": "オゴオリミドリマチ",
    "street": null,
    "office_name": null,
    "office_name_kana": null
  },
  "0014": {
    "zip_code": "7540014",
    "prefecture": "山口県",
    "prefecture_kana": "ヤマグチケン",
    "prefecture_code": "35",
    "city": "山口市",
    "city_kana": "ヤマグチシ",
    "town": "小郡高砂町",
    "town_kana": "オゴオリタカサゴマチ",
    "street": null,
    "office_name": null,
    "office_name_kana": null
  },
  "0015": {
    "zip_code": "7540015",
    "prefecture": "山口県",
    "prefecture_kana": "ヤマグチケン",
    "prefecture_code": "35",
    "city": "山口市",
    "city_kana": "ヤマグチシ",
    "town": "小郡大江町",
    "town_kana": "オゴオリオオエマチ",
    "street": null,
    "office_name": null,
    "office_name_kana": null
  },
  "0020": {
    "zip_code": "7540020",
    "prefecture": "山口県",
    "prefecture_kana": "ヤマグチケン",
    "prefecture_code": "35",
    "city": "山口市",
    "city_kana": "ヤマグチシ",
    "town": "小郡平成町",
    "town_kana": "オゴオリヘイセイマチ",
    "street": null,
    "office_name": null,
    "office_name_kana": null
  },
  "0021": {
    "zip_code": "7540021",
    "prefecture": "山口県",
    "prefecture_kana": "ヤマグチケン",
    "prefecture_code": "35",
    "city": "山口市",
    "city_kana": "ヤマグチシ",
    "town": "小郡黄金町",
    "town_kana": "オゴオリコガネマチ",
    "street": null,
    "office_name": null,
    "office_name_kana": null
  },
  "0022": {
    "zip_code": "7540022",
    "prefecture": "山口県",
    "prefecture_kana": "ヤマグチケン",
    "prefecture_code": "35",
    "city": "山口市",
    "city_kana": "ヤマグチシ",
    "town": "小郡花園町",
    "town_kana": "オゴオリハナゾノマチ",
    "street": null,
    "office_name": null,
    "office_name_kana": null
  },
  "0023": {
    "zip_code": "7540023",
    "prefecture": "山口県",
    "prefecture_kana": "ヤマグチケン",
    "prefecture_code": "35",
    "city": "山口市",
    "city_kana": "ヤマグチシ",
    "town": "小郡前田町",
    "town_kana": "オゴオリマエダマチ",
    "street": null,
    "office_name": null,
    "office_name_kana": null
  },
  "0024": {
    "zip_code": "7540024",
    "prefecture": "山口県",
    "prefecture_kana": "ヤマグチケン",
    "prefecture_code": "35",
    "city": "山口市",
    "city_kana": "ヤマグチシ",
    "town": "小郡若草町",
    "town_kana": "オゴオリワカクサマチ",
    "street": null,
    "office_name": null,
    "office_name_kana": null
  },
  "0025": {
    "zip_code": "7540025",
    "prefecture": "山口県",
    "prefecture_kana": "ヤマグチケン",
    "prefecture_code": "35",
    "city": "山口市",
    "city_kana": "ヤマグチシ",
    "town": "小郡平砂町",
    "town_kana": "オゴオリヒラサマチ",
    "street": null,
    "office_name": null,
    "office_name_kana": null
  },
  "0026": {
    "zip_code": "7540026",
    "prefecture": "山口県",
    "prefecture_kana": "ヤマグチケン",
    "prefecture_code": "35",
    "city": "山口市",
    "city_kana": "ヤマグチシ",
    "town": "小郡栄町",
    "town_kana": "オゴオリサカエマチ",
    "street": null,
    "office_name": null,
    "office_name_kana": null
  },
  "0027": {
    "zip_code": "7540027",
    "prefecture": "山口県",
    "prefecture_kana": "ヤマグチケン",
    "prefecture_code": "35",
    "city": "山口市",
    "city_kana": "ヤマグチシ",
    "town": "小郡三軒屋町",
    "town_kana": "オゴオリサンゲンヤマチ",
    "street": null,
    "office_name": null,
    "office_name_kana": null
  },
  "0028": {
    "zip_code": "7540028",
    "prefecture": "山口県",
    "prefecture_kana": "ヤマグチケン",
    "prefecture_code": "35",
    "city": "山口市",
    "city_kana": "ヤマグチシ",
    "town": "小郡給領町",
    "town_kana": "オゴオリキュウリョウマチ",
    "street": null,
    "office_name": null,
    "office_name_kana": null
  },
  "0029": {
    "zip_code": "7540029",
    "prefecture": "山口県",
    "prefecture_kana": "ヤマグチケン",
    "prefecture_code": "35",
    "city": "山口市",
    "city_kana": "ヤマグチシ",
    "town": "小郡維新町",
    "town_kana": "オゴオリイシンマチ",
    "street": null,
    "office_name": null,
    "office_name_kana": null
  },
  "0031": {
    "zip_code": "7540031",
    "prefecture": "山口県",
    "prefecture_kana": "ヤマグチケン",
    "prefecture_code": "35",
    "city": "山口市",
    "city_kana": "ヤマグチシ",
    "town": "小郡新町",
    "town_kana": "オゴオリシンマチ",
    "street": null,
    "office_name": null,
    "office_name_kana": null
  },
  "0032": {
    "zip_code": "7540032",
    "prefecture": "山口県",
    "prefecture_kana": "ヤマグチケン",
    "prefecture_code": "35",
    "city": "山口市",
    "city_kana": "ヤマグチシ",
    "town": "小郡みらい町",
    "town_kana": "オゴオリミライマチ",
    "street": null,
    "office_name": null,
    "office_name_kana": null
  },
  "0033": {
    "zip_code": "7540033",
    "prefecture": "山口県",
    "prefecture_kana": "ヤマグチケン",
    "prefecture_code": "35",
    "city": "山口市",
    "city_kana": "ヤマグチシ",
    "town": "小郡光が丘",
    "town_kana": "オゴオリヒカリガオカ",
    "street": null,
    "office_name": null,
    "office_name_kana": null
  },
  "0121": {
    "zip_code": "7540121",
    "prefecture": "山口県",
    "prefecture_kana": "ヤマグチケン",
    "prefecture_code": "35",
    "city": "美祢市",
    "city_kana": "ミネシ",
    "town": "美東町長田",
    "town_kana": "ミトウチョウナガタ",
    "street": null,
    "office_name": null,
    "office_name_kana": null
  },
  "0122": {
    "zip_code": "7540122",
    "prefecture": "山口県",
    "prefecture_kana": "ヤマグチケン",
    "prefecture_code": "35",
    "city": "美祢市",
    "city_kana": "ミネシ",
    "town": "美東町真名",
    "town_kana": "ミトウチョウマナ",
    "street": null,
    "office_name": null,
    "office_name_kana": null
  },
  "0123": {
    "zip_code": "7540123",
    "prefecture": "山口県",
    "prefecture_kana": "ヤマグチケン",
    "prefecture_code": "35",
    "city": "美祢市",
    "city_kana": "ミネシ",
    "town": "美東町小野",
    "town_kana": "ミトウチョウオノ",
    "street": null,
    "office_name": null,
    "office_name_kana": null
  },
  "0211": {
    "zip_code": "7540211",
    "prefecture": "山口県",
    "prefecture_kana": "ヤマグチケン",
    "prefecture_code": "35",
    "city": "美祢市",
    "city_kana": "ミネシ",
    "town": "美東町大田",
    "town_kana": "ミトウチョウオオダ",
    "street": null,
    "office_name": null,
    "office_name_kana": null
  },
  "0212": {
    "zip_code": "7540212",
    "prefecture": "山口県",
    "prefecture_kana": "ヤマグチケン",
    "prefecture_code": "35",
    "city": "美祢市",
    "city_kana": "ミネシ",
    "town": "美東町綾木",
    "town_kana": "ミトウチョウアヤギ",
    "street": null,
    "office_name": null,
    "office_name_kana": null
  },
  "0213": {
    "zip_code": "7540213",
    "prefecture": "山口県",
    "prefecture_kana": "ヤマグチケン",
    "prefecture_code": "35",
    "city": "美祢市",
    "city_kana": "ミネシ",
    "town": "美東町長登",
    "town_kana": "ミトウチョウナガノボリ",
    "street": null,
    "office_name": null,
    "office_name_kana": null
  },
  "0214": {
    "zip_code": "7540214",
    "prefecture": "山口県",
    "prefecture_kana": "ヤマグチケン",
    "prefecture_code": "35",
    "city": "美祢市",
    "city_kana": "ミネシ",
    "town": "美東町",
    "town_kana": "ミトウチョウ",
    "street": null,
    "office_name": null,
    "office_name_kana": null
  },
  "0291": {
    "zip_code": "7540291",
    "prefecture": "山口県",
    "prefecture_kana": "ヤマグチケン",
    "prefecture_code": "35",
    "city": "美祢市",
    "city_kana": "ミネシ",
    "town": "美東町大田",
    "town_kana": "ミトウチョウオオダ",
    "street": "５９３６番地",
    "office_name": "美祢市　美東総合支所",
    "office_name_kana": "ミネシ ミトウソウゴウシシヨ"
  },
  "0301": {
    "zip_code": "7540301",
    "prefecture": "山口県",
    "prefecture_kana": "ヤマグチケン",
    "prefecture_code": "35",
    "city": "美祢市",
    "city_kana": "ミネシ",
    "town": "美東町絵堂",
    "town_kana": "ミトウチョウエドウ",
    "street": null,
    "office_name": null,
    "office_name_kana": null
  },
  "0302": {
    "zip_code": "7540302",
    "prefecture": "山口県",
    "prefecture_kana": "ヤマグチケン",
    "prefecture_code": "35",
    "city": "美祢市",
    "city_kana": "ミネシ",
    "town": "美東町赤",
    "town_kana": "ミトウチョウアカ",
    "street": null,
    "office_name": null,
    "office_name_kana": null
  },
  "0411": {
    "zip_code": "7540411",
    "prefecture": "山口県",
    "prefecture_kana": "ヤマグチケン",
    "prefecture_code": "35",
    "city": "萩市",
    "city_kana": "ハギシ",
    "town": "明木",
    "town_kana": "アキラギ",
    "street": null,
    "office_name": null,
    "office_name_kana": null
  },
  "0511": {
    "zip_code": "7540511",
    "prefecture": "山口県",
    "prefecture_kana": "ヤマグチケン",
    "prefecture_code": "35",
    "city": "美祢市",
    "city_kana": "ミネシ",
    "town": "秋芳町秋吉",
    "town_kana": "シュウホウチョウアキヨシ",
    "street": null,
    "office_name": null,
    "office_name_kana": null
  },
  "0512": {
    "zip_code": "7540512",
    "prefecture": "山口県",
    "prefecture_kana": "ヤマグチケン",
    "prefecture_code": "35",
    "city": "美祢市",
    "city_kana": "ミネシ",
    "town": "秋芳町岩永本郷",
    "town_kana": "シュウホウチョウイワナガホンゴウ",
    "street": null,
    "office_name": null,
    "office_name_kana": null
  },
  "0513": {
    "zip_code": "7540513",
    "prefecture": "山口県",
    "prefecture_kana": "ヤマグチケン",
    "prefecture_code": "35",
    "city": "美祢市",
    "city_kana": "ミネシ",
    "town": "秋芳町岩永下郷",
    "town_kana": "シュウホウチョウイワナガシモゴウ",
    "street": null,
    "office_name": null,
    "office_name_kana": null
  },
  "0514": {
    "zip_code": "7540514",
    "prefecture": "山口県",
    "prefecture_kana": "ヤマグチケン",
    "prefecture_code": "35",
    "city": "美祢市",
    "city_kana": "ミネシ",
    "town": "秋芳町",
    "town_kana": "シュウホウチョウ",
    "street": null,
    "office_name": null,
    "office_name_kana": null
  },
  "0601": {
    "zip_code": "7540601",
    "prefecture": "山口県",
    "prefecture_kana": "ヤマグチケン",
    "prefecture_code": "35",
    "city": "美祢市",
    "city_kana": "ミネシ",
    "town": "秋芳町嘉万",
    "town_kana": "シュウホウチョウカマ",
    "street": null,
    "office_name": null,
    "office_name_kana": null
  },
  "0602": {
    "zip_code": "7540602",
    "prefecture": "山口県",
    "prefecture_kana": "ヤマグチケン",
    "prefecture_code": "35",
    "city": "美祢市",
    "city_kana": "ミネシ",
    "town": "秋芳町青景",
    "town_kana": "シュウホウチョウアオカゲ",
    "street": null,
    "office_name": null,
    "office_name_kana": null
  },
  "0603": {
    "zip_code": "7540603",
    "prefecture": "山口県",
    "prefecture_kana": "ヤマグチケン",
    "prefecture_code": "35",
    "city": "美祢市",
    "city_kana": "ミネシ",
    "town": "秋芳町別府",
    "town_kana": "シュウホウチョウベップ",
    "street": null,
    "office_name": null,
    "office_name_kana": null
  },
  "0891": {
    "zip_code": "7540891",
    "prefecture": "山口県",
    "prefecture_kana": "ヤマグチケン",
    "prefecture_code": "35",
    "city": "山口市",
    "city_kana": "ヤマグチシ",
    "town": "陶",
    "town_kana": "スエ",
    "street": null,
    "office_name": null,
    "office_name_kana": null
  },
  "0892": {
    "zip_code": "7540892",
    "prefecture": "山口県",
    "prefecture_kana": "ヤマグチケン",
    "prefecture_code": "35",
    "city": "山口市",
    "city_kana": "ヤマグチシ",
    "town": "名田島",
    "town_kana": "ナタジマ",
    "street": null,
    "office_name": null,
    "office_name_kana": null
  },
  "0893": {
    "zip_code": "7540893",
    "prefecture": "山口県",
    "prefecture_kana": "ヤマグチケン",
    "prefecture_code": "35",
    "city": "山口市",
    "city_kana": "ヤマグチシ",
    "town": "秋穂二島",
    "town_kana": "アイオフタジマ",
    "street": null,
    "office_name": null,
    "office_name_kana": null
  },
  "0894": {
    "zip_code": "7540894",
    "prefecture": "山口県",
    "prefecture_kana": "ヤマグチケン",
    "prefecture_code": "35",
    "city": "山口市",
    "city_kana": "ヤマグチシ",
    "town": "佐山",
    "town_kana": "サヤマ",
    "street": null,
    "office_name": null,
    "office_name_kana": null
  },
  "0895": {
    "zip_code": "7540895",
    "prefecture": "山口県",
    "prefecture_kana": "ヤマグチケン",
    "prefecture_code": "35",
    "city": "山口市",
    "city_kana": "ヤマグチシ",
    "town": "深溝",
    "town_kana": "フカミゾ",
    "street": null,
    "office_name": null,
    "office_name_kana": null
  },
  "0896": {
    "zip_code": "7540896",
    "prefecture": "山口県",
    "prefecture_kana": "ヤマグチケン",
    "prefecture_code": "35",
    "city": "山口市",
    "city_kana": "ヤマグチシ",
    "town": "江崎",
    "town_kana": "エザキ",
    "street": null,
    "office_name": null,
    "office_name_kana": null
  },
  "0897": {
    "zip_code": "7540897",
    "prefecture": "山口県",
    "prefecture_kana": "ヤマグチケン",
    "prefecture_code": "35",
    "city": "山口市",
    "city_kana": "ヤマグチシ",
    "town": "嘉川",
    "town_kana": "カガワ",
    "street": null,
    "office_name": null,
    "office_name_kana": null
  },
  "1101": {
    "zip_code": "7541101",
    "prefecture": "山口県",
    "prefecture_kana": "ヤマグチケン",
    "prefecture_code": "35",
    "city": "山口市",
    "city_kana": "ヤマグチシ",
    "town": "秋穂東",
    "town_kana": "アイオヒガシ",
    "street": null,
    "office_name": null,
    "office_name_kana": null
  },
  "1102": {
    "zip_code": "7541102",
    "prefecture": "山口県",
    "prefecture_kana": "ヤマグチケン",
    "prefecture_code": "35",
    "city": "山口市",
    "city_kana": "ヤマグチシ",
    "town": "秋穂西",
    "town_kana": "アイオニシ",
    "street": null,
    "office_name": null,
    "office_name_kana": null
  },
  "1192": {
    "zip_code": "7541192",
    "prefecture": "山口県",
    "prefecture_kana": "ヤマグチケン",
    "prefecture_code": "35",
    "city": "山口市",
    "city_kana": "ヤマグチシ",
    "town": "秋穂東",
    "town_kana": "アイオヒガシ",
    "street": "６５７０",
    "office_name": "山口市　秋穂総合支所",
    "office_name_kana": "ヤマグチシ アイオソウゴウシシヨ"
  },
  "1193": {
    "zip_code": "7541193",
    "prefecture": "山口県",
    "prefecture_kana": "ヤマグチケン",
    "prefecture_code": "35",
    "city": "山口市",
    "city_kana": "ヤマグチシ",
    "town": "秋穂東",
    "town_kana": "アイオヒガシ",
    "street": "３５０２",
    "office_name": "東洋ヒューム管　株式会社",
    "office_name_kana": "トウヨウヒユ-ムカン カブシキガイシヤ"
  },
  "1277": {
    "zip_code": "7541277",
    "prefecture": "山口県",
    "prefecture_kana": "ヤマグチケン",
    "prefecture_code": "35",
    "city": "山口市",
    "city_kana": "ヤマグチシ",
    "town": "阿知須",
    "town_kana": "アジス",
    "street": null,
    "office_name": null,
    "office_name_kana": null
  },
  "1292": {
    "zip_code": "7541292",
    "prefecture": "山口県",
    "prefecture_kana": "ヤマグチケン",
    "prefecture_code": "35",
    "city": "山口市",
    "city_kana": "ヤマグチシ",
    "town": "阿知須",
    "town_kana": "アジス",
    "street": "２７４３",
    "office_name": "山口市　阿知須総合支所",
    "office_name_kana": "ヤマグチシ アジスソウゴウシシヨ"
  },
  "1311": {
    "zip_code": "7541311",
    "prefecture": "山口県",
    "prefecture_kana": "ヤマグチケン",
    "prefecture_code": "35",
    "city": "宇部市",
    "city_kana": "ウベシ",
    "town": "小野",
    "town_kana": "オノ",
    "street": null,
    "office_name": null,
    "office_name_kana": null
  },
  "1312": {
    "zip_code": "7541312",
    "prefecture": "山口県",
    "prefecture_kana": "ヤマグチケン",
    "prefecture_code": "35",
    "city": "宇部市",
    "city_kana": "ウベシ",
    "town": "棯小野",
    "town_kana": "ウツギオノ",
    "street": null,
    "office_name": null,
    "office_name_kana": null
  },
  "1313": {
    "zip_code": "7541313",
    "prefecture": "山口県",
    "prefecture_kana": "ヤマグチケン",
    "prefecture_code": "35",
    "city": "宇部市",
    "city_kana": "ウベシ",
    "town": "藤河内",
    "town_kana": "フジゴウチ",
    "street": null,
    "office_name": null,
    "office_name_kana": null
  },
  "1314": {
    "zip_code": "7541314",
    "prefecture": "山口県",
    "prefecture_kana": "ヤマグチケン",
    "prefecture_code": "35",
    "city": "宇部市",
    "city_kana": "ウベシ",
    "town": "櫟原",
    "town_kana": "イチイバラ",
    "street": null,
    "office_name": null,
    "office_name_kana": null
  },
  "1315": {
    "zip_code": "7541315",
    "prefecture": "山口県",
    "prefecture_kana": "ヤマグチケン",
    "prefecture_code": "35",
    "city": "宇部市",
    "city_kana": "ウベシ",
    "town": "如意寺",
    "town_kana": "ニョイジ",
    "street": null,
    "office_name": null,
    "office_name_kana": null
  },
  "8501": {
    "zip_code": "7548501",
    "prefecture": "山口県",
    "prefecture_kana": "ヤマグチケン",
    "prefecture_code": "35",
    "city": "山口市",
    "city_kana": "ヤマグチシ",
    "town": "小郡下郷",
    "town_kana": "オゴオリシモゴウ",
    "street": "９４５−２",
    "office_name": "山口トヨタ自動車　株式会社",
    "office_name_kana": "ヤマグチトヨタジドウシヤ カブシキガイシヤ"
  },
  "8511": {
    "zip_code": "7548511",
    "prefecture": "山口県",
    "prefecture_kana": "ヤマグチケン",
    "prefecture_code": "35",
    "city": "山口市",
    "city_kana": "ヤマグチシ",
    "town": "小郡下郷",
    "town_kana": "オゴオリシモゴウ",
    "street": "６０９−１",
    "office_name": "山口市小郡総合支所",
    "office_name_kana": "ヤマグチシオゴオリソウゴウシシヨ"
  },
  "8522": {
    "zip_code": "7548522",
    "prefecture": "山口県",
    "prefecture_kana": "ヤマグチケン",
    "prefecture_code": "35",
    "city": "山口市",
    "city_kana": "ヤマグチシ",
    "town": "小郡下郷",
    "town_kana": "オゴオリシモゴウ",
    "street": "３１２−２山本ビル第３",
    "office_name": "全国健康保険協会　山口支部",
    "office_name_kana": "ゼンコクケンコウホケンキヨウカイ ヤマグチシブ"
  },
  "8535": {
    "zip_code": "7548535",
    "prefecture": "山口県",
    "prefecture_kana": "ヤマグチケン",
    "prefecture_code": "35",
    "city": "山口市",
    "city_kana": "ヤマグチシ",
    "town": "小郡下郷",
    "town_kana": "オゴオリシモゴウ",
    "street": "２１３９",
    "office_name": "山口県　共済農業協同組合連合会",
    "office_name_kana": "ヤマグチケン キヨウサイノウギヨウキヨウドウクミアイレンゴウカイ"
  },
  "8555": {
    "zip_code": "7548555",
    "prefecture": "山口県",
    "prefecture_kana": "ヤマグチケン",
    "prefecture_code": "35",
    "city": "山口市",
    "city_kana": "ヤマグチシ",
    "town": "小郡下郷",
    "town_kana": "オゴオリシモゴウ",
    "street": "２１３９",
    "office_name": "山口県　経済農業協同組合連合会",
    "office_name_kana": "ヤマグチケン ケイザイノウギヨウキヨウドウクミアイレンゴウカイ"
  },
  "8585": {
    "zip_code": "7548585",
    "prefecture": "山口県",
    "prefecture_kana": "ヤマグチケン",
    "prefecture_code": "35",
    "city": "山口市",
    "city_kana": "ヤマグチシ",
    "town": "小郡下郷",
    "town_kana": "オゴオリシモゴウ",
    "street": "２１３９",
    "office_name": "山口県　農業協同組合中央会",
    "office_name_kana": "ヤマグチケン ノウギヨウキヨウドウクミアイチユウオウカイ"
  },
  "8601": {
    "zip_code": "7548601",
    "prefecture": "山口県",
    "prefecture_kana": "ヤマグチケン",
    "prefecture_code": "35",
    "city": "山口市",
    "city_kana": "ヤマグチシ",
    "town": "小郡下郷",
    "town_kana": "オゴオリシモゴウ",
    "street": "２３２２−１",
    "office_name": "三菱ふそうトラック・バス　株式会社　山口ふそう",
    "office_name_kana": "ミツビシフソウトラツク・バス カブシキガイシヤ ヤマグチフソウ"
  },
  "8610": {
    "zip_code": "7548610",
    "prefecture": "山口県",
    "prefecture_kana": "ヤマグチケン",
    "prefecture_code": "35",
    "city": "山口市",
    "city_kana": "ヤマグチシ",
    "town": "小郡下郷",
    "town_kana": "オゴオリシモゴウ",
    "street": "１２０１（小郡郵便局私書箱第２８号）",
    "office_name": "吉南信用金庫　本店",
    "office_name_kana": "キチナンシンヨウキンコ ホンテン"
  },
  "8611": {
    "zip_code": "7548611",
    "prefecture": "山口県",
    "prefecture_kana": "ヤマグチケン",
    "prefecture_code": "35",
    "city": "山口市",
    "city_kana": "ヤマグチシ",
    "town": "小郡下郷",
    "town_kana": "オゴオリシモゴウ",
    "street": "２１３９（小郡郵便局私書箱第５５号）",
    "office_name": "山口県信用農業協同組合　連合会",
    "office_name_kana": "ヤマグチケンシンヨウノウギヨウキヨウドウクミアイ レンゴウカイ"
  }
}