{
  "0001": {
    "zip_code": "7570001",
    "prefecture": "山口県",
    "prefecture_kana": "ヤマグチケン",
    "prefecture_code": 35,
    "city": "山陽小野田市",
    "city_kana": "サンヨウオノダシ",
    "town": "厚狭",
    "town_kana": "アサ",
    "street": null,
    "office_name": null,
    "office_name_kana": null
  },
  "0002": {
    "zip_code": "7570002",
    "prefecture": "山口県",
    "prefecture_kana": "ヤマグチケン",
    "prefecture_code": 35,
    "city": "山陽小野田市",
    "city_kana": "サンヨウオノダシ",
    "town": "郡",
    "town_kana": "コオリ",
    "street": null,
    "office_name": null,
    "office_name_kana": null
  },
  "0003": {
    "zip_code": "7570003",
    "prefecture": "山口県",
    "prefecture_kana": "ヤマグチケン",
    "prefecture_code": 35,
    "city": "山陽小野田市",
    "city_kana": "サンヨウオノダシ",
    "town": "山野井",
    "town_kana": "ヤマノイ",
    "street": null,
    "office_name": null,
    "office_name_kana": null
  },
  "0004": {
    "zip_code": "7570004",
    "prefecture": "山口県",
    "prefecture_kana": "ヤマグチケン",
    "prefecture_code": 35,
    "city": "山陽小野田市",
    "city_kana": "サンヨウオノダシ",
    "town": "山川",
    "town_kana": "ヤマカワ",
    "street": null,
    "office_name": null,
    "office_name_kana": null
  },
  "0005": {
    "zip_code": "7570005",
    "prefecture": "山口県",
    "prefecture_kana": "ヤマグチケン",
    "prefecture_code": 35,
    "city": "山陽小野田市",
    "city_kana": "サンヨウオノダシ",
    "town": "鴨庄",
    "town_kana": "カモノショウ",
    "street": null,
    "office_name": null,
    "office_name_kana": null
  },
  "0006": {
    "zip_code": "7570006",
    "prefecture": "山口県",
    "prefecture_kana": "ヤマグチケン",
    "prefecture_code": 35,
    "city": "山陽小野田市",
    "city_kana": "サンヨウオノダシ",
    "town": "桜",
    "town_kana": "サクラ",
    "street": null,
    "office_name": null,
    "office_name_kana": null
  },
  "0011": {
    "zip_code": "7570011",
    "prefecture": "山口県",
    "prefecture_kana": "ヤマグチケン",
    "prefecture_code": 35,
    "city": "山陽小野田市",
    "city_kana": "サンヨウオノダシ",
    "town": "津布田",
    "town_kana": "ツブタ",
    "street": null,
    "office_name": null,
    "office_name_kana": null
  },
  "0012": {
    "zip_code": "7570012",
    "prefecture": "山口県",
    "prefecture_kana": "ヤマグチケン",
    "prefecture_code": 35,
    "city": "山陽小野田市",
    "city_kana": "サンヨウオノダシ",
    "town": "埴生",
    "town_kana": "ハブ",
    "street": null,
    "office_name": null,
    "office_name_kana": null
  },
  "0013": {
    "zip_code": "7570013",
    "prefecture": "山口県",
    "prefecture_kana": "ヤマグチケン",
    "prefecture_code": 35,
    "city": "山陽小野田市",
    "city_kana": "サンヨウオノダシ",
    "town": "福田",
    "town_kana": "フクダ",
    "street": null,
    "office_name": null,
    "office_name_kana": null
  },
  "0211": {
    "zip_code": "7570211",
    "prefecture": "山口県",
    "prefecture_kana": "ヤマグチケン",
    "prefecture_code": 35,
    "city": "宇部市",
    "city_kana": "ウベシ",
    "town": "芦河内",
    "town_kana": "アシガワチ",
    "street": null,
    "office_name": null,
    "office_name_kana": null
  },
  "0212": {
    "zip_code": "7570212",
    "prefecture": "山口県",
    "prefecture_kana": "ヤマグチケン",
    "prefecture_code": 35,
    "city": "宇部市",
    "city_kana": "ウベシ",
    "town": "今富",
    "town_kana": "イマドミ",
    "street": null,
    "office_name": null,
    "office_name_kana": null
  },
  "0213": {
    "zip_code": "7570213",
    "prefecture": "山口県",
    "prefecture_kana": "ヤマグチケン",
    "prefecture_code": 35,
    "city": "宇部市",
    "city_kana": "ウベシ",
    "town": "奥万倉",
    "town_kana": "オクマグラ",
    "street": null,
    "office_name": null,
    "office_name_kana": null
  },
  "0214": {
    "zip_code": "7570214",
    "prefecture": "山口県",
    "prefecture_kana": "ヤマグチケン",
    "prefecture_code": 35,
    "city": "宇部市",
    "city_kana": "ウベシ",
    "town": "西万倉",
    "town_kana": "ニシマグラ",
    "street": null,
    "office_name": null,
    "office_name_kana": null
  },
  "0215": {
    "zip_code": "7570215",
    "prefecture": "山口県",
    "prefecture_kana": "ヤマグチケン",
    "prefecture_code": 35,
    "city": "宇部市",
    "city_kana": "ウベシ",
    "town": "東万倉",
    "town_kana": "ヒガシマグラ",
    "street": null,
    "office_name": null,
    "office_name_kana": null
  },
  "0216": {
    "zip_code": "7570216",
    "prefecture": "山口県",
    "prefecture_kana": "ヤマグチケン",
    "prefecture_code": 35,
    "city": "宇部市",
    "city_kana": "ウベシ",
    "town": "船木",
    "town_kana": "フナキ",
    "street": null,
    "office_name": null,
    "office_name_kana": null
  },
  "0217": {
    "zip_code": "7570217",
    "prefecture": "山口県",
    "prefecture_kana": "ヤマグチケン",
    "prefecture_code": 35,
    "city": "宇部市",
    "city_kana": "ウベシ",
    "town": "矢矯",
    "town_kana": "ヤハギ",
    "street": null,
    "office_name": null,
    "office_name_kana": null
  },
  "0292": {
    "zip_code": "7570292",
    "prefecture": "山口県",
    "prefecture_kana": null,
    "prefecture_code": null,
    "city": "宇部市",
    "city_kana": null,
    "town": "大字船木",
    "town_kana": null,
    "street": "３６５−１",
    "office_name": "宇部市　楠総合支所",
    "office_name_kana": "ウベシ クスノキソウゴウシシヨ"
  },
  "0298": {
    "zip_code": "7570298",
    "prefecture": "山口県",
    "prefecture_kana": null,
    "prefecture_code": null,
    "city": "宇部市",
    "city_kana": null,
    "town": "大字東万倉",
    "town_kana": null,
    "street": "神元１９２−３",
    "office_name": "山口日本電気　株式会社",
    "office_name_kana": "ヤマグチニホンデンキ カブシキガイシヤ"
  },
  "0401": {
    "zip_code": "7570401",
    "prefecture": "山口県",
    "prefecture_kana": "ヤマグチケン",
    "prefecture_code": 35,
    "city": "宇部市",
    "city_kana": "ウベシ",
    "town": "東吉部",
    "town_kana": "ヒガシキベ",
    "street": null,
    "office_name": null,
    "office_name_kana": null
  },
  "0402": {
    "zip_code": "7570402",
    "prefecture": "山口県",
    "prefecture_kana": "ヤマグチケン",
    "prefecture_code": 35,
    "city": "宇部市",
    "city_kana": "ウベシ",
    "town": "西吉部",
    "town_kana": "ニシキベ",
    "street": null,
    "office_name": null,
    "office_name_kana": null
  },
  "8511": {
    "zip_code": "7578511",
    "prefecture": "山口県",
    "prefecture_kana": "ヤマグチケン",
    "prefecture_code": 35,
    "city": "山陽小野田市",
    "city_kana": "サンヨウオノダシ",
    "town": "",
    "town_kana": "",
    "street": "新山野井３７４０",
    "office_name": "長州産業　株式会社",
    "office_name_kana": "チヨウシユウサンギヨウ カブシキガイシヤ"
  },
  "8585": {
    "zip_code": "7578585",
    "prefecture": "山口県",
    "prefecture_kana": null,
    "prefecture_code": null,
    "city": "山陽小野田市",
    "city_kana": null,
    "town": "大字厚狭",
    "town_kana": null,
    "street": "本町五区",
    "office_name": "ＦＤＫ　株式会社　山陽工場",
    "office_name_kana": "エフ・デイ-・ケイ カブシキガイシヤ サンヨウコウジヨウ"
  },
  "8634": {
    "zip_code": "7578634",
    "prefecture": "山口県",
    "prefecture_kana": null,
    "prefecture_code": null,
    "city": "山陽小野田市",
    "city_kana": null,
    "town": "大字鴨庄",
    "town_kana": null,
    "street": "９４",
    "office_name": "山陽小野田市　山陽総合事務所",
    "office_name_kana": "サンヨウオノダシ サンヨウソウゴウジムシヨ"
  },
  "8686": {
    "zip_code": "7578686",
    "prefecture": "山口県",
    "prefecture_kana": null,
    "prefecture_code": null,
    "city": "山陽小野田市",
    "city_kana": null,
    "town": "大字郡",
    "town_kana": null,
    "street": "２３００（厚狭郵便局私書箱第１号）",
    "office_name": "日本化薬　株式会社　厚狭工場",
    "office_name_kana": "ニホンカヤク カブシキガイシヤ アサコウジヨウ"
  }
}