{
  "0000": {
    "zip_code": "7620000",
    "prefecture": "香川県",
    "prefecture_kana": "カガワケン",
    "prefecture_code": "37",
    "city": "坂出市",
    "city_kana": "サカイデシ",
    "town": "",
    "town_kana": "",
    "street": null,
    "office_name": null,
    "office_name_kana": null
  },
  "0001": {
    "zip_code": "7620001",
    "prefecture": "香川県",
    "prefecture_kana": "カガワケン",
    "prefecture_code": "37",
    "city": "坂出市",
    "city_kana": "サカイデシ",
    "town": "京町",
    "town_kana": "キョウマチ",
    "street": null,
    "office_name": null,
    "office_name_kana": null
  },
  "0002": {
    "zip_code": "7620002",
    "prefecture": "香川県",
    "prefecture_kana": "カガワケン",
    "prefecture_code": "37",
    "city": "坂出市",
    "city_kana": "サカイデシ",
    "town": "入船町",
    "town_kana": "イリフネチョウ",
    "street": null,
    "office_name": null,
    "office_name_kana": null
  },
  "0003": {
    "zip_code": "7620003",
    "prefecture": "香川県",
    "prefecture_kana": "カガワケン",
    "prefecture_code": "37",
    "city": "坂出市",
    "city_kana": "サカイデシ",
    "town": "久米町",
    "town_kana": "クメチョウ",
    "street": null,
    "office_name": null,
    "office_name_kana": null
  },
  "0004": {
    "zip_code": "7620004",
    "prefecture": "香川県",
    "prefecture_kana": "カガワケン",
    "prefecture_code": "37",
    "city": "坂出市",
    "city_kana": "サカイデシ",
    "town": "昭和町",
    "town_kana": "ショウワチョウ",
    "street": null,
    "office_name": null,
    "office_name_kana": null
  },
  "0005": {
    "zip_code": "7620005",
    "prefecture": "香川県",
    "prefecture_kana": "カガワケン",
    "prefecture_code": "37",
    "city": "坂出市",
    "city_kana": "サカイデシ",
    "town": "横津町",
    "town_kana": "ヨコヅチョウ",
    "street": null,
    "office_name": null,
    "office_name_kana": null
  },
  "0006": {
    "zip_code": "7620006",
    "prefecture": "香川県",
    "prefecture_kana": "カガワケン",
    "prefecture_code": "37",
    "city": "坂出市",
    "city_kana": "サカイデシ",
    "town": "旭町",
    "town_kana": "アサヒチョウ",
    "street": null,
    "office_name": null,
    "office_name_kana": null
  },
  "0007": {
    "zip_code": "7620007",
    "prefecture": "香川県",
    "prefecture_kana": "カガワケン",
    "prefecture_code": "37",
    "city": "坂出市",
    "city_kana": "サカイデシ",
    "town": "室町",
    "town_kana": "ムロマチ",
    "street": null,
    "office_name": null,
    "office_name_kana": null
  },
  "0011": {
    "zip_code": "7620011",
    "prefecture": "香川県",
    "prefecture_kana": "カガワケン",
    "prefecture_code": "37",
    "city": "坂出市",
    "city_kana": "サカイデシ",
    "town": "江尻町",
    "town_kana": "エジリチョウ",
    "street": null,
    "office_name": null,
    "office_name_kana": null
  },
  "0012": {
    "zip_code": "7620012",
    "prefecture": "香川県",
    "prefecture_kana": "カガワケン",
    "prefecture_code": "37",
    "city": "坂出市",
    "city_kana": "サカイデシ",
    "town": "林田町",
    "town_kana": "ハヤシダチョウ",
    "street": null,
    "office_name": null,
    "office_name_kana": null
  },
  "0013": {
    "zip_code": "7620013",
    "prefecture": "香川県",
    "prefecture_kana": "カガワケン",
    "prefecture_code": "37",
    "city": "坂出市",
    "city_kana": "サカイデシ",
    "town": "王越町乃生",
    "town_kana": "オウゴシチョウノウ",
    "street": null,
    "office_name": null,
    "office_name_kana": null
  },
  "0014": {
    "zip_code": "7620014",
    "prefecture": "香川県",
    "prefecture_kana": "カガワケン",
    "prefecture_code": "37",
    "city": "坂出市",
    "city_kana": "サカイデシ",
    "town": "王越町木沢",
    "town_kana": "オウゴシチョウキサワ",
    "street": null,
    "office_name": null,
    "office_name_kana": null
  },
  "0015": {
    "zip_code": "7620015",
    "prefecture": "香川県",
    "prefecture_kana": "カガワケン",
    "prefecture_code": "37",
    "city": "坂出市",
    "city_kana": "サカイデシ",
    "town": "大屋冨町",
    "town_kana": "オオヤブチョウ",
    "street": null,
    "office_name": null,
    "office_name_kana": null
  },
  "0016": {
    "zip_code": "7620016",
    "prefecture": "香川県",
    "prefecture_kana": "カガワケン",
    "prefecture_code": "37",
    "city": "坂出市",
    "city_kana": "サカイデシ",
    "town": "青海町",
    "town_kana": "オウミチョウ",
    "street": null,
    "office_name": null,
    "office_name_kana": null
  },
  "0017": {
    "zip_code": "7620017",
    "prefecture": "香川県",
    "prefecture_kana": "カガワケン",
    "prefecture_code": "37",
    "city": "坂出市",
    "city_kana": "サカイデシ",
    "town": "高屋町",
    "town_kana": "タカヤチョウ",
    "street": null,
    "office_name": null,
    "office_name_kana": null
  },
  "0018": {
    "zip_code": "7620018",
    "prefecture": "香川県",
    "prefecture_kana": "カガワケン",
    "prefecture_code": "37",
    "city": "坂出市",
    "city_kana": "サカイデシ",
    "town": "神谷町",
    "town_kana": "カンダニチョウ",
    "street": null,
    "office_name": null,
    "office_name_kana": null
  },
  "0021": {
    "zip_code": "7620021",
    "prefecture": "香川県",
    "prefecture_kana": "カガワケン",
    "prefecture_code": "37",
    "city": "坂出市",
    "city_kana": "サカイデシ",
    "town": "西庄町",
    "town_kana": "ニシノショウチョウ",
    "street": null,
    "office_name": null,
    "office_name_kana": null
  },
  "0022": [
    {
      "zip_code": "7620022",
      "prefecture": "香川県",
      "prefecture_kana": "カガワケン",
      "prefecture_code": "37",
      "city": "坂出市",
      "city_kana": "サカイデシ",
      "town": "加茂町甲",
      "town_kana": "カモチョウコウ",
      "street": null,
      "office_name": null,
      "office_name_kana": null
    },
    {
      "zip_code": "7620022",
      "prefecture": "香川県",
      "prefecture_kana": "カガワケン",
      "prefecture_code": "37",
      "city": "坂出市",
      "city_kana": "サカイデシ",
      "town": "加茂町甲氏部",
      "town_kana": "カモチョウコウウジベ",
      "street": null,
      "office_name": null,
      "office_name_kana": null
    }
  ],
  "0023": {
    "zip_code": "7620023",
    "prefecture": "香川県",
    "prefecture_kana": "カガワケン",
    "prefecture_code": "37",
    "city": "坂出市",
    "city_kana": "サカイデシ",
    "town": "加茂町",
    "town_kana": "カモチョウ",
    "street": null,
    "office_name": null,
    "office_name_kana": null
  },
  "0024": {
    "zip_code": "7620024",
    "prefecture": "香川県",
    "prefecture_kana": "カガワケン",
    "prefecture_code": "37",
    "city": "坂出市",
    "city_kana": "サカイデシ",
    "town": "府中町",
    "town_kana": "フチュウチョウ",
    "street": null,
    "office_name": null,
    "office_name_kana": null
  },
  "0025": {
    "zip_code": "7620025",
    "prefecture": "香川県",
    "prefecture_kana": "カガワケン",
    "prefecture_code": "37",
    "city": "坂出市",
    "city_kana": "サカイデシ",
    "town": "川津町",
    "town_kana": "カワツチョウ",
    "street": null,
    "office_name": null,
    "office_name_kana": null
  },
  "0026": {
    "zip_code": "7620026",
    "prefecture": "香川県",
    "prefecture_kana": "カガワケン",
    "prefecture_code": "37",
    "city": "坂出市",
    "city_kana": "サカイデシ",
    "town": "小山町",
    "town_kana": "コヤマチョウ",
    "street": null,
    "office_name": null,
    "office_name_kana": null
  },
  "0027": {
    "zip_code": "7620027",
    "prefecture": "香川県",
    "prefecture_kana": "カガワケン",
    "prefecture_code": "37",
    "city": "坂出市",
    "city_kana": "サカイデシ",
    "town": "大池町",
    "town_kana": "オオイケチョウ",
    "street": null,
    "office_name": null,
    "office_name_kana": null
  },
  "0031": {
    "zip_code": "7620031",
    "prefecture": "香川県",
    "prefecture_kana": "カガワケン",
    "prefecture_code": "37",
    "city": "坂出市",
    "city_kana": "サカイデシ",
    "town": "文京町",
    "town_kana": "ブンキョウチョウ",
    "street": null,
    "office_name": null,
    "office_name_kana": null
  },
  "0032": {
    "zip_code": "7620032",
    "prefecture": "香川県",
    "prefecture_kana": "カガワケン",
    "prefecture_code": "37",
    "city": "坂出市",
    "city_kana": "サカイデシ",
    "town": "駒止町",
    "town_kana": "コマドメチョウ",
    "street": null,
    "office_name": null,
    "office_name_kana": null
  },
  "0033": {
    "zip_code": "7620033",
    "prefecture": "香川県",
    "prefecture_kana": "カガワケン",
    "prefecture_code": "37",
    "city": "坂出市",
    "city_kana": "サカイデシ",
    "town": "谷町",
    "town_kana": "タニマチ",
    "street": null,
    "office_name": null,
    "office_name_kana": null
  },
  "0034": {
    "zip_code": "7620034",
    "prefecture": "香川県",
    "prefecture_kana": "カガワケン",
    "prefecture_code": "37",
    "city": "坂出市",
    "city_kana": "サカイデシ",
    "town": "福江町",
    "town_kana": "フクエチョウ",
    "street": null,
    "office_name": null,
    "office_name_kana": null
  },
  "0035": {
    "zip_code": "7620035",
    "prefecture": "香川県",
    "prefecture_kana": "カガワケン",
    "prefecture_code": "37",
    "city": "坂出市",
    "city_kana": "サカイデシ",
    "town": "池園町",
    "town_kana": "イケゾノチョウ",
    "street": null,
    "office_name": null,
    "office_name_kana": null
  },
  "0036": {
    "zip_code": "7620036",
    "prefecture": "香川県",
    "prefecture_kana": "カガワケン",
    "prefecture_code": "37",
    "city": "坂出市",
    "city_kana": "サカイデシ",
    "town": "花町",
    "town_kana": "ハナマチ",
    "street": null,
    "office_name": null,
    "office_name_kana": null
  },
  "0037": {
    "zip_code": "7620037",
    "prefecture": "香川県",
    "prefecture_kana": "カガワケン",
    "prefecture_code": "37",
    "city": "坂出市",
    "city_kana": "サカイデシ",
    "town": "青葉町",
    "town_kana": "アオバチョウ",
    "street": null,
    "office_name": null,
    "office_name_kana": null
  },
  "0038": {
    "zip_code": "7620038",
    "prefecture": "香川県",
    "prefecture_kana": "カガワケン",
    "prefecture_code": "37",
    "city": "坂出市",
    "city_kana": "サカイデシ",
    "town": "笠指町",
    "town_kana": "カザシチョウ",
    "street": null,
    "office_name": null,
    "office_name_kana": null
  },
  "0041": {
    "zip_code": "7620041",
    "prefecture": "香川県",
    "prefecture_kana": "カガワケン",
    "prefecture_code": "37",
    "city": "坂出市",
    "city_kana": "サカイデシ",
    "town": "八幡町",
    "town_kana": "ハチマンチョウ",
    "street": null,
    "office_name": null,
    "office_name_kana": null
  },
  "0042": {
    "zip_code": "7620042",
    "prefecture": "香川県",
    "prefecture_kana": "カガワケン",
    "prefecture_code": "37",
    "city": "坂出市",
    "city_kana": "サカイデシ",
    "town": "白金町",
    "town_kana": "シロガネチョウ",
    "street": null,
    "office_name": null,
    "office_name_kana": null
  },
  "0043": {
    "zip_code": "7620043",
    "prefecture": "香川県",
    "prefecture_kana": "カガワケン",
    "prefecture_code": "37",
    "city": "坂出市",
    "city_kana": "サカイデシ",
    "town": "寿町",
    "town_kana": "コトブキチョウ",
    "street": null,
    "office_name": null,
    "office_name_kana": null
  },
  "0044": {
    "zip_code": "7620044",
    "prefecture": "香川県",
    "prefecture_kana": "カガワケン",
    "prefecture_code": "37",
    "city": "坂出市",
    "city_kana": "サカイデシ",
    "town": "本町",
    "town_kana": "ホンマチ",
    "street": null,
    "office_name": null,
    "office_name_kana": null
  },
  "0045": {
    "zip_code": "7620045",
    "prefecture": "香川県",
    "prefecture_kana": "カガワケン",
    "prefecture_code": "37",
    "city": "坂出市",
    "city_kana": "サカイデシ",
    "town": "元町",
    "town_kana": "モトマチ",
    "street": null,
    "office_name": null,
    "office_name_kana": null
  },
  "0046": {
    "zip_code": "7620046",
    "prefecture": "香川県",
    "prefecture_kana": "カガワケン",
    "prefecture_code": "37",
    "city": "坂出市",
    "city_kana": "サカイデシ",
    "town": "富士見町",
    "town_kana": "フジミチョウ",
    "street": null,
    "office_name": null,
    "office_name_kana": null
  },
  "0047": {
    "zip_code": "7620047",
    "prefecture": "香川県",
    "prefecture_kana": "カガワケン",
    "prefecture_code": "37",
    "city": "坂出市",
    "city_kana": "サカイデシ",
    "town": "新浜町",
    "town_kana": "シンハマチョウ",
    "street": null,
    "office_name": null,
    "office_name_kana": null
  },
  "0051": {
    "zip_code": "7620051",
    "prefecture": "香川県",
    "prefecture_kana": "カガワケン",
    "prefecture_code": "37",
    "city": "坂出市",
    "city_kana": "サカイデシ",
    "town": "御供所町",
    "town_kana": "ゴブショチョウ",
    "street": null,
    "office_name": null,
    "office_name_kana": null
  },
  "0052": {
    "zip_code": "7620052",
    "prefecture": "香川県",
    "prefecture_kana": "カガワケン",
    "prefecture_code": "37",
    "city": "坂出市",
    "city_kana": "サカイデシ",
    "town": "沖の浜",
    "town_kana": "オキノハマ",
    "street": null,
    "office_name": null,
    "office_name_kana": null
  },
  "0053": {
    "zip_code": "7620053",
    "prefecture": "香川県",
    "prefecture_kana": "カガワケン",
    "prefecture_code": "37",
    "city": "坂出市",
    "city_kana": "サカイデシ",
    "town": "西大浜北",
    "town_kana": "ニシオオハマキタ",
    "street": null,
    "office_name": null,
    "office_name_kana": null
  },
  "0054": {
    "zip_code": "7620054",
    "prefecture": "香川県",
    "prefecture_kana": "カガワケン",
    "prefecture_code": "37",
    "city": "坂出市",
    "city_kana": "サカイデシ",
    "town": "西大浜南",
    "town_kana": "ニシオオハマミナミ",
    "street": null,
    "office_name": null,
    "office_name_kana": null
  },
  "0055": {
    "zip_code": "7620055",
    "prefecture": "香川県",
    "prefecture_kana": "カガワケン",
    "prefecture_code": "37",
    "city": "坂出市",
    "city_kana": "サカイデシ",
    "town": "築港町",
    "town_kana": "チッコウチョウ",
    "street": null,
    "office_name": null,
    "office_name_kana": null
  },
  "0056": {
    "zip_code": "7620056",
    "prefecture": "香川県",
    "prefecture_kana": "カガワケン",
    "prefecture_code": "37",
    "city": "坂出市",
    "city_kana": "サカイデシ",
    "town": "中央町",
    "town_kana": "チュウオウチョウ",
    "street": null,
    "office_name": null,
    "office_name_kana": null
  },
  "0057": {
    "zip_code": "7620057",
    "prefecture": "香川県",
    "prefecture_kana": "カガワケン",
    "prefecture_code": "37",
    "city": "坂出市",
    "city_kana": "サカイデシ",
    "town": "宮下町",
    "town_kana": "ミヤシタチョウ",
    "street": null,
    "office_name": null,
    "office_name_kana": null
  },
  "0058": {
    "zip_code": "7620058",
    "prefecture": "香川県",
    "prefecture_kana": "カガワケン",
    "prefecture_code": "37",
    "city": "坂出市",
    "city_kana": "サカイデシ",
    "town": "常盤町",
    "town_kana": "トキワチョウ",
    "street": null,
    "office_name": null,
    "office_name_kana": null
  },
  "0061": {
    "zip_code": "7620061",
    "prefecture": "香川県",
    "prefecture_kana": "カガワケン",
    "prefecture_code": "37",
    "city": "坂出市",
    "city_kana": "サカイデシ",
    "town": "坂出町",
    "town_kana": "サカイデチョウ",
    "street": null,
    "office_name": null,
    "office_name_kana": null
  },
  "0062": {
    "zip_code": "7620062",
    "prefecture": "香川県",
    "prefecture_kana": "カガワケン",
    "prefecture_code": "37",
    "city": "坂出市",
    "city_kana": "サカイデシ",
    "town": "川崎町",
    "town_kana": "カワサキチョウ",
    "street": null,
    "office_name": null,
    "office_name_kana": null
  },
  "0063": {
    "zip_code": "7620063",
    "prefecture": "香川県",
    "prefecture_kana": "カガワケン",
    "prefecture_code": "37",
    "city": "坂出市",
    "city_kana": "サカイデシ",
    "town": "番の州公園",
    "town_kana": "バンノスコウエン",
    "street": null,
    "office_name": null,
    "office_name_kana": null
  },
  "0064": {
    "zip_code": "7620064",
    "prefecture": "香川県",
    "prefecture_kana": "カガワケン",
    "prefecture_code": "37",
    "city": "坂出市",
    "city_kana": "サカイデシ",
    "town": "番の州町",
    "town_kana": "バンノスチョウ",
    "street": null,
    "office_name": null,
    "office_name_kana": null
  },
  "0065": {
    "zip_code": "7620065",
    "prefecture": "香川県",
    "prefecture_kana": "カガワケン",
    "prefecture_code": "37",
    "city": "坂出市",
    "city_kana": "サカイデシ",
    "town": "番の州緑町",
    "town_kana": "バンノスミドリチョウ",
    "street": null,
    "office_name": null,
    "office_name_kana": null
  },
  "0066": {
    "zip_code": "7620066",
    "prefecture": "香川県",
    "prefecture_kana": "カガワケン",
    "prefecture_code": "37",
    "city": "坂出市",
    "city_kana": "サカイデシ",
    "town": "沙弥島",
    "town_kana": "シャミジマ",
    "street": null,
    "office_name": null,
    "office_name_kana": null
  },
  "0067": {
    "zip_code": "7620067",
    "prefecture": "香川県",
    "prefecture_kana": "カガワケン",
    "prefecture_code": "37",
    "city": "坂出市",
    "city_kana": "サカイデシ",
    "town": "瀬居町",
    "town_kana": "セイチョウ",
    "street": null,
    "office_name": null,
    "office_name_kana": null
  },
  "0071": {
    "zip_code": "7620071",
    "prefecture": "香川県",
    "prefecture_kana": "カガワケン",
    "prefecture_code": "37",
    "city": "坂出市",
    "city_kana": "サカイデシ",
    "town": "与島町",
    "town_kana": "ヨシマチョウ",
    "street": null,
    "office_name": null,
    "office_name_kana": null
  },
  "0072": {
    "zip_code": "7620072",
    "prefecture": "香川県",
    "prefecture_kana": "カガワケン",
    "prefecture_code": "37",
    "city": "坂出市",
    "city_kana": "サカイデシ",
    "town": "岩黒",
    "town_kana": "イワクロ",
    "street": null,
    "office_name": null,
    "office_name_kana": null
  },
  "0073": {
    "zip_code": "7620073",
    "prefecture": "香川県",
    "prefecture_kana": "カガワケン",
    "prefecture_code": "37",
    "city": "坂出市",
    "city_kana": "サカイデシ",
    "town": "櫃石",
    "town_kana": "ヒツイシ",
    "street": null,
    "office_name": null,
    "office_name_kana": null
  },
  "0081": {
    "zip_code": "7620081",
    "prefecture": "香川県",
    "prefecture_kana": "カガワケン",
    "prefecture_code": "37",
    "city": "丸亀市",
    "city_kana": "マルガメシ",
    "town": "飯山町東坂元",
    "town_kana": "ハンザンチョウヒガシサカモト",
    "street": null,
    "office_name": null,
    "office_name_kana": null
  },
  "0082": {
    "zip_code": "7620082",
    "prefecture": "香川県",
    "prefecture_kana": "カガワケン",
    "prefecture_code": "37",
    "city": "丸亀市",
    "city_kana": "マルガメシ",
    "town": "飯山町川原",
    "town_kana": "ハンザンチョウカワハラ",
    "street": null,
    "office_name": null,
    "office_name_kana": null
  },
  "0083": {
    "zip_code": "7620083",
    "prefecture": "香川県",
    "prefecture_kana": "カガワケン",
    "prefecture_code": "37",
    "city": "丸亀市",
    "city_kana": "マルガメシ",
    "town": "飯山町下法軍寺",
    "town_kana": "ハンザンチョウシモホウグンジ",
    "street": null,
    "office_name": null,
    "office_name_kana": null
  },
  "0084": {
    "zip_code": "7620084",
    "prefecture": "香川県",
    "prefecture_kana": "カガワケン",
    "prefecture_code": "37",
    "city": "丸亀市",
    "city_kana": "マルガメシ",
    "town": "飯山町上法軍寺",
    "town_kana": "ハンザンチョウカミホウグンジ",
    "street": null,
    "office_name": null,
    "office_name_kana": null
  },
  "0085": {
    "zip_code": "7620085",
    "prefecture": "香川県",
    "prefecture_kana": "カガワケン",
    "prefecture_code": "37",
    "city": "丸亀市",
    "city_kana": "マルガメシ",
    "town": "飯山町東小川",
    "town_kana": "ハンザンチョウヒガシオガワ",
    "street": null,
    "office_name": null,
    "office_name_kana": null
  },
  "0086": {
    "zip_code": "7620086",
    "prefecture": "香川県",
    "prefecture_kana": "カガワケン",
    "prefecture_code": "37",
    "city": "丸亀市",
    "city_kana": "マルガメシ",
    "town": "飯山町真時",
    "town_kana": "ハンザンチョウサントキ",
    "street": null,
    "office_name": null,
    "office_name_kana": null
  },
  "0087": {
    "zip_code": "7620087",
    "prefecture": "香川県",
    "prefecture_kana": "カガワケン",
    "prefecture_code": "37",
    "city": "丸亀市",
    "city_kana": "マルガメシ",
    "town": "飯山町西坂元",
    "town_kana": "ハンザンチョウニシサカモト",
    "street": null,
    "office_name": null,
    "office_name_kana": null
  },
  "8502": {
    "zip_code": "7628502",
    "prefecture": "香川県",
    "prefecture_kana": "カガワケン",
    "prefecture_code": "37",
    "city": "丸亀市",
    "city_kana": "マルガメシ",
    "town": "飯山町川原",
    "town_kana": "ハンザンチョウカワハラ",
    "street": "８２５−１",
    "office_name": "香川シームレス　（株）",
    "office_name_kana": "カガワシ-ムレス カブシキガイシヤ"
  },
  "8503": {
    "zip_code": "7628503",
    "prefecture": "香川県",
    "prefecture_kana": "カガワケン",
    "prefecture_code": "37",
    "city": "坂出市",
    "city_kana": "サカイデシ",
    "town": "番の州緑町",
    "town_kana": "バンノスミドリチョウ",
    "street": "１−１",
    "office_name": "コスモ石油　株式会社　坂出製油所",
    "office_name_kana": "コスモセキユ カブシキガイシヤ サカイデセイユジヨ"
  },
  "8505": {
    "zip_code": "7628505",
    "prefecture": "香川県",
    "prefecture_kana": "カガワケン",
    "prefecture_code": "37",
    "city": "坂出市",
    "city_kana": "サカイデシ",
    "town": "京町",
    "town_kana": "キョウマチ",
    "street": "１丁目４−１８",
    "office_name": "イオンリテール　株式会社　イオン坂出支店",
    "office_name_kana": "イオンリテ-ル カブシキガイシヤ イオンサカイデシテン"
  },
  "8507": {
    "zip_code": "7628507",
    "prefecture": "香川県",
    "prefecture_kana": "カガワケン",
    "prefecture_code": "37",
    "city": "坂出市",
    "city_kana": "サカイデシ",
    "town": "川崎町",
    "town_kana": "カワサキチョウ",
    "street": "１番地",
    "office_name": "（株）　川崎造船坂出工場",
    "office_name_kana": "カブシキガイシヤ カワサキゾウセンサカイデコウジヨウ"
  },
  "8508": {
    "zip_code": "7628508",
    "prefecture": "香川県",
    "prefecture_kana": "カガワケン",
    "prefecture_code": "37",
    "city": "坂出市",
    "city_kana": "サカイデシ",
    "town": "京町",
    "town_kana": "キョウマチ",
    "street": "３丁目３−８",
    "office_name": "坂出商工会議所",
    "office_name_kana": "サカイデシヨウコウカイギシヨ"
  },
  "8510": {
    "zip_code": "7628510",
    "prefecture": "香川県",
    "prefecture_kana": "カガワケン",
    "prefecture_code": "37",
    "city": "坂出市",
    "city_kana": "サカイデシ",
    "town": "番の州町",
    "town_kana": "バンノスチョウ",
    "street": "１",
    "office_name": "三菱化学　株式会社　坂出事業所",
    "office_name_kana": "ミツビシカガク カブシキシガイシヤ サカイデジギヨウシヨ"
  },
  "8511": {
    "zip_code": "7628511",
    "prefecture": "香川県",
    "prefecture_kana": "カガワケン",
    "prefecture_code": "37",
    "city": "坂出市",
    "city_kana": "サカイデシ",
    "town": "江尻町",
    "town_kana": "エジリチョウ",
    "street": "４８３−１６",
    "office_name": "株式会社　石垣",
    "office_name_kana": "カブシキガイシヤイシガキ"
  },
  "8515": {
    "zip_code": "7628515",
    "prefecture": "香川県",
    "prefecture_kana": "カガワケン",
    "prefecture_code": "37",
    "city": "丸亀市",
    "city_kana": "マルガメシ",
    "town": "飯山町川原",
    "town_kana": "ハンザンチョウカワハラ",
    "street": "１１１４−１",
    "office_name": "飯山市民総合センター",
    "office_name_kana": "ハンザンシミンソウゴウセンタ-"
  },
  "8550": {
    "zip_code": "7628550",
    "prefecture": "香川県",
    "prefecture_kana": "カガワケン",
    "prefecture_code": "37",
    "city": "坂出市",
    "city_kana": "サカイデシ",
    "town": "寿町",
    "town_kana": "コトブキチョウ",
    "street": "３丁目１−２",
    "office_name": "総合病院　坂出市立病院",
    "office_name_kana": "ソウゴウビヨウイン サカイデシリツビヨウイン"
  },
  "8601": {
    "zip_code": "7628601",
    "prefecture": "香川県",
    "prefecture_kana": "カガワケン",
    "prefecture_code": "37",
    "city": "坂出市",
    "city_kana": "サカイデシ",
    "town": "室町",
    "town_kana": "ムロマチ",
    "street": "２丁目３−５（坂出郵便局私書箱第１５号）",
    "office_name": "坂出市役所",
    "office_name_kana": "サカイデシヤクシヨ"
  },
  "8602": {
    "zip_code": "7628602",
    "prefecture": "香川県",
    "prefecture_kana": "カガワケン",
    "prefecture_code": "37",
    "city": "坂出市",
    "city_kana": "サカイデシ",
    "town": "入船町",
    "town_kana": "イリフネチョウ",
    "street": "２丁目１−５９（坂出郵便局私書箱第３５号）",
    "office_name": "鎌田商事　株式会社",
    "office_name_kana": "カマダシヨウジ カブシキガイシヤ"
  }
}