{
  "0000": {
    "zip_code": "7650000",
    "prefecture": "香川県",
    "prefecture_kana": "カガワケン",
    "prefecture_code": 37,
    "city": "善通寺市",
    "city_kana": "ゼンツウジシ",
    "town": "",
    "town_kana": "",
    "street": null,
    "office_name": null,
    "office_name_kana": null
  },
  "0001": {
    "zip_code": "7650001",
    "prefecture": "香川県",
    "prefecture_kana": "カガワケン",
    "prefecture_code": 37,
    "city": "善通寺市",
    "city_kana": "ゼンツウジシ",
    "town": "仙遊町",
    "town_kana": "センユウチョウ",
    "street": null,
    "office_name": null,
    "office_name_kana": null
  },
  "0002": {
    "zip_code": "7650002",
    "prefecture": "香川県",
    "prefecture_kana": "カガワケン",
    "prefecture_code": 37,
    "city": "善通寺市",
    "city_kana": "ゼンツウジシ",
    "town": "南町",
    "town_kana": "ミナミマチ",
    "street": null,
    "office_name": null,
    "office_name_kana": null
  },
  "0003": {
    "zip_code": "7650003",
    "prefecture": "香川県",
    "prefecture_kana": "カガワケン",
    "prefecture_code": 37,
    "city": "善通寺市",
    "city_kana": "ゼンツウジシ",
    "town": "善通寺町",
    "town_kana": "ゼンツウジチョウ",
    "street": null,
    "office_name": null,
    "office_name_kana": null
  },
  "0004": {
    "zip_code": "7650004",
    "prefecture": "香川県",
    "prefecture_kana": "カガワケン",
    "prefecture_code": 37,
    "city": "善通寺市",
    "city_kana": "ゼンツウジシ",
    "town": "善通寺町",
    "town_kana": "ゼンツウジチョウ",
    "street": null,
    "office_name": null,
    "office_name_kana": null
  },
  "0011": {
    "zip_code": "7650011",
    "prefecture": "香川県",
    "prefecture_kana": "カガワケン",
    "prefecture_code": 37,
    "city": "善通寺市",
    "city_kana": "ゼンツウジシ",
    "town": "上吉田町",
    "town_kana": "カミヨシダチョウ",
    "street": null,
    "office_name": null,
    "office_name_kana": null
  },
  "0012": {
    "zip_code": "7650012",
    "prefecture": "香川県",
    "prefecture_kana": "カガワケン",
    "prefecture_code": 37,
    "city": "善通寺市",
    "city_kana": "ゼンツウジシ",
    "town": "上吉田町",
    "town_kana": "カミヨシダチョウ",
    "street": null,
    "office_name": null,
    "office_name_kana": null
  },
  "0013": {
    "zip_code": "7650013",
    "prefecture": "香川県",
    "prefecture_kana": "カガワケン",
    "prefecture_code": 37,
    "city": "善通寺市",
    "city_kana": "ゼンツウジシ",
    "town": "文京町",
    "town_kana": "ブンキョウチョウ",
    "street": null,
    "office_name": null,
    "office_name_kana": null
  },
  "0014": {
    "zip_code": "7650014",
    "prefecture": "香川県",
    "prefecture_kana": "カガワケン",
    "prefecture_code": 37,
    "city": "善通寺市",
    "city_kana": "ゼンツウジシ",
    "town": "生野本町",
    "town_kana": "イカノホンマチ",
    "street": null,
    "office_name": null,
    "office_name_kana": null
  },
  "0021": {
    "zip_code": "7650021",
    "prefecture": "香川県",
    "prefecture_kana": "カガワケン",
    "prefecture_code": 37,
    "city": "善通寺市",
    "city_kana": "ゼンツウジシ",
    "town": "下吉田町",
    "town_kana": "シモヨシダチョウ",
    "street": null,
    "office_name": null,
    "office_name_kana": null
  },
  "0022": {
    "zip_code": "7650022",
    "prefecture": "香川県",
    "prefecture_kana": "カガワケン",
    "prefecture_code": 37,
    "city": "善通寺市",
    "city_kana": "ゼンツウジシ",
    "town": "稲木町",
    "town_kana": "イナギチョウ",
    "street": null,
    "office_name": null,
    "office_name_kana": null
  },
  "0031": {
    "zip_code": "7650031",
    "prefecture": "香川県",
    "prefecture_kana": "カガワケン",
    "prefecture_code": 37,
    "city": "善通寺市",
    "city_kana": "ゼンツウジシ",
    "town": "金蔵寺町",
    "town_kana": "コンゾウジチョウ",
    "street": null,
    "office_name": null,
    "office_name_kana": null
  },
  "0032": {
    "zip_code": "7650032",
    "prefecture": "香川県",
    "prefecture_kana": "カガワケン",
    "prefecture_code": 37,
    "city": "善通寺市",
    "city_kana": "ゼンツウジシ",
    "town": "原田町",
    "town_kana": "ハラダチョウ",
    "street": null,
    "office_name": null,
    "office_name_kana": null
  },
  "0033": {
    "zip_code": "7650033",
    "prefecture": "香川県",
    "prefecture_kana": "カガワケン",
    "prefecture_code": 37,
    "city": "善通寺市",
    "city_kana": "ゼンツウジシ",
    "town": "木徳町",
    "town_kana": "キトクチョウ",
    "street": null,
    "office_name": null,
    "office_name_kana": null
  },
  "0040": {
    "zip_code": "7650040",
    "prefecture": "香川県",
    "prefecture_kana": "カガワケン",
    "prefecture_code": 37,
    "city": "善通寺市",
    "city_kana": "ゼンツウジシ",
    "town": "与北町",
    "town_kana": "ヨギタチョウ",
    "street": null,
    "office_name": null,
    "office_name_kana": null
  },
  "0051": {
    "zip_code": "7650051",
    "prefecture": "香川県",
    "prefecture_kana": "カガワケン",
    "prefecture_code": 37,
    "city": "善通寺市",
    "city_kana": "ゼンツウジシ",
    "town": "櫛梨町",
    "town_kana": "クシナシチョウ",
    "street": null,
    "office_name": null,
    "office_name_kana": null
  },
  "0052": {
    "zip_code": "7650052",
    "prefecture": "香川県",
    "prefecture_kana": "カガワケン",
    "prefecture_code": 37,
    "city": "善通寺市",
    "city_kana": "ゼンツウジシ",
    "town": "大麻町",
    "town_kana": "オオサチョウ",
    "street": null,
    "office_name": null,
    "office_name_kana": null
  },
  "0053": {
    "zip_code": "7650053",
    "prefecture": "香川県",
    "prefecture_kana": "カガワケン",
    "prefecture_code": 37,
    "city": "善通寺市",
    "city_kana": "ゼンツウジシ",
    "town": "生野町",
    "town_kana": "イカノチョウ",
    "street": null,
    "office_name": null,
    "office_name_kana": null
  },
  "0061": {
    "zip_code": "7650061",
    "prefecture": "香川県",
    "prefecture_kana": "カガワケン",
    "prefecture_code": 37,
    "city": "善通寺市",
    "city_kana": "ゼンツウジシ",
    "town": "吉原町",
    "town_kana": "ヨシワラチョウ",
    "street": null,
    "office_name": null,
    "office_name_kana": null
  },
  "0062": {
    "zip_code": "7650062",
    "prefecture": "香川県",
    "prefecture_kana": "カガワケン",
    "prefecture_code": 37,
    "city": "善通寺市",
    "city_kana": "ゼンツウジシ",
    "town": "碑殿町",
    "town_kana": "ヒドノチョウ",
    "street": null,
    "office_name": null,
    "office_name_kana": null
  },
  "0071": {
    "zip_code": "7650071",
    "prefecture": "香川県",
    "prefecture_kana": "カガワケン",
    "prefecture_code": 37,
    "city": "善通寺市",
    "city_kana": "ゼンツウジシ",
    "town": "弘田町",
    "town_kana": "ヒロタチョウ",
    "street": null,
    "office_name": null,
    "office_name_kana": null
  },
  "0072": {
    "zip_code": "7650072",
    "prefecture": "香川県",
    "prefecture_kana": "カガワケン",
    "prefecture_code": 37,
    "city": "善通寺市",
    "city_kana": "ゼンツウジシ",
    "town": "中村町",
    "town_kana": "ナカムラチョウ",
    "street": null,
    "office_name": null,
    "office_name_kana": null
  },
  "0073": {
    "zip_code": "7650073",
    "prefecture": "香川県",
    "prefecture_kana": "カガワケン",
    "prefecture_code": 37,
    "city": "善通寺市",
    "city_kana": "ゼンツウジシ",
    "town": "中村町",
    "town_kana": "ナカムラチョウ",
    "street": null,
    "office_name": null,
    "office_name_kana": null
  },
  "8501": {
    "zip_code": "7658501",
    "prefecture": "香川県",
    "prefecture_kana": "カガワケン",
    "prefecture_code": 37,
    "city": "善通寺市",
    "city_kana": "ゼンツウジシ",
    "town": "善通寺町",
    "town_kana": "ゼンツウジチョウ",
    "street": "２６０３",
    "office_name": "国立療養所　香川小児病院",
    "office_name_kana": "コクリツリヨウヨウシヨ カガワシヨウニビヨウイン"
  },
  "8502": {
    "zip_code": "7658502",
    "prefecture": "香川県",
    "prefecture_kana": "カガワケン",
    "prefecture_code": 37,
    "city": "善通寺市",
    "city_kana": "ゼンツウジシ",
    "town": "南町",
    "town_kana": "ミナミマチ",
    "street": "２丁目１−１",
    "office_name": "陸上自衛隊　善通寺駐屯地",
    "office_name_kana": "リクジヨウジエイタイ ゼンツウジチユウトンチ"
  },
  "8503": {
    "zip_code": "7658503",
    "prefecture": "香川県",
    "prefecture_kana": "カガワケン",
    "prefecture_code": 37,
    "city": "善通寺市",
    "city_kana": "ゼンツウジシ",
    "town": "文京町",
    "town_kana": "ブンキョウチョウ",
    "street": "２丁目１−１",
    "office_name": "香川県　善通寺市役所",
    "office_name_kana": "カガワケン ゼンツウジシヤクシヨ"
  },
  "8505": {
    "zip_code": "7658505",
    "prefecture": "香川県",
    "prefecture_kana": "カガワケン",
    "prefecture_code": 37,
    "city": "善通寺市",
    "city_kana": "ゼンツウジシ",
    "town": "文京町",
    "town_kana": "ブンキョウチョウ",
    "street": "３丁目２−１",
    "office_name": "四国学院大学",
    "office_name_kana": "シコクガクインダイガク"
  },
  "8506": {
    "zip_code": "7658506",
    "prefecture": "香川県",
    "prefecture_kana": "カガワケン",
    "prefecture_code": 37,
    "city": "善通寺市",
    "city_kana": "ゼンツウジシ",
    "town": "善通寺町",
    "town_kana": "ゼンツウジチョウ",
    "street": "３丁目３−１",
    "office_name": "総本山善通寺",
    "office_name_kana": "ソウホンザンゼンツウジ"
  },
  "8507": {
    "zip_code": "7658507",
    "prefecture": "香川県",
    "prefecture_kana": "カガワケン",
    "prefecture_code": 37,
    "city": "善通寺市",
    "city_kana": "ゼンツウジシ",
    "town": "仙遊町",
    "town_kana": "センユウチョウ",
    "street": "２丁目１−１",
    "office_name": "国立善通寺病院",
    "office_name_kana": "コクリツゼンツウジビヨウイン"
  },
  "8508": {
    "zip_code": "7658508",
    "prefecture": "香川県",
    "prefecture_kana": "カガワケン",
    "prefecture_code": 37,
    "city": "善通寺市",
    "city_kana": "ゼンツウジシ",
    "town": "仙遊町",
    "town_kana": "センユウチョウ",
    "street": "１丁目３番１号",
    "office_name": "西日本農業研究センター　四国研究拠点",
    "office_name_kana": "ニシニホンノウギヨウケンキユウセンタ- シコクケンキユウキヨテン"
  }
}