{
  "0101": {
    "zip_code": "7690101",
    "prefecture": "香川県",
    "prefecture_kana": "カガワケン",
    "prefecture_code": "37",
    "city": "高松市",
    "city_kana": "タカマツシ",
    "town": "国分寺町新居",
    "town_kana": "コクブンジチョウニイ",
    "street": null,
    "office_name": null,
    "office_name_kana": null
  },
  "0102": {
    "zip_code": "7690102",
    "prefecture": "香川県",
    "prefecture_kana": "カガワケン",
    "prefecture_code": "37",
    "city": "高松市",
    "city_kana": "タカマツシ",
    "town": "国分寺町国分",
    "town_kana": "コクブンジチョウコクブ",
    "street": null,
    "office_name": null,
    "office_name_kana": null
  },
  "0103": {
    "zip_code": "7690103",
    "prefecture": "香川県",
    "prefecture_kana": "カガワケン",
    "prefecture_code": "37",
    "city": "高松市",
    "city_kana": "タカマツシ",
    "town": "国分寺町福家",
    "town_kana": "コクブンジチョウフケ",
    "street": null,
    "office_name": null,
    "office_name_kana": null
  },
  "0104": {
    "zip_code": "7690104",
    "prefecture": "香川県",
    "prefecture_kana": "カガワケン",
    "prefecture_code": "37",
    "city": "高松市",
    "city_kana": "タカマツシ",
    "town": "国分寺町新名",
    "town_kana": "コクブンジチョウシンミョウ",
    "street": null,
    "office_name": null,
    "office_name_kana": null
  },
  "0105": {
    "zip_code": "7690105",
    "prefecture": "香川県",
    "prefecture_kana": "カガワケン",
    "prefecture_code": "37",
    "city": "高松市",
    "city_kana": "タカマツシ",
    "town": "国分寺町柏原",
    "town_kana": "コクブンジチョウカシハラ",
    "street": null,
    "office_name": null,
    "office_name_kana": null
  },
  "0192": {
    "zip_code": "7690192",
    "prefecture": "香川県",
    "prefecture_kana": "カガワケン",
    "prefecture_code": "37",
    "city": "高松市",
    "city_kana": "タカマツシ",
    "town": "国分寺町新居",
    "town_kana": "コクブンジチョウニイ",
    "street": "１２９８番地",
    "office_name": "高松市役所　国分寺支所",
    "office_name_kana": "タカマツシヤクシヨ コクブンジシシヨ"
  },
  "0193": {
    "zip_code": "7690193",
    "prefecture": "香川県",
    "prefecture_kana": "カガワケン",
    "prefecture_code": "37",
    "city": "高松市",
    "city_kana": "タカマツシ",
    "town": "国分寺町福家",
    "town_kana": "コクブンジチョウフケ",
    "street": "甲１２５５番地１０",
    "office_name": "四国アルフレッサ　株式会社",
    "office_name_kana": "シコクアルフレツサ カブシキガイシヤ"
  },
  "0194": {
    "zip_code": "7690194",
    "prefecture": "香川県",
    "prefecture_kana": "カガワケン",
    "prefecture_code": "37",
    "city": "高松市",
    "city_kana": "タカマツシ",
    "town": "国分寺町新名",
    "town_kana": "コクブンジチョウシンミョウ",
    "street": "６６３−１",
    "office_name": "四国松下ライフエレクトロニクス　株式会社",
    "office_name_kana": "シコクマツシタライフエレクトロニクス カブシキガイシヤ"
  },
  "0195": {
    "zip_code": "7690195",
    "prefecture": "香川県",
    "prefecture_kana": "カガワケン",
    "prefecture_code": "37",
    "city": "高松市",
    "city_kana": "タカマツシ",
    "town": "国分寺町新居",
    "town_kana": "コクブンジチョウニイ",
    "street": "１４１６",
    "office_name": "加藤産業　株式会社　高松支店",
    "office_name_kana": "カトウサンギヨウ カブシキガイシヤ タカマツシテン"
  },
  "0197": {
    "zip_code": "7690197",
    "prefecture": "香川県",
    "prefecture_kana": "カガワケン",
    "prefecture_code": "37",
    "city": "高松市",
    "city_kana": "タカマツシ",
    "town": "国分寺町国分",
    "town_kana": "コクブンジチョウコクブ",
    "street": "８９０−１",
    "office_name": "（株）　カワイ",
    "office_name_kana": "カブシキガイシヤ カワイ"
  },
  "0198": {
    "zip_code": "7690198",
    "prefecture": "香川県",
    "prefecture_kana": "カガワケン",
    "prefecture_code": "37",
    "city": "高松市",
    "city_kana": "タカマツシ",
    "town": "国分寺町国分",
    "town_kana": "コクブンジチョウコクブ",
    "street": "３６７−１",
    "office_name": "株式会社　マルヨシセンター",
    "office_name_kana": "カブシキガイシヤ マルヨシセンタ-"
  },
  "0200": {
    "zip_code": "7690200",
    "prefecture": "香川県",
    "prefecture_kana": "カガワケン",
    "prefecture_code": "37",
    "city": "綾歌郡宇多津町",
    "city_kana": "アヤウタグンウタヅチョウ",
    "town": "",
    "town_kana": "",
    "street": null,
    "office_name": null,
    "office_name_kana": null
  },
  "0201": {
    "zip_code": "7690201",
    "prefecture": "香川県",
    "prefecture_kana": "カガワケン",
    "prefecture_code": "37",
    "city": "綾歌郡宇多津町",
    "city_kana": "アヤウタグンウタヅチョウ",
    "town": "浜一番丁",
    "town_kana": "ハマ1バンチョウ",
    "street": null,
    "office_name": null,
    "office_name_kana": null
  },
  "0202": {
    "zip_code": "7690202",
    "prefecture": "香川県",
    "prefecture_kana": "カガワケン",
    "prefecture_code": "37",
    "city": "綾歌郡宇多津町",
    "city_kana": "アヤウタグンウタヅチョウ",
    "town": "浜二番丁",
    "town_kana": "ハマ2バンチョウ",
    "street": null,
    "office_name": null,
    "office_name_kana": null
  },
  "0203": {
    "zip_code": "7690203",
    "prefecture": "香川県",
    "prefecture_kana": "カガワケン",
    "prefecture_code": "37",
    "city": "綾歌郡宇多津町",
    "city_kana": "アヤウタグンウタヅチョウ",
    "town": "浜三番丁",
    "town_kana": "ハマ3バンチョウ",
    "street": null,
    "office_name": null,
    "office_name_kana": null
  },
  "0204": {
    "zip_code": "7690204",
    "prefecture": "香川県",
    "prefecture_kana": "カガワケン",
    "prefecture_code": "37",
    "city": "綾歌郡宇多津町",
    "city_kana": "アヤウタグンウタヅチョウ",
    "town": "浜四番丁",
    "town_kana": "ハマ4バンチョウ",
    "street": null,
    "office_name": null,
    "office_name_kana": null
  },
  "0205": {
    "zip_code": "7690205",
    "prefecture": "香川県",
    "prefecture_kana": "カガワケン",
    "prefecture_code": "37",
    "city": "綾歌郡宇多津町",
    "city_kana": "アヤウタグンウタヅチョウ",
    "town": "浜五番丁",
    "town_kana": "ハマ5バンチョウ",
    "street": null,
    "office_name": null,
    "office_name_kana": null
  },
  "0206": {
    "zip_code": "7690206",
    "prefecture": "香川県",
    "prefecture_kana": "カガワケン",
    "prefecture_code": "37",
    "city": "綾歌郡宇多津町",
    "city_kana": "アヤウタグンウタヅチョウ",
    "town": "浜六番丁",
    "town_kana": "ハマ6バンチョウ",
    "street": null,
    "office_name": null,
    "office_name_kana": null
  },
  "0207": {
    "zip_code": "7690207",
    "prefecture": "香川県",
    "prefecture_kana": "カガワケン",
    "prefecture_code": "37",
    "city": "綾歌郡宇多津町",
    "city_kana": "アヤウタグンウタヅチョウ",
    "town": "浜七番丁",
    "town_kana": "ハマ7バンチョウ",
    "street": null,
    "office_name": null,
    "office_name_kana": null
  },
  "0208": {
    "zip_code": "7690208",
    "prefecture": "香川県",
    "prefecture_kana": "カガワケン",
    "prefecture_code": "37",
    "city": "綾歌郡宇多津町",
    "city_kana": "アヤウタグンウタヅチョウ",
    "town": "浜八番丁",
    "town_kana": "ハマ8バンチョウ",
    "street": null,
    "office_name": null,
    "office_name_kana": null
  },
  "0209": {
    "zip_code": "7690209",
    "prefecture": "香川県",
    "prefecture_kana": "カガワケン",
    "prefecture_code": "37",
    "city": "綾歌郡宇多津町",
    "city_kana": "アヤウタグンウタヅチョウ",
    "town": "浜九番丁",
    "town_kana": "ハマ9バンチョウ",
    "street": null,
    "office_name": null,
    "office_name_kana": null
  },
  "0210": {
    "zip_code": "7690210",
    "prefecture": "香川県",
    "prefecture_kana": "カガワケン",
    "prefecture_code": "37",
    "city": "綾歌郡宇多津町",
    "city_kana": "アヤウタグンウタヅチョウ",
    "town": "",
    "town_kana": "",
    "street": null,
    "office_name": null,
    "office_name_kana": null
  },
  "0211": {
    "zip_code": "7690211",
    "prefecture": "香川県",
    "prefecture_kana": "カガワケン",
    "prefecture_code": "37",
    "city": "綾歌郡宇多津町",
    "city_kana": "アヤウタグンウタヅチョウ",
    "town": "十楽寺",
    "town_kana": "ジュウラクジ",
    "street": null,
    "office_name": null,
    "office_name_kana": null
  },
  "0212": {
    "zip_code": "7690212",
    "prefecture": "香川県",
    "prefecture_kana": "カガワケン",
    "prefecture_code": "37",
    "city": "綾歌郡宇多津町",
    "city_kana": "アヤウタグンウタヅチョウ",
    "town": "沼ノ池",
    "town_kana": "ヌマノイケ",
    "street": null,
    "office_name": null,
    "office_name_kana": null
  },
  "0213": {
    "zip_code": "7690213",
    "prefecture": "香川県",
    "prefecture_kana": "カガワケン",
    "prefecture_code": "37",
    "city": "綾歌郡宇多津町",
    "city_kana": "アヤウタグンウタヅチョウ",
    "town": "東分",
    "town_kana": "ヒガシブン",
    "street": null,
    "office_name": null,
    "office_name_kana": null
  },
  "0221": {
    "zip_code": "7690221",
    "prefecture": "香川県",
    "prefecture_kana": "カガワケン",
    "prefecture_code": "37",
    "city": "綾歌郡宇多津町",
    "city_kana": "アヤウタグンウタヅチョウ",
    "town": "吉田",
    "town_kana": "ヨシダ",
    "street": null,
    "office_name": null,
    "office_name_kana": null
  },
  "0222": {
    "zip_code": "7690222",
    "prefecture": "香川県",
    "prefecture_kana": "カガワケン",
    "prefecture_code": "37",
    "city": "綾歌郡宇多津町",
    "city_kana": "アヤウタグンウタヅチョウ",
    "town": "大橋",
    "town_kana": "オオハシ",
    "street": null,
    "office_name": null,
    "office_name_kana": null
  },
  "0223": {
    "zip_code": "7690223",
    "prefecture": "香川県",
    "prefecture_kana": "カガワケン",
    "prefecture_code": "37",
    "city": "綾歌郡宇多津町",
    "city_kana": "アヤウタグンウタヅチョウ",
    "town": "新開",
    "town_kana": "シンガイ",
    "street": null,
    "office_name": null,
    "office_name_kana": null
  },
  "0224": {
    "zip_code": "7690224",
    "prefecture": "香川県",
    "prefecture_kana": "カガワケン",
    "prefecture_code": "37",
    "city": "綾歌郡宇多津町",
    "city_kana": "アヤウタグンウタヅチョウ",
    "town": "平山",
    "town_kana": "ヒラヤマ",
    "street": null,
    "office_name": null,
    "office_name_kana": null
  },
  "0225": {
    "zip_code": "7690225",
    "prefecture": "香川県",
    "prefecture_kana": "カガワケン",
    "prefecture_code": "37",
    "city": "綾歌郡宇多津町",
    "city_kana": "アヤウタグンウタヅチョウ",
    "town": "新町",
    "town_kana": "シンマチ",
    "street": null,
    "office_name": null,
    "office_name_kana": null
  },
  "0226": {
    "zip_code": "7690226",
    "prefecture": "香川県",
    "prefecture_kana": "カガワケン",
    "prefecture_code": "37",
    "city": "綾歌郡宇多津町",
    "city_kana": "アヤウタグンウタヅチョウ",
    "town": "坂下",
    "town_kana": "サカシタ",
    "street": null,
    "office_name": null,
    "office_name_kana": null
  },
  "0227": {
    "zip_code": "7690227",
    "prefecture": "香川県",
    "prefecture_kana": "カガワケン",
    "prefecture_code": "37",
    "city": "綾歌郡宇多津町",
    "city_kana": "アヤウタグンウタヅチョウ",
    "town": "岩屋",
    "town_kana": "イワヤ",
    "street": null,
    "office_name": null,
    "office_name_kana": null
  },
  "0228": {
    "zip_code": "7690228",
    "prefecture": "香川県",
    "prefecture_kana": "カガワケン",
    "prefecture_code": "37",
    "city": "綾歌郡宇多津町",
    "city_kana": "アヤウタグンウタヅチョウ",
    "town": "向山",
    "town_kana": "ムカウヤマ",
    "street": null,
    "office_name": null,
    "office_name_kana": null
  },
  "0292": {
    "zip_code": "7690292",
    "prefecture": "香川県",
    "prefecture_kana": "カガワケン",
    "prefecture_code": "37",
    "city": "綾歌郡宇多津町",
    "city_kana": "アヤウタグンウタヅチョウ",
    "town": "",
    "town_kana": "",
    "street": "１８８１",
    "office_name": "宇多津町役場",
    "office_name_kana": "ウタヅチヨウヤクバ"
  },
  "0293": {
    "zip_code": "7690293",
    "prefecture": "香川県",
    "prefecture_kana": "カガワケン",
    "prefecture_code": "37",
    "city": "綾歌郡宇多津町",
    "city_kana": "アヤウタグンウタヅチョウ",
    "town": "吉田",
    "town_kana": "ヨシダ",
    "street": "４０００",
    "office_name": "ＹＫＫＡＰ　株式会社　四国事業所",
    "office_name_kana": "ワイケイケイエ-ピ- カブシキガイシヤ シコクジギヨウシヨ"
  },
  "0295": {
    "zip_code": "7690295",
    "prefecture": "香川県",
    "prefecture_kana": "カガワケン",
    "prefecture_code": "37",
    "city": "綾歌郡宇多津町",
    "city_kana": "アヤウタグンウタヅチョウ",
    "town": "",
    "town_kana": "",
    "street": "吉田",
    "office_name": "トラスコ中山　（株）　高松営業所",
    "office_name_kana": "トラスコナカヤマ カブシキガイシヤ タカマツエイギヨウシヨ"
  },
  "0296": {
    "zip_code": "7690296",
    "prefecture": "香川県",
    "prefecture_kana": "カガワケン",
    "prefecture_code": "37",
    "city": "綾歌郡宇多津町",
    "city_kana": "アヤウタグンウタヅチョウ",
    "town": "",
    "town_kana": "",
    "street": "１４３５（宇多津郵便局私書箱第２号）",
    "office_name": "郷照寺",
    "office_name_kana": "ゴウシヨウジ"
  },
  "0301": {
    "zip_code": "7690301",
    "prefecture": "香川県",
    "prefecture_kana": "カガワケン",
    "prefecture_code": "37",
    "city": "仲多度郡まんのう町",
    "city_kana": "ナカタドグンマンノウチョウ",
    "town": "佐文",
    "town_kana": "サブミ",
    "street": null,
    "office_name": null,
    "office_name_kana": null
  },
  "0302": {
    "zip_code": "7690302",
    "prefecture": "香川県",
    "prefecture_kana": "カガワケン",
    "prefecture_code": "37",
    "city": "仲多度郡まんのう町",
    "city_kana": "ナカタドグンマンノウチョウ",
    "town": "塩入",
    "town_kana": "シオイリ",
    "street": null,
    "office_name": null,
    "office_name_kana": null
  },
  "0303": {
    "zip_code": "7690303",
    "prefecture": "香川県",
    "prefecture_kana": "カガワケン",
    "prefecture_code": "37",
    "city": "仲多度郡まんのう町",
    "city_kana": "ナカタドグンマンノウチョウ",
    "town": "七箇",
    "town_kana": "シチカ",
    "street": null,
    "office_name": null,
    "office_name_kana": null
  },
  "0311": {
    "zip_code": "7690311",
    "prefecture": "香川県",
    "prefecture_kana": "カガワケン",
    "prefecture_code": "37",
    "city": "仲多度郡まんのう町",
    "city_kana": "ナカタドグンマンノウチョウ",
    "town": "買田",
    "town_kana": "カイタ",
    "street": null,
    "office_name": null,
    "office_name_kana": null
  },
  "0312": {
    "zip_code": "7690312",
    "prefecture": "香川県",
    "prefecture_kana": "カガワケン",
    "prefecture_code": "37",
    "city": "仲多度郡まんのう町",
    "city_kana": "ナカタドグンマンノウチョウ",
    "town": "宮田",
    "town_kana": "ミヤダ",
    "street": null,
    "office_name": null,
    "office_name_kana": null
  },
  "0313": {
    "zip_code": "7690313",
    "prefecture": "香川県",
    "prefecture_kana": "カガワケン",
    "prefecture_code": "37",
    "city": "仲多度郡まんのう町",
    "city_kana": "ナカタドグンマンノウチョウ",
    "town": "生間",
    "town_kana": "イカマ",
    "street": null,
    "office_name": null,
    "office_name_kana": null
  },
  "0314": {
    "zip_code": "7690314",
    "prefecture": "香川県",
    "prefecture_kana": "カガワケン",
    "prefecture_code": "37",
    "city": "仲多度郡まんのう町",
    "city_kana": "ナカタドグンマンノウチョウ",
    "town": "帆山",
    "town_kana": "ホノヤマ",
    "street": null,
    "office_name": null,
    "office_name_kana": null
  },
  "0315": {
    "zip_code": "7690315",
    "prefecture": "香川県",
    "prefecture_kana": "カガワケン",
    "prefecture_code": "37",
    "city": "仲多度郡まんのう町",
    "city_kana": "ナカタドグンマンノウチョウ",
    "town": "後山",
    "town_kana": "ウシロヤマ",
    "street": null,
    "office_name": null,
    "office_name_kana": null
  },
  "0316": {
    "zip_code": "7690316",
    "prefecture": "香川県",
    "prefecture_kana": "カガワケン",
    "prefecture_code": "37",
    "city": "仲多度郡まんのう町",
    "city_kana": "ナカタドグンマンノウチョウ",
    "town": "大口",
    "town_kana": "オオクチ",
    "street": null,
    "office_name": null,
    "office_name_kana": null
  },
  "0317": {
    "zip_code": "7690317",
    "prefecture": "香川県",
    "prefecture_kana": "カガワケン",
    "prefecture_code": "37",
    "city": "仲多度郡まんのう町",
    "city_kana": "ナカタドグンマンノウチョウ",
    "town": "新目",
    "town_kana": "シンメ",
    "street": null,
    "office_name": null,
    "office_name_kana": null
  },
  "0318": {
    "zip_code": "7690318",
    "prefecture": "香川県",
    "prefecture_kana": "カガワケン",
    "prefecture_code": "37",
    "city": "仲多度郡まんのう町",
    "city_kana": "ナカタドグンマンノウチョウ",
    "town": "山脇",
    "town_kana": "ヤマワキ",
    "street": null,
    "office_name": null,
    "office_name_kana": null
  },
  "0319": {
    "zip_code": "7690319",
    "prefecture": "香川県",
    "prefecture_kana": "カガワケン",
    "prefecture_code": "37",
    "city": "仲多度郡まんのう町",
    "city_kana": "ナカタドグンマンノウチョウ",
    "town": "追上",
    "town_kana": "オイアゲ",
    "street": null,
    "office_name": null,
    "office_name_kana": null
  },
  "0401": {
    "zip_code": "7690401",
    "prefecture": "香川県",
    "prefecture_kana": "カガワケン",
    "prefecture_code": "37",
    "city": "三豊市",
    "city_kana": "ミトヨシ",
    "town": "財田町財田上",
    "town_kana": "サイタチョウサイタカミ",
    "street": null,
    "office_name": null,
    "office_name_kana": null
  },
  "0402": {
    "zip_code": "7690402",
    "prefecture": "香川県",
    "prefecture_kana": "カガワケン",
    "prefecture_code": "37",
    "city": "三豊市",
    "city_kana": "ミトヨシ",
    "town": "財田町財田中",
    "town_kana": "サイタチョウサイタナカ",
    "street": null,
    "office_name": null,
    "office_name_kana": null
  },
  "1101": {
    "zip_code": "7691101",
    "prefecture": "香川県",
    "prefecture_kana": "カガワケン",
    "prefecture_code": "37",
    "city": "三豊市",
    "city_kana": "ミトヨシ",
    "town": "詫間町詫間",
    "town_kana": "タクマチョウタクマ",
    "street": null,
    "office_name": null,
    "office_name_kana": null
  },
  "1102": {
    "zip_code": "7691102",
    "prefecture": "香川県",
    "prefecture_kana": "カガワケン",
    "prefecture_code": "37",
    "city": "三豊市",
    "city_kana": "ミトヨシ",
    "town": "詫間町松崎",
    "town_kana": "タクマチョウマツサキ",
    "street": null,
    "office_name": null,
    "office_name_kana": null
  },
  "1103": {
    "zip_code": "7691103",
    "prefecture": "香川県",
    "prefecture_kana": "カガワケン",
    "prefecture_code": "37",
    "city": "三豊市",
    "city_kana": "ミトヨシ",
    "town": "詫間町香田",
    "town_kana": "タクマチョウコウダ",
    "street": null,
    "office_name": null,
    "office_name_kana": null
  },
  "1104": {
    "zip_code": "7691104",
    "prefecture": "香川県",
    "prefecture_kana": "カガワケン",
    "prefecture_code": "37",
    "city": "三豊市",
    "city_kana": "ミトヨシ",
    "town": "詫間町大浜",
    "town_kana": "タクマチョウオオハマ",
    "street": null,
    "office_name": null,
    "office_name_kana": null
  },
  "1105": {
    "zip_code": "7691105",
    "prefecture": "香川県",
    "prefecture_kana": "カガワケン",
    "prefecture_code": "37",
    "city": "三豊市",
    "city_kana": "ミトヨシ",
    "town": "詫間町積",
    "town_kana": "タクマチョウツム",
    "street": null,
    "office_name": null,
    "office_name_kana": null
  },
  "1106": {
    "zip_code": "7691106",
    "prefecture": "香川県",
    "prefecture_kana": "カガワケン",
    "prefecture_code": "37",
    "city": "三豊市",
    "city_kana": "ミトヨシ",
    "town": "詫間町箱",
    "town_kana": "タクマチョウハコ",
    "street": null,
    "office_name": null,
    "office_name_kana": null
  },
  "1107": {
    "zip_code": "7691107",
    "prefecture": "香川県",
    "prefecture_kana": "カガワケン",
    "prefecture_code": "37",
    "city": "三豊市",
    "city_kana": "ミトヨシ",
    "town": "詫間町生里",
    "town_kana": "タクマチョウナマリ",
    "street": null,
    "office_name": null,
    "office_name_kana": null
  },
  "1108": {
    "zip_code": "7691108",
    "prefecture": "香川県",
    "prefecture_kana": "カガワケン",
    "prefecture_code": "37",
    "city": "三豊市",
    "city_kana": "ミトヨシ",
    "town": "詫間町粟島",
    "town_kana": "タクマチョウアワシマ",
    "street": null,
    "office_name": null,
    "office_name_kana": null
  },
  "1109": {
    "zip_code": "7691109",
    "prefecture": "香川県",
    "prefecture_kana": "カガワケン",
    "prefecture_code": "37",
    "city": "三豊市",
    "city_kana": "ミトヨシ",
    "town": "詫間町志々島",
    "town_kana": "タクマチョウシシジマ",
    "street": null,
    "office_name": null,
    "office_name_kana": null
  },
  "1192": {
    "zip_code": "7691192",
    "prefecture": "香川県",
    "prefecture_kana": "カガワケン",
    "prefecture_code": "37",
    "city": "三豊市",
    "city_kana": "ミトヨシ",
    "town": "詫間町香田",
    "town_kana": "タクマチョウコウダ",
    "street": "５５１番地",
    "office_name": "香川高等専門学校　詫間キャンパス",
    "office_name_kana": "カガワコウトウセンモンガツコウ タクマキヤンパス"
  },
  "1401": {
    "zip_code": "7691401",
    "prefecture": "香川県",
    "prefecture_kana": "カガワケン",
    "prefecture_code": "37",
    "city": "三豊市",
    "city_kana": "ミトヨシ",
    "town": "仁尾町仁尾己",
    "town_kana": "ニオチョウニオキ",
    "street": null,
    "office_name": null,
    "office_name_kana": null
  },
  "1402": {
    "zip_code": "7691402",
    "prefecture": "香川県",
    "prefecture_kana": "カガワケン",
    "prefecture_code": "37",
    "city": "三豊市",
    "city_kana": "ミトヨシ",
    "town": "仁尾町仁尾戊",
    "town_kana": "ニオチョウニオボ",
    "street": null,
    "office_name": null,
    "office_name_kana": null
  },
  "1403": {
    "zip_code": "7691403",
    "prefecture": "香川県",
    "prefecture_kana": "カガワケン",
    "prefecture_code": "37",
    "city": "三豊市",
    "city_kana": "ミトヨシ",
    "town": "仁尾町仁尾丙",
    "town_kana": "ニオチョウニオヘイ",
    "street": null,
    "office_name": null,
    "office_name_kana": null
  },
  "1404": {
    "zip_code": "7691404",
    "prefecture": "香川県",
    "prefecture_kana": "カガワケン",
    "prefecture_code": "37",
    "city": "三豊市",
    "city_kana": "ミトヨシ",
    "town": "仁尾町仁尾乙",
    "town_kana": "ニオチョウニオオツ",
    "street": null,
    "office_name": null,
    "office_name_kana": null
  },
  "1405": {
    "zip_code": "7691405",
    "prefecture": "香川県",
    "prefecture_kana": "カガワケン",
    "prefecture_code": "37",
    "city": "三豊市",
    "city_kana": "ミトヨシ",
    "town": "仁尾町仁尾庚",
    "town_kana": "ニオチョウニオコウ",
    "street": null,
    "office_name": null,
    "office_name_kana": null
  },
  "1406": {
    "zip_code": "7691406",
    "prefecture": "香川県",
    "prefecture_kana": "カガワケン",
    "prefecture_code": "37",
    "city": "三豊市",
    "city_kana": "ミトヨシ",
    "town": "仁尾町仁尾辛",
    "town_kana": "ニオチョウニオシン",
    "street": null,
    "office_name": null,
    "office_name_kana": null
  },
  "1407": {
    "zip_code": "7691407",
    "prefecture": "香川県",
    "prefecture_kana": "カガワケン",
    "prefecture_code": "37",
    "city": "三豊市",
    "city_kana": "ミトヨシ",
    "town": "仁尾町仁尾丁",
    "town_kana": "ニオチョウニオテイ",
    "street": null,
    "office_name": null,
    "office_name_kana": null
  },
  "1408": {
    "zip_code": "7691408",
    "prefecture": "香川県",
    "prefecture_kana": "カガワケン",
    "prefecture_code": "37",
    "city": "三豊市",
    "city_kana": "ミトヨシ",
    "town": "仁尾町仁尾甲",
    "town_kana": "ニオチョウニオコウ",
    "street": null,
    "office_name": null,
    "office_name_kana": null
  },
  "1410": {
    "zip_code": "7691410",
    "prefecture": "香川県",
    "prefecture_kana": "カガワケン",
    "prefecture_code": "37",
    "city": "三豊市",
    "city_kana": "ミトヨシ",
    "town": "仁尾町家の浦",
    "town_kana": "ニオチョウイエノウラ",
    "street": null,
    "office_name": null,
    "office_name_kana": null
  },
  "1501": {
    "zip_code": "7691501",
    "prefecture": "香川県",
    "prefecture_kana": "カガワケン",
    "prefecture_code": "37",
    "city": "三豊市",
    "city_kana": "ミトヨシ",
    "town": "豊中町比地大",
    "town_kana": "トヨナカチョウヒジダイ",
    "street": null,
    "office_name": null,
    "office_name_kana": null
  },
  "1502": {
    "zip_code": "7691502",
    "prefecture": "香川県",
    "prefecture_kana": "カガワケン",
    "prefecture_code": "37",
    "city": "三豊市",
    "city_kana": "ミトヨシ",
    "town": "豊中町笠田笠岡",
    "town_kana": "トヨナカチョウカサダカサオカ",
    "street": null,
    "office_name": null,
    "office_name_kana": null
  },
  "1503": {
    "zip_code": "7691503",
    "prefecture": "香川県",
    "prefecture_kana": "カガワケン",
    "prefecture_code": "37",
    "city": "三豊市",
    "city_kana": "ミトヨシ",
    "town": "豊中町笠田竹田",
    "town_kana": "トヨナカチョウカサダタケダ",
    "street": null,
    "office_name": null,
    "office_name_kana": null
  },
  "1504": {
    "zip_code": "7691504",
    "prefecture": "香川県",
    "prefecture_kana": "カガワケン",
    "prefecture_code": "37",
    "city": "三豊市",
    "city_kana": "ミトヨシ",
    "town": "豊中町上高野",
    "town_kana": "トヨナカチョウカミダカノ",
    "street": null,
    "office_name": null,
    "office_name_kana": null
  },
  "1505": {
    "zip_code": "7691505",
    "prefecture": "香川県",
    "prefecture_kana": "カガワケン",
    "prefecture_code": "37",
    "city": "三豊市",
    "city_kana": "ミトヨシ",
    "town": "豊中町本山乙",
    "town_kana": "トヨナカチョウモトヤマオツ",
    "street": null,
    "office_name": null,
    "office_name_kana": null
  },
  "1506": {
    "zip_code": "7691506",
    "prefecture": "香川県",
    "prefecture_kana": "カガワケン",
    "prefecture_code": "37",
    "city": "三豊市",
    "city_kana": "ミトヨシ",
    "town": "豊中町本山甲",
    "town_kana": "トヨナカチョウモトヤマコウ",
    "street": null,
    "office_name": null,
    "office_name_kana": null
  },
  "1507": {
    "zip_code": "7691507",
    "prefecture": "香川県",
    "prefecture_kana": "カガワケン",
    "prefecture_code": "37",
    "city": "三豊市",
    "city_kana": "ミトヨシ",
    "town": "豊中町岡本",
    "town_kana": "トヨナカチョウオカモト",
    "street": null,
    "office_name": null,
    "office_name_kana": null
  },
  "1508": {
    "zip_code": "7691508",
    "prefecture": "香川県",
    "prefecture_kana": "カガワケン",
    "prefecture_code": "37",
    "city": "三豊市",
    "city_kana": "ミトヨシ",
    "town": "豊中町下高野",
    "town_kana": "トヨナカチョウシモダカノ",
    "street": null,
    "office_name": null,
    "office_name_kana": null
  },
  "1593": {
    "zip_code": "7691593",
    "prefecture": "香川県",
    "prefecture_kana": "カガワケン",
    "prefecture_code": "37",
    "city": "三豊市",
    "city_kana": "ミトヨシ",
    "town": "豊中町本山甲",
    "town_kana": "トヨナカチョウモトヤマコウ",
    "street": "２０１−１",
    "office_name": "三豊市役所　豊中庁舎",
    "office_name_kana": "ミトヨシヤクシヨ トヨナカチヨウシヤ"
  },
  "1601": {
    "zip_code": "7691601",
    "prefecture": "香川県",
    "prefecture_kana": "カガワケン",
    "prefecture_code": "37",
    "city": "観音寺市",
    "city_kana": "カンオンジシ",
    "town": "豊浜町姫浜",
    "town_kana": "トヨハマチョウヒメハマ",
    "street": null,
    "office_name": null,
    "office_name_kana": null
  },
  "1602": {
    "zip_code": "7691602",
    "prefecture": "香川県",
    "prefecture_kana": "カガワケン",
    "prefecture_code": "37",
    "city": "観音寺市",
    "city_kana": "カンオンジシ",
    "town": "豊浜町和田浜",
    "town_kana": "トヨハマチョウワダハマ",
    "street": null,
    "office_name": null,
    "office_name_kana": null
  },
  "1603": {
    "zip_code": "7691603",
    "prefecture": "香川県",
    "prefecture_kana": "カガワケン",
    "prefecture_code": "37",
    "city": "観音寺市",
    "city_kana": "カンオンジシ",
    "town": "豊浜町和田",
    "town_kana": "トヨハマチョウワダ",
    "street": null,
    "office_name": null,
    "office_name_kana": null
  },
  "1604": {
    "zip_code": "7691604",
    "prefecture": "香川県",
    "prefecture_kana": "カガワケン",
    "prefecture_code": "37",
    "city": "観音寺市",
    "city_kana": "カンオンジシ",
    "town": "豊浜町箕浦",
    "town_kana": "トヨハマチョウミノウラ",
    "street": null,
    "office_name": null,
    "office_name_kana": null
  },
  "1611": {
    "zip_code": "7691611",
    "prefecture": "香川県",
    "prefecture_kana": "カガワケン",
    "prefecture_code": "37",
    "city": "観音寺市",
    "city_kana": "カンオンジシ",
    "town": "大野原町大野原",
    "town_kana": "オオノハラチョウオオノハラ",
    "street": null,
    "office_name": null,
    "office_name_kana": null
  },
  "1612": {
    "zip_code": "7691612",
    "prefecture": "香川県",
    "prefecture_kana": "カガワケン",
    "prefecture_code": "37",
    "city": "観音寺市",
    "city_kana": "カンオンジシ",
    "town": "大野原町中姫",
    "town_kana": "オオノハラチョウナカヒメ",
    "street": null,
    "office_name": null,
    "office_name_kana": null
  },
  "1613": {
    "zip_code": "7691613",
    "prefecture": "香川県",
    "prefecture_kana": "カガワケン",
    "prefecture_code": "37",
    "city": "観音寺市",
    "city_kana": "カンオンジシ",
    "town": "大野原町花稲",
    "town_kana": "オオノハラチョウハナイナ",
    "street": null,
    "office_name": null,
    "office_name_kana": null
  },
  "1614": {
    "zip_code": "7691614",
    "prefecture": "香川県",
    "prefecture_kana": "カガワケン",
    "prefecture_code": "37",
    "city": "観音寺市",
    "city_kana": "カンオンジシ",
    "town": "大野原町萩原",
    "town_kana": "オオノハラチョウハギワラ",
    "street": null,
    "office_name": null,
    "office_name_kana": null
  },
  "1615": {
    "zip_code": "7691615",
    "prefecture": "香川県",
    "prefecture_kana": "カガワケン",
    "prefecture_code": "37",
    "city": "観音寺市",
    "city_kana": "カンオンジシ",
    "town": "大野原町丸井",
    "town_kana": "オオノハラチョウマルイ",
    "street": null,
    "office_name": null,
    "office_name_kana": null
  },
  "1616": {
    "zip_code": "7691616",
    "prefecture": "香川県",
    "prefecture_kana": "カガワケン",
    "prefecture_code": "37",
    "city": "観音寺市",
    "city_kana": "カンオンジシ",
    "town": "大野原町福田原",
    "town_kana": "オオノハラチョウフクダハラ",
    "street": null,
    "office_name": null,
    "office_name_kana": null
  },
  "1617": {
    "zip_code": "7691617",
    "prefecture": "香川県",
    "prefecture_kana": "カガワケン",
    "prefecture_code": "37",
    "city": "観音寺市",
    "city_kana": "カンオンジシ",
    "town": "大野原町青岡",
    "town_kana": "オオノハラチョウアオオカ",
    "street": null,
    "office_name": null,
    "office_name_kana": null
  },
  "1621": {
    "zip_code": "7691621",
    "prefecture": "香川県",
    "prefecture_kana": "カガワケン",
    "prefecture_code": "37",
    "city": "観音寺市",
    "city_kana": "カンオンジシ",
    "town": "大野原町井関",
    "town_kana": "オオノハラチョウイセキ",
    "street": null,
    "office_name": null,
    "office_name_kana": null
  },
  "1622": {
    "zip_code": "7691622",
    "prefecture": "香川県",
    "prefecture_kana": "カガワケン",
    "prefecture_code": "37",
    "city": "観音寺市",
    "city_kana": "カンオンジシ",
    "town": "大野原町内野々",
    "town_kana": "オオノハラチョウウチノノ",
    "street": null,
    "office_name": null,
    "office_name_kana": null
  },
  "1623": {
    "zip_code": "7691623",
    "prefecture": "香川県",
    "prefecture_kana": "カガワケン",
    "prefecture_code": "37",
    "city": "観音寺市",
    "city_kana": "カンオンジシ",
    "town": "大野原町田野々",
    "town_kana": "オオノハラチョウタノノ",
    "street": null,
    "office_name": null,
    "office_name_kana": null
  },
  "1624": {
    "zip_code": "7691624",
    "prefecture": "香川県",
    "prefecture_kana": "カガワケン",
    "prefecture_code": "37",
    "city": "観音寺市",
    "city_kana": "カンオンジシ",
    "town": "大野原町有木",
    "town_kana": "オオノハラチョウアリキ",
    "street": null,
    "office_name": null,
    "office_name_kana": null
  },
  "1625": {
    "zip_code": "7691625",
    "prefecture": "香川県",
    "prefecture_kana": "カガワケン",
    "prefecture_code": "37",
    "city": "観音寺市",
    "city_kana": "カンオンジシ",
    "town": "大野原町海老済",
    "town_kana": "オオノハラチョウエビスクイ",
    "street": null,
    "office_name": null,
    "office_name_kana": null
  },
  "1689": {
    "zip_code": "7691689",
    "prefecture": "香川県",
    "prefecture_kana": "カガワケン",
    "prefecture_code": "37",
    "city": "観音寺市",
    "city_kana": "カンオンジシ",
    "town": "大野原町大野原",
    "town_kana": "オオノハラチョウオオノハラ",
    "street": "５５３７",
    "office_name": "香川県立　三豊工業高等学校",
    "office_name_kana": "カガワケンリツ ミトヨコウギヨウコウトウガツコウ"
  },
  "1694": {
    "zip_code": "7691694",
    "prefecture": "香川県",
    "prefecture_kana": "カガワケン",
    "prefecture_code": "37",
    "city": "観音寺市",
    "city_kana": "カンオンジシ",
    "town": "豊浜町姫浜",
    "town_kana": "トヨハマチョウヒメハマ",
    "street": "３２５",
    "office_name": "富士紡績　豊浜工場",
    "office_name_kana": "フジボウセキ トヨハマコウジヨウ"
  },
  "1695": {
    "zip_code": "7691695",
    "prefecture": "香川県",
    "prefecture_kana": "カガワケン",
    "prefecture_code": "37",
    "city": "観音寺市",
    "city_kana": "カンオンジシ",
    "town": "豊浜町姫浜",
    "town_kana": "トヨハマチョウヒメハマ",
    "street": "７０８",
    "office_name": "三豊総合病院",
    "office_name_kana": "ミトヨソウゴウビヨウイン"
  },
  "1696": {
    "zip_code": "7691696",
    "prefecture": "香川県",
    "prefecture_kana": "カガワケン",
    "prefecture_code": "37",
    "city": "観音寺市",
    "city_kana": "カンオンジシ",
    "town": "豊浜町和田浜",
    "town_kana": "トヨハマチョウワダハマ",
    "street": "１６１０−２",
    "office_name": "第一衛材　株式会社",
    "office_name_kana": "ダイイチエイザイ カブシキガイシヤ"
  },
  "1698": {
    "zip_code": "7691698",
    "prefecture": "香川県",
    "prefecture_kana": "カガワケン",
    "prefecture_code": "37",
    "city": "観音寺市",
    "city_kana": "カンオンジシ",
    "town": "大野原町大野原",
    "town_kana": "オオノハラチョウオオノハラ",
    "street": "１８３４（豊浜郵便局私書箱第６号）",
    "office_name": "森孵卵場　株式会社",
    "office_name_kana": "モリフランジヨウ カブシキガイシヤ"
  },
  "2101": {
    "zip_code": "7692101",
    "prefecture": "香川県",
    "prefecture_kana": "カガワケン",
    "prefecture_code": "37",
    "city": "さぬき市",
    "city_kana": "サヌキシ",
    "town": "志度",
    "town_kana": "シド",
    "street": null,
    "office_name": null,
    "office_name_kana": null
  },
  "2102": {
    "zip_code": "7692102",
    "prefecture": "香川県",
    "prefecture_kana": "カガワケン",
    "prefecture_code": "37",
    "city": "さぬき市",
    "city_kana": "サヌキシ",
    "town": "鴨庄",
    "town_kana": "カモショウ",
    "street": null,
    "office_name": null,
    "office_name_kana": null
  },
  "2103": {
    "zip_code": "7692103",
    "prefecture": "香川県",
    "prefecture_kana": "カガワケン",
    "prefecture_code": "37",
    "city": "さぬき市",
    "city_kana": "サヌキシ",
    "town": "小田",
    "town_kana": "オダ",
    "street": null,
    "office_name": null,
    "office_name_kana": null
  },
  "2104": {
    "zip_code": "7692104",
    "prefecture": "香川県",
    "prefecture_kana": "カガワケン",
    "prefecture_code": "37",
    "city": "さぬき市",
    "city_kana": "サヌキシ",
    "town": "鴨部",
    "town_kana": "カベ",
    "street": null,
    "office_name": null,
    "office_name_kana": null
  },
  "2105": {
    "zip_code": "7692105",
    "prefecture": "香川県",
    "prefecture_kana": "カガワケン",
    "prefecture_code": "37",
    "city": "さぬき市",
    "city_kana": "サヌキシ",
    "town": "末",
    "town_kana": "スエ",
    "street": null,
    "office_name": null,
    "office_name_kana": null
  },
  "2192": {
    "zip_code": "7692192",
    "prefecture": "香川県",
    "prefecture_kana": "カガワケン",
    "prefecture_code": "37",
    "city": "さぬき市",
    "city_kana": "サヌキシ",
    "town": "志度",
    "town_kana": "シド",
    "street": "５４１２",
    "office_name": "キャスコ　（株）",
    "office_name_kana": "キヤスコ カブシキガイシヤ"
  },
  "2193": {
    "zip_code": "7692193",
    "prefecture": "香川県",
    "prefecture_kana": "カガワケン",
    "prefecture_code": "37",
    "city": "さぬき市",
    "city_kana": "サヌキシ",
    "town": "志度",
    "town_kana": "シド",
    "street": "１３１４−１",
    "office_name": "徳島文理大学　香川校",
    "office_name_kana": "トクシマブンリダイガク カガワコウ"
  },
  "2195": {
    "zip_code": "7692195",
    "prefecture": "香川県",
    "prefecture_kana": "カガワケン",
    "prefecture_code": "37",
    "city": "さぬき市",
    "city_kana": "サヌキシ",
    "town": "志度",
    "town_kana": "シド",
    "street": "５３８５−８",
    "office_name": "さぬき市役所",
    "office_name_kana": "サヌキシヤクシヨ"
  },
  "2300": {
    "zip_code": "7692300",
    "prefecture": "香川県",
    "prefecture_kana": "カガワケン",
    "prefecture_code": "37",
    "city": "さぬき市",
    "city_kana": "サヌキシ",
    "town": "",
    "town_kana": "",
    "street": null,
    "office_name": null,
    "office_name_kana": null
  },
  "2301": {
    "zip_code": "7692301",
    "prefecture": "香川県",
    "prefecture_kana": "カガワケン",
    "prefecture_code": "37",
    "city": "さぬき市",
    "city_kana": "サヌキシ",
    "town": "長尾東",
    "town_kana": "ナガオヒガシ",
    "street": null,
    "office_name": null,
    "office_name_kana": null
  },
  "2302": {
    "zip_code": "7692302",
    "prefecture": "香川県",
    "prefecture_kana": "カガワケン",
    "prefecture_code": "37",
    "city": "さぬき市",
    "city_kana": "サヌキシ",
    "town": "長尾西",
    "town_kana": "ナガオニシ",
    "street": null,
    "office_name": null,
    "office_name_kana": null
  },
  "2303": {
    "zip_code": "7692303",
    "prefecture": "香川県",
    "prefecture_kana": "カガワケン",
    "prefecture_code": "37",
    "city": "さぬき市",
    "city_kana": "サヌキシ",
    "town": "長尾名",
    "town_kana": "ナガオミョウ",
    "street": null,
    "office_name": null,
    "office_name_kana": null
  },
  "2304": {
    "zip_code": "7692304",
    "prefecture": "香川県",
    "prefecture_kana": "カガワケン",
    "prefecture_code": "37",
    "city": "さぬき市",
    "city_kana": "サヌキシ",
    "town": "昭和",
    "town_kana": "ショウワ",
    "street": null,
    "office_name": null,
    "office_name_kana": null
  },
  "2305": {
    "zip_code": "7692305",
    "prefecture": "香川県",
    "prefecture_kana": "カガワケン",
    "prefecture_code": "37",
    "city": "さぬき市",
    "city_kana": "サヌキシ",
    "town": "前山",
    "town_kana": "マエヤマ",
    "street": null,
    "office_name": null,
    "office_name_kana": null
  },
  "2306": {
    "zip_code": "7692306",
    "prefecture": "香川県",
    "prefecture_kana": "カガワケン",
    "prefecture_code": "37",
    "city": "さぬき市",
    "city_kana": "サヌキシ",
    "town": "多和",
    "town_kana": "タワ",
    "street": null,
    "office_name": null,
    "office_name_kana": null
  },
  "2311": {
    "zip_code": "7692311",
    "prefecture": "香川県",
    "prefecture_kana": "カガワケン",
    "prefecture_code": "37",
    "city": "さぬき市",
    "city_kana": "サヌキシ",
    "town": "造田宮西",
    "town_kana": "ゾウタミヤニシ",
    "street": null,
    "office_name": null,
    "office_name_kana": null
  },
  "2312": {
    "zip_code": "7692312",
    "prefecture": "香川県",
    "prefecture_kana": "カガワケン",
    "prefecture_code": "37",
    "city": "さぬき市",
    "city_kana": "サヌキシ",
    "town": "造田是弘",
    "town_kana": "ゾウタコレヒロ",
    "street": null,
    "office_name": null,
    "office_name_kana": null
  },
  "2313": {
    "zip_code": "7692313",
    "prefecture": "香川県",
    "prefecture_kana": "カガワケン",
    "prefecture_code": "37",
    "city": "さぬき市",
    "city_kana": "サヌキシ",
    "town": "造田野間田",
    "town_kana": "ゾウタノマダ",
    "street": null,
    "office_name": null,
    "office_name_kana": null
  },
  "2314": {
    "zip_code": "7692314",
    "prefecture": "香川県",
    "prefecture_kana": "カガワケン",
    "prefecture_code": "37",
    "city": "さぬき市",
    "city_kana": "サヌキシ",
    "town": "造田乙井",
    "town_kana": "ゾウタオトイ",
    "street": null,
    "office_name": null,
    "office_name_kana": null
  },
  "2315": [
    {
      "zip_code": "7692315",
      "prefecture": "香川県",
      "prefecture_kana": "カガワケン",
      "prefecture_code": "37",
      "city": "さぬき市",
      "city_kana": "サヌキシ",
      "town": "造田",
      "town_kana": "ゾウタ",
      "street": null,
      "office_name": null,
      "office_name_kana": null
    },
    {
      "zip_code": "7692315",
      "prefecture": "香川県",
      "prefecture_kana": "カガワケン",
      "prefecture_code": "37",
      "city": "さぬき市",
      "city_kana": "サヌキシ",
      "town": "造田オレンジタウン",
      "town_kana": "ゾウタオレンジタウン",
      "street": null,
      "office_name": null,
      "office_name_kana": null
    }
  ],
  "2321": {
    "zip_code": "7692321",
    "prefecture": "香川県",
    "prefecture_kana": "カガワケン",
    "prefecture_code": "37",
    "city": "さぬき市",
    "city_kana": "サヌキシ",
    "town": "寒川町石田東",
    "town_kana": "サンガワマチイシダヒガシ",
    "street": null,
    "office_name": null,
    "office_name_kana": null
  },
  "2322": {
    "zip_code": "7692322",
    "prefecture": "香川県",
    "prefecture_kana": "カガワケン",
    "prefecture_code": "37",
    "city": "さぬき市",
    "city_kana": "サヌキシ",
    "town": "寒川町石田西",
    "town_kana": "サンガワマチイシダニシ",
    "street": null,
    "office_name": null,
    "office_name_kana": null
  },
  "2323": {
    "zip_code": "7692323",
    "prefecture": "香川県",
    "prefecture_kana": "カガワケン",
    "prefecture_code": "37",
    "city": "さぬき市",
    "city_kana": "サヌキシ",
    "town": "寒川町神前",
    "town_kana": "サンガワマチカンザキ",
    "street": null,
    "office_name": null,
    "office_name_kana": null
  },
  "2392": {
    "zip_code": "7692392",
    "prefecture": "香川県",
    "prefecture_kana": "カガワケン",
    "prefecture_code": "37",
    "city": "さぬき市",
    "city_kana": "サヌキシ",
    "town": "長尾東",
    "town_kana": "ナガオヒガシ",
    "street": "８８８−５",
    "office_name": "さぬき市保健福祉事務所　（長尾支所）",
    "office_name_kana": "サヌキシホケンフクシジムシヨ (ナガオシシヨ)"
  },
  "2401": {
    "zip_code": "7692401",
    "prefecture": "香川県",
    "prefecture_kana": "カガワケン",
    "prefecture_code": "37",
    "city": "さぬき市",
    "city_kana": "サヌキシ",
    "town": "津田町津田",
    "town_kana": "ツダマチツダ",
    "street": null,
    "office_name": null,
    "office_name_kana": null
  },
  "2402": {
    "zip_code": "7692402",
    "prefecture": "香川県",
    "prefecture_kana": "カガワケン",
    "prefecture_code": "37",
    "city": "さぬき市",
    "city_kana": "サヌキシ",
    "town": "津田町鶴羽",
    "town_kana": "ツダマチツルワ",
    "street": null,
    "office_name": null,
    "office_name_kana": null
  },
  "2492": {
    "zip_code": "7692492",
    "prefecture": "香川県",
    "prefecture_kana": "カガワケン",
    "prefecture_code": "37",
    "city": "さぬき市",
    "city_kana": "サヌキシ",
    "town": "津田町津田",
    "town_kana": "ツダマチツダ",
    "street": "１３８−１５",
    "office_name": "さぬき市教育委員会　（津田支所）",
    "office_name_kana": "サヌキシキヨウイクイインカイ (ツダシシヨ)"
  },
  "2511": {
    "zip_code": "7692511",
    "prefecture": "香川県",
    "prefecture_kana": "カガワケン",
    "prefecture_code": "37",
    "city": "東かがわ市",
    "city_kana": "ヒガシカガワシ",
    "town": "小磯",
    "town_kana": "コイソ",
    "street": null,
    "office_name": null,
    "office_name_kana": null
  },
  "2512": {
    "zip_code": "7692512",
    "prefecture": "香川県",
    "prefecture_kana": "カガワケン",
    "prefecture_code": "37",
    "city": "東かがわ市",
    "city_kana": "ヒガシカガワシ",
    "town": "落合",
    "town_kana": "オチアイ",
    "street": null,
    "office_name": null,
    "office_name_kana": null
  },
  "2513": {
    "zip_code": "7692513",
    "prefecture": "香川県",
    "prefecture_kana": "カガワケン",
    "prefecture_code": "37",
    "city": "東かがわ市",
    "city_kana": "ヒガシカガワシ",
    "town": "大谷",
    "town_kana": "オオタニ",
    "street": null,
    "office_name": null,
    "office_name_kana": null
  },
  "2514": {
    "zip_code": "7692514",
    "prefecture": "香川県",
    "prefecture_kana": "カガワケン",
    "prefecture_code": "37",
    "city": "東かがわ市",
    "city_kana": "ヒガシカガワシ",
    "town": "松崎",
    "town_kana": "マツサキ",
    "street": null,
    "office_name": null,
    "office_name_kana": null
  },
  "2515": {
    "zip_code": "7692515",
    "prefecture": "香川県",
    "prefecture_kana": "カガワケン",
    "prefecture_code": "37",
    "city": "東かがわ市",
    "city_kana": "ヒガシカガワシ",
    "town": "町田",
    "town_kana": "マチダ",
    "street": null,
    "office_name": null,
    "office_name_kana": null
  },
  "2516": {
    "zip_code": "7692516",
    "prefecture": "香川県",
    "prefecture_kana": "カガワケン",
    "prefecture_code": "37",
    "city": "東かがわ市",
    "city_kana": "ヒガシカガワシ",
    "town": "土居",
    "town_kana": "ドイ",
    "street": null,
    "office_name": null,
    "office_name_kana": null
  },
  "2517": {
    "zip_code": "7692517",
    "prefecture": "香川県",
    "prefecture_kana": "カガワケン",
    "prefecture_code": "37",
    "city": "東かがわ市",
    "city_kana": "ヒガシカガワシ",
    "town": "三殿",
    "town_kana": "ミドノ",
    "street": null,
    "office_name": null,
    "office_name_kana": null
  },
  "2518": {
    "zip_code": "7692518",
    "prefecture": "香川県",
    "prefecture_kana": "カガワケン",
    "prefecture_code": "37",
    "city": "東かがわ市",
    "city_kana": "ヒガシカガワシ",
    "town": "中山",
    "town_kana": "ナカヤマ",
    "street": null,
    "office_name": null,
    "office_name_kana": null
  },
  "2519": {
    "zip_code": "7692519",
    "prefecture": "香川県",
    "prefecture_kana": "カガワケン",
    "prefecture_code": "37",
    "city": "東かがわ市",
    "city_kana": "ヒガシカガワシ",
    "town": "小砂",
    "town_kana": "コザレ",
    "street": null,
    "office_name": null,
    "office_name_kana": null
  },
  "2520": {
    "zip_code": "7692520",
    "prefecture": "香川県",
    "prefecture_kana": "カガワケン",
    "prefecture_code": "37",
    "city": "東かがわ市",
    "city_kana": "ヒガシカガワシ",
    "town": "馬篠",
    "town_kana": "ウマシノ",
    "street": null,
    "office_name": null,
    "office_name_kana": null
  },
  "2521": {
    "zip_code": "7692521",
    "prefecture": "香川県",
    "prefecture_kana": "カガワケン",
    "prefecture_code": "37",
    "city": "東かがわ市",
    "city_kana": "ヒガシカガワシ",
    "town": "大内",
    "town_kana": "オオチ",
    "street": null,
    "office_name": null,
    "office_name_kana": null
  },
  "2601": {
    "zip_code": "7692601",
    "prefecture": "香川県",
    "prefecture_kana": "カガワケン",
    "prefecture_code": "37",
    "city": "東かがわ市",
    "city_kana": "ヒガシカガワシ",
    "town": "三本松",
    "town_kana": "サンボンマツ",
    "street": null,
    "office_name": null,
    "office_name_kana": null
  },
  "2602": {
    "zip_code": "7692602",
    "prefecture": "香川県",
    "prefecture_kana": "カガワケン",
    "prefecture_code": "37",
    "city": "東かがわ市",
    "city_kana": "ヒガシカガワシ",
    "town": "川東",
    "town_kana": "カワヒガシ",
    "street": null,
    "office_name": null,
    "office_name_kana": null
  },
  "2603": {
    "zip_code": "7692603",
    "prefecture": "香川県",
    "prefecture_kana": "カガワケン",
    "prefecture_code": "37",
    "city": "東かがわ市",
    "city_kana": "ヒガシカガワシ",
    "town": "横内",
    "town_kana": "ヨコウチ",
    "street": null,
    "office_name": null,
    "office_name_kana": null
  },
  "2604": {
    "zip_code": "7692604",
    "prefecture": "香川県",
    "prefecture_kana": "カガワケン",
    "prefecture_code": "37",
    "city": "東かがわ市",
    "city_kana": "ヒガシカガワシ",
    "town": "西村",
    "town_kana": "ニシムラ",
    "street": null,
    "office_name": null,
    "office_name_kana": null
  },
  "2605": {
    "zip_code": "7692605",
    "prefecture": "香川県",
    "prefecture_kana": "カガワケン",
    "prefecture_code": "37",
    "city": "東かがわ市",
    "city_kana": "ヒガシカガワシ",
    "town": "中筋",
    "town_kana": "ナカスジ",
    "street": null,
    "office_name": null,
    "office_name_kana": null
  },
  "2606": {
    "zip_code": "7692606",
    "prefecture": "香川県",
    "prefecture_kana": "カガワケン",
    "prefecture_code": "37",
    "city": "東かがわ市",
    "city_kana": "ヒガシカガワシ",
    "town": "水主",
    "town_kana": "ミズシ",
    "street": null,
    "office_name": null,
    "office_name_kana": null
  },
  "2692": {
    "zip_code": "7692692",
    "prefecture": "香川県",
    "prefecture_kana": "カガワケン",
    "prefecture_code": "37",
    "city": "東かがわ市",
    "city_kana": "ヒガシカガワシ",
    "town": "三本松",
    "town_kana": "サンボンマツ",
    "street": "１１７２",
    "office_name": "東かがわ市役所　大内庁舎",
    "office_name_kana": "ヒガシカガワシヤクシヨ オオチチヨウシヤ"
  },
  "2693": {
    "zip_code": "7692693",
    "prefecture": "香川県",
    "prefecture_kana": "カガワケン",
    "prefecture_code": "37",
    "city": "東かがわ市",
    "city_kana": "ヒガシカガワシ",
    "town": "横内",
    "town_kana": "ヨコウチ",
    "street": "６８９−１",
    "office_name": "株式会社　トーコー",
    "office_name_kana": "カブシキガイシヤ ト-コ-"
  },
  "2695": {
    "zip_code": "7692695",
    "prefecture": "香川県",
    "prefecture_kana": "カガワケン",
    "prefecture_code": "37",
    "city": "東かがわ市",
    "city_kana": "ヒガシカガワシ",
    "town": "三本松",
    "town_kana": "サンボンマツ",
    "street": "５６７（三本松郵便局私書箱第１号）",
    "office_name": "帝國製薬　株式会社",
    "office_name_kana": "テイコクセイヤク カブシキガイシヤ"
  },
  "2696": {
    "zip_code": "7692696",
    "prefecture": "香川県",
    "prefecture_kana": "カガワケン",
    "prefecture_code": "37",
    "city": "東かがわ市",
    "city_kana": "ヒガシカガワシ",
    "town": "三本松",
    "town_kana": "サンボンマツ",
    "street": "２１２３（三本松郵便局私書箱第１１号）",
    "office_name": "株式会社　オールインワン",
    "office_name_kana": "カブシキガイシヤ オ-ルインワン"
  },
  "2700": {
    "zip_code": "7692700",
    "prefecture": "香川県",
    "prefecture_kana": "カガワケン",
    "prefecture_code": "37",
    "city": "東かがわ市",
    "city_kana": "ヒガシカガワシ",
    "town": "",
    "town_kana": "",
    "street": null,
    "office_name": null,
    "office_name_kana": null
  },
  "2701": {
    "zip_code": "7692701",
    "prefecture": "香川県",
    "prefecture_kana": "カガワケン",
    "prefecture_code": "37",
    "city": "東かがわ市",
    "city_kana": "ヒガシカガワシ",
    "town": "湊",
    "town_kana": "ミナト",
    "street": null,
    "office_name": null,
    "office_name_kana": null
  },
  "2702": {
    "zip_code": "7692702",
    "prefecture": "香川県",
    "prefecture_kana": "カガワケン",
    "prefecture_code": "37",
    "city": "東かがわ市",
    "city_kana": "ヒガシカガワシ",
    "town": "松原",
    "town_kana": "マツバラ",
    "street": null,
    "office_name": null,
    "office_name_kana": null
  },
  "2703": {
    "zip_code": "7692703",
    "prefecture": "香川県",
    "prefecture_kana": "カガワケン",
    "prefecture_code": "37",
    "city": "東かがわ市",
    "city_kana": "ヒガシカガワシ",
    "town": "伊座",
    "town_kana": "イザ",
    "street": null,
    "office_name": null,
    "office_name_kana": null
  },
  "2704": {
    "zip_code": "7692704",
    "prefecture": "香川県",
    "prefecture_kana": "カガワケン",
    "prefecture_code": "37",
    "city": "東かがわ市",
    "city_kana": "ヒガシカガワシ",
    "town": "帰来",
    "town_kana": "キライ",
    "street": null,
    "office_name": null,
    "office_name_kana": null
  },
  "2705": {
    "zip_code": "7692705",
    "prefecture": "香川県",
    "prefecture_kana": "カガワケン",
    "prefecture_code": "37",
    "city": "東かがわ市",
    "city_kana": "ヒガシカガワシ",
    "town": "白鳥",
    "town_kana": "シロトリ",
    "street": null,
    "office_name": null,
    "office_name_kana": null
  },
  "2711": {
    "zip_code": "7692711",
    "prefecture": "香川県",
    "prefecture_kana": "カガワケン",
    "prefecture_code": "37",
    "city": "東かがわ市",
    "city_kana": "ヒガシカガワシ",
    "town": "東山",
    "town_kana": "ヒガシヤマ",
    "street": null,
    "office_name": null,
    "office_name_kana": null
  },
  "2712": {
    "zip_code": "7692712",
    "prefecture": "香川県",
    "prefecture_kana": "カガワケン",
    "prefecture_code": "37",
    "city": "東かがわ市",
    "city_kana": "ヒガシカガワシ",
    "town": "西山",
    "town_kana": "ニシヤマ",
    "street": null,
    "office_name": null,
    "office_name_kana": null
  },
  "2713": {
    "zip_code": "7692713",
    "prefecture": "香川県",
    "prefecture_kana": "カガワケン",
    "prefecture_code": "37",
    "city": "東かがわ市",
    "city_kana": "ヒガシカガワシ",
    "town": "与田山",
    "town_kana": "ヨダヤマ",
    "street": null,
    "office_name": null,
    "office_name_kana": null
  },
  "2714": {
    "zip_code": "7692714",
    "prefecture": "香川県",
    "prefecture_kana": "カガワケン",
    "prefecture_code": "37",
    "city": "東かがわ市",
    "city_kana": "ヒガシカガワシ",
    "town": "入野山",
    "town_kana": "ニュウノヤマ",
    "street": null,
    "office_name": null,
    "office_name_kana": null
  },
  "2715": {
    "zip_code": "7692715",
    "prefecture": "香川県",
    "prefecture_kana": "カガワケン",
    "prefecture_code": "37",
    "city": "東かがわ市",
    "city_kana": "ヒガシカガワシ",
    "town": "五名",
    "town_kana": "ゴミョウ",
    "street": null,
    "office_name": null,
    "office_name_kana": null
  },
  "2788": {
    "zip_code": "7692788",
    "prefecture": "香川県",
    "prefecture_kana": "カガワケン",
    "prefecture_code": "37",
    "city": "東かがわ市",
    "city_kana": "ヒガシカガワシ",
    "town": "松原",
    "town_kana": "マツバラ",
    "street": "９６３",
    "office_name": "香川県立　白鳥病院",
    "office_name_kana": "カガワケンリツ シロトリビヨウイン"
  },
  "2792": {
    "zip_code": "7692792",
    "prefecture": "香川県",
    "prefecture_kana": "カガワケン",
    "prefecture_code": "37",
    "city": "東かがわ市",
    "city_kana": "ヒガシカガワシ",
    "town": "湊",
    "town_kana": "ミナト",
    "street": "１８４７−１",
    "office_name": "東かがわ市役所",
    "office_name_kana": "ヒガシカガワシヤクシヨ"
  },
  "2794": {
    "zip_code": "7692794",
    "prefecture": "香川県",
    "prefecture_kana": "カガワケン",
    "prefecture_code": "37",
    "city": "東かがわ市",
    "city_kana": "ヒガシカガワシ",
    "town": "湊",
    "town_kana": "ミナト",
    "street": "１７８９",
    "office_name": "四国化工　株式会社",
    "office_name_kana": "シコクカコウ カブシキガイシヤ"
  },
  "2795": {
    "zip_code": "7692795",
    "prefecture": "香川県",
    "prefecture_kana": "カガワケン",
    "prefecture_code": "37",
    "city": "東かがわ市",
    "city_kana": "ヒガシカガワシ",
    "town": "松原",
    "town_kana": "マツバラ",
    "street": "９８１",
    "office_name": "（株）　スワニー",
    "office_name_kana": "カブシキガイシヤ スワニ-"
  },
  "2796": {
    "zip_code": "7692796",
    "prefecture": "香川県",
    "prefecture_kana": "カガワケン",
    "prefecture_code": "37",
    "city": "東かがわ市",
    "city_kana": "ヒガシカガワシ",
    "town": "松原",
    "town_kana": "マツバラ",
    "street": "１０９５",
    "office_name": "（株）　ナイガイ",
    "office_name_kana": "カブシキガイシヤ ナイガイ"
  },
  "2797": {
    "zip_code": "7692797",
    "prefecture": "香川県",
    "prefecture_kana": "カガワケン",
    "prefecture_code": "37",
    "city": "東かがわ市",
    "city_kana": "ヒガシカガワシ",
    "town": "西山",
    "town_kana": "ニシヤマ",
    "street": "５１６番地１",
    "office_name": "四国化工　株式会社",
    "office_name_kana": "シコクカコウ カブシキガイシヤ"
  },
  "2901": {
    "zip_code": "7692901",
    "prefecture": "香川県",
    "prefecture_kana": "カガワケン",
    "prefecture_code": "37",
    "city": "東かがわ市",
    "city_kana": "ヒガシカガワシ",
    "town": "引田",
    "town_kana": "ヒケタ",
    "street": null,
    "office_name": null,
    "office_name_kana": null
  },
  "2902": {
    "zip_code": "7692902",
    "prefecture": "香川県",
    "prefecture_kana": "カガワケン",
    "prefecture_code": "37",
    "city": "東かがわ市",
    "city_kana": "ヒガシカガワシ",
    "town": "馬宿",
    "town_kana": "ウマヤド",
    "street": null,
    "office_name": null,
    "office_name_kana": null
  },
  "2903": {
    "zip_code": "7692903",
    "prefecture": "香川県",
    "prefecture_kana": "カガワケン",
    "prefecture_code": "37",
    "city": "東かがわ市",
    "city_kana": "ヒガシカガワシ",
    "town": "南野",
    "town_kana": "ミナミノ",
    "street": null,
    "office_name": null,
    "office_name_kana": null
  },
  "2904": {
    "zip_code": "7692904",
    "prefecture": "香川県",
    "prefecture_kana": "カガワケン",
    "prefecture_code": "37",
    "city": "東かがわ市",
    "city_kana": "ヒガシカガワシ",
    "town": "坂元",
    "town_kana": "サカモト",
    "street": null,
    "office_name": null,
    "office_name_kana": null
  },
  "2905": {
    "zip_code": "7692905",
    "prefecture": "香川県",
    "prefecture_kana": "カガワケン",
    "prefecture_code": "37",
    "city": "東かがわ市",
    "city_kana": "ヒガシカガワシ",
    "town": "黒羽",
    "town_kana": "クレハ",
    "street": null,
    "office_name": null,
    "office_name_kana": null
  },
  "2906": {
    "zip_code": "7692906",
    "prefecture": "香川県",
    "prefecture_kana": "カガワケン",
    "prefecture_code": "37",
    "city": "東かがわ市",
    "city_kana": "ヒガシカガワシ",
    "town": "川股",
    "town_kana": "カワマタ",
    "street": null,
    "office_name": null,
    "office_name_kana": null
  },
  "2907": {
    "zip_code": "7692907",
    "prefecture": "香川県",
    "prefecture_kana": "カガワケン",
    "prefecture_code": "37",
    "city": "東かがわ市",
    "city_kana": "ヒガシカガワシ",
    "town": "吉田",
    "town_kana": "ヨシダ",
    "street": null,
    "office_name": null,
    "office_name_kana": null
  },
  "2908": {
    "zip_code": "7692908",
    "prefecture": "香川県",
    "prefecture_kana": "カガワケン",
    "prefecture_code": "37",
    "city": "東かがわ市",
    "city_kana": "ヒガシカガワシ",
    "town": "小海",
    "town_kana": "オウミ",
    "street": null,
    "office_name": null,
    "office_name_kana": null
  },
  "2992": {
    "zip_code": "7692992",
    "prefecture": "香川県",
    "prefecture_kana": "カガワケン",
    "prefecture_code": "37",
    "city": "東かがわ市",
    "city_kana": "ヒガシカガワシ",
    "town": "引田",
    "town_kana": "ヒケタ",
    "street": "５１３−１",
    "office_name": "東かがわ市役所　引田庁舎",
    "office_name_kana": "ヒガシカガワシヤクシヨ ヒケタチヨウシヤ"
  }
}