{
  "0000": {
    "zip_code": "7750000",
    "prefecture": "徳島県",
    "prefecture_kana": "トクシマケン",
    "prefecture_code": 36,
    "city": "海部郡牟岐町",
    "city_kana": "カイフグンムギチョウ",
    "town": "",
    "town_kana": "",
    "street": null,
    "office_name": null,
    "office_name_kana": null
  },
  "0001": {
    "zip_code": "7750001",
    "prefecture": "徳島県",
    "prefecture_kana": "トクシマケン",
    "prefecture_code": 36,
    "city": "海部郡牟岐町",
    "city_kana": "カイフグンムギチョウ",
    "town": "河内",
    "town_kana": "コウチ",
    "street": null,
    "office_name": null,
    "office_name_kana": null
  },
  "0002": {
    "zip_code": "7750002",
    "prefecture": "徳島県",
    "prefecture_kana": "トクシマケン",
    "prefecture_code": 36,
    "city": "海部郡牟岐町",
    "city_kana": "カイフグンムギチョウ",
    "town": "橘",
    "town_kana": "タチバナ",
    "street": null,
    "office_name": null,
    "office_name_kana": null
  },
  "0003": {
    "zip_code": "7750003",
    "prefecture": "徳島県",
    "prefecture_kana": "トクシマケン",
    "prefecture_code": 36,
    "city": "海部郡牟岐町",
    "city_kana": "カイフグンムギチョウ",
    "town": "辺川",
    "town_kana": "ヘガワ",
    "street": null,
    "office_name": null,
    "office_name_kana": null
  },
  "0004": {
    "zip_code": "7750004",
    "prefecture": "徳島県",
    "prefecture_kana": "トクシマケン",
    "prefecture_code": 36,
    "city": "海部郡牟岐町",
    "city_kana": "カイフグンムギチョウ",
    "town": "川長",
    "town_kana": "カワタケ",
    "street": null,
    "office_name": null,
    "office_name_kana": null
  },
  "0005": {
    "zip_code": "7750005",
    "prefecture": "徳島県",
    "prefecture_kana": "トクシマケン",
    "prefecture_code": 36,
    "city": "海部郡牟岐町",
    "city_kana": "カイフグンムギチョウ",
    "town": "灘",
    "town_kana": "ナダ",
    "street": null,
    "office_name": null,
    "office_name_kana": null
  },
  "0006": {
    "zip_code": "7750006",
    "prefecture": "徳島県",
    "prefecture_kana": "トクシマケン",
    "prefecture_code": 36,
    "city": "海部郡牟岐町",
    "city_kana": "カイフグンムギチョウ",
    "town": "中村",
    "town_kana": "ナカムラ",
    "street": null,
    "office_name": null,
    "office_name_kana": null
  },
  "0007": {
    "zip_code": "7750007",
    "prefecture": "徳島県",
    "prefecture_kana": "トクシマケン",
    "prefecture_code": 36,
    "city": "海部郡牟岐町",
    "city_kana": "カイフグンムギチョウ",
    "town": "内妻",
    "town_kana": "ウチヅマ",
    "street": null,
    "office_name": null,
    "office_name_kana": null
  },
  "0010": {
    "zip_code": "7750010",
    "prefecture": "徳島県",
    "prefecture_kana": "トクシマケン",
    "prefecture_code": 36,
    "city": "海部郡牟岐町",
    "city_kana": "カイフグンムギチョウ",
    "town": "牟岐浦",
    "town_kana": "ムギウラ",
    "street": null,
    "office_name": null,
    "office_name_kana": null
  },
  "0011": [
    {
      "zip_code": "7750011",
      "prefecture": "徳島県",
      "prefecture_kana": "トクシマケン",
      "prefecture_code": 36,
      "city": "海部郡牟岐町",
      "city_kana": "カイフグンムギチョウ",
      "town": "牟岐浦",
      "town_kana": "ムギウラ",
      "street": null,
      "office_name": null,
      "office_name_kana": null
    },
    {
      "zip_code": "7750011",
      "prefecture": "徳島県",
      "prefecture_kana": "トクシマケン",
      "prefecture_code": 36,
      "city": "海部郡牟岐町",
      "city_kana": "カイフグンムギチョウ",
      "town": "牟岐浦浜崎",
      "town_kana": "ムギウラハマサキ",
      "street": null,
      "office_name": null,
      "office_name_kana": null
    }
  ],
  "0012": [
    {
      "zip_code": "7750012",
      "prefecture": "徳島県",
      "prefecture_kana": "トクシマケン",
      "prefecture_code": 36,
      "city": "海部郡牟岐町",
      "city_kana": "カイフグンムギチョウ",
      "town": "牟岐浦",
      "town_kana": "ムギウラ",
      "street": null,
      "office_name": null,
      "office_name_kana": null
    },
    {
      "zip_code": "7750012",
      "prefecture": "徳島県",
      "prefecture_kana": "トクシマケン",
      "prefecture_code": 36,
      "city": "海部郡牟岐町",
      "city_kana": "カイフグンムギチョウ",
      "town": "牟岐浦宮ノ本",
      "town_kana": "ムギウラミヤノモト",
      "street": null,
      "office_name": null,
      "office_name_kana": null
    }
  ],
  "0013": [
    {
      "zip_code": "7750013",
      "prefecture": "徳島県",
      "prefecture_kana": "トクシマケン",
      "prefecture_code": 36,
      "city": "海部郡牟岐町",
      "city_kana": "カイフグンムギチョウ",
      "town": "牟岐浦",
      "town_kana": "ムギウラ",
      "street": null,
      "office_name": null,
      "office_name_kana": null
    },
    {
      "zip_code": "7750013",
      "prefecture": "徳島県",
      "prefecture_kana": "トクシマケン",
      "prefecture_code": 36,
      "city": "海部郡牟岐町",
      "city_kana": "カイフグンムギチョウ",
      "town": "牟岐浦出羽島",
      "town_kana": "ムギウラテバジマ",
      "street": null,
      "office_name": null,
      "office_name_kana": null
    }
  ],
  "0101": {
    "zip_code": "7750101",
    "prefecture": "徳島県",
    "prefecture_kana": "トクシマケン",
    "prefecture_code": 36,
    "city": "海部郡海陽町",
    "city_kana": "カイフグンカイヨウチョウ",
    "town": "浅川",
    "town_kana": "アサカワ",
    "street": null,
    "office_name": null,
    "office_name_kana": null
  },
  "0200": {
    "zip_code": "7750200",
    "prefecture": "徳島県",
    "prefecture_kana": "トクシマケン",
    "prefecture_code": 36,
    "city": "海部郡海陽町",
    "city_kana": "カイフグンカイヨウチョウ",
    "town": "",
    "town_kana": "",
    "street": null,
    "office_name": null,
    "office_name_kana": null
  },
  "0202": {
    "zip_code": "7750202",
    "prefecture": "徳島県",
    "prefecture_kana": "トクシマケン",
    "prefecture_code": 36,
    "city": "海部郡海陽町",
    "city_kana": "カイフグンカイヨウチョウ",
    "town": "四方原",
    "town_kana": "シホウハラ",
    "street": null,
    "office_name": null,
    "office_name_kana": null
  },
  "0203": {
    "zip_code": "7750203",
    "prefecture": "徳島県",
    "prefecture_kana": "トクシマケン",
    "prefecture_code": 36,
    "city": "海部郡海陽町",
    "city_kana": "カイフグンカイヨウチョウ",
    "town": "大里",
    "town_kana": "オオザト",
    "street": null,
    "office_name": null,
    "office_name_kana": null
  },
  "0204": {
    "zip_code": "7750204",
    "prefecture": "徳島県",
    "prefecture_kana": "トクシマケン",
    "prefecture_code": 36,
    "city": "海部郡海陽町",
    "city_kana": "カイフグンカイヨウチョウ",
    "town": "多良",
    "town_kana": "タラ",
    "street": null,
    "office_name": null,
    "office_name_kana": null
  },
  "0205": {
    "zip_code": "7750205",
    "prefecture": "徳島県",
    "prefecture_kana": "トクシマケン",
    "prefecture_code": 36,
    "city": "海部郡海陽町",
    "city_kana": "カイフグンカイヨウチョウ",
    "town": "吉野",
    "town_kana": "ヨシノ",
    "street": null,
    "office_name": null,
    "office_name_kana": null
  },
  "0206": {
    "zip_code": "7750206",
    "prefecture": "徳島県",
    "prefecture_kana": "トクシマケン",
    "prefecture_code": 36,
    "city": "海部郡海陽町",
    "city_kana": "カイフグンカイヨウチョウ",
    "town": "熟田",
    "town_kana": "ズクダ",
    "street": null,
    "office_name": null,
    "office_name_kana": null
  },
  "0295": {
    "zip_code": "7750295",
    "prefecture": "徳島県",
    "prefecture_kana": "トクシマケン",
    "prefecture_code": 36,
    "city": "海部郡海陽町",
    "city_kana": "カイフグンカイヨウチョウ",
    "town": "大里",
    "town_kana": "オオザト",
    "street": "字上中須１２８",
    "office_name": "海陽町役場",
    "office_name_kana": "カイヨウチヨウヤクバ"
  },
  "0301": {
    "zip_code": "7750301",
    "prefecture": "徳島県",
    "prefecture_kana": "トクシマケン",
    "prefecture_code": 36,
    "city": "海部郡海陽町",
    "city_kana": "カイフグンカイヨウチョウ",
    "town": "鞆浦",
    "town_kana": "トモウラ",
    "street": null,
    "office_name": null,
    "office_name_kana": null
  },
  "0302": {
    "zip_code": "7750302",
    "prefecture": "徳島県",
    "prefecture_kana": "トクシマケン",
    "prefecture_code": 36,
    "city": "海部郡海陽町",
    "city_kana": "カイフグンカイヨウチョウ",
    "town": "奥浦",
    "town_kana": "オクウラ",
    "street": null,
    "office_name": null,
    "office_name_kana": null
  },
  "0303": {
    "zip_code": "7750303",
    "prefecture": "徳島県",
    "prefecture_kana": "トクシマケン",
    "prefecture_code": 36,
    "city": "海部郡海陽町",
    "city_kana": "カイフグンカイヨウチョウ",
    "town": "高園",
    "town_kana": "タカゾノ",
    "street": null,
    "office_name": null,
    "office_name_kana": null
  },
  "0304": {
    "zip_code": "7750304",
    "prefecture": "徳島県",
    "prefecture_kana": "トクシマケン",
    "prefecture_code": 36,
    "city": "海部郡海陽町",
    "city_kana": "カイフグンカイヨウチョウ",
    "town": "野江",
    "town_kana": "ノエ",
    "street": null,
    "office_name": null,
    "office_name_kana": null
  },
  "0305": {
    "zip_code": "7750305",
    "prefecture": "徳島県",
    "prefecture_kana": "トクシマケン",
    "prefecture_code": 36,
    "city": "海部郡海陽町",
    "city_kana": "カイフグンカイヨウチョウ",
    "town": "中山",
    "town_kana": "ナカヤマ",
    "street": null,
    "office_name": null,
    "office_name_kana": null
  },
  "0306": {
    "zip_code": "7750306",
    "prefecture": "徳島県",
    "prefecture_kana": "トクシマケン",
    "prefecture_code": 36,
    "city": "海部郡海陽町",
    "city_kana": "カイフグンカイヨウチョウ",
    "town": "櫛川",
    "town_kana": "クシカワ",
    "street": null,
    "office_name": null,
    "office_name_kana": null
  },
  "0307": {
    "zip_code": "7750307",
    "prefecture": "徳島県",
    "prefecture_kana": "トクシマケン",
    "prefecture_code": 36,
    "city": "海部郡海陽町",
    "city_kana": "カイフグンカイヨウチョウ",
    "town": "芝",
    "town_kana": "シバ",
    "street": null,
    "office_name": null,
    "office_name_kana": null
  },
  "0308": {
    "zip_code": "7750308",
    "prefecture": "徳島県",
    "prefecture_kana": "トクシマケン",
    "prefecture_code": 36,
    "city": "海部郡海陽町",
    "city_kana": "カイフグンカイヨウチョウ",
    "town": "吉田",
    "town_kana": "ヨシダ",
    "street": null,
    "office_name": null,
    "office_name_kana": null
  },
  "0309": {
    "zip_code": "7750309",
    "prefecture": "徳島県",
    "prefecture_kana": "トクシマケン",
    "prefecture_code": 36,
    "city": "海部郡海陽町",
    "city_kana": "カイフグンカイヨウチョウ",
    "town": "富田",
    "town_kana": "トミダ",
    "street": null,
    "office_name": null,
    "office_name_kana": null
  },
  "0310": {
    "zip_code": "7750310",
    "prefecture": "徳島県",
    "prefecture_kana": "トクシマケン",
    "prefecture_code": 36,
    "city": "海部郡海陽町",
    "city_kana": "カイフグンカイヨウチョウ",
    "town": "大井",
    "town_kana": "オオイ",
    "street": null,
    "office_name": null,
    "office_name_kana": null
  },
  "0395": {
    "zip_code": "7750395",
    "prefecture": "徳島県",
    "prefecture_kana": "トクシマケン",
    "prefecture_code": 36,
    "city": "海部郡海陽町",
    "city_kana": "カイフグンカイヨウチョウ",
    "town": "奥浦",
    "town_kana": "オクウラ",
    "street": "字新町４４",
    "office_name": "海陽町役場　海部庁舎",
    "office_name_kana": "カイヨウチヨウヤクバ カイフチヨウシヤ"
  },
  "0411": {
    "zip_code": "7750411",
    "prefecture": "徳島県",
    "prefecture_kana": "トクシマケン",
    "prefecture_code": 36,
    "city": "海部郡海陽町",
    "city_kana": "カイフグンカイヨウチョウ",
    "town": "平井",
    "town_kana": "ヒライ",
    "street": null,
    "office_name": null,
    "office_name_kana": null
  },
  "0412": {
    "zip_code": "7750412",
    "prefecture": "徳島県",
    "prefecture_kana": "トクシマケン",
    "prefecture_code": 36,
    "city": "海部郡海陽町",
    "city_kana": "カイフグンカイヨウチョウ",
    "town": "小川",
    "town_kana": "オガワ",
    "street": null,
    "office_name": null,
    "office_name_kana": null
  },
  "0413": {
    "zip_code": "7750413",
    "prefecture": "徳島県",
    "prefecture_kana": "トクシマケン",
    "prefecture_code": 36,
    "city": "海部郡海陽町",
    "city_kana": "カイフグンカイヨウチョウ",
    "town": "神野",
    "town_kana": "コウノ",
    "street": null,
    "office_name": null,
    "office_name_kana": null
  },
  "0414": {
    "zip_code": "7750414",
    "prefecture": "徳島県",
    "prefecture_kana": "トクシマケン",
    "prefecture_code": 36,
    "city": "海部郡海陽町",
    "city_kana": "カイフグンカイヨウチョウ",
    "town": "若松",
    "town_kana": "ワカマツ",
    "street": null,
    "office_name": null,
    "office_name_kana": null
  },
  "0415": {
    "zip_code": "7750415",
    "prefecture": "徳島県",
    "prefecture_kana": "トクシマケン",
    "prefecture_code": 36,
    "city": "海部郡海陽町",
    "city_kana": "カイフグンカイヨウチョウ",
    "town": "相川",
    "town_kana": "アイカワ",
    "street": null,
    "office_name": null,
    "office_name_kana": null
  },
  "0501": {
    "zip_code": "7750501",
    "prefecture": "徳島県",
    "prefecture_kana": "トクシマケン",
    "prefecture_code": 36,
    "city": "海部郡海陽町",
    "city_kana": "カイフグンカイヨウチョウ",
    "town": "宍喰浦",
    "town_kana": "シシクイウラ",
    "street": null,
    "office_name": null,
    "office_name_kana": null
  },
  "0502": {
    "zip_code": "7750502",
    "prefecture": "徳島県",
    "prefecture_kana": "トクシマケン",
    "prefecture_code": 36,
    "city": "海部郡海陽町",
    "city_kana": "カイフグンカイヨウチョウ",
    "town": "久保",
    "town_kana": "クボ",
    "street": null,
    "office_name": null,
    "office_name_kana": null
  },
  "0503": {
    "zip_code": "7750503",
    "prefecture": "徳島県",
    "prefecture_kana": "トクシマケン",
    "prefecture_code": 36,
    "city": "海部郡海陽町",
    "city_kana": "カイフグンカイヨウチョウ",
    "town": "日比原",
    "town_kana": "ヒビハラ",
    "street": null,
    "office_name": null,
    "office_name_kana": null
  },
  "0504": {
    "zip_code": "7750504",
    "prefecture": "徳島県",
    "prefecture_kana": "トクシマケン",
    "prefecture_code": 36,
    "city": "海部郡海陽町",
    "city_kana": "カイフグンカイヨウチョウ",
    "town": "尾崎",
    "town_kana": "オサキ",
    "street": null,
    "office_name": null,
    "office_name_kana": null
  },
  "0505": {
    "zip_code": "7750505",
    "prefecture": "徳島県",
    "prefecture_kana": "トクシマケン",
    "prefecture_code": 36,
    "city": "海部郡海陽町",
    "city_kana": "カイフグンカイヨウチョウ",
    "town": "芥附",
    "town_kana": "クグツケ",
    "street": null,
    "office_name": null,
    "office_name_kana": null
  },
  "0506": {
    "zip_code": "7750506",
    "prefecture": "徳島県",
    "prefecture_kana": "トクシマケン",
    "prefecture_code": 36,
    "city": "海部郡海陽町",
    "city_kana": "カイフグンカイヨウチョウ",
    "town": "角坂",
    "town_kana": "カクサカ",
    "street": null,
    "office_name": null,
    "office_name_kana": null
  },
  "0507": {
    "zip_code": "7750507",
    "prefecture": "徳島県",
    "prefecture_kana": "トクシマケン",
    "prefecture_code": 36,
    "city": "海部郡海陽町",
    "city_kana": "カイフグンカイヨウチョウ",
    "town": "広岡",
    "town_kana": "ヒロオカ",
    "street": null,
    "office_name": null,
    "office_name_kana": null
  },
  "0508": {
    "zip_code": "7750508",
    "prefecture": "徳島県",
    "prefecture_kana": "トクシマケン",
    "prefecture_code": 36,
    "city": "海部郡海陽町",
    "city_kana": "カイフグンカイヨウチョウ",
    "town": "小谷",
    "town_kana": "コダニ",
    "street": null,
    "office_name": null,
    "office_name_kana": null
  },
  "0509": {
    "zip_code": "7750509",
    "prefecture": "徳島県",
    "prefecture_kana": "トクシマケン",
    "prefecture_code": 36,
    "city": "海部郡海陽町",
    "city_kana": "カイフグンカイヨウチョウ",
    "town": "塩深",
    "town_kana": "シオフカ",
    "street": null,
    "office_name": null,
    "office_name_kana": null
  },
  "0510": {
    "zip_code": "7750510",
    "prefecture": "徳島県",
    "prefecture_kana": "トクシマケン",
    "prefecture_code": 36,
    "city": "海部郡海陽町",
    "city_kana": "カイフグンカイヨウチョウ",
    "town": "船津",
    "town_kana": "フナツ",
    "street": null,
    "office_name": null,
    "office_name_kana": null
  },
  "0511": {
    "zip_code": "7750511",
    "prefecture": "徳島県",
    "prefecture_kana": "トクシマケン",
    "prefecture_code": 36,
    "city": "海部郡海陽町",
    "city_kana": "カイフグンカイヨウチョウ",
    "town": "久尾",
    "town_kana": "クオ",
    "street": null,
    "office_name": null,
    "office_name_kana": null
  },
  "0512": [
    {
      "zip_code": "7750512",
      "prefecture": "徳島県",
      "prefecture_kana": "トクシマケン",
      "prefecture_code": 36,
      "city": "海部郡海陽町",
      "city_kana": "カイフグンカイヨウチョウ",
      "town": "宍喰浦",
      "town_kana": "シシクイウラ",
      "street": null,
      "office_name": null,
      "office_name_kana": null
    },
    {
      "zip_code": "7750512",
      "prefecture": "徳島県",
      "prefecture_kana": "トクシマケン",
      "prefecture_code": 36,
      "city": "海部郡海陽町",
      "city_kana": "カイフグンカイヨウチョウ",
      "town": "宍喰浦那佐",
      "town_kana": "シシクイウラナサ",
      "street": null,
      "office_name": null,
      "office_name_kana": null
    }
  ],
  "0513": [
    {
      "zip_code": "7750513",
      "prefecture": "徳島県",
      "prefecture_kana": "トクシマケン",
      "prefecture_code": 36,
      "city": "海部郡海陽町",
      "city_kana": "カイフグンカイヨウチョウ",
      "town": "宍喰浦",
      "town_kana": "シシクイウラ",
      "street": null,
      "office_name": null,
      "office_name_kana": null
    },
    {
      "zip_code": "7750513",
      "prefecture": "徳島県",
      "prefecture_kana": "トクシマケン",
      "prefecture_code": 36,
      "city": "海部郡海陽町",
      "city_kana": "カイフグンカイヨウチョウ",
      "town": "宍喰浦竹ケ島",
      "town_kana": "シシクイウラタケガシマ",
      "street": null,
      "office_name": null,
      "office_name_kana": null
    }
  ],
  "0595": {
    "zip_code": "7750595",
    "prefecture": "徳島県",
    "prefecture_kana": "トクシマケン",
    "prefecture_code": 36,
    "city": "海部郡海陽町",
    "city_kana": "カイフグンカイヨウチョウ",
    "town": "久保",
    "town_kana": "クボ",
    "street": "字久保４９（宍喰郵便局私書箱第２号）",
    "office_name": "海陽町役場　宍喰庁舎",
    "office_name_kana": "カイヨウチヨウヤクバ シシクイチヨウシヤ"
  },
  "8570": {
    "zip_code": "7758570",
    "prefecture": "徳島県",
    "prefecture_kana": null,
    "prefecture_code": null,
    "city": "海部郡牟岐町",
    "city_kana": null,
    "town": "大字中村",
    "town_kana": null,
    "street": "字本村７−４",
    "office_name": "牟岐町役場",
    "office_name_kana": "ムギチヨウヤクバ"
  }
}