{
  "0000": {
    "zip_code": "7760000",
    "prefecture": "徳島県",
    "prefecture_kana": "トクシマケン",
    "prefecture_code": "36",
    "city": "吉野川市",
    "city_kana": "ヨシノガワシ",
    "town": "",
    "town_kana": "",
    "street": null,
    "office_name": null,
    "office_name_kana": null
  },
  "0001": {
    "zip_code": "7760001",
    "prefecture": "徳島県",
    "prefecture_kana": "トクシマケン",
    "prefecture_code": "36",
    "city": "吉野川市",
    "city_kana": "ヨシノガワシ",
    "town": "鴨島町牛島",
    "town_kana": "カモジマチョウウシシマ",
    "street": null,
    "office_name": null,
    "office_name_kana": null
  },
  "0002": {
    "zip_code": "7760002",
    "prefecture": "徳島県",
    "prefecture_kana": "トクシマケン",
    "prefecture_code": "36",
    "city": "吉野川市",
    "city_kana": "ヨシノガワシ",
    "town": "鴨島町麻植塚",
    "town_kana": "カモジマチョウオエヅカ",
    "street": null,
    "office_name": null,
    "office_name_kana": null
  },
  "0003": {
    "zip_code": "7760003",
    "prefecture": "徳島県",
    "prefecture_kana": "トクシマケン",
    "prefecture_code": "36",
    "city": "吉野川市",
    "city_kana": "ヨシノガワシ",
    "town": "鴨島町内原",
    "town_kana": "カモジマチョウウチバラ",
    "street": null,
    "office_name": null,
    "office_name_kana": null
  },
  "0004": {
    "zip_code": "7760004",
    "prefecture": "徳島県",
    "prefecture_kana": "トクシマケン",
    "prefecture_code": "36",
    "city": "吉野川市",
    "city_kana": "ヨシノガワシ",
    "town": "鴨島町中島",
    "town_kana": "カモジマチョウナカジマ",
    "street": null,
    "office_name": null,
    "office_name_kana": null
  },
  "0005": {
    "zip_code": "7760005",
    "prefecture": "徳島県",
    "prefecture_kana": "トクシマケン",
    "prefecture_code": "36",
    "city": "吉野川市",
    "city_kana": "ヨシノガワシ",
    "town": "鴨島町喜来",
    "town_kana": "カモジマチョウキライ",
    "street": null,
    "office_name": null,
    "office_name_kana": null
  },
  "0006": {
    "zip_code": "7760006",
    "prefecture": "徳島県",
    "prefecture_kana": "トクシマケン",
    "prefecture_code": "36",
    "city": "吉野川市",
    "city_kana": "ヨシノガワシ",
    "town": "鴨島町喜来甲",
    "town_kana": "カモジマチョウキライコウ",
    "street": null,
    "office_name": null,
    "office_name_kana": null
  },
  "0007": {
    "zip_code": "7760007",
    "prefecture": "徳島県",
    "prefecture_kana": "トクシマケン",
    "prefecture_code": "36",
    "city": "吉野川市",
    "city_kana": "ヨシノガワシ",
    "town": "鴨島町喜来乙",
    "town_kana": "カモジマチョウキライオツ",
    "street": null,
    "office_name": null,
    "office_name_kana": null
  },
  "0010": {
    "zip_code": "7760010",
    "prefecture": "徳島県",
    "prefecture_kana": "トクシマケン",
    "prefecture_code": "36",
    "city": "吉野川市",
    "city_kana": "ヨシノガワシ",
    "town": "鴨島町鴨島",
    "town_kana": "カモジマチョウカモジマ",
    "street": null,
    "office_name": null,
    "office_name_kana": null
  },
  "0011": {
    "zip_code": "7760011",
    "prefecture": "徳島県",
    "prefecture_kana": "トクシマケン",
    "prefecture_code": "36",
    "city": "吉野川市",
    "city_kana": "ヨシノガワシ",
    "town": "鴨島町鴨島甲",
    "town_kana": "カモジマチョウカモジマコウ",
    "street": null,
    "office_name": null,
    "office_name_kana": null
  },
  "0012": {
    "zip_code": "7760012",
    "prefecture": "徳島県",
    "prefecture_kana": "トクシマケン",
    "prefecture_code": "36",
    "city": "吉野川市",
    "city_kana": "ヨシノガワシ",
    "town": "鴨島町鴨島乙",
    "town_kana": "カモジマチョウカモジマオツ",
    "street": null,
    "office_name": null,
    "office_name_kana": null
  },
  "0013": {
    "zip_code": "7760013",
    "prefecture": "徳島県",
    "prefecture_kana": "トクシマケン",
    "prefecture_code": "36",
    "city": "吉野川市",
    "city_kana": "ヨシノガワシ",
    "town": "鴨島町上下島",
    "town_kana": "カモジマチョウジョウゲジマ",
    "street": null,
    "office_name": null,
    "office_name_kana": null
  },
  "0014": {
    "zip_code": "7760014",
    "prefecture": "徳島県",
    "prefecture_kana": "トクシマケン",
    "prefecture_code": "36",
    "city": "吉野川市",
    "city_kana": "ヨシノガワシ",
    "town": "鴨島町知恵島",
    "town_kana": "カモジマチョウチエジマ",
    "street": null,
    "office_name": null,
    "office_name_kana": null
  },
  "0015": {
    "zip_code": "7760015",
    "prefecture": "徳島県",
    "prefecture_kana": "トクシマケン",
    "prefecture_code": "36",
    "city": "吉野川市",
    "city_kana": "ヨシノガワシ",
    "town": "鴨島町粟島",
    "town_kana": "カモジマチョウアワジマ",
    "street": null,
    "office_name": null,
    "office_name_kana": null
  },
  "0020": {
    "zip_code": "7760020",
    "prefecture": "徳島県",
    "prefecture_kana": "トクシマケン",
    "prefecture_code": "36",
    "city": "吉野川市",
    "city_kana": "ヨシノガワシ",
    "town": "鴨島町西麻植",
    "town_kana": "カモジマチョウニシオエ",
    "street": null,
    "office_name": null,
    "office_name_kana": null
  },
  "0031": {
    "zip_code": "7760031",
    "prefecture": "徳島県",
    "prefecture_kana": "トクシマケン",
    "prefecture_code": "36",
    "city": "吉野川市",
    "city_kana": "ヨシノガワシ",
    "town": "鴨島町敷地",
    "town_kana": "カモジマチョウシキジ",
    "street": null,
    "office_name": null,
    "office_name_kana": null
  },
  "0032": {
    "zip_code": "7760032",
    "prefecture": "徳島県",
    "prefecture_kana": "トクシマケン",
    "prefecture_code": "36",
    "city": "吉野川市",
    "city_kana": "ヨシノガワシ",
    "town": "鴨島町樋山地",
    "town_kana": "カモジマチョウヒヤマジ",
    "street": null,
    "office_name": null,
    "office_name_kana": null
  },
  "0033": {
    "zip_code": "7760033",
    "prefecture": "徳島県",
    "prefecture_kana": "トクシマケン",
    "prefecture_code": "36",
    "city": "吉野川市",
    "city_kana": "ヨシノガワシ",
    "town": "鴨島町飯尾",
    "town_kana": "カモジマチョウイノオ",
    "street": null,
    "office_name": null,
    "office_name_kana": null
  },
  "0034": {
    "zip_code": "7760034",
    "prefecture": "徳島県",
    "prefecture_kana": "トクシマケン",
    "prefecture_code": "36",
    "city": "吉野川市",
    "city_kana": "ヨシノガワシ",
    "town": "鴨島町呉郷団地",
    "town_kana": "カモジマチョウゴキョウダンチ",
    "street": null,
    "office_name": null,
    "office_name_kana": null
  },
  "0035": {
    "zip_code": "7760035",
    "prefecture": "徳島県",
    "prefecture_kana": "トクシマケン",
    "prefecture_code": "36",
    "city": "吉野川市",
    "city_kana": "ヨシノガワシ",
    "town": "鴨島町森藤",
    "town_kana": "カモジマチョウモリトウ",
    "street": null,
    "office_name": null,
    "office_name_kana": null
  },
  "0036": {
    "zip_code": "7760036",
    "prefecture": "徳島県",
    "prefecture_kana": "トクシマケン",
    "prefecture_code": "36",
    "city": "吉野川市",
    "city_kana": "ヨシノガワシ",
    "town": "鴨島町山路",
    "town_kana": "カモジマチョウサンジ",
    "street": null,
    "office_name": null,
    "office_name_kana": null
  },
  "0037": {
    "zip_code": "7760037",
    "prefecture": "徳島県",
    "prefecture_kana": "トクシマケン",
    "prefecture_code": "36",
    "city": "吉野川市",
    "city_kana": "ヨシノガワシ",
    "town": "鴨島町上浦",
    "town_kana": "カモジマチョウカミウラ",
    "street": null,
    "office_name": null,
    "office_name_kana": null
  },
  "8501": {
    "zip_code": "7768501",
    "prefecture": "徳島県",
    "prefecture_kana": "トクシマケン",
    "prefecture_code": "36",
    "city": "吉野川市",
    "city_kana": "ヨシノガワシ",
    "town": "鴨島町中島",
    "town_kana": "カモジマチョウナカジマ",
    "street": "４３２−１",
    "office_name": "株式会社　高橋ふとん店",
    "office_name_kana": "カブシキガイシヤ タカハシフトンテン"
  },
  "8511": {
    "zip_code": "7768511",
    "prefecture": "徳島県",
    "prefecture_kana": "トクシマケン",
    "prefecture_code": "36",
    "city": "吉野川市",
    "city_kana": "ヨシノガワシ",
    "town": "鴨島町知恵島",
    "town_kana": "カモジマチョウチエジマ",
    "street": "字西知恵島１２０",
    "office_name": "ＪＡ徳島厚生連　吉野川医療センター",
    "office_name_kana": "ジエイエ-トクシマコウセイレン ヨシノガワイリヨウセンタ-"
  },
  "8555": {
    "zip_code": "7768555",
    "prefecture": "徳島県",
    "prefecture_kana": "トクシマケン",
    "prefecture_code": "36",
    "city": "吉野川市",
    "city_kana": "ヨシノガワシ",
    "town": "",
    "town_kana": "",
    "street": "鴨島町中北４００−１",
    "office_name": "コロナ工業　株式会社",
    "office_name_kana": "コロナコウギヨウ カブシキガイシヤ"
  },
  "8582": {
    "zip_code": "7768582",
    "prefecture": "徳島県",
    "prefecture_kana": "トクシマケン",
    "prefecture_code": "36",
    "city": "吉野川市",
    "city_kana": "ヨシノガワシ",
    "town": "鴨島町内原",
    "town_kana": "カモジマチョウウチバラ",
    "street": "１４４",
    "office_name": "野田ハニー食品工業　（株）",
    "office_name_kana": "ノダハニ-シヨクヒンコウギヨウ カブシキガイシヤ"
  },
  "8583": {
    "zip_code": "7768583",
    "prefecture": "徳島県",
    "prefecture_kana": "トクシマケン",
    "prefecture_code": "36",
    "city": "吉野川市",
    "city_kana": "ヨシノガワシ",
    "town": "鴨島町喜来",
    "town_kana": "カモジマチョウキライ",
    "street": "９５",
    "office_name": "野田養蜂場　（株）",
    "office_name_kana": "ノダヨウホウジヨウ カブシキガイシヤ"
  },
  "8585": {
    "zip_code": "7768585",
    "prefecture": "徳島県",
    "prefecture_kana": "トクシマケン",
    "prefecture_code": "36",
    "city": "吉野川市",
    "city_kana": "ヨシノガワシ",
    "town": "鴨島町敷地",
    "town_kana": "カモジマチョウシキジ",
    "street": "１３５４",
    "office_name": "国立　療養所　徳島病院",
    "office_name_kana": "コクリツ リヨウヨウシヨ トクシマビヨウイン"
  },
  "8588": {
    "zip_code": "7768588",
    "prefecture": "徳島県",
    "prefecture_kana": "トクシマケン",
    "prefecture_code": "36",
    "city": "吉野川市",
    "city_kana": "ヨシノガワシ",
    "town": "鴨島町内原",
    "town_kana": "カモジマチョウウチバラ",
    "street": "４３２",
    "office_name": "鴨島病院",
    "office_name_kana": "カモジマビヨウイン"
  },
  "8611": {
    "zip_code": "7768611",
    "prefecture": "徳島県",
    "prefecture_kana": "トクシマケン",
    "prefecture_code": "36",
    "city": "吉野川市",
    "city_kana": "ヨシノガワシ",
    "town": "鴨島町鴨島",
    "town_kana": "カモジマチョウカモジマ",
    "street": "１１５−１",
    "office_name": "吉野川市役所",
    "office_name_kana": "ヨシノガワシヤクシヨ"
  },
  "8686": {
    "zip_code": "7768686",
    "prefecture": "徳島県",
    "prefecture_kana": "トクシマケン",
    "prefecture_code": "36",
    "city": "吉野川市",
    "city_kana": "ヨシノガワシ",
    "town": "鴨島町中島",
    "town_kana": "カモジマチョウナカジマ",
    "street": "４８４（鴨島郵便局私書箱第２０号）",
    "office_name": "株式会社　マルハヤ",
    "office_name_kana": "カブシキガイシヤ マルハヤ"
  }
}