{
  "0000": {
    "zip_code": "7800000",
    "prefecture": "高知県",
    "prefecture_kana": "コウチケン",
    "prefecture_code": 39,
    "city": "高知市",
    "city_kana": "コウチシ",
    "town": "",
    "town_kana": "",
    "street": null,
    "office_name": null,
    "office_name_kana": null
  },
  "0001": {
    "zip_code": "7800001",
    "prefecture": "高知県",
    "prefecture_kana": "コウチケン",
    "prefecture_code": 39,
    "city": "高知市",
    "city_kana": "コウチシ",
    "town": "久礼野",
    "town_kana": "クレノ",
    "street": null,
    "office_name": null,
    "office_name_kana": null
  },
  "0002": {
    "zip_code": "7800002",
    "prefecture": "高知県",
    "prefecture_kana": "コウチケン",
    "prefecture_code": 39,
    "city": "高知市",
    "city_kana": "コウチシ",
    "town": "重倉",
    "town_kana": "シゲクラ",
    "street": null,
    "office_name": null,
    "office_name_kana": null
  },
  "0003": {
    "zip_code": "7800003",
    "prefecture": "高知県",
    "prefecture_kana": "コウチケン",
    "prefecture_code": 39,
    "city": "高知市",
    "city_kana": "コウチシ",
    "town": "七ツ淵",
    "town_kana": "ナナツブチ",
    "street": null,
    "office_name": null,
    "office_name_kana": null
  },
  "0004": {
    "zip_code": "7800004",
    "prefecture": "高知県",
    "prefecture_kana": "コウチケン",
    "prefecture_code": 39,
    "city": "高知市",
    "city_kana": "コウチシ",
    "town": "三谷",
    "town_kana": "ミタニ",
    "street": null,
    "office_name": null,
    "office_name_kana": null
  },
  "0021": {
    "zip_code": "7800021",
    "prefecture": "高知県",
    "prefecture_kana": "コウチケン",
    "prefecture_code": 39,
    "city": "高知市",
    "city_kana": "コウチシ",
    "town": "中秦泉寺",
    "town_kana": "ナカジンゼンジ",
    "street": null,
    "office_name": null,
    "office_name_kana": null
  },
  "0022": {
    "zip_code": "7800022",
    "prefecture": "高知県",
    "prefecture_kana": "コウチケン",
    "prefecture_code": 39,
    "city": "高知市",
    "city_kana": "コウチシ",
    "town": "北秦泉寺",
    "town_kana": "キタジンゼンジ",
    "street": null,
    "office_name": null,
    "office_name_kana": null
  },
  "0023": {
    "zip_code": "7800023",
    "prefecture": "高知県",
    "prefecture_kana": "コウチケン",
    "prefecture_code": 39,
    "city": "高知市",
    "city_kana": "コウチシ",
    "town": "東秦泉寺",
    "town_kana": "ヒガシジンゼンジ",
    "street": null,
    "office_name": null,
    "office_name_kana": null
  },
  "0024": {
    "zip_code": "7800024",
    "prefecture": "高知県",
    "prefecture_kana": "コウチケン",
    "prefecture_code": 39,
    "city": "高知市",
    "city_kana": "コウチシ",
    "town": "前里",
    "town_kana": "マエザト",
    "street": null,
    "office_name": null,
    "office_name_kana": null
  },
  "0025": {
    "zip_code": "7800025",
    "prefecture": "高知県",
    "prefecture_kana": "コウチケン",
    "prefecture_code": 39,
    "city": "高知市",
    "city_kana": "コウチシ",
    "town": "愛宕山",
    "town_kana": "アタゴヤマ",
    "street": null,
    "office_name": null,
    "office_name_kana": null
  },
  "0026": {
    "zip_code": "7800026",
    "prefecture": "高知県",
    "prefecture_kana": "コウチケン",
    "prefecture_code": 39,
    "city": "高知市",
    "city_kana": "コウチシ",
    "town": "秦南町",
    "town_kana": "ハダミナミマチ",
    "street": null,
    "office_name": null,
    "office_name_kana": null
  },
  "0027": {
    "zip_code": "7800027",
    "prefecture": "高知県",
    "prefecture_kana": "コウチケン",
    "prefecture_code": 39,
    "city": "高知市",
    "city_kana": "コウチシ",
    "town": "愛宕山南町",
    "town_kana": "アタゴヤマミナミマチ",
    "street": null,
    "office_name": null,
    "office_name_kana": null
  },
  "0031": {
    "zip_code": "7800031",
    "prefecture": "高知県",
    "prefecture_kana": "コウチケン",
    "prefecture_code": 39,
    "city": "高知市",
    "city_kana": "コウチシ",
    "town": "宇津野",
    "town_kana": "ウツノ",
    "street": null,
    "office_name": null,
    "office_name_kana": null
  },
  "0032": {
    "zip_code": "7800032",
    "prefecture": "高知県",
    "prefecture_kana": "コウチケン",
    "prefecture_code": 39,
    "city": "高知市",
    "city_kana": "コウチシ",
    "town": "加賀野井",
    "town_kana": "カガノイ",
    "street": null,
    "office_name": null,
    "office_name_kana": null
  },
  "0033": {
    "zip_code": "7800033",
    "prefecture": "高知県",
    "prefecture_kana": "コウチケン",
    "prefecture_code": 39,
    "city": "高知市",
    "city_kana": "コウチシ",
    "town": "西秦泉寺",
    "town_kana": "ニシジンゼンジ",
    "street": null,
    "office_name": null,
    "office_name_kana": null
  },
  "0034": {
    "zip_code": "7800034",
    "prefecture": "高知県",
    "prefecture_kana": "コウチケン",
    "prefecture_code": 39,
    "city": "高知市",
    "city_kana": "コウチシ",
    "town": "三園町",
    "town_kana": "ミソノチョウ",
    "street": null,
    "office_name": null,
    "office_name_kana": null
  },
  "0041": {
    "zip_code": "7800041",
    "prefecture": "高知県",
    "prefecture_kana": "コウチケン",
    "prefecture_code": 39,
    "city": "高知市",
    "city_kana": "コウチシ",
    "town": "入明町",
    "town_kana": "イリアケチョウ",
    "street": null,
    "office_name": null,
    "office_name_kana": null
  },
  "0042": {
    "zip_code": "7800042",
    "prefecture": "高知県",
    "prefecture_kana": "コウチケン",
    "prefecture_code": 39,
    "city": "高知市",
    "city_kana": "コウチシ",
    "town": "洞ケ島町",
    "town_kana": "ホラガジマチョウ",
    "street": null,
    "office_name": null,
    "office_name_kana": null
  },
  "0043": {
    "zip_code": "7800043",
    "prefecture": "高知県",
    "prefecture_kana": "コウチケン",
    "prefecture_code": 39,
    "city": "高知市",
    "city_kana": "コウチシ",
    "town": "寿町",
    "town_kana": "コトブキチョウ",
    "street": null,
    "office_name": null,
    "office_name_kana": null
  },
  "0044": {
    "zip_code": "7800044",
    "prefecture": "高知県",
    "prefecture_kana": "コウチケン",
    "prefecture_code": 39,
    "city": "高知市",
    "city_kana": "コウチシ",
    "town": "中水道",
    "town_kana": "ナカスイドウ",
    "street": null,
    "office_name": null,
    "office_name_kana": null
  },
  "0045": {
    "zip_code": "7800045",
    "prefecture": "高知県",
    "prefecture_kana": "コウチケン",
    "prefecture_code": 39,
    "city": "高知市",
    "city_kana": "コウチシ",
    "town": "幸町",
    "town_kana": "サイワイチョウ",
    "street": null,
    "office_name": null,
    "office_name_kana": null
  },
  "0046": {
    "zip_code": "7800046",
    "prefecture": "高知県",
    "prefecture_kana": "コウチケン",
    "prefecture_code": 39,
    "city": "高知市",
    "city_kana": "コウチシ",
    "town": "伊勢崎町",
    "town_kana": "イセザキチョウ",
    "street": null,
    "office_name": null,
    "office_name_kana": null
  },
  "0047": {
    "zip_code": "7800047",
    "prefecture": "高知県",
    "prefecture_kana": "コウチケン",
    "prefecture_code": 39,
    "city": "高知市",
    "city_kana": "コウチシ",
    "town": "相模町",
    "town_kana": "サガミチョウ",
    "street": null,
    "office_name": null,
    "office_name_kana": null
  },
  "0048": {
    "zip_code": "7800048",
    "prefecture": "高知県",
    "prefecture_kana": "コウチケン",
    "prefecture_code": 39,
    "city": "高知市",
    "city_kana": "コウチシ",
    "town": "吉田町",
    "town_kana": "ヨシダチョウ",
    "street": null,
    "office_name": null,
    "office_name_kana": null
  },
  "0051": {
    "zip_code": "7800051",
    "prefecture": "高知県",
    "prefecture_kana": "コウチケン",
    "prefecture_code": 39,
    "city": "高知市",
    "city_kana": "コウチシ",
    "town": "愛宕町",
    "town_kana": "アタゴマチ",
    "street": null,
    "office_name": null,
    "office_name_kana": null
  },
  "0052": {
    "zip_code": "7800052",
    "prefecture": "高知県",
    "prefecture_kana": "コウチケン",
    "prefecture_code": 39,
    "city": "高知市",
    "city_kana": "コウチシ",
    "town": "大川筋",
    "town_kana": "オオカワスジ",
    "street": null,
    "office_name": null,
    "office_name_kana": null
  },
  "0053": {
    "zip_code": "7800053",
    "prefecture": "高知県",
    "prefecture_kana": "コウチケン",
    "prefecture_code": 39,
    "city": "高知市",
    "city_kana": "コウチシ",
    "town": "駅前町",
    "town_kana": "エキマエチョウ",
    "street": null,
    "office_name": null,
    "office_name_kana": null
  },
  "0054": {
    "zip_code": "7800054",
    "prefecture": "高知県",
    "prefecture_kana": "コウチケン",
    "prefecture_code": 39,
    "city": "高知市",
    "city_kana": "コウチシ",
    "town": "相生町",
    "town_kana": "アイオイチョウ",
    "street": null,
    "office_name": null,
    "office_name_kana": null
  },
  "0055": {
    "zip_code": "7800055",
    "prefecture": "高知県",
    "prefecture_kana": "コウチケン",
    "prefecture_code": 39,
    "city": "高知市",
    "city_kana": "コウチシ",
    "town": "江陽町",
    "town_kana": "コウヨウチョウ",
    "street": null,
    "office_name": null,
    "office_name_kana": null
  },
  "0056": {
    "zip_code": "7800056",
    "prefecture": "高知県",
    "prefecture_kana": "コウチケン",
    "prefecture_code": 39,
    "city": "高知市",
    "city_kana": "コウチシ",
    "town": "北本町",
    "town_kana": "キタホンマチ",
    "street": null,
    "office_name": null,
    "office_name_kana": null
  },
  "0061": {
    "zip_code": "7800061",
    "prefecture": "高知県",
    "prefecture_kana": "コウチケン",
    "prefecture_code": 39,
    "city": "高知市",
    "city_kana": "コウチシ",
    "town": "栄田町",
    "town_kana": "サカエダチョウ",
    "street": null,
    "office_name": null,
    "office_name_kana": null
  },
  "0062": {
    "zip_code": "7800062",
    "prefecture": "高知県",
    "prefecture_kana": "コウチケン",
    "prefecture_code": 39,
    "city": "高知市",
    "city_kana": "コウチシ",
    "town": "新本町",
    "town_kana": "シンホンマチ",
    "street": null,
    "office_name": null,
    "office_name_kana": null
  },
  "0063": {
    "zip_code": "7800063",
    "prefecture": "高知県",
    "prefecture_kana": "コウチケン",
    "prefecture_code": 39,
    "city": "高知市",
    "city_kana": "コウチシ",
    "town": "昭和町",
    "town_kana": "ショウワマチ",
    "street": null,
    "office_name": null,
    "office_name_kana": null
  },
  "0064": {
    "zip_code": "7800064",
    "prefecture": "高知県",
    "prefecture_kana": "コウチケン",
    "prefecture_code": 39,
    "city": "高知市",
    "city_kana": "コウチシ",
    "town": "和泉町",
    "town_kana": "イズミチョウ",
    "street": null,
    "office_name": null,
    "office_name_kana": null
  },
  "0065": {
    "zip_code": "7800065",
    "prefecture": "高知県",
    "prefecture_kana": "コウチケン",
    "prefecture_code": 39,
    "city": "高知市",
    "city_kana": "コウチシ",
    "town": "塩田町",
    "town_kana": "シオタチョウ",
    "street": null,
    "office_name": null,
    "office_name_kana": null
  },
  "0066": {
    "zip_code": "7800066",
    "prefecture": "高知県",
    "prefecture_kana": "コウチケン",
    "prefecture_code": 39,
    "city": "高知市",
    "city_kana": "コウチシ",
    "town": "比島町",
    "town_kana": "ヒジマチョウ",
    "street": null,
    "office_name": null,
    "office_name_kana": null
  },
  "0071": {
    "zip_code": "7800071",
    "prefecture": "高知県",
    "prefecture_kana": "コウチケン",
    "prefecture_code": 39,
    "city": "高知市",
    "city_kana": "コウチシ",
    "town": "高そね",
    "town_kana": "タカソネ",
    "street": null,
    "office_name": null,
    "office_name_kana": null
  },
  "0072": {
    "zip_code": "7800072",
    "prefecture": "高知県",
    "prefecture_kana": "コウチケン",
    "prefecture_code": 39,
    "city": "高知市",
    "city_kana": "コウチシ",
    "town": "杉井流",
    "town_kana": "スギイル",
    "street": null,
    "office_name": null,
    "office_name_kana": null
  },
  "0073": {
    "zip_code": "7800073",
    "prefecture": "高知県",
    "prefecture_kana": "コウチケン",
    "prefecture_code": 39,
    "city": "高知市",
    "city_kana": "コウチシ",
    "town": "北金田",
    "town_kana": "キタカナダ",
    "street": null,
    "office_name": null,
    "office_name_kana": null
  },
  "0074": {
    "zip_code": "7800074",
    "prefecture": "高知県",
    "prefecture_kana": "コウチケン",
    "prefecture_code": 39,
    "city": "高知市",
    "city_kana": "コウチシ",
    "town": "南金田",
    "town_kana": "ミナミカナダ",
    "street": null,
    "office_name": null,
    "office_name_kana": null
  },
  "0081": {
    "zip_code": "7800081",
    "prefecture": "高知県",
    "prefecture_kana": "コウチケン",
    "prefecture_code": 39,
    "city": "高知市",
    "city_kana": "コウチシ",
    "town": "北川添",
    "town_kana": "キタカワゾエ",
    "street": null,
    "office_name": null,
    "office_name_kana": null
  },
  "0082": {
    "zip_code": "7800082",
    "prefecture": "高知県",
    "prefecture_kana": "コウチケン",
    "prefecture_code": 39,
    "city": "高知市",
    "city_kana": "コウチシ",
    "town": "南川添",
    "town_kana": "ミナミカワゾエ",
    "street": null,
    "office_name": null,
    "office_name_kana": null
  },
  "0083": {
    "zip_code": "7800083",
    "prefecture": "高知県",
    "prefecture_kana": "コウチケン",
    "prefecture_code": 39,
    "city": "高知市",
    "city_kana": "コウチシ",
    "town": "北御座",
    "town_kana": "キタゴザ",
    "street": null,
    "office_name": null,
    "office_name_kana": null
  },
  "0084": {
    "zip_code": "7800084",
    "prefecture": "高知県",
    "prefecture_kana": "コウチケン",
    "prefecture_code": 39,
    "city": "高知市",
    "city_kana": "コウチシ",
    "town": "南御座",
    "town_kana": "ミナミゴザ",
    "street": null,
    "office_name": null,
    "office_name_kana": null
  },
  "0085": {
    "zip_code": "7800085",
    "prefecture": "高知県",
    "prefecture_kana": "コウチケン",
    "prefecture_code": 39,
    "city": "高知市",
    "city_kana": "コウチシ",
    "town": "札場",
    "town_kana": "フダバ",
    "street": null,
    "office_name": null,
    "office_name_kana": null
  },
  "0086": {
    "zip_code": "7800086",
    "prefecture": "高知県",
    "prefecture_kana": "コウチケン",
    "prefecture_code": 39,
    "city": "高知市",
    "city_kana": "コウチシ",
    "town": "海老ノ丸",
    "town_kana": "エビノマル",
    "street": null,
    "office_name": null,
    "office_name_kana": null
  },
  "0087": {
    "zip_code": "7800087",
    "prefecture": "高知県",
    "prefecture_kana": "コウチケン",
    "prefecture_code": 39,
    "city": "高知市",
    "city_kana": "コウチシ",
    "town": "南久保",
    "town_kana": "ミナミクボ",
    "street": null,
    "office_name": null,
    "office_name_kana": null
  },
  "0088": {
    "zip_code": "7800088",
    "prefecture": "高知県",
    "prefecture_kana": "コウチケン",
    "prefecture_code": 39,
    "city": "高知市",
    "city_kana": "コウチシ",
    "town": "北久保",
    "town_kana": "キタクボ",
    "street": null,
    "office_name": null,
    "office_name_kana": null
  },
  "0801": {
    "zip_code": "7800801",
    "prefecture": "高知県",
    "prefecture_kana": "コウチケン",
    "prefecture_code": 39,
    "city": "高知市",
    "city_kana": "コウチシ",
    "town": "小倉町",
    "town_kana": "オクラチョウ",
    "street": null,
    "office_name": null,
    "office_name_kana": null
  },
  "0802": {
    "zip_code": "7800802",
    "prefecture": "高知県",
    "prefecture_kana": "コウチケン",
    "prefecture_code": 39,
    "city": "高知市",
    "city_kana": "コウチシ",
    "town": "丸池町",
    "town_kana": "マルイケチョウ",
    "street": null,
    "office_name": null,
    "office_name_kana": null
  },
  "0803": {
    "zip_code": "7800803",
    "prefecture": "高知県",
    "prefecture_kana": "コウチケン",
    "prefecture_code": 39,
    "city": "高知市",
    "city_kana": "コウチシ",
    "town": "弥生町",
    "town_kana": "ヤヨイチョウ",
    "street": null,
    "office_name": null,
    "office_name_kana": null
  },
  "0804": {
    "zip_code": "7800804",
    "prefecture": "高知県",
    "prefecture_kana": "コウチケン",
    "prefecture_code": 39,
    "city": "高知市",
    "city_kana": "コウチシ",
    "town": "日の出町",
    "town_kana": "ヒノデチョウ",
    "street": null,
    "office_name": null,
    "office_name_kana": null
  },
  "0805": {
    "zip_code": "7800805",
    "prefecture": "高知県",
    "prefecture_kana": "コウチケン",
    "prefecture_code": 39,
    "city": "高知市",
    "city_kana": "コウチシ",
    "town": "東雲町",
    "town_kana": "シノノメチョウ",
    "street": null,
    "office_name": null,
    "office_name_kana": null
  },
  "0806": {
    "zip_code": "7800806",
    "prefecture": "高知県",
    "prefecture_kana": "コウチケン",
    "prefecture_code": 39,
    "city": "高知市",
    "city_kana": "コウチシ",
    "town": "知寄町",
    "town_kana": "チヨリチョウ",
    "street": null,
    "office_name": null,
    "office_name_kana": null
  },
  "0811": {
    "zip_code": "7800811",
    "prefecture": "高知県",
    "prefecture_kana": "コウチケン",
    "prefecture_code": 39,
    "city": "高知市",
    "city_kana": "コウチシ",
    "town": "弘化台",
    "town_kana": "コウカダイ",
    "street": null,
    "office_name": null,
    "office_name_kana": null
  },
  "0812": {
    "zip_code": "7800812",
    "prefecture": "高知県",
    "prefecture_kana": "コウチケン",
    "prefecture_code": 39,
    "city": "高知市",
    "city_kana": "コウチシ",
    "town": "若松町",
    "town_kana": "ワカマツチョウ",
    "street": null,
    "office_name": null,
    "office_name_kana": null
  },
  "0813": {
    "zip_code": "7800813",
    "prefecture": "高知県",
    "prefecture_kana": "コウチケン",
    "prefecture_code": 39,
    "city": "高知市",
    "city_kana": "コウチシ",
    "town": "青柳町",
    "town_kana": "アオヤギチョウ",
    "street": null,
    "office_name": null,
    "office_name_kana": null
  },
  "0814": {
    "zip_code": "7800814",
    "prefecture": "高知県",
    "prefecture_kana": "コウチケン",
    "prefecture_code": 39,
    "city": "高知市",
    "city_kana": "コウチシ",
    "town": "稲荷町",
    "town_kana": "イナリチョウ",
    "street": null,
    "office_name": null,
    "office_name_kana": null
  },
  "0815": {
    "zip_code": "7800815",
    "prefecture": "高知県",
    "prefecture_kana": "コウチケン",
    "prefecture_code": 39,
    "city": "高知市",
    "city_kana": "コウチシ",
    "town": "二葉町",
    "town_kana": "フタバチョウ",
    "street": null,
    "office_name": null,
    "office_name_kana": null
  },
  "0816": {
    "zip_code": "7800816",
    "prefecture": "高知県",
    "prefecture_kana": "コウチケン",
    "prefecture_code": 39,
    "city": "高知市",
    "city_kana": "コウチシ",
    "town": "南宝永町",
    "town_kana": "ミナミホウエイチョウ",
    "street": null,
    "office_name": null,
    "office_name_kana": null
  },
  "0817": {
    "zip_code": "7800817",
    "prefecture": "高知県",
    "prefecture_kana": "コウチケン",
    "prefecture_code": 39,
    "city": "高知市",
    "city_kana": "コウチシ",
    "town": "中宝永町",
    "town_kana": "ナカホウエイチョウ",
    "street": null,
    "office_name": null,
    "office_name_kana": null
  },
  "0818": {
    "zip_code": "7800818",
    "prefecture": "高知県",
    "prefecture_kana": "コウチケン",
    "prefecture_code": 39,
    "city": "高知市",
    "city_kana": "コウチシ",
    "town": "宝永町",
    "town_kana": "ホウエイチョウ",
    "street": null,
    "office_name": null,
    "office_name_kana": null
  },
  "0821": {
    "zip_code": "7800821",
    "prefecture": "高知県",
    "prefecture_kana": "コウチケン",
    "prefecture_code": 39,
    "city": "高知市",
    "city_kana": "コウチシ",
    "town": "桜井町",
    "town_kana": "サクライチョウ",
    "street": null,
    "office_name": null,
    "office_name_kana": null
  },
  "0822": {
    "zip_code": "7800822",
    "prefecture": "高知県",
    "prefecture_kana": "コウチケン",
    "prefecture_code": 39,
    "city": "高知市",
    "city_kana": "コウチシ",
    "town": "はりまや町",
    "town_kana": "ハリマヤチョウ",
    "street": null,
    "office_name": null,
    "office_name_kana": null
  },
  "0823": {
    "zip_code": "7800823",
    "prefecture": "高知県",
    "prefecture_kana": "コウチケン",
    "prefecture_code": 39,
    "city": "高知市",
    "city_kana": "コウチシ",
    "town": "菜園場町",
    "town_kana": "サエンバチョウ",
    "street": null,
    "office_name": null,
    "office_name_kana": null
  },
  "0824": {
    "zip_code": "7800824",
    "prefecture": "高知県",
    "prefecture_kana": "コウチケン",
    "prefecture_code": 39,
    "city": "高知市",
    "city_kana": "コウチシ",
    "town": "城見町",
    "town_kana": "シロミチョウ",
    "street": null,
    "office_name": null,
    "office_name_kana": null
  },
  "0825": {
    "zip_code": "7800825",
    "prefecture": "高知県",
    "prefecture_kana": "コウチケン",
    "prefecture_code": 39,
    "city": "高知市",
    "city_kana": "コウチシ",
    "town": "農人町",
    "town_kana": "ノウニンマチ",
    "street": null,
    "office_name": null,
    "office_name_kana": null
  },
  "0831": {
    "zip_code": "7800831",
    "prefecture": "高知県",
    "prefecture_kana": "コウチケン",
    "prefecture_code": 39,
    "city": "高知市",
    "city_kana": "コウチシ",
    "town": "中の島",
    "town_kana": "ナカノシマ",
    "street": null,
    "office_name": null,
    "office_name_kana": null
  },
  "0832": {
    "zip_code": "7800832",
    "prefecture": "高知県",
    "prefecture_kana": "コウチケン",
    "prefecture_code": 39,
    "city": "高知市",
    "city_kana": "コウチシ",
    "town": "九反田",
    "town_kana": "クタンダ",
    "street": null,
    "office_name": null,
    "office_name_kana": null
  },
  "0833": {
    "zip_code": "7800833",
    "prefecture": "高知県",
    "prefecture_kana": "コウチケン",
    "prefecture_code": 39,
    "city": "高知市",
    "city_kana": "コウチシ",
    "town": "南はりまや町",
    "town_kana": "ミナミハリマヤチョウ",
    "street": null,
    "office_name": null,
    "office_name_kana": null
  },
  "0834": {
    "zip_code": "7800834",
    "prefecture": "高知県",
    "prefecture_kana": "コウチケン",
    "prefecture_code": 39,
    "city": "高知市",
    "city_kana": "コウチシ",
    "town": "堺町",
    "town_kana": "サカイマチ",
    "street": null,
    "office_name": null,
    "office_name_kana": null
  },
  "0841": {
    "zip_code": "7800841",
    "prefecture": "高知県",
    "prefecture_kana": "コウチケン",
    "prefecture_code": 39,
    "city": "高知市",
    "city_kana": "コウチシ",
    "town": "帯屋町",
    "town_kana": "オビヤマチ",
    "street": null,
    "office_name": null,
    "office_name_kana": null
  },
  "0842": {
    "zip_code": "7800842",
    "prefecture": "高知県",
    "prefecture_kana": "コウチケン",
    "prefecture_code": 39,
    "city": "高知市",
    "city_kana": "コウチシ",
    "town": "追手筋",
    "town_kana": "オウテスジ",
    "street": null,
    "office_name": null,
    "office_name_kana": null
  },
  "0843": {
    "zip_code": "7800843",
    "prefecture": "高知県",
    "prefecture_kana": "コウチケン",
    "prefecture_code": 39,
    "city": "高知市",
    "city_kana": "コウチシ",
    "town": "廿代町",
    "town_kana": "ニジュウダイマチ",
    "street": null,
    "office_name": null,
    "office_name_kana": null
  },
  "0844": {
    "zip_code": "7800844",
    "prefecture": "高知県",
    "prefecture_kana": "コウチケン",
    "prefecture_code": 39,
    "city": "高知市",
    "city_kana": "コウチシ",
    "town": "永国寺町",
    "town_kana": "エイコクジチョウ",
    "street": null,
    "office_name": null,
    "office_name_kana": null
  },
  "0850": {
    "zip_code": "7800850",
    "prefecture": "高知県",
    "prefecture_kana": "コウチケン",
    "prefecture_code": 39,
    "city": "高知市",
    "city_kana": "コウチシ",
    "town": "丸ノ内",
    "town_kana": "マルノウチ",
    "street": null,
    "office_name": null,
    "office_name_kana": null
  },
  "0861": {
    "zip_code": "7800861",
    "prefecture": "高知県",
    "prefecture_kana": "コウチケン",
    "prefecture_code": 39,
    "city": "高知市",
    "city_kana": "コウチシ",
    "town": "升形",
    "town_kana": "マスガタ",
    "street": null,
    "office_name": null,
    "office_name_kana": null
  },
  "0862": {
    "zip_code": "7800862",
    "prefecture": "高知県",
    "prefecture_kana": "コウチケン",
    "prefecture_code": 39,
    "city": "高知市",
    "city_kana": "コウチシ",
    "town": "鷹匠町",
    "town_kana": "タカジョウマチ",
    "street": null,
    "office_name": null,
    "office_name_kana": null
  },
  "0863": {
    "zip_code": "7800863",
    "prefecture": "高知県",
    "prefecture_kana": "コウチケン",
    "prefecture_code": 39,
    "city": "高知市",
    "city_kana": "コウチシ",
    "town": "与力町",
    "town_kana": "ヨリキマチ",
    "street": null,
    "office_name": null,
    "office_name_kana": null
  },
  "0864": {
    "zip_code": "7800864",
    "prefecture": "高知県",
    "prefecture_kana": "コウチケン",
    "prefecture_code": 39,
    "city": "高知市",
    "city_kana": "コウチシ",
    "town": "唐人町",
    "town_kana": "トウジンマチ",
    "street": null,
    "office_name": null,
    "office_name_kana": null
  },
  "0870": {
    "zip_code": "7800870",
    "prefecture": "高知県",
    "prefecture_kana": "コウチケン",
    "prefecture_code": 39,
    "city": "高知市",
    "city_kana": "コウチシ",
    "town": "本町",
    "town_kana": "ホンマチ",
    "street": null,
    "office_name": null,
    "office_name_kana": null
  },
  "0901": {
    "zip_code": "7800901",
    "prefecture": "高知県",
    "prefecture_kana": "コウチケン",
    "prefecture_code": 39,
    "city": "高知市",
    "city_kana": "コウチシ",
    "town": "上町",
    "town_kana": "カミマチ",
    "street": null,
    "office_name": null,
    "office_name_kana": null
  },
  "0902": {
    "zip_code": "7800902",
    "prefecture": "高知県",
    "prefecture_kana": "コウチケン",
    "prefecture_code": 39,
    "city": "高知市",
    "city_kana": "コウチシ",
    "town": "本丁筋",
    "town_kana": "ホンチョウスジ",
    "street": null,
    "office_name": null,
    "office_name_kana": null
  },
  "0903": {
    "zip_code": "7800903",
    "prefecture": "高知県",
    "prefecture_kana": "コウチケン",
    "prefecture_code": 39,
    "city": "高知市",
    "city_kana": "コウチシ",
    "town": "水通町",
    "town_kana": "スイドウチョウ",
    "street": null,
    "office_name": null,
    "office_name_kana": null
  },
  "0904": {
    "zip_code": "7800904",
    "prefecture": "高知県",
    "prefecture_kana": "コウチケン",
    "prefecture_code": 39,
    "city": "高知市",
    "city_kana": "コウチシ",
    "town": "通町",
    "town_kana": "トオリチョウ",
    "street": null,
    "office_name": null,
    "office_name_kana": null
  },
  "0911": {
    "zip_code": "7800911",
    "prefecture": "高知県",
    "prefecture_kana": "コウチケン",
    "prefecture_code": 39,
    "city": "高知市",
    "city_kana": "コウチシ",
    "town": "新屋敷",
    "town_kana": "シンヤシキ",
    "street": null,
    "office_name": null,
    "office_name_kana": null
  },
  "0912": {
    "zip_code": "7800912",
    "prefecture": "高知県",
    "prefecture_kana": "コウチケン",
    "prefecture_code": 39,
    "city": "高知市",
    "city_kana": "コウチシ",
    "town": "八反町",
    "town_kana": "ハッタンチョウ",
    "street": null,
    "office_name": null,
    "office_name_kana": null
  },
  "0913": {
    "zip_code": "7800913",
    "prefecture": "高知県",
    "prefecture_kana": "コウチケン",
    "prefecture_code": 39,
    "city": "高知市",
    "city_kana": "コウチシ",
    "town": "北八反町",
    "town_kana": "キタハッタンチョウ",
    "street": null,
    "office_name": null,
    "office_name_kana": null
  },
  "0914": {
    "zip_code": "7800914",
    "prefecture": "高知県",
    "prefecture_kana": "コウチケン",
    "prefecture_code": 39,
    "city": "高知市",
    "city_kana": "コウチシ",
    "town": "宝町",
    "town_kana": "タカラマチ",
    "street": null,
    "office_name": null,
    "office_name_kana": null
  },
  "0915": {
    "zip_code": "7800915",
    "prefecture": "高知県",
    "prefecture_kana": "コウチケン",
    "prefecture_code": 39,
    "city": "高知市",
    "city_kana": "コウチシ",
    "town": "小津町",
    "town_kana": "オヅチョウ",
    "street": null,
    "office_name": null,
    "office_name_kana": null
  },
  "0916": {
    "zip_code": "7800916",
    "prefecture": "高知県",
    "prefecture_kana": "コウチケン",
    "prefecture_code": 39,
    "city": "高知市",
    "city_kana": "コウチシ",
    "town": "城北町",
    "town_kana": "ジョウホクチョウ",
    "street": null,
    "office_name": null,
    "office_name_kana": null
  },
  "0921": {
    "zip_code": "7800921",
    "prefecture": "高知県",
    "prefecture_kana": "コウチケン",
    "prefecture_code": 39,
    "city": "高知市",
    "city_kana": "コウチシ",
    "town": "井口町",
    "town_kana": "イグチチョウ",
    "street": null,
    "office_name": null,
    "office_name_kana": null
  },
  "0922": {
    "zip_code": "7800922",
    "prefecture": "高知県",
    "prefecture_kana": "コウチケン",
    "prefecture_code": 39,
    "city": "高知市",
    "city_kana": "コウチシ",
    "town": "平和町",
    "town_kana": "ヘイワチョウ",
    "street": null,
    "office_name": null,
    "office_name_kana": null
  },
  "0923": {
    "zip_code": "7800923",
    "prefecture": "高知県",
    "prefecture_kana": "コウチケン",
    "prefecture_code": 39,
    "city": "高知市",
    "city_kana": "コウチシ",
    "town": "三ノ丸",
    "town_kana": "サンノマル",
    "street": null,
    "office_name": null,
    "office_name_kana": null
  },
  "0924": {
    "zip_code": "7800924",
    "prefecture": "高知県",
    "prefecture_kana": "コウチケン",
    "prefecture_code": 39,
    "city": "高知市",
    "city_kana": "コウチシ",
    "town": "宮前町",
    "town_kana": "ミヤマエチョウ",
    "street": null,
    "office_name": null,
    "office_name_kana": null
  },
  "0925": {
    "zip_code": "7800925",
    "prefecture": "高知県",
    "prefecture_kana": "コウチケン",
    "prefecture_code": 39,
    "city": "高知市",
    "city_kana": "コウチシ",
    "town": "西町",
    "town_kana": "ニシマチ",
    "street": null,
    "office_name": null,
    "office_name_kana": null
  },
  "0926": {
    "zip_code": "7800926",
    "prefecture": "高知県",
    "prefecture_kana": "コウチケン",
    "prefecture_code": 39,
    "city": "高知市",
    "city_kana": "コウチシ",
    "town": "大膳町",
    "town_kana": "ダイゼンチョウ",
    "street": null,
    "office_name": null,
    "office_name_kana": null
  },
  "0927": {
    "zip_code": "7800927",
    "prefecture": "高知県",
    "prefecture_kana": "コウチケン",
    "prefecture_code": 39,
    "city": "高知市",
    "city_kana": "コウチシ",
    "town": "山ノ端町",
    "town_kana": "ヤマノハナチョウ",
    "street": null,
    "office_name": null,
    "office_name_kana": null
  },
  "0928": {
    "zip_code": "7800928",
    "prefecture": "高知県",
    "prefecture_kana": "コウチケン",
    "prefecture_code": 39,
    "city": "高知市",
    "city_kana": "コウチシ",
    "town": "越前町",
    "town_kana": "エチゼンマチ",
    "street": null,
    "office_name": null,
    "office_name_kana": null
  },
  "0929": {
    "zip_code": "7800929",
    "prefecture": "高知県",
    "prefecture_kana": "コウチケン",
    "prefecture_code": 39,
    "city": "高知市",
    "city_kana": "コウチシ",
    "town": "桜馬場",
    "town_kana": "サクラババ",
    "street": null,
    "office_name": null,
    "office_name_kana": null
  },
  "0931": {
    "zip_code": "7800931",
    "prefecture": "高知県",
    "prefecture_kana": "コウチケン",
    "prefecture_code": 39,
    "city": "高知市",
    "city_kana": "コウチシ",
    "town": "玉水町",
    "town_kana": "タマミズチョウ",
    "street": null,
    "office_name": null,
    "office_name_kana": null
  },
  "0932": {
    "zip_code": "7800932",
    "prefecture": "高知県",
    "prefecture_kana": "コウチケン",
    "prefecture_code": 39,
    "city": "高知市",
    "city_kana": "コウチシ",
    "town": "縄手町",
    "town_kana": "ナワテチョウ",
    "street": null,
    "office_name": null,
    "office_name_kana": null
  },
  "0933": {
    "zip_code": "7800933",
    "prefecture": "高知県",
    "prefecture_kana": "コウチケン",
    "prefecture_code": 39,
    "city": "高知市",
    "city_kana": "コウチシ",
    "town": "鏡川町",
    "town_kana": "カガミガワチョウ",
    "street": null,
    "office_name": null,
    "office_name_kana": null
  },
  "0934": {
    "zip_code": "7800934",
    "prefecture": "高知県",
    "prefecture_kana": "コウチケン",
    "prefecture_code": 39,
    "city": "高知市",
    "city_kana": "コウチシ",
    "town": "下島町",
    "town_kana": "シモジマチョウ",
    "street": null,
    "office_name": null,
    "office_name_kana": null
  },
  "0935": {
    "zip_code": "7800935",
    "prefecture": "高知県",
    "prefecture_kana": "コウチケン",
    "prefecture_code": 39,
    "city": "高知市",
    "city_kana": "コウチシ",
    "town": "旭町",
    "town_kana": "アサヒマチ",
    "street": null,
    "office_name": null,
    "office_name_kana": null
  },
  "0936": {
    "zip_code": "7800936",
    "prefecture": "高知県",
    "prefecture_kana": "コウチケン",
    "prefecture_code": 39,
    "city": "高知市",
    "city_kana": "コウチシ",
    "town": "赤石町",
    "town_kana": "アカイシチョウ",
    "street": null,
    "office_name": null,
    "office_name_kana": null
  },
  "0937": {
    "zip_code": "7800937",
    "prefecture": "高知県",
    "prefecture_kana": "コウチケン",
    "prefecture_code": 39,
    "city": "高知市",
    "city_kana": "コウチシ",
    "town": "中須賀町",
    "town_kana": "ナカスカチョウ",
    "street": null,
    "office_name": null,
    "office_name_kana": null
  },
  "0938": {
    "zip_code": "7800938",
    "prefecture": "高知県",
    "prefecture_kana": "コウチケン",
    "prefecture_code": 39,
    "city": "高知市",
    "city_kana": "コウチシ",
    "town": "旭駅前町",
    "town_kana": "アサヒエキマエチョウ",
    "street": null,
    "office_name": null,
    "office_name_kana": null
  },
  "0941": {
    "zip_code": "7800941",
    "prefecture": "高知県",
    "prefecture_kana": "コウチケン",
    "prefecture_code": 39,
    "city": "高知市",
    "city_kana": "コウチシ",
    "town": "元町",
    "town_kana": "モトマチ",
    "street": null,
    "office_name": null,
    "office_name_kana": null
  },
  "0942": {
    "zip_code": "7800942",
    "prefecture": "高知県",
    "prefecture_kana": "コウチケン",
    "prefecture_code": 39,
    "city": "高知市",
    "city_kana": "コウチシ",
    "town": "南元町",
    "town_kana": "ミナミモトマチ",
    "street": null,
    "office_name": null,
    "office_name_kana": null
  },
  "0943": {
    "zip_code": "7800943",
    "prefecture": "高知県",
    "prefecture_kana": "コウチケン",
    "prefecture_code": 39,
    "city": "高知市",
    "city_kana": "コウチシ",
    "town": "旭上町",
    "town_kana": "アサヒカミマチ",
    "street": null,
    "office_name": null,
    "office_name_kana": null
  },
  "0944": {
    "zip_code": "7800944",
    "prefecture": "高知県",
    "prefecture_kana": "コウチケン",
    "prefecture_code": 39,
    "city": "高知市",
    "city_kana": "コウチシ",
    "town": "水源町",
    "town_kana": "スイゲンチョウ",
    "street": null,
    "office_name": null,
    "office_name_kana": null
  },
  "0945": {
    "zip_code": "7800945",
    "prefecture": "高知県",
    "prefecture_kana": "コウチケン",
    "prefecture_code": 39,
    "city": "高知市",
    "city_kana": "コウチシ",
    "town": "本宮町",
    "town_kana": "ホングウチョウ",
    "street": null,
    "office_name": null,
    "office_name_kana": null
  },
  "0946": {
    "zip_code": "7800946",
    "prefecture": "高知県",
    "prefecture_kana": "コウチケン",
    "prefecture_code": 39,
    "city": "高知市",
    "city_kana": "コウチシ",
    "town": "上本宮町",
    "town_kana": "カミホングウチョウ",
    "street": null,
    "office_name": null,
    "office_name_kana": null
  },
  "0947": {
    "zip_code": "7800947",
    "prefecture": "高知県",
    "prefecture_kana": "コウチケン",
    "prefecture_code": 39,
    "city": "高知市",
    "city_kana": "コウチシ",
    "town": "大谷",
    "town_kana": "オオタニ",
    "street": null,
    "office_name": null,
    "office_name_kana": null
  },
  "0948": {
    "zip_code": "7800948",
    "prefecture": "高知県",
    "prefecture_kana": "コウチケン",
    "prefecture_code": 39,
    "city": "高知市",
    "city_kana": "コウチシ",
    "town": "岩ケ淵",
    "town_kana": "イワガブチ",
    "street": null,
    "office_name": null,
    "office_name_kana": null
  },
  "0949": {
    "zip_code": "7800949",
    "prefecture": "高知県",
    "prefecture_kana": "コウチケン",
    "prefecture_code": 39,
    "city": "高知市",
    "city_kana": "コウチシ",
    "town": "鳥越",
    "town_kana": "トリゴエ",
    "street": null,
    "office_name": null,
    "office_name_kana": null
  },
  "0951": {
    "zip_code": "7800951",
    "prefecture": "高知県",
    "prefecture_kana": "コウチケン",
    "prefecture_code": 39,
    "city": "高知市",
    "city_kana": "コウチシ",
    "town": "西塚ノ原",
    "town_kana": "ニシツカノハラ",
    "street": null,
    "office_name": null,
    "office_name_kana": null
  },
  "0952": {
    "zip_code": "7800952",
    "prefecture": "高知県",
    "prefecture_kana": "コウチケン",
    "prefecture_code": 39,
    "city": "高知市",
    "city_kana": "コウチシ",
    "town": "塚ノ原",
    "town_kana": "ツカノハラ",
    "street": null,
    "office_name": null,
    "office_name_kana": null
  },
  "0953": {
    "zip_code": "7800953",
    "prefecture": "高知県",
    "prefecture_kana": "コウチケン",
    "prefecture_code": 39,
    "city": "高知市",
    "city_kana": "コウチシ",
    "town": "長尾山町",
    "town_kana": "ナガオヤマチョウ",
    "street": null,
    "office_name": null,
    "office_name_kana": null
  },
  "0954": {
    "zip_code": "7800954",
    "prefecture": "高知県",
    "prefecture_kana": "コウチケン",
    "prefecture_code": 39,
    "city": "高知市",
    "city_kana": "コウチシ",
    "town": "佐々木町",
    "town_kana": "ササキチョウ",
    "street": null,
    "office_name": null,
    "office_name_kana": null
  },
  "0955": {
    "zip_code": "7800955",
    "prefecture": "高知県",
    "prefecture_kana": "コウチケン",
    "prefecture_code": 39,
    "city": "高知市",
    "city_kana": "コウチシ",
    "town": "旭天神町",
    "town_kana": "アサヒテンジンチョウ",
    "street": null,
    "office_name": null,
    "office_name_kana": null
  },
  "0956": {
    "zip_code": "7800956",
    "prefecture": "高知県",
    "prefecture_kana": "コウチケン",
    "prefecture_code": 39,
    "city": "高知市",
    "city_kana": "コウチシ",
    "town": "北端町",
    "town_kana": "キタバタチョウ",
    "street": null,
    "office_name": null,
    "office_name_kana": null
  },
  "0957": {
    "zip_code": "7800957",
    "prefecture": "高知県",
    "prefecture_kana": "コウチケン",
    "prefecture_code": 39,
    "city": "高知市",
    "city_kana": "コウチシ",
    "town": "山手町",
    "town_kana": "ヤマテチョウ",
    "street": null,
    "office_name": null,
    "office_name_kana": null
  },
  "0961": {
    "zip_code": "7800961",
    "prefecture": "高知県",
    "prefecture_kana": "コウチケン",
    "prefecture_code": 39,
    "city": "高知市",
    "city_kana": "コウチシ",
    "town": "蓮台",
    "town_kana": "レンダイ",
    "street": null,
    "office_name": null,
    "office_name_kana": null
  },
  "0962": {
    "zip_code": "7800962",
    "prefecture": "高知県",
    "prefecture_kana": "コウチケン",
    "prefecture_code": 39,
    "city": "高知市",
    "city_kana": "コウチシ",
    "town": "尾立",
    "town_kana": "ヒジ",
    "street": null,
    "office_name": null,
    "office_name_kana": null
  },
  "0963": {
    "zip_code": "7800963",
    "prefecture": "高知県",
    "prefecture_kana": "コウチケン",
    "prefecture_code": 39,
    "city": "高知市",
    "city_kana": "コウチシ",
    "town": "口細山",
    "town_kana": "クチホソヤマ",
    "street": null,
    "office_name": null,
    "office_name_kana": null
  },
  "0964": {
    "zip_code": "7800964",
    "prefecture": "高知県",
    "prefecture_kana": "コウチケン",
    "prefecture_code": 39,
    "city": "高知市",
    "city_kana": "コウチシ",
    "town": "横内",
    "town_kana": "ヨコウチ",
    "street": null,
    "office_name": null,
    "office_name_kana": null
  },
  "0965": {
    "zip_code": "7800965",
    "prefecture": "高知県",
    "prefecture_kana": "コウチケン",
    "prefecture_code": 39,
    "city": "高知市",
    "city_kana": "コウチシ",
    "town": "福井町",
    "town_kana": "フクイチョウ",
    "street": null,
    "office_name": null,
    "office_name_kana": null
  },
  "0966": {
    "zip_code": "7800966",
    "prefecture": "高知県",
    "prefecture_kana": "コウチケン",
    "prefecture_code": 39,
    "city": "高知市",
    "city_kana": "コウチシ",
    "town": "福井扇町",
    "town_kana": "フクイオウギマチ",
    "street": null,
    "office_name": null,
    "office_name_kana": null
  },
  "0967": {
    "zip_code": "7800967",
    "prefecture": "高知県",
    "prefecture_kana": "コウチケン",
    "prefecture_code": 39,
    "city": "高知市",
    "city_kana": "コウチシ",
    "town": "福井東町",
    "town_kana": "フクイヒガシマチ",
    "street": null,
    "office_name": null,
    "office_name_kana": null
  },
  "0971": {
    "zip_code": "7800971",
    "prefecture": "高知県",
    "prefecture_kana": "コウチケン",
    "prefecture_code": 39,
    "city": "高知市",
    "city_kana": "コウチシ",
    "town": "南万々",
    "town_kana": "ミナミママ",
    "street": null,
    "office_name": null,
    "office_name_kana": null
  },
  "0972": {
    "zip_code": "7800972",
    "prefecture": "高知県",
    "prefecture_kana": "コウチケン",
    "prefecture_code": 39,
    "city": "高知市",
    "city_kana": "コウチシ",
    "town": "中万々",
    "town_kana": "ナカママ",
    "street": null,
    "office_name": null,
    "office_name_kana": null
  },
  "0973": {
    "zip_code": "7800973",
    "prefecture": "高知県",
    "prefecture_kana": "コウチケン",
    "prefecture_code": 39,
    "city": "高知市",
    "city_kana": "コウチシ",
    "town": "万々",
    "town_kana": "ママ",
    "street": null,
    "office_name": null,
    "office_name_kana": null
  },
  "0974": {
    "zip_code": "7800974",
    "prefecture": "高知県",
    "prefecture_kana": "コウチケン",
    "prefecture_code": 39,
    "city": "高知市",
    "city_kana": "コウチシ",
    "town": "円行寺",
    "town_kana": "エンギョウジ",
    "street": null,
    "office_name": null,
    "office_name_kana": null
  },
  "0975": {
    "zip_code": "7800975",
    "prefecture": "高知県",
    "prefecture_kana": "コウチケン",
    "prefecture_code": 39,
    "city": "高知市",
    "city_kana": "コウチシ",
    "town": "柴巻",
    "town_kana": "シバマキ",
    "street": null,
    "office_name": null,
    "office_name_kana": null
  },
  "0976": {
    "zip_code": "7800976",
    "prefecture": "高知県",
    "prefecture_kana": "コウチケン",
    "prefecture_code": 39,
    "city": "高知市",
    "city_kana": "コウチシ",
    "town": "みづき",
    "town_kana": "ミヅキ",
    "street": null,
    "office_name": null,
    "office_name_kana": null
  },
  "0977": {
    "zip_code": "7800977",
    "prefecture": "高知県",
    "prefecture_kana": "コウチケン",
    "prefecture_code": 39,
    "city": "高知市",
    "city_kana": "コウチシ",
    "town": "みづき山",
    "town_kana": "ミヅキヤマ",
    "street": null,
    "office_name": null,
    "office_name_kana": null
  },
  "0981": {
    "zip_code": "7800981",
    "prefecture": "高知県",
    "prefecture_kana": "コウチケン",
    "prefecture_code": 39,
    "city": "高知市",
    "city_kana": "コウチシ",
    "town": "一ツ橋町",
    "town_kana": "ヒトツバシチョウ",
    "street": null,
    "office_name": null,
    "office_name_kana": null
  },
  "0982": {
    "zip_code": "7800982",
    "prefecture": "高知県",
    "prefecture_kana": "コウチケン",
    "prefecture_code": 39,
    "city": "高知市",
    "city_kana": "コウチシ",
    "town": "東久万",
    "town_kana": "ヒガシクマ",
    "street": null,
    "office_name": null,
    "office_name_kana": null
  },
  "0983": {
    "zip_code": "7800983",
    "prefecture": "高知県",
    "prefecture_kana": "コウチケン",
    "prefecture_code": 39,
    "city": "高知市",
    "city_kana": "コウチシ",
    "town": "中久万",
    "town_kana": "ナカクマ",
    "street": null,
    "office_name": null,
    "office_name_kana": null
  },
  "0984": {
    "zip_code": "7800984",
    "prefecture": "高知県",
    "prefecture_kana": "コウチケン",
    "prefecture_code": 39,
    "city": "高知市",
    "city_kana": "コウチシ",
    "town": "西久万",
    "town_kana": "ニシクマ",
    "street": null,
    "office_name": null,
    "office_name_kana": null
  },
  "0985": {
    "zip_code": "7800985",
    "prefecture": "高知県",
    "prefecture_kana": "コウチケン",
    "prefecture_code": 39,
    "city": "高知市",
    "city_kana": "コウチシ",
    "town": "南久万",
    "town_kana": "ミナミクマ",
    "street": null,
    "office_name": null,
    "office_name_kana": null
  },
  "0991": {
    "zip_code": "7800991",
    "prefecture": "高知県",
    "prefecture_kana": "コウチケン",
    "prefecture_code": 39,
    "city": "高知市",
    "city_kana": "コウチシ",
    "town": "宗安寺",
    "town_kana": "ソウアンジ",
    "street": null,
    "office_name": null,
    "office_name_kana": null
  },
  "0992": {
    "zip_code": "7800992",
    "prefecture": "高知県",
    "prefecture_kana": "コウチケン",
    "prefecture_code": 39,
    "city": "高知市",
    "city_kana": "コウチシ",
    "town": "行川",
    "town_kana": "ナメガワ",
    "street": null,
    "office_name": null,
    "office_name_kana": null
  },
  "0993": {
    "zip_code": "7800993",
    "prefecture": "高知県",
    "prefecture_kana": "コウチケン",
    "prefecture_code": 39,
    "city": "高知市",
    "city_kana": "コウチシ",
    "town": "針原",
    "town_kana": "ハリハラ",
    "street": null,
    "office_name": null,
    "office_name_kana": null
  },
  "0994": {
    "zip_code": "7800994",
    "prefecture": "高知県",
    "prefecture_kana": "コウチケン",
    "prefecture_code": 39,
    "city": "高知市",
    "city_kana": "コウチシ",
    "town": "唐岩",
    "town_kana": "カライワ",
    "street": null,
    "office_name": null,
    "office_name_kana": null
  },
  "0995": {
    "zip_code": "7800995",
    "prefecture": "高知県",
    "prefecture_kana": "コウチケン",
    "prefecture_code": 39,
    "city": "高知市",
    "city_kana": "コウチシ",
    "town": "領家",
    "town_kana": "リョウケ",
    "street": null,
    "office_name": null,
    "office_name_kana": null
  },
  "0996": {
    "zip_code": "7800996",
    "prefecture": "高知県",
    "prefecture_kana": "コウチケン",
    "prefecture_code": 39,
    "city": "高知市",
    "city_kana": "コウチシ",
    "town": "上里",
    "town_kana": "ジョウリ",
    "street": null,
    "office_name": null,
    "office_name_kana": null
  },
  "8001": {
    "zip_code": "7808001",
    "prefecture": "高知県",
    "prefecture_kana": "コウチケン",
    "prefecture_code": 39,
    "city": "高知市",
    "city_kana": "コウチシ",
    "town": "土居町",
    "town_kana": "ドイマチ",
    "street": null,
    "office_name": null,
    "office_name_kana": null
  },
  "8002": {
    "zip_code": "7808002",
    "prefecture": "高知県",
    "prefecture_kana": "コウチケン",
    "prefecture_code": 39,
    "city": "高知市",
    "city_kana": "コウチシ",
    "town": "役知町",
    "town_kana": "ヤクチチョウ",
    "street": null,
    "office_name": null,
    "office_name_kana": null
  },
  "8003": {
    "zip_code": "7808003",
    "prefecture": "高知県",
    "prefecture_kana": "コウチケン",
    "prefecture_code": 39,
    "city": "高知市",
    "city_kana": "コウチシ",
    "town": "北新田町",
    "town_kana": "キタシンタチョウ",
    "street": null,
    "office_name": null,
    "office_name_kana": null
  },
  "8004": {
    "zip_code": "7808004",
    "prefecture": "高知県",
    "prefecture_kana": "コウチケン",
    "prefecture_code": 39,
    "city": "高知市",
    "city_kana": "コウチシ",
    "town": "新田町",
    "town_kana": "シンタチョウ",
    "street": null,
    "office_name": null,
    "office_name_kana": null
  },
  "8005": {
    "zip_code": "7808005",
    "prefecture": "高知県",
    "prefecture_kana": "コウチケン",
    "prefecture_code": 39,
    "city": "高知市",
    "city_kana": "コウチシ",
    "town": "南新田町",
    "town_kana": "ミナミシンタチョウ",
    "street": null,
    "office_name": null,
    "office_name_kana": null
  },
  "8006": {
    "zip_code": "7808006",
    "prefecture": "高知県",
    "prefecture_kana": "コウチケン",
    "prefecture_code": 39,
    "city": "高知市",
    "city_kana": "コウチシ",
    "town": "萩町",
    "town_kana": "ハギマチ",
    "street": null,
    "office_name": null,
    "office_name_kana": null
  },
  "8007": {
    "zip_code": "7808007",
    "prefecture": "高知県",
    "prefecture_kana": "コウチケン",
    "prefecture_code": 39,
    "city": "高知市",
    "city_kana": "コウチシ",
    "town": "仲田町",
    "town_kana": "ナカタチョウ",
    "street": null,
    "office_name": null,
    "office_name_kana": null
  },
  "8008": {
    "zip_code": "7808008",
    "prefecture": "高知県",
    "prefecture_kana": "コウチケン",
    "prefecture_code": 39,
    "city": "高知市",
    "city_kana": "コウチシ",
    "town": "潮新町",
    "town_kana": "ウシオシンマチ",
    "street": null,
    "office_name": null,
    "office_name_kana": null
  },
  "8010": {
    "zip_code": "7808010",
    "prefecture": "高知県",
    "prefecture_kana": "コウチケン",
    "prefecture_code": 39,
    "city": "高知市",
    "city_kana": "コウチシ",
    "town": "桟橋通",
    "town_kana": "サンバシドオリ",
    "street": null,
    "office_name": null,
    "office_name_kana": null
  },
  "8011": {
    "zip_code": "7808011",
    "prefecture": "高知県",
    "prefecture_kana": "コウチケン",
    "prefecture_code": 39,
    "city": "高知市",
    "city_kana": "コウチシ",
    "town": "梅ノ辻",
    "town_kana": "ウメノツジ",
    "street": null,
    "office_name": null,
    "office_name_kana": null
  },
  "8012": {
    "zip_code": "7808012",
    "prefecture": "高知県",
    "prefecture_kana": "コウチケン",
    "prefecture_code": 39,
    "city": "高知市",
    "city_kana": "コウチシ",
    "town": "天神町",
    "town_kana": "テンジンチョウ",
    "street": null,
    "office_name": null,
    "office_name_kana": null
  },
  "8013": {
    "zip_code": "7808013",
    "prefecture": "高知県",
    "prefecture_kana": "コウチケン",
    "prefecture_code": 39,
    "city": "高知市",
    "city_kana": "コウチシ",
    "town": "筆山町",
    "town_kana": "ヒツザンチョウ",
    "street": null,
    "office_name": null,
    "office_name_kana": null
  },
  "8014": {
    "zip_code": "7808014",
    "prefecture": "高知県",
    "prefecture_kana": "コウチケン",
    "prefecture_code": 39,
    "city": "高知市",
    "city_kana": "コウチシ",
    "town": "塩屋崎町",
    "town_kana": "シオヤザキマチ",
    "street": null,
    "office_name": null,
    "office_name_kana": null
  },
  "8015": {
    "zip_code": "7808015",
    "prefecture": "高知県",
    "prefecture_kana": "コウチケン",
    "prefecture_code": 39,
    "city": "高知市",
    "city_kana": "コウチシ",
    "town": "百石町",
    "town_kana": "ヒャッコクチョウ",
    "street": null,
    "office_name": null,
    "office_name_kana": null
  },
  "8016": {
    "zip_code": "7808016",
    "prefecture": "高知県",
    "prefecture_kana": "コウチケン",
    "prefecture_code": 39,
    "city": "高知市",
    "city_kana": "コウチシ",
    "town": "南ノ丸町",
    "town_kana": "ミナミノマルチョウ",
    "street": null,
    "office_name": null,
    "office_name_kana": null
  },
  "8017": {
    "zip_code": "7808017",
    "prefecture": "高知県",
    "prefecture_kana": "コウチケン",
    "prefecture_code": 39,
    "city": "高知市",
    "city_kana": "コウチシ",
    "town": "南竹島町",
    "town_kana": "ミナミタケシマチョウ",
    "street": null,
    "office_name": null,
    "office_name_kana": null
  },
  "8018": {
    "zip_code": "7808018",
    "prefecture": "高知県",
    "prefecture_kana": "コウチケン",
    "prefecture_code": 39,
    "city": "高知市",
    "city_kana": "コウチシ",
    "town": "竹島町",
    "town_kana": "タケシマチョウ",
    "street": null,
    "office_name": null,
    "office_name_kana": null
  },
  "8019": {
    "zip_code": "7808019",
    "prefecture": "高知県",
    "prefecture_kana": "コウチケン",
    "prefecture_code": 39,
    "city": "高知市",
    "city_kana": "コウチシ",
    "town": "北竹島町",
    "town_kana": "キタタケシマチョウ",
    "street": null,
    "office_name": null,
    "office_name_kana": null
  },
  "8021": {
    "zip_code": "7808021",
    "prefecture": "高知県",
    "prefecture_kana": "コウチケン",
    "prefecture_code": 39,
    "city": "高知市",
    "city_kana": "コウチシ",
    "town": "孕東町",
    "town_kana": "ハラミヒガシマチ",
    "street": null,
    "office_name": null,
    "office_name_kana": null
  },
  "8022": {
    "zip_code": "7808022",
    "prefecture": "高知県",
    "prefecture_kana": "コウチケン",
    "prefecture_code": 39,
    "city": "高知市",
    "city_kana": "コウチシ",
    "town": "孕西町",
    "town_kana": "ハラミニシマチ",
    "street": null,
    "office_name": null,
    "office_name_kana": null
  },
  "8023": {
    "zip_code": "7808023",
    "prefecture": "高知県",
    "prefecture_kana": "コウチケン",
    "prefecture_code": 39,
    "city": "高知市",
    "city_kana": "コウチシ",
    "town": "六泉寺町",
    "town_kana": "ロクセンジチョウ",
    "street": null,
    "office_name": null,
    "office_name_kana": null
  },
  "8024": {
    "zip_code": "7808024",
    "prefecture": "高知県",
    "prefecture_kana": "コウチケン",
    "prefecture_code": 39,
    "city": "高知市",
    "city_kana": "コウチシ",
    "town": "深谷町",
    "town_kana": "フカダニチョウ",
    "street": null,
    "office_name": null,
    "office_name_kana": null
  },
  "8025": {
    "zip_code": "7808025",
    "prefecture": "高知県",
    "prefecture_kana": "コウチケン",
    "prefecture_code": 39,
    "city": "高知市",
    "city_kana": "コウチシ",
    "town": "南中山",
    "town_kana": "ミナミナカヤマ",
    "street": null,
    "office_name": null,
    "office_name_kana": null
  },
  "8026": {
    "zip_code": "7808026",
    "prefecture": "高知県",
    "prefecture_kana": "コウチケン",
    "prefecture_code": 39,
    "city": "高知市",
    "city_kana": "コウチシ",
    "town": "北中山",
    "town_kana": "キタナカヤマ",
    "street": null,
    "office_name": null,
    "office_name_kana": null
  },
  "8027": {
    "zip_code": "7808027",
    "prefecture": "高知県",
    "prefecture_kana": "コウチケン",
    "prefecture_code": 39,
    "city": "高知市",
    "city_kana": "コウチシ",
    "town": "高見町",
    "town_kana": "タカミチョウ",
    "street": null,
    "office_name": null,
    "office_name_kana": null
  },
  "8028": {
    "zip_code": "7808028",
    "prefecture": "高知県",
    "prefecture_kana": "コウチケン",
    "prefecture_code": 39,
    "city": "高知市",
    "city_kana": "コウチシ",
    "town": "北高見町",
    "town_kana": "キタタカミチョウ",
    "street": null,
    "office_name": null,
    "office_name_kana": null
  },
  "8031": {
    "zip_code": "7808031",
    "prefecture": "高知県",
    "prefecture_kana": "コウチケン",
    "prefecture_code": 39,
    "city": "高知市",
    "city_kana": "コウチシ",
    "town": "大原町",
    "town_kana": "オオハラチョウ",
    "street": null,
    "office_name": null,
    "office_name_kana": null
  },
  "8032": {
    "zip_code": "7808032",
    "prefecture": "高知県",
    "prefecture_kana": "コウチケン",
    "prefecture_code": 39,
    "city": "高知市",
    "city_kana": "コウチシ",
    "town": "小石木町",
    "town_kana": "コイシギチョウ",
    "street": null,
    "office_name": null,
    "office_name_kana": null
  },
  "8033": {
    "zip_code": "7808033",
    "prefecture": "高知県",
    "prefecture_kana": "コウチケン",
    "prefecture_code": 39,
    "city": "高知市",
    "city_kana": "コウチシ",
    "town": "幸崎",
    "town_kana": "コウザキ",
    "street": null,
    "office_name": null,
    "office_name_kana": null
  },
  "8034": {
    "zip_code": "7808034",
    "prefecture": "高知県",
    "prefecture_kana": "コウチケン",
    "prefecture_code": 39,
    "city": "高知市",
    "city_kana": "コウチシ",
    "town": "南河ノ瀬町",
    "town_kana": "ミナミゴウノセチョウ",
    "street": null,
    "office_name": null,
    "office_name_kana": null
  },
  "8035": {
    "zip_code": "7808035",
    "prefecture": "高知県",
    "prefecture_kana": "コウチケン",
    "prefecture_code": 39,
    "city": "高知市",
    "city_kana": "コウチシ",
    "town": "河ノ瀬町",
    "town_kana": "ゴウノセチョウ",
    "street": null,
    "office_name": null,
    "office_name_kana": null
  },
  "8036": {
    "zip_code": "7808036",
    "prefecture": "高知県",
    "prefecture_kana": "コウチケン",
    "prefecture_code": 39,
    "city": "高知市",
    "city_kana": "コウチシ",
    "town": "東城山町",
    "town_kana": "ヒガシジョウヤマチョウ",
    "street": null,
    "office_name": null,
    "office_name_kana": null
  },
  "8037": {
    "zip_code": "7808037",
    "prefecture": "高知県",
    "prefecture_kana": "コウチケン",
    "prefecture_code": 39,
    "city": "高知市",
    "city_kana": "コウチシ",
    "town": "城山町",
    "town_kana": "ジョウヤマチョウ",
    "street": null,
    "office_name": null,
    "office_name_kana": null
  },
  "8038": {
    "zip_code": "7808038",
    "prefecture": "高知県",
    "prefecture_kana": "コウチケン",
    "prefecture_code": 39,
    "city": "高知市",
    "city_kana": "コウチシ",
    "town": "石立町",
    "town_kana": "イシタテチョウ",
    "street": null,
    "office_name": null,
    "office_name_kana": null
  },
  "8039": {
    "zip_code": "7808039",
    "prefecture": "高知県",
    "prefecture_kana": "コウチケン",
    "prefecture_code": 39,
    "city": "高知市",
    "city_kana": "コウチシ",
    "town": "東石立町",
    "town_kana": "ヒガシイシタテチョウ",
    "street": null,
    "office_name": null,
    "office_name_kana": null
  },
  "8040": {
    "zip_code": "7808040",
    "prefecture": "高知県",
    "prefecture_kana": "コウチケン",
    "prefecture_code": 39,
    "city": "高知市",
    "city_kana": "コウチシ",
    "town": "神田",
    "town_kana": "コウダ",
    "street": null,
    "office_name": null,
    "office_name_kana": null
  },
  "8050": {
    "zip_code": "7808050",
    "prefecture": "高知県",
    "prefecture_kana": "コウチケン",
    "prefecture_code": 39,
    "city": "高知市",
    "city_kana": "コウチシ",
    "town": "鴨部",
    "town_kana": "カモベ",
    "street": null,
    "office_name": null,
    "office_name_kana": null
  },
  "8051": {
    "zip_code": "7808051",
    "prefecture": "高知県",
    "prefecture_kana": "コウチケン",
    "prefecture_code": 39,
    "city": "高知市",
    "city_kana": "コウチシ",
    "town": "鴨部上町",
    "town_kana": "カモベカミマチ",
    "street": null,
    "office_name": null,
    "office_name_kana": null
  },
  "8052": {
    "zip_code": "7808052",
    "prefecture": "高知県",
    "prefecture_kana": "コウチケン",
    "prefecture_code": 39,
    "city": "高知市",
    "city_kana": "コウチシ",
    "town": "鴨部",
    "town_kana": "カモベ",
    "street": null,
    "office_name": null,
    "office_name_kana": null
  },
  "8061": {
    "zip_code": "7808061",
    "prefecture": "高知県",
    "prefecture_kana": "コウチケン",
    "prefecture_code": 39,
    "city": "高知市",
    "city_kana": "コウチシ",
    "town": "朝倉甲",
    "town_kana": "アサクラコウ",
    "street": null,
    "office_name": null,
    "office_name_kana": null
  },
  "8062": {
    "zip_code": "7808062",
    "prefecture": "高知県",
    "prefecture_kana": "コウチケン",
    "prefecture_code": 39,
    "city": "高知市",
    "city_kana": "コウチシ",
    "town": "朝倉乙",
    "town_kana": "アサクラオツ",
    "street": null,
    "office_name": null,
    "office_name_kana": null
  },
  "8063": {
    "zip_code": "7808063",
    "prefecture": "高知県",
    "prefecture_kana": "コウチケン",
    "prefecture_code": 39,
    "city": "高知市",
    "city_kana": "コウチシ",
    "town": "朝倉丙",
    "town_kana": "アサクラヘイ",
    "street": null,
    "office_name": null,
    "office_name_kana": null
  },
  "8064": {
    "zip_code": "7808064",
    "prefecture": "高知県",
    "prefecture_kana": "コウチケン",
    "prefecture_code": 39,
    "city": "高知市",
    "city_kana": "コウチシ",
    "town": "朝倉丁",
    "town_kana": "アサクラテイ",
    "street": null,
    "office_name": null,
    "office_name_kana": null
  },
  "8065": {
    "zip_code": "7808065",
    "prefecture": "高知県",
    "prefecture_kana": "コウチケン",
    "prefecture_code": 39,
    "city": "高知市",
    "city_kana": "コウチシ",
    "town": "朝倉戊",
    "town_kana": "アサクラボ",
    "street": null,
    "office_name": null,
    "office_name_kana": null
  },
  "8066": {
    "zip_code": "7808066",
    "prefecture": "高知県",
    "prefecture_kana": "コウチケン",
    "prefecture_code": 39,
    "city": "高知市",
    "city_kana": "コウチシ",
    "town": "朝倉己",
    "town_kana": "アサクラキ",
    "street": null,
    "office_name": null,
    "office_name_kana": null
  },
  "8071": {
    "zip_code": "7808071",
    "prefecture": "高知県",
    "prefecture_kana": "コウチケン",
    "prefecture_code": 39,
    "city": "高知市",
    "city_kana": "コウチシ",
    "town": "鴨部高町",
    "town_kana": "カモベタカマチ",
    "street": null,
    "office_name": null,
    "office_name_kana": null
  },
  "8072": {
    "zip_code": "7808072",
    "prefecture": "高知県",
    "prefecture_kana": "コウチケン",
    "prefecture_code": 39,
    "city": "高知市",
    "city_kana": "コウチシ",
    "town": "曙町",
    "town_kana": "アケボノチョウ",
    "street": null,
    "office_name": null,
    "office_name_kana": null
  },
  "8073": {
    "zip_code": "7808073",
    "prefecture": "高知県",
    "prefecture_kana": "コウチケン",
    "prefecture_code": 39,
    "city": "高知市",
    "city_kana": "コウチシ",
    "town": "朝倉本町",
    "town_kana": "アサクラホンマチ",
    "street": null,
    "office_name": null,
    "office_name_kana": null
  },
  "8074": {
    "zip_code": "7808074",
    "prefecture": "高知県",
    "prefecture_kana": "コウチケン",
    "prefecture_code": 39,
    "city": "高知市",
    "city_kana": "コウチシ",
    "town": "朝倉横町",
    "town_kana": "アサクラヨコマチ",
    "street": null,
    "office_name": null,
    "office_name_kana": null
  },
  "8075": {
    "zip_code": "7808075",
    "prefecture": "高知県",
    "prefecture_kana": "コウチケン",
    "prefecture_code": 39,
    "city": "高知市",
    "city_kana": "コウチシ",
    "town": "朝倉南町",
    "town_kana": "アサクラミナミマチ",
    "street": null,
    "office_name": null,
    "office_name_kana": null
  },
  "8076": {
    "zip_code": "7808076",
    "prefecture": "高知県",
    "prefecture_kana": "コウチケン",
    "prefecture_code": 39,
    "city": "高知市",
    "city_kana": "コウチシ",
    "town": "朝倉東町",
    "town_kana": "アサクラヒガシマチ",
    "street": null,
    "office_name": null,
    "office_name_kana": null
  },
  "8077": {
    "zip_code": "7808077",
    "prefecture": "高知県",
    "prefecture_kana": "コウチケン",
    "prefecture_code": 39,
    "city": "高知市",
    "city_kana": "コウチシ",
    "town": "朝倉西町",
    "town_kana": "アサクラニシマチ",
    "street": null,
    "office_name": null,
    "office_name_kana": null
  },
  "8081": {
    "zip_code": "7808081",
    "prefecture": "高知県",
    "prefecture_kana": "コウチケン",
    "prefecture_code": 39,
    "city": "高知市",
    "city_kana": "コウチシ",
    "town": "若草町",
    "town_kana": "ワカクサチョウ",
    "street": null,
    "office_name": null,
    "office_name_kana": null
  },
  "8082": {
    "zip_code": "7808082",
    "prefecture": "高知県",
    "prefecture_kana": "コウチケン",
    "prefecture_code": 39,
    "city": "高知市",
    "city_kana": "コウチシ",
    "town": "若草南町",
    "town_kana": "ワカクサミナミマチ",
    "street": null,
    "office_name": null,
    "office_name_kana": null
  },
  "8083": {
    "zip_code": "7808083",
    "prefecture": "高知県",
    "prefecture_kana": "コウチケン",
    "prefecture_code": 39,
    "city": "高知市",
    "city_kana": "コウチシ",
    "town": "鵜来巣",
    "town_kana": "ウグルス",
    "street": null,
    "office_name": null,
    "office_name_kana": null
  },
  "8084": {
    "zip_code": "7808084",
    "prefecture": "高知県",
    "prefecture_kana": "コウチケン",
    "prefecture_code": 39,
    "city": "高知市",
    "city_kana": "コウチシ",
    "town": "槇山町",
    "town_kana": "マキヤマチョウ",
    "street": null,
    "office_name": null,
    "office_name_kana": null
  },
  "8085": {
    "zip_code": "7808085",
    "prefecture": "高知県",
    "prefecture_kana": "コウチケン",
    "prefecture_code": 39,
    "city": "高知市",
    "city_kana": "コウチシ",
    "town": "大谷公園町",
    "town_kana": "オオタニコウエンチョウ",
    "street": null,
    "office_name": null,
    "office_name_kana": null
  },
  "8086": {
    "zip_code": "7808086",
    "prefecture": "高知県",
    "prefecture_kana": "コウチケン",
    "prefecture_code": 39,
    "city": "高知市",
    "city_kana": "コウチシ",
    "town": "針木東町",
    "town_kana": "ハリギヒガシマチ",
    "street": null,
    "office_name": null,
    "office_name_kana": null
  },
  "8087": {
    "zip_code": "7808087",
    "prefecture": "高知県",
    "prefecture_kana": "コウチケン",
    "prefecture_code": 39,
    "city": "高知市",
    "city_kana": "コウチシ",
    "town": "針木北",
    "town_kana": "ハリギキタ",
    "street": null,
    "office_name": null,
    "office_name_kana": null
  },
  "8088": {
    "zip_code": "7808088",
    "prefecture": "高知県",
    "prefecture_kana": "コウチケン",
    "prefecture_code": 39,
    "city": "高知市",
    "city_kana": "コウチシ",
    "town": "針木本町",
    "town_kana": "ハリギホンマチ",
    "street": null,
    "office_name": null,
    "office_name_kana": null
  },
  "8089": {
    "zip_code": "7808089",
    "prefecture": "高知県",
    "prefecture_kana": "コウチケン",
    "prefecture_code": 39,
    "city": "高知市",
    "city_kana": "コウチシ",
    "town": "針木南",
    "town_kana": "ハリギミナミ",
    "street": null,
    "office_name": null,
    "office_name_kana": null
  },
  "8090": {
    "zip_code": "7808090",
    "prefecture": "高知県",
    "prefecture_kana": "コウチケン",
    "prefecture_code": 39,
    "city": "高知市",
    "city_kana": "コウチシ",
    "town": "針木西",
    "town_kana": "ハリギニシ",
    "street": null,
    "office_name": null,
    "office_name_kana": null
  },
  "8501": {
    "zip_code": "7808501",
    "prefecture": "高知県",
    "prefecture_kana": "コウチケン",
    "prefecture_code": 39,
    "city": "高知市",
    "city_kana": "コウチシ",
    "town": "本町",
    "town_kana": "ホンマチ",
    "street": "４丁目２−４０ニッセイ高知ビル",
    "office_name": "全国健康保険協会　高知支部",
    "office_name_kana": "ゼンコクケンコウホケンキヨウカイ コウチシブ"
  },
  "8502": {
    "zip_code": "7808502",
    "prefecture": "高知県",
    "prefecture_kana": "コウチケン",
    "prefecture_code": 39,
    "city": "高知市",
    "city_kana": "コウチシ",
    "town": "神田",
    "town_kana": "コウダ",
    "street": "５９３",
    "office_name": "高知県　社会保険診療報酬支払基金",
    "office_name_kana": "コウチケン シヤカイホケンシンリヨウホウシユウシハライキキン"
  },
  "8503": {
    "zip_code": "7808503",
    "prefecture": "高知県",
    "prefecture_kana": "コウチケン",
    "prefecture_code": 39,
    "city": "高知市",
    "city_kana": "コウチシ",
    "town": "上町",
    "town_kana": "カミマチ",
    "street": "３丁目２−６",
    "office_name": "医療法人　瑞洋会　田中整形外科病院",
    "office_name_kana": "イリヨウホウジン ズイヨウカイ タナカセイケイゲカビヨウイン"
  },
  "8504": {
    "zip_code": "7808504",
    "prefecture": "高知県",
    "prefecture_kana": "コウチケン",
    "prefecture_code": 39,
    "city": "高知市",
    "city_kana": "コウチシ",
    "town": "大川筋",
    "town_kana": "オオカワスジ",
    "street": "１丁目７−１８",
    "office_name": "大家建材　株式会社",
    "office_name_kana": "ダイケケンザイ カブシキガイシヤ"
  },
  "8505": {
    "zip_code": "7808505",
    "prefecture": "高知県",
    "prefecture_kana": "コウチケン",
    "prefecture_code": 39,
    "city": "高知市",
    "city_kana": "コウチシ",
    "town": "南はりまや町",
    "town_kana": "ミナミハリマヤチョウ",
    "street": "２丁目１５−５",
    "office_name": "旭食品　株式会社",
    "office_name_kana": "アサヒシヨクヒン カブシキガイシヤ"
  },
  "8506": {
    "zip_code": "7808506",
    "prefecture": "高知県",
    "prefecture_kana": "コウチケン",
    "prefecture_code": 39,
    "city": "高知市",
    "city_kana": "コウチシ",
    "town": "南御座",
    "town_kana": "ミナミゴザ",
    "street": "４０−１",
    "office_name": "篠原化学薬品　株式会社",
    "office_name_kana": "シノハラカガクヤクヒン カブシキガイシヤ"
  },
  "8507": {
    "zip_code": "7808507",
    "prefecture": "高知県",
    "prefecture_kana": "コウチケン",
    "prefecture_code": 39,
    "city": "高知市",
    "city_kana": "コウチシ",
    "town": "朝倉西町",
    "town_kana": "アサクラニシマチ",
    "street": "１丁目２−２５",
    "office_name": "独立行政法人　国立病院機構　高知病院",
    "office_name_kana": "ドクリツギヨウセイホウジン コクリツビヨウインキコウ コウチビヨウイン"
  },
  "8508": {
    "zip_code": "7808508",
    "prefecture": "高知県",
    "prefecture_kana": "コウチケン",
    "prefecture_code": 39,
    "city": "高知市",
    "city_kana": "コウチシ",
    "town": "塚ノ原",
    "town_kana": "ツカノハラ",
    "street": "８番地",
    "office_name": "松田医薬品　株式会社",
    "office_name_kana": "マツダイヤクヒン カブシキガイシヤ"
  },
  "8509": {
    "zip_code": "7808509",
    "prefecture": "高知県",
    "prefecture_kana": "コウチケン",
    "prefecture_code": 39,
    "city": "高知市",
    "city_kana": "コウチシ",
    "town": "栄田町",
    "town_kana": "サカエダチョウ",
    "street": "二丁目２番１０号高知よさこい咲都合同庁舎",
    "office_name": "高知地方法務局",
    "office_name_kana": "コウチチホウホウムキヨク"
  },
  "8510": {
    "zip_code": "7808510",
    "prefecture": "高知県",
    "prefecture_kana": "コウチケン",
    "prefecture_code": 39,
    "city": "高知市",
    "city_kana": "コウチシ",
    "town": "廿代町",
    "town_kana": "ニジュウダイマチ",
    "street": "１−１８",
    "office_name": "高知パレスホテル",
    "office_name_kana": "コウチパレスホテル"
  },
  "8511": {
    "zip_code": "7808511",
    "prefecture": "高知県",
    "prefecture_kana": "コウチケン",
    "prefecture_code": 39,
    "city": "高知市",
    "city_kana": "コウチシ",
    "town": "北御座",
    "town_kana": "キタゴザ",
    "street": "２番２７号",
    "office_name": "高知県施設農業協同組合連合会",
    "office_name_kana": "コウチケンシセツノウギヨウキヨウドウクミアイレンゴウカイ"
  },
  "8512": {
    "zip_code": "7808512",
    "prefecture": "高知県",
    "prefecture_kana": "コウチケン",
    "prefecture_code": 39,
    "city": "高知市",
    "city_kana": "コウチシ",
    "town": "本町",
    "town_kana": "ホンマチ",
    "street": "３丁目３−１２",
    "office_name": "ＮＨＫ　高知放送局",
    "office_name_kana": "エヌエイチケイ コウチホウソウキヨク"
  },
  "8513": {
    "zip_code": "7808513",
    "prefecture": "高知県",
    "prefecture_kana": "コウチケン",
    "prefecture_code": 39,
    "city": "高知市",
    "city_kana": "コウチシ",
    "town": "桟橋通",
    "town_kana": "サンバシドオリ",
    "street": "６丁目７−４３",
    "office_name": "財団法人　高知県　総合保健協会",
    "office_name_kana": "(ザイ) コウチケン ソウゴウホケンキヨウカイ"
  },
  "8514": {
    "zip_code": "7808514",
    "prefecture": "高知県",
    "prefecture_kana": "コウチケン",
    "prefecture_code": 39,
    "city": "高知市",
    "city_kana": "コウチシ",
    "town": "鷹匠町",
    "town_kana": "タカジョウマチ",
    "street": "２丁目１−３６",
    "office_name": "社団法人　高知県医師会",
    "office_name_kana": "シヤダンホウジン コウチケンイシカイ"
  },
  "8515": {
    "zip_code": "7808515",
    "prefecture": "高知県",
    "prefecture_kana": "コウチケン",
    "prefecture_code": 39,
    "city": "高知市",
    "city_kana": "コウチシ",
    "town": "永国寺町",
    "town_kana": "エイコクジチョウ",
    "street": "２番２２号",
    "office_name": "高知県立大学　永国寺キャンパス",
    "office_name_kana": "コウチケンリツダイガク エイコクジキヤンパス"
  },
  "8516": {
    "zip_code": "7808516",
    "prefecture": "高知県",
    "prefecture_kana": "コウチケン",
    "prefecture_code": 39,
    "city": "高知市",
    "city_kana": "コウチシ",
    "town": "永国寺町",
    "town_kana": "エイコクジチョウ",
    "street": "２番２２号",
    "office_name": "高知短期大学",
    "office_name_kana": "コウチタンキダイガク"
  },
  "8517": {
    "zip_code": "7808517",
    "prefecture": "高知県",
    "prefecture_kana": "コウチケン",
    "prefecture_code": 39,
    "city": "高知市",
    "city_kana": "コウチシ",
    "town": "知寄町",
    "town_kana": "チヨリチョウ",
    "street": "２丁目１−３７",
    "office_name": "株式会社　サニーマート",
    "office_name_kana": "カブシキガイシヤ サニ-マ-ト"
  },
  "8518": {
    "zip_code": "7808518",
    "prefecture": "高知県",
    "prefecture_kana": "コウチケン",
    "prefecture_code": 39,
    "city": "高知市",
    "city_kana": "コウチシ",
    "town": "北御座",
    "town_kana": "キタゴザ",
    "street": "４１−１",
    "office_name": "（株）　サニーマート　中央流通センター",
    "office_name_kana": "カブシキガイシヤ サニ-マ-ト チユウオウリユウツウセンタ-"
  },
  "8519": {
    "zip_code": "7808519",
    "prefecture": "高知県",
    "prefecture_kana": "コウチケン",
    "prefecture_code": 39,
    "city": "高知市",
    "city_kana": "コウチシ",
    "town": "知寄町",
    "town_kana": "チヨリチョウ",
    "street": "２丁目１−３７ちより街テラス４階",
    "office_name": "ブルーチップ　高知センター　商品交換受付係",
    "office_name_kana": "ブル-チツプ コウチセンタ- シヨウヒンコウカンウケツケガカリ"
  },
  "8520": {
    "zip_code": "7808520",
    "prefecture": "高知県",
    "prefecture_kana": "コウチケン",
    "prefecture_code": 39,
    "city": "高知市",
    "city_kana": "コウチシ",
    "town": "曙町",
    "town_kana": "アケボノチョウ",
    "street": "２丁目５−１",
    "office_name": "国立大学法人　高知大学",
    "office_name_kana": "コクリツダイガクホウジン コウチダイガク"
  },
  "8521": {
    "zip_code": "7808521",
    "prefecture": "高知県",
    "prefecture_kana": "コウチケン",
    "prefecture_code": 39,
    "city": "高知市",
    "city_kana": "コウチシ",
    "town": "桟橋通",
    "town_kana": "サンバシドオリ",
    "street": "５丁目１番５７号",
    "office_name": "四国アルフレッサ　株式会社　高知営業部高知事業所",
    "office_name_kana": "シコクアルフレツサ カブシキガイシヤ コウチエイギヨウブコウチジギヨウシヨ"
  },
  "8522": {
    "zip_code": "7808522",
    "prefecture": "高知県",
    "prefecture_kana": "コウチケン",
    "prefecture_code": 39,
    "city": "高知市",
    "city_kana": "コウチシ",
    "town": "大川筋",
    "town_kana": "オオカワスジ",
    "street": "１丁目１−１６",
    "office_name": "医療法人　近森会",
    "office_name_kana": "イリヨウホウジン チカモリカイ"
  },
  "8523": {
    "zip_code": "7808523",
    "prefecture": "高知県",
    "prefecture_kana": "コウチケン",
    "prefecture_code": 39,
    "city": "高知市",
    "city_kana": "コウチシ",
    "town": "東雲町",
    "town_kana": "シノノメチョウ",
    "street": "３−１０",
    "office_name": "高知新聞　東雲センター",
    "office_name_kana": "コウチシンブン シノノメセンタ-"
  },
  "8525": {
    "zip_code": "7808525",
    "prefecture": "高知県",
    "prefecture_kana": "コウチケン",
    "prefecture_code": 39,
    "city": "高知市",
    "city_kana": "コウチシ",
    "town": "萩町",
    "town_kana": "ハギマチ",
    "street": "２丁目２−２５",
    "office_name": "東洋電化工業　株式会社",
    "office_name_kana": "トウヨウデンカコウギヨウ カブシキガイシヤ"
  },
  "8526": {
    "zip_code": "7808526",
    "prefecture": "高知県",
    "prefecture_kana": "コウチケン",
    "prefecture_code": 39,
    "city": "高知市",
    "city_kana": "コウチシ",
    "town": "南金田",
    "town_kana": "ミナミカナダ",
    "street": "４８−２",
    "office_name": "高知労働基準監督署",
    "office_name_kana": "コウチロウドウキジユンカントクシヨ"
  },
  "8527": {
    "zip_code": "7808527",
    "prefecture": "高知県",
    "prefecture_kana": "コウチケン",
    "prefecture_code": 39,
    "city": "高知市",
    "city_kana": "コウチシ",
    "town": "本町",
    "town_kana": "ホンマチ",
    "street": "２丁目３−４",
    "office_name": "株式会社　エヌ・シー・ビー",
    "office_name_kana": "カブシキガイシヤ エヌ・シ-・ビ-"
  },
  "8528": {
    "zip_code": "7808528",
    "prefecture": "高知県",
    "prefecture_kana": "コウチケン",
    "prefecture_code": 39,
    "city": "高知市",
    "city_kana": "コウチシ",
    "town": "丸ノ内",
    "town_kana": "マルノウチ",
    "street": "１丁目３−３０",
    "office_name": "四国森林管理局",
    "office_name_kana": "シコクシンリンカンリキヨク"
  },
  "8529": {
    "zip_code": "7808529",
    "prefecture": "高知県",
    "prefecture_kana": "コウチケン",
    "prefecture_code": 39,
    "city": "高知市",
    "city_kana": "コウチシ",
    "town": "九反田",
    "town_kana": "クタンダ",
    "street": "２番１号",
    "office_name": "高知市文化プラザ（かるぽーと）",
    "office_name_kana": "コウチシブンカプラザ(カルポ-ト)"
  },
  "8530": {
    "zip_code": "7808530",
    "prefecture": "高知県",
    "prefecture_kana": "コウチケン",
    "prefecture_code": 39,
    "city": "高知市",
    "city_kana": "コウチシ",
    "town": "旭町",
    "town_kana": "アサヒマチ",
    "street": "３丁目７０番１号",
    "office_name": "日本年金機構　高知西年金事務所",
    "office_name_kana": "ニツポンネンキンキコウ コウチニシネンキンジムシヨ"
  },
  "8532": {
    "zip_code": "7808532",
    "prefecture": "高知県",
    "prefecture_kana": "コウチケン",
    "prefecture_code": 39,
    "city": "高知市",
    "city_kana": "コウチシ",
    "town": "鷹匠町",
    "town_kana": "タカジョウマチ",
    "street": "２丁目１−５",
    "office_name": "株式会社　エフエム高知",
    "office_name_kana": "カブシキカイシヤ エフエムコウチ"
  },
  "8533": {
    "zip_code": "7808533",
    "prefecture": "高知県",
    "prefecture_kana": "コウチケン",
    "prefecture_code": 39,
    "city": "高知市",
    "city_kana": "コウチシ",
    "town": "若松町",
    "town_kana": "ワカマツチョウ",
    "street": "１０−１１",
    "office_name": "高知さんさんテレビ　株式会社",
    "office_name_kana": "コウチサンサンテレビ カブシキガイシヤ"
  },
  "8534": {
    "zip_code": "7808534",
    "prefecture": "高知県",
    "prefecture_kana": "コウチケン",
    "prefecture_code": 39,
    "city": "高知市",
    "city_kana": "コウチシ",
    "town": "本町",
    "town_kana": "ホンマチ",
    "street": "４丁目２番４０号ニッセイ高知ビル５階",
    "office_name": "日本年金機構　高知事務センター",
    "office_name_kana": "ニツポンネンキンキコウ コウチジムセンタ-"
  },
  "8535": {
    "zip_code": "7808535",
    "prefecture": "高知県",
    "prefecture_kana": "コウチケン",
    "prefecture_code": 39,
    "city": "高知市",
    "city_kana": "コウチシ",
    "town": "大膳町",
    "town_kana": "ダイゼンチョウ",
    "street": "３７",
    "office_name": "細木病院・細木ユニティ病院",
    "office_name_kana": "ホソギビヨウイン・ホソギユニテイビヨウイン"
  },
  "8536": {
    "zip_code": "7808536",
    "prefecture": "高知県",
    "prefecture_kana": "コウチケン",
    "prefecture_code": 39,
    "city": "高知市",
    "city_kana": "コウチシ",
    "town": "丸ノ内",
    "town_kana": "マルノウチ",
    "street": "２丁目６−５",
    "office_name": "高知県　国民健康保険団体連合会",
    "office_name_kana": "コウチケン コクミンケンコウホケンダンタイレンゴウカイ"
  },
  "8537": {
    "zip_code": "7808537",
    "prefecture": "高知県",
    "prefecture_kana": "コウチケン",
    "prefecture_code": 39,
    "city": "高知市",
    "city_kana": "コウチシ",
    "town": "若松町",
    "town_kana": "ワカマツチョウ",
    "street": "１０−１２",
    "office_name": "高知ケーブルテレビ株式会社",
    "office_name_kana": "コウチケ-ブルテレビカブシキガイシヤ"
  },
  "8538": {
    "zip_code": "7808538",
    "prefecture": "高知県",
    "prefecture_kana": "コウチケン",
    "prefecture_code": 39,
    "city": "高知市",
    "city_kana": "コウチシ",
    "town": "稲荷町",
    "town_kana": "イナリチョウ",
    "street": "１７０−１",
    "office_name": "セルヴィ２１〔知寄町〕管理組合",
    "office_name_kana": "セルヴイ21<チヨリチヨウ>カンリクミアイ"
  },
  "8539": {
    "zip_code": "7808539",
    "prefecture": "高知県",
    "prefecture_kana": "コウチケン",
    "prefecture_code": 39,
    "city": "高知市",
    "city_kana": "コウチシ",
    "town": "本町",
    "town_kana": "ホンマチ",
    "street": "２丁目１−６",
    "office_name": "損害保険ジャパン日本興亜　株式会社　高知支店",
    "office_name_kana": "ソンガイホケンジヤパンニツポンコウア カブシキガイシヤ コウチシテン"
  },
  "8540": {
    "zip_code": "7808540",
    "prefecture": "高知県",
    "prefecture_kana": "コウチケン",
    "prefecture_code": 39,
    "city": "高知市",
    "city_kana": "コウチシ",
    "town": "本町",
    "town_kana": "ホンマチ",
    "street": "４−１−１６",
    "office_name": "株式会社　キタムラ",
    "office_name_kana": "カブシキガイシヤ キタムラ"
  },
  "8541": {
    "zip_code": "7808541",
    "prefecture": "高知県",
    "prefecture_kana": "コウチケン",
    "prefecture_code": 39,
    "city": "高知市",
    "city_kana": "コウチシ",
    "town": "北本町",
    "town_kana": "キタホンマチ",
    "street": "４丁目５−４０",
    "office_name": "エヌ・ティ・ティ四国移動通信網　株式会社　高知支店",
    "office_name_kana": "エヌ・テイ・テイシコクイドウツウシンモウ カブシキガイシヤ コウチシテン"
  },
  "8544": {
    "zip_code": "7808544",
    "prefecture": "高知県",
    "prefecture_kana": "コウチケン",
    "prefecture_code": 39,
    "city": "高知市",
    "city_kana": "コウチシ",
    "town": "丸ノ内",
    "town_kana": "マルノウチ",
    "street": "２丁目４−３０",
    "office_name": "高知県警察本部",
    "office_name_kana": "コウチケンケイサツホンブ"
  },
  "8545": {
    "zip_code": "7808545",
    "prefecture": "高知県",
    "prefecture_kana": "コウチケン",
    "prefecture_code": 39,
    "city": "高知市",
    "city_kana": "コウチシ",
    "town": "本町",
    "town_kana": "ホンマチ",
    "street": "４丁目１−１１",
    "office_name": "四国電力　（株）　高知支店",
    "office_name_kana": "シコクデンリヨク カブシキガイシヤ コウチシテン"
  },
  "8548": {
    "zip_code": "7808548",
    "prefecture": "高知県",
    "prefecture_kana": "コウチケン",
    "prefecture_code": 39,
    "city": "高知市",
    "city_kana": "コウチシ",
    "town": "南金田",
    "town_kana": "ミナミカナダ",
    "street": "４８−２",
    "office_name": "高知労働局",
    "office_name_kana": "コウチロウドウキヨク"
  },
  "8550": {
    "zip_code": "7808550",
    "prefecture": "高知県",
    "prefecture_kana": "コウチケン",
    "prefecture_code": 39,
    "city": "高知市",
    "city_kana": "コウチシ",
    "town": "本町",
    "town_kana": "ホンマチ",
    "street": "３丁目２−１５",
    "office_name": "株式会社　高知放送",
    "office_name_kana": "カブシキガイシヤ コウチホウソウ"
  },
  "8553": {
    "zip_code": "7808553",
    "prefecture": "高知県",
    "prefecture_kana": "コウチケン",
    "prefecture_code": 39,
    "city": "高知市",
    "city_kana": "コウチシ",
    "town": "丸ノ内",
    "town_kana": "マルノウチ",
    "street": "２丁目８−３０",
    "office_name": "大旺建設　株式会社",
    "office_name_kana": "ダイオウケンセツ カブシキガイシヤ"
  },
  "8554": {
    "zip_code": "7808554",
    "prefecture": "高知県",
    "prefecture_kana": "コウチケン",
    "prefecture_code": 39,
    "city": "高知市",
    "city_kana": "コウチシ",
    "town": "丸ノ内",
    "town_kana": "マルノウチ",
    "street": "１丁目４番１号",
    "office_name": "高知地方検察庁・高知区検察庁",
    "office_name_kana": "コウチチホウケンサツチヨウ・コウチクケンサツチヨウ"
  },
  "8555": {
    "zip_code": "7808555",
    "prefecture": "高知県",
    "prefecture_kana": "コウチケン",
    "prefecture_code": 39,
    "city": "高知市",
    "city_kana": "コウチシ",
    "town": "堺町",
    "town_kana": "サカイマチ",
    "street": "２−２６高知中央第一生命ビル７Ｆ",
    "office_name": "ＵＦＪニコス　株式会社　高知支店",
    "office_name_kana": "ユ-エフジエイニコス カブシキガイシヤ コウチシテン"
  },
  "8556": {
    "zip_code": "7808556",
    "prefecture": "高知県",
    "prefecture_kana": "コウチケン",
    "prefecture_code": 39,
    "city": "高知市",
    "city_kana": "コウチシ",
    "town": "桟橋通",
    "town_kana": "サンバシドオリ",
    "street": "４丁目１３番３号",
    "office_name": "日本年金機構　高知東年金事務所",
    "office_name_kana": "ニツポンネンキンキコウ コウチヒガシネンキンジムシヨ"
  },
  "8558": {
    "zip_code": "7808558",
    "prefecture": "高知県",
    "prefecture_kana": "コウチケン",
    "prefecture_code": 39,
    "city": "高知市",
    "city_kana": "コウチシ",
    "town": "丸ノ内",
    "town_kana": "マルノウチ",
    "street": "１丁目３−５",
    "office_name": "高知地方裁判所",
    "office_name_kana": "コウチチホウサイバンシヨ"
  },
  "8559": {
    "zip_code": "7808559",
    "prefecture": "高知県",
    "prefecture_kana": "コウチケン",
    "prefecture_code": 39,
    "city": "高知市",
    "city_kana": "コウチシ",
    "town": "本町",
    "town_kana": "ホンマチ",
    "street": "４丁目２−５２",
    "office_name": "住友生命保険　相互会社　高知支社",
    "office_name_kana": "スミトモセイメイホケン ソウゴガイシヤ コウチシシヤ"
  },
  "8560": {
    "zip_code": "7808560",
    "prefecture": "高知県",
    "prefecture_kana": "コウチケン",
    "prefecture_code": 39,
    "city": "高知市",
    "city_kana": "コウチシ",
    "town": "稲荷町",
    "town_kana": "イナリチョウ",
    "street": "６−２０",
    "office_name": "高知公共職業安定所",
    "office_name_kana": "コウチコウキヨウシヨクギヨウアンテイシヨ"
  },
  "8561": {
    "zip_code": "7808561",
    "prefecture": "高知県",
    "prefecture_kana": "コウチケン",
    "prefecture_code": 39,
    "city": "高知市",
    "city_kana": "コウチシ",
    "town": "本町",
    "town_kana": "ホンマチ",
    "street": "４丁目２番地５０号",
    "office_name": "株式会社　高知新阪急ホテル",
    "office_name_kana": "カブシキカイシヤ コウチシンハンキユウホテル"
  },
  "8562": {
    "zip_code": "7808562",
    "prefecture": "高知県",
    "prefecture_kana": "コウチケン",
    "prefecture_code": 39,
    "city": "高知市",
    "city_kana": "コウチシ",
    "town": "新本町",
    "town_kana": "シンホンマチ",
    "street": "２丁目１３−５１",
    "office_name": "高知赤十字病院",
    "office_name_kana": "コウチセキジユウジビヨウイン"
  },
  "8565": {
    "zip_code": "7808565",
    "prefecture": "高知県",
    "prefecture_kana": null,
    "prefecture_code": null,
    "city": "高知市",
    "city_kana": null,
    "town": "朝倉",
    "town_kana": null,
    "street": "戊３７５−１",
    "office_name": "財団法人高知県老人クラブ連合会",
    "office_name_kana": "ザイダンホウジンコウチケンロウジンクラブレンゴウカイ"
  },
  "8566": {
    "zip_code": "7808566",
    "prefecture": "高知県",
    "prefecture_kana": "コウチケン",
    "prefecture_code": 39,
    "city": "高知市",
    "city_kana": "コウチシ",
    "town": "帯屋町",
    "town_kana": "オビヤマチ",
    "street": "１丁目６−１",
    "office_name": "株式会社　高知大丸",
    "office_name_kana": "カブシキガイシヤ コウチダイマル"
  },
  "8567": {
    "zip_code": "7808567",
    "prefecture": "高知県",
    "prefecture_kana": null,
    "prefecture_code": null,
    "city": "高知市",
    "city_kana": null,
    "town": "朝倉",
    "town_kana": null,
    "street": "戊３７５−１高知県立ふくし交流プラザ内",
    "office_name": "ふくし交流プラザ",
    "office_name_kana": "フクシコウリユウプラザ"
  },
  "8568": {
    "zip_code": "7808568",
    "prefecture": "高知県",
    "prefecture_kana": "コウチケン",
    "prefecture_code": 39,
    "city": "高知市",
    "city_kana": "コウチシ",
    "town": "神田",
    "town_kana": "コウダ",
    "street": "７１０",
    "office_name": "宮地電気　（株）　本社総務部",
    "office_name_kana": "ミヤジデンキ カブシキガイシヤ ホンシヤソウムブ"
  },
  "8570": {
    "zip_code": "7808570",
    "prefecture": "高知県",
    "prefecture_kana": "コウチケン",
    "prefecture_code": 39,
    "city": "高知市",
    "city_kana": "コウチシ",
    "town": "丸ノ内",
    "town_kana": "マルノウチ",
    "street": "１丁目２−２０",
    "office_name": "高知県庁",
    "office_name_kana": "コウチケンチヨウ"
  },
  "8571": {
    "zip_code": "7808571",
    "prefecture": "高知県",
    "prefecture_kana": "コウチケン",
    "prefecture_code": 39,
    "city": "高知市",
    "city_kana": "コウチシ",
    "town": "本町",
    "town_kana": "ホンマチ",
    "street": "５丁目１−４５",
    "office_name": "高知市役所",
    "office_name_kana": "コウチシヤクシヨ"
  },
  "8572": {
    "zip_code": "7808572",
    "prefecture": "高知県",
    "prefecture_kana": "コウチケン",
    "prefecture_code": 39,
    "city": "高知市",
    "city_kana": "コウチシ",
    "town": "本町",
    "town_kana": "ホンマチ",
    "street": "３丁目２−１５（高知本町郵便局私書箱第４０号）",
    "office_name": "株式会社　高知新聞社",
    "office_name_kana": "カブシキガイシヤ コウチシンブンシヤ"
  },
  "8577": {
    "zip_code": "7808577",
    "prefecture": "高知県",
    "prefecture_kana": "コウチケン",
    "prefecture_code": 39,
    "city": "高知市",
    "city_kana": "コウチシ",
    "town": "北本町",
    "town_kana": "キタホンマチ",
    "street": "３丁目４−２７",
    "office_name": "株式会社　テレビ高知",
    "office_name_kana": "カブシキガイシヤ テレビコウチ"
  },
  "8601": {
    "zip_code": "7808601",
    "prefecture": "高知県",
    "prefecture_kana": "コウチケン",
    "prefecture_code": 39,
    "city": "高知市",
    "city_kana": "コウチシ",
    "town": "本町",
    "town_kana": "ホンマチ",
    "street": "５丁目６−３（高知中央郵便局私書箱第１号）",
    "office_name": "日本生命保険　相互会社　高知支社",
    "office_name_kana": "ニホンセイメイホケン ソウゴガイシヤ コウチシシヤ"
  },
  "8602": {
    "zip_code": "7808602",
    "prefecture": "高知県",
    "prefecture_kana": "コウチケン",
    "prefecture_code": 39,
    "city": "高知市",
    "city_kana": "コウチシ",
    "town": "堺町",
    "town_kana": "サカイマチ",
    "street": "２−２４（高知中央郵便局私書箱第１３号）",
    "office_name": "株式会社　高知銀行",
    "office_name_kana": "カブシキガイシヤ コウチギンコウ"
  },
  "8605": {
    "zip_code": "7808605",
    "prefecture": "高知県",
    "prefecture_kana": "コウチケン",
    "prefecture_code": 39,
    "city": "高知市",
    "city_kana": "コウチシ",
    "town": "南はりまや町",
    "town_kana": "ミナミハリマヤチョウ",
    "street": "１丁目１−１（高知中央郵便局私書箱第５号）",
    "office_name": "株式会社　四国銀行",
    "office_name_kana": "カブシキガイシヤ シコクギンコウ"
  },
  "8660": {
    "zip_code": "7808660",
    "prefecture": "高知県",
    "prefecture_kana": "コウチケン",
    "prefecture_code": 39,
    "city": "高知市",
    "city_kana": "コウチシ",
    "town": "本町",
    "town_kana": "ホンマチ",
    "street": "４丁目２−４６（高知本町郵便局私書箱第７１号）",
    "office_name": "商工組合中央金庫　高知支店",
    "office_name_kana": "シヨウコウクミアイチユウオウキンコ コウチシテン"
  },
  "8661": {
    "zip_code": "7808661",
    "prefecture": "高知県",
    "prefecture_kana": "コウチケン",
    "prefecture_code": 39,
    "city": "高知市",
    "city_kana": "コウチシ",
    "town": "本町",
    "town_kana": "ホンマチ",
    "street": "４丁目２−５２",
    "office_name": "国民生活金融公庫　高知支店",
    "office_name_kana": "コクミンセイカツキンユウコウコ コウチシテン"
  },
  "8662": {
    "zip_code": "7808662",
    "prefecture": "高知県",
    "prefecture_kana": "コウチケン",
    "prefecture_code": 39,
    "city": "高知市",
    "city_kana": "コウチシ",
    "town": "本町",
    "town_kana": "ホンマチ",
    "street": "３丁目２−１５",
    "office_name": "株式会社　高知新聞社　（パブリシティ）",
    "office_name_kana": "カブシキガイシヤ コウチシンブンシヤ (パブリシテイ)"
  },
  "8665": {
    "zip_code": "7808665",
    "prefecture": "高知県",
    "prefecture_kana": "コウチケン",
    "prefecture_code": 39,
    "city": "高知市",
    "city_kana": "コウチシ",
    "town": "堺町",
    "town_kana": "サカイマチ",
    "street": "１−１９（高知本町郵便局私書箱第４１号）",
    "office_name": "日興コーディアル證券　株式会社　高知支店",
    "office_name_kana": "ニツコウコ-デイアルシヨウケン カブシキガイシヤ コウチシテン"
  },
  "8666": {
    "zip_code": "7808666",
    "prefecture": "高知県",
    "prefecture_kana": "コウチケン",
    "prefecture_code": 39,
    "city": "高知市",
    "city_kana": "コウチシ",
    "town": "本町",
    "town_kana": "ホンマチ",
    "street": "３丁目２−１５（高知本町郵便局私書箱第７８号）",
    "office_name": "株式会社　高知新聞企業",
    "office_name_kana": "カブシキガイシヤ コウチシンブンキギヨウ"
  },
  "8668": {
    "zip_code": "7808668",
    "prefecture": "高知県",
    "prefecture_kana": "コウチケン",
    "prefecture_code": 39,
    "city": "高知市",
    "city_kana": "コウチシ",
    "town": "栄田町",
    "town_kana": "サカエダチョウ",
    "street": "２丁目２番１０号高知よさこい咲都合同庁舎",
    "office_name": "高知税務署内　伊野税務署集中処理担当",
    "office_name_kana": "コウチゼイムシヨナイ イノゼイムシヨシユウチユウシヨリタントウ"
  },
  "8670": {
    "zip_code": "7808670",
    "prefecture": "高知県",
    "prefecture_kana": "コウチケン",
    "prefecture_code": 39,
    "city": "高知市",
    "city_kana": "コウチシ",
    "town": "本町",
    "town_kana": "ホンマチ",
    "street": "２丁目１−５（高知本町郵便局私書箱第７９号）",
    "office_name": "幡多信用金庫　高知支店",
    "office_name_kana": "ハタシンヨウキンコ コウチシテン"
  },
  "8675": {
    "zip_code": "7808675",
    "prefecture": "高知県",
    "prefecture_kana": "コウチケン",
    "prefecture_code": 39,
    "city": "高知市",
    "city_kana": "コウチシ",
    "town": "堺町",
    "town_kana": "サカイマチ",
    "street": "２−２２",
    "office_name": "三菱ＵＦＪ信託銀行　株式会社　高知支店",
    "office_name_kana": "ミツビシユ-エフジエイシンタクギンコウ カブシキガイシヤ コウチシテン"
  },
  "8676": {
    "zip_code": "7808676",
    "prefecture": "高知県",
    "prefecture_kana": "コウチケン",
    "prefecture_code": 39,
    "city": "高知市",
    "city_kana": "コウチシ",
    "town": "本町",
    "town_kana": "ホンマチ",
    "street": "４丁目２−５２（高知本町郵便局私書箱第３８号）",
    "office_name": "株式会社　阿波銀行　高知支店",
    "office_name_kana": "カブシキガイシヤ アワギンコウ コウチシテン"
  },
  "8677": {
    "zip_code": "7808677",
    "prefecture": "高知県",
    "prefecture_kana": "コウチケン",
    "prefecture_code": 39,
    "city": "高知市",
    "city_kana": "コウチシ",
    "town": "本町",
    "town_kana": "ホンマチ",
    "street": "３丁目３−４３（高知本町郵便局私書箱第１号）",
    "office_name": "日本銀行　高知支店",
    "office_name_kana": "ニツポンギンコウ コウチシテン"
  },
  "8680": {
    "zip_code": "7808680",
    "prefecture": "高知県",
    "prefecture_kana": "コウチケン",
    "prefecture_code": 39,
    "city": "高知市",
    "city_kana": "コウチシ",
    "town": "南久保",
    "town_kana": "ミナミクボ",
    "street": "６２（高知卸団地郵便局私書箱第１号）",
    "office_name": "株式会社　アスティス",
    "office_name_kana": "カブシキガイシヤ アステイス"
  },
  "8681": {
    "zip_code": "7808681",
    "prefecture": "高知県",
    "prefecture_kana": "コウチケン",
    "prefecture_code": 39,
    "city": "高知市",
    "city_kana": "コウチシ",
    "town": "南御座",
    "town_kana": "ミナミゴザ",
    "street": "９０番地１（高知卸団地郵便局私書箱第３号）",
    "office_name": "（株）　四国リョーショク　高知支社",
    "office_name_kana": "カブシキガイシヤ シコクリヨ-シヨク コウチシシヤ"
  },
  "8682": {
    "zip_code": "7808682",
    "prefecture": "高知県",
    "prefecture_kana": "コウチケン",
    "prefecture_code": 39,
    "city": "高知市",
    "city_kana": "コウチシ",
    "town": "南久保",
    "town_kana": "ミナミクボ",
    "street": "６８（高知卸団地郵便局私書箱第６号）",
    "office_name": "株式会社　丸三",
    "office_name_kana": "カブシキガイシヤ マルサン"
  },
  "8683": {
    "zip_code": "7808683",
    "prefecture": "高知県",
    "prefecture_kana": "コウチケン",
    "prefecture_code": 39,
    "city": "高知市",
    "city_kana": "コウチシ",
    "town": "南久保",
    "town_kana": "ミナミクボ",
    "street": "８０（高知卸団地郵便局私書箱第２１号）",
    "office_name": "丸仁商事　株式会社",
    "office_name_kana": "マルニシヨウジ カブシキガイシヤ"
  },
  "8684": {
    "zip_code": "7808684",
    "prefecture": "高知県",
    "prefecture_kana": "コウチケン",
    "prefecture_code": 39,
    "city": "高知市",
    "city_kana": "コウチシ",
    "town": "南久保",
    "town_kana": "ミナミクボ",
    "street": "８９（高知卸団地郵便局私書箱第２３号）",
    "office_name": "（株）　シーメック",
    "office_name_kana": "カブシキガイシヤ シ-メツク"
  },
  "8685": {
    "zip_code": "7808685",
    "prefecture": "高知県",
    "prefecture_kana": "コウチケン",
    "prefecture_code": 39,
    "city": "高知市",
    "city_kana": "コウチシ",
    "town": "南久保",
    "town_kana": "ミナミクボ",
    "street": "９２（高知卸団地郵便局私書箱第２６号）",
    "office_name": "タックナカシゲ　（株）",
    "office_name_kana": "タツクナカシゲ カブシキガイシヤ"
  },
  "8686": [
    {
      "zip_code": "7808686",
      "prefecture": "高知県",
      "prefecture_kana": "コウチケン",
      "prefecture_code": 39,
      "city": "高知市",
      "city_kana": "コウチシ",
      "town": "駅前町",
      "town_kana": "エキマエチョウ",
      "street": "３−２０ジブラルタ生命高知ビル５Ｆ",
      "office_name": "アクサ損害保険　株式会社",
      "office_name_kana": "アクサソンガイホケン カブシキガイシヤ"
    },
    {
      "zip_code": "7808686",
      "prefecture": "高知県",
      "prefecture_kana": "コウチケン",
      "prefecture_code": 39,
      "city": "高知市",
      "city_kana": "コウチシ",
      "town": "南久保",
      "town_kana": "ミナミクボ",
      "street": "９７（高知卸団地郵便局私書箱第２８号）",
      "office_name": "高知県文具　（株）",
      "office_name_kana": "コウチケンブング カブシキガイシヤ"
    }
  ],
  "8687": {
    "zip_code": "7808687",
    "prefecture": "高知県",
    "prefecture_kana": "コウチケン",
    "prefecture_code": 39,
    "city": "高知市",
    "city_kana": "コウチシ",
    "town": "南久保",
    "town_kana": "ミナミクボ",
    "street": "１００（高知卸団地郵便局私書箱第３０号）",
    "office_name": "関　株式会社",
    "office_name_kana": "セキ カブシキガイシヤ"
  },
  "8688": {
    "zip_code": "7808688",
    "prefecture": "高知県",
    "prefecture_kana": "コウチケン",
    "prefecture_code": 39,
    "city": "高知市",
    "city_kana": "コウチシ",
    "town": "南久保",
    "town_kana": "ミナミクボ",
    "street": "１３２（高知卸団地郵便局私書箱第５０号）",
    "office_name": "弘進商事　（株）",
    "office_name_kana": "コウシンシヨウジ カブシキガイシヤ"
  },
  "8689": {
    "zip_code": "7808689",
    "prefecture": "高知県",
    "prefecture_kana": "コウチケン",
    "prefecture_code": 39,
    "city": "高知市",
    "city_kana": "コウチシ",
    "town": "南久保",
    "town_kana": "ミナミクボ",
    "street": "１４０（高知卸団地郵便局私書箱第５１号）",
    "office_name": "丸美商事　（株）",
    "office_name_kana": "マルミシヨウジ カブシキガイシヤ"
  },
  "8787": {
    "zip_code": "7808787",
    "prefecture": "高知県",
    "prefecture_kana": "コウチケン",
    "prefecture_code": 39,
    "city": "高知市",
    "city_kana": "コウチシ",
    "town": "駅前町",
    "town_kana": "エキマエチョウ",
    "street": "３−２０ジブラルタ生命高知ビル９階",
    "office_name": "株式会社　ゆうちょ銀行　高知地域センター",
    "office_name_kana": "カブシキガイシヤ ユウチヨギンコウ コウチチイキセンタ-"
  }
}