{
  "0000": {
    "zip_code": "7830000",
    "prefecture": "高知県",
    "prefecture_kana": "コウチケン",
    "prefecture_code": 39,
    "city": "南国市",
    "city_kana": "ナンコクシ",
    "town": "",
    "town_kana": "",
    "street": null,
    "office_name": null,
    "office_name_kana": null
  },
  "0001": {
    "zip_code": "7830001",
    "prefecture": "高知県",
    "prefecture_kana": "コウチケン",
    "prefecture_code": 39,
    "city": "南国市",
    "city_kana": "ナンコクシ",
    "town": "日吉町",
    "town_kana": "ヒヨシチョウ",
    "street": null,
    "office_name": null,
    "office_name_kana": null
  },
  "0002": {
    "zip_code": "7830002",
    "prefecture": "高知県",
    "prefecture_kana": "コウチケン",
    "prefecture_code": 39,
    "city": "南国市",
    "city_kana": "ナンコクシ",
    "town": "駅前町",
    "town_kana": "エキマエチョウ",
    "street": null,
    "office_name": null,
    "office_name_kana": null
  },
  "0003": {
    "zip_code": "7830003",
    "prefecture": "高知県",
    "prefecture_kana": "コウチケン",
    "prefecture_code": 39,
    "city": "南国市",
    "city_kana": "ナンコクシ",
    "town": "西野田町",
    "town_kana": "ニシノダチョウ",
    "street": null,
    "office_name": null,
    "office_name_kana": null
  },
  "0004": {
    "zip_code": "7830004",
    "prefecture": "高知県",
    "prefecture_kana": "コウチケン",
    "prefecture_code": 39,
    "city": "南国市",
    "city_kana": "ナンコクシ",
    "town": "大そね甲",
    "town_kana": "オオソネコウ",
    "street": null,
    "office_name": null,
    "office_name_kana": null
  },
  "0005": {
    "zip_code": "7830005",
    "prefecture": "高知県",
    "prefecture_kana": "コウチケン",
    "prefecture_code": 39,
    "city": "南国市",
    "city_kana": "ナンコクシ",
    "town": "大そね乙",
    "town_kana": "オオソネオツ",
    "street": null,
    "office_name": null,
    "office_name_kana": null
  },
  "0006": {
    "zip_code": "7830006",
    "prefecture": "高知県",
    "prefecture_kana": "コウチケン",
    "prefecture_code": 39,
    "city": "南国市",
    "city_kana": "ナンコクシ",
    "town": "篠原",
    "town_kana": "シノハラ",
    "street": null,
    "office_name": null,
    "office_name_kana": null
  },
  "0007": {
    "zip_code": "7830007",
    "prefecture": "高知県",
    "prefecture_kana": "コウチケン",
    "prefecture_code": 39,
    "city": "南国市",
    "city_kana": "ナンコクシ",
    "town": "明見",
    "town_kana": "ミョウケン",
    "street": null,
    "office_name": null,
    "office_name_kana": null
  },
  "0008": {
    "zip_code": "7830008",
    "prefecture": "高知県",
    "prefecture_kana": "コウチケン",
    "prefecture_code": 39,
    "city": "南国市",
    "city_kana": "ナンコクシ",
    "town": "伊達野",
    "town_kana": "イタチノ",
    "street": null,
    "office_name": null,
    "office_name_kana": null
  },
  "0011": {
    "zip_code": "7830011",
    "prefecture": "高知県",
    "prefecture_kana": "コウチケン",
    "prefecture_code": 39,
    "city": "南国市",
    "city_kana": "ナンコクシ",
    "town": "後免町",
    "town_kana": "ゴメンマチ",
    "street": null,
    "office_name": null,
    "office_name_kana": null
  },
  "0012": {
    "zip_code": "7830012",
    "prefecture": "高知県",
    "prefecture_kana": "コウチケン",
    "prefecture_code": 39,
    "city": "南国市",
    "city_kana": "ナンコクシ",
    "town": "東山町",
    "town_kana": "ヒガシヤママチ",
    "street": null,
    "office_name": null,
    "office_name_kana": null
  },
  "0013": {
    "zip_code": "7830013",
    "prefecture": "高知県",
    "prefecture_kana": "コウチケン",
    "prefecture_code": 39,
    "city": "南国市",
    "city_kana": "ナンコクシ",
    "town": "幸町",
    "town_kana": "サイワイチョウ",
    "street": null,
    "office_name": null,
    "office_name_kana": null
  },
  "0014": {
    "zip_code": "7830014",
    "prefecture": "高知県",
    "prefecture_kana": "コウチケン",
    "prefecture_code": 39,
    "city": "南国市",
    "city_kana": "ナンコクシ",
    "town": "元町",
    "town_kana": "モトマチ",
    "street": null,
    "office_name": null,
    "office_name_kana": null
  },
  "0021": {
    "zip_code": "7830021",
    "prefecture": "高知県",
    "prefecture_kana": "コウチケン",
    "prefecture_code": 39,
    "city": "南国市",
    "city_kana": "ナンコクシ",
    "town": "野中",
    "town_kana": "ノナカ",
    "street": null,
    "office_name": null,
    "office_name_kana": null
  },
  "0022": {
    "zip_code": "7830022",
    "prefecture": "高知県",
    "prefecture_kana": "コウチケン",
    "prefecture_code": 39,
    "city": "南国市",
    "city_kana": "ナンコクシ",
    "town": "小籠",
    "town_kana": "コゴメ",
    "street": null,
    "office_name": null,
    "office_name_kana": null
  },
  "0023": {
    "zip_code": "7830023",
    "prefecture": "高知県",
    "prefecture_kana": "コウチケン",
    "prefecture_code": 39,
    "city": "南国市",
    "city_kana": "ナンコクシ",
    "town": "廿枝",
    "town_kana": "ハタエダ",
    "street": null,
    "office_name": null,
    "office_name_kana": null
  },
  "0024": {
    "zip_code": "7830024",
    "prefecture": "高知県",
    "prefecture_kana": "コウチケン",
    "prefecture_code": 39,
    "city": "南国市",
    "city_kana": "ナンコクシ",
    "town": "東崎",
    "town_kana": "ヒガシザキ",
    "street": null,
    "office_name": null,
    "office_name_kana": null
  },
  "0025": {
    "zip_code": "7830025",
    "prefecture": "高知県",
    "prefecture_kana": "コウチケン",
    "prefecture_code": 39,
    "city": "南国市",
    "city_kana": "ナンコクシ",
    "town": "下末松",
    "town_kana": "シモスエマツ",
    "street": null,
    "office_name": null,
    "office_name_kana": null
  },
  "0026": {
    "zip_code": "7830026",
    "prefecture": "高知県",
    "prefecture_kana": "コウチケン",
    "prefecture_code": 39,
    "city": "南国市",
    "city_kana": "ナンコクシ",
    "town": "上末松",
    "town_kana": "カミスエマツ",
    "street": null,
    "office_name": null,
    "office_name_kana": null
  },
  "0027": {
    "zip_code": "7830027",
    "prefecture": "高知県",
    "prefecture_kana": "コウチケン",
    "prefecture_code": 39,
    "city": "南国市",
    "city_kana": "ナンコクシ",
    "town": "三畠",
    "town_kana": "サンバク",
    "street": null,
    "office_name": null,
    "office_name_kana": null
  },
  "0028": {
    "zip_code": "7830028",
    "prefecture": "高知県",
    "prefecture_kana": "コウチケン",
    "prefecture_code": 39,
    "city": "南国市",
    "city_kana": "ナンコクシ",
    "town": "陣山",
    "town_kana": "ジンヤマ",
    "street": null,
    "office_name": null,
    "office_name_kana": null
  },
  "0029": {
    "zip_code": "7830029",
    "prefecture": "高知県",
    "prefecture_kana": "コウチケン",
    "prefecture_code": 39,
    "city": "南国市",
    "city_kana": "ナンコクシ",
    "town": "西山",
    "town_kana": "ニシヤマ",
    "street": null,
    "office_name": null,
    "office_name_kana": null
  },
  "0031": {
    "zip_code": "7830031",
    "prefecture": "高知県",
    "prefecture_kana": "コウチケン",
    "prefecture_code": 39,
    "city": "南国市",
    "city_kana": "ナンコクシ",
    "town": "下野田",
    "town_kana": "シモノダ",
    "street": null,
    "office_name": null,
    "office_name_kana": null
  },
  "0032": {
    "zip_code": "7830032",
    "prefecture": "高知県",
    "prefecture_kana": "コウチケン",
    "prefecture_code": 39,
    "city": "南国市",
    "city_kana": "ナンコクシ",
    "town": "上野田",
    "town_kana": "カミノダ",
    "street": null,
    "office_name": null,
    "office_name_kana": null
  },
  "0033": {
    "zip_code": "7830033",
    "prefecture": "高知県",
    "prefecture_kana": "コウチケン",
    "prefecture_code": 39,
    "city": "南国市",
    "city_kana": "ナンコクシ",
    "town": "包末",
    "town_kana": "カノスエ",
    "street": null,
    "office_name": null,
    "office_name_kana": null
  },
  "0034": {
    "zip_code": "7830034",
    "prefecture": "高知県",
    "prefecture_kana": "コウチケン",
    "prefecture_code": 39,
    "city": "南国市",
    "city_kana": "ナンコクシ",
    "town": "堀ノ内",
    "town_kana": "ホリノウチ",
    "street": null,
    "office_name": null,
    "office_name_kana": null
  },
  "0035": {
    "zip_code": "7830035",
    "prefecture": "高知県",
    "prefecture_kana": "コウチケン",
    "prefecture_code": 39,
    "city": "南国市",
    "city_kana": "ナンコクシ",
    "town": "金地",
    "town_kana": "カナジ",
    "street": null,
    "office_name": null,
    "office_name_kana": null
  },
  "0036": {
    "zip_code": "7830036",
    "prefecture": "高知県",
    "prefecture_kana": "コウチケン",
    "prefecture_code": 39,
    "city": "南国市",
    "city_kana": "ナンコクシ",
    "town": "福船",
    "town_kana": "フクブネ",
    "street": null,
    "office_name": null,
    "office_name_kana": null
  },
  "0037": {
    "zip_code": "7830037",
    "prefecture": "高知県",
    "prefecture_kana": "コウチケン",
    "prefecture_code": 39,
    "city": "南国市",
    "city_kana": "ナンコクシ",
    "town": "蔵福寺島",
    "town_kana": "ゾウフクジジマ",
    "street": null,
    "office_name": null,
    "office_name_kana": null
  },
  "0040": {
    "zip_code": "7830040",
    "prefecture": "高知県",
    "prefecture_kana": "コウチケン",
    "prefecture_code": 39,
    "city": "南国市",
    "city_kana": "ナンコクシ",
    "town": "岡豊町滝本",
    "town_kana": "オコウチョウタキモト",
    "street": null,
    "office_name": null,
    "office_name_kana": null
  },
  "0041": {
    "zip_code": "7830041",
    "prefecture": "高知県",
    "prefecture_kana": "コウチケン",
    "prefecture_code": 39,
    "city": "南国市",
    "city_kana": "ナンコクシ",
    "town": "岡豊町定林寺",
    "town_kana": "オコウチョウジョウリンジ",
    "street": null,
    "office_name": null,
    "office_name_kana": null
  },
  "0042": {
    "zip_code": "7830042",
    "prefecture": "高知県",
    "prefecture_kana": "コウチケン",
    "prefecture_code": 39,
    "city": "南国市",
    "city_kana": "ナンコクシ",
    "town": "岡豊町蒲原",
    "town_kana": "オコウチョウカモハラ",
    "street": null,
    "office_name": null,
    "office_name_kana": null
  },
  "0043": {
    "zip_code": "7830043",
    "prefecture": "高知県",
    "prefecture_kana": "コウチケン",
    "prefecture_code": 39,
    "city": "南国市",
    "city_kana": "ナンコクシ",
    "town": "岡豊町小蓮",
    "town_kana": "オコウチョウコハス",
    "street": null,
    "office_name": null,
    "office_name_kana": null
  },
  "0044": {
    "zip_code": "7830044",
    "prefecture": "高知県",
    "prefecture_kana": "コウチケン",
    "prefecture_code": 39,
    "city": "南国市",
    "city_kana": "ナンコクシ",
    "town": "岡豊町八幡",
    "town_kana": "オコウチョウヤハタ",
    "street": null,
    "office_name": null,
    "office_name_kana": null
  },
  "0045": {
    "zip_code": "7830045",
    "prefecture": "高知県",
    "prefecture_kana": "コウチケン",
    "prefecture_code": 39,
    "city": "南国市",
    "city_kana": "ナンコクシ",
    "town": "岡豊町吉田",
    "town_kana": "オコウチョウヨシダ",
    "street": null,
    "office_name": null,
    "office_name_kana": null
  },
  "0046": {
    "zip_code": "7830046",
    "prefecture": "高知県",
    "prefecture_kana": "コウチケン",
    "prefecture_code": 39,
    "city": "南国市",
    "city_kana": "ナンコクシ",
    "town": "岡豊町江村",
    "town_kana": "オコウチョウエムラ",
    "street": null,
    "office_name": null,
    "office_name_kana": null
  },
  "0047": {
    "zip_code": "7830047",
    "prefecture": "高知県",
    "prefecture_kana": "コウチケン",
    "prefecture_code": 39,
    "city": "南国市",
    "city_kana": "ナンコクシ",
    "town": "岡豊町常通寺島",
    "town_kana": "オコウチョウジョウツウジシマ",
    "street": null,
    "office_name": null,
    "office_name_kana": null
  },
  "0048": {
    "zip_code": "7830048",
    "prefecture": "高知県",
    "prefecture_kana": "コウチケン",
    "prefecture_code": 39,
    "city": "南国市",
    "city_kana": "ナンコクシ",
    "town": "岡豊町小篭",
    "town_kana": "オコウチョウコゴメ",
    "street": null,
    "office_name": null,
    "office_name_kana": null
  },
  "0049": {
    "zip_code": "7830049",
    "prefecture": "高知県",
    "prefecture_kana": "コウチケン",
    "prefecture_code": 39,
    "city": "南国市",
    "city_kana": "ナンコクシ",
    "town": "岡豊町中島",
    "town_kana": "オコウチョウナカジマ",
    "street": null,
    "office_name": null,
    "office_name_kana": null
  },
  "0051": {
    "zip_code": "7830051",
    "prefecture": "高知県",
    "prefecture_kana": "コウチケン",
    "prefecture_code": 39,
    "city": "南国市",
    "city_kana": "ナンコクシ",
    "town": "岡豊町笠ノ川",
    "town_kana": "オコウチョウカサノカワ",
    "street": null,
    "office_name": null,
    "office_name_kana": null
  },
  "0052": {
    "zip_code": "7830052",
    "prefecture": "高知県",
    "prefecture_kana": "コウチケン",
    "prefecture_code": 39,
    "city": "南国市",
    "city_kana": "ナンコクシ",
    "town": "左右山",
    "town_kana": "ソヤマ",
    "street": null,
    "office_name": null,
    "office_name_kana": null
  },
  "0053": {
    "zip_code": "7830053",
    "prefecture": "高知県",
    "prefecture_kana": "コウチケン",
    "prefecture_code": 39,
    "city": "南国市",
    "city_kana": "ナンコクシ",
    "town": "国分",
    "town_kana": "コクブ",
    "street": null,
    "office_name": null,
    "office_name_kana": null
  },
  "0054": {
    "zip_code": "7830054",
    "prefecture": "高知県",
    "prefecture_kana": "コウチケン",
    "prefecture_code": 39,
    "city": "南国市",
    "city_kana": "ナンコクシ",
    "town": "比江",
    "town_kana": "ヒエ",
    "street": null,
    "office_name": null,
    "office_name_kana": null
  },
  "0055": {
    "zip_code": "7830055",
    "prefecture": "高知県",
    "prefecture_kana": "コウチケン",
    "prefecture_code": 39,
    "city": "南国市",
    "city_kana": "ナンコクシ",
    "town": "双葉台",
    "town_kana": "フタバダイ",
    "street": null,
    "office_name": null,
    "office_name_kana": null
  },
  "0056": {
    "zip_code": "7830056",
    "prefecture": "高知県",
    "prefecture_kana": "コウチケン",
    "prefecture_code": 39,
    "city": "南国市",
    "city_kana": "ナンコクシ",
    "town": "領石",
    "town_kana": "リョウセキ",
    "street": null,
    "office_name": null,
    "office_name_kana": null
  },
  "0057": {
    "zip_code": "7830057",
    "prefecture": "高知県",
    "prefecture_kana": "コウチケン",
    "prefecture_code": 39,
    "city": "南国市",
    "city_kana": "ナンコクシ",
    "town": "八京",
    "town_kana": "ヤキョウ",
    "street": null,
    "office_name": null,
    "office_name_kana": null
  },
  "0058": {
    "zip_code": "7830058",
    "prefecture": "高知県",
    "prefecture_kana": "コウチケン",
    "prefecture_code": 39,
    "city": "南国市",
    "city_kana": "ナンコクシ",
    "town": "白木谷",
    "town_kana": "シラキダニ",
    "street": null,
    "office_name": null,
    "office_name_kana": null
  },
  "0060": {
    "zip_code": "7830060",
    "prefecture": "高知県",
    "prefecture_kana": "コウチケン",
    "prefecture_code": 39,
    "city": "南国市",
    "city_kana": "ナンコクシ",
    "town": "蛍が丘",
    "town_kana": "ホタルガオカ",
    "street": null,
    "office_name": null,
    "office_name_kana": null
  },
  "0061": {
    "zip_code": "7830061",
    "prefecture": "高知県",
    "prefecture_kana": "コウチケン",
    "prefecture_code": 39,
    "city": "南国市",
    "city_kana": "ナンコクシ",
    "town": "植野",
    "town_kana": "ウエノ",
    "street": null,
    "office_name": null,
    "office_name_kana": null
  },
  "0062": {
    "zip_code": "7830062",
    "prefecture": "高知県",
    "prefecture_kana": "コウチケン",
    "prefecture_code": 39,
    "city": "南国市",
    "city_kana": "ナンコクシ",
    "town": "久礼田",
    "town_kana": "クレダ",
    "street": null,
    "office_name": null,
    "office_name_kana": null
  },
  "0063": {
    "zip_code": "7830063",
    "prefecture": "高知県",
    "prefecture_kana": "コウチケン",
    "prefecture_code": 39,
    "city": "南国市",
    "city_kana": "ナンコクシ",
    "town": "植田",
    "town_kana": "ウエタ",
    "street": null,
    "office_name": null,
    "office_name_kana": null
  },
  "0064": {
    "zip_code": "7830064",
    "prefecture": "高知県",
    "prefecture_kana": "コウチケン",
    "prefecture_code": 39,
    "city": "南国市",
    "city_kana": "ナンコクシ",
    "town": "宍崎",
    "town_kana": "シシザキ",
    "street": null,
    "office_name": null,
    "office_name_kana": null
  },
  "0065": {
    "zip_code": "7830065",
    "prefecture": "高知県",
    "prefecture_kana": "コウチケン",
    "prefecture_code": 39,
    "city": "南国市",
    "city_kana": "ナンコクシ",
    "town": "外山",
    "town_kana": "トヤマ",
    "street": null,
    "office_name": null,
    "office_name_kana": null
  },
  "0066": {
    "zip_code": "7830066",
    "prefecture": "高知県",
    "prefecture_kana": "コウチケン",
    "prefecture_code": 39,
    "city": "南国市",
    "city_kana": "ナンコクシ",
    "town": "成合",
    "town_kana": "ナレアイ",
    "street": null,
    "office_name": null,
    "office_name_kana": null
  },
  "0067": {
    "zip_code": "7830067",
    "prefecture": "高知県",
    "prefecture_kana": "コウチケン",
    "prefecture_code": 39,
    "city": "南国市",
    "city_kana": "ナンコクシ",
    "town": "天行寺",
    "town_kana": "テンギョウジ",
    "street": null,
    "office_name": null,
    "office_name_kana": null
  },
  "0068": {
    "zip_code": "7830068",
    "prefecture": "高知県",
    "prefecture_kana": "コウチケン",
    "prefecture_code": 39,
    "city": "南国市",
    "city_kana": "ナンコクシ",
    "town": "才谷",
    "town_kana": "サイダニ",
    "street": null,
    "office_name": null,
    "office_name_kana": null
  },
  "0071": {
    "zip_code": "7830071",
    "prefecture": "高知県",
    "prefecture_kana": "コウチケン",
    "prefecture_code": 39,
    "city": "南国市",
    "city_kana": "ナンコクシ",
    "town": "亀岩",
    "town_kana": "カメイワ",
    "street": null,
    "office_name": null,
    "office_name_kana": null
  },
  "0072": {
    "zip_code": "7830072",
    "prefecture": "高知県",
    "prefecture_kana": "コウチケン",
    "prefecture_code": 39,
    "city": "南国市",
    "city_kana": "ナンコクシ",
    "town": "奈路",
    "town_kana": "ナロ",
    "street": null,
    "office_name": null,
    "office_name_kana": null
  },
  "0073": {
    "zip_code": "7830073",
    "prefecture": "高知県",
    "prefecture_kana": "コウチケン",
    "prefecture_code": 39,
    "city": "南国市",
    "city_kana": "ナンコクシ",
    "town": "中谷",
    "town_kana": "ナカダニ",
    "street": null,
    "office_name": null,
    "office_name_kana": null
  },
  "0074": {
    "zip_code": "7830074",
    "prefecture": "高知県",
    "prefecture_kana": "コウチケン",
    "prefecture_code": 39,
    "city": "南国市",
    "city_kana": "ナンコクシ",
    "town": "上倉",
    "town_kana": "アゲクラ",
    "street": null,
    "office_name": null,
    "office_name_kana": null
  },
  "0075": {
    "zip_code": "7830075",
    "prefecture": "高知県",
    "prefecture_kana": "コウチケン",
    "prefecture_code": 39,
    "city": "南国市",
    "city_kana": "ナンコクシ",
    "town": "桑ノ川",
    "town_kana": "クワノカワ",
    "street": null,
    "office_name": null,
    "office_name_kana": null
  },
  "0076": {
    "zip_code": "7830076",
    "prefecture": "高知県",
    "prefecture_kana": "コウチケン",
    "prefecture_code": 39,
    "city": "南国市",
    "city_kana": "ナンコクシ",
    "town": "黒滝",
    "town_kana": "クロタキ",
    "street": null,
    "office_name": null,
    "office_name_kana": null
  },
  "0077": {
    "zip_code": "7830077",
    "prefecture": "高知県",
    "prefecture_kana": "コウチケン",
    "prefecture_code": 39,
    "city": "南国市",
    "city_kana": "ナンコクシ",
    "town": "大改野",
    "town_kana": "オオガイノ",
    "street": null,
    "office_name": null,
    "office_name_kana": null
  },
  "0078": {
    "zip_code": "7830078",
    "prefecture": "高知県",
    "prefecture_kana": "コウチケン",
    "prefecture_code": 39,
    "city": "南国市",
    "city_kana": "ナンコクシ",
    "town": "中ノ川",
    "town_kana": "ナカノカワ",
    "street": null,
    "office_name": null,
    "office_name_kana": null
  },
  "0081": {
    "zip_code": "7830081",
    "prefecture": "高知県",
    "prefecture_kana": "コウチケン",
    "prefecture_code": 39,
    "city": "南国市",
    "city_kana": "ナンコクシ",
    "town": "片山",
    "town_kana": "カタヤマ",
    "street": null,
    "office_name": null,
    "office_name_kana": null
  },
  "0082": {
    "zip_code": "7830082",
    "prefecture": "高知県",
    "prefecture_kana": "コウチケン",
    "prefecture_code": 39,
    "city": "南国市",
    "city_kana": "ナンコクシ",
    "town": "里改田",
    "town_kana": "サトカイダ",
    "street": null,
    "office_name": null,
    "office_name_kana": null
  },
  "0083": {
    "zip_code": "7830083",
    "prefecture": "高知県",
    "prefecture_kana": "コウチケン",
    "prefecture_code": 39,
    "city": "南国市",
    "city_kana": "ナンコクシ",
    "town": "浜改田",
    "town_kana": "ハマカイダ",
    "street": null,
    "office_name": null,
    "office_name_kana": null
  },
  "0084": {
    "zip_code": "7830084",
    "prefecture": "高知県",
    "prefecture_kana": "コウチケン",
    "prefecture_code": 39,
    "city": "南国市",
    "city_kana": "ナンコクシ",
    "town": "稲生",
    "town_kana": "イナブ",
    "street": null,
    "office_name": null,
    "office_name_kana": null
  },
  "0085": {
    "zip_code": "7830085",
    "prefecture": "高知県",
    "prefecture_kana": "コウチケン",
    "prefecture_code": 39,
    "city": "南国市",
    "city_kana": "ナンコクシ",
    "town": "十市",
    "town_kana": "トオチ",
    "street": null,
    "office_name": null,
    "office_name_kana": null
  },
  "0086": {
    "zip_code": "7830086",
    "prefecture": "高知県",
    "prefecture_kana": "コウチケン",
    "prefecture_code": 39,
    "city": "南国市",
    "city_kana": "ナンコクシ",
    "town": "緑ケ丘",
    "town_kana": "ミドリガオカ",
    "street": null,
    "office_name": null,
    "office_name_kana": null
  },
  "0087": {
    "zip_code": "7830087",
    "prefecture": "高知県",
    "prefecture_kana": "コウチケン",
    "prefecture_code": 39,
    "city": "南国市",
    "city_kana": "ナンコクシ",
    "town": "三和琴平",
    "town_kana": "ミワコトヒラ",
    "street": null,
    "office_name": null,
    "office_name_kana": null
  },
  "0091": {
    "zip_code": "7830091",
    "prefecture": "高知県",
    "prefecture_kana": "コウチケン",
    "prefecture_code": 39,
    "city": "南国市",
    "city_kana": "ナンコクシ",
    "town": "立田",
    "town_kana": "タテダ",
    "street": null,
    "office_name": null,
    "office_name_kana": null
  },
  "0092": {
    "zip_code": "7830092",
    "prefecture": "高知県",
    "prefecture_kana": "コウチケン",
    "prefecture_code": 39,
    "city": "南国市",
    "city_kana": "ナンコクシ",
    "town": "田村",
    "town_kana": "タムラ",
    "street": null,
    "office_name": null,
    "office_name_kana": null
  },
  "0093": {
    "zip_code": "7830093",
    "prefecture": "高知県",
    "prefecture_kana": "コウチケン",
    "prefecture_code": 39,
    "city": "南国市",
    "city_kana": "ナンコクシ",
    "town": "物部",
    "town_kana": "モノベ",
    "street": null,
    "office_name": null,
    "office_name_kana": null
  },
  "0094": {
    "zip_code": "7830094",
    "prefecture": "高知県",
    "prefecture_kana": "コウチケン",
    "prefecture_code": 39,
    "city": "南国市",
    "city_kana": "ナンコクシ",
    "town": "前浜",
    "town_kana": "マエハマ",
    "street": null,
    "office_name": null,
    "office_name_kana": null
  },
  "0095": {
    "zip_code": "7830095",
    "prefecture": "高知県",
    "prefecture_kana": "コウチケン",
    "prefecture_code": 39,
    "city": "南国市",
    "city_kana": "ナンコクシ",
    "town": "下島",
    "town_kana": "シモジマ",
    "street": null,
    "office_name": null,
    "office_name_kana": null
  },
  "0096": {
    "zip_code": "7830096",
    "prefecture": "高知県",
    "prefecture_kana": "コウチケン",
    "prefecture_code": 39,
    "city": "南国市",
    "city_kana": "ナンコクシ",
    "town": "久枝",
    "town_kana": "ヒサエダ",
    "street": null,
    "office_name": null,
    "office_name_kana": null
  },
  "8501": {
    "zip_code": "7838501",
    "prefecture": "高知県",
    "prefecture_kana": null,
    "prefecture_code": null,
    "city": "南国市",
    "city_kana": null,
    "town": "大そね",
    "town_kana": null,
    "street": "甲２３０１",
    "office_name": "南国市役所",
    "office_name_kana": "ナンコクシヤクシヨ"
  },
  "8502": {
    "zip_code": "7838502",
    "prefecture": "高知県",
    "prefecture_kana": "コウチケン",
    "prefecture_code": 39,
    "city": "南国市",
    "city_kana": "ナンコクシ",
    "town": "物部",
    "town_kana": "モノベ",
    "street": "乙２００",
    "office_name": "高知大学　農学部",
    "office_name_kana": "コウチダイガク ノウガクブ"
  },
  "8505": {
    "zip_code": "7838505",
    "prefecture": "高知県",
    "prefecture_kana": "コウチケン",
    "prefecture_code": 39,
    "city": "南国市",
    "city_kana": "ナンコクシ",
    "town": "岡豊町小蓮",
    "town_kana": "オコウチョウコハス",
    "street": "",
    "office_name": "高知大学　医学部",
    "office_name_kana": "コウチダイガク イガクブ"
  },
  "8506": {
    "zip_code": "7838506",
    "prefecture": "高知県",
    "prefecture_kana": "コウチケン",
    "prefecture_code": 39,
    "city": "南国市",
    "city_kana": "ナンコクシ",
    "town": "岡豊町小蓮",
    "town_kana": "オコウチョウコハス",
    "street": "",
    "office_name": "高知大学　附属図書館　医学部分室",
    "office_name_kana": "コウチダイガク フゾクトシヨカン イガクブブンシツ"
  },
  "8507": {
    "zip_code": "7838507",
    "prefecture": "高知県",
    "prefecture_kana": "コウチケン",
    "prefecture_code": 39,
    "city": "南国市",
    "city_kana": "ナンコクシ",
    "town": "",
    "town_kana": "",
    "street": "大埆甲１２１４−６",
    "office_name": "日本年金機構　南国年金事務所",
    "office_name_kana": "ニツポンネンキンキコウ ナンゴクネンキンジムシヨ"
  },
  "8508": {
    "zip_code": "7838508",
    "prefecture": "高知県",
    "prefecture_kana": "コウチケン",
    "prefecture_code": 39,
    "city": "南国市",
    "city_kana": "ナンコクシ",
    "town": "物部",
    "town_kana": "モノベ",
    "street": "乙２００−１",
    "office_name": "高知工業高等専門学校",
    "office_name_kana": "コウチコウギヨウコウトウセンモンガツコウ"
  },
  "8509": {
    "zip_code": "7838509",
    "prefecture": "高知県",
    "prefecture_kana": "コウチケン",
    "prefecture_code": 39,
    "city": "南国市",
    "city_kana": "ナンコクシ",
    "town": "明見",
    "town_kana": "ミョウケン",
    "street": "字中野５２６−１",
    "office_name": "ＪＡ高知病院",
    "office_name_kana": "ジエイエイコウチビヨウイン"
  },
  "8555": {
    "zip_code": "7838555",
    "prefecture": "高知県",
    "prefecture_kana": "コウチケン",
    "prefecture_code": 39,
    "city": "南国市",
    "city_kana": "ナンコクシ",
    "town": "領石",
    "town_kana": "リョウセキ",
    "street": "２４６",
    "office_name": "旭食品　株式会社　四国支社",
    "office_name_kana": "アサヒシヨクヒン カブシキガイシヤ シコクシシヤ"
  }
}