{
  "0000": {
    "zip_code": "7980000",
    "prefecture": "愛媛県",
    "prefecture_kana": "エヒメケン",
    "prefecture_code": 38,
    "city": "宇和島市",
    "city_kana": "ウワジマシ",
    "town": "",
    "town_kana": "",
    "street": null,
    "office_name": null,
    "office_name_kana": null
  },
  "0001": [
    {
      "zip_code": "7980001",
      "prefecture": "愛媛県",
      "prefecture_kana": "エヒメケン",
      "prefecture_code": 38,
      "city": "宇和島市",
      "city_kana": "ウワジマシ",
      "town": "大浦",
      "town_kana": "オオウラ",
      "street": null,
      "office_name": null,
      "office_name_kana": null
    },
    {
      "zip_code": "7980001",
      "prefecture": "愛媛県",
      "prefecture_kana": "エヒメケン",
      "prefecture_code": 38,
      "city": "宇和島市",
      "city_kana": "ウワジマシ",
      "town": "大浦赤松",
      "town_kana": "オオウラアカマツ",
      "street": null,
      "office_name": null,
      "office_name_kana": null
    }
  ],
  "0002": {
    "zip_code": "7980002",
    "prefecture": "愛媛県",
    "prefecture_kana": "エヒメケン",
    "prefecture_code": 38,
    "city": "宇和島市",
    "city_kana": "ウワジマシ",
    "town": "大浦",
    "town_kana": "オオウラ",
    "street": null,
    "office_name": null,
    "office_name_kana": null
  },
  "0003": {
    "zip_code": "7980003",
    "prefecture": "愛媛県",
    "prefecture_kana": "エヒメケン",
    "prefecture_code": 38,
    "city": "宇和島市",
    "city_kana": "ウワジマシ",
    "town": "住吉町",
    "town_kana": "スミヨシチョウ",
    "street": null,
    "office_name": null,
    "office_name_kana": null
  },
  "0004": {
    "zip_code": "7980004",
    "prefecture": "愛媛県",
    "prefecture_kana": "エヒメケン",
    "prefecture_code": 38,
    "city": "宇和島市",
    "city_kana": "ウワジマシ",
    "town": "朝日町",
    "town_kana": "アサヒマチ",
    "street": null,
    "office_name": null,
    "office_name_kana": null
  },
  "0005": {
    "zip_code": "7980005",
    "prefecture": "愛媛県",
    "prefecture_kana": "エヒメケン",
    "prefecture_code": 38,
    "city": "宇和島市",
    "city_kana": "ウワジマシ",
    "town": "築地町",
    "town_kana": "ツキジチョウ",
    "street": null,
    "office_name": null,
    "office_name_kana": null
  },
  "0006": {
    "zip_code": "7980006",
    "prefecture": "愛媛県",
    "prefecture_kana": "エヒメケン",
    "prefecture_code": 38,
    "city": "宇和島市",
    "city_kana": "ウワジマシ",
    "town": "弁天町",
    "town_kana": "ベンテンチョウ",
    "street": null,
    "office_name": null,
    "office_name_kana": null
  },
  "0007": {
    "zip_code": "7980007",
    "prefecture": "愛媛県",
    "prefecture_kana": "エヒメケン",
    "prefecture_code": 38,
    "city": "宇和島市",
    "city_kana": "ウワジマシ",
    "town": "寿町",
    "town_kana": "コトブキチョウ",
    "street": null,
    "office_name": null,
    "office_name_kana": null
  },
  "0010": [
    {
      "zip_code": "7980010",
      "prefecture": "愛媛県",
      "prefecture_kana": "エヒメケン",
      "prefecture_code": 38,
      "city": "宇和島市",
      "city_kana": "ウワジマシ",
      "town": "北新町",
      "town_kana": "キタシンマチ",
      "street": null,
      "office_name": null,
      "office_name_kana": null
    },
    {
      "zip_code": "7980010",
      "prefecture": "愛媛県",
      "prefecture_kana": "エヒメケン",
      "prefecture_code": 38,
      "city": "宇和島市",
      "city_kana": "ウワジマシ",
      "town": "藤江",
      "town_kana": "フジエ",
      "street": null,
      "office_name": null,
      "office_name_kana": null
    }
  ],
  "0011": {
    "zip_code": "7980011",
    "prefecture": "愛媛県",
    "prefecture_kana": "エヒメケン",
    "prefecture_code": 38,
    "city": "宇和島市",
    "city_kana": "ウワジマシ",
    "town": "須賀通",
    "town_kana": "スカドオリ",
    "street": null,
    "office_name": null,
    "office_name_kana": null
  },
  "0012": {
    "zip_code": "7980012",
    "prefecture": "愛媛県",
    "prefecture_kana": "エヒメケン",
    "prefecture_code": 38,
    "city": "宇和島市",
    "city_kana": "ウワジマシ",
    "town": "和霊町",
    "town_kana": "ワレイチョウ",
    "street": null,
    "office_name": null,
    "office_name_kana": null
  },
  "0013": {
    "zip_code": "7980013",
    "prefecture": "愛媛県",
    "prefecture_kana": "エヒメケン",
    "prefecture_code": 38,
    "city": "宇和島市",
    "city_kana": "ウワジマシ",
    "town": "御幸町",
    "town_kana": "ミユキマチ",
    "street": null,
    "office_name": null,
    "office_name_kana": null
  },
  "0014": {
    "zip_code": "7980014",
    "prefecture": "愛媛県",
    "prefecture_kana": "エヒメケン",
    "prefecture_code": 38,
    "city": "宇和島市",
    "city_kana": "ウワジマシ",
    "town": "和霊公園",
    "town_kana": "ワレイコウエン",
    "street": null,
    "office_name": null,
    "office_name_kana": null
  },
  "0015": {
    "zip_code": "7980015",
    "prefecture": "愛媛県",
    "prefecture_kana": "エヒメケン",
    "prefecture_code": 38,
    "city": "宇和島市",
    "city_kana": "ウワジマシ",
    "town": "和霊元町",
    "town_kana": "ワレイモトマチ",
    "street": null,
    "office_name": null,
    "office_name_kana": null
  },
  "0016": {
    "zip_code": "7980016",
    "prefecture": "愛媛県",
    "prefecture_kana": "エヒメケン",
    "prefecture_code": 38,
    "city": "宇和島市",
    "city_kana": "ウワジマシ",
    "town": "和霊中町",
    "town_kana": "ワレイナカマチ",
    "street": null,
    "office_name": null,
    "office_name_kana": null
  },
  "0017": {
    "zip_code": "7980017",
    "prefecture": "愛媛県",
    "prefecture_kana": "エヒメケン",
    "prefecture_code": 38,
    "city": "宇和島市",
    "city_kana": "ウワジマシ",
    "town": "和霊東町",
    "town_kana": "ワレイヒガシマチ",
    "street": null,
    "office_name": null,
    "office_name_kana": null
  },
  "0020": {
    "zip_code": "7980020",
    "prefecture": "愛媛県",
    "prefecture_kana": "エヒメケン",
    "prefecture_code": 38,
    "city": "宇和島市",
    "city_kana": "ウワジマシ",
    "town": "高串",
    "town_kana": "タカグシ",
    "street": null,
    "office_name": null,
    "office_name_kana": null
  },
  "0021": {
    "zip_code": "7980021",
    "prefecture": "愛媛県",
    "prefecture_kana": "エヒメケン",
    "prefecture_code": 38,
    "city": "宇和島市",
    "city_kana": "ウワジマシ",
    "town": "光満",
    "town_kana": "ミツマ",
    "street": null,
    "office_name": null,
    "office_name_kana": null
  },
  "0022": {
    "zip_code": "7980022",
    "prefecture": "愛媛県",
    "prefecture_kana": "エヒメケン",
    "prefecture_code": 38,
    "city": "宇和島市",
    "city_kana": "ウワジマシ",
    "town": "伊吹町",
    "town_kana": "イブキチョウ",
    "street": null,
    "office_name": null,
    "office_name_kana": null
  },
  "0023": [
    {
      "zip_code": "7980023",
      "prefecture": "愛媛県",
      "prefecture_kana": "エヒメケン",
      "prefecture_code": 38,
      "city": "宇和島市",
      "city_kana": "ウワジマシ",
      "town": "伊吹町",
      "town_kana": "イブキチョウ",
      "street": null,
      "office_name": null,
      "office_name_kana": null
    },
    {
      "zip_code": "7980023",
      "prefecture": "愛媛県",
      "prefecture_kana": "エヒメケン",
      "prefecture_code": 38,
      "city": "宇和島市",
      "city_kana": "ウワジマシ",
      "town": "伊吹町北宇和島町",
      "town_kana": "イブキチョウキタウワジマチョウ",
      "street": null,
      "office_name": null,
      "office_name_kana": null
    }
  ],
  "0024": [
    {
      "zip_code": "7980024",
      "prefecture": "愛媛県",
      "prefecture_kana": "エヒメケン",
      "prefecture_code": 38,
      "city": "宇和島市",
      "city_kana": "ウワジマシ",
      "town": "伊吹町",
      "town_kana": "イブキチョウ",
      "street": null,
      "office_name": null,
      "office_name_kana": null
    },
    {
      "zip_code": "7980024",
      "prefecture": "愛媛県",
      "prefecture_kana": "エヒメケン",
      "prefecture_code": 38,
      "city": "宇和島市",
      "city_kana": "ウワジマシ",
      "town": "伊吹町北通",
      "town_kana": "イブキチョウキタドオリ",
      "street": null,
      "office_name": null,
      "office_name_kana": null
    }
  ],
  "0025": [
    {
      "zip_code": "7980025",
      "prefecture": "愛媛県",
      "prefecture_kana": "エヒメケン",
      "prefecture_code": 38,
      "city": "宇和島市",
      "city_kana": "ウワジマシ",
      "town": "伊吹町",
      "town_kana": "イブキチョウ",
      "street": null,
      "office_name": null,
      "office_name_kana": null
    },
    {
      "zip_code": "7980025",
      "prefecture": "愛媛県",
      "prefecture_kana": "エヒメケン",
      "prefecture_code": 38,
      "city": "宇和島市",
      "city_kana": "ウワジマシ",
      "town": "伊吹町東通",
      "town_kana": "イブキチョウヒガシドオリ",
      "street": null,
      "office_name": null,
      "office_name_kana": null
    }
  ],
  "0026": {
    "zip_code": "7980026",
    "prefecture": "愛媛県",
    "prefecture_kana": "エヒメケン",
    "prefecture_code": 38,
    "city": "宇和島市",
    "city_kana": "ウワジマシ",
    "town": "泉町",
    "town_kana": "イズミマチ",
    "street": null,
    "office_name": null,
    "office_name_kana": null
  },
  "0027": {
    "zip_code": "7980027",
    "prefecture": "愛媛県",
    "prefecture_kana": "エヒメケン",
    "prefecture_code": 38,
    "city": "宇和島市",
    "city_kana": "ウワジマシ",
    "town": "柿原",
    "town_kana": "カキハラ",
    "street": null,
    "office_name": null,
    "office_name_kana": null
  },
  "0030": {
    "zip_code": "7980030",
    "prefecture": "愛媛県",
    "prefecture_kana": "エヒメケン",
    "prefecture_code": 38,
    "city": "宇和島市",
    "city_kana": "ウワジマシ",
    "town": "曙町",
    "town_kana": "アケボノチョウ",
    "street": null,
    "office_name": null,
    "office_name_kana": null
  },
  "0031": {
    "zip_code": "7980031",
    "prefecture": "愛媛県",
    "prefecture_kana": "エヒメケン",
    "prefecture_code": 38,
    "city": "宇和島市",
    "city_kana": "ウワジマシ",
    "town": "栄町港",
    "town_kana": "サカエマチミナト",
    "street": null,
    "office_name": null,
    "office_name_kana": null
  },
  "0032": {
    "zip_code": "7980032",
    "prefecture": "愛媛県",
    "prefecture_kana": "エヒメケン",
    "prefecture_code": 38,
    "city": "宇和島市",
    "city_kana": "ウワジマシ",
    "town": "恵美須町",
    "town_kana": "エビスマチ",
    "street": null,
    "office_name": null,
    "office_name_kana": null
  },
  "0033": {
    "zip_code": "7980033",
    "prefecture": "愛媛県",
    "prefecture_kana": "エヒメケン",
    "prefecture_code": 38,
    "city": "宇和島市",
    "city_kana": "ウワジマシ",
    "town": "鶴島町",
    "town_kana": "ツルシマチョウ",
    "street": null,
    "office_name": null,
    "office_name_kana": null
  },
  "0034": {
    "zip_code": "7980034",
    "prefecture": "愛媛県",
    "prefecture_kana": "エヒメケン",
    "prefecture_code": 38,
    "city": "宇和島市",
    "city_kana": "ウワジマシ",
    "town": "錦町",
    "town_kana": "ニシキマチ",
    "street": null,
    "office_name": null,
    "office_name_kana": null
  },
  "0035": {
    "zip_code": "7980035",
    "prefecture": "愛媛県",
    "prefecture_kana": "エヒメケン",
    "prefecture_code": 38,
    "city": "宇和島市",
    "city_kana": "ウワジマシ",
    "town": "新町",
    "town_kana": "シンマチ",
    "street": null,
    "office_name": null,
    "office_name_kana": null
  },
  "0036": {
    "zip_code": "7980036",
    "prefecture": "愛媛県",
    "prefecture_kana": "エヒメケン",
    "prefecture_code": 38,
    "city": "宇和島市",
    "city_kana": "ウワジマシ",
    "town": "天神町",
    "town_kana": "テンジンマチ",
    "street": null,
    "office_name": null,
    "office_name_kana": null
  },
  "0037": {
    "zip_code": "7980037",
    "prefecture": "愛媛県",
    "prefecture_kana": "エヒメケン",
    "prefecture_code": 38,
    "city": "宇和島市",
    "city_kana": "ウワジマシ",
    "town": "丸穂町",
    "town_kana": "マルオチョウ",
    "street": null,
    "office_name": null,
    "office_name_kana": null
  },
  "0038": {
    "zip_code": "7980038",
    "prefecture": "愛媛県",
    "prefecture_kana": "エヒメケン",
    "prefecture_code": 38,
    "city": "宇和島市",
    "city_kana": "ウワジマシ",
    "town": "丸穂",
    "town_kana": "マルオ",
    "street": null,
    "office_name": null,
    "office_name_kana": null
  },
  "0039": {
    "zip_code": "7980039",
    "prefecture": "愛媛県",
    "prefecture_kana": "エヒメケン",
    "prefecture_code": 38,
    "city": "宇和島市",
    "city_kana": "ウワジマシ",
    "town": "大宮町",
    "town_kana": "オオミヤチョウ",
    "street": null,
    "office_name": null,
    "office_name_kana": null
  },
  "0040": {
    "zip_code": "7980040",
    "prefecture": "愛媛県",
    "prefecture_kana": "エヒメケン",
    "prefecture_code": 38,
    "city": "宇和島市",
    "city_kana": "ウワジマシ",
    "town": "中央町",
    "town_kana": "チュウオウチョウ",
    "street": null,
    "office_name": null,
    "office_name_kana": null
  },
  "0041": {
    "zip_code": "7980041",
    "prefecture": "愛媛県",
    "prefecture_kana": "エヒメケン",
    "prefecture_code": 38,
    "city": "宇和島市",
    "city_kana": "ウワジマシ",
    "town": "本町追手",
    "town_kana": "ホンマチオウテ",
    "street": null,
    "office_name": null,
    "office_name_kana": null
  },
  "0042": {
    "zip_code": "7980042",
    "prefecture": "愛媛県",
    "prefecture_kana": "エヒメケン",
    "prefecture_code": 38,
    "city": "宇和島市",
    "city_kana": "ウワジマシ",
    "town": "愛宕町",
    "town_kana": "アタゴチョウ",
    "street": null,
    "office_name": null,
    "office_name_kana": null
  },
  "0043": {
    "zip_code": "7980043",
    "prefecture": "愛媛県",
    "prefecture_kana": "エヒメケン",
    "prefecture_code": 38,
    "city": "宇和島市",
    "city_kana": "ウワジマシ",
    "town": "宇和津町",
    "town_kana": "ウワツチョウ",
    "street": null,
    "office_name": null,
    "office_name_kana": null
  },
  "0044": {
    "zip_code": "7980044",
    "prefecture": "愛媛県",
    "prefecture_kana": "エヒメケン",
    "prefecture_code": 38,
    "city": "宇和島市",
    "city_kana": "ウワジマシ",
    "town": "野川",
    "town_kana": "ノガワ",
    "street": null,
    "office_name": null,
    "office_name_kana": null
  },
  "0045": {
    "zip_code": "7980045",
    "prefecture": "愛媛県",
    "prefecture_kana": "エヒメケン",
    "prefecture_code": 38,
    "city": "宇和島市",
    "city_kana": "ウワジマシ",
    "town": "大超寺奥",
    "town_kana": "ダイチョウジオク",
    "street": null,
    "office_name": null,
    "office_name_kana": null
  },
  "0050": {
    "zip_code": "7980050",
    "prefecture": "愛媛県",
    "prefecture_kana": "エヒメケン",
    "prefecture_code": 38,
    "city": "宇和島市",
    "city_kana": "ウワジマシ",
    "town": "堀端町",
    "town_kana": "ホリバタチョウ",
    "street": null,
    "office_name": null,
    "office_name_kana": null
  },
  "0051": {
    "zip_code": "7980051",
    "prefecture": "愛媛県",
    "prefecture_kana": "エヒメケン",
    "prefecture_code": 38,
    "city": "宇和島市",
    "city_kana": "ウワジマシ",
    "town": "広小路",
    "town_kana": "ヒロコウジ",
    "street": null,
    "office_name": null,
    "office_name_kana": null
  },
  "0052": {
    "zip_code": "7980052",
    "prefecture": "愛媛県",
    "prefecture_kana": "エヒメケン",
    "prefecture_code": 38,
    "city": "宇和島市",
    "city_kana": "ウワジマシ",
    "town": "京町",
    "town_kana": "キョウマチ",
    "street": null,
    "office_name": null,
    "office_name_kana": null
  },
  "0053": {
    "zip_code": "7980053",
    "prefecture": "愛媛県",
    "prefecture_kana": "エヒメケン",
    "prefecture_code": 38,
    "city": "宇和島市",
    "city_kana": "ウワジマシ",
    "town": "賀古町",
    "town_kana": "カコチョウ",
    "street": null,
    "office_name": null,
    "office_name_kana": null
  },
  "0054": {
    "zip_code": "7980054",
    "prefecture": "愛媛県",
    "prefecture_kana": "エヒメケン",
    "prefecture_code": 38,
    "city": "宇和島市",
    "city_kana": "ウワジマシ",
    "town": "笹町",
    "town_kana": "ササマチ",
    "street": null,
    "office_name": null,
    "office_name_kana": null
  },
  "0060": {
    "zip_code": "7980060",
    "prefecture": "愛媛県",
    "prefecture_kana": "エヒメケン",
    "prefecture_code": 38,
    "city": "宇和島市",
    "city_kana": "ウワジマシ",
    "town": "丸之内",
    "town_kana": "マルノウチ",
    "street": null,
    "office_name": null,
    "office_name_kana": null
  },
  "0061": {
    "zip_code": "7980061",
    "prefecture": "愛媛県",
    "prefecture_kana": "エヒメケン",
    "prefecture_code": 38,
    "city": "宇和島市",
    "city_kana": "ウワジマシ",
    "town": "御殿町",
    "town_kana": "ゴテンマチ",
    "street": null,
    "office_name": null,
    "office_name_kana": null
  },
  "0062": {
    "zip_code": "7980062",
    "prefecture": "愛媛県",
    "prefecture_kana": "エヒメケン",
    "prefecture_code": 38,
    "city": "宇和島市",
    "city_kana": "ウワジマシ",
    "town": "桜町",
    "town_kana": "サクラマチ",
    "street": null,
    "office_name": null,
    "office_name_kana": null
  },
  "0063": {
    "zip_code": "7980063",
    "prefecture": "愛媛県",
    "prefecture_kana": "エヒメケン",
    "prefecture_code": 38,
    "city": "宇和島市",
    "city_kana": "ウワジマシ",
    "town": "御徒町",
    "town_kana": "オカチマチ",
    "street": null,
    "office_name": null,
    "office_name_kana": null
  },
  "0064": {
    "zip_code": "7980064",
    "prefecture": "愛媛県",
    "prefecture_kana": "エヒメケン",
    "prefecture_code": 38,
    "city": "宇和島市",
    "city_kana": "ウワジマシ",
    "town": "佐伯町",
    "town_kana": "サイキマチ",
    "street": null,
    "office_name": null,
    "office_name_kana": null
  },
  "0065": {
    "zip_code": "7980065",
    "prefecture": "愛媛県",
    "prefecture_kana": "エヒメケン",
    "prefecture_code": 38,
    "city": "宇和島市",
    "city_kana": "ウワジマシ",
    "town": "天赦公園",
    "town_kana": "テンシャコウエン",
    "street": null,
    "office_name": null,
    "office_name_kana": null
  },
  "0066": {
    "zip_code": "7980066",
    "prefecture": "愛媛県",
    "prefecture_kana": "エヒメケン",
    "prefecture_code": 38,
    "city": "宇和島市",
    "city_kana": "ウワジマシ",
    "town": "文京町",
    "town_kana": "ブンキョウチョウ",
    "street": null,
    "office_name": null,
    "office_name_kana": null
  },
  "0067": {
    "zip_code": "7980067",
    "prefecture": "愛媛県",
    "prefecture_kana": "エヒメケン",
    "prefecture_code": 38,
    "city": "宇和島市",
    "city_kana": "ウワジマシ",
    "town": "桝形町",
    "town_kana": "マスガタチョウ",
    "street": null,
    "office_name": null,
    "office_name_kana": null
  },
  "0068": {
    "zip_code": "7980068",
    "prefecture": "愛媛県",
    "prefecture_kana": "エヒメケン",
    "prefecture_code": 38,
    "city": "宇和島市",
    "city_kana": "ウワジマシ",
    "town": "明倫町",
    "town_kana": "メイリンチョウ",
    "street": null,
    "office_name": null,
    "office_name_kana": null
  },
  "0070": {
    "zip_code": "7980070",
    "prefecture": "愛媛県",
    "prefecture_kana": "エヒメケン",
    "prefecture_code": 38,
    "city": "宇和島市",
    "city_kana": "ウワジマシ",
    "town": "神田川原",
    "town_kana": "ジンデンガワラ",
    "street": null,
    "office_name": null,
    "office_name_kana": null
  },
  "0071": {
    "zip_code": "7980071",
    "prefecture": "愛媛県",
    "prefecture_kana": "エヒメケン",
    "prefecture_code": 38,
    "city": "宇和島市",
    "city_kana": "ウワジマシ",
    "town": "妙典寺前",
    "town_kana": "ミョウデンジマエ",
    "street": null,
    "office_name": null,
    "office_name_kana": null
  },
  "0072": {
    "zip_code": "7980072",
    "prefecture": "愛媛県",
    "prefecture_kana": "エヒメケン",
    "prefecture_code": 38,
    "city": "宇和島市",
    "city_kana": "ウワジマシ",
    "town": "元結掛",
    "town_kana": "モトユイギ",
    "street": null,
    "office_name": null,
    "office_name_kana": null
  },
  "0073": {
    "zip_code": "7980073",
    "prefecture": "愛媛県",
    "prefecture_kana": "エヒメケン",
    "prefecture_code": 38,
    "city": "宇和島市",
    "city_kana": "ウワジマシ",
    "town": "山際",
    "town_kana": "ヤマギワ",
    "street": null,
    "office_name": null,
    "office_name_kana": null
  },
  "0074": {
    "zip_code": "7980074",
    "prefecture": "愛媛県",
    "prefecture_kana": "エヒメケン",
    "prefecture_code": 38,
    "city": "宇和島市",
    "city_kana": "ウワジマシ",
    "town": "並松",
    "town_kana": "ナミマツ",
    "street": null,
    "office_name": null,
    "office_name_kana": null
  },
  "0075": {
    "zip_code": "7980075",
    "prefecture": "愛媛県",
    "prefecture_kana": "エヒメケン",
    "prefecture_code": 38,
    "city": "宇和島市",
    "city_kana": "ウワジマシ",
    "town": "川内",
    "town_kana": "カワチ",
    "street": null,
    "office_name": null,
    "office_name_kana": null
  },
  "0076": [
    {
      "zip_code": "7980076",
      "prefecture": "愛媛県",
      "prefecture_kana": "エヒメケン",
      "prefecture_code": 38,
      "city": "宇和島市",
      "city_kana": "ウワジマシ",
      "town": "川内",
      "town_kana": "カワチ",
      "street": null,
      "office_name": null,
      "office_name_kana": null
    },
    {
      "zip_code": "7980076",
      "prefecture": "愛媛県",
      "prefecture_kana": "エヒメケン",
      "prefecture_code": 38,
      "city": "宇和島市",
      "city_kana": "ウワジマシ",
      "town": "川内薬師谷",
      "town_kana": "カワチヤクシダニ",
      "street": null,
      "office_name": null,
      "office_name_kana": null
    }
  ],
  "0077": {
    "zip_code": "7980077",
    "prefecture": "愛媛県",
    "prefecture_kana": "エヒメケン",
    "prefecture_code": 38,
    "city": "宇和島市",
    "city_kana": "ウワジマシ",
    "town": "保田",
    "town_kana": "ヤスダ",
    "street": null,
    "office_name": null,
    "office_name_kana": null
  },
  "0078": {
    "zip_code": "7980078",
    "prefecture": "愛媛県",
    "prefecture_kana": "エヒメケン",
    "prefecture_code": 38,
    "city": "宇和島市",
    "city_kana": "ウワジマシ",
    "town": "祝森",
    "town_kana": "イワイノモリ",
    "street": null,
    "office_name": null,
    "office_name_kana": null
  },
  "0080": {
    "zip_code": "7980080",
    "prefecture": "愛媛県",
    "prefecture_kana": "エヒメケン",
    "prefecture_code": 38,
    "city": "宇和島市",
    "city_kana": "ウワジマシ",
    "town": "新田町",
    "town_kana": "シンデンチョウ",
    "street": null,
    "office_name": null,
    "office_name_kana": null
  },
  "0081": {
    "zip_code": "7980081",
    "prefecture": "愛媛県",
    "prefecture_kana": "エヒメケン",
    "prefecture_code": 38,
    "city": "宇和島市",
    "city_kana": "ウワジマシ",
    "town": "中沢町",
    "town_kana": "ナカザワチョウ",
    "street": null,
    "office_name": null,
    "office_name_kana": null
  },
  "0082": {
    "zip_code": "7980082",
    "prefecture": "愛媛県",
    "prefecture_kana": "エヒメケン",
    "prefecture_code": 38,
    "city": "宇和島市",
    "city_kana": "ウワジマシ",
    "town": "長堀",
    "town_kana": "ナガホリ",
    "street": null,
    "office_name": null,
    "office_name_kana": null
  },
  "0083": {
    "zip_code": "7980083",
    "prefecture": "愛媛県",
    "prefecture_kana": "エヒメケン",
    "prefecture_code": 38,
    "city": "宇和島市",
    "city_kana": "ウワジマシ",
    "town": "夏目町",
    "town_kana": "ナツメチョウ",
    "street": null,
    "office_name": null,
    "office_name_kana": null
  },
  "0084": {
    "zip_code": "7980084",
    "prefecture": "愛媛県",
    "prefecture_kana": "エヒメケン",
    "prefecture_code": 38,
    "city": "宇和島市",
    "city_kana": "ウワジマシ",
    "town": "寄松",
    "town_kana": "ヨリマツ",
    "street": null,
    "office_name": null,
    "office_name_kana": null
  },
  "0085": {
    "zip_code": "7980085",
    "prefecture": "愛媛県",
    "prefecture_kana": "エヒメケン",
    "prefecture_code": 38,
    "city": "宇和島市",
    "city_kana": "ウワジマシ",
    "town": "宮下",
    "town_kana": "ミヤシタ",
    "street": null,
    "office_name": null,
    "office_name_kana": null
  },
  "0086": {
    "zip_code": "7980086",
    "prefecture": "愛媛県",
    "prefecture_kana": "エヒメケン",
    "prefecture_code": 38,
    "city": "宇和島市",
    "city_kana": "ウワジマシ",
    "town": "別当",
    "town_kana": "ベツトウ",
    "street": null,
    "office_name": null,
    "office_name_kana": null
  },
  "0087": {
    "zip_code": "7980087",
    "prefecture": "愛媛県",
    "prefecture_kana": "エヒメケン",
    "prefecture_code": 38,
    "city": "宇和島市",
    "city_kana": "ウワジマシ",
    "town": "坂下津",
    "town_kana": "サカシヅ",
    "street": null,
    "office_name": null,
    "office_name_kana": null
  },
  "0088": {
    "zip_code": "7980088",
    "prefecture": "愛媛県",
    "prefecture_kana": "エヒメケン",
    "prefecture_code": 38,
    "city": "宇和島市",
    "city_kana": "ウワジマシ",
    "town": "保手",
    "town_kana": "ホデ",
    "street": null,
    "office_name": null,
    "office_name_kana": null
  },
  "0090": {
    "zip_code": "7980090",
    "prefecture": "愛媛県",
    "prefecture_kana": "エヒメケン",
    "prefecture_code": 38,
    "city": "宇和島市",
    "city_kana": "ウワジマシ",
    "town": "白浜",
    "town_kana": "シラハマ",
    "street": null,
    "office_name": null,
    "office_name_kana": null
  },
  "0091": {
    "zip_code": "7980091",
    "prefecture": "愛媛県",
    "prefecture_kana": "エヒメケン",
    "prefecture_code": 38,
    "city": "宇和島市",
    "city_kana": "ウワジマシ",
    "town": "石応",
    "town_kana": "コクボ",
    "street": null,
    "office_name": null,
    "office_name_kana": null
  },
  "0092": {
    "zip_code": "7980092",
    "prefecture": "愛媛県",
    "prefecture_kana": "エヒメケン",
    "prefecture_code": 38,
    "city": "宇和島市",
    "city_kana": "ウワジマシ",
    "town": "小浜",
    "town_kana": "コハマ",
    "street": null,
    "office_name": null,
    "office_name_kana": null
  },
  "0093": {
    "zip_code": "7980093",
    "prefecture": "愛媛県",
    "prefecture_kana": "エヒメケン",
    "prefecture_code": 38,
    "city": "宇和島市",
    "city_kana": "ウワジマシ",
    "town": "小池",
    "town_kana": "コイケ",
    "street": null,
    "office_name": null,
    "office_name_kana": null
  },
  "0094": {
    "zip_code": "7980094",
    "prefecture": "愛媛県",
    "prefecture_kana": "エヒメケン",
    "prefecture_code": 38,
    "city": "宇和島市",
    "city_kana": "ウワジマシ",
    "town": "蕨",
    "town_kana": "ワラビ",
    "street": null,
    "office_name": null,
    "office_name_kana": null
  },
  "0095": {
    "zip_code": "7980095",
    "prefecture": "愛媛県",
    "prefecture_kana": "エヒメケン",
    "prefecture_code": 38,
    "city": "宇和島市",
    "city_kana": "ウワジマシ",
    "town": "平浦",
    "town_kana": "ヒラウラ",
    "street": null,
    "office_name": null,
    "office_name_kana": null
  },
  "0096": {
    "zip_code": "7980096",
    "prefecture": "愛媛県",
    "prefecture_kana": "エヒメケン",
    "prefecture_code": 38,
    "city": "宇和島市",
    "city_kana": "ウワジマシ",
    "town": "本九島",
    "town_kana": "ホンクシマ",
    "street": null,
    "office_name": null,
    "office_name_kana": null
  },
  "0097": {
    "zip_code": "7980097",
    "prefecture": "愛媛県",
    "prefecture_kana": "エヒメケン",
    "prefecture_code": 38,
    "city": "宇和島市",
    "city_kana": "ウワジマシ",
    "town": "百之浦",
    "town_kana": "ヒャクノウラ",
    "street": null,
    "office_name": null,
    "office_name_kana": null
  },
  "0098": {
    "zip_code": "7980098",
    "prefecture": "愛媛県",
    "prefecture_kana": "エヒメケン",
    "prefecture_code": 38,
    "city": "宇和島市",
    "city_kana": "ウワジマシ",
    "town": "蛤",
    "town_kana": "ハマグリ",
    "street": null,
    "office_name": null,
    "office_name_kana": null
  },
  "0099": {
    "zip_code": "7980099",
    "prefecture": "愛媛県",
    "prefecture_kana": "エヒメケン",
    "prefecture_code": 38,
    "city": "宇和島市",
    "city_kana": "ウワジマシ",
    "town": "日振島",
    "town_kana": "ヒブリシマ",
    "street": null,
    "office_name": null,
    "office_name_kana": null
  },
  "0101": {
    "zip_code": "7980101",
    "prefecture": "愛媛県",
    "prefecture_kana": "エヒメケン",
    "prefecture_code": 38,
    "city": "宇和島市",
    "city_kana": "ウワジマシ",
    "town": "三浦東",
    "town_kana": "ミウラヒガシ",
    "street": null,
    "office_name": null,
    "office_name_kana": null
  },
  "0102": {
    "zip_code": "7980102",
    "prefecture": "愛媛県",
    "prefecture_kana": "エヒメケン",
    "prefecture_code": 38,
    "city": "宇和島市",
    "city_kana": "ウワジマシ",
    "town": "三浦西",
    "town_kana": "ミウラニシ",
    "street": null,
    "office_name": null,
    "office_name_kana": null
  },
  "0103": {
    "zip_code": "7980103",
    "prefecture": "愛媛県",
    "prefecture_kana": "エヒメケン",
    "prefecture_code": 38,
    "city": "宇和島市",
    "city_kana": "ウワジマシ",
    "town": "遊子",
    "town_kana": "ユス",
    "street": null,
    "office_name": null,
    "office_name_kana": null
  },
  "0104": {
    "zip_code": "7980104",
    "prefecture": "愛媛県",
    "prefecture_kana": "エヒメケン",
    "prefecture_code": 38,
    "city": "宇和島市",
    "city_kana": "ウワジマシ",
    "town": "下波",
    "town_kana": "シタバ",
    "street": null,
    "office_name": null,
    "office_name_kana": null
  },
  "0211": {
    "zip_code": "7980211",
    "prefecture": "愛媛県",
    "prefecture_kana": "エヒメケン",
    "prefecture_code": 38,
    "city": "宇和島市",
    "city_kana": "ウワジマシ",
    "town": "蒋渕",
    "town_kana": "コモブチ",
    "street": null,
    "office_name": null,
    "office_name_kana": null
  },
  "0212": {
    "zip_code": "7980212",
    "prefecture": "愛媛県",
    "prefecture_kana": "エヒメケン",
    "prefecture_code": 38,
    "city": "宇和島市",
    "city_kana": "ウワジマシ",
    "town": "戸島",
    "town_kana": "トジマ",
    "street": null,
    "office_name": null,
    "office_name_kana": null
  },
  "1101": {
    "zip_code": "7981101",
    "prefecture": "愛媛県",
    "prefecture_kana": "エヒメケン",
    "prefecture_code": 38,
    "city": "宇和島市",
    "city_kana": "ウワジマシ",
    "town": "三間町大藤",
    "town_kana": "ミマチョウオオフジ",
    "street": null,
    "office_name": null,
    "office_name_kana": null
  },
  "1102": {
    "zip_code": "7981102",
    "prefecture": "愛媛県",
    "prefecture_kana": "エヒメケン",
    "prefecture_code": 38,
    "city": "宇和島市",
    "city_kana": "ウワジマシ",
    "town": "三間町則",
    "town_kana": "ミマチョウスナワチ",
    "street": null,
    "office_name": null,
    "office_name_kana": null
  },
  "1103": {
    "zip_code": "7981103",
    "prefecture": "愛媛県",
    "prefecture_kana": "エヒメケン",
    "prefecture_code": 38,
    "city": "宇和島市",
    "city_kana": "ウワジマシ",
    "town": "三間町成家",
    "town_kana": "ミマチョウナルイエ",
    "street": null,
    "office_name": null,
    "office_name_kana": null
  },
  "1104": {
    "zip_code": "7981104",
    "prefecture": "愛媛県",
    "prefecture_kana": "エヒメケン",
    "prefecture_code": 38,
    "city": "宇和島市",
    "city_kana": "ウワジマシ",
    "town": "三間町曽根",
    "town_kana": "ミマチョウソネ",
    "street": null,
    "office_name": null,
    "office_name_kana": null
  },
  "1105": {
    "zip_code": "7981105",
    "prefecture": "愛媛県",
    "prefecture_kana": "エヒメケン",
    "prefecture_code": 38,
    "city": "宇和島市",
    "city_kana": "ウワジマシ",
    "town": "三間町是能",
    "town_kana": "ミマチョウコレヨシ",
    "street": null,
    "office_name": null,
    "office_name_kana": null
  },
  "1111": {
    "zip_code": "7981111",
    "prefecture": "愛媛県",
    "prefecture_kana": "エヒメケン",
    "prefecture_code": 38,
    "city": "宇和島市",
    "city_kana": "ウワジマシ",
    "town": "三間町北増穂",
    "town_kana": "ミマチョウキタマスオ",
    "street": null,
    "office_name": null,
    "office_name_kana": null
  },
  "1112": {
    "zip_code": "7981112",
    "prefecture": "愛媛県",
    "prefecture_kana": "エヒメケン",
    "prefecture_code": 38,
    "city": "宇和島市",
    "city_kana": "ウワジマシ",
    "town": "三間町宮野下",
    "town_kana": "ミマチョウミヤノシタ",
    "street": null,
    "office_name": null,
    "office_name_kana": null
  },
  "1113": {
    "zip_code": "7981113",
    "prefecture": "愛媛県",
    "prefecture_kana": "エヒメケン",
    "prefecture_code": 38,
    "city": "宇和島市",
    "city_kana": "ウワジマシ",
    "town": "三間町迫目",
    "town_kana": "ミマチョウハザメ",
    "street": null,
    "office_name": null,
    "office_name_kana": null
  },
  "1114": {
    "zip_code": "7981114",
    "prefecture": "愛媛県",
    "prefecture_kana": "エヒメケン",
    "prefecture_code": 38,
    "city": "宇和島市",
    "city_kana": "ウワジマシ",
    "town": "三間町務田",
    "town_kana": "ミマチョウムデン",
    "street": null,
    "office_name": null,
    "office_name_kana": null
  },
  "1115": {
    "zip_code": "7981115",
    "prefecture": "愛媛県",
    "prefecture_kana": "エヒメケン",
    "prefecture_code": 38,
    "city": "宇和島市",
    "city_kana": "ウワジマシ",
    "town": "三間町戸雁",
    "town_kana": "ミマチョウトガリ",
    "street": null,
    "office_name": null,
    "office_name_kana": null
  },
  "1116": {
    "zip_code": "7981116",
    "prefecture": "愛媛県",
    "prefecture_kana": "エヒメケン",
    "prefecture_code": 38,
    "city": "宇和島市",
    "city_kana": "ウワジマシ",
    "town": "三間町黒井地",
    "town_kana": "ミマチョウクロイジ",
    "street": null,
    "office_name": null,
    "office_name_kana": null
  },
  "1121": {
    "zip_code": "7981121",
    "prefecture": "愛媛県",
    "prefecture_kana": "エヒメケン",
    "prefecture_code": 38,
    "city": "宇和島市",
    "city_kana": "ウワジマシ",
    "town": "三間町川之内",
    "town_kana": "ミマチョウカワノウチ",
    "street": null,
    "office_name": null,
    "office_name_kana": null
  },
  "1122": {
    "zip_code": "7981122",
    "prefecture": "愛媛県",
    "prefecture_kana": "エヒメケン",
    "prefecture_code": 38,
    "city": "宇和島市",
    "city_kana": "ウワジマシ",
    "town": "三間町小沢川",
    "town_kana": "ミマチョウコソウガワ",
    "street": null,
    "office_name": null,
    "office_name_kana": null
  },
  "1123": {
    "zip_code": "7981123",
    "prefecture": "愛媛県",
    "prefecture_kana": "エヒメケン",
    "prefecture_code": 38,
    "city": "宇和島市",
    "city_kana": "ウワジマシ",
    "town": "三間町元宗",
    "town_kana": "ミマチョウモトムネ",
    "street": null,
    "office_name": null,
    "office_name_kana": null
  },
  "1124": {
    "zip_code": "7981124",
    "prefecture": "愛媛県",
    "prefecture_kana": "エヒメケン",
    "prefecture_code": 38,
    "city": "宇和島市",
    "city_kana": "ウワジマシ",
    "town": "三間町増田",
    "town_kana": "ミマチョウマスダ",
    "street": null,
    "office_name": null,
    "office_name_kana": null
  },
  "1125": {
    "zip_code": "7981125",
    "prefecture": "愛媛県",
    "prefecture_kana": "エヒメケン",
    "prefecture_code": 38,
    "city": "宇和島市",
    "city_kana": "ウワジマシ",
    "town": "三間町土居中",
    "town_kana": "ミマチョウドイナカ",
    "street": null,
    "office_name": null,
    "office_name_kana": null
  },
  "1131": {
    "zip_code": "7981131",
    "prefecture": "愛媛県",
    "prefecture_kana": "エヒメケン",
    "prefecture_code": 38,
    "city": "宇和島市",
    "city_kana": "ウワジマシ",
    "town": "三間町田川",
    "town_kana": "ミマチョウタガワ",
    "street": null,
    "office_name": null,
    "office_name_kana": null
  },
  "1132": {
    "zip_code": "7981132",
    "prefecture": "愛媛県",
    "prefecture_kana": "エヒメケン",
    "prefecture_code": 38,
    "city": "宇和島市",
    "city_kana": "ウワジマシ",
    "town": "三間町波岡",
    "town_kana": "ミマチョウナミオカ",
    "street": null,
    "office_name": null,
    "office_name_kana": null
  },
  "1133": {
    "zip_code": "7981133",
    "prefecture": "愛媛県",
    "prefecture_kana": "エヒメケン",
    "prefecture_code": 38,
    "city": "宇和島市",
    "city_kana": "ウワジマシ",
    "town": "三間町中野中",
    "town_kana": "ミマチョウナカノナカ",
    "street": null,
    "office_name": null,
    "office_name_kana": null
  },
  "1134": {
    "zip_code": "7981134",
    "prefecture": "愛媛県",
    "prefecture_kana": "エヒメケン",
    "prefecture_code": 38,
    "city": "宇和島市",
    "city_kana": "ウワジマシ",
    "town": "三間町金銅",
    "town_kana": "ミマチョウカナドウ",
    "street": null,
    "office_name": null,
    "office_name_kana": null
  },
  "1135": {
    "zip_code": "7981135",
    "prefecture": "愛媛県",
    "prefecture_kana": "エヒメケン",
    "prefecture_code": 38,
    "city": "宇和島市",
    "city_kana": "ウワジマシ",
    "town": "三間町古藤田",
    "town_kana": "ミマチョウコトウダ",
    "street": null,
    "office_name": null,
    "office_name_kana": null
  },
  "1136": {
    "zip_code": "7981136",
    "prefecture": "愛媛県",
    "prefecture_kana": "エヒメケン",
    "prefecture_code": 38,
    "city": "宇和島市",
    "city_kana": "ウワジマシ",
    "town": "三間町大内",
    "town_kana": "ミマチョウオオウチ",
    "street": null,
    "office_name": null,
    "office_name_kana": null
  },
  "1137": {
    "zip_code": "7981137",
    "prefecture": "愛媛県",
    "prefecture_kana": "エヒメケン",
    "prefecture_code": 38,
    "city": "宇和島市",
    "city_kana": "ウワジマシ",
    "town": "三間町兼近",
    "town_kana": "ミマチョウカネチカ",
    "street": null,
    "office_name": null,
    "office_name_kana": null
  },
  "1138": {
    "zip_code": "7981138",
    "prefecture": "愛媛県",
    "prefecture_kana": "エヒメケン",
    "prefecture_code": 38,
    "city": "宇和島市",
    "city_kana": "ウワジマシ",
    "town": "三間町土居垣内",
    "town_kana": "ミマチョウドイカキウチ",
    "street": null,
    "office_name": null,
    "office_name_kana": null
  },
  "1139": {
    "zip_code": "7981139",
    "prefecture": "愛媛県",
    "prefecture_kana": "エヒメケン",
    "prefecture_code": 38,
    "city": "宇和島市",
    "city_kana": "ウワジマシ",
    "town": "三間町是延",
    "town_kana": "ミマチョウコレノブ",
    "street": null,
    "office_name": null,
    "office_name_kana": null
  },
  "1141": {
    "zip_code": "7981141",
    "prefecture": "愛媛県",
    "prefecture_kana": "エヒメケン",
    "prefecture_code": 38,
    "city": "宇和島市",
    "city_kana": "ウワジマシ",
    "town": "三間町音地",
    "town_kana": "ミマチョウオンジ",
    "street": null,
    "office_name": null,
    "office_name_kana": null
  },
  "1142": {
    "zip_code": "7981142",
    "prefecture": "愛媛県",
    "prefecture_kana": "エヒメケン",
    "prefecture_code": 38,
    "city": "宇和島市",
    "city_kana": "ウワジマシ",
    "town": "三間町三間中間",
    "town_kana": "ミマチョウミマナカイダ",
    "street": null,
    "office_name": null,
    "office_name_kana": null
  },
  "1143": {
    "zip_code": "7981143",
    "prefecture": "愛媛県",
    "prefecture_kana": "エヒメケン",
    "prefecture_code": 38,
    "city": "宇和島市",
    "city_kana": "ウワジマシ",
    "town": "三間町黒川",
    "town_kana": "ミマチョウクロカワ",
    "street": null,
    "office_name": null,
    "office_name_kana": null
  },
  "1192": {
    "zip_code": "7981192",
    "prefecture": "愛媛県",
    "prefecture_kana": "エヒメケン",
    "prefecture_code": 38,
    "city": "宇和島市",
    "city_kana": "ウワジマシ",
    "town": "三間町宮野下",
    "town_kana": "ミマチョウミヤノシタ",
    "street": "８３５",
    "office_name": "宇和島市役所　三間支所",
    "office_name_kana": "ウワジマシヤクシヨ ミマシシヨ"
  },
  "1300": {
    "zip_code": "7981300",
    "prefecture": "愛媛県",
    "prefecture_kana": "エヒメケン",
    "prefecture_code": 38,
    "city": "北宇和郡鬼北町",
    "city_kana": "キタウワグンキホクチョウ",
    "town": "",
    "town_kana": "",
    "street": null,
    "office_name": null,
    "office_name_kana": null
  },
  "1301": {
    "zip_code": "7981301",
    "prefecture": "愛媛県",
    "prefecture_kana": "エヒメケン",
    "prefecture_code": 38,
    "city": "北宇和郡鬼北町",
    "city_kana": "キタウワグンキホクチョウ",
    "town": "大宿",
    "town_kana": "オオジク",
    "street": null,
    "office_name": null,
    "office_name_kana": null
  },
  "1302": {
    "zip_code": "7981302",
    "prefecture": "愛媛県",
    "prefecture_kana": "エヒメケン",
    "prefecture_code": 38,
    "city": "北宇和郡鬼北町",
    "city_kana": "キタウワグンキホクチョウ",
    "town": "下大野",
    "town_kana": "シモオオノ",
    "street": null,
    "office_name": null,
    "office_name_kana": null
  },
  "1303": {
    "zip_code": "7981303",
    "prefecture": "愛媛県",
    "prefecture_kana": "エヒメケン",
    "prefecture_code": 38,
    "city": "北宇和郡鬼北町",
    "city_kana": "キタウワグンキホクチョウ",
    "town": "広見",
    "town_kana": "ヒロミ",
    "street": null,
    "office_name": null,
    "office_name_kana": null
  },
  "1311": {
    "zip_code": "7981311",
    "prefecture": "愛媛県",
    "prefecture_kana": "エヒメケン",
    "prefecture_code": 38,
    "city": "北宇和郡鬼北町",
    "city_kana": "キタウワグンキホクチョウ",
    "town": "小松",
    "town_kana": "コマツ",
    "street": null,
    "office_name": null,
    "office_name_kana": null
  },
  "1312": {
    "zip_code": "7981312",
    "prefecture": "愛媛県",
    "prefecture_kana": "エヒメケン",
    "prefecture_code": 38,
    "city": "北宇和郡鬼北町",
    "city_kana": "キタウワグンキホクチョウ",
    "town": "川上",
    "town_kana": "カワカミ",
    "street": null,
    "office_name": null,
    "office_name_kana": null
  },
  "1313": {
    "zip_code": "7981313",
    "prefecture": "愛媛県",
    "prefecture_kana": "エヒメケン",
    "prefecture_code": 38,
    "city": "北宇和郡鬼北町",
    "city_kana": "キタウワグンキホクチョウ",
    "town": "延川",
    "town_kana": "ノブカワ",
    "street": null,
    "office_name": null,
    "office_name_kana": null
  },
  "1314": {
    "zip_code": "7981314",
    "prefecture": "愛媛県",
    "prefecture_kana": "エヒメケン",
    "prefecture_code": 38,
    "city": "北宇和郡鬼北町",
    "city_kana": "キタウワグンキホクチョウ",
    "town": "久保",
    "town_kana": "クボ",
    "street": null,
    "office_name": null,
    "office_name_kana": null
  },
  "1321": {
    "zip_code": "7981321",
    "prefecture": "愛媛県",
    "prefecture_kana": "エヒメケン",
    "prefecture_code": 38,
    "city": "北宇和郡鬼北町",
    "city_kana": "キタウワグンキホクチョウ",
    "town": "小倉",
    "town_kana": "オグワ",
    "street": null,
    "office_name": null,
    "office_name_kana": null
  },
  "1322": {
    "zip_code": "7981322",
    "prefecture": "愛媛県",
    "prefecture_kana": "エヒメケン",
    "prefecture_code": 38,
    "city": "北宇和郡鬼北町",
    "city_kana": "キタウワグンキホクチョウ",
    "town": "上川",
    "town_kana": "カミカワ",
    "street": null,
    "office_name": null,
    "office_name_kana": null
  },
  "1323": {
    "zip_code": "7981323",
    "prefecture": "愛媛県",
    "prefecture_kana": "エヒメケン",
    "prefecture_code": 38,
    "city": "北宇和郡鬼北町",
    "city_kana": "キタウワグンキホクチョウ",
    "town": "岩谷",
    "town_kana": "イワヤ",
    "street": null,
    "office_name": null,
    "office_name_kana": null
  },
  "1324": {
    "zip_code": "7981324",
    "prefecture": "愛媛県",
    "prefecture_kana": "エヒメケン",
    "prefecture_code": 38,
    "city": "北宇和郡鬼北町",
    "city_kana": "キタウワグンキホクチョウ",
    "town": "小西野々",
    "town_kana": "コニシノノ",
    "street": null,
    "office_name": null,
    "office_name_kana": null
  },
  "1331": {
    "zip_code": "7981331",
    "prefecture": "愛媛県",
    "prefecture_kana": "エヒメケン",
    "prefecture_code": 38,
    "city": "北宇和郡鬼北町",
    "city_kana": "キタウワグンキホクチョウ",
    "town": "興野々",
    "town_kana": "オキノノ",
    "street": null,
    "office_name": null,
    "office_name_kana": null
  },
  "1332": {
    "zip_code": "7981332",
    "prefecture": "愛媛県",
    "prefecture_kana": "エヒメケン",
    "prefecture_code": 38,
    "city": "北宇和郡鬼北町",
    "city_kana": "キタウワグンキホクチョウ",
    "town": "出目",
    "town_kana": "イズメ",
    "street": null,
    "office_name": null,
    "office_name_kana": null
  },
  "1333": {
    "zip_code": "7981333",
    "prefecture": "愛媛県",
    "prefecture_kana": "エヒメケン",
    "prefecture_code": 38,
    "city": "北宇和郡鬼北町",
    "city_kana": "キタウワグンキホクチョウ",
    "town": "永野市",
    "town_kana": "ナガノイチ",
    "street": null,
    "office_name": null,
    "office_name_kana": null
  },
  "1341": [
    {
      "zip_code": "7981341",
      "prefecture": "愛媛県",
      "prefecture_kana": "エヒメケン",
      "prefecture_code": 38,
      "city": "北宇和郡鬼北町",
      "city_kana": "キタウワグンキホクチョウ",
      "town": "近永",
      "town_kana": "チカナガ",
      "street": null,
      "office_name": null,
      "office_name_kana": null
    },
    {
      "zip_code": "7981341",
      "prefecture": "愛媛県",
      "prefecture_kana": "エヒメケン",
      "prefecture_code": 38,
      "city": "北宇和郡鬼北町",
      "city_kana": "キタウワグンキホクチョウ",
      "town": "近永旭町",
      "town_kana": "チカナガアサヒマチ",
      "street": null,
      "office_name": null,
      "office_name_kana": null
    }
  ],
  "1342": [
    {
      "zip_code": "7981342",
      "prefecture": "愛媛県",
      "prefecture_kana": "エヒメケン",
      "prefecture_code": 38,
      "city": "北宇和郡鬼北町",
      "city_kana": "キタウワグンキホクチョウ",
      "town": "近永",
      "town_kana": "チカナガ",
      "street": null,
      "office_name": null,
      "office_name_kana": null
    },
    {
      "zip_code": "7981342",
      "prefecture": "愛媛県",
      "prefecture_kana": "エヒメケン",
      "prefecture_code": 38,
      "city": "北宇和郡鬼北町",
      "city_kana": "キタウワグンキホクチョウ",
      "town": "近永栄町",
      "town_kana": "チカナガサカエマチ",
      "street": null,
      "office_name": null,
      "office_name_kana": null
    }
  ],
  "1343": [
    {
      "zip_code": "7981343",
      "prefecture": "愛媛県",
      "prefecture_kana": "エヒメケン",
      "prefecture_code": 38,
      "city": "北宇和郡鬼北町",
      "city_kana": "キタウワグンキホクチョウ",
      "town": "近永",
      "town_kana": "チカナガ",
      "street": null,
      "office_name": null,
      "office_name_kana": null
    },
    {
      "zip_code": "7981343",
      "prefecture": "愛媛県",
      "prefecture_kana": "エヒメケン",
      "prefecture_code": 38,
      "city": "北宇和郡鬼北町",
      "city_kana": "キタウワグンキホクチョウ",
      "town": "近永新町",
      "town_kana": "チカナガシンマチ",
      "street": null,
      "office_name": null,
      "office_name_kana": null
    }
  ],
  "1344": [
    {
      "zip_code": "7981344",
      "prefecture": "愛媛県",
      "prefecture_kana": "エヒメケン",
      "prefecture_code": 38,
      "city": "北宇和郡鬼北町",
      "city_kana": "キタウワグンキホクチョウ",
      "town": "近永",
      "town_kana": "チカナガ",
      "street": null,
      "office_name": null,
      "office_name_kana": null
    },
    {
      "zip_code": "7981344",
      "prefecture": "愛媛県",
      "prefecture_kana": "エヒメケン",
      "prefecture_code": 38,
      "city": "北宇和郡鬼北町",
      "city_kana": "キタウワグンキホクチョウ",
      "town": "近永本町",
      "town_kana": "チカナガホンマチ",
      "street": null,
      "office_name": null,
      "office_name_kana": null
    }
  ],
  "1345": [
    {
      "zip_code": "7981345",
      "prefecture": "愛媛県",
      "prefecture_kana": "エヒメケン",
      "prefecture_code": 38,
      "city": "北宇和郡鬼北町",
      "city_kana": "キタウワグンキホクチョウ",
      "town": "近永",
      "town_kana": "チカナガ",
      "street": null,
      "office_name": null,
      "office_name_kana": null
    },
    {
      "zip_code": "7981345",
      "prefecture": "愛媛県",
      "prefecture_kana": "エヒメケン",
      "prefecture_code": 38,
      "city": "北宇和郡鬼北町",
      "city_kana": "キタウワグンキホクチョウ",
      "town": "近永南町",
      "town_kana": "チカナガミナミマチ",
      "street": null,
      "office_name": null,
      "office_name_kana": null
    }
  ],
  "1351": {
    "zip_code": "7981351",
    "prefecture": "愛媛県",
    "prefecture_kana": "エヒメケン",
    "prefecture_code": 38,
    "city": "北宇和郡鬼北町",
    "city_kana": "キタウワグンキホクチョウ",
    "town": "奈良",
    "town_kana": "ナラ",
    "street": null,
    "office_name": null,
    "office_name_kana": null
  },
  "1352": [
    {
      "zip_code": "7981352",
      "prefecture": "愛媛県",
      "prefecture_kana": "エヒメケン",
      "prefecture_code": 38,
      "city": "北宇和郡鬼北町",
      "city_kana": "キタウワグンキホクチョウ",
      "town": "奈良",
      "town_kana": "ナラ",
      "street": null,
      "office_name": null,
      "office_name_kana": null
    },
    {
      "zip_code": "7981352",
      "prefecture": "愛媛県",
      "prefecture_kana": "エヒメケン",
      "prefecture_code": 38,
      "city": "北宇和郡鬼北町",
      "city_kana": "キタウワグンキホクチョウ",
      "town": "奈良成川",
      "town_kana": "ナラナルカワ",
      "street": null,
      "office_name": null,
      "office_name_kana": null
    }
  ],
  "1353": [
    {
      "zip_code": "7981353",
      "prefecture": "愛媛県",
      "prefecture_kana": "エヒメケン",
      "prefecture_code": 38,
      "city": "北宇和郡鬼北町",
      "city_kana": "キタウワグンキホクチョウ",
      "town": "奈良",
      "town_kana": "ナラ",
      "street": null,
      "office_name": null,
      "office_name_kana": null
    },
    {
      "zip_code": "7981353",
      "prefecture": "愛媛県",
      "prefecture_kana": "エヒメケン",
      "prefecture_code": 38,
      "city": "北宇和郡鬼北町",
      "city_kana": "キタウワグンキホクチョウ",
      "town": "奈良水分",
      "town_kana": "ナラミズワカレ",
      "street": null,
      "office_name": null,
      "office_name_kana": null
    }
  ],
  "1354": {
    "zip_code": "7981354",
    "prefecture": "愛媛県",
    "prefecture_kana": "エヒメケン",
    "prefecture_code": 38,
    "city": "北宇和郡鬼北町",
    "city_kana": "キタウワグンキホクチョウ",
    "town": "北川",
    "town_kana": "キタガワ",
    "street": null,
    "office_name": null,
    "office_name_kana": null
  },
  "1355": {
    "zip_code": "7981355",
    "prefecture": "愛媛県",
    "prefecture_kana": "エヒメケン",
    "prefecture_code": 38,
    "city": "北宇和郡鬼北町",
    "city_kana": "キタウワグンキホクチョウ",
    "town": "芝",
    "town_kana": "シバ",
    "street": null,
    "office_name": null,
    "office_name_kana": null
  },
  "1356": {
    "zip_code": "7981356",
    "prefecture": "愛媛県",
    "prefecture_kana": "エヒメケン",
    "prefecture_code": 38,
    "city": "北宇和郡鬼北町",
    "city_kana": "キタウワグンキホクチョウ",
    "town": "中野川",
    "town_kana": "ナカノカワ",
    "street": null,
    "office_name": null,
    "office_name_kana": null
  },
  "1361": {
    "zip_code": "7981361",
    "prefecture": "愛媛県",
    "prefecture_kana": "エヒメケン",
    "prefecture_code": 38,
    "city": "北宇和郡鬼北町",
    "city_kana": "キタウワグンキホクチョウ",
    "town": "国遠",
    "town_kana": "クニトオ",
    "street": null,
    "office_name": null,
    "office_name_kana": null
  },
  "1362": {
    "zip_code": "7981362",
    "prefecture": "愛媛県",
    "prefecture_kana": "エヒメケン",
    "prefecture_code": 38,
    "city": "北宇和郡鬼北町",
    "city_kana": "キタウワグンキホクチョウ",
    "town": "清延",
    "town_kana": "キヨノブ",
    "street": null,
    "office_name": null,
    "office_name_kana": null
  },
  "1363": {
    "zip_code": "7981363",
    "prefecture": "愛媛県",
    "prefecture_kana": "エヒメケン",
    "prefecture_code": 38,
    "city": "北宇和郡鬼北町",
    "city_kana": "キタウワグンキホクチョウ",
    "town": "内深田",
    "town_kana": "ウチフカタ",
    "street": null,
    "office_name": null,
    "office_name_kana": null
  },
  "1364": {
    "zip_code": "7981364",
    "prefecture": "愛媛県",
    "prefecture_kana": "エヒメケン",
    "prefecture_code": 38,
    "city": "北宇和郡鬼北町",
    "city_kana": "キタウワグンキホクチョウ",
    "town": "吉波",
    "town_kana": "ヨシナミ",
    "street": null,
    "office_name": null,
    "office_name_kana": null
  },
  "1365": {
    "zip_code": "7981365",
    "prefecture": "愛媛県",
    "prefecture_kana": "エヒメケン",
    "prefecture_code": 38,
    "city": "北宇和郡鬼北町",
    "city_kana": "キタウワグンキホクチョウ",
    "town": "西仲",
    "town_kana": "ニシナカ",
    "street": null,
    "office_name": null,
    "office_name_kana": null
  },
  "1366": {
    "zip_code": "7981366",
    "prefecture": "愛媛県",
    "prefecture_kana": "エヒメケン",
    "prefecture_code": 38,
    "city": "北宇和郡鬼北町",
    "city_kana": "キタウワグンキホクチョウ",
    "town": "東仲",
    "town_kana": "ヒガシナカ",
    "street": null,
    "office_name": null,
    "office_name_kana": null
  },
  "1367": {
    "zip_code": "7981367",
    "prefecture": "愛媛県",
    "prefecture_kana": "エヒメケン",
    "prefecture_code": 38,
    "city": "北宇和郡鬼北町",
    "city_kana": "キタウワグンキホクチョウ",
    "town": "沢松",
    "town_kana": "サワマツ",
    "street": null,
    "office_name": null,
    "office_name_kana": null
  },
  "1371": {
    "zip_code": "7981371",
    "prefecture": "愛媛県",
    "prefecture_kana": "エヒメケン",
    "prefecture_code": 38,
    "city": "北宇和郡鬼北町",
    "city_kana": "キタウワグンキホクチョウ",
    "town": "生田",
    "town_kana": "イクタ",
    "street": null,
    "office_name": null,
    "office_name_kana": null
  },
  "1372": {
    "zip_code": "7981372",
    "prefecture": "愛媛県",
    "prefecture_kana": "エヒメケン",
    "prefecture_code": 38,
    "city": "北宇和郡鬼北町",
    "city_kana": "キタウワグンキホクチョウ",
    "town": "西野々",
    "town_kana": "ニシノノ",
    "street": null,
    "office_name": null,
    "office_name_kana": null
  },
  "1373": {
    "zip_code": "7981373",
    "prefecture": "愛媛県",
    "prefecture_kana": "エヒメケン",
    "prefecture_code": 38,
    "city": "北宇和郡鬼北町",
    "city_kana": "キタウワグンキホクチョウ",
    "town": "清水",
    "town_kana": "セイズイ",
    "street": null,
    "office_name": null,
    "office_name_kana": null
  },
  "1374": {
    "zip_code": "7981374",
    "prefecture": "愛媛県",
    "prefecture_kana": "エヒメケン",
    "prefecture_code": 38,
    "city": "北宇和郡鬼北町",
    "city_kana": "キタウワグンキホクチョウ",
    "town": "成藤",
    "town_kana": "ナリフジ",
    "street": null,
    "office_name": null,
    "office_name_kana": null
  },
  "1375": {
    "zip_code": "7981375",
    "prefecture": "愛媛県",
    "prefecture_kana": "エヒメケン",
    "prefecture_code": 38,
    "city": "北宇和郡鬼北町",
    "city_kana": "キタウワグンキホクチョウ",
    "town": "畔屋",
    "town_kana": "アゼヤ",
    "street": null,
    "office_name": null,
    "office_name_kana": null
  },
  "1392": {
    "zip_code": "7981392",
    "prefecture": "愛媛県",
    "prefecture_kana": null,
    "prefecture_code": null,
    "city": "北宇和郡鬼北町",
    "city_kana": null,
    "town": "大字近永",
    "town_kana": null,
    "street": "旭町４５５",
    "office_name": "鬼北町立　北宇和病院",
    "office_name_kana": "キホクチヨウリツ キタウワビヨウイン"
  },
  "1393": {
    "zip_code": "7981393",
    "prefecture": "愛媛県",
    "prefecture_kana": null,
    "prefecture_code": null,
    "city": "北宇和郡鬼北町",
    "city_kana": null,
    "town": "大字永野市",
    "town_kana": null,
    "street": "１６０７",
    "office_name": "旭川荘南愛媛病院・南愛媛養育センター",
    "office_name_kana": "アサヒカワソウミナミエヒメビヨウイン・ミナミエヒメヨウイクセンタ-"
  },
  "1395": {
    "zip_code": "7981395",
    "prefecture": "愛媛県",
    "prefecture_kana": null,
    "prefecture_code": null,
    "city": "北宇和郡鬼北町",
    "city_kana": null,
    "town": "大字近永",
    "town_kana": null,
    "street": "旭町８００−１（広見郵便局私書箱第１０号）",
    "office_name": "鬼北町役場",
    "office_name_kana": "キホクチヨウヤクバ"
  },
  "1397": {
    "zip_code": "7981397",
    "prefecture": "愛媛県",
    "prefecture_kana": null,
    "prefecture_code": null,
    "city": "北宇和郡鬼北町",
    "city_kana": null,
    "town": "大字近永",
    "town_kana": null,
    "street": "新町９４２（広見郵便局私書箱第１１号）",
    "office_name": "愛媛県立　北宇和高等学校",
    "office_name_kana": "エヒメケンリツ キタウワコウトウガツコウ"
  },
  "1501": {
    "zip_code": "7981501",
    "prefecture": "愛媛県",
    "prefecture_kana": "エヒメケン",
    "prefecture_code": 38,
    "city": "北宇和郡鬼北町",
    "city_kana": "キタウワグンキホクチョウ",
    "town": "上鍵山",
    "town_kana": "カミカギヤマ",
    "street": null,
    "office_name": null,
    "office_name_kana": null
  },
  "1502": {
    "zip_code": "7981502",
    "prefecture": "愛媛県",
    "prefecture_kana": "エヒメケン",
    "prefecture_code": 38,
    "city": "北宇和郡鬼北町",
    "city_kana": "キタウワグンキホクチョウ",
    "town": "下鍵山",
    "town_kana": "シモカギヤマ",
    "street": null,
    "office_name": null,
    "office_name_kana": null
  },
  "1503": {
    "zip_code": "7981503",
    "prefecture": "愛媛県",
    "prefecture_kana": "エヒメケン",
    "prefecture_code": 38,
    "city": "北宇和郡鬼北町",
    "city_kana": "キタウワグンキホクチョウ",
    "town": "上大野",
    "town_kana": "カミオオノ",
    "street": null,
    "office_name": null,
    "office_name_kana": null
  },
  "1504": {
    "zip_code": "7981504",
    "prefecture": "愛媛県",
    "prefecture_kana": "エヒメケン",
    "prefecture_code": 38,
    "city": "北宇和郡鬼北町",
    "city_kana": "キタウワグンキホクチョウ",
    "town": "日向谷",
    "town_kana": "ヒュウガイ",
    "street": null,
    "office_name": null,
    "office_name_kana": null
  },
  "1505": {
    "zip_code": "7981505",
    "prefecture": "愛媛県",
    "prefecture_kana": "エヒメケン",
    "prefecture_code": 38,
    "city": "北宇和郡鬼北町",
    "city_kana": "キタウワグンキホクチョウ",
    "town": "父野川上",
    "town_kana": "チチノカワカミ",
    "street": null,
    "office_name": null,
    "office_name_kana": null
  },
  "1506": {
    "zip_code": "7981506",
    "prefecture": "愛媛県",
    "prefecture_kana": "エヒメケン",
    "prefecture_code": 38,
    "city": "北宇和郡鬼北町",
    "city_kana": "キタウワグンキホクチョウ",
    "town": "父野川中",
    "town_kana": "チチノカワナカ",
    "street": null,
    "office_name": null,
    "office_name_kana": null
  },
  "1507": {
    "zip_code": "7981507",
    "prefecture": "愛媛県",
    "prefecture_kana": "エヒメケン",
    "prefecture_code": 38,
    "city": "北宇和郡鬼北町",
    "city_kana": "キタウワグンキホクチョウ",
    "town": "父野川下",
    "town_kana": "チチノカワシモ",
    "street": null,
    "office_name": null,
    "office_name_kana": null
  },
  "2100": {
    "zip_code": "7982100",
    "prefecture": "愛媛県",
    "prefecture_kana": "エヒメケン",
    "prefecture_code": 38,
    "city": "北宇和郡松野町",
    "city_kana": "キタウワグンマツノチョウ",
    "town": "",
    "town_kana": "",
    "street": null,
    "office_name": null,
    "office_name_kana": null
  },
  "2101": {
    "zip_code": "7982101",
    "prefecture": "愛媛県",
    "prefecture_kana": "エヒメケン",
    "prefecture_code": 38,
    "city": "北宇和郡松野町",
    "city_kana": "キタウワグンマツノチョウ",
    "town": "松丸",
    "town_kana": "マツマル",
    "street": null,
    "office_name": null,
    "office_name_kana": null
  },
  "2102": {
    "zip_code": "7982102",
    "prefecture": "愛媛県",
    "prefecture_kana": "エヒメケン",
    "prefecture_code": 38,
    "city": "北宇和郡松野町",
    "city_kana": "キタウワグンマツノチョウ",
    "town": "延野々",
    "town_kana": "ノビノノ",
    "street": null,
    "office_name": null,
    "office_name_kana": null
  },
  "2103": {
    "zip_code": "7982103",
    "prefecture": "愛媛県",
    "prefecture_kana": "エヒメケン",
    "prefecture_code": 38,
    "city": "北宇和郡松野町",
    "city_kana": "キタウワグンマツノチョウ",
    "town": "豊岡",
    "town_kana": "トヨオカ",
    "street": null,
    "office_name": null,
    "office_name_kana": null
  },
  "2104": {
    "zip_code": "7982104",
    "prefecture": "愛媛県",
    "prefecture_kana": "エヒメケン",
    "prefecture_code": 38,
    "city": "北宇和郡松野町",
    "city_kana": "キタウワグンマツノチョウ",
    "town": "富岡",
    "town_kana": "トミオカ",
    "street": null,
    "office_name": null,
    "office_name_kana": null
  },
  "2105": {
    "zip_code": "7982105",
    "prefecture": "愛媛県",
    "prefecture_kana": "エヒメケン",
    "prefecture_code": 38,
    "city": "北宇和郡松野町",
    "city_kana": "キタウワグンマツノチョウ",
    "town": "上家地",
    "town_kana": "カミイエジ",
    "street": null,
    "office_name": null,
    "office_name_kana": null
  },
  "2106": {
    "zip_code": "7982106",
    "prefecture": "愛媛県",
    "prefecture_kana": "エヒメケン",
    "prefecture_code": 38,
    "city": "北宇和郡松野町",
    "city_kana": "キタウワグンマツノチョウ",
    "town": "目黒",
    "town_kana": "メグロ",
    "street": null,
    "office_name": null,
    "office_name_kana": null
  },
  "2111": {
    "zip_code": "7982111",
    "prefecture": "愛媛県",
    "prefecture_kana": "エヒメケン",
    "prefecture_code": 38,
    "city": "北宇和郡松野町",
    "city_kana": "キタウワグンマツノチョウ",
    "town": "吉野",
    "town_kana": "ヨシノ",
    "street": null,
    "office_name": null,
    "office_name_kana": null
  },
  "2112": {
    "zip_code": "7982112",
    "prefecture": "愛媛県",
    "prefecture_kana": "エヒメケン",
    "prefecture_code": 38,
    "city": "北宇和郡松野町",
    "city_kana": "キタウワグンマツノチョウ",
    "town": "蕨生",
    "town_kana": "ワラビョウ",
    "street": null,
    "office_name": null,
    "office_name_kana": null
  },
  "2113": {
    "zip_code": "7982113",
    "prefecture": "愛媛県",
    "prefecture_kana": "エヒメケン",
    "prefecture_code": 38,
    "city": "北宇和郡松野町",
    "city_kana": "キタウワグンマツノチョウ",
    "town": "奥野川",
    "town_kana": "オクノカワ",
    "street": null,
    "office_name": null,
    "office_name_kana": null
  },
  "2146": [
    {
      "zip_code": "7982146",
      "prefecture": "愛媛県",
      "prefecture_kana": "エヒメケン",
      "prefecture_code": 38,
      "city": "宇和島市",
      "city_kana": "ウワジマシ",
      "town": "野川",
      "town_kana": "ノガワ",
      "street": null,
      "office_name": null,
      "office_name_kana": null
    },
    {
      "zip_code": "7982146",
      "prefecture": "愛媛県",
      "prefecture_kana": "エヒメケン",
      "prefecture_code": 38,
      "city": "宇和島市",
      "city_kana": "ウワジマシ",
      "town": "野川滑床",
      "town_kana": "ノガワナメトコ",
      "street": null,
      "office_name": null,
      "office_name_kana": null
    }
  ],
  "2192": {
    "zip_code": "7982192",
    "prefecture": "愛媛県",
    "prefecture_kana": null,
    "prefecture_code": null,
    "city": "北宇和郡松野町",
    "city_kana": null,
    "town": "大字松丸",
    "town_kana": null,
    "street": "３４３",
    "office_name": "松野町役場",
    "office_name_kana": "マツノチヨウヤクバ"
  },
  "3271": {
    "zip_code": "7983271",
    "prefecture": "愛媛県",
    "prefecture_kana": "エヒメケン",
    "prefecture_code": 38,
    "city": "宇和島市",
    "city_kana": "ウワジマシ",
    "town": "津島町御内",
    "town_kana": "ツシマチョウミウチ",
    "street": null,
    "office_name": null,
    "office_name_kana": null
  },
  "3272": {
    "zip_code": "7983272",
    "prefecture": "愛媛県",
    "prefecture_kana": "エヒメケン",
    "prefecture_code": 38,
    "city": "宇和島市",
    "city_kana": "ウワジマシ",
    "town": "津島町槇川",
    "town_kana": "ツシマチョウマキガワ",
    "street": null,
    "office_name": null,
    "office_name_kana": null
  },
  "3301": {
    "zip_code": "7983301",
    "prefecture": "愛媛県",
    "prefecture_kana": "エヒメケン",
    "prefecture_code": 38,
    "city": "宇和島市",
    "city_kana": "ウワジマシ",
    "town": "津島町岩松",
    "town_kana": "ツシマチョウイワマツ",
    "street": null,
    "office_name": null,
    "office_name_kana": null
  },
  "3302": {
    "zip_code": "7983302",
    "prefecture": "愛媛県",
    "prefecture_kana": "エヒメケン",
    "prefecture_code": 38,
    "city": "宇和島市",
    "city_kana": "ウワジマシ",
    "town": "津島町高田",
    "town_kana": "ツシマチョウタカタ",
    "street": null,
    "office_name": null,
    "office_name_kana": null
  },
  "3303": {
    "zip_code": "7983303",
    "prefecture": "愛媛県",
    "prefecture_kana": "エヒメケン",
    "prefecture_code": 38,
    "city": "宇和島市",
    "city_kana": "ウワジマシ",
    "town": "津島町近家",
    "town_kana": "ツシマチョウチカイエ",
    "street": null,
    "office_name": null,
    "office_name_kana": null
  },
  "3311": {
    "zip_code": "7983311",
    "prefecture": "愛媛県",
    "prefecture_kana": "エヒメケン",
    "prefecture_code": 38,
    "city": "宇和島市",
    "city_kana": "ウワジマシ",
    "town": "津島町岩淵",
    "town_kana": "ツシマチョウイワブチ",
    "street": null,
    "office_name": null,
    "office_name_kana": null
  },
  "3312": {
    "zip_code": "7983312",
    "prefecture": "愛媛県",
    "prefecture_kana": "エヒメケン",
    "prefecture_code": 38,
    "city": "宇和島市",
    "city_kana": "ウワジマシ",
    "town": "津島町山財",
    "town_kana": "ツシマチョウサンザイ",
    "street": null,
    "office_name": null,
    "office_name_kana": null
  },
  "3313": {
    "zip_code": "7983313",
    "prefecture": "愛媛県",
    "prefecture_kana": "エヒメケン",
    "prefecture_code": 38,
    "city": "宇和島市",
    "city_kana": "ウワジマシ",
    "town": "津島町増穂",
    "town_kana": "ツシマチョウマスホ",
    "street": null,
    "office_name": null,
    "office_name_kana": null
  },
  "3321": {
    "zip_code": "7983321",
    "prefecture": "愛媛県",
    "prefecture_kana": "エヒメケン",
    "prefecture_code": 38,
    "city": "宇和島市",
    "city_kana": "ウワジマシ",
    "town": "津島町下畑地",
    "town_kana": "ツシマチョウシモハタジ",
    "street": null,
    "office_name": null,
    "office_name_kana": null
  },
  "3322": [
    {
      "zip_code": "7983322",
      "prefecture": "愛媛県",
      "prefecture_kana": "エヒメケン",
      "prefecture_code": 38,
      "city": "宇和島市",
      "city_kana": "ウワジマシ",
      "town": "津島町下畑地乙",
      "town_kana": "ツシマチョウシモハタジオツ",
      "street": null,
      "office_name": null,
      "office_name_kana": null
    },
    {
      "zip_code": "7983322",
      "prefecture": "愛媛県",
      "prefecture_kana": "エヒメケン",
      "prefecture_code": 38,
      "city": "宇和島市",
      "city_kana": "ウワジマシ",
      "town": "津島町下畑地乙上槇",
      "town_kana": "ツシマチョウシモハタジオツカミマキ",
      "street": null,
      "office_name": null,
      "office_name_kana": null
    }
  ],
  "3323": {
    "zip_code": "7983323",
    "prefecture": "愛媛県",
    "prefecture_kana": "エヒメケン",
    "prefecture_code": 38,
    "city": "宇和島市",
    "city_kana": "ウワジマシ",
    "town": "津島町上畑地",
    "town_kana": "ツシマチョウカミハタジ",
    "street": null,
    "office_name": null,
    "office_name_kana": null
  },
  "3331": {
    "zip_code": "7983331",
    "prefecture": "愛媛県",
    "prefecture_kana": "エヒメケン",
    "prefecture_code": 38,
    "city": "宇和島市",
    "city_kana": "ウワジマシ",
    "town": "津島町後",
    "town_kana": "ツシマチョウウシロ",
    "street": null,
    "office_name": null,
    "office_name_kana": null
  },
  "3332": {
    "zip_code": "7983332",
    "prefecture": "愛媛県",
    "prefecture_kana": "エヒメケン",
    "prefecture_code": 38,
    "city": "宇和島市",
    "city_kana": "ウワジマシ",
    "town": "津島町須下",
    "town_kana": "ツシマチョウスゲ",
    "street": null,
    "office_name": null,
    "office_name_kana": null
  },
  "3333": {
    "zip_code": "7983333",
    "prefecture": "愛媛県",
    "prefecture_kana": "エヒメケン",
    "prefecture_code": 38,
    "city": "宇和島市",
    "city_kana": "ウワジマシ",
    "town": "津島町成",
    "town_kana": "ツシマチョウナル",
    "street": null,
    "office_name": null,
    "office_name_kana": null
  },
  "3334": {
    "zip_code": "7983334",
    "prefecture": "愛媛県",
    "prefecture_kana": "エヒメケン",
    "prefecture_code": 38,
    "city": "宇和島市",
    "city_kana": "ウワジマシ",
    "town": "津島町漁家",
    "town_kana": "ツシマチョウリョウケ",
    "street": null,
    "office_name": null,
    "office_name_kana": null
  },
  "3335": {
    "zip_code": "7983335",
    "prefecture": "愛媛県",
    "prefecture_kana": "エヒメケン",
    "prefecture_code": 38,
    "city": "宇和島市",
    "city_kana": "ウワジマシ",
    "town": "津島町平井",
    "town_kana": "ツシマチョウヒライ",
    "street": null,
    "office_name": null,
    "office_name_kana": null
  },
  "3336": {
    "zip_code": "7983336",
    "prefecture": "愛媛県",
    "prefecture_kana": "エヒメケン",
    "prefecture_code": 38,
    "city": "宇和島市",
    "city_kana": "ウワジマシ",
    "town": "津島町曲烏",
    "town_kana": "ツシマチョウマガラス",
    "street": null,
    "office_name": null,
    "office_name_kana": null
  },
  "3337": {
    "zip_code": "7983337",
    "prefecture": "愛媛県",
    "prefecture_kana": "エヒメケン",
    "prefecture_code": 38,
    "city": "宇和島市",
    "city_kana": "ウワジマシ",
    "town": "津島町大浦",
    "town_kana": "ツシマチョウオオウラ",
    "street": null,
    "office_name": null,
    "office_name_kana": null
  },
  "3338": {
    "zip_code": "7983338",
    "prefecture": "愛媛県",
    "prefecture_kana": "エヒメケン",
    "prefecture_code": 38,
    "city": "宇和島市",
    "city_kana": "ウワジマシ",
    "town": "津島町柿之浦",
    "town_kana": "ツシマチョウカキノウラ",
    "street": null,
    "office_name": null,
    "office_name_kana": null
  },
  "3341": {
    "zip_code": "7983341",
    "prefecture": "愛媛県",
    "prefecture_kana": "エヒメケン",
    "prefecture_code": 38,
    "city": "宇和島市",
    "city_kana": "ウワジマシ",
    "town": "津島町塩定",
    "town_kana": "ツシマチョウエンジョウ",
    "street": null,
    "office_name": null,
    "office_name_kana": null
  },
  "3342": {
    "zip_code": "7983342",
    "prefecture": "愛媛県",
    "prefecture_kana": "エヒメケン",
    "prefecture_code": 38,
    "city": "宇和島市",
    "city_kana": "ウワジマシ",
    "town": "津島町浦知",
    "town_kana": "ツシマチョウウラシリ",
    "street": null,
    "office_name": null,
    "office_name_kana": null
  },
  "3343": {
    "zip_code": "7983343",
    "prefecture": "愛媛県",
    "prefecture_kana": "エヒメケン",
    "prefecture_code": 38,
    "city": "宇和島市",
    "city_kana": "ウワジマシ",
    "town": "津島町針木",
    "town_kana": "ツシマチョウハリギ",
    "street": null,
    "office_name": null,
    "office_name_kana": null
  },
  "3344": {
    "zip_code": "7983344",
    "prefecture": "愛媛県",
    "prefecture_kana": "エヒメケン",
    "prefecture_code": 38,
    "city": "宇和島市",
    "city_kana": "ウワジマシ",
    "town": "津島町嵐",
    "town_kana": "ツシマチョウアラシ",
    "street": null,
    "office_name": null,
    "office_name_kana": null
  },
  "3345": {
    "zip_code": "7983345",
    "prefecture": "愛媛県",
    "prefecture_kana": "エヒメケン",
    "prefecture_code": 38,
    "city": "宇和島市",
    "city_kana": "ウワジマシ",
    "town": "津島町横浦",
    "town_kana": "ツシマチョウヨコウラ",
    "street": null,
    "office_name": null,
    "office_name_kana": null
  },
  "3346": {
    "zip_code": "7983346",
    "prefecture": "愛媛県",
    "prefecture_kana": "エヒメケン",
    "prefecture_code": 38,
    "city": "宇和島市",
    "city_kana": "ウワジマシ",
    "town": "津島町鼡鳴",
    "town_kana": "ツシマチョウネズナキ",
    "street": null,
    "office_name": null,
    "office_name_kana": null
  },
  "3351": {
    "zip_code": "7983351",
    "prefecture": "愛媛県",
    "prefecture_kana": "エヒメケン",
    "prefecture_code": 38,
    "city": "宇和島市",
    "city_kana": "ウワジマシ",
    "town": "津島町弓立",
    "town_kana": "ツシマチョウユダチ",
    "street": null,
    "office_name": null,
    "office_name_kana": null
  },
  "3352": {
    "zip_code": "7983352",
    "prefecture": "愛媛県",
    "prefecture_kana": "エヒメケン",
    "prefecture_code": 38,
    "city": "宇和島市",
    "city_kana": "ウワジマシ",
    "town": "津島町坪井",
    "town_kana": "ツシマチョウツボイ",
    "street": null,
    "office_name": null,
    "office_name_kana": null
  },
  "3353": {
    "zip_code": "7983353",
    "prefecture": "愛媛県",
    "prefecture_kana": "エヒメケン",
    "prefecture_code": 38,
    "city": "宇和島市",
    "city_kana": "ウワジマシ",
    "town": "津島町泥目水",
    "town_kana": "ツシマチョウドロメズ",
    "street": null,
    "office_name": null,
    "office_name_kana": null
  },
  "3354": {
    "zip_code": "7983354",
    "prefecture": "愛媛県",
    "prefecture_kana": "エヒメケン",
    "prefecture_code": 38,
    "city": "宇和島市",
    "city_kana": "ウワジマシ",
    "town": "津島町田颪",
    "town_kana": "ツシマチョウタオロシ",
    "street": null,
    "office_name": null,
    "office_name_kana": null
  },
  "3355": {
    "zip_code": "7983355",
    "prefecture": "愛媛県",
    "prefecture_kana": "エヒメケン",
    "prefecture_code": 38,
    "city": "宇和島市",
    "city_kana": "ウワジマシ",
    "town": "津島町脇",
    "town_kana": "ツシマチョウワキ",
    "street": null,
    "office_name": null,
    "office_name_kana": null
  },
  "3356": {
    "zip_code": "7983356",
    "prefecture": "愛媛県",
    "prefecture_kana": "エヒメケン",
    "prefecture_code": 38,
    "city": "宇和島市",
    "city_kana": "ウワジマシ",
    "town": "津島町曽根",
    "town_kana": "ツシマチョウソネ",
    "street": null,
    "office_name": null,
    "office_name_kana": null
  },
  "3357": {
    "zip_code": "7983357",
    "prefecture": "愛媛県",
    "prefecture_kana": "エヒメケン",
    "prefecture_code": 38,
    "city": "宇和島市",
    "city_kana": "ウワジマシ",
    "town": "津島町田之浜",
    "town_kana": "ツシマチョウタノハマ",
    "street": null,
    "office_name": null,
    "office_name_kana": null
  },
  "3358": {
    "zip_code": "7983358",
    "prefecture": "愛媛県",
    "prefecture_kana": "エヒメケン",
    "prefecture_code": 38,
    "city": "宇和島市",
    "city_kana": "ウワジマシ",
    "town": "津島町竹ケ島",
    "town_kana": "ツシマチョウタケガシマ",
    "street": null,
    "office_name": null,
    "office_name_kana": null
  },
  "3361": {
    "zip_code": "7983361",
    "prefecture": "愛媛県",
    "prefecture_kana": "エヒメケン",
    "prefecture_code": 38,
    "city": "宇和島市",
    "city_kana": "ウワジマシ",
    "town": "津島町北灘甲",
    "town_kana": "ツシマチョウキタナダコウ",
    "street": null,
    "office_name": null,
    "office_name_kana": null
  },
  "3362": {
    "zip_code": "7983362",
    "prefecture": "愛媛県",
    "prefecture_kana": "エヒメケン",
    "prefecture_code": 38,
    "city": "宇和島市",
    "city_kana": "ウワジマシ",
    "town": "津島町北灘乙",
    "town_kana": "ツシマチョウキタナダオツ",
    "street": null,
    "office_name": null,
    "office_name_kana": null
  },
  "3363": {
    "zip_code": "7983363",
    "prefecture": "愛媛県",
    "prefecture_kana": "エヒメケン",
    "prefecture_code": 38,
    "city": "宇和島市",
    "city_kana": "ウワジマシ",
    "town": "津島町北灘丙",
    "town_kana": "ツシマチョウキタナダヘイ",
    "street": null,
    "office_name": null,
    "office_name_kana": null
  },
  "3364": [
    {
      "zip_code": "7983364",
      "prefecture": "愛媛県",
      "prefecture_kana": "エヒメケン",
      "prefecture_code": 38,
      "city": "宇和島市",
      "city_kana": "ウワジマシ",
      "town": "津島町北灘丁",
      "town_kana": "ツシマチョウキタナダテイ",
      "street": null,
      "office_name": null,
      "office_name_kana": null
    },
    {
      "zip_code": "7983364",
      "prefecture": "愛媛県",
      "prefecture_kana": "エヒメケン",
      "prefecture_code": 38,
      "city": "宇和島市",
      "city_kana": "ウワジマシ",
      "town": "津島町北灘丁大日提",
      "town_kana": "ツシマチョウキタナダテイオオヒサゲ",
      "street": null,
      "office_name": null,
      "office_name_kana": null
    },
    {
      "zip_code": "7983364",
      "prefecture": "愛媛県",
      "prefecture_kana": "エヒメケン",
      "prefecture_code": 38,
      "city": "宇和島市",
      "city_kana": "ウワジマシ",
      "town": "津島町北灘丁小日提",
      "town_kana": "ツシマチョウキタナダテイコヒサゲ",
      "street": null,
      "office_name": null,
      "office_name_kana": null
    }
  ],
  "3392": {
    "zip_code": "7983392",
    "prefecture": "愛媛県",
    "prefecture_kana": "エヒメケン",
    "prefecture_code": 38,
    "city": "宇和島市",
    "city_kana": "ウワジマシ",
    "town": "津島町岩松",
    "town_kana": "ツシマチョウイワマツ",
    "street": "甲４７１（津島郵便局私書箱第１号）",
    "office_name": "宇和島市役所　津島支所",
    "office_name_kana": "ウワジマシヤクシヨ ツシマシシヨ"
  },
  "3393": {
    "zip_code": "7983393",
    "prefecture": "愛媛県",
    "prefecture_kana": "エヒメケン",
    "prefecture_code": 38,
    "city": "宇和島市",
    "city_kana": "ウワジマシ",
    "town": "津島町高田",
    "town_kana": "ツシマチョウタカタ",
    "street": "丙１５",
    "office_name": "宇和島市立　津島病院",
    "office_name_kana": "ウワジマシリツ ツシマビヨウイン"
  },
  "3701": {
    "zip_code": "7983701",
    "prefecture": "愛媛県",
    "prefecture_kana": "エヒメケン",
    "prefecture_code": 38,
    "city": "南宇和郡愛南町",
    "city_kana": "ミナミウワグンアイナンチョウ",
    "town": "柏",
    "town_kana": "カシワ",
    "street": null,
    "office_name": null,
    "office_name_kana": null
  },
  "3702": {
    "zip_code": "7983702",
    "prefecture": "愛媛県",
    "prefecture_kana": "エヒメケン",
    "prefecture_code": 38,
    "city": "南宇和郡愛南町",
    "city_kana": "ミナミウワグンアイナンチョウ",
    "town": "柏崎",
    "town_kana": "カシワザキ",
    "street": null,
    "office_name": null,
    "office_name_kana": null
  },
  "3703": {
    "zip_code": "7983703",
    "prefecture": "愛媛県",
    "prefecture_kana": "エヒメケン",
    "prefecture_code": 38,
    "city": "南宇和郡愛南町",
    "city_kana": "ミナミウワグンアイナンチョウ",
    "town": "須ノ川",
    "town_kana": "スノカワ",
    "street": null,
    "office_name": null,
    "office_name_kana": null
  },
  "3704": {
    "zip_code": "7983704",
    "prefecture": "愛媛県",
    "prefecture_kana": "エヒメケン",
    "prefecture_code": 38,
    "city": "南宇和郡愛南町",
    "city_kana": "ミナミウワグンアイナンチョウ",
    "town": "平碆",
    "town_kana": "ヒラバエ",
    "street": null,
    "office_name": null,
    "office_name_kana": null
  },
  "3705": {
    "zip_code": "7983705",
    "prefecture": "愛媛県",
    "prefecture_kana": "エヒメケン",
    "prefecture_code": 38,
    "city": "南宇和郡愛南町",
    "city_kana": "ミナミウワグンアイナンチョウ",
    "town": "家串",
    "town_kana": "イエクシ",
    "street": null,
    "office_name": null,
    "office_name_kana": null
  },
  "3706": {
    "zip_code": "7983706",
    "prefecture": "愛媛県",
    "prefecture_kana": "エヒメケン",
    "prefecture_code": 38,
    "city": "南宇和郡愛南町",
    "city_kana": "ミナミウワグンアイナンチョウ",
    "town": "油袋",
    "town_kana": "ユタイ",
    "street": null,
    "office_name": null,
    "office_name_kana": null
  },
  "3707": {
    "zip_code": "7983707",
    "prefecture": "愛媛県",
    "prefecture_kana": "エヒメケン",
    "prefecture_code": 38,
    "city": "南宇和郡愛南町",
    "city_kana": "ミナミウワグンアイナンチョウ",
    "town": "魚神山",
    "town_kana": "ナガミヤマ",
    "street": null,
    "office_name": null,
    "office_name_kana": null
  },
  "3708": {
    "zip_code": "7983708",
    "prefecture": "愛媛県",
    "prefecture_kana": "エヒメケン",
    "prefecture_code": 38,
    "city": "南宇和郡愛南町",
    "city_kana": "ミナミウワグンアイナンチョウ",
    "town": "網代",
    "town_kana": "アジロ",
    "street": null,
    "office_name": null,
    "office_name_kana": null
  },
  "3792": {
    "zip_code": "7983792",
    "prefecture": "愛媛県",
    "prefecture_kana": "エヒメケン",
    "prefecture_code": 38,
    "city": "南宇和郡愛南町",
    "city_kana": "ミナミウワグンアイナンチョウ",
    "town": "柏",
    "town_kana": "カシワ",
    "street": "４９７",
    "office_name": "愛南町役場　内海支所",
    "office_name_kana": "アイナンチヨウヤクバ ウチウミシシヨ"
  },
  "4100": {
    "zip_code": "7984100",
    "prefecture": "愛媛県",
    "prefecture_kana": "エヒメケン",
    "prefecture_code": 38,
    "city": "南宇和郡愛南町",
    "city_kana": "ミナミウワグンアイナンチョウ",
    "town": "",
    "town_kana": "",
    "street": null,
    "office_name": null,
    "office_name_kana": null
  },
  "4101": {
    "zip_code": "7984101",
    "prefecture": "愛媛県",
    "prefecture_kana": "エヒメケン",
    "prefecture_code": 38,
    "city": "南宇和郡愛南町",
    "city_kana": "ミナミウワグンアイナンチョウ",
    "town": "御荘菊川",
    "town_kana": "ミショウキクガワ",
    "street": null,
    "office_name": null,
    "office_name_kana": null
  },
  "4102": {
    "zip_code": "7984102",
    "prefecture": "愛媛県",
    "prefecture_kana": "エヒメケン",
    "prefecture_code": 38,
    "city": "南宇和郡愛南町",
    "city_kana": "ミナミウワグンアイナンチョウ",
    "town": "御荘平山",
    "town_kana": "ミショウヒラヤマ",
    "street": null,
    "office_name": null,
    "office_name_kana": null
  },
  "4103": {
    "zip_code": "7984103",
    "prefecture": "愛媛県",
    "prefecture_kana": "エヒメケン",
    "prefecture_code": 38,
    "city": "南宇和郡愛南町",
    "city_kana": "ミナミウワグンアイナンチョウ",
    "town": "御荘長洲",
    "town_kana": "ミショウナガス",
    "street": null,
    "office_name": null,
    "office_name_kana": null
  },
  "4104": {
    "zip_code": "7984104",
    "prefecture": "愛媛県",
    "prefecture_kana": "エヒメケン",
    "prefecture_code": 38,
    "city": "南宇和郡愛南町",
    "city_kana": "ミナミウワグンアイナンチョウ",
    "town": "御荘和口",
    "town_kana": "ミショウワグチ",
    "street": null,
    "office_name": null,
    "office_name_kana": null
  },
  "4105": {
    "zip_code": "7984105",
    "prefecture": "愛媛県",
    "prefecture_kana": "エヒメケン",
    "prefecture_code": 38,
    "city": "南宇和郡愛南町",
    "city_kana": "ミナミウワグンアイナンチョウ",
    "town": "御荘長月",
    "town_kana": "ミショウナガツキ",
    "street": null,
    "office_name": null,
    "office_name_kana": null
  },
  "4110": {
    "zip_code": "7984110",
    "prefecture": "愛媛県",
    "prefecture_kana": "エヒメケン",
    "prefecture_code": 38,
    "city": "南宇和郡愛南町",
    "city_kana": "ミナミウワグンアイナンチョウ",
    "town": "御荘平城",
    "town_kana": "ミショウヒラジョウ",
    "street": null,
    "office_name": null,
    "office_name_kana": null
  },
  "4121": {
    "zip_code": "7984121",
    "prefecture": "愛媛県",
    "prefecture_kana": "エヒメケン",
    "prefecture_code": 38,
    "city": "南宇和郡愛南町",
    "city_kana": "ミナミウワグンアイナンチョウ",
    "town": "御荘深泥",
    "town_kana": "ミショウミドロ",
    "street": null,
    "office_name": null,
    "office_name_kana": null
  },
  "4122": {
    "zip_code": "7984122",
    "prefecture": "愛媛県",
    "prefecture_kana": "エヒメケン",
    "prefecture_code": 38,
    "city": "南宇和郡愛南町",
    "city_kana": "ミナミウワグンアイナンチョウ",
    "town": "防城成川",
    "town_kana": "ボウジョウナルカワ",
    "street": null,
    "office_name": null,
    "office_name_kana": null
  },
  "4123": {
    "zip_code": "7984123",
    "prefecture": "愛媛県",
    "prefecture_kana": "エヒメケン",
    "prefecture_code": 38,
    "city": "南宇和郡愛南町",
    "city_kana": "ミナミウワグンアイナンチョウ",
    "town": "赤水",
    "town_kana": "アカミズ",
    "street": null,
    "office_name": null,
    "office_name_kana": null
  },
  "4124": {
    "zip_code": "7984124",
    "prefecture": "愛媛県",
    "prefecture_kana": "エヒメケン",
    "prefecture_code": 38,
    "city": "南宇和郡愛南町",
    "city_kana": "ミナミウワグンアイナンチョウ",
    "town": "高畑",
    "town_kana": "タカハタ",
    "street": null,
    "office_name": null,
    "office_name_kana": null
  },
  "4125": {
    "zip_code": "7984125",
    "prefecture": "愛媛県",
    "prefecture_kana": "エヒメケン",
    "prefecture_code": 38,
    "city": "南宇和郡愛南町",
    "city_kana": "ミナミウワグンアイナンチョウ",
    "town": "中浦",
    "town_kana": "ナカウラ",
    "street": null,
    "office_name": null,
    "office_name_kana": null
  },
  "4126": {
    "zip_code": "7984126",
    "prefecture": "愛媛県",
    "prefecture_kana": "エヒメケン",
    "prefecture_code": 38,
    "city": "南宇和郡愛南町",
    "city_kana": "ミナミウワグンアイナンチョウ",
    "town": "猿鳴",
    "town_kana": "サルナギ",
    "street": null,
    "office_name": null,
    "office_name_kana": null
  },
  "4131": {
    "zip_code": "7984131",
    "prefecture": "愛媛県",
    "prefecture_kana": "エヒメケン",
    "prefecture_code": 38,
    "city": "南宇和郡愛南町",
    "city_kana": "ミナミウワグンアイナンチョウ",
    "town": "城辺甲",
    "town_kana": "ジョウヘンコウ",
    "street": null,
    "office_name": null,
    "office_name_kana": null
  },
  "4132": {
    "zip_code": "7984132",
    "prefecture": "愛媛県",
    "prefecture_kana": "エヒメケン",
    "prefecture_code": 38,
    "city": "南宇和郡愛南町",
    "city_kana": "ミナミウワグンアイナンチョウ",
    "town": "城辺乙",
    "town_kana": "ジョウヘンオツ",
    "street": null,
    "office_name": null,
    "office_name_kana": null
  },
  "4133": {
    "zip_code": "7984133",
    "prefecture": "愛媛県",
    "prefecture_kana": "エヒメケン",
    "prefecture_code": 38,
    "city": "南宇和郡愛南町",
    "city_kana": "ミナミウワグンアイナンチョウ",
    "town": "緑乙",
    "town_kana": "ミドリオツ",
    "street": null,
    "office_name": null,
    "office_name_kana": null
  },
  "4134": {
    "zip_code": "7984134",
    "prefecture": "愛媛県",
    "prefecture_kana": "エヒメケン",
    "prefecture_code": 38,
    "city": "南宇和郡愛南町",
    "city_kana": "ミナミウワグンアイナンチョウ",
    "town": "緑甲",
    "town_kana": "ミドリコウ",
    "street": null,
    "office_name": null,
    "office_name_kana": null
  },
  "4135": {
    "zip_code": "7984135",
    "prefecture": "愛媛県",
    "prefecture_kana": "エヒメケン",
    "prefecture_code": 38,
    "city": "南宇和郡愛南町",
    "city_kana": "ミナミウワグンアイナンチョウ",
    "town": "緑丙",
    "town_kana": "ミドリヘイ",
    "street": null,
    "office_name": null,
    "office_name_kana": null
  },
  "4136": {
    "zip_code": "7984136",
    "prefecture": "愛媛県",
    "prefecture_kana": "エヒメケン",
    "prefecture_code": 38,
    "city": "南宇和郡愛南町",
    "city_kana": "ミナミウワグンアイナンチョウ",
    "town": "僧都",
    "town_kana": "ソウヅ",
    "street": null,
    "office_name": null,
    "office_name_kana": null
  },
  "4192": {
    "zip_code": "7984192",
    "prefecture": "愛媛県",
    "prefecture_kana": "エヒメケン",
    "prefecture_code": 38,
    "city": "南宇和郡愛南町",
    "city_kana": "ミナミウワグンアイナンチョウ",
    "town": "御荘平城",
    "town_kana": "ミショウヒラジョウ",
    "street": "３２６９",
    "office_name": "南宇和高校",
    "office_name_kana": "ミナミウワコウコウ"
  },
  "4193": {
    "zip_code": "7984193",
    "prefecture": "愛媛県",
    "prefecture_kana": "エヒメケン",
    "prefecture_code": 38,
    "city": "南宇和郡愛南町",
    "city_kana": "ミナミウワグンアイナンチョウ",
    "town": "城辺乙",
    "town_kana": "ジョウヘンオツ",
    "street": "４５１",
    "office_name": "えひめ南農業協同組合　南宇和支所",
    "office_name_kana": "エヒメミナミノウギヨウキヨウドウクミアイ ミナミウワシシヨ"
  },
  "4194": {
    "zip_code": "7984194",
    "prefecture": "愛媛県",
    "prefecture_kana": "エヒメケン",
    "prefecture_code": 38,
    "city": "南宇和郡愛南町",
    "city_kana": "ミナミウワグンアイナンチョウ",
    "town": "城辺甲",
    "town_kana": "ジョウヘンコウ",
    "street": "２４２０",
    "office_name": "愛媛県宇和島地方局　御荘出張所",
    "office_name_kana": "エヒメケンウワジマチホウキヨク ミシヨウシユツチヨウジヨ"
  },
  "4195": {
    "zip_code": "7984195",
    "prefecture": "愛媛県",
    "prefecture_kana": "エヒメケン",
    "prefecture_code": 38,
    "city": "南宇和郡愛南町",
    "city_kana": "ミナミウワグンアイナンチョウ",
    "town": "御荘平城",
    "town_kana": "ミショウヒラジョウ",
    "street": "３０６３",
    "office_name": "愛南町役場　御荘支所",
    "office_name_kana": "アイナンチヨウヤクバ ミシヨウシシヨ"
  },
  "4196": {
    "zip_code": "7984196",
    "prefecture": "愛媛県",
    "prefecture_kana": "エヒメケン",
    "prefecture_code": 38,
    "city": "南宇和郡愛南町",
    "city_kana": "ミナミウワグンアイナンチョウ",
    "town": "城辺甲",
    "town_kana": "ジョウヘンコウ",
    "street": "２４２０（御荘郵便局私書箱第１１号）",
    "office_name": "愛南町役場",
    "office_name_kana": "アイナンチヨウヤクバ"
  },
  "4197": {
    "zip_code": "7984197",
    "prefecture": "愛媛県",
    "prefecture_kana": "エヒメケン",
    "prefecture_code": 38,
    "city": "南宇和郡愛南町",
    "city_kana": "ミナミウワグンアイナンチョウ",
    "town": "城辺甲",
    "town_kana": "ジョウヘンコウ",
    "street": "２０６７（御荘郵便局私書箱第１号）",
    "office_name": "伊予銀行　城辺支店",
    "office_name_kana": "イヨギンコウ ジヨウヘンシテン"
  },
  "4201": {
    "zip_code": "7984201",
    "prefecture": "愛媛県",
    "prefecture_kana": "エヒメケン",
    "prefecture_code": 38,
    "city": "南宇和郡愛南町",
    "city_kana": "ミナミウワグンアイナンチョウ",
    "town": "越田",
    "town_kana": "コシダ",
    "street": null,
    "office_name": null,
    "office_name_kana": null
  },
  "4202": {
    "zip_code": "7984202",
    "prefecture": "愛媛県",
    "prefecture_kana": "エヒメケン",
    "prefecture_code": 38,
    "city": "南宇和郡愛南町",
    "city_kana": "ミナミウワグンアイナンチョウ",
    "town": "弓立",
    "town_kana": "ユダチ",
    "street": null,
    "office_name": null,
    "office_name_kana": null
  },
  "4203": {
    "zip_code": "7984203",
    "prefecture": "愛媛県",
    "prefecture_kana": "エヒメケン",
    "prefecture_code": 38,
    "city": "南宇和郡愛南町",
    "city_kana": "ミナミウワグンアイナンチョウ",
    "town": "小浦",
    "town_kana": "コウラ",
    "street": null,
    "office_name": null,
    "office_name_kana": null
  },
  "4204": {
    "zip_code": "7984204",
    "prefecture": "愛媛県",
    "prefecture_kana": "エヒメケン",
    "prefecture_code": 38,
    "city": "南宇和郡愛南町",
    "city_kana": "ミナミウワグンアイナンチョウ",
    "town": "樫月",
    "town_kana": "カシヅク",
    "street": null,
    "office_name": null,
    "office_name_kana": null
  },
  "4205": {
    "zip_code": "7984205",
    "prefecture": "愛媛県",
    "prefecture_kana": "エヒメケン",
    "prefecture_code": 38,
    "city": "南宇和郡愛南町",
    "city_kana": "ミナミウワグンアイナンチョウ",
    "town": "船越",
    "town_kana": "フナコシ",
    "street": null,
    "office_name": null,
    "office_name_kana": null
  },
  "4206": {
    "zip_code": "7984206",
    "prefecture": "愛媛県",
    "prefecture_kana": "エヒメケン",
    "prefecture_code": 38,
    "city": "南宇和郡愛南町",
    "city_kana": "ミナミウワグンアイナンチョウ",
    "town": "内泊",
    "town_kana": "ウチドマリ",
    "street": null,
    "office_name": null,
    "office_name_kana": null
  },
  "4207": {
    "zip_code": "7984207",
    "prefecture": "愛媛県",
    "prefecture_kana": "エヒメケン",
    "prefecture_code": 38,
    "city": "南宇和郡愛南町",
    "city_kana": "ミナミウワグンアイナンチョウ",
    "town": "中泊",
    "town_kana": "ナカドマリ",
    "street": null,
    "office_name": null,
    "office_name_kana": null
  },
  "4208": {
    "zip_code": "7984208",
    "prefecture": "愛媛県",
    "prefecture_kana": "エヒメケン",
    "prefecture_code": 38,
    "city": "南宇和郡愛南町",
    "city_kana": "ミナミウワグンアイナンチョウ",
    "town": "外泊",
    "town_kana": "ソトドマリ",
    "street": null,
    "office_name": null,
    "office_name_kana": null
  },
  "4209": {
    "zip_code": "7984209",
    "prefecture": "愛媛県",
    "prefecture_kana": "エヒメケン",
    "prefecture_code": 38,
    "city": "南宇和郡愛南町",
    "city_kana": "ミナミウワグンアイナンチョウ",
    "town": "鹿島",
    "town_kana": "カシマ",
    "street": null,
    "office_name": null,
    "office_name_kana": null
  },
  "4211": {
    "zip_code": "7984211",
    "prefecture": "愛媛県",
    "prefecture_kana": "エヒメケン",
    "prefecture_code": 38,
    "city": "南宇和郡愛南町",
    "city_kana": "ミナミウワグンアイナンチョウ",
    "town": "久家",
    "town_kana": "ヒサゲ",
    "street": null,
    "office_name": null,
    "office_name_kana": null
  },
  "4212": {
    "zip_code": "7984212",
    "prefecture": "愛媛県",
    "prefecture_kana": "エヒメケン",
    "prefecture_code": 38,
    "city": "南宇和郡愛南町",
    "city_kana": "ミナミウワグンアイナンチョウ",
    "town": "下久家",
    "town_kana": "シモヒサゲ",
    "street": null,
    "office_name": null,
    "office_name_kana": null
  },
  "4213": {
    "zip_code": "7984213",
    "prefecture": "愛媛県",
    "prefecture_kana": "エヒメケン",
    "prefecture_code": 38,
    "city": "南宇和郡愛南町",
    "city_kana": "ミナミウワグンアイナンチョウ",
    "town": "樽見",
    "town_kana": "タルミ",
    "street": null,
    "office_name": null,
    "office_name_kana": null
  },
  "4214": {
    "zip_code": "7984214",
    "prefecture": "愛媛県",
    "prefecture_kana": "エヒメケン",
    "prefecture_code": 38,
    "city": "南宇和郡愛南町",
    "city_kana": "ミナミウワグンアイナンチョウ",
    "town": "大成川",
    "town_kana": "オオナルカワ",
    "street": null,
    "office_name": null,
    "office_name_kana": null
  },
  "4215": {
    "zip_code": "7984215",
    "prefecture": "愛媛県",
    "prefecture_kana": "エヒメケン",
    "prefecture_code": 38,
    "city": "南宇和郡愛南町",
    "city_kana": "ミナミウワグンアイナンチョウ",
    "town": "小成川",
    "town_kana": "コナルカワ",
    "street": null,
    "office_name": null,
    "office_name_kana": null
  },
  "4216": {
    "zip_code": "7984216",
    "prefecture": "愛媛県",
    "prefecture_kana": "エヒメケン",
    "prefecture_code": 38,
    "city": "南宇和郡愛南町",
    "city_kana": "ミナミウワグンアイナンチョウ",
    "town": "福浦",
    "town_kana": "フクウラ",
    "street": null,
    "office_name": null,
    "office_name_kana": null
  },
  "4217": {
    "zip_code": "7984217",
    "prefecture": "愛媛県",
    "prefecture_kana": "エヒメケン",
    "prefecture_code": 38,
    "city": "南宇和郡愛南町",
    "city_kana": "ミナミウワグンアイナンチョウ",
    "town": "麦ケ浦",
    "town_kana": "ムギガウラ",
    "street": null,
    "office_name": null,
    "office_name_kana": null
  },
  "4218": {
    "zip_code": "7984218",
    "prefecture": "愛媛県",
    "prefecture_kana": "エヒメケン",
    "prefecture_code": 38,
    "city": "南宇和郡愛南町",
    "city_kana": "ミナミウワグンアイナンチョウ",
    "town": "武者泊",
    "town_kana": "ムシャドマリ",
    "street": null,
    "office_name": null,
    "office_name_kana": null
  },
  "4219": {
    "zip_code": "7984219",
    "prefecture": "愛媛県",
    "prefecture_kana": "エヒメケン",
    "prefecture_code": 38,
    "city": "南宇和郡愛南町",
    "city_kana": "ミナミウワグンアイナンチョウ",
    "town": "高茂",
    "town_kana": "コウモ",
    "street": null,
    "office_name": null,
    "office_name_kana": null
  },
  "4292": {
    "zip_code": "7984292",
    "prefecture": "愛媛県",
    "prefecture_kana": "エヒメケン",
    "prefecture_code": 38,
    "city": "南宇和郡愛南町",
    "city_kana": "ミナミウワグンアイナンチョウ",
    "town": "船越",
    "town_kana": "フナコシ",
    "street": "１２８９番地１",
    "office_name": "愛南町役場　西海支所",
    "office_name_kana": "アイナンチヨウヤクバ ニシウミシシヨ"
  },
  "4341": {
    "zip_code": "7984341",
    "prefecture": "愛媛県",
    "prefecture_kana": "エヒメケン",
    "prefecture_code": 38,
    "city": "南宇和郡愛南町",
    "city_kana": "ミナミウワグンアイナンチョウ",
    "town": "蓮乗寺",
    "town_kana": "レンジョウジ",
    "street": null,
    "office_name": null,
    "office_name_kana": null
  },
  "4342": {
    "zip_code": "7984342",
    "prefecture": "愛媛県",
    "prefecture_kana": "エヒメケン",
    "prefecture_code": 38,
    "city": "南宇和郡愛南町",
    "city_kana": "ミナミウワグンアイナンチョウ",
    "town": "深浦",
    "town_kana": "フカウラ",
    "street": null,
    "office_name": null,
    "office_name_kana": null
  },
  "4343": {
    "zip_code": "7984343",
    "prefecture": "愛媛県",
    "prefecture_kana": "エヒメケン",
    "prefecture_code": 38,
    "city": "南宇和郡愛南町",
    "city_kana": "ミナミウワグンアイナンチョウ",
    "town": "垣内",
    "town_kana": "カキウチ",
    "street": null,
    "office_name": null,
    "office_name_kana": null
  },
  "4344": {
    "zip_code": "7984344",
    "prefecture": "愛媛県",
    "prefecture_kana": "エヒメケン",
    "prefecture_code": 38,
    "city": "南宇和郡愛南町",
    "city_kana": "ミナミウワグンアイナンチョウ",
    "town": "岩水",
    "town_kana": "イワミズ",
    "street": null,
    "office_name": null,
    "office_name_kana": null
  },
  "4345": {
    "zip_code": "7984345",
    "prefecture": "愛媛県",
    "prefecture_kana": "エヒメケン",
    "prefecture_code": 38,
    "city": "南宇和郡愛南町",
    "city_kana": "ミナミウワグンアイナンチョウ",
    "town": "敦盛",
    "town_kana": "アツモリ",
    "street": null,
    "office_name": null,
    "office_name_kana": null
  },
  "4346": {
    "zip_code": "7984346",
    "prefecture": "愛媛県",
    "prefecture_kana": "エヒメケン",
    "prefecture_code": 38,
    "city": "南宇和郡愛南町",
    "city_kana": "ミナミウワグンアイナンチョウ",
    "town": "柿ノ浦",
    "town_kana": "カキノウラ",
    "street": null,
    "office_name": null,
    "office_name_kana": null
  },
  "4347": {
    "zip_code": "7984347",
    "prefecture": "愛媛県",
    "prefecture_kana": "エヒメケン",
    "prefecture_code": 38,
    "city": "南宇和郡愛南町",
    "city_kana": "ミナミウワグンアイナンチョウ",
    "town": "大浜",
    "town_kana": "オオハマ",
    "street": null,
    "office_name": null,
    "office_name_kana": null
  },
  "4348": {
    "zip_code": "7984348",
    "prefecture": "愛媛県",
    "prefecture_kana": "エヒメケン",
    "prefecture_code": 38,
    "city": "南宇和郡愛南町",
    "city_kana": "ミナミウワグンアイナンチョウ",
    "town": "中玉",
    "town_kana": "ナカタマ",
    "street": null,
    "office_name": null,
    "office_name_kana": null
  },
  "4349": {
    "zip_code": "7984349",
    "prefecture": "愛媛県",
    "prefecture_kana": "エヒメケン",
    "prefecture_code": 38,
    "city": "南宇和郡愛南町",
    "city_kana": "ミナミウワグンアイナンチョウ",
    "town": "脇本",
    "town_kana": "ワキモト",
    "street": null,
    "office_name": null,
    "office_name_kana": null
  },
  "4351": {
    "zip_code": "7984351",
    "prefecture": "愛媛県",
    "prefecture_kana": "エヒメケン",
    "prefecture_code": 38,
    "city": "南宇和郡愛南町",
    "city_kana": "ミナミウワグンアイナンチョウ",
    "town": "鯆越",
    "town_kana": "イルカゴエ",
    "street": null,
    "office_name": null,
    "office_name_kana": null
  },
  "4352": {
    "zip_code": "7984352",
    "prefecture": "愛媛県",
    "prefecture_kana": "エヒメケン",
    "prefecture_code": 38,
    "city": "南宇和郡愛南町",
    "city_kana": "ミナミウワグンアイナンチョウ",
    "town": "古月",
    "town_kana": "フルツキ",
    "street": null,
    "office_name": null,
    "office_name_kana": null
  },
  "4353": {
    "zip_code": "7984353",
    "prefecture": "愛媛県",
    "prefecture_kana": "エヒメケン",
    "prefecture_code": 38,
    "city": "南宇和郡愛南町",
    "city_kana": "ミナミウワグンアイナンチョウ",
    "town": "久良",
    "town_kana": "ヒサヨシ",
    "street": null,
    "office_name": null,
    "office_name_kana": null
  },
  "4401": {
    "zip_code": "7984401",
    "prefecture": "愛媛県",
    "prefecture_kana": "エヒメケン",
    "prefecture_code": 38,
    "city": "南宇和郡愛南町",
    "city_kana": "ミナミウワグンアイナンチョウ",
    "town": "正木",
    "town_kana": "マサキ",
    "street": null,
    "office_name": null,
    "office_name_kana": null
  },
  "4402": {
    "zip_code": "7984402",
    "prefecture": "愛媛県",
    "prefecture_kana": "エヒメケン",
    "prefecture_code": 38,
    "city": "南宇和郡愛南町",
    "city_kana": "ミナミウワグンアイナンチョウ",
    "town": "増田",
    "town_kana": "マスダ",
    "street": null,
    "office_name": null,
    "office_name_kana": null
  },
  "4403": {
    "zip_code": "7984403",
    "prefecture": "愛媛県",
    "prefecture_kana": "エヒメケン",
    "prefecture_code": 38,
    "city": "南宇和郡愛南町",
    "city_kana": "ミナミウワグンアイナンチョウ",
    "town": "小山",
    "town_kana": "コヤマ",
    "street": null,
    "office_name": null,
    "office_name_kana": null
  },
  "4404": {
    "zip_code": "7984404",
    "prefecture": "愛媛県",
    "prefecture_kana": "エヒメケン",
    "prefecture_code": 38,
    "city": "南宇和郡愛南町",
    "city_kana": "ミナミウワグンアイナンチョウ",
    "town": "中川",
    "town_kana": "ナカノカワ",
    "street": null,
    "office_name": null,
    "office_name_kana": null
  },
  "4405": {
    "zip_code": "7984405",
    "prefecture": "愛媛県",
    "prefecture_kana": "エヒメケン",
    "prefecture_code": 38,
    "city": "南宇和郡愛南町",
    "city_kana": "ミナミウワグンアイナンチョウ",
    "town": "満倉",
    "town_kana": "ミチクラ",
    "street": null,
    "office_name": null,
    "office_name_kana": null
  },
  "4406": {
    "zip_code": "7984406",
    "prefecture": "愛媛県",
    "prefecture_kana": "エヒメケン",
    "prefecture_code": 38,
    "city": "南宇和郡愛南町",
    "city_kana": "ミナミウワグンアイナンチョウ",
    "town": "広見",
    "town_kana": "ヒロミ",
    "street": null,
    "office_name": null,
    "office_name_kana": null
  },
  "4407": {
    "zip_code": "7984407",
    "prefecture": "愛媛県",
    "prefecture_kana": "エヒメケン",
    "prefecture_code": 38,
    "city": "南宇和郡愛南町",
    "city_kana": "ミナミウワグンアイナンチョウ",
    "town": "上大道",
    "town_kana": "ウワオオドウ",
    "street": null,
    "office_name": null,
    "office_name_kana": null
  },
  "4408": {
    "zip_code": "7984408",
    "prefecture": "愛媛県",
    "prefecture_kana": "エヒメケン",
    "prefecture_code": 38,
    "city": "南宇和郡愛南町",
    "city_kana": "ミナミウワグンアイナンチョウ",
    "town": "一本松",
    "town_kana": "イッポンマツ",
    "street": null,
    "office_name": null,
    "office_name_kana": null
  },
  "4495": {
    "zip_code": "7984495",
    "prefecture": "愛媛県",
    "prefecture_kana": "エヒメケン",
    "prefecture_code": 38,
    "city": "南宇和郡愛南町",
    "city_kana": "ミナミウワグンアイナンチョウ",
    "town": "一本松",
    "town_kana": "イッポンマツ",
    "street": "２５００−１",
    "office_name": "松下寿電子工業　株式会社　ＨＤＤビジネスユニット",
    "office_name_kana": "マツシタコトブキデンシコウギヨウ カブシキガイシヤ エイチデイ-デイ-ビジネスユニツト"
  },
  "8510": {
    "zip_code": "7988510",
    "prefecture": "愛媛県",
    "prefecture_kana": "エヒメケン",
    "prefecture_code": 38,
    "city": "宇和島市",
    "city_kana": "ウワジマシ",
    "town": "御殿町",
    "town_kana": "ゴテンマチ",
    "street": "１−１",
    "office_name": "市立　宇和島病院",
    "office_name_kana": "シリツ ウワジマビヨウイン"
  },
  "8511": {
    "zip_code": "7988511",
    "prefecture": "愛媛県",
    "prefecture_kana": "エヒメケン",
    "prefecture_code": 38,
    "city": "宇和島市",
    "city_kana": "ウワジマシ",
    "town": "天神町",
    "town_kana": "テンジンマチ",
    "street": "７−１",
    "office_name": "宇和島地方局",
    "office_name_kana": "ウワジマチホウキヨク"
  },
  "8601": {
    "zip_code": "7988601",
    "prefecture": "愛媛県",
    "prefecture_kana": "エヒメケン",
    "prefecture_code": 38,
    "city": "宇和島市",
    "city_kana": "ウワジマシ",
    "town": "曙町",
    "town_kana": "アケボノチョウ",
    "street": "１（宇和島郵便局私書箱第１９号）",
    "office_name": "宇和島市役所",
    "office_name_kana": "ウワジマシヤクシヨ"
  },
  "8611": {
    "zip_code": "7988611",
    "prefecture": "愛媛県",
    "prefecture_kana": "エヒメケン",
    "prefecture_code": 38,
    "city": "宇和島市",
    "city_kana": "ウワジマシ",
    "town": "本町追手",
    "town_kana": "ホンマチオウテ",
    "street": "２丁目８−２１（宇和島郵便局私書箱第３６号）",
    "office_name": "宇和島信用金庫",
    "office_name_kana": "ウワジマシンヨウキンコ"
  },
  "8614": {
    "zip_code": "7988614",
    "prefecture": "愛媛県",
    "prefecture_kana": "エヒメケン",
    "prefecture_code": 38,
    "city": "宇和島市",
    "city_kana": "ウワジマシ",
    "town": "新町",
    "town_kana": "シンマチ",
    "street": "２丁目８−３（宇和島郵便局私書箱第１０号）",
    "office_name": "伊予銀行　宇和島支店",
    "office_name_kana": "イヨギンコウ ウワジマシテン"
  }
}