{
  "0101": {
    "zip_code": "7990101",
    "prefecture": "愛媛県",
    "prefecture_kana": "エヒメケン",
    "prefecture_code": 38,
    "city": "四国中央市",
    "city_kana": "シコクチュウオウシ",
    "town": "川之江町",
    "town_kana": "カワノエチョウ",
    "street": null,
    "office_name": null,
    "office_name_kana": null
  },
  "0102": {
    "zip_code": "7990102",
    "prefecture": "愛媛県",
    "prefecture_kana": "エヒメケン",
    "prefecture_code": 38,
    "city": "四国中央市",
    "city_kana": "シコクチュウオウシ",
    "town": "川之江町長須",
    "town_kana": "カワノエチョウナガス",
    "street": null,
    "office_name": null,
    "office_name_kana": null
  },
  "0103": {
    "zip_code": "7990103",
    "prefecture": "愛媛県",
    "prefecture_kana": "エヒメケン",
    "prefecture_code": 38,
    "city": "四国中央市",
    "city_kana": "シコクチュウオウシ",
    "town": "川之江町余木",
    "town_kana": "カワノエチョウヨキ",
    "street": null,
    "office_name": null,
    "office_name_kana": null
  },
  "0111": {
    "zip_code": "7990111",
    "prefecture": "愛媛県",
    "prefecture_kana": "エヒメケン",
    "prefecture_code": 38,
    "city": "四国中央市",
    "city_kana": "シコクチュウオウシ",
    "town": "金生町下分",
    "town_kana": "キンセイチョウシモブン",
    "street": null,
    "office_name": null,
    "office_name_kana": null
  },
  "0112": {
    "zip_code": "7990112",
    "prefecture": "愛媛県",
    "prefecture_kana": "エヒメケン",
    "prefecture_code": 38,
    "city": "四国中央市",
    "city_kana": "シコクチュウオウシ",
    "town": "金生町山田井",
    "town_kana": "キンセイチョウヤマダイ",
    "street": null,
    "office_name": null,
    "office_name_kana": null
  },
  "0113": {
    "zip_code": "7990113",
    "prefecture": "愛媛県",
    "prefecture_kana": "エヒメケン",
    "prefecture_code": 38,
    "city": "四国中央市",
    "city_kana": "シコクチュウオウシ",
    "town": "妻鳥町",
    "town_kana": "メンドリチョウ",
    "street": null,
    "office_name": null,
    "office_name_kana": null
  },
  "0121": {
    "zip_code": "7990121",
    "prefecture": "愛媛県",
    "prefecture_kana": "エヒメケン",
    "prefecture_code": 38,
    "city": "四国中央市",
    "city_kana": "シコクチュウオウシ",
    "town": "上分町",
    "town_kana": "カミブンチョウ",
    "street": null,
    "office_name": null,
    "office_name_kana": null
  },
  "0122": {
    "zip_code": "7990122",
    "prefecture": "愛媛県",
    "prefecture_kana": "エヒメケン",
    "prefecture_code": 38,
    "city": "四国中央市",
    "city_kana": "シコクチュウオウシ",
    "town": "金田町半田",
    "town_kana": "カナダチョウハンダ",
    "street": null,
    "office_name": null,
    "office_name_kana": null
  },
  "0123": {
    "zip_code": "7990123",
    "prefecture": "愛媛県",
    "prefecture_kana": "エヒメケン",
    "prefecture_code": 38,
    "city": "四国中央市",
    "city_kana": "シコクチュウオウシ",
    "town": "金田町金川",
    "town_kana": "カナダチョウカナガワ",
    "street": null,
    "office_name": null,
    "office_name_kana": null
  },
  "0124": {
    "zip_code": "7990124",
    "prefecture": "愛媛県",
    "prefecture_kana": "エヒメケン",
    "prefecture_code": 38,
    "city": "四国中央市",
    "city_kana": "シコクチュウオウシ",
    "town": "金田町三角寺",
    "town_kana": "カナダチョウサンカクジ",
    "street": null,
    "office_name": null,
    "office_name_kana": null
  },
  "0125": {
    "zip_code": "7990125",
    "prefecture": "愛媛県",
    "prefecture_kana": "エヒメケン",
    "prefecture_code": 38,
    "city": "四国中央市",
    "city_kana": "シコクチュウオウシ",
    "town": "柴生町",
    "town_kana": "シボウチョウ",
    "street": null,
    "office_name": null,
    "office_name_kana": null
  },
  "0126": {
    "zip_code": "7990126",
    "prefecture": "愛媛県",
    "prefecture_kana": "エヒメケン",
    "prefecture_code": 38,
    "city": "四国中央市",
    "city_kana": "シコクチュウオウシ",
    "town": "下川町",
    "town_kana": "シモカワチョウ",
    "street": null,
    "office_name": null,
    "office_name_kana": null
  },
  "0127": {
    "zip_code": "7990127",
    "prefecture": "愛媛県",
    "prefecture_kana": "エヒメケン",
    "prefecture_code": 38,
    "city": "四国中央市",
    "city_kana": "シコクチュウオウシ",
    "town": "川滝町下山",
    "town_kana": "カワタキチョウシモヤマ",
    "street": null,
    "office_name": null,
    "office_name_kana": null
  },
  "0128": {
    "zip_code": "7990128",
    "prefecture": "愛媛県",
    "prefecture_kana": "エヒメケン",
    "prefecture_code": 38,
    "city": "四国中央市",
    "city_kana": "シコクチュウオウシ",
    "town": "川滝町領家",
    "town_kana": "カワタキチョウリョウケ",
    "street": null,
    "office_name": null,
    "office_name_kana": null
  },
  "0192": {
    "zip_code": "7990192",
    "prefecture": "愛媛県",
    "prefecture_kana": "エヒメケン",
    "prefecture_code": 38,
    "city": "四国中央市",
    "city_kana": "シコクチュウオウシ",
    "town": "金生町下分",
    "town_kana": "キンセイチョウシモブン",
    "street": "８６５",
    "office_name": "四国中央市　川之江総合支所",
    "office_name_kana": "シコクチユウオウシ カワノエソウゴウシシヨ"
  },
  "0193": {
    "zip_code": "7990193",
    "prefecture": "愛媛県",
    "prefecture_kana": "エヒメケン",
    "prefecture_code": 38,
    "city": "四国中央市",
    "city_kana": "シコクチュウオウシ",
    "town": "川之江町",
    "town_kana": "カワノエチョウ",
    "street": "２２３３",
    "office_name": "公立学校共済組合　四国中央病院",
    "office_name_kana": "コウリツガツコウキヨウサイクミアイ シコクチユウオウビヨウイン"
  },
  "0194": {
    "zip_code": "7990194",
    "prefecture": "愛媛県",
    "prefecture_kana": "エヒメケン",
    "prefecture_code": 38,
    "city": "四国中央市",
    "city_kana": "シコクチュウオウシ",
    "town": "金田町金川",
    "town_kana": "カナダチョウカナガワ",
    "street": "１４",
    "office_name": "梅錦山川　株式会社",
    "office_name_kana": "ウメニシキヤマカワ カブシキガイシヤ"
  },
  "0195": {
    "zip_code": "7990195",
    "prefecture": "愛媛県",
    "prefecture_kana": "エヒメケン",
    "prefecture_code": 38,
    "city": "四国中央市",
    "city_kana": "シコクチュウオウシ",
    "town": "川之江町",
    "town_kana": "カワノエチョウ",
    "street": "１５１４",
    "office_name": "川之江造機　株式会社",
    "office_name_kana": "カワノエゾウキ カブシキガイシヤ"
  },
  "0196": {
    "zip_code": "7990196",
    "prefecture": "愛媛県",
    "prefecture_kana": "エヒメケン",
    "prefecture_code": 38,
    "city": "四国中央市",
    "city_kana": "シコクチュウオウシ",
    "town": "川之江町",
    "town_kana": "カワノエチョウ",
    "street": "８２６（川之江郵便局私書箱第２号）",
    "office_name": "丸住製紙　株式会社",
    "office_name_kana": "マルスミセイシ カブシキガイシヤ"
  },
  "0197": {
    "zip_code": "7990197",
    "prefecture": "愛媛県",
    "prefecture_kana": "エヒメケン",
    "prefecture_code": 38,
    "city": "四国中央市",
    "city_kana": "シコクチュウオウシ",
    "town": "川之江町長須",
    "town_kana": "カワノエチョウナガス",
    "street": "２２２−２",
    "office_name": "新タック化成　株式会社",
    "office_name_kana": "シンタツクカセイ カブシキガイシヤ"
  },
  "0301": {
    "zip_code": "7990301",
    "prefecture": "愛媛県",
    "prefecture_kana": "エヒメケン",
    "prefecture_code": 38,
    "city": "四国中央市",
    "city_kana": "シコクチュウオウシ",
    "town": "新宮町馬立",
    "town_kana": "シングウチョウウマタテ",
    "street": null,
    "office_name": null,
    "office_name_kana": null
  },
  "0302": {
    "zip_code": "7990302",
    "prefecture": "愛媛県",
    "prefecture_kana": "エヒメケン",
    "prefecture_code": 38,
    "city": "四国中央市",
    "city_kana": "シコクチュウオウシ",
    "town": "新宮町上山",
    "town_kana": "シングウチョウカミヤマ",
    "street": null,
    "office_name": null,
    "office_name_kana": null
  },
  "0303": {
    "zip_code": "7990303",
    "prefecture": "愛媛県",
    "prefecture_kana": "エヒメケン",
    "prefecture_code": 38,
    "city": "四国中央市",
    "city_kana": "シコクチュウオウシ",
    "town": "新宮町新宮",
    "town_kana": "シングウチョウシングウ",
    "street": null,
    "office_name": null,
    "office_name_kana": null
  },
  "0304": {
    "zip_code": "7990304",
    "prefecture": "愛媛県",
    "prefecture_kana": "エヒメケン",
    "prefecture_code": 38,
    "city": "四国中央市",
    "city_kana": "シコクチュウオウシ",
    "town": "新宮町新瀬川",
    "town_kana": "シングウチョウシンセガワ",
    "street": null,
    "office_name": null,
    "office_name_kana": null
  },
  "0400": {
    "zip_code": "7990400",
    "prefecture": "愛媛県",
    "prefecture_kana": "エヒメケン",
    "prefecture_code": 38,
    "city": "四国中央市",
    "city_kana": "シコクチュウオウシ",
    "town": "",
    "town_kana": "",
    "street": null,
    "office_name": null,
    "office_name_kana": null
  },
  "0401": {
    "zip_code": "7990401",
    "prefecture": "愛媛県",
    "prefecture_kana": "エヒメケン",
    "prefecture_code": 38,
    "city": "四国中央市",
    "city_kana": "シコクチュウオウシ",
    "town": "村松町",
    "town_kana": "ムラマツチョウ",
    "street": null,
    "office_name": null,
    "office_name_kana": null
  },
  "0402": {
    "zip_code": "7990402",
    "prefecture": "愛媛県",
    "prefecture_kana": "エヒメケン",
    "prefecture_code": 38,
    "city": "四国中央市",
    "city_kana": "シコクチュウオウシ",
    "town": "三島紙屋町",
    "town_kana": "ミシマカミヤチョウ",
    "street": null,
    "office_name": null,
    "office_name_kana": null
  },
  "0403": {
    "zip_code": "7990403",
    "prefecture": "愛媛県",
    "prefecture_kana": "エヒメケン",
    "prefecture_code": 38,
    "city": "四国中央市",
    "city_kana": "シコクチュウオウシ",
    "town": "三島朝日",
    "town_kana": "ミシマアサヒ",
    "street": null,
    "office_name": null,
    "office_name_kana": null
  },
  "0404": {
    "zip_code": "7990404",
    "prefecture": "愛媛県",
    "prefecture_kana": "エヒメケン",
    "prefecture_code": 38,
    "city": "四国中央市",
    "city_kana": "シコクチュウオウシ",
    "town": "三島宮川",
    "town_kana": "ミシマミヤガワ",
    "street": null,
    "office_name": null,
    "office_name_kana": null
  },
  "0405": {
    "zip_code": "7990405",
    "prefecture": "愛媛県",
    "prefecture_kana": "エヒメケン",
    "prefecture_code": 38,
    "city": "四国中央市",
    "city_kana": "シコクチュウオウシ",
    "town": "三島中央",
    "town_kana": "ミシマチュウオウ",
    "street": null,
    "office_name": null,
    "office_name_kana": null
  },
  "0411": {
    "zip_code": "7990411",
    "prefecture": "愛媛県",
    "prefecture_kana": "エヒメケン",
    "prefecture_code": 38,
    "city": "四国中央市",
    "city_kana": "シコクチュウオウシ",
    "town": "下柏町",
    "town_kana": "シモガシワチョウ",
    "street": null,
    "office_name": null,
    "office_name_kana": null
  },
  "0412": {
    "zip_code": "7990412",
    "prefecture": "愛媛県",
    "prefecture_kana": "エヒメケン",
    "prefecture_code": 38,
    "city": "四国中央市",
    "city_kana": "シコクチュウオウシ",
    "town": "上柏町",
    "town_kana": "カミガシワチョウ",
    "street": null,
    "office_name": null,
    "office_name_kana": null
  },
  "0413": {
    "zip_code": "7990413",
    "prefecture": "愛媛県",
    "prefecture_kana": "エヒメケン",
    "prefecture_code": 38,
    "city": "四国中央市",
    "city_kana": "シコクチュウオウシ",
    "town": "中曽根町",
    "town_kana": "ナカゾネチョウ",
    "street": null,
    "office_name": null,
    "office_name_kana": null
  },
  "0421": {
    "zip_code": "7990421",
    "prefecture": "愛媛県",
    "prefecture_kana": "エヒメケン",
    "prefecture_code": 38,
    "city": "四国中央市",
    "city_kana": "シコクチュウオウシ",
    "town": "三島金子",
    "town_kana": "ミシマカネコ",
    "street": null,
    "office_name": null,
    "office_name_kana": null
  },
  "0422": {
    "zip_code": "7990422",
    "prefecture": "愛媛県",
    "prefecture_kana": "エヒメケン",
    "prefecture_code": 38,
    "city": "四国中央市",
    "city_kana": "シコクチュウオウシ",
    "town": "中之庄町",
    "town_kana": "ナカノショウチョウ",
    "street": null,
    "office_name": null,
    "office_name_kana": null
  },
  "0423": {
    "zip_code": "7990423",
    "prefecture": "愛媛県",
    "prefecture_kana": "エヒメケン",
    "prefecture_code": 38,
    "city": "四国中央市",
    "city_kana": "シコクチュウオウシ",
    "town": "具定町",
    "town_kana": "グジョウチョウ",
    "street": null,
    "office_name": null,
    "office_name_kana": null
  },
  "0431": {
    "zip_code": "7990431",
    "prefecture": "愛媛県",
    "prefecture_kana": "エヒメケン",
    "prefecture_code": 38,
    "city": "四国中央市",
    "city_kana": "シコクチュウオウシ",
    "town": "寒川町",
    "town_kana": "サンガワチョウ",
    "street": null,
    "office_name": null,
    "office_name_kana": null
  },
  "0432": {
    "zip_code": "7990432",
    "prefecture": "愛媛県",
    "prefecture_kana": "エヒメケン",
    "prefecture_code": 38,
    "city": "四国中央市",
    "city_kana": "シコクチュウオウシ",
    "town": "豊岡町大町",
    "town_kana": "トヨオカチョウオオマチ",
    "street": null,
    "office_name": null,
    "office_name_kana": null
  },
  "0433": {
    "zip_code": "7990433",
    "prefecture": "愛媛県",
    "prefecture_kana": "エヒメケン",
    "prefecture_code": 38,
    "city": "四国中央市",
    "city_kana": "シコクチュウオウシ",
    "town": "豊岡町豊田",
    "town_kana": "トヨオカチョウトヨダ",
    "street": null,
    "office_name": null,
    "office_name_kana": null
  },
  "0434": {
    "zip_code": "7990434",
    "prefecture": "愛媛県",
    "prefecture_kana": "エヒメケン",
    "prefecture_code": 38,
    "city": "四国中央市",
    "city_kana": "シコクチュウオウシ",
    "town": "豊岡町五良野",
    "town_kana": "トヨオカチョウイラノ",
    "street": null,
    "office_name": null,
    "office_name_kana": null
  },
  "0435": {
    "zip_code": "7990435",
    "prefecture": "愛媛県",
    "prefecture_kana": "エヒメケン",
    "prefecture_code": 38,
    "city": "四国中央市",
    "city_kana": "シコクチュウオウシ",
    "town": "豊岡町長田",
    "town_kana": "トヨオカチョウオサダ",
    "street": null,
    "office_name": null,
    "office_name_kana": null
  },
  "0436": {
    "zip_code": "7990436",
    "prefecture": "愛媛県",
    "prefecture_kana": "エヒメケン",
    "prefecture_code": 38,
    "city": "四国中央市",
    "city_kana": "シコクチュウオウシ",
    "town": "豊岡町岡銅",
    "town_kana": "トヨオカチョウオカドウ",
    "street": null,
    "office_name": null,
    "office_name_kana": null
  },
  "0492": {
    "zip_code": "7990492",
    "prefecture": "愛媛県",
    "prefecture_kana": "エヒメケン",
    "prefecture_code": 38,
    "city": "四国中央市",
    "city_kana": "シコクチュウオウシ",
    "town": "三島紙屋町",
    "town_kana": "ミシマカミヤチョウ",
    "street": "２−６０",
    "office_name": "大王製紙　株式会社",
    "office_name_kana": "ダイオウセイシ カブシキガイシヤ"
  },
  "0493": {
    "zip_code": "7990493",
    "prefecture": "愛媛県",
    "prefecture_kana": "エヒメケン",
    "prefecture_code": 38,
    "city": "四国中央市",
    "city_kana": "シコクチュウオウシ",
    "town": "中曽根町",
    "town_kana": "ナカゾネチョウ",
    "street": "１５９３（伊予三島郵便局私書箱第５１号）",
    "office_name": "大黒工業　株式会社",
    "office_name_kana": "ダイコクコウギヨウ カブシキガイシヤ"
  },
  "0495": {
    "zip_code": "7990495",
    "prefecture": "愛媛県",
    "prefecture_kana": "エヒメケン",
    "prefecture_code": 38,
    "city": "四国中央市",
    "city_kana": "シコクチュウオウシ",
    "town": "村松町",
    "town_kana": "ムラマツチョウ",
    "street": "１９０（伊予三島郵便局私書箱第３８号）",
    "office_name": "福助工業　株式会社",
    "office_name_kana": "フクスケコウギヨウ カブシキガイシヤ"
  },
  "0496": {
    "zip_code": "7990496",
    "prefecture": "愛媛県",
    "prefecture_kana": "エヒメケン",
    "prefecture_code": 38,
    "city": "四国中央市",
    "city_kana": "シコクチュウオウシ",
    "town": "三島宮川",
    "town_kana": "ミシマミヤガワ",
    "street": "４丁目９−６４（伊予三島郵便局私書箱第４号）",
    "office_name": "リュウグウ　株式会社",
    "office_name_kana": "リユウグウ カブシキガイシヤ"
  },
  "0497": {
    "zip_code": "7990497",
    "prefecture": "愛媛県",
    "prefecture_kana": "エヒメケン",
    "prefecture_code": 38,
    "city": "四国中央市",
    "city_kana": "シコクチュウオウシ",
    "town": "三島宮川",
    "town_kana": "ミシマミヤガワ",
    "street": "４丁目６−５５（伊予三島郵便局私書箱第２３号）",
    "office_name": "四国中央市役所",
    "office_name_kana": "シコクチユウオウシヤクシヨ"
  },
  "0498": {
    "zip_code": "7990498",
    "prefecture": "愛媛県",
    "prefecture_kana": "エヒメケン",
    "prefecture_code": 38,
    "city": "四国中央市",
    "city_kana": "シコクチュウオウシ",
    "town": "三島宮川",
    "town_kana": "ミシマミヤガワ",
    "street": "４丁目６−５５（伊予三島郵便局私書箱第１７号）",
    "office_name": "伊予三島商工会議所",
    "office_name_kana": "イヨミシマシヨウコウカイギシヨ"
  },
  "0641": {
    "zip_code": "7990641",
    "prefecture": "愛媛県",
    "prefecture_kana": "エヒメケン",
    "prefecture_code": 38,
    "city": "四国中央市",
    "city_kana": "シコクチュウオウシ",
    "town": "金砂町小川山",
    "town_kana": "キンシャチョウオガワヤマ",
    "street": null,
    "office_name": null,
    "office_name_kana": null
  },
  "0642": {
    "zip_code": "7990642",
    "prefecture": "愛媛県",
    "prefecture_kana": "エヒメケン",
    "prefecture_code": 38,
    "city": "四国中央市",
    "city_kana": "シコクチュウオウシ",
    "town": "金砂町平野山",
    "town_kana": "キンシャチョウヒラノヤマ",
    "street": null,
    "office_name": null,
    "office_name_kana": null
  },
  "0643": {
    "zip_code": "7990643",
    "prefecture": "愛媛県",
    "prefecture_kana": "エヒメケン",
    "prefecture_code": 38,
    "city": "四国中央市",
    "city_kana": "シコクチュウオウシ",
    "town": "富郷町寒川山",
    "town_kana": "トミサトチョウサンガワヤマ",
    "street": null,
    "office_name": null,
    "office_name_kana": null
  },
  "0644": {
    "zip_code": "7990644",
    "prefecture": "愛媛県",
    "prefecture_kana": "エヒメケン",
    "prefecture_code": 38,
    "city": "四国中央市",
    "city_kana": "シコクチュウオウシ",
    "town": "富郷町豊坂",
    "town_kana": "トミサトチョウトヨサカ",
    "street": null,
    "office_name": null,
    "office_name_kana": null
  },
  "0645": {
    "zip_code": "7990645",
    "prefecture": "愛媛県",
    "prefecture_kana": "エヒメケン",
    "prefecture_code": 38,
    "city": "四国中央市",
    "city_kana": "シコクチュウオウシ",
    "town": "富郷町津根山",
    "town_kana": "トミサトチョウツネヤマ",
    "street": null,
    "office_name": null,
    "office_name_kana": null
  },
  "0650": {
    "zip_code": "7990650",
    "prefecture": "愛媛県",
    "prefecture_kana": "エヒメケン",
    "prefecture_code": 38,
    "city": "新居浜市",
    "city_kana": "ニイハマシ",
    "town": "別子山",
    "town_kana": "ベッシヤマ",
    "street": null,
    "office_name": null,
    "office_name_kana": null
  },
  "0701": {
    "zip_code": "7990701",
    "prefecture": "愛媛県",
    "prefecture_kana": "エヒメケン",
    "prefecture_code": 38,
    "city": "四国中央市",
    "city_kana": "シコクチュウオウシ",
    "town": "土居町中村",
    "town_kana": "ドイチョウナカムラ",
    "street": null,
    "office_name": null,
    "office_name_kana": null
  },
  "0702": {
    "zip_code": "7990702",
    "prefecture": "愛媛県",
    "prefecture_kana": "エヒメケン",
    "prefecture_code": 38,
    "city": "四国中央市",
    "city_kana": "シコクチュウオウシ",
    "town": "土居町小林",
    "town_kana": "ドイチョウコバヤシ",
    "street": null,
    "office_name": null,
    "office_name_kana": null
  },
  "0703": {
    "zip_code": "7990703",
    "prefecture": "愛媛県",
    "prefecture_kana": "エヒメケン",
    "prefecture_code": 38,
    "city": "四国中央市",
    "city_kana": "シコクチュウオウシ",
    "town": "土居町藤原",
    "town_kana": "ドイチョウフジワラ",
    "street": null,
    "office_name": null,
    "office_name_kana": null
  },
  "0704": {
    "zip_code": "7990704",
    "prefecture": "愛媛県",
    "prefecture_kana": "エヒメケン",
    "prefecture_code": 38,
    "city": "四国中央市",
    "city_kana": "シコクチュウオウシ",
    "town": "土居町津根",
    "town_kana": "ドイチョウツネ",
    "street": null,
    "office_name": null,
    "office_name_kana": null
  },
  "0705": {
    "zip_code": "7990705",
    "prefecture": "愛媛県",
    "prefecture_kana": "エヒメケン",
    "prefecture_code": 38,
    "city": "四国中央市",
    "city_kana": "シコクチュウオウシ",
    "town": "土居町野田",
    "town_kana": "ドイチョウノダ",
    "street": null,
    "office_name": null,
    "office_name_kana": null
  },
  "0711": {
    "zip_code": "7990711",
    "prefecture": "愛媛県",
    "prefecture_kana": "エヒメケン",
    "prefecture_code": 38,
    "city": "四国中央市",
    "city_kana": "シコクチュウオウシ",
    "town": "土居町土居",
    "town_kana": "ドイチョウドイ",
    "street": null,
    "office_name": null,
    "office_name_kana": null
  },
  "0712": {
    "zip_code": "7990712",
    "prefecture": "愛媛県",
    "prefecture_kana": "エヒメケン",
    "prefecture_code": 38,
    "city": "四国中央市",
    "city_kana": "シコクチュウオウシ",
    "town": "土居町入野",
    "town_kana": "ドイチョウイリノ",
    "street": null,
    "office_name": null,
    "office_name_kana": null
  },
  "0713": {
    "zip_code": "7990713",
    "prefecture": "愛媛県",
    "prefecture_kana": "エヒメケン",
    "prefecture_code": 38,
    "city": "四国中央市",
    "city_kana": "シコクチュウオウシ",
    "town": "土居町浦山",
    "town_kana": "ドイチョウウラヤマ",
    "street": null,
    "office_name": null,
    "office_name_kana": null
  },
  "0714": {
    "zip_code": "7990714",
    "prefecture": "愛媛県",
    "prefecture_kana": "エヒメケン",
    "prefecture_code": 38,
    "city": "四国中央市",
    "city_kana": "シコクチュウオウシ",
    "town": "土居町畑野",
    "town_kana": "ドイチョウハタノ",
    "street": null,
    "office_name": null,
    "office_name_kana": null
  },
  "0721": {
    "zip_code": "7990721",
    "prefecture": "愛媛県",
    "prefecture_kana": "エヒメケン",
    "prefecture_code": 38,
    "city": "四国中央市",
    "city_kana": "シコクチュウオウシ",
    "town": "土居町上野",
    "town_kana": "ドイチョウウエノ",
    "street": null,
    "office_name": null,
    "office_name_kana": null
  },
  "0722": {
    "zip_code": "7990722",
    "prefecture": "愛媛県",
    "prefecture_kana": "エヒメケン",
    "prefecture_code": 38,
    "city": "四国中央市",
    "city_kana": "シコクチュウオウシ",
    "town": "土居町北野",
    "town_kana": "ドイチョウキタノ",
    "street": null,
    "office_name": null,
    "office_name_kana": null
  },
  "0723": {
    "zip_code": "7990723",
    "prefecture": "愛媛県",
    "prefecture_kana": "エヒメケン",
    "prefecture_code": 38,
    "city": "四国中央市",
    "city_kana": "シコクチュウオウシ",
    "town": "土居町天満",
    "town_kana": "ドイチョウテンマ",
    "street": null,
    "office_name": null,
    "office_name_kana": null
  },
  "0724": {
    "zip_code": "7990724",
    "prefecture": "愛媛県",
    "prefecture_kana": "エヒメケン",
    "prefecture_code": 38,
    "city": "四国中央市",
    "city_kana": "シコクチュウオウシ",
    "town": "土居町蕪崎",
    "town_kana": "ドイチョウカブラサキ",
    "street": null,
    "office_name": null,
    "office_name_kana": null
  },
  "1101": {
    "zip_code": "7991101",
    "prefecture": "愛媛県",
    "prefecture_kana": "エヒメケン",
    "prefecture_code": 38,
    "city": "西条市",
    "city_kana": "サイジョウシ",
    "town": "小松町新屋敷",
    "town_kana": "コマツチョウシンヤシキ",
    "street": null,
    "office_name": null,
    "office_name_kana": null
  },
  "1102": {
    "zip_code": "7991102",
    "prefecture": "愛媛県",
    "prefecture_kana": "エヒメケン",
    "prefecture_code": 38,
    "city": "西条市",
    "city_kana": "サイジョウシ",
    "town": "小松町南川",
    "town_kana": "コマツチョウミナミガワ",
    "street": null,
    "office_name": null,
    "office_name_kana": null
  },
  "1103": {
    "zip_code": "7991103",
    "prefecture": "愛媛県",
    "prefecture_kana": "エヒメケン",
    "prefecture_code": 38,
    "city": "西条市",
    "city_kana": "サイジョウシ",
    "town": "小松町北川",
    "town_kana": "コマツチョウキタガワ",
    "street": null,
    "office_name": null,
    "office_name_kana": null
  },
  "1104": {
    "zip_code": "7991104",
    "prefecture": "愛媛県",
    "prefecture_kana": "エヒメケン",
    "prefecture_code": 38,
    "city": "西条市",
    "city_kana": "サイジョウシ",
    "town": "小松町妙口",
    "town_kana": "コマツチョウミョウグチ",
    "street": null,
    "office_name": null,
    "office_name_kana": null
  },
  "1105": {
    "zip_code": "7991105",
    "prefecture": "愛媛県",
    "prefecture_kana": "エヒメケン",
    "prefecture_code": 38,
    "city": "西条市",
    "city_kana": "サイジョウシ",
    "town": "小松町大郷",
    "town_kana": "コマツチョウオオゴ",
    "street": null,
    "office_name": null,
    "office_name_kana": null
  },
  "1106": {
    "zip_code": "7991106",
    "prefecture": "愛媛県",
    "prefecture_kana": "エヒメケン",
    "prefecture_code": 38,
    "city": "西条市",
    "city_kana": "サイジョウシ",
    "town": "小松町大頭",
    "town_kana": "コマツチョウオオト",
    "street": null,
    "office_name": null,
    "office_name_kana": null
  },
  "1107": {
    "zip_code": "7991107",
    "prefecture": "愛媛県",
    "prefecture_kana": "エヒメケン",
    "prefecture_code": 38,
    "city": "西条市",
    "city_kana": "サイジョウシ",
    "town": "小松町明穂",
    "town_kana": "コマツチョウアカオ",
    "street": null,
    "office_name": null,
    "office_name_kana": null
  },
  "1108": {
    "zip_code": "7991108",
    "prefecture": "愛媛県",
    "prefecture_kana": "エヒメケン",
    "prefecture_code": 38,
    "city": "西条市",
    "city_kana": "サイジョウシ",
    "town": "小松町安井",
    "town_kana": "コマツチョウヤスイ",
    "street": null,
    "office_name": null,
    "office_name_kana": null
  },
  "1111": [
    {
      "zip_code": "7991111",
      "prefecture": "愛媛県",
      "prefecture_kana": "エヒメケン",
      "prefecture_code": 38,
      "city": "西条市",
      "city_kana": "サイジョウシ",
      "town": "小松町石鎚",
      "town_kana": "コマツチョウイシヅチ",
      "street": null,
      "office_name": null,
      "office_name_kana": null
    },
    {
      "zip_code": "7991111",
      "prefecture": "愛媛県",
      "prefecture_kana": "エヒメケン",
      "prefecture_code": 38,
      "city": "西条市",
      "city_kana": "サイジョウシ",
      "town": "小松町石鎚湯浪",
      "town_kana": "コマツチョウイシヅチユウナミ",
      "street": null,
      "office_name": null,
      "office_name_kana": null
    }
  ],
  "1112": {
    "zip_code": "7991112",
    "prefecture": "愛媛県",
    "prefecture_kana": "エヒメケン",
    "prefecture_code": 38,
    "city": "西条市",
    "city_kana": "サイジョウシ",
    "town": "小松町石鎚",
    "town_kana": "コマツチョウイシヅチ",
    "street": null,
    "office_name": null,
    "office_name_kana": null
  },
  "1198": {
    "zip_code": "7991198",
    "prefecture": "愛媛県",
    "prefecture_kana": "エヒメケン",
    "prefecture_code": 38,
    "city": "西条市",
    "city_kana": "サイジョウシ",
    "town": "小松町新屋敷",
    "town_kana": "コマツチョウシンヤシキ",
    "street": "甲４９６",
    "office_name": "西条市役所　小松総合支所",
    "office_name_kana": "サイジヨウシヤクシヨ コマツソウゴウシシヨ"
  },
  "1301": {
    "zip_code": "7991301",
    "prefecture": "愛媛県",
    "prefecture_kana": "エヒメケン",
    "prefecture_code": 38,
    "city": "西条市",
    "city_kana": "サイジョウシ",
    "town": "三芳",
    "town_kana": "ミヨシ",
    "street": null,
    "office_name": null,
    "office_name_kana": null
  },
  "1302": {
    "zip_code": "7991302",
    "prefecture": "愛媛県",
    "prefecture_kana": "エヒメケン",
    "prefecture_code": 38,
    "city": "西条市",
    "city_kana": "サイジョウシ",
    "town": "楠",
    "town_kana": "クス",
    "street": null,
    "office_name": null,
    "office_name_kana": null
  },
  "1303": {
    "zip_code": "7991303",
    "prefecture": "愛媛県",
    "prefecture_kana": "エヒメケン",
    "prefecture_code": 38,
    "city": "西条市",
    "city_kana": "サイジョウシ",
    "town": "河原津",
    "town_kana": "カワラヅ",
    "street": null,
    "office_name": null,
    "office_name_kana": null
  },
  "1304": {
    "zip_code": "7991304",
    "prefecture": "愛媛県",
    "prefecture_kana": "エヒメケン",
    "prefecture_code": 38,
    "city": "西条市",
    "city_kana": "サイジョウシ",
    "town": "河原津新田",
    "town_kana": "カワラヅシンデン",
    "street": null,
    "office_name": null,
    "office_name_kana": null
  },
  "1311": {
    "zip_code": "7991311",
    "prefecture": "愛媛県",
    "prefecture_kana": "エヒメケン",
    "prefecture_code": 38,
    "city": "西条市",
    "city_kana": "サイジョウシ",
    "town": "宮之内",
    "town_kana": "ミヤノウチ",
    "street": null,
    "office_name": null,
    "office_name_kana": null
  },
  "1312": {
    "zip_code": "7991312",
    "prefecture": "愛媛県",
    "prefecture_kana": "エヒメケン",
    "prefecture_code": 38,
    "city": "西条市",
    "city_kana": "サイジョウシ",
    "town": "大野",
    "town_kana": "オオノ",
    "street": null,
    "office_name": null,
    "office_name_kana": null
  },
  "1313": {
    "zip_code": "7991313",
    "prefecture": "愛媛県",
    "prefecture_kana": "エヒメケン",
    "prefecture_code": 38,
    "city": "西条市",
    "city_kana": "サイジョウシ",
    "town": "旦之上",
    "town_kana": "ダンノウエ",
    "street": null,
    "office_name": null,
    "office_name_kana": null
  },
  "1314": {
    "zip_code": "7991314",
    "prefecture": "愛媛県",
    "prefecture_kana": "エヒメケン",
    "prefecture_code": 38,
    "city": "西条市",
    "city_kana": "サイジョウシ",
    "town": "河之内",
    "town_kana": "カワノウチ",
    "street": null,
    "office_name": null,
    "office_name_kana": null
  },
  "1315": {
    "zip_code": "7991315",
    "prefecture": "愛媛県",
    "prefecture_kana": "エヒメケン",
    "prefecture_code": 38,
    "city": "西条市",
    "city_kana": "サイジョウシ",
    "town": "黒谷",
    "town_kana": "クロダニ",
    "street": null,
    "office_name": null,
    "office_name_kana": null
  },
  "1316": {
    "zip_code": "7991316",
    "prefecture": "愛媛県",
    "prefecture_kana": "エヒメケン",
    "prefecture_code": 38,
    "city": "西条市",
    "city_kana": "サイジョウシ",
    "town": "福成寺",
    "town_kana": "フクジョウジ",
    "street": null,
    "office_name": null,
    "office_name_kana": null
  },
  "1317": {
    "zip_code": "7991317",
    "prefecture": "愛媛県",
    "prefecture_kana": "エヒメケン",
    "prefecture_code": 38,
    "city": "西条市",
    "city_kana": "サイジョウシ",
    "town": "実報寺",
    "town_kana": "ジツポウジ",
    "street": null,
    "office_name": null,
    "office_name_kana": null
  },
  "1321": {
    "zip_code": "7991321",
    "prefecture": "愛媛県",
    "prefecture_kana": "エヒメケン",
    "prefecture_code": 38,
    "city": "西条市",
    "city_kana": "サイジョウシ",
    "town": "高田",
    "town_kana": "タカタ",
    "street": null,
    "office_name": null,
    "office_name_kana": null
  },
  "1322": {
    "zip_code": "7991322",
    "prefecture": "愛媛県",
    "prefecture_kana": "エヒメケン",
    "prefecture_code": 38,
    "city": "西条市",
    "city_kana": "サイジョウシ",
    "town": "国安",
    "town_kana": "クニヤス",
    "street": null,
    "office_name": null,
    "office_name_kana": null
  },
  "1323": {
    "zip_code": "7991323",
    "prefecture": "愛媛県",
    "prefecture_kana": "エヒメケン",
    "prefecture_code": 38,
    "city": "西条市",
    "city_kana": "サイジョウシ",
    "town": "桑村",
    "town_kana": "クワムラ",
    "street": null,
    "office_name": null,
    "office_name_kana": null
  },
  "1324": [
    {
      "zip_code": "7991324",
      "prefecture": "愛媛県",
      "prefecture_kana": "エヒメケン",
      "prefecture_code": 38,
      "city": "西条市",
      "city_kana": "サイジョウシ",
      "town": "高田",
      "town_kana": "タカタ",
      "street": null,
      "office_name": null,
      "office_name_kana": null
    },
    {
      "zip_code": "7991324",
      "prefecture": "愛媛県",
      "prefecture_kana": "エヒメケン",
      "prefecture_code": 38,
      "city": "西条市",
      "city_kana": "サイジョウシ",
      "town": "高田正法寺",
      "town_kana": "タカタショウホウジ",
      "street": null,
      "office_name": null,
      "office_name_kana": null
    }
  ],
  "1325": {
    "zip_code": "7991325",
    "prefecture": "愛媛県",
    "prefecture_kana": "エヒメケン",
    "prefecture_code": 38,
    "city": "西条市",
    "city_kana": "サイジョウシ",
    "town": "新市",
    "town_kana": "シンイチ",
    "street": null,
    "office_name": null,
    "office_name_kana": null
  },
  "1331": {
    "zip_code": "7991331",
    "prefecture": "愛媛県",
    "prefecture_kana": "エヒメケン",
    "prefecture_code": 38,
    "city": "西条市",
    "city_kana": "サイジョウシ",
    "town": "新町",
    "town_kana": "シンマチ",
    "street": null,
    "office_name": null,
    "office_name_kana": null
  },
  "1332": {
    "zip_code": "7991332",
    "prefecture": "愛媛県",
    "prefecture_kana": "エヒメケン",
    "prefecture_code": 38,
    "city": "西条市",
    "city_kana": "サイジョウシ",
    "town": "安用出作",
    "town_kana": "ヤスモチデサク",
    "street": null,
    "office_name": null,
    "office_name_kana": null
  },
  "1333": {
    "zip_code": "7991333",
    "prefecture": "愛媛県",
    "prefecture_kana": "エヒメケン",
    "prefecture_code": 38,
    "city": "西条市",
    "city_kana": "サイジョウシ",
    "town": "安用",
    "town_kana": "ヤスモチ",
    "street": null,
    "office_name": null,
    "office_name_kana": null
  },
  "1334": {
    "zip_code": "7991334",
    "prefecture": "愛媛県",
    "prefecture_kana": "エヒメケン",
    "prefecture_code": 38,
    "city": "西条市",
    "city_kana": "サイジョウシ",
    "town": "広岡",
    "town_kana": "ヒロオカ",
    "street": null,
    "office_name": null,
    "office_name_kana": null
  },
  "1335": {
    "zip_code": "7991335",
    "prefecture": "愛媛県",
    "prefecture_kana": "エヒメケン",
    "prefecture_code": 38,
    "city": "西条市",
    "city_kana": "サイジョウシ",
    "town": "石延",
    "town_kana": "イシノベ",
    "street": null,
    "office_name": null,
    "office_name_kana": null
  },
  "1336": {
    "zip_code": "7991336",
    "prefecture": "愛媛県",
    "prefecture_kana": "エヒメケン",
    "prefecture_code": 38,
    "city": "西条市",
    "city_kana": "サイジョウシ",
    "town": "上市",
    "town_kana": "カミイチ",
    "street": null,
    "office_name": null,
    "office_name_kana": null
  },
  "1341": {
    "zip_code": "7991341",
    "prefecture": "愛媛県",
    "prefecture_kana": "エヒメケン",
    "prefecture_code": 38,
    "city": "西条市",
    "city_kana": "サイジョウシ",
    "town": "壬生川",
    "town_kana": "ニュウガワ",
    "street": null,
    "office_name": null,
    "office_name_kana": null
  },
  "1342": {
    "zip_code": "7991342",
    "prefecture": "愛媛県",
    "prefecture_kana": "エヒメケン",
    "prefecture_code": 38,
    "city": "西条市",
    "city_kana": "サイジョウシ",
    "town": "大新田",
    "town_kana": "オオシンデン",
    "street": null,
    "office_name": null,
    "office_name_kana": null
  },
  "1343": {
    "zip_code": "7991343",
    "prefecture": "愛媛県",
    "prefecture_kana": "エヒメケン",
    "prefecture_code": 38,
    "city": "西条市",
    "city_kana": "サイジョウシ",
    "town": "喜多台",
    "town_kana": "キタダイ",
    "street": null,
    "office_name": null,
    "office_name_kana": null
  },
  "1344": {
    "zip_code": "7991344",
    "prefecture": "愛媛県",
    "prefecture_kana": "エヒメケン",
    "prefecture_code": 38,
    "city": "西条市",
    "city_kana": "サイジョウシ",
    "town": "円海寺",
    "town_kana": "エンカイジ",
    "street": null,
    "office_name": null,
    "office_name_kana": null
  },
  "1345": {
    "zip_code": "7991345",
    "prefecture": "愛媛県",
    "prefecture_kana": "エヒメケン",
    "prefecture_code": 38,
    "city": "西条市",
    "city_kana": "サイジョウシ",
    "town": "明理川",
    "town_kana": "アカリガワ",
    "street": null,
    "office_name": null,
    "office_name_kana": null
  },
  "1351": {
    "zip_code": "7991351",
    "prefecture": "愛媛県",
    "prefecture_kana": "エヒメケン",
    "prefecture_code": 38,
    "city": "西条市",
    "city_kana": "サイジョウシ",
    "town": "三津屋",
    "town_kana": "ミツヤ",
    "street": null,
    "office_name": null,
    "office_name_kana": null
  },
  "1352": {
    "zip_code": "7991352",
    "prefecture": "愛媛県",
    "prefecture_kana": "エヒメケン",
    "prefecture_code": 38,
    "city": "西条市",
    "city_kana": "サイジョウシ",
    "town": "三津屋東",
    "town_kana": "ミツヤヒガシ",
    "street": null,
    "office_name": null,
    "office_name_kana": null
  },
  "1353": {
    "zip_code": "7991353",
    "prefecture": "愛媛県",
    "prefecture_kana": "エヒメケン",
    "prefecture_code": 38,
    "city": "西条市",
    "city_kana": "サイジョウシ",
    "town": "三津屋南",
    "town_kana": "ミツヤミナミ",
    "street": null,
    "office_name": null,
    "office_name_kana": null
  },
  "1354": {
    "zip_code": "7991354",
    "prefecture": "愛媛県",
    "prefecture_kana": "エヒメケン",
    "prefecture_code": 38,
    "city": "西条市",
    "city_kana": "サイジョウシ",
    "town": "北条",
    "town_kana": "ホウジョウ",
    "street": null,
    "office_name": null,
    "office_name_kana": null
  },
  "1361": {
    "zip_code": "7991361",
    "prefecture": "愛媛県",
    "prefecture_kana": "エヒメケン",
    "prefecture_code": 38,
    "city": "西条市",
    "city_kana": "サイジョウシ",
    "town": "広江",
    "town_kana": "ヒロエ",
    "street": null,
    "office_name": null,
    "office_name_kana": null
  },
  "1362": {
    "zip_code": "7991362",
    "prefecture": "愛媛県",
    "prefecture_kana": "エヒメケン",
    "prefecture_code": 38,
    "city": "西条市",
    "city_kana": "サイジョウシ",
    "town": "今在家",
    "town_kana": "イマザイケ",
    "street": null,
    "office_name": null,
    "office_name_kana": null
  },
  "1363": {
    "zip_code": "7991363",
    "prefecture": "愛媛県",
    "prefecture_kana": "エヒメケン",
    "prefecture_code": 38,
    "city": "西条市",
    "city_kana": "サイジョウシ",
    "town": "玉之江",
    "town_kana": "タマノエ",
    "street": null,
    "office_name": null,
    "office_name_kana": null
  },
  "1364": {
    "zip_code": "7991364",
    "prefecture": "愛媛県",
    "prefecture_kana": "エヒメケン",
    "prefecture_code": 38,
    "city": "西条市",
    "city_kana": "サイジョウシ",
    "town": "石田",
    "town_kana": "イシダ",
    "street": null,
    "office_name": null,
    "office_name_kana": null
  },
  "1371": {
    "zip_code": "7991371",
    "prefecture": "愛媛県",
    "prefecture_kana": "エヒメケン",
    "prefecture_code": 38,
    "city": "西条市",
    "city_kana": "サイジョウシ",
    "town": "周布",
    "town_kana": "シュウ",
    "street": null,
    "office_name": null,
    "office_name_kana": null
  },
  "1372": {
    "zip_code": "7991372",
    "prefecture": "愛媛県",
    "prefecture_kana": "エヒメケン",
    "prefecture_code": 38,
    "city": "西条市",
    "city_kana": "サイジョウシ",
    "town": "吉田",
    "town_kana": "ヨシダ",
    "street": null,
    "office_name": null,
    "office_name_kana": null
  },
  "1392": {
    "zip_code": "7991392",
    "prefecture": "愛媛県",
    "prefecture_kana": "エヒメケン",
    "prefecture_code": 38,
    "city": "西条市",
    "city_kana": "サイジョウシ",
    "town": "北条",
    "town_kana": "ホウジョウ",
    "street": "９６２−７（東予郵便局私書箱第２２号）",
    "office_name": "株式会社　田窪工業所",
    "office_name_kana": "カブシキガイシヤ タクボコウギヨウシヨ"
  },
  "1393": {
    "zip_code": "7991393",
    "prefecture": "愛媛県",
    "prefecture_kana": "エヒメケン",
    "prefecture_code": 38,
    "city": "西条市",
    "city_kana": "サイジョウシ",
    "town": "今在家",
    "town_kana": "イマザイケ",
    "street": "１５０１",
    "office_name": "住友重機械工業　株式会社",
    "office_name_kana": "スミトモジユウキカイコウギヨウ カブシキガイシヤ"
  },
  "1394": {
    "zip_code": "7991394",
    "prefecture": "愛媛県",
    "prefecture_kana": "エヒメケン",
    "prefecture_code": 38,
    "city": "西条市",
    "city_kana": "サイジョウシ",
    "town": "周布",
    "town_kana": "シュウ",
    "street": "３４９−１（東予郵便局私書箱第１０号）",
    "office_name": "西条市役所　東予総合支所",
    "office_name_kana": "サイジヨウシヤクシヨ トウヨソウゴウシシヨ"
  },
  "1395": {
    "zip_code": "7991395",
    "prefecture": "愛媛県",
    "prefecture_kana": "エヒメケン",
    "prefecture_code": 38,
    "city": "西条市",
    "city_kana": "サイジョウシ",
    "town": "今在家",
    "town_kana": "イマザイケ",
    "street": "１５００−２",
    "office_name": "四国開発フェリー　株式会社",
    "office_name_kana": "シコクカイハツフエリ- カブシキガイシヤ"
  },
  "1501": {
    "zip_code": "7991501",
    "prefecture": "愛媛県",
    "prefecture_kana": "エヒメケン",
    "prefecture_code": 38,
    "city": "今治市",
    "city_kana": "イマバリシ",
    "town": "喜田村",
    "town_kana": "キタムラ",
    "street": null,
    "office_name": null,
    "office_name_kana": null
  },
  "1502": {
    "zip_code": "7991502",
    "prefecture": "愛媛県",
    "prefecture_kana": "エヒメケン",
    "prefecture_code": 38,
    "city": "今治市",
    "city_kana": "イマバリシ",
    "town": "喜田村",
    "town_kana": "キタムラ",
    "street": null,
    "office_name": null,
    "office_name_kana": null
  },
  "1503": {
    "zip_code": "7991503",
    "prefecture": "愛媛県",
    "prefecture_kana": "エヒメケン",
    "prefecture_code": 38,
    "city": "今治市",
    "city_kana": "イマバリシ",
    "town": "富田新港",
    "town_kana": "トミタシンコウ",
    "street": null,
    "office_name": null,
    "office_name_kana": null
  },
  "1504": {
    "zip_code": "7991504",
    "prefecture": "愛媛県",
    "prefecture_kana": "エヒメケン",
    "prefecture_code": 38,
    "city": "今治市",
    "city_kana": "イマバリシ",
    "town": "拝志",
    "town_kana": "ハイシ",
    "street": null,
    "office_name": null,
    "office_name_kana": null
  },
  "1505": {
    "zip_code": "7991505",
    "prefecture": "愛媛県",
    "prefecture_kana": "エヒメケン",
    "prefecture_code": 38,
    "city": "今治市",
    "city_kana": "イマバリシ",
    "town": "東村",
    "town_kana": "ヒガシムラ",
    "street": null,
    "office_name": null,
    "office_name_kana": null
  },
  "1506": {
    "zip_code": "7991506",
    "prefecture": "愛媛県",
    "prefecture_kana": "エヒメケン",
    "prefecture_code": 38,
    "city": "今治市",
    "city_kana": "イマバリシ",
    "town": "東村",
    "town_kana": "ヒガシムラ",
    "street": null,
    "office_name": null,
    "office_name_kana": null
  },
  "1507": {
    "zip_code": "7991507",
    "prefecture": "愛媛県",
    "prefecture_kana": "エヒメケン",
    "prefecture_code": 38,
    "city": "今治市",
    "city_kana": "イマバリシ",
    "town": "東村南",
    "town_kana": "ヒガシムラミナミ",
    "street": null,
    "office_name": null,
    "office_name_kana": null
  },
  "1511": {
    "zip_code": "7991511",
    "prefecture": "愛媛県",
    "prefecture_kana": "エヒメケン",
    "prefecture_code": 38,
    "city": "今治市",
    "city_kana": "イマバリシ",
    "town": "上徳",
    "town_kana": "カミトク",
    "street": null,
    "office_name": null,
    "office_name_kana": null
  },
  "1512": {
    "zip_code": "7991512",
    "prefecture": "愛媛県",
    "prefecture_kana": "エヒメケン",
    "prefecture_code": 38,
    "city": "今治市",
    "city_kana": "イマバリシ",
    "town": "高市",
    "town_kana": "タカイチ",
    "street": null,
    "office_name": null,
    "office_name_kana": null
  },
  "1513": {
    "zip_code": "7991513",
    "prefecture": "愛媛県",
    "prefecture_kana": "エヒメケン",
    "prefecture_code": 38,
    "city": "今治市",
    "city_kana": "イマバリシ",
    "town": "松木",
    "town_kana": "マツギ",
    "street": null,
    "office_name": null,
    "office_name_kana": null
  },
  "1514": {
    "zip_code": "7991514",
    "prefecture": "愛媛県",
    "prefecture_kana": "エヒメケン",
    "prefecture_code": 38,
    "city": "今治市",
    "city_kana": "イマバリシ",
    "town": "町谷",
    "town_kana": "マチヤ",
    "street": null,
    "office_name": null,
    "office_name_kana": null
  },
  "1521": {
    "zip_code": "7991521",
    "prefecture": "愛媛県",
    "prefecture_kana": "エヒメケン",
    "prefecture_code": 38,
    "city": "今治市",
    "city_kana": "イマバリシ",
    "town": "古国分",
    "town_kana": "フルコクブ",
    "street": null,
    "office_name": null,
    "office_name_kana": null
  },
  "1522": {
    "zip_code": "7991522",
    "prefecture": "愛媛県",
    "prefecture_kana": "エヒメケン",
    "prefecture_code": 38,
    "city": "今治市",
    "city_kana": "イマバリシ",
    "town": "桜井",
    "town_kana": "サクライ",
    "street": null,
    "office_name": null,
    "office_name_kana": null
  },
  "1523": {
    "zip_code": "7991523",
    "prefecture": "愛媛県",
    "prefecture_kana": "エヒメケン",
    "prefecture_code": 38,
    "city": "今治市",
    "city_kana": "イマバリシ",
    "town": "郷桜井",
    "town_kana": "ゴウザクライ",
    "street": null,
    "office_name": null,
    "office_name_kana": null
  },
  "1524": {
    "zip_code": "7991524",
    "prefecture": "愛媛県",
    "prefecture_kana": "エヒメケン",
    "prefecture_code": 38,
    "city": "今治市",
    "city_kana": "イマバリシ",
    "town": "桜井",
    "town_kana": "サクライ",
    "street": null,
    "office_name": null,
    "office_name_kana": null
  },
  "1525": {
    "zip_code": "7991525",
    "prefecture": "愛媛県",
    "prefecture_kana": "エヒメケン",
    "prefecture_code": 38,
    "city": "今治市",
    "city_kana": "イマバリシ",
    "town": "湯ノ浦",
    "town_kana": "ユノウラ",
    "street": null,
    "office_name": null,
    "office_name_kana": null
  },
  "1526": {
    "zip_code": "7991526",
    "prefecture": "愛媛県",
    "prefecture_kana": "エヒメケン",
    "prefecture_code": 38,
    "city": "今治市",
    "city_kana": "イマバリシ",
    "town": "孫兵衛作",
    "town_kana": "マゴベエサク",
    "street": null,
    "office_name": null,
    "office_name_kana": null
  },
  "1527": {
    "zip_code": "7991527",
    "prefecture": "愛媛県",
    "prefecture_kana": "エヒメケン",
    "prefecture_code": 38,
    "city": "今治市",
    "city_kana": "イマバリシ",
    "town": "長沢",
    "town_kana": "ナガサワ",
    "street": null,
    "office_name": null,
    "office_name_kana": null
  },
  "1531": {
    "zip_code": "7991531",
    "prefecture": "愛媛県",
    "prefecture_kana": "エヒメケン",
    "prefecture_code": 38,
    "city": "今治市",
    "city_kana": "イマバリシ",
    "town": "唐子台東",
    "town_kana": "カラコダイヒガシ",
    "street": null,
    "office_name": null,
    "office_name_kana": null
  },
  "1532": {
    "zip_code": "7991532",
    "prefecture": "愛媛県",
    "prefecture_kana": "エヒメケン",
    "prefecture_code": 38,
    "city": "今治市",
    "city_kana": "イマバリシ",
    "town": "唐子台西",
    "town_kana": "カラコダイニシ",
    "street": null,
    "office_name": null,
    "office_name_kana": null
  },
  "1533": {
    "zip_code": "7991533",
    "prefecture": "愛媛県",
    "prefecture_kana": "エヒメケン",
    "prefecture_code": 38,
    "city": "今治市",
    "city_kana": "イマバリシ",
    "town": "国分",
    "town_kana": "コクブ",
    "street": null,
    "office_name": null,
    "office_name_kana": null
  },
  "1534": {
    "zip_code": "7991534",
    "prefecture": "愛媛県",
    "prefecture_kana": "エヒメケン",
    "prefecture_code": 38,
    "city": "今治市",
    "city_kana": "イマバリシ",
    "town": "桜井団地",
    "town_kana": "サクライダンチ",
    "street": null,
    "office_name": null,
    "office_name_kana": null
  },
  "1535": {
    "zip_code": "7991535",
    "prefecture": "愛媛県",
    "prefecture_kana": "エヒメケン",
    "prefecture_code": 38,
    "city": "今治市",
    "city_kana": "イマバリシ",
    "town": "登畑",
    "town_kana": "ノボリバタ",
    "street": null,
    "office_name": null,
    "office_name_kana": null
  },
  "1536": {
    "zip_code": "7991536",
    "prefecture": "愛媛県",
    "prefecture_kana": "エヒメケン",
    "prefecture_code": 38,
    "city": "今治市",
    "city_kana": "イマバリシ",
    "town": "旦",
    "town_kana": "ダン",
    "street": null,
    "office_name": null,
    "office_name_kana": null
  },
  "1537": {
    "zip_code": "7991537",
    "prefecture": "愛媛県",
    "prefecture_kana": "エヒメケン",
    "prefecture_code": 38,
    "city": "今治市",
    "city_kana": "イマバリシ",
    "town": "宮ケ崎",
    "town_kana": "ミヤガザキ",
    "street": null,
    "office_name": null,
    "office_name_kana": null
  },
  "1581": {
    "zip_code": "7991581",
    "prefecture": "愛媛県",
    "prefecture_kana": "エヒメケン",
    "prefecture_code": 38,
    "city": "今治市",
    "city_kana": "イマバリシ",
    "town": "喜田村",
    "town_kana": "キタムラ",
    "street": "１丁目６−４０",
    "office_name": "第一印刷　株式会社",
    "office_name_kana": "ダイイチインサツ カブシキガイシヤ"
  },
  "1582": {
    "zip_code": "7991582",
    "prefecture": "愛媛県",
    "prefecture_kana": "エヒメケン",
    "prefecture_code": 38,
    "city": "今治市",
    "city_kana": "イマバリシ",
    "town": "富田新港",
    "town_kana": "トミタシンコウ",
    "street": "１丁目３",
    "office_name": "日本食研　株式会社",
    "office_name_kana": "ニホンシヨツケン カブシキカイシヤ"
  },
  "1588": {
    "zip_code": "7991588",
    "prefecture": "愛媛県",
    "prefecture_kana": "エヒメケン",
    "prefecture_code": 38,
    "city": "今治市",
    "city_kana": "イマバリシ",
    "town": "東村",
    "town_kana": "ヒガシムラ",
    "street": "１丁目１４−２",
    "office_name": "ワールドプラザ",
    "office_name_kana": "ワ-ルドプラザ"
  },
  "1592": {
    "zip_code": "7991592",
    "prefecture": "愛媛県",
    "prefecture_kana": "エヒメケン",
    "prefecture_code": 38,
    "city": "今治市",
    "city_kana": "イマバリシ",
    "town": "喜田村",
    "town_kana": "キタムラ",
    "street": "７−１−６",
    "office_name": "社会福祉法人　恩賜財団　済生会今治病院",
    "office_name_kana": "シヤカイフクシホウジン オンシザイダン サイセイカイイマバリビヨウイン"
  },
  "1593": {
    "zip_code": "7991593",
    "prefecture": "愛媛県",
    "prefecture_kana": "エヒメケン",
    "prefecture_code": 38,
    "city": "今治市",
    "city_kana": "イマバリシ",
    "town": "喜田村",
    "town_kana": "キタムラ",
    "street": "１−４−１２",
    "office_name": "株式会社原商会",
    "office_name_kana": "カブシキガイシヤハラシヨウカイ"
  },
  "1594": {
    "zip_code": "7991594",
    "prefecture": "愛媛県",
    "prefecture_kana": "エヒメケン",
    "prefecture_code": 38,
    "city": "今治市",
    "city_kana": "イマバリシ",
    "town": "喜田村",
    "town_kana": "キタムラ",
    "street": "１−２−１",
    "office_name": "原印刷　株式会社",
    "office_name_kana": "ハラインサツ カブシキガイシヤ"
  },
  "1595": {
    "zip_code": "7991595",
    "prefecture": "愛媛県",
    "prefecture_kana": "エヒメケン",
    "prefecture_code": 38,
    "city": "今治市",
    "city_kana": "イマバリシ",
    "town": "国分",
    "town_kana": "コクブ",
    "street": "１−８−５５",
    "office_name": "（株）　橘屋",
    "office_name_kana": "カブシキガイシヤ タチバナヤ"
  },
  "1596": {
    "zip_code": "7991596",
    "prefecture": "愛媛県",
    "prefecture_kana": "エヒメケン",
    "prefecture_code": 38,
    "city": "今治市",
    "city_kana": "イマバリシ",
    "town": "桜井",
    "town_kana": "サクライ",
    "street": "２丁目９−１",
    "office_name": "愛媛県立　今治東高等学校",
    "office_name_kana": "エヒメケンリツ イマバリヒガシコウトウガツコウ"
  },
  "1598": {
    "zip_code": "7991598",
    "prefecture": "愛媛県",
    "prefecture_kana": "エヒメケン",
    "prefecture_code": 38,
    "city": "今治市",
    "city_kana": "イマバリシ",
    "town": "高市",
    "town_kana": "タカイチ",
    "street": "甲７８６−１３",
    "office_name": "財団法人　正光会　今治病院",
    "office_name_kana": "ザイダンホウジン シヨウコウカイ イマバリビヨウイン"
  },
  "1601": {
    "zip_code": "7991601",
    "prefecture": "愛媛県",
    "prefecture_kana": "エヒメケン",
    "prefecture_code": 38,
    "city": "今治市",
    "city_kana": "イマバリシ",
    "town": "古谷",
    "town_kana": "コヤ",
    "street": null,
    "office_name": null,
    "office_name_kana": null
  },
  "1602": {
    "zip_code": "7991602",
    "prefecture": "愛媛県",
    "prefecture_kana": "エヒメケン",
    "prefecture_code": 38,
    "city": "今治市",
    "city_kana": "イマバリシ",
    "town": "山口",
    "town_kana": "ヤマグチ",
    "street": null,
    "office_name": null,
    "office_name_kana": null
  },
  "1603": {
    "zip_code": "7991603",
    "prefecture": "愛媛県",
    "prefecture_kana": "エヒメケン",
    "prefecture_code": 38,
    "city": "今治市",
    "city_kana": "イマバリシ",
    "town": "朝倉下",
    "town_kana": "アサクラシモ",
    "street": null,
    "office_name": null,
    "office_name_kana": null
  },
  "1604": {
    "zip_code": "7991604",
    "prefecture": "愛媛県",
    "prefecture_kana": "エヒメケン",
    "prefecture_code": 38,
    "city": "今治市",
    "city_kana": "イマバリシ",
    "town": "朝倉北",
    "town_kana": "アサクラキタ",
    "street": null,
    "office_name": null,
    "office_name_kana": null
  },
  "1605": {
    "zip_code": "7991605",
    "prefecture": "愛媛県",
    "prefecture_kana": "エヒメケン",
    "prefecture_code": 38,
    "city": "今治市",
    "city_kana": "イマバリシ",
    "town": "朝倉南甲",
    "town_kana": "アサクラミナミコウ",
    "street": null,
    "office_name": null,
    "office_name_kana": null
  },
  "1606": {
    "zip_code": "7991606",
    "prefecture": "愛媛県",
    "prefecture_kana": "エヒメケン",
    "prefecture_code": 38,
    "city": "今治市",
    "city_kana": "イマバリシ",
    "town": "朝倉南乙",
    "town_kana": "アサクラミナミオツ",
    "street": null,
    "office_name": null,
    "office_name_kana": null
  },
  "1607": {
    "zip_code": "7991607",
    "prefecture": "愛媛県",
    "prefecture_kana": "エヒメケン",
    "prefecture_code": 38,
    "city": "今治市",
    "city_kana": "イマバリシ",
    "town": "朝倉上",
    "town_kana": "アサクラカミ",
    "street": null,
    "office_name": null,
    "office_name_kana": null
  },
  "1608": {
    "zip_code": "7991608",
    "prefecture": "愛媛県",
    "prefecture_kana": "エヒメケン",
    "prefecture_code": 38,
    "city": "今治市",
    "city_kana": "イマバリシ",
    "town": "朝倉南丙",
    "town_kana": "アサクラミナミヘイ",
    "street": null,
    "office_name": null,
    "office_name_kana": null
  },
  "1692": {
    "zip_code": "7991692",
    "prefecture": "愛媛県",
    "prefecture_kana": "エヒメケン",
    "prefecture_code": 38,
    "city": "今治市",
    "city_kana": "イマバリシ",
    "town": "朝倉北",
    "town_kana": "アサクラキタ",
    "street": "甲３９７",
    "office_name": "今治市役所　朝倉支所",
    "office_name_kana": "イマバリシヤクシヨ アサクラシシヨ"
  },
  "2101": {
    "zip_code": "7992101",
    "prefecture": "愛媛県",
    "prefecture_kana": "エヒメケン",
    "prefecture_code": 38,
    "city": "今治市",
    "city_kana": "イマバリシ",
    "town": "波方町波方",
    "town_kana": "ナミカタチョウナミカタ",
    "street": null,
    "office_name": null,
    "office_name_kana": null
  },
  "2102": {
    "zip_code": "7992102",
    "prefecture": "愛媛県",
    "prefecture_kana": "エヒメケン",
    "prefecture_code": 38,
    "city": "今治市",
    "city_kana": "イマバリシ",
    "town": "波方町樋口",
    "town_kana": "ナミカタチョウヒノクチ",
    "street": null,
    "office_name": null,
    "office_name_kana": null
  },
  "2103": {
    "zip_code": "7992103",
    "prefecture": "愛媛県",
    "prefecture_kana": "エヒメケン",
    "prefecture_code": 38,
    "city": "今治市",
    "city_kana": "イマバリシ",
    "town": "波方町小部",
    "town_kana": "ナミカタチョウオベ",
    "street": null,
    "office_name": null,
    "office_name_kana": null
  },
  "2104": {
    "zip_code": "7992104",
    "prefecture": "愛媛県",
    "prefecture_kana": "エヒメケン",
    "prefecture_code": 38,
    "city": "今治市",
    "city_kana": "イマバリシ",
    "town": "波方町宮崎",
    "town_kana": "ナミカタチョウミヤザキ",
    "street": null,
    "office_name": null,
    "office_name_kana": null
  },
  "2105": {
    "zip_code": "7992105",
    "prefecture": "愛媛県",
    "prefecture_kana": "エヒメケン",
    "prefecture_code": 38,
    "city": "今治市",
    "city_kana": "イマバリシ",
    "town": "波方町馬刀潟",
    "town_kana": "ナミカタチョウマテガタ",
    "street": null,
    "office_name": null,
    "office_name_kana": null
  },
  "2106": {
    "zip_code": "7992106",
    "prefecture": "愛媛県",
    "prefecture_kana": "エヒメケン",
    "prefecture_code": 38,
    "city": "今治市",
    "city_kana": "イマバリシ",
    "town": "波方町森上",
    "town_kana": "ナミカタチョウモリアゲ",
    "street": null,
    "office_name": null,
    "office_name_kana": null
  },
  "2107": {
    "zip_code": "7992107",
    "prefecture": "愛媛県",
    "prefecture_kana": "エヒメケン",
    "prefecture_code": 38,
    "city": "今治市",
    "city_kana": "イマバリシ",
    "town": "波方町西浦",
    "town_kana": "ナミカタチョウニシウラ",
    "street": null,
    "office_name": null,
    "office_name_kana": null
  },
  "2108": {
    "zip_code": "7992108",
    "prefecture": "愛媛県",
    "prefecture_kana": "エヒメケン",
    "prefecture_code": 38,
    "city": "今治市",
    "city_kana": "イマバリシ",
    "town": "波方町岡",
    "town_kana": "ナミカタチョウオカ",
    "street": null,
    "office_name": null,
    "office_name_kana": null
  },
  "2109": {
    "zip_code": "7992109",
    "prefecture": "愛媛県",
    "prefecture_kana": "エヒメケン",
    "prefecture_code": 38,
    "city": "今治市",
    "city_kana": "イマバリシ",
    "town": "波方町養老",
    "town_kana": "ナミカタチョウヨウロウ",
    "street": null,
    "office_name": null,
    "office_name_kana": null
  },
  "2110": [
    {
      "zip_code": "7992110",
      "prefecture": "愛媛県",
      "prefecture_kana": "エヒメケン",
      "prefecture_code": 38,
      "city": "今治市",
      "city_kana": "イマバリシ",
      "town": "波方町大浦",
      "town_kana": "ナミカタチョウオオウラ",
      "street": null,
      "office_name": null,
      "office_name_kana": null
    },
    {
      "zip_code": "7992110",
      "prefecture": "愛媛県",
      "prefecture_kana": "エヒメケン",
      "prefecture_code": 38,
      "city": "今治市",
      "city_kana": "イマバリシ",
      "town": "波方町郷",
      "town_kana": "ナミカタチョウゴウ",
      "street": null,
      "office_name": null,
      "office_name_kana": null
    }
  ],
  "2111": {
    "zip_code": "7992111",
    "prefecture": "愛媛県",
    "prefecture_kana": "エヒメケン",
    "prefecture_code": 38,
    "city": "今治市",
    "city_kana": "イマバリシ",
    "town": "小浦町",
    "town_kana": "コウラチョウ",
    "street": null,
    "office_name": null,
    "office_name_kana": null
  },
  "2112": {
    "zip_code": "7992112",
    "prefecture": "愛媛県",
    "prefecture_kana": "エヒメケン",
    "prefecture_code": 38,
    "city": "今治市",
    "city_kana": "イマバリシ",
    "town": "波止浜",
    "town_kana": "ハシハマ",
    "street": null,
    "office_name": null,
    "office_name_kana": null
  },
  "2113": {
    "zip_code": "7992113",
    "prefecture": "愛媛県",
    "prefecture_kana": "エヒメケン",
    "prefecture_code": 38,
    "city": "今治市",
    "city_kana": "イマバリシ",
    "town": "高部",
    "town_kana": "タカベ",
    "street": null,
    "office_name": null,
    "office_name_kana": null
  },
  "2114": {
    "zip_code": "7992114",
    "prefecture": "愛媛県",
    "prefecture_kana": "エヒメケン",
    "prefecture_code": 38,
    "city": "今治市",
    "city_kana": "イマバリシ",
    "town": "杣田",
    "town_kana": "ソマダ",
    "street": null,
    "office_name": null,
    "office_name_kana": null
  },
  "2115": {
    "zip_code": "7992115",
    "prefecture": "愛媛県",
    "prefecture_kana": "エヒメケン",
    "prefecture_code": 38,
    "city": "今治市",
    "city_kana": "イマバリシ",
    "town": "中堀",
    "town_kana": "ナカボリ",
    "street": null,
    "office_name": null,
    "office_name_kana": null
  },
  "2116": {
    "zip_code": "7992116",
    "prefecture": "愛媛県",
    "prefecture_kana": "エヒメケン",
    "prefecture_code": 38,
    "city": "今治市",
    "city_kana": "イマバリシ",
    "town": "内堀",
    "town_kana": "ウチボリ",
    "street": null,
    "office_name": null,
    "office_name_kana": null
  },
  "2117": {
    "zip_code": "7992117",
    "prefecture": "愛媛県",
    "prefecture_kana": "エヒメケン",
    "prefecture_code": 38,
    "city": "今治市",
    "city_kana": "イマバリシ",
    "town": "地堀",
    "town_kana": "ジボリ",
    "street": null,
    "office_name": null,
    "office_name_kana": null
  },
  "2118": {
    "zip_code": "7992118",
    "prefecture": "愛媛県",
    "prefecture_kana": "エヒメケン",
    "prefecture_code": 38,
    "city": "今治市",
    "city_kana": "イマバリシ",
    "town": "波止浜",
    "town_kana": "ハシハマ",
    "street": null,
    "office_name": null,
    "office_name_kana": null
  },
  "2121": {
    "zip_code": "7992121",
    "prefecture": "愛媛県",
    "prefecture_kana": "エヒメケン",
    "prefecture_code": 38,
    "city": "今治市",
    "city_kana": "イマバリシ",
    "town": "来島",
    "town_kana": "クルシマ",
    "street": null,
    "office_name": null,
    "office_name_kana": null
  },
  "2122": [
    {
      "zip_code": "7992122",
      "prefecture": "愛媛県",
      "prefecture_kana": "エヒメケン",
      "prefecture_code": 38,
      "city": "今治市",
      "city_kana": "イマバリシ",
      "town": "来島",
      "town_kana": "クルシマ",
      "street": null,
      "office_name": null,
      "office_name_kana": null
    },
    {
      "zip_code": "7992122",
      "prefecture": "愛媛県",
      "prefecture_kana": "エヒメケン",
      "prefecture_code": 38,
      "city": "今治市",
      "city_kana": "イマバリシ",
      "town": "来島小島",
      "town_kana": "クルシマオシマ",
      "street": null,
      "office_name": null,
      "office_name_kana": null
    }
  ],
  "2123": {
    "zip_code": "7992123",
    "prefecture": "愛媛県",
    "prefecture_kana": "エヒメケン",
    "prefecture_code": 38,
    "city": "今治市",
    "city_kana": "イマバリシ",
    "town": "馬島",
    "town_kana": "ウマシマ",
    "street": null,
    "office_name": null,
    "office_name_kana": null
  },
  "2192": {
    "zip_code": "7992192",
    "prefecture": "愛媛県",
    "prefecture_kana": "エヒメケン",
    "prefecture_code": 38,
    "city": "今治市",
    "city_kana": "イマバリシ",
    "town": "波方町樋口",
    "town_kana": "ナミカタチョウヒノクチ",
    "street": "甲２５０",
    "office_name": "今治市役所　波方支所",
    "office_name_kana": "イマバリシヤクシヨ ナミカタシシヨ"
  },
  "2195": {
    "zip_code": "7992195",
    "prefecture": "愛媛県",
    "prefecture_kana": "エヒメケン",
    "prefecture_code": 38,
    "city": "今治市",
    "city_kana": "イマバリシ",
    "town": "小浦町",
    "town_kana": "コウラチョウ",
    "street": "１丁目４−５２",
    "office_name": "今治造船　株式会社",
    "office_name_kana": "イマバリゾウセン カブシキガイシヤ"
  },
  "2201": {
    "zip_code": "7992201",
    "prefecture": "愛媛県",
    "prefecture_kana": "エヒメケン",
    "prefecture_code": 38,
    "city": "今治市",
    "city_kana": "イマバリシ",
    "town": "大西町九王",
    "town_kana": "オオニシチョウクオウ",
    "street": null,
    "office_name": null,
    "office_name_kana": null
  },
  "2202": {
    "zip_code": "7992202",
    "prefecture": "愛媛県",
    "prefecture_kana": "エヒメケン",
    "prefecture_code": 38,
    "city": "今治市",
    "city_kana": "イマバリシ",
    "town": "大西町紺原",
    "town_kana": "オオニシチョウコンバラ",
    "street": null,
    "office_name": null,
    "office_name_kana": null
  },
  "2203": {
    "zip_code": "7992203",
    "prefecture": "愛媛県",
    "prefecture_kana": "エヒメケン",
    "prefecture_code": 38,
    "city": "今治市",
    "city_kana": "イマバリシ",
    "town": "大西町新町",
    "town_kana": "オオニシチョウシンチョウ",
    "street": null,
    "office_name": null,
    "office_name_kana": null
  },
  "2204": {
    "zip_code": "7992204",
    "prefecture": "愛媛県",
    "prefecture_kana": "エヒメケン",
    "prefecture_code": 38,
    "city": "今治市",
    "city_kana": "イマバリシ",
    "town": "大西町大井浜",
    "town_kana": "オオニシチョウオオイハマ",
    "street": null,
    "office_name": null,
    "office_name_kana": null
  },
  "2205": {
    "zip_code": "7992205",
    "prefecture": "愛媛県",
    "prefecture_kana": "エヒメケン",
    "prefecture_code": 38,
    "city": "今治市",
    "city_kana": "イマバリシ",
    "town": "大西町宮脇",
    "town_kana": "オオニシチョウミヤワキ",
    "street": null,
    "office_name": null,
    "office_name_kana": null
  },
  "2206": {
    "zip_code": "7992206",
    "prefecture": "愛媛県",
    "prefecture_kana": "エヒメケン",
    "prefecture_code": 38,
    "city": "今治市",
    "city_kana": "イマバリシ",
    "town": "大西町脇",
    "town_kana": "オオニシチョウワキ",
    "street": null,
    "office_name": null,
    "office_name_kana": null
  },
  "2207": {
    "zip_code": "7992207",
    "prefecture": "愛媛県",
    "prefecture_kana": "エヒメケン",
    "prefecture_code": 38,
    "city": "今治市",
    "city_kana": "イマバリシ",
    "town": "大西町山之内",
    "town_kana": "オオニシチョウヤマノウチ",
    "street": null,
    "office_name": null,
    "office_name_kana": null
  },
  "2208": {
    "zip_code": "7992208",
    "prefecture": "愛媛県",
    "prefecture_kana": "エヒメケン",
    "prefecture_code": 38,
    "city": "今治市",
    "city_kana": "イマバリシ",
    "town": "大西町星浦",
    "town_kana": "オオニシチョウホシノウラ",
    "street": null,
    "office_name": null,
    "office_name_kana": null
  },
  "2209": {
    "zip_code": "7992209",
    "prefecture": "愛媛県",
    "prefecture_kana": "エヒメケン",
    "prefecture_code": 38,
    "city": "今治市",
    "city_kana": "イマバリシ",
    "town": "大西町別府",
    "town_kana": "オオニシチョウベフ",
    "street": null,
    "office_name": null,
    "office_name_kana": null
  },
  "2292": {
    "zip_code": "7992292",
    "prefecture": "愛媛県",
    "prefecture_kana": "エヒメケン",
    "prefecture_code": 38,
    "city": "今治市",
    "city_kana": "イマバリシ",
    "town": "大西町宮脇",
    "town_kana": "オオニシチョウミヤワキ",
    "street": "甲５０６−１",
    "office_name": "今治市役所　大西支所",
    "office_name_kana": "イマバリシヤクシヨ オオニシシシヨ"
  },
  "2293": {
    "zip_code": "7992293",
    "prefecture": "愛媛県",
    "prefecture_kana": "エヒメケン",
    "prefecture_code": 38,
    "city": "今治市",
    "city_kana": "イマバリシ",
    "town": "大西町新町",
    "town_kana": "オオニシチョウシンチョウ",
    "street": "甲９４５",
    "office_name": "株式会社　新来島どっく",
    "office_name_kana": "カブシキガイシヤ シンクルシマドツク"
  },
  "2294": {
    "zip_code": "7992294",
    "prefecture": "愛媛県",
    "prefecture_kana": "エヒメケン",
    "prefecture_code": 38,
    "city": "今治市",
    "city_kana": "イマバリシ",
    "town": "大西町九王",
    "town_kana": "オオニシチョウクオウ",
    "street": "甲１５２０",
    "office_name": "渦潮電機　株式会社",
    "office_name_kana": "ウズシオデンキ カブシキガイシヤ"
  },
  "2301": {
    "zip_code": "7992301",
    "prefecture": "愛媛県",
    "prefecture_kana": "エヒメケン",
    "prefecture_code": 38,
    "city": "今治市",
    "city_kana": "イマバリシ",
    "town": "菊間町佐方",
    "town_kana": "キクマチョウサガタ",
    "street": null,
    "office_name": null,
    "office_name_kana": null
  },
  "2302": {
    "zip_code": "7992302",
    "prefecture": "愛媛県",
    "prefecture_kana": "エヒメケン",
    "prefecture_code": 38,
    "city": "今治市",
    "city_kana": "イマバリシ",
    "town": "菊間町種",
    "town_kana": "キクマチョウタネ",
    "street": null,
    "office_name": null,
    "office_name_kana": null
  },
  "2303": {
    "zip_code": "7992303",
    "prefecture": "愛媛県",
    "prefecture_kana": "エヒメケン",
    "prefecture_code": 38,
    "city": "今治市",
    "city_kana": "イマバリシ",
    "town": "菊間町浜",
    "town_kana": "キクマチョウハマ",
    "street": null,
    "office_name": null,
    "office_name_kana": null
  },
  "2304": {
    "zip_code": "7992304",
    "prefecture": "愛媛県",
    "prefecture_kana": "エヒメケン",
    "prefecture_code": 38,
    "city": "今治市",
    "city_kana": "イマバリシ",
    "town": "菊間町池原",
    "town_kana": "キクマチョウイケノハラ",
    "street": null,
    "office_name": null,
    "office_name_kana": null
  },
  "2305": {
    "zip_code": "7992305",
    "prefecture": "愛媛県",
    "prefecture_kana": "エヒメケン",
    "prefecture_code": 38,
    "city": "今治市",
    "city_kana": "イマバリシ",
    "town": "菊間町松尾",
    "town_kana": "キクマチョウマツオ",
    "street": null,
    "office_name": null,
    "office_name_kana": null
  },
  "2306": {
    "zip_code": "7992306",
    "prefecture": "愛媛県",
    "prefecture_kana": "エヒメケン",
    "prefecture_code": 38,
    "city": "今治市",
    "city_kana": "イマバリシ",
    "town": "菊間町河之内",
    "town_kana": "キクマチョウカワノウチ",
    "street": null,
    "office_name": null,
    "office_name_kana": null
  },
  "2307": {
    "zip_code": "7992307",
    "prefecture": "愛媛県",
    "prefecture_kana": "エヒメケン",
    "prefecture_code": 38,
    "city": "今治市",
    "city_kana": "イマバリシ",
    "town": "菊間町川上",
    "town_kana": "キクマチョウカワカミ",
    "street": null,
    "office_name": null,
    "office_name_kana": null
  },
  "2308": {
    "zip_code": "7992308",
    "prefecture": "愛媛県",
    "prefecture_kana": "エヒメケン",
    "prefecture_code": 38,
    "city": "今治市",
    "city_kana": "イマバリシ",
    "town": "菊間町中川",
    "town_kana": "キクマチョウナカノカワ",
    "street": null,
    "office_name": null,
    "office_name_kana": null
  },
  "2309": {
    "zip_code": "7992309",
    "prefecture": "愛媛県",
    "prefecture_kana": "エヒメケン",
    "prefecture_code": 38,
    "city": "今治市",
    "city_kana": "イマバリシ",
    "town": "菊間町高田",
    "town_kana": "キクマチョウコウダ",
    "street": null,
    "office_name": null,
    "office_name_kana": null
  },
  "2310": {
    "zip_code": "7992310",
    "prefecture": "愛媛県",
    "prefecture_kana": "エヒメケン",
    "prefecture_code": 38,
    "city": "今治市",
    "city_kana": "イマバリシ",
    "town": "菊間町長坂",
    "town_kana": "キクマチョウナガサカ",
    "street": null,
    "office_name": null,
    "office_name_kana": null
  },
  "2311": {
    "zip_code": "7992311",
    "prefecture": "愛媛県",
    "prefecture_kana": "エヒメケン",
    "prefecture_code": 38,
    "city": "今治市",
    "city_kana": "イマバリシ",
    "town": "菊間町西山",
    "town_kana": "キクマチョウニシヤマ",
    "street": null,
    "office_name": null,
    "office_name_kana": null
  },
  "2312": {
    "zip_code": "7992312",
    "prefecture": "愛媛県",
    "prefecture_kana": "エヒメケン",
    "prefecture_code": 38,
    "city": "今治市",
    "city_kana": "イマバリシ",
    "town": "菊間町田之尻",
    "town_kana": "キクマチョウタノシリ",
    "street": null,
    "office_name": null,
    "office_name_kana": null
  },
  "2392": {
    "zip_code": "7992392",
    "prefecture": "愛媛県",
    "prefecture_kana": "エヒメケン",
    "prefecture_code": 38,
    "city": "今治市",
    "city_kana": "イマバリシ",
    "town": "菊間町浜",
    "town_kana": "キクマチョウハマ",
    "street": "８２２（菊間郵便局私書箱第５号）",
    "office_name": "今治市役所　菊間支所",
    "office_name_kana": "イマバリシヤクシヨ キクマシシヨ"
  },
  "2393": {
    "zip_code": "7992393",
    "prefecture": "愛媛県",
    "prefecture_kana": "エヒメケン",
    "prefecture_code": 38,
    "city": "今治市",
    "city_kana": "イマバリシ",
    "town": "菊間町種",
    "town_kana": "キクマチョウタネ",
    "street": "４０７０−２",
    "office_name": "太陽石油　株式会社　四国事業所",
    "office_name_kana": "タイヨウセキユ カブシキガイシヤ シコクジギヨウシヨ"
  },
  "2401": {
    "zip_code": "7992401",
    "prefecture": "愛媛県",
    "prefecture_kana": "エヒメケン",
    "prefecture_code": 38,
    "city": "松山市",
    "city_kana": "マツヤマシ",
    "town": "浅海原",
    "town_kana": "アサナミハラ",
    "street": null,
    "office_name": null,
    "office_name_kana": null
  },
  "2402": {
    "zip_code": "7992402",
    "prefecture": "愛媛県",
    "prefecture_kana": "エヒメケン",
    "prefecture_code": 38,
    "city": "松山市",
    "city_kana": "マツヤマシ",
    "town": "浅海本谷",
    "town_kana": "アサナミホンダニ",
    "street": null,
    "office_name": null,
    "office_name_kana": null
  },
  "2403": {
    "zip_code": "7992403",
    "prefecture": "愛媛県",
    "prefecture_kana": "エヒメケン",
    "prefecture_code": 38,
    "city": "松山市",
    "city_kana": "マツヤマシ",
    "town": "萩原",
    "town_kana": "ハギワラ",
    "street": null,
    "office_name": null,
    "office_name_kana": null
  },
  "2404": {
    "zip_code": "7992404",
    "prefecture": "愛媛県",
    "prefecture_kana": "エヒメケン",
    "prefecture_code": 38,
    "city": "松山市",
    "city_kana": "マツヤマシ",
    "town": "庄",
    "town_kana": "ショウ",
    "street": null,
    "office_name": null,
    "office_name_kana": null
  },
  "2405": {
    "zip_code": "7992405",
    "prefecture": "愛媛県",
    "prefecture_kana": "エヒメケン",
    "prefecture_code": 38,
    "city": "松山市",
    "city_kana": "マツヤマシ",
    "town": "上難波",
    "town_kana": "カミナンバ",
    "street": null,
    "office_name": null,
    "office_name_kana": null
  },
  "2406": {
    "zip_code": "7992406",
    "prefecture": "愛媛県",
    "prefecture_kana": "エヒメケン",
    "prefecture_code": 38,
    "city": "松山市",
    "city_kana": "マツヤマシ",
    "town": "中通",
    "town_kana": "ナカドオリ",
    "street": null,
    "office_name": null,
    "office_name_kana": null
  },
  "2407": {
    "zip_code": "7992407",
    "prefecture": "愛媛県",
    "prefecture_kana": "エヒメケン",
    "prefecture_code": 38,
    "city": "松山市",
    "city_kana": "マツヤマシ",
    "town": "下難波",
    "town_kana": "シモナンバ",
    "street": null,
    "office_name": null,
    "office_name_kana": null
  },
  "2408": {
    "zip_code": "7992408",
    "prefecture": "愛媛県",
    "prefecture_kana": "エヒメケン",
    "prefecture_code": 38,
    "city": "松山市",
    "city_kana": "マツヤマシ",
    "town": "大浦",
    "town_kana": "オオウラ",
    "street": null,
    "office_name": null,
    "office_name_kana": null
  },
  "2410": {
    "zip_code": "7992410",
    "prefecture": "愛媛県",
    "prefecture_kana": "エヒメケン",
    "prefecture_code": 38,
    "city": "松山市",
    "city_kana": "マツヤマシ",
    "town": "小山田",
    "town_kana": "オヤマダ",
    "street": null,
    "office_name": null,
    "office_name_kana": null
  },
  "2411": {
    "zip_code": "7992411",
    "prefecture": "愛媛県",
    "prefecture_kana": "エヒメケン",
    "prefecture_code": 38,
    "city": "松山市",
    "city_kana": "マツヤマシ",
    "town": "儀式",
    "town_kana": "ギシキ",
    "street": null,
    "office_name": null,
    "office_name_kana": null
  },
  "2412": {
    "zip_code": "7992412",
    "prefecture": "愛媛県",
    "prefecture_kana": "エヒメケン",
    "prefecture_code": 38,
    "city": "松山市",
    "city_kana": "マツヤマシ",
    "town": "庄府",
    "town_kana": "ショウブ",
    "street": null,
    "office_name": null,
    "office_name_kana": null
  },
  "2413": {
    "zip_code": "7992413",
    "prefecture": "愛媛県",
    "prefecture_kana": "エヒメケン",
    "prefecture_code": 38,
    "city": "松山市",
    "city_kana": "マツヤマシ",
    "town": "立岩米之野",
    "town_kana": "タテイワコメノノ",
    "street": null,
    "office_name": null,
    "office_name_kana": null
  },
  "2414": {
    "zip_code": "7992414",
    "prefecture": "愛媛県",
    "prefecture_kana": "エヒメケン",
    "prefecture_code": 38,
    "city": "松山市",
    "city_kana": "マツヤマシ",
    "town": "立岩中村",
    "town_kana": "タテイワナカムラ",
    "street": null,
    "office_name": null,
    "office_name_kana": null
  },
  "2415": {
    "zip_code": "7992415",
    "prefecture": "愛媛県",
    "prefecture_kana": "エヒメケン",
    "prefecture_code": 38,
    "city": "松山市",
    "city_kana": "マツヤマシ",
    "town": "猿川",
    "town_kana": "サルカワ",
    "street": null,
    "office_name": null,
    "office_name_kana": null
  },
  "2416": [
    {
      "zip_code": "7992416",
      "prefecture": "愛媛県",
      "prefecture_kana": "エヒメケン",
      "prefecture_code": 38,
      "city": "松山市",
      "city_kana": "マツヤマシ",
      "town": "猪木",
      "town_kana": "イノキ",
      "street": null,
      "office_name": null,
      "office_name_kana": null
    },
    {
      "zip_code": "7992416",
      "prefecture": "愛媛県",
      "prefecture_kana": "エヒメケン",
      "prefecture_code": 38,
      "city": "松山市",
      "city_kana": "マツヤマシ",
      "town": "滝本",
      "town_kana": "タキモト",
      "street": null,
      "office_name": null,
      "office_name_kana": null
    }
  ],
  "2417": {
    "zip_code": "7992417",
    "prefecture": "愛媛県",
    "prefecture_kana": "エヒメケン",
    "prefecture_code": 38,
    "city": "松山市",
    "city_kana": "マツヤマシ",
    "town": "才之原",
    "town_kana": "サイノハラ",
    "street": null,
    "office_name": null,
    "office_name_kana": null
  },
  "2418": {
    "zip_code": "7992418",
    "prefecture": "愛媛県",
    "prefecture_kana": "エヒメケン",
    "prefecture_code": 38,
    "city": "松山市",
    "city_kana": "マツヤマシ",
    "town": "尾儀原",
    "town_kana": "オギハラ",
    "street": null,
    "office_name": null,
    "office_name_kana": null
  },
  "2419": {
    "zip_code": "7992419",
    "prefecture": "愛媛県",
    "prefecture_kana": "エヒメケン",
    "prefecture_code": 38,
    "city": "松山市",
    "city_kana": "マツヤマシ",
    "town": "猿川原",
    "town_kana": "サルカワバラ",
    "street": null,
    "office_name": null,
    "office_name_kana": null
  },
  "2421": {
    "zip_code": "7992421",
    "prefecture": "愛媛県",
    "prefecture_kana": "エヒメケン",
    "prefecture_code": 38,
    "city": "松山市",
    "city_kana": "マツヤマシ",
    "town": "正岡神田",
    "town_kana": "マサオカカンダ",
    "street": null,
    "office_name": null,
    "office_name_kana": null
  },
  "2422": {
    "zip_code": "7992422",
    "prefecture": "愛媛県",
    "prefecture_kana": "エヒメケン",
    "prefecture_code": 38,
    "city": "松山市",
    "city_kana": "マツヤマシ",
    "town": "高田",
    "town_kana": "タカタ",
    "street": null,
    "office_name": null,
    "office_name_kana": null
  },
  "2423": {
    "zip_code": "7992423",
    "prefecture": "愛媛県",
    "prefecture_kana": "エヒメケン",
    "prefecture_code": 38,
    "city": "松山市",
    "city_kana": "マツヤマシ",
    "town": "院内",
    "town_kana": "インナイ",
    "street": null,
    "office_name": null,
    "office_name_kana": null
  },
  "2424": {
    "zip_code": "7992424",
    "prefecture": "愛媛県",
    "prefecture_kana": "エヒメケン",
    "prefecture_code": 38,
    "city": "松山市",
    "city_kana": "マツヤマシ",
    "town": "八反地",
    "town_kana": "ハッタンジ",
    "street": null,
    "office_name": null,
    "office_name_kana": null
  },
  "2425": {
    "zip_code": "7992425",
    "prefecture": "愛媛県",
    "prefecture_kana": "エヒメケン",
    "prefecture_code": 38,
    "city": "松山市",
    "city_kana": "マツヤマシ",
    "town": "中西外",
    "town_kana": "ナカニシソト",
    "street": null,
    "office_name": null,
    "office_name_kana": null
  },
  "2426": {
    "zip_code": "7992426",
    "prefecture": "愛媛県",
    "prefecture_kana": "エヒメケン",
    "prefecture_code": 38,
    "city": "松山市",
    "city_kana": "マツヤマシ",
    "town": "中西内",
    "town_kana": "ナカニシウチ",
    "street": null,
    "office_name": null,
    "office_name_kana": null
  },
  "2430": {
    "zip_code": "7992430",
    "prefecture": "愛媛県",
    "prefecture_kana": "エヒメケン",
    "prefecture_code": 38,
    "city": "松山市",
    "city_kana": "マツヤマシ",
    "town": "北条辻",
    "town_kana": "ホウジョウツジ",
    "street": null,
    "office_name": null,
    "office_name_kana": null
  },
  "2431": {
    "zip_code": "7992431",
    "prefecture": "愛媛県",
    "prefecture_kana": "エヒメケン",
    "prefecture_code": 38,
    "city": "松山市",
    "city_kana": "マツヤマシ",
    "town": "北条",
    "town_kana": "ホウジョウ",
    "street": null,
    "office_name": null,
    "office_name_kana": null
  },
  "2432": {
    "zip_code": "7992432",
    "prefecture": "愛媛県",
    "prefecture_kana": "エヒメケン",
    "prefecture_code": 38,
    "city": "松山市",
    "city_kana": "マツヤマシ",
    "town": "土手内",
    "town_kana": "ドテウチ",
    "street": null,
    "office_name": null,
    "office_name_kana": null
  },
  "2433": {
    "zip_code": "7992433",
    "prefecture": "愛媛県",
    "prefecture_kana": "エヒメケン",
    "prefecture_code": 38,
    "city": "松山市",
    "city_kana": "マツヤマシ",
    "town": "安居島",
    "town_kana": "アイジマ",
    "street": null,
    "office_name": null,
    "office_name_kana": null
  },
  "2434": {
    "zip_code": "7992434",
    "prefecture": "愛媛県",
    "prefecture_kana": "エヒメケン",
    "prefecture_code": 38,
    "city": "松山市",
    "city_kana": "マツヤマシ",
    "town": "柳原",
    "town_kana": "ヤナギハラ",
    "street": null,
    "office_name": null,
    "office_name_kana": null
  },
  "2435": {
    "zip_code": "7992435",
    "prefecture": "愛媛県",
    "prefecture_kana": "エヒメケン",
    "prefecture_code": 38,
    "city": "松山市",
    "city_kana": "マツヤマシ",
    "town": "府中",
    "town_kana": "フチュウ",
    "street": null,
    "office_name": null,
    "office_name_kana": null
  },
  "2436": {
    "zip_code": "7992436",
    "prefecture": "愛媛県",
    "prefecture_kana": "エヒメケン",
    "prefecture_code": 38,
    "city": "松山市",
    "city_kana": "マツヤマシ",
    "town": "河野別府",
    "town_kana": "コウノベップ",
    "street": null,
    "office_name": null,
    "office_name_kana": null
  },
  "2437": {
    "zip_code": "7992437",
    "prefecture": "愛媛県",
    "prefecture_kana": "エヒメケン",
    "prefecture_code": 38,
    "city": "松山市",
    "city_kana": "マツヤマシ",
    "town": "夏目",
    "town_kana": "ナツメ",
    "street": null,
    "office_name": null,
    "office_name_kana": null
  },
  "2438": {
    "zip_code": "7992438",
    "prefecture": "愛媛県",
    "prefecture_kana": "エヒメケン",
    "prefecture_code": 38,
    "city": "松山市",
    "city_kana": "マツヤマシ",
    "town": "河野中須賀",
    "town_kana": "コウノナカスガ",
    "street": null,
    "office_name": null,
    "office_name_kana": null
  },
  "2439": {
    "zip_code": "7992439",
    "prefecture": "愛媛県",
    "prefecture_kana": "エヒメケン",
    "prefecture_code": 38,
    "city": "松山市",
    "city_kana": "マツヤマシ",
    "town": "片山",
    "town_kana": "カタヤマ",
    "street": null,
    "office_name": null,
    "office_name_kana": null
  },
  "2441": {
    "zip_code": "7992441",
    "prefecture": "愛媛県",
    "prefecture_kana": "エヒメケン",
    "prefecture_code": 38,
    "city": "松山市",
    "city_kana": "マツヤマシ",
    "town": "宮内",
    "town_kana": "ミヤウチ",
    "street": null,
    "office_name": null,
    "office_name_kana": null
  },
  "2442": {
    "zip_code": "7992442",
    "prefecture": "愛媛県",
    "prefecture_kana": "エヒメケン",
    "prefecture_code": 38,
    "city": "松山市",
    "city_kana": "マツヤマシ",
    "town": "常保免",
    "town_kana": "ジョウホウメン",
    "street": null,
    "office_name": null,
    "office_name_kana": null
  },
  "2443": {
    "zip_code": "7992443",
    "prefecture": "愛媛県",
    "prefecture_kana": "エヒメケン",
    "prefecture_code": 38,
    "city": "松山市",
    "city_kana": "マツヤマシ",
    "town": "善応寺",
    "town_kana": "ゼンオウジ",
    "street": null,
    "office_name": null,
    "office_name_kana": null
  },
  "2444": {
    "zip_code": "7992444",
    "prefecture": "愛媛県",
    "prefecture_kana": "エヒメケン",
    "prefecture_code": 38,
    "city": "松山市",
    "city_kana": "マツヤマシ",
    "town": "横谷",
    "town_kana": "ヨコダニ",
    "street": null,
    "office_name": null,
    "office_name_kana": null
  },
  "2445": {
    "zip_code": "7992445",
    "prefecture": "愛媛県",
    "prefecture_kana": "エヒメケン",
    "prefecture_code": 38,
    "city": "松山市",
    "city_kana": "マツヤマシ",
    "town": "河野高山",
    "town_kana": "コウノコヤマ",
    "street": null,
    "office_name": null,
    "office_name_kana": null
  },
  "2446": {
    "zip_code": "7992446",
    "prefecture": "愛媛県",
    "prefecture_kana": "エヒメケン",
    "prefecture_code": 38,
    "city": "松山市",
    "city_kana": "マツヤマシ",
    "town": "牛谷",
    "town_kana": "ウシダニ",
    "street": null,
    "office_name": null,
    "office_name_kana": null
  },
  "2447": {
    "zip_code": "7992447",
    "prefecture": "愛媛県",
    "prefecture_kana": "エヒメケン",
    "prefecture_code": 38,
    "city": "松山市",
    "city_kana": "マツヤマシ",
    "town": "佐古",
    "town_kana": "サコ",
    "street": null,
    "office_name": null,
    "office_name_kana": null
  },
  "2451": {
    "zip_code": "7992451",
    "prefecture": "愛媛県",
    "prefecture_kana": "エヒメケン",
    "prefecture_code": 38,
    "city": "松山市",
    "city_kana": "マツヤマシ",
    "town": "小川谷",
    "town_kana": "コガダニ",
    "street": null,
    "office_name": null,
    "office_name_kana": null
  },
  "2452": {
    "zip_code": "7992452",
    "prefecture": "愛媛県",
    "prefecture_kana": "エヒメケン",
    "prefecture_code": 38,
    "city": "松山市",
    "city_kana": "マツヤマシ",
    "town": "平林",
    "town_kana": "ヒラバヤシ",
    "street": null,
    "office_name": null,
    "office_name_kana": null
  },
  "2453": {
    "zip_code": "7992453",
    "prefecture": "愛媛県",
    "prefecture_kana": "エヒメケン",
    "prefecture_code": 38,
    "city": "松山市",
    "city_kana": "マツヤマシ",
    "town": "麓",
    "town_kana": "フモト",
    "street": null,
    "office_name": null,
    "office_name_kana": null
  },
  "2454": {
    "zip_code": "7992454",
    "prefecture": "愛媛県",
    "prefecture_kana": "エヒメケン",
    "prefecture_code": 38,
    "city": "松山市",
    "city_kana": "マツヤマシ",
    "town": "客",
    "town_kana": "キャク",
    "street": null,
    "office_name": null,
    "office_name_kana": null
  },
  "2455": {
    "zip_code": "7992455",
    "prefecture": "愛媛県",
    "prefecture_kana": "エヒメケン",
    "prefecture_code": 38,
    "city": "松山市",
    "city_kana": "マツヤマシ",
    "town": "常竹",
    "town_kana": "ツネタケ",
    "street": null,
    "office_name": null,
    "office_name_kana": null
  },
  "2456": {
    "zip_code": "7992456",
    "prefecture": "愛媛県",
    "prefecture_kana": "エヒメケン",
    "prefecture_code": 38,
    "city": "松山市",
    "city_kana": "マツヤマシ",
    "town": "本谷",
    "town_kana": "ホンダニ",
    "street": null,
    "office_name": null,
    "office_name_kana": null
  },
  "2457": {
    "zip_code": "7992457",
    "prefecture": "愛媛県",
    "prefecture_kana": "エヒメケン",
    "prefecture_code": 38,
    "city": "松山市",
    "city_kana": "マツヤマシ",
    "town": "西谷",
    "town_kana": "ニシダニ",
    "street": null,
    "office_name": null,
    "office_name_kana": null
  },
  "2458": {
    "zip_code": "7992458",
    "prefecture": "愛媛県",
    "prefecture_kana": "エヒメケン",
    "prefecture_code": 38,
    "city": "松山市",
    "city_kana": "マツヤマシ",
    "town": "大西谷",
    "town_kana": "オオニシダニ",
    "street": null,
    "office_name": null,
    "office_name_kana": null
  },
  "2460": {
    "zip_code": "7992460",
    "prefecture": "愛媛県",
    "prefecture_kana": "エヒメケン",
    "prefecture_code": 38,
    "city": "松山市",
    "city_kana": "マツヤマシ",
    "town": "苞木",
    "town_kana": "スボキ",
    "street": null,
    "office_name": null,
    "office_name_kana": null
  },
  "2461": {
    "zip_code": "7992461",
    "prefecture": "愛媛県",
    "prefecture_kana": "エヒメケン",
    "prefecture_code": 38,
    "city": "松山市",
    "city_kana": "マツヤマシ",
    "town": "鹿峰",
    "town_kana": "カノミネ",
    "street": null,
    "office_name": null,
    "office_name_kana": null
  },
  "2462": {
    "zip_code": "7992462",
    "prefecture": "愛媛県",
    "prefecture_kana": "エヒメケン",
    "prefecture_code": 38,
    "city": "松山市",
    "city_kana": "マツヤマシ",
    "town": "久保",
    "town_kana": "クボ",
    "street": null,
    "office_name": null,
    "office_name_kana": null
  },
  "2463": {
    "zip_code": "7992463",
    "prefecture": "愛媛県",
    "prefecture_kana": "エヒメケン",
    "prefecture_code": 38,
    "city": "松山市",
    "city_kana": "マツヤマシ",
    "town": "粟井河原",
    "town_kana": "アワイカワラ",
    "street": null,
    "office_name": null,
    "office_name_kana": null
  },
  "2464": {
    "zip_code": "7992464",
    "prefecture": "愛媛県",
    "prefecture_kana": "エヒメケン",
    "prefecture_code": 38,
    "city": "松山市",
    "city_kana": "マツヤマシ",
    "town": "安岡",
    "town_kana": "ヤスオカ",
    "street": null,
    "office_name": null,
    "office_name_kana": null
  },
  "2465": {
    "zip_code": "7992465",
    "prefecture": "愛媛県",
    "prefecture_kana": "エヒメケン",
    "prefecture_code": 38,
    "city": "松山市",
    "city_kana": "マツヤマシ",
    "town": "和田",
    "town_kana": "ワダ",
    "street": null,
    "office_name": null,
    "office_name_kana": null
  },
  "2466": {
    "zip_code": "7992466",
    "prefecture": "愛媛県",
    "prefecture_kana": "エヒメケン",
    "prefecture_code": 38,
    "city": "松山市",
    "city_kana": "マツヤマシ",
    "town": "鴨之池",
    "town_kana": "カモノイケ",
    "street": null,
    "office_name": null,
    "office_name_kana": null
  },
  "2467": {
    "zip_code": "7992467",
    "prefecture": "愛媛県",
    "prefecture_kana": "エヒメケン",
    "prefecture_code": 38,
    "city": "松山市",
    "city_kana": "マツヤマシ",
    "town": "磯河内",
    "town_kana": "イソコウチ",
    "street": null,
    "office_name": null,
    "office_name_kana": null
  },
  "2468": {
    "zip_code": "7992468",
    "prefecture": "愛媛県",
    "prefecture_kana": "エヒメケン",
    "prefecture_code": 38,
    "city": "松山市",
    "city_kana": "マツヤマシ",
    "town": "小川",
    "town_kana": "オガワ",
    "street": null,
    "office_name": null,
    "office_name_kana": null
  },
  "2469": {
    "zip_code": "7992469",
    "prefecture": "愛媛県",
    "prefecture_kana": "エヒメケン",
    "prefecture_code": 38,
    "city": "松山市",
    "city_kana": "マツヤマシ",
    "town": "光洋台",
    "town_kana": "コウヨウダイ",
    "street": null,
    "office_name": null,
    "office_name_kana": null
  },
  "2492": {
    "zip_code": "7992492",
    "prefecture": "愛媛県",
    "prefecture_kana": "エヒメケン",
    "prefecture_code": 38,
    "city": "松山市",
    "city_kana": "マツヤマシ",
    "town": "北条辻",
    "town_kana": "ホウジョウツジ",
    "street": "６",
    "office_name": "松山市役所　北条支所",
    "office_name_kana": "マツヤマシヤクシヨ ホウジヨウシシヨ"
  },
  "2493": {
    "zip_code": "7992493",
    "prefecture": "愛媛県",
    "prefecture_kana": "エヒメケン",
    "prefecture_code": 38,
    "city": "松山市",
    "city_kana": "マツヤマシ",
    "town": "北条辻",
    "town_kana": "ホウジョウツジ",
    "street": "６００−１",
    "office_name": "愛媛県立　北条高等学校",
    "office_name_kana": "エヒメケンリツ ホウジヨウコウトウガツコウ"
  },
  "2495": {
    "zip_code": "7992495",
    "prefecture": "愛媛県",
    "prefecture_kana": "エヒメケン",
    "prefecture_code": 38,
    "city": "松山市",
    "city_kana": "マツヤマシ",
    "town": "北条",
    "town_kana": "ホウジョウ",
    "street": "１００５",
    "office_name": "倉敷紡績　（株）　北条工場",
    "office_name_kana": "クラシキボウセキ カブシキガイシヤ ホウジヨウコウジヨウ"
  },
  "2496": {
    "zip_code": "7992496",
    "prefecture": "愛媛県",
    "prefecture_kana": "エヒメケン",
    "prefecture_code": 38,
    "city": "松山市",
    "city_kana": "マツヤマシ",
    "town": "北条",
    "town_kana": "ホウジョウ",
    "street": "６６０",
    "office_name": "聖カタリナ大学・聖カタリナ短期大学",
    "office_name_kana": "セイカタリナダイガク・セイカタリナタンキダイガク"
  },
  "2641": {
    "zip_code": "7992641",
    "prefecture": "愛媛県",
    "prefecture_kana": "エヒメケン",
    "prefecture_code": 38,
    "city": "松山市",
    "city_kana": "マツヤマシ",
    "town": "柳谷町",
    "town_kana": "ヤナイダニマチ",
    "street": null,
    "office_name": null,
    "office_name_kana": null
  },
  "2642": {
    "zip_code": "7992642",
    "prefecture": "愛媛県",
    "prefecture_kana": "エヒメケン",
    "prefecture_code": 38,
    "city": "松山市",
    "city_kana": "マツヤマシ",
    "town": "恩地町",
    "town_kana": "オンジマチ",
    "street": null,
    "office_name": null,
    "office_name_kana": null
  },
  "2643": {
    "zip_code": "7992643",
    "prefecture": "愛媛県",
    "prefecture_kana": "エヒメケン",
    "prefecture_code": 38,
    "city": "松山市",
    "city_kana": "マツヤマシ",
    "town": "梅木町",
    "town_kana": "ウメキマチ",
    "street": null,
    "office_name": null,
    "office_name_kana": null
  },
  "2644": {
    "zip_code": "7992644",
    "prefecture": "愛媛県",
    "prefecture_kana": "エヒメケン",
    "prefecture_code": 38,
    "city": "松山市",
    "city_kana": "マツヤマシ",
    "town": "上総町",
    "town_kana": "カズサマチ",
    "street": null,
    "office_name": null,
    "office_name_kana": null
  },
  "2645": {
    "zip_code": "7992645",
    "prefecture": "愛媛県",
    "prefecture_kana": "エヒメケン",
    "prefecture_code": 38,
    "city": "松山市",
    "city_kana": "マツヤマシ",
    "town": "小屋町",
    "town_kana": "コヤマチ",
    "street": null,
    "office_name": null,
    "office_name_kana": null
  },
  "2646": {
    "zip_code": "7992646",
    "prefecture": "愛媛県",
    "prefecture_kana": "エヒメケン",
    "prefecture_code": 38,
    "city": "松山市",
    "city_kana": "マツヤマシ",
    "town": "神次郎町",
    "town_kana": "ジンジロウマチ",
    "street": null,
    "office_name": null,
    "office_name_kana": null
  },
  "2647": {
    "zip_code": "7992647",
    "prefecture": "愛媛県",
    "prefecture_kana": "エヒメケン",
    "prefecture_code": 38,
    "city": "松山市",
    "city_kana": "マツヤマシ",
    "town": "城山町",
    "town_kana": "ジョウザンマチ",
    "street": null,
    "office_name": null,
    "office_name_kana": null
  },
  "2648": {
    "zip_code": "7992648",
    "prefecture": "愛媛県",
    "prefecture_kana": "エヒメケン",
    "prefecture_code": 38,
    "city": "松山市",
    "city_kana": "マツヤマシ",
    "town": "菅沢町",
    "town_kana": "スゲザワマチ",
    "street": null,
    "office_name": null,
    "office_name_kana": null
  },
  "2649": {
    "zip_code": "7992649",
    "prefecture": "愛媛県",
    "prefecture_kana": "エヒメケン",
    "prefecture_code": 38,
    "city": "松山市",
    "city_kana": "マツヤマシ",
    "town": "東大栗町",
    "town_kana": "ヒガシオオグリチョウ",
    "street": null,
    "office_name": null,
    "office_name_kana": null
  },
  "2651": {
    "zip_code": "7992651",
    "prefecture": "愛媛県",
    "prefecture_kana": "エヒメケン",
    "prefecture_code": 38,
    "city": "松山市",
    "city_kana": "マツヤマシ",
    "town": "堀江町",
    "town_kana": "ホリエチョウ",
    "street": null,
    "office_name": null,
    "office_name_kana": null
  },
  "2652": {
    "zip_code": "7992652",
    "prefecture": "愛媛県",
    "prefecture_kana": "エヒメケン",
    "prefecture_code": 38,
    "city": "松山市",
    "city_kana": "マツヤマシ",
    "town": "福角町",
    "town_kana": "フクズミチョウ",
    "street": null,
    "office_name": null,
    "office_name_kana": null
  },
  "2653": {
    "zip_code": "7992653",
    "prefecture": "愛媛県",
    "prefecture_kana": "エヒメケン",
    "prefecture_code": 38,
    "city": "松山市",
    "city_kana": "マツヤマシ",
    "town": "権現町",
    "town_kana": "ゴンゲンチョウ",
    "street": null,
    "office_name": null,
    "office_name_kana": null
  },
  "2654": {
    "zip_code": "7992654",
    "prefecture": "愛媛県",
    "prefecture_kana": "エヒメケン",
    "prefecture_code": 38,
    "city": "松山市",
    "city_kana": "マツヤマシ",
    "town": "内宮町",
    "town_kana": "ウチミヤチョウ",
    "street": null,
    "office_name": null,
    "office_name_kana": null
  },
  "2655": {
    "zip_code": "7992655",
    "prefecture": "愛媛県",
    "prefecture_kana": "エヒメケン",
    "prefecture_code": 38,
    "city": "松山市",
    "city_kana": "マツヤマシ",
    "town": "馬木町",
    "town_kana": "ウマキチョウ",
    "street": null,
    "office_name": null,
    "office_name_kana": null
  },
  "2656": {
    "zip_code": "7992656",
    "prefecture": "愛媛県",
    "prefecture_kana": "エヒメケン",
    "prefecture_code": 38,
    "city": "松山市",
    "city_kana": "マツヤマシ",
    "town": "和気町",
    "town_kana": "ワケマチ",
    "street": null,
    "office_name": null,
    "office_name_kana": null
  },
  "2661": {
    "zip_code": "7992661",
    "prefecture": "愛媛県",
    "prefecture_kana": "エヒメケン",
    "prefecture_code": 38,
    "city": "松山市",
    "city_kana": "マツヤマシ",
    "town": "勝岡町",
    "town_kana": "カツオカチョウ",
    "street": null,
    "office_name": null,
    "office_name_kana": null
  },
  "2662": {
    "zip_code": "7992662",
    "prefecture": "愛媛県",
    "prefecture_kana": "エヒメケン",
    "prefecture_code": 38,
    "city": "松山市",
    "city_kana": "マツヤマシ",
    "town": "太山寺町",
    "town_kana": "タイサンジチョウ",
    "street": null,
    "office_name": null,
    "office_name_kana": null
  },
  "2692": {
    "zip_code": "7992692",
    "prefecture": "愛媛県",
    "prefecture_kana": "エヒメケン",
    "prefecture_code": 38,
    "city": "松山市",
    "city_kana": "マツヤマシ",
    "town": "馬木町",
    "town_kana": "ウマキチョウ",
    "street": "７００",
    "office_name": "井関農機　株式会社",
    "office_name_kana": "イセキノウキ カブシキガイシヤ"
  },
  "2696": {
    "zip_code": "7992696",
    "prefecture": "愛媛県",
    "prefecture_kana": "エヒメケン",
    "prefecture_code": 38,
    "city": "松山市",
    "city_kana": "マツヤマシ",
    "town": "堀江町",
    "town_kana": "ホリエチョウ",
    "street": "７",
    "office_name": "三浦工業　株式会社",
    "office_name_kana": "ミウラコウギヨウ カブシキガイシヤ"
  },
  "3100": {
    "zip_code": "7993100",
    "prefecture": "愛媛県",
    "prefecture_kana": "エヒメケン",
    "prefecture_code": 38,
    "city": "伊予市",
    "city_kana": "イヨシ",
    "town": "",
    "town_kana": "",
    "street": null,
    "office_name": null,
    "office_name_kana": null
  },
  "3101": {
    "zip_code": "7993101",
    "prefecture": "愛媛県",
    "prefecture_kana": "エヒメケン",
    "prefecture_code": 38,
    "city": "伊予市",
    "city_kana": "イヨシ",
    "town": "八倉",
    "town_kana": "ヤクラ",
    "street": null,
    "office_name": null,
    "office_name_kana": null
  },
  "3102": {
    "zip_code": "7993102",
    "prefecture": "愛媛県",
    "prefecture_kana": "エヒメケン",
    "prefecture_code": 38,
    "city": "伊予市",
    "city_kana": "イヨシ",
    "town": "宮下",
    "town_kana": "ミヤシタ",
    "street": null,
    "office_name": null,
    "office_name_kana": null
  },
  "3103": {
    "zip_code": "7993103",
    "prefecture": "愛媛県",
    "prefecture_kana": "エヒメケン",
    "prefecture_code": 38,
    "city": "伊予市",
    "city_kana": "イヨシ",
    "town": "上野",
    "town_kana": "ウエノ",
    "street": null,
    "office_name": null,
    "office_name_kana": null
  },
  "3104": {
    "zip_code": "7993104",
    "prefecture": "愛媛県",
    "prefecture_kana": "エヒメケン",
    "prefecture_code": 38,
    "city": "伊予市",
    "city_kana": "イヨシ",
    "town": "上三谷",
    "town_kana": "カミミタニ",
    "street": null,
    "office_name": null,
    "office_name_kana": null
  },
  "3105": {
    "zip_code": "7993105",
    "prefecture": "愛媛県",
    "prefecture_kana": "エヒメケン",
    "prefecture_code": 38,
    "city": "伊予市",
    "city_kana": "イヨシ",
    "town": "下三谷",
    "town_kana": "シモミタニ",
    "street": null,
    "office_name": null,
    "office_name_kana": null
  },
  "3111": {
    "zip_code": "7993111",
    "prefecture": "愛媛県",
    "prefecture_kana": "エヒメケン",
    "prefecture_code": 38,
    "city": "伊予市",
    "city_kana": "イヨシ",
    "town": "下吾川",
    "town_kana": "シモアガワ",
    "street": null,
    "office_name": null,
    "office_name_kana": null
  },
  "3112": {
    "zip_code": "7993112",
    "prefecture": "愛媛県",
    "prefecture_kana": "エヒメケン",
    "prefecture_code": 38,
    "city": "伊予市",
    "city_kana": "イヨシ",
    "town": "上吾川",
    "town_kana": "カミアガワ",
    "street": null,
    "office_name": null,
    "office_name_kana": null
  },
  "3113": {
    "zip_code": "7993113",
    "prefecture": "愛媛県",
    "prefecture_kana": "エヒメケン",
    "prefecture_code": 38,
    "city": "伊予市",
    "city_kana": "イヨシ",
    "town": "米湊",
    "town_kana": "コミナト",
    "street": null,
    "office_name": null,
    "office_name_kana": null
  },
  "3114": {
    "zip_code": "7993114",
    "prefecture": "愛媛県",
    "prefecture_kana": "エヒメケン",
    "prefecture_code": 38,
    "city": "伊予市",
    "city_kana": "イヨシ",
    "town": "灘町",
    "town_kana": "ナダマチ",
    "street": null,
    "office_name": null,
    "office_name_kana": null
  },
  "3115": {
    "zip_code": "7993115",
    "prefecture": "愛媛県",
    "prefecture_kana": "エヒメケン",
    "prefecture_code": 38,
    "city": "伊予市",
    "city_kana": "イヨシ",
    "town": "湊町",
    "town_kana": "ミナトマチ",
    "street": null,
    "office_name": null,
    "office_name_kana": null
  },
  "3121": {
    "zip_code": "7993121",
    "prefecture": "愛媛県",
    "prefecture_kana": "エヒメケン",
    "prefecture_code": 38,
    "city": "伊予市",
    "city_kana": "イヨシ",
    "town": "稲荷",
    "town_kana": "イナリ",
    "street": null,
    "office_name": null,
    "office_name_kana": null
  },
  "3122": {
    "zip_code": "7993122",
    "prefecture": "愛媛県",
    "prefecture_kana": "エヒメケン",
    "prefecture_code": 38,
    "city": "伊予市",
    "city_kana": "イヨシ",
    "town": "市場",
    "town_kana": "イチバ",
    "street": null,
    "office_name": null,
    "office_name_kana": null
  },
  "3123": {
    "zip_code": "7993123",
    "prefecture": "愛媛県",
    "prefecture_kana": "エヒメケン",
    "prefecture_code": 38,
    "city": "伊予市",
    "city_kana": "イヨシ",
    "town": "中村",
    "town_kana": "ナカムラ",
    "street": null,
    "office_name": null,
    "office_name_kana": null
  },
  "3124": {
    "zip_code": "7993124",
    "prefecture": "愛媛県",
    "prefecture_kana": "エヒメケン",
    "prefecture_code": 38,
    "city": "伊予市",
    "city_kana": "イヨシ",
    "town": "三秋",
    "town_kana": "ミアキ",
    "street": null,
    "office_name": null,
    "office_name_kana": null
  },
  "3125": {
    "zip_code": "7993125",
    "prefecture": "愛媛県",
    "prefecture_kana": "エヒメケン",
    "prefecture_code": 38,
    "city": "伊予市",
    "city_kana": "イヨシ",
    "town": "森",
    "town_kana": "モリ",
    "street": null,
    "office_name": null,
    "office_name_kana": null
  },
  "3126": {
    "zip_code": "7993126",
    "prefecture": "愛媛県",
    "prefecture_kana": "エヒメケン",
    "prefecture_code": 38,
    "city": "伊予市",
    "city_kana": "イヨシ",
    "town": "本郡",
    "town_kana": "ホング",
    "street": null,
    "office_name": null,
    "office_name_kana": null
  },
  "3127": {
    "zip_code": "7993127",
    "prefecture": "愛媛県",
    "prefecture_kana": "エヒメケン",
    "prefecture_code": 38,
    "city": "伊予市",
    "city_kana": "イヨシ",
    "town": "尾崎",
    "town_kana": "オサキ",
    "street": null,
    "office_name": null,
    "office_name_kana": null
  },
  "3128": {
    "zip_code": "7993128",
    "prefecture": "愛媛県",
    "prefecture_kana": "エヒメケン",
    "prefecture_code": 38,
    "city": "伊予市",
    "city_kana": "イヨシ",
    "town": "三島町",
    "town_kana": "ミシママチ",
    "street": null,
    "office_name": null,
    "office_name_kana": null
  },
  "3131": {
    "zip_code": "7993131",
    "prefecture": "愛媛県",
    "prefecture_kana": "エヒメケン",
    "prefecture_code": 38,
    "city": "伊予市",
    "city_kana": "イヨシ",
    "town": "大平",
    "town_kana": "オオヒラ",
    "street": null,
    "office_name": null,
    "office_name_kana": null
  },
  "3132": {
    "zip_code": "7993132",
    "prefecture": "愛媛県",
    "prefecture_kana": "エヒメケン",
    "prefecture_code": 38,
    "city": "伊予市",
    "city_kana": "イヨシ",
    "town": "平岡",
    "town_kana": "ヒラオカ",
    "street": null,
    "office_name": null,
    "office_name_kana": null
  },
  "3133": {
    "zip_code": "7993133",
    "prefecture": "愛媛県",
    "prefecture_kana": "エヒメケン",
    "prefecture_code": 38,
    "city": "伊予市",
    "city_kana": "イヨシ",
    "town": "下唐川",
    "town_kana": "シモカラカワ",
    "street": null,
    "office_name": null,
    "office_name_kana": null
  },
  "3134": {
    "zip_code": "7993134",
    "prefecture": "愛媛県",
    "prefecture_kana": "エヒメケン",
    "prefecture_code": 38,
    "city": "伊予市",
    "city_kana": "イヨシ",
    "town": "上唐川",
    "town_kana": "カミカラカワ",
    "street": null,
    "office_name": null,
    "office_name_kana": null
  },
  "3135": {
    "zip_code": "7993135",
    "prefecture": "愛媛県",
    "prefecture_kana": "エヒメケン",
    "prefecture_code": 38,
    "city": "伊予市",
    "city_kana": "イヨシ",
    "town": "両沢",
    "town_kana": "リョウザワ",
    "street": null,
    "office_name": null,
    "office_name_kana": null
  },
  "3136": {
    "zip_code": "7993136",
    "prefecture": "愛媛県",
    "prefecture_kana": "エヒメケン",
    "prefecture_code": 38,
    "city": "伊予市",
    "city_kana": "イヨシ",
    "town": "鵜崎",
    "town_kana": "ウノサキ",
    "street": null,
    "office_name": null,
    "office_name_kana": null
  },
  "3192": {
    "zip_code": "7993192",
    "prefecture": "愛媛県",
    "prefecture_kana": "エヒメケン",
    "prefecture_code": 38,
    "city": "伊予市",
    "city_kana": "イヨシ",
    "town": "米湊",
    "town_kana": "コミナト",
    "street": "１６９６（伊予郵便局私書箱第１号）",
    "office_name": "マルトモ　株式会社",
    "office_name_kana": "マルトモ カブシキガイシヤ"
  },
  "3193": {
    "zip_code": "7993193",
    "prefecture": "愛媛県",
    "prefecture_kana": "エヒメケン",
    "prefecture_code": 38,
    "city": "伊予市",
    "city_kana": "イヨシ",
    "town": "米湊",
    "town_kana": "コミナト",
    "street": "８２０（伊予郵便局私書箱第１３号）",
    "office_name": "伊予市役所",
    "office_name_kana": "イヨシヤクシヨ"
  },
  "3194": {
    "zip_code": "7993194",
    "prefecture": "愛媛県",
    "prefecture_kana": "エヒメケン",
    "prefecture_code": 38,
    "city": "伊予市",
    "city_kana": "イヨシ",
    "town": "米湊",
    "town_kana": "コミナト",
    "street": "１６９８−６（伊予郵便局私書箱第２号）",
    "office_name": "ヤマキ　株式会社",
    "office_name_kana": "ヤマキ カブシキガイシヤ"
  },
  "3195": {
    "zip_code": "7993195",
    "prefecture": "愛媛県",
    "prefecture_kana": "エヒメケン",
    "prefecture_code": 38,
    "city": "伊予市",
    "city_kana": "イヨシ",
    "town": "市場",
    "town_kana": "イチバ",
    "street": "１５０",
    "office_name": "株式会社　オカベ",
    "office_name_kana": "カブシキガイシヤ オカベ"
  },
  "3196": {
    "zip_code": "7993196",
    "prefecture": "愛媛県",
    "prefecture_kana": "エヒメケン",
    "prefecture_code": 38,
    "city": "伊予市",
    "city_kana": "イヨシ",
    "town": "下三谷",
    "town_kana": "シモミタニ",
    "street": "１番地６",
    "office_name": "四国アルフレッサ　株式会社",
    "office_name_kana": "シコクアルフレツサ カブシキガイシヤ"
  },
  "3198": {
    "zip_code": "7993198",
    "prefecture": "愛媛県",
    "prefecture_kana": "エヒメケン",
    "prefecture_code": 38,
    "city": "伊予市",
    "city_kana": "イヨシ",
    "town": "宮下",
    "town_kana": "ミヤシタ",
    "street": "６０５−１",
    "office_name": "株式会社　植西運送　松山物流センター",
    "office_name_kana": "カブシキガイシヤ ウエニシウンソウ マツヤマブツリユウセンタ-"
  },
  "3201": {
    "zip_code": "7993201",
    "prefecture": "愛媛県",
    "prefecture_kana": "エヒメケン",
    "prefecture_code": 38,
    "city": "伊予市",
    "city_kana": "イヨシ",
    "town": "双海町高野川",
    "town_kana": "フタミチョウコウノカワ",
    "street": null,
    "office_name": null,
    "office_name_kana": null
  },
  "3202": {
    "zip_code": "7993202",
    "prefecture": "愛媛県",
    "prefecture_kana": "エヒメケン",
    "prefecture_code": 38,
    "city": "伊予市",
    "city_kana": "イヨシ",
    "town": "双海町上灘",
    "town_kana": "フタミチョウカミナダ",
    "street": null,
    "office_name": null,
    "office_name_kana": null
  },
  "3207": {
    "zip_code": "7993207",
    "prefecture": "愛媛県",
    "prefecture_kana": "エヒメケン",
    "prefecture_code": 38,
    "city": "伊予市",
    "city_kana": "イヨシ",
    "town": "双海町高岸",
    "town_kana": "フタミチョウタカギシ",
    "street": null,
    "office_name": null,
    "office_name_kana": null
  },
  "3292": {
    "zip_code": "7993292",
    "prefecture": "愛媛県",
    "prefecture_kana": "エヒメケン",
    "prefecture_code": 38,
    "city": "伊予市",
    "city_kana": "イヨシ",
    "town": "双海町上灘",
    "town_kana": "フタミチョウカミナダ",
    "street": "甲５８２１−６",
    "office_name": "伊予市役所　双海地域事務所",
    "office_name_kana": "イヨシヤクシヨ フタミチイキジムシヨ"
  },
  "3311": {
    "zip_code": "7993311",
    "prefecture": "愛媛県",
    "prefecture_kana": "エヒメケン",
    "prefecture_code": 38,
    "city": "伊予市",
    "city_kana": "イヨシ",
    "town": "双海町大久保",
    "town_kana": "フタミチョウオオクボ",
    "street": null,
    "office_name": null,
    "office_name_kana": null
  },
  "3312": {
    "zip_code": "7993312",
    "prefecture": "愛媛県",
    "prefecture_kana": "エヒメケン",
    "prefecture_code": 38,
    "city": "伊予市",
    "city_kana": "イヨシ",
    "town": "双海町串",
    "town_kana": "フタミチョウクシ",
    "street": null,
    "office_name": null,
    "office_name_kana": null
  },
  "3313": [
    {
      "zip_code": "7993313",
      "prefecture": "愛媛県",
      "prefecture_kana": "エヒメケン",
      "prefecture_code": 38,
      "city": "伊予市",
      "city_kana": "イヨシ",
      "town": "双海町串",
      "town_kana": "フタミチョウクシ",
      "street": null,
      "office_name": null,
      "office_name_kana": null
    },
    {
      "zip_code": "7993313",
      "prefecture": "愛媛県",
      "prefecture_kana": "エヒメケン",
      "prefecture_code": 38,
      "city": "伊予市",
      "city_kana": "イヨシ",
      "town": "双海町串上浜",
      "town_kana": "フタミチョウクシカミハマ",
      "street": null,
      "office_name": null,
      "office_name_kana": null
    }
  ],
  "3314": [
    {
      "zip_code": "7993314",
      "prefecture": "愛媛県",
      "prefecture_kana": "エヒメケン",
      "prefecture_code": 38,
      "city": "伊予市",
      "city_kana": "イヨシ",
      "town": "双海町串",
      "town_kana": "フタミチョウクシ",
      "street": null,
      "office_name": null,
      "office_name_kana": null
    },
    {
      "zip_code": "7993314",
      "prefecture": "愛媛県",
      "prefecture_kana": "エヒメケン",
      "prefecture_code": 38,
      "city": "伊予市",
      "city_kana": "イヨシ",
      "town": "双海町串下浜",
      "town_kana": "フタミチョウクシシモハマ",
      "street": null,
      "office_name": null,
      "office_name_kana": null
    }
  ],
  "3401": {
    "zip_code": "7993401",
    "prefecture": "愛媛県",
    "prefecture_kana": "エヒメケン",
    "prefecture_code": 38,
    "city": "大洲市",
    "city_kana": "オオズシ",
    "town": "長浜甲",
    "town_kana": "ナガハマコウ",
    "street": null,
    "office_name": null,
    "office_name_kana": null
  },
  "3402": {
    "zip_code": "7993402",
    "prefecture": "愛媛県",
    "prefecture_kana": "エヒメケン",
    "prefecture_code": 38,
    "city": "大洲市",
    "city_kana": "オオズシ",
    "town": "長浜乙",
    "town_kana": "ナガハマオツ",
    "street": null,
    "office_name": null,
    "office_name_kana": null
  },
  "3403": {
    "zip_code": "7993403",
    "prefecture": "愛媛県",
    "prefecture_kana": "エヒメケン",
    "prefecture_code": 38,
    "city": "大洲市",
    "city_kana": "オオズシ",
    "town": "長浜町仁久甲",
    "town_kana": "ナガハマチョウニギュウコウ",
    "street": null,
    "office_name": null,
    "office_name_kana": null
  },
  "3404": {
    "zip_code": "7993404",
    "prefecture": "愛媛県",
    "prefecture_kana": "エヒメケン",
    "prefecture_code": 38,
    "city": "大洲市",
    "city_kana": "オオズシ",
    "town": "長浜町沖浦甲",
    "town_kana": "ナガハマチョウオキウラコウ",
    "street": null,
    "office_name": null,
    "office_name_kana": null
  },
  "3405": {
    "zip_code": "7993405",
    "prefecture": "愛媛県",
    "prefecture_kana": "エヒメケン",
    "prefecture_code": 38,
    "city": "大洲市",
    "city_kana": "オオズシ",
    "town": "長浜町沖浦乙",
    "town_kana": "ナガハマチョウオキウラオツ",
    "street": null,
    "office_name": null,
    "office_name_kana": null
  },
  "3406": {
    "zip_code": "7993406",
    "prefecture": "愛媛県",
    "prefecture_kana": "エヒメケン",
    "prefecture_code": 38,
    "city": "大洲市",
    "city_kana": "オオズシ",
    "town": "長浜町沖浦丙",
    "town_kana": "ナガハマチョウオキウラヘイ",
    "street": null,
    "office_name": null,
    "office_name_kana": null
  },
  "3407": {
    "zip_code": "7993407",
    "prefecture": "愛媛県",
    "prefecture_kana": "エヒメケン",
    "prefecture_code": 38,
    "city": "大洲市",
    "city_kana": "オオズシ",
    "town": "長浜町黒田甲",
    "town_kana": "ナガハマチョウクロンタコウ",
    "street": null,
    "office_name": null,
    "office_name_kana": null
  },
  "3411": {
    "zip_code": "7993411",
    "prefecture": "愛媛県",
    "prefecture_kana": "エヒメケン",
    "prefecture_code": 38,
    "city": "大洲市",
    "city_kana": "オオズシ",
    "town": "長浜町今坊甲",
    "town_kana": "ナガハマチョウコンボウコウ",
    "street": null,
    "office_name": null,
    "office_name_kana": null
  },
  "3412": {
    "zip_code": "7993412",
    "prefecture": "愛媛県",
    "prefecture_kana": "エヒメケン",
    "prefecture_code": 38,
    "city": "大洲市",
    "city_kana": "オオズシ",
    "town": "長浜町晴海",
    "town_kana": "ナガハマチョウハルミ",
    "street": null,
    "office_name": null,
    "office_name_kana": null
  },
  "3413": {
    "zip_code": "7993413",
    "prefecture": "愛媛県",
    "prefecture_kana": "エヒメケン",
    "prefecture_code": 38,
    "city": "大洲市",
    "city_kana": "オオズシ",
    "town": "長浜町拓海",
    "town_kana": "ナガハマチョウタクミ",
    "street": null,
    "office_name": null,
    "office_name_kana": null
  },
  "3421": {
    "zip_code": "7993421",
    "prefecture": "愛媛県",
    "prefecture_kana": "エヒメケン",
    "prefecture_code": 38,
    "city": "大洲市",
    "city_kana": "オオズシ",
    "town": "戒川甲",
    "town_kana": "カイカワコウ",
    "street": null,
    "office_name": null,
    "office_name_kana": null
  },
  "3422": {
    "zip_code": "7993422",
    "prefecture": "愛媛県",
    "prefecture_kana": "エヒメケン",
    "prefecture_code": 38,
    "city": "大洲市",
    "city_kana": "オオズシ",
    "town": "長浜町大越甲",
    "town_kana": "ナガハマチョウオオゴシコウ",
    "street": null,
    "office_name": null,
    "office_name_kana": null
  },
  "3431": {
    "zip_code": "7993431",
    "prefecture": "愛媛県",
    "prefecture_kana": "エヒメケン",
    "prefecture_code": 38,
    "city": "大洲市",
    "city_kana": "オオズシ",
    "town": "白滝甲",
    "town_kana": "シラタキコウ",
    "street": null,
    "office_name": null,
    "office_name_kana": null
  },
  "3432": {
    "zip_code": "7993432",
    "prefecture": "愛媛県",
    "prefecture_kana": "エヒメケン",
    "prefecture_code": 38,
    "city": "大洲市",
    "city_kana": "オオズシ",
    "town": "柴甲",
    "town_kana": "シバコウ",
    "street": null,
    "office_name": null,
    "office_name_kana": null
  },
  "3433": {
    "zip_code": "7993433",
    "prefecture": "愛媛県",
    "prefecture_kana": "エヒメケン",
    "prefecture_code": 38,
    "city": "大洲市",
    "city_kana": "オオズシ",
    "town": "柴乙",
    "town_kana": "シバオツ",
    "street": null,
    "office_name": null,
    "office_name_kana": null
  },
  "3441": {
    "zip_code": "7993441",
    "prefecture": "愛媛県",
    "prefecture_kana": "エヒメケン",
    "prefecture_code": 38,
    "city": "大洲市",
    "city_kana": "オオズシ",
    "town": "長浜町下須戒甲",
    "town_kana": "ナガハマチョウシモスカイコウ",
    "street": null,
    "office_name": null,
    "office_name_kana": null
  },
  "3442": {
    "zip_code": "7993442",
    "prefecture": "愛媛県",
    "prefecture_kana": "エヒメケン",
    "prefecture_code": 38,
    "city": "大洲市",
    "city_kana": "オオズシ",
    "town": "長浜町穂積甲",
    "town_kana": "ナガハマチョウホズミコウ",
    "street": null,
    "office_name": null,
    "office_name_kana": null
  },
  "3443": {
    "zip_code": "7993443",
    "prefecture": "愛媛県",
    "prefecture_kana": "エヒメケン",
    "prefecture_code": 38,
    "city": "大洲市",
    "city_kana": "オオズシ",
    "town": "長浜町穂積乙",
    "town_kana": "ナガハマチョウホヅミオツ",
    "street": null,
    "office_name": null,
    "office_name_kana": null
  },
  "3444": {
    "zip_code": "7993444",
    "prefecture": "愛媛県",
    "prefecture_kana": "エヒメケン",
    "prefecture_code": 38,
    "city": "大洲市",
    "city_kana": "オオズシ",
    "town": "長浜町上老松甲",
    "town_kana": "ナガハマチョウジョロマツコウ",
    "street": null,
    "office_name": null,
    "office_name_kana": null
  },
  "3451": {
    "zip_code": "7993451",
    "prefecture": "愛媛県",
    "prefecture_kana": "エヒメケン",
    "prefecture_code": 38,
    "city": "大洲市",
    "city_kana": "オオズシ",
    "town": "長浜町須沢丙",
    "town_kana": "ナガハマチョウスサワヘイ",
    "street": null,
    "office_name": null,
    "office_name_kana": null
  },
  "3452": {
    "zip_code": "7993452",
    "prefecture": "愛媛県",
    "prefecture_kana": "エヒメケン",
    "prefecture_code": 38,
    "city": "大洲市",
    "city_kana": "オオズシ",
    "town": "長浜町櫛生甲",
    "town_kana": "ナガハマチョウクシュウコウ",
    "street": null,
    "office_name": null,
    "office_name_kana": null
  },
  "3453": {
    "zip_code": "7993453",
    "prefecture": "愛媛県",
    "prefecture_kana": "エヒメケン",
    "prefecture_code": 38,
    "city": "大洲市",
    "city_kana": "オオズシ",
    "town": "長浜町櫛生乙",
    "town_kana": "ナガハマチョウクシュウオツ",
    "street": null,
    "office_name": null,
    "office_name_kana": null
  },
  "3454": {
    "zip_code": "7993454",
    "prefecture": "愛媛県",
    "prefecture_kana": "エヒメケン",
    "prefecture_code": 38,
    "city": "大洲市",
    "city_kana": "オオズシ",
    "town": "長浜町櫛生丙",
    "town_kana": "ナガハマチョウクシュウヘイ",
    "street": null,
    "office_name": null,
    "office_name_kana": null
  },
  "3455": {
    "zip_code": "7993455",
    "prefecture": "愛媛県",
    "prefecture_kana": "エヒメケン",
    "prefecture_code": 38,
    "city": "大洲市",
    "city_kana": "オオズシ",
    "town": "長浜町出海甲",
    "town_kana": "ナガハマチョウイズミコウ",
    "street": null,
    "office_name": null,
    "office_name_kana": null
  },
  "3456": {
    "zip_code": "7993456",
    "prefecture": "愛媛県",
    "prefecture_kana": "エヒメケン",
    "prefecture_code": 38,
    "city": "大洲市",
    "city_kana": "オオズシ",
    "town": "長浜町出海乙",
    "town_kana": "ナガハマチョウイズミオツ",
    "street": null,
    "office_name": null,
    "office_name_kana": null
  },
  "3461": {
    "zip_code": "7993461",
    "prefecture": "愛媛県",
    "prefecture_kana": "エヒメケン",
    "prefecture_code": 38,
    "city": "大洲市",
    "city_kana": "オオズシ",
    "town": "豊茂甲",
    "town_kana": "トヨシゲコウ",
    "street": null,
    "office_name": null,
    "office_name_kana": null
  },
  "3462": {
    "zip_code": "7993462",
    "prefecture": "愛媛県",
    "prefecture_kana": "エヒメケン",
    "prefecture_code": 38,
    "city": "大洲市",
    "city_kana": "オオズシ",
    "town": "豊茂乙",
    "town_kana": "トヨシゲオツ",
    "street": null,
    "office_name": null,
    "office_name_kana": null
  },
  "3463": {
    "zip_code": "7993463",
    "prefecture": "愛媛県",
    "prefecture_kana": "エヒメケン",
    "prefecture_code": 38,
    "city": "大洲市",
    "city_kana": "オオズシ",
    "town": "豊茂丙",
    "town_kana": "トヨシゲヘイ",
    "street": null,
    "office_name": null,
    "office_name_kana": null
  },
  "3464": {
    "zip_code": "7993464",
    "prefecture": "愛媛県",
    "prefecture_kana": "エヒメケン",
    "prefecture_code": 38,
    "city": "大洲市",
    "city_kana": "オオズシ",
    "town": "豊茂丁",
    "town_kana": "トヨシゲテイ",
    "street": null,
    "office_name": null,
    "office_name_kana": null
  },
  "3470": {
    "zip_code": "7993470",
    "prefecture": "愛媛県",
    "prefecture_kana": "エヒメケン",
    "prefecture_code": 38,
    "city": "大洲市",
    "city_kana": "オオズシ",
    "town": "長浜町青島",
    "town_kana": "ナガハマチョウアオシマ",
    "street": null,
    "office_name": null,
    "office_name_kana": null
  },
  "3701": {
    "zip_code": "7993701",
    "prefecture": "愛媛県",
    "prefecture_kana": "エヒメケン",
    "prefecture_code": 38,
    "city": "宇和島市",
    "city_kana": "ウワジマシ",
    "town": "吉田町北小路",
    "town_kana": "ヨシダチョウキタコウジ",
    "street": null,
    "office_name": null,
    "office_name_kana": null
  },
  "3702": {
    "zip_code": "7993702",
    "prefecture": "愛媛県",
    "prefecture_kana": "エヒメケン",
    "prefecture_code": 38,
    "city": "宇和島市",
    "city_kana": "ウワジマシ",
    "town": "吉田町西小路",
    "town_kana": "ヨシダチョウニシコウジ",
    "street": null,
    "office_name": null,
    "office_name_kana": null
  },
  "3703": {
    "zip_code": "7993703",
    "prefecture": "愛媛県",
    "prefecture_kana": "エヒメケン",
    "prefecture_code": 38,
    "city": "宇和島市",
    "city_kana": "ウワジマシ",
    "town": "吉田町東小路",
    "town_kana": "ヨシダチョウヒガシコウジ",
    "street": null,
    "office_name": null,
    "office_name_kana": null
  },
  "3704": {
    "zip_code": "7993704",
    "prefecture": "愛媛県",
    "prefecture_kana": "エヒメケン",
    "prefecture_code": 38,
    "city": "宇和島市",
    "city_kana": "ウワジマシ",
    "town": "吉田町魚棚",
    "town_kana": "ヨシダチョウウオタナ",
    "street": null,
    "office_name": null,
    "office_name_kana": null
  },
  "3705": {
    "zip_code": "7993705",
    "prefecture": "愛媛県",
    "prefecture_kana": "エヒメケン",
    "prefecture_code": 38,
    "city": "宇和島市",
    "city_kana": "ウワジマシ",
    "town": "吉田町本町",
    "town_kana": "ヨシダチョウホンマチ",
    "street": null,
    "office_name": null,
    "office_name_kana": null
  },
  "3706": {
    "zip_code": "7993706",
    "prefecture": "愛媛県",
    "prefecture_kana": "エヒメケン",
    "prefecture_code": 38,
    "city": "宇和島市",
    "city_kana": "ウワジマシ",
    "town": "吉田町裡町",
    "town_kana": "ヨシダチョウウラマチ",
    "street": null,
    "office_name": null,
    "office_name_kana": null
  },
  "3707": [
    {
      "zip_code": "7993707",
      "prefecture": "愛媛県",
      "prefecture_kana": "エヒメケン",
      "prefecture_code": 38,
      "city": "宇和島市",
      "city_kana": "ウワジマシ",
      "town": "吉田町鶴間",
      "town_kana": "ヨシダチョウツルマ",
      "street": null,
      "office_name": null,
      "office_name_kana": null
    },
    {
      "zip_code": "7993707",
      "prefecture": "愛媛県",
      "prefecture_kana": "エヒメケン",
      "prefecture_code": 38,
      "city": "宇和島市",
      "city_kana": "ウワジマシ",
      "town": "吉田町鶴間御殿内",
      "town_kana": "ヨシダチョウツルマゴテンウチ",
      "street": null,
      "office_name": null,
      "office_name_kana": null
    }
  ],
  "3710": {
    "zip_code": "7993710",
    "prefecture": "愛媛県",
    "prefecture_kana": "エヒメケン",
    "prefecture_code": 38,
    "city": "宇和島市",
    "city_kana": "ウワジマシ",
    "town": "吉田町立間尻",
    "town_kana": "ヨシダチョウタチマジリ",
    "street": null,
    "office_name": null,
    "office_name_kana": null
  },
  "3720": {
    "zip_code": "7993720",
    "prefecture": "愛媛県",
    "prefecture_kana": "エヒメケン",
    "prefecture_code": 38,
    "city": "宇和島市",
    "city_kana": "ウワジマシ",
    "town": "吉田町知永",
    "town_kana": "ヨシダチョウチナガ",
    "street": null,
    "office_name": null,
    "office_name_kana": null
  },
  "3730": {
    "zip_code": "7993730",
    "prefecture": "愛媛県",
    "prefecture_kana": "エヒメケン",
    "prefecture_code": 38,
    "city": "宇和島市",
    "city_kana": "ウワジマシ",
    "town": "吉田町立間",
    "town_kana": "ヨシダチョウタチマ",
    "street": null,
    "office_name": null,
    "office_name_kana": null
  },
  "3741": {
    "zip_code": "7993741",
    "prefecture": "愛媛県",
    "prefecture_kana": "エヒメケン",
    "prefecture_code": 38,
    "city": "宇和島市",
    "city_kana": "ウワジマシ",
    "town": "吉田町白浦",
    "town_kana": "ヨシダチョウシロウラ",
    "street": null,
    "office_name": null,
    "office_name_kana": null
  },
  "3742": {
    "zip_code": "7993742",
    "prefecture": "愛媛県",
    "prefecture_kana": "エヒメケン",
    "prefecture_code": 38,
    "city": "宇和島市",
    "city_kana": "ウワジマシ",
    "town": "吉田町法花津",
    "town_kana": "ヨシダチョウホケヅ",
    "street": null,
    "office_name": null,
    "office_name_kana": null
  },
  "3743": {
    "zip_code": "7993743",
    "prefecture": "愛媛県",
    "prefecture_kana": "エヒメケン",
    "prefecture_code": 38,
    "city": "宇和島市",
    "city_kana": "ウワジマシ",
    "town": "吉田町深浦",
    "town_kana": "ヨシダチョウフカウラ",
    "street": null,
    "office_name": null,
    "office_name_kana": null
  },
  "3751": {
    "zip_code": "7993751",
    "prefecture": "愛媛県",
    "prefecture_kana": "エヒメケン",
    "prefecture_code": 38,
    "city": "宇和島市",
    "city_kana": "ウワジマシ",
    "town": "吉田町沖村",
    "town_kana": "ヨシダチョウオキムラ",
    "street": null,
    "office_name": null,
    "office_name_kana": null
  },
  "3752": {
    "zip_code": "7993752",
    "prefecture": "愛媛県",
    "prefecture_kana": "エヒメケン",
    "prefecture_code": 38,
    "city": "宇和島市",
    "city_kana": "ウワジマシ",
    "town": "吉田町河内",
    "town_kana": "ヨシダチョウカワチ",
    "street": null,
    "office_name": null,
    "office_name_kana": null
  },
  "3761": {
    "zip_code": "7993761",
    "prefecture": "愛媛県",
    "prefecture_kana": "エヒメケン",
    "prefecture_code": 38,
    "city": "宇和島市",
    "city_kana": "ウワジマシ",
    "town": "吉田町鶴間",
    "town_kana": "ヨシダチョウツルマ",
    "street": null,
    "office_name": null,
    "office_name_kana": null
  },
  "3762": [
    {
      "zip_code": "7993762",
      "prefecture": "愛媛県",
      "prefecture_kana": "エヒメケン",
      "prefecture_code": 38,
      "city": "宇和島市",
      "city_kana": "ウワジマシ",
      "town": "吉田町鶴間",
      "town_kana": "ヨシダチョウツルマ",
      "street": null,
      "office_name": null,
      "office_name_kana": null
    },
    {
      "zip_code": "7993762",
      "prefecture": "愛媛県",
      "prefecture_kana": "エヒメケン",
      "prefecture_code": 38,
      "city": "宇和島市",
      "city_kana": "ウワジマシ",
      "town": "吉田町鶴間鶴間団地",
      "town_kana": "ヨシダチョウツルマツルマダンチ",
      "street": null,
      "office_name": null,
      "office_name_kana": null
    }
  ],
  "3763": {
    "zip_code": "7993763",
    "prefecture": "愛媛県",
    "prefecture_kana": "エヒメケン",
    "prefecture_code": 38,
    "city": "宇和島市",
    "city_kana": "ウワジマシ",
    "town": "吉田町浅川",
    "town_kana": "ヨシダチョウアサカワ",
    "street": null,
    "office_name": null,
    "office_name_kana": null
  },
  "3771": {
    "zip_code": "7993771",
    "prefecture": "愛媛県",
    "prefecture_kana": "エヒメケン",
    "prefecture_code": 38,
    "city": "宇和島市",
    "city_kana": "ウワジマシ",
    "town": "吉田町南君",
    "town_kana": "ヨシダチョウナギミ",
    "street": null,
    "office_name": null,
    "office_name_kana": null
  },
  "3772": {
    "zip_code": "7993772",
    "prefecture": "愛媛県",
    "prefecture_kana": "エヒメケン",
    "prefecture_code": 38,
    "city": "宇和島市",
    "city_kana": "ウワジマシ",
    "town": "吉田町奥浦",
    "town_kana": "ヨシダチョウオクウラ",
    "street": null,
    "office_name": null,
    "office_name_kana": null
  },
  "3792": {
    "zip_code": "7993792",
    "prefecture": "愛媛県",
    "prefecture_kana": "エヒメケン",
    "prefecture_code": 38,
    "city": "宇和島市",
    "city_kana": "ウワジマシ",
    "town": "吉田町東小路",
    "town_kana": "ヨシダチョウヒガシコウジ",
    "street": "甲７０",
    "office_name": "宇和島市役所　吉田支所",
    "office_name_kana": "ウワジマシヤクシヨ ヨシダシシヨ"
  },
  "3793": {
    "zip_code": "7993793",
    "prefecture": "愛媛県",
    "prefecture_kana": "エヒメケン",
    "prefecture_code": 38,
    "city": "宇和島市",
    "city_kana": "ウワジマシ",
    "town": "吉田町立間",
    "town_kana": "ヨシダチョウタチマ",
    "street": "２−１４６",
    "office_name": "宇和青果農業協同組合",
    "office_name_kana": "ウワセイカノウギヨウキヨウドウクミアイ"
  }
}