{
  "0000": {
    "zip_code": "8080000",
    "prefecture": "福岡県",
    "prefecture_kana": "フクオカケン",
    "prefecture_code": "40",
    "city": "北九州市若松区",
    "city_kana": "キタキュウシュウシワカマツク",
    "town": "",
    "town_kana": "",
    "street": null,
    "office_name": null,
    "office_name_kana": null
  },
  "0001": {
    "zip_code": "8080001",
    "prefecture": "福岡県",
    "prefecture_kana": "フクオカケン",
    "prefecture_code": "40",
    "city": "北九州市若松区",
    "city_kana": "キタキュウシュウシワカマツク",
    "town": "小石本村町",
    "town_kana": "コイシホンムラマチ",
    "street": null,
    "office_name": null,
    "office_name_kana": null
  },
  "0002": {
    "zip_code": "8080002",
    "prefecture": "福岡県",
    "prefecture_kana": "フクオカケン",
    "prefecture_code": "40",
    "city": "北九州市若松区",
    "city_kana": "キタキュウシュウシワカマツク",
    "town": "向洋町",
    "town_kana": "コウヨウマチ",
    "street": null,
    "office_name": null,
    "office_name_kana": null
  },
  "0003": {
    "zip_code": "8080003",
    "prefecture": "福岡県",
    "prefecture_kana": "フクオカケン",
    "prefecture_code": "40",
    "city": "北九州市若松区",
    "city_kana": "キタキュウシュウシワカマツク",
    "town": "赤崎町",
    "town_kana": "アカサキマチ",
    "street": null,
    "office_name": null,
    "office_name_kana": null
  },
  "0004": {
    "zip_code": "8080004",
    "prefecture": "福岡県",
    "prefecture_kana": "フクオカケン",
    "prefecture_code": "40",
    "city": "北九州市若松区",
    "city_kana": "キタキュウシュウシワカマツク",
    "town": "西小石町",
    "town_kana": "ニシコイシマチ",
    "street": null,
    "office_name": null,
    "office_name_kana": null
  },
  "0005": {
    "zip_code": "8080005",
    "prefecture": "福岡県",
    "prefecture_kana": "フクオカケン",
    "prefecture_code": "40",
    "city": "北九州市若松区",
    "city_kana": "キタキュウシュウシワカマツク",
    "town": "下原町",
    "town_kana": "シモハラマチ",
    "street": null,
    "office_name": null,
    "office_name_kana": null
  },
  "0006": {
    "zip_code": "8080006",
    "prefecture": "福岡県",
    "prefecture_kana": "フクオカケン",
    "prefecture_code": "40",
    "city": "北九州市若松区",
    "city_kana": "キタキュウシュウシワカマツク",
    "town": "宮前町",
    "town_kana": "ミヤマエマチ",
    "street": null,
    "office_name": null,
    "office_name_kana": null
  },
  "0007": {
    "zip_code": "8080007",
    "prefecture": "福岡県",
    "prefecture_kana": "フクオカケン",
    "prefecture_code": "40",
    "city": "北九州市若松区",
    "city_kana": "キタキュウシュウシワカマツク",
    "town": "小石",
    "town_kana": "コイシ",
    "street": null,
    "office_name": null,
    "office_name_kana": null
  },
  "0008": [
    {
      "zip_code": "8080008",
      "prefecture": "福岡県",
      "prefecture_kana": "フクオカケン",
      "prefecture_code": "40",
      "city": "北九州市若松区",
      "city_kana": "キタキュウシュウシワカマツク",
      "town": "小竹",
      "town_kana": "オダケ",
      "street": null,
      "office_name": null,
      "office_name_kana": null
    },
    {
      "zip_code": "8080008",
      "prefecture": "福岡県",
      "prefecture_kana": "フクオカケン",
      "prefecture_code": "40",
      "city": "北九州市若松区",
      "city_kana": "キタキュウシュウシワカマツク",
      "town": "小竹相川",
      "town_kana": "オダケアイカワ",
      "street": null,
      "office_name": null,
      "office_name_kana": null
    },
    {
      "zip_code": "8080008",
      "prefecture": "福岡県",
      "prefecture_kana": "フクオカケン",
      "prefecture_code": "40",
      "city": "北九州市若松区",
      "city_kana": "キタキュウシュウシワカマツク",
      "town": "小竹鬼ケ坂",
      "town_kana": "オダケオニガサカ",
      "street": null,
      "office_name": null,
      "office_name_kana": null
    },
    {
      "zip_code": "8080008",
      "prefecture": "福岡県",
      "prefecture_kana": "フクオカケン",
      "prefecture_code": "40",
      "city": "北九州市若松区",
      "city_kana": "キタキュウシュウシワカマツク",
      "town": "小竹唐木",
      "town_kana": "オダケカラキ",
      "street": null,
      "office_name": null,
      "office_name_kana": null
    },
    {
      "zip_code": "8080008",
      "prefecture": "福岡県",
      "prefecture_kana": "フクオカケン",
      "prefecture_code": "40",
      "city": "北九州市若松区",
      "city_kana": "キタキュウシュウシワカマツク",
      "town": "小竹椿",
      "town_kana": "オダケツバキ",
      "street": null,
      "office_name": null,
      "office_name_kana": null
    },
    {
      "zip_code": "8080008",
      "prefecture": "福岡県",
      "prefecture_kana": "フクオカケン",
      "prefecture_code": "40",
      "city": "北九州市若松区",
      "city_kana": "キタキュウシュウシワカマツク",
      "town": "小竹脇ノ浦",
      "town_kana": "オダケワキノウラ",
      "street": null,
      "office_name": null,
      "office_name_kana": null
    }
  ],
  "0011": {
    "zip_code": "8080011",
    "prefecture": "福岡県",
    "prefecture_kana": "フクオカケン",
    "prefecture_code": "40",
    "city": "北九州市若松区",
    "city_kana": "キタキュウシュウシワカマツク",
    "town": "響南町",
    "town_kana": "キョウナンマチ",
    "street": null,
    "office_name": null,
    "office_name_kana": null
  },
  "0012": {
    "zip_code": "8080012",
    "prefecture": "福岡県",
    "prefecture_kana": "フクオカケン",
    "prefecture_code": "40",
    "city": "北九州市若松区",
    "city_kana": "キタキュウシュウシワカマツク",
    "town": "深町",
    "town_kana": "フカマチ",
    "street": null,
    "office_name": null,
    "office_name_kana": null
  },
  "0013": {
    "zip_code": "8080013",
    "prefecture": "福岡県",
    "prefecture_kana": "フクオカケン",
    "prefecture_code": "40",
    "city": "北九州市若松区",
    "city_kana": "キタキュウシュウシワカマツク",
    "town": "波打町",
    "town_kana": "ナミウチマチ",
    "street": null,
    "office_name": null,
    "office_name_kana": null
  },
  "0014": {
    "zip_code": "8080014",
    "prefecture": "福岡県",
    "prefecture_kana": "フクオカケン",
    "prefecture_code": "40",
    "city": "北九州市若松区",
    "city_kana": "キタキュウシュウシワカマツク",
    "town": "栄盛川町",
    "town_kana": "エイセイガワマチ",
    "street": null,
    "office_name": null,
    "office_name_kana": null
  },
  "0015": {
    "zip_code": "8080015",
    "prefecture": "福岡県",
    "prefecture_kana": "フクオカケン",
    "prefecture_code": "40",
    "city": "北九州市若松区",
    "city_kana": "キタキュウシュウシワカマツク",
    "town": "上原町",
    "town_kana": "カミハラマチ",
    "street": null,
    "office_name": null,
    "office_name_kana": null
  },
  "0016": {
    "zip_code": "8080016",
    "prefecture": "福岡県",
    "prefecture_kana": "フクオカケン",
    "prefecture_code": "40",
    "city": "北九州市若松区",
    "city_kana": "キタキュウシュウシワカマツク",
    "town": "原町",
    "town_kana": "ハラマチ",
    "street": null,
    "office_name": null,
    "office_name_kana": null
  },
  "0017": {
    "zip_code": "8080017",
    "prefecture": "福岡県",
    "prefecture_kana": "フクオカケン",
    "prefecture_code": "40",
    "city": "北九州市若松区",
    "city_kana": "キタキュウシュウシワカマツク",
    "town": "東小石町",
    "town_kana": "ヒガシコイシマチ",
    "street": null,
    "office_name": null,
    "office_name_kana": null
  },
  "0021": {
    "zip_code": "8080021",
    "prefecture": "福岡県",
    "prefecture_kana": "フクオカケン",
    "prefecture_code": "40",
    "city": "北九州市若松区",
    "city_kana": "キタキュウシュウシワカマツク",
    "town": "響町",
    "town_kana": "ヒビキマチ",
    "street": null,
    "office_name": null,
    "office_name_kana": null
  },
  "0022": {
    "zip_code": "8080022",
    "prefecture": "福岡県",
    "prefecture_kana": "フクオカケン",
    "prefecture_code": "40",
    "city": "北九州市若松区",
    "city_kana": "キタキュウシュウシワカマツク",
    "town": "安瀬",
    "town_kana": "アンセ",
    "street": null,
    "office_name": null,
    "office_name_kana": null
  },
  "0023": {
    "zip_code": "8080023",
    "prefecture": "福岡県",
    "prefecture_kana": "フクオカケン",
    "prefecture_code": "40",
    "city": "北九州市若松区",
    "city_kana": "キタキュウシュウシワカマツク",
    "town": "北浜",
    "town_kana": "キタハマ",
    "street": null,
    "office_name": null,
    "office_name_kana": null
  },
  "0024": {
    "zip_code": "8080024",
    "prefecture": "福岡県",
    "prefecture_kana": "フクオカケン",
    "prefecture_code": "40",
    "city": "北九州市若松区",
    "city_kana": "キタキュウシュウシワカマツク",
    "town": "浜町",
    "town_kana": "ハママチ",
    "street": null,
    "office_name": null,
    "office_name_kana": null
  },
  "0025": {
    "zip_code": "8080025",
    "prefecture": "福岡県",
    "prefecture_kana": "フクオカケン",
    "prefecture_code": "40",
    "city": "北九州市若松区",
    "city_kana": "キタキュウシュウシワカマツク",
    "town": "中川町",
    "town_kana": "ナカガワマチ",
    "street": null,
    "office_name": null,
    "office_name_kana": null
  },
  "0026": {
    "zip_code": "8080026",
    "prefecture": "福岡県",
    "prefecture_kana": "フクオカケン",
    "prefecture_code": "40",
    "city": "北九州市若松区",
    "city_kana": "キタキュウシュウシワカマツク",
    "town": "桜町",
    "town_kana": "サクラマチ",
    "street": null,
    "office_name": null,
    "office_name_kana": null
  },
  "0027": {
    "zip_code": "8080027",
    "prefecture": "福岡県",
    "prefecture_kana": "フクオカケン",
    "prefecture_code": "40",
    "city": "北九州市若松区",
    "city_kana": "キタキュウシュウシワカマツク",
    "town": "北湊町",
    "town_kana": "キタミナトマチ",
    "street": null,
    "office_name": null,
    "office_name_kana": null
  },
  "0031": {
    "zip_code": "8080031",
    "prefecture": "福岡県",
    "prefecture_kana": "フクオカケン",
    "prefecture_code": "40",
    "city": "北九州市若松区",
    "city_kana": "キタキュウシュウシワカマツク",
    "town": "西園町",
    "town_kana": "ニシゾノマチ",
    "street": null,
    "office_name": null,
    "office_name_kana": null
  },
  "0032": {
    "zip_code": "8080032",
    "prefecture": "福岡県",
    "prefecture_kana": "フクオカケン",
    "prefecture_code": "40",
    "city": "北九州市若松区",
    "city_kana": "キタキュウシュウシワカマツク",
    "town": "老松",
    "town_kana": "オイマツ",
    "street": null,
    "office_name": null,
    "office_name_kana": null
  },
  "0033": {
    "zip_code": "8080033",
    "prefecture": "福岡県",
    "prefecture_kana": "フクオカケン",
    "prefecture_code": "40",
    "city": "北九州市若松区",
    "city_kana": "キタキュウシュウシワカマツク",
    "town": "大井戸町",
    "town_kana": "オオイドマチ",
    "street": null,
    "office_name": null,
    "office_name_kana": null
  },
  "0034": {
    "zip_code": "8080034",
    "prefecture": "福岡県",
    "prefecture_kana": "フクオカケン",
    "prefecture_code": "40",
    "city": "北九州市若松区",
    "city_kana": "キタキュウシュウシワカマツク",
    "town": "本町",
    "town_kana": "ホンマチ",
    "street": null,
    "office_name": null,
    "office_name_kana": null
  },
  "0035": {
    "zip_code": "8080035",
    "prefecture": "福岡県",
    "prefecture_kana": "フクオカケン",
    "prefecture_code": "40",
    "city": "北九州市若松区",
    "city_kana": "キタキュウシュウシワカマツク",
    "town": "白山",
    "town_kana": "ハクサン",
    "street": null,
    "office_name": null,
    "office_name_kana": null
  },
  "0036": {
    "zip_code": "8080036",
    "prefecture": "福岡県",
    "prefecture_kana": "フクオカケン",
    "prefecture_code": "40",
    "city": "北九州市若松区",
    "city_kana": "キタキュウシュウシワカマツク",
    "town": "山手町",
    "town_kana": "ヤマテマチ",
    "street": null,
    "office_name": null,
    "office_name_kana": null
  },
  "0041": {
    "zip_code": "8080041",
    "prefecture": "福岡県",
    "prefecture_kana": "フクオカケン",
    "prefecture_code": "40",
    "city": "北九州市若松区",
    "city_kana": "キタキュウシュウシワカマツク",
    "town": "迫田町",
    "town_kana": "サコダマチ",
    "street": null,
    "office_name": null,
    "office_name_kana": null
  },
  "0042": {
    "zip_code": "8080042",
    "prefecture": "福岡県",
    "prefecture_kana": "フクオカケン",
    "prefecture_code": "40",
    "city": "北九州市若松区",
    "city_kana": "キタキュウシュウシワカマツク",
    "town": "棚田町",
    "town_kana": "タナダマチ",
    "street": null,
    "office_name": null,
    "office_name_kana": null
  },
  "0043": {
    "zip_code": "8080043",
    "prefecture": "福岡県",
    "prefecture_kana": "フクオカケン",
    "prefecture_code": "40",
    "city": "北九州市若松区",
    "city_kana": "キタキュウシュウシワカマツク",
    "town": "西畑町",
    "town_kana": "ニシハタマチ",
    "street": null,
    "office_name": null,
    "office_name_kana": null
  },
  "0044": {
    "zip_code": "8080044",
    "prefecture": "福岡県",
    "prefecture_kana": "フクオカケン",
    "prefecture_code": "40",
    "city": "北九州市若松区",
    "city_kana": "キタキュウシュウシワカマツク",
    "town": "東畑町",
    "town_kana": "ヒガシハタマチ",
    "street": null,
    "office_name": null,
    "office_name_kana": null
  },
  "0045": {
    "zip_code": "8080045",
    "prefecture": "福岡県",
    "prefecture_kana": "フクオカケン",
    "prefecture_code": "40",
    "city": "北九州市若松区",
    "city_kana": "キタキュウシュウシワカマツク",
    "town": "山ノ堂町",
    "town_kana": "ヤマノドウマチ",
    "street": null,
    "office_name": null,
    "office_name_kana": null
  },
  "0046": {
    "zip_code": "8080046",
    "prefecture": "福岡県",
    "prefecture_kana": "フクオカケン",
    "prefecture_code": "40",
    "city": "北九州市若松区",
    "city_kana": "キタキュウシュウシワカマツク",
    "town": "小糸町",
    "town_kana": "コイトマチ",
    "street": null,
    "office_name": null,
    "office_name_kana": null
  },
  "0047": {
    "zip_code": "8080047",
    "prefecture": "福岡県",
    "prefecture_kana": "フクオカケン",
    "prefecture_code": "40",
    "city": "北九州市若松区",
    "city_kana": "キタキュウシュウシワカマツク",
    "town": "中畑町",
    "town_kana": "ナカハタマチ",
    "street": null,
    "office_name": null,
    "office_name_kana": null
  },
  "0051": {
    "zip_code": "8080051",
    "prefecture": "福岡県",
    "prefecture_kana": "フクオカケン",
    "prefecture_code": "40",
    "city": "北九州市若松区",
    "city_kana": "キタキュウシュウシワカマツク",
    "town": "大谷町",
    "town_kana": "オオタニマチ",
    "street": null,
    "office_name": null,
    "office_name_kana": null
  },
  "0052": {
    "zip_code": "8080052",
    "prefecture": "福岡県",
    "prefecture_kana": "フクオカケン",
    "prefecture_code": "40",
    "city": "北九州市若松区",
    "city_kana": "キタキュウシュウシワカマツク",
    "town": "新大谷町",
    "town_kana": "シンオオタニマチ",
    "street": null,
    "office_name": null,
    "office_name_kana": null
  },
  "0053": {
    "zip_code": "8080053",
    "prefecture": "福岡県",
    "prefecture_kana": "フクオカケン",
    "prefecture_code": "40",
    "city": "北九州市若松区",
    "city_kana": "キタキュウシュウシワカマツク",
    "town": "修多羅",
    "town_kana": "スタラ",
    "street": null,
    "office_name": null,
    "office_name_kana": null
  },
  "0054": {
    "zip_code": "8080054",
    "prefecture": "福岡県",
    "prefecture_kana": "フクオカケン",
    "prefecture_code": "40",
    "city": "北九州市若松区",
    "city_kana": "キタキュウシュウシワカマツク",
    "town": "久岐の浜",
    "town_kana": "クキノハマ",
    "street": null,
    "office_name": null,
    "office_name_kana": null
  },
  "0055": {
    "zip_code": "8080055",
    "prefecture": "福岡県",
    "prefecture_kana": "フクオカケン",
    "prefecture_code": "40",
    "city": "北九州市若松区",
    "city_kana": "キタキュウシュウシワカマツク",
    "town": "畑谷町",
    "town_kana": "ハタダニマチ",
    "street": null,
    "office_name": null,
    "office_name_kana": null
  },
  "0061": {
    "zip_code": "8080061",
    "prefecture": "福岡県",
    "prefecture_kana": "フクオカケン",
    "prefecture_code": "40",
    "city": "北九州市若松区",
    "city_kana": "キタキュウシュウシワカマツク",
    "town": "大池町",
    "town_kana": "オオイケマチ",
    "street": null,
    "office_name": null,
    "office_name_kana": null
  },
  "0062": {
    "zip_code": "8080062",
    "prefecture": "福岡県",
    "prefecture_kana": "フクオカケン",
    "prefecture_code": "40",
    "city": "北九州市若松区",
    "city_kana": "キタキュウシュウシワカマツク",
    "town": "古前",
    "town_kana": "フルマエ",
    "street": null,
    "office_name": null,
    "office_name_kana": null
  },
  "0063": {
    "zip_code": "8080063",
    "prefecture": "福岡県",
    "prefecture_kana": "フクオカケン",
    "prefecture_code": "40",
    "city": "北九州市若松区",
    "city_kana": "キタキュウシュウシワカマツク",
    "town": "和田町",
    "town_kana": "ワダマチ",
    "street": null,
    "office_name": null,
    "office_name_kana": null
  },
  "0064": {
    "zip_code": "8080064",
    "prefecture": "福岡県",
    "prefecture_kana": "フクオカケン",
    "prefecture_code": "40",
    "city": "北九州市若松区",
    "city_kana": "キタキュウシュウシワカマツク",
    "town": "宮丸",
    "town_kana": "ミヤマル",
    "street": null,
    "office_name": null,
    "office_name_kana": null
  },
  "0065": {
    "zip_code": "8080065",
    "prefecture": "福岡県",
    "prefecture_kana": "フクオカケン",
    "prefecture_code": "40",
    "city": "北九州市若松区",
    "city_kana": "キタキュウシュウシワカマツク",
    "town": "藤木",
    "town_kana": "フジノキ",
    "street": null,
    "office_name": null,
    "office_name_kana": null
  },
  "0066": {
    "zip_code": "8080066",
    "prefecture": "福岡県",
    "prefecture_kana": "フクオカケン",
    "prefecture_code": "40",
    "city": "北九州市若松区",
    "city_kana": "キタキュウシュウシワカマツク",
    "town": "くきのうみ中央",
    "town_kana": "クキノウミチュウオウ",
    "street": null,
    "office_name": null,
    "office_name_kana": null
  },
  "0071": {
    "zip_code": "8080071",
    "prefecture": "福岡県",
    "prefecture_kana": "フクオカケン",
    "prefecture_code": "40",
    "city": "北九州市若松区",
    "city_kana": "キタキュウシュウシワカマツク",
    "town": "今光",
    "town_kana": "イマミツ",
    "street": null,
    "office_name": null,
    "office_name_kana": null
  },
  "0072": {
    "zip_code": "8080072",
    "prefecture": "福岡県",
    "prefecture_kana": "フクオカケン",
    "prefecture_code": "40",
    "city": "北九州市若松区",
    "city_kana": "キタキュウシュウシワカマツク",
    "town": "百合野町",
    "town_kana": "ユリノマチ",
    "street": null,
    "office_name": null,
    "office_name_kana": null
  },
  "0073": {
    "zip_code": "8080073",
    "prefecture": "福岡県",
    "prefecture_kana": "フクオカケン",
    "prefecture_code": "40",
    "city": "北九州市若松区",
    "city_kana": "キタキュウシュウシワカマツク",
    "town": "赤島町",
    "town_kana": "アカシママチ",
    "street": null,
    "office_name": null,
    "office_name_kana": null
  },
  "0074": {
    "zip_code": "8080074",
    "prefecture": "福岡県",
    "prefecture_kana": "フクオカケン",
    "prefecture_code": "40",
    "city": "北九州市若松区",
    "city_kana": "キタキュウシュウシワカマツク",
    "town": "藤ノ木",
    "town_kana": "フジノキ",
    "street": null,
    "office_name": null,
    "office_name_kana": null
  },
  "0075": {
    "zip_code": "8080075",
    "prefecture": "福岡県",
    "prefecture_kana": "フクオカケン",
    "prefecture_code": "40",
    "city": "北九州市若松区",
    "city_kana": "キタキュウシュウシワカマツク",
    "town": "赤岩町",
    "town_kana": "アカイワマチ",
    "street": null,
    "office_name": null,
    "office_name_kana": null
  },
  "0076": {
    "zip_code": "8080076",
    "prefecture": "福岡県",
    "prefecture_kana": "フクオカケン",
    "prefecture_code": "40",
    "city": "北九州市若松区",
    "city_kana": "キタキュウシュウシワカマツク",
    "town": "童子丸",
    "town_kana": "ドウジマル",
    "street": null,
    "office_name": null,
    "office_name_kana": null
  },
  "0077": {
    "zip_code": "8080077",
    "prefecture": "福岡県",
    "prefecture_kana": "フクオカケン",
    "prefecture_code": "40",
    "city": "北九州市若松区",
    "city_kana": "キタキュウシュウシワカマツク",
    "town": "用勺町",
    "town_kana": "ヨウジャクマチ",
    "street": null,
    "office_name": null,
    "office_name_kana": null
  },
  "0101": {
    "zip_code": "8080101",
    "prefecture": "福岡県",
    "prefecture_kana": "フクオカケン",
    "prefecture_code": "40",
    "city": "北九州市若松区",
    "city_kana": "キタキュウシュウシワカマツク",
    "town": "西天神町",
    "town_kana": "ニシテンジンマチ",
    "street": null,
    "office_name": null,
    "office_name_kana": null
  },
  "0102": {
    "zip_code": "8080102",
    "prefecture": "福岡県",
    "prefecture_kana": "フクオカケン",
    "prefecture_code": "40",
    "city": "北九州市若松区",
    "city_kana": "キタキュウシュウシワカマツク",
    "town": "東二島",
    "town_kana": "ヒガシフタジマ",
    "street": null,
    "office_name": null,
    "office_name_kana": null
  },
  "0103": {
    "zip_code": "8080103",
    "prefecture": "福岡県",
    "prefecture_kana": "フクオカケン",
    "prefecture_code": "40",
    "city": "北九州市若松区",
    "city_kana": "キタキュウシュウシワカマツク",
    "town": "二島",
    "town_kana": "フタジマ",
    "street": null,
    "office_name": null,
    "office_name_kana": null
  },
  "0104": {
    "zip_code": "8080104",
    "prefecture": "福岡県",
    "prefecture_kana": "フクオカケン",
    "prefecture_code": "40",
    "city": "北九州市若松区",
    "city_kana": "キタキュウシュウシワカマツク",
    "town": "畠田",
    "town_kana": "ハタケダ",
    "street": null,
    "office_name": null,
    "office_name_kana": null
  },
  "0105": {
    "zip_code": "8080105",
    "prefecture": "福岡県",
    "prefecture_kana": "フクオカケン",
    "prefecture_code": "40",
    "city": "北九州市若松区",
    "city_kana": "キタキュウシュウシワカマツク",
    "town": "鴨生田",
    "town_kana": "カモオダ",
    "street": null,
    "office_name": null,
    "office_name_kana": null
  },
  "0106": {
    "zip_code": "8080106",
    "prefecture": "福岡県",
    "prefecture_kana": "フクオカケン",
    "prefecture_code": "40",
    "city": "北九州市若松区",
    "city_kana": "キタキュウシュウシワカマツク",
    "town": "片山",
    "town_kana": "カタヤマ",
    "street": null,
    "office_name": null,
    "office_name_kana": null
  },
  "0108": {
    "zip_code": "8080108",
    "prefecture": "福岡県",
    "prefecture_kana": "フクオカケン",
    "prefecture_code": "40",
    "city": "北九州市若松区",
    "city_kana": "キタキュウシュウシワカマツク",
    "town": "小竹",
    "town_kana": "オダケ",
    "street": null,
    "office_name": null,
    "office_name_kana": null
  },
  "0109": {
    "zip_code": "8080109",
    "prefecture": "福岡県",
    "prefecture_kana": "フクオカケン",
    "prefecture_code": "40",
    "city": "北九州市若松区",
    "city_kana": "キタキュウシュウシワカマツク",
    "town": "南二島",
    "town_kana": "ミナミフタジマ",
    "street": null,
    "office_name": null,
    "office_name_kana": null
  },
  "0111": {
    "zip_code": "8080111",
    "prefecture": "福岡県",
    "prefecture_kana": "フクオカケン",
    "prefecture_code": "40",
    "city": "北九州市若松区",
    "city_kana": "キタキュウシュウシワカマツク",
    "town": "柳崎町",
    "town_kana": "ヤナガサキマチ",
    "street": null,
    "office_name": null,
    "office_name_kana": null
  },
  "0112": {
    "zip_code": "8080112",
    "prefecture": "福岡県",
    "prefecture_kana": "フクオカケン",
    "prefecture_code": "40",
    "city": "北九州市若松区",
    "city_kana": "キタキュウシュウシワカマツク",
    "town": "頓田",
    "town_kana": "トンダ",
    "street": null,
    "office_name": null,
    "office_name_kana": null
  },
  "0113": {
    "zip_code": "8080113",
    "prefecture": "福岡県",
    "prefecture_kana": "フクオカケン",
    "prefecture_code": "40",
    "city": "北九州市若松区",
    "city_kana": "キタキュウシュウシワカマツク",
    "town": "払川",
    "town_kana": "ハライガワ",
    "street": null,
    "office_name": null,
    "office_name_kana": null
  },
  "0121": {
    "zip_code": "8080121",
    "prefecture": "福岡県",
    "prefecture_kana": "フクオカケン",
    "prefecture_code": "40",
    "city": "北九州市若松区",
    "city_kana": "キタキュウシュウシワカマツク",
    "town": "竹並",
    "town_kana": "タケナミ",
    "street": null,
    "office_name": null,
    "office_name_kana": null
  },
  "0122": {
    "zip_code": "8080122",
    "prefecture": "福岡県",
    "prefecture_kana": "フクオカケン",
    "prefecture_code": "40",
    "city": "北九州市若松区",
    "city_kana": "キタキュウシュウシワカマツク",
    "town": "蜑住",
    "town_kana": "アマスミ",
    "street": null,
    "office_name": null,
    "office_name_kana": null
  },
  "0123": {
    "zip_code": "8080123",
    "prefecture": "福岡県",
    "prefecture_kana": "フクオカケン",
    "prefecture_code": "40",
    "city": "北九州市若松区",
    "city_kana": "キタキュウシュウシワカマツク",
    "town": "有毛",
    "town_kana": "アリゲ",
    "street": null,
    "office_name": null,
    "office_name_kana": null
  },
  "0124": {
    "zip_code": "8080124",
    "prefecture": "福岡県",
    "prefecture_kana": "フクオカケン",
    "prefecture_code": "40",
    "city": "北九州市若松区",
    "city_kana": "キタキュウシュウシワカマツク",
    "town": "安屋",
    "town_kana": "アンヤ",
    "street": null,
    "office_name": null,
    "office_name_kana": null
  },
  "0131": {
    "zip_code": "8080131",
    "prefecture": "福岡県",
    "prefecture_kana": "フクオカケン",
    "prefecture_code": "40",
    "city": "北九州市若松区",
    "city_kana": "キタキュウシュウシワカマツク",
    "town": "塩屋",
    "town_kana": "シオヤ",
    "street": null,
    "office_name": null,
    "office_name_kana": null
  },
  "0132": {
    "zip_code": "8080132",
    "prefecture": "福岡県",
    "prefecture_kana": "フクオカケン",
    "prefecture_code": "40",
    "city": "北九州市若松区",
    "city_kana": "キタキュウシュウシワカマツク",
    "town": "小敷",
    "town_kana": "コシキ",
    "street": null,
    "office_name": null,
    "office_name_kana": null
  },
  "0133": {
    "zip_code": "8080133",
    "prefecture": "福岡県",
    "prefecture_kana": "フクオカケン",
    "prefecture_code": "40",
    "city": "北九州市若松区",
    "city_kana": "キタキュウシュウシワカマツク",
    "town": "大鳥居",
    "town_kana": "オオトリイ",
    "street": null,
    "office_name": null,
    "office_name_kana": null
  },
  "0134": {
    "zip_code": "8080134",
    "prefecture": "福岡県",
    "prefecture_kana": "フクオカケン",
    "prefecture_code": "40",
    "city": "北九州市若松区",
    "city_kana": "キタキュウシュウシワカマツク",
    "town": "乙丸",
    "town_kana": "オトマル",
    "street": null,
    "office_name": null,
    "office_name_kana": null
  },
  "0135": {
    "zip_code": "8080135",
    "prefecture": "福岡県",
    "prefecture_kana": "フクオカケン",
    "prefecture_code": "40",
    "city": "北九州市若松区",
    "city_kana": "キタキュウシュウシワカマツク",
    "town": "ひびきの",
    "town_kana": "ヒビキノ",
    "street": null,
    "office_name": null,
    "office_name_kana": null
  },
  "0136": {
    "zip_code": "8080136",
    "prefecture": "福岡県",
    "prefecture_kana": "フクオカケン",
    "prefecture_code": "40",
    "city": "北九州市若松区",
    "city_kana": "キタキュウシュウシワカマツク",
    "town": "花野路",
    "town_kana": "ハナノジ",
    "street": null,
    "office_name": null,
    "office_name_kana": null
  },
  "0137": {
    "zip_code": "8080137",
    "prefecture": "福岡県",
    "prefecture_kana": "フクオカケン",
    "prefecture_code": "40",
    "city": "北九州市若松区",
    "city_kana": "キタキュウシュウシワカマツク",
    "town": "ひびきの南",
    "town_kana": "ヒビキノミナミ",
    "street": null,
    "office_name": null,
    "office_name_kana": null
  },
  "0138": {
    "zip_code": "8080138",
    "prefecture": "福岡県",
    "prefecture_kana": "フクオカケン",
    "prefecture_code": "40",
    "city": "北九州市若松区",
    "city_kana": "キタキュウシュウシワカマツク",
    "town": "ひびきの北",
    "town_kana": "ヒビキノキタ",
    "street": null,
    "office_name": null,
    "office_name_kana": null
  },
  "0139": {
    "zip_code": "8080139",
    "prefecture": "福岡県",
    "prefecture_kana": "フクオカケン",
    "prefecture_code": "40",
    "city": "北九州市若松区",
    "city_kana": "キタキュウシュウシワカマツク",
    "town": "小敷ひびきの",
    "town_kana": "コシキヒビキノ",
    "street": null,
    "office_name": null,
    "office_name_kana": null
  },
  "0141": {
    "zip_code": "8080141",
    "prefecture": "福岡県",
    "prefecture_kana": "フクオカケン",
    "prefecture_code": "40",
    "city": "北九州市若松区",
    "city_kana": "キタキュウシュウシワカマツク",
    "town": "青葉台東",
    "town_kana": "アオバダイヒガシ",
    "street": null,
    "office_name": null,
    "office_name_kana": null
  },
  "0142": {
    "zip_code": "8080142",
    "prefecture": "福岡県",
    "prefecture_kana": "フクオカケン",
    "prefecture_code": "40",
    "city": "北九州市若松区",
    "city_kana": "キタキュウシュウシワカマツク",
    "town": "青葉台南",
    "town_kana": "アオバダイミナミ",
    "street": null,
    "office_name": null,
    "office_name_kana": null
  },
  "0143": {
    "zip_code": "8080143",
    "prefecture": "福岡県",
    "prefecture_kana": "フクオカケン",
    "prefecture_code": "40",
    "city": "北九州市若松区",
    "city_kana": "キタキュウシュウシワカマツク",
    "town": "青葉台西",
    "town_kana": "アオバダイニシ",
    "street": null,
    "office_name": null,
    "office_name_kana": null
  },
  "0144": {
    "zip_code": "8080144",
    "prefecture": "福岡県",
    "prefecture_kana": "フクオカケン",
    "prefecture_code": "40",
    "city": "北九州市若松区",
    "city_kana": "キタキュウシュウシワカマツク",
    "town": "高須東",
    "town_kana": "タカスヒガシ",
    "street": null,
    "office_name": null,
    "office_name_kana": null
  },
  "0145": {
    "zip_code": "8080145",
    "prefecture": "福岡県",
    "prefecture_kana": "フクオカケン",
    "prefecture_code": "40",
    "city": "北九州市若松区",
    "city_kana": "キタキュウシュウシワカマツク",
    "town": "高須南",
    "town_kana": "タカスミナミ",
    "street": null,
    "office_name": null,
    "office_name_kana": null
  },
  "0146": {
    "zip_code": "8080146",
    "prefecture": "福岡県",
    "prefecture_kana": "フクオカケン",
    "prefecture_code": "40",
    "city": "北九州市若松区",
    "city_kana": "キタキュウシュウシワカマツク",
    "town": "高須西",
    "town_kana": "タカスニシ",
    "street": null,
    "office_name": null,
    "office_name_kana": null
  },
  "0147": {
    "zip_code": "8080147",
    "prefecture": "福岡県",
    "prefecture_kana": "フクオカケン",
    "prefecture_code": "40",
    "city": "北九州市若松区",
    "city_kana": "キタキュウシュウシワカマツク",
    "town": "高須北",
    "town_kana": "タカスキタ",
    "street": null,
    "office_name": null,
    "office_name_kana": null
  },
  "0148": {
    "zip_code": "8080148",
    "prefecture": "福岡県",
    "prefecture_kana": "フクオカケン",
    "prefecture_code": "40",
    "city": "北九州市若松区",
    "city_kana": "キタキュウシュウシワカマツク",
    "town": "高須",
    "town_kana": "タカス",
    "street": null,
    "office_name": null,
    "office_name_kana": null
  },
  "0175": {
    "zip_code": "8080175",
    "prefecture": "福岡県",
    "prefecture_kana": "フクオカケン",
    "prefecture_code": "40",
    "city": "北九州市若松区",
    "city_kana": "キタキュウシュウシワカマツク",
    "town": "赤岩町",
    "town_kana": "アカイワマチ",
    "street": null,
    "office_name": null,
    "office_name_kana": null
  },
  "0196": {
    "zip_code": "8080196",
    "prefecture": "福岡県",
    "prefecture_kana": "フクオカケン",
    "prefecture_code": "40",
    "city": "北九州市若松区",
    "city_kana": "キタキュウシュウシワカマツク",
    "town": "ひびきの",
    "town_kana": "ヒビキノ",
    "street": "１−１",
    "office_name": "九州工業大学大学院　生命体工学研究科",
    "office_name_kana": "キユウシユウコウギヨウダイガクダイガクイン セイメイタイコウガクケンキユウカ"
  },
  "8502": {
    "zip_code": "8088502",
    "prefecture": "福岡県",
    "prefecture_kana": "フクオカケン",
    "prefecture_code": "40",
    "city": "北九州市若松区",
    "city_kana": "キタキュウシュウシワカマツク",
    "town": "本町",
    "town_kana": "ホンマチ",
    "street": "１丁目５−１１",
    "office_name": "鶴丸海運　株式会社",
    "office_name_kana": "ツルマルカイウン カブシキガイシヤ"
  },
  "8505": {
    "zip_code": "8088505",
    "prefecture": "福岡県",
    "prefecture_kana": "フクオカケン",
    "prefecture_code": "40",
    "city": "北九州市若松区",
    "city_kana": "キタキュウシュウシワカマツク",
    "town": "浜町",
    "town_kana": "ハママチ",
    "street": "１丁目１９−１１",
    "office_name": "東紅食品　株式会社",
    "office_name_kana": "トウコウシヨクヒン カブシキガイシヤ"
  },
  "8510": {
    "zip_code": "8088510",
    "prefecture": "福岡県",
    "prefecture_kana": "フクオカケン",
    "prefecture_code": "40",
    "city": "北九州市若松区",
    "city_kana": "キタキュウシュウシワカマツク",
    "town": "浜町",
    "town_kana": "ハママチ",
    "street": "１丁目１−１",
    "office_name": "北九州市　若松区役所",
    "office_name_kana": "キタキユウシユウシ ワカマツクヤクシヨ"
  },
  "8514": {
    "zip_code": "8088514",
    "prefecture": "福岡県",
    "prefecture_kana": "フクオカケン",
    "prefecture_code": "40",
    "city": "北九州市若松区",
    "city_kana": "キタキュウシュウシワカマツク",
    "town": "北浜",
    "town_kana": "キタハマ",
    "street": "１丁目７−２",
    "office_name": "清和鋼業　株式会社　九州支店",
    "office_name_kana": "セイワコウギヨウ カブシキガイシヤ キユウシユウシテン"
  },
  "8515": {
    "zip_code": "8088515",
    "prefecture": "福岡県",
    "prefecture_kana": "フクオカケン",
    "prefecture_code": "40",
    "city": "北九州市若松区",
    "city_kana": "キタキュウシュウシワカマツク",
    "town": "浜町",
    "town_kana": "ハママチ",
    "street": "１丁目１９−１１",
    "office_name": "株式会社　やきとりカンパニー",
    "office_name_kana": "カブシキガイシヤ ヤキトリカンパニ-"
  },
  "8550": {
    "zip_code": "8088550",
    "prefecture": "福岡県",
    "prefecture_kana": null,
    "prefecture_code": null,
    "city": "北九州市若松区",
    "city_kana": null,
    "town": "大字安瀬",
    "town_kana": null,
    "street": "６４−３６",
    "office_name": "不二貿易　株式会社",
    "office_name_kana": "フジボウエキ カブシキガイシヤ"
  },
  "8555": {
    "zip_code": "8088555",
    "prefecture": "福岡県",
    "prefecture_kana": "フクオカケン",
    "prefecture_code": "40",
    "city": "北九州市若松区",
    "city_kana": "キタキュウシュウシワカマツク",
    "town": "本町",
    "town_kana": "ホンマチ",
    "street": "２丁目３−１９",
    "office_name": "協同組合　若松商連",
    "office_name_kana": "キヨウドウクミアイ ワカマツシヨウレン"
  },
  "8558": {
    "zip_code": "8088558",
    "prefecture": "福岡県",
    "prefecture_kana": "フクオカケン",
    "prefecture_code": "40",
    "city": "北九州市若松区",
    "city_kana": "キタキュウシュウシワカマツク",
    "town": "北浜",
    "town_kana": "キタハマ",
    "street": "１丁目９−１",
    "office_name": "日立金属　株式会社　若松工場",
    "office_name_kana": "ヒタチキンゾク カブシキガイシヤ ワカマツコウジヨウ"
  },
  "8585": {
    "zip_code": "8088585",
    "prefecture": "福岡県",
    "prefecture_kana": "フクオカケン",
    "prefecture_code": "40",
    "city": "北九州市若松区",
    "city_kana": "キタキュウシュウシワカマツク",
    "town": "本町",
    "town_kana": "ホンマチ",
    "street": "１丁目１３−１５",
    "office_name": "社団法人　若松法人会",
    "office_name_kana": "シヤダンホウジン ワカマツホウジンカイ"
  },
  "8588": {
    "zip_code": "8088588",
    "prefecture": "福岡県",
    "prefecture_kana": null,
    "prefecture_code": null,
    "city": "北九州市若松区",
    "city_kana": null,
    "town": "大字安瀬",
    "town_kana": null,
    "street": "８−４",
    "office_name": "信和鋼板",
    "office_name_kana": "シンワコウバン"
  },
  "8606": {
    "zip_code": "8088606",
    "prefecture": "福岡県",
    "prefecture_kana": "フクオカケン",
    "prefecture_code": "40",
    "city": "北九州市若松区",
    "city_kana": "キタキュウシュウシワカマツク",
    "town": "本町",
    "town_kana": "ホンマチ",
    "street": "１−１４−１２（若松郵便局私書箱第３４号）",
    "office_name": "若松税務署",
    "office_name_kana": "ワカマツゼイムシヨ"
  }
}