{
  "0000": {
    "zip_code": "8090000",
    "prefecture": "福岡県",
    "prefecture_kana": "フクオカケン",
    "prefecture_code": "40",
    "city": "中間市",
    "city_kana": "ナカマシ",
    "town": "",
    "town_kana": "",
    "street": null,
    "office_name": null,
    "office_name_kana": null
  },
  "0001": {
    "zip_code": "8090001",
    "prefecture": "福岡県",
    "prefecture_kana": "フクオカケン",
    "prefecture_code": "40",
    "city": "中間市",
    "city_kana": "ナカマシ",
    "town": "垣生",
    "town_kana": "ハブ",
    "street": null,
    "office_name": null,
    "office_name_kana": null
  },
  "0002": {
    "zip_code": "8090002",
    "prefecture": "福岡県",
    "prefecture_kana": "フクオカケン",
    "prefecture_code": "40",
    "city": "中間市",
    "city_kana": "ナカマシ",
    "town": "中底井野",
    "town_kana": "ナカソコイノ",
    "street": null,
    "office_name": null,
    "office_name_kana": null
  },
  "0003": {
    "zip_code": "8090003",
    "prefecture": "福岡県",
    "prefecture_kana": "フクオカケン",
    "prefecture_code": "40",
    "city": "中間市",
    "city_kana": "ナカマシ",
    "town": "上底井野",
    "town_kana": "カミソコイノ",
    "street": null,
    "office_name": null,
    "office_name_kana": null
  },
  "0004": {
    "zip_code": "8090004",
    "prefecture": "福岡県",
    "prefecture_kana": "フクオカケン",
    "prefecture_code": "40",
    "city": "中間市",
    "city_kana": "ナカマシ",
    "town": "下大隈",
    "town_kana": "シモオオクマ",
    "street": null,
    "office_name": null,
    "office_name_kana": null
  },
  "0011": {
    "zip_code": "8090011",
    "prefecture": "福岡県",
    "prefecture_kana": "フクオカケン",
    "prefecture_code": "40",
    "city": "中間市",
    "city_kana": "ナカマシ",
    "town": "岩瀬",
    "town_kana": "イワセ",
    "street": null,
    "office_name": null,
    "office_name_kana": null
  },
  "0012": {
    "zip_code": "8090012",
    "prefecture": "福岡県",
    "prefecture_kana": "フクオカケン",
    "prefecture_code": "40",
    "city": "中間市",
    "city_kana": "ナカマシ",
    "town": "下蓮花寺",
    "town_kana": "シモレンゲジ",
    "street": null,
    "office_name": null,
    "office_name_kana": null
  },
  "0013": {
    "zip_code": "8090013",
    "prefecture": "福岡県",
    "prefecture_kana": "フクオカケン",
    "prefecture_code": "40",
    "city": "中間市",
    "city_kana": "ナカマシ",
    "town": "上蓮花寺",
    "town_kana": "カミレンゲジ",
    "street": null,
    "office_name": null,
    "office_name_kana": null
  },
  "0014": {
    "zip_code": "8090014",
    "prefecture": "福岡県",
    "prefecture_kana": "フクオカケン",
    "prefecture_code": "40",
    "city": "中間市",
    "city_kana": "ナカマシ",
    "town": "蓮花寺",
    "town_kana": "レンゲジ",
    "street": null,
    "office_name": null,
    "office_name_kana": null
  },
  "0015": {
    "zip_code": "8090015",
    "prefecture": "福岡県",
    "prefecture_kana": "フクオカケン",
    "prefecture_code": "40",
    "city": "中間市",
    "city_kana": "ナカマシ",
    "town": "太賀",
    "town_kana": "タガ",
    "street": null,
    "office_name": null,
    "office_name_kana": null
  },
  "0016": {
    "zip_code": "8090016",
    "prefecture": "福岡県",
    "prefecture_kana": "フクオカケン",
    "prefecture_code": "40",
    "city": "中間市",
    "city_kana": "ナカマシ",
    "town": "星ケ丘",
    "town_kana": "ホシガオカ",
    "street": null,
    "office_name": null,
    "office_name_kana": null
  },
  "0017": {
    "zip_code": "8090017",
    "prefecture": "福岡県",
    "prefecture_kana": "フクオカケン",
    "prefecture_code": "40",
    "city": "中間市",
    "city_kana": "ナカマシ",
    "town": "桜台",
    "town_kana": "サクラダイ",
    "street": null,
    "office_name": null,
    "office_name_kana": null
  },
  "0018": {
    "zip_code": "8090018",
    "prefecture": "福岡県",
    "prefecture_kana": "フクオカケン",
    "prefecture_code": "40",
    "city": "中間市",
    "city_kana": "ナカマシ",
    "town": "通谷",
    "town_kana": "トオリタニ",
    "street": null,
    "office_name": null,
    "office_name_kana": null
  },
  "0019": {
    "zip_code": "8090019",
    "prefecture": "福岡県",
    "prefecture_kana": "フクオカケン",
    "prefecture_code": "40",
    "city": "中間市",
    "city_kana": "ナカマシ",
    "town": "東中間",
    "town_kana": "ヒガシナカマ",
    "street": null,
    "office_name": null,
    "office_name_kana": null
  },
  "0021": {
    "zip_code": "8090021",
    "prefecture": "福岡県",
    "prefecture_kana": "フクオカケン",
    "prefecture_code": "40",
    "city": "中間市",
    "city_kana": "ナカマシ",
    "town": "朝霧",
    "town_kana": "アサギリ",
    "street": null,
    "office_name": null,
    "office_name_kana": null
  },
  "0022": {
    "zip_code": "8090022",
    "prefecture": "福岡県",
    "prefecture_kana": "フクオカケン",
    "prefecture_code": "40",
    "city": "中間市",
    "city_kana": "ナカマシ",
    "town": "鍋山町",
    "town_kana": "ナベヤママチ",
    "street": null,
    "office_name": null,
    "office_name_kana": null
  },
  "0023": {
    "zip_code": "8090023",
    "prefecture": "福岡県",
    "prefecture_kana": "フクオカケン",
    "prefecture_code": "40",
    "city": "中間市",
    "city_kana": "ナカマシ",
    "town": "扇ケ浦",
    "town_kana": "オウギガウラ",
    "street": null,
    "office_name": null,
    "office_name_kana": null
  },
  "0024": {
    "zip_code": "8090024",
    "prefecture": "福岡県",
    "prefecture_kana": "フクオカケン",
    "prefecture_code": "40",
    "city": "中間市",
    "city_kana": "ナカマシ",
    "town": "池田",
    "town_kana": "イケダ",
    "street": null,
    "office_name": null,
    "office_name_kana": null
  },
  "0025": {
    "zip_code": "8090025",
    "prefecture": "福岡県",
    "prefecture_kana": "フクオカケン",
    "prefecture_code": "40",
    "city": "中間市",
    "city_kana": "ナカマシ",
    "town": "深坂",
    "town_kana": "フカサカ",
    "street": null,
    "office_name": null,
    "office_name_kana": null
  },
  "0026": {
    "zip_code": "8090026",
    "prefecture": "福岡県",
    "prefecture_kana": "フクオカケン",
    "prefecture_code": "40",
    "city": "中間市",
    "city_kana": "ナカマシ",
    "town": "大辻町",
    "town_kana": "オオツジマチ",
    "street": null,
    "office_name": null,
    "office_name_kana": null
  },
  "0027": {
    "zip_code": "8090027",
    "prefecture": "福岡県",
    "prefecture_kana": "フクオカケン",
    "prefecture_code": "40",
    "city": "中間市",
    "city_kana": "ナカマシ",
    "town": "七重町",
    "town_kana": "ナナエマチ",
    "street": null,
    "office_name": null,
    "office_name_kana": null
  },
  "0028": {
    "zip_code": "8090028",
    "prefecture": "福岡県",
    "prefecture_kana": "フクオカケン",
    "prefecture_code": "40",
    "city": "中間市",
    "city_kana": "ナカマシ",
    "town": "弥生",
    "town_kana": "ヤヨイ",
    "street": null,
    "office_name": null,
    "office_name_kana": null
  },
  "0030": {
    "zip_code": "8090030",
    "prefecture": "福岡県",
    "prefecture_kana": "フクオカケン",
    "prefecture_code": "40",
    "city": "中間市",
    "city_kana": "ナカマシ",
    "town": "中央",
    "town_kana": "チュウオウ",
    "street": null,
    "office_name": null,
    "office_name_kana": null
  },
  "0031": {
    "zip_code": "8090031",
    "prefecture": "福岡県",
    "prefecture_kana": "フクオカケン",
    "prefecture_code": "40",
    "city": "中間市",
    "city_kana": "ナカマシ",
    "town": "小田ケ浦",
    "town_kana": "オダガウラ",
    "street": null,
    "office_name": null,
    "office_name_kana": null
  },
  "0032": {
    "zip_code": "8090032",
    "prefecture": "福岡県",
    "prefecture_kana": "フクオカケン",
    "prefecture_code": "40",
    "city": "中間市",
    "city_kana": "ナカマシ",
    "town": "中尾",
    "town_kana": "ナカオ",
    "street": null,
    "office_name": null,
    "office_name_kana": null
  },
  "0033": {
    "zip_code": "8090033",
    "prefecture": "福岡県",
    "prefecture_kana": "フクオカケン",
    "prefecture_code": "40",
    "city": "中間市",
    "city_kana": "ナカマシ",
    "town": "土手ノ内",
    "town_kana": "ドテノウチ",
    "street": null,
    "office_name": null,
    "office_name_kana": null
  },
  "0034": {
    "zip_code": "8090034",
    "prefecture": "福岡県",
    "prefecture_kana": "フクオカケン",
    "prefecture_code": "40",
    "city": "中間市",
    "city_kana": "ナカマシ",
    "town": "中間",
    "town_kana": "ナカマ",
    "street": null,
    "office_name": null,
    "office_name_kana": null
  },
  "0035": {
    "zip_code": "8090035",
    "prefecture": "福岡県",
    "prefecture_kana": "フクオカケン",
    "prefecture_code": "40",
    "city": "中間市",
    "city_kana": "ナカマシ",
    "town": "松ケ岡",
    "town_kana": "マツガオカ",
    "street": null,
    "office_name": null,
    "office_name_kana": null
  },
  "0036": {
    "zip_code": "8090036",
    "prefecture": "福岡県",
    "prefecture_kana": "フクオカケン",
    "prefecture_code": "40",
    "city": "中間市",
    "city_kana": "ナカマシ",
    "town": "長津",
    "town_kana": "ナガツ",
    "street": null,
    "office_name": null,
    "office_name_kana": null
  },
  "0037": {
    "zip_code": "8090037",
    "prefecture": "福岡県",
    "prefecture_kana": "フクオカケン",
    "prefecture_code": "40",
    "city": "中間市",
    "city_kana": "ナカマシ",
    "town": "中鶴",
    "town_kana": "ナカヅル",
    "street": null,
    "office_name": null,
    "office_name_kana": null
  },
  "0038": {
    "zip_code": "8090038",
    "prefecture": "福岡県",
    "prefecture_kana": "フクオカケン",
    "prefecture_code": "40",
    "city": "中間市",
    "city_kana": "ナカマシ",
    "town": "浄花町",
    "town_kana": "ジョウカマチ",
    "street": null,
    "office_name": null,
    "office_name_kana": null
  },
  "0039": {
    "zip_code": "8090039",
    "prefecture": "福岡県",
    "prefecture_kana": "フクオカケン",
    "prefecture_code": "40",
    "city": "中間市",
    "city_kana": "ナカマシ",
    "town": "大根土",
    "town_kana": "オオネト",
    "street": null,
    "office_name": null,
    "office_name_kana": null
  },
  "0041": {
    "zip_code": "8090041",
    "prefecture": "福岡県",
    "prefecture_kana": "フクオカケン",
    "prefecture_code": "40",
    "city": "中間市",
    "city_kana": "ナカマシ",
    "town": "岩瀬西町",
    "town_kana": "イワセニシマチ",
    "street": null,
    "office_name": null,
    "office_name_kana": null
  },
  "8501": {
    "zip_code": "8098501",
    "prefecture": "福岡県",
    "prefecture_kana": "フクオカケン",
    "prefecture_code": "40",
    "city": "中間市",
    "city_kana": "ナカマシ",
    "town": "中間",
    "town_kana": "ナカマ",
    "street": "１丁目１−１",
    "office_name": "中間市役所",
    "office_name_kana": "ナカマシヤクシヨ"
  }
}