{
  "0100": {
    "zip_code": "8110100",
    "prefecture": "福岡県",
    "prefecture_kana": "フクオカケン",
    "prefecture_code": 40,
    "city": "糟屋郡新宮町",
    "city_kana": "カスヤグンシングウマチ",
    "town": "",
    "town_kana": "",
    "street": null,
    "office_name": null,
    "office_name_kana": null
  },
  "0101": {
    "zip_code": "8110101",
    "prefecture": "福岡県",
    "prefecture_kana": "フクオカケン",
    "prefecture_code": 40,
    "city": "糟屋郡新宮町",
    "city_kana": "カスヤグンシングウマチ",
    "town": "原上",
    "town_kana": "ハルガミ",
    "street": null,
    "office_name": null,
    "office_name_kana": null
  },
  "0102": {
    "zip_code": "8110102",
    "prefecture": "福岡県",
    "prefecture_kana": "フクオカケン",
    "prefecture_code": 40,
    "city": "糟屋郡新宮町",
    "city_kana": "カスヤグンシングウマチ",
    "town": "立花口",
    "town_kana": "タチバナグチ",
    "street": null,
    "office_name": null,
    "office_name_kana": null
  },
  "0103": {
    "zip_code": "8110103",
    "prefecture": "福岡県",
    "prefecture_kana": "フクオカケン",
    "prefecture_code": 40,
    "city": "糟屋郡新宮町",
    "city_kana": "カスヤグンシングウマチ",
    "town": "花立花",
    "town_kana": "ハナタチバナ",
    "street": null,
    "office_name": null,
    "office_name_kana": null
  },
  "0104": {
    "zip_code": "8110104",
    "prefecture": "福岡県",
    "prefecture_kana": "フクオカケン",
    "prefecture_code": 40,
    "city": "糟屋郡新宮町",
    "city_kana": "カスヤグンシングウマチ",
    "town": "的野",
    "town_kana": "マトノ",
    "street": null,
    "office_name": null,
    "office_name_kana": null
  },
  "0110": {
    "zip_code": "8110110",
    "prefecture": "福岡県",
    "prefecture_kana": "フクオカケン",
    "prefecture_code": 40,
    "city": "糟屋郡新宮町",
    "city_kana": "カスヤグンシングウマチ",
    "town": "夜臼",
    "town_kana": "ユウス",
    "street": null,
    "office_name": null,
    "office_name_kana": null
  },
  "0111": {
    "zip_code": "8110111",
    "prefecture": "福岡県",
    "prefecture_kana": "フクオカケン",
    "prefecture_code": 40,
    "city": "糟屋郡新宮町",
    "city_kana": "カスヤグンシングウマチ",
    "town": "三代",
    "town_kana": "ミシロ",
    "street": null,
    "office_name": null,
    "office_name_kana": null
  },
  "0112": {
    "zip_code": "8110112",
    "prefecture": "福岡県",
    "prefecture_kana": "フクオカケン",
    "prefecture_code": 40,
    "city": "糟屋郡新宮町",
    "city_kana": "カスヤグンシングウマチ",
    "town": "下府",
    "town_kana": "シモノフ",
    "street": null,
    "office_name": null,
    "office_name_kana": null
  },
  "0113": {
    "zip_code": "8110113",
    "prefecture": "福岡県",
    "prefecture_kana": "フクオカケン",
    "prefecture_code": 40,
    "city": "糟屋郡新宮町",
    "city_kana": "カスヤグンシングウマチ",
    "town": "桜山手",
    "town_kana": "サクラヤマテ",
    "street": null,
    "office_name": null,
    "office_name_kana": null
  },
  "0114": {
    "zip_code": "8110114",
    "prefecture": "福岡県",
    "prefecture_kana": "フクオカケン",
    "prefecture_code": 40,
    "city": "糟屋郡新宮町",
    "city_kana": "カスヤグンシングウマチ",
    "town": "湊坂",
    "town_kana": "ミナトザカ",
    "street": null,
    "office_name": null,
    "office_name_kana": null
  },
  "0115": {
    "zip_code": "8110115",
    "prefecture": "福岡県",
    "prefecture_kana": "フクオカケン",
    "prefecture_code": 40,
    "city": "糟屋郡新宮町",
    "city_kana": "カスヤグンシングウマチ",
    "town": "新宮",
    "town_kana": "シングウ",
    "street": null,
    "office_name": null,
    "office_name_kana": null
  },
  "0116": {
    "zip_code": "8110116",
    "prefecture": "福岡県",
    "prefecture_kana": "フクオカケン",
    "prefecture_code": 40,
    "city": "糟屋郡新宮町",
    "city_kana": "カスヤグンシングウマチ",
    "town": "湊",
    "town_kana": "ミナト",
    "street": null,
    "office_name": null,
    "office_name_kana": null
  },
  "0117": {
    "zip_code": "8110117",
    "prefecture": "福岡県",
    "prefecture_kana": "フクオカケン",
    "prefecture_code": 40,
    "city": "糟屋郡新宮町",
    "city_kana": "カスヤグンシングウマチ",
    "town": "上府",
    "town_kana": "カミノフ",
    "street": null,
    "office_name": null,
    "office_name_kana": null
  },
  "0118": {
    "zip_code": "8110118",
    "prefecture": "福岡県",
    "prefecture_kana": "フクオカケン",
    "prefecture_code": 40,
    "city": "糟屋郡新宮町",
    "city_kana": "カスヤグンシングウマチ",
    "town": "相島",
    "town_kana": "アイノシマ",
    "street": null,
    "office_name": null,
    "office_name_kana": null
  },
  "0119": {
    "zip_code": "8110119",
    "prefecture": "福岡県",
    "prefecture_kana": "フクオカケン",
    "prefecture_code": 40,
    "city": "糟屋郡新宮町",
    "city_kana": "カスヤグンシングウマチ",
    "town": "緑ケ浜",
    "town_kana": "ミドリガハマ",
    "street": null,
    "office_name": null,
    "office_name_kana": null
  },
  "0120": {
    "zip_code": "8110120",
    "prefecture": "福岡県",
    "prefecture_kana": "フクオカケン",
    "prefecture_code": 40,
    "city": "糟屋郡新宮町",
    "city_kana": "カスヤグンシングウマチ",
    "town": "中央駅前",
    "town_kana": "チュウオウエキマエ",
    "street": null,
    "office_name": null,
    "office_name_kana": null
  },
  "0121": {
    "zip_code": "8110121",
    "prefecture": "福岡県",
    "prefecture_kana": "フクオカケン",
    "prefecture_code": 40,
    "city": "糟屋郡新宮町",
    "city_kana": "カスヤグンシングウマチ",
    "town": "美咲",
    "town_kana": "ミサキ",
    "street": null,
    "office_name": null,
    "office_name_kana": null
  },
  "0122": {
    "zip_code": "8110122",
    "prefecture": "福岡県",
    "prefecture_kana": "フクオカケン",
    "prefecture_code": 40,
    "city": "糟屋郡新宮町",
    "city_kana": "カスヤグンシングウマチ",
    "town": "杜の宮",
    "town_kana": "モリノミヤ",
    "street": null,
    "office_name": null,
    "office_name_kana": null
  },
  "0123": {
    "zip_code": "8110123",
    "prefecture": "福岡県",
    "prefecture_kana": "フクオカケン",
    "prefecture_code": 40,
    "city": "糟屋郡新宮町",
    "city_kana": "カスヤグンシングウマチ",
    "town": "上府北",
    "town_kana": "カミノフキタ",
    "street": null,
    "office_name": null,
    "office_name_kana": null
  },
  "0192": {
    "zip_code": "8110192",
    "prefecture": "福岡県",
    "prefecture_kana": "フクオカケン",
    "prefecture_code": 40,
    "city": "糟屋郡新宮町",
    "city_kana": "カスヤグンシングウマチ",
    "town": "緑ケ浜",
    "town_kana": "ミドリガハマ",
    "street": "１丁目１番１号",
    "office_name": "新宮町役場",
    "office_name_kana": "シングウマチヤクバ"
  },
  "0193": {
    "zip_code": "8110193",
    "prefecture": "福岡県",
    "prefecture_kana": "フクオカケン",
    "prefecture_code": 40,
    "city": "糟屋郡新宮町",
    "city_kana": "カスヤグンシングウマチ",
    "town": "緑ケ浜",
    "town_kana": "ミドリガハマ",
    "street": "３丁目１番１号",
    "office_name": "株式会社　フランソア",
    "office_name_kana": "カブシキガイシヤ フランソア"
  },
  "0195": {
    "zip_code": "8110195",
    "prefecture": "福岡県",
    "prefecture_kana": null,
    "prefecture_code": null,
    "city": "糟屋郡新宮町",
    "city_kana": null,
    "town": "大字上府",
    "town_kana": null,
    "street": "８４７−１",
    "office_name": "プリマハム　株式会社　九州支店",
    "office_name_kana": "プリマハム カブシキガイシヤ キユウシユウシテン"
  },
  "0196": {
    "zip_code": "8110196",
    "prefecture": "福岡県",
    "prefecture_kana": null,
    "prefecture_code": null,
    "city": "糟屋郡新宮町",
    "city_kana": null,
    "town": "大字的野",
    "town_kana": null,
    "street": "７４１−１",
    "office_name": "株式会社　筑豊製作所",
    "office_name_kana": "カブシキガイシヤ チクホ-セイサクシヨ"
  },
  "0201": {
    "zip_code": "8110201",
    "prefecture": "福岡県",
    "prefecture_kana": "フクオカケン",
    "prefecture_code": 40,
    "city": "福岡市東区",
    "city_kana": "フクオカシヒガシク",
    "town": "三苫",
    "town_kana": "ミトマ",
    "street": null,
    "office_name": null,
    "office_name_kana": null
  },
  "0202": {
    "zip_code": "8110202",
    "prefecture": "福岡県",
    "prefecture_kana": "フクオカケン",
    "prefecture_code": 40,
    "city": "福岡市東区",
    "city_kana": "フクオカシヒガシク",
    "town": "和白",
    "town_kana": "ワジロ",
    "street": null,
    "office_name": null,
    "office_name_kana": null
  },
  "0203": {
    "zip_code": "8110203",
    "prefecture": "福岡県",
    "prefecture_kana": "フクオカケン",
    "prefecture_code": 40,
    "city": "福岡市東区",
    "city_kana": "フクオカシヒガシク",
    "town": "塩浜",
    "town_kana": "シオハマ",
    "street": null,
    "office_name": null,
    "office_name_kana": null
  },
  "0204": {
    "zip_code": "8110204",
    "prefecture": "福岡県",
    "prefecture_kana": "フクオカケン",
    "prefecture_code": 40,
    "city": "福岡市東区",
    "city_kana": "フクオカシヒガシク",
    "town": "奈多",
    "town_kana": "ナタ",
    "street": null,
    "office_name": null,
    "office_name_kana": null
  },
  "0205": {
    "zip_code": "8110205",
    "prefecture": "福岡県",
    "prefecture_kana": "フクオカケン",
    "prefecture_code": 40,
    "city": "福岡市東区",
    "city_kana": "フクオカシヒガシク",
    "town": "奈多団地",
    "town_kana": "ナタダンチ",
    "street": null,
    "office_name": null,
    "office_name_kana": null
  },
  "0206": {
    "zip_code": "8110206",
    "prefecture": "福岡県",
    "prefecture_kana": "フクオカケン",
    "prefecture_code": 40,
    "city": "福岡市東区",
    "city_kana": "フクオカシヒガシク",
    "town": "雁の巣",
    "town_kana": "ガンノス",
    "street": null,
    "office_name": null,
    "office_name_kana": null
  },
  "0211": {
    "zip_code": "8110211",
    "prefecture": "福岡県",
    "prefecture_kana": "フクオカケン",
    "prefecture_code": 40,
    "city": "福岡市東区",
    "city_kana": "フクオカシヒガシク",
    "town": "美和台新町",
    "town_kana": "ミワダイシンマチ",
    "street": null,
    "office_name": null,
    "office_name_kana": null
  },
  "0212": {
    "zip_code": "8110212",
    "prefecture": "福岡県",
    "prefecture_kana": "フクオカケン",
    "prefecture_code": 40,
    "city": "福岡市東区",
    "city_kana": "フクオカシヒガシク",
    "town": "美和台",
    "town_kana": "ミワダイ",
    "street": null,
    "office_name": null,
    "office_name_kana": null
  },
  "0213": {
    "zip_code": "8110213",
    "prefecture": "福岡県",
    "prefecture_kana": "フクオカケン",
    "prefecture_code": 40,
    "city": "福岡市東区",
    "city_kana": "フクオカシヒガシク",
    "town": "和白丘",
    "town_kana": "ワジロガオカ",
    "street": null,
    "office_name": null,
    "office_name_kana": null
  },
  "0214": {
    "zip_code": "8110214",
    "prefecture": "福岡県",
    "prefecture_kana": "フクオカケン",
    "prefecture_code": 40,
    "city": "福岡市東区",
    "city_kana": "フクオカシヒガシク",
    "town": "和白東",
    "town_kana": "ワジロヒガシ",
    "street": null,
    "office_name": null,
    "office_name_kana": null
  },
  "0215": {
    "zip_code": "8110215",
    "prefecture": "福岡県",
    "prefecture_kana": "フクオカケン",
    "prefecture_code": 40,
    "city": "福岡市東区",
    "city_kana": "フクオカシヒガシク",
    "town": "高美台",
    "town_kana": "タカミダイ",
    "street": null,
    "office_name": null,
    "office_name_kana": null
  },
  "0216": {
    "zip_code": "8110216",
    "prefecture": "福岡県",
    "prefecture_kana": "フクオカケン",
    "prefecture_code": 40,
    "city": "福岡市東区",
    "city_kana": "フクオカシヒガシク",
    "town": "上和白",
    "town_kana": "カミワジロ",
    "street": null,
    "office_name": null,
    "office_name_kana": null
  },
  "0295": {
    "zip_code": "8110295",
    "prefecture": "福岡県",
    "prefecture_kana": "フクオカケン",
    "prefecture_code": 40,
    "city": "福岡市東区",
    "city_kana": "フクオカシヒガシク",
    "town": "和白東",
    "town_kana": "ワジロヒガシ",
    "street": "３丁目３０−１",
    "office_name": "学校法人　福岡工業大学",
    "office_name_kana": "ガツコウホウジン フクオカコウギヨウダイガク"
  },
  "0321": {
    "zip_code": "8110321",
    "prefecture": "福岡県",
    "prefecture_kana": "フクオカケン",
    "prefecture_code": 40,
    "city": "福岡市東区",
    "city_kana": "フクオカシヒガシク",
    "town": "西戸崎",
    "town_kana": "サイトザキ",
    "street": null,
    "office_name": null,
    "office_name_kana": null
  },
  "0322": {
    "zip_code": "8110322",
    "prefecture": "福岡県",
    "prefecture_kana": "フクオカケン",
    "prefecture_code": 40,
    "city": "福岡市東区",
    "city_kana": "フクオカシヒガシク",
    "town": "大岳",
    "town_kana": "オオタケ",
    "street": null,
    "office_name": null,
    "office_name_kana": null
  },
  "0323": {
    "zip_code": "8110323",
    "prefecture": "福岡県",
    "prefecture_kana": "フクオカケン",
    "prefecture_code": 40,
    "city": "福岡市東区",
    "city_kana": "フクオカシヒガシク",
    "town": "志賀島",
    "town_kana": "シカシマ",
    "street": null,
    "office_name": null,
    "office_name_kana": null
  },
  "0324": {
    "zip_code": "8110324",
    "prefecture": "福岡県",
    "prefecture_kana": "フクオカケン",
    "prefecture_code": 40,
    "city": "福岡市東区",
    "city_kana": "フクオカシヒガシク",
    "town": "弘",
    "town_kana": "ヒロ",
    "street": null,
    "office_name": null,
    "office_name_kana": null
  },
  "0325": {
    "zip_code": "8110325",
    "prefecture": "福岡県",
    "prefecture_kana": "フクオカケン",
    "prefecture_code": 40,
    "city": "福岡市東区",
    "city_kana": "フクオカシヒガシク",
    "town": "勝馬",
    "town_kana": "カツマ",
    "street": null,
    "office_name": null,
    "office_name_kana": null
  },
  "1101": {
    "zip_code": "8111101",
    "prefecture": "福岡県",
    "prefecture_kana": "フクオカケン",
    "prefecture_code": 40,
    "city": "福岡市早良区",
    "city_kana": "フクオカシサワラク",
    "town": "重留",
    "town_kana": "シゲドメ",
    "street": null,
    "office_name": null,
    "office_name_kana": null
  },
  "1102": {
    "zip_code": "8111102",
    "prefecture": "福岡県",
    "prefecture_kana": "フクオカケン",
    "prefecture_code": 40,
    "city": "福岡市早良区",
    "city_kana": "フクオカシサワラク",
    "town": "東入部",
    "town_kana": "ヒガシイルベ",
    "street": null,
    "office_name": null,
    "office_name_kana": null
  },
  "1103": {
    "zip_code": "8111103",
    "prefecture": "福岡県",
    "prefecture_kana": "フクオカケン",
    "prefecture_code": 40,
    "city": "福岡市早良区",
    "city_kana": "フクオカシサワラク",
    "town": "四箇",
    "town_kana": "シカ",
    "street": null,
    "office_name": null,
    "office_name_kana": null
  },
  "1111": {
    "zip_code": "8111111",
    "prefecture": "福岡県",
    "prefecture_kana": "フクオカケン",
    "prefecture_code": 40,
    "city": "福岡市早良区",
    "city_kana": "フクオカシサワラク",
    "town": "脇山",
    "town_kana": "ワキヤマ",
    "street": null,
    "office_name": null,
    "office_name_kana": null
  },
  "1112": {
    "zip_code": "8111112",
    "prefecture": "福岡県",
    "prefecture_kana": "フクオカケン",
    "prefecture_code": 40,
    "city": "福岡市早良区",
    "city_kana": "フクオカシサワラク",
    "town": "小笠木",
    "town_kana": "オカサギ",
    "street": null,
    "office_name": null,
    "office_name_kana": null
  },
  "1113": {
    "zip_code": "8111113",
    "prefecture": "福岡県",
    "prefecture_kana": "フクオカケン",
    "prefecture_code": 40,
    "city": "福岡市早良区",
    "city_kana": "フクオカシサワラク",
    "town": "板屋",
    "town_kana": "イタヤ",
    "street": null,
    "office_name": null,
    "office_name_kana": null
  },
  "1114": {
    "zip_code": "8111114",
    "prefecture": "福岡県",
    "prefecture_kana": "フクオカケン",
    "prefecture_code": 40,
    "city": "福岡市早良区",
    "city_kana": "フクオカシサワラク",
    "town": "椎原",
    "town_kana": "シイバ",
    "street": null,
    "office_name": null,
    "office_name_kana": null
  },
  "1121": {
    "zip_code": "8111121",
    "prefecture": "福岡県",
    "prefecture_kana": "フクオカケン",
    "prefecture_code": 40,
    "city": "福岡市早良区",
    "city_kana": "フクオカシサワラク",
    "town": "西入部",
    "town_kana": "ニシイルベ",
    "street": null,
    "office_name": null,
    "office_name_kana": null
  },
  "1122": {
    "zip_code": "8111122",
    "prefecture": "福岡県",
    "prefecture_kana": "フクオカケン",
    "prefecture_code": 40,
    "city": "福岡市早良区",
    "city_kana": "フクオカシサワラク",
    "town": "早良",
    "town_kana": "サワラ",
    "street": null,
    "office_name": null,
    "office_name_kana": null
  },
  "1123": {
    "zip_code": "8111123",
    "prefecture": "福岡県",
    "prefecture_kana": "フクオカケン",
    "prefecture_code": 40,
    "city": "福岡市早良区",
    "city_kana": "フクオカシサワラク",
    "town": "内野",
    "town_kana": "ウチノ",
    "street": null,
    "office_name": null,
    "office_name_kana": null
  },
  "1124": {
    "zip_code": "8111124",
    "prefecture": "福岡県",
    "prefecture_kana": "フクオカケン",
    "prefecture_code": 40,
    "city": "福岡市早良区",
    "city_kana": "フクオカシサワラク",
    "town": "金武",
    "town_kana": "カナタケ",
    "street": null,
    "office_name": null,
    "office_name_kana": null
  },
  "1131": {
    "zip_code": "8111131",
    "prefecture": "福岡県",
    "prefecture_kana": "フクオカケン",
    "prefecture_code": 40,
    "city": "福岡市早良区",
    "city_kana": "フクオカシサワラク",
    "town": "西",
    "town_kana": "ニシ",
    "street": null,
    "office_name": null,
    "office_name_kana": null
  },
  "1132": {
    "zip_code": "8111132",
    "prefecture": "福岡県",
    "prefecture_kana": "フクオカケン",
    "prefecture_code": 40,
    "city": "福岡市早良区",
    "city_kana": "フクオカシサワラク",
    "town": "石釜",
    "town_kana": "イシガマ",
    "street": null,
    "office_name": null,
    "office_name_kana": null
  },
  "1133": {
    "zip_code": "8111133",
    "prefecture": "福岡県",
    "prefecture_kana": "フクオカケン",
    "prefecture_code": 40,
    "city": "福岡市早良区",
    "city_kana": "フクオカシサワラク",
    "town": "曲渕",
    "town_kana": "マガリブチ",
    "street": null,
    "office_name": null,
    "office_name_kana": null
  },
  "1134": {
    "zip_code": "8111134",
    "prefecture": "福岡県",
    "prefecture_kana": "フクオカケン",
    "prefecture_code": 40,
    "city": "福岡市早良区",
    "city_kana": "フクオカシサワラク",
    "town": "飯場",
    "town_kana": "イイバ",
    "street": null,
    "office_name": null,
    "office_name_kana": null
  },
  "1200": {
    "zip_code": "8111200",
    "prefecture": "福岡県",
    "prefecture_kana": "フクオカケン",
    "prefecture_code": 40,
    "city": "筑紫郡那珂川町",
    "city_kana": "チクシグンナカガワマチ",
    "town": "",
    "town_kana": "",
    "street": null,
    "office_name": null,
    "office_name_kana": null
  },
  "1201": {
    "zip_code": "8111201",
    "prefecture": "福岡県",
    "prefecture_kana": "フクオカケン",
    "prefecture_code": 40,
    "city": "筑紫郡那珂川町",
    "city_kana": "チクシグンナカガワマチ",
    "town": "片縄",
    "town_kana": "カタナワ",
    "street": null,
    "office_name": null,
    "office_name_kana": null
  },
  "1202": {
    "zip_code": "8111202",
    "prefecture": "福岡県",
    "prefecture_kana": "フクオカケン",
    "prefecture_code": 40,
    "city": "筑紫郡那珂川町",
    "city_kana": "チクシグンナカガワマチ",
    "town": "片縄西",
    "town_kana": "カタナワニシ",
    "street": null,
    "office_name": null,
    "office_name_kana": null
  },
  "1203": {
    "zip_code": "8111203",
    "prefecture": "福岡県",
    "prefecture_kana": "フクオカケン",
    "prefecture_code": 40,
    "city": "筑紫郡那珂川町",
    "city_kana": "チクシグンナカガワマチ",
    "town": "片縄北",
    "town_kana": "カタナワキタ",
    "street": null,
    "office_name": null,
    "office_name_kana": null
  },
  "1204": {
    "zip_code": "8111204",
    "prefecture": "福岡県",
    "prefecture_kana": "フクオカケン",
    "prefecture_code": 40,
    "city": "筑紫郡那珂川町",
    "city_kana": "チクシグンナカガワマチ",
    "town": "片縄東",
    "town_kana": "カタナワヒガシ",
    "street": null,
    "office_name": null,
    "office_name_kana": null
  },
  "1211": {
    "zip_code": "8111211",
    "prefecture": "福岡県",
    "prefecture_kana": "フクオカケン",
    "prefecture_code": 40,
    "city": "筑紫郡那珂川町",
    "city_kana": "チクシグンナカガワマチ",
    "town": "今光",
    "town_kana": "イマミツ",
    "street": null,
    "office_name": null,
    "office_name_kana": null
  },
  "1212": {
    "zip_code": "8111212",
    "prefecture": "福岡県",
    "prefecture_kana": "フクオカケン",
    "prefecture_code": 40,
    "city": "筑紫郡那珂川町",
    "city_kana": "チクシグンナカガワマチ",
    "town": "中原観晴が丘",
    "town_kana": "ナカバルミハルガオカ",
    "street": null,
    "office_name": null,
    "office_name_kana": null
  },
  "1213": {
    "zip_code": "8111213",
    "prefecture": "福岡県",
    "prefecture_kana": "フクオカケン",
    "prefecture_code": 40,
    "city": "筑紫郡那珂川町",
    "city_kana": "チクシグンナカガワマチ",
    "town": "中原",
    "town_kana": "ナカバル",
    "street": null,
    "office_name": null,
    "office_name_kana": null
  },
  "1214": {
    "zip_code": "8111214",
    "prefecture": "福岡県",
    "prefecture_kana": "フクオカケン",
    "prefecture_code": 40,
    "city": "筑紫郡那珂川町",
    "city_kana": "チクシグンナカガワマチ",
    "town": "中原東",
    "town_kana": "ナカバルヒガシ",
    "street": null,
    "office_name": null,
    "office_name_kana": null
  },
  "1215": {
    "zip_code": "8111215",
    "prefecture": "福岡県",
    "prefecture_kana": "フクオカケン",
    "prefecture_code": 40,
    "city": "筑紫郡那珂川町",
    "city_kana": "チクシグンナカガワマチ",
    "town": "松原",
    "town_kana": "マツバル",
    "street": null,
    "office_name": null,
    "office_name_kana": null
  },
  "1216": {
    "zip_code": "8111216",
    "prefecture": "福岡県",
    "prefecture_kana": "フクオカケン",
    "prefecture_code": 40,
    "city": "筑紫郡那珂川町",
    "city_kana": "チクシグンナカガワマチ",
    "town": "観晴が丘",
    "town_kana": "ミハルガオカ",
    "street": null,
    "office_name": null,
    "office_name_kana": null
  },
  "1221": {
    "zip_code": "8111221",
    "prefecture": "福岡県",
    "prefecture_kana": "フクオカケン",
    "prefecture_code": 40,
    "city": "筑紫郡那珂川町",
    "city_kana": "チクシグンナカガワマチ",
    "town": "王塚台",
    "town_kana": "オウツカダイ",
    "street": null,
    "office_name": null,
    "office_name_kana": null
  },
  "1222": {
    "zip_code": "8111222",
    "prefecture": "福岡県",
    "prefecture_kana": "フクオカケン",
    "prefecture_code": 40,
    "city": "筑紫郡那珂川町",
    "city_kana": "チクシグンナカガワマチ",
    "town": "下梶原",
    "town_kana": "シモカジワラ",
    "street": null,
    "office_name": null,
    "office_name_kana": null
  },
  "1223": {
    "zip_code": "8111223",
    "prefecture": "福岡県",
    "prefecture_kana": "フクオカケン",
    "prefecture_code": 40,
    "city": "筑紫郡那珂川町",
    "city_kana": "チクシグンナカガワマチ",
    "town": "上梶原",
    "town_kana": "カミカジワラ",
    "street": null,
    "office_name": null,
    "office_name_kana": null
  },
  "1224": {
    "zip_code": "8111224",
    "prefecture": "福岡県",
    "prefecture_kana": "フクオカケン",
    "prefecture_code": 40,
    "city": "筑紫郡那珂川町",
    "city_kana": "チクシグンナカガワマチ",
    "town": "安徳",
    "town_kana": "アントク",
    "street": null,
    "office_name": null,
    "office_name_kana": null
  },
  "1231": {
    "zip_code": "8111231",
    "prefecture": "福岡県",
    "prefecture_kana": "フクオカケン",
    "prefecture_code": 40,
    "city": "筑紫郡那珂川町",
    "city_kana": "チクシグンナカガワマチ",
    "town": "不入道",
    "town_kana": "フニュウドウ",
    "street": null,
    "office_name": null,
    "office_name_kana": null
  },
  "1232": {
    "zip_code": "8111232",
    "prefecture": "福岡県",
    "prefecture_kana": "フクオカケン",
    "prefecture_code": 40,
    "city": "筑紫郡那珂川町",
    "city_kana": "チクシグンナカガワマチ",
    "town": "埋金",
    "town_kana": "ウメガネ",
    "street": null,
    "office_name": null,
    "office_name_kana": null
  },
  "1233": {
    "zip_code": "8111233",
    "prefecture": "福岡県",
    "prefecture_kana": "フクオカケン",
    "prefecture_code": 40,
    "city": "筑紫郡那珂川町",
    "city_kana": "チクシグンナカガワマチ",
    "town": "市ノ瀬",
    "town_kana": "イチノセ",
    "street": null,
    "office_name": null,
    "office_name_kana": null
  },
  "1234": {
    "zip_code": "8111234",
    "prefecture": "福岡県",
    "prefecture_kana": "フクオカケン",
    "prefecture_code": 40,
    "city": "筑紫郡那珂川町",
    "city_kana": "チクシグンナカガワマチ",
    "town": "五ケ山",
    "town_kana": "ゴカヤマ",
    "street": null,
    "office_name": null,
    "office_name_kana": null
  },
  "1235": {
    "zip_code": "8111235",
    "prefecture": "福岡県",
    "prefecture_kana": "フクオカケン",
    "prefecture_code": 40,
    "city": "筑紫郡那珂川町",
    "city_kana": "チクシグンナカガワマチ",
    "town": "成竹",
    "town_kana": "ナルタケ",
    "street": null,
    "office_name": null,
    "office_name_kana": null
  },
  "1236": {
    "zip_code": "8111236",
    "prefecture": "福岡県",
    "prefecture_kana": "フクオカケン",
    "prefecture_code": 40,
    "city": "筑紫郡那珂川町",
    "city_kana": "チクシグンナカガワマチ",
    "town": "南面里",
    "town_kana": "ナメリ",
    "street": null,
    "office_name": null,
    "office_name_kana": null
  },
  "1241": {
    "zip_code": "8111241",
    "prefecture": "福岡県",
    "prefecture_kana": "フクオカケン",
    "prefecture_code": 40,
    "city": "筑紫郡那珂川町",
    "city_kana": "チクシグンナカガワマチ",
    "town": "後野",
    "town_kana": "ウシロノ",
    "street": null,
    "office_name": null,
    "office_name_kana": null
  },
  "1242": {
    "zip_code": "8111242",
    "prefecture": "福岡県",
    "prefecture_kana": "フクオカケン",
    "prefecture_code": 40,
    "city": "筑紫郡那珂川町",
    "city_kana": "チクシグンナカガワマチ",
    "town": "西隈",
    "town_kana": "ニシグマ",
    "street": null,
    "office_name": null,
    "office_name_kana": null
  },
  "1243": {
    "zip_code": "8111243",
    "prefecture": "福岡県",
    "prefecture_kana": "フクオカケン",
    "prefecture_code": 40,
    "city": "筑紫郡那珂川町",
    "city_kana": "チクシグンナカガワマチ",
    "town": "東隈",
    "town_kana": "ヒガシグマ",
    "street": null,
    "office_name": null,
    "office_name_kana": null
  },
  "1244": {
    "zip_code": "8111244",
    "prefecture": "福岡県",
    "prefecture_kana": "フクオカケン",
    "prefecture_code": 40,
    "city": "筑紫郡那珂川町",
    "city_kana": "チクシグンナカガワマチ",
    "town": "山田",
    "town_kana": "ヤマダ",
    "street": null,
    "office_name": null,
    "office_name_kana": null
  },
  "1245": {
    "zip_code": "8111245",
    "prefecture": "福岡県",
    "prefecture_kana": "フクオカケン",
    "prefecture_code": 40,
    "city": "筑紫郡那珂川町",
    "city_kana": "チクシグンナカガワマチ",
    "town": "別所",
    "town_kana": "ベッショ",
    "street": null,
    "office_name": null,
    "office_name_kana": null
  },
  "1246": {
    "zip_code": "8111246",
    "prefecture": "福岡県",
    "prefecture_kana": "フクオカケン",
    "prefecture_code": 40,
    "city": "筑紫郡那珂川町",
    "city_kana": "チクシグンナカガワマチ",
    "town": "西畑",
    "town_kana": "ニシハタ",
    "street": null,
    "office_name": null,
    "office_name_kana": null
  },
  "1251": {
    "zip_code": "8111251",
    "prefecture": "福岡県",
    "prefecture_kana": "フクオカケン",
    "prefecture_code": 40,
    "city": "筑紫郡那珂川町",
    "city_kana": "チクシグンナカガワマチ",
    "town": "松木",
    "town_kana": "マツノキ",
    "street": null,
    "office_name": null,
    "office_name_kana": null
  },
  "1252": {
    "zip_code": "8111252",
    "prefecture": "福岡県",
    "prefecture_kana": "フクオカケン",
    "prefecture_code": 40,
    "city": "筑紫郡那珂川町",
    "city_kana": "チクシグンナカガワマチ",
    "town": "五郎丸",
    "town_kana": "ゴロウマル",
    "street": null,
    "office_name": null,
    "office_name_kana": null
  },
  "1253": {
    "zip_code": "8111253",
    "prefecture": "福岡県",
    "prefecture_kana": "フクオカケン",
    "prefecture_code": 40,
    "city": "筑紫郡那珂川町",
    "city_kana": "チクシグンナカガワマチ",
    "town": "仲",
    "town_kana": "チュウ",
    "street": null,
    "office_name": null,
    "office_name_kana": null
  },
  "1254": {
    "zip_code": "8111254",
    "prefecture": "福岡県",
    "prefecture_kana": "フクオカケン",
    "prefecture_code": 40,
    "city": "筑紫郡那珂川町",
    "city_kana": "チクシグンナカガワマチ",
    "town": "道善",
    "town_kana": "ドウゼン",
    "street": null,
    "office_name": null,
    "office_name_kana": null
  },
  "1255": {
    "zip_code": "8111255",
    "prefecture": "福岡県",
    "prefecture_kana": "フクオカケン",
    "prefecture_code": 40,
    "city": "筑紫郡那珂川町",
    "city_kana": "チクシグンナカガワマチ",
    "town": "恵子",
    "town_kana": "エコ",
    "street": null,
    "office_name": null,
    "office_name_kana": null
  },
  "1256": {
    "zip_code": "8111256",
    "prefecture": "福岡県",
    "prefecture_kana": "フクオカケン",
    "prefecture_code": 40,
    "city": "筑紫郡那珂川町",
    "city_kana": "チクシグンナカガワマチ",
    "town": "仲丸",
    "town_kana": "チュウマル",
    "street": null,
    "office_name": null,
    "office_name_kana": null
  },
  "1292": {
    "zip_code": "8111292",
    "prefecture": "福岡県",
    "prefecture_kana": "フクオカケン",
    "prefecture_code": 40,
    "city": "筑紫郡那珂川町",
    "city_kana": "チクシグンナカガワマチ",
    "town": "西隈",
    "town_kana": "ニシグマ",
    "street": "１丁目１番１号",
    "office_name": "那珂川町役場",
    "office_name_kana": "ナカガワマチヤクバ"
  },
  "1298": {
    "zip_code": "8111298",
    "prefecture": "福岡県",
    "prefecture_kana": "フクオカケン",
    "prefecture_code": 40,
    "city": "筑紫郡那珂川町",
    "city_kana": "チクシグンナカガワマチ",
    "town": "中原",
    "town_kana": "ナカバル",
    "street": "５丁目５４番",
    "office_name": "株式会社　ハイマックス",
    "office_name_kana": "カブシキガイシヤ ハイマツクス"
  },
  "1302": {
    "zip_code": "8111302",
    "prefecture": "福岡県",
    "prefecture_kana": "フクオカケン",
    "prefecture_code": 40,
    "city": "福岡市南区",
    "city_kana": "フクオカシミナミク",
    "town": "井尻",
    "town_kana": "イジリ",
    "street": null,
    "office_name": null,
    "office_name_kana": null
  },
  "1303": {
    "zip_code": "8111303",
    "prefecture": "福岡県",
    "prefecture_kana": "フクオカケン",
    "prefecture_code": 40,
    "city": "福岡市南区",
    "city_kana": "フクオカシミナミク",
    "town": "折立町",
    "town_kana": "オリタテマチ",
    "street": null,
    "office_name": null,
    "office_name_kana": null
  },
  "1311": {
    "zip_code": "8111311",
    "prefecture": "福岡県",
    "prefecture_kana": "フクオカケン",
    "prefecture_code": 40,
    "city": "福岡市南区",
    "city_kana": "フクオカシミナミク",
    "town": "横手",
    "town_kana": "ヨコテ",
    "street": null,
    "office_name": null,
    "office_name_kana": null
  },
  "1312": {
    "zip_code": "8111312",
    "prefecture": "福岡県",
    "prefecture_kana": "フクオカケン",
    "prefecture_code": 40,
    "city": "福岡市南区",
    "city_kana": "フクオカシミナミク",
    "town": "横手南町",
    "town_kana": "ヨコテミナミマチ",
    "street": null,
    "office_name": null,
    "office_name_kana": null
  },
  "1313": {
    "zip_code": "8111313",
    "prefecture": "福岡県",
    "prefecture_kana": "フクオカケン",
    "prefecture_code": 40,
    "city": "福岡市南区",
    "city_kana": "フクオカシミナミク",
    "town": "曰佐",
    "town_kana": "オサ",
    "street": null,
    "office_name": null,
    "office_name_kana": null
  },
  "1314": {
    "zip_code": "8111314",
    "prefecture": "福岡県",
    "prefecture_kana": "フクオカケン",
    "prefecture_code": 40,
    "city": "福岡市南区",
    "city_kana": "フクオカシミナミク",
    "town": "的場",
    "town_kana": "マトバ",
    "street": null,
    "office_name": null,
    "office_name_kana": null
  },
  "1321": {
    "zip_code": "8111321",
    "prefecture": "福岡県",
    "prefecture_kana": "フクオカケン",
    "prefecture_code": 40,
    "city": "福岡市南区",
    "city_kana": "フクオカシミナミク",
    "town": "柳瀬",
    "town_kana": "ヤナセ",
    "street": null,
    "office_name": null,
    "office_name_kana": null
  },
  "1322": {
    "zip_code": "8111322",
    "prefecture": "福岡県",
    "prefecture_kana": "フクオカケン",
    "prefecture_code": 40,
    "city": "福岡市南区",
    "city_kana": "フクオカシミナミク",
    "town": "弥永団地",
    "town_kana": "ヤナガダンチ",
    "street": null,
    "office_name": null,
    "office_name_kana": null
  },
  "1323": {
    "zip_code": "8111323",
    "prefecture": "福岡県",
    "prefecture_kana": "フクオカケン",
    "prefecture_code": 40,
    "city": "福岡市南区",
    "city_kana": "フクオカシミナミク",
    "town": "弥永",
    "town_kana": "ヤナガ",
    "street": null,
    "office_name": null,
    "office_name_kana": null
  },
  "1324": {
    "zip_code": "8111324",
    "prefecture": "福岡県",
    "prefecture_kana": "フクオカケン",
    "prefecture_code": 40,
    "city": "福岡市南区",
    "city_kana": "フクオカシミナミク",
    "town": "警弥郷",
    "town_kana": "ケヤゴウ",
    "street": null,
    "office_name": null,
    "office_name_kana": null
  },
  "1343": {
    "zip_code": "8111343",
    "prefecture": "福岡県",
    "prefecture_kana": "フクオカケン",
    "prefecture_code": 40,
    "city": "福岡市南区",
    "city_kana": "フクオカシミナミク",
    "town": "和田",
    "town_kana": "ワダ",
    "street": null,
    "office_name": null,
    "office_name_kana": null
  },
  "1344": {
    "zip_code": "8111344",
    "prefecture": "福岡県",
    "prefecture_kana": "フクオカケン",
    "prefecture_code": 40,
    "city": "福岡市南区",
    "city_kana": "フクオカシミナミク",
    "town": "三宅",
    "town_kana": "ミヤケ",
    "street": null,
    "office_name": null,
    "office_name_kana": null
  },
  "1345": {
    "zip_code": "8111345",
    "prefecture": "福岡県",
    "prefecture_kana": "フクオカケン",
    "prefecture_code": 40,
    "city": "福岡市南区",
    "city_kana": "フクオカシミナミク",
    "town": "向新町",
    "town_kana": "ムカイシンマチ",
    "street": null,
    "office_name": null,
    "office_name_kana": null
  },
  "1346": {
    "zip_code": "8111346",
    "prefecture": "福岡県",
    "prefecture_kana": "フクオカケン",
    "prefecture_code": 40,
    "city": "福岡市南区",
    "city_kana": "フクオカシミナミク",
    "town": "老司",
    "town_kana": "ロウジ",
    "street": null,
    "office_name": null,
    "office_name_kana": null
  },
  "1347": {
    "zip_code": "8111347",
    "prefecture": "福岡県",
    "prefecture_kana": "フクオカケン",
    "prefecture_code": 40,
    "city": "福岡市南区",
    "city_kana": "フクオカシミナミク",
    "town": "野多目",
    "town_kana": "ノタメ",
    "street": null,
    "office_name": null,
    "office_name_kana": null
  },
  "1351": {
    "zip_code": "8111351",
    "prefecture": "福岡県",
    "prefecture_kana": "フクオカケン",
    "prefecture_code": 40,
    "city": "福岡市南区",
    "city_kana": "フクオカシミナミク",
    "town": "屋形原",
    "town_kana": "ヤカタバル",
    "street": null,
    "office_name": null,
    "office_name_kana": null
  },
  "1352": {
    "zip_code": "8111352",
    "prefecture": "福岡県",
    "prefecture_kana": "フクオカケン",
    "prefecture_code": 40,
    "city": "福岡市南区",
    "city_kana": "フクオカシミナミク",
    "town": "鶴田",
    "town_kana": "ツルタ",
    "street": null,
    "office_name": null,
    "office_name_kana": null
  },
  "1353": {
    "zip_code": "8111353",
    "prefecture": "福岡県",
    "prefecture_kana": "フクオカケン",
    "prefecture_code": 40,
    "city": "福岡市南区",
    "city_kana": "フクオカシミナミク",
    "town": "柏原",
    "town_kana": "カシワラ",
    "street": null,
    "office_name": null,
    "office_name_kana": null
  },
  "1354": {
    "zip_code": "8111354",
    "prefecture": "福岡県",
    "prefecture_kana": "フクオカケン",
    "prefecture_code": 40,
    "city": "福岡市南区",
    "city_kana": "フクオカシミナミク",
    "town": "大平寺",
    "town_kana": "タイヘイジ",
    "street": null,
    "office_name": null,
    "office_name_kana": null
  },
  "1355": {
    "zip_code": "8111355",
    "prefecture": "福岡県",
    "prefecture_kana": "フクオカケン",
    "prefecture_code": 40,
    "city": "福岡市南区",
    "city_kana": "フクオカシミナミク",
    "town": "桧原",
    "town_kana": "ヒバル",
    "street": null,
    "office_name": null,
    "office_name_kana": null
  },
  "1356": {
    "zip_code": "8111356",
    "prefecture": "福岡県",
    "prefecture_kana": "フクオカケン",
    "prefecture_code": 40,
    "city": "福岡市南区",
    "city_kana": "フクオカシミナミク",
    "town": "花畑",
    "town_kana": "ハナハタ",
    "street": null,
    "office_name": null,
    "office_name_kana": null
  },
  "1361": {
    "zip_code": "8111361",
    "prefecture": "福岡県",
    "prefecture_kana": "フクオカケン",
    "prefecture_code": 40,
    "city": "福岡市南区",
    "city_kana": "フクオカシミナミク",
    "town": "西長住",
    "town_kana": "ニシナガズミ",
    "street": null,
    "office_name": null,
    "office_name_kana": null
  },
  "1362": {
    "zip_code": "8111362",
    "prefecture": "福岡県",
    "prefecture_kana": "フクオカケン",
    "prefecture_code": 40,
    "city": "福岡市南区",
    "city_kana": "フクオカシミナミク",
    "town": "長住",
    "town_kana": "ナガズミ",
    "street": null,
    "office_name": null,
    "office_name_kana": null
  },
  "1364": {
    "zip_code": "8111364",
    "prefecture": "福岡県",
    "prefecture_kana": "フクオカケン",
    "prefecture_code": 40,
    "city": "福岡市南区",
    "city_kana": "フクオカシミナミク",
    "town": "中尾",
    "town_kana": "ナカオ",
    "street": null,
    "office_name": null,
    "office_name_kana": null
  },
  "1365": {
    "zip_code": "8111365",
    "prefecture": "福岡県",
    "prefecture_kana": "フクオカケン",
    "prefecture_code": 40,
    "city": "福岡市南区",
    "city_kana": "フクオカシミナミク",
    "town": "皿山",
    "town_kana": "サラヤマ",
    "street": null,
    "office_name": null,
    "office_name_kana": null
  },
  "1392": {
    "zip_code": "8111392",
    "prefecture": "福岡県",
    "prefecture_kana": "フクオカケン",
    "prefecture_code": 40,
    "city": "福岡市南区",
    "city_kana": "フクオカシミナミク",
    "town": "花畑",
    "town_kana": "ハナハタ",
    "street": "４丁目７−１",
    "office_name": "福岡自動車試験場",
    "office_name_kana": "フクオカジドウシヤシケンジヨウ"
  },
  "1393": {
    "zip_code": "8111393",
    "prefecture": "福岡県",
    "prefecture_kana": "フクオカケン",
    "prefecture_code": 40,
    "city": "福岡市南区",
    "city_kana": "フクオカシミナミク",
    "town": "向新町",
    "town_kana": "ムカイシンマチ",
    "street": "２丁目５−１６",
    "office_name": "照栄建設　株式会社",
    "office_name_kana": "シヨウエイケンセツ カブシキガイシヤ"
  },
  "1394": {
    "zip_code": "8111394",
    "prefecture": "福岡県",
    "prefecture_kana": "フクオカケン",
    "prefecture_code": 40,
    "city": "福岡市南区",
    "city_kana": "フクオカシミナミク",
    "town": "屋形原",
    "town_kana": "ヤカタバル",
    "street": "４丁目３９−１",
    "office_name": "国立療養所南福岡病院",
    "office_name_kana": "コクリツリヨウヨウシヨミナミフクオカビヨウイン"
  },
  "1395": {
    "zip_code": "8111395",
    "prefecture": "福岡県",
    "prefecture_kana": "フクオカケン",
    "prefecture_code": 40,
    "city": "福岡市南区",
    "city_kana": "フクオカシミナミク",
    "town": "野多目",
    "town_kana": "ノタメ",
    "street": "３丁目１−１",
    "office_name": "国立病院九州がんセンター",
    "office_name_kana": "コクリツビヨウインキユウシユウガンセンタ-"
  },
  "2100": [
    {
      "zip_code": "8112100",
      "prefecture": "福岡県",
      "prefecture_kana": "フクオカケン",
      "prefecture_code": 40,
      "city": "糟屋郡宇美町",
      "city_kana": "カスヤグンウミマチ",
      "town": "",
      "town_kana": "",
      "street": null,
      "office_name": null,
      "office_name_kana": null
    },
    {
      "zip_code": "8112100",
      "prefecture": "福岡県",
      "prefecture_kana": "フクオカケン",
      "prefecture_code": 40,
      "city": "糟屋郡須惠町",
      "city_kana": "カスヤグンスエマチ",
      "town": "",
      "town_kana": "",
      "street": null,
      "office_name": null,
      "office_name_kana": null
    }
  ],
  "2101": {
    "zip_code": "8112101",
    "prefecture": "福岡県",
    "prefecture_kana": "フクオカケン",
    "prefecture_code": 40,
    "city": "糟屋郡宇美町",
    "city_kana": "カスヤグンウミマチ",
    "town": "宇美",
    "town_kana": "ウミ",
    "street": null,
    "office_name": null,
    "office_name_kana": null
  },
  "2102": {
    "zip_code": "8112102",
    "prefecture": "福岡県",
    "prefecture_kana": "フクオカケン",
    "prefecture_code": 40,
    "city": "糟屋郡宇美町",
    "city_kana": "カスヤグンウミマチ",
    "town": "炭焼",
    "town_kana": "スミヤキ",
    "street": null,
    "office_name": null,
    "office_name_kana": null
  },
  "2103": {
    "zip_code": "8112103",
    "prefecture": "福岡県",
    "prefecture_kana": "フクオカケン",
    "prefecture_code": 40,
    "city": "糟屋郡宇美町",
    "city_kana": "カスヤグンウミマチ",
    "town": "四王寺坂",
    "town_kana": "シオウジザカ",
    "street": null,
    "office_name": null,
    "office_name_kana": null
  },
  "2104": {
    "zip_code": "8112104",
    "prefecture": "福岡県",
    "prefecture_kana": "フクオカケン",
    "prefecture_code": 40,
    "city": "糟屋郡宇美町",
    "city_kana": "カスヤグンウミマチ",
    "town": "井野",
    "town_kana": "イノ",
    "street": null,
    "office_name": null,
    "office_name_kana": null
  },
  "2105": {
    "zip_code": "8112105",
    "prefecture": "福岡県",
    "prefecture_kana": "フクオカケン",
    "prefecture_code": 40,
    "city": "糟屋郡宇美町",
    "city_kana": "カスヤグンウミマチ",
    "town": "四王寺",
    "town_kana": "シオウジ",
    "street": null,
    "office_name": null,
    "office_name_kana": null
  },
  "2106": {
    "zip_code": "8112106",
    "prefecture": "福岡県",
    "prefecture_kana": "フクオカケン",
    "prefecture_code": 40,
    "city": "糟屋郡宇美町",
    "city_kana": "カスヤグンウミマチ",
    "town": "ひばりが丘",
    "town_kana": "ヒバリガオカ",
    "street": null,
    "office_name": null,
    "office_name_kana": null
  },
  "2107": {
    "zip_code": "8112107",
    "prefecture": "福岡県",
    "prefecture_kana": "フクオカケン",
    "prefecture_code": 40,
    "city": "糟屋郡宇美町",
    "city_kana": "カスヤグンウミマチ",
    "town": "とびたけ",
    "town_kana": "トビタケ",
    "street": null,
    "office_name": null,
    "office_name_kana": null
  },
  "2108": {
    "zip_code": "8112108",
    "prefecture": "福岡県",
    "prefecture_kana": "フクオカケン",
    "prefecture_code": 40,
    "city": "糟屋郡宇美町",
    "city_kana": "カスヤグンウミマチ",
    "town": "ゆりが丘",
    "town_kana": "ユリガオカ",
    "street": null,
    "office_name": null,
    "office_name_kana": null
  },
  "2109": {
    "zip_code": "8112109",
    "prefecture": "福岡県",
    "prefecture_kana": "フクオカケン",
    "prefecture_code": 40,
    "city": "糟屋郡宇美町",
    "city_kana": "カスヤグンウミマチ",
    "town": "桜原",
    "town_kana": "サクラバル",
    "street": null,
    "office_name": null,
    "office_name_kana": null
  },
  "2111": {
    "zip_code": "8112111",
    "prefecture": "福岡県",
    "prefecture_kana": "フクオカケン",
    "prefecture_code": 40,
    "city": "糟屋郡須惠町",
    "city_kana": "カスヤグンスエマチ",
    "town": "新原",
    "town_kana": "シンバル",
    "street": null,
    "office_name": null,
    "office_name_kana": null
  },
  "2112": {
    "zip_code": "8112112",
    "prefecture": "福岡県",
    "prefecture_kana": "フクオカケン",
    "prefecture_code": 40,
    "city": "糟屋郡須惠町",
    "city_kana": "カスヤグンスエマチ",
    "town": "植木",
    "town_kana": "ウエキ",
    "street": null,
    "office_name": null,
    "office_name_kana": null
  },
  "2113": {
    "zip_code": "8112113",
    "prefecture": "福岡県",
    "prefecture_kana": "フクオカケン",
    "prefecture_code": 40,
    "city": "糟屋郡須惠町",
    "city_kana": "カスヤグンスエマチ",
    "town": "須惠",
    "town_kana": "スエ",
    "street": null,
    "office_name": null,
    "office_name_kana": null
  },
  "2114": {
    "zip_code": "8112114",
    "prefecture": "福岡県",
    "prefecture_kana": "フクオカケン",
    "prefecture_code": 40,
    "city": "糟屋郡須惠町",
    "city_kana": "カスヤグンスエマチ",
    "town": "上須惠",
    "town_kana": "カミスエ",
    "street": null,
    "office_name": null,
    "office_name_kana": null
  },
  "2115": {
    "zip_code": "8112115",
    "prefecture": "福岡県",
    "prefecture_kana": "フクオカケン",
    "prefecture_code": 40,
    "city": "糟屋郡須惠町",
    "city_kana": "カスヤグンスエマチ",
    "town": "佐谷",
    "town_kana": "サタニ",
    "street": null,
    "office_name": null,
    "office_name_kana": null
  },
  "2121": {
    "zip_code": "8112121",
    "prefecture": "福岡県",
    "prefecture_kana": "フクオカケン",
    "prefecture_code": 40,
    "city": "糟屋郡宇美町",
    "city_kana": "カスヤグンウミマチ",
    "town": "平和",
    "town_kana": "ヘイワ",
    "street": null,
    "office_name": null,
    "office_name_kana": null
  },
  "2122": {
    "zip_code": "8112122",
    "prefecture": "福岡県",
    "prefecture_kana": "フクオカケン",
    "prefecture_code": 40,
    "city": "糟屋郡宇美町",
    "city_kana": "カスヤグンウミマチ",
    "town": "明神坂",
    "town_kana": "ミョウジンザカ",
    "street": null,
    "office_name": null,
    "office_name_kana": null
  },
  "2123": {
    "zip_code": "8112123",
    "prefecture": "福岡県",
    "prefecture_kana": "フクオカケン",
    "prefecture_code": 40,
    "city": "糟屋郡宇美町",
    "city_kana": "カスヤグンウミマチ",
    "town": "光正寺",
    "town_kana": "コウショウジ",
    "street": null,
    "office_name": null,
    "office_name_kana": null
  },
  "2124": {
    "zip_code": "8112124",
    "prefecture": "福岡県",
    "prefecture_kana": "フクオカケン",
    "prefecture_code": 40,
    "city": "糟屋郡宇美町",
    "city_kana": "カスヤグンウミマチ",
    "town": "若草",
    "town_kana": "ワカクサ",
    "street": null,
    "office_name": null,
    "office_name_kana": null
  },
  "2125": {
    "zip_code": "8112125",
    "prefecture": "福岡県",
    "prefecture_kana": "フクオカケン",
    "prefecture_code": 40,
    "city": "糟屋郡宇美町",
    "city_kana": "カスヤグンウミマチ",
    "town": "宇美東",
    "town_kana": "ウミヒガシ",
    "street": null,
    "office_name": null,
    "office_name_kana": null
  },
  "2126": {
    "zip_code": "8112126",
    "prefecture": "福岡県",
    "prefecture_kana": "フクオカケン",
    "prefecture_code": 40,
    "city": "糟屋郡宇美町",
    "city_kana": "カスヤグンウミマチ",
    "town": "障子岳南",
    "town_kana": "ショウジダケミナミ",
    "street": null,
    "office_name": null,
    "office_name_kana": null
  },
  "2127": {
    "zip_code": "8112127",
    "prefecture": "福岡県",
    "prefecture_kana": "フクオカケン",
    "prefecture_code": 40,
    "city": "糟屋郡宇美町",
    "city_kana": "カスヤグンウミマチ",
    "town": "障子岳",
    "town_kana": "ショウジダケ",
    "street": null,
    "office_name": null,
    "office_name_kana": null
  },
  "2128": {
    "zip_code": "8112128",
    "prefecture": "福岡県",
    "prefecture_kana": "フクオカケン",
    "prefecture_code": 40,
    "city": "糟屋郡宇美町",
    "city_kana": "カスヤグンウミマチ",
    "town": "宇美中央",
    "town_kana": "ウミチュウオウ",
    "street": null,
    "office_name": null,
    "office_name_kana": null
  },
  "2129": {
    "zip_code": "8112129",
    "prefecture": "福岡県",
    "prefecture_kana": "フクオカケン",
    "prefecture_code": 40,
    "city": "糟屋郡宇美町",
    "city_kana": "カスヤグンウミマチ",
    "town": "神武原",
    "town_kana": "ジンムバル",
    "street": null,
    "office_name": null,
    "office_name_kana": null
  },
  "2131": {
    "zip_code": "8112131",
    "prefecture": "福岡県",
    "prefecture_kana": "フクオカケン",
    "prefecture_code": 40,
    "city": "糟屋郡宇美町",
    "city_kana": "カスヤグンウミマチ",
    "town": "貴船",
    "town_kana": "キフネ",
    "street": null,
    "office_name": null,
    "office_name_kana": null
  },
  "2132": {
    "zip_code": "8112132",
    "prefecture": "福岡県",
    "prefecture_kana": "フクオカケン",
    "prefecture_code": 40,
    "city": "糟屋郡宇美町",
    "city_kana": "カスヤグンウミマチ",
    "town": "原田",
    "town_kana": "ハルダ",
    "street": null,
    "office_name": null,
    "office_name_kana": null
  },
  "2192": {
    "zip_code": "8112192",
    "prefecture": "福岡県",
    "prefecture_kana": "フクオカケン",
    "prefecture_code": 40,
    "city": "糟屋郡宇美町",
    "city_kana": "カスヤグンウミマチ",
    "town": "宇美",
    "town_kana": "ウミ",
    "street": "５丁目１−１",
    "office_name": "宇美町役場",
    "office_name_kana": "ウミマチヤクバ"
  },
  "2193": {
    "zip_code": "8112193",
    "prefecture": "福岡県",
    "prefecture_kana": null,
    "prefecture_code": null,
    "city": "糟屋郡須惠町",
    "city_kana": null,
    "town": "大字須惠",
    "town_kana": null,
    "street": "７７１",
    "office_name": "須惠町役場",
    "office_name_kana": "スエマチヤクバ"
  },
  "2194": {
    "zip_code": "8112194",
    "prefecture": "福岡県",
    "prefecture_kana": null,
    "prefecture_code": null,
    "city": "糟屋郡宇美町",
    "city_kana": null,
    "town": "大字井野",
    "town_kana": null,
    "street": "字稲木３６９−８−１０",
    "office_name": "ダイレックス福岡マザーセンター",
    "office_name_kana": "ダイレツクスフクオカマザ-センタ-"
  },
  "2195": {
    "zip_code": "8112195",
    "prefecture": "福岡県",
    "prefecture_kana": null,
    "prefecture_code": null,
    "city": "糟屋郡宇美町",
    "city_kana": null,
    "town": "大字井野",
    "town_kana": null,
    "street": "字稲木３６９−８−１０",
    "office_name": "サンドラッグ　福岡物流センター",
    "office_name_kana": "サンドラツグ フクオカブツリユウセンタ-"
  },
  "2196": {
    "zip_code": "8112196",
    "prefecture": "福岡県",
    "prefecture_kana": null,
    "prefecture_code": null,
    "city": "糟屋郡須惠町",
    "city_kana": null,
    "town": "大字新原",
    "town_kana": null,
    "street": "１６−１０",
    "office_name": "佐川グローバルロジスティクス　株式会社　九州支店　須恵営業所",
    "office_name_kana": "サガワグロ-バルロジステイクス カブシキガイシヤ キユウシユウシテン スエエイギヨウシヨ"
  },
  "2200": {
    "zip_code": "8112200",
    "prefecture": "福岡県",
    "prefecture_kana": "フクオカケン",
    "prefecture_code": 40,
    "city": "糟屋郡志免町",
    "city_kana": "カスヤグンシメマチ",
    "town": "",
    "town_kana": "",
    "street": null,
    "office_name": null,
    "office_name_kana": null
  },
  "2201": {
    "zip_code": "8112201",
    "prefecture": "福岡県",
    "prefecture_kana": "フクオカケン",
    "prefecture_code": 40,
    "city": "糟屋郡志免町",
    "city_kana": "カスヤグンシメマチ",
    "town": "桜丘",
    "town_kana": "サクラガオカ",
    "street": null,
    "office_name": null,
    "office_name_kana": null
  },
  "2202": {
    "zip_code": "8112202",
    "prefecture": "福岡県",
    "prefecture_kana": "フクオカケン",
    "prefecture_code": 40,
    "city": "糟屋郡志免町",
    "city_kana": "カスヤグンシメマチ",
    "town": "志免",
    "town_kana": "シメ",
    "street": null,
    "office_name": null,
    "office_name_kana": null
  },
  "2203": {
    "zip_code": "8112203",
    "prefecture": "福岡県",
    "prefecture_kana": "フクオカケン",
    "prefecture_code": 40,
    "city": "糟屋郡志免町",
    "city_kana": "カスヤグンシメマチ",
    "town": "石橋台",
    "town_kana": "イシバシダイ",
    "street": null,
    "office_name": null,
    "office_name_kana": null
  },
  "2204": {
    "zip_code": "8112204",
    "prefecture": "福岡県",
    "prefecture_kana": "フクオカケン",
    "prefecture_code": 40,
    "city": "糟屋郡志免町",
    "city_kana": "カスヤグンシメマチ",
    "town": "田富",
    "town_kana": "タドミ",
    "street": null,
    "office_name": null,
    "office_name_kana": null
  },
  "2205": {
    "zip_code": "8112205",
    "prefecture": "福岡県",
    "prefecture_kana": "フクオカケン",
    "prefecture_code": 40,
    "city": "糟屋郡志免町",
    "city_kana": "カスヤグンシメマチ",
    "town": "別府",
    "town_kana": "ベフ",
    "street": null,
    "office_name": null,
    "office_name_kana": null
  },
  "2206": {
    "zip_code": "8112206",
    "prefecture": "福岡県",
    "prefecture_kana": "フクオカケン",
    "prefecture_code": 40,
    "city": "糟屋郡志免町",
    "city_kana": "カスヤグンシメマチ",
    "town": "御手洗",
    "town_kana": "ミタライ",
    "street": null,
    "office_name": null,
    "office_name_kana": null
  },
  "2207": {
    "zip_code": "8112207",
    "prefecture": "福岡県",
    "prefecture_kana": "フクオカケン",
    "prefecture_code": 40,
    "city": "糟屋郡志免町",
    "city_kana": "カスヤグンシメマチ",
    "town": "南里",
    "town_kana": "ミナミザト",
    "street": null,
    "office_name": null,
    "office_name_kana": null
  },
  "2208": {
    "zip_code": "8112208",
    "prefecture": "福岡県",
    "prefecture_kana": "フクオカケン",
    "prefecture_code": 40,
    "city": "糟屋郡志免町",
    "city_kana": "カスヤグンシメマチ",
    "town": "吉原",
    "town_kana": "ヨシハラ",
    "street": null,
    "office_name": null,
    "office_name_kana": null
  },
  "2209": {
    "zip_code": "8112209",
    "prefecture": "福岡県",
    "prefecture_kana": "フクオカケン",
    "prefecture_code": 40,
    "city": "糟屋郡志免町",
    "city_kana": "カスヤグンシメマチ",
    "town": "王子",
    "town_kana": "オウジ",
    "street": null,
    "office_name": null,
    "office_name_kana": null
  },
  "2221": {
    "zip_code": "8112221",
    "prefecture": "福岡県",
    "prefecture_kana": "フクオカケン",
    "prefecture_code": 40,
    "city": "糟屋郡須惠町",
    "city_kana": "カスヤグンスエマチ",
    "town": "旅石",
    "town_kana": "タビイシ",
    "street": null,
    "office_name": null,
    "office_name_kana": null
  },
  "2231": {
    "zip_code": "8112231",
    "prefecture": "福岡県",
    "prefecture_kana": "フクオカケン",
    "prefecture_code": 40,
    "city": "糟屋郡志免町",
    "city_kana": "カスヤグンシメマチ",
    "town": "別府東",
    "town_kana": "ベフヒガシ",
    "street": null,
    "office_name": null,
    "office_name_kana": null
  },
  "2232": {
    "zip_code": "8112232",
    "prefecture": "福岡県",
    "prefecture_kana": "フクオカケン",
    "prefecture_code": 40,
    "city": "糟屋郡志免町",
    "city_kana": "カスヤグンシメマチ",
    "town": "別府西",
    "town_kana": "ベフニシ",
    "street": null,
    "office_name": null,
    "office_name_kana": null
  },
  "2233": {
    "zip_code": "8112233",
    "prefecture": "福岡県",
    "prefecture_kana": "フクオカケン",
    "prefecture_code": 40,
    "city": "糟屋郡志免町",
    "city_kana": "カスヤグンシメマチ",
    "town": "別府北",
    "town_kana": "ベフキタ",
    "street": null,
    "office_name": null,
    "office_name_kana": null
  },
  "2241": {
    "zip_code": "8112241",
    "prefecture": "福岡県",
    "prefecture_kana": "フクオカケン",
    "prefecture_code": 40,
    "city": "糟屋郡志免町",
    "city_kana": "カスヤグンシメマチ",
    "town": "東公園台",
    "town_kana": "ヒガシコウエンダイ",
    "street": null,
    "office_name": null,
    "office_name_kana": null
  },
  "2242": {
    "zip_code": "8112242",
    "prefecture": "福岡県",
    "prefecture_kana": "フクオカケン",
    "prefecture_code": 40,
    "city": "糟屋郡志免町",
    "city_kana": "カスヤグンシメマチ",
    "town": "松ケ丘",
    "town_kana": "マツガオカ",
    "street": null,
    "office_name": null,
    "office_name_kana": null
  },
  "2243": {
    "zip_code": "8112243",
    "prefecture": "福岡県",
    "prefecture_kana": "フクオカケン",
    "prefecture_code": 40,
    "city": "糟屋郡志免町",
    "city_kana": "カスヤグンシメマチ",
    "town": "志免東",
    "town_kana": "シメヒガシ",
    "street": null,
    "office_name": null,
    "office_name_kana": null
  },
  "2244": {
    "zip_code": "8112244",
    "prefecture": "福岡県",
    "prefecture_kana": "フクオカケン",
    "prefecture_code": 40,
    "city": "糟屋郡志免町",
    "city_kana": "カスヤグンシメマチ",
    "town": "志免中央",
    "town_kana": "シメチュウオウ",
    "street": null,
    "office_name": null,
    "office_name_kana": null
  },
  "2245": {
    "zip_code": "8112245",
    "prefecture": "福岡県",
    "prefecture_kana": "フクオカケン",
    "prefecture_code": 40,
    "city": "糟屋郡志免町",
    "city_kana": "カスヤグンシメマチ",
    "town": "片峰",
    "town_kana": "カタミネ",
    "street": null,
    "office_name": null,
    "office_name_kana": null
  },
  "2246": {
    "zip_code": "8112246",
    "prefecture": "福岡県",
    "prefecture_kana": "フクオカケン",
    "prefecture_code": 40,
    "city": "糟屋郡志免町",
    "city_kana": "カスヤグンシメマチ",
    "town": "片峰中央",
    "town_kana": "カタミネチュウオウ",
    "street": null,
    "office_name": null,
    "office_name_kana": null
  },
  "2247": {
    "zip_code": "8112247",
    "prefecture": "福岡県",
    "prefecture_kana": "フクオカケン",
    "prefecture_code": 40,
    "city": "糟屋郡志免町",
    "city_kana": "カスヤグンシメマチ",
    "town": "向ケ丘",
    "town_kana": "ムカイガオカ",
    "street": null,
    "office_name": null,
    "office_name_kana": null
  },
  "2248": {
    "zip_code": "8112248",
    "prefecture": "福岡県",
    "prefecture_kana": "フクオカケン",
    "prefecture_code": 40,
    "city": "糟屋郡志免町",
    "city_kana": "カスヤグンシメマチ",
    "town": "坂瀬",
    "town_kana": "サカセ",
    "street": null,
    "office_name": null,
    "office_name_kana": null
  },
  "2292": {
    "zip_code": "8112292",
    "prefecture": "福岡県",
    "prefecture_kana": "フクオカケン",
    "prefecture_code": 40,
    "city": "糟屋郡志免町",
    "city_kana": "カスヤグンシメマチ",
    "town": "志免中央",
    "town_kana": "シメチュウオウ",
    "street": "１丁目１−１",
    "office_name": "志免町役場",
    "office_name_kana": "シメマチヤクバ"
  },
  "2293": {
    "zip_code": "8112293",
    "prefecture": "福岡県",
    "prefecture_kana": "フクオカケン",
    "prefecture_code": 40,
    "city": "糟屋郡志免町",
    "city_kana": "カスヤグンシメマチ",
    "town": "志免中央",
    "town_kana": "シメチュウオウ",
    "street": "３丁目４−１",
    "office_name": "株式会社　西友　志免店",
    "office_name_kana": "カブシキガイシヤ セイユウ シメテン"
  },
  "2294": {
    "zip_code": "8112294",
    "prefecture": "福岡県",
    "prefecture_kana": "フクオカケン",
    "prefecture_code": 40,
    "city": "糟屋郡志免町",
    "city_kana": "カスヤグンシメマチ",
    "town": "志免",
    "town_kana": "シメ",
    "street": "４丁目１−２４",
    "office_name": "株式会社　サカグチ",
    "office_name_kana": "カブシキガイシヤ サカグチ"
  },
  "2295": {
    "zip_code": "8112295",
    "prefecture": "福岡県",
    "prefecture_kana": "フクオカケン",
    "prefecture_code": 40,
    "city": "糟屋郡志免町",
    "city_kana": "カスヤグンシメマチ",
    "town": "志免",
    "town_kana": "シメ",
    "street": "３丁目１４−１",
    "office_name": "技研工業　株式会社",
    "office_name_kana": "ギケンコウギヨウ カブシキガイシヤ"
  },
  "2297": {
    "zip_code": "8112297",
    "prefecture": "福岡県",
    "prefecture_kana": null,
    "prefecture_code": null,
    "city": "糟屋郡須惠町",
    "city_kana": null,
    "town": "大字旅石",
    "town_kana": null,
    "street": "７２−３",
    "office_name": "福岡県立　須恵高等学校",
    "office_name_kana": "フクオカケンリツ スエコウトウガツコウ"
  },
  "2298": {
    "zip_code": "8112298",
    "prefecture": "福岡県",
    "prefecture_kana": null,
    "prefecture_code": null,
    "city": "糟屋郡須惠町",
    "city_kana": null,
    "town": "大字旅石",
    "town_kana": null,
    "street": "１１５−４８３",
    "office_name": "医療法人社団　正信会　水戸病院",
    "office_name_kana": "イリヨウホウジンシヤダン セイシンカイ ミトビヨウイン"
  },
  "2300": {
    "zip_code": "8112300",
    "prefecture": "福岡県",
    "prefecture_kana": "フクオカケン",
    "prefecture_code": 40,
    "city": "糟屋郡粕屋町",
    "city_kana": "カスヤグンカスヤマチ",
    "town": "",
    "town_kana": "",
    "street": null,
    "office_name": null,
    "office_name_kana": null
  },
  "2301": {
    "zip_code": "8112301",
    "prefecture": "福岡県",
    "prefecture_kana": "フクオカケン",
    "prefecture_code": 40,
    "city": "糟屋郡粕屋町",
    "city_kana": "カスヤグンカスヤマチ",
    "town": "上大隈",
    "town_kana": "カミオオクマ",
    "street": null,
    "office_name": null,
    "office_name_kana": null
  },
  "2302": {
    "zip_code": "8112302",
    "prefecture": "福岡県",
    "prefecture_kana": "フクオカケン",
    "prefecture_code": 40,
    "city": "糟屋郡粕屋町",
    "city_kana": "カスヤグンカスヤマチ",
    "town": "大隈",
    "town_kana": "オオクマ",
    "street": null,
    "office_name": null,
    "office_name_kana": null
  },
  "2303": {
    "zip_code": "8112303",
    "prefecture": "福岡県",
    "prefecture_kana": "フクオカケン",
    "prefecture_code": 40,
    "city": "糟屋郡粕屋町",
    "city_kana": "カスヤグンカスヤマチ",
    "town": "酒殿",
    "town_kana": "サカド",
    "street": null,
    "office_name": null,
    "office_name_kana": null
  },
  "2304": {
    "zip_code": "8112304",
    "prefecture": "福岡県",
    "prefecture_kana": "フクオカケン",
    "prefecture_code": 40,
    "city": "糟屋郡粕屋町",
    "city_kana": "カスヤグンカスヤマチ",
    "town": "仲原",
    "town_kana": "ナカバル",
    "street": null,
    "office_name": null,
    "office_name_kana": null
  },
  "2305": {
    "zip_code": "8112305",
    "prefecture": "福岡県",
    "prefecture_kana": "フクオカケン",
    "prefecture_code": 40,
    "city": "糟屋郡粕屋町",
    "city_kana": "カスヤグンカスヤマチ",
    "town": "柚須",
    "town_kana": "ユス",
    "street": null,
    "office_name": null,
    "office_name_kana": null
  },
  "2306": {
    "zip_code": "8112306",
    "prefecture": "福岡県",
    "prefecture_kana": "フクオカケン",
    "prefecture_code": 40,
    "city": "糟屋郡粕屋町",
    "city_kana": "カスヤグンカスヤマチ",
    "town": "阿恵",
    "town_kana": "アエ",
    "street": null,
    "office_name": null,
    "office_name_kana": null
  },
  "2307": {
    "zip_code": "8112307",
    "prefecture": "福岡県",
    "prefecture_kana": "フクオカケン",
    "prefecture_code": 40,
    "city": "糟屋郡粕屋町",
    "city_kana": "カスヤグンカスヤマチ",
    "town": "原町",
    "town_kana": "ハルマチ",
    "street": null,
    "office_name": null,
    "office_name_kana": null
  },
  "2308": {
    "zip_code": "8112308",
    "prefecture": "福岡県",
    "prefecture_kana": "フクオカケン",
    "prefecture_code": 40,
    "city": "糟屋郡粕屋町",
    "city_kana": "カスヤグンカスヤマチ",
    "town": "内橋",
    "town_kana": "ウチハシ",
    "street": null,
    "office_name": null,
    "office_name_kana": null
  },
  "2309": {
    "zip_code": "8112309",
    "prefecture": "福岡県",
    "prefecture_kana": "フクオカケン",
    "prefecture_code": 40,
    "city": "糟屋郡粕屋町",
    "city_kana": "カスヤグンカスヤマチ",
    "town": "駕与丁",
    "town_kana": "カヨイチョウ",
    "street": null,
    "office_name": null,
    "office_name_kana": null
  },
  "2310": {
    "zip_code": "8112310",
    "prefecture": "福岡県",
    "prefecture_kana": "フクオカケン",
    "prefecture_code": 40,
    "city": "糟屋郡粕屋町",
    "city_kana": "カスヤグンカスヤマチ",
    "town": "花ヶ浦",
    "town_kana": "ハナガウラ",
    "street": null,
    "office_name": null,
    "office_name_kana": null
  },
  "2311": {
    "zip_code": "8112311",
    "prefecture": "福岡県",
    "prefecture_kana": "フクオカケン",
    "prefecture_code": 40,
    "city": "糟屋郡粕屋町",
    "city_kana": "カスヤグンカスヤマチ",
    "town": "長者原",
    "town_kana": "チョウジャバル",
    "street": null,
    "office_name": null,
    "office_name_kana": null
  },
  "2312": {
    "zip_code": "8112312",
    "prefecture": "福岡県",
    "prefecture_kana": "フクオカケン",
    "prefecture_code": 40,
    "city": "糟屋郡粕屋町",
    "city_kana": "カスヤグンカスヤマチ",
    "town": "戸原",
    "town_kana": "トバラ",
    "street": null,
    "office_name": null,
    "office_name_kana": null
  },
  "2313": {
    "zip_code": "8112313",
    "prefecture": "福岡県",
    "prefecture_kana": "フクオカケン",
    "prefecture_code": 40,
    "city": "糟屋郡粕屋町",
    "city_kana": "カスヤグンカスヤマチ",
    "town": "江辻",
    "town_kana": "エツジ",
    "street": null,
    "office_name": null,
    "office_name_kana": null
  },
  "2314": {
    "zip_code": "8112314",
    "prefecture": "福岡県",
    "prefecture_kana": "フクオカケン",
    "prefecture_code": 40,
    "city": "糟屋郡粕屋町",
    "city_kana": "カスヤグンカスヤマチ",
    "town": "若宮",
    "town_kana": "ワカミヤ",
    "street": null,
    "office_name": null,
    "office_name_kana": null
  },
  "2315": {
    "zip_code": "8112315",
    "prefecture": "福岡県",
    "prefecture_kana": "フクオカケン",
    "prefecture_code": 40,
    "city": "糟屋郡粕屋町",
    "city_kana": "カスヤグンカスヤマチ",
    "town": "甲仲原",
    "town_kana": "コウナカバル",
    "street": null,
    "office_name": null,
    "office_name_kana": null
  },
  "2316": {
    "zip_code": "8112316",
    "prefecture": "福岡県",
    "prefecture_kana": "フクオカケン",
    "prefecture_code": 40,
    "city": "糟屋郡粕屋町",
    "city_kana": "カスヤグンカスヤマチ",
    "town": "長者原西",
    "town_kana": "チョウジャバルニシ",
    "street": null,
    "office_name": null,
    "office_name_kana": null
  },
  "2317": {
    "zip_code": "8112317",
    "prefecture": "福岡県",
    "prefecture_kana": "フクオカケン",
    "prefecture_code": 40,
    "city": "糟屋郡粕屋町",
    "city_kana": "カスヤグンカスヤマチ",
    "town": "長者原東",
    "town_kana": "チョウジャバルヒガシ",
    "street": null,
    "office_name": null,
    "office_name_kana": null
  },
  "2318": {
    "zip_code": "8112318",
    "prefecture": "福岡県",
    "prefecture_kana": "フクオカケン",
    "prefecture_code": 40,
    "city": "糟屋郡粕屋町",
    "city_kana": "カスヤグンカスヤマチ",
    "town": "戸原東",
    "town_kana": "トバラヒガシ",
    "street": null,
    "office_name": null,
    "office_name_kana": null
  },
  "2392": {
    "zip_code": "8112392",
    "prefecture": "福岡県",
    "prefecture_kana": "フクオカケン",
    "prefecture_code": 40,
    "city": "糟屋郡粕屋町",
    "city_kana": "カスヤグンカスヤマチ",
    "town": "駕与丁",
    "town_kana": "カヨイチョウ",
    "street": "１丁目１番１号",
    "office_name": "粕屋町役場",
    "office_name_kana": "カスヤマチヤクバ"
  },
  "2395": {
    "zip_code": "8112395",
    "prefecture": "福岡県",
    "prefecture_kana": "フクオカケン",
    "prefecture_code": 40,
    "city": "糟屋郡粕屋町",
    "city_kana": "カスヤグンカスヤマチ",
    "town": "甲仲原",
    "town_kana": "コウナカバル",
    "street": "４丁目４番１号",
    "office_name": "佐川グローバルロジスティクス　株式会社",
    "office_name_kana": "サガワグロ-バルロジステイクス カブシキガイシヤ"
  },
  "2398": {
    "zip_code": "8112398",
    "prefecture": "福岡県",
    "prefecture_kana": null,
    "prefecture_code": null,
    "city": "糟屋郡粕屋町",
    "city_kana": null,
    "town": "大字柚須",
    "town_kana": null,
    "street": "９４",
    "office_name": "株式会社　ゼネラルアサヒ",
    "office_name_kana": "カブシキガイシヤ ゼネラルアサヒ"
  },
  "2400": {
    "zip_code": "8112400",
    "prefecture": "福岡県",
    "prefecture_kana": "フクオカケン",
    "prefecture_code": 40,
    "city": "糟屋郡篠栗町",
    "city_kana": "カスヤグンササグリマチ",
    "town": "",
    "town_kana": "",
    "street": null,
    "office_name": null,
    "office_name_kana": null
  },
  "2401": {
    "zip_code": "8112401",
    "prefecture": "福岡県",
    "prefecture_kana": "フクオカケン",
    "prefecture_code": 40,
    "city": "糟屋郡篠栗町",
    "city_kana": "カスヤグンササグリマチ",
    "town": "高田",
    "town_kana": "タカタ",
    "street": null,
    "office_name": null,
    "office_name_kana": null
  },
  "2402": {
    "zip_code": "8112402",
    "prefecture": "福岡県",
    "prefecture_kana": "フクオカケン",
    "prefecture_code": 40,
    "city": "糟屋郡篠栗町",
    "city_kana": "カスヤグンササグリマチ",
    "town": "金出",
    "town_kana": "カナイデ",
    "street": null,
    "office_name": null,
    "office_name_kana": null
  },
  "2403": {
    "zip_code": "8112403",
    "prefecture": "福岡県",
    "prefecture_kana": "フクオカケン",
    "prefecture_code": 40,
    "city": "糟屋郡篠栗町",
    "city_kana": "カスヤグンササグリマチ",
    "town": "萩尾",
    "town_kana": "ハギノウ",
    "street": null,
    "office_name": null,
    "office_name_kana": null
  },
  "2404": {
    "zip_code": "8112404",
    "prefecture": "福岡県",
    "prefecture_kana": "フクオカケン",
    "prefecture_code": 40,
    "city": "糟屋郡篠栗町",
    "city_kana": "カスヤグンササグリマチ",
    "town": "内住",
    "town_kana": "ナイジュウ",
    "street": null,
    "office_name": null,
    "office_name_kana": null
  },
  "2405": {
    "zip_code": "8112405",
    "prefecture": "福岡県",
    "prefecture_kana": "フクオカケン",
    "prefecture_code": 40,
    "city": "糟屋郡篠栗町",
    "city_kana": "カスヤグンササグリマチ",
    "town": "篠栗",
    "town_kana": "ササグリ",
    "street": null,
    "office_name": null,
    "office_name_kana": null
  },
  "2411": {
    "zip_code": "8112411",
    "prefecture": "福岡県",
    "prefecture_kana": "フクオカケン",
    "prefecture_code": 40,
    "city": "糟屋郡篠栗町",
    "city_kana": "カスヤグンササグリマチ",
    "town": "若杉",
    "town_kana": "ワカスギ",
    "street": null,
    "office_name": null,
    "office_name_kana": null
  },
  "2412": {
    "zip_code": "8112412",
    "prefecture": "福岡県",
    "prefecture_kana": "フクオカケン",
    "prefecture_code": 40,
    "city": "糟屋郡篠栗町",
    "city_kana": "カスヤグンササグリマチ",
    "town": "乙犬",
    "town_kana": "オトイヌ",
    "street": null,
    "office_name": null,
    "office_name_kana": null
  },
  "2413": {
    "zip_code": "8112413",
    "prefecture": "福岡県",
    "prefecture_kana": "フクオカケン",
    "prefecture_code": 40,
    "city": "糟屋郡篠栗町",
    "city_kana": "カスヤグンササグリマチ",
    "town": "尾仲",
    "town_kana": "オナカ",
    "street": null,
    "office_name": null,
    "office_name_kana": null
  },
  "2414": {
    "zip_code": "8112414",
    "prefecture": "福岡県",
    "prefecture_kana": "フクオカケン",
    "prefecture_code": 40,
    "city": "糟屋郡篠栗町",
    "city_kana": "カスヤグンササグリマチ",
    "town": "和田",
    "town_kana": "ワダ",
    "street": null,
    "office_name": null,
    "office_name_kana": null
  },
  "2415": {
    "zip_code": "8112415",
    "prefecture": "福岡県",
    "prefecture_kana": "フクオカケン",
    "prefecture_code": 40,
    "city": "糟屋郡篠栗町",
    "city_kana": "カスヤグンササグリマチ",
    "town": "津波黒",
    "town_kana": "ツバクロ",
    "street": null,
    "office_name": null,
    "office_name_kana": null
  },
  "2416": {
    "zip_code": "8112416",
    "prefecture": "福岡県",
    "prefecture_kana": "フクオカケン",
    "prefecture_code": 40,
    "city": "糟屋郡篠栗町",
    "city_kana": "カスヤグンササグリマチ",
    "town": "田中",
    "town_kana": "タナカ",
    "street": null,
    "office_name": null,
    "office_name_kana": null
  },
  "2492": {
    "zip_code": "8112492",
    "prefecture": "福岡県",
    "prefecture_kana": null,
    "prefecture_code": null,
    "city": "糟屋郡篠栗町",
    "city_kana": null,
    "town": "大字篠栗",
    "town_kana": null,
    "street": "４８５５−５",
    "office_name": "篠栗町役場",
    "office_name_kana": "ササグリマチヤクバ"
  },
  "2495": {
    "zip_code": "8112495",
    "prefecture": "福岡県",
    "prefecture_kana": null,
    "prefecture_code": null,
    "city": "糟屋郡篠栗町",
    "city_kana": null,
    "town": "大字篠栗",
    "town_kana": null,
    "street": "４８２６−１",
    "office_name": "エフコープ　生活協同組合",
    "office_name_kana": "エフコ-プ セイカツキヨウドウクミアイ"
  },
  "2496": {
    "zip_code": "8112496",
    "prefecture": "福岡県",
    "prefecture_kana": null,
    "prefecture_code": null,
    "city": "糟屋郡篠栗町",
    "city_kana": null,
    "town": "大字篠栗",
    "town_kana": null,
    "street": "４８２６−１",
    "office_name": "生活協同組合連合会　コープ九州事業連合",
    "office_name_kana": "セイカツキヨウドウクミアイレンゴウカイ コ-プキユウシユウジギヨウレンゴウ"
  },
  "2500": {
    "zip_code": "8112500",
    "prefecture": "福岡県",
    "prefecture_kana": "フクオカケン",
    "prefecture_code": 40,
    "city": "糟屋郡久山町",
    "city_kana": "カスヤグンヒサヤママチ",
    "town": "",
    "town_kana": "",
    "street": null,
    "office_name": null,
    "office_name_kana": null
  },
  "2501": {
    "zip_code": "8112501",
    "prefecture": "福岡県",
    "prefecture_kana": "フクオカケン",
    "prefecture_code": 40,
    "city": "糟屋郡久山町",
    "city_kana": "カスヤグンヒサヤママチ",
    "town": "久原",
    "town_kana": "クバラ",
    "street": null,
    "office_name": null,
    "office_name_kana": null
  },
  "2502": {
    "zip_code": "8112502",
    "prefecture": "福岡県",
    "prefecture_kana": "フクオカケン",
    "prefecture_code": 40,
    "city": "糟屋郡久山町",
    "city_kana": "カスヤグンヒサヤママチ",
    "town": "山田",
    "town_kana": "ヤマダ",
    "street": null,
    "office_name": null,
    "office_name_kana": null
  },
  "2503": {
    "zip_code": "8112503",
    "prefecture": "福岡県",
    "prefecture_kana": "フクオカケン",
    "prefecture_code": 40,
    "city": "糟屋郡久山町",
    "city_kana": "カスヤグンヒサヤママチ",
    "town": "猪野",
    "town_kana": "イノ",
    "street": null,
    "office_name": null,
    "office_name_kana": null
  },
  "2592": {
    "zip_code": "8112592",
    "prefecture": "福岡県",
    "prefecture_kana": null,
    "prefecture_code": null,
    "city": "糟屋郡久山町",
    "city_kana": null,
    "town": "大字久原",
    "town_kana": null,
    "street": "３６３２",
    "office_name": "久山町役場",
    "office_name_kana": "ヒサヤママチヤクバ"
  },
  "3100": {
    "zip_code": "8113100",
    "prefecture": "福岡県",
    "prefecture_kana": "フクオカケン",
    "prefecture_code": 40,
    "city": "古賀市",
    "city_kana": "コガシ",
    "town": "",
    "town_kana": "",
    "street": null,
    "office_name": null,
    "office_name_kana": null
  },
  "3101": {
    "zip_code": "8113101",
    "prefecture": "福岡県",
    "prefecture_kana": "フクオカケン",
    "prefecture_code": 40,
    "city": "古賀市",
    "city_kana": "コガシ",
    "town": "天神",
    "town_kana": "テンジン",
    "street": null,
    "office_name": null,
    "office_name_kana": null
  },
  "3102": {
    "zip_code": "8113102",
    "prefecture": "福岡県",
    "prefecture_kana": "フクオカケン",
    "prefecture_code": 40,
    "city": "古賀市",
    "city_kana": "コガシ",
    "town": "駅東",
    "town_kana": "エキヒガシ",
    "street": null,
    "office_name": null,
    "office_name_kana": null
  },
  "3103": {
    "zip_code": "8113103",
    "prefecture": "福岡県",
    "prefecture_kana": "フクオカケン",
    "prefecture_code": 40,
    "city": "古賀市",
    "city_kana": "コガシ",
    "town": "中央",
    "town_kana": "チュウオウ",
    "street": null,
    "office_name": null,
    "office_name_kana": null
  },
  "3104": {
    "zip_code": "8113104",
    "prefecture": "福岡県",
    "prefecture_kana": "フクオカケン",
    "prefecture_code": 40,
    "city": "古賀市",
    "city_kana": "コガシ",
    "town": "花鶴丘",
    "town_kana": "カヅルガオカ",
    "street": null,
    "office_name": null,
    "office_name_kana": null
  },
  "3105": {
    "zip_code": "8113105",
    "prefecture": "福岡県",
    "prefecture_kana": "フクオカケン",
    "prefecture_code": 40,
    "city": "古賀市",
    "city_kana": "コガシ",
    "town": "鹿部",
    "town_kana": "シシブ",
    "street": null,
    "office_name": null,
    "office_name_kana": null
  },
  "3106": {
    "zip_code": "8113106",
    "prefecture": "福岡県",
    "prefecture_kana": "フクオカケン",
    "prefecture_code": 40,
    "city": "古賀市",
    "city_kana": "コガシ",
    "town": "日吉",
    "town_kana": "ヒヨシ",
    "street": null,
    "office_name": null,
    "office_name_kana": null
  },
  "3107": {
    "zip_code": "8113107",
    "prefecture": "福岡県",
    "prefecture_kana": "フクオカケン",
    "prefecture_code": 40,
    "city": "古賀市",
    "city_kana": "コガシ",
    "town": "美明",
    "town_kana": "ミアケ",
    "street": null,
    "office_name": null,
    "office_name_kana": null
  },
  "3111": {
    "zip_code": "8113111",
    "prefecture": "福岡県",
    "prefecture_kana": "フクオカケン",
    "prefecture_code": 40,
    "city": "古賀市",
    "city_kana": "コガシ",
    "town": "花見南",
    "town_kana": "ハナミミナミ",
    "street": null,
    "office_name": null,
    "office_name_kana": null
  },
  "3112": {
    "zip_code": "8113112",
    "prefecture": "福岡県",
    "prefecture_kana": "フクオカケン",
    "prefecture_code": 40,
    "city": "古賀市",
    "city_kana": "コガシ",
    "town": "花見東",
    "town_kana": "ハナミヒガシ",
    "street": null,
    "office_name": null,
    "office_name_kana": null
  },
  "3113": {
    "zip_code": "8113113",
    "prefecture": "福岡県",
    "prefecture_kana": "フクオカケン",
    "prefecture_code": 40,
    "city": "古賀市",
    "city_kana": "コガシ",
    "town": "千鳥",
    "town_kana": "チドリ",
    "street": null,
    "office_name": null,
    "office_name_kana": null
  },
  "3114": {
    "zip_code": "8113114",
    "prefecture": "福岡県",
    "prefecture_kana": "フクオカケン",
    "prefecture_code": 40,
    "city": "古賀市",
    "city_kana": "コガシ",
    "town": "舞の里",
    "town_kana": "マイノサト",
    "street": null,
    "office_name": null,
    "office_name_kana": null
  },
  "3115": {
    "zip_code": "8113115",
    "prefecture": "福岡県",
    "prefecture_kana": "フクオカケン",
    "prefecture_code": 40,
    "city": "古賀市",
    "city_kana": "コガシ",
    "town": "久保",
    "town_kana": "クボ",
    "street": null,
    "office_name": null,
    "office_name_kana": null
  },
  "3116": {
    "zip_code": "8113116",
    "prefecture": "福岡県",
    "prefecture_kana": "フクオカケン",
    "prefecture_code": 40,
    "city": "古賀市",
    "city_kana": "コガシ",
    "town": "庄",
    "town_kana": "ショウ",
    "street": null,
    "office_name": null,
    "office_name_kana": null
  },
  "3117": {
    "zip_code": "8113117",
    "prefecture": "福岡県",
    "prefecture_kana": "フクオカケン",
    "prefecture_code": 40,
    "city": "古賀市",
    "city_kana": "コガシ",
    "town": "今の庄",
    "town_kana": "イマノショウ",
    "street": null,
    "office_name": null,
    "office_name_kana": null
  },
  "3118": {
    "zip_code": "8113118",
    "prefecture": "福岡県",
    "prefecture_kana": "フクオカケン",
    "prefecture_code": 40,
    "city": "古賀市",
    "city_kana": "コガシ",
    "town": "新久保",
    "town_kana": "シンクボ",
    "street": null,
    "office_name": null,
    "office_name_kana": null
  },
  "3121": {
    "zip_code": "8113121",
    "prefecture": "福岡県",
    "prefecture_kana": "フクオカケン",
    "prefecture_code": 40,
    "city": "古賀市",
    "city_kana": "コガシ",
    "town": "筵内",
    "town_kana": "ムシロウチ",
    "street": null,
    "office_name": null,
    "office_name_kana": null
  },
  "3122": {
    "zip_code": "8113122",
    "prefecture": "福岡県",
    "prefecture_kana": "フクオカケン",
    "prefecture_code": 40,
    "city": "古賀市",
    "city_kana": "コガシ",
    "town": "薦野",
    "town_kana": "コモノ",
    "street": null,
    "office_name": null,
    "office_name_kana": null
  },
  "3123": {
    "zip_code": "8113123",
    "prefecture": "福岡県",
    "prefecture_kana": "フクオカケン",
    "prefecture_code": 40,
    "city": "古賀市",
    "city_kana": "コガシ",
    "town": "米多比",
    "town_kana": "ネタビ",
    "street": null,
    "office_name": null,
    "office_name_kana": null
  },
  "3124": {
    "zip_code": "8113124",
    "prefecture": "福岡県",
    "prefecture_kana": "フクオカケン",
    "prefecture_code": 40,
    "city": "古賀市",
    "city_kana": "コガシ",
    "town": "薬王寺",
    "town_kana": "ヤクオウジ",
    "street": null,
    "office_name": null,
    "office_name_kana": null
  },
  "3125": {
    "zip_code": "8113125",
    "prefecture": "福岡県",
    "prefecture_kana": "フクオカケン",
    "prefecture_code": 40,
    "city": "古賀市",
    "city_kana": "コガシ",
    "town": "谷山",
    "town_kana": "タニヤマ",
    "street": null,
    "office_name": null,
    "office_name_kana": null
  },
  "3126": {
    "zip_code": "8113126",
    "prefecture": "福岡県",
    "prefecture_kana": "フクオカケン",
    "prefecture_code": 40,
    "city": "古賀市",
    "city_kana": "コガシ",
    "town": "小山田",
    "town_kana": "オヤマダ",
    "street": null,
    "office_name": null,
    "office_name_kana": null
  },
  "3127": {
    "zip_code": "8113127",
    "prefecture": "福岡県",
    "prefecture_kana": "フクオカケン",
    "prefecture_code": 40,
    "city": "古賀市",
    "city_kana": "コガシ",
    "town": "新原",
    "town_kana": "シンバル",
    "street": null,
    "office_name": null,
    "office_name_kana": null
  },
  "3131": {
    "zip_code": "8113131",
    "prefecture": "福岡県",
    "prefecture_kana": "フクオカケン",
    "prefecture_code": 40,
    "city": "古賀市",
    "city_kana": "コガシ",
    "town": "今在家",
    "town_kana": "イマザイケ",
    "street": null,
    "office_name": null,
    "office_name_kana": null
  },
  "3132": {
    "zip_code": "8113132",
    "prefecture": "福岡県",
    "prefecture_kana": "フクオカケン",
    "prefecture_code": 40,
    "city": "古賀市",
    "city_kana": "コガシ",
    "town": "川原",
    "town_kana": "カワバル",
    "street": null,
    "office_name": null,
    "office_name_kana": null
  },
  "3133": {
    "zip_code": "8113133",
    "prefecture": "福岡県",
    "prefecture_kana": "フクオカケン",
    "prefecture_code": 40,
    "city": "古賀市",
    "city_kana": "コガシ",
    "town": "青柳町",
    "town_kana": "アオヤギマチ",
    "street": null,
    "office_name": null,
    "office_name_kana": null
  },
  "3134": {
    "zip_code": "8113134",
    "prefecture": "福岡県",
    "prefecture_kana": "フクオカケン",
    "prefecture_code": 40,
    "city": "古賀市",
    "city_kana": "コガシ",
    "town": "青柳",
    "town_kana": "アオヤギ",
    "street": null,
    "office_name": null,
    "office_name_kana": null
  },
  "3135": {
    "zip_code": "8113135",
    "prefecture": "福岡県",
    "prefecture_kana": "フクオカケン",
    "prefecture_code": 40,
    "city": "古賀市",
    "city_kana": "コガシ",
    "town": "小竹",
    "town_kana": "オダケ",
    "street": null,
    "office_name": null,
    "office_name_kana": null
  },
  "3136": {
    "zip_code": "8113136",
    "prefecture": "福岡県",
    "prefecture_kana": "フクオカケン",
    "prefecture_code": 40,
    "city": "古賀市",
    "city_kana": "コガシ",
    "town": "糸ケ浦",
    "town_kana": "イトガウラ",
    "street": null,
    "office_name": null,
    "office_name_kana": null
  },
  "3137": {
    "zip_code": "8113137",
    "prefecture": "福岡県",
    "prefecture_kana": "フクオカケン",
    "prefecture_code": 40,
    "city": "古賀市",
    "city_kana": "コガシ",
    "town": "古賀",
    "town_kana": "コガ",
    "street": null,
    "office_name": null,
    "office_name_kana": null
  },
  "3192": {
    "zip_code": "8113192",
    "prefecture": "福岡県",
    "prefecture_kana": "フクオカケン",
    "prefecture_code": 40,
    "city": "古賀市",
    "city_kana": "コガシ",
    "town": "駅東",
    "town_kana": "エキヒガシ",
    "street": "１丁目１−１",
    "office_name": "古賀市役所",
    "office_name_kana": "コガシヤクシヨ"
  },
  "3193": {
    "zip_code": "8113193",
    "prefecture": "福岡県",
    "prefecture_kana": "フクオカケン",
    "prefecture_code": 40,
    "city": "古賀市",
    "city_kana": "コガシ",
    "town": "駅東",
    "town_kana": "エキヒガシ",
    "street": "３丁目３−１（古賀郵便局私書箱第１号）",
    "office_name": "西部電機　株式会社",
    "office_name_kana": "セイブデンキ カブシキガイシヤ"
  },
  "3195": {
    "zip_code": "8113195",
    "prefecture": "福岡県",
    "prefecture_kana": "フクオカケン",
    "prefecture_code": 40,
    "city": "古賀市",
    "city_kana": "コガシ",
    "town": "千鳥",
    "town_kana": "チドリ",
    "street": "１丁目１−１",
    "office_name": "国立病院機構　福岡東医療センタ−",
    "office_name_kana": "コクリツビヨウインキコウ フクオカヒガシイリヨウセンタ-"
  },
  "3197": {
    "zip_code": "8113197",
    "prefecture": "福岡県",
    "prefecture_kana": "フクオカケン",
    "prefecture_code": 40,
    "city": "古賀市",
    "city_kana": "コガシ",
    "town": "天神",
    "town_kana": "テンジン",
    "street": "３丁目２０−１（古賀郵便局私書箱第２号）",
    "office_name": "株式会社　正興電機製作所",
    "office_name_kana": "カブシキガイシヤ セイコウデンキセイサクシヨ"
  },
  "3198": {
    "zip_code": "8113198",
    "prefecture": "福岡県",
    "prefecture_kana": "フクオカケン",
    "prefecture_code": 40,
    "city": "古賀市",
    "city_kana": "コガシ",
    "town": "古賀",
    "town_kana": "コガ",
    "street": "６９",
    "office_name": "山崎製パン　株式会社　福岡工場",
    "office_name_kana": "ヤマサキセイパン カブシキガイシヤ フクオカコウジヨウ"
  },
  "3200": {
    "zip_code": "8113200",
    "prefecture": "福岡県",
    "prefecture_kana": "フクオカケン",
    "prefecture_code": 40,
    "city": "福津市",
    "city_kana": "フクツシ",
    "town": "",
    "town_kana": "",
    "street": null,
    "office_name": null,
    "office_name_kana": null
  },
  "3201": {
    "zip_code": "8113201",
    "prefecture": "福岡県",
    "prefecture_kana": "フクオカケン",
    "prefecture_code": 40,
    "city": "福津市",
    "city_kana": "フクツシ",
    "town": "八並",
    "town_kana": "ヤツナミ",
    "street": null,
    "office_name": null,
    "office_name_kana": null
  },
  "3202": {
    "zip_code": "8113202",
    "prefecture": "福岡県",
    "prefecture_kana": "フクオカケン",
    "prefecture_code": 40,
    "city": "福津市",
    "city_kana": "フクツシ",
    "town": "畦町",
    "town_kana": "アゼマチ",
    "street": null,
    "office_name": null,
    "office_name_kana": null
  },
  "3203": {
    "zip_code": "8113203",
    "prefecture": "福岡県",
    "prefecture_kana": "フクオカケン",
    "prefecture_code": 40,
    "city": "福津市",
    "city_kana": "フクツシ",
    "town": "本木",
    "town_kana": "モトギ",
    "street": null,
    "office_name": null,
    "office_name_kana": null
  },
  "3204": {
    "zip_code": "8113204",
    "prefecture": "福岡県",
    "prefecture_kana": "フクオカケン",
    "prefecture_code": 40,
    "city": "福津市",
    "city_kana": "フクツシ",
    "town": "舎利蔵",
    "town_kana": "シャリクラ",
    "street": null,
    "office_name": null,
    "office_name_kana": null
  },
  "3205": {
    "zip_code": "8113205",
    "prefecture": "福岡県",
    "prefecture_kana": "フクオカケン",
    "prefecture_code": 40,
    "city": "福津市",
    "city_kana": "フクツシ",
    "town": "内殿",
    "town_kana": "ウチドノ",
    "street": null,
    "office_name": null,
    "office_name_kana": null
  },
  "3206": {
    "zip_code": "8113206",
    "prefecture": "福岡県",
    "prefecture_kana": "フクオカケン",
    "prefecture_code": 40,
    "city": "福津市",
    "city_kana": "フクツシ",
    "town": "久末",
    "town_kana": "ヒサスエ",
    "street": null,
    "office_name": null,
    "office_name_kana": null
  },
  "3207": {
    "zip_code": "8113207",
    "prefecture": "福岡県",
    "prefecture_kana": "フクオカケン",
    "prefecture_code": 40,
    "city": "福津市",
    "city_kana": "フクツシ",
    "town": "上西郷",
    "town_kana": "カミサイゴウ",
    "street": null,
    "office_name": null,
    "office_name_kana": null
  },
  "3208": {
    "zip_code": "8113208",
    "prefecture": "福岡県",
    "prefecture_kana": "フクオカケン",
    "prefecture_code": 40,
    "city": "福津市",
    "city_kana": "フクツシ",
    "town": "福間駅東",
    "town_kana": "フクマエキヒガシ",
    "street": null,
    "office_name": null,
    "office_name_kana": null
  },
  "3209": {
    "zip_code": "8113209",
    "prefecture": "福岡県",
    "prefecture_kana": "フクオカケン",
    "prefecture_code": 40,
    "city": "福津市",
    "city_kana": "フクツシ",
    "town": "日蒔野",
    "town_kana": "ヒマキノ",
    "street": null,
    "office_name": null,
    "office_name_kana": null
  },
  "3211": {
    "zip_code": "8113211",
    "prefecture": "福岡県",
    "prefecture_kana": "フクオカケン",
    "prefecture_code": 40,
    "city": "福津市",
    "city_kana": "フクツシ",
    "town": "有弥の里",
    "town_kana": "ユミノサト",
    "street": null,
    "office_name": null,
    "office_name_kana": null
  },
  "3212": {
    "zip_code": "8113212",
    "prefecture": "福岡県",
    "prefecture_kana": "フクオカケン",
    "prefecture_code": 40,
    "city": "福津市",
    "city_kana": "フクツシ",
    "town": "福間南",
    "town_kana": "フクマミナミ",
    "street": null,
    "office_name": null,
    "office_name_kana": null
  },
  "3213": {
    "zip_code": "8113213",
    "prefecture": "福岡県",
    "prefecture_kana": "フクオカケン",
    "prefecture_code": 40,
    "city": "福津市",
    "city_kana": "フクツシ",
    "town": "",
    "town_kana": "",
    "street": null,
    "office_name": null,
    "office_name_kana": null
  },
  "3214": {
    "zip_code": "8113214",
    "prefecture": "福岡県",
    "prefecture_kana": "フクオカケン",
    "prefecture_code": 40,
    "city": "福津市",
    "city_kana": "フクツシ",
    "town": "花見が丘",
    "town_kana": "ハナミガオカ",
    "street": null,
    "office_name": null,
    "office_name_kana": null
  },
  "3215": {
    "zip_code": "8113215",
    "prefecture": "福岡県",
    "prefecture_kana": "フクオカケン",
    "prefecture_code": 40,
    "city": "福津市",
    "city_kana": "フクツシ",
    "town": "花見の里",
    "town_kana": "ハナミノサト",
    "street": null,
    "office_name": null,
    "office_name_kana": null
  },
  "3216": {
    "zip_code": "8113216",
    "prefecture": "福岡県",
    "prefecture_kana": "フクオカケン",
    "prefecture_code": 40,
    "city": "福津市",
    "city_kana": "フクツシ",
    "town": "花見が浜",
    "town_kana": "ハナミガハマ",
    "street": null,
    "office_name": null,
    "office_name_kana": null
  },
  "3217": {
    "zip_code": "8113217",
    "prefecture": "福岡県",
    "prefecture_kana": "フクオカケン",
    "prefecture_code": 40,
    "city": "福津市",
    "city_kana": "フクツシ",
    "town": "中央",
    "town_kana": "チュウオウ",
    "street": null,
    "office_name": null,
    "office_name_kana": null
  },
  "3218": {
    "zip_code": "8113218",
    "prefecture": "福岡県",
    "prefecture_kana": "フクオカケン",
    "prefecture_code": 40,
    "city": "福津市",
    "city_kana": "フクツシ",
    "town": "手光南",
    "town_kana": "テビカミナミ",
    "street": null,
    "office_name": null,
    "office_name_kana": null
  },
  "3219": {
    "zip_code": "8113219",
    "prefecture": "福岡県",
    "prefecture_kana": "フクオカケン",
    "prefecture_code": 40,
    "city": "福津市",
    "city_kana": "フクツシ",
    "town": "西福間",
    "town_kana": "ニシフクマ",
    "street": null,
    "office_name": null,
    "office_name_kana": null
  },
  "3220": {
    "zip_code": "8113220",
    "prefecture": "福岡県",
    "prefecture_kana": "フクオカケン",
    "prefecture_code": 40,
    "city": "福津市",
    "city_kana": "フクツシ",
    "town": "あけぼの",
    "town_kana": "アケボノ",
    "street": null,
    "office_name": null,
    "office_name_kana": null
  },
  "3221": {
    "zip_code": "8113221",
    "prefecture": "福岡県",
    "prefecture_kana": "フクオカケン",
    "prefecture_code": 40,
    "city": "福津市",
    "city_kana": "フクツシ",
    "town": "若木台",
    "town_kana": "ワカギダイ",
    "street": null,
    "office_name": null,
    "office_name_kana": null
  },
  "3222": {
    "zip_code": "8113222",
    "prefecture": "福岡県",
    "prefecture_kana": "フクオカケン",
    "prefecture_code": 40,
    "city": "福津市",
    "city_kana": "フクツシ",
    "town": "津丸",
    "town_kana": "ツマル",
    "street": null,
    "office_name": null,
    "office_name_kana": null
  },
  "3223": {
    "zip_code": "8113223",
    "prefecture": "福岡県",
    "prefecture_kana": "フクオカケン",
    "prefecture_code": 40,
    "city": "福津市",
    "city_kana": "フクツシ",
    "town": "光陽台",
    "town_kana": "コウヨウダイ",
    "street": null,
    "office_name": null,
    "office_name_kana": null
  },
  "3224": {
    "zip_code": "8113224",
    "prefecture": "福岡県",
    "prefecture_kana": "フクオカケン",
    "prefecture_code": 40,
    "city": "福津市",
    "city_kana": "フクツシ",
    "town": "手光",
    "town_kana": "テビカ",
    "street": null,
    "office_name": null,
    "office_name_kana": null
  },
  "3225": {
    "zip_code": "8113225",
    "prefecture": "福岡県",
    "prefecture_kana": "フクオカケン",
    "prefecture_code": 40,
    "city": "福津市",
    "city_kana": "フクツシ",
    "town": "東福間",
    "town_kana": "ヒガシフクマ",
    "street": null,
    "office_name": null,
    "office_name_kana": null
  },
  "3226": {
    "zip_code": "8113226",
    "prefecture": "福岡県",
    "prefecture_kana": "フクオカケン",
    "prefecture_code": 40,
    "city": "福津市",
    "city_kana": "フクツシ",
    "town": "小竹",
    "town_kana": "オダケ",
    "street": null,
    "office_name": null,
    "office_name_kana": null
  },
  "3227": {
    "zip_code": "8113227",
    "prefecture": "福岡県",
    "prefecture_kana": "フクオカケン",
    "prefecture_code": 40,
    "city": "福津市",
    "city_kana": "フクツシ",
    "town": "高平",
    "town_kana": "タカヒラ",
    "street": null,
    "office_name": null,
    "office_name_kana": null
  },
  "3228": {
    "zip_code": "8113228",
    "prefecture": "福岡県",
    "prefecture_kana": "フクオカケン",
    "prefecture_code": 40,
    "city": "福津市",
    "city_kana": "フクツシ",
    "town": "光陽台南",
    "town_kana": "コウヨウダイミナミ",
    "street": null,
    "office_name": null,
    "office_name_kana": null
  },
  "3229": {
    "zip_code": "8113229",
    "prefecture": "福岡県",
    "prefecture_kana": "フクオカケン",
    "prefecture_code": 40,
    "city": "福津市",
    "city_kana": "フクツシ",
    "town": "桜川",
    "town_kana": "サクラガワ",
    "street": null,
    "office_name": null,
    "office_name_kana": null
  },
  "3293": {
    "zip_code": "8113293",
    "prefecture": "福岡県",
    "prefecture_kana": "フクオカケン",
    "prefecture_code": 40,
    "city": "福津市",
    "city_kana": "フクツシ",
    "town": "中央",
    "town_kana": "チュウオウ",
    "street": "１丁目１−１",
    "office_name": "福津市役所",
    "office_name_kana": "フクツシヤクシヨ"
  },
  "3295": {
    "zip_code": "8113295",
    "prefecture": "福岡県",
    "prefecture_kana": "フクオカケン",
    "prefecture_code": 40,
    "city": "福津市",
    "city_kana": "フクツシ",
    "town": "花見が浜",
    "town_kana": "ハナミガハマ",
    "street": "１丁目５−１",
    "office_name": "医療法人　恵愛会　福間病院",
    "office_name_kana": "イリヨウホウジン ケイアイカイ フクマビヨウイン"
  },
  "3296": {
    "zip_code": "8113296",
    "prefecture": "福岡県",
    "prefecture_kana": "フクオカケン",
    "prefecture_code": 40,
    "city": "福津市",
    "city_kana": "フクツシ",
    "town": "花見の里",
    "town_kana": "ハナミノサト",
    "street": "２丁目１１−１",
    "office_name": "名糖産業　株式会社　福岡工場",
    "office_name_kana": "メイトウサンギヨウ カブシキガイシヤ フクオカコウジヨウ"
  },
  "3298": {
    "zip_code": "8113298",
    "prefecture": "福岡県",
    "prefecture_kana": "フクオカケン",
    "prefecture_code": 40,
    "city": "福津市",
    "city_kana": "フクツシ",
    "town": "上西郷",
    "town_kana": "カミサイゴウ",
    "street": "３４１−１",
    "office_name": "医療法人社団　水光会　宗像水光会総合病院",
    "office_name_kana": "イリヨウホウジンシヤダン スイコウカイ ムナカタスイコウカイソウゴウビヨウイン"
  },
  "3301": {
    "zip_code": "8113301",
    "prefecture": "福岡県",
    "prefecture_kana": "フクオカケン",
    "prefecture_code": 40,
    "city": "福津市",
    "city_kana": "フクツシ",
    "town": "在自",
    "town_kana": "アラジ",
    "street": null,
    "office_name": null,
    "office_name_kana": null
  },
  "3302": {
    "zip_code": "8113302",
    "prefecture": "福岡県",
    "prefecture_kana": "フクオカケン",
    "prefecture_code": 40,
    "city": "福津市",
    "city_kana": "フクツシ",
    "town": "大石",
    "town_kana": "オオイシ",
    "street": null,
    "office_name": null,
    "office_name_kana": null
  },
  "3303": {
    "zip_code": "8113303",
    "prefecture": "福岡県",
    "prefecture_kana": "フクオカケン",
    "prefecture_code": 40,
    "city": "福津市",
    "city_kana": "フクツシ",
    "town": "須多田",
    "town_kana": "スダタ",
    "street": null,
    "office_name": null,
    "office_name_kana": null
  },
  "3304": {
    "zip_code": "8113304",
    "prefecture": "福岡県",
    "prefecture_kana": "フクオカケン",
    "prefecture_code": 40,
    "city": "福津市",
    "city_kana": "フクツシ",
    "town": "津屋崎",
    "town_kana": "ツヤザキ",
    "street": null,
    "office_name": null,
    "office_name_kana": null
  },
  "3305": {
    "zip_code": "8113305",
    "prefecture": "福岡県",
    "prefecture_kana": "フクオカケン",
    "prefecture_code": 40,
    "city": "福津市",
    "city_kana": "フクツシ",
    "town": "宮司",
    "town_kana": "ミヤジ",
    "street": null,
    "office_name": null,
    "office_name_kana": null
  },
  "3306": {
    "zip_code": "8113306",
    "prefecture": "福岡県",
    "prefecture_kana": "フクオカケン",
    "prefecture_code": 40,
    "city": "福津市",
    "city_kana": "フクツシ",
    "town": "生家",
    "town_kana": "ユクエ",
    "street": null,
    "office_name": null,
    "office_name_kana": null
  },
  "3307": {
    "zip_code": "8113307",
    "prefecture": "福岡県",
    "prefecture_kana": "フクオカケン",
    "prefecture_code": 40,
    "city": "福津市",
    "city_kana": "フクツシ",
    "town": "渡",
    "town_kana": "ワタリ",
    "street": null,
    "office_name": null,
    "office_name_kana": null
  },
  "3308": {
    "zip_code": "8113308",
    "prefecture": "福岡県",
    "prefecture_kana": "フクオカケン",
    "prefecture_code": 40,
    "city": "福津市",
    "city_kana": "フクツシ",
    "town": "星ケ丘",
    "town_kana": "ホシガオカ",
    "street": null,
    "office_name": null,
    "office_name_kana": null
  },
  "3309": {
    "zip_code": "8113309",
    "prefecture": "福岡県",
    "prefecture_kana": "フクオカケン",
    "prefecture_code": 40,
    "city": "福津市",
    "city_kana": "フクツシ",
    "town": "宮司元町",
    "town_kana": "ミヤジモトマチ",
    "street": null,
    "office_name": null,
    "office_name_kana": null
  },
  "3311": {
    "zip_code": "8113311",
    "prefecture": "福岡県",
    "prefecture_kana": "フクオカケン",
    "prefecture_code": 40,
    "city": "福津市",
    "city_kana": "フクツシ",
    "town": "宮司浜",
    "town_kana": "ミヤジハマ",
    "street": null,
    "office_name": null,
    "office_name_kana": null
  },
  "3312": {
    "zip_code": "8113312",
    "prefecture": "福岡県",
    "prefecture_kana": "フクオカケン",
    "prefecture_code": 40,
    "city": "福津市",
    "city_kana": "フクツシ",
    "town": "宮司ヶ丘",
    "town_kana": "ミヤジガオカ",
    "street": null,
    "office_name": null,
    "office_name_kana": null
  },
  "3400": {
    "zip_code": "8113400",
    "prefecture": "福岡県",
    "prefecture_kana": "フクオカケン",
    "prefecture_code": 40,
    "city": "宗像市",
    "city_kana": "ムナカタシ",
    "town": "",
    "town_kana": "",
    "street": null,
    "office_name": null,
    "office_name_kana": null
  },
  "3401": {
    "zip_code": "8113401",
    "prefecture": "福岡県",
    "prefecture_kana": "フクオカケン",
    "prefecture_code": 40,
    "city": "宗像市",
    "city_kana": "ムナカタシ",
    "town": "池浦",
    "town_kana": "イケウラ",
    "street": null,
    "office_name": null,
    "office_name_kana": null
  },
  "3402": {
    "zip_code": "8113402",
    "prefecture": "福岡県",
    "prefecture_kana": "フクオカケン",
    "prefecture_code": 40,
    "city": "宗像市",
    "city_kana": "ムナカタシ",
    "town": "河東",
    "town_kana": "カトウ",
    "street": null,
    "office_name": null,
    "office_name_kana": null
  },
  "3403": {
    "zip_code": "8113403",
    "prefecture": "福岡県",
    "prefecture_kana": "フクオカケン",
    "prefecture_code": 40,
    "city": "宗像市",
    "city_kana": "ムナカタシ",
    "town": "ひかりケ丘",
    "town_kana": "ヒカリガオカ",
    "street": null,
    "office_name": null,
    "office_name_kana": null
  },
  "3404": {
    "zip_code": "8113404",
    "prefecture": "福岡県",
    "prefecture_kana": "フクオカケン",
    "prefecture_code": 40,
    "city": "宗像市",
    "city_kana": "ムナカタシ",
    "town": "城西ケ丘",
    "town_kana": "ジョウセイガオカ",
    "street": null,
    "office_name": null,
    "office_name_kana": null
  },
  "3405": {
    "zip_code": "8113405",
    "prefecture": "福岡県",
    "prefecture_kana": "フクオカケン",
    "prefecture_code": 40,
    "city": "宗像市",
    "city_kana": "ムナカタシ",
    "town": "須恵",
    "town_kana": "スエ",
    "street": null,
    "office_name": null,
    "office_name_kana": null
  },
  "3406": {
    "zip_code": "8113406",
    "prefecture": "福岡県",
    "prefecture_kana": "フクオカケン",
    "prefecture_code": 40,
    "city": "宗像市",
    "city_kana": "ムナカタシ",
    "town": "稲元",
    "town_kana": "イナモト",
    "street": null,
    "office_name": null,
    "office_name_kana": null
  },
  "3407": {
    "zip_code": "8113407",
    "prefecture": "福岡県",
    "prefecture_kana": "フクオカケン",
    "prefecture_code": 40,
    "city": "宗像市",
    "city_kana": "ムナカタシ",
    "town": "天平台",
    "town_kana": "テンピョウダイ",
    "street": null,
    "office_name": null,
    "office_name_kana": null
  },
  "3408": {
    "zip_code": "8113408",
    "prefecture": "福岡県",
    "prefecture_kana": "フクオカケン",
    "prefecture_code": 40,
    "city": "宗像市",
    "city_kana": "ムナカタシ",
    "town": "樟陽台",
    "town_kana": "ショウヨウダイ",
    "street": null,
    "office_name": null,
    "office_name_kana": null
  },
  "3411": {
    "zip_code": "8113411",
    "prefecture": "福岡県",
    "prefecture_kana": "フクオカケン",
    "prefecture_code": 40,
    "city": "宗像市",
    "city_kana": "ムナカタシ",
    "town": "山田",
    "town_kana": "ヤマダ",
    "street": null,
    "office_name": null,
    "office_name_kana": null
  },
  "3412": {
    "zip_code": "8113412",
    "prefecture": "福岡県",
    "prefecture_kana": "フクオカケン",
    "prefecture_code": 40,
    "city": "宗像市",
    "city_kana": "ムナカタシ",
    "town": "平等寺",
    "town_kana": "ビョウドウジ",
    "street": null,
    "office_name": null,
    "office_name_kana": null
  },
  "3413": {
    "zip_code": "8113413",
    "prefecture": "福岡県",
    "prefecture_kana": "フクオカケン",
    "prefecture_code": 40,
    "city": "宗像市",
    "city_kana": "ムナカタシ",
    "town": "曲",
    "town_kana": "マガリ",
    "street": null,
    "office_name": null,
    "office_name_kana": null
  },
  "3414": {
    "zip_code": "8113414",
    "prefecture": "福岡県",
    "prefecture_kana": "フクオカケン",
    "prefecture_code": 40,
    "city": "宗像市",
    "city_kana": "ムナカタシ",
    "town": "光岡",
    "town_kana": "ミツオカ",
    "street": null,
    "office_name": null,
    "office_name_kana": null
  },
  "3415": {
    "zip_code": "8113415",
    "prefecture": "福岡県",
    "prefecture_kana": "フクオカケン",
    "prefecture_code": 40,
    "city": "宗像市",
    "city_kana": "ムナカタシ",
    "town": "朝野",
    "town_kana": "アサノ",
    "street": null,
    "office_name": null,
    "office_name_kana": null
  },
  "3416": {
    "zip_code": "8113416",
    "prefecture": "福岡県",
    "prefecture_kana": "フクオカケン",
    "prefecture_code": 40,
    "city": "宗像市",
    "city_kana": "ムナカタシ",
    "town": "宮田",
    "town_kana": "ミヤタ",
    "street": null,
    "office_name": null,
    "office_name_kana": null
  },
  "3421": {
    "zip_code": "8113421",
    "prefecture": "福岡県",
    "prefecture_kana": "フクオカケン",
    "prefecture_code": 40,
    "city": "宗像市",
    "city_kana": "ムナカタシ",
    "town": "大穂",
    "town_kana": "オオブ",
    "street": null,
    "office_name": null,
    "office_name_kana": null
  },
  "3422": {
    "zip_code": "8113422",
    "prefecture": "福岡県",
    "prefecture_kana": "フクオカケン",
    "prefecture_code": 40,
    "city": "宗像市",
    "city_kana": "ムナカタシ",
    "town": "王丸",
    "town_kana": "オウマル",
    "street": null,
    "office_name": null,
    "office_name_kana": null
  },
  "3423": {
    "zip_code": "8113423",
    "prefecture": "福岡県",
    "prefecture_kana": "フクオカケン",
    "prefecture_code": 40,
    "city": "宗像市",
    "city_kana": "ムナカタシ",
    "town": "野坂",
    "town_kana": "ノサカ",
    "street": null,
    "office_name": null,
    "office_name_kana": null
  },
  "3424": {
    "zip_code": "8113424",
    "prefecture": "福岡県",
    "prefecture_kana": "フクオカケン",
    "prefecture_code": 40,
    "city": "宗像市",
    "city_kana": "ムナカタシ",
    "town": "原町",
    "town_kana": "ハルマチ",
    "street": null,
    "office_name": null,
    "office_name_kana": null
  },
  "3425": {
    "zip_code": "8113425",
    "prefecture": "福岡県",
    "prefecture_kana": "フクオカケン",
    "prefecture_code": 40,
    "city": "宗像市",
    "city_kana": "ムナカタシ",
    "town": "日の里",
    "town_kana": "ヒノサト",
    "street": null,
    "office_name": null,
    "office_name_kana": null
  },
  "3430": {
    "zip_code": "8113430",
    "prefecture": "福岡県",
    "prefecture_kana": "フクオカケン",
    "prefecture_code": 40,
    "city": "宗像市",
    "city_kana": "ムナカタシ",
    "town": "平井",
    "town_kana": "ヒライ",
    "street": null,
    "office_name": null,
    "office_name_kana": null
  },
  "3431": {
    "zip_code": "8113431",
    "prefecture": "福岡県",
    "prefecture_kana": "フクオカケン",
    "prefecture_code": 40,
    "city": "宗像市",
    "city_kana": "ムナカタシ",
    "town": "田熊",
    "town_kana": "タグマ",
    "street": null,
    "office_name": null,
    "office_name_kana": null
  },
  "3432": {
    "zip_code": "8113432",
    "prefecture": "福岡県",
    "prefecture_kana": "フクオカケン",
    "prefecture_code": 40,
    "city": "宗像市",
    "city_kana": "ムナカタシ",
    "town": "大井",
    "town_kana": "オオイ",
    "street": null,
    "office_name": null,
    "office_name_kana": null
  },
  "3433": {
    "zip_code": "8113433",
    "prefecture": "福岡県",
    "prefecture_kana": "フクオカケン",
    "prefecture_code": 40,
    "city": "宗像市",
    "city_kana": "ムナカタシ",
    "town": "大井台",
    "town_kana": "オオイダイ",
    "street": null,
    "office_name": null,
    "office_name_kana": null
  },
  "3434": {
    "zip_code": "8113434",
    "prefecture": "福岡県",
    "prefecture_kana": "フクオカケン",
    "prefecture_code": 40,
    "city": "宗像市",
    "city_kana": "ムナカタシ",
    "town": "村山田",
    "town_kana": "ムラヤマダ",
    "street": null,
    "office_name": null,
    "office_name_kana": null
  },
  "3435": {
    "zip_code": "8113435",
    "prefecture": "福岡県",
    "prefecture_kana": "フクオカケン",
    "prefecture_code": 40,
    "city": "宗像市",
    "city_kana": "ムナカタシ",
    "town": "用山",
    "town_kana": "モチヤマ",
    "street": null,
    "office_name": null,
    "office_name_kana": null
  },
  "3436": {
    "zip_code": "8113436",
    "prefecture": "福岡県",
    "prefecture_kana": "フクオカケン",
    "prefecture_code": 40,
    "city": "宗像市",
    "city_kana": "ムナカタシ",
    "town": "東郷",
    "town_kana": "トウゴウ",
    "street": null,
    "office_name": null,
    "office_name_kana": null
  },
  "3437": {
    "zip_code": "8113437",
    "prefecture": "福岡県",
    "prefecture_kana": "フクオカケン",
    "prefecture_code": 40,
    "city": "宗像市",
    "city_kana": "ムナカタシ",
    "town": "久原",
    "town_kana": "クバラ",
    "street": null,
    "office_name": null,
    "office_name_kana": null
  },
  "3438": {
    "zip_code": "8113438",
    "prefecture": "福岡県",
    "prefecture_kana": "フクオカケン",
    "prefecture_code": 40,
    "city": "宗像市",
    "city_kana": "ムナカタシ",
    "town": "和歌美台",
    "town_kana": "ワカミダイ",
    "street": null,
    "office_name": null,
    "office_name_kana": null
  },
  "3439": {
    "zip_code": "8113439",
    "prefecture": "福岡県",
    "prefecture_kana": "フクオカケン",
    "prefecture_code": 40,
    "city": "宗像市",
    "city_kana": "ムナカタシ",
    "town": "三倉",
    "town_kana": "ミクラ",
    "street": null,
    "office_name": null,
    "office_name_kana": null
  },
  "3440": {
    "zip_code": "8113440",
    "prefecture": "福岡県",
    "prefecture_kana": "フクオカケン",
    "prefecture_code": 40,
    "city": "宗像市",
    "city_kana": "ムナカタシ",
    "town": "大井南",
    "town_kana": "オオイミナミ",
    "street": null,
    "office_name": null,
    "office_name_kana": null
  },
  "3492": {
    "zip_code": "8113492",
    "prefecture": "福岡県",
    "prefecture_kana": "フクオカケン",
    "prefecture_code": 40,
    "city": "宗像市",
    "city_kana": "ムナカタシ",
    "town": "東郷",
    "town_kana": "トウゴウ",
    "street": "１丁目１−１",
    "office_name": "宗像市役所",
    "office_name_kana": "ムナカタシヤクシヨ"
  },
  "3501": {
    "zip_code": "8113501",
    "prefecture": "福岡県",
    "prefecture_kana": "フクオカケン",
    "prefecture_code": 40,
    "city": "宗像市",
    "city_kana": "ムナカタシ",
    "town": "神湊",
    "town_kana": "コウノミナト",
    "street": null,
    "office_name": null,
    "office_name_kana": null
  },
  "3502": {
    "zip_code": "8113502",
    "prefecture": "福岡県",
    "prefecture_kana": "フクオカケン",
    "prefecture_code": 40,
    "city": "宗像市",
    "city_kana": "ムナカタシ",
    "town": "江口",
    "town_kana": "エグチ",
    "street": null,
    "office_name": null,
    "office_name_kana": null
  },
  "3503": {
    "zip_code": "8113503",
    "prefecture": "福岡県",
    "prefecture_kana": "フクオカケン",
    "prefecture_code": 40,
    "city": "宗像市",
    "city_kana": "ムナカタシ",
    "town": "牟田尻",
    "town_kana": "ムタジリ",
    "street": null,
    "office_name": null,
    "office_name_kana": null
  },
  "3504": {
    "zip_code": "8113504",
    "prefecture": "福岡県",
    "prefecture_kana": "フクオカケン",
    "prefecture_code": 40,
    "city": "宗像市",
    "city_kana": "ムナカタシ",
    "town": "深田",
    "town_kana": "フカタ",
    "street": null,
    "office_name": null,
    "office_name_kana": null
  },
  "3505": {
    "zip_code": "8113505",
    "prefecture": "福岡県",
    "prefecture_kana": "フクオカケン",
    "prefecture_code": 40,
    "city": "宗像市",
    "city_kana": "ムナカタシ",
    "town": "田島",
    "town_kana": "タシマ",
    "street": null,
    "office_name": null,
    "office_name_kana": null
  },
  "3506": {
    "zip_code": "8113506",
    "prefecture": "福岡県",
    "prefecture_kana": "フクオカケン",
    "prefecture_code": 40,
    "city": "宗像市",
    "city_kana": "ムナカタシ",
    "town": "吉田",
    "town_kana": "ヨシダ",
    "street": null,
    "office_name": null,
    "office_name_kana": null
  },
  "3507": {
    "zip_code": "8113507",
    "prefecture": "福岡県",
    "prefecture_kana": "フクオカケン",
    "prefecture_code": 40,
    "city": "宗像市",
    "city_kana": "ムナカタシ",
    "town": "多禮",
    "town_kana": "タレ",
    "street": null,
    "office_name": null,
    "office_name_kana": null
  },
  "3511": {
    "zip_code": "8113511",
    "prefecture": "福岡県",
    "prefecture_kana": "フクオカケン",
    "prefecture_code": 40,
    "city": "宗像市",
    "city_kana": "ムナカタシ",
    "town": "地島",
    "town_kana": "ジノシマ",
    "street": null,
    "office_name": null,
    "office_name_kana": null
  },
  "3512": {
    "zip_code": "8113512",
    "prefecture": "福岡県",
    "prefecture_kana": "フクオカケン",
    "prefecture_code": 40,
    "city": "宗像市",
    "city_kana": "ムナカタシ",
    "town": "鐘崎",
    "town_kana": "カネザキ",
    "street": null,
    "office_name": null,
    "office_name_kana": null
  },
  "3513": {
    "zip_code": "8113513",
    "prefecture": "福岡県",
    "prefecture_kana": "フクオカケン",
    "prefecture_code": 40,
    "city": "宗像市",
    "city_kana": "ムナカタシ",
    "town": "上八",
    "town_kana": "コウジョウ",
    "street": null,
    "office_name": null,
    "office_name_kana": null
  },
  "3514": {
    "zip_code": "8113514",
    "prefecture": "福岡県",
    "prefecture_kana": "フクオカケン",
    "prefecture_code": 40,
    "city": "宗像市",
    "city_kana": "ムナカタシ",
    "town": "田野",
    "town_kana": "タノ",
    "street": null,
    "office_name": null,
    "office_name_kana": null
  },
  "3515": {
    "zip_code": "8113515",
    "prefecture": "福岡県",
    "prefecture_kana": "フクオカケン",
    "prefecture_code": 40,
    "city": "宗像市",
    "city_kana": "ムナカタシ",
    "town": "池田",
    "town_kana": "イケダ",
    "street": null,
    "office_name": null,
    "office_name_kana": null
  },
  "3516": {
    "zip_code": "8113516",
    "prefecture": "福岡県",
    "prefecture_kana": "フクオカケン",
    "prefecture_code": 40,
    "city": "宗像市",
    "city_kana": "ムナカタシ",
    "town": "公園通り",
    "town_kana": "コウエンドオリ",
    "street": null,
    "office_name": null,
    "office_name_kana": null
  },
  "3521": {
    "zip_code": "8113521",
    "prefecture": "福岡県",
    "prefecture_kana": "フクオカケン",
    "prefecture_code": 40,
    "city": "福津市",
    "city_kana": "フクツシ",
    "town": "勝浦",
    "town_kana": "カツウラ",
    "street": null,
    "office_name": null,
    "office_name_kana": null
  },
  "3522": {
    "zip_code": "8113522",
    "prefecture": "福岡県",
    "prefecture_kana": "フクオカケン",
    "prefecture_code": 40,
    "city": "福津市",
    "city_kana": "フクツシ",
    "town": "奴山",
    "town_kana": "ヌヤマ",
    "street": null,
    "office_name": null,
    "office_name_kana": null
  },
  "3598": {
    "zip_code": "8113598",
    "prefecture": "福岡県",
    "prefecture_kana": "フクオカケン",
    "prefecture_code": 40,
    "city": "宗像市",
    "city_kana": "ムナカタシ",
    "town": "江口",
    "town_kana": "エグチ",
    "street": "４６５",
    "office_name": "宗像市玄海支所",
    "office_name_kana": "ムナカタシゲンカイシシヨ"
  },
  "3701": {
    "zip_code": "8113701",
    "prefecture": "福岡県",
    "prefecture_kana": "フクオカケン",
    "prefecture_code": 40,
    "city": "宗像市",
    "city_kana": "ムナカタシ",
    "town": "大島",
    "town_kana": "オオシマ",
    "street": null,
    "office_name": null,
    "office_name_kana": null
  },
  "4113": {
    "zip_code": "8114113",
    "prefecture": "福岡県",
    "prefecture_kana": "フクオカケン",
    "prefecture_code": 40,
    "city": "宗像市",
    "city_kana": "ムナカタシ",
    "town": "曲",
    "town_kana": "マガリ",
    "street": null,
    "office_name": null,
    "office_name_kana": null
  },
  "4141": {
    "zip_code": "8114141",
    "prefecture": "福岡県",
    "prefecture_kana": "フクオカケン",
    "prefecture_code": 40,
    "city": "宗像市",
    "city_kana": "ムナカタシ",
    "town": "大谷",
    "town_kana": "オオタニ",
    "street": null,
    "office_name": null,
    "office_name_kana": null
  },
  "4142": {
    "zip_code": "8114142",
    "prefecture": "福岡県",
    "prefecture_kana": "フクオカケン",
    "prefecture_code": 40,
    "city": "宗像市",
    "city_kana": "ムナカタシ",
    "town": "泉ケ丘",
    "town_kana": "イズミガオカ",
    "street": null,
    "office_name": null,
    "office_name_kana": null
  },
  "4143": {
    "zip_code": "8114143",
    "prefecture": "福岡県",
    "prefecture_kana": "フクオカケン",
    "prefecture_code": 40,
    "city": "宗像市",
    "city_kana": "ムナカタシ",
    "town": "三郎丸",
    "town_kana": "サブロウマル",
    "street": null,
    "office_name": null,
    "office_name_kana": null
  },
  "4145": {
    "zip_code": "8114145",
    "prefecture": "福岡県",
    "prefecture_kana": "フクオカケン",
    "prefecture_code": 40,
    "city": "宗像市",
    "city_kana": "ムナカタシ",
    "town": "陵厳寺",
    "town_kana": "リョウゲンジ",
    "street": null,
    "office_name": null,
    "office_name_kana": null
  },
  "4146": {
    "zip_code": "8114146",
    "prefecture": "福岡県",
    "prefecture_kana": "フクオカケン",
    "prefecture_code": 40,
    "city": "宗像市",
    "city_kana": "ムナカタシ",
    "town": "赤間",
    "town_kana": "アカマ",
    "street": null,
    "office_name": null,
    "office_name_kana": null
  },
  "4147": {
    "zip_code": "8114147",
    "prefecture": "福岡県",
    "prefecture_kana": "フクオカケン",
    "prefecture_code": 40,
    "city": "宗像市",
    "city_kana": "ムナカタシ",
    "town": "石丸",
    "town_kana": "イシマル",
    "street": null,
    "office_name": null,
    "office_name_kana": null
  },
  "4148": {
    "zip_code": "8114148",
    "prefecture": "福岡県",
    "prefecture_kana": "フクオカケン",
    "prefecture_code": 40,
    "city": "宗像市",
    "city_kana": "ムナカタシ",
    "town": "赤間文教町",
    "town_kana": "アカマブンキョウマチ",
    "street": null,
    "office_name": null,
    "office_name_kana": null
  },
  "4151": {
    "zip_code": "8114151",
    "prefecture": "福岡県",
    "prefecture_kana": "フクオカケン",
    "prefecture_code": 40,
    "city": "宗像市",
    "city_kana": "ムナカタシ",
    "town": "城南ケ丘",
    "town_kana": "ジョウナンガオカ",
    "street": null,
    "office_name": null,
    "office_name_kana": null
  },
  "4152": {
    "zip_code": "8114152",
    "prefecture": "福岡県",
    "prefecture_kana": "フクオカケン",
    "prefecture_code": 40,
    "city": "宗像市",
    "city_kana": "ムナカタシ",
    "town": "武丸",
    "town_kana": "タケマル",
    "street": null,
    "office_name": null,
    "office_name_kana": null
  },
  "4153": {
    "zip_code": "8114153",
    "prefecture": "福岡県",
    "prefecture_kana": "フクオカケン",
    "prefecture_code": 40,
    "city": "宗像市",
    "city_kana": "ムナカタシ",
    "town": "吉留",
    "town_kana": "ヨシドメ",
    "street": null,
    "office_name": null,
    "office_name_kana": null
  },
  "4154": {
    "zip_code": "8114154",
    "prefecture": "福岡県",
    "prefecture_kana": "フクオカケン",
    "prefecture_code": 40,
    "city": "宗像市",
    "city_kana": "ムナカタシ",
    "town": "冨地原",
    "town_kana": "フジワラ",
    "street": null,
    "office_name": null,
    "office_name_kana": null
  },
  "4155": {
    "zip_code": "8114155",
    "prefecture": "福岡県",
    "prefecture_kana": "フクオカケン",
    "prefecture_code": 40,
    "city": "宗像市",
    "city_kana": "ムナカタシ",
    "town": "名残",
    "town_kana": "ナゴリ",
    "street": null,
    "office_name": null,
    "office_name_kana": null
  },
  "4156": {
    "zip_code": "8114156",
    "prefecture": "福岡県",
    "prefecture_kana": "フクオカケン",
    "prefecture_code": 40,
    "city": "宗像市",
    "city_kana": "ムナカタシ",
    "town": "自由ケ丘南",
    "town_kana": "ジユウガオカミナミ",
    "street": null,
    "office_name": null,
    "office_name_kana": null
  },
  "4157": {
    "zip_code": "8114157",
    "prefecture": "福岡県",
    "prefecture_kana": "フクオカケン",
    "prefecture_code": 40,
    "city": "宗像市",
    "city_kana": "ムナカタシ",
    "town": "アスティ",
    "town_kana": "アスティ",
    "street": null,
    "office_name": null,
    "office_name_kana": null
  },
  "4161": {
    "zip_code": "8114161",
    "prefecture": "福岡県",
    "prefecture_kana": "フクオカケン",
    "prefecture_code": 40,
    "city": "宗像市",
    "city_kana": "ムナカタシ",
    "town": "朝町",
    "town_kana": "アサマチ",
    "street": null,
    "office_name": null,
    "office_name_kana": null
  },
  "4162": {
    "zip_code": "8114162",
    "prefecture": "福岡県",
    "prefecture_kana": "フクオカケン",
    "prefecture_code": 40,
    "city": "宗像市",
    "city_kana": "ムナカタシ",
    "town": "青葉台",
    "town_kana": "アオバダイ",
    "street": null,
    "office_name": null,
    "office_name_kana": null
  },
  "4163": {
    "zip_code": "8114163",
    "prefecture": "福岡県",
    "prefecture_kana": "フクオカケン",
    "prefecture_code": 40,
    "city": "宗像市",
    "city_kana": "ムナカタシ",
    "town": "自由ケ丘",
    "town_kana": "ジユウガオカ",
    "street": null,
    "office_name": null,
    "office_name_kana": null
  },
  "4164": {
    "zip_code": "8114164",
    "prefecture": "福岡県",
    "prefecture_kana": "フクオカケン",
    "prefecture_code": 40,
    "city": "宗像市",
    "city_kana": "ムナカタシ",
    "town": "徳重",
    "town_kana": "トクシゲ",
    "street": null,
    "office_name": null,
    "office_name_kana": null
  },
  "4165": {
    "zip_code": "8114165",
    "prefecture": "福岡県",
    "prefecture_kana": "フクオカケン",
    "prefecture_code": 40,
    "city": "宗像市",
    "city_kana": "ムナカタシ",
    "town": "広陵台",
    "town_kana": "コウリョウダイ",
    "street": null,
    "office_name": null,
    "office_name_kana": null
  },
  "4166": {
    "zip_code": "8114166",
    "prefecture": "福岡県",
    "prefecture_kana": "フクオカケン",
    "prefecture_code": 40,
    "city": "宗像市",
    "city_kana": "ムナカタシ",
    "town": "桜",
    "town_kana": "サクラ",
    "street": null,
    "office_name": null,
    "office_name_kana": null
  },
  "4171": {
    "zip_code": "8114171",
    "prefecture": "福岡県",
    "prefecture_kana": "フクオカケン",
    "prefecture_code": 40,
    "city": "宗像市",
    "city_kana": "ムナカタシ",
    "town": "葉山",
    "town_kana": "ハヤマ",
    "street": null,
    "office_name": null,
    "office_name_kana": null
  },
  "4172": {
    "zip_code": "8114172",
    "prefecture": "福岡県",
    "prefecture_kana": "フクオカケン",
    "prefecture_code": 40,
    "city": "宗像市",
    "city_kana": "ムナカタシ",
    "town": "緑町",
    "town_kana": "ミドリマチ",
    "street": null,
    "office_name": null,
    "office_name_kana": null
  },
  "4173": {
    "zip_code": "8114173",
    "prefecture": "福岡県",
    "prefecture_kana": "フクオカケン",
    "prefecture_code": 40,
    "city": "宗像市",
    "city_kana": "ムナカタシ",
    "town": "栄町",
    "town_kana": "サカエマチ",
    "street": null,
    "office_name": null,
    "office_name_kana": null
  },
  "4174": {
    "zip_code": "8114174",
    "prefecture": "福岡県",
    "prefecture_kana": "フクオカケン",
    "prefecture_code": 40,
    "city": "宗像市",
    "city_kana": "ムナカタシ",
    "town": "自由ケ丘西町",
    "town_kana": "ジユウガオカニシマチ",
    "street": null,
    "office_name": null,
    "office_name_kana": null
  },
  "4175": {
    "zip_code": "8114175",
    "prefecture": "福岡県",
    "prefecture_kana": "フクオカケン",
    "prefecture_code": 40,
    "city": "宗像市",
    "city_kana": "ムナカタシ",
    "town": "田久",
    "town_kana": "タク",
    "street": null,
    "office_name": null,
    "office_name_kana": null
  },
  "4176": {
    "zip_code": "8114176",
    "prefecture": "福岡県",
    "prefecture_kana": "フクオカケン",
    "prefecture_code": 40,
    "city": "宗像市",
    "city_kana": "ムナカタシ",
    "town": "赤間ケ丘",
    "town_kana": "アカマガオカ",
    "street": null,
    "office_name": null,
    "office_name_kana": null
  },
  "4177": {
    "zip_code": "8114177",
    "prefecture": "福岡県",
    "prefecture_kana": "フクオカケン",
    "prefecture_code": 40,
    "city": "宗像市",
    "city_kana": "ムナカタシ",
    "town": "桜美台",
    "town_kana": "オウビダイ",
    "street": null,
    "office_name": null,
    "office_name_kana": null
  },
  "4181": {
    "zip_code": "8114181",
    "prefecture": "福岡県",
    "prefecture_kana": "フクオカケン",
    "prefecture_code": 40,
    "city": "宗像市",
    "city_kana": "ムナカタシ",
    "town": "城山ニュータウン",
    "town_kana": "ジョウヤマニュータウン",
    "street": null,
    "office_name": null,
    "office_name_kana": null
  },
  "4182": {
    "zip_code": "8114182",
    "prefecture": "福岡県",
    "prefecture_kana": "フクオカケン",
    "prefecture_code": 40,
    "city": "宗像市",
    "city_kana": "ムナカタシ",
    "town": "城ケ谷",
    "town_kana": "ジョウガタニ",
    "street": null,
    "office_name": null,
    "office_name_kana": null
  },
  "4183": {
    "zip_code": "8114183",
    "prefecture": "福岡県",
    "prefecture_kana": "フクオカケン",
    "prefecture_code": 40,
    "city": "宗像市",
    "city_kana": "ムナカタシ",
    "town": "土穴",
    "town_kana": "ツチアナ",
    "street": null,
    "office_name": null,
    "office_name_kana": null
  },
  "4184": {
    "zip_code": "8114184",
    "prefecture": "福岡県",
    "prefecture_kana": "フクオカケン",
    "prefecture_code": 40,
    "city": "宗像市",
    "city_kana": "ムナカタシ",
    "town": "くりえいと",
    "town_kana": "クリエイト",
    "street": null,
    "office_name": null,
    "office_name_kana": null
  },
  "4185": {
    "zip_code": "8114185",
    "prefecture": "福岡県",
    "prefecture_kana": "フクオカケン",
    "prefecture_code": 40,
    "city": "宗像市",
    "city_kana": "ムナカタシ",
    "town": "赤間駅前",
    "town_kana": "アカマエキマエ",
    "street": null,
    "office_name": null,
    "office_name_kana": null
  },
  "4192": {
    "zip_code": "8114192",
    "prefecture": "福岡県",
    "prefecture_kana": "フクオカケン",
    "prefecture_code": 40,
    "city": "宗像市",
    "city_kana": "ムナカタシ",
    "town": "赤間文教町",
    "town_kana": "アカマブンキョウマチ",
    "street": "１番１号",
    "office_name": "福岡教育大学",
    "office_name_kana": "フクオカキヨウイクダイガク"
  },
  "4193": {
    "zip_code": "8114193",
    "prefecture": "福岡県",
    "prefecture_kana": "フクオカケン",
    "prefecture_code": 40,
    "city": "宗像市",
    "city_kana": "ムナカタシ",
    "town": "田久",
    "town_kana": "タク",
    "street": "１丁目９−２",
    "office_name": "東海大学　第五高等学校",
    "office_name_kana": "トウカイダイガク ダイゴコウトウガツコウ"
  },
  "4195": {
    "zip_code": "8114195",
    "prefecture": "福岡県",
    "prefecture_kana": "フクオカケン",
    "prefecture_code": 40,
    "city": "宗像市",
    "city_kana": "ムナカタシ",
    "town": "くりえいと",
    "town_kana": "クリエイト",
    "street": "２丁目３番１号",
    "office_name": "株式会社　くりえいと／日創開発　株式会社",
    "office_name_kana": "カブシキガイシヤ クリエイト/ニツソウカイハツ カブシキガイシヤ"
  },
  "4198": {
    "zip_code": "8114198",
    "prefecture": "福岡県",
    "prefecture_kana": "フクオカケン",
    "prefecture_code": 40,
    "city": "宗像市",
    "city_kana": "ムナカタシ",
    "town": "田久",
    "town_kana": "タク",
    "street": "１丁目９−１",
    "office_name": "東海大学　福岡短期大学",
    "office_name_kana": "トウカイダイガク フクオカタンキダイガク"
  },
  "4200": {
    "zip_code": "8114200",
    "prefecture": "福岡県",
    "prefecture_kana": "フクオカケン",
    "prefecture_code": 40,
    "city": "遠賀郡岡垣町",
    "city_kana": "オンガグンオカガキマチ",
    "town": "",
    "town_kana": "",
    "street": null,
    "office_name": null,
    "office_name_kana": null
  },
  "4201": {
    "zip_code": "8114201",
    "prefecture": "福岡県",
    "prefecture_kana": "フクオカケン",
    "prefecture_code": 40,
    "city": "遠賀郡岡垣町",
    "city_kana": "オンガグンオカガキマチ",
    "town": "波津",
    "town_kana": "ハツ",
    "street": null,
    "office_name": null,
    "office_name_kana": null
  },
  "4202": {
    "zip_code": "8114202",
    "prefecture": "福岡県",
    "prefecture_kana": "フクオカケン",
    "prefecture_code": 40,
    "city": "遠賀郡岡垣町",
    "city_kana": "オンガグンオカガキマチ",
    "town": "原",
    "town_kana": "ハラ",
    "street": null,
    "office_name": null,
    "office_name_kana": null
  },
  "4203": {
    "zip_code": "8114203",
    "prefecture": "福岡県",
    "prefecture_kana": "フクオカケン",
    "prefecture_code": 40,
    "city": "遠賀郡岡垣町",
    "city_kana": "オンガグンオカガキマチ",
    "town": "内浦",
    "town_kana": "ウツラ",
    "street": null,
    "office_name": null,
    "office_name_kana": null
  },
  "4204": {
    "zip_code": "8114204",
    "prefecture": "福岡県",
    "prefecture_kana": "フクオカケン",
    "prefecture_code": 40,
    "city": "遠賀郡岡垣町",
    "city_kana": "オンガグンオカガキマチ",
    "town": "手野",
    "town_kana": "テノ",
    "street": null,
    "office_name": null,
    "office_name_kana": null
  },
  "4205": {
    "zip_code": "8114205",
    "prefecture": "福岡県",
    "prefecture_kana": "フクオカケン",
    "prefecture_code": 40,
    "city": "遠賀郡岡垣町",
    "city_kana": "オンガグンオカガキマチ",
    "town": "三吉",
    "town_kana": "ミヨシ",
    "street": null,
    "office_name": null,
    "office_name_kana": null
  },
  "4211": {
    "zip_code": "8114211",
    "prefecture": "福岡県",
    "prefecture_kana": "フクオカケン",
    "prefecture_code": 40,
    "city": "遠賀郡岡垣町",
    "city_kana": "オンガグンオカガキマチ",
    "town": "吉木",
    "town_kana": "ヨシキ",
    "street": null,
    "office_name": null,
    "office_name_kana": null
  },
  "4212": {
    "zip_code": "8114212",
    "prefecture": "福岡県",
    "prefecture_kana": "フクオカケン",
    "prefecture_code": 40,
    "city": "遠賀郡岡垣町",
    "city_kana": "オンガグンオカガキマチ",
    "town": "黒山",
    "town_kana": "クロヤマ",
    "street": null,
    "office_name": null,
    "office_name_kana": null
  },
  "4213": {
    "zip_code": "8114213",
    "prefecture": "福岡県",
    "prefecture_kana": "フクオカケン",
    "prefecture_code": 40,
    "city": "遠賀郡岡垣町",
    "city_kana": "オンガグンオカガキマチ",
    "town": "糠塚",
    "town_kana": "ヌカヅカ",
    "street": null,
    "office_name": null,
    "office_name_kana": null
  },
  "4214": {
    "zip_code": "8114214",
    "prefecture": "福岡県",
    "prefecture_kana": "フクオカケン",
    "prefecture_code": 40,
    "city": "遠賀郡岡垣町",
    "city_kana": "オンガグンオカガキマチ",
    "town": "松ケ台",
    "town_kana": "マツガダイ",
    "street": null,
    "office_name": null,
    "office_name_kana": null
  },
  "4215": {
    "zip_code": "8114215",
    "prefecture": "福岡県",
    "prefecture_kana": "フクオカケン",
    "prefecture_code": 40,
    "city": "遠賀郡岡垣町",
    "city_kana": "オンガグンオカガキマチ",
    "town": "旭台",
    "town_kana": "アサヒダイ",
    "street": null,
    "office_name": null,
    "office_name_kana": null
  },
  "4216": {
    "zip_code": "8114216",
    "prefecture": "福岡県",
    "prefecture_kana": "フクオカケン",
    "prefecture_code": 40,
    "city": "遠賀郡岡垣町",
    "city_kana": "オンガグンオカガキマチ",
    "town": "旭南",
    "town_kana": "アサヒミナミ",
    "street": null,
    "office_name": null,
    "office_name_kana": null
  },
  "4217": {
    "zip_code": "8114217",
    "prefecture": "福岡県",
    "prefecture_kana": "フクオカケン",
    "prefecture_code": 40,
    "city": "遠賀郡岡垣町",
    "city_kana": "オンガグンオカガキマチ",
    "town": "桜台",
    "town_kana": "サクラダイ",
    "street": null,
    "office_name": null,
    "office_name_kana": null
  },
  "4218": {
    "zip_code": "8114218",
    "prefecture": "福岡県",
    "prefecture_kana": "フクオカケン",
    "prefecture_code": 40,
    "city": "遠賀郡岡垣町",
    "city_kana": "オンガグンオカガキマチ",
    "town": "中央台",
    "town_kana": "チュウオウダイ",
    "street": null,
    "office_name": null,
    "office_name_kana": null
  },
  "4220": {
    "zip_code": "8114220",
    "prefecture": "福岡県",
    "prefecture_kana": "フクオカケン",
    "prefecture_code": 40,
    "city": "遠賀郡岡垣町",
    "city_kana": "オンガグンオカガキマチ",
    "town": "東山田",
    "town_kana": "ヒガシヤマダ",
    "street": null,
    "office_name": null,
    "office_name_kana": null
  },
  "4221": {
    "zip_code": "8114221",
    "prefecture": "福岡県",
    "prefecture_kana": "フクオカケン",
    "prefecture_code": 40,
    "city": "遠賀郡岡垣町",
    "city_kana": "オンガグンオカガキマチ",
    "town": "山田",
    "town_kana": "ヤマダ",
    "street": null,
    "office_name": null,
    "office_name_kana": null
  },
  "4222": {
    "zip_code": "8114222",
    "prefecture": "福岡県",
    "prefecture_kana": "フクオカケン",
    "prefecture_code": 40,
    "city": "遠賀郡岡垣町",
    "city_kana": "オンガグンオカガキマチ",
    "town": "戸切",
    "town_kana": "トギリ",
    "street": null,
    "office_name": null,
    "office_name_kana": null
  },
  "4223": {
    "zip_code": "8114223",
    "prefecture": "福岡県",
    "prefecture_kana": "フクオカケン",
    "prefecture_code": 40,
    "city": "遠賀郡岡垣町",
    "city_kana": "オンガグンオカガキマチ",
    "town": "山田峠",
    "town_kana": "ヤマダトウゲ",
    "street": null,
    "office_name": null,
    "office_name_kana": null
  },
  "4224": {
    "zip_code": "8114224",
    "prefecture": "福岡県",
    "prefecture_kana": "フクオカケン",
    "prefecture_code": 40,
    "city": "遠賀郡岡垣町",
    "city_kana": "オンガグンオカガキマチ",
    "town": "鍋田",
    "town_kana": "ナベタ",
    "street": null,
    "office_name": null,
    "office_name_kana": null
  },
  "4225": {
    "zip_code": "8114225",
    "prefecture": "福岡県",
    "prefecture_kana": "フクオカケン",
    "prefecture_code": 40,
    "city": "遠賀郡岡垣町",
    "city_kana": "オンガグンオカガキマチ",
    "town": "東高陽",
    "town_kana": "ヒガシコウヨウ",
    "street": null,
    "office_name": null,
    "office_name_kana": null
  },
  "4226": {
    "zip_code": "8114226",
    "prefecture": "福岡県",
    "prefecture_kana": "フクオカケン",
    "prefecture_code": 40,
    "city": "遠賀郡岡垣町",
    "city_kana": "オンガグンオカガキマチ",
    "town": "南高陽",
    "town_kana": "ミナミコウヨウ",
    "street": null,
    "office_name": null,
    "office_name_kana": null
  },
  "4227": {
    "zip_code": "8114227",
    "prefecture": "福岡県",
    "prefecture_kana": "フクオカケン",
    "prefecture_code": 40,
    "city": "遠賀郡岡垣町",
    "city_kana": "オンガグンオカガキマチ",
    "town": "高陽台",
    "town_kana": "コウヨウダイ",
    "street": null,
    "office_name": null,
    "office_name_kana": null
  },
  "4228": {
    "zip_code": "8114228",
    "prefecture": "福岡県",
    "prefecture_kana": "フクオカケン",
    "prefecture_code": 40,
    "city": "遠賀郡岡垣町",
    "city_kana": "オンガグンオカガキマチ",
    "town": "東松原",
    "town_kana": "ヒガシマツバラ",
    "street": null,
    "office_name": null,
    "office_name_kana": null
  },
  "4229": {
    "zip_code": "8114229",
    "prefecture": "福岡県",
    "prefecture_kana": "フクオカケン",
    "prefecture_code": 40,
    "city": "遠賀郡岡垣町",
    "city_kana": "オンガグンオカガキマチ",
    "town": "百合ケ丘",
    "town_kana": "ユリガオカ",
    "street": null,
    "office_name": null,
    "office_name_kana": null
  },
  "4231": {
    "zip_code": "8114231",
    "prefecture": "福岡県",
    "prefecture_kana": "フクオカケン",
    "prefecture_code": 40,
    "city": "遠賀郡岡垣町",
    "city_kana": "オンガグンオカガキマチ",
    "town": "海老津",
    "town_kana": "エビツ",
    "street": null,
    "office_name": null,
    "office_name_kana": null
  },
  "4232": {
    "zip_code": "8114232",
    "prefecture": "福岡県",
    "prefecture_kana": "フクオカケン",
    "prefecture_code": 40,
    "city": "遠賀郡岡垣町",
    "city_kana": "オンガグンオカガキマチ",
    "town": "上畑",
    "town_kana": "ジョウハタ",
    "street": null,
    "office_name": null,
    "office_name_kana": null
  },
  "4233": {
    "zip_code": "8114233",
    "prefecture": "福岡県",
    "prefecture_kana": "フクオカケン",
    "prefecture_code": 40,
    "city": "遠賀郡岡垣町",
    "city_kana": "オンガグンオカガキマチ",
    "town": "野間",
    "town_kana": "ノマ",
    "street": null,
    "office_name": null,
    "office_name_kana": null
  },
  "4234": {
    "zip_code": "8114234",
    "prefecture": "福岡県",
    "prefecture_kana": "フクオカケン",
    "prefecture_code": 40,
    "city": "遠賀郡岡垣町",
    "city_kana": "オンガグンオカガキマチ",
    "town": "高倉",
    "town_kana": "タカクラ",
    "street": null,
    "office_name": null,
    "office_name_kana": null
  },
  "4235": {
    "zip_code": "8114235",
    "prefecture": "福岡県",
    "prefecture_kana": "フクオカケン",
    "prefecture_code": 40,
    "city": "遠賀郡岡垣町",
    "city_kana": "オンガグンオカガキマチ",
    "town": "公園通り",
    "town_kana": "コウエンドオリ",
    "street": null,
    "office_name": null,
    "office_name_kana": null
  },
  "4236": {
    "zip_code": "8114236",
    "prefecture": "福岡県",
    "prefecture_kana": "フクオカケン",
    "prefecture_code": 40,
    "city": "遠賀郡岡垣町",
    "city_kana": "オンガグンオカガキマチ",
    "town": "海老津駅前",
    "town_kana": "エビツエキマエ",
    "street": null,
    "office_name": null,
    "office_name_kana": null
  },
  "4237": {
    "zip_code": "8114237",
    "prefecture": "福岡県",
    "prefecture_kana": "フクオカケン",
    "prefecture_code": 40,
    "city": "遠賀郡岡垣町",
    "city_kana": "オンガグンオカガキマチ",
    "town": "東高倉",
    "town_kana": "ヒガシタカクラ",
    "street": null,
    "office_name": null,
    "office_name_kana": null
  },
  "4238": {
    "zip_code": "8114238",
    "prefecture": "福岡県",
    "prefecture_kana": "フクオカケン",
    "prefecture_code": 40,
    "city": "遠賀郡岡垣町",
    "city_kana": "オンガグンオカガキマチ",
    "town": "海老津駅南",
    "town_kana": "エビツエキミナミ",
    "street": null,
    "office_name": null,
    "office_name_kana": null
  },
  "4239": {
    "zip_code": "8114239",
    "prefecture": "福岡県",
    "prefecture_kana": "フクオカケン",
    "prefecture_code": 40,
    "city": "遠賀郡岡垣町",
    "city_kana": "オンガグンオカガキマチ",
    "town": "野間南",
    "town_kana": "ノマミナミ",
    "street": null,
    "office_name": null,
    "office_name_kana": null
  },
  "4241": {
    "zip_code": "8114241",
    "prefecture": "福岡県",
    "prefecture_kana": "フクオカケン",
    "prefecture_code": 40,
    "city": "遠賀郡岡垣町",
    "city_kana": "オンガグンオカガキマチ",
    "town": "吉木東",
    "town_kana": "ヨシキヒガシ",
    "street": null,
    "office_name": null,
    "office_name_kana": null
  },
  "4242": {
    "zip_code": "8114242",
    "prefecture": "福岡県",
    "prefecture_kana": "フクオカケン",
    "prefecture_code": 40,
    "city": "遠賀郡岡垣町",
    "city_kana": "オンガグンオカガキマチ",
    "town": "吉木西",
    "town_kana": "ヨシキニシ",
    "street": null,
    "office_name": null,
    "office_name_kana": null
  },
  "4292": {
    "zip_code": "8114292",
    "prefecture": "福岡県",
    "prefecture_kana": "フクオカケン",
    "prefecture_code": 40,
    "city": "遠賀郡岡垣町",
    "city_kana": "オンガグンオカガキマチ",
    "town": "東山田",
    "town_kana": "ヒガシヤマダ",
    "street": "２丁目３−３",
    "office_name": "遠賀信用金庫　本部",
    "office_name_kana": "オンガシンヨウキンコ ホンブ"
  },
  "4300": {
    "zip_code": "8114300",
    "prefecture": "福岡県",
    "prefecture_kana": "フクオカケン",
    "prefecture_code": 40,
    "city": "遠賀郡遠賀町",
    "city_kana": "オンガグンオンガチョウ",
    "town": "",
    "town_kana": "",
    "street": null,
    "office_name": null,
    "office_name_kana": null
  },
  "4301": {
    "zip_code": "8114301",
    "prefecture": "福岡県",
    "prefecture_kana": "フクオカケン",
    "prefecture_code": 40,
    "city": "遠賀郡遠賀町",
    "city_kana": "オンガグンオンガチョウ",
    "town": "島津",
    "town_kana": "シマヅ",
    "street": null,
    "office_name": null,
    "office_name_kana": null
  },
  "4302": {
    "zip_code": "8114302",
    "prefecture": "福岡県",
    "prefecture_kana": "フクオカケン",
    "prefecture_code": 40,
    "city": "遠賀郡遠賀町",
    "city_kana": "オンガグンオンガチョウ",
    "town": "広渡",
    "town_kana": "ヒロワタリ",
    "street": null,
    "office_name": null,
    "office_name_kana": null
  },
  "4303": {
    "zip_code": "8114303",
    "prefecture": "福岡県",
    "prefecture_kana": "フクオカケン",
    "prefecture_code": 40,
    "city": "遠賀郡遠賀町",
    "city_kana": "オンガグンオンガチョウ",
    "town": "今古賀",
    "town_kana": "イマコガ",
    "street": null,
    "office_name": null,
    "office_name_kana": null
  },
  "4304": {
    "zip_code": "8114304",
    "prefecture": "福岡県",
    "prefecture_kana": "フクオカケン",
    "prefecture_code": 40,
    "city": "遠賀郡遠賀町",
    "city_kana": "オンガグンオンガチョウ",
    "town": "若松",
    "town_kana": "ワカマツ",
    "street": null,
    "office_name": null,
    "office_name_kana": null
  },
  "4305": {
    "zip_code": "8114305",
    "prefecture": "福岡県",
    "prefecture_kana": "フクオカケン",
    "prefecture_code": 40,
    "city": "遠賀郡遠賀町",
    "city_kana": "オンガグンオンガチョウ",
    "town": "松の本",
    "town_kana": "マツノモト",
    "street": null,
    "office_name": null,
    "office_name_kana": null
  },
  "4306": {
    "zip_code": "8114306",
    "prefecture": "福岡県",
    "prefecture_kana": "フクオカケン",
    "prefecture_code": 40,
    "city": "遠賀郡遠賀町",
    "city_kana": "オンガグンオンガチョウ",
    "town": "旧停",
    "town_kana": "キュウテイ",
    "street": null,
    "office_name": null,
    "office_name_kana": null
  },
  "4307": {
    "zip_code": "8114307",
    "prefecture": "福岡県",
    "prefecture_kana": "フクオカケン",
    "prefecture_code": 40,
    "city": "遠賀郡遠賀町",
    "city_kana": "オンガグンオンガチョウ",
    "town": "遠賀川",
    "town_kana": "オンガガワ",
    "street": null,
    "office_name": null,
    "office_name_kana": null
  },
  "4311": {
    "zip_code": "8114311",
    "prefecture": "福岡県",
    "prefecture_kana": "フクオカケン",
    "prefecture_code": 40,
    "city": "遠賀郡遠賀町",
    "city_kana": "オンガグンオンガチョウ",
    "town": "老良",
    "town_kana": "オイラ",
    "street": null,
    "office_name": null,
    "office_name_kana": null
  },
  "4312": {
    "zip_code": "8114312",
    "prefecture": "福岡県",
    "prefecture_kana": "フクオカケン",
    "prefecture_code": 40,
    "city": "遠賀郡遠賀町",
    "city_kana": "オンガグンオンガチョウ",
    "town": "浅木",
    "town_kana": "アサギ",
    "street": null,
    "office_name": null,
    "office_name_kana": null
  },
  "4313": {
    "zip_code": "8114313",
    "prefecture": "福岡県",
    "prefecture_kana": "フクオカケン",
    "prefecture_code": 40,
    "city": "遠賀郡遠賀町",
    "city_kana": "オンガグンオンガチョウ",
    "town": "木守",
    "town_kana": "キモリ",
    "street": null,
    "office_name": null,
    "office_name_kana": null
  },
  "4321": {
    "zip_code": "8114321",
    "prefecture": "福岡県",
    "prefecture_kana": "フクオカケン",
    "prefecture_code": 40,
    "city": "遠賀郡遠賀町",
    "city_kana": "オンガグンオンガチョウ",
    "town": "虫生津",
    "town_kana": "ムショウヅ",
    "street": null,
    "office_name": null,
    "office_name_kana": null
  },
  "4322": {
    "zip_code": "8114322",
    "prefecture": "福岡県",
    "prefecture_kana": "フクオカケン",
    "prefecture_code": 40,
    "city": "遠賀郡遠賀町",
    "city_kana": "オンガグンオンガチョウ",
    "town": "芙蓉",
    "town_kana": "フヨウ",
    "street": null,
    "office_name": null,
    "office_name_kana": null
  },
  "4323": {
    "zip_code": "8114323",
    "prefecture": "福岡県",
    "prefecture_kana": "フクオカケン",
    "prefecture_code": 40,
    "city": "遠賀郡遠賀町",
    "city_kana": "オンガグンオンガチョウ",
    "town": "若葉台",
    "town_kana": "ワカバダイ",
    "street": null,
    "office_name": null,
    "office_name_kana": null
  },
  "4324": {
    "zip_code": "8114324",
    "prefecture": "福岡県",
    "prefecture_kana": "フクオカケン",
    "prefecture_code": 40,
    "city": "遠賀郡遠賀町",
    "city_kana": "オンガグンオンガチョウ",
    "town": "虫生津南",
    "town_kana": "ムショウヅミナミ",
    "street": null,
    "office_name": null,
    "office_name_kana": null
  },
  "4331": {
    "zip_code": "8114331",
    "prefecture": "福岡県",
    "prefecture_kana": "フクオカケン",
    "prefecture_code": 40,
    "city": "遠賀郡遠賀町",
    "city_kana": "オンガグンオンガチョウ",
    "town": "別府",
    "town_kana": "ベフ",
    "street": null,
    "office_name": null,
    "office_name_kana": null
  },
  "4332": {
    "zip_code": "8114332",
    "prefecture": "福岡県",
    "prefecture_kana": "フクオカケン",
    "prefecture_code": 40,
    "city": "遠賀郡遠賀町",
    "city_kana": "オンガグンオンガチョウ",
    "town": "上別府",
    "town_kana": "カミベフ",
    "street": null,
    "office_name": null,
    "office_name_kana": null
  },
  "4333": {
    "zip_code": "8114333",
    "prefecture": "福岡県",
    "prefecture_kana": "フクオカケン",
    "prefecture_code": 40,
    "city": "遠賀郡遠賀町",
    "city_kana": "オンガグンオンガチョウ",
    "town": "島門",
    "town_kana": "シマド",
    "street": null,
    "office_name": null,
    "office_name_kana": null
  },
  "4334": {
    "zip_code": "8114334",
    "prefecture": "福岡県",
    "prefecture_kana": "フクオカケン",
    "prefecture_code": 40,
    "city": "遠賀郡遠賀町",
    "city_kana": "オンガグンオンガチョウ",
    "town": "蓮角",
    "town_kana": "レンガク",
    "street": null,
    "office_name": null,
    "office_name_kana": null
  },
  "4341": {
    "zip_code": "8114341",
    "prefecture": "福岡県",
    "prefecture_kana": "フクオカケン",
    "prefecture_code": 40,
    "city": "遠賀郡遠賀町",
    "city_kana": "オンガグンオンガチョウ",
    "town": "鬼津",
    "town_kana": "オニヅ",
    "street": null,
    "office_name": null,
    "office_name_kana": null
  },
  "4342": {
    "zip_code": "8114342",
    "prefecture": "福岡県",
    "prefecture_kana": "フクオカケン",
    "prefecture_code": 40,
    "city": "遠賀郡遠賀町",
    "city_kana": "オンガグンオンガチョウ",
    "town": "尾崎",
    "town_kana": "オザキ",
    "street": null,
    "office_name": null,
    "office_name_kana": null
  },
  "4343": {
    "zip_code": "8114343",
    "prefecture": "福岡県",
    "prefecture_kana": "フクオカケン",
    "prefecture_code": 40,
    "city": "遠賀郡遠賀町",
    "city_kana": "オンガグンオンガチョウ",
    "town": "田園",
    "town_kana": "デンエン",
    "street": null,
    "office_name": null,
    "office_name_kana": null
  },
  "4392": {
    "zip_code": "8114392",
    "prefecture": "福岡県",
    "prefecture_kana": null,
    "prefecture_code": null,
    "city": "遠賀郡遠賀町",
    "city_kana": null,
    "town": "大字今古賀",
    "town_kana": null,
    "street": "５１３",
    "office_name": "遠賀町役場",
    "office_name_kana": "オンガチヨウヤクバ"
  },
  "4393": {
    "zip_code": "8114393",
    "prefecture": "福岡県",
    "prefecture_kana": null,
    "prefecture_code": null,
    "city": "遠賀郡遠賀町",
    "city_kana": null,
    "town": "大字若松",
    "town_kana": null,
    "street": "２０３",
    "office_name": "株式会社　釣研",
    "office_name_kana": "カブシキガイシヤ ツリケン"
  },
  "5100": {
    "zip_code": "8115100",
    "prefecture": "長崎県",
    "prefecture_kana": "ナガサキケン",
    "prefecture_code": 42,
    "city": "壱岐市",
    "city_kana": "イキシ",
    "town": "",
    "town_kana": "",
    "street": null,
    "office_name": null,
    "office_name_kana": null
  },
  "5101": {
    "zip_code": "8115101",
    "prefecture": "長崎県",
    "prefecture_kana": "ナガサキケン",
    "prefecture_code": 42,
    "city": "壱岐市",
    "city_kana": "イキシ",
    "town": "郷ノ浦町長峰本村触",
    "town_kana": "ゴウノウラチョウナガミネホンムラフレ",
    "street": null,
    "office_name": null,
    "office_name_kana": null
  },
  "5102": {
    "zip_code": "8115102",
    "prefecture": "長崎県",
    "prefecture_kana": "ナガサキケン",
    "prefecture_code": 42,
    "city": "壱岐市",
    "city_kana": "イキシ",
    "town": "郷ノ浦町長峰東触",
    "town_kana": "ゴウノウラチョウナガミネヒガシフレ",
    "street": null,
    "office_name": null,
    "office_name_kana": null
  },
  "5103": {
    "zip_code": "8115103",
    "prefecture": "長崎県",
    "prefecture_kana": "ナガサキケン",
    "prefecture_code": 42,
    "city": "壱岐市",
    "city_kana": "イキシ",
    "town": "郷ノ浦町新田触",
    "town_kana": "ゴウノウラチョウシンデンフレ",
    "street": null,
    "office_name": null,
    "office_name_kana": null
  },
  "5104": {
    "zip_code": "8115104",
    "prefecture": "長崎県",
    "prefecture_kana": "ナガサキケン",
    "prefecture_code": 42,
    "city": "壱岐市",
    "city_kana": "イキシ",
    "town": "郷ノ浦町里触",
    "town_kana": "ゴウノウラチョウサトフレ",
    "street": null,
    "office_name": null,
    "office_name_kana": null
  },
  "5105": {
    "zip_code": "8115105",
    "prefecture": "長崎県",
    "prefecture_kana": "ナガサキケン",
    "prefecture_code": 42,
    "city": "壱岐市",
    "city_kana": "イキシ",
    "town": "郷ノ浦町小牧西触",
    "town_kana": "ゴウノウラチョウコマキニシフレ",
    "street": null,
    "office_name": null,
    "office_name_kana": null
  },
  "5106": {
    "zip_code": "8115106",
    "prefecture": "長崎県",
    "prefecture_kana": "ナガサキケン",
    "prefecture_code": 42,
    "city": "壱岐市",
    "city_kana": "イキシ",
    "town": "郷ノ浦町小牧東触",
    "town_kana": "ゴウノウラチョウコマキヒガシフレ",
    "street": null,
    "office_name": null,
    "office_name_kana": null
  },
  "5107": {
    "zip_code": "8115107",
    "prefecture": "長崎県",
    "prefecture_kana": "ナガサキケン",
    "prefecture_code": 42,
    "city": "壱岐市",
    "city_kana": "イキシ",
    "town": "郷ノ浦町有安触",
    "town_kana": "ゴウノウラチョウアリヤスフレ",
    "street": null,
    "office_name": null,
    "office_name_kana": null
  },
  "5111": {
    "zip_code": "8115111",
    "prefecture": "長崎県",
    "prefecture_kana": "ナガサキケン",
    "prefecture_code": 42,
    "city": "壱岐市",
    "city_kana": "イキシ",
    "town": "郷ノ浦町半城本村触",
    "town_kana": "ゴウノウラチョウハンセイホンムラフレ",
    "street": null,
    "office_name": null,
    "office_name_kana": null
  },
  "5112": {
    "zip_code": "8115112",
    "prefecture": "長崎県",
    "prefecture_kana": "ナガサキケン",
    "prefecture_code": 42,
    "city": "壱岐市",
    "city_kana": "イキシ",
    "town": "郷ノ浦町大浦触",
    "town_kana": "ゴウノウラチョウオオウラフレ",
    "street": null,
    "office_name": null,
    "office_name_kana": null
  },
  "5113": {
    "zip_code": "8115113",
    "prefecture": "長崎県",
    "prefecture_kana": "ナガサキケン",
    "prefecture_code": 42,
    "city": "壱岐市",
    "city_kana": "イキシ",
    "town": "郷ノ浦町牛方触",
    "town_kana": "ゴウノウラチョウウシカタフレ",
    "street": null,
    "office_name": null,
    "office_name_kana": null
  },
  "5114": {
    "zip_code": "8115114",
    "prefecture": "長崎県",
    "prefecture_kana": "ナガサキケン",
    "prefecture_code": 42,
    "city": "壱岐市",
    "city_kana": "イキシ",
    "town": "郷ノ浦町柳田触",
    "town_kana": "ゴウノウラチョウヤナギダフレ",
    "street": null,
    "office_name": null,
    "office_name_kana": null
  },
  "5115": {
    "zip_code": "8115115",
    "prefecture": "長崎県",
    "prefecture_kana": "ナガサキケン",
    "prefecture_code": 42,
    "city": "壱岐市",
    "city_kana": "イキシ",
    "town": "郷ノ浦町木田触",
    "town_kana": "ゴウノウラチョウキダフレ",
    "street": null,
    "office_name": null,
    "office_name_kana": null
  },
  "5116": {
    "zip_code": "8115116",
    "prefecture": "長崎県",
    "prefecture_kana": "ナガサキケン",
    "prefecture_code": 42,
    "city": "壱岐市",
    "city_kana": "イキシ",
    "town": "郷ノ浦町物部本村触",
    "town_kana": "ゴウノウラチョウモノベホンムラフレ",
    "street": null,
    "office_name": null,
    "office_name_kana": null
  },
  "5117": {
    "zip_code": "8115117",
    "prefecture": "長崎県",
    "prefecture_kana": "ナガサキケン",
    "prefecture_code": 42,
    "city": "壱岐市",
    "city_kana": "イキシ",
    "town": "郷ノ浦町田中触",
    "town_kana": "ゴウノウラチョウタナカフレ",
    "street": null,
    "office_name": null,
    "office_name_kana": null
  },
  "5121": {
    "zip_code": "8115121",
    "prefecture": "長崎県",
    "prefecture_kana": "ナガサキケン",
    "prefecture_code": 42,
    "city": "壱岐市",
    "city_kana": "イキシ",
    "town": "郷ノ浦町平人触",
    "town_kana": "ゴウノウラチョウヒロウトフレ",
    "street": null,
    "office_name": null,
    "office_name_kana": null
  },
  "5122": {
    "zip_code": "8115122",
    "prefecture": "長崎県",
    "prefecture_kana": "ナガサキケン",
    "prefecture_code": 42,
    "city": "壱岐市",
    "city_kana": "イキシ",
    "town": "郷ノ浦町大原触",
    "town_kana": "ゴウノウラチョウタイバルフレ",
    "street": null,
    "office_name": null,
    "office_name_kana": null
  },
  "5123": {
    "zip_code": "8115123",
    "prefecture": "長崎県",
    "prefecture_kana": "ナガサキケン",
    "prefecture_code": 42,
    "city": "壱岐市",
    "city_kana": "イキシ",
    "town": "郷ノ浦町釘山触",
    "town_kana": "ゴウノウラチョウクギヤマフレ",
    "street": null,
    "office_name": null,
    "office_name_kana": null
  },
  "5124": {
    "zip_code": "8115124",
    "prefecture": "長崎県",
    "prefecture_kana": "ナガサキケン",
    "prefecture_code": 42,
    "city": "壱岐市",
    "city_kana": "イキシ",
    "town": "郷ノ浦町志原南触",
    "town_kana": "ゴウノウラチョウシハラミナミフレ",
    "street": null,
    "office_name": null,
    "office_name_kana": null
  },
  "5125": {
    "zip_code": "8115125",
    "prefecture": "長崎県",
    "prefecture_kana": "ナガサキケン",
    "prefecture_code": 42,
    "city": "壱岐市",
    "city_kana": "イキシ",
    "town": "郷ノ浦町志原西触",
    "town_kana": "ゴウノウラチョウシハラニシフレ",
    "street": null,
    "office_name": null,
    "office_name_kana": null
  },
  "5131": {
    "zip_code": "8115131",
    "prefecture": "長崎県",
    "prefecture_kana": "ナガサキケン",
    "prefecture_code": 42,
    "city": "壱岐市",
    "city_kana": "イキシ",
    "town": "郷ノ浦町永田触",
    "town_kana": "ゴウノウラチョウナガタフレ",
    "street": null,
    "office_name": null,
    "office_name_kana": null
  },
  "5132": {
    "zip_code": "8115132",
    "prefecture": "長崎県",
    "prefecture_kana": "ナガサキケン",
    "prefecture_code": 42,
    "city": "壱岐市",
    "city_kana": "イキシ",
    "town": "郷ノ浦町東触",
    "town_kana": "ゴウノウラチョウヒガシフレ",
    "street": null,
    "office_name": null,
    "office_name_kana": null
  },
  "5133": {
    "zip_code": "8115133",
    "prefecture": "長崎県",
    "prefecture_kana": "ナガサキケン",
    "prefecture_code": 42,
    "city": "壱岐市",
    "city_kana": "イキシ",
    "town": "郷ノ浦町本村触",
    "town_kana": "ゴウノウラチョウホンムラフレ",
    "street": null,
    "office_name": null,
    "office_name_kana": null
  },
  "5134": {
    "zip_code": "8115134",
    "prefecture": "長崎県",
    "prefecture_kana": "ナガサキケン",
    "prefecture_code": 42,
    "city": "壱岐市",
    "city_kana": "イキシ",
    "town": "郷ノ浦町庄触",
    "town_kana": "ゴウノウラチョウショウフレ",
    "street": null,
    "office_name": null,
    "office_name_kana": null
  },
  "5135": {
    "zip_code": "8115135",
    "prefecture": "長崎県",
    "prefecture_kana": "ナガサキケン",
    "prefecture_code": 42,
    "city": "壱岐市",
    "city_kana": "イキシ",
    "town": "郷ノ浦町郷ノ浦",
    "town_kana": "ゴウノウラチョウゴウノウラ",
    "street": null,
    "office_name": null,
    "office_name_kana": null
  },
  "5136": {
    "zip_code": "8115136",
    "prefecture": "長崎県",
    "prefecture_kana": "ナガサキケン",
    "prefecture_code": 42,
    "city": "壱岐市",
    "city_kana": "イキシ",
    "town": "郷ノ浦町片原触",
    "town_kana": "ゴウノウラチョウカタバルフレ",
    "street": null,
    "office_name": null,
    "office_name_kana": null
  },
  "5141": {
    "zip_code": "8115141",
    "prefecture": "長崎県",
    "prefecture_kana": "ナガサキケン",
    "prefecture_code": 42,
    "city": "壱岐市",
    "city_kana": "イキシ",
    "town": "郷ノ浦町若松触",
    "town_kana": "ゴウノウラチョウワカマツフレ",
    "street": null,
    "office_name": null,
    "office_name_kana": null
  },
  "5142": {
    "zip_code": "8115142",
    "prefecture": "長崎県",
    "prefecture_kana": "ナガサキケン",
    "prefecture_code": 42,
    "city": "壱岐市",
    "city_kana": "イキシ",
    "town": "郷ノ浦町坪触",
    "town_kana": "ゴウノウラチョウツボフレ",
    "street": null,
    "office_name": null,
    "office_name_kana": null
  },
  "5143": {
    "zip_code": "8115143",
    "prefecture": "長崎県",
    "prefecture_kana": "ナガサキケン",
    "prefecture_code": 42,
    "city": "壱岐市",
    "city_kana": "イキシ",
    "town": "郷ノ浦町初山西触",
    "town_kana": "ゴウノウラチョウハツヤマニシフレ",
    "street": null,
    "office_name": null,
    "office_name_kana": null
  },
  "5144": {
    "zip_code": "8115144",
    "prefecture": "長崎県",
    "prefecture_kana": "ナガサキケン",
    "prefecture_code": 42,
    "city": "壱岐市",
    "city_kana": "イキシ",
    "town": "郷ノ浦町初山東触",
    "town_kana": "ゴウノウラチョウハツヤマヒガシフレ",
    "street": null,
    "office_name": null,
    "office_name_kana": null
  },
  "5151": {
    "zip_code": "8115151",
    "prefecture": "長崎県",
    "prefecture_kana": "ナガサキケン",
    "prefecture_code": 42,
    "city": "壱岐市",
    "city_kana": "イキシ",
    "town": "郷ノ浦町渡良浦",
    "town_kana": "ゴウノウラチョウワタラウラ",
    "street": null,
    "office_name": null,
    "office_name_kana": null
  },
  "5152": {
    "zip_code": "8115152",
    "prefecture": "長崎県",
    "prefecture_kana": "ナガサキケン",
    "prefecture_code": 42,
    "city": "壱岐市",
    "city_kana": "イキシ",
    "town": "郷ノ浦町渡良南触",
    "town_kana": "ゴウノウラチョウワタラミナミフレ",
    "street": null,
    "office_name": null,
    "office_name_kana": null
  },
  "5153": {
    "zip_code": "8115153",
    "prefecture": "長崎県",
    "prefecture_kana": "ナガサキケン",
    "prefecture_code": 42,
    "city": "壱岐市",
    "city_kana": "イキシ",
    "town": "郷ノ浦町渡良西触",
    "town_kana": "ゴウノウラチョウワタラニシフレ",
    "street": null,
    "office_name": null,
    "office_name_kana": null
  },
  "5154": {
    "zip_code": "8115154",
    "prefecture": "長崎県",
    "prefecture_kana": "ナガサキケン",
    "prefecture_code": 42,
    "city": "壱岐市",
    "city_kana": "イキシ",
    "town": "郷ノ浦町渡良東触",
    "town_kana": "ゴウノウラチョウワタラヒガシフレ",
    "street": null,
    "office_name": null,
    "office_name_kana": null
  },
  "5155": {
    "zip_code": "8115155",
    "prefecture": "長崎県",
    "prefecture_kana": "ナガサキケン",
    "prefecture_code": 42,
    "city": "壱岐市",
    "city_kana": "イキシ",
    "town": "郷ノ浦町麦谷触",
    "town_kana": "ゴウノウラチョウムギヤフレ",
    "street": null,
    "office_name": null,
    "office_name_kana": null
  },
  "5161": {
    "zip_code": "8115161",
    "prefecture": "長崎県",
    "prefecture_kana": "ナガサキケン",
    "prefecture_code": 42,
    "city": "壱岐市",
    "city_kana": "イキシ",
    "town": "郷ノ浦町大島",
    "town_kana": "ゴウノウラチョウオオシマ",
    "street": null,
    "office_name": null,
    "office_name_kana": null
  },
  "5162": {
    "zip_code": "8115162",
    "prefecture": "長崎県",
    "prefecture_kana": "ナガサキケン",
    "prefecture_code": 42,
    "city": "壱岐市",
    "city_kana": "イキシ",
    "town": "郷ノ浦町長島",
    "town_kana": "ゴウノウラチョウナガシマ",
    "street": null,
    "office_name": null,
    "office_name_kana": null
  },
  "5163": {
    "zip_code": "8115163",
    "prefecture": "長崎県",
    "prefecture_kana": "ナガサキケン",
    "prefecture_code": 42,
    "city": "壱岐市",
    "city_kana": "イキシ",
    "town": "郷ノ浦町原島",
    "town_kana": "ゴウノウラチョウハルシマ",
    "street": null,
    "office_name": null,
    "office_name_kana": null
  },
  "5192": {
    "zip_code": "8115192",
    "prefecture": "長崎県",
    "prefecture_kana": "ナガサキケン",
    "prefecture_code": 42,
    "city": "壱岐市",
    "city_kana": "イキシ",
    "town": "郷ノ浦町本村触",
    "town_kana": "ゴウノウラチョウホンムラフレ",
    "street": "５６２",
    "office_name": "壱岐市役所",
    "office_name_kana": "イキシヤクシヨ"
  },
  "5201": {
    "zip_code": "8115201",
    "prefecture": "長崎県",
    "prefecture_kana": "ナガサキケン",
    "prefecture_code": 42,
    "city": "壱岐市",
    "city_kana": "イキシ",
    "town": "石田町山崎触",
    "town_kana": "イシダチョウヤマサキフレ",
    "street": null,
    "office_name": null,
    "office_name_kana": null
  },
  "5202": {
    "zip_code": "8115202",
    "prefecture": "長崎県",
    "prefecture_kana": "ナガサキケン",
    "prefecture_code": 42,
    "city": "壱岐市",
    "city_kana": "イキシ",
    "town": "石田町筒城仲触",
    "town_kana": "イシダチョウツツキナカフレ",
    "street": null,
    "office_name": null,
    "office_name_kana": null
  },
  "5203": {
    "zip_code": "8115203",
    "prefecture": "長崎県",
    "prefecture_kana": "ナガサキケン",
    "prefecture_code": 42,
    "city": "壱岐市",
    "city_kana": "イキシ",
    "town": "石田町筒城東触",
    "town_kana": "イシダチョウツツキヒガシフレ",
    "street": null,
    "office_name": null,
    "office_name_kana": null
  },
  "5204": {
    "zip_code": "8115204",
    "prefecture": "長崎県",
    "prefecture_kana": "ナガサキケン",
    "prefecture_code": 42,
    "city": "壱岐市",
    "city_kana": "イキシ",
    "town": "石田町筒城西触",
    "town_kana": "イシダチョウツツキニシフレ",
    "street": null,
    "office_name": null,
    "office_name_kana": null
  },
  "5211": {
    "zip_code": "8115211",
    "prefecture": "長崎県",
    "prefecture_kana": "ナガサキケン",
    "prefecture_code": 42,
    "city": "壱岐市",
    "city_kana": "イキシ",
    "town": "石田町石田東触",
    "town_kana": "イシダチョウイシダヒガシフレ",
    "street": null,
    "office_name": null,
    "office_name_kana": null
  },
  "5212": {
    "zip_code": "8115212",
    "prefecture": "長崎県",
    "prefecture_kana": "ナガサキケン",
    "prefecture_code": 42,
    "city": "壱岐市",
    "city_kana": "イキシ",
    "town": "石田町本村触",
    "town_kana": "イシダチョウホンムラフレ",
    "street": null,
    "office_name": null,
    "office_name_kana": null
  },
  "5213": {
    "zip_code": "8115213",
    "prefecture": "長崎県",
    "prefecture_kana": "ナガサキケン",
    "prefecture_code": 42,
    "city": "壱岐市",
    "city_kana": "イキシ",
    "town": "石田町南触",
    "town_kana": "イシダチョウミナミフレ",
    "street": null,
    "office_name": null,
    "office_name_kana": null
  },
  "5214": {
    "zip_code": "8115214",
    "prefecture": "長崎県",
    "prefecture_kana": "ナガサキケン",
    "prefecture_code": 42,
    "city": "壱岐市",
    "city_kana": "イキシ",
    "town": "石田町印通寺浦",
    "town_kana": "イシダチョウインドオジウラ",
    "street": null,
    "office_name": null,
    "office_name_kana": null
  },
  "5215": {
    "zip_code": "8115215",
    "prefecture": "長崎県",
    "prefecture_kana": "ナガサキケン",
    "prefecture_code": 42,
    "city": "壱岐市",
    "city_kana": "イキシ",
    "town": "石田町石田西触",
    "town_kana": "イシダチョウイシダニシフレ",
    "street": null,
    "office_name": null,
    "office_name_kana": null
  },
  "5221": {
    "zip_code": "8115221",
    "prefecture": "長崎県",
    "prefecture_kana": "ナガサキケン",
    "prefecture_code": 42,
    "city": "壱岐市",
    "city_kana": "イキシ",
    "town": "石田町池田東触",
    "town_kana": "イシダチョウイケダヒガシフレ",
    "street": null,
    "office_name": null,
    "office_name_kana": null
  },
  "5222": {
    "zip_code": "8115222",
    "prefecture": "長崎県",
    "prefecture_kana": "ナガサキケン",
    "prefecture_code": 42,
    "city": "壱岐市",
    "city_kana": "イキシ",
    "town": "石田町池田仲触",
    "town_kana": "イシダチョウイケダナカフレ",
    "street": null,
    "office_name": null,
    "office_name_kana": null
  },
  "5223": {
    "zip_code": "8115223",
    "prefecture": "長崎県",
    "prefecture_kana": "ナガサキケン",
    "prefecture_code": 42,
    "city": "壱岐市",
    "city_kana": "イキシ",
    "town": "石田町久喜触",
    "town_kana": "イシダチョウクキフレ",
    "street": null,
    "office_name": null,
    "office_name_kana": null
  },
  "5224": {
    "zip_code": "8115224",
    "prefecture": "長崎県",
    "prefecture_kana": "ナガサキケン",
    "prefecture_code": 42,
    "city": "壱岐市",
    "city_kana": "イキシ",
    "town": "石田町池田西触",
    "town_kana": "イシダチョウイケダニシフレ",
    "street": null,
    "office_name": null,
    "office_name_kana": null
  },
  "5225": {
    "zip_code": "8115225",
    "prefecture": "長崎県",
    "prefecture_kana": "ナガサキケン",
    "prefecture_code": 42,
    "city": "壱岐市",
    "city_kana": "イキシ",
    "town": "石田町湯岳興触",
    "town_kana": "イシダチョウユタケコウフレ",
    "street": null,
    "office_name": null,
    "office_name_kana": null
  },
  "5226": {
    "zip_code": "8115226",
    "prefecture": "長崎県",
    "prefecture_kana": "ナガサキケン",
    "prefecture_code": 42,
    "city": "壱岐市",
    "city_kana": "イキシ",
    "town": "石田町湯岳射手吉触",
    "town_kana": "イシダチョウユタケイテヨシフレ",
    "street": null,
    "office_name": null,
    "office_name_kana": null
  },
  "5301": {
    "zip_code": "8115301",
    "prefecture": "長崎県",
    "prefecture_kana": "ナガサキケン",
    "prefecture_code": 42,
    "city": "壱岐市",
    "city_kana": "イキシ",
    "town": "芦辺町芦辺浦",
    "town_kana": "アシベチョウアシベウラ",
    "street": null,
    "office_name": null,
    "office_name_kana": null
  },
  "5311": {
    "zip_code": "8115311",
    "prefecture": "長崎県",
    "prefecture_kana": "ナガサキケン",
    "prefecture_code": 42,
    "city": "壱岐市",
    "city_kana": "イキシ",
    "town": "芦辺町諸吉本村触",
    "town_kana": "アシベチョウモロヨシホンムラフレ",
    "street": null,
    "office_name": null,
    "office_name_kana": null
  },
  "5312": {
    "zip_code": "8115312",
    "prefecture": "長崎県",
    "prefecture_kana": "ナガサキケン",
    "prefecture_code": 42,
    "city": "壱岐市",
    "city_kana": "イキシ",
    "town": "芦辺町諸吉南触",
    "town_kana": "アシベチョウモロヨシミナミフレ",
    "street": null,
    "office_name": null,
    "office_name_kana": null
  },
  "5313": {
    "zip_code": "8115313",
    "prefecture": "長崎県",
    "prefecture_kana": "ナガサキケン",
    "prefecture_code": 42,
    "city": "壱岐市",
    "city_kana": "イキシ",
    "town": "芦辺町諸吉仲触",
    "town_kana": "アシベチョウモロヨシナカフレ",
    "street": null,
    "office_name": null,
    "office_name_kana": null
  },
  "5314": {
    "zip_code": "8115314",
    "prefecture": "長崎県",
    "prefecture_kana": "ナガサキケン",
    "prefecture_code": 42,
    "city": "壱岐市",
    "city_kana": "イキシ",
    "town": "芦辺町諸吉東触",
    "town_kana": "アシベチョウモロヨシヒガシフレ",
    "street": null,
    "office_name": null,
    "office_name_kana": null
  },
  "5315": {
    "zip_code": "8115315",
    "prefecture": "長崎県",
    "prefecture_kana": "ナガサキケン",
    "prefecture_code": 42,
    "city": "壱岐市",
    "city_kana": "イキシ",
    "town": "芦辺町諸吉二亦触",
    "town_kana": "アシベチョウモロヨシフタマタフレ",
    "street": null,
    "office_name": null,
    "office_name_kana": null
  },
  "5316": {
    "zip_code": "8115316",
    "prefecture": "長崎県",
    "prefecture_kana": "ナガサキケン",
    "prefecture_code": 42,
    "city": "壱岐市",
    "city_kana": "イキシ",
    "town": "芦辺町諸吉大石触",
    "town_kana": "アシベチョウモロヨシオオイシフレ",
    "street": null,
    "office_name": null,
    "office_name_kana": null
  },
  "5321": {
    "zip_code": "8115321",
    "prefecture": "長崎県",
    "prefecture_kana": "ナガサキケン",
    "prefecture_code": 42,
    "city": "壱岐市",
    "city_kana": "イキシ",
    "town": "芦辺町深江栄触",
    "town_kana": "アシベチョウフカエサカエフレ",
    "street": null,
    "office_name": null,
    "office_name_kana": null
  },
  "5322": {
    "zip_code": "8115322",
    "prefecture": "長崎県",
    "prefecture_kana": "ナガサキケン",
    "prefecture_code": 42,
    "city": "壱岐市",
    "city_kana": "イキシ",
    "town": "芦辺町深江鶴亀触",
    "town_kana": "アシベチョウフカエツルキフレ",
    "street": null,
    "office_name": null,
    "office_name_kana": null
  },
  "5323": {
    "zip_code": "8115323",
    "prefecture": "長崎県",
    "prefecture_kana": "ナガサキケン",
    "prefecture_code": 42,
    "city": "壱岐市",
    "city_kana": "イキシ",
    "town": "芦辺町深江平触",
    "town_kana": "アシベチョウフカエヒラフレ",
    "street": null,
    "office_name": null,
    "office_name_kana": null
  },
  "5324": {
    "zip_code": "8115324",
    "prefecture": "長崎県",
    "prefecture_kana": "ナガサキケン",
    "prefecture_code": 42,
    "city": "壱岐市",
    "city_kana": "イキシ",
    "town": "芦辺町深江東触",
    "town_kana": "アシベチョウフカエヒガシフレ",
    "street": null,
    "office_name": null,
    "office_name_kana": null
  },
  "5325": {
    "zip_code": "8115325",
    "prefecture": "長崎県",
    "prefecture_kana": "ナガサキケン",
    "prefecture_code": 42,
    "city": "壱岐市",
    "city_kana": "イキシ",
    "town": "芦辺町深江南触",
    "town_kana": "アシベチョウフカエミナミフレ",
    "street": null,
    "office_name": null,
    "office_name_kana": null
  },
  "5326": {
    "zip_code": "8115326",
    "prefecture": "長崎県",
    "prefecture_kana": "ナガサキケン",
    "prefecture_code": 42,
    "city": "壱岐市",
    "city_kana": "イキシ",
    "town": "芦辺町深江本村触",
    "town_kana": "アシベチョウフカエホンムラフレ",
    "street": null,
    "office_name": null,
    "office_name_kana": null
  },
  "5461": {
    "zip_code": "8115461",
    "prefecture": "長崎県",
    "prefecture_kana": "ナガサキケン",
    "prefecture_code": 42,
    "city": "壱岐市",
    "city_kana": "イキシ",
    "town": "芦辺町瀬戸浦",
    "town_kana": "アシベチョウセトウラ",
    "street": null,
    "office_name": null,
    "office_name_kana": null
  },
  "5462": {
    "zip_code": "8115462",
    "prefecture": "長崎県",
    "prefecture_kana": "ナガサキケン",
    "prefecture_code": 42,
    "city": "壱岐市",
    "city_kana": "イキシ",
    "town": "芦辺町箱崎大左右触",
    "town_kana": "アシベチョウハコザキタイソウフレ",
    "street": null,
    "office_name": null,
    "office_name_kana": null
  },
  "5463": {
    "zip_code": "8115463",
    "prefecture": "長崎県",
    "prefecture_kana": "ナガサキケン",
    "prefecture_code": 42,
    "city": "壱岐市",
    "city_kana": "イキシ",
    "town": "芦辺町箱崎中山触",
    "town_kana": "アシベチョウハコザキナカヤマフレ",
    "street": null,
    "office_name": null,
    "office_name_kana": null
  },
  "5464": {
    "zip_code": "8115464",
    "prefecture": "長崎県",
    "prefecture_kana": "ナガサキケン",
    "prefecture_code": 42,
    "city": "壱岐市",
    "city_kana": "イキシ",
    "town": "芦辺町箱崎谷江触",
    "town_kana": "アシベチョウハコザキタニエフレ",
    "street": null,
    "office_name": null,
    "office_name_kana": null
  },
  "5465": {
    "zip_code": "8115465",
    "prefecture": "長崎県",
    "prefecture_kana": "ナガサキケン",
    "prefecture_code": 42,
    "city": "壱岐市",
    "city_kana": "イキシ",
    "town": "芦辺町箱崎釘ノ尾触",
    "town_kana": "アシベチョウハコザキクギノオフレ",
    "street": null,
    "office_name": null,
    "office_name_kana": null
  },
  "5466": {
    "zip_code": "8115466",
    "prefecture": "長崎県",
    "prefecture_kana": "ナガサキケン",
    "prefecture_code": 42,
    "city": "壱岐市",
    "city_kana": "イキシ",
    "town": "芦辺町箱崎本村触",
    "town_kana": "アシベチョウハコザキホンムラフレ",
    "street": null,
    "office_name": null,
    "office_name_kana": null
  },
  "5467": {
    "zip_code": "8115467",
    "prefecture": "長崎県",
    "prefecture_kana": "ナガサキケン",
    "prefecture_code": 42,
    "city": "壱岐市",
    "city_kana": "イキシ",
    "town": "芦辺町箱崎江角触",
    "town_kana": "アシベチョウハコザキエスミフレ",
    "street": null,
    "office_name": null,
    "office_name_kana": null
  },
  "5468": {
    "zip_code": "8115468",
    "prefecture": "長崎県",
    "prefecture_kana": "ナガサキケン",
    "prefecture_code": 42,
    "city": "壱岐市",
    "city_kana": "イキシ",
    "town": "芦辺町箱崎諸津触",
    "town_kana": "アシベチョウハコザキモロツフレ",
    "street": null,
    "office_name": null,
    "office_name_kana": null
  },
  "5501": {
    "zip_code": "8115501",
    "prefecture": "長崎県",
    "prefecture_kana": "ナガサキケン",
    "prefecture_code": 42,
    "city": "壱岐市",
    "city_kana": "イキシ",
    "town": "勝本町勝本浦",
    "town_kana": "カツモトチョウカツモトウラ",
    "street": null,
    "office_name": null,
    "office_name_kana": null
  },
  "5511": {
    "zip_code": "8115511",
    "prefecture": "長崎県",
    "prefecture_kana": "ナガサキケン",
    "prefecture_code": 42,
    "city": "壱岐市",
    "city_kana": "イキシ",
    "town": "勝本町仲触",
    "town_kana": "カツモトチョウナカフレ",
    "street": null,
    "office_name": null,
    "office_name_kana": null
  },
  "5512": {
    "zip_code": "8115512",
    "prefecture": "長崎県",
    "prefecture_kana": "ナガサキケン",
    "prefecture_code": 42,
    "city": "壱岐市",
    "city_kana": "イキシ",
    "town": "勝本町東触",
    "town_kana": "カツモトチョウヒガシフレ",
    "street": null,
    "office_name": null,
    "office_name_kana": null
  },
  "5513": {
    "zip_code": "8115513",
    "prefecture": "長崎県",
    "prefecture_kana": "ナガサキケン",
    "prefecture_code": 42,
    "city": "壱岐市",
    "city_kana": "イキシ",
    "town": "勝本町北触",
    "town_kana": "カツモトチョウキタフレ",
    "street": null,
    "office_name": null,
    "office_name_kana": null
  },
  "5521": {
    "zip_code": "8115521",
    "prefecture": "長崎県",
    "prefecture_kana": "ナガサキケン",
    "prefecture_code": 42,
    "city": "壱岐市",
    "city_kana": "イキシ",
    "town": "勝本町西戸触",
    "town_kana": "カツモトチョウサイドフレ",
    "street": null,
    "office_name": null,
    "office_name_kana": null
  },
  "5522": {
    "zip_code": "8115522",
    "prefecture": "長崎県",
    "prefecture_kana": "ナガサキケン",
    "prefecture_code": 42,
    "city": "壱岐市",
    "city_kana": "イキシ",
    "town": "勝本町新城東触",
    "town_kana": "カツモトチョウシンジョウヒガシフレ",
    "street": null,
    "office_name": null,
    "office_name_kana": null
  },
  "5523": {
    "zip_code": "8115523",
    "prefecture": "長崎県",
    "prefecture_kana": "ナガサキケン",
    "prefecture_code": 42,
    "city": "壱岐市",
    "city_kana": "イキシ",
    "town": "勝本町片山触",
    "town_kana": "カツモトチョウカタヤマフレ",
    "street": null,
    "office_name": null,
    "office_name_kana": null
  },
  "5531": {
    "zip_code": "8115531",
    "prefecture": "長崎県",
    "prefecture_kana": "ナガサキケン",
    "prefecture_code": 42,
    "city": "壱岐市",
    "city_kana": "イキシ",
    "town": "勝本町坂本触",
    "town_kana": "カツモトチョウサカモトフレ",
    "street": null,
    "office_name": null,
    "office_name_kana": null
  },
  "5532": {
    "zip_code": "8115532",
    "prefecture": "長崎県",
    "prefecture_kana": "ナガサキケン",
    "prefecture_code": 42,
    "city": "壱岐市",
    "city_kana": "イキシ",
    "town": "勝本町大久保触",
    "town_kana": "カツモトチョウオオクボフレ",
    "street": null,
    "office_name": null,
    "office_name_kana": null
  },
  "5533": {
    "zip_code": "8115533",
    "prefecture": "長崎県",
    "prefecture_kana": "ナガサキケン",
    "prefecture_code": 42,
    "city": "壱岐市",
    "city_kana": "イキシ",
    "town": "勝本町新城西触",
    "town_kana": "カツモトチョウシンジョウニシフレ",
    "street": null,
    "office_name": null,
    "office_name_kana": null
  },
  "5541": {
    "zip_code": "8115541",
    "prefecture": "長崎県",
    "prefecture_kana": "ナガサキケン",
    "prefecture_code": 42,
    "city": "壱岐市",
    "city_kana": "イキシ",
    "town": "勝本町本宮西触",
    "town_kana": "カツモトチョウホングウニシフレ",
    "street": null,
    "office_name": null,
    "office_name_kana": null
  },
  "5542": {
    "zip_code": "8115542",
    "prefecture": "長崎県",
    "prefecture_kana": "ナガサキケン",
    "prefecture_code": 42,
    "city": "壱岐市",
    "city_kana": "イキシ",
    "town": "勝本町本宮東触",
    "town_kana": "カツモトチョウホングウヒガシフレ",
    "street": null,
    "office_name": null,
    "office_name_kana": null
  },
  "5543": {
    "zip_code": "8115543",
    "prefecture": "長崎県",
    "prefecture_kana": "ナガサキケン",
    "prefecture_code": 42,
    "city": "壱岐市",
    "city_kana": "イキシ",
    "town": "勝本町上場触",
    "town_kana": "カツモトチョウウワバフレ",
    "street": null,
    "office_name": null,
    "office_name_kana": null
  },
  "5544": {
    "zip_code": "8115544",
    "prefecture": "長崎県",
    "prefecture_kana": "ナガサキケン",
    "prefecture_code": 42,
    "city": "壱岐市",
    "city_kana": "イキシ",
    "town": "勝本町布気触",
    "town_kana": "カツモトチョウフケフレ",
    "street": null,
    "office_name": null,
    "office_name_kana": null
  },
  "5545": {
    "zip_code": "8115545",
    "prefecture": "長崎県",
    "prefecture_kana": "ナガサキケン",
    "prefecture_code": 42,
    "city": "壱岐市",
    "city_kana": "イキシ",
    "town": "勝本町本宮南触",
    "town_kana": "カツモトチョウホングウミナミフレ",
    "street": null,
    "office_name": null,
    "office_name_kana": null
  },
  "5546": {
    "zip_code": "8115546",
    "prefecture": "長崎県",
    "prefecture_kana": "ナガサキケン",
    "prefecture_code": 42,
    "city": "壱岐市",
    "city_kana": "イキシ",
    "town": "勝本町本宮仲触",
    "town_kana": "カツモトチョウホングウナカフレ",
    "street": null,
    "office_name": null,
    "office_name_kana": null
  },
  "5551": {
    "zip_code": "8115551",
    "prefecture": "長崎県",
    "prefecture_kana": "ナガサキケン",
    "prefecture_code": 42,
    "city": "壱岐市",
    "city_kana": "イキシ",
    "town": "勝本町湯本浦",
    "town_kana": "カツモトチョウユノモトウラ",
    "street": null,
    "office_name": null,
    "office_name_kana": null
  },
  "5552": {
    "zip_code": "8115552",
    "prefecture": "長崎県",
    "prefecture_kana": "ナガサキケン",
    "prefecture_code": 42,
    "city": "壱岐市",
    "city_kana": "イキシ",
    "town": "勝本町百合畑触",
    "town_kana": "カツモトチョウユリハタフレ",
    "street": null,
    "office_name": null,
    "office_name_kana": null
  },
  "5553": {
    "zip_code": "8115553",
    "prefecture": "長崎県",
    "prefecture_kana": "ナガサキケン",
    "prefecture_code": 42,
    "city": "壱岐市",
    "city_kana": "イキシ",
    "town": "勝本町立石東触",
    "town_kana": "カツモトチョウタテイシヒガシフレ",
    "street": null,
    "office_name": null,
    "office_name_kana": null
  },
  "5554": {
    "zip_code": "8115554",
    "prefecture": "長崎県",
    "prefecture_kana": "ナガサキケン",
    "prefecture_code": 42,
    "city": "壱岐市",
    "city_kana": "イキシ",
    "town": "勝本町立石仲触",
    "town_kana": "カツモトチョウタテイシナカフレ",
    "street": null,
    "office_name": null,
    "office_name_kana": null
  },
  "5555": {
    "zip_code": "8115555",
    "prefecture": "長崎県",
    "prefecture_kana": "ナガサキケン",
    "prefecture_code": 42,
    "city": "壱岐市",
    "city_kana": "イキシ",
    "town": "勝本町立石南触",
    "town_kana": "カツモトチョウタテイシミナミフレ",
    "street": null,
    "office_name": null,
    "office_name_kana": null
  },
  "5556": {
    "zip_code": "8115556",
    "prefecture": "長崎県",
    "prefecture_kana": "ナガサキケン",
    "prefecture_code": 42,
    "city": "壱岐市",
    "city_kana": "イキシ",
    "town": "勝本町立石西触",
    "town_kana": "カツモトチョウタテイシニシフレ",
    "street": null,
    "office_name": null,
    "office_name_kana": null
  },
  "5731": {
    "zip_code": "8115731",
    "prefecture": "長崎県",
    "prefecture_kana": "ナガサキケン",
    "prefecture_code": 42,
    "city": "壱岐市",
    "city_kana": "イキシ",
    "town": "芦辺町国分当田触",
    "town_kana": "アシベチョウコクブトウダフレ",
    "street": null,
    "office_name": null,
    "office_name_kana": null
  },
  "5732": {
    "zip_code": "8115732",
    "prefecture": "長崎県",
    "prefecture_kana": "ナガサキケン",
    "prefecture_code": 42,
    "city": "壱岐市",
    "city_kana": "イキシ",
    "town": "芦辺町国分東触",
    "town_kana": "アシベチョウコクブヒガシフレ",
    "street": null,
    "office_name": null,
    "office_name_kana": null
  },
  "5733": {
    "zip_code": "8115733",
    "prefecture": "長崎県",
    "prefecture_kana": "ナガサキケン",
    "prefecture_code": 42,
    "city": "壱岐市",
    "city_kana": "イキシ",
    "town": "芦辺町国分川迎触",
    "town_kana": "アシベチョウコクブカワムカエフレ",
    "street": null,
    "office_name": null,
    "office_name_kana": null
  },
  "5734": {
    "zip_code": "8115734",
    "prefecture": "長崎県",
    "prefecture_kana": "ナガサキケン",
    "prefecture_code": 42,
    "city": "壱岐市",
    "city_kana": "イキシ",
    "town": "芦辺町国分本村触",
    "town_kana": "アシベチョウコクブホンムラフレ",
    "street": null,
    "office_name": null,
    "office_name_kana": null
  },
  "5741": {
    "zip_code": "8115741",
    "prefecture": "長崎県",
    "prefecture_kana": "ナガサキケン",
    "prefecture_code": 42,
    "city": "壱岐市",
    "city_kana": "イキシ",
    "town": "芦辺町住吉山信触",
    "town_kana": "アシベチョウスミヨシヤマノブフレ",
    "street": null,
    "office_name": null,
    "office_name_kana": null
  },
  "5742": {
    "zip_code": "8115742",
    "prefecture": "長崎県",
    "prefecture_kana": "ナガサキケン",
    "prefecture_code": 42,
    "city": "壱岐市",
    "city_kana": "イキシ",
    "town": "芦辺町住吉東触",
    "town_kana": "アシベチョウスミヨシヒガシフレ",
    "street": null,
    "office_name": null,
    "office_name_kana": null
  },
  "5743": {
    "zip_code": "8115743",
    "prefecture": "長崎県",
    "prefecture_kana": "ナガサキケン",
    "prefecture_code": 42,
    "city": "壱岐市",
    "city_kana": "イキシ",
    "town": "芦辺町住吉前触",
    "town_kana": "アシベチョウスミヨシマエフレ",
    "street": null,
    "office_name": null,
    "office_name_kana": null
  },
  "5744": {
    "zip_code": "8115744",
    "prefecture": "長崎県",
    "prefecture_kana": "ナガサキケン",
    "prefecture_code": 42,
    "city": "壱岐市",
    "city_kana": "イキシ",
    "town": "芦辺町住吉後触",
    "town_kana": "アシベチョウスミヨシウシロフレ",
    "street": null,
    "office_name": null,
    "office_name_kana": null
  },
  "5751": {
    "zip_code": "8115751",
    "prefecture": "長崎県",
    "prefecture_kana": "ナガサキケン",
    "prefecture_code": 42,
    "city": "壱岐市",
    "city_kana": "イキシ",
    "town": "芦辺町中野郷仲触",
    "town_kana": "アシベチョウナカノゴウナカフレ",
    "street": null,
    "office_name": null,
    "office_name_kana": null
  },
  "5752": {
    "zip_code": "8115752",
    "prefecture": "長崎県",
    "prefecture_kana": "ナガサキケン",
    "prefecture_code": 42,
    "city": "壱岐市",
    "city_kana": "イキシ",
    "town": "芦辺町中野郷東触",
    "town_kana": "アシベチョウナカノゴウヒガシフレ",
    "street": null,
    "office_name": null,
    "office_name_kana": null
  },
  "5753": {
    "zip_code": "8115753",
    "prefecture": "長崎県",
    "prefecture_kana": "ナガサキケン",
    "prefecture_code": 42,
    "city": "壱岐市",
    "city_kana": "イキシ",
    "town": "芦辺町湯岳本村触",
    "town_kana": "アシベチョウユタケホンムラフレ",
    "street": null,
    "office_name": null,
    "office_name_kana": null
  },
  "5754": {
    "zip_code": "8115754",
    "prefecture": "長崎県",
    "prefecture_kana": "ナガサキケン",
    "prefecture_code": 42,
    "city": "壱岐市",
    "city_kana": "イキシ",
    "town": "芦辺町湯岳今坂触",
    "town_kana": "アシベチョウユタケコンザカフレ",
    "street": null,
    "office_name": null,
    "office_name_kana": null
  },
  "5755": {
    "zip_code": "8115755",
    "prefecture": "長崎県",
    "prefecture_kana": "ナガサキケン",
    "prefecture_code": 42,
    "city": "壱岐市",
    "city_kana": "イキシ",
    "town": "芦辺町湯岳興触",
    "town_kana": "アシベチョウユタケコウフレ",
    "street": null,
    "office_name": null,
    "office_name_kana": null
  },
  "5756": {
    "zip_code": "8115756",
    "prefecture": "長崎県",
    "prefecture_kana": "ナガサキケン",
    "prefecture_code": 42,
    "city": "壱岐市",
    "city_kana": "イキシ",
    "town": "芦辺町中野郷本村触",
    "town_kana": "アシベチョウナカノゴウホンムラフレ",
    "street": null,
    "office_name": null,
    "office_name_kana": null
  },
  "5757": {
    "zip_code": "8115757",
    "prefecture": "長崎県",
    "prefecture_kana": "ナガサキケン",
    "prefecture_code": 42,
    "city": "壱岐市",
    "city_kana": "イキシ",
    "town": "芦辺町中野郷西触",
    "town_kana": "アシベチョウナカノゴウニシフレ",
    "street": null,
    "office_name": null,
    "office_name_kana": null
  }
}