{
  "0000": {
    "zip_code": "8120000",
    "prefecture": "福岡県",
    "prefecture_kana": "フクオカケン",
    "prefecture_code": 40,
    "city": "福岡市博多区",
    "city_kana": "フクオカシハカタク",
    "town": "",
    "town_kana": "",
    "street": null,
    "office_name": null,
    "office_name_kana": null
  },
  "0001": {
    "zip_code": "8120001",
    "prefecture": "福岡県",
    "prefecture_kana": "フクオカケン",
    "prefecture_code": 40,
    "city": "福岡市博多区",
    "city_kana": "フクオカシハカタク",
    "town": "大井",
    "town_kana": "オオイ",
    "street": null,
    "office_name": null,
    "office_name_kana": null
  },
  "0002": {
    "zip_code": "8120002",
    "prefecture": "福岡県",
    "prefecture_kana": "フクオカケン",
    "prefecture_code": 40,
    "city": "福岡市博多区",
    "city_kana": "フクオカシハカタク",
    "town": "空港前",
    "town_kana": "クウコウマエ",
    "street": null,
    "office_name": null,
    "office_name_kana": null
  },
  "0003": {
    "zip_code": "8120003",
    "prefecture": "福岡県",
    "prefecture_kana": "フクオカケン",
    "prefecture_code": 40,
    "city": "福岡市博多区",
    "city_kana": "フクオカシハカタク",
    "town": "下臼井",
    "town_kana": "シモウスイ",
    "street": null,
    "office_name": null,
    "office_name_kana": null
  },
  "0004": {
    "zip_code": "8120004",
    "prefecture": "福岡県",
    "prefecture_kana": "フクオカケン",
    "prefecture_code": 40,
    "city": "福岡市博多区",
    "city_kana": "フクオカシハカタク",
    "town": "榎田",
    "town_kana": "エノキダ",
    "street": null,
    "office_name": null,
    "office_name_kana": null
  },
  "0005": {
    "zip_code": "8120005",
    "prefecture": "福岡県",
    "prefecture_kana": "フクオカケン",
    "prefecture_code": 40,
    "city": "福岡市博多区",
    "city_kana": "フクオカシハカタク",
    "town": "上臼井",
    "town_kana": "カミウスイ",
    "street": null,
    "office_name": null,
    "office_name_kana": null
  },
  "0006": {
    "zip_code": "8120006",
    "prefecture": "福岡県",
    "prefecture_kana": "フクオカケン",
    "prefecture_code": 40,
    "city": "福岡市博多区",
    "city_kana": "フクオカシハカタク",
    "town": "上牟田",
    "town_kana": "カミムタ",
    "street": null,
    "office_name": null,
    "office_name_kana": null
  },
  "0007": {
    "zip_code": "8120007",
    "prefecture": "福岡県",
    "prefecture_kana": "フクオカケン",
    "prefecture_code": 40,
    "city": "福岡市博多区",
    "city_kana": "フクオカシハカタク",
    "town": "東比恵",
    "town_kana": "ヒガシヒエ",
    "street": null,
    "office_name": null,
    "office_name_kana": null
  },
  "0008": {
    "zip_code": "8120008",
    "prefecture": "福岡県",
    "prefecture_kana": "フクオカケン",
    "prefecture_code": 40,
    "city": "福岡市博多区",
    "city_kana": "フクオカシハカタク",
    "town": "東光",
    "town_kana": "トウコウ",
    "street": null,
    "office_name": null,
    "office_name_kana": null
  },
  "0011": {
    "zip_code": "8120011",
    "prefecture": "福岡県",
    "prefecture_kana": "フクオカケン",
    "prefecture_code": 40,
    "city": "福岡市博多区",
    "city_kana": "フクオカシハカタク",
    "town": "博多駅前",
    "town_kana": "ハカタエキマエ",
    "street": null,
    "office_name": null,
    "office_name_kana": null
  },
  "0012": {
    "zip_code": "8120012",
    "prefecture": "福岡県",
    "prefecture_kana": "フクオカケン",
    "prefecture_code": 40,
    "city": "福岡市博多区",
    "city_kana": "フクオカシハカタク",
    "town": "博多駅中央街",
    "town_kana": "ハカタエキチュウオウガイ",
    "street": null,
    "office_name": null,
    "office_name_kana": null
  },
  "0013": {
    "zip_code": "8120013",
    "prefecture": "福岡県",
    "prefecture_kana": "フクオカケン",
    "prefecture_code": 40,
    "city": "福岡市博多区",
    "city_kana": "フクオカシハカタク",
    "town": "博多駅東",
    "town_kana": "ハカタエキヒガシ",
    "street": null,
    "office_name": null,
    "office_name_kana": null
  },
  "0014": {
    "zip_code": "8120014",
    "prefecture": "福岡県",
    "prefecture_kana": "フクオカケン",
    "prefecture_code": 40,
    "city": "福岡市博多区",
    "city_kana": "フクオカシハカタク",
    "town": "比恵町",
    "town_kana": "ヒエマチ",
    "street": null,
    "office_name": null,
    "office_name_kana": null
  },
  "0015": {
    "zip_code": "8120015",
    "prefecture": "福岡県",
    "prefecture_kana": "フクオカケン",
    "prefecture_code": 40,
    "city": "福岡市博多区",
    "city_kana": "フクオカシハカタク",
    "town": "山王",
    "town_kana": "サンノウ",
    "street": null,
    "office_name": null,
    "office_name_kana": null
  },
  "0016": {
    "zip_code": "8120016",
    "prefecture": "福岡県",
    "prefecture_kana": "フクオカケン",
    "prefecture_code": 40,
    "city": "福岡市博多区",
    "city_kana": "フクオカシハカタク",
    "town": "博多駅南",
    "town_kana": "ハカタエキミナミ",
    "street": null,
    "office_name": null,
    "office_name_kana": null
  },
  "0017": {
    "zip_code": "8120017",
    "prefecture": "福岡県",
    "prefecture_kana": "フクオカケン",
    "prefecture_code": 40,
    "city": "福岡市博多区",
    "city_kana": "フクオカシハカタク",
    "town": "美野島",
    "town_kana": "ミノシマ",
    "street": null,
    "office_name": null,
    "office_name_kana": null
  },
  "0018": {
    "zip_code": "8120018",
    "prefecture": "福岡県",
    "prefecture_kana": "フクオカケン",
    "prefecture_code": 40,
    "city": "福岡市博多区",
    "city_kana": "フクオカシハカタク",
    "town": "住吉",
    "town_kana": "スミヨシ",
    "street": null,
    "office_name": null,
    "office_name_kana": null
  },
  "0020": {
    "zip_code": "8120020",
    "prefecture": "福岡県",
    "prefecture_kana": "フクオカケン",
    "prefecture_code": 40,
    "city": "福岡市博多区",
    "city_kana": "フクオカシハカタク",
    "town": "対馬小路",
    "town_kana": "ツマショウジ",
    "street": null,
    "office_name": null,
    "office_name_kana": null
  },
  "0021": {
    "zip_code": "8120021",
    "prefecture": "福岡県",
    "prefecture_kana": "フクオカケン",
    "prefecture_code": 40,
    "city": "福岡市博多区",
    "city_kana": "フクオカシハカタク",
    "town": "築港本町",
    "town_kana": "チッコウホンマチ",
    "street": null,
    "office_name": null,
    "office_name_kana": null
  },
  "0022": {
    "zip_code": "8120022",
    "prefecture": "福岡県",
    "prefecture_kana": "フクオカケン",
    "prefecture_code": 40,
    "city": "福岡市博多区",
    "city_kana": "フクオカシハカタク",
    "town": "神屋町",
    "town_kana": "カミヤマチ",
    "street": null,
    "office_name": null,
    "office_name_kana": null
  },
  "0023": {
    "zip_code": "8120023",
    "prefecture": "福岡県",
    "prefecture_kana": "フクオカケン",
    "prefecture_code": 40,
    "city": "福岡市博多区",
    "city_kana": "フクオカシハカタク",
    "town": "奈良屋町",
    "town_kana": "ナラヤマチ",
    "street": null,
    "office_name": null,
    "office_name_kana": null
  },
  "0024": {
    "zip_code": "8120024",
    "prefecture": "福岡県",
    "prefecture_kana": "フクオカケン",
    "prefecture_code": 40,
    "city": "福岡市博多区",
    "city_kana": "フクオカシハカタク",
    "town": "綱場町",
    "town_kana": "ツナバマチ",
    "street": null,
    "office_name": null,
    "office_name_kana": null
  },
  "0025": {
    "zip_code": "8120025",
    "prefecture": "福岡県",
    "prefecture_kana": "フクオカケン",
    "prefecture_code": 40,
    "city": "福岡市博多区",
    "city_kana": "フクオカシハカタク",
    "town": "店屋町",
    "town_kana": "テンヤマチ",
    "street": null,
    "office_name": null,
    "office_name_kana": null
  },
  "0026": {
    "zip_code": "8120026",
    "prefecture": "福岡県",
    "prefecture_kana": "フクオカケン",
    "prefecture_code": 40,
    "city": "福岡市博多区",
    "city_kana": "フクオカシハカタク",
    "town": "上川端町",
    "town_kana": "カミカワバタマチ",
    "street": null,
    "office_name": null,
    "office_name_kana": null
  },
  "0027": {
    "zip_code": "8120027",
    "prefecture": "福岡県",
    "prefecture_kana": "フクオカケン",
    "prefecture_code": 40,
    "city": "福岡市博多区",
    "city_kana": "フクオカシハカタク",
    "town": "下川端町",
    "town_kana": "シモカワバタマチ",
    "street": null,
    "office_name": null,
    "office_name_kana": null
  },
  "0028": {
    "zip_code": "8120028",
    "prefecture": "福岡県",
    "prefecture_kana": "フクオカケン",
    "prefecture_code": 40,
    "city": "福岡市博多区",
    "city_kana": "フクオカシハカタク",
    "town": "須崎町",
    "town_kana": "スサキマチ",
    "street": null,
    "office_name": null,
    "office_name_kana": null
  },
  "0029": {
    "zip_code": "8120029",
    "prefecture": "福岡県",
    "prefecture_kana": "フクオカケン",
    "prefecture_code": 40,
    "city": "福岡市博多区",
    "city_kana": "フクオカシハカタク",
    "town": "古門戸町",
    "town_kana": "コモンドマチ",
    "street": null,
    "office_name": null,
    "office_name_kana": null
  },
  "0031": {
    "zip_code": "8120031",
    "prefecture": "福岡県",
    "prefecture_kana": "フクオカケン",
    "prefecture_code": 40,
    "city": "福岡市博多区",
    "city_kana": "フクオカシハカタク",
    "town": "沖浜町",
    "town_kana": "オキハママチ",
    "street": null,
    "office_name": null,
    "office_name_kana": null
  },
  "0032": {
    "zip_code": "8120032",
    "prefecture": "福岡県",
    "prefecture_kana": "フクオカケン",
    "prefecture_code": 40,
    "city": "福岡市博多区",
    "city_kana": "フクオカシハカタク",
    "town": "石城町",
    "town_kana": "セキジョウマチ",
    "street": null,
    "office_name": null,
    "office_name_kana": null
  },
  "0033": {
    "zip_code": "8120033",
    "prefecture": "福岡県",
    "prefecture_kana": "フクオカケン",
    "prefecture_code": 40,
    "city": "福岡市博多区",
    "city_kana": "フクオカシハカタク",
    "town": "大博町",
    "town_kana": "タイハクマチ",
    "street": null,
    "office_name": null,
    "office_name_kana": null
  },
  "0034": {
    "zip_code": "8120034",
    "prefecture": "福岡県",
    "prefecture_kana": "フクオカケン",
    "prefecture_code": 40,
    "city": "福岡市博多区",
    "city_kana": "フクオカシハカタク",
    "town": "下呉服町",
    "town_kana": "シモゴフクマチ",
    "street": null,
    "office_name": null,
    "office_name_kana": null
  },
  "0035": {
    "zip_code": "8120035",
    "prefecture": "福岡県",
    "prefecture_kana": "フクオカケン",
    "prefecture_code": 40,
    "city": "福岡市博多区",
    "city_kana": "フクオカシハカタク",
    "town": "中呉服町",
    "town_kana": "ナカゴフクマチ",
    "street": null,
    "office_name": null,
    "office_name_kana": null
  },
  "0036": {
    "zip_code": "8120036",
    "prefecture": "福岡県",
    "prefecture_kana": "フクオカケン",
    "prefecture_code": 40,
    "city": "福岡市博多区",
    "city_kana": "フクオカシハカタク",
    "town": "上呉服町",
    "town_kana": "カミゴフクマチ",
    "street": null,
    "office_name": null,
    "office_name_kana": null
  },
  "0037": {
    "zip_code": "8120037",
    "prefecture": "福岡県",
    "prefecture_kana": "フクオカケン",
    "prefecture_code": 40,
    "city": "福岡市博多区",
    "city_kana": "フクオカシハカタク",
    "town": "御供所町",
    "town_kana": "ゴクショマチ",
    "street": null,
    "office_name": null,
    "office_name_kana": null
  },
  "0038": {
    "zip_code": "8120038",
    "prefecture": "福岡県",
    "prefecture_kana": "フクオカケン",
    "prefecture_code": 40,
    "city": "福岡市博多区",
    "city_kana": "フクオカシハカタク",
    "town": "祇園町",
    "town_kana": "ギオンマチ",
    "street": null,
    "office_name": null,
    "office_name_kana": null
  },
  "0039": {
    "zip_code": "8120039",
    "prefecture": "福岡県",
    "prefecture_kana": "フクオカケン",
    "prefecture_code": 40,
    "city": "福岡市博多区",
    "city_kana": "フクオカシハカタク",
    "town": "冷泉町",
    "town_kana": "レイセンマチ",
    "street": null,
    "office_name": null,
    "office_name_kana": null
  },
  "0041": {
    "zip_code": "8120041",
    "prefecture": "福岡県",
    "prefecture_kana": "フクオカケン",
    "prefecture_code": 40,
    "city": "福岡市博多区",
    "city_kana": "フクオカシハカタク",
    "town": "吉塚",
    "town_kana": "ヨシヅカ",
    "street": null,
    "office_name": null,
    "office_name_kana": null
  },
  "0042": {
    "zip_code": "8120042",
    "prefecture": "福岡県",
    "prefecture_kana": "フクオカケン",
    "prefecture_code": 40,
    "city": "福岡市博多区",
    "city_kana": "フクオカシハカタク",
    "town": "豊",
    "town_kana": "ユタカ",
    "street": null,
    "office_name": null,
    "office_name_kana": null
  },
  "0043": {
    "zip_code": "8120043",
    "prefecture": "福岡県",
    "prefecture_kana": "フクオカケン",
    "prefecture_code": 40,
    "city": "福岡市博多区",
    "city_kana": "フクオカシハカタク",
    "town": "堅粕",
    "town_kana": "カタカス",
    "street": null,
    "office_name": null,
    "office_name_kana": null
  },
  "0044": {
    "zip_code": "8120044",
    "prefecture": "福岡県",
    "prefecture_kana": "フクオカケン",
    "prefecture_code": 40,
    "city": "福岡市博多区",
    "city_kana": "フクオカシハカタク",
    "town": "千代",
    "town_kana": "チヨ",
    "street": null,
    "office_name": null,
    "office_name_kana": null
  },
  "0045": {
    "zip_code": "8120045",
    "prefecture": "福岡県",
    "prefecture_kana": "フクオカケン",
    "prefecture_code": 40,
    "city": "福岡市博多区",
    "city_kana": "フクオカシハカタク",
    "town": "東公園",
    "town_kana": "ヒガシコウエン",
    "street": null,
    "office_name": null,
    "office_name_kana": null
  },
  "0046": {
    "zip_code": "8120046",
    "prefecture": "福岡県",
    "prefecture_kana": "フクオカケン",
    "prefecture_code": 40,
    "city": "福岡市博多区",
    "city_kana": "フクオカシハカタク",
    "town": "吉塚本町",
    "town_kana": "ヨシヅカホンマチ",
    "street": null,
    "office_name": null,
    "office_name_kana": null
  },
  "0051": {
    "zip_code": "8120051",
    "prefecture": "福岡県",
    "prefecture_kana": "フクオカケン",
    "prefecture_code": 40,
    "city": "福岡市東区",
    "city_kana": "フクオカシヒガシク",
    "town": "箱崎ふ頭",
    "town_kana": "ハコザキフトウ",
    "street": null,
    "office_name": null,
    "office_name_kana": null
  },
  "0052": {
    "zip_code": "8120052",
    "prefecture": "福岡県",
    "prefecture_kana": "フクオカケン",
    "prefecture_code": 40,
    "city": "福岡市東区",
    "city_kana": "フクオカシヒガシク",
    "town": "貝塚団地",
    "town_kana": "カイヅカダンチ",
    "street": null,
    "office_name": null,
    "office_name_kana": null
  },
  "0053": {
    "zip_code": "8120053",
    "prefecture": "福岡県",
    "prefecture_kana": "フクオカケン",
    "prefecture_code": 40,
    "city": "福岡市東区",
    "city_kana": "フクオカシヒガシク",
    "town": "箱崎",
    "town_kana": "ハコザキ",
    "street": null,
    "office_name": null,
    "office_name_kana": null
  },
  "0054": {
    "zip_code": "8120054",
    "prefecture": "福岡県",
    "prefecture_kana": "フクオカケン",
    "prefecture_code": 40,
    "city": "福岡市東区",
    "city_kana": "フクオカシヒガシク",
    "town": "馬出",
    "town_kana": "マイダシ",
    "street": null,
    "office_name": null,
    "office_name_kana": null
  },
  "0055": {
    "zip_code": "8120055",
    "prefecture": "福岡県",
    "prefecture_kana": "フクオカケン",
    "prefecture_code": 40,
    "city": "福岡市東区",
    "city_kana": "フクオカシヒガシク",
    "town": "東浜",
    "town_kana": "ヒガシハマ",
    "street": null,
    "office_name": null,
    "office_name_kana": null
  },
  "0061": {
    "zip_code": "8120061",
    "prefecture": "福岡県",
    "prefecture_kana": "フクオカケン",
    "prefecture_code": 40,
    "city": "福岡市東区",
    "city_kana": "フクオカシヒガシク",
    "town": "筥松",
    "town_kana": "ハコマツ",
    "street": null,
    "office_name": null,
    "office_name_kana": null
  },
  "0062": {
    "zip_code": "8120062",
    "prefecture": "福岡県",
    "prefecture_kana": "フクオカケン",
    "prefecture_code": 40,
    "city": "福岡市東区",
    "city_kana": "フクオカシヒガシク",
    "town": "松島",
    "town_kana": "マツシマ",
    "street": null,
    "office_name": null,
    "office_name_kana": null
  },
  "0063": {
    "zip_code": "8120063",
    "prefecture": "福岡県",
    "prefecture_kana": "フクオカケン",
    "prefecture_code": 40,
    "city": "福岡市東区",
    "city_kana": "フクオカシヒガシク",
    "town": "原田",
    "town_kana": "ハラダ",
    "street": null,
    "office_name": null,
    "office_name_kana": null
  },
  "0064": {
    "zip_code": "8120064",
    "prefecture": "福岡県",
    "prefecture_kana": "フクオカケン",
    "prefecture_code": 40,
    "city": "福岡市東区",
    "city_kana": "フクオカシヒガシク",
    "town": "松田",
    "town_kana": "マツダ",
    "street": null,
    "office_name": null,
    "office_name_kana": null
  },
  "0065": {
    "zip_code": "8120065",
    "prefecture": "福岡県",
    "prefecture_kana": "フクオカケン",
    "prefecture_code": 40,
    "city": "福岡市東区",
    "city_kana": "フクオカシヒガシク",
    "town": "二又瀬新町",
    "town_kana": "フタマタセシンマチ",
    "street": null,
    "office_name": null,
    "office_name_kana": null
  },
  "0066": {
    "zip_code": "8120066",
    "prefecture": "福岡県",
    "prefecture_kana": "フクオカケン",
    "prefecture_code": 40,
    "city": "福岡市東区",
    "city_kana": "フクオカシヒガシク",
    "town": "二又瀬",
    "town_kana": "フタマタセ",
    "street": null,
    "office_name": null,
    "office_name_kana": null
  },
  "0067": {
    "zip_code": "8120067",
    "prefecture": "福岡県",
    "prefecture_kana": "フクオカケン",
    "prefecture_code": 40,
    "city": "福岡市東区",
    "city_kana": "フクオカシヒガシク",
    "town": "筥松新町",
    "town_kana": "ハコマツシンマチ",
    "street": null,
    "office_name": null,
    "office_name_kana": null
  },
  "0068": {
    "zip_code": "8120068",
    "prefecture": "福岡県",
    "prefecture_kana": "フクオカケン",
    "prefecture_code": 40,
    "city": "福岡市東区",
    "city_kana": "フクオカシヒガシク",
    "town": "社領",
    "town_kana": "シャリョウ",
    "street": null,
    "office_name": null,
    "office_name_kana": null
  },
  "0069": {
    "zip_code": "8120069",
    "prefecture": "福岡県",
    "prefecture_kana": "フクオカケン",
    "prefecture_code": 40,
    "city": "福岡市東区",
    "city_kana": "フクオカシヒガシク",
    "town": "郷口町",
    "town_kana": "ゴウグチマチ",
    "street": null,
    "office_name": null,
    "office_name_kana": null
  },
  "0851": {
    "zip_code": "8120851",
    "prefecture": "福岡県",
    "prefecture_kana": "フクオカケン",
    "prefecture_code": 40,
    "city": "福岡市博多区",
    "city_kana": "フクオカシハカタク",
    "town": "青木",
    "town_kana": "アオキ",
    "street": null,
    "office_name": null,
    "office_name_kana": null
  },
  "0852": {
    "zip_code": "8120852",
    "prefecture": "福岡県",
    "prefecture_kana": "フクオカケン",
    "prefecture_code": 40,
    "city": "福岡市博多区",
    "city_kana": "フクオカシハカタク",
    "town": "東平尾公園",
    "town_kana": "ヒガシヒラオコウエン",
    "street": null,
    "office_name": null,
    "office_name_kana": null
  },
  "0853": {
    "zip_code": "8120853",
    "prefecture": "福岡県",
    "prefecture_kana": "フクオカケン",
    "prefecture_code": 40,
    "city": "福岡市博多区",
    "city_kana": "フクオカシハカタク",
    "town": "東平尾",
    "town_kana": "ヒガシヒラオ",
    "street": null,
    "office_name": null,
    "office_name_kana": null
  },
  "0854": {
    "zip_code": "8120854",
    "prefecture": "福岡県",
    "prefecture_kana": "フクオカケン",
    "prefecture_code": 40,
    "city": "福岡市博多区",
    "city_kana": "フクオカシハカタク",
    "town": "東月隈",
    "town_kana": "ヒガシツキグマ",
    "street": null,
    "office_name": null,
    "office_name_kana": null
  },
  "0855": {
    "zip_code": "8120855",
    "prefecture": "福岡県",
    "prefecture_kana": "フクオカケン",
    "prefecture_code": 40,
    "city": "福岡市博多区",
    "city_kana": "フクオカシハカタク",
    "town": "下月隈",
    "town_kana": "シモツキグマ",
    "street": null,
    "office_name": null,
    "office_name_kana": null
  },
  "0857": {
    "zip_code": "8120857",
    "prefecture": "福岡県",
    "prefecture_kana": "フクオカケン",
    "prefecture_code": 40,
    "city": "福岡市博多区",
    "city_kana": "フクオカシハカタク",
    "town": "西月隈",
    "town_kana": "ニシツキグマ",
    "street": null,
    "office_name": null,
    "office_name_kana": null
  },
  "0858": {
    "zip_code": "8120858",
    "prefecture": "福岡県",
    "prefecture_kana": "フクオカケン",
    "prefecture_code": 40,
    "city": "福岡市博多区",
    "city_kana": "フクオカシハカタク",
    "town": "月隈",
    "town_kana": "ツキグマ",
    "street": null,
    "office_name": null,
    "office_name_kana": null
  },
  "0861": {
    "zip_code": "8120861",
    "prefecture": "福岡県",
    "prefecture_kana": "フクオカケン",
    "prefecture_code": 40,
    "city": "福岡市博多区",
    "city_kana": "フクオカシハカタク",
    "town": "浦田",
    "town_kana": "ウラタ",
    "street": null,
    "office_name": null,
    "office_name_kana": null
  },
  "0862": {
    "zip_code": "8120862",
    "prefecture": "福岡県",
    "prefecture_kana": "フクオカケン",
    "prefecture_code": 40,
    "city": "福岡市博多区",
    "city_kana": "フクオカシハカタク",
    "town": "立花寺",
    "town_kana": "リュウゲジ",
    "street": null,
    "office_name": null,
    "office_name_kana": null
  },
  "0863": {
    "zip_code": "8120863",
    "prefecture": "福岡県",
    "prefecture_kana": "フクオカケン",
    "prefecture_code": 40,
    "city": "福岡市博多区",
    "city_kana": "フクオカシハカタク",
    "town": "金の隈",
    "town_kana": "カネノクマ",
    "street": null,
    "office_name": null,
    "office_name_kana": null
  },
  "0871": {
    "zip_code": "8120871",
    "prefecture": "福岡県",
    "prefecture_kana": "フクオカケン",
    "prefecture_code": 40,
    "city": "福岡市博多区",
    "city_kana": "フクオカシハカタク",
    "town": "東雲町",
    "town_kana": "シノノメマチ",
    "street": null,
    "office_name": null,
    "office_name_kana": null
  },
  "0872": {
    "zip_code": "8120872",
    "prefecture": "福岡県",
    "prefecture_kana": "フクオカケン",
    "prefecture_code": 40,
    "city": "福岡市博多区",
    "city_kana": "フクオカシハカタク",
    "town": "春町",
    "town_kana": "ハルマチ",
    "street": null,
    "office_name": null,
    "office_name_kana": null
  },
  "0873": {
    "zip_code": "8120873",
    "prefecture": "福岡県",
    "prefecture_kana": "フクオカケン",
    "prefecture_code": 40,
    "city": "福岡市博多区",
    "city_kana": "フクオカシハカタク",
    "town": "西春町",
    "town_kana": "ニシハルマチ",
    "street": null,
    "office_name": null,
    "office_name_kana": null
  },
  "0874": {
    "zip_code": "8120874",
    "prefecture": "福岡県",
    "prefecture_kana": "フクオカケン",
    "prefecture_code": 40,
    "city": "福岡市博多区",
    "city_kana": "フクオカシハカタク",
    "town": "光丘町",
    "town_kana": "ヒカリガオカマチ",
    "street": null,
    "office_name": null,
    "office_name_kana": null
  },
  "0875": {
    "zip_code": "8120875",
    "prefecture": "福岡県",
    "prefecture_kana": "フクオカケン",
    "prefecture_code": 40,
    "city": "福岡市博多区",
    "city_kana": "フクオカシハカタク",
    "town": "新和町",
    "town_kana": "シンワマチ",
    "street": null,
    "office_name": null,
    "office_name_kana": null
  },
  "0876": {
    "zip_code": "8120876",
    "prefecture": "福岡県",
    "prefecture_kana": "フクオカケン",
    "prefecture_code": 40,
    "city": "福岡市博多区",
    "city_kana": "フクオカシハカタク",
    "town": "昭南町",
    "town_kana": "ショウナンマチ",
    "street": null,
    "office_name": null,
    "office_name_kana": null
  },
  "0877": {
    "zip_code": "8120877",
    "prefecture": "福岡県",
    "prefecture_kana": "フクオカケン",
    "prefecture_code": 40,
    "city": "福岡市博多区",
    "city_kana": "フクオカシハカタク",
    "town": "元町",
    "town_kana": "モトマチ",
    "street": null,
    "office_name": null,
    "office_name_kana": null
  },
  "0878": {
    "zip_code": "8120878",
    "prefecture": "福岡県",
    "prefecture_kana": "フクオカケン",
    "prefecture_code": 40,
    "city": "福岡市博多区",
    "city_kana": "フクオカシハカタク",
    "town": "竹丘町",
    "town_kana": "タケオカマチ",
    "street": null,
    "office_name": null,
    "office_name_kana": null
  },
  "0879": {
    "zip_code": "8120879",
    "prefecture": "福岡県",
    "prefecture_kana": "フクオカケン",
    "prefecture_code": 40,
    "city": "福岡市博多区",
    "city_kana": "フクオカシハカタク",
    "town": "銀天町",
    "town_kana": "ギンテンチョウ",
    "street": null,
    "office_name": null,
    "office_name_kana": null
  },
  "0881": {
    "zip_code": "8120881",
    "prefecture": "福岡県",
    "prefecture_kana": "フクオカケン",
    "prefecture_code": 40,
    "city": "福岡市博多区",
    "city_kana": "フクオカシハカタク",
    "town": "井相田",
    "town_kana": "イソウダ",
    "street": null,
    "office_name": null,
    "office_name_kana": null
  },
  "0882": {
    "zip_code": "8120882",
    "prefecture": "福岡県",
    "prefecture_kana": "フクオカケン",
    "prefecture_code": 40,
    "city": "福岡市博多区",
    "city_kana": "フクオカシハカタク",
    "town": "麦野",
    "town_kana": "ムギノ",
    "street": null,
    "office_name": null,
    "office_name_kana": null
  },
  "0883": {
    "zip_code": "8120883",
    "prefecture": "福岡県",
    "prefecture_kana": "フクオカケン",
    "prefecture_code": 40,
    "city": "福岡市博多区",
    "city_kana": "フクオカシハカタク",
    "town": "南本町",
    "town_kana": "ミナミホンマチ",
    "street": null,
    "office_name": null,
    "office_name_kana": null
  },
  "0884": {
    "zip_code": "8120884",
    "prefecture": "福岡県",
    "prefecture_kana": "フクオカケン",
    "prefecture_code": 40,
    "city": "福岡市博多区",
    "city_kana": "フクオカシハカタク",
    "town": "寿町",
    "town_kana": "コトブキチョウ",
    "street": null,
    "office_name": null,
    "office_name_kana": null
  },
  "0885": {
    "zip_code": "8120885",
    "prefecture": "福岡県",
    "prefecture_kana": "フクオカケン",
    "prefecture_code": 40,
    "city": "福岡市博多区",
    "city_kana": "フクオカシハカタク",
    "town": "相生町",
    "town_kana": "アイオイマチ",
    "street": null,
    "office_name": null,
    "office_name_kana": null
  },
  "0886": {
    "zip_code": "8120886",
    "prefecture": "福岡県",
    "prefecture_kana": "フクオカケン",
    "prefecture_code": 40,
    "city": "福岡市博多区",
    "city_kana": "フクオカシハカタク",
    "town": "南八幡町",
    "town_kana": "ミナミハチマンマチ",
    "street": null,
    "office_name": null,
    "office_name_kana": null
  },
  "0887": {
    "zip_code": "8120887",
    "prefecture": "福岡県",
    "prefecture_kana": "フクオカケン",
    "prefecture_code": 40,
    "city": "福岡市博多区",
    "city_kana": "フクオカシハカタク",
    "town": "三筑",
    "town_kana": "サンチク",
    "street": null,
    "office_name": null,
    "office_name_kana": null
  },
  "0888": {
    "zip_code": "8120888",
    "prefecture": "福岡県",
    "prefecture_kana": "フクオカケン",
    "prefecture_code": 40,
    "city": "福岡市博多区",
    "city_kana": "フクオカシハカタク",
    "town": "板付",
    "town_kana": "イタヅケ",
    "street": null,
    "office_name": null,
    "office_name_kana": null
  },
  "0891": {
    "zip_code": "8120891",
    "prefecture": "福岡県",
    "prefecture_kana": "フクオカケン",
    "prefecture_code": 40,
    "city": "福岡市博多区",
    "city_kana": "フクオカシハカタク",
    "town": "雀居",
    "town_kana": "ササイ",
    "street": null,
    "office_name": null,
    "office_name_kana": null
  },
  "0892": {
    "zip_code": "8120892",
    "prefecture": "福岡県",
    "prefecture_kana": "フクオカケン",
    "prefecture_code": 40,
    "city": "福岡市博多区",
    "city_kana": "フクオカシハカタク",
    "town": "東那珂",
    "town_kana": "ヒガシナカ",
    "street": null,
    "office_name": null,
    "office_name_kana": null
  },
  "0893": {
    "zip_code": "8120893",
    "prefecture": "福岡県",
    "prefecture_kana": "フクオカケン",
    "prefecture_code": 40,
    "city": "福岡市博多区",
    "city_kana": "フクオカシハカタク",
    "town": "那珂",
    "town_kana": "ナカ",
    "street": null,
    "office_name": null,
    "office_name_kana": null
  },
  "0894": {
    "zip_code": "8120894",
    "prefecture": "福岡県",
    "prefecture_kana": "フクオカケン",
    "prefecture_code": 40,
    "city": "福岡市博多区",
    "city_kana": "フクオカシハカタク",
    "town": "諸岡",
    "town_kana": "モロオカ",
    "street": null,
    "office_name": null,
    "office_name_kana": null
  },
  "0895": {
    "zip_code": "8120895",
    "prefecture": "福岡県",
    "prefecture_kana": "フクオカケン",
    "prefecture_code": 40,
    "city": "福岡市博多区",
    "city_kana": "フクオカシハカタク",
    "town": "竹下",
    "town_kana": "タケシタ",
    "street": null,
    "office_name": null,
    "office_name_kana": null
  },
  "0896": {
    "zip_code": "8120896",
    "prefecture": "福岡県",
    "prefecture_kana": "フクオカケン",
    "prefecture_code": 40,
    "city": "福岡市博多区",
    "city_kana": "フクオカシハカタク",
    "town": "東光寺町",
    "town_kana": "トウコウジマチ",
    "street": null,
    "office_name": null,
    "office_name_kana": null
  },
  "0897": {
    "zip_code": "8120897",
    "prefecture": "福岡県",
    "prefecture_kana": "フクオカケン",
    "prefecture_code": 40,
    "city": "福岡市博多区",
    "city_kana": "フクオカシハカタク",
    "town": "半道橋",
    "town_kana": "ハンミチバシ",
    "street": null,
    "office_name": null,
    "office_name_kana": null
  },
  "8501": {
    "zip_code": "8128501",
    "prefecture": "福岡県",
    "prefecture_kana": "フクオカケン",
    "prefecture_code": 40,
    "city": "福岡市博多区",
    "city_kana": "フクオカシハカタク",
    "town": "上牟田",
    "town_kana": "カミムタ",
    "street": "１丁目１−２３",
    "office_name": "ブリヂストンタイヤ九州販売　株式会社",
    "office_name_kana": "ブリヂストンタイヤキユウシユウハンバイ カブシキガイシヤ"
  },
  "8502": {
    "zip_code": "8128502",
    "prefecture": "福岡県",
    "prefecture_kana": "フクオカケン",
    "prefecture_code": 40,
    "city": "福岡市博多区",
    "city_kana": "フクオカシハカタク",
    "town": "半道橋",
    "town_kana": "ハンミチバシ",
    "street": "２丁目２−５１",
    "office_name": "ＭＰアグロ　株式会社",
    "office_name_kana": "エムピ-アグロ カブシキカイシヤ"
  },
  "8503": {
    "zip_code": "8128503",
    "prefecture": "福岡県",
    "prefecture_kana": "フクオカケン",
    "prefecture_code": 40,
    "city": "福岡市博多区",
    "city_kana": "フクオカシハカタク",
    "town": "博多駅前",
    "town_kana": "ハカタエキマエ",
    "street": "１丁目２−５",
    "office_name": "ＫＤＤＩ　株式会社　ａｕ九州支店",
    "office_name_kana": "ケ-デイデイアイ カブシキガイシヤ エ-ユ-キユウシユウシテン"
  },
  "8504": {
    "zip_code": "8128504",
    "prefecture": "福岡県",
    "prefecture_kana": "フクオカケン",
    "prefecture_code": 40,
    "city": "福岡市博多区",
    "city_kana": "フクオカシハカタク",
    "town": "博多駅前",
    "town_kana": "ハカタエキマエ",
    "street": "４丁目６番１５号",
    "office_name": "株式会社　ヴァーナル",
    "office_name_kana": "カブシキガイシヤ ヴア-ナル"
  },
  "8505": {
    "zip_code": "8128505",
    "prefecture": "福岡県",
    "prefecture_kana": "フクオカケン",
    "prefecture_code": 40,
    "city": "福岡市博多区",
    "city_kana": "フクオカシハカタク",
    "town": "博多駅前",
    "town_kana": "ハカタエキマエ",
    "street": "２丁目９−２８",
    "office_name": "福岡商工会議所",
    "office_name_kana": "フクオカシヨウコウカイギシヨ"
  },
  "8507": {
    "zip_code": "8128507",
    "prefecture": "福岡県",
    "prefecture_kana": "フクオカケン",
    "prefecture_code": 40,
    "city": "福岡市博多区",
    "city_kana": "フクオカシハカタク",
    "town": "博多駅前",
    "town_kana": "ハカタエキマエ",
    "street": "２丁目２０−１",
    "office_name": "中華航空公司　福岡辨事處",
    "office_name_kana": "チユウカコウクウコンス フクオカベツジシヨ"
  },
  "8508": {
    "zip_code": "8128508",
    "prefecture": "福岡県",
    "prefecture_kana": "フクオカケン",
    "prefecture_code": 40,
    "city": "福岡市博多区",
    "city_kana": "フクオカシハカタク",
    "town": "博多駅前",
    "town_kana": "ハカタエキマエ",
    "street": "２丁目１１−４",
    "office_name": "ヤマハ　株式会社　九州支店",
    "office_name_kana": "ヤマハ カブシキガイシヤ キユウシユウシテン"
  },
  "8509": {
    "zip_code": "8128509",
    "prefecture": "福岡県",
    "prefecture_kana": "フクオカケン",
    "prefecture_code": 40,
    "city": "福岡市博多区",
    "city_kana": "フクオカシハカタク",
    "town": "竹下",
    "town_kana": "タケシタ",
    "street": "２−３−９−３Ｆ",
    "office_name": "森永乳業九州　株式会社",
    "office_name_kana": "モリナガニユウギヨウキユウシユウ カブシキガイシヤ"
  },
  "8510": {
    "zip_code": "8128510",
    "prefecture": "福岡県",
    "prefecture_kana": "フクオカケン",
    "prefecture_code": 40,
    "city": "福岡市博多区",
    "city_kana": "フクオカシハカタク",
    "town": "東比恵",
    "town_kana": "ヒガシヒエ",
    "street": "３丁目１−２",
    "office_name": "富士通　株式会社",
    "office_name_kana": "フジツウ カブシキガイシヤ"
  },
  "8511": {
    "zip_code": "8128511",
    "prefecture": "福岡県",
    "prefecture_kana": "フクオカケン",
    "prefecture_code": 40,
    "city": "福岡市博多区",
    "city_kana": "フクオカシハカタク",
    "town": "博多駅前",
    "town_kana": "ハカタエキマエ",
    "street": "２丁目１−１",
    "office_name": "朝日新聞　福岡本部",
    "office_name_kana": "アサヒシンブン フクオカホンブ"
  },
  "8512": {
    "zip_code": "8128512",
    "prefecture": "福岡県",
    "prefecture_kana": "フクオカケン",
    "prefecture_code": 40,
    "city": "福岡市博多区",
    "city_kana": "フクオカシハカタク",
    "town": "博多駅前",
    "town_kana": "ハカタエキマエ",
    "street": "２丁目９−３",
    "office_name": "福岡市　博多区役所",
    "office_name_kana": "フクオカシ ハカタクヤクシヨ"
  },
  "8513": {
    "zip_code": "8128513",
    "prefecture": "福岡県",
    "prefecture_kana": "フクオカケン",
    "prefecture_code": 40,
    "city": "福岡市博多区",
    "city_kana": "フクオカシハカタク",
    "town": "博多駅前",
    "town_kana": "ハカタエキマエ",
    "street": "３丁目１２−１０",
    "office_name": "鹿島建設　株式会社　九州支店",
    "office_name_kana": "カシマケンセツ カブシキガイシヤ キユウシユウシテン"
  },
  "8514": {
    "zip_code": "8128514",
    "prefecture": "福岡県",
    "prefecture_kana": "フクオカケン",
    "prefecture_code": 40,
    "city": "福岡市博多区",
    "city_kana": "フクオカシハカタク",
    "town": "博多駅前",
    "town_kana": "ハカタエキマエ",
    "street": "２丁目１９−２４",
    "office_name": "博多区保険福祉センター",
    "office_name_kana": "ハカタクホケンフクシセンタ-"
  },
  "8515": {
    "zip_code": "8128515",
    "prefecture": "福岡県",
    "prefecture_kana": "フクオカケン",
    "prefecture_code": 40,
    "city": "福岡市博多区",
    "city_kana": "フクオカシハカタク",
    "town": "博多駅前",
    "town_kana": "ハカタエキマエ",
    "street": "２丁目２０−１−９階",
    "office_name": "株式会社　日産ファイナンシャルサービス",
    "office_name_kana": "カブシキガイシヤ ニツサンフアイナンシヤルサ-ビス"
  },
  "8516": {
    "zip_code": "8128516",
    "prefecture": "福岡県",
    "prefecture_kana": "フクオカケン",
    "prefecture_code": 40,
    "city": "福岡市博多区",
    "city_kana": "フクオカシハカタク",
    "town": "博多駅前",
    "town_kana": "ハカタエキマエ",
    "street": "１丁目３番１１号ＫＤＸ博多南ビル２Ｆ",
    "office_name": "株式会社　ホリデー　福岡支店",
    "office_name_kana": "カブシキガイシヤ ホリデ- フクオカシテン"
  },
  "8517": {
    "zip_code": "8128517",
    "prefecture": "福岡県",
    "prefecture_kana": "フクオカケン",
    "prefecture_code": 40,
    "city": "福岡市博多区",
    "city_kana": "フクオカシハカタク",
    "town": "博多駅前",
    "town_kana": "ハカタエキマエ",
    "street": "１丁目３番１１号ＫＤＸ博多南ビル２Ｆ",
    "office_name": "株式会社　ホリデー",
    "office_name_kana": "カブシキガイシヤ ホリデ-"
  },
  "8519": {
    "zip_code": "8128519",
    "prefecture": "福岡県",
    "prefecture_kana": "フクオカケン",
    "prefecture_code": 40,
    "city": "福岡市博多区",
    "city_kana": "フクオカシハカタク",
    "town": "博多駅前",
    "town_kana": "ハカタエキマエ",
    "street": "２丁目２−１",
    "office_name": "旭硝子　株式会社　福岡支店",
    "office_name_kana": "アサヒガラス カブシキガイシヤ フクオカシテン"
  },
  "8520": {
    "zip_code": "8128520",
    "prefecture": "福岡県",
    "prefecture_kana": "フクオカケン",
    "prefecture_code": 40,
    "city": "福岡市博多区",
    "city_kana": "フクオカシハカタク",
    "town": "博多駅前",
    "town_kana": "ハカタエキマエ",
    "street": "３丁目２−１",
    "office_name": "日商岩井　株式会社　九州支社",
    "office_name_kana": "ニツシヨウイワイ カブシキガイシヤ キユウシユウシシヤ"
  },
  "8521": {
    "zip_code": "8128521",
    "prefecture": "福岡県",
    "prefecture_kana": "フクオカケン",
    "prefecture_code": 40,
    "city": "福岡市博多区",
    "city_kana": "フクオカシハカタク",
    "town": "吉塚本町",
    "town_kana": "ヨシヅカホンマチ",
    "street": "１３−４７",
    "office_name": "福岡県国民健康保険団体連合会",
    "office_name_kana": "フクオカケンコクミンケンコウホケンダンタイレンゴウカイ"
  },
  "8522": {
    "zip_code": "8128522",
    "prefecture": "福岡県",
    "prefecture_kana": "フクオカケン",
    "prefecture_code": 40,
    "city": "福岡市博多区",
    "city_kana": "フクオカシハカタク",
    "town": "店屋町",
    "town_kana": "テンヤマチ",
    "street": "５−１８博多ＮＳビル３階",
    "office_name": "新日鐵住金　株式会社　九州支店",
    "office_name_kana": "シンニツテツスミキン カブシキガイシヤ キユウシユウシテン"
  },
  "8523": {
    "zip_code": "8128523",
    "prefecture": "福岡県",
    "prefecture_kana": "フクオカケン",
    "prefecture_code": 40,
    "city": "福岡市博多区",
    "city_kana": "フクオカシハカタク",
    "town": "博多駅前",
    "town_kana": "ハカタエキマエ",
    "street": "３丁目５−７",
    "office_name": "株式会社ダイテック　九州センター",
    "office_name_kana": "カブシキガイシヤダイテツク キユウシユウセンタ-"
  },
  "8524": {
    "zip_code": "8128524",
    "prefecture": "福岡県",
    "prefecture_kana": "フクオカケン",
    "prefecture_code": 40,
    "city": "福岡市博多区",
    "city_kana": "フクオカシハカタク",
    "town": "博多駅前",
    "town_kana": "ハカタエキマエ",
    "street": "３丁目４−２",
    "office_name": "楽天ＫＣ　株式会社",
    "office_name_kana": "ラクテンケイシ- カブシキガイシヤ"
  },
  "8525": {
    "zip_code": "8128525",
    "prefecture": "福岡県",
    "prefecture_kana": "フクオカケン",
    "prefecture_code": 40,
    "city": "福岡市博多区",
    "city_kana": "フクオカシハカタク",
    "town": "博多駅前",
    "town_kana": "ハカタエキマエ",
    "street": "４丁目１４−１",
    "office_name": "株式会社　武富士　福岡支社管理室",
    "office_name_kana": "カブシキガイシヤ タケフジ フクオカシシヤカンリシツ"
  },
  "8526": {
    "zip_code": "8128526",
    "prefecture": "福岡県",
    "prefecture_kana": "フクオカケン",
    "prefecture_code": 40,
    "city": "福岡市博多区",
    "city_kana": "フクオカシハカタク",
    "town": "博多駅前",
    "town_kana": "ハカタエキマエ",
    "street": "３丁目１９−８",
    "office_name": "株式会社　新栄商会",
    "office_name_kana": "カブシキガイシヤ シンエイシヨウカイ"
  },
  "8527": {
    "zip_code": "8128527",
    "prefecture": "福岡県",
    "prefecture_kana": "フクオカケン",
    "prefecture_code": 40,
    "city": "福岡市博多区",
    "city_kana": "フクオカシハカタク",
    "town": "博多駅前",
    "town_kana": "ハカタエキマエ",
    "street": "２丁目２０−１",
    "office_name": "エフコープ生活協同組合",
    "office_name_kana": "エフコ-プセイカツキヨウドウクミアイ"
  },
  "8528": {
    "zip_code": "8128528",
    "prefecture": "福岡県",
    "prefecture_kana": "フクオカケン",
    "prefecture_code": 40,
    "city": "福岡市博多区",
    "city_kana": "フクオカシハカタク",
    "town": "綱場町",
    "town_kana": "ツナバマチ",
    "street": "４−１福岡ＲＤビル３Ｆ",
    "office_name": "伊藤忠エネクス　株式会社",
    "office_name_kana": "イトウチユウエネクス カブシキガイシヤ"
  },
  "8529": {
    "zip_code": "8128529",
    "prefecture": "福岡県",
    "prefecture_kana": "フクオカケン",
    "prefecture_code": 40,
    "city": "福岡市博多区",
    "city_kana": "フクオカシハカタク",
    "town": "博多駅前",
    "town_kana": "ハカタエキマエ",
    "street": "４丁目１−１",
    "office_name": "日本製粉　株式会社　福岡営業部・福岡食品営業部",
    "office_name_kana": "ニツポンセイフン カブシキガイシヤ フクオカエイギヨウブ・フクオカシヨクヒンエイギヨウブ"
  },
  "8530": {
    "zip_code": "8128530",
    "prefecture": "福岡県",
    "prefecture_kana": "フクオカケン",
    "prefecture_code": 40,
    "city": "福岡市博多区",
    "city_kana": "フクオカシハカタク",
    "town": "店屋町",
    "town_kana": "テンヤマチ",
    "street": "５番１０号",
    "office_name": "株式会社　にしけい",
    "office_name_kana": "カブシキガイシヤ ニシケイ"
  },
  "8531": {
    "zip_code": "8128531",
    "prefecture": "福岡県",
    "prefecture_kana": "フクオカケン",
    "prefecture_code": 40,
    "city": "福岡市博多区",
    "city_kana": "フクオカシハカタク",
    "town": "美野島",
    "town_kana": "ミノシマ",
    "street": "４丁目１−６２",
    "office_name": "パナソニックシステムネットワークス　株式会社",
    "office_name_kana": "パナソニツクシステムネツトワ-クス カブシキガイシヤ"
  },
  "8532": {
    "zip_code": "8128532",
    "prefecture": "福岡県",
    "prefecture_kana": "フクオカケン",
    "prefecture_code": 40,
    "city": "福岡市博多区",
    "city_kana": "フクオカシハカタク",
    "town": "美野島",
    "town_kana": "ミノシマ",
    "street": "１丁目１−８",
    "office_name": "福岡県　社会保険診療報酬支払基金",
    "office_name_kana": "フクオカケン シヤカイホケンシンリヨウホウシユウシハライキキン"
  },
  "8533": {
    "zip_code": "8128533",
    "prefecture": "福岡県",
    "prefecture_kana": "フクオカケン",
    "prefecture_code": 40,
    "city": "福岡市博多区",
    "city_kana": "フクオカシハカタク",
    "town": "住吉",
    "town_kana": "スミヨシ",
    "street": "５丁目１番３号",
    "office_name": "株式会社　文榮出版社",
    "office_name_kana": "カブシキガイシヤ ブンエイシユツパンシヤ"
  },
  "8534": {
    "zip_code": "8128534",
    "prefecture": "福岡県",
    "prefecture_kana": "フクオカケン",
    "prefecture_code": 40,
    "city": "福岡市博多区",
    "city_kana": "フクオカシハカタク",
    "town": "博多駅前",
    "town_kana": "ハカタエキマエ",
    "street": "１−５−１カーニープレイス博多２Ｆ",
    "office_name": "日本年金機構　九州ブロック本部",
    "office_name_kana": "ニツポンネンキンキコウ キユウシユウブロツクホンブ"
  },
  "8535": {
    "zip_code": "8128535",
    "prefecture": "福岡県",
    "prefecture_kana": "フクオカケン",
    "prefecture_code": 40,
    "city": "福岡市博多区",
    "city_kana": "フクオカシハカタク",
    "town": "住吉",
    "town_kana": "スミヨシ",
    "street": "３丁目８−２０",
    "office_name": "ニビシ醤油　株式会社",
    "office_name_kana": "ニビシシヨウユ カブシキガイシヤ"
  },
  "8536": {
    "zip_code": "8128536",
    "prefecture": "福岡県",
    "prefecture_kana": "フクオカケン",
    "prefecture_code": 40,
    "city": "福岡市博多区",
    "city_kana": "フクオカシハカタク",
    "town": "美野島",
    "town_kana": "ミノシマ",
    "street": "３丁目１−３５",
    "office_name": "エスエス製薬　株式会社　九州支店",
    "office_name_kana": "エスエスセイヤク カブシキガイシヤ キユウシユウシテン"
  },
  "8537": {
    "zip_code": "8128537",
    "prefecture": "福岡県",
    "prefecture_kana": "フクオカケン",
    "prefecture_code": 40,
    "city": "福岡市博多区",
    "city_kana": "フクオカシハカタク",
    "town": "住吉",
    "town_kana": "スミヨシ",
    "street": "５丁目５−１",
    "office_name": "ユアサ商事　株式会社　九州支社",
    "office_name_kana": "ユアサシヨウジ カブシキガイシヤ キユウシユウシシヤ"
  },
  "8538": {
    "zip_code": "8128538",
    "prefecture": "福岡県",
    "prefecture_kana": "フクオカケン",
    "prefecture_code": 40,
    "city": "福岡市博多区",
    "city_kana": "フクオカシハカタク",
    "town": "美野島",
    "town_kana": "ミノシマ",
    "street": "１丁目２−８",
    "office_name": "日本タングステン株式会社　本社",
    "office_name_kana": "ニツポンタングステンカブシキガイシヤ ホンシヤ"
  },
  "8539": {
    "zip_code": "8128539",
    "prefecture": "福岡県",
    "prefecture_kana": "フクオカケン",
    "prefecture_code": 40,
    "city": "福岡市博多区",
    "city_kana": "フクオカシハカタク",
    "town": "美野島",
    "town_kana": "ミノシマ",
    "street": "１丁目２−８",
    "office_name": "ニシム電子工業　株式会社",
    "office_name_kana": "ニシムデンシコウギヨウ カブシキガイシヤ"
  },
  "8540": {
    "zip_code": "8128540",
    "prefecture": "福岡県",
    "prefecture_kana": "フクオカケン",
    "prefecture_code": 40,
    "city": "福岡市博多区",
    "city_kana": "フクオカシハカタク",
    "town": "博多駅東",
    "town_kana": "ハカタエキヒガシ",
    "street": "３−１５−２３",
    "office_name": "日本年金機構　博多年金事務所",
    "office_name_kana": "ニツポンネンキンキコウ ハカタネンキンジムシヨ"
  },
  "8541": {
    "zip_code": "8128541",
    "prefecture": "福岡県",
    "prefecture_kana": "フクオカケン",
    "prefecture_code": 40,
    "city": "福岡市博多区",
    "city_kana": "フクオカシハカタク",
    "town": "博多駅東",
    "town_kana": "ハカタエキヒガシ",
    "street": "１丁目１０−２６",
    "office_name": "九州総合信用　株式会社",
    "office_name_kana": "キユウシユウソウゴウシンヨウ カブシキガイシヤ"
  },
  "8542": {
    "zip_code": "8128542",
    "prefecture": "福岡県",
    "prefecture_kana": "フクオカケン",
    "prefecture_code": 40,
    "city": "福岡市博多区",
    "city_kana": "フクオカシハカタク",
    "town": "博多駅東",
    "town_kana": "ハカタエキヒガシ",
    "street": "１丁目１７番１号",
    "office_name": "福岡県博多県税事務所",
    "office_name_kana": "フクオカケンハカタケンゼイジムシヨ"
  },
  "8543": {
    "zip_code": "8128543",
    "prefecture": "福岡県",
    "prefecture_kana": "フクオカケン",
    "prefecture_code": 40,
    "city": "福岡市東区",
    "city_kana": "フクオカシヒガシク",
    "town": "箱崎",
    "town_kana": "ハコザキ",
    "street": "１丁目１８番１号",
    "office_name": "福岡県東福岡県税事務所",
    "office_name_kana": "フクオカケンヒガシフクオカケンゼイジムシヨ"
  },
  "8544": {
    "zip_code": "8128544",
    "prefecture": "福岡県",
    "prefecture_kana": "フクオカケン",
    "prefecture_code": 40,
    "city": "福岡市博多区",
    "city_kana": "フクオカシハカタク",
    "town": "千代",
    "town_kana": "チヨ",
    "street": "１丁目１７−１−４Ｆ",
    "office_name": "西部ガスリビング　（株）",
    "office_name_kana": "セイブガスリビング (カブ)"
  },
  "8545": {
    "zip_code": "8128545",
    "prefecture": "福岡県",
    "prefecture_kana": "フクオカケン",
    "prefecture_code": 40,
    "city": "福岡市博多区",
    "city_kana": "フクオカシハカタク",
    "town": "博多駅東",
    "town_kana": "ハカタエキヒガシ",
    "street": "２丁目１３−３４",
    "office_name": "エヌ・ティ・ティ九州移動通信網　株式会社　営業本部　ＰＨＳサービスセンター",
    "office_name_kana": "エヌ・テイ・テイキユウシユウイドウツウシンモウ カブシキガイシヤ エイギヨウホンブ ピ-エツチエスサ-ビスセンタ-"
  },
  "8546": {
    "zip_code": "8128546",
    "prefecture": "福岡県",
    "prefecture_kana": "フクオカケン",
    "prefecture_code": 40,
    "city": "福岡市博多区",
    "city_kana": "フクオカシハカタク",
    "town": "博多駅東",
    "town_kana": "ハカタエキヒガシ",
    "street": "２丁目１１−１",
    "office_name": "九州経済産業局",
    "office_name_kana": "キユウシユウケイザイサンギヨウキヨク"
  },
  "8547": {
    "zip_code": "8128547",
    "prefecture": "福岡県",
    "prefecture_kana": "フクオカケン",
    "prefecture_code": 40,
    "city": "福岡市博多区",
    "city_kana": "フクオカシハカタク",
    "town": "博多駅東",
    "town_kana": "ハカタエキヒガシ",
    "street": "２丁目１１−１",
    "office_name": "福岡国税局",
    "office_name_kana": "フクオカコクゼイキヨク"
  },
  "8548": {
    "zip_code": "8128548",
    "prefecture": "福岡県",
    "prefecture_kana": "フクオカケン",
    "prefecture_code": 40,
    "city": "福岡市博多区",
    "city_kana": "フクオカシハカタク",
    "town": "博多駅東",
    "town_kana": "ハカタエキヒガシ",
    "street": "２丁目１３−３４",
    "office_name": "ヤマエ久野　株式会社",
    "office_name_kana": "ヤマエヒサノ カブシキガイシヤ"
  },
  "8550": {
    "zip_code": "8128550",
    "prefecture": "福岡県",
    "prefecture_kana": "フクオカケン",
    "prefecture_code": 40,
    "city": "福岡市博多区",
    "city_kana": "フクオカシハカタク",
    "town": "博多駅南",
    "town_kana": "ハカタエキミナミ",
    "street": "１丁目２−１５",
    "office_name": "財団法人　社会保険健康事業財団　福岡県支部",
    "office_name_kana": "ザイダンホウジン シヤカイホケンケンコウジギヨウザイダン フクオカケンシブ"
  },
  "8551": {
    "zip_code": "8128551",
    "prefecture": "福岡県",
    "prefecture_kana": "フクオカケン",
    "prefecture_code": 40,
    "city": "福岡市博多区",
    "city_kana": "フクオカシハカタク",
    "town": "博多駅南",
    "town_kana": "ハカタエキミナミ",
    "street": "２丁目９−３０",
    "office_name": "社団法人　福岡県医師会",
    "office_name_kana": "シヤダンホウジン フクオカケンイシカイ"
  },
  "8552": {
    "zip_code": "8128552",
    "prefecture": "福岡県",
    "prefecture_kana": "フクオカケン",
    "prefecture_code": 40,
    "city": "福岡市博多区",
    "city_kana": "フクオカシハカタク",
    "town": "博多駅南",
    "town_kana": "ハカタエキミナミ",
    "street": "５丁目１５−３２",
    "office_name": "株式会社　オーニシ",
    "office_name_kana": "カブシキガイシヤ オ-ニシ"
  },
  "8553": {
    "zip_code": "8128553",
    "prefecture": "福岡県",
    "prefecture_kana": "フクオカケン",
    "prefecture_code": 40,
    "city": "福岡市博多区",
    "city_kana": "フクオカシハカタク",
    "town": "博多駅南",
    "town_kana": "ハカタエキミナミ",
    "street": "１丁目８−１３",
    "office_name": "株式会社　菱熱",
    "office_name_kana": "カブシキガイシヤ リヨウネツ"
  },
  "8554": {
    "zip_code": "8128554",
    "prefecture": "福岡県",
    "prefecture_kana": "フクオカケン",
    "prefecture_code": 40,
    "city": "福岡市博多区",
    "city_kana": "フクオカシハカタク",
    "town": "博多駅東",
    "town_kana": "ハカタエキヒガシ",
    "street": "３丁目６−３福岡アーセオンビル４Ｆ",
    "office_name": "ＫＤＤＩ　株式会社ａｕ九州支社",
    "office_name_kana": "ケ-デイデイアイ カブシキガイシヤ エ-ユ-キユウシユウシシヤ"
  },
  "8555": {
    "zip_code": "8128555",
    "prefecture": "福岡県",
    "prefecture_kana": "フクオカケン",
    "prefecture_code": 40,
    "city": "福岡市博多区",
    "city_kana": "フクオカシハカタク",
    "town": "博多駅南",
    "town_kana": "ハカタエキミナミ",
    "street": "２丁目２−１",
    "office_name": "福岡県　信用保証協会",
    "office_name_kana": "フクオカケン シンヨウホシヨウキヨウカイ"
  },
  "8556": {
    "zip_code": "8128556",
    "prefecture": "福岡県",
    "prefecture_kana": "フクオカケン",
    "prefecture_code": 40,
    "city": "福岡市博多区",
    "city_kana": "フクオカシハカタク",
    "town": "博多駅前",
    "town_kana": "ハカタエキマエ",
    "street": "３−１９−８",
    "office_name": "株式会社　南陽",
    "office_name_kana": "カブシキカイシヤ ナンヨウ"
  },
  "8557": {
    "zip_code": "8128557",
    "prefecture": "福岡県",
    "prefecture_kana": "フクオカケン",
    "prefecture_code": 40,
    "city": "福岡市博多区",
    "city_kana": "フクオカシハカタク",
    "town": "博多駅南",
    "town_kana": "ハカタエキミナミ",
    "street": "２丁目１−１６",
    "office_name": "株式会社　ドイ",
    "office_name_kana": "カブシキガイシヤ ドイ"
  },
  "8558": {
    "zip_code": "8128558",
    "prefecture": "福岡県",
    "prefecture_kana": "フクオカケン",
    "prefecture_code": 40,
    "city": "福岡市博多区",
    "city_kana": "フクオカシハカタク",
    "town": "博多駅南",
    "town_kana": "ハカタエキミナミ",
    "street": "６丁目１２−３０",
    "office_name": "日野出　株式会社",
    "office_name_kana": "ヒノデ カブシキガイシヤ"
  },
  "8559": {
    "zip_code": "8128559",
    "prefecture": "福岡県",
    "prefecture_kana": "フクオカケン",
    "prefecture_code": 40,
    "city": "福岡市博多区",
    "city_kana": "フクオカシハカタク",
    "town": "博多駅前",
    "town_kana": "ハカタエキマエ",
    "street": "２丁目１−１",
    "office_name": "株式会社　西部日刊スポーツ新聞社",
    "office_name_kana": "カブシキカイシヤ セイブニツカンスポ-ツシンブンシヤ"
  },
  "8560": {
    "zip_code": "8128560",
    "prefecture": "福岡県",
    "prefecture_kana": "フクオカケン",
    "prefecture_code": 40,
    "city": "福岡市博多区",
    "city_kana": "フクオカシハカタク",
    "town": "博多駅前",
    "town_kana": "ハカタエキマエ",
    "street": "３丁目２５番２１号",
    "office_name": "岩谷産業　株式会社　九州支社",
    "office_name_kana": "イワタニサンギヨウ カブシキカイシヤ キユウシユウシシヤ"
  },
  "8561": {
    "zip_code": "8128561",
    "prefecture": "福岡県",
    "prefecture_kana": "フクオカケン",
    "prefecture_code": 40,
    "city": "福岡市博多区",
    "city_kana": "フクオカシハカタク",
    "town": "博多駅前",
    "town_kana": "ハカタエキマエ",
    "street": "１丁目５番１号カーニープレイス博多４Ｆ",
    "office_name": "生活協同組合連合会　グリーンコープ連合",
    "office_name_kana": "セイカツキヨウドウクミアイレンゴウカイ グリ-ンコ-プレンゴウ"
  },
  "8562": {
    "zip_code": "8128562",
    "prefecture": "福岡県",
    "prefecture_kana": "フクオカケン",
    "prefecture_code": 40,
    "city": "福岡市博多区",
    "city_kana": "フクオカシハカタク",
    "town": "下呉服町",
    "town_kana": "シモゴフクマチ",
    "street": "１番１号",
    "office_name": "株式会社　間組　九州支店",
    "office_name_kana": "カブシキガイシヤ ハザマグミ キユウシユウシテン"
  },
  "8564": {
    "zip_code": "8128564",
    "prefecture": "福岡県",
    "prefecture_kana": "フクオカケン",
    "prefecture_code": 40,
    "city": "福岡市博多区",
    "city_kana": "フクオカシハカタク",
    "town": "冷泉町",
    "town_kana": "レイセンマチ",
    "street": "４−１７",
    "office_name": "佐藤工業　株式会社　九州支店",
    "office_name_kana": "サトウコウギヨウ カブシキガイシヤ キユウシユウシテン"
  },
  "8565": {
    "zip_code": "8128565",
    "prefecture": "福岡県",
    "prefecture_kana": "フクオカケン",
    "prefecture_code": 40,
    "city": "福岡市博多区",
    "city_kana": "フクオカシハカタク",
    "town": "博多駅東",
    "town_kana": "ハカタエキヒガシ",
    "street": "３丁目７番１号",
    "office_name": "西部電気工業　株式会社　福岡本社",
    "office_name_kana": "セイブデンキコウギヨウ カブシキガイシヤ フクオカホンシヤ"
  },
  "8566": {
    "zip_code": "8128566",
    "prefecture": "福岡県",
    "prefecture_kana": "フクオカケン",
    "prefecture_code": 40,
    "city": "福岡市博多区",
    "city_kana": "フクオカシハカタク",
    "town": "博多駅中央街",
    "town_kana": "ハカタエキチュウオウガイ",
    "street": "１−１",
    "office_name": "九州旅客鉄道　株式会社",
    "office_name_kana": "キユウシユウリヨカクテツドウ カブシキガイシヤ"
  },
  "8567": {
    "zip_code": "8128567",
    "prefecture": "福岡県",
    "prefecture_kana": "フクオカケン",
    "prefecture_code": 40,
    "city": "福岡市博多区",
    "city_kana": "フクオカシハカタク",
    "town": "博多駅前",
    "town_kana": "ハカタエキマエ",
    "street": "３−２−１日本生命博多駅前ビル",
    "office_name": "積和不動産九州　株式会社",
    "office_name_kana": "セキワフドウサンキユウシユウ カブシキカイシヤ"
  },
  "8568": {
    "zip_code": "8128568",
    "prefecture": "福岡県",
    "prefecture_kana": "フクオカケン",
    "prefecture_code": 40,
    "city": "福岡市博多区",
    "city_kana": "フクオカシハカタク",
    "town": "下川端町",
    "town_kana": "シモカワバタマチ",
    "street": "１−１",
    "office_name": "株式会社　フジタ　九州支店",
    "office_name_kana": "カブシキガイシヤ フジタ キユウシユウシテン"
  },
  "8570": {
    "zip_code": "8128570",
    "prefecture": "福岡県",
    "prefecture_kana": "フクオカケン",
    "prefecture_code": 40,
    "city": "福岡市博多区",
    "city_kana": "フクオカシハカタク",
    "town": "住吉",
    "town_kana": "スミヨシ",
    "street": "２丁目３番１号",
    "office_name": "株式会社　ＴＶＱ九州放送",
    "office_name_kana": "カブシキカイシヤ テイ-ヴイ-キユ-キユウシユウホウソウ"
  },
  "8571": {
    "zip_code": "8128571",
    "prefecture": "福岡県",
    "prefecture_kana": "フクオカケン",
    "prefecture_code": 40,
    "city": "福岡市博多区",
    "city_kana": "フクオカシハカタク",
    "town": "上牟田",
    "town_kana": "カミムタ",
    "street": "１丁目１１番２８号",
    "office_name": "株式会社　菱食　九州支社",
    "office_name_kana": "カブシキガイシヤ リヨウシヨク キユウシユウシシヤ"
  },
  "8572": {
    "zip_code": "8128572",
    "prefecture": "福岡県",
    "prefecture_kana": "フクオカケン",
    "prefecture_code": 40,
    "city": "福岡市博多区",
    "city_kana": "フクオカシハカタク",
    "town": "博多駅前",
    "town_kana": "ハカタエキマエ",
    "street": "１丁目１７−２１−３Ｆ",
    "office_name": "ソフトバンクテレコム　株式会社　レターコンタクトセンター",
    "office_name_kana": "ソフトバンクテレコム カブシキカイシヤ レタ-コンタクトセンタ-"
  },
  "8573": {
    "zip_code": "8128573",
    "prefecture": "福岡県",
    "prefecture_kana": "フクオカケン",
    "prefecture_code": 40,
    "city": "福岡市博多区",
    "city_kana": "フクオカシハカタク",
    "town": "東公園",
    "town_kana": "ヒガシコウエン",
    "street": "７−７",
    "office_name": "九州管区警察局",
    "office_name_kana": "キユウシユウカンクケイサツキヨク"
  },
  "8574": {
    "zip_code": "8128574",
    "prefecture": "福岡県",
    "prefecture_kana": "フクオカケン",
    "prefecture_code": 40,
    "city": "福岡市博多区",
    "city_kana": "フクオカシハカタク",
    "town": "東公園",
    "town_kana": "ヒガシコウエン",
    "street": "７−７",
    "office_name": "福岡県議会事務局",
    "office_name_kana": "フクオカケンギカイジムキヨク"
  },
  "8575": {
    "zip_code": "8128575",
    "prefecture": "福岡県",
    "prefecture_kana": "フクオカケン",
    "prefecture_code": 40,
    "city": "福岡市博多区",
    "city_kana": "フクオカシハカタク",
    "town": "東公園",
    "town_kana": "ヒガシコウエン",
    "street": "７−７",
    "office_name": "福岡県教育庁",
    "office_name_kana": "フクオカケンキヨウイクチヨウ"
  },
  "8576": {
    "zip_code": "8128576",
    "prefecture": "福岡県",
    "prefecture_kana": "フクオカケン",
    "prefecture_code": 40,
    "city": "福岡市博多区",
    "city_kana": "フクオカシハカタク",
    "town": "東公園",
    "town_kana": "ヒガシコウエン",
    "street": "７−７",
    "office_name": "福岡県警察本部",
    "office_name_kana": "フクオカケンケイサツホンブ"
  },
  "8577": {
    "zip_code": "8128577",
    "prefecture": "福岡県",
    "prefecture_kana": "フクオカケン",
    "prefecture_code": 40,
    "city": "福岡市博多区",
    "city_kana": "フクオカシハカタク",
    "town": "東公園",
    "town_kana": "ヒガシコウエン",
    "street": "７−７",
    "office_name": "福岡県庁",
    "office_name_kana": "フクオカケンチヨウ"
  },
  "8578": {
    "zip_code": "8128578",
    "prefecture": "福岡県",
    "prefecture_kana": "フクオカケン",
    "prefecture_code": 40,
    "city": "福岡市博多区",
    "city_kana": "フクオカシハカタク",
    "town": "東比恵",
    "town_kana": "ヒガシヒエ",
    "street": "２−２０−１８",
    "office_name": "株式会社　山善　九州営業本部",
    "office_name_kana": "カブシキガイシヤ ヤマゼン キユウシユウエイギヨウホンブ"
  },
  "8579": {
    "zip_code": "8128579",
    "prefecture": "福岡県",
    "prefecture_kana": "フクオカケン",
    "prefecture_code": 40,
    "city": "福岡市博多区",
    "city_kana": "フクオカシハカタク",
    "town": "博多駅前",
    "town_kana": "ハカタエキマエ",
    "street": "２−１０−１９−２Ｆ",
    "office_name": "日本年金機構　福岡事務センター",
    "office_name_kana": "ニツポンネンキンキコウ フクオカジムセンタ-"
  },
  "8580": {
    "zip_code": "8128580",
    "prefecture": "福岡県",
    "prefecture_kana": "フクオカケン",
    "prefecture_code": 40,
    "city": "福岡市博多区",
    "city_kana": "フクオカシハカタク",
    "town": "上牟田",
    "town_kana": "カミムタ",
    "street": "１丁目１９−２１",
    "office_name": "株式会社　プレナス",
    "office_name_kana": "カブシキガイシヤ プレナス"
  },
  "8581": {
    "zip_code": "8128581",
    "prefecture": "福岡県",
    "prefecture_kana": "フクオカケン",
    "prefecture_code": 40,
    "city": "福岡市東区",
    "city_kana": "フクオカシヒガシク",
    "town": "箱崎",
    "town_kana": "ハコザキ",
    "street": "６丁目１０−１",
    "office_name": "九州大学箱崎地区部局",
    "office_name_kana": "キユウシユウダイガクハコザキチクブキヨク"
  },
  "8582": {
    "zip_code": "8128582",
    "prefecture": "福岡県",
    "prefecture_kana": "フクオカケン",
    "prefecture_code": 40,
    "city": "福岡市東区",
    "city_kana": "フクオカシヒガシク",
    "town": "馬出",
    "town_kana": "マイダシ",
    "street": "３丁目１−１",
    "office_name": "九州大学病院地区部局",
    "office_name_kana": "キユウシユウダイガクビヨウインチクブキヨク"
  },
  "8583": {
    "zip_code": "8128583",
    "prefecture": "福岡県",
    "prefecture_kana": "フクオカケン",
    "prefecture_code": 40,
    "city": "福岡市東区",
    "city_kana": "フクオカシヒガシク",
    "town": "箱崎ふ頭",
    "town_kana": "ハコザキフトウ",
    "street": "２丁目２−２６",
    "office_name": "福岡日野自動車　株式会社",
    "office_name_kana": "フクオカヒノジドウシヤ カブシキガイシヤ"
  },
  "8584": {
    "zip_code": "8128584",
    "prefecture": "福岡県",
    "prefecture_kana": "フクオカケン",
    "prefecture_code": 40,
    "city": "福岡市博多区",
    "city_kana": "フクオカシハカタク",
    "town": "千代",
    "town_kana": "チヨ",
    "street": "６丁目２−３３",
    "office_name": "株式会社　ベスト電器",
    "office_name_kana": "カブシキガイシヤ ベストデンキ"
  },
  "8585": {
    "zip_code": "8128585",
    "prefecture": "福岡県",
    "prefecture_kana": "フクオカケン",
    "prefecture_code": 40,
    "city": "福岡市東区",
    "city_kana": "フクオカシヒガシク",
    "town": "箱崎ふ頭",
    "town_kana": "ハコザキフトウ",
    "street": "３丁目４−４６",
    "office_name": "株式会社　ヤクシン",
    "office_name_kana": "カブシキガイシヤ ヤクシン"
  },
  "8586": {
    "zip_code": "8128586",
    "prefecture": "福岡県",
    "prefecture_kana": "フクオカケン",
    "prefecture_code": 40,
    "city": "福岡市東区",
    "city_kana": "フクオカシヒガシク",
    "town": "箱崎ふ頭",
    "town_kana": "ハコザキフトウ",
    "street": "５丁目５−５",
    "office_name": "株式会社　あらた　福岡支店",
    "office_name_kana": "カブシキガイシヤ アラタ フクオカシテン"
  },
  "8587": {
    "zip_code": "8128587",
    "prefecture": "福岡県",
    "prefecture_kana": "フクオカケン",
    "prefecture_code": 40,
    "city": "福岡市東区",
    "city_kana": "フクオカシヒガシク",
    "town": "箱崎ふ頭",
    "town_kana": "ハコザキフトウ",
    "street": "３丁目１−３５",
    "office_name": "昭和鉄工　株式会社",
    "office_name_kana": "シヨウワテツコウ カブシキガイシヤ"
  },
  "8588": {
    "zip_code": "8128588",
    "prefecture": "福岡県",
    "prefecture_kana": "フクオカケン",
    "prefecture_code": 40,
    "city": "福岡市東区",
    "city_kana": "フクオカシヒガシク",
    "town": "箱崎ふ頭",
    "town_kana": "ハコザキフトウ",
    "street": "５丁目７−１７",
    "office_name": "明治屋商事　株式会社　福岡支店",
    "office_name_kana": "メイジヤシヨウジ カブシキガイシヤ フクオカシテン"
  },
  "8589": {
    "zip_code": "8128589",
    "prefecture": "福岡県",
    "prefecture_kana": "フクオカケン",
    "prefecture_code": 40,
    "city": "福岡市東区",
    "city_kana": "フクオカシヒガシク",
    "town": "箱崎ふ頭",
    "town_kana": "ハコザキフトウ",
    "street": "５丁目４番１７号",
    "office_name": "三菱ふそうトラック・バス　株式会社　九州ふそう",
    "office_name_kana": "ミツビシフソウトラツク・バス カブシキカイシヤ キユウシユウフソウ"
  },
  "8601": {
    "zip_code": "8128601",
    "prefecture": "福岡県",
    "prefecture_kana": "フクオカケン",
    "prefecture_code": 40,
    "city": "福岡市博多区",
    "city_kana": "フクオカシハカタク",
    "town": "祇園町",
    "town_kana": "ギオンマチ",
    "street": "７−２０",
    "office_name": "サッポロビール　株式会社　九州本部",
    "office_name_kana": "サツポロビ-ル カブシキガイシヤ キユウシユウホンブ"
  },
  "8602": {
    "zip_code": "8128602",
    "prefecture": "福岡県",
    "prefecture_kana": "フクオカケン",
    "prefecture_code": 40,
    "city": "福岡市博多区",
    "city_kana": "フクオカシハカタク",
    "town": "祇園町",
    "town_kana": "ギオンマチ",
    "street": "２−１",
    "office_name": "株式会社　大塚商会　福岡支店",
    "office_name_kana": "カブシキガイシヤ オオツカシヨウカイ フクオカシテン"
  },
  "8603": {
    "zip_code": "8128603",
    "prefecture": "福岡県",
    "prefecture_kana": "フクオカケン",
    "prefecture_code": 40,
    "city": "福岡市博多区",
    "city_kana": "フクオカシハカタク",
    "town": "下川端町",
    "town_kana": "シモカワバタマチ",
    "street": "９−１２",
    "office_name": "武田薬品工業　株式会社　福岡事務所",
    "office_name_kana": "タケダヤクヒンコウギヨウ カブシキガイシヤ フクオカジムシヨ"
  },
  "8604": {
    "zip_code": "8128604",
    "prefecture": "福岡県",
    "prefecture_kana": "フクオカケン",
    "prefecture_code": 40,
    "city": "福岡市東区",
    "city_kana": "フクオカシヒガシク",
    "town": "松田",
    "town_kana": "マツダ",
    "street": "３丁目２−５",
    "office_name": "創価学会　九州文化会館",
    "office_name_kana": "ソウカガツカイ キユウシユウブンカカイカン"
  },
  "8605": {
    "zip_code": "8128605",
    "prefecture": "福岡県",
    "prefecture_kana": "フクオカケン",
    "prefecture_code": 40,
    "city": "福岡市博多区",
    "city_kana": "フクオカシハカタク",
    "town": "店屋町",
    "town_kana": "テンヤマチ",
    "street": "１−３５",
    "office_name": "日立キャピタル　株式会社",
    "office_name_kana": "ヒタチキタピタル カブシキガイシヤ"
  },
  "8606": {
    "zip_code": "8128606",
    "prefecture": "福岡県",
    "prefecture_kana": "フクオカケン",
    "prefecture_code": 40,
    "city": "福岡市博多区",
    "city_kana": "フクオカシハカタク",
    "town": "住吉",
    "town_kana": "スミヨシ",
    "street": "１丁目２−２５キャナルシティビジネスセンタービル８Ｆ",
    "office_name": "株式会社　東急コミュニティー　九州支店",
    "office_name_kana": "カブシキガイシヤ トウキユウコミユニテイ- キユウシユウシテン"
  },
  "8607": {
    "zip_code": "8128607",
    "prefecture": "福岡県",
    "prefecture_kana": "フクオカケン",
    "prefecture_code": 40,
    "city": "福岡市博多区",
    "city_kana": "フクオカシハカタク",
    "town": "下川端町",
    "town_kana": "シモカワバタマチ",
    "street": "９−３",
    "office_name": "三菱ＵＦＪニコス　株式会社",
    "office_name_kana": "ミツビシユ-エフジエイニコス カブシキガイシヤ"
  },
  "8608": {
    "zip_code": "8128608",
    "prefecture": "福岡県",
    "prefecture_kana": "フクオカケン",
    "prefecture_code": 40,
    "city": "福岡市博多区",
    "city_kana": "フクオカシハカタク",
    "town": "祇園町",
    "town_kana": "ギオンマチ",
    "street": "２−１",
    "office_name": "東急建設　株式会社　九州支店",
    "office_name_kana": "トウキユウケンセツ カブシキガイシヤ キユウシユウシテン"
  },
  "8609": {
    "zip_code": "8128609",
    "prefecture": "福岡県",
    "prefecture_kana": "フクオカケン",
    "prefecture_code": 40,
    "city": "福岡市博多区",
    "city_kana": "フクオカシハカタク",
    "town": "下川端町",
    "town_kana": "シモカワバタマチ",
    "street": "９−３",
    "office_name": "西部日本信販　株式会社",
    "office_name_kana": "セイブニホンシンパン カブシキガイシヤ"
  },
  "8610": {
    "zip_code": "8128610",
    "prefecture": "福岡県",
    "prefecture_kana": "フクオカケン",
    "prefecture_code": 40,
    "city": "福岡市博多区",
    "city_kana": "フクオカシハカタク",
    "town": "綱場町",
    "town_kana": "ツナバマチ",
    "street": "８−２３",
    "office_name": "株式会社　セントラルファイナンス　福岡管理センター",
    "office_name_kana": "カブシキガイシヤ セントラルフアイナンス フクオカカンリセンタ-"
  },
  "8611": {
    "zip_code": "8128611",
    "prefecture": "福岡県",
    "prefecture_kana": "フクオカケン",
    "prefecture_code": 40,
    "city": "福岡市博多区",
    "city_kana": "フクオカシハカタク",
    "town": "綱場町",
    "town_kana": "ツナバマチ",
    "street": "８−３１",
    "office_name": "株式会社　松村組　九州支店",
    "office_name_kana": "カブシキガイシヤ マツムラグミ キユウシユウシテン"
  },
  "8612": {
    "zip_code": "8128612",
    "prefecture": "福岡県",
    "prefecture_kana": "フクオカケン",
    "prefecture_code": 40,
    "city": "福岡市博多区",
    "city_kana": "フクオカシハカタク",
    "town": "綱場町",
    "town_kana": "ツナバマチ",
    "street": "８−３１",
    "office_name": "株式会社　マイカル九州",
    "office_name_kana": "カブシキガイシヤ マイカルキユウシユウ"
  },
  "8613": {
    "zip_code": "8128613",
    "prefecture": "福岡県",
    "prefecture_kana": "フクオカケン",
    "prefecture_code": 40,
    "city": "福岡市博多区",
    "city_kana": "フクオカシハカタク",
    "town": "古門戸町",
    "town_kana": "コモンドマチ",
    "street": "５−１５",
    "office_name": "株式会社　レイメイ藤井",
    "office_name_kana": "カブシキガイシヤ レイメイフジイ"
  },
  "8614": {
    "zip_code": "8128614",
    "prefecture": "福岡県",
    "prefecture_kana": "フクオカケン",
    "prefecture_code": 40,
    "city": "福岡市博多区",
    "city_kana": "フクオカシハカタク",
    "town": "博多駅東",
    "town_kana": "ハカタエキヒガシ",
    "street": "２丁目７番２７号ＴＥＲＡＳＯⅡ６Ｆ，７Ｆ",
    "office_name": "五洋建設　株式会社　九州支店",
    "office_name_kana": "ゴヨウケンセツ カブシキガイシヤ キユウシユウシテン"
  },
  "8615": {
    "zip_code": "8128615",
    "prefecture": "福岡県",
    "prefecture_kana": "フクオカケン",
    "prefecture_code": 40,
    "city": "福岡市博多区",
    "city_kana": "フクオカシハカタク",
    "town": "下川端町",
    "town_kana": "シモカワバタマチ",
    "street": "２番１号",
    "office_name": "株式会社　博多座",
    "office_name_kana": "カブシキガイシヤ ハカタザ"
  },
  "8616": {
    "zip_code": "8128616",
    "prefecture": "福岡県",
    "prefecture_kana": "フクオカケン",
    "prefecture_code": 40,
    "city": "福岡市博多区",
    "city_kana": "フクオカシハカタク",
    "town": "上呉服町",
    "town_kana": "カミゴフクマチ",
    "street": "１０−１０呉服町ビジネスセンタービル９Ｆ",
    "office_name": "三洋信販　株式会社",
    "office_name_kana": "サンヨウシンパン カブシキカイシヤ"
  },
  "8617": {
    "zip_code": "8128617",
    "prefecture": "福岡県",
    "prefecture_kana": "フクオカケン",
    "prefecture_code": 40,
    "city": "福岡市博多区",
    "city_kana": "フクオカシハカタク",
    "town": "冷泉町",
    "town_kana": "レイセンマチ",
    "street": "４−１７",
    "office_name": "九州松下ライフエレクトロニクス　株式会社",
    "office_name_kana": "キユウシユウマツシタライフエレクトロニクス カブシキガイシヤ"
  },
  "8618": {
    "zip_code": "8128618",
    "prefecture": "福岡県",
    "prefecture_kana": "フクオカケン",
    "prefecture_code": 40,
    "city": "福岡市博多区",
    "city_kana": "フクオカシハカタク",
    "town": "古門戸町",
    "town_kana": "コモンドマチ",
    "street": "１０−６",
    "office_name": "国分　株式会社　九州支社",
    "office_name_kana": "コクブ カブシキガイシヤ キユウシユウシシヤ"
  },
  "8620": {
    "zip_code": "8128620",
    "prefecture": "福岡県",
    "prefecture_kana": "フクオカケン",
    "prefecture_code": 40,
    "city": "福岡市博多区",
    "city_kana": "フクオカシハカタク",
    "town": "沖浜町",
    "town_kana": "オキハママチ",
    "street": "１２番１号",
    "office_name": "福岡市港湾空港局",
    "office_name_kana": "フクオカシコウワンクウコウキヨク"
  },
  "8621": {
    "zip_code": "8128621",
    "prefecture": "福岡県",
    "prefecture_kana": "フクオカケン",
    "prefecture_code": 40,
    "city": "福岡市博多区",
    "city_kana": "フクオカシハカタク",
    "town": "上呉服町",
    "town_kana": "カミゴフクマチ",
    "street": "１０−１０呉服町ビジネスセンタービル８Ｆ",
    "office_name": "三洋信販　株式会社",
    "office_name_kana": "サンヨウシンパン カブシキカイシヤ"
  },
  "8622": {
    "zip_code": "8128622",
    "prefecture": "福岡県",
    "prefecture_kana": "フクオカケン",
    "prefecture_code": 40,
    "city": "福岡市博多区",
    "city_kana": "フクオカシハカタク",
    "town": "祇園町",
    "town_kana": "ギオンマチ",
    "street": "２−１博多祇園２１ビル６Ｆ",
    "office_name": "独立行政法人　鉄道建設・運輸施設支援機構　鉄道施設本部　九州新幹線施設局",
    "office_name_kana": "ドクリツギヨウセイホウジン テツドウケンセツ・ウンユシセツシエンキコウ テツドウシセツホンブ キユウシユウシンカンセンシセツキヨク"
  },
  "8624": {
    "zip_code": "8128624",
    "prefecture": "福岡県",
    "prefecture_kana": "フクオカケン",
    "prefecture_code": 40,
    "city": "福岡市博多区",
    "city_kana": "フクオカシハカタク",
    "town": "上川端町",
    "town_kana": "カミカワバタマチ",
    "street": "１３番１５号",
    "office_name": "伊藤忠食品　株式会社　九州支店",
    "office_name_kana": "イトウチユウシヨクヒン カブシキカイシヤ キユウシユウシテン"
  },
  "8625": {
    "zip_code": "8128625",
    "prefecture": "福岡県",
    "prefecture_kana": "フクオカケン",
    "prefecture_code": 40,
    "city": "福岡市博多区",
    "city_kana": "フクオカシハカタク",
    "town": "大博町",
    "town_kana": "タイハクマチ",
    "street": "１−２",
    "office_name": "ヒノマル　株式会社　福岡支店",
    "office_name_kana": "ヒノマル カブシキガイシヤ フクオカシテン"
  },
  "8626": {
    "zip_code": "8128626",
    "prefecture": "福岡県",
    "prefecture_kana": "フクオカケン",
    "prefecture_code": 40,
    "city": "福岡市博多区",
    "city_kana": "フクオカシハカタク",
    "town": "御供所町",
    "town_kana": "ゴクショマチ",
    "street": "１−１",
    "office_name": "日本電気　株式会社　九州支社",
    "office_name_kana": "ニホンデンキ カブシキガイシヤ キユウシユウシシヤ"
  },
  "8628": {
    "zip_code": "8128628",
    "prefecture": "福岡県",
    "prefecture_kana": "フクオカケン",
    "prefecture_code": 40,
    "city": "福岡市博多区",
    "city_kana": "フクオカシハカタク",
    "town": "奈良屋町",
    "town_kana": "ナラヤマチ",
    "street": "２−１博多蔵本東邦生命ビル７階",
    "office_name": "ジー・イー・キャピタル・エジソン生命保険　株式会社　福岡支社",
    "office_name_kana": "ジ-・イ-・キヤピタル・エジソンセイメイホケン カブシキガイシヤ フクオカシシヤ"
  },
  "8629": {
    "zip_code": "8128629",
    "prefecture": "福岡県",
    "prefecture_kana": "フクオカケン",
    "prefecture_code": 40,
    "city": "福岡市博多区",
    "city_kana": "フクオカシハカタク",
    "town": "榎田",
    "town_kana": "エノキダ",
    "street": "１丁目９−２５",
    "office_name": "株式会社　ゲームテック",
    "office_name_kana": "カブシキカイシヤ ゲ-ムテツク"
  },
  "8630": {
    "zip_code": "8128630",
    "prefecture": "福岡県",
    "prefecture_kana": "フクオカケン",
    "prefecture_code": 40,
    "city": "福岡市博多区",
    "city_kana": "フクオカシハカタク",
    "town": "東比恵",
    "town_kana": "ヒガシヒエ",
    "street": "３丁目１９−２７",
    "office_name": "株式会社　中陽",
    "office_name_kana": "カブシキガイシヤ チユウヨウ"
  },
  "8631": {
    "zip_code": "8128631",
    "prefecture": "福岡県",
    "prefecture_kana": "フクオカケン",
    "prefecture_code": 40,
    "city": "福岡市博多区",
    "city_kana": "フクオカシハカタク",
    "town": "東比恵",
    "town_kana": "ヒガシヒエ",
    "street": "２丁目１４番３３号",
    "office_name": "福岡日産自動車　株式会社",
    "office_name_kana": "フクオカニツサンジドウシヤ カブシキガイシヤ"
  },
  "8632": {
    "zip_code": "8128632",
    "prefecture": "福岡県",
    "prefecture_kana": "フクオカケン",
    "prefecture_code": 40,
    "city": "福岡市博多区",
    "city_kana": "フクオカシハカタク",
    "town": "千代",
    "town_kana": "チヨ",
    "street": "１丁目２１−３７",
    "office_name": "福岡日産自動車　株式会社",
    "office_name_kana": "フクオカニツサンジドウシヤ カブシキガイシヤ"
  },
  "8633": {
    "zip_code": "8128633",
    "prefecture": "福岡県",
    "prefecture_kana": "フクオカケン",
    "prefecture_code": 40,
    "city": "福岡市博多区",
    "city_kana": "フクオカシハカタク",
    "town": "千代",
    "town_kana": "チヨ",
    "street": "５丁目１８−１",
    "office_name": "総合病院　千鳥橋病院",
    "office_name_kana": "ソウゴウビヨウイン チドリバシビヨウイン"
  },
  "8634": {
    "zip_code": "8128634",
    "prefecture": "福岡県",
    "prefecture_kana": "フクオカケン",
    "prefecture_code": 40,
    "city": "福岡市博多区",
    "city_kana": "フクオカシハカタク",
    "town": "上呉服町",
    "town_kana": "カミゴフクマチ",
    "street": "１０−１０呉服町ビジネスセンタービル９Ｆ",
    "office_name": "三洋信販　株式会社",
    "office_name_kana": "サンヨウシンパン カブシキカイシヤ"
  },
  "8635": {
    "zip_code": "8128635",
    "prefecture": "福岡県",
    "prefecture_kana": "フクオカケン",
    "prefecture_code": 40,
    "city": "福岡市博多区",
    "city_kana": "フクオカシハカタク",
    "town": "千代",
    "town_kana": "チヨ",
    "street": "３丁目５−３０",
    "office_name": "福岡コンピューターサービス　株式会社",
    "office_name_kana": "フクオカコンピユ-タ-サ-ビス カブシキガイシヤ"
  },
  "8636": {
    "zip_code": "8128636",
    "prefecture": "福岡県",
    "prefecture_kana": "フクオカケン",
    "prefecture_code": 40,
    "city": "福岡市博多区",
    "city_kana": "フクオカシハカタク",
    "town": "堅粕",
    "town_kana": "カタカス",
    "street": "５丁目８−１８",
    "office_name": "日之出水道機器　株式会社",
    "office_name_kana": "ヒノデスイドウキキ カブシキガイシヤ"
  },
  "8637": {
    "zip_code": "8128637",
    "prefecture": "福岡県",
    "prefecture_kana": "フクオカケン",
    "prefecture_code": 40,
    "city": "福岡市博多区",
    "city_kana": "フクオカシハカタク",
    "town": "千代",
    "town_kana": "チヨ",
    "street": "１丁目１５−２７",
    "office_name": "西部ガス情報システム　株式会社",
    "office_name_kana": "セイブガスジヨウホウシステム カブシキガイシヤ"
  },
  "8638": {
    "zip_code": "8128638",
    "prefecture": "福岡県",
    "prefecture_kana": "フクオカケン",
    "prefecture_code": 40,
    "city": "福岡市博多区",
    "city_kana": "フクオカシハカタク",
    "town": "東比恵",
    "town_kana": "ヒガシヒエ",
    "street": "２丁目１６−２３",
    "office_name": "九州カシオ販売　（株）",
    "office_name_kana": "キユウシユウカシオハンバイ (カブ)"
  },
  "8639": {
    "zip_code": "8128639",
    "prefecture": "福岡県",
    "prefecture_kana": "フクオカケン",
    "prefecture_code": 40,
    "city": "福岡市博多区",
    "city_kana": "フクオカシハカタク",
    "town": "堅粕",
    "town_kana": "カタカス",
    "street": "３丁目１６−３６",
    "office_name": "福博綜合印刷　株式会社",
    "office_name_kana": "フクハクソウゴウインサツ カブシキガイシヤ"
  },
  "8640": {
    "zip_code": "8128640",
    "prefecture": "福岡県",
    "prefecture_kana": "フクオカケン",
    "prefecture_code": 40,
    "city": "福岡市博多区",
    "city_kana": "フクオカシハカタク",
    "town": "榎田",
    "town_kana": "エノキダ",
    "street": "２丁目１−５５",
    "office_name": "株式会社祭原九州支社",
    "office_name_kana": "カブシキガイシヤサイハラ キユウシユウシシヤ"
  },
  "8641": {
    "zip_code": "8128641",
    "prefecture": "福岡県",
    "prefecture_kana": "フクオカケン",
    "prefecture_code": 40,
    "city": "福岡市博多区",
    "city_kana": "フクオカシハカタク",
    "town": "上牟田",
    "town_kana": "カミムタ",
    "street": "１丁目１１−１",
    "office_name": "ヤマハ九州　株式会社",
    "office_name_kana": "ヤマハキユウシユウ カブシキガイシヤ"
  },
  "8642": {
    "zip_code": "8128642",
    "prefecture": "福岡県",
    "prefecture_kana": "フクオカケン",
    "prefecture_code": 40,
    "city": "福岡市博多区",
    "city_kana": "フクオカシハカタク",
    "town": "榎田",
    "town_kana": "エノキダ",
    "street": "２丁目２−３６",
    "office_name": "九州松下システム　株式会社",
    "office_name_kana": "キユウシユウマツシタシステム カブシキガイシヤ"
  },
  "8643": {
    "zip_code": "8128643",
    "prefecture": "福岡県",
    "prefecture_kana": "フクオカケン",
    "prefecture_code": 40,
    "city": "福岡市博多区",
    "city_kana": "フクオカシハカタク",
    "town": "榎田",
    "town_kana": "エノキダ",
    "street": "１丁目４−７２",
    "office_name": "ピップフジモト　株式会社　福岡支店",
    "office_name_kana": "ピツプフジモト カブシキガイシヤ フクオカシテン"
  },
  "8644": {
    "zip_code": "8128644",
    "prefecture": "福岡県",
    "prefecture_kana": "フクオカケン",
    "prefecture_code": 40,
    "city": "福岡市博多区",
    "city_kana": "フクオカシハカタク",
    "town": "下川端町",
    "town_kana": "シモカワバタマチ",
    "street": "２番１号博多リバレインイーストサイト１１階",
    "office_name": "コープ九州　クリム編集部",
    "office_name_kana": "コ-プキユウシユウ クリムヘンシユウブ"
  },
  "8645": {
    "zip_code": "8128645",
    "prefecture": "福岡県",
    "prefecture_kana": "フクオカケン",
    "prefecture_code": 40,
    "city": "福岡市博多区",
    "city_kana": "フクオカシハカタク",
    "town": "上牟田",
    "town_kana": "カミムタ",
    "street": "１丁目８−７",
    "office_name": "株式会社ワイヨット　福岡店",
    "office_name_kana": "カブシキガイシヤワイヨツト フクオカテン"
  },
  "8646": {
    "zip_code": "8128646",
    "prefecture": "福岡県",
    "prefecture_kana": "フクオカケン",
    "prefecture_code": 40,
    "city": "福岡市博多区",
    "city_kana": "フクオカシハカタク",
    "town": "榎田",
    "town_kana": "エノキダ",
    "street": "１丁目３−６２",
    "office_name": "三菱重工九州販売　株式会社",
    "office_name_kana": "ミツビシジユウコウキユウシユウハンバイ カブシキガイシヤ"
  },
  "8648": {
    "zip_code": "8128648",
    "prefecture": "福岡県",
    "prefecture_kana": "フクオカケン",
    "prefecture_code": 40,
    "city": "福岡市博多区",
    "city_kana": "フクオカシハカタク",
    "town": "博多駅南",
    "town_kana": "ハカタエキミナミ",
    "street": "１丁目２番２号１０９１ビル５Ｆ",
    "office_name": "九州松下アイティーモバイル　株式会社",
    "office_name_kana": "キユウシユウマツシタアイテイ-モバイル カブシキガイシヤ"
  },
  "8650": {
    "zip_code": "8128650",
    "prefecture": "福岡県",
    "prefecture_kana": "フクオカケン",
    "prefecture_code": 40,
    "city": "福岡市東区",
    "city_kana": "フクオカシヒガシク",
    "town": "箱崎",
    "town_kana": "ハコザキ",
    "street": "７丁目９−６６",
    "office_name": "コカ・コーラウエスト　株式会社",
    "office_name_kana": "コカ・コ-ラウエスト カブシキガイシヤ"
  },
  "8651": {
    "zip_code": "8128651",
    "prefecture": "福岡県",
    "prefecture_kana": "フクオカケン",
    "prefecture_code": 40,
    "city": "福岡市東区",
    "city_kana": "フクオカシヒガシク",
    "town": "箱崎",
    "town_kana": "ハコザキ",
    "street": "１丁目４１−１２",
    "office_name": "福岡県立図書館",
    "office_name_kana": "フクオカケンリツトシヨカン"
  },
  "8652": {
    "zip_code": "8128652",
    "prefecture": "福岡県",
    "prefecture_kana": "フクオカケン",
    "prefecture_code": 40,
    "city": "福岡市東区",
    "city_kana": "フクオカシヒガシク",
    "town": "東浜",
    "town_kana": "ヒガシハマ",
    "street": "１丁目１３−３５",
    "office_name": "株式会社　原田貞良商店",
    "office_name_kana": "カブシキガイシヤ ハラダサダヨシシヨウテン"
  },
  "8653": {
    "zip_code": "8128653",
    "prefecture": "福岡県",
    "prefecture_kana": "フクオカケン",
    "prefecture_code": 40,
    "city": "福岡市東区",
    "city_kana": "フクオカシヒガシク",
    "town": "箱崎",
    "town_kana": "ハコザキ",
    "street": "２丁目５４−１",
    "office_name": "福岡市　東区役所",
    "office_name_kana": "フクオカシ ヒガシクヤクシヨ"
  },
  "8654": {
    "zip_code": "8128654",
    "prefecture": "福岡県",
    "prefecture_kana": "フクオカケン",
    "prefecture_code": 40,
    "city": "福岡市東区",
    "city_kana": "フクオカシヒガシク",
    "town": "馬出",
    "town_kana": "マイダシ",
    "street": "４丁目８−２１",
    "office_name": "株式会社　かねふく",
    "office_name_kana": "カブシキガイシヤ カネフク"
  },
  "8655": {
    "zip_code": "8128655",
    "prefecture": "福岡県",
    "prefecture_kana": "フクオカケン",
    "prefecture_code": 40,
    "city": "福岡市東区",
    "city_kana": "フクオカシヒガシク",
    "town": "箱崎",
    "town_kana": "ハコザキ",
    "street": "１丁目２２−１",
    "office_name": "宗教法人　筥崎宮",
    "office_name_kana": "シユウキヨウホウジン ハコザキグウ"
  },
  "8656": {
    "zip_code": "8128656",
    "prefecture": "福岡県",
    "prefecture_kana": "フクオカケン",
    "prefecture_code": 40,
    "city": "福岡市東区",
    "city_kana": "フクオカシヒガシク",
    "town": "箱崎",
    "town_kana": "ハコザキ",
    "street": "７丁目９−５８",
    "office_name": "日本食品　株式会社",
    "office_name_kana": "ニホンシヨクヒン カブシキガイシヤ"
  },
  "8657": {
    "zip_code": "8128657",
    "prefecture": "福岡県",
    "prefecture_kana": "フクオカケン",
    "prefecture_code": 40,
    "city": "福岡市東区",
    "city_kana": "フクオカシヒガシク",
    "town": "馬出",
    "town_kana": "マイダシ",
    "street": "３−１２−３２",
    "office_name": "日本年金機構　東福岡年金事務所",
    "office_name_kana": "ニツポンネンキンキコウ ヒガシフクオカネンキンジムシヨ"
  },
  "8658": {
    "zip_code": "8128658",
    "prefecture": "福岡県",
    "prefecture_kana": "フクオカケン",
    "prefecture_code": 40,
    "city": "福岡市博多区",
    "city_kana": "フクオカシハカタク",
    "town": "博多駅東",
    "town_kana": "ハカタエキヒガシ",
    "street": "２丁目６−１九勧筑紫通ビル",
    "office_name": "ソフトバンクモバイル　株式会社",
    "office_name_kana": "ソフトバンクモバイル カブシキガイシヤ"
  },
  "8659": {
    "zip_code": "8128659",
    "prefecture": "福岡県",
    "prefecture_kana": "フクオカケン",
    "prefecture_code": 40,
    "city": "福岡市東区",
    "city_kana": "フクオカシヒガシク",
    "town": "東浜",
    "town_kana": "ヒガシハマ",
    "street": "１丁目９−４",
    "office_name": "タイキ薬品工業　株式会社",
    "office_name_kana": "タイキヤクヒンコウギヨウ カブシキガイシヤ"
  },
  "8660": {
    "zip_code": "8128660",
    "prefecture": "福岡県",
    "prefecture_kana": "フクオカケン",
    "prefecture_code": 40,
    "city": "福岡市博多区",
    "city_kana": "フクオカシハカタク",
    "town": "博多駅前",
    "town_kana": "ハカタエキマエ",
    "street": "１丁目６−１６（博多北郵便局私書箱第２９号）",
    "office_name": "富士ゼロックス　株式会社　西日本営業事業部",
    "office_name_kana": "フジゼロツクス カブシキガイシヤ ニシニホンエイギヨウジギヨウブ"
  },
  "8661": {
    "zip_code": "8128661",
    "prefecture": "福岡県",
    "prefecture_kana": "フクオカケン",
    "prefecture_code": 40,
    "city": "福岡市東区",
    "city_kana": "フクオカシヒガシク",
    "town": "東浜",
    "town_kana": "ヒガシハマ",
    "street": "１−５−１７",
    "office_name": "株式会社　かねふく　めんたい通",
    "office_name_kana": "カブシキガイシヤ カネフク メンタイドオリ"
  },
  "8662": {
    "zip_code": "8128662",
    "prefecture": "福岡県",
    "prefecture_kana": "フクオカケン",
    "prefecture_code": 40,
    "city": "福岡市博多区",
    "city_kana": "フクオカシハカタク",
    "town": "博多駅前",
    "town_kana": "ハカタエキマエ",
    "street": "３丁目３０−２３（博多北郵便局私書箱第５号）",
    "office_name": "住友商事　株式会社　九州支社",
    "office_name_kana": "スミトモシヨウジ カブシキガイシヤ キユウシユウシシヤ"
  },
  "8665": {
    "zip_code": "8128665",
    "prefecture": "福岡県",
    "prefecture_kana": "フクオカケン",
    "prefecture_code": 40,
    "city": "福岡市博多区",
    "city_kana": "フクオカシハカタク",
    "town": "博多駅前",
    "town_kana": "ハカタエキマエ",
    "street": "３−１２−１０",
    "office_name": "鹿島道路　株式会社　九州支店",
    "office_name_kana": "カジマドウロ カブシキガイシヤ キユウシユウシテン"
  },
  "8666": {
    "zip_code": "8128666",
    "prefecture": "福岡県",
    "prefecture_kana": "フクオカケン",
    "prefecture_code": 40,
    "city": "福岡市博多区",
    "city_kana": "フクオカシハカタク",
    "town": "博多駅東",
    "town_kana": "ハカタエキヒガシ",
    "street": "２丁目１６−１（博多北郵便局私書箱第１６３号）",
    "office_name": "日本経済新聞社",
    "office_name_kana": "ニホンケイザイシンブンシヤ"
  },
  "8668": {
    "zip_code": "8128668",
    "prefecture": "福岡県",
    "prefecture_kana": "フクオカケン",
    "prefecture_code": 40,
    "city": "福岡市博多区",
    "city_kana": "フクオカシハカタク",
    "town": "博多駅前",
    "town_kana": "ハカタエキマエ",
    "street": "２丁目５−１７（博多北郵便局私書箱第１７６号）",
    "office_name": "損害保険ジャパン日本興亜　株式会社",
    "office_name_kana": "ソンガイホケンジヤパンニツポンコウア カブシキカイシヤ"
  },
  "8669": {
    "zip_code": "8128669",
    "prefecture": "福岡県",
    "prefecture_kana": "フクオカケン",
    "prefecture_code": 40,
    "city": "福岡市博多区",
    "city_kana": "フクオカシハカタク",
    "town": "博多駅南",
    "town_kana": "ハカタエキミナミ",
    "street": "３丁目３−３１",
    "office_name": "株式会社　味の素コミュニケーションズ　九州・中国グループ",
    "office_name_kana": "カブシキガイシヤ アジノモトコミユニケ-シヨンズ キユウシユウ・チユウゴクグル-プ"
  },
  "8670": {
    "zip_code": "8128670",
    "prefecture": "福岡県",
    "prefecture_kana": "フクオカケン",
    "prefecture_code": 40,
    "city": "福岡市博多区",
    "city_kana": "フクオカシハカタク",
    "town": "上呉服町",
    "town_kana": "カミゴフクマチ",
    "street": "１０−１博多三井ビルディング",
    "office_name": "全国健康保険協会　福岡支部",
    "office_name_kana": "ゼンコクケンコウホケンキヨウカイ フクオカシブ"
  },
  "8672": {
    "zip_code": "8128672",
    "prefecture": "福岡県",
    "prefecture_kana": "フクオカケン",
    "prefecture_code": 40,
    "city": "福岡市博多区",
    "city_kana": "フクオカシハカタク",
    "town": "山王",
    "town_kana": "サンノウ",
    "street": "１丁目１５−１５（博多北郵便局私書箱第１５０号）",
    "office_name": "リックス　株式会社",
    "office_name_kana": "リツクス カブシキガイシヤ"
  },
  "8675": {
    "zip_code": "8128675",
    "prefecture": "福岡県",
    "prefecture_kana": "フクオカケン",
    "prefecture_code": 40,
    "city": "福岡市博多区",
    "city_kana": "フクオカシハカタク",
    "town": "博多駅前",
    "town_kana": "ハカタエキマエ",
    "street": "４丁目１−１（博多郵便局私書箱第８１号）",
    "office_name": "日本生命保険　相互会社　福岡法人サービス課",
    "office_name_kana": "ニホンセイメイホケン ソウゴガイシヤ フクオカホウジンサ-ビスカ"
  },
  "8676": {
    "zip_code": "8128676",
    "prefecture": "福岡県",
    "prefecture_kana": "フクオカケン",
    "prefecture_code": 40,
    "city": "福岡市博多区",
    "city_kana": "フクオカシハカタク",
    "town": "博多駅前",
    "town_kana": "ハカタエキマエ",
    "street": "４丁目２−１（博多北郵便局私書箱第８３号）",
    "office_name": "住友海上火災保険株式会社九州支店・福岡支店",
    "office_name_kana": "スミトモカイジヨウカサイホケンカブシキガイシヤキユウシユウシテン.フクオカシテン"
  },
  "8677": {
    "zip_code": "8128677",
    "prefecture": "福岡県",
    "prefecture_kana": "フクオカケン",
    "prefecture_code": 40,
    "city": "福岡市博多区",
    "city_kana": "フクオカシハカタク",
    "town": "博多駅前",
    "town_kana": "ハカタエキマエ",
    "street": "３丁目２−１（博多北郵便局私書箱第２５号）",
    "office_name": "伊藤忠商事　株式会社　九州支社",
    "office_name_kana": "イトウチユウシヨウジ カブシキガイシヤ キユウシユウシシヤ"
  },
  "8678": {
    "zip_code": "8128678",
    "prefecture": "福岡県",
    "prefecture_kana": "フクオカケン",
    "prefecture_code": 40,
    "city": "福岡市博多区",
    "city_kana": "フクオカシハカタク",
    "town": "博多駅中央街",
    "town_kana": "ハカタエキチュウオウガイ",
    "street": "１−１（博多北郵便局私書箱第１６４号）",
    "office_name": "株式会社　博多井筒屋",
    "office_name_kana": "カブシキガイシヤ ハカタイヅツヤ"
  },
  "8680": {
    "zip_code": "8128680",
    "prefecture": "福岡県",
    "prefecture_kana": "フクオカケン",
    "prefecture_code": 40,
    "city": "福岡市博多区",
    "city_kana": "フクオカシハカタク",
    "town": "綱場町",
    "town_kana": "ツナバマチ",
    "street": "４番５号（博多北郵便局私書箱第１９６号）",
    "office_name": "福岡県共済生活協同組合",
    "office_name_kana": "フクオカケンキヨウサイセイカツキヨウドウクミアイ"
  },
  "8681": {
    "zip_code": "8128681",
    "prefecture": "福岡県",
    "prefecture_kana": "フクオカケン",
    "prefecture_code": 40,
    "city": "福岡市博多区",
    "city_kana": "フクオカシハカタク",
    "town": "山王",
    "town_kana": "サンノウ",
    "street": "二丁目３番５号（博多北郵便局私書箱第１８８号）",
    "office_name": "株式会社　翔薬",
    "office_name_kana": "カブシキカイシヤ シヨウヤク"
  },
  "8683": {
    "zip_code": "8128683",
    "prefecture": "福岡県",
    "prefecture_kana": "フクオカケン",
    "prefecture_code": 40,
    "city": "福岡市博多区",
    "city_kana": "フクオカシハカタク",
    "town": "博多駅南",
    "town_kana": "ハカタエキミナミ",
    "street": "３丁目３−３１",
    "office_name": "味の素　株式会社　九州支社",
    "office_name_kana": "アジノモト カブシキガイシヤ キユウシユウシシヤ"
  },
  "8684": {
    "zip_code": "8128684",
    "prefecture": "福岡県",
    "prefecture_kana": "フクオカケン",
    "prefecture_code": 40,
    "city": "福岡市博多区",
    "city_kana": "フクオカシハカタク",
    "town": "御供所町",
    "town_kana": "ゴクショマチ",
    "street": "３番２１号大博通りビジネスセンター",
    "office_name": "東京海上事務アウトソーシング　（株）　福岡センター",
    "office_name_kana": "トウキヨウカイジヨウジムアウトソ-シング カブシキガイシヤ フクオカセンタ-"
  },
  "8686": {
    "zip_code": "8128686",
    "prefecture": "福岡県",
    "prefecture_kana": "フクオカケン",
    "prefecture_code": 40,
    "city": "福岡市博多区",
    "city_kana": "フクオカシハカタク",
    "town": "御供所町",
    "town_kana": "ゴクショマチ",
    "street": "１−１（博多北郵便局私書箱第１８１号）",
    "office_name": "株式会社　ベネッセコーポレーション　九州支社",
    "office_name_kana": "カブシキガイシヤ ベネツセコ-ポレ-シヨン キユウシユウシシヤ"
  },
  "8687": {
    "zip_code": "8128687",
    "prefecture": "福岡県",
    "prefecture_kana": "フクオカケン",
    "prefecture_code": 40,
    "city": "福岡市博多区",
    "city_kana": "フクオカシハカタク",
    "town": "博多駅前",
    "town_kana": "ハカタエキマエ",
    "street": "３丁目１−１（博多北郵便局私書箱第１４５号）",
    "office_name": "株式会社　福岡シティ銀行",
    "office_name_kana": "カブシキガイシヤ フクオカシテイギンコウ"
  },
  "8689": {
    "zip_code": "8128689",
    "prefecture": "福岡県",
    "prefecture_kana": "フクオカケン",
    "prefecture_code": 40,
    "city": "福岡市博多区",
    "city_kana": "フクオカシハカタク",
    "town": "博多駅前",
    "town_kana": "ハカタエキマエ",
    "street": "３丁目２６番２９号九勧博多ビル８Ｆ（博多北郵便局私書箱第６４号）",
    "office_name": "株式会社　日本政策金融公庫　福岡支店　国民生活事業",
    "office_name_kana": "コクミンキンユウコウコ フクオカシテン"
  },
  "8705": {
    "zip_code": "8128705",
    "prefecture": "福岡県",
    "prefecture_kana": "フクオカケン",
    "prefecture_code": 40,
    "city": "福岡市博多区",
    "city_kana": "フクオカシハカタク",
    "town": "綱場町",
    "town_kana": "ツナバマチ",
    "street": "３−３（博多北郵便局私書箱第１７号）",
    "office_name": "東京海上日動火災保険　株式会社　九州業務支援部",
    "office_name_kana": "トウキヨウカイジヨウニチドウカサイホケン カブシキガイシヤ キユウシユウギヨウムシエンブ"
  },
  "8706": {
    "zip_code": "8128706",
    "prefecture": "福岡県",
    "prefecture_kana": "フクオカケン",
    "prefecture_code": 40,
    "city": "福岡市東区",
    "city_kana": "フクオカシヒガシク",
    "town": "馬出",
    "town_kana": "マイダシ",
    "street": "１丁目８−１（博多北郵便局私書箱第４７号）",
    "office_name": "博多税務署",
    "office_name_kana": "ハカタゼイムシヨ"
  },
  "8707": {
    "zip_code": "8128707",
    "prefecture": "福岡県",
    "prefecture_kana": "フクオカケン",
    "prefecture_code": 40,
    "city": "福岡市博多区",
    "city_kana": "フクオカシハカタク",
    "town": "千代",
    "town_kana": "チヨ",
    "street": "１丁目１７−１（博多北郵便局私書箱第９０号）",
    "office_name": "西部ガス　株式会社",
    "office_name_kana": "サイブガス カブシキガイシヤ"
  },
  "8708": {
    "zip_code": "8128708",
    "prefecture": "福岡県",
    "prefecture_kana": "フクオカケン",
    "prefecture_code": 40,
    "city": "福岡市博多区",
    "city_kana": "フクオカシハカタク",
    "town": "上呉服町",
    "town_kana": "カミゴフクマチ",
    "street": "１０−１（博多北郵便局私書箱第１８号）",
    "office_name": "三井信託銀行　株式会社　福岡支店",
    "office_name_kana": "ミツイシンタクギンコウ カブシキガイシヤ フクオカシテン"
  },
  "8709": {
    "zip_code": "8128709",
    "prefecture": "福岡県",
    "prefecture_kana": "フクオカケン",
    "prefecture_code": 40,
    "city": "福岡市博多区",
    "city_kana": "フクオカシハカタク",
    "town": "奈良屋町",
    "town_kana": "ナラヤマチ",
    "street": "４−２５（博多北郵便局私書箱第１８６号）",
    "office_name": "九宏薬品　株式会社",
    "office_name_kana": "キユウコウヤクヒンカブシキガイシヤ"
  },
  "8710": {
    "zip_code": "8128710",
    "prefecture": "福岡県",
    "prefecture_kana": "フクオカケン",
    "prefecture_code": 40,
    "city": "福岡市博多区",
    "city_kana": "フクオカシハカタク",
    "town": "店屋町",
    "town_kana": "テンヤマチ",
    "street": "１−３５（博多北郵便局私書箱第１３６号）",
    "office_name": "三井物産　株式会社　九州支社",
    "office_name_kana": "ミツイブツサン カブシキガイシヤ キユウシユウシシヤ"
  },
  "8717": {
    "zip_code": "8128717",
    "prefecture": "福岡県",
    "prefecture_kana": "フクオカケン",
    "prefecture_code": 40,
    "city": "福岡市博多区",
    "city_kana": "フクオカシハカタク",
    "town": "上呉服町",
    "town_kana": "カミゴフクマチ",
    "street": "１−１０（博多北郵便局私書箱第７８号）",
    "office_name": "株式会社　新出光",
    "office_name_kana": "カブシキガイシヤ シンイデミツ"
  },
  "8718": {
    "zip_code": "8128718",
    "prefecture": "福岡県",
    "prefecture_kana": "フクオカケン",
    "prefecture_code": 40,
    "city": "福岡市博多区",
    "city_kana": "フクオカシハカタク",
    "town": "店屋町",
    "town_kana": "テンヤマチ",
    "street": "７−１８（博多北郵便局私書箱第３７号）",
    "office_name": "株式会社　渡辺藤吉本店",
    "office_name_kana": "カ) ワタナベトウキチホンテン"
  },
  "8735": {
    "zip_code": "8128735",
    "prefecture": "福岡県",
    "prefecture_kana": "フクオカケン",
    "prefecture_code": 40,
    "city": "福岡市博多区",
    "city_kana": "フクオカシハカタク",
    "town": "博多駅前",
    "town_kana": "ハカタエキマエ",
    "street": "３−２５−２１博多駅前ビジネスセンター６階",
    "office_name": "独立行政法人　住宅金融支援機構　九州支店",
    "office_name_kana": "ドクリツギヨウセイホウジン ジユウタクキンユウシエンキコウ キユウシユウシテン"
  },
  "8792": {
    "zip_code": "8128792",
    "prefecture": "福岡県",
    "prefecture_kana": "フクオカケン",
    "prefecture_code": 40,
    "city": "福岡市中央区",
    "city_kana": "フクオカシチュウオウク",
    "town": "大濠公園",
    "town_kana": "オオホリコウエン",
    "street": "１−１",
    "office_name": "福岡サービスセンター",
    "office_name_kana": "フクオカサ-ビスセンタ-"
  },
  "8794": {
    "zip_code": "8128794",
    "prefecture": "福岡県",
    "prefecture_kana": "フクオカケン",
    "prefecture_code": 40,
    "city": "福岡市中央区",
    "city_kana": "フクオカシチュウオウク",
    "town": "大名",
    "town_kana": "ダイミョウ",
    "street": "２丁目５−１",
    "office_name": "福岡貯金事務センター",
    "office_name_kana": "フクオカチヨキンジムセンタ-"
  },
  "9502": {
    "zip_code": "8129502",
    "prefecture": "福岡県",
    "prefecture_kana": "フクオカケン",
    "prefecture_code": 40,
    "city": "福岡市博多区",
    "city_kana": "フクオカシハカタク",
    "town": "板付",
    "town_kana": "イタヅケ",
    "street": "４丁目７−４３",
    "office_name": "株式会社　翔薬　板付分室",
    "office_name_kana": "カブシキガイシヤ シヨウヤク イタヅケブンシツ"
  },
  "9503": {
    "zip_code": "8129503",
    "prefecture": "福岡県",
    "prefecture_kana": "フクオカケン",
    "prefecture_code": 40,
    "city": "福岡市博多区",
    "city_kana": "フクオカシハカタク",
    "town": "諸岡",
    "town_kana": "モロオカ",
    "street": "１丁目１７−１２",
    "office_name": "株式会社　九州合食",
    "office_name_kana": "カブシキガイシヤ キユウシユウガツシヨク"
  },
  "9505": {
    "zip_code": "8129505",
    "prefecture": "福岡県",
    "prefecture_kana": "フクオカケン",
    "prefecture_code": 40,
    "city": "福岡市博多区",
    "city_kana": "フクオカシハカタク",
    "town": "東雲町",
    "town_kana": "シノノメマチ",
    "street": "２丁目８−１",
    "office_name": "九州電力　株式会社　福岡南営業所",
    "office_name_kana": "キユウシユウデンリヨク カブシキガイシヤ フクオカミナミエイギヨウシヨ"
  },
  "9511": {
    "zip_code": "8129511",
    "prefecture": "福岡県",
    "prefecture_kana": "フクオカケン",
    "prefecture_code": 40,
    "city": "福岡市博多区",
    "city_kana": "フクオカシハカタク",
    "town": "西月隈",
    "town_kana": "ニシツキグマ",
    "street": "１丁目１９０",
    "office_name": "株式会社　スズケン　福岡支店",
    "office_name_kana": "カブシキガイシヤ スズケン フクオカシテン"
  },
  "9520": {
    "zip_code": "8129520",
    "prefecture": "福岡県",
    "prefecture_kana": "フクオカケン",
    "prefecture_code": 40,
    "city": "福岡市博多区",
    "city_kana": "フクオカシハカタク",
    "town": "井相田",
    "town_kana": "イソウダ",
    "street": "２丁目７−３５",
    "office_name": "トヨタ部品福岡共販　株式会社",
    "office_name_kana": "トヨタブヒンフクオカキヨウハン カブシキガイシヤ"
  },
  "9540": {
    "zip_code": "8129540",
    "prefecture": "福岡県",
    "prefecture_kana": "フクオカケン",
    "prefecture_code": 40,
    "city": "福岡市博多区",
    "city_kana": "フクオカシハカタク",
    "town": "南八幡町",
    "town_kana": "ミナミハチマンマチ",
    "street": "２丁目１２−１",
    "office_name": "精華女子短期大学",
    "office_name_kana": "セイカジヨシタンキダイガク"
  },
  "9551": {
    "zip_code": "8129551",
    "prefecture": "福岡県",
    "prefecture_kana": "フクオカケン",
    "prefecture_code": 40,
    "city": "福岡市博多区",
    "city_kana": "フクオカシハカタク",
    "town": "那珂",
    "town_kana": "ナカ",
    "street": "５丁目３−４１",
    "office_name": "株式会社　日伝　九州支店",
    "office_name_kana": "カブシキガイシヤ ニチデン キユウシユウシテン"
  },
  "9552": {
    "zip_code": "8129552",
    "prefecture": "福岡県",
    "prefecture_kana": "フクオカケン",
    "prefecture_code": 40,
    "city": "福岡市博多区",
    "city_kana": "フクオカシハカタク",
    "town": "半道橋",
    "town_kana": "ハンミチバシ",
    "street": "２丁目２番５１号",
    "office_name": "株式会社　アトル",
    "office_name_kana": "カブシキガイシヤ アトル"
  },
  "9588": {
    "zip_code": "8129588",
    "prefecture": "福岡県",
    "prefecture_kana": "フクオカケン",
    "prefecture_code": 40,
    "city": "福岡市博多区",
    "city_kana": "フクオカシハカタク",
    "town": "西月隈",
    "town_kana": "ニシツキグマ",
    "street": "３丁目２−３５",
    "office_name": "不二精機　株式会社",
    "office_name_kana": "フジセイキ カブシキガイシヤ"
  },
  "9589": {
    "zip_code": "8129589",
    "prefecture": "福岡県",
    "prefecture_kana": "フクオカケン",
    "prefecture_code": 40,
    "city": "福岡市博多区",
    "city_kana": "フクオカシハカタク",
    "town": "東那珂",
    "town_kana": "ヒガシナカ",
    "street": "１丁目１５−４８",
    "office_name": "ＤＩＣグラフィックス　株式会社　九州支店",
    "office_name_kana": "デイ-アイシ-グラフイツクス カブシキカイシヤ キユウシユウシテン"
  }
}