{
  "0000": {
    "zip_code": "8190000",
    "prefecture": "福岡県",
    "prefecture_kana": "フクオカケン",
    "prefecture_code": 40,
    "city": "福岡市西区",
    "city_kana": "フクオカシニシク",
    "town": "",
    "town_kana": "",
    "street": null,
    "office_name": null,
    "office_name_kana": null
  },
  "0001": {
    "zip_code": "8190001",
    "prefecture": "福岡県",
    "prefecture_kana": "フクオカケン",
    "prefecture_code": 40,
    "city": "福岡市西区",
    "city_kana": "フクオカシニシク",
    "town": "小戸",
    "town_kana": "オド",
    "street": null,
    "office_name": null,
    "office_name_kana": null
  },
  "0002": {
    "zip_code": "8190002",
    "prefecture": "福岡県",
    "prefecture_kana": "フクオカケン",
    "prefecture_code": 40,
    "city": "福岡市西区",
    "city_kana": "フクオカシニシク",
    "town": "姪の浜",
    "town_kana": "メイノハマ",
    "street": null,
    "office_name": null,
    "office_name_kana": null
  },
  "0005": {
    "zip_code": "8190005",
    "prefecture": "福岡県",
    "prefecture_kana": "フクオカケン",
    "prefecture_code": 40,
    "city": "福岡市西区",
    "city_kana": "フクオカシニシク",
    "town": "内浜",
    "town_kana": "ウチハマ",
    "street": null,
    "office_name": null,
    "office_name_kana": null
  },
  "0006": {
    "zip_code": "8190006",
    "prefecture": "福岡県",
    "prefecture_kana": "フクオカケン",
    "prefecture_code": 40,
    "city": "福岡市西区",
    "city_kana": "フクオカシニシク",
    "town": "姪浜駅南",
    "town_kana": "メイノハマエキミナミ",
    "street": null,
    "office_name": null,
    "office_name_kana": null
  },
  "0007": {
    "zip_code": "8190007",
    "prefecture": "福岡県",
    "prefecture_kana": "フクオカケン",
    "prefecture_code": 40,
    "city": "福岡市西区",
    "city_kana": "フクオカシニシク",
    "town": "愛宕南",
    "town_kana": "アタゴミナミ",
    "street": null,
    "office_name": null,
    "office_name_kana": null
  },
  "0011": {
    "zip_code": "8190011",
    "prefecture": "福岡県",
    "prefecture_kana": "フクオカケン",
    "prefecture_code": 40,
    "city": "福岡市西区",
    "city_kana": "フクオカシニシク",
    "town": "小呂島",
    "town_kana": "オロノシマ",
    "street": null,
    "office_name": null,
    "office_name_kana": null
  },
  "0012": {
    "zip_code": "8190012",
    "prefecture": "福岡県",
    "prefecture_kana": "フクオカケン",
    "prefecture_code": 40,
    "city": "福岡市西区",
    "city_kana": "フクオカシニシク",
    "town": "能古",
    "town_kana": "ノコ",
    "street": null,
    "office_name": null,
    "office_name_kana": null
  },
  "0013": {
    "zip_code": "8190013",
    "prefecture": "福岡県",
    "prefecture_kana": "フクオカケン",
    "prefecture_code": 40,
    "city": "福岡市西区",
    "city_kana": "フクオカシニシク",
    "town": "愛宕浜",
    "town_kana": "アタゴハマ",
    "street": null,
    "office_name": null,
    "office_name_kana": null
  },
  "0014": {
    "zip_code": "8190014",
    "prefecture": "福岡県",
    "prefecture_kana": "フクオカケン",
    "prefecture_code": 40,
    "city": "福岡市西区",
    "city_kana": "フクオカシニシク",
    "town": "豊浜",
    "town_kana": "トヨハマ",
    "street": null,
    "office_name": null,
    "office_name_kana": null
  },
  "0015": {
    "zip_code": "8190015",
    "prefecture": "福岡県",
    "prefecture_kana": "フクオカケン",
    "prefecture_code": 40,
    "city": "福岡市西区",
    "city_kana": "フクオカシニシク",
    "town": "愛宕",
    "town_kana": "アタゴ",
    "street": null,
    "office_name": null,
    "office_name_kana": null
  },
  "0021": {
    "zip_code": "8190021",
    "prefecture": "福岡県",
    "prefecture_kana": "フクオカケン",
    "prefecture_code": 40,
    "city": "福岡市西区",
    "city_kana": "フクオカシニシク",
    "town": "大町団地",
    "town_kana": "オオマチダンチ",
    "street": null,
    "office_name": null,
    "office_name_kana": null
  },
  "0022": {
    "zip_code": "8190022",
    "prefecture": "福岡県",
    "prefecture_kana": "フクオカケン",
    "prefecture_code": 40,
    "city": "福岡市西区",
    "city_kana": "フクオカシニシク",
    "town": "福重",
    "town_kana": "フクシゲ",
    "street": null,
    "office_name": null,
    "office_name_kana": null
  },
  "0023": {
    "zip_code": "8190023",
    "prefecture": "福岡県",
    "prefecture_kana": "フクオカケン",
    "prefecture_code": 40,
    "city": "福岡市西区",
    "city_kana": "フクオカシニシク",
    "town": "福重団地",
    "town_kana": "フクシゲダンチ",
    "street": null,
    "office_name": null,
    "office_name_kana": null
  },
  "0024": {
    "zip_code": "8190024",
    "prefecture": "福岡県",
    "prefecture_kana": "フクオカケン",
    "prefecture_code": 40,
    "city": "福岡市西区",
    "city_kana": "フクオカシニシク",
    "town": "十郎川団地",
    "town_kana": "ジュウロウガワダンチ",
    "street": null,
    "office_name": null,
    "office_name_kana": null
  },
  "0025": {
    "zip_code": "8190025",
    "prefecture": "福岡県",
    "prefecture_kana": "フクオカケン",
    "prefecture_code": 40,
    "city": "福岡市西区",
    "city_kana": "フクオカシニシク",
    "town": "石丸",
    "town_kana": "イシマル",
    "street": null,
    "office_name": null,
    "office_name_kana": null
  },
  "0030": {
    "zip_code": "8190030",
    "prefecture": "福岡県",
    "prefecture_kana": "フクオカケン",
    "prefecture_code": 40,
    "city": "福岡市西区",
    "city_kana": "フクオカシニシク",
    "town": "室見が丘",
    "town_kana": "ムロミガオカ",
    "street": null,
    "office_name": null,
    "office_name_kana": null
  },
  "0031": {
    "zip_code": "8190031",
    "prefecture": "福岡県",
    "prefecture_kana": "フクオカケン",
    "prefecture_code": 40,
    "city": "福岡市西区",
    "city_kana": "フクオカシニシク",
    "town": "橋本",
    "town_kana": "ハシモト",
    "street": null,
    "office_name": null,
    "office_name_kana": null
  },
  "0032": {
    "zip_code": "8190032",
    "prefecture": "福岡県",
    "prefecture_kana": "フクオカケン",
    "prefecture_code": 40,
    "city": "福岡市西区",
    "city_kana": "フクオカシニシク",
    "town": "戸切",
    "town_kana": "トギレ",
    "street": null,
    "office_name": null,
    "office_name_kana": null
  },
  "0033": [
    {
      "zip_code": "8190033",
      "prefecture": "福岡県",
      "prefecture_kana": "フクオカケン",
      "prefecture_code": 40,
      "city": "福岡市西区",
      "city_kana": "フクオカシニシク",
      "town": "橋本",
      "town_kana": "ハシモト",
      "street": null,
      "office_name": null,
      "office_name_kana": null
    },
    {
      "zip_code": "8190033",
      "prefecture": "福岡県",
      "prefecture_kana": "フクオカケン",
      "prefecture_code": 40,
      "city": "福岡市西区",
      "city_kana": "フクオカシニシク",
      "town": "橋本大字",
      "town_kana": "ハシモトオオアザ",
      "street": null,
      "office_name": null,
      "office_name_kana": null
    }
  ],
  "0034": {
    "zip_code": "8190034",
    "prefecture": "福岡県",
    "prefecture_kana": "フクオカケン",
    "prefecture_code": 40,
    "city": "福岡市西区",
    "city_kana": "フクオカシニシク",
    "town": "田",
    "town_kana": "タ",
    "street": null,
    "office_name": null,
    "office_name_kana": null
  },
  "0035": {
    "zip_code": "8190035",
    "prefecture": "福岡県",
    "prefecture_kana": "フクオカケン",
    "prefecture_code": 40,
    "city": "福岡市西区",
    "city_kana": "フクオカシニシク",
    "town": "金武",
    "town_kana": "カナタケ",
    "street": null,
    "office_name": null,
    "office_name_kana": null
  },
  "0036": {
    "zip_code": "8190036",
    "prefecture": "福岡県",
    "prefecture_kana": "フクオカケン",
    "prefecture_code": 40,
    "city": "福岡市西区",
    "city_kana": "フクオカシニシク",
    "town": "吉武",
    "town_kana": "ヨシタケ",
    "street": null,
    "office_name": null,
    "office_name_kana": null
  },
  "0037": {
    "zip_code": "8190037",
    "prefecture": "福岡県",
    "prefecture_kana": "フクオカケン",
    "prefecture_code": 40,
    "city": "福岡市西区",
    "city_kana": "フクオカシニシク",
    "town": "飯盛",
    "town_kana": "イイモリ",
    "street": null,
    "office_name": null,
    "office_name_kana": null
  },
  "0038": {
    "zip_code": "8190038",
    "prefecture": "福岡県",
    "prefecture_kana": "フクオカケン",
    "prefecture_code": 40,
    "city": "福岡市西区",
    "city_kana": "フクオカシニシク",
    "town": "羽根戸",
    "town_kana": "ハネド",
    "street": null,
    "office_name": null,
    "office_name_kana": null
  },
  "0039": {
    "zip_code": "8190039",
    "prefecture": "福岡県",
    "prefecture_kana": "フクオカケン",
    "prefecture_code": 40,
    "city": "福岡市西区",
    "city_kana": "フクオカシニシク",
    "town": "西入部",
    "town_kana": "ニシイリベ",
    "street": null,
    "office_name": null,
    "office_name_kana": null
  },
  "0041": {
    "zip_code": "8190041",
    "prefecture": "福岡県",
    "prefecture_kana": "フクオカケン",
    "prefecture_code": 40,
    "city": "福岡市西区",
    "city_kana": "フクオカシニシク",
    "town": "拾六町",
    "town_kana": "ジュウロクチョウ",
    "street": null,
    "office_name": null,
    "office_name_kana": null
  },
  "0042": {
    "zip_code": "8190042",
    "prefecture": "福岡県",
    "prefecture_kana": "フクオカケン",
    "prefecture_code": 40,
    "city": "福岡市西区",
    "city_kana": "フクオカシニシク",
    "town": "壱岐団地",
    "town_kana": "イキダンチ",
    "street": null,
    "office_name": null,
    "office_name_kana": null
  },
  "0043": {
    "zip_code": "8190043",
    "prefecture": "福岡県",
    "prefecture_kana": "フクオカケン",
    "prefecture_code": 40,
    "city": "福岡市西区",
    "city_kana": "フクオカシニシク",
    "town": "野方",
    "town_kana": "ノカタ",
    "street": null,
    "office_name": null,
    "office_name_kana": null
  },
  "0044": {
    "zip_code": "8190044",
    "prefecture": "福岡県",
    "prefecture_kana": "フクオカケン",
    "prefecture_code": 40,
    "city": "福岡市西区",
    "city_kana": "フクオカシニシク",
    "town": "生松台",
    "town_kana": "イキマツダイ",
    "street": null,
    "office_name": null,
    "office_name_kana": null
  },
  "0045": {
    "zip_code": "8190045",
    "prefecture": "福岡県",
    "prefecture_kana": "フクオカケン",
    "prefecture_code": 40,
    "city": "福岡市西区",
    "city_kana": "フクオカシニシク",
    "town": "拾六町団地",
    "town_kana": "ジュウロクチョウダンチ",
    "street": null,
    "office_name": null,
    "office_name_kana": null
  },
  "0046": {
    "zip_code": "8190046",
    "prefecture": "福岡県",
    "prefecture_kana": "フクオカケン",
    "prefecture_code": 40,
    "city": "福岡市西区",
    "city_kana": "フクオカシニシク",
    "town": "西の丘",
    "town_kana": "ニシノオカ",
    "street": null,
    "office_name": null,
    "office_name_kana": null
  },
  "0051": {
    "zip_code": "8190051",
    "prefecture": "福岡県",
    "prefecture_kana": "フクオカケン",
    "prefecture_code": 40,
    "city": "福岡市西区",
    "city_kana": "フクオカシニシク",
    "town": "下山門団地",
    "town_kana": "シモヤマトダンチ",
    "street": null,
    "office_name": null,
    "office_name_kana": null
  },
  "0052": {
    "zip_code": "8190052",
    "prefecture": "福岡県",
    "prefecture_kana": "フクオカケン",
    "prefecture_code": 40,
    "city": "福岡市西区",
    "city_kana": "フクオカシニシク",
    "town": "下山門",
    "town_kana": "シモヤマト",
    "street": null,
    "office_name": null,
    "office_name_kana": null
  },
  "0053": {
    "zip_code": "8190053",
    "prefecture": "福岡県",
    "prefecture_kana": "フクオカケン",
    "prefecture_code": 40,
    "city": "福岡市西区",
    "city_kana": "フクオカシニシク",
    "town": "城の原団地",
    "town_kana": "ジョウノハルダンチ",
    "street": null,
    "office_name": null,
    "office_name_kana": null
  },
  "0054": {
    "zip_code": "8190054",
    "prefecture": "福岡県",
    "prefecture_kana": "フクオカケン",
    "prefecture_code": 40,
    "city": "福岡市西区",
    "city_kana": "フクオカシニシク",
    "town": "上山門",
    "town_kana": "カミヤマト",
    "street": null,
    "office_name": null,
    "office_name_kana": null
  },
  "0055": {
    "zip_code": "8190055",
    "prefecture": "福岡県",
    "prefecture_kana": "フクオカケン",
    "prefecture_code": 40,
    "city": "福岡市西区",
    "city_kana": "フクオカシニシク",
    "town": "生の松原",
    "town_kana": "イキノマツバラ",
    "street": null,
    "office_name": null,
    "office_name_kana": null
  },
  "0161": {
    "zip_code": "8190161",
    "prefecture": "福岡県",
    "prefecture_kana": "フクオカケン",
    "prefecture_code": 40,
    "city": "福岡市西区",
    "city_kana": "フクオカシニシク",
    "town": "今宿東",
    "town_kana": "イマジュクヒガシ",
    "street": null,
    "office_name": null,
    "office_name_kana": null
  },
  "0162": {
    "zip_code": "8190162",
    "prefecture": "福岡県",
    "prefecture_kana": "フクオカケン",
    "prefecture_code": 40,
    "city": "福岡市西区",
    "city_kana": "フクオカシニシク",
    "town": "今宿青木",
    "town_kana": "イマジュクアオキ",
    "street": null,
    "office_name": null,
    "office_name_kana": null
  },
  "0163": {
    "zip_code": "8190163",
    "prefecture": "福岡県",
    "prefecture_kana": "フクオカケン",
    "prefecture_code": 40,
    "city": "福岡市西区",
    "city_kana": "フクオカシニシク",
    "town": "今宿上ノ原",
    "town_kana": "イマジュクカミノハル",
    "street": null,
    "office_name": null,
    "office_name_kana": null
  },
  "0164": {
    "zip_code": "8190164",
    "prefecture": "福岡県",
    "prefecture_kana": "フクオカケン",
    "prefecture_code": 40,
    "city": "福岡市西区",
    "city_kana": "フクオカシニシク",
    "town": "今宿町",
    "town_kana": "イマジュクマチ",
    "street": null,
    "office_name": null,
    "office_name_kana": null
  },
  "0165": {
    "zip_code": "8190165",
    "prefecture": "福岡県",
    "prefecture_kana": "フクオカケン",
    "prefecture_code": 40,
    "city": "福岡市西区",
    "city_kana": "フクオカシニシク",
    "town": "今津",
    "town_kana": "イマヅ",
    "street": null,
    "office_name": null,
    "office_name_kana": null
  },
  "0166": {
    "zip_code": "8190166",
    "prefecture": "福岡県",
    "prefecture_kana": "フクオカケン",
    "prefecture_code": 40,
    "city": "福岡市西区",
    "city_kana": "フクオカシニシク",
    "town": "横浜",
    "town_kana": "ヨコハマ",
    "street": null,
    "office_name": null,
    "office_name_kana": null
  },
  "0167": {
    "zip_code": "8190167",
    "prefecture": "福岡県",
    "prefecture_kana": "フクオカケン",
    "prefecture_code": 40,
    "city": "福岡市西区",
    "city_kana": "フクオカシニシク",
    "town": "今宿",
    "town_kana": "イマジュク",
    "street": null,
    "office_name": null,
    "office_name_kana": null
  },
  "0168": {
    "zip_code": "8190168",
    "prefecture": "福岡県",
    "prefecture_kana": "フクオカケン",
    "prefecture_code": 40,
    "city": "福岡市西区",
    "city_kana": "フクオカシニシク",
    "town": "今宿駅前",
    "town_kana": "イマジュクエキマエ",
    "street": null,
    "office_name": null,
    "office_name_kana": null
  },
  "0169": {
    "zip_code": "8190169",
    "prefecture": "福岡県",
    "prefecture_kana": "フクオカケン",
    "prefecture_code": 40,
    "city": "福岡市西区",
    "city_kana": "フクオカシニシク",
    "town": "今宿西",
    "town_kana": "イマジュクニシ",
    "street": null,
    "office_name": null,
    "office_name_kana": null
  },
  "0192": {
    "zip_code": "8190192",
    "prefecture": "福岡県",
    "prefecture_kana": "フクオカケン",
    "prefecture_code": 40,
    "city": "福岡市西区",
    "city_kana": "フクオカシニシク",
    "town": "今宿東",
    "town_kana": "イマジュクヒガシ",
    "street": "１丁目１−１",
    "office_name": "三菱電機　株式会社　福岡事業所",
    "office_name_kana": "ミツビシデンキ カブシキガイシヤ フクオカジギヨウシヨ"
  },
  "0193": {
    "zip_code": "8190193",
    "prefecture": "福岡県",
    "prefecture_kana": "フクオカケン",
    "prefecture_code": 40,
    "city": "福岡市西区",
    "city_kana": "フクオカシニシク",
    "town": "今宿青木",
    "town_kana": "イマジュクアオキ",
    "street": "１０４２番地１",
    "office_name": "株式会社　マルタイ",
    "office_name_kana": "カブシキガイシヤ マルタイ"
  },
  "0201": {
    "zip_code": "8190201",
    "prefecture": "福岡県",
    "prefecture_kana": "フクオカケン",
    "prefecture_code": 40,
    "city": "福岡市西区",
    "city_kana": "フクオカシニシク",
    "town": "宮浦",
    "town_kana": "ミヤノウラ",
    "street": null,
    "office_name": null,
    "office_name_kana": null
  },
  "0202": {
    "zip_code": "8190202",
    "prefecture": "福岡県",
    "prefecture_kana": "フクオカケン",
    "prefecture_code": 40,
    "city": "福岡市西区",
    "city_kana": "フクオカシニシク",
    "town": "西浦",
    "town_kana": "ニシノウラ",
    "street": null,
    "office_name": null,
    "office_name_kana": null
  },
  "0203": {
    "zip_code": "8190203",
    "prefecture": "福岡県",
    "prefecture_kana": "フクオカケン",
    "prefecture_code": 40,
    "city": "福岡市西区",
    "city_kana": "フクオカシニシク",
    "town": "小田",
    "town_kana": "コタ",
    "street": null,
    "office_name": null,
    "office_name_kana": null
  },
  "0204": {
    "zip_code": "8190204",
    "prefecture": "福岡県",
    "prefecture_kana": "フクオカケン",
    "prefecture_code": 40,
    "city": "福岡市西区",
    "city_kana": "フクオカシニシク",
    "town": "草場",
    "town_kana": "クサバ",
    "street": null,
    "office_name": null,
    "office_name_kana": null
  },
  "0205": {
    "zip_code": "8190205",
    "prefecture": "福岡県",
    "prefecture_kana": "フクオカケン",
    "prefecture_code": 40,
    "city": "福岡市西区",
    "city_kana": "フクオカシニシク",
    "town": "玄界島",
    "town_kana": "ゲンカイシマ",
    "street": null,
    "office_name": null,
    "office_name_kana": null
  },
  "0366": {
    "zip_code": "8190366",
    "prefecture": "福岡県",
    "prefecture_kana": "フクオカケン",
    "prefecture_code": 40,
    "city": "福岡市西区",
    "city_kana": "フクオカシニシク",
    "town": "横浜",
    "town_kana": "ヨコハマ",
    "street": null,
    "office_name": null,
    "office_name_kana": null
  },
  "0367": {
    "zip_code": "8190367",
    "prefecture": "福岡県",
    "prefecture_kana": "フクオカケン",
    "prefecture_code": 40,
    "city": "福岡市西区",
    "city_kana": "フクオカシニシク",
    "town": "西都",
    "town_kana": "サイト",
    "street": null,
    "office_name": null,
    "office_name_kana": null
  },
  "0371": {
    "zip_code": "8190371",
    "prefecture": "福岡県",
    "prefecture_kana": "フクオカケン",
    "prefecture_code": 40,
    "city": "福岡市西区",
    "city_kana": "フクオカシニシク",
    "town": "飯氏",
    "town_kana": "イイジ",
    "street": null,
    "office_name": null,
    "office_name_kana": null
  },
  "0372": {
    "zip_code": "8190372",
    "prefecture": "福岡県",
    "prefecture_kana": "フクオカケン",
    "prefecture_code": 40,
    "city": "福岡市西区",
    "city_kana": "フクオカシニシク",
    "town": "宇田川原",
    "town_kana": "ウダガワラ",
    "street": null,
    "office_name": null,
    "office_name_kana": null
  },
  "0373": {
    "zip_code": "8190373",
    "prefecture": "福岡県",
    "prefecture_kana": "フクオカケン",
    "prefecture_code": 40,
    "city": "福岡市西区",
    "city_kana": "フクオカシニシク",
    "town": "周船寺",
    "town_kana": "スセンジ",
    "street": null,
    "office_name": null,
    "office_name_kana": null
  },
  "0374": {
    "zip_code": "8190374",
    "prefecture": "福岡県",
    "prefecture_kana": "フクオカケン",
    "prefecture_code": 40,
    "city": "福岡市西区",
    "city_kana": "フクオカシニシク",
    "town": "千里",
    "town_kana": "センリ",
    "street": null,
    "office_name": null,
    "office_name_kana": null
  },
  "0375": {
    "zip_code": "8190375",
    "prefecture": "福岡県",
    "prefecture_kana": "フクオカケン",
    "prefecture_code": 40,
    "city": "福岡市西区",
    "city_kana": "フクオカシニシク",
    "town": "徳永",
    "town_kana": "トクナガ",
    "street": null,
    "office_name": null,
    "office_name_kana": null
  },
  "0376": {
    "zip_code": "8190376",
    "prefecture": "福岡県",
    "prefecture_kana": "フクオカケン",
    "prefecture_code": 40,
    "city": "福岡市西区",
    "city_kana": "フクオカシニシク",
    "town": "女原",
    "town_kana": "ミョウバル",
    "street": null,
    "office_name": null,
    "office_name_kana": null
  },
  "0377": {
    "zip_code": "8190377",
    "prefecture": "福岡県",
    "prefecture_kana": "フクオカケン",
    "prefecture_code": 40,
    "city": "福岡市西区",
    "city_kana": "フクオカシニシク",
    "town": "女原北",
    "town_kana": "ミョウバルキタ",
    "street": null,
    "office_name": null,
    "office_name_kana": null
  },
  "0378": {
    "zip_code": "8190378",
    "prefecture": "福岡県",
    "prefecture_kana": "フクオカケン",
    "prefecture_code": 40,
    "city": "福岡市西区",
    "city_kana": "フクオカシニシク",
    "town": "徳永北",
    "town_kana": "トクナガキタ",
    "street": null,
    "office_name": null,
    "office_name_kana": null
  },
  "0379": {
    "zip_code": "8190379",
    "prefecture": "福岡県",
    "prefecture_kana": "フクオカケン",
    "prefecture_code": 40,
    "city": "福岡市西区",
    "city_kana": "フクオカシニシク",
    "town": "北原",
    "town_kana": "キタバル",
    "street": null,
    "office_name": null,
    "office_name_kana": null
  },
  "0381": {
    "zip_code": "8190381",
    "prefecture": "福岡県",
    "prefecture_kana": "フクオカケン",
    "prefecture_code": 40,
    "city": "福岡市西区",
    "city_kana": "フクオカシニシク",
    "town": "泉",
    "town_kana": "イズミ",
    "street": null,
    "office_name": null,
    "office_name_kana": null
  },
  "0382": {
    "zip_code": "8190382",
    "prefecture": "福岡県",
    "prefecture_kana": "フクオカケン",
    "prefecture_code": 40,
    "city": "福岡市西区",
    "city_kana": "フクオカシニシク",
    "town": "桑原",
    "town_kana": "クワバラ",
    "street": null,
    "office_name": null,
    "office_name_kana": null
  },
  "0383": {
    "zip_code": "8190383",
    "prefecture": "福岡県",
    "prefecture_kana": "フクオカケン",
    "prefecture_code": 40,
    "city": "福岡市西区",
    "city_kana": "フクオカシニシク",
    "town": "田尻",
    "town_kana": "タジリ",
    "street": null,
    "office_name": null,
    "office_name_kana": null
  },
  "0384": {
    "zip_code": "8190384",
    "prefecture": "福岡県",
    "prefecture_kana": "フクオカケン",
    "prefecture_code": 40,
    "city": "福岡市西区",
    "city_kana": "フクオカシニシク",
    "town": "太郎丸",
    "town_kana": "タロウマル",
    "street": null,
    "office_name": null,
    "office_name_kana": null
  },
  "0385": {
    "zip_code": "8190385",
    "prefecture": "福岡県",
    "prefecture_kana": "フクオカケン",
    "prefecture_code": 40,
    "city": "福岡市西区",
    "city_kana": "フクオカシニシク",
    "town": "元岡",
    "town_kana": "モトオカ",
    "street": null,
    "office_name": null,
    "office_name_kana": null
  },
  "0386": {
    "zip_code": "8190386",
    "prefecture": "福岡県",
    "prefecture_kana": "フクオカケン",
    "prefecture_code": 40,
    "city": "福岡市西区",
    "city_kana": "フクオカシニシク",
    "town": "元浜",
    "town_kana": "モトハマ",
    "street": null,
    "office_name": null,
    "office_name_kana": null
  },
  "0387": {
    "zip_code": "8190387",
    "prefecture": "福岡県",
    "prefecture_kana": "フクオカケン",
    "prefecture_code": 40,
    "city": "福岡市西区",
    "city_kana": "フクオカシニシク",
    "town": "富士見",
    "town_kana": "フジミ",
    "street": null,
    "office_name": null,
    "office_name_kana": null
  },
  "0388": {
    "zip_code": "8190388",
    "prefecture": "福岡県",
    "prefecture_kana": "フクオカケン",
    "prefecture_code": 40,
    "city": "福岡市西区",
    "city_kana": "フクオカシニシク",
    "town": "九大新町",
    "town_kana": "キュウダイシンマチ",
    "street": null,
    "office_name": null,
    "office_name_kana": null
  },
  "0395": {
    "zip_code": "8190395",
    "prefecture": "福岡県",
    "prefecture_kana": null,
    "prefecture_code": null,
    "city": "福岡市西区",
    "city_kana": null,
    "town": "大字元岡",
    "town_kana": null,
    "street": "７４４番地",
    "office_name": "国立大学法人　九州大学",
    "office_name_kana": "コクリツダイガクホウジン キユウシユウダイガク"
  },
  "1100": {
    "zip_code": "8191100",
    "prefecture": "福岡県",
    "prefecture_kana": "フクオカケン",
    "prefecture_code": 40,
    "city": "糸島市",
    "city_kana": "イトシマシ",
    "town": "",
    "town_kana": "",
    "street": null,
    "office_name": null,
    "office_name_kana": null
  },
  "1101": {
    "zip_code": "8191101",
    "prefecture": "福岡県",
    "prefecture_kana": "フクオカケン",
    "prefecture_code": 40,
    "city": "糸島市",
    "city_kana": "イトシマシ",
    "town": "板持",
    "town_kana": "イタモチ",
    "street": null,
    "office_name": null,
    "office_name_kana": null
  },
  "1102": {
    "zip_code": "8191102",
    "prefecture": "福岡県",
    "prefecture_kana": "フクオカケン",
    "prefecture_code": 40,
    "city": "糸島市",
    "city_kana": "イトシマシ",
    "town": "高田",
    "town_kana": "タカタ",
    "street": null,
    "office_name": null,
    "office_name_kana": null
  },
  "1103": {
    "zip_code": "8191103",
    "prefecture": "福岡県",
    "prefecture_kana": "フクオカケン",
    "prefecture_code": 40,
    "city": "糸島市",
    "city_kana": "イトシマシ",
    "town": "池田",
    "town_kana": "イケダ",
    "street": null,
    "office_name": null,
    "office_name_kana": null
  },
  "1104": {
    "zip_code": "8191104",
    "prefecture": "福岡県",
    "prefecture_kana": "フクオカケン",
    "prefecture_code": 40,
    "city": "糸島市",
    "city_kana": "イトシマシ",
    "town": "波多江",
    "town_kana": "ハタエ",
    "street": null,
    "office_name": null,
    "office_name_kana": null
  },
  "1105": {
    "zip_code": "8191105",
    "prefecture": "福岡県",
    "prefecture_kana": "フクオカケン",
    "prefecture_code": 40,
    "city": "糸島市",
    "city_kana": "イトシマシ",
    "town": "潤",
    "town_kana": "ウルウ",
    "street": null,
    "office_name": null,
    "office_name_kana": null
  },
  "1106": {
    "zip_code": "8191106",
    "prefecture": "福岡県",
    "prefecture_kana": "フクオカケン",
    "prefecture_code": 40,
    "city": "糸島市",
    "city_kana": "イトシマシ",
    "town": "志登",
    "town_kana": "シト",
    "street": null,
    "office_name": null,
    "office_name_kana": null
  },
  "1107": {
    "zip_code": "8191107",
    "prefecture": "福岡県",
    "prefecture_kana": "フクオカケン",
    "prefecture_code": 40,
    "city": "糸島市",
    "city_kana": "イトシマシ",
    "town": "波多江駅北",
    "town_kana": "ハタエエキキタ",
    "street": null,
    "office_name": null,
    "office_name_kana": null
  },
  "1108": {
    "zip_code": "8191108",
    "prefecture": "福岡県",
    "prefecture_kana": "フクオカケン",
    "prefecture_code": 40,
    "city": "糸島市",
    "city_kana": "イトシマシ",
    "town": "波多江駅南",
    "town_kana": "ハタエエキミナミ",
    "street": null,
    "office_name": null,
    "office_name_kana": null
  },
  "1111": {
    "zip_code": "8191111",
    "prefecture": "福岡県",
    "prefecture_kana": "フクオカケン",
    "prefecture_code": 40,
    "city": "糸島市",
    "city_kana": "イトシマシ",
    "town": "泊",
    "town_kana": "トマリ",
    "street": null,
    "office_name": null,
    "office_name_kana": null
  },
  "1112": {
    "zip_code": "8191112",
    "prefecture": "福岡県",
    "prefecture_kana": "フクオカケン",
    "prefecture_code": 40,
    "city": "糸島市",
    "city_kana": "イトシマシ",
    "town": "浦志",
    "town_kana": "ウラシ",
    "street": null,
    "office_name": null,
    "office_name_kana": null
  },
  "1113": {
    "zip_code": "8191113",
    "prefecture": "福岡県",
    "prefecture_kana": "フクオカケン",
    "prefecture_code": 40,
    "city": "糸島市",
    "city_kana": "イトシマシ",
    "town": "前原",
    "town_kana": "マエバル",
    "street": null,
    "office_name": null,
    "office_name_kana": null
  },
  "1114": {
    "zip_code": "8191114",
    "prefecture": "福岡県",
    "prefecture_kana": "フクオカケン",
    "prefecture_code": 40,
    "city": "糸島市",
    "city_kana": "イトシマシ",
    "town": "新田",
    "town_kana": "シンデン",
    "street": null,
    "office_name": null,
    "office_name_kana": null
  },
  "1115": {
    "zip_code": "8191115",
    "prefecture": "福岡県",
    "prefecture_kana": "フクオカケン",
    "prefecture_code": 40,
    "city": "糸島市",
    "city_kana": "イトシマシ",
    "town": "油比",
    "town_kana": "ユビ",
    "street": null,
    "office_name": null,
    "office_name_kana": null
  },
  "1116": {
    "zip_code": "8191116",
    "prefecture": "福岡県",
    "prefecture_kana": "フクオカケン",
    "prefecture_code": 40,
    "city": "糸島市",
    "city_kana": "イトシマシ",
    "town": "前原中央",
    "town_kana": "マエバルチュウオウ",
    "street": null,
    "office_name": null,
    "office_name_kana": null
  },
  "1117": {
    "zip_code": "8191117",
    "prefecture": "福岡県",
    "prefecture_kana": "フクオカケン",
    "prefecture_code": 40,
    "city": "糸島市",
    "city_kana": "イトシマシ",
    "town": "前原西",
    "town_kana": "マエバルニシ",
    "street": null,
    "office_name": null,
    "office_name_kana": null
  },
  "1118": {
    "zip_code": "8191118",
    "prefecture": "福岡県",
    "prefecture_kana": "フクオカケン",
    "prefecture_code": 40,
    "city": "糸島市",
    "city_kana": "イトシマシ",
    "town": "前原北",
    "town_kana": "マエバルキタ",
    "street": null,
    "office_name": null,
    "office_name_kana": null
  },
  "1119": {
    "zip_code": "8191119",
    "prefecture": "福岡県",
    "prefecture_kana": "フクオカケン",
    "prefecture_code": 40,
    "city": "糸島市",
    "city_kana": "イトシマシ",
    "town": "前原東",
    "town_kana": "マエバルヒガシ",
    "street": null,
    "office_name": null,
    "office_name_kana": null
  },
  "1121": {
    "zip_code": "8191121",
    "prefecture": "福岡県",
    "prefecture_kana": "フクオカケン",
    "prefecture_code": 40,
    "city": "糸島市",
    "city_kana": "イトシマシ",
    "town": "荻浦",
    "town_kana": "オギノウラ",
    "street": null,
    "office_name": null,
    "office_name_kana": null
  },
  "1122": {
    "zip_code": "8191122",
    "prefecture": "福岡県",
    "prefecture_kana": "フクオカケン",
    "prefecture_code": 40,
    "city": "糸島市",
    "city_kana": "イトシマシ",
    "town": "東",
    "town_kana": "ヒガシ",
    "street": null,
    "office_name": null,
    "office_name_kana": null
  },
  "1123": {
    "zip_code": "8191123",
    "prefecture": "福岡県",
    "prefecture_kana": "フクオカケン",
    "prefecture_code": 40,
    "city": "糸島市",
    "city_kana": "イトシマシ",
    "town": "神在",
    "town_kana": "カミアリ",
    "street": null,
    "office_name": null,
    "office_name_kana": null
  },
  "1124": {
    "zip_code": "8191124",
    "prefecture": "福岡県",
    "prefecture_kana": "フクオカケン",
    "prefecture_code": 40,
    "city": "糸島市",
    "city_kana": "イトシマシ",
    "town": "加布里",
    "town_kana": "カフリ",
    "street": null,
    "office_name": null,
    "office_name_kana": null
  },
  "1125": {
    "zip_code": "8191125",
    "prefecture": "福岡県",
    "prefecture_kana": "フクオカケン",
    "prefecture_code": 40,
    "city": "糸島市",
    "city_kana": "イトシマシ",
    "town": "千早新田",
    "town_kana": "チハヤシンデン",
    "street": null,
    "office_name": null,
    "office_name_kana": null
  },
  "1126": {
    "zip_code": "8191126",
    "prefecture": "福岡県",
    "prefecture_kana": "フクオカケン",
    "prefecture_code": 40,
    "city": "糸島市",
    "city_kana": "イトシマシ",
    "town": "岩本",
    "town_kana": "イワモト",
    "street": null,
    "office_name": null,
    "office_name_kana": null
  },
  "1127": {
    "zip_code": "8191127",
    "prefecture": "福岡県",
    "prefecture_kana": "フクオカケン",
    "prefecture_code": 40,
    "city": "糸島市",
    "city_kana": "イトシマシ",
    "town": "有田中央",
    "town_kana": "アリタチュウオウ",
    "street": null,
    "office_name": null,
    "office_name_kana": null
  },
  "1128": {
    "zip_code": "8191128",
    "prefecture": "福岡県",
    "prefecture_kana": "フクオカケン",
    "prefecture_code": 40,
    "city": "糸島市",
    "city_kana": "イトシマシ",
    "town": "篠原東",
    "town_kana": "シノワラヒガシ",
    "street": null,
    "office_name": null,
    "office_name_kana": null
  },
  "1129": {
    "zip_code": "8191129",
    "prefecture": "福岡県",
    "prefecture_kana": "フクオカケン",
    "prefecture_code": 40,
    "city": "糸島市",
    "city_kana": "イトシマシ",
    "town": "篠原西",
    "town_kana": "シノワラニシ",
    "street": null,
    "office_name": null,
    "office_name_kana": null
  },
  "1131": {
    "zip_code": "8191131",
    "prefecture": "福岡県",
    "prefecture_kana": "フクオカケン",
    "prefecture_code": 40,
    "city": "糸島市",
    "city_kana": "イトシマシ",
    "town": "篠原",
    "town_kana": "シノワラ",
    "street": null,
    "office_name": null,
    "office_name_kana": null
  },
  "1132": {
    "zip_code": "8191132",
    "prefecture": "福岡県",
    "prefecture_kana": "フクオカケン",
    "prefecture_code": 40,
    "city": "糸島市",
    "city_kana": "イトシマシ",
    "town": "有田",
    "town_kana": "アリタ",
    "street": null,
    "office_name": null,
    "office_name_kana": null
  },
  "1133": {
    "zip_code": "8191133",
    "prefecture": "福岡県",
    "prefecture_kana": "フクオカケン",
    "prefecture_code": 40,
    "city": "糸島市",
    "city_kana": "イトシマシ",
    "town": "富",
    "town_kana": "トミ",
    "street": null,
    "office_name": null,
    "office_name_kana": null
  },
  "1134": {
    "zip_code": "8191134",
    "prefecture": "福岡県",
    "prefecture_kana": "フクオカケン",
    "prefecture_code": 40,
    "city": "糸島市",
    "city_kana": "イトシマシ",
    "town": "多久",
    "town_kana": "タク",
    "street": null,
    "office_name": null,
    "office_name_kana": null
  },
  "1135": {
    "zip_code": "8191135",
    "prefecture": "福岡県",
    "prefecture_kana": "フクオカケン",
    "prefecture_code": 40,
    "city": "糸島市",
    "city_kana": "イトシマシ",
    "town": "大浦",
    "town_kana": "オオウラ",
    "street": null,
    "office_name": null,
    "office_name_kana": null
  },
  "1136": {
    "zip_code": "8191136",
    "prefecture": "福岡県",
    "prefecture_kana": "フクオカケン",
    "prefecture_code": 40,
    "city": "糸島市",
    "city_kana": "イトシマシ",
    "town": "美咲が丘",
    "town_kana": "ミサキガオカ",
    "street": null,
    "office_name": null,
    "office_name_kana": null
  },
  "1137": {
    "zip_code": "8191137",
    "prefecture": "福岡県",
    "prefecture_kana": "フクオカケン",
    "prefecture_code": 40,
    "city": "糸島市",
    "city_kana": "イトシマシ",
    "town": "南風台",
    "town_kana": "ミナカゼダイ",
    "street": null,
    "office_name": null,
    "office_name_kana": null
  },
  "1138": {
    "zip_code": "8191138",
    "prefecture": "福岡県",
    "prefecture_kana": "フクオカケン",
    "prefecture_code": 40,
    "city": "糸島市",
    "city_kana": "イトシマシ",
    "town": "前原駅南",
    "town_kana": "マエバルエキミナミ",
    "street": null,
    "office_name": null,
    "office_name_kana": null
  },
  "1139": {
    "zip_code": "8191139",
    "prefecture": "福岡県",
    "prefecture_kana": "フクオカケン",
    "prefecture_code": 40,
    "city": "糸島市",
    "city_kana": "イトシマシ",
    "town": "前原南",
    "town_kana": "マエバルミナミ",
    "street": null,
    "office_name": null,
    "office_name_kana": null
  },
  "1141": {
    "zip_code": "8191141",
    "prefecture": "福岡県",
    "prefecture_kana": "フクオカケン",
    "prefecture_code": 40,
    "city": "糸島市",
    "city_kana": "イトシマシ",
    "town": "蔵持",
    "town_kana": "クラモチ",
    "street": null,
    "office_name": null,
    "office_name_kana": null
  },
  "1142": {
    "zip_code": "8191142",
    "prefecture": "福岡県",
    "prefecture_kana": "フクオカケン",
    "prefecture_code": 40,
    "city": "糸島市",
    "city_kana": "イトシマシ",
    "town": "八島",
    "town_kana": "ヤシマ",
    "street": null,
    "office_name": null,
    "office_name_kana": null
  },
  "1143": {
    "zip_code": "8191143",
    "prefecture": "福岡県",
    "prefecture_kana": "フクオカケン",
    "prefecture_code": 40,
    "city": "糸島市",
    "city_kana": "イトシマシ",
    "town": "高上",
    "town_kana": "タカウエ",
    "street": null,
    "office_name": null,
    "office_name_kana": null
  },
  "1144": {
    "zip_code": "8191144",
    "prefecture": "福岡県",
    "prefecture_kana": "フクオカケン",
    "prefecture_code": 40,
    "city": "糸島市",
    "city_kana": "イトシマシ",
    "town": "山北",
    "town_kana": "ヤマギタ",
    "street": null,
    "office_name": null,
    "office_name_kana": null
  },
  "1145": {
    "zip_code": "8191145",
    "prefecture": "福岡県",
    "prefecture_kana": "フクオカケン",
    "prefecture_code": 40,
    "city": "糸島市",
    "city_kana": "イトシマシ",
    "town": "雷山",
    "town_kana": "ライザン",
    "street": null,
    "office_name": null,
    "office_name_kana": null
  },
  "1146": {
    "zip_code": "8191146",
    "prefecture": "福岡県",
    "prefecture_kana": "フクオカケン",
    "prefecture_code": 40,
    "city": "糸島市",
    "city_kana": "イトシマシ",
    "town": "三坂",
    "town_kana": "ミサカ",
    "street": null,
    "office_name": null,
    "office_name_kana": null
  },
  "1147": {
    "zip_code": "8191147",
    "prefecture": "福岡県",
    "prefecture_kana": "フクオカケン",
    "prefecture_code": 40,
    "city": "糸島市",
    "city_kana": "イトシマシ",
    "town": "香力",
    "town_kana": "コウリキ",
    "street": null,
    "office_name": null,
    "office_name_kana": null
  },
  "1151": {
    "zip_code": "8191151",
    "prefecture": "福岡県",
    "prefecture_kana": "フクオカケン",
    "prefecture_code": 40,
    "city": "糸島市",
    "city_kana": "イトシマシ",
    "town": "本",
    "town_kana": "ホン",
    "street": null,
    "office_name": null,
    "office_name_kana": null
  },
  "1152": {
    "zip_code": "8191152",
    "prefecture": "福岡県",
    "prefecture_kana": "フクオカケン",
    "prefecture_code": 40,
    "city": "糸島市",
    "city_kana": "イトシマシ",
    "town": "飯原",
    "town_kana": "イイバル",
    "street": null,
    "office_name": null,
    "office_name_kana": null
  },
  "1153": {
    "zip_code": "8191153",
    "prefecture": "福岡県",
    "prefecture_kana": "フクオカケン",
    "prefecture_code": 40,
    "city": "糸島市",
    "city_kana": "イトシマシ",
    "town": "長野",
    "town_kana": "ナガノ",
    "street": null,
    "office_name": null,
    "office_name_kana": null
  },
  "1154": {
    "zip_code": "8191154",
    "prefecture": "福岡県",
    "prefecture_kana": "フクオカケン",
    "prefecture_code": 40,
    "city": "糸島市",
    "city_kana": "イトシマシ",
    "town": "白糸",
    "town_kana": "シライト",
    "street": null,
    "office_name": null,
    "office_name_kana": null
  },
  "1155": {
    "zip_code": "8191155",
    "prefecture": "福岡県",
    "prefecture_kana": "フクオカケン",
    "prefecture_code": 40,
    "city": "糸島市",
    "city_kana": "イトシマシ",
    "town": "川付",
    "town_kana": "カワツキ",
    "street": null,
    "office_name": null,
    "office_name_kana": null
  },
  "1156": {
    "zip_code": "8191156",
    "prefecture": "福岡県",
    "prefecture_kana": "フクオカケン",
    "prefecture_code": 40,
    "city": "糸島市",
    "city_kana": "イトシマシ",
    "town": "瀬戸",
    "town_kana": "セト",
    "street": null,
    "office_name": null,
    "office_name_kana": null
  },
  "1192": {
    "zip_code": "8191192",
    "prefecture": "福岡県",
    "prefecture_kana": "フクオカケン",
    "prefecture_code": 40,
    "city": "糸島市",
    "city_kana": "イトシマシ",
    "town": "前原西",
    "town_kana": "マエバルニシ",
    "street": "１丁目１−１（前原郵便局私書箱第６号）",
    "office_name": "糸島市役所　本庁舎",
    "office_name_kana": "イトシマシヤクシヨ ホンチヨウシヤ"
  },
  "1193": {
    "zip_code": "8191193",
    "prefecture": "福岡県",
    "prefecture_kana": "フクオカケン",
    "prefecture_code": 40,
    "city": "糸島市",
    "city_kana": "イトシマシ",
    "town": "前原東",
    "town_kana": "マエバルヒガシ",
    "street": "２丁目７−１（前原郵便局私書箱第３号）",
    "office_name": "糸島農業協同組合",
    "office_name_kana": "イトシマノウギヨウキヨウドウクミアイ"
  },
  "1195": {
    "zip_code": "8191195",
    "prefecture": "福岡県",
    "prefecture_kana": "フクオカケン",
    "prefecture_code": 40,
    "city": "糸島市",
    "city_kana": "イトシマシ",
    "town": "波多江",
    "town_kana": "ハタエ",
    "street": "字中川原１００",
    "office_name": "九星飲料工業　株式会社",
    "office_name_kana": "キユウセイインリヨウコウギヨウ カブシキカイシヤ"
  },
  "1301": {
    "zip_code": "8191301",
    "prefecture": "福岡県",
    "prefecture_kana": "フクオカケン",
    "prefecture_code": 40,
    "city": "糸島市",
    "city_kana": "イトシマシ",
    "town": "志摩井田原",
    "town_kana": "シマイダハラ",
    "street": null,
    "office_name": null,
    "office_name_kana": null
  },
  "1302": {
    "zip_code": "8191302",
    "prefecture": "福岡県",
    "prefecture_kana": "フクオカケン",
    "prefecture_code": 40,
    "city": "糸島市",
    "city_kana": "イトシマシ",
    "town": "志摩吉田",
    "town_kana": "シマヨシダ",
    "street": null,
    "office_name": null,
    "office_name_kana": null
  },
  "1303": {
    "zip_code": "8191303",
    "prefecture": "福岡県",
    "prefecture_kana": "フクオカケン",
    "prefecture_code": 40,
    "city": "糸島市",
    "city_kana": "イトシマシ",
    "town": "志摩野北",
    "town_kana": "シマノギタ",
    "street": null,
    "office_name": null,
    "office_name_kana": null
  },
  "1304": {
    "zip_code": "8191304",
    "prefecture": "福岡県",
    "prefecture_kana": "フクオカケン",
    "prefecture_code": 40,
    "city": "糸島市",
    "city_kana": "イトシマシ",
    "town": "志摩桜井",
    "town_kana": "シマサクライ",
    "street": null,
    "office_name": null,
    "office_name_kana": null
  },
  "1305": {
    "zip_code": "8191305",
    "prefecture": "福岡県",
    "prefecture_kana": "フクオカケン",
    "prefecture_code": 40,
    "city": "糸島市",
    "city_kana": "イトシマシ",
    "town": "志摩馬場",
    "town_kana": "シマババ",
    "street": null,
    "office_name": null,
    "office_name_kana": null
  },
  "1306": {
    "zip_code": "8191306",
    "prefecture": "福岡県",
    "prefecture_kana": "フクオカケン",
    "prefecture_code": 40,
    "city": "糸島市",
    "city_kana": "イトシマシ",
    "town": "志摩松隈",
    "town_kana": "シママツグマ",
    "street": null,
    "office_name": null,
    "office_name_kana": null
  },
  "1311": {
    "zip_code": "8191311",
    "prefecture": "福岡県",
    "prefecture_kana": "フクオカケン",
    "prefecture_code": 40,
    "city": "糸島市",
    "city_kana": "イトシマシ",
    "town": "志摩津和崎",
    "town_kana": "シマツワザキ",
    "street": null,
    "office_name": null,
    "office_name_kana": null
  },
  "1312": {
    "zip_code": "8191312",
    "prefecture": "福岡県",
    "prefecture_kana": "フクオカケン",
    "prefecture_code": 40,
    "city": "糸島市",
    "city_kana": "イトシマシ",
    "town": "志摩初",
    "town_kana": "シマハツ",
    "street": null,
    "office_name": null,
    "office_name_kana": null
  },
  "1313": {
    "zip_code": "8191313",
    "prefecture": "福岡県",
    "prefecture_kana": "フクオカケン",
    "prefecture_code": 40,
    "city": "糸島市",
    "city_kana": "イトシマシ",
    "town": "志摩稲留",
    "town_kana": "シマイナドメ",
    "street": null,
    "office_name": null,
    "office_name_kana": null
  },
  "1314": {
    "zip_code": "8191314",
    "prefecture": "福岡県",
    "prefecture_kana": "フクオカケン",
    "prefecture_code": 40,
    "city": "糸島市",
    "city_kana": "イトシマシ",
    "town": "志摩師吉",
    "town_kana": "シマモロヨシ",
    "street": null,
    "office_name": null,
    "office_name_kana": null
  },
  "1315": {
    "zip_code": "8191315",
    "prefecture": "福岡県",
    "prefecture_kana": "フクオカケン",
    "prefecture_code": 40,
    "city": "糸島市",
    "city_kana": "イトシマシ",
    "town": "志摩稲葉",
    "town_kana": "シマイナバ",
    "street": null,
    "office_name": null,
    "office_name_kana": null
  },
  "1321": {
    "zip_code": "8191321",
    "prefecture": "福岡県",
    "prefecture_kana": "フクオカケン",
    "prefecture_code": 40,
    "city": "糸島市",
    "city_kana": "イトシマシ",
    "town": "志摩小富士",
    "town_kana": "シマコフジ",
    "street": null,
    "office_name": null,
    "office_name_kana": null
  },
  "1322": {
    "zip_code": "8191322",
    "prefecture": "福岡県",
    "prefecture_kana": "フクオカケン",
    "prefecture_code": 40,
    "city": "糸島市",
    "city_kana": "イトシマシ",
    "town": "志摩御床",
    "town_kana": "シマミトコ",
    "street": null,
    "office_name": null,
    "office_name_kana": null
  },
  "1323": {
    "zip_code": "8191323",
    "prefecture": "福岡県",
    "prefecture_kana": "フクオカケン",
    "prefecture_code": 40,
    "city": "糸島市",
    "city_kana": "イトシマシ",
    "town": "志摩小金丸",
    "town_kana": "シマコガネマル",
    "street": null,
    "office_name": null,
    "office_name_kana": null
  },
  "1324": {
    "zip_code": "8191324",
    "prefecture": "福岡県",
    "prefecture_kana": "フクオカケン",
    "prefecture_code": 40,
    "city": "糸島市",
    "city_kana": "イトシマシ",
    "town": "志摩東貝塚",
    "town_kana": "シマヒガシカイヅカ",
    "street": null,
    "office_name": null,
    "office_name_kana": null
  },
  "1325": {
    "zip_code": "8191325",
    "prefecture": "福岡県",
    "prefecture_kana": "フクオカケン",
    "prefecture_code": 40,
    "city": "糸島市",
    "city_kana": "イトシマシ",
    "town": "志摩西貝塚",
    "town_kana": "シマニシカイヅカ",
    "street": null,
    "office_name": null,
    "office_name_kana": null
  },
  "1331": {
    "zip_code": "8191331",
    "prefecture": "福岡県",
    "prefecture_kana": "フクオカケン",
    "prefecture_code": 40,
    "city": "糸島市",
    "city_kana": "イトシマシ",
    "town": "志摩久家",
    "town_kana": "シマクガ",
    "street": null,
    "office_name": null,
    "office_name_kana": null
  },
  "1332": {
    "zip_code": "8191332",
    "prefecture": "福岡県",
    "prefecture_kana": "フクオカケン",
    "prefecture_code": 40,
    "city": "糸島市",
    "city_kana": "イトシマシ",
    "town": "志摩船越",
    "town_kana": "シマフナコシ",
    "street": null,
    "office_name": null,
    "office_name_kana": null
  },
  "1333": {
    "zip_code": "8191333",
    "prefecture": "福岡県",
    "prefecture_kana": "フクオカケン",
    "prefecture_code": 40,
    "city": "糸島市",
    "city_kana": "イトシマシ",
    "town": "志摩新町",
    "town_kana": "シマシンマチ",
    "street": null,
    "office_name": null,
    "office_name_kana": null
  },
  "1334": {
    "zip_code": "8191334",
    "prefecture": "福岡県",
    "prefecture_kana": "フクオカケン",
    "prefecture_code": 40,
    "city": "糸島市",
    "city_kana": "イトシマシ",
    "town": "志摩岐志",
    "town_kana": "シマキシ",
    "street": null,
    "office_name": null,
    "office_name_kana": null
  },
  "1335": {
    "zip_code": "8191335",
    "prefecture": "福岡県",
    "prefecture_kana": "フクオカケン",
    "prefecture_code": 40,
    "city": "糸島市",
    "city_kana": "イトシマシ",
    "town": "志摩芥屋",
    "town_kana": "シマケヤ",
    "street": null,
    "office_name": null,
    "office_name_kana": null
  },
  "1336": {
    "zip_code": "8191336",
    "prefecture": "福岡県",
    "prefecture_kana": "フクオカケン",
    "prefecture_code": 40,
    "city": "糸島市",
    "city_kana": "イトシマシ",
    "town": "志摩姫島",
    "town_kana": "シマヒメシマ",
    "street": null,
    "office_name": null,
    "office_name_kana": null
  },
  "1392": {
    "zip_code": "8191392",
    "prefecture": "福岡県",
    "prefecture_kana": "フクオカケン",
    "prefecture_code": 40,
    "city": "糸島市",
    "city_kana": "イトシマシ",
    "town": "志摩初",
    "town_kana": "シマハツ",
    "street": "３０",
    "office_name": "糸島市役所　志摩庁舎",
    "office_name_kana": "イトシマシヤクシヨ シマチヨウシヤ"
  },
  "1561": {
    "zip_code": "8191561",
    "prefecture": "福岡県",
    "prefecture_kana": "フクオカケン",
    "prefecture_code": 40,
    "city": "糸島市",
    "city_kana": "イトシマシ",
    "town": "曽根",
    "town_kana": "ソネ",
    "street": null,
    "office_name": null,
    "office_name_kana": null
  },
  "1562": {
    "zip_code": "8191562",
    "prefecture": "福岡県",
    "prefecture_kana": "フクオカケン",
    "prefecture_code": 40,
    "city": "糸島市",
    "city_kana": "イトシマシ",
    "town": "井田",
    "town_kana": "イタ",
    "street": null,
    "office_name": null,
    "office_name_kana": null
  },
  "1563": {
    "zip_code": "8191563",
    "prefecture": "福岡県",
    "prefecture_kana": "フクオカケン",
    "prefecture_code": 40,
    "city": "糸島市",
    "city_kana": "イトシマシ",
    "town": "高来寺",
    "town_kana": "コウライジ",
    "street": null,
    "office_name": null,
    "office_name_kana": null
  },
  "1564": {
    "zip_code": "8191564",
    "prefecture": "福岡県",
    "prefecture_kana": "フクオカケン",
    "prefecture_code": 40,
    "city": "糸島市",
    "city_kana": "イトシマシ",
    "town": "大門",
    "town_kana": "ダイモン",
    "street": null,
    "office_name": null,
    "office_name_kana": null
  },
  "1571": {
    "zip_code": "8191571",
    "prefecture": "福岡県",
    "prefecture_kana": "フクオカケン",
    "prefecture_code": 40,
    "city": "糸島市",
    "city_kana": "イトシマシ",
    "town": "高祖",
    "town_kana": "タカス",
    "street": null,
    "office_name": null,
    "office_name_kana": null
  },
  "1572": {
    "zip_code": "8191572",
    "prefecture": "福岡県",
    "prefecture_kana": "フクオカケン",
    "prefecture_code": 40,
    "city": "糸島市",
    "city_kana": "イトシマシ",
    "town": "末永",
    "town_kana": "スエナガ",
    "street": null,
    "office_name": null,
    "office_name_kana": null
  },
  "1573": {
    "zip_code": "8191573",
    "prefecture": "福岡県",
    "prefecture_kana": "フクオカケン",
    "prefecture_code": 40,
    "city": "糸島市",
    "city_kana": "イトシマシ",
    "town": "王丸",
    "town_kana": "オウマル",
    "street": null,
    "office_name": null,
    "office_name_kana": null
  },
  "1574": {
    "zip_code": "8191574",
    "prefecture": "福岡県",
    "prefecture_kana": "フクオカケン",
    "prefecture_code": 40,
    "city": "糸島市",
    "city_kana": "イトシマシ",
    "town": "川原",
    "town_kana": "カワバル",
    "street": null,
    "office_name": null,
    "office_name_kana": null
  },
  "1575": {
    "zip_code": "8191575",
    "prefecture": "福岡県",
    "prefecture_kana": "フクオカケン",
    "prefecture_code": 40,
    "city": "糸島市",
    "city_kana": "イトシマシ",
    "town": "西堂",
    "town_kana": "ニシノドウ",
    "street": null,
    "office_name": null,
    "office_name_kana": null
  },
  "1581": {
    "zip_code": "8191581",
    "prefecture": "福岡県",
    "prefecture_kana": "フクオカケン",
    "prefecture_code": 40,
    "city": "糸島市",
    "city_kana": "イトシマシ",
    "town": "瑞梅寺",
    "town_kana": "ズイバイジ",
    "street": null,
    "office_name": null,
    "office_name_kana": null
  },
  "1582": {
    "zip_code": "8191582",
    "prefecture": "福岡県",
    "prefecture_kana": "フクオカケン",
    "prefecture_code": 40,
    "city": "糸島市",
    "city_kana": "イトシマシ",
    "town": "井原",
    "town_kana": "イワラ",
    "street": null,
    "office_name": null,
    "office_name_kana": null
  },
  "1583": {
    "zip_code": "8191583",
    "prefecture": "福岡県",
    "prefecture_kana": "フクオカケン",
    "prefecture_code": 40,
    "city": "糸島市",
    "city_kana": "イトシマシ",
    "town": "三雲",
    "town_kana": "ミクモ",
    "street": null,
    "office_name": null,
    "office_name_kana": null
  },
  "1601": {
    "zip_code": "8191601",
    "prefecture": "福岡県",
    "prefecture_kana": "フクオカケン",
    "prefecture_code": 40,
    "city": "糸島市",
    "city_kana": "イトシマシ",
    "town": "二丈深江",
    "town_kana": "ニジョウフカエ",
    "street": null,
    "office_name": null,
    "office_name_kana": null
  },
  "1611": {
    "zip_code": "8191611",
    "prefecture": "福岡県",
    "prefecture_kana": "フクオカケン",
    "prefecture_code": 40,
    "city": "糸島市",
    "city_kana": "イトシマシ",
    "town": "二丈片山",
    "town_kana": "ニジョウカタヤマ",
    "street": null,
    "office_name": null,
    "office_name_kana": null
  },
  "1612": [
    {
      "zip_code": "8191612",
      "prefecture": "福岡県",
      "prefecture_kana": "フクオカケン",
      "prefecture_code": 40,
      "city": "糸島市",
      "city_kana": "イトシマシ",
      "town": "二丈松末",
      "town_kana": "ニジョウマスエ",
      "street": null,
      "office_name": null,
      "office_name_kana": null
    },
    {
      "zip_code": "8191612",
      "prefecture": "福岡県",
      "prefecture_kana": "フクオカケン",
      "prefecture_code": 40,
      "city": "糸島市",
      "city_kana": "イトシマシ",
      "town": "二丈松末下松末",
      "town_kana": "ニジョウマスエシモマスエ",
      "street": null,
      "office_name": null,
      "office_name_kana": null
    }
  ],
  "1613": {
    "zip_code": "8191613",
    "prefecture": "福岡県",
    "prefecture_kana": "フクオカケン",
    "prefecture_code": 40,
    "city": "糸島市",
    "city_kana": "イトシマシ",
    "town": "二丈松末",
    "town_kana": "ニジョウマスエ",
    "street": null,
    "office_name": null,
    "office_name_kana": null
  },
  "1614": {
    "zip_code": "8191614",
    "prefecture": "福岡県",
    "prefecture_kana": "フクオカケン",
    "prefecture_code": 40,
    "city": "糸島市",
    "city_kana": "イトシマシ",
    "town": "二丈浜窪",
    "town_kana": "ニジョウハマクボ",
    "street": null,
    "office_name": null,
    "office_name_kana": null
  },
  "1615": {
    "zip_code": "8191615",
    "prefecture": "福岡県",
    "prefecture_kana": "フクオカケン",
    "prefecture_code": 40,
    "city": "糸島市",
    "city_kana": "イトシマシ",
    "town": "二丈田中",
    "town_kana": "ニジョウタナカ",
    "street": null,
    "office_name": null,
    "office_name_kana": null
  },
  "1616": {
    "zip_code": "8191616",
    "prefecture": "福岡県",
    "prefecture_kana": "フクオカケン",
    "prefecture_code": 40,
    "city": "糸島市",
    "city_kana": "イトシマシ",
    "town": "二丈武",
    "town_kana": "ニジョウタケ",
    "street": null,
    "office_name": null,
    "office_name_kana": null
  },
  "1621": {
    "zip_code": "8191621",
    "prefecture": "福岡県",
    "prefecture_kana": "フクオカケン",
    "prefecture_code": 40,
    "city": "糸島市",
    "city_kana": "イトシマシ",
    "town": "二丈上深江",
    "town_kana": "ニジョウカミフカエ",
    "street": null,
    "office_name": null,
    "office_name_kana": null
  },
  "1622": {
    "zip_code": "8191622",
    "prefecture": "福岡県",
    "prefecture_kana": "フクオカケン",
    "prefecture_code": 40,
    "city": "糸島市",
    "city_kana": "イトシマシ",
    "town": "二丈一貴山",
    "town_kana": "ニジョウイキサン",
    "street": null,
    "office_name": null,
    "office_name_kana": null
  },
  "1623": {
    "zip_code": "8191623",
    "prefecture": "福岡県",
    "prefecture_kana": "フクオカケン",
    "prefecture_code": 40,
    "city": "糸島市",
    "city_kana": "イトシマシ",
    "town": "二丈石崎",
    "town_kana": "ニジョウイシザキ",
    "street": null,
    "office_name": null,
    "office_name_kana": null
  },
  "1624": {
    "zip_code": "8191624",
    "prefecture": "福岡県",
    "prefecture_kana": "フクオカケン",
    "prefecture_code": 40,
    "city": "糸島市",
    "city_kana": "イトシマシ",
    "town": "二丈満吉",
    "town_kana": "ニジョウミツヨシ",
    "street": null,
    "office_name": null,
    "office_name_kana": null
  },
  "1625": {
    "zip_code": "8191625",
    "prefecture": "福岡県",
    "prefecture_kana": "フクオカケン",
    "prefecture_code": 40,
    "city": "糸島市",
    "city_kana": "イトシマシ",
    "town": "二丈長石",
    "town_kana": "ニジョウナガイシ",
    "street": null,
    "office_name": null,
    "office_name_kana": null
  },
  "1626": {
    "zip_code": "8191626",
    "prefecture": "福岡県",
    "prefecture_kana": "フクオカケン",
    "prefecture_code": 40,
    "city": "糸島市",
    "city_kana": "イトシマシ",
    "town": "二丈波呂",
    "town_kana": "ニジョウハロ",
    "street": null,
    "office_name": null,
    "office_name_kana": null
  },
  "1627": {
    "zip_code": "8191627",
    "prefecture": "福岡県",
    "prefecture_kana": "フクオカケン",
    "prefecture_code": 40,
    "city": "糸島市",
    "city_kana": "イトシマシ",
    "town": "二丈松国",
    "town_kana": "ニジョウマツクニ",
    "street": null,
    "office_name": null,
    "office_name_kana": null
  },
  "1631": {
    "zip_code": "8191631",
    "prefecture": "福岡県",
    "prefecture_kana": "フクオカケン",
    "prefecture_code": 40,
    "city": "糸島市",
    "city_kana": "イトシマシ",
    "town": "二丈福井",
    "town_kana": "ニジョウフクイ",
    "street": null,
    "office_name": null,
    "office_name_kana": null
  },
  "1641": {
    "zip_code": "8191641",
    "prefecture": "福岡県",
    "prefecture_kana": "フクオカケン",
    "prefecture_code": 40,
    "city": "糸島市",
    "city_kana": "イトシマシ",
    "town": "二丈吉井",
    "town_kana": "ニジョウヨシイ",
    "street": null,
    "office_name": null,
    "office_name_kana": null
  },
  "1642": {
    "zip_code": "8191642",
    "prefecture": "福岡県",
    "prefecture_kana": "フクオカケン",
    "prefecture_code": 40,
    "city": "糸島市",
    "city_kana": "イトシマシ",
    "town": "二丈鹿家",
    "town_kana": "ニジョウシカカ",
    "street": null,
    "office_name": null,
    "office_name_kana": null
  },
  "1692": {
    "zip_code": "8191692",
    "prefecture": "福岡県",
    "prefecture_kana": "フクオカケン",
    "prefecture_code": 40,
    "city": "糸島市",
    "city_kana": "イトシマシ",
    "town": "二丈深江",
    "town_kana": "ニジョウフカエ",
    "street": "１３６０",
    "office_name": "糸島市役所　二丈庁舎",
    "office_name_kana": "イトシマシヤクシヨ ニジヨウチヨウシヤ"
  },
  "8501": {
    "zip_code": "8198501",
    "prefecture": "福岡県",
    "prefecture_kana": "フクオカケン",
    "prefecture_code": 40,
    "city": "福岡市西区",
    "city_kana": "フクオカシニシク",
    "town": "内浜",
    "town_kana": "ウチハマ",
    "street": "１丁目４−１",
    "office_name": "福岡市　西区役所",
    "office_name_kana": "フクオカシ ニシクヤクシヨ"
  },
  "8502": {
    "zip_code": "8198502",
    "prefecture": "福岡県",
    "prefecture_kana": "フクオカケン",
    "prefecture_code": 40,
    "city": "福岡市西区",
    "city_kana": "フクオカシニシク",
    "town": "内浜",
    "town_kana": "ウチハマ",
    "street": "１丁目３−７",
    "office_name": "日本年金機構　西福岡年金事務所",
    "office_name_kana": "ニツポンネンキンキコウ ニシフクオカネンキンジムシヨ"
  },
  "8504": {
    "zip_code": "8198504",
    "prefecture": "福岡県",
    "prefecture_kana": "フクオカケン",
    "prefecture_code": 40,
    "city": "福岡市西区",
    "city_kana": "フクオカシニシク",
    "town": "姪浜駅南",
    "town_kana": "メイノハマエキミナミ",
    "street": "１丁目９−２０",
    "office_name": "九州電力　株式会社　福岡西営業所",
    "office_name_kana": "キユウシユウデンリヨク カブシキガイシヤ フクオカニシエイギヨウシヨ"
  },
  "8511": {
    "zip_code": "8198511",
    "prefecture": "福岡県",
    "prefecture_kana": "フクオカケン",
    "prefecture_code": 40,
    "city": "福岡市西区",
    "city_kana": "フクオカシニシク",
    "town": "石丸",
    "town_kana": "イシマル",
    "street": "３丁目２−１",
    "office_name": "医療法人　白十字会　白十字病院",
    "office_name_kana": "イリヨウホウジン ハクジユウジカイ ハクジヨウジビヨウイン"
  },
  "8533": {
    "zip_code": "8198533",
    "prefecture": "福岡県",
    "prefecture_kana": "フクオカケン",
    "prefecture_code": 40,
    "city": "福岡市西区",
    "city_kana": "フクオカシニシク",
    "town": "姪の浜",
    "town_kana": "メイノハマ",
    "street": "４丁目１４−１７",
    "office_name": "医療法人　南川整形外科病院",
    "office_name_kana": "イリヨウホウジン ミナミカワセイケイゲカビヨウイン"
  },
  "8550": {
    "zip_code": "8198550",
    "prefecture": "福岡県",
    "prefecture_kana": "フクオカケン",
    "prefecture_code": 40,
    "city": "福岡市西区",
    "city_kana": "フクオカシニシク",
    "town": "野方",
    "town_kana": "ノカタ",
    "street": "７丁目７８０番地",
    "office_name": "リハモール福岡　社会福祉法人　大乗会",
    "office_name_kana": "リハモ-ルフクオカ シヤカイフクシホウジン ダイジヨウカイ"
  },
  "8551": {
    "zip_code": "8198551",
    "prefecture": "福岡県",
    "prefecture_kana": "フクオカケン",
    "prefecture_code": 40,
    "city": "福岡市西区",
    "city_kana": "フクオカシニシク",
    "town": "野方",
    "town_kana": "ノカタ",
    "street": "７丁目７７０",
    "office_name": "医療法人　大乗会　福岡リハビリテーション病院",
    "office_name_kana": "イリヨウホウジン ダイジヨウカイ フクオカリハビリテ-シヨンビヨウイン"
  },
  "8552": {
    "zip_code": "8198552",
    "prefecture": "福岡県",
    "prefecture_kana": "フクオカケン",
    "prefecture_code": 40,
    "city": "福岡市西区",
    "city_kana": "フクオカシニシク",
    "town": "姪浜駅南",
    "town_kana": "メイノハマエキミナミ",
    "street": "３丁目８−１０",
    "office_name": "福岡西公共職業安定所",
    "office_name_kana": "フクオカニシコウキヨウシヨクギヨウアンテイシヨ"
  },
  "8555": {
    "zip_code": "8198555",
    "prefecture": "福岡県",
    "prefecture_kana": "フクオカケン",
    "prefecture_code": 40,
    "city": "福岡市西区",
    "city_kana": "フクオカシニシク",
    "town": "生の松原",
    "town_kana": "イキノマツバラ",
    "street": "３丁目１８−８",
    "office_name": "医療法人　西福岡病院",
    "office_name_kana": "イリヨウホウジン ニシフクオカビヨウイン"
  },
  "8558": {
    "zip_code": "8198558",
    "prefecture": "福岡県",
    "prefecture_kana": "フクオカケン",
    "prefecture_code": 40,
    "city": "福岡市西区",
    "city_kana": "フクオカシニシク",
    "town": "福重",
    "town_kana": "フクシゲ",
    "street": "３丁目１−１１",
    "office_name": "西南自動車工業　株式会社",
    "office_name_kana": "セイナンジドウシヤコウギヨウ カブシキガイシヤ"
  },
  "8585": {
    "zip_code": "8198585",
    "prefecture": "福岡県",
    "prefecture_kana": "フクオカケン",
    "prefecture_code": 40,
    "city": "福岡市西区",
    "city_kana": "フクオカシニシク",
    "town": "戸切",
    "town_kana": "トギレ",
    "street": "２丁目１４−４５",
    "office_name": "医療法人財団　華林会　村上華林堂病院",
    "office_name_kana": "イリヨウホウジンザイダン カリンカイ ムラカミカリンドウビヨウイン"
  }
}