{
  "0000": {
    "zip_code": "8230000",
    "prefecture": "福岡県",
    "prefecture_kana": "フクオカケン",
    "prefecture_code": 40,
    "city": "宮若市",
    "city_kana": "ミヤワカシ",
    "town": "",
    "town_kana": "",
    "street": null,
    "office_name": null,
    "office_name_kana": null
  },
  "0001": {
    "zip_code": "8230001",
    "prefecture": "福岡県",
    "prefecture_kana": "フクオカケン",
    "prefecture_code": 40,
    "city": "宮若市",
    "city_kana": "ミヤワカシ",
    "town": "龍徳",
    "town_kana": "リュウトク",
    "street": null,
    "office_name": null,
    "office_name_kana": null
  },
  "0002": {
    "zip_code": "8230002",
    "prefecture": "福岡県",
    "prefecture_kana": "フクオカケン",
    "prefecture_code": 40,
    "city": "宮若市",
    "city_kana": "ミヤワカシ",
    "town": "鶴田",
    "town_kana": "ツルダ",
    "street": null,
    "office_name": null,
    "office_name_kana": null
  },
  "0003": {
    "zip_code": "8230003",
    "prefecture": "福岡県",
    "prefecture_kana": "フクオカケン",
    "prefecture_code": 40,
    "city": "宮若市",
    "city_kana": "ミヤワカシ",
    "town": "本城",
    "town_kana": "ホンジョウ",
    "street": null,
    "office_name": null,
    "office_name_kana": null
  },
  "0004": {
    "zip_code": "8230004",
    "prefecture": "福岡県",
    "prefecture_kana": "フクオカケン",
    "prefecture_code": 40,
    "city": "宮若市",
    "city_kana": "ミヤワカシ",
    "town": "磯光",
    "town_kana": "イソミツ",
    "street": null,
    "office_name": null,
    "office_name_kana": null
  },
  "0005": {
    "zip_code": "8230005",
    "prefecture": "福岡県",
    "prefecture_kana": "フクオカケン",
    "prefecture_code": 40,
    "city": "宮若市",
    "city_kana": "ミヤワカシ",
    "town": "上大隈",
    "town_kana": "カミオオクマ",
    "street": null,
    "office_name": null,
    "office_name_kana": null
  },
  "0011": {
    "zip_code": "8230011",
    "prefecture": "福岡県",
    "prefecture_kana": "フクオカケン",
    "prefecture_code": 40,
    "city": "宮若市",
    "city_kana": "ミヤワカシ",
    "town": "宮田",
    "town_kana": "ミヤタ",
    "street": null,
    "office_name": null,
    "office_name_kana": null
  },
  "0012": {
    "zip_code": "8230012",
    "prefecture": "福岡県",
    "prefecture_kana": "フクオカケン",
    "prefecture_code": 40,
    "city": "宮若市",
    "city_kana": "ミヤワカシ",
    "town": "長井鶴",
    "town_kana": "ナガイヅル",
    "street": null,
    "office_name": null,
    "office_name_kana": null
  },
  "0013": {
    "zip_code": "8230013",
    "prefecture": "福岡県",
    "prefecture_kana": "フクオカケン",
    "prefecture_code": 40,
    "city": "宮若市",
    "city_kana": "ミヤワカシ",
    "town": "芹田",
    "town_kana": "セリダ",
    "street": null,
    "office_name": null,
    "office_name_kana": null
  },
  "0014": {
    "zip_code": "8230014",
    "prefecture": "福岡県",
    "prefecture_kana": "フクオカケン",
    "prefecture_code": 40,
    "city": "宮若市",
    "city_kana": "ミヤワカシ",
    "town": "下有木",
    "town_kana": "シモアルキ",
    "street": null,
    "office_name": null,
    "office_name_kana": null
  },
  "0015": {
    "zip_code": "8230015",
    "prefecture": "福岡県",
    "prefecture_kana": "フクオカケン",
    "prefecture_code": 40,
    "city": "宮若市",
    "city_kana": "ミヤワカシ",
    "town": "上有木",
    "town_kana": "カミアルキ",
    "street": null,
    "office_name": null,
    "office_name_kana": null
  },
  "0016": {
    "zip_code": "8230016",
    "prefecture": "福岡県",
    "prefecture_kana": "フクオカケン",
    "prefecture_code": 40,
    "city": "宮若市",
    "city_kana": "ミヤワカシ",
    "town": "四郎丸",
    "town_kana": "シロウマル",
    "street": null,
    "office_name": null,
    "office_name_kana": null
  },
  "0017": {
    "zip_code": "8230017",
    "prefecture": "福岡県",
    "prefecture_kana": "フクオカケン",
    "prefecture_code": 40,
    "city": "宮若市",
    "city_kana": "ミヤワカシ",
    "town": "倉久",
    "town_kana": "クラヒサ",
    "street": null,
    "office_name": null,
    "office_name_kana": null
  },
  "8555": {
    "zip_code": "8238555",
    "prefecture": "福岡県",
    "prefecture_kana": "フクオカケン",
    "prefecture_code": 40,
    "city": "宮若市",
    "city_kana": "ミヤワカシ",
    "town": "上大隈",
    "town_kana": "カミオオクマ",
    "street": "４７６−１",
    "office_name": "東芝ＬＳＩパッケージソリューション　株式会社",
    "office_name_kana": "トウシバエルエスアイパツケ-ジソリユ-シヨン カブシキガイシヤ"
  }
}