{
  "0000": {
    "zip_code": "8250000",
    "prefecture": "福岡県",
    "prefecture_kana": "フクオカケン",
    "prefecture_code": 40,
    "city": "田川市",
    "city_kana": "タガワシ",
    "town": "",
    "town_kana": "",
    "street": null,
    "office_name": null,
    "office_name_kana": null
  },
  "0001": {
    "zip_code": "8250001",
    "prefecture": "福岡県",
    "prefecture_kana": "フクオカケン",
    "prefecture_code": 40,
    "city": "田川市",
    "city_kana": "タガワシ",
    "town": "伊加利",
    "town_kana": "イカリ",
    "street": null,
    "office_name": null,
    "office_name_kana": null
  },
  "0002": {
    "zip_code": "8250002",
    "prefecture": "福岡県",
    "prefecture_kana": "フクオカケン",
    "prefecture_code": 40,
    "city": "田川市",
    "city_kana": "タガワシ",
    "town": "伊田",
    "town_kana": "イタ",
    "street": null,
    "office_name": null,
    "office_name_kana": null
  },
  "0003": {
    "zip_code": "8250003",
    "prefecture": "福岡県",
    "prefecture_kana": "フクオカケン",
    "prefecture_code": 40,
    "city": "田川市",
    "city_kana": "タガワシ",
    "town": "白鳥町",
    "town_kana": "シラトリマチ",
    "street": null,
    "office_name": null,
    "office_name_kana": null
  },
  "0004": {
    "zip_code": "8250004",
    "prefecture": "福岡県",
    "prefecture_kana": "フクオカケン",
    "prefecture_code": 40,
    "city": "田川市",
    "city_kana": "タガワシ",
    "town": "夏吉",
    "town_kana": "ナツヨシ",
    "street": null,
    "office_name": null,
    "office_name_kana": null
  },
  "0005": {
    "zip_code": "8250005",
    "prefecture": "福岡県",
    "prefecture_kana": "フクオカケン",
    "prefecture_code": 40,
    "city": "田川市",
    "city_kana": "タガワシ",
    "town": "糒",
    "town_kana": "ホシイ",
    "street": null,
    "office_name": null,
    "office_name_kana": null
  },
  "0011": {
    "zip_code": "8250011",
    "prefecture": "福岡県",
    "prefecture_kana": "フクオカケン",
    "prefecture_code": 40,
    "city": "田川市",
    "city_kana": "タガワシ",
    "town": "栄町",
    "town_kana": "サカエマチ",
    "street": null,
    "office_name": null,
    "office_name_kana": null
  },
  "0012": {
    "zip_code": "8250012",
    "prefecture": "福岡県",
    "prefecture_kana": "フクオカケン",
    "prefecture_code": 40,
    "city": "田川市",
    "city_kana": "タガワシ",
    "town": "日の出町",
    "town_kana": "ヒノデマチ",
    "street": null,
    "office_name": null,
    "office_name_kana": null
  },
  "0013": {
    "zip_code": "8250013",
    "prefecture": "福岡県",
    "prefecture_kana": "フクオカケン",
    "prefecture_code": 40,
    "city": "田川市",
    "city_kana": "タガワシ",
    "town": "中央町",
    "town_kana": "チュウオウマチ",
    "street": null,
    "office_name": null,
    "office_name_kana": null
  },
  "0014": {
    "zip_code": "8250014",
    "prefecture": "福岡県",
    "prefecture_kana": "フクオカケン",
    "prefecture_code": 40,
    "city": "田川市",
    "city_kana": "タガワシ",
    "town": "魚町",
    "town_kana": "ウオマチ",
    "street": null,
    "office_name": null,
    "office_name_kana": null
  },
  "0015": {
    "zip_code": "8250015",
    "prefecture": "福岡県",
    "prefecture_kana": "フクオカケン",
    "prefecture_code": 40,
    "city": "田川市",
    "city_kana": "タガワシ",
    "town": "伊田町",
    "town_kana": "イタマチ",
    "street": null,
    "office_name": null,
    "office_name_kana": null
  },
  "0016": {
    "zip_code": "8250016",
    "prefecture": "福岡県",
    "prefecture_kana": "フクオカケン",
    "prefecture_code": 40,
    "city": "田川市",
    "city_kana": "タガワシ",
    "town": "新町",
    "town_kana": "シンマチ",
    "street": null,
    "office_name": null,
    "office_name_kana": null
  },
  "0017": {
    "zip_code": "8250017",
    "prefecture": "福岡県",
    "prefecture_kana": "フクオカケン",
    "prefecture_code": 40,
    "city": "田川市",
    "city_kana": "タガワシ",
    "town": "寿町",
    "town_kana": "コトブキマチ",
    "street": null,
    "office_name": null,
    "office_name_kana": null
  },
  "0018": {
    "zip_code": "8250018",
    "prefecture": "福岡県",
    "prefecture_kana": "フクオカケン",
    "prefecture_code": 40,
    "city": "田川市",
    "city_kana": "タガワシ",
    "town": "番田町",
    "town_kana": "バンダマチ",
    "street": null,
    "office_name": null,
    "office_name_kana": null
  },
  "8501": {
    "zip_code": "8258501",
    "prefecture": "福岡県",
    "prefecture_kana": "フクオカケン",
    "prefecture_code": 40,
    "city": "田川市",
    "city_kana": "タガワシ",
    "town": "中央町",
    "town_kana": "チュウオウマチ",
    "street": "１−１",
    "office_name": "田川市役所",
    "office_name_kana": "タガワシヤクシヨ"
  },
  "8567": {
    "zip_code": "8258567",
    "prefecture": "福岡県",
    "prefecture_kana": null,
    "prefecture_code": null,
    "city": "田川市",
    "city_kana": null,
    "town": "大字糒",
    "town_kana": null,
    "street": "１７００−２",
    "office_name": "田川市立病院",
    "office_name_kana": "タガワシリツビヨウイン"
  },
  "8577": {
    "zip_code": "8258577",
    "prefecture": "福岡県",
    "prefecture_kana": null,
    "prefecture_code": null,
    "city": "田川市",
    "city_kana": null,
    "town": "大字伊田",
    "town_kana": null,
    "street": "字松原通り３２９２番地の２",
    "office_name": "福岡県　田川保健福祉事務所",
    "office_name_kana": "フクオカケン タガワホケンフクシジムシヨ"
  },
  "8585": {
    "zip_code": "8258585",
    "prefecture": "福岡県",
    "prefecture_kana": null,
    "prefecture_code": null,
    "city": "田川市",
    "city_kana": null,
    "town": "大字伊田",
    "town_kana": null,
    "street": "４３９５",
    "office_name": "福岡県立大学",
    "office_name_kana": "フクオカケンリツダイガク"
  },
  "8588": {
    "zip_code": "8258588",
    "prefecture": "福岡県",
    "prefecture_kana": null,
    "prefecture_code": null,
    "city": "田川市",
    "city_kana": null,
    "town": "大字伊田",
    "town_kana": null,
    "street": "３５５０",
    "office_name": "田川農業協同組合",
    "office_name_kana": "タガワノウギヨウキヨウドウクミアイ"
  },
  "8601": {
    "zip_code": "8258601",
    "prefecture": "福岡県",
    "prefecture_kana": "フクオカケン",
    "prefecture_code": 40,
    "city": "田川市",
    "city_kana": "タガワシ",
    "town": "新町",
    "town_kana": "シンマチ",
    "street": "１１−５５（伊田郵便局私書箱第１号）",
    "office_name": "田川税務署",
    "office_name_kana": "タガワゼイムシヨ"
  }
}