{
  "0002": [
    {
      "zip_code": "8260002",
      "prefecture": "福岡県",
      "prefecture_kana": "フクオカケン",
      "prefecture_code": 40,
      "city": "田川郡川崎町",
      "city_kana": "タガワグンカワサキマチ",
      "town": "池尻",
      "town_kana": "イケジリ",
      "street": null,
      "office_name": null,
      "office_name_kana": null
    },
    {
      "zip_code": "8260002",
      "prefecture": "福岡県",
      "prefecture_kana": "フクオカケン",
      "prefecture_code": 40,
      "city": "田川郡川崎町",
      "city_kana": "タガワグンカワサキマチ",
      "town": "池尻上原",
      "town_kana": "イケジリカンバル",
      "street": null,
      "office_name": null,
      "office_name_kana": null
    },
    {
      "zip_code": "8260002",
      "prefecture": "福岡県",
      "prefecture_kana": "フクオカケン",
      "prefecture_code": 40,
      "city": "田川郡川崎町",
      "city_kana": "タガワグンカワサキマチ",
      "town": "池尻小倉畔",
      "town_kana": "イケジリコクラノテ",
      "street": null,
      "office_name": null,
      "office_name_kana": null
    }
  ],
  "0021": {
    "zip_code": "8260021",
    "prefecture": "福岡県",
    "prefecture_kana": "フクオカケン",
    "prefecture_code": 40,
    "city": "田川市",
    "city_kana": "タガワシ",
    "town": "桜町",
    "town_kana": "サクラマチ",
    "street": null,
    "office_name": null,
    "office_name_kana": null
  },
  "0022": {
    "zip_code": "8260022",
    "prefecture": "福岡県",
    "prefecture_kana": "フクオカケン",
    "prefecture_code": 40,
    "city": "田川市",
    "city_kana": "タガワシ",
    "town": "本町",
    "town_kana": "ホンマチ",
    "street": null,
    "office_name": null,
    "office_name_kana": null
  },
  "0023": {
    "zip_code": "8260023",
    "prefecture": "福岡県",
    "prefecture_kana": "フクオカケン",
    "prefecture_code": 40,
    "city": "田川市",
    "city_kana": "タガワシ",
    "town": "上本町",
    "town_kana": "カミホンマチ",
    "street": null,
    "office_name": null,
    "office_name_kana": null
  },
  "0024": {
    "zip_code": "8260024",
    "prefecture": "福岡県",
    "prefecture_kana": "フクオカケン",
    "prefecture_code": 40,
    "city": "田川市",
    "city_kana": "タガワシ",
    "town": "西本町",
    "town_kana": "ニシホンマチ",
    "street": null,
    "office_name": null,
    "office_name_kana": null
  },
  "0025": {
    "zip_code": "8260025",
    "prefecture": "福岡県",
    "prefecture_kana": "フクオカケン",
    "prefecture_code": 40,
    "city": "田川市",
    "city_kana": "タガワシ",
    "town": "大黒町",
    "town_kana": "ダイコクマチ",
    "street": null,
    "office_name": null,
    "office_name_kana": null
  },
  "0026": {
    "zip_code": "8260026",
    "prefecture": "福岡県",
    "prefecture_kana": "フクオカケン",
    "prefecture_code": 40,
    "city": "田川市",
    "city_kana": "タガワシ",
    "town": "春日町",
    "town_kana": "カスガマチ",
    "street": null,
    "office_name": null,
    "office_name_kana": null
  },
  "0027": {
    "zip_code": "8260027",
    "prefecture": "福岡県",
    "prefecture_kana": "フクオカケン",
    "prefecture_code": 40,
    "city": "田川市",
    "city_kana": "タガワシ",
    "town": "宮尾町",
    "town_kana": "ミヤオマチ",
    "street": null,
    "office_name": null,
    "office_name_kana": null
  },
  "0031": {
    "zip_code": "8260031",
    "prefecture": "福岡県",
    "prefecture_kana": "フクオカケン",
    "prefecture_code": 40,
    "city": "田川市",
    "city_kana": "タガワシ",
    "town": "千代町",
    "town_kana": "チヨマチ",
    "street": null,
    "office_name": null,
    "office_name_kana": null
  },
  "0032": {
    "zip_code": "8260032",
    "prefecture": "福岡県",
    "prefecture_kana": "フクオカケン",
    "prefecture_code": 40,
    "city": "田川市",
    "city_kana": "タガワシ",
    "town": "平松町",
    "town_kana": "ヒラマツマチ",
    "street": null,
    "office_name": null,
    "office_name_kana": null
  },
  "0033": {
    "zip_code": "8260033",
    "prefecture": "福岡県",
    "prefecture_kana": "フクオカケン",
    "prefecture_code": 40,
    "city": "田川市",
    "city_kana": "タガワシ",
    "town": "丸山町",
    "town_kana": "マルヤママチ",
    "street": null,
    "office_name": null,
    "office_name_kana": null
  },
  "0041": [
    {
      "zip_code": "8260041",
      "prefecture": "福岡県",
      "prefecture_kana": "フクオカケン",
      "prefecture_code": 40,
      "city": "田川市",
      "city_kana": "タガワシ",
      "town": "弓削田",
      "town_kana": "ユゲタ",
      "street": null,
      "office_name": null,
      "office_name_kana": null
    },
    {
      "zip_code": "8260041",
      "prefecture": "福岡県",
      "prefecture_kana": "フクオカケン",
      "prefecture_code": 40,
      "city": "田川市",
      "city_kana": "タガワシ",
      "town": "弓削田角銅原",
      "town_kana": "ユゲタカクドウバル",
      "street": null,
      "office_name": null,
      "office_name_kana": null
    },
    {
      "zip_code": "8260041",
      "prefecture": "福岡県",
      "prefecture_kana": "フクオカケン",
      "prefecture_code": 40,
      "city": "田川市",
      "city_kana": "タガワシ",
      "town": "弓削田野上",
      "town_kana": "ユゲタノガミ",
      "street": null,
      "office_name": null,
      "office_name_kana": null
    },
    {
      "zip_code": "8260041",
      "prefecture": "福岡県",
      "prefecture_kana": "フクオカケン",
      "prefecture_code": 40,
      "city": "田川市",
      "city_kana": "タガワシ",
      "town": "弓削田船尾",
      "town_kana": "ユゲタフナオ",
      "street": null,
      "office_name": null,
      "office_name_kana": null
    },
    {
      "zip_code": "8260041",
      "prefecture": "福岡県",
      "prefecture_kana": "フクオカケン",
      "prefecture_code": 40,
      "city": "田川市",
      "city_kana": "タガワシ",
      "town": "弓削田見立",
      "town_kana": "ユゲタミタテ",
      "street": null,
      "office_name": null,
      "office_name_kana": null
    },
    {
      "zip_code": "8260041",
      "prefecture": "福岡県",
      "prefecture_kana": "フクオカケン",
      "prefecture_code": 40,
      "city": "田川市",
      "city_kana": "タガワシ",
      "town": "弓削田文字山",
      "town_kana": "ユゲタモジヤマ",
      "street": null,
      "office_name": null,
      "office_name_kana": null
    }
  ],
  "0042": [
    {
      "zip_code": "8260042",
      "prefecture": "福岡県",
      "prefecture_kana": "フクオカケン",
      "prefecture_code": 40,
      "city": "田川市",
      "city_kana": "タガワシ",
      "town": "川宮",
      "town_kana": "カワミヤ",
      "street": null,
      "office_name": null,
      "office_name_kana": null
    },
    {
      "zip_code": "8260042",
      "prefecture": "福岡県",
      "prefecture_kana": "フクオカケン",
      "prefecture_code": 40,
      "city": "田川市",
      "city_kana": "タガワシ",
      "town": "川宮大藪",
      "town_kana": "カワミヤオオヤブ",
      "street": null,
      "office_name": null,
      "office_name_kana": null
    },
    {
      "zip_code": "8260042",
      "prefecture": "福岡県",
      "prefecture_kana": "フクオカケン",
      "prefecture_code": 40,
      "city": "田川市",
      "city_kana": "タガワシ",
      "town": "川宮新生町",
      "town_kana": "カワミヤシンセイチョウ",
      "street": null,
      "office_name": null,
      "office_name_kana": null
    },
    {
      "zip_code": "8260042",
      "prefecture": "福岡県",
      "prefecture_kana": "フクオカケン",
      "prefecture_code": 40,
      "city": "田川市",
      "city_kana": "タガワシ",
      "town": "川宮高住町",
      "town_kana": "カワミヤタカスミチョウ",
      "street": null,
      "office_name": null,
      "office_name_kana": null
    },
    {
      "zip_code": "8260042",
      "prefecture": "福岡県",
      "prefecture_kana": "フクオカケン",
      "prefecture_code": 40,
      "city": "田川市",
      "city_kana": "タガワシ",
      "town": "川宮平岡",
      "town_kana": "カワミヤヒラオカ",
      "street": null,
      "office_name": null,
      "office_name_kana": null
    }
  ],
  "0043": [
    {
      "zip_code": "8260043",
      "prefecture": "福岡県",
      "prefecture_kana": "フクオカケン",
      "prefecture_code": 40,
      "city": "田川市",
      "city_kana": "タガワシ",
      "town": "奈良",
      "town_kana": "ナラ",
      "street": null,
      "office_name": null,
      "office_name_kana": null
    },
    {
      "zip_code": "8260043",
      "prefecture": "福岡県",
      "prefecture_kana": "フクオカケン",
      "prefecture_code": 40,
      "city": "田川市",
      "city_kana": "タガワシ",
      "town": "奈良青葉町",
      "town_kana": "ナラアオバチョウ",
      "street": null,
      "office_name": null,
      "office_name_kana": null
    },
    {
      "zip_code": "8260043",
      "prefecture": "福岡県",
      "prefecture_kana": "フクオカケン",
      "prefecture_code": 40,
      "city": "田川市",
      "city_kana": "タガワシ",
      "town": "奈良大浦",
      "town_kana": "ナラオオウラ",
      "street": null,
      "office_name": null,
      "office_name_kana": null
    },
    {
      "zip_code": "8260043",
      "prefecture": "福岡県",
      "prefecture_kana": "フクオカケン",
      "prefecture_code": 40,
      "city": "田川市",
      "city_kana": "タガワシ",
      "town": "奈良会社町",
      "town_kana": "ナラカイシャマチ",
      "street": null,
      "office_name": null,
      "office_name_kana": null
    },
    {
      "zip_code": "8260043",
      "prefecture": "福岡県",
      "prefecture_kana": "フクオカケン",
      "prefecture_code": 40,
      "city": "田川市",
      "city_kana": "タガワシ",
      "town": "奈良霞ケ丘",
      "town_kana": "ナラカスミガオカ",
      "street": null,
      "office_name": null,
      "office_name_kana": null
    },
    {
      "zip_code": "8260043",
      "prefecture": "福岡県",
      "prefecture_kana": "フクオカケン",
      "prefecture_code": 40,
      "city": "田川市",
      "city_kana": "タガワシ",
      "town": "奈良後藤寺西団地",
      "town_kana": "ナラゴトウジニシダンチ",
      "street": null,
      "office_name": null,
      "office_name_kana": null
    },
    {
      "zip_code": "8260043",
      "prefecture": "福岡県",
      "prefecture_kana": "フクオカケン",
      "prefecture_code": 40,
      "city": "田川市",
      "city_kana": "タガワシ",
      "town": "奈良後藤寺東団地",
      "town_kana": "ナラゴトウジヒガシダンチ",
      "street": null,
      "office_name": null,
      "office_name_kana": null
    },
    {
      "zip_code": "8260043",
      "prefecture": "福岡県",
      "prefecture_kana": "フクオカケン",
      "prefecture_code": 40,
      "city": "田川市",
      "city_kana": "タガワシ",
      "town": "奈良希望ケ丘",
      "town_kana": "ナラノゾミガオカ",
      "street": null,
      "office_name": null,
      "office_name_kana": null
    },
    {
      "zip_code": "8260043",
      "prefecture": "福岡県",
      "prefecture_kana": "フクオカケン",
      "prefecture_code": 40,
      "city": "田川市",
      "city_kana": "タガワシ",
      "town": "奈良松の木",
      "town_kana": "ナラマツノキ",
      "street": null,
      "office_name": null,
      "office_name_kana": null
    },
    {
      "zip_code": "8260043",
      "prefecture": "福岡県",
      "prefecture_kana": "フクオカケン",
      "prefecture_code": 40,
      "city": "田川市",
      "city_kana": "タガワシ",
      "town": "奈良三井後藤寺",
      "town_kana": "ナラミツイゴトウジ",
      "street": null,
      "office_name": null,
      "office_name_kana": null
    },
    {
      "zip_code": "8260043",
      "prefecture": "福岡県",
      "prefecture_kana": "フクオカケン",
      "prefecture_code": 40,
      "city": "田川市",
      "city_kana": "タガワシ",
      "town": "奈良緑町",
      "town_kana": "ナラミドリマチ",
      "street": null,
      "office_name": null,
      "office_name_kana": null
    },
    {
      "zip_code": "8260043",
      "prefecture": "福岡県",
      "prefecture_kana": "フクオカケン",
      "prefecture_code": 40,
      "city": "田川市",
      "city_kana": "タガワシ",
      "town": "奈良月見ケ丘",
      "town_kana": "ナラツキミガオカ",
      "street": null,
      "office_name": null,
      "office_name_kana": null
    }
  ],
  "0044": [
    {
      "zip_code": "8260044",
      "prefecture": "福岡県",
      "prefecture_kana": "フクオカケン",
      "prefecture_code": 40,
      "city": "田川市",
      "city_kana": "タガワシ",
      "town": "位登",
      "town_kana": "イトウ",
      "street": null,
      "office_name": null,
      "office_name_kana": null
    },
    {
      "zip_code": "8260044",
      "prefecture": "福岡県",
      "prefecture_kana": "フクオカケン",
      "prefecture_code": 40,
      "city": "田川市",
      "city_kana": "タガワシ",
      "town": "位登清美町",
      "town_kana": "イトウキヨミチョウ",
      "street": null,
      "office_name": null,
      "office_name_kana": null
    }
  ],
  "0045": {
    "zip_code": "8260045",
    "prefecture": "福岡県",
    "prefecture_kana": "フクオカケン",
    "prefecture_code": 40,
    "city": "田川市",
    "city_kana": "タガワシ",
    "town": "猪国",
    "town_kana": "イノクニ",
    "street": null,
    "office_name": null,
    "office_name_kana": null
  },
  "8529": {
    "zip_code": "8268529",
    "prefecture": "福岡県",
    "prefecture_kana": null,
    "prefecture_code": null,
    "city": "田川市",
    "city_kana": null,
    "town": "大字奈良",
    "town_kana": null,
    "street": "１６３９−５",
    "office_name": "九州電力　株式会社　田川営業所",
    "office_name_kana": "キユウシユウデンリヨク カブシキガイシヤ タガワエイギヨウシヨ"
  },
  "8555": {
    "zip_code": "8268555",
    "prefecture": "福岡県",
    "prefecture_kana": null,
    "prefecture_code": null,
    "city": "田川市",
    "city_kana": null,
    "town": "大字川宮",
    "town_kana": null,
    "street": "１１９１−１",
    "office_name": "松尾製菓　株式会社",
    "office_name_kana": "マツオセイカ カブシキガイシヤ"
  },
  "8567": {
    "zip_code": "8268567",
    "prefecture": "福岡県",
    "prefecture_kana": "フクオカケン",
    "prefecture_code": 40,
    "city": "田川市",
    "city_kana": "タガワシ",
    "town": "千代町",
    "town_kana": "チヨマチ",
    "street": "１−５",
    "office_name": "福岡地方裁判所　田川支部",
    "office_name_kana": "フクオカチホウサイバンシヨ タガワシブ"
  },
  "8585": {
    "zip_code": "8268585",
    "prefecture": "福岡県",
    "prefecture_kana": "フクオカケン",
    "prefecture_code": 40,
    "city": "田川市",
    "city_kana": "タガワシ",
    "town": "上本町",
    "town_kana": "カミホンマチ",
    "street": "１０−１８",
    "office_name": "社会保険田川病院",
    "office_name_kana": "シヤカイホケン タガワビヨウイン"
  },
  "8609": {
    "zip_code": "8268609",
    "prefecture": "福岡県",
    "prefecture_kana": null,
    "prefecture_code": null,
    "city": "田川市",
    "city_kana": null,
    "town": "大字弓削田",
    "town_kana": null,
    "street": "１８４−１",
    "office_name": "田川公共職業安定所",
    "office_name_kana": "タガワコウキヨウシヨクギヨウアンテイジヨ"
  }
}