{
  "0000": {
    "zip_code": "8320000",
    "prefecture": "福岡県",
    "prefecture_kana": "フクオカケン",
    "prefecture_code": "40",
    "city": "柳川市",
    "city_kana": "ヤナガワシ",
    "town": "",
    "town_kana": "",
    "street": null,
    "office_name": null,
    "office_name_kana": null
  },
  "0001": {
    "zip_code": "8320001",
    "prefecture": "福岡県",
    "prefecture_kana": "フクオカケン",
    "prefecture_code": "40",
    "city": "柳川市",
    "city_kana": "ヤナガワシ",
    "town": "蒲生",
    "town_kana": "ガモウ",
    "street": null,
    "office_name": null,
    "office_name_kana": null
  },
  "0002": {
    "zip_code": "8320002",
    "prefecture": "福岡県",
    "prefecture_kana": "フクオカケン",
    "prefecture_code": "40",
    "city": "柳川市",
    "city_kana": "ヤナガワシ",
    "town": "高島",
    "town_kana": "タカシマ",
    "street": null,
    "office_name": null,
    "office_name_kana": null
  },
  "0003": {
    "zip_code": "8320003",
    "prefecture": "福岡県",
    "prefecture_kana": "フクオカケン",
    "prefecture_code": "40",
    "city": "柳川市",
    "city_kana": "ヤナガワシ",
    "town": "立石",
    "town_kana": "タテイシ",
    "street": null,
    "office_name": null,
    "office_name_kana": null
  },
  "0004": {
    "zip_code": "8320004",
    "prefecture": "福岡県",
    "prefecture_kana": "フクオカケン",
    "prefecture_code": "40",
    "city": "柳川市",
    "city_kana": "ヤナガワシ",
    "town": "矢加部",
    "town_kana": "ヤカベ",
    "street": null,
    "office_name": null,
    "office_name_kana": null
  },
  "0005": {
    "zip_code": "8320005",
    "prefecture": "福岡県",
    "prefecture_kana": "フクオカケン",
    "prefecture_code": "40",
    "city": "柳川市",
    "city_kana": "ヤナガワシ",
    "town": "西蒲池",
    "town_kana": "ニシカマチ",
    "street": null,
    "office_name": null,
    "office_name_kana": null
  },
  "0006": {
    "zip_code": "8320006",
    "prefecture": "福岡県",
    "prefecture_kana": "フクオカケン",
    "prefecture_code": "40",
    "city": "柳川市",
    "city_kana": "ヤナガワシ",
    "town": "東蒲池",
    "town_kana": "ヒガシカマチ",
    "street": null,
    "office_name": null,
    "office_name_kana": null
  },
  "0007": {
    "zip_code": "8320007",
    "prefecture": "福岡県",
    "prefecture_kana": "フクオカケン",
    "prefecture_code": "40",
    "city": "柳川市",
    "city_kana": "ヤナガワシ",
    "town": "金納",
    "town_kana": "カンノ",
    "street": null,
    "office_name": null,
    "office_name_kana": null
  },
  "0011": {
    "zip_code": "8320011",
    "prefecture": "福岡県",
    "prefecture_kana": "フクオカケン",
    "prefecture_code": "40",
    "city": "柳川市",
    "city_kana": "ヤナガワシ",
    "town": "保加町",
    "town_kana": "ホカマチ",
    "street": null,
    "office_name": null,
    "office_name_kana": null
  },
  "0012": {
    "zip_code": "8320012",
    "prefecture": "福岡県",
    "prefecture_kana": "フクオカケン",
    "prefecture_code": "40",
    "city": "柳川市",
    "city_kana": "ヤナガワシ",
    "town": "中町",
    "town_kana": "ナカマチ",
    "street": null,
    "office_name": null,
    "office_name_kana": null
  },
  "0013": {
    "zip_code": "8320013",
    "prefecture": "福岡県",
    "prefecture_kana": "フクオカケン",
    "prefecture_code": "40",
    "city": "柳川市",
    "city_kana": "ヤナガワシ",
    "town": "上町",
    "town_kana": "カミマチ",
    "street": null,
    "office_name": null,
    "office_name_kana": null
  },
  "0014": {
    "zip_code": "8320014",
    "prefecture": "福岡県",
    "prefecture_kana": "フクオカケン",
    "prefecture_code": "40",
    "city": "柳川市",
    "city_kana": "ヤナガワシ",
    "town": "八百屋町",
    "town_kana": "ヤオヤマチ",
    "street": null,
    "office_name": null,
    "office_name_kana": null
  },
  "0015": {
    "zip_code": "8320015",
    "prefecture": "福岡県",
    "prefecture_kana": "フクオカケン",
    "prefecture_code": "40",
    "city": "柳川市",
    "city_kana": "ヤナガワシ",
    "town": "西魚屋町",
    "town_kana": "ニシウオヤマチ",
    "street": null,
    "office_name": null,
    "office_name_kana": null
  },
  "0016": {
    "zip_code": "8320016",
    "prefecture": "福岡県",
    "prefecture_kana": "フクオカケン",
    "prefecture_code": "40",
    "city": "柳川市",
    "city_kana": "ヤナガワシ",
    "town": "蟹町",
    "town_kana": "カニマチ",
    "street": null,
    "office_name": null,
    "office_name_kana": null
  },
  "0017": {
    "zip_code": "8320017",
    "prefecture": "福岡県",
    "prefecture_kana": "フクオカケン",
    "prefecture_code": "40",
    "city": "柳川市",
    "city_kana": "ヤナガワシ",
    "town": "材木町",
    "town_kana": "ザイモクマチ",
    "street": null,
    "office_name": null,
    "office_name_kana": null
  },
  "0018": {
    "zip_code": "8320018",
    "prefecture": "福岡県",
    "prefecture_kana": "フクオカケン",
    "prefecture_code": "40",
    "city": "柳川市",
    "city_kana": "ヤナガワシ",
    "town": "本船津町",
    "town_kana": "モトフナツマチ",
    "street": null,
    "office_name": null,
    "office_name_kana": null
  },
  "0021": {
    "zip_code": "8320021",
    "prefecture": "福岡県",
    "prefecture_kana": "フクオカケン",
    "prefecture_code": "40",
    "city": "柳川市",
    "city_kana": "ヤナガワシ",
    "town": "隅町",
    "town_kana": "スミマチ",
    "street": null,
    "office_name": null,
    "office_name_kana": null
  },
  "0022": {
    "zip_code": "8320022",
    "prefecture": "福岡県",
    "prefecture_kana": "フクオカケン",
    "prefecture_code": "40",
    "city": "柳川市",
    "city_kana": "ヤナガワシ",
    "town": "旭町",
    "town_kana": "アサヒマチ",
    "street": null,
    "office_name": null,
    "office_name_kana": null
  },
  "0023": {
    "zip_code": "8320023",
    "prefecture": "福岡県",
    "prefecture_kana": "フクオカケン",
    "prefecture_code": "40",
    "city": "柳川市",
    "city_kana": "ヤナガワシ",
    "town": "京町",
    "town_kana": "キョウマチ",
    "street": null,
    "office_name": null,
    "office_name_kana": null
  },
  "0024": {
    "zip_code": "8320024",
    "prefecture": "福岡県",
    "prefecture_kana": "フクオカケン",
    "prefecture_code": "40",
    "city": "柳川市",
    "city_kana": "ヤナガワシ",
    "town": "辻町",
    "town_kana": "ツジマチ",
    "street": null,
    "office_name": null,
    "office_name_kana": null
  },
  "0025": {
    "zip_code": "8320025",
    "prefecture": "福岡県",
    "prefecture_kana": "フクオカケン",
    "prefecture_code": "40",
    "city": "柳川市",
    "city_kana": "ヤナガワシ",
    "town": "恵美須町",
    "town_kana": "エビスマチ",
    "street": null,
    "office_name": null,
    "office_name_kana": null
  },
  "0026": {
    "zip_code": "8320026",
    "prefecture": "福岡県",
    "prefecture_kana": "フクオカケン",
    "prefecture_code": "40",
    "city": "柳川市",
    "city_kana": "ヤナガワシ",
    "town": "曙町",
    "town_kana": "アケボノマチ",
    "street": null,
    "office_name": null,
    "office_name_kana": null
  },
  "0027": {
    "zip_code": "8320027",
    "prefecture": "福岡県",
    "prefecture_kana": "フクオカケン",
    "prefecture_code": "40",
    "city": "柳川市",
    "city_kana": "ヤナガワシ",
    "town": "横山町",
    "town_kana": "ヨコヤママチ",
    "street": null,
    "office_name": null,
    "office_name_kana": null
  },
  "0028": {
    "zip_code": "8320028",
    "prefecture": "福岡県",
    "prefecture_kana": "フクオカケン",
    "prefecture_code": "40",
    "city": "柳川市",
    "city_kana": "ヤナガワシ",
    "town": "常盤町",
    "town_kana": "トキワマチ",
    "street": null,
    "office_name": null,
    "office_name_kana": null
  },
  "0029": {
    "zip_code": "8320029",
    "prefecture": "福岡県",
    "prefecture_kana": "フクオカケン",
    "prefecture_code": "40",
    "city": "柳川市",
    "city_kana": "ヤナガワシ",
    "town": "八軒町",
    "town_kana": "ハチケンマチ",
    "street": null,
    "office_name": null,
    "office_name_kana": null
  },
  "0031": {
    "zip_code": "8320031",
    "prefecture": "福岡県",
    "prefecture_kana": "フクオカケン",
    "prefecture_code": "40",
    "city": "柳川市",
    "city_kana": "ヤナガワシ",
    "town": "椿原町",
    "town_kana": "ツバハラマチ",
    "street": null,
    "office_name": null,
    "office_name_kana": null
  },
  "0032": {
    "zip_code": "8320032",
    "prefecture": "福岡県",
    "prefecture_kana": "フクオカケン",
    "prefecture_code": "40",
    "city": "柳川市",
    "city_kana": "ヤナガワシ",
    "town": "新町",
    "town_kana": "シンマチ",
    "street": null,
    "office_name": null,
    "office_name_kana": null
  },
  "0033": {
    "zip_code": "8320033",
    "prefecture": "福岡県",
    "prefecture_kana": "フクオカケン",
    "prefecture_code": "40",
    "city": "柳川市",
    "city_kana": "ヤナガワシ",
    "town": "南長柄町",
    "town_kana": "ミナミナガエマチ",
    "street": null,
    "office_name": null,
    "office_name_kana": null
  },
  "0034": {
    "zip_code": "8320034",
    "prefecture": "福岡県",
    "prefecture_kana": "フクオカケン",
    "prefecture_code": "40",
    "city": "柳川市",
    "city_kana": "ヤナガワシ",
    "town": "北長柄町",
    "town_kana": "キタナガエマチ",
    "street": null,
    "office_name": null,
    "office_name_kana": null
  },
  "0035": {
    "zip_code": "8320035",
    "prefecture": "福岡県",
    "prefecture_kana": "フクオカケン",
    "prefecture_code": "40",
    "city": "柳川市",
    "city_kana": "ヤナガワシ",
    "town": "東魚屋町",
    "town_kana": "ヒガシウオヤマチ",
    "street": null,
    "office_name": null,
    "office_name_kana": null
  },
  "0036": {
    "zip_code": "8320036",
    "prefecture": "福岡県",
    "prefecture_kana": "フクオカケン",
    "prefecture_code": "40",
    "city": "柳川市",
    "city_kana": "ヤナガワシ",
    "town": "小道具町",
    "town_kana": "コドウグマチ",
    "street": null,
    "office_name": null,
    "office_name_kana": null
  },
  "0037": {
    "zip_code": "8320037",
    "prefecture": "福岡県",
    "prefecture_kana": "フクオカケン",
    "prefecture_code": "40",
    "city": "柳川市",
    "city_kana": "ヤナガワシ",
    "town": "細工町",
    "town_kana": "サイクマチ",
    "street": null,
    "office_name": null,
    "office_name_kana": null
  },
  "0041": {
    "zip_code": "8320041",
    "prefecture": "福岡県",
    "prefecture_kana": "フクオカケン",
    "prefecture_code": "40",
    "city": "柳川市",
    "city_kana": "ヤナガワシ",
    "town": "片原町",
    "town_kana": "カタハラマチ",
    "street": null,
    "office_name": null,
    "office_name_kana": null
  },
  "0042": {
    "zip_code": "8320042",
    "prefecture": "福岡県",
    "prefecture_kana": "フクオカケン",
    "prefecture_code": "40",
    "city": "柳川市",
    "city_kana": "ヤナガワシ",
    "town": "一新町",
    "town_kana": "イッシンマチ",
    "street": null,
    "office_name": null,
    "office_name_kana": null
  },
  "0043": {
    "zip_code": "8320043",
    "prefecture": "福岡県",
    "prefecture_kana": "フクオカケン",
    "prefecture_code": "40",
    "city": "柳川市",
    "city_kana": "ヤナガワシ",
    "town": "出来町",
    "town_kana": "デキマチ",
    "street": null,
    "office_name": null,
    "office_name_kana": null
  },
  "0044": {
    "zip_code": "8320044",
    "prefecture": "福岡県",
    "prefecture_kana": "フクオカケン",
    "prefecture_code": "40",
    "city": "柳川市",
    "city_kana": "ヤナガワシ",
    "town": "袋町",
    "town_kana": "フクロマチ",
    "street": null,
    "office_name": null,
    "office_name_kana": null
  },
  "0045": {
    "zip_code": "8320045",
    "prefecture": "福岡県",
    "prefecture_kana": "フクオカケン",
    "prefecture_code": "40",
    "city": "柳川市",
    "city_kana": "ヤナガワシ",
    "town": "本町",
    "town_kana": "ホンマチ",
    "street": null,
    "office_name": null,
    "office_name_kana": null
  },
  "0046": {
    "zip_code": "8320046",
    "prefecture": "福岡県",
    "prefecture_kana": "フクオカケン",
    "prefecture_code": "40",
    "city": "柳川市",
    "city_kana": "ヤナガワシ",
    "town": "奥州町",
    "town_kana": "オウシュウマチ",
    "street": null,
    "office_name": null,
    "office_name_kana": null
  },
  "0050": {
    "zip_code": "8320050",
    "prefecture": "福岡県",
    "prefecture_kana": "フクオカケン",
    "prefecture_code": "40",
    "city": "柳川市",
    "city_kana": "ヤナガワシ",
    "town": "矢留町",
    "town_kana": "ヤドミマチ",
    "street": null,
    "office_name": null,
    "office_name_kana": null
  },
  "0051": {
    "zip_code": "8320051",
    "prefecture": "福岡県",
    "prefecture_kana": "フクオカケン",
    "prefecture_code": "40",
    "city": "柳川市",
    "city_kana": "ヤナガワシ",
    "town": "佃町",
    "town_kana": "ツクダマチ",
    "street": null,
    "office_name": null,
    "office_name_kana": null
  },
  "0052": {
    "zip_code": "8320052",
    "prefecture": "福岡県",
    "prefecture_kana": "フクオカケン",
    "prefecture_code": "40",
    "city": "柳川市",
    "city_kana": "ヤナガワシ",
    "town": "橋本町",
    "town_kana": "ハシモトマチ",
    "street": null,
    "office_name": null,
    "office_name_kana": null
  },
  "0053": {
    "zip_code": "8320053",
    "prefecture": "福岡県",
    "prefecture_kana": "フクオカケン",
    "prefecture_code": "40",
    "city": "柳川市",
    "city_kana": "ヤナガワシ",
    "town": "大浜町",
    "town_kana": "オオハママチ",
    "street": null,
    "office_name": null,
    "office_name_kana": null
  },
  "0054": {
    "zip_code": "8320054",
    "prefecture": "福岡県",
    "prefecture_kana": "フクオカケン",
    "prefecture_code": "40",
    "city": "柳川市",
    "city_kana": "ヤナガワシ",
    "town": "有明町",
    "town_kana": "アリアケマチ",
    "street": null,
    "office_name": null,
    "office_name_kana": null
  },
  "0055": {
    "zip_code": "8320055",
    "prefecture": "福岡県",
    "prefecture_kana": "フクオカケン",
    "prefecture_code": "40",
    "city": "柳川市",
    "city_kana": "ヤナガワシ",
    "town": "吉富町",
    "town_kana": "ヨシトミマチ",
    "street": null,
    "office_name": null,
    "office_name_kana": null
  },
  "0056": {
    "zip_code": "8320056",
    "prefecture": "福岡県",
    "prefecture_kana": "フクオカケン",
    "prefecture_code": "40",
    "city": "柳川市",
    "city_kana": "ヤナガワシ",
    "town": "矢留本町",
    "town_kana": "ヤドミホンマチ",
    "street": null,
    "office_name": null,
    "office_name_kana": null
  },
  "0057": {
    "zip_code": "8320057",
    "prefecture": "福岡県",
    "prefecture_kana": "フクオカケン",
    "prefecture_code": "40",
    "city": "柳川市",
    "city_kana": "ヤナガワシ",
    "town": "弥四郎町",
    "town_kana": "ヤシロウマチ",
    "street": null,
    "office_name": null,
    "office_name_kana": null
  },
  "0058": {
    "zip_code": "8320058",
    "prefecture": "福岡県",
    "prefecture_kana": "フクオカケン",
    "prefecture_code": "40",
    "city": "柳川市",
    "city_kana": "ヤナガワシ",
    "town": "上宮永町",
    "town_kana": "カミミヤナガマチ",
    "street": null,
    "office_name": null,
    "office_name_kana": null
  },
  "0059": {
    "zip_code": "8320059",
    "prefecture": "福岡県",
    "prefecture_kana": "フクオカケン",
    "prefecture_code": "40",
    "city": "柳川市",
    "city_kana": "ヤナガワシ",
    "town": "下宮永町",
    "town_kana": "シモミヤナガマチ",
    "street": null,
    "office_name": null,
    "office_name_kana": null
  },
  "0061": {
    "zip_code": "8320061",
    "prefecture": "福岡県",
    "prefecture_kana": "フクオカケン",
    "prefecture_code": "40",
    "city": "柳川市",
    "city_kana": "ヤナガワシ",
    "town": "本城町",
    "town_kana": "ホンジョウマチ",
    "street": null,
    "office_name": null,
    "office_name_kana": null
  },
  "0062": {
    "zip_code": "8320062",
    "prefecture": "福岡県",
    "prefecture_kana": "フクオカケン",
    "prefecture_code": "40",
    "city": "柳川市",
    "city_kana": "ヤナガワシ",
    "town": "城南町",
    "town_kana": "ジョウナンマチ",
    "street": null,
    "office_name": null,
    "office_name_kana": null
  },
  "0063": {
    "zip_code": "8320063",
    "prefecture": "福岡県",
    "prefecture_kana": "フクオカケン",
    "prefecture_code": "40",
    "city": "柳川市",
    "city_kana": "ヤナガワシ",
    "town": "茂庵町",
    "town_kana": "モアンマチ",
    "street": null,
    "office_name": null,
    "office_name_kana": null
  },
  "0064": {
    "zip_code": "8320064",
    "prefecture": "福岡県",
    "prefecture_kana": "フクオカケン",
    "prefecture_code": "40",
    "city": "柳川市",
    "city_kana": "ヤナガワシ",
    "town": "宮永町",
    "town_kana": "ミヤナガマチ",
    "street": null,
    "office_name": null,
    "office_name_kana": null
  },
  "0065": {
    "zip_code": "8320065",
    "prefecture": "福岡県",
    "prefecture_kana": "フクオカケン",
    "prefecture_code": "40",
    "city": "柳川市",
    "city_kana": "ヤナガワシ",
    "town": "沖端町",
    "town_kana": "オキノハタマチ",
    "street": null,
    "office_name": null,
    "office_name_kana": null
  },
  "0066": {
    "zip_code": "8320066",
    "prefecture": "福岡県",
    "prefecture_kana": "フクオカケン",
    "prefecture_code": "40",
    "city": "柳川市",
    "city_kana": "ヤナガワシ",
    "town": "稲荷町",
    "town_kana": "イナリマチ",
    "street": null,
    "office_name": null,
    "office_name_kana": null
  },
  "0067": {
    "zip_code": "8320067",
    "prefecture": "福岡県",
    "prefecture_kana": "フクオカケン",
    "prefecture_code": "40",
    "city": "柳川市",
    "city_kana": "ヤナガワシ",
    "town": "鬼童町",
    "town_kana": "オンドウマチ",
    "street": null,
    "office_name": null,
    "office_name_kana": null
  },
  "0068": {
    "zip_code": "8320068",
    "prefecture": "福岡県",
    "prefecture_kana": "フクオカケン",
    "prefecture_code": "40",
    "city": "柳川市",
    "city_kana": "ヤナガワシ",
    "town": "城隅町",
    "town_kana": "ジョウグウマチ",
    "street": null,
    "office_name": null,
    "office_name_kana": null
  },
  "0069": {
    "zip_code": "8320069",
    "prefecture": "福岡県",
    "prefecture_kana": "フクオカケン",
    "prefecture_code": "40",
    "city": "柳川市",
    "city_kana": "ヤナガワシ",
    "town": "新外町",
    "town_kana": "シンホカマチ",
    "street": null,
    "office_name": null,
    "office_name_kana": null
  },
  "0071": {
    "zip_code": "8320071",
    "prefecture": "福岡県",
    "prefecture_kana": "フクオカケン",
    "prefecture_code": "40",
    "city": "柳川市",
    "city_kana": "ヤナガワシ",
    "town": "新船津町",
    "town_kana": "シンフナツマチ",
    "street": null,
    "office_name": null,
    "office_name_kana": null
  },
  "0072": {
    "zip_code": "8320072",
    "prefecture": "福岡県",
    "prefecture_kana": "フクオカケン",
    "prefecture_code": "40",
    "city": "柳川市",
    "city_kana": "ヤナガワシ",
    "town": "糀屋町",
    "town_kana": "コウジヤマチ",
    "street": null,
    "office_name": null,
    "office_name_kana": null
  },
  "0073": {
    "zip_code": "8320073",
    "prefecture": "福岡県",
    "prefecture_kana": "フクオカケン",
    "prefecture_code": "40",
    "city": "柳川市",
    "city_kana": "ヤナガワシ",
    "town": "鍛冶屋町",
    "town_kana": "カジヤマチ",
    "street": null,
    "office_name": null,
    "office_name_kana": null
  },
  "0074": {
    "zip_code": "8320074",
    "prefecture": "福岡県",
    "prefecture_kana": "フクオカケン",
    "prefecture_code": "40",
    "city": "柳川市",
    "city_kana": "ヤナガワシ",
    "town": "元町",
    "town_kana": "モトマチ",
    "street": null,
    "office_name": null,
    "office_name_kana": null
  },
  "0075": {
    "zip_code": "8320075",
    "prefecture": "福岡県",
    "prefecture_kana": "フクオカケン",
    "prefecture_code": "40",
    "city": "柳川市",
    "city_kana": "ヤナガワシ",
    "town": "柳町",
    "town_kana": "ヤナギマチ",
    "street": null,
    "office_name": null,
    "office_name_kana": null
  },
  "0076": {
    "zip_code": "8320076",
    "prefecture": "福岡県",
    "prefecture_kana": "フクオカケン",
    "prefecture_code": "40",
    "city": "柳川市",
    "city_kana": "ヤナガワシ",
    "town": "坂本町",
    "town_kana": "サカモトマチ",
    "street": null,
    "office_name": null,
    "office_name_kana": null
  },
  "0077": {
    "zip_code": "8320077",
    "prefecture": "福岡県",
    "prefecture_kana": "フクオカケン",
    "prefecture_code": "40",
    "city": "柳川市",
    "city_kana": "ヤナガワシ",
    "town": "筑紫町",
    "town_kana": "チクシマチ",
    "street": null,
    "office_name": null,
    "office_name_kana": null
  },
  "0081": {
    "zip_code": "8320081",
    "prefecture": "福岡県",
    "prefecture_kana": "フクオカケン",
    "prefecture_code": "40",
    "city": "柳川市",
    "city_kana": "ヤナガワシ",
    "town": "西浜武",
    "town_kana": "ニシハマタケ",
    "street": null,
    "office_name": null,
    "office_name_kana": null
  },
  "0082": {
    "zip_code": "8320082",
    "prefecture": "福岡県",
    "prefecture_kana": "フクオカケン",
    "prefecture_code": "40",
    "city": "柳川市",
    "city_kana": "ヤナガワシ",
    "town": "古賀",
    "town_kana": "コガ",
    "street": null,
    "office_name": null,
    "office_name_kana": null
  },
  "0083": {
    "zip_code": "8320083",
    "prefecture": "福岡県",
    "prefecture_kana": "フクオカケン",
    "prefecture_code": "40",
    "city": "柳川市",
    "city_kana": "ヤナガワシ",
    "town": "南浜武",
    "town_kana": "ミナミハマタケ",
    "street": null,
    "office_name": null,
    "office_name_kana": null
  },
  "0084": {
    "zip_code": "8320084",
    "prefecture": "福岡県",
    "prefecture_kana": "フクオカケン",
    "prefecture_code": "40",
    "city": "柳川市",
    "city_kana": "ヤナガワシ",
    "town": "昭南町",
    "town_kana": "ショウナンマチ",
    "street": null,
    "office_name": null,
    "office_name_kana": null
  },
  "0085": {
    "zip_code": "8320085",
    "prefecture": "福岡県",
    "prefecture_kana": "フクオカケン",
    "prefecture_code": "40",
    "city": "柳川市",
    "city_kana": "ヤナガワシ",
    "town": "吉原",
    "town_kana": "ヨシハラ",
    "street": null,
    "office_name": null,
    "office_name_kana": null
  },
  "0086": {
    "zip_code": "8320086",
    "prefecture": "福岡県",
    "prefecture_kana": "フクオカケン",
    "prefecture_code": "40",
    "city": "柳川市",
    "city_kana": "ヤナガワシ",
    "town": "久々原",
    "town_kana": "ククハラ",
    "street": null,
    "office_name": null,
    "office_name_kana": null
  },
  "0087": {
    "zip_code": "8320087",
    "prefecture": "福岡県",
    "prefecture_kana": "フクオカケン",
    "prefecture_code": "40",
    "city": "柳川市",
    "city_kana": "ヤナガワシ",
    "town": "七ツ家",
    "town_kana": "ナナツエ",
    "street": null,
    "office_name": null,
    "office_name_kana": null
  },
  "0088": {
    "zip_code": "8320088",
    "prefecture": "福岡県",
    "prefecture_kana": "フクオカケン",
    "prefecture_code": "40",
    "city": "柳川市",
    "city_kana": "ヤナガワシ",
    "town": "間",
    "town_kana": "ハサマ",
    "street": null,
    "office_name": null,
    "office_name_kana": null
  },
  "0089": {
    "zip_code": "8320089",
    "prefecture": "福岡県",
    "prefecture_kana": "フクオカケン",
    "prefecture_code": "40",
    "city": "柳川市",
    "city_kana": "ヤナガワシ",
    "town": "田脇",
    "town_kana": "タワキ",
    "street": null,
    "office_name": null,
    "office_name_kana": null
  },
  "0801": {
    "zip_code": "8320801",
    "prefecture": "福岡県",
    "prefecture_kana": "フクオカケン",
    "prefecture_code": "40",
    "city": "柳川市",
    "city_kana": "ヤナガワシ",
    "town": "三橋町起田",
    "town_kana": "ミツハシマチオキダ",
    "street": null,
    "office_name": null,
    "office_name_kana": null
  },
  "0802": {
    "zip_code": "8320802",
    "prefecture": "福岡県",
    "prefecture_kana": "フクオカケン",
    "prefecture_code": "40",
    "city": "柳川市",
    "city_kana": "ヤナガワシ",
    "town": "三橋町吉開",
    "town_kana": "ミツハシマチヨシガイ",
    "street": null,
    "office_name": null,
    "office_name_kana": null
  },
  "0803": {
    "zip_code": "8320803",
    "prefecture": "福岡県",
    "prefecture_kana": "フクオカケン",
    "prefecture_code": "40",
    "city": "柳川市",
    "city_kana": "ヤナガワシ",
    "town": "三橋町新村",
    "town_kana": "ミツハシマチミムラ",
    "street": null,
    "office_name": null,
    "office_name_kana": null
  },
  "0804": {
    "zip_code": "8320804",
    "prefecture": "福岡県",
    "prefecture_kana": "フクオカケン",
    "prefecture_code": "40",
    "city": "柳川市",
    "city_kana": "ヤナガワシ",
    "town": "三橋町木元",
    "town_kana": "ミツハシマチキノモト",
    "street": null,
    "office_name": null,
    "office_name_kana": null
  },
  "0805": {
    "zip_code": "8320805",
    "prefecture": "福岡県",
    "prefecture_kana": "フクオカケン",
    "prefecture_code": "40",
    "city": "柳川市",
    "city_kana": "ヤナガワシ",
    "town": "三橋町磯鳥",
    "town_kana": "ミツハシマチイソドリ",
    "street": null,
    "office_name": null,
    "office_name_kana": null
  },
  "0806": {
    "zip_code": "8320806",
    "prefecture": "福岡県",
    "prefecture_kana": "フクオカケン",
    "prefecture_code": "40",
    "city": "柳川市",
    "city_kana": "ヤナガワシ",
    "town": "三橋町柳河",
    "town_kana": "ミツハシマチヤナガワ",
    "street": null,
    "office_name": null,
    "office_name_kana": null
  },
  "0807": {
    "zip_code": "8320807",
    "prefecture": "福岡県",
    "prefecture_kana": "フクオカケン",
    "prefecture_code": "40",
    "city": "柳川市",
    "city_kana": "ヤナガワシ",
    "town": "三橋町枝光",
    "town_kana": "ミツハシマチエダミツ",
    "street": null,
    "office_name": null,
    "office_name_kana": null
  },
  "0811": {
    "zip_code": "8320811",
    "prefecture": "福岡県",
    "prefecture_kana": "フクオカケン",
    "prefecture_code": "40",
    "city": "柳川市",
    "city_kana": "ヤナガワシ",
    "town": "三橋町中山",
    "town_kana": "ミツハシマチナカヤマ",
    "street": null,
    "office_name": null,
    "office_name_kana": null
  },
  "0812": {
    "zip_code": "8320812",
    "prefecture": "福岡県",
    "prefecture_kana": "フクオカケン",
    "prefecture_code": "40",
    "city": "柳川市",
    "city_kana": "ヤナガワシ",
    "town": "三橋町五拾町",
    "town_kana": "ミツハシマチゴジッチョウ",
    "street": null,
    "office_name": null,
    "office_name_kana": null
  },
  "0813": {
    "zip_code": "8320813",
    "prefecture": "福岡県",
    "prefecture_kana": "フクオカケン",
    "prefecture_code": "40",
    "city": "柳川市",
    "city_kana": "ヤナガワシ",
    "town": "三橋町棚町",
    "town_kana": "ミツハシマチタノマチ",
    "street": null,
    "office_name": null,
    "office_name_kana": null
  },
  "0814": {
    "zip_code": "8320814",
    "prefecture": "福岡県",
    "prefecture_kana": "フクオカケン",
    "prefecture_code": "40",
    "city": "柳川市",
    "city_kana": "ヤナガワシ",
    "town": "三橋町垂見",
    "town_kana": "ミツハシマチタルミ",
    "street": null,
    "office_name": null,
    "office_name_kana": null
  },
  "0815": {
    "zip_code": "8320815",
    "prefecture": "福岡県",
    "prefecture_kana": "フクオカケン",
    "prefecture_code": "40",
    "city": "柳川市",
    "city_kana": "ヤナガワシ",
    "town": "三橋町白鳥",
    "town_kana": "ミツハシマチシラトリ",
    "street": null,
    "office_name": null,
    "office_name_kana": null
  },
  "0816": {
    "zip_code": "8320816",
    "prefecture": "福岡県",
    "prefecture_kana": "フクオカケン",
    "prefecture_code": "40",
    "city": "柳川市",
    "city_kana": "ヤナガワシ",
    "town": "三橋町久末",
    "town_kana": "ミツハシマチヒサスエ",
    "street": null,
    "office_name": null,
    "office_name_kana": null
  },
  "0821": {
    "zip_code": "8320821",
    "prefecture": "福岡県",
    "prefecture_kana": "フクオカケン",
    "prefecture_code": "40",
    "city": "柳川市",
    "city_kana": "ヤナガワシ",
    "town": "三橋町百町",
    "town_kana": "ミツハシマチヒャクチョウ",
    "street": null,
    "office_name": null,
    "office_name_kana": null
  },
  "0822": {
    "zip_code": "8320822",
    "prefecture": "福岡県",
    "prefecture_kana": "フクオカケン",
    "prefecture_code": "40",
    "city": "柳川市",
    "city_kana": "ヤナガワシ",
    "town": "三橋町下百町",
    "town_kana": "ミツハシマチシモヒャクチョウ",
    "street": null,
    "office_name": null,
    "office_name_kana": null
  },
  "0823": {
    "zip_code": "8320823",
    "prefecture": "福岡県",
    "prefecture_kana": "フクオカケン",
    "prefecture_code": "40",
    "city": "柳川市",
    "city_kana": "ヤナガワシ",
    "town": "三橋町今古賀",
    "town_kana": "ミツハシマチイマコガ",
    "street": null,
    "office_name": null,
    "office_name_kana": null
  },
  "0824": {
    "zip_code": "8320824",
    "prefecture": "福岡県",
    "prefecture_kana": "フクオカケン",
    "prefecture_code": "40",
    "city": "柳川市",
    "city_kana": "ヤナガワシ",
    "town": "三橋町藤吉",
    "town_kana": "ミツハシマチフジヨシ",
    "street": null,
    "office_name": null,
    "office_name_kana": null
  },
  "0825": {
    "zip_code": "8320825",
    "prefecture": "福岡県",
    "prefecture_kana": "フクオカケン",
    "prefecture_code": "40",
    "city": "柳川市",
    "city_kana": "ヤナガワシ",
    "town": "三橋町江曲",
    "town_kana": "ミツハシマチエマガリ",
    "street": null,
    "office_name": null,
    "office_name_kana": null
  },
  "0826": {
    "zip_code": "8320826",
    "prefecture": "福岡県",
    "prefecture_kana": "フクオカケン",
    "prefecture_code": "40",
    "city": "柳川市",
    "city_kana": "ヤナガワシ",
    "town": "三橋町高畑",
    "town_kana": "ミツハシマチタカハタケ",
    "street": null,
    "office_name": null,
    "office_name_kana": null
  },
  "0827": {
    "zip_code": "8320827",
    "prefecture": "福岡県",
    "prefecture_kana": "フクオカケン",
    "prefecture_code": "40",
    "city": "柳川市",
    "city_kana": "ヤナガワシ",
    "town": "三橋町蒲船津",
    "town_kana": "ミツハシマチカマフナツ",
    "street": null,
    "office_name": null,
    "office_name_kana": null
  },
  "0828": {
    "zip_code": "8320828",
    "prefecture": "福岡県",
    "prefecture_kana": "フクオカケン",
    "prefecture_code": "40",
    "city": "柳川市",
    "city_kana": "ヤナガワシ",
    "town": "三橋町正行",
    "town_kana": "ミツハシマチマサユキ",
    "street": null,
    "office_name": null,
    "office_name_kana": null
  },
  "8555": {
    "zip_code": "8328555",
    "prefecture": "福岡県",
    "prefecture_kana": "フクオカケン",
    "prefecture_code": "40",
    "city": "柳川市",
    "city_kana": "ヤナガワシ",
    "town": "三橋町正行",
    "town_kana": "ミツハシマチマサユキ",
    "street": "４３１",
    "office_name": "柳川市役所　三橋庁舎",
    "office_name_kana": "ヤナガワシヤクシヨ ミツハシチヨウシヤ"
  },
  "8601": {
    "zip_code": "8328601",
    "prefecture": "福岡県",
    "prefecture_kana": "フクオカケン",
    "prefecture_code": "40",
    "city": "柳川市",
    "city_kana": "ヤナガワシ",
    "town": "本町",
    "town_kana": "ホンマチ",
    "street": "８７番地の１（柳川郵便局私書箱第２９号）",
    "office_name": "柳川市役所　柳川庁舎",
    "office_name_kana": "ヤナガワシヤクシヨ ヤナガワチヨウシヤ"
  }
}