{
  "0000": {
    "zip_code": "8360000",
    "prefecture": "福岡県",
    "prefecture_kana": "フクオカケン",
    "prefecture_code": 40,
    "city": "大牟田市",
    "city_kana": "オオムタシ",
    "town": "",
    "town_kana": "",
    "street": null,
    "office_name": null,
    "office_name_kana": null
  },
  "0001": {
    "zip_code": "8360001",
    "prefecture": "福岡県",
    "prefecture_kana": "フクオカケン",
    "prefecture_code": 40,
    "city": "大牟田市",
    "city_kana": "オオムタシ",
    "town": "昭和開",
    "town_kana": "ショウワビラキ",
    "street": null,
    "office_name": null,
    "office_name_kana": null
  },
  "0002": {
    "zip_code": "8360002",
    "prefecture": "福岡県",
    "prefecture_kana": "フクオカケン",
    "prefecture_code": 40,
    "city": "大牟田市",
    "city_kana": "オオムタシ",
    "town": "岬",
    "town_kana": "ミサキ",
    "street": null,
    "office_name": null,
    "office_name_kana": null
  },
  "0003": {
    "zip_code": "8360003",
    "prefecture": "福岡県",
    "prefecture_kana": "フクオカケン",
    "prefecture_code": 40,
    "city": "大牟田市",
    "city_kana": "オオムタシ",
    "town": "唐船",
    "town_kana": "トウセン",
    "street": null,
    "office_name": null,
    "office_name_kana": null
  },
  "0004": {
    "zip_code": "8360004",
    "prefecture": "福岡県",
    "prefecture_kana": "フクオカケン",
    "prefecture_code": 40,
    "city": "大牟田市",
    "city_kana": "オオムタシ",
    "town": "手鎌",
    "town_kana": "テガマ",
    "street": null,
    "office_name": null,
    "office_name_kana": null
  },
  "0005": {
    "zip_code": "8360005",
    "prefecture": "福岡県",
    "prefecture_kana": "フクオカケン",
    "prefecture_code": 40,
    "city": "大牟田市",
    "city_kana": "オオムタシ",
    "town": "椿黒町",
    "town_kana": "ツバクロマチ",
    "street": null,
    "office_name": null,
    "office_name_kana": null
  },
  "0006": {
    "zip_code": "8360006",
    "prefecture": "福岡県",
    "prefecture_kana": "フクオカケン",
    "prefecture_code": 40,
    "city": "大牟田市",
    "city_kana": "オオムタシ",
    "town": "大黒町",
    "town_kana": "ダイコクマチ",
    "street": null,
    "office_name": null,
    "office_name_kana": null
  },
  "0007": {
    "zip_code": "8360007",
    "prefecture": "福岡県",
    "prefecture_kana": "フクオカケン",
    "prefecture_code": 40,
    "city": "大牟田市",
    "city_kana": "オオムタシ",
    "town": "城町",
    "town_kana": "シロマチ",
    "street": null,
    "office_name": null,
    "office_name_kana": null
  },
  "0011": {
    "zip_code": "8360011",
    "prefecture": "福岡県",
    "prefecture_kana": "フクオカケン",
    "prefecture_code": 40,
    "city": "大牟田市",
    "city_kana": "オオムタシ",
    "town": "健老町",
    "town_kana": "ケンロウマチ",
    "street": null,
    "office_name": null,
    "office_name_kana": null
  },
  "0012": {
    "zip_code": "8360012",
    "prefecture": "福岡県",
    "prefecture_kana": "フクオカケン",
    "prefecture_code": 40,
    "city": "大牟田市",
    "city_kana": "オオムタシ",
    "town": "明治町",
    "town_kana": "メイジマチ",
    "street": null,
    "office_name": null,
    "office_name_kana": null
  },
  "0013": {
    "zip_code": "8360013",
    "prefecture": "福岡県",
    "prefecture_kana": "フクオカケン",
    "prefecture_code": 40,
    "city": "大牟田市",
    "city_kana": "オオムタシ",
    "town": "中町",
    "town_kana": "ナカマチ",
    "street": null,
    "office_name": null,
    "office_name_kana": null
  },
  "0014": {
    "zip_code": "8360014",
    "prefecture": "福岡県",
    "prefecture_kana": "フクオカケン",
    "prefecture_code": 40,
    "city": "大牟田市",
    "city_kana": "オオムタシ",
    "town": "恵比須町",
    "town_kana": "エビスマチ",
    "street": null,
    "office_name": null,
    "office_name_kana": null
  },
  "0015": {
    "zip_code": "8360015",
    "prefecture": "福岡県",
    "prefecture_kana": "フクオカケン",
    "prefecture_code": 40,
    "city": "大牟田市",
    "city_kana": "オオムタシ",
    "town": "天神町",
    "town_kana": "テンジンマチ",
    "street": null,
    "office_name": null,
    "office_name_kana": null
  },
  "0016": {
    "zip_code": "8360016",
    "prefecture": "福岡県",
    "prefecture_kana": "フクオカケン",
    "prefecture_code": 40,
    "city": "大牟田市",
    "city_kana": "オオムタシ",
    "town": "北磯町",
    "town_kana": "キタイソマチ",
    "street": null,
    "office_name": null,
    "office_name_kana": null
  },
  "0017": {
    "zip_code": "8360017",
    "prefecture": "福岡県",
    "prefecture_kana": "フクオカケン",
    "prefecture_code": 40,
    "city": "大牟田市",
    "city_kana": "オオムタシ",
    "town": "新開町",
    "town_kana": "シンカイマチ",
    "street": null,
    "office_name": null,
    "office_name_kana": null
  },
  "0021": {
    "zip_code": "8360021",
    "prefecture": "福岡県",
    "prefecture_kana": "フクオカケン",
    "prefecture_code": 40,
    "city": "大牟田市",
    "city_kana": "オオムタシ",
    "town": "浜町",
    "town_kana": "ハママチ",
    "street": null,
    "office_name": null,
    "office_name_kana": null
  },
  "0022": {
    "zip_code": "8360022",
    "prefecture": "福岡県",
    "prefecture_kana": "フクオカケン",
    "prefecture_code": 40,
    "city": "大牟田市",
    "city_kana": "オオムタシ",
    "town": "港町",
    "town_kana": "ミナトマチ",
    "street": null,
    "office_name": null,
    "office_name_kana": null
  },
  "0023": {
    "zip_code": "8360023",
    "prefecture": "福岡県",
    "prefecture_kana": "フクオカケン",
    "prefecture_code": 40,
    "city": "大牟田市",
    "city_kana": "オオムタシ",
    "town": "中島町",
    "town_kana": "ナカシママチ",
    "street": null,
    "office_name": null,
    "office_name_kana": null
  },
  "0024": {
    "zip_code": "8360024",
    "prefecture": "福岡県",
    "prefecture_kana": "フクオカケン",
    "prefecture_code": 40,
    "city": "大牟田市",
    "city_kana": "オオムタシ",
    "town": "住吉町",
    "town_kana": "スミヨシマチ",
    "street": null,
    "office_name": null,
    "office_name_kana": null
  },
  "0025": {
    "zip_code": "8360025",
    "prefecture": "福岡県",
    "prefecture_kana": "フクオカケン",
    "prefecture_code": 40,
    "city": "大牟田市",
    "city_kana": "オオムタシ",
    "town": "中友町",
    "town_kana": "ナカトモマチ",
    "street": null,
    "office_name": null,
    "office_name_kana": null
  },
  "0026": {
    "zip_code": "8360026",
    "prefecture": "福岡県",
    "prefecture_kana": "フクオカケン",
    "prefecture_code": 40,
    "city": "大牟田市",
    "city_kana": "オオムタシ",
    "town": "浜田町",
    "town_kana": "ハマダマチ",
    "street": null,
    "office_name": null,
    "office_name_kana": null
  },
  "0027": {
    "zip_code": "8360027",
    "prefecture": "福岡県",
    "prefecture_kana": "フクオカケン",
    "prefecture_code": 40,
    "city": "大牟田市",
    "city_kana": "オオムタシ",
    "town": "西浜田町",
    "town_kana": "ニシハマダマチ",
    "street": null,
    "office_name": null,
    "office_name_kana": null
  },
  "0031": {
    "zip_code": "8360031",
    "prefecture": "福岡県",
    "prefecture_kana": "フクオカケン",
    "prefecture_code": 40,
    "city": "大牟田市",
    "city_kana": "オオムタシ",
    "town": "西新町",
    "town_kana": "ニシシンマチ",
    "street": null,
    "office_name": null,
    "office_name_kana": null
  },
  "0032": {
    "zip_code": "8360032",
    "prefecture": "福岡県",
    "prefecture_kana": "フクオカケン",
    "prefecture_code": 40,
    "city": "大牟田市",
    "city_kana": "オオムタシ",
    "town": "新地町",
    "town_kana": "シンチマチ",
    "street": null,
    "office_name": null,
    "office_name_kana": null
  },
  "0033": {
    "zip_code": "8360033",
    "prefecture": "福岡県",
    "prefecture_kana": "フクオカケン",
    "prefecture_code": 40,
    "city": "大牟田市",
    "city_kana": "オオムタシ",
    "town": "松原町",
    "town_kana": "マツバラマチ",
    "street": null,
    "office_name": null,
    "office_name_kana": null
  },
  "0034": {
    "zip_code": "8360034",
    "prefecture": "福岡県",
    "prefecture_kana": "フクオカケン",
    "prefecture_code": 40,
    "city": "大牟田市",
    "city_kana": "オオムタシ",
    "town": "小浜町",
    "town_kana": "コハママチ",
    "street": null,
    "office_name": null,
    "office_name_kana": null
  },
  "0035": {
    "zip_code": "8360035",
    "prefecture": "福岡県",
    "prefecture_kana": "フクオカケン",
    "prefecture_code": 40,
    "city": "大牟田市",
    "city_kana": "オオムタシ",
    "town": "千代町",
    "town_kana": "チヨマチ",
    "street": null,
    "office_name": null,
    "office_name_kana": null
  },
  "0036": {
    "zip_code": "8360036",
    "prefecture": "福岡県",
    "prefecture_kana": "フクオカケン",
    "prefecture_code": 40,
    "city": "大牟田市",
    "city_kana": "オオムタシ",
    "town": "小川町",
    "town_kana": "オガワマチ",
    "street": null,
    "office_name": null,
    "office_name_kana": null
  },
  "0037": {
    "zip_code": "8360037",
    "prefecture": "福岡県",
    "prefecture_kana": "フクオカケン",
    "prefecture_code": 40,
    "city": "大牟田市",
    "city_kana": "オオムタシ",
    "town": "岬町",
    "town_kana": "ミサキマチ",
    "street": null,
    "office_name": null,
    "office_name_kana": null
  },
  "0041": {
    "zip_code": "8360041",
    "prefecture": "福岡県",
    "prefecture_kana": "フクオカケン",
    "prefecture_code": 40,
    "city": "大牟田市",
    "city_kana": "オオムタシ",
    "town": "新栄町",
    "town_kana": "シンサカエマチ",
    "street": null,
    "office_name": null,
    "office_name_kana": null
  },
  "0042": {
    "zip_code": "8360042",
    "prefecture": "福岡県",
    "prefecture_kana": "フクオカケン",
    "prefecture_code": 40,
    "city": "大牟田市",
    "city_kana": "オオムタシ",
    "town": "栄町",
    "town_kana": "サカエマチ",
    "street": null,
    "office_name": null,
    "office_name_kana": null
  },
  "0043": {
    "zip_code": "8360043",
    "prefecture": "福岡県",
    "prefecture_kana": "フクオカケン",
    "prefecture_code": 40,
    "city": "大牟田市",
    "city_kana": "オオムタシ",
    "town": "橋口町",
    "town_kana": "ハシグチマチ",
    "street": null,
    "office_name": null,
    "office_name_kana": null
  },
  "0044": {
    "zip_code": "8360044",
    "prefecture": "福岡県",
    "prefecture_kana": "フクオカケン",
    "prefecture_code": 40,
    "city": "大牟田市",
    "city_kana": "オオムタシ",
    "town": "古町",
    "town_kana": "フルマチ",
    "street": null,
    "office_name": null,
    "office_name_kana": null
  },
  "0045": {
    "zip_code": "8360045",
    "prefecture": "福岡県",
    "prefecture_kana": "フクオカケン",
    "prefecture_code": 40,
    "city": "大牟田市",
    "city_kana": "オオムタシ",
    "town": "久保田町",
    "town_kana": "クボタマチ",
    "street": null,
    "office_name": null,
    "office_name_kana": null
  },
  "0046": {
    "zip_code": "8360046",
    "prefecture": "福岡県",
    "prefecture_kana": "フクオカケン",
    "prefecture_code": 40,
    "city": "大牟田市",
    "city_kana": "オオムタシ",
    "town": "本町",
    "town_kana": "ホンマチ",
    "street": null,
    "office_name": null,
    "office_name_kana": null
  },
  "0047": {
    "zip_code": "8360047",
    "prefecture": "福岡県",
    "prefecture_kana": "フクオカケン",
    "prefecture_code": 40,
    "city": "大牟田市",
    "city_kana": "オオムタシ",
    "town": "大正町",
    "town_kana": "タイショウマチ",
    "street": null,
    "office_name": null,
    "office_name_kana": null
  },
  "0051": {
    "zip_code": "8360051",
    "prefecture": "福岡県",
    "prefecture_kana": "フクオカケン",
    "prefecture_code": 40,
    "city": "大牟田市",
    "city_kana": "オオムタシ",
    "town": "諏訪町",
    "town_kana": "スワマチ",
    "street": null,
    "office_name": null,
    "office_name_kana": null
  },
  "0052": {
    "zip_code": "8360052",
    "prefecture": "福岡県",
    "prefecture_kana": "フクオカケン",
    "prefecture_code": 40,
    "city": "大牟田市",
    "city_kana": "オオムタシ",
    "town": "白金町",
    "town_kana": "シラガネマチ",
    "street": null,
    "office_name": null,
    "office_name_kana": null
  },
  "0053": {
    "zip_code": "8360053",
    "prefecture": "福岡県",
    "prefecture_kana": "フクオカケン",
    "prefecture_code": 40,
    "city": "大牟田市",
    "city_kana": "オオムタシ",
    "town": "山下町",
    "town_kana": "ヤマシタマチ",
    "street": null,
    "office_name": null,
    "office_name_kana": null
  },
  "0054": {
    "zip_code": "8360054",
    "prefecture": "福岡県",
    "prefecture_kana": "フクオカケン",
    "prefecture_code": 40,
    "city": "大牟田市",
    "city_kana": "オオムタシ",
    "town": "天領町",
    "town_kana": "テンリョウマチ",
    "street": null,
    "office_name": null,
    "office_name_kana": null
  },
  "0055": {
    "zip_code": "8360055",
    "prefecture": "福岡県",
    "prefecture_kana": "フクオカケン",
    "prefecture_code": 40,
    "city": "大牟田市",
    "city_kana": "オオムタシ",
    "town": "樋口町",
    "town_kana": "ヒグチマチ",
    "street": null,
    "office_name": null,
    "office_name_kana": null
  },
  "0056": {
    "zip_code": "8360056",
    "prefecture": "福岡県",
    "prefecture_kana": "フクオカケン",
    "prefecture_code": 40,
    "city": "大牟田市",
    "city_kana": "オオムタシ",
    "town": "姫島町",
    "town_kana": "ヒメシママチ",
    "street": null,
    "office_name": null,
    "office_name_kana": null
  },
  "0057": {
    "zip_code": "8360057",
    "prefecture": "福岡県",
    "prefecture_kana": "フクオカケン",
    "prefecture_code": 40,
    "city": "大牟田市",
    "city_kana": "オオムタシ",
    "town": "汐屋町",
    "town_kana": "シオヤマチ",
    "street": null,
    "office_name": null,
    "office_name_kana": null
  },
  "0061": {
    "zip_code": "8360061",
    "prefecture": "福岡県",
    "prefecture_kana": "フクオカケン",
    "prefecture_code": 40,
    "city": "大牟田市",
    "city_kana": "オオムタシ",
    "town": "新港町",
    "town_kana": "シンコウマチ",
    "street": null,
    "office_name": null,
    "office_name_kana": null
  },
  "0062": {
    "zip_code": "8360062",
    "prefecture": "福岡県",
    "prefecture_kana": "フクオカケン",
    "prefecture_code": 40,
    "city": "大牟田市",
    "city_kana": "オオムタシ",
    "town": "西港町",
    "town_kana": "ニシミナトマチ",
    "street": null,
    "office_name": null,
    "office_name_kana": null
  },
  "0063": {
    "zip_code": "8360063",
    "prefecture": "福岡県",
    "prefecture_kana": "フクオカケン",
    "prefecture_code": 40,
    "city": "大牟田市",
    "city_kana": "オオムタシ",
    "town": "入船町",
    "town_kana": "イリフネマチ",
    "street": null,
    "office_name": null,
    "office_name_kana": null
  },
  "0064": {
    "zip_code": "8360064",
    "prefecture": "福岡県",
    "prefecture_kana": "フクオカケン",
    "prefecture_code": 40,
    "city": "大牟田市",
    "city_kana": "オオムタシ",
    "town": "高砂町",
    "town_kana": "タカサゴマチ",
    "street": null,
    "office_name": null,
    "office_name_kana": null
  },
  "0065": {
    "zip_code": "8360065",
    "prefecture": "福岡県",
    "prefecture_kana": "フクオカケン",
    "prefecture_code": 40,
    "city": "大牟田市",
    "city_kana": "オオムタシ",
    "town": "三川町",
    "town_kana": "ミカワマチ",
    "street": null,
    "office_name": null,
    "office_name_kana": null
  },
  "0066": {
    "zip_code": "8360066",
    "prefecture": "福岡県",
    "prefecture_kana": "フクオカケン",
    "prefecture_code": 40,
    "city": "大牟田市",
    "city_kana": "オオムタシ",
    "town": "浪花町",
    "town_kana": "ナニワマチ",
    "street": null,
    "office_name": null,
    "office_name_kana": null
  },
  "0067": {
    "zip_code": "8360067",
    "prefecture": "福岡県",
    "prefecture_kana": "フクオカケン",
    "prefecture_code": 40,
    "city": "大牟田市",
    "city_kana": "オオムタシ",
    "town": "四山町",
    "town_kana": "ヨツヤママチ",
    "street": null,
    "office_name": null,
    "office_name_kana": null
  },
  "0071": {
    "zip_code": "8360071",
    "prefecture": "福岡県",
    "prefecture_kana": "フクオカケン",
    "prefecture_code": 40,
    "city": "大牟田市",
    "city_kana": "オオムタシ",
    "town": "加納町",
    "town_kana": "カノウマチ",
    "street": null,
    "office_name": null,
    "office_name_kana": null
  },
  "0072": {
    "zip_code": "8360072",
    "prefecture": "福岡県",
    "prefecture_kana": "フクオカケン",
    "prefecture_code": 40,
    "city": "大牟田市",
    "city_kana": "オオムタシ",
    "town": "上屋敷町",
    "town_kana": "カミヤシキマチ",
    "street": null,
    "office_name": null,
    "office_name_kana": null
  },
  "0073": {
    "zip_code": "8360073",
    "prefecture": "福岡県",
    "prefecture_kana": "フクオカケン",
    "prefecture_code": 40,
    "city": "大牟田市",
    "city_kana": "オオムタシ",
    "town": "船津町",
    "town_kana": "フナツマチ",
    "street": null,
    "office_name": null,
    "office_name_kana": null
  },
  "0074": {
    "zip_code": "8360074",
    "prefecture": "福岡県",
    "prefecture_kana": "フクオカケン",
    "prefecture_code": 40,
    "city": "大牟田市",
    "city_kana": "オオムタシ",
    "town": "藤田町",
    "town_kana": "フジタマチ",
    "street": null,
    "office_name": null,
    "office_name_kana": null
  },
  "0075": {
    "zip_code": "8360075",
    "prefecture": "福岡県",
    "prefecture_kana": "フクオカケン",
    "prefecture_code": 40,
    "city": "大牟田市",
    "city_kana": "オオムタシ",
    "town": "南船津町",
    "town_kana": "ミナミフナツマチ",
    "street": null,
    "office_name": null,
    "office_name_kana": null
  },
  "0076": {
    "zip_code": "8360076",
    "prefecture": "福岡県",
    "prefecture_kana": "フクオカケン",
    "prefecture_code": 40,
    "city": "大牟田市",
    "city_kana": "オオムタシ",
    "town": "三里町",
    "town_kana": "ミサトマチ",
    "street": null,
    "office_name": null,
    "office_name_kana": null
  },
  "0077": {
    "zip_code": "8360077",
    "prefecture": "福岡県",
    "prefecture_kana": "フクオカケン",
    "prefecture_code": 40,
    "city": "大牟田市",
    "city_kana": "オオムタシ",
    "town": "早米来町",
    "town_kana": "ゾウメキマチ",
    "street": null,
    "office_name": null,
    "office_name_kana": null
  },
  "0081": {
    "zip_code": "8360081",
    "prefecture": "福岡県",
    "prefecture_kana": "フクオカケン",
    "prefecture_code": 40,
    "city": "大牟田市",
    "city_kana": "オオムタシ",
    "town": "田端町",
    "town_kana": "タバタマチ",
    "street": null,
    "office_name": null,
    "office_name_kana": null
  },
  "0082": {
    "zip_code": "8360082",
    "prefecture": "福岡県",
    "prefecture_kana": "フクオカケン",
    "prefecture_code": 40,
    "city": "大牟田市",
    "city_kana": "オオムタシ",
    "town": "片平町",
    "town_kana": "カタヒラマチ",
    "street": null,
    "office_name": null,
    "office_name_kana": null
  },
  "0083": {
    "zip_code": "8360083",
    "prefecture": "福岡県",
    "prefecture_kana": "フクオカケン",
    "prefecture_code": 40,
    "city": "大牟田市",
    "city_kana": "オオムタシ",
    "town": "長田町",
    "town_kana": "ナガタマチ",
    "street": null,
    "office_name": null,
    "office_name_kana": null
  },
  "0084": {
    "zip_code": "8360084",
    "prefecture": "福岡県",
    "prefecture_kana": "フクオカケン",
    "prefecture_code": 40,
    "city": "大牟田市",
    "city_kana": "オオムタシ",
    "town": "馬場町",
    "town_kana": "ババマチ",
    "street": null,
    "office_name": null,
    "office_name_kana": null
  },
  "0085": {
    "zip_code": "8360085",
    "prefecture": "福岡県",
    "prefecture_kana": "フクオカケン",
    "prefecture_code": 40,
    "city": "大牟田市",
    "city_kana": "オオムタシ",
    "town": "一部町",
    "town_kana": "イチブマチ",
    "street": null,
    "office_name": null,
    "office_name_kana": null
  },
  "0086": {
    "zip_code": "8360086",
    "prefecture": "福岡県",
    "prefecture_kana": "フクオカケン",
    "prefecture_code": 40,
    "city": "大牟田市",
    "city_kana": "オオムタシ",
    "town": "馬込町",
    "town_kana": "マゴメマチ",
    "street": null,
    "office_name": null,
    "office_name_kana": null
  },
  "0087": {
    "zip_code": "8360087",
    "prefecture": "福岡県",
    "prefecture_kana": "フクオカケン",
    "prefecture_code": 40,
    "city": "大牟田市",
    "city_kana": "オオムタシ",
    "town": "飯田町",
    "town_kana": "イイダマチ",
    "street": null,
    "office_name": null,
    "office_name_kana": null
  },
  "0091": {
    "zip_code": "8360091",
    "prefecture": "福岡県",
    "prefecture_kana": "フクオカケン",
    "prefecture_code": 40,
    "city": "大牟田市",
    "city_kana": "オオムタシ",
    "town": "沖田町",
    "town_kana": "オキタマチ",
    "street": null,
    "office_name": null,
    "office_name_kana": null
  },
  "0092": {
    "zip_code": "8360092",
    "prefecture": "福岡県",
    "prefecture_kana": "フクオカケン",
    "prefecture_code": 40,
    "city": "大牟田市",
    "city_kana": "オオムタシ",
    "town": "桜町",
    "town_kana": "サクラマチ",
    "street": null,
    "office_name": null,
    "office_name_kana": null
  },
  "0093": {
    "zip_code": "8360093",
    "prefecture": "福岡県",
    "prefecture_kana": "フクオカケン",
    "prefecture_code": 40,
    "city": "大牟田市",
    "city_kana": "オオムタシ",
    "town": "神田町",
    "town_kana": "カンダマチ",
    "street": null,
    "office_name": null,
    "office_name_kana": null
  },
  "0094": {
    "zip_code": "8360094",
    "prefecture": "福岡県",
    "prefecture_kana": "フクオカケン",
    "prefecture_code": 40,
    "city": "大牟田市",
    "city_kana": "オオムタシ",
    "town": "臼井町",
    "town_kana": "ウスイマチ",
    "street": null,
    "office_name": null,
    "office_name_kana": null
  },
  "0095": {
    "zip_code": "8360095",
    "prefecture": "福岡県",
    "prefecture_kana": "フクオカケン",
    "prefecture_code": 40,
    "city": "大牟田市",
    "city_kana": "オオムタシ",
    "town": "野添町",
    "town_kana": "ノゾエマチ",
    "street": null,
    "office_name": null,
    "office_name_kana": null
  },
  "0096": {
    "zip_code": "8360096",
    "prefecture": "福岡県",
    "prefecture_kana": "フクオカケン",
    "prefecture_code": 40,
    "city": "大牟田市",
    "city_kana": "オオムタシ",
    "town": "萩尾町",
    "town_kana": "ハギオマチ",
    "street": null,
    "office_name": null,
    "office_name_kana": null
  },
  "0097": {
    "zip_code": "8360097",
    "prefecture": "福岡県",
    "prefecture_kana": "フクオカケン",
    "prefecture_code": 40,
    "city": "大牟田市",
    "city_kana": "オオムタシ",
    "town": "東萩尾町",
    "town_kana": "ヒガシハギオマチ",
    "street": null,
    "office_name": null,
    "office_name_kana": null
  },
  "0801": {
    "zip_code": "8360801",
    "prefecture": "福岡県",
    "prefecture_kana": "フクオカケン",
    "prefecture_code": 40,
    "city": "大牟田市",
    "city_kana": "オオムタシ",
    "town": "柿園町",
    "town_kana": "カキゾノマチ",
    "street": null,
    "office_name": null,
    "office_name_kana": null
  },
  "0802": {
    "zip_code": "8360802",
    "prefecture": "福岡県",
    "prefecture_kana": "フクオカケン",
    "prefecture_code": 40,
    "city": "大牟田市",
    "city_kana": "オオムタシ",
    "town": "日出町",
    "town_kana": "ヒノデマチ",
    "street": null,
    "office_name": null,
    "office_name_kana": null
  },
  "0803": {
    "zip_code": "8360803",
    "prefecture": "福岡県",
    "prefecture_kana": "フクオカケン",
    "prefecture_code": 40,
    "city": "大牟田市",
    "city_kana": "オオムタシ",
    "town": "鳥塚町",
    "town_kana": "トリツカマチ",
    "street": null,
    "office_name": null,
    "office_name_kana": null
  },
  "0804": {
    "zip_code": "8360804",
    "prefecture": "福岡県",
    "prefecture_kana": "フクオカケン",
    "prefecture_code": 40,
    "city": "大牟田市",
    "city_kana": "オオムタシ",
    "town": "長溝町",
    "town_kana": "ナガミゾマチ",
    "street": null,
    "office_name": null,
    "office_name_kana": null
  },
  "0805": {
    "zip_code": "8360805",
    "prefecture": "福岡県",
    "prefecture_kana": "フクオカケン",
    "prefecture_code": 40,
    "city": "大牟田市",
    "city_kana": "オオムタシ",
    "town": "通町",
    "town_kana": "トオリチョウ",
    "street": null,
    "office_name": null,
    "office_name_kana": null
  },
  "0806": {
    "zip_code": "8360806",
    "prefecture": "福岡県",
    "prefecture_kana": "フクオカケン",
    "prefecture_code": 40,
    "city": "大牟田市",
    "city_kana": "オオムタシ",
    "town": "東新町",
    "town_kana": "ヒガシシンマチ",
    "street": null,
    "office_name": null,
    "office_name_kana": null
  },
  "0807": {
    "zip_code": "8360807",
    "prefecture": "福岡県",
    "prefecture_kana": "フクオカケン",
    "prefecture_code": 40,
    "city": "大牟田市",
    "city_kana": "オオムタシ",
    "town": "旭町",
    "town_kana": "アサヒマチ",
    "street": null,
    "office_name": null,
    "office_name_kana": null
  },
  "0811": {
    "zip_code": "8360811",
    "prefecture": "福岡県",
    "prefecture_kana": "フクオカケン",
    "prefecture_code": 40,
    "city": "大牟田市",
    "city_kana": "オオムタシ",
    "town": "八尻町",
    "town_kana": "ハチジリマチ",
    "street": null,
    "office_name": null,
    "office_name_kana": null
  },
  "0812": {
    "zip_code": "8360812",
    "prefecture": "福岡県",
    "prefecture_kana": "フクオカケン",
    "prefecture_code": 40,
    "city": "大牟田市",
    "city_kana": "オオムタシ",
    "town": "亀甲町",
    "town_kana": "カメノコマチ",
    "street": null,
    "office_name": null,
    "office_name_kana": null
  },
  "0813": {
    "zip_code": "8360813",
    "prefecture": "福岡県",
    "prefecture_kana": "フクオカケン",
    "prefecture_code": 40,
    "city": "大牟田市",
    "city_kana": "オオムタシ",
    "town": "平原町",
    "town_kana": "ヒラバルマチ",
    "street": null,
    "office_name": null,
    "office_name_kana": null
  },
  "0814": {
    "zip_code": "8360814",
    "prefecture": "福岡県",
    "prefecture_kana": "フクオカケン",
    "prefecture_code": 40,
    "city": "大牟田市",
    "city_kana": "オオムタシ",
    "town": "龍湖瀬町",
    "town_kana": "リュウゴゼマチ",
    "street": null,
    "office_name": null,
    "office_name_kana": null
  },
  "0815": {
    "zip_code": "8360815",
    "prefecture": "福岡県",
    "prefecture_kana": "フクオカケン",
    "prefecture_code": 40,
    "city": "大牟田市",
    "city_kana": "オオムタシ",
    "town": "瓦町",
    "town_kana": "カワラマチ",
    "street": null,
    "office_name": null,
    "office_name_kana": null
  },
  "0816": {
    "zip_code": "8360816",
    "prefecture": "福岡県",
    "prefecture_kana": "フクオカケン",
    "prefecture_code": 40,
    "city": "大牟田市",
    "city_kana": "オオムタシ",
    "town": "八本町",
    "town_kana": "ハチホンマチ",
    "street": null,
    "office_name": null,
    "office_name_kana": null
  },
  "0817": {
    "zip_code": "8360817",
    "prefecture": "福岡県",
    "prefecture_kana": "フクオカケン",
    "prefecture_code": 40,
    "city": "大牟田市",
    "city_kana": "オオムタシ",
    "town": "浅牟田町",
    "town_kana": "アサムタマチ",
    "street": null,
    "office_name": null,
    "office_name_kana": null
  },
  "0821": {
    "zip_code": "8360821",
    "prefecture": "福岡県",
    "prefecture_kana": "フクオカケン",
    "prefecture_code": 40,
    "city": "大牟田市",
    "city_kana": "オオムタシ",
    "town": "東泉町",
    "town_kana": "ヒガシイズミマチ",
    "street": null,
    "office_name": null,
    "office_name_kana": null
  },
  "0822": {
    "zip_code": "8360822",
    "prefecture": "福岡県",
    "prefecture_kana": "フクオカケン",
    "prefecture_code": 40,
    "city": "大牟田市",
    "city_kana": "オオムタシ",
    "town": "稲荷町",
    "town_kana": "トウカマチ",
    "street": null,
    "office_name": null,
    "office_name_kana": null
  },
  "0823": {
    "zip_code": "8360823",
    "prefecture": "福岡県",
    "prefecture_kana": "フクオカケン",
    "prefecture_code": 40,
    "city": "大牟田市",
    "city_kana": "オオムタシ",
    "town": "亀谷町",
    "town_kana": "カメタニマチ",
    "street": null,
    "office_name": null,
    "office_name_kana": null
  },
  "0824": {
    "zip_code": "8360824",
    "prefecture": "福岡県",
    "prefecture_kana": "フクオカケン",
    "prefecture_code": 40,
    "city": "大牟田市",
    "city_kana": "オオムタシ",
    "town": "大浦町",
    "town_kana": "オオウラマチ",
    "street": null,
    "office_name": null,
    "office_name_kana": null
  },
  "0825": {
    "zip_code": "8360825",
    "prefecture": "福岡県",
    "prefecture_kana": "フクオカケン",
    "prefecture_code": 40,
    "city": "大牟田市",
    "city_kana": "オオムタシ",
    "town": "三坑町",
    "town_kana": "サンコウマチ",
    "street": null,
    "office_name": null,
    "office_name_kana": null
  },
  "0826": {
    "zip_code": "8360826",
    "prefecture": "福岡県",
    "prefecture_kana": "フクオカケン",
    "prefecture_code": 40,
    "city": "大牟田市",
    "city_kana": "オオムタシ",
    "town": "焼石町",
    "town_kana": "ヤケイシマチ",
    "street": null,
    "office_name": null,
    "office_name_kana": null
  },
  "0827": {
    "zip_code": "8360827",
    "prefecture": "福岡県",
    "prefecture_kana": "フクオカケン",
    "prefecture_code": 40,
    "city": "大牟田市",
    "city_kana": "オオムタシ",
    "town": "東宮浦町",
    "town_kana": "ヒガシミヤウラマチ",
    "street": null,
    "office_name": null,
    "office_name_kana": null
  },
  "0831": {
    "zip_code": "8360831",
    "prefecture": "福岡県",
    "prefecture_kana": "フクオカケン",
    "prefecture_code": 40,
    "city": "大牟田市",
    "city_kana": "オオムタシ",
    "town": "泉町",
    "town_kana": "イズミマチ",
    "street": null,
    "office_name": null,
    "office_name_kana": null
  },
  "0832": {
    "zip_code": "8360832",
    "prefecture": "福岡県",
    "prefecture_kana": "フクオカケン",
    "prefecture_code": 40,
    "city": "大牟田市",
    "city_kana": "オオムタシ",
    "town": "常盤町",
    "town_kana": "トキワマチ",
    "street": null,
    "office_name": null,
    "office_name_kana": null
  },
  "0833": {
    "zip_code": "8360833",
    "prefecture": "福岡県",
    "prefecture_kana": "フクオカケン",
    "prefecture_code": 40,
    "city": "大牟田市",
    "city_kana": "オオムタシ",
    "town": "山上町",
    "town_kana": "ヤマノウエマチ",
    "street": null,
    "office_name": null,
    "office_name_kana": null
  },
  "0834": {
    "zip_code": "8360834",
    "prefecture": "福岡県",
    "prefecture_kana": "フクオカケン",
    "prefecture_code": 40,
    "city": "大牟田市",
    "city_kana": "オオムタシ",
    "town": "一本町",
    "town_kana": "イッポンマチ",
    "street": null,
    "office_name": null,
    "office_name_kana": null
  },
  "0835": {
    "zip_code": "8360835",
    "prefecture": "福岡県",
    "prefecture_kana": "フクオカケン",
    "prefecture_code": 40,
    "city": "大牟田市",
    "city_kana": "オオムタシ",
    "town": "西宮浦町",
    "town_kana": "ニシミヤウラマチ",
    "street": null,
    "office_name": null,
    "office_name_kana": null
  },
  "0836": {
    "zip_code": "8360836",
    "prefecture": "福岡県",
    "prefecture_kana": "フクオカケン",
    "prefecture_code": 40,
    "city": "大牟田市",
    "city_kana": "オオムタシ",
    "town": "左古町",
    "town_kana": "サコマチ",
    "street": null,
    "office_name": null,
    "office_name_kana": null
  },
  "0837": {
    "zip_code": "8360837",
    "prefecture": "福岡県",
    "prefecture_kana": "フクオカケン",
    "prefecture_code": 40,
    "city": "大牟田市",
    "city_kana": "オオムタシ",
    "town": "谷町",
    "town_kana": "タニマチ",
    "street": null,
    "office_name": null,
    "office_name_kana": null
  },
  "0841": {
    "zip_code": "8360841",
    "prefecture": "福岡県",
    "prefecture_kana": "フクオカケン",
    "prefecture_code": 40,
    "city": "大牟田市",
    "city_kana": "オオムタシ",
    "town": "築町",
    "town_kana": "チクマチ",
    "street": null,
    "office_name": null,
    "office_name_kana": null
  },
  "0842": {
    "zip_code": "8360842",
    "prefecture": "福岡県",
    "prefecture_kana": "フクオカケン",
    "prefecture_code": 40,
    "city": "大牟田市",
    "city_kana": "オオムタシ",
    "town": "有明町",
    "town_kana": "ユウメイマチ",
    "street": null,
    "office_name": null,
    "office_name_kana": null
  },
  "0843": {
    "zip_code": "8360843",
    "prefecture": "福岡県",
    "prefecture_kana": "フクオカケン",
    "prefecture_code": 40,
    "city": "大牟田市",
    "city_kana": "オオムタシ",
    "town": "不知火町",
    "town_kana": "シラヌヒマチ",
    "street": null,
    "office_name": null,
    "office_name_kana": null
  },
  "0844": {
    "zip_code": "8360844",
    "prefecture": "福岡県",
    "prefecture_kana": "フクオカケン",
    "prefecture_code": 40,
    "city": "大牟田市",
    "city_kana": "オオムタシ",
    "town": "浄真町",
    "town_kana": "ジョウシンマチ",
    "street": null,
    "office_name": null,
    "office_name_kana": null
  },
  "0845": {
    "zip_code": "8360845",
    "prefecture": "福岡県",
    "prefecture_kana": "フクオカケン",
    "prefecture_code": 40,
    "city": "大牟田市",
    "city_kana": "オオムタシ",
    "town": "正山町",
    "town_kana": "ショウザンマチ",
    "street": null,
    "office_name": null,
    "office_name_kana": null
  },
  "0846": {
    "zip_code": "8360846",
    "prefecture": "福岡県",
    "prefecture_kana": "フクオカケン",
    "prefecture_code": 40,
    "city": "大牟田市",
    "city_kana": "オオムタシ",
    "town": "右京町",
    "town_kana": "ウキョウマチ",
    "street": null,
    "office_name": null,
    "office_name_kana": null
  },
  "0847": {
    "zip_code": "8360847",
    "prefecture": "福岡県",
    "prefecture_kana": "フクオカケン",
    "prefecture_code": 40,
    "city": "大牟田市",
    "city_kana": "オオムタシ",
    "town": "八江町",
    "town_kana": "ヤツエマチ",
    "street": null,
    "office_name": null,
    "office_name_kana": null
  },
  "0851": {
    "zip_code": "8360851",
    "prefecture": "福岡県",
    "prefecture_kana": "フクオカケン",
    "prefecture_code": 40,
    "city": "大牟田市",
    "city_kana": "オオムタシ",
    "town": "笹林町",
    "town_kana": "ササバヤシマチ",
    "street": null,
    "office_name": null,
    "office_name_kana": null
  },
  "0852": {
    "zip_code": "8360852",
    "prefecture": "福岡県",
    "prefecture_kana": "フクオカケン",
    "prefecture_code": 40,
    "city": "大牟田市",
    "city_kana": "オオムタシ",
    "town": "曙町",
    "town_kana": "アケボノマチ",
    "street": null,
    "office_name": null,
    "office_name_kana": null
  },
  "0853": {
    "zip_code": "8360853",
    "prefecture": "福岡県",
    "prefecture_kana": "フクオカケン",
    "prefecture_code": 40,
    "city": "大牟田市",
    "city_kana": "オオムタシ",
    "town": "上町",
    "town_kana": "カミマチ",
    "street": null,
    "office_name": null,
    "office_name_kana": null
  },
  "0854": {
    "zip_code": "8360854",
    "prefecture": "福岡県",
    "prefecture_kana": "フクオカケン",
    "prefecture_code": 40,
    "city": "大牟田市",
    "city_kana": "オオムタシ",
    "town": "出雲町",
    "town_kana": "イズモマチ",
    "street": null,
    "office_name": null,
    "office_name_kana": null
  },
  "0855": {
    "zip_code": "8360855",
    "prefecture": "福岡県",
    "prefecture_kana": "フクオカケン",
    "prefecture_code": 40,
    "city": "大牟田市",
    "city_kana": "オオムタシ",
    "town": "松浦町",
    "town_kana": "マツウラマチ",
    "street": null,
    "office_name": null,
    "office_name_kana": null
  },
  "0856": {
    "zip_code": "8360856",
    "prefecture": "福岡県",
    "prefecture_kana": "フクオカケン",
    "prefecture_code": 40,
    "city": "大牟田市",
    "city_kana": "オオムタシ",
    "town": "宮坂町",
    "town_kana": "ミヤサカマチ",
    "street": null,
    "office_name": null,
    "office_name_kana": null
  },
  "0857": {
    "zip_code": "8360857",
    "prefecture": "福岡県",
    "prefecture_kana": "フクオカケン",
    "prefecture_code": 40,
    "city": "大牟田市",
    "city_kana": "オオムタシ",
    "town": "宮山町",
    "town_kana": "ミヤヤママチ",
    "street": null,
    "office_name": null,
    "office_name_kana": null
  },
  "0861": {
    "zip_code": "8360861",
    "prefecture": "福岡県",
    "prefecture_kana": "フクオカケン",
    "prefecture_code": 40,
    "city": "大牟田市",
    "city_kana": "オオムタシ",
    "town": "宝坂町",
    "town_kana": "タカラザカマチ",
    "street": null,
    "office_name": null,
    "office_name_kana": null
  },
  "0862": {
    "zip_code": "8360862",
    "prefecture": "福岡県",
    "prefecture_kana": "フクオカケン",
    "prefecture_code": 40,
    "city": "大牟田市",
    "city_kana": "オオムタシ",
    "town": "原山町",
    "town_kana": "ハラヤママチ",
    "street": null,
    "office_name": null,
    "office_name_kana": null
  },
  "0863": {
    "zip_code": "8360863",
    "prefecture": "福岡県",
    "prefecture_kana": "フクオカケン",
    "prefecture_code": 40,
    "city": "大牟田市",
    "city_kana": "オオムタシ",
    "town": "一浦町",
    "town_kana": "イチノウラマチ",
    "street": null,
    "office_name": null,
    "office_name_kana": null
  },
  "0864": {
    "zip_code": "8360864",
    "prefecture": "福岡県",
    "prefecture_kana": "フクオカケン",
    "prefecture_code": 40,
    "city": "大牟田市",
    "city_kana": "オオムタシ",
    "town": "真道寺町",
    "town_kana": "シンドウジマチ",
    "street": null,
    "office_name": null,
    "office_name_kana": null
  },
  "0865": {
    "zip_code": "8360865",
    "prefecture": "福岡県",
    "prefecture_kana": "フクオカケン",
    "prefecture_code": 40,
    "city": "大牟田市",
    "city_kana": "オオムタシ",
    "town": "七浦町",
    "town_kana": "ナナウラマチ",
    "street": null,
    "office_name": null,
    "office_name_kana": null
  },
  "0866": {
    "zip_code": "8360866",
    "prefecture": "福岡県",
    "prefecture_kana": "フクオカケン",
    "prefecture_code": 40,
    "city": "大牟田市",
    "city_kana": "オオムタシ",
    "town": "上官町",
    "town_kana": "ジョウカンマチ",
    "street": null,
    "office_name": null,
    "office_name_kana": null
  },
  "0867": {
    "zip_code": "8360867",
    "prefecture": "福岡県",
    "prefecture_kana": "フクオカケン",
    "prefecture_code": 40,
    "city": "大牟田市",
    "city_kana": "オオムタシ",
    "town": "花園町",
    "town_kana": "ハナゾノマチ",
    "street": null,
    "office_name": null,
    "office_name_kana": null
  },
  "0871": {
    "zip_code": "8360871",
    "prefecture": "福岡県",
    "prefecture_kana": "フクオカケン",
    "prefecture_code": 40,
    "city": "大牟田市",
    "city_kana": "オオムタシ",
    "town": "昭和町",
    "town_kana": "ショウワマチ",
    "street": null,
    "office_name": null,
    "office_name_kana": null
  },
  "0872": {
    "zip_code": "8360872",
    "prefecture": "福岡県",
    "prefecture_kana": "フクオカケン",
    "prefecture_code": 40,
    "city": "大牟田市",
    "city_kana": "オオムタシ",
    "town": "黄金町",
    "town_kana": "コガネマチ",
    "street": null,
    "office_name": null,
    "office_name_kana": null
  },
  "0873": {
    "zip_code": "8360873",
    "prefecture": "福岡県",
    "prefecture_kana": "フクオカケン",
    "prefecture_code": 40,
    "city": "大牟田市",
    "city_kana": "オオムタシ",
    "town": "駛馬町",
    "town_kana": "ハヤメマチ",
    "street": null,
    "office_name": null,
    "office_name_kana": null
  },
  "0874": {
    "zip_code": "8360874",
    "prefecture": "福岡県",
    "prefecture_kana": "フクオカケン",
    "prefecture_code": 40,
    "city": "大牟田市",
    "city_kana": "オオムタシ",
    "town": "末広町",
    "town_kana": "スエヒロマチ",
    "street": null,
    "office_name": null,
    "office_name_kana": null
  },
  "0875": {
    "zip_code": "8360875",
    "prefecture": "福岡県",
    "prefecture_kana": "フクオカケン",
    "prefecture_code": 40,
    "city": "大牟田市",
    "city_kana": "オオムタシ",
    "town": "宮原町",
    "town_kana": "ミヤハラマチ",
    "street": null,
    "office_name": null,
    "office_name_kana": null
  },
  "0876": {
    "zip_code": "8360876",
    "prefecture": "福岡県",
    "prefecture_kana": "フクオカケン",
    "prefecture_code": 40,
    "city": "大牟田市",
    "city_kana": "オオムタシ",
    "town": "若宮町",
    "town_kana": "ワカミヤマチ",
    "street": null,
    "office_name": null,
    "office_name_kana": null
  },
  "0877": {
    "zip_code": "8360877",
    "prefecture": "福岡県",
    "prefecture_kana": "フクオカケン",
    "prefecture_code": 40,
    "city": "大牟田市",
    "city_kana": "オオムタシ",
    "town": "延命寺町",
    "town_kana": "エンメイジマチ",
    "street": null,
    "office_name": null,
    "office_name_kana": null
  },
  "0881": {
    "zip_code": "8360881",
    "prefecture": "福岡県",
    "prefecture_kana": "フクオカケン",
    "prefecture_code": 40,
    "city": "大牟田市",
    "city_kana": "オオムタシ",
    "town": "米生町",
    "town_kana": "ヨネオマチ",
    "street": null,
    "office_name": null,
    "office_name_kana": null
  },
  "0882": {
    "zip_code": "8360882",
    "prefecture": "福岡県",
    "prefecture_kana": "フクオカケン",
    "prefecture_code": 40,
    "city": "大牟田市",
    "city_kana": "オオムタシ",
    "town": "臼井新町",
    "town_kana": "ウスイシンマチ",
    "street": null,
    "office_name": null,
    "office_name_kana": null
  },
  "0883": {
    "zip_code": "8360883",
    "prefecture": "福岡県",
    "prefecture_kana": "フクオカケン",
    "prefecture_code": 40,
    "city": "大牟田市",
    "city_kana": "オオムタシ",
    "town": "馬渡町",
    "town_kana": "マワタリマチ",
    "street": null,
    "office_name": null,
    "office_name_kana": null
  },
  "0884": {
    "zip_code": "8360884",
    "prefecture": "福岡県",
    "prefecture_kana": "フクオカケン",
    "prefecture_code": 40,
    "city": "大牟田市",
    "city_kana": "オオムタシ",
    "town": "笹原町",
    "town_kana": "ササハラマチ",
    "street": null,
    "office_name": null,
    "office_name_kana": null
  },
  "0885": {
    "zip_code": "8360885",
    "prefecture": "福岡県",
    "prefecture_kana": "フクオカケン",
    "prefecture_code": 40,
    "city": "大牟田市",
    "city_kana": "オオムタシ",
    "town": "下池町",
    "town_kana": "シモイケマチ",
    "street": null,
    "office_name": null,
    "office_name_kana": null
  },
  "0886": {
    "zip_code": "8360886",
    "prefecture": "福岡県",
    "prefecture_kana": "フクオカケン",
    "prefecture_code": 40,
    "city": "大牟田市",
    "city_kana": "オオムタシ",
    "town": "勝立",
    "town_kana": "カツダチ",
    "street": null,
    "office_name": null,
    "office_name_kana": null
  },
  "0891": {
    "zip_code": "8360891",
    "prefecture": "福岡県",
    "prefecture_kana": "フクオカケン",
    "prefecture_code": 40,
    "city": "大牟田市",
    "city_kana": "オオムタシ",
    "town": "合成町",
    "town_kana": "ゴウセイマチ",
    "street": null,
    "office_name": null,
    "office_name_kana": null
  },
  "0892": {
    "zip_code": "8360892",
    "prefecture": "福岡県",
    "prefecture_kana": "フクオカケン",
    "prefecture_code": 40,
    "city": "大牟田市",
    "city_kana": "オオムタシ",
    "town": "早鐘町",
    "town_kana": "ハヤガネマチ",
    "street": null,
    "office_name": null,
    "office_name_kana": null
  },
  "0893": {
    "zip_code": "8360893",
    "prefecture": "福岡県",
    "prefecture_kana": "フクオカケン",
    "prefecture_code": 40,
    "city": "大牟田市",
    "city_kana": "オオムタシ",
    "town": "櫟野",
    "town_kana": "イチノ",
    "street": null,
    "office_name": null,
    "office_name_kana": null
  },
  "0894": {
    "zip_code": "8360894",
    "prefecture": "福岡県",
    "prefecture_kana": "フクオカケン",
    "prefecture_code": 40,
    "city": "大牟田市",
    "city_kana": "オオムタシ",
    "town": "教楽来",
    "town_kana": "キョウラギ",
    "street": null,
    "office_name": null,
    "office_name_kana": null
  },
  "0895": {
    "zip_code": "8360895",
    "prefecture": "福岡県",
    "prefecture_kana": "フクオカケン",
    "prefecture_code": 40,
    "city": "大牟田市",
    "city_kana": "オオムタシ",
    "town": "新勝立町",
    "town_kana": "シンカツダチマチ",
    "street": null,
    "office_name": null,
    "office_name_kana": null
  },
  "0896": {
    "zip_code": "8360896",
    "prefecture": "福岡県",
    "prefecture_kana": "フクオカケン",
    "prefecture_code": 40,
    "city": "大牟田市",
    "city_kana": "オオムタシ",
    "town": "天道町",
    "town_kana": "テンドウマチ",
    "street": null,
    "office_name": null,
    "office_name_kana": null
  },
  "0897": {
    "zip_code": "8360897",
    "prefecture": "福岡県",
    "prefecture_kana": "フクオカケン",
    "prefecture_code": 40,
    "city": "大牟田市",
    "city_kana": "オオムタシ",
    "town": "青葉町",
    "town_kana": "アオバマチ",
    "street": null,
    "office_name": null,
    "office_name_kana": null
  },
  "8502": {
    "zip_code": "8368502",
    "prefecture": "福岡県",
    "prefecture_kana": "フクオカケン",
    "prefecture_code": 40,
    "city": "大牟田市",
    "city_kana": "オオムタシ",
    "town": "小浜町",
    "town_kana": "コハママチ",
    "street": "２４−１３",
    "office_name": "大牟田労働基準監督署",
    "office_name_kana": "オオムタロウドウキジユンカントクシヨ"
  },
  "8505": {
    "zip_code": "8368505",
    "prefecture": "福岡県",
    "prefecture_kana": "フクオカケン",
    "prefecture_code": 40,
    "city": "大牟田市",
    "city_kana": "オオムタシ",
    "town": "岬町",
    "town_kana": "ミサキマチ",
    "street": "６番地２２",
    "office_name": "帝京大学　福岡キャンパス",
    "office_name_kana": "テイキヨウダイガク フクオカキヤンパス"
  },
  "8510": {
    "zip_code": "8368510",
    "prefecture": "福岡県",
    "prefecture_kana": "フクオカケン",
    "prefecture_code": 40,
    "city": "大牟田市",
    "city_kana": "オオムタシ",
    "town": "新開町",
    "town_kana": "シンカイマチ",
    "street": "１",
    "office_name": "電気化学工業　株式会社　大牟田工場",
    "office_name_kana": "デンキカガクコウギヨウ カブシキガイシヤ オオムタコウジヨウ"
  },
  "8512": {
    "zip_code": "8368512",
    "prefecture": "福岡県",
    "prefecture_kana": "フクオカケン",
    "prefecture_code": 40,
    "city": "大牟田市",
    "city_kana": "オオムタシ",
    "town": "有明町",
    "town_kana": "ユウメイマチ",
    "street": "１丁目１−１７",
    "office_name": "株式会社　有明新報社",
    "office_name_kana": "カブシキガイシヤ アリアケシンポウシヤ"
  },
  "8531": {
    "zip_code": "8368531",
    "prefecture": "福岡県",
    "prefecture_kana": "フクオカケン",
    "prefecture_code": 40,
    "city": "大牟田市",
    "city_kana": "オオムタシ",
    "town": "新港町",
    "town_kana": "シンコウマチ",
    "street": "１番地",
    "office_name": "三池港物流　株式会社",
    "office_name_kana": "ミイケコウブツリユウ カブシキガイシヤ"
  },
  "8533": {
    "zip_code": "8368533",
    "prefecture": "福岡県",
    "prefecture_kana": "フクオカケン",
    "prefecture_code": 40,
    "city": "大牟田市",
    "city_kana": "オオムタシ",
    "town": "有明町",
    "town_kana": "ユウメイマチ",
    "street": "２−２−１７",
    "office_name": "大牟田柳川信用金庫",
    "office_name_kana": "オオムタヤナガワシンヨウキンコ"
  },
  "8566": {
    "zip_code": "8368566",
    "prefecture": "福岡県",
    "prefecture_kana": "フクオカケン",
    "prefecture_code": 40,
    "city": "大牟田市",
    "city_kana": "オオムタシ",
    "town": "天領町",
    "town_kana": "テンリョウマチ",
    "street": "１丁目１００",
    "office_name": "社会保険　大牟田天領病院",
    "office_name_kana": "シヤカイホケン オオムタテンリヨウビヨウイン"
  },
  "8567": {
    "zip_code": "8368567",
    "prefecture": "福岡県",
    "prefecture_kana": "フクオカケン",
    "prefecture_code": 40,
    "city": "大牟田市",
    "city_kana": "オオムタシ",
    "town": "宝坂町",
    "town_kana": "タカラザカマチ",
    "street": "２丁目１９−１",
    "office_name": "大牟田市立総合病院",
    "office_name_kana": "オオムタシリツソウゴウビヨウイン"
  },
  "8577": {
    "zip_code": "8368577",
    "prefecture": "福岡県",
    "prefecture_kana": "フクオカケン",
    "prefecture_code": 40,
    "city": "大牟田市",
    "city_kana": "オオムタシ",
    "town": "上官町",
    "town_kana": "ジョウカンマチ",
    "street": "４丁目７７",
    "office_name": "福岡県立三池工業高等学校",
    "office_name_kana": "フクオカケンリツミイケコウギヨウコウトウガツコウ"
  },
  "8585": {
    "zip_code": "8368585",
    "prefecture": "福岡県",
    "prefecture_kana": "フクオカケン",
    "prefecture_code": 40,
    "city": "大牟田市",
    "city_kana": "オオムタシ",
    "town": "東萩尾町",
    "town_kana": "ヒガシハギオマチ",
    "street": "１５０",
    "office_name": "有明工業高等専門学校",
    "office_name_kana": "アリアケコウギヨウコウトウセンモンガツコウ"
  },
  "8588": {
    "zip_code": "8368588",
    "prefecture": "福岡県",
    "prefecture_kana": "フクオカケン",
    "prefecture_code": 40,
    "city": "大牟田市",
    "city_kana": "オオムタシ",
    "town": "新港町",
    "town_kana": "シンコウマチ",
    "street": "６番地１５",
    "office_name": "株式会社　三井三池製作所　九州事業所",
    "office_name_kana": "カブシキガイシヤ ミツイミイケセイサクシヨ キユウシユウジギヨウシヨ"
  },
  "8610": {
    "zip_code": "8368610",
    "prefecture": "福岡県",
    "prefecture_kana": "フクオカケン",
    "prefecture_code": 40,
    "city": "大牟田市",
    "city_kana": "オオムタシ",
    "town": "浅牟田町",
    "town_kana": "アサムタマチ",
    "street": "３０（大牟田郵便局私書箱第１７号）",
    "office_name": "三井化学株式会社大牟田工場",
    "office_name_kana": "ミツイカガクカブシキガイシヤオオムタコウギヨウシヨ"
  },
  "8666": {
    "zip_code": "8368666",
    "prefecture": "福岡県",
    "prefecture_kana": "フクオカケン",
    "prefecture_code": 40,
    "city": "大牟田市",
    "city_kana": "オオムタシ",
    "town": "有明町",
    "town_kana": "ユウメイマチ",
    "street": "２丁目３（大牟田郵便局私書箱第２４号）",
    "office_name": "大牟田市役所",
    "office_name_kana": "オオムタシヤクシヨ"
  },
  "8686": {
    "zip_code": "8368686",
    "prefecture": "福岡県",
    "prefecture_kana": "フクオカケン",
    "prefecture_code": 40,
    "city": "大牟田市",
    "city_kana": "オオムタシ",
    "town": "不知火町",
    "town_kana": "シラヌヒマチ",
    "street": "１丁目３−１６（大牟田郵便局私書箱第３０号）",
    "office_name": "大牟田税務署",
    "office_name_kana": "オオムタゼイムシヨ"
  }
}