{
  "0901": {
    "zip_code": "8370901",
    "prefecture": "福岡県",
    "prefecture_kana": "フクオカケン",
    "prefecture_code": 40,
    "city": "大牟田市",
    "city_kana": "オオムタシ",
    "town": "四ケ",
    "town_kana": "シカ",
    "street": null,
    "office_name": null,
    "office_name_kana": null
  },
  "0902": {
    "zip_code": "8370902",
    "prefecture": "福岡県",
    "prefecture_kana": "フクオカケン",
    "prefecture_code": 40,
    "city": "大牟田市",
    "city_kana": "オオムタシ",
    "town": "上内",
    "town_kana": "カミウチ",
    "street": null,
    "office_name": null,
    "office_name_kana": null
  },
  "0903": {
    "zip_code": "8370903",
    "prefecture": "福岡県",
    "prefecture_kana": "フクオカケン",
    "prefecture_code": 40,
    "city": "大牟田市",
    "city_kana": "オオムタシ",
    "town": "宮崎",
    "town_kana": "ミヤザキ",
    "street": null,
    "office_name": null,
    "office_name_kana": null
  },
  "0904": {
    "zip_code": "8370904",
    "prefecture": "福岡県",
    "prefecture_kana": "フクオカケン",
    "prefecture_code": 40,
    "city": "大牟田市",
    "city_kana": "オオムタシ",
    "town": "吉野",
    "town_kana": "ヨシノ",
    "street": null,
    "office_name": null,
    "office_name_kana": null
  },
  "0905": {
    "zip_code": "8370905",
    "prefecture": "福岡県",
    "prefecture_kana": "フクオカケン",
    "prefecture_code": 40,
    "city": "大牟田市",
    "city_kana": "オオムタシ",
    "town": "甘木",
    "town_kana": "アマギ",
    "street": null,
    "office_name": null,
    "office_name_kana": null
  },
  "0906": {
    "zip_code": "8370906",
    "prefecture": "福岡県",
    "prefecture_kana": "フクオカケン",
    "prefecture_code": 40,
    "city": "大牟田市",
    "city_kana": "オオムタシ",
    "town": "倉永",
    "town_kana": "クラナガ",
    "street": null,
    "office_name": null,
    "office_name_kana": null
  },
  "0907": {
    "zip_code": "8370907",
    "prefecture": "福岡県",
    "prefecture_kana": "フクオカケン",
    "prefecture_code": 40,
    "city": "大牟田市",
    "city_kana": "オオムタシ",
    "town": "四箇新町",
    "town_kana": "シカシンマチ",
    "street": null,
    "office_name": null,
    "office_name_kana": null
  },
  "0910": {
    "zip_code": "8370910",
    "prefecture": "福岡県",
    "prefecture_kana": "フクオカケン",
    "prefecture_code": 40,
    "city": "大牟田市",
    "city_kana": "オオムタシ",
    "town": "岩本新町",
    "town_kana": "イワモトシンマチ",
    "street": null,
    "office_name": null,
    "office_name_kana": null
  },
  "0911": {
    "zip_code": "8370911",
    "prefecture": "福岡県",
    "prefecture_kana": "フクオカケン",
    "prefecture_code": 40,
    "city": "大牟田市",
    "city_kana": "オオムタシ",
    "town": "橘",
    "town_kana": "タチバナ",
    "street": null,
    "office_name": null,
    "office_name_kana": null
  },
  "0912": {
    "zip_code": "8370912",
    "prefecture": "福岡県",
    "prefecture_kana": "フクオカケン",
    "prefecture_code": 40,
    "city": "大牟田市",
    "city_kana": "オオムタシ",
    "town": "白銀",
    "town_kana": "シラガネ",
    "street": null,
    "office_name": null,
    "office_name_kana": null
  },
  "0913": {
    "zip_code": "8370913",
    "prefecture": "福岡県",
    "prefecture_kana": "フクオカケン",
    "prefecture_code": 40,
    "city": "大牟田市",
    "city_kana": "オオムタシ",
    "town": "岩本",
    "town_kana": "イワモト",
    "street": null,
    "office_name": null,
    "office_name_kana": null
  },
  "0914": {
    "zip_code": "8370914",
    "prefecture": "福岡県",
    "prefecture_kana": "フクオカケン",
    "prefecture_code": 40,
    "city": "大牟田市",
    "city_kana": "オオムタシ",
    "town": "宮部",
    "town_kana": "ミヤベ",
    "street": null,
    "office_name": null,
    "office_name_kana": null
  },
  "0915": {
    "zip_code": "8370915",
    "prefecture": "福岡県",
    "prefecture_kana": "フクオカケン",
    "prefecture_code": 40,
    "city": "大牟田市",
    "city_kana": "オオムタシ",
    "town": "久福木",
    "town_kana": "クブキ",
    "street": null,
    "office_name": null,
    "office_name_kana": null
  },
  "0916": {
    "zip_code": "8370916",
    "prefecture": "福岡県",
    "prefecture_kana": "フクオカケン",
    "prefecture_code": 40,
    "city": "大牟田市",
    "city_kana": "オオムタシ",
    "town": "田隈",
    "town_kana": "タクマ",
    "street": null,
    "office_name": null,
    "office_name_kana": null
  },
  "0917": {
    "zip_code": "8370917",
    "prefecture": "福岡県",
    "prefecture_kana": "フクオカケン",
    "prefecture_code": 40,
    "city": "大牟田市",
    "city_kana": "オオムタシ",
    "town": "草木",
    "town_kana": "クサギ",
    "street": null,
    "office_name": null,
    "office_name_kana": null
  },
  "0921": {
    "zip_code": "8370921",
    "prefecture": "福岡県",
    "prefecture_kana": "フクオカケン",
    "prefecture_code": 40,
    "city": "大牟田市",
    "city_kana": "オオムタシ",
    "town": "三池",
    "town_kana": "ミイケ",
    "street": null,
    "office_name": null,
    "office_name_kana": null
  },
  "0922": {
    "zip_code": "8370922",
    "prefecture": "福岡県",
    "prefecture_kana": "フクオカケン",
    "prefecture_code": 40,
    "city": "大牟田市",
    "city_kana": "オオムタシ",
    "town": "今山",
    "town_kana": "イマヤマ",
    "street": null,
    "office_name": null,
    "office_name_kana": null
  },
  "0923": {
    "zip_code": "8370923",
    "prefecture": "福岡県",
    "prefecture_kana": "フクオカケン",
    "prefecture_code": 40,
    "city": "大牟田市",
    "city_kana": "オオムタシ",
    "town": "新町",
    "town_kana": "シンマチ",
    "street": null,
    "office_name": null,
    "office_name_kana": null
  },
  "0924": {
    "zip_code": "8370924",
    "prefecture": "福岡県",
    "prefecture_kana": "フクオカケン",
    "prefecture_code": 40,
    "city": "大牟田市",
    "city_kana": "オオムタシ",
    "town": "歴木",
    "town_kana": "クヌギ",
    "street": null,
    "office_name": null,
    "office_name_kana": null
  },
  "0925": {
    "zip_code": "8370925",
    "prefecture": "福岡県",
    "prefecture_kana": "フクオカケン",
    "prefecture_code": 40,
    "city": "大牟田市",
    "city_kana": "オオムタシ",
    "town": "白川",
    "town_kana": "シラカワ",
    "street": null,
    "office_name": null,
    "office_name_kana": null
  },
  "0926": {
    "zip_code": "8370926",
    "prefecture": "福岡県",
    "prefecture_kana": "フクオカケン",
    "prefecture_code": 40,
    "city": "大牟田市",
    "city_kana": "オオムタシ",
    "town": "上白川町",
    "town_kana": "カミシラカワマチ",
    "street": null,
    "office_name": null,
    "office_name_kana": null
  },
  "0927": {
    "zip_code": "8370927",
    "prefecture": "福岡県",
    "prefecture_kana": "フクオカケン",
    "prefecture_code": 40,
    "city": "大牟田市",
    "city_kana": "オオムタシ",
    "town": "中白川町",
    "town_kana": "ナカシラカワマチ",
    "street": null,
    "office_name": null,
    "office_name_kana": null
  },
  "0928": {
    "zip_code": "8370928",
    "prefecture": "福岡県",
    "prefecture_kana": "フクオカケン",
    "prefecture_code": 40,
    "city": "大牟田市",
    "city_kana": "オオムタシ",
    "town": "下白川町",
    "town_kana": "シモシラカワマチ",
    "street": null,
    "office_name": null,
    "office_name_kana": null
  },
  "8501": {
    "zip_code": "8378501",
    "prefecture": "福岡県",
    "prefecture_kana": "フクオカケン",
    "prefecture_code": 40,
    "city": "大牟田市",
    "city_kana": "オオムタシ",
    "town": "歴木",
    "town_kana": "クヌギ",
    "street": "４番地１０",
    "office_name": "親仁会　米の山病院",
    "office_name_kana": "シンジンカイ コメノヤマビヨウイン"
  }
}