{
  "0000": {
    "zip_code": "8390000",
    "prefecture": "福岡県",
    "prefecture_kana": "フクオカケン",
    "prefecture_code": 40,
    "city": "久留米市",
    "city_kana": "クルメシ",
    "town": "",
    "town_kana": "",
    "street": null,
    "office_name": null,
    "office_name_kana": null
  },
  "0201": {
    "zip_code": "8390201",
    "prefecture": "福岡県",
    "prefecture_kana": "フクオカケン",
    "prefecture_code": 40,
    "city": "みやま市",
    "city_kana": "ミヤマシ",
    "town": "高田町昭和開",
    "town_kana": "タカタマチショウワビラキ",
    "street": null,
    "office_name": null,
    "office_name_kana": null
  },
  "0202": {
    "zip_code": "8390202",
    "prefecture": "福岡県",
    "prefecture_kana": "フクオカケン",
    "prefecture_code": 40,
    "city": "みやま市",
    "city_kana": "ミヤマシ",
    "town": "高田町永治",
    "town_kana": "タカタマチエイジ",
    "street": null,
    "office_name": null,
    "office_name_kana": null
  },
  "0203": {
    "zip_code": "8390203",
    "prefecture": "福岡県",
    "prefecture_kana": "フクオカケン",
    "prefecture_code": 40,
    "city": "みやま市",
    "city_kana": "ミヤマシ",
    "town": "高田町黒崎開",
    "town_kana": "タカタマチクロサキビラキ",
    "street": null,
    "office_name": null,
    "office_name_kana": null
  },
  "0204": {
    "zip_code": "8390204",
    "prefecture": "福岡県",
    "prefecture_kana": "フクオカケン",
    "prefecture_code": 40,
    "city": "みやま市",
    "city_kana": "ミヤマシ",
    "town": "高田町北新開",
    "town_kana": "タカタマチキタシンガイ",
    "street": null,
    "office_name": null,
    "office_name_kana": null
  },
  "0205": {
    "zip_code": "8390205",
    "prefecture": "福岡県",
    "prefecture_kana": "フクオカケン",
    "prefecture_code": 40,
    "city": "みやま市",
    "city_kana": "ミヤマシ",
    "town": "高田町南新開",
    "town_kana": "タカタマチミナミシンガイ",
    "street": null,
    "office_name": null,
    "office_name_kana": null
  },
  "0211": {
    "zip_code": "8390211",
    "prefecture": "福岡県",
    "prefecture_kana": "フクオカケン",
    "prefecture_code": 40,
    "city": "みやま市",
    "city_kana": "ミヤマシ",
    "town": "高田町徳島",
    "town_kana": "タカタマチトクシマ",
    "street": null,
    "office_name": null,
    "office_name_kana": null
  },
  "0212": {
    "zip_code": "8390212",
    "prefecture": "福岡県",
    "prefecture_kana": "フクオカケン",
    "prefecture_code": 40,
    "city": "みやま市",
    "city_kana": "ミヤマシ",
    "town": "高田町江浦町",
    "town_kana": "タカタマチエノウラマチ",
    "street": null,
    "office_name": null,
    "office_name_kana": null
  },
  "0213": {
    "zip_code": "8390213",
    "prefecture": "福岡県",
    "prefecture_kana": "フクオカケン",
    "prefecture_code": 40,
    "city": "みやま市",
    "city_kana": "ミヤマシ",
    "town": "高田町江浦",
    "town_kana": "タカタマチエノウラ",
    "street": null,
    "office_name": null,
    "office_name_kana": null
  },
  "0214": {
    "zip_code": "8390214",
    "prefecture": "福岡県",
    "prefecture_kana": "フクオカケン",
    "prefecture_code": 40,
    "city": "みやま市",
    "city_kana": "ミヤマシ",
    "town": "高田町今福",
    "town_kana": "タカタマチイマブク",
    "street": null,
    "office_name": null,
    "office_name_kana": null
  },
  "0215": {
    "zip_code": "8390215",
    "prefecture": "福岡県",
    "prefecture_kana": "フクオカケン",
    "prefecture_code": 40,
    "city": "みやま市",
    "city_kana": "ミヤマシ",
    "town": "高田町濃施",
    "town_kana": "タカタマチノセ",
    "street": null,
    "office_name": null,
    "office_name_kana": null
  },
  "0221": {
    "zip_code": "8390221",
    "prefecture": "福岡県",
    "prefecture_kana": "フクオカケン",
    "prefecture_code": 40,
    "city": "みやま市",
    "city_kana": "ミヤマシ",
    "town": "高田町下楠田",
    "town_kana": "タカタマチシモクスダ",
    "street": null,
    "office_name": null,
    "office_name_kana": null
  },
  "0222": {
    "zip_code": "8390222",
    "prefecture": "福岡県",
    "prefecture_kana": "フクオカケン",
    "prefecture_code": 40,
    "city": "みやま市",
    "city_kana": "ミヤマシ",
    "town": "高田町原",
    "town_kana": "タカタマチハル",
    "street": null,
    "office_name": null,
    "office_name_kana": null
  },
  "0223": {
    "zip_code": "8390223",
    "prefecture": "福岡県",
    "prefecture_kana": "フクオカケン",
    "prefecture_code": 40,
    "city": "みやま市",
    "city_kana": "ミヤマシ",
    "town": "高田町岩津",
    "town_kana": "タカタマチイワツ",
    "street": null,
    "office_name": null,
    "office_name_kana": null
  },
  "0224": {
    "zip_code": "8390224",
    "prefecture": "福岡県",
    "prefecture_kana": "フクオカケン",
    "prefecture_code": 40,
    "city": "みやま市",
    "city_kana": "ミヤマシ",
    "town": "高田町田尻",
    "town_kana": "タカタマチタジリ",
    "street": null,
    "office_name": null,
    "office_name_kana": null
  },
  "0225": {
    "zip_code": "8390225",
    "prefecture": "福岡県",
    "prefecture_kana": "フクオカケン",
    "prefecture_code": 40,
    "city": "みやま市",
    "city_kana": "ミヤマシ",
    "town": "高田町上楠田",
    "town_kana": "タカタマチカミクスダ",
    "street": null,
    "office_name": null,
    "office_name_kana": null
  },
  "0241": {
    "zip_code": "8390241",
    "prefecture": "福岡県",
    "prefecture_kana": "フクオカケン",
    "prefecture_code": 40,
    "city": "柳川市",
    "city_kana": "ヤナガワシ",
    "town": "大和町徳益",
    "town_kana": "ヤマトマチトクマス",
    "street": null,
    "office_name": null,
    "office_name_kana": null
  },
  "0242": {
    "zip_code": "8390242",
    "prefecture": "福岡県",
    "prefecture_kana": "フクオカケン",
    "prefecture_code": 40,
    "city": "柳川市",
    "city_kana": "ヤナガワシ",
    "town": "大和町豊原",
    "town_kana": "ヤマトマチトヨハラ",
    "street": null,
    "office_name": null,
    "office_name_kana": null
  },
  "0243": {
    "zip_code": "8390243",
    "prefecture": "福岡県",
    "prefecture_kana": "フクオカケン",
    "prefecture_code": 40,
    "city": "柳川市",
    "city_kana": "ヤナガワシ",
    "town": "大和町塩塚",
    "town_kana": "ヤマトマチシオツカ",
    "street": null,
    "office_name": null,
    "office_name_kana": null
  },
  "0244": {
    "zip_code": "8390244",
    "prefecture": "福岡県",
    "prefecture_kana": "フクオカケン",
    "prefecture_code": 40,
    "city": "柳川市",
    "city_kana": "ヤナガワシ",
    "town": "大和町六合",
    "town_kana": "ヤマトマチロクゴウ",
    "street": null,
    "office_name": null,
    "office_name_kana": null
  },
  "0251": {
    "zip_code": "8390251",
    "prefecture": "福岡県",
    "prefecture_kana": "フクオカケン",
    "prefecture_code": 40,
    "city": "柳川市",
    "city_kana": "ヤナガワシ",
    "town": "大和町明野",
    "town_kana": "ヤマトマチアケノ",
    "street": null,
    "office_name": null,
    "office_name_kana": null
  },
  "0252": {
    "zip_code": "8390252",
    "prefecture": "福岡県",
    "prefecture_kana": "フクオカケン",
    "prefecture_code": 40,
    "city": "柳川市",
    "city_kana": "ヤナガワシ",
    "town": "大和町栄",
    "town_kana": "ヤマトマチサカエ",
    "street": null,
    "office_name": null,
    "office_name_kana": null
  },
  "0253": {
    "zip_code": "8390253",
    "prefecture": "福岡県",
    "prefecture_kana": "フクオカケン",
    "prefecture_code": 40,
    "city": "柳川市",
    "city_kana": "ヤナガワシ",
    "town": "大和町鷹ノ尾",
    "town_kana": "ヤマトマチタカノオ",
    "street": null,
    "office_name": null,
    "office_name_kana": null
  },
  "0254": {
    "zip_code": "8390254",
    "prefecture": "福岡県",
    "prefecture_kana": "フクオカケン",
    "prefecture_code": 40,
    "city": "柳川市",
    "city_kana": "ヤナガワシ",
    "town": "大和町中島",
    "town_kana": "ヤマトマチナカシマ",
    "street": null,
    "office_name": null,
    "office_name_kana": null
  },
  "0261": {
    "zip_code": "8390261",
    "prefecture": "福岡県",
    "prefecture_kana": "フクオカケン",
    "prefecture_code": 40,
    "city": "柳川市",
    "city_kana": "ヤナガワシ",
    "town": "大和町皿垣開",
    "town_kana": "ヤマトマチサラカキビラキ",
    "street": null,
    "office_name": null,
    "office_name_kana": null
  },
  "0262": {
    "zip_code": "8390262",
    "prefecture": "福岡県",
    "prefecture_kana": "フクオカケン",
    "prefecture_code": 40,
    "city": "柳川市",
    "city_kana": "ヤナガワシ",
    "town": "大和町永田開",
    "town_kana": "ヤマトマチナガタビラキ",
    "street": null,
    "office_name": null,
    "office_name_kana": null
  },
  "0263": {
    "zip_code": "8390263",
    "prefecture": "福岡県",
    "prefecture_kana": "フクオカケン",
    "prefecture_code": 40,
    "city": "柳川市",
    "city_kana": "ヤナガワシ",
    "town": "大和町大坪",
    "town_kana": "ヤマトマチオオツボ",
    "street": null,
    "office_name": null,
    "office_name_kana": null
  },
  "0264": {
    "zip_code": "8390264",
    "prefecture": "福岡県",
    "prefecture_kana": "フクオカケン",
    "prefecture_code": 40,
    "city": "柳川市",
    "city_kana": "ヤナガワシ",
    "town": "大和町谷垣",
    "town_kana": "ヤマトマチタニガキ",
    "street": null,
    "office_name": null,
    "office_name_kana": null
  },
  "0292": {
    "zip_code": "8390292",
    "prefecture": "福岡県",
    "prefecture_kana": "フクオカケン",
    "prefecture_code": 40,
    "city": "みやま市",
    "city_kana": "ミヤマシ",
    "town": "高田町濃施",
    "town_kana": "タカタマチノセ",
    "street": "４８０",
    "office_name": "みやま市役所　高田支所",
    "office_name_kana": "ミヤマシヤクシヨ タカタシシヨ"
  },
  "0293": {
    "zip_code": "8390293",
    "prefecture": "福岡県",
    "prefecture_kana": "フクオカケン",
    "prefecture_code": 40,
    "city": "柳川市",
    "city_kana": "ヤナガワシ",
    "town": "大和町鷹ノ尾",
    "town_kana": "ヤマトマチタカノオ",
    "street": "１２０",
    "office_name": "柳川市役所　大和庁舎",
    "office_name_kana": "ヤナガワシヤクシヨ ヤマトチヨウシヤ"
  },
  "0295": {
    "zip_code": "8390295",
    "prefecture": "福岡県",
    "prefecture_kana": "フクオカケン",
    "prefecture_code": 40,
    "city": "みやま市",
    "city_kana": "ミヤマシ",
    "town": "高田町濃施",
    "town_kana": "タカタマチノセ",
    "street": "４８０−２",
    "office_name": "医療法人　弘恵会ヨコクラ病院",
    "office_name_kana": "イリヨウホウジン コウケイカイヨコクラビヨウイン"
  },
  "0801": {
    "zip_code": "8390801",
    "prefecture": "福岡県",
    "prefecture_kana": "フクオカケン",
    "prefecture_code": 40,
    "city": "久留米市",
    "city_kana": "クルメシ",
    "town": "宮ノ陣",
    "town_kana": "ミヤノジン",
    "street": null,
    "office_name": null,
    "office_name_kana": null
  },
  "0802": {
    "zip_code": "8390802",
    "prefecture": "福岡県",
    "prefecture_kana": "フクオカケン",
    "prefecture_code": 40,
    "city": "久留米市",
    "city_kana": "クルメシ",
    "town": "宮ノ陣町五郎丸",
    "town_kana": "ミヤノジンマチゴロウマル",
    "street": null,
    "office_name": null,
    "office_name_kana": null
  },
  "0803": {
    "zip_code": "8390803",
    "prefecture": "福岡県",
    "prefecture_kana": "フクオカケン",
    "prefecture_code": 40,
    "city": "久留米市",
    "city_kana": "クルメシ",
    "town": "宮ノ陣町大杜",
    "town_kana": "ミヤノジンマチオオト",
    "street": null,
    "office_name": null,
    "office_name_kana": null
  },
  "0804": {
    "zip_code": "8390804",
    "prefecture": "福岡県",
    "prefecture_kana": "フクオカケン",
    "prefecture_code": 40,
    "city": "久留米市",
    "city_kana": "クルメシ",
    "town": "宮ノ陣町若松",
    "town_kana": "ミヤノジンマチワカマツ",
    "street": null,
    "office_name": null,
    "office_name_kana": null
  },
  "0805": {
    "zip_code": "8390805",
    "prefecture": "福岡県",
    "prefecture_kana": "フクオカケン",
    "prefecture_code": 40,
    "city": "久留米市",
    "city_kana": "クルメシ",
    "town": "宮ノ陣町八丁島",
    "town_kana": "ミヤノジンマチハッチョウジマ",
    "street": null,
    "office_name": null,
    "office_name_kana": null
  },
  "0806": {
    "zip_code": "8390806",
    "prefecture": "福岡県",
    "prefecture_kana": "フクオカケン",
    "prefecture_code": 40,
    "city": "久留米市",
    "city_kana": "クルメシ",
    "town": "東合川干出町",
    "town_kana": "ヒガシアイカワヒイデマチ",
    "street": null,
    "office_name": null,
    "office_name_kana": null
  },
  "0807": {
    "zip_code": "8390807",
    "prefecture": "福岡県",
    "prefecture_kana": "フクオカケン",
    "prefecture_code": 40,
    "city": "久留米市",
    "city_kana": "クルメシ",
    "town": "東合川町",
    "town_kana": "ヒガシアイカワマチ",
    "street": null,
    "office_name": null,
    "office_name_kana": null
  },
  "0808": {
    "zip_code": "8390808",
    "prefecture": "福岡県",
    "prefecture_kana": "フクオカケン",
    "prefecture_code": 40,
    "city": "久留米市",
    "city_kana": "クルメシ",
    "town": "東合川新町",
    "town_kana": "ヒガシアイカワシンマチ",
    "street": null,
    "office_name": null,
    "office_name_kana": null
  },
  "0809": {
    "zip_code": "8390809",
    "prefecture": "福岡県",
    "prefecture_kana": "フクオカケン",
    "prefecture_code": 40,
    "city": "久留米市",
    "city_kana": "クルメシ",
    "town": "東合川",
    "town_kana": "ヒガシアイカワ",
    "street": null,
    "office_name": null,
    "office_name_kana": null
  },
  "0811": {
    "zip_code": "8390811",
    "prefecture": "福岡県",
    "prefecture_kana": "フクオカケン",
    "prefecture_code": 40,
    "city": "久留米市",
    "city_kana": "クルメシ",
    "town": "山川神代",
    "town_kana": "ヤマカワクマシロ",
    "street": null,
    "office_name": null,
    "office_name_kana": null
  },
  "0812": {
    "zip_code": "8390812",
    "prefecture": "福岡県",
    "prefecture_kana": "フクオカケン",
    "prefecture_code": 40,
    "city": "久留米市",
    "city_kana": "クルメシ",
    "town": "山川安居野",
    "town_kana": "ヤマカワアイノ",
    "street": null,
    "office_name": null,
    "office_name_kana": null
  },
  "0813": {
    "zip_code": "8390813",
    "prefecture": "福岡県",
    "prefecture_kana": "フクオカケン",
    "prefecture_code": 40,
    "city": "久留米市",
    "city_kana": "クルメシ",
    "town": "山川市ノ上町",
    "town_kana": "ヤマカワイチノウエマチ",
    "street": null,
    "office_name": null,
    "office_name_kana": null
  },
  "0814": {
    "zip_code": "8390814",
    "prefecture": "福岡県",
    "prefecture_kana": "フクオカケン",
    "prefecture_code": 40,
    "city": "久留米市",
    "city_kana": "クルメシ",
    "town": "山川追分",
    "town_kana": "ヤマカワオイワケ",
    "street": null,
    "office_name": null,
    "office_name_kana": null
  },
  "0815": {
    "zip_code": "8390815",
    "prefecture": "福岡県",
    "prefecture_kana": "フクオカケン",
    "prefecture_code": 40,
    "city": "久留米市",
    "city_kana": "クルメシ",
    "town": "山川沓形町",
    "town_kana": "ヤマカワクツガタマチ",
    "street": null,
    "office_name": null,
    "office_name_kana": null
  },
  "0816": {
    "zip_code": "8390816",
    "prefecture": "福岡県",
    "prefecture_kana": "フクオカケン",
    "prefecture_code": 40,
    "city": "久留米市",
    "city_kana": "クルメシ",
    "town": "山川野口町",
    "town_kana": "ヤマカワノグチマチ",
    "street": null,
    "office_name": null,
    "office_name_kana": null
  },
  "0817": {
    "zip_code": "8390817",
    "prefecture": "福岡県",
    "prefecture_kana": "フクオカケン",
    "prefecture_code": 40,
    "city": "久留米市",
    "city_kana": "クルメシ",
    "town": "山川町",
    "town_kana": "ヤマカワマチ",
    "street": null,
    "office_name": null,
    "office_name_kana": null
  },
  "0821": {
    "zip_code": "8390821",
    "prefecture": "福岡県",
    "prefecture_kana": "フクオカケン",
    "prefecture_code": 40,
    "city": "久留米市",
    "city_kana": "クルメシ",
    "town": "太郎原町",
    "town_kana": "ダイロバルマチ",
    "street": null,
    "office_name": null,
    "office_name_kana": null
  },
  "0822": {
    "zip_code": "8390822",
    "prefecture": "福岡県",
    "prefecture_kana": "フクオカケン",
    "prefecture_code": 40,
    "city": "久留米市",
    "city_kana": "クルメシ",
    "town": "善導寺町木塚",
    "town_kana": "ゼンドウジマチキヅカ",
    "street": null,
    "office_name": null,
    "office_name_kana": null
  },
  "0823": {
    "zip_code": "8390823",
    "prefecture": "福岡県",
    "prefecture_kana": "フクオカケン",
    "prefecture_code": 40,
    "city": "久留米市",
    "city_kana": "クルメシ",
    "town": "善導寺町与田",
    "town_kana": "ゼンドウジマチヨダ",
    "street": null,
    "office_name": null,
    "office_name_kana": null
  },
  "0824": {
    "zip_code": "8390824",
    "prefecture": "福岡県",
    "prefecture_kana": "フクオカケン",
    "prefecture_code": 40,
    "city": "久留米市",
    "city_kana": "クルメシ",
    "town": "善導寺町飯田",
    "town_kana": "ゼンドウジマチイイダ",
    "street": null,
    "office_name": null,
    "office_name_kana": null
  },
  "0825": {
    "zip_code": "8390825",
    "prefecture": "福岡県",
    "prefecture_kana": "フクオカケン",
    "prefecture_code": 40,
    "city": "久留米市",
    "city_kana": "クルメシ",
    "town": "善導寺町島",
    "town_kana": "ゼンドウジマチシマ",
    "street": null,
    "office_name": null,
    "office_name_kana": null
  },
  "0826": {
    "zip_code": "8390826",
    "prefecture": "福岡県",
    "prefecture_kana": "フクオカケン",
    "prefecture_code": 40,
    "city": "久留米市",
    "city_kana": "クルメシ",
    "town": "山本町耳納",
    "town_kana": "ヤマモトマチミノウ",
    "street": null,
    "office_name": null,
    "office_name_kana": null
  },
  "0827": {
    "zip_code": "8390827",
    "prefecture": "福岡県",
    "prefecture_kana": "フクオカケン",
    "prefecture_code": 40,
    "city": "久留米市",
    "city_kana": "クルメシ",
    "town": "山本町豊田",
    "town_kana": "ヤマモトマチトヨダ",
    "street": null,
    "office_name": null,
    "office_name_kana": null
  },
  "0831": {
    "zip_code": "8390831",
    "prefecture": "福岡県",
    "prefecture_kana": "フクオカケン",
    "prefecture_code": 40,
    "city": "久留米市",
    "city_kana": "クルメシ",
    "town": "大橋町蜷川",
    "town_kana": "オオハシマチニナガワ",
    "street": null,
    "office_name": null,
    "office_name_kana": null
  },
  "0832": {
    "zip_code": "8390832",
    "prefecture": "福岡県",
    "prefecture_kana": "フクオカケン",
    "prefecture_code": 40,
    "city": "久留米市",
    "city_kana": "クルメシ",
    "town": "大橋町合楽",
    "town_kana": "オオハシマチアイラク",
    "street": null,
    "office_name": null,
    "office_name_kana": null
  },
  "0833": {
    "zip_code": "8390833",
    "prefecture": "福岡県",
    "prefecture_kana": "フクオカケン",
    "prefecture_code": 40,
    "city": "久留米市",
    "city_kana": "クルメシ",
    "town": "大橋町常持",
    "town_kana": "オオハシマチツネモチ",
    "street": null,
    "office_name": null,
    "office_name_kana": null
  },
  "0834": {
    "zip_code": "8390834",
    "prefecture": "福岡県",
    "prefecture_kana": "フクオカケン",
    "prefecture_code": 40,
    "city": "久留米市",
    "city_kana": "クルメシ",
    "town": "草野町紅桃林",
    "town_kana": "クサノマチコトバヤシ",
    "street": null,
    "office_name": null,
    "office_name_kana": null
  },
  "0835": {
    "zip_code": "8390835",
    "prefecture": "福岡県",
    "prefecture_kana": "フクオカケン",
    "prefecture_code": 40,
    "city": "久留米市",
    "city_kana": "クルメシ",
    "town": "草野町草野",
    "town_kana": "クサノマチクサノ",
    "street": null,
    "office_name": null,
    "office_name_kana": null
  },
  "0836": {
    "zip_code": "8390836",
    "prefecture": "福岡県",
    "prefecture_kana": "フクオカケン",
    "prefecture_code": 40,
    "city": "久留米市",
    "city_kana": "クルメシ",
    "town": "草野町吉木",
    "town_kana": "クサノマチヨシキ",
    "street": null,
    "office_name": null,
    "office_name_kana": null
  },
  "0837": {
    "zip_code": "8390837",
    "prefecture": "福岡県",
    "prefecture_kana": "フクオカケン",
    "prefecture_code": 40,
    "city": "久留米市",
    "city_kana": "クルメシ",
    "town": "草野町矢作",
    "town_kana": "クサノマチヤハギ",
    "street": null,
    "office_name": null,
    "office_name_kana": null
  },
  "0841": {
    "zip_code": "8390841",
    "prefecture": "福岡県",
    "prefecture_kana": "フクオカケン",
    "prefecture_code": 40,
    "city": "久留米市",
    "city_kana": "クルメシ",
    "town": "御井旗崎",
    "town_kana": "ミイハタザキ",
    "street": null,
    "office_name": null,
    "office_name_kana": null
  },
  "0842": {
    "zip_code": "8390842",
    "prefecture": "福岡県",
    "prefecture_kana": "フクオカケン",
    "prefecture_code": 40,
    "city": "久留米市",
    "city_kana": "クルメシ",
    "town": "御井朝妻",
    "town_kana": "ミイアサヅマ",
    "street": null,
    "office_name": null,
    "office_name_kana": null
  },
  "0843": {
    "zip_code": "8390843",
    "prefecture": "福岡県",
    "prefecture_kana": "フクオカケン",
    "prefecture_code": 40,
    "city": "久留米市",
    "city_kana": "クルメシ",
    "town": "朝妻町",
    "town_kana": "アサヅママチ",
    "street": null,
    "office_name": null,
    "office_name_kana": null
  },
  "0851": {
    "zip_code": "8390851",
    "prefecture": "福岡県",
    "prefecture_kana": "フクオカケン",
    "prefecture_code": 40,
    "city": "久留米市",
    "city_kana": "クルメシ",
    "town": "御井町",
    "town_kana": "ミイマチ",
    "street": null,
    "office_name": null,
    "office_name_kana": null
  },
  "0852": {
    "zip_code": "8390852",
    "prefecture": "福岡県",
    "prefecture_kana": "フクオカケン",
    "prefecture_code": 40,
    "city": "久留米市",
    "city_kana": "クルメシ",
    "town": "高良内町",
    "town_kana": "コウラウチマチ",
    "street": null,
    "office_name": null,
    "office_name_kana": null
  },
  "0853": {
    "zip_code": "8390853",
    "prefecture": "福岡県",
    "prefecture_kana": "フクオカケン",
    "prefecture_code": 40,
    "city": "久留米市",
    "city_kana": "クルメシ",
    "town": "青峰",
    "town_kana": "セイホウ",
    "street": null,
    "office_name": null,
    "office_name_kana": null
  },
  "0861": {
    "zip_code": "8390861",
    "prefecture": "福岡県",
    "prefecture_kana": "フクオカケン",
    "prefecture_code": 40,
    "city": "久留米市",
    "city_kana": "クルメシ",
    "town": "合川町",
    "town_kana": "アイカワマチ",
    "street": null,
    "office_name": null,
    "office_name_kana": null
  },
  "0862": {
    "zip_code": "8390862",
    "prefecture": "福岡県",
    "prefecture_kana": "フクオカケン",
    "prefecture_code": 40,
    "city": "久留米市",
    "city_kana": "クルメシ",
    "town": "野中町",
    "town_kana": "ノナカマチ",
    "street": null,
    "office_name": null,
    "office_name_kana": null
  },
  "0863": {
    "zip_code": "8390863",
    "prefecture": "福岡県",
    "prefecture_kana": "フクオカケン",
    "prefecture_code": 40,
    "city": "久留米市",
    "city_kana": "クルメシ",
    "town": "国分町",
    "town_kana": "コクブマチ",
    "street": null,
    "office_name": null,
    "office_name_kana": null
  },
  "0864": {
    "zip_code": "8390864",
    "prefecture": "福岡県",
    "prefecture_kana": "フクオカケン",
    "prefecture_code": 40,
    "city": "久留米市",
    "city_kana": "クルメシ",
    "town": "百年公園",
    "town_kana": "ヒャクネンコウエン",
    "street": null,
    "office_name": null,
    "office_name_kana": null
  },
  "0865": {
    "zip_code": "8390865",
    "prefecture": "福岡県",
    "prefecture_kana": "フクオカケン",
    "prefecture_code": 40,
    "city": "久留米市",
    "city_kana": "クルメシ",
    "town": "新合川",
    "town_kana": "シンアイカワ",
    "street": null,
    "office_name": null,
    "office_name_kana": null
  },
  "1201": {
    "zip_code": "8391201",
    "prefecture": "福岡県",
    "prefecture_kana": "フクオカケン",
    "prefecture_code": 40,
    "city": "久留米市",
    "city_kana": "クルメシ",
    "town": "田主丸町長栖",
    "town_kana": "タヌシマルマチナガス",
    "street": null,
    "office_name": null,
    "office_name_kana": null
  },
  "1202": {
    "zip_code": "8391202",
    "prefecture": "福岡県",
    "prefecture_kana": "フクオカケン",
    "prefecture_code": 40,
    "city": "久留米市",
    "city_kana": "クルメシ",
    "town": "田主丸町鷹取",
    "town_kana": "タヌシマルマチタカトリ",
    "street": null,
    "office_name": null,
    "office_name_kana": null
  },
  "1203": {
    "zip_code": "8391203",
    "prefecture": "福岡県",
    "prefecture_kana": "フクオカケン",
    "prefecture_code": 40,
    "city": "久留米市",
    "city_kana": "クルメシ",
    "town": "田主丸町秋成",
    "town_kana": "タヌシマルマチアキナリ",
    "street": null,
    "office_name": null,
    "office_name_kana": null
  },
  "1204": {
    "zip_code": "8391204",
    "prefecture": "福岡県",
    "prefecture_kana": "フクオカケン",
    "prefecture_code": 40,
    "city": "久留米市",
    "city_kana": "クルメシ",
    "town": "田主丸町殖木",
    "town_kana": "タヌシマルマチフエキ",
    "street": null,
    "office_name": null,
    "office_name_kana": null
  },
  "1205": {
    "zip_code": "8391205",
    "prefecture": "福岡県",
    "prefecture_kana": "フクオカケン",
    "prefecture_code": 40,
    "city": "久留米市",
    "city_kana": "クルメシ",
    "town": "田主丸町船越",
    "town_kana": "タヌシマルマチフナゴシ",
    "street": null,
    "office_name": null,
    "office_name_kana": null
  },
  "1206": {
    "zip_code": "8391206",
    "prefecture": "福岡県",
    "prefecture_kana": "フクオカケン",
    "prefecture_code": 40,
    "city": "久留米市",
    "city_kana": "クルメシ",
    "town": "田主丸町吉本",
    "town_kana": "タヌシマルマチヨシモト",
    "street": null,
    "office_name": null,
    "office_name_kana": null
  },
  "1211": {
    "zip_code": "8391211",
    "prefecture": "福岡県",
    "prefecture_kana": "フクオカケン",
    "prefecture_code": 40,
    "city": "久留米市",
    "city_kana": "クルメシ",
    "town": "田主丸町森部",
    "town_kana": "タヌシマルマチモリベ",
    "street": null,
    "office_name": null,
    "office_name_kana": null
  },
  "1212": {
    "zip_code": "8391212",
    "prefecture": "福岡県",
    "prefecture_kana": "フクオカケン",
    "prefecture_code": 40,
    "city": "久留米市",
    "city_kana": "クルメシ",
    "town": "田主丸町石垣",
    "town_kana": "タヌシマルマチイシカキ",
    "street": null,
    "office_name": null,
    "office_name_kana": null
  },
  "1213": {
    "zip_code": "8391213",
    "prefecture": "福岡県",
    "prefecture_kana": "フクオカケン",
    "prefecture_code": 40,
    "city": "久留米市",
    "city_kana": "クルメシ",
    "town": "田主丸町益生田",
    "town_kana": "タヌシマルマチマスオダ",
    "street": null,
    "office_name": null,
    "office_name_kana": null
  },
  "1214": {
    "zip_code": "8391214",
    "prefecture": "福岡県",
    "prefecture_kana": "フクオカケン",
    "prefecture_code": 40,
    "city": "久留米市",
    "city_kana": "クルメシ",
    "town": "田主丸町地徳",
    "town_kana": "タヌシマルマチチトク",
    "street": null,
    "office_name": null,
    "office_name_kana": null
  },
  "1215": {
    "zip_code": "8391215",
    "prefecture": "福岡県",
    "prefecture_kana": "フクオカケン",
    "prefecture_code": 40,
    "city": "久留米市",
    "city_kana": "クルメシ",
    "town": "田主丸町竹野",
    "town_kana": "タヌシマルマチタケノ",
    "street": null,
    "office_name": null,
    "office_name_kana": null
  },
  "1216": {
    "zip_code": "8391216",
    "prefecture": "福岡県",
    "prefecture_kana": "フクオカケン",
    "prefecture_code": 40,
    "city": "久留米市",
    "city_kana": "クルメシ",
    "town": "田主丸町中尾",
    "town_kana": "タヌシマルマチナカオ",
    "street": null,
    "office_name": null,
    "office_name_kana": null
  },
  "1221": {
    "zip_code": "8391221",
    "prefecture": "福岡県",
    "prefecture_kana": "フクオカケン",
    "prefecture_code": 40,
    "city": "久留米市",
    "city_kana": "クルメシ",
    "town": "田主丸町上原",
    "town_kana": "タヌシマルマチカミハル",
    "street": null,
    "office_name": null,
    "office_name_kana": null
  },
  "1222": {
    "zip_code": "8391222",
    "prefecture": "福岡県",
    "prefecture_kana": "フクオカケン",
    "prefecture_code": 40,
    "city": "久留米市",
    "city_kana": "クルメシ",
    "town": "田主丸町志塚島",
    "town_kana": "タヌシマルマチシツカシマ",
    "street": null,
    "office_name": null,
    "office_name_kana": null
  },
  "1223": {
    "zip_code": "8391223",
    "prefecture": "福岡県",
    "prefecture_kana": "フクオカケン",
    "prefecture_code": 40,
    "city": "久留米市",
    "city_kana": "クルメシ",
    "town": "田主丸町以真恵",
    "town_kana": "タヌシマルマチイマエ",
    "street": null,
    "office_name": null,
    "office_name_kana": null
  },
  "1224": {
    "zip_code": "8391224",
    "prefecture": "福岡県",
    "prefecture_kana": "フクオカケン",
    "prefecture_code": 40,
    "city": "久留米市",
    "city_kana": "クルメシ",
    "town": "田主丸町牧",
    "town_kana": "タヌシマルマチマキ",
    "street": null,
    "office_name": null,
    "office_name_kana": null
  },
  "1225": {
    "zip_code": "8391225",
    "prefecture": "福岡県",
    "prefecture_kana": "フクオカケン",
    "prefecture_code": 40,
    "city": "久留米市",
    "city_kana": "クルメシ",
    "town": "田主丸町菅原",
    "town_kana": "タヌシマルマチスガハラ",
    "street": null,
    "office_name": null,
    "office_name_kana": null
  },
  "1226": {
    "zip_code": "8391226",
    "prefecture": "福岡県",
    "prefecture_kana": "フクオカケン",
    "prefecture_code": 40,
    "city": "久留米市",
    "city_kana": "クルメシ",
    "town": "田主丸町八幡",
    "town_kana": "タヌシマルマチヤハタ",
    "street": null,
    "office_name": null,
    "office_name_kana": null
  },
  "1227": {
    "zip_code": "8391227",
    "prefecture": "福岡県",
    "prefecture_kana": "フクオカケン",
    "prefecture_code": 40,
    "city": "久留米市",
    "city_kana": "クルメシ",
    "town": "田主丸町朝森",
    "town_kana": "タヌシマルマチアサモリ",
    "street": null,
    "office_name": null,
    "office_name_kana": null
  },
  "1228": {
    "zip_code": "8391228",
    "prefecture": "福岡県",
    "prefecture_kana": "フクオカケン",
    "prefecture_code": 40,
    "city": "久留米市",
    "city_kana": "クルメシ",
    "town": "田主丸町恵利",
    "town_kana": "タヌシマルマチエリ",
    "street": null,
    "office_name": null,
    "office_name_kana": null
  },
  "1231": {
    "zip_code": "8391231",
    "prefecture": "福岡県",
    "prefecture_kana": "フクオカケン",
    "prefecture_code": 40,
    "city": "久留米市",
    "city_kana": "クルメシ",
    "town": "田主丸町野田",
    "town_kana": "タヌシマルマチノダ",
    "street": null,
    "office_name": null,
    "office_name_kana": null
  },
  "1232": {
    "zip_code": "8391232",
    "prefecture": "福岡県",
    "prefecture_kana": "フクオカケン",
    "prefecture_code": 40,
    "city": "久留米市",
    "city_kana": "クルメシ",
    "town": "田主丸町常盤",
    "town_kana": "タヌシマルマチトキワ",
    "street": null,
    "office_name": null,
    "office_name_kana": null
  },
  "1233": {
    "zip_code": "8391233",
    "prefecture": "福岡県",
    "prefecture_kana": "フクオカケン",
    "prefecture_code": 40,
    "city": "久留米市",
    "city_kana": "クルメシ",
    "town": "田主丸町田主丸",
    "town_kana": "タヌシマルマチタヌシマル",
    "street": null,
    "office_name": null,
    "office_name_kana": null
  },
  "1234": {
    "zip_code": "8391234",
    "prefecture": "福岡県",
    "prefecture_kana": "フクオカケン",
    "prefecture_code": 40,
    "city": "久留米市",
    "city_kana": "クルメシ",
    "town": "田主丸町豊城",
    "town_kana": "タヌシマルマチトヨキ",
    "street": null,
    "office_name": null,
    "office_name_kana": null
  },
  "1298": {
    "zip_code": "8391298",
    "prefecture": "福岡県",
    "prefecture_kana": "フクオカケン",
    "prefecture_code": 40,
    "city": "久留米市",
    "city_kana": "クルメシ",
    "town": "田主丸町田主丸",
    "town_kana": "タヌシマルマチタヌシマル",
    "street": "４５９−１１",
    "office_name": "久留米市　田主丸　総合支所",
    "office_name_kana": "クルメシ タヌシマル ソウゴウシシヨ"
  },
  "1301": {
    "zip_code": "8391301",
    "prefecture": "福岡県",
    "prefecture_kana": "フクオカケン",
    "prefecture_code": 40,
    "city": "うきは市",
    "city_kana": "ウキハシ",
    "town": "吉井町桜井",
    "town_kana": "ヨシイマチサクライ",
    "street": null,
    "office_name": null,
    "office_name_kana": null
  },
  "1302": {
    "zip_code": "8391302",
    "prefecture": "福岡県",
    "prefecture_kana": "フクオカケン",
    "prefecture_code": 40,
    "city": "うきは市",
    "city_kana": "ウキハシ",
    "town": "吉井町徳丸",
    "town_kana": "ヨシイマチトクマル",
    "street": null,
    "office_name": null,
    "office_name_kana": null
  },
  "1303": {
    "zip_code": "8391303",
    "prefecture": "福岡県",
    "prefecture_kana": "フクオカケン",
    "prefecture_code": 40,
    "city": "うきは市",
    "city_kana": "ウキハシ",
    "town": "吉井町宮田",
    "town_kana": "ヨシイマチミヤダ",
    "street": null,
    "office_name": null,
    "office_name_kana": null
  },
  "1304": {
    "zip_code": "8391304",
    "prefecture": "福岡県",
    "prefecture_kana": "フクオカケン",
    "prefecture_code": 40,
    "city": "うきは市",
    "city_kana": "ウキハシ",
    "town": "吉井町千年",
    "town_kana": "ヨシイマチチトセ",
    "street": null,
    "office_name": null,
    "office_name_kana": null
  },
  "1305": {
    "zip_code": "8391305",
    "prefecture": "福岡県",
    "prefecture_kana": "フクオカケン",
    "prefecture_code": 40,
    "city": "うきは市",
    "city_kana": "ウキハシ",
    "town": "吉井町福永",
    "town_kana": "ヨシイマチフクナガ",
    "street": null,
    "office_name": null,
    "office_name_kana": null
  },
  "1306": {
    "zip_code": "8391306",
    "prefecture": "福岡県",
    "prefecture_kana": "フクオカケン",
    "prefecture_code": 40,
    "city": "うきは市",
    "city_kana": "ウキハシ",
    "town": "吉井町新治",
    "town_kana": "ヨシイマチニイハル",
    "street": null,
    "office_name": null,
    "office_name_kana": null
  },
  "1307": {
    "zip_code": "8391307",
    "prefecture": "福岡県",
    "prefecture_kana": "フクオカケン",
    "prefecture_code": 40,
    "city": "うきは市",
    "city_kana": "ウキハシ",
    "town": "吉井町橘田",
    "town_kana": "ヨシイマチタチバナダ",
    "street": null,
    "office_name": null,
    "office_name_kana": null
  },
  "1308": {
    "zip_code": "8391308",
    "prefecture": "福岡県",
    "prefecture_kana": "フクオカケン",
    "prefecture_code": 40,
    "city": "うきは市",
    "city_kana": "ウキハシ",
    "town": "吉井町八和田",
    "town_kana": "ヨシイマチヤワタ",
    "street": null,
    "office_name": null,
    "office_name_kana": null
  },
  "1311": {
    "zip_code": "8391311",
    "prefecture": "福岡県",
    "prefecture_kana": "フクオカケン",
    "prefecture_code": 40,
    "city": "うきは市",
    "city_kana": "ウキハシ",
    "town": "吉井町若宮",
    "town_kana": "ヨシイマチワカミヤ",
    "street": null,
    "office_name": null,
    "office_name_kana": null
  },
  "1312": {
    "zip_code": "8391312",
    "prefecture": "福岡県",
    "prefecture_kana": "フクオカケン",
    "prefecture_code": 40,
    "city": "うきは市",
    "city_kana": "ウキハシ",
    "town": "吉井町清瀬",
    "town_kana": "ヨシイマチキヨセ",
    "street": null,
    "office_name": null,
    "office_name_kana": null
  },
  "1321": {
    "zip_code": "8391321",
    "prefecture": "福岡県",
    "prefecture_kana": "フクオカケン",
    "prefecture_code": 40,
    "city": "うきは市",
    "city_kana": "ウキハシ",
    "town": "吉井町",
    "town_kana": "ヨシイマチ",
    "street": null,
    "office_name": null,
    "office_name_kana": null
  },
  "1331": {
    "zip_code": "8391331",
    "prefecture": "福岡県",
    "prefecture_kana": "フクオカケン",
    "prefecture_code": 40,
    "city": "うきは市",
    "city_kana": "ウキハシ",
    "town": "吉井町屋部",
    "town_kana": "ヨシイマチヤベ",
    "street": null,
    "office_name": null,
    "office_name_kana": null
  },
  "1332": {
    "zip_code": "8391332",
    "prefecture": "福岡県",
    "prefecture_kana": "フクオカケン",
    "prefecture_code": 40,
    "city": "うきは市",
    "city_kana": "ウキハシ",
    "town": "吉井町福益",
    "town_kana": "ヨシイマチフクマス",
    "street": null,
    "office_name": null,
    "office_name_kana": null
  },
  "1333": {
    "zip_code": "8391333",
    "prefecture": "福岡県",
    "prefecture_kana": "フクオカケン",
    "prefecture_code": 40,
    "city": "うきは市",
    "city_kana": "ウキハシ",
    "town": "吉井町富永",
    "town_kana": "ヨシイマチトミナガ",
    "street": null,
    "office_name": null,
    "office_name_kana": null
  },
  "1341": {
    "zip_code": "8391341",
    "prefecture": "福岡県",
    "prefecture_kana": "フクオカケン",
    "prefecture_code": 40,
    "city": "うきは市",
    "city_kana": "ウキハシ",
    "town": "吉井町江南",
    "town_kana": "ヨシイマチエナミ",
    "street": null,
    "office_name": null,
    "office_name_kana": null
  },
  "1342": {
    "zip_code": "8391342",
    "prefecture": "福岡県",
    "prefecture_kana": "フクオカケン",
    "prefecture_code": 40,
    "city": "うきは市",
    "city_kana": "ウキハシ",
    "town": "吉井町生葉",
    "town_kana": "ヨシイマチイクハ",
    "street": null,
    "office_name": null,
    "office_name_kana": null
  },
  "1343": {
    "zip_code": "8391343",
    "prefecture": "福岡県",
    "prefecture_kana": "フクオカケン",
    "prefecture_code": 40,
    "city": "うきは市",
    "city_kana": "ウキハシ",
    "town": "吉井町鷹取",
    "town_kana": "ヨシイマチタカトリ",
    "street": null,
    "office_name": null,
    "office_name_kana": null
  },
  "1344": {
    "zip_code": "8391344",
    "prefecture": "福岡県",
    "prefecture_kana": "フクオカケン",
    "prefecture_code": 40,
    "city": "うきは市",
    "city_kana": "ウキハシ",
    "town": "吉井町長栖",
    "town_kana": "ヨシイマチナガス",
    "street": null,
    "office_name": null,
    "office_name_kana": null
  },
  "1393": {
    "zip_code": "8391393",
    "prefecture": "福岡県",
    "prefecture_kana": "フクオカケン",
    "prefecture_code": 40,
    "city": "うきは市",
    "city_kana": "ウキハシ",
    "town": "吉井町新治",
    "town_kana": "ヨシイマチニイハル",
    "street": "３１６",
    "office_name": "うきは市役所　吉井庁舎",
    "office_name_kana": "ウキハシヤクシヨ ヨシイチヨウシヤ"
  },
  "1394": {
    "zip_code": "8391394",
    "prefecture": "福岡県",
    "prefecture_kana": "フクオカケン",
    "prefecture_code": 40,
    "city": "うきは市",
    "city_kana": "ウキハシ",
    "town": "吉井町",
    "town_kana": "ヨシイマチ",
    "street": "２２０−３",
    "office_name": "合資会社　鳥志商店",
    "office_name_kana": "ゴウシガイシヤ トリシシヨウテン"
  },
  "1395": {
    "zip_code": "8391395",
    "prefecture": "福岡県",
    "prefecture_kana": "フクオカケン",
    "prefecture_code": 40,
    "city": "うきは市",
    "city_kana": "ウキハシ",
    "town": "吉井町",
    "town_kana": "ヨシイマチ",
    "street": "１９１−１",
    "office_name": "株式会社　栗木商店",
    "office_name_kana": "カブシキガイシヤ クリキシヨウテン"
  },
  "1396": {
    "zip_code": "8391396",
    "prefecture": "福岡県",
    "prefecture_kana": "フクオカケン",
    "prefecture_code": 40,
    "city": "うきは市",
    "city_kana": "ウキハシ",
    "town": "吉井町福益",
    "town_kana": "ヨシイマチフクマス",
    "street": "９０−１",
    "office_name": "株式会社　筑水キャニコム",
    "office_name_kana": "カブシキガイシヤ チクスイキヤニコム"
  },
  "1400": {
    "zip_code": "8391400",
    "prefecture": "福岡県",
    "prefecture_kana": "フクオカケン",
    "prefecture_code": 40,
    "city": "うきは市",
    "city_kana": "ウキハシ",
    "town": "",
    "town_kana": "",
    "street": null,
    "office_name": null,
    "office_name_kana": null
  },
  "1401": {
    "zip_code": "8391401",
    "prefecture": "福岡県",
    "prefecture_kana": "フクオカケン",
    "prefecture_code": 40,
    "city": "うきは市",
    "city_kana": "ウキハシ",
    "town": "浮羽町朝田",
    "town_kana": "ウキハマチアサダ",
    "street": null,
    "office_name": null,
    "office_name_kana": null
  },
  "1402": {
    "zip_code": "8391402",
    "prefecture": "福岡県",
    "prefecture_kana": "フクオカケン",
    "prefecture_code": 40,
    "city": "うきは市",
    "city_kana": "ウキハシ",
    "town": "浮羽町浮羽",
    "town_kana": "ウキハマチウキハ",
    "street": null,
    "office_name": null,
    "office_name_kana": null
  },
  "1403": {
    "zip_code": "8391403",
    "prefecture": "福岡県",
    "prefecture_kana": "フクオカケン",
    "prefecture_code": 40,
    "city": "うきは市",
    "city_kana": "ウキハシ",
    "town": "浮羽町東隈上",
    "town_kana": "ウキハマチヒガシクマノウエ",
    "street": null,
    "office_name": null,
    "office_name_kana": null
  },
  "1404": {
    "zip_code": "8391404",
    "prefecture": "福岡県",
    "prefecture_kana": "フクオカケン",
    "prefecture_code": 40,
    "city": "うきは市",
    "city_kana": "ウキハシ",
    "town": "浮羽町西隈上",
    "town_kana": "ウキハマチニシクマノウエ",
    "street": null,
    "office_name": null,
    "office_name_kana": null
  },
  "1405": {
    "zip_code": "8391405",
    "prefecture": "福岡県",
    "prefecture_kana": "フクオカケン",
    "prefecture_code": 40,
    "city": "うきは市",
    "city_kana": "ウキハシ",
    "town": "浮羽町古川",
    "town_kana": "ウキハマチフルカワ",
    "street": null,
    "office_name": null,
    "office_name_kana": null
  },
  "1406": {
    "zip_code": "8391406",
    "prefecture": "福岡県",
    "prefecture_kana": "フクオカケン",
    "prefecture_code": 40,
    "city": "うきは市",
    "city_kana": "ウキハシ",
    "town": "浮羽町高見",
    "town_kana": "ウキハマチタカミ",
    "street": null,
    "office_name": null,
    "office_name_kana": null
  },
  "1407": {
    "zip_code": "8391407",
    "prefecture": "福岡県",
    "prefecture_kana": "フクオカケン",
    "prefecture_code": 40,
    "city": "うきは市",
    "city_kana": "ウキハシ",
    "town": "浮羽町三春",
    "town_kana": "ウキハマチミハル",
    "street": null,
    "office_name": null,
    "office_name_kana": null
  },
  "1408": {
    "zip_code": "8391408",
    "prefecture": "福岡県",
    "prefecture_kana": "フクオカケン",
    "prefecture_code": 40,
    "city": "うきは市",
    "city_kana": "ウキハシ",
    "town": "浮羽町山北",
    "town_kana": "ウキハマチヤマキタ",
    "street": null,
    "office_name": null,
    "office_name_kana": null
  },
  "1411": {
    "zip_code": "8391411",
    "prefecture": "福岡県",
    "prefecture_kana": "フクオカケン",
    "prefecture_code": 40,
    "city": "うきは市",
    "city_kana": "ウキハシ",
    "town": "浮羽町流川",
    "town_kana": "ウキハマチナガレカワ",
    "street": null,
    "office_name": null,
    "office_name_kana": null
  },
  "1412": {
    "zip_code": "8391412",
    "prefecture": "福岡県",
    "prefecture_kana": "フクオカケン",
    "prefecture_code": 40,
    "city": "うきは市",
    "city_kana": "ウキハシ",
    "town": "浮羽町小塩",
    "town_kana": "ウキハマチコジオ",
    "street": null,
    "office_name": null,
    "office_name_kana": null
  },
  "1413": {
    "zip_code": "8391413",
    "prefecture": "福岡県",
    "prefecture_kana": "フクオカケン",
    "prefecture_code": 40,
    "city": "うきは市",
    "city_kana": "ウキハシ",
    "town": "浮羽町新川",
    "town_kana": "ウキハマチニイカワ",
    "street": null,
    "office_name": null,
    "office_name_kana": null
  },
  "1414": {
    "zip_code": "8391414",
    "prefecture": "福岡県",
    "prefecture_kana": "フクオカケン",
    "prefecture_code": 40,
    "city": "うきは市",
    "city_kana": "ウキハシ",
    "town": "浮羽町田篭",
    "town_kana": "ウキハマチタゴモリ",
    "street": null,
    "office_name": null,
    "office_name_kana": null
  },
  "1415": {
    "zip_code": "8391415",
    "prefecture": "福岡県",
    "prefecture_kana": "フクオカケン",
    "prefecture_code": 40,
    "city": "うきは市",
    "city_kana": "ウキハシ",
    "town": "浮羽町妹川",
    "town_kana": "ウキハマチイモガワ",
    "street": null,
    "office_name": null,
    "office_name_kana": null
  },
  "1421": [
    {
      "zip_code": "8391421",
      "prefecture": "大分県",
      "prefecture_kana": "オオイタケン",
      "prefecture_code": 44,
      "city": "日田市",
      "city_kana": "ヒタシ",
      "town": "前津江町柚木",
      "town_kana": "マエツエマチユウギ",
      "street": null,
      "office_name": null,
      "office_name_kana": null
    },
    {
      "zip_code": "8391421",
      "prefecture": "大分県",
      "prefecture_kana": "オオイタケン",
      "prefecture_code": 44,
      "city": "日田市",
      "city_kana": "ヒタシ",
      "town": "前津江町柚木千歳木",
      "town_kana": "マエツエマチユウギチトセギ",
      "street": null,
      "office_name": null,
      "office_name_kana": null
    },
    {
      "zip_code": "8391421",
      "prefecture": "大分県",
      "prefecture_kana": "オオイタケン",
      "prefecture_code": 44,
      "city": "日田市",
      "city_kana": "ヒタシ",
      "town": "前津江町柚木塔ノ本",
      "town_kana": "マエツエマチユウギトウノモト",
      "street": null,
      "office_name": null,
      "office_name_kana": null
    },
    {
      "zip_code": "8391421",
      "prefecture": "大分県",
      "prefecture_kana": "オオイタケン",
      "prefecture_code": 44,
      "city": "日田市",
      "city_kana": "ヒタシ",
      "town": "前津江町柚木仁田原",
      "town_kana": "マエツエマチユウギニタバル",
      "street": null,
      "office_name": null,
      "office_name_kana": null
    },
    {
      "zip_code": "8391421",
      "prefecture": "大分県",
      "prefecture_kana": "オオイタケン",
      "prefecture_code": 44,
      "city": "日田市",
      "city_kana": "ヒタシ",
      "town": "前津江町柚木本村",
      "town_kana": "マエツエマチユウギホンムラ",
      "street": null,
      "office_name": null,
      "office_name_kana": null
    }
  ],
  "1493": {
    "zip_code": "8391493",
    "prefecture": "福岡県",
    "prefecture_kana": "フクオカケン",
    "prefecture_code": 40,
    "city": "うきは市",
    "city_kana": "ウキハシ",
    "town": "浮羽町朝田",
    "town_kana": "ウキハマチアサダ",
    "street": "５８４−１",
    "office_name": "にじ農業協同組合　御幸支所",
    "office_name_kana": "ニジノウギヨウキヨウドウクミアイ ミユキシシヨ"
  },
  "1497": {
    "zip_code": "8391497",
    "prefecture": "福岡県",
    "prefecture_kana": "フクオカケン",
    "prefecture_code": 40,
    "city": "うきは市",
    "city_kana": "ウキハシ",
    "town": "浮羽町朝田",
    "town_kana": "ウキハマチアサダ",
    "street": "５８２−１",
    "office_name": "うきは市役所　浮羽庁舎",
    "office_name_kana": "ウキハシヤクシヨ ウキハチヨウシヤ"
  },
  "1498": {
    "zip_code": "8391498",
    "prefecture": "福岡県",
    "prefecture_kana": "フクオカケン",
    "prefecture_code": 40,
    "city": "うきは市",
    "city_kana": "ウキハシ",
    "town": "浮羽町高見",
    "town_kana": "ウキハマチタカミ",
    "street": "２１５",
    "office_name": "株式会社　ユニ・スター",
    "office_name_kana": "カブシキガイシヤ ユニ・スタ-"
  },
  "8501": {
    "zip_code": "8398501",
    "prefecture": "福岡県",
    "prefecture_kana": "フクオカケン",
    "prefecture_code": 40,
    "city": "久留米市",
    "city_kana": "クルメシ",
    "town": "合川町",
    "town_kana": "アイカワマチ",
    "street": "２１９０−３",
    "office_name": "久留米市企業局水道ガス部",
    "office_name_kana": "クルメシキギヨウキヨクスイドウガスブ"
  },
  "8502": {
    "zip_code": "8398502",
    "prefecture": "福岡県",
    "prefecture_kana": "フクオカケン",
    "prefecture_code": 40,
    "city": "久留米市",
    "city_kana": "クルメシ",
    "town": "御井町",
    "town_kana": "ミイマチ",
    "street": "１６３５",
    "office_name": "久留米大学御井学舎",
    "office_name_kana": "クルメダイガクミイガクシヤ"
  },
  "8505": {
    "zip_code": "8398505",
    "prefecture": "福岡県",
    "prefecture_kana": "フクオカケン",
    "prefecture_code": 40,
    "city": "久留米市",
    "city_kana": "クルメシ",
    "town": "高良内町",
    "town_kana": "コウラウチマチ",
    "street": "２７２８",
    "office_name": "陸上自衛隊　幹部候補生学校",
    "office_name_kana": "リクジヨウジエイタイ カンブコウホセイガツコウ"
  },
  "8506": {
    "zip_code": "8398506",
    "prefecture": "福岡県",
    "prefecture_kana": "フクオカケン",
    "prefecture_code": 40,
    "city": "久留米市",
    "city_kana": "クルメシ",
    "town": "百年公園",
    "town_kana": "ヒャクネンコウエン",
    "street": "１番１号久留米リサーチセンタービル事務所棟３階",
    "office_name": "公益財団法人　福岡県すこやか健康事業団総合検診センター",
    "office_name_kana": "コウエキザイダンホウジン フクオカケンスコヤカケンコウジギヨウダンソウゴウケンシンセンタ-"
  },
  "8508": {
    "zip_code": "8398508",
    "prefecture": "福岡県",
    "prefecture_kana": "フクオカケン",
    "prefecture_code": 40,
    "city": "久留米市",
    "city_kana": "クルメシ",
    "town": "御井町",
    "town_kana": "ミイマチ",
    "street": "２２７８−１",
    "office_name": "学校法人　久留米信愛女学院",
    "office_name_kana": "ガツコウホウジン クルメシンアイジヨガクイン"
  },
  "8540": {
    "zip_code": "8398540",
    "prefecture": "福岡県",
    "prefecture_kana": "フクオカケン",
    "prefecture_code": 40,
    "city": "久留米市",
    "city_kana": "クルメシ",
    "town": "宮ノ陣町若松",
    "town_kana": "ミヤノジンマチワカマツ",
    "street": "１−４５",
    "office_name": "コマツ西日本　株式会社",
    "office_name_kana": "コマツニシニホン カブシキガイシヤ"
  }
}