{
  "0001": {
    "zip_code": "8400001",
    "prefecture": "佐賀県",
    "prefecture_kana": "サガケン",
    "prefecture_code": "41",
    "city": "佐賀市",
    "city_kana": "サガシ",
    "town": "巨勢町修理田",
    "town_kana": "コセマチシュリタ",
    "street": null,
    "office_name": null,
    "office_name_kana": null
  },
  "0002": {
    "zip_code": "8400002",
    "prefecture": "佐賀県",
    "prefecture_kana": "サガケン",
    "prefecture_code": "41",
    "city": "佐賀市",
    "city_kana": "サガシ",
    "town": "蓮池町見島",
    "town_kana": "ハスイケマチミシマ",
    "street": null,
    "office_name": null,
    "office_name_kana": null
  },
  "0003": {
    "zip_code": "8400003",
    "prefecture": "佐賀県",
    "prefecture_kana": "サガケン",
    "prefecture_code": "41",
    "city": "佐賀市",
    "city_kana": "サガシ",
    "town": "蓮池町古賀",
    "town_kana": "ハスイケマチコガ",
    "street": null,
    "office_name": null,
    "office_name_kana": null
  },
  "0004": {
    "zip_code": "8400004",
    "prefecture": "佐賀県",
    "prefecture_kana": "サガケン",
    "prefecture_code": "41",
    "city": "佐賀市",
    "city_kana": "サガシ",
    "town": "蓮池町小松",
    "town_kana": "ハスイケマチコマツ",
    "street": null,
    "office_name": null,
    "office_name_kana": null
  },
  "0005": {
    "zip_code": "8400005",
    "prefecture": "佐賀県",
    "prefecture_kana": "サガケン",
    "prefecture_code": "41",
    "city": "佐賀市",
    "city_kana": "サガシ",
    "town": "蓮池町蓮池",
    "town_kana": "ハスイケマチハスイケ",
    "street": null,
    "office_name": null,
    "office_name_kana": null
  },
  "0006": {
    "zip_code": "8400006",
    "prefecture": "佐賀県",
    "prefecture_kana": "サガケン",
    "prefecture_code": "41",
    "city": "佐賀市",
    "city_kana": "サガシ",
    "town": "巨勢町東西",
    "town_kana": "コセマチトウザイ",
    "street": null,
    "office_name": null,
    "office_name_kana": null
  },
  "0007": {
    "zip_code": "8400007",
    "prefecture": "佐賀県",
    "prefecture_kana": "サガケン",
    "prefecture_code": "41",
    "city": "佐賀市",
    "city_kana": "サガシ",
    "town": "巨勢町高尾",
    "town_kana": "コセマチタカオ",
    "street": null,
    "office_name": null,
    "office_name_kana": null
  },
  "0008": {
    "zip_code": "8400008",
    "prefecture": "佐賀県",
    "prefecture_kana": "サガケン",
    "prefecture_code": "41",
    "city": "佐賀市",
    "city_kana": "サガシ",
    "town": "巨勢町牛島",
    "town_kana": "コセマチウシジマ",
    "street": null,
    "office_name": null,
    "office_name_kana": null
  },
  "0011": {
    "zip_code": "8400011",
    "prefecture": "佐賀県",
    "prefecture_kana": "サガケン",
    "prefecture_code": "41",
    "city": "佐賀市",
    "city_kana": "サガシ",
    "town": "北川副町江上",
    "town_kana": "キタカワソエマチエガミ",
    "street": null,
    "office_name": null,
    "office_name_kana": null
  },
  "0012": {
    "zip_code": "8400012",
    "prefecture": "佐賀県",
    "prefecture_kana": "サガケン",
    "prefecture_code": "41",
    "city": "佐賀市",
    "city_kana": "サガシ",
    "town": "北川副町光法",
    "town_kana": "キタカワソエマチミツノリ",
    "street": null,
    "office_name": null,
    "office_name_kana": null
  },
  "0013": {
    "zip_code": "8400013",
    "prefecture": "佐賀県",
    "prefecture_kana": "サガケン",
    "prefecture_code": "41",
    "city": "佐賀市",
    "city_kana": "サガシ",
    "town": "北川副町新郷",
    "town_kana": "キタカワソエマチシンゴウ",
    "street": null,
    "office_name": null,
    "office_name_kana": null
  },
  "0015": {
    "zip_code": "8400015",
    "prefecture": "佐賀県",
    "prefecture_kana": "サガケン",
    "prefecture_code": "41",
    "city": "佐賀市",
    "city_kana": "サガシ",
    "town": "木原",
    "town_kana": "キハラ",
    "street": null,
    "office_name": null,
    "office_name_kana": null
  },
  "0016": {
    "zip_code": "8400016",
    "prefecture": "佐賀県",
    "prefecture_kana": "サガケン",
    "prefecture_code": "41",
    "city": "佐賀市",
    "city_kana": "サガシ",
    "town": "南佐賀",
    "town_kana": "ミナミサガ",
    "street": null,
    "office_name": null,
    "office_name_kana": null
  },
  "0017": {
    "zip_code": "8400017",
    "prefecture": "佐賀県",
    "prefecture_kana": "サガケン",
    "prefecture_code": "41",
    "city": "佐賀市",
    "city_kana": "サガシ",
    "town": "新郷本町",
    "town_kana": "シンゴウホンマチ",
    "street": null,
    "office_name": null,
    "office_name_kana": null
  },
  "0021": {
    "zip_code": "8400021",
    "prefecture": "佐賀県",
    "prefecture_kana": "サガケン",
    "prefecture_code": "41",
    "city": "佐賀市",
    "city_kana": "サガシ",
    "town": "鬼丸町",
    "town_kana": "オニマルチョウ",
    "street": null,
    "office_name": null,
    "office_name_kana": null
  },
  "0022": {
    "zip_code": "8400022",
    "prefecture": "佐賀県",
    "prefecture_kana": "サガケン",
    "prefecture_code": "41",
    "city": "佐賀市",
    "city_kana": "サガシ",
    "town": "中の館町",
    "town_kana": "ナカノタテマチ",
    "street": null,
    "office_name": null,
    "office_name_kana": null
  },
  "0023": {
    "zip_code": "8400023",
    "prefecture": "佐賀県",
    "prefecture_kana": "サガケン",
    "prefecture_code": "41",
    "city": "佐賀市",
    "city_kana": "サガシ",
    "town": "本庄町袋",
    "town_kana": "ホンジョウマチフクロ",
    "street": null,
    "office_name": null,
    "office_name_kana": null
  },
  "0024": {
    "zip_code": "8400024",
    "prefecture": "佐賀県",
    "prefecture_kana": "サガケン",
    "prefecture_code": "41",
    "city": "佐賀市",
    "city_kana": "サガシ",
    "town": "本庄町末次",
    "town_kana": "ホンジョウマチスエツグ",
    "street": null,
    "office_name": null,
    "office_name_kana": null
  },
  "0025": {
    "zip_code": "8400025",
    "prefecture": "佐賀県",
    "prefecture_kana": "サガケン",
    "prefecture_code": "41",
    "city": "佐賀市",
    "city_kana": "サガシ",
    "town": "本庄町鹿子",
    "town_kana": "ホンジョウマチカノコ",
    "street": null,
    "office_name": null,
    "office_name_kana": null
  },
  "0026": {
    "zip_code": "8400026",
    "prefecture": "佐賀県",
    "prefecture_kana": "サガケン",
    "prefecture_code": "41",
    "city": "佐賀市",
    "city_kana": "サガシ",
    "town": "本庄町正里",
    "town_kana": "ホンジョウマチショウリ",
    "street": null,
    "office_name": null,
    "office_name_kana": null
  },
  "0027": {
    "zip_code": "8400027",
    "prefecture": "佐賀県",
    "prefecture_kana": "サガケン",
    "prefecture_code": "41",
    "city": "佐賀市",
    "city_kana": "サガシ",
    "town": "本庄町本庄",
    "town_kana": "ホンジョウマチホンジョウ",
    "street": null,
    "office_name": null,
    "office_name_kana": null
  },
  "0031": {
    "zip_code": "8400031",
    "prefecture": "佐賀県",
    "prefecture_kana": "サガケン",
    "prefecture_code": "41",
    "city": "佐賀市",
    "city_kana": "サガシ",
    "town": "下田町",
    "town_kana": "シモダマチ",
    "street": null,
    "office_name": null,
    "office_name_kana": null
  },
  "0032": {
    "zip_code": "8400032",
    "prefecture": "佐賀県",
    "prefecture_kana": "サガケン",
    "prefecture_code": "41",
    "city": "佐賀市",
    "city_kana": "サガシ",
    "town": "末広",
    "town_kana": "スエヒロ",
    "street": null,
    "office_name": null,
    "office_name_kana": null
  },
  "0033": {
    "zip_code": "8400033",
    "prefecture": "佐賀県",
    "prefecture_kana": "サガケン",
    "prefecture_code": "41",
    "city": "佐賀市",
    "city_kana": "サガシ",
    "town": "光",
    "town_kana": "ヒカリ",
    "street": null,
    "office_name": null,
    "office_name_kana": null
  },
  "0034": {
    "zip_code": "8400034",
    "prefecture": "佐賀県",
    "prefecture_kana": "サガケン",
    "prefecture_code": "41",
    "city": "佐賀市",
    "city_kana": "サガシ",
    "town": "西与賀町厘外",
    "town_kana": "ニシヨカマチリンゲ",
    "street": null,
    "office_name": null,
    "office_name_kana": null
  },
  "0035": {
    "zip_code": "8400035",
    "prefecture": "佐賀県",
    "prefecture_kana": "サガケン",
    "prefecture_code": "41",
    "city": "佐賀市",
    "city_kana": "サガシ",
    "town": "西与賀町今津",
    "town_kana": "ニシヨカマチイマヅ",
    "street": null,
    "office_name": null,
    "office_name_kana": null
  },
  "0036": {
    "zip_code": "8400036",
    "prefecture": "佐賀県",
    "prefecture_kana": "サガケン",
    "prefecture_code": "41",
    "city": "佐賀市",
    "city_kana": "サガシ",
    "town": "西与賀町高太郎",
    "town_kana": "ニシヨカマチタカタロウ",
    "street": null,
    "office_name": null,
    "office_name_kana": null
  },
  "0037": {
    "zip_code": "8400037",
    "prefecture": "佐賀県",
    "prefecture_kana": "サガケン",
    "prefecture_code": "41",
    "city": "佐賀市",
    "city_kana": "サガシ",
    "town": "西与賀町相応津",
    "town_kana": "ニシヨカマチソウオウツ",
    "street": null,
    "office_name": null,
    "office_name_kana": null
  },
  "0041": {
    "zip_code": "8400041",
    "prefecture": "佐賀県",
    "prefecture_kana": "サガケン",
    "prefecture_code": "41",
    "city": "佐賀市",
    "city_kana": "サガシ",
    "town": "城内",
    "town_kana": "ジョウナイ",
    "street": null,
    "office_name": null,
    "office_name_kana": null
  },
  "0042": {
    "zip_code": "8400042",
    "prefecture": "佐賀県",
    "prefecture_kana": "サガケン",
    "prefecture_code": "41",
    "city": "佐賀市",
    "city_kana": "サガシ",
    "town": "赤松町",
    "town_kana": "アカマツマチ",
    "street": null,
    "office_name": null,
    "office_name_kana": null
  },
  "0043": {
    "zip_code": "8400043",
    "prefecture": "佐賀県",
    "prefecture_kana": "サガケン",
    "prefecture_code": "41",
    "city": "佐賀市",
    "city_kana": "サガシ",
    "town": "精町",
    "town_kana": "シラゲマチ",
    "street": null,
    "office_name": null,
    "office_name_kana": null
  },
  "0044": {
    "zip_code": "8400044",
    "prefecture": "佐賀県",
    "prefecture_kana": "サガケン",
    "prefecture_code": "41",
    "city": "佐賀市",
    "city_kana": "サガシ",
    "town": "道祖元町",
    "town_kana": "サヤノモトマチ",
    "street": null,
    "office_name": null,
    "office_name_kana": null
  },
  "0045": {
    "zip_code": "8400045",
    "prefecture": "佐賀県",
    "prefecture_kana": "サガケン",
    "prefecture_code": "41",
    "city": "佐賀市",
    "city_kana": "サガシ",
    "town": "西田代",
    "town_kana": "ニシタシロ",
    "street": null,
    "office_name": null,
    "office_name_kana": null
  },
  "0046": {
    "zip_code": "8400046",
    "prefecture": "佐賀県",
    "prefecture_kana": "サガケン",
    "prefecture_code": "41",
    "city": "佐賀市",
    "city_kana": "サガシ",
    "town": "西魚町",
    "town_kana": "ニシウオマチ",
    "street": null,
    "office_name": null,
    "office_name_kana": null
  },
  "0047": {
    "zip_code": "8400047",
    "prefecture": "佐賀県",
    "prefecture_kana": "サガケン",
    "prefecture_code": "41",
    "city": "佐賀市",
    "city_kana": "サガシ",
    "town": "与賀町",
    "town_kana": "ヨカマチ",
    "street": null,
    "office_name": null,
    "office_name_kana": null
  },
  "0051": {
    "zip_code": "8400051",
    "prefecture": "佐賀県",
    "prefecture_kana": "サガケン",
    "prefecture_code": "41",
    "city": "佐賀市",
    "city_kana": "サガシ",
    "town": "田代",
    "town_kana": "タシロ",
    "street": null,
    "office_name": null,
    "office_name_kana": null
  },
  "0052": {
    "zip_code": "8400052",
    "prefecture": "佐賀県",
    "prefecture_kana": "サガケン",
    "prefecture_code": "41",
    "city": "佐賀市",
    "city_kana": "サガシ",
    "town": "今宿町",
    "town_kana": "イマシュクマチ",
    "street": null,
    "office_name": null,
    "office_name_kana": null
  },
  "0053": {
    "zip_code": "8400053",
    "prefecture": "佐賀県",
    "prefecture_kana": "サガケン",
    "prefecture_code": "41",
    "city": "佐賀市",
    "city_kana": "サガシ",
    "town": "朝日町",
    "town_kana": "アサヒマチ",
    "street": null,
    "office_name": null,
    "office_name_kana": null
  },
  "0054": {
    "zip_code": "8400054",
    "prefecture": "佐賀県",
    "prefecture_kana": "サガケン",
    "prefecture_code": "41",
    "city": "佐賀市",
    "city_kana": "サガシ",
    "town": "水ケ江",
    "town_kana": "ミズガエ",
    "street": null,
    "office_name": null,
    "office_name_kana": null
  },
  "0055": {
    "zip_code": "8400055",
    "prefecture": "佐賀県",
    "prefecture_kana": "サガケン",
    "prefecture_code": "41",
    "city": "佐賀市",
    "city_kana": "サガシ",
    "town": "材木",
    "town_kana": "ザイモク",
    "street": null,
    "office_name": null,
    "office_name_kana": null
  },
  "0056": {
    "zip_code": "8400056",
    "prefecture": "佐賀県",
    "prefecture_kana": "サガケン",
    "prefecture_code": "41",
    "city": "佐賀市",
    "city_kana": "サガシ",
    "town": "紺屋町",
    "town_kana": "コンヤマチ",
    "street": null,
    "office_name": null,
    "office_name_kana": null
  },
  "0201": {
    "zip_code": "8400201",
    "prefecture": "佐賀県",
    "prefecture_kana": "サガケン",
    "prefecture_code": "41",
    "city": "佐賀市",
    "city_kana": "サガシ",
    "town": "大和町尼寺",
    "town_kana": "ヤマトチョウニイジ",
    "street": null,
    "office_name": null,
    "office_name_kana": null
  },
  "0202": {
    "zip_code": "8400202",
    "prefecture": "佐賀県",
    "prefecture_kana": "サガケン",
    "prefecture_code": "41",
    "city": "佐賀市",
    "city_kana": "サガシ",
    "town": "大和町久池井",
    "town_kana": "ヤマトチョウクチイ",
    "street": null,
    "office_name": null,
    "office_name_kana": null
  },
  "0203": {
    "zip_code": "8400203",
    "prefecture": "佐賀県",
    "prefecture_kana": "サガケン",
    "prefecture_code": "41",
    "city": "佐賀市",
    "city_kana": "サガシ",
    "town": "大和町梅野",
    "town_kana": "ヤマトチョウウメノ",
    "street": null,
    "office_name": null,
    "office_name_kana": null
  },
  "0204": {
    "zip_code": "8400204",
    "prefecture": "佐賀県",
    "prefecture_kana": "サガケン",
    "prefecture_code": "41",
    "city": "佐賀市",
    "city_kana": "サガシ",
    "town": "大和町松瀬",
    "town_kana": "ヤマトチョウマツセ",
    "street": null,
    "office_name": null,
    "office_name_kana": null
  },
  "0205": {
    "zip_code": "8400205",
    "prefecture": "佐賀県",
    "prefecture_kana": "サガケン",
    "prefecture_code": "41",
    "city": "佐賀市",
    "city_kana": "サガシ",
    "town": "大和町名尾",
    "town_kana": "ヤマトチョウナオ",
    "street": null,
    "office_name": null,
    "office_name_kana": null
  },
  "0211": {
    "zip_code": "8400211",
    "prefecture": "佐賀県",
    "prefecture_kana": "サガケン",
    "prefecture_code": "41",
    "city": "佐賀市",
    "city_kana": "サガシ",
    "town": "大和町東山田",
    "town_kana": "ヤマトチョウヒガシヤマダ",
    "street": null,
    "office_name": null,
    "office_name_kana": null
  },
  "0212": {
    "zip_code": "8400212",
    "prefecture": "佐賀県",
    "prefecture_kana": "サガケン",
    "prefecture_code": "41",
    "city": "佐賀市",
    "city_kana": "サガシ",
    "town": "大和町池上",
    "town_kana": "ヤマトチョウイケノウエ",
    "street": null,
    "office_name": null,
    "office_name_kana": null
  },
  "0213": {
    "zip_code": "8400213",
    "prefecture": "佐賀県",
    "prefecture_kana": "サガケン",
    "prefecture_code": "41",
    "city": "佐賀市",
    "city_kana": "サガシ",
    "town": "大和町久留間",
    "town_kana": "ヤマトチョウクルマ",
    "street": null,
    "office_name": null,
    "office_name_kana": null
  },
  "0214": {
    "zip_code": "8400214",
    "prefecture": "佐賀県",
    "prefecture_kana": "サガケン",
    "prefecture_code": "41",
    "city": "佐賀市",
    "city_kana": "サガシ",
    "town": "大和町川上",
    "town_kana": "ヤマトチョウカワカミ",
    "street": null,
    "office_name": null,
    "office_name_kana": null
  },
  "0215": {
    "zip_code": "8400215",
    "prefecture": "佐賀県",
    "prefecture_kana": "サガケン",
    "prefecture_code": "41",
    "city": "佐賀市",
    "city_kana": "サガシ",
    "town": "大和町八反原",
    "town_kana": "ヤマトチョウハッタバル",
    "street": null,
    "office_name": null,
    "office_name_kana": null
  },
  "0292": {
    "zip_code": "8400292",
    "prefecture": "佐賀県",
    "prefecture_kana": null,
    "prefecture_code": null,
    "city": "佐賀市",
    "city_kana": null,
    "town": "大和町大字尼寺",
    "town_kana": null,
    "street": "１８７０",
    "office_name": "佐賀市　大和支所",
    "office_name_kana": "サガシ ヤマトシシヨ"
  },
  "0501": {
    "zip_code": "8400501",
    "prefecture": "佐賀県",
    "prefecture_kana": "サガケン",
    "prefecture_code": "41",
    "city": "佐賀市",
    "city_kana": "サガシ",
    "town": "富士町古湯",
    "town_kana": "フジチョウフルユ",
    "street": null,
    "office_name": null,
    "office_name_kana": null
  },
  "0502": {
    "zip_code": "8400502",
    "prefecture": "佐賀県",
    "prefecture_kana": "サガケン",
    "prefecture_code": "41",
    "city": "佐賀市",
    "city_kana": "サガシ",
    "town": "富士町杉山",
    "town_kana": "フジチョウスギヤマ",
    "street": null,
    "office_name": null,
    "office_name_kana": null
  },
  "0503": {
    "zip_code": "8400503",
    "prefecture": "佐賀県",
    "prefecture_kana": "サガケン",
    "prefecture_code": "41",
    "city": "佐賀市",
    "city_kana": "サガシ",
    "town": "富士町市川",
    "town_kana": "フジチョウイチカワ",
    "street": null,
    "office_name": null,
    "office_name_kana": null
  },
  "0504": {
    "zip_code": "8400504",
    "prefecture": "佐賀県",
    "prefecture_kana": "サガケン",
    "prefecture_code": "41",
    "city": "佐賀市",
    "city_kana": "サガシ",
    "town": "富士町苣木",
    "town_kana": "フジチョウチャノキ",
    "street": null,
    "office_name": null,
    "office_name_kana": null
  },
  "0511": {
    "zip_code": "8400511",
    "prefecture": "佐賀県",
    "prefecture_kana": "サガケン",
    "prefecture_code": "41",
    "city": "佐賀市",
    "city_kana": "サガシ",
    "town": "富士町鎌原",
    "town_kana": "フジチョウカマバル",
    "street": null,
    "office_name": null,
    "office_name_kana": null
  },
  "0512": {
    "zip_code": "8400512",
    "prefecture": "佐賀県",
    "prefecture_kana": "サガケン",
    "prefecture_code": "41",
    "city": "佐賀市",
    "city_kana": "サガシ",
    "town": "富士町上熊川",
    "town_kana": "フジチョウカミクマカワ",
    "street": null,
    "office_name": null,
    "office_name_kana": null
  },
  "0513": {
    "zip_code": "8400513",
    "prefecture": "佐賀県",
    "prefecture_kana": "サガケン",
    "prefecture_code": "41",
    "city": "佐賀市",
    "city_kana": "サガシ",
    "town": "富士町下熊川",
    "town_kana": "フジチョウシモクマカワ",
    "street": null,
    "office_name": null,
    "office_name_kana": null
  },
  "0514": {
    "zip_code": "8400514",
    "prefecture": "佐賀県",
    "prefecture_kana": "サガケン",
    "prefecture_code": "41",
    "city": "佐賀市",
    "city_kana": "サガシ",
    "town": "富士町内野",
    "town_kana": "フジチョウウチノ",
    "street": null,
    "office_name": null,
    "office_name_kana": null
  },
  "0515": {
    "zip_code": "8400515",
    "prefecture": "佐賀県",
    "prefecture_kana": "サガケン",
    "prefecture_code": "41",
    "city": "佐賀市",
    "city_kana": "サガシ",
    "town": "富士町松瀬",
    "town_kana": "フジチョウマツセ",
    "street": null,
    "office_name": null,
    "office_name_kana": null
  },
  "0516": {
    "zip_code": "8400516",
    "prefecture": "佐賀県",
    "prefecture_kana": "サガケン",
    "prefecture_code": "41",
    "city": "佐賀市",
    "city_kana": "サガシ",
    "town": "富士町梅野",
    "town_kana": "フジチョウウメノ",
    "street": null,
    "office_name": null,
    "office_name_kana": null
  },
  "0521": {
    "zip_code": "8400521",
    "prefecture": "佐賀県",
    "prefecture_kana": "サガケン",
    "prefecture_code": "41",
    "city": "佐賀市",
    "city_kana": "サガシ",
    "town": "富士町小副川",
    "town_kana": "フジチョウオソエガワ",
    "street": null,
    "office_name": null,
    "office_name_kana": null
  },
  "0522": {
    "zip_code": "8400522",
    "prefecture": "佐賀県",
    "prefecture_kana": "サガケン",
    "prefecture_code": "41",
    "city": "佐賀市",
    "city_kana": "サガシ",
    "town": "富士町畑瀬",
    "town_kana": "フジチョウハタセ",
    "street": null,
    "office_name": null,
    "office_name_kana": null
  },
  "0531": {
    "zip_code": "8400531",
    "prefecture": "佐賀県",
    "prefecture_kana": "サガケン",
    "prefecture_code": "41",
    "city": "佐賀市",
    "city_kana": "サガシ",
    "town": "富士町栗並",
    "town_kana": "フジチョウクリナミ",
    "street": null,
    "office_name": null,
    "office_name_kana": null
  },
  "0532": {
    "zip_code": "8400532",
    "prefecture": "佐賀県",
    "prefecture_kana": "サガケン",
    "prefecture_code": "41",
    "city": "佐賀市",
    "city_kana": "サガシ",
    "town": "富士町大野",
    "town_kana": "フジチョウオオノ",
    "street": null,
    "office_name": null,
    "office_name_kana": null
  },
  "0533": {
    "zip_code": "8400533",
    "prefecture": "佐賀県",
    "prefecture_kana": "サガケン",
    "prefecture_code": "41",
    "city": "佐賀市",
    "city_kana": "サガシ",
    "town": "富士町大串",
    "town_kana": "フジチョウオオクシ",
    "street": null,
    "office_name": null,
    "office_name_kana": null
  },
  "0534": {
    "zip_code": "8400534",
    "prefecture": "佐賀県",
    "prefecture_kana": "サガケン",
    "prefecture_code": "41",
    "city": "佐賀市",
    "city_kana": "サガシ",
    "town": "富士町中原",
    "town_kana": "フジチョウナカバル",
    "street": null,
    "office_name": null,
    "office_name_kana": null
  },
  "0535": {
    "zip_code": "8400535",
    "prefecture": "佐賀県",
    "prefecture_kana": "サガケン",
    "prefecture_code": "41",
    "city": "佐賀市",
    "city_kana": "サガシ",
    "town": "富士町下無津呂",
    "town_kana": "フジチョウシモムツロ",
    "street": null,
    "office_name": null,
    "office_name_kana": null
  },
  "0536": {
    "zip_code": "8400536",
    "prefecture": "佐賀県",
    "prefecture_kana": "サガケン",
    "prefecture_code": "41",
    "city": "佐賀市",
    "city_kana": "サガシ",
    "town": "富士町上無津呂",
    "town_kana": "フジチョウカミムツロ",
    "street": null,
    "office_name": null,
    "office_name_kana": null
  },
  "0537": {
    "zip_code": "8400537",
    "prefecture": "佐賀県",
    "prefecture_kana": "サガケン",
    "prefecture_code": "41",
    "city": "佐賀市",
    "city_kana": "サガシ",
    "town": "富士町麻那古",
    "town_kana": "フジチョウマナゴ",
    "street": null,
    "office_name": null,
    "office_name_kana": null
  },
  "0541": {
    "zip_code": "8400541",
    "prefecture": "佐賀県",
    "prefecture_kana": "サガケン",
    "prefecture_code": "41",
    "city": "佐賀市",
    "city_kana": "サガシ",
    "town": "富士町関屋",
    "town_kana": "フジチョウセキヤ",
    "street": null,
    "office_name": null,
    "office_name_kana": null
  },
  "0542": {
    "zip_code": "8400542",
    "prefecture": "佐賀県",
    "prefecture_kana": "サガケン",
    "prefecture_code": "41",
    "city": "佐賀市",
    "city_kana": "サガシ",
    "town": "富士町藤瀬",
    "town_kana": "フジチョウフジセ",
    "street": null,
    "office_name": null,
    "office_name_kana": null
  },
  "0543": {
    "zip_code": "8400543",
    "prefecture": "佐賀県",
    "prefecture_kana": "サガケン",
    "prefecture_code": "41",
    "city": "佐賀市",
    "city_kana": "サガシ",
    "town": "富士町古場",
    "town_kana": "フジチョウコバ",
    "street": null,
    "office_name": null,
    "office_name_kana": null
  },
  "0544": {
    "zip_code": "8400544",
    "prefecture": "佐賀県",
    "prefecture_kana": "サガケン",
    "prefecture_code": "41",
    "city": "佐賀市",
    "city_kana": "サガシ",
    "town": "富士町下合瀬",
    "town_kana": "フジチョウシモオオセ",
    "street": null,
    "office_name": null,
    "office_name_kana": null
  },
  "0545": {
    "zip_code": "8400545",
    "prefecture": "佐賀県",
    "prefecture_kana": "サガケン",
    "prefecture_code": "41",
    "city": "佐賀市",
    "city_kana": "サガシ",
    "town": "富士町上合瀬",
    "town_kana": "フジチョウカミオオセ",
    "street": null,
    "office_name": null,
    "office_name_kana": null
  },
  "0598": {
    "zip_code": "8400598",
    "prefecture": "佐賀県",
    "prefecture_kana": null,
    "prefecture_code": null,
    "city": "佐賀市",
    "city_kana": null,
    "town": "富士町大字古湯",
    "town_kana": null,
    "street": "２６８５",
    "office_name": "佐賀市　富士支所",
    "office_name_kana": "サガシ フジシシヨ"
  },
  "0801": {
    "zip_code": "8400801",
    "prefecture": "佐賀県",
    "prefecture_kana": "サガケン",
    "prefecture_code": "41",
    "city": "佐賀市",
    "city_kana": "サガシ",
    "town": "駅前中央",
    "town_kana": "エキマエチュウオウ",
    "street": null,
    "office_name": null,
    "office_name_kana": null
  },
  "0802": {
    "zip_code": "8400802",
    "prefecture": "佐賀県",
    "prefecture_kana": "サガケン",
    "prefecture_code": "41",
    "city": "佐賀市",
    "city_kana": "サガシ",
    "town": "大財北町",
    "town_kana": "オオタカラキタマチ",
    "street": null,
    "office_name": null,
    "office_name_kana": null
  },
  "0803": {
    "zip_code": "8400803",
    "prefecture": "佐賀県",
    "prefecture_kana": "サガケン",
    "prefecture_code": "41",
    "city": "佐賀市",
    "city_kana": "サガシ",
    "town": "栄町",
    "town_kana": "サカエマチ",
    "street": null,
    "office_name": null,
    "office_name_kana": null
  },
  "0804": {
    "zip_code": "8400804",
    "prefecture": "佐賀県",
    "prefecture_kana": "サガケン",
    "prefecture_code": "41",
    "city": "佐賀市",
    "city_kana": "サガシ",
    "town": "神野東",
    "town_kana": "コウノヒガシ",
    "street": null,
    "office_name": null,
    "office_name_kana": null
  },
  "0805": {
    "zip_code": "8400805",
    "prefecture": "佐賀県",
    "prefecture_kana": "サガケン",
    "prefecture_code": "41",
    "city": "佐賀市",
    "city_kana": "サガシ",
    "town": "神野西",
    "town_kana": "コウノニシ",
    "street": null,
    "office_name": null,
    "office_name_kana": null
  },
  "0806": {
    "zip_code": "8400806",
    "prefecture": "佐賀県",
    "prefecture_kana": "サガケン",
    "prefecture_code": "41",
    "city": "佐賀市",
    "city_kana": "サガシ",
    "town": "神園",
    "town_kana": "カミゾノ",
    "street": null,
    "office_name": null,
    "office_name_kana": null
  },
  "0811": {
    "zip_code": "8400811",
    "prefecture": "佐賀県",
    "prefecture_kana": "サガケン",
    "prefecture_code": "41",
    "city": "佐賀市",
    "city_kana": "サガシ",
    "town": "大財",
    "town_kana": "オオタカラ",
    "street": null,
    "office_name": null,
    "office_name_kana": null
  },
  "0812": {
    "zip_code": "8400812",
    "prefecture": "佐賀県",
    "prefecture_kana": "サガケン",
    "prefecture_code": "41",
    "city": "佐賀市",
    "city_kana": "サガシ",
    "town": "愛敬町",
    "town_kana": "アイケイチョウ",
    "street": null,
    "office_name": null,
    "office_name_kana": null
  },
  "0813": {
    "zip_code": "8400813",
    "prefecture": "佐賀県",
    "prefecture_kana": "サガケン",
    "prefecture_code": "41",
    "city": "佐賀市",
    "city_kana": "サガシ",
    "town": "唐人",
    "town_kana": "トウジン",
    "street": null,
    "office_name": null,
    "office_name_kana": null
  },
  "0814": {
    "zip_code": "8400814",
    "prefecture": "佐賀県",
    "prefecture_kana": "サガケン",
    "prefecture_code": "41",
    "city": "佐賀市",
    "city_kana": "サガシ",
    "town": "成章町",
    "town_kana": "セイショウマチ",
    "street": null,
    "office_name": null,
    "office_name_kana": null
  },
  "0815": {
    "zip_code": "8400815",
    "prefecture": "佐賀県",
    "prefecture_kana": "サガケン",
    "prefecture_code": "41",
    "city": "佐賀市",
    "city_kana": "サガシ",
    "town": "天神",
    "town_kana": "テンジン",
    "street": null,
    "office_name": null,
    "office_name_kana": null
  },
  "0816": {
    "zip_code": "8400816",
    "prefecture": "佐賀県",
    "prefecture_kana": "サガケン",
    "prefecture_code": "41",
    "city": "佐賀市",
    "city_kana": "サガシ",
    "town": "駅南本町",
    "town_kana": "エキミナミホンマチ",
    "street": null,
    "office_name": null,
    "office_name_kana": null
  },
  "0821": {
    "zip_code": "8400821",
    "prefecture": "佐賀県",
    "prefecture_kana": "サガケン",
    "prefecture_code": "41",
    "city": "佐賀市",
    "city_kana": "サガシ",
    "town": "東佐賀町",
    "town_kana": "ヒガシサガマチ",
    "street": null,
    "office_name": null,
    "office_name_kana": null
  },
  "0822": {
    "zip_code": "8400822",
    "prefecture": "佐賀県",
    "prefecture_kana": "サガケン",
    "prefecture_code": "41",
    "city": "佐賀市",
    "city_kana": "サガシ",
    "town": "高木町",
    "town_kana": "タカギマチ",
    "street": null,
    "office_name": null,
    "office_name_kana": null
  },
  "0823": {
    "zip_code": "8400823",
    "prefecture": "佐賀県",
    "prefecture_kana": "サガケン",
    "prefecture_code": "41",
    "city": "佐賀市",
    "city_kana": "サガシ",
    "town": "柳町",
    "town_kana": "ヤナギマチ",
    "street": null,
    "office_name": null,
    "office_name_kana": null
  },
  "0824": {
    "zip_code": "8400824",
    "prefecture": "佐賀県",
    "prefecture_kana": "サガケン",
    "prefecture_code": "41",
    "city": "佐賀市",
    "city_kana": "サガシ",
    "town": "呉服元町",
    "town_kana": "ゴフクモトマチ",
    "street": null,
    "office_name": null,
    "office_name_kana": null
  },
  "0825": {
    "zip_code": "8400825",
    "prefecture": "佐賀県",
    "prefecture_kana": "サガケン",
    "prefecture_code": "41",
    "city": "佐賀市",
    "city_kana": "サガシ",
    "town": "中央本町",
    "town_kana": "チュウオウホンマチ",
    "street": null,
    "office_name": null,
    "office_name_kana": null
  },
  "0826": {
    "zip_code": "8400826",
    "prefecture": "佐賀県",
    "prefecture_kana": "サガケン",
    "prefecture_code": "41",
    "city": "佐賀市",
    "city_kana": "サガシ",
    "town": "白山",
    "town_kana": "シラヤマ",
    "street": null,
    "office_name": null,
    "office_name_kana": null
  },
  "0831": {
    "zip_code": "8400831",
    "prefecture": "佐賀県",
    "prefecture_kana": "サガケン",
    "prefecture_code": "41",
    "city": "佐賀市",
    "city_kana": "サガシ",
    "town": "松原",
    "town_kana": "マツバラ",
    "street": null,
    "office_name": null,
    "office_name_kana": null
  },
  "0832": {
    "zip_code": "8400832",
    "prefecture": "佐賀県",
    "prefecture_kana": "サガケン",
    "prefecture_code": "41",
    "city": "佐賀市",
    "city_kana": "サガシ",
    "town": "堀川町",
    "town_kana": "ホリカワチョウ",
    "street": null,
    "office_name": null,
    "office_name_kana": null
  },
  "0833": {
    "zip_code": "8400833",
    "prefecture": "佐賀県",
    "prefecture_kana": "サガケン",
    "prefecture_code": "41",
    "city": "佐賀市",
    "city_kana": "サガシ",
    "town": "中の小路",
    "town_kana": "ナカノコウジ",
    "street": null,
    "office_name": null,
    "office_name_kana": null
  },
  "0834": {
    "zip_code": "8400834",
    "prefecture": "佐賀県",
    "prefecture_kana": "サガケン",
    "prefecture_code": "41",
    "city": "佐賀市",
    "city_kana": "サガシ",
    "town": "八幡小路",
    "town_kana": "ハチマンコウジ",
    "street": null,
    "office_name": null,
    "office_name_kana": null
  },
  "0841": {
    "zip_code": "8400841",
    "prefecture": "佐賀県",
    "prefecture_kana": "サガケン",
    "prefecture_code": "41",
    "city": "佐賀市",
    "city_kana": "サガシ",
    "town": "緑小路",
    "town_kana": "ミドリコウジ",
    "street": null,
    "office_name": null,
    "office_name_kana": null
  },
  "0842": {
    "zip_code": "8400842",
    "prefecture": "佐賀県",
    "prefecture_kana": "サガケン",
    "prefecture_code": "41",
    "city": "佐賀市",
    "city_kana": "サガシ",
    "town": "多布施",
    "town_kana": "タフセ",
    "street": null,
    "office_name": null,
    "office_name_kana": null
  },
  "0843": {
    "zip_code": "8400843",
    "prefecture": "佐賀県",
    "prefecture_kana": "サガケン",
    "prefecture_code": "41",
    "city": "佐賀市",
    "city_kana": "サガシ",
    "town": "川原町",
    "town_kana": "カワハラマチ",
    "street": null,
    "office_name": null,
    "office_name_kana": null
  },
  "0844": {
    "zip_code": "8400844",
    "prefecture": "佐賀県",
    "prefecture_kana": "サガケン",
    "prefecture_code": "41",
    "city": "佐賀市",
    "city_kana": "サガシ",
    "town": "伊勢町",
    "town_kana": "イセマチ",
    "street": null,
    "office_name": null,
    "office_name_kana": null
  },
  "0845": {
    "zip_code": "8400845",
    "prefecture": "佐賀県",
    "prefecture_kana": "サガケン",
    "prefecture_code": "41",
    "city": "佐賀市",
    "city_kana": "サガシ",
    "town": "六座町",
    "town_kana": "ロクザマチ",
    "street": null,
    "office_name": null,
    "office_name_kana": null
  },
  "0850": {
    "zip_code": "8400850",
    "prefecture": "佐賀県",
    "prefecture_kana": "サガケン",
    "prefecture_code": "41",
    "city": "佐賀市",
    "city_kana": "サガシ",
    "town": "新栄東",
    "town_kana": "シンエイヒガシ",
    "street": null,
    "office_name": null,
    "office_name_kana": null
  },
  "0851": {
    "zip_code": "8400851",
    "prefecture": "佐賀県",
    "prefecture_kana": "サガケン",
    "prefecture_code": "41",
    "city": "佐賀市",
    "city_kana": "サガシ",
    "town": "天祐",
    "town_kana": "テンユウ",
    "street": null,
    "office_name": null,
    "office_name_kana": null
  },
  "0852": {
    "zip_code": "8400852",
    "prefecture": "佐賀県",
    "prefecture_kana": "サガケン",
    "prefecture_code": "41",
    "city": "佐賀市",
    "city_kana": "サガシ",
    "town": "中折町",
    "town_kana": "ナカオレマチ",
    "street": null,
    "office_name": null,
    "office_name_kana": null
  },
  "0853": {
    "zip_code": "8400853",
    "prefecture": "佐賀県",
    "prefecture_kana": "サガケン",
    "prefecture_code": "41",
    "city": "佐賀市",
    "city_kana": "サガシ",
    "town": "長瀬町",
    "town_kana": "ナガセマチ",
    "street": null,
    "office_name": null,
    "office_name_kana": null
  },
  "0854": {
    "zip_code": "8400854",
    "prefecture": "佐賀県",
    "prefecture_kana": "サガケン",
    "prefecture_code": "41",
    "city": "佐賀市",
    "city_kana": "サガシ",
    "town": "八戸",
    "town_kana": "ヤエ",
    "street": null,
    "office_name": null,
    "office_name_kana": null
  },
  "0855": {
    "zip_code": "8400855",
    "prefecture": "佐賀県",
    "prefecture_kana": "サガケン",
    "prefecture_code": "41",
    "city": "佐賀市",
    "city_kana": "サガシ",
    "town": "昭栄町",
    "town_kana": "ショウエイマチ",
    "street": null,
    "office_name": null,
    "office_name_kana": null
  },
  "0856": {
    "zip_code": "8400856",
    "prefecture": "佐賀県",
    "prefecture_kana": "サガケン",
    "prefecture_code": "41",
    "city": "佐賀市",
    "city_kana": "サガシ",
    "town": "新生町",
    "town_kana": "シンセイマチ",
    "street": null,
    "office_name": null,
    "office_name_kana": null
  },
  "0857": {
    "zip_code": "8400857",
    "prefecture": "佐賀県",
    "prefecture_kana": "サガケン",
    "prefecture_code": "41",
    "city": "佐賀市",
    "city_kana": "サガシ",
    "town": "鍋島町八戸",
    "town_kana": "ナベシママチヤエ",
    "street": null,
    "office_name": null,
    "office_name_kana": null
  },
  "0858": {
    "zip_code": "8400858",
    "prefecture": "佐賀県",
    "prefecture_kana": "サガケン",
    "prefecture_code": "41",
    "city": "佐賀市",
    "city_kana": "サガシ",
    "town": "天祐団地",
    "town_kana": "テンユウダンチ",
    "street": null,
    "office_name": null,
    "office_name_kana": null
  },
  "0859": {
    "zip_code": "8400859",
    "prefecture": "佐賀県",
    "prefecture_kana": "サガケン",
    "prefecture_code": "41",
    "city": "佐賀市",
    "city_kana": "サガシ",
    "town": "新栄西",
    "town_kana": "シンエイニシ",
    "street": null,
    "office_name": null,
    "office_name_kana": null
  },
  "0861": {
    "zip_code": "8400861",
    "prefecture": "佐賀県",
    "prefecture_kana": "サガケン",
    "prefecture_code": "41",
    "city": "佐賀市",
    "city_kana": "サガシ",
    "town": "嘉瀬町中原",
    "town_kana": "カセマチナカバル",
    "street": null,
    "office_name": null,
    "office_name_kana": null
  },
  "0862": {
    "zip_code": "8400862",
    "prefecture": "佐賀県",
    "prefecture_kana": "サガケン",
    "prefecture_code": "41",
    "city": "佐賀市",
    "city_kana": "サガシ",
    "town": "嘉瀬町扇町",
    "town_kana": "カセマチオウギマチ",
    "street": null,
    "office_name": null,
    "office_name_kana": null
  },
  "0863": {
    "zip_code": "8400863",
    "prefecture": "佐賀県",
    "prefecture_kana": "サガケン",
    "prefecture_code": "41",
    "city": "佐賀市",
    "city_kana": "サガシ",
    "town": "嘉瀬町十五",
    "town_kana": "カセマチジュウゴ",
    "street": null,
    "office_name": null,
    "office_name_kana": null
  },
  "0864": {
    "zip_code": "8400864",
    "prefecture": "佐賀県",
    "prefecture_kana": "サガケン",
    "prefecture_code": "41",
    "city": "佐賀市",
    "city_kana": "サガシ",
    "town": "嘉瀬町荻野",
    "town_kana": "カセマチオギノ",
    "street": null,
    "office_name": null,
    "office_name_kana": null
  },
  "1101": {
    "zip_code": "8401101",
    "prefecture": "佐賀県",
    "prefecture_kana": "サガケン",
    "prefecture_code": "41",
    "city": "三養基郡みやき町",
    "city_kana": "ミヤキグンミヤキチョウ",
    "town": "西島",
    "town_kana": "ニシジマ",
    "street": null,
    "office_name": null,
    "office_name_kana": null
  },
  "1102": {
    "zip_code": "8401102",
    "prefecture": "佐賀県",
    "prefecture_kana": "サガケン",
    "prefecture_code": "41",
    "city": "三養基郡みやき町",
    "city_kana": "ミヤキグンミヤキチョウ",
    "town": "天建寺",
    "town_kana": "テンケンジ",
    "street": null,
    "office_name": null,
    "office_name_kana": null
  },
  "1103": {
    "zip_code": "8401103",
    "prefecture": "佐賀県",
    "prefecture_kana": "サガケン",
    "prefecture_code": "41",
    "city": "三養基郡みやき町",
    "city_kana": "ミヤキグンミヤキチョウ",
    "town": "坂口",
    "town_kana": "サカグチ",
    "street": null,
    "office_name": null,
    "office_name_kana": null
  },
  "1104": {
    "zip_code": "8401104",
    "prefecture": "佐賀県",
    "prefecture_kana": "サガケン",
    "prefecture_code": "41",
    "city": "三養基郡みやき町",
    "city_kana": "ミヤキグンミヤキチョウ",
    "town": "東津",
    "town_kana": "ヒガシツ",
    "street": null,
    "office_name": null,
    "office_name_kana": null
  },
  "1105": {
    "zip_code": "8401105",
    "prefecture": "佐賀県",
    "prefecture_kana": "サガケン",
    "prefecture_code": "41",
    "city": "三養基郡みやき町",
    "city_kana": "ミヤキグンミヤキチョウ",
    "town": "寄人",
    "town_kana": "ヨリウト",
    "street": null,
    "office_name": null,
    "office_name_kana": null
  },
  "1106": {
    "zip_code": "8401106",
    "prefecture": "佐賀県",
    "prefecture_kana": "サガケン",
    "prefecture_code": "41",
    "city": "三養基郡みやき町",
    "city_kana": "ミヤキグンミヤキチョウ",
    "town": "市武",
    "town_kana": "イチタケ",
    "street": null,
    "office_name": null,
    "office_name_kana": null
  },
  "1192": {
    "zip_code": "8401192",
    "prefecture": "佐賀県",
    "prefecture_kana": null,
    "prefecture_code": null,
    "city": "三養基郡みやき町",
    "city_kana": null,
    "town": "大字市武",
    "town_kana": null,
    "street": "１３８１",
    "office_name": "みやき町役場　三根庁舎",
    "office_name_kana": "ミヤキチヨウヤクバ ミネチヨウシヤ"
  },
  "2101": {
    "zip_code": "8402101",
    "prefecture": "佐賀県",
    "prefecture_kana": "サガケン",
    "prefecture_code": "41",
    "city": "佐賀市",
    "city_kana": "サガシ",
    "town": "諸富町大堂",
    "town_kana": "モロドミチョウオオドウ",
    "street": null,
    "office_name": null,
    "office_name_kana": null
  },
  "2102": {
    "zip_code": "8402102",
    "prefecture": "佐賀県",
    "prefecture_kana": "サガケン",
    "prefecture_code": "41",
    "city": "佐賀市",
    "city_kana": "サガシ",
    "town": "諸富町為重",
    "town_kana": "モロドミチョウタメシゲ",
    "street": null,
    "office_name": null,
    "office_name_kana": null
  },
  "2103": {
    "zip_code": "8402103",
    "prefecture": "佐賀県",
    "prefecture_kana": "サガケン",
    "prefecture_code": "41",
    "city": "佐賀市",
    "city_kana": "サガシ",
    "town": "諸富町寺井津",
    "town_kana": "モロドミチョウテライツ",
    "street": null,
    "office_name": null,
    "office_name_kana": null
  },
  "2104": {
    "zip_code": "8402104",
    "prefecture": "佐賀県",
    "prefecture_kana": "サガケン",
    "prefecture_code": "41",
    "city": "佐賀市",
    "city_kana": "サガシ",
    "town": "諸富町徳富",
    "town_kana": "モロドミチョウトクドミ",
    "street": null,
    "office_name": null,
    "office_name_kana": null
  },
  "2105": {
    "zip_code": "8402105",
    "prefecture": "佐賀県",
    "prefecture_kana": "サガケン",
    "prefecture_code": "41",
    "city": "佐賀市",
    "city_kana": "サガシ",
    "town": "諸富町諸富津",
    "town_kana": "モロドミチョウモロドミツ",
    "street": null,
    "office_name": null,
    "office_name_kana": null
  },
  "2106": {
    "zip_code": "8402106",
    "prefecture": "佐賀県",
    "prefecture_kana": "サガケン",
    "prefecture_code": "41",
    "city": "佐賀市",
    "city_kana": "サガシ",
    "town": "諸富町山領",
    "town_kana": "モロドミチョウヤマリョウ",
    "street": null,
    "office_name": null,
    "office_name_kana": null
  },
  "2192": {
    "zip_code": "8402192",
    "prefecture": "佐賀県",
    "prefecture_kana": null,
    "prefecture_code": null,
    "city": "佐賀市",
    "city_kana": null,
    "town": "諸富町大字諸富津",
    "town_kana": null,
    "street": "１−２",
    "office_name": "佐賀市　諸富支所",
    "office_name_kana": "サガシ モロドミシシヨ"
  },
  "2193": {
    "zip_code": "8402193",
    "prefecture": "佐賀県",
    "prefecture_kana": null,
    "prefecture_code": null,
    "city": "佐賀市",
    "city_kana": null,
    "town": "諸富町大字諸富津",
    "town_kana": null,
    "street": "４５０",
    "office_name": "味の素　株式会社　九州工場",
    "office_name_kana": "アジノモト カブシキガイシヤ キユウシユウコウジヨウ"
  },
  "2195": {
    "zip_code": "8402195",
    "prefecture": "佐賀県",
    "prefecture_kana": null,
    "prefecture_code": null,
    "city": "佐賀市",
    "city_kana": null,
    "town": "諸富町大字諸富津",
    "town_kana": null,
    "street": "２３０−２",
    "office_name": "医療法人社団　博文会　小柳記念病院",
    "office_name_kana": "イリヨウホウジンシヤダン ハクブンカイ コヤナギキネンビヨウイン"
  },
  "2197": {
    "zip_code": "8402197",
    "prefecture": "佐賀県",
    "prefecture_kana": null,
    "prefecture_code": null,
    "city": "佐賀市",
    "city_kana": null,
    "town": "諸富町大字徳富",
    "town_kana": null,
    "street": "６９１−２",
    "office_name": "ディープロ　株式会社",
    "office_name_kana": "デイ-プロ カブシキガイシヤ"
  },
  "2201": {
    "zip_code": "8402201",
    "prefecture": "佐賀県",
    "prefecture_kana": "サガケン",
    "prefecture_code": "41",
    "city": "佐賀市",
    "city_kana": "サガシ",
    "town": "川副町福富",
    "town_kana": "カワソエマチフクドミ",
    "street": null,
    "office_name": null,
    "office_name_kana": null
  },
  "2202": {
    "zip_code": "8402202",
    "prefecture": "佐賀県",
    "prefecture_kana": "サガケン",
    "prefecture_code": "41",
    "city": "佐賀市",
    "city_kana": "サガシ",
    "town": "川副町早津江津",
    "town_kana": "カワソエマチハヤツエツ",
    "street": null,
    "office_name": null,
    "office_name_kana": null
  },
  "2203": {
    "zip_code": "8402203",
    "prefecture": "佐賀県",
    "prefecture_kana": "サガケン",
    "prefecture_code": "41",
    "city": "佐賀市",
    "city_kana": "サガシ",
    "town": "川副町早津江",
    "town_kana": "カワソエマチハヤツエ",
    "street": null,
    "office_name": null,
    "office_name_kana": null
  },
  "2204": {
    "zip_code": "8402204",
    "prefecture": "佐賀県",
    "prefecture_kana": "サガケン",
    "prefecture_code": "41",
    "city": "佐賀市",
    "city_kana": "サガシ",
    "town": "川副町西古賀",
    "town_kana": "カワソエマチニシコガ",
    "street": null,
    "office_name": null,
    "office_name_kana": null
  },
  "2205": {
    "zip_code": "8402205",
    "prefecture": "佐賀県",
    "prefecture_kana": "サガケン",
    "prefecture_code": "41",
    "city": "佐賀市",
    "city_kana": "サガシ",
    "town": "川副町南里",
    "town_kana": "カワソエマチナンリ",
    "street": null,
    "office_name": null,
    "office_name_kana": null
  },
  "2211": {
    "zip_code": "8402211",
    "prefecture": "佐賀県",
    "prefecture_kana": "サガケン",
    "prefecture_code": "41",
    "city": "佐賀市",
    "city_kana": "サガシ",
    "town": "川副町大詫間",
    "town_kana": "カワソエマチオオダクマ",
    "street": null,
    "office_name": null,
    "office_name_kana": null
  },
  "2212": {
    "zip_code": "8402212",
    "prefecture": "佐賀県",
    "prefecture_kana": "サガケン",
    "prefecture_code": "41",
    "city": "佐賀市",
    "city_kana": "サガシ",
    "town": "川副町犬井道",
    "town_kana": "カワソエマチイヌイドウ",
    "street": null,
    "office_name": null,
    "office_name_kana": null
  },
  "2213": {
    "zip_code": "8402213",
    "prefecture": "佐賀県",
    "prefecture_kana": "サガケン",
    "prefecture_code": "41",
    "city": "佐賀市",
    "city_kana": "サガシ",
    "town": "川副町鹿江",
    "town_kana": "カワソエマチカノエ",
    "street": null,
    "office_name": null,
    "office_name_kana": null
  },
  "2214": {
    "zip_code": "8402214",
    "prefecture": "佐賀県",
    "prefecture_kana": "サガケン",
    "prefecture_code": "41",
    "city": "佐賀市",
    "city_kana": "サガシ",
    "town": "川副町小々森",
    "town_kana": "カワソエマチコゴモリ",
    "street": null,
    "office_name": null,
    "office_name_kana": null
  },
  "2221": {
    "zip_code": "8402221",
    "prefecture": "佐賀県",
    "prefecture_kana": "サガケン",
    "prefecture_code": "41",
    "city": "佐賀市",
    "city_kana": "サガシ",
    "town": "東与賀町下古賀",
    "town_kana": "ヒガシヨカチョウシモコガ",
    "street": null,
    "office_name": null,
    "office_name_kana": null
  },
  "2222": {
    "zip_code": "8402222",
    "prefecture": "佐賀県",
    "prefecture_kana": "サガケン",
    "prefecture_code": "41",
    "city": "佐賀市",
    "city_kana": "サガシ",
    "town": "東与賀町田中",
    "town_kana": "ヒガシヨカチョウタナカ",
    "street": null,
    "office_name": null,
    "office_name_kana": null
  },
  "2223": {
    "zip_code": "8402223",
    "prefecture": "佐賀県",
    "prefecture_kana": "サガケン",
    "prefecture_code": "41",
    "city": "佐賀市",
    "city_kana": "サガシ",
    "town": "東与賀町飯盛",
    "town_kana": "ヒガシヨカチョウイサガイ",
    "street": null,
    "office_name": null,
    "office_name_kana": null
  },
  "2295": {
    "zip_code": "8402295",
    "prefecture": "佐賀県",
    "prefecture_kana": null,
    "prefecture_code": null,
    "city": "佐賀市",
    "city_kana": null,
    "town": "川副町大字鹿江",
    "town_kana": null,
    "street": "６２３−１",
    "office_name": "佐賀市　川副支所",
    "office_name_kana": "サガシ カワソエシシヨ"
  },
  "8501": {
    "zip_code": "8408501",
    "prefecture": "佐賀県",
    "prefecture_kana": "サガケン",
    "prefecture_code": "41",
    "city": "佐賀市",
    "city_kana": "サガシ",
    "town": "栄町",
    "town_kana": "サカエマチ",
    "street": "１−１",
    "office_name": "佐賀市役所",
    "office_name_kana": "サガシヤクシヨ"
  },
  "8502": {
    "zip_code": "8408502",
    "prefecture": "佐賀県",
    "prefecture_kana": "サガケン",
    "prefecture_code": "41",
    "city": "佐賀市",
    "city_kana": "サガシ",
    "town": "",
    "town_kana": "",
    "street": "本庄町１",
    "office_name": "佐賀大学",
    "office_name_kana": "サガダイガク"
  },
  "8511": {
    "zip_code": "8408511",
    "prefecture": "佐賀県",
    "prefecture_kana": "サガケン",
    "prefecture_code": "41",
    "city": "佐賀市",
    "city_kana": "サガシ",
    "town": "白山",
    "town_kana": "シラヤマ",
    "street": "２丁目２−５",
    "office_name": "株式会社　北島",
    "office_name_kana": "カブシキガイシヤ キタジマ"
  },
  "8520": {
    "zip_code": "8408520",
    "prefecture": "佐賀県",
    "prefecture_kana": "サガケン",
    "prefecture_code": "41",
    "city": "佐賀市",
    "city_kana": "サガシ",
    "town": "天神",
    "town_kana": "テンジン",
    "street": "１丁目４−３",
    "office_name": "株式会社　佐電工",
    "office_name_kana": "カブシキカイシヤサデンコウ"
  },
  "8540": {
    "zip_code": "8408540",
    "prefecture": "佐賀県",
    "prefecture_kana": "サガケン",
    "prefecture_code": "41",
    "city": "佐賀市",
    "city_kana": "サガシ",
    "town": "松原",
    "town_kana": "マツバラ",
    "street": "１丁目１−１６",
    "office_name": "佐賀県　警察本部",
    "office_name_kana": "サガケン ケイサツホンブ"
  },
  "8550": {
    "zip_code": "8408550",
    "prefecture": "佐賀県",
    "prefecture_kana": null,
    "prefecture_code": null,
    "city": "佐賀市",
    "city_kana": null,
    "town": "本庄町大字本庄",
    "town_kana": null,
    "street": "１３１３",
    "office_name": "学校法人　旭学園佐賀女子短期大学",
    "office_name_kana": "ガツコウホウジン アサヒガクエンサガジヨシタンキダイガク"
  },
  "8551": {
    "zip_code": "8408551",
    "prefecture": "佐賀県",
    "prefecture_kana": null,
    "prefecture_code": null,
    "city": "佐賀市",
    "city_kana": null,
    "town": "巨勢町大字牛島",
    "town_kana": null,
    "street": "７３０",
    "office_name": "モラージュ佐賀",
    "office_name_kana": "モラ-ジユサガ"
  },
  "8552": {
    "zip_code": "8408552",
    "prefecture": "佐賀県",
    "prefecture_kana": null,
    "prefecture_code": null,
    "city": "佐賀市",
    "city_kana": null,
    "town": "巨勢町大字牛島",
    "town_kana": null,
    "street": "７１０",
    "office_name": "株式会社　九州西友　佐賀巨勢店",
    "office_name_kana": "カブシキガイシヤ キユウシユウセイユウ サガコセテン"
  },
  "8555": {
    "zip_code": "8408555",
    "prefecture": "佐賀県",
    "prefecture_kana": "サガケン",
    "prefecture_code": "41",
    "city": "佐賀市",
    "city_kana": "サガシ",
    "town": "嘉瀬町扇町",
    "town_kana": "カセマチオウギマチ",
    "street": "２５０７−４",
    "office_name": "佐賀ダイハツ販売　株式会社",
    "office_name_kana": "サガダイハツハンバイカブシキカイシヤ"
  },
  "8558": {
    "zip_code": "8408558",
    "prefecture": "佐賀県",
    "prefecture_kana": "サガケン",
    "prefecture_code": "41",
    "city": "佐賀市",
    "city_kana": "サガシ",
    "town": "城内",
    "town_kana": "ジョウナイ",
    "street": "１丁目６−１０",
    "office_name": "株式会社　サガテレビ",
    "office_name_kana": "カブシキカイシヤサガテレビ"
  },
  "8560": {
    "zip_code": "8408560",
    "prefecture": "佐賀県",
    "prefecture_kana": "サガケン",
    "prefecture_code": "41",
    "city": "佐賀市",
    "city_kana": "サガシ",
    "town": "駅南本町",
    "town_kana": "エキミナミホンマチ",
    "street": "６−４佐賀中央第一生命ビル",
    "office_name": "全国健康保険協会　佐賀支部",
    "office_name_kana": "ゼンコクケンコウホケンキヨウカイ サガシブ"
  },
  "8570": {
    "zip_code": "8408570",
    "prefecture": "佐賀県",
    "prefecture_kana": "サガケン",
    "prefecture_code": "41",
    "city": "佐賀市",
    "city_kana": "サガシ",
    "town": "城内",
    "town_kana": "ジョウナイ",
    "street": "１丁目１−５９",
    "office_name": "佐賀県庁",
    "office_name_kana": "サガケンチヨウ"
  },
  "8571": {
    "zip_code": "8408571",
    "prefecture": "佐賀県",
    "prefecture_kana": "サガケン",
    "prefecture_code": "41",
    "city": "佐賀市",
    "city_kana": "サガシ",
    "town": "嘉瀬町中原",
    "town_kana": "カセマチナカバル",
    "street": "４００番地",
    "office_name": "地方独立行政法人　佐賀県医療センター　好生館",
    "office_name_kana": "チホウドクリツギヨウセイホウジン サガケンイリヨウセンタ- コウセイカン"
  },
  "8580": {
    "zip_code": "8408580",
    "prefecture": "佐賀県",
    "prefecture_kana": "サガケン",
    "prefecture_code": "41",
    "city": "佐賀市",
    "city_kana": "サガシ",
    "town": "中の小路",
    "town_kana": "ナカノコウジ",
    "street": "２−５",
    "office_name": "株式会社　佐賀玉屋",
    "office_name_kana": "カブシキガイシヤ サガタマヤ"
  },
  "8585": {
    "zip_code": "8408585",
    "prefecture": "佐賀県",
    "prefecture_kana": "サガケン",
    "prefecture_code": "41",
    "city": "佐賀市",
    "city_kana": "サガシ",
    "town": "天神",
    "town_kana": "テンジン",
    "street": "３丁目２−２３",
    "office_name": "佐賀新聞社",
    "office_name_kana": "サガシンブンシヤ"
  },
  "8588": {
    "zip_code": "8408588",
    "prefecture": "佐賀県",
    "prefecture_kana": null,
    "prefecture_code": null,
    "city": "佐賀市",
    "city_kana": null,
    "town": "水ヶ江",
    "town_kana": null,
    "street": "２丁目１１−２３",
    "office_name": "株式会社　中野建設",
    "office_name_kana": "カブシキガイシヤ ナカノケンセツ"
  },
  "8601": {
    "zip_code": "8408601",
    "prefecture": "佐賀県",
    "prefecture_kana": "サガケン",
    "prefecture_code": "41",
    "city": "佐賀市",
    "city_kana": "サガシ",
    "town": "城内",
    "town_kana": "ジョウナイ",
    "street": "２丁目１５−８（佐賀中央郵便局私書箱第７１号）",
    "office_name": "日本放送協会　佐賀放送局",
    "office_name_kana": "ニホンホウソウキヨウカイ サガホウソウキヨク"
  },
  "8602": {
    "zip_code": "8408602",
    "prefecture": "佐賀県",
    "prefecture_kana": "サガケン",
    "prefecture_code": "41",
    "city": "佐賀市",
    "city_kana": "サガシ",
    "town": "松原",
    "town_kana": "マツバラ",
    "street": "４丁目２−１２（佐賀中央郵便局私書箱第８５号）",
    "office_name": "株式会社　佐賀共栄銀行",
    "office_name_kana": "カブシキガイシヤ サガキヨウエイギンコウ"
  },
  "8611": {
    "zip_code": "8408611",
    "prefecture": "佐賀県",
    "prefecture_kana": "サガケン",
    "prefecture_code": "41",
    "city": "佐賀市",
    "city_kana": "サガシ",
    "town": "駅前中央",
    "town_kana": "エキマエチュウオウ",
    "street": "３丁目３−２０佐賀第二合同庁舎",
    "office_name": "佐賀税務署",
    "office_name_kana": "サガゼイムシヨ"
  },
  "8627": {
    "zip_code": "8408627",
    "prefecture": "佐賀県",
    "prefecture_kana": "サガケン",
    "prefecture_code": "41",
    "city": "佐賀市",
    "city_kana": "サガシ",
    "town": "唐人",
    "town_kana": "トウジン",
    "street": "２丁目７−２０（佐賀中央郵便局私書箱第２７号）",
    "office_name": "株式会社　佐賀銀行",
    "office_name_kana": "カブシキカイシヤサガギンコウ"
  },
  "8666": {
    "zip_code": "8408666",
    "prefecture": "佐賀県",
    "prefecture_kana": "サガケン",
    "prefecture_code": "41",
    "city": "佐賀市",
    "city_kana": "サガシ",
    "town": "八幡小路",
    "town_kana": "ハチマンコウジ",
    "street": "１−１０（佐賀中央郵便局私書箱第３３号）",
    "office_name": "松尾建設　株式会社",
    "office_name_kana": "マツオケンセツ カブシキガイシヤ"
  },
  "8686": {
    "zip_code": "8408686",
    "prefecture": "佐賀県",
    "prefecture_kana": "サガケン",
    "prefecture_code": "41",
    "city": "佐賀市",
    "city_kana": "サガシ",
    "town": "伊勢町",
    "town_kana": "イセマチ",
    "street": "１５−１（佐賀中央郵便局私書箱第６号）",
    "office_name": "株式会社　ミゾタ",
    "office_name_kana": "カブシキガイシヤ ミゾタ"
  },
  "8688": {
    "zip_code": "8408688",
    "prefecture": "佐賀県",
    "prefecture_kana": "サガケン",
    "prefecture_code": "41",
    "city": "佐賀市",
    "city_kana": "サガシ",
    "town": "松原",
    "town_kana": "マツバラ",
    "street": "１丁目２−３５（佐賀中央郵便局私書箱第７３号）",
    "office_name": "佐賀商工会議所",
    "office_name_kana": "サガシヨウコウカイギシヨ"
  },
  "8689": {
    "zip_code": "8408689",
    "prefecture": "佐賀県",
    "prefecture_kana": "サガケン",
    "prefecture_code": "41",
    "city": "佐賀市",
    "city_kana": "サガシ",
    "town": "松原",
    "town_kana": "マツバラ",
    "street": "１丁目２−３５（佐賀中央郵便局私書箱第８１号）",
    "office_name": "佐賀県　信用保証協会",
    "office_name_kana": "サガケン シンヨウホシヨウキヨウカイ"
  }
}