{
  "0000": {
    "zip_code": "8430000",
    "prefecture": "佐賀県",
    "prefecture_kana": "サガケン",
    "prefecture_code": 41,
    "city": "武雄市",
    "city_kana": "タケオシ",
    "town": "",
    "town_kana": "",
    "street": null,
    "office_name": null,
    "office_name_kana": null
  },
  "0001": {
    "zip_code": "8430001",
    "prefecture": "佐賀県",
    "prefecture_kana": "サガケン",
    "prefecture_code": 41,
    "city": "武雄市",
    "city_kana": "タケオシ",
    "town": "朝日町甘久",
    "town_kana": "アサヒチョウアマグ",
    "street": null,
    "office_name": null,
    "office_name_kana": null
  },
  "0002": {
    "zip_code": "8430002",
    "prefecture": "佐賀県",
    "prefecture_kana": "サガケン",
    "prefecture_code": 41,
    "city": "武雄市",
    "city_kana": "タケオシ",
    "town": "朝日町中野",
    "town_kana": "アサヒチョウナカノ",
    "street": null,
    "office_name": null,
    "office_name_kana": null
  },
  "0003": {
    "zip_code": "8430003",
    "prefecture": "佐賀県",
    "prefecture_kana": "サガケン",
    "prefecture_code": 41,
    "city": "武雄市",
    "city_kana": "タケオシ",
    "town": "朝日町芦原",
    "town_kana": "アサヒチョウアシハラ",
    "street": null,
    "office_name": null,
    "office_name_kana": null
  },
  "0011": {
    "zip_code": "8430011",
    "prefecture": "佐賀県",
    "prefecture_kana": "サガケン",
    "prefecture_code": 41,
    "city": "武雄市",
    "city_kana": "タケオシ",
    "town": "橘町芦原",
    "town_kana": "タチバナチョウアシハラ",
    "street": null,
    "office_name": null,
    "office_name_kana": null
  },
  "0012": {
    "zip_code": "8430012",
    "prefecture": "佐賀県",
    "prefecture_kana": "サガケン",
    "prefecture_code": 41,
    "city": "武雄市",
    "city_kana": "タケオシ",
    "town": "橘町片白",
    "town_kana": "タチバナチョウカタジロ",
    "street": null,
    "office_name": null,
    "office_name_kana": null
  },
  "0013": {
    "zip_code": "8430013",
    "prefecture": "佐賀県",
    "prefecture_kana": "サガケン",
    "prefecture_code": 41,
    "city": "武雄市",
    "city_kana": "タケオシ",
    "town": "橘町大日",
    "town_kana": "タチバナチョウダイニチ",
    "street": null,
    "office_name": null,
    "office_name_kana": null
  },
  "0014": {
    "zip_code": "8430014",
    "prefecture": "佐賀県",
    "prefecture_kana": "サガケン",
    "prefecture_code": 41,
    "city": "武雄市",
    "city_kana": "タケオシ",
    "town": "橘町永島",
    "town_kana": "タチバナチョウナガシマ",
    "street": null,
    "office_name": null,
    "office_name_kana": null
  },
  "0021": {
    "zip_code": "8430021",
    "prefecture": "佐賀県",
    "prefecture_kana": "サガケン",
    "prefecture_code": 41,
    "city": "武雄市",
    "city_kana": "タケオシ",
    "town": "武雄町永島",
    "town_kana": "タケオチョウナガシマ",
    "street": null,
    "office_name": null,
    "office_name_kana": null
  },
  "0022": {
    "zip_code": "8430022",
    "prefecture": "佐賀県",
    "prefecture_kana": "サガケン",
    "prefecture_code": 41,
    "city": "武雄市",
    "city_kana": "タケオシ",
    "town": "武雄町武雄",
    "town_kana": "タケオチョウタケオ",
    "street": null,
    "office_name": null,
    "office_name_kana": null
  },
  "0023": {
    "zip_code": "8430023",
    "prefecture": "佐賀県",
    "prefecture_kana": "サガケン",
    "prefecture_code": 41,
    "city": "武雄市",
    "city_kana": "タケオシ",
    "town": "武雄町昭和",
    "town_kana": "タケオチョウショウワ",
    "street": null,
    "office_name": null,
    "office_name_kana": null
  },
  "0024": {
    "zip_code": "8430024",
    "prefecture": "佐賀県",
    "prefecture_kana": "サガケン",
    "prefecture_code": 41,
    "city": "武雄市",
    "city_kana": "タケオシ",
    "town": "武雄町富岡",
    "town_kana": "タケオチョウトミオカ",
    "street": null,
    "office_name": null,
    "office_name_kana": null
  },
  "0151": {
    "zip_code": "8430151",
    "prefecture": "佐賀県",
    "prefecture_kana": "サガケン",
    "prefecture_code": 41,
    "city": "武雄市",
    "city_kana": "タケオシ",
    "town": "若木町川古",
    "town_kana": "ワカキチョウカワゴ",
    "street": null,
    "office_name": null,
    "office_name_kana": null
  },
  "0152": {
    "zip_code": "8430152",
    "prefecture": "佐賀県",
    "prefecture_kana": "サガケン",
    "prefecture_code": 41,
    "city": "武雄市",
    "city_kana": "タケオシ",
    "town": "若木町本部",
    "town_kana": "ワカキチョウモトベ",
    "street": null,
    "office_name": null,
    "office_name_kana": null
  },
  "0153": {
    "zip_code": "8430153",
    "prefecture": "佐賀県",
    "prefecture_kana": "サガケン",
    "prefecture_code": 41,
    "city": "武雄市",
    "city_kana": "タケオシ",
    "town": "若木町桃川",
    "town_kana": "ワカキチョウモモノカワ",
    "street": null,
    "office_name": null,
    "office_name_kana": null
  },
  "0231": {
    "zip_code": "8430231",
    "prefecture": "佐賀県",
    "prefecture_kana": "サガケン",
    "prefecture_code": 41,
    "city": "武雄市",
    "city_kana": "タケオシ",
    "town": "西川登町小田志",
    "town_kana": "ニシカワノボリチョウコタジ",
    "street": null,
    "office_name": null,
    "office_name_kana": null
  },
  "0232": {
    "zip_code": "8430232",
    "prefecture": "佐賀県",
    "prefecture_kana": "サガケン",
    "prefecture_code": 41,
    "city": "武雄市",
    "city_kana": "タケオシ",
    "town": "西川登町神六",
    "town_kana": "ニシカワノボリチョウジンロク",
    "street": null,
    "office_name": null,
    "office_name_kana": null
  },
  "0233": {
    "zip_code": "8430233",
    "prefecture": "佐賀県",
    "prefecture_kana": "サガケン",
    "prefecture_code": 41,
    "city": "武雄市",
    "city_kana": "タケオシ",
    "town": "東川登町永野",
    "town_kana": "ヒガシカワノボリチョウナガノ",
    "street": null,
    "office_name": null,
    "office_name_kana": null
  },
  "0234": {
    "zip_code": "8430234",
    "prefecture": "佐賀県",
    "prefecture_kana": "サガケン",
    "prefecture_code": 41,
    "city": "武雄市",
    "city_kana": "タケオシ",
    "town": "東川登町袴野",
    "town_kana": "ヒガシカワノボリチョウハカマノ",
    "street": null,
    "office_name": null,
    "office_name_kana": null
  },
  "0300": {
    "zip_code": "8430300",
    "prefecture": "佐賀県",
    "prefecture_kana": "サガケン",
    "prefecture_code": 41,
    "city": "嬉野市",
    "city_kana": "ウレシノシ",
    "town": "",
    "town_kana": "",
    "street": null,
    "office_name": null,
    "office_name_kana": null
  },
  "0301": {
    "zip_code": "8430301",
    "prefecture": "佐賀県",
    "prefecture_kana": "サガケン",
    "prefecture_code": 41,
    "city": "嬉野市",
    "city_kana": "ウレシノシ",
    "town": "嬉野町下宿",
    "town_kana": "ウレシノマチシモジュク",
    "street": null,
    "office_name": null,
    "office_name_kana": null
  },
  "0302": {
    "zip_code": "8430302",
    "prefecture": "佐賀県",
    "prefecture_kana": "サガケン",
    "prefecture_code": 41,
    "city": "嬉野市",
    "city_kana": "ウレシノシ",
    "town": "嬉野町下野",
    "town_kana": "ウレシノマチシモノ",
    "street": null,
    "office_name": null,
    "office_name_kana": null
  },
  "0303": {
    "zip_code": "8430303",
    "prefecture": "佐賀県",
    "prefecture_kana": "サガケン",
    "prefecture_code": 41,
    "city": "嬉野市",
    "city_kana": "ウレシノシ",
    "town": "嬉野町吉田",
    "town_kana": "ウレシノマチヨシダ",
    "street": null,
    "office_name": null,
    "office_name_kana": null
  },
  "0304": {
    "zip_code": "8430304",
    "prefecture": "佐賀県",
    "prefecture_kana": "サガケン",
    "prefecture_code": 41,
    "city": "嬉野市",
    "city_kana": "ウレシノシ",
    "town": "嬉野町岩屋川内",
    "town_kana": "ウレシノマチイワヤガワチ",
    "street": null,
    "office_name": null,
    "office_name_kana": null
  },
  "0305": {
    "zip_code": "8430305",
    "prefecture": "佐賀県",
    "prefecture_kana": "サガケン",
    "prefecture_code": 41,
    "city": "嬉野市",
    "city_kana": "ウレシノシ",
    "town": "嬉野町不動山",
    "town_kana": "ウレシノマチフドウヤマ",
    "street": null,
    "office_name": null,
    "office_name_kana": null
  },
  "0392": {
    "zip_code": "8430392",
    "prefecture": "佐賀県",
    "prefecture_kana": null,
    "prefecture_code": null,
    "city": "嬉野市",
    "city_kana": null,
    "town": "嬉野町大字下宿",
    "town_kana": null,
    "street": "乙１１８５（嬉野郵便局私書箱第１２号）",
    "office_name": "嬉野市役所　嬉野総合支所",
    "office_name_kana": "ウレシノシヤクシヨ ウレシノソウゴウシシヨ"
  },
  "0393": {
    "zip_code": "8430393",
    "prefecture": "佐賀県",
    "prefecture_kana": null,
    "prefecture_code": null,
    "city": "嬉野市",
    "city_kana": null,
    "town": "嬉野町大字下宿",
    "town_kana": null,
    "street": "丙２４３６",
    "office_name": "独立行政法人　国立病院機構　嬉野医療センター",
    "office_name_kana": "ドクリツギヨウセイホウジン コクリツビヨウインキコウ ウレシノイリヨウセンタ-"
  },
  "0394": {
    "zip_code": "8430394",
    "prefecture": "佐賀県",
    "prefecture_kana": null,
    "prefecture_code": null,
    "city": "嬉野市",
    "city_kana": null,
    "town": "嬉野町大字下宿",
    "town_kana": null,
    "street": "乙１９１９番地",
    "office_name": "医療法人財団　友朋会",
    "office_name_kana": "イリヨウホウジンザイダン ユウホウカイ"
  },
  "8501": {
    "zip_code": "8438501",
    "prefecture": "佐賀県",
    "prefecture_kana": null,
    "prefecture_code": null,
    "city": "武雄市",
    "city_kana": null,
    "town": "朝日町大字中野",
    "town_kana": null,
    "street": "１１２９６−１番地",
    "office_name": "医療法人　雄邦会介護老人保健施設　たんぽぽ",
    "office_name_kana": "イリヨウホウジン ユウホウカイカイゴロウジンホケンシセツ タンポポ"
  },
  "8550": {
    "zip_code": "8438550",
    "prefecture": "佐賀県",
    "prefecture_kana": null,
    "prefecture_code": null,
    "city": "武雄市",
    "city_kana": null,
    "town": "武雄町大字武雄",
    "town_kana": null,
    "street": "３９５０−１",
    "office_name": "株式会社　オサダ",
    "office_name_kana": "カブシキガイシヤ オサダ"
  },
  "8555": {
    "zip_code": "8438555",
    "prefecture": "佐賀県",
    "prefecture_kana": null,
    "prefecture_code": null,
    "city": "武雄市",
    "city_kana": null,
    "town": "武雄町大字昭和",
    "town_kana": null,
    "street": "７７６",
    "office_name": "九州電力　株式会社　武雄営業所",
    "office_name_kana": "キユウシユウデンリヨク カブシキガイシヤ タケオエイギヨウシヨ"
  },
  "8585": {
    "zip_code": "8438585",
    "prefecture": "佐賀県",
    "prefecture_kana": null,
    "prefecture_code": null,
    "city": "武雄市",
    "city_kana": null,
    "town": "橘町大字大日",
    "town_kana": null,
    "street": "２１１１",
    "office_name": "株式会社　デュエル",
    "office_name_kana": "カブシキガイシヤ デユエル"
  },
  "8588": {
    "zip_code": "8438588",
    "prefecture": "佐賀県",
    "prefecture_kana": null,
    "prefecture_code": null,
    "city": "武雄市",
    "city_kana": null,
    "town": "武雄町大字昭和",
    "town_kana": null,
    "street": "４３−６",
    "office_name": "武雄社会保険事務所",
    "office_name_kana": "タケオシヤカイホケンジムシヨ"
  },
  "8639": {
    "zip_code": "8438639",
    "prefecture": "佐賀県",
    "prefecture_kana": null,
    "prefecture_code": null,
    "city": "武雄市",
    "city_kana": null,
    "town": "武雄町大字昭和",
    "town_kana": null,
    "street": "１−１（武雄郵便局私書箱第４号）",
    "office_name": "武雄市役所",
    "office_name_kana": "タケオシヤクシヨ"
  },
  "8686": {
    "zip_code": "8438686",
    "prefecture": "佐賀県",
    "prefecture_kana": null,
    "prefecture_code": null,
    "city": "武雄市",
    "city_kana": null,
    "town": "武雄町大字武雄",
    "town_kana": null,
    "street": "５６５８−１（武雄郵便局私書箱第６号）",
    "office_name": "武雄税務署",
    "office_name_kana": "タケオゼイムシヨ"
  }
}