{
  "0000": {
    "zip_code": "8450000",
    "prefecture": "佐賀県",
    "prefecture_kana": "サガケン",
    "prefecture_code": "41",
    "city": "小城市",
    "city_kana": "オギシ",
    "town": "",
    "town_kana": "",
    "street": null,
    "office_name": null,
    "office_name_kana": null
  },
  "0001": {
    "zip_code": "8450001",
    "prefecture": "佐賀県",
    "prefecture_kana": "サガケン",
    "prefecture_code": "41",
    "city": "小城市",
    "city_kana": "オギシ",
    "town": "小城町",
    "town_kana": "オギマチ",
    "street": null,
    "office_name": null,
    "office_name_kana": null
  },
  "0002": {
    "zip_code": "8450002",
    "prefecture": "佐賀県",
    "prefecture_kana": "サガケン",
    "prefecture_code": "41",
    "city": "小城市",
    "city_kana": "オギシ",
    "town": "小城町畑田",
    "town_kana": "オギマチハタケダ",
    "street": null,
    "office_name": null,
    "office_name_kana": null
  },
  "0003": {
    "zip_code": "8450003",
    "prefecture": "佐賀県",
    "prefecture_kana": "サガケン",
    "prefecture_code": "41",
    "city": "小城市",
    "city_kana": "オギシ",
    "town": "小城町岩蔵",
    "town_kana": "オギマチイワクラ",
    "street": null,
    "office_name": null,
    "office_name_kana": null
  },
  "0004": {
    "zip_code": "8450004",
    "prefecture": "佐賀県",
    "prefecture_kana": "サガケン",
    "prefecture_code": "41",
    "city": "小城市",
    "city_kana": "オギシ",
    "town": "小城町松尾",
    "town_kana": "オギマチマツオ",
    "street": null,
    "office_name": null,
    "office_name_kana": null
  },
  "0005": {
    "zip_code": "8450005",
    "prefecture": "佐賀県",
    "prefecture_kana": "サガケン",
    "prefecture_code": "41",
    "city": "小城市",
    "city_kana": "オギシ",
    "town": "小城町東新町",
    "town_kana": "オギマチヒガシシンマチ",
    "street": null,
    "office_name": null,
    "office_name_kana": null
  },
  "0011": {
    "zip_code": "8450011",
    "prefecture": "佐賀県",
    "prefecture_kana": "サガケン",
    "prefecture_code": "41",
    "city": "小城市",
    "city_kana": "オギシ",
    "town": "小城町船田",
    "town_kana": "オギマチフナダ",
    "street": null,
    "office_name": null,
    "office_name_kana": null
  },
  "0012": {
    "zip_code": "8450012",
    "prefecture": "佐賀県",
    "prefecture_kana": "サガケン",
    "prefecture_code": "41",
    "city": "小城市",
    "city_kana": "オギシ",
    "town": "小城町池上",
    "town_kana": "オギマチイケノウエ",
    "street": null,
    "office_name": null,
    "office_name_kana": null
  },
  "0013": {
    "zip_code": "8450013",
    "prefecture": "佐賀県",
    "prefecture_kana": "サガケン",
    "prefecture_code": "41",
    "city": "小城市",
    "city_kana": "オギシ",
    "town": "小城町栗原",
    "town_kana": "オギマチクリハラ",
    "street": null,
    "office_name": null,
    "office_name_kana": null
  },
  "0014": {
    "zip_code": "8450014",
    "prefecture": "佐賀県",
    "prefecture_kana": "サガケン",
    "prefecture_code": "41",
    "city": "小城市",
    "city_kana": "オギシ",
    "town": "小城町晴気",
    "town_kana": "オギマチハルケ",
    "street": null,
    "office_name": null,
    "office_name_kana": null
  },
  "0021": {
    "zip_code": "8450021",
    "prefecture": "佐賀県",
    "prefecture_kana": "サガケン",
    "prefecture_code": "41",
    "city": "小城市",
    "city_kana": "オギシ",
    "town": "三日月町長神田",
    "town_kana": "ミカツキチョウチョウカンダ",
    "street": null,
    "office_name": null,
    "office_name_kana": null
  },
  "0022": {
    "zip_code": "8450022",
    "prefecture": "佐賀県",
    "prefecture_kana": "サガケン",
    "prefecture_code": "41",
    "city": "小城市",
    "city_kana": "オギシ",
    "town": "三日月町久米",
    "town_kana": "ミカツキチョウクメ",
    "street": null,
    "office_name": null,
    "office_name_kana": null
  },
  "0023": {
    "zip_code": "8450023",
    "prefecture": "佐賀県",
    "prefecture_kana": "サガケン",
    "prefecture_code": "41",
    "city": "小城市",
    "city_kana": "オギシ",
    "town": "三日月町織島",
    "town_kana": "ミカツキチョウオリシマ",
    "street": null,
    "office_name": null,
    "office_name_kana": null
  },
  "0024": {
    "zip_code": "8450024",
    "prefecture": "佐賀県",
    "prefecture_kana": "サガケン",
    "prefecture_code": "41",
    "city": "小城市",
    "city_kana": "オギシ",
    "town": "三日月町道辺",
    "town_kana": "ミカツキチョウミチベ",
    "street": null,
    "office_name": null,
    "office_name_kana": null
  },
  "0025": {
    "zip_code": "8450025",
    "prefecture": "佐賀県",
    "prefecture_kana": "サガケン",
    "prefecture_code": "41",
    "city": "小城市",
    "city_kana": "オギシ",
    "town": "三日月町三ケ島",
    "town_kana": "ミカツキチョウミカシマ",
    "street": null,
    "office_name": null,
    "office_name_kana": null
  },
  "0031": {
    "zip_code": "8450031",
    "prefecture": "佐賀県",
    "prefecture_kana": "サガケン",
    "prefecture_code": "41",
    "city": "小城市",
    "city_kana": "オギシ",
    "town": "三日月町堀江",
    "town_kana": "ミカツキチョウホリエ",
    "street": null,
    "office_name": null,
    "office_name_kana": null
  },
  "0032": {
    "zip_code": "8450032",
    "prefecture": "佐賀県",
    "prefecture_kana": "サガケン",
    "prefecture_code": "41",
    "city": "小城市",
    "city_kana": "オギシ",
    "town": "三日月町金田",
    "town_kana": "ミカツキチョウカナダ",
    "street": null,
    "office_name": null,
    "office_name_kana": null
  },
  "0033": {
    "zip_code": "8450033",
    "prefecture": "佐賀県",
    "prefecture_kana": "サガケン",
    "prefecture_code": "41",
    "city": "小城市",
    "city_kana": "オギシ",
    "town": "三日月町樋口",
    "town_kana": "ミカツキチョウヒグチ",
    "street": null,
    "office_name": null,
    "office_name_kana": null
  },
  "0034": {
    "zip_code": "8450034",
    "prefecture": "佐賀県",
    "prefecture_kana": "サガケン",
    "prefecture_code": "41",
    "city": "小城市",
    "city_kana": "オギシ",
    "town": "三日月町甲柳原",
    "town_kana": "ミカツキチョウコウヤナギハラ",
    "street": null,
    "office_name": null,
    "office_name_kana": null
  },
  "0035": {
    "zip_code": "8450035",
    "prefecture": "佐賀県",
    "prefecture_kana": "サガケン",
    "prefecture_code": "41",
    "city": "小城市",
    "city_kana": "オギシ",
    "town": "三日月町石木",
    "town_kana": "ミカツキチョウイシキ",
    "street": null,
    "office_name": null,
    "office_name_kana": null
  },
  "8501": {
    "zip_code": "8458501",
    "prefecture": "佐賀県",
    "prefecture_kana": "サガケン",
    "prefecture_code": "41",
    "city": "小城市",
    "city_kana": "オギシ",
    "town": "小城町",
    "town_kana": "オギマチ",
    "street": "２５３−２１",
    "office_name": "小城市役所　小城庁舎",
    "office_name_kana": "オギシヤクシヨ オギチヨウシヤ"
  },
  "8510": {
    "zip_code": "8458510",
    "prefecture": "佐賀県",
    "prefecture_kana": "サガケン",
    "prefecture_code": "41",
    "city": "小城市",
    "city_kana": "オギシ",
    "town": "小城町池上",
    "town_kana": "オギマチイケノウエ",
    "street": "２５００",
    "office_name": "竹下製菓　株式会社",
    "office_name_kana": "タケシタセイカ カブシキガイシヤ"
  },
  "8511": {
    "zip_code": "8458511",
    "prefecture": "佐賀県",
    "prefecture_kana": "サガケン",
    "prefecture_code": "41",
    "city": "小城市",
    "city_kana": "オギシ",
    "town": "三日月町長神田",
    "town_kana": "ミカツキチョウチョウカンダ",
    "street": "２３１２−２",
    "office_name": "小城市役所　三日月庁舎",
    "office_name_kana": "オギシヤクシヨ ミカヅキチヨウシヤ"
  }
}