{
  "0000": {
    "zip_code": "8500000",
    "prefecture": "長崎県",
    "prefecture_kana": "ナガサキケン",
    "prefecture_code": "42",
    "city": "長崎市",
    "city_kana": "ナガサキシ",
    "town": "",
    "town_kana": "",
    "street": null,
    "office_name": null,
    "office_name_kana": null
  },
  "0001": {
    "zip_code": "8500001",
    "prefecture": "長崎県",
    "prefecture_kana": "ナガサキケン",
    "prefecture_code": "42",
    "city": "長崎市",
    "city_kana": "ナガサキシ",
    "town": "西山",
    "town_kana": "ニシヤマ",
    "street": null,
    "office_name": null,
    "office_name_kana": null
  },
  "0002": {
    "zip_code": "8500002",
    "prefecture": "長崎県",
    "prefecture_kana": "ナガサキケン",
    "prefecture_code": "42",
    "city": "長崎市",
    "city_kana": "ナガサキシ",
    "town": "木場町",
    "town_kana": "コバマチ",
    "street": null,
    "office_name": null,
    "office_name_kana": null
  },
  "0003": {
    "zip_code": "8500003",
    "prefecture": "長崎県",
    "prefecture_kana": "ナガサキケン",
    "prefecture_code": "42",
    "city": "長崎市",
    "city_kana": "ナガサキシ",
    "town": "片淵",
    "town_kana": "カタフチ",
    "street": null,
    "office_name": null,
    "office_name_kana": null
  },
  "0004": {
    "zip_code": "8500004",
    "prefecture": "長崎県",
    "prefecture_kana": "ナガサキケン",
    "prefecture_code": "42",
    "city": "長崎市",
    "city_kana": "ナガサキシ",
    "town": "下西山町",
    "town_kana": "シモニシヤママチ",
    "street": null,
    "office_name": null,
    "office_name_kana": null
  },
  "0005": {
    "zip_code": "8500005",
    "prefecture": "長崎県",
    "prefecture_kana": "ナガサキケン",
    "prefecture_code": "42",
    "city": "長崎市",
    "city_kana": "ナガサキシ",
    "town": "西山本町",
    "town_kana": "ニシヤマホンマチ",
    "street": null,
    "office_name": null,
    "office_name_kana": null
  },
  "0006": {
    "zip_code": "8500006",
    "prefecture": "長崎県",
    "prefecture_kana": "ナガサキケン",
    "prefecture_code": "42",
    "city": "長崎市",
    "city_kana": "ナガサキシ",
    "town": "上西山町",
    "town_kana": "カミニシヤママチ",
    "street": null,
    "office_name": null,
    "office_name_kana": null
  },
  "0007": {
    "zip_code": "8500007",
    "prefecture": "長崎県",
    "prefecture_kana": "ナガサキケン",
    "prefecture_code": "42",
    "city": "長崎市",
    "city_kana": "ナガサキシ",
    "town": "立山",
    "town_kana": "タテヤマ",
    "street": null,
    "office_name": null,
    "office_name_kana": null
  },
  "0011": {
    "zip_code": "8500011",
    "prefecture": "長崎県",
    "prefecture_kana": "ナガサキケン",
    "prefecture_code": "42",
    "city": "長崎市",
    "city_kana": "ナガサキシ",
    "town": "鳴滝",
    "town_kana": "ナルタキ",
    "street": null,
    "office_name": null,
    "office_name_kana": null
  },
  "0012": {
    "zip_code": "8500012",
    "prefecture": "長崎県",
    "prefecture_kana": "ナガサキケン",
    "prefecture_code": "42",
    "city": "長崎市",
    "city_kana": "ナガサキシ",
    "town": "本河内",
    "town_kana": "ホンゴウチ",
    "street": null,
    "office_name": null,
    "office_name_kana": null
  },
  "0013": {
    "zip_code": "8500013",
    "prefecture": "長崎県",
    "prefecture_kana": "ナガサキケン",
    "prefecture_code": "42",
    "city": "長崎市",
    "city_kana": "ナガサキシ",
    "town": "中川",
    "town_kana": "ナカガワ",
    "street": null,
    "office_name": null,
    "office_name_kana": null
  },
  "0014": {
    "zip_code": "8500014",
    "prefecture": "長崎県",
    "prefecture_kana": "ナガサキケン",
    "prefecture_code": "42",
    "city": "長崎市",
    "city_kana": "ナガサキシ",
    "town": "新中川町",
    "town_kana": "シンナカガワマチ",
    "street": null,
    "office_name": null,
    "office_name_kana": null
  },
  "0015": {
    "zip_code": "8500015",
    "prefecture": "長崎県",
    "prefecture_kana": "ナガサキケン",
    "prefecture_code": "42",
    "city": "長崎市",
    "city_kana": "ナガサキシ",
    "town": "桜馬場",
    "town_kana": "サクラババ",
    "street": null,
    "office_name": null,
    "office_name_kana": null
  },
  "0016": {
    "zip_code": "8500016",
    "prefecture": "長崎県",
    "prefecture_kana": "ナガサキケン",
    "prefecture_code": "42",
    "city": "長崎市",
    "city_kana": "ナガサキシ",
    "town": "夫婦川町",
    "town_kana": "フウフガワマチ",
    "street": null,
    "office_name": null,
    "office_name_kana": null
  },
  "0017": {
    "zip_code": "8500017",
    "prefecture": "長崎県",
    "prefecture_kana": "ナガサキケン",
    "prefecture_code": "42",
    "city": "長崎市",
    "city_kana": "ナガサキシ",
    "town": "新大工町",
    "town_kana": "シンダイクマチ",
    "street": null,
    "office_name": null,
    "office_name_kana": null
  },
  "0018": {
    "zip_code": "8500018",
    "prefecture": "長崎県",
    "prefecture_kana": "ナガサキケン",
    "prefecture_code": "42",
    "city": "長崎市",
    "city_kana": "ナガサキシ",
    "town": "伊勢町",
    "town_kana": "イセマチ",
    "street": null,
    "office_name": null,
    "office_name_kana": null
  },
  "0021": {
    "zip_code": "8500021",
    "prefecture": "長崎県",
    "prefecture_kana": "ナガサキケン",
    "prefecture_code": "42",
    "city": "長崎市",
    "city_kana": "ナガサキシ",
    "town": "炉粕町",
    "town_kana": "ロカスマチ",
    "street": null,
    "office_name": null,
    "office_name_kana": null
  },
  "0022": {
    "zip_code": "8500022",
    "prefecture": "長崎県",
    "prefecture_kana": "ナガサキケン",
    "prefecture_code": "42",
    "city": "長崎市",
    "city_kana": "ナガサキシ",
    "town": "馬町",
    "town_kana": "ウママチ",
    "street": null,
    "office_name": null,
    "office_name_kana": null
  },
  "0023": {
    "zip_code": "8500023",
    "prefecture": "長崎県",
    "prefecture_kana": "ナガサキケン",
    "prefecture_code": "42",
    "city": "長崎市",
    "city_kana": "ナガサキシ",
    "town": "出来大工町",
    "town_kana": "デキダイクマチ",
    "street": null,
    "office_name": null,
    "office_name_kana": null
  },
  "0024": {
    "zip_code": "8500024",
    "prefecture": "長崎県",
    "prefecture_kana": "ナガサキケン",
    "prefecture_code": "42",
    "city": "長崎市",
    "city_kana": "ナガサキシ",
    "town": "大井手町",
    "town_kana": "オオイデマチ",
    "street": null,
    "office_name": null,
    "office_name_kana": null
  },
  "0025": {
    "zip_code": "8500025",
    "prefecture": "長崎県",
    "prefecture_kana": "ナガサキケン",
    "prefecture_code": "42",
    "city": "長崎市",
    "city_kana": "ナガサキシ",
    "town": "今博多町",
    "town_kana": "イマハカタマチ",
    "street": null,
    "office_name": null,
    "office_name_kana": null
  },
  "0026": {
    "zip_code": "8500026",
    "prefecture": "長崎県",
    "prefecture_kana": "ナガサキケン",
    "prefecture_code": "42",
    "city": "長崎市",
    "city_kana": "ナガサキシ",
    "town": "古町",
    "town_kana": "フルマチ",
    "street": null,
    "office_name": null,
    "office_name_kana": null
  },
  "0027": {
    "zip_code": "8500027",
    "prefecture": "長崎県",
    "prefecture_kana": "ナガサキケン",
    "prefecture_code": "42",
    "city": "長崎市",
    "city_kana": "ナガサキシ",
    "town": "桶屋町",
    "town_kana": "オケヤマチ",
    "street": null,
    "office_name": null,
    "office_name_kana": null
  },
  "0028": {
    "zip_code": "8500028",
    "prefecture": "長崎県",
    "prefecture_kana": "ナガサキケン",
    "prefecture_code": "42",
    "city": "長崎市",
    "city_kana": "ナガサキシ",
    "town": "勝山町",
    "town_kana": "カツヤママチ",
    "street": null,
    "office_name": null,
    "office_name_kana": null
  },
  "0029": {
    "zip_code": "8500029",
    "prefecture": "長崎県",
    "prefecture_kana": "ナガサキケン",
    "prefecture_code": "42",
    "city": "長崎市",
    "city_kana": "ナガサキシ",
    "town": "八百屋町",
    "town_kana": "ヤオヤマチ",
    "street": null,
    "office_name": null,
    "office_name_kana": null
  },
  "0031": {
    "zip_code": "8500031",
    "prefecture": "長崎県",
    "prefecture_kana": "ナガサキケン",
    "prefecture_code": "42",
    "city": "長崎市",
    "city_kana": "ナガサキシ",
    "town": "桜町",
    "town_kana": "サクラマチ",
    "street": null,
    "office_name": null,
    "office_name_kana": null
  },
  "0032": {
    "zip_code": "8500032",
    "prefecture": "長崎県",
    "prefecture_kana": "ナガサキケン",
    "prefecture_code": "42",
    "city": "長崎市",
    "city_kana": "ナガサキシ",
    "town": "興善町",
    "town_kana": "コウゼンマチ",
    "street": null,
    "office_name": null,
    "office_name_kana": null
  },
  "0033": {
    "zip_code": "8500033",
    "prefecture": "長崎県",
    "prefecture_kana": "ナガサキケン",
    "prefecture_code": "42",
    "city": "長崎市",
    "city_kana": "ナガサキシ",
    "town": "万才町",
    "town_kana": "マンザイマチ",
    "street": null,
    "office_name": null,
    "office_name_kana": null
  },
  "0034": {
    "zip_code": "8500034",
    "prefecture": "長崎県",
    "prefecture_kana": "ナガサキケン",
    "prefecture_code": "42",
    "city": "長崎市",
    "city_kana": "ナガサキシ",
    "town": "樺島町",
    "town_kana": "カバシママチ",
    "street": null,
    "office_name": null,
    "office_name_kana": null
  },
  "0035": {
    "zip_code": "8500035",
    "prefecture": "長崎県",
    "prefecture_kana": "ナガサキケン",
    "prefecture_code": "42",
    "city": "長崎市",
    "city_kana": "ナガサキシ",
    "town": "元船町",
    "town_kana": "モトフナマチ",
    "street": null,
    "office_name": null,
    "office_name_kana": null
  },
  "0036": {
    "zip_code": "8500036",
    "prefecture": "長崎県",
    "prefecture_kana": "ナガサキケン",
    "prefecture_code": "42",
    "city": "長崎市",
    "city_kana": "ナガサキシ",
    "town": "五島町",
    "town_kana": "ゴトウマチ",
    "street": null,
    "office_name": null,
    "office_name_kana": null
  },
  "0037": {
    "zip_code": "8500037",
    "prefecture": "長崎県",
    "prefecture_kana": "ナガサキケン",
    "prefecture_code": "42",
    "city": "長崎市",
    "city_kana": "ナガサキシ",
    "town": "金屋町",
    "town_kana": "カナヤマチ",
    "street": null,
    "office_name": null,
    "office_name_kana": null
  },
  "0041": {
    "zip_code": "8500041",
    "prefecture": "長崎県",
    "prefecture_kana": "ナガサキケン",
    "prefecture_code": "42",
    "city": "長崎市",
    "city_kana": "ナガサキシ",
    "town": "浜平",
    "town_kana": "ハマヒラ",
    "street": null,
    "office_name": null,
    "office_name_kana": null
  },
  "0042": {
    "zip_code": "8500042",
    "prefecture": "長崎県",
    "prefecture_kana": "ナガサキケン",
    "prefecture_code": "42",
    "city": "長崎市",
    "city_kana": "ナガサキシ",
    "town": "御船蔵町",
    "town_kana": "オフナグラマチ",
    "street": null,
    "office_name": null,
    "office_name_kana": null
  },
  "0043": {
    "zip_code": "8500043",
    "prefecture": "長崎県",
    "prefecture_kana": "ナガサキケン",
    "prefecture_code": "42",
    "city": "長崎市",
    "city_kana": "ナガサキシ",
    "town": "八千代町",
    "town_kana": "ヤチヨマチ",
    "street": null,
    "office_name": null,
    "office_name_kana": null
  },
  "0044": {
    "zip_code": "8500044",
    "prefecture": "長崎県",
    "prefecture_kana": "ナガサキケン",
    "prefecture_code": "42",
    "city": "長崎市",
    "city_kana": "ナガサキシ",
    "town": "天神町",
    "town_kana": "テンジンマチ",
    "street": null,
    "office_name": null,
    "office_name_kana": null
  },
  "0045": {
    "zip_code": "8500045",
    "prefecture": "長崎県",
    "prefecture_kana": "ナガサキケン",
    "prefecture_code": "42",
    "city": "長崎市",
    "city_kana": "ナガサキシ",
    "town": "宝町",
    "town_kana": "タカラマチ",
    "street": null,
    "office_name": null,
    "office_name_kana": null
  },
  "0046": {
    "zip_code": "8500046",
    "prefecture": "長崎県",
    "prefecture_kana": "ナガサキケン",
    "prefecture_code": "42",
    "city": "長崎市",
    "city_kana": "ナガサキシ",
    "town": "幸町",
    "town_kana": "サイワイマチ",
    "street": null,
    "office_name": null,
    "office_name_kana": null
  },
  "0047": {
    "zip_code": "8500047",
    "prefecture": "長崎県",
    "prefecture_kana": "ナガサキケン",
    "prefecture_code": "42",
    "city": "長崎市",
    "city_kana": "ナガサキシ",
    "town": "銭座町",
    "town_kana": "ゼンザマチ",
    "street": null,
    "office_name": null,
    "office_name_kana": null
  },
  "0048": {
    "zip_code": "8500048",
    "prefecture": "長崎県",
    "prefecture_kana": "ナガサキケン",
    "prefecture_code": "42",
    "city": "長崎市",
    "city_kana": "ナガサキシ",
    "town": "上銭座町",
    "town_kana": "カミゼンザマチ",
    "street": null,
    "office_name": null,
    "office_name_kana": null
  },
  "0051": {
    "zip_code": "8500051",
    "prefecture": "長崎県",
    "prefecture_kana": "ナガサキケン",
    "prefecture_code": "42",
    "city": "長崎市",
    "city_kana": "ナガサキシ",
    "town": "西坂町",
    "town_kana": "ニシザカマチ",
    "street": null,
    "office_name": null,
    "office_name_kana": null
  },
  "0052": {
    "zip_code": "8500052",
    "prefecture": "長崎県",
    "prefecture_kana": "ナガサキケン",
    "prefecture_code": "42",
    "city": "長崎市",
    "city_kana": "ナガサキシ",
    "town": "筑後町",
    "town_kana": "チクゴマチ",
    "street": null,
    "office_name": null,
    "office_name_kana": null
  },
  "0053": {
    "zip_code": "8500053",
    "prefecture": "長崎県",
    "prefecture_kana": "ナガサキケン",
    "prefecture_code": "42",
    "city": "長崎市",
    "city_kana": "ナガサキシ",
    "town": "玉園町",
    "town_kana": "タマゾノマチ",
    "street": null,
    "office_name": null,
    "office_name_kana": null
  },
  "0054": {
    "zip_code": "8500054",
    "prefecture": "長崎県",
    "prefecture_kana": "ナガサキケン",
    "prefecture_code": "42",
    "city": "長崎市",
    "city_kana": "ナガサキシ",
    "town": "上町",
    "town_kana": "ウワマチ",
    "street": null,
    "office_name": null,
    "office_name_kana": null
  },
  "0055": {
    "zip_code": "8500055",
    "prefecture": "長崎県",
    "prefecture_kana": "ナガサキケン",
    "prefecture_code": "42",
    "city": "長崎市",
    "city_kana": "ナガサキシ",
    "town": "中町",
    "town_kana": "ナカマチ",
    "street": null,
    "office_name": null,
    "office_name_kana": null
  },
  "0056": {
    "zip_code": "8500056",
    "prefecture": "長崎県",
    "prefecture_kana": "ナガサキケン",
    "prefecture_code": "42",
    "city": "長崎市",
    "city_kana": "ナガサキシ",
    "town": "恵美須町",
    "town_kana": "エビスマチ",
    "street": null,
    "office_name": null,
    "office_name_kana": null
  },
  "0057": {
    "zip_code": "8500057",
    "prefecture": "長崎県",
    "prefecture_kana": "ナガサキケン",
    "prefecture_code": "42",
    "city": "長崎市",
    "city_kana": "ナガサキシ",
    "town": "大黒町",
    "town_kana": "ダイコクマチ",
    "street": null,
    "office_name": null,
    "office_name_kana": null
  },
  "0058": {
    "zip_code": "8500058",
    "prefecture": "長崎県",
    "prefecture_kana": "ナガサキケン",
    "prefecture_code": "42",
    "city": "長崎市",
    "city_kana": "ナガサキシ",
    "town": "尾上町",
    "town_kana": "オノウエマチ",
    "street": null,
    "office_name": null,
    "office_name_kana": null
  },
  "0061": {
    "zip_code": "8500061",
    "prefecture": "長崎県",
    "prefecture_kana": "ナガサキケン",
    "prefecture_code": "42",
    "city": "長崎市",
    "city_kana": "ナガサキシ",
    "town": "水の浦町",
    "town_kana": "ミズノウラマチ",
    "street": null,
    "office_name": null,
    "office_name_kana": null
  },
  "0062": {
    "zip_code": "8500062",
    "prefecture": "長崎県",
    "prefecture_kana": "ナガサキケン",
    "prefecture_code": "42",
    "city": "長崎市",
    "city_kana": "ナガサキシ",
    "town": "大谷町",
    "town_kana": "オオタニマチ",
    "street": null,
    "office_name": null,
    "office_name_kana": null
  },
  "0063": {
    "zip_code": "8500063",
    "prefecture": "長崎県",
    "prefecture_kana": "ナガサキケン",
    "prefecture_code": "42",
    "city": "長崎市",
    "city_kana": "ナガサキシ",
    "town": "飽の浦町",
    "town_kana": "アクノウラマチ",
    "street": null,
    "office_name": null,
    "office_name_kana": null
  },
  "0064": {
    "zip_code": "8500064",
    "prefecture": "長崎県",
    "prefecture_kana": "ナガサキケン",
    "prefecture_code": "42",
    "city": "長崎市",
    "city_kana": "ナガサキシ",
    "town": "秋月町",
    "town_kana": "アキヅキマチ",
    "street": null,
    "office_name": null,
    "office_name_kana": null
  },
  "0065": {
    "zip_code": "8500065",
    "prefecture": "長崎県",
    "prefecture_kana": "ナガサキケン",
    "prefecture_code": "42",
    "city": "長崎市",
    "city_kana": "ナガサキシ",
    "town": "入船町",
    "town_kana": "イリフネマチ",
    "street": null,
    "office_name": null,
    "office_name_kana": null
  },
  "0066": {
    "zip_code": "8500066",
    "prefecture": "長崎県",
    "prefecture_kana": "ナガサキケン",
    "prefecture_code": "42",
    "city": "長崎市",
    "city_kana": "ナガサキシ",
    "town": "大浜町",
    "town_kana": "オオハママチ",
    "street": null,
    "office_name": null,
    "office_name_kana": null
  },
  "0067": {
    "zip_code": "8500067",
    "prefecture": "長崎県",
    "prefecture_kana": "ナガサキケン",
    "prefecture_code": "42",
    "city": "長崎市",
    "city_kana": "ナガサキシ",
    "town": "小浦町",
    "town_kana": "コウラマチ",
    "street": null,
    "office_name": null,
    "office_name_kana": null
  },
  "0068": {
    "zip_code": "8500068",
    "prefecture": "長崎県",
    "prefecture_kana": "ナガサキケン",
    "prefecture_code": "42",
    "city": "長崎市",
    "city_kana": "ナガサキシ",
    "town": "福田本町",
    "town_kana": "フクダホンマチ",
    "street": null,
    "office_name": null,
    "office_name_kana": null
  },
  "0071": {
    "zip_code": "8500071",
    "prefecture": "長崎県",
    "prefecture_kana": "ナガサキケン",
    "prefecture_code": "42",
    "city": "長崎市",
    "city_kana": "ナガサキシ",
    "town": "塩浜町",
    "town_kana": "シオハママチ",
    "street": null,
    "office_name": null,
    "office_name_kana": null
  },
  "0072": {
    "zip_code": "8500072",
    "prefecture": "長崎県",
    "prefecture_kana": "ナガサキケン",
    "prefecture_code": "42",
    "city": "長崎市",
    "city_kana": "ナガサキシ",
    "town": "岩瀬道町",
    "town_kana": "イワセドウマチ",
    "street": null,
    "office_name": null,
    "office_name_kana": null
  },
  "0073": {
    "zip_code": "8500073",
    "prefecture": "長崎県",
    "prefecture_kana": "ナガサキケン",
    "prefecture_code": "42",
    "city": "長崎市",
    "city_kana": "ナガサキシ",
    "town": "東立神町",
    "town_kana": "ヒガシタテガミマチ",
    "street": null,
    "office_name": null,
    "office_name_kana": null
  },
  "0074": {
    "zip_code": "8500074",
    "prefecture": "長崎県",
    "prefecture_kana": "ナガサキケン",
    "prefecture_code": "42",
    "city": "長崎市",
    "city_kana": "ナガサキシ",
    "town": "西立神町",
    "town_kana": "ニシタテガミマチ",
    "street": null,
    "office_name": null,
    "office_name_kana": null
  },
  "0075": {
    "zip_code": "8500075",
    "prefecture": "長崎県",
    "prefecture_kana": "ナガサキケン",
    "prefecture_code": "42",
    "city": "長崎市",
    "city_kana": "ナガサキシ",
    "town": "西泊町",
    "town_kana": "ニシドマリマチ",
    "street": null,
    "office_name": null,
    "office_name_kana": null
  },
  "0076": {
    "zip_code": "8500076",
    "prefecture": "長崎県",
    "prefecture_kana": "ナガサキケン",
    "prefecture_code": "42",
    "city": "長崎市",
    "city_kana": "ナガサキシ",
    "town": "木鉢町",
    "town_kana": "キバチマチ",
    "street": null,
    "office_name": null,
    "office_name_kana": null
  },
  "0077": {
    "zip_code": "8500077",
    "prefecture": "長崎県",
    "prefecture_kana": "ナガサキケン",
    "prefecture_code": "42",
    "city": "長崎市",
    "city_kana": "ナガサキシ",
    "town": "小瀬戸町",
    "town_kana": "コセドマチ",
    "street": null,
    "office_name": null,
    "office_name_kana": null
  },
  "0078": {
    "zip_code": "8500078",
    "prefecture": "長崎県",
    "prefecture_kana": "ナガサキケン",
    "prefecture_code": "42",
    "city": "長崎市",
    "city_kana": "ナガサキシ",
    "town": "神ノ島町",
    "town_kana": "カミノシママチ",
    "street": null,
    "office_name": null,
    "office_name_kana": null
  },
  "0079": {
    "zip_code": "8500079",
    "prefecture": "長崎県",
    "prefecture_kana": "ナガサキケン",
    "prefecture_code": "42",
    "city": "長崎市",
    "city_kana": "ナガサキシ",
    "town": "みなと坂",
    "town_kana": "ミナトザカ",
    "street": null,
    "office_name": null,
    "office_name_kana": null
  },
  "0801": {
    "zip_code": "8500801",
    "prefecture": "長崎県",
    "prefecture_kana": "ナガサキケン",
    "prefecture_code": "42",
    "city": "長崎市",
    "city_kana": "ナガサキシ",
    "town": "八幡町",
    "town_kana": "ヤハタマチ",
    "street": null,
    "office_name": null,
    "office_name_kana": null
  },
  "0802": {
    "zip_code": "8500802",
    "prefecture": "長崎県",
    "prefecture_kana": "ナガサキケン",
    "prefecture_code": "42",
    "city": "長崎市",
    "city_kana": "ナガサキシ",
    "town": "伊良林",
    "town_kana": "イラバヤシ",
    "street": null,
    "office_name": null,
    "office_name_kana": null
  },
  "0803": {
    "zip_code": "8500803",
    "prefecture": "長崎県",
    "prefecture_kana": "ナガサキケン",
    "prefecture_code": "42",
    "city": "長崎市",
    "city_kana": "ナガサキシ",
    "town": "風頭町",
    "town_kana": "カザガシラマチ",
    "street": null,
    "office_name": null,
    "office_name_kana": null
  },
  "0804": {
    "zip_code": "8500804",
    "prefecture": "長崎県",
    "prefecture_kana": "ナガサキケン",
    "prefecture_code": "42",
    "city": "長崎市",
    "city_kana": "ナガサキシ",
    "town": "彦見町",
    "town_kana": "ヒコミマチ",
    "street": null,
    "office_name": null,
    "office_name_kana": null
  },
  "0811": {
    "zip_code": "8500811",
    "prefecture": "長崎県",
    "prefecture_kana": "ナガサキケン",
    "prefecture_code": "42",
    "city": "長崎市",
    "city_kana": "ナガサキシ",
    "town": "矢の平",
    "town_kana": "ヤノヒラ",
    "street": null,
    "office_name": null,
    "office_name_kana": null
  },
  "0812": {
    "zip_code": "8500812",
    "prefecture": "長崎県",
    "prefecture_kana": "ナガサキケン",
    "prefecture_code": "42",
    "city": "長崎市",
    "city_kana": "ナガサキシ",
    "town": "白木町",
    "town_kana": "シロキマチ",
    "street": null,
    "office_name": null,
    "office_name_kana": null
  },
  "0813": {
    "zip_code": "8500813",
    "prefecture": "長崎県",
    "prefecture_kana": "ナガサキケン",
    "prefecture_code": "42",
    "city": "長崎市",
    "city_kana": "ナガサキシ",
    "town": "八つ尾町",
    "town_kana": "ヤツオマチ",
    "street": null,
    "office_name": null,
    "office_name_kana": null
  },
  "0821": {
    "zip_code": "8500821",
    "prefecture": "長崎県",
    "prefecture_kana": "ナガサキケン",
    "prefecture_code": "42",
    "city": "長崎市",
    "city_kana": "ナガサキシ",
    "town": "高平町",
    "town_kana": "タカヒラマチ",
    "street": null,
    "office_name": null,
    "office_name_kana": null
  },
  "0822": {
    "zip_code": "8500822",
    "prefecture": "長崎県",
    "prefecture_kana": "ナガサキケン",
    "prefecture_code": "42",
    "city": "長崎市",
    "city_kana": "ナガサキシ",
    "town": "愛宕",
    "town_kana": "アタゴ",
    "street": null,
    "office_name": null,
    "office_name_kana": null
  },
  "0823": {
    "zip_code": "8500823",
    "prefecture": "長崎県",
    "prefecture_kana": "ナガサキケン",
    "prefecture_code": "42",
    "city": "長崎市",
    "city_kana": "ナガサキシ",
    "town": "弥生町",
    "town_kana": "ヤヨイマチ",
    "street": null,
    "office_name": null,
    "office_name_kana": null
  },
  "0824": {
    "zip_code": "8500824",
    "prefecture": "長崎県",
    "prefecture_kana": "ナガサキケン",
    "prefecture_code": "42",
    "city": "長崎市",
    "city_kana": "ナガサキシ",
    "town": "三景台町",
    "town_kana": "サンケイダイマチ",
    "street": null,
    "office_name": null,
    "office_name_kana": null
  },
  "0831": {
    "zip_code": "8500831",
    "prefecture": "長崎県",
    "prefecture_kana": "ナガサキケン",
    "prefecture_code": "42",
    "city": "長崎市",
    "city_kana": "ナガサキシ",
    "town": "鍛冶屋町",
    "town_kana": "カジヤマチ",
    "street": null,
    "office_name": null,
    "office_name_kana": null
  },
  "0832": {
    "zip_code": "8500832",
    "prefecture": "長崎県",
    "prefecture_kana": "ナガサキケン",
    "prefecture_code": "42",
    "city": "長崎市",
    "city_kana": "ナガサキシ",
    "town": "油屋町",
    "town_kana": "アブラヤマチ",
    "street": null,
    "office_name": null,
    "office_name_kana": null
  },
  "0833": {
    "zip_code": "8500833",
    "prefecture": "長崎県",
    "prefecture_kana": "ナガサキケン",
    "prefecture_code": "42",
    "city": "長崎市",
    "city_kana": "ナガサキシ",
    "town": "東小島町",
    "town_kana": "ヒガシコシママチ",
    "street": null,
    "office_name": null,
    "office_name_kana": null
  },
  "0834": {
    "zip_code": "8500834",
    "prefecture": "長崎県",
    "prefecture_kana": "ナガサキケン",
    "prefecture_code": "42",
    "city": "長崎市",
    "city_kana": "ナガサキシ",
    "town": "上小島",
    "town_kana": "カミコシマ",
    "street": null,
    "office_name": null,
    "office_name_kana": null
  },
  "0835": {
    "zip_code": "8500835",
    "prefecture": "長崎県",
    "prefecture_kana": "ナガサキケン",
    "prefecture_code": "42",
    "city": "長崎市",
    "city_kana": "ナガサキシ",
    "town": "桜木町",
    "town_kana": "サクラギマチ",
    "street": null,
    "office_name": null,
    "office_name_kana": null
  },
  "0836": {
    "zip_code": "8500836",
    "prefecture": "長崎県",
    "prefecture_kana": "ナガサキケン",
    "prefecture_code": "42",
    "city": "長崎市",
    "city_kana": "ナガサキシ",
    "town": "中小島",
    "town_kana": "ナカコシマ",
    "street": null,
    "office_name": null,
    "office_name_kana": null
  },
  "0837": {
    "zip_code": "8500837",
    "prefecture": "長崎県",
    "prefecture_kana": "ナガサキケン",
    "prefecture_code": "42",
    "city": "長崎市",
    "city_kana": "ナガサキシ",
    "town": "西小島",
    "town_kana": "ニシコシマ",
    "street": null,
    "office_name": null,
    "office_name_kana": null
  },
  "0841": {
    "zip_code": "8500841",
    "prefecture": "長崎県",
    "prefecture_kana": "ナガサキケン",
    "prefecture_code": "42",
    "city": "長崎市",
    "city_kana": "ナガサキシ",
    "town": "銅座町",
    "town_kana": "ドウザマチ",
    "street": null,
    "office_name": null,
    "office_name_kana": null
  },
  "0842": {
    "zip_code": "8500842",
    "prefecture": "長崎県",
    "prefecture_kana": "ナガサキケン",
    "prefecture_code": "42",
    "city": "長崎市",
    "city_kana": "ナガサキシ",
    "town": "新地町",
    "town_kana": "シンチマチ",
    "street": null,
    "office_name": null,
    "office_name_kana": null
  },
  "0843": {
    "zip_code": "8500843",
    "prefecture": "長崎県",
    "prefecture_kana": "ナガサキケン",
    "prefecture_code": "42",
    "city": "長崎市",
    "city_kana": "ナガサキシ",
    "town": "常盤町",
    "town_kana": "トキワマチ",
    "street": null,
    "office_name": null,
    "office_name_kana": null
  },
  "0851": {
    "zip_code": "8500851",
    "prefecture": "長崎県",
    "prefecture_kana": "ナガサキケン",
    "prefecture_code": "42",
    "city": "長崎市",
    "city_kana": "ナガサキシ",
    "town": "古川町",
    "town_kana": "フルカワマチ",
    "street": null,
    "office_name": null,
    "office_name_kana": null
  },
  "0852": {
    "zip_code": "8500852",
    "prefecture": "長崎県",
    "prefecture_kana": "ナガサキケン",
    "prefecture_code": "42",
    "city": "長崎市",
    "city_kana": "ナガサキシ",
    "town": "万屋町",
    "town_kana": "ヨロズヤマチ",
    "street": null,
    "office_name": null,
    "office_name_kana": null
  },
  "0853": {
    "zip_code": "8500853",
    "prefecture": "長崎県",
    "prefecture_kana": "ナガサキケン",
    "prefecture_code": "42",
    "city": "長崎市",
    "city_kana": "ナガサキシ",
    "town": "浜町",
    "town_kana": "ハママチ",
    "street": null,
    "office_name": null,
    "office_name_kana": null
  },
  "0854": {
    "zip_code": "8500854",
    "prefecture": "長崎県",
    "prefecture_kana": "ナガサキケン",
    "prefecture_code": "42",
    "city": "長崎市",
    "city_kana": "ナガサキシ",
    "town": "銀屋町",
    "town_kana": "ギンヤマチ",
    "street": null,
    "office_name": null,
    "office_name_kana": null
  },
  "0855": {
    "zip_code": "8500855",
    "prefecture": "長崎県",
    "prefecture_kana": "ナガサキケン",
    "prefecture_code": "42",
    "city": "長崎市",
    "city_kana": "ナガサキシ",
    "town": "東古川町",
    "town_kana": "ヒガシフルカワマチ",
    "street": null,
    "office_name": null,
    "office_name_kana": null
  },
  "0861": {
    "zip_code": "8500861",
    "prefecture": "長崎県",
    "prefecture_kana": "ナガサキケン",
    "prefecture_code": "42",
    "city": "長崎市",
    "city_kana": "ナガサキシ",
    "town": "江戸町",
    "town_kana": "エドマチ",
    "street": null,
    "office_name": null,
    "office_name_kana": null
  },
  "0862": {
    "zip_code": "8500862",
    "prefecture": "長崎県",
    "prefecture_kana": "ナガサキケン",
    "prefecture_code": "42",
    "city": "長崎市",
    "city_kana": "ナガサキシ",
    "town": "出島町",
    "town_kana": "デジママチ",
    "street": null,
    "office_name": null,
    "office_name_kana": null
  },
  "0871": {
    "zip_code": "8500871",
    "prefecture": "長崎県",
    "prefecture_kana": "ナガサキケン",
    "prefecture_code": "42",
    "city": "長崎市",
    "city_kana": "ナガサキシ",
    "town": "麹屋町",
    "town_kana": "コウジヤマチ",
    "street": null,
    "office_name": null,
    "office_name_kana": null
  },
  "0872": {
    "zip_code": "8500872",
    "prefecture": "長崎県",
    "prefecture_kana": "ナガサキケン",
    "prefecture_code": "42",
    "city": "長崎市",
    "city_kana": "ナガサキシ",
    "town": "寺町",
    "town_kana": "テラマチ",
    "street": null,
    "office_name": null,
    "office_name_kana": null
  },
  "0873": {
    "zip_code": "8500873",
    "prefecture": "長崎県",
    "prefecture_kana": "ナガサキケン",
    "prefecture_code": "42",
    "city": "長崎市",
    "city_kana": "ナガサキシ",
    "town": "諏訪町",
    "town_kana": "スワマチ",
    "street": null,
    "office_name": null,
    "office_name_kana": null
  },
  "0874": {
    "zip_code": "8500874",
    "prefecture": "長崎県",
    "prefecture_kana": "ナガサキケン",
    "prefecture_code": "42",
    "city": "長崎市",
    "city_kana": "ナガサキシ",
    "town": "魚の町",
    "town_kana": "ウオノマチ",
    "street": null,
    "office_name": null,
    "office_name_kana": null
  },
  "0875": {
    "zip_code": "8500875",
    "prefecture": "長崎県",
    "prefecture_kana": "ナガサキケン",
    "prefecture_code": "42",
    "city": "長崎市",
    "city_kana": "ナガサキシ",
    "town": "栄町",
    "town_kana": "サカエマチ",
    "street": null,
    "office_name": null,
    "office_name_kana": null
  },
  "0876": {
    "zip_code": "8500876",
    "prefecture": "長崎県",
    "prefecture_kana": "ナガサキケン",
    "prefecture_code": "42",
    "city": "長崎市",
    "city_kana": "ナガサキシ",
    "town": "賑町",
    "town_kana": "ニギワイマチ",
    "street": null,
    "office_name": null,
    "office_name_kana": null
  },
  "0877": {
    "zip_code": "8500877",
    "prefecture": "長崎県",
    "prefecture_kana": "ナガサキケン",
    "prefecture_code": "42",
    "city": "長崎市",
    "city_kana": "ナガサキシ",
    "town": "築町",
    "town_kana": "ツキマチ",
    "street": null,
    "office_name": null,
    "office_name_kana": null
  },
  "0901": {
    "zip_code": "8500901",
    "prefecture": "長崎県",
    "prefecture_kana": "ナガサキケン",
    "prefecture_code": "42",
    "city": "長崎市",
    "city_kana": "ナガサキシ",
    "town": "本石灰町",
    "town_kana": "モトシックイマチ",
    "street": null,
    "office_name": null,
    "office_name_kana": null
  },
  "0902": {
    "zip_code": "8500902",
    "prefecture": "長崎県",
    "prefecture_kana": "ナガサキケン",
    "prefecture_code": "42",
    "city": "長崎市",
    "city_kana": "ナガサキシ",
    "town": "丸山町",
    "town_kana": "マルヤママチ",
    "street": null,
    "office_name": null,
    "office_name_kana": null
  },
  "0903": {
    "zip_code": "8500903",
    "prefecture": "長崎県",
    "prefecture_kana": "ナガサキケン",
    "prefecture_code": "42",
    "city": "長崎市",
    "city_kana": "ナガサキシ",
    "town": "寄合町",
    "town_kana": "ヨリアイマチ",
    "street": null,
    "office_name": null,
    "office_name_kana": null
  },
  "0904": {
    "zip_code": "8500904",
    "prefecture": "長崎県",
    "prefecture_kana": "ナガサキケン",
    "prefecture_code": "42",
    "city": "長崎市",
    "city_kana": "ナガサキシ",
    "town": "船大工町",
    "town_kana": "フナダイクマチ",
    "street": null,
    "office_name": null,
    "office_name_kana": null
  },
  "0905": {
    "zip_code": "8500905",
    "prefecture": "長崎県",
    "prefecture_kana": "ナガサキケン",
    "prefecture_code": "42",
    "city": "長崎市",
    "city_kana": "ナガサキシ",
    "town": "籠町",
    "town_kana": "カゴマチ",
    "street": null,
    "office_name": null,
    "office_name_kana": null
  },
  "0906": {
    "zip_code": "8500906",
    "prefecture": "長崎県",
    "prefecture_kana": "ナガサキケン",
    "prefecture_code": "42",
    "city": "長崎市",
    "city_kana": "ナガサキシ",
    "town": "館内町",
    "town_kana": "カンナイマチ",
    "street": null,
    "office_name": null,
    "office_name_kana": null
  },
  "0907": {
    "zip_code": "8500907",
    "prefecture": "長崎県",
    "prefecture_kana": "ナガサキケン",
    "prefecture_code": "42",
    "city": "長崎市",
    "city_kana": "ナガサキシ",
    "town": "稲田町",
    "town_kana": "イナダマチ",
    "street": null,
    "office_name": null,
    "office_name_kana": null
  },
  "0908": {
    "zip_code": "8500908",
    "prefecture": "長崎県",
    "prefecture_kana": "ナガサキケン",
    "prefecture_code": "42",
    "city": "長崎市",
    "city_kana": "ナガサキシ",
    "town": "十人町",
    "town_kana": "ジュウニンマチ",
    "street": null,
    "office_name": null,
    "office_name_kana": null
  },
  "0909": {
    "zip_code": "8500909",
    "prefecture": "長崎県",
    "prefecture_kana": "ナガサキケン",
    "prefecture_code": "42",
    "city": "長崎市",
    "city_kana": "ナガサキシ",
    "town": "梅香崎町",
    "town_kana": "ウメガサキマチ",
    "street": null,
    "office_name": null,
    "office_name_kana": null
  },
  "0911": {
    "zip_code": "8500911",
    "prefecture": "長崎県",
    "prefecture_kana": "ナガサキケン",
    "prefecture_code": "42",
    "city": "長崎市",
    "city_kana": "ナガサキシ",
    "town": "東山手町",
    "town_kana": "ヒガシヤマテマチ",
    "street": null,
    "office_name": null,
    "office_name_kana": null
  },
  "0912": {
    "zip_code": "8500912",
    "prefecture": "長崎県",
    "prefecture_kana": "ナガサキケン",
    "prefecture_code": "42",
    "city": "長崎市",
    "city_kana": "ナガサキシ",
    "town": "中新町",
    "town_kana": "ナカシンマチ",
    "street": null,
    "office_name": null,
    "office_name_kana": null
  },
  "0913": {
    "zip_code": "8500913",
    "prefecture": "長崎県",
    "prefecture_kana": "ナガサキケン",
    "prefecture_code": "42",
    "city": "長崎市",
    "city_kana": "ナガサキシ",
    "town": "元町",
    "town_kana": "モトマチ",
    "street": null,
    "office_name": null,
    "office_name_kana": null
  },
  "0914": {
    "zip_code": "8500914",
    "prefecture": "長崎県",
    "prefecture_kana": "ナガサキケン",
    "prefecture_code": "42",
    "city": "長崎市",
    "city_kana": "ナガサキシ",
    "town": "日の出町",
    "town_kana": "ヒノデマチ",
    "street": null,
    "office_name": null,
    "office_name_kana": null
  },
  "0915": {
    "zip_code": "8500915",
    "prefecture": "長崎県",
    "prefecture_kana": "ナガサキケン",
    "prefecture_code": "42",
    "city": "長崎市",
    "city_kana": "ナガサキシ",
    "town": "東山町",
    "town_kana": "ヒガシヤママチ",
    "street": null,
    "office_name": null,
    "office_name_kana": null
  },
  "0916": {
    "zip_code": "8500916",
    "prefecture": "長崎県",
    "prefecture_kana": "ナガサキケン",
    "prefecture_code": "42",
    "city": "長崎市",
    "city_kana": "ナガサキシ",
    "town": "大浦東町",
    "town_kana": "オオウラヒガシマチ",
    "street": null,
    "office_name": null,
    "office_name_kana": null
  },
  "0917": {
    "zip_code": "8500917",
    "prefecture": "長崎県",
    "prefecture_kana": "ナガサキケン",
    "prefecture_code": "42",
    "city": "長崎市",
    "city_kana": "ナガサキシ",
    "town": "下町",
    "town_kana": "シタマチ",
    "street": null,
    "office_name": null,
    "office_name_kana": null
  },
  "0918": {
    "zip_code": "8500918",
    "prefecture": "長崎県",
    "prefecture_kana": "ナガサキケン",
    "prefecture_code": "42",
    "city": "長崎市",
    "city_kana": "ナガサキシ",
    "town": "大浦町",
    "town_kana": "オオウラマチ",
    "street": null,
    "office_name": null,
    "office_name_kana": null
  },
  "0921": {
    "zip_code": "8500921",
    "prefecture": "長崎県",
    "prefecture_kana": "ナガサキケン",
    "prefecture_code": "42",
    "city": "長崎市",
    "city_kana": "ナガサキシ",
    "town": "松が枝町",
    "town_kana": "マツガエマチ",
    "street": null,
    "office_name": null,
    "office_name_kana": null
  },
  "0922": {
    "zip_code": "8500922",
    "prefecture": "長崎県",
    "prefecture_kana": "ナガサキケン",
    "prefecture_code": "42",
    "city": "長崎市",
    "city_kana": "ナガサキシ",
    "town": "相生町",
    "town_kana": "アイオイマチ",
    "street": null,
    "office_name": null,
    "office_name_kana": null
  },
  "0923": {
    "zip_code": "8500923",
    "prefecture": "長崎県",
    "prefecture_kana": "ナガサキケン",
    "prefecture_code": "42",
    "city": "長崎市",
    "city_kana": "ナガサキシ",
    "town": "上田町",
    "town_kana": "ウエダマチ",
    "street": null,
    "office_name": null,
    "office_name_kana": null
  },
  "0924": {
    "zip_code": "8500924",
    "prefecture": "長崎県",
    "prefecture_kana": "ナガサキケン",
    "prefecture_code": "42",
    "city": "長崎市",
    "city_kana": "ナガサキシ",
    "town": "出雲",
    "town_kana": "イズモ",
    "street": null,
    "office_name": null,
    "office_name_kana": null
  },
  "0931": {
    "zip_code": "8500931",
    "prefecture": "長崎県",
    "prefecture_kana": "ナガサキケン",
    "prefecture_code": "42",
    "city": "長崎市",
    "city_kana": "ナガサキシ",
    "town": "南山手町",
    "town_kana": "ミナミヤマテマチ",
    "street": null,
    "office_name": null,
    "office_name_kana": null
  },
  "0932": {
    "zip_code": "8500932",
    "prefecture": "長崎県",
    "prefecture_kana": "ナガサキケン",
    "prefecture_code": "42",
    "city": "長崎市",
    "city_kana": "ナガサキシ",
    "town": "東琴平",
    "town_kana": "ヒガシコトヒラ",
    "street": null,
    "office_name": null,
    "office_name_kana": null
  },
  "0933": {
    "zip_code": "8500933",
    "prefecture": "長崎県",
    "prefecture_kana": "ナガサキケン",
    "prefecture_code": "42",
    "city": "長崎市",
    "city_kana": "ナガサキシ",
    "town": "西琴平町",
    "town_kana": "ニシコトヒラマチ",
    "street": null,
    "office_name": null,
    "office_name_kana": null
  },
  "0934": {
    "zip_code": "8500934",
    "prefecture": "長崎県",
    "prefecture_kana": "ナガサキケン",
    "prefecture_code": "42",
    "city": "長崎市",
    "city_kana": "ナガサキシ",
    "town": "小菅町",
    "town_kana": "コスゲマチ",
    "street": null,
    "office_name": null,
    "office_name_kana": null
  },
  "0935": {
    "zip_code": "8500935",
    "prefecture": "長崎県",
    "prefecture_kana": "ナガサキケン",
    "prefecture_code": "42",
    "city": "長崎市",
    "city_kana": "ナガサキシ",
    "town": "古河町",
    "town_kana": "フルコマチ",
    "street": null,
    "office_name": null,
    "office_name_kana": null
  },
  "0936": {
    "zip_code": "8500936",
    "prefecture": "長崎県",
    "prefecture_kana": "ナガサキケン",
    "prefecture_code": "42",
    "city": "長崎市",
    "city_kana": "ナガサキシ",
    "town": "浪の平町",
    "town_kana": "ナミノヒラマチ",
    "street": null,
    "office_name": null,
    "office_name_kana": null
  },
  "0937": {
    "zip_code": "8500937",
    "prefecture": "長崎県",
    "prefecture_kana": "ナガサキケン",
    "prefecture_code": "42",
    "city": "長崎市",
    "city_kana": "ナガサキシ",
    "town": "小曽根町",
    "town_kana": "コゾネマチ",
    "street": null,
    "office_name": null,
    "office_name_kana": null
  },
  "0941": {
    "zip_code": "8500941",
    "prefecture": "長崎県",
    "prefecture_kana": "ナガサキケン",
    "prefecture_code": "42",
    "city": "長崎市",
    "city_kana": "ナガサキシ",
    "town": "高丘",
    "town_kana": "タカオカ",
    "street": null,
    "office_name": null,
    "office_name_kana": null
  },
  "0942": {
    "zip_code": "8500942",
    "prefecture": "長崎県",
    "prefecture_kana": "ナガサキケン",
    "prefecture_code": "42",
    "city": "長崎市",
    "city_kana": "ナガサキシ",
    "town": "南町",
    "town_kana": "ミナミマチ",
    "street": null,
    "office_name": null,
    "office_name_kana": null
  },
  "0943": {
    "zip_code": "8500943",
    "prefecture": "長崎県",
    "prefecture_kana": "ナガサキケン",
    "prefecture_code": "42",
    "city": "長崎市",
    "city_kana": "ナガサキシ",
    "town": "南が丘町",
    "town_kana": "ミナミガオカマチ",
    "street": null,
    "office_name": null,
    "office_name_kana": null
  },
  "0944": {
    "zip_code": "8500944",
    "prefecture": "長崎県",
    "prefecture_kana": "ナガサキケン",
    "prefecture_code": "42",
    "city": "長崎市",
    "city_kana": "ナガサキシ",
    "town": "八景町",
    "town_kana": "ハッケイマチ",
    "street": null,
    "office_name": null,
    "office_name_kana": null
  },
  "0945": {
    "zip_code": "8500945",
    "prefecture": "長崎県",
    "prefecture_kana": "ナガサキケン",
    "prefecture_code": "42",
    "city": "長崎市",
    "city_kana": "ナガサキシ",
    "town": "星取",
    "town_kana": "ホシトリ",
    "street": null,
    "office_name": null,
    "office_name_kana": null
  },
  "0946": {
    "zip_code": "8500946",
    "prefecture": "長崎県",
    "prefecture_kana": "ナガサキケン",
    "prefecture_code": "42",
    "city": "長崎市",
    "city_kana": "ナガサキシ",
    "town": "川上町",
    "town_kana": "カワカミマチ",
    "street": null,
    "office_name": null,
    "office_name_kana": null
  },
  "0947": {
    "zip_code": "8500947",
    "prefecture": "長崎県",
    "prefecture_kana": "ナガサキケン",
    "prefecture_code": "42",
    "city": "長崎市",
    "city_kana": "ナガサキシ",
    "town": "椎の木町",
    "town_kana": "シイノキマチ",
    "street": null,
    "office_name": null,
    "office_name_kana": null
  },
  "0951": {
    "zip_code": "8500951",
    "prefecture": "長崎県",
    "prefecture_kana": "ナガサキケン",
    "prefecture_code": "42",
    "city": "長崎市",
    "city_kana": "ナガサキシ",
    "town": "国分町",
    "town_kana": "コクブマチ",
    "street": null,
    "office_name": null,
    "office_name_kana": null
  },
  "0952": {
    "zip_code": "8500952",
    "prefecture": "長崎県",
    "prefecture_kana": "ナガサキケン",
    "prefecture_code": "42",
    "city": "長崎市",
    "city_kana": "ナガサキシ",
    "town": "戸町",
    "town_kana": "トマチ",
    "street": null,
    "office_name": null,
    "office_name_kana": null
  },
  "0953": {
    "zip_code": "8500953",
    "prefecture": "長崎県",
    "prefecture_kana": "ナガサキケン",
    "prefecture_code": "42",
    "city": "長崎市",
    "city_kana": "ナガサキシ",
    "town": "上戸町",
    "town_kana": "カミトマチ",
    "street": null,
    "office_name": null,
    "office_name_kana": null
  },
  "0954": {
    "zip_code": "8500954",
    "prefecture": "長崎県",
    "prefecture_kana": "ナガサキケン",
    "prefecture_code": "42",
    "city": "長崎市",
    "city_kana": "ナガサキシ",
    "town": "新戸町",
    "town_kana": "シントマチ",
    "street": null,
    "office_name": null,
    "office_name_kana": null
  },
  "0961": {
    "zip_code": "8500961",
    "prefecture": "長崎県",
    "prefecture_kana": "ナガサキケン",
    "prefecture_code": "42",
    "city": "長崎市",
    "city_kana": "ナガサキシ",
    "town": "小ケ倉町",
    "town_kana": "コガクラマチ",
    "street": null,
    "office_name": null,
    "office_name_kana": null
  },
  "0962": {
    "zip_code": "8500962",
    "prefecture": "長崎県",
    "prefecture_kana": "ナガサキケン",
    "prefecture_code": "42",
    "city": "長崎市",
    "city_kana": "ナガサキシ",
    "town": "新小が倉",
    "town_kana": "シンコガクラ",
    "street": null,
    "office_name": null,
    "office_name_kana": null
  },
  "0963": {
    "zip_code": "8500963",
    "prefecture": "長崎県",
    "prefecture_kana": "ナガサキケン",
    "prefecture_code": "42",
    "city": "長崎市",
    "city_kana": "ナガサキシ",
    "town": "ダイヤランド",
    "town_kana": "ダイヤランド",
    "street": null,
    "office_name": null,
    "office_name_kana": null
  },
  "0964": {
    "zip_code": "8500964",
    "prefecture": "長崎県",
    "prefecture_kana": "ナガサキケン",
    "prefecture_code": "42",
    "city": "長崎市",
    "city_kana": "ナガサキシ",
    "town": "大山町",
    "town_kana": "オオヤママチ",
    "street": null,
    "office_name": null,
    "office_name_kana": null
  },
  "0971": {
    "zip_code": "8500971",
    "prefecture": "長崎県",
    "prefecture_kana": "ナガサキケン",
    "prefecture_code": "42",
    "city": "長崎市",
    "city_kana": "ナガサキシ",
    "town": "磯道町",
    "town_kana": "イソミチマチ",
    "street": null,
    "office_name": null,
    "office_name_kana": null
  },
  "0972": {
    "zip_code": "8500972",
    "prefecture": "長崎県",
    "prefecture_kana": "ナガサキケン",
    "prefecture_code": "42",
    "city": "長崎市",
    "city_kana": "ナガサキシ",
    "town": "古道町",
    "town_kana": "フルミチマチ",
    "street": null,
    "office_name": null,
    "office_name_kana": null
  },
  "0973": {
    "zip_code": "8500973",
    "prefecture": "長崎県",
    "prefecture_kana": "ナガサキケン",
    "prefecture_code": "42",
    "city": "長崎市",
    "city_kana": "ナガサキシ",
    "town": "鹿尾町",
    "town_kana": "カノオマチ",
    "street": null,
    "office_name": null,
    "office_name_kana": null
  },
  "0974": {
    "zip_code": "8500974",
    "prefecture": "長崎県",
    "prefecture_kana": "ナガサキケン",
    "prefecture_code": "42",
    "city": "長崎市",
    "city_kana": "ナガサキシ",
    "town": "京太郎町",
    "town_kana": "キョウタロウマチ",
    "street": null,
    "office_name": null,
    "office_name_kana": null
  },
  "0975": {
    "zip_code": "8500975",
    "prefecture": "長崎県",
    "prefecture_kana": "ナガサキケン",
    "prefecture_code": "42",
    "city": "長崎市",
    "city_kana": "ナガサキシ",
    "town": "三和町",
    "town_kana": "サンワマチ",
    "street": null,
    "office_name": null,
    "office_name_kana": null
  },
  "0976": {
    "zip_code": "8500976",
    "prefecture": "長崎県",
    "prefecture_kana": "ナガサキケン",
    "prefecture_code": "42",
    "city": "長崎市",
    "city_kana": "ナガサキシ",
    "town": "毛井首町",
    "town_kana": "ケイクビマチ",
    "street": null,
    "office_name": null,
    "office_name_kana": null
  },
  "0977": {
    "zip_code": "8500977",
    "prefecture": "長崎県",
    "prefecture_kana": "ナガサキケン",
    "prefecture_code": "42",
    "city": "長崎市",
    "city_kana": "ナガサキシ",
    "town": "土井首町",
    "town_kana": "ドイノクビマチ",
    "street": null,
    "office_name": null,
    "office_name_kana": null
  },
  "0981": {
    "zip_code": "8500981",
    "prefecture": "長崎県",
    "prefecture_kana": "ナガサキケン",
    "prefecture_code": "42",
    "city": "長崎市",
    "city_kana": "ナガサキシ",
    "town": "草住町",
    "town_kana": "クサズミマチ",
    "street": null,
    "office_name": null,
    "office_name_kana": null
  },
  "0982": {
    "zip_code": "8500982",
    "prefecture": "長崎県",
    "prefecture_kana": "ナガサキケン",
    "prefecture_code": "42",
    "city": "長崎市",
    "city_kana": "ナガサキシ",
    "town": "柳田町",
    "town_kana": "ヤナギダマチ",
    "street": null,
    "office_name": null,
    "office_name_kana": null
  },
  "0983": {
    "zip_code": "8500983",
    "prefecture": "長崎県",
    "prefecture_kana": "ナガサキケン",
    "prefecture_code": "42",
    "city": "長崎市",
    "city_kana": "ナガサキシ",
    "town": "米山町",
    "town_kana": "コメノヤママチ",
    "street": null,
    "office_name": null,
    "office_name_kana": null
  },
  "0984": {
    "zip_code": "8500984",
    "prefecture": "長崎県",
    "prefecture_kana": "ナガサキケン",
    "prefecture_code": "42",
    "city": "長崎市",
    "city_kana": "ナガサキシ",
    "town": "鶴見台",
    "town_kana": "ツルミダイ",
    "street": null,
    "office_name": null,
    "office_name_kana": null
  },
  "0985": {
    "zip_code": "8500985",
    "prefecture": "長崎県",
    "prefecture_kana": "ナガサキケン",
    "prefecture_code": "42",
    "city": "長崎市",
    "city_kana": "ナガサキシ",
    "town": "平瀬町",
    "town_kana": "ヒラセマチ",
    "street": null,
    "office_name": null,
    "office_name_kana": null
  },
  "0991": {
    "zip_code": "8500991",
    "prefecture": "長崎県",
    "prefecture_kana": "ナガサキケン",
    "prefecture_code": "42",
    "city": "長崎市",
    "city_kana": "ナガサキシ",
    "town": "末石町",
    "town_kana": "スエイシマチ",
    "street": null,
    "office_name": null,
    "office_name_kana": null
  },
  "0992": {
    "zip_code": "8500992",
    "prefecture": "長崎県",
    "prefecture_kana": "ナガサキケン",
    "prefecture_code": "42",
    "city": "長崎市",
    "city_kana": "ナガサキシ",
    "town": "江川町",
    "town_kana": "エガワマチ",
    "street": null,
    "office_name": null,
    "office_name_kana": null
  },
  "0993": {
    "zip_code": "8500993",
    "prefecture": "長崎県",
    "prefecture_kana": "ナガサキケン",
    "prefecture_code": "42",
    "city": "長崎市",
    "city_kana": "ナガサキシ",
    "town": "八郎岳町",
    "town_kana": "ハチロウダケマチ",
    "street": null,
    "office_name": null,
    "office_name_kana": null
  },
  "0994": {
    "zip_code": "8500994",
    "prefecture": "長崎県",
    "prefecture_kana": "ナガサキケン",
    "prefecture_code": "42",
    "city": "長崎市",
    "city_kana": "ナガサキシ",
    "town": "竿浦町",
    "town_kana": "サオノウラマチ",
    "street": null,
    "office_name": null,
    "office_name_kana": null
  },
  "0995": {
    "zip_code": "8500995",
    "prefecture": "長崎県",
    "prefecture_kana": "ナガサキケン",
    "prefecture_code": "42",
    "city": "長崎市",
    "city_kana": "ナガサキシ",
    "town": "平山町",
    "town_kana": "ヒラヤママチ",
    "street": null,
    "office_name": null,
    "office_name_kana": null
  },
  "0996": {
    "zip_code": "8500996",
    "prefecture": "長崎県",
    "prefecture_kana": "ナガサキケン",
    "prefecture_code": "42",
    "city": "長崎市",
    "city_kana": "ナガサキシ",
    "town": "平山台",
    "town_kana": "ヒラヤマダイ",
    "street": null,
    "office_name": null,
    "office_name_kana": null
  },
  "8501": {
    "zip_code": "8508501",
    "prefecture": "長崎県",
    "prefecture_kana": "ナガサキケン",
    "prefecture_code": "42",
    "city": "長崎市",
    "city_kana": "ナガサキシ",
    "town": "新地町",
    "town_kana": "シンチマチ",
    "street": "３−１７",
    "office_name": "長崎自動車　株式会社",
    "office_name_kana": "ナガサキジドウシヤカブシキガイシヤ"
  },
  "8503": {
    "zip_code": "8508503",
    "prefecture": "長崎県",
    "prefecture_kana": "ナガサキケン",
    "prefecture_code": "42",
    "city": "長崎市",
    "city_kana": "ナガサキシ",
    "town": "万才町",
    "town_kana": "マンザイマチ",
    "street": "９−２６",
    "office_name": "長崎地方裁判所",
    "office_name_kana": "ナガサキチホウサイバンシヨ"
  },
  "8504": {
    "zip_code": "8508504",
    "prefecture": "長崎県",
    "prefecture_kana": "ナガサキケン",
    "prefecture_code": "42",
    "city": "長崎市",
    "city_kana": "ナガサキシ",
    "town": "出島町",
    "town_kana": "デジママチ",
    "street": "１１−１",
    "office_name": "株式会社　長崎国際テレビ",
    "office_name_kana": "カブシキガイシヤ ナガサキコクサイテレビ"
  },
  "8505": {
    "zip_code": "8508505",
    "prefecture": "長崎県",
    "prefecture_kana": "ナガサキケン",
    "prefecture_code": "42",
    "city": "長崎市",
    "city_kana": "ナガサキシ",
    "town": "浜町",
    "town_kana": "ハママチ",
    "street": "１−２２",
    "office_name": "株式会社　東美",
    "office_name_kana": "カブシキガイシヤ トウビ"
  },
  "8506": {
    "zip_code": "8508506",
    "prefecture": "長崎県",
    "prefecture_kana": "ナガサキケン",
    "prefecture_code": "42",
    "city": "長崎市",
    "city_kana": "ナガサキシ",
    "town": "片淵",
    "town_kana": "カタフチ",
    "street": "４丁目２−１",
    "office_name": "長崎大学　経済学部",
    "office_name_kana": "ナガサキダイガク ケイザイガクブ"
  },
  "8507": {
    "zip_code": "8508507",
    "prefecture": "長崎県",
    "prefecture_kana": "ナガサキケン",
    "prefecture_code": "42",
    "city": "長崎市",
    "city_kana": "ナガサキシ",
    "town": "万才町",
    "town_kana": "マンザイマチ",
    "street": "８−１６",
    "office_name": "長崎地方法務局",
    "office_name_kana": "ナガサキチホウホウムキヨク"
  },
  "8508": {
    "zip_code": "8508508",
    "prefecture": "長崎県",
    "prefecture_kana": "ナガサキケン",
    "prefecture_code": "42",
    "city": "長崎市",
    "city_kana": "ナガサキシ",
    "town": "大井手町",
    "town_kana": "オオイデマチ",
    "street": "５１−２",
    "office_name": "株式会社　丸本",
    "office_name_kana": "カブシキガイシヤ マルモト"
  },
  "8510": {
    "zip_code": "8508510",
    "prefecture": "長崎県",
    "prefecture_kana": "ナガサキケン",
    "prefecture_code": "42",
    "city": "長崎市",
    "city_kana": "ナガサキシ",
    "town": "浜町",
    "town_kana": "ハママチ",
    "street": "７−１１",
    "office_name": "株式会社　浜屋百貨店",
    "office_name_kana": "カブシキガイシヤ ハマヤヒヤツカテン"
  },
  "8511": {
    "zip_code": "8508511",
    "prefecture": "長崎県",
    "prefecture_kana": "ナガサキケン",
    "prefecture_code": "42",
    "city": "長崎市",
    "city_kana": "ナガサキシ",
    "town": "栄町",
    "town_kana": "サカエマチ",
    "street": "２−２２",
    "office_name": "一般社団法人　長崎市医師会",
    "office_name_kana": "イツパンシヤダンホウジン ナガサキシイシカイ"
  },
  "8512": {
    "zip_code": "8508512",
    "prefecture": "長崎県",
    "prefecture_kana": "ナガサキケン",
    "prefecture_code": "42",
    "city": "長崎市",
    "city_kana": "ナガサキシ",
    "town": "弥生町",
    "town_kana": "ヤヨイマチ",
    "street": "１９−１",
    "office_name": "長崎女子短期大学",
    "office_name_kana": "ナガサキジヨシタンキダイガク"
  },
  "8515": {
    "zip_code": "8508515",
    "prefecture": "長崎県",
    "prefecture_kana": "ナガサキケン",
    "prefecture_code": "42",
    "city": "長崎市",
    "city_kana": "ナガサキシ",
    "town": "東山手町",
    "town_kana": "ヒガシヤマテマチ",
    "street": "１−５０",
    "office_name": "学校法人　活水学院",
    "office_name_kana": "ガツコウホウジン カツスイガクイン"
  },
  "8518": {
    "zip_code": "8508518",
    "prefecture": "長崎県",
    "prefecture_kana": "ナガサキケン",
    "prefecture_code": "42",
    "city": "長崎市",
    "city_kana": "ナガサキシ",
    "town": "万才町",
    "town_kana": "マンザイマチ",
    "street": "７−１",
    "office_name": "住友生命保険　相互会社　長崎支社",
    "office_name_kana": "スミトモセイメイホケン ソウゴガイシヤ ナガサキシシヤ"
  },
  "8520": {
    "zip_code": "8508520",
    "prefecture": "長崎県",
    "prefecture_kana": "ナガサキケン",
    "prefecture_code": "42",
    "city": "長崎市",
    "city_kana": "ナガサキシ",
    "town": "万才町",
    "town_kana": "マンザイマチ",
    "street": "６番３８号明治生命館",
    "office_name": "三菱商事　株式会社　長崎支店",
    "office_name_kana": "ミツビシシヨウジ カブシキガイシヤ ナガサキシテン"
  },
  "8521": {
    "zip_code": "8508521",
    "prefecture": "長崎県",
    "prefecture_kana": "ナガサキケン",
    "prefecture_code": "42",
    "city": "長崎市",
    "city_kana": "ナガサキシ",
    "town": "万才町",
    "town_kana": "マンザイマチ",
    "street": "３−１６",
    "office_name": "損害保険ジャパン日本興亜　株式会社",
    "office_name_kana": "ソンガイホケンジヤパンニツポンコウア カブシキカイシヤ"
  },
  "8522": {
    "zip_code": "8508522",
    "prefecture": "長崎県",
    "prefecture_kana": "ナガサキケン",
    "prefecture_code": "42",
    "city": "長崎市",
    "city_kana": "ナガサキシ",
    "town": "古川町",
    "town_kana": "フルカワマチ",
    "street": "４−８七福ビル２Ｆ",
    "office_name": "有限会社　ザ・ながさき",
    "office_name_kana": "ユウゲンガイシヤ ザ・ナガサキ"
  },
  "8523": {
    "zip_code": "8508523",
    "prefecture": "長崎県",
    "prefecture_kana": "ナガサキケン",
    "prefecture_code": "42",
    "city": "長崎市",
    "city_kana": "ナガサキシ",
    "town": "桜木町",
    "town_kana": "サクラギマチ",
    "street": "６−４１",
    "office_name": "国立療養所　長崎病院",
    "office_name_kana": "コクリツリヨウヨウジヨ ナガサキビヨウイン"
  },
  "8525": {
    "zip_code": "8508525",
    "prefecture": "長崎県",
    "prefecture_kana": "ナガサキケン",
    "prefecture_code": "42",
    "city": "長崎市",
    "city_kana": "ナガサキシ",
    "town": "出島町",
    "town_kana": "デジママチ",
    "street": "１５番７号ＮＫ出島スクエアビル",
    "office_name": "ジブラルタ生命保険　株式会社",
    "office_name_kana": "ジブラルタセイメイホケン カブシキガイシヤ"
  },
  "8530": {
    "zip_code": "8508530",
    "prefecture": "長崎県",
    "prefecture_kana": "ナガサキケン",
    "prefecture_code": "42",
    "city": "長崎市",
    "city_kana": "ナガサキシ",
    "town": "浜町",
    "town_kana": "ハママチ",
    "street": "８−３０",
    "office_name": "株式会社　タナカヤ",
    "office_name_kana": "カブシキガイシヤ タナカヤ"
  },
  "8531": {
    "zip_code": "8508531",
    "prefecture": "長崎県",
    "prefecture_kana": "ナガサキケン",
    "prefecture_code": "42",
    "city": "長崎市",
    "city_kana": "ナガサキシ",
    "town": "五島町",
    "town_kana": "ゴトウマチ",
    "street": "５−４８",
    "office_name": "長崎船用品　株式会社",
    "office_name_kana": "ナガサキセンヨウヒンカブシキガイシヤ"
  },
  "8536": {
    "zip_code": "8508536",
    "prefecture": "長崎県",
    "prefecture_kana": "ナガサキケン",
    "prefecture_code": "42",
    "city": "長崎市",
    "city_kana": "ナガサキシ",
    "town": "大黒町",
    "town_kana": "ダイコクマチ",
    "street": "９番２２号",
    "office_name": "東洋漁業　株式会社",
    "office_name_kana": "トウヨウギヨギヨウ カブシキガイシヤ"
  },
  "8537": {
    "zip_code": "8508537",
    "prefecture": "長崎県",
    "prefecture_kana": "ナガサキケン",
    "prefecture_code": "42",
    "city": "長崎市",
    "city_kana": "ナガサキシ",
    "town": "大黒町",
    "town_kana": "ダイコクマチ",
    "street": "９−２２大久保大黒町ビル本館８階",
    "office_name": "全国健康保険協会　長崎支部",
    "office_name_kana": "ゼンコクケンコウホケンキヨウカイ ナガサキシブ"
  },
  "8540": {
    "zip_code": "8508540",
    "prefecture": "長崎県",
    "prefecture_kana": "ナガサキケン",
    "prefecture_code": "42",
    "city": "長崎市",
    "city_kana": "ナガサキシ",
    "town": "常盤町",
    "town_kana": "トキワマチ",
    "street": "１−１メットライフアリコ長崎ビル",
    "office_name": "メットライフアリコ生命保険　株式会社",
    "office_name_kana": "メツトライフアリコセイメイホケン カブシキガイシヤ"
  },
  "8541": {
    "zip_code": "8508541",
    "prefecture": "長崎県",
    "prefecture_kana": "ナガサキケン",
    "prefecture_code": "42",
    "city": "長崎市",
    "city_kana": "ナガサキシ",
    "town": "桜町",
    "town_kana": "サクラマチ",
    "street": "４番１号",
    "office_name": "長崎商工会議所",
    "office_name_kana": "ナガサキシヨウコウカイギシヨ"
  },
  "8543": {
    "zip_code": "8508543",
    "prefecture": "長崎県",
    "prefecture_kana": "ナガサキケン",
    "prefecture_code": "42",
    "city": "長崎市",
    "city_kana": "ナガサキシ",
    "town": "興善町",
    "town_kana": "コウゼンマチ",
    "street": "３−５",
    "office_name": "東京海上日動火災保険　株式会社　長崎支店",
    "office_name_kana": "トウキヨウカイジヨウニチドウカサイホケン カブシキガイシヤ ナガサキシテン"
  },
  "8545": {
    "zip_code": "8508545",
    "prefecture": "長崎県",
    "prefecture_kana": "ナガサキケン",
    "prefecture_code": "42",
    "city": "長崎市",
    "city_kana": "ナガサキシ",
    "town": "出島町",
    "town_kana": "デジママチ",
    "street": "１５−７",
    "office_name": "株式会社　長崎県酒販",
    "office_name_kana": "カブシキガイシヤ ナガサキケンシユハン"
  },
  "8547": {
    "zip_code": "8508547",
    "prefecture": "長崎県",
    "prefecture_kana": "ナガサキケン",
    "prefecture_code": "42",
    "city": "長崎市",
    "city_kana": "ナガサキシ",
    "town": "桜町",
    "town_kana": "サクラマチ",
    "street": "４−１",
    "office_name": "長崎県　信用保証協会",
    "office_name_kana": "ナガサキケン シンヨウホウシヨウキヨウカイ"
  },
  "8548": {
    "zip_code": "8508548",
    "prefecture": "長崎県",
    "prefecture_kana": "ナガサキケン",
    "prefecture_code": "42",
    "city": "長崎市",
    "city_kana": "ナガサキシ",
    "town": "万才町",
    "town_kana": "マンザイマチ",
    "street": "４−８",
    "office_name": "長崎県　警察本部",
    "office_name_kana": "ナガサキケン ケイサツホンブ"
  },
  "8550": {
    "zip_code": "8508550",
    "prefecture": "長崎県",
    "prefecture_kana": "ナガサキケン",
    "prefecture_code": "42",
    "city": "長崎市",
    "city_kana": "ナガサキシ",
    "town": "栄町",
    "town_kana": "サカエマチ",
    "street": "５−５",
    "office_name": "株式会社　エフエム長崎",
    "office_name_kana": "カブシキガイシヤ エフエムナガサキ"
  },
  "8551": {
    "zip_code": "8508551",
    "prefecture": "長崎県",
    "prefecture_kana": "ナガサキケン",
    "prefecture_code": "42",
    "city": "長崎市",
    "city_kana": "ナガサキシ",
    "town": "金屋町",
    "town_kana": "カナヤマチ",
    "street": "１番７号",
    "office_name": "株式会社　テレビ長崎",
    "office_name_kana": "カブシキガイシヤ テレビナガサキ"
  },
  "8555": {
    "zip_code": "8508555",
    "prefecture": "長崎県",
    "prefecture_kana": "ナガサキケン",
    "prefecture_code": "42",
    "city": "長崎市",
    "city_kana": "ナガサキシ",
    "town": "新地町",
    "town_kana": "シンチマチ",
    "street": "６−３９",
    "office_name": "長崎市立市民病院",
    "office_name_kana": "ナガサキシリツシミンビヨウイン"
  },
  "8558": {
    "zip_code": "8508558",
    "prefecture": "長崎県",
    "prefecture_kana": "ナガサキケン",
    "prefecture_code": "42",
    "city": "長崎市",
    "city_kana": "ナガサキシ",
    "town": "五島町",
    "town_kana": "ゴトウマチ",
    "street": "３−２５",
    "office_name": "松藤商事　株式会社",
    "office_name_kana": "マツフジシヨウジ カブシキガイシヤ"
  },
  "8560": {
    "zip_code": "8508560",
    "prefecture": "長崎県",
    "prefecture_kana": "ナガサキケン",
    "prefecture_code": "42",
    "city": "長崎市",
    "city_kana": "ナガサキシ",
    "town": "万才町",
    "town_kana": "マンザイマチ",
    "street": "９−３３",
    "office_name": "長崎地方検察庁",
    "office_name_kana": "ナガサキチホウケンサツチヨウ"
  },
  "8563": {
    "zip_code": "8508563",
    "prefecture": "長崎県",
    "prefecture_kana": "ナガサキケン",
    "prefecture_code": "42",
    "city": "長崎市",
    "city_kana": "ナガサキシ",
    "town": "桜町",
    "town_kana": "サクラマチ",
    "street": "６番３号",
    "office_name": "長崎市上下水道局",
    "office_name_kana": "ナガサキシジヨウゲスイドウキヨク"
  },
  "8566": {
    "zip_code": "8508566",
    "prefecture": "長崎県",
    "prefecture_kana": "ナガサキケン",
    "prefecture_code": "42",
    "city": "長崎市",
    "city_kana": "ナガサキシ",
    "town": "万才町",
    "town_kana": "マンザイマチ",
    "street": "３−１４",
    "office_name": "財団法人　長崎県教職員互助組合",
    "office_name_kana": "ザイダンホウジン ナガサキケンキヨウシヨクインゴジヨクミアイ"
  },
  "8567": {
    "zip_code": "8508567",
    "prefecture": "長崎県",
    "prefecture_kana": "ナガサキケン",
    "prefecture_code": "42",
    "city": "長崎市",
    "city_kana": "ナガサキシ",
    "town": "浜町",
    "town_kana": "ハママチ",
    "street": "１−７",
    "office_name": "安達　株式会社",
    "office_name_kana": "アダチ カブシキガイシヤ"
  },
  "8570": {
    "zip_code": "8508570",
    "prefecture": "長崎県",
    "prefecture_kana": "ナガサキケン",
    "prefecture_code": "42",
    "city": "長崎市",
    "city_kana": "ナガサキシ",
    "town": "江戸町",
    "town_kana": "エドマチ",
    "street": "２−１３",
    "office_name": "長崎県庁",
    "office_name_kana": "ナガサキケンチヨウ"
  },
  "8575": {
    "zip_code": "8508575",
    "prefecture": "長崎県",
    "prefecture_kana": "ナガサキケン",
    "prefecture_code": "42",
    "city": "長崎市",
    "city_kana": "ナガサキシ",
    "town": "魚の町",
    "town_kana": "ウオノマチ",
    "street": "３番２８号",
    "office_name": "日本赤十字社　長崎県支部",
    "office_name_kana": "ニホンセキジユウジシヤ ナガサキケンシブ"
  },
  "8577": {
    "zip_code": "8508577",
    "prefecture": "長崎県",
    "prefecture_kana": "ナガサキケン",
    "prefecture_code": "42",
    "city": "長崎市",
    "city_kana": "ナガサキシ",
    "town": "新大工町",
    "town_kana": "シンダイクマチ",
    "street": "５−３５",
    "office_name": "株式会社　佐世保玉屋　長崎支店",
    "office_name_kana": "カブシキガイシヤ サセボタマヤ ナガサキシテン"
  },
  "8580": {
    "zip_code": "8508580",
    "prefecture": "長崎県",
    "prefecture_kana": "ナガサキケン",
    "prefecture_code": "42",
    "city": "長崎市",
    "city_kana": "ナガサキシ",
    "town": "浜町",
    "town_kana": "ハママチ",
    "street": "４−１１",
    "office_name": "株式会社　博多大丸　長崎店",
    "office_name_kana": "カブシキガイシヤ ハカタダイマル ナガサキテン"
  },
  "8585": {
    "zip_code": "8508585",
    "prefecture": "長崎県",
    "prefecture_kana": "ナガサキケン",
    "prefecture_code": "42",
    "city": "長崎市",
    "city_kana": "ナガサキシ",
    "town": "西坂町",
    "town_kana": "ニシザカマチ",
    "street": "２−３長崎駅前第一生命ビル",
    "office_name": "ひぐち企業グループ",
    "office_name_kana": "ヒグチキギヨウグル-プ"
  },
  "8586": {
    "zip_code": "8508586",
    "prefecture": "長崎県",
    "prefecture_kana": "ナガサキケン",
    "prefecture_code": "42",
    "city": "長崎市",
    "city_kana": "ナガサキシ",
    "town": "東山手町",
    "town_kana": "ヒガシヤマテマチ",
    "street": "５番３号",
    "office_name": "学校法人　海星学園　海星中学校・海星高等学校",
    "office_name_kana": "ガツコウホウジン カイセイガクエン カイセイチユウガツコウ・カイセイコウトウガツコウ"
  },
  "8588": {
    "zip_code": "8508588",
    "prefecture": "長崎県",
    "prefecture_kana": "ナガサキケン",
    "prefecture_code": "42",
    "city": "長崎市",
    "city_kana": "ナガサキシ",
    "town": "西坂町",
    "town_kana": "ニシザカマチ",
    "street": "２０−１",
    "office_name": "日昇観光　株式会社",
    "office_name_kana": "ニツシヨウカンコウ カブシキガイシヤ"
  },
  "8602": {
    "zip_code": "8508602",
    "prefecture": "長崎県",
    "prefecture_kana": "ナガサキケン",
    "prefecture_code": "42",
    "city": "長崎市",
    "city_kana": "ナガサキシ",
    "town": "元船町",
    "town_kana": "モトフナマチ",
    "street": "１４−１０（長崎中央郵便局私書箱第４８号）",
    "office_name": "株式会社　橋本商会",
    "office_name_kana": "カブシキガイシヤ ハシモトシヨウカイ"
  },
  "8603": {
    "zip_code": "8508603",
    "prefecture": "長崎県",
    "prefecture_kana": "ナガサキケン",
    "prefecture_code": "42",
    "city": "長崎市",
    "city_kana": "ナガサキシ",
    "town": "西坂町",
    "town_kana": "ニシザカマチ",
    "street": "１−１（長崎中央郵便局私書箱第３号）",
    "office_name": "ＮＨＫ　長崎放送局",
    "office_name_kana": "エヌエイチケイ ナガサキホウソウキヨク"
  },
  "8606": {
    "zip_code": "8508606",
    "prefecture": "長崎県",
    "prefecture_kana": "ナガサキケン",
    "prefecture_code": "42",
    "city": "長崎市",
    "city_kana": "ナガサキシ",
    "town": "西坂町",
    "town_kana": "ニシザカマチ",
    "street": "２−３（長崎中央郵便局私書箱第５７号）",
    "office_name": "第一生命保険　株式会社　長崎支社",
    "office_name_kana": "ダイイチセイメイホケン カブシキガイシヤ ナガサキシシヤ"
  },
  "8610": {
    "zip_code": "8508610",
    "prefecture": "長崎県",
    "prefecture_kana": "ナガサキケン",
    "prefecture_code": "42",
    "city": "長崎市",
    "city_kana": "ナガサキシ",
    "town": "飽の浦町",
    "town_kana": "アクノウラマチ",
    "street": "１−１（長崎中央郵便局私書箱第１４号）",
    "office_name": "三菱重工業　株式会社　長崎造船所",
    "office_name_kana": "ミツビシジユウコウギヨウカブシキガイシヤナカザキゾウセンジヨ"
  },
  "8611": {
    "zip_code": "8508611",
    "prefecture": "長崎県",
    "prefecture_kana": "ナガサキケン",
    "prefecture_code": "42",
    "city": "長崎市",
    "city_kana": "ナガサキシ",
    "town": "出島町",
    "town_kana": "デジママチ",
    "street": "１４−７",
    "office_name": "株式会社　エヌ・ティ・ティ・マーケティングアクト九州",
    "office_name_kana": "カブシキガイシヤ エヌテイテイマ-ケテイングアクトキユウシユウ"
  },
  "8618": {
    "zip_code": "8508618",
    "prefecture": "長崎県",
    "prefecture_kana": "ナガサキケン",
    "prefecture_code": "42",
    "city": "長崎市",
    "city_kana": "ナガサキシ",
    "town": "銅座町",
    "town_kana": "ドウザマチ",
    "street": "１−１１（長崎中央郵便局私書箱第１８号）",
    "office_name": "株式会社　十八銀行",
    "office_name_kana": "カブシキガイシヤ ジユウハチギンコウ"
  },
  "8622": {
    "zip_code": "8508622",
    "prefecture": "長崎県",
    "prefecture_kana": "ナガサキケン",
    "prefecture_code": "42",
    "city": "長崎市",
    "city_kana": "ナガサキシ",
    "town": "元船町",
    "town_kana": "モトフナマチ",
    "street": "４−１２（長崎中央郵便局私書箱第９８号）",
    "office_name": "日本通運　株式会社　長崎支店",
    "office_name_kana": "ニツポンツウウンカブシキガイシヤナガサキシテン"
  },
  "8645": {
    "zip_code": "8508645",
    "prefecture": "長崎県",
    "prefecture_kana": "ナガサキケン",
    "prefecture_code": "42",
    "city": "長崎市",
    "city_kana": "ナガサキシ",
    "town": "炉粕町",
    "town_kana": "ロカスマチ",
    "street": "３２（長崎中央郵便局私書箱第４５号）",
    "office_name": "日本銀行　長崎支店",
    "office_name_kana": "ニツポンギンコウナガサキシテン"
  },
  "8650": {
    "zip_code": "8508650",
    "prefecture": "長崎県",
    "prefecture_kana": "ナガサキケン",
    "prefecture_code": "42",
    "city": "長崎市",
    "city_kana": "ナガサキシ",
    "town": "上町",
    "town_kana": "ウワマチ",
    "street": "１−３５（長崎中央郵便局私書箱第５０号）",
    "office_name": "長崎放送　株式会社",
    "office_name_kana": "ナガサキホウソウ カブシキガイシヤ"
  },
  "8662": {
    "zip_code": "8508662",
    "prefecture": "長崎県",
    "prefecture_kana": "ナガサキケン",
    "prefecture_code": "42",
    "city": "長崎市",
    "city_kana": "ナガサキシ",
    "town": "万才町",
    "town_kana": "マンザイマチ",
    "street": "４−１５（長崎中央郵便局私書箱第６２号）",
    "office_name": "日本生命保険　相互会社　長崎支社",
    "office_name_kana": "ニホンセイメイホケンソウゴガイシヤナガサキシシヤ"
  },
  "8666": {
    "zip_code": "8508666",
    "prefecture": "長崎県",
    "prefecture_kana": "ナガサキケン",
    "prefecture_code": "42",
    "city": "長崎市",
    "city_kana": "ナガサキシ",
    "town": "栄町",
    "town_kana": "サカエマチ",
    "street": "３−１４（長崎中央郵便局私書箱第６６号）",
    "office_name": "株式会社　長崎銀行",
    "office_name_kana": "カブシキガイシヤ ナガサキギンコウ"
  },
  "8668": {
    "zip_code": "8508668",
    "prefecture": "長崎県",
    "prefecture_kana": "ナガサキケン",
    "prefecture_code": "42",
    "city": "長崎市",
    "city_kana": "ナガサキシ",
    "town": "尾上町",
    "town_kana": "オノウエマチ",
    "street": "１−１６（長崎中央郵便局私書箱第１０７号）",
    "office_name": "長崎運送　株式会社",
    "office_name_kana": "ナガサキウンソウ カブシキガイシヤ"
  },
  "8677": {
    "zip_code": "8508677",
    "prefecture": "長崎県",
    "prefecture_kana": "ナガサキケン",
    "prefecture_code": "42",
    "city": "長崎市",
    "city_kana": "ナガサキシ",
    "town": "飽の浦町",
    "town_kana": "アクノウラマチ",
    "street": "５−３（長崎中央郵便局私書箱第４７号）",
    "office_name": "西日本菱重興産　株式会社",
    "office_name_kana": "ニシニホンリヨウジユウコウサンカブシキガイシヤ"
  },
  "8678": {
    "zip_code": "8508678",
    "prefecture": "長崎県",
    "prefecture_kana": "ナガサキケン",
    "prefecture_code": "42",
    "city": "長崎市",
    "city_kana": "ナガサキシ",
    "town": "松が枝町",
    "town_kana": "マツガエマチ",
    "street": "６−２６（長崎中央郵便局私書箱第４９号）",
    "office_name": "長崎税務署",
    "office_name_kana": "ナガサキゼイムシヨ"
  },
  "8685": {
    "zip_code": "8508685",
    "prefecture": "長崎県",
    "prefecture_kana": "ナガサキケン",
    "prefecture_code": "42",
    "city": "長崎市",
    "city_kana": "ナガサキシ",
    "town": "桜町",
    "town_kana": "サクラマチ",
    "street": "２−２２（長崎中央郵便局私書箱第８５号）",
    "office_name": "長崎市役所",
    "office_name_kana": "ナガサキシヤクシヨ"
  },
  "8686": {
    "zip_code": "8508686",
    "prefecture": "長崎県",
    "prefecture_kana": "ナガサキケン",
    "prefecture_code": "42",
    "city": "長崎市",
    "city_kana": "ナガサキシ",
    "town": "五島町",
    "town_kana": "ゴトウマチ",
    "street": "２−２７（長崎中央郵便局私書箱第９７号）",
    "office_name": "長崎県　漁業協同組合連合会",
    "office_name_kana": "ナガサキケン ギヨギヨウキヨウドウクミアイレンゴウカイ"
  },
  "8687": {
    "zip_code": "8508687",
    "prefecture": "長崎県",
    "prefecture_kana": "ナガサキケン",
    "prefecture_code": "42",
    "city": "長崎市",
    "city_kana": "ナガサキシ",
    "town": "賑町",
    "town_kana": "ニギワイマチ",
    "street": "６−６（長崎中央郵便局私書箱第３５号）",
    "office_name": "株式会社　親和銀行　長崎支店",
    "office_name_kana": "カブシキガイシヤ シンワギンコウ ナガサキシテン"
  },
  "8688": {
    "zip_code": "8508688",
    "prefecture": "長崎県",
    "prefecture_kana": "ナガサキケン",
    "prefecture_code": "42",
    "city": "長崎市",
    "city_kana": "ナガサキシ",
    "town": "金屋町",
    "town_kana": "カナヤマチ",
    "street": "１−７（長崎中央郵便局私書箱第１００号）",
    "office_name": "株式会社　テレビ長崎",
    "office_name_kana": "カブシキガイシヤ テレビナガサキ"
  }
}