{
  "0000": {
    "zip_code": "8550000",
    "prefecture": "長崎県",
    "prefecture_kana": "ナガサキケン",
    "prefecture_code": 42,
    "city": "島原市",
    "city_kana": "シマバラシ",
    "town": "",
    "town_kana": "",
    "street": null,
    "office_name": null,
    "office_name_kana": null
  },
  "0001": {
    "zip_code": "8550001",
    "prefecture": "長崎県",
    "prefecture_kana": "ナガサキケン",
    "prefecture_code": 42,
    "city": "島原市",
    "city_kana": "シマバラシ",
    "town": "中野町",
    "town_kana": "ナカノマチ",
    "street": null,
    "office_name": null,
    "office_name_kana": null
  },
  "0002": {
    "zip_code": "8550002",
    "prefecture": "長崎県",
    "prefecture_kana": "ナガサキケン",
    "prefecture_code": 42,
    "city": "島原市",
    "city_kana": "シマバラシ",
    "town": "洗切町",
    "town_kana": "アライキリマチ",
    "street": null,
    "office_name": null,
    "office_name_kana": null
  },
  "0003": {
    "zip_code": "8550003",
    "prefecture": "長崎県",
    "prefecture_kana": "ナガサキケン",
    "prefecture_code": 42,
    "city": "島原市",
    "city_kana": "シマバラシ",
    "town": "三会町",
    "town_kana": "ミエマチ",
    "street": null,
    "office_name": null,
    "office_name_kana": null
  },
  "0004": {
    "zip_code": "8550004",
    "prefecture": "長崎県",
    "prefecture_kana": "ナガサキケン",
    "prefecture_code": 42,
    "city": "島原市",
    "city_kana": "シマバラシ",
    "town": "亀の甲町",
    "town_kana": "カメノコウマチ",
    "street": null,
    "office_name": null,
    "office_name_kana": null
  },
  "0005": {
    "zip_code": "8550005",
    "prefecture": "長崎県",
    "prefecture_kana": "ナガサキケン",
    "prefecture_code": 42,
    "city": "島原市",
    "city_kana": "シマバラシ",
    "town": "中原町",
    "town_kana": "ナカバラマチ",
    "street": null,
    "office_name": null,
    "office_name_kana": null
  },
  "0006": {
    "zip_code": "8550006",
    "prefecture": "長崎県",
    "prefecture_kana": "ナガサキケン",
    "prefecture_code": 42,
    "city": "島原市",
    "city_kana": "シマバラシ",
    "town": "寺中町",
    "town_kana": "ジチュウマチ",
    "street": null,
    "office_name": null,
    "office_name_kana": null
  },
  "0007": {
    "zip_code": "8550007",
    "prefecture": "長崎県",
    "prefecture_kana": "ナガサキケン",
    "prefecture_code": 42,
    "city": "島原市",
    "city_kana": "シマバラシ",
    "town": "津吹町",
    "town_kana": "ツブキマチ",
    "street": null,
    "office_name": null,
    "office_name_kana": null
  },
  "0008": {
    "zip_code": "8550008",
    "prefecture": "長崎県",
    "prefecture_kana": "ナガサキケン",
    "prefecture_code": 42,
    "city": "島原市",
    "city_kana": "シマバラシ",
    "town": "原口町",
    "town_kana": "ハラグチマチ",
    "street": null,
    "office_name": null,
    "office_name_kana": null
  },
  "0011": {
    "zip_code": "8550011",
    "prefecture": "長崎県",
    "prefecture_kana": "ナガサキケン",
    "prefecture_code": 42,
    "city": "島原市",
    "city_kana": "シマバラシ",
    "town": "御手水町",
    "town_kana": "オチョウズマチ",
    "street": null,
    "office_name": null,
    "office_name_kana": null
  },
  "0012": {
    "zip_code": "8550012",
    "prefecture": "長崎県",
    "prefecture_kana": "ナガサキケン",
    "prefecture_code": 42,
    "city": "島原市",
    "city_kana": "シマバラシ",
    "town": "大手原町",
    "town_kana": "オオテバラマチ",
    "street": null,
    "office_name": null,
    "office_name_kana": null
  },
  "0013": {
    "zip_code": "8550013",
    "prefecture": "長崎県",
    "prefecture_kana": "ナガサキケン",
    "prefecture_code": 42,
    "city": "島原市",
    "city_kana": "シマバラシ",
    "town": "稗田町",
    "town_kana": "ヒエダマチ",
    "street": null,
    "office_name": null,
    "office_name_kana": null
  },
  "0014": {
    "zip_code": "8550014",
    "prefecture": "長崎県",
    "prefecture_kana": "ナガサキケン",
    "prefecture_code": 42,
    "city": "島原市",
    "city_kana": "シマバラシ",
    "town": "下宮町",
    "town_kana": "シモミヤマチ",
    "street": null,
    "office_name": null,
    "office_name_kana": null
  },
  "0015": {
    "zip_code": "8550015",
    "prefecture": "長崎県",
    "prefecture_kana": "ナガサキケン",
    "prefecture_code": 42,
    "city": "島原市",
    "city_kana": "シマバラシ",
    "town": "出平町",
    "town_kana": "イデヒラマチ",
    "street": null,
    "office_name": null,
    "office_name_kana": null
  },
  "0016": {
    "zip_code": "8550016",
    "prefecture": "長崎県",
    "prefecture_kana": "ナガサキケン",
    "prefecture_code": 42,
    "city": "島原市",
    "city_kana": "シマバラシ",
    "town": "山寺町",
    "town_kana": "ヤマデラマチ",
    "street": null,
    "office_name": null,
    "office_name_kana": null
  },
  "0017": {
    "zip_code": "8550017",
    "prefecture": "長崎県",
    "prefecture_kana": "ナガサキケン",
    "prefecture_code": 42,
    "city": "島原市",
    "city_kana": "シマバラシ",
    "town": "江里町",
    "town_kana": "エリマチ",
    "street": null,
    "office_name": null,
    "office_name_kana": null
  },
  "0018": {
    "zip_code": "8550018",
    "prefecture": "長崎県",
    "prefecture_kana": "ナガサキケン",
    "prefecture_code": 42,
    "city": "島原市",
    "city_kana": "シマバラシ",
    "town": "西町",
    "town_kana": "ニシマチ",
    "street": null,
    "office_name": null,
    "office_name_kana": null
  },
  "0021": {
    "zip_code": "8550021",
    "prefecture": "長崎県",
    "prefecture_kana": "ナガサキケン",
    "prefecture_code": 42,
    "city": "島原市",
    "city_kana": "シマバラシ",
    "town": "油堀町",
    "town_kana": "アブラボリマチ",
    "street": null,
    "office_name": null,
    "office_name_kana": null
  },
  "0022": {
    "zip_code": "8550022",
    "prefecture": "長崎県",
    "prefecture_kana": "ナガサキケン",
    "prefecture_code": 42,
    "city": "島原市",
    "city_kana": "シマバラシ",
    "town": "長貫町",
    "town_kana": "ナガヌキマチ",
    "street": null,
    "office_name": null,
    "office_name_kana": null
  },
  "0023": {
    "zip_code": "8550023",
    "prefecture": "長崎県",
    "prefecture_kana": "ナガサキケン",
    "prefecture_code": 42,
    "city": "島原市",
    "city_kana": "シマバラシ",
    "town": "出の川町",
    "town_kana": "イデノカワマチ",
    "street": null,
    "office_name": null,
    "office_name_kana": null
  },
  "0024": {
    "zip_code": "8550024",
    "prefecture": "長崎県",
    "prefecture_kana": "ナガサキケン",
    "prefecture_code": 42,
    "city": "島原市",
    "city_kana": "シマバラシ",
    "town": "広高野町",
    "town_kana": "ヒロコウヤマチ",
    "street": null,
    "office_name": null,
    "office_name_kana": null
  },
  "0025": {
    "zip_code": "8550025",
    "prefecture": "長崎県",
    "prefecture_kana": "ナガサキケン",
    "prefecture_code": 42,
    "city": "島原市",
    "city_kana": "シマバラシ",
    "town": "立野町",
    "town_kana": "タテノマチ",
    "street": null,
    "office_name": null,
    "office_name_kana": null
  },
  "0026": {
    "zip_code": "8550026",
    "prefecture": "長崎県",
    "prefecture_kana": "ナガサキケン",
    "prefecture_code": 42,
    "city": "島原市",
    "city_kana": "シマバラシ",
    "town": "礫石原町",
    "town_kana": "クレイシバルマチ",
    "street": null,
    "office_name": null,
    "office_name_kana": null
  },
  "0031": {
    "zip_code": "8550031",
    "prefecture": "長崎県",
    "prefecture_kana": "ナガサキケン",
    "prefecture_code": 42,
    "city": "島原市",
    "city_kana": "シマバラシ",
    "town": "前浜町",
    "town_kana": "マエハママチ",
    "street": null,
    "office_name": null,
    "office_name_kana": null
  },
  "0032": {
    "zip_code": "8550032",
    "prefecture": "長崎県",
    "prefecture_kana": "ナガサキケン",
    "prefecture_code": 42,
    "city": "島原市",
    "city_kana": "シマバラシ",
    "town": "北門町",
    "town_kana": "キタモンマチ",
    "street": null,
    "office_name": null,
    "office_name_kana": null
  },
  "0033": {
    "zip_code": "8550033",
    "prefecture": "長崎県",
    "prefecture_kana": "ナガサキケン",
    "prefecture_code": 42,
    "city": "島原市",
    "city_kana": "シマバラシ",
    "town": "新馬場町",
    "town_kana": "シンババマチ",
    "street": null,
    "office_name": null,
    "office_name_kana": null
  },
  "0034": {
    "zip_code": "8550034",
    "prefecture": "長崎県",
    "prefecture_kana": "ナガサキケン",
    "prefecture_code": 42,
    "city": "島原市",
    "city_kana": "シマバラシ",
    "town": "田町",
    "town_kana": "タマチ",
    "street": null,
    "office_name": null,
    "office_name_kana": null
  },
  "0035": {
    "zip_code": "8550035",
    "prefecture": "長崎県",
    "prefecture_kana": "ナガサキケン",
    "prefecture_code": 42,
    "city": "島原市",
    "city_kana": "シマバラシ",
    "town": "先魁町",
    "town_kana": "サキガケマチ",
    "street": null,
    "office_name": null,
    "office_name_kana": null
  },
  "0036": {
    "zip_code": "8550036",
    "prefecture": "長崎県",
    "prefecture_kana": "ナガサキケン",
    "prefecture_code": 42,
    "city": "島原市",
    "city_kana": "シマバラシ",
    "town": "城内",
    "town_kana": "ジョウナイ",
    "street": null,
    "office_name": null,
    "office_name_kana": null
  },
  "0038": {
    "zip_code": "8550038",
    "prefecture": "長崎県",
    "prefecture_kana": "ナガサキケン",
    "prefecture_code": 42,
    "city": "島原市",
    "city_kana": "シマバラシ",
    "town": "",
    "town_kana": "",
    "street": null,
    "office_name": null,
    "office_name_kana": null
  },
  "0041": {
    "zip_code": "8550041",
    "prefecture": "長崎県",
    "prefecture_kana": "ナガサキケン",
    "prefecture_code": 42,
    "city": "島原市",
    "city_kana": "シマバラシ",
    "town": "宮の町",
    "town_kana": "ミヤノマチ",
    "street": null,
    "office_name": null,
    "office_name_kana": null
  },
  "0042": {
    "zip_code": "8550042",
    "prefecture": "長崎県",
    "prefecture_kana": "ナガサキケン",
    "prefecture_code": 42,
    "city": "島原市",
    "city_kana": "シマバラシ",
    "town": "片町",
    "town_kana": "カタマチ",
    "street": null,
    "office_name": null,
    "office_name_kana": null
  },
  "0043": {
    "zip_code": "8550043",
    "prefecture": "長崎県",
    "prefecture_kana": "ナガサキケン",
    "prefecture_code": 42,
    "city": "島原市",
    "city_kana": "シマバラシ",
    "town": "新田町",
    "town_kana": "シンデンマチ",
    "street": null,
    "office_name": null,
    "office_name_kana": null
  },
  "0044": {
    "zip_code": "8550044",
    "prefecture": "長崎県",
    "prefecture_kana": "ナガサキケン",
    "prefecture_code": 42,
    "city": "島原市",
    "city_kana": "シマバラシ",
    "town": "中町",
    "town_kana": "ナカマチ",
    "street": null,
    "office_name": null,
    "office_name_kana": null
  },
  "0045": {
    "zip_code": "8550045",
    "prefecture": "長崎県",
    "prefecture_kana": "ナガサキケン",
    "prefecture_code": 42,
    "city": "島原市",
    "city_kana": "シマバラシ",
    "town": "上の町",
    "town_kana": "ウエノマチ",
    "street": null,
    "office_name": null,
    "office_name_kana": null
  },
  "0046": {
    "zip_code": "8550046",
    "prefecture": "長崎県",
    "prefecture_kana": "ナガサキケン",
    "prefecture_code": 42,
    "city": "島原市",
    "city_kana": "シマバラシ",
    "town": "今川町",
    "town_kana": "イマガワマチ",
    "street": null,
    "office_name": null,
    "office_name_kana": null
  },
  "0051": {
    "zip_code": "8550051",
    "prefecture": "長崎県",
    "prefecture_kana": "ナガサキケン",
    "prefecture_code": 42,
    "city": "島原市",
    "city_kana": "シマバラシ",
    "town": "桜門町",
    "town_kana": "サクラモンマチ",
    "street": null,
    "office_name": null,
    "office_name_kana": null
  },
  "0052": {
    "zip_code": "8550052",
    "prefecture": "長崎県",
    "prefecture_kana": "ナガサキケン",
    "prefecture_code": 42,
    "city": "島原市",
    "city_kana": "シマバラシ",
    "town": "下の丁",
    "town_kana": "シタノチョウ",
    "street": null,
    "office_name": null,
    "office_name_kana": null
  },
  "0053": {
    "zip_code": "8550053",
    "prefecture": "長崎県",
    "prefecture_kana": "ナガサキケン",
    "prefecture_code": 42,
    "city": "島原市",
    "city_kana": "シマバラシ",
    "town": "城西中の丁",
    "town_kana": "ジョウセイナカノチョウ",
    "street": null,
    "office_name": null,
    "office_name_kana": null
  },
  "0054": {
    "zip_code": "8550054",
    "prefecture": "長崎県",
    "prefecture_kana": "ナガサキケン",
    "prefecture_code": 42,
    "city": "島原市",
    "city_kana": "シマバラシ",
    "town": "古丁",
    "town_kana": "フルチョウ",
    "street": null,
    "office_name": null,
    "office_name_kana": null
  },
  "0055": {
    "zip_code": "8550055",
    "prefecture": "長崎県",
    "prefecture_kana": "ナガサキケン",
    "prefecture_code": 42,
    "city": "島原市",
    "city_kana": "シマバラシ",
    "town": "下新丁",
    "town_kana": "シタジンチョウ",
    "street": null,
    "office_name": null,
    "office_name_kana": null
  },
  "0056": {
    "zip_code": "8550056",
    "prefecture": "長崎県",
    "prefecture_kana": "ナガサキケン",
    "prefecture_code": 42,
    "city": "島原市",
    "city_kana": "シマバラシ",
    "town": "浦の川",
    "town_kana": "ウラノカワ",
    "street": null,
    "office_name": null,
    "office_name_kana": null
  },
  "0057": {
    "zip_code": "8550057",
    "prefecture": "長崎県",
    "prefecture_kana": "ナガサキケン",
    "prefecture_code": 42,
    "city": "島原市",
    "city_kana": "シマバラシ",
    "town": "新建",
    "town_kana": "シンダチ",
    "street": null,
    "office_name": null,
    "office_name_kana": null
  },
  "0058": {
    "zip_code": "8550058",
    "prefecture": "長崎県",
    "prefecture_kana": "ナガサキケン",
    "prefecture_code": 42,
    "city": "島原市",
    "city_kana": "シマバラシ",
    "town": "北原町",
    "town_kana": "キタバラマチ",
    "street": null,
    "office_name": null,
    "office_name_kana": null
  },
  "0059": {
    "zip_code": "8550059",
    "prefecture": "長崎県",
    "prefecture_kana": "ナガサキケン",
    "prefecture_code": 42,
    "city": "島原市",
    "city_kana": "シマバラシ",
    "town": "江戸丁",
    "town_kana": "エドチョウ",
    "street": null,
    "office_name": null,
    "office_name_kana": null
  },
  "0061": {
    "zip_code": "8550061",
    "prefecture": "長崎県",
    "prefecture_kana": "ナガサキケン",
    "prefecture_code": 42,
    "city": "島原市",
    "city_kana": "シマバラシ",
    "town": "中尾町",
    "town_kana": "ナカオマチ",
    "street": null,
    "office_name": null,
    "office_name_kana": null
  },
  "0062": {
    "zip_code": "8550062",
    "prefecture": "長崎県",
    "prefecture_kana": "ナガサキケン",
    "prefecture_code": 42,
    "city": "島原市",
    "city_kana": "シマバラシ",
    "town": "本町",
    "town_kana": "ホンマチ",
    "street": null,
    "office_name": null,
    "office_name_kana": null
  },
  "0063": {
    "zip_code": "8550063",
    "prefecture": "長崎県",
    "prefecture_kana": "ナガサキケン",
    "prefecture_code": 42,
    "city": "島原市",
    "city_kana": "シマバラシ",
    "town": "原町",
    "town_kana": "ハラマチ",
    "street": null,
    "office_name": null,
    "office_name_kana": null
  },
  "0064": {
    "zip_code": "8550064",
    "prefecture": "長崎県",
    "prefecture_kana": "ナガサキケン",
    "prefecture_code": 42,
    "city": "島原市",
    "city_kana": "シマバラシ",
    "town": "柏野町",
    "town_kana": "カシワノマチ",
    "street": null,
    "office_name": null,
    "office_name_kana": null
  },
  "0065": {
    "zip_code": "8550065",
    "prefecture": "長崎県",
    "prefecture_kana": "ナガサキケン",
    "prefecture_code": 42,
    "city": "島原市",
    "city_kana": "シマバラシ",
    "town": "南柏野町",
    "town_kana": "ミナミカシワノマチ",
    "street": null,
    "office_name": null,
    "office_name_kana": null
  },
  "0066": {
    "zip_code": "8550066",
    "prefecture": "長崎県",
    "prefecture_kana": "ナガサキケン",
    "prefecture_code": 42,
    "city": "島原市",
    "city_kana": "シマバラシ",
    "town": "柿の木町",
    "town_kana": "カキノキマチ",
    "street": null,
    "office_name": null,
    "office_name_kana": null
  },
  "0067": {
    "zip_code": "8550067",
    "prefecture": "長崎県",
    "prefecture_kana": "ナガサキケン",
    "prefecture_code": 42,
    "city": "島原市",
    "city_kana": "シマバラシ",
    "town": "上新丁",
    "town_kana": "ウワジンチョウ",
    "street": null,
    "office_name": null,
    "office_name_kana": null
  },
  "0068": {
    "zip_code": "8550068",
    "prefecture": "長崎県",
    "prefecture_kana": "ナガサキケン",
    "prefecture_code": 42,
    "city": "島原市",
    "city_kana": "シマバラシ",
    "town": "杉山町",
    "town_kana": "スギヤママチ",
    "street": null,
    "office_name": null,
    "office_name_kana": null
  },
  "0071": {
    "zip_code": "8550071",
    "prefecture": "長崎県",
    "prefecture_kana": "ナガサキケン",
    "prefecture_code": 42,
    "city": "島原市",
    "city_kana": "シマバラシ",
    "town": "宇土町",
    "town_kana": "ウトマチ",
    "street": null,
    "office_name": null,
    "office_name_kana": null
  },
  "0072": {
    "zip_code": "8550072",
    "prefecture": "長崎県",
    "prefecture_kana": "ナガサキケン",
    "prefecture_code": 42,
    "city": "島原市",
    "city_kana": "シマバラシ",
    "town": "六ツ木町",
    "town_kana": "ムツギマチ",
    "street": null,
    "office_name": null,
    "office_name_kana": null
  },
  "0073": {
    "zip_code": "8550073",
    "prefecture": "長崎県",
    "prefecture_kana": "ナガサキケン",
    "prefecture_code": 42,
    "city": "島原市",
    "city_kana": "シマバラシ",
    "town": "本光寺町",
    "town_kana": "ホンコウジマチ",
    "street": null,
    "office_name": null,
    "office_name_kana": null
  },
  "0074": {
    "zip_code": "8550074",
    "prefecture": "長崎県",
    "prefecture_kana": "ナガサキケン",
    "prefecture_code": 42,
    "city": "島原市",
    "city_kana": "シマバラシ",
    "town": "城見町",
    "town_kana": "シロミマチ",
    "street": null,
    "office_name": null,
    "office_name_kana": null
  },
  "0075": {
    "zip_code": "8550075",
    "prefecture": "長崎県",
    "prefecture_kana": "ナガサキケン",
    "prefecture_code": 42,
    "city": "島原市",
    "city_kana": "シマバラシ",
    "town": "下折橋町",
    "town_kana": "シモオリハシマチ",
    "street": null,
    "office_name": null,
    "office_name_kana": null
  },
  "0076": {
    "zip_code": "8550076",
    "prefecture": "長崎県",
    "prefecture_kana": "ナガサキケン",
    "prefecture_code": 42,
    "city": "島原市",
    "city_kana": "シマバラシ",
    "town": "上折橋町",
    "town_kana": "カミオリハシマチ",
    "street": null,
    "office_name": null,
    "office_name_kana": null
  },
  "0077": {
    "zip_code": "8550077",
    "prefecture": "長崎県",
    "prefecture_kana": "ナガサキケン",
    "prefecture_code": 42,
    "city": "島原市",
    "city_kana": "シマバラシ",
    "town": "南千本木町",
    "town_kana": "ミナミセンボンギマチ",
    "street": null,
    "office_name": null,
    "office_name_kana": null
  },
  "0078": {
    "zip_code": "8550078",
    "prefecture": "長崎県",
    "prefecture_kana": "ナガサキケン",
    "prefecture_code": 42,
    "city": "島原市",
    "city_kana": "シマバラシ",
    "town": "北千本木町",
    "town_kana": "キタセンボンギマチ",
    "street": null,
    "office_name": null,
    "office_name_kana": null
  },
  "0801": {
    "zip_code": "8550801",
    "prefecture": "長崎県",
    "prefecture_kana": "ナガサキケン",
    "prefecture_code": 42,
    "city": "島原市",
    "city_kana": "シマバラシ",
    "town": "高島",
    "town_kana": "タカジマ",
    "street": null,
    "office_name": null,
    "office_name_kana": null
  },
  "0802": {
    "zip_code": "8550802",
    "prefecture": "長崎県",
    "prefecture_kana": "ナガサキケン",
    "prefecture_code": 42,
    "city": "島原市",
    "city_kana": "シマバラシ",
    "town": "弁天町",
    "town_kana": "ベンテンマチ",
    "street": null,
    "office_name": null,
    "office_name_kana": null
  },
  "0803": {
    "zip_code": "8550803",
    "prefecture": "長崎県",
    "prefecture_kana": "ナガサキケン",
    "prefecture_code": 42,
    "city": "島原市",
    "city_kana": "シマバラシ",
    "town": "新町",
    "town_kana": "シンマチ",
    "street": null,
    "office_name": null,
    "office_name_kana": null
  },
  "0804": {
    "zip_code": "8550804",
    "prefecture": "長崎県",
    "prefecture_kana": "ナガサキケン",
    "prefecture_code": 42,
    "city": "島原市",
    "city_kana": "シマバラシ",
    "town": "万町",
    "town_kana": "ヨロズマチ",
    "street": null,
    "office_name": null,
    "office_name_kana": null
  },
  "0805": {
    "zip_code": "8550805",
    "prefecture": "長崎県",
    "prefecture_kana": "ナガサキケン",
    "prefecture_code": 42,
    "city": "島原市",
    "city_kana": "シマバラシ",
    "town": "堀町",
    "town_kana": "ホリマチ",
    "street": null,
    "office_name": null,
    "office_name_kana": null
  },
  "0806": {
    "zip_code": "8550806",
    "prefecture": "長崎県",
    "prefecture_kana": "ナガサキケン",
    "prefecture_code": 42,
    "city": "島原市",
    "city_kana": "シマバラシ",
    "town": "中堀町",
    "town_kana": "ナカホリマチ",
    "street": null,
    "office_name": null,
    "office_name_kana": null
  },
  "0807": {
    "zip_code": "8550807",
    "prefecture": "長崎県",
    "prefecture_kana": "ナガサキケン",
    "prefecture_code": 42,
    "city": "島原市",
    "city_kana": "シマバラシ",
    "town": "白土町",
    "town_kana": "シラチマチ",
    "street": null,
    "office_name": null,
    "office_name_kana": null
  },
  "0808": {
    "zip_code": "8550808",
    "prefecture": "長崎県",
    "prefecture_kana": "ナガサキケン",
    "prefecture_code": 42,
    "city": "島原市",
    "city_kana": "シマバラシ",
    "town": "加美町",
    "town_kana": "カミマチ",
    "street": null,
    "office_name": null,
    "office_name_kana": null
  },
  "0809": {
    "zip_code": "8550809",
    "prefecture": "長崎県",
    "prefecture_kana": "ナガサキケン",
    "prefecture_code": 42,
    "city": "島原市",
    "city_kana": "シマバラシ",
    "town": "桜町",
    "town_kana": "サクラマチ",
    "street": null,
    "office_name": null,
    "office_name_kana": null
  },
  "0811": {
    "zip_code": "8550811",
    "prefecture": "長崎県",
    "prefecture_kana": "ナガサキケン",
    "prefecture_code": 42,
    "city": "島原市",
    "city_kana": "シマバラシ",
    "town": "白土桃山",
    "town_kana": "シラチモモヤマ",
    "street": null,
    "office_name": null,
    "office_name_kana": null
  },
  "0812": {
    "zip_code": "8550812",
    "prefecture": "長崎県",
    "prefecture_kana": "ナガサキケン",
    "prefecture_code": 42,
    "city": "島原市",
    "city_kana": "シマバラシ",
    "town": "霊南",
    "town_kana": "レイナン",
    "street": null,
    "office_name": null,
    "office_name_kana": null
  },
  "0813": {
    "zip_code": "8550813",
    "prefecture": "長崎県",
    "prefecture_kana": "ナガサキケン",
    "prefecture_code": 42,
    "city": "島原市",
    "city_kana": "シマバラシ",
    "town": "有馬船津町",
    "town_kana": "アリマフナツマチ",
    "street": null,
    "office_name": null,
    "office_name_kana": null
  },
  "0814": {
    "zip_code": "8550814",
    "prefecture": "長崎県",
    "prefecture_kana": "ナガサキケン",
    "prefecture_code": 42,
    "city": "島原市",
    "city_kana": "シマバラシ",
    "town": "津町",
    "town_kana": "ツマチ",
    "street": null,
    "office_name": null,
    "office_name_kana": null
  },
  "0815": {
    "zip_code": "8550815",
    "prefecture": "長崎県",
    "prefecture_kana": "ナガサキケン",
    "prefecture_code": 42,
    "city": "島原市",
    "city_kana": "シマバラシ",
    "town": "元船津町",
    "town_kana": "モトフナツマチ",
    "street": null,
    "office_name": null,
    "office_name_kana": null
  },
  "0816": {
    "zip_code": "8550816",
    "prefecture": "長崎県",
    "prefecture_kana": "ナガサキケン",
    "prefecture_code": 42,
    "city": "島原市",
    "city_kana": "シマバラシ",
    "town": "蛭子町",
    "town_kana": "エビスマチ",
    "street": null,
    "office_name": null,
    "office_name_kana": null
  },
  "0817": {
    "zip_code": "8550817",
    "prefecture": "長崎県",
    "prefecture_kana": "ナガサキケン",
    "prefecture_code": 42,
    "city": "島原市",
    "city_kana": "シマバラシ",
    "town": "浦田",
    "town_kana": "ウラタ",
    "street": null,
    "office_name": null,
    "office_name_kana": null
  },
  "0821": {
    "zip_code": "8550821",
    "prefecture": "長崎県",
    "prefecture_kana": "ナガサキケン",
    "prefecture_code": 42,
    "city": "島原市",
    "city_kana": "シマバラシ",
    "town": "湊新地町",
    "town_kana": "ミナトシンチマチ",
    "street": null,
    "office_name": null,
    "office_name_kana": null
  },
  "0822": {
    "zip_code": "8550822",
    "prefecture": "長崎県",
    "prefecture_kana": "ナガサキケン",
    "prefecture_code": 42,
    "city": "島原市",
    "city_kana": "シマバラシ",
    "town": "中組町",
    "town_kana": "ナカグミマチ",
    "street": null,
    "office_name": null,
    "office_name_kana": null
  },
  "0823": {
    "zip_code": "8550823",
    "prefecture": "長崎県",
    "prefecture_kana": "ナガサキケン",
    "prefecture_code": 42,
    "city": "島原市",
    "city_kana": "シマバラシ",
    "town": "湊町",
    "town_kana": "ミナトマチ",
    "street": null,
    "office_name": null,
    "office_name_kana": null
  },
  "0824": {
    "zip_code": "8550824",
    "prefecture": "長崎県",
    "prefecture_kana": "ナガサキケン",
    "prefecture_code": 42,
    "city": "島原市",
    "city_kana": "シマバラシ",
    "town": "白山町",
    "town_kana": "ハクサンマチ",
    "street": null,
    "office_name": null,
    "office_name_kana": null
  },
  "0825": {
    "zip_code": "8550825",
    "prefecture": "長崎県",
    "prefecture_kana": "ナガサキケン",
    "prefecture_code": 42,
    "city": "島原市",
    "city_kana": "シマバラシ",
    "town": "広馬場町",
    "town_kana": "ヒロババマチ",
    "street": null,
    "office_name": null,
    "office_name_kana": null
  },
  "0831": {
    "zip_code": "8550831",
    "prefecture": "長崎県",
    "prefecture_kana": "ナガサキケン",
    "prefecture_code": 42,
    "city": "島原市",
    "city_kana": "シマバラシ",
    "town": "湊道",
    "town_kana": "ミナトミチ",
    "street": null,
    "office_name": null,
    "office_name_kana": null
  },
  "0832": {
    "zip_code": "8550832",
    "prefecture": "長崎県",
    "prefecture_kana": "ナガサキケン",
    "prefecture_code": 42,
    "city": "島原市",
    "city_kana": "シマバラシ",
    "town": "坂上町",
    "town_kana": "サカウエマチ",
    "street": null,
    "office_name": null,
    "office_name_kana": null
  },
  "0833": {
    "zip_code": "8550833",
    "prefecture": "長崎県",
    "prefecture_kana": "ナガサキケン",
    "prefecture_code": 42,
    "city": "島原市",
    "city_kana": "シマバラシ",
    "town": "坂下町",
    "town_kana": "サカシタマチ",
    "street": null,
    "office_name": null,
    "office_name_kana": null
  },
  "0834": {
    "zip_code": "8550834",
    "prefecture": "長崎県",
    "prefecture_kana": "ナガサキケン",
    "prefecture_code": 42,
    "city": "島原市",
    "city_kana": "シマバラシ",
    "town": "八幡町",
    "town_kana": "ヤハタマチ",
    "street": null,
    "office_name": null,
    "office_name_kana": null
  },
  "0835": {
    "zip_code": "8550835",
    "prefecture": "長崎県",
    "prefecture_kana": "ナガサキケン",
    "prefecture_code": 42,
    "city": "島原市",
    "city_kana": "シマバラシ",
    "town": "西八幡町",
    "town_kana": "ニシヤハタマチ",
    "street": null,
    "office_name": null,
    "office_name_kana": null
  },
  "0836": {
    "zip_code": "8550836",
    "prefecture": "長崎県",
    "prefecture_kana": "ナガサキケン",
    "prefecture_code": 42,
    "city": "島原市",
    "city_kana": "シマバラシ",
    "town": "湖南町",
    "town_kana": "コナンマチ",
    "street": null,
    "office_name": null,
    "office_name_kana": null
  },
  "0841": {
    "zip_code": "8550841",
    "prefecture": "長崎県",
    "prefecture_kana": "ナガサキケン",
    "prefecture_code": 42,
    "city": "島原市",
    "city_kana": "シマバラシ",
    "town": "崩山町",
    "town_kana": "クエヤママチ",
    "street": null,
    "office_name": null,
    "office_name_kana": null
  },
  "0842": {
    "zip_code": "8550842",
    "prefecture": "長崎県",
    "prefecture_kana": "ナガサキケン",
    "prefecture_code": 42,
    "city": "島原市",
    "city_kana": "シマバラシ",
    "town": "栄町",
    "town_kana": "サカエマチ",
    "street": null,
    "office_name": null,
    "office_name_kana": null
  },
  "0843": {
    "zip_code": "8550843",
    "prefecture": "長崎県",
    "prefecture_kana": "ナガサキケン",
    "prefecture_code": 42,
    "city": "島原市",
    "city_kana": "シマバラシ",
    "town": "新山",
    "town_kana": "シンヤマ",
    "street": null,
    "office_name": null,
    "office_name_kana": null
  },
  "0851": {
    "zip_code": "8550851",
    "prefecture": "長崎県",
    "prefecture_kana": "ナガサキケン",
    "prefecture_code": 42,
    "city": "島原市",
    "city_kana": "シマバラシ",
    "town": "萩原",
    "town_kana": "ハギハラ",
    "street": null,
    "office_name": null,
    "office_name_kana": null
  },
  "0852": {
    "zip_code": "8550852",
    "prefecture": "長崎県",
    "prefecture_kana": "ナガサキケン",
    "prefecture_code": 42,
    "city": "島原市",
    "city_kana": "シマバラシ",
    "town": "寺町",
    "town_kana": "テラマチ",
    "street": null,
    "office_name": null,
    "office_name_kana": null
  },
  "0853": {
    "zip_code": "8550853",
    "prefecture": "長崎県",
    "prefecture_kana": "ナガサキケン",
    "prefecture_code": 42,
    "city": "島原市",
    "city_kana": "シマバラシ",
    "town": "上の原",
    "town_kana": "ウエノハラ",
    "street": null,
    "office_name": null,
    "office_name_kana": null
  },
  "0854": {
    "zip_code": "8550854",
    "prefecture": "長崎県",
    "prefecture_kana": "ナガサキケン",
    "prefecture_code": 42,
    "city": "島原市",
    "city_kana": "シマバラシ",
    "town": "萩が丘",
    "town_kana": "ハギガオカ",
    "street": null,
    "office_name": null,
    "office_name_kana": null
  },
  "0855": {
    "zip_code": "8550855",
    "prefecture": "長崎県",
    "prefecture_kana": "ナガサキケン",
    "prefecture_code": 42,
    "city": "島原市",
    "city_kana": "シマバラシ",
    "town": "青葉町",
    "town_kana": "アオバマチ",
    "street": null,
    "office_name": null,
    "office_name_kana": null
  },
  "0856": {
    "zip_code": "8550856",
    "prefecture": "長崎県",
    "prefecture_kana": "ナガサキケン",
    "prefecture_code": 42,
    "city": "島原市",
    "city_kana": "シマバラシ",
    "town": "小山町",
    "town_kana": "コヤママチ",
    "street": null,
    "office_name": null,
    "office_name_kana": null
  },
  "0861": {
    "zip_code": "8550861",
    "prefecture": "長崎県",
    "prefecture_kana": "ナガサキケン",
    "prefecture_code": 42,
    "city": "島原市",
    "city_kana": "シマバラシ",
    "town": "下川尻町",
    "town_kana": "シモカワシリマチ",
    "street": null,
    "office_name": null,
    "office_name_kana": null
  },
  "0862": {
    "zip_code": "8550862",
    "prefecture": "長崎県",
    "prefecture_kana": "ナガサキケン",
    "prefecture_code": 42,
    "city": "島原市",
    "city_kana": "シマバラシ",
    "town": "新湊",
    "town_kana": "シンミナト",
    "street": null,
    "office_name": null,
    "office_name_kana": null
  },
  "0863": {
    "zip_code": "8550863",
    "prefecture": "長崎県",
    "prefecture_kana": "ナガサキケン",
    "prefecture_code": 42,
    "city": "島原市",
    "city_kana": "シマバラシ",
    "town": "親和町",
    "town_kana": "シンワマチ",
    "street": null,
    "office_name": null,
    "office_name_kana": null
  },
  "0864": {
    "zip_code": "8550864",
    "prefecture": "長崎県",
    "prefecture_kana": "ナガサキケン",
    "prefecture_code": 42,
    "city": "島原市",
    "city_kana": "シマバラシ",
    "town": "秩父が浦町",
    "town_kana": "チチブガウラマチ",
    "street": null,
    "office_name": null,
    "office_name_kana": null
  },
  "0865": {
    "zip_code": "8550865",
    "prefecture": "長崎県",
    "prefecture_kana": "ナガサキケン",
    "prefecture_code": 42,
    "city": "島原市",
    "city_kana": "シマバラシ",
    "town": "船泊町",
    "town_kana": "フナドマリマチ",
    "street": null,
    "office_name": null,
    "office_name_kana": null
  },
  "0866": {
    "zip_code": "8550866",
    "prefecture": "長崎県",
    "prefecture_kana": "ナガサキケン",
    "prefecture_code": 42,
    "city": "島原市",
    "city_kana": "シマバラシ",
    "town": "南下川尻町",
    "town_kana": "ミナミシモカワシリマチ",
    "street": null,
    "office_name": null,
    "office_name_kana": null
  },
  "0867": {
    "zip_code": "8550867",
    "prefecture": "長崎県",
    "prefecture_kana": "ナガサキケン",
    "prefecture_code": 42,
    "city": "島原市",
    "city_kana": "シマバラシ",
    "town": "緑町",
    "town_kana": "ミドリマチ",
    "street": null,
    "office_name": null,
    "office_name_kana": null
  },
  "0871": {
    "zip_code": "8550871",
    "prefecture": "長崎県",
    "prefecture_kana": "ナガサキケン",
    "prefecture_code": 42,
    "city": "島原市",
    "city_kana": "シマバラシ",
    "town": "南崩山町",
    "town_kana": "ミナミクエヤママチ",
    "street": null,
    "office_name": null,
    "office_name_kana": null
  },
  "0872": {
    "zip_code": "8550872",
    "prefecture": "長崎県",
    "prefecture_kana": "ナガサキケン",
    "prefecture_code": 42,
    "city": "島原市",
    "city_kana": "シマバラシ",
    "town": "梅園町",
    "town_kana": "ウメゾノマチ",
    "street": null,
    "office_name": null,
    "office_name_kana": null
  },
  "0873": {
    "zip_code": "8550873",
    "prefecture": "長崎県",
    "prefecture_kana": "ナガサキケン",
    "prefecture_code": 42,
    "city": "島原市",
    "city_kana": "シマバラシ",
    "town": "北安徳町",
    "town_kana": "キタアントクマチ",
    "street": null,
    "office_name": null,
    "office_name_kana": null
  },
  "0874": {
    "zip_code": "8550874",
    "prefecture": "長崎県",
    "prefecture_kana": "ナガサキケン",
    "prefecture_code": 42,
    "city": "島原市",
    "city_kana": "シマバラシ",
    "town": "鎌田町",
    "town_kana": "カマダマチ",
    "street": null,
    "office_name": null,
    "office_name_kana": null
  },
  "0875": {
    "zip_code": "8550875",
    "prefecture": "長崎県",
    "prefecture_kana": "ナガサキケン",
    "prefecture_code": 42,
    "city": "島原市",
    "city_kana": "シマバラシ",
    "town": "中安徳町",
    "town_kana": "ナカアントクマチ",
    "street": null,
    "office_name": null,
    "office_name_kana": null
  },
  "0876": {
    "zip_code": "8550876",
    "prefecture": "長崎県",
    "prefecture_kana": "ナガサキケン",
    "prefecture_code": 42,
    "city": "島原市",
    "city_kana": "シマバラシ",
    "town": "南安徳町",
    "town_kana": "ミナミアントクマチ",
    "street": null,
    "office_name": null,
    "office_name_kana": null
  },
  "0877": {
    "zip_code": "8550877",
    "prefecture": "長崎県",
    "prefecture_kana": "ナガサキケン",
    "prefecture_code": 42,
    "city": "島原市",
    "city_kana": "シマバラシ",
    "town": "浜の町",
    "town_kana": "ハマノマチ",
    "street": null,
    "office_name": null,
    "office_name_kana": null
  },
  "0878": {
    "zip_code": "8550878",
    "prefecture": "長崎県",
    "prefecture_kana": "ナガサキケン",
    "prefecture_code": 42,
    "city": "島原市",
    "city_kana": "シマバラシ",
    "town": "大下町",
    "town_kana": "オオジモマチ",
    "street": null,
    "office_name": null,
    "office_name_kana": null
  },
  "0879": {
    "zip_code": "8550879",
    "prefecture": "長崎県",
    "prefecture_kana": "ナガサキケン",
    "prefecture_code": 42,
    "city": "島原市",
    "city_kana": "シマバラシ",
    "town": "平成町",
    "town_kana": "ヘイセイマチ",
    "street": null,
    "office_name": null,
    "office_name_kana": null
  },
  "0881": {
    "zip_code": "8550881",
    "prefecture": "長崎県",
    "prefecture_kana": "ナガサキケン",
    "prefecture_code": 42,
    "city": "島原市",
    "city_kana": "シマバラシ",
    "town": "門内町",
    "town_kana": "カドウチマチ",
    "street": null,
    "office_name": null,
    "office_name_kana": null
  },
  "0882": {
    "zip_code": "8550882",
    "prefecture": "長崎県",
    "prefecture_kana": "ナガサキケン",
    "prefecture_code": 42,
    "city": "島原市",
    "city_kana": "シマバラシ",
    "town": "札の元町",
    "town_kana": "フダノモトマチ",
    "street": null,
    "office_name": null,
    "office_name_kana": null
  },
  "0883": {
    "zip_code": "8550883",
    "prefecture": "長崎県",
    "prefecture_kana": "ナガサキケン",
    "prefecture_code": 42,
    "city": "島原市",
    "city_kana": "シマバラシ",
    "town": "天神元町",
    "town_kana": "テンジンモトマチ",
    "street": null,
    "office_name": null,
    "office_name_kana": null
  },
  "0884": {
    "zip_code": "8550884",
    "prefecture": "長崎県",
    "prefecture_kana": "ナガサキケン",
    "prefecture_code": 42,
    "city": "島原市",
    "city_kana": "シマバラシ",
    "town": "仁田町",
    "town_kana": "ニタマチ",
    "street": null,
    "office_name": null,
    "office_name_kana": null
  },
  "0885": {
    "zip_code": "8550885",
    "prefecture": "長崎県",
    "prefecture_kana": "ナガサキケン",
    "prefecture_code": 42,
    "city": "島原市",
    "city_kana": "シマバラシ",
    "town": "白谷町",
    "town_kana": "シラタニマチ",
    "street": null,
    "office_name": null,
    "office_name_kana": null
  },
  "0886": {
    "zip_code": "8550886",
    "prefecture": "長崎県",
    "prefecture_kana": "ナガサキケン",
    "prefecture_code": 42,
    "city": "島原市",
    "city_kana": "シマバラシ",
    "town": "北上木場町",
    "town_kana": "キタカミコバマチ",
    "street": null,
    "office_name": null,
    "office_name_kana": null
  },
  "0887": {
    "zip_code": "8550887",
    "prefecture": "長崎県",
    "prefecture_kana": "ナガサキケン",
    "prefecture_code": 42,
    "city": "島原市",
    "city_kana": "シマバラシ",
    "town": "南上木場町",
    "town_kana": "ミナミカミコバマチ",
    "street": null,
    "office_name": null,
    "office_name_kana": null
  },
  "8501": {
    "zip_code": "8558501",
    "prefecture": "長崎県",
    "prefecture_kana": "ナガサキケン",
    "prefecture_code": 42,
    "city": "島原市",
    "city_kana": "シマバラシ",
    "town": "城内",
    "town_kana": "ジョウナイ",
    "street": "１丁目１２０５",
    "office_name": "長崎県島原振興局",
    "office_name_kana": "ナガサキケンシマバラシンコウキヨク"
  },
  "8550": {
    "zip_code": "8558550",
    "prefecture": "長崎県",
    "prefecture_kana": "ナガサキケン",
    "prefecture_code": 42,
    "city": "島原市",
    "city_kana": "シマバラシ",
    "town": "高島",
    "town_kana": "タカジマ",
    "street": "２丁目７２１７",
    "office_name": "島原商工会議所",
    "office_name_kana": "シマバラシヨウコウカイギシヨ"
  },
  "8555": {
    "zip_code": "8558555",
    "prefecture": "長崎県",
    "prefecture_kana": "ナガサキケン",
    "prefecture_code": 42,
    "city": "島原市",
    "city_kana": "シマバラシ",
    "town": "上の町",
    "town_kana": "ウエノマチ",
    "street": "５３７",
    "office_name": "島原市役所",
    "office_name_kana": "シマバラシヤクシヨ"
  },
  "8686": {
    "zip_code": "8558686",
    "prefecture": "長崎県",
    "prefecture_kana": "ナガサキケン",
    "prefecture_code": 42,
    "city": "島原市",
    "city_kana": "シマバラシ",
    "town": "弁天町",
    "town_kana": "ベンテンマチ",
    "street": "１丁目７４０３（島原郵便局私書箱第１７号）",
    "office_name": "島原税務署",
    "office_name_kana": "シマバラゼイムシヨ"
  }
}