{
  "0000": {
    "zip_code": "8630000",
    "prefecture": "熊本県",
    "prefecture_kana": "クマモトケン",
    "prefecture_code": "43",
    "city": "天草市",
    "city_kana": "アマクサシ",
    "town": "",
    "town_kana": "",
    "street": null,
    "office_name": null,
    "office_name_kana": null
  },
  "0001": {
    "zip_code": "8630001",
    "prefecture": "熊本県",
    "prefecture_kana": "クマモトケン",
    "prefecture_code": "43",
    "city": "天草市",
    "city_kana": "アマクサシ",
    "town": "本渡町広瀬",
    "town_kana": "ホンドマチヒロセ",
    "street": null,
    "office_name": null,
    "office_name_kana": null
  },
  "0002": {
    "zip_code": "8630002",
    "prefecture": "熊本県",
    "prefecture_kana": "クマモトケン",
    "prefecture_code": "43",
    "city": "天草市",
    "city_kana": "アマクサシ",
    "town": "本渡町本戸馬場",
    "town_kana": "ホンドマチホントババ",
    "street": null,
    "office_name": null,
    "office_name_kana": null
  },
  "0003": {
    "zip_code": "8630003",
    "prefecture": "熊本県",
    "prefecture_kana": "クマモトケン",
    "prefecture_code": "43",
    "city": "天草市",
    "city_kana": "アマクサシ",
    "town": "本渡町本渡",
    "town_kana": "ホンドマチホンド",
    "street": null,
    "office_name": null,
    "office_name_kana": null
  },
  "0004": {
    "zip_code": "8630004",
    "prefecture": "熊本県",
    "prefecture_kana": "クマモトケン",
    "prefecture_code": "43",
    "city": "天草市",
    "city_kana": "アマクサシ",
    "town": "本渡町本泉",
    "town_kana": "ホンドマチモトイズミ",
    "street": null,
    "office_name": null,
    "office_name_kana": null
  },
  "0005": {
    "zip_code": "8630005",
    "prefecture": "熊本県",
    "prefecture_kana": "クマモトケン",
    "prefecture_code": "43",
    "city": "天草市",
    "city_kana": "アマクサシ",
    "town": "本町新休",
    "town_kana": "ホンマチシンキュウ",
    "street": null,
    "office_name": null,
    "office_name_kana": null
  },
  "0006": {
    "zip_code": "8630006",
    "prefecture": "熊本県",
    "prefecture_kana": "クマモトケン",
    "prefecture_code": "43",
    "city": "天草市",
    "city_kana": "アマクサシ",
    "town": "本町下河内",
    "town_kana": "ホンマチシモガワチ",
    "street": null,
    "office_name": null,
    "office_name_kana": null
  },
  "0007": {
    "zip_code": "8630007",
    "prefecture": "熊本県",
    "prefecture_kana": "クマモトケン",
    "prefecture_code": "43",
    "city": "天草市",
    "city_kana": "アマクサシ",
    "town": "本町本",
    "town_kana": "ホンマチホン",
    "street": null,
    "office_name": null,
    "office_name_kana": null
  },
  "0011": {
    "zip_code": "8630011",
    "prefecture": "熊本県",
    "prefecture_kana": "クマモトケン",
    "prefecture_code": "43",
    "city": "天草市",
    "city_kana": "アマクサシ",
    "town": "北浜町",
    "town_kana": "キタハママチ",
    "street": null,
    "office_name": null,
    "office_name_kana": null
  },
  "0012": {
    "zip_code": "8630012",
    "prefecture": "熊本県",
    "prefecture_kana": "クマモトケン",
    "prefecture_code": "43",
    "city": "天草市",
    "city_kana": "アマクサシ",
    "town": "今釜町",
    "town_kana": "イマガママチ",
    "street": null,
    "office_name": null,
    "office_name_kana": null
  },
  "0013": {
    "zip_code": "8630013",
    "prefecture": "熊本県",
    "prefecture_kana": "クマモトケン",
    "prefecture_code": "43",
    "city": "天草市",
    "city_kana": "アマクサシ",
    "town": "今釜新町",
    "town_kana": "イマガマシンマチ",
    "street": null,
    "office_name": null,
    "office_name_kana": null
  },
  "0014": {
    "zip_code": "8630014",
    "prefecture": "熊本県",
    "prefecture_kana": "クマモトケン",
    "prefecture_code": "43",
    "city": "天草市",
    "city_kana": "アマクサシ",
    "town": "東浜町",
    "town_kana": "ヒガシハママチ",
    "street": null,
    "office_name": null,
    "office_name_kana": null
  },
  "0015": {
    "zip_code": "8630015",
    "prefecture": "熊本県",
    "prefecture_kana": "クマモトケン",
    "prefecture_code": "43",
    "city": "天草市",
    "city_kana": "アマクサシ",
    "town": "大浜町",
    "town_kana": "オオハママチ",
    "street": null,
    "office_name": null,
    "office_name_kana": null
  },
  "0016": {
    "zip_code": "8630016",
    "prefecture": "熊本県",
    "prefecture_kana": "クマモトケン",
    "prefecture_code": "43",
    "city": "天草市",
    "city_kana": "アマクサシ",
    "town": "城下町",
    "town_kana": "ジョウカマチ",
    "street": null,
    "office_name": null,
    "office_name_kana": null
  },
  "0017": {
    "zip_code": "8630017",
    "prefecture": "熊本県",
    "prefecture_kana": "クマモトケン",
    "prefecture_code": "43",
    "city": "天草市",
    "city_kana": "アマクサシ",
    "town": "船之尾町",
    "town_kana": "フネノオマチ",
    "street": null,
    "office_name": null,
    "office_name_kana": null
  },
  "0018": {
    "zip_code": "8630018",
    "prefecture": "熊本県",
    "prefecture_kana": "クマモトケン",
    "prefecture_code": "43",
    "city": "天草市",
    "city_kana": "アマクサシ",
    "town": "浜崎町",
    "town_kana": "ハマサキマチ",
    "street": null,
    "office_name": null,
    "office_name_kana": null
  },
  "0019": {
    "zip_code": "8630019",
    "prefecture": "熊本県",
    "prefecture_kana": "クマモトケン",
    "prefecture_code": "43",
    "city": "天草市",
    "city_kana": "アマクサシ",
    "town": "小松原町",
    "town_kana": "コマツバラマチ",
    "street": null,
    "office_name": null,
    "office_name_kana": null
  },
  "0021": {
    "zip_code": "8630021",
    "prefecture": "熊本県",
    "prefecture_kana": "クマモトケン",
    "prefecture_code": "43",
    "city": "天草市",
    "city_kana": "アマクサシ",
    "town": "港町",
    "town_kana": "ミナトマチ",
    "street": null,
    "office_name": null,
    "office_name_kana": null
  },
  "0022": {
    "zip_code": "8630022",
    "prefecture": "熊本県",
    "prefecture_kana": "クマモトケン",
    "prefecture_code": "43",
    "city": "天草市",
    "city_kana": "アマクサシ",
    "town": "栄町",
    "town_kana": "サカエマチ",
    "street": null,
    "office_name": null,
    "office_name_kana": null
  },
  "0023": {
    "zip_code": "8630023",
    "prefecture": "熊本県",
    "prefecture_kana": "クマモトケン",
    "prefecture_code": "43",
    "city": "天草市",
    "city_kana": "アマクサシ",
    "town": "中央新町",
    "town_kana": "チュウオウシンマチ",
    "street": null,
    "office_name": null,
    "office_name_kana": null
  },
  "0024": {
    "zip_code": "8630024",
    "prefecture": "熊本県",
    "prefecture_kana": "クマモトケン",
    "prefecture_code": "43",
    "city": "天草市",
    "city_kana": "アマクサシ",
    "town": "川原町",
    "town_kana": "カワラマチ",
    "street": null,
    "office_name": null,
    "office_name_kana": null
  },
  "0025": {
    "zip_code": "8630025",
    "prefecture": "熊本県",
    "prefecture_kana": "クマモトケン",
    "prefecture_code": "43",
    "city": "天草市",
    "city_kana": "アマクサシ",
    "town": "古川町",
    "town_kana": "フルカワマチ",
    "street": null,
    "office_name": null,
    "office_name_kana": null
  },
  "0031": {
    "zip_code": "8630031",
    "prefecture": "熊本県",
    "prefecture_kana": "クマモトケン",
    "prefecture_code": "43",
    "city": "天草市",
    "city_kana": "アマクサシ",
    "town": "南新町",
    "town_kana": "ミナミシンマチ",
    "street": null,
    "office_name": null,
    "office_name_kana": null
  },
  "0032": {
    "zip_code": "8630032",
    "prefecture": "熊本県",
    "prefecture_kana": "クマモトケン",
    "prefecture_code": "43",
    "city": "天草市",
    "city_kana": "アマクサシ",
    "town": "太田町",
    "town_kana": "オオタマチ",
    "street": null,
    "office_name": null,
    "office_name_kana": null
  },
  "0033": {
    "zip_code": "8630033",
    "prefecture": "熊本県",
    "prefecture_kana": "クマモトケン",
    "prefecture_code": "43",
    "city": "天草市",
    "city_kana": "アマクサシ",
    "town": "東町",
    "town_kana": "ヒガシマチ",
    "street": null,
    "office_name": null,
    "office_name_kana": null
  },
  "0034": {
    "zip_code": "8630034",
    "prefecture": "熊本県",
    "prefecture_kana": "クマモトケン",
    "prefecture_code": "43",
    "city": "天草市",
    "city_kana": "アマクサシ",
    "town": "浄南町",
    "town_kana": "ジョウナンマチ",
    "street": null,
    "office_name": null,
    "office_name_kana": null
  },
  "0035": {
    "zip_code": "8630035",
    "prefecture": "熊本県",
    "prefecture_kana": "クマモトケン",
    "prefecture_code": "43",
    "city": "天草市",
    "city_kana": "アマクサシ",
    "town": "山の手町",
    "town_kana": "ヤマノテマチ",
    "street": null,
    "office_name": null,
    "office_name_kana": null
  },
  "0036": {
    "zip_code": "8630036",
    "prefecture": "熊本県",
    "prefecture_kana": "クマモトケン",
    "prefecture_code": "43",
    "city": "天草市",
    "city_kana": "アマクサシ",
    "town": "川原新町",
    "town_kana": "カワラシンマチ",
    "street": null,
    "office_name": null,
    "office_name_kana": null
  },
  "0037": {
    "zip_code": "8630037",
    "prefecture": "熊本県",
    "prefecture_kana": "クマモトケン",
    "prefecture_code": "43",
    "city": "天草市",
    "city_kana": "アマクサシ",
    "town": "諏訪町",
    "town_kana": "スワマチ",
    "street": null,
    "office_name": null,
    "office_name_kana": null
  },
  "0038": {
    "zip_code": "8630038",
    "prefecture": "熊本県",
    "prefecture_kana": "クマモトケン",
    "prefecture_code": "43",
    "city": "天草市",
    "city_kana": "アマクサシ",
    "town": "南町",
    "town_kana": "ミナミマチ",
    "street": null,
    "office_name": null,
    "office_name_kana": null
  },
  "0041": {
    "zip_code": "8630041",
    "prefecture": "熊本県",
    "prefecture_kana": "クマモトケン",
    "prefecture_code": "43",
    "city": "天草市",
    "city_kana": "アマクサシ",
    "town": "志柿町",
    "town_kana": "シカキマチ",
    "street": null,
    "office_name": null,
    "office_name_kana": null
  },
  "0042": {
    "zip_code": "8630042",
    "prefecture": "熊本県",
    "prefecture_kana": "クマモトケン",
    "prefecture_code": "43",
    "city": "天草市",
    "city_kana": "アマクサシ",
    "town": "瀬戸町",
    "town_kana": "セドマチ",
    "street": null,
    "office_name": null,
    "office_name_kana": null
  },
  "0043": {
    "zip_code": "8630043",
    "prefecture": "熊本県",
    "prefecture_kana": "クマモトケン",
    "prefecture_code": "43",
    "city": "天草市",
    "city_kana": "アマクサシ",
    "town": "亀場町亀川",
    "town_kana": "カメバマチカメガワ",
    "street": null,
    "office_name": null,
    "office_name_kana": null
  },
  "0044": {
    "zip_code": "8630044",
    "prefecture": "熊本県",
    "prefecture_kana": "クマモトケン",
    "prefecture_code": "43",
    "city": "天草市",
    "city_kana": "アマクサシ",
    "town": "楠浦町",
    "town_kana": "クスウラマチ",
    "street": null,
    "office_name": null,
    "office_name_kana": null
  },
  "0045": {
    "zip_code": "8630045",
    "prefecture": "熊本県",
    "prefecture_kana": "クマモトケン",
    "prefecture_code": "43",
    "city": "天草市",
    "city_kana": "アマクサシ",
    "town": "枦宇土町",
    "town_kana": "ハジウトマチ",
    "street": null,
    "office_name": null,
    "office_name_kana": null
  },
  "0046": {
    "zip_code": "8630046",
    "prefecture": "熊本県",
    "prefecture_kana": "クマモトケン",
    "prefecture_code": "43",
    "city": "天草市",
    "city_kana": "アマクサシ",
    "town": "亀場町食場",
    "town_kana": "カメバマチジキバ",
    "street": null,
    "office_name": null,
    "office_name_kana": null
  },
  "0047": {
    "zip_code": "8630047",
    "prefecture": "熊本県",
    "prefecture_kana": "クマモトケン",
    "prefecture_code": "43",
    "city": "天草市",
    "city_kana": "アマクサシ",
    "town": "八幡町",
    "town_kana": "ハチマンマチ",
    "street": null,
    "office_name": null,
    "office_name_kana": null
  },
  "0048": {
    "zip_code": "8630048",
    "prefecture": "熊本県",
    "prefecture_kana": "クマモトケン",
    "prefecture_code": "43",
    "city": "天草市",
    "city_kana": "アマクサシ",
    "town": "中村町",
    "town_kana": "ナカムラマチ",
    "street": null,
    "office_name": null,
    "office_name_kana": null
  },
  "0049": {
    "zip_code": "8630049",
    "prefecture": "熊本県",
    "prefecture_kana": "クマモトケン",
    "prefecture_code": "43",
    "city": "天草市",
    "city_kana": "アマクサシ",
    "town": "北原町",
    "town_kana": "キタハラマチ",
    "street": null,
    "office_name": null,
    "office_name_kana": null
  },
  "0050": {
    "zip_code": "8630050",
    "prefecture": "熊本県",
    "prefecture_kana": "クマモトケン",
    "prefecture_code": "43",
    "city": "天草市",
    "city_kana": "アマクサシ",
    "town": "丸尾町",
    "town_kana": "マルオマチ",
    "street": null,
    "office_name": null,
    "office_name_kana": null
  },
  "0101": {
    "zip_code": "8630101",
    "prefecture": "熊本県",
    "prefecture_kana": "クマモトケン",
    "prefecture_code": "43",
    "city": "天草市",
    "city_kana": "アマクサシ",
    "town": "新和町小宮地",
    "town_kana": "シンワマチコミヤジ",
    "street": null,
    "office_name": null,
    "office_name_kana": null
  },
  "0102": {
    "zip_code": "8630102",
    "prefecture": "熊本県",
    "prefecture_kana": "クマモトケン",
    "prefecture_code": "43",
    "city": "天草市",
    "city_kana": "アマクサシ",
    "town": "新和町大多尾",
    "town_kana": "シンワマチオオタオ",
    "street": null,
    "office_name": null,
    "office_name_kana": null
  },
  "0103": {
    "zip_code": "8630103",
    "prefecture": "熊本県",
    "prefecture_kana": "クマモトケン",
    "prefecture_code": "43",
    "city": "天草市",
    "city_kana": "アマクサシ",
    "town": "新和町大宮地",
    "town_kana": "シンワマチオオミヤジ",
    "street": null,
    "office_name": null,
    "office_name_kana": null
  },
  "1111": {
    "zip_code": "8631111",
    "prefecture": "熊本県",
    "prefecture_kana": "クマモトケン",
    "prefecture_code": "43",
    "city": "天草市",
    "city_kana": "アマクサシ",
    "town": "新和町碇石",
    "town_kana": "シンワマチイカリイシ",
    "street": null,
    "office_name": null,
    "office_name_kana": null
  },
  "1112": {
    "zip_code": "8631112",
    "prefecture": "熊本県",
    "prefecture_kana": "クマモトケン",
    "prefecture_code": "43",
    "city": "天草市",
    "city_kana": "アマクサシ",
    "town": "新和町中田",
    "town_kana": "シンワマチナカダ",
    "street": null,
    "office_name": null,
    "office_name_kana": null
  },
  "1161": {
    "zip_code": "8631161",
    "prefecture": "熊本県",
    "prefecture_kana": "クマモトケン",
    "prefecture_code": "43",
    "city": "天草市",
    "city_kana": "アマクサシ",
    "town": "宮地岳町",
    "town_kana": "ミヤジダケマチ",
    "street": null,
    "office_name": null,
    "office_name_kana": null
  },
  "1201": {
    "zip_code": "8631201",
    "prefecture": "熊本県",
    "prefecture_kana": "クマモトケン",
    "prefecture_code": "43",
    "city": "天草市",
    "city_kana": "アマクサシ",
    "town": "河浦町今田",
    "town_kana": "カワウラマチイマダ",
    "street": null,
    "office_name": null,
    "office_name_kana": null
  },
  "1202": {
    "zip_code": "8631202",
    "prefecture": "熊本県",
    "prefecture_kana": "クマモトケン",
    "prefecture_code": "43",
    "city": "天草市",
    "city_kana": "アマクサシ",
    "town": "河浦町河浦",
    "town_kana": "カワウラマチカワウラ",
    "street": null,
    "office_name": null,
    "office_name_kana": null
  },
  "1203": {
    "zip_code": "8631203",
    "prefecture": "熊本県",
    "prefecture_kana": "クマモトケン",
    "prefecture_code": "43",
    "city": "天草市",
    "city_kana": "アマクサシ",
    "town": "河浦町今富",
    "town_kana": "カワウラマチイマトミ",
    "street": null,
    "office_name": null,
    "office_name_kana": null
  },
  "1204": {
    "zip_code": "8631204",
    "prefecture": "熊本県",
    "prefecture_kana": "クマモトケン",
    "prefecture_code": "43",
    "city": "天草市",
    "city_kana": "アマクサシ",
    "town": "河浦町崎津",
    "town_kana": "カワウラマチサキツ",
    "street": null,
    "office_name": null,
    "office_name_kana": null
  },
  "1205": {
    "zip_code": "8631205",
    "prefecture": "熊本県",
    "prefecture_kana": "クマモトケン",
    "prefecture_code": "43",
    "city": "天草市",
    "city_kana": "アマクサシ",
    "town": "天草町高浜北",
    "town_kana": "アマクサマチタカハマキタ",
    "street": null,
    "office_name": null,
    "office_name_kana": null
  },
  "1211": {
    "zip_code": "8631211",
    "prefecture": "熊本県",
    "prefecture_kana": "クマモトケン",
    "prefecture_code": "43",
    "city": "天草市",
    "city_kana": "アマクサシ",
    "town": "河浦町立原",
    "town_kana": "カワウラマチタチハラ",
    "street": null,
    "office_name": null,
    "office_name_kana": null
  },
  "1212": {
    "zip_code": "8631212",
    "prefecture": "熊本県",
    "prefecture_kana": "クマモトケン",
    "prefecture_code": "43",
    "city": "天草市",
    "city_kana": "アマクサシ",
    "town": "河浦町宮野河内",
    "town_kana": "カワウラマチミヤノカワチ",
    "street": null,
    "office_name": null,
    "office_name_kana": null
  },
  "1213": {
    "zip_code": "8631213",
    "prefecture": "熊本県",
    "prefecture_kana": "クマモトケン",
    "prefecture_code": "43",
    "city": "天草市",
    "city_kana": "アマクサシ",
    "town": "河浦町路木",
    "town_kana": "カワウラマチロギ",
    "street": null,
    "office_name": null,
    "office_name_kana": null
  },
  "1214": {
    "zip_code": "8631214",
    "prefecture": "熊本県",
    "prefecture_kana": "クマモトケン",
    "prefecture_code": "43",
    "city": "天草市",
    "city_kana": "アマクサシ",
    "town": "河浦町久留",
    "town_kana": "カワウラマチヒサドメ",
    "street": null,
    "office_name": null,
    "office_name_kana": null
  },
  "1215": {
    "zip_code": "8631215",
    "prefecture": "熊本県",
    "prefecture_kana": "クマモトケン",
    "prefecture_code": "43",
    "city": "天草市",
    "city_kana": "アマクサシ",
    "town": "河浦町白木河内",
    "town_kana": "カワウラマチシラキカワチ",
    "street": null,
    "office_name": null,
    "office_name_kana": null
  },
  "1216": {
    "zip_code": "8631216",
    "prefecture": "熊本県",
    "prefecture_kana": "クマモトケン",
    "prefecture_code": "43",
    "city": "天草市",
    "city_kana": "アマクサシ",
    "town": "河浦町新合",
    "town_kana": "カワウラマチシンゴウ",
    "street": null,
    "office_name": null,
    "office_name_kana": null
  },
  "1401": {
    "zip_code": "8631401",
    "prefecture": "熊本県",
    "prefecture_kana": "クマモトケン",
    "prefecture_code": "43",
    "city": "天草市",
    "city_kana": "アマクサシ",
    "town": "天草町大江向",
    "town_kana": "アマクサマチオオエムコウ",
    "street": null,
    "office_name": null,
    "office_name_kana": null
  },
  "1403": {
    "zip_code": "8631403",
    "prefecture": "熊本県",
    "prefecture_kana": "クマモトケン",
    "prefecture_code": "43",
    "city": "天草市",
    "city_kana": "アマクサシ",
    "town": "河浦町今富",
    "town_kana": "カワウラマチイマトミ",
    "street": null,
    "office_name": null,
    "office_name_kana": null
  },
  "1404": {
    "zip_code": "8631404",
    "prefecture": "熊本県",
    "prefecture_kana": "クマモトケン",
    "prefecture_code": "43",
    "city": "天草市",
    "city_kana": "アマクサシ",
    "town": "河浦町崎津",
    "town_kana": "カワウラマチサキツ",
    "street": null,
    "office_name": null,
    "office_name_kana": null
  },
  "1431": {
    "zip_code": "8631431",
    "prefecture": "熊本県",
    "prefecture_kana": "クマモトケン",
    "prefecture_code": "43",
    "city": "天草市",
    "city_kana": "アマクサシ",
    "town": "二浦町早浦",
    "town_kana": "フタウラマチハヤウラ",
    "street": null,
    "office_name": null,
    "office_name_kana": null
  },
  "1432": {
    "zip_code": "8631432",
    "prefecture": "熊本県",
    "prefecture_kana": "クマモトケン",
    "prefecture_code": "43",
    "city": "天草市",
    "city_kana": "アマクサシ",
    "town": "二浦町亀浦",
    "town_kana": "フタウラマチカメウラ",
    "street": null,
    "office_name": null,
    "office_name_kana": null
  },
  "1511": {
    "zip_code": "8631511",
    "prefecture": "熊本県",
    "prefecture_kana": "クマモトケン",
    "prefecture_code": "43",
    "city": "天草市",
    "city_kana": "アマクサシ",
    "town": "深海町",
    "town_kana": "フカミマチ",
    "street": null,
    "office_name": null,
    "office_name_kana": null
  },
  "1721": {
    "zip_code": "8631721",
    "prefecture": "熊本県",
    "prefecture_kana": "クマモトケン",
    "prefecture_code": "43",
    "city": "天草市",
    "city_kana": "アマクサシ",
    "town": "魚貫町",
    "town_kana": "オニキマチ",
    "street": null,
    "office_name": null,
    "office_name_kana": null
  },
  "1901": {
    "zip_code": "8631901",
    "prefecture": "熊本県",
    "prefecture_kana": "クマモトケン",
    "prefecture_code": "43",
    "city": "天草市",
    "city_kana": "アマクサシ",
    "town": "牛深町",
    "town_kana": "ウシブカマチ",
    "street": null,
    "office_name": null,
    "office_name_kana": null
  },
  "1902": {
    "zip_code": "8631902",
    "prefecture": "熊本県",
    "prefecture_kana": "クマモトケン",
    "prefecture_code": "43",
    "city": "天草市",
    "city_kana": "アマクサシ",
    "town": "久玉町",
    "town_kana": "クタママチ",
    "street": null,
    "office_name": null,
    "office_name_kana": null
  },
  "1992": {
    "zip_code": "8631992",
    "prefecture": "熊本県",
    "prefecture_kana": "クマモトケン",
    "prefecture_code": "43",
    "city": "天草市",
    "city_kana": "アマクサシ",
    "town": "牛深町",
    "town_kana": "ウシブカマチ",
    "street": "２２８６−１０３",
    "office_name": "天草市役所　牛深支所",
    "office_name_kana": "アマクサシヤクシヨ ウシブカシシヨ"
  },
  "2114": {
    "zip_code": "8632114",
    "prefecture": "熊本県",
    "prefecture_kana": "クマモトケン",
    "prefecture_code": "43",
    "city": "天草市",
    "city_kana": "アマクサシ",
    "town": "五和町城河原",
    "town_kana": "イツワマチジョウガワラ",
    "street": null,
    "office_name": null,
    "office_name_kana": null
  },
  "2171": {
    "zip_code": "8632171",
    "prefecture": "熊本県",
    "prefecture_kana": "クマモトケン",
    "prefecture_code": "43",
    "city": "天草市",
    "city_kana": "アマクサシ",
    "town": "佐伊津町",
    "town_kana": "サイツマチ",
    "street": null,
    "office_name": null,
    "office_name_kana": null
  },
  "2172": {
    "zip_code": "8632172",
    "prefecture": "熊本県",
    "prefecture_kana": "クマモトケン",
    "prefecture_code": "43",
    "city": "天草市",
    "city_kana": "アマクサシ",
    "town": "旭町",
    "town_kana": "アサヒマチ",
    "street": null,
    "office_name": null,
    "office_name_kana": null
  },
  "2201": {
    "zip_code": "8632201",
    "prefecture": "熊本県",
    "prefecture_kana": "クマモトケン",
    "prefecture_code": "43",
    "city": "天草市",
    "city_kana": "アマクサシ",
    "town": "五和町御領",
    "town_kana": "イツワマチゴリョウ",
    "street": null,
    "office_name": null,
    "office_name_kana": null
  },
  "2292": {
    "zip_code": "8632292",
    "prefecture": "熊本県",
    "prefecture_kana": "クマモトケン",
    "prefecture_code": "43",
    "city": "天草市",
    "city_kana": "アマクサシ",
    "town": "五和町御領",
    "town_kana": "イツワマチゴリョウ",
    "street": "２９４３",
    "office_name": "天草市役所　五和支所",
    "office_name_kana": "アマクサシヤクシヨ イツワシシヨ"
  },
  "2331": {
    "zip_code": "8632331",
    "prefecture": "熊本県",
    "prefecture_kana": "クマモトケン",
    "prefecture_code": "43",
    "city": "天草市",
    "city_kana": "アマクサシ",
    "town": "五和町鬼池",
    "town_kana": "イツワマチオニイケ",
    "street": null,
    "office_name": null,
    "office_name_kana": null
  },
  "2421": {
    "zip_code": "8632421",
    "prefecture": "熊本県",
    "prefecture_kana": "クマモトケン",
    "prefecture_code": "43",
    "city": "天草市",
    "city_kana": "アマクサシ",
    "town": "五和町二江",
    "town_kana": "イツワマチフタエ",
    "street": null,
    "office_name": null,
    "office_name_kana": null
  },
  "2424": {
    "zip_code": "8632424",
    "prefecture": "熊本県",
    "prefecture_kana": "クマモトケン",
    "prefecture_code": "43",
    "city": "天草市",
    "city_kana": "アマクサシ",
    "town": "五和町手野",
    "town_kana": "イツワマチテノ",
    "street": null,
    "office_name": null,
    "office_name_kana": null
  },
  "2500": {
    "zip_code": "8632500",
    "prefecture": "熊本県",
    "prefecture_kana": "クマモトケン",
    "prefecture_code": "43",
    "city": "天草郡苓北町",
    "city_kana": "アマクサグンレイホクマチ",
    "town": "",
    "town_kana": "",
    "street": null,
    "office_name": null,
    "office_name_kana": null
  },
  "2501": {
    "zip_code": "8632501",
    "prefecture": "熊本県",
    "prefecture_kana": "クマモトケン",
    "prefecture_code": "43",
    "city": "天草郡苓北町",
    "city_kana": "アマクサグンレイホクマチ",
    "town": "坂瀬川",
    "town_kana": "サカセガワ",
    "street": null,
    "office_name": null,
    "office_name_kana": null
  },
  "2502": {
    "zip_code": "8632502",
    "prefecture": "熊本県",
    "prefecture_kana": "クマモトケン",
    "prefecture_code": "43",
    "city": "天草郡苓北町",
    "city_kana": "アマクサグンレイホクマチ",
    "town": "上津深江",
    "town_kana": "コウツフカエ",
    "street": null,
    "office_name": null,
    "office_name_kana": null
  },
  "2503": {
    "zip_code": "8632503",
    "prefecture": "熊本県",
    "prefecture_kana": "クマモトケン",
    "prefecture_code": "43",
    "city": "天草郡苓北町",
    "city_kana": "アマクサグンレイホクマチ",
    "town": "志岐",
    "town_kana": "シキ",
    "street": null,
    "office_name": null,
    "office_name_kana": null
  },
  "2504": {
    "zip_code": "8632504",
    "prefecture": "熊本県",
    "prefecture_kana": "クマモトケン",
    "prefecture_code": "43",
    "city": "天草郡苓北町",
    "city_kana": "アマクサグンレイホクマチ",
    "town": "年柄",
    "town_kana": "トシカラ",
    "street": null,
    "office_name": null,
    "office_name_kana": null
  },
  "2505": {
    "zip_code": "8632505",
    "prefecture": "熊本県",
    "prefecture_kana": "クマモトケン",
    "prefecture_code": "43",
    "city": "天草郡苓北町",
    "city_kana": "アマクサグンレイホクマチ",
    "town": "内田",
    "town_kana": "ウチダ",
    "street": null,
    "office_name": null,
    "office_name_kana": null
  },
  "2506": {
    "zip_code": "8632506",
    "prefecture": "熊本県",
    "prefecture_kana": "クマモトケン",
    "prefecture_code": "43",
    "city": "天草郡苓北町",
    "city_kana": "アマクサグンレイホクマチ",
    "town": "白木尾",
    "town_kana": "シラキオ",
    "street": null,
    "office_name": null,
    "office_name_kana": null
  },
  "2507": {
    "zip_code": "8632507",
    "prefecture": "熊本県",
    "prefecture_kana": "クマモトケン",
    "prefecture_code": "43",
    "city": "天草郡苓北町",
    "city_kana": "アマクサグンレイホクマチ",
    "town": "富岡",
    "town_kana": "トミオカ",
    "street": null,
    "office_name": null,
    "office_name_kana": null
  },
  "2611": {
    "zip_code": "8632611",
    "prefecture": "熊本県",
    "prefecture_kana": "クマモトケン",
    "prefecture_code": "43",
    "city": "天草郡苓北町",
    "city_kana": "アマクサグンレイホクマチ",
    "town": "都呂々",
    "town_kana": "トロロ",
    "street": null,
    "office_name": null,
    "office_name_kana": null
  },
  "2801": [
    {
      "zip_code": "8632801",
      "prefecture": "熊本県",
      "prefecture_kana": "クマモトケン",
      "prefecture_code": "43",
      "city": "天草市",
      "city_kana": "アマクサシ",
      "town": "天草町大江",
      "town_kana": "アマクサマチオオエ",
      "street": null,
      "office_name": null,
      "office_name_kana": null
    },
    {
      "zip_code": "8632801",
      "prefecture": "熊本県",
      "prefecture_kana": "クマモトケン",
      "prefecture_code": "43",
      "city": "天草市",
      "city_kana": "アマクサシ",
      "town": "天草町大江軍浦",
      "town_kana": "アマクサマチオオエイクサガウラ",
      "street": null,
      "office_name": null,
      "office_name_kana": null
    }
  ],
  "2802": {
    "zip_code": "8632802",
    "prefecture": "熊本県",
    "prefecture_kana": "クマモトケン",
    "prefecture_code": "43",
    "city": "天草市",
    "city_kana": "アマクサシ",
    "town": "天草町下田南",
    "town_kana": "アマクサマチシモダミナミ",
    "street": null,
    "office_name": null,
    "office_name_kana": null
  },
  "2803": {
    "zip_code": "8632803",
    "prefecture": "熊本県",
    "prefecture_kana": "クマモトケン",
    "prefecture_code": "43",
    "city": "天草市",
    "city_kana": "アマクサシ",
    "town": "天草町下田北",
    "town_kana": "アマクサマチシモダキタ",
    "street": null,
    "office_name": null,
    "office_name_kana": null
  },
  "2804": {
    "zip_code": "8632804",
    "prefecture": "熊本県",
    "prefecture_kana": "クマモトケン",
    "prefecture_code": "43",
    "city": "天草市",
    "city_kana": "アマクサシ",
    "town": "天草町高浜南",
    "town_kana": "アマクサマチタカハマミナミ",
    "street": null,
    "office_name": null,
    "office_name_kana": null
  },
  "2805": {
    "zip_code": "8632805",
    "prefecture": "熊本県",
    "prefecture_kana": "クマモトケン",
    "prefecture_code": "43",
    "city": "天草市",
    "city_kana": "アマクサシ",
    "town": "天草町高浜北",
    "town_kana": "アマクサマチタカハマキタ",
    "street": null,
    "office_name": null,
    "office_name_kana": null
  },
  "2806": {
    "zip_code": "8632806",
    "prefecture": "熊本県",
    "prefecture_kana": "クマモトケン",
    "prefecture_code": "43",
    "city": "天草市",
    "city_kana": "アマクサシ",
    "town": "天草町福連木",
    "town_kana": "アマクサマチフクレギ",
    "street": null,
    "office_name": null,
    "office_name_kana": null
  },
  "2895": {
    "zip_code": "8632895",
    "prefecture": "熊本県",
    "prefecture_kana": "クマモトケン",
    "prefecture_code": "43",
    "city": "天草市",
    "city_kana": "アマクサシ",
    "town": "天草町高浜南",
    "town_kana": "アマクサマチタカハマミナミ",
    "street": "７２１−９",
    "office_name": "天草市役所　天草支所",
    "office_name_kana": "アマクサシヤクシヨ アマクサシシヨ"
  },
  "8555": {
    "zip_code": "8638555",
    "prefecture": "熊本県",
    "prefecture_kana": "クマモトケン",
    "prefecture_code": "43",
    "city": "天草市",
    "city_kana": "アマクサシ",
    "town": "東町",
    "town_kana": "ヒガシマチ",
    "street": "７９",
    "office_name": "九州電力　株式会社　天草営業所",
    "office_name_kana": "キユウシユウデンリヨク カブシキガイシヤ アマクサエイギヨウシヨ"
  },
  "8585": {
    "zip_code": "8638585",
    "prefecture": "熊本県",
    "prefecture_kana": "クマモトケン",
    "prefecture_code": "43",
    "city": "天草市",
    "city_kana": "アマクサシ",
    "town": "諏訪町",
    "town_kana": "スワマチ",
    "street": "１６−２４",
    "office_name": "熊本地方裁判所　天草支部",
    "office_name_kana": "クマモトチホウサイバンシヨ アマクサシブ"
  },
  "8631": {
    "zip_code": "8638631",
    "prefecture": "熊本県",
    "prefecture_kana": "クマモトケン",
    "prefecture_code": "43",
    "city": "天草市",
    "city_kana": "アマクサシ",
    "town": "東浜町",
    "town_kana": "ヒガシハママチ",
    "street": "８−１（本渡郵便局私書箱第１１号）",
    "office_name": "天草市役所",
    "office_name_kana": "アマクサシヤクシヨ"
  },
  "8686": {
    "zip_code": "8638686",
    "prefecture": "熊本県",
    "prefecture_kana": "クマモトケン",
    "prefecture_code": "43",
    "city": "天草市",
    "city_kana": "アマクサシ",
    "town": "古川町",
    "town_kana": "フルカワマチ",
    "street": "４−２（本渡郵便局私書箱第１２号）",
    "office_name": "天草税務署",
    "office_name_kana": "アマクサゼイムシヨ"
  }
}