{
  "0000": {
    "zip_code": "8640000",
    "prefecture": "熊本県",
    "prefecture_kana": "クマモトケン",
    "prefecture_code": "43",
    "city": "荒尾市",
    "city_kana": "アラオシ",
    "town": "",
    "town_kana": "",
    "street": null,
    "office_name": null,
    "office_name_kana": null
  },
  "0001": {
    "zip_code": "8640001",
    "prefecture": "熊本県",
    "prefecture_kana": "クマモトケン",
    "prefecture_code": "43",
    "city": "荒尾市",
    "city_kana": "アラオシ",
    "town": "原万田",
    "town_kana": "ハラマンダ",
    "street": null,
    "office_name": null,
    "office_name_kana": null
  },
  "0002": {
    "zip_code": "8640002",
    "prefecture": "熊本県",
    "prefecture_kana": "クマモトケン",
    "prefecture_code": "43",
    "city": "荒尾市",
    "city_kana": "アラオシ",
    "town": "万田",
    "town_kana": "マンダ",
    "street": null,
    "office_name": null,
    "office_name_kana": null
  },
  "0003": {
    "zip_code": "8640003",
    "prefecture": "熊本県",
    "prefecture_kana": "クマモトケン",
    "prefecture_code": "43",
    "city": "荒尾市",
    "city_kana": "アラオシ",
    "town": "宮内出目",
    "town_kana": "クナイデメ",
    "street": null,
    "office_name": null,
    "office_name_kana": null
  },
  "0004": {
    "zip_code": "8640004",
    "prefecture": "熊本県",
    "prefecture_kana": "クマモトケン",
    "prefecture_code": "43",
    "city": "荒尾市",
    "city_kana": "アラオシ",
    "town": "宮内",
    "town_kana": "クナイ",
    "street": null,
    "office_name": null,
    "office_name_kana": null
  },
  "0005": {
    "zip_code": "8640005",
    "prefecture": "熊本県",
    "prefecture_kana": "クマモトケン",
    "prefecture_code": "43",
    "city": "荒尾市",
    "city_kana": "アラオシ",
    "town": "大平町",
    "town_kana": "オオヒラマチ",
    "street": null,
    "office_name": null,
    "office_name_kana": null
  },
  "0006": {
    "zip_code": "8640006",
    "prefecture": "熊本県",
    "prefecture_kana": "クマモトケン",
    "prefecture_code": "43",
    "city": "荒尾市",
    "city_kana": "アラオシ",
    "town": "住吉町",
    "town_kana": "スミヨシマチ",
    "street": null,
    "office_name": null,
    "office_name_kana": null
  },
  "0011": {
    "zip_code": "8640011",
    "prefecture": "熊本県",
    "prefecture_kana": "クマモトケン",
    "prefecture_code": "43",
    "city": "荒尾市",
    "city_kana": "アラオシ",
    "town": "下井手",
    "town_kana": "シモイデ",
    "street": null,
    "office_name": null,
    "office_name_kana": null
  },
  "0012": {
    "zip_code": "8640012",
    "prefecture": "熊本県",
    "prefecture_kana": "クマモトケン",
    "prefecture_code": "43",
    "city": "荒尾市",
    "city_kana": "アラオシ",
    "town": "本井手",
    "town_kana": "ホンイデ",
    "street": null,
    "office_name": null,
    "office_name_kana": null
  },
  "0013": {
    "zip_code": "8640013",
    "prefecture": "熊本県",
    "prefecture_kana": "クマモトケン",
    "prefecture_code": "43",
    "city": "荒尾市",
    "city_kana": "アラオシ",
    "town": "上井手",
    "town_kana": "カミイデ",
    "street": null,
    "office_name": null,
    "office_name_kana": null
  },
  "0014": {
    "zip_code": "8640014",
    "prefecture": "熊本県",
    "prefecture_kana": "クマモトケン",
    "prefecture_code": "43",
    "city": "荒尾市",
    "city_kana": "アラオシ",
    "town": "上平山",
    "town_kana": "カミヒラヤマ",
    "street": null,
    "office_name": null,
    "office_name_kana": null
  },
  "0015": {
    "zip_code": "8640015",
    "prefecture": "熊本県",
    "prefecture_kana": "クマモトケン",
    "prefecture_code": "43",
    "city": "荒尾市",
    "city_kana": "アラオシ",
    "town": "平山",
    "town_kana": "ヒラヤマ",
    "street": null,
    "office_name": null,
    "office_name_kana": null
  },
  "0021": {
    "zip_code": "8640021",
    "prefecture": "熊本県",
    "prefecture_kana": "クマモトケン",
    "prefecture_code": "43",
    "city": "荒尾市",
    "city_kana": "アラオシ",
    "town": "一部",
    "town_kana": "イチブ",
    "street": null,
    "office_name": null,
    "office_name_kana": null
  },
  "0022": {
    "zip_code": "8640022",
    "prefecture": "熊本県",
    "prefecture_kana": "クマモトケン",
    "prefecture_code": "43",
    "city": "荒尾市",
    "city_kana": "アラオシ",
    "town": "桜山町",
    "town_kana": "サクラヤママチ",
    "street": null,
    "office_name": null,
    "office_name_kana": null
  },
  "0023": {
    "zip_code": "8640023",
    "prefecture": "熊本県",
    "prefecture_kana": "クマモトケン",
    "prefecture_code": "43",
    "city": "荒尾市",
    "city_kana": "アラオシ",
    "town": "水野",
    "town_kana": "ミズノ",
    "street": null,
    "office_name": null,
    "office_name_kana": null
  },
  "0025": {
    "zip_code": "8640025",
    "prefecture": "熊本県",
    "prefecture_kana": "クマモトケン",
    "prefecture_code": "43",
    "city": "荒尾市",
    "city_kana": "アラオシ",
    "town": "高浜",
    "town_kana": "タカハマ",
    "street": null,
    "office_name": null,
    "office_name_kana": null
  },
  "0026": {
    "zip_code": "8640026",
    "prefecture": "熊本県",
    "prefecture_kana": "クマモトケン",
    "prefecture_code": "43",
    "city": "荒尾市",
    "city_kana": "アラオシ",
    "town": "牛水",
    "town_kana": "ウシノミズ",
    "street": null,
    "office_name": null,
    "office_name_kana": null
  },
  "0027": {
    "zip_code": "8640027",
    "prefecture": "熊本県",
    "prefecture_kana": "クマモトケン",
    "prefecture_code": "43",
    "city": "荒尾市",
    "city_kana": "アラオシ",
    "town": "蔵満",
    "town_kana": "クラミツ",
    "street": null,
    "office_name": null,
    "office_name_kana": null
  },
  "0031": {
    "zip_code": "8640031",
    "prefecture": "熊本県",
    "prefecture_kana": "クマモトケン",
    "prefecture_code": "43",
    "city": "荒尾市",
    "city_kana": "アラオシ",
    "town": "川登",
    "town_kana": "カワノボリ",
    "street": null,
    "office_name": null,
    "office_name_kana": null
  },
  "0032": {
    "zip_code": "8640032",
    "prefecture": "熊本県",
    "prefecture_kana": "クマモトケン",
    "prefecture_code": "43",
    "city": "荒尾市",
    "city_kana": "アラオシ",
    "town": "増永",
    "town_kana": "マスナガ",
    "street": null,
    "office_name": null,
    "office_name_kana": null
  },
  "0033": {
    "zip_code": "8640033",
    "prefecture": "熊本県",
    "prefecture_kana": "クマモトケン",
    "prefecture_code": "43",
    "city": "荒尾市",
    "city_kana": "アラオシ",
    "town": "緑ケ丘",
    "town_kana": "ミドリガオカ",
    "street": null,
    "office_name": null,
    "office_name_kana": null
  },
  "0041": {
    "zip_code": "8640041",
    "prefecture": "熊本県",
    "prefecture_kana": "クマモトケン",
    "prefecture_code": "43",
    "city": "荒尾市",
    "city_kana": "アラオシ",
    "town": "荒尾",
    "town_kana": "アラオ",
    "street": null,
    "office_name": null,
    "office_name_kana": null
  },
  "0042": {
    "zip_code": "8640042",
    "prefecture": "熊本県",
    "prefecture_kana": "クマモトケン",
    "prefecture_code": "43",
    "city": "荒尾市",
    "city_kana": "アラオシ",
    "town": "東屋形",
    "town_kana": "ヒガシヤカタ",
    "street": null,
    "office_name": null,
    "office_name_kana": null
  },
  "0051": {
    "zip_code": "8640051",
    "prefecture": "熊本県",
    "prefecture_kana": "クマモトケン",
    "prefecture_code": "43",
    "city": "荒尾市",
    "city_kana": "アラオシ",
    "town": "大島町",
    "town_kana": "オオシママチ",
    "street": null,
    "office_name": null,
    "office_name_kana": null
  },
  "0052": {
    "zip_code": "8640052",
    "prefecture": "熊本県",
    "prefecture_kana": "クマモトケン",
    "prefecture_code": "43",
    "city": "荒尾市",
    "city_kana": "アラオシ",
    "town": "四ツ山町",
    "town_kana": "ヨツヤママチ",
    "street": null,
    "office_name": null,
    "office_name_kana": null
  },
  "0053": {
    "zip_code": "8640053",
    "prefecture": "熊本県",
    "prefecture_kana": "クマモトケン",
    "prefecture_code": "43",
    "city": "荒尾市",
    "city_kana": "アラオシ",
    "town": "西原町",
    "town_kana": "ニシバルマチ",
    "street": null,
    "office_name": null,
    "office_name_kana": null
  },
  "0054": {
    "zip_code": "8640054",
    "prefecture": "熊本県",
    "prefecture_kana": "クマモトケン",
    "prefecture_code": "43",
    "city": "荒尾市",
    "city_kana": "アラオシ",
    "town": "大正町",
    "town_kana": "タイショウマチ",
    "street": null,
    "office_name": null,
    "office_name_kana": null
  },
  "0055": {
    "zip_code": "8640055",
    "prefecture": "熊本県",
    "prefecture_kana": "クマモトケン",
    "prefecture_code": "43",
    "city": "荒尾市",
    "city_kana": "アラオシ",
    "town": "日の出町",
    "town_kana": "ヒノデマチ",
    "street": null,
    "office_name": null,
    "office_name_kana": null
  },
  "0056": {
    "zip_code": "8640056",
    "prefecture": "熊本県",
    "prefecture_kana": "クマモトケン",
    "prefecture_code": "43",
    "city": "荒尾市",
    "city_kana": "アラオシ",
    "town": "昭和町",
    "town_kana": "ショウワマチ",
    "street": null,
    "office_name": null,
    "office_name_kana": null
  },
  "0057": {
    "zip_code": "8640057",
    "prefecture": "熊本県",
    "prefecture_kana": "クマモトケン",
    "prefecture_code": "43",
    "city": "荒尾市",
    "city_kana": "アラオシ",
    "town": "大島",
    "town_kana": "オオシマ",
    "street": null,
    "office_name": null,
    "office_name_kana": null
  },
  "0131": {
    "zip_code": "8640131",
    "prefecture": "熊本県",
    "prefecture_kana": "クマモトケン",
    "prefecture_code": "43",
    "city": "荒尾市",
    "city_kana": "アラオシ",
    "town": "川登",
    "town_kana": "カワノボリ",
    "street": null,
    "office_name": null,
    "office_name_kana": null
  },
  "0161": {
    "zip_code": "8640161",
    "prefecture": "熊本県",
    "prefecture_kana": "クマモトケン",
    "prefecture_code": "43",
    "city": "荒尾市",
    "city_kana": "アラオシ",
    "town": "菰屋",
    "town_kana": "コモヤ",
    "street": null,
    "office_name": null,
    "office_name_kana": null
  },
  "0162": {
    "zip_code": "8640162",
    "prefecture": "熊本県",
    "prefecture_kana": "クマモトケン",
    "prefecture_code": "43",
    "city": "荒尾市",
    "city_kana": "アラオシ",
    "town": "金山",
    "town_kana": "カナヤマ",
    "street": null,
    "office_name": null,
    "office_name_kana": null
  },
  "0163": {
    "zip_code": "8640163",
    "prefecture": "熊本県",
    "prefecture_kana": "クマモトケン",
    "prefecture_code": "43",
    "city": "荒尾市",
    "city_kana": "アラオシ",
    "town": "野原",
    "town_kana": "ノバラ",
    "street": null,
    "office_name": null,
    "office_name_kana": null
  },
  "0164": {
    "zip_code": "8640164",
    "prefecture": "熊本県",
    "prefecture_kana": "クマモトケン",
    "prefecture_code": "43",
    "city": "荒尾市",
    "city_kana": "アラオシ",
    "town": "八幡台",
    "town_kana": "ハチマンダイ",
    "street": null,
    "office_name": null,
    "office_name_kana": null
  },
  "0165": {
    "zip_code": "8640165",
    "prefecture": "熊本県",
    "prefecture_kana": "クマモトケン",
    "prefecture_code": "43",
    "city": "荒尾市",
    "city_kana": "アラオシ",
    "town": "樺",
    "town_kana": "カバ",
    "street": null,
    "office_name": null,
    "office_name_kana": null
  },
  "0166": {
    "zip_code": "8640166",
    "prefecture": "熊本県",
    "prefecture_kana": "クマモトケン",
    "prefecture_code": "43",
    "city": "荒尾市",
    "city_kana": "アラオシ",
    "town": "府本",
    "town_kana": "フモト",
    "street": null,
    "office_name": null,
    "office_name_kana": null
  },
  "8501": {
    "zip_code": "8648501",
    "prefecture": "熊本県",
    "prefecture_kana": "クマモトケン",
    "prefecture_code": "43",
    "city": "荒尾市",
    "city_kana": "アラオシ",
    "town": "増永",
    "town_kana": "マスナガ",
    "street": "２８００−２",
    "office_name": "高森興産　株式会社",
    "office_name_kana": "タマモリコウサン カブシキガイシヤ"
  },
  "8611": {
    "zip_code": "8648611",
    "prefecture": "熊本県",
    "prefecture_kana": "クマモトケン",
    "prefecture_code": "43",
    "city": "荒尾市",
    "city_kana": "アラオシ",
    "town": "増永",
    "town_kana": "マスナガ",
    "street": "１８５０（荒尾郵便局私書箱第３号）",
    "office_name": "第一製網　株式会社",
    "office_name_kana": "ダイイチセイモウ カブシキガイシヤ"
  },
  "8686": {
    "zip_code": "8648686",
    "prefecture": "熊本県",
    "prefecture_kana": "クマモトケン",
    "prefecture_code": "43",
    "city": "荒尾市",
    "city_kana": "アラオシ",
    "town": "宮内出目",
    "town_kana": "クナイデメ",
    "street": "３９０（荒尾郵便局私書箱第１５号）",
    "office_name": "荒尾市役所",
    "office_name_kana": "アラオシヤクシヨ"
  }
}