{
  "0000": {
    "zip_code": "8660000",
    "prefecture": "熊本県",
    "prefecture_kana": "クマモトケン",
    "prefecture_code": "43",
    "city": "八代市",
    "city_kana": "ヤツシロシ",
    "town": "",
    "town_kana": "",
    "street": null,
    "office_name": null,
    "office_name_kana": null
  },
  "0001": {
    "zip_code": "8660001",
    "prefecture": "熊本県",
    "prefecture_kana": "クマモトケン",
    "prefecture_code": "43",
    "city": "八代市",
    "city_kana": "ヤツシロシ",
    "town": "郡築十二番町",
    "town_kana": "グンチク12バンチョウ",
    "street": null,
    "office_name": null,
    "office_name_kana": null
  },
  "0002": {
    "zip_code": "8660002",
    "prefecture": "熊本県",
    "prefecture_kana": "クマモトケン",
    "prefecture_code": "43",
    "city": "八代市",
    "city_kana": "ヤツシロシ",
    "town": "郡築十一番町",
    "town_kana": "グンチク11バンチョウ",
    "street": null,
    "office_name": null,
    "office_name_kana": null
  },
  "0003": {
    "zip_code": "8660003",
    "prefecture": "熊本県",
    "prefecture_kana": "クマモトケン",
    "prefecture_code": "43",
    "city": "八代市",
    "city_kana": "ヤツシロシ",
    "town": "郡築十番町",
    "town_kana": "グンチク10バンチョウ",
    "street": null,
    "office_name": null,
    "office_name_kana": null
  },
  "0004": {
    "zip_code": "8660004",
    "prefecture": "熊本県",
    "prefecture_kana": "クマモトケン",
    "prefecture_code": "43",
    "city": "八代市",
    "city_kana": "ヤツシロシ",
    "town": "郡築九番町",
    "town_kana": "グンチク9バンチョウ",
    "street": null,
    "office_name": null,
    "office_name_kana": null
  },
  "0005": {
    "zip_code": "8660005",
    "prefecture": "熊本県",
    "prefecture_kana": "クマモトケン",
    "prefecture_code": "43",
    "city": "八代市",
    "city_kana": "ヤツシロシ",
    "town": "郡築八番町",
    "town_kana": "グンチク8バンチョウ",
    "street": null,
    "office_name": null,
    "office_name_kana": null
  },
  "0006": {
    "zip_code": "8660006",
    "prefecture": "熊本県",
    "prefecture_kana": "クマモトケン",
    "prefecture_code": "43",
    "city": "八代市",
    "city_kana": "ヤツシロシ",
    "town": "郡築七番町",
    "town_kana": "グンチク7バンチョウ",
    "street": null,
    "office_name": null,
    "office_name_kana": null
  },
  "0007": {
    "zip_code": "8660007",
    "prefecture": "熊本県",
    "prefecture_kana": "クマモトケン",
    "prefecture_code": "43",
    "city": "八代市",
    "city_kana": "ヤツシロシ",
    "town": "郡築六番町",
    "town_kana": "グンチク6バンチョウ",
    "street": null,
    "office_name": null,
    "office_name_kana": null
  },
  "0008": {
    "zip_code": "8660008",
    "prefecture": "熊本県",
    "prefecture_kana": "クマモトケン",
    "prefecture_code": "43",
    "city": "八代市",
    "city_kana": "ヤツシロシ",
    "town": "郡築五番町",
    "town_kana": "グンチク5バンチョウ",
    "street": null,
    "office_name": null,
    "office_name_kana": null
  },
  "0011": {
    "zip_code": "8660011",
    "prefecture": "熊本県",
    "prefecture_kana": "クマモトケン",
    "prefecture_code": "43",
    "city": "八代市",
    "city_kana": "ヤツシロシ",
    "town": "井揚町",
    "town_kana": "イアゲマチ",
    "street": null,
    "office_name": null,
    "office_name_kana": null
  },
  "0012": {
    "zip_code": "8660012",
    "prefecture": "熊本県",
    "prefecture_kana": "クマモトケン",
    "prefecture_code": "43",
    "city": "八代市",
    "city_kana": "ヤツシロシ",
    "town": "高小原町",
    "town_kana": "コウゴバラマチ",
    "street": null,
    "office_name": null,
    "office_name_kana": null
  },
  "0013": {
    "zip_code": "8660013",
    "prefecture": "熊本県",
    "prefecture_kana": "クマモトケン",
    "prefecture_code": "43",
    "city": "八代市",
    "city_kana": "ヤツシロシ",
    "town": "沖町",
    "town_kana": "オキマチ",
    "street": null,
    "office_name": null,
    "office_name_kana": null
  },
  "0014": {
    "zip_code": "8660014",
    "prefecture": "熊本県",
    "prefecture_kana": "クマモトケン",
    "prefecture_code": "43",
    "city": "八代市",
    "city_kana": "ヤツシロシ",
    "town": "高島町",
    "town_kana": "タカシママチ",
    "street": null,
    "office_name": null,
    "office_name_kana": null
  },
  "0015": {
    "zip_code": "8660015",
    "prefecture": "熊本県",
    "prefecture_kana": "クマモトケン",
    "prefecture_code": "43",
    "city": "八代市",
    "city_kana": "ヤツシロシ",
    "town": "築添町",
    "town_kana": "ツキゾエマチ",
    "street": null,
    "office_name": null,
    "office_name_kana": null
  },
  "0016": {
    "zip_code": "8660016",
    "prefecture": "熊本県",
    "prefecture_kana": "クマモトケン",
    "prefecture_code": "43",
    "city": "八代市",
    "city_kana": "ヤツシロシ",
    "town": "新地町",
    "town_kana": "シンチマチ",
    "street": null,
    "office_name": null,
    "office_name_kana": null
  },
  "0017": {
    "zip_code": "8660017",
    "prefecture": "熊本県",
    "prefecture_kana": "クマモトケン",
    "prefecture_code": "43",
    "city": "八代市",
    "city_kana": "ヤツシロシ",
    "town": "三楽町",
    "town_kana": "サンラクチョウ",
    "street": null,
    "office_name": null,
    "office_name_kana": null
  },
  "0021": {
    "zip_code": "8660021",
    "prefecture": "熊本県",
    "prefecture_kana": "クマモトケン",
    "prefecture_code": "43",
    "city": "八代市",
    "city_kana": "ヤツシロシ",
    "town": "郡築四番町",
    "town_kana": "グンチク4バンチョウ",
    "street": null,
    "office_name": null,
    "office_name_kana": null
  },
  "0022": {
    "zip_code": "8660022",
    "prefecture": "熊本県",
    "prefecture_kana": "クマモトケン",
    "prefecture_code": "43",
    "city": "八代市",
    "city_kana": "ヤツシロシ",
    "town": "郡築三番町",
    "town_kana": "グンチク3バンチョウ",
    "street": null,
    "office_name": null,
    "office_name_kana": null
  },
  "0023": {
    "zip_code": "8660023",
    "prefecture": "熊本県",
    "prefecture_kana": "クマモトケン",
    "prefecture_code": "43",
    "city": "八代市",
    "city_kana": "ヤツシロシ",
    "town": "郡築二番町",
    "town_kana": "グンチク2バンチョウ",
    "street": null,
    "office_name": null,
    "office_name_kana": null
  },
  "0024": {
    "zip_code": "8660024",
    "prefecture": "熊本県",
    "prefecture_kana": "クマモトケン",
    "prefecture_code": "43",
    "city": "八代市",
    "city_kana": "ヤツシロシ",
    "town": "郡築一番町",
    "town_kana": "グンチク1バンチョウ",
    "street": null,
    "office_name": null,
    "office_name_kana": null
  },
  "0031": {
    "zip_code": "8660031",
    "prefecture": "熊本県",
    "prefecture_kana": "クマモトケン",
    "prefecture_code": "43",
    "city": "八代市",
    "city_kana": "ヤツシロシ",
    "town": "新浜町",
    "town_kana": "シンハママチ",
    "street": null,
    "office_name": null,
    "office_name_kana": null
  },
  "0032": {
    "zip_code": "8660032",
    "prefecture": "熊本県",
    "prefecture_kana": "クマモトケン",
    "prefecture_code": "43",
    "city": "八代市",
    "city_kana": "ヤツシロシ",
    "town": "新開町",
    "town_kana": "シンカイマチ",
    "street": null,
    "office_name": null,
    "office_name_kana": null
  },
  "0033": {
    "zip_code": "8660033",
    "prefecture": "熊本県",
    "prefecture_kana": "クマモトケン",
    "prefecture_code": "43",
    "city": "八代市",
    "city_kana": "ヤツシロシ",
    "town": "港町",
    "town_kana": "ミナトマチ",
    "street": null,
    "office_name": null,
    "office_name_kana": null
  },
  "0034": {
    "zip_code": "8660034",
    "prefecture": "熊本県",
    "prefecture_kana": "クマモトケン",
    "prefecture_code": "43",
    "city": "八代市",
    "city_kana": "ヤツシロシ",
    "town": "新港町",
    "town_kana": "シンミナトマチ",
    "street": null,
    "office_name": null,
    "office_name_kana": null
  },
  "0035": {
    "zip_code": "8660035",
    "prefecture": "熊本県",
    "prefecture_kana": "クマモトケン",
    "prefecture_code": "43",
    "city": "八代市",
    "city_kana": "ヤツシロシ",
    "town": "大島町",
    "town_kana": "オオシママチ",
    "street": null,
    "office_name": null,
    "office_name_kana": null
  },
  "0041": {
    "zip_code": "8660041",
    "prefecture": "熊本県",
    "prefecture_kana": "クマモトケン",
    "prefecture_code": "43",
    "city": "八代市",
    "city_kana": "ヤツシロシ",
    "town": "八幡町",
    "town_kana": "ハチマンチョウ",
    "street": null,
    "office_name": null,
    "office_name_kana": null
  },
  "0042": {
    "zip_code": "8660042",
    "prefecture": "熊本県",
    "prefecture_kana": "クマモトケン",
    "prefecture_code": "43",
    "city": "八代市",
    "city_kana": "ヤツシロシ",
    "town": "蛇籠町",
    "town_kana": "ジャカゴマチ",
    "street": null,
    "office_name": null,
    "office_name_kana": null
  },
  "0043": {
    "zip_code": "8660043",
    "prefecture": "熊本県",
    "prefecture_kana": "クマモトケン",
    "prefecture_code": "43",
    "city": "八代市",
    "city_kana": "ヤツシロシ",
    "town": "古城町",
    "town_kana": "フルシロマチ",
    "street": null,
    "office_name": null,
    "office_name_kana": null
  },
  "0044": {
    "zip_code": "8660044",
    "prefecture": "熊本県",
    "prefecture_kana": "クマモトケン",
    "prefecture_code": "43",
    "city": "八代市",
    "city_kana": "ヤツシロシ",
    "town": "中北町",
    "town_kana": "ナカキタマチ",
    "street": null,
    "office_name": null,
    "office_name_kana": null
  },
  "0045": {
    "zip_code": "8660045",
    "prefecture": "熊本県",
    "prefecture_kana": "クマモトケン",
    "prefecture_code": "43",
    "city": "八代市",
    "city_kana": "ヤツシロシ",
    "town": "建馬町",
    "town_kana": "タテウママチ",
    "street": null,
    "office_name": null,
    "office_name_kana": null
  },
  "0051": {
    "zip_code": "8660051",
    "prefecture": "熊本県",
    "prefecture_kana": "クマモトケン",
    "prefecture_code": "43",
    "city": "八代市",
    "city_kana": "ヤツシロシ",
    "town": "麦島東町",
    "town_kana": "ムギシマヒガシマチ",
    "street": null,
    "office_name": null,
    "office_name_kana": null
  },
  "0052": {
    "zip_code": "8660052",
    "prefecture": "熊本県",
    "prefecture_kana": "クマモトケン",
    "prefecture_code": "43",
    "city": "八代市",
    "city_kana": "ヤツシロシ",
    "town": "麦島西町",
    "town_kana": "ムギシマニシマチ",
    "street": null,
    "office_name": null,
    "office_name_kana": null
  },
  "0053": {
    "zip_code": "8660053",
    "prefecture": "熊本県",
    "prefecture_kana": "クマモトケン",
    "prefecture_code": "43",
    "city": "八代市",
    "city_kana": "ヤツシロシ",
    "town": "千反町",
    "town_kana": "センダンマチ",
    "street": null,
    "office_name": null,
    "office_name_kana": null
  },
  "0054": {
    "zip_code": "8660054",
    "prefecture": "熊本県",
    "prefecture_kana": "クマモトケン",
    "prefecture_code": "43",
    "city": "八代市",
    "city_kana": "ヤツシロシ",
    "town": "栴檀町",
    "town_kana": "センダンマチ",
    "street": null,
    "office_name": null,
    "office_name_kana": null
  },
  "0055": {
    "zip_code": "8660055",
    "prefecture": "熊本県",
    "prefecture_kana": "クマモトケン",
    "prefecture_code": "43",
    "city": "八代市",
    "city_kana": "ヤツシロシ",
    "town": "迎町",
    "town_kana": "ムカエマチ",
    "street": null,
    "office_name": null,
    "office_name_kana": null
  },
  "0061": {
    "zip_code": "8660061",
    "prefecture": "熊本県",
    "prefecture_kana": "クマモトケン",
    "prefecture_code": "43",
    "city": "八代市",
    "city_kana": "ヤツシロシ",
    "town": "渡町",
    "town_kana": "ワタシマチ",
    "street": null,
    "office_name": null,
    "office_name_kana": null
  },
  "0062": {
    "zip_code": "8660062",
    "prefecture": "熊本県",
    "prefecture_kana": "クマモトケン",
    "prefecture_code": "43",
    "city": "八代市",
    "city_kana": "ヤツシロシ",
    "town": "豊原中町",
    "town_kana": "ブイワラナカマチ",
    "street": null,
    "office_name": null,
    "office_name_kana": null
  },
  "0063": {
    "zip_code": "8660063",
    "prefecture": "熊本県",
    "prefecture_kana": "クマモトケン",
    "prefecture_code": "43",
    "city": "八代市",
    "city_kana": "ヤツシロシ",
    "town": "豊原上町",
    "town_kana": "ブイワラカミマチ",
    "street": null,
    "office_name": null,
    "office_name_kana": null
  },
  "0064": {
    "zip_code": "8660064",
    "prefecture": "熊本県",
    "prefecture_kana": "クマモトケン",
    "prefecture_code": "43",
    "city": "八代市",
    "city_kana": "ヤツシロシ",
    "town": "奈良木町",
    "town_kana": "ナラギマチ",
    "street": null,
    "office_name": null,
    "office_name_kana": null
  },
  "0065": {
    "zip_code": "8660065",
    "prefecture": "熊本県",
    "prefecture_kana": "クマモトケン",
    "prefecture_code": "43",
    "city": "八代市",
    "city_kana": "ヤツシロシ",
    "town": "豊原下町",
    "town_kana": "ブイワラシモマチ",
    "street": null,
    "office_name": null,
    "office_name_kana": null
  },
  "0071": {
    "zip_code": "8660071",
    "prefecture": "熊本県",
    "prefecture_kana": "クマモトケン",
    "prefecture_code": "43",
    "city": "八代市",
    "city_kana": "ヤツシロシ",
    "town": "高下東町",
    "town_kana": "コウゲヒガシマチ",
    "street": null,
    "office_name": null,
    "office_name_kana": null
  },
  "0072": {
    "zip_code": "8660072",
    "prefecture": "熊本県",
    "prefecture_kana": "クマモトケン",
    "prefecture_code": "43",
    "city": "八代市",
    "city_kana": "ヤツシロシ",
    "town": "高下西町",
    "town_kana": "コウゲニシマチ",
    "street": null,
    "office_name": null,
    "office_name_kana": null
  },
  "0073": {
    "zip_code": "8660073",
    "prefecture": "熊本県",
    "prefecture_kana": "クマモトケン",
    "prefecture_code": "43",
    "city": "八代市",
    "city_kana": "ヤツシロシ",
    "town": "本野町",
    "town_kana": "ホンノマチ",
    "street": null,
    "office_name": null,
    "office_name_kana": null
  },
  "0074": {
    "zip_code": "8660074",
    "prefecture": "熊本県",
    "prefecture_kana": "クマモトケン",
    "prefecture_code": "43",
    "city": "八代市",
    "city_kana": "ヤツシロシ",
    "town": "平山新町",
    "town_kana": "ヒラヤマシンマチ",
    "street": null,
    "office_name": null,
    "office_name_kana": null
  },
  "0081": {
    "zip_code": "8660081",
    "prefecture": "熊本県",
    "prefecture_kana": "クマモトケン",
    "prefecture_code": "43",
    "city": "八代市",
    "city_kana": "ヤツシロシ",
    "town": "植柳上町",
    "town_kana": "ウヤナギカミマチ",
    "street": null,
    "office_name": null,
    "office_name_kana": null
  },
  "0082": {
    "zip_code": "8660082",
    "prefecture": "熊本県",
    "prefecture_kana": "クマモトケン",
    "prefecture_code": "43",
    "city": "八代市",
    "city_kana": "ヤツシロシ",
    "town": "大福寺町",
    "town_kana": "ダイフクジマチ",
    "street": null,
    "office_name": null,
    "office_name_kana": null
  },
  "0083": {
    "zip_code": "8660083",
    "prefecture": "熊本県",
    "prefecture_kana": "クマモトケン",
    "prefecture_code": "43",
    "city": "八代市",
    "city_kana": "ヤツシロシ",
    "town": "植柳下町",
    "town_kana": "ウヤナギシモマチ",
    "street": null,
    "office_name": null,
    "office_name_kana": null
  },
  "0084": {
    "zip_code": "8660084",
    "prefecture": "熊本県",
    "prefecture_kana": "クマモトケン",
    "prefecture_code": "43",
    "city": "八代市",
    "city_kana": "ヤツシロシ",
    "town": "植柳新町",
    "town_kana": "ウヤナギシンマチ",
    "street": null,
    "office_name": null,
    "office_name_kana": null
  },
  "0085": {
    "zip_code": "8660085",
    "prefecture": "熊本県",
    "prefecture_kana": "クマモトケン",
    "prefecture_code": "43",
    "city": "八代市",
    "city_kana": "ヤツシロシ",
    "town": "植柳元町",
    "town_kana": "ウヤナギモトマチ",
    "street": null,
    "office_name": null,
    "office_name_kana": null
  },
  "0101": {
    "zip_code": "8660101",
    "prefecture": "熊本県",
    "prefecture_kana": "クマモトケン",
    "prefecture_code": "43",
    "city": "上天草市",
    "city_kana": "カミアマクサシ",
    "town": "姫戸町姫浦",
    "town_kana": "ヒメドマチヒメウラ",
    "street": null,
    "office_name": null,
    "office_name_kana": null
  },
  "0102": {
    "zip_code": "8660102",
    "prefecture": "熊本県",
    "prefecture_kana": "クマモトケン",
    "prefecture_code": "43",
    "city": "上天草市",
    "city_kana": "カミアマクサシ",
    "town": "姫戸町二間戸",
    "town_kana": "ヒメドマチフタマド",
    "street": null,
    "office_name": null,
    "office_name_kana": null
  },
  "0195": {
    "zip_code": "8660195",
    "prefecture": "熊本県",
    "prefecture_kana": "クマモトケン",
    "prefecture_code": "43",
    "city": "上天草市",
    "city_kana": "カミアマクサシ",
    "town": "姫戸町姫浦",
    "town_kana": "ヒメドマチヒメウラ",
    "street": "２５０２−３",
    "office_name": "上天草市　姫戸統括支所",
    "office_name_kana": "カミアマクサシ ヒメドトウカツシシヨ"
  },
  "0201": {
    "zip_code": "8660201",
    "prefecture": "熊本県",
    "prefecture_kana": "クマモトケン",
    "prefecture_code": "43",
    "city": "上天草市",
    "city_kana": "カミアマクサシ",
    "town": "龍ケ岳町大道",
    "town_kana": "リュウガタケマチオオドウ",
    "street": null,
    "office_name": null,
    "office_name_kana": null
  },
  "0202": {
    "zip_code": "8660202",
    "prefecture": "熊本県",
    "prefecture_kana": "クマモトケン",
    "prefecture_code": "43",
    "city": "上天草市",
    "city_kana": "カミアマクサシ",
    "town": "龍ケ岳町高戸",
    "town_kana": "リュウガタケマチタカド",
    "street": null,
    "office_name": null,
    "office_name_kana": null
  },
  "0203": {
    "zip_code": "8660203",
    "prefecture": "熊本県",
    "prefecture_kana": "クマモトケン",
    "prefecture_code": "43",
    "city": "上天草市",
    "city_kana": "カミアマクサシ",
    "town": "龍ケ岳町樋島",
    "town_kana": "リュウガタケマチヒノシマ",
    "street": null,
    "office_name": null,
    "office_name_kana": null
  },
  "0292": {
    "zip_code": "8660292",
    "prefecture": "熊本県",
    "prefecture_kana": null,
    "prefecture_code": null,
    "city": "上天草市",
    "city_kana": null,
    "town": "龍ヶ岳町高戸",
    "town_kana": null,
    "street": "１４１２",
    "office_name": "上天草市　龍ヶ岳統括支所",
    "office_name_kana": "カミアマクサシ リユウガタケトウカツシシヨ"
  },
  "0293": {
    "zip_code": "8660293",
    "prefecture": "熊本県",
    "prefecture_kana": null,
    "prefecture_code": null,
    "city": "上天草市",
    "city_kana": null,
    "town": "龍ヶ岳町高戸",
    "town_kana": null,
    "street": "１４１９−１９",
    "office_name": "上天草市立　上天草総合病院",
    "office_name_kana": "カミアマクサシリツ カミアマクサソウゴウビヨウイン"
  },
  "0295": {
    "zip_code": "8660295",
    "prefecture": "熊本県",
    "prefecture_kana": null,
    "prefecture_code": null,
    "city": "上天草市",
    "city_kana": null,
    "town": "龍ヶ岳町高戸",
    "town_kana": null,
    "street": "１４１９−２",
    "office_name": "上天草看護専門学校",
    "office_name_kana": "カミアマクサカンゴセンモンガツコウ"
  },
  "0303": {
    "zip_code": "8660303",
    "prefecture": "熊本県",
    "prefecture_kana": "クマモトケン",
    "prefecture_code": "43",
    "city": "天草市",
    "city_kana": "アマクサシ",
    "town": "御所浦町横浦",
    "town_kana": "ゴショウラマチヨコウラ",
    "street": null,
    "office_name": null,
    "office_name_kana": null
  },
  "0313": {
    "zip_code": "8660313",
    "prefecture": "熊本県",
    "prefecture_kana": "クマモトケン",
    "prefecture_code": "43",
    "city": "天草市",
    "city_kana": "アマクサシ",
    "town": "御所浦町御所浦",
    "town_kana": "ゴショウラマチゴショウラ",
    "street": null,
    "office_name": null,
    "office_name_kana": null
  },
  "0334": {
    "zip_code": "8660334",
    "prefecture": "熊本県",
    "prefecture_kana": "クマモトケン",
    "prefecture_code": "43",
    "city": "天草市",
    "city_kana": "アマクサシ",
    "town": "御所浦町牧島",
    "town_kana": "ゴショウラマチマキシマ",
    "street": null,
    "office_name": null,
    "office_name_kana": null
  },
  "0801": {
    "zip_code": "8660801",
    "prefecture": "熊本県",
    "prefecture_kana": "クマモトケン",
    "prefecture_code": "43",
    "city": "八代市",
    "city_kana": "ヤツシロシ",
    "town": "東町",
    "town_kana": "ヒガシマチ",
    "street": null,
    "office_name": null,
    "office_name_kana": null
  },
  "0802": {
    "zip_code": "8660802",
    "prefecture": "熊本県",
    "prefecture_kana": "クマモトケン",
    "prefecture_code": "43",
    "city": "八代市",
    "city_kana": "ヤツシロシ",
    "town": "妙見町",
    "town_kana": "ミョウケンマチ",
    "street": null,
    "office_name": null,
    "office_name_kana": null
  },
  "0803": {
    "zip_code": "8660803",
    "prefecture": "熊本県",
    "prefecture_kana": "クマモトケン",
    "prefecture_code": "43",
    "city": "八代市",
    "city_kana": "ヤツシロシ",
    "town": "古麓町",
    "town_kana": "フルフモトマチ",
    "street": null,
    "office_name": null,
    "office_name_kana": null
  },
  "0804": {
    "zip_code": "8660804",
    "prefecture": "熊本県",
    "prefecture_kana": "クマモトケン",
    "prefecture_code": "43",
    "city": "八代市",
    "city_kana": "ヤツシロシ",
    "town": "西宮町",
    "town_kana": "ニシミヤマチ",
    "street": null,
    "office_name": null,
    "office_name_kana": null
  },
  "0805": {
    "zip_code": "8660805",
    "prefecture": "熊本県",
    "prefecture_kana": "クマモトケン",
    "prefecture_code": "43",
    "city": "八代市",
    "city_kana": "ヤツシロシ",
    "town": "宮地町",
    "town_kana": "ミヤジマチ",
    "street": null,
    "office_name": null,
    "office_name_kana": null
  },
  "0811": {
    "zip_code": "8660811",
    "prefecture": "熊本県",
    "prefecture_kana": "クマモトケン",
    "prefecture_code": "43",
    "city": "八代市",
    "city_kana": "ヤツシロシ",
    "town": "西片町",
    "town_kana": "ニシカタマチ",
    "street": null,
    "office_name": null,
    "office_name_kana": null
  },
  "0812": {
    "zip_code": "8660812",
    "prefecture": "熊本県",
    "prefecture_kana": "クマモトケン",
    "prefecture_code": "43",
    "city": "八代市",
    "city_kana": "ヤツシロシ",
    "town": "中片町",
    "town_kana": "ナカカタマチ",
    "street": null,
    "office_name": null,
    "office_name_kana": null
  },
  "0813": {
    "zip_code": "8660813",
    "prefecture": "熊本県",
    "prefecture_kana": "クマモトケン",
    "prefecture_code": "43",
    "city": "八代市",
    "city_kana": "ヤツシロシ",
    "town": "上片町",
    "town_kana": "カミカタマチ",
    "street": null,
    "office_name": null,
    "office_name_kana": null
  },
  "0814": {
    "zip_code": "8660814",
    "prefecture": "熊本県",
    "prefecture_kana": "クマモトケン",
    "prefecture_code": "43",
    "city": "八代市",
    "city_kana": "ヤツシロシ",
    "town": "東片町",
    "town_kana": "ヒガシカタマチ",
    "street": null,
    "office_name": null,
    "office_name_kana": null
  },
  "0815": {
    "zip_code": "8660815",
    "prefecture": "熊本県",
    "prefecture_kana": "クマモトケン",
    "prefecture_code": "43",
    "city": "八代市",
    "city_kana": "ヤツシロシ",
    "town": "長田町",
    "town_kana": "ナガタマチ",
    "street": null,
    "office_name": null,
    "office_name_kana": null
  },
  "0821": {
    "zip_code": "8660821",
    "prefecture": "熊本県",
    "prefecture_kana": "クマモトケン",
    "prefecture_code": "43",
    "city": "八代市",
    "city_kana": "ヤツシロシ",
    "town": "福正町",
    "town_kana": "フクショウマチ",
    "street": null,
    "office_name": null,
    "office_name_kana": null
  },
  "0822": {
    "zip_code": "8660822",
    "prefecture": "熊本県",
    "prefecture_kana": "クマモトケン",
    "prefecture_code": "43",
    "city": "八代市",
    "city_kana": "ヤツシロシ",
    "town": "福正元町",
    "town_kana": "フクショウモトマチ",
    "street": null,
    "office_name": null,
    "office_name_kana": null
  },
  "0823": {
    "zip_code": "8660823",
    "prefecture": "熊本県",
    "prefecture_kana": "クマモトケン",
    "prefecture_code": "43",
    "city": "八代市",
    "city_kana": "ヤツシロシ",
    "town": "十条町",
    "town_kana": "ジュウジョウマチ",
    "street": null,
    "office_name": null,
    "office_name_kana": null
  },
  "0824": {
    "zip_code": "8660824",
    "prefecture": "熊本県",
    "prefecture_kana": "クマモトケン",
    "prefecture_code": "43",
    "city": "八代市",
    "city_kana": "ヤツシロシ",
    "town": "上日置町",
    "town_kana": "カミヒオキマチ",
    "street": null,
    "office_name": null,
    "office_name_kana": null
  },
  "0825": {
    "zip_code": "8660825",
    "prefecture": "熊本県",
    "prefecture_kana": "クマモトケン",
    "prefecture_code": "43",
    "city": "八代市",
    "city_kana": "ヤツシロシ",
    "town": "井上町",
    "town_kana": "イノウエマチ",
    "street": null,
    "office_name": null,
    "office_name_kana": null
  },
  "0826": {
    "zip_code": "8660826",
    "prefecture": "熊本県",
    "prefecture_kana": "クマモトケン",
    "prefecture_code": "43",
    "city": "八代市",
    "city_kana": "ヤツシロシ",
    "town": "竹原町",
    "town_kana": "タケハラマチ",
    "street": null,
    "office_name": null,
    "office_name_kana": null
  },
  "0827": {
    "zip_code": "8660827",
    "prefecture": "熊本県",
    "prefecture_kana": "クマモトケン",
    "prefecture_code": "43",
    "city": "八代市",
    "city_kana": "ヤツシロシ",
    "town": "島田町",
    "town_kana": "シマダマチ",
    "street": null,
    "office_name": null,
    "office_name_kana": null
  },
  "0831": {
    "zip_code": "8660831",
    "prefecture": "熊本県",
    "prefecture_kana": "クマモトケン",
    "prefecture_code": "43",
    "city": "八代市",
    "city_kana": "ヤツシロシ",
    "town": "萩原町",
    "town_kana": "ハギワラマチ",
    "street": null,
    "office_name": null,
    "office_name_kana": null
  },
  "0832": {
    "zip_code": "8660832",
    "prefecture": "熊本県",
    "prefecture_kana": "クマモトケン",
    "prefecture_code": "43",
    "city": "八代市",
    "city_kana": "ヤツシロシ",
    "town": "末広町",
    "town_kana": "スエヒロチョウ",
    "street": null,
    "office_name": null,
    "office_name_kana": null
  },
  "0833": {
    "zip_code": "8660833",
    "prefecture": "熊本県",
    "prefecture_kana": "クマモトケン",
    "prefecture_code": "43",
    "city": "八代市",
    "city_kana": "ヤツシロシ",
    "town": "夕葉町",
    "town_kana": "ユウバチョウ",
    "street": null,
    "office_name": null,
    "office_name_kana": null
  },
  "0834": {
    "zip_code": "8660834",
    "prefecture": "熊本県",
    "prefecture_kana": "クマモトケン",
    "prefecture_code": "43",
    "city": "八代市",
    "city_kana": "ヤツシロシ",
    "town": "錦町",
    "town_kana": "ニシキチョウ",
    "street": null,
    "office_name": null,
    "office_name_kana": null
  },
  "0841": {
    "zip_code": "8660841",
    "prefecture": "熊本県",
    "prefecture_kana": "クマモトケン",
    "prefecture_code": "43",
    "city": "八代市",
    "city_kana": "ヤツシロシ",
    "town": "緑町",
    "town_kana": "ミドリチョウ",
    "street": null,
    "office_name": null,
    "office_name_kana": null
  },
  "0842": {
    "zip_code": "8660842",
    "prefecture": "熊本県",
    "prefecture_kana": "クマモトケン",
    "prefecture_code": "43",
    "city": "八代市",
    "city_kana": "ヤツシロシ",
    "town": "若草町",
    "town_kana": "ワカクサチョウ",
    "street": null,
    "office_name": null,
    "office_name_kana": null
  },
  "0843": {
    "zip_code": "8660843",
    "prefecture": "熊本県",
    "prefecture_kana": "クマモトケン",
    "prefecture_code": "43",
    "city": "八代市",
    "city_kana": "ヤツシロシ",
    "town": "花園町",
    "town_kana": "ハナゾノチョウ",
    "street": null,
    "office_name": null,
    "office_name_kana": null
  },
  "0844": {
    "zip_code": "8660844",
    "prefecture": "熊本県",
    "prefecture_kana": "クマモトケン",
    "prefecture_code": "43",
    "city": "八代市",
    "city_kana": "ヤツシロシ",
    "town": "旭中央通",
    "town_kana": "アサヒチュウオウドオリ",
    "street": null,
    "office_name": null,
    "office_name_kana": null
  },
  "0845": {
    "zip_code": "8660845",
    "prefecture": "熊本県",
    "prefecture_kana": "クマモトケン",
    "prefecture_code": "43",
    "city": "八代市",
    "city_kana": "ヤツシロシ",
    "town": "黄金町",
    "town_kana": "コガネチョウ",
    "street": null,
    "office_name": null,
    "office_name_kana": null
  },
  "0846": {
    "zip_code": "8660846",
    "prefecture": "熊本県",
    "prefecture_kana": "クマモトケン",
    "prefecture_code": "43",
    "city": "八代市",
    "city_kana": "ヤツシロシ",
    "town": "弥生町",
    "town_kana": "ヤヨイチョウ",
    "street": null,
    "office_name": null,
    "office_name_kana": null
  },
  "0851": {
    "zip_code": "8660851",
    "prefecture": "熊本県",
    "prefecture_kana": "クマモトケン",
    "prefecture_code": "43",
    "city": "八代市",
    "city_kana": "ヤツシロシ",
    "town": "毘舎丸町",
    "town_kana": "ビシャマルマチ",
    "street": null,
    "office_name": null,
    "office_name_kana": null
  },
  "0852": {
    "zip_code": "8660852",
    "prefecture": "熊本県",
    "prefecture_kana": "クマモトケン",
    "prefecture_code": "43",
    "city": "八代市",
    "city_kana": "ヤツシロシ",
    "town": "大手町",
    "town_kana": "オオテマチ",
    "street": null,
    "office_name": null,
    "office_name_kana": null
  },
  "0853": {
    "zip_code": "8660853",
    "prefecture": "熊本県",
    "prefecture_kana": "クマモトケン",
    "prefecture_code": "43",
    "city": "八代市",
    "city_kana": "ヤツシロシ",
    "town": "清水町",
    "town_kana": "シミズマチ",
    "street": null,
    "office_name": null,
    "office_name_kana": null
  },
  "0854": {
    "zip_code": "8660854",
    "prefecture": "熊本県",
    "prefecture_kana": "クマモトケン",
    "prefecture_code": "43",
    "city": "八代市",
    "city_kana": "ヤツシロシ",
    "town": "新町",
    "town_kana": "シンマチ",
    "street": null,
    "office_name": null,
    "office_name_kana": null
  },
  "0855": {
    "zip_code": "8660855",
    "prefecture": "熊本県",
    "prefecture_kana": "クマモトケン",
    "prefecture_code": "43",
    "city": "八代市",
    "city_kana": "ヤツシロシ",
    "town": "袋町",
    "town_kana": "フクロマチ",
    "street": null,
    "office_name": null,
    "office_name_kana": null
  },
  "0856": {
    "zip_code": "8660856",
    "prefecture": "熊本県",
    "prefecture_kana": "クマモトケン",
    "prefecture_code": "43",
    "city": "八代市",
    "city_kana": "ヤツシロシ",
    "town": "通町",
    "town_kana": "トオリチョウ",
    "street": null,
    "office_name": null,
    "office_name_kana": null
  },
  "0857": {
    "zip_code": "8660857",
    "prefecture": "熊本県",
    "prefecture_kana": "クマモトケン",
    "prefecture_code": "43",
    "city": "八代市",
    "city_kana": "ヤツシロシ",
    "town": "出町",
    "town_kana": "デマチ",
    "street": null,
    "office_name": null,
    "office_name_kana": null
  },
  "0861": {
    "zip_code": "8660861",
    "prefecture": "熊本県",
    "prefecture_kana": "クマモトケン",
    "prefecture_code": "43",
    "city": "八代市",
    "city_kana": "ヤツシロシ",
    "town": "本町",
    "town_kana": "ホンマチ",
    "street": null,
    "office_name": null,
    "office_name_kana": null
  },
  "0862": {
    "zip_code": "8660862",
    "prefecture": "熊本県",
    "prefecture_kana": "クマモトケン",
    "prefecture_code": "43",
    "city": "八代市",
    "city_kana": "ヤツシロシ",
    "town": "松江城町",
    "town_kana": "マツエジョウマチ",
    "street": null,
    "office_name": null,
    "office_name_kana": null
  },
  "0863": {
    "zip_code": "8660863",
    "prefecture": "熊本県",
    "prefecture_kana": "クマモトケン",
    "prefecture_code": "43",
    "city": "八代市",
    "city_kana": "ヤツシロシ",
    "town": "西松江城町",
    "town_kana": "ニシマツエジョウマチ",
    "street": null,
    "office_name": null,
    "office_name_kana": null
  },
  "0864": {
    "zip_code": "8660864",
    "prefecture": "熊本県",
    "prefecture_kana": "クマモトケン",
    "prefecture_code": "43",
    "city": "八代市",
    "city_kana": "ヤツシロシ",
    "town": "塩屋町",
    "town_kana": "シオヤマチ",
    "street": null,
    "office_name": null,
    "office_name_kana": null
  },
  "0865": {
    "zip_code": "8660865",
    "prefecture": "熊本県",
    "prefecture_kana": "クマモトケン",
    "prefecture_code": "43",
    "city": "八代市",
    "city_kana": "ヤツシロシ",
    "town": "北の丸町",
    "town_kana": "キタノマルマチ",
    "street": null,
    "office_name": null,
    "office_name_kana": null
  },
  "0866": {
    "zip_code": "8660866",
    "prefecture": "熊本県",
    "prefecture_kana": "クマモトケン",
    "prefecture_code": "43",
    "city": "八代市",
    "city_kana": "ヤツシロシ",
    "town": "鷹辻町",
    "town_kana": "タカツジマチ",
    "street": null,
    "office_name": null,
    "office_name_kana": null
  },
  "0871": {
    "zip_code": "8660871",
    "prefecture": "熊本県",
    "prefecture_kana": "クマモトケン",
    "prefecture_code": "43",
    "city": "八代市",
    "city_kana": "ヤツシロシ",
    "town": "田中東町",
    "town_kana": "タナカヒガシマチ",
    "street": null,
    "office_name": null,
    "office_name_kana": null
  },
  "0872": {
    "zip_code": "8660872",
    "prefecture": "熊本県",
    "prefecture_kana": "クマモトケン",
    "prefecture_code": "43",
    "city": "八代市",
    "city_kana": "ヤツシロシ",
    "town": "田中町",
    "town_kana": "タナカマチ",
    "street": null,
    "office_name": null,
    "office_name_kana": null
  },
  "0873": {
    "zip_code": "8660873",
    "prefecture": "熊本県",
    "prefecture_kana": "クマモトケン",
    "prefecture_code": "43",
    "city": "八代市",
    "city_kana": "ヤツシロシ",
    "town": "横手町",
    "town_kana": "ヨコテマチ",
    "street": null,
    "office_name": null,
    "office_name_kana": null
  },
  "0874": {
    "zip_code": "8660874",
    "prefecture": "熊本県",
    "prefecture_kana": "クマモトケン",
    "prefecture_code": "43",
    "city": "八代市",
    "city_kana": "ヤツシロシ",
    "town": "横手本町",
    "town_kana": "ヨコテホンマチ",
    "street": null,
    "office_name": null,
    "office_name_kana": null
  },
  "0875": {
    "zip_code": "8660875",
    "prefecture": "熊本県",
    "prefecture_kana": "クマモトケン",
    "prefecture_code": "43",
    "city": "八代市",
    "city_kana": "ヤツシロシ",
    "town": "横手新町",
    "town_kana": "ヨコテシンマチ",
    "street": null,
    "office_name": null,
    "office_name_kana": null
  },
  "0876": {
    "zip_code": "8660876",
    "prefecture": "熊本県",
    "prefecture_kana": "クマモトケン",
    "prefecture_code": "43",
    "city": "八代市",
    "city_kana": "ヤツシロシ",
    "town": "田中西町",
    "town_kana": "タナカニシマチ",
    "street": null,
    "office_name": null,
    "office_name_kana": null
  },
  "0877": {
    "zip_code": "8660877",
    "prefecture": "熊本県",
    "prefecture_kana": "クマモトケン",
    "prefecture_code": "43",
    "city": "八代市",
    "city_kana": "ヤツシロシ",
    "town": "田中北町",
    "town_kana": "タナカキタマチ",
    "street": null,
    "office_name": null,
    "office_name_kana": null
  },
  "0881": {
    "zip_code": "8660881",
    "prefecture": "熊本県",
    "prefecture_kana": "クマモトケン",
    "prefecture_code": "43",
    "city": "八代市",
    "city_kana": "ヤツシロシ",
    "town": "興国町",
    "town_kana": "コウコクマチ",
    "street": null,
    "office_name": null,
    "office_name_kana": null
  },
  "0882": {
    "zip_code": "8660882",
    "prefecture": "熊本県",
    "prefecture_kana": "クマモトケン",
    "prefecture_code": "43",
    "city": "八代市",
    "city_kana": "ヤツシロシ",
    "town": "松江本町",
    "town_kana": "マツエホンマチ",
    "street": null,
    "office_name": null,
    "office_name_kana": null
  },
  "0883": {
    "zip_code": "8660883",
    "prefecture": "熊本県",
    "prefecture_kana": "クマモトケン",
    "prefecture_code": "43",
    "city": "八代市",
    "city_kana": "ヤツシロシ",
    "town": "松江町",
    "town_kana": "マツエマチ",
    "street": null,
    "office_name": null,
    "office_name_kana": null
  },
  "0884": {
    "zip_code": "8660884",
    "prefecture": "熊本県",
    "prefecture_kana": "クマモトケン",
    "prefecture_code": "43",
    "city": "八代市",
    "city_kana": "ヤツシロシ",
    "town": "松崎町",
    "town_kana": "マツザキマチ",
    "street": null,
    "office_name": null,
    "office_name_kana": null
  },
  "0885": {
    "zip_code": "8660885",
    "prefecture": "熊本県",
    "prefecture_kana": "クマモトケン",
    "prefecture_code": "43",
    "city": "八代市",
    "city_kana": "ヤツシロシ",
    "town": "永碇町",
    "town_kana": "ナガイカリマチ",
    "street": null,
    "office_name": null,
    "office_name_kana": null
  },
  "0891": {
    "zip_code": "8660891",
    "prefecture": "熊本県",
    "prefecture_kana": "クマモトケン",
    "prefecture_code": "43",
    "city": "八代市",
    "city_kana": "ヤツシロシ",
    "town": "古閑浜町",
    "town_kana": "コガハママチ",
    "street": null,
    "office_name": null,
    "office_name_kana": null
  },
  "0892": {
    "zip_code": "8660892",
    "prefecture": "熊本県",
    "prefecture_kana": "クマモトケン",
    "prefecture_code": "43",
    "city": "八代市",
    "city_kana": "ヤツシロシ",
    "town": "古閑下町",
    "town_kana": "コガシモマチ",
    "street": null,
    "office_name": null,
    "office_name_kana": null
  },
  "0893": {
    "zip_code": "8660893",
    "prefecture": "熊本県",
    "prefecture_kana": "クマモトケン",
    "prefecture_code": "43",
    "city": "八代市",
    "city_kana": "ヤツシロシ",
    "town": "海士江町",
    "town_kana": "アマガエマチ",
    "street": null,
    "office_name": null,
    "office_name_kana": null
  },
  "0894": {
    "zip_code": "8660894",
    "prefecture": "熊本県",
    "prefecture_kana": "クマモトケン",
    "prefecture_code": "43",
    "city": "八代市",
    "city_kana": "ヤツシロシ",
    "town": "上野町",
    "town_kana": "コウズケマチ",
    "street": null,
    "office_name": null,
    "office_name_kana": null
  },
  "0895": {
    "zip_code": "8660895",
    "prefecture": "熊本県",
    "prefecture_kana": "クマモトケン",
    "prefecture_code": "43",
    "city": "八代市",
    "city_kana": "ヤツシロシ",
    "town": "大村町",
    "town_kana": "オオムラマチ",
    "street": null,
    "office_name": null,
    "office_name_kana": null
  },
  "0896": {
    "zip_code": "8660896",
    "prefecture": "熊本県",
    "prefecture_kana": "クマモトケン",
    "prefecture_code": "43",
    "city": "八代市",
    "city_kana": "ヤツシロシ",
    "town": "日置町",
    "town_kana": "ヒオキマチ",
    "street": null,
    "office_name": null,
    "office_name_kana": null
  },
  "0897": {
    "zip_code": "8660897",
    "prefecture": "熊本県",
    "prefecture_kana": "クマモトケン",
    "prefecture_code": "43",
    "city": "八代市",
    "city_kana": "ヤツシロシ",
    "town": "古閑上町",
    "town_kana": "コガカミマチ",
    "street": null,
    "office_name": null,
    "office_name_kana": null
  },
  "0898": {
    "zip_code": "8660898",
    "prefecture": "熊本県",
    "prefecture_kana": "クマモトケン",
    "prefecture_code": "43",
    "city": "八代市",
    "city_kana": "ヤツシロシ",
    "town": "古閑中町",
    "town_kana": "コガナカマチ",
    "street": null,
    "office_name": null,
    "office_name_kana": null
  },
  "8501": {
    "zip_code": "8668501",
    "prefecture": "熊本県",
    "prefecture_kana": "クマモトケン",
    "prefecture_code": "43",
    "city": "八代市",
    "city_kana": "ヤツシロシ",
    "town": "平山新町",
    "town_kana": "ヒラヤマシンマチ",
    "street": "２６２７",
    "office_name": "八代工業高等専門学校",
    "office_name_kana": "ヤツシロコウギヨウコウトウセンモンガツコウ"
  },
  "8502": {
    "zip_code": "8668502",
    "prefecture": "熊本県",
    "prefecture_kana": "クマモトケン",
    "prefecture_code": "43",
    "city": "八代市",
    "city_kana": "ヤツシロシ",
    "town": "平山新町",
    "town_kana": "ヒラヤマシンマチ",
    "street": "４４３８",
    "office_name": "学校法人　八商学園中九州短期大学",
    "office_name_kana": "ガツコウホウジン ヤツシヨウガクエンナカキユウシユウタンキダイガク"
  },
  "8503": {
    "zip_code": "8668503",
    "prefecture": "熊本県",
    "prefecture_kana": "クマモトケン",
    "prefecture_code": "43",
    "city": "八代市",
    "city_kana": "ヤツシロシ",
    "town": "萩原町",
    "town_kana": "ハギワラマチ",
    "street": "２丁目１１−４１",
    "office_name": "八代社会保険事務所",
    "office_name_kana": "ヤツシロシヤカイホケンジムシヨ"
  },
  "8510": {
    "zip_code": "8668510",
    "prefecture": "熊本県",
    "prefecture_kana": "クマモトケン",
    "prefecture_code": "43",
    "city": "八代市",
    "city_kana": "ヤツシロシ",
    "town": "新浜町",
    "town_kana": "シンハママチ",
    "street": "１−１−２８",
    "office_name": "白石製菓　株式会社",
    "office_name_kana": "シライシセイカカブシキカイシヤ"
  },
  "8511": {
    "zip_code": "8668511",
    "prefecture": "熊本県",
    "prefecture_kana": "クマモトケン",
    "prefecture_code": "43",
    "city": "八代市",
    "city_kana": "ヤツシロシ",
    "town": "新港町",
    "town_kana": "シンミナトマチ",
    "street": "１丁目１０",
    "office_name": "ＹＫＫ　株式会社　九州工場",
    "office_name_kana": "ワイケイケイカブシキカイシヤキユウシユウコウジヨウ"
  },
  "8533": {
    "zip_code": "8668533",
    "prefecture": "熊本県",
    "prefecture_kana": "クマモトケン",
    "prefecture_code": "43",
    "city": "八代市",
    "city_kana": "ヤツシロシ",
    "town": "竹原町",
    "town_kana": "タケハラマチ",
    "street": "１６７０",
    "office_name": "独立行政法人　労働者健康福祉機構　熊本労災病院",
    "office_name_kana": "ドクリツギヨウセイホウジン ロウドウシヤケンコウフクシキコウ クマモトロウサイビヨウイン"
  },
  "8555": {
    "zip_code": "8668555",
    "prefecture": "熊本県",
    "prefecture_kana": "クマモトケン",
    "prefecture_code": "43",
    "city": "八代市",
    "city_kana": "ヤツシロシ",
    "town": "西片町",
    "town_kana": "ニシカタマチ",
    "street": "１６６０",
    "office_name": "熊本県八代事務所",
    "office_name_kana": "クマモトケンヤツシロジムシヨ"
  },
  "8585": {
    "zip_code": "8668585",
    "prefecture": "熊本県",
    "prefecture_kana": "クマモトケン",
    "prefecture_code": "43",
    "city": "八代市",
    "city_kana": "ヤツシロシ",
    "town": "西松江城町",
    "town_kana": "ニシマツエジョウマチ",
    "street": "１−４１",
    "office_name": "熊本地方裁判所八代支部・八代簡易裁判所",
    "office_name_kana": "クマモトチホウサイバンシヨヤツシロシブ・ヤツシロカンイサイバンシヨ"
  },
  "8601": {
    "zip_code": "8668601",
    "prefecture": "熊本県",
    "prefecture_kana": "クマモトケン",
    "prefecture_code": "43",
    "city": "八代市",
    "city_kana": "ヤツシロシ",
    "town": "松江城町",
    "town_kana": "マツエジョウマチ",
    "street": "１−２５（八代郵便局私書箱第１号）",
    "office_name": "八代市役所",
    "office_name_kana": "ヤツシロシヤクシヨ"
  },
  "8602": {
    "zip_code": "8668602",
    "prefecture": "熊本県",
    "prefecture_kana": "クマモトケン",
    "prefecture_code": "43",
    "city": "八代市",
    "city_kana": "ヤツシロシ",
    "town": "十条町",
    "town_kana": "ジュウジョウマチ",
    "street": "１−１（八代郵便局私書箱第１３号）",
    "office_name": "日本製紙　株式会社　八代工場",
    "office_name_kana": "ニツポンセイシカブシキガイシヤヤツシロコウジヨウ"
  },
  "8605": {
    "zip_code": "8668605",
    "prefecture": "熊本県",
    "prefecture_kana": "クマモトケン",
    "prefecture_code": "43",
    "city": "八代市",
    "city_kana": "ヤツシロシ",
    "town": "花園町",
    "town_kana": "ハナゾノチョウ",
    "street": "１６−２（八代郵便局私書箱第２６号）",
    "office_name": "八代税務署",
    "office_name_kana": "ヤツシロゼイムシヨ"
  },
  "8660": {
    "zip_code": "8668660",
    "prefecture": "熊本県",
    "prefecture_kana": "クマモトケン",
    "prefecture_code": "43",
    "city": "八代市",
    "city_kana": "ヤツシロシ",
    "town": "松江城町",
    "town_kana": "マツエジョウマチ",
    "street": "２−２６（八代郵便局私書箱第１９号）",
    "office_name": "健康保険八代総合病院",
    "office_name_kana": "ケンコウホケンヤツシロソウゴウビヨウイン"
  },
  "8686": {
    "zip_code": "8668686",
    "prefecture": "熊本県",
    "prefecture_kana": "クマモトケン",
    "prefecture_code": "43",
    "city": "八代市",
    "city_kana": "ヤツシロシ",
    "town": "興国町",
    "town_kana": "コウコクマチ",
    "street": "１−１（八代郵便局私書箱第２２号）",
    "office_name": "株式会社　興人　八代工場",
    "office_name_kana": "カブシキガイシヤコウジンヤツシロコウジヨウ"
  }
}