{
  "0000": {
    "zip_code": "8670000",
    "prefecture": "熊本県",
    "prefecture_kana": "クマモトケン",
    "prefecture_code": "43",
    "city": "水俣市",
    "city_kana": "ミナマタシ",
    "town": "",
    "town_kana": "",
    "street": null,
    "office_name": null,
    "office_name_kana": null
  },
  "0001": {
    "zip_code": "8670001",
    "prefecture": "熊本県",
    "prefecture_kana": "クマモトケン",
    "prefecture_code": "43",
    "city": "水俣市",
    "city_kana": "ミナマタシ",
    "town": "小津奈木",
    "town_kana": "コツナギ",
    "street": null,
    "office_name": null,
    "office_name_kana": null
  },
  "0002": {
    "zip_code": "8670002",
    "prefecture": "熊本県",
    "prefecture_kana": "クマモトケン",
    "prefecture_code": "43",
    "city": "水俣市",
    "city_kana": "ミナマタシ",
    "town": "初野",
    "town_kana": "ハツノ",
    "street": null,
    "office_name": null,
    "office_name_kana": null
  },
  "0003": {
    "zip_code": "8670003",
    "prefecture": "熊本県",
    "prefecture_kana": "クマモトケン",
    "prefecture_code": "43",
    "city": "水俣市",
    "city_kana": "ミナマタシ",
    "town": "ひばりケ丘",
    "town_kana": "ヒバリガオカ",
    "street": null,
    "office_name": null,
    "office_name_kana": null
  },
  "0004": {
    "zip_code": "8670004",
    "prefecture": "熊本県",
    "prefecture_kana": "クマモトケン",
    "prefecture_code": "43",
    "city": "水俣市",
    "city_kana": "ミナマタシ",
    "town": "わらび野",
    "town_kana": "ワラビノ",
    "street": null,
    "office_name": null,
    "office_name_kana": null
  },
  "0005": {
    "zip_code": "8670005",
    "prefecture": "熊本県",
    "prefecture_kana": "クマモトケン",
    "prefecture_code": "43",
    "city": "水俣市",
    "city_kana": "ミナマタシ",
    "town": "牧ノ内",
    "town_kana": "マキノウチ",
    "street": null,
    "office_name": null,
    "office_name_kana": null
  },
  "0006": {
    "zip_code": "8670006",
    "prefecture": "熊本県",
    "prefecture_kana": "クマモトケン",
    "prefecture_code": "43",
    "city": "水俣市",
    "city_kana": "ミナマタシ",
    "town": "白浜町",
    "town_kana": "シラハマチョウ",
    "street": null,
    "office_name": null,
    "office_name_kana": null
  },
  "0007": {
    "zip_code": "8670007",
    "prefecture": "熊本県",
    "prefecture_kana": "クマモトケン",
    "prefecture_code": "43",
    "city": "水俣市",
    "city_kana": "ミナマタシ",
    "town": "桜ケ丘",
    "town_kana": "サクラガオカ",
    "street": null,
    "office_name": null,
    "office_name_kana": null
  },
  "0008": {
    "zip_code": "8670008",
    "prefecture": "熊本県",
    "prefecture_kana": "クマモトケン",
    "prefecture_code": "43",
    "city": "水俣市",
    "city_kana": "ミナマタシ",
    "town": "浜",
    "town_kana": "ハマ",
    "street": null,
    "office_name": null,
    "office_name_kana": null
  },
  "0009": {
    "zip_code": "8670009",
    "prefecture": "熊本県",
    "prefecture_kana": "クマモトケン",
    "prefecture_code": "43",
    "city": "水俣市",
    "city_kana": "ミナマタシ",
    "town": "大迫",
    "town_kana": "オオサコ",
    "street": null,
    "office_name": null,
    "office_name_kana": null
  },
  "0011": {
    "zip_code": "8670011",
    "prefecture": "熊本県",
    "prefecture_kana": "クマモトケン",
    "prefecture_code": "43",
    "city": "水俣市",
    "city_kana": "ミナマタシ",
    "town": "陣内",
    "town_kana": "ジンナイ",
    "street": null,
    "office_name": null,
    "office_name_kana": null
  },
  "0012": {
    "zip_code": "8670012",
    "prefecture": "熊本県",
    "prefecture_kana": "クマモトケン",
    "prefecture_code": "43",
    "city": "水俣市",
    "city_kana": "ミナマタシ",
    "town": "古城",
    "town_kana": "コジョウ",
    "street": null,
    "office_name": null,
    "office_name_kana": null
  },
  "0013": {
    "zip_code": "8670013",
    "prefecture": "熊本県",
    "prefecture_kana": "クマモトケン",
    "prefecture_code": "43",
    "city": "水俣市",
    "city_kana": "ミナマタシ",
    "town": "長野町",
    "town_kana": "ナガノチョウ",
    "street": null,
    "office_name": null,
    "office_name_kana": null
  },
  "0014": {
    "zip_code": "8670014",
    "prefecture": "熊本県",
    "prefecture_kana": "クマモトケン",
    "prefecture_code": "43",
    "city": "水俣市",
    "city_kana": "ミナマタシ",
    "town": "中鶴",
    "town_kana": "ナカヅル",
    "street": null,
    "office_name": null,
    "office_name_kana": null
  },
  "0015": {
    "zip_code": "8670015",
    "prefecture": "熊本県",
    "prefecture_kana": "クマモトケン",
    "prefecture_code": "43",
    "city": "水俣市",
    "city_kana": "ミナマタシ",
    "town": "深川",
    "town_kana": "フカガワ",
    "street": null,
    "office_name": null,
    "office_name_kana": null
  },
  "0016": [
    {
      "zip_code": "8670016",
      "prefecture": "熊本県",
      "prefecture_kana": "クマモトケン",
      "prefecture_code": "43",
      "city": "水俣市",
      "city_kana": "ミナマタシ",
      "town": "薄原",
      "town_kana": "ススバル",
      "street": null,
      "office_name": null,
      "office_name_kana": null
    },
    {
      "zip_code": "8670016",
      "prefecture": "熊本県",
      "prefecture_kana": "クマモトケン",
      "prefecture_code": "43",
      "city": "水俣市",
      "city_kana": "ミナマタシ",
      "town": "薄原桜野",
      "town_kana": "ススバルサクラノ",
      "street": null,
      "office_name": null,
      "office_name_kana": null
    },
    {
      "zip_code": "8670016",
      "prefecture": "熊本県",
      "prefecture_kana": "クマモトケン",
      "prefecture_code": "43",
      "city": "水俣市",
      "city_kana": "ミナマタシ",
      "town": "薄原桜野上場",
      "town_kana": "ススバルサクラノウワバ",
      "street": null,
      "office_name": null,
      "office_name_kana": null
    },
    {
      "zip_code": "8670016",
      "prefecture": "熊本県",
      "prefecture_kana": "クマモトケン",
      "prefecture_code": "43",
      "city": "水俣市",
      "city_kana": "ミナマタシ",
      "town": "薄原芦刈赤林",
      "town_kana": "ススバルアシカリアカバヤシ",
      "street": null,
      "office_name": null,
      "office_name_kana": null
    }
  ],
  "0021": {
    "zip_code": "8670021",
    "prefecture": "熊本県",
    "prefecture_kana": "クマモトケン",
    "prefecture_code": "43",
    "city": "水俣市",
    "city_kana": "ミナマタシ",
    "town": "平町",
    "town_kana": "ヒラマチ",
    "street": null,
    "office_name": null,
    "office_name_kana": null
  },
  "0022": {
    "zip_code": "8670022",
    "prefecture": "熊本県",
    "prefecture_kana": "クマモトケン",
    "prefecture_code": "43",
    "city": "水俣市",
    "city_kana": "ミナマタシ",
    "town": "江南町",
    "town_kana": "エナンチョウ",
    "street": null,
    "office_name": null,
    "office_name_kana": null
  },
  "0023": {
    "zip_code": "8670023",
    "prefecture": "熊本県",
    "prefecture_kana": "クマモトケン",
    "prefecture_code": "43",
    "city": "水俣市",
    "city_kana": "ミナマタシ",
    "town": "南福寺",
    "town_kana": "ナンプクジ",
    "street": null,
    "office_name": null,
    "office_name_kana": null
  },
  "0024": {
    "zip_code": "8670024",
    "prefecture": "熊本県",
    "prefecture_kana": "クマモトケン",
    "prefecture_code": "43",
    "city": "水俣市",
    "city_kana": "ミナマタシ",
    "town": "長野",
    "town_kana": "ナガノ",
    "street": null,
    "office_name": null,
    "office_name_kana": null
  },
  "0025": {
    "zip_code": "8670025",
    "prefecture": "熊本県",
    "prefecture_kana": "クマモトケン",
    "prefecture_code": "43",
    "city": "水俣市",
    "city_kana": "ミナマタシ",
    "town": "湯出",
    "town_kana": "ユデ",
    "street": null,
    "office_name": null,
    "office_name_kana": null
  },
  "0031": {
    "zip_code": "8670031",
    "prefecture": "熊本県",
    "prefecture_kana": "クマモトケン",
    "prefecture_code": "43",
    "city": "水俣市",
    "city_kana": "ミナマタシ",
    "town": "八ノ窪町",
    "town_kana": "ハチノクボチョウ",
    "street": null,
    "office_name": null,
    "office_name_kana": null
  },
  "0032": {
    "zip_code": "8670032",
    "prefecture": "熊本県",
    "prefecture_kana": "クマモトケン",
    "prefecture_code": "43",
    "city": "水俣市",
    "city_kana": "ミナマタシ",
    "town": "江添",
    "town_kana": "エゾエ",
    "street": null,
    "office_name": null,
    "office_name_kana": null
  },
  "0033": {
    "zip_code": "8670033",
    "prefecture": "熊本県",
    "prefecture_kana": "クマモトケン",
    "prefecture_code": "43",
    "city": "水俣市",
    "city_kana": "ミナマタシ",
    "town": "長崎",
    "town_kana": "ナガサキ",
    "street": null,
    "office_name": null,
    "office_name_kana": null
  },
  "0034": {
    "zip_code": "8670034",
    "prefecture": "熊本県",
    "prefecture_kana": "クマモトケン",
    "prefecture_code": "43",
    "city": "水俣市",
    "city_kana": "ミナマタシ",
    "town": "袋",
    "town_kana": "フクロ",
    "street": null,
    "office_name": null,
    "office_name_kana": null
  },
  "0035": {
    "zip_code": "8670035",
    "prefecture": "熊本県",
    "prefecture_kana": "クマモトケン",
    "prefecture_code": "43",
    "city": "水俣市",
    "city_kana": "ミナマタシ",
    "town": "月浦",
    "town_kana": "ツキノウラ",
    "street": null,
    "office_name": null,
    "office_name_kana": null
  },
  "0036": {
    "zip_code": "8670036",
    "prefecture": "熊本県",
    "prefecture_kana": "クマモトケン",
    "prefecture_code": "43",
    "city": "水俣市",
    "city_kana": "ミナマタシ",
    "town": "浦上町",
    "town_kana": "ウラガミチョウ",
    "street": null,
    "office_name": null,
    "office_name_kana": null
  },
  "0041": {
    "zip_code": "8670041",
    "prefecture": "熊本県",
    "prefecture_kana": "クマモトケン",
    "prefecture_code": "43",
    "city": "水俣市",
    "city_kana": "ミナマタシ",
    "town": "天神町",
    "town_kana": "テンジンチョウ",
    "street": null,
    "office_name": null,
    "office_name_kana": null
  },
  "0042": {
    "zip_code": "8670042",
    "prefecture": "熊本県",
    "prefecture_kana": "クマモトケン",
    "prefecture_code": "43",
    "city": "水俣市",
    "city_kana": "ミナマタシ",
    "town": "大園町",
    "town_kana": "オオゾノチョウ",
    "street": null,
    "office_name": null,
    "office_name_kana": null
  },
  "0043": {
    "zip_code": "8670043",
    "prefecture": "熊本県",
    "prefecture_kana": "クマモトケン",
    "prefecture_code": "43",
    "city": "水俣市",
    "city_kana": "ミナマタシ",
    "town": "大黒町",
    "town_kana": "ダイコクチョウ",
    "street": null,
    "office_name": null,
    "office_name_kana": null
  },
  "0044": {
    "zip_code": "8670044",
    "prefecture": "熊本県",
    "prefecture_kana": "クマモトケン",
    "prefecture_code": "43",
    "city": "水俣市",
    "city_kana": "ミナマタシ",
    "town": "旭町",
    "town_kana": "アサヒマチ",
    "street": null,
    "office_name": null,
    "office_name_kana": null
  },
  "0045": {
    "zip_code": "8670045",
    "prefecture": "熊本県",
    "prefecture_kana": "クマモトケン",
    "prefecture_code": "43",
    "city": "水俣市",
    "city_kana": "ミナマタシ",
    "town": "桜井町",
    "town_kana": "サクライチョウ",
    "street": null,
    "office_name": null,
    "office_name_kana": null
  },
  "0046": {
    "zip_code": "8670046",
    "prefecture": "熊本県",
    "prefecture_kana": "クマモトケン",
    "prefecture_code": "43",
    "city": "水俣市",
    "city_kana": "ミナマタシ",
    "town": "山手町",
    "town_kana": "ヤマテチョウ",
    "street": null,
    "office_name": null,
    "office_name_kana": null
  },
  "0047": {
    "zip_code": "8670047",
    "prefecture": "熊本県",
    "prefecture_kana": "クマモトケン",
    "prefecture_code": "43",
    "city": "水俣市",
    "city_kana": "ミナマタシ",
    "town": "緑ケ丘",
    "town_kana": "ミドリガオカ",
    "street": null,
    "office_name": null,
    "office_name_kana": null
  },
  "0048": {
    "zip_code": "8670048",
    "prefecture": "熊本県",
    "prefecture_kana": "クマモトケン",
    "prefecture_code": "43",
    "city": "水俣市",
    "city_kana": "ミナマタシ",
    "town": "多々良町",
    "town_kana": "タタラチョウ",
    "street": null,
    "office_name": null,
    "office_name_kana": null
  },
  "0049": {
    "zip_code": "8670049",
    "prefecture": "熊本県",
    "prefecture_kana": "クマモトケン",
    "prefecture_code": "43",
    "city": "水俣市",
    "city_kana": "ミナマタシ",
    "town": "百間町",
    "town_kana": "ヒャクケンチョウ",
    "street": null,
    "office_name": null,
    "office_name_kana": null
  },
  "0051": {
    "zip_code": "8670051",
    "prefecture": "熊本県",
    "prefecture_kana": "クマモトケン",
    "prefecture_code": "43",
    "city": "水俣市",
    "city_kana": "ミナマタシ",
    "town": "昭和町",
    "town_kana": "ショウワマチ",
    "street": null,
    "office_name": null,
    "office_name_kana": null
  },
  "0052": {
    "zip_code": "8670052",
    "prefecture": "熊本県",
    "prefecture_kana": "クマモトケン",
    "prefecture_code": "43",
    "city": "水俣市",
    "city_kana": "ミナマタシ",
    "town": "港町",
    "town_kana": "ミナトマチ",
    "street": null,
    "office_name": null,
    "office_name_kana": null
  },
  "0053": {
    "zip_code": "8670053",
    "prefecture": "熊本県",
    "prefecture_kana": "クマモトケン",
    "prefecture_code": "43",
    "city": "水俣市",
    "city_kana": "ミナマタシ",
    "town": "野口町",
    "town_kana": "ノグチチョウ",
    "street": null,
    "office_name": null,
    "office_name_kana": null
  },
  "0054": {
    "zip_code": "8670054",
    "prefecture": "熊本県",
    "prefecture_kana": "クマモトケン",
    "prefecture_code": "43",
    "city": "水俣市",
    "city_kana": "ミナマタシ",
    "town": "汐見町",
    "town_kana": "シオミチョウ",
    "street": null,
    "office_name": null,
    "office_name_kana": null
  },
  "0055": {
    "zip_code": "8670055",
    "prefecture": "熊本県",
    "prefecture_kana": "クマモトケン",
    "prefecture_code": "43",
    "city": "水俣市",
    "city_kana": "ミナマタシ",
    "town": "明神町",
    "town_kana": "ミョウジンチョウ",
    "street": null,
    "office_name": null,
    "office_name_kana": null
  },
  "0056": {
    "zip_code": "8670056",
    "prefecture": "熊本県",
    "prefecture_kana": "クマモトケン",
    "prefecture_code": "43",
    "city": "水俣市",
    "city_kana": "ミナマタシ",
    "town": "梅戸町",
    "town_kana": "ウメドチョウ",
    "street": null,
    "office_name": null,
    "office_name_kana": null
  },
  "0057": {
    "zip_code": "8670057",
    "prefecture": "熊本県",
    "prefecture_kana": "クマモトケン",
    "prefecture_code": "43",
    "city": "水俣市",
    "city_kana": "ミナマタシ",
    "town": "祇園町",
    "town_kana": "ギオンチョウ",
    "street": null,
    "office_name": null,
    "office_name_kana": null
  },
  "0058": {
    "zip_code": "8670058",
    "prefecture": "熊本県",
    "prefecture_kana": "クマモトケン",
    "prefecture_code": "43",
    "city": "水俣市",
    "city_kana": "ミナマタシ",
    "town": "丸島町",
    "town_kana": "マルシマチョウ",
    "street": null,
    "office_name": null,
    "office_name_kana": null
  },
  "0059": {
    "zip_code": "8670059",
    "prefecture": "熊本県",
    "prefecture_kana": "クマモトケン",
    "prefecture_code": "43",
    "city": "水俣市",
    "city_kana": "ミナマタシ",
    "town": "栄町",
    "town_kana": "サカエマチ",
    "street": null,
    "office_name": null,
    "office_name_kana": null
  },
  "0061": {
    "zip_code": "8670061",
    "prefecture": "熊本県",
    "prefecture_kana": "クマモトケン",
    "prefecture_code": "43",
    "city": "水俣市",
    "city_kana": "ミナマタシ",
    "town": "八幡町",
    "town_kana": "ハチマンチョウ",
    "street": null,
    "office_name": null,
    "office_name_kana": null
  },
  "0062": {
    "zip_code": "8670062",
    "prefecture": "熊本県",
    "prefecture_kana": "クマモトケン",
    "prefecture_code": "43",
    "city": "水俣市",
    "city_kana": "ミナマタシ",
    "town": "築地",
    "town_kana": "ツキジ",
    "street": null,
    "office_name": null,
    "office_name_kana": null
  },
  "0063": {
    "zip_code": "8670063",
    "prefecture": "熊本県",
    "prefecture_kana": "クマモトケン",
    "prefecture_code": "43",
    "city": "水俣市",
    "city_kana": "ミナマタシ",
    "town": "洗切町",
    "town_kana": "アライキリマチ",
    "street": null,
    "office_name": null,
    "office_name_kana": null
  },
  "0064": {
    "zip_code": "8670064",
    "prefecture": "熊本県",
    "prefecture_kana": "クマモトケン",
    "prefecture_code": "43",
    "city": "水俣市",
    "city_kana": "ミナマタシ",
    "town": "幸町",
    "town_kana": "サイワイマチ",
    "street": null,
    "office_name": null,
    "office_name_kana": null
  },
  "0065": {
    "zip_code": "8670065",
    "prefecture": "熊本県",
    "prefecture_kana": "クマモトケン",
    "prefecture_code": "43",
    "city": "水俣市",
    "city_kana": "ミナマタシ",
    "town": "浜町",
    "town_kana": "ハママチ",
    "street": null,
    "office_name": null,
    "office_name_kana": null
  },
  "0066": {
    "zip_code": "8670066",
    "prefecture": "熊本県",
    "prefecture_kana": "クマモトケン",
    "prefecture_code": "43",
    "city": "水俣市",
    "city_kana": "ミナマタシ",
    "town": "古賀町",
    "town_kana": "コガマチ",
    "street": null,
    "office_name": null,
    "office_name_kana": null
  },
  "0067": {
    "zip_code": "8670067",
    "prefecture": "熊本県",
    "prefecture_kana": "クマモトケン",
    "prefecture_code": "43",
    "city": "水俣市",
    "city_kana": "ミナマタシ",
    "town": "塩浜町",
    "town_kana": "シオハマチョウ",
    "street": null,
    "office_name": null,
    "office_name_kana": null
  },
  "0068": {
    "zip_code": "8670068",
    "prefecture": "熊本県",
    "prefecture_kana": "クマモトケン",
    "prefecture_code": "43",
    "city": "水俣市",
    "city_kana": "ミナマタシ",
    "town": "浜松町",
    "town_kana": "ハママツチョウ",
    "street": null,
    "office_name": null,
    "office_name_kana": null
  },
  "0116": {
    "zip_code": "8670116",
    "prefecture": "熊本県",
    "prefecture_kana": "クマモトケン",
    "prefecture_code": "43",
    "city": "水俣市",
    "city_kana": "ミナマタシ",
    "town": "薄原",
    "town_kana": "ススバル",
    "street": null,
    "office_name": null,
    "office_name_kana": null
  },
  "0171": {
    "zip_code": "8670171",
    "prefecture": "熊本県",
    "prefecture_kana": "クマモトケン",
    "prefecture_code": "43",
    "city": "水俣市",
    "city_kana": "ミナマタシ",
    "town": "宝川内",
    "town_kana": "ホウガワチ",
    "street": null,
    "office_name": null,
    "office_name_kana": null
  },
  "0172": {
    "zip_code": "8670172",
    "prefecture": "熊本県",
    "prefecture_kana": "クマモトケン",
    "prefecture_code": "43",
    "city": "水俣市",
    "city_kana": "ミナマタシ",
    "town": "市渡瀬",
    "town_kana": "イチワタセ",
    "street": null,
    "office_name": null,
    "office_name_kana": null
  },
  "0173": {
    "zip_code": "8670173",
    "prefecture": "熊本県",
    "prefecture_kana": "クマモトケン",
    "prefecture_code": "43",
    "city": "水俣市",
    "city_kana": "ミナマタシ",
    "town": "葛渡",
    "town_kana": "クズワタリ",
    "street": null,
    "office_name": null,
    "office_name_kana": null
  },
  "0174": {
    "zip_code": "8670174",
    "prefecture": "熊本県",
    "prefecture_kana": "クマモトケン",
    "prefecture_code": "43",
    "city": "水俣市",
    "city_kana": "ミナマタシ",
    "town": "石坂川",
    "town_kana": "イシザカガワ",
    "street": null,
    "office_name": null,
    "office_name_kana": null
  },
  "0281": {
    "zip_code": "8670281",
    "prefecture": "熊本県",
    "prefecture_kana": "クマモトケン",
    "prefecture_code": "43",
    "city": "水俣市",
    "city_kana": "ミナマタシ",
    "town": "久木野",
    "town_kana": "クギノ",
    "street": null,
    "office_name": null,
    "office_name_kana": null
  },
  "0282": {
    "zip_code": "8670282",
    "prefecture": "熊本県",
    "prefecture_kana": "クマモトケン",
    "prefecture_code": "43",
    "city": "水俣市",
    "city_kana": "ミナマタシ",
    "town": "古里",
    "town_kana": "フルサト",
    "street": null,
    "office_name": null,
    "office_name_kana": null
  },
  "0283": {
    "zip_code": "8670283",
    "prefecture": "熊本県",
    "prefecture_kana": "クマモトケン",
    "prefecture_code": "43",
    "city": "水俣市",
    "city_kana": "ミナマタシ",
    "town": "大川",
    "town_kana": "オオカワ",
    "street": null,
    "office_name": null,
    "office_name_kana": null
  },
  "0284": {
    "zip_code": "8670284",
    "prefecture": "熊本県",
    "prefecture_kana": "クマモトケン",
    "prefecture_code": "43",
    "city": "水俣市",
    "city_kana": "ミナマタシ",
    "town": "越小場",
    "town_kana": "コシコバ",
    "street": null,
    "office_name": null,
    "office_name_kana": null
  },
  "8501": {
    "zip_code": "8678501",
    "prefecture": "熊本県",
    "prefecture_kana": "クマモトケン",
    "prefecture_code": "43",
    "city": "水俣市",
    "city_kana": "ミナマタシ",
    "town": "野口町",
    "town_kana": "ノグチチョウ",
    "street": "１−１",
    "office_name": "チッソ　株式会社　水俣本部",
    "office_name_kana": "チツソ カブシキガイシヤ ミナマタホンブ"
  },
  "8555": {
    "zip_code": "8678555",
    "prefecture": "熊本県",
    "prefecture_kana": "クマモトケン",
    "prefecture_code": "43",
    "city": "水俣市",
    "city_kana": "ミナマタシ",
    "town": "陣内",
    "town_kana": "ジンナイ",
    "street": "１丁目１−１",
    "office_name": "水俣市役所",
    "office_name_kana": "ミナマタシヤクシヨ"
  },
  "8585": {
    "zip_code": "8678585",
    "prefecture": "熊本県",
    "prefecture_kana": "クマモトケン",
    "prefecture_code": "43",
    "city": "水俣市",
    "city_kana": "ミナマタシ",
    "town": "古賀町",
    "town_kana": "コガマチ",
    "street": "１丁目１−１",
    "office_name": "生活協同組合　水光社",
    "office_name_kana": "セイカツキヨウドウクミアイ スイコウシヤ"
  }
}