{
  "0100": {
    "zip_code": "8690100",
    "prefecture": "熊本県",
    "prefecture_kana": "クマモトケン",
    "prefecture_code": 43,
    "city": "玉名郡長洲町",
    "city_kana": "タマナグンナガスマチ",
    "town": "",
    "town_kana": "",
    "street": null,
    "office_name": null,
    "office_name_kana": null
  },
  "0101": {
    "zip_code": "8690101",
    "prefecture": "熊本県",
    "prefecture_kana": "クマモトケン",
    "prefecture_code": 43,
    "city": "玉名郡長洲町",
    "city_kana": "タマナグンナガスマチ",
    "town": "宮野",
    "town_kana": "ミヤノ",
    "street": null,
    "office_name": null,
    "office_name_kana": null
  },
  "0102": {
    "zip_code": "8690102",
    "prefecture": "熊本県",
    "prefecture_kana": "クマモトケン",
    "prefecture_code": 43,
    "city": "玉名郡長洲町",
    "city_kana": "タマナグンナガスマチ",
    "town": "折崎",
    "town_kana": "オリサキ",
    "street": null,
    "office_name": null,
    "office_name_kana": null
  },
  "0103": {
    "zip_code": "8690103",
    "prefecture": "熊本県",
    "prefecture_kana": "クマモトケン",
    "prefecture_code": 43,
    "city": "玉名郡長洲町",
    "city_kana": "タマナグンナガスマチ",
    "town": "腹赤",
    "town_kana": "ハラカ",
    "street": null,
    "office_name": null,
    "office_name_kana": null
  },
  "0104": {
    "zip_code": "8690104",
    "prefecture": "熊本県",
    "prefecture_kana": "クマモトケン",
    "prefecture_code": 43,
    "city": "玉名郡長洲町",
    "city_kana": "タマナグンナガスマチ",
    "town": "上沖洲",
    "town_kana": "カミオキノス",
    "street": null,
    "office_name": null,
    "office_name_kana": null
  },
  "0105": {
    "zip_code": "8690105",
    "prefecture": "熊本県",
    "prefecture_kana": "クマモトケン",
    "prefecture_code": 43,
    "city": "玉名郡長洲町",
    "city_kana": "タマナグンナガスマチ",
    "town": "清源寺",
    "town_kana": "セイゲンジ",
    "street": null,
    "office_name": null,
    "office_name_kana": null
  },
  "0106": {
    "zip_code": "8690106",
    "prefecture": "熊本県",
    "prefecture_kana": "クマモトケン",
    "prefecture_code": 43,
    "city": "玉名郡長洲町",
    "city_kana": "タマナグンナガスマチ",
    "town": "永塩",
    "town_kana": "ナガシオ",
    "street": null,
    "office_name": null,
    "office_name_kana": null
  },
  "0111": {
    "zip_code": "8690111",
    "prefecture": "熊本県",
    "prefecture_kana": "クマモトケン",
    "prefecture_code": 43,
    "city": "玉名郡長洲町",
    "city_kana": "タマナグンナガスマチ",
    "town": "名石浜",
    "town_kana": "メイシハマ",
    "street": null,
    "office_name": null,
    "office_name_kana": null
  },
  "0112": {
    "zip_code": "8690112",
    "prefecture": "熊本県",
    "prefecture_kana": "クマモトケン",
    "prefecture_code": 43,
    "city": "玉名郡長洲町",
    "city_kana": "タマナグンナガスマチ",
    "town": "姫ケ浦",
    "town_kana": "ヒメガウラ",
    "street": null,
    "office_name": null,
    "office_name_kana": null
  },
  "0113": {
    "zip_code": "8690113",
    "prefecture": "熊本県",
    "prefecture_kana": "クマモトケン",
    "prefecture_code": 43,
    "city": "玉名郡長洲町",
    "city_kana": "タマナグンナガスマチ",
    "town": "有明",
    "town_kana": "アリアケ",
    "street": null,
    "office_name": null,
    "office_name_kana": null
  },
  "0121": {
    "zip_code": "8690121",
    "prefecture": "熊本県",
    "prefecture_kana": "クマモトケン",
    "prefecture_code": 43,
    "city": "玉名郡長洲町",
    "city_kana": "タマナグンナガスマチ",
    "town": "高浜",
    "town_kana": "タカハマ",
    "street": null,
    "office_name": null,
    "office_name_kana": null
  },
  "0122": {
    "zip_code": "8690122",
    "prefecture": "熊本県",
    "prefecture_kana": "クマモトケン",
    "prefecture_code": 43,
    "city": "玉名郡長洲町",
    "city_kana": "タマナグンナガスマチ",
    "town": "梅田",
    "town_kana": "ウメダ",
    "street": null,
    "office_name": null,
    "office_name_kana": null
  },
  "0123": {
    "zip_code": "8690123",
    "prefecture": "熊本県",
    "prefecture_kana": "クマモトケン",
    "prefecture_code": 43,
    "city": "玉名郡長洲町",
    "city_kana": "タマナグンナガスマチ",
    "town": "長洲",
    "town_kana": "ナガス",
    "street": null,
    "office_name": null,
    "office_name_kana": null
  },
  "0192": {
    "zip_code": "8690192",
    "prefecture": "熊本県",
    "prefecture_kana": null,
    "prefecture_code": null,
    "city": "玉名郡長洲町",
    "city_kana": null,
    "town": "大字長洲",
    "town_kana": null,
    "street": "２１６８",
    "office_name": "九州不二サッシ　株式会社",
    "office_name_kana": "キユウシユウフジサツシ カブシキガイシヤ"
  },
  "0193": {
    "zip_code": "8690193",
    "prefecture": "熊本県",
    "prefecture_kana": null,
    "prefecture_code": null,
    "city": "玉名郡長洲町",
    "city_kana": null,
    "town": "大字有明",
    "town_kana": null,
    "street": "１",
    "office_name": "日立造船ディーゼルアンドエンジニアリング　株式会社",
    "office_name_kana": "ヒタチゾウセンデイ-ゼルアンドエンジニアリング カブシキカイシヤ"
  },
  "0198": {
    "zip_code": "8690198",
    "prefecture": "熊本県",
    "prefecture_kana": null,
    "prefecture_code": null,
    "city": "玉名郡長洲町",
    "city_kana": null,
    "town": "大字長洲",
    "town_kana": null,
    "street": "２７６６",
    "office_name": "長洲町役場",
    "office_name_kana": "ナガスマチヤクバ"
  },
  "0201": {
    "zip_code": "8690201",
    "prefecture": "熊本県",
    "prefecture_kana": "クマモトケン",
    "prefecture_code": 43,
    "city": "玉名市",
    "city_kana": "タマナシ",
    "town": "岱明町山下",
    "town_kana": "タイメイマチヤマシタ",
    "street": null,
    "office_name": null,
    "office_name_kana": null
  },
  "0202": {
    "zip_code": "8690202",
    "prefecture": "熊本県",
    "prefecture_kana": "クマモトケン",
    "prefecture_code": 43,
    "city": "玉名市",
    "city_kana": "タマナシ",
    "town": "岱明町高道",
    "town_kana": "タイメイマチタカミチ",
    "street": null,
    "office_name": null,
    "office_name_kana": null
  },
  "0203": {
    "zip_code": "8690203",
    "prefecture": "熊本県",
    "prefecture_kana": "クマモトケン",
    "prefecture_code": 43,
    "city": "玉名市",
    "city_kana": "タマナシ",
    "town": "岱明町浜田",
    "town_kana": "タイメイマチハマダ",
    "street": null,
    "office_name": null,
    "office_name_kana": null
  },
  "0211": {
    "zip_code": "8690211",
    "prefecture": "熊本県",
    "prefecture_kana": "クマモトケン",
    "prefecture_code": 43,
    "city": "玉名市",
    "city_kana": "タマナシ",
    "town": "岱明町鍋",
    "town_kana": "タイメイマチナベ",
    "street": null,
    "office_name": null,
    "office_name_kana": null
  },
  "0212": {
    "zip_code": "8690212",
    "prefecture": "熊本県",
    "prefecture_kana": "クマモトケン",
    "prefecture_code": 43,
    "city": "玉名市",
    "city_kana": "タマナシ",
    "town": "岱明町下沖洲",
    "town_kana": "タイメイマチシモオキノス",
    "street": null,
    "office_name": null,
    "office_name_kana": null
  },
  "0213": {
    "zip_code": "8690213",
    "prefecture": "熊本県",
    "prefecture_kana": "クマモトケン",
    "prefecture_code": 43,
    "city": "玉名市",
    "city_kana": "タマナシ",
    "town": "岱明町扇崎",
    "town_kana": "タイメイマチオウギザキ",
    "street": null,
    "office_name": null,
    "office_name_kana": null
  },
  "0221": {
    "zip_code": "8690221",
    "prefecture": "熊本県",
    "prefecture_kana": "クマモトケン",
    "prefecture_code": 43,
    "city": "玉名市",
    "city_kana": "タマナシ",
    "town": "岱明町下前原",
    "town_kana": "タイメイマチシモマエハラ",
    "street": null,
    "office_name": null,
    "office_name_kana": null
  },
  "0222": {
    "zip_code": "8690222",
    "prefecture": "熊本県",
    "prefecture_kana": "クマモトケン",
    "prefecture_code": 43,
    "city": "玉名市",
    "city_kana": "タマナシ",
    "town": "岱明町野口",
    "town_kana": "タイメイマチノグチ",
    "street": null,
    "office_name": null,
    "office_name_kana": null
  },
  "0223": {
    "zip_code": "8690223",
    "prefecture": "熊本県",
    "prefecture_kana": "クマモトケン",
    "prefecture_code": 43,
    "city": "玉名市",
    "city_kana": "タマナシ",
    "town": "岱明町中土",
    "town_kana": "タイメイマチナカド",
    "street": null,
    "office_name": null,
    "office_name_kana": null
  },
  "0224": {
    "zip_code": "8690224",
    "prefecture": "熊本県",
    "prefecture_kana": "クマモトケン",
    "prefecture_code": 43,
    "city": "玉名市",
    "city_kana": "タマナシ",
    "town": "岱明町大野下",
    "town_kana": "タイメイマチオオノシモ",
    "street": null,
    "office_name": null,
    "office_name_kana": null
  },
  "0231": {
    "zip_code": "8690231",
    "prefecture": "熊本県",
    "prefecture_kana": "クマモトケン",
    "prefecture_code": 43,
    "city": "玉名市",
    "city_kana": "タマナシ",
    "town": "岱明町庄山",
    "town_kana": "タイメイマチショウヤマ",
    "street": null,
    "office_name": null,
    "office_name_kana": null
  },
  "0232": {
    "zip_code": "8690232",
    "prefecture": "熊本県",
    "prefecture_kana": "クマモトケン",
    "prefecture_code": 43,
    "city": "玉名市",
    "city_kana": "タマナシ",
    "town": "岱明町上",
    "town_kana": "タイメイマチジョウ",
    "street": null,
    "office_name": null,
    "office_name_kana": null
  },
  "0233": {
    "zip_code": "8690233",
    "prefecture": "熊本県",
    "prefecture_kana": "クマモトケン",
    "prefecture_code": 43,
    "city": "玉名市",
    "city_kana": "タマナシ",
    "town": "岱明町古閑",
    "town_kana": "タイメイマチコガ",
    "street": null,
    "office_name": null,
    "office_name_kana": null
  },
  "0234": {
    "zip_code": "8690234",
    "prefecture": "熊本県",
    "prefecture_kana": "クマモトケン",
    "prefecture_code": 43,
    "city": "玉名市",
    "city_kana": "タマナシ",
    "town": "岱明町三崎",
    "town_kana": "タイメイマチミサキ",
    "street": null,
    "office_name": null,
    "office_name_kana": null
  },
  "0235": [
    {
      "zip_code": "8690235",
      "prefecture": "熊本県",
      "prefecture_kana": "クマモトケン",
      "prefecture_code": 43,
      "city": "玉名市",
      "city_kana": "タマナシ",
      "town": "岱明町古閑",
      "town_kana": "タイメイマチコガ",
      "street": null,
      "office_name": null,
      "office_name_kana": null
    },
    {
      "zip_code": "8690235",
      "prefecture": "熊本県",
      "prefecture_kana": "クマモトケン",
      "prefecture_code": 43,
      "city": "玉名市",
      "city_kana": "タマナシ",
      "town": "岱明町古閑雲雀丘",
      "town_kana": "タイメイマチコガヒバリガオカ",
      "street": null,
      "office_name": null,
      "office_name_kana": null
    },
    {
      "zip_code": "8690235",
      "prefecture": "熊本県",
      "prefecture_kana": "クマモトケン",
      "prefecture_code": 43,
      "city": "玉名市",
      "city_kana": "タマナシ",
      "town": "岱明町西照寺",
      "town_kana": "タイメイマチサイショウジ",
      "street": null,
      "office_name": null,
      "office_name_kana": null
    },
    {
      "zip_code": "8690235",
      "prefecture": "熊本県",
      "prefecture_kana": "クマモトケン",
      "prefecture_code": 43,
      "city": "玉名市",
      "city_kana": "タマナシ",
      "town": "岱明町西照寺雲雀丘",
      "town_kana": "タイメイマチサイショウジヒバリガオカ",
      "street": null,
      "office_name": null,
      "office_name_kana": null
    },
    {
      "zip_code": "8690235",
      "prefecture": "熊本県",
      "prefecture_kana": "クマモトケン",
      "prefecture_code": 43,
      "city": "玉名市",
      "city_kana": "タマナシ",
      "town": "岱明町上",
      "town_kana": "タイメイマチジョウ",
      "street": null,
      "office_name": null,
      "office_name_kana": null
    },
    {
      "zip_code": "8690235",
      "prefecture": "熊本県",
      "prefecture_kana": "クマモトケン",
      "prefecture_code": 43,
      "city": "玉名市",
      "city_kana": "タマナシ",
      "town": "岱明町上雲雀丘",
      "town_kana": "タイメイマチジョウヒバリガオカ",
      "street": null,
      "office_name": null,
      "office_name_kana": null
    }
  ],
  "0236": {
    "zip_code": "8690236",
    "prefecture": "熊本県",
    "prefecture_kana": "クマモトケン",
    "prefecture_code": 43,
    "city": "玉名市",
    "city_kana": "タマナシ",
    "town": "岱明町西照寺",
    "town_kana": "タイメイマチサイショウジ",
    "street": null,
    "office_name": null,
    "office_name_kana": null
  },
  "0238": {
    "zip_code": "8690238",
    "prefecture": "熊本県",
    "prefecture_kana": "クマモトケン",
    "prefecture_code": 43,
    "city": "玉名市",
    "city_kana": "タマナシ",
    "town": "岱明町開田",
    "town_kana": "タイメイマチヒラキダ",
    "street": null,
    "office_name": null,
    "office_name_kana": null
  },
  "0292": {
    "zip_code": "8690292",
    "prefecture": "熊本県",
    "prefecture_kana": "クマモトケン",
    "prefecture_code": 43,
    "city": "玉名市",
    "city_kana": "タマナシ",
    "town": "岱明町野口",
    "town_kana": "タイメイマチノグチ",
    "street": "２１２９",
    "office_name": "岱明町総合支所",
    "office_name_kana": "タイメイマチソウゴウシシヨ"
  },
  "0293": {
    "zip_code": "8690293",
    "prefecture": "熊本県",
    "prefecture_kana": "クマモトケン",
    "prefecture_code": 43,
    "city": "玉名市",
    "city_kana": "タマナシ",
    "town": "岱明町野口",
    "town_kana": "タイメイマチノグチ",
    "street": "１０４６",
    "office_name": "専修大学玉名高等学校",
    "office_name_kana": "センシユウダイガクタマナコウトウガツコウ"
  },
  "0295": {
    "zip_code": "8690295",
    "prefecture": "熊本県",
    "prefecture_kana": "クマモトケン",
    "prefecture_code": 43,
    "city": "玉名市",
    "city_kana": "タマナシ",
    "town": "岱明町下前原",
    "town_kana": "タイメイマチシモマエハラ",
    "street": "３６８",
    "office_name": "熊本県立　玉名工業高等学校",
    "office_name_kana": "クマモトケンリツ タマナコウギヨウコウトウガツコウ"
  },
  "0300": {
    "zip_code": "8690300",
    "prefecture": "熊本県",
    "prefecture_kana": "クマモトケン",
    "prefecture_code": 43,
    "city": "玉名郡玉東町",
    "city_kana": "タマナグンギョクトウマチ",
    "town": "",
    "town_kana": "",
    "street": null,
    "office_name": null,
    "office_name_kana": null
  },
  "0301": {
    "zip_code": "8690301",
    "prefecture": "熊本県",
    "prefecture_kana": "クマモトケン",
    "prefecture_code": 43,
    "city": "玉名郡玉東町",
    "city_kana": "タマナグンギョクトウマチ",
    "town": "稲佐",
    "town_kana": "イナサ",
    "street": null,
    "office_name": null,
    "office_name_kana": null
  },
  "0302": {
    "zip_code": "8690302",
    "prefecture": "熊本県",
    "prefecture_kana": "クマモトケン",
    "prefecture_code": 43,
    "city": "玉名郡玉東町",
    "city_kana": "タマナグンギョクトウマチ",
    "town": "山口",
    "town_kana": "ヤマグチ",
    "street": null,
    "office_name": null,
    "office_name_kana": null
  },
  "0303": {
    "zip_code": "8690303",
    "prefecture": "熊本県",
    "prefecture_kana": "クマモトケン",
    "prefecture_code": 43,
    "city": "玉名郡玉東町",
    "city_kana": "タマナグンギョクトウマチ",
    "town": "木葉",
    "town_kana": "コノハ",
    "street": null,
    "office_name": null,
    "office_name_kana": null
  },
  "0304": {
    "zip_code": "8690304",
    "prefecture": "熊本県",
    "prefecture_kana": "クマモトケン",
    "prefecture_code": 43,
    "city": "玉名郡玉東町",
    "city_kana": "タマナグンギョクトウマチ",
    "town": "浦田",
    "town_kana": "ウラタ",
    "street": null,
    "office_name": null,
    "office_name_kana": null
  },
  "0305": {
    "zip_code": "8690305",
    "prefecture": "熊本県",
    "prefecture_kana": "クマモトケン",
    "prefecture_code": 43,
    "city": "玉名郡玉東町",
    "city_kana": "タマナグンギョクトウマチ",
    "town": "上木葉",
    "town_kana": "カミコノハ",
    "street": null,
    "office_name": null,
    "office_name_kana": null
  },
  "0311": {
    "zip_code": "8690311",
    "prefecture": "熊本県",
    "prefecture_kana": "クマモトケン",
    "prefecture_code": 43,
    "city": "玉名郡玉東町",
    "city_kana": "タマナグンギョクトウマチ",
    "town": "二俣",
    "town_kana": "フタマタ",
    "street": null,
    "office_name": null,
    "office_name_kana": null
  },
  "0312": {
    "zip_code": "8690312",
    "prefecture": "熊本県",
    "prefecture_kana": "クマモトケン",
    "prefecture_code": 43,
    "city": "玉名郡玉東町",
    "city_kana": "タマナグンギョクトウマチ",
    "town": "白木",
    "town_kana": "シラキ",
    "street": null,
    "office_name": null,
    "office_name_kana": null
  },
  "0313": {
    "zip_code": "8690313",
    "prefecture": "熊本県",
    "prefecture_kana": "クマモトケン",
    "prefecture_code": 43,
    "city": "玉名郡玉東町",
    "city_kana": "タマナグンギョクトウマチ",
    "town": "上白木",
    "town_kana": "カミシラキ",
    "street": null,
    "office_name": null,
    "office_name_kana": null
  },
  "0321": {
    "zip_code": "8690321",
    "prefecture": "熊本県",
    "prefecture_kana": "クマモトケン",
    "prefecture_code": 43,
    "city": "玉名郡玉東町",
    "city_kana": "タマナグンギョクトウマチ",
    "town": "西安寺",
    "town_kana": "サイアンジ",
    "street": null,
    "office_name": null,
    "office_name_kana": null
  },
  "0322": {
    "zip_code": "8690322",
    "prefecture": "熊本県",
    "prefecture_kana": "クマモトケン",
    "prefecture_code": 43,
    "city": "玉名郡玉東町",
    "city_kana": "タマナグンギョクトウマチ",
    "town": "原倉",
    "town_kana": "ハラクラ",
    "street": null,
    "office_name": null,
    "office_name_kana": null
  },
  "0400": {
    "zip_code": "8690400",
    "prefecture": "熊本県",
    "prefecture_kana": "クマモトケン",
    "prefecture_code": 43,
    "city": "宇土市",
    "city_kana": "ウトシ",
    "town": "",
    "town_kana": "",
    "street": null,
    "office_name": null,
    "office_name_kana": null
  },
  "0401": {
    "zip_code": "8690401",
    "prefecture": "熊本県",
    "prefecture_kana": "クマモトケン",
    "prefecture_code": 43,
    "city": "宇土市",
    "city_kana": "ウトシ",
    "town": "住吉町",
    "town_kana": "スミヨシマチ",
    "street": null,
    "office_name": null,
    "office_name_kana": null
  },
  "0402": {
    "zip_code": "8690402",
    "prefecture": "熊本県",
    "prefecture_kana": "クマモトケン",
    "prefecture_code": 43,
    "city": "宇土市",
    "city_kana": "ウトシ",
    "town": "笹原町",
    "town_kana": "ササワラマチ",
    "street": null,
    "office_name": null,
    "office_name_kana": null
  },
  "0403": {
    "zip_code": "8690403",
    "prefecture": "熊本県",
    "prefecture_kana": "クマモトケン",
    "prefecture_code": 43,
    "city": "宇土市",
    "city_kana": "ウトシ",
    "town": "新開町",
    "town_kana": "シンガイマチ",
    "street": null,
    "office_name": null,
    "office_name_kana": null
  },
  "0404": {
    "zip_code": "8690404",
    "prefecture": "熊本県",
    "prefecture_kana": "クマモトケン",
    "prefecture_code": 43,
    "city": "宇土市",
    "city_kana": "ウトシ",
    "town": "走潟町",
    "town_kana": "ハシリガタマチ",
    "street": null,
    "office_name": null,
    "office_name_kana": null
  },
  "0405": {
    "zip_code": "8690405",
    "prefecture": "熊本県",
    "prefecture_kana": "クマモトケン",
    "prefecture_code": 43,
    "city": "宇土市",
    "city_kana": "ウトシ",
    "town": "馬之瀬町",
    "town_kana": "ウマノセマチ",
    "street": null,
    "office_name": null,
    "office_name_kana": null
  },
  "0406": {
    "zip_code": "8690406",
    "prefecture": "熊本県",
    "prefecture_kana": "クマモトケン",
    "prefecture_code": 43,
    "city": "宇土市",
    "city_kana": "ウトシ",
    "town": "三拾町",
    "town_kana": "サジッチョウ",
    "street": null,
    "office_name": null,
    "office_name_kana": null
  },
  "0407": {
    "zip_code": "8690407",
    "prefecture": "熊本県",
    "prefecture_kana": "クマモトケン",
    "prefecture_code": 43,
    "city": "宇土市",
    "city_kana": "ウトシ",
    "town": "松原町",
    "town_kana": "マツワラマチ",
    "street": null,
    "office_name": null,
    "office_name_kana": null
  },
  "0408": {
    "zip_code": "8690408",
    "prefecture": "熊本県",
    "prefecture_kana": "クマモトケン",
    "prefecture_code": 43,
    "city": "宇土市",
    "city_kana": "ウトシ",
    "town": "築籠町",
    "town_kana": "ツイゴメマチ",
    "street": null,
    "office_name": null,
    "office_name_kana": null
  },
  "0410": {
    "zip_code": "8690410",
    "prefecture": "熊本県",
    "prefecture_kana": "クマモトケン",
    "prefecture_code": 43,
    "city": "宇土市",
    "city_kana": "ウトシ",
    "town": "花園台町",
    "town_kana": "ハナゾノダイマチ",
    "street": null,
    "office_name": null,
    "office_name_kana": null
  },
  "0411": {
    "zip_code": "8690411",
    "prefecture": "熊本県",
    "prefecture_kana": "クマモトケン",
    "prefecture_code": 43,
    "city": "宇土市",
    "city_kana": "ウトシ",
    "town": "水町",
    "town_kana": "ミズマチ",
    "street": null,
    "office_name": null,
    "office_name_kana": null
  },
  "0412": {
    "zip_code": "8690412",
    "prefecture": "熊本県",
    "prefecture_kana": "クマモトケン",
    "prefecture_code": 43,
    "city": "宇土市",
    "city_kana": "ウトシ",
    "town": "岩古曽町",
    "town_kana": "イワコソマチ",
    "street": null,
    "office_name": null,
    "office_name_kana": null
  },
  "0413": {
    "zip_code": "8690413",
    "prefecture": "熊本県",
    "prefecture_kana": "クマモトケン",
    "prefecture_code": 43,
    "city": "宇土市",
    "city_kana": "ウトシ",
    "town": "花園町",
    "town_kana": "ハナゾノマチ",
    "street": null,
    "office_name": null,
    "office_name_kana": null
  },
  "0414": {
    "zip_code": "8690414",
    "prefecture": "熊本県",
    "prefecture_kana": "クマモトケン",
    "prefecture_code": 43,
    "city": "宇土市",
    "city_kana": "ウトシ",
    "town": "立岡町",
    "town_kana": "タチオカマチ",
    "street": null,
    "office_name": null,
    "office_name_kana": null
  },
  "0415": {
    "zip_code": "8690415",
    "prefecture": "熊本県",
    "prefecture_kana": "クマモトケン",
    "prefecture_code": 43,
    "city": "宇土市",
    "city_kana": "ウトシ",
    "town": "古保里町",
    "town_kana": "コオザトマチ",
    "street": null,
    "office_name": null,
    "office_name_kana": null
  },
  "0416": {
    "zip_code": "8690416",
    "prefecture": "熊本県",
    "prefecture_kana": "クマモトケン",
    "prefecture_code": 43,
    "city": "宇土市",
    "city_kana": "ウトシ",
    "town": "松山町",
    "town_kana": "マツヤママチ",
    "street": null,
    "office_name": null,
    "office_name_kana": null
  },
  "0417": {
    "zip_code": "8690417",
    "prefecture": "熊本県",
    "prefecture_kana": "クマモトケン",
    "prefecture_code": 43,
    "city": "宇土市",
    "city_kana": "ウトシ",
    "town": "境目町",
    "town_kana": "サカイメマチ",
    "street": null,
    "office_name": null,
    "office_name_kana": null
  },
  "0418": {
    "zip_code": "8690418",
    "prefecture": "熊本県",
    "prefecture_kana": "クマモトケン",
    "prefecture_code": 43,
    "city": "宇土市",
    "city_kana": "ウトシ",
    "town": "善道寺町",
    "town_kana": "ゼンドウジマチ",
    "street": null,
    "office_name": null,
    "office_name_kana": null
  },
  "0419": {
    "zip_code": "8690419",
    "prefecture": "熊本県",
    "prefecture_kana": "クマモトケン",
    "prefecture_code": 43,
    "city": "宇土市",
    "city_kana": "ウトシ",
    "town": "新松原町",
    "town_kana": "シンマツワラマチ",
    "street": null,
    "office_name": null,
    "office_name_kana": null
  },
  "0421": {
    "zip_code": "8690421",
    "prefecture": "熊本県",
    "prefecture_kana": "クマモトケン",
    "prefecture_code": 43,
    "city": "宇土市",
    "city_kana": "ウトシ",
    "town": "南段原町",
    "town_kana": "ミナミダンバラマチ",
    "street": null,
    "office_name": null,
    "office_name_kana": null
  },
  "0422": {
    "zip_code": "8690422",
    "prefecture": "熊本県",
    "prefecture_kana": "クマモトケン",
    "prefecture_code": 43,
    "city": "宇土市",
    "city_kana": "ウトシ",
    "town": "入地町",
    "town_kana": "イリチマチ",
    "street": null,
    "office_name": null,
    "office_name_kana": null
  },
  "0423": {
    "zip_code": "8690423",
    "prefecture": "熊本県",
    "prefecture_kana": "クマモトケン",
    "prefecture_code": 43,
    "city": "宇土市",
    "city_kana": "ウトシ",
    "town": "伊無田町",
    "town_kana": "イムタマチ",
    "street": null,
    "office_name": null,
    "office_name_kana": null
  },
  "0424": {
    "zip_code": "8690424",
    "prefecture": "熊本県",
    "prefecture_kana": "クマモトケン",
    "prefecture_code": 43,
    "city": "宇土市",
    "city_kana": "ウトシ",
    "town": "神馬町",
    "town_kana": "シンメマチ",
    "street": null,
    "office_name": null,
    "office_name_kana": null
  },
  "0425": {
    "zip_code": "8690425",
    "prefecture": "熊本県",
    "prefecture_kana": "クマモトケン",
    "prefecture_code": 43,
    "city": "宇土市",
    "city_kana": "ウトシ",
    "town": "栗崎町",
    "town_kana": "クリザキマチ",
    "street": null,
    "office_name": null,
    "office_name_kana": null
  },
  "0426": {
    "zip_code": "8690426",
    "prefecture": "熊本県",
    "prefecture_kana": "クマモトケン",
    "prefecture_code": 43,
    "city": "宇土市",
    "city_kana": "ウトシ",
    "town": "神合町",
    "town_kana": "コウアイマチ",
    "street": null,
    "office_name": null,
    "office_name_kana": null
  },
  "0431": {
    "zip_code": "8690431",
    "prefecture": "熊本県",
    "prefecture_kana": "クマモトケン",
    "prefecture_code": 43,
    "city": "宇土市",
    "city_kana": "ウトシ",
    "town": "本町",
    "town_kana": "ホンマチ",
    "street": null,
    "office_name": null,
    "office_name_kana": null
  },
  "0432": {
    "zip_code": "8690432",
    "prefecture": "熊本県",
    "prefecture_kana": "クマモトケン",
    "prefecture_code": 43,
    "city": "宇土市",
    "city_kana": "ウトシ",
    "town": "旭町",
    "town_kana": "アサヒマチ",
    "street": null,
    "office_name": null,
    "office_name_kana": null
  },
  "0433": {
    "zip_code": "8690433",
    "prefecture": "熊本県",
    "prefecture_kana": "クマモトケン",
    "prefecture_code": 43,
    "city": "宇土市",
    "city_kana": "ウトシ",
    "town": "新小路町",
    "town_kana": "シンコウジマチ",
    "street": null,
    "office_name": null,
    "office_name_kana": null
  },
  "0434": {
    "zip_code": "8690434",
    "prefecture": "熊本県",
    "prefecture_kana": "クマモトケン",
    "prefecture_code": 43,
    "city": "宇土市",
    "city_kana": "ウトシ",
    "town": "門内町",
    "town_kana": "モンナイマチ",
    "street": null,
    "office_name": null,
    "office_name_kana": null
  },
  "0435": {
    "zip_code": "8690435",
    "prefecture": "熊本県",
    "prefecture_kana": "クマモトケン",
    "prefecture_code": 43,
    "city": "宇土市",
    "city_kana": "ウトシ",
    "town": "一里木町",
    "town_kana": "イチリギマチ",
    "street": null,
    "office_name": null,
    "office_name_kana": null
  },
  "0436": {
    "zip_code": "8690436",
    "prefecture": "熊本県",
    "prefecture_kana": "クマモトケン",
    "prefecture_code": 43,
    "city": "宇土市",
    "city_kana": "ウトシ",
    "town": "定府町",
    "town_kana": "ジョウフマチ",
    "street": null,
    "office_name": null,
    "office_name_kana": null
  },
  "0441": {
    "zip_code": "8690441",
    "prefecture": "熊本県",
    "prefecture_kana": "クマモトケン",
    "prefecture_code": 43,
    "city": "宇土市",
    "city_kana": "ウトシ",
    "town": "石小路町",
    "town_kana": "イシコウジマチ",
    "street": null,
    "office_name": null,
    "office_name_kana": null
  },
  "0442": {
    "zip_code": "8690442",
    "prefecture": "熊本県",
    "prefecture_kana": "クマモトケン",
    "prefecture_code": 43,
    "city": "宇土市",
    "city_kana": "ウトシ",
    "town": "城之浦町",
    "town_kana": "ジョウノウラマチ",
    "street": null,
    "office_name": null,
    "office_name_kana": null
  },
  "0443": {
    "zip_code": "8690443",
    "prefecture": "熊本県",
    "prefecture_kana": "クマモトケン",
    "prefecture_code": 43,
    "city": "宇土市",
    "city_kana": "ウトシ",
    "town": "船場町",
    "town_kana": "センバマチ",
    "street": null,
    "office_name": null,
    "office_name_kana": null
  },
  "0444": {
    "zip_code": "8690444",
    "prefecture": "熊本県",
    "prefecture_kana": "クマモトケン",
    "prefecture_code": 43,
    "city": "宇土市",
    "city_kana": "ウトシ",
    "town": "新町",
    "town_kana": "シンマチ",
    "street": null,
    "office_name": null,
    "office_name_kana": null
  },
  "0445": {
    "zip_code": "8690445",
    "prefecture": "熊本県",
    "prefecture_kana": "クマモトケン",
    "prefecture_code": 43,
    "city": "宇土市",
    "city_kana": "ウトシ",
    "town": "浦田町",
    "town_kana": "ウラタマチ",
    "street": null,
    "office_name": null,
    "office_name_kana": null
  },
  "0451": {
    "zip_code": "8690451",
    "prefecture": "熊本県",
    "prefecture_kana": "クマモトケン",
    "prefecture_code": 43,
    "city": "宇土市",
    "city_kana": "ウトシ",
    "town": "北段原町",
    "town_kana": "キタダンバラマチ",
    "street": null,
    "office_name": null,
    "office_name_kana": null
  },
  "0452": {
    "zip_code": "8690452",
    "prefecture": "熊本県",
    "prefecture_kana": "クマモトケン",
    "prefecture_code": 43,
    "city": "宇土市",
    "city_kana": "ウトシ",
    "town": "高柳町",
    "town_kana": "タカヤナギマチ",
    "street": null,
    "office_name": null,
    "office_name_kana": null
  },
  "0453": {
    "zip_code": "8690453",
    "prefecture": "熊本県",
    "prefecture_kana": "クマモトケン",
    "prefecture_code": 43,
    "city": "宇土市",
    "city_kana": "ウトシ",
    "town": "栄町",
    "town_kana": "サカエマチ",
    "street": null,
    "office_name": null,
    "office_name_kana": null
  },
  "0454": {
    "zip_code": "8690454",
    "prefecture": "熊本県",
    "prefecture_kana": "クマモトケン",
    "prefecture_code": 43,
    "city": "宇土市",
    "city_kana": "ウトシ",
    "town": "古城町",
    "town_kana": "コジョウマチ",
    "street": null,
    "office_name": null,
    "office_name_kana": null
  },
  "0455": {
    "zip_code": "8690455",
    "prefecture": "熊本県",
    "prefecture_kana": "クマモトケン",
    "prefecture_code": 43,
    "city": "宇土市",
    "city_kana": "ウトシ",
    "town": "椿原町",
    "town_kana": "ツバワラマチ",
    "street": null,
    "office_name": null,
    "office_name_kana": null
  },
  "0456": {
    "zip_code": "8690456",
    "prefecture": "熊本県",
    "prefecture_kana": "クマモトケン",
    "prefecture_code": 43,
    "city": "宇土市",
    "city_kana": "ウトシ",
    "town": "石橋町",
    "town_kana": "イシバシマチ",
    "street": null,
    "office_name": null,
    "office_name_kana": null
  },
  "0457": {
    "zip_code": "8690457",
    "prefecture": "熊本県",
    "prefecture_kana": "クマモトケン",
    "prefecture_code": 43,
    "city": "宇土市",
    "city_kana": "ウトシ",
    "town": "宮庄町",
    "town_kana": "ミヤノショウマチ",
    "street": null,
    "office_name": null,
    "office_name_kana": null
  },
  "0461": {
    "zip_code": "8690461",
    "prefecture": "熊本県",
    "prefecture_kana": "クマモトケン",
    "prefecture_code": 43,
    "city": "宇土市",
    "city_kana": "ウトシ",
    "town": "網津町",
    "town_kana": "アミヅマチ",
    "street": null,
    "office_name": null,
    "office_name_kana": null
  },
  "0462": {
    "zip_code": "8690462",
    "prefecture": "熊本県",
    "prefecture_kana": "クマモトケン",
    "prefecture_code": 43,
    "city": "宇土市",
    "city_kana": "ウトシ",
    "town": "城塚町",
    "town_kana": "ジョウツカマチ",
    "street": null,
    "office_name": null,
    "office_name_kana": null
  },
  "0463": {
    "zip_code": "8690463",
    "prefecture": "熊本県",
    "prefecture_kana": "クマモトケン",
    "prefecture_code": 43,
    "city": "宇土市",
    "city_kana": "ウトシ",
    "town": "野鶴町",
    "town_kana": "ノヅルマチ",
    "street": null,
    "office_name": null,
    "office_name_kana": null
  },
  "0464": {
    "zip_code": "8690464",
    "prefecture": "熊本県",
    "prefecture_kana": "クマモトケン",
    "prefecture_code": 43,
    "city": "宇土市",
    "city_kana": "ウトシ",
    "town": "恵塚町",
    "town_kana": "エヅカマチ",
    "street": null,
    "office_name": null,
    "office_name_kana": null
  },
  "0465": {
    "zip_code": "8690465",
    "prefecture": "熊本県",
    "prefecture_kana": "クマモトケン",
    "prefecture_code": 43,
    "city": "宇土市",
    "city_kana": "ウトシ",
    "town": "網引町",
    "town_kana": "アビキマチ",
    "street": null,
    "office_name": null,
    "office_name_kana": null
  },
  "0492": {
    "zip_code": "8690492",
    "prefecture": "熊本県",
    "prefecture_kana": "クマモトケン",
    "prefecture_code": 43,
    "city": "宇土市",
    "city_kana": "ウトシ",
    "town": "浦田町",
    "town_kana": "ウラタマチ",
    "street": "５１",
    "office_name": "宇土市役所",
    "office_name_kana": "ウトシヤクシヨ"
  },
  "0493": {
    "zip_code": "8690493",
    "prefecture": "熊本県",
    "prefecture_kana": "クマモトケン",
    "prefecture_code": 43,
    "city": "宇土市",
    "city_kana": "ウトシ",
    "town": "北段原町",
    "town_kana": "キタダンバラマチ",
    "street": "１５（宇土郵便局私書箱第２号）",
    "office_name": "宇土　税務署",
    "office_name_kana": "ウト ゼイムシヨ"
  },
  "0494": {
    "zip_code": "8690494",
    "prefecture": "熊本県",
    "prefecture_kana": "クマモトケン",
    "prefecture_code": 43,
    "city": "宇土市",
    "city_kana": "ウトシ",
    "town": "松山町",
    "town_kana": "マツヤママチ",
    "street": "４５４１（宇土郵便局私書箱第１号）",
    "office_name": "西田鉄工　株式会社",
    "office_name_kana": "ニシダテツコウ カブシキガイシヤ"
  },
  "0500": {
    "zip_code": "8690500",
    "prefecture": "熊本県",
    "prefecture_kana": "クマモトケン",
    "prefecture_code": 43,
    "city": "宇城市",
    "city_kana": "ウキシ",
    "town": "",
    "town_kana": "",
    "street": null,
    "office_name": null,
    "office_name_kana": null
  },
  "0501": {
    "zip_code": "8690501",
    "prefecture": "熊本県",
    "prefecture_kana": "クマモトケン",
    "prefecture_code": 43,
    "city": "宇城市",
    "city_kana": "ウキシ",
    "town": "松橋町松山",
    "town_kana": "マツバセマチマツヤマ",
    "street": null,
    "office_name": null,
    "office_name_kana": null
  },
  "0502": {
    "zip_code": "8690502",
    "prefecture": "熊本県",
    "prefecture_kana": "クマモトケン",
    "prefecture_code": 43,
    "city": "宇城市",
    "city_kana": "ウキシ",
    "town": "松橋町松橋",
    "town_kana": "マツバセマチマツバセ",
    "street": null,
    "office_name": null,
    "office_name_kana": null
  },
  "0503": {
    "zip_code": "8690503",
    "prefecture": "熊本県",
    "prefecture_kana": "クマモトケン",
    "prefecture_code": 43,
    "city": "宇城市",
    "city_kana": "ウキシ",
    "town": "松橋町きらら",
    "town_kana": "マツバセマチキララ",
    "street": null,
    "office_name": null,
    "office_name_kana": null
  },
  "0511": {
    "zip_code": "8690511",
    "prefecture": "熊本県",
    "prefecture_kana": "クマモトケン",
    "prefecture_code": 43,
    "city": "宇城市",
    "city_kana": "ウキシ",
    "town": "松橋町曲野",
    "town_kana": "マツバセマチマガノ",
    "street": null,
    "office_name": null,
    "office_name_kana": null
  },
  "0512": {
    "zip_code": "8690512",
    "prefecture": "熊本県",
    "prefecture_kana": "クマモトケン",
    "prefecture_code": 43,
    "city": "宇城市",
    "city_kana": "ウキシ",
    "town": "松橋町古保山",
    "town_kana": "マツバセマチコオヤマ",
    "street": null,
    "office_name": null,
    "office_name_kana": null
  },
  "0513": {
    "zip_code": "8690513",
    "prefecture": "熊本県",
    "prefecture_kana": "クマモトケン",
    "prefecture_code": 43,
    "city": "宇城市",
    "city_kana": "ウキシ",
    "town": "松橋町萩尾",
    "town_kana": "マツバセマチハギオ",
    "street": null,
    "office_name": null,
    "office_name_kana": null
  },
  "0521": {
    "zip_code": "8690521",
    "prefecture": "熊本県",
    "prefecture_kana": "クマモトケン",
    "prefecture_code": 43,
    "city": "宇城市",
    "city_kana": "ウキシ",
    "town": "松橋町浦川内",
    "town_kana": "マツバセマチウラカワチ",
    "street": null,
    "office_name": null,
    "office_name_kana": null
  },
  "0522": {
    "zip_code": "8690522",
    "prefecture": "熊本県",
    "prefecture_kana": "クマモトケン",
    "prefecture_code": 43,
    "city": "宇城市",
    "city_kana": "ウキシ",
    "town": "松橋町内田",
    "town_kana": "マツバセマチウチダ",
    "street": null,
    "office_name": null,
    "office_name_kana": null
  },
  "0523": {
    "zip_code": "8690523",
    "prefecture": "熊本県",
    "prefecture_kana": "クマモトケン",
    "prefecture_code": 43,
    "city": "宇城市",
    "city_kana": "ウキシ",
    "town": "松橋町竹崎",
    "town_kana": "マツバセマチタケザキ",
    "street": null,
    "office_name": null,
    "office_name_kana": null
  },
  "0524": {
    "zip_code": "8690524",
    "prefecture": "熊本県",
    "prefecture_kana": "クマモトケン",
    "prefecture_code": 43,
    "city": "宇城市",
    "city_kana": "ウキシ",
    "town": "松橋町豊福",
    "town_kana": "マツバセマチトヨフク",
    "street": null,
    "office_name": null,
    "office_name_kana": null
  },
  "0531": {
    "zip_code": "8690531",
    "prefecture": "熊本県",
    "prefecture_kana": "クマモトケン",
    "prefecture_code": 43,
    "city": "宇城市",
    "city_kana": "ウキシ",
    "town": "松橋町大野",
    "town_kana": "マツバセマチオオノ",
    "street": null,
    "office_name": null,
    "office_name_kana": null
  },
  "0532": {
    "zip_code": "8690532",
    "prefecture": "熊本県",
    "prefecture_kana": "クマモトケン",
    "prefecture_code": 43,
    "city": "宇城市",
    "city_kana": "ウキシ",
    "town": "松橋町久具",
    "town_kana": "マツバセマチクグ",
    "street": null,
    "office_name": null,
    "office_name_kana": null
  },
  "0533": {
    "zip_code": "8690533",
    "prefecture": "熊本県",
    "prefecture_kana": "クマモトケン",
    "prefecture_code": 43,
    "city": "宇城市",
    "city_kana": "ウキシ",
    "town": "松橋町両仲間",
    "town_kana": "マツバセマチリョウナカマ",
    "street": null,
    "office_name": null,
    "office_name_kana": null
  },
  "0534": {
    "zip_code": "8690534",
    "prefecture": "熊本県",
    "prefecture_kana": "クマモトケン",
    "prefecture_code": 43,
    "city": "宇城市",
    "city_kana": "ウキシ",
    "town": "松橋町西下郷",
    "town_kana": "マツバセマチニシシモゴウ",
    "street": null,
    "office_name": null,
    "office_name_kana": null
  },
  "0541": {
    "zip_code": "8690541",
    "prefecture": "熊本県",
    "prefecture_kana": "クマモトケン",
    "prefecture_code": 43,
    "city": "宇城市",
    "city_kana": "ウキシ",
    "town": "松橋町東松崎",
    "town_kana": "マツバセマチヒガシマツザキ",
    "street": null,
    "office_name": null,
    "office_name_kana": null
  },
  "0542": {
    "zip_code": "8690542",
    "prefecture": "熊本県",
    "prefecture_kana": "クマモトケン",
    "prefecture_code": 43,
    "city": "宇城市",
    "city_kana": "ウキシ",
    "town": "松橋町豊崎",
    "town_kana": "マツバセマチトヨザキ",
    "street": null,
    "office_name": null,
    "office_name_kana": null
  },
  "0543": {
    "zip_code": "8690543",
    "prefecture": "熊本県",
    "prefecture_kana": "クマモトケン",
    "prefecture_code": 43,
    "city": "宇城市",
    "city_kana": "ウキシ",
    "town": "松橋町南豊崎",
    "town_kana": "マツバセマチミナミトヨザキ",
    "street": null,
    "office_name": null,
    "office_name_kana": null
  },
  "0544": {
    "zip_code": "8690544",
    "prefecture": "熊本県",
    "prefecture_kana": "クマモトケン",
    "prefecture_code": 43,
    "city": "宇城市",
    "city_kana": "ウキシ",
    "town": "松橋町浅川",
    "town_kana": "マツバセマチアサカワ",
    "street": null,
    "office_name": null,
    "office_name_kana": null
  },
  "0545": {
    "zip_code": "8690545",
    "prefecture": "熊本県",
    "prefecture_kana": "クマモトケン",
    "prefecture_code": 43,
    "city": "宇城市",
    "city_kana": "ウキシ",
    "town": "松橋町砂川",
    "town_kana": "マツバセマチスナガワ",
    "street": null,
    "office_name": null,
    "office_name_kana": null
  },
  "0546": {
    "zip_code": "8690546",
    "prefecture": "熊本県",
    "prefecture_kana": "クマモトケン",
    "prefecture_code": 43,
    "city": "宇城市",
    "city_kana": "ウキシ",
    "town": "松橋町御船",
    "town_kana": "マツバセマチミフネ",
    "street": null,
    "office_name": null,
    "office_name_kana": null
  },
  "0551": {
    "zip_code": "8690551",
    "prefecture": "熊本県",
    "prefecture_kana": "クマモトケン",
    "prefecture_code": 43,
    "city": "宇城市",
    "city_kana": "ウキシ",
    "town": "不知火町御領",
    "town_kana": "シラヌヒマチゴリョウ",
    "street": null,
    "office_name": null,
    "office_name_kana": null
  },
  "0552": {
    "zip_code": "8690552",
    "prefecture": "熊本県",
    "prefecture_kana": "クマモトケン",
    "prefecture_code": 43,
    "city": "宇城市",
    "city_kana": "ウキシ",
    "town": "不知火町高良",
    "town_kana": "シラヌヒマチコウラ",
    "street": null,
    "office_name": null,
    "office_name_kana": null
  },
  "0553": {
    "zip_code": "8690553",
    "prefecture": "熊本県",
    "prefecture_kana": "クマモトケン",
    "prefecture_code": 43,
    "city": "宇城市",
    "city_kana": "ウキシ",
    "town": "不知火町小曽部",
    "town_kana": "シラヌヒマチコソブ",
    "street": null,
    "office_name": null,
    "office_name_kana": null
  },
  "0554": {
    "zip_code": "8690554",
    "prefecture": "熊本県",
    "prefecture_kana": "クマモトケン",
    "prefecture_code": 43,
    "city": "宇城市",
    "city_kana": "ウキシ",
    "town": "不知火町柏原",
    "town_kana": "シラヌヒマチカシワハラ",
    "street": null,
    "office_name": null,
    "office_name_kana": null
  },
  "0561": {
    "zip_code": "8690561",
    "prefecture": "熊本県",
    "prefecture_kana": "クマモトケン",
    "prefecture_code": 43,
    "city": "宇城市",
    "city_kana": "ウキシ",
    "town": "不知火町亀松",
    "town_kana": "シラヌヒマチカメマツ",
    "street": null,
    "office_name": null,
    "office_name_kana": null
  },
  "0562": {
    "zip_code": "8690562",
    "prefecture": "熊本県",
    "prefecture_kana": "クマモトケン",
    "prefecture_code": 43,
    "city": "宇城市",
    "city_kana": "ウキシ",
    "town": "不知火町長崎",
    "town_kana": "シラヌヒマチナガサキ",
    "street": null,
    "office_name": null,
    "office_name_kana": null
  },
  "0563": {
    "zip_code": "8690563",
    "prefecture": "熊本県",
    "prefecture_kana": "クマモトケン",
    "prefecture_code": 43,
    "city": "宇城市",
    "city_kana": "ウキシ",
    "town": "不知火町浦上",
    "town_kana": "シラヌヒマチウラガミ",
    "street": null,
    "office_name": null,
    "office_name_kana": null
  },
  "0592": {
    "zip_code": "8690592",
    "prefecture": "熊本県",
    "prefecture_kana": "クマモトケン",
    "prefecture_code": 43,
    "city": "宇城市",
    "city_kana": "ウキシ",
    "town": "松橋町大野",
    "town_kana": "マツバセマチオオノ",
    "street": "８５",
    "office_name": "宇城市役所",
    "office_name_kana": "ウキシヤクシヨ"
  },
  "0593": {
    "zip_code": "8690593",
    "prefecture": "熊本県",
    "prefecture_kana": "クマモトケン",
    "prefecture_code": 43,
    "city": "宇城市",
    "city_kana": "ウキシ",
    "town": "松橋町豊福",
    "town_kana": "マツバセマチトヨフク",
    "street": "２３３８",
    "office_name": "独立行政法人　国立病院機構　熊本南病院",
    "office_name_kana": "ドクリツギヨウセイホウジン コクリツビヨウインキコウ クマモトミナミビヨウイン"
  },
  "0598": {
    "zip_code": "8690598",
    "prefecture": "熊本県",
    "prefecture_kana": "クマモトケン",
    "prefecture_code": 43,
    "city": "宇城市",
    "city_kana": "ウキシ",
    "town": "松橋町浦川内",
    "town_kana": "マツバセマチウラカワチ",
    "street": "２３８８",
    "office_name": "山崎製パン　株式会社　熊本工場",
    "office_name_kana": "ヤマサキセイパン カブシキガイシヤ クマモトコウジヨウ"
  },
  "0601": {
    "zip_code": "8690601",
    "prefecture": "熊本県",
    "prefecture_kana": "クマモトケン",
    "prefecture_code": 43,
    "city": "宇城市",
    "city_kana": "ウキシ",
    "town": "小川町北小野",
    "town_kana": "オガワマチキタオノ",
    "street": null,
    "office_name": null,
    "office_name_kana": null
  },
  "0602": {
    "zip_code": "8690602",
    "prefecture": "熊本県",
    "prefecture_kana": "クマモトケン",
    "prefecture_code": 43,
    "city": "宇城市",
    "city_kana": "ウキシ",
    "town": "小川町中小野",
    "town_kana": "オガワマチナカオノ",
    "street": null,
    "office_name": null,
    "office_name_kana": null
  },
  "0603": {
    "zip_code": "8690603",
    "prefecture": "熊本県",
    "prefecture_kana": "クマモトケン",
    "prefecture_code": 43,
    "city": "宇城市",
    "city_kana": "ウキシ",
    "town": "小川町南小野",
    "town_kana": "オガワマチミナミオノ",
    "street": null,
    "office_name": null,
    "office_name_kana": null
  },
  "0604": {
    "zip_code": "8690604",
    "prefecture": "熊本県",
    "prefecture_kana": "クマモトケン",
    "prefecture_code": 43,
    "city": "宇城市",
    "city_kana": "ウキシ",
    "town": "小川町北部田",
    "town_kana": "オガワマチキタベタ",
    "street": null,
    "office_name": null,
    "office_name_kana": null
  },
  "0605": {
    "zip_code": "8690605",
    "prefecture": "熊本県",
    "prefecture_kana": "クマモトケン",
    "prefecture_code": 43,
    "city": "宇城市",
    "city_kana": "ウキシ",
    "town": "小川町南部田",
    "town_kana": "オガワマチミナミベタ",
    "street": null,
    "office_name": null,
    "office_name_kana": null
  },
  "0606": {
    "zip_code": "8690606",
    "prefecture": "熊本県",
    "prefecture_kana": "クマモトケン",
    "prefecture_code": 43,
    "city": "宇城市",
    "city_kana": "ウキシ",
    "town": "小川町河江",
    "town_kana": "オガワマチゴウノエ",
    "street": null,
    "office_name": null,
    "office_name_kana": null
  },
  "0611": {
    "zip_code": "8690611",
    "prefecture": "熊本県",
    "prefecture_kana": "クマモトケン",
    "prefecture_code": 43,
    "city": "宇城市",
    "city_kana": "ウキシ",
    "town": "小川町東海東",
    "town_kana": "オガワマチヒガシカイトウ",
    "street": null,
    "office_name": null,
    "office_name_kana": null
  },
  "0612": {
    "zip_code": "8690612",
    "prefecture": "熊本県",
    "prefecture_kana": "クマモトケン",
    "prefecture_code": 43,
    "city": "宇城市",
    "city_kana": "ウキシ",
    "town": "小川町南海東",
    "town_kana": "オガワマチミナミカイトウ",
    "street": null,
    "office_name": null,
    "office_name_kana": null
  },
  "0613": {
    "zip_code": "8690613",
    "prefecture": "熊本県",
    "prefecture_kana": "クマモトケン",
    "prefecture_code": 43,
    "city": "宇城市",
    "city_kana": "ウキシ",
    "town": "小川町東小川",
    "town_kana": "オガワマチヒガシオガワ",
    "street": null,
    "office_name": null,
    "office_name_kana": null
  },
  "0614": {
    "zip_code": "8690614",
    "prefecture": "熊本県",
    "prefecture_kana": "クマモトケン",
    "prefecture_code": 43,
    "city": "宇城市",
    "city_kana": "ウキシ",
    "town": "小川町南小川",
    "town_kana": "オガワマチミナミオガワ",
    "street": null,
    "office_name": null,
    "office_name_kana": null
  },
  "0615": {
    "zip_code": "8690615",
    "prefecture": "熊本県",
    "prefecture_kana": "クマモトケン",
    "prefecture_code": 43,
    "city": "宇城市",
    "city_kana": "ウキシ",
    "town": "小川町西海東",
    "town_kana": "オガワマチニシカイトウ",
    "street": null,
    "office_name": null,
    "office_name_kana": null
  },
  "0616": {
    "zip_code": "8690616",
    "prefecture": "熊本県",
    "prefecture_kana": "クマモトケン",
    "prefecture_code": 43,
    "city": "宇城市",
    "city_kana": "ウキシ",
    "town": "小川町北海東",
    "town_kana": "オガワマチキタカイトウ",
    "street": null,
    "office_name": null,
    "office_name_kana": null
  },
  "0621": {
    "zip_code": "8690621",
    "prefecture": "熊本県",
    "prefecture_kana": "クマモトケン",
    "prefecture_code": 43,
    "city": "宇城市",
    "city_kana": "ウキシ",
    "town": "小川町小川",
    "town_kana": "オガワマチオガワ",
    "street": null,
    "office_name": null,
    "office_name_kana": null
  },
  "0622": {
    "zip_code": "8690622",
    "prefecture": "熊本県",
    "prefecture_kana": "クマモトケン",
    "prefecture_code": 43,
    "city": "宇城市",
    "city_kana": "ウキシ",
    "town": "小川町西北小川",
    "town_kana": "オガワマチニシキタオガワ",
    "street": null,
    "office_name": null,
    "office_name_kana": null
  },
  "0623": {
    "zip_code": "8690623",
    "prefecture": "熊本県",
    "prefecture_kana": "クマモトケン",
    "prefecture_code": 43,
    "city": "宇城市",
    "city_kana": "ウキシ",
    "town": "小川町川尻",
    "town_kana": "オガワマチカワジリ",
    "street": null,
    "office_name": null,
    "office_name_kana": null
  },
  "0624": {
    "zip_code": "8690624",
    "prefecture": "熊本県",
    "prefecture_kana": "クマモトケン",
    "prefecture_code": 43,
    "city": "宇城市",
    "city_kana": "ウキシ",
    "town": "小川町江頭",
    "town_kana": "オガワマチエガシラ",
    "street": null,
    "office_name": null,
    "office_name_kana": null
  },
  "0631": {
    "zip_code": "8690631",
    "prefecture": "熊本県",
    "prefecture_kana": "クマモトケン",
    "prefecture_code": 43,
    "city": "宇城市",
    "city_kana": "ウキシ",
    "town": "小川町北新田",
    "town_kana": "オガワマチキタシンデン",
    "street": null,
    "office_name": null,
    "office_name_kana": null
  },
  "0632": {
    "zip_code": "8690632",
    "prefecture": "熊本県",
    "prefecture_kana": "クマモトケン",
    "prefecture_code": 43,
    "city": "宇城市",
    "city_kana": "ウキシ",
    "town": "小川町南新田",
    "town_kana": "オガワマチミナミシンデン",
    "street": null,
    "office_name": null,
    "office_name_kana": null
  },
  "0633": {
    "zip_code": "8690633",
    "prefecture": "熊本県",
    "prefecture_kana": "クマモトケン",
    "prefecture_code": 43,
    "city": "宇城市",
    "city_kana": "ウキシ",
    "town": "小川町新田",
    "town_kana": "オガワマチシンデン",
    "street": null,
    "office_name": null,
    "office_name_kana": null
  },
  "0634": {
    "zip_code": "8690634",
    "prefecture": "熊本県",
    "prefecture_kana": "クマモトケン",
    "prefecture_code": 43,
    "city": "宇城市",
    "city_kana": "ウキシ",
    "town": "小川町住吉",
    "town_kana": "オガワマチスミヨシ",
    "street": null,
    "office_name": null,
    "office_name_kana": null
  },
  "0635": {
    "zip_code": "8690635",
    "prefecture": "熊本県",
    "prefecture_kana": "クマモトケン",
    "prefecture_code": 43,
    "city": "宇城市",
    "city_kana": "ウキシ",
    "town": "小川町不知火",
    "town_kana": "オガワマチシラヌイ",
    "street": null,
    "office_name": null,
    "office_name_kana": null
  },
  "0636": {
    "zip_code": "8690636",
    "prefecture": "熊本県",
    "prefecture_kana": "クマモトケン",
    "prefecture_code": 43,
    "city": "宇城市",
    "city_kana": "ウキシ",
    "town": "小川町新田出",
    "town_kana": "オガワマチシンデンデ",
    "street": null,
    "office_name": null,
    "office_name_kana": null
  },
  "0696": {
    "zip_code": "8690696",
    "prefecture": "熊本県",
    "prefecture_kana": "クマモトケン",
    "prefecture_code": 43,
    "city": "宇城市",
    "city_kana": "ウキシ",
    "town": "小川町江頭",
    "town_kana": "オガワマチエガシラ",
    "street": "１００",
    "office_name": "宇城市役所　小川支所",
    "office_name_kana": "ウキシヤクシヨ オガワシシヨ"
  },
  "1100": {
    "zip_code": "8691100",
    "prefecture": "熊本県",
    "prefecture_kana": "クマモトケン",
    "prefecture_code": 43,
    "city": "菊池郡菊陽町",
    "city_kana": "キクチグンキクヨウマチ",
    "town": "",
    "town_kana": "",
    "street": null,
    "office_name": null,
    "office_name_kana": null
  },
  "1101": {
    "zip_code": "8691101",
    "prefecture": "熊本県",
    "prefecture_kana": "クマモトケン",
    "prefecture_code": 43,
    "city": "菊池郡菊陽町",
    "city_kana": "キクチグンキクヨウマチ",
    "town": "津久礼",
    "town_kana": "ツクレ",
    "street": null,
    "office_name": null,
    "office_name_kana": null
  },
  "1102": {
    "zip_code": "8691102",
    "prefecture": "熊本県",
    "prefecture_kana": "クマモトケン",
    "prefecture_code": 43,
    "city": "菊池郡菊陽町",
    "city_kana": "キクチグンキクヨウマチ",
    "town": "原水",
    "town_kana": "ハラミズ",
    "street": null,
    "office_name": null,
    "office_name_kana": null
  },
  "1103": {
    "zip_code": "8691103",
    "prefecture": "熊本県",
    "prefecture_kana": "クマモトケン",
    "prefecture_code": 43,
    "city": "菊池郡菊陽町",
    "city_kana": "キクチグンキクヨウマチ",
    "town": "久保田",
    "town_kana": "クボタ",
    "street": null,
    "office_name": null,
    "office_name_kana": null
  },
  "1104": {
    "zip_code": "8691104",
    "prefecture": "熊本県",
    "prefecture_kana": "クマモトケン",
    "prefecture_code": 43,
    "city": "菊池郡菊陽町",
    "city_kana": "キクチグンキクヨウマチ",
    "town": "戸次",
    "town_kana": "トツギ",
    "street": null,
    "office_name": null,
    "office_name_kana": null
  },
  "1105": {
    "zip_code": "8691105",
    "prefecture": "熊本県",
    "prefecture_kana": "クマモトケン",
    "prefecture_code": 43,
    "city": "菊池郡菊陽町",
    "city_kana": "キクチグンキクヨウマチ",
    "town": "馬場楠",
    "town_kana": "ババグス",
    "street": null,
    "office_name": null,
    "office_name_kana": null
  },
  "1106": {
    "zip_code": "8691106",
    "prefecture": "熊本県",
    "prefecture_kana": "クマモトケン",
    "prefecture_code": 43,
    "city": "菊池郡菊陽町",
    "city_kana": "キクチグンキクヨウマチ",
    "town": "曲手",
    "town_kana": "マガテ",
    "street": null,
    "office_name": null,
    "office_name_kana": null
  },
  "1107": {
    "zip_code": "8691107",
    "prefecture": "熊本県",
    "prefecture_kana": "クマモトケン",
    "prefecture_code": 43,
    "city": "菊池郡菊陽町",
    "city_kana": "キクチグンキクヨウマチ",
    "town": "辛川",
    "town_kana": "カラカワ",
    "street": null,
    "office_name": null,
    "office_name_kana": null
  },
  "1108": {
    "zip_code": "8691108",
    "prefecture": "熊本県",
    "prefecture_kana": "クマモトケン",
    "prefecture_code": 43,
    "city": "菊池郡菊陽町",
    "city_kana": "キクチグンキクヨウマチ",
    "town": "光の森",
    "town_kana": "ヒカリノモリ",
    "street": null,
    "office_name": null,
    "office_name_kana": null
  },
  "1109": {
    "zip_code": "8691109",
    "prefecture": "熊本県",
    "prefecture_kana": "クマモトケン",
    "prefecture_code": 43,
    "city": "菊池郡菊陽町",
    "city_kana": "キクチグンキクヨウマチ",
    "town": "新山",
    "town_kana": "シンヤマ",
    "street": null,
    "office_name": null,
    "office_name_kana": null
  },
  "1110": {
    "zip_code": "8691110",
    "prefecture": "熊本県",
    "prefecture_kana": "クマモトケン",
    "prefecture_code": 43,
    "city": "菊池郡菊陽町",
    "city_kana": "キクチグンキクヨウマチ",
    "town": "杉並台",
    "town_kana": "スギナミダイ",
    "street": null,
    "office_name": null,
    "office_name_kana": null
  },
  "1111": {
    "zip_code": "8691111",
    "prefecture": "熊本県",
    "prefecture_kana": "クマモトケン",
    "prefecture_code": 43,
    "city": "菊池郡菊陽町",
    "city_kana": "キクチグンキクヨウマチ",
    "town": "武蔵ヶ丘",
    "town_kana": "ムサシガオカ",
    "street": null,
    "office_name": null,
    "office_name_kana": null
  },
  "1112": {
    "zip_code": "8691112",
    "prefecture": "熊本県",
    "prefecture_kana": "クマモトケン",
    "prefecture_code": 43,
    "city": "菊池郡菊陽町",
    "city_kana": "キクチグンキクヨウマチ",
    "town": "武蔵ヶ丘北",
    "town_kana": "ムサシガオカキタ",
    "street": null,
    "office_name": null,
    "office_name_kana": null
  },
  "1113": {
    "zip_code": "8691113",
    "prefecture": "熊本県",
    "prefecture_kana": "クマモトケン",
    "prefecture_code": 43,
    "city": "菊池郡菊陽町",
    "city_kana": "キクチグンキクヨウマチ",
    "town": "花立",
    "town_kana": "ハナタテ",
    "street": null,
    "office_name": null,
    "office_name_kana": null
  },
  "1114": {
    "zip_code": "8691114",
    "prefecture": "熊本県",
    "prefecture_kana": "クマモトケン",
    "prefecture_code": 43,
    "city": "菊池郡菊陽町",
    "city_kana": "キクチグンキクヨウマチ",
    "town": "向陽台",
    "town_kana": "コウヨウダイ",
    "street": null,
    "office_name": null,
    "office_name_kana": null
  },
  "1115": {
    "zip_code": "8691115",
    "prefecture": "熊本県",
    "prefecture_kana": "クマモトケン",
    "prefecture_code": 43,
    "city": "菊池郡菊陽町",
    "city_kana": "キクチグンキクヨウマチ",
    "town": "沖野",
    "town_kana": "オキノ",
    "street": null,
    "office_name": null,
    "office_name_kana": null
  },
  "1192": {
    "zip_code": "8691192",
    "prefecture": "熊本県",
    "prefecture_kana": null,
    "prefecture_code": null,
    "city": "菊池郡菊陽町",
    "city_kana": null,
    "town": "大字久保田",
    "town_kana": null,
    "street": "２８００",
    "office_name": "菊陽町役場",
    "office_name_kana": "キクヨウマチヤクバ"
  },
  "1193": {
    "zip_code": "8691193",
    "prefecture": "熊本県",
    "prefecture_kana": null,
    "prefecture_code": null,
    "city": "菊池郡菊陽町",
    "city_kana": null,
    "town": "大字津久礼",
    "town_kana": null,
    "street": "９１−１（熊本北郵便局私書箱第１号）",
    "office_name": "阿蘇製薬　株式会社",
    "office_name_kana": "アソセイヤク カブシキガイシヤ"
  },
  "1200": {
    "zip_code": "8691200",
    "prefecture": "熊本県",
    "prefecture_kana": "クマモトケン",
    "prefecture_code": 43,
    "city": "菊池郡大津町",
    "city_kana": "キクチグンオオヅマチ",
    "town": "",
    "town_kana": "",
    "street": null,
    "office_name": null,
    "office_name_kana": null
  },
  "1201": {
    "zip_code": "8691201",
    "prefecture": "熊本県",
    "prefecture_kana": "クマモトケン",
    "prefecture_code": 43,
    "city": "菊池市",
    "city_kana": "キクチシ",
    "town": "旭志弁利",
    "town_kana": "キョクシベンリ",
    "street": null,
    "office_name": null,
    "office_name_kana": null
  },
  "1202": {
    "zip_code": "8691202",
    "prefecture": "熊本県",
    "prefecture_kana": "クマモトケン",
    "prefecture_code": 43,
    "city": "菊池市",
    "city_kana": "キクチシ",
    "town": "旭志麓",
    "town_kana": "キョクシフモト",
    "street": null,
    "office_name": null,
    "office_name_kana": null
  },
  "1203": {
    "zip_code": "8691203",
    "prefecture": "熊本県",
    "prefecture_kana": "クマモトケン",
    "prefecture_code": 43,
    "city": "菊池市",
    "city_kana": "キクチシ",
    "town": "旭志尾足",
    "town_kana": "キョクシオタル",
    "street": null,
    "office_name": null,
    "office_name_kana": null
  },
  "1204": {
    "zip_code": "8691204",
    "prefecture": "熊本県",
    "prefecture_kana": "クマモトケン",
    "prefecture_code": 43,
    "city": "菊池市",
    "city_kana": "キクチシ",
    "town": "旭志小原",
    "town_kana": "キョクシオバル",
    "street": null,
    "office_name": null,
    "office_name_kana": null
  },
  "1205": {
    "zip_code": "8691205",
    "prefecture": "熊本県",
    "prefecture_kana": "クマモトケン",
    "prefecture_code": 43,
    "city": "菊池市",
    "city_kana": "キクチシ",
    "town": "旭志川辺",
    "town_kana": "キョクシカワベ",
    "street": null,
    "office_name": null,
    "office_name_kana": null
  },
  "1206": {
    "zip_code": "8691206",
    "prefecture": "熊本県",
    "prefecture_kana": "クマモトケン",
    "prefecture_code": 43,
    "city": "菊池市",
    "city_kana": "キクチシ",
    "town": "旭志伊坂",
    "town_kana": "キョクシイサカ",
    "street": null,
    "office_name": null,
    "office_name_kana": null
  },
  "1207": {
    "zip_code": "8691207",
    "prefecture": "熊本県",
    "prefecture_kana": "クマモトケン",
    "prefecture_code": 43,
    "city": "菊池市",
    "city_kana": "キクチシ",
    "town": "旭志新明",
    "town_kana": "キョクシシンメイ",
    "street": null,
    "office_name": null,
    "office_name_kana": null
  },
  "1208": {
    "zip_code": "8691208",
    "prefecture": "熊本県",
    "prefecture_kana": "クマモトケン",
    "prefecture_code": 43,
    "city": "菊池市",
    "city_kana": "キクチシ",
    "town": "旭志伊萩",
    "town_kana": "キョクシイハギ",
    "street": null,
    "office_name": null,
    "office_name_kana": null
  },
  "1211": {
    "zip_code": "8691211",
    "prefecture": "熊本県",
    "prefecture_kana": "クマモトケン",
    "prefecture_code": 43,
    "city": "菊池郡大津町",
    "city_kana": "キクチグンオオヅマチ",
    "town": "矢護川",
    "town_kana": "ヤゴガワ",
    "street": null,
    "office_name": null,
    "office_name_kana": null
  },
  "1212": {
    "zip_code": "8691212",
    "prefecture": "熊本県",
    "prefecture_kana": "クマモトケン",
    "prefecture_code": 43,
    "city": "菊池郡大津町",
    "city_kana": "キクチグンオオヅマチ",
    "town": "真木",
    "town_kana": "マキ",
    "street": null,
    "office_name": null,
    "office_name_kana": null
  },
  "1213": {
    "zip_code": "8691213",
    "prefecture": "熊本県",
    "prefecture_kana": "クマモトケン",
    "prefecture_code": 43,
    "city": "菊池郡大津町",
    "city_kana": "キクチグンオオヅマチ",
    "town": "古城",
    "town_kana": "フルジョウ",
    "street": null,
    "office_name": null,
    "office_name_kana": null
  },
  "1214": {
    "zip_code": "8691214",
    "prefecture": "熊本県",
    "prefecture_kana": "クマモトケン",
    "prefecture_code": 43,
    "city": "菊池郡大津町",
    "city_kana": "キクチグンオオヅマチ",
    "town": "瀬田",
    "town_kana": "セタ",
    "street": null,
    "office_name": null,
    "office_name_kana": null
  },
  "1215": {
    "zip_code": "8691215",
    "prefecture": "熊本県",
    "prefecture_kana": "クマモトケン",
    "prefecture_code": 43,
    "city": "菊池郡大津町",
    "city_kana": "キクチグンオオヅマチ",
    "town": "外牧",
    "town_kana": "ホカマキ",
    "street": null,
    "office_name": null,
    "office_name_kana": null
  },
  "1216": {
    "zip_code": "8691216",
    "prefecture": "熊本県",
    "prefecture_kana": "クマモトケン",
    "prefecture_code": 43,
    "city": "菊池郡大津町",
    "city_kana": "キクチグンオオヅマチ",
    "town": "錦野",
    "town_kana": "ニシキノ",
    "street": null,
    "office_name": null,
    "office_name_kana": null
  },
  "1217": {
    "zip_code": "8691217",
    "prefecture": "熊本県",
    "prefecture_kana": "クマモトケン",
    "prefecture_code": 43,
    "city": "菊池郡大津町",
    "city_kana": "キクチグンオオヅマチ",
    "town": "森",
    "town_kana": "モリ",
    "street": null,
    "office_name": null,
    "office_name_kana": null
  },
  "1218": {
    "zip_code": "8691218",
    "prefecture": "熊本県",
    "prefecture_kana": "クマモトケン",
    "prefecture_code": 43,
    "city": "菊池郡大津町",
    "city_kana": "キクチグンオオヅマチ",
    "town": "吹田",
    "town_kana": "フケダ",
    "street": null,
    "office_name": null,
    "office_name_kana": null
  },
  "1219": {
    "zip_code": "8691219",
    "prefecture": "熊本県",
    "prefecture_kana": "クマモトケン",
    "prefecture_code": 43,
    "city": "菊池郡大津町",
    "city_kana": "キクチグンオオヅマチ",
    "town": "大林",
    "town_kana": "オオバヤシ",
    "street": null,
    "office_name": null,
    "office_name_kana": null
  },
  "1221": {
    "zip_code": "8691221",
    "prefecture": "熊本県",
    "prefecture_kana": "クマモトケン",
    "prefecture_code": 43,
    "city": "菊池郡大津町",
    "city_kana": "キクチグンオオヅマチ",
    "town": "陣内",
    "town_kana": "ジンナイ",
    "street": null,
    "office_name": null,
    "office_name_kana": null
  },
  "1222": {
    "zip_code": "8691222",
    "prefecture": "熊本県",
    "prefecture_kana": "クマモトケン",
    "prefecture_code": 43,
    "city": "菊池郡大津町",
    "city_kana": "キクチグンオオヅマチ",
    "town": "岩坂",
    "town_kana": "イワサカ",
    "street": null,
    "office_name": null,
    "office_name_kana": null
  },
  "1223": {
    "zip_code": "8691223",
    "prefecture": "熊本県",
    "prefecture_kana": "クマモトケン",
    "prefecture_code": 43,
    "city": "菊池郡大津町",
    "city_kana": "キクチグンオオヅマチ",
    "town": "中島",
    "town_kana": "ナカシマ",
    "street": null,
    "office_name": null,
    "office_name_kana": null
  },
  "1224": {
    "zip_code": "8691224",
    "prefecture": "熊本県",
    "prefecture_kana": "クマモトケン",
    "prefecture_code": 43,
    "city": "菊池郡大津町",
    "city_kana": "キクチグンオオヅマチ",
    "town": "町",
    "town_kana": "マチ",
    "street": null,
    "office_name": null,
    "office_name_kana": null
  },
  "1225": {
    "zip_code": "8691225",
    "prefecture": "熊本県",
    "prefecture_kana": "クマモトケン",
    "prefecture_code": 43,
    "city": "菊池郡大津町",
    "city_kana": "キクチグンオオヅマチ",
    "town": "下町",
    "town_kana": "シモマチ",
    "street": null,
    "office_name": null,
    "office_name_kana": null
  },
  "1226": {
    "zip_code": "8691226",
    "prefecture": "熊本県",
    "prefecture_kana": "クマモトケン",
    "prefecture_code": 43,
    "city": "菊池郡大津町",
    "city_kana": "キクチグンオオヅマチ",
    "town": "灰塚",
    "town_kana": "ハイヅカ",
    "street": null,
    "office_name": null,
    "office_name_kana": null
  },
  "1227": {
    "zip_code": "8691227",
    "prefecture": "熊本県",
    "prefecture_kana": "クマモトケン",
    "prefecture_code": 43,
    "city": "菊池郡大津町",
    "city_kana": "キクチグンオオヅマチ",
    "town": "新",
    "town_kana": "シン",
    "street": null,
    "office_name": null,
    "office_name_kana": null
  },
  "1231": {
    "zip_code": "8691231",
    "prefecture": "熊本県",
    "prefecture_kana": "クマモトケン",
    "prefecture_code": 43,
    "city": "菊池郡大津町",
    "city_kana": "キクチグンオオヅマチ",
    "town": "平川",
    "town_kana": "ヒラカワ",
    "street": null,
    "office_name": null,
    "office_name_kana": null
  },
  "1232": {
    "zip_code": "8691232",
    "prefecture": "熊本県",
    "prefecture_kana": "クマモトケン",
    "prefecture_code": 43,
    "city": "菊池郡大津町",
    "city_kana": "キクチグンオオヅマチ",
    "town": "高尾野",
    "town_kana": "タカオノ",
    "street": null,
    "office_name": null,
    "office_name_kana": null
  },
  "1233": {
    "zip_code": "8691233",
    "prefecture": "熊本県",
    "prefecture_kana": "クマモトケン",
    "prefecture_code": 43,
    "city": "菊池郡大津町",
    "city_kana": "キクチグンオオヅマチ",
    "town": "大津",
    "town_kana": "オオヅ",
    "street": null,
    "office_name": null,
    "office_name_kana": null
  },
  "1234": {
    "zip_code": "8691234",
    "prefecture": "熊本県",
    "prefecture_kana": "クマモトケン",
    "prefecture_code": 43,
    "city": "菊池郡大津町",
    "city_kana": "キクチグンオオヅマチ",
    "town": "引水",
    "town_kana": "ヒキノミズ",
    "street": null,
    "office_name": null,
    "office_name_kana": null
  },
  "1235": {
    "zip_code": "8691235",
    "prefecture": "熊本県",
    "prefecture_kana": "クマモトケン",
    "prefecture_code": 43,
    "city": "菊池郡大津町",
    "city_kana": "キクチグンオオヅマチ",
    "town": "室",
    "town_kana": "ムロ",
    "street": null,
    "office_name": null,
    "office_name_kana": null
  },
  "1236": {
    "zip_code": "8691236",
    "prefecture": "熊本県",
    "prefecture_kana": "クマモトケン",
    "prefecture_code": 43,
    "city": "菊池郡大津町",
    "city_kana": "キクチグンオオヅマチ",
    "town": "杉水",
    "town_kana": "スギミズ",
    "street": null,
    "office_name": null,
    "office_name_kana": null
  },
  "1237": {
    "zip_code": "8691237",
    "prefecture": "熊本県",
    "prefecture_kana": "クマモトケン",
    "prefecture_code": 43,
    "city": "菊池郡大津町",
    "city_kana": "キクチグンオオヅマチ",
    "town": "美咲野",
    "town_kana": "ミサキノ",
    "street": null,
    "office_name": null,
    "office_name_kana": null
  },
  "1292": {
    "zip_code": "8691292",
    "prefecture": "熊本県",
    "prefecture_kana": null,
    "prefecture_code": null,
    "city": "菊池郡大津町",
    "city_kana": null,
    "town": "大字大津",
    "town_kana": null,
    "street": "１２３３",
    "office_name": "大津町役場",
    "office_name_kana": "オオヅマチヤクバ"
  },
  "1293": {
    "zip_code": "8691293",
    "prefecture": "熊本県",
    "prefecture_kana": null,
    "prefecture_code": null,
    "city": "菊池郡大津町",
    "city_kana": null,
    "town": "大字平川",
    "town_kana": null,
    "street": "１５００",
    "office_name": "本田技研工業　株式会社　熊本製作所",
    "office_name_kana": "ホンダギケンコウギヨウ カブシキガイシヤ クマモトセイサクシヨ"
  },
  "1295": {
    "zip_code": "8691295",
    "prefecture": "熊本県",
    "prefecture_kana": "クマモトケン",
    "prefecture_code": 43,
    "city": "菊池市",
    "city_kana": "キクチシ",
    "town": "旭志小原",
    "town_kana": "キョクシオバル",
    "street": "２４０",
    "office_name": "菊池市役所　旭志総合支所",
    "office_name_kana": "キクチシヤクシヨ キヨクシソウゴウシシヨ"
  },
  "1298": {
    "zip_code": "8691298",
    "prefecture": "熊本県",
    "prefecture_kana": "クマモトケン",
    "prefecture_code": 43,
    "city": "菊池市",
    "city_kana": "キクチシ",
    "town": "旭志川辺",
    "town_kana": "キョクシカワベ",
    "street": "１３１４−１",
    "office_name": "一般財団法人　化学及血清療法研究所　菊池研究所",
    "office_name_kana": "イツパンザイダンホウジン カガクオヨビケツセイリヨウホウケンキユウシヨ キクチケンキユウシヨ"
  },
  "1400": {
    "zip_code": "8691400",
    "prefecture": "熊本県",
    "prefecture_kana": "クマモトケン",
    "prefecture_code": 43,
    "city": "阿蘇郡南阿蘇村",
    "city_kana": "アソグンミナミアソムラ",
    "town": "",
    "town_kana": "",
    "street": null,
    "office_name": null,
    "office_name_kana": null
  },
  "1401": {
    "zip_code": "8691401",
    "prefecture": "熊本県",
    "prefecture_kana": "クマモトケン",
    "prefecture_code": 43,
    "city": "阿蘇郡南阿蘇村",
    "city_kana": "アソグンミナミアソムラ",
    "town": "立野",
    "town_kana": "タテノ",
    "street": null,
    "office_name": null,
    "office_name_kana": null
  },
  "1402": {
    "zip_code": "8691402",
    "prefecture": "熊本県",
    "prefecture_kana": "クマモトケン",
    "prefecture_code": 43,
    "city": "阿蘇郡南阿蘇村",
    "city_kana": "アソグンミナミアソムラ",
    "town": "下野",
    "town_kana": "シモノ",
    "street": null,
    "office_name": null,
    "office_name_kana": null
  },
  "1403": {
    "zip_code": "8691403",
    "prefecture": "熊本県",
    "prefecture_kana": "クマモトケン",
    "prefecture_code": 43,
    "city": "阿蘇郡南阿蘇村",
    "city_kana": "アソグンミナミアソムラ",
    "town": "長野",
    "town_kana": "ナガノ",
    "street": null,
    "office_name": null,
    "office_name_kana": null
  },
  "1404": {
    "zip_code": "8691404",
    "prefecture": "熊本県",
    "prefecture_kana": "クマモトケン",
    "prefecture_code": 43,
    "city": "阿蘇郡南阿蘇村",
    "city_kana": "アソグンミナミアソムラ",
    "town": "河陽",
    "town_kana": "カワヨウ",
    "street": null,
    "office_name": null,
    "office_name_kana": null
  },
  "1411": {
    "zip_code": "8691411",
    "prefecture": "熊本県",
    "prefecture_kana": "クマモトケン",
    "prefecture_code": 43,
    "city": "阿蘇郡南阿蘇村",
    "city_kana": "アソグンミナミアソムラ",
    "town": "河陰",
    "town_kana": "カイン",
    "street": null,
    "office_name": null,
    "office_name_kana": null
  },
  "1412": {
    "zip_code": "8691412",
    "prefecture": "熊本県",
    "prefecture_kana": "クマモトケン",
    "prefecture_code": 43,
    "city": "阿蘇郡南阿蘇村",
    "city_kana": "アソグンミナミアソムラ",
    "town": "久石",
    "town_kana": "ヒサイシ",
    "street": null,
    "office_name": null,
    "office_name_kana": null
  },
  "1501": {
    "zip_code": "8691501",
    "prefecture": "熊本県",
    "prefecture_kana": "クマモトケン",
    "prefecture_code": 43,
    "city": "阿蘇郡南阿蘇村",
    "city_kana": "アソグンミナミアソムラ",
    "town": "両併",
    "town_kana": "リョウヘイ",
    "street": null,
    "office_name": null,
    "office_name_kana": null
  },
  "1502": {
    "zip_code": "8691502",
    "prefecture": "熊本県",
    "prefecture_kana": "クマモトケン",
    "prefecture_code": 43,
    "city": "阿蘇郡南阿蘇村",
    "city_kana": "アソグンミナミアソムラ",
    "town": "白川",
    "town_kana": "シラカワ",
    "street": null,
    "office_name": null,
    "office_name_kana": null
  },
  "1503": {
    "zip_code": "8691503",
    "prefecture": "熊本県",
    "prefecture_kana": "クマモトケン",
    "prefecture_code": 43,
    "city": "阿蘇郡南阿蘇村",
    "city_kana": "アソグンミナミアソムラ",
    "town": "吉田",
    "town_kana": "ヨシダ",
    "street": null,
    "office_name": null,
    "office_name_kana": null
  },
  "1504": {
    "zip_code": "8691504",
    "prefecture": "熊本県",
    "prefecture_kana": "クマモトケン",
    "prefecture_code": 43,
    "city": "阿蘇郡南阿蘇村",
    "city_kana": "アソグンミナミアソムラ",
    "town": "一関",
    "town_kana": "イチゼキ",
    "street": null,
    "office_name": null,
    "office_name_kana": null
  },
  "1505": {
    "zip_code": "8691505",
    "prefecture": "熊本県",
    "prefecture_kana": "クマモトケン",
    "prefecture_code": 43,
    "city": "阿蘇郡南阿蘇村",
    "city_kana": "アソグンミナミアソムラ",
    "town": "中松",
    "town_kana": "ナカマツ",
    "street": null,
    "office_name": null,
    "office_name_kana": null
  },
  "1600": {
    "zip_code": "8691600",
    "prefecture": "熊本県",
    "prefecture_kana": "クマモトケン",
    "prefecture_code": 43,
    "city": "阿蘇郡高森町",
    "city_kana": "アソグンタカモリマチ",
    "town": "",
    "town_kana": "",
    "street": null,
    "office_name": null,
    "office_name_kana": null
  },
  "1601": {
    "zip_code": "8691601",
    "prefecture": "熊本県",
    "prefecture_kana": "クマモトケン",
    "prefecture_code": 43,
    "city": "阿蘇郡高森町",
    "city_kana": "アソグンタカモリマチ",
    "town": "上色見",
    "town_kana": "カミシキミ",
    "street": null,
    "office_name": null,
    "office_name_kana": null
  },
  "1602": {
    "zip_code": "8691602",
    "prefecture": "熊本県",
    "prefecture_kana": "クマモトケン",
    "prefecture_code": 43,
    "city": "阿蘇郡高森町",
    "city_kana": "アソグンタカモリマチ",
    "town": "高森",
    "town_kana": "タカモリ",
    "street": null,
    "office_name": null,
    "office_name_kana": null
  },
  "1603": {
    "zip_code": "8691603",
    "prefecture": "熊本県",
    "prefecture_kana": "クマモトケン",
    "prefecture_code": 43,
    "city": "阿蘇郡高森町",
    "city_kana": "アソグンタカモリマチ",
    "town": "色見",
    "town_kana": "シキミ",
    "street": null,
    "office_name": null,
    "office_name_kana": null
  },
  "1811": {
    "zip_code": "8691811",
    "prefecture": "熊本県",
    "prefecture_kana": "クマモトケン",
    "prefecture_code": 43,
    "city": "阿蘇郡高森町",
    "city_kana": "アソグンタカモリマチ",
    "town": "草部",
    "town_kana": "クサカベ",
    "street": null,
    "office_name": null,
    "office_name_kana": null
  },
  "1812": {
    "zip_code": "8691812",
    "prefecture": "熊本県",
    "prefecture_kana": "クマモトケン",
    "prefecture_code": 43,
    "city": "阿蘇郡高森町",
    "city_kana": "アソグンタカモリマチ",
    "town": "芹口",
    "town_kana": "セリグチ",
    "street": null,
    "office_name": null,
    "office_name_kana": null
  },
  "1813": {
    "zip_code": "8691813",
    "prefecture": "熊本県",
    "prefecture_kana": "クマモトケン",
    "prefecture_code": 43,
    "city": "阿蘇郡高森町",
    "city_kana": "アソグンタカモリマチ",
    "town": "菅山",
    "town_kana": "スガヤマ",
    "street": null,
    "office_name": null,
    "office_name_kana": null
  },
  "1814": {
    "zip_code": "8691814",
    "prefecture": "熊本県",
    "prefecture_kana": "クマモトケン",
    "prefecture_code": 43,
    "city": "阿蘇郡高森町",
    "city_kana": "アソグンタカモリマチ",
    "town": "永野原",
    "town_kana": "ナガノハル",
    "street": null,
    "office_name": null,
    "office_name_kana": null
  },
  "1815": {
    "zip_code": "8691815",
    "prefecture": "熊本県",
    "prefecture_kana": "クマモトケン",
    "prefecture_code": 43,
    "city": "阿蘇郡高森町",
    "city_kana": "アソグンタカモリマチ",
    "town": "下切",
    "town_kana": "シタギリ",
    "street": null,
    "office_name": null,
    "office_name_kana": null
  },
  "1821": {
    "zip_code": "8691821",
    "prefecture": "熊本県",
    "prefecture_kana": "クマモトケン",
    "prefecture_code": 43,
    "city": "阿蘇郡高森町",
    "city_kana": "アソグンタカモリマチ",
    "town": "中",
    "town_kana": "ナカ",
    "street": null,
    "office_name": null,
    "office_name_kana": null
  },
  "1822": {
    "zip_code": "8691822",
    "prefecture": "熊本県",
    "prefecture_kana": "クマモトケン",
    "prefecture_code": 43,
    "city": "阿蘇郡高森町",
    "city_kana": "アソグンタカモリマチ",
    "town": "矢津田",
    "town_kana": "ヤツダ",
    "street": null,
    "office_name": null,
    "office_name_kana": null
  },
  "1823": {
    "zip_code": "8691823",
    "prefecture": "熊本県",
    "prefecture_kana": "クマモトケン",
    "prefecture_code": 43,
    "city": "阿蘇郡高森町",
    "city_kana": "アソグンタカモリマチ",
    "town": "津留",
    "town_kana": "ツル",
    "street": null,
    "office_name": null,
    "office_name_kana": null
  },
  "1824": {
    "zip_code": "8691824",
    "prefecture": "熊本県",
    "prefecture_kana": "クマモトケン",
    "prefecture_code": 43,
    "city": "阿蘇郡高森町",
    "city_kana": "アソグンタカモリマチ",
    "town": "野尻",
    "town_kana": "ノジリ",
    "street": null,
    "office_name": null,
    "office_name_kana": null
  },
  "1825": {
    "zip_code": "8691825",
    "prefecture": "熊本県",
    "prefecture_kana": "クマモトケン",
    "prefecture_code": 43,
    "city": "阿蘇郡高森町",
    "city_kana": "アソグンタカモリマチ",
    "town": "尾下",
    "town_kana": "オクダリ",
    "street": null,
    "office_name": null,
    "office_name_kana": null
  },
  "1826": {
    "zip_code": "8691826",
    "prefecture": "熊本県",
    "prefecture_kana": "クマモトケン",
    "prefecture_code": 43,
    "city": "阿蘇郡高森町",
    "city_kana": "アソグンタカモリマチ",
    "town": "河原",
    "town_kana": "カワラ",
    "street": null,
    "office_name": null,
    "office_name_kana": null
  },
  "2205": [
    {
      "zip_code": "8692205",
      "prefecture": "熊本県",
      "prefecture_kana": "クマモトケン",
      "prefecture_code": 43,
      "city": "阿蘇郡南阿蘇村",
      "city_kana": "アソグンミナミアソムラ",
      "town": "中松",
      "town_kana": "ナカマツ",
      "street": null,
      "office_name": null,
      "office_name_kana": null
    },
    {
      "zip_code": "8692205",
      "prefecture": "熊本県",
      "prefecture_kana": "クマモトケン",
      "prefecture_code": 43,
      "city": "阿蘇郡南阿蘇村",
      "city_kana": "アソグンミナミアソムラ",
      "town": "中松古坊中",
      "town_kana": "ナカマツフルボウチュウ",
      "street": null,
      "office_name": null,
      "office_name_kana": null
    }
  ],
  "2221": {
    "zip_code": "8692221",
    "prefecture": "熊本県",
    "prefecture_kana": "クマモトケン",
    "prefecture_code": 43,
    "city": "阿蘇市",
    "city_kana": "アソシ",
    "town": "役犬原",
    "town_kana": "ヤクインバル",
    "street": null,
    "office_name": null,
    "office_name_kana": null
  },
  "2222": {
    "zip_code": "8692222",
    "prefecture": "熊本県",
    "prefecture_kana": "クマモトケン",
    "prefecture_code": 43,
    "city": "阿蘇市",
    "city_kana": "アソシ",
    "town": "西町",
    "town_kana": "ニシマチ",
    "street": null,
    "office_name": null,
    "office_name_kana": null
  },
  "2223": {
    "zip_code": "8692223",
    "prefecture": "熊本県",
    "prefecture_kana": "クマモトケン",
    "prefecture_code": 43,
    "city": "阿蘇市",
    "city_kana": "アソシ",
    "town": "竹原",
    "town_kana": "タカワラ",
    "street": null,
    "office_name": null,
    "office_name_kana": null
  },
  "2224": {
    "zip_code": "8692224",
    "prefecture": "熊本県",
    "prefecture_kana": "クマモトケン",
    "prefecture_code": 43,
    "city": "阿蘇市",
    "city_kana": "アソシ",
    "town": "蔵原",
    "town_kana": "クラバル",
    "street": null,
    "office_name": null,
    "office_name_kana": null
  },
  "2225": {
    "zip_code": "8692225",
    "prefecture": "熊本県",
    "prefecture_kana": "クマモトケン",
    "prefecture_code": 43,
    "city": "阿蘇市",
    "city_kana": "アソシ",
    "town": "黒川",
    "town_kana": "クロカワ",
    "street": null,
    "office_name": null,
    "office_name_kana": null
  },
  "2226": {
    "zip_code": "8692226",
    "prefecture": "熊本県",
    "prefecture_kana": "クマモトケン",
    "prefecture_code": 43,
    "city": "阿蘇市",
    "city_kana": "アソシ",
    "town": "乙姫",
    "town_kana": "オトヒメ",
    "street": null,
    "office_name": null,
    "office_name_kana": null
  },
  "2231": {
    "zip_code": "8692231",
    "prefecture": "熊本県",
    "prefecture_kana": "クマモトケン",
    "prefecture_code": 43,
    "city": "阿蘇市",
    "city_kana": "アソシ",
    "town": "永草",
    "town_kana": "ナガクサ",
    "street": null,
    "office_name": null,
    "office_name_kana": null
  },
  "2232": {
    "zip_code": "8692232",
    "prefecture": "熊本県",
    "prefecture_kana": "クマモトケン",
    "prefecture_code": 43,
    "city": "阿蘇市",
    "city_kana": "アソシ",
    "town": "赤水",
    "town_kana": "アカミズ",
    "street": null,
    "office_name": null,
    "office_name_kana": null
  },
  "2233": {
    "zip_code": "8692233",
    "prefecture": "熊本県",
    "prefecture_kana": "クマモトケン",
    "prefecture_code": 43,
    "city": "阿蘇市",
    "city_kana": "アソシ",
    "town": "無田",
    "town_kana": "ムタ",
    "street": null,
    "office_name": null,
    "office_name_kana": null
  },
  "2234": {
    "zip_code": "8692234",
    "prefecture": "熊本県",
    "prefecture_kana": "クマモトケン",
    "prefecture_code": 43,
    "city": "阿蘇市",
    "city_kana": "アソシ",
    "town": "車帰",
    "town_kana": "クルマガエリ",
    "street": null,
    "office_name": null,
    "office_name_kana": null
  },
  "2235": {
    "zip_code": "8692235",
    "prefecture": "熊本県",
    "prefecture_kana": "クマモトケン",
    "prefecture_code": 43,
    "city": "阿蘇市",
    "city_kana": "アソシ",
    "town": "狩尾",
    "town_kana": "カリオ",
    "street": null,
    "office_name": null,
    "office_name_kana": null
  },
  "2236": {
    "zip_code": "8692236",
    "prefecture": "熊本県",
    "prefecture_kana": "クマモトケン",
    "prefecture_code": 43,
    "city": "阿蘇市",
    "city_kana": "アソシ",
    "town": "跡ケ瀬",
    "town_kana": "アトガセ",
    "street": null,
    "office_name": null,
    "office_name_kana": null
  },
  "2237": {
    "zip_code": "8692237",
    "prefecture": "熊本県",
    "prefecture_kana": "クマモトケン",
    "prefecture_code": 43,
    "city": "阿蘇市",
    "city_kana": "アソシ",
    "town": "的石",
    "town_kana": "マトイシ",
    "street": null,
    "office_name": null,
    "office_name_kana": null
  },
  "2301": {
    "zip_code": "8692301",
    "prefecture": "熊本県",
    "prefecture_kana": "クマモトケン",
    "prefecture_code": 43,
    "city": "阿蘇市",
    "city_kana": "アソシ",
    "town": "内牧",
    "town_kana": "ウチノマキ",
    "street": null,
    "office_name": null,
    "office_name_kana": null
  },
  "2302": {
    "zip_code": "8692302",
    "prefecture": "熊本県",
    "prefecture_kana": "クマモトケン",
    "prefecture_code": 43,
    "city": "阿蘇市",
    "city_kana": "アソシ",
    "town": "三久保",
    "town_kana": "ミクボ",
    "street": null,
    "office_name": null,
    "office_name_kana": null
  },
  "2303": {
    "zip_code": "8692303",
    "prefecture": "熊本県",
    "prefecture_kana": "クマモトケン",
    "prefecture_code": 43,
    "city": "阿蘇市",
    "city_kana": "アソシ",
    "town": "西小園",
    "town_kana": "ニシコゾノ",
    "street": null,
    "office_name": null,
    "office_name_kana": null
  },
  "2304": {
    "zip_code": "8692304",
    "prefecture": "熊本県",
    "prefecture_kana": "クマモトケン",
    "prefecture_code": 43,
    "city": "阿蘇市",
    "city_kana": "アソシ",
    "town": "西湯浦",
    "town_kana": "ニシユノウラ",
    "street": null,
    "office_name": null,
    "office_name_kana": null
  },
  "2305": {
    "zip_code": "8692305",
    "prefecture": "熊本県",
    "prefecture_kana": "クマモトケン",
    "prefecture_code": 43,
    "city": "阿蘇市",
    "city_kana": "アソシ",
    "town": "湯浦",
    "town_kana": "ユノウラ",
    "street": null,
    "office_name": null,
    "office_name_kana": null
  },
  "2306": {
    "zip_code": "8692306",
    "prefecture": "熊本県",
    "prefecture_kana": "クマモトケン",
    "prefecture_code": 43,
    "city": "阿蘇市",
    "city_kana": "アソシ",
    "town": "南宮原",
    "town_kana": "ミナミミヤバル",
    "street": null,
    "office_name": null,
    "office_name_kana": null
  },
  "2307": {
    "zip_code": "8692307",
    "prefecture": "熊本県",
    "prefecture_kana": "クマモトケン",
    "prefecture_code": 43,
    "city": "阿蘇市",
    "city_kana": "アソシ",
    "town": "小里",
    "town_kana": "オザト",
    "street": null,
    "office_name": null,
    "office_name_kana": null
  },
  "2311": {
    "zip_code": "8692311",
    "prefecture": "熊本県",
    "prefecture_kana": "クマモトケン",
    "prefecture_code": 43,
    "city": "阿蘇市",
    "city_kana": "アソシ",
    "town": "小池",
    "town_kana": "コウジ",
    "street": null,
    "office_name": null,
    "office_name_kana": null
  },
  "2312": {
    "zip_code": "8692312",
    "prefecture": "熊本県",
    "prefecture_kana": "クマモトケン",
    "prefecture_code": 43,
    "city": "阿蘇市",
    "city_kana": "アソシ",
    "town": "小倉",
    "town_kana": "オクラ",
    "street": null,
    "office_name": null,
    "office_name_kana": null
  },
  "2313": {
    "zip_code": "8692313",
    "prefecture": "熊本県",
    "prefecture_kana": "クマモトケン",
    "prefecture_code": 43,
    "city": "阿蘇市",
    "city_kana": "アソシ",
    "town": "山田",
    "town_kana": "ヤマダ",
    "street": null,
    "office_name": null,
    "office_name_kana": null
  },
  "2314": {
    "zip_code": "8692314",
    "prefecture": "熊本県",
    "prefecture_kana": "クマモトケン",
    "prefecture_code": 43,
    "city": "阿蘇市",
    "city_kana": "アソシ",
    "town": "小野田",
    "town_kana": "オノダ",
    "street": null,
    "office_name": null,
    "office_name_kana": null
  },
  "2315": {
    "zip_code": "8692315",
    "prefecture": "熊本県",
    "prefecture_kana": "クマモトケン",
    "prefecture_code": 43,
    "city": "阿蘇市",
    "city_kana": "アソシ",
    "town": "今町",
    "town_kana": "イママチ",
    "street": null,
    "office_name": null,
    "office_name_kana": null
  },
  "2316": {
    "zip_code": "8692316",
    "prefecture": "熊本県",
    "prefecture_kana": "クマモトケン",
    "prefecture_code": 43,
    "city": "阿蘇市",
    "city_kana": "アソシ",
    "town": "黒流町",
    "town_kana": "クロナガレマチ",
    "street": null,
    "office_name": null,
    "office_name_kana": null
  },
  "2400": {
    "zip_code": "8692400",
    "prefecture": "熊本県",
    "prefecture_kana": "クマモトケン",
    "prefecture_code": 43,
    "city": "阿蘇郡南小国町",
    "city_kana": "アソグンミナミオグニマチ",
    "town": "",
    "town_kana": "",
    "street": null,
    "office_name": null,
    "office_name_kana": null
  },
  "2401": {
    "zip_code": "8692401",
    "prefecture": "熊本県",
    "prefecture_kana": "クマモトケン",
    "prefecture_code": 43,
    "city": "阿蘇郡南小国町",
    "city_kana": "アソグンミナミオグニマチ",
    "town": "赤馬場",
    "town_kana": "アカババ",
    "street": null,
    "office_name": null,
    "office_name_kana": null
  },
  "2402": {
    "zip_code": "8692402",
    "prefecture": "熊本県",
    "prefecture_kana": "クマモトケン",
    "prefecture_code": 43,
    "city": "阿蘇郡南小国町",
    "city_kana": "アソグンミナミオグニマチ",
    "town": "満願寺",
    "town_kana": "マンガンジ",
    "street": null,
    "office_name": null,
    "office_name_kana": null
  },
  "2403": {
    "zip_code": "8692403",
    "prefecture": "熊本県",
    "prefecture_kana": "クマモトケン",
    "prefecture_code": 43,
    "city": "阿蘇郡南小国町",
    "city_kana": "アソグンミナミオグニマチ",
    "town": "中原",
    "town_kana": "ナカバル",
    "street": null,
    "office_name": null,
    "office_name_kana": null
  },
  "2413": [
    {
      "zip_code": "8692413",
      "prefecture": "熊本県",
      "prefecture_kana": "クマモトケン",
      "prefecture_code": 43,
      "city": "阿蘇市",
      "city_kana": "アソシ",
      "town": "山田",
      "town_kana": "ヤマダ",
      "street": null,
      "office_name": null,
      "office_name_kana": null
    },
    {
      "zip_code": "8692413",
      "prefecture": "熊本県",
      "prefecture_kana": "クマモトケン",
      "prefecture_code": 43,
      "city": "阿蘇市",
      "city_kana": "アソシ",
      "town": "山田蔵床",
      "town_kana": "ヤマダクラトコ",
      "street": null,
      "office_name": null,
      "office_name_kana": null
    },
    {
      "zip_code": "8692413",
      "prefecture": "熊本県",
      "prefecture_kana": "クマモトケン",
      "prefecture_code": 43,
      "city": "阿蘇市",
      "city_kana": "アソシ",
      "town": "山田橋台",
      "town_kana": "ヤマダハシダイ",
      "street": null,
      "office_name": null,
      "office_name_kana": null
    },
    {
      "zip_code": "8692413",
      "prefecture": "熊本県",
      "prefecture_kana": "クマモトケン",
      "prefecture_code": 43,
      "city": "阿蘇市",
      "city_kana": "アソシ",
      "town": "山田茗ケ原",
      "town_kana": "ヤマダミョウガハラ",
      "street": null,
      "office_name": null,
      "office_name_kana": null
    }
  ],
  "2492": {
    "zip_code": "8692492",
    "prefecture": "熊本県",
    "prefecture_kana": null,
    "prefecture_code": null,
    "city": "阿蘇郡南小国町",
    "city_kana": null,
    "town": "大字赤馬場",
    "town_kana": null,
    "street": "１４３",
    "office_name": "南小国町役場",
    "office_name_kana": "ミナミオグニマチヤクバ"
  },
  "2493": {
    "zip_code": "8692493",
    "prefecture": "熊本県",
    "prefecture_kana": null,
    "prefecture_code": null,
    "city": "阿蘇郡南小国町",
    "city_kana": null,
    "town": "大字満願寺",
    "town_kana": null,
    "street": "５６２１−７",
    "office_name": "三愛観光　株式会社",
    "office_name_kana": "サンアイカンコウ カブシキガイシヤ"
  },
  "2500": {
    "zip_code": "8692500",
    "prefecture": "熊本県",
    "prefecture_kana": "クマモトケン",
    "prefecture_code": 43,
    "city": "阿蘇郡小国町",
    "city_kana": "アソグンオグニマチ",
    "town": "",
    "town_kana": "",
    "street": null,
    "office_name": null,
    "office_name_kana": null
  },
  "2501": {
    "zip_code": "8692501",
    "prefecture": "熊本県",
    "prefecture_kana": "クマモトケン",
    "prefecture_code": 43,
    "city": "阿蘇郡小国町",
    "city_kana": "アソグンオグニマチ",
    "town": "宮原",
    "town_kana": "ミヤハラ",
    "street": null,
    "office_name": null,
    "office_name_kana": null
  },
  "2502": {
    "zip_code": "8692502",
    "prefecture": "熊本県",
    "prefecture_kana": "クマモトケン",
    "prefecture_code": 43,
    "city": "阿蘇郡小国町",
    "city_kana": "アソグンオグニマチ",
    "town": "黒渕",
    "town_kana": "クロブチ",
    "street": null,
    "office_name": null,
    "office_name_kana": null
  },
  "2503": {
    "zip_code": "8692503",
    "prefecture": "熊本県",
    "prefecture_kana": "クマモトケン",
    "prefecture_code": 43,
    "city": "阿蘇郡小国町",
    "city_kana": "アソグンオグニマチ",
    "town": "下城",
    "town_kana": "シモジョウ",
    "street": null,
    "office_name": null,
    "office_name_kana": null
  },
  "2504": {
    "zip_code": "8692504",
    "prefecture": "熊本県",
    "prefecture_kana": "クマモトケン",
    "prefecture_code": 43,
    "city": "阿蘇郡小国町",
    "city_kana": "アソグンオグニマチ",
    "town": "西里",
    "town_kana": "ニシザト",
    "street": null,
    "office_name": null,
    "office_name_kana": null
  },
  "2505": {
    "zip_code": "8692505",
    "prefecture": "熊本県",
    "prefecture_kana": "クマモトケン",
    "prefecture_code": 43,
    "city": "阿蘇郡小国町",
    "city_kana": "アソグンオグニマチ",
    "town": "北里",
    "town_kana": "キタザト",
    "street": null,
    "office_name": null,
    "office_name_kana": null
  },
  "2506": {
    "zip_code": "8692506",
    "prefecture": "熊本県",
    "prefecture_kana": "クマモトケン",
    "prefecture_code": 43,
    "city": "阿蘇郡小国町",
    "city_kana": "アソグンオグニマチ",
    "town": "上田",
    "town_kana": "カミダ",
    "street": null,
    "office_name": null,
    "office_name_kana": null
  },
  "2592": {
    "zip_code": "8692592",
    "prefecture": "熊本県",
    "prefecture_kana": null,
    "prefecture_code": null,
    "city": "阿蘇郡小国町",
    "city_kana": null,
    "town": "大字宮原",
    "town_kana": null,
    "street": "１５６７−１",
    "office_name": "小国町役場",
    "office_name_kana": "オグニマチヤクバ"
  },
  "2593": {
    "zip_code": "8692593",
    "prefecture": "熊本県",
    "prefecture_kana": null,
    "prefecture_code": null,
    "city": "阿蘇郡小国町",
    "city_kana": null,
    "town": "大字宮原",
    "town_kana": null,
    "street": "１８８７−１",
    "office_name": "熊本県立　小国高等学校",
    "office_name_kana": "クマモトケンリツ オグニコウトウガツコウ"
  },
  "2595": {
    "zip_code": "8692595",
    "prefecture": "熊本県",
    "prefecture_kana": null,
    "prefecture_code": null,
    "city": "阿蘇郡小国町",
    "city_kana": null,
    "town": "大字宮原",
    "town_kana": null,
    "street": "２３００",
    "office_name": "阿蘇小国郷農業協同組合",
    "office_name_kana": "アソオグニゴウノウギヨウキヨウドウクミアイ"
  },
  "2598": {
    "zip_code": "8692598",
    "prefecture": "熊本県",
    "prefecture_kana": null,
    "prefecture_code": null,
    "city": "阿蘇郡小国町",
    "city_kana": null,
    "town": "大字下城",
    "town_kana": null,
    "street": "４２２３",
    "office_name": "株式会社　杖立観光ホテルひぜんや",
    "office_name_kana": "カブシキガイシヤ ツエタテカンコウホテルヒゼンヤ"
  },
  "2600": {
    "zip_code": "8692600",
    "prefecture": "熊本県",
    "prefecture_kana": "クマモトケン",
    "prefecture_code": 43,
    "city": "阿蘇市",
    "city_kana": "アソシ",
    "town": "",
    "town_kana": "",
    "street": null,
    "office_name": null,
    "office_name_kana": null
  },
  "2601": {
    "zip_code": "8692601",
    "prefecture": "熊本県",
    "prefecture_kana": "クマモトケン",
    "prefecture_code": 43,
    "city": "阿蘇市",
    "city_kana": "アソシ",
    "town": "一の宮町手野",
    "town_kana": "イチノミヤマチテノ",
    "street": null,
    "office_name": null,
    "office_name_kana": null
  },
  "2602": {
    "zip_code": "8692602",
    "prefecture": "熊本県",
    "prefecture_kana": "クマモトケン",
    "prefecture_code": 43,
    "city": "阿蘇市",
    "city_kana": "アソシ",
    "town": "一の宮町三野",
    "town_kana": "イチノミヤマチサンノ",
    "street": null,
    "office_name": null,
    "office_name_kana": null
  },
  "2603": {
    "zip_code": "8692603",
    "prefecture": "熊本県",
    "prefecture_kana": "クマモトケン",
    "prefecture_code": 43,
    "city": "阿蘇市",
    "city_kana": "アソシ",
    "town": "一の宮町北坂梨",
    "town_kana": "イチノミヤマチキタサカナシ",
    "street": null,
    "office_name": null,
    "office_name_kana": null
  },
  "2604": {
    "zip_code": "8692604",
    "prefecture": "熊本県",
    "prefecture_kana": "クマモトケン",
    "prefecture_code": 43,
    "city": "阿蘇市",
    "city_kana": "アソシ",
    "town": "一の宮町中坂梨",
    "town_kana": "イチノミヤマチナカサカナシ",
    "street": null,
    "office_name": null,
    "office_name_kana": null
  },
  "2611": {
    "zip_code": "8692611",
    "prefecture": "熊本県",
    "prefecture_kana": "クマモトケン",
    "prefecture_code": 43,
    "city": "阿蘇市",
    "city_kana": "アソシ",
    "town": "一の宮町坂梨",
    "town_kana": "イチノミヤマチサカナシ",
    "street": null,
    "office_name": null,
    "office_name_kana": null
  },
  "2612": {
    "zip_code": "8692612",
    "prefecture": "熊本県",
    "prefecture_kana": "クマモトケン",
    "prefecture_code": 43,
    "city": "阿蘇市",
    "city_kana": "アソシ",
    "town": "一の宮町宮地",
    "town_kana": "イチノミヤマチミヤジ",
    "street": null,
    "office_name": null,
    "office_name_kana": null
  },
  "2613": {
    "zip_code": "8692613",
    "prefecture": "熊本県",
    "prefecture_kana": "クマモトケン",
    "prefecture_code": 43,
    "city": "阿蘇市",
    "city_kana": "アソシ",
    "town": "一の宮町中通",
    "town_kana": "イチノミヤマチナカドオリ",
    "street": null,
    "office_name": null,
    "office_name_kana": null
  },
  "2621": {
    "zip_code": "8692621",
    "prefecture": "熊本県",
    "prefecture_kana": "クマモトケン",
    "prefecture_code": 43,
    "city": "阿蘇市",
    "city_kana": "アソシ",
    "town": "一の宮町荻の草",
    "town_kana": "イチノミヤマチオギノクサ",
    "street": null,
    "office_name": null,
    "office_name_kana": null
  },
  "2692": {
    "zip_code": "8692692",
    "prefecture": "熊本県",
    "prefecture_kana": "クマモトケン",
    "prefecture_code": 43,
    "city": "阿蘇市",
    "city_kana": "アソシ",
    "town": "一の宮町宮地",
    "town_kana": "イチノミヤマチミヤジ",
    "street": "６０２９",
    "office_name": "国立　阿蘇青年の家",
    "office_name_kana": "コクリツ アソセイネンノイエ"
  },
  "2693": {
    "zip_code": "8692693",
    "prefecture": "熊本県",
    "prefecture_kana": "クマモトケン",
    "prefecture_code": 43,
    "city": "阿蘇市",
    "city_kana": "アソシ",
    "town": "一の宮町宮地",
    "town_kana": "イチノミヤマチミヤジ",
    "street": "１９４４",
    "office_name": "阿蘇税務署",
    "office_name_kana": "アソゼイムシヨ"
  },
  "2695": {
    "zip_code": "8692695",
    "prefecture": "熊本県",
    "prefecture_kana": "クマモトケン",
    "prefecture_code": 43,
    "city": "阿蘇市",
    "city_kana": "アソシ",
    "town": "一の宮町宮地",
    "town_kana": "イチノミヤマチミヤジ",
    "street": "５０４−１",
    "office_name": "阿蘇市役所",
    "office_name_kana": "アソシヤクシヨ"
  },
  "2696": {
    "zip_code": "8692696",
    "prefecture": "熊本県",
    "prefecture_kana": "クマモトケン",
    "prefecture_code": 43,
    "city": "阿蘇市",
    "city_kana": "アソシ",
    "town": "一の宮町宮地",
    "town_kana": "イチノミヤマチミヤジ",
    "street": "４４２９",
    "office_name": "オムロン阿蘇　（株）",
    "office_name_kana": "オムロンアソ (カブ)"
  },
  "2700": {
    "zip_code": "8692700",
    "prefecture": "熊本県",
    "prefecture_kana": "クマモトケン",
    "prefecture_code": 43,
    "city": "阿蘇郡産山村",
    "city_kana": "アソグンウブヤマムラ",
    "town": "",
    "town_kana": "",
    "street": null,
    "office_name": null,
    "office_name_kana": null
  },
  "2701": {
    "zip_code": "8692701",
    "prefecture": "熊本県",
    "prefecture_kana": "クマモトケン",
    "prefecture_code": 43,
    "city": "阿蘇郡産山村",
    "city_kana": "アソグンウブヤマムラ",
    "town": "片俣",
    "town_kana": "カタマタ",
    "street": null,
    "office_name": null,
    "office_name_kana": null
  },
  "2702": {
    "zip_code": "8692702",
    "prefecture": "熊本県",
    "prefecture_kana": "クマモトケン",
    "prefecture_code": 43,
    "city": "阿蘇郡産山村",
    "city_kana": "アソグンウブヤマムラ",
    "town": "大利",
    "town_kana": "オオリ",
    "street": null,
    "office_name": null,
    "office_name_kana": null
  },
  "2703": {
    "zip_code": "8692703",
    "prefecture": "熊本県",
    "prefecture_kana": "クマモトケン",
    "prefecture_code": 43,
    "city": "阿蘇郡産山村",
    "city_kana": "アソグンウブヤマムラ",
    "town": "山鹿",
    "town_kana": "ヤマガ",
    "street": null,
    "office_name": null,
    "office_name_kana": null
  },
  "2704": {
    "zip_code": "8692704",
    "prefecture": "熊本県",
    "prefecture_kana": "クマモトケン",
    "prefecture_code": 43,
    "city": "阿蘇郡産山村",
    "city_kana": "アソグンウブヤマムラ",
    "town": "田尻",
    "town_kana": "タジリ",
    "street": null,
    "office_name": null,
    "office_name_kana": null
  },
  "2705": {
    "zip_code": "8692705",
    "prefecture": "熊本県",
    "prefecture_kana": "クマモトケン",
    "prefecture_code": 43,
    "city": "阿蘇郡産山村",
    "city_kana": "アソグンウブヤマムラ",
    "town": "産山",
    "town_kana": "ウブヤマ",
    "street": null,
    "office_name": null,
    "office_name_kana": null
  },
  "2801": {
    "zip_code": "8692801",
    "prefecture": "熊本県",
    "prefecture_kana": "クマモトケン",
    "prefecture_code": 43,
    "city": "阿蘇市",
    "city_kana": "アソシ",
    "town": "波野小地野",
    "town_kana": "ナミノショウチノ",
    "street": null,
    "office_name": null,
    "office_name_kana": null
  },
  "2802": {
    "zip_code": "8692802",
    "prefecture": "熊本県",
    "prefecture_kana": "クマモトケン",
    "prefecture_code": 43,
    "city": "阿蘇市",
    "city_kana": "アソシ",
    "town": "波野小園",
    "town_kana": "ナミノオゾノ",
    "street": null,
    "office_name": null,
    "office_name_kana": null
  },
  "2803": {
    "zip_code": "8692803",
    "prefecture": "熊本県",
    "prefecture_kana": "クマモトケン",
    "prefecture_code": 43,
    "city": "阿蘇市",
    "city_kana": "アソシ",
    "town": "波野赤仁田",
    "town_kana": "ナミノアカニタ",
    "street": null,
    "office_name": null,
    "office_name_kana": null
  },
  "2804": {
    "zip_code": "8692804",
    "prefecture": "熊本県",
    "prefecture_kana": "クマモトケン",
    "prefecture_code": 43,
    "city": "阿蘇市",
    "city_kana": "アソシ",
    "town": "波野滝水",
    "town_kana": "ナミノタキミズ",
    "street": null,
    "office_name": null,
    "office_name_kana": null
  },
  "2805": {
    "zip_code": "8692805",
    "prefecture": "熊本県",
    "prefecture_kana": "クマモトケン",
    "prefecture_code": 43,
    "city": "阿蘇市",
    "city_kana": "アソシ",
    "town": "波野中江",
    "town_kana": "ナミノナカエ",
    "street": null,
    "office_name": null,
    "office_name_kana": null
  },
  "2806": {
    "zip_code": "8692806",
    "prefecture": "熊本県",
    "prefecture_kana": "クマモトケン",
    "prefecture_code": 43,
    "city": "阿蘇市",
    "city_kana": "アソシ",
    "town": "波野波野",
    "town_kana": "ナミノナミノ",
    "street": null,
    "office_name": null,
    "office_name_kana": null
  },
  "2807": {
    "zip_code": "8692807",
    "prefecture": "熊本県",
    "prefecture_kana": "クマモトケン",
    "prefecture_code": 43,
    "city": "阿蘇市",
    "city_kana": "アソシ",
    "town": "波野新波野",
    "town_kana": "ナミノシンナミノ",
    "street": null,
    "office_name": null,
    "office_name_kana": null
  },
  "3171": {
    "zip_code": "8693171",
    "prefecture": "熊本県",
    "prefecture_kana": "クマモトケン",
    "prefecture_code": 43,
    "city": "宇土市",
    "city_kana": "ウトシ",
    "town": "長浜町",
    "town_kana": "ナガハママチ",
    "street": null,
    "office_name": null,
    "office_name_kana": null
  },
  "3172": {
    "zip_code": "8693172",
    "prefecture": "熊本県",
    "prefecture_kana": "クマモトケン",
    "prefecture_code": 43,
    "city": "宇土市",
    "city_kana": "ウトシ",
    "town": "上網田町",
    "town_kana": "カミオウダマチ",
    "street": null,
    "office_name": null,
    "office_name_kana": null
  },
  "3173": {
    "zip_code": "8693173",
    "prefecture": "熊本県",
    "prefecture_kana": "クマモトケン",
    "prefecture_code": 43,
    "city": "宇土市",
    "city_kana": "ウトシ",
    "town": "下網田町",
    "town_kana": "シモオウダマチ",
    "street": null,
    "office_name": null,
    "office_name_kana": null
  },
  "3174": {
    "zip_code": "8693174",
    "prefecture": "熊本県",
    "prefecture_kana": "クマモトケン",
    "prefecture_code": 43,
    "city": "宇土市",
    "city_kana": "ウトシ",
    "town": "戸口町",
    "town_kana": "トグチマチ",
    "street": null,
    "office_name": null,
    "office_name_kana": null
  },
  "3175": {
    "zip_code": "8693175",
    "prefecture": "熊本県",
    "prefecture_kana": "クマモトケン",
    "prefecture_code": 43,
    "city": "宇土市",
    "city_kana": "ウトシ",
    "town": "赤瀬町",
    "town_kana": "アカセマチ",
    "street": null,
    "office_name": null,
    "office_name_kana": null
  },
  "3201": {
    "zip_code": "8693201",
    "prefecture": "熊本県",
    "prefecture_kana": "クマモトケン",
    "prefecture_code": 43,
    "city": "宇城市",
    "city_kana": "ウキシ",
    "town": "三角町大田尾",
    "town_kana": "ミスミマチオオタオ",
    "street": null,
    "office_name": null,
    "office_name_kana": null
  },
  "3202": {
    "zip_code": "8693202",
    "prefecture": "熊本県",
    "prefecture_kana": "クマモトケン",
    "prefecture_code": 43,
    "city": "宇城市",
    "city_kana": "ウキシ",
    "town": "三角町郡浦",
    "town_kana": "ミスミマチコオノウラ",
    "street": null,
    "office_name": null,
    "office_name_kana": null
  },
  "3203": {
    "zip_code": "8693203",
    "prefecture": "熊本県",
    "prefecture_kana": "クマモトケン",
    "prefecture_code": 43,
    "city": "宇城市",
    "city_kana": "ウキシ",
    "town": "三角町戸馳",
    "town_kana": "ミスミマチトバセ",
    "street": null,
    "office_name": null,
    "office_name_kana": null
  },
  "3204": {
    "zip_code": "8693204",
    "prefecture": "熊本県",
    "prefecture_kana": "クマモトケン",
    "prefecture_code": 43,
    "city": "宇城市",
    "city_kana": "ウキシ",
    "town": "三角町中村",
    "town_kana": "ミスミマチナカムラ",
    "street": null,
    "office_name": null,
    "office_name_kana": null
  },
  "3205": {
    "zip_code": "8693205",
    "prefecture": "熊本県",
    "prefecture_kana": "クマモトケン",
    "prefecture_code": 43,
    "city": "宇城市",
    "city_kana": "ウキシ",
    "town": "三角町波多",
    "town_kana": "ミスミマチハタ",
    "street": null,
    "office_name": null,
    "office_name_kana": null
  },
  "3206": {
    "zip_code": "8693206",
    "prefecture": "熊本県",
    "prefecture_kana": "クマモトケン",
    "prefecture_code": 43,
    "city": "宇城市",
    "city_kana": "ウキシ",
    "town": "三角町前越",
    "town_kana": "ミスミマチマエゴシ",
    "street": null,
    "office_name": null,
    "office_name_kana": null
  },
  "3207": {
    "zip_code": "8693207",
    "prefecture": "熊本県",
    "prefecture_kana": "クマモトケン",
    "prefecture_code": 43,
    "city": "宇城市",
    "city_kana": "ウキシ",
    "town": "三角町三角浦",
    "town_kana": "ミスミマチミスミウラ",
    "street": null,
    "office_name": null,
    "office_name_kana": null
  },
  "3296": {
    "zip_code": "8693296",
    "prefecture": "熊本県",
    "prefecture_kana": "クマモトケン",
    "prefecture_code": 43,
    "city": "宇城市",
    "city_kana": "ウキシ",
    "town": "三角町波多",
    "town_kana": "ミスミマチハタ",
    "street": "２１３−１",
    "office_name": "宇城市役所　三角支所",
    "office_name_kana": "ウキシヤクシヨ ミスミシシヨ"
  },
  "3411": {
    "zip_code": "8693411",
    "prefecture": "熊本県",
    "prefecture_kana": "クマモトケン",
    "prefecture_code": 43,
    "city": "宇城市",
    "city_kana": "ウキシ",
    "town": "三角町大口",
    "town_kana": "ミスミマチオオクチ",
    "street": null,
    "office_name": null,
    "office_name_kana": null
  },
  "3412": {
    "zip_code": "8693412",
    "prefecture": "熊本県",
    "prefecture_kana": "クマモトケン",
    "prefecture_code": 43,
    "city": "宇城市",
    "city_kana": "ウキシ",
    "town": "三角町手場",
    "town_kana": "ミスミマチテバ",
    "street": null,
    "office_name": null,
    "office_name_kana": null
  },
  "3413": {
    "zip_code": "8693413",
    "prefecture": "熊本県",
    "prefecture_kana": "クマモトケン",
    "prefecture_code": 43,
    "city": "宇城市",
    "city_kana": "ウキシ",
    "town": "三角町里浦",
    "town_kana": "ミスミマチサトノウラ",
    "street": null,
    "office_name": null,
    "office_name_kana": null
  },
  "3471": {
    "zip_code": "8693471",
    "prefecture": "熊本県",
    "prefecture_kana": "クマモトケン",
    "prefecture_code": 43,
    "city": "宇城市",
    "city_kana": "ウキシ",
    "town": "不知火町永尾",
    "town_kana": "シラヌヒマチエイノオ",
    "street": null,
    "office_name": null,
    "office_name_kana": null
  },
  "3472": {
    "zip_code": "8693472",
    "prefecture": "熊本県",
    "prefecture_kana": "クマモトケン",
    "prefecture_code": 43,
    "city": "宇城市",
    "city_kana": "ウキシ",
    "town": "不知火町松合",
    "town_kana": "シラヌヒマチマツアイ",
    "street": null,
    "office_name": null,
    "office_name_kana": null
  },
  "3473": {
    "zip_code": "8693473",
    "prefecture": "熊本県",
    "prefecture_kana": "クマモトケン",
    "prefecture_code": 43,
    "city": "宇城市",
    "city_kana": "ウキシ",
    "town": "不知火町大見",
    "town_kana": "シラヌヒマチオオミ",
    "street": null,
    "office_name": null,
    "office_name_kana": null
  },
  "3600": {
    "zip_code": "8693600",
    "prefecture": "熊本県",
    "prefecture_kana": "クマモトケン",
    "prefecture_code": 43,
    "city": "上天草市",
    "city_kana": "カミアマクサシ",
    "town": "",
    "town_kana": "",
    "street": null,
    "office_name": null,
    "office_name_kana": null
  },
  "3601": {
    "zip_code": "8693601",
    "prefecture": "熊本県",
    "prefecture_kana": "クマモトケン",
    "prefecture_code": 43,
    "city": "上天草市",
    "city_kana": "カミアマクサシ",
    "town": "大矢野町登立",
    "town_kana": "オオヤノマチノボリタテ",
    "street": null,
    "office_name": null,
    "office_name_kana": null
  },
  "3602": {
    "zip_code": "8693602",
    "prefecture": "熊本県",
    "prefecture_kana": "クマモトケン",
    "prefecture_code": 43,
    "city": "上天草市",
    "city_kana": "カミアマクサシ",
    "town": "大矢野町上",
    "town_kana": "オオヤノマチカミ",
    "street": null,
    "office_name": null,
    "office_name_kana": null
  },
  "3603": {
    "zip_code": "8693603",
    "prefecture": "熊本県",
    "prefecture_kana": "クマモトケン",
    "prefecture_code": 43,
    "city": "上天草市",
    "city_kana": "カミアマクサシ",
    "town": "大矢野町中",
    "town_kana": "オオヤノマチナカ",
    "street": null,
    "office_name": null,
    "office_name_kana": null
  },
  "3604": {
    "zip_code": "8693604",
    "prefecture": "熊本県",
    "prefecture_kana": "クマモトケン",
    "prefecture_code": 43,
    "city": "上天草市",
    "city_kana": "カミアマクサシ",
    "town": "大矢野町維和",
    "town_kana": "オオヤノマチイワ",
    "street": null,
    "office_name": null,
    "office_name_kana": null
  },
  "3692": {
    "zip_code": "8693692",
    "prefecture": "熊本県",
    "prefecture_kana": "クマモトケン",
    "prefecture_code": 43,
    "city": "上天草市",
    "city_kana": "カミアマクサシ",
    "town": "大矢野町上",
    "town_kana": "オオヤノマチカミ",
    "street": "１５１４",
    "office_name": "上天草市役所　大矢野庁舎",
    "office_name_kana": "カミアマクサシヤクシヨ オオヤノチヨウシヤ"
  },
  "3711": {
    "zip_code": "8693711",
    "prefecture": "熊本県",
    "prefecture_kana": "クマモトケン",
    "prefecture_code": 43,
    "city": "上天草市",
    "city_kana": "カミアマクサシ",
    "town": "大矢野町湯島",
    "town_kana": "オオヤノマチユシマ",
    "street": null,
    "office_name": null,
    "office_name_kana": null
  },
  "4201": {
    "zip_code": "8694201",
    "prefecture": "熊本県",
    "prefecture_kana": "クマモトケン",
    "prefecture_code": 43,
    "city": "八代市",
    "city_kana": "ヤツシロシ",
    "town": "鏡町鏡村",
    "town_kana": "カガミマチカガミムラ",
    "street": null,
    "office_name": null,
    "office_name_kana": null
  },
  "4202": {
    "zip_code": "8694202",
    "prefecture": "熊本県",
    "prefecture_kana": "クマモトケン",
    "prefecture_code": 43,
    "city": "八代市",
    "city_kana": "ヤツシロシ",
    "town": "鏡町内田",
    "town_kana": "カガミマチウチダ",
    "street": null,
    "office_name": null,
    "office_name_kana": null
  },
  "4203": {
    "zip_code": "8694203",
    "prefecture": "熊本県",
    "prefecture_kana": "クマモトケン",
    "prefecture_code": 43,
    "city": "八代市",
    "city_kana": "ヤツシロシ",
    "town": "鏡町鏡",
    "town_kana": "カガミマチカガミ",
    "street": null,
    "office_name": null,
    "office_name_kana": null
  },
  "4204": {
    "zip_code": "8694204",
    "prefecture": "熊本県",
    "prefecture_kana": "クマモトケン",
    "prefecture_code": 43,
    "city": "八代市",
    "city_kana": "ヤツシロシ",
    "town": "鏡町芝口",
    "town_kana": "カガミマチシバクチ",
    "street": null,
    "office_name": null,
    "office_name_kana": null
  },
  "4205": {
    "zip_code": "8694205",
    "prefecture": "熊本県",
    "prefecture_kana": "クマモトケン",
    "prefecture_code": 43,
    "city": "八代市",
    "city_kana": "ヤツシロシ",
    "town": "鏡町野崎",
    "town_kana": "カガミマチノザキ",
    "street": null,
    "office_name": null,
    "office_name_kana": null
  },
  "4211": {
    "zip_code": "8694211",
    "prefecture": "熊本県",
    "prefecture_kana": "クマモトケン",
    "prefecture_code": 43,
    "city": "八代市",
    "city_kana": "ヤツシロシ",
    "town": "鏡町上鏡",
    "town_kana": "カガミマチカミカガミ",
    "street": null,
    "office_name": null,
    "office_name_kana": null
  },
  "4212": {
    "zip_code": "8694212",
    "prefecture": "熊本県",
    "prefecture_kana": "クマモトケン",
    "prefecture_code": 43,
    "city": "八代市",
    "city_kana": "ヤツシロシ",
    "town": "鏡町下有佐",
    "town_kana": "カガミマチシモアリサ",
    "street": null,
    "office_name": null,
    "office_name_kana": null
  },
  "4213": {
    "zip_code": "8694213",
    "prefecture": "熊本県",
    "prefecture_kana": "クマモトケン",
    "prefecture_code": 43,
    "city": "八代市",
    "city_kana": "ヤツシロシ",
    "town": "鏡町有佐",
    "town_kana": "カガミマチアリサ",
    "street": null,
    "office_name": null,
    "office_name_kana": null
  },
  "4214": {
    "zip_code": "8694214",
    "prefecture": "熊本県",
    "prefecture_kana": "クマモトケン",
    "prefecture_code": 43,
    "city": "八代市",
    "city_kana": "ヤツシロシ",
    "town": "鏡町中島",
    "town_kana": "カガミマチナカシマ",
    "street": null,
    "office_name": null,
    "office_name_kana": null
  },
  "4215": {
    "zip_code": "8694215",
    "prefecture": "熊本県",
    "prefecture_kana": "クマモトケン",
    "prefecture_code": 43,
    "city": "八代市",
    "city_kana": "ヤツシロシ",
    "town": "鏡町下村",
    "town_kana": "カガミマチシモムラ",
    "street": null,
    "office_name": null,
    "office_name_kana": null
  },
  "4221": {
    "zip_code": "8694221",
    "prefecture": "熊本県",
    "prefecture_kana": "クマモトケン",
    "prefecture_code": 43,
    "city": "八代市",
    "city_kana": "ヤツシロシ",
    "town": "鏡町宝出",
    "town_kana": "カガミマチホウデ",
    "street": null,
    "office_name": null,
    "office_name_kana": null
  },
  "4222": {
    "zip_code": "8694222",
    "prefecture": "熊本県",
    "prefecture_kana": "クマモトケン",
    "prefecture_code": 43,
    "city": "八代市",
    "city_kana": "ヤツシロシ",
    "town": "鏡町両出",
    "town_kana": "カガミマチリョウデ",
    "street": null,
    "office_name": null,
    "office_name_kana": null
  },
  "4223": {
    "zip_code": "8694223",
    "prefecture": "熊本県",
    "prefecture_kana": "クマモトケン",
    "prefecture_code": 43,
    "city": "八代市",
    "city_kana": "ヤツシロシ",
    "town": "鏡町貝洲",
    "town_kana": "カガミマチカイズ",
    "street": null,
    "office_name": null,
    "office_name_kana": null
  },
  "4224": {
    "zip_code": "8694224",
    "prefecture": "熊本県",
    "prefecture_kana": "クマモトケン",
    "prefecture_code": 43,
    "city": "八代市",
    "city_kana": "ヤツシロシ",
    "town": "鏡町塩浜",
    "town_kana": "カガミマチシオハマ",
    "street": null,
    "office_name": null,
    "office_name_kana": null
  },
  "4225": {
    "zip_code": "8694225",
    "prefecture": "熊本県",
    "prefecture_kana": "クマモトケン",
    "prefecture_code": 43,
    "city": "八代市",
    "city_kana": "ヤツシロシ",
    "town": "鏡町北新地",
    "town_kana": "カガミマチキタシンチ",
    "street": null,
    "office_name": null,
    "office_name_kana": null
  },
  "4292": {
    "zip_code": "8694292",
    "prefecture": "熊本県",
    "prefecture_kana": "クマモトケン",
    "prefecture_code": 43,
    "city": "八代市",
    "city_kana": "ヤツシロシ",
    "town": "鏡町内田",
    "town_kana": "カガミマチウチダ",
    "street": "４５３番地１",
    "office_name": "八代市　鏡支所",
    "office_name_kana": "ヤツシロシ カガミシシヨ"
  },
  "4301": {
    "zip_code": "8694301",
    "prefecture": "熊本県",
    "prefecture_kana": "クマモトケン",
    "prefecture_code": 43,
    "city": "八代市",
    "city_kana": "ヤツシロシ",
    "town": "東陽町南",
    "town_kana": "トウヨウマチミナミ",
    "street": null,
    "office_name": null,
    "office_name_kana": null
  },
  "4302": {
    "zip_code": "8694302",
    "prefecture": "熊本県",
    "prefecture_kana": "クマモトケン",
    "prefecture_code": 43,
    "city": "八代市",
    "city_kana": "ヤツシロシ",
    "town": "東陽町北",
    "town_kana": "トウヨウマチキタ",
    "street": null,
    "office_name": null,
    "office_name_kana": null
  },
  "4303": {
    "zip_code": "8694303",
    "prefecture": "熊本県",
    "prefecture_kana": "クマモトケン",
    "prefecture_code": 43,
    "city": "八代市",
    "city_kana": "ヤツシロシ",
    "town": "東陽町河俣",
    "town_kana": "トウヨウマチカワマタ",
    "street": null,
    "office_name": null,
    "office_name_kana": null
  },
  "4304": {
    "zip_code": "8694304",
    "prefecture": "熊本県",
    "prefecture_kana": "クマモトケン",
    "prefecture_code": 43,
    "city": "八代市",
    "city_kana": "ヤツシロシ",
    "town": "東陽町小浦",
    "town_kana": "トウヨウマチコウラ",
    "street": null,
    "office_name": null,
    "office_name_kana": null
  },
  "4401": {
    "zip_code": "8694401",
    "prefecture": "熊本県",
    "prefecture_kana": "クマモトケン",
    "prefecture_code": 43,
    "city": "八代市",
    "city_kana": "ヤツシロシ",
    "town": "泉町柿迫",
    "town_kana": "イズミマチカキザコ",
    "street": null,
    "office_name": null,
    "office_name_kana": null
  },
  "4402": {
    "zip_code": "8694402",
    "prefecture": "熊本県",
    "prefecture_kana": "クマモトケン",
    "prefecture_code": 43,
    "city": "八代市",
    "city_kana": "ヤツシロシ",
    "town": "泉町栗木",
    "town_kana": "イズミマチクリギ",
    "street": null,
    "office_name": null,
    "office_name_kana": null
  },
  "4403": {
    "zip_code": "8694403",
    "prefecture": "熊本県",
    "prefecture_kana": "クマモトケン",
    "prefecture_code": 43,
    "city": "八代市",
    "city_kana": "ヤツシロシ",
    "town": "泉町下岳",
    "town_kana": "イズミマチシモダケ",
    "street": null,
    "office_name": null,
    "office_name_kana": null
  },
  "4501": {
    "zip_code": "8694501",
    "prefecture": "熊本県",
    "prefecture_kana": "クマモトケン",
    "prefecture_code": 43,
    "city": "八代市",
    "city_kana": "ヤツシロシ",
    "town": "泉町柿迫",
    "town_kana": "イズミマチカキザコ",
    "street": null,
    "office_name": null,
    "office_name_kana": null
  },
  "4511": {
    "zip_code": "8694511",
    "prefecture": "熊本県",
    "prefecture_kana": "クマモトケン",
    "prefecture_code": 43,
    "city": "八代市",
    "city_kana": "ヤツシロシ",
    "town": "泉町葉木",
    "town_kana": "イズミマチハギ",
    "street": null,
    "office_name": null,
    "office_name_kana": null
  },
  "4512": {
    "zip_code": "8694512",
    "prefecture": "熊本県",
    "prefecture_kana": "クマモトケン",
    "prefecture_code": 43,
    "city": "八代市",
    "city_kana": "ヤツシロシ",
    "town": "泉町樅木",
    "town_kana": "イズミマチモミギ",
    "street": null,
    "office_name": null,
    "office_name_kana": null
  },
  "4513": {
    "zip_code": "8694513",
    "prefecture": "熊本県",
    "prefecture_kana": "クマモトケン",
    "prefecture_code": 43,
    "city": "八代市",
    "city_kana": "ヤツシロシ",
    "town": "泉町久連子",
    "town_kana": "イズミマチクレコ",
    "street": null,
    "office_name": null,
    "office_name_kana": null
  },
  "4514": {
    "zip_code": "8694514",
    "prefecture": "熊本県",
    "prefecture_kana": "クマモトケン",
    "prefecture_code": 43,
    "city": "八代市",
    "city_kana": "ヤツシロシ",
    "town": "泉町椎原",
    "town_kana": "イズミマチシイバル",
    "street": null,
    "office_name": null,
    "office_name_kana": null
  },
  "4515": {
    "zip_code": "8694515",
    "prefecture": "熊本県",
    "prefecture_kana": "クマモトケン",
    "prefecture_code": 43,
    "city": "八代市",
    "city_kana": "ヤツシロシ",
    "town": "泉町仁田尾",
    "town_kana": "イズミマチニタオ",
    "street": null,
    "office_name": null,
    "office_name_kana": null
  },
  "4600": {
    "zip_code": "8694600",
    "prefecture": "熊本県",
    "prefecture_kana": "クマモトケン",
    "prefecture_code": 43,
    "city": "八代郡氷川町",
    "city_kana": "ヤツシログンヒカワチョウ",
    "town": "",
    "town_kana": "",
    "street": null,
    "office_name": null,
    "office_name_kana": null
  },
  "4601": {
    "zip_code": "8694601",
    "prefecture": "熊本県",
    "prefecture_kana": "クマモトケン",
    "prefecture_code": 43,
    "city": "八代郡氷川町",
    "city_kana": "ヤツシログンヒカワチョウ",
    "town": "今",
    "town_kana": "イマ",
    "street": null,
    "office_name": null,
    "office_name_kana": null
  },
  "4602": {
    "zip_code": "8694602",
    "prefecture": "熊本県",
    "prefecture_kana": "クマモトケン",
    "prefecture_code": 43,
    "city": "八代郡氷川町",
    "city_kana": "ヤツシログンヒカワチョウ",
    "town": "宮原",
    "town_kana": "ミヤハラ",
    "street": null,
    "office_name": null,
    "office_name_kana": null
  },
  "4603": {
    "zip_code": "8694603",
    "prefecture": "熊本県",
    "prefecture_kana": "クマモトケン",
    "prefecture_code": 43,
    "city": "八代郡氷川町",
    "city_kana": "ヤツシログンヒカワチョウ",
    "town": "立神",
    "town_kana": "タテガミ",
    "street": null,
    "office_name": null,
    "office_name_kana": null
  },
  "4604": {
    "zip_code": "8694604",
    "prefecture": "熊本県",
    "prefecture_kana": "クマモトケン",
    "prefecture_code": 43,
    "city": "八代郡氷川町",
    "city_kana": "ヤツシログンヒカワチョウ",
    "town": "有佐",
    "town_kana": "アリサ",
    "street": null,
    "office_name": null,
    "office_name_kana": null
  },
  "4605": {
    "zip_code": "8694605",
    "prefecture": "熊本県",
    "prefecture_kana": "クマモトケン",
    "prefecture_code": 43,
    "city": "八代郡氷川町",
    "city_kana": "ヤツシログンヒカワチョウ",
    "town": "中島",
    "town_kana": "ナカシマ",
    "street": null,
    "office_name": null,
    "office_name_kana": null
  },
  "4606": {
    "zip_code": "8694606",
    "prefecture": "熊本県",
    "prefecture_kana": "クマモトケン",
    "prefecture_code": 43,
    "city": "八代郡氷川町",
    "city_kana": "ヤツシログンヒカワチョウ",
    "town": "早尾",
    "town_kana": "ハヤオ",
    "street": null,
    "office_name": null,
    "office_name_kana": null
  },
  "4607": {
    "zip_code": "8694607",
    "prefecture": "熊本県",
    "prefecture_kana": "クマモトケン",
    "prefecture_code": 43,
    "city": "八代郡氷川町",
    "city_kana": "ヤツシログンヒカワチョウ",
    "town": "栫",
    "town_kana": "カコイ",
    "street": null,
    "office_name": null,
    "office_name_kana": null
  },
  "4608": {
    "zip_code": "8694608",
    "prefecture": "熊本県",
    "prefecture_kana": "クマモトケン",
    "prefecture_code": 43,
    "city": "八代郡氷川町",
    "city_kana": "ヤツシログンヒカワチョウ",
    "town": "宮原栄久",
    "town_kana": "ミヤハラエイキュウ",
    "street": null,
    "office_name": null,
    "office_name_kana": null
  },
  "4611": {
    "zip_code": "8694611",
    "prefecture": "熊本県",
    "prefecture_kana": "クマモトケン",
    "prefecture_code": 43,
    "city": "八代市",
    "city_kana": "ヤツシロシ",
    "town": "岡町小路",
    "town_kana": "オカマチショウジ",
    "street": null,
    "office_name": null,
    "office_name_kana": null
  },
  "4612": {
    "zip_code": "8694612",
    "prefecture": "熊本県",
    "prefecture_kana": "クマモトケン",
    "prefecture_code": 43,
    "city": "八代市",
    "city_kana": "ヤツシロシ",
    "town": "岡町中",
    "town_kana": "オカマチナカ",
    "street": null,
    "office_name": null,
    "office_name_kana": null
  },
  "4613": {
    "zip_code": "8694613",
    "prefecture": "熊本県",
    "prefecture_kana": "クマモトケン",
    "prefecture_code": 43,
    "city": "八代市",
    "city_kana": "ヤツシロシ",
    "town": "岡町谷川",
    "town_kana": "オカマチタニガワ",
    "street": null,
    "office_name": null,
    "office_name_kana": null
  },
  "4614": {
    "zip_code": "8694614",
    "prefecture": "熊本県",
    "prefecture_kana": "クマモトケン",
    "prefecture_code": 43,
    "city": "八代市",
    "city_kana": "ヤツシロシ",
    "town": "興善寺町",
    "town_kana": "コウゼンジマチ",
    "street": null,
    "office_name": null,
    "office_name_kana": null
  },
  "4615": {
    "zip_code": "8694615",
    "prefecture": "熊本県",
    "prefecture_kana": "クマモトケン",
    "prefecture_code": 43,
    "city": "八代市",
    "city_kana": "ヤツシロシ",
    "town": "川田町東",
    "town_kana": "カワタマチヒガシ",
    "street": null,
    "office_name": null,
    "office_name_kana": null
  },
  "4616": {
    "zip_code": "8694616",
    "prefecture": "熊本県",
    "prefecture_kana": "クマモトケン",
    "prefecture_code": 43,
    "city": "八代市",
    "city_kana": "ヤツシロシ",
    "town": "川田町西",
    "town_kana": "カワタマチニシ",
    "street": null,
    "office_name": null,
    "office_name_kana": null
  },
  "4701": {
    "zip_code": "8694701",
    "prefecture": "熊本県",
    "prefecture_kana": "クマモトケン",
    "prefecture_code": 43,
    "city": "八代市",
    "city_kana": "ヤツシロシ",
    "town": "千丁町太牟田",
    "town_kana": "センチョウマチオオムタ",
    "street": null,
    "office_name": null,
    "office_name_kana": null
  },
  "4702": {
    "zip_code": "8694702",
    "prefecture": "熊本県",
    "prefecture_kana": "クマモトケン",
    "prefecture_code": 43,
    "city": "八代市",
    "city_kana": "ヤツシロシ",
    "town": "千丁町吉王丸",
    "town_kana": "センチョウマチヨシオウマル",
    "street": null,
    "office_name": null,
    "office_name_kana": null
  },
  "4703": {
    "zip_code": "8694703",
    "prefecture": "熊本県",
    "prefecture_kana": "クマモトケン",
    "prefecture_code": 43,
    "city": "八代市",
    "city_kana": "ヤツシロシ",
    "town": "千丁町新牟田",
    "town_kana": "センチョウマチシンムタ",
    "street": null,
    "office_name": null,
    "office_name_kana": null
  },
  "4704": {
    "zip_code": "8694704",
    "prefecture": "熊本県",
    "prefecture_kana": "クマモトケン",
    "prefecture_code": 43,
    "city": "八代市",
    "city_kana": "ヤツシロシ",
    "town": "千丁町古閑出",
    "town_kana": "センチョウマチコガデ",
    "street": null,
    "office_name": null,
    "office_name_kana": null
  },
  "4721": {
    "zip_code": "8694721",
    "prefecture": "熊本県",
    "prefecture_kana": "クマモトケン",
    "prefecture_code": 43,
    "city": "八代市",
    "city_kana": "ヤツシロシ",
    "town": "昭和日進町",
    "town_kana": "ショウワニッシンマチ",
    "street": null,
    "office_name": null,
    "office_name_kana": null
  },
  "4722": {
    "zip_code": "8694722",
    "prefecture": "熊本県",
    "prefecture_kana": "クマモトケン",
    "prefecture_code": 43,
    "city": "八代市",
    "city_kana": "ヤツシロシ",
    "town": "昭和明徴町",
    "town_kana": "ショウワメイチョウマチ",
    "street": null,
    "office_name": null,
    "office_name_kana": null
  },
  "4723": {
    "zip_code": "8694723",
    "prefecture": "熊本県",
    "prefecture_kana": "クマモトケン",
    "prefecture_code": 43,
    "city": "八代市",
    "city_kana": "ヤツシロシ",
    "town": "昭和同仁町",
    "town_kana": "ショウワドウジンマチ",
    "street": null,
    "office_name": null,
    "office_name_kana": null
  },
  "4801": {
    "zip_code": "8694801",
    "prefecture": "熊本県",
    "prefecture_kana": "クマモトケン",
    "prefecture_code": 43,
    "city": "八代郡氷川町",
    "city_kana": "ヤツシログンヒカワチョウ",
    "town": "新田",
    "town_kana": "シンデン",
    "street": null,
    "office_name": null,
    "office_name_kana": null
  },
  "4802": {
    "zip_code": "8694802",
    "prefecture": "熊本県",
    "prefecture_kana": "クマモトケン",
    "prefecture_code": 43,
    "city": "八代郡氷川町",
    "city_kana": "ヤツシログンヒカワチョウ",
    "town": "高塚",
    "town_kana": "タカツカ",
    "street": null,
    "office_name": null,
    "office_name_kana": null
  },
  "4803": {
    "zip_code": "8694803",
    "prefecture": "熊本県",
    "prefecture_kana": "クマモトケン",
    "prefecture_code": 43,
    "city": "八代郡氷川町",
    "city_kana": "ヤツシログンヒカワチョウ",
    "town": "吉本",
    "town_kana": "ヨシモト",
    "street": null,
    "office_name": null,
    "office_name_kana": null
  },
  "4804": {
    "zip_code": "8694804",
    "prefecture": "熊本県",
    "prefecture_kana": "クマモトケン",
    "prefecture_code": 43,
    "city": "八代郡氷川町",
    "city_kana": "ヤツシログンヒカワチョウ",
    "town": "大野",
    "town_kana": "オオノ",
    "street": null,
    "office_name": null,
    "office_name_kana": null
  },
  "4805": {
    "zip_code": "8694805",
    "prefecture": "熊本県",
    "prefecture_kana": "クマモトケン",
    "prefecture_code": 43,
    "city": "八代郡氷川町",
    "city_kana": "ヤツシログンヒカワチョウ",
    "town": "野津",
    "town_kana": "ノヅ",
    "street": null,
    "office_name": null,
    "office_name_kana": null
  },
  "4806": {
    "zip_code": "8694806",
    "prefecture": "熊本県",
    "prefecture_kana": "クマモトケン",
    "prefecture_code": 43,
    "city": "八代郡氷川町",
    "city_kana": "ヤツシログンヒカワチョウ",
    "town": "河原",
    "town_kana": "カワハラ",
    "street": null,
    "office_name": null,
    "office_name_kana": null
  },
  "4811": {
    "zip_code": "8694811",
    "prefecture": "熊本県",
    "prefecture_kana": "クマモトケン",
    "prefecture_code": 43,
    "city": "八代郡氷川町",
    "city_kana": "ヤツシログンヒカワチョウ",
    "town": "鹿野",
    "town_kana": "カノ",
    "street": null,
    "office_name": null,
    "office_name_kana": null
  },
  "4812": {
    "zip_code": "8694812",
    "prefecture": "熊本県",
    "prefecture_kana": "クマモトケン",
    "prefecture_code": 43,
    "city": "八代郡氷川町",
    "city_kana": "ヤツシログンヒカワチョウ",
    "town": "網道",
    "town_kana": "アミドウ",
    "street": null,
    "office_name": null,
    "office_name_kana": null
  },
  "4813": {
    "zip_code": "8694813",
    "prefecture": "熊本県",
    "prefecture_kana": "クマモトケン",
    "prefecture_code": 43,
    "city": "八代郡氷川町",
    "city_kana": "ヤツシログンヒカワチョウ",
    "town": "若洲",
    "town_kana": "ワカス",
    "street": null,
    "office_name": null,
    "office_name_kana": null
  },
  "4814": {
    "zip_code": "8694814",
    "prefecture": "熊本県",
    "prefecture_kana": "クマモトケン",
    "prefecture_code": 43,
    "city": "八代郡氷川町",
    "city_kana": "ヤツシログンヒカワチョウ",
    "town": "島地",
    "town_kana": "シマチ",
    "street": null,
    "office_name": null,
    "office_name_kana": null
  },
  "4815": {
    "zip_code": "8694815",
    "prefecture": "熊本県",
    "prefecture_kana": "クマモトケン",
    "prefecture_code": 43,
    "city": "八代郡氷川町",
    "city_kana": "ヤツシログンヒカワチョウ",
    "town": "鹿島",
    "town_kana": "カシマ",
    "street": null,
    "office_name": null,
    "office_name_kana": null
  },
  "5131": {
    "zip_code": "8695131",
    "prefecture": "熊本県",
    "prefecture_kana": "クマモトケン",
    "prefecture_code": 43,
    "city": "八代市",
    "city_kana": "ヤツシロシ",
    "town": "日奈久馬越町",
    "town_kana": "ヒナグマゴシマチ",
    "street": null,
    "office_name": null,
    "office_name_kana": null
  },
  "5132": {
    "zip_code": "8695132",
    "prefecture": "熊本県",
    "prefecture_kana": "クマモトケン",
    "prefecture_code": 43,
    "city": "八代市",
    "city_kana": "ヤツシロシ",
    "town": "日奈久下西町",
    "town_kana": "ヒナグシモニシマチ",
    "street": null,
    "office_name": null,
    "office_name_kana": null
  },
  "5133": {
    "zip_code": "8695133",
    "prefecture": "熊本県",
    "prefecture_kana": "クマモトケン",
    "prefecture_code": 43,
    "city": "八代市",
    "city_kana": "ヤツシロシ",
    "town": "日奈久中西町",
    "town_kana": "ヒナグナカニシマチ",
    "street": null,
    "office_name": null,
    "office_name_kana": null
  },
  "5134": {
    "zip_code": "8695134",
    "prefecture": "熊本県",
    "prefecture_kana": "クマモトケン",
    "prefecture_code": 43,
    "city": "八代市",
    "city_kana": "ヤツシロシ",
    "town": "日奈久上西町",
    "town_kana": "ヒナグカミニシマチ",
    "street": null,
    "office_name": null,
    "office_name_kana": null
  },
  "5135": {
    "zip_code": "8695135",
    "prefecture": "熊本県",
    "prefecture_kana": "クマモトケン",
    "prefecture_code": 43,
    "city": "八代市",
    "city_kana": "ヤツシロシ",
    "town": "日奈久中町",
    "town_kana": "ヒナグナカマチ",
    "street": null,
    "office_name": null,
    "office_name_kana": null
  },
  "5136": {
    "zip_code": "8695136",
    "prefecture": "熊本県",
    "prefecture_kana": "クマモトケン",
    "prefecture_code": 43,
    "city": "八代市",
    "city_kana": "ヤツシロシ",
    "town": "日奈久東町",
    "town_kana": "ヒナグヒガシマチ",
    "street": null,
    "office_name": null,
    "office_name_kana": null
  },
  "5137": {
    "zip_code": "8695137",
    "prefecture": "熊本県",
    "prefecture_kana": "クマモトケン",
    "prefecture_code": 43,
    "city": "八代市",
    "city_kana": "ヤツシロシ",
    "town": "日奈久浜町",
    "town_kana": "ヒナグハママチ",
    "street": null,
    "office_name": null,
    "office_name_kana": null
  },
  "5138": {
    "zip_code": "8695138",
    "prefecture": "熊本県",
    "prefecture_kana": "クマモトケン",
    "prefecture_code": 43,
    "city": "八代市",
    "city_kana": "ヤツシロシ",
    "town": "日奈久平成町",
    "town_kana": "ヒナグヘイセイマチ",
    "street": null,
    "office_name": null,
    "office_name_kana": null
  },
  "5141": {
    "zip_code": "8695141",
    "prefecture": "熊本県",
    "prefecture_kana": "クマモトケン",
    "prefecture_code": 43,
    "city": "八代市",
    "city_kana": "ヤツシロシ",
    "town": "日奈久塩南町",
    "town_kana": "ヒナグシオミナミマチ",
    "street": null,
    "office_name": null,
    "office_name_kana": null
  },
  "5142": {
    "zip_code": "8695142",
    "prefecture": "熊本県",
    "prefecture_kana": "クマモトケン",
    "prefecture_code": 43,
    "city": "八代市",
    "city_kana": "ヤツシロシ",
    "town": "日奈久塩北町",
    "town_kana": "ヒナグシオキタマチ",
    "street": null,
    "office_name": null,
    "office_name_kana": null
  },
  "5143": {
    "zip_code": "8695143",
    "prefecture": "熊本県",
    "prefecture_kana": "クマモトケン",
    "prefecture_code": 43,
    "city": "八代市",
    "city_kana": "ヤツシロシ",
    "town": "日奈久竹之内町",
    "town_kana": "ヒナグタケノウチマチ",
    "street": null,
    "office_name": null,
    "office_name_kana": null
  },
  "5144": {
    "zip_code": "8695144",
    "prefecture": "熊本県",
    "prefecture_kana": "クマモトケン",
    "prefecture_code": 43,
    "city": "八代市",
    "city_kana": "ヤツシロシ",
    "town": "日奈久山下町",
    "town_kana": "ヒナグヤマシタマチ",
    "street": null,
    "office_name": null,
    "office_name_kana": null
  },
  "5145": {
    "zip_code": "8695145",
    "prefecture": "熊本県",
    "prefecture_kana": "クマモトケン",
    "prefecture_code": 43,
    "city": "八代市",
    "city_kana": "ヤツシロシ",
    "town": "日奈久新田町",
    "town_kana": "ヒナグシンデンマチ",
    "street": null,
    "office_name": null,
    "office_name_kana": null
  },
  "5146": {
    "zip_code": "8695146",
    "prefecture": "熊本県",
    "prefecture_kana": "クマモトケン",
    "prefecture_code": 43,
    "city": "八代市",
    "city_kana": "ヤツシロシ",
    "town": "日奈久大坪町",
    "town_kana": "ヒナグオオツボマチ",
    "street": null,
    "office_name": null,
    "office_name_kana": null
  },
  "5147": {
    "zip_code": "8695147",
    "prefecture": "熊本県",
    "prefecture_kana": "クマモトケン",
    "prefecture_code": 43,
    "city": "八代市",
    "city_kana": "ヤツシロシ",
    "town": "日奈久新開町",
    "town_kana": "ヒナグシンカイマチ",
    "street": null,
    "office_name": null,
    "office_name_kana": null
  },
  "5148": {
    "zip_code": "8695148",
    "prefecture": "熊本県",
    "prefecture_kana": "クマモトケン",
    "prefecture_code": 43,
    "city": "八代市",
    "city_kana": "ヤツシロシ",
    "town": "日奈久栄町",
    "town_kana": "ヒナグサカエマチ",
    "street": null,
    "office_name": null,
    "office_name_kana": null
  },
  "5151": {
    "zip_code": "8695151",
    "prefecture": "熊本県",
    "prefecture_kana": "クマモトケン",
    "prefecture_code": 43,
    "city": "八代市",
    "city_kana": "ヤツシロシ",
    "town": "敷川内町",
    "town_kana": "シキガワチマチ",
    "street": null,
    "office_name": null,
    "office_name_kana": null
  },
  "5152": {
    "zip_code": "8695152",
    "prefecture": "熊本県",
    "prefecture_kana": "クマモトケン",
    "prefecture_code": 43,
    "city": "八代市",
    "city_kana": "ヤツシロシ",
    "town": "揚町",
    "town_kana": "アゲマチ",
    "street": null,
    "office_name": null,
    "office_name_kana": null
  },
  "5153": {
    "zip_code": "8695153",
    "prefecture": "熊本県",
    "prefecture_kana": "クマモトケン",
    "prefecture_code": 43,
    "city": "八代市",
    "city_kana": "ヤツシロシ",
    "town": "催合町",
    "town_kana": "モヤイマチ",
    "street": null,
    "office_name": null,
    "office_name_kana": null
  },
  "5154": {
    "zip_code": "8695154",
    "prefecture": "熊本県",
    "prefecture_kana": "クマモトケン",
    "prefecture_code": 43,
    "city": "八代市",
    "city_kana": "ヤツシロシ",
    "town": "高植本町",
    "town_kana": "タカウエホンマチ",
    "street": null,
    "office_name": null,
    "office_name_kana": null
  },
  "5155": {
    "zip_code": "8695155",
    "prefecture": "熊本県",
    "prefecture_kana": "クマモトケン",
    "prefecture_code": 43,
    "city": "八代市",
    "city_kana": "ヤツシロシ",
    "town": "水島町",
    "town_kana": "ミズシママチ",
    "street": null,
    "office_name": null,
    "office_name_kana": null
  },
  "5161": {
    "zip_code": "8695161",
    "prefecture": "熊本県",
    "prefecture_kana": "クマモトケン",
    "prefecture_code": 43,
    "city": "八代市",
    "city_kana": "ヤツシロシ",
    "town": "葭牟田町",
    "town_kana": "ヨシムタマチ",
    "street": null,
    "office_name": null,
    "office_name_kana": null
  },
  "5162": {
    "zip_code": "8695162",
    "prefecture": "熊本県",
    "prefecture_kana": "クマモトケン",
    "prefecture_code": 43,
    "city": "八代市",
    "city_kana": "ヤツシロシ",
    "town": "北原町",
    "town_kana": "キタバラマチ",
    "street": null,
    "office_name": null,
    "office_name_kana": null
  },
  "5163": {
    "zip_code": "8695163",
    "prefecture": "熊本県",
    "prefecture_kana": "クマモトケン",
    "prefecture_code": 43,
    "city": "八代市",
    "city_kana": "ヤツシロシ",
    "town": "三江湖町",
    "town_kana": "ミツエゴマチ",
    "street": null,
    "office_name": null,
    "office_name_kana": null
  },
  "5164": {
    "zip_code": "8695164",
    "prefecture": "熊本県",
    "prefecture_kana": "クマモトケン",
    "prefecture_code": 43,
    "city": "八代市",
    "city_kana": "ヤツシロシ",
    "town": "鼠蔵町",
    "town_kana": "ソゾウマチ",
    "street": null,
    "office_name": null,
    "office_name_kana": null
  },
  "5165": {
    "zip_code": "8695165",
    "prefecture": "熊本県",
    "prefecture_kana": "クマモトケン",
    "prefecture_code": 43,
    "city": "八代市",
    "city_kana": "ヤツシロシ",
    "town": "南平和町",
    "town_kana": "ミナミヘイワマチ",
    "street": null,
    "office_name": null,
    "office_name_kana": null
  },
  "5166": {
    "zip_code": "8695166",
    "prefecture": "熊本県",
    "prefecture_kana": "クマモトケン",
    "prefecture_code": 43,
    "city": "八代市",
    "city_kana": "ヤツシロシ",
    "town": "北平和町",
    "town_kana": "キタヘイワマチ",
    "street": null,
    "office_name": null,
    "office_name_kana": null
  },
  "5171": {
    "zip_code": "8695171",
    "prefecture": "熊本県",
    "prefecture_kana": "クマモトケン",
    "prefecture_code": 43,
    "city": "八代市",
    "city_kana": "ヤツシロシ",
    "town": "二見洲口町",
    "town_kana": "フタミスグチマチ",
    "street": null,
    "office_name": null,
    "office_name_kana": null
  },
  "5172": {
    "zip_code": "8695172",
    "prefecture": "熊本県",
    "prefecture_kana": "クマモトケン",
    "prefecture_code": 43,
    "city": "八代市",
    "city_kana": "ヤツシロシ",
    "town": "二見本町",
    "town_kana": "フタミホンマチ",
    "street": null,
    "office_name": null,
    "office_name_kana": null
  },
  "5173": {
    "zip_code": "8695173",
    "prefecture": "熊本県",
    "prefecture_kana": "クマモトケン",
    "prefecture_code": 43,
    "city": "八代市",
    "city_kana": "ヤツシロシ",
    "town": "二見赤松町",
    "town_kana": "フタミアカマツマチ",
    "street": null,
    "office_name": null,
    "office_name_kana": null
  },
  "5174": {
    "zip_code": "8695174",
    "prefecture": "熊本県",
    "prefecture_kana": "クマモトケン",
    "prefecture_code": 43,
    "city": "八代市",
    "city_kana": "ヤツシロシ",
    "town": "二見下大野町",
    "town_kana": "フタミシモオオノマチ",
    "street": null,
    "office_name": null,
    "office_name_kana": null
  },
  "5175": {
    "zip_code": "8695175",
    "prefecture": "熊本県",
    "prefecture_kana": "クマモトケン",
    "prefecture_code": 43,
    "city": "八代市",
    "city_kana": "ヤツシロシ",
    "town": "二見野田崎町",
    "town_kana": "フタミノタザキマチ",
    "street": null,
    "office_name": null,
    "office_name_kana": null
  },
  "5221": {
    "zip_code": "8695221",
    "prefecture": "熊本県",
    "prefecture_kana": "クマモトケン",
    "prefecture_code": 43,
    "city": "八代市",
    "city_kana": "ヤツシロシ",
    "town": "坂本町川嶽",
    "town_kana": "サカモトマチカワタケ",
    "street": null,
    "office_name": null,
    "office_name_kana": null
  },
  "5222": {
    "zip_code": "8695222",
    "prefecture": "熊本県",
    "prefecture_kana": "クマモトケン",
    "prefecture_code": 43,
    "city": "八代市",
    "city_kana": "ヤツシロシ",
    "town": "坂本町鶴喰",
    "town_kana": "サカモトマチツルバミ",
    "street": null,
    "office_name": null,
    "office_name_kana": null
  },
  "5223": {
    "zip_code": "8695223",
    "prefecture": "熊本県",
    "prefecture_kana": "クマモトケン",
    "prefecture_code": 43,
    "city": "八代市",
    "city_kana": "ヤツシロシ",
    "town": "坂本町田上",
    "town_kana": "サカモトマチタガミ",
    "street": null,
    "office_name": null,
    "office_name_kana": null
  },
  "5224": {
    "zip_code": "8695224",
    "prefecture": "熊本県",
    "prefecture_kana": "クマモトケン",
    "prefecture_code": 43,
    "city": "八代市",
    "city_kana": "ヤツシロシ",
    "town": "坂本町百済来下",
    "town_kana": "サカモトマチクダラギシモ",
    "street": null,
    "office_name": null,
    "office_name_kana": null
  },
  "5225": {
    "zip_code": "8695225",
    "prefecture": "熊本県",
    "prefecture_kana": "クマモトケン",
    "prefecture_code": 43,
    "city": "八代市",
    "city_kana": "ヤツシロシ",
    "town": "坂本町百済来上",
    "town_kana": "サカモトマチクダラギカミ",
    "street": null,
    "office_name": null,
    "office_name_kana": null
  },
  "5301": {
    "zip_code": "8695301",
    "prefecture": "熊本県",
    "prefecture_kana": "クマモトケン",
    "prefecture_code": 43,
    "city": "葦北郡芦北町",
    "city_kana": "アシキタグンアシキタマチ",
    "town": "横居木",
    "town_kana": "ヨコイギ",
    "street": null,
    "office_name": null,
    "office_name_kana": null
  },
  "5302": {
    "zip_code": "8695302",
    "prefecture": "熊本県",
    "prefecture_kana": "クマモトケン",
    "prefecture_code": 43,
    "city": "葦北郡芦北町",
    "city_kana": "アシキタグンアシキタマチ",
    "town": "田浦",
    "town_kana": "タノウラ",
    "street": null,
    "office_name": null,
    "office_name_kana": null
  },
  "5303": {
    "zip_code": "8695303",
    "prefecture": "熊本県",
    "prefecture_kana": "クマモトケン",
    "prefecture_code": 43,
    "city": "葦北郡芦北町",
    "city_kana": "アシキタグンアシキタマチ",
    "town": "小田浦",
    "town_kana": "コダノウラ",
    "street": null,
    "office_name": null,
    "office_name_kana": null
  },
  "5304": {
    "zip_code": "8695304",
    "prefecture": "熊本県",
    "prefecture_kana": "クマモトケン",
    "prefecture_code": 43,
    "city": "葦北郡芦北町",
    "city_kana": "アシキタグンアシキタマチ",
    "town": "海浦",
    "town_kana": "ウミノウラ",
    "street": null,
    "office_name": null,
    "office_name_kana": null
  },
  "5305": {
    "zip_code": "8695305",
    "prefecture": "熊本県",
    "prefecture_kana": "クマモトケン",
    "prefecture_code": 43,
    "city": "葦北郡芦北町",
    "city_kana": "アシキタグンアシキタマチ",
    "town": "田浦町",
    "town_kana": "タノウラマチ",
    "street": null,
    "office_name": null,
    "office_name_kana": null
  },
  "5306": {
    "zip_code": "8695306",
    "prefecture": "熊本県",
    "prefecture_kana": "クマモトケン",
    "prefecture_code": 43,
    "city": "葦北郡芦北町",
    "city_kana": "アシキタグンアシキタマチ",
    "town": "波多島",
    "town_kana": "ハタトウ",
    "street": null,
    "office_name": null,
    "office_name_kana": null
  },
  "5307": {
    "zip_code": "8695307",
    "prefecture": "熊本県",
    "prefecture_kana": "クマモトケン",
    "prefecture_code": 43,
    "city": "葦北郡芦北町",
    "city_kana": "アシキタグンアシキタマチ",
    "town": "井牟田",
    "town_kana": "イムタ",
    "street": null,
    "office_name": null,
    "office_name_kana": null
  },
  "5392": {
    "zip_code": "8695392",
    "prefecture": "熊本県",
    "prefecture_kana": null,
    "prefecture_code": null,
    "city": "葦北郡芦北町",
    "city_kana": null,
    "town": "大字田浦町",
    "town_kana": null,
    "street": "６５３",
    "office_name": "芦北町役場　田浦基幹支所",
    "office_name_kana": "アシキタマチヤクバ タノウラキカンシシヨ"
  },
  "5393": {
    "zip_code": "8695393",
    "prefecture": "熊本県",
    "prefecture_kana": null,
    "prefecture_code": null,
    "city": "葦北郡芦北町",
    "city_kana": null,
    "town": "大字小田浦",
    "town_kana": null,
    "street": "９５９−１",
    "office_name": "東海カーボン　株式会社　田浦工場",
    "office_name_kana": "トウカイカ-ボン カブシキガイシヤ タノウラコウジヨウ"
  },
  "5400": {
    "zip_code": "8695400",
    "prefecture": "熊本県",
    "prefecture_kana": "クマモトケン",
    "prefecture_code": 43,
    "city": "葦北郡芦北町",
    "city_kana": "アシキタグンアシキタマチ",
    "town": "",
    "town_kana": "",
    "street": null,
    "office_name": null,
    "office_name_kana": null
  },
  "5421": {
    "zip_code": "8695421",
    "prefecture": "熊本県",
    "prefecture_kana": "クマモトケン",
    "prefecture_code": 43,
    "city": "葦北郡芦北町",
    "city_kana": "アシキタグンアシキタマチ",
    "town": "立川",
    "town_kana": "タチカワ",
    "street": null,
    "office_name": null,
    "office_name_kana": null
  },
  "5422": {
    "zip_code": "8695422",
    "prefecture": "熊本県",
    "prefecture_kana": "クマモトケン",
    "prefecture_code": 43,
    "city": "葦北郡芦北町",
    "city_kana": "アシキタグンアシキタマチ",
    "town": "大尼田",
    "town_kana": "オオニタ",
    "street": null,
    "office_name": null,
    "office_name_kana": null
  },
  "5423": {
    "zip_code": "8695423",
    "prefecture": "熊本県",
    "prefecture_kana": "クマモトケン",
    "prefecture_code": 43,
    "city": "葦北郡芦北町",
    "city_kana": "アシキタグンアシキタマチ",
    "town": "松生",
    "town_kana": "マツバエ",
    "street": null,
    "office_name": null,
    "office_name_kana": null
  },
  "5424": {
    "zip_code": "8695424",
    "prefecture": "熊本県",
    "prefecture_kana": "クマモトケン",
    "prefecture_code": 43,
    "city": "葦北郡芦北町",
    "city_kana": "アシキタグンアシキタマチ",
    "town": "伏木氏",
    "town_kana": "フシキ",
    "street": null,
    "office_name": null,
    "office_name_kana": null
  },
  "5431": {
    "zip_code": "8695431",
    "prefecture": "熊本県",
    "prefecture_kana": "クマモトケン",
    "prefecture_code": 43,
    "city": "葦北郡芦北町",
    "city_kana": "アシキタグンアシキタマチ",
    "town": "乙千屋",
    "town_kana": "オトジヤ",
    "street": null,
    "office_name": null,
    "office_name_kana": null
  },
  "5432": {
    "zip_code": "8695432",
    "prefecture": "熊本県",
    "prefecture_kana": "クマモトケン",
    "prefecture_code": 43,
    "city": "葦北郡芦北町",
    "city_kana": "アシキタグンアシキタマチ",
    "town": "宮浦",
    "town_kana": "ミヤノウラ",
    "street": null,
    "office_name": null,
    "office_name_kana": null
  },
  "5433": {
    "zip_code": "8695433",
    "prefecture": "熊本県",
    "prefecture_kana": "クマモトケン",
    "prefecture_code": 43,
    "city": "葦北郡芦北町",
    "city_kana": "アシキタグンアシキタマチ",
    "town": "八幡",
    "town_kana": "ヤハタ",
    "street": null,
    "office_name": null,
    "office_name_kana": null
  },
  "5434": {
    "zip_code": "8695434",
    "prefecture": "熊本県",
    "prefecture_kana": "クマモトケン",
    "prefecture_code": 43,
    "city": "葦北郡芦北町",
    "city_kana": "アシキタグンアシキタマチ",
    "town": "桑原",
    "town_kana": "クワバラ",
    "street": null,
    "office_name": null,
    "office_name_kana": null
  },
  "5441": {
    "zip_code": "8695441",
    "prefecture": "熊本県",
    "prefecture_kana": "クマモトケン",
    "prefecture_code": 43,
    "city": "葦北郡芦北町",
    "city_kana": "アシキタグンアシキタマチ",
    "town": "佐敷",
    "town_kana": "サシキ",
    "street": null,
    "office_name": null,
    "office_name_kana": null
  },
  "5442": {
    "zip_code": "8695442",
    "prefecture": "熊本県",
    "prefecture_kana": "クマモトケン",
    "prefecture_code": 43,
    "city": "葦北郡芦北町",
    "city_kana": "アシキタグンアシキタマチ",
    "town": "花岡",
    "town_kana": "ハナオカ",
    "street": null,
    "office_name": null,
    "office_name_kana": null
  },
  "5443": {
    "zip_code": "8695443",
    "prefecture": "熊本県",
    "prefecture_kana": "クマモトケン",
    "prefecture_code": 43,
    "city": "葦北郡芦北町",
    "city_kana": "アシキタグンアシキタマチ",
    "town": "田川",
    "town_kana": "タガワ",
    "street": null,
    "office_name": null,
    "office_name_kana": null
  },
  "5451": {
    "zip_code": "8695451",
    "prefecture": "熊本県",
    "prefecture_kana": "クマモトケン",
    "prefecture_code": 43,
    "city": "葦北郡芦北町",
    "city_kana": "アシキタグンアシキタマチ",
    "town": "道川内",
    "town_kana": "ミチガワチ",
    "street": null,
    "office_name": null,
    "office_name_kana": null
  },
  "5452": {
    "zip_code": "8695452",
    "prefecture": "熊本県",
    "prefecture_kana": "クマモトケン",
    "prefecture_code": 43,
    "city": "葦北郡芦北町",
    "city_kana": "アシキタグンアシキタマチ",
    "town": "白岩",
    "town_kana": "シライワ",
    "street": null,
    "office_name": null,
    "office_name_kana": null
  },
  "5453": {
    "zip_code": "8695453",
    "prefecture": "熊本県",
    "prefecture_kana": "クマモトケン",
    "prefecture_code": 43,
    "city": "葦北郡芦北町",
    "city_kana": "アシキタグンアシキタマチ",
    "town": "計石",
    "town_kana": "ハカリイシ",
    "street": null,
    "office_name": null,
    "office_name_kana": null
  },
  "5454": {
    "zip_code": "8695454",
    "prefecture": "熊本県",
    "prefecture_kana": "クマモトケン",
    "prefecture_code": 43,
    "city": "葦北郡芦北町",
    "city_kana": "アシキタグンアシキタマチ",
    "town": "鶴木山",
    "town_kana": "ツルギヤマ",
    "street": null,
    "office_name": null,
    "office_name_kana": null
  },
  "5461": {
    "zip_code": "8695461",
    "prefecture": "熊本県",
    "prefecture_kana": "クマモトケン",
    "prefecture_code": 43,
    "city": "葦北郡芦北町",
    "city_kana": "アシキタグンアシキタマチ",
    "town": "芦北",
    "town_kana": "アシキタ",
    "street": null,
    "office_name": null,
    "office_name_kana": null
  },
  "5498": {
    "zip_code": "8695498",
    "prefecture": "熊本県",
    "prefecture_kana": null,
    "prefecture_code": null,
    "city": "葦北郡芦北町",
    "city_kana": null,
    "town": "大字芦北",
    "town_kana": null,
    "street": "２０１５",
    "office_name": "芦北町役場",
    "office_name_kana": "アシキタマチヤクバ"
  },
  "5561": [
    {
      "zip_code": "8695561",
      "prefecture": "熊本県",
      "prefecture_kana": "クマモトケン",
      "prefecture_code": 43,
      "city": "葦北郡芦北町",
      "city_kana": "アシキタグンアシキタマチ",
      "town": "芦北",
      "town_kana": "アシキタ",
      "street": null,
      "office_name": null,
      "office_name_kana": null
    },
    {
      "zip_code": "8695561",
      "prefecture": "熊本県",
      "prefecture_kana": "クマモトケン",
      "prefecture_code": 43,
      "city": "葦北郡芦北町",
      "city_kana": "アシキタグンアシキタマチ",
      "town": "芦北北田",
      "town_kana": "アシキタキタダ",
      "street": null,
      "office_name": null,
      "office_name_kana": null
    },
    {
      "zip_code": "8695561",
      "prefecture": "熊本県",
      "prefecture_kana": "クマモトケン",
      "prefecture_code": 43,
      "city": "葦北郡芦北町",
      "city_kana": "アシキタグンアシキタマチ",
      "town": "芦北中割",
      "town_kana": "アシキタナカワリ",
      "street": null,
      "office_name": null,
      "office_name_kana": null
    },
    {
      "zip_code": "8695561",
      "prefecture": "熊本県",
      "prefecture_kana": "クマモトケン",
      "prefecture_code": 43,
      "city": "葦北郡芦北町",
      "city_kana": "アシキタグンアシキタマチ",
      "town": "芦北西割",
      "town_kana": "アシキタニシワリ",
      "street": null,
      "office_name": null,
      "office_name_kana": null
    },
    {
      "zip_code": "8695561",
      "prefecture": "熊本県",
      "prefecture_kana": "クマモトケン",
      "prefecture_code": 43,
      "city": "葦北郡芦北町",
      "city_kana": "アシキタグンアシキタマチ",
      "town": "芦北松崎",
      "town_kana": "アシキタマツザキ",
      "street": null,
      "office_name": null,
      "office_name_kana": null
    }
  ],
  "5562": {
    "zip_code": "8695562",
    "prefecture": "熊本県",
    "prefecture_kana": "クマモトケン",
    "prefecture_code": 43,
    "city": "葦北郡芦北町",
    "city_kana": "アシキタグンアシキタマチ",
    "town": "宮崎",
    "town_kana": "ミヤザキ",
    "street": null,
    "office_name": null,
    "office_name_kana": null
  },
  "5563": {
    "zip_code": "8695563",
    "prefecture": "熊本県",
    "prefecture_kana": "クマモトケン",
    "prefecture_code": 43,
    "city": "葦北郡芦北町",
    "city_kana": "アシキタグンアシキタマチ",
    "town": "湯浦",
    "town_kana": "ユノウラ",
    "street": null,
    "office_name": null,
    "office_name_kana": null
  },
  "5564": {
    "zip_code": "8695564",
    "prefecture": "熊本県",
    "prefecture_kana": "クマモトケン",
    "prefecture_code": 43,
    "city": "葦北郡芦北町",
    "city_kana": "アシキタグンアシキタマチ",
    "town": "女島",
    "town_kana": "メシマ",
    "street": null,
    "office_name": null,
    "office_name_kana": null
  },
  "5571": {
    "zip_code": "8695571",
    "prefecture": "熊本県",
    "prefecture_kana": "クマモトケン",
    "prefecture_code": 43,
    "city": "葦北郡芦北町",
    "city_kana": "アシキタグンアシキタマチ",
    "town": "豊岡",
    "town_kana": "トヨオカ",
    "street": null,
    "office_name": null,
    "office_name_kana": null
  },
  "5572": {
    "zip_code": "8695572",
    "prefecture": "熊本県",
    "prefecture_kana": "クマモトケン",
    "prefecture_code": 43,
    "city": "葦北郡芦北町",
    "city_kana": "アシキタグンアシキタマチ",
    "town": "丸山",
    "town_kana": "マルヤマ",
    "street": null,
    "office_name": null,
    "office_name_kana": null
  },
  "5573": {
    "zip_code": "8695573",
    "prefecture": "熊本県",
    "prefecture_kana": "クマモトケン",
    "prefecture_code": 43,
    "city": "葦北郡芦北町",
    "city_kana": "アシキタグンアシキタマチ",
    "town": "米田",
    "town_kana": "ヨネダ",
    "street": null,
    "office_name": null,
    "office_name_kana": null
  },
  "5574": {
    "zip_code": "8695574",
    "prefecture": "熊本県",
    "prefecture_kana": "クマモトケン",
    "prefecture_code": 43,
    "city": "葦北郡芦北町",
    "city_kana": "アシキタグンアシキタマチ",
    "town": "大川内",
    "town_kana": "オオカワチ",
    "street": null,
    "office_name": null,
    "office_name_kana": null
  },
  "5575": {
    "zip_code": "8695575",
    "prefecture": "熊本県",
    "prefecture_kana": "クマモトケン",
    "prefecture_code": 43,
    "city": "葦北郡芦北町",
    "city_kana": "アシキタグンアシキタマチ",
    "town": "古石",
    "town_kana": "フルイシ",
    "street": null,
    "office_name": null,
    "office_name_kana": null
  },
  "5576": {
    "zip_code": "8695576",
    "prefecture": "熊本県",
    "prefecture_kana": "クマモトケン",
    "prefecture_code": 43,
    "city": "葦北郡芦北町",
    "city_kana": "アシキタグンアシキタマチ",
    "town": "高岡",
    "town_kana": "タカオカ",
    "street": null,
    "office_name": null,
    "office_name_kana": null
  },
  "5600": {
    "zip_code": "8695600",
    "prefecture": "熊本県",
    "prefecture_kana": "クマモトケン",
    "prefecture_code": 43,
    "city": "葦北郡津奈木町",
    "city_kana": "アシキタグンツナギマチ",
    "town": "",
    "town_kana": "",
    "street": null,
    "office_name": null,
    "office_name_kana": null
  },
  "5601": {
    "zip_code": "8695601",
    "prefecture": "熊本県",
    "prefecture_kana": "クマモトケン",
    "prefecture_code": 43,
    "city": "葦北郡津奈木町",
    "city_kana": "アシキタグンツナギマチ",
    "town": "千代",
    "town_kana": "チヨ",
    "street": null,
    "office_name": null,
    "office_name_kana": null
  },
  "5602": {
    "zip_code": "8695602",
    "prefecture": "熊本県",
    "prefecture_kana": "クマモトケン",
    "prefecture_code": 43,
    "city": "葦北郡津奈木町",
    "city_kana": "アシキタグンツナギマチ",
    "town": "津奈木",
    "town_kana": "ツナギ",
    "street": null,
    "office_name": null,
    "office_name_kana": null
  },
  "5603": {
    "zip_code": "8695603",
    "prefecture": "熊本県",
    "prefecture_kana": "クマモトケン",
    "prefecture_code": 43,
    "city": "葦北郡津奈木町",
    "city_kana": "アシキタグンツナギマチ",
    "town": "岩城",
    "town_kana": "イワキ",
    "street": null,
    "office_name": null,
    "office_name_kana": null
  },
  "5604": {
    "zip_code": "8695604",
    "prefecture": "熊本県",
    "prefecture_kana": "クマモトケン",
    "prefecture_code": 43,
    "city": "葦北郡津奈木町",
    "city_kana": "アシキタグンツナギマチ",
    "town": "小津奈木",
    "town_kana": "コツナギ",
    "street": null,
    "office_name": null,
    "office_name_kana": null
  },
  "5605": {
    "zip_code": "8695605",
    "prefecture": "熊本県",
    "prefecture_kana": "クマモトケン",
    "prefecture_code": 43,
    "city": "葦北郡津奈木町",
    "city_kana": "アシキタグンツナギマチ",
    "town": "福浜",
    "town_kana": "フクハマ",
    "street": null,
    "office_name": null,
    "office_name_kana": null
  },
  "5692": {
    "zip_code": "8695692",
    "prefecture": "熊本県",
    "prefecture_kana": null,
    "prefecture_code": null,
    "city": "葦北郡津奈木町",
    "city_kana": null,
    "town": "大字小津奈木",
    "town_kana": null,
    "street": "２１２３",
    "office_name": "津奈木町役場",
    "office_name_kana": "ツナギマチヤクバ"
  },
  "6101": {
    "zip_code": "8696101",
    "prefecture": "熊本県",
    "prefecture_kana": "クマモトケン",
    "prefecture_code": 43,
    "city": "八代市",
    "city_kana": "ヤツシロシ",
    "town": "坂本町西部",
    "town_kana": "サカモトマチサイブ",
    "street": null,
    "office_name": null,
    "office_name_kana": null
  },
  "6102": {
    "zip_code": "8696102",
    "prefecture": "熊本県",
    "prefecture_kana": "クマモトケン",
    "prefecture_code": 43,
    "city": "八代市",
    "city_kana": "ヤツシロシ",
    "town": "坂本町深水",
    "town_kana": "サカモトマチフカミ",
    "street": null,
    "office_name": null,
    "office_name_kana": null
  },
  "6103": {
    "zip_code": "8696103",
    "prefecture": "熊本県",
    "prefecture_kana": "クマモトケン",
    "prefecture_code": 43,
    "city": "八代市",
    "city_kana": "ヤツシロシ",
    "town": "坂本町中谷",
    "town_kana": "サカモトマチナカタニ",
    "street": null,
    "office_name": null,
    "office_name_kana": null
  },
  "6104": {
    "zip_code": "8696104",
    "prefecture": "熊本県",
    "prefecture_kana": "クマモトケン",
    "prefecture_code": 43,
    "city": "八代市",
    "city_kana": "ヤツシロシ",
    "town": "坂本町鮎帰",
    "town_kana": "サカモトマチアユガエリ",
    "street": null,
    "office_name": null,
    "office_name_kana": null
  },
  "6105": {
    "zip_code": "8696105",
    "prefecture": "熊本県",
    "prefecture_kana": "クマモトケン",
    "prefecture_code": 43,
    "city": "八代市",
    "city_kana": "ヤツシロシ",
    "town": "坂本町坂本",
    "town_kana": "サカモトマチサカモト",
    "street": null,
    "office_name": null,
    "office_name_kana": null
  },
  "6111": {
    "zip_code": "8696111",
    "prefecture": "熊本県",
    "prefecture_kana": "クマモトケン",
    "prefecture_code": 43,
    "city": "八代市",
    "city_kana": "ヤツシロシ",
    "town": "坂本町葉木",
    "town_kana": "サカモトマチハギ",
    "street": null,
    "office_name": null,
    "office_name_kana": null
  },
  "6112": {
    "zip_code": "8696112",
    "prefecture": "熊本県",
    "prefecture_kana": "クマモトケン",
    "prefecture_code": 43,
    "city": "八代市",
    "city_kana": "ヤツシロシ",
    "town": "坂本町鎌瀬",
    "town_kana": "サカモトマチカマセ",
    "street": null,
    "office_name": null,
    "office_name_kana": null
  },
  "6113": {
    "zip_code": "8696113",
    "prefecture": "熊本県",
    "prefecture_kana": "クマモトケン",
    "prefecture_code": 43,
    "city": "八代市",
    "city_kana": "ヤツシロシ",
    "town": "坂本町中津道",
    "town_kana": "サカモトマチナカツミチ",
    "street": null,
    "office_name": null,
    "office_name_kana": null
  },
  "6114": {
    "zip_code": "8696114",
    "prefecture": "熊本県",
    "prefecture_kana": "クマモトケン",
    "prefecture_code": 43,
    "city": "八代市",
    "city_kana": "ヤツシロシ",
    "town": "坂本町市ノ俣",
    "town_kana": "サカモトマチイチノマタ",
    "street": null,
    "office_name": null,
    "office_name_kana": null
  },
  "6115": {
    "zip_code": "8696115",
    "prefecture": "熊本県",
    "prefecture_kana": "クマモトケン",
    "prefecture_code": 43,
    "city": "八代市",
    "city_kana": "ヤツシロシ",
    "town": "坂本町荒瀬",
    "town_kana": "サカモトマチアラセ",
    "street": null,
    "office_name": null,
    "office_name_kana": null
  },
  "6204": {
    "zip_code": "8696204",
    "prefecture": "熊本県",
    "prefecture_kana": "クマモトケン",
    "prefecture_code": 43,
    "city": "球磨郡球磨村",
    "city_kana": "クマグンクマムラ",
    "town": "神瀬",
    "town_kana": "コウノセ",
    "street": null,
    "office_name": null,
    "office_name_kana": null
  },
  "6205": {
    "zip_code": "8696205",
    "prefecture": "熊本県",
    "prefecture_kana": "クマモトケン",
    "prefecture_code": 43,
    "city": "球磨郡球磨村",
    "city_kana": "クマグンクマムラ",
    "town": "大瀬",
    "town_kana": "オオセ",
    "street": null,
    "office_name": null,
    "office_name_kana": null
  },
  "6211": {
    "zip_code": "8696211",
    "prefecture": "熊本県",
    "prefecture_kana": "クマモトケン",
    "prefecture_code": 43,
    "city": "葦北郡芦北町",
    "city_kana": "アシキタグンアシキタマチ",
    "town": "箙瀬",
    "town_kana": "エビラセ",
    "street": null,
    "office_name": null,
    "office_name_kana": null
  },
  "6212": {
    "zip_code": "8696212",
    "prefecture": "熊本県",
    "prefecture_kana": "クマモトケン",
    "prefecture_code": 43,
    "city": "葦北郡芦北町",
    "city_kana": "アシキタグンアシキタマチ",
    "town": "吉尾",
    "town_kana": "ヨシオ",
    "street": null,
    "office_name": null,
    "office_name_kana": null
  },
  "6213": {
    "zip_code": "8696213",
    "prefecture": "熊本県",
    "prefecture_kana": "クマモトケン",
    "prefecture_code": 43,
    "city": "葦北郡芦北町",
    "city_kana": "アシキタグンアシキタマチ",
    "town": "大岩",
    "town_kana": "オオイワ",
    "street": null,
    "office_name": null,
    "office_name_kana": null
  },
  "6214": {
    "zip_code": "8696214",
    "prefecture": "熊本県",
    "prefecture_kana": "クマモトケン",
    "prefecture_code": 43,
    "city": "葦北郡芦北町",
    "city_kana": "アシキタグンアシキタマチ",
    "town": "黒岩",
    "town_kana": "クロイワ",
    "street": null,
    "office_name": null,
    "office_name_kana": null
  },
  "6215": {
    "zip_code": "8696215",
    "prefecture": "熊本県",
    "prefecture_kana": "クマモトケン",
    "prefecture_code": 43,
    "city": "葦北郡芦北町",
    "city_kana": "アシキタグンアシキタマチ",
    "town": "上原",
    "town_kana": "ウワバル",
    "street": null,
    "office_name": null,
    "office_name_kana": null
  },
  "6216": {
    "zip_code": "8696216",
    "prefecture": "熊本県",
    "prefecture_kana": "クマモトケン",
    "prefecture_code": 43,
    "city": "葦北郡芦北町",
    "city_kana": "アシキタグンアシキタマチ",
    "town": "海路",
    "town_kana": "カイジ",
    "street": null,
    "office_name": null,
    "office_name_kana": null
  },
  "6301": {
    "zip_code": "8696301",
    "prefecture": "熊本県",
    "prefecture_kana": "クマモトケン",
    "prefecture_code": 43,
    "city": "葦北郡芦北町",
    "city_kana": "アシキタグンアシキタマチ",
    "town": "天月",
    "town_kana": "アマツキ",
    "street": null,
    "office_name": null,
    "office_name_kana": null
  },
  "6302": {
    "zip_code": "8696302",
    "prefecture": "熊本県",
    "prefecture_kana": "クマモトケン",
    "prefecture_code": 43,
    "city": "葦北郡芦北町",
    "city_kana": "アシキタグンアシキタマチ",
    "town": "白石",
    "town_kana": "シライシ",
    "street": null,
    "office_name": null,
    "office_name_kana": null
  },
  "6303": {
    "zip_code": "8696303",
    "prefecture": "熊本県",
    "prefecture_kana": "クマモトケン",
    "prefecture_code": 43,
    "city": "葦北郡芦北町",
    "city_kana": "アシキタグンアシキタマチ",
    "town": "告",
    "town_kana": "ツゲ",
    "street": null,
    "office_name": null,
    "office_name_kana": null
  },
  "6304": {
    "zip_code": "8696304",
    "prefecture": "熊本県",
    "prefecture_kana": "クマモトケン",
    "prefecture_code": 43,
    "city": "葦北郡芦北町",
    "city_kana": "アシキタグンアシキタマチ",
    "town": "国見",
    "town_kana": "クニミ",
    "street": null,
    "office_name": null,
    "office_name_kana": null
  },
  "6305": {
    "zip_code": "8696305",
    "prefecture": "熊本県",
    "prefecture_kana": "クマモトケン",
    "prefecture_code": 43,
    "city": "葦北郡芦北町",
    "city_kana": "アシキタグンアシキタマチ",
    "town": "大野",
    "town_kana": "オオノ",
    "street": null,
    "office_name": null,
    "office_name_kana": null
  },
  "6306": {
    "zip_code": "8696306",
    "prefecture": "熊本県",
    "prefecture_kana": "クマモトケン",
    "prefecture_code": 43,
    "city": "葦北郡芦北町",
    "city_kana": "アシキタグンアシキタマチ",
    "town": "市野瀬",
    "town_kana": "イチノセ",
    "street": null,
    "office_name": null,
    "office_name_kana": null
  },
  "6307": {
    "zip_code": "8696307",
    "prefecture": "熊本県",
    "prefecture_kana": "クマモトケン",
    "prefecture_code": 43,
    "city": "葦北郡芦北町",
    "city_kana": "アシキタグンアシキタマチ",
    "town": "塩浸",
    "town_kana": "シオヒタシ",
    "street": null,
    "office_name": null,
    "office_name_kana": null
  },
  "6308": {
    "zip_code": "8696308",
    "prefecture": "熊本県",
    "prefecture_kana": "クマモトケン",
    "prefecture_code": 43,
    "city": "葦北郡芦北町",
    "city_kana": "アシキタグンアシキタマチ",
    "town": "白木",
    "town_kana": "シラキ",
    "street": null,
    "office_name": null,
    "office_name_kana": null
  },
  "6400": {
    "zip_code": "8696400",
    "prefecture": "熊本県",
    "prefecture_kana": "クマモトケン",
    "prefecture_code": 43,
    "city": "球磨郡球磨村",
    "city_kana": "クマグンクマムラ",
    "town": "",
    "town_kana": "",
    "street": null,
    "office_name": null,
    "office_name_kana": null
  },
  "6401": {
    "zip_code": "8696401",
    "prefecture": "熊本県",
    "prefecture_kana": "クマモトケン",
    "prefecture_code": 43,
    "city": "球磨郡球磨村",
    "city_kana": "クマグンクマムラ",
    "town": "渡",
    "town_kana": "ワタリ",
    "street": null,
    "office_name": null,
    "office_name_kana": null
  },
  "6402": {
    "zip_code": "8696402",
    "prefecture": "熊本県",
    "prefecture_kana": "クマモトケン",
    "prefecture_code": 43,
    "city": "球磨郡球磨村",
    "city_kana": "クマグンクマムラ",
    "town": "三ケ浦",
    "town_kana": "サンガウラ",
    "street": null,
    "office_name": null,
    "office_name_kana": null
  },
  "6403": {
    "zip_code": "8696403",
    "prefecture": "熊本県",
    "prefecture_kana": "クマモトケン",
    "prefecture_code": 43,
    "city": "球磨郡球磨村",
    "city_kana": "クマグンクマムラ",
    "town": "一勝地",
    "town_kana": "イッショウチ",
    "street": null,
    "office_name": null,
    "office_name_kana": null
  },
  "6404": [
    {
      "zip_code": "8696404",
      "prefecture": "熊本県",
      "prefecture_kana": "クマモトケン",
      "prefecture_code": 43,
      "city": "球磨郡球磨村",
      "city_kana": "クマグンクマムラ",
      "town": "神瀬",
      "town_kana": "コウノセ",
      "street": null,
      "office_name": null,
      "office_name_kana": null
    },
    {
      "zip_code": "8696404",
      "prefecture": "熊本県",
      "prefecture_kana": "クマモトケン",
      "prefecture_code": 43,
      "city": "球磨郡球磨村",
      "city_kana": "クマグンクマムラ",
      "town": "神瀬大槻",
      "town_kana": "コウノセオオツキ",
      "street": null,
      "office_name": null,
      "office_name_kana": null
    },
    {
      "zip_code": "8696404",
      "prefecture": "熊本県",
      "prefecture_kana": "クマモトケン",
      "prefecture_code": 43,
      "city": "球磨郡球磨村",
      "city_kana": "クマグンクマムラ",
      "town": "神瀬蔵谷",
      "town_kana": "コウノセクラタニ",
      "street": null,
      "office_name": null,
      "office_name_kana": null
    },
    {
      "zip_code": "8696404",
      "prefecture": "熊本県",
      "prefecture_kana": "クマモトケン",
      "prefecture_code": 43,
      "city": "球磨郡球磨村",
      "city_kana": "クマグンクマムラ",
      "town": "神瀬坂口",
      "town_kana": "コウノセサカグチ",
      "street": null,
      "office_name": null,
      "office_name_kana": null
    },
    {
      "zip_code": "8696404",
      "prefecture": "熊本県",
      "prefecture_kana": "クマモトケン",
      "prefecture_code": 43,
      "city": "球磨郡球磨村",
      "city_kana": "クマグンクマムラ",
      "town": "神瀬高沢",
      "town_kana": "コウノセタカザワ",
      "street": null,
      "office_name": null,
      "office_name_kana": null
    },
    {
      "zip_code": "8696404",
      "prefecture": "熊本県",
      "prefecture_kana": "クマモトケン",
      "prefecture_code": 43,
      "city": "球磨郡球磨村",
      "city_kana": "クマグンクマムラ",
      "town": "神瀬横井",
      "town_kana": "コウノセヨコイ",
      "street": null,
      "office_name": null,
      "office_name_kana": null
    }
  ],
  "6405": [
    {
      "zip_code": "8696405",
      "prefecture": "熊本県",
      "prefecture_kana": "クマモトケン",
      "prefecture_code": 43,
      "city": "球磨郡球磨村",
      "city_kana": "クマグンクマムラ",
      "town": "大瀬",
      "town_kana": "オオセ",
      "street": null,
      "office_name": null,
      "office_name_kana": null
    },
    {
      "zip_code": "8696405",
      "prefecture": "熊本県",
      "prefecture_kana": "クマモトケン",
      "prefecture_code": 43,
      "city": "球磨郡球磨村",
      "city_kana": "クマグンクマムラ",
      "town": "大瀬沢見",
      "town_kana": "オオセサワミ",
      "street": null,
      "office_name": null,
      "office_name_kana": null
    }
  ]
}