{
  "0000": {
    "zip_code": "8730000",
    "prefecture": "大分県",
    "prefecture_kana": "オオイタケン",
    "prefecture_code": "44",
    "city": "杵築市",
    "city_kana": "キツキシ",
    "town": "",
    "town_kana": "",
    "street": null,
    "office_name": null,
    "office_name_kana": null
  },
  "0001": {
    "zip_code": "8730001",
    "prefecture": "大分県",
    "prefecture_kana": "オオイタケン",
    "prefecture_code": "44",
    "city": "杵築市",
    "city_kana": "キツキシ",
    "town": "杵築",
    "town_kana": "キツキ",
    "street": null,
    "office_name": null,
    "office_name_kana": null
  },
  "0002": {
    "zip_code": "8730002",
    "prefecture": "大分県",
    "prefecture_kana": "オオイタケン",
    "prefecture_code": "44",
    "city": "杵築市",
    "city_kana": "キツキシ",
    "town": "南杵築",
    "town_kana": "ミナミキツキ",
    "street": null,
    "office_name": null,
    "office_name_kana": null
  },
  "0003": {
    "zip_code": "8730003",
    "prefecture": "大分県",
    "prefecture_kana": "オオイタケン",
    "prefecture_code": "44",
    "city": "杵築市",
    "city_kana": "キツキシ",
    "town": "馬場尾",
    "town_kana": "ババオ",
    "street": null,
    "office_name": null,
    "office_name_kana": null
  },
  "0004": {
    "zip_code": "8730004",
    "prefecture": "大分県",
    "prefecture_kana": "オオイタケン",
    "prefecture_code": "44",
    "city": "杵築市",
    "city_kana": "キツキシ",
    "town": "宮司",
    "town_kana": "ミヤジ",
    "street": null,
    "office_name": null,
    "office_name_kana": null
  },
  "0005": {
    "zip_code": "8730005",
    "prefecture": "大分県",
    "prefecture_kana": "オオイタケン",
    "prefecture_code": "44",
    "city": "杵築市",
    "city_kana": "キツキシ",
    "town": "猪尾",
    "town_kana": "イノオ",
    "street": null,
    "office_name": null,
    "office_name_kana": null
  },
  "0006": {
    "zip_code": "8730006",
    "prefecture": "大分県",
    "prefecture_kana": "オオイタケン",
    "prefecture_code": "44",
    "city": "杵築市",
    "city_kana": "キツキシ",
    "town": "大内",
    "town_kana": "オオウチ",
    "street": null,
    "office_name": null,
    "office_name_kana": null
  },
  "0007": {
    "zip_code": "8730007",
    "prefecture": "大分県",
    "prefecture_kana": "オオイタケン",
    "prefecture_code": "44",
    "city": "杵築市",
    "city_kana": "キツキシ",
    "town": "片野",
    "town_kana": "カタノ",
    "street": null,
    "office_name": null,
    "office_name_kana": null
  },
  "0008": {
    "zip_code": "8730008",
    "prefecture": "大分県",
    "prefecture_kana": "オオイタケン",
    "prefecture_code": "44",
    "city": "杵築市",
    "city_kana": "キツキシ",
    "town": "熊野",
    "town_kana": "クマノ",
    "street": null,
    "office_name": null,
    "office_name_kana": null
  },
  "0011": {
    "zip_code": "8730011",
    "prefecture": "大分県",
    "prefecture_kana": "オオイタケン",
    "prefecture_code": "44",
    "city": "杵築市",
    "city_kana": "キツキシ",
    "town": "相原",
    "town_kana": "アイワラ",
    "street": null,
    "office_name": null,
    "office_name_kana": null
  },
  "0012": {
    "zip_code": "8730012",
    "prefecture": "大分県",
    "prefecture_kana": "オオイタケン",
    "prefecture_code": "44",
    "city": "杵築市",
    "city_kana": "キツキシ",
    "town": "中",
    "town_kana": "ナカ",
    "street": null,
    "office_name": null,
    "office_name_kana": null
  },
  "0013": {
    "zip_code": "8730013",
    "prefecture": "大分県",
    "prefecture_kana": "オオイタケン",
    "prefecture_code": "44",
    "city": "杵築市",
    "city_kana": "キツキシ",
    "town": "日野",
    "town_kana": "ヒノ",
    "street": null,
    "office_name": null,
    "office_name_kana": null
  },
  "0014": {
    "zip_code": "8730014",
    "prefecture": "大分県",
    "prefecture_kana": "オオイタケン",
    "prefecture_code": "44",
    "city": "杵築市",
    "city_kana": "キツキシ",
    "town": "本庄",
    "town_kana": "ホンジョウ",
    "street": null,
    "office_name": null,
    "office_name_kana": null
  },
  "0015": {
    "zip_code": "8730015",
    "prefecture": "大分県",
    "prefecture_kana": "オオイタケン",
    "prefecture_code": "44",
    "city": "杵築市",
    "city_kana": "キツキシ",
    "town": "八坂",
    "town_kana": "ヤサカ",
    "street": null,
    "office_name": null,
    "office_name_kana": null
  },
  "0021": {
    "zip_code": "8730021",
    "prefecture": "大分県",
    "prefecture_kana": "オオイタケン",
    "prefecture_code": "44",
    "city": "杵築市",
    "city_kana": "キツキシ",
    "town": "岩谷",
    "town_kana": "イワヤ",
    "street": null,
    "office_name": null,
    "office_name_kana": null
  },
  "0022": {
    "zip_code": "8730022",
    "prefecture": "大分県",
    "prefecture_kana": "オオイタケン",
    "prefecture_code": "44",
    "city": "杵築市",
    "city_kana": "キツキシ",
    "town": "大片平",
    "town_kana": "オオカタヒラ",
    "street": null,
    "office_name": null,
    "office_name_kana": null
  },
  "0023": {
    "zip_code": "8730023",
    "prefecture": "大分県",
    "prefecture_kana": "オオイタケン",
    "prefecture_code": "44",
    "city": "杵築市",
    "city_kana": "キツキシ",
    "town": "鴨川",
    "town_kana": "カモガワ",
    "street": null,
    "office_name": null,
    "office_name_kana": null
  },
  "0024": {
    "zip_code": "8730024",
    "prefecture": "大分県",
    "prefecture_kana": "オオイタケン",
    "prefecture_code": "44",
    "city": "杵築市",
    "city_kana": "キツキシ",
    "town": "船部",
    "town_kana": "フナベ",
    "street": null,
    "office_name": null,
    "office_name_kana": null
  },
  "0025": {
    "zip_code": "8730025",
    "prefecture": "大分県",
    "prefecture_kana": "オオイタケン",
    "prefecture_code": "44",
    "city": "杵築市",
    "city_kana": "キツキシ",
    "town": "溝井",
    "town_kana": "ミゾイ",
    "street": null,
    "office_name": null,
    "office_name_kana": null
  },
  "0031": {
    "zip_code": "8730031",
    "prefecture": "大分県",
    "prefecture_kana": "オオイタケン",
    "prefecture_code": "44",
    "city": "杵築市",
    "city_kana": "キツキシ",
    "town": "狩宿",
    "town_kana": "カリシュク",
    "street": null,
    "office_name": null,
    "office_name_kana": null
  },
  "0032": {
    "zip_code": "8730032",
    "prefecture": "大分県",
    "prefecture_kana": "オオイタケン",
    "prefecture_code": "44",
    "city": "杵築市",
    "city_kana": "キツキシ",
    "town": "奈多",
    "town_kana": "ナダ",
    "street": null,
    "office_name": null,
    "office_name_kana": null
  },
  "0033": {
    "zip_code": "8730033",
    "prefecture": "大分県",
    "prefecture_kana": "オオイタケン",
    "prefecture_code": "44",
    "city": "杵築市",
    "city_kana": "キツキシ",
    "town": "守江",
    "town_kana": "モリエ",
    "street": null,
    "office_name": null,
    "office_name_kana": null
  },
  "0034": {
    "zip_code": "8730034",
    "prefecture": "大分県",
    "prefecture_kana": "オオイタケン",
    "prefecture_code": "44",
    "city": "杵築市",
    "city_kana": "キツキシ",
    "town": "横城",
    "town_kana": "ヨコギ",
    "street": null,
    "office_name": null,
    "office_name_kana": null
  },
  "0041": [
    {
      "zip_code": "8730041",
      "prefecture": "大分県",
      "prefecture_kana": "オオイタケン",
      "prefecture_code": "44",
      "city": "杵築市",
      "city_kana": "キツキシ",
      "town": "大田俣水",
      "town_kana": "オオタマタミズ",
      "street": null,
      "office_name": null,
      "office_name_kana": null
    },
    {
      "zip_code": "8730041",
      "prefecture": "大分県",
      "prefecture_kana": "オオイタケン",
      "prefecture_code": "44",
      "city": "杵築市",
      "city_kana": "キツキシ",
      "town": "大田俣水天堤",
      "town_kana": "オオタマタミズアマツツミ",
      "street": null,
      "office_name": null,
      "office_name_kana": null
    }
  ],
  "0053": [
    {
      "zip_code": "8730053",
      "prefecture": "大分県",
      "prefecture_kana": "オオイタケン",
      "prefecture_code": "44",
      "city": "国東市",
      "city_kana": "クニサキシ",
      "town": "安岐町矢川",
      "town_kana": "アキマチヤガワ",
      "street": null,
      "office_name": null,
      "office_name_kana": null
    },
    {
      "zip_code": "8730053",
      "prefecture": "大分県",
      "prefecture_kana": "オオイタケン",
      "prefecture_code": "44",
      "city": "国東市",
      "city_kana": "クニサキシ",
      "town": "安岐町矢川天堤",
      "town_kana": "アキマチヤガワアマツツミ",
      "street": null,
      "office_name": null,
      "office_name_kana": null
    }
  ],
  "0201": {
    "zip_code": "8730201",
    "prefecture": "大分県",
    "prefecture_kana": "オオイタケン",
    "prefecture_code": "44",
    "city": "国東市",
    "city_kana": "クニサキシ",
    "town": "安岐町吉松",
    "town_kana": "アキマチヨシマツ",
    "street": null,
    "office_name": null,
    "office_name_kana": null
  },
  "0202": {
    "zip_code": "8730202",
    "prefecture": "大分県",
    "prefecture_kana": "オオイタケン",
    "prefecture_code": "44",
    "city": "国東市",
    "city_kana": "クニサキシ",
    "town": "安岐町瀬戸田",
    "town_kana": "アキマチセドタ",
    "street": null,
    "office_name": null,
    "office_name_kana": null
  },
  "0203": {
    "zip_code": "8730203",
    "prefecture": "大分県",
    "prefecture_kana": "オオイタケン",
    "prefecture_code": "44",
    "city": "国東市",
    "city_kana": "クニサキシ",
    "town": "安岐町中園",
    "town_kana": "アキマチナカソノ",
    "street": null,
    "office_name": null,
    "office_name_kana": null
  },
  "0204": {
    "zip_code": "8730204",
    "prefecture": "大分県",
    "prefecture_kana": "オオイタケン",
    "prefecture_code": "44",
    "city": "国東市",
    "city_kana": "クニサキシ",
    "town": "安岐町成久",
    "town_kana": "アキマチナリヒサ",
    "street": null,
    "office_name": null,
    "office_name_kana": null
  },
  "0205": {
    "zip_code": "8730205",
    "prefecture": "大分県",
    "prefecture_kana": "オオイタケン",
    "prefecture_code": "44",
    "city": "国東市",
    "city_kana": "クニサキシ",
    "town": "安岐町掛樋",
    "town_kana": "アキマチカケヒ",
    "street": null,
    "office_name": null,
    "office_name_kana": null
  },
  "0206": {
    "zip_code": "8730206",
    "prefecture": "大分県",
    "prefecture_kana": "オオイタケン",
    "prefecture_code": "44",
    "city": "国東市",
    "city_kana": "クニサキシ",
    "town": "安岐町山浦",
    "town_kana": "アキマチヤマウラ",
    "street": null,
    "office_name": null,
    "office_name_kana": null
  },
  "0207": {
    "zip_code": "8730207",
    "prefecture": "大分県",
    "prefecture_kana": "オオイタケン",
    "prefecture_code": "44",
    "city": "国東市",
    "city_kana": "クニサキシ",
    "town": "安岐町油留木",
    "town_kana": "アキマチユルギ",
    "street": null,
    "office_name": null,
    "office_name_kana": null
  },
  "0211": {
    "zip_code": "8730211",
    "prefecture": "大分県",
    "prefecture_kana": "オオイタケン",
    "prefecture_code": "44",
    "city": "国東市",
    "city_kana": "クニサキシ",
    "town": "安岐町馬場",
    "town_kana": "アキマチババ",
    "street": null,
    "office_name": null,
    "office_name_kana": null
  },
  "0212": {
    "zip_code": "8730212",
    "prefecture": "大分県",
    "prefecture_kana": "オオイタケン",
    "prefecture_code": "44",
    "city": "国東市",
    "city_kana": "クニサキシ",
    "town": "安岐町塩屋",
    "town_kana": "アキマチシオヤ",
    "street": null,
    "office_name": null,
    "office_name_kana": null
  },
  "0221": {
    "zip_code": "8730221",
    "prefecture": "大分県",
    "prefecture_kana": "オオイタケン",
    "prefecture_code": "44",
    "city": "国東市",
    "city_kana": "クニサキシ",
    "town": "安岐町西本",
    "town_kana": "アキマチニシモト",
    "street": null,
    "office_name": null,
    "office_name_kana": null
  },
  "0222": {
    "zip_code": "8730222",
    "prefecture": "大分県",
    "prefecture_kana": "オオイタケン",
    "prefecture_code": "44",
    "city": "国東市",
    "city_kana": "クニサキシ",
    "town": "安岐町下山口",
    "town_kana": "アキマチシモヤマグチ",
    "street": null,
    "office_name": null,
    "office_name_kana": null
  },
  "0223": {
    "zip_code": "8730223",
    "prefecture": "大分県",
    "prefecture_kana": "オオイタケン",
    "prefecture_code": "44",
    "city": "国東市",
    "city_kana": "クニサキシ",
    "town": "安岐町大添",
    "town_kana": "アキマチオオソエ",
    "street": null,
    "office_name": null,
    "office_name_kana": null
  },
  "0224": {
    "zip_code": "8730224",
    "prefecture": "大分県",
    "prefecture_kana": "オオイタケン",
    "prefecture_code": "44",
    "city": "国東市",
    "city_kana": "クニサキシ",
    "town": "安岐町山口",
    "town_kana": "アキマチヤマグチ",
    "street": null,
    "office_name": null,
    "office_name_kana": null
  },
  "0231": {
    "zip_code": "8730231",
    "prefecture": "大分県",
    "prefecture_kana": "オオイタケン",
    "prefecture_code": "44",
    "city": "国東市",
    "city_kana": "クニサキシ",
    "town": "安岐町下原",
    "town_kana": "アキマチシモバル",
    "street": null,
    "office_name": null,
    "office_name_kana": null
  },
  "0232": {
    "zip_code": "8730232",
    "prefecture": "大分県",
    "prefecture_kana": "オオイタケン",
    "prefecture_code": "44",
    "city": "国東市",
    "city_kana": "クニサキシ",
    "town": "安岐町向陽台",
    "town_kana": "アキマチコウヨウダイ",
    "street": null,
    "office_name": null,
    "office_name_kana": null
  },
  "0292": {
    "zip_code": "8730292",
    "prefecture": "大分県",
    "prefecture_kana": "オオイタケン",
    "prefecture_code": "44",
    "city": "国東市",
    "city_kana": "クニサキシ",
    "town": "安岐町下原",
    "town_kana": "アキマチシモバル",
    "street": "７１０",
    "office_name": "大分キヤノン　株式会社",
    "office_name_kana": "オオイタキヤノン カブシキガイシヤ"
  },
  "0293": {
    "zip_code": "8730293",
    "prefecture": "大分県",
    "prefecture_kana": "オオイタケン",
    "prefecture_code": "44",
    "city": "国東市",
    "city_kana": "クニサキシ",
    "town": "安岐町中園",
    "town_kana": "アキマチナカソノ",
    "street": "１００",
    "office_name": "安岐総合支所",
    "office_name_kana": "アキソウゴウシシヨ"
  },
  "0298": {
    "zip_code": "8730298",
    "prefecture": "大分県",
    "prefecture_kana": "オオイタケン",
    "prefecture_code": "44",
    "city": "国東市",
    "city_kana": "クニサキシ",
    "town": "安岐町下原",
    "town_kana": "アキマチシモバル",
    "street": "１４５６",
    "office_name": "国東市民病院",
    "office_name_kana": "クニサキシミンビヨウイン"
  },
  "0351": {
    "zip_code": "8730351",
    "prefecture": "大分県",
    "prefecture_kana": "オオイタケン",
    "prefecture_code": "44",
    "city": "国東市",
    "city_kana": "クニサキシ",
    "town": "安岐町朝来",
    "town_kana": "アキマチアサク",
    "street": null,
    "office_name": null,
    "office_name_kana": null
  },
  "0352": {
    "zip_code": "8730352",
    "prefecture": "大分県",
    "prefecture_kana": "オオイタケン",
    "prefecture_code": "44",
    "city": "国東市",
    "city_kana": "クニサキシ",
    "town": "安岐町明治",
    "town_kana": "アキマチメイジ",
    "street": null,
    "office_name": null,
    "office_name_kana": null
  },
  "0353": {
    "zip_code": "8730353",
    "prefecture": "大分県",
    "prefecture_kana": "オオイタケン",
    "prefecture_code": "44",
    "city": "国東市",
    "city_kana": "クニサキシ",
    "town": "安岐町矢川",
    "town_kana": "アキマチヤガワ",
    "street": null,
    "office_name": null,
    "office_name_kana": null
  },
  "0354": {
    "zip_code": "8730354",
    "prefecture": "大分県",
    "prefecture_kana": "オオイタケン",
    "prefecture_code": "44",
    "city": "国東市",
    "city_kana": "クニサキシ",
    "town": "安岐町糸永",
    "town_kana": "アキマチイトナガ",
    "street": null,
    "office_name": null,
    "office_name_kana": null
  },
  "0355": {
    "zip_code": "8730355",
    "prefecture": "大分県",
    "prefecture_kana": "オオイタケン",
    "prefecture_code": "44",
    "city": "国東市",
    "city_kana": "クニサキシ",
    "town": "安岐町富清",
    "town_kana": "アキマチトミキヨ",
    "street": null,
    "office_name": null,
    "office_name_kana": null
  },
  "0356": {
    "zip_code": "8730356",
    "prefecture": "大分県",
    "prefecture_kana": "オオイタケン",
    "prefecture_code": "44",
    "city": "国東市",
    "city_kana": "クニサキシ",
    "town": "安岐町両子",
    "town_kana": "アキマチフタゴ",
    "street": null,
    "office_name": null,
    "office_name_kana": null
  },
  "0401": {
    "zip_code": "8730401",
    "prefecture": "大分県",
    "prefecture_kana": "オオイタケン",
    "prefecture_code": "44",
    "city": "国東市",
    "city_kana": "クニサキシ",
    "town": "武蔵町池ノ内",
    "town_kana": "ムサシマチイケノウチ",
    "street": null,
    "office_name": null,
    "office_name_kana": null
  },
  "0402": {
    "zip_code": "8730402",
    "prefecture": "大分県",
    "prefecture_kana": "オオイタケン",
    "prefecture_code": "44",
    "city": "国東市",
    "city_kana": "クニサキシ",
    "town": "武蔵町内田",
    "town_kana": "ムサシマチウチダ",
    "street": null,
    "office_name": null,
    "office_name_kana": null
  },
  "0404": {
    "zip_code": "8730404",
    "prefecture": "大分県",
    "prefecture_kana": "オオイタケン",
    "prefecture_code": "44",
    "city": "国東市",
    "city_kana": "クニサキシ",
    "town": "武蔵町成吉",
    "town_kana": "ムサシマチナリヨシ",
    "street": null,
    "office_name": null,
    "office_name_kana": null
  },
  "0405": {
    "zip_code": "8730405",
    "prefecture": "大分県",
    "prefecture_kana": "オオイタケン",
    "prefecture_code": "44",
    "city": "国東市",
    "city_kana": "クニサキシ",
    "town": "武蔵町麻田",
    "town_kana": "ムサシマチアサダ",
    "street": null,
    "office_name": null,
    "office_name_kana": null
  },
  "0406": {
    "zip_code": "8730406",
    "prefecture": "大分県",
    "prefecture_kana": "オオイタケン",
    "prefecture_code": "44",
    "city": "国東市",
    "city_kana": "クニサキシ",
    "town": "武蔵町丸小野",
    "town_kana": "ムサシマチマルオノ",
    "street": null,
    "office_name": null,
    "office_name_kana": null
  },
  "0407": {
    "zip_code": "8730407",
    "prefecture": "大分県",
    "prefecture_kana": "オオイタケン",
    "prefecture_code": "44",
    "city": "国東市",
    "city_kana": "クニサキシ",
    "town": "武蔵町狭間",
    "town_kana": "ムサシマチハサマ",
    "street": null,
    "office_name": null,
    "office_name_kana": null
  },
  "0412": {
    "zip_code": "8730412",
    "prefecture": "大分県",
    "prefecture_kana": "オオイタケン",
    "prefecture_code": "44",
    "city": "国東市",
    "city_kana": "クニサキシ",
    "town": "武蔵町古市",
    "town_kana": "ムサシマチフルイチ",
    "street": null,
    "office_name": null,
    "office_name_kana": null
  },
  "0414": {
    "zip_code": "8730414",
    "prefecture": "大分県",
    "prefecture_kana": "オオイタケン",
    "prefecture_code": "44",
    "city": "国東市",
    "city_kana": "クニサキシ",
    "town": "武蔵町手野",
    "town_kana": "ムサシマチテノ",
    "street": null,
    "office_name": null,
    "office_name_kana": null
  },
  "0415": {
    "zip_code": "8730415",
    "prefecture": "大分県",
    "prefecture_kana": "オオイタケン",
    "prefecture_code": "44",
    "city": "国東市",
    "city_kana": "クニサキシ",
    "town": "武蔵町吉広",
    "town_kana": "ムサシマチヨシヒロ",
    "street": null,
    "office_name": null,
    "office_name_kana": null
  },
  "0421": {
    "zip_code": "8730421",
    "prefecture": "大分県",
    "prefecture_kana": "オオイタケン",
    "prefecture_code": "44",
    "city": "国東市",
    "city_kana": "クニサキシ",
    "town": "武蔵町糸原",
    "town_kana": "ムサシマチイトハル",
    "street": null,
    "office_name": null,
    "office_name_kana": null
  },
  "0422": {
    "zip_code": "8730422",
    "prefecture": "大分県",
    "prefecture_kana": "オオイタケン",
    "prefecture_code": "44",
    "city": "国東市",
    "city_kana": "クニサキシ",
    "town": "武蔵町小城",
    "town_kana": "ムサシマチオギ",
    "street": null,
    "office_name": null,
    "office_name_kana": null
  },
  "0423": {
    "zip_code": "8730423",
    "prefecture": "大分県",
    "prefecture_kana": "オオイタケン",
    "prefecture_code": "44",
    "city": "国東市",
    "city_kana": "クニサキシ",
    "town": "武蔵町三井寺",
    "town_kana": "ムサシマチミイデラ",
    "street": null,
    "office_name": null,
    "office_name_kana": null
  },
  "0424": {
    "zip_code": "8730424",
    "prefecture": "大分県",
    "prefecture_kana": "オオイタケン",
    "prefecture_code": "44",
    "city": "国東市",
    "city_kana": "クニサキシ",
    "town": "武蔵町志和利",
    "town_kana": "ムサシマチシワリ",
    "street": null,
    "office_name": null,
    "office_name_kana": null
  },
  "0432": {
    "zip_code": "8730432",
    "prefecture": "大分県",
    "prefecture_kana": "オオイタケン",
    "prefecture_code": "44",
    "city": "国東市",
    "city_kana": "クニサキシ",
    "town": "武蔵町向陽台",
    "town_kana": "ムサシマチコウヨウダイ",
    "street": null,
    "office_name": null,
    "office_name_kana": null
  },
  "0498": {
    "zip_code": "8730498",
    "prefecture": "大分県",
    "prefecture_kana": "オオイタケン",
    "prefecture_code": "44",
    "city": "国東市",
    "city_kana": "クニサキシ",
    "town": "武蔵町古市",
    "town_kana": "ムサシマチフルイチ",
    "street": "６８４",
    "office_name": "武蔵総合支所",
    "office_name_kana": "ムサシソウゴウシシヨ"
  },
  "0500": {
    "zip_code": "8730500",
    "prefecture": "大分県",
    "prefecture_kana": "オオイタケン",
    "prefecture_code": "44",
    "city": "国東市",
    "city_kana": "クニサキシ",
    "town": "",
    "town_kana": "",
    "street": null,
    "office_name": null,
    "office_name_kana": null
  },
  "0501": {
    "zip_code": "8730501",
    "prefecture": "大分県",
    "prefecture_kana": "オオイタケン",
    "prefecture_code": "44",
    "city": "国東市",
    "city_kana": "クニサキシ",
    "town": "国東町北江",
    "town_kana": "クニサキマチキタエ",
    "street": null,
    "office_name": null,
    "office_name_kana": null
  },
  "0502": {
    "zip_code": "8730502",
    "prefecture": "大分県",
    "prefecture_kana": "オオイタケン",
    "prefecture_code": "44",
    "city": "国東市",
    "city_kana": "クニサキシ",
    "town": "国東町田深",
    "town_kana": "クニサキマチタブカ",
    "street": null,
    "office_name": null,
    "office_name_kana": null
  },
  "0503": {
    "zip_code": "8730503",
    "prefecture": "大分県",
    "prefecture_kana": "オオイタケン",
    "prefecture_code": "44",
    "city": "国東市",
    "city_kana": "クニサキシ",
    "town": "国東町鶴川",
    "town_kana": "クニサキマチツルガワ",
    "street": null,
    "office_name": null,
    "office_name_kana": null
  },
  "0504": {
    "zip_code": "8730504",
    "prefecture": "大分県",
    "prefecture_kana": "オオイタケン",
    "prefecture_code": "44",
    "city": "国東市",
    "city_kana": "クニサキシ",
    "town": "国東町安国寺",
    "town_kana": "クニサキマチアンコクジ",
    "street": null,
    "office_name": null,
    "office_name_kana": null
  },
  "0511": {
    "zip_code": "8730511",
    "prefecture": "大分県",
    "prefecture_kana": "オオイタケン",
    "prefecture_code": "44",
    "city": "国東市",
    "city_kana": "クニサキシ",
    "town": "国東町小原",
    "town_kana": "クニサキマチオハラ",
    "street": null,
    "office_name": null,
    "office_name_kana": null
  },
  "0512": {
    "zip_code": "8730512",
    "prefecture": "大分県",
    "prefecture_kana": "オオイタケン",
    "prefecture_code": "44",
    "city": "国東市",
    "city_kana": "クニサキシ",
    "town": "国東町治郎丸",
    "town_kana": "クニサキマチジロウマル",
    "street": null,
    "office_name": null,
    "office_name_kana": null
  },
  "0513": {
    "zip_code": "8730513",
    "prefecture": "大分県",
    "prefecture_kana": "オオイタケン",
    "prefecture_code": "44",
    "city": "国東市",
    "city_kana": "クニサキシ",
    "town": "国東町綱井",
    "town_kana": "クニサキマチツナイ",
    "street": null,
    "office_name": null,
    "office_name_kana": null
  },
  "0514": {
    "zip_code": "8730514",
    "prefecture": "大分県",
    "prefecture_kana": "オオイタケン",
    "prefecture_code": "44",
    "city": "国東市",
    "city_kana": "クニサキシ",
    "town": "国東町重藤",
    "town_kana": "クニサキマチシゲフジ",
    "street": null,
    "office_name": null,
    "office_name_kana": null
  },
  "0521": {
    "zip_code": "8730521",
    "prefecture": "大分県",
    "prefecture_kana": "オオイタケン",
    "prefecture_code": "44",
    "city": "国東市",
    "city_kana": "クニサキシ",
    "town": "国東町原",
    "town_kana": "クニサキマチハル",
    "street": null,
    "office_name": null,
    "office_name_kana": null
  },
  "0522": {
    "zip_code": "8730522",
    "prefecture": "大分県",
    "prefecture_kana": "オオイタケン",
    "prefecture_code": "44",
    "city": "国東市",
    "city_kana": "クニサキシ",
    "town": "国東町岩屋",
    "town_kana": "クニサキマチイワヤ",
    "street": null,
    "office_name": null,
    "office_name_kana": null
  },
  "0523": {
    "zip_code": "8730523",
    "prefecture": "大分県",
    "prefecture_kana": "オオイタケン",
    "prefecture_code": "44",
    "city": "国東市",
    "city_kana": "クニサキシ",
    "town": "国東町赤松",
    "town_kana": "クニサキマチアカマツ",
    "street": null,
    "office_name": null,
    "office_name_kana": null
  },
  "0524": {
    "zip_code": "8730524",
    "prefecture": "大分県",
    "prefecture_kana": "オオイタケン",
    "prefecture_code": "44",
    "city": "国東市",
    "city_kana": "クニサキシ",
    "town": "国東町横手",
    "town_kana": "クニサキマチヨコテ",
    "street": null,
    "office_name": null,
    "office_name_kana": null
  },
  "0531": {
    "zip_code": "8730531",
    "prefecture": "大分県",
    "prefecture_kana": "オオイタケン",
    "prefecture_code": "44",
    "city": "国東市",
    "city_kana": "クニサキシ",
    "town": "国東町川原",
    "town_kana": "クニサキマチカワラ",
    "street": null,
    "office_name": null,
    "office_name_kana": null
  },
  "0532": {
    "zip_code": "8730532",
    "prefecture": "大分県",
    "prefecture_kana": "オオイタケン",
    "prefecture_code": "44",
    "city": "国東市",
    "city_kana": "クニサキシ",
    "town": "国東町中田",
    "town_kana": "クニサキマチナカダ",
    "street": null,
    "office_name": null,
    "office_name_kana": null
  },
  "0533": {
    "zip_code": "8730533",
    "prefecture": "大分県",
    "prefecture_kana": "オオイタケン",
    "prefecture_code": "44",
    "city": "国東市",
    "city_kana": "クニサキシ",
    "town": "国東町見地",
    "town_kana": "クニサキマチケンジ",
    "street": null,
    "office_name": null,
    "office_name_kana": null
  },
  "0534": {
    "zip_code": "8730534",
    "prefecture": "大分県",
    "prefecture_kana": "オオイタケン",
    "prefecture_code": "44",
    "city": "国東市",
    "city_kana": "クニサキシ",
    "town": "国東町下成仏",
    "town_kana": "クニサキマチシモジョウブツ",
    "street": null,
    "office_name": null,
    "office_name_kana": null
  },
  "0535": {
    "zip_code": "8730535",
    "prefecture": "大分県",
    "prefecture_kana": "オオイタケン",
    "prefecture_code": "44",
    "city": "国東市",
    "city_kana": "クニサキシ",
    "town": "国東町成仏",
    "town_kana": "クニサキマチジョウブツ",
    "street": null,
    "office_name": null,
    "office_name_kana": null
  },
  "0641": {
    "zip_code": "8730641",
    "prefecture": "大分県",
    "prefecture_kana": "オオイタケン",
    "prefecture_code": "44",
    "city": "国東市",
    "city_kana": "クニサキシ",
    "town": "国東町深江",
    "town_kana": "クニサキマチフカエ",
    "street": null,
    "office_name": null,
    "office_name_kana": null
  },
  "0642": {
    "zip_code": "8730642",
    "prefecture": "大分県",
    "prefecture_kana": "オオイタケン",
    "prefecture_code": "44",
    "city": "国東市",
    "city_kana": "クニサキシ",
    "town": "国東町東堅来",
    "town_kana": "クニサキマチヒガシカタク",
    "street": null,
    "office_name": null,
    "office_name_kana": null
  },
  "0643": {
    "zip_code": "8730643",
    "prefecture": "大分県",
    "prefecture_kana": "オオイタケン",
    "prefecture_code": "44",
    "city": "国東市",
    "city_kana": "クニサキシ",
    "town": "国東町富来浦",
    "town_kana": "クニサキマチトミクウラ",
    "street": null,
    "office_name": null,
    "office_name_kana": null
  },
  "0644": {
    "zip_code": "8730644",
    "prefecture": "大分県",
    "prefecture_kana": "オオイタケン",
    "prefecture_code": "44",
    "city": "国東市",
    "city_kana": "クニサキシ",
    "town": "国東町浜崎",
    "town_kana": "クニサキマチハマサキ",
    "street": null,
    "office_name": null,
    "office_name_kana": null
  },
  "0645": {
    "zip_code": "8730645",
    "prefecture": "大分県",
    "prefecture_kana": "オオイタケン",
    "prefecture_code": "44",
    "city": "国東市",
    "city_kana": "クニサキシ",
    "town": "国東町富来",
    "town_kana": "クニサキマチトミク",
    "street": null,
    "office_name": null,
    "office_name_kana": null
  },
  "0646": {
    "zip_code": "8730646",
    "prefecture": "大分県",
    "prefecture_kana": "オオイタケン",
    "prefecture_code": "44",
    "city": "国東市",
    "city_kana": "クニサキシ",
    "town": "国東町大恩寺",
    "town_kana": "クニサキマチダイオンジ",
    "street": null,
    "office_name": null,
    "office_name_kana": null
  },
  "8501": {
    "zip_code": "8738501",
    "prefecture": "大分県",
    "prefecture_kana": null,
    "prefecture_code": null,
    "city": "杵築市",
    "city_kana": null,
    "town": "大字熊野",
    "town_kana": null,
    "street": "１−１１１",
    "office_name": "大分キヤノンマテリアル　株式会社",
    "office_name_kana": "オオイタキヤノンマテリアル カブシキガイシヤ"
  }
}