{
  "0000": {
    "zip_code": "8740000",
    "prefecture": "大分県",
    "prefecture_kana": "オオイタケン",
    "prefecture_code": 44,
    "city": "別府市",
    "city_kana": "ベップシ",
    "town": "",
    "town_kana": "",
    "street": null,
    "office_name": null,
    "office_name_kana": null
  },
  "0001": {
    "zip_code": "8740001",
    "prefecture": "大分県",
    "prefecture_kana": "オオイタケン",
    "prefecture_code": 44,
    "city": "別府市",
    "city_kana": "ベップシ",
    "town": "小坂",
    "town_kana": "オサカ",
    "street": null,
    "office_name": null,
    "office_name_kana": null
  },
  "0002": {
    "zip_code": "8740002",
    "prefecture": "大分県",
    "prefecture_kana": "オオイタケン",
    "prefecture_code": 44,
    "city": "別府市",
    "city_kana": "ベップシ",
    "town": "関の江新町",
    "town_kana": "セキノエシンマチ",
    "street": null,
    "office_name": null,
    "office_name_kana": null
  },
  "0003": {
    "zip_code": "8740003",
    "prefecture": "大分県",
    "prefecture_kana": "オオイタケン",
    "prefecture_code": 44,
    "city": "別府市",
    "city_kana": "ベップシ",
    "town": "大所",
    "town_kana": "オトコロ",
    "street": null,
    "office_name": null,
    "office_name_kana": null
  },
  "0004": {
    "zip_code": "8740004",
    "prefecture": "大分県",
    "prefecture_kana": "オオイタケン",
    "prefecture_code": 44,
    "city": "別府市",
    "city_kana": "ベップシ",
    "town": "湯山",
    "town_kana": "ユヤマ",
    "street": null,
    "office_name": null,
    "office_name_kana": null
  },
  "0005": {
    "zip_code": "8740005",
    "prefecture": "大分県",
    "prefecture_kana": "オオイタケン",
    "prefecture_code": 44,
    "city": "別府市",
    "city_kana": "ベップシ",
    "town": "天間",
    "town_kana": "アママ",
    "street": null,
    "office_name": null,
    "office_name_kana": null
  },
  "0011": {
    "zip_code": "8740011",
    "prefecture": "大分県",
    "prefecture_kana": "オオイタケン",
    "prefecture_code": 44,
    "city": "別府市",
    "city_kana": "ベップシ",
    "town": "内竈",
    "town_kana": "ウチカマド",
    "street": null,
    "office_name": null,
    "office_name_kana": null
  },
  "0012": {
    "zip_code": "8740012",
    "prefecture": "大分県",
    "prefecture_kana": "オオイタケン",
    "prefecture_code": 44,
    "city": "別府市",
    "city_kana": "ベップシ",
    "town": "スパランド豊海",
    "town_kana": "スパランドトヨミ",
    "street": null,
    "office_name": null,
    "office_name_kana": null
  },
  "0013": {
    "zip_code": "8740013",
    "prefecture": "大分県",
    "prefecture_kana": "オオイタケン",
    "prefecture_code": 44,
    "city": "別府市",
    "city_kana": "ベップシ",
    "town": "古市町",
    "town_kana": "フルイチマチ",
    "street": null,
    "office_name": null,
    "office_name_kana": null
  },
  "0014": {
    "zip_code": "8740014",
    "prefecture": "大分県",
    "prefecture_kana": "オオイタケン",
    "prefecture_code": 44,
    "city": "別府市",
    "city_kana": "ベップシ",
    "town": "亀川浜田町",
    "town_kana": "カメガワハマダマチ",
    "street": null,
    "office_name": null,
    "office_name_kana": null
  },
  "0015": {
    "zip_code": "8740015",
    "prefecture": "大分県",
    "prefecture_kana": "オオイタケン",
    "prefecture_code": 44,
    "city": "別府市",
    "city_kana": "ベップシ",
    "town": "国立",
    "town_kana": "クニタテ",
    "street": null,
    "office_name": null,
    "office_name_kana": null
  },
  "0016": {
    "zip_code": "8740016",
    "prefecture": "大分県",
    "prefecture_kana": "オオイタケン",
    "prefecture_code": 44,
    "city": "別府市",
    "city_kana": "ベップシ",
    "town": "野田",
    "town_kana": "ノダ",
    "street": null,
    "office_name": null,
    "office_name_kana": null
  },
  "0021": {
    "zip_code": "8740021",
    "prefecture": "大分県",
    "prefecture_kana": "オオイタケン",
    "prefecture_code": 44,
    "city": "別府市",
    "city_kana": "ベップシ",
    "town": "亀川中央町",
    "town_kana": "カメガワチュウオウマチ",
    "street": null,
    "office_name": null,
    "office_name_kana": null
  },
  "0022": {
    "zip_code": "8740022",
    "prefecture": "大分県",
    "prefecture_kana": "オオイタケン",
    "prefecture_code": 44,
    "city": "別府市",
    "city_kana": "ベップシ",
    "town": "亀川東町",
    "town_kana": "カメガワヒガシマチ",
    "street": null,
    "office_name": null,
    "office_name_kana": null
  },
  "0023": {
    "zip_code": "8740023",
    "prefecture": "大分県",
    "prefecture_kana": "オオイタケン",
    "prefecture_code": 44,
    "city": "別府市",
    "city_kana": "ベップシ",
    "town": "上人ケ浜町",
    "town_kana": "ショウニンガハマチョウ",
    "street": null,
    "office_name": null,
    "office_name_kana": null
  },
  "0024": {
    "zip_code": "8740024",
    "prefecture": "大分県",
    "prefecture_kana": "オオイタケン",
    "prefecture_code": 44,
    "city": "別府市",
    "city_kana": "ベップシ",
    "town": "平田町",
    "town_kana": "ヒラタマチ",
    "street": null,
    "office_name": null,
    "office_name_kana": null
  },
  "0025": {
    "zip_code": "8740025",
    "prefecture": "大分県",
    "prefecture_kana": "オオイタケン",
    "prefecture_code": 44,
    "city": "別府市",
    "city_kana": "ベップシ",
    "town": "亀川四の湯町",
    "town_kana": "カメガワシノユマチ",
    "street": null,
    "office_name": null,
    "office_name_kana": null
  },
  "0031": {
    "zip_code": "8740031",
    "prefecture": "大分県",
    "prefecture_kana": "オオイタケン",
    "prefecture_code": 44,
    "city": "別府市",
    "city_kana": "ベップシ",
    "town": "照波園町",
    "town_kana": "ショウハエンマチ",
    "street": null,
    "office_name": null,
    "office_name_kana": null
  },
  "0032": {
    "zip_code": "8740032",
    "prefecture": "大分県",
    "prefecture_kana": "オオイタケン",
    "prefecture_code": 44,
    "city": "別府市",
    "city_kana": "ベップシ",
    "town": "上人本町",
    "town_kana": "ショウニンホンマチ",
    "street": null,
    "office_name": null,
    "office_name_kana": null
  },
  "0033": {
    "zip_code": "8740033",
    "prefecture": "大分県",
    "prefecture_kana": "オオイタケン",
    "prefecture_code": 44,
    "city": "別府市",
    "city_kana": "ベップシ",
    "town": "上人南",
    "town_kana": "ショウニンミナミ",
    "street": null,
    "office_name": null,
    "office_name_kana": null
  },
  "0034": {
    "zip_code": "8740034",
    "prefecture": "大分県",
    "prefecture_kana": "オオイタケン",
    "prefecture_code": 44,
    "city": "別府市",
    "city_kana": "ベップシ",
    "town": "上人仲町",
    "town_kana": "ショウニンナカマチ",
    "street": null,
    "office_name": null,
    "office_name_kana": null
  },
  "0035": {
    "zip_code": "8740035",
    "prefecture": "大分県",
    "prefecture_kana": "オオイタケン",
    "prefecture_code": 44,
    "city": "別府市",
    "city_kana": "ベップシ",
    "town": "上人西",
    "town_kana": "ショウニンニシ",
    "street": null,
    "office_name": null,
    "office_name_kana": null
  },
  "0036": {
    "zip_code": "8740036",
    "prefecture": "大分県",
    "prefecture_kana": "オオイタケン",
    "prefecture_code": 44,
    "city": "別府市",
    "city_kana": "ベップシ",
    "town": "上平田町",
    "town_kana": "カミヒラタチョウ",
    "street": null,
    "office_name": null,
    "office_name_kana": null
  },
  "0037": {
    "zip_code": "8740037",
    "prefecture": "大分県",
    "prefecture_kana": "オオイタケン",
    "prefecture_code": 44,
    "city": "別府市",
    "city_kana": "ベップシ",
    "town": "大観山町",
    "town_kana": "ダイカンヤマチョウ",
    "street": null,
    "office_name": null,
    "office_name_kana": null
  },
  "0041": {
    "zip_code": "8740041",
    "prefecture": "大分県",
    "prefecture_kana": "オオイタケン",
    "prefecture_code": 44,
    "city": "別府市",
    "city_kana": "ベップシ",
    "town": "北鉄輪",
    "town_kana": "キタカンナワ",
    "street": null,
    "office_name": null,
    "office_name_kana": null
  },
  "0042": {
    "zip_code": "8740042",
    "prefecture": "大分県",
    "prefecture_kana": "オオイタケン",
    "prefecture_code": 44,
    "city": "別府市",
    "city_kana": "ベップシ",
    "town": "鉄輪東",
    "town_kana": "カンナワヒガシ",
    "street": null,
    "office_name": null,
    "office_name_kana": null
  },
  "0043": {
    "zip_code": "8740043",
    "prefecture": "大分県",
    "prefecture_kana": "オオイタケン",
    "prefecture_code": 44,
    "city": "別府市",
    "city_kana": "ベップシ",
    "town": "井田",
    "town_kana": "イダ",
    "street": null,
    "office_name": null,
    "office_name_kana": null
  },
  "0044": {
    "zip_code": "8740044",
    "prefecture": "大分県",
    "prefecture_kana": "オオイタケン",
    "prefecture_code": 44,
    "city": "別府市",
    "city_kana": "ベップシ",
    "town": "風呂本",
    "town_kana": "フロモト",
    "street": null,
    "office_name": null,
    "office_name_kana": null
  },
  "0045": {
    "zip_code": "8740045",
    "prefecture": "大分県",
    "prefecture_kana": "オオイタケン",
    "prefecture_code": 44,
    "city": "別府市",
    "city_kana": "ベップシ",
    "town": "御幸",
    "town_kana": "ミユキ",
    "street": null,
    "office_name": null,
    "office_name_kana": null
  },
  "0046": {
    "zip_code": "8740046",
    "prefecture": "大分県",
    "prefecture_kana": "オオイタケン",
    "prefecture_code": 44,
    "city": "別府市",
    "city_kana": "ベップシ",
    "town": "鉄輪上",
    "town_kana": "カンナワカミ",
    "street": null,
    "office_name": null,
    "office_name_kana": null
  },
  "0801": {
    "zip_code": "8740801",
    "prefecture": "大分県",
    "prefecture_kana": "オオイタケン",
    "prefecture_code": 44,
    "city": "別府市",
    "city_kana": "ベップシ",
    "town": "山の口",
    "town_kana": "ヤマノクチ",
    "street": null,
    "office_name": null,
    "office_name_kana": null
  },
  "0802": {
    "zip_code": "8740802",
    "prefecture": "大分県",
    "prefecture_kana": "オオイタケン",
    "prefecture_code": 44,
    "city": "別府市",
    "city_kana": "ベップシ",
    "town": "城島",
    "town_kana": "キジマ",
    "street": null,
    "office_name": null,
    "office_name_kana": null
  },
  "0803": {
    "zip_code": "8740803",
    "prefecture": "大分県",
    "prefecture_kana": "オオイタケン",
    "prefecture_code": 44,
    "city": "別府市",
    "city_kana": "ベップシ",
    "town": "東山一区",
    "town_kana": "ヒガシヤマイック",
    "street": null,
    "office_name": null,
    "office_name_kana": null
  },
  "0804": {
    "zip_code": "8740804",
    "prefecture": "大分県",
    "prefecture_kana": "オオイタケン",
    "prefecture_code": 44,
    "city": "別府市",
    "city_kana": "ベップシ",
    "town": "東山二区",
    "town_kana": "ヒガシヤマニク",
    "street": null,
    "office_name": null,
    "office_name_kana": null
  },
  "0805": {
    "zip_code": "8740805",
    "prefecture": "大分県",
    "prefecture_kana": "オオイタケン",
    "prefecture_code": 44,
    "city": "別府市",
    "city_kana": "ベップシ",
    "town": "枝郷",
    "town_kana": "エダゴウ",
    "street": null,
    "office_name": null,
    "office_name_kana": null
  },
  "0811": {
    "zip_code": "8740811",
    "prefecture": "大分県",
    "prefecture_kana": "オオイタケン",
    "prefecture_code": 44,
    "city": "別府市",
    "city_kana": "ベップシ",
    "town": "柳",
    "town_kana": "ヤナギ",
    "street": null,
    "office_name": null,
    "office_name_kana": null
  },
  "0812": {
    "zip_code": "8740812",
    "prefecture": "大分県",
    "prefecture_kana": "オオイタケン",
    "prefecture_code": 44,
    "city": "別府市",
    "city_kana": "ベップシ",
    "town": "朝見",
    "town_kana": "アサミ",
    "street": null,
    "office_name": null,
    "office_name_kana": null
  },
  "0813": {
    "zip_code": "8740813",
    "prefecture": "大分県",
    "prefecture_kana": "オオイタケン",
    "prefecture_code": 44,
    "city": "別府市",
    "city_kana": "ベップシ",
    "town": "両郡橋",
    "town_kana": "リョウグンバシ",
    "street": null,
    "office_name": null,
    "office_name_kana": null
  },
  "0814": {
    "zip_code": "8740814",
    "prefecture": "大分県",
    "prefecture_kana": "オオイタケン",
    "prefecture_code": 44,
    "city": "別府市",
    "city_kana": "ベップシ",
    "town": "浦田",
    "town_kana": "ウラタ",
    "street": null,
    "office_name": null,
    "office_name_kana": null
  },
  "0815": {
    "zip_code": "8740815",
    "prefecture": "大分県",
    "prefecture_kana": "オオイタケン",
    "prefecture_code": 44,
    "city": "別府市",
    "city_kana": "ベップシ",
    "town": "田の口",
    "town_kana": "タノクチ",
    "street": null,
    "office_name": null,
    "office_name_kana": null
  },
  "0816": {
    "zip_code": "8740816",
    "prefecture": "大分県",
    "prefecture_kana": "オオイタケン",
    "prefecture_code": 44,
    "city": "別府市",
    "city_kana": "ベップシ",
    "town": "河内",
    "town_kana": "コウチ",
    "street": null,
    "office_name": null,
    "office_name_kana": null
  },
  "0817": {
    "zip_code": "8740817",
    "prefecture": "大分県",
    "prefecture_kana": "オオイタケン",
    "prefecture_code": 44,
    "city": "別府市",
    "city_kana": "ベップシ",
    "town": "鳥越",
    "town_kana": "トリゴエ",
    "street": null,
    "office_name": null,
    "office_name_kana": null
  },
  "0818": {
    "zip_code": "8740818",
    "prefecture": "大分県",
    "prefecture_kana": "オオイタケン",
    "prefecture_code": 44,
    "city": "別府市",
    "city_kana": "ベップシ",
    "town": "山家",
    "town_kana": "ヤマガ",
    "street": null,
    "office_name": null,
    "office_name_kana": null
  },
  "0819": {
    "zip_code": "8740819",
    "prefecture": "大分県",
    "prefecture_kana": "オオイタケン",
    "prefecture_code": 44,
    "city": "別府市",
    "city_kana": "ベップシ",
    "town": "赤松",
    "town_kana": "アカマツ",
    "street": null,
    "office_name": null,
    "office_name_kana": null
  },
  "0820": {
    "zip_code": "8740820",
    "prefecture": "大分県",
    "prefecture_kana": "オオイタケン",
    "prefecture_code": 44,
    "city": "別府市",
    "city_kana": "ベップシ",
    "town": "原町",
    "town_kana": "ハラマチ",
    "street": null,
    "office_name": null,
    "office_name_kana": null
  },
  "0821": {
    "zip_code": "8740821",
    "prefecture": "大分県",
    "prefecture_kana": "オオイタケン",
    "prefecture_code": 44,
    "city": "別府市",
    "city_kana": "ベップシ",
    "town": "乙原",
    "town_kana": "オトバル",
    "street": null,
    "office_name": null,
    "office_name_kana": null
  },
  "0822": {
    "zip_code": "8740822",
    "prefecture": "大分県",
    "prefecture_kana": "オオイタケン",
    "prefecture_code": 44,
    "city": "別府市",
    "city_kana": "ベップシ",
    "town": "観海寺",
    "town_kana": "カンカイジ",
    "street": null,
    "office_name": null,
    "office_name_kana": null
  },
  "0823": {
    "zip_code": "8740823",
    "prefecture": "大分県",
    "prefecture_kana": "オオイタケン",
    "prefecture_code": 44,
    "city": "別府市",
    "city_kana": "ベップシ",
    "town": "南立石本町",
    "town_kana": "ミナミタテイシホンマチ",
    "street": null,
    "office_name": null,
    "office_name_kana": null
  },
  "0824": {
    "zip_code": "8740824",
    "prefecture": "大分県",
    "prefecture_kana": "オオイタケン",
    "prefecture_code": 44,
    "city": "別府市",
    "city_kana": "ベップシ",
    "town": "南立石板地町",
    "town_kana": "ミナミタテイシイタジチョウ",
    "street": null,
    "office_name": null,
    "office_name_kana": null
  },
  "0825": {
    "zip_code": "8740825",
    "prefecture": "大分県",
    "prefecture_kana": "オオイタケン",
    "prefecture_code": 44,
    "city": "別府市",
    "city_kana": "ベップシ",
    "town": "南立石八幡町",
    "town_kana": "ミナミタテイシハチマンチョウ",
    "street": null,
    "office_name": null,
    "office_name_kana": null
  },
  "0826": {
    "zip_code": "8740826",
    "prefecture": "大分県",
    "prefecture_kana": "オオイタケン",
    "prefecture_code": 44,
    "city": "別府市",
    "city_kana": "ベップシ",
    "town": "鶴見園町",
    "town_kana": "ツルミエンチョウ",
    "street": null,
    "office_name": null,
    "office_name_kana": null
  },
  "0827": {
    "zip_code": "8740827",
    "prefecture": "大分県",
    "prefecture_kana": "オオイタケン",
    "prefecture_code": 44,
    "city": "別府市",
    "city_kana": "ベップシ",
    "town": "南立石二区",
    "town_kana": "ミナミタテイシニク",
    "street": null,
    "office_name": null,
    "office_name_kana": null
  },
  "0828": {
    "zip_code": "8740828",
    "prefecture": "大分県",
    "prefecture_kana": "オオイタケン",
    "prefecture_code": 44,
    "city": "別府市",
    "city_kana": "ベップシ",
    "town": "山の手町",
    "town_kana": "ヤマノテチョウ",
    "street": null,
    "office_name": null,
    "office_name_kana": null
  },
  "0829": {
    "zip_code": "8740829",
    "prefecture": "大分県",
    "prefecture_kana": "オオイタケン",
    "prefecture_code": 44,
    "city": "別府市",
    "city_kana": "ベップシ",
    "town": "上原町",
    "town_kana": "カミハルチョウ",
    "street": null,
    "office_name": null,
    "office_name_kana": null
  },
  "0831": {
    "zip_code": "8740831",
    "prefecture": "大分県",
    "prefecture_kana": "オオイタケン",
    "prefecture_code": 44,
    "city": "別府市",
    "city_kana": "ベップシ",
    "town": "堀田",
    "town_kana": "ホリタ",
    "street": null,
    "office_name": null,
    "office_name_kana": null
  },
  "0832": {
    "zip_code": "8740832",
    "prefecture": "大分県",
    "prefecture_kana": "オオイタケン",
    "prefecture_code": 44,
    "city": "別府市",
    "city_kana": "ベップシ",
    "town": "南立石生目町",
    "town_kana": "ミナミタテイシイキメチョウ",
    "street": null,
    "office_name": null,
    "office_name_kana": null
  },
  "0833": {
    "zip_code": "8740833",
    "prefecture": "大分県",
    "prefecture_kana": "オオイタケン",
    "prefecture_code": 44,
    "city": "別府市",
    "city_kana": "ベップシ",
    "town": "鶴見",
    "town_kana": "ツルミ",
    "street": null,
    "office_name": null,
    "office_name_kana": null
  },
  "0834": {
    "zip_code": "8740834",
    "prefecture": "大分県",
    "prefecture_kana": "オオイタケン",
    "prefecture_code": 44,
    "city": "別府市",
    "city_kana": "ベップシ",
    "town": "新別府",
    "town_kana": "シンベップ",
    "street": null,
    "office_name": null,
    "office_name_kana": null
  },
  "0835": {
    "zip_code": "8740835",
    "prefecture": "大分県",
    "prefecture_kana": "オオイタケン",
    "prefecture_code": 44,
    "city": "別府市",
    "city_kana": "ベップシ",
    "town": "実相寺",
    "town_kana": "ジッソウジ",
    "street": null,
    "office_name": null,
    "office_name_kana": null
  },
  "0836": {
    "zip_code": "8740836",
    "prefecture": "大分県",
    "prefecture_kana": "オオイタケン",
    "prefecture_code": 44,
    "city": "別府市",
    "city_kana": "ベップシ",
    "town": "東荘園",
    "town_kana": "ヒガシソウエン",
    "street": null,
    "office_name": null,
    "office_name_kana": null
  },
  "0837": {
    "zip_code": "8740837",
    "prefecture": "大分県",
    "prefecture_kana": "オオイタケン",
    "prefecture_code": 44,
    "city": "別府市",
    "city_kana": "ベップシ",
    "town": "荘園北町",
    "town_kana": "ソウエンキタマチ",
    "street": null,
    "office_name": null,
    "office_name_kana": null
  },
  "0838": {
    "zip_code": "8740838",
    "prefecture": "大分県",
    "prefecture_kana": "オオイタケン",
    "prefecture_code": 44,
    "city": "別府市",
    "city_kana": "ベップシ",
    "town": "荘園",
    "town_kana": "ソウエン",
    "street": null,
    "office_name": null,
    "office_name_kana": null
  },
  "0839": {
    "zip_code": "8740839",
    "prefecture": "大分県",
    "prefecture_kana": "オオイタケン",
    "prefecture_code": 44,
    "city": "別府市",
    "city_kana": "ベップシ",
    "town": "南立石一区",
    "town_kana": "ミナミタテイシイック",
    "street": null,
    "office_name": null,
    "office_name_kana": null
  },
  "0840": [
    {
      "zip_code": "8740840",
      "prefecture": "大分県",
      "prefecture_kana": "オオイタケン",
      "prefecture_code": 44,
      "city": "別府市",
      "city_kana": "ベップシ",
      "town": "鶴見",
      "town_kana": "ツルミ",
      "street": null,
      "office_name": null,
      "office_name_kana": null
    },
    {
      "zip_code": "8740840",
      "prefecture": "大分県",
      "prefecture_kana": "オオイタケン",
      "prefecture_code": 44,
      "city": "別府市",
      "city_kana": "ベップシ",
      "town": "鶴見大字",
      "town_kana": "ツルミオオアザ",
      "street": null,
      "office_name": null,
      "office_name_kana": null
    }
  ],
  "0841": {
    "zip_code": "8740841",
    "prefecture": "大分県",
    "prefecture_kana": "オオイタケン",
    "prefecture_code": 44,
    "city": "別府市",
    "city_kana": "ベップシ",
    "town": "竹の内",
    "town_kana": "タケノウチ",
    "street": null,
    "office_name": null,
    "office_name_kana": null
  },
  "0842": {
    "zip_code": "8740842",
    "prefecture": "大分県",
    "prefecture_kana": "オオイタケン",
    "prefecture_code": 44,
    "city": "別府市",
    "city_kana": "ベップシ",
    "town": "小倉",
    "town_kana": "オグラ",
    "street": null,
    "office_name": null,
    "office_name_kana": null
  },
  "0843": {
    "zip_code": "8740843",
    "prefecture": "大分県",
    "prefecture_kana": "オオイタケン",
    "prefecture_code": 44,
    "city": "別府市",
    "city_kana": "ベップシ",
    "town": "明礬",
    "town_kana": "ミョウバン",
    "street": null,
    "office_name": null,
    "office_name_kana": null
  },
  "0844": {
    "zip_code": "8740844",
    "prefecture": "大分県",
    "prefecture_kana": "オオイタケン",
    "prefecture_code": 44,
    "city": "別府市",
    "city_kana": "ベップシ",
    "town": "火売",
    "town_kana": "ホノメ",
    "street": null,
    "office_name": null,
    "office_name_kana": null
  },
  "0845": {
    "zip_code": "8740845",
    "prefecture": "大分県",
    "prefecture_kana": "オオイタケン",
    "prefecture_code": 44,
    "city": "別府市",
    "city_kana": "ベップシ",
    "town": "北中",
    "town_kana": "キタジュウ",
    "street": null,
    "office_name": null,
    "office_name_kana": null
  },
  "0846": {
    "zip_code": "8740846",
    "prefecture": "大分県",
    "prefecture_kana": "オオイタケン",
    "prefecture_code": 44,
    "city": "別府市",
    "city_kana": "ベップシ",
    "town": "朝日ケ丘町",
    "town_kana": "アサヒガオカチョウ",
    "street": null,
    "office_name": null,
    "office_name_kana": null
  },
  "0847": {
    "zip_code": "8740847",
    "prefecture": "大分県",
    "prefecture_kana": "オオイタケン",
    "prefecture_code": 44,
    "city": "別府市",
    "city_kana": "ベップシ",
    "town": "馬場",
    "town_kana": "ババ",
    "street": null,
    "office_name": null,
    "office_name_kana": null
  },
  "0848": {
    "zip_code": "8740848",
    "prefecture": "大分県",
    "prefecture_kana": "オオイタケン",
    "prefecture_code": 44,
    "city": "別府市",
    "city_kana": "ベップシ",
    "town": "大畑",
    "town_kana": "オバタケ",
    "street": null,
    "office_name": null,
    "office_name_kana": null
  },
  "0849": {
    "zip_code": "8740849",
    "prefecture": "大分県",
    "prefecture_kana": "オオイタケン",
    "prefecture_code": 44,
    "city": "別府市",
    "city_kana": "ベップシ",
    "town": "扇山",
    "town_kana": "オウギヤマ",
    "street": null,
    "office_name": null,
    "office_name_kana": null
  },
  "0901": {
    "zip_code": "8740901",
    "prefecture": "大分県",
    "prefecture_kana": "オオイタケン",
    "prefecture_code": 44,
    "city": "別府市",
    "city_kana": "ベップシ",
    "town": "中島町",
    "town_kana": "ナカシマチョウ",
    "street": null,
    "office_name": null,
    "office_name_kana": null
  },
  "0902": {
    "zip_code": "8740902",
    "prefecture": "大分県",
    "prefecture_kana": "オオイタケン",
    "prefecture_code": 44,
    "city": "別府市",
    "city_kana": "ベップシ",
    "town": "青山町",
    "town_kana": "アオヤマチョウ",
    "street": null,
    "office_name": null,
    "office_name_kana": null
  },
  "0903": {
    "zip_code": "8740903",
    "prefecture": "大分県",
    "prefecture_kana": "オオイタケン",
    "prefecture_code": 44,
    "city": "別府市",
    "city_kana": "ベップシ",
    "town": "野口原",
    "town_kana": "ノグチハラ",
    "street": null,
    "office_name": null,
    "office_name_kana": null
  },
  "0904": {
    "zip_code": "8740904",
    "prefecture": "大分県",
    "prefecture_kana": "オオイタケン",
    "prefecture_code": 44,
    "city": "別府市",
    "city_kana": "ベップシ",
    "town": "南荘園町",
    "town_kana": "ミナミソウエンチョウ",
    "street": null,
    "office_name": null,
    "office_name_kana": null
  },
  "0905": {
    "zip_code": "8740905",
    "prefecture": "大分県",
    "prefecture_kana": "オオイタケン",
    "prefecture_code": 44,
    "city": "別府市",
    "city_kana": "ベップシ",
    "town": "上野口町",
    "town_kana": "カミノグチチョウ",
    "street": null,
    "office_name": null,
    "office_name_kana": null
  },
  "0906": {
    "zip_code": "8740906",
    "prefecture": "大分県",
    "prefecture_kana": "オオイタケン",
    "prefecture_code": 44,
    "city": "別府市",
    "city_kana": "ベップシ",
    "town": "天満町",
    "town_kana": "テンマンチョウ",
    "street": null,
    "office_name": null,
    "office_name_kana": null
  },
  "0907": {
    "zip_code": "8740907",
    "prefecture": "大分県",
    "prefecture_kana": "オオイタケン",
    "prefecture_code": 44,
    "city": "別府市",
    "city_kana": "ベップシ",
    "town": "幸町",
    "town_kana": "サイワイチョウ",
    "street": null,
    "office_name": null,
    "office_name_kana": null
  },
  "0908": {
    "zip_code": "8740908",
    "prefecture": "大分県",
    "prefecture_kana": "オオイタケン",
    "prefecture_code": 44,
    "city": "別府市",
    "city_kana": "ベップシ",
    "town": "上田の湯町",
    "town_kana": "カミタノユマチ",
    "street": null,
    "office_name": null,
    "office_name_kana": null
  },
  "0909": {
    "zip_code": "8740909",
    "prefecture": "大分県",
    "prefecture_kana": "オオイタケン",
    "prefecture_code": 44,
    "city": "別府市",
    "city_kana": "ベップシ",
    "town": "田の湯町",
    "town_kana": "タノユマチ",
    "street": null,
    "office_name": null,
    "office_name_kana": null
  },
  "0910": {
    "zip_code": "8740910",
    "prefecture": "大分県",
    "prefecture_kana": "オオイタケン",
    "prefecture_code": 44,
    "city": "別府市",
    "city_kana": "ベップシ",
    "town": "石垣西",
    "town_kana": "イシガキニシ",
    "street": null,
    "office_name": null,
    "office_name_kana": null
  },
  "0911": {
    "zip_code": "8740911",
    "prefecture": "大分県",
    "prefecture_kana": "オオイタケン",
    "prefecture_code": 44,
    "city": "別府市",
    "city_kana": "ベップシ",
    "town": "緑丘町",
    "town_kana": "ミドリガオカチョウ",
    "street": null,
    "office_name": null,
    "office_name_kana": null
  },
  "0912": {
    "zip_code": "8740912",
    "prefecture": "大分県",
    "prefecture_kana": "オオイタケン",
    "prefecture_code": 44,
    "city": "別府市",
    "city_kana": "ベップシ",
    "town": "南須賀",
    "town_kana": "ミナミスカ",
    "street": null,
    "office_name": null,
    "office_name_kana": null
  },
  "0913": {
    "zip_code": "8740913",
    "prefecture": "大分県",
    "prefecture_kana": "オオイタケン",
    "prefecture_code": 44,
    "city": "別府市",
    "city_kana": "ベップシ",
    "town": "春木",
    "town_kana": "ハルキ",
    "street": null,
    "office_name": null,
    "office_name_kana": null
  },
  "0914": {
    "zip_code": "8740914",
    "prefecture": "大分県",
    "prefecture_kana": "オオイタケン",
    "prefecture_code": 44,
    "city": "別府市",
    "city_kana": "ベップシ",
    "town": "中須賀元町",
    "town_kana": "ナカスカモトマチ",
    "street": null,
    "office_name": null,
    "office_name_kana": null
  },
  "0915": {
    "zip_code": "8740915",
    "prefecture": "大分県",
    "prefecture_kana": "オオイタケン",
    "prefecture_code": 44,
    "city": "別府市",
    "city_kana": "ベップシ",
    "town": "桜ケ丘",
    "town_kana": "サクラガオカ",
    "street": null,
    "office_name": null,
    "office_name_kana": null
  },
  "0916": {
    "zip_code": "8740916",
    "prefecture": "大分県",
    "prefecture_kana": "オオイタケン",
    "prefecture_code": 44,
    "city": "別府市",
    "city_kana": "ベップシ",
    "town": "中須賀本町",
    "town_kana": "ナカスカホンマチ",
    "street": null,
    "office_name": null,
    "office_name_kana": null
  },
  "0917": {
    "zip_code": "8740917",
    "prefecture": "大分県",
    "prefecture_kana": "オオイタケン",
    "prefecture_code": 44,
    "city": "別府市",
    "city_kana": "ベップシ",
    "town": "中須賀東町",
    "town_kana": "ナカスカヒガシマチ",
    "street": null,
    "office_name": null,
    "office_name_kana": null
  },
  "0918": {
    "zip_code": "8740918",
    "prefecture": "大分県",
    "prefecture_kana": "オオイタケン",
    "prefecture_code": 44,
    "city": "別府市",
    "city_kana": "ベップシ",
    "town": "汐見町",
    "town_kana": "シオミチョウ",
    "street": null,
    "office_name": null,
    "office_name_kana": null
  },
  "0919": {
    "zip_code": "8740919",
    "prefecture": "大分県",
    "prefecture_kana": "オオイタケン",
    "prefecture_code": 44,
    "city": "別府市",
    "city_kana": "ベップシ",
    "town": "石垣東",
    "town_kana": "イシガキヒガシ",
    "street": null,
    "office_name": null,
    "office_name_kana": null
  },
  "0920": {
    "zip_code": "8740920",
    "prefecture": "大分県",
    "prefecture_kana": "オオイタケン",
    "prefecture_code": 44,
    "city": "別府市",
    "city_kana": "ベップシ",
    "town": "北浜",
    "town_kana": "キタハマ",
    "street": null,
    "office_name": null,
    "office_name_kana": null
  },
  "0921": {
    "zip_code": "8740921",
    "prefecture": "大分県",
    "prefecture_kana": "オオイタケン",
    "prefecture_code": 44,
    "city": "別府市",
    "city_kana": "ベップシ",
    "town": "富士見町",
    "town_kana": "フジミチョウ",
    "street": null,
    "office_name": null,
    "office_name_kana": null
  },
  "0922": {
    "zip_code": "8740922",
    "prefecture": "大分県",
    "prefecture_kana": "オオイタケン",
    "prefecture_code": 44,
    "city": "別府市",
    "city_kana": "ベップシ",
    "town": "船小路町",
    "town_kana": "フナコウジマチ",
    "street": null,
    "office_name": null,
    "office_name_kana": null
  },
  "0923": {
    "zip_code": "8740923",
    "prefecture": "大分県",
    "prefecture_kana": "オオイタケン",
    "prefecture_code": 44,
    "city": "別府市",
    "city_kana": "ベップシ",
    "town": "新港町",
    "town_kana": "シンミナトマチ",
    "street": null,
    "office_name": null,
    "office_name_kana": null
  },
  "0924": {
    "zip_code": "8740924",
    "prefecture": "大分県",
    "prefecture_kana": "オオイタケン",
    "prefecture_code": 44,
    "city": "別府市",
    "city_kana": "ベップシ",
    "town": "餅ケ浜町",
    "town_kana": "モチガハマチョウ",
    "street": null,
    "office_name": null,
    "office_name_kana": null
  },
  "0925": {
    "zip_code": "8740925",
    "prefecture": "大分県",
    "prefecture_kana": "オオイタケン",
    "prefecture_code": 44,
    "city": "別府市",
    "city_kana": "ベップシ",
    "town": "若草町",
    "town_kana": "ワカクサチョウ",
    "street": null,
    "office_name": null,
    "office_name_kana": null
  },
  "0926": {
    "zip_code": "8740926",
    "prefecture": "大分県",
    "prefecture_kana": "オオイタケン",
    "prefecture_code": 44,
    "city": "別府市",
    "city_kana": "ベップシ",
    "town": "京町",
    "town_kana": "キョウマチ",
    "street": null,
    "office_name": null,
    "office_name_kana": null
  },
  "0927": {
    "zip_code": "8740927",
    "prefecture": "大分県",
    "prefecture_kana": "オオイタケン",
    "prefecture_code": 44,
    "city": "別府市",
    "city_kana": "ベップシ",
    "town": "弓ケ浜町",
    "town_kana": "ユミガハマチョウ",
    "street": null,
    "office_name": null,
    "office_name_kana": null
  },
  "0928": {
    "zip_code": "8740928",
    "prefecture": "大分県",
    "prefecture_kana": "オオイタケン",
    "prefecture_code": 44,
    "city": "別府市",
    "city_kana": "ベップシ",
    "town": "北的ケ浜町",
    "town_kana": "キタマトガハマチョウ",
    "street": null,
    "office_name": null,
    "office_name_kana": null
  },
  "0929": {
    "zip_code": "8740929",
    "prefecture": "大分県",
    "prefecture_kana": "オオイタケン",
    "prefecture_code": 44,
    "city": "別府市",
    "city_kana": "ベップシ",
    "town": "南的ケ浜町",
    "town_kana": "ミナミマトガハマチョウ",
    "street": null,
    "office_name": null,
    "office_name_kana": null
  },
  "0930": {
    "zip_code": "8740930",
    "prefecture": "大分県",
    "prefecture_kana": "オオイタケン",
    "prefecture_code": 44,
    "city": "別府市",
    "city_kana": "ベップシ",
    "town": "光町",
    "town_kana": "ヒカリマチ",
    "street": null,
    "office_name": null,
    "office_name_kana": null
  },
  "0931": {
    "zip_code": "8740931",
    "prefecture": "大分県",
    "prefecture_kana": "オオイタケン",
    "prefecture_code": 44,
    "city": "別府市",
    "city_kana": "ベップシ",
    "town": "西野口町",
    "town_kana": "ニシノグチマチ",
    "street": null,
    "office_name": null,
    "office_name_kana": null
  },
  "0932": {
    "zip_code": "8740932",
    "prefecture": "大分県",
    "prefecture_kana": "オオイタケン",
    "prefecture_code": 44,
    "city": "別府市",
    "city_kana": "ベップシ",
    "town": "野口中町",
    "town_kana": "ノグチナカマチ",
    "street": null,
    "office_name": null,
    "office_name_kana": null
  },
  "0933": {
    "zip_code": "8740933",
    "prefecture": "大分県",
    "prefecture_kana": "オオイタケン",
    "prefecture_code": 44,
    "city": "別府市",
    "city_kana": "ベップシ",
    "town": "野口元町",
    "town_kana": "ノグチモトマチ",
    "street": null,
    "office_name": null,
    "office_name_kana": null
  },
  "0934": {
    "zip_code": "8740934",
    "prefecture": "大分県",
    "prefecture_kana": "オオイタケン",
    "prefecture_code": 44,
    "city": "別府市",
    "city_kana": "ベップシ",
    "town": "駅前本町",
    "town_kana": "エキマエホンマチ",
    "street": null,
    "office_name": null,
    "office_name_kana": null
  },
  "0935": {
    "zip_code": "8740935",
    "prefecture": "大分県",
    "prefecture_kana": "オオイタケン",
    "prefecture_code": 44,
    "city": "別府市",
    "city_kana": "ベップシ",
    "town": "駅前町",
    "town_kana": "エキマエチョウ",
    "street": null,
    "office_name": null,
    "office_name_kana": null
  },
  "0936": {
    "zip_code": "8740936",
    "prefecture": "大分県",
    "prefecture_kana": "オオイタケン",
    "prefecture_code": 44,
    "city": "別府市",
    "city_kana": "ベップシ",
    "town": "中央町",
    "town_kana": "チュウオウマチ",
    "street": null,
    "office_name": null,
    "office_name_kana": null
  },
  "0937": {
    "zip_code": "8740937",
    "prefecture": "大分県",
    "prefecture_kana": "オオイタケン",
    "prefecture_code": 44,
    "city": "別府市",
    "city_kana": "ベップシ",
    "town": "秋葉町",
    "town_kana": "アキバチョウ",
    "street": null,
    "office_name": null,
    "office_name_kana": null
  },
  "0938": {
    "zip_code": "8740938",
    "prefecture": "大分県",
    "prefecture_kana": "オオイタケン",
    "prefecture_code": 44,
    "city": "別府市",
    "city_kana": "ベップシ",
    "town": "末広町",
    "town_kana": "スエヒロチョウ",
    "street": null,
    "office_name": null,
    "office_name_kana": null
  },
  "0939": {
    "zip_code": "8740939",
    "prefecture": "大分県",
    "prefecture_kana": "オオイタケン",
    "prefecture_code": 44,
    "city": "別府市",
    "city_kana": "ベップシ",
    "town": "立田町",
    "town_kana": "タッタチョウ",
    "street": null,
    "office_name": null,
    "office_name_kana": null
  },
  "0941": {
    "zip_code": "8740941",
    "prefecture": "大分県",
    "prefecture_kana": "オオイタケン",
    "prefecture_code": 44,
    "city": "別府市",
    "city_kana": "ベップシ",
    "town": "南町",
    "town_kana": "ミナミマチ",
    "street": null,
    "office_name": null,
    "office_name_kana": null
  },
  "0942": {
    "zip_code": "8740942",
    "prefecture": "大分県",
    "prefecture_kana": "オオイタケン",
    "prefecture_code": 44,
    "city": "別府市",
    "city_kana": "ベップシ",
    "town": "千代町",
    "town_kana": "チヨマチ",
    "street": null,
    "office_name": null,
    "office_name_kana": null
  },
  "0943": {
    "zip_code": "8740943",
    "prefecture": "大分県",
    "prefecture_kana": "オオイタケン",
    "prefecture_code": 44,
    "city": "別府市",
    "city_kana": "ベップシ",
    "town": "楠町",
    "town_kana": "クスノキマチ",
    "street": null,
    "office_name": null,
    "office_name_kana": null
  },
  "0944": {
    "zip_code": "8740944",
    "prefecture": "大分県",
    "prefecture_kana": "オオイタケン",
    "prefecture_code": 44,
    "city": "別府市",
    "city_kana": "ベップシ",
    "town": "元町",
    "town_kana": "モトマチ",
    "street": null,
    "office_name": null,
    "office_name_kana": null
  },
  "0945": {
    "zip_code": "8740945",
    "prefecture": "大分県",
    "prefecture_kana": "オオイタケン",
    "prefecture_code": 44,
    "city": "別府市",
    "city_kana": "ベップシ",
    "town": "浜町",
    "town_kana": "ハママチ",
    "street": null,
    "office_name": null,
    "office_name_kana": null
  },
  "0946": {
    "zip_code": "8740946",
    "prefecture": "大分県",
    "prefecture_kana": "オオイタケン",
    "prefecture_code": 44,
    "city": "別府市",
    "city_kana": "ベップシ",
    "town": "松原町",
    "town_kana": "マツバラチョウ",
    "street": null,
    "office_name": null,
    "office_name_kana": null
  },
  "0947": {
    "zip_code": "8740947",
    "prefecture": "大分県",
    "prefecture_kana": "オオイタケン",
    "prefecture_code": 44,
    "city": "別府市",
    "city_kana": "ベップシ",
    "town": "浜脇",
    "town_kana": "ハマワキ",
    "street": null,
    "office_name": null,
    "office_name_kana": null
  },
  "8501": {
    "zip_code": "8748501",
    "prefecture": "大分県",
    "prefecture_kana": null,
    "prefecture_code": null,
    "city": "別府市",
    "city_kana": null,
    "town": "大字北石垣",
    "town_kana": null,
    "street": "８２",
    "office_name": "学校法人　別府大学",
    "office_name_kana": "ガツコウホウジン ベツプダイガク"
  },
  "8511": {
    "zip_code": "8748511",
    "prefecture": "大分県",
    "prefecture_kana": "オオイタケン",
    "prefecture_code": 44,
    "city": "別府市",
    "city_kana": "ベップシ",
    "town": "上野口町",
    "town_kana": "カミノグチチョウ",
    "street": "１−１５",
    "office_name": "別府市役所",
    "office_name_kana": "ベツプシヤクシヨ"
  },
  "8555": {
    "zip_code": "8748555",
    "prefecture": "大分県",
    "prefecture_kana": "オオイタケン",
    "prefecture_code": 44,
    "city": "別府市",
    "city_kana": "ベップシ",
    "town": "西野口町",
    "town_kana": "ニシノグチマチ",
    "street": "２−４１",
    "office_name": "別府社会保険事務所",
    "office_name_kana": "ベツプシヤカイホケンジムシヨ"
  },
  "8557": {
    "zip_code": "8748557",
    "prefecture": "大分県",
    "prefecture_kana": "オオイタケン",
    "prefecture_code": 44,
    "city": "別府市",
    "city_kana": "ベップシ",
    "town": "堀田",
    "town_kana": "ホリタ",
    "street": "７組−１",
    "office_name": "ＣＴＢメディア　株式会社",
    "office_name_kana": "シ-テイ-ビ-メデイア カブシキガイシヤ"
  },
  "8558": {
    "zip_code": "8748558",
    "prefecture": "大分県",
    "prefecture_kana": "オオイタケン",
    "prefecture_code": 44,
    "city": "別府市",
    "city_kana": "ベップシ",
    "town": "北浜",
    "town_kana": "キタハマ",
    "street": "２丁目９−１",
    "office_name": "株式会社　トキハ　別府店",
    "office_name_kana": "カブシキガイシヤ トキハ ベツプテン"
  },
  "8567": {
    "zip_code": "8748567",
    "prefecture": "大分県",
    "prefecture_kana": null,
    "prefecture_code": null,
    "city": "別府市",
    "city_kana": null,
    "town": "大字野田",
    "town_kana": null,
    "street": "７８番地",
    "office_name": "学校法人　溝部学園",
    "office_name_kana": "ガツコウホウジン ミゾベガクエン"
  },
  "8577": {
    "zip_code": "8748577",
    "prefecture": "大分県",
    "prefecture_kana": "オオイタケン",
    "prefecture_code": 44,
    "city": "別府市",
    "city_kana": "ベップシ",
    "town": "",
    "town_kana": "",
    "street": "大字十文字原１番１号",
    "office_name": "立命館アジア太平洋大学",
    "office_name_kana": "リツメイカンアジアタイヘイヨウダイガク"
  },
  "8585": {
    "zip_code": "8748585",
    "prefecture": "大分県",
    "prefecture_kana": null,
    "prefecture_code": null,
    "city": "別府市",
    "city_kana": null,
    "town": "大字鶴見",
    "town_kana": null,
    "street": "４３３３",
    "office_name": "大分県　厚生農業協同組合連合会",
    "office_name_kana": "オオイタケン コウセイノウギヨウキヨウドウクミアイレンゴウカイ"
  },
  "8588": {
    "zip_code": "8748588",
    "prefecture": "大分県",
    "prefecture_kana": "オオイタケン",
    "prefecture_code": 44,
    "city": "別府市",
    "city_kana": "ベップシ",
    "town": "楠町",
    "town_kana": "クスノキマチ",
    "street": "１７−５",
    "office_name": "別府商工会議所",
    "office_name_kana": "ベツプシヨウコウカイギシヨ"
  },
  "8611": {
    "zip_code": "8748611",
    "prefecture": "大分県",
    "prefecture_kana": "オオイタケン",
    "prefecture_code": 44,
    "city": "別府市",
    "city_kana": "ベップシ",
    "town": "鶴見",
    "town_kana": "ツルミ",
    "street": "１０２６−１０",
    "office_name": "社会福祉法人　農協共済　別府リハビリテーションセンター",
    "office_name_kana": "シヤカイフクシホウジン ノウキヨウキヨウサイ ベツプリハビリテ-シヨンセンタ-"
  },
  "8639": {
    "zip_code": "8748639",
    "prefecture": "大分県",
    "prefecture_kana": "オオイタケン",
    "prefecture_code": 44,
    "city": "別府市",
    "city_kana": "ベップシ",
    "town": "駅前本町",
    "town_kana": "エキマエホンマチ",
    "street": "１−３１（別府郵便局私書箱第１３号）",
    "office_name": "大分みらい信用金庫",
    "office_name_kana": "オオイタミライシンヨウキンコ"
  },
  "8660": {
    "zip_code": "8748660",
    "prefecture": "大分県",
    "prefecture_kana": "オオイタケン",
    "prefecture_code": 44,
    "city": "別府市",
    "city_kana": "ベップシ",
    "town": "末広町",
    "town_kana": "スエヒロチョウ",
    "street": "１番３２号（別府郵便局私書箱第２号）",
    "office_name": "株式会社　大分銀行　別府支店",
    "office_name_kana": "カブシキガイシヤ オオイタギンコウ ベツプシテン"
  },
  "8666": {
    "zip_code": "8748666",
    "prefecture": "大分県",
    "prefecture_kana": null,
    "prefecture_code": null,
    "city": "別府市",
    "city_kana": null,
    "town": "大字東山",
    "town_kana": null,
    "street": "１２３番地の１",
    "office_name": "株式会社　西日本後楽園",
    "office_name_kana": "カブシキガイシヤ ニシニホンコウラクエン"
  },
  "8686": {
    "zip_code": "8748686",
    "prefecture": "大分県",
    "prefecture_kana": "オオイタケン",
    "prefecture_code": 44,
    "city": "別府市",
    "city_kana": "ベップシ",
    "town": "光町",
    "town_kana": "ヒカリマチ",
    "street": "２２−２５（別府郵便局私書箱第３５号）",
    "office_name": "別府税務署",
    "office_name_kana": "ベツプゼイムシヨ"
  },
  "8688": {
    "zip_code": "8748688",
    "prefecture": "大分県",
    "prefecture_kana": "オオイタケン",
    "prefecture_code": 44,
    "city": "別府市",
    "city_kana": "ベップシ",
    "town": "鶴見",
    "town_kana": "ツルミ",
    "street": "４５番地の３",
    "office_name": "べっぷ日出農業協同組合",
    "office_name_kana": "ベツプヒジノウギヨウキヨウドウクミアイ"
  }
}