{
  "0101": {
    "zip_code": "8790101",
    "prefecture": "大分県",
    "prefecture_kana": "オオイタケン",
    "prefecture_code": "44",
    "city": "中津市",
    "city_kana": "ナカツシ",
    "town": "今津",
    "town_kana": "イマヅ",
    "street": null,
    "office_name": null,
    "office_name_kana": null
  },
  "0102": {
    "zip_code": "8790102",
    "prefecture": "大分県",
    "prefecture_kana": "オオイタケン",
    "prefecture_code": "44",
    "city": "中津市",
    "city_kana": "ナカツシ",
    "town": "鍋島",
    "town_kana": "ナベシマ",
    "street": null,
    "office_name": null,
    "office_name_kana": null
  },
  "0103": {
    "zip_code": "8790103",
    "prefecture": "大分県",
    "prefecture_kana": "オオイタケン",
    "prefecture_code": "44",
    "city": "中津市",
    "city_kana": "ナカツシ",
    "town": "植野",
    "town_kana": "ウエノ",
    "street": null,
    "office_name": null,
    "office_name_kana": null
  },
  "0104": {
    "zip_code": "8790104",
    "prefecture": "大分県",
    "prefecture_kana": "オオイタケン",
    "prefecture_code": "44",
    "city": "中津市",
    "city_kana": "ナカツシ",
    "town": "野依",
    "town_kana": "ノヨリ",
    "street": null,
    "office_name": null,
    "office_name_kana": null
  },
  "0105": {
    "zip_code": "8790105",
    "prefecture": "大分県",
    "prefecture_kana": "オオイタケン",
    "prefecture_code": "44",
    "city": "中津市",
    "city_kana": "ナカツシ",
    "town": "犬丸",
    "town_kana": "イヌマル",
    "street": null,
    "office_name": null,
    "office_name_kana": null
  },
  "0106": {
    "zip_code": "8790106",
    "prefecture": "大分県",
    "prefecture_kana": "オオイタケン",
    "prefecture_code": "44",
    "city": "中津市",
    "city_kana": "ナカツシ",
    "town": "赤迫",
    "town_kana": "アカサコ",
    "street": null,
    "office_name": null,
    "office_name_kana": null
  },
  "0107": {
    "zip_code": "8790107",
    "prefecture": "大分県",
    "prefecture_kana": "オオイタケン",
    "prefecture_code": "44",
    "city": "中津市",
    "city_kana": "ナカツシ",
    "town": "昭和新田",
    "town_kana": "ショウワシンデン",
    "street": null,
    "office_name": null,
    "office_name_kana": null
  },
  "0111": {
    "zip_code": "8790111",
    "prefecture": "大分県",
    "prefecture_kana": "オオイタケン",
    "prefecture_code": "44",
    "city": "中津市",
    "city_kana": "ナカツシ",
    "town": "伊藤田",
    "town_kana": "イドウダ",
    "street": null,
    "office_name": null,
    "office_name_kana": null
  },
  "0112": {
    "zip_code": "8790112",
    "prefecture": "大分県",
    "prefecture_kana": "オオイタケン",
    "prefecture_code": "44",
    "city": "中津市",
    "city_kana": "ナカツシ",
    "town": "福島",
    "town_kana": "フクシマ",
    "street": null,
    "office_name": null,
    "office_name_kana": null
  },
  "0113": {
    "zip_code": "8790113",
    "prefecture": "大分県",
    "prefecture_kana": "オオイタケン",
    "prefecture_code": "44",
    "city": "中津市",
    "city_kana": "ナカツシ",
    "town": "北原",
    "town_kana": "キタバル",
    "street": null,
    "office_name": null,
    "office_name_kana": null
  },
  "0121": {
    "zip_code": "8790121",
    "prefecture": "大分県",
    "prefecture_kana": "オオイタケン",
    "prefecture_code": "44",
    "city": "中津市",
    "city_kana": "ナカツシ",
    "town": "諸田",
    "town_kana": "モロタ",
    "street": null,
    "office_name": null,
    "office_name_kana": null
  },
  "0122": {
    "zip_code": "8790122",
    "prefecture": "大分県",
    "prefecture_kana": "オオイタケン",
    "prefecture_code": "44",
    "city": "中津市",
    "city_kana": "ナカツシ",
    "town": "定留",
    "town_kana": "サダノミ",
    "street": null,
    "office_name": null,
    "office_name_kana": null
  },
  "0123": {
    "zip_code": "8790123",
    "prefecture": "大分県",
    "prefecture_kana": "オオイタケン",
    "prefecture_code": "44",
    "city": "中津市",
    "city_kana": "ナカツシ",
    "town": "田尻",
    "town_kana": "タジリ",
    "street": null,
    "office_name": null,
    "office_name_kana": null
  },
  "0124": {
    "zip_code": "8790124",
    "prefecture": "大分県",
    "prefecture_kana": "オオイタケン",
    "prefecture_code": "44",
    "city": "中津市",
    "city_kana": "ナカツシ",
    "town": "田尻崎",
    "town_kana": "タジリザキ",
    "street": null,
    "office_name": null,
    "office_name_kana": null
  },
  "0151": {
    "zip_code": "8790151",
    "prefecture": "大分県",
    "prefecture_kana": "オオイタケン",
    "prefecture_code": "44",
    "city": "宇佐市",
    "city_kana": "ウサシ",
    "town": "宮熊",
    "town_kana": "ミヤグマ",
    "street": null,
    "office_name": null,
    "office_name_kana": null
  },
  "0152": {
    "zip_code": "8790152",
    "prefecture": "大分県",
    "prefecture_kana": "オオイタケン",
    "prefecture_code": "44",
    "city": "宇佐市",
    "city_kana": "ウサシ",
    "town": "下庄",
    "town_kana": "シモショウ",
    "street": null,
    "office_name": null,
    "office_name_kana": null
  },
  "0153": {
    "zip_code": "8790153",
    "prefecture": "大分県",
    "prefecture_kana": "オオイタケン",
    "prefecture_code": "44",
    "city": "宇佐市",
    "city_kana": "ウサシ",
    "town": "上庄",
    "town_kana": "カミショウ",
    "street": null,
    "office_name": null,
    "office_name_kana": null
  },
  "0161": {
    "zip_code": "8790161",
    "prefecture": "大分県",
    "prefecture_kana": "オオイタケン",
    "prefecture_code": "44",
    "city": "宇佐市",
    "city_kana": "ウサシ",
    "town": "下敷田",
    "town_kana": "シモシキダ",
    "street": null,
    "office_name": null,
    "office_name_kana": null
  },
  "0162": {
    "zip_code": "8790162",
    "prefecture": "大分県",
    "prefecture_kana": "オオイタケン",
    "prefecture_code": "44",
    "city": "宇佐市",
    "city_kana": "ウサシ",
    "town": "中敷田",
    "town_kana": "ナカシキダ",
    "street": null,
    "office_name": null,
    "office_name_kana": null
  },
  "0163": {
    "zip_code": "8790163",
    "prefecture": "大分県",
    "prefecture_kana": "オオイタケン",
    "prefecture_code": "44",
    "city": "宇佐市",
    "city_kana": "ウサシ",
    "town": "上敷田",
    "town_kana": "カミシキダ",
    "street": null,
    "office_name": null,
    "office_name_kana": null
  },
  "0164": {
    "zip_code": "8790164",
    "prefecture": "大分県",
    "prefecture_kana": "オオイタケン",
    "prefecture_code": "44",
    "city": "宇佐市",
    "city_kana": "ウサシ",
    "town": "富山",
    "town_kana": "トミヤマ",
    "street": null,
    "office_name": null,
    "office_name_kana": null
  },
  "0221": {
    "zip_code": "8790221",
    "prefecture": "大分県",
    "prefecture_kana": "オオイタケン",
    "prefecture_code": "44",
    "city": "中津市",
    "city_kana": "ナカツシ",
    "town": "三光上秣",
    "town_kana": "サンコウカミマクサ",
    "street": null,
    "office_name": null,
    "office_name_kana": null
  },
  "0222": {
    "zip_code": "8790222",
    "prefecture": "大分県",
    "prefecture_kana": "オオイタケン",
    "prefecture_code": "44",
    "city": "中津市",
    "city_kana": "ナカツシ",
    "town": "三光西秣",
    "town_kana": "サンコウニシマクサ",
    "street": null,
    "office_name": null,
    "office_name_kana": null
  },
  "0223": {
    "zip_code": "8790223",
    "prefecture": "大分県",
    "prefecture_kana": "オオイタケン",
    "prefecture_code": "44",
    "city": "中津市",
    "city_kana": "ナカツシ",
    "town": "三光下秣",
    "town_kana": "サンコウシモマクサ",
    "street": null,
    "office_name": null,
    "office_name_kana": null
  },
  "0224": {
    "zip_code": "8790224",
    "prefecture": "大分県",
    "prefecture_kana": "オオイタケン",
    "prefecture_code": "44",
    "city": "中津市",
    "city_kana": "ナカツシ",
    "town": "三光下深水",
    "town_kana": "サンコウシモフコウズ",
    "street": null,
    "office_name": null,
    "office_name_kana": null
  },
  "0225": {
    "zip_code": "8790225",
    "prefecture": "大分県",
    "prefecture_kana": "オオイタケン",
    "prefecture_code": "44",
    "city": "中津市",
    "city_kana": "ナカツシ",
    "town": "三光上深水",
    "town_kana": "サンコウカミフコウズ",
    "street": null,
    "office_name": null,
    "office_name_kana": null
  },
  "0231": {
    "zip_code": "8790231",
    "prefecture": "大分県",
    "prefecture_kana": "オオイタケン",
    "prefecture_code": "44",
    "city": "宇佐市",
    "city_kana": "ウサシ",
    "town": "南敷田",
    "town_kana": "ミナミシキダ",
    "street": null,
    "office_name": null,
    "office_name_kana": null
  },
  "0232": {
    "zip_code": "8790232",
    "prefecture": "大分県",
    "prefecture_kana": "オオイタケン",
    "prefecture_code": "44",
    "city": "宇佐市",
    "city_kana": "ウサシ",
    "town": "大根川",
    "town_kana": "オオネガワ",
    "street": null,
    "office_name": null,
    "office_name_kana": null
  },
  "0233": {
    "zip_code": "8790233",
    "prefecture": "大分県",
    "prefecture_kana": "オオイタケン",
    "prefecture_code": "44",
    "city": "宇佐市",
    "city_kana": "ウサシ",
    "town": "赤尾",
    "town_kana": "アカオ",
    "street": null,
    "office_name": null,
    "office_name_kana": null
  },
  "0234": {
    "zip_code": "8790234",
    "prefecture": "大分県",
    "prefecture_kana": "オオイタケン",
    "prefecture_code": "44",
    "city": "宇佐市",
    "city_kana": "ウサシ",
    "town": "今仁",
    "town_kana": "イマニ",
    "street": null,
    "office_name": null,
    "office_name_kana": null
  },
  "0235": {
    "zip_code": "8790235",
    "prefecture": "大分県",
    "prefecture_kana": "オオイタケン",
    "prefecture_code": "44",
    "city": "宇佐市",
    "city_kana": "ウサシ",
    "town": "木部",
    "town_kana": "キベ",
    "street": null,
    "office_name": null,
    "office_name_kana": null
  },
  "0236": {
    "zip_code": "8790236",
    "prefecture": "大分県",
    "prefecture_kana": "オオイタケン",
    "prefecture_code": "44",
    "city": "宇佐市",
    "city_kana": "ウサシ",
    "town": "清水",
    "town_kana": "シミズ",
    "street": null,
    "office_name": null,
    "office_name_kana": null
  },
  "0237": {
    "zip_code": "8790237",
    "prefecture": "大分県",
    "prefecture_kana": "オオイタケン",
    "prefecture_code": "44",
    "city": "宇佐市",
    "city_kana": "ウサシ",
    "town": "佐野",
    "town_kana": "サノ",
    "street": null,
    "office_name": null,
    "office_name_kana": null
  },
  "0301": {
    "zip_code": "8790301",
    "prefecture": "大分県",
    "prefecture_kana": "オオイタケン",
    "prefecture_code": "44",
    "city": "宇佐市",
    "city_kana": "ウサシ",
    "town": "乙女新田",
    "town_kana": "オトメシンデン",
    "street": null,
    "office_name": null,
    "office_name_kana": null
  },
  "0302": {
    "zip_code": "8790302",
    "prefecture": "大分県",
    "prefecture_kana": "オオイタケン",
    "prefecture_code": "44",
    "city": "宇佐市",
    "city_kana": "ウサシ",
    "town": "下乙女",
    "town_kana": "シモオトメ",
    "street": null,
    "office_name": null,
    "office_name_kana": null
  },
  "0303": {
    "zip_code": "8790303",
    "prefecture": "大分県",
    "prefecture_kana": "オオイタケン",
    "prefecture_code": "44",
    "city": "宇佐市",
    "city_kana": "ウサシ",
    "town": "上乙女",
    "town_kana": "カミオトメ",
    "street": null,
    "office_name": null,
    "office_name_kana": null
  },
  "0304": {
    "zip_code": "8790304",
    "prefecture": "大分県",
    "prefecture_kana": "オオイタケン",
    "prefecture_code": "44",
    "city": "宇佐市",
    "city_kana": "ウサシ",
    "town": "尾永井",
    "town_kana": "オナガイ",
    "street": null,
    "office_name": null,
    "office_name_kana": null
  },
  "0305": {
    "zip_code": "8790305",
    "prefecture": "大分県",
    "prefecture_kana": "オオイタケン",
    "prefecture_code": "44",
    "city": "宇佐市",
    "city_kana": "ウサシ",
    "town": "上高家",
    "town_kana": "カミタケイ",
    "street": null,
    "office_name": null,
    "office_name_kana": null
  },
  "0306": {
    "zip_code": "8790306",
    "prefecture": "大分県",
    "prefecture_kana": "オオイタケン",
    "prefecture_code": "44",
    "city": "宇佐市",
    "city_kana": "ウサシ",
    "town": "西高家",
    "town_kana": "ニシタケイ",
    "street": null,
    "office_name": null,
    "office_name_kana": null
  },
  "0307": {
    "zip_code": "8790307",
    "prefecture": "大分県",
    "prefecture_kana": "オオイタケン",
    "prefecture_code": "44",
    "city": "宇佐市",
    "city_kana": "ウサシ",
    "town": "浜高家",
    "town_kana": "ハマタケイ",
    "street": null,
    "office_name": null,
    "office_name_kana": null
  },
  "0308": {
    "zip_code": "8790308",
    "prefecture": "大分県",
    "prefecture_kana": "オオイタケン",
    "prefecture_code": "44",
    "city": "宇佐市",
    "city_kana": "ウサシ",
    "town": "下高家",
    "town_kana": "シモタケイ",
    "street": null,
    "office_name": null,
    "office_name_kana": null
  },
  "0309": {
    "zip_code": "8790309",
    "prefecture": "大分県",
    "prefecture_kana": "オオイタケン",
    "prefecture_code": "44",
    "city": "宇佐市",
    "city_kana": "ウサシ",
    "town": "東高家",
    "town_kana": "ヒガシタケイ",
    "street": null,
    "office_name": null,
    "office_name_kana": null
  },
  "0311": {
    "zip_code": "8790311",
    "prefecture": "大分県",
    "prefecture_kana": "オオイタケン",
    "prefecture_code": "44",
    "city": "宇佐市",
    "city_kana": "ウサシ",
    "town": "森山",
    "town_kana": "モリヤマ",
    "street": null,
    "office_name": null,
    "office_name_kana": null
  },
  "0312": {
    "zip_code": "8790312",
    "prefecture": "大分県",
    "prefecture_kana": "オオイタケン",
    "prefecture_code": "44",
    "city": "宇佐市",
    "city_kana": "ウサシ",
    "town": "荒木",
    "town_kana": "アラキ",
    "street": null,
    "office_name": null,
    "office_name_kana": null
  },
  "0313": {
    "zip_code": "8790313",
    "prefecture": "大分県",
    "prefecture_kana": "オオイタケン",
    "prefecture_code": "44",
    "city": "宇佐市",
    "city_kana": "ウサシ",
    "town": "上高",
    "town_kana": "カミタカ",
    "street": null,
    "office_name": null,
    "office_name_kana": null
  },
  "0314": {
    "zip_code": "8790314",
    "prefecture": "大分県",
    "prefecture_kana": "オオイタケン",
    "prefecture_code": "44",
    "city": "宇佐市",
    "city_kana": "ウサシ",
    "town": "猿渡",
    "town_kana": "サルワタリ",
    "street": null,
    "office_name": null,
    "office_name_kana": null
  },
  "0315": {
    "zip_code": "8790315",
    "prefecture": "大分県",
    "prefecture_kana": "オオイタケン",
    "prefecture_code": "44",
    "city": "宇佐市",
    "city_kana": "ウサシ",
    "town": "上時枝",
    "town_kana": "カミトキエダ",
    "street": null,
    "office_name": null,
    "office_name_kana": null
  },
  "0316": {
    "zip_code": "8790316",
    "prefecture": "大分県",
    "prefecture_kana": "オオイタケン",
    "prefecture_code": "44",
    "city": "宇佐市",
    "city_kana": "ウサシ",
    "town": "下時枝",
    "town_kana": "シモトキエダ",
    "street": null,
    "office_name": null,
    "office_name_kana": null
  },
  "0317": {
    "zip_code": "8790317",
    "prefecture": "大分県",
    "prefecture_kana": "オオイタケン",
    "prefecture_code": "44",
    "city": "宇佐市",
    "city_kana": "ウサシ",
    "town": "下高",
    "town_kana": "シモタカ",
    "street": null,
    "office_name": null,
    "office_name_kana": null
  },
  "0441": {
    "zip_code": "8790441",
    "prefecture": "大分県",
    "prefecture_kana": "オオイタケン",
    "prefecture_code": "44",
    "city": "宇佐市",
    "city_kana": "ウサシ",
    "town": "吉松",
    "town_kana": "ヨシマツ",
    "street": null,
    "office_name": null,
    "office_name_kana": null
  },
  "0442": {
    "zip_code": "8790442",
    "prefecture": "大分県",
    "prefecture_kana": "オオイタケン",
    "prefecture_code": "44",
    "city": "宇佐市",
    "city_kana": "ウサシ",
    "town": "城井",
    "town_kana": "ジョウイ",
    "street": null,
    "office_name": null,
    "office_name_kana": null
  },
  "0443": {
    "zip_code": "8790443",
    "prefecture": "大分県",
    "prefecture_kana": "オオイタケン",
    "prefecture_code": "44",
    "city": "宇佐市",
    "city_kana": "ウサシ",
    "town": "葛原",
    "town_kana": "クズハラ",
    "street": null,
    "office_name": null,
    "office_name_kana": null
  },
  "0444": {
    "zip_code": "8790444",
    "prefecture": "大分県",
    "prefecture_kana": "オオイタケン",
    "prefecture_code": "44",
    "city": "宇佐市",
    "city_kana": "ウサシ",
    "town": "石田",
    "town_kana": "イシダ",
    "street": null,
    "office_name": null,
    "office_name_kana": null
  },
  "0451": {
    "zip_code": "8790451",
    "prefecture": "大分県",
    "prefecture_kana": "オオイタケン",
    "prefecture_code": "44",
    "city": "宇佐市",
    "city_kana": "ウサシ",
    "town": "畑田",
    "town_kana": "ハタケダ",
    "street": null,
    "office_name": null,
    "office_name_kana": null
  },
  "0452": {
    "zip_code": "8790452",
    "prefecture": "大分県",
    "prefecture_kana": "オオイタケン",
    "prefecture_code": "44",
    "city": "宇佐市",
    "city_kana": "ウサシ",
    "town": "川部",
    "town_kana": "カワベ",
    "street": null,
    "office_name": null,
    "office_name_kana": null
  },
  "0453": {
    "zip_code": "8790453",
    "prefecture": "大分県",
    "prefecture_kana": "オオイタケン",
    "prefecture_code": "44",
    "city": "宇佐市",
    "city_kana": "ウサシ",
    "town": "上田",
    "town_kana": "ウエダ",
    "street": null,
    "office_name": null,
    "office_name_kana": null
  },
  "0454": {
    "zip_code": "8790454",
    "prefecture": "大分県",
    "prefecture_kana": "オオイタケン",
    "prefecture_code": "44",
    "city": "宇佐市",
    "city_kana": "ウサシ",
    "town": "法鏡寺",
    "town_kana": "ホウキョウジ",
    "street": null,
    "office_name": null,
    "office_name_kana": null
  },
  "0455": {
    "zip_code": "8790455",
    "prefecture": "大分県",
    "prefecture_kana": "オオイタケン",
    "prefecture_code": "44",
    "city": "宇佐市",
    "city_kana": "ウサシ",
    "town": "閤",
    "town_kana": "ゴウ",
    "street": null,
    "office_name": null,
    "office_name_kana": null
  },
  "0456": {
    "zip_code": "8790456",
    "prefecture": "大分県",
    "prefecture_kana": "オオイタケン",
    "prefecture_code": "44",
    "city": "宇佐市",
    "city_kana": "ウサシ",
    "town": "辛島",
    "town_kana": "カラシマ",
    "street": null,
    "office_name": null,
    "office_name_kana": null
  },
  "0457": {
    "zip_code": "8790457",
    "prefecture": "大分県",
    "prefecture_kana": "オオイタケン",
    "prefecture_code": "44",
    "city": "宇佐市",
    "city_kana": "ウサシ",
    "town": "芝原",
    "town_kana": "シバハラ",
    "street": null,
    "office_name": null,
    "office_name_kana": null
  },
  "0461": {
    "zip_code": "8790461",
    "prefecture": "大分県",
    "prefecture_kana": "オオイタケン",
    "prefecture_code": "44",
    "city": "宇佐市",
    "city_kana": "ウサシ",
    "town": "樋田",
    "town_kana": "ヒダ",
    "street": null,
    "office_name": null,
    "office_name_kana": null
  },
  "0462": {
    "zip_code": "8790462",
    "prefecture": "大分県",
    "prefecture_kana": "オオイタケン",
    "prefecture_code": "44",
    "city": "宇佐市",
    "city_kana": "ウサシ",
    "town": "別府",
    "town_kana": "ビュウ",
    "street": null,
    "office_name": null,
    "office_name_kana": null
  },
  "0463": {
    "zip_code": "8790463",
    "prefecture": "大分県",
    "prefecture_kana": "オオイタケン",
    "prefecture_code": "44",
    "city": "宇佐市",
    "city_kana": "ウサシ",
    "town": "中原",
    "town_kana": "ナカハル",
    "street": null,
    "office_name": null,
    "office_name_kana": null
  },
  "0464": {
    "zip_code": "8790464",
    "prefecture": "大分県",
    "prefecture_kana": "オオイタケン",
    "prefecture_code": "44",
    "city": "宇佐市",
    "city_kana": "ウサシ",
    "town": "大塚",
    "town_kana": "オオツカ",
    "street": null,
    "office_name": null,
    "office_name_kana": null
  },
  "0465": {
    "zip_code": "8790465",
    "prefecture": "大分県",
    "prefecture_kana": "オオイタケン",
    "prefecture_code": "44",
    "city": "宇佐市",
    "city_kana": "ウサシ",
    "town": "下拝田",
    "town_kana": "シモハイタ",
    "street": null,
    "office_name": null,
    "office_name_kana": null
  },
  "0466": {
    "zip_code": "8790466",
    "prefecture": "大分県",
    "prefecture_kana": "オオイタケン",
    "prefecture_code": "44",
    "city": "宇佐市",
    "city_kana": "ウサシ",
    "town": "上拝田",
    "town_kana": "カミハイタ",
    "street": null,
    "office_name": null,
    "office_name_kana": null
  },
  "0467": {
    "zip_code": "8790467",
    "prefecture": "大分県",
    "prefecture_kana": "オオイタケン",
    "prefecture_code": "44",
    "city": "宇佐市",
    "city_kana": "ウサシ",
    "town": "山本",
    "town_kana": "ヤマモト",
    "street": null,
    "office_name": null,
    "office_name_kana": null
  },
  "0471": {
    "zip_code": "8790471",
    "prefecture": "大分県",
    "prefecture_kana": "オオイタケン",
    "prefecture_code": "44",
    "city": "宇佐市",
    "city_kana": "ウサシ",
    "town": "四日市",
    "town_kana": "ヨッカイチ",
    "street": null,
    "office_name": null,
    "office_name_kana": null
  },
  "0472": {
    "zip_code": "8790472",
    "prefecture": "大分県",
    "prefecture_kana": "オオイタケン",
    "prefecture_code": "44",
    "city": "宇佐市",
    "city_kana": "ウサシ",
    "town": "上元重",
    "town_kana": "カミモトシゲ",
    "street": null,
    "office_name": null,
    "office_name_kana": null
  },
  "0473": {
    "zip_code": "8790473",
    "prefecture": "大分県",
    "prefecture_kana": "オオイタケン",
    "prefecture_code": "44",
    "city": "宇佐市",
    "city_kana": "ウサシ",
    "town": "下元重",
    "town_kana": "シモモトシゲ",
    "street": null,
    "office_name": null,
    "office_name_kana": null
  },
  "0474": {
    "zip_code": "8790474",
    "prefecture": "大分県",
    "prefecture_kana": "オオイタケン",
    "prefecture_code": "44",
    "city": "宇佐市",
    "city_kana": "ウサシ",
    "town": "山下",
    "town_kana": "ヤマシタ",
    "street": null,
    "office_name": null,
    "office_name_kana": null
  },
  "0492": {
    "zip_code": "8790492",
    "prefecture": "大分県",
    "prefecture_kana": null,
    "prefecture_code": null,
    "city": "宇佐市",
    "city_kana": null,
    "town": "大字上田",
    "town_kana": null,
    "street": "１０３０",
    "office_name": "宇佐市役所",
    "office_name_kana": "ウサシヤクシヨ"
  },
  "0493": {
    "zip_code": "8790493",
    "prefecture": "大分県",
    "prefecture_kana": null,
    "prefecture_code": null,
    "city": "宇佐市",
    "city_kana": null,
    "town": "大字上田",
    "town_kana": null,
    "street": "２１１１",
    "office_name": "パナソニックコミュニケーションズ　株式会社　デバイスカンパニー大分",
    "office_name_kana": "パナソニツクコミユニケ-シヨンズ カブシキガイシヤ デバイスカンパニ-オオイタ"
  },
  "0495": {
    "zip_code": "8790495",
    "prefecture": "大分県",
    "prefecture_kana": null,
    "prefecture_code": null,
    "city": "宇佐市",
    "city_kana": null,
    "town": "大字山本",
    "town_kana": null,
    "street": "２２３１−１",
    "office_name": "三和酒類　株式会社",
    "office_name_kana": "サンワシユルイ カブシキガイシヤ"
  },
  "0498": {
    "zip_code": "8790498",
    "prefecture": "大分県",
    "prefecture_kana": null,
    "prefecture_code": null,
    "city": "宇佐市",
    "city_kana": null,
    "town": "大字上田",
    "town_kana": null,
    "street": "１０５５−１（四日市郵便局私書箱第２号）",
    "office_name": "宇佐　税務署",
    "office_name_kana": "ウサ ゼイムシヨ"
  },
  "0501": {
    "zip_code": "8790501",
    "prefecture": "大分県",
    "prefecture_kana": "オオイタケン",
    "prefecture_code": "44",
    "city": "宇佐市",
    "city_kana": "ウサシ",
    "town": "麻生",
    "town_kana": "アソウ",
    "street": null,
    "office_name": null,
    "office_name_kana": null
  },
  "0502": {
    "zip_code": "8790502",
    "prefecture": "大分県",
    "prefecture_kana": "オオイタケン",
    "prefecture_code": "44",
    "city": "宇佐市",
    "city_kana": "ウサシ",
    "town": "岳ノ首",
    "town_kana": "タケノクビ",
    "street": null,
    "office_name": null,
    "office_name_kana": null
  },
  "0503": {
    "zip_code": "8790503",
    "prefecture": "大分県",
    "prefecture_kana": "オオイタケン",
    "prefecture_code": "44",
    "city": "宇佐市",
    "city_kana": "ウサシ",
    "town": "灘",
    "town_kana": "ナダ",
    "street": null,
    "office_name": null,
    "office_name_kana": null
  },
  "0504": {
    "zip_code": "8790504",
    "prefecture": "大分県",
    "prefecture_kana": "オオイタケン",
    "prefecture_code": "44",
    "city": "宇佐市",
    "city_kana": "ウサシ",
    "town": "山口",
    "town_kana": "ヤマグチ",
    "street": null,
    "office_name": null,
    "office_name_kana": null
  },
  "0511": {
    "zip_code": "8790511",
    "prefecture": "大分県",
    "prefecture_kana": "オオイタケン",
    "prefecture_code": "44",
    "city": "宇佐市",
    "city_kana": "ウサシ",
    "town": "山袋",
    "town_kana": "ヤマブクロ",
    "street": null,
    "office_name": null,
    "office_name_kana": null
  },
  "0512": {
    "zip_code": "8790512",
    "prefecture": "大分県",
    "prefecture_kana": "オオイタケン",
    "prefecture_code": "44",
    "city": "宇佐市",
    "city_kana": "ウサシ",
    "town": "黒",
    "town_kana": "クロ",
    "street": null,
    "office_name": null,
    "office_name_kana": null
  },
  "0513": {
    "zip_code": "8790513",
    "prefecture": "大分県",
    "prefecture_kana": "オオイタケン",
    "prefecture_code": "44",
    "city": "宇佐市",
    "city_kana": "ウサシ",
    "town": "中",
    "town_kana": "ナカ",
    "street": null,
    "office_name": null,
    "office_name_kana": null
  },
  "0514": {
    "zip_code": "8790514",
    "prefecture": "大分県",
    "prefecture_kana": "オオイタケン",
    "prefecture_code": "44",
    "city": "宇佐市",
    "city_kana": "ウサシ",
    "town": "今成",
    "town_kana": "イマナリ",
    "street": null,
    "office_name": null,
    "office_name_kana": null
  },
  "0515": {
    "zip_code": "8790515",
    "prefecture": "大分県",
    "prefecture_kana": "オオイタケン",
    "prefecture_code": "44",
    "city": "宇佐市",
    "city_kana": "ウサシ",
    "town": "末",
    "town_kana": "スエ",
    "street": null,
    "office_name": null,
    "office_name_kana": null
  },
  "0516": {
    "zip_code": "8790516",
    "prefecture": "大分県",
    "prefecture_kana": "オオイタケン",
    "prefecture_code": "44",
    "city": "宇佐市",
    "city_kana": "ウサシ",
    "town": "木内",
    "town_kana": "キノウチ",
    "street": null,
    "office_name": null,
    "office_name_kana": null
  },
  "0600": {
    "zip_code": "8790600",
    "prefecture": "大分県",
    "prefecture_kana": "オオイタケン",
    "prefecture_code": "44",
    "city": "豊後高田市",
    "city_kana": "ブンゴタカダシ",
    "town": "",
    "town_kana": "",
    "street": null,
    "office_name": null,
    "office_name_kana": null
  },
  "0601": {
    "zip_code": "8790601",
    "prefecture": "大分県",
    "prefecture_kana": "オオイタケン",
    "prefecture_code": "44",
    "city": "豊後高田市",
    "city_kana": "ブンゴタカダシ",
    "town": "草地",
    "town_kana": "クサジ",
    "street": null,
    "office_name": null,
    "office_name_kana": null
  },
  "0602": {
    "zip_code": "8790602",
    "prefecture": "大分県",
    "prefecture_kana": "オオイタケン",
    "prefecture_code": "44",
    "city": "豊後高田市",
    "city_kana": "ブンゴタカダシ",
    "town": "払田",
    "town_kana": "ハライダ",
    "street": null,
    "office_name": null,
    "office_name_kana": null
  },
  "0603": {
    "zip_code": "8790603",
    "prefecture": "大分県",
    "prefecture_kana": "オオイタケン",
    "prefecture_code": "44",
    "city": "豊後高田市",
    "city_kana": "ブンゴタカダシ",
    "town": "鼎",
    "town_kana": "カナエ",
    "street": null,
    "office_name": null,
    "office_name_kana": null
  },
  "0604": {
    "zip_code": "8790604",
    "prefecture": "大分県",
    "prefecture_kana": "オオイタケン",
    "prefecture_code": "44",
    "city": "豊後高田市",
    "city_kana": "ブンゴタカダシ",
    "town": "美和",
    "town_kana": "ミワ",
    "street": null,
    "office_name": null,
    "office_name_kana": null
  },
  "0605": {
    "zip_code": "8790605",
    "prefecture": "大分県",
    "prefecture_kana": "オオイタケン",
    "prefecture_code": "44",
    "city": "豊後高田市",
    "city_kana": "ブンゴタカダシ",
    "town": "御玉",
    "town_kana": "オダマ",
    "street": null,
    "office_name": null,
    "office_name_kana": null
  },
  "0606": {
    "zip_code": "8790606",
    "prefecture": "大分県",
    "prefecture_kana": "オオイタケン",
    "prefecture_code": "44",
    "city": "豊後高田市",
    "city_kana": "ブンゴタカダシ",
    "town": "玉津",
    "town_kana": "タマツ",
    "street": null,
    "office_name": null,
    "office_name_kana": null
  },
  "0607": {
    "zip_code": "8790607",
    "prefecture": "大分県",
    "prefecture_kana": "オオイタケン",
    "prefecture_code": "44",
    "city": "豊後高田市",
    "city_kana": "ブンゴタカダシ",
    "town": "新栄",
    "town_kana": "シンエイ",
    "street": null,
    "office_name": null,
    "office_name_kana": null
  },
  "0608": {
    "zip_code": "8790608",
    "prefecture": "大分県",
    "prefecture_kana": "オオイタケン",
    "prefecture_code": "44",
    "city": "豊後高田市",
    "city_kana": "ブンゴタカダシ",
    "town": "呉崎",
    "town_kana": "クレサキ",
    "street": null,
    "office_name": null,
    "office_name_kana": null
  },
  "0609": {
    "zip_code": "8790609",
    "prefecture": "大分県",
    "prefecture_kana": "オオイタケン",
    "prefecture_code": "44",
    "city": "豊後高田市",
    "city_kana": "ブンゴタカダシ",
    "town": "城台",
    "town_kana": "ジョウダイ",
    "street": null,
    "office_name": null,
    "office_name_kana": null
  },
  "0611": {
    "zip_code": "8790611",
    "prefecture": "大分県",
    "prefecture_kana": "オオイタケン",
    "prefecture_code": "44",
    "city": "豊後高田市",
    "city_kana": "ブンゴタカダシ",
    "town": "森",
    "town_kana": "モリ",
    "street": null,
    "office_name": null,
    "office_name_kana": null
  },
  "0612": {
    "zip_code": "8790612",
    "prefecture": "大分県",
    "prefecture_kana": "オオイタケン",
    "prefecture_code": "44",
    "city": "豊後高田市",
    "city_kana": "ブンゴタカダシ",
    "town": "佐野",
    "town_kana": "サノ",
    "street": null,
    "office_name": null,
    "office_name_kana": null
  },
  "0613": {
    "zip_code": "8790613",
    "prefecture": "大分県",
    "prefecture_kana": "オオイタケン",
    "prefecture_code": "44",
    "city": "豊後高田市",
    "city_kana": "ブンゴタカダシ",
    "town": "小田原",
    "town_kana": "コダワラ",
    "street": null,
    "office_name": null,
    "office_name_kana": null
  },
  "0614": {
    "zip_code": "8790614",
    "prefecture": "大分県",
    "prefecture_kana": "オオイタケン",
    "prefecture_code": "44",
    "city": "豊後高田市",
    "city_kana": "ブンゴタカダシ",
    "town": "来縄",
    "town_kana": "クナワ",
    "street": null,
    "office_name": null,
    "office_name_kana": null
  },
  "0615": {
    "zip_code": "8790615",
    "prefecture": "大分県",
    "prefecture_kana": "オオイタケン",
    "prefecture_code": "44",
    "city": "豊後高田市",
    "city_kana": "ブンゴタカダシ",
    "town": "界",
    "town_kana": "サカイ",
    "street": null,
    "office_name": null,
    "office_name_kana": null
  },
  "0616": {
    "zip_code": "8790616",
    "prefecture": "大分県",
    "prefecture_kana": "オオイタケン",
    "prefecture_code": "44",
    "city": "豊後高田市",
    "city_kana": "ブンゴタカダシ",
    "town": "水崎",
    "town_kana": "ミズサキ",
    "street": null,
    "office_name": null,
    "office_name_kana": null
  },
  "0617": {
    "zip_code": "8790617",
    "prefecture": "大分県",
    "prefecture_kana": "オオイタケン",
    "prefecture_code": "44",
    "city": "豊後高田市",
    "city_kana": "ブンゴタカダシ",
    "town": "高田",
    "town_kana": "タカダ",
    "street": null,
    "office_name": null,
    "office_name_kana": null
  },
  "0618": {
    "zip_code": "8790618",
    "prefecture": "大分県",
    "prefecture_kana": "オオイタケン",
    "prefecture_code": "44",
    "city": "豊後高田市",
    "city_kana": "ブンゴタカダシ",
    "town": "中央通",
    "town_kana": "チュウオウドオリ",
    "street": null,
    "office_name": null,
    "office_name_kana": null
  },
  "0619": {
    "zip_code": "8790619",
    "prefecture": "大分県",
    "prefecture_kana": "オオイタケン",
    "prefecture_code": "44",
    "city": "豊後高田市",
    "city_kana": "ブンゴタカダシ",
    "town": "浜町",
    "town_kana": "ハママチ",
    "street": null,
    "office_name": null,
    "office_name_kana": null
  },
  "0621": {
    "zip_code": "8790621",
    "prefecture": "大分県",
    "prefecture_kana": "オオイタケン",
    "prefecture_code": "44",
    "city": "豊後高田市",
    "city_kana": "ブンゴタカダシ",
    "town": "是永町",
    "town_kana": "コレナガマチ",
    "street": null,
    "office_name": null,
    "office_name_kana": null
  },
  "0622": {
    "zip_code": "8790622",
    "prefecture": "大分県",
    "prefecture_kana": "オオイタケン",
    "prefecture_code": "44",
    "city": "豊後高田市",
    "city_kana": "ブンゴタカダシ",
    "town": "鍛治屋町",
    "town_kana": "カジヤマチ",
    "street": null,
    "office_name": null,
    "office_name_kana": null
  },
  "0623": {
    "zip_code": "8790623",
    "prefecture": "大分県",
    "prefecture_kana": "オオイタケン",
    "prefecture_code": "44",
    "city": "豊後高田市",
    "city_kana": "ブンゴタカダシ",
    "town": "金谷町",
    "town_kana": "カナヤマチ",
    "street": null,
    "office_name": null,
    "office_name_kana": null
  },
  "0624": {
    "zip_code": "8790624",
    "prefecture": "大分県",
    "prefecture_kana": "オオイタケン",
    "prefecture_code": "44",
    "city": "豊後高田市",
    "city_kana": "ブンゴタカダシ",
    "town": "本町",
    "town_kana": "ホンマチ",
    "street": null,
    "office_name": null,
    "office_name_kana": null
  },
  "0625": {
    "zip_code": "8790625",
    "prefecture": "大分県",
    "prefecture_kana": "オオイタケン",
    "prefecture_code": "44",
    "city": "豊後高田市",
    "city_kana": "ブンゴタカダシ",
    "town": "水取",
    "town_kana": "ミズトリ",
    "street": null,
    "office_name": null,
    "office_name_kana": null
  },
  "0626": {
    "zip_code": "8790626",
    "prefecture": "大分県",
    "prefecture_kana": "オオイタケン",
    "prefecture_code": "44",
    "city": "豊後高田市",
    "city_kana": "ブンゴタカダシ",
    "town": "今町",
    "town_kana": "イママチ",
    "street": null,
    "office_name": null,
    "office_name_kana": null
  },
  "0627": {
    "zip_code": "8790627",
    "prefecture": "大分県",
    "prefecture_kana": "オオイタケン",
    "prefecture_code": "44",
    "city": "豊後高田市",
    "city_kana": "ブンゴタカダシ",
    "town": "新地",
    "town_kana": "シンチ",
    "street": null,
    "office_name": null,
    "office_name_kana": null
  },
  "0628": {
    "zip_code": "8790628",
    "prefecture": "大分県",
    "prefecture_kana": "オオイタケン",
    "prefecture_code": "44",
    "city": "豊後高田市",
    "city_kana": "ブンゴタカダシ",
    "town": "新町",
    "town_kana": "シンマチ",
    "street": null,
    "office_name": null,
    "office_name_kana": null
  },
  "0692": {
    "zip_code": "8790692",
    "prefecture": "大分県",
    "prefecture_kana": null,
    "prefecture_code": null,
    "city": "豊後高田市",
    "city_kana": null,
    "town": "大字御玉",
    "town_kana": null,
    "street": "１１４",
    "office_name": "豊後高田市役所",
    "office_name_kana": "ブンコタカダシヤクシヨ"
  },
  "0721": {
    "zip_code": "8790721",
    "prefecture": "大分県",
    "prefecture_kana": "オオイタケン",
    "prefecture_code": "44",
    "city": "豊後高田市",
    "city_kana": "ブンゴタカダシ",
    "town": "加礼川",
    "town_kana": "カレガワ",
    "street": null,
    "office_name": null,
    "office_name_kana": null
  },
  "0722": {
    "zip_code": "8790722",
    "prefecture": "大分県",
    "prefecture_kana": "オオイタケン",
    "prefecture_code": "44",
    "city": "豊後高田市",
    "city_kana": "ブンゴタカダシ",
    "town": "一畑",
    "town_kana": "イチハタ",
    "street": null,
    "office_name": null,
    "office_name_kana": null
  },
  "0723": {
    "zip_code": "8790723",
    "prefecture": "大分県",
    "prefecture_kana": "オオイタケン",
    "prefecture_code": "44",
    "city": "豊後高田市",
    "city_kana": "ブンゴタカダシ",
    "town": "梅ノ木",
    "town_kana": "ウメノキ",
    "street": null,
    "office_name": null,
    "office_name_kana": null
  },
  "0724": {
    "zip_code": "8790724",
    "prefecture": "大分県",
    "prefecture_kana": "オオイタケン",
    "prefecture_code": "44",
    "city": "豊後高田市",
    "city_kana": "ブンゴタカダシ",
    "town": "新城",
    "town_kana": "シンジョウ",
    "street": null,
    "office_name": null,
    "office_name_kana": null
  },
  "0731": {
    "zip_code": "8790731",
    "prefecture": "大分県",
    "prefecture_kana": "オオイタケン",
    "prefecture_code": "44",
    "city": "豊後高田市",
    "city_kana": "ブンゴタカダシ",
    "town": "長岩屋",
    "town_kana": "ナガイワヤ",
    "street": null,
    "office_name": null,
    "office_name_kana": null
  },
  "0732": {
    "zip_code": "8790732",
    "prefecture": "大分県",
    "prefecture_kana": "オオイタケン",
    "prefecture_code": "44",
    "city": "豊後高田市",
    "city_kana": "ブンゴタカダシ",
    "town": "大力",
    "town_kana": "ダイリキ",
    "street": null,
    "office_name": null,
    "office_name_kana": null
  },
  "0733": {
    "zip_code": "8790733",
    "prefecture": "大分県",
    "prefecture_kana": "オオイタケン",
    "prefecture_code": "44",
    "city": "豊後高田市",
    "city_kana": "ブンゴタカダシ",
    "town": "荒尾",
    "town_kana": "アラオ",
    "street": null,
    "office_name": null,
    "office_name_kana": null
  },
  "0734": {
    "zip_code": "8790734",
    "prefecture": "大分県",
    "prefecture_kana": "オオイタケン",
    "prefecture_code": "44",
    "city": "豊後高田市",
    "city_kana": "ブンゴタカダシ",
    "town": "築地",
    "town_kana": "ツイジ",
    "street": null,
    "office_name": null,
    "office_name_kana": null
  },
  "0735": {
    "zip_code": "8790735",
    "prefecture": "大分県",
    "prefecture_kana": "オオイタケン",
    "prefecture_code": "44",
    "city": "豊後高田市",
    "city_kana": "ブンゴタカダシ",
    "town": "松行",
    "town_kana": "マツユキ",
    "street": null,
    "office_name": null,
    "office_name_kana": null
  },
  "0841": {
    "zip_code": "8790841",
    "prefecture": "大分県",
    "prefecture_kana": "オオイタケン",
    "prefecture_code": "44",
    "city": "豊後高田市",
    "city_kana": "ブンゴタカダシ",
    "town": "田染蕗",
    "town_kana": "タシブフキ",
    "street": null,
    "office_name": null,
    "office_name_kana": null
  },
  "0842": {
    "zip_code": "8790842",
    "prefecture": "大分県",
    "prefecture_kana": "オオイタケン",
    "prefecture_code": "44",
    "city": "豊後高田市",
    "city_kana": "ブンゴタカダシ",
    "town": "田染池部",
    "town_kana": "タシブイケベ",
    "street": null,
    "office_name": null,
    "office_name_kana": null
  },
  "0843": {
    "zip_code": "8790843",
    "prefecture": "大分県",
    "prefecture_kana": "オオイタケン",
    "prefecture_code": "44",
    "city": "豊後高田市",
    "city_kana": "ブンゴタカダシ",
    "town": "田染相原",
    "town_kana": "タシブアイワラ",
    "street": null,
    "office_name": null,
    "office_name_kana": null
  },
  "0844": {
    "zip_code": "8790844",
    "prefecture": "大分県",
    "prefecture_kana": "オオイタケン",
    "prefecture_code": "44",
    "city": "豊後高田市",
    "city_kana": "ブンゴタカダシ",
    "town": "田染上野",
    "town_kana": "タシブウエノ",
    "street": null,
    "office_name": null,
    "office_name_kana": null
  },
  "0851": {
    "zip_code": "8790851",
    "prefecture": "大分県",
    "prefecture_kana": "オオイタケン",
    "prefecture_code": "44",
    "city": "豊後高田市",
    "city_kana": "ブンゴタカダシ",
    "town": "田染横嶺",
    "town_kana": "タシブヨコミネ",
    "street": null,
    "office_name": null,
    "office_name_kana": null
  },
  "0852": {
    "zip_code": "8790852",
    "prefecture": "大分県",
    "prefecture_kana": "オオイタケン",
    "prefecture_code": "44",
    "city": "豊後高田市",
    "city_kana": "ブンゴタカダシ",
    "town": "田染真中",
    "town_kana": "タシブマナカ",
    "street": null,
    "office_name": null,
    "office_name_kana": null
  },
  "0853": {
    "zip_code": "8790853",
    "prefecture": "大分県",
    "prefecture_kana": "オオイタケン",
    "prefecture_code": "44",
    "city": "豊後高田市",
    "city_kana": "ブンゴタカダシ",
    "town": "田染平野",
    "town_kana": "タシブヒラノ",
    "street": null,
    "office_name": null,
    "office_name_kana": null
  },
  "0854": {
    "zip_code": "8790854",
    "prefecture": "大分県",
    "prefecture_kana": "オオイタケン",
    "prefecture_code": "44",
    "city": "豊後高田市",
    "city_kana": "ブンゴタカダシ",
    "town": "田染小崎",
    "town_kana": "タシブオサキ",
    "street": null,
    "office_name": null,
    "office_name_kana": null
  },
  "0855": {
    "zip_code": "8790855",
    "prefecture": "大分県",
    "prefecture_kana": "オオイタケン",
    "prefecture_code": "44",
    "city": "豊後高田市",
    "city_kana": "ブンゴタカダシ",
    "town": "田染真木",
    "town_kana": "タシブマキ",
    "street": null,
    "office_name": null,
    "office_name_kana": null
  },
  "0901": {
    "zip_code": "8790901",
    "prefecture": "大分県",
    "prefecture_kana": "オオイタケン",
    "prefecture_code": "44",
    "city": "杵築市",
    "city_kana": "キツキシ",
    "town": "大田石丸",
    "town_kana": "オオタイシマル",
    "street": null,
    "office_name": null,
    "office_name_kana": null
  },
  "0902": {
    "zip_code": "8790902",
    "prefecture": "大分県",
    "prefecture_kana": "オオイタケン",
    "prefecture_code": "44",
    "city": "杵築市",
    "city_kana": "キツキシ",
    "town": "大田沓掛",
    "town_kana": "オオタクツカケ",
    "street": null,
    "office_name": null,
    "office_name_kana": null
  },
  "0903": {
    "zip_code": "8790903",
    "prefecture": "大分県",
    "prefecture_kana": "オオイタケン",
    "prefecture_code": "44",
    "city": "杵築市",
    "city_kana": "キツキシ",
    "town": "大田永松",
    "town_kana": "オオタナガマツ",
    "street": null,
    "office_name": null,
    "office_name_kana": null
  },
  "0904": {
    "zip_code": "8790904",
    "prefecture": "大分県",
    "prefecture_kana": "オオイタケン",
    "prefecture_code": "44",
    "city": "杵築市",
    "city_kana": "キツキシ",
    "town": "大田小野",
    "town_kana": "オオタオノ",
    "street": null,
    "office_name": null,
    "office_name_kana": null
  },
  "0911": {
    "zip_code": "8790911",
    "prefecture": "大分県",
    "prefecture_kana": "オオイタケン",
    "prefecture_code": "44",
    "city": "杵築市",
    "city_kana": "キツキシ",
    "town": "大田波多方",
    "town_kana": "オオタハダカタ",
    "street": null,
    "office_name": null,
    "office_name_kana": null
  },
  "0912": {
    "zip_code": "8790912",
    "prefecture": "大分県",
    "prefecture_kana": "オオイタケン",
    "prefecture_code": "44",
    "city": "杵築市",
    "city_kana": "キツキシ",
    "town": "大田白木原",
    "town_kana": "オオタシラキハラ",
    "street": null,
    "office_name": null,
    "office_name_kana": null
  },
  "0941": {
    "zip_code": "8790941",
    "prefecture": "大分県",
    "prefecture_kana": "オオイタケン",
    "prefecture_code": "44",
    "city": "杵築市",
    "city_kana": "キツキシ",
    "town": "大田俣水",
    "town_kana": "オオタマタミズ",
    "street": null,
    "office_name": null,
    "office_name_kana": null
  },
  "1121": {
    "zip_code": "8791121",
    "prefecture": "大分県",
    "prefecture_kana": "オオイタケン",
    "prefecture_code": "44",
    "city": "宇佐市",
    "city_kana": "ウサシ",
    "town": "東大堀",
    "town_kana": "ヒガシオオボリ",
    "street": null,
    "office_name": null,
    "office_name_kana": null
  },
  "1122": {
    "zip_code": "8791122",
    "prefecture": "大分県",
    "prefecture_kana": "オオイタケン",
    "prefecture_code": "44",
    "city": "宇佐市",
    "city_kana": "ウサシ",
    "town": "横田",
    "town_kana": "ヨコタ",
    "street": null,
    "office_name": null,
    "office_name_kana": null
  },
  "1123": {
    "zip_code": "8791123",
    "prefecture": "大分県",
    "prefecture_kana": "オオイタケン",
    "prefecture_code": "44",
    "city": "宇佐市",
    "city_kana": "ウサシ",
    "town": "立石",
    "town_kana": "タテイシ",
    "street": null,
    "office_name": null,
    "office_name_kana": null
  },
  "1124": {
    "zip_code": "8791124",
    "prefecture": "大分県",
    "prefecture_kana": "オオイタケン",
    "prefecture_code": "44",
    "city": "宇佐市",
    "city_kana": "ウサシ",
    "town": "山",
    "town_kana": "ヤマ",
    "street": null,
    "office_name": null,
    "office_name_kana": null
  },
  "1125": {
    "zip_code": "8791125",
    "prefecture": "大分県",
    "prefecture_kana": "オオイタケン",
    "prefecture_code": "44",
    "city": "宇佐市",
    "city_kana": "ウサシ",
    "town": "両戒",
    "town_kana": "リョウカイ",
    "street": null,
    "office_name": null,
    "office_name_kana": null
  },
  "1126": {
    "zip_code": "8791126",
    "prefecture": "大分県",
    "prefecture_kana": "オオイタケン",
    "prefecture_code": "44",
    "city": "宇佐市",
    "city_kana": "ウサシ",
    "town": "江熊",
    "town_kana": "エグマ",
    "street": null,
    "office_name": null,
    "office_name_kana": null
  },
  "1127": {
    "zip_code": "8791127",
    "prefecture": "大分県",
    "prefecture_kana": "オオイタケン",
    "prefecture_code": "44",
    "city": "宇佐市",
    "city_kana": "ウサシ",
    "town": "西屋敷",
    "town_kana": "ニシヤシキ",
    "street": null,
    "office_name": null,
    "office_name_kana": null
  },
  "1128": {
    "zip_code": "8791128",
    "prefecture": "大分県",
    "prefecture_kana": "オオイタケン",
    "prefecture_code": "44",
    "city": "宇佐市",
    "city_kana": "ウサシ",
    "town": "金丸",
    "town_kana": "カナマル",
    "street": null,
    "office_name": null,
    "office_name_kana": null
  },
  "1131": {
    "zip_code": "8791131",
    "prefecture": "大分県",
    "prefecture_kana": "オオイタケン",
    "prefecture_code": "44",
    "city": "宇佐市",
    "city_kana": "ウサシ",
    "town": "出光",
    "town_kana": "イデミツ",
    "street": null,
    "office_name": null,
    "office_name_kana": null
  },
  "1132": {
    "zip_code": "8791132",
    "prefecture": "大分県",
    "prefecture_kana": "オオイタケン",
    "prefecture_code": "44",
    "city": "宇佐市",
    "city_kana": "ウサシ",
    "town": "岩崎",
    "town_kana": "イワサキ",
    "street": null,
    "office_name": null,
    "office_name_kana": null
  },
  "1133": {
    "zip_code": "8791133",
    "prefecture": "大分県",
    "prefecture_kana": "オオイタケン",
    "prefecture_code": "44",
    "city": "宇佐市",
    "city_kana": "ウサシ",
    "town": "日足",
    "town_kana": "ヒアシ",
    "street": null,
    "office_name": null,
    "office_name_kana": null
  },
  "1134": {
    "zip_code": "8791134",
    "prefecture": "大分県",
    "prefecture_kana": "オオイタケン",
    "prefecture_code": "44",
    "city": "宇佐市",
    "city_kana": "ウサシ",
    "town": "橋津",
    "town_kana": "ハシヅ",
    "street": null,
    "office_name": null,
    "office_name_kana": null
  },
  "1135": {
    "zip_code": "8791135",
    "prefecture": "大分県",
    "prefecture_kana": "オオイタケン",
    "prefecture_code": "44",
    "city": "宇佐市",
    "city_kana": "ウサシ",
    "town": "和気",
    "town_kana": "ワキ",
    "street": null,
    "office_name": null,
    "office_name_kana": null
  },
  "1136": {
    "zip_code": "8791136",
    "prefecture": "大分県",
    "prefecture_kana": "オオイタケン",
    "prefecture_code": "44",
    "city": "宇佐市",
    "city_kana": "ウサシ",
    "town": "西木",
    "town_kana": "サイギ",
    "street": null,
    "office_name": null,
    "office_name_kana": null
  },
  "1137": {
    "zip_code": "8791137",
    "prefecture": "大分県",
    "prefecture_kana": "オオイタケン",
    "prefecture_code": "44",
    "city": "宇佐市",
    "city_kana": "ウサシ",
    "town": "苅宇田",
    "town_kana": "カリウダ",
    "street": null,
    "office_name": null,
    "office_name_kana": null
  },
  "1138": {
    "zip_code": "8791138",
    "prefecture": "大分県",
    "prefecture_kana": "オオイタケン",
    "prefecture_code": "44",
    "city": "宇佐市",
    "city_kana": "ウサシ",
    "town": "青森",
    "town_kana": "アオモリ",
    "street": null,
    "office_name": null,
    "office_name_kana": null
  },
  "1301": {
    "zip_code": "8791301",
    "prefecture": "大分県",
    "prefecture_kana": "オオイタケン",
    "prefecture_code": "44",
    "city": "杵築市",
    "city_kana": "キツキシ",
    "town": "山香町向野",
    "town_kana": "ヤマガマチムクノ",
    "street": null,
    "office_name": null,
    "office_name_kana": null
  },
  "1302": {
    "zip_code": "8791302",
    "prefecture": "大分県",
    "prefecture_kana": "オオイタケン",
    "prefecture_code": "44",
    "city": "杵築市",
    "city_kana": "キツキシ",
    "town": "山香町立石",
    "town_kana": "ヤマガマチタテイシ",
    "street": null,
    "office_name": null,
    "office_name_kana": null
  },
  "1303": {
    "zip_code": "8791303",
    "prefecture": "大分県",
    "prefecture_kana": "オオイタケン",
    "prefecture_code": "44",
    "city": "杵築市",
    "city_kana": "キツキシ",
    "town": "山香町下",
    "town_kana": "ヤマガマチシモ",
    "street": null,
    "office_name": null,
    "office_name_kana": null
  },
  "1304": {
    "zip_code": "8791304",
    "prefecture": "大分県",
    "prefecture_kana": "オオイタケン",
    "prefecture_code": "44",
    "city": "杵築市",
    "city_kana": "キツキシ",
    "town": "山香町小武",
    "town_kana": "ヤマガマチオダケ",
    "street": null,
    "office_name": null,
    "office_name_kana": null
  },
  "1305": {
    "zip_code": "8791305",
    "prefecture": "大分県",
    "prefecture_kana": "オオイタケン",
    "prefecture_code": "44",
    "city": "杵築市",
    "city_kana": "キツキシ",
    "town": "山香町倉成",
    "town_kana": "ヤマガマチクラナリ",
    "street": null,
    "office_name": null,
    "office_name_kana": null
  },
  "1306": {
    "zip_code": "8791306",
    "prefecture": "大分県",
    "prefecture_kana": "オオイタケン",
    "prefecture_code": "44",
    "city": "杵築市",
    "city_kana": "キツキシ",
    "town": "山香町広瀬",
    "town_kana": "ヤマガマチヒロセ",
    "street": null,
    "office_name": null,
    "office_name_kana": null
  },
  "1307": {
    "zip_code": "8791307",
    "prefecture": "大分県",
    "prefecture_kana": "オオイタケン",
    "prefecture_code": "44",
    "city": "杵築市",
    "city_kana": "キツキシ",
    "town": "山香町野原",
    "town_kana": "ヤマガマチノハル",
    "street": null,
    "office_name": null,
    "office_name_kana": null
  },
  "1311": {
    "zip_code": "8791311",
    "prefecture": "大分県",
    "prefecture_kana": "オオイタケン",
    "prefecture_code": "44",
    "city": "杵築市",
    "city_kana": "キツキシ",
    "town": "山香町内河野",
    "town_kana": "ヤマガマチウチガワノ",
    "street": null,
    "office_name": null,
    "office_name_kana": null
  },
  "1312": {
    "zip_code": "8791312",
    "prefecture": "大分県",
    "prefecture_kana": "オオイタケン",
    "prefecture_code": "44",
    "city": "杵築市",
    "city_kana": "キツキシ",
    "town": "山香町日指",
    "town_kana": "ヤマガマチヒサシ",
    "street": null,
    "office_name": null,
    "office_name_kana": null
  },
  "1313": {
    "zip_code": "8791313",
    "prefecture": "大分県",
    "prefecture_kana": "オオイタケン",
    "prefecture_code": "44",
    "city": "杵築市",
    "city_kana": "キツキシ",
    "town": "山香町久木野尾",
    "town_kana": "ヤマガマチクギノオ",
    "street": null,
    "office_name": null,
    "office_name_kana": null
  },
  "1314": {
    "zip_code": "8791314",
    "prefecture": "大分県",
    "prefecture_kana": "オオイタケン",
    "prefecture_code": "44",
    "city": "杵築市",
    "city_kana": "キツキシ",
    "town": "山香町南畑",
    "town_kana": "ヤマガマチミナミハタ",
    "street": null,
    "office_name": null,
    "office_name_kana": null
  },
  "1315": {
    "zip_code": "8791315",
    "prefecture": "大分県",
    "prefecture_kana": "オオイタケン",
    "prefecture_code": "44",
    "city": "杵築市",
    "city_kana": "キツキシ",
    "town": "山香町山浦",
    "town_kana": "ヤマガマチヤマウラ",
    "street": null,
    "office_name": null,
    "office_name_kana": null
  },
  "1316": {
    "zip_code": "8791316",
    "prefecture": "大分県",
    "prefecture_kana": "オオイタケン",
    "prefecture_code": "44",
    "city": "杵築市",
    "city_kana": "キツキシ",
    "town": "山香町吉野渡",
    "town_kana": "ヤマガマチヨシノワタリ",
    "street": null,
    "office_name": null,
    "office_name_kana": null
  },
  "1500": {
    "zip_code": "8791500",
    "prefecture": "大分県",
    "prefecture_kana": "オオイタケン",
    "prefecture_code": "44",
    "city": "速見郡日出町",
    "city_kana": "ハヤミグンヒジマチ",
    "town": "",
    "town_kana": "",
    "street": null,
    "office_name": null,
    "office_name_kana": null
  },
  "1501": {
    "zip_code": "8791501",
    "prefecture": "大分県",
    "prefecture_kana": "オオイタケン",
    "prefecture_code": "44",
    "city": "速見郡日出町",
    "city_kana": "ハヤミグンヒジマチ",
    "town": "広瀬",
    "town_kana": "ヒロセ",
    "street": null,
    "office_name": null,
    "office_name_kana": null
  },
  "1502": {
    "zip_code": "8791502",
    "prefecture": "大分県",
    "prefecture_kana": "オオイタケン",
    "prefecture_code": "44",
    "city": "速見郡日出町",
    "city_kana": "ハヤミグンヒジマチ",
    "town": "藤原",
    "town_kana": "フジワラ",
    "street": null,
    "office_name": null,
    "office_name_kana": null
  },
  "1503": {
    "zip_code": "8791503",
    "prefecture": "大分県",
    "prefecture_kana": "オオイタケン",
    "prefecture_code": "44",
    "city": "速見郡日出町",
    "city_kana": "ハヤミグンヒジマチ",
    "town": "真那井",
    "town_kana": "マナイ",
    "street": null,
    "office_name": null,
    "office_name_kana": null
  },
  "1504": {
    "zip_code": "8791504",
    "prefecture": "大分県",
    "prefecture_kana": "オオイタケン",
    "prefecture_code": "44",
    "city": "速見郡日出町",
    "city_kana": "ハヤミグンヒジマチ",
    "town": "大神",
    "town_kana": "オオガ",
    "street": null,
    "office_name": null,
    "office_name_kana": null
  },
  "1505": {
    "zip_code": "8791505",
    "prefecture": "大分県",
    "prefecture_kana": "オオイタケン",
    "prefecture_code": "44",
    "city": "速見郡日出町",
    "city_kana": "ハヤミグンヒジマチ",
    "town": "川崎",
    "town_kana": "カワサキ",
    "street": null,
    "office_name": null,
    "office_name_kana": null
  },
  "1506": {
    "zip_code": "8791506",
    "prefecture": "大分県",
    "prefecture_kana": "オオイタケン",
    "prefecture_code": "44",
    "city": "速見郡日出町",
    "city_kana": "ハヤミグンヒジマチ",
    "town": "",
    "town_kana": "",
    "street": null,
    "office_name": null,
    "office_name_kana": null
  },
  "1507": {
    "zip_code": "8791507",
    "prefecture": "大分県",
    "prefecture_kana": "オオイタケン",
    "prefecture_code": "44",
    "city": "速見郡日出町",
    "city_kana": "ハヤミグンヒジマチ",
    "town": "豊岡",
    "town_kana": "トヨオカ",
    "street": null,
    "office_name": null,
    "office_name_kana": null
  },
  "1508": {
    "zip_code": "8791508",
    "prefecture": "大分県",
    "prefecture_kana": "オオイタケン",
    "prefecture_code": "44",
    "city": "速見郡日出町",
    "city_kana": "ハヤミグンヒジマチ",
    "town": "平道",
    "town_kana": "ヒラミチ",
    "street": null,
    "office_name": null,
    "office_name_kana": null
  },
  "1509": {
    "zip_code": "8791509",
    "prefecture": "大分県",
    "prefecture_kana": "オオイタケン",
    "prefecture_code": "44",
    "city": "速見郡日出町",
    "city_kana": "ハヤミグンヒジマチ",
    "town": "南畑",
    "town_kana": "ミナミハタ",
    "street": null,
    "office_name": null,
    "office_name_kana": null
  },
  "1592": {
    "zip_code": "8791592",
    "prefecture": "大分県",
    "prefecture_kana": "オオイタケン",
    "prefecture_code": "44",
    "city": "速見郡日出町",
    "city_kana": "ハヤミグンヒジマチ",
    "town": "",
    "town_kana": "",
    "street": "２９７４番地の１",
    "office_name": "日出町役場",
    "office_name_kana": "ヒジマチヤクバ"
  },
  "1595": {
    "zip_code": "8791595",
    "prefecture": "大分県",
    "prefecture_kana": null,
    "prefecture_code": null,
    "city": "速見郡日出町",
    "city_kana": null,
    "town": "大字川崎",
    "town_kana": null,
    "street": "字高尾４２６０",
    "office_name": "日本テキサス・インスツルメンツ　株式会社　日出工場",
    "office_name_kana": "ニホンテキサス・インスツルメンツ カブシキガイシヤ ヒジコウジヨウ"
  },
  "1598": {
    "zip_code": "8791598",
    "prefecture": "大分県",
    "prefecture_kana": null,
    "prefecture_code": null,
    "city": "速見郡日出町",
    "city_kana": null,
    "town": "大字藤原",
    "town_kana": null,
    "street": "５９３３",
    "office_name": "株式会社　ハーモニーランド",
    "office_name_kana": "カブシキガイシヤ ハ-モニ-ランド"
  },
  "2111": {
    "zip_code": "8792111",
    "prefecture": "大分県",
    "prefecture_kana": "オオイタケン",
    "prefecture_code": "44",
    "city": "大分市",
    "city_kana": "オオイタシ",
    "town": "本神崎",
    "town_kana": "ホンコウザキ",
    "street": null,
    "office_name": null,
    "office_name_kana": null
  },
  "2112": {
    "zip_code": "8792112",
    "prefecture": "大分県",
    "prefecture_kana": "オオイタケン",
    "prefecture_code": "44",
    "city": "大分市",
    "city_kana": "オオイタシ",
    "town": "馬場",
    "town_kana": "ババ",
    "street": null,
    "office_name": null,
    "office_name_kana": null
  },
  "2113": {
    "zip_code": "8792113",
    "prefecture": "大分県",
    "prefecture_kana": "オオイタケン",
    "prefecture_code": "44",
    "city": "大分市",
    "city_kana": "オオイタシ",
    "town": "木佐上",
    "town_kana": "キサガミ",
    "street": null,
    "office_name": null,
    "office_name_kana": null
  },
  "2114": {
    "zip_code": "8792114",
    "prefecture": "大分県",
    "prefecture_kana": "オオイタケン",
    "prefecture_code": "44",
    "city": "大分市",
    "city_kana": "オオイタシ",
    "town": "大平",
    "town_kana": "オオヒラ",
    "street": null,
    "office_name": null,
    "office_name_kana": null
  },
  "2115": {
    "zip_code": "8792115",
    "prefecture": "大分県",
    "prefecture_kana": "オオイタケン",
    "prefecture_code": "44",
    "city": "大分市",
    "city_kana": "オオイタシ",
    "town": "志生木",
    "town_kana": "シュウキ",
    "street": null,
    "office_name": null,
    "office_name_kana": null
  },
  "2201": {
    "zip_code": "8792201",
    "prefecture": "大分県",
    "prefecture_kana": "オオイタケン",
    "prefecture_code": "44",
    "city": "大分市",
    "city_kana": "オオイタシ",
    "town": "佐賀関",
    "town_kana": "サガノセキ",
    "street": null,
    "office_name": null,
    "office_name_kana": null
  },
  "2202": {
    "zip_code": "8792202",
    "prefecture": "大分県",
    "prefecture_kana": "オオイタケン",
    "prefecture_code": "44",
    "city": "大分市",
    "city_kana": "オオイタシ",
    "town": "白木",
    "town_kana": "シラキ",
    "street": null,
    "office_name": null,
    "office_name_kana": null
  },
  "2203": {
    "zip_code": "8792203",
    "prefecture": "大分県",
    "prefecture_kana": "オオイタケン",
    "prefecture_code": "44",
    "city": "大分市",
    "city_kana": "オオイタシ",
    "town": "一尺屋",
    "town_kana": "イッシャクヤ",
    "street": null,
    "office_name": null,
    "office_name_kana": null
  },
  "2400": {
    "zip_code": "8792400",
    "prefecture": "大分県",
    "prefecture_kana": "オオイタケン",
    "prefecture_code": "44",
    "city": "津久見市",
    "city_kana": "ツクミシ",
    "town": "",
    "town_kana": "",
    "street": null,
    "office_name": null,
    "office_name_kana": null
  },
  "2401": {
    "zip_code": "8792401",
    "prefecture": "大分県",
    "prefecture_kana": "オオイタケン",
    "prefecture_code": "44",
    "city": "津久見市",
    "city_kana": "ツクミシ",
    "town": "千怒",
    "town_kana": "チヌ",
    "street": null,
    "office_name": null,
    "office_name_kana": null
  },
  "2411": {
    "zip_code": "8792411",
    "prefecture": "大分県",
    "prefecture_kana": "オオイタケン",
    "prefecture_code": "44",
    "city": "津久見市",
    "city_kana": "ツクミシ",
    "town": "岩屋町",
    "town_kana": "イワヤマチ",
    "street": null,
    "office_name": null,
    "office_name_kana": null
  },
  "2412": {
    "zip_code": "8792412",
    "prefecture": "大分県",
    "prefecture_kana": "オオイタケン",
    "prefecture_code": "44",
    "city": "津久見市",
    "city_kana": "ツクミシ",
    "town": "高洲町",
    "town_kana": "タカスマチ",
    "street": null,
    "office_name": null,
    "office_name_kana": null
  },
  "2413": {
    "zip_code": "8792413",
    "prefecture": "大分県",
    "prefecture_kana": "オオイタケン",
    "prefecture_code": "44",
    "city": "津久見市",
    "city_kana": "ツクミシ",
    "town": "津久見浦",
    "town_kana": "ツクミウラ",
    "street": null,
    "office_name": null,
    "office_name_kana": null
  },
  "2421": {
    "zip_code": "8792421",
    "prefecture": "大分県",
    "prefecture_kana": "オオイタケン",
    "prefecture_code": "44",
    "city": "津久見市",
    "city_kana": "ツクミシ",
    "town": "津久見",
    "town_kana": "ツクミ",
    "street": null,
    "office_name": null,
    "office_name_kana": null
  },
  "2422": {
    "zip_code": "8792422",
    "prefecture": "大分県",
    "prefecture_kana": "オオイタケン",
    "prefecture_code": "44",
    "city": "津久見市",
    "city_kana": "ツクミシ",
    "town": "八戸",
    "town_kana": "ヤト",
    "street": null,
    "office_name": null,
    "office_name_kana": null
  },
  "2431": {
    "zip_code": "8792431",
    "prefecture": "大分県",
    "prefecture_kana": "オオイタケン",
    "prefecture_code": "44",
    "city": "津久見市",
    "city_kana": "ツクミシ",
    "town": "大友町",
    "town_kana": "オオトモマチ",
    "street": null,
    "office_name": null,
    "office_name_kana": null
  },
  "2432": {
    "zip_code": "8792432",
    "prefecture": "大分県",
    "prefecture_kana": "オオイタケン",
    "prefecture_code": "44",
    "city": "津久見市",
    "city_kana": "ツクミシ",
    "town": "文京町",
    "town_kana": "ブンキョウマチ",
    "street": null,
    "office_name": null,
    "office_name_kana": null
  },
  "2433": {
    "zip_code": "8792433",
    "prefecture": "大分県",
    "prefecture_kana": "オオイタケン",
    "prefecture_code": "44",
    "city": "津久見市",
    "city_kana": "ツクミシ",
    "town": "中田町",
    "town_kana": "ナカダマチ",
    "street": null,
    "office_name": null,
    "office_name_kana": null
  },
  "2434": {
    "zip_code": "8792434",
    "prefecture": "大分県",
    "prefecture_kana": "オオイタケン",
    "prefecture_code": "44",
    "city": "津久見市",
    "city_kana": "ツクミシ",
    "town": "立花町",
    "town_kana": "タチバナマチ",
    "street": null,
    "office_name": null,
    "office_name_kana": null
  },
  "2435": {
    "zip_code": "8792435",
    "prefecture": "大分県",
    "prefecture_kana": "オオイタケン",
    "prefecture_code": "44",
    "city": "津久見市",
    "city_kana": "ツクミシ",
    "town": "宮本町",
    "town_kana": "ミヤモトマチ",
    "street": null,
    "office_name": null,
    "office_name_kana": null
  },
  "2436": {
    "zip_code": "8792436",
    "prefecture": "大分県",
    "prefecture_kana": "オオイタケン",
    "prefecture_code": "44",
    "city": "津久見市",
    "city_kana": "ツクミシ",
    "town": "上宮本町",
    "town_kana": "カミミヤモトマチ",
    "street": null,
    "office_name": null,
    "office_name_kana": null
  },
  "2441": {
    "zip_code": "8792441",
    "prefecture": "大分県",
    "prefecture_kana": "オオイタケン",
    "prefecture_code": "44",
    "city": "津久見市",
    "city_kana": "ツクミシ",
    "town": "中央町",
    "town_kana": "チュウオウマチ",
    "street": null,
    "office_name": null,
    "office_name_kana": null
  },
  "2442": {
    "zip_code": "8792442",
    "prefecture": "大分県",
    "prefecture_kana": "オオイタケン",
    "prefecture_code": "44",
    "city": "津久見市",
    "city_kana": "ツクミシ",
    "town": "港町",
    "town_kana": "ミナトマチ",
    "street": null,
    "office_name": null,
    "office_name_kana": null
  },
  "2443": {
    "zip_code": "8792443",
    "prefecture": "大分県",
    "prefecture_kana": "オオイタケン",
    "prefecture_code": "44",
    "city": "津久見市",
    "city_kana": "ツクミシ",
    "town": "セメント町",
    "town_kana": "セメントマチ",
    "street": null,
    "office_name": null,
    "office_name_kana": null
  },
  "2444": {
    "zip_code": "8792444",
    "prefecture": "大分県",
    "prefecture_kana": "オオイタケン",
    "prefecture_code": "44",
    "city": "津久見市",
    "city_kana": "ツクミシ",
    "town": "元町",
    "town_kana": "モトマチ",
    "street": null,
    "office_name": null,
    "office_name_kana": null
  },
  "2445": {
    "zip_code": "8792445",
    "prefecture": "大分県",
    "prefecture_kana": "オオイタケン",
    "prefecture_code": "44",
    "city": "津久見市",
    "city_kana": "ツクミシ",
    "town": "井無田町",
    "town_kana": "イムタマチ",
    "street": null,
    "office_name": null,
    "office_name_kana": null
  },
  "2446": {
    "zip_code": "8792446",
    "prefecture": "大分県",
    "prefecture_kana": "オオイタケン",
    "prefecture_code": "44",
    "city": "津久見市",
    "city_kana": "ツクミシ",
    "town": "下青江",
    "town_kana": "シモアオエ",
    "street": null,
    "office_name": null,
    "office_name_kana": null
  },
  "2451": {
    "zip_code": "8792451",
    "prefecture": "大分県",
    "prefecture_kana": "オオイタケン",
    "prefecture_code": "44",
    "city": "津久見市",
    "city_kana": "ツクミシ",
    "town": "新町",
    "town_kana": "シンマチ",
    "street": null,
    "office_name": null,
    "office_name_kana": null
  },
  "2452": {
    "zip_code": "8792452",
    "prefecture": "大分県",
    "prefecture_kana": "オオイタケン",
    "prefecture_code": "44",
    "city": "津久見市",
    "city_kana": "ツクミシ",
    "town": "中町",
    "town_kana": "ナカマチ",
    "street": null,
    "office_name": null,
    "office_name_kana": null
  },
  "2453": {
    "zip_code": "8792453",
    "prefecture": "大分県",
    "prefecture_kana": "オオイタケン",
    "prefecture_code": "44",
    "city": "津久見市",
    "city_kana": "ツクミシ",
    "town": "小園町",
    "town_kana": "コゾノマチ",
    "street": null,
    "office_name": null,
    "office_name_kana": null
  },
  "2454": {
    "zip_code": "8792454",
    "prefecture": "大分県",
    "prefecture_kana": "オオイタケン",
    "prefecture_code": "44",
    "city": "津久見市",
    "city_kana": "ツクミシ",
    "town": "地蔵町",
    "town_kana": "ジゾウマチ",
    "street": null,
    "office_name": null,
    "office_name_kana": null
  },
  "2455": {
    "zip_code": "8792455",
    "prefecture": "大分県",
    "prefecture_kana": "オオイタケン",
    "prefecture_code": "44",
    "city": "津久見市",
    "city_kana": "ツクミシ",
    "town": "岡町",
    "town_kana": "オカマチ",
    "street": null,
    "office_name": null,
    "office_name_kana": null
  },
  "2456": {
    "zip_code": "8792456",
    "prefecture": "大分県",
    "prefecture_kana": "オオイタケン",
    "prefecture_code": "44",
    "city": "津久見市",
    "city_kana": "ツクミシ",
    "town": "門前町",
    "town_kana": "モンゼンマチ",
    "street": null,
    "office_name": null,
    "office_name_kana": null
  },
  "2457": {
    "zip_code": "8792457",
    "prefecture": "大分県",
    "prefecture_kana": "オオイタケン",
    "prefecture_code": "44",
    "city": "津久見市",
    "city_kana": "ツクミシ",
    "town": "志手町",
    "town_kana": "シテマチ",
    "street": null,
    "office_name": null,
    "office_name_kana": null
  },
  "2458": {
    "zip_code": "8792458",
    "prefecture": "大分県",
    "prefecture_kana": "オオイタケン",
    "prefecture_code": "44",
    "city": "津久見市",
    "city_kana": "ツクミシ",
    "town": "入船西町",
    "town_kana": "イリフネニシマチ",
    "street": null,
    "office_name": null,
    "office_name_kana": null
  },
  "2459": {
    "zip_code": "8792459",
    "prefecture": "大分県",
    "prefecture_kana": "オオイタケン",
    "prefecture_code": "44",
    "city": "津久見市",
    "city_kana": "ツクミシ",
    "town": "入船東町",
    "town_kana": "イリフネヒガシマチ",
    "street": null,
    "office_name": null,
    "office_name_kana": null
  },
  "2461": {
    "zip_code": "8792461",
    "prefecture": "大分県",
    "prefecture_kana": "オオイタケン",
    "prefecture_code": "44",
    "city": "津久見市",
    "city_kana": "ツクミシ",
    "town": "上青江",
    "town_kana": "カミアオエ",
    "street": null,
    "office_name": null,
    "office_name_kana": null
  },
  "2471": {
    "zip_code": "8792471",
    "prefecture": "大分県",
    "prefecture_kana": "オオイタケン",
    "prefecture_code": "44",
    "city": "津久見市",
    "city_kana": "ツクミシ",
    "town": "合ノ元町",
    "town_kana": "ゴウノモトマチ",
    "street": null,
    "office_name": null,
    "office_name_kana": null
  },
  "2472": {
    "zip_code": "8792472",
    "prefecture": "大分県",
    "prefecture_kana": "オオイタケン",
    "prefecture_code": "44",
    "city": "津久見市",
    "city_kana": "ツクミシ",
    "town": "徳浦本町",
    "town_kana": "トクウラホンマチ",
    "street": null,
    "office_name": null,
    "office_name_kana": null
  },
  "2473": {
    "zip_code": "8792473",
    "prefecture": "大分県",
    "prefecture_kana": "オオイタケン",
    "prefecture_code": "44",
    "city": "津久見市",
    "city_kana": "ツクミシ",
    "town": "徳浦宮町",
    "town_kana": "トクウラミヤマチ",
    "street": null,
    "office_name": null,
    "office_name_kana": null
  },
  "2474": {
    "zip_code": "8792474",
    "prefecture": "大分県",
    "prefecture_kana": "オオイタケン",
    "prefecture_code": "44",
    "city": "津久見市",
    "city_kana": "ツクミシ",
    "town": "徳浦",
    "town_kana": "トクウラ",
    "street": null,
    "office_name": null,
    "office_name_kana": null
  },
  "2475": {
    "zip_code": "8792475",
    "prefecture": "大分県",
    "prefecture_kana": "オオイタケン",
    "prefecture_code": "44",
    "city": "津久見市",
    "city_kana": "ツクミシ",
    "town": "堅浦",
    "town_kana": "カタウラ",
    "street": null,
    "office_name": null,
    "office_name_kana": null
  },
  "2476": {
    "zip_code": "8792476",
    "prefecture": "大分県",
    "prefecture_kana": "オオイタケン",
    "prefecture_code": "44",
    "city": "津久見市",
    "city_kana": "ツクミシ",
    "town": "長目",
    "town_kana": "ナガメ",
    "street": null,
    "office_name": null,
    "office_name_kana": null
  },
  "2501": {
    "zip_code": "8792501",
    "prefecture": "大分県",
    "prefecture_kana": "オオイタケン",
    "prefecture_code": "44",
    "city": "津久見市",
    "city_kana": "ツクミシ",
    "town": "保戸島",
    "town_kana": "ホトジマ",
    "street": null,
    "office_name": null,
    "office_name_kana": null
  },
  "2601": {
    "zip_code": "8792601",
    "prefecture": "大分県",
    "prefecture_kana": "オオイタケン",
    "prefecture_code": "44",
    "city": "佐伯市",
    "city_kana": "サイキシ",
    "town": "上浦浅海井浦",
    "town_kana": "カミウラアザムイウラ",
    "street": null,
    "office_name": null,
    "office_name_kana": null
  },
  "2602": {
    "zip_code": "8792602",
    "prefecture": "大分県",
    "prefecture_kana": "オオイタケン",
    "prefecture_code": "44",
    "city": "佐伯市",
    "city_kana": "サイキシ",
    "town": "上浦津井浦",
    "town_kana": "カミウラツイウラ",
    "street": null,
    "office_name": null,
    "office_name_kana": null
  },
  "2603": {
    "zip_code": "8792603",
    "prefecture": "大分県",
    "prefecture_kana": "オオイタケン",
    "prefecture_code": "44",
    "city": "佐伯市",
    "city_kana": "サイキシ",
    "town": "上浦最勝海浦",
    "town_kana": "カミウラニイナメウラ",
    "street": null,
    "office_name": null,
    "office_name_kana": null
  },
  "2681": {
    "zip_code": "8792681",
    "prefecture": "大分県",
    "prefecture_kana": "オオイタケン",
    "prefecture_code": "44",
    "city": "津久見市",
    "city_kana": "ツクミシ",
    "town": "日見",
    "town_kana": "ヒミ",
    "street": null,
    "office_name": null,
    "office_name_kana": null
  },
  "2682": {
    "zip_code": "8792682",
    "prefecture": "大分県",
    "prefecture_kana": "オオイタケン",
    "prefecture_code": "44",
    "city": "津久見市",
    "city_kana": "ツクミシ",
    "town": "網代",
    "town_kana": "アジロ",
    "street": null,
    "office_name": null,
    "office_name_kana": null
  },
  "2683": {
    "zip_code": "8792683",
    "prefecture": "大分県",
    "prefecture_kana": "オオイタケン",
    "prefecture_code": "44",
    "city": "津久見市",
    "city_kana": "ツクミシ",
    "town": "四浦",
    "town_kana": "ヨウラ",
    "street": null,
    "office_name": null,
    "office_name_kana": null
  },
  "2692": {
    "zip_code": "8792692",
    "prefecture": "大分県",
    "prefecture_kana": null,
    "prefecture_code": null,
    "city": "佐伯市",
    "city_kana": null,
    "town": "上浦大字津井浦",
    "town_kana": null,
    "street": "１４００−３",
    "office_name": "佐伯市　上浦振興局",
    "office_name_kana": "サイキシ カミウラシンコウキヨク"
  },
  "3101": {
    "zip_code": "8793101",
    "prefecture": "大分県",
    "prefecture_kana": "オオイタケン",
    "prefecture_code": "44",
    "city": "佐伯市",
    "city_kana": "サイキシ",
    "town": "直川赤木",
    "town_kana": "ナオカワアカギ",
    "street": null,
    "office_name": null,
    "office_name_kana": null
  },
  "3102": {
    "zip_code": "8793102",
    "prefecture": "大分県",
    "prefecture_kana": "オオイタケン",
    "prefecture_code": "44",
    "city": "佐伯市",
    "city_kana": "サイキシ",
    "town": "直川上直見",
    "town_kana": "ナオカワカミナオミ",
    "street": null,
    "office_name": null,
    "office_name_kana": null
  },
  "3103": {
    "zip_code": "8793103",
    "prefecture": "大分県",
    "prefecture_kana": "オオイタケン",
    "prefecture_code": "44",
    "city": "佐伯市",
    "city_kana": "サイキシ",
    "town": "直川下直見",
    "town_kana": "ナオカワシモナオミ",
    "street": null,
    "office_name": null,
    "office_name_kana": null
  },
  "3104": {
    "zip_code": "8793104",
    "prefecture": "大分県",
    "prefecture_kana": "オオイタケン",
    "prefecture_code": "44",
    "city": "佐伯市",
    "city_kana": "サイキシ",
    "town": "直川仁田原",
    "town_kana": "ナオカワニタハラ",
    "street": null,
    "office_name": null,
    "office_name_kana": null
  },
  "3105": {
    "zip_code": "8793105",
    "prefecture": "大分県",
    "prefecture_kana": "オオイタケン",
    "prefecture_code": "44",
    "city": "佐伯市",
    "city_kana": "サイキシ",
    "town": "直川横川",
    "town_kana": "ナオカワヨコガワ",
    "street": null,
    "office_name": null,
    "office_name_kana": null
  },
  "3201": {
    "zip_code": "8793201",
    "prefecture": "大分県",
    "prefecture_kana": "オオイタケン",
    "prefecture_code": "44",
    "city": "佐伯市",
    "city_kana": "サイキシ",
    "town": "宇目大平",
    "town_kana": "ウメオオヒラ",
    "street": null,
    "office_name": null,
    "office_name_kana": null
  },
  "3202": {
    "zip_code": "8793202",
    "prefecture": "大分県",
    "prefecture_kana": "オオイタケン",
    "prefecture_code": "44",
    "city": "佐伯市",
    "city_kana": "サイキシ",
    "town": "宇目河内",
    "town_kana": "ウメカワチ",
    "street": null,
    "office_name": null,
    "office_name_kana": null
  },
  "3203": {
    "zip_code": "8793203",
    "prefecture": "大分県",
    "prefecture_kana": "オオイタケン",
    "prefecture_code": "44",
    "city": "佐伯市",
    "city_kana": "サイキシ",
    "town": "宇目塩見園",
    "town_kana": "ウメシオミゾノ",
    "street": null,
    "office_name": null,
    "office_name_kana": null
  },
  "3204": {
    "zip_code": "8793204",
    "prefecture": "大分県",
    "prefecture_kana": "オオイタケン",
    "prefecture_code": "44",
    "city": "佐伯市",
    "city_kana": "サイキシ",
    "town": "宇目重岡",
    "town_kana": "ウメシゲオカ",
    "street": null,
    "office_name": null,
    "office_name_kana": null
  },
  "3205": {
    "zip_code": "8793205",
    "prefecture": "大分県",
    "prefecture_kana": "オオイタケン",
    "prefecture_code": "44",
    "city": "佐伯市",
    "city_kana": "サイキシ",
    "town": "宇目千束",
    "town_kana": "ウメセンゾク",
    "street": null,
    "office_name": null,
    "office_name_kana": null
  },
  "3301": {
    "zip_code": "8793301",
    "prefecture": "大分県",
    "prefecture_kana": "オオイタケン",
    "prefecture_code": "44",
    "city": "佐伯市",
    "city_kana": "サイキシ",
    "town": "宇目小野市",
    "town_kana": "ウメオノイチ",
    "street": null,
    "office_name": null,
    "office_name_kana": null
  },
  "3302": {
    "zip_code": "8793302",
    "prefecture": "大分県",
    "prefecture_kana": "オオイタケン",
    "prefecture_code": "44",
    "city": "佐伯市",
    "city_kana": "サイキシ",
    "town": "宇目南田原",
    "town_kana": "ウメミナミタバル",
    "street": null,
    "office_name": null,
    "office_name_kana": null
  },
  "3401": {
    "zip_code": "8793401",
    "prefecture": "大分県",
    "prefecture_kana": "オオイタケン",
    "prefecture_code": "44",
    "city": "佐伯市",
    "city_kana": "サイキシ",
    "town": "宇目木浦鉱山",
    "town_kana": "ウメキウラコウザン",
    "street": null,
    "office_name": null,
    "office_name_kana": null
  },
  "3402": {
    "zip_code": "8793402",
    "prefecture": "大分県",
    "prefecture_kana": "オオイタケン",
    "prefecture_code": "44",
    "city": "佐伯市",
    "city_kana": "サイキシ",
    "town": "宇目木浦内",
    "town_kana": "ウメキウラウチ",
    "street": null,
    "office_name": null,
    "office_name_kana": null
  },
  "4121": {
    "zip_code": "8794121",
    "prefecture": "大分県",
    "prefecture_kana": "オオイタケン",
    "prefecture_code": "44",
    "city": "日田市",
    "city_kana": "ヒタシ",
    "town": "天瀬町馬原",
    "town_kana": "アマガセマチマバル",
    "street": null,
    "office_name": null,
    "office_name_kana": null
  },
  "4122": {
    "zip_code": "8794122",
    "prefecture": "大分県",
    "prefecture_kana": "オオイタケン",
    "prefecture_code": "44",
    "city": "日田市",
    "city_kana": "ヒタシ",
    "town": "天瀬町合田",
    "town_kana": "アマガセマチゴウタ",
    "street": null,
    "office_name": null,
    "office_name_kana": null
  },
  "4123": {
    "zip_code": "8794123",
    "prefecture": "大分県",
    "prefecture_kana": "オオイタケン",
    "prefecture_code": "44",
    "city": "日田市",
    "city_kana": "ヒタシ",
    "town": "天瀬町女子畑",
    "town_kana": "アマガセマチオナゴハタ",
    "street": null,
    "office_name": null,
    "office_name_kana": null
  },
  "4194": {
    "zip_code": "8794194",
    "prefecture": "大分県",
    "prefecture_kana": "オオイタケン",
    "prefecture_code": "44",
    "city": "日田市",
    "city_kana": "ヒタシ",
    "town": "天瀬町女子畑",
    "town_kana": "アマガセマチオナゴハタ",
    "street": "７０７−２",
    "office_name": "九州電力　株式会社　日田電力所",
    "office_name_kana": "キユウシユウデンリヨク カブシキガイシヤ ヒタデンリヨクシヨ"
  },
  "4201": {
    "zip_code": "8794201",
    "prefecture": "大分県",
    "prefecture_kana": "オオイタケン",
    "prefecture_code": "44",
    "city": "日田市",
    "city_kana": "ヒタシ",
    "town": "天瀬町桜竹",
    "town_kana": "アマガセマチサクラダケ",
    "street": null,
    "office_name": null,
    "office_name_kana": null
  },
  "4202": {
    "zip_code": "8794202",
    "prefecture": "大分県",
    "prefecture_kana": "オオイタケン",
    "prefecture_code": "44",
    "city": "日田市",
    "city_kana": "ヒタシ",
    "town": "天瀬町赤岩",
    "town_kana": "アマガセマチアカイワ",
    "street": null,
    "office_name": null,
    "office_name_kana": null
  },
  "4203": {
    "zip_code": "8794203",
    "prefecture": "大分県",
    "prefecture_kana": "オオイタケン",
    "prefecture_code": "44",
    "city": "日田市",
    "city_kana": "ヒタシ",
    "town": "天瀬町湯山",
    "town_kana": "アマガセマチユヤマ",
    "street": null,
    "office_name": null,
    "office_name_kana": null
  },
  "4292": {
    "zip_code": "8794292",
    "prefecture": "大分県",
    "prefecture_kana": "オオイタケン",
    "prefecture_code": "44",
    "city": "日田市",
    "city_kana": "ヒタシ",
    "town": "天瀬町桜竹",
    "town_kana": "アマガセマチサクラダケ",
    "street": "６７１−２",
    "office_name": "日田市役所　天瀬町振興局",
    "office_name_kana": "ヒタシヤクシヨ アマガセマチシンコウキヨク"
  },
  "4301": {
    "zip_code": "8794301",
    "prefecture": "大分県",
    "prefecture_kana": "オオイタケン",
    "prefecture_code": "44",
    "city": "玖珠郡玖珠町",
    "city_kana": "クスグンクスマチ",
    "town": "四日市",
    "town_kana": "ヨッカイチ",
    "street": null,
    "office_name": null,
    "office_name_kana": null
  },
  "4331": {
    "zip_code": "8794331",
    "prefecture": "大分県",
    "prefecture_kana": "オオイタケン",
    "prefecture_code": "44",
    "city": "玖珠郡玖珠町",
    "city_kana": "クスグンクスマチ",
    "town": "戸畑",
    "town_kana": "トバタ",
    "street": null,
    "office_name": null,
    "office_name_kana": null
  },
  "4332": [
    {
      "zip_code": "8794332",
      "prefecture": "大分県",
      "prefecture_kana": "オオイタケン",
      "prefecture_code": "44",
      "city": "玖珠郡玖珠町",
      "city_kana": "クスグンクスマチ",
      "town": "山浦",
      "town_kana": "ヤマウラ",
      "street": null,
      "office_name": null,
      "office_name_kana": null
    },
    {
      "zip_code": "8794332",
      "prefecture": "大分県",
      "prefecture_kana": "オオイタケン",
      "prefecture_code": "44",
      "city": "玖珠郡玖珠町",
      "city_kana": "クスグンクスマチ",
      "town": "山浦秋畑",
      "town_kana": "ヤマウラアキハタ",
      "street": null,
      "office_name": null,
      "office_name_kana": null
    },
    {
      "zip_code": "8794332",
      "prefecture": "大分県",
      "prefecture_kana": "オオイタケン",
      "prefecture_code": "44",
      "city": "玖珠郡玖珠町",
      "city_kana": "クスグンクスマチ",
      "town": "山浦荻原",
      "town_kana": "ヤマウラオギワラ",
      "street": null,
      "office_name": null,
      "office_name_kana": null
    },
    {
      "zip_code": "8794332",
      "prefecture": "大分県",
      "prefecture_kana": "オオイタケン",
      "prefecture_code": "44",
      "city": "玖珠郡玖珠町",
      "city_kana": "クスグンクスマチ",
      "town": "山浦下園",
      "town_kana": "ヤマウラシモソノ",
      "street": null,
      "office_name": null,
      "office_name_kana": null
    },
    {
      "zip_code": "8794332",
      "prefecture": "大分県",
      "prefecture_kana": "オオイタケン",
      "prefecture_code": "44",
      "city": "玖珠郡玖珠町",
      "city_kana": "クスグンクスマチ",
      "town": "山浦下ノ寺",
      "town_kana": "ヤマウラシモノテラ",
      "street": null,
      "office_name": null,
      "office_name_kana": null
    },
    {
      "zip_code": "8794332",
      "prefecture": "大分県",
      "prefecture_kana": "オオイタケン",
      "prefecture_code": "44",
      "city": "玖珠郡玖珠町",
      "city_kana": "クスグンクスマチ",
      "town": "山浦杉河内",
      "town_kana": "ヤマウラスギカワチ",
      "street": null,
      "office_name": null,
      "office_name_kana": null
    },
    {
      "zip_code": "8794332",
      "prefecture": "大分県",
      "prefecture_kana": "オオイタケン",
      "prefecture_code": "44",
      "city": "玖珠郡玖珠町",
      "city_kana": "クスグンクスマチ",
      "town": "山浦千重",
      "town_kana": "ヤマウラセンシュウ",
      "street": null,
      "office_name": null,
      "office_name_kana": null
    },
    {
      "zip_code": "8794332",
      "prefecture": "大分県",
      "prefecture_kana": "オオイタケン",
      "prefecture_code": "44",
      "city": "玖珠郡玖珠町",
      "city_kana": "クスグンクスマチ",
      "town": "山浦早水",
      "town_kana": "ヤマウラソウズ",
      "street": null,
      "office_name": null,
      "office_name_kana": null
    },
    {
      "zip_code": "8794332",
      "prefecture": "大分県",
      "prefecture_kana": "オオイタケン",
      "prefecture_code": "44",
      "city": "玖珠郡玖珠町",
      "city_kana": "クスグンクスマチ",
      "town": "山浦中野",
      "town_kana": "ヤマウラナカノ",
      "street": null,
      "office_name": null,
      "office_name_kana": null
    },
    {
      "zip_code": "8794332",
      "prefecture": "大分県",
      "prefecture_kana": "オオイタケン",
      "prefecture_code": "44",
      "city": "玖珠郡玖珠町",
      "city_kana": "クスグンクスマチ",
      "town": "山浦中泊里",
      "town_kana": "ヤマウラナカヅマリ",
      "street": null,
      "office_name": null,
      "office_name_kana": null
    },
    {
      "zip_code": "8794332",
      "prefecture": "大分県",
      "prefecture_kana": "オオイタケン",
      "prefecture_code": "44",
      "city": "玖珠郡玖珠町",
      "city_kana": "クスグンクスマチ",
      "town": "山浦花香",
      "town_kana": "ヤマウラハナガ",
      "street": null,
      "office_name": null,
      "office_name_kana": null
    },
    {
      "zip_code": "8794332",
      "prefecture": "大分県",
      "prefecture_kana": "オオイタケン",
      "prefecture_code": "44",
      "city": "玖珠郡玖珠町",
      "city_kana": "クスグンクスマチ",
      "town": "山浦牧場",
      "town_kana": "ヤマウラボクジョウ",
      "street": null,
      "office_name": null,
      "office_name_kana": null
    }
  ],
  "4400": {
    "zip_code": "8794400",
    "prefecture": "大分県",
    "prefecture_kana": "オオイタケン",
    "prefecture_code": "44",
    "city": "玖珠郡玖珠町",
    "city_kana": "クスグンクスマチ",
    "town": "",
    "town_kana": "",
    "street": null,
    "office_name": null,
    "office_name_kana": null
  },
  "4401": {
    "zip_code": "8794401",
    "prefecture": "大分県",
    "prefecture_kana": "オオイタケン",
    "prefecture_code": "44",
    "city": "玖珠郡玖珠町",
    "city_kana": "クスグンクスマチ",
    "town": "四日市",
    "town_kana": "ヨッカイチ",
    "street": null,
    "office_name": null,
    "office_name_kana": null
  },
  "4402": {
    "zip_code": "8794402",
    "prefecture": "大分県",
    "prefecture_kana": "オオイタケン",
    "prefecture_code": "44",
    "city": "玖珠郡玖珠町",
    "city_kana": "クスグンクスマチ",
    "town": "綾垣",
    "town_kana": "アヤガキ",
    "street": null,
    "office_name": null,
    "office_name_kana": null
  },
  "4403": {
    "zip_code": "8794403",
    "prefecture": "大分県",
    "prefecture_kana": "オオイタケン",
    "prefecture_code": "44",
    "city": "玖珠郡玖珠町",
    "city_kana": "クスグンクスマチ",
    "town": "帆足",
    "town_kana": "ホアシ",
    "street": null,
    "office_name": null,
    "office_name_kana": null
  },
  "4404": {
    "zip_code": "8794404",
    "prefecture": "大分県",
    "prefecture_kana": "オオイタケン",
    "prefecture_code": "44",
    "city": "玖珠郡玖珠町",
    "city_kana": "クスグンクスマチ",
    "town": "森",
    "town_kana": "モリ",
    "street": null,
    "office_name": null,
    "office_name_kana": null
  },
  "4405": {
    "zip_code": "8794405",
    "prefecture": "大分県",
    "prefecture_kana": "オオイタケン",
    "prefecture_code": "44",
    "city": "玖珠郡玖珠町",
    "city_kana": "クスグンクスマチ",
    "town": "岩室",
    "town_kana": "イワムロ",
    "street": null,
    "office_name": null,
    "office_name_kana": null
  },
  "4406": {
    "zip_code": "8794406",
    "prefecture": "大分県",
    "prefecture_kana": "オオイタケン",
    "prefecture_code": "44",
    "city": "玖珠郡玖珠町",
    "city_kana": "クスグンクスマチ",
    "town": "日出生",
    "town_kana": "ヒジウ",
    "street": null,
    "office_name": null,
    "office_name_kana": null
  },
  "4411": {
    "zip_code": "8794411",
    "prefecture": "大分県",
    "prefecture_kana": "オオイタケン",
    "prefecture_code": "44",
    "city": "玖珠郡玖珠町",
    "city_kana": "クスグンクスマチ",
    "town": "小田",
    "town_kana": "オタ",
    "street": null,
    "office_name": null,
    "office_name_kana": null
  },
  "4412": {
    "zip_code": "8794412",
    "prefecture": "大分県",
    "prefecture_kana": "オオイタケン",
    "prefecture_code": "44",
    "city": "玖珠郡玖珠町",
    "city_kana": "クスグンクスマチ",
    "town": "山田",
    "town_kana": "ヤマダ",
    "street": null,
    "office_name": null,
    "office_name_kana": null
  },
  "4413": {
    "zip_code": "8794413",
    "prefecture": "大分県",
    "prefecture_kana": "オオイタケン",
    "prefecture_code": "44",
    "city": "玖珠郡玖珠町",
    "city_kana": "クスグンクスマチ",
    "town": "塚脇",
    "town_kana": "ツカワキ",
    "street": null,
    "office_name": null,
    "office_name_kana": null
  },
  "4414": {
    "zip_code": "8794414",
    "prefecture": "大分県",
    "prefecture_kana": "オオイタケン",
    "prefecture_code": "44",
    "city": "玖珠郡玖珠町",
    "city_kana": "クスグンクスマチ",
    "town": "大隈",
    "town_kana": "オオクマ",
    "street": null,
    "office_name": null,
    "office_name_kana": null
  },
  "4492": {
    "zip_code": "8794492",
    "prefecture": "大分県",
    "prefecture_kana": null,
    "prefecture_code": null,
    "city": "玖珠郡玖珠町",
    "city_kana": null,
    "town": "大字帆足",
    "town_kana": null,
    "street": "２６８−５（玖珠郵便局私書箱第１号）",
    "office_name": "玖珠町役場",
    "office_name_kana": "クスマチヤクバ"
  },
  "4498": {
    "zip_code": "8794498",
    "prefecture": "大分県",
    "prefecture_kana": null,
    "prefecture_code": null,
    "city": "玖珠郡玖珠町",
    "city_kana": null,
    "town": "大字帆足",
    "town_kana": null,
    "street": "２４９４",
    "office_name": "陸上自衛隊玖珠駐屯地",
    "office_name_kana": "リクジヨウジエイタイクスチユウトンチ"
  },
  "4521": {
    "zip_code": "8794521",
    "prefecture": "大分県",
    "prefecture_kana": "オオイタケン",
    "prefecture_code": "44",
    "city": "玖珠郡玖珠町",
    "city_kana": "クスグンクスマチ",
    "town": "太田",
    "town_kana": "オオタ",
    "street": null,
    "office_name": null,
    "office_name_kana": null
  },
  "4522": {
    "zip_code": "8794522",
    "prefecture": "大分県",
    "prefecture_kana": "オオイタケン",
    "prefecture_code": "44",
    "city": "玖珠郡玖珠町",
    "city_kana": "クスグンクスマチ",
    "town": "山下",
    "town_kana": "ヤマシタ",
    "street": null,
    "office_name": null,
    "office_name_kana": null
  },
  "4523": {
    "zip_code": "8794523",
    "prefecture": "大分県",
    "prefecture_kana": "オオイタケン",
    "prefecture_code": "44",
    "city": "玖珠郡玖珠町",
    "city_kana": "クスグンクスマチ",
    "town": "古後",
    "town_kana": "コゴ",
    "street": null,
    "office_name": null,
    "office_name_kana": null
  },
  "4601": {
    "zip_code": "8794601",
    "prefecture": "大分県",
    "prefecture_kana": "オオイタケン",
    "prefecture_code": "44",
    "city": "玖珠郡九重町",
    "city_kana": "クスグンココノエマチ",
    "town": "右田",
    "town_kana": "ミギタ",
    "street": null,
    "office_name": null,
    "office_name_kana": null
  },
  "4631": {
    "zip_code": "8794631",
    "prefecture": "大分県",
    "prefecture_kana": "オオイタケン",
    "prefecture_code": "44",
    "city": "玖珠郡九重町",
    "city_kana": "クスグンココノエマチ",
    "town": "恵良",
    "town_kana": "エラ",
    "street": null,
    "office_name": null,
    "office_name_kana": null
  },
  "4632": {
    "zip_code": "8794632",
    "prefecture": "大分県",
    "prefecture_kana": "オオイタケン",
    "prefecture_code": "44",
    "city": "玖珠郡九重町",
    "city_kana": "クスグンココノエマチ",
    "town": "松木",
    "town_kana": "マツギ",
    "street": null,
    "office_name": null,
    "office_name_kana": null
  },
  "4692": {
    "zip_code": "8794692",
    "prefecture": "大分県",
    "prefecture_kana": null,
    "prefecture_code": null,
    "city": "玖珠郡九重町",
    "city_kana": null,
    "town": "大字右田",
    "town_kana": null,
    "street": "３３６４",
    "office_name": "八鹿酒造　株式会社",
    "office_name_kana": "ヤツシカシユゾウ カブシキガイシヤ"
  },
  "4721": {
    "zip_code": "8794721",
    "prefecture": "大分県",
    "prefecture_kana": "オオイタケン",
    "prefecture_code": "44",
    "city": "玖珠郡九重町",
    "city_kana": "クスグンココノエマチ",
    "town": "粟野",
    "town_kana": "アワノ",
    "street": null,
    "office_name": null,
    "office_name_kana": null
  },
  "4722": {
    "zip_code": "8794722",
    "prefecture": "大分県",
    "prefecture_kana": "オオイタケン",
    "prefecture_code": "44",
    "city": "玖珠郡九重町",
    "city_kana": "クスグンココノエマチ",
    "town": "引治",
    "town_kana": "ヒキジ",
    "street": null,
    "office_name": null,
    "office_name_kana": null
  },
  "4723": {
    "zip_code": "8794723",
    "prefecture": "大分県",
    "prefecture_kana": "オオイタケン",
    "prefecture_code": "44",
    "city": "玖珠郡九重町",
    "city_kana": "クスグンココノエマチ",
    "town": "町田",
    "town_kana": "マチダ",
    "street": null,
    "office_name": null,
    "office_name_kana": null
  },
  "4724": {
    "zip_code": "8794724",
    "prefecture": "大分県",
    "prefecture_kana": "オオイタケン",
    "prefecture_code": "44",
    "city": "玖珠郡九重町",
    "city_kana": "クスグンココノエマチ",
    "town": "菅原",
    "town_kana": "スガワラ",
    "street": null,
    "office_name": null,
    "office_name_kana": null
  },
  "4732": [
    {
      "zip_code": "8794732",
      "prefecture": "大分県",
      "prefecture_kana": "オオイタケン",
      "prefecture_code": "44",
      "city": "玖珠郡玖珠町",
      "city_kana": "クスグンクスマチ",
      "town": "山浦",
      "town_kana": "ヤマウラ",
      "street": null,
      "office_name": null,
      "office_name_kana": null
    },
    {
      "zip_code": "8794732",
      "prefecture": "大分県",
      "prefecture_kana": "オオイタケン",
      "prefecture_code": "44",
      "city": "玖珠郡玖珠町",
      "city_kana": "クスグンクスマチ",
      "town": "山浦第一大原野",
      "town_kana": "ヤマウラダイ1ダイゲンヤ",
      "street": null,
      "office_name": null,
      "office_name_kana": null
    },
    {
      "zip_code": "8794732",
      "prefecture": "大分県",
      "prefecture_kana": "オオイタケン",
      "prefecture_code": "44",
      "city": "玖珠郡玖珠町",
      "city_kana": "クスグンクスマチ",
      "town": "山浦第二大原野",
      "town_kana": "ヤマウラダイ2ダイゲンヤ",
      "street": null,
      "office_name": null,
      "office_name_kana": null
    },
    {
      "zip_code": "8794732",
      "prefecture": "大分県",
      "prefecture_kana": "オオイタケン",
      "prefecture_code": "44",
      "city": "玖珠郡玖珠町",
      "city_kana": "クスグンクスマチ",
      "town": "山浦阿蘇釣",
      "town_kana": "ヤマウラアソヅル",
      "street": null,
      "office_name": null,
      "office_name_kana": null
    }
  ],
  "4800": {
    "zip_code": "8794800",
    "prefecture": "大分県",
    "prefecture_kana": "オオイタケン",
    "prefecture_code": "44",
    "city": "玖珠郡九重町",
    "city_kana": "クスグンココノエマチ",
    "town": "",
    "town_kana": "",
    "street": null,
    "office_name": null,
    "office_name_kana": null
  },
  "4801": {
    "zip_code": "8794801",
    "prefecture": "大分県",
    "prefecture_kana": "オオイタケン",
    "prefecture_code": "44",
    "city": "玖珠郡九重町",
    "city_kana": "クスグンココノエマチ",
    "town": "右田",
    "town_kana": "ミギタ",
    "street": null,
    "office_name": null,
    "office_name_kana": null
  },
  "4802": {
    "zip_code": "8794802",
    "prefecture": "大分県",
    "prefecture_kana": "オオイタケン",
    "prefecture_code": "44",
    "city": "玖珠郡九重町",
    "city_kana": "クスグンココノエマチ",
    "town": "野上",
    "town_kana": "ノガミ",
    "street": null,
    "office_name": null,
    "office_name_kana": null
  },
  "4803": {
    "zip_code": "8794803",
    "prefecture": "大分県",
    "prefecture_kana": "オオイタケン",
    "prefecture_code": "44",
    "city": "玖珠郡九重町",
    "city_kana": "クスグンココノエマチ",
    "town": "後野上",
    "town_kana": "ウシロノガミ",
    "street": null,
    "office_name": null,
    "office_name_kana": null
  },
  "4911": {
    "zip_code": "8794911",
    "prefecture": "大分県",
    "prefecture_kana": "オオイタケン",
    "prefecture_code": "44",
    "city": "玖珠郡九重町",
    "city_kana": "クスグンココノエマチ",
    "town": "田野",
    "town_kana": "タノ",
    "street": null,
    "office_name": null,
    "office_name_kana": null
  },
  "4912": {
    "zip_code": "8794912",
    "prefecture": "大分県",
    "prefecture_kana": "オオイタケン",
    "prefecture_code": "44",
    "city": "玖珠郡九重町",
    "city_kana": "クスグンココノエマチ",
    "town": "湯坪",
    "town_kana": "ユツボ",
    "street": null,
    "office_name": null,
    "office_name_kana": null
  },
  "5101": {
    "zip_code": "8795101",
    "prefecture": "大分県",
    "prefecture_kana": "オオイタケン",
    "prefecture_code": "44",
    "city": "由布市",
    "city_kana": "ユフシ",
    "town": "湯布院町塚原",
    "town_kana": "ユフインチョウツカワラ",
    "street": null,
    "office_name": null,
    "office_name_kana": null
  },
  "5102": {
    "zip_code": "8795102",
    "prefecture": "大分県",
    "prefecture_kana": "オオイタケン",
    "prefecture_code": "44",
    "city": "由布市",
    "city_kana": "ユフシ",
    "town": "湯布院町川上",
    "town_kana": "ユフインチョウカワカミ",
    "street": null,
    "office_name": null,
    "office_name_kana": null
  },
  "5103": {
    "zip_code": "8795103",
    "prefecture": "大分県",
    "prefecture_kana": "オオイタケン",
    "prefecture_code": "44",
    "city": "由布市",
    "city_kana": "ユフシ",
    "town": "湯布院町川南",
    "town_kana": "ユフインチョウカワミナミ",
    "street": null,
    "office_name": null,
    "office_name_kana": null
  },
  "5104": {
    "zip_code": "8795104",
    "prefecture": "大分県",
    "prefecture_kana": "オオイタケン",
    "prefecture_code": "44",
    "city": "由布市",
    "city_kana": "ユフシ",
    "town": "湯布院町中川",
    "town_kana": "ユフインチョウナカガワ",
    "street": null,
    "office_name": null,
    "office_name_kana": null
  },
  "5111": {
    "zip_code": "8795111",
    "prefecture": "大分県",
    "prefecture_kana": "オオイタケン",
    "prefecture_code": "44",
    "city": "由布市",
    "city_kana": "ユフシ",
    "town": "湯布院町下湯平",
    "town_kana": "ユフインチョウシモユノヒラ",
    "street": null,
    "office_name": null,
    "office_name_kana": null
  },
  "5112": {
    "zip_code": "8795112",
    "prefecture": "大分県",
    "prefecture_kana": "オオイタケン",
    "prefecture_code": "44",
    "city": "由布市",
    "city_kana": "ユフシ",
    "town": "湯布院町湯平",
    "town_kana": "ユフインチョウユノヒラ",
    "street": null,
    "office_name": null,
    "office_name_kana": null
  },
  "5113": {
    "zip_code": "8795113",
    "prefecture": "大分県",
    "prefecture_kana": "オオイタケン",
    "prefecture_code": "44",
    "city": "由布市",
    "city_kana": "ユフシ",
    "town": "湯布院町川西",
    "town_kana": "ユフインチョウカワニシ",
    "street": null,
    "office_name": null,
    "office_name_kana": null
  },
  "5114": {
    "zip_code": "8795114",
    "prefecture": "大分県",
    "prefecture_kana": "オオイタケン",
    "prefecture_code": "44",
    "city": "由布市",
    "city_kana": "ユフシ",
    "town": "湯布院町川北",
    "town_kana": "ユフインチョウカワキタ",
    "street": null,
    "office_name": null,
    "office_name_kana": null
  },
  "5192": {
    "zip_code": "8795192",
    "prefecture": "大分県",
    "prefecture_kana": "オオイタケン",
    "prefecture_code": "44",
    "city": "由布市",
    "city_kana": "ユフシ",
    "town": "湯布院町川上",
    "town_kana": "ユフインチョウカワカミ",
    "street": "３７３８−１",
    "office_name": "由布市役所　湯布院庁舎",
    "office_name_kana": "ユフシヤクシヨ ユフインチヨウシヤ"
  },
  "5193": {
    "zip_code": "8795193",
    "prefecture": "大分県",
    "prefecture_kana": "オオイタケン",
    "prefecture_code": "44",
    "city": "由布市",
    "city_kana": "ユフシ",
    "town": "湯布院町川南",
    "town_kana": "ユフインチョウカワミナミ",
    "street": "２５２",
    "office_name": "湯布院厚生年金病院",
    "office_name_kana": "ユフインコウセイネンキンビヨウイン"
  },
  "5195": {
    "zip_code": "8795195",
    "prefecture": "大分県",
    "prefecture_kana": "オオイタケン",
    "prefecture_code": "44",
    "city": "由布市",
    "city_kana": "ユフシ",
    "town": "湯布院町川上",
    "town_kana": "ユフインチョウカワカミ",
    "street": "９４１",
    "office_name": "陸上自衛隊　湯布院駐屯地",
    "office_name_kana": "リクジヨウジエイタイ ユフインチユウトンチ"
  },
  "5196": {
    "zip_code": "8795196",
    "prefecture": "大分県",
    "prefecture_kana": "オオイタケン",
    "prefecture_code": "44",
    "city": "由布市",
    "city_kana": "ユフシ",
    "town": "湯布院町川南",
    "town_kana": "ユフインチョウカワミナミ",
    "street": "１０８−１",
    "office_name": "有限会社　山水館",
    "office_name_kana": "ユウゲンガイシヤ サンスイカン"
  },
  "5197": {
    "zip_code": "8795197",
    "prefecture": "大分県",
    "prefecture_kana": "オオイタケン",
    "prefecture_code": "44",
    "city": "由布市",
    "city_kana": "ユフシ",
    "town": "湯布院町川上",
    "town_kana": "ユフインチョウカワカミ",
    "street": "２７３１−１",
    "office_name": "株式会社　玉の湯",
    "office_name_kana": "カブシキガイシヤ タマノユ"
  },
  "5198": {
    "zip_code": "8795198",
    "prefecture": "大分県",
    "prefecture_kana": "オオイタケン",
    "prefecture_code": "44",
    "city": "由布市",
    "city_kana": "ユフシ",
    "town": "湯布院町川上",
    "town_kana": "ユフインチョウカワカミ",
    "street": "２６３３",
    "office_name": "株式会社　亀の井別荘",
    "office_name_kana": "カブシキガイシヤ カメノイベツソウ"
  },
  "5400": {
    "zip_code": "8795400",
    "prefecture": "大分県",
    "prefecture_kana": "オオイタケン",
    "prefecture_code": "44",
    "city": "由布市",
    "city_kana": "ユフシ",
    "town": "",
    "town_kana": "",
    "street": null,
    "office_name": null,
    "office_name_kana": null
  },
  "5401": {
    "zip_code": "8795401",
    "prefecture": "大分県",
    "prefecture_kana": "オオイタケン",
    "prefecture_code": "44",
    "city": "由布市",
    "city_kana": "ユフシ",
    "town": "庄内町北大津留",
    "town_kana": "ショウナイチョウキタオオツル",
    "street": null,
    "office_name": null,
    "office_name_kana": null
  },
  "5402": {
    "zip_code": "8795402",
    "prefecture": "大分県",
    "prefecture_kana": "オオイタケン",
    "prefecture_code": "44",
    "city": "由布市",
    "city_kana": "ユフシ",
    "town": "庄内町小挾間",
    "town_kana": "ショウナイチョウオバサマ",
    "street": null,
    "office_name": null,
    "office_name_kana": null
  },
  "5403": {
    "zip_code": "8795403",
    "prefecture": "大分県",
    "prefecture_kana": "オオイタケン",
    "prefecture_code": "44",
    "city": "由布市",
    "city_kana": "ユフシ",
    "town": "庄内町東大津留",
    "town_kana": "ショウナイチョウヒガシオオツル",
    "street": null,
    "office_name": null,
    "office_name_kana": null
  },
  "5404": {
    "zip_code": "8795404",
    "prefecture": "大分県",
    "prefecture_kana": "オオイタケン",
    "prefecture_code": "44",
    "city": "由布市",
    "city_kana": "ユフシ",
    "town": "庄内町櫟木",
    "town_kana": "ショウナイチョウイチギ",
    "street": null,
    "office_name": null,
    "office_name_kana": null
  },
  "5405": {
    "zip_code": "8795405",
    "prefecture": "大分県",
    "prefecture_kana": "オオイタケン",
    "prefecture_code": "44",
    "city": "由布市",
    "city_kana": "ユフシ",
    "town": "庄内町東長宝",
    "town_kana": "ショウナイチョウヒガシチョウホウ",
    "street": null,
    "office_name": null,
    "office_name_kana": null
  },
  "5406": {
    "zip_code": "8795406",
    "prefecture": "大分県",
    "prefecture_kana": "オオイタケン",
    "prefecture_code": "44",
    "city": "由布市",
    "city_kana": "ユフシ",
    "town": "庄内町西長宝",
    "town_kana": "ショウナイチョウニシチョウホウ",
    "street": null,
    "office_name": null,
    "office_name_kana": null
  },
  "5407": {
    "zip_code": "8795407",
    "prefecture": "大分県",
    "prefecture_kana": "オオイタケン",
    "prefecture_code": "44",
    "city": "由布市",
    "city_kana": "ユフシ",
    "town": "庄内町南大津留",
    "town_kana": "ショウナイチョウミナミオオツル",
    "street": null,
    "office_name": null,
    "office_name_kana": null
  },
  "5408": {
    "zip_code": "8795408",
    "prefecture": "大分県",
    "prefecture_kana": "オオイタケン",
    "prefecture_code": "44",
    "city": "由布市",
    "city_kana": "ユフシ",
    "town": "庄内町西大津留",
    "town_kana": "ショウナイチョウニシオオツル",
    "street": null,
    "office_name": null,
    "office_name_kana": null
  },
  "5411": {
    "zip_code": "8795411",
    "prefecture": "大分県",
    "prefecture_kana": "オオイタケン",
    "prefecture_code": "44",
    "city": "由布市",
    "city_kana": "ユフシ",
    "town": "庄内町龍原",
    "town_kana": "ショウナイチョウタツハル",
    "street": null,
    "office_name": null,
    "office_name_kana": null
  },
  "5412": {
    "zip_code": "8795412",
    "prefecture": "大分県",
    "prefecture_kana": "オオイタケン",
    "prefecture_code": "44",
    "city": "由布市",
    "city_kana": "ユフシ",
    "town": "庄内町五ケ瀬",
    "town_kana": "ショウナイチョウゴカセ",
    "street": null,
    "office_name": null,
    "office_name_kana": null
  },
  "5413": {
    "zip_code": "8795413",
    "prefecture": "大分県",
    "prefecture_kana": "オオイタケン",
    "prefecture_code": "44",
    "city": "由布市",
    "city_kana": "ユフシ",
    "town": "庄内町大龍",
    "town_kana": "ショウナイチョウオオタツ",
    "street": null,
    "office_name": null,
    "office_name_kana": null
  },
  "5421": {
    "zip_code": "8795421",
    "prefecture": "大分県",
    "prefecture_kana": "オオイタケン",
    "prefecture_code": "44",
    "city": "由布市",
    "city_kana": "ユフシ",
    "town": "庄内町柿原",
    "town_kana": "ショウナイチョウカキハル",
    "street": null,
    "office_name": null,
    "office_name_kana": null
  },
  "5422": {
    "zip_code": "8795422",
    "prefecture": "大分県",
    "prefecture_kana": "オオイタケン",
    "prefecture_code": "44",
    "city": "由布市",
    "city_kana": "ユフシ",
    "town": "庄内町野畑",
    "town_kana": "ショウナイチョウノバタケ",
    "street": null,
    "office_name": null,
    "office_name_kana": null
  },
  "5423": {
    "zip_code": "8795423",
    "prefecture": "大分県",
    "prefecture_kana": "オオイタケン",
    "prefecture_code": "44",
    "city": "由布市",
    "city_kana": "ユフシ",
    "town": "庄内町阿蘇野",
    "town_kana": "ショウナイチョウアソノ",
    "street": null,
    "office_name": null,
    "office_name_kana": null
  },
  "5424": {
    "zip_code": "8795424",
    "prefecture": "大分県",
    "prefecture_kana": "オオイタケン",
    "prefecture_code": "44",
    "city": "由布市",
    "city_kana": "ユフシ",
    "town": "庄内町直野内山",
    "town_kana": "ショウナイチョウナオノウチヤマ",
    "street": null,
    "office_name": null,
    "office_name_kana": null
  },
  "5425": {
    "zip_code": "8795425",
    "prefecture": "大分県",
    "prefecture_kana": "オオイタケン",
    "prefecture_code": "44",
    "city": "由布市",
    "city_kana": "ユフシ",
    "town": "庄内町渕",
    "town_kana": "ショウナイチョウフチ",
    "street": null,
    "office_name": null,
    "office_name_kana": null
  },
  "5431": {
    "zip_code": "8795431",
    "prefecture": "大分県",
    "prefecture_kana": "オオイタケン",
    "prefecture_code": "44",
    "city": "由布市",
    "city_kana": "ユフシ",
    "town": "庄内町長野",
    "town_kana": "ショウナイチョウナガノ",
    "street": null,
    "office_name": null,
    "office_name_kana": null
  },
  "5432": {
    "zip_code": "8795432",
    "prefecture": "大分県",
    "prefecture_kana": "オオイタケン",
    "prefecture_code": "44",
    "city": "由布市",
    "city_kana": "ユフシ",
    "town": "庄内町畑田",
    "town_kana": "ショウナイチョウハタケダ",
    "street": null,
    "office_name": null,
    "office_name_kana": null
  },
  "5433": {
    "zip_code": "8795433",
    "prefecture": "大分県",
    "prefecture_kana": "オオイタケン",
    "prefecture_code": "44",
    "city": "由布市",
    "city_kana": "ユフシ",
    "town": "庄内町高岡",
    "town_kana": "ショウナイチョウタカオカ",
    "street": null,
    "office_name": null,
    "office_name_kana": null
  },
  "5434": {
    "zip_code": "8795434",
    "prefecture": "大分県",
    "prefecture_kana": "オオイタケン",
    "prefecture_code": "44",
    "city": "由布市",
    "city_kana": "ユフシ",
    "town": "庄内町庄内原",
    "town_kana": "ショウナイチョウショウナイバル",
    "street": null,
    "office_name": null,
    "office_name_kana": null
  },
  "5435": {
    "zip_code": "8795435",
    "prefecture": "大分県",
    "prefecture_kana": "オオイタケン",
    "prefecture_code": "44",
    "city": "由布市",
    "city_kana": "ユフシ",
    "town": "庄内町中",
    "town_kana": "ショウナイチョウナカ",
    "street": null,
    "office_name": null,
    "office_name_kana": null
  },
  "5436": {
    "zip_code": "8795436",
    "prefecture": "大分県",
    "prefecture_kana": "オオイタケン",
    "prefecture_code": "44",
    "city": "由布市",
    "city_kana": "ユフシ",
    "town": "庄内町西",
    "town_kana": "ショウナイチョウニシ",
    "street": null,
    "office_name": null,
    "office_name_kana": null
  },
  "5437": {
    "zip_code": "8795437",
    "prefecture": "大分県",
    "prefecture_kana": "オオイタケン",
    "prefecture_code": "44",
    "city": "由布市",
    "city_kana": "ユフシ",
    "town": "庄内町平石",
    "town_kana": "ショウナイチョウヒライシ",
    "street": null,
    "office_name": null,
    "office_name_kana": null
  },
  "5498": {
    "zip_code": "8795498",
    "prefecture": "大分県",
    "prefecture_kana": "オオイタケン",
    "prefecture_code": "44",
    "city": "由布市",
    "city_kana": "ユフシ",
    "town": "庄内町柿原",
    "town_kana": "ショウナイチョウカキハル",
    "street": "３０２",
    "office_name": "由布市役所　庄内庁舎",
    "office_name_kana": "ユフシヤクシヨ シヨウナイチヨウシヤ"
  },
  "5501": {
    "zip_code": "8795501",
    "prefecture": "大分県",
    "prefecture_kana": "オオイタケン",
    "prefecture_code": "44",
    "city": "由布市",
    "city_kana": "ユフシ",
    "town": "挾間町鬼崎",
    "town_kana": "ハサママチオニザキ",
    "street": null,
    "office_name": null,
    "office_name_kana": null
  },
  "5502": {
    "zip_code": "8795502",
    "prefecture": "大分県",
    "prefecture_kana": "オオイタケン",
    "prefecture_code": "44",
    "city": "由布市",
    "city_kana": "ユフシ",
    "town": "挾間町向原",
    "town_kana": "ハサママチムカイノハル",
    "street": null,
    "office_name": null,
    "office_name_kana": null
  },
  "5503": {
    "zip_code": "8795503",
    "prefecture": "大分県",
    "prefecture_kana": "オオイタケン",
    "prefecture_code": "44",
    "city": "由布市",
    "city_kana": "ユフシ",
    "town": "挾間町医大ケ丘",
    "town_kana": "ハサママチイダイガオカ",
    "street": null,
    "office_name": null,
    "office_name_kana": null
  },
  "5504": {
    "zip_code": "8795504",
    "prefecture": "大分県",
    "prefecture_kana": "オオイタケン",
    "prefecture_code": "44",
    "city": "由布市",
    "city_kana": "ユフシ",
    "town": "挾間町下市",
    "town_kana": "ハサママチシモイチ",
    "street": null,
    "office_name": null,
    "office_name_kana": null
  },
  "5506": {
    "zip_code": "8795506",
    "prefecture": "大分県",
    "prefecture_kana": "オオイタケン",
    "prefecture_code": "44",
    "city": "由布市",
    "city_kana": "ユフシ",
    "town": "挾間町挾間",
    "town_kana": "ハサママチハサマ",
    "street": null,
    "office_name": null,
    "office_name_kana": null
  },
  "5510": {
    "zip_code": "8795510",
    "prefecture": "大分県",
    "prefecture_kana": "オオイタケン",
    "prefecture_code": "44",
    "city": "由布市",
    "city_kana": "ユフシ",
    "town": "挾間町東院",
    "town_kana": "ハサママチトイ",
    "street": null,
    "office_name": null,
    "office_name_kana": null
  },
  "5511": {
    "zip_code": "8795511",
    "prefecture": "大分県",
    "prefecture_kana": "オオイタケン",
    "prefecture_code": "44",
    "city": "由布市",
    "city_kana": "ユフシ",
    "town": "挾間町古野",
    "town_kana": "ハサママチフルノ",
    "street": null,
    "office_name": null,
    "office_name_kana": null
  },
  "5512": {
    "zip_code": "8795512",
    "prefecture": "大分県",
    "prefecture_kana": "オオイタケン",
    "prefecture_code": "44",
    "city": "由布市",
    "city_kana": "ユフシ",
    "town": "挾間町来鉢",
    "town_kana": "ハサママチクバチ",
    "street": null,
    "office_name": null,
    "office_name_kana": null
  },
  "5513": {
    "zip_code": "8795513",
    "prefecture": "大分県",
    "prefecture_kana": "オオイタケン",
    "prefecture_code": "44",
    "city": "由布市",
    "city_kana": "ユフシ",
    "town": "挾間町高崎",
    "town_kana": "ハサママチタカザキ",
    "street": null,
    "office_name": null,
    "office_name_kana": null
  },
  "5514": {
    "zip_code": "8795514",
    "prefecture": "大分県",
    "prefecture_kana": "オオイタケン",
    "prefecture_code": "44",
    "city": "由布市",
    "city_kana": "ユフシ",
    "town": "挾間町七蔵司",
    "town_kana": "ハサママチナナゾウシ",
    "street": null,
    "office_name": null,
    "office_name_kana": null
  },
  "5515": {
    "zip_code": "8795515",
    "prefecture": "大分県",
    "prefecture_kana": "オオイタケン",
    "prefecture_code": "44",
    "city": "由布市",
    "city_kana": "ユフシ",
    "town": "挾間町三船",
    "town_kana": "ハサママチミフネ",
    "street": null,
    "office_name": null,
    "office_name_kana": null
  },
  "5516": {
    "zip_code": "8795516",
    "prefecture": "大分県",
    "prefecture_kana": "オオイタケン",
    "prefecture_code": "44",
    "city": "由布市",
    "city_kana": "ユフシ",
    "town": "挾間町赤野",
    "town_kana": "ハサママチアカノ",
    "street": null,
    "office_name": null,
    "office_name_kana": null
  },
  "5517": {
    "zip_code": "8795517",
    "prefecture": "大分県",
    "prefecture_kana": "オオイタケン",
    "prefecture_code": "44",
    "city": "由布市",
    "city_kana": "ユフシ",
    "town": "挾間町内成",
    "town_kana": "ハサママチウチナリ",
    "street": null,
    "office_name": null,
    "office_name_kana": null
  },
  "5518": {
    "zip_code": "8795518",
    "prefecture": "大分県",
    "prefecture_kana": "オオイタケン",
    "prefecture_code": "44",
    "city": "由布市",
    "city_kana": "ユフシ",
    "town": "挾間町北方",
    "town_kana": "ハサママチキタガタ",
    "street": null,
    "office_name": null,
    "office_name_kana": null
  },
  "5519": {
    "zip_code": "8795519",
    "prefecture": "大分県",
    "prefecture_kana": "オオイタケン",
    "prefecture_code": "44",
    "city": "由布市",
    "city_kana": "ユフシ",
    "town": "挾間町田代",
    "town_kana": "ハサママチタシロ",
    "street": null,
    "office_name": null,
    "office_name_kana": null
  },
  "5521": {
    "zip_code": "8795521",
    "prefecture": "大分県",
    "prefecture_kana": "オオイタケン",
    "prefecture_code": "44",
    "city": "由布市",
    "city_kana": "ユフシ",
    "town": "挾間町鬼瀬",
    "town_kana": "ハサママチオニガセ",
    "street": null,
    "office_name": null,
    "office_name_kana": null
  },
  "5522": {
    "zip_code": "8795522",
    "prefecture": "大分県",
    "prefecture_kana": "オオイタケン",
    "prefecture_code": "44",
    "city": "由布市",
    "city_kana": "ユフシ",
    "town": "挾間町小野",
    "town_kana": "ハサママチオノ",
    "street": null,
    "office_name": null,
    "office_name_kana": null
  },
  "5523": {
    "zip_code": "8795523",
    "prefecture": "大分県",
    "prefecture_kana": "オオイタケン",
    "prefecture_code": "44",
    "city": "由布市",
    "city_kana": "ユフシ",
    "town": "挾間町篠原",
    "town_kana": "ハサママチシノハラ",
    "street": null,
    "office_name": null,
    "office_name_kana": null
  },
  "5524": {
    "zip_code": "8795524",
    "prefecture": "大分県",
    "prefecture_kana": "オオイタケン",
    "prefecture_code": "44",
    "city": "由布市",
    "city_kana": "ユフシ",
    "town": "挾間町時松",
    "town_kana": "ハサママチトキマツ",
    "street": null,
    "office_name": null,
    "office_name_kana": null
  },
  "5525": {
    "zip_code": "8795525",
    "prefecture": "大分県",
    "prefecture_kana": "オオイタケン",
    "prefecture_code": "44",
    "city": "由布市",
    "city_kana": "ユフシ",
    "town": "挾間町朴木",
    "town_kana": "ハサママチホオノキ",
    "street": null,
    "office_name": null,
    "office_name_kana": null
  },
  "5531": {
    "zip_code": "8795531",
    "prefecture": "大分県",
    "prefecture_kana": "オオイタケン",
    "prefecture_code": "44",
    "city": "由布市",
    "city_kana": "ユフシ",
    "town": "挾間町谷",
    "town_kana": "ハサママチタニ",
    "street": null,
    "office_name": null,
    "office_name_kana": null
  },
  "5532": {
    "zip_code": "8795532",
    "prefecture": "大分県",
    "prefecture_kana": "オオイタケン",
    "prefecture_code": "44",
    "city": "由布市",
    "city_kana": "ユフシ",
    "town": "挾間町筒口",
    "town_kana": "ハサママチツツグチ",
    "street": null,
    "office_name": null,
    "office_name_kana": null
  },
  "5551": {
    "zip_code": "8795551",
    "prefecture": "大分県",
    "prefecture_kana": "オオイタケン",
    "prefecture_code": "44",
    "city": "別府市",
    "city_kana": "ベップシ",
    "town": "内成",
    "town_kana": "ウチナリ",
    "street": null,
    "office_name": null,
    "office_name_kana": null
  },
  "5552": {
    "zip_code": "8795552",
    "prefecture": "大分県",
    "prefecture_kana": "オオイタケン",
    "prefecture_code": "44",
    "city": "別府市",
    "city_kana": "ベップシ",
    "town": "古賀原",
    "town_kana": "コガノハル",
    "street": null,
    "office_name": null,
    "office_name_kana": null
  },
  "5592": {
    "zip_code": "8795592",
    "prefecture": "大分県",
    "prefecture_kana": "オオイタケン",
    "prefecture_code": "44",
    "city": "由布市",
    "city_kana": "ユフシ",
    "town": "挾間町向原",
    "town_kana": "ハサママチムカイノハル",
    "street": "１２８−１",
    "office_name": "由布市役所　挾間庁舎",
    "office_name_kana": "ユフシヤクシヨ ハサマチヨウシヤ"
  },
  "5593": {
    "zip_code": "8795593",
    "prefecture": "大分県",
    "prefecture_kana": "オオイタケン",
    "prefecture_code": "44",
    "city": "由布市",
    "city_kana": "ユフシ",
    "town": "挾間町医大ケ丘",
    "town_kana": "ハサママチイダイガオカ",
    "street": "１丁目１番地",
    "office_name": "大分大学　医学部",
    "office_name_kana": "オオイタダイガク イガクブ"
  },
  "5595": {
    "zip_code": "8795595",
    "prefecture": "大分県",
    "prefecture_kana": "オオイタケン",
    "prefecture_code": "44",
    "city": "由布市",
    "city_kana": "ユフシ",
    "town": "挾間町医大ケ丘",
    "town_kana": "ハサママチイダイガオカ",
    "street": "１丁目１番地",
    "office_name": "大分大学　医学部附属図書館",
    "office_name_kana": "オオイタダイガク イガクブフゾクトシヨカン"
  },
  "6101": {
    "zip_code": "8796101",
    "prefecture": "大分県",
    "prefecture_kana": "オオイタケン",
    "prefecture_code": "44",
    "city": "竹田市",
    "city_kana": "タケタシ",
    "town": "荻町木下",
    "town_kana": "オギマチキノシタ",
    "street": null,
    "office_name": null,
    "office_name_kana": null
  },
  "6102": {
    "zip_code": "8796102",
    "prefecture": "大分県",
    "prefecture_kana": "オオイタケン",
    "prefecture_code": "44",
    "city": "竹田市",
    "city_kana": "タケタシ",
    "town": "荻町政所",
    "town_kana": "オギマチマドコロ",
    "street": null,
    "office_name": null,
    "office_name_kana": null
  },
  "6103": {
    "zip_code": "8796103",
    "prefecture": "大分県",
    "prefecture_kana": "オオイタケン",
    "prefecture_code": "44",
    "city": "竹田市",
    "city_kana": "タケタシ",
    "town": "荻町新藤",
    "town_kana": "オギマチシンドウ",
    "street": null,
    "office_name": null,
    "office_name_kana": null
  },
  "6104": {
    "zip_code": "8796104",
    "prefecture": "大分県",
    "prefecture_kana": "オオイタケン",
    "prefecture_code": "44",
    "city": "竹田市",
    "city_kana": "タケタシ",
    "town": "荻町藤渡",
    "town_kana": "オギマチフジワタリ",
    "street": null,
    "office_name": null,
    "office_name_kana": null
  },
  "6111": {
    "zip_code": "8796111",
    "prefecture": "大分県",
    "prefecture_kana": "オオイタケン",
    "prefecture_code": "44",
    "city": "竹田市",
    "city_kana": "タケタシ",
    "town": "荻町南河内",
    "town_kana": "オギマチミナミガワチ",
    "street": null,
    "office_name": null,
    "office_name_kana": null
  },
  "6112": {
    "zip_code": "8796112",
    "prefecture": "大分県",
    "prefecture_kana": "オオイタケン",
    "prefecture_code": "44",
    "city": "竹田市",
    "city_kana": "タケタシ",
    "town": "荻町馬背野",
    "town_kana": "オギマチマセノ",
    "street": null,
    "office_name": null,
    "office_name_kana": null
  },
  "6113": {
    "zip_code": "8796113",
    "prefecture": "大分県",
    "prefecture_kana": "オオイタケン",
    "prefecture_code": "44",
    "city": "竹田市",
    "city_kana": "タケタシ",
    "town": "荻町恵良原",
    "town_kana": "オギマチエラハル",
    "street": null,
    "office_name": null,
    "office_name_kana": null
  },
  "6115": {
    "zip_code": "8796115",
    "prefecture": "大分県",
    "prefecture_kana": "オオイタケン",
    "prefecture_code": "44",
    "city": "竹田市",
    "city_kana": "タケタシ",
    "town": "荻町馬場",
    "town_kana": "オギマチババ",
    "street": null,
    "office_name": null,
    "office_name_kana": null
  },
  "6116": {
    "zip_code": "8796116",
    "prefecture": "大分県",
    "prefecture_kana": "オオイタケン",
    "prefecture_code": "44",
    "city": "竹田市",
    "city_kana": "タケタシ",
    "town": "荻町高城",
    "town_kana": "オギマチタカジョウ",
    "street": null,
    "office_name": null,
    "office_name_kana": null
  },
  "6121": {
    "zip_code": "8796121",
    "prefecture": "大分県",
    "prefecture_kana": "オオイタケン",
    "prefecture_code": "44",
    "city": "竹田市",
    "city_kana": "タケタシ",
    "town": "荻町桑木",
    "town_kana": "オギマチクワギ",
    "street": null,
    "office_name": null,
    "office_name_kana": null
  },
  "6122": {
    "zip_code": "8796122",
    "prefecture": "大分県",
    "prefecture_kana": "オオイタケン",
    "prefecture_code": "44",
    "city": "竹田市",
    "city_kana": "タケタシ",
    "town": "荻町柏原",
    "town_kana": "オギマチカシワバル",
    "street": null,
    "office_name": null,
    "office_name_kana": null
  },
  "6123": {
    "zip_code": "8796123",
    "prefecture": "大分県",
    "prefecture_kana": "オオイタケン",
    "prefecture_code": "44",
    "city": "竹田市",
    "city_kana": "タケタシ",
    "town": "荻町宮平",
    "town_kana": "オギマチミヤビラ",
    "street": null,
    "office_name": null,
    "office_name_kana": null
  },
  "6124": {
    "zip_code": "8796124",
    "prefecture": "大分県",
    "prefecture_kana": "オオイタケン",
    "prefecture_code": "44",
    "city": "竹田市",
    "city_kana": "タケタシ",
    "town": "荻町陽目",
    "town_kana": "オギマチヒナタメ",
    "street": null,
    "office_name": null,
    "office_name_kana": null
  },
  "6125": {
    "zip_code": "8796125",
    "prefecture": "大分県",
    "prefecture_kana": "オオイタケン",
    "prefecture_code": "44",
    "city": "竹田市",
    "city_kana": "タケタシ",
    "town": "荻町仏面",
    "town_kana": "オギマチブツメン",
    "street": null,
    "office_name": null,
    "office_name_kana": null
  },
  "6126": {
    "zip_code": "8796126",
    "prefecture": "大分県",
    "prefecture_kana": "オオイタケン",
    "prefecture_code": "44",
    "city": "竹田市",
    "city_kana": "タケタシ",
    "town": "荻町大平",
    "town_kana": "オギマチオオダイラ",
    "street": null,
    "office_name": null,
    "office_name_kana": null
  },
  "6127": {
    "zip_code": "8796127",
    "prefecture": "大分県",
    "prefecture_kana": "オオイタケン",
    "prefecture_code": "44",
    "city": "竹田市",
    "city_kana": "タケタシ",
    "town": "荻町叶野",
    "town_kana": "オギマチカナイノ",
    "street": null,
    "office_name": null,
    "office_name_kana": null
  },
  "6128": {
    "zip_code": "8796128",
    "prefecture": "大分県",
    "prefecture_kana": "オオイタケン",
    "prefecture_code": "44",
    "city": "竹田市",
    "city_kana": "タケタシ",
    "town": "荻町高練木",
    "town_kana": "オギマチタカネリキ",
    "street": null,
    "office_name": null,
    "office_name_kana": null
  },
  "6131": {
    "zip_code": "8796131",
    "prefecture": "大分県",
    "prefecture_kana": "オオイタケン",
    "prefecture_code": "44",
    "city": "竹田市",
    "city_kana": "タケタシ",
    "town": "荻町鴫田",
    "town_kana": "オギマチシギタ",
    "street": null,
    "office_name": null,
    "office_name_kana": null
  },
  "6132": {
    "zip_code": "8796132",
    "prefecture": "大分県",
    "prefecture_kana": "オオイタケン",
    "prefecture_code": "44",
    "city": "竹田市",
    "city_kana": "タケタシ",
    "town": "荻町西福寺",
    "town_kana": "オギマチサイフクジ",
    "street": null,
    "office_name": null,
    "office_name_kana": null
  },
  "6133": {
    "zip_code": "8796133",
    "prefecture": "大分県",
    "prefecture_kana": "オオイタケン",
    "prefecture_code": "44",
    "city": "竹田市",
    "city_kana": "タケタシ",
    "town": "荻町田代",
    "town_kana": "オギマチタシロ",
    "street": null,
    "office_name": null,
    "office_name_kana": null
  },
  "6134": {
    "zip_code": "8796134",
    "prefecture": "大分県",
    "prefecture_kana": "オオイタケン",
    "prefecture_code": "44",
    "city": "竹田市",
    "city_kana": "タケタシ",
    "town": "荻町瓜作",
    "town_kana": "オギマチウリツクリ",
    "street": null,
    "office_name": null,
    "office_name_kana": null
  },
  "6135": {
    "zip_code": "8796135",
    "prefecture": "大分県",
    "prefecture_kana": "オオイタケン",
    "prefecture_code": "44",
    "city": "竹田市",
    "city_kana": "タケタシ",
    "town": "荻町北原",
    "town_kana": "オギマチキタバル",
    "street": null,
    "office_name": null,
    "office_name_kana": null
  },
  "6181": {
    "zip_code": "8796181",
    "prefecture": "大分県",
    "prefecture_kana": "オオイタケン",
    "prefecture_code": "44",
    "city": "竹田市",
    "city_kana": "タケタシ",
    "town": "小塚",
    "town_kana": "オヅカ",
    "street": null,
    "office_name": null,
    "office_name_kana": null
  },
  "6182": {
    "zip_code": "8796182",
    "prefecture": "大分県",
    "prefecture_kana": "オオイタケン",
    "prefecture_code": "44",
    "city": "竹田市",
    "city_kana": "タケタシ",
    "town": "今",
    "town_kana": "イマ",
    "street": null,
    "office_name": null,
    "office_name_kana": null
  },
  "6183": {
    "zip_code": "8796183",
    "prefecture": "大分県",
    "prefecture_kana": "オオイタケン",
    "prefecture_code": "44",
    "city": "竹田市",
    "city_kana": "タケタシ",
    "town": "戸上",
    "town_kana": "トウエ",
    "street": null,
    "office_name": null,
    "office_name_kana": null
  },
  "6184": {
    "zip_code": "8796184",
    "prefecture": "大分県",
    "prefecture_kana": "オオイタケン",
    "prefecture_code": "44",
    "city": "竹田市",
    "city_kana": "タケタシ",
    "town": "菅生",
    "town_kana": "スゴウ",
    "street": null,
    "office_name": null,
    "office_name_kana": null
  },
  "6192": {
    "zip_code": "8796192",
    "prefecture": "大分県",
    "prefecture_kana": "オオイタケン",
    "prefecture_code": "44",
    "city": "竹田市",
    "city_kana": "タケタシ",
    "town": "荻町恵良原",
    "town_kana": "オギマチエラハル",
    "street": "１７７２番地７",
    "office_name": "竹田市　荻支所",
    "office_name_kana": "タケタシ オギシシヨ"
  },
  "6201": {
    "zip_code": "8796201",
    "prefecture": "大分県",
    "prefecture_kana": "オオイタケン",
    "prefecture_code": "44",
    "city": "豊後大野市",
    "city_kana": "ブンゴオオノシ",
    "town": "朝地町市万田",
    "town_kana": "アサジマチイチマンダ",
    "street": null,
    "office_name": null,
    "office_name_kana": null
  },
  "6202": {
    "zip_code": "8796202",
    "prefecture": "大分県",
    "prefecture_kana": "オオイタケン",
    "prefecture_code": "44",
    "city": "豊後大野市",
    "city_kana": "ブンゴオオノシ",
    "town": "朝地町下野",
    "town_kana": "アサジマチシモノ",
    "street": null,
    "office_name": null,
    "office_name_kana": null
  },
  "6211": {
    "zip_code": "8796211",
    "prefecture": "大分県",
    "prefecture_kana": "オオイタケン",
    "prefecture_code": "44",
    "city": "豊後大野市",
    "city_kana": "ブンゴオオノシ",
    "town": "朝地町宮生",
    "town_kana": "アサジマチミヤオ",
    "street": null,
    "office_name": null,
    "office_name_kana": null
  },
  "6212": {
    "zip_code": "8796212",
    "prefecture": "大分県",
    "prefecture_kana": "オオイタケン",
    "prefecture_code": "44",
    "city": "豊後大野市",
    "city_kana": "ブンゴオオノシ",
    "town": "朝地町志賀",
    "town_kana": "アサジマチシガ",
    "street": null,
    "office_name": null,
    "office_name_kana": null
  },
  "6213": {
    "zip_code": "8796213",
    "prefecture": "大分県",
    "prefecture_kana": "オオイタケン",
    "prefecture_code": "44",
    "city": "豊後大野市",
    "city_kana": "ブンゴオオノシ",
    "town": "朝地町上尾塚",
    "town_kana": "アサジマチカミオツカ",
    "street": null,
    "office_name": null,
    "office_name_kana": null
  },
  "6221": {
    "zip_code": "8796221",
    "prefecture": "大分県",
    "prefecture_kana": "オオイタケン",
    "prefecture_code": "44",
    "city": "豊後大野市",
    "city_kana": "ブンゴオオノシ",
    "town": "朝地町坪泉",
    "town_kana": "アサジマチツボイズミ",
    "street": null,
    "office_name": null,
    "office_name_kana": null
  },
  "6222": {
    "zip_code": "8796222",
    "prefecture": "大分県",
    "prefecture_kana": "オオイタケン",
    "prefecture_code": "44",
    "city": "豊後大野市",
    "city_kana": "ブンゴオオノシ",
    "town": "朝地町朝地",
    "town_kana": "アサジマチアサジ",
    "street": null,
    "office_name": null,
    "office_name_kana": null
  },
  "6223": {
    "zip_code": "8796223",
    "prefecture": "大分県",
    "prefecture_kana": "オオイタケン",
    "prefecture_code": "44",
    "city": "豊後大野市",
    "city_kana": "ブンゴオオノシ",
    "town": "朝地町板井迫",
    "town_kana": "アサジマチイタイザコ",
    "street": null,
    "office_name": null,
    "office_name_kana": null
  },
  "6224": {
    "zip_code": "8796224",
    "prefecture": "大分県",
    "prefecture_kana": "オオイタケン",
    "prefecture_code": "44",
    "city": "豊後大野市",
    "city_kana": "ブンゴオオノシ",
    "town": "朝地町池田",
    "town_kana": "アサジマチイケダ",
    "street": null,
    "office_name": null,
    "office_name_kana": null
  },
  "6331": {
    "zip_code": "8796331",
    "prefecture": "大分県",
    "prefecture_kana": "オオイタケン",
    "prefecture_code": "44",
    "city": "豊後大野市",
    "city_kana": "ブンゴオオノシ",
    "town": "朝地町鳥田",
    "town_kana": "アサジマチトリタ",
    "street": null,
    "office_name": null,
    "office_name_kana": null
  },
  "6332": {
    "zip_code": "8796332",
    "prefecture": "大分県",
    "prefecture_kana": "オオイタケン",
    "prefecture_code": "44",
    "city": "豊後大野市",
    "city_kana": "ブンゴオオノシ",
    "town": "朝地町綿田",
    "town_kana": "アサジマチワタダ",
    "street": null,
    "office_name": null,
    "office_name_kana": null
  },
  "6333": {
    "zip_code": "8796333",
    "prefecture": "大分県",
    "prefecture_kana": "オオイタケン",
    "prefecture_code": "44",
    "city": "豊後大野市",
    "city_kana": "ブンゴオオノシ",
    "town": "朝地町栗林",
    "town_kana": "アサジマチクリバヤシ",
    "street": null,
    "office_name": null,
    "office_name_kana": null
  },
  "6334": {
    "zip_code": "8796334",
    "prefecture": "大分県",
    "prefecture_kana": "オオイタケン",
    "prefecture_code": "44",
    "city": "豊後大野市",
    "city_kana": "ブンゴオオノシ",
    "town": "朝地町梨小",
    "town_kana": "アサジマチナシコ",
    "street": null,
    "office_name": null,
    "office_name_kana": null
  },
  "6401": {
    "zip_code": "8796401",
    "prefecture": "大分県",
    "prefecture_kana": "オオイタケン",
    "prefecture_code": "44",
    "city": "豊後大野市",
    "city_kana": "ブンゴオオノシ",
    "town": "大野町安藤",
    "town_kana": "オオノマチアンドウ",
    "street": null,
    "office_name": null,
    "office_name_kana": null
  },
  "6402": {
    "zip_code": "8796402",
    "prefecture": "大分県",
    "prefecture_kana": "オオイタケン",
    "prefecture_code": "44",
    "city": "豊後大野市",
    "city_kana": "ブンゴオオノシ",
    "town": "大野町中土師",
    "town_kana": "オオノマチナカハジ",
    "street": null,
    "office_name": null,
    "office_name_kana": null
  },
  "6403": {
    "zip_code": "8796403",
    "prefecture": "大分県",
    "prefecture_kana": "オオイタケン",
    "prefecture_code": "44",
    "city": "豊後大野市",
    "city_kana": "ブンゴオオノシ",
    "town": "大野町長畑",
    "town_kana": "オオノマチナガハタ",
    "street": null,
    "office_name": null,
    "office_name_kana": null
  },
  "6404": {
    "zip_code": "8796404",
    "prefecture": "大分県",
    "prefecture_kana": "オオイタケン",
    "prefecture_code": "44",
    "city": "豊後大野市",
    "city_kana": "ブンゴオオノシ",
    "town": "大野町後田",
    "town_kana": "オオノマチウシロダ",
    "street": null,
    "office_name": null,
    "office_name_kana": null
  },
  "6405": {
    "zip_code": "8796405",
    "prefecture": "大分県",
    "prefecture_kana": "オオイタケン",
    "prefecture_code": "44",
    "city": "豊後大野市",
    "city_kana": "ブンゴオオノシ",
    "town": "大野町代三五",
    "town_kana": "オオノマチダイサンゴ",
    "street": null,
    "office_name": null,
    "office_name_kana": null
  },
  "6406": {
    "zip_code": "8796406",
    "prefecture": "大分県",
    "prefecture_kana": "オオイタケン",
    "prefecture_code": "44",
    "city": "豊後大野市",
    "city_kana": "ブンゴオオノシ",
    "town": "大野町杉園",
    "town_kana": "オオノマチスギゾノ",
    "street": null,
    "office_name": null,
    "office_name_kana": null
  },
  "6407": {
    "zip_code": "8796407",
    "prefecture": "大分県",
    "prefecture_kana": "オオイタケン",
    "prefecture_code": "44",
    "city": "豊後大野市",
    "city_kana": "ブンゴオオノシ",
    "town": "大野町十時",
    "town_kana": "オオノマチトトキ",
    "street": null,
    "office_name": null,
    "office_name_kana": null
  },
  "6408": {
    "zip_code": "8796408",
    "prefecture": "大分県",
    "prefecture_kana": "オオイタケン",
    "prefecture_code": "44",
    "city": "豊後大野市",
    "city_kana": "ブンゴオオノシ",
    "town": "大野町沢田",
    "town_kana": "オオノマチサワタ",
    "street": null,
    "office_name": null,
    "office_name_kana": null
  },
  "6421": {
    "zip_code": "8796421",
    "prefecture": "大分県",
    "prefecture_kana": "オオイタケン",
    "prefecture_code": "44",
    "city": "豊後大野市",
    "city_kana": "ブンゴオオノシ",
    "town": "大野町中原",
    "town_kana": "オオノマチナカバル",
    "street": null,
    "office_name": null,
    "office_name_kana": null
  },
  "6422": {
    "zip_code": "8796422",
    "prefecture": "大分県",
    "prefecture_kana": "オオイタケン",
    "prefecture_code": "44",
    "city": "豊後大野市",
    "city_kana": "ブンゴオオノシ",
    "town": "大野町小倉木",
    "town_kana": "オオノマチコグラキ",
    "street": null,
    "office_name": null,
    "office_name_kana": null
  },
  "6423": {
    "zip_code": "8796423",
    "prefecture": "大分県",
    "prefecture_kana": "オオイタケン",
    "prefecture_code": "44",
    "city": "豊後大野市",
    "city_kana": "ブンゴオオノシ",
    "town": "大野町矢田",
    "town_kana": "オオノマチヤダ",
    "street": null,
    "office_name": null,
    "office_name_kana": null
  },
  "6424": {
    "zip_code": "8796424",
    "prefecture": "大分県",
    "prefecture_kana": "オオイタケン",
    "prefecture_code": "44",
    "city": "豊後大野市",
    "city_kana": "ブンゴオオノシ",
    "town": "大野町夏足",
    "town_kana": "オオノマチナタセ",
    "street": null,
    "office_name": null,
    "office_name_kana": null
  },
  "6425": {
    "zip_code": "8796425",
    "prefecture": "大分県",
    "prefecture_kana": "オオイタケン",
    "prefecture_code": "44",
    "city": "豊後大野市",
    "city_kana": "ブンゴオオノシ",
    "town": "大野町両家",
    "town_kana": "オオノマチリョウケ",
    "street": null,
    "office_name": null,
    "office_name_kana": null
  },
  "6426": {
    "zip_code": "8796426",
    "prefecture": "大分県",
    "prefecture_kana": "オオイタケン",
    "prefecture_code": "44",
    "city": "豊後大野市",
    "city_kana": "ブンゴオオノシ",
    "town": "大野町郡山",
    "town_kana": "オオノマチコオリヤマ",
    "street": null,
    "office_name": null,
    "office_name_kana": null
  },
  "6431": {
    "zip_code": "8796431",
    "prefecture": "大分県",
    "prefecture_kana": "オオイタケン",
    "prefecture_code": "44",
    "city": "豊後大野市",
    "city_kana": "ブンゴオオノシ",
    "town": "大野町酒井寺",
    "town_kana": "オオノマチサカイジ",
    "street": null,
    "office_name": null,
    "office_name_kana": null
  },
  "6432": {
    "zip_code": "8796432",
    "prefecture": "大分県",
    "prefecture_kana": "オオイタケン",
    "prefecture_code": "44",
    "city": "豊後大野市",
    "city_kana": "ブンゴオオノシ",
    "town": "大野町屋原",
    "town_kana": "オオノマチヤバル",
    "street": null,
    "office_name": null,
    "office_name_kana": null
  },
  "6433": {
    "zip_code": "8796433",
    "prefecture": "大分県",
    "prefecture_kana": "オオイタケン",
    "prefecture_code": "44",
    "city": "豊後大野市",
    "city_kana": "ブンゴオオノシ",
    "town": "大野町大原",
    "town_kana": "オオノマチオオハル",
    "street": null,
    "office_name": null,
    "office_name_kana": null
  },
  "6434": {
    "zip_code": "8796434",
    "prefecture": "大分県",
    "prefecture_kana": "オオイタケン",
    "prefecture_code": "44",
    "city": "豊後大野市",
    "city_kana": "ブンゴオオノシ",
    "town": "大野町桑原",
    "town_kana": "オオノマチクワバル",
    "street": null,
    "office_name": null,
    "office_name_kana": null
  },
  "6435": {
    "zip_code": "8796435",
    "prefecture": "大分県",
    "prefecture_kana": "オオイタケン",
    "prefecture_code": "44",
    "city": "豊後大野市",
    "city_kana": "ブンゴオオノシ",
    "town": "大野町北園",
    "town_kana": "オオノマチキタゾノ",
    "street": null,
    "office_name": null,
    "office_name_kana": null
  },
  "6441": {
    "zip_code": "8796441",
    "prefecture": "大分県",
    "prefecture_kana": "オオイタケン",
    "prefecture_code": "44",
    "city": "豊後大野市",
    "city_kana": "ブンゴオオノシ",
    "town": "大野町田中",
    "town_kana": "オオノマチタナカ",
    "street": null,
    "office_name": null,
    "office_name_kana": null
  },
  "6442": {
    "zip_code": "8796442",
    "prefecture": "大分県",
    "prefecture_kana": "オオイタケン",
    "prefecture_code": "44",
    "city": "豊後大野市",
    "city_kana": "ブンゴオオノシ",
    "town": "大野町藤北",
    "town_kana": "オオノマチフジキタ",
    "street": null,
    "office_name": null,
    "office_name_kana": null
  },
  "6443": {
    "zip_code": "8796443",
    "prefecture": "大分県",
    "prefecture_kana": "オオイタケン",
    "prefecture_code": "44",
    "city": "豊後大野市",
    "city_kana": "ブンゴオオノシ",
    "town": "大野町宮迫",
    "town_kana": "オオノマチミヤザコ",
    "street": null,
    "office_name": null,
    "office_name_kana": null
  },
  "6444": {
    "zip_code": "8796444",
    "prefecture": "大分県",
    "prefecture_kana": "オオイタケン",
    "prefecture_code": "44",
    "city": "豊後大野市",
    "city_kana": "ブンゴオオノシ",
    "town": "大野町田代",
    "town_kana": "オオノマチタシロ",
    "street": null,
    "office_name": null,
    "office_name_kana": null
  },
  "6445": {
    "zip_code": "8796445",
    "prefecture": "大分県",
    "prefecture_kana": "オオイタケン",
    "prefecture_code": "44",
    "city": "豊後大野市",
    "city_kana": "ブンゴオオノシ",
    "town": "大野町片島",
    "town_kana": "オオノマチカタシマ",
    "street": null,
    "office_name": null,
    "office_name_kana": null
  },
  "6601": {
    "zip_code": "8796601",
    "prefecture": "大分県",
    "prefecture_kana": "オオイタケン",
    "prefecture_code": "44",
    "city": "豊後大野市",
    "city_kana": "ブンゴオオノシ",
    "town": "緒方町馬場",
    "town_kana": "オガタマチババ",
    "street": null,
    "office_name": null,
    "office_name_kana": null
  },
  "6602": {
    "zip_code": "8796602",
    "prefecture": "大分県",
    "prefecture_kana": "オオイタケン",
    "prefecture_code": "44",
    "city": "豊後大野市",
    "city_kana": "ブンゴオオノシ",
    "town": "緒方町志賀",
    "town_kana": "オガタマチシガ",
    "street": null,
    "office_name": null,
    "office_name_kana": null
  },
  "6611": {
    "zip_code": "8796611",
    "prefecture": "大分県",
    "prefecture_kana": "オオイタケン",
    "prefecture_code": "44",
    "city": "豊後大野市",
    "city_kana": "ブンゴオオノシ",
    "town": "緒方町夏足",
    "town_kana": "オガタマチナタセ",
    "street": null,
    "office_name": null,
    "office_name_kana": null
  },
  "6612": {
    "zip_code": "8796612",
    "prefecture": "大分県",
    "prefecture_kana": "オオイタケン",
    "prefecture_code": "44",
    "city": "豊後大野市",
    "city_kana": "ブンゴオオノシ",
    "town": "緒方町越生",
    "town_kana": "オガタマチコシオ",
    "street": null,
    "office_name": null,
    "office_name_kana": null
  },
  "6613": {
    "zip_code": "8796613",
    "prefecture": "大分県",
    "prefecture_kana": "オオイタケン",
    "prefecture_code": "44",
    "city": "豊後大野市",
    "city_kana": "ブンゴオオノシ",
    "town": "緒方町井上",
    "town_kana": "オガタマチイノウエ",
    "street": null,
    "office_name": null,
    "office_name_kana": null
  },
  "6614": {
    "zip_code": "8796614",
    "prefecture": "大分県",
    "prefecture_kana": "オオイタケン",
    "prefecture_code": "44",
    "city": "豊後大野市",
    "city_kana": "ブンゴオオノシ",
    "town": "緒方町知田",
    "town_kana": "オガタマチチタ",
    "street": null,
    "office_name": null,
    "office_name_kana": null
  },
  "6615": {
    "zip_code": "8796615",
    "prefecture": "大分県",
    "prefecture_kana": "オオイタケン",
    "prefecture_code": "44",
    "city": "豊後大野市",
    "city_kana": "ブンゴオオノシ",
    "town": "緒方町鮒川",
    "town_kana": "オガタマチフナガワ",
    "street": null,
    "office_name": null,
    "office_name_kana": null
  },
  "6616": {
    "zip_code": "8796616",
    "prefecture": "大分県",
    "prefecture_kana": "オオイタケン",
    "prefecture_code": "44",
    "city": "豊後大野市",
    "city_kana": "ブンゴオオノシ",
    "town": "緒方町久土知",
    "town_kana": "オガタマチクドチ",
    "street": null,
    "office_name": null,
    "office_name_kana": null
  },
  "6621": {
    "zip_code": "8796621",
    "prefecture": "大分県",
    "prefecture_kana": "オオイタケン",
    "prefecture_code": "44",
    "city": "豊後大野市",
    "city_kana": "ブンゴオオノシ",
    "town": "緒方町野尻",
    "town_kana": "オガタマチノジリ",
    "street": null,
    "office_name": null,
    "office_name_kana": null
  },
  "6622": {
    "zip_code": "8796622",
    "prefecture": "大分県",
    "prefecture_kana": "オオイタケン",
    "prefecture_code": "44",
    "city": "豊後大野市",
    "city_kana": "ブンゴオオノシ",
    "town": "緒方町天神",
    "town_kana": "オガタマチテンジン",
    "street": null,
    "office_name": null,
    "office_name_kana": null
  },
  "6623": {
    "zip_code": "8796623",
    "prefecture": "大分県",
    "prefecture_kana": "オオイタケン",
    "prefecture_code": "44",
    "city": "豊後大野市",
    "city_kana": "ブンゴオオノシ",
    "town": "緒方町馬背畑",
    "town_kana": "オガタマチマセバタ",
    "street": null,
    "office_name": null,
    "office_name_kana": null
  },
  "6624": {
    "zip_code": "8796624",
    "prefecture": "大分県",
    "prefecture_kana": "オオイタケン",
    "prefecture_code": "44",
    "city": "豊後大野市",
    "city_kana": "ブンゴオオノシ",
    "town": "緒方町平石",
    "town_kana": "オガタマチヒライシ",
    "street": null,
    "office_name": null,
    "office_name_kana": null
  },
  "6625": {
    "zip_code": "8796625",
    "prefecture": "大分県",
    "prefecture_kana": "オオイタケン",
    "prefecture_code": "44",
    "city": "豊後大野市",
    "city_kana": "ブンゴオオノシ",
    "town": "緒方町上犬塚",
    "town_kana": "オガタマチカミイヌヅカ",
    "street": null,
    "office_name": null,
    "office_name_kana": null
  },
  "6626": {
    "zip_code": "8796626",
    "prefecture": "大分県",
    "prefecture_kana": "オオイタケン",
    "prefecture_code": "44",
    "city": "豊後大野市",
    "city_kana": "ブンゴオオノシ",
    "town": "緒方町大化",
    "town_kana": "オガタマチタイカ",
    "street": null,
    "office_name": null,
    "office_name_kana": null
  },
  "6631": {
    "zip_code": "8796631",
    "prefecture": "大分県",
    "prefecture_kana": "オオイタケン",
    "prefecture_code": "44",
    "city": "豊後大野市",
    "city_kana": "ブンゴオオノシ",
    "town": "緒方町原尻",
    "town_kana": "オガタマチハラジリ",
    "street": null,
    "office_name": null,
    "office_name_kana": null
  },
  "6632": {
    "zip_code": "8796632",
    "prefecture": "大分県",
    "prefecture_kana": "オオイタケン",
    "prefecture_code": "44",
    "city": "豊後大野市",
    "city_kana": "ブンゴオオノシ",
    "town": "緒方町辻",
    "town_kana": "オガタマチツジ",
    "street": null,
    "office_name": null,
    "office_name_kana": null
  },
  "6633": {
    "zip_code": "8796633",
    "prefecture": "大分県",
    "prefecture_kana": "オオイタケン",
    "prefecture_code": "44",
    "city": "豊後大野市",
    "city_kana": "ブンゴオオノシ",
    "town": "緒方町小宛",
    "town_kana": "オガタマチオアテ",
    "street": null,
    "office_name": null,
    "office_name_kana": null
  },
  "6634": {
    "zip_code": "8796634",
    "prefecture": "大分県",
    "prefecture_kana": "オオイタケン",
    "prefecture_code": "44",
    "city": "豊後大野市",
    "city_kana": "ブンゴオオノシ",
    "town": "緒方町寺原",
    "town_kana": "オガタマチテラバル",
    "street": null,
    "office_name": null,
    "office_name_kana": null
  },
  "6635": {
    "zip_code": "8796635",
    "prefecture": "大分県",
    "prefecture_kana": "オオイタケン",
    "prefecture_code": "44",
    "city": "豊後大野市",
    "city_kana": "ブンゴオオノシ",
    "town": "緒方町軸丸",
    "town_kana": "オガタマチジクマル",
    "street": null,
    "office_name": null,
    "office_name_kana": null
  },
  "6641": {
    "zip_code": "8796641",
    "prefecture": "大分県",
    "prefecture_kana": "オオイタケン",
    "prefecture_code": "44",
    "city": "豊後大野市",
    "city_kana": "ブンゴオオノシ",
    "town": "緒方町草深野",
    "town_kana": "オガタマチクサブカノ",
    "street": null,
    "office_name": null,
    "office_name_kana": null
  },
  "6642": {
    "zip_code": "8796642",
    "prefecture": "大分県",
    "prefecture_kana": "オオイタケン",
    "prefecture_code": "44",
    "city": "豊後大野市",
    "city_kana": "ブンゴオオノシ",
    "town": "緒方町上自在",
    "town_kana": "オガタマチカミジザイ",
    "street": null,
    "office_name": null,
    "office_name_kana": null
  },
  "6643": {
    "zip_code": "8796643",
    "prefecture": "大分県",
    "prefecture_kana": "オオイタケン",
    "prefecture_code": "44",
    "city": "豊後大野市",
    "city_kana": "ブンゴオオノシ",
    "town": "緒方町下自在",
    "town_kana": "オガタマチシモジザイ",
    "street": null,
    "office_name": null,
    "office_name_kana": null
  },
  "6692": {
    "zip_code": "8796692",
    "prefecture": "大分県",
    "prefecture_kana": "オオイタケン",
    "prefecture_code": "44",
    "city": "豊後大野市",
    "city_kana": "ブンゴオオノシ",
    "town": "緒方町馬場",
    "town_kana": "オガタマチババ",
    "street": "２７６番地",
    "office_name": "豊後大野市民病院",
    "office_name_kana": "ブンゴオオノシミンビヨウイン"
  },
  "6695": {
    "zip_code": "8796695",
    "prefecture": "大分県",
    "prefecture_kana": "オオイタケン",
    "prefecture_code": "44",
    "city": "豊後大野市",
    "city_kana": "ブンゴオオノシ",
    "town": "緒方町馬場",
    "town_kana": "オガタマチババ",
    "street": "３６（緒方郵便局私書箱第２号）",
    "office_name": "豊後大野市役所　緒方支所",
    "office_name_kana": "ブンゴオオノシヤクシヨ オガタシシヨ"
  },
  "6751": {
    "zip_code": "8796751",
    "prefecture": "大分県",
    "prefecture_kana": "オオイタケン",
    "prefecture_code": "44",
    "city": "豊後大野市",
    "city_kana": "ブンゴオオノシ",
    "town": "緒方町上年野",
    "town_kana": "オガタマチカミトシノ",
    "street": null,
    "office_name": null,
    "office_name_kana": null
  },
  "6752": {
    "zip_code": "8796752",
    "prefecture": "大分県",
    "prefecture_kana": "オオイタケン",
    "prefecture_code": "44",
    "city": "豊後大野市",
    "city_kana": "ブンゴオオノシ",
    "town": "緒方町柚木",
    "town_kana": "オガタマチユギ",
    "street": null,
    "office_name": null,
    "office_name_kana": null
  },
  "6753": {
    "zip_code": "8796753",
    "prefecture": "大分県",
    "prefecture_kana": "オオイタケン",
    "prefecture_code": "44",
    "city": "豊後大野市",
    "city_kana": "ブンゴオオノシ",
    "town": "緒方町下徳田",
    "town_kana": "オガタマチシモトクダ",
    "street": null,
    "office_name": null,
    "office_name_kana": null
  },
  "6754": {
    "zip_code": "8796754",
    "prefecture": "大分県",
    "prefecture_kana": "オオイタケン",
    "prefecture_code": "44",
    "city": "豊後大野市",
    "city_kana": "ブンゴオオノシ",
    "town": "緒方町冬原",
    "town_kana": "オガタマチフユバル",
    "street": null,
    "office_name": null,
    "office_name_kana": null
  },
  "6755": {
    "zip_code": "8796755",
    "prefecture": "大分県",
    "prefecture_kana": "オオイタケン",
    "prefecture_code": "44",
    "city": "豊後大野市",
    "city_kana": "ブンゴオオノシ",
    "town": "緒方町上冬原",
    "town_kana": "オガタマチカミフユバル",
    "street": null,
    "office_name": null,
    "office_name_kana": null
  },
  "6756": {
    "zip_code": "8796756",
    "prefecture": "大分県",
    "prefecture_kana": "オオイタケン",
    "prefecture_code": "44",
    "city": "豊後大野市",
    "city_kana": "ブンゴオオノシ",
    "town": "緒方町徳田",
    "town_kana": "オガタマチトクダ",
    "street": null,
    "office_name": null,
    "office_name_kana": null
  },
  "6757": {
    "zip_code": "8796757",
    "prefecture": "大分県",
    "prefecture_kana": "オオイタケン",
    "prefecture_code": "44",
    "city": "豊後大野市",
    "city_kana": "ブンゴオオノシ",
    "town": "緒方町木野",
    "town_kana": "オガタマチキノ",
    "street": null,
    "office_name": null,
    "office_name_kana": null
  },
  "6758": {
    "zip_code": "8796758",
    "prefecture": "大分県",
    "prefecture_kana": "オオイタケン",
    "prefecture_code": "44",
    "city": "豊後大野市",
    "city_kana": "ブンゴオオノシ",
    "town": "緒方町中野",
    "town_kana": "オガタマチナカノ",
    "street": null,
    "office_name": null,
    "office_name_kana": null
  },
  "6759": {
    "zip_code": "8796759",
    "prefecture": "大分県",
    "prefecture_kana": "オオイタケン",
    "prefecture_code": "44",
    "city": "豊後大野市",
    "city_kana": "ブンゴオオノシ",
    "town": "緒方町大石",
    "town_kana": "オガタマチオオイシ",
    "street": null,
    "office_name": null,
    "office_name_kana": null
  },
  "6861": {
    "zip_code": "8796861",
    "prefecture": "大分県",
    "prefecture_kana": "オオイタケン",
    "prefecture_code": "44",
    "city": "豊後大野市",
    "city_kana": "ブンゴオオノシ",
    "town": "緒方町小原",
    "town_kana": "オガタマチオハル",
    "street": null,
    "office_name": null,
    "office_name_kana": null
  },
  "6862": {
    "zip_code": "8796862",
    "prefecture": "大分県",
    "prefecture_kana": "オオイタケン",
    "prefecture_code": "44",
    "city": "豊後大野市",
    "city_kana": "ブンゴオオノシ",
    "town": "緒方町栗生",
    "town_kana": "オガタマチクリウ",
    "street": null,
    "office_name": null,
    "office_name_kana": null
  },
  "6863": {
    "zip_code": "8796863",
    "prefecture": "大分県",
    "prefecture_kana": "オオイタケン",
    "prefecture_code": "44",
    "city": "豊後大野市",
    "city_kana": "ブンゴオオノシ",
    "town": "緒方町滞迫",
    "town_kana": "オガタマチタイザコ",
    "street": null,
    "office_name": null,
    "office_name_kana": null
  },
  "6864": {
    "zip_code": "8796864",
    "prefecture": "大分県",
    "prefecture_kana": "オオイタケン",
    "prefecture_code": "44",
    "city": "豊後大野市",
    "city_kana": "ブンゴオオノシ",
    "town": "緒方町上畑",
    "town_kana": "オガタマチウワハタ",
    "street": null,
    "office_name": null,
    "office_name_kana": null
  },
  "6865": {
    "zip_code": "8796865",
    "prefecture": "大分県",
    "prefecture_kana": "オオイタケン",
    "prefecture_code": "44",
    "city": "豊後大野市",
    "city_kana": "ブンゴオオノシ",
    "town": "緒方町尾平鉱山",
    "town_kana": "オガタマチオビラコウザン",
    "street": null,
    "office_name": null,
    "office_name_kana": null
  },
  "6901": {
    "zip_code": "8796901",
    "prefecture": "大分県",
    "prefecture_kana": "オオイタケン",
    "prefecture_code": "44",
    "city": "豊後大野市",
    "city_kana": "ブンゴオオノシ",
    "town": "清川町臼尾",
    "town_kana": "キヨカワマチウスオ",
    "street": null,
    "office_name": null,
    "office_name_kana": null
  },
  "6902": {
    "zip_code": "8796902",
    "prefecture": "大分県",
    "prefecture_kana": "オオイタケン",
    "prefecture_code": "44",
    "city": "豊後大野市",
    "city_kana": "ブンゴオオノシ",
    "town": "清川町雨堤",
    "town_kana": "キヨカワマチアマヅツミ",
    "street": null,
    "office_name": null,
    "office_name_kana": null
  },
  "6903": {
    "zip_code": "8796903",
    "prefecture": "大分県",
    "prefecture_kana": "オオイタケン",
    "prefecture_code": "44",
    "city": "豊後大野市",
    "city_kana": "ブンゴオオノシ",
    "town": "清川町砂田",
    "town_kana": "キヨカワマチスナダ",
    "street": null,
    "office_name": null,
    "office_name_kana": null
  },
  "6904": {
    "zip_code": "8796904",
    "prefecture": "大分県",
    "prefecture_kana": "オオイタケン",
    "prefecture_code": "44",
    "city": "豊後大野市",
    "city_kana": "ブンゴオオノシ",
    "town": "清川町天神",
    "town_kana": "キヨカワマチテンジン",
    "street": null,
    "office_name": null,
    "office_name_kana": null
  },
  "6905": {
    "zip_code": "8796905",
    "prefecture": "大分県",
    "prefecture_kana": "オオイタケン",
    "prefecture_code": "44",
    "city": "豊後大野市",
    "city_kana": "ブンゴオオノシ",
    "town": "清川町三玉",
    "town_kana": "キヨカワマチミタマ",
    "street": null,
    "office_name": null,
    "office_name_kana": null
  },
  "6911": {
    "zip_code": "8796911",
    "prefecture": "大分県",
    "prefecture_kana": "オオイタケン",
    "prefecture_code": "44",
    "city": "豊後大野市",
    "city_kana": "ブンゴオオノシ",
    "town": "清川町宇田枝",
    "town_kana": "キヨカワマチウタエダ",
    "street": null,
    "office_name": null,
    "office_name_kana": null
  },
  "6912": {
    "zip_code": "8796912",
    "prefecture": "大分県",
    "prefecture_kana": "オオイタケン",
    "prefecture_code": "44",
    "city": "豊後大野市",
    "city_kana": "ブンゴオオノシ",
    "town": "清川町六種",
    "town_kana": "キヨカワマチムクサ",
    "street": null,
    "office_name": null,
    "office_name_kana": null
  },
  "6913": {
    "zip_code": "8796913",
    "prefecture": "大分県",
    "prefecture_kana": "オオイタケン",
    "prefecture_code": "44",
    "city": "豊後大野市",
    "city_kana": "ブンゴオオノシ",
    "town": "清川町平石",
    "town_kana": "キヨカワマチヒライシ",
    "street": null,
    "office_name": null,
    "office_name_kana": null
  },
  "6914": {
    "zip_code": "8796914",
    "prefecture": "大分県",
    "prefecture_kana": "オオイタケン",
    "prefecture_code": "44",
    "city": "豊後大野市",
    "city_kana": "ブンゴオオノシ",
    "town": "清川町左右知",
    "town_kana": "キヨカワマチソウチ",
    "street": null,
    "office_name": null,
    "office_name_kana": null
  },
  "6921": {
    "zip_code": "8796921",
    "prefecture": "大分県",
    "prefecture_kana": "オオイタケン",
    "prefecture_code": "44",
    "city": "豊後大野市",
    "city_kana": "ブンゴオオノシ",
    "town": "清川町伏野",
    "town_kana": "キヨカワマチフセノ",
    "street": null,
    "office_name": null,
    "office_name_kana": null
  },
  "6922": {
    "zip_code": "8796922",
    "prefecture": "大分県",
    "prefecture_kana": "オオイタケン",
    "prefecture_code": "44",
    "city": "豊後大野市",
    "city_kana": "ブンゴオオノシ",
    "town": "清川町大白谷",
    "town_kana": "キヨカワマチオオシロタニ",
    "street": null,
    "office_name": null,
    "office_name_kana": null
  },
  "7100": {
    "zip_code": "8797100",
    "prefecture": "大分県",
    "prefecture_kana": "オオイタケン",
    "prefecture_code": "44",
    "city": "豊後大野市",
    "city_kana": "ブンゴオオノシ",
    "town": "",
    "town_kana": "",
    "street": null,
    "office_name": null,
    "office_name_kana": null
  },
  "7101": {
    "zip_code": "8797101",
    "prefecture": "大分県",
    "prefecture_kana": "オオイタケン",
    "prefecture_code": "44",
    "city": "豊後大野市",
    "city_kana": "ブンゴオオノシ",
    "town": "三重町宮野",
    "town_kana": "ミエマチミヤノ",
    "street": null,
    "office_name": null,
    "office_name_kana": null
  },
  "7102": {
    "zip_code": "8797102",
    "prefecture": "大分県",
    "prefecture_kana": "オオイタケン",
    "prefecture_code": "44",
    "city": "豊後大野市",
    "city_kana": "ブンゴオオノシ",
    "town": "三重町菅生",
    "town_kana": "ミエマチスゴウ",
    "street": null,
    "office_name": null,
    "office_name_kana": null
  },
  "7103": {
    "zip_code": "8797103",
    "prefecture": "大分県",
    "prefecture_kana": "オオイタケン",
    "prefecture_code": "44",
    "city": "豊後大野市",
    "city_kana": "ブンゴオオノシ",
    "town": "三重町西畑",
    "town_kana": "ミエマチニシハタ",
    "street": null,
    "office_name": null,
    "office_name_kana": null
  },
  "7104": {
    "zip_code": "8797104",
    "prefecture": "大分県",
    "prefecture_kana": "オオイタケン",
    "prefecture_code": "44",
    "city": "豊後大野市",
    "city_kana": "ブンゴオオノシ",
    "town": "三重町小坂",
    "town_kana": "ミエマチオサカ",
    "street": null,
    "office_name": null,
    "office_name_kana": null
  },
  "7105": {
    "zip_code": "8797105",
    "prefecture": "大分県",
    "prefecture_kana": "オオイタケン",
    "prefecture_code": "44",
    "city": "豊後大野市",
    "city_kana": "ブンゴオオノシ",
    "town": "三重町芦刈",
    "town_kana": "ミエマチアシカリ",
    "street": null,
    "office_name": null,
    "office_name_kana": null
  },
  "7106": {
    "zip_code": "8797106",
    "prefecture": "大分県",
    "prefecture_kana": "オオイタケン",
    "prefecture_code": "44",
    "city": "豊後大野市",
    "city_kana": "ブンゴオオノシ",
    "town": "三重町井迫",
    "town_kana": "ミエマチイサコ",
    "street": null,
    "office_name": null,
    "office_name_kana": null
  },
  "7107": {
    "zip_code": "8797107",
    "prefecture": "大分県",
    "prefecture_kana": "オオイタケン",
    "prefecture_code": "44",
    "city": "豊後大野市",
    "city_kana": "ブンゴオオノシ",
    "town": "三重町上田原",
    "town_kana": "ミエマチカミタワラ",
    "street": null,
    "office_name": null,
    "office_name_kana": null
  },
  "7108": {
    "zip_code": "8797108",
    "prefecture": "大分県",
    "prefecture_kana": "オオイタケン",
    "prefecture_code": "44",
    "city": "豊後大野市",
    "city_kana": "ブンゴオオノシ",
    "town": "三重町浅瀬",
    "town_kana": "ミエマチアサセ",
    "street": null,
    "office_name": null,
    "office_name_kana": null
  },
  "7111": {
    "zip_code": "8797111",
    "prefecture": "大分県",
    "prefecture_kana": "オオイタケン",
    "prefecture_code": "44",
    "city": "豊後大野市",
    "city_kana": "ブンゴオオノシ",
    "town": "三重町赤嶺",
    "town_kana": "ミエマチアカミネ",
    "street": null,
    "office_name": null,
    "office_name_kana": null
  },
  "7121": {
    "zip_code": "8797121",
    "prefecture": "大分県",
    "prefecture_kana": "オオイタケン",
    "prefecture_code": "44",
    "city": "豊後大野市",
    "city_kana": "ブンゴオオノシ",
    "town": "三重町山部",
    "town_kana": "ミエマチヤマブ",
    "street": null,
    "office_name": null,
    "office_name_kana": null
  },
  "7122": {
    "zip_code": "8797122",
    "prefecture": "大分県",
    "prefecture_kana": "オオイタケン",
    "prefecture_code": "44",
    "city": "豊後大野市",
    "city_kana": "ブンゴオオノシ",
    "town": "三重町鷲谷",
    "town_kana": "ミエマチワシダニ",
    "street": null,
    "office_name": null,
    "office_name_kana": null
  },
  "7123": {
    "zip_code": "8797123",
    "prefecture": "大分県",
    "prefecture_kana": "オオイタケン",
    "prefecture_code": "44",
    "city": "豊後大野市",
    "city_kana": "ブンゴオオノシ",
    "town": "三重町松尾",
    "town_kana": "ミエマチマツオ",
    "street": null,
    "office_name": null,
    "office_name_kana": null
  },
  "7124": {
    "zip_code": "8797124",
    "prefecture": "大分県",
    "prefecture_kana": "オオイタケン",
    "prefecture_code": "44",
    "city": "豊後大野市",
    "city_kana": "ブンゴオオノシ",
    "town": "三重町内山",
    "town_kana": "ミエマチウチヤマ",
    "street": null,
    "office_name": null,
    "office_name_kana": null
  },
  "7125": {
    "zip_code": "8797125",
    "prefecture": "大分県",
    "prefecture_kana": "オオイタケン",
    "prefecture_code": "44",
    "city": "豊後大野市",
    "city_kana": "ブンゴオオノシ",
    "town": "三重町内田",
    "town_kana": "ミエマチウチダ",
    "street": null,
    "office_name": null,
    "office_name_kana": null
  },
  "7131": {
    "zip_code": "8797131",
    "prefecture": "大分県",
    "prefecture_kana": "オオイタケン",
    "prefecture_code": "44",
    "city": "豊後大野市",
    "city_kana": "ブンゴオオノシ",
    "town": "三重町市場",
    "town_kana": "ミエマチイチバ",
    "street": null,
    "office_name": null,
    "office_name_kana": null
  },
  "7141": {
    "zip_code": "8797141",
    "prefecture": "大分県",
    "prefecture_kana": "オオイタケン",
    "prefecture_code": "44",
    "city": "豊後大野市",
    "city_kana": "ブンゴオオノシ",
    "town": "三重町秋葉",
    "town_kana": "ミエマチアキバ",
    "street": null,
    "office_name": null,
    "office_name_kana": null
  },
  "7142": {
    "zip_code": "8797142",
    "prefecture": "大分県",
    "prefecture_kana": "オオイタケン",
    "prefecture_code": "44",
    "city": "豊後大野市",
    "city_kana": "ブンゴオオノシ",
    "town": "三重町小田",
    "town_kana": "ミエマチオダ",
    "street": null,
    "office_name": null,
    "office_name_kana": null
  },
  "7143": {
    "zip_code": "8797143",
    "prefecture": "大分県",
    "prefecture_kana": "オオイタケン",
    "prefecture_code": "44",
    "city": "豊後大野市",
    "city_kana": "ブンゴオオノシ",
    "town": "三重町久田",
    "town_kana": "ミエマチヒサダ",
    "street": null,
    "office_name": null,
    "office_name_kana": null
  },
  "7144": {
    "zip_code": "8797144",
    "prefecture": "大分県",
    "prefecture_kana": "オオイタケン",
    "prefecture_code": "44",
    "city": "豊後大野市",
    "city_kana": "ブンゴオオノシ",
    "town": "三重町本城",
    "town_kana": "ミエマチホンジョウ",
    "street": null,
    "office_name": null,
    "office_name_kana": null
  },
  "7151": {
    "zip_code": "8797151",
    "prefecture": "大分県",
    "prefecture_kana": "オオイタケン",
    "prefecture_code": "44",
    "city": "豊後大野市",
    "city_kana": "ブンゴオオノシ",
    "town": "三重町西泉",
    "town_kana": "ミエマチニシイズミ",
    "street": null,
    "office_name": null,
    "office_name_kana": null
  },
  "7152": {
    "zip_code": "8797152",
    "prefecture": "大分県",
    "prefecture_kana": "オオイタケン",
    "prefecture_code": "44",
    "city": "豊後大野市",
    "city_kana": "ブンゴオオノシ",
    "town": "三重町百枝",
    "town_kana": "ミエマチモモエダ",
    "street": null,
    "office_name": null,
    "office_name_kana": null
  },
  "7153": {
    "zip_code": "8797153",
    "prefecture": "大分県",
    "prefecture_kana": "オオイタケン",
    "prefecture_code": "44",
    "city": "豊後大野市",
    "city_kana": "ブンゴオオノシ",
    "town": "三重町玉田",
    "town_kana": "ミエマチタマダ",
    "street": null,
    "office_name": null,
    "office_name_kana": null
  },
  "7154": {
    "zip_code": "8797154",
    "prefecture": "大分県",
    "prefecture_kana": "オオイタケン",
    "prefecture_code": "44",
    "city": "豊後大野市",
    "city_kana": "ブンゴオオノシ",
    "town": "三重町川辺",
    "town_kana": "ミエマチカワベ",
    "street": null,
    "office_name": null,
    "office_name_kana": null
  },
  "7155": {
    "zip_code": "8797155",
    "prefecture": "大分県",
    "prefecture_kana": "オオイタケン",
    "prefecture_code": "44",
    "city": "豊後大野市",
    "city_kana": "ブンゴオオノシ",
    "town": "三重町向野",
    "town_kana": "ミエマチムコウノ",
    "street": null,
    "office_name": null,
    "office_name_kana": null
  },
  "7192": {
    "zip_code": "8797192",
    "prefecture": "大分県",
    "prefecture_kana": "オオイタケン",
    "prefecture_code": "44",
    "city": "豊後大野市",
    "city_kana": "ブンゴオオノシ",
    "town": "三重町市場",
    "town_kana": "ミエマチイチバ",
    "street": "１２２５番地９（三重郵便局私書箱第４号）",
    "office_name": "三重税務署",
    "office_name_kana": "ミエゼイムシヨ"
  },
  "7198": {
    "zip_code": "8797198",
    "prefecture": "大分県",
    "prefecture_kana": "オオイタケン",
    "prefecture_code": "44",
    "city": "豊後大野市",
    "city_kana": "ブンゴオオノシ",
    "town": "三重町市場",
    "town_kana": "ミエマチイチバ",
    "street": "１２２０",
    "office_name": "豊後大野市役所",
    "office_name_kana": "ブンゴオオノシヤクシヨ"
  },
  "7261": {
    "zip_code": "8797261",
    "prefecture": "大分県",
    "prefecture_kana": "オオイタケン",
    "prefecture_code": "44",
    "city": "豊後大野市",
    "city_kana": "ブンゴオオノシ",
    "town": "三重町伏野",
    "town_kana": "ミエマチフセノ",
    "street": null,
    "office_name": null,
    "office_name_kana": null
  },
  "7262": {
    "zip_code": "8797262",
    "prefecture": "大分県",
    "prefecture_kana": "オオイタケン",
    "prefecture_code": "44",
    "city": "豊後大野市",
    "city_kana": "ブンゴオオノシ",
    "town": "三重町奥畑",
    "town_kana": "ミエマチオクバタ",
    "street": null,
    "office_name": null,
    "office_name_kana": null
  },
  "7263": {
    "zip_code": "8797263",
    "prefecture": "大分県",
    "prefecture_kana": "オオイタケン",
    "prefecture_code": "44",
    "city": "豊後大野市",
    "city_kana": "ブンゴオオノシ",
    "town": "三重町中津留",
    "town_kana": "ミエマチナカヅル",
    "street": null,
    "office_name": null,
    "office_name_kana": null
  },
  "7264": {
    "zip_code": "8797264",
    "prefecture": "大分県",
    "prefecture_kana": "オオイタケン",
    "prefecture_code": "44",
    "city": "豊後大野市",
    "city_kana": "ブンゴオオノシ",
    "town": "三重町大白谷",
    "town_kana": "ミエマチオオシロタニ",
    "street": null,
    "office_name": null,
    "office_name_kana": null
  },
  "7301": {
    "zip_code": "8797301",
    "prefecture": "大分県",
    "prefecture_kana": "オオイタケン",
    "prefecture_code": "44",
    "city": "豊後大野市",
    "city_kana": "ブンゴオオノシ",
    "town": "犬飼町犬飼",
    "town_kana": "イヌカイマチイヌカイ",
    "street": null,
    "office_name": null,
    "office_name_kana": null
  },
  "7302": {
    "zip_code": "8797302",
    "prefecture": "大分県",
    "prefecture_kana": "オオイタケン",
    "prefecture_code": "44",
    "city": "豊後大野市",
    "city_kana": "ブンゴオオノシ",
    "town": "犬飼町久原",
    "town_kana": "イヌカイマチクバル",
    "street": null,
    "office_name": null,
    "office_name_kana": null
  },
  "7303": {
    "zip_code": "8797303",
    "prefecture": "大分県",
    "prefecture_kana": "オオイタケン",
    "prefecture_code": "44",
    "city": "豊後大野市",
    "city_kana": "ブンゴオオノシ",
    "town": "犬飼町柚野木",
    "town_kana": "イヌカイマチユノキ",
    "street": null,
    "office_name": null,
    "office_name_kana": null
  },
  "7304": {
    "zip_code": "8797304",
    "prefecture": "大分県",
    "prefecture_kana": "オオイタケン",
    "prefecture_code": "44",
    "city": "豊後大野市",
    "city_kana": "ブンゴオオノシ",
    "town": "犬飼町大寒",
    "town_kana": "イヌカイマチオオソウ",
    "street": null,
    "office_name": null,
    "office_name_kana": null
  },
  "7305": {
    "zip_code": "8797305",
    "prefecture": "大分県",
    "prefecture_kana": "オオイタケン",
    "prefecture_code": "44",
    "city": "豊後大野市",
    "city_kana": "ブンゴオオノシ",
    "town": "犬飼町田原",
    "town_kana": "イヌカイマチタハラ",
    "street": null,
    "office_name": null,
    "office_name_kana": null
  },
  "7306": {
    "zip_code": "8797306",
    "prefecture": "大分県",
    "prefecture_kana": "オオイタケン",
    "prefecture_code": "44",
    "city": "豊後大野市",
    "city_kana": "ブンゴオオノシ",
    "town": "犬飼町下津尾",
    "town_kana": "イヌカイマチシモツオ",
    "street": null,
    "office_name": null,
    "office_name_kana": null
  },
  "7307": {
    "zip_code": "8797307",
    "prefecture": "大分県",
    "prefecture_kana": "オオイタケン",
    "prefecture_code": "44",
    "city": "豊後大野市",
    "city_kana": "ブンゴオオノシ",
    "town": "犬飼町西寒田",
    "town_kana": "イヌカイマチササムタ",
    "street": null,
    "office_name": null,
    "office_name_kana": null
  },
  "7311": {
    "zip_code": "8797311",
    "prefecture": "大分県",
    "prefecture_kana": "オオイタケン",
    "prefecture_code": "44",
    "city": "豊後大野市",
    "city_kana": "ブンゴオオノシ",
    "town": "犬飼町柴北",
    "town_kana": "イヌカイマチシバキタ",
    "street": null,
    "office_name": null,
    "office_name_kana": null
  },
  "7312": {
    "zip_code": "8797312",
    "prefecture": "大分県",
    "prefecture_kana": "オオイタケン",
    "prefecture_code": "44",
    "city": "豊後大野市",
    "city_kana": "ブンゴオオノシ",
    "town": "犬飼町高津原",
    "town_kana": "イヌカイマチコウヅハル",
    "street": null,
    "office_name": null,
    "office_name_kana": null
  },
  "7313": {
    "zip_code": "8797313",
    "prefecture": "大分県",
    "prefecture_kana": "オオイタケン",
    "prefecture_code": "44",
    "city": "豊後大野市",
    "city_kana": "ブンゴオオノシ",
    "town": "犬飼町黒松",
    "town_kana": "イヌカイマチクロマツ",
    "street": null,
    "office_name": null,
    "office_name_kana": null
  },
  "7314": {
    "zip_code": "8797314",
    "prefecture": "大分県",
    "prefecture_kana": "オオイタケン",
    "prefecture_code": "44",
    "city": "豊後大野市",
    "city_kana": "ブンゴオオノシ",
    "town": "犬飼町栗ケ畑",
    "town_kana": "イヌカイマチクリガハタ",
    "street": null,
    "office_name": null,
    "office_name_kana": null
  },
  "7315": {
    "zip_code": "8797315",
    "prefecture": "大分県",
    "prefecture_kana": "オオイタケン",
    "prefecture_code": "44",
    "city": "豊後大野市",
    "city_kana": "ブンゴオオノシ",
    "town": "犬飼町山内",
    "town_kana": "イヌカイマチヤマウチ",
    "street": null,
    "office_name": null,
    "office_name_kana": null
  },
  "7316": {
    "zip_code": "8797316",
    "prefecture": "大分県",
    "prefecture_kana": "オオイタケン",
    "prefecture_code": "44",
    "city": "豊後大野市",
    "city_kana": "ブンゴオオノシ",
    "town": "犬飼町長畑",
    "town_kana": "イヌカイマチナガハタ",
    "street": null,
    "office_name": null,
    "office_name_kana": null
  },
  "7401": {
    "zip_code": "8797401",
    "prefecture": "大分県",
    "prefecture_kana": "オオイタケン",
    "prefecture_code": "44",
    "city": "豊後大野市",
    "city_kana": "ブンゴオオノシ",
    "town": "千歳町新殿",
    "town_kana": "チトセマチニイドノ",
    "street": null,
    "office_name": null,
    "office_name_kana": null
  },
  "7402": {
    "zip_code": "8797402",
    "prefecture": "大分県",
    "prefecture_kana": "オオイタケン",
    "prefecture_code": "44",
    "city": "豊後大野市",
    "city_kana": "ブンゴオオノシ",
    "town": "千歳町船田",
    "town_kana": "チトセマチフナダ",
    "street": null,
    "office_name": null,
    "office_name_kana": null
  },
  "7403": {
    "zip_code": "8797403",
    "prefecture": "大分県",
    "prefecture_kana": "オオイタケン",
    "prefecture_code": "44",
    "city": "豊後大野市",
    "city_kana": "ブンゴオオノシ",
    "town": "千歳町石田",
    "town_kana": "チトセマチイシダ",
    "street": null,
    "office_name": null,
    "office_name_kana": null
  },
  "7404": {
    "zip_code": "8797404",
    "prefecture": "大分県",
    "prefecture_kana": "オオイタケン",
    "prefecture_code": "44",
    "city": "豊後大野市",
    "city_kana": "ブンゴオオノシ",
    "town": "千歳町長峰",
    "town_kana": "チトセマチナガミネ",
    "street": null,
    "office_name": null,
    "office_name_kana": null
  },
  "7411": {
    "zip_code": "8797411",
    "prefecture": "大分県",
    "prefecture_kana": "オオイタケン",
    "prefecture_code": "44",
    "city": "豊後大野市",
    "city_kana": "ブンゴオオノシ",
    "town": "千歳町柴山",
    "town_kana": "チトセマチシバヤマ",
    "street": null,
    "office_name": null,
    "office_name_kana": null
  },
  "7412": {
    "zip_code": "8797412",
    "prefecture": "大分県",
    "prefecture_kana": "オオイタケン",
    "prefecture_code": "44",
    "city": "豊後大野市",
    "city_kana": "ブンゴオオノシ",
    "town": "千歳町高畑",
    "town_kana": "チトセマチタカハタ",
    "street": null,
    "office_name": null,
    "office_name_kana": null
  },
  "7413": {
    "zip_code": "8797413",
    "prefecture": "大分県",
    "prefecture_kana": "オオイタケン",
    "prefecture_code": "44",
    "city": "豊後大野市",
    "city_kana": "ブンゴオオノシ",
    "town": "千歳町下山",
    "town_kana": "チトセマチシモヤマ",
    "street": null,
    "office_name": null,
    "office_name_kana": null
  },
  "7414": {
    "zip_code": "8797414",
    "prefecture": "大分県",
    "prefecture_kana": "オオイタケン",
    "prefecture_code": "44",
    "city": "豊後大野市",
    "city_kana": "ブンゴオオノシ",
    "town": "千歳町前田",
    "town_kana": "チトセマチマエダ",
    "street": null,
    "office_name": null,
    "office_name_kana": null
  },
  "7501": {
    "zip_code": "8797501",
    "prefecture": "大分県",
    "prefecture_kana": "オオイタケン",
    "prefecture_code": "44",
    "city": "大分市",
    "city_kana": "オオイタシ",
    "town": "竹中",
    "town_kana": "タケナカ",
    "street": null,
    "office_name": null,
    "office_name_kana": null
  },
  "7502": {
    "zip_code": "8797502",
    "prefecture": "大分県",
    "prefecture_kana": "オオイタケン",
    "prefecture_code": "44",
    "city": "大分市",
    "city_kana": "オオイタシ",
    "town": "端登",
    "town_kana": "ハタノボリ",
    "street": null,
    "office_name": null,
    "office_name_kana": null
  },
  "7503": {
    "zip_code": "8797503",
    "prefecture": "大分県",
    "prefecture_kana": "オオイタケン",
    "prefecture_code": "44",
    "city": "大分市",
    "city_kana": "オオイタシ",
    "town": "河原内",
    "town_kana": "カワラウチ",
    "street": null,
    "office_name": null,
    "office_name_kana": null
  },
  "7504": {
    "zip_code": "8797504",
    "prefecture": "大分県",
    "prefecture_kana": "オオイタケン",
    "prefecture_code": "44",
    "city": "大分市",
    "city_kana": "オオイタシ",
    "town": "安藤",
    "town_kana": "アンドウ",
    "street": null,
    "office_name": null,
    "office_name_kana": null
  },
  "7761": {
    "zip_code": "8797761",
    "prefecture": "大分県",
    "prefecture_kana": "オオイタケン",
    "prefecture_code": "44",
    "city": "大分市",
    "city_kana": "オオイタシ",
    "town": "中戸次",
    "town_kana": "ナカヘツギ",
    "street": null,
    "office_name": null,
    "office_name_kana": null
  },
  "7762": {
    "zip_code": "8797762",
    "prefecture": "大分県",
    "prefecture_kana": "オオイタケン",
    "prefecture_code": "44",
    "city": "大分市",
    "city_kana": "オオイタシ",
    "town": "けやき台",
    "town_kana": "ケヤキダイ",
    "street": null,
    "office_name": null,
    "office_name_kana": null
  },
  "7763": {
    "zip_code": "8797763",
    "prefecture": "大分県",
    "prefecture_kana": "オオイタケン",
    "prefecture_code": "44",
    "city": "大分市",
    "city_kana": "オオイタシ",
    "town": "下戸次",
    "town_kana": "シモヘツギ",
    "street": null,
    "office_name": null,
    "office_name_kana": null
  },
  "7764": {
    "zip_code": "8797764",
    "prefecture": "大分県",
    "prefecture_kana": "オオイタケン",
    "prefecture_code": "44",
    "city": "大分市",
    "city_kana": "オオイタシ",
    "town": "上戸次",
    "town_kana": "カミヘツギ",
    "street": null,
    "office_name": null,
    "office_name_kana": null
  },
  "7765": {
    "zip_code": "8797765",
    "prefecture": "大分県",
    "prefecture_kana": "オオイタケン",
    "prefecture_code": "44",
    "city": "大分市",
    "city_kana": "オオイタシ",
    "town": "美園団地",
    "town_kana": "ミソノダンチ",
    "street": null,
    "office_name": null,
    "office_name_kana": null
  },
  "7871": {
    "zip_code": "8797871",
    "prefecture": "大分県",
    "prefecture_kana": "オオイタケン",
    "prefecture_code": "44",
    "city": "大分市",
    "city_kana": "オオイタシ",
    "town": "辻",
    "town_kana": "ツジ",
    "street": null,
    "office_name": null,
    "office_name_kana": null
  },
  "7872": {
    "zip_code": "8797872",
    "prefecture": "大分県",
    "prefecture_kana": "オオイタケン",
    "prefecture_code": "44",
    "city": "大分市",
    "city_kana": "オオイタシ",
    "town": "月形",
    "town_kana": "ツキガタ",
    "street": null,
    "office_name": null,
    "office_name_kana": null
  },
  "7873": {
    "zip_code": "8797873",
    "prefecture": "大分県",
    "prefecture_kana": "オオイタケン",
    "prefecture_code": "44",
    "city": "大分市",
    "city_kana": "オオイタシ",
    "town": "宮尾",
    "town_kana": "ミヤオ",
    "street": null,
    "office_name": null,
    "office_name_kana": null
  },
  "7874": {
    "zip_code": "8797874",
    "prefecture": "大分県",
    "prefecture_kana": "オオイタケン",
    "prefecture_code": "44",
    "city": "大分市",
    "city_kana": "オオイタシ",
    "town": "福良",
    "town_kana": "フクラ",
    "street": null,
    "office_name": null,
    "office_name_kana": null
  },
  "7875": {
    "zip_code": "8797875",
    "prefecture": "大分県",
    "prefecture_kana": "オオイタケン",
    "prefecture_code": "44",
    "city": "大分市",
    "city_kana": "オオイタシ",
    "town": "吉野原",
    "town_kana": "ヨシノハル",
    "street": null,
    "office_name": null,
    "office_name_kana": null
  },
  "7881": {
    "zip_code": "8797881",
    "prefecture": "大分県",
    "prefecture_kana": "オオイタケン",
    "prefecture_code": "44",
    "city": "大分市",
    "city_kana": "オオイタシ",
    "town": "奥",
    "town_kana": "オク",
    "street": null,
    "office_name": null,
    "office_name_kana": null
  },
  "7882": {
    "zip_code": "8797882",
    "prefecture": "大分県",
    "prefecture_kana": "オオイタケン",
    "prefecture_code": "44",
    "city": "大分市",
    "city_kana": "オオイタシ",
    "town": "杉原",
    "town_kana": "スギバル",
    "street": null,
    "office_name": null,
    "office_name_kana": null
  },
  "7883": {
    "zip_code": "8797883",
    "prefecture": "大分県",
    "prefecture_kana": "オオイタケン",
    "prefecture_code": "44",
    "city": "大分市",
    "city_kana": "オオイタシ",
    "town": "萩尾",
    "town_kana": "ハギオ",
    "street": null,
    "office_name": null,
    "office_name_kana": null
  },
  "7884": {
    "zip_code": "8797884",
    "prefecture": "大分県",
    "prefecture_kana": "オオイタケン",
    "prefecture_code": "44",
    "city": "大分市",
    "city_kana": "オオイタシ",
    "town": "志津留",
    "town_kana": "シツル",
    "street": null,
    "office_name": null,
    "office_name_kana": null
  },
  "7885": {
    "zip_code": "8797885",
    "prefecture": "大分県",
    "prefecture_kana": "オオイタケン",
    "prefecture_code": "44",
    "city": "大分市",
    "city_kana": "オオイタシ",
    "town": "梅が丘",
    "town_kana": "ウメガオカ",
    "street": null,
    "office_name": null,
    "office_name_kana": null
  }
}