{
  "0000": {
    "zip_code": "8800000",
    "prefecture": "宮崎県",
    "prefecture_kana": "ミヤザキケン",
    "prefecture_code": "45",
    "city": "宮崎市",
    "city_kana": "ミヤザキシ",
    "town": "",
    "town_kana": "",
    "street": null,
    "office_name": null,
    "office_name_kana": null
  },
  "0001": {
    "zip_code": "8800001",
    "prefecture": "宮崎県",
    "prefecture_kana": "ミヤザキケン",
    "prefecture_code": "45",
    "city": "宮崎市",
    "city_kana": "ミヤザキシ",
    "town": "橘通西",
    "town_kana": "タチバナドオリニシ",
    "street": null,
    "office_name": null,
    "office_name_kana": null
  },
  "0002": {
    "zip_code": "8800002",
    "prefecture": "宮崎県",
    "prefecture_kana": "ミヤザキケン",
    "prefecture_code": "45",
    "city": "宮崎市",
    "city_kana": "ミヤザキシ",
    "town": "中央通",
    "town_kana": "チュウオウドオリ",
    "street": null,
    "office_name": null,
    "office_name_kana": null
  },
  "0003": {
    "zip_code": "8800003",
    "prefecture": "宮崎県",
    "prefecture_kana": "ミヤザキケン",
    "prefecture_code": "45",
    "city": "宮崎市",
    "city_kana": "ミヤザキシ",
    "town": "高松町",
    "town_kana": "タカマツチョウ",
    "street": null,
    "office_name": null,
    "office_name_kana": null
  },
  "0004": {
    "zip_code": "8800004",
    "prefecture": "宮崎県",
    "prefecture_kana": "ミヤザキケン",
    "prefecture_code": "45",
    "city": "宮崎市",
    "city_kana": "ミヤザキシ",
    "town": "元宮町",
    "town_kana": "モトミヤチョウ",
    "street": null,
    "office_name": null,
    "office_name_kana": null
  },
  "0005": {
    "zip_code": "8800005",
    "prefecture": "宮崎県",
    "prefecture_kana": "ミヤザキケン",
    "prefecture_code": "45",
    "city": "宮崎市",
    "city_kana": "ミヤザキシ",
    "town": "南高松町",
    "town_kana": "ミナミタカマツチョウ",
    "street": null,
    "office_name": null,
    "office_name_kana": null
  },
  "0006": {
    "zip_code": "8800006",
    "prefecture": "宮崎県",
    "prefecture_kana": "ミヤザキケン",
    "prefecture_code": "45",
    "city": "宮崎市",
    "city_kana": "ミヤザキシ",
    "town": "千草町",
    "town_kana": "チグサチョウ",
    "street": null,
    "office_name": null,
    "office_name_kana": null
  },
  "0007": {
    "zip_code": "8800007",
    "prefecture": "宮崎県",
    "prefecture_kana": "ミヤザキケン",
    "prefecture_code": "45",
    "city": "宮崎市",
    "city_kana": "ミヤザキシ",
    "town": "原町",
    "town_kana": "ハラマチ",
    "street": null,
    "office_name": null,
    "office_name_kana": null
  },
  "0011": {
    "zip_code": "8800011",
    "prefecture": "宮崎県",
    "prefecture_kana": "ミヤザキケン",
    "prefecture_code": "45",
    "city": "宮崎市",
    "city_kana": "ミヤザキシ",
    "town": "上野町",
    "town_kana": "カミノマチ",
    "street": null,
    "office_name": null,
    "office_name_kana": null
  },
  "0012": {
    "zip_code": "8800012",
    "prefecture": "宮崎県",
    "prefecture_kana": "ミヤザキケン",
    "prefecture_code": "45",
    "city": "宮崎市",
    "city_kana": "ミヤザキシ",
    "town": "末広",
    "town_kana": "スエヒロ",
    "street": null,
    "office_name": null,
    "office_name_kana": null
  },
  "0013": {
    "zip_code": "8800013",
    "prefecture": "宮崎県",
    "prefecture_kana": "ミヤザキケン",
    "prefecture_code": "45",
    "city": "宮崎市",
    "city_kana": "ミヤザキシ",
    "town": "松橋",
    "town_kana": "マツバシ",
    "street": null,
    "office_name": null,
    "office_name_kana": null
  },
  "0014": {
    "zip_code": "8800014",
    "prefecture": "宮崎県",
    "prefecture_kana": "ミヤザキケン",
    "prefecture_code": "45",
    "city": "宮崎市",
    "city_kana": "ミヤザキシ",
    "town": "鶴島",
    "town_kana": "ツルノシマ",
    "street": null,
    "office_name": null,
    "office_name_kana": null
  },
  "0015": {
    "zip_code": "8800015",
    "prefecture": "宮崎県",
    "prefecture_kana": "ミヤザキケン",
    "prefecture_code": "45",
    "city": "宮崎市",
    "city_kana": "ミヤザキシ",
    "town": "大工",
    "town_kana": "ダイク",
    "street": null,
    "office_name": null,
    "office_name_kana": null
  },
  "0016": {
    "zip_code": "8800016",
    "prefecture": "宮崎県",
    "prefecture_kana": "ミヤザキケン",
    "prefecture_code": "45",
    "city": "宮崎市",
    "city_kana": "ミヤザキシ",
    "town": "西高松町",
    "town_kana": "ニシタカマツチョウ",
    "street": null,
    "office_name": null,
    "office_name_kana": null
  },
  "0017": {
    "zip_code": "8800017",
    "prefecture": "宮崎県",
    "prefecture_kana": "ミヤザキケン",
    "prefecture_code": "45",
    "city": "宮崎市",
    "city_kana": "ミヤザキシ",
    "town": "北高松町",
    "town_kana": "キタタカマツチョウ",
    "street": null,
    "office_name": null,
    "office_name_kana": null
  },
  "0021": {
    "zip_code": "8800021",
    "prefecture": "宮崎県",
    "prefecture_kana": "ミヤザキケン",
    "prefecture_code": "45",
    "city": "宮崎市",
    "city_kana": "ミヤザキシ",
    "town": "清水",
    "town_kana": "シミズ",
    "street": null,
    "office_name": null,
    "office_name_kana": null
  },
  "0022": {
    "zip_code": "8800022",
    "prefecture": "宮崎県",
    "prefecture_kana": "ミヤザキケン",
    "prefecture_code": "45",
    "city": "宮崎市",
    "city_kana": "ミヤザキシ",
    "town": "大橋",
    "town_kana": "オオハシ",
    "street": null,
    "office_name": null,
    "office_name_kana": null
  },
  "0023": {
    "zip_code": "8800023",
    "prefecture": "宮崎県",
    "prefecture_kana": "ミヤザキケン",
    "prefecture_code": "45",
    "city": "宮崎市",
    "city_kana": "ミヤザキシ",
    "town": "和知川原",
    "town_kana": "ワチガワラ",
    "street": null,
    "office_name": null,
    "office_name_kana": null
  },
  "0024": {
    "zip_code": "8800024",
    "prefecture": "宮崎県",
    "prefecture_kana": "ミヤザキケン",
    "prefecture_code": "45",
    "city": "宮崎市",
    "city_kana": "ミヤザキシ",
    "town": "祇園",
    "town_kana": "ギオン",
    "street": null,
    "office_name": null,
    "office_name_kana": null
  },
  "0025": {
    "zip_code": "8800025",
    "prefecture": "宮崎県",
    "prefecture_kana": "ミヤザキケン",
    "prefecture_code": "45",
    "city": "宮崎市",
    "city_kana": "ミヤザキシ",
    "town": "中津瀬町",
    "town_kana": "ナカツセチョウ",
    "street": null,
    "office_name": null,
    "office_name_kana": null
  },
  "0026": {
    "zip_code": "8800026",
    "prefecture": "宮崎県",
    "prefecture_kana": "ミヤザキケン",
    "prefecture_code": "45",
    "city": "宮崎市",
    "city_kana": "ミヤザキシ",
    "town": "花殿町",
    "town_kana": "ハナドノチョウ",
    "street": null,
    "office_name": null,
    "office_name_kana": null
  },
  "0027": {
    "zip_code": "8800027",
    "prefecture": "宮崎県",
    "prefecture_kana": "ミヤザキケン",
    "prefecture_code": "45",
    "city": "宮崎市",
    "city_kana": "ミヤザキシ",
    "town": "西池町",
    "town_kana": "ニシイケチョウ",
    "street": null,
    "office_name": null,
    "office_name_kana": null
  },
  "0031": {
    "zip_code": "8800031",
    "prefecture": "宮崎県",
    "prefecture_kana": "ミヤザキケン",
    "prefecture_code": "45",
    "city": "宮崎市",
    "city_kana": "ミヤザキシ",
    "town": "船塚",
    "town_kana": "フナツカ",
    "street": null,
    "office_name": null,
    "office_name_kana": null
  },
  "0032": {
    "zip_code": "8800032",
    "prefecture": "宮崎県",
    "prefecture_kana": "ミヤザキケン",
    "prefecture_code": "45",
    "city": "宮崎市",
    "city_kana": "ミヤザキシ",
    "town": "霧島",
    "town_kana": "キリシマ",
    "street": null,
    "office_name": null,
    "office_name_kana": null
  },
  "0033": {
    "zip_code": "8800033",
    "prefecture": "宮崎県",
    "prefecture_kana": "ミヤザキケン",
    "prefecture_code": "45",
    "city": "宮崎市",
    "city_kana": "ミヤザキシ",
    "town": "神宮西",
    "town_kana": "ジングウニシ",
    "street": null,
    "office_name": null,
    "office_name_kana": null
  },
  "0034": {
    "zip_code": "8800034",
    "prefecture": "宮崎県",
    "prefecture_kana": "ミヤザキケン",
    "prefecture_code": "45",
    "city": "宮崎市",
    "city_kana": "ミヤザキシ",
    "town": "矢の先町",
    "town_kana": "ヤノサキチョウ",
    "street": null,
    "office_name": null,
    "office_name_kana": null
  },
  "0035": {
    "zip_code": "8800035",
    "prefecture": "宮崎県",
    "prefecture_kana": "ミヤザキケン",
    "prefecture_code": "45",
    "city": "宮崎市",
    "city_kana": "ミヤザキシ",
    "town": "下北方町",
    "town_kana": "シモキタカタマチ",
    "street": null,
    "office_name": null,
    "office_name_kana": null
  },
  "0036": {
    "zip_code": "8800036",
    "prefecture": "宮崎県",
    "prefecture_kana": "ミヤザキケン",
    "prefecture_code": "45",
    "city": "宮崎市",
    "city_kana": "ミヤザキシ",
    "town": "花ケ島町",
    "town_kana": "ハナガシマチョウ",
    "street": null,
    "office_name": null,
    "office_name_kana": null
  },
  "0037": {
    "zip_code": "8800037",
    "prefecture": "宮崎県",
    "prefecture_kana": "ミヤザキケン",
    "prefecture_code": "45",
    "city": "宮崎市",
    "city_kana": "ミヤザキシ",
    "town": "南方町",
    "town_kana": "ミナミカタチョウ",
    "street": null,
    "office_name": null,
    "office_name_kana": null
  },
  "0041": {
    "zip_code": "8800041",
    "prefecture": "宮崎県",
    "prefecture_kana": "ミヤザキケン",
    "prefecture_code": "45",
    "city": "宮崎市",
    "city_kana": "ミヤザキシ",
    "town": "池内町",
    "town_kana": "イケウチチョウ",
    "street": null,
    "office_name": null,
    "office_name_kana": null
  },
  "0042": {
    "zip_code": "8800042",
    "prefecture": "宮崎県",
    "prefecture_kana": "ミヤザキケン",
    "prefecture_code": "45",
    "city": "宮崎市",
    "city_kana": "ミヤザキシ",
    "town": "平和が丘東町",
    "town_kana": "ヘイワガオカヒガシマチ",
    "street": null,
    "office_name": null,
    "office_name_kana": null
  },
  "0043": {
    "zip_code": "8800043",
    "prefecture": "宮崎県",
    "prefecture_kana": "ミヤザキケン",
    "prefecture_code": "45",
    "city": "宮崎市",
    "city_kana": "ミヤザキシ",
    "town": "上北方",
    "town_kana": "カミキタカタ",
    "street": null,
    "office_name": null,
    "office_name_kana": null
  },
  "0044": {
    "zip_code": "8800044",
    "prefecture": "宮崎県",
    "prefecture_kana": "ミヤザキケン",
    "prefecture_code": "45",
    "city": "宮崎市",
    "city_kana": "ミヤザキシ",
    "town": "瓜生野",
    "town_kana": "ウリュウノ",
    "street": null,
    "office_name": null,
    "office_name_kana": null
  },
  "0045": {
    "zip_code": "8800045",
    "prefecture": "宮崎県",
    "prefecture_kana": "ミヤザキケン",
    "prefecture_code": "45",
    "city": "宮崎市",
    "city_kana": "ミヤザキシ",
    "town": "大瀬町",
    "town_kana": "オオセマチ",
    "street": null,
    "office_name": null,
    "office_name_kana": null
  },
  "0046": {
    "zip_code": "8800046",
    "prefecture": "宮崎県",
    "prefecture_kana": "ミヤザキケン",
    "prefecture_code": "45",
    "city": "宮崎市",
    "city_kana": "ミヤザキシ",
    "town": "平和が丘北町",
    "town_kana": "ヘイワガオカキタマチ",
    "street": null,
    "office_name": null,
    "office_name_kana": null
  },
  "0047": {
    "zip_code": "8800047",
    "prefecture": "宮崎県",
    "prefecture_kana": "ミヤザキケン",
    "prefecture_code": "45",
    "city": "宮崎市",
    "city_kana": "ミヤザキシ",
    "town": "平和が丘西町",
    "town_kana": "ヘイワガオカニシマチ",
    "street": null,
    "office_name": null,
    "office_name_kana": null
  },
  "0051": {
    "zip_code": "8800051",
    "prefecture": "宮崎県",
    "prefecture_kana": "ミヤザキケン",
    "prefecture_code": "45",
    "city": "宮崎市",
    "city_kana": "ミヤザキシ",
    "town": "江平西",
    "town_kana": "エヒラニシ",
    "street": null,
    "office_name": null,
    "office_name_kana": null
  },
  "0052": {
    "zip_code": "8800052",
    "prefecture": "宮崎県",
    "prefecture_kana": "ミヤザキケン",
    "prefecture_code": "45",
    "city": "宮崎市",
    "city_kana": "ミヤザキシ",
    "town": "丸山",
    "town_kana": "マルヤマ",
    "street": null,
    "office_name": null,
    "office_name_kana": null
  },
  "0053": {
    "zip_code": "8800053",
    "prefecture": "宮崎県",
    "prefecture_kana": "ミヤザキケン",
    "prefecture_code": "45",
    "city": "宮崎市",
    "city_kana": "ミヤザキシ",
    "town": "神宮",
    "town_kana": "ジングウ",
    "street": null,
    "office_name": null,
    "office_name_kana": null
  },
  "0054": {
    "zip_code": "8800054",
    "prefecture": "宮崎県",
    "prefecture_kana": "ミヤザキケン",
    "prefecture_code": "45",
    "city": "宮崎市",
    "city_kana": "ミヤザキシ",
    "town": "神宮町",
    "town_kana": "ジングウチョウ",
    "street": null,
    "office_name": null,
    "office_name_kana": null
  },
  "0055": {
    "zip_code": "8800055",
    "prefecture": "宮崎県",
    "prefecture_kana": "ミヤザキケン",
    "prefecture_code": "45",
    "city": "宮崎市",
    "city_kana": "ミヤザキシ",
    "town": "南花ケ島町",
    "town_kana": "ミナミハナガシマチョウ",
    "street": null,
    "office_name": null,
    "office_name_kana": null
  },
  "0056": {
    "zip_code": "8800056",
    "prefecture": "宮崎県",
    "prefecture_kana": "ミヤザキケン",
    "prefecture_code": "45",
    "city": "宮崎市",
    "city_kana": "ミヤザキシ",
    "town": "神宮東",
    "town_kana": "ジングウヒガシ",
    "street": null,
    "office_name": null,
    "office_name_kana": null
  },
  "0057": {
    "zip_code": "8800057",
    "prefecture": "宮崎県",
    "prefecture_kana": "ミヤザキケン",
    "prefecture_code": "45",
    "city": "宮崎市",
    "city_kana": "ミヤザキシ",
    "town": "桜町",
    "town_kana": "サクラマチ",
    "street": null,
    "office_name": null,
    "office_name_kana": null
  },
  "0121": {
    "zip_code": "8800121",
    "prefecture": "宮崎県",
    "prefecture_kana": "ミヤザキケン",
    "prefecture_code": "45",
    "city": "宮崎市",
    "city_kana": "ミヤザキシ",
    "town": "島之内",
    "town_kana": "シマノウチ",
    "street": null,
    "office_name": null,
    "office_name_kana": null
  },
  "0122": {
    "zip_code": "8800122",
    "prefecture": "宮崎県",
    "prefecture_kana": "ミヤザキケン",
    "prefecture_code": "45",
    "city": "宮崎市",
    "city_kana": "ミヤザキシ",
    "town": "塩路",
    "town_kana": "シオジ",
    "street": null,
    "office_name": null,
    "office_name_kana": null
  },
  "0123": {
    "zip_code": "8800123",
    "prefecture": "宮崎県",
    "prefecture_kana": "ミヤザキケン",
    "prefecture_code": "45",
    "city": "宮崎市",
    "city_kana": "ミヤザキシ",
    "town": "芳士",
    "town_kana": "ホウジ",
    "street": null,
    "office_name": null,
    "office_name_kana": null
  },
  "0124": {
    "zip_code": "8800124",
    "prefecture": "宮崎県",
    "prefecture_kana": "ミヤザキケン",
    "prefecture_code": "45",
    "city": "宮崎市",
    "city_kana": "ミヤザキシ",
    "town": "新名爪",
    "town_kana": "ニイナヅメ",
    "street": null,
    "office_name": null,
    "office_name_kana": null
  },
  "0125": {
    "zip_code": "8800125",
    "prefecture": "宮崎県",
    "prefecture_kana": "ミヤザキケン",
    "prefecture_code": "45",
    "city": "宮崎市",
    "city_kana": "ミヤザキシ",
    "town": "広原",
    "town_kana": "ヒロハラ",
    "street": null,
    "office_name": null,
    "office_name_kana": null
  },
  "0204": {
    "zip_code": "8800204",
    "prefecture": "宮崎県",
    "prefecture_kana": "ミヤザキケン",
    "prefecture_code": "45",
    "city": "宮崎市",
    "city_kana": "ミヤザキシ",
    "town": "佐土原町下富田",
    "town_kana": "サドワラチョウシモトンダ",
    "street": null,
    "office_name": null,
    "office_name_kana": null
  },
  "0211": {
    "zip_code": "8800211",
    "prefecture": "宮崎県",
    "prefecture_kana": "ミヤザキケン",
    "prefecture_code": "45",
    "city": "宮崎市",
    "city_kana": "ミヤザキシ",
    "town": "佐土原町下田島",
    "town_kana": "サドワラチョウシモタジマ",
    "street": null,
    "office_name": null,
    "office_name_kana": null
  },
  "0212": {
    "zip_code": "8800212",
    "prefecture": "宮崎県",
    "prefecture_kana": "ミヤザキケン",
    "prefecture_code": "45",
    "city": "宮崎市",
    "city_kana": "ミヤザキシ",
    "town": "佐土原町下那珂",
    "town_kana": "サドワラチョウシモナカ",
    "street": null,
    "office_name": null,
    "office_name_kana": null
  },
  "0213": {
    "zip_code": "8800213",
    "prefecture": "宮崎県",
    "prefecture_kana": "ミヤザキケン",
    "prefecture_code": "45",
    "city": "宮崎市",
    "city_kana": "ミヤザキシ",
    "town": "佐土原町石崎",
    "town_kana": "サドワラチョウイシザキ",
    "street": null,
    "office_name": null,
    "office_name_kana": null
  },
  "0214": {
    "zip_code": "8800214",
    "prefecture": "宮崎県",
    "prefecture_kana": "ミヤザキケン",
    "prefecture_code": "45",
    "city": "宮崎市",
    "city_kana": "ミヤザキシ",
    "town": "佐土原町松小路",
    "town_kana": "サドワラチョウマツコウジ",
    "street": null,
    "office_name": null,
    "office_name_kana": null
  },
  "0293": {
    "zip_code": "8800293",
    "prefecture": "宮崎県",
    "prefecture_kana": "ミヤザキケン",
    "prefecture_code": "45",
    "city": "宮崎市",
    "city_kana": "ミヤザキシ",
    "town": "佐土原町下那珂",
    "town_kana": "サドワラチョウシモナカ",
    "street": "字和田山３７００",
    "office_name": "株式会社　ホンダロック",
    "office_name_kana": "カブシキガイシヤ ホンダロツク"
  },
  "0294": {
    "zip_code": "8800294",
    "prefecture": "宮崎県",
    "prefecture_kana": "ミヤザキケン",
    "prefecture_code": "45",
    "city": "宮崎市",
    "city_kana": "ミヤザキシ",
    "town": "佐土原町下那珂",
    "town_kana": "サドワラチョウシモナカ",
    "street": "２９５７−５１",
    "office_name": "株式会社　ホンダロック　広瀬工場",
    "office_name_kana": "カブシキガイシヤ ホンダロツク ヒロセコウジヨウ"
  },
  "0295": {
    "zip_code": "8800295",
    "prefecture": "宮崎県",
    "prefecture_kana": "ミヤザキケン",
    "prefecture_code": "45",
    "city": "宮崎市",
    "city_kana": "ミヤザキシ",
    "town": "佐土原町下田島",
    "town_kana": "サドワラチョウシモタジマ",
    "street": "２００４８",
    "office_name": "九州中川ヒューム管工業　株式会社",
    "office_name_kana": "キユウシユウナカガワヒユ-ムカンコウギヨウ カブシキガイシヤ"
  },
  "0297": {
    "zip_code": "8800297",
    "prefecture": "宮崎県",
    "prefecture_kana": "ミヤザキケン",
    "prefecture_code": "45",
    "city": "宮崎市",
    "city_kana": "ミヤザキシ",
    "town": "佐土原町下田島",
    "town_kana": "サドワラチョウシモタジマ",
    "street": "２０６６０",
    "office_name": "宮崎市役所　佐土原総合支所",
    "office_name_kana": "ミヤザキシヤクシヨ サドワラソウゴウシシヨ"
  },
  "0298": {
    "zip_code": "8800298",
    "prefecture": "宮崎県",
    "prefecture_kana": "ミヤザキケン",
    "prefecture_code": "45",
    "city": "宮崎市",
    "city_kana": "ミヤザキシ",
    "town": "佐土原町下田島",
    "town_kana": "サドワラチョウシモタジマ",
    "street": "７８２６−２８",
    "office_name": "宮崎松下電器　株式会社",
    "office_name_kana": "ミヤザキマツシタデンキ カブシキガイシヤ"
  },
  "0301": {
    "zip_code": "8800301",
    "prefecture": "宮崎県",
    "prefecture_kana": "ミヤザキケン",
    "prefecture_code": "45",
    "city": "宮崎市",
    "city_kana": "ミヤザキシ",
    "town": "佐土原町上田島",
    "town_kana": "サドワラチョウカミタジマ",
    "street": null,
    "office_name": null,
    "office_name_kana": null
  },
  "0302": {
    "zip_code": "8800302",
    "prefecture": "宮崎県",
    "prefecture_kana": "ミヤザキケン",
    "prefecture_code": "45",
    "city": "宮崎市",
    "city_kana": "ミヤザキシ",
    "town": "佐土原町西上那珂",
    "town_kana": "サドワラチョウニシカミナカ",
    "street": null,
    "office_name": null,
    "office_name_kana": null
  },
  "0303": {
    "zip_code": "8800303",
    "prefecture": "宮崎県",
    "prefecture_kana": "ミヤザキケン",
    "prefecture_code": "45",
    "city": "宮崎市",
    "city_kana": "ミヤザキシ",
    "town": "佐土原町東上那珂",
    "town_kana": "サドワラチョウヒガシカミナカ",
    "street": null,
    "office_name": null,
    "office_name_kana": null
  },
  "0341": {
    "zip_code": "8800341",
    "prefecture": "宮崎県",
    "prefecture_kana": "ミヤザキケン",
    "prefecture_code": "45",
    "city": "西都市",
    "city_kana": "サイトシ",
    "town": "現王島",
    "town_kana": "ゲンノウジマ",
    "street": null,
    "office_name": null,
    "office_name_kana": null
  },
  "0344": [
    {
      "zip_code": "8800344",
      "prefecture": "宮崎県",
      "prefecture_kana": "ミヤザキケン",
      "prefecture_code": "45",
      "city": "宮崎市",
      "city_kana": "ミヤザキシ",
      "town": "瓜生野",
      "town_kana": "ウリュウノ",
      "street": null,
      "office_name": null,
      "office_name_kana": null
    },
    {
      "zip_code": "8800344",
      "prefecture": "宮崎県",
      "prefecture_kana": "ミヤザキケン",
      "prefecture_code": "45",
      "city": "宮崎市",
      "city_kana": "ミヤザキシ",
      "town": "瓜生野下畑",
      "town_kana": "ウリュウノシモハタ",
      "street": null,
      "office_name": null,
      "office_name_kana": null
    }
  ],
  "0345": [
    {
      "zip_code": "8800345",
      "prefecture": "宮崎県",
      "prefecture_kana": "ミヤザキケン",
      "prefecture_code": "45",
      "city": "宮崎市",
      "city_kana": "ミヤザキシ",
      "town": "大瀬町",
      "town_kana": "オオセマチ",
      "street": null,
      "office_name": null,
      "office_name_kana": null
    },
    {
      "zip_code": "8800345",
      "prefecture": "宮崎県",
      "prefecture_kana": "ミヤザキケン",
      "prefecture_code": "45",
      "city": "宮崎市",
      "city_kana": "ミヤザキシ",
      "town": "大瀬町上畑",
      "town_kana": "オオセマチカミハタ",
      "street": null,
      "office_name": null,
      "office_name_kana": null
    }
  ],
  "0801": {
    "zip_code": "8800801",
    "prefecture": "宮崎県",
    "prefecture_kana": "ミヤザキケン",
    "prefecture_code": "45",
    "city": "宮崎市",
    "city_kana": "ミヤザキシ",
    "town": "老松",
    "town_kana": "オイマツ",
    "street": null,
    "office_name": null,
    "office_name_kana": null
  },
  "0802": {
    "zip_code": "8800802",
    "prefecture": "宮崎県",
    "prefecture_kana": "ミヤザキケン",
    "prefecture_code": "45",
    "city": "宮崎市",
    "city_kana": "ミヤザキシ",
    "town": "別府町",
    "town_kana": "ベップチョウ",
    "street": null,
    "office_name": null,
    "office_name_kana": null
  },
  "0803": {
    "zip_code": "8800803",
    "prefecture": "宮崎県",
    "prefecture_kana": "ミヤザキケン",
    "prefecture_code": "45",
    "city": "宮崎市",
    "city_kana": "ミヤザキシ",
    "town": "旭",
    "town_kana": "アサヒ",
    "street": null,
    "office_name": null,
    "office_name_kana": null
  },
  "0804": {
    "zip_code": "8800804",
    "prefecture": "宮崎県",
    "prefecture_kana": "ミヤザキケン",
    "prefecture_code": "45",
    "city": "宮崎市",
    "city_kana": "ミヤザキシ",
    "town": "宮田町",
    "town_kana": "ミヤタチョウ",
    "street": null,
    "office_name": null,
    "office_name_kana": null
  },
  "0805": {
    "zip_code": "8800805",
    "prefecture": "宮崎県",
    "prefecture_kana": "ミヤザキケン",
    "prefecture_code": "45",
    "city": "宮崎市",
    "city_kana": "ミヤザキシ",
    "town": "橘通東",
    "town_kana": "タチバナドオリヒガシ",
    "street": null,
    "office_name": null,
    "office_name_kana": null
  },
  "0806": {
    "zip_code": "8800806",
    "prefecture": "宮崎県",
    "prefecture_kana": "ミヤザキケン",
    "prefecture_code": "45",
    "city": "宮崎市",
    "city_kana": "ミヤザキシ",
    "town": "広島",
    "town_kana": "ヒロシマ",
    "street": null,
    "office_name": null,
    "office_name_kana": null
  },
  "0811": {
    "zip_code": "8800811",
    "prefecture": "宮崎県",
    "prefecture_kana": "ミヤザキケン",
    "prefecture_code": "45",
    "city": "宮崎市",
    "city_kana": "ミヤザキシ",
    "town": "錦町",
    "town_kana": "ニシキマチ",
    "street": null,
    "office_name": null,
    "office_name_kana": null
  },
  "0812": {
    "zip_code": "8800812",
    "prefecture": "宮崎県",
    "prefecture_kana": "ミヤザキケン",
    "prefecture_code": "45",
    "city": "宮崎市",
    "city_kana": "ミヤザキシ",
    "town": "高千穂通",
    "town_kana": "タカチホドオリ",
    "street": null,
    "office_name": null,
    "office_name_kana": null
  },
  "0813": {
    "zip_code": "8800813",
    "prefecture": "宮崎県",
    "prefecture_kana": "ミヤザキケン",
    "prefecture_code": "45",
    "city": "宮崎市",
    "city_kana": "ミヤザキシ",
    "town": "丸島町",
    "town_kana": "マルシマチョウ",
    "street": null,
    "office_name": null,
    "office_name_kana": null
  },
  "0814": {
    "zip_code": "8800814",
    "prefecture": "宮崎県",
    "prefecture_kana": "ミヤザキケン",
    "prefecture_code": "45",
    "city": "宮崎市",
    "city_kana": "ミヤザキシ",
    "town": "江平中町",
    "town_kana": "エヒラナカマチ",
    "street": null,
    "office_name": null,
    "office_name_kana": null
  },
  "0815": {
    "zip_code": "8800815",
    "prefecture": "宮崎県",
    "prefecture_kana": "ミヤザキケン",
    "prefecture_code": "45",
    "city": "宮崎市",
    "city_kana": "ミヤザキシ",
    "town": "江平町",
    "town_kana": "エヒラチョウ",
    "street": null,
    "office_name": null,
    "office_name_kana": null
  },
  "0816": {
    "zip_code": "8800816",
    "prefecture": "宮崎県",
    "prefecture_kana": "ミヤザキケン",
    "prefecture_code": "45",
    "city": "宮崎市",
    "city_kana": "ミヤザキシ",
    "town": "江平東",
    "town_kana": "エヒラヒガシ",
    "street": null,
    "office_name": null,
    "office_name_kana": null
  },
  "0817": {
    "zip_code": "8800817",
    "prefecture": "宮崎県",
    "prefecture_kana": "ミヤザキケン",
    "prefecture_code": "45",
    "city": "宮崎市",
    "city_kana": "ミヤザキシ",
    "town": "江平東町",
    "town_kana": "エヒラヒガシマチ",
    "street": null,
    "office_name": null,
    "office_name_kana": null
  },
  "0818": {
    "zip_code": "8800818",
    "prefecture": "宮崎県",
    "prefecture_kana": "ミヤザキケン",
    "prefecture_code": "45",
    "city": "宮崎市",
    "city_kana": "ミヤザキシ",
    "town": "錦本町",
    "town_kana": "ニシキホンマチ",
    "street": null,
    "office_name": null,
    "office_name_kana": null
  },
  "0821": {
    "zip_code": "8800821",
    "prefecture": "宮崎県",
    "prefecture_kana": "ミヤザキケン",
    "prefecture_code": "45",
    "city": "宮崎市",
    "city_kana": "ミヤザキシ",
    "town": "浮城町",
    "town_kana": "ウキノジョウチョウ",
    "street": null,
    "office_name": null,
    "office_name_kana": null
  },
  "0822": {
    "zip_code": "8800822",
    "prefecture": "宮崎県",
    "prefecture_kana": "ミヤザキケン",
    "prefecture_code": "45",
    "city": "宮崎市",
    "city_kana": "ミヤザキシ",
    "town": "権現町",
    "town_kana": "ゴンゲンチョウ",
    "street": null,
    "office_name": null,
    "office_name_kana": null
  },
  "0823": {
    "zip_code": "8800823",
    "prefecture": "宮崎県",
    "prefecture_kana": "ミヤザキケン",
    "prefecture_code": "45",
    "city": "宮崎市",
    "city_kana": "ミヤザキシ",
    "town": "北権現町",
    "town_kana": "キタゴンゲンチョウ",
    "street": null,
    "office_name": null,
    "office_name_kana": null
  },
  "0824": {
    "zip_code": "8800824",
    "prefecture": "宮崎県",
    "prefecture_kana": "ミヤザキケン",
    "prefecture_code": "45",
    "city": "宮崎市",
    "city_kana": "ミヤザキシ",
    "town": "大島町",
    "town_kana": "オオシマチョウ",
    "street": null,
    "office_name": null,
    "office_name_kana": null
  },
  "0825": {
    "zip_code": "8800825",
    "prefecture": "宮崎県",
    "prefecture_kana": "ミヤザキケン",
    "prefecture_code": "45",
    "city": "宮崎市",
    "city_kana": "ミヤザキシ",
    "town": "東大宮",
    "town_kana": "ヒガシオオミヤ",
    "street": null,
    "office_name": null,
    "office_name_kana": null
  },
  "0826": {
    "zip_code": "8800826",
    "prefecture": "宮崎県",
    "prefecture_kana": "ミヤザキケン",
    "prefecture_code": "45",
    "city": "宮崎市",
    "city_kana": "ミヤザキシ",
    "town": "波島",
    "town_kana": "ナミシマ",
    "street": null,
    "office_name": null,
    "office_name_kana": null
  },
  "0831": {
    "zip_code": "8800831",
    "prefecture": "宮崎県",
    "prefecture_kana": "ミヤザキケン",
    "prefecture_code": "45",
    "city": "宮崎市",
    "city_kana": "ミヤザキシ",
    "town": "新栄町",
    "town_kana": "シンエイチョウ",
    "street": null,
    "office_name": null,
    "office_name_kana": null
  },
  "0832": {
    "zip_code": "8800832",
    "prefecture": "宮崎県",
    "prefecture_kana": "ミヤザキケン",
    "prefecture_code": "45",
    "city": "宮崎市",
    "city_kana": "ミヤザキシ",
    "town": "稗原町",
    "town_kana": "ヒエバルチョウ",
    "street": null,
    "office_name": null,
    "office_name_kana": null
  },
  "0833": {
    "zip_code": "8800833",
    "prefecture": "宮崎県",
    "prefecture_kana": "ミヤザキケン",
    "prefecture_code": "45",
    "city": "宮崎市",
    "city_kana": "ミヤザキシ",
    "town": "昭栄町",
    "town_kana": "ショウエイチョウ",
    "street": null,
    "office_name": null,
    "office_name_kana": null
  },
  "0834": {
    "zip_code": "8800834",
    "prefecture": "宮崎県",
    "prefecture_kana": "ミヤザキケン",
    "prefecture_code": "45",
    "city": "宮崎市",
    "city_kana": "ミヤザキシ",
    "town": "新別府町",
    "town_kana": "シンベップチョウ",
    "street": null,
    "office_name": null,
    "office_name_kana": null
  },
  "0835": {
    "zip_code": "8800835",
    "prefecture": "宮崎県",
    "prefecture_kana": "ミヤザキケン",
    "prefecture_code": "45",
    "city": "宮崎市",
    "city_kana": "ミヤザキシ",
    "town": "阿波岐原町",
    "town_kana": "アワギガハラチョウ",
    "street": null,
    "office_name": null,
    "office_name_kana": null
  },
  "0836": {
    "zip_code": "8800836",
    "prefecture": "宮崎県",
    "prefecture_kana": "ミヤザキケン",
    "prefecture_code": "45",
    "city": "宮崎市",
    "city_kana": "ミヤザキシ",
    "town": "山崎町",
    "town_kana": "ヤマサキチョウ",
    "street": null,
    "office_name": null,
    "office_name_kana": null
  },
  "0837": {
    "zip_code": "8800837",
    "prefecture": "宮崎県",
    "prefecture_kana": "ミヤザキケン",
    "prefecture_code": "45",
    "city": "宮崎市",
    "city_kana": "ミヤザキシ",
    "town": "村角町",
    "town_kana": "ムラスミチョウ",
    "street": null,
    "office_name": null,
    "office_name_kana": null
  },
  "0841": {
    "zip_code": "8800841",
    "prefecture": "宮崎県",
    "prefecture_kana": "ミヤザキケン",
    "prefecture_code": "45",
    "city": "宮崎市",
    "city_kana": "ミヤザキシ",
    "town": "吉村町",
    "town_kana": "ヨシムラチョウ",
    "street": null,
    "office_name": null,
    "office_name_kana": null
  },
  "0842": {
    "zip_code": "8800842",
    "prefecture": "宮崎県",
    "prefecture_kana": "ミヤザキケン",
    "prefecture_code": "45",
    "city": "宮崎市",
    "city_kana": "ミヤザキシ",
    "town": "青葉町",
    "town_kana": "アオバチョウ",
    "street": null,
    "office_name": null,
    "office_name_kana": null
  },
  "0843": {
    "zip_code": "8800843",
    "prefecture": "宮崎県",
    "prefecture_kana": "ミヤザキケン",
    "prefecture_code": "45",
    "city": "宮崎市",
    "city_kana": "ミヤザキシ",
    "town": "下原町",
    "town_kana": "シモハラチョウ",
    "street": null,
    "office_name": null,
    "office_name_kana": null
  },
  "0844": {
    "zip_code": "8800844",
    "prefecture": "宮崎県",
    "prefecture_kana": "ミヤザキケン",
    "prefecture_code": "45",
    "city": "宮崎市",
    "city_kana": "ミヤザキシ",
    "town": "柳丸町",
    "town_kana": "ヤナギマルチョウ",
    "street": null,
    "office_name": null,
    "office_name_kana": null
  },
  "0845": {
    "zip_code": "8800845",
    "prefecture": "宮崎県",
    "prefecture_kana": "ミヤザキケン",
    "prefecture_code": "45",
    "city": "宮崎市",
    "city_kana": "ミヤザキシ",
    "town": "新城町",
    "town_kana": "シンジョウチョウ",
    "street": null,
    "office_name": null,
    "office_name_kana": null
  },
  "0851": {
    "zip_code": "8800851",
    "prefecture": "宮崎県",
    "prefecture_kana": "ミヤザキケン",
    "prefecture_code": "45",
    "city": "宮崎市",
    "city_kana": "ミヤザキシ",
    "town": "港東",
    "town_kana": "ミナトヒガシ",
    "street": null,
    "office_name": null,
    "office_name_kana": null
  },
  "0852": {
    "zip_code": "8800852",
    "prefecture": "宮崎県",
    "prefecture_kana": "ミヤザキケン",
    "prefecture_code": "45",
    "city": "宮崎市",
    "city_kana": "ミヤザキシ",
    "town": "高洲町",
    "town_kana": "タカスチョウ",
    "street": null,
    "office_name": null,
    "office_name_kana": null
  },
  "0853": {
    "zip_code": "8800853",
    "prefecture": "宮崎県",
    "prefecture_kana": "ミヤザキケン",
    "prefecture_code": "45",
    "city": "宮崎市",
    "city_kana": "ミヤザキシ",
    "town": "中西町",
    "town_kana": "ナカニシチョウ",
    "street": null,
    "office_name": null,
    "office_name_kana": null
  },
  "0854": {
    "zip_code": "8800854",
    "prefecture": "宮崎県",
    "prefecture_kana": "ミヤザキケン",
    "prefecture_code": "45",
    "city": "宮崎市",
    "city_kana": "ミヤザキシ",
    "town": "一の宮町",
    "town_kana": "イチノミヤチョウ",
    "street": null,
    "office_name": null,
    "office_name_kana": null
  },
  "0855": {
    "zip_code": "8800855",
    "prefecture": "宮崎県",
    "prefecture_kana": "ミヤザキケン",
    "prefecture_code": "45",
    "city": "宮崎市",
    "city_kana": "ミヤザキシ",
    "town": "田代町",
    "town_kana": "タシロチョウ",
    "street": null,
    "office_name": null,
    "office_name_kana": null
  },
  "0856": {
    "zip_code": "8800856",
    "prefecture": "宮崎県",
    "prefecture_kana": "ミヤザキケン",
    "prefecture_code": "45",
    "city": "宮崎市",
    "city_kana": "ミヤザキシ",
    "town": "日ノ出町",
    "town_kana": "ヒノデチョウ",
    "street": null,
    "office_name": null,
    "office_name_kana": null
  },
  "0857": {
    "zip_code": "8800857",
    "prefecture": "宮崎県",
    "prefecture_kana": "ミヤザキケン",
    "prefecture_code": "45",
    "city": "宮崎市",
    "city_kana": "ミヤザキシ",
    "town": "小戸町",
    "town_kana": "オドチョウ",
    "street": null,
    "office_name": null,
    "office_name_kana": null
  },
  "0858": {
    "zip_code": "8800858",
    "prefecture": "宮崎県",
    "prefecture_kana": "ミヤザキケン",
    "prefecture_code": "45",
    "city": "宮崎市",
    "city_kana": "ミヤザキシ",
    "town": "港",
    "town_kana": "ミナト",
    "street": null,
    "office_name": null,
    "office_name_kana": null
  },
  "0861": {
    "zip_code": "8800861",
    "prefecture": "宮崎県",
    "prefecture_kana": "ミヤザキケン",
    "prefecture_code": "45",
    "city": "宮崎市",
    "city_kana": "ミヤザキシ",
    "town": "出来島町",
    "town_kana": "デキジマチョウ",
    "street": null,
    "office_name": null,
    "office_name_kana": null
  },
  "0862": {
    "zip_code": "8800862",
    "prefecture": "宮崎県",
    "prefecture_kana": "ミヤザキケン",
    "prefecture_code": "45",
    "city": "宮崎市",
    "city_kana": "ミヤザキシ",
    "town": "潮見町",
    "town_kana": "シオミチョウ",
    "street": null,
    "office_name": null,
    "office_name_kana": null
  },
  "0863": {
    "zip_code": "8800863",
    "prefecture": "宮崎県",
    "prefecture_kana": "ミヤザキケン",
    "prefecture_code": "45",
    "city": "宮崎市",
    "city_kana": "ミヤザキシ",
    "town": "前原町",
    "town_kana": "マエバルチョウ",
    "street": null,
    "office_name": null,
    "office_name_kana": null
  },
  "0864": {
    "zip_code": "8800864",
    "prefecture": "宮崎県",
    "prefecture_kana": "ミヤザキケン",
    "prefecture_code": "45",
    "city": "宮崎市",
    "city_kana": "ミヤザキシ",
    "town": "吾妻町",
    "town_kana": "アヅマチョウ",
    "street": null,
    "office_name": null,
    "office_name_kana": null
  },
  "0865": {
    "zip_code": "8800865",
    "prefecture": "宮崎県",
    "prefecture_kana": "ミヤザキケン",
    "prefecture_code": "45",
    "city": "宮崎市",
    "city_kana": "ミヤザキシ",
    "town": "松山",
    "town_kana": "マツヤマ",
    "street": null,
    "office_name": null,
    "office_name_kana": null
  },
  "0866": {
    "zip_code": "8800866",
    "prefecture": "宮崎県",
    "prefecture_kana": "ミヤザキケン",
    "prefecture_code": "45",
    "city": "宮崎市",
    "city_kana": "ミヤザキシ",
    "town": "川原町",
    "town_kana": "カワラマチ",
    "street": null,
    "office_name": null,
    "office_name_kana": null
  },
  "0867": {
    "zip_code": "8800867",
    "prefecture": "宮崎県",
    "prefecture_kana": "ミヤザキケン",
    "prefecture_code": "45",
    "city": "宮崎市",
    "city_kana": "ミヤザキシ",
    "town": "瀬頭",
    "town_kana": "セガシラ",
    "street": null,
    "office_name": null,
    "office_name_kana": null
  },
  "0868": {
    "zip_code": "8800868",
    "prefecture": "宮崎県",
    "prefecture_kana": "ミヤザキケン",
    "prefecture_code": "45",
    "city": "宮崎市",
    "city_kana": "ミヤザキシ",
    "town": "瀬頭町",
    "town_kana": "セガシラチョウ",
    "street": null,
    "office_name": null,
    "office_name_kana": null
  },
  "0871": {
    "zip_code": "8800871",
    "prefecture": "宮崎県",
    "prefecture_kana": "ミヤザキケン",
    "prefecture_code": "45",
    "city": "宮崎市",
    "city_kana": "ミヤザキシ",
    "town": "大王町",
    "town_kana": "ダイオウチョウ",
    "street": null,
    "office_name": null,
    "office_name_kana": null
  },
  "0872": {
    "zip_code": "8800872",
    "prefecture": "宮崎県",
    "prefecture_kana": "ミヤザキケン",
    "prefecture_code": "45",
    "city": "宮崎市",
    "city_kana": "ミヤザキシ",
    "town": "永楽町",
    "town_kana": "エイラクチョウ",
    "street": null,
    "office_name": null,
    "office_name_kana": null
  },
  "0873": {
    "zip_code": "8800873",
    "prefecture": "宮崎県",
    "prefecture_kana": "ミヤザキケン",
    "prefecture_code": "45",
    "city": "宮崎市",
    "city_kana": "ミヤザキシ",
    "town": "堀川町",
    "town_kana": "ホリカワチョウ",
    "street": null,
    "office_name": null,
    "office_name_kana": null
  },
  "0874": {
    "zip_code": "8800874",
    "prefecture": "宮崎県",
    "prefecture_kana": "ミヤザキケン",
    "prefecture_code": "45",
    "city": "宮崎市",
    "city_kana": "ミヤザキシ",
    "town": "昭和町",
    "town_kana": "ショウワチョウ",
    "street": null,
    "office_name": null,
    "office_name_kana": null
  },
  "0875": {
    "zip_code": "8800875",
    "prefecture": "宮崎県",
    "prefecture_kana": "ミヤザキケン",
    "prefecture_code": "45",
    "city": "宮崎市",
    "city_kana": "ミヤザキシ",
    "town": "曽師町",
    "town_kana": "ソシチョウ",
    "street": null,
    "office_name": null,
    "office_name_kana": null
  },
  "0876": {
    "zip_code": "8800876",
    "prefecture": "宮崎県",
    "prefecture_kana": "ミヤザキケン",
    "prefecture_code": "45",
    "city": "宮崎市",
    "city_kana": "ミヤザキシ",
    "town": "浄土江町",
    "town_kana": "ジョウドエチョウ",
    "street": null,
    "office_name": null,
    "office_name_kana": null
  },
  "0877": {
    "zip_code": "8800877",
    "prefecture": "宮崎県",
    "prefecture_kana": "ミヤザキケン",
    "prefecture_code": "45",
    "city": "宮崎市",
    "city_kana": "ミヤザキシ",
    "town": "宮脇町",
    "town_kana": "ミヤワキチョウ",
    "street": null,
    "office_name": null,
    "office_name_kana": null
  },
  "0878": {
    "zip_code": "8800878",
    "prefecture": "宮崎県",
    "prefecture_kana": "ミヤザキケン",
    "prefecture_code": "45",
    "city": "宮崎市",
    "city_kana": "ミヤザキシ",
    "town": "大和町",
    "town_kana": "ヤマトチョウ",
    "street": null,
    "office_name": null,
    "office_name_kana": null
  },
  "0879": {
    "zip_code": "8800879",
    "prefecture": "宮崎県",
    "prefecture_kana": "ミヤザキケン",
    "prefecture_code": "45",
    "city": "宮崎市",
    "city_kana": "ミヤザキシ",
    "town": "宮崎駅東",
    "town_kana": "ミヤザキエキヒガシ",
    "street": null,
    "office_name": null,
    "office_name_kana": null
  },
  "0901": {
    "zip_code": "8800901",
    "prefecture": "宮崎県",
    "prefecture_kana": "ミヤザキケン",
    "prefecture_code": "45",
    "city": "宮崎市",
    "city_kana": "ミヤザキシ",
    "town": "東大淀",
    "town_kana": "ヒガシオオヨド",
    "street": null,
    "office_name": null,
    "office_name_kana": null
  },
  "0902": {
    "zip_code": "8800902",
    "prefecture": "宮崎県",
    "prefecture_kana": "ミヤザキケン",
    "prefecture_code": "45",
    "city": "宮崎市",
    "city_kana": "ミヤザキシ",
    "town": "大淀",
    "town_kana": "オオヨド",
    "street": null,
    "office_name": null,
    "office_name_kana": null
  },
  "0903": {
    "zip_code": "8800903",
    "prefecture": "宮崎県",
    "prefecture_kana": "ミヤザキケン",
    "prefecture_code": "45",
    "city": "宮崎市",
    "city_kana": "ミヤザキシ",
    "town": "太田",
    "town_kana": "オオタ",
    "street": null,
    "office_name": null,
    "office_name_kana": null
  },
  "0904": {
    "zip_code": "8800904",
    "prefecture": "宮崎県",
    "prefecture_kana": "ミヤザキケン",
    "prefecture_code": "45",
    "city": "宮崎市",
    "city_kana": "ミヤザキシ",
    "town": "中村東",
    "town_kana": "ナカムラヒガシ",
    "street": null,
    "office_name": null,
    "office_name_kana": null
  },
  "0905": {
    "zip_code": "8800905",
    "prefecture": "宮崎県",
    "prefecture_kana": "ミヤザキケン",
    "prefecture_code": "45",
    "city": "宮崎市",
    "city_kana": "ミヤザキシ",
    "town": "中村西",
    "town_kana": "ナカムラニシ",
    "street": null,
    "office_name": null,
    "office_name_kana": null
  },
  "0906": {
    "zip_code": "8800906",
    "prefecture": "宮崎県",
    "prefecture_kana": "ミヤザキケン",
    "prefecture_code": "45",
    "city": "宮崎市",
    "city_kana": "ミヤザキシ",
    "town": "南町",
    "town_kana": "ミナミマチ",
    "street": null,
    "office_name": null,
    "office_name_kana": null
  },
  "0907": {
    "zip_code": "8800907",
    "prefecture": "宮崎県",
    "prefecture_kana": "ミヤザキケン",
    "prefecture_code": "45",
    "city": "宮崎市",
    "city_kana": "ミヤザキシ",
    "town": "淀川",
    "town_kana": "ヨドガワ",
    "street": null,
    "office_name": null,
    "office_name_kana": null
  },
  "0908": {
    "zip_code": "8800908",
    "prefecture": "宮崎県",
    "prefecture_kana": "ミヤザキケン",
    "prefecture_code": "45",
    "city": "宮崎市",
    "city_kana": "ミヤザキシ",
    "town": "谷川",
    "town_kana": "タニガワ",
    "street": null,
    "office_name": null,
    "office_name_kana": null
  },
  "0909": {
    "zip_code": "8800909",
    "prefecture": "宮崎県",
    "prefecture_kana": "ミヤザキケン",
    "prefecture_code": "45",
    "city": "宮崎市",
    "city_kana": "ミヤザキシ",
    "town": "谷川町",
    "town_kana": "タニガワチョウ",
    "street": null,
    "office_name": null,
    "office_name_kana": null
  },
  "0911": {
    "zip_code": "8800911",
    "prefecture": "宮崎県",
    "prefecture_kana": "ミヤザキケン",
    "prefecture_code": "45",
    "city": "宮崎市",
    "city_kana": "ミヤザキシ",
    "town": "田吉",
    "town_kana": "タヨシ",
    "street": null,
    "office_name": null,
    "office_name_kana": null
  },
  "0912": {
    "zip_code": "8800912",
    "prefecture": "宮崎県",
    "prefecture_kana": "ミヤザキケン",
    "prefecture_code": "45",
    "city": "宮崎市",
    "city_kana": "ミヤザキシ",
    "town": "赤江",
    "town_kana": "アカエ",
    "street": null,
    "office_name": null,
    "office_name_kana": null
  },
  "0913": {
    "zip_code": "8800913",
    "prefecture": "宮崎県",
    "prefecture_kana": "ミヤザキケン",
    "prefecture_code": "45",
    "city": "宮崎市",
    "city_kana": "ミヤザキシ",
    "town": "恒久",
    "town_kana": "ツネヒサ",
    "street": null,
    "office_name": null,
    "office_name_kana": null
  },
  "0914": {
    "zip_code": "8800914",
    "prefecture": "宮崎県",
    "prefecture_kana": "ミヤザキケン",
    "prefecture_code": "45",
    "city": "宮崎市",
    "city_kana": "ミヤザキシ",
    "town": "宮の元町",
    "town_kana": "ミヤノモトマチ",
    "street": null,
    "office_name": null,
    "office_name_kana": null
  },
  "0915": {
    "zip_code": "8800915",
    "prefecture": "宮崎県",
    "prefecture_kana": "ミヤザキケン",
    "prefecture_code": "45",
    "city": "宮崎市",
    "city_kana": "ミヤザキシ",
    "town": "恒久南",
    "town_kana": "ツネヒサミナミ",
    "street": null,
    "office_name": null,
    "office_name_kana": null
  },
  "0916": {
    "zip_code": "8800916",
    "prefecture": "宮崎県",
    "prefecture_kana": "ミヤザキケン",
    "prefecture_code": "45",
    "city": "宮崎市",
    "city_kana": "ミヤザキシ",
    "town": "恒久",
    "town_kana": "ツネヒサ",
    "street": null,
    "office_name": null,
    "office_name_kana": null
  },
  "0917": {
    "zip_code": "8800917",
    "prefecture": "宮崎県",
    "prefecture_kana": "ミヤザキケン",
    "prefecture_code": "45",
    "city": "宮崎市",
    "city_kana": "ミヤザキシ",
    "town": "城ケ崎",
    "town_kana": "ジョウガサキ",
    "street": null,
    "office_name": null,
    "office_name_kana": null
  },
  "0921": {
    "zip_code": "8800921",
    "prefecture": "宮崎県",
    "prefecture_kana": "ミヤザキケン",
    "prefecture_code": "45",
    "city": "宮崎市",
    "city_kana": "ミヤザキシ",
    "town": "本郷南方",
    "town_kana": "ホンゴウミナミカタ",
    "street": null,
    "office_name": null,
    "office_name_kana": null
  },
  "0922": {
    "zip_code": "8800922",
    "prefecture": "宮崎県",
    "prefecture_kana": "ミヤザキケン",
    "prefecture_code": "45",
    "city": "宮崎市",
    "city_kana": "ミヤザキシ",
    "town": "本郷",
    "town_kana": "ホンゴウ",
    "street": null,
    "office_name": null,
    "office_name_kana": null
  },
  "0923": {
    "zip_code": "8800923",
    "prefecture": "宮崎県",
    "prefecture_kana": "ミヤザキケン",
    "prefecture_code": "45",
    "city": "宮崎市",
    "city_kana": "ミヤザキシ",
    "town": "希望ケ丘",
    "town_kana": "キボウガオカ",
    "street": null,
    "office_name": null,
    "office_name_kana": null
  },
  "0924": {
    "zip_code": "8800924",
    "prefecture": "宮崎県",
    "prefecture_kana": "ミヤザキケン",
    "prefecture_code": "45",
    "city": "宮崎市",
    "city_kana": "ミヤザキシ",
    "town": "郡司分",
    "town_kana": "グジブン",
    "street": null,
    "office_name": null,
    "office_name_kana": null
  },
  "0925": {
    "zip_code": "8800925",
    "prefecture": "宮崎県",
    "prefecture_kana": "ミヤザキケン",
    "prefecture_code": "45",
    "city": "宮崎市",
    "city_kana": "ミヤザキシ",
    "town": "本郷北方",
    "town_kana": "ホンゴウキタカタ",
    "street": null,
    "office_name": null,
    "office_name_kana": null
  },
  "0926": {
    "zip_code": "8800926",
    "prefecture": "宮崎県",
    "prefecture_kana": "ミヤザキケン",
    "prefecture_code": "45",
    "city": "宮崎市",
    "city_kana": "ミヤザキシ",
    "town": "月見ケ丘",
    "town_kana": "ツキミガオカ",
    "street": null,
    "office_name": null,
    "office_name_kana": null
  },
  "0927": {
    "zip_code": "8800927",
    "prefecture": "宮崎県",
    "prefecture_kana": "ミヤザキケン",
    "prefecture_code": "45",
    "city": "宮崎市",
    "city_kana": "ミヤザキシ",
    "town": "源藤町",
    "town_kana": "ゲンドウチョウ",
    "street": null,
    "office_name": null,
    "office_name_kana": null
  },
  "0928": {
    "zip_code": "8800928",
    "prefecture": "宮崎県",
    "prefecture_kana": "ミヤザキケン",
    "prefecture_code": "45",
    "city": "宮崎市",
    "city_kana": "ミヤザキシ",
    "town": "東宮",
    "town_kana": "トウグウ",
    "street": null,
    "office_name": null,
    "office_name_kana": null
  },
  "0929": {
    "zip_code": "8800929",
    "prefecture": "宮崎県",
    "prefecture_kana": "ミヤザキケン",
    "prefecture_code": "45",
    "city": "宮崎市",
    "city_kana": "ミヤザキシ",
    "town": "まなび野",
    "town_kana": "マナビノ",
    "street": null,
    "office_name": null,
    "office_name_kana": null
  },
  "0930": {
    "zip_code": "8800930",
    "prefecture": "宮崎県",
    "prefecture_kana": "ミヤザキケン",
    "prefecture_code": "45",
    "city": "宮崎市",
    "city_kana": "ミヤザキシ",
    "town": "花山手東",
    "town_kana": "ハナヤマテヒガシ",
    "street": null,
    "office_name": null,
    "office_name_kana": null
  },
  "0931": {
    "zip_code": "8800931",
    "prefecture": "宮崎県",
    "prefecture_kana": "ミヤザキケン",
    "prefecture_code": "45",
    "city": "宮崎市",
    "city_kana": "ミヤザキシ",
    "town": "古城町",
    "town_kana": "フルジョウチョウ",
    "street": null,
    "office_name": null,
    "office_name_kana": null
  },
  "0932": {
    "zip_code": "8800932",
    "prefecture": "宮崎県",
    "prefecture_kana": "ミヤザキケン",
    "prefecture_code": "45",
    "city": "宮崎市",
    "city_kana": "ミヤザキシ",
    "town": "大坪西",
    "town_kana": "オオツボニシ",
    "street": null,
    "office_name": null,
    "office_name_kana": null
  },
  "0933": {
    "zip_code": "8800933",
    "prefecture": "宮崎県",
    "prefecture_kana": "ミヤザキケン",
    "prefecture_code": "45",
    "city": "宮崎市",
    "city_kana": "ミヤザキシ",
    "town": "大坪町",
    "town_kana": "オオツボチョウ",
    "street": null,
    "office_name": null,
    "office_name_kana": null
  },
  "0934": {
    "zip_code": "8800934",
    "prefecture": "宮崎県",
    "prefecture_kana": "ミヤザキケン",
    "prefecture_code": "45",
    "city": "宮崎市",
    "city_kana": "ミヤザキシ",
    "town": "大坪東",
    "town_kana": "オオツボヒガシ",
    "street": null,
    "office_name": null,
    "office_name_kana": null
  },
  "0935": {
    "zip_code": "8800935",
    "prefecture": "宮崎県",
    "prefecture_kana": "ミヤザキケン",
    "prefecture_code": "45",
    "city": "宮崎市",
    "city_kana": "ミヤザキシ",
    "town": "天満町",
    "town_kana": "テンマンチョウ",
    "street": null,
    "office_name": null,
    "office_name_kana": null
  },
  "0936": {
    "zip_code": "8800936",
    "prefecture": "宮崎県",
    "prefecture_kana": "ミヤザキケン",
    "prefecture_code": "45",
    "city": "宮崎市",
    "city_kana": "ミヤザキシ",
    "town": "天満",
    "town_kana": "テンマン",
    "street": null,
    "office_name": null,
    "office_name_kana": null
  },
  "0937": {
    "zip_code": "8800937",
    "prefecture": "宮崎県",
    "prefecture_kana": "ミヤザキケン",
    "prefecture_code": "45",
    "city": "宮崎市",
    "city_kana": "ミヤザキシ",
    "town": "京塚",
    "town_kana": "キョウツカ",
    "street": null,
    "office_name": null,
    "office_name_kana": null
  },
  "0938": {
    "zip_code": "8800938",
    "prefecture": "宮崎県",
    "prefecture_kana": "ミヤザキケン",
    "prefecture_code": "45",
    "city": "宮崎市",
    "city_kana": "ミヤザキシ",
    "town": "京塚町",
    "town_kana": "キョウヅカチョウ",
    "street": null,
    "office_name": null,
    "office_name_kana": null
  },
  "0939": {
    "zip_code": "8800939",
    "prefecture": "宮崎県",
    "prefecture_kana": "ミヤザキケン",
    "prefecture_code": "45",
    "city": "宮崎市",
    "city_kana": "ミヤザキシ",
    "town": "花山手西",
    "town_kana": "ハナヤマテニシ",
    "street": null,
    "office_name": null,
    "office_name_kana": null
  },
  "0941": {
    "zip_code": "8800941",
    "prefecture": "宮崎県",
    "prefecture_kana": "ミヤザキケン",
    "prefecture_code": "45",
    "city": "宮崎市",
    "city_kana": "ミヤザキシ",
    "town": "北川内町",
    "town_kana": "キタカワウチチョウ",
    "street": null,
    "office_name": null,
    "office_name_kana": null
  },
  "0942": {
    "zip_code": "8800942",
    "prefecture": "宮崎県",
    "prefecture_kana": "ミヤザキケン",
    "prefecture_code": "45",
    "city": "宮崎市",
    "city_kana": "ミヤザキシ",
    "town": "生目台東",
    "town_kana": "イキメダイヒガシ",
    "street": null,
    "office_name": null,
    "office_name_kana": null
  },
  "0943": {
    "zip_code": "8800943",
    "prefecture": "宮崎県",
    "prefecture_kana": "ミヤザキケン",
    "prefecture_code": "45",
    "city": "宮崎市",
    "city_kana": "ミヤザキシ",
    "town": "生目台西",
    "town_kana": "イキメダイニシ",
    "street": null,
    "office_name": null,
    "office_name_kana": null
  },
  "0944": {
    "zip_code": "8800944",
    "prefecture": "宮崎県",
    "prefecture_kana": "ミヤザキケン",
    "prefecture_code": "45",
    "city": "宮崎市",
    "city_kana": "ミヤザキシ",
    "town": "江南",
    "town_kana": "コウナン",
    "street": null,
    "office_name": null,
    "office_name_kana": null
  },
  "0945": {
    "zip_code": "8800945",
    "prefecture": "宮崎県",
    "prefecture_kana": "ミヤザキケン",
    "prefecture_code": "45",
    "city": "宮崎市",
    "city_kana": "ミヤザキシ",
    "town": "福島町",
    "town_kana": "フクシマチョウ",
    "street": null,
    "office_name": null,
    "office_name_kana": null
  },
  "0946": {
    "zip_code": "8800946",
    "prefecture": "宮崎県",
    "prefecture_kana": "ミヤザキケン",
    "prefecture_code": "45",
    "city": "宮崎市",
    "city_kana": "ミヤザキシ",
    "town": "福島町",
    "town_kana": "フクシマチョウ",
    "street": null,
    "office_name": null,
    "office_name_kana": null
  },
  "0947": {
    "zip_code": "8800947",
    "prefecture": "宮崎県",
    "prefecture_kana": "ミヤザキケン",
    "prefecture_code": "45",
    "city": "宮崎市",
    "city_kana": "ミヤザキシ",
    "town": "薫る坂",
    "town_kana": "カオルザカ",
    "street": null,
    "office_name": null,
    "office_name_kana": null
  },
  "0951": {
    "zip_code": "8800951",
    "prefecture": "宮崎県",
    "prefecture_kana": "ミヤザキケン",
    "prefecture_code": "45",
    "city": "宮崎市",
    "city_kana": "ミヤザキシ",
    "town": "大塚町",
    "town_kana": "オオツカチョウ",
    "street": null,
    "office_name": null,
    "office_name_kana": null
  },
  "0952": {
    "zip_code": "8800952",
    "prefecture": "宮崎県",
    "prefecture_kana": "ミヤザキケン",
    "prefecture_code": "45",
    "city": "宮崎市",
    "city_kana": "ミヤザキシ",
    "town": "大塚台東",
    "town_kana": "オオツカダイヒガシ",
    "street": null,
    "office_name": null,
    "office_name_kana": null
  },
  "0953": {
    "zip_code": "8800953",
    "prefecture": "宮崎県",
    "prefecture_kana": "ミヤザキケン",
    "prefecture_code": "45",
    "city": "宮崎市",
    "city_kana": "ミヤザキシ",
    "town": "小松台東",
    "town_kana": "コマツダイヒガシ",
    "street": null,
    "office_name": null,
    "office_name_kana": null
  },
  "0954": {
    "zip_code": "8800954",
    "prefecture": "宮崎県",
    "prefecture_kana": "ミヤザキケン",
    "prefecture_code": "45",
    "city": "宮崎市",
    "city_kana": "ミヤザキシ",
    "town": "小松台西",
    "town_kana": "コマツダイニシ",
    "street": null,
    "office_name": null,
    "office_name_kana": null
  },
  "0955": {
    "zip_code": "8800955",
    "prefecture": "宮崎県",
    "prefecture_kana": "ミヤザキケン",
    "prefecture_code": "45",
    "city": "宮崎市",
    "city_kana": "ミヤザキシ",
    "town": "桜ケ丘町",
    "town_kana": "サクラガオカチョウ",
    "street": null,
    "office_name": null,
    "office_name_kana": null
  },
  "0956": {
    "zip_code": "8800956",
    "prefecture": "宮崎県",
    "prefecture_kana": "ミヤザキケン",
    "prefecture_code": "45",
    "city": "宮崎市",
    "city_kana": "ミヤザキシ",
    "town": "小松台南町",
    "town_kana": "コマツダイミナミマチ",
    "street": null,
    "office_name": null,
    "office_name_kana": null
  },
  "1100": {
    "zip_code": "8801100",
    "prefecture": "宮崎県",
    "prefecture_kana": "ミヤザキケン",
    "prefecture_code": "45",
    "city": "東諸県郡国富町",
    "city_kana": "ヒガシモロカタグンクニトミチョウ",
    "town": "",
    "town_kana": "",
    "street": null,
    "office_name": null,
    "office_name_kana": null
  },
  "1101": {
    "zip_code": "8801101",
    "prefecture": "宮崎県",
    "prefecture_kana": "ミヤザキケン",
    "prefecture_code": "45",
    "city": "東諸県郡国富町",
    "city_kana": "ヒガシモロカタグンクニトミチョウ",
    "town": "本庄",
    "town_kana": "ホンジョウ",
    "street": null,
    "office_name": null,
    "office_name_kana": null
  },
  "1102": {
    "zip_code": "8801102",
    "prefecture": "宮崎県",
    "prefecture_kana": "ミヤザキケン",
    "prefecture_code": "45",
    "city": "東諸県郡国富町",
    "city_kana": "ヒガシモロカタグンクニトミチョウ",
    "town": "宮王丸",
    "town_kana": "ミヤオウマル",
    "street": null,
    "office_name": null,
    "office_name_kana": null
  },
  "1103": {
    "zip_code": "8801103",
    "prefecture": "宮崎県",
    "prefecture_kana": "ミヤザキケン",
    "prefecture_code": "45",
    "city": "東諸県郡国富町",
    "city_kana": "ヒガシモロカタグンクニトミチョウ",
    "town": "嵐田",
    "town_kana": "アラシダ",
    "street": null,
    "office_name": null,
    "office_name_kana": null
  },
  "1104": {
    "zip_code": "8801104",
    "prefecture": "宮崎県",
    "prefecture_kana": "ミヤザキケン",
    "prefecture_code": "45",
    "city": "東諸県郡国富町",
    "city_kana": "ヒガシモロカタグンクニトミチョウ",
    "town": "田尻",
    "town_kana": "タジリ",
    "street": null,
    "office_name": null,
    "office_name_kana": null
  },
  "1105": {
    "zip_code": "8801105",
    "prefecture": "宮崎県",
    "prefecture_kana": "ミヤザキケン",
    "prefecture_code": "45",
    "city": "東諸県郡国富町",
    "city_kana": "ヒガシモロカタグンクニトミチョウ",
    "town": "向高",
    "town_kana": "ムコウタカ",
    "street": null,
    "office_name": null,
    "office_name_kana": null
  },
  "1106": {
    "zip_code": "8801106",
    "prefecture": "宮崎県",
    "prefecture_kana": "ミヤザキケン",
    "prefecture_code": "45",
    "city": "東諸県郡国富町",
    "city_kana": "ヒガシモロカタグンクニトミチョウ",
    "town": "森永",
    "town_kana": "モリナガ",
    "street": null,
    "office_name": null,
    "office_name_kana": null
  },
  "1107": {
    "zip_code": "8801107",
    "prefecture": "宮崎県",
    "prefecture_kana": "ミヤザキケン",
    "prefecture_code": "45",
    "city": "東諸県郡国富町",
    "city_kana": "ヒガシモロカタグンクニトミチョウ",
    "town": "竹田",
    "town_kana": "タケダ",
    "street": null,
    "office_name": null,
    "office_name_kana": null
  },
  "1108": {
    "zip_code": "8801108",
    "prefecture": "宮崎県",
    "prefecture_kana": "ミヤザキケン",
    "prefecture_code": "45",
    "city": "東諸県郡国富町",
    "city_kana": "ヒガシモロカタグンクニトミチョウ",
    "town": "須志田",
    "town_kana": "スシダ",
    "street": null,
    "office_name": null,
    "office_name_kana": null
  },
  "1111": {
    "zip_code": "8801111",
    "prefecture": "宮崎県",
    "prefecture_kana": "ミヤザキケン",
    "prefecture_code": "45",
    "city": "東諸県郡国富町",
    "city_kana": "ヒガシモロカタグンクニトミチョウ",
    "town": "岩知野",
    "town_kana": "イワチノ",
    "street": null,
    "office_name": null,
    "office_name_kana": null
  },
  "1112": {
    "zip_code": "8801112",
    "prefecture": "宮崎県",
    "prefecture_kana": "ミヤザキケン",
    "prefecture_code": "45",
    "city": "東諸県郡国富町",
    "city_kana": "ヒガシモロカタグンクニトミチョウ",
    "town": "塚原",
    "town_kana": "ツカバル",
    "street": null,
    "office_name": null,
    "office_name_kana": null
  },
  "1113": {
    "zip_code": "8801113",
    "prefecture": "宮崎県",
    "prefecture_kana": "ミヤザキケン",
    "prefecture_code": "45",
    "city": "東諸県郡国富町",
    "city_kana": "ヒガシモロカタグンクニトミチョウ",
    "town": "木脇",
    "town_kana": "キワキ",
    "street": null,
    "office_name": null,
    "office_name_kana": null
  },
  "1114": {
    "zip_code": "8801114",
    "prefecture": "宮崎県",
    "prefecture_kana": "ミヤザキケン",
    "prefecture_code": "45",
    "city": "東諸県郡国富町",
    "city_kana": "ヒガシモロカタグンクニトミチョウ",
    "town": "三名",
    "town_kana": "サンミョウ",
    "street": null,
    "office_name": null,
    "office_name_kana": null
  },
  "1121": [
    {
      "zip_code": "8801121",
      "prefecture": "宮崎県",
      "prefecture_kana": "ミヤザキケン",
      "prefecture_code": "45",
      "city": "東諸県郡国富町",
      "city_kana": "ヒガシモロカタグンクニトミチョウ",
      "town": "伊左生",
      "town_kana": "イザオ",
      "street": null,
      "office_name": null,
      "office_name_kana": null
    },
    {
      "zip_code": "8801121",
      "prefecture": "宮崎県",
      "prefecture_kana": "ミヤザキケン",
      "prefecture_code": "45",
      "city": "東諸県郡国富町",
      "city_kana": "ヒガシモロカタグンクニトミチョウ",
      "town": "伊左生吹上",
      "town_kana": "イザオフキアゲ",
      "street": null,
      "office_name": null,
      "office_name_kana": null
    }
  ],
  "1192": {
    "zip_code": "8801192",
    "prefecture": "宮崎県",
    "prefecture_kana": null,
    "prefecture_code": null,
    "city": "東諸県郡国富町",
    "city_kana": null,
    "town": "大字本庄",
    "town_kana": null,
    "street": "４８００",
    "office_name": "国富町役場",
    "office_name_kana": "クニトミチヨウヤクバ"
  },
  "1193": {
    "zip_code": "8801193",
    "prefecture": "宮崎県",
    "prefecture_kana": null,
    "prefecture_code": null,
    "city": "東諸県郡国富町",
    "city_kana": null,
    "town": "大字本庄",
    "town_kana": null,
    "street": "４４７０−１",
    "office_name": "国富町　農業協同組合",
    "office_name_kana": "クニトミチヨウ ノウギヨウキヨウドウクミアイ"
  },
  "1195": {
    "zip_code": "8801195",
    "prefecture": "宮崎県",
    "prefecture_kana": null,
    "prefecture_code": null,
    "city": "東諸県郡国富町",
    "city_kana": null,
    "town": "大字塚原",
    "town_kana": null,
    "street": "５００",
    "office_name": "協同紙工　株式会社",
    "office_name_kana": "キヨウドウシコウ カブシキガイシヤ"
  },
  "1196": {
    "zip_code": "8801196",
    "prefecture": "宮崎県",
    "prefecture_kana": null,
    "prefecture_code": null,
    "city": "東諸県郡国富町",
    "city_kana": null,
    "town": "大字森永",
    "town_kana": null,
    "street": "２９６４−５",
    "office_name": "九州オリンピア工業　株式会社",
    "office_name_kana": "キユウシユウオリンピアコウギヨウ カブシキガイシヤ"
  },
  "1221": {
    "zip_code": "8801221",
    "prefecture": "宮崎県",
    "prefecture_kana": "ミヤザキケン",
    "prefecture_code": "45",
    "city": "東諸県郡国富町",
    "city_kana": "ヒガシモロカタグンクニトミチョウ",
    "town": "伊左生",
    "town_kana": "イザオ",
    "street": null,
    "office_name": null,
    "office_name_kana": null
  },
  "1222": {
    "zip_code": "8801222",
    "prefecture": "宮崎県",
    "prefecture_kana": "ミヤザキケン",
    "prefecture_code": "45",
    "city": "東諸県郡国富町",
    "city_kana": "ヒガシモロカタグンクニトミチョウ",
    "town": "八代北俣",
    "town_kana": "ヤツシロキタマタ",
    "street": null,
    "office_name": null,
    "office_name_kana": null
  },
  "1223": {
    "zip_code": "8801223",
    "prefecture": "宮崎県",
    "prefecture_kana": "ミヤザキケン",
    "prefecture_code": "45",
    "city": "東諸県郡国富町",
    "city_kana": "ヒガシモロカタグンクニトミチョウ",
    "town": "八代南俣",
    "town_kana": "ヤツシロミナミマタ",
    "street": null,
    "office_name": null,
    "office_name_kana": null
  },
  "1224": {
    "zip_code": "8801224",
    "prefecture": "宮崎県",
    "prefecture_kana": "ミヤザキケン",
    "prefecture_code": "45",
    "city": "東諸県郡国富町",
    "city_kana": "ヒガシモロカタグンクニトミチョウ",
    "town": "深年",
    "town_kana": "フカドシ",
    "street": null,
    "office_name": null,
    "office_name_kana": null
  },
  "1300": {
    "zip_code": "8801300",
    "prefecture": "宮崎県",
    "prefecture_kana": "ミヤザキケン",
    "prefecture_code": "45",
    "city": "東諸県郡綾町",
    "city_kana": "ヒガシモロカタグンアヤチョウ",
    "town": "",
    "town_kana": "",
    "street": null,
    "office_name": null,
    "office_name_kana": null
  },
  "1301": {
    "zip_code": "8801301",
    "prefecture": "宮崎県",
    "prefecture_kana": "ミヤザキケン",
    "prefecture_code": "45",
    "city": "東諸県郡綾町",
    "city_kana": "ヒガシモロカタグンアヤチョウ",
    "town": "入野",
    "town_kana": "イリノ",
    "street": null,
    "office_name": null,
    "office_name_kana": null
  },
  "1302": {
    "zip_code": "8801302",
    "prefecture": "宮崎県",
    "prefecture_kana": "ミヤザキケン",
    "prefecture_code": "45",
    "city": "東諸県郡綾町",
    "city_kana": "ヒガシモロカタグンアヤチョウ",
    "town": "北俣",
    "town_kana": "キタマタ",
    "street": null,
    "office_name": null,
    "office_name_kana": null
  },
  "1303": {
    "zip_code": "8801303",
    "prefecture": "宮崎県",
    "prefecture_kana": "ミヤザキケン",
    "prefecture_code": "45",
    "city": "東諸県郡綾町",
    "city_kana": "ヒガシモロカタグンアヤチョウ",
    "town": "南俣",
    "town_kana": "ミナミマタ",
    "street": null,
    "office_name": null,
    "office_name_kana": null
  },
  "1392": {
    "zip_code": "8801392",
    "prefecture": "宮崎県",
    "prefecture_kana": null,
    "prefecture_code": null,
    "city": "東諸県郡綾町",
    "city_kana": null,
    "town": "大字南俣",
    "town_kana": null,
    "street": "５１５",
    "office_name": "綾町役場",
    "office_name_kana": "アヤチヨウヤクバ"
  },
  "1398": {
    "zip_code": "8801398",
    "prefecture": "宮崎県",
    "prefecture_kana": null,
    "prefecture_code": null,
    "city": "東諸県郡綾町",
    "city_kana": null,
    "town": "大字南俣",
    "town_kana": null,
    "street": "４８０−１",
    "office_name": "綾町農業協同組合",
    "office_name_kana": "アヤチヨウノウギヨウキヨウドウクミアイ"
  },
  "2101": {
    "zip_code": "8802101",
    "prefecture": "宮崎県",
    "prefecture_kana": "ミヤザキケン",
    "prefecture_code": "45",
    "city": "宮崎市",
    "city_kana": "ミヤザキシ",
    "town": "跡江",
    "town_kana": "アトエ",
    "street": null,
    "office_name": null,
    "office_name_kana": null
  },
  "2102": {
    "zip_code": "8802102",
    "prefecture": "宮崎県",
    "prefecture_kana": "ミヤザキケン",
    "prefecture_code": "45",
    "city": "宮崎市",
    "city_kana": "ミヤザキシ",
    "town": "有田",
    "town_kana": "アリタ",
    "street": null,
    "office_name": null,
    "office_name_kana": null
  },
  "2103": {
    "zip_code": "8802103",
    "prefecture": "宮崎県",
    "prefecture_kana": "ミヤザキケン",
    "prefecture_code": "45",
    "city": "宮崎市",
    "city_kana": "ミヤザキシ",
    "town": "生目",
    "town_kana": "イキメ",
    "street": null,
    "office_name": null,
    "office_name_kana": null
  },
  "2104": {
    "zip_code": "8802104",
    "prefecture": "宮崎県",
    "prefecture_kana": "ミヤザキケン",
    "prefecture_code": "45",
    "city": "宮崎市",
    "city_kana": "ミヤザキシ",
    "town": "浮田",
    "town_kana": "ウキタ",
    "street": null,
    "office_name": null,
    "office_name_kana": null
  },
  "2105": {
    "zip_code": "8802105",
    "prefecture": "宮崎県",
    "prefecture_kana": "ミヤザキケン",
    "prefecture_code": "45",
    "city": "宮崎市",
    "city_kana": "ミヤザキシ",
    "town": "大塚台西",
    "town_kana": "オオツカダイニシ",
    "street": null,
    "office_name": null,
    "office_name_kana": null
  },
  "2111": {
    "zip_code": "8802111",
    "prefecture": "宮崎県",
    "prefecture_kana": "ミヤザキケン",
    "prefecture_code": "45",
    "city": "宮崎市",
    "city_kana": "ミヤザキシ",
    "town": "柏原",
    "town_kana": "カシワバル",
    "street": null,
    "office_name": null,
    "office_name_kana": null
  },
  "2112": {
    "zip_code": "8802112",
    "prefecture": "宮崎県",
    "prefecture_kana": "ミヤザキケン",
    "prefecture_code": "45",
    "city": "宮崎市",
    "city_kana": "ミヤザキシ",
    "town": "小松",
    "town_kana": "コマツ",
    "street": null,
    "office_name": null,
    "office_name_kana": null
  },
  "2113": {
    "zip_code": "8802113",
    "prefecture": "宮崎県",
    "prefecture_kana": "ミヤザキケン",
    "prefecture_code": "45",
    "city": "宮崎市",
    "city_kana": "ミヤザキシ",
    "town": "小松台北町",
    "town_kana": "コマツダイキタマチ",
    "street": null,
    "office_name": null,
    "office_name_kana": null
  },
  "2114": {
    "zip_code": "8802114",
    "prefecture": "宮崎県",
    "prefecture_kana": "ミヤザキケン",
    "prefecture_code": "45",
    "city": "宮崎市",
    "city_kana": "ミヤザキシ",
    "town": "富吉",
    "town_kana": "トミヨシ",
    "street": null,
    "office_name": null,
    "office_name_kana": null
  },
  "2115": {
    "zip_code": "8802115",
    "prefecture": "宮崎県",
    "prefecture_kana": "ミヤザキケン",
    "prefecture_code": "45",
    "city": "宮崎市",
    "city_kana": "ミヤザキシ",
    "town": "長嶺",
    "town_kana": "ナガミネ",
    "street": null,
    "office_name": null,
    "office_name_kana": null
  },
  "2116": {
    "zip_code": "8802116",
    "prefecture": "宮崎県",
    "prefecture_kana": "ミヤザキケン",
    "prefecture_code": "45",
    "city": "宮崎市",
    "city_kana": "ミヤザキシ",
    "town": "細江",
    "town_kana": "ホソエ",
    "street": null,
    "office_name": null,
    "office_name_kana": null
  },
  "2211": {
    "zip_code": "8802211",
    "prefecture": "宮崎県",
    "prefecture_kana": "ミヤザキケン",
    "prefecture_code": "45",
    "city": "宮崎市",
    "city_kana": "ミヤザキシ",
    "town": "高岡町花見",
    "town_kana": "タカオカチョウハナミ",
    "street": null,
    "office_name": null,
    "office_name_kana": null
  },
  "2212": {
    "zip_code": "8802212",
    "prefecture": "宮崎県",
    "prefecture_kana": "ミヤザキケン",
    "prefecture_code": "45",
    "city": "宮崎市",
    "city_kana": "ミヤザキシ",
    "town": "高岡町下倉永",
    "town_kana": "タカオカチョウシモクラナガ",
    "street": null,
    "office_name": null,
    "office_name_kana": null
  },
  "2213": {
    "zip_code": "8802213",
    "prefecture": "宮崎県",
    "prefecture_kana": "ミヤザキケン",
    "prefecture_code": "45",
    "city": "宮崎市",
    "city_kana": "ミヤザキシ",
    "town": "高岡町上倉永",
    "town_kana": "タカオカチョウカミクラナガ",
    "street": null,
    "office_name": null,
    "office_name_kana": null
  },
  "2214": {
    "zip_code": "8802214",
    "prefecture": "宮崎県",
    "prefecture_kana": "ミヤザキケン",
    "prefecture_code": "45",
    "city": "宮崎市",
    "city_kana": "ミヤザキシ",
    "town": "高岡町小山田",
    "town_kana": "タカオカチョウオヤマダ",
    "street": null,
    "office_name": null,
    "office_name_kana": null
  },
  "2215": {
    "zip_code": "8802215",
    "prefecture": "宮崎県",
    "prefecture_kana": "ミヤザキケン",
    "prefecture_code": "45",
    "city": "宮崎市",
    "city_kana": "ミヤザキシ",
    "town": "高岡町高浜",
    "town_kana": "タカオカチョウタカハマ",
    "street": null,
    "office_name": null,
    "office_name_kana": null
  },
  "2221": {
    "zip_code": "8802221",
    "prefecture": "宮崎県",
    "prefecture_kana": "ミヤザキケン",
    "prefecture_code": "45",
    "city": "宮崎市",
    "city_kana": "ミヤザキシ",
    "town": "高岡町内山",
    "town_kana": "タカオカチョウウチヤマ",
    "street": null,
    "office_name": null,
    "office_name_kana": null
  },
  "2222": {
    "zip_code": "8802222",
    "prefecture": "宮崎県",
    "prefecture_kana": "ミヤザキケン",
    "prefecture_code": "45",
    "city": "宮崎市",
    "city_kana": "ミヤザキシ",
    "town": "高岡町五町",
    "town_kana": "タカオカチョウゴチョウ",
    "street": null,
    "office_name": null,
    "office_name_kana": null
  },
  "2223": {
    "zip_code": "8802223",
    "prefecture": "宮崎県",
    "prefecture_kana": "ミヤザキケン",
    "prefecture_code": "45",
    "city": "宮崎市",
    "city_kana": "ミヤザキシ",
    "town": "高岡町浦之名",
    "town_kana": "タカオカチョウウラノミョウ",
    "street": null,
    "office_name": null,
    "office_name_kana": null
  },
  "2224": {
    "zip_code": "8802224",
    "prefecture": "宮崎県",
    "prefecture_kana": "ミヤザキケン",
    "prefecture_code": "45",
    "city": "宮崎市",
    "city_kana": "ミヤザキシ",
    "town": "高岡町飯田",
    "town_kana": "タカオカチョウイイダ",
    "street": null,
    "office_name": null,
    "office_name_kana": null
  },
  "2231": {
    "zip_code": "8802231",
    "prefecture": "宮崎県",
    "prefecture_kana": "ミヤザキケン",
    "prefecture_code": "45",
    "city": "宮崎市",
    "city_kana": "ミヤザキシ",
    "town": "糸原",
    "town_kana": "イトバル",
    "street": null,
    "office_name": null,
    "office_name_kana": null
  },
  "2232": {
    "zip_code": "8802232",
    "prefecture": "宮崎県",
    "prefecture_kana": "ミヤザキケン",
    "prefecture_code": "45",
    "city": "宮崎市",
    "city_kana": "ミヤザキシ",
    "town": "堤内",
    "town_kana": "ツツミウチ",
    "street": null,
    "office_name": null,
    "office_name_kana": null
  },
  "2233": {
    "zip_code": "8802233",
    "prefecture": "宮崎県",
    "prefecture_kana": "ミヤザキケン",
    "prefecture_code": "45",
    "city": "宮崎市",
    "city_kana": "ミヤザキシ",
    "town": "吉野",
    "town_kana": "ヨシノ",
    "street": null,
    "office_name": null,
    "office_name_kana": null
  },
  "2234": {
    "zip_code": "8802234",
    "prefecture": "宮崎県",
    "prefecture_kana": "ミヤザキケン",
    "prefecture_code": "45",
    "city": "宮崎市",
    "city_kana": "ミヤザキシ",
    "town": "金崎",
    "town_kana": "カネザキ",
    "street": null,
    "office_name": null,
    "office_name_kana": null
  },
  "2292": {
    "zip_code": "8802292",
    "prefecture": "宮崎県",
    "prefecture_kana": "ミヤザキケン",
    "prefecture_code": "45",
    "city": "宮崎市",
    "city_kana": "ミヤザキシ",
    "town": "高岡町内山",
    "town_kana": "タカオカチョウウチヤマ",
    "street": "２８８７",
    "office_name": "宮崎市役所　高岡総合支所",
    "office_name_kana": "ミヤザキシヤクシヨ タカオカソウゴウシシヨ"
  },
  "2293": {
    "zip_code": "8802293",
    "prefecture": "宮崎県",
    "prefecture_kana": null,
    "prefecture_code": null,
    "city": "宮崎市",
    "city_kana": null,
    "town": "大字糸原",
    "town_kana": null,
    "street": "４６２３",
    "office_name": "宮崎刑務所",
    "office_name_kana": "ミヤザキケイムシヨ"
  },
  "2303": [
    {
      "zip_code": "8802303",
      "prefecture": "宮崎県",
      "prefecture_kana": "ミヤザキケン",
      "prefecture_code": "45",
      "city": "都城市",
      "city_kana": "ミヤコノジョウシ",
      "town": "山之口町山之口",
      "town_kana": "ヤマノクチチョウヤマノクチ",
      "street": null,
      "office_name": null,
      "office_name_kana": null
    },
    {
      "zip_code": "8802303",
      "prefecture": "宮崎県",
      "prefecture_kana": "ミヤザキケン",
      "prefecture_code": "45",
      "city": "都城市",
      "city_kana": "ミヤコノジョウシ",
      "town": "山之口町山之口上平野",
      "town_kana": "ヤマノクチチョウヤマノクチカミヒラノ",
      "street": null,
      "office_name": null,
      "office_name_kana": null
    },
    {
      "zip_code": "8802303",
      "prefecture": "宮崎県",
      "prefecture_kana": "ミヤザキケン",
      "prefecture_code": "45",
      "city": "都城市",
      "city_kana": "ミヤコノジョウシ",
      "town": "山之口町山之口仲田",
      "town_kana": "ヤマノクチチョウヤマノクチナカタ",
      "street": null,
      "office_name": null,
      "office_name_kana": null
    }
  ],
  "2321": {
    "zip_code": "8802321",
    "prefecture": "宮崎県",
    "prefecture_kana": "ミヤザキケン",
    "prefecture_code": "45",
    "city": "宮崎市",
    "city_kana": "ミヤザキシ",
    "town": "高岡町内山",
    "town_kana": "タカオカチョウウチヤマ",
    "street": null,
    "office_name": null,
    "office_name_kana": null
  },
  "2322": {
    "zip_code": "8802322",
    "prefecture": "宮崎県",
    "prefecture_kana": "ミヤザキケン",
    "prefecture_code": "45",
    "city": "宮崎市",
    "city_kana": "ミヤザキシ",
    "town": "高岡町五町",
    "town_kana": "タカオカチョウゴチョウ",
    "street": null,
    "office_name": null,
    "office_name_kana": null
  },
  "2323": {
    "zip_code": "8802323",
    "prefecture": "宮崎県",
    "prefecture_kana": "ミヤザキケン",
    "prefecture_code": "45",
    "city": "宮崎市",
    "city_kana": "ミヤザキシ",
    "town": "高岡町浦之名",
    "town_kana": "タカオカチョウウラノミョウ",
    "street": null,
    "office_name": null,
    "office_name_kana": null
  },
  "2325": {
    "zip_code": "8802325",
    "prefecture": "宮崎県",
    "prefecture_kana": "ミヤザキケン",
    "prefecture_code": "45",
    "city": "宮崎市",
    "city_kana": "ミヤザキシ",
    "town": "高岡町紙屋",
    "town_kana": "タカオカチョウカミヤ",
    "street": null,
    "office_name": null,
    "office_name_kana": null
  },
  "8501": {
    "zip_code": "8808501",
    "prefecture": "宮崎県",
    "prefecture_kana": "ミヤザキケン",
    "prefecture_code": "45",
    "city": "宮崎市",
    "city_kana": "ミヤザキシ",
    "town": "橘通東",
    "town_kana": "タチバナドオリヒガシ",
    "street": "２丁目１０−１",
    "office_name": "宮崎県庁",
    "office_name_kana": "ミヤザキケンチヨウ"
  },
  "8502": {
    "zip_code": "8808502",
    "prefecture": "宮崎県",
    "prefecture_kana": "ミヤザキケン",
    "prefecture_code": "45",
    "city": "宮崎市",
    "city_kana": "ミヤザキシ",
    "town": "橘通東",
    "town_kana": "タチバナドオリヒガシ",
    "street": "１丁目９−１０",
    "office_name": "宮崎県教育委員会",
    "office_name_kana": "ミヤザキケンキヨウイクイインカイ"
  },
  "8503": {
    "zip_code": "8808503",
    "prefecture": "宮崎県",
    "prefecture_kana": "ミヤザキケン",
    "prefecture_code": "45",
    "city": "宮崎市",
    "city_kana": "ミヤザキシ",
    "town": "昭和町",
    "town_kana": "ショウワチョウ",
    "street": "３",
    "office_name": "学校法人　宮崎学園　宮崎学園高等学校",
    "office_name_kana": "ガツコウホウジン ミヤザキガクエン ミヤザキガクエンコウトウガツコウ"
  },
  "8505": {
    "zip_code": "8808505",
    "prefecture": "宮崎県",
    "prefecture_kana": "ミヤザキケン",
    "prefecture_code": "45",
    "city": "宮崎市",
    "city_kana": "ミヤザキシ",
    "town": "橘通西",
    "town_kana": "タチバナドオリニシ",
    "street": "１丁目１−１",
    "office_name": "宮崎市役所",
    "office_name_kana": "ミヤザキシヤクシヨ"
  },
  "8507": {
    "zip_code": "8808507",
    "prefecture": "宮崎県",
    "prefecture_kana": "ミヤザキケン",
    "prefecture_code": "45",
    "city": "宮崎市",
    "city_kana": "ミヤザキシ",
    "town": "鶴島",
    "town_kana": "ツルノシマ",
    "street": "３丁目２５２",
    "office_name": "宮崎市水道局",
    "office_name_kana": "ミヤザキシスイドウキヨク"
  },
  "8508": {
    "zip_code": "8808508",
    "prefecture": "宮崎県",
    "prefecture_kana": "ミヤザキケン",
    "prefecture_code": "45",
    "city": "宮崎市",
    "city_kana": "ミヤザキシ",
    "town": "高千穂通",
    "town_kana": "タカチホドオリ",
    "street": "１丁目６−３５",
    "office_name": "住友生命保険　相互会社　宮崎支社",
    "office_name_kana": "スミトモセイメイホケン ソウゴガイシヤ ミヤザキシシヤ"
  },
  "8509": {
    "zip_code": "8808509",
    "prefecture": "宮崎県",
    "prefecture_kana": "ミヤザキケン",
    "prefecture_code": "45",
    "city": "宮崎市",
    "city_kana": "ミヤザキシ",
    "town": "旭",
    "town_kana": "アサヒ",
    "street": "１丁目８番２８号",
    "office_name": "宮崎県　警察本部",
    "office_name_kana": "ミヤザキケン ケイサツホンブ"
  },
  "8510": {
    "zip_code": "8808510",
    "prefecture": "宮崎県",
    "prefecture_kana": "ミヤザキケン",
    "prefecture_code": "45",
    "city": "宮崎市",
    "city_kana": "ミヤザキシ",
    "town": "北高松町",
    "town_kana": "キタタカマツチョウ",
    "street": "５−３０",
    "office_name": "県立宮崎病院",
    "office_name_kana": "ケンリツミヤザキビヨウイン"
  },
  "8511": {
    "zip_code": "8808511",
    "prefecture": "宮崎県",
    "prefecture_kana": "ミヤザキケン",
    "prefecture_code": "45",
    "city": "宮崎市",
    "city_kana": "ミヤザキシ",
    "town": "広島",
    "town_kana": "ヒロシマ",
    "street": "２丁目５−１１",
    "office_name": "東京海上日動火災保険　株式会社　宮崎支店",
    "office_name_kana": "トウキヨウカイジヨウニチドウカサイホケン カブシキガイシヤ ミヤザキシテン"
  },
  "8512": {
    "zip_code": "8808512",
    "prefecture": "宮崎県",
    "prefecture_kana": "ミヤザキケン",
    "prefecture_code": "45",
    "city": "宮崎市",
    "city_kana": "ミヤザキシ",
    "town": "松山",
    "town_kana": "マツヤマ",
    "street": "１丁目１−１",
    "office_name": "宮崎観光ホテル",
    "office_name_kana": "ミヤザキカンコウホテル"
  },
  "8513": {
    "zip_code": "8808513",
    "prefecture": "宮崎県",
    "prefecture_kana": "ミヤザキケン",
    "prefecture_code": "45",
    "city": "宮崎市",
    "city_kana": "ミヤザキシ",
    "town": "別府町",
    "town_kana": "ベップチョウ",
    "street": "１番１号",
    "office_name": "宮崎地方法務局",
    "office_name_kana": "ミヤザキチホウホウムキヨク"
  },
  "8515": {
    "zip_code": "8808515",
    "prefecture": "宮崎県",
    "prefecture_kana": "ミヤザキケン",
    "prefecture_code": "45",
    "city": "宮崎市",
    "city_kana": "ミヤザキシ",
    "town": "原町",
    "town_kana": "ハラマチ",
    "street": "２−２２",
    "office_name": "社会福祉法人　宮崎県社会福祉協議会",
    "office_name_kana": "シヤカイフクシホウジン ミヤザキケンシヤカイフクシキヨウギカイ"
  },
  "8517": {
    "zip_code": "8808517",
    "prefecture": "宮崎県",
    "prefecture_kana": "ミヤザキケン",
    "prefecture_code": "45",
    "city": "宮崎市",
    "city_kana": "ミヤザキシ",
    "town": "橘通東",
    "town_kana": "タチバナドオリヒガシ",
    "street": "１丁目５−８",
    "office_name": "宮崎シティエフエム　株式会社",
    "office_name_kana": "ミヤザキシテイエフエム カブシキガイシヤ"
  },
  "8518": {
    "zip_code": "8808518",
    "prefecture": "宮崎県",
    "prefecture_kana": null,
    "prefecture_code": null,
    "city": "宮崎市",
    "city_kana": null,
    "town": "大字恒久",
    "town_kana": null,
    "street": "８８５−１",
    "office_name": "宮崎県　赤十字血液センター",
    "office_name_kana": "ミヤザキケン セキジユウジケツエキセンタ-"
  },
  "8519": {
    "zip_code": "8808519",
    "prefecture": "宮崎県",
    "prefecture_kana": "ミヤザキケン",
    "prefecture_code": "45",
    "city": "宮崎市",
    "city_kana": "ミヤザキシ",
    "town": "恒久",
    "town_kana": "ツネヒサ",
    "street": "１丁目９−３",
    "office_name": "社団法人　宮崎県トラック協会",
    "office_name_kana": "シヤダンホウジン ミヤザキケントラツクキヨウカイ"
  },
  "8520": {
    "zip_code": "8808520",
    "prefecture": "宮崎県",
    "prefecture_kana": "ミヤザキケン",
    "prefecture_code": "45",
    "city": "宮崎市",
    "city_kana": "ミヤザキシ",
    "town": "船塚",
    "town_kana": "フナツカ",
    "street": "１丁目１−２",
    "office_name": "宮崎公立大学",
    "office_name_kana": "ミヤザキコウリツダイガク"
  },
  "8522": {
    "zip_code": "8808522",
    "prefecture": "宮崎県",
    "prefecture_kana": "ミヤザキケン",
    "prefecture_code": "45",
    "city": "宮崎市",
    "city_kana": "ミヤザキシ",
    "town": "阿波岐原町",
    "town_kana": "アワギガハラチョウ",
    "street": "野間３１１−１",
    "office_name": "宮崎ガス　株式会社",
    "office_name_kana": "ミヤザキガス カブシキガイシヤ"
  },
  "8523": {
    "zip_code": "8808523",
    "prefecture": "宮崎県",
    "prefecture_kana": "ミヤザキケン",
    "prefecture_code": "45",
    "city": "宮崎市",
    "city_kana": "ミヤザキシ",
    "town": "大工",
    "town_kana": "ダイク",
    "street": "２丁目３９",
    "office_name": "国土交通省　九州地方整備局　宮崎河川国道事務所",
    "office_name_kana": "コクドコウツウシヨウ キユウシユウチホウセイビキヨク ミヤザキカセンコクドウジムシヨ"
  },
  "8525": {
    "zip_code": "8808525",
    "prefecture": "宮崎県",
    "prefecture_kana": "ミヤザキケン",
    "prefecture_code": "45",
    "city": "宮崎市",
    "city_kana": "ミヤザキシ",
    "town": "瀬頭",
    "town_kana": "セガシラ",
    "street": "２丁目４−１５",
    "office_name": "宮崎県　市町村職員共済組合",
    "office_name_kana": "ミヤザキケン シチヨウソンシヨクインキヨウサイクミアイ"
  },
  "8527": {
    "zip_code": "8808527",
    "prefecture": "宮崎県",
    "prefecture_kana": "ミヤザキケン",
    "prefecture_code": "45",
    "city": "宮崎市",
    "city_kana": "ミヤザキシ",
    "town": "江平東町",
    "town_kana": "エヒラヒガシマチ",
    "street": "５−１１",
    "office_name": "ヤマエ久野　株式会社　宮崎支店",
    "office_name_kana": "ヤマエヒサノ カブシキガイシヤ ミヤザキシテン"
  },
  "8530": {
    "zip_code": "8808530",
    "prefecture": "宮崎県",
    "prefecture_kana": "ミヤザキケン",
    "prefecture_code": "45",
    "city": "宮崎市",
    "city_kana": "ミヤザキシ",
    "town": "瀬頭",
    "town_kana": "セガシラ",
    "street": "２丁目１０−２６",
    "office_name": "生活協同組合　コープみやざき",
    "office_name_kana": "セイカツキヨウドウクミアイ コ-プミヤザキ"
  },
  "8532": {
    "zip_code": "8808532",
    "prefecture": "宮崎県",
    "prefecture_kana": "ミヤザキケン",
    "prefecture_code": "45",
    "city": "宮崎市",
    "city_kana": "ミヤザキシ",
    "town": "高千穂通",
    "town_kana": "タカチホドオリ",
    "street": "１丁目６−３８",
    "office_name": "南日本信販　株式会社　宮崎支店",
    "office_name_kana": "ミナミニホンシンパン カブシキガイシヤ ミヤザキシテン"
  },
  "8533": {
    "zip_code": "8808533",
    "prefecture": "宮崎県",
    "prefecture_kana": "ミヤザキケン",
    "prefecture_code": "45",
    "city": "宮崎市",
    "city_kana": "ミヤザキシ",
    "town": "柳丸町",
    "town_kana": "ヤナギマルチョウ",
    "street": "１３１",
    "office_name": "宮崎公共職業安定所",
    "office_name_kana": "ミヤザキコウキヨウシヨクギヨウアンテイシヨ"
  },
  "8535": {
    "zip_code": "8808535",
    "prefecture": "宮崎県",
    "prefecture_kana": "ミヤザキケン",
    "prefecture_code": "45",
    "city": "宮崎市",
    "city_kana": "ミヤザキシ",
    "town": "祇園",
    "town_kana": "ギオン",
    "street": "２丁目７８",
    "office_name": "株式会社　テレビ宮崎",
    "office_name_kana": "カブシキガイシヤ テレビミヤザキ"
  },
  "8539": {
    "zip_code": "8808539",
    "prefecture": "宮崎県",
    "prefecture_kana": "ミヤザキケン",
    "prefecture_code": "45",
    "city": "宮崎市",
    "city_kana": "ミヤザキシ",
    "town": "広島",
    "town_kana": "ヒロシマ",
    "street": "１丁目５番３号",
    "office_name": "西日本電信電話　株式会社　宮崎支店",
    "office_name_kana": "ニシニホンデンシンデンワ カブシキガイシヤ ミヤザキシテン"
  },
  "8543": {
    "zip_code": "8808543",
    "prefecture": "宮崎県",
    "prefecture_kana": "ミヤザキケン",
    "prefecture_code": "45",
    "city": "宮崎市",
    "city_kana": "ミヤザキシ",
    "town": "旭",
    "town_kana": "アサヒ",
    "street": "２丁目３−１３",
    "office_name": "宮崎地方裁判所",
    "office_name_kana": "ミヤザキチホウサイバンシヨ"
  },
  "8544": {
    "zip_code": "8808544",
    "prefecture": "宮崎県",
    "prefecture_kana": "ミヤザキケン",
    "prefecture_code": "45",
    "city": "宮崎市",
    "city_kana": "ミヤザキシ",
    "town": "橘通西",
    "town_kana": "タチバナドオリニシ",
    "street": "４丁目２−２３",
    "office_name": "九州電力　株式会社　宮崎支店",
    "office_name_kana": "キユウシユウデンリヨク カブシキガイシヤ ミヤザキシテン"
  },
  "8545": {
    "zip_code": "8808545",
    "prefecture": "宮崎県",
    "prefecture_kana": "ミヤザキケン",
    "prefecture_code": "45",
    "city": "宮崎市",
    "city_kana": "ミヤザキシ",
    "town": "山崎町",
    "town_kana": "ヤマサキチョウ",
    "street": "浜山",
    "office_name": "フェニックスリゾート　株式会社",
    "office_name_kana": "フエニツクスリゾ-ト カブシキガイシヤ"
  },
  "8546": {
    "zip_code": "8808546",
    "prefecture": "宮崎県",
    "prefecture_kana": "ミヤザキケン",
    "prefecture_code": "45",
    "city": "宮崎市",
    "city_kana": "ミヤザキシ",
    "town": "橘通東",
    "town_kana": "タチバナドオリヒガシ",
    "street": "１丁目７−４第一宮銀ビル",
    "office_name": "全国健康保険協会　宮崎支部",
    "office_name_kana": "ゼンコクケンコウホケンキヨウカイ ミヤザキシブ"
  },
  "8550": {
    "zip_code": "8808550",
    "prefecture": "宮崎県",
    "prefecture_kana": "ミヤザキケン",
    "prefecture_code": "45",
    "city": "宮崎市",
    "city_kana": "ミヤザキシ",
    "town": "高千穂通",
    "town_kana": "タカチホドオリ",
    "street": "１丁目４−３０",
    "office_name": "株式会社　志多組",
    "office_name_kana": "カブシキガイシヤ シダグミ"
  },
  "8551": {
    "zip_code": "8808551",
    "prefecture": "宮崎県",
    "prefecture_kana": "ミヤザキケン",
    "prefecture_code": "45",
    "city": "宮崎市",
    "city_kana": "ミヤザキシ",
    "town": "田代町",
    "town_kana": "タシロチョウ",
    "street": "２６３番地",
    "office_name": "有限会社　鉱脈社",
    "office_name_kana": "ユウゲンガイシヤ コウミヤクシヤ"
  },
  "8555": {
    "zip_code": "8808555",
    "prefecture": "宮崎県",
    "prefecture_kana": "ミヤザキケン",
    "prefecture_code": "45",
    "city": "宮崎市",
    "city_kana": "ミヤザキシ",
    "town": "阿波岐原町",
    "town_kana": "アワギガハラチョウ",
    "street": "前浜４２７６−５",
    "office_name": "宮崎県警察本部運転免許課",
    "office_name_kana": "ミヤザキケンケイサツホンブウンテンメンキヨカ"
  },
  "8556": {
    "zip_code": "8808556",
    "prefecture": "宮崎県",
    "prefecture_kana": "ミヤザキケン",
    "prefecture_code": "45",
    "city": "宮崎市",
    "city_kana": "ミヤザキシ",
    "town": "霧島",
    "town_kana": "キリシマ",
    "street": "１丁目１番地１",
    "office_name": "宮崎県　経済農業協同組合連合会",
    "office_name_kana": "ミヤザキケン ケイザイノウギヨウキヨウドウクミアイレンゴウカイ"
  },
  "8557": {
    "zip_code": "8808557",
    "prefecture": "宮崎県",
    "prefecture_kana": "ミヤザキケン",
    "prefecture_code": "45",
    "city": "宮崎市",
    "city_kana": "ミヤザキシ",
    "town": "船塚",
    "town_kana": "フナツカ",
    "street": "３丁目２１０番地",
    "office_name": "財団法人　宮崎県立　芸術劇場",
    "office_name_kana": "ザイダンホウジン ミヤザキケンリツ ゲイジユツゲキジヨウ"
  },
  "8558": {
    "zip_code": "8808558",
    "prefecture": "宮崎県",
    "prefecture_kana": null,
    "prefecture_code": null,
    "city": "宮崎市",
    "city_kana": null,
    "town": "大字田吉",
    "town_kana": null,
    "street": "字松崎４８５５−９０",
    "office_name": "宮崎ゴルフ　株式会社",
    "office_name_kana": "ミヤザキゴルフ カブシキガイシヤ"
  },
  "8559": {
    "zip_code": "8808559",
    "prefecture": "宮崎県",
    "prefecture_kana": "ミヤザキケン",
    "prefecture_code": "45",
    "city": "宮崎市",
    "city_kana": "ミヤザキシ",
    "town": "高千穂通",
    "town_kana": "タカチホドオリ",
    "street": "２丁目５番３２号",
    "office_name": "株式会社　ライフ　宮崎支店",
    "office_name_kana": "カブシキガイシヤ ライフ ミヤザキシテン"
  },
  "8561": {
    "zip_code": "8808561",
    "prefecture": "宮崎県",
    "prefecture_kana": "ミヤザキケン",
    "prefecture_code": "45",
    "city": "宮崎市",
    "city_kana": "ミヤザキシ",
    "town": "千草町",
    "town_kana": "チグサチョウ",
    "street": "１５番８号",
    "office_name": "ホテル　マリックス",
    "office_name_kana": "ホテル マリツクス"
  },
  "8566": {
    "zip_code": "8808566",
    "prefecture": "宮崎県",
    "prefecture_kana": "ミヤザキケン",
    "prefecture_code": "45",
    "city": "宮崎市",
    "city_kana": "ミヤザキシ",
    "town": "瀬頭",
    "town_kana": "セガシラ",
    "street": "２丁目７−１１",
    "office_name": "宮崎地方検察庁",
    "office_name_kana": "ミヤザキチホウケンサツチヨウ"
  },
  "8567": {
    "zip_code": "8808567",
    "prefecture": "宮崎県",
    "prefecture_kana": "ミヤザキケン",
    "prefecture_code": "45",
    "city": "宮崎市",
    "city_kana": "ミヤザキシ",
    "town": "天満町",
    "town_kana": "テンマンチョウ",
    "street": "９−１",
    "office_name": "宮崎県立　宮崎工業高等学校",
    "office_name_kana": "ミヤザキケンリツ ミヤザキコウギヨウコウトウガツコウ"
  },
  "8570": {
    "zip_code": "8808570",
    "prefecture": "宮崎県",
    "prefecture_kana": "ミヤザキケン",
    "prefecture_code": "45",
    "city": "宮崎市",
    "city_kana": "ミヤザキシ",
    "town": "高千穂通",
    "town_kana": "タカチホドオリ",
    "street": "１丁目１−３３",
    "office_name": "株式会社　宮崎日日新聞社",
    "office_name_kana": "カブシキガイシヤ ミヤザキニチニチシンブンシヤ"
  },
  "8575": {
    "zip_code": "8808575",
    "prefecture": "宮崎県",
    "prefecture_kana": "ミヤザキケン",
    "prefecture_code": "45",
    "city": "宮崎市",
    "city_kana": "ミヤザキシ",
    "town": "大淀",
    "town_kana": "オオヨド",
    "street": "４丁目１０番８号",
    "office_name": "宮崎交通　株式会社",
    "office_name_kana": "ミヤザキコウツウ カブシキガイシヤ"
  },
  "8576": {
    "zip_code": "8808576",
    "prefecture": "宮崎県",
    "prefecture_kana": "ミヤザキケン",
    "prefecture_code": "45",
    "city": "宮崎市",
    "city_kana": "ミヤザキシ",
    "town": "橘通東",
    "town_kana": "タチバナドオリヒガシ",
    "street": "３丁目６−３４",
    "office_name": "株式会社　サンシャインエフエム",
    "office_name_kana": "カブシキガイシヤ サンシヤインエフエム"
  },
  "8577": {
    "zip_code": "8808577",
    "prefecture": "宮崎県",
    "prefecture_kana": "ミヤザキケン",
    "prefecture_code": "45",
    "city": "宮崎市",
    "city_kana": "ミヤザキシ",
    "town": "新別府町",
    "town_kana": "シンベップチョウ",
    "street": "江口８６２−１",
    "office_name": "ジャスコ宮崎店",
    "office_name_kana": "ジヤスコミヤザキテン"
  },
  "8580": {
    "zip_code": "8808580",
    "prefecture": "宮崎県",
    "prefecture_kana": null,
    "prefecture_code": null,
    "city": "宮崎市",
    "city_kana": null,
    "town": "大字赤江",
    "town_kana": null,
    "street": "字飛江田",
    "office_name": "独立行政法人　航空大学校",
    "office_name_kana": "ドクリツギヨウセイホウジン コウクウダイガツコウ"
  },
  "8581": {
    "zip_code": "8808581",
    "prefecture": "宮崎県",
    "prefecture_kana": "ミヤザキケン",
    "prefecture_code": "45",
    "city": "宮崎市",
    "city_kana": "ミヤザキシ",
    "town": "下原町",
    "town_kana": "シモハラチョウ",
    "street": "２３１番地１",
    "office_name": "宮崎県　国民健康保険団体連合会",
    "office_name_kana": "ミヤザキケン コクミンケンコウホケンダンタイレンゴウカイ"
  },
  "8583": {
    "zip_code": "8808583",
    "prefecture": "宮崎県",
    "prefecture_kana": "ミヤザキケン",
    "prefecture_code": "45",
    "city": "宮崎市",
    "city_kana": "ミヤザキシ",
    "town": "祇園",
    "town_kana": "ギオン",
    "street": "２丁目７８",
    "office_name": "株式会社　エフエム宮崎",
    "office_name_kana": "カブシキガイシヤ エフエムミヤザキ"
  },
  "8586": {
    "zip_code": "8808586",
    "prefecture": "宮崎県",
    "prefecture_kana": "ミヤザキケン",
    "prefecture_code": "45",
    "city": "宮崎市",
    "city_kana": "ミヤザキシ",
    "town": "橘通西",
    "town_kana": "タチバナドオリニシ",
    "street": "３丁目１０−３２",
    "office_name": "株式会社　橘百貨店",
    "office_name_kana": "カブシキガイシヤ タチバナヒヤツカテン"
  },
  "8588": {
    "zip_code": "8808588",
    "prefecture": "宮崎県",
    "prefecture_kana": "ミヤザキケン",
    "prefecture_code": "45",
    "city": "宮崎市",
    "city_kana": "ミヤザキシ",
    "town": "天満",
    "town_kana": "テンマン",
    "street": "２丁目４−２３",
    "office_name": "宮崎社会保険事務所",
    "office_name_kana": "ミヤザキシヤカイホケンジムシヨ"
  },
  "8601": {
    "zip_code": "8808601",
    "prefecture": "宮崎県",
    "prefecture_kana": "ミヤザキケン",
    "prefecture_code": "45",
    "city": "宮崎市",
    "city_kana": "ミヤザキシ",
    "town": "橘通東",
    "town_kana": "タチバナドオリヒガシ",
    "street": "４丁目３−５（宮崎中央郵便局私書箱第１０号）",
    "office_name": "株式会社　宮崎銀行",
    "office_name_kana": "カブシキガイシヤ ミヤザキギンコウ"
  },
  "8602": {
    "zip_code": "8808602",
    "prefecture": "宮崎県",
    "prefecture_kana": "ミヤザキケン",
    "prefecture_code": "45",
    "city": "宮崎市",
    "city_kana": "ミヤザキシ",
    "town": "橘通東",
    "town_kana": "タチバナドオリヒガシ",
    "street": "３丁目４−１２（宮崎中央郵便局私書箱第３号）",
    "office_name": "株式会社　宮崎山形屋",
    "office_name_kana": "カブシキガイシヤ ミヤザキヤマカタヤ"
  },
  "8604": {
    "zip_code": "8808604",
    "prefecture": "宮崎県",
    "prefecture_kana": "ミヤザキケン",
    "prefecture_code": "45",
    "city": "宮崎市",
    "city_kana": "ミヤザキシ",
    "town": "橘通東",
    "town_kana": "タチバナドオリヒガシ",
    "street": "２丁目４−１（宮崎中央郵便局私書箱第４号）",
    "office_name": "宮崎信用金庫",
    "office_name_kana": "ミヤザキシンヨウキンコ"
  },
  "8605": {
    "zip_code": "8808605",
    "prefecture": "宮崎県",
    "prefecture_kana": "ミヤザキケン",
    "prefecture_code": "45",
    "city": "宮崎市",
    "city_kana": "ミヤザキシ",
    "town": "高千穂通",
    "town_kana": "タカチホドオリ",
    "street": "１丁目３−３０（宮崎中央郵便局私書箱第６２号）",
    "office_name": "株式会社　宮崎信販",
    "office_name_kana": "カブシキガイシヤ ミヤザキシンパン"
  },
  "8606": {
    "zip_code": "8808606",
    "prefecture": "宮崎県",
    "prefecture_kana": "ミヤザキケン",
    "prefecture_code": "45",
    "city": "宮崎市",
    "city_kana": "ミヤザキシ",
    "town": "広島",
    "town_kana": "ヒロシマ",
    "street": "２丁目１−３１（宮崎中央郵便局私書箱第２０号）",
    "office_name": "株式会社　宮崎太陽銀行",
    "office_name_kana": "カブシキガイシヤ ミヤザキタイヨウギンコウ"
  },
  "8610": {
    "zip_code": "8808610",
    "prefecture": "宮崎県",
    "prefecture_kana": "ミヤザキケン",
    "prefecture_code": "45",
    "city": "宮崎市",
    "city_kana": "ミヤザキシ",
    "town": "広島",
    "town_kana": "ヒロシマ",
    "street": "１丁目１８番１３号（宮崎中央郵便局私書箱第２４号）",
    "office_name": "第一生命保険　株式会社　宮崎支社",
    "office_name_kana": "ダイイチセイメイホケン カブシキガイシヤ ミヤザキシシヤ"
  },
  "8625": {
    "zip_code": "8808625",
    "prefecture": "宮崎県",
    "prefecture_kana": "ミヤザキケン",
    "prefecture_code": "45",
    "city": "宮崎市",
    "city_kana": "ミヤザキシ",
    "town": "橘通西",
    "town_kana": "タチバナドオリニシ",
    "street": "４丁目１番３２号（宮崎中央郵便局私書箱第２５号）",
    "office_name": "ＳＭＢＣ日興証券　株式会社　宮崎支店",
    "office_name_kana": "エスエムビ-シ-ニツコウシヨウケン カブシキガイシヤ ミヤザキシテン"
  },
  "8633": {
    "zip_code": "8808633",
    "prefecture": "宮崎県",
    "prefecture_kana": "ミヤザキケン",
    "prefecture_code": "45",
    "city": "宮崎市",
    "city_kana": "ミヤザキシ",
    "town": "江平西",
    "town_kana": "エヒラニシ",
    "street": "２丁目２−１５（宮崎中央郵便局私書箱第６５号）",
    "office_name": "ＮＨＫ　宮崎放送局",
    "office_name_kana": "エヌエイチケイ ミヤザキホウソウキヨク"
  },
  "8639": {
    "zip_code": "8808639",
    "prefecture": "宮崎県",
    "prefecture_kana": "ミヤザキケン",
    "prefecture_code": "45",
    "city": "宮崎市",
    "city_kana": "ミヤザキシ",
    "town": "橘通西",
    "town_kana": "タチバナドオリニシ",
    "street": "４丁目６−７（宮崎中央郵便局私書箱第５３号）",
    "office_name": "株式会社　宮崎放送",
    "office_name_kana": "カブシキガイシヤ ミヤザキホウソウ"
  },
  "8649": {
    "zip_code": "8808649",
    "prefecture": "宮崎県",
    "prefecture_kana": "ミヤザキケン",
    "prefecture_code": "45",
    "city": "宮崎市",
    "city_kana": "ミヤザキシ",
    "town": "高千穂通",
    "town_kana": "タカチホドオリ",
    "street": "２丁目５−３２（宮崎中央郵便局私書箱第６０号）",
    "office_name": "日本生命保険　相互会社　宮崎支社",
    "office_name_kana": "ニホンセイメイホケン ソウゴガイシヤ ミヤザキシシヤ"
  },
  "8666": {
    "zip_code": "8808666",
    "prefecture": "宮崎県",
    "prefecture_kana": "ミヤザキケン",
    "prefecture_code": "45",
    "city": "宮崎市",
    "city_kana": "ミヤザキシ",
    "town": "広島",
    "town_kana": "ヒロシマ",
    "street": "１丁目１０−１（宮崎中央郵便局私書箱第１８号）",
    "office_name": "宮崎　税務署",
    "office_name_kana": "ミヤザキ ゼイムシヨ"
  },
  "8668": {
    "zip_code": "8808668",
    "prefecture": "宮崎県",
    "prefecture_kana": "ミヤザキケン",
    "prefecture_code": "45",
    "city": "宮崎市",
    "city_kana": "ミヤザキシ",
    "town": "昭栄町",
    "town_kana": "ショウエイチョウ",
    "street": "４５−１（宮崎中央郵便局私書箱第１０２号）",
    "office_name": "雲海酒造　株式会社",
    "office_name_kana": "ウンカイシユゾウ カブシキガイシヤ"
  },
  "8725": {
    "zip_code": "8808725",
    "prefecture": "宮崎県",
    "prefecture_kana": "ミヤザキケン",
    "prefecture_code": "45",
    "city": "宮崎市",
    "city_kana": "ミヤザキシ",
    "town": "橘通西",
    "town_kana": "タチバナドオリニシ",
    "street": "４丁目１番３２号",
    "office_name": "ＳＭＢＣ日興証券　株式会社　宮崎支店",
    "office_name_kana": "エスエムビ-シ-ニツコウシヨウケン カブシキガイシヤ ミヤザキシテン"
  }
}