{
  "0000": {
    "zip_code": "8810000",
    "prefecture": "宮崎県",
    "prefecture_kana": "ミヤザキケン",
    "prefecture_code": "45",
    "city": "西都市",
    "city_kana": "サイトシ",
    "town": "",
    "town_kana": "",
    "street": null,
    "office_name": null,
    "office_name_kana": null
  },
  "0001": {
    "zip_code": "8810001",
    "prefecture": "宮崎県",
    "prefecture_kana": "ミヤザキケン",
    "prefecture_code": "45",
    "city": "西都市",
    "city_kana": "サイトシ",
    "town": "岡富",
    "town_kana": "オカドミ",
    "street": null,
    "office_name": null,
    "office_name_kana": null
  },
  "0002": {
    "zip_code": "8810002",
    "prefecture": "宮崎県",
    "prefecture_kana": "ミヤザキケン",
    "prefecture_code": "45",
    "city": "西都市",
    "city_kana": "サイトシ",
    "town": "黒生野",
    "town_kana": "クロウノ",
    "street": null,
    "office_name": null,
    "office_name_kana": null
  },
  "0003": {
    "zip_code": "8810003",
    "prefecture": "宮崎県",
    "prefecture_kana": "ミヤザキケン",
    "prefecture_code": "45",
    "city": "西都市",
    "city_kana": "サイトシ",
    "town": "右松",
    "town_kana": "ミギマツ",
    "street": null,
    "office_name": null,
    "office_name_kana": null
  },
  "0004": {
    "zip_code": "8810004",
    "prefecture": "宮崎県",
    "prefecture_kana": "ミヤザキケン",
    "prefecture_code": "45",
    "city": "西都市",
    "city_kana": "サイトシ",
    "town": "清水",
    "town_kana": "キヨミズ",
    "street": null,
    "office_name": null,
    "office_name_kana": null
  },
  "0005": {
    "zip_code": "8810005",
    "prefecture": "宮崎県",
    "prefecture_kana": "ミヤザキケン",
    "prefecture_code": "45",
    "city": "西都市",
    "city_kana": "サイトシ",
    "town": "三宅",
    "town_kana": "ミヤケ",
    "street": null,
    "office_name": null,
    "office_name_kana": null
  },
  "0006": {
    "zip_code": "8810006",
    "prefecture": "宮崎県",
    "prefecture_kana": "ミヤザキケン",
    "prefecture_code": "45",
    "city": "西都市",
    "city_kana": "サイトシ",
    "town": "新町",
    "town_kana": "シンマチ",
    "street": null,
    "office_name": null,
    "office_name_kana": null
  },
  "0011": {
    "zip_code": "8810011",
    "prefecture": "宮崎県",
    "prefecture_kana": "ミヤザキケン",
    "prefecture_code": "45",
    "city": "西都市",
    "city_kana": "サイトシ",
    "town": "有吉町",
    "town_kana": "アリヨシチョウ",
    "street": null,
    "office_name": null,
    "office_name_kana": null
  },
  "0012": {
    "zip_code": "8810012",
    "prefecture": "宮崎県",
    "prefecture_kana": "ミヤザキケン",
    "prefecture_code": "45",
    "city": "西都市",
    "city_kana": "サイトシ",
    "town": "小野崎",
    "town_kana": "オノザキ",
    "street": null,
    "office_name": null,
    "office_name_kana": null
  },
  "0013": {
    "zip_code": "8810013",
    "prefecture": "宮崎県",
    "prefecture_kana": "ミヤザキケン",
    "prefecture_code": "45",
    "city": "西都市",
    "city_kana": "サイトシ",
    "town": "小野崎町",
    "town_kana": "オノザキチョウ",
    "street": null,
    "office_name": null,
    "office_name_kana": null
  },
  "0014": {
    "zip_code": "8810014",
    "prefecture": "宮崎県",
    "prefecture_kana": "ミヤザキケン",
    "prefecture_code": "45",
    "city": "西都市",
    "city_kana": "サイトシ",
    "town": "下妻",
    "town_kana": "シモヅマ",
    "street": null,
    "office_name": null,
    "office_name_kana": null
  },
  "0015": {
    "zip_code": "8810015",
    "prefecture": "宮崎県",
    "prefecture_kana": "ミヤザキケン",
    "prefecture_code": "45",
    "city": "西都市",
    "city_kana": "サイトシ",
    "town": "聖陵町",
    "town_kana": "セイリョウチョウ",
    "street": null,
    "office_name": null,
    "office_name_kana": null
  },
  "0016": {
    "zip_code": "8810016",
    "prefecture": "宮崎県",
    "prefecture_kana": "ミヤザキケン",
    "prefecture_code": "45",
    "city": "西都市",
    "city_kana": "サイトシ",
    "town": "御舟町",
    "town_kana": "ミフネチョウ",
    "street": null,
    "office_name": null,
    "office_name_kana": null
  },
  "0021": {
    "zip_code": "8810021",
    "prefecture": "宮崎県",
    "prefecture_kana": "ミヤザキケン",
    "prefecture_code": "45",
    "city": "西都市",
    "city_kana": "サイトシ",
    "town": "上町",
    "town_kana": "カミマチ",
    "street": null,
    "office_name": null,
    "office_name_kana": null
  },
  "0022": {
    "zip_code": "8810022",
    "prefecture": "宮崎県",
    "prefecture_kana": "ミヤザキケン",
    "prefecture_code": "45",
    "city": "西都市",
    "city_kana": "サイトシ",
    "town": "桜川町",
    "town_kana": "サクラガワチョウ",
    "street": null,
    "office_name": null,
    "office_name_kana": null
  },
  "0023": {
    "zip_code": "8810023",
    "prefecture": "宮崎県",
    "prefecture_kana": "ミヤザキケン",
    "prefecture_code": "45",
    "city": "西都市",
    "city_kana": "サイトシ",
    "town": "調殿",
    "town_kana": "ツキドノ",
    "street": null,
    "office_name": null,
    "office_name_kana": null
  },
  "0024": {
    "zip_code": "8810024",
    "prefecture": "宮崎県",
    "prefecture_kana": "ミヤザキケン",
    "prefecture_code": "45",
    "city": "西都市",
    "city_kana": "サイトシ",
    "town": "中妻",
    "town_kana": "ナカヅマ",
    "street": null,
    "office_name": null,
    "office_name_kana": null
  },
  "0025": {
    "zip_code": "8810025",
    "prefecture": "宮崎県",
    "prefecture_kana": "ミヤザキケン",
    "prefecture_code": "45",
    "city": "西都市",
    "city_kana": "サイトシ",
    "town": "童子丸",
    "town_kana": "ドウジマル",
    "street": null,
    "office_name": null,
    "office_name_kana": null
  },
  "0026": {
    "zip_code": "8810026",
    "prefecture": "宮崎県",
    "prefecture_kana": "ミヤザキケン",
    "prefecture_code": "45",
    "city": "西都市",
    "city_kana": "サイトシ",
    "town": "穂北",
    "town_kana": "ホキタ",
    "street": null,
    "office_name": null,
    "office_name_kana": null
  },
  "0027": {
    "zip_code": "8810027",
    "prefecture": "宮崎県",
    "prefecture_kana": "ミヤザキケン",
    "prefecture_code": "45",
    "city": "西都市",
    "city_kana": "サイトシ",
    "town": "南方",
    "town_kana": "ミナミカタ",
    "street": null,
    "office_name": null,
    "office_name_kana": null
  },
  "0031": {
    "zip_code": "8810031",
    "prefecture": "宮崎県",
    "prefecture_kana": "ミヤザキケン",
    "prefecture_code": "45",
    "city": "西都市",
    "city_kana": "サイトシ",
    "town": "旭",
    "town_kana": "アサヒ",
    "street": null,
    "office_name": null,
    "office_name_kana": null
  },
  "0032": {
    "zip_code": "8810032",
    "prefecture": "宮崎県",
    "prefecture_kana": "ミヤザキケン",
    "prefecture_code": "45",
    "city": "西都市",
    "city_kana": "サイトシ",
    "town": "白馬町",
    "town_kana": "シラウマチョウ",
    "street": null,
    "office_name": null,
    "office_name_kana": null
  },
  "0033": {
    "zip_code": "8810033",
    "prefecture": "宮崎県",
    "prefecture_kana": "ミヤザキケン",
    "prefecture_code": "45",
    "city": "西都市",
    "city_kana": "サイトシ",
    "town": "妻",
    "town_kana": "ツマ",
    "street": null,
    "office_name": null,
    "office_name_kana": null
  },
  "0034": {
    "zip_code": "8810034",
    "prefecture": "宮崎県",
    "prefecture_kana": "ミヤザキケン",
    "prefecture_code": "45",
    "city": "西都市",
    "city_kana": "サイトシ",
    "town": "妻町",
    "town_kana": "ツマチョウ",
    "street": null,
    "office_name": null,
    "office_name_kana": null
  },
  "0035": {
    "zip_code": "8810035",
    "prefecture": "宮崎県",
    "prefecture_kana": "ミヤザキケン",
    "prefecture_code": "45",
    "city": "西都市",
    "city_kana": "サイトシ",
    "town": "中央町",
    "town_kana": "チュウオウチョウ",
    "street": null,
    "office_name": null,
    "office_name_kana": null
  },
  "0036": {
    "zip_code": "8810036",
    "prefecture": "宮崎県",
    "prefecture_kana": "ミヤザキケン",
    "prefecture_code": "45",
    "city": "西都市",
    "city_kana": "サイトシ",
    "town": "水流崎町",
    "town_kana": "ツルサキチョウ",
    "street": null,
    "office_name": null,
    "office_name_kana": null
  },
  "0037": {
    "zip_code": "8810037",
    "prefecture": "宮崎県",
    "prefecture_kana": "ミヤザキケン",
    "prefecture_code": "45",
    "city": "西都市",
    "city_kana": "サイトシ",
    "town": "茶臼原",
    "town_kana": "チャウスバル",
    "street": null,
    "office_name": null,
    "office_name_kana": null
  },
  "0101": {
    "zip_code": "8810101",
    "prefecture": "宮崎県",
    "prefecture_kana": "ミヤザキケン",
    "prefecture_code": "45",
    "city": "西都市",
    "city_kana": "サイトシ",
    "town": "三納",
    "town_kana": "ミノウ",
    "street": null,
    "office_name": null,
    "office_name_kana": null
  },
  "0102": {
    "zip_code": "8810102",
    "prefecture": "宮崎県",
    "prefecture_kana": "ミヤザキケン",
    "prefecture_code": "45",
    "city": "西都市",
    "city_kana": "サイトシ",
    "town": "平郡",
    "town_kana": "ヘゴオリ",
    "street": null,
    "office_name": null,
    "office_name_kana": null
  },
  "0103": {
    "zip_code": "8810103",
    "prefecture": "宮崎県",
    "prefecture_kana": "ミヤザキケン",
    "prefecture_code": "45",
    "city": "西都市",
    "city_kana": "サイトシ",
    "town": "加勢",
    "town_kana": "カゼ",
    "street": null,
    "office_name": null,
    "office_name_kana": null
  },
  "0104": {
    "zip_code": "8810104",
    "prefecture": "宮崎県",
    "prefecture_kana": "ミヤザキケン",
    "prefecture_code": "45",
    "city": "西都市",
    "city_kana": "サイトシ",
    "town": "鹿野田",
    "town_kana": "カノダ",
    "street": null,
    "office_name": null,
    "office_name_kana": null
  },
  "0105": {
    "zip_code": "8810105",
    "prefecture": "宮崎県",
    "prefecture_kana": "ミヤザキケン",
    "prefecture_code": "45",
    "city": "西都市",
    "city_kana": "サイトシ",
    "town": "都於郡町",
    "town_kana": "トノコオリマチ",
    "street": null,
    "office_name": null,
    "office_name_kana": null
  },
  "0106": {
    "zip_code": "8810106",
    "prefecture": "宮崎県",
    "prefecture_kana": "ミヤザキケン",
    "prefecture_code": "45",
    "city": "西都市",
    "city_kana": "サイトシ",
    "town": "岩爪",
    "town_kana": "イワヅメ",
    "street": null,
    "office_name": null,
    "office_name_kana": null
  },
  "0111": {
    "zip_code": "8810111",
    "prefecture": "宮崎県",
    "prefecture_kana": "ミヤザキケン",
    "prefecture_code": "45",
    "city": "西都市",
    "city_kana": "サイトシ",
    "town": "荒武",
    "town_kana": "アラタケ",
    "street": null,
    "office_name": null,
    "office_name_kana": null
  },
  "0112": {
    "zip_code": "8810112",
    "prefecture": "宮崎県",
    "prefecture_kana": "ミヤザキケン",
    "prefecture_code": "45",
    "city": "西都市",
    "city_kana": "サイトシ",
    "town": "山田",
    "town_kana": "ヤマダ",
    "street": null,
    "office_name": null,
    "office_name_kana": null
  },
  "0113": {
    "zip_code": "8810113",
    "prefecture": "宮崎県",
    "prefecture_kana": "ミヤザキケン",
    "prefecture_code": "45",
    "city": "西都市",
    "city_kana": "サイトシ",
    "town": "下三財",
    "town_kana": "シモサンザイ",
    "street": null,
    "office_name": null,
    "office_name_kana": null
  },
  "0114": {
    "zip_code": "8810114",
    "prefecture": "宮崎県",
    "prefecture_kana": "ミヤザキケン",
    "prefecture_code": "45",
    "city": "西都市",
    "city_kana": "サイトシ",
    "town": "藤田",
    "town_kana": "トウダ",
    "street": null,
    "office_name": null,
    "office_name_kana": null
  },
  "0115": {
    "zip_code": "8810115",
    "prefecture": "宮崎県",
    "prefecture_kana": "ミヤザキケン",
    "prefecture_code": "45",
    "city": "西都市",
    "city_kana": "サイトシ",
    "town": "上三財",
    "town_kana": "カミサンザイ",
    "street": null,
    "office_name": null,
    "office_name_kana": null
  },
  "0116": {
    "zip_code": "8810116",
    "prefecture": "宮崎県",
    "prefecture_kana": "ミヤザキケン",
    "prefecture_code": "45",
    "city": "西都市",
    "city_kana": "サイトシ",
    "town": "寒川",
    "town_kana": "サブカワ",
    "street": null,
    "office_name": null,
    "office_name_kana": null
  },
  "1121": {
    "zip_code": "8811121",
    "prefecture": "宮崎県",
    "prefecture_kana": "ミヤザキケン",
    "prefecture_code": "45",
    "city": "西都市",
    "city_kana": "サイトシ",
    "town": "尾八重",
    "town_kana": "オハエ",
    "street": null,
    "office_name": null,
    "office_name_kana": null
  },
  "1122": {
    "zip_code": "8811122",
    "prefecture": "宮崎県",
    "prefecture_kana": "ミヤザキケン",
    "prefecture_code": "45",
    "city": "西都市",
    "city_kana": "サイトシ",
    "town": "片内",
    "town_kana": "カタウチ",
    "street": null,
    "office_name": null,
    "office_name_kana": null
  },
  "1123": {
    "zip_code": "8811123",
    "prefecture": "宮崎県",
    "prefecture_kana": "ミヤザキケン",
    "prefecture_code": "45",
    "city": "西都市",
    "city_kana": "サイトシ",
    "town": "中尾",
    "town_kana": "ナカオ",
    "street": null,
    "office_name": null,
    "office_name_kana": null
  },
  "1231": {
    "zip_code": "8811231",
    "prefecture": "宮崎県",
    "prefecture_kana": "ミヤザキケン",
    "prefecture_code": "45",
    "city": "西都市",
    "city_kana": "サイトシ",
    "town": "上揚",
    "town_kana": "カミアゲ",
    "street": null,
    "office_name": null,
    "office_name_kana": null
  },
  "1232": {
    "zip_code": "8811232",
    "prefecture": "宮崎県",
    "prefecture_kana": "ミヤザキケン",
    "prefecture_code": "45",
    "city": "西都市",
    "city_kana": "サイトシ",
    "town": "銀鏡",
    "town_kana": "シロミ",
    "street": null,
    "office_name": null,
    "office_name_kana": null
  },
  "1233": {
    "zip_code": "8811233",
    "prefecture": "宮崎県",
    "prefecture_kana": "ミヤザキケン",
    "prefecture_code": "45",
    "city": "西都市",
    "city_kana": "サイトシ",
    "town": "八重",
    "town_kana": "ハエ",
    "street": null,
    "office_name": null,
    "office_name_kana": null
  },
  "1301": {
    "zip_code": "8811301",
    "prefecture": "宮崎県",
    "prefecture_kana": "ミヤザキケン",
    "prefecture_code": "45",
    "city": "児湯郡西米良村",
    "city_kana": "コユグンニシメラソン",
    "town": "越野尾",
    "town_kana": "コシノオ",
    "street": null,
    "office_name": null,
    "office_name_kana": null
  },
  "1302": {
    "zip_code": "8811302",
    "prefecture": "宮崎県",
    "prefecture_kana": "ミヤザキケン",
    "prefecture_code": "45",
    "city": "児湯郡西米良村",
    "city_kana": "コユグンニシメラソン",
    "town": "小川",
    "town_kana": "オガワ",
    "street": null,
    "office_name": null,
    "office_name_kana": null
  },
  "1303": {
    "zip_code": "8811303",
    "prefecture": "宮崎県",
    "prefecture_kana": "ミヤザキケン",
    "prefecture_code": "45",
    "city": "児湯郡西米良村",
    "city_kana": "コユグンニシメラソン",
    "town": "横野",
    "town_kana": "ヨコノ",
    "street": null,
    "office_name": null,
    "office_name_kana": null
  },
  "1400": {
    "zip_code": "8811400",
    "prefecture": "宮崎県",
    "prefecture_kana": "ミヤザキケン",
    "prefecture_code": "45",
    "city": "児湯郡西米良村",
    "city_kana": "コユグンニシメラソン",
    "town": "",
    "town_kana": "",
    "street": null,
    "office_name": null,
    "office_name_kana": null
  },
  "1411": {
    "zip_code": "8811411",
    "prefecture": "宮崎県",
    "prefecture_kana": "ミヤザキケン",
    "prefecture_code": "45",
    "city": "児湯郡西米良村",
    "city_kana": "コユグンニシメラソン",
    "town": "村所",
    "town_kana": "ムラショ",
    "street": null,
    "office_name": null,
    "office_name_kana": null
  },
  "1412": {
    "zip_code": "8811412",
    "prefecture": "宮崎県",
    "prefecture_kana": "ミヤザキケン",
    "prefecture_code": "45",
    "city": "児湯郡西米良村",
    "city_kana": "コユグンニシメラソン",
    "town": "板谷",
    "town_kana": "イタヤ",
    "street": null,
    "office_name": null,
    "office_name_kana": null
  },
  "1413": {
    "zip_code": "8811413",
    "prefecture": "宮崎県",
    "prefecture_kana": "ミヤザキケン",
    "prefecture_code": "45",
    "city": "児湯郡西米良村",
    "city_kana": "コユグンニシメラソン",
    "town": "上米良",
    "town_kana": "カンメラ",
    "street": null,
    "office_name": null,
    "office_name_kana": null
  },
  "1414": {
    "zip_code": "8811414",
    "prefecture": "宮崎県",
    "prefecture_kana": "ミヤザキケン",
    "prefecture_code": "45",
    "city": "児湯郡西米良村",
    "city_kana": "コユグンニシメラソン",
    "town": "竹原",
    "town_kana": "タケワラ",
    "street": null,
    "office_name": null,
    "office_name_kana": null
  },
  "8501": {
    "zip_code": "8818501",
    "prefecture": "宮崎県",
    "prefecture_kana": "ミヤザキケン",
    "prefecture_code": "45",
    "city": "西都市",
    "city_kana": "サイトシ",
    "town": "聖陵町",
    "town_kana": "セイリョウチョウ",
    "street": "２丁目１",
    "office_name": "西都市役所",
    "office_name_kana": "サイトシヤクシヨ"
  },
  "8567": {
    "zip_code": "8818567",
    "prefecture": "宮崎県",
    "prefecture_kana": null,
    "prefecture_code": null,
    "city": "西都市",
    "city_kana": null,
    "town": "大字右松",
    "town_kana": null,
    "street": "２０７１",
    "office_name": "西都農業協同組合",
    "office_name_kana": "サイトノウギヨウキヨウドウクミアイ"
  }
}