{
  "0000": {
    "zip_code": "8850000",
    "prefecture": "宮崎県",
    "prefecture_kana": "ミヤザキケン",
    "prefecture_code": "45",
    "city": "都城市",
    "city_kana": "ミヤコノジョウシ",
    "town": "",
    "town_kana": "",
    "street": null,
    "office_name": null,
    "office_name_kana": null
  },
  "0001": {
    "zip_code": "8850001",
    "prefecture": "宮崎県",
    "prefecture_kana": "ミヤザキケン",
    "prefecture_code": "45",
    "city": "都城市",
    "city_kana": "ミヤコノジョウシ",
    "town": "金田町",
    "town_kana": "カナダチョウ",
    "street": null,
    "office_name": null,
    "office_name_kana": null
  },
  "0002": {
    "zip_code": "8850002",
    "prefecture": "宮崎県",
    "prefecture_kana": "ミヤザキケン",
    "prefecture_code": "45",
    "city": "都城市",
    "city_kana": "ミヤコノジョウシ",
    "town": "太郎坊町",
    "town_kana": "タロボウチョウ",
    "street": null,
    "office_name": null,
    "office_name_kana": null
  },
  "0003": {
    "zip_code": "8850003",
    "prefecture": "宮崎県",
    "prefecture_kana": "ミヤザキケン",
    "prefecture_code": "45",
    "city": "都城市",
    "city_kana": "ミヤコノジョウシ",
    "town": "高木町",
    "town_kana": "タカギチョウ",
    "street": null,
    "office_name": null,
    "office_name_kana": null
  },
  "0004": {
    "zip_code": "8850004",
    "prefecture": "宮崎県",
    "prefecture_kana": "ミヤザキケン",
    "prefecture_code": "45",
    "city": "都城市",
    "city_kana": "ミヤコノジョウシ",
    "town": "都北町",
    "town_kana": "トホクチョウ",
    "street": null,
    "office_name": null,
    "office_name_kana": null
  },
  "0005": {
    "zip_code": "8850005",
    "prefecture": "宮崎県",
    "prefecture_kana": "ミヤザキケン",
    "prefecture_code": "45",
    "city": "都城市",
    "city_kana": "ミヤコノジョウシ",
    "town": "神之山町",
    "town_kana": "ジンノヤマチョウ",
    "street": null,
    "office_name": null,
    "office_name_kana": null
  },
  "0006": {
    "zip_code": "8850006",
    "prefecture": "宮崎県",
    "prefecture_kana": "ミヤザキケン",
    "prefecture_code": "45",
    "city": "都城市",
    "city_kana": "ミヤコノジョウシ",
    "town": "吉尾町",
    "town_kana": "ヨシオチョウ",
    "street": null,
    "office_name": null,
    "office_name_kana": null
  },
  "0011": {
    "zip_code": "8850011",
    "prefecture": "宮崎県",
    "prefecture_kana": "ミヤザキケン",
    "prefecture_code": "45",
    "city": "都城市",
    "city_kana": "ミヤコノジョウシ",
    "town": "下川東",
    "town_kana": "シモカワヒガシ",
    "street": null,
    "office_name": null,
    "office_name_kana": null
  },
  "0012": {
    "zip_code": "8850012",
    "prefecture": "宮崎県",
    "prefecture_kana": "ミヤザキケン",
    "prefecture_code": "45",
    "city": "都城市",
    "city_kana": "ミヤコノジョウシ",
    "town": "上川東",
    "town_kana": "カミカワヒガシ",
    "street": null,
    "office_name": null,
    "office_name_kana": null
  },
  "0013": {
    "zip_code": "8850013",
    "prefecture": "宮崎県",
    "prefecture_kana": "ミヤザキケン",
    "prefecture_code": "45",
    "city": "都城市",
    "city_kana": "ミヤコノジョウシ",
    "town": "郡元町",
    "town_kana": "コオリモトチョウ",
    "street": null,
    "office_name": null,
    "office_name_kana": null
  },
  "0014": {
    "zip_code": "8850014",
    "prefecture": "宮崎県",
    "prefecture_kana": "ミヤザキケン",
    "prefecture_code": "45",
    "city": "都城市",
    "city_kana": "ミヤコノジョウシ",
    "town": "祝吉町",
    "town_kana": "イワヨシチョウ",
    "street": null,
    "office_name": null,
    "office_name_kana": null
  },
  "0015": {
    "zip_code": "8850015",
    "prefecture": "宮崎県",
    "prefecture_kana": "ミヤザキケン",
    "prefecture_code": "45",
    "city": "都城市",
    "city_kana": "ミヤコノジョウシ",
    "town": "千町",
    "town_kana": "センチョウ",
    "street": null,
    "office_name": null,
    "office_name_kana": null
  },
  "0016": {
    "zip_code": "8850016",
    "prefecture": "宮崎県",
    "prefecture_kana": "ミヤザキケン",
    "prefecture_code": "45",
    "city": "都城市",
    "city_kana": "ミヤコノジョウシ",
    "town": "早水町",
    "town_kana": "ハヤミズチョウ",
    "street": null,
    "office_name": null,
    "office_name_kana": null
  },
  "0017": {
    "zip_code": "8850017",
    "prefecture": "宮崎県",
    "prefecture_kana": "ミヤザキケン",
    "prefecture_code": "45",
    "city": "都城市",
    "city_kana": "ミヤコノジョウシ",
    "town": "年見町",
    "town_kana": "トシミチョウ",
    "street": null,
    "office_name": null,
    "office_name_kana": null
  },
  "0018": {
    "zip_code": "8850018",
    "prefecture": "宮崎県",
    "prefecture_kana": "ミヤザキケン",
    "prefecture_code": "45",
    "city": "都城市",
    "city_kana": "ミヤコノジョウシ",
    "town": "郡元",
    "town_kana": "コオリモト",
    "street": null,
    "office_name": null,
    "office_name_kana": null
  },
  "0019": {
    "zip_code": "8850019",
    "prefecture": "宮崎県",
    "prefecture_kana": "ミヤザキケン",
    "prefecture_code": "45",
    "city": "都城市",
    "city_kana": "ミヤコノジョウシ",
    "town": "祝吉",
    "town_kana": "イワヨシ",
    "street": null,
    "office_name": null,
    "office_name_kana": null
  },
  "0021": {
    "zip_code": "8850021",
    "prefecture": "宮崎県",
    "prefecture_kana": "ミヤザキケン",
    "prefecture_code": "45",
    "city": "都城市",
    "city_kana": "ミヤコノジョウシ",
    "town": "平江町",
    "town_kana": "ヒラエチョウ",
    "street": null,
    "office_name": null,
    "office_name_kana": null
  },
  "0022": {
    "zip_code": "8850022",
    "prefecture": "宮崎県",
    "prefecture_kana": "ミヤザキケン",
    "prefecture_code": "45",
    "city": "都城市",
    "city_kana": "ミヤコノジョウシ",
    "town": "小松原町",
    "town_kana": "コマツバラチョウ",
    "street": null,
    "office_name": null,
    "office_name_kana": null
  },
  "0023": {
    "zip_code": "8850023",
    "prefecture": "宮崎県",
    "prefecture_kana": "ミヤザキケン",
    "prefecture_code": "45",
    "city": "都城市",
    "city_kana": "ミヤコノジョウシ",
    "town": "栄町",
    "town_kana": "サカエマチ",
    "street": null,
    "office_name": null,
    "office_name_kana": null
  },
  "0024": {
    "zip_code": "8850024",
    "prefecture": "宮崎県",
    "prefecture_kana": "ミヤザキケン",
    "prefecture_code": "45",
    "city": "都城市",
    "city_kana": "ミヤコノジョウシ",
    "town": "北原町",
    "town_kana": "キタハラチョウ",
    "street": null,
    "office_name": null,
    "office_name_kana": null
  },
  "0025": {
    "zip_code": "8850025",
    "prefecture": "宮崎県",
    "prefecture_kana": "ミヤザキケン",
    "prefecture_code": "45",
    "city": "都城市",
    "city_kana": "ミヤコノジョウシ",
    "town": "前田町",
    "town_kana": "マエダチョウ",
    "street": null,
    "office_name": null,
    "office_name_kana": null
  },
  "0026": {
    "zip_code": "8850026",
    "prefecture": "宮崎県",
    "prefecture_kana": "ミヤザキケン",
    "prefecture_code": "45",
    "city": "都城市",
    "city_kana": "ミヤコノジョウシ",
    "town": "大王町",
    "town_kana": "ダイオウチョウ",
    "street": null,
    "office_name": null,
    "office_name_kana": null
  },
  "0031": {
    "zip_code": "8850031",
    "prefecture": "宮崎県",
    "prefecture_kana": "ミヤザキケン",
    "prefecture_code": "45",
    "city": "都城市",
    "city_kana": "ミヤコノジョウシ",
    "town": "天神町",
    "town_kana": "テンジンチョウ",
    "street": null,
    "office_name": null,
    "office_name_kana": null
  },
  "0032": {
    "zip_code": "8850032",
    "prefecture": "宮崎県",
    "prefecture_kana": "ミヤザキケン",
    "prefecture_code": "45",
    "city": "都城市",
    "city_kana": "ミヤコノジョウシ",
    "town": "中原町",
    "town_kana": "ナカハラチョウ",
    "street": null,
    "office_name": null,
    "office_name_kana": null
  },
  "0033": {
    "zip_code": "8850033",
    "prefecture": "宮崎県",
    "prefecture_kana": "ミヤザキケン",
    "prefecture_code": "45",
    "city": "都城市",
    "city_kana": "ミヤコノジョウシ",
    "town": "妻ケ丘町",
    "town_kana": "ツマガオカチョウ",
    "street": null,
    "office_name": null,
    "office_name_kana": null
  },
  "0034": {
    "zip_code": "8850034",
    "prefecture": "宮崎県",
    "prefecture_kana": "ミヤザキケン",
    "prefecture_code": "45",
    "city": "都城市",
    "city_kana": "ミヤコノジョウシ",
    "town": "菖蒲原町",
    "town_kana": "アヤメバルチョウ",
    "street": null,
    "office_name": null,
    "office_name_kana": null
  },
  "0035": {
    "zip_code": "8850035",
    "prefecture": "宮崎県",
    "prefecture_kana": "ミヤザキケン",
    "prefecture_code": "45",
    "city": "都城市",
    "city_kana": "ミヤコノジョウシ",
    "town": "立野町",
    "town_kana": "タテノチョウ",
    "street": null,
    "office_name": null,
    "office_name_kana": null
  },
  "0036": {
    "zip_code": "8850036",
    "prefecture": "宮崎県",
    "prefecture_kana": "ミヤザキケン",
    "prefecture_code": "45",
    "city": "都城市",
    "city_kana": "ミヤコノジョウシ",
    "town": "広原町",
    "town_kana": "ヒロハラチョウ",
    "street": null,
    "office_name": null,
    "office_name_kana": null
  },
  "0037": {
    "zip_code": "8850037",
    "prefecture": "宮崎県",
    "prefecture_kana": "ミヤザキケン",
    "prefecture_code": "45",
    "city": "都城市",
    "city_kana": "ミヤコノジョウシ",
    "town": "花繰町",
    "town_kana": "ハナグリチョウ",
    "street": null,
    "office_name": null,
    "office_name_kana": null
  },
  "0041": {
    "zip_code": "8850041",
    "prefecture": "宮崎県",
    "prefecture_kana": "ミヤザキケン",
    "prefecture_code": "45",
    "city": "都城市",
    "city_kana": "ミヤコノジョウシ",
    "town": "一万城町",
    "town_kana": "イチマンジョウチョウ",
    "street": null,
    "office_name": null,
    "office_name_kana": null
  },
  "0042": {
    "zip_code": "8850042",
    "prefecture": "宮崎県",
    "prefecture_kana": "ミヤザキケン",
    "prefecture_code": "45",
    "city": "都城市",
    "city_kana": "ミヤコノジョウシ",
    "town": "上長飯町",
    "town_kana": "カミナガエチョウ",
    "street": null,
    "office_name": null,
    "office_name_kana": null
  },
  "0043": {
    "zip_code": "8850043",
    "prefecture": "宮崎県",
    "prefecture_kana": "ミヤザキケン",
    "prefecture_code": "45",
    "city": "都城市",
    "city_kana": "ミヤコノジョウシ",
    "town": "豊満町",
    "town_kana": "トヨミツチョウ",
    "street": null,
    "office_name": null,
    "office_name_kana": null
  },
  "0044": {
    "zip_code": "8850044",
    "prefecture": "宮崎県",
    "prefecture_kana": "ミヤザキケン",
    "prefecture_code": "45",
    "city": "都城市",
    "city_kana": "ミヤコノジョウシ",
    "town": "安久町",
    "town_kana": "ヤスヒサチョウ",
    "street": null,
    "office_name": null,
    "office_name_kana": null
  },
  "0051": {
    "zip_code": "8850051",
    "prefecture": "宮崎県",
    "prefecture_kana": "ミヤザキケン",
    "prefecture_code": "45",
    "city": "都城市",
    "city_kana": "ミヤコノジョウシ",
    "town": "蔵原町",
    "town_kana": "クラハラチョウ",
    "street": null,
    "office_name": null,
    "office_name_kana": null
  },
  "0052": {
    "zip_code": "8850052",
    "prefecture": "宮崎県",
    "prefecture_kana": "ミヤザキケン",
    "prefecture_code": "45",
    "city": "都城市",
    "city_kana": "ミヤコノジョウシ",
    "town": "東町",
    "town_kana": "ヒガシマチ",
    "street": null,
    "office_name": null,
    "office_name_kana": null
  },
  "0053": {
    "zip_code": "8850053",
    "prefecture": "宮崎県",
    "prefecture_kana": "ミヤザキケン",
    "prefecture_code": "45",
    "city": "都城市",
    "city_kana": "ミヤコノジョウシ",
    "town": "上東町",
    "town_kana": "カミヒガシチョウ",
    "street": null,
    "office_name": null,
    "office_name_kana": null
  },
  "0054": {
    "zip_code": "8850054",
    "prefecture": "宮崎県",
    "prefecture_kana": "ミヤザキケン",
    "prefecture_code": "45",
    "city": "都城市",
    "city_kana": "ミヤコノジョウシ",
    "town": "若葉町",
    "town_kana": "ワカバチョウ",
    "street": null,
    "office_name": null,
    "office_name_kana": null
  },
  "0055": {
    "zip_code": "8850055",
    "prefecture": "宮崎県",
    "prefecture_kana": "ミヤザキケン",
    "prefecture_code": "45",
    "city": "都城市",
    "city_kana": "ミヤコノジョウシ",
    "town": "早鈴町",
    "town_kana": "ハヤスズチョウ",
    "street": null,
    "office_name": null,
    "office_name_kana": null
  },
  "0061": {
    "zip_code": "8850061",
    "prefecture": "宮崎県",
    "prefecture_kana": "ミヤザキケン",
    "prefecture_code": "45",
    "city": "都城市",
    "city_kana": "ミヤコノジョウシ",
    "town": "下長飯町",
    "town_kana": "シモナガエチョウ",
    "street": null,
    "office_name": null,
    "office_name_kana": null
  },
  "0062": {
    "zip_code": "8850062",
    "prefecture": "宮崎県",
    "prefecture_kana": "ミヤザキケン",
    "prefecture_code": "45",
    "city": "都城市",
    "city_kana": "ミヤコノジョウシ",
    "town": "大岩田町",
    "town_kana": "オオイワダチョウ",
    "street": null,
    "office_name": null,
    "office_name_kana": null
  },
  "0063": {
    "zip_code": "8850063",
    "prefecture": "宮崎県",
    "prefecture_kana": "ミヤザキケン",
    "prefecture_code": "45",
    "city": "都城市",
    "city_kana": "ミヤコノジョウシ",
    "town": "梅北町",
    "town_kana": "ウメキタチョウ",
    "street": null,
    "office_name": null,
    "office_name_kana": null
  },
  "0064": {
    "zip_code": "8850064",
    "prefecture": "宮崎県",
    "prefecture_kana": "ミヤザキケン",
    "prefecture_code": "45",
    "city": "都城市",
    "city_kana": "ミヤコノジョウシ",
    "town": "今町",
    "town_kana": "イママチ",
    "street": null,
    "office_name": null,
    "office_name_kana": null
  },
  "0071": {
    "zip_code": "8850071",
    "prefecture": "宮崎県",
    "prefecture_kana": "ミヤザキケン",
    "prefecture_code": "45",
    "city": "都城市",
    "city_kana": "ミヤコノジョウシ",
    "town": "中町",
    "town_kana": "ナカマチ",
    "street": null,
    "office_name": null,
    "office_name_kana": null
  },
  "0072": {
    "zip_code": "8850072",
    "prefecture": "宮崎県",
    "prefecture_kana": "ミヤザキケン",
    "prefecture_code": "45",
    "city": "都城市",
    "city_kana": "ミヤコノジョウシ",
    "town": "上町",
    "town_kana": "カンマチ",
    "street": null,
    "office_name": null,
    "office_name_kana": null
  },
  "0073": {
    "zip_code": "8850073",
    "prefecture": "宮崎県",
    "prefecture_kana": "ミヤザキケン",
    "prefecture_code": "45",
    "city": "都城市",
    "city_kana": "ミヤコノジョウシ",
    "town": "姫城町",
    "town_kana": "ヒメギチョウ",
    "street": null,
    "office_name": null,
    "office_name_kana": null
  },
  "0074": {
    "zip_code": "8850074",
    "prefecture": "宮崎県",
    "prefecture_kana": "ミヤザキケン",
    "prefecture_code": "45",
    "city": "都城市",
    "city_kana": "ミヤコノジョウシ",
    "town": "甲斐元町",
    "town_kana": "カイモトチョウ",
    "street": null,
    "office_name": null,
    "office_name_kana": null
  },
  "0075": {
    "zip_code": "8850075",
    "prefecture": "宮崎県",
    "prefecture_kana": "ミヤザキケン",
    "prefecture_code": "45",
    "city": "都城市",
    "city_kana": "ミヤコノジョウシ",
    "town": "八幡町",
    "town_kana": "ハチマンチョウ",
    "street": null,
    "office_name": null,
    "office_name_kana": null
  },
  "0076": {
    "zip_code": "8850076",
    "prefecture": "宮崎県",
    "prefecture_kana": "ミヤザキケン",
    "prefecture_code": "45",
    "city": "都城市",
    "city_kana": "ミヤコノジョウシ",
    "town": "西町",
    "town_kana": "ニシマチ",
    "street": null,
    "office_name": null,
    "office_name_kana": null
  },
  "0077": {
    "zip_code": "8850077",
    "prefecture": "宮崎県",
    "prefecture_kana": "ミヤザキケン",
    "prefecture_code": "45",
    "city": "都城市",
    "city_kana": "ミヤコノジョウシ",
    "town": "松元町",
    "town_kana": "マツモトチョウ",
    "street": null,
    "office_name": null,
    "office_name_kana": null
  },
  "0078": {
    "zip_code": "8850078",
    "prefecture": "宮崎県",
    "prefecture_kana": "ミヤザキケン",
    "prefecture_code": "45",
    "city": "都城市",
    "city_kana": "ミヤコノジョウシ",
    "town": "宮丸町",
    "town_kana": "ミヤマルチョウ",
    "street": null,
    "office_name": null,
    "office_name_kana": null
  },
  "0079": {
    "zip_code": "8850079",
    "prefecture": "宮崎県",
    "prefecture_kana": "ミヤザキケン",
    "prefecture_code": "45",
    "city": "都城市",
    "city_kana": "ミヤコノジョウシ",
    "town": "牟田町",
    "town_kana": "ムタチョウ",
    "street": null,
    "office_name": null,
    "office_name_kana": null
  },
  "0081": {
    "zip_code": "8850081",
    "prefecture": "宮崎県",
    "prefecture_kana": "ミヤザキケン",
    "prefecture_code": "45",
    "city": "都城市",
    "city_kana": "ミヤコノジョウシ",
    "town": "鷹尾",
    "town_kana": "タカオ",
    "street": null,
    "office_name": null,
    "office_name_kana": null
  },
  "0082": {
    "zip_code": "8850082",
    "prefecture": "宮崎県",
    "prefecture_kana": "ミヤザキケン",
    "prefecture_code": "45",
    "city": "都城市",
    "city_kana": "ミヤコノジョウシ",
    "town": "南鷹尾町",
    "town_kana": "ミナミタカオチョウ",
    "street": null,
    "office_name": null,
    "office_name_kana": null
  },
  "0083": {
    "zip_code": "8850083",
    "prefecture": "宮崎県",
    "prefecture_kana": "ミヤザキケン",
    "prefecture_code": "45",
    "city": "都城市",
    "city_kana": "ミヤコノジョウシ",
    "town": "都島町",
    "town_kana": "ミヤコジマチョウ",
    "street": null,
    "office_name": null,
    "office_name_kana": null
  },
  "0084": {
    "zip_code": "8850084",
    "prefecture": "宮崎県",
    "prefecture_kana": "ミヤザキケン",
    "prefecture_code": "45",
    "city": "都城市",
    "city_kana": "ミヤコノジョウシ",
    "town": "五十町",
    "town_kana": "ゴジッチョウ",
    "street": null,
    "office_name": null,
    "office_name_kana": null
  },
  "0085": {
    "zip_code": "8850085",
    "prefecture": "宮崎県",
    "prefecture_kana": "ミヤザキケン",
    "prefecture_code": "45",
    "city": "都城市",
    "city_kana": "ミヤコノジョウシ",
    "town": "平塚町",
    "town_kana": "ヒラツカチョウ",
    "street": null,
    "office_name": null,
    "office_name_kana": null
  },
  "0086": {
    "zip_code": "8850086",
    "prefecture": "宮崎県",
    "prefecture_kana": "ミヤザキケン",
    "prefecture_code": "45",
    "city": "都城市",
    "city_kana": "ミヤコノジョウシ",
    "town": "久保原町",
    "town_kana": "クボバルチョウ",
    "street": null,
    "office_name": null,
    "office_name_kana": null
  },
  "0091": {
    "zip_code": "8850091",
    "prefecture": "宮崎県",
    "prefecture_kana": "ミヤザキケン",
    "prefecture_code": "45",
    "city": "都城市",
    "city_kana": "ミヤコノジョウシ",
    "town": "横市町",
    "town_kana": "ヨコイチチョウ",
    "street": null,
    "office_name": null,
    "office_name_kana": null
  },
  "0092": {
    "zip_code": "8850092",
    "prefecture": "宮崎県",
    "prefecture_kana": "ミヤザキケン",
    "prefecture_code": "45",
    "city": "都城市",
    "city_kana": "ミヤコノジョウシ",
    "town": "南横市町",
    "town_kana": "ミナミヨコイチチョウ",
    "street": null,
    "office_name": null,
    "office_name_kana": null
  },
  "0093": {
    "zip_code": "8850093",
    "prefecture": "宮崎県",
    "prefecture_kana": "ミヤザキケン",
    "prefecture_code": "45",
    "city": "都城市",
    "city_kana": "ミヤコノジョウシ",
    "town": "志比田町",
    "town_kana": "シビタチョウ",
    "street": null,
    "office_name": null,
    "office_name_kana": null
  },
  "0094": {
    "zip_code": "8850094",
    "prefecture": "宮崎県",
    "prefecture_kana": "ミヤザキケン",
    "prefecture_code": "45",
    "city": "都城市",
    "city_kana": "ミヤコノジョウシ",
    "town": "都原町",
    "town_kana": "ミヤコバルチョウ",
    "street": null,
    "office_name": null,
    "office_name_kana": null
  },
  "0095": {
    "zip_code": "8850095",
    "prefecture": "宮崎県",
    "prefecture_kana": "ミヤザキケン",
    "prefecture_code": "45",
    "city": "都城市",
    "city_kana": "ミヤコノジョウシ",
    "town": "蓑原町",
    "town_kana": "ミノバルチョウ",
    "street": null,
    "office_name": null,
    "office_name_kana": null
  },
  "0111": {
    "zip_code": "8850111",
    "prefecture": "宮崎県",
    "prefecture_kana": "ミヤザキケン",
    "prefecture_code": "45",
    "city": "都城市",
    "city_kana": "ミヤコノジョウシ",
    "town": "菓子野町",
    "town_kana": "カシノチョウ",
    "street": null,
    "office_name": null,
    "office_name_kana": null
  },
  "0112": {
    "zip_code": "8850112",
    "prefecture": "宮崎県",
    "prefecture_kana": "ミヤザキケン",
    "prefecture_code": "45",
    "city": "都城市",
    "city_kana": "ミヤコノジョウシ",
    "town": "乙房町",
    "town_kana": "オトボウチョウ",
    "street": null,
    "office_name": null,
    "office_name_kana": null
  },
  "0113": {
    "zip_code": "8850113",
    "prefecture": "宮崎県",
    "prefecture_kana": "ミヤザキケン",
    "prefecture_code": "45",
    "city": "都城市",
    "city_kana": "ミヤコノジョウシ",
    "town": "関之尾町",
    "town_kana": "セキノオチョウ",
    "street": null,
    "office_name": null,
    "office_name_kana": null
  },
  "0114": {
    "zip_code": "8850114",
    "prefecture": "宮崎県",
    "prefecture_kana": "ミヤザキケン",
    "prefecture_code": "45",
    "city": "都城市",
    "city_kana": "ミヤコノジョウシ",
    "town": "庄内町",
    "town_kana": "ショウナイチョウ",
    "street": null,
    "office_name": null,
    "office_name_kana": null
  },
  "0221": {
    "zip_code": "8850221",
    "prefecture": "宮崎県",
    "prefecture_kana": "ミヤザキケン",
    "prefecture_code": "45",
    "city": "都城市",
    "city_kana": "ミヤコノジョウシ",
    "town": "高野町",
    "town_kana": "タカノチョウ",
    "street": null,
    "office_name": null,
    "office_name_kana": null
  },
  "0222": {
    "zip_code": "8850222",
    "prefecture": "宮崎県",
    "prefecture_kana": "ミヤザキケン",
    "prefecture_code": "45",
    "city": "都城市",
    "city_kana": "ミヤコノジョウシ",
    "town": "美川町",
    "town_kana": "ミカワチョウ",
    "street": null,
    "office_name": null,
    "office_name_kana": null
  },
  "0223": {
    "zip_code": "8850223",
    "prefecture": "宮崎県",
    "prefecture_kana": "ミヤザキケン",
    "prefecture_code": "45",
    "city": "都城市",
    "city_kana": "ミヤコノジョウシ",
    "town": "吉之元町",
    "town_kana": "ヨシノモトチョウ",
    "street": null,
    "office_name": null,
    "office_name_kana": null
  },
  "0224": {
    "zip_code": "8850224",
    "prefecture": "宮崎県",
    "prefecture_kana": "ミヤザキケン",
    "prefecture_code": "45",
    "city": "都城市",
    "city_kana": "ミヤコノジョウシ",
    "town": "御池町",
    "town_kana": "ミイケチョウ",
    "street": null,
    "office_name": null,
    "office_name_kana": null
  },
  "0225": {
    "zip_code": "8850225",
    "prefecture": "宮崎県",
    "prefecture_kana": "ミヤザキケン",
    "prefecture_code": "45",
    "city": "都城市",
    "city_kana": "ミヤコノジョウシ",
    "town": "夏尾町",
    "town_kana": "ナツオチョウ",
    "street": null,
    "office_name": null,
    "office_name_kana": null
  },
  "1101": {
    "zip_code": "8851101",
    "prefecture": "宮崎県",
    "prefecture_kana": "ミヤザキケン",
    "prefecture_code": "45",
    "city": "都城市",
    "city_kana": "ミヤコノジョウシ",
    "town": "岩満町",
    "town_kana": "イワミツチョウ",
    "street": null,
    "office_name": null,
    "office_name_kana": null
  },
  "1102": {
    "zip_code": "8851102",
    "prefecture": "宮崎県",
    "prefecture_kana": "ミヤザキケン",
    "prefecture_code": "45",
    "city": "都城市",
    "city_kana": "ミヤコノジョウシ",
    "town": "下水流町",
    "town_kana": "シモズルチョウ",
    "street": null,
    "office_name": null,
    "office_name_kana": null
  },
  "1103": {
    "zip_code": "8851103",
    "prefecture": "宮崎県",
    "prefecture_kana": "ミヤザキケン",
    "prefecture_code": "45",
    "city": "都城市",
    "city_kana": "ミヤコノジョウシ",
    "town": "上水流町",
    "town_kana": "カミズルチョウ",
    "street": null,
    "office_name": null,
    "office_name_kana": null
  },
  "1104": {
    "zip_code": "8851104",
    "prefecture": "宮崎県",
    "prefecture_kana": "ミヤザキケン",
    "prefecture_code": "45",
    "city": "都城市",
    "city_kana": "ミヤコノジョウシ",
    "town": "野々美谷町",
    "town_kana": "ノノミタニチョウ",
    "street": null,
    "office_name": null,
    "office_name_kana": null
  },
  "1105": {
    "zip_code": "8851105",
    "prefecture": "宮崎県",
    "prefecture_kana": "ミヤザキケン",
    "prefecture_code": "45",
    "city": "都城市",
    "city_kana": "ミヤコノジョウシ",
    "town": "丸谷町",
    "town_kana": "マルタニチョウ",
    "street": null,
    "office_name": null,
    "office_name_kana": null
  },
  "1201": {
    "zip_code": "8851201",
    "prefecture": "宮崎県",
    "prefecture_kana": "ミヤザキケン",
    "prefecture_code": "45",
    "city": "都城市",
    "city_kana": "ミヤコノジョウシ",
    "town": "高城町高城",
    "town_kana": "タカジョウチョウタカジョウ",
    "street": null,
    "office_name": null,
    "office_name_kana": null
  },
  "1202": {
    "zip_code": "8851202",
    "prefecture": "宮崎県",
    "prefecture_kana": "ミヤザキケン",
    "prefecture_code": "45",
    "city": "都城市",
    "city_kana": "ミヤコノジョウシ",
    "town": "高城町穂満坊",
    "town_kana": "タカジョウチョウホマンボウ",
    "street": null,
    "office_name": null,
    "office_name_kana": null
  },
  "1203": {
    "zip_code": "8851203",
    "prefecture": "宮崎県",
    "prefecture_kana": "ミヤザキケン",
    "prefecture_code": "45",
    "city": "都城市",
    "city_kana": "ミヤコノジョウシ",
    "town": "高城町大井手",
    "town_kana": "タカジョウチョウオオイデ",
    "street": null,
    "office_name": null,
    "office_name_kana": null
  },
  "1204": {
    "zip_code": "8851204",
    "prefecture": "宮崎県",
    "prefecture_kana": "ミヤザキケン",
    "prefecture_code": "45",
    "city": "都城市",
    "city_kana": "ミヤコノジョウシ",
    "town": "高城町桜木",
    "town_kana": "タカジョウチョウサクラギ",
    "street": null,
    "office_name": null,
    "office_name_kana": null
  },
  "1205": {
    "zip_code": "8851205",
    "prefecture": "宮崎県",
    "prefecture_kana": "ミヤザキケン",
    "prefecture_code": "45",
    "city": "都城市",
    "city_kana": "ミヤコノジョウシ",
    "town": "高城町石山",
    "town_kana": "タカジョウチョウイシヤマ",
    "street": null,
    "office_name": null,
    "office_name_kana": null
  },
  "1292": {
    "zip_code": "8851292",
    "prefecture": "宮崎県",
    "prefecture_kana": "ミヤザキケン",
    "prefecture_code": "45",
    "city": "都城市",
    "city_kana": "ミヤコノジョウシ",
    "town": "高城町大井手",
    "town_kana": "タカジョウチョウオオイデ",
    "street": "１９４５−１",
    "office_name": "株式会社　シンコー",
    "office_name_kana": "カブシキガイシヤ シンコ-"
  },
  "1295": {
    "zip_code": "8851295",
    "prefecture": "宮崎県",
    "prefecture_kana": "ミヤザキケン",
    "prefecture_code": "45",
    "city": "都城市",
    "city_kana": "ミヤコノジョウシ",
    "town": "高城町穂満坊",
    "town_kana": "タカジョウチョウホマンボウ",
    "street": "３０６",
    "office_name": "都城市　高城総合支所",
    "office_name_kana": "ミヤコノジヨウシ タカジヨウソウゴウシシヨ"
  },
  "1298": {
    "zip_code": "8851298",
    "prefecture": "宮崎県",
    "prefecture_kana": "ミヤザキケン",
    "prefecture_code": "45",
    "city": "都城市",
    "city_kana": "ミヤコノジョウシ",
    "town": "高城町穂満坊",
    "town_kana": "タカジョウチョウホマンボウ",
    "street": "１５６",
    "office_name": "宮崎県立　高城高等学校",
    "office_name_kana": "ミヤザキケンリツ タカジヨウコウトウガツコウ"
  },
  "1311": {
    "zip_code": "8851311",
    "prefecture": "宮崎県",
    "prefecture_kana": "ミヤザキケン",
    "prefecture_code": "45",
    "city": "都城市",
    "city_kana": "ミヤコノジョウシ",
    "town": "高城町有水",
    "town_kana": "タカジョウチョウアリミズ",
    "street": null,
    "office_name": null,
    "office_name_kana": null
  },
  "1312": {
    "zip_code": "8851312",
    "prefecture": "宮崎県",
    "prefecture_kana": "ミヤザキケン",
    "prefecture_code": "45",
    "city": "都城市",
    "city_kana": "ミヤコノジョウシ",
    "town": "高城町四家",
    "town_kana": "タカジョウチョウシカ",
    "street": null,
    "office_name": null,
    "office_name_kana": null
  },
  "8501": {
    "zip_code": "8858501",
    "prefecture": "宮崎県",
    "prefecture_kana": "ミヤザキケン",
    "prefecture_code": "45",
    "city": "都城市",
    "city_kana": "ミヤコノジョウシ",
    "town": "一万城町",
    "town_kana": "イチマンジョウチョウ",
    "street": "７１−１",
    "office_name": "都城社会保険事務所",
    "office_name_kana": "ミヤコノジヨウシヤカイホケンジムシヨ"
  },
  "8502": {
    "zip_code": "8858502",
    "prefecture": "宮崎県",
    "prefecture_kana": "ミヤザキケン",
    "prefecture_code": "45",
    "city": "都城市",
    "city_kana": "ミヤコノジョウシ",
    "town": "蓑原町",
    "town_kana": "ミノバルチョウ",
    "street": "７９１６",
    "office_name": "都城高等学校",
    "office_name_kana": "ミヤコノジヨウコウトウガツコウ"
  },
  "8511": {
    "zip_code": "8858511",
    "prefecture": "宮崎県",
    "prefecture_kana": "ミヤザキケン",
    "prefecture_code": "45",
    "city": "都城市",
    "city_kana": "ミヤコノジョウシ",
    "town": "前田町",
    "town_kana": "マエダチョウ",
    "street": "１−１",
    "office_name": "エヌ・ティ・ティマーケティングアクト南九州　株式会社　都城営業所",
    "office_name_kana": "エヌ・テイ・テイマ-ケテイングアクトミナミキユウシユウ カブシキガイシヤ ミヤコノジヨウエイギヨウシヨ"
  },
  "8533": {
    "zip_code": "8858533",
    "prefecture": "宮崎県",
    "prefecture_kana": "ミヤザキケン",
    "prefecture_code": "45",
    "city": "都城市",
    "city_kana": "ミヤコノジョウシ",
    "town": "平江町",
    "town_kana": "ヒラエチョウ",
    "street": "２街区１３号",
    "office_name": "株式会社　シティエフエム都城",
    "office_name_kana": "カブシキガイシヤ シテイエフエムミヤコノジヨウ"
  },
  "8555": {
    "zip_code": "8858555",
    "prefecture": "宮崎県",
    "prefecture_kana": "ミヤザキケン",
    "prefecture_code": "45",
    "city": "都城市",
    "city_kana": "ミヤコノジョウシ",
    "town": "姫城町",
    "town_kana": "ヒメギチョウ",
    "street": "６−２１",
    "office_name": "都城市役所",
    "office_name_kana": "ミヤコノジヨウシヤクシヨ"
  },
  "8567": {
    "zip_code": "8858567",
    "prefecture": "宮崎県",
    "prefecture_kana": "ミヤザキケン",
    "prefecture_code": "45",
    "city": "都城市",
    "city_kana": "ミヤコノジョウシ",
    "town": "吉尾町",
    "town_kana": "ヨシオチョウ",
    "street": "４７３−１",
    "office_name": "都城工業高等専門学校",
    "office_name_kana": "ミヤコノジヨウコウギヨウコウトウセンモンガツコウ"
  },
  "8585": {
    "zip_code": "8858585",
    "prefecture": "宮崎県",
    "prefecture_kana": "ミヤザキケン",
    "prefecture_code": "45",
    "city": "都城市",
    "city_kana": "ミヤコノジョウシ",
    "town": "姫城町",
    "town_kana": "ヒメギチョウ",
    "street": "３３−５",
    "office_name": "九州電力　株式会社　都城営業所",
    "office_name_kana": "キユウシユウデンリヨク カブシキガイシヤ ミヤコノジヨウエイギヨウシヨ"
  },
  "8588": {
    "zip_code": "8858588",
    "prefecture": "宮崎県",
    "prefecture_kana": "ミヤザキケン",
    "prefecture_code": "45",
    "city": "都城市",
    "city_kana": "ミヤコノジョウシ",
    "town": "下川東",
    "town_kana": "シモカワヒガシ",
    "street": "４丁目２８−１",
    "office_name": "霧島酒造　株式会社",
    "office_name_kana": "キリシマシユゾウ カブシキガイシヤ"
  },
  "8601": {
    "zip_code": "8858601",
    "prefecture": "宮崎県",
    "prefecture_kana": "ミヤザキケン",
    "prefecture_code": "45",
    "city": "都城市",
    "city_kana": "ミヤコノジョウシ",
    "town": "中町",
    "town_kana": "ナカマチ",
    "street": "１４−１５（都城郵便局私書箱第５号）",
    "office_name": "大浦　株式会社",
    "office_name_kana": "オオウラ カブシキガイシヤ"
  },
  "8610": {
    "zip_code": "8858610",
    "prefecture": "宮崎県",
    "prefecture_kana": "ミヤザキケン",
    "prefecture_code": "45",
    "city": "都城市",
    "city_kana": "ミヤコノジョウシ",
    "town": "上町",
    "town_kana": "カンマチ",
    "street": "８−１３（都城郵便局私書箱第１０号）",
    "office_name": "宮崎銀行　都城支店",
    "office_name_kana": "ミヤザキギンコウ ミヤコノジヨウシテン"
  },
  "8611": {
    "zip_code": "8858611",
    "prefecture": "宮崎県",
    "prefecture_kana": "ミヤザキケン",
    "prefecture_code": "45",
    "city": "都城市",
    "city_kana": "ミヤコノジョウシ",
    "town": "姫城町",
    "town_kana": "ヒメギチョウ",
    "street": "４−１（都城郵便局私書箱第１９号）",
    "office_name": "都城商工会議所",
    "office_name_kana": "ミヤコノジヨウシヨウコウカイギシヨ"
  },
  "8618": {
    "zip_code": "8858618",
    "prefecture": "宮崎県",
    "prefecture_kana": "ミヤザキケン",
    "prefecture_code": "45",
    "city": "都城市",
    "city_kana": "ミヤコノジョウシ",
    "town": "上町",
    "town_kana": "カンマチ",
    "street": "２−１１（都城郵便局私書箱第１４号）",
    "office_name": "都城税務署",
    "office_name_kana": "ミヤコノジヨウゼイムシヨ"
  },
  "8636": {
    "zip_code": "8858636",
    "prefecture": "宮崎県",
    "prefecture_kana": "ミヤザキケン",
    "prefecture_code": "45",
    "city": "都城市",
    "city_kana": "ミヤコノジョウシ",
    "town": "中原町",
    "town_kana": "ナカハラチョウ",
    "street": "３２−１（都城郵便局私書箱第３６号）",
    "office_name": "吉原建設株式会社",
    "office_name_kana": "ヨシハラケンセツ カブシキガイシヤ"
  }
}