{
  "0801": {
    "zip_code": "8920801",
    "prefecture": "鹿児島県",
    "prefecture_kana": "カゴシマケン",
    "prefecture_code": "46",
    "city": "鹿児島市",
    "city_kana": "カゴシマシ",
    "town": "稲荷町",
    "town_kana": "イナリチョウ",
    "street": null,
    "office_name": null,
    "office_name_kana": null
  },
  "0802": {
    "zip_code": "8920802",
    "prefecture": "鹿児島県",
    "prefecture_kana": "カゴシマケン",
    "prefecture_code": "46",
    "city": "鹿児島市",
    "city_kana": "カゴシマシ",
    "town": "清水町",
    "town_kana": "シミズチョウ",
    "street": null,
    "office_name": null,
    "office_name_kana": null
  },
  "0803": {
    "zip_code": "8920803",
    "prefecture": "鹿児島県",
    "prefecture_kana": "カゴシマケン",
    "prefecture_code": "46",
    "city": "鹿児島市",
    "city_kana": "カゴシマシ",
    "town": "祇園之洲町",
    "town_kana": "ギオンノスチョウ",
    "street": null,
    "office_name": null,
    "office_name_kana": null
  },
  "0804": {
    "zip_code": "8920804",
    "prefecture": "鹿児島県",
    "prefecture_kana": "カゴシマケン",
    "prefecture_code": "46",
    "city": "鹿児島市",
    "city_kana": "カゴシマシ",
    "town": "春日町",
    "town_kana": "カスガチョウ",
    "street": null,
    "office_name": null,
    "office_name_kana": null
  },
  "0805": {
    "zip_code": "8920805",
    "prefecture": "鹿児島県",
    "prefecture_kana": "カゴシマケン",
    "prefecture_code": "46",
    "city": "鹿児島市",
    "city_kana": "カゴシマシ",
    "town": "大竜町",
    "town_kana": "ダイリュウチョウ",
    "street": null,
    "office_name": null,
    "office_name_kana": null
  },
  "0806": {
    "zip_code": "8920806",
    "prefecture": "鹿児島県",
    "prefecture_kana": "カゴシマケン",
    "prefecture_code": "46",
    "city": "鹿児島市",
    "city_kana": "カゴシマシ",
    "town": "池之上町",
    "town_kana": "イケノウエチョウ",
    "street": null,
    "office_name": null,
    "office_name_kana": null
  },
  "0807": {
    "zip_code": "8920807",
    "prefecture": "鹿児島県",
    "prefecture_kana": "カゴシマケン",
    "prefecture_code": "46",
    "city": "鹿児島市",
    "city_kana": "カゴシマシ",
    "town": "皷川町",
    "town_kana": "ツヅミガワチョウ",
    "street": null,
    "office_name": null,
    "office_name_kana": null
  },
  "0811": {
    "zip_code": "8920811",
    "prefecture": "鹿児島県",
    "prefecture_kana": "カゴシマケン",
    "prefecture_code": "46",
    "city": "鹿児島市",
    "city_kana": "カゴシマシ",
    "town": "玉里団地",
    "town_kana": "タマザトダンチ",
    "street": null,
    "office_name": null,
    "office_name_kana": null
  },
  "0812": {
    "zip_code": "8920812",
    "prefecture": "鹿児島県",
    "prefecture_kana": "カゴシマケン",
    "prefecture_code": "46",
    "city": "鹿児島市",
    "city_kana": "カゴシマシ",
    "town": "浜町",
    "town_kana": "ハママチ",
    "street": null,
    "office_name": null,
    "office_name_kana": null
  },
  "0813": {
    "zip_code": "8920813",
    "prefecture": "鹿児島県",
    "prefecture_kana": "カゴシマケン",
    "prefecture_code": "46",
    "city": "鹿児島市",
    "city_kana": "カゴシマシ",
    "town": "城山",
    "town_kana": "シロヤマ",
    "street": null,
    "office_name": null,
    "office_name_kana": null
  },
  "0814": {
    "zip_code": "8920814",
    "prefecture": "鹿児島県",
    "prefecture_kana": "カゴシマケン",
    "prefecture_code": "46",
    "city": "鹿児島市",
    "city_kana": "カゴシマシ",
    "town": "本港新町",
    "town_kana": "ホンコウシンマチ",
    "street": null,
    "office_name": null,
    "office_name_kana": null
  },
  "0815": {
    "zip_code": "8920815",
    "prefecture": "鹿児島県",
    "prefecture_kana": "カゴシマケン",
    "prefecture_code": "46",
    "city": "鹿児島市",
    "city_kana": "カゴシマシ",
    "town": "易居町",
    "town_kana": "ヤスイチョウ",
    "street": null,
    "office_name": null,
    "office_name_kana": null
  },
  "0816": {
    "zip_code": "8920816",
    "prefecture": "鹿児島県",
    "prefecture_kana": "カゴシマケン",
    "prefecture_code": "46",
    "city": "鹿児島市",
    "city_kana": "カゴシマシ",
    "town": "山下町",
    "town_kana": "ヤマシタチョウ",
    "street": null,
    "office_name": null,
    "office_name_kana": null
  },
  "0817": {
    "zip_code": "8920817",
    "prefecture": "鹿児島県",
    "prefecture_kana": "カゴシマケン",
    "prefecture_code": "46",
    "city": "鹿児島市",
    "city_kana": "カゴシマシ",
    "town": "小川町",
    "town_kana": "オガワチョウ",
    "street": null,
    "office_name": null,
    "office_name_kana": null
  },
  "0818": {
    "zip_code": "8920818",
    "prefecture": "鹿児島県",
    "prefecture_kana": "カゴシマケン",
    "prefecture_code": "46",
    "city": "鹿児島市",
    "city_kana": "カゴシマシ",
    "town": "上本町",
    "town_kana": "カミホンマチ",
    "street": null,
    "office_name": null,
    "office_name_kana": null
  },
  "0819": {
    "zip_code": "8920819",
    "prefecture": "鹿児島県",
    "prefecture_kana": "カゴシマケン",
    "prefecture_code": "46",
    "city": "鹿児島市",
    "city_kana": "カゴシマシ",
    "town": "柳町",
    "town_kana": "ヤナギマチ",
    "street": null,
    "office_name": null,
    "office_name_kana": null
  },
  "0821": {
    "zip_code": "8920821",
    "prefecture": "鹿児島県",
    "prefecture_kana": "カゴシマケン",
    "prefecture_code": "46",
    "city": "鹿児島市",
    "city_kana": "カゴシマシ",
    "town": "名山町",
    "town_kana": "メイザンチョウ",
    "street": null,
    "office_name": null,
    "office_name_kana": null
  },
  "0822": {
    "zip_code": "8920822",
    "prefecture": "鹿児島県",
    "prefecture_kana": "カゴシマケン",
    "prefecture_code": "46",
    "city": "鹿児島市",
    "city_kana": "カゴシマシ",
    "town": "泉町",
    "town_kana": "イズミチョウ",
    "street": null,
    "office_name": null,
    "office_name_kana": null
  },
  "0823": {
    "zip_code": "8920823",
    "prefecture": "鹿児島県",
    "prefecture_kana": "カゴシマケン",
    "prefecture_code": "46",
    "city": "鹿児島市",
    "city_kana": "カゴシマシ",
    "town": "住吉町",
    "town_kana": "スミヨシチョウ",
    "street": null,
    "office_name": null,
    "office_name_kana": null
  },
  "0824": {
    "zip_code": "8920824",
    "prefecture": "鹿児島県",
    "prefecture_kana": "カゴシマケン",
    "prefecture_code": "46",
    "city": "鹿児島市",
    "city_kana": "カゴシマシ",
    "town": "堀江町",
    "town_kana": "ホリエチョウ",
    "street": null,
    "office_name": null,
    "office_name_kana": null
  },
  "0825": {
    "zip_code": "8920825",
    "prefecture": "鹿児島県",
    "prefecture_kana": "カゴシマケン",
    "prefecture_code": "46",
    "city": "鹿児島市",
    "city_kana": "カゴシマシ",
    "town": "大黒町",
    "town_kana": "ダイコクチョウ",
    "street": null,
    "office_name": null,
    "office_name_kana": null
  },
  "0826": {
    "zip_code": "8920826",
    "prefecture": "鹿児島県",
    "prefecture_kana": "カゴシマケン",
    "prefecture_code": "46",
    "city": "鹿児島市",
    "city_kana": "カゴシマシ",
    "town": "呉服町",
    "town_kana": "ゴフクマチ",
    "street": null,
    "office_name": null,
    "office_name_kana": null
  },
  "0827": {
    "zip_code": "8920827",
    "prefecture": "鹿児島県",
    "prefecture_kana": "カゴシマケン",
    "prefecture_code": "46",
    "city": "鹿児島市",
    "city_kana": "カゴシマシ",
    "town": "中町",
    "town_kana": "ナカマチ",
    "street": null,
    "office_name": null,
    "office_name_kana": null
  },
  "0828": {
    "zip_code": "8920828",
    "prefecture": "鹿児島県",
    "prefecture_kana": "カゴシマケン",
    "prefecture_code": "46",
    "city": "鹿児島市",
    "city_kana": "カゴシマシ",
    "town": "金生町",
    "town_kana": "キンセイチョウ",
    "street": null,
    "office_name": null,
    "office_name_kana": null
  },
  "0831": {
    "zip_code": "8920831",
    "prefecture": "鹿児島県",
    "prefecture_kana": "カゴシマケン",
    "prefecture_code": "46",
    "city": "鹿児島市",
    "city_kana": "カゴシマシ",
    "town": "船津町",
    "town_kana": "フナツチョウ",
    "street": null,
    "office_name": null,
    "office_name_kana": null
  },
  "0832": {
    "zip_code": "8920832",
    "prefecture": "鹿児島県",
    "prefecture_kana": "カゴシマケン",
    "prefecture_code": "46",
    "city": "鹿児島市",
    "city_kana": "カゴシマシ",
    "town": "新町",
    "town_kana": "シンマチ",
    "street": null,
    "office_name": null,
    "office_name_kana": null
  },
  "0833": {
    "zip_code": "8920833",
    "prefecture": "鹿児島県",
    "prefecture_kana": "カゴシマケン",
    "prefecture_code": "46",
    "city": "鹿児島市",
    "city_kana": "カゴシマシ",
    "town": "松原町",
    "town_kana": "マツバラチョウ",
    "street": null,
    "office_name": null,
    "office_name_kana": null
  },
  "0834": {
    "zip_code": "8920834",
    "prefecture": "鹿児島県",
    "prefecture_kana": "カゴシマケン",
    "prefecture_code": "46",
    "city": "鹿児島市",
    "city_kana": "カゴシマシ",
    "town": "南林寺町",
    "town_kana": "ナンリンジチョウ",
    "street": null,
    "office_name": null,
    "office_name_kana": null
  },
  "0835": {
    "zip_code": "8920835",
    "prefecture": "鹿児島県",
    "prefecture_kana": "カゴシマケン",
    "prefecture_code": "46",
    "city": "鹿児島市",
    "city_kana": "カゴシマシ",
    "town": "城南町",
    "town_kana": "ジョウナンチョウ",
    "street": null,
    "office_name": null,
    "office_name_kana": null
  },
  "0836": {
    "zip_code": "8920836",
    "prefecture": "鹿児島県",
    "prefecture_kana": "カゴシマケン",
    "prefecture_code": "46",
    "city": "鹿児島市",
    "city_kana": "カゴシマシ",
    "town": "錦江町",
    "town_kana": "キンコウチョウ",
    "street": null,
    "office_name": null,
    "office_name_kana": null
  },
  "0837": {
    "zip_code": "8920837",
    "prefecture": "鹿児島県",
    "prefecture_kana": "カゴシマケン",
    "prefecture_code": "46",
    "city": "鹿児島市",
    "city_kana": "カゴシマシ",
    "town": "甲突町",
    "town_kana": "コウツキチョウ",
    "street": null,
    "office_name": null,
    "office_name_kana": null
  },
  "0838": {
    "zip_code": "8920838",
    "prefecture": "鹿児島県",
    "prefecture_kana": "カゴシマケン",
    "prefecture_code": "46",
    "city": "鹿児島市",
    "city_kana": "カゴシマシ",
    "town": "新屋敷町",
    "town_kana": "シンヤシキチョウ",
    "street": null,
    "office_name": null,
    "office_name_kana": null
  },
  "0841": {
    "zip_code": "8920841",
    "prefecture": "鹿児島県",
    "prefecture_kana": "カゴシマケン",
    "prefecture_code": "46",
    "city": "鹿児島市",
    "city_kana": "カゴシマシ",
    "town": "照国町",
    "town_kana": "テルクニチョウ",
    "street": null,
    "office_name": null,
    "office_name_kana": null
  },
  "0842": {
    "zip_code": "8920842",
    "prefecture": "鹿児島県",
    "prefecture_kana": "カゴシマケン",
    "prefecture_code": "46",
    "city": "鹿児島市",
    "city_kana": "カゴシマシ",
    "town": "東千石町",
    "town_kana": "ヒガシセンゴクチョウ",
    "street": null,
    "office_name": null,
    "office_name_kana": null
  },
  "0843": {
    "zip_code": "8920843",
    "prefecture": "鹿児島県",
    "prefecture_kana": "カゴシマケン",
    "prefecture_code": "46",
    "city": "鹿児島市",
    "city_kana": "カゴシマシ",
    "town": "千日町",
    "town_kana": "センニチチョウ",
    "street": null,
    "office_name": null,
    "office_name_kana": null
  },
  "0844": {
    "zip_code": "8920844",
    "prefecture": "鹿児島県",
    "prefecture_kana": "カゴシマケン",
    "prefecture_code": "46",
    "city": "鹿児島市",
    "city_kana": "カゴシマシ",
    "town": "山之口町",
    "town_kana": "ヤマノクチチョウ",
    "street": null,
    "office_name": null,
    "office_name_kana": null
  },
  "0845": {
    "zip_code": "8920845",
    "prefecture": "鹿児島県",
    "prefecture_kana": "カゴシマケン",
    "prefecture_code": "46",
    "city": "鹿児島市",
    "city_kana": "カゴシマシ",
    "town": "樋之口町",
    "town_kana": "テノクチチョウ",
    "street": null,
    "office_name": null,
    "office_name_kana": null
  },
  "0846": {
    "zip_code": "8920846",
    "prefecture": "鹿児島県",
    "prefecture_kana": "カゴシマケン",
    "prefecture_code": "46",
    "city": "鹿児島市",
    "city_kana": "カゴシマシ",
    "town": "加治屋町",
    "town_kana": "カジヤチョウ",
    "street": null,
    "office_name": null,
    "office_name_kana": null
  },
  "0847": {
    "zip_code": "8920847",
    "prefecture": "鹿児島県",
    "prefecture_kana": "カゴシマケン",
    "prefecture_code": "46",
    "city": "鹿児島市",
    "city_kana": "カゴシマシ",
    "town": "西千石町",
    "town_kana": "ニシセンゴクチョウ",
    "street": null,
    "office_name": null,
    "office_name_kana": null
  },
  "0848": {
    "zip_code": "8920848",
    "prefecture": "鹿児島県",
    "prefecture_kana": "カゴシマケン",
    "prefecture_code": "46",
    "city": "鹿児島市",
    "city_kana": "カゴシマシ",
    "town": "平之町",
    "town_kana": "ヒラノチョウ",
    "street": null,
    "office_name": null,
    "office_name_kana": null
  },
  "0851": {
    "zip_code": "8920851",
    "prefecture": "鹿児島県",
    "prefecture_kana": "カゴシマケン",
    "prefecture_code": "46",
    "city": "鹿児島市",
    "city_kana": "カゴシマシ",
    "town": "上竜尾町",
    "town_kana": "カミタツオチョウ",
    "street": null,
    "office_name": null,
    "office_name_kana": null
  },
  "0852": {
    "zip_code": "8920852",
    "prefecture": "鹿児島県",
    "prefecture_kana": "カゴシマケン",
    "prefecture_code": "46",
    "city": "鹿児島市",
    "city_kana": "カゴシマシ",
    "town": "下竜尾町",
    "town_kana": "シモタツオチョウ",
    "street": null,
    "office_name": null,
    "office_name_kana": null
  },
  "0853": {
    "zip_code": "8920853",
    "prefecture": "鹿児島県",
    "prefecture_kana": "カゴシマケン",
    "prefecture_code": "46",
    "city": "鹿児島市",
    "city_kana": "カゴシマシ",
    "town": "城山町",
    "town_kana": "シロヤマチョウ",
    "street": null,
    "office_name": null,
    "office_name_kana": null
  },
  "0854": {
    "zip_code": "8920854",
    "prefecture": "鹿児島県",
    "prefecture_kana": "カゴシマケン",
    "prefecture_code": "46",
    "city": "鹿児島市",
    "city_kana": "カゴシマシ",
    "town": "長田町",
    "town_kana": "ナガタチョウ",
    "street": null,
    "office_name": null,
    "office_name_kana": null
  },
  "0855": {
    "zip_code": "8920855",
    "prefecture": "鹿児島県",
    "prefecture_kana": "カゴシマケン",
    "prefecture_code": "46",
    "city": "鹿児島市",
    "city_kana": "カゴシマシ",
    "town": "冷水町",
    "town_kana": "ヒヤミズチョウ",
    "street": null,
    "office_name": null,
    "office_name_kana": null
  },
  "0861": {
    "zip_code": "8920861",
    "prefecture": "鹿児島県",
    "prefecture_kana": "カゴシマケン",
    "prefecture_code": "46",
    "city": "鹿児島市",
    "city_kana": "カゴシマシ",
    "town": "東坂元",
    "town_kana": "ヒガシサカモト",
    "street": null,
    "office_name": null,
    "office_name_kana": null
  },
  "0862": {
    "zip_code": "8920862",
    "prefecture": "鹿児島県",
    "prefecture_kana": "カゴシマケン",
    "prefecture_code": "46",
    "city": "鹿児島市",
    "city_kana": "カゴシマシ",
    "town": "坂元町",
    "town_kana": "サカモトチョウ",
    "street": null,
    "office_name": null,
    "office_name_kana": null
  },
  "0863": {
    "zip_code": "8920863",
    "prefecture": "鹿児島県",
    "prefecture_kana": "カゴシマケン",
    "prefecture_code": "46",
    "city": "鹿児島市",
    "city_kana": "カゴシマシ",
    "town": "西坂元町",
    "town_kana": "ニシサカモトチョウ",
    "street": null,
    "office_name": null,
    "office_name_kana": null
  },
  "0871": {
    "zip_code": "8920871",
    "prefecture": "鹿児島県",
    "prefecture_kana": "カゴシマケン",
    "prefecture_code": "46",
    "city": "鹿児島市",
    "city_kana": "カゴシマシ",
    "town": "吉野町",
    "town_kana": "ヨシノチョウ",
    "street": null,
    "office_name": null,
    "office_name_kana": null
  },
  "0872": {
    "zip_code": "8920872",
    "prefecture": "鹿児島県",
    "prefecture_kana": "カゴシマケン",
    "prefecture_code": "46",
    "city": "鹿児島市",
    "city_kana": "カゴシマシ",
    "town": "大明丘",
    "town_kana": "ダイミョウガオカ",
    "street": null,
    "office_name": null,
    "office_name_kana": null
  },
  "0873": {
    "zip_code": "8920873",
    "prefecture": "鹿児島県",
    "prefecture_kana": "カゴシマケン",
    "prefecture_code": "46",
    "city": "鹿児島市",
    "city_kana": "カゴシマシ",
    "town": "下田町",
    "town_kana": "シモタチョウ",
    "street": null,
    "office_name": null,
    "office_name_kana": null
  },
  "0874": {
    "zip_code": "8920874",
    "prefecture": "鹿児島県",
    "prefecture_kana": "カゴシマケン",
    "prefecture_code": "46",
    "city": "鹿児島市",
    "city_kana": "カゴシマシ",
    "town": "緑ヶ丘町",
    "town_kana": "ミドリガオカチョウ",
    "street": null,
    "office_name": null,
    "office_name_kana": null
  },
  "0875": {
    "zip_code": "8920875",
    "prefecture": "鹿児島県",
    "prefecture_kana": "カゴシマケン",
    "prefecture_code": "46",
    "city": "鹿児島市",
    "city_kana": "カゴシマシ",
    "town": "川上町",
    "town_kana": "カワカミチョウ",
    "street": null,
    "office_name": null,
    "office_name_kana": null
  },
  "0876": {
    "zip_code": "8920876",
    "prefecture": "鹿児島県",
    "prefecture_kana": "カゴシマケン",
    "prefecture_code": "46",
    "city": "鹿児島市",
    "city_kana": "カゴシマシ",
    "town": "岡之原町",
    "town_kana": "オカノハラチョウ",
    "street": null,
    "office_name": null,
    "office_name_kana": null
  },
  "0877": {
    "zip_code": "8920877",
    "prefecture": "鹿児島県",
    "prefecture_kana": "カゴシマケン",
    "prefecture_code": "46",
    "city": "鹿児島市",
    "city_kana": "カゴシマシ",
    "town": "吉野",
    "town_kana": "ヨシノ",
    "street": null,
    "office_name": null,
    "office_name_kana": null
  },
  "8501": {
    "zip_code": "8928501",
    "prefecture": "鹿児島県",
    "prefecture_kana": "カゴシマケン",
    "prefecture_code": "46",
    "city": "鹿児島市",
    "city_kana": "カゴシマシ",
    "town": "山下町",
    "town_kana": "ヤマシタチョウ",
    "street": "１３−４７",
    "office_name": "鹿児島地方裁判所・鹿児島家庭裁判所・鹿児島簡易裁判所・鹿児島検察審査会",
    "office_name_kana": "カゴシマチホウサイバンシヨ・カゴシマカテイサイバンシヨ・カゴシマカンイサイバンシヨ・カゴシマケンサツシンサカイ"
  },
  "8502": {
    "zip_code": "8928502",
    "prefecture": "鹿児島県",
    "prefecture_kana": "カゴシマケン",
    "prefecture_code": "46",
    "city": "鹿児島市",
    "city_kana": "カゴシマシ",
    "town": "下竜尾町",
    "town_kana": "シモタツオチョウ",
    "street": "４−１６",
    "office_name": "今給黎総合病院（財団法人　昭和会）",
    "office_name_kana": "イマキイレソウゴウビヨウイン(ザイダンホウジン シヨウワカイ)"
  },
  "8505": {
    "zip_code": "8928505",
    "prefecture": "鹿児島県",
    "prefecture_kana": "カゴシマケン",
    "prefecture_code": "46",
    "city": "鹿児島市",
    "city_kana": "カゴシマシ",
    "town": "錦江町",
    "town_kana": "キンコウチョウ",
    "street": "８−２１",
    "office_name": "ＬＥＡＰ出版　株式会社",
    "office_name_kana": "リ-プシユツパン カブシキカイシヤ"
  },
  "8512": {
    "zip_code": "8928512",
    "prefecture": "鹿児島県",
    "prefecture_kana": "カゴシマケン",
    "prefecture_code": "46",
    "city": "鹿児島市",
    "city_kana": "カゴシマシ",
    "town": "長田町",
    "town_kana": "ナガタチョウ",
    "street": "１４−３",
    "office_name": "社団法人　鹿児島共済会　南風病院",
    "office_name_kana": "シヤダンホウジン カゴシマキヨウサイカイ ナンプウビヨウイン"
  },
  "8515": {
    "zip_code": "8928515",
    "prefecture": "鹿児島県",
    "prefecture_kana": "カゴシマケン",
    "prefecture_code": "46",
    "city": "鹿児島市",
    "city_kana": "カゴシマシ",
    "town": "泉町",
    "town_kana": "イズミチョウ",
    "street": "１４番１号",
    "office_name": "株式会社　南日本リビング新聞社",
    "office_name_kana": "カブシキガイシヤ ミナミニツポンリビングシンブンシヤ"
  },
  "8520": {
    "zip_code": "8928520",
    "prefecture": "鹿児島県",
    "prefecture_kana": "カゴシマケン",
    "prefecture_code": "46",
    "city": "鹿児島市",
    "city_kana": "カゴシマシ",
    "town": "小川町",
    "town_kana": "オガワチョウ",
    "street": "３−５６",
    "office_name": "鹿児島地域振興局　総務企画部",
    "office_name_kana": "カゴシマチイキシンコウキヨク ソウムキカクブ"
  },
  "8530": {
    "zip_code": "8928530",
    "prefecture": "鹿児島県",
    "prefecture_kana": "カゴシマケン",
    "prefecture_code": "46",
    "city": "鹿児島市",
    "city_kana": "カゴシマシ",
    "town": "平之町",
    "town_kana": "ヒラノチョウ",
    "street": "７−３３",
    "office_name": "株式会社　十字屋",
    "office_name_kana": "カブシキガイシヤ ジユウジヤ"
  },
  "8531": {
    "zip_code": "8928531",
    "prefecture": "鹿児島県",
    "prefecture_kana": "カゴシマケン",
    "prefecture_code": "46",
    "city": "鹿児島市",
    "city_kana": "カゴシマシ",
    "town": "中町",
    "town_kana": "ナカマチ",
    "street": "６−１４",
    "office_name": "株式会社　さつま屋",
    "office_name_kana": "カブシキガイシヤ サツマヤ"
  },
  "8533": {
    "zip_code": "8928533",
    "prefecture": "鹿児島県",
    "prefecture_kana": "カゴシマケン",
    "prefecture_code": "46",
    "city": "鹿児島市",
    "city_kana": "カゴシマシ",
    "town": "山之口町",
    "town_kana": "ヤマノクチチョウ",
    "street": "５−２",
    "office_name": "九州労働金庫　鹿児島県本部",
    "office_name_kana": "キユウシユウロウドウキンコ カゴシマケンホンブ"
  },
  "8535": {
    "zip_code": "8928535",
    "prefecture": "鹿児島県",
    "prefecture_kana": "カゴシマケン",
    "prefecture_code": "46",
    "city": "鹿児島市",
    "city_kana": "カゴシマシ",
    "town": "山下町",
    "town_kana": "ヤマシタチョウ",
    "street": "１３番２１号",
    "office_name": "鹿児島労働局",
    "office_name_kana": "カゴシマロウドウキヨク"
  },
  "8539": {
    "zip_code": "8928539",
    "prefecture": "鹿児島県",
    "prefecture_kana": "カゴシマケン",
    "prefecture_code": "46",
    "city": "鹿児島市",
    "city_kana": "カゴシマシ",
    "town": "山下町",
    "town_kana": "ヤマシタチョウ",
    "street": "９−５",
    "office_name": "白露カンパニー　株式会社",
    "office_name_kana": "シラツユカンパニ- カブシキガイシヤ"
  },
  "8540": {
    "zip_code": "8928540",
    "prefecture": "鹿児島県",
    "prefecture_kana": "カゴシマケン",
    "prefecture_code": "46",
    "city": "鹿児島市",
    "city_kana": "カゴシマシ",
    "town": "加治屋町",
    "town_kana": "カジヤチョウ",
    "street": "１８−８三井生命鹿児島ビル５階",
    "office_name": "全国健康保険協会　鹿児島支部",
    "office_name_kana": "ゼンコクケンコウホケンキヨウカイ カゴシマシブ"
  },
  "8543": {
    "zip_code": "8928543",
    "prefecture": "鹿児島県",
    "prefecture_kana": "カゴシマケン",
    "prefecture_code": "46",
    "city": "鹿児島市",
    "city_kana": "カゴシマシ",
    "town": "名山町",
    "town_kana": "メイザンチョウ",
    "street": "１０−２２",
    "office_name": "鹿児島県　土地改良事業団体連合会",
    "office_name_kana": "カゴシマケン トチカイリヨウジギヨウダンタイレンゴウカイ"
  },
  "8550": {
    "zip_code": "8928550",
    "prefecture": "鹿児島県",
    "prefecture_kana": "カゴシマケン",
    "prefecture_code": "46",
    "city": "鹿児島市",
    "city_kana": "カゴシマシ",
    "town": "新屋敷町",
    "town_kana": "シンヤシキチョウ",
    "street": "１６−１６",
    "office_name": "社団法人　鹿児島県労働基準協会",
    "office_name_kana": "シヤダンホウジン カゴシマケンロウドウキジユンキヨウカイ"
  },
  "8555": {
    "zip_code": "8928555",
    "prefecture": "鹿児島県",
    "prefecture_kana": "カゴシマケン",
    "prefecture_code": "46",
    "city": "鹿児島市",
    "city_kana": "カゴシマシ",
    "town": "千日町",
    "town_kana": "センニチチョウ",
    "street": "１−１２",
    "office_name": "高島屋開発　株式会社",
    "office_name_kana": "タカシマヤカイハツ カブシキガイシヤ"
  },
  "8558": {
    "zip_code": "8928558",
    "prefecture": "鹿児島県",
    "prefecture_kana": "カゴシマケン",
    "prefecture_code": "46",
    "city": "鹿児島市",
    "city_kana": "カゴシマシ",
    "town": "松原町",
    "town_kana": "マツバラチョウ",
    "street": "４−２６",
    "office_name": "西日本電信電話　株式会社　鹿児島支店",
    "office_name_kana": "ニシニホンデンシンデンワ カブシキガイシヤ カゴシマシテン"
  },
  "8563": {
    "zip_code": "8928563",
    "prefecture": "鹿児島県",
    "prefecture_kana": "カゴシマケン",
    "prefecture_code": "46",
    "city": "鹿児島市",
    "city_kana": "カゴシマシ",
    "town": "樋之口町",
    "town_kana": "テノクチチョウ",
    "street": "１−１",
    "office_name": "ＭＢＣ開発　株式会社",
    "office_name_kana": "エムビ-シ-カイハツ カブシキガイシヤ"
  },
  "8566": {
    "zip_code": "8928566",
    "prefecture": "鹿児島県",
    "prefecture_kana": "カゴシマケン",
    "prefecture_code": "46",
    "city": "鹿児島市",
    "city_kana": "カゴシマシ",
    "town": "西千石町",
    "town_kana": "ニシセンゴクチョウ",
    "street": "１１−１９",
    "office_name": "株式会社　明昭堂",
    "office_name_kana": "カブシキガイシヤ メイシヨウドウ"
  },
  "8567": {
    "zip_code": "8928567",
    "prefecture": "鹿児島県",
    "prefecture_kana": "カゴシマケン",
    "prefecture_code": "46",
    "city": "鹿児島市",
    "city_kana": "カゴシマシ",
    "town": "加治屋町",
    "town_kana": "カジヤチョウ",
    "street": "１２−５",
    "office_name": "東京海上日動火災保険　株式会社　鹿児島支店",
    "office_name_kana": "トウキヨウカイジヨウニチドウカサイホケン カブシキガイシヤ カゴシマシテン"
  },
  "8580": {
    "zip_code": "8928580",
    "prefecture": "鹿児島県",
    "prefecture_kana": "カゴシマケン",
    "prefecture_code": "46",
    "city": "鹿児島市",
    "city_kana": "カゴシマシ",
    "town": "加治屋町",
    "town_kana": "カジヤチョウ",
    "street": "２０−１７",
    "office_name": "鹿児島市立病院",
    "office_name_kana": "カゴシマシリツビヨウイン"
  },
  "8585": {
    "zip_code": "8928585",
    "prefecture": "鹿児島県",
    "prefecture_kana": "カゴシマケン",
    "prefecture_code": "46",
    "city": "鹿児島市",
    "city_kana": "カゴシマシ",
    "town": "大黒町",
    "town_kana": "ダイコクチョウ",
    "street": "１−１",
    "office_name": "株式会社　ハルタ",
    "office_name_kana": "カブシキガイシヤ ハルタ"
  },
  "8586": {
    "zip_code": "8928586",
    "prefecture": "鹿児島県",
    "prefecture_kana": "カゴシマケン",
    "prefecture_code": "46",
    "city": "鹿児島市",
    "city_kana": "カゴシマシ",
    "town": "名山町",
    "town_kana": "メイザンチョウ",
    "street": "１−２３",
    "office_name": "鹿児島信用金庫",
    "office_name_kana": "カゴシマシンヨウキンコ"
  },
  "8588": {
    "zip_code": "8928588",
    "prefecture": "鹿児島県",
    "prefecture_kana": "カゴシマケン",
    "prefecture_code": "46",
    "city": "鹿児島市",
    "city_kana": "カゴシマシ",
    "town": "東千石町",
    "town_kana": "ヒガシセンゴクチョウ",
    "street": "１−３８",
    "office_name": "鹿児島商工会議所",
    "office_name_kana": "カゴシマシヨウコウガイギシヨ"
  },
  "8601": {
    "zip_code": "8928601",
    "prefecture": "鹿児島県",
    "prefecture_kana": "カゴシマケン",
    "prefecture_code": "46",
    "city": "鹿児島市",
    "city_kana": "カゴシマシ",
    "town": "金生町",
    "town_kana": "キンセイチョウ",
    "street": "３−１（鹿児島東郵便局私書箱第１号）",
    "office_name": "株式会社　山形屋",
    "office_name_kana": "カブシキガイシヤ ヤマカタヤ"
  },
  "8603": {
    "zip_code": "8928603",
    "prefecture": "鹿児島県",
    "prefecture_kana": "カゴシマケン",
    "prefecture_code": "46",
    "city": "鹿児島市",
    "city_kana": "カゴシマシ",
    "town": "本港新町",
    "town_kana": "ホンコウシンマチ",
    "street": "４−６（鹿児島東郵便局私書箱第１００号）",
    "office_name": "ＮＨＫ　鹿児島放送局",
    "office_name_kana": "エヌエイチケイ カゴシマホウソウキヨク"
  },
  "8611": {
    "zip_code": "8928611",
    "prefecture": "鹿児島県",
    "prefecture_kana": "カゴシマケン",
    "prefecture_code": "46",
    "city": "鹿児島市",
    "city_kana": "カゴシマシ",
    "town": "山下町",
    "town_kana": "ヤマシタチョウ",
    "street": "１−１（鹿児島東郵便局私書箱第２３号）",
    "office_name": "株式会社　南日本銀行",
    "office_name_kana": "カブシキガイシヤ ミナミニツポンギンコウ"
  },
  "8626": {
    "zip_code": "8928626",
    "prefecture": "鹿児島県",
    "prefecture_kana": "カゴシマケン",
    "prefecture_code": "46",
    "city": "鹿児島市",
    "city_kana": "カゴシマシ",
    "town": "名山町",
    "town_kana": "メイザンチョウ",
    "street": "１−２６（鹿児島東郵便局私書箱第４０号）",
    "office_name": "国民生活金融公庫",
    "office_name_kana": "コクミンセイカツキンユウコウコ"
  },
  "8633": {
    "zip_code": "8928633",
    "prefecture": "鹿児島県",
    "prefecture_kana": "カゴシマケン",
    "prefecture_code": "46",
    "city": "鹿児島市",
    "city_kana": "カゴシマシ",
    "town": "金生町",
    "town_kana": "キンセイチョウ",
    "street": "６−９（鹿児島東郵便局私書箱第６６号）",
    "office_name": "大和証券　株式会社　鹿児島支店",
    "office_name_kana": "ダイワシヨウケン カブシキガイシヤ カゴシマシテン"
  },
  "8650": {
    "zip_code": "8928650",
    "prefecture": "鹿児島県",
    "prefecture_kana": "カゴシマケン",
    "prefecture_code": "46",
    "city": "鹿児島市",
    "city_kana": "カゴシマシ",
    "town": "金生町",
    "town_kana": "キンセイチョウ",
    "street": "６−６（鹿児島東郵便局私書箱第５０号）",
    "office_name": "株式会社　鹿児島銀行",
    "office_name_kana": "カブシキガイシヤ カゴシマギンコウ"
  },
  "8677": {
    "zip_code": "8928677",
    "prefecture": "鹿児島県",
    "prefecture_kana": "カゴシマケン",
    "prefecture_code": "46",
    "city": "鹿児島市",
    "city_kana": "カゴシマシ",
    "town": "山下町",
    "town_kana": "ヤマシタチョウ",
    "street": "１１−１（鹿児島東郵便局私書箱第２０号）",
    "office_name": "鹿児島市役所",
    "office_name_kana": "カゴシマシヤクシヨ"
  },
  "8688": {
    "zip_code": "8928688",
    "prefecture": "鹿児島県",
    "prefecture_kana": "カゴシマケン",
    "prefecture_code": "46",
    "city": "鹿児島市",
    "city_kana": "カゴシマシ",
    "town": "東千石町",
    "town_kana": "ヒガシセンゴクチョウ",
    "street": "２−３０（鹿児島東郵便局私書箱第７５号）",
    "office_name": "ＮＣガイドショップ",
    "office_name_kana": "エヌシ-ガイドシヨツプ"
  }
}