{
  "0000": {
    "zip_code": "8940000",
    "prefecture": "鹿児島県",
    "prefecture_kana": "カゴシマケン",
    "prefecture_code": "46",
    "city": "奄美市",
    "city_kana": "アマミシ",
    "town": "",
    "town_kana": "",
    "street": null,
    "office_name": null,
    "office_name_kana": null
  },
  "0001": {
    "zip_code": "8940001",
    "prefecture": "鹿児島県",
    "prefecture_kana": "カゴシマケン",
    "prefecture_code": "46",
    "city": "奄美市",
    "city_kana": "アマミシ",
    "town": "名瀬大熊",
    "town_kana": "ナゼダイクマ",
    "street": null,
    "office_name": null,
    "office_name_kana": null
  },
  "0002": {
    "zip_code": "8940002",
    "prefecture": "鹿児島県",
    "prefecture_kana": "カゴシマケン",
    "prefecture_code": "46",
    "city": "奄美市",
    "city_kana": "アマミシ",
    "town": "名瀬有屋",
    "town_kana": "ナゼアリヤ",
    "street": null,
    "office_name": null,
    "office_name_kana": null
  },
  "0003": {
    "zip_code": "8940003",
    "prefecture": "鹿児島県",
    "prefecture_kana": "カゴシマケン",
    "prefecture_code": "46",
    "city": "奄美市",
    "city_kana": "アマミシ",
    "town": "名瀬仲勝",
    "town_kana": "ナゼナカガチ",
    "street": null,
    "office_name": null,
    "office_name_kana": null
  },
  "0004": {
    "zip_code": "8940004",
    "prefecture": "鹿児島県",
    "prefecture_kana": "カゴシマケン",
    "prefecture_code": "46",
    "city": "奄美市",
    "city_kana": "アマミシ",
    "town": "名瀬鳩浜町",
    "town_kana": "ナゼハトハマチョウ",
    "street": null,
    "office_name": null,
    "office_name_kana": null
  },
  "0005": {
    "zip_code": "8940005",
    "prefecture": "鹿児島県",
    "prefecture_kana": "カゴシマケン",
    "prefecture_code": "46",
    "city": "奄美市",
    "city_kana": "アマミシ",
    "town": "名瀬佐大熊町",
    "town_kana": "ナゼサダイクマチョウ",
    "street": null,
    "office_name": null,
    "office_name_kana": null
  },
  "0006": {
    "zip_code": "8940006",
    "prefecture": "鹿児島県",
    "prefecture_kana": "カゴシマケン",
    "prefecture_code": "46",
    "city": "奄美市",
    "city_kana": "アマミシ",
    "town": "名瀬小浜町",
    "town_kana": "ナゼコハマチョウ",
    "street": null,
    "office_name": null,
    "office_name_kana": null
  },
  "0007": {
    "zip_code": "8940007",
    "prefecture": "鹿児島県",
    "prefecture_kana": "カゴシマケン",
    "prefecture_code": "46",
    "city": "奄美市",
    "city_kana": "アマミシ",
    "town": "名瀬和光町",
    "town_kana": "ナゼワコウチョウ",
    "street": null,
    "office_name": null,
    "office_name_kana": null
  },
  "0008": {
    "zip_code": "8940008",
    "prefecture": "鹿児島県",
    "prefecture_kana": "カゴシマケン",
    "prefecture_code": "46",
    "city": "奄美市",
    "city_kana": "アマミシ",
    "town": "名瀬浦上",
    "town_kana": "ナゼウラガミ",
    "street": null,
    "office_name": null,
    "office_name_kana": null
  },
  "0009": {
    "zip_code": "8940009",
    "prefecture": "鹿児島県",
    "prefecture_kana": "カゴシマケン",
    "prefecture_code": "46",
    "city": "奄美市",
    "city_kana": "アマミシ",
    "town": "名瀬大熊町",
    "town_kana": "ナゼダイクマチョウ",
    "street": null,
    "office_name": null,
    "office_name_kana": null
  },
  "0011": {
    "zip_code": "8940011",
    "prefecture": "鹿児島県",
    "prefecture_kana": "カゴシマケン",
    "prefecture_code": "46",
    "city": "奄美市",
    "city_kana": "アマミシ",
    "town": "名瀬安勝町",
    "town_kana": "ナゼアンガチチョウ",
    "street": null,
    "office_name": null,
    "office_name_kana": null
  },
  "0012": {
    "zip_code": "8940012",
    "prefecture": "鹿児島県",
    "prefecture_kana": "カゴシマケン",
    "prefecture_code": "46",
    "city": "奄美市",
    "city_kana": "アマミシ",
    "town": "名瀬小俣町",
    "town_kana": "ナゼコマタチョウ",
    "street": null,
    "office_name": null,
    "office_name_kana": null
  },
  "0013": {
    "zip_code": "8940013",
    "prefecture": "鹿児島県",
    "prefecture_kana": "カゴシマケン",
    "prefecture_code": "46",
    "city": "奄美市",
    "city_kana": "アマミシ",
    "town": "名瀬春日町",
    "town_kana": "ナゼカスガチョウ",
    "street": null,
    "office_name": null,
    "office_name_kana": null
  },
  "0014": {
    "zip_code": "8940014",
    "prefecture": "鹿児島県",
    "prefecture_kana": "カゴシマケン",
    "prefecture_code": "46",
    "city": "奄美市",
    "city_kana": "アマミシ",
    "town": "名瀬平田町",
    "town_kana": "ナゼヒラタチョウ",
    "street": null,
    "office_name": null,
    "office_name_kana": null
  },
  "0015": {
    "zip_code": "8940015",
    "prefecture": "鹿児島県",
    "prefecture_kana": "カゴシマケン",
    "prefecture_code": "46",
    "city": "奄美市",
    "city_kana": "アマミシ",
    "town": "名瀬真名津町",
    "town_kana": "ナゼマナヅチョウ",
    "street": null,
    "office_name": null,
    "office_name_kana": null
  },
  "0016": {
    "zip_code": "8940016",
    "prefecture": "鹿児島県",
    "prefecture_kana": "カゴシマケン",
    "prefecture_code": "46",
    "city": "奄美市",
    "city_kana": "アマミシ",
    "town": "名瀬古田町",
    "town_kana": "ナゼフルタチョウ",
    "street": null,
    "office_name": null,
    "office_name_kana": null
  },
  "0017": {
    "zip_code": "8940017",
    "prefecture": "鹿児島県",
    "prefecture_kana": "カゴシマケン",
    "prefecture_code": "46",
    "city": "奄美市",
    "city_kana": "アマミシ",
    "town": "名瀬石橋町",
    "town_kana": "ナゼイシバシチョウ",
    "street": null,
    "office_name": null,
    "office_name_kana": null
  },
  "0021": {
    "zip_code": "8940021",
    "prefecture": "鹿児島県",
    "prefecture_kana": "カゴシマケン",
    "prefecture_code": "46",
    "city": "奄美市",
    "city_kana": "アマミシ",
    "town": "名瀬伊津部町",
    "town_kana": "ナゼイツブチョウ",
    "street": null,
    "office_name": null,
    "office_name_kana": null
  },
  "0022": {
    "zip_code": "8940022",
    "prefecture": "鹿児島県",
    "prefecture_kana": "カゴシマケン",
    "prefecture_code": "46",
    "city": "奄美市",
    "city_kana": "アマミシ",
    "town": "名瀬久里町",
    "town_kana": "ナゼクサトチョウ",
    "street": null,
    "office_name": null,
    "office_name_kana": null
  },
  "0023": {
    "zip_code": "8940023",
    "prefecture": "鹿児島県",
    "prefecture_kana": "カゴシマケン",
    "prefecture_code": "46",
    "city": "奄美市",
    "city_kana": "アマミシ",
    "town": "名瀬永田町",
    "town_kana": "ナゼナガタチョウ",
    "street": null,
    "office_name": null,
    "office_name_kana": null
  },
  "0024": {
    "zip_code": "8940024",
    "prefecture": "鹿児島県",
    "prefecture_kana": "カゴシマケン",
    "prefecture_code": "46",
    "city": "奄美市",
    "city_kana": "アマミシ",
    "town": "名瀬井根町",
    "town_kana": "ナゼイネチョウ",
    "street": null,
    "office_name": null,
    "office_name_kana": null
  },
  "0025": {
    "zip_code": "8940025",
    "prefecture": "鹿児島県",
    "prefecture_kana": "カゴシマケン",
    "prefecture_code": "46",
    "city": "奄美市",
    "city_kana": "アマミシ",
    "town": "名瀬幸町",
    "town_kana": "ナゼサイワイチョウ",
    "street": null,
    "office_name": null,
    "office_name_kana": null
  },
  "0026": {
    "zip_code": "8940026",
    "prefecture": "鹿児島県",
    "prefecture_kana": "カゴシマケン",
    "prefecture_code": "46",
    "city": "奄美市",
    "city_kana": "アマミシ",
    "town": "名瀬港町",
    "town_kana": "ナゼミナトマチ",
    "street": null,
    "office_name": null,
    "office_name_kana": null
  },
  "0027": {
    "zip_code": "8940027",
    "prefecture": "鹿児島県",
    "prefecture_kana": "カゴシマケン",
    "prefecture_code": "46",
    "city": "奄美市",
    "city_kana": "アマミシ",
    "town": "名瀬末広町",
    "town_kana": "ナゼスエヒロチョウ",
    "street": null,
    "office_name": null,
    "office_name_kana": null
  },
  "0031": {
    "zip_code": "8940031",
    "prefecture": "鹿児島県",
    "prefecture_kana": "カゴシマケン",
    "prefecture_code": "46",
    "city": "奄美市",
    "city_kana": "アマミシ",
    "town": "名瀬金久町",
    "town_kana": "ナゼカネクチョウ",
    "street": null,
    "office_name": null,
    "office_name_kana": null
  },
  "0032": {
    "zip_code": "8940032",
    "prefecture": "鹿児島県",
    "prefecture_kana": "カゴシマケン",
    "prefecture_code": "46",
    "city": "奄美市",
    "city_kana": "アマミシ",
    "town": "名瀬柳町",
    "town_kana": "ナゼヤナギマチ",
    "street": null,
    "office_name": null,
    "office_name_kana": null
  },
  "0033": {
    "zip_code": "8940033",
    "prefecture": "鹿児島県",
    "prefecture_kana": "カゴシマケン",
    "prefecture_code": "46",
    "city": "奄美市",
    "city_kana": "アマミシ",
    "town": "名瀬矢之脇町",
    "town_kana": "ナゼヤノワキチョウ",
    "street": null,
    "office_name": null,
    "office_name_kana": null
  },
  "0034": {
    "zip_code": "8940034",
    "prefecture": "鹿児島県",
    "prefecture_kana": "カゴシマケン",
    "prefecture_code": "46",
    "city": "奄美市",
    "city_kana": "アマミシ",
    "town": "名瀬入舟町",
    "town_kana": "ナゼイリフネチョウ",
    "street": null,
    "office_name": null,
    "office_name_kana": null
  },
  "0035": {
    "zip_code": "8940035",
    "prefecture": "鹿児島県",
    "prefecture_kana": "カゴシマケン",
    "prefecture_code": "46",
    "city": "奄美市",
    "city_kana": "アマミシ",
    "town": "名瀬塩浜町",
    "town_kana": "ナゼシオハマチョウ",
    "street": null,
    "office_name": null,
    "office_name_kana": null
  },
  "0036": {
    "zip_code": "8940036",
    "prefecture": "鹿児島県",
    "prefecture_kana": "カゴシマケン",
    "prefecture_code": "46",
    "city": "奄美市",
    "city_kana": "アマミシ",
    "town": "名瀬長浜町",
    "town_kana": "ナゼナガハマチョウ",
    "street": null,
    "office_name": null,
    "office_name_kana": null
  },
  "0041": {
    "zip_code": "8940041",
    "prefecture": "鹿児島県",
    "prefecture_kana": "カゴシマケン",
    "prefecture_code": "46",
    "city": "奄美市",
    "city_kana": "アマミシ",
    "town": "名瀬朝仁新町",
    "town_kana": "ナゼアサニシンマチ",
    "street": null,
    "office_name": null,
    "office_name_kana": null
  },
  "0042": {
    "zip_code": "8940042",
    "prefecture": "鹿児島県",
    "prefecture_kana": "カゴシマケン",
    "prefecture_code": "46",
    "city": "奄美市",
    "city_kana": "アマミシ",
    "town": "名瀬朝仁町",
    "town_kana": "ナゼアサニチョウ",
    "street": null,
    "office_name": null,
    "office_name_kana": null
  },
  "0043": {
    "zip_code": "8940043",
    "prefecture": "鹿児島県",
    "prefecture_kana": "カゴシマケン",
    "prefecture_code": "46",
    "city": "奄美市",
    "city_kana": "アマミシ",
    "town": "名瀬朝仁",
    "town_kana": "ナゼアサニ",
    "street": null,
    "office_name": null,
    "office_name_kana": null
  },
  "0044": {
    "zip_code": "8940044",
    "prefecture": "鹿児島県",
    "prefecture_kana": "カゴシマケン",
    "prefecture_code": "46",
    "city": "奄美市",
    "city_kana": "アマミシ",
    "town": "名瀬浜里町",
    "town_kana": "ナゼハマサトチョウ",
    "street": null,
    "office_name": null,
    "office_name_kana": null
  },
  "0045": {
    "zip_code": "8940045",
    "prefecture": "鹿児島県",
    "prefecture_kana": "カゴシマケン",
    "prefecture_code": "46",
    "city": "奄美市",
    "city_kana": "アマミシ",
    "town": "名瀬平松町",
    "town_kana": "ナゼヒラマツチョウ",
    "street": null,
    "office_name": null,
    "office_name_kana": null
  },
  "0046": {
    "zip_code": "8940046",
    "prefecture": "鹿児島県",
    "prefecture_kana": "カゴシマケン",
    "prefecture_code": "46",
    "city": "奄美市",
    "city_kana": "アマミシ",
    "town": "名瀬小宿",
    "town_kana": "ナゼコシュク",
    "street": null,
    "office_name": null,
    "office_name_kana": null
  },
  "0047": {
    "zip_code": "8940047",
    "prefecture": "鹿児島県",
    "prefecture_kana": "カゴシマケン",
    "prefecture_code": "46",
    "city": "奄美市",
    "city_kana": "アマミシ",
    "town": "名瀬知名瀬",
    "town_kana": "ナゼチナセ",
    "street": null,
    "office_name": null,
    "office_name_kana": null
  },
  "0048": {
    "zip_code": "8940048",
    "prefecture": "鹿児島県",
    "prefecture_kana": "カゴシマケン",
    "prefecture_code": "46",
    "city": "奄美市",
    "city_kana": "アマミシ",
    "town": "名瀬根瀬部",
    "town_kana": "ナゼネセブ",
    "street": null,
    "office_name": null,
    "office_name_kana": null
  },
  "0061": {
    "zip_code": "8940061",
    "prefecture": "鹿児島県",
    "prefecture_kana": "カゴシマケン",
    "prefecture_code": "46",
    "city": "奄美市",
    "city_kana": "アマミシ",
    "town": "名瀬朝日町",
    "town_kana": "ナゼアサヒチョウ",
    "street": null,
    "office_name": null,
    "office_name_kana": null
  },
  "0062": {
    "zip_code": "8940062",
    "prefecture": "鹿児島県",
    "prefecture_kana": "カゴシマケン",
    "prefecture_code": "46",
    "city": "奄美市",
    "city_kana": "アマミシ",
    "town": "名瀬有屋町",
    "town_kana": "ナゼアリヤチョウ",
    "street": null,
    "office_name": null,
    "office_name_kana": null
  },
  "0063": {
    "zip_code": "8940063",
    "prefecture": "鹿児島県",
    "prefecture_kana": "カゴシマケン",
    "prefecture_code": "46",
    "city": "奄美市",
    "city_kana": "アマミシ",
    "town": "名瀬仲勝町",
    "town_kana": "ナゼナカガチチョウ",
    "street": null,
    "office_name": null,
    "office_name_kana": null
  },
  "0068": {
    "zip_code": "8940068",
    "prefecture": "鹿児島県",
    "prefecture_kana": "カゴシマケン",
    "prefecture_code": "46",
    "city": "奄美市",
    "city_kana": "アマミシ",
    "town": "名瀬浦上町",
    "town_kana": "ナゼウラガミチョウ",
    "street": null,
    "office_name": null,
    "office_name_kana": null
  },
  "0100": {
    "zip_code": "8940100",
    "prefecture": "鹿児島県",
    "prefecture_kana": "カゴシマケン",
    "prefecture_code": "46",
    "city": "大島郡龍郷町",
    "city_kana": "オオシマグンタツゴウチョウ",
    "town": "",
    "town_kana": "",
    "street": null,
    "office_name": null,
    "office_name_kana": null
  },
  "0101": {
    "zip_code": "8940101",
    "prefecture": "鹿児島県",
    "prefecture_kana": "カゴシマケン",
    "prefecture_code": "46",
    "city": "大島郡龍郷町",
    "city_kana": "オオシマグンタツゴウチョウ",
    "town": "屋入",
    "town_kana": "ヤニュウ",
    "street": null,
    "office_name": null,
    "office_name_kana": null
  },
  "0102": {
    "zip_code": "8940102",
    "prefecture": "鹿児島県",
    "prefecture_kana": "カゴシマケン",
    "prefecture_code": "46",
    "city": "大島郡龍郷町",
    "city_kana": "オオシマグンタツゴウチョウ",
    "town": "瀬留",
    "town_kana": "セドメ",
    "street": null,
    "office_name": null,
    "office_name_kana": null
  },
  "0103": {
    "zip_code": "8940103",
    "prefecture": "鹿児島県",
    "prefecture_kana": "カゴシマケン",
    "prefecture_code": "46",
    "city": "大島郡龍郷町",
    "city_kana": "オオシマグンタツゴウチョウ",
    "town": "玉里",
    "town_kana": "タマザト",
    "street": null,
    "office_name": null,
    "office_name_kana": null
  },
  "0104": {
    "zip_code": "8940104",
    "prefecture": "鹿児島県",
    "prefecture_kana": "カゴシマケン",
    "prefecture_code": "46",
    "city": "大島郡龍郷町",
    "city_kana": "オオシマグンタツゴウチョウ",
    "town": "浦",
    "town_kana": "ウラ",
    "street": null,
    "office_name": null,
    "office_name_kana": null
  },
  "0105": {
    "zip_code": "8940105",
    "prefecture": "鹿児島県",
    "prefecture_kana": "カゴシマケン",
    "prefecture_code": "46",
    "city": "大島郡龍郷町",
    "city_kana": "オオシマグンタツゴウチョウ",
    "town": "大勝",
    "town_kana": "オオガチ",
    "street": null,
    "office_name": null,
    "office_name_kana": null
  },
  "0106": {
    "zip_code": "8940106",
    "prefecture": "鹿児島県",
    "prefecture_kana": "カゴシマケン",
    "prefecture_code": "46",
    "city": "大島郡龍郷町",
    "city_kana": "オオシマグンタツゴウチョウ",
    "town": "中勝",
    "town_kana": "ナカガチ",
    "street": null,
    "office_name": null,
    "office_name_kana": null
  },
  "0107": {
    "zip_code": "8940107",
    "prefecture": "鹿児島県",
    "prefecture_kana": "カゴシマケン",
    "prefecture_code": "46",
    "city": "大島郡龍郷町",
    "city_kana": "オオシマグンタツゴウチョウ",
    "town": "戸口",
    "town_kana": "トグチ",
    "street": null,
    "office_name": null,
    "office_name_kana": null
  },
  "0108": [
    {
      "zip_code": "8940108",
      "prefecture": "鹿児島県",
      "prefecture_kana": "カゴシマケン",
      "prefecture_code": "46",
      "city": "奄美市",
      "city_kana": "アマミシ",
      "town": "名瀬浦上",
      "town_kana": "ナゼウラガミ",
      "street": null,
      "office_name": null,
      "office_name_kana": null
    },
    {
      "zip_code": "8940108",
      "prefecture": "鹿児島県",
      "prefecture_kana": "カゴシマケン",
      "prefecture_code": "46",
      "city": "奄美市",
      "city_kana": "アマミシ",
      "town": "名瀬浦上小又",
      "town_kana": "ナゼウラガミコマタ",
      "street": null,
      "office_name": null,
      "office_name_kana": null
    }
  ],
  "0192": {
    "zip_code": "8940192",
    "prefecture": "鹿児島県",
    "prefecture_kana": "カゴシマケン",
    "prefecture_code": "46",
    "city": "大島郡龍郷町",
    "city_kana": "オオシマグンタツゴウチョウ",
    "town": "浦",
    "town_kana": "ウラ",
    "street": "１１０",
    "office_name": "龍郷町役場",
    "office_name_kana": "タツゴウチヨウヤクバ"
  },
  "0321": {
    "zip_code": "8940321",
    "prefecture": "鹿児島県",
    "prefecture_kana": "カゴシマケン",
    "prefecture_code": "46",
    "city": "大島郡龍郷町",
    "city_kana": "オオシマグンタツゴウチョウ",
    "town": "龍郷",
    "town_kana": "タツゴウ",
    "street": null,
    "office_name": null,
    "office_name_kana": null
  },
  "0322": {
    "zip_code": "8940322",
    "prefecture": "鹿児島県",
    "prefecture_kana": "カゴシマケン",
    "prefecture_code": "46",
    "city": "大島郡龍郷町",
    "city_kana": "オオシマグンタツゴウチョウ",
    "town": "久場",
    "town_kana": "クバ",
    "street": null,
    "office_name": null,
    "office_name_kana": null
  },
  "0323": {
    "zip_code": "8940323",
    "prefecture": "鹿児島県",
    "prefecture_kana": "カゴシマケン",
    "prefecture_code": "46",
    "city": "大島郡龍郷町",
    "city_kana": "オオシマグンタツゴウチョウ",
    "town": "安木屋場",
    "town_kana": "アンキヤバ",
    "street": null,
    "office_name": null,
    "office_name_kana": null
  },
  "0324": {
    "zip_code": "8940324",
    "prefecture": "鹿児島県",
    "prefecture_kana": "カゴシマケン",
    "prefecture_code": "46",
    "city": "大島郡龍郷町",
    "city_kana": "オオシマグンタツゴウチョウ",
    "town": "円",
    "town_kana": "エン",
    "street": null,
    "office_name": null,
    "office_name_kana": null
  },
  "0331": {
    "zip_code": "8940331",
    "prefecture": "鹿児島県",
    "prefecture_kana": "カゴシマケン",
    "prefecture_code": "46",
    "city": "大島郡龍郷町",
    "city_kana": "オオシマグンタツゴウチョウ",
    "town": "嘉渡",
    "town_kana": "カド",
    "street": null,
    "office_name": null,
    "office_name_kana": null
  },
  "0332": {
    "zip_code": "8940332",
    "prefecture": "鹿児島県",
    "prefecture_kana": "カゴシマケン",
    "prefecture_code": "46",
    "city": "大島郡龍郷町",
    "city_kana": "オオシマグンタツゴウチョウ",
    "town": "幾里",
    "town_kana": "イクサト",
    "street": null,
    "office_name": null,
    "office_name_kana": null
  },
  "0333": {
    "zip_code": "8940333",
    "prefecture": "鹿児島県",
    "prefecture_kana": "カゴシマケン",
    "prefecture_code": "46",
    "city": "大島郡龍郷町",
    "city_kana": "オオシマグンタツゴウチョウ",
    "town": "秋名",
    "town_kana": "アキナ",
    "street": null,
    "office_name": null,
    "office_name_kana": null
  },
  "0351": {
    "zip_code": "8940351",
    "prefecture": "鹿児島県",
    "prefecture_kana": "カゴシマケン",
    "prefecture_code": "46",
    "city": "奄美市",
    "city_kana": "アマミシ",
    "town": "名瀬芦花部",
    "town_kana": "ナゼアシケブ",
    "street": null,
    "office_name": null,
    "office_name_kana": null
  },
  "0352": {
    "zip_code": "8940352",
    "prefecture": "鹿児島県",
    "prefecture_kana": "カゴシマケン",
    "prefecture_code": "46",
    "city": "奄美市",
    "city_kana": "アマミシ",
    "town": "名瀬有良",
    "town_kana": "ナゼアリラ",
    "street": null,
    "office_name": null,
    "office_name_kana": null
  },
  "0411": {
    "zip_code": "8940411",
    "prefecture": "鹿児島県",
    "prefecture_kana": "カゴシマケン",
    "prefecture_code": "46",
    "city": "大島郡龍郷町",
    "city_kana": "オオシマグンタツゴウチョウ",
    "town": "赤尾木",
    "town_kana": "アカオギ",
    "street": null,
    "office_name": null,
    "office_name_kana": null
  },
  "0412": {
    "zip_code": "8940412",
    "prefecture": "鹿児島県",
    "prefecture_kana": "カゴシマケン",
    "prefecture_code": "46",
    "city": "大島郡龍郷町",
    "city_kana": "オオシマグンタツゴウチョウ",
    "town": "芦徳",
    "town_kana": "アシトク",
    "street": null,
    "office_name": null,
    "office_name_kana": null
  },
  "0501": {
    "zip_code": "8940501",
    "prefecture": "鹿児島県",
    "prefecture_kana": "カゴシマケン",
    "prefecture_code": "46",
    "city": "奄美市",
    "city_kana": "アマミシ",
    "town": "笠利町宇宿",
    "town_kana": "カサリチョウウシュク",
    "street": null,
    "office_name": null,
    "office_name_kana": null
  },
  "0502": {
    "zip_code": "8940502",
    "prefecture": "鹿児島県",
    "prefecture_kana": "カゴシマケン",
    "prefecture_code": "46",
    "city": "奄美市",
    "city_kana": "アマミシ",
    "town": "笠利町万屋",
    "town_kana": "カサリチョウマンヤ",
    "street": null,
    "office_name": null,
    "office_name_kana": null
  },
  "0503": {
    "zip_code": "8940503",
    "prefecture": "鹿児島県",
    "prefecture_kana": "カゴシマケン",
    "prefecture_code": "46",
    "city": "奄美市",
    "city_kana": "アマミシ",
    "town": "笠利町和野",
    "town_kana": "カサリチョウワノ",
    "street": null,
    "office_name": null,
    "office_name_kana": null
  },
  "0504": {
    "zip_code": "8940504",
    "prefecture": "鹿児島県",
    "prefecture_kana": "カゴシマケン",
    "prefecture_code": "46",
    "city": "奄美市",
    "city_kana": "アマミシ",
    "town": "笠利町節田",
    "town_kana": "カサリチョウセツタ",
    "street": null,
    "office_name": null,
    "office_name_kana": null
  },
  "0505": {
    "zip_code": "8940505",
    "prefecture": "鹿児島県",
    "prefecture_kana": "カゴシマケン",
    "prefecture_code": "46",
    "city": "奄美市",
    "city_kana": "アマミシ",
    "town": "笠利町平",
    "town_kana": "カサリチョウタイラ",
    "street": null,
    "office_name": null,
    "office_name_kana": null
  },
  "0506": {
    "zip_code": "8940506",
    "prefecture": "鹿児島県",
    "prefecture_kana": "カゴシマケン",
    "prefecture_code": "46",
    "city": "奄美市",
    "city_kana": "アマミシ",
    "town": "笠利町手花部",
    "town_kana": "カサリチョウテケブ",
    "street": null,
    "office_name": null,
    "office_name_kana": null
  },
  "0507": {
    "zip_code": "8940507",
    "prefecture": "鹿児島県",
    "prefecture_kana": "カゴシマケン",
    "prefecture_code": "46",
    "city": "奄美市",
    "city_kana": "アマミシ",
    "town": "笠利町喜瀬",
    "town_kana": "カサリチョウキセ",
    "street": null,
    "office_name": null,
    "office_name_kana": null
  },
  "0508": {
    "zip_code": "8940508",
    "prefecture": "鹿児島県",
    "prefecture_kana": "カゴシマケン",
    "prefecture_code": "46",
    "city": "奄美市",
    "city_kana": "アマミシ",
    "town": "笠利町用安",
    "town_kana": "カサリチョウヨウアン",
    "street": null,
    "office_name": null,
    "office_name_kana": null
  },
  "0511": {
    "zip_code": "8940511",
    "prefecture": "鹿児島県",
    "prefecture_kana": "カゴシマケン",
    "prefecture_code": "46",
    "city": "奄美市",
    "city_kana": "アマミシ",
    "town": "笠利町里",
    "town_kana": "カサリチョウサト",
    "street": null,
    "office_name": null,
    "office_name_kana": null
  },
  "0512": {
    "zip_code": "8940512",
    "prefecture": "鹿児島県",
    "prefecture_kana": "カゴシマケン",
    "prefecture_code": "46",
    "city": "奄美市",
    "city_kana": "アマミシ",
    "town": "笠利町中金久",
    "town_kana": "カサリチョウナカガネク",
    "street": null,
    "office_name": null,
    "office_name_kana": null
  },
  "0513": {
    "zip_code": "8940513",
    "prefecture": "鹿児島県",
    "prefecture_kana": "カゴシマケン",
    "prefecture_code": "46",
    "city": "奄美市",
    "city_kana": "アマミシ",
    "town": "笠利町外金久",
    "town_kana": "カサリチョウソトガネク",
    "street": null,
    "office_name": null,
    "office_name_kana": null
  },
  "0595": {
    "zip_code": "8940595",
    "prefecture": "鹿児島県",
    "prefecture_kana": null,
    "prefecture_code": null,
    "city": "奄美市",
    "city_kana": null,
    "town": "笠利町大字中金久",
    "town_kana": null,
    "street": "１４１",
    "office_name": "奄美市　笠利総合支所",
    "office_name_kana": "アマミシ カサリソウゴウシシヨ"
  },
  "0621": {
    "zip_code": "8940621",
    "prefecture": "鹿児島県",
    "prefecture_kana": "カゴシマケン",
    "prefecture_code": "46",
    "city": "奄美市",
    "city_kana": "アマミシ",
    "town": "笠利町用",
    "town_kana": "カサリチョウヨウ",
    "street": null,
    "office_name": null,
    "office_name_kana": null
  },
  "0622": {
    "zip_code": "8940622",
    "prefecture": "鹿児島県",
    "prefecture_kana": "カゴシマケン",
    "prefecture_code": "46",
    "city": "奄美市",
    "city_kana": "アマミシ",
    "town": "笠利町笠利",
    "town_kana": "カサリチョウカサリ",
    "street": null,
    "office_name": null,
    "office_name_kana": null
  },
  "0623": {
    "zip_code": "8940623",
    "prefecture": "鹿児島県",
    "prefecture_kana": "カゴシマケン",
    "prefecture_code": "46",
    "city": "奄美市",
    "city_kana": "アマミシ",
    "town": "笠利町辺留",
    "town_kana": "カサリチョウベル",
    "street": null,
    "office_name": null,
    "office_name_kana": null
  },
  "0624": {
    "zip_code": "8940624",
    "prefecture": "鹿児島県",
    "prefecture_kana": "カゴシマケン",
    "prefecture_code": "46",
    "city": "奄美市",
    "city_kana": "アマミシ",
    "town": "笠利町須野",
    "town_kana": "カサリチョウスノ",
    "street": null,
    "office_name": null,
    "office_name_kana": null
  },
  "0625": {
    "zip_code": "8940625",
    "prefecture": "鹿児島県",
    "prefecture_kana": "カゴシマケン",
    "prefecture_code": "46",
    "city": "奄美市",
    "city_kana": "アマミシ",
    "town": "笠利町川上",
    "town_kana": "カサリチョウカワカミ",
    "street": null,
    "office_name": null,
    "office_name_kana": null
  },
  "0626": {
    "zip_code": "8940626",
    "prefecture": "鹿児島県",
    "prefecture_kana": "カゴシマケン",
    "prefecture_code": "46",
    "city": "奄美市",
    "city_kana": "アマミシ",
    "town": "笠利町屋仁",
    "town_kana": "カサリチョウヤニ",
    "street": null,
    "office_name": null,
    "office_name_kana": null
  },
  "0627": {
    "zip_code": "8940627",
    "prefecture": "鹿児島県",
    "prefecture_kana": "カゴシマケン",
    "prefecture_code": "46",
    "city": "奄美市",
    "city_kana": "アマミシ",
    "town": "笠利町佐仁",
    "town_kana": "カサリチョウサニ",
    "street": null,
    "office_name": null,
    "office_name_kana": null
  },
  "0771": {
    "zip_code": "8940771",
    "prefecture": "鹿児島県",
    "prefecture_kana": "カゴシマケン",
    "prefecture_code": "46",
    "city": "奄美市",
    "city_kana": "アマミシ",
    "town": "名瀬小湊",
    "town_kana": "ナゼコミナト",
    "street": null,
    "office_name": null,
    "office_name_kana": null
  },
  "0772": {
    "zip_code": "8940772",
    "prefecture": "鹿児島県",
    "prefecture_kana": "カゴシマケン",
    "prefecture_code": "46",
    "city": "奄美市",
    "city_kana": "アマミシ",
    "town": "名瀬西仲勝",
    "town_kana": "ナゼニシナカガチ",
    "street": null,
    "office_name": null,
    "office_name_kana": null
  },
  "0773": {
    "zip_code": "8940773",
    "prefecture": "鹿児島県",
    "prefecture_kana": "カゴシマケン",
    "prefecture_code": "46",
    "city": "奄美市",
    "city_kana": "アマミシ",
    "town": "名瀬朝戸",
    "town_kana": "ナゼアサト",
    "street": null,
    "office_name": null,
    "office_name_kana": null
  },
  "0774": {
    "zip_code": "8940774",
    "prefecture": "鹿児島県",
    "prefecture_kana": "カゴシマケン",
    "prefecture_code": "46",
    "city": "奄美市",
    "city_kana": "アマミシ",
    "town": "名瀬伊津部勝",
    "town_kana": "ナゼイツブガチ",
    "street": null,
    "office_name": null,
    "office_name_kana": null
  },
  "0775": {
    "zip_code": "8940775",
    "prefecture": "鹿児島県",
    "prefecture_kana": "カゴシマケン",
    "prefecture_code": "46",
    "city": "奄美市",
    "city_kana": "アマミシ",
    "town": "名瀬名瀬勝",
    "town_kana": "ナゼナゼガチ",
    "street": null,
    "office_name": null,
    "office_name_kana": null
  },
  "0776": {
    "zip_code": "8940776",
    "prefecture": "鹿児島県",
    "prefecture_kana": "カゴシマケン",
    "prefecture_code": "46",
    "city": "奄美市",
    "city_kana": "アマミシ",
    "town": "名瀬崎原",
    "town_kana": "ナゼサキバル",
    "street": null,
    "office_name": null,
    "office_name_kana": null
  },
  "1111": {
    "zip_code": "8941111",
    "prefecture": "鹿児島県",
    "prefecture_kana": "カゴシマケン",
    "prefecture_code": "46",
    "city": "奄美市",
    "city_kana": "アマミシ",
    "town": "住用町城",
    "town_kana": "スミヨウチョウグスク",
    "street": null,
    "office_name": null,
    "office_name_kana": null
  },
  "1112": {
    "zip_code": "8941112",
    "prefecture": "鹿児島県",
    "prefecture_kana": "カゴシマケン",
    "prefecture_code": "46",
    "city": "奄美市",
    "city_kana": "アマミシ",
    "town": "住用町和瀬",
    "town_kana": "スミヨウチョウワセ",
    "street": null,
    "office_name": null,
    "office_name_kana": null
  },
  "1113": {
    "zip_code": "8941113",
    "prefecture": "鹿児島県",
    "prefecture_kana": "カゴシマケン",
    "prefecture_code": "46",
    "city": "奄美市",
    "city_kana": "アマミシ",
    "town": "住用町見里",
    "town_kana": "スミヨウチョウミザト",
    "street": null,
    "office_name": null,
    "office_name_kana": null
  },
  "1114": {
    "zip_code": "8941114",
    "prefecture": "鹿児島県",
    "prefecture_kana": "カゴシマケン",
    "prefecture_code": "46",
    "city": "奄美市",
    "city_kana": "アマミシ",
    "town": "住用町東仲間",
    "town_kana": "スミヨウチョウヒガシナカマ",
    "street": null,
    "office_name": null,
    "office_name_kana": null
  },
  "1115": {
    "zip_code": "8941115",
    "prefecture": "鹿児島県",
    "prefecture_kana": "カゴシマケン",
    "prefecture_code": "46",
    "city": "奄美市",
    "city_kana": "アマミシ",
    "town": "住用町川内",
    "town_kana": "スミヨウチョウカワウチ",
    "street": null,
    "office_name": null,
    "office_name_kana": null
  },
  "1116": {
    "zip_code": "8941116",
    "prefecture": "鹿児島県",
    "prefecture_kana": "カゴシマケン",
    "prefecture_code": "46",
    "city": "奄美市",
    "city_kana": "アマミシ",
    "town": "住用町摺勝",
    "town_kana": "スミヨウチョウスリガチ",
    "street": null,
    "office_name": null,
    "office_name_kana": null
  },
  "1201": {
    "zip_code": "8941201",
    "prefecture": "鹿児島県",
    "prefecture_kana": "カゴシマケン",
    "prefecture_code": "46",
    "city": "奄美市",
    "city_kana": "アマミシ",
    "town": "住用町石原",
    "town_kana": "スミヨウチョウイシハラ",
    "street": null,
    "office_name": null,
    "office_name_kana": null
  },
  "1202": {
    "zip_code": "8941202",
    "prefecture": "鹿児島県",
    "prefecture_kana": "カゴシマケン",
    "prefecture_code": "46",
    "city": "奄美市",
    "city_kana": "アマミシ",
    "town": "住用町西仲間",
    "town_kana": "スミヨウチョウニシナカマ",
    "street": null,
    "office_name": null,
    "office_name_kana": null
  },
  "1203": {
    "zip_code": "8941203",
    "prefecture": "鹿児島県",
    "prefecture_kana": "カゴシマケン",
    "prefecture_code": "46",
    "city": "奄美市",
    "city_kana": "アマミシ",
    "town": "住用町神屋",
    "town_kana": "スミヨウチョウカミヤ",
    "street": null,
    "office_name": null,
    "office_name_kana": null
  },
  "1204": {
    "zip_code": "8941204",
    "prefecture": "鹿児島県",
    "prefecture_kana": "カゴシマケン",
    "prefecture_code": "46",
    "city": "奄美市",
    "city_kana": "アマミシ",
    "town": "住用町山間",
    "town_kana": "スミヨウチョウヤンマ",
    "street": null,
    "office_name": null,
    "office_name_kana": null
  },
  "1205": {
    "zip_code": "8941205",
    "prefecture": "鹿児島県",
    "prefecture_kana": "カゴシマケン",
    "prefecture_code": "46",
    "city": "奄美市",
    "city_kana": "アマミシ",
    "town": "住用町役勝",
    "town_kana": "スミヨウチョウヤクガチ",
    "street": null,
    "office_name": null,
    "office_name_kana": null
  },
  "1292": {
    "zip_code": "8941292",
    "prefecture": "鹿児島県",
    "prefecture_kana": null,
    "prefecture_code": null,
    "city": "奄美市",
    "city_kana": null,
    "town": "住用町大字西仲間",
    "town_kana": null,
    "street": "１１１",
    "office_name": "奄美市　住用総合支所",
    "office_name_kana": "アマミシ スミヨウソウゴウシシヨ"
  },
  "1304": [
    {
      "zip_code": "8941304",
      "prefecture": "鹿児島県",
      "prefecture_kana": "カゴシマケン",
      "prefecture_code": "46",
      "city": "奄美市",
      "city_kana": "アマミシ",
      "town": "住用町山間",
      "town_kana": "スミヨウチョウヤンマ",
      "street": null,
      "office_name": null,
      "office_name_kana": null
    },
    {
      "zip_code": "8941304",
      "prefecture": "鹿児島県",
      "prefecture_kana": "カゴシマケン",
      "prefecture_code": "46",
      "city": "奄美市",
      "city_kana": "アマミシ",
      "town": "住用町山間戸玉",
      "town_kana": "スミヨウチョウヤンマトダマ",
      "street": null,
      "office_name": null,
      "office_name_kana": null
    }
  ],
  "1321": {
    "zip_code": "8941321",
    "prefecture": "鹿児島県",
    "prefecture_kana": "カゴシマケン",
    "prefecture_code": "46",
    "city": "奄美市",
    "city_kana": "アマミシ",
    "town": "住用町市",
    "town_kana": "スミヨウチョウイチ",
    "street": null,
    "office_name": null,
    "office_name_kana": null
  },
  "1500": {
    "zip_code": "8941500",
    "prefecture": "鹿児島県",
    "prefecture_kana": "カゴシマケン",
    "prefecture_code": "46",
    "city": "大島郡瀬戸内町",
    "city_kana": "オオシマグンセトウチチョウ",
    "town": "",
    "town_kana": "",
    "street": null,
    "office_name": null,
    "office_name_kana": null
  },
  "1501": [
    {
      "zip_code": "8941501",
      "prefecture": "鹿児島県",
      "prefecture_kana": "カゴシマケン",
      "prefecture_code": "46",
      "city": "大島郡瀬戸内町",
      "city_kana": "オオシマグンセトウチチョウ",
      "town": "古仁屋",
      "town_kana": "コニヤ",
      "street": null,
      "office_name": null,
      "office_name_kana": null
    },
    {
      "zip_code": "8941501",
      "prefecture": "鹿児島県",
      "prefecture_kana": "カゴシマケン",
      "prefecture_code": "46",
      "city": "大島郡瀬戸内町",
      "city_kana": "オオシマグンセトウチチョウ",
      "town": "古仁屋高丘",
      "town_kana": "コニヤタカオカ",
      "street": null,
      "office_name": null,
      "office_name_kana": null
    }
  ],
  "1502": [
    {
      "zip_code": "8941502",
      "prefecture": "鹿児島県",
      "prefecture_kana": "カゴシマケン",
      "prefecture_code": "46",
      "city": "大島郡瀬戸内町",
      "city_kana": "オオシマグンセトウチチョウ",
      "town": "古仁屋",
      "town_kana": "コニヤ",
      "street": null,
      "office_name": null,
      "office_name_kana": null
    },
    {
      "zip_code": "8941502",
      "prefecture": "鹿児島県",
      "prefecture_kana": "カゴシマケン",
      "prefecture_code": "46",
      "city": "大島郡瀬戸内町",
      "city_kana": "オオシマグンセトウチチョウ",
      "town": "古仁屋宮前",
      "town_kana": "コニヤミヤマエ",
      "street": null,
      "office_name": null,
      "office_name_kana": null
    }
  ],
  "1503": [
    {
      "zip_code": "8941503",
      "prefecture": "鹿児島県",
      "prefecture_kana": "カゴシマケン",
      "prefecture_code": "46",
      "city": "大島郡瀬戸内町",
      "city_kana": "オオシマグンセトウチチョウ",
      "town": "古仁屋",
      "town_kana": "コニヤ",
      "street": null,
      "office_name": null,
      "office_name_kana": null
    },
    {
      "zip_code": "8941503",
      "prefecture": "鹿児島県",
      "prefecture_kana": "カゴシマケン",
      "prefecture_code": "46",
      "city": "大島郡瀬戸内町",
      "city_kana": "オオシマグンセトウチチョウ",
      "town": "古仁屋大湊",
      "town_kana": "コニヤオオミナト",
      "street": null,
      "office_name": null,
      "office_name_kana": null
    }
  ],
  "1504": [
    {
      "zip_code": "8941504",
      "prefecture": "鹿児島県",
      "prefecture_kana": "カゴシマケン",
      "prefecture_code": "46",
      "city": "大島郡瀬戸内町",
      "city_kana": "オオシマグンセトウチチョウ",
      "town": "古仁屋",
      "town_kana": "コニヤ",
      "street": null,
      "office_name": null,
      "office_name_kana": null
    },
    {
      "zip_code": "8941504",
      "prefecture": "鹿児島県",
      "prefecture_kana": "カゴシマケン",
      "prefecture_code": "46",
      "city": "大島郡瀬戸内町",
      "city_kana": "オオシマグンセトウチチョウ",
      "town": "古仁屋春日",
      "town_kana": "コニヤカスガ",
      "street": null,
      "office_name": null,
      "office_name_kana": null
    }
  ],
  "1505": [
    {
      "zip_code": "8941505",
      "prefecture": "鹿児島県",
      "prefecture_kana": "カゴシマケン",
      "prefecture_code": "46",
      "city": "大島郡瀬戸内町",
      "city_kana": "オオシマグンセトウチチョウ",
      "town": "古仁屋",
      "town_kana": "コニヤ",
      "street": null,
      "office_name": null,
      "office_name_kana": null
    },
    {
      "zip_code": "8941505",
      "prefecture": "鹿児島県",
      "prefecture_kana": "カゴシマケン",
      "prefecture_code": "46",
      "city": "大島郡瀬戸内町",
      "city_kana": "オオシマグンセトウチチョウ",
      "town": "古仁屋松江",
      "town_kana": "コニヤマツエ",
      "street": null,
      "office_name": null,
      "office_name_kana": null
    }
  ],
  "1506": [
    {
      "zip_code": "8941506",
      "prefecture": "鹿児島県",
      "prefecture_kana": "カゴシマケン",
      "prefecture_code": "46",
      "city": "大島郡瀬戸内町",
      "city_kana": "オオシマグンセトウチチョウ",
      "town": "古仁屋",
      "town_kana": "コニヤ",
      "street": null,
      "office_name": null,
      "office_name_kana": null
    },
    {
      "zip_code": "8941506",
      "prefecture": "鹿児島県",
      "prefecture_kana": "カゴシマケン",
      "prefecture_code": "46",
      "city": "大島郡瀬戸内町",
      "city_kana": "オオシマグンセトウチチョウ",
      "town": "古仁屋船津",
      "town_kana": "コニヤフナツ",
      "street": null,
      "office_name": null,
      "office_name_kana": null
    }
  ],
  "1507": [
    {
      "zip_code": "8941507",
      "prefecture": "鹿児島県",
      "prefecture_kana": "カゴシマケン",
      "prefecture_code": "46",
      "city": "大島郡瀬戸内町",
      "city_kana": "オオシマグンセトウチチョウ",
      "town": "古仁屋",
      "town_kana": "コニヤ",
      "street": null,
      "office_name": null,
      "office_name_kana": null
    },
    {
      "zip_code": "8941507",
      "prefecture": "鹿児島県",
      "prefecture_kana": "カゴシマケン",
      "prefecture_code": "46",
      "city": "大島郡瀬戸内町",
      "city_kana": "オオシマグンセトウチチョウ",
      "town": "古仁屋瀬久井",
      "town_kana": "コニヤセクイ",
      "street": null,
      "office_name": null,
      "office_name_kana": null
    }
  ],
  "1508": {
    "zip_code": "8941508",
    "prefecture": "鹿児島県",
    "prefecture_kana": "カゴシマケン",
    "prefecture_code": "46",
    "city": "大島郡瀬戸内町",
    "city_kana": "オオシマグンセトウチチョウ",
    "town": "古仁屋",
    "town_kana": "コニヤ",
    "street": null,
    "office_name": null,
    "office_name_kana": null
  },
  "1509": {
    "zip_code": "8941509",
    "prefecture": "鹿児島県",
    "prefecture_kana": "カゴシマケン",
    "prefecture_code": "46",
    "city": "大島郡瀬戸内町",
    "city_kana": "オオシマグンセトウチチョウ",
    "town": "古仁屋瀬久井東",
    "town_kana": "コニヤセクイヒガシ",
    "street": null,
    "office_name": null,
    "office_name_kana": null
  },
  "1510": {
    "zip_code": "8941510",
    "prefecture": "鹿児島県",
    "prefecture_kana": "カゴシマケン",
    "prefecture_code": "46",
    "city": "大島郡瀬戸内町",
    "city_kana": "オオシマグンセトウチチョウ",
    "town": "古仁屋瀬久井西",
    "town_kana": "コニヤセクイニシ",
    "street": null,
    "office_name": null,
    "office_name_kana": null
  },
  "1511": {
    "zip_code": "8941511",
    "prefecture": "鹿児島県",
    "prefecture_kana": "カゴシマケン",
    "prefecture_code": "46",
    "city": "大島郡瀬戸内町",
    "city_kana": "オオシマグンセトウチチョウ",
    "town": "阿木名",
    "town_kana": "アギナ",
    "street": null,
    "office_name": null,
    "office_name_kana": null
  },
  "1512": {
    "zip_code": "8941512",
    "prefecture": "鹿児島県",
    "prefecture_kana": "カゴシマケン",
    "prefecture_code": "46",
    "city": "大島郡瀬戸内町",
    "city_kana": "オオシマグンセトウチチョウ",
    "town": "勝浦",
    "town_kana": "カチウラ",
    "street": null,
    "office_name": null,
    "office_name_kana": null
  },
  "1513": {
    "zip_code": "8941513",
    "prefecture": "鹿児島県",
    "prefecture_kana": "カゴシマケン",
    "prefecture_code": "46",
    "city": "大島郡瀬戸内町",
    "city_kana": "オオシマグンセトウチチョウ",
    "town": "網野子",
    "town_kana": "アミノコ",
    "street": null,
    "office_name": null,
    "office_name_kana": null
  },
  "1514": {
    "zip_code": "8941514",
    "prefecture": "鹿児島県",
    "prefecture_kana": "カゴシマケン",
    "prefecture_code": "46",
    "city": "大島郡瀬戸内町",
    "city_kana": "オオシマグンセトウチチョウ",
    "town": "節子",
    "town_kana": "セッコ",
    "street": null,
    "office_name": null,
    "office_name_kana": null
  },
  "1515": {
    "zip_code": "8941515",
    "prefecture": "鹿児島県",
    "prefecture_kana": "カゴシマケン",
    "prefecture_code": "46",
    "city": "大島郡瀬戸内町",
    "city_kana": "オオシマグンセトウチチョウ",
    "town": "嘉徳",
    "town_kana": "カトク",
    "street": null,
    "office_name": null,
    "office_name_kana": null
  },
  "1521": {
    "zip_code": "8941521",
    "prefecture": "鹿児島県",
    "prefecture_kana": "カゴシマケン",
    "prefecture_code": "46",
    "city": "大島郡瀬戸内町",
    "city_kana": "オオシマグンセトウチチョウ",
    "town": "清水",
    "town_kana": "セイスイ",
    "street": null,
    "office_name": null,
    "office_name_kana": null
  },
  "1522": {
    "zip_code": "8941522",
    "prefecture": "鹿児島県",
    "prefecture_kana": "カゴシマケン",
    "prefecture_code": "46",
    "city": "大島郡瀬戸内町",
    "city_kana": "オオシマグンセトウチチョウ",
    "town": "嘉鉄",
    "town_kana": "カテツ",
    "street": null,
    "office_name": null,
    "office_name_kana": null
  },
  "1523": {
    "zip_code": "8941523",
    "prefecture": "鹿児島県",
    "prefecture_kana": "カゴシマケン",
    "prefecture_code": "46",
    "city": "大島郡瀬戸内町",
    "city_kana": "オオシマグンセトウチチョウ",
    "town": "蘇刈",
    "town_kana": "ソカル",
    "street": null,
    "office_name": null,
    "office_name_kana": null
  },
  "1524": {
    "zip_code": "8941524",
    "prefecture": "鹿児島県",
    "prefecture_kana": "カゴシマケン",
    "prefecture_code": "46",
    "city": "大島郡瀬戸内町",
    "city_kana": "オオシマグンセトウチチョウ",
    "town": "伊須",
    "town_kana": "イス",
    "street": null,
    "office_name": null,
    "office_name_kana": null
  },
  "1531": {
    "zip_code": "8941531",
    "prefecture": "鹿児島県",
    "prefecture_kana": "カゴシマケン",
    "prefecture_code": "46",
    "city": "大島郡瀬戸内町",
    "city_kana": "オオシマグンセトウチチョウ",
    "town": "手安",
    "town_kana": "テアン",
    "street": null,
    "office_name": null,
    "office_name_kana": null
  },
  "1592": {
    "zip_code": "8941592",
    "prefecture": "鹿児島県",
    "prefecture_kana": null,
    "prefecture_code": null,
    "city": "大島郡瀬戸内町",
    "city_kana": null,
    "town": "大字古仁屋",
    "town_kana": null,
    "street": "字船津２３",
    "office_name": "瀬戸内町役場",
    "office_name_kana": "セトウチチヨウヤクバ"
  },
  "1741": {
    "zip_code": "8941741",
    "prefecture": "鹿児島県",
    "prefecture_kana": "カゴシマケン",
    "prefecture_code": "46",
    "city": "大島郡瀬戸内町",
    "city_kana": "オオシマグンセトウチチョウ",
    "town": "篠川",
    "town_kana": "シノカワ",
    "street": null,
    "office_name": null,
    "office_name_kana": null
  },
  "1742": {
    "zip_code": "8941742",
    "prefecture": "鹿児島県",
    "prefecture_kana": "カゴシマケン",
    "prefecture_code": "46",
    "city": "大島郡瀬戸内町",
    "city_kana": "オオシマグンセトウチチョウ",
    "town": "阿室釜",
    "town_kana": "アムロガマ",
    "street": null,
    "office_name": null,
    "office_name_kana": null
  },
  "1743": {
    "zip_code": "8941743",
    "prefecture": "鹿児島県",
    "prefecture_kana": "カゴシマケン",
    "prefecture_code": "46",
    "city": "大島郡瀬戸内町",
    "city_kana": "オオシマグンセトウチチョウ",
    "town": "小名瀬",
    "town_kana": "コナセ",
    "street": null,
    "office_name": null,
    "office_name_kana": null
  },
  "1744": {
    "zip_code": "8941744",
    "prefecture": "鹿児島県",
    "prefecture_kana": "カゴシマケン",
    "prefecture_code": "46",
    "city": "大島郡瀬戸内町",
    "city_kana": "オオシマグンセトウチチョウ",
    "town": "阿鉄",
    "town_kana": "アテツ",
    "street": null,
    "office_name": null,
    "office_name_kana": null
  },
  "1745": {
    "zip_code": "8941745",
    "prefecture": "鹿児島県",
    "prefecture_kana": "カゴシマケン",
    "prefecture_code": "46",
    "city": "大島郡瀬戸内町",
    "city_kana": "オオシマグンセトウチチョウ",
    "town": "油井",
    "town_kana": "ユイ",
    "street": null,
    "office_name": null,
    "office_name_kana": null
  },
  "1746": {
    "zip_code": "8941746",
    "prefecture": "鹿児島県",
    "prefecture_kana": "カゴシマケン",
    "prefecture_code": "46",
    "city": "大島郡瀬戸内町",
    "city_kana": "オオシマグンセトウチチョウ",
    "town": "久根津",
    "town_kana": "クネツ",
    "street": null,
    "office_name": null,
    "office_name_kana": null
  },
  "1851": {
    "zip_code": "8941851",
    "prefecture": "鹿児島県",
    "prefecture_kana": "カゴシマケン",
    "prefecture_code": "46",
    "city": "大島郡瀬戸内町",
    "city_kana": "オオシマグンセトウチチョウ",
    "town": "久慈",
    "town_kana": "クジ",
    "street": null,
    "office_name": null,
    "office_name_kana": null
  },
  "1852": {
    "zip_code": "8941852",
    "prefecture": "鹿児島県",
    "prefecture_kana": "カゴシマケン",
    "prefecture_code": "46",
    "city": "大島郡瀬戸内町",
    "city_kana": "オオシマグンセトウチチョウ",
    "town": "古志",
    "town_kana": "コシ",
    "street": null,
    "office_name": null,
    "office_name_kana": null
  },
  "1853": {
    "zip_code": "8941853",
    "prefecture": "鹿児島県",
    "prefecture_kana": "カゴシマケン",
    "prefecture_code": "46",
    "city": "大島郡瀬戸内町",
    "city_kana": "オオシマグンセトウチチョウ",
    "town": "花天",
    "town_kana": "ケテン",
    "street": null,
    "office_name": null,
    "office_name_kana": null
  },
  "1854": {
    "zip_code": "8941854",
    "prefecture": "鹿児島県",
    "prefecture_kana": "カゴシマケン",
    "prefecture_code": "46",
    "city": "大島郡瀬戸内町",
    "city_kana": "オオシマグンセトウチチョウ",
    "town": "管鈍",
    "town_kana": "クダドン",
    "street": null,
    "office_name": null,
    "office_name_kana": null
  },
  "1855": {
    "zip_code": "8941855",
    "prefecture": "鹿児島県",
    "prefecture_kana": "カゴシマケン",
    "prefecture_code": "46",
    "city": "大島郡瀬戸内町",
    "city_kana": "オオシマグンセトウチチョウ",
    "town": "西古見",
    "town_kana": "ニシコミ",
    "street": null,
    "office_name": null,
    "office_name_kana": null
  },
  "2141": {
    "zip_code": "8942141",
    "prefecture": "鹿児島県",
    "prefecture_kana": "カゴシマケン",
    "prefecture_code": "46",
    "city": "大島郡瀬戸内町",
    "city_kana": "オオシマグンセトウチチョウ",
    "town": "諸鈍",
    "town_kana": "ショドン",
    "street": null,
    "office_name": null,
    "office_name_kana": null
  },
  "2142": {
    "zip_code": "8942142",
    "prefecture": "鹿児島県",
    "prefecture_kana": "カゴシマケン",
    "prefecture_code": "46",
    "city": "大島郡瀬戸内町",
    "city_kana": "オオシマグンセトウチチョウ",
    "town": "生間",
    "town_kana": "イケンマ",
    "street": null,
    "office_name": null,
    "office_name_kana": null
  },
  "2143": {
    "zip_code": "8942143",
    "prefecture": "鹿児島県",
    "prefecture_kana": "カゴシマケン",
    "prefecture_code": "46",
    "city": "大島郡瀬戸内町",
    "city_kana": "オオシマグンセトウチチョウ",
    "town": "渡連",
    "town_kana": "ドレン",
    "street": null,
    "office_name": null,
    "office_name_kana": null
  },
  "2144": {
    "zip_code": "8942144",
    "prefecture": "鹿児島県",
    "prefecture_kana": "カゴシマケン",
    "prefecture_code": "46",
    "city": "大島郡瀬戸内町",
    "city_kana": "オオシマグンセトウチチョウ",
    "town": "諸数",
    "town_kana": "ショカズ",
    "street": null,
    "office_name": null,
    "office_name_kana": null
  },
  "2231": {
    "zip_code": "8942231",
    "prefecture": "鹿児島県",
    "prefecture_kana": "カゴシマケン",
    "prefecture_code": "46",
    "city": "大島郡瀬戸内町",
    "city_kana": "オオシマグンセトウチチョウ",
    "town": "押角",
    "town_kana": "オシカク",
    "street": null,
    "office_name": null,
    "office_name_kana": null
  },
  "2232": {
    "zip_code": "8942232",
    "prefecture": "鹿児島県",
    "prefecture_kana": "カゴシマケン",
    "prefecture_code": "46",
    "city": "大島郡瀬戸内町",
    "city_kana": "オオシマグンセトウチチョウ",
    "town": "勝能",
    "town_kana": "カチユキ",
    "street": null,
    "office_name": null,
    "office_name_kana": null
  },
  "2233": {
    "zip_code": "8942233",
    "prefecture": "鹿児島県",
    "prefecture_kana": "カゴシマケン",
    "prefecture_code": "46",
    "city": "大島郡瀬戸内町",
    "city_kana": "オオシマグンセトウチチョウ",
    "town": "野見山",
    "town_kana": "ノミヤマ",
    "street": null,
    "office_name": null,
    "office_name_kana": null
  },
  "2234": {
    "zip_code": "8942234",
    "prefecture": "鹿児島県",
    "prefecture_kana": "カゴシマケン",
    "prefecture_code": "46",
    "city": "大島郡瀬戸内町",
    "city_kana": "オオシマグンセトウチチョウ",
    "town": "秋徳",
    "town_kana": "アキトク",
    "street": null,
    "office_name": null,
    "office_name_kana": null
  },
  "2235": {
    "zip_code": "8942235",
    "prefecture": "鹿児島県",
    "prefecture_kana": "カゴシマケン",
    "prefecture_code": "46",
    "city": "大島郡瀬戸内町",
    "city_kana": "オオシマグンセトウチチョウ",
    "town": "於斉",
    "town_kana": "オサイ",
    "street": null,
    "office_name": null,
    "office_name_kana": null
  },
  "2236": {
    "zip_code": "8942236",
    "prefecture": "鹿児島県",
    "prefecture_kana": "カゴシマケン",
    "prefecture_code": "46",
    "city": "大島郡瀬戸内町",
    "city_kana": "オオシマグンセトウチチョウ",
    "town": "伊子茂",
    "town_kana": "イコモ",
    "street": null,
    "office_name": null,
    "office_name_kana": null
  },
  "2237": {
    "zip_code": "8942237",
    "prefecture": "鹿児島県",
    "prefecture_kana": "カゴシマケン",
    "prefecture_code": "46",
    "city": "大島郡瀬戸内町",
    "city_kana": "オオシマグンセトウチチョウ",
    "town": "花富",
    "town_kana": "ケドミ",
    "street": null,
    "office_name": null,
    "office_name_kana": null
  },
  "2321": {
    "zip_code": "8942321",
    "prefecture": "鹿児島県",
    "prefecture_kana": "カゴシマケン",
    "prefecture_code": "46",
    "city": "大島郡瀬戸内町",
    "city_kana": "オオシマグンセトウチチョウ",
    "town": "西阿室",
    "town_kana": "ニシアムロ",
    "street": null,
    "office_name": null,
    "office_name_kana": null
  },
  "2322": {
    "zip_code": "8942322",
    "prefecture": "鹿児島県",
    "prefecture_kana": "カゴシマケン",
    "prefecture_code": "46",
    "city": "大島郡瀬戸内町",
    "city_kana": "オオシマグンセトウチチョウ",
    "town": "瀬相",
    "town_kana": "セソウ",
    "street": null,
    "office_name": null,
    "office_name_kana": null
  },
  "2323": {
    "zip_code": "8942323",
    "prefecture": "鹿児島県",
    "prefecture_kana": "カゴシマケン",
    "prefecture_code": "46",
    "city": "大島郡瀬戸内町",
    "city_kana": "オオシマグンセトウチチョウ",
    "town": "俵",
    "town_kana": "ヒョウ",
    "street": null,
    "office_name": null,
    "office_name_kana": null
  },
  "2401": {
    "zip_code": "8942401",
    "prefecture": "鹿児島県",
    "prefecture_kana": "カゴシマケン",
    "prefecture_code": "46",
    "city": "大島郡瀬戸内町",
    "city_kana": "オオシマグンセトウチチョウ",
    "town": "瀬武",
    "town_kana": "セタケ",
    "street": null,
    "office_name": null,
    "office_name_kana": null
  },
  "2402": {
    "zip_code": "8942402",
    "prefecture": "鹿児島県",
    "prefecture_kana": "カゴシマケン",
    "prefecture_code": "46",
    "city": "大島郡瀬戸内町",
    "city_kana": "オオシマグンセトウチチョウ",
    "town": "薩川",
    "town_kana": "サツカワ",
    "street": null,
    "office_name": null,
    "office_name_kana": null
  },
  "2403": {
    "zip_code": "8942403",
    "prefecture": "鹿児島県",
    "prefecture_kana": "カゴシマケン",
    "prefecture_code": "46",
    "city": "大島郡瀬戸内町",
    "city_kana": "オオシマグンセトウチチョウ",
    "town": "実久",
    "town_kana": "サネク",
    "street": null,
    "office_name": null,
    "office_name_kana": null
  },
  "2404": {
    "zip_code": "8942404",
    "prefecture": "鹿児島県",
    "prefecture_kana": "カゴシマケン",
    "prefecture_code": "46",
    "city": "大島郡瀬戸内町",
    "city_kana": "オオシマグンセトウチチョウ",
    "town": "芝",
    "town_kana": "シバ",
    "street": null,
    "office_name": null,
    "office_name_kana": null
  },
  "2411": {
    "zip_code": "8942411",
    "prefecture": "鹿児島県",
    "prefecture_kana": "カゴシマケン",
    "prefecture_code": "46",
    "city": "大島郡瀬戸内町",
    "city_kana": "オオシマグンセトウチチョウ",
    "town": "阿多地",
    "town_kana": "アダチ",
    "street": null,
    "office_name": null,
    "office_name_kana": null
  },
  "2412": {
    "zip_code": "8942412",
    "prefecture": "鹿児島県",
    "prefecture_kana": "カゴシマケン",
    "prefecture_code": "46",
    "city": "大島郡瀬戸内町",
    "city_kana": "オオシマグンセトウチチョウ",
    "town": "須子茂",
    "town_kana": "スコモ",
    "street": null,
    "office_name": null,
    "office_name_kana": null
  },
  "2413": {
    "zip_code": "8942413",
    "prefecture": "鹿児島県",
    "prefecture_kana": "カゴシマケン",
    "prefecture_code": "46",
    "city": "大島郡瀬戸内町",
    "city_kana": "オオシマグンセトウチチョウ",
    "town": "嘉入",
    "town_kana": "カニュウ",
    "street": null,
    "office_name": null,
    "office_name_kana": null
  },
  "2414": {
    "zip_code": "8942414",
    "prefecture": "鹿児島県",
    "prefecture_kana": "カゴシマケン",
    "prefecture_code": "46",
    "city": "大島郡瀬戸内町",
    "city_kana": "オオシマグンセトウチチョウ",
    "town": "三浦",
    "town_kana": "ミウラ",
    "street": null,
    "office_name": null,
    "office_name_kana": null
  },
  "2415": {
    "zip_code": "8942415",
    "prefecture": "鹿児島県",
    "prefecture_kana": "カゴシマケン",
    "prefecture_code": "46",
    "city": "大島郡瀬戸内町",
    "city_kana": "オオシマグンセトウチチョウ",
    "town": "知之浦",
    "town_kana": "チノウラ",
    "street": null,
    "office_name": null,
    "office_name_kana": null
  },
  "2416": {
    "zip_code": "8942416",
    "prefecture": "鹿児島県",
    "prefecture_kana": "カゴシマケン",
    "prefecture_code": "46",
    "city": "大島郡瀬戸内町",
    "city_kana": "オオシマグンセトウチチョウ",
    "town": "武名",
    "town_kana": "タケナ",
    "street": null,
    "office_name": null,
    "office_name_kana": null
  },
  "2417": {
    "zip_code": "8942417",
    "prefecture": "鹿児島県",
    "prefecture_kana": "カゴシマケン",
    "prefecture_code": "46",
    "city": "大島郡瀬戸内町",
    "city_kana": "オオシマグンセトウチチョウ",
    "town": "木慈",
    "town_kana": "キジ",
    "street": null,
    "office_name": null,
    "office_name_kana": null
  },
  "2501": {
    "zip_code": "8942501",
    "prefecture": "鹿児島県",
    "prefecture_kana": "カゴシマケン",
    "prefecture_code": "46",
    "city": "大島郡瀬戸内町",
    "city_kana": "オオシマグンセトウチチョウ",
    "town": "池地",
    "town_kana": "イケジ",
    "street": null,
    "office_name": null,
    "office_name_kana": null
  },
  "2502": {
    "zip_code": "8942502",
    "prefecture": "鹿児島県",
    "prefecture_kana": "カゴシマケン",
    "prefecture_code": "46",
    "city": "大島郡瀬戸内町",
    "city_kana": "オオシマグンセトウチチョウ",
    "town": "請阿室",
    "town_kana": "ウケアムロ",
    "street": null,
    "office_name": null,
    "office_name_kana": null
  },
  "2601": {
    "zip_code": "8942601",
    "prefecture": "鹿児島県",
    "prefecture_kana": "カゴシマケン",
    "prefecture_code": "46",
    "city": "大島郡瀬戸内町",
    "city_kana": "オオシマグンセトウチチョウ",
    "town": "与路",
    "town_kana": "ヨロ",
    "street": null,
    "office_name": null,
    "office_name_kana": null
  },
  "3100": {
    "zip_code": "8943100",
    "prefecture": "鹿児島県",
    "prefecture_kana": "カゴシマケン",
    "prefecture_code": "46",
    "city": "大島郡大和村",
    "city_kana": "オオシマグンヤマトソン",
    "town": "",
    "town_kana": "",
    "street": null,
    "office_name": null,
    "office_name_kana": null
  },
  "3101": {
    "zip_code": "8943101",
    "prefecture": "鹿児島県",
    "prefecture_kana": "カゴシマケン",
    "prefecture_code": "46",
    "city": "大島郡大和村",
    "city_kana": "オオシマグンヤマトソン",
    "town": "国直",
    "town_kana": "クニナオ",
    "street": null,
    "office_name": null,
    "office_name_kana": null
  },
  "3102": {
    "zip_code": "8943102",
    "prefecture": "鹿児島県",
    "prefecture_kana": "カゴシマケン",
    "prefecture_code": "46",
    "city": "大島郡大和村",
    "city_kana": "オオシマグンヤマトソン",
    "town": "湯湾釜",
    "town_kana": "ユワンガマ",
    "street": null,
    "office_name": null,
    "office_name_kana": null
  },
  "3103": {
    "zip_code": "8943103",
    "prefecture": "鹿児島県",
    "prefecture_kana": "カゴシマケン",
    "prefecture_code": "46",
    "city": "大島郡大和村",
    "city_kana": "オオシマグンヤマトソン",
    "town": "津名久",
    "town_kana": "ツナグ",
    "street": null,
    "office_name": null,
    "office_name_kana": null
  },
  "3104": {
    "zip_code": "8943104",
    "prefecture": "鹿児島県",
    "prefecture_kana": "カゴシマケン",
    "prefecture_code": "46",
    "city": "大島郡大和村",
    "city_kana": "オオシマグンヤマトソン",
    "town": "思勝",
    "town_kana": "オンガチ",
    "street": null,
    "office_name": null,
    "office_name_kana": null
  },
  "3105": {
    "zip_code": "8943105",
    "prefecture": "鹿児島県",
    "prefecture_kana": "カゴシマケン",
    "prefecture_code": "46",
    "city": "大島郡大和村",
    "city_kana": "オオシマグンヤマトソン",
    "town": "大和浜",
    "town_kana": "ヤマトハマ",
    "street": null,
    "office_name": null,
    "office_name_kana": null
  },
  "3106": {
    "zip_code": "8943106",
    "prefecture": "鹿児島県",
    "prefecture_kana": "カゴシマケン",
    "prefecture_code": "46",
    "city": "大島郡大和村",
    "city_kana": "オオシマグンヤマトソン",
    "town": "大棚",
    "town_kana": "オオダナ",
    "street": null,
    "office_name": null,
    "office_name_kana": null
  },
  "3107": {
    "zip_code": "8943107",
    "prefecture": "鹿児島県",
    "prefecture_kana": "カゴシマケン",
    "prefecture_code": "46",
    "city": "大島郡大和村",
    "city_kana": "オオシマグンヤマトソン",
    "town": "大金久",
    "town_kana": "オオガネク",
    "street": null,
    "office_name": null,
    "office_name_kana": null
  },
  "3192": {
    "zip_code": "8943192",
    "prefecture": "鹿児島県",
    "prefecture_kana": null,
    "prefecture_code": null,
    "city": "大島郡大和村",
    "city_kana": null,
    "town": "大字大和浜",
    "town_kana": null,
    "street": "１００",
    "office_name": "大和村役場",
    "office_name_kana": "ヤマトソンヤクバ"
  },
  "3211": {
    "zip_code": "8943211",
    "prefecture": "鹿児島県",
    "prefecture_kana": "カゴシマケン",
    "prefecture_code": "46",
    "city": "大島郡大和村",
    "city_kana": "オオシマグンヤマトソン",
    "town": "戸円",
    "town_kana": "トエン",
    "street": null,
    "office_name": null,
    "office_name_kana": null
  },
  "3212": {
    "zip_code": "8943212",
    "prefecture": "鹿児島県",
    "prefecture_kana": "カゴシマケン",
    "prefecture_code": "46",
    "city": "大島郡大和村",
    "city_kana": "オオシマグンヤマトソン",
    "town": "名音",
    "town_kana": "ナオン",
    "street": null,
    "office_name": null,
    "office_name_kana": null
  },
  "3213": {
    "zip_code": "8943213",
    "prefecture": "鹿児島県",
    "prefecture_kana": "カゴシマケン",
    "prefecture_code": "46",
    "city": "大島郡大和村",
    "city_kana": "オオシマグンヤマトソン",
    "town": "志戸勘",
    "town_kana": "シドカン",
    "street": null,
    "office_name": null,
    "office_name_kana": null
  },
  "3214": {
    "zip_code": "8943214",
    "prefecture": "鹿児島県",
    "prefecture_kana": "カゴシマケン",
    "prefecture_code": "46",
    "city": "大島郡大和村",
    "city_kana": "オオシマグンヤマトソン",
    "town": "今里",
    "town_kana": "イマザト",
    "street": null,
    "office_name": null,
    "office_name_kana": null
  },
  "3300": {
    "zip_code": "8943300",
    "prefecture": "鹿児島県",
    "prefecture_kana": "カゴシマケン",
    "prefecture_code": "46",
    "city": "大島郡宇検村",
    "city_kana": "オオシマグンウケンソン",
    "town": "",
    "town_kana": "",
    "street": null,
    "office_name": null,
    "office_name_kana": null
  },
  "3301": {
    "zip_code": "8943301",
    "prefecture": "鹿児島県",
    "prefecture_kana": "カゴシマケン",
    "prefecture_code": "46",
    "city": "大島郡宇検村",
    "city_kana": "オオシマグンウケンソン",
    "town": "湯湾",
    "town_kana": "ユワン",
    "street": null,
    "office_name": null,
    "office_name_kana": null
  },
  "3302": {
    "zip_code": "8943302",
    "prefecture": "鹿児島県",
    "prefecture_kana": "カゴシマケン",
    "prefecture_code": "46",
    "city": "大島郡宇検村",
    "city_kana": "オオシマグンウケンソン",
    "town": "芦検",
    "town_kana": "アシケン",
    "street": null,
    "office_name": null,
    "office_name_kana": null
  },
  "3303": {
    "zip_code": "8943303",
    "prefecture": "鹿児島県",
    "prefecture_kana": "カゴシマケン",
    "prefecture_code": "46",
    "city": "大島郡宇検村",
    "city_kana": "オオシマグンウケンソン",
    "town": "田検",
    "town_kana": "タケン",
    "street": null,
    "office_name": null,
    "office_name_kana": null
  },
  "3304": {
    "zip_code": "8943304",
    "prefecture": "鹿児島県",
    "prefecture_kana": "カゴシマケン",
    "prefecture_code": "46",
    "city": "大島郡宇検村",
    "city_kana": "オオシマグンウケンソン",
    "town": "須古",
    "town_kana": "スコ",
    "street": null,
    "office_name": null,
    "office_name_kana": null
  },
  "3305": {
    "zip_code": "8943305",
    "prefecture": "鹿児島県",
    "prefecture_kana": "カゴシマケン",
    "prefecture_code": "46",
    "city": "大島郡宇検村",
    "city_kana": "オオシマグンウケンソン",
    "town": "石良",
    "town_kana": "イシラ",
    "street": null,
    "office_name": null,
    "office_name_kana": null
  },
  "3392": {
    "zip_code": "8943392",
    "prefecture": "鹿児島県",
    "prefecture_kana": null,
    "prefecture_code": null,
    "city": "大島郡宇検村",
    "city_kana": null,
    "town": "大字湯湾",
    "town_kana": null,
    "street": "９１５",
    "office_name": "宇検村役場",
    "office_name_kana": "ウケンソンヤクバ"
  },
  "3411": {
    "zip_code": "8943411",
    "prefecture": "鹿児島県",
    "prefecture_kana": "カゴシマケン",
    "prefecture_code": "46",
    "city": "大島郡宇検村",
    "city_kana": "オオシマグンウケンソン",
    "town": "宇検",
    "town_kana": "ウケン",
    "street": null,
    "office_name": null,
    "office_name_kana": null
  },
  "3412": {
    "zip_code": "8943412",
    "prefecture": "鹿児島県",
    "prefecture_kana": "カゴシマケン",
    "prefecture_code": "46",
    "city": "大島郡宇検村",
    "city_kana": "オオシマグンウケンソン",
    "town": "久志",
    "town_kana": "クシ",
    "street": null,
    "office_name": null,
    "office_name_kana": null
  },
  "3413": {
    "zip_code": "8943413",
    "prefecture": "鹿児島県",
    "prefecture_kana": "カゴシマケン",
    "prefecture_code": "46",
    "city": "大島郡宇検村",
    "city_kana": "オオシマグンウケンソン",
    "town": "生勝",
    "town_kana": "イケガチ",
    "street": null,
    "office_name": null,
    "office_name_kana": null
  },
  "3521": {
    "zip_code": "8943521",
    "prefecture": "鹿児島県",
    "prefecture_kana": "カゴシマケン",
    "prefecture_code": "46",
    "city": "大島郡宇検村",
    "city_kana": "オオシマグンウケンソン",
    "town": "名柄",
    "town_kana": "ナガラ",
    "street": null,
    "office_name": null,
    "office_name_kana": null
  },
  "3522": {
    "zip_code": "8943522",
    "prefecture": "鹿児島県",
    "prefecture_kana": "カゴシマケン",
    "prefecture_code": "46",
    "city": "大島郡宇検村",
    "city_kana": "オオシマグンウケンソン",
    "town": "佐念",
    "town_kana": "サネン",
    "street": null,
    "office_name": null,
    "office_name_kana": null
  },
  "3523": {
    "zip_code": "8943523",
    "prefecture": "鹿児島県",
    "prefecture_kana": "カゴシマケン",
    "prefecture_code": "46",
    "city": "大島郡宇検村",
    "city_kana": "オオシマグンウケンソン",
    "town": "部連",
    "town_kana": "ブレン",
    "street": null,
    "office_name": null,
    "office_name_kana": null
  },
  "3631": {
    "zip_code": "8943631",
    "prefecture": "鹿児島県",
    "prefecture_kana": "カゴシマケン",
    "prefecture_code": "46",
    "city": "大島郡宇検村",
    "city_kana": "オオシマグンウケンソン",
    "town": "平田",
    "town_kana": "ヘダ",
    "street": null,
    "office_name": null,
    "office_name_kana": null
  },
  "3632": {
    "zip_code": "8943632",
    "prefecture": "鹿児島県",
    "prefecture_kana": "カゴシマケン",
    "prefecture_code": "46",
    "city": "大島郡宇検村",
    "city_kana": "オオシマグンウケンソン",
    "town": "阿室",
    "town_kana": "アムロ",
    "street": null,
    "office_name": null,
    "office_name_kana": null
  },
  "3633": {
    "zip_code": "8943633",
    "prefecture": "鹿児島県",
    "prefecture_kana": "カゴシマケン",
    "prefecture_code": "46",
    "city": "大島郡宇検村",
    "city_kana": "オオシマグンウケンソン",
    "town": "屋鈍",
    "town_kana": "ヤドン",
    "street": null,
    "office_name": null,
    "office_name_kana": null
  },
  "8501": {
    "zip_code": "8948501",
    "prefecture": "鹿児島県",
    "prefecture_kana": "カゴシマケン",
    "prefecture_code": "46",
    "city": "奄美市",
    "city_kana": "アマミシ",
    "town": "名瀬永田町",
    "town_kana": "ナゼナガタチョウ",
    "street": "１７−３",
    "office_name": "鹿児島県　大島支庁",
    "office_name_kana": "カゴシマケン オオシマシチヨウ"
  },
  "8507": {
    "zip_code": "8948507",
    "prefecture": "鹿児島県",
    "prefecture_kana": "カゴシマケン",
    "prefecture_code": "46",
    "city": "奄美市",
    "city_kana": "アマミシ",
    "town": "名瀬永田町",
    "town_kana": "ナゼナガタチョウ",
    "street": "１７−３",
    "office_name": "大島教育事務局",
    "office_name_kana": "オオシマキヨウイクジムキヨク"
  },
  "8511": {
    "zip_code": "8948511",
    "prefecture": "鹿児島県",
    "prefecture_kana": "カゴシマケン",
    "prefecture_code": "46",
    "city": "奄美市",
    "city_kana": "アマミシ",
    "town": "名瀬入舟町",
    "town_kana": "ナゼイリフネチョウ",
    "street": "８−２１",
    "office_name": "有村商事　株式会社",
    "office_name_kana": "アリムラシヨウジ カブシキガイシヤ"
  },
  "8555": {
    "zip_code": "8948555",
    "prefecture": "鹿児島県",
    "prefecture_kana": "カゴシマケン",
    "prefecture_code": "46",
    "city": "奄美市",
    "city_kana": "アマミシ",
    "town": "名瀬幸町",
    "town_kana": "ナゼサイワイチョウ",
    "street": "２５−８",
    "office_name": "奄美市役所",
    "office_name_kana": "アマミシヤクシヨ"
  },
  "8567": {
    "zip_code": "8948567",
    "prefecture": "鹿児島県",
    "prefecture_kana": "カゴシマケン",
    "prefecture_code": "46",
    "city": "奄美市",
    "city_kana": "アマミシ",
    "town": "名瀬古田町",
    "town_kana": "ナゼフルタチョウ",
    "street": "１−１",
    "office_name": "鹿児島県立　奄美高等学校",
    "office_name_kana": "カゴシマケンリツ アマミコウトウガツコウ"
  },
  "8585": {
    "zip_code": "8948585",
    "prefecture": "鹿児島県",
    "prefecture_kana": "カゴシマケン",
    "prefecture_code": "46",
    "city": "奄美市",
    "city_kana": "アマミシ",
    "town": "名瀬入舟町",
    "town_kana": "ナゼイリフネチョウ",
    "street": "６−１",
    "office_name": "株式会社　楠田書店",
    "office_name_kana": "カブシキガイシヤ クスダシヨテン"
  },
  "8588": {
    "zip_code": "8948588",
    "prefecture": "鹿児島県",
    "prefecture_kana": "カゴシマケン",
    "prefecture_code": "46",
    "city": "奄美市",
    "city_kana": "アマミシ",
    "town": "名瀬安勝町",
    "town_kana": "ナゼアンガチチョウ",
    "street": "７−１",
    "office_name": "鹿児島県立　大島高等学校",
    "office_name_kana": "カゴシマケンリツ オオシマコウトウガツコウ"
  },
  "8601": {
    "zip_code": "8948601",
    "prefecture": "鹿児島県",
    "prefecture_kana": "カゴシマケン",
    "prefecture_code": "46",
    "city": "奄美市",
    "city_kana": "アマミシ",
    "town": "名瀬長浜町",
    "town_kana": "ナゼナガハマチョウ",
    "street": "１０−３（名瀬郵便局私書箱第６８号）",
    "office_name": "株式会社　南海日日新聞社",
    "office_name_kana": "カブシキガイシヤ ナンカイニチニチシンブンシヤ"
  },
  "8655": {
    "zip_code": "8948655",
    "prefecture": "鹿児島県",
    "prefecture_kana": "カゴシマケン",
    "prefecture_code": "46",
    "city": "奄美市",
    "city_kana": "アマミシ",
    "town": "名瀬永田町",
    "town_kana": "ナゼナガタチョウ",
    "street": "７−３（名瀬郵便局私書箱第３５号）",
    "office_name": "内山商事　株式会社",
    "office_name_kana": "ウチヤマシヨウジ カブシキガイシヤ"
  },
  "8677": {
    "zip_code": "8948677",
    "prefecture": "鹿児島県",
    "prefecture_kana": "カゴシマケン",
    "prefecture_code": "46",
    "city": "奄美市",
    "city_kana": "アマミシ",
    "town": "名瀬長浜町",
    "town_kana": "ナゼナガハマチョウ",
    "street": "１−１（名瀬郵便局私書箱第２号）",
    "office_name": "大島税務署",
    "office_name_kana": "オオシマゼイムシヨ"
  },
  "8688": {
    "zip_code": "8948688",
    "prefecture": "鹿児島県",
    "prefecture_kana": "カゴシマケン",
    "prefecture_code": "46",
    "city": "奄美市",
    "city_kana": "アマミシ",
    "town": "名瀬小浜町",
    "town_kana": "ナゼコハマチョウ",
    "street": "２９−９（名瀬郵便局私書箱第２１号）",
    "office_name": "村上建設　株式会社",
    "office_name_kana": "ムラカミケンセツ カブシキガイシヤ"
  }
}