{
  "0141": {
    "zip_code": "9010141",
    "prefecture": "沖縄県",
    "prefecture_kana": "オキナワケン",
    "prefecture_code": "47",
    "city": "那覇市",
    "city_kana": "ナハシ",
    "town": "住吉町",
    "town_kana": "スミヨシチョウ",
    "street": null,
    "office_name": null,
    "office_name_kana": null
  },
  "0142": {
    "zip_code": "9010142",
    "prefecture": "沖縄県",
    "prefecture_kana": "オキナワケン",
    "prefecture_code": "47",
    "city": "那覇市",
    "city_kana": "ナハシ",
    "town": "鏡水",
    "town_kana": "カガミズ",
    "street": null,
    "office_name": null,
    "office_name_kana": null
  },
  "0143": {
    "zip_code": "9010143",
    "prefecture": "沖縄県",
    "prefecture_kana": "オキナワケン",
    "prefecture_code": "47",
    "city": "那覇市",
    "city_kana": "ナハシ",
    "town": "安次嶺",
    "town_kana": "アシミネ",
    "street": null,
    "office_name": null,
    "office_name_kana": null
  },
  "0144": {
    "zip_code": "9010144",
    "prefecture": "沖縄県",
    "prefecture_kana": "オキナワケン",
    "prefecture_code": "47",
    "city": "那覇市",
    "city_kana": "ナハシ",
    "town": "当間",
    "town_kana": "トウマ",
    "street": null,
    "office_name": null,
    "office_name_kana": null
  },
  "0145": {
    "zip_code": "9010145",
    "prefecture": "沖縄県",
    "prefecture_kana": "オキナワケン",
    "prefecture_code": "47",
    "city": "那覇市",
    "city_kana": "ナハシ",
    "town": "高良",
    "town_kana": "タカラ",
    "street": null,
    "office_name": null,
    "office_name_kana": null
  },
  "0146": {
    "zip_code": "9010146",
    "prefecture": "沖縄県",
    "prefecture_kana": "オキナワケン",
    "prefecture_code": "47",
    "city": "那覇市",
    "city_kana": "ナハシ",
    "town": "具志",
    "town_kana": "グシ",
    "street": null,
    "office_name": null,
    "office_name_kana": null
  },
  "0147": {
    "zip_code": "9010147",
    "prefecture": "沖縄県",
    "prefecture_kana": "オキナワケン",
    "prefecture_code": "47",
    "city": "那覇市",
    "city_kana": "ナハシ",
    "town": "宮城",
    "town_kana": "ミヤグスク",
    "street": null,
    "office_name": null,
    "office_name_kana": null
  },
  "0148": {
    "zip_code": "9010148",
    "prefecture": "沖縄県",
    "prefecture_kana": "オキナワケン",
    "prefecture_code": "47",
    "city": "那覇市",
    "city_kana": "ナハシ",
    "town": "大嶺",
    "town_kana": "オオミネ",
    "street": null,
    "office_name": null,
    "office_name_kana": null
  },
  "0151": {
    "zip_code": "9010151",
    "prefecture": "沖縄県",
    "prefecture_kana": "オキナワケン",
    "prefecture_code": "47",
    "city": "那覇市",
    "city_kana": "ナハシ",
    "town": "鏡原町",
    "town_kana": "キョウハラチョウ",
    "street": null,
    "office_name": null,
    "office_name_kana": null
  },
  "0152": {
    "zip_code": "9010152",
    "prefecture": "沖縄県",
    "prefecture_kana": "オキナワケン",
    "prefecture_code": "47",
    "city": "那覇市",
    "city_kana": "ナハシ",
    "town": "小禄",
    "town_kana": "オロク",
    "street": null,
    "office_name": null,
    "office_name_kana": null
  },
  "0153": {
    "zip_code": "9010153",
    "prefecture": "沖縄県",
    "prefecture_kana": "オキナワケン",
    "prefecture_code": "47",
    "city": "那覇市",
    "city_kana": "ナハシ",
    "town": "宇栄原",
    "town_kana": "ウエバル",
    "street": null,
    "office_name": null,
    "office_name_kana": null
  },
  "0154": {
    "zip_code": "9010154",
    "prefecture": "沖縄県",
    "prefecture_kana": "オキナワケン",
    "prefecture_code": "47",
    "city": "那覇市",
    "city_kana": "ナハシ",
    "town": "赤嶺",
    "town_kana": "アカミネ",
    "street": null,
    "office_name": null,
    "office_name_kana": null
  },
  "0155": {
    "zip_code": "9010155",
    "prefecture": "沖縄県",
    "prefecture_kana": "オキナワケン",
    "prefecture_code": "47",
    "city": "那覇市",
    "city_kana": "ナハシ",
    "town": "金城",
    "town_kana": "カナグスク",
    "street": null,
    "office_name": null,
    "office_name_kana": null
  },
  "0156": {
    "zip_code": "9010156",
    "prefecture": "沖縄県",
    "prefecture_kana": "オキナワケン",
    "prefecture_code": "47",
    "city": "那覇市",
    "city_kana": "ナハシ",
    "town": "田原",
    "town_kana": "タバル",
    "street": null,
    "office_name": null,
    "office_name_kana": null
  },
  "0192": {
    "zip_code": "9010192",
    "prefecture": "沖縄県",
    "prefecture_kana": null,
    "prefecture_code": null,
    "city": "那覇市",
    "city_kana": null,
    "town": "字鏡水",
    "town_kana": null,
    "street": "６７９",
    "office_name": "陸上自衛隊　那覇駐屯地",
    "office_name_kana": "リクジヨウジエイタイ ナハチユウトンチ"
  },
  "0193": {
    "zip_code": "9010193",
    "prefecture": "沖縄県",
    "prefecture_kana": null,
    "prefecture_code": null,
    "city": "那覇市",
    "city_kana": null,
    "town": "字当間",
    "town_kana": null,
    "street": "２５２",
    "office_name": "海上自衛隊　那覇基地",
    "office_name_kana": "カイジヨウジエイタイ ナハキチ"
  },
  "0194": {
    "zip_code": "9010194",
    "prefecture": "沖縄県",
    "prefecture_kana": null,
    "prefecture_code": null,
    "city": "那覇市",
    "city_kana": null,
    "town": "字当間",
    "town_kana": null,
    "street": "３０１",
    "office_name": "航空自衛隊　那覇基地",
    "office_name_kana": "コウクウジエイタイ ナハキチ"
  },
  "0200": {
    "zip_code": "9010200",
    "prefecture": "沖縄県",
    "prefecture_kana": "オキナワケン",
    "prefecture_code": "47",
    "city": "豊見城市",
    "city_kana": "トミグスクシ",
    "town": "",
    "town_kana": "",
    "street": null,
    "office_name": null,
    "office_name_kana": null
  },
  "0201": {
    "zip_code": "9010201",
    "prefecture": "沖縄県",
    "prefecture_kana": "オキナワケン",
    "prefecture_code": "47",
    "city": "豊見城市",
    "city_kana": "トミグスクシ",
    "town": "真玉橋",
    "town_kana": "マダンバシ",
    "street": null,
    "office_name": null,
    "office_name_kana": null
  },
  "0202": {
    "zip_code": "9010202",
    "prefecture": "沖縄県",
    "prefecture_kana": "オキナワケン",
    "prefecture_code": "47",
    "city": "豊見城市",
    "city_kana": "トミグスクシ",
    "town": "嘉数",
    "town_kana": "カカズ",
    "street": null,
    "office_name": null,
    "office_name_kana": null
  },
  "0203": {
    "zip_code": "9010203",
    "prefecture": "沖縄県",
    "prefecture_kana": "オキナワケン",
    "prefecture_code": "47",
    "city": "豊見城市",
    "city_kana": "トミグスクシ",
    "town": "長堂",
    "town_kana": "ナガドウ",
    "street": null,
    "office_name": null,
    "office_name_kana": null
  },
  "0204": {
    "zip_code": "9010204",
    "prefecture": "沖縄県",
    "prefecture_kana": "オキナワケン",
    "prefecture_code": "47",
    "city": "豊見城市",
    "city_kana": "トミグスクシ",
    "town": "金良",
    "town_kana": "カネラ",
    "street": null,
    "office_name": null,
    "office_name_kana": null
  },
  "0205": {
    "zip_code": "9010205",
    "prefecture": "沖縄県",
    "prefecture_kana": "オキナワケン",
    "prefecture_code": "47",
    "city": "豊見城市",
    "city_kana": "トミグスクシ",
    "town": "根差部",
    "town_kana": "ネサブ",
    "street": null,
    "office_name": null,
    "office_name_kana": null
  },
  "0211": {
    "zip_code": "9010211",
    "prefecture": "沖縄県",
    "prefecture_kana": "オキナワケン",
    "prefecture_code": "47",
    "city": "豊見城市",
    "city_kana": "トミグスクシ",
    "town": "饒波",
    "town_kana": "ノハ",
    "street": null,
    "office_name": null,
    "office_name_kana": null
  },
  "0212": {
    "zip_code": "9010212",
    "prefecture": "沖縄県",
    "prefecture_kana": "オキナワケン",
    "prefecture_code": "47",
    "city": "豊見城市",
    "city_kana": "トミグスクシ",
    "town": "平良",
    "town_kana": "タイラ",
    "street": null,
    "office_name": null,
    "office_name_kana": null
  },
  "0213": {
    "zip_code": "9010213",
    "prefecture": "沖縄県",
    "prefecture_kana": "オキナワケン",
    "prefecture_code": "47",
    "city": "豊見城市",
    "city_kana": "トミグスクシ",
    "town": "高嶺",
    "town_kana": "タカミネ",
    "street": null,
    "office_name": null,
    "office_name_kana": null
  },
  "0214": {
    "zip_code": "9010214",
    "prefecture": "沖縄県",
    "prefecture_kana": "オキナワケン",
    "prefecture_code": "47",
    "city": "豊見城市",
    "city_kana": "トミグスクシ",
    "town": "保栄茂",
    "town_kana": "ビン",
    "street": null,
    "office_name": null,
    "office_name_kana": null
  },
  "0215": {
    "zip_code": "9010215",
    "prefecture": "沖縄県",
    "prefecture_kana": "オキナワケン",
    "prefecture_code": "47",
    "city": "豊見城市",
    "city_kana": "トミグスクシ",
    "town": "渡嘉敷",
    "town_kana": "トカシキ",
    "street": null,
    "office_name": null,
    "office_name_kana": null
  },
  "0221": {
    "zip_code": "9010221",
    "prefecture": "沖縄県",
    "prefecture_kana": "オキナワケン",
    "prefecture_code": "47",
    "city": "豊見城市",
    "city_kana": "トミグスクシ",
    "town": "座安",
    "town_kana": "ザヤス",
    "street": null,
    "office_name": null,
    "office_name_kana": null
  },
  "0222": {
    "zip_code": "9010222",
    "prefecture": "沖縄県",
    "prefecture_kana": "オキナワケン",
    "prefecture_code": "47",
    "city": "豊見城市",
    "city_kana": "トミグスクシ",
    "town": "渡橋名",
    "town_kana": "トハシナ",
    "street": null,
    "office_name": null,
    "office_name_kana": null
  },
  "0223": {
    "zip_code": "9010223",
    "prefecture": "沖縄県",
    "prefecture_kana": "オキナワケン",
    "prefecture_code": "47",
    "city": "豊見城市",
    "city_kana": "トミグスクシ",
    "town": "翁長",
    "town_kana": "オナガ",
    "street": null,
    "office_name": null,
    "office_name_kana": null
  },
  "0224": {
    "zip_code": "9010224",
    "prefecture": "沖縄県",
    "prefecture_kana": "オキナワケン",
    "prefecture_code": "47",
    "city": "豊見城市",
    "city_kana": "トミグスクシ",
    "town": "与根",
    "town_kana": "ヨネ",
    "street": null,
    "office_name": null,
    "office_name_kana": null
  },
  "0225": {
    "zip_code": "9010225",
    "prefecture": "沖縄県",
    "prefecture_kana": "オキナワケン",
    "prefecture_code": "47",
    "city": "豊見城市",
    "city_kana": "トミグスクシ",
    "town": "豊崎",
    "town_kana": "トヨサキ",
    "street": null,
    "office_name": null,
    "office_name_kana": null
  },
  "0231": {
    "zip_code": "9010231",
    "prefecture": "沖縄県",
    "prefecture_kana": "オキナワケン",
    "prefecture_code": "47",
    "city": "豊見城市",
    "city_kana": "トミグスクシ",
    "town": "我那覇",
    "town_kana": "ガナハ",
    "street": null,
    "office_name": null,
    "office_name_kana": null
  },
  "0232": {
    "zip_code": "9010232",
    "prefecture": "沖縄県",
    "prefecture_kana": "オキナワケン",
    "prefecture_code": "47",
    "city": "豊見城市",
    "city_kana": "トミグスクシ",
    "town": "伊良波",
    "town_kana": "イラハ",
    "street": null,
    "office_name": null,
    "office_name_kana": null
  },
  "0233": {
    "zip_code": "9010233",
    "prefecture": "沖縄県",
    "prefecture_kana": "オキナワケン",
    "prefecture_code": "47",
    "city": "豊見城市",
    "city_kana": "トミグスクシ",
    "town": "瀬長",
    "town_kana": "セナガ",
    "street": null,
    "office_name": null,
    "office_name_kana": null
  },
  "0234": {
    "zip_code": "9010234",
    "prefecture": "沖縄県",
    "prefecture_kana": "オキナワケン",
    "prefecture_code": "47",
    "city": "豊見城市",
    "city_kana": "トミグスクシ",
    "town": "田頭",
    "town_kana": "タガミ",
    "street": null,
    "office_name": null,
    "office_name_kana": null
  },
  "0235": {
    "zip_code": "9010235",
    "prefecture": "沖縄県",
    "prefecture_kana": "オキナワケン",
    "prefecture_code": "47",
    "city": "豊見城市",
    "city_kana": "トミグスクシ",
    "town": "名嘉地",
    "town_kana": "ナカチ",
    "street": null,
    "office_name": null,
    "office_name_kana": null
  },
  "0241": {
    "zip_code": "9010241",
    "prefecture": "沖縄県",
    "prefecture_kana": "オキナワケン",
    "prefecture_code": "47",
    "city": "豊見城市",
    "city_kana": "トミグスクシ",
    "town": "豊見城",
    "town_kana": "トミグスク",
    "street": null,
    "office_name": null,
    "office_name_kana": null
  },
  "0242": {
    "zip_code": "9010242",
    "prefecture": "沖縄県",
    "prefecture_kana": "オキナワケン",
    "prefecture_code": "47",
    "city": "豊見城市",
    "city_kana": "トミグスクシ",
    "town": "高安",
    "town_kana": "タカヤス",
    "street": null,
    "office_name": null,
    "office_name_kana": null
  },
  "0243": {
    "zip_code": "9010243",
    "prefecture": "沖縄県",
    "prefecture_kana": "オキナワケン",
    "prefecture_code": "47",
    "city": "豊見城市",
    "city_kana": "トミグスクシ",
    "town": "上田",
    "town_kana": "ウエタ",
    "street": null,
    "office_name": null,
    "office_name_kana": null
  },
  "0244": {
    "zip_code": "9010244",
    "prefecture": "沖縄県",
    "prefecture_kana": "オキナワケン",
    "prefecture_code": "47",
    "city": "豊見城市",
    "city_kana": "トミグスクシ",
    "town": "宜保",
    "town_kana": "ギボ",
    "street": null,
    "office_name": null,
    "office_name_kana": null
  },
  "0292": {
    "zip_code": "9010292",
    "prefecture": "沖縄県",
    "prefecture_kana": "オキナワケン",
    "prefecture_code": "47",
    "city": "豊見城市",
    "city_kana": "トミグスクシ",
    "town": "翁長",
    "town_kana": "オナガ",
    "street": "８５４−１",
    "office_name": "豊見城市役所",
    "office_name_kana": "トミグスクシヤクシヨ"
  },
  "0294": {
    "zip_code": "9010294",
    "prefecture": "沖縄県",
    "prefecture_kana": null,
    "prefecture_code": null,
    "city": "豊見城市",
    "city_kana": null,
    "town": "字真玉橋",
    "town_kana": null,
    "street": "５９３番地の１",
    "office_name": "沖縄医療生活協同組合",
    "office_name_kana": "オキナワイリヨウセイカツキヨウドウクミアイ"
  },
  "0295": {
    "zip_code": "9010295",
    "prefecture": "沖縄県",
    "prefecture_kana": null,
    "prefecture_code": null,
    "city": "豊見城市",
    "city_kana": null,
    "town": "字上田",
    "town_kana": null,
    "street": "２５",
    "office_name": "豊見城中央病院",
    "office_name_kana": "トミシロチユウオウビヨウイン"
  },
  "0300": {
    "zip_code": "9010300",
    "prefecture": "沖縄県",
    "prefecture_kana": "オキナワケン",
    "prefecture_code": "47",
    "city": "糸満市",
    "city_kana": "イトマンシ",
    "town": "",
    "town_kana": "",
    "street": null,
    "office_name": null,
    "office_name_kana": null
  },
  "0301": {
    "zip_code": "9010301",
    "prefecture": "沖縄県",
    "prefecture_kana": "オキナワケン",
    "prefecture_code": "47",
    "city": "糸満市",
    "city_kana": "イトマンシ",
    "town": "阿波根",
    "town_kana": "アハゴン",
    "street": null,
    "office_name": null,
    "office_name_kana": null
  },
  "0302": {
    "zip_code": "9010302",
    "prefecture": "沖縄県",
    "prefecture_kana": "オキナワケン",
    "prefecture_code": "47",
    "city": "糸満市",
    "city_kana": "イトマンシ",
    "town": "潮平",
    "town_kana": "シオヒラ",
    "street": null,
    "office_name": null,
    "office_name_kana": null
  },
  "0303": {
    "zip_code": "9010303",
    "prefecture": "沖縄県",
    "prefecture_kana": "オキナワケン",
    "prefecture_code": "47",
    "city": "糸満市",
    "city_kana": "イトマンシ",
    "town": "兼城",
    "town_kana": "カネグスク",
    "street": null,
    "office_name": null,
    "office_name_kana": null
  },
  "0304": {
    "zip_code": "9010304",
    "prefecture": "沖縄県",
    "prefecture_kana": "オキナワケン",
    "prefecture_code": "47",
    "city": "糸満市",
    "city_kana": "イトマンシ",
    "town": "西川町",
    "town_kana": "ニシカワチョウ",
    "street": null,
    "office_name": null,
    "office_name_kana": null
  },
  "0305": {
    "zip_code": "9010305",
    "prefecture": "沖縄県",
    "prefecture_kana": "オキナワケン",
    "prefecture_code": "47",
    "city": "糸満市",
    "city_kana": "イトマンシ",
    "town": "西崎",
    "town_kana": "ニシザキ",
    "street": null,
    "office_name": null,
    "office_name_kana": null
  },
  "0306": {
    "zip_code": "9010306",
    "prefecture": "沖縄県",
    "prefecture_kana": "オキナワケン",
    "prefecture_code": "47",
    "city": "糸満市",
    "city_kana": "イトマンシ",
    "town": "西崎町",
    "town_kana": "ニシザキチョウ",
    "street": null,
    "office_name": null,
    "office_name_kana": null
  },
  "0311": {
    "zip_code": "9010311",
    "prefecture": "沖縄県",
    "prefecture_kana": "オキナワケン",
    "prefecture_code": "47",
    "city": "糸満市",
    "city_kana": "イトマンシ",
    "town": "武富",
    "town_kana": "タケトミ",
    "street": null,
    "office_name": null,
    "office_name_kana": null
  },
  "0312": {
    "zip_code": "9010312",
    "prefecture": "沖縄県",
    "prefecture_kana": "オキナワケン",
    "prefecture_code": "47",
    "city": "糸満市",
    "city_kana": "イトマンシ",
    "town": "北波平",
    "town_kana": "キタナミヒラ",
    "street": null,
    "office_name": null,
    "office_name_kana": null
  },
  "0313": {
    "zip_code": "9010313",
    "prefecture": "沖縄県",
    "prefecture_kana": "オキナワケン",
    "prefecture_code": "47",
    "city": "糸満市",
    "city_kana": "イトマンシ",
    "town": "賀数",
    "town_kana": "カカズ",
    "street": null,
    "office_name": null,
    "office_name_kana": null
  },
  "0314": {
    "zip_code": "9010314",
    "prefecture": "沖縄県",
    "prefecture_kana": "オキナワケン",
    "prefecture_code": "47",
    "city": "糸満市",
    "city_kana": "イトマンシ",
    "town": "座波",
    "town_kana": "ザハ",
    "street": null,
    "office_name": null,
    "office_name_kana": null
  },
  "0315": {
    "zip_code": "9010315",
    "prefecture": "沖縄県",
    "prefecture_kana": "オキナワケン",
    "prefecture_code": "47",
    "city": "糸満市",
    "city_kana": "イトマンシ",
    "town": "照屋",
    "town_kana": "テルヤ",
    "street": null,
    "office_name": null,
    "office_name_kana": null
  },
  "0321": {
    "zip_code": "9010321",
    "prefecture": "沖縄県",
    "prefecture_kana": "オキナワケン",
    "prefecture_code": "47",
    "city": "糸満市",
    "city_kana": "イトマンシ",
    "town": "豊原",
    "town_kana": "トヨハラ",
    "street": null,
    "office_name": null,
    "office_name_kana": null
  },
  "0322": {
    "zip_code": "9010322",
    "prefecture": "沖縄県",
    "prefecture_kana": "オキナワケン",
    "prefecture_code": "47",
    "city": "糸満市",
    "city_kana": "イトマンシ",
    "town": "与座",
    "town_kana": "ヨザ",
    "street": null,
    "office_name": null,
    "office_name_kana": null
  },
  "0323": {
    "zip_code": "9010323",
    "prefecture": "沖縄県",
    "prefecture_kana": "オキナワケン",
    "prefecture_code": "47",
    "city": "糸満市",
    "city_kana": "イトマンシ",
    "town": "新垣",
    "town_kana": "アラカキ",
    "street": null,
    "office_name": null,
    "office_name_kana": null
  },
  "0324": {
    "zip_code": "9010324",
    "prefecture": "沖縄県",
    "prefecture_kana": "オキナワケン",
    "prefecture_code": "47",
    "city": "糸満市",
    "city_kana": "イトマンシ",
    "town": "国吉",
    "town_kana": "クニヨシ",
    "street": null,
    "office_name": null,
    "office_name_kana": null
  },
  "0325": {
    "zip_code": "9010325",
    "prefecture": "沖縄県",
    "prefecture_kana": "オキナワケン",
    "prefecture_code": "47",
    "city": "糸満市",
    "city_kana": "イトマンシ",
    "town": "大里",
    "town_kana": "オオザト",
    "street": null,
    "office_name": null,
    "office_name_kana": null
  },
  "0331": {
    "zip_code": "9010331",
    "prefecture": "沖縄県",
    "prefecture_kana": "オキナワケン",
    "prefecture_code": "47",
    "city": "糸満市",
    "city_kana": "イトマンシ",
    "town": "真栄平",
    "town_kana": "マエヒラ",
    "street": null,
    "office_name": null,
    "office_name_kana": null
  },
  "0332": {
    "zip_code": "9010332",
    "prefecture": "沖縄県",
    "prefecture_kana": "オキナワケン",
    "prefecture_code": "47",
    "city": "糸満市",
    "city_kana": "イトマンシ",
    "town": "宇江城",
    "town_kana": "ウエグスク",
    "street": null,
    "office_name": null,
    "office_name_kana": null
  },
  "0333": {
    "zip_code": "9010333",
    "prefecture": "沖縄県",
    "prefecture_kana": "オキナワケン",
    "prefecture_code": "47",
    "city": "糸満市",
    "city_kana": "イトマンシ",
    "town": "摩文仁",
    "town_kana": "マブニ",
    "street": null,
    "office_name": null,
    "office_name_kana": null
  },
  "0334": {
    "zip_code": "9010334",
    "prefecture": "沖縄県",
    "prefecture_kana": "オキナワケン",
    "prefecture_code": "47",
    "city": "糸満市",
    "city_kana": "イトマンシ",
    "town": "大度",
    "town_kana": "オオド",
    "street": null,
    "office_name": null,
    "office_name_kana": null
  },
  "0335": {
    "zip_code": "9010335",
    "prefecture": "沖縄県",
    "prefecture_kana": "オキナワケン",
    "prefecture_code": "47",
    "city": "糸満市",
    "city_kana": "イトマンシ",
    "town": "米須",
    "town_kana": "コメス",
    "street": null,
    "office_name": null,
    "office_name_kana": null
  },
  "0336": {
    "zip_code": "9010336",
    "prefecture": "沖縄県",
    "prefecture_kana": "オキナワケン",
    "prefecture_code": "47",
    "city": "糸満市",
    "city_kana": "イトマンシ",
    "town": "真壁",
    "town_kana": "マカベ",
    "street": null,
    "office_name": null,
    "office_name_kana": null
  },
  "0341": {
    "zip_code": "9010341",
    "prefecture": "沖縄県",
    "prefecture_kana": "オキナワケン",
    "prefecture_code": "47",
    "city": "糸満市",
    "city_kana": "イトマンシ",
    "town": "小波蔵",
    "town_kana": "コハグラ",
    "street": null,
    "office_name": null,
    "office_name_kana": null
  },
  "0342": {
    "zip_code": "9010342",
    "prefecture": "沖縄県",
    "prefecture_kana": "オキナワケン",
    "prefecture_code": "47",
    "city": "糸満市",
    "city_kana": "イトマンシ",
    "town": "糸洲",
    "town_kana": "イトス",
    "street": null,
    "office_name": null,
    "office_name_kana": null
  },
  "0343": {
    "zip_code": "9010343",
    "prefecture": "沖縄県",
    "prefecture_kana": "オキナワケン",
    "prefecture_code": "47",
    "city": "糸満市",
    "city_kana": "イトマンシ",
    "town": "南波平",
    "town_kana": "ミナミナミヒラ",
    "street": null,
    "office_name": null,
    "office_name_kana": null
  },
  "0344": {
    "zip_code": "9010344",
    "prefecture": "沖縄県",
    "prefecture_kana": "オキナワケン",
    "prefecture_code": "47",
    "city": "糸満市",
    "city_kana": "イトマンシ",
    "town": "伊原",
    "town_kana": "イハラ",
    "street": null,
    "office_name": null,
    "office_name_kana": null
  },
  "0345": {
    "zip_code": "9010345",
    "prefecture": "沖縄県",
    "prefecture_kana": "オキナワケン",
    "prefecture_code": "47",
    "city": "糸満市",
    "city_kana": "イトマンシ",
    "town": "福地",
    "town_kana": "フクジ",
    "street": null,
    "office_name": null,
    "office_name_kana": null
  },
  "0351": {
    "zip_code": "9010351",
    "prefecture": "沖縄県",
    "prefecture_kana": "オキナワケン",
    "prefecture_code": "47",
    "city": "糸満市",
    "city_kana": "イトマンシ",
    "town": "名城",
    "town_kana": "ナシロ",
    "street": null,
    "office_name": null,
    "office_name_kana": null
  },
  "0352": {
    "zip_code": "9010352",
    "prefecture": "沖縄県",
    "prefecture_kana": "オキナワケン",
    "prefecture_code": "47",
    "city": "糸満市",
    "city_kana": "イトマンシ",
    "town": "山城",
    "town_kana": "ヤマグスク",
    "street": null,
    "office_name": null,
    "office_name_kana": null
  },
  "0353": {
    "zip_code": "9010353",
    "prefecture": "沖縄県",
    "prefecture_kana": "オキナワケン",
    "prefecture_code": "47",
    "city": "糸満市",
    "city_kana": "イトマンシ",
    "town": "束里",
    "town_kana": "ツカザト",
    "street": null,
    "office_name": null,
    "office_name_kana": null
  },
  "0354": {
    "zip_code": "9010354",
    "prefecture": "沖縄県",
    "prefecture_kana": "オキナワケン",
    "prefecture_code": "47",
    "city": "糸満市",
    "city_kana": "イトマンシ",
    "town": "喜屋武",
    "town_kana": "キャン",
    "street": null,
    "office_name": null,
    "office_name_kana": null
  },
  "0361": {
    "zip_code": "9010361",
    "prefecture": "沖縄県",
    "prefecture_kana": "オキナワケン",
    "prefecture_code": "47",
    "city": "糸満市",
    "city_kana": "イトマンシ",
    "town": "糸満",
    "town_kana": "イトマン",
    "street": null,
    "office_name": null,
    "office_name_kana": null
  },
  "0362": {
    "zip_code": "9010362",
    "prefecture": "沖縄県",
    "prefecture_kana": "オキナワケン",
    "prefecture_code": "47",
    "city": "糸満市",
    "city_kana": "イトマンシ",
    "town": "真栄里",
    "town_kana": "マエザト",
    "street": null,
    "office_name": null,
    "office_name_kana": null
  },
  "0363": {
    "zip_code": "9010363",
    "prefecture": "沖縄県",
    "prefecture_kana": "オキナワケン",
    "prefecture_code": "47",
    "city": "糸満市",
    "city_kana": "イトマンシ",
    "town": "伊敷",
    "town_kana": "イシキ",
    "street": null,
    "office_name": null,
    "office_name_kana": null
  },
  "0364": {
    "zip_code": "9010364",
    "prefecture": "沖縄県",
    "prefecture_kana": "オキナワケン",
    "prefecture_code": "47",
    "city": "糸満市",
    "city_kana": "イトマンシ",
    "town": "潮崎町",
    "town_kana": "シオザキチョウ",
    "street": null,
    "office_name": null,
    "office_name_kana": null
  },
  "0392": {
    "zip_code": "9010392",
    "prefecture": "沖縄県",
    "prefecture_kana": "オキナワケン",
    "prefecture_code": "47",
    "city": "糸満市",
    "city_kana": "イトマンシ",
    "town": "潮崎町",
    "town_kana": "シオザキチョウ",
    "street": "１丁目１番地",
    "office_name": "糸満市役所",
    "office_name_kana": "イトマンシヤクシヨ"
  },
  "0393": {
    "zip_code": "9010393",
    "prefecture": "沖縄県",
    "prefecture_kana": "オキナワケン",
    "prefecture_code": "47",
    "city": "糸満市",
    "city_kana": "イトマンシ",
    "town": "西崎町",
    "town_kana": "ニシザキチョウ",
    "street": "４丁目７",
    "office_name": "株式会社　ざまみダンボール",
    "office_name_kana": "カブシキカイシヤ ザマミダンボ-ル"
  },
  "0400": {
    "zip_code": "9010400",
    "prefecture": "沖縄県",
    "prefecture_kana": "オキナワケン",
    "prefecture_code": "47",
    "city": "島尻郡八重瀬町",
    "city_kana": "シマジリグンヤエセチョウ",
    "town": "",
    "town_kana": "",
    "street": null,
    "office_name": null,
    "office_name_kana": null
  },
  "0401": {
    "zip_code": "9010401",
    "prefecture": "沖縄県",
    "prefecture_kana": "オキナワケン",
    "prefecture_code": "47",
    "city": "島尻郡八重瀬町",
    "city_kana": "シマジリグンヤエセチョウ",
    "town": "東風平",
    "town_kana": "コチンダ",
    "street": null,
    "office_name": null,
    "office_name_kana": null
  },
  "0402": {
    "zip_code": "9010402",
    "prefecture": "沖縄県",
    "prefecture_kana": "オキナワケン",
    "prefecture_code": "47",
    "city": "島尻郡八重瀬町",
    "city_kana": "シマジリグンヤエセチョウ",
    "town": "富盛",
    "town_kana": "トモリ",
    "street": null,
    "office_name": null,
    "office_name_kana": null
  },
  "0403": {
    "zip_code": "9010403",
    "prefecture": "沖縄県",
    "prefecture_kana": "オキナワケン",
    "prefecture_code": "47",
    "city": "島尻郡八重瀬町",
    "city_kana": "シマジリグンヤエセチョウ",
    "town": "世名城",
    "town_kana": "ヨナグスク",
    "street": null,
    "office_name": null,
    "office_name_kana": null
  },
  "0404": {
    "zip_code": "9010404",
    "prefecture": "沖縄県",
    "prefecture_kana": "オキナワケン",
    "prefecture_code": "47",
    "city": "島尻郡八重瀬町",
    "city_kana": "シマジリグンヤエセチョウ",
    "town": "高良",
    "town_kana": "タカラ",
    "street": null,
    "office_name": null,
    "office_name_kana": null
  },
  "0405": {
    "zip_code": "9010405",
    "prefecture": "沖縄県",
    "prefecture_kana": "オキナワケン",
    "prefecture_code": "47",
    "city": "島尻郡八重瀬町",
    "city_kana": "シマジリグンヤエセチョウ",
    "town": "伊覇",
    "town_kana": "イハ",
    "street": null,
    "office_name": null,
    "office_name_kana": null
  },
  "0406": {
    "zip_code": "9010406",
    "prefecture": "沖縄県",
    "prefecture_kana": "オキナワケン",
    "prefecture_code": "47",
    "city": "島尻郡八重瀬町",
    "city_kana": "シマジリグンヤエセチョウ",
    "town": "屋宜原",
    "town_kana": "ヤギバル",
    "street": null,
    "office_name": null,
    "office_name_kana": null
  },
  "0411": {
    "zip_code": "9010411",
    "prefecture": "沖縄県",
    "prefecture_kana": "オキナワケン",
    "prefecture_code": "47",
    "city": "島尻郡八重瀬町",
    "city_kana": "シマジリグンヤエセチョウ",
    "town": "友寄",
    "town_kana": "トモヨセ",
    "street": null,
    "office_name": null,
    "office_name_kana": null
  },
  "0412": {
    "zip_code": "9010412",
    "prefecture": "沖縄県",
    "prefecture_kana": "オキナワケン",
    "prefecture_code": "47",
    "city": "島尻郡八重瀬町",
    "city_kana": "シマジリグンヤエセチョウ",
    "town": "上田原",
    "town_kana": "ウエタバル",
    "street": null,
    "office_name": null,
    "office_name_kana": null
  },
  "0413": {
    "zip_code": "9010413",
    "prefecture": "沖縄県",
    "prefecture_kana": "オキナワケン",
    "prefecture_code": "47",
    "city": "島尻郡八重瀬町",
    "city_kana": "シマジリグンヤエセチョウ",
    "town": "志多伯",
    "town_kana": "シタハク",
    "street": null,
    "office_name": null,
    "office_name_kana": null
  },
  "0414": {
    "zip_code": "9010414",
    "prefecture": "沖縄県",
    "prefecture_kana": "オキナワケン",
    "prefecture_code": "47",
    "city": "島尻郡八重瀬町",
    "city_kana": "シマジリグンヤエセチョウ",
    "town": "当銘",
    "town_kana": "トウメ",
    "street": null,
    "office_name": null,
    "office_name_kana": null
  },
  "0415": {
    "zip_code": "9010415",
    "prefecture": "沖縄県",
    "prefecture_kana": "オキナワケン",
    "prefecture_code": "47",
    "city": "島尻郡八重瀬町",
    "city_kana": "シマジリグンヤエセチョウ",
    "town": "小城",
    "town_kana": "コグスク",
    "street": null,
    "office_name": null,
    "office_name_kana": null
  },
  "0416": {
    "zip_code": "9010416",
    "prefecture": "沖縄県",
    "prefecture_kana": "オキナワケン",
    "prefecture_code": "47",
    "city": "島尻郡八重瀬町",
    "city_kana": "シマジリグンヤエセチョウ",
    "town": "宜次",
    "town_kana": "ギシ",
    "street": null,
    "office_name": null,
    "office_name_kana": null
  },
  "0417": {
    "zip_code": "9010417",
    "prefecture": "沖縄県",
    "prefecture_kana": "オキナワケン",
    "prefecture_code": "47",
    "city": "島尻郡八重瀬町",
    "city_kana": "シマジリグンヤエセチョウ",
    "town": "外間",
    "town_kana": "ホカマ",
    "street": null,
    "office_name": null,
    "office_name_kana": null
  },
  "0492": {
    "zip_code": "9010492",
    "prefecture": "沖縄県",
    "prefecture_kana": null,
    "prefecture_code": null,
    "city": "島尻郡八重瀬町",
    "city_kana": null,
    "town": "字東風平",
    "town_kana": null,
    "street": "１１８８番地",
    "office_name": "八重瀬町役場",
    "office_name_kana": "ヤエセチヨウヤクバ"
  },
  "0493": {
    "zip_code": "9010493",
    "prefecture": "沖縄県",
    "prefecture_kana": null,
    "prefecture_code": null,
    "city": "島尻郡八重瀬町",
    "city_kana": null,
    "town": "字外間",
    "town_kana": null,
    "street": "８０",
    "office_name": "特定医療法人　沖縄徳洲会　南部徳洲会病院",
    "office_name_kana": "トクテイイリヨウホウジン オキナワトクシユウカイ ナンブトクシユウカイビヨウイン"
  },
  "0494": {
    "zip_code": "9010494",
    "prefecture": "沖縄県",
    "prefecture_kana": "オキナワケン",
    "prefecture_code": "47",
    "city": "島尻郡八重瀬町",
    "city_kana": "シマジリグンヤエセチョウ",
    "town": "東風平",
    "town_kana": "コチンダ",
    "street": "１４７３番地２",
    "office_name": "南部水道企業団",
    "office_name_kana": "ナンブスイドウキギヨウダン"
  },
  "0495": {
    "zip_code": "9010495",
    "prefecture": "沖縄県",
    "prefecture_kana": null,
    "prefecture_code": null,
    "city": "島尻郡八重瀬町",
    "city_kana": null,
    "town": "字伊覇",
    "town_kana": null,
    "street": "２９０−１",
    "office_name": "沖縄県農業協同組合　東風平支店",
    "office_name_kana": "オキナワケンノウギヨウキヨウドウクミアイ コチンダシテン"
  },
  "0496": {
    "zip_code": "9010496",
    "prefecture": "沖縄県",
    "prefecture_kana": null,
    "prefecture_code": null,
    "city": "島尻郡八重瀬町",
    "city_kana": null,
    "town": "字富盛",
    "town_kana": null,
    "street": "２６０８",
    "office_name": "陸上自衛隊　与座分屯地",
    "office_name_kana": "リクジヨウジエイタイ ヨザブントンチ"
  },
  "0501": {
    "zip_code": "9010501",
    "prefecture": "沖縄県",
    "prefecture_kana": "オキナワケン",
    "prefecture_code": "47",
    "city": "島尻郡八重瀬町",
    "city_kana": "シマジリグンヤエセチョウ",
    "town": "長毛",
    "town_kana": "ナガモウ",
    "street": null,
    "office_name": null,
    "office_name_kana": null
  },
  "0502": {
    "zip_code": "9010502",
    "prefecture": "沖縄県",
    "prefecture_kana": "オキナワケン",
    "prefecture_code": "47",
    "city": "島尻郡八重瀬町",
    "city_kana": "シマジリグンヤエセチョウ",
    "town": "大頓",
    "town_kana": "オオトン",
    "street": null,
    "office_name": null,
    "office_name_kana": null
  },
  "0503": {
    "zip_code": "9010503",
    "prefecture": "沖縄県",
    "prefecture_kana": "オキナワケン",
    "prefecture_code": "47",
    "city": "島尻郡八重瀬町",
    "city_kana": "シマジリグンヤエセチョウ",
    "town": "新城",
    "town_kana": "アラグスク",
    "street": null,
    "office_name": null,
    "office_name_kana": null
  },
  "0504": {
    "zip_code": "9010504",
    "prefecture": "沖縄県",
    "prefecture_kana": "オキナワケン",
    "prefecture_code": "47",
    "city": "島尻郡八重瀬町",
    "city_kana": "シマジリグンヤエセチョウ",
    "town": "後原",
    "town_kana": "コシハラ",
    "street": null,
    "office_name": null,
    "office_name_kana": null
  },
  "0511": {
    "zip_code": "9010511",
    "prefecture": "沖縄県",
    "prefecture_kana": "オキナワケン",
    "prefecture_code": "47",
    "city": "島尻郡八重瀬町",
    "city_kana": "シマジリグンヤエセチョウ",
    "town": "港川",
    "town_kana": "ミナトガワ",
    "street": null,
    "office_name": null,
    "office_name_kana": null
  },
  "0512": {
    "zip_code": "9010512",
    "prefecture": "沖縄県",
    "prefecture_kana": "オキナワケン",
    "prefecture_code": "47",
    "city": "島尻郡八重瀬町",
    "city_kana": "シマジリグンヤエセチョウ",
    "town": "具志頭",
    "town_kana": "グシチャン",
    "street": null,
    "office_name": null,
    "office_name_kana": null
  },
  "0513": {
    "zip_code": "9010513",
    "prefecture": "沖縄県",
    "prefecture_kana": "オキナワケン",
    "prefecture_code": "47",
    "city": "島尻郡八重瀬町",
    "city_kana": "シマジリグンヤエセチョウ",
    "town": "玻名城",
    "town_kana": "ハナシロ",
    "street": null,
    "office_name": null,
    "office_name_kana": null
  },
  "0514": {
    "zip_code": "9010514",
    "prefecture": "沖縄県",
    "prefecture_kana": "オキナワケン",
    "prefecture_code": "47",
    "city": "島尻郡八重瀬町",
    "city_kana": "シマジリグンヤエセチョウ",
    "town": "安里",
    "town_kana": "アサト",
    "street": null,
    "office_name": null,
    "office_name_kana": null
  },
  "0515": {
    "zip_code": "9010515",
    "prefecture": "沖縄県",
    "prefecture_kana": "オキナワケン",
    "prefecture_code": "47",
    "city": "島尻郡八重瀬町",
    "city_kana": "シマジリグンヤエセチョウ",
    "town": "与座",
    "town_kana": "ヨザ",
    "street": null,
    "office_name": null,
    "office_name_kana": null
  },
  "0516": {
    "zip_code": "9010516",
    "prefecture": "沖縄県",
    "prefecture_kana": "オキナワケン",
    "prefecture_code": "47",
    "city": "島尻郡八重瀬町",
    "city_kana": "シマジリグンヤエセチョウ",
    "town": "仲座",
    "town_kana": "ナカザ",
    "street": null,
    "office_name": null,
    "office_name_kana": null
  },
  "0592": {
    "zip_code": "9010592",
    "prefecture": "沖縄県",
    "prefecture_kana": null,
    "prefecture_code": null,
    "city": "島尻郡八重瀬町",
    "city_kana": null,
    "town": "字具志頭",
    "town_kana": null,
    "street": "１番地",
    "office_name": "八重瀬町役場　具志頭出張所",
    "office_name_kana": "ヤエセチヨウヤクバ グシカミシユツチヨウシヨ"
  },
  "0601": {
    "zip_code": "9010601",
    "prefecture": "沖縄県",
    "prefecture_kana": "オキナワケン",
    "prefecture_code": "47",
    "city": "南城市",
    "city_kana": "ナンジョウシ",
    "town": "玉城垣花",
    "town_kana": "タマグスクカキノハナ",
    "street": null,
    "office_name": null,
    "office_name_kana": null
  },
  "0602": {
    "zip_code": "9010602",
    "prefecture": "沖縄県",
    "prefecture_kana": "オキナワケン",
    "prefecture_code": "47",
    "city": "南城市",
    "city_kana": "ナンジョウシ",
    "town": "玉城仲村渠",
    "town_kana": "タマグスクナカンダカリ",
    "street": null,
    "office_name": null,
    "office_name_kana": null
  },
  "0603": {
    "zip_code": "9010603",
    "prefecture": "沖縄県",
    "prefecture_kana": "オキナワケン",
    "prefecture_code": "47",
    "city": "南城市",
    "city_kana": "ナンジョウシ",
    "town": "玉城百名",
    "town_kana": "タマグスクヒャクナ",
    "street": null,
    "office_name": null,
    "office_name_kana": null
  },
  "0604": {
    "zip_code": "9010604",
    "prefecture": "沖縄県",
    "prefecture_kana": "オキナワケン",
    "prefecture_code": "47",
    "city": "南城市",
    "city_kana": "ナンジョウシ",
    "town": "玉城玉城",
    "town_kana": "タマグスクタマグスク",
    "street": null,
    "office_name": null,
    "office_name_kana": null
  },
  "0605": {
    "zip_code": "9010605",
    "prefecture": "沖縄県",
    "prefecture_kana": "オキナワケン",
    "prefecture_code": "47",
    "city": "南城市",
    "city_kana": "ナンジョウシ",
    "town": "玉城中山",
    "town_kana": "タマグスクナカヤマ",
    "street": null,
    "office_name": null,
    "office_name_kana": null
  },
  "0606": {
    "zip_code": "9010606",
    "prefecture": "沖縄県",
    "prefecture_kana": "オキナワケン",
    "prefecture_code": "47",
    "city": "南城市",
    "city_kana": "ナンジョウシ",
    "town": "玉城糸数",
    "town_kana": "タマグスクイトカズ",
    "street": null,
    "office_name": null,
    "office_name_kana": null
  },
  "0607": {
    "zip_code": "9010607",
    "prefecture": "沖縄県",
    "prefecture_kana": "オキナワケン",
    "prefecture_code": "47",
    "city": "南城市",
    "city_kana": "ナンジョウシ",
    "town": "玉城喜良原",
    "town_kana": "タマグスクキラバル",
    "street": null,
    "office_name": null,
    "office_name_kana": null
  },
  "0608": {
    "zip_code": "9010608",
    "prefecture": "沖縄県",
    "prefecture_kana": "オキナワケン",
    "prefecture_code": "47",
    "city": "南城市",
    "city_kana": "ナンジョウシ",
    "town": "玉城親慶原",
    "town_kana": "タマグスクオヤケバル",
    "street": null,
    "office_name": null,
    "office_name_kana": null
  },
  "0611": {
    "zip_code": "9010611",
    "prefecture": "沖縄県",
    "prefecture_kana": "オキナワケン",
    "prefecture_code": "47",
    "city": "南城市",
    "city_kana": "ナンジョウシ",
    "town": "玉城富里",
    "town_kana": "タマグスクフサト",
    "street": null,
    "office_name": null,
    "office_name_kana": null
  },
  "0612": {
    "zip_code": "9010612",
    "prefecture": "沖縄県",
    "prefecture_kana": "オキナワケン",
    "prefecture_code": "47",
    "city": "南城市",
    "city_kana": "ナンジョウシ",
    "town": "玉城當山",
    "town_kana": "タマグスクトウヤマ",
    "street": null,
    "office_name": null,
    "office_name_kana": null
  },
  "0613": {
    "zip_code": "9010613",
    "prefecture": "沖縄県",
    "prefecture_kana": "オキナワケン",
    "prefecture_code": "47",
    "city": "南城市",
    "city_kana": "ナンジョウシ",
    "town": "玉城志堅原",
    "town_kana": "タマグスクシケンバル",
    "street": null,
    "office_name": null,
    "office_name_kana": null
  },
  "0614": {
    "zip_code": "9010614",
    "prefecture": "沖縄県",
    "prefecture_kana": "オキナワケン",
    "prefecture_code": "47",
    "city": "南城市",
    "city_kana": "ナンジョウシ",
    "town": "玉城奥武",
    "town_kana": "タマグスクオウ",
    "street": null,
    "office_name": null,
    "office_name_kana": null
  },
  "0615": {
    "zip_code": "9010615",
    "prefecture": "沖縄県",
    "prefecture_kana": "オキナワケン",
    "prefecture_code": "47",
    "city": "南城市",
    "city_kana": "ナンジョウシ",
    "town": "玉城堀川",
    "town_kana": "タマグスクホリカワ",
    "street": null,
    "office_name": null,
    "office_name_kana": null
  },
  "0616": {
    "zip_code": "9010616",
    "prefecture": "沖縄県",
    "prefecture_kana": "オキナワケン",
    "prefecture_code": "47",
    "city": "南城市",
    "city_kana": "ナンジョウシ",
    "town": "玉城前川",
    "town_kana": "タマグスクマエカワ",
    "street": null,
    "office_name": null,
    "office_name_kana": null
  },
  "0617": {
    "zip_code": "9010617",
    "prefecture": "沖縄県",
    "prefecture_kana": "オキナワケン",
    "prefecture_code": "47",
    "city": "南城市",
    "city_kana": "ナンジョウシ",
    "town": "玉城愛地",
    "town_kana": "タマグスクアイチ",
    "street": null,
    "office_name": null,
    "office_name_kana": null
  },
  "0618": {
    "zip_code": "9010618",
    "prefecture": "沖縄県",
    "prefecture_kana": "オキナワケン",
    "prefecture_code": "47",
    "city": "南城市",
    "city_kana": "ナンジョウシ",
    "town": "玉城船越",
    "town_kana": "タマグスクフナコシ",
    "street": null,
    "office_name": null,
    "office_name_kana": null
  },
  "0619": {
    "zip_code": "9010619",
    "prefecture": "沖縄県",
    "prefecture_kana": "オキナワケン",
    "prefecture_code": "47",
    "city": "南城市",
    "city_kana": "ナンジョウシ",
    "town": "玉城屋嘉部",
    "town_kana": "タマグスクヤカブ",
    "street": null,
    "office_name": null,
    "office_name_kana": null
  },
  "0695": {
    "zip_code": "9010695",
    "prefecture": "沖縄県",
    "prefecture_kana": null,
    "prefecture_code": null,
    "city": "南城市",
    "city_kana": null,
    "town": "玉城",
    "town_kana": null,
    "street": "字富里１４３番地",
    "office_name": "南城市役所",
    "office_name_kana": "ナンジヨウシヤクシヨ"
  },
  "1100": {
    "zip_code": "9011100",
    "prefecture": "沖縄県",
    "prefecture_kana": "オキナワケン",
    "prefecture_code": "47",
    "city": "島尻郡南風原町",
    "city_kana": "シマジリグンハエバルチョウ",
    "town": "",
    "town_kana": "",
    "street": null,
    "office_name": null,
    "office_name_kana": null
  },
  "1101": {
    "zip_code": "9011101",
    "prefecture": "沖縄県",
    "prefecture_kana": "オキナワケン",
    "prefecture_code": "47",
    "city": "島尻郡南風原町",
    "city_kana": "シマジリグンハエバルチョウ",
    "town": "大名",
    "town_kana": "オオナ",
    "street": null,
    "office_name": null,
    "office_name_kana": null
  },
  "1102": {
    "zip_code": "9011102",
    "prefecture": "沖縄県",
    "prefecture_kana": "オキナワケン",
    "prefecture_code": "47",
    "city": "島尻郡南風原町",
    "city_kana": "シマジリグンハエバルチョウ",
    "town": "宮城",
    "town_kana": "ミヤグスク",
    "street": null,
    "office_name": null,
    "office_name_kana": null
  },
  "1103": {
    "zip_code": "9011103",
    "prefecture": "沖縄県",
    "prefecture_kana": "オキナワケン",
    "prefecture_code": "47",
    "city": "島尻郡南風原町",
    "city_kana": "シマジリグンハエバルチョウ",
    "town": "与那覇",
    "town_kana": "ヨナハ",
    "street": null,
    "office_name": null,
    "office_name_kana": null
  },
  "1104": {
    "zip_code": "9011104",
    "prefecture": "沖縄県",
    "prefecture_kana": "オキナワケン",
    "prefecture_code": "47",
    "city": "島尻郡南風原町",
    "city_kana": "シマジリグンハエバルチョウ",
    "town": "宮平",
    "town_kana": "ミヤヒラ",
    "street": null,
    "office_name": null,
    "office_name_kana": null
  },
  "1105": {
    "zip_code": "9011105",
    "prefecture": "沖縄県",
    "prefecture_kana": "オキナワケン",
    "prefecture_code": "47",
    "city": "島尻郡南風原町",
    "city_kana": "シマジリグンハエバルチョウ",
    "town": "新川",
    "town_kana": "アラカワ",
    "street": null,
    "office_name": null,
    "office_name_kana": null
  },
  "1111": {
    "zip_code": "9011111",
    "prefecture": "沖縄県",
    "prefecture_kana": "オキナワケン",
    "prefecture_code": "47",
    "city": "島尻郡南風原町",
    "city_kana": "シマジリグンハエバルチョウ",
    "town": "兼城",
    "town_kana": "カネグスク",
    "street": null,
    "office_name": null,
    "office_name_kana": null
  },
  "1112": {
    "zip_code": "9011112",
    "prefecture": "沖縄県",
    "prefecture_kana": "オキナワケン",
    "prefecture_code": "47",
    "city": "島尻郡南風原町",
    "city_kana": "シマジリグンハエバルチョウ",
    "town": "本部",
    "town_kana": "モトブ",
    "street": null,
    "office_name": null,
    "office_name_kana": null
  },
  "1113": {
    "zip_code": "9011113",
    "prefecture": "沖縄県",
    "prefecture_kana": "オキナワケン",
    "prefecture_code": "47",
    "city": "島尻郡南風原町",
    "city_kana": "シマジリグンハエバルチョウ",
    "town": "喜屋武",
    "town_kana": "キャン",
    "street": null,
    "office_name": null,
    "office_name_kana": null
  },
  "1114": {
    "zip_code": "9011114",
    "prefecture": "沖縄県",
    "prefecture_kana": "オキナワケン",
    "prefecture_code": "47",
    "city": "島尻郡南風原町",
    "city_kana": "シマジリグンハエバルチョウ",
    "town": "神里",
    "town_kana": "カミザト",
    "street": null,
    "office_name": null,
    "office_name_kana": null
  },
  "1115": {
    "zip_code": "9011115",
    "prefecture": "沖縄県",
    "prefecture_kana": "オキナワケン",
    "prefecture_code": "47",
    "city": "島尻郡南風原町",
    "city_kana": "シマジリグンハエバルチョウ",
    "town": "山川",
    "town_kana": "ヤマカワ",
    "street": null,
    "office_name": null,
    "office_name_kana": null
  },
  "1116": {
    "zip_code": "9011116",
    "prefecture": "沖縄県",
    "prefecture_kana": "オキナワケン",
    "prefecture_code": "47",
    "city": "島尻郡南風原町",
    "city_kana": "シマジリグンハエバルチョウ",
    "town": "照屋",
    "town_kana": "テルヤ",
    "street": null,
    "office_name": null,
    "office_name_kana": null
  },
  "1117": {
    "zip_code": "9011117",
    "prefecture": "沖縄県",
    "prefecture_kana": "オキナワケン",
    "prefecture_code": "47",
    "city": "島尻郡南風原町",
    "city_kana": "シマジリグンハエバルチョウ",
    "town": "津嘉山",
    "town_kana": "ツカザン",
    "street": null,
    "office_name": null,
    "office_name_kana": null
  },
  "1192": {
    "zip_code": "9011192",
    "prefecture": "沖縄県",
    "prefecture_kana": null,
    "prefecture_code": null,
    "city": "島尻郡南風原町",
    "city_kana": null,
    "town": "字宮平",
    "town_kana": null,
    "street": "２１２",
    "office_name": "財団法人　沖縄県総合保健協会",
    "office_name_kana": "ザイダンホウジン オキナワケンソウゴウホケンキヨウカイ"
  },
  "1193": {
    "zip_code": "9011193",
    "prefecture": "沖縄県",
    "prefecture_kana": null,
    "prefecture_code": null,
    "city": "島尻郡南風原町",
    "city_kana": null,
    "town": "字新川",
    "town_kana": null,
    "street": "１１８番地の１",
    "office_name": "沖縄県立　南部医療センター・こども医療センター",
    "office_name_kana": "オキナワケンリツ ナンブイリヨウセンタ-・コドモイリヨウセンタ-"
  },
  "1195": {
    "zip_code": "9011195",
    "prefecture": "沖縄県",
    "prefecture_kana": null,
    "prefecture_code": null,
    "city": "島尻郡南風原町",
    "city_kana": null,
    "town": "字兼城",
    "town_kana": null,
    "street": "６８６",
    "office_name": "南風原町役場",
    "office_name_kana": "ハエバルチヨウヤクバ"
  },
  "1196": {
    "zip_code": "9011196",
    "prefecture": "沖縄県",
    "prefecture_kana": null,
    "prefecture_code": null,
    "city": "島尻郡南風原町",
    "city_kana": null,
    "town": "字大名",
    "town_kana": null,
    "street": "２５６−１",
    "office_name": "霊波之光　沖縄支部",
    "office_name_kana": "レイハノヒカリ オキナワシブ"
  },
  "1201": {
    "zip_code": "9011201",
    "prefecture": "沖縄県",
    "prefecture_kana": "オキナワケン",
    "prefecture_code": "47",
    "city": "南城市",
    "city_kana": "ナンジョウシ",
    "town": "大里嶺井",
    "town_kana": "オオザトミネイ",
    "street": null,
    "office_name": null,
    "office_name_kana": null
  },
  "1202": {
    "zip_code": "9011202",
    "prefecture": "沖縄県",
    "prefecture_kana": "オキナワケン",
    "prefecture_code": "47",
    "city": "南城市",
    "city_kana": "ナンジョウシ",
    "town": "大里大里",
    "town_kana": "オオザトオオザト",
    "street": null,
    "office_name": null,
    "office_name_kana": null
  },
  "1203": {
    "zip_code": "9011203",
    "prefecture": "沖縄県",
    "prefecture_kana": "オキナワケン",
    "prefecture_code": "47",
    "city": "南城市",
    "city_kana": "ナンジョウシ",
    "town": "大里大城",
    "town_kana": "オオザトオオシロ",
    "street": null,
    "office_name": null,
    "office_name_kana": null
  },
  "1204": {
    "zip_code": "9011204",
    "prefecture": "沖縄県",
    "prefecture_kana": "オキナワケン",
    "prefecture_code": "47",
    "city": "南城市",
    "city_kana": "ナンジョウシ",
    "town": "大里稲嶺",
    "town_kana": "オオザトイナミネ",
    "street": null,
    "office_name": null,
    "office_name_kana": null
  },
  "1205": {
    "zip_code": "9011205",
    "prefecture": "沖縄県",
    "prefecture_kana": "オキナワケン",
    "prefecture_code": "47",
    "city": "南城市",
    "city_kana": "ナンジョウシ",
    "town": "大里高平",
    "town_kana": "オオザトタカヒラ",
    "street": null,
    "office_name": null,
    "office_name_kana": null
  },
  "1206": {
    "zip_code": "9011206",
    "prefecture": "沖縄県",
    "prefecture_kana": "オキナワケン",
    "prefecture_code": "47",
    "city": "南城市",
    "city_kana": "ナンジョウシ",
    "town": "大里仲間",
    "town_kana": "オオザトナカマ",
    "street": null,
    "office_name": null,
    "office_name_kana": null
  },
  "1207": {
    "zip_code": "9011207",
    "prefecture": "沖縄県",
    "prefecture_kana": "オキナワケン",
    "prefecture_code": "47",
    "city": "南城市",
    "city_kana": "ナンジョウシ",
    "town": "大里古堅",
    "town_kana": "オオザトフルゲン",
    "street": null,
    "office_name": null,
    "office_name_kana": null
  },
  "1208": {
    "zip_code": "9011208",
    "prefecture": "沖縄県",
    "prefecture_kana": "オキナワケン",
    "prefecture_code": "47",
    "city": "南城市",
    "city_kana": "ナンジョウシ",
    "town": "大里平良",
    "town_kana": "オオザトタイラ",
    "street": null,
    "office_name": null,
    "office_name_kana": null
  },
  "1292": {
    "zip_code": "9011292",
    "prefecture": "沖縄県",
    "prefecture_kana": null,
    "prefecture_code": null,
    "city": "南城市",
    "city_kana": null,
    "town": "大里",
    "town_kana": null,
    "street": "字仲間８０７番地",
    "office_name": "南城市役所　大里庁舎",
    "office_name_kana": "ナンジヨウシヤクシヨ オオザトチヨウシヤ"
  },
  "1300": {
    "zip_code": "9011300",
    "prefecture": "沖縄県",
    "prefecture_kana": "オキナワケン",
    "prefecture_code": "47",
    "city": "島尻郡与那原町",
    "city_kana": "シマジリグンヨナバルチョウ",
    "town": "",
    "town_kana": "",
    "street": null,
    "office_name": null,
    "office_name_kana": null
  },
  "1301": {
    "zip_code": "9011301",
    "prefecture": "沖縄県",
    "prefecture_kana": "オキナワケン",
    "prefecture_code": "47",
    "city": "島尻郡与那原町",
    "city_kana": "シマジリグンヨナバルチョウ",
    "town": "板良敷",
    "town_kana": "イタラシキ",
    "street": null,
    "office_name": null,
    "office_name_kana": null
  },
  "1302": {
    "zip_code": "9011302",
    "prefecture": "沖縄県",
    "prefecture_kana": "オキナワケン",
    "prefecture_code": "47",
    "city": "島尻郡与那原町",
    "city_kana": "シマジリグンヨナバルチョウ",
    "town": "上与那原",
    "town_kana": "ウエヨナバル",
    "street": null,
    "office_name": null,
    "office_name_kana": null
  },
  "1303": {
    "zip_code": "9011303",
    "prefecture": "沖縄県",
    "prefecture_kana": "オキナワケン",
    "prefecture_code": "47",
    "city": "島尻郡与那原町",
    "city_kana": "シマジリグンヨナバルチョウ",
    "town": "与那原",
    "town_kana": "ヨナバル",
    "street": null,
    "office_name": null,
    "office_name_kana": null
  },
  "1304": {
    "zip_code": "9011304",
    "prefecture": "沖縄県",
    "prefecture_kana": "オキナワケン",
    "prefecture_code": "47",
    "city": "島尻郡与那原町",
    "city_kana": "シマジリグンヨナバルチョウ",
    "town": "東浜",
    "town_kana": "アガリハマ",
    "street": null,
    "office_name": null,
    "office_name_kana": null
  },
  "1392": {
    "zip_code": "9011392",
    "prefecture": "沖縄県",
    "prefecture_kana": null,
    "prefecture_code": null,
    "city": "島尻郡与那原町",
    "city_kana": null,
    "town": "字上与那原",
    "town_kana": null,
    "street": "１６",
    "office_name": "与那原町役場",
    "office_name_kana": "ヨナバルチヨウヤクバ"
  },
  "1393": {
    "zip_code": "9011393",
    "prefecture": "沖縄県",
    "prefecture_kana": null,
    "prefecture_code": null,
    "city": "島尻郡与那原町",
    "city_kana": null,
    "town": "字板良敷",
    "town_kana": null,
    "street": "１３８０−１",
    "office_name": "沖縄リハビリテーション福祉学院",
    "office_name_kana": "オキナワリハビリテ-シヨンフクシガクイン"
  },
  "1400": {
    "zip_code": "9011400",
    "prefecture": "沖縄県",
    "prefecture_kana": "オキナワケン",
    "prefecture_code": "47",
    "city": "南城市",
    "city_kana": "ナンジョウシ",
    "town": "",
    "town_kana": "",
    "street": null,
    "office_name": null,
    "office_name_kana": null
  },
  "1401": {
    "zip_code": "9011401",
    "prefecture": "沖縄県",
    "prefecture_kana": "オキナワケン",
    "prefecture_code": "47",
    "city": "南城市",
    "city_kana": "ナンジョウシ",
    "town": "佐敷伊原",
    "town_kana": "サシキイバラ",
    "street": null,
    "office_name": null,
    "office_name_kana": null
  },
  "1402": {
    "zip_code": "9011402",
    "prefecture": "沖縄県",
    "prefecture_kana": "オキナワケン",
    "prefecture_code": "47",
    "city": "南城市",
    "city_kana": "ナンジョウシ",
    "town": "佐敷手登根",
    "town_kana": "サシキテドコン",
    "street": null,
    "office_name": null,
    "office_name_kana": null
  },
  "1403": {
    "zip_code": "9011403",
    "prefecture": "沖縄県",
    "prefecture_kana": "オキナワケン",
    "prefecture_code": "47",
    "city": "南城市",
    "city_kana": "ナンジョウシ",
    "town": "佐敷佐敷",
    "town_kana": "サシキサシキ",
    "street": null,
    "office_name": null,
    "office_name_kana": null
  },
  "1404": {
    "zip_code": "9011404",
    "prefecture": "沖縄県",
    "prefecture_kana": "オキナワケン",
    "prefecture_code": "47",
    "city": "南城市",
    "city_kana": "ナンジョウシ",
    "town": "佐敷冨祖崎",
    "town_kana": "サシキフソザキ",
    "street": null,
    "office_name": null,
    "office_name_kana": null
  },
  "1405": {
    "zip_code": "9011405",
    "prefecture": "沖縄県",
    "prefecture_kana": "オキナワケン",
    "prefecture_code": "47",
    "city": "南城市",
    "city_kana": "ナンジョウシ",
    "town": "佐敷仲伊保",
    "town_kana": "サシキナカイホ",
    "street": null,
    "office_name": null,
    "office_name_kana": null
  },
  "1406": {
    "zip_code": "9011406",
    "prefecture": "沖縄県",
    "prefecture_kana": "オキナワケン",
    "prefecture_code": "47",
    "city": "南城市",
    "city_kana": "ナンジョウシ",
    "town": "佐敷屋比久",
    "town_kana": "サシキヤビク",
    "street": null,
    "office_name": null,
    "office_name_kana": null
  },
  "1407": {
    "zip_code": "9011407",
    "prefecture": "沖縄県",
    "prefecture_kana": "オキナワケン",
    "prefecture_code": "47",
    "city": "南城市",
    "city_kana": "ナンジョウシ",
    "town": "つきしろ",
    "town_kana": "ツキシロ",
    "street": null,
    "office_name": null,
    "office_name_kana": null
  },
  "1411": {
    "zip_code": "9011411",
    "prefecture": "沖縄県",
    "prefecture_kana": "オキナワケン",
    "prefecture_code": "47",
    "city": "南城市",
    "city_kana": "ナンジョウシ",
    "town": "佐敷兼久",
    "town_kana": "サシキカネク",
    "street": null,
    "office_name": null,
    "office_name_kana": null
  },
  "1412": {
    "zip_code": "9011412",
    "prefecture": "沖縄県",
    "prefecture_kana": "オキナワケン",
    "prefecture_code": "47",
    "city": "南城市",
    "city_kana": "ナンジョウシ",
    "town": "佐敷新里",
    "town_kana": "サシキシンザト",
    "street": null,
    "office_name": null,
    "office_name_kana": null
  },
  "1413": {
    "zip_code": "9011413",
    "prefecture": "沖縄県",
    "prefecture_kana": "オキナワケン",
    "prefecture_code": "47",
    "city": "南城市",
    "city_kana": "ナンジョウシ",
    "town": "佐敷小谷",
    "town_kana": "サシキオコク",
    "street": null,
    "office_name": null,
    "office_name_kana": null
  },
  "1414": {
    "zip_code": "9011414",
    "prefecture": "沖縄県",
    "prefecture_kana": "オキナワケン",
    "prefecture_code": "47",
    "city": "南城市",
    "city_kana": "ナンジョウシ",
    "town": "佐敷津波古",
    "town_kana": "サシキツハコ",
    "street": null,
    "office_name": null,
    "office_name_kana": null
  },
  "1415": {
    "zip_code": "9011415",
    "prefecture": "沖縄県",
    "prefecture_kana": "オキナワケン",
    "prefecture_code": "47",
    "city": "南城市",
    "city_kana": "ナンジョウシ",
    "town": "佐敷新開",
    "town_kana": "サシキシンカイ",
    "street": null,
    "office_name": null,
    "office_name_kana": null
  },
  "1492": {
    "zip_code": "9011492",
    "prefecture": "沖縄県",
    "prefecture_kana": null,
    "prefecture_code": null,
    "city": "南城市",
    "city_kana": null,
    "town": "佐敷",
    "town_kana": null,
    "street": "字佐敷５６番地",
    "office_name": "南城市役所　佐敷庁舎",
    "office_name_kana": "ナンジヨウシヤクシヨ サシキチヨウシヤ"
  },
  "1501": {
    "zip_code": "9011501",
    "prefecture": "沖縄県",
    "prefecture_kana": "オキナワケン",
    "prefecture_code": "47",
    "city": "南城市",
    "city_kana": "ナンジョウシ",
    "town": "知念久高",
    "town_kana": "チネンクダカ",
    "street": null,
    "office_name": null,
    "office_name_kana": null
  },
  "1502": {
    "zip_code": "9011502",
    "prefecture": "沖縄県",
    "prefecture_kana": "オキナワケン",
    "prefecture_code": "47",
    "city": "南城市",
    "city_kana": "ナンジョウシ",
    "town": "知念安座真",
    "town_kana": "チネンアザマ",
    "street": null,
    "office_name": null,
    "office_name_kana": null
  },
  "1503": {
    "zip_code": "9011503",
    "prefecture": "沖縄県",
    "prefecture_kana": "オキナワケン",
    "prefecture_code": "47",
    "city": "南城市",
    "city_kana": "ナンジョウシ",
    "town": "知念知名",
    "town_kana": "チネンチナ",
    "street": null,
    "office_name": null,
    "office_name_kana": null
  },
  "1504": {
    "zip_code": "9011504",
    "prefecture": "沖縄県",
    "prefecture_kana": "オキナワケン",
    "prefecture_code": "47",
    "city": "南城市",
    "city_kana": "ナンジョウシ",
    "town": "知念海野",
    "town_kana": "チネンウミノ",
    "street": null,
    "office_name": null,
    "office_name_kana": null
  },
  "1505": {
    "zip_code": "9011505",
    "prefecture": "沖縄県",
    "prefecture_kana": "オキナワケン",
    "prefecture_code": "47",
    "city": "南城市",
    "city_kana": "ナンジョウシ",
    "town": "知念久原",
    "town_kana": "チネンクハラ",
    "street": null,
    "office_name": null,
    "office_name_kana": null
  },
  "1511": {
    "zip_code": "9011511",
    "prefecture": "沖縄県",
    "prefecture_kana": "オキナワケン",
    "prefecture_code": "47",
    "city": "南城市",
    "city_kana": "ナンジョウシ",
    "town": "知念久手堅",
    "town_kana": "チネンクデケン",
    "street": null,
    "office_name": null,
    "office_name_kana": null
  },
  "1512": {
    "zip_code": "9011512",
    "prefecture": "沖縄県",
    "prefecture_kana": "オキナワケン",
    "prefecture_code": "47",
    "city": "南城市",
    "city_kana": "ナンジョウシ",
    "town": "知念吉富",
    "town_kana": "チネンヨシトミ",
    "street": null,
    "office_name": null,
    "office_name_kana": null
  },
  "1513": {
    "zip_code": "9011513",
    "prefecture": "沖縄県",
    "prefecture_kana": "オキナワケン",
    "prefecture_code": "47",
    "city": "南城市",
    "city_kana": "ナンジョウシ",
    "town": "知念知念",
    "town_kana": "チネンチネン",
    "street": null,
    "office_name": null,
    "office_name_kana": null
  },
  "1514": {
    "zip_code": "9011514",
    "prefecture": "沖縄県",
    "prefecture_kana": "オキナワケン",
    "prefecture_code": "47",
    "city": "南城市",
    "city_kana": "ナンジョウシ",
    "town": "知念具志堅",
    "town_kana": "チネングシケン",
    "street": null,
    "office_name": null,
    "office_name_kana": null
  },
  "1515": {
    "zip_code": "9011515",
    "prefecture": "沖縄県",
    "prefecture_kana": "オキナワケン",
    "prefecture_code": "47",
    "city": "南城市",
    "city_kana": "ナンジョウシ",
    "town": "知念山里",
    "town_kana": "チネンヤマザト",
    "street": null,
    "office_name": null,
    "office_name_kana": null
  },
  "1516": {
    "zip_code": "9011516",
    "prefecture": "沖縄県",
    "prefecture_kana": "オキナワケン",
    "prefecture_code": "47",
    "city": "南城市",
    "city_kana": "ナンジョウシ",
    "town": "知念志喜屋",
    "town_kana": "チネンシキヤ",
    "street": null,
    "office_name": null,
    "office_name_kana": null
  },
  "1595": {
    "zip_code": "9011595",
    "prefecture": "沖縄県",
    "prefecture_kana": null,
    "prefecture_code": null,
    "city": "南城市",
    "city_kana": null,
    "town": "知念",
    "town_kana": null,
    "street": "字久手堅２２番地",
    "office_name": "南城市役所　知念庁舎",
    "office_name_kana": "ナンジヨウシヤクシヨ チネンチヨウシヤ"
  },
  "2100": {
    "zip_code": "9012100",
    "prefecture": "沖縄県",
    "prefecture_kana": "オキナワケン",
    "prefecture_code": "47",
    "city": "浦添市",
    "city_kana": "ウラソエシ",
    "town": "",
    "town_kana": "",
    "street": null,
    "office_name": null,
    "office_name_kana": null
  },
  "2101": {
    "zip_code": "9012101",
    "prefecture": "沖縄県",
    "prefecture_kana": "オキナワケン",
    "prefecture_code": "47",
    "city": "浦添市",
    "city_kana": "ウラソエシ",
    "town": "西原",
    "town_kana": "ニシハラ",
    "street": null,
    "office_name": null,
    "office_name_kana": null
  },
  "2102": {
    "zip_code": "9012102",
    "prefecture": "沖縄県",
    "prefecture_kana": "オキナワケン",
    "prefecture_code": "47",
    "city": "浦添市",
    "city_kana": "ウラソエシ",
    "town": "前田",
    "town_kana": "マエダ",
    "street": null,
    "office_name": null,
    "office_name_kana": null
  },
  "2103": {
    "zip_code": "9012103",
    "prefecture": "沖縄県",
    "prefecture_kana": "オキナワケン",
    "prefecture_code": "47",
    "city": "浦添市",
    "city_kana": "ウラソエシ",
    "town": "仲間",
    "town_kana": "ナカマ",
    "street": null,
    "office_name": null,
    "office_name_kana": null
  },
  "2104": {
    "zip_code": "9012104",
    "prefecture": "沖縄県",
    "prefecture_kana": "オキナワケン",
    "prefecture_code": "47",
    "city": "浦添市",
    "city_kana": "ウラソエシ",
    "town": "当山",
    "town_kana": "トウヤマ",
    "street": null,
    "office_name": null,
    "office_name_kana": null
  },
  "2111": {
    "zip_code": "9012111",
    "prefecture": "沖縄県",
    "prefecture_kana": "オキナワケン",
    "prefecture_code": "47",
    "city": "浦添市",
    "city_kana": "ウラソエシ",
    "town": "経塚",
    "town_kana": "キョウヅカ",
    "street": null,
    "office_name": null,
    "office_name_kana": null
  },
  "2112": {
    "zip_code": "9012112",
    "prefecture": "沖縄県",
    "prefecture_kana": "オキナワケン",
    "prefecture_code": "47",
    "city": "浦添市",
    "city_kana": "ウラソエシ",
    "town": "沢岻",
    "town_kana": "タクシ",
    "street": null,
    "office_name": null,
    "office_name_kana": null
  },
  "2113": {
    "zip_code": "9012113",
    "prefecture": "沖縄県",
    "prefecture_kana": "オキナワケン",
    "prefecture_code": "47",
    "city": "浦添市",
    "city_kana": "ウラソエシ",
    "town": "大平",
    "town_kana": "オオヒラ",
    "street": null,
    "office_name": null,
    "office_name_kana": null
  },
  "2114": {
    "zip_code": "9012114",
    "prefecture": "沖縄県",
    "prefecture_kana": "オキナワケン",
    "prefecture_code": "47",
    "city": "浦添市",
    "city_kana": "ウラソエシ",
    "town": "安波茶",
    "town_kana": "アハチャ",
    "street": null,
    "office_name": null,
    "office_name_kana": null
  },
  "2121": {
    "zip_code": "9012121",
    "prefecture": "沖縄県",
    "prefecture_kana": "オキナワケン",
    "prefecture_code": "47",
    "city": "浦添市",
    "city_kana": "ウラソエシ",
    "town": "内間",
    "town_kana": "ウチマ",
    "street": null,
    "office_name": null,
    "office_name_kana": null
  },
  "2122": {
    "zip_code": "9012122",
    "prefecture": "沖縄県",
    "prefecture_kana": "オキナワケン",
    "prefecture_code": "47",
    "city": "浦添市",
    "city_kana": "ウラソエシ",
    "town": "勢理客",
    "town_kana": "ジッチャク",
    "street": null,
    "office_name": null,
    "office_name_kana": null
  },
  "2123": {
    "zip_code": "9012123",
    "prefecture": "沖縄県",
    "prefecture_kana": "オキナワケン",
    "prefecture_code": "47",
    "city": "浦添市",
    "city_kana": "ウラソエシ",
    "town": "西洲",
    "town_kana": "イリジマ",
    "street": null,
    "office_name": null,
    "office_name_kana": null
  },
  "2124": {
    "zip_code": "9012124",
    "prefecture": "沖縄県",
    "prefecture_kana": "オキナワケン",
    "prefecture_code": "47",
    "city": "浦添市",
    "city_kana": "ウラソエシ",
    "town": "小湾",
    "town_kana": "コワン",
    "street": null,
    "office_name": null,
    "office_name_kana": null
  },
  "2125": {
    "zip_code": "9012125",
    "prefecture": "沖縄県",
    "prefecture_kana": "オキナワケン",
    "prefecture_code": "47",
    "city": "浦添市",
    "city_kana": "ウラソエシ",
    "town": "仲西",
    "town_kana": "ナカニシ",
    "street": null,
    "office_name": null,
    "office_name_kana": null
  },
  "2126": {
    "zip_code": "9012126",
    "prefecture": "沖縄県",
    "prefecture_kana": "オキナワケン",
    "prefecture_code": "47",
    "city": "浦添市",
    "city_kana": "ウラソエシ",
    "town": "宮城",
    "town_kana": "ミヤギ",
    "street": null,
    "office_name": null,
    "office_name_kana": null
  },
  "2127": {
    "zip_code": "9012127",
    "prefecture": "沖縄県",
    "prefecture_kana": "オキナワケン",
    "prefecture_code": "47",
    "city": "浦添市",
    "city_kana": "ウラソエシ",
    "town": "屋富祖",
    "town_kana": "ヤフソ",
    "street": null,
    "office_name": null,
    "office_name_kana": null
  },
  "2128": {
    "zip_code": "9012128",
    "prefecture": "沖縄県",
    "prefecture_kana": "オキナワケン",
    "prefecture_code": "47",
    "city": "浦添市",
    "city_kana": "ウラソエシ",
    "town": "伊奈武瀬",
    "town_kana": "イナンセ",
    "street": null,
    "office_name": null,
    "office_name_kana": null
  },
  "2131": {
    "zip_code": "9012131",
    "prefecture": "沖縄県",
    "prefecture_kana": "オキナワケン",
    "prefecture_code": "47",
    "city": "浦添市",
    "city_kana": "ウラソエシ",
    "town": "牧港",
    "town_kana": "マキミナト",
    "street": null,
    "office_name": null,
    "office_name_kana": null
  },
  "2132": {
    "zip_code": "9012132",
    "prefecture": "沖縄県",
    "prefecture_kana": "オキナワケン",
    "prefecture_code": "47",
    "city": "浦添市",
    "city_kana": "ウラソエシ",
    "town": "伊祖",
    "town_kana": "イソ",
    "street": null,
    "office_name": null,
    "office_name_kana": null
  },
  "2133": {
    "zip_code": "9012133",
    "prefecture": "沖縄県",
    "prefecture_kana": "オキナワケン",
    "prefecture_code": "47",
    "city": "浦添市",
    "city_kana": "ウラソエシ",
    "town": "城間",
    "town_kana": "グスクマ",
    "street": null,
    "office_name": null,
    "office_name_kana": null
  },
  "2134": {
    "zip_code": "9012134",
    "prefecture": "沖縄県",
    "prefecture_kana": "オキナワケン",
    "prefecture_code": "47",
    "city": "浦添市",
    "city_kana": "ウラソエシ",
    "town": "港川",
    "town_kana": "ミナトガワ",
    "street": null,
    "office_name": null,
    "office_name_kana": null
  },
  "2200": {
    "zip_code": "9012200",
    "prefecture": "沖縄県",
    "prefecture_kana": "オキナワケン",
    "prefecture_code": "47",
    "city": "宜野湾市",
    "city_kana": "ギノワンシ",
    "town": "",
    "town_kana": "",
    "street": null,
    "office_name": null,
    "office_name_kana": null
  },
  "2201": {
    "zip_code": "9012201",
    "prefecture": "沖縄県",
    "prefecture_kana": "オキナワケン",
    "prefecture_code": "47",
    "city": "宜野湾市",
    "city_kana": "ギノワンシ",
    "town": "新城",
    "town_kana": "アラグスク",
    "street": null,
    "office_name": null,
    "office_name_kana": null
  },
  "2202": {
    "zip_code": "9012202",
    "prefecture": "沖縄県",
    "prefecture_kana": "オキナワケン",
    "prefecture_code": "47",
    "city": "宜野湾市",
    "city_kana": "ギノワンシ",
    "town": "普天間",
    "town_kana": "フテンマ",
    "street": null,
    "office_name": null,
    "office_name_kana": null
  },
  "2203": {
    "zip_code": "9012203",
    "prefecture": "沖縄県",
    "prefecture_kana": "オキナワケン",
    "prefecture_code": "47",
    "city": "宜野湾市",
    "city_kana": "ギノワンシ",
    "town": "野嵩",
    "town_kana": "ノダケ",
    "street": null,
    "office_name": null,
    "office_name_kana": null
  },
  "2204": {
    "zip_code": "9012204",
    "prefecture": "沖縄県",
    "prefecture_kana": "オキナワケン",
    "prefecture_code": "47",
    "city": "宜野湾市",
    "city_kana": "ギノワンシ",
    "town": "上原",
    "town_kana": "ウエハラ",
    "street": null,
    "office_name": null,
    "office_name_kana": null
  },
  "2205": {
    "zip_code": "9012205",
    "prefecture": "沖縄県",
    "prefecture_kana": "オキナワケン",
    "prefecture_code": "47",
    "city": "宜野湾市",
    "city_kana": "ギノワンシ",
    "town": "赤道",
    "town_kana": "アカミチ",
    "street": null,
    "office_name": null,
    "office_name_kana": null
  },
  "2206": {
    "zip_code": "9012206",
    "prefecture": "沖縄県",
    "prefecture_kana": "オキナワケン",
    "prefecture_code": "47",
    "city": "宜野湾市",
    "city_kana": "ギノワンシ",
    "town": "愛知",
    "town_kana": "アイチ",
    "street": null,
    "office_name": null,
    "office_name_kana": null
  },
  "2207": {
    "zip_code": "9012207",
    "prefecture": "沖縄県",
    "prefecture_kana": "オキナワケン",
    "prefecture_code": "47",
    "city": "宜野湾市",
    "city_kana": "ギノワンシ",
    "town": "神山",
    "town_kana": "カミヤマ",
    "street": null,
    "office_name": null,
    "office_name_kana": null
  },
  "2211": {
    "zip_code": "9012211",
    "prefecture": "沖縄県",
    "prefecture_kana": "オキナワケン",
    "prefecture_code": "47",
    "city": "宜野湾市",
    "city_kana": "ギノワンシ",
    "town": "宜野湾",
    "town_kana": "ギノワン",
    "street": null,
    "office_name": null,
    "office_name_kana": null
  },
  "2212": {
    "zip_code": "9012212",
    "prefecture": "沖縄県",
    "prefecture_kana": "オキナワケン",
    "prefecture_code": "47",
    "city": "宜野湾市",
    "city_kana": "ギノワンシ",
    "town": "長田",
    "town_kana": "ナガタ",
    "street": null,
    "office_name": null,
    "office_name_kana": null
  },
  "2213": {
    "zip_code": "9012213",
    "prefecture": "沖縄県",
    "prefecture_kana": "オキナワケン",
    "prefecture_code": "47",
    "city": "宜野湾市",
    "city_kana": "ギノワンシ",
    "town": "志真志",
    "town_kana": "シマシ",
    "street": null,
    "office_name": null,
    "office_name_kana": null
  },
  "2214": {
    "zip_code": "9012214",
    "prefecture": "沖縄県",
    "prefecture_kana": "オキナワケン",
    "prefecture_code": "47",
    "city": "宜野湾市",
    "city_kana": "ギノワンシ",
    "town": "我如古",
    "town_kana": "ガネコ",
    "street": null,
    "office_name": null,
    "office_name_kana": null
  },
  "2215": {
    "zip_code": "9012215",
    "prefecture": "沖縄県",
    "prefecture_kana": "オキナワケン",
    "prefecture_code": "47",
    "city": "宜野湾市",
    "city_kana": "ギノワンシ",
    "town": "真栄原",
    "town_kana": "マエハラ",
    "street": null,
    "office_name": null,
    "office_name_kana": null
  },
  "2216": {
    "zip_code": "9012216",
    "prefecture": "沖縄県",
    "prefecture_kana": "オキナワケン",
    "prefecture_code": "47",
    "city": "宜野湾市",
    "city_kana": "ギノワンシ",
    "town": "佐真下",
    "town_kana": "サマシタ",
    "street": null,
    "office_name": null,
    "office_name_kana": null
  },
  "2221": {
    "zip_code": "9012221",
    "prefecture": "沖縄県",
    "prefecture_kana": "オキナワケン",
    "prefecture_code": "47",
    "city": "宜野湾市",
    "city_kana": "ギノワンシ",
    "town": "伊佐",
    "town_kana": "イサ",
    "street": null,
    "office_name": null,
    "office_name_kana": null
  },
  "2222": {
    "zip_code": "9012222",
    "prefecture": "沖縄県",
    "prefecture_kana": "オキナワケン",
    "prefecture_code": "47",
    "city": "宜野湾市",
    "city_kana": "ギノワンシ",
    "town": "喜友名",
    "town_kana": "キユウナ",
    "street": null,
    "office_name": null,
    "office_name_kana": null
  },
  "2223": {
    "zip_code": "9012223",
    "prefecture": "沖縄県",
    "prefecture_kana": "オキナワケン",
    "prefecture_code": "47",
    "city": "宜野湾市",
    "city_kana": "ギノワンシ",
    "town": "大山",
    "town_kana": "オオヤマ",
    "street": null,
    "office_name": null,
    "office_name_kana": null
  },
  "2224": {
    "zip_code": "9012224",
    "prefecture": "沖縄県",
    "prefecture_kana": "オキナワケン",
    "prefecture_code": "47",
    "city": "宜野湾市",
    "city_kana": "ギノワンシ",
    "town": "真志喜",
    "town_kana": "マシキ",
    "street": null,
    "office_name": null,
    "office_name_kana": null
  },
  "2225": {
    "zip_code": "9012225",
    "prefecture": "沖縄県",
    "prefecture_kana": "オキナワケン",
    "prefecture_code": "47",
    "city": "宜野湾市",
    "city_kana": "ギノワンシ",
    "town": "大謝名",
    "town_kana": "オオジャナ",
    "street": null,
    "office_name": null,
    "office_name_kana": null
  },
  "2226": {
    "zip_code": "9012226",
    "prefecture": "沖縄県",
    "prefecture_kana": "オキナワケン",
    "prefecture_code": "47",
    "city": "宜野湾市",
    "city_kana": "ギノワンシ",
    "town": "嘉数",
    "town_kana": "カカズ",
    "street": null,
    "office_name": null,
    "office_name_kana": null
  },
  "2227": {
    "zip_code": "9012227",
    "prefecture": "沖縄県",
    "prefecture_kana": "オキナワケン",
    "prefecture_code": "47",
    "city": "宜野湾市",
    "city_kana": "ギノワンシ",
    "town": "宇地泊",
    "town_kana": "ウチドマリ",
    "street": null,
    "office_name": null,
    "office_name_kana": null
  },
  "2300": {
    "zip_code": "9012300",
    "prefecture": "沖縄県",
    "prefecture_kana": "オキナワケン",
    "prefecture_code": "47",
    "city": "中頭郡北中城村",
    "city_kana": "ナカガミグンキタナカグスクソン",
    "town": "",
    "town_kana": "",
    "street": null,
    "office_name": null,
    "office_name_kana": null
  },
  "2301": {
    "zip_code": "9012301",
    "prefecture": "沖縄県",
    "prefecture_kana": "オキナワケン",
    "prefecture_code": "47",
    "city": "中頭郡北中城村",
    "city_kana": "ナカガミグンキタナカグスクソン",
    "town": "島袋",
    "town_kana": "シマブク",
    "street": null,
    "office_name": null,
    "office_name_kana": null
  },
  "2302": {
    "zip_code": "9012302",
    "prefecture": "沖縄県",
    "prefecture_kana": "オキナワケン",
    "prefecture_code": "47",
    "city": "中頭郡北中城村",
    "city_kana": "ナカガミグンキタナカグスクソン",
    "town": "渡口",
    "town_kana": "トグチ",
    "street": null,
    "office_name": null,
    "office_name_kana": null
  },
  "2303": {
    "zip_code": "9012303",
    "prefecture": "沖縄県",
    "prefecture_kana": "オキナワケン",
    "prefecture_code": "47",
    "city": "中頭郡北中城村",
    "city_kana": "ナカガミグンキタナカグスクソン",
    "town": "仲順",
    "town_kana": "チュンジュン",
    "street": null,
    "office_name": null,
    "office_name_kana": null
  },
  "2304": {
    "zip_code": "9012304",
    "prefecture": "沖縄県",
    "prefecture_kana": "オキナワケン",
    "prefecture_code": "47",
    "city": "中頭郡北中城村",
    "city_kana": "ナカガミグンキタナカグスクソン",
    "town": "屋宜原",
    "town_kana": "ヤギバル",
    "street": null,
    "office_name": null,
    "office_name_kana": null
  },
  "2305": {
    "zip_code": "9012305",
    "prefecture": "沖縄県",
    "prefecture_kana": "オキナワケン",
    "prefecture_code": "47",
    "city": "中頭郡北中城村",
    "city_kana": "ナカガミグンキタナカグスクソン",
    "town": "比嘉",
    "town_kana": "ヒガ",
    "street": null,
    "office_name": null,
    "office_name_kana": null
  },
  "2311": {
    "zip_code": "9012311",
    "prefecture": "沖縄県",
    "prefecture_kana": "オキナワケン",
    "prefecture_code": "47",
    "city": "中頭郡北中城村",
    "city_kana": "ナカガミグンキタナカグスクソン",
    "town": "喜舎場",
    "town_kana": "キシャバ",
    "street": null,
    "office_name": null,
    "office_name_kana": null
  },
  "2312": {
    "zip_code": "9012312",
    "prefecture": "沖縄県",
    "prefecture_kana": "オキナワケン",
    "prefecture_code": "47",
    "city": "中頭郡北中城村",
    "city_kana": "ナカガミグンキタナカグスクソン",
    "town": "和仁屋",
    "town_kana": "ワニヤ",
    "street": null,
    "office_name": null,
    "office_name_kana": null
  },
  "2313": {
    "zip_code": "9012313",
    "prefecture": "沖縄県",
    "prefecture_kana": "オキナワケン",
    "prefecture_code": "47",
    "city": "中頭郡北中城村",
    "city_kana": "ナカガミグンキタナカグスクソン",
    "town": "熱田",
    "town_kana": "アツタ",
    "street": null,
    "office_name": null,
    "office_name_kana": null
  },
  "2314": {
    "zip_code": "9012314",
    "prefecture": "沖縄県",
    "prefecture_kana": "オキナワケン",
    "prefecture_code": "47",
    "city": "中頭郡北中城村",
    "city_kana": "ナカガミグンキタナカグスクソン",
    "town": "大城",
    "town_kana": "オオグスク",
    "street": null,
    "office_name": null,
    "office_name_kana": null
  },
  "2315": {
    "zip_code": "9012315",
    "prefecture": "沖縄県",
    "prefecture_kana": "オキナワケン",
    "prefecture_code": "47",
    "city": "中頭郡北中城村",
    "city_kana": "ナカガミグンキタナカグスクソン",
    "town": "荻道",
    "town_kana": "オギドウ",
    "street": null,
    "office_name": null,
    "office_name_kana": null
  },
  "2316": {
    "zip_code": "9012316",
    "prefecture": "沖縄県",
    "prefecture_kana": "オキナワケン",
    "prefecture_code": "47",
    "city": "中頭郡北中城村",
    "city_kana": "ナカガミグンキタナカグスクソン",
    "town": "安谷屋",
    "town_kana": "アダニヤ",
    "street": null,
    "office_name": null,
    "office_name_kana": null
  },
  "2317": {
    "zip_code": "9012317",
    "prefecture": "沖縄県",
    "prefecture_kana": "オキナワケン",
    "prefecture_code": "47",
    "city": "中頭郡北中城村",
    "city_kana": "ナカガミグンキタナカグスクソン",
    "town": "瑞慶覧",
    "town_kana": "ズケラン",
    "street": null,
    "office_name": null,
    "office_name_kana": null
  },
  "2321": {
    "zip_code": "9012321",
    "prefecture": "沖縄県",
    "prefecture_kana": "オキナワケン",
    "prefecture_code": "47",
    "city": "中頭郡北中城村",
    "city_kana": "ナカガミグンキタナカグスクソン",
    "town": "美崎",
    "town_kana": "ミサキ",
    "street": null,
    "office_name": null,
    "office_name_kana": null
  },
  "2392": {
    "zip_code": "9012392",
    "prefecture": "沖縄県",
    "prefecture_kana": null,
    "prefecture_code": null,
    "city": "中頭郡北中城村",
    "city_kana": null,
    "town": "字喜舎場",
    "town_kana": null,
    "street": "４２６−２",
    "office_name": "北中城村役場",
    "office_name_kana": "キタナカグスクソンヤクバ"
  },
  "2393": {
    "zip_code": "9012393",
    "prefecture": "沖縄県",
    "prefecture_kana": "オキナワケン",
    "prefecture_code": "47",
    "city": "中頭郡北中城村",
    "city_kana": "ナカガミグンキタナカグスクソン",
    "town": "",
    "town_kana": "",
    "street": "アワセ土地区画整理事業地内２街区１番",
    "office_name": "中部徳洲会病院",
    "office_name_kana": "チユウブトクシユウカイビヨウイン"
  },
  "2395": {
    "zip_code": "9012395",
    "prefecture": "沖縄県",
    "prefecture_kana": null,
    "prefecture_code": null,
    "city": "中頭郡北中城村",
    "city_kana": null,
    "town": "字大城",
    "town_kana": null,
    "street": "３１１",
    "office_name": "北中城若松病院",
    "office_name_kana": "キタナカグスクワカマツビヨウイン"
  },
  "2400": {
    "zip_code": "9012400",
    "prefecture": "沖縄県",
    "prefecture_kana": "オキナワケン",
    "prefecture_code": "47",
    "city": "中頭郡中城村",
    "city_kana": "ナカガミグンナカグスクソン",
    "town": "",
    "town_kana": "",
    "street": null,
    "office_name": null,
    "office_name_kana": null
  },
  "2401": {
    "zip_code": "9012401",
    "prefecture": "沖縄県",
    "prefecture_kana": "オキナワケン",
    "prefecture_code": "47",
    "city": "中頭郡中城村",
    "city_kana": "ナカガミグンナカグスクソン",
    "town": "久場",
    "town_kana": "クバ",
    "street": null,
    "office_name": null,
    "office_name_kana": null
  },
  "2402": {
    "zip_code": "9012402",
    "prefecture": "沖縄県",
    "prefecture_kana": "オキナワケン",
    "prefecture_code": "47",
    "city": "中頭郡中城村",
    "city_kana": "ナカガミグンナカグスクソン",
    "town": "泊",
    "town_kana": "トマリ",
    "street": null,
    "office_name": null,
    "office_name_kana": null
  },
  "2403": {
    "zip_code": "9012403",
    "prefecture": "沖縄県",
    "prefecture_kana": "オキナワケン",
    "prefecture_code": "47",
    "city": "中頭郡中城村",
    "city_kana": "ナカガミグンナカグスクソン",
    "town": "伊舎堂",
    "town_kana": "イシャドウ",
    "street": null,
    "office_name": null,
    "office_name_kana": null
  },
  "2404": {
    "zip_code": "9012404",
    "prefecture": "沖縄県",
    "prefecture_kana": "オキナワケン",
    "prefecture_code": "47",
    "city": "中頭郡中城村",
    "city_kana": "ナカガミグンナカグスクソン",
    "town": "添石",
    "town_kana": "ソエシ",
    "street": null,
    "office_name": null,
    "office_name_kana": null
  },
  "2405": {
    "zip_code": "9012405",
    "prefecture": "沖縄県",
    "prefecture_kana": "オキナワケン",
    "prefecture_code": "47",
    "city": "中頭郡中城村",
    "city_kana": "ナカガミグンナカグスクソン",
    "town": "屋宜",
    "town_kana": "ヤギ",
    "street": null,
    "office_name": null,
    "office_name_kana": null
  },
  "2406": {
    "zip_code": "9012406",
    "prefecture": "沖縄県",
    "prefecture_kana": "オキナワケン",
    "prefecture_code": "47",
    "city": "中頭郡中城村",
    "city_kana": "ナカガミグンナカグスクソン",
    "town": "当間",
    "town_kana": "トウマ",
    "street": null,
    "office_name": null,
    "office_name_kana": null
  },
  "2407": {
    "zip_code": "9012407",
    "prefecture": "沖縄県",
    "prefecture_kana": "オキナワケン",
    "prefecture_code": "47",
    "city": "中頭郡中城村",
    "city_kana": "ナカガミグンナカグスクソン",
    "town": "安里",
    "town_kana": "アサト",
    "street": null,
    "office_name": null,
    "office_name_kana": null
  },
  "2411": {
    "zip_code": "9012411",
    "prefecture": "沖縄県",
    "prefecture_kana": "オキナワケン",
    "prefecture_code": "47",
    "city": "中頭郡中城村",
    "city_kana": "ナカガミグンナカグスクソン",
    "town": "浜",
    "town_kana": "ハマ",
    "street": null,
    "office_name": null,
    "office_name_kana": null
  },
  "2412": {
    "zip_code": "9012412",
    "prefecture": "沖縄県",
    "prefecture_kana": "オキナワケン",
    "prefecture_code": "47",
    "city": "中頭郡中城村",
    "city_kana": "ナカガミグンナカグスクソン",
    "town": "奥間",
    "town_kana": "オクマ",
    "street": null,
    "office_name": null,
    "office_name_kana": null
  },
  "2413": {
    "zip_code": "9012413",
    "prefecture": "沖縄県",
    "prefecture_kana": "オキナワケン",
    "prefecture_code": "47",
    "city": "中頭郡中城村",
    "city_kana": "ナカガミグンナカグスクソン",
    "town": "津覇",
    "town_kana": "ツハ",
    "street": null,
    "office_name": null,
    "office_name_kana": null
  },
  "2414": {
    "zip_code": "9012414",
    "prefecture": "沖縄県",
    "prefecture_kana": "オキナワケン",
    "prefecture_code": "47",
    "city": "中頭郡中城村",
    "city_kana": "ナカガミグンナカグスクソン",
    "town": "北浜",
    "town_kana": "キタハマ",
    "street": null,
    "office_name": null,
    "office_name_kana": null
  },
  "2415": {
    "zip_code": "9012415",
    "prefecture": "沖縄県",
    "prefecture_kana": "オキナワケン",
    "prefecture_code": "47",
    "city": "中頭郡中城村",
    "city_kana": "ナカガミグンナカグスクソン",
    "town": "南浜",
    "town_kana": "ミナミハマ",
    "street": null,
    "office_name": null,
    "office_name_kana": null
  },
  "2416": {
    "zip_code": "9012416",
    "prefecture": "沖縄県",
    "prefecture_kana": "オキナワケン",
    "prefecture_code": "47",
    "city": "中頭郡中城村",
    "city_kana": "ナカガミグンナカグスクソン",
    "town": "和宇慶",
    "town_kana": "ワウケ",
    "street": null,
    "office_name": null,
    "office_name_kana": null
  },
  "2417": {
    "zip_code": "9012417",
    "prefecture": "沖縄県",
    "prefecture_kana": "オキナワケン",
    "prefecture_code": "47",
    "city": "中頭郡中城村",
    "city_kana": "ナカガミグンナカグスクソン",
    "town": "伊集",
    "town_kana": "イジュ",
    "street": null,
    "office_name": null,
    "office_name_kana": null
  },
  "2421": {
    "zip_code": "9012421",
    "prefecture": "沖縄県",
    "prefecture_kana": "オキナワケン",
    "prefecture_code": "47",
    "city": "中頭郡中城村",
    "city_kana": "ナカガミグンナカグスクソン",
    "town": "登又",
    "town_kana": "ノボリマタ",
    "street": null,
    "office_name": null,
    "office_name_kana": null
  },
  "2422": {
    "zip_code": "9012422",
    "prefecture": "沖縄県",
    "prefecture_kana": "オキナワケン",
    "prefecture_code": "47",
    "city": "中頭郡中城村",
    "city_kana": "ナカガミグンナカグスクソン",
    "town": "新垣",
    "town_kana": "アラカキ",
    "street": null,
    "office_name": null,
    "office_name_kana": null
  },
  "2423": {
    "zip_code": "9012423",
    "prefecture": "沖縄県",
    "prefecture_kana": "オキナワケン",
    "prefecture_code": "47",
    "city": "中頭郡中城村",
    "city_kana": "ナカガミグンナカグスクソン",
    "town": "北上原",
    "town_kana": "キタウエバル",
    "street": null,
    "office_name": null,
    "office_name_kana": null
  },
  "2424": {
    "zip_code": "9012424",
    "prefecture": "沖縄県",
    "prefecture_kana": "オキナワケン",
    "prefecture_code": "47",
    "city": "中頭郡中城村",
    "city_kana": "ナカガミグンナカグスクソン",
    "town": "南上原",
    "town_kana": "ミナミウエバル",
    "street": null,
    "office_name": null,
    "office_name_kana": null
  },
  "2492": {
    "zip_code": "9012492",
    "prefecture": "沖縄県",
    "prefecture_kana": null,
    "prefecture_code": null,
    "city": "中頭郡中城村",
    "city_kana": null,
    "town": "字伊集",
    "town_kana": null,
    "street": "２０８",
    "office_name": "ハートライフ病院",
    "office_name_kana": "ハ-トライフビヨウイン"
  },
  "2493": {
    "zip_code": "9012493",
    "prefecture": "沖縄県",
    "prefecture_kana": null,
    "prefecture_code": null,
    "city": "中頭郡中城村",
    "city_kana": null,
    "town": "字当間",
    "town_kana": null,
    "street": "１７６",
    "office_name": "中城村役場",
    "office_name_kana": "ナカグスソンヤクバ"
  },
  "2495": {
    "zip_code": "9012495",
    "prefecture": "沖縄県",
    "prefecture_kana": null,
    "prefecture_code": null,
    "city": "中頭郡中城村",
    "city_kana": null,
    "town": "字当間",
    "town_kana": null,
    "street": "７５８",
    "office_name": "沖縄ホーメル",
    "office_name_kana": "オキナワホ-メル"
  },
  "2496": {
    "zip_code": "9012496",
    "prefecture": "沖縄県",
    "prefecture_kana": null,
    "prefecture_code": null,
    "city": "中頭郡中城村",
    "city_kana": null,
    "town": "字南上原",
    "town_kana": null,
    "street": "７２６−１キャンパスサイド白石２Ｆ",
    "office_name": "株式会社　スピア",
    "office_name_kana": "カブシキガイシヤ スピア"
  },
  "2501": {
    "zip_code": "9012501",
    "prefecture": "沖縄県",
    "prefecture_kana": "オキナワケン",
    "prefecture_code": "47",
    "city": "浦添市",
    "city_kana": "ウラソエシ",
    "town": "安波茶",
    "town_kana": "アハチャ",
    "street": "１丁目１−１",
    "office_name": "浦添市役所",
    "office_name_kana": "ウラソエシヤクシヨ"
  },
  "2502": {
    "zip_code": "9012502",
    "prefecture": "沖縄県",
    "prefecture_kana": "オキナワケン",
    "prefecture_code": "47",
    "city": "浦添市",
    "city_kana": "ウラソエシ",
    "town": "牧港",
    "town_kana": "マキミナト",
    "street": "１丁目６５−１",
    "office_name": "沖縄明治乳業　株式会社",
    "office_name_kana": "オキナワメイジニユウギヨウ カブシキガイシヤ"
  },
  "2506": {
    "zip_code": "9012506",
    "prefecture": "沖縄県",
    "prefecture_kana": null,
    "prefecture_code": null,
    "city": "浦添市",
    "city_kana": null,
    "town": "字港川",
    "town_kana": null,
    "street": "５００−１０",
    "office_name": "沖縄県　自動車税事務所",
    "office_name_kana": "オキナワケン ジドウシヤゼイジムシヨ"
  },
  "2510": {
    "zip_code": "9012510",
    "prefecture": "沖縄県",
    "prefecture_kana": "オキナワケン",
    "prefecture_code": "47",
    "city": "浦添市",
    "city_kana": "ウラソエシ",
    "town": "伊奈武瀬",
    "town_kana": "イナンセ",
    "street": "１丁目１１−１",
    "office_name": "合資会社　富士物産",
    "office_name_kana": "ゴウシガイシヤ フジブツサン"
  },
  "2511": {
    "zip_code": "9012511",
    "prefecture": "沖縄県",
    "prefecture_kana": "オキナワケン",
    "prefecture_code": "47",
    "city": "浦添市",
    "city_kana": "ウラソエシ",
    "town": "仲間",
    "town_kana": "ナカマ",
    "street": "１丁目２−１１",
    "office_name": "株式会社　伊禮産業",
    "office_name_kana": "カブシキガイシヤ イレイサンギヨウ"
  },
  "2512": {
    "zip_code": "9012512",
    "prefecture": "沖縄県",
    "prefecture_kana": "オキナワケン",
    "prefecture_code": "47",
    "city": "浦添市",
    "city_kana": "ウラソエシ",
    "town": "西洲",
    "town_kana": "イリジマ",
    "street": "２丁目２−２",
    "office_name": "琉球セメント　株式会社",
    "office_name_kana": "リユウキユウセメント カブシキカイシヤ"
  },
  "2515": {
    "zip_code": "9012515",
    "prefecture": "沖縄県",
    "prefecture_kana": "オキナワケン",
    "prefecture_code": "47",
    "city": "浦添市",
    "city_kana": "ウラソエシ",
    "town": "勢理客",
    "town_kana": "ジッチャク",
    "street": "４丁目１−５",
    "office_name": "沖縄マツダ　（株）",
    "office_name_kana": "オキナワマツダ (カブ)"
  },
  "2520": {
    "zip_code": "9012520",
    "prefecture": "沖縄県",
    "prefecture_kana": "オキナワケン",
    "prefecture_code": "47",
    "city": "浦添市",
    "city_kana": "ウラソエシ",
    "town": "城間",
    "town_kana": "グスクマ",
    "street": "４丁目３５−１城間ビル",
    "office_name": "ＮＴＴ　沖縄支店",
    "office_name_kana": "エヌテイテイ オキナワシテン"
  },
  "2521": {
    "zip_code": "9012521",
    "prefecture": "沖縄県",
    "prefecture_kana": "オキナワケン",
    "prefecture_code": "47",
    "city": "浦添市",
    "city_kana": "ウラソエシ",
    "town": "城間",
    "town_kana": "グスクマ",
    "street": "４丁目３５−２アネックスビル",
    "office_name": "ＮＴＴ　沖縄支店",
    "office_name_kana": "エヌテイテイ オキナワシテン"
  },
  "2525": {
    "zip_code": "9012525",
    "prefecture": "沖縄県",
    "prefecture_kana": null,
    "prefecture_code": null,
    "city": "浦添市",
    "city_kana": null,
    "town": "字小湾",
    "town_kana": null,
    "street": "４０",
    "office_name": "ＦＭ沖縄",
    "office_name_kana": "エフエムオキナワ"
  },
  "2526": {
    "zip_code": "9012526",
    "prefecture": "沖縄県",
    "prefecture_kana": null,
    "prefecture_code": null,
    "city": "浦添市",
    "city_kana": null,
    "town": "字港川",
    "town_kana": null,
    "street": "５００−２",
    "office_name": "沖縄薬品　株式会社",
    "office_name_kana": "オキナワヤクヒン カブシキカイシヤ"
  },
  "2530": {
    "zip_code": "9012530",
    "prefecture": "沖縄県",
    "prefecture_kana": "オキナワケン",
    "prefecture_code": "47",
    "city": "浦添市",
    "city_kana": "ウラソエシ",
    "town": "西洲",
    "town_kana": "イリジマ",
    "street": "２丁目３−１",
    "office_name": "ジーマ　株式会社",
    "office_name_kana": "ジ-マ カブシキガイシヤ"
  },
  "2531": {
    "zip_code": "9012531",
    "prefecture": "沖縄県",
    "prefecture_kana": "オキナワケン",
    "prefecture_code": "47",
    "city": "浦添市",
    "city_kana": "ウラソエシ",
    "town": "西洲",
    "town_kana": "イリジマ",
    "street": "２丁目３−２",
    "office_name": "株式会社　ジーマックス",
    "office_name_kana": "カブシキカイシヤ ジ-マツクス"
  },
  "2540": {
    "zip_code": "9012540",
    "prefecture": "沖縄県",
    "prefecture_kana": "オキナワケン",
    "prefecture_code": "47",
    "city": "浦添市",
    "city_kana": "ウラソエシ",
    "town": "牧港",
    "town_kana": "マキミナト",
    "street": "１丁目１１−２４",
    "office_name": "株式会社　ヤナセ沖縄",
    "office_name_kana": "カブシキカイシヤ ヤナセオキナワ"
  },
  "2550": {
    "zip_code": "9012550",
    "prefecture": "沖縄県",
    "prefecture_kana": "オキナワケン",
    "prefecture_code": "47",
    "city": "浦添市",
    "city_kana": "ウラソエシ",
    "town": "宮城",
    "town_kana": "ミヤギ",
    "street": "５丁目６−１２",
    "office_name": "北那覇税務署",
    "office_name_kana": "キタナハゼイムシヨ"
  },
  "2551": {
    "zip_code": "9012551",
    "prefecture": "沖縄県",
    "prefecture_kana": null,
    "prefecture_code": null,
    "city": "浦添市",
    "city_kana": null,
    "town": "字城間",
    "town_kana": null,
    "street": "１９８５−１",
    "office_name": "オリオンビール　（株）",
    "office_name_kana": "オリオンビ-ル (カブ)"
  },
  "2552": {
    "zip_code": "9012552",
    "prefecture": "沖縄県",
    "prefecture_kana": null,
    "prefecture_code": null,
    "city": "浦添市",
    "city_kana": null,
    "town": "字前田",
    "town_kana": null,
    "street": "１１４３−１",
    "office_name": "沖縄国際センター",
    "office_name_kana": "オキナワコクサイセンタ-"
  },
  "2553": {
    "zip_code": "9012553",
    "prefecture": "沖縄県",
    "prefecture_kana": null,
    "prefecture_code": null,
    "city": "浦添市",
    "city_kana": null,
    "town": "字経塚",
    "town_kana": null,
    "street": "３４６",
    "office_name": "平安病院",
    "office_name_kana": "ヒラヤスビヨウイン"
  },
  "2555": {
    "zip_code": "9012555",
    "prefecture": "沖縄県",
    "prefecture_kana": "オキナワケン",
    "prefecture_code": "47",
    "city": "浦添市",
    "city_kana": "ウラソエシ",
    "town": "伊祖",
    "town_kana": "イソ",
    "street": "５丁目１４−１",
    "office_name": "沖縄コカ・コーラボトリング　株式会社",
    "office_name_kana": "オキナワコカ・コ-ラボトリング カブシキガイシヤ"
  },
  "2556": {
    "zip_code": "9012556",
    "prefecture": "沖縄県",
    "prefecture_kana": "オキナワケン",
    "prefecture_code": "47",
    "city": "浦添市",
    "city_kana": "ウラソエシ",
    "town": "牧港",
    "town_kana": "マキミナト",
    "street": "４丁目１４−１７",
    "office_name": "福山商事　（株）",
    "office_name_kana": "フクヤマシヨウジ (カブ)"
  },
  "2557": {
    "zip_code": "9012557",
    "prefecture": "沖縄県",
    "prefecture_kana": "オキナワケン",
    "prefecture_code": "47",
    "city": "浦添市",
    "city_kana": "ウラソエシ",
    "town": "牧港",
    "town_kana": "マキミナト",
    "street": "５丁目４−３",
    "office_name": "松下電工　株式会社　沖縄営業所",
    "office_name_kana": "マツシタデンコウ カブシキガイシヤ オキナワエイギヨウシヨ"
  },
  "2558": {
    "zip_code": "9012558",
    "prefecture": "沖縄県",
    "prefecture_kana": "オキナワケン",
    "prefecture_code": "47",
    "city": "浦添市",
    "city_kana": "ウラソエシ",
    "town": "勢理客",
    "town_kana": "ジッチャク",
    "street": "４丁目４−１",
    "office_name": "沖縄食料　株式会社",
    "office_name_kana": "オキナワシヨクリヨウ カブシキガイシヤ"
  },
  "2559": {
    "zip_code": "9012559",
    "prefecture": "沖縄県",
    "prefecture_kana": null,
    "prefecture_code": null,
    "city": "浦添市",
    "city_kana": null,
    "town": "字城間",
    "town_kana": null,
    "street": "２６８９",
    "office_name": "メイクマン　（株）",
    "office_name_kana": "メイクマン (カブ)"
  },
  "2560": {
    "zip_code": "9012560",
    "prefecture": "沖縄県",
    "prefecture_kana": "オキナワケン",
    "prefecture_code": "47",
    "city": "浦添市",
    "city_kana": "ウラソエシ",
    "town": "牧港",
    "town_kana": "マキミナト",
    "street": "５丁目２−１",
    "office_name": "ファーストライディングテクノロジー　株式会社",
    "office_name_kana": "フア-ストライデイングテクノロジ- カブシキガイシヤ"
  },
  "2566": {
    "zip_code": "9012566",
    "prefecture": "沖縄県",
    "prefecture_kana": "オキナワケン",
    "prefecture_code": "47",
    "city": "浦添市",
    "city_kana": "ウラソエシ",
    "town": "牧港",
    "town_kana": "マキミナト",
    "street": "５丁目７−１",
    "office_name": "島袋　（株）",
    "office_name_kana": "シマブクロ (カブ)"
  },
  "2567": {
    "zip_code": "9012567",
    "prefecture": "沖縄県",
    "prefecture_kana": "オキナワケン",
    "prefecture_code": "47",
    "city": "浦添市",
    "city_kana": "ウラソエシ",
    "town": "牧港",
    "town_kana": "マキミナト",
    "street": "３丁目４０−６",
    "office_name": "浦添市商工会議所",
    "office_name_kana": "ウラソエシシヨウコウカイギシヨ"
  },
  "2569": {
    "zip_code": "9012569",
    "prefecture": "沖縄県",
    "prefecture_kana": "オキナワケン",
    "prefecture_code": "47",
    "city": "浦添市",
    "city_kana": "ウラソエシ",
    "town": "伊奈武瀬",
    "town_kana": "イナンセ",
    "street": "１丁目１０−１",
    "office_name": "沖縄県　花卉園芸農業協同組合",
    "office_name_kana": "オキナワケン カキエンゲイノウギヨウキヨウドウクミアイ"
  },
  "2588": {
    "zip_code": "9012588",
    "prefecture": "沖縄県",
    "prefecture_kana": null,
    "prefecture_code": null,
    "city": "浦添市",
    "city_kana": null,
    "town": "字西原",
    "town_kana": null,
    "street": "４８０",
    "office_name": "生活協同組合　コープおきなわ",
    "office_name_kana": "セイカツキヨウドウクミアイ コ-プオキナワ"
  },
  "2597": {
    "zip_code": "9012597",
    "prefecture": "沖縄県",
    "prefecture_kana": "オキナワケン",
    "prefecture_code": "47",
    "city": "浦添市",
    "city_kana": "ウラソエシ",
    "town": "伊奈武瀬",
    "town_kana": "イナンセ",
    "street": "１丁目１０−８",
    "office_name": "ＪＡ沖縄経済連",
    "office_name_kana": "ジエイエイオキナワケイザイレン"
  },
  "2601": {
    "zip_code": "9012601",
    "prefecture": "沖縄県",
    "prefecture_kana": "オキナワケン",
    "prefecture_code": "47",
    "city": "浦添市",
    "city_kana": "ウラソエシ",
    "town": "城間",
    "town_kana": "グスクマ",
    "street": "４丁目２３−１１（浦添郵便局私書箱第１２５号）",
    "office_name": "沖縄松下ライフエレクトロニクス　株式会社",
    "office_name_kana": "オキナワマツシタライフエレクトロニクス カブシキガイシヤ"
  },
  "2602": {
    "zip_code": "9012602",
    "prefecture": "沖縄県",
    "prefecture_kana": "オキナワケン",
    "prefecture_code": "47",
    "city": "浦添市",
    "city_kana": "ウラソエシ",
    "town": "牧港",
    "town_kana": "マキミナト",
    "street": "５丁目２−１（浦添郵便局私書箱第３６号）",
    "office_name": "沖縄電力　株式会社　本店",
    "office_name_kana": "オキナワデンリヨク カブシキガイシヤ ホンテン"
  },
  "2607": {
    "zip_code": "9012607",
    "prefecture": "沖縄県",
    "prefecture_kana": "オキナワケン",
    "prefecture_code": "47",
    "city": "浦添市",
    "city_kana": "ウラソエシ",
    "town": "伊祖",
    "town_kana": "イソ",
    "street": "４丁目２１−２（浦添郵便局私書箱第２７号）",
    "office_name": "パイオニア電設　株式会社",
    "office_name_kana": "パイオニアデンセツ カブシキガイシヤ"
  },
  "2610": {
    "zip_code": "9012610",
    "prefecture": "沖縄県",
    "prefecture_kana": "オキナワケン",
    "prefecture_code": "47",
    "city": "浦添市",
    "city_kana": "ウラソエシ",
    "town": "牧港",
    "town_kana": "マキミナト",
    "street": "５丁目５−６（浦添郵便局私書箱第１７号）",
    "office_name": "フォーモストブルーシール　株式会社",
    "office_name_kana": "フオ-モストブル-シ-ル カブシキガイシヤ"
  },
  "2611": {
    "zip_code": "9012611",
    "prefecture": "沖縄県",
    "prefecture_kana": "オキナワケン",
    "prefecture_code": "47",
    "city": "浦添市",
    "city_kana": "ウラソエシ",
    "town": "牧港",
    "town_kana": "マキミナト",
    "street": "４丁目１１番３号",
    "office_name": "沖縄電力　（株）　お客さま本部　浦添支店",
    "office_name_kana": "オキナワデンリヨク (カブ) オキヤクサマホンブ ウラソエシテン"
  },
  "2686": {
    "zip_code": "9012686",
    "prefecture": "沖縄県",
    "prefecture_kana": "オキナワケン",
    "prefecture_code": "47",
    "city": "浦添市",
    "city_kana": "ウラソエシ",
    "town": "牧港",
    "town_kana": "マキミナト",
    "street": "５−６−５",
    "office_name": "株式会社　琉薬",
    "office_name_kana": "カブシキガイシヤ リユウヤク"
  },
  "2701": {
    "zip_code": "9012701",
    "prefecture": "沖縄県",
    "prefecture_kana": "オキナワケン",
    "prefecture_code": "47",
    "city": "宜野湾市",
    "city_kana": "ギノワンシ",
    "town": "宜野湾",
    "town_kana": "ギノワン",
    "street": "２丁目６−１",
    "office_name": "沖縄国際大学",
    "office_name_kana": "オキナワコクサイダイガク"
  },
  "2710": {
    "zip_code": "9012710",
    "prefecture": "沖縄県",
    "prefecture_kana": "オキナワケン",
    "prefecture_code": "47",
    "city": "宜野湾市",
    "city_kana": "ギノワンシ",
    "town": "野嵩",
    "town_kana": "ノダケ",
    "street": "１丁目１−１",
    "office_name": "宜野湾市役所",
    "office_name_kana": "ギノワンシヤクシヨ"
  },
  "2733": {
    "zip_code": "9012733",
    "prefecture": "沖縄県",
    "prefecture_kana": "オキナワケン",
    "prefecture_code": "47",
    "city": "宜野湾市",
    "city_kana": "ギノワンシ",
    "town": "大山",
    "town_kana": "オオヤマ",
    "street": "７丁目２−１０",
    "office_name": "株式会社　サンエー",
    "office_name_kana": "カブシキガイシヤ サンエ-"
  },
  "3100": {
    "zip_code": "9013100",
    "prefecture": "沖縄県",
    "prefecture_kana": "オキナワケン",
    "prefecture_code": "47",
    "city": "島尻郡久米島町",
    "city_kana": "シマジリグンクメジマチョウ",
    "town": "",
    "town_kana": "",
    "street": null,
    "office_name": null,
    "office_name_kana": null
  },
  "3101": {
    "zip_code": "9013101",
    "prefecture": "沖縄県",
    "prefecture_kana": "オキナワケン",
    "prefecture_code": "47",
    "city": "島尻郡久米島町",
    "city_kana": "シマジリグンクメジマチョウ",
    "town": "宇江城",
    "town_kana": "ウエグスク",
    "street": null,
    "office_name": null,
    "office_name_kana": null
  },
  "3102": {
    "zip_code": "9013102",
    "prefecture": "沖縄県",
    "prefecture_kana": "オキナワケン",
    "prefecture_code": "47",
    "city": "島尻郡久米島町",
    "city_kana": "シマジリグンクメジマチョウ",
    "town": "比屋定",
    "town_kana": "ヒヤジョウ",
    "street": null,
    "office_name": null,
    "office_name_kana": null
  },
  "3103": {
    "zip_code": "9013103",
    "prefecture": "沖縄県",
    "prefecture_kana": "オキナワケン",
    "prefecture_code": "47",
    "city": "島尻郡久米島町",
    "city_kana": "シマジリグンクメジマチョウ",
    "town": "阿嘉",
    "town_kana": "アカ",
    "street": null,
    "office_name": null,
    "office_name_kana": null
  },
  "3104": {
    "zip_code": "9013104",
    "prefecture": "沖縄県",
    "prefecture_kana": "オキナワケン",
    "prefecture_code": "47",
    "city": "島尻郡久米島町",
    "city_kana": "シマジリグンクメジマチョウ",
    "town": "真謝",
    "town_kana": "マジャ",
    "street": null,
    "office_name": null,
    "office_name_kana": null
  },
  "3105": {
    "zip_code": "9013105",
    "prefecture": "沖縄県",
    "prefecture_kana": "オキナワケン",
    "prefecture_code": "47",
    "city": "島尻郡久米島町",
    "city_kana": "シマジリグンクメジマチョウ",
    "town": "宇根",
    "town_kana": "ウネ",
    "street": null,
    "office_name": null,
    "office_name_kana": null
  },
  "3106": {
    "zip_code": "9013106",
    "prefecture": "沖縄県",
    "prefecture_kana": "オキナワケン",
    "prefecture_code": "47",
    "city": "島尻郡久米島町",
    "city_kana": "シマジリグンクメジマチョウ",
    "town": "奥武",
    "town_kana": "オウ",
    "street": null,
    "office_name": null,
    "office_name_kana": null
  },
  "3107": {
    "zip_code": "9013107",
    "prefecture": "沖縄県",
    "prefecture_kana": "オキナワケン",
    "prefecture_code": "47",
    "city": "島尻郡久米島町",
    "city_kana": "シマジリグンクメジマチョウ",
    "town": "謝名堂",
    "town_kana": "ジャナドウ",
    "street": null,
    "office_name": null,
    "office_name_kana": null
  },
  "3108": {
    "zip_code": "9013108",
    "prefecture": "沖縄県",
    "prefecture_kana": "オキナワケン",
    "prefecture_code": "47",
    "city": "島尻郡久米島町",
    "city_kana": "シマジリグンクメジマチョウ",
    "town": "比嘉",
    "town_kana": "ヒガ",
    "street": null,
    "office_name": null,
    "office_name_kana": null
  },
  "3111": {
    "zip_code": "9013111",
    "prefecture": "沖縄県",
    "prefecture_kana": "オキナワケン",
    "prefecture_code": "47",
    "city": "島尻郡久米島町",
    "city_kana": "シマジリグンクメジマチョウ",
    "town": "山城",
    "town_kana": "ヤマグスク",
    "street": null,
    "office_name": null,
    "office_name_kana": null
  },
  "3112": {
    "zip_code": "9013112",
    "prefecture": "沖縄県",
    "prefecture_kana": "オキナワケン",
    "prefecture_code": "47",
    "city": "島尻郡久米島町",
    "city_kana": "シマジリグンクメジマチョウ",
    "town": "真我里",
    "town_kana": "マガリ",
    "street": null,
    "office_name": null,
    "office_name_kana": null
  },
  "3113": {
    "zip_code": "9013113",
    "prefecture": "沖縄県",
    "prefecture_kana": "オキナワケン",
    "prefecture_code": "47",
    "city": "島尻郡久米島町",
    "city_kana": "シマジリグンクメジマチョウ",
    "town": "銭田",
    "town_kana": "ゼンダ",
    "street": null,
    "office_name": null,
    "office_name_kana": null
  },
  "3114": {
    "zip_code": "9013114",
    "prefecture": "沖縄県",
    "prefecture_kana": "オキナワケン",
    "prefecture_code": "47",
    "city": "島尻郡久米島町",
    "city_kana": "シマジリグンクメジマチョウ",
    "town": "島尻",
    "town_kana": "シマジリ",
    "street": null,
    "office_name": null,
    "office_name_kana": null
  },
  "3115": {
    "zip_code": "9013115",
    "prefecture": "沖縄県",
    "prefecture_kana": "オキナワケン",
    "prefecture_code": "47",
    "city": "島尻郡久米島町",
    "city_kana": "シマジリグンクメジマチョウ",
    "town": "儀間",
    "town_kana": "ギマ",
    "street": null,
    "office_name": null,
    "office_name_kana": null
  },
  "3121": {
    "zip_code": "9013121",
    "prefecture": "沖縄県",
    "prefecture_kana": "オキナワケン",
    "prefecture_code": "47",
    "city": "島尻郡久米島町",
    "city_kana": "シマジリグンクメジマチョウ",
    "town": "嘉手苅",
    "town_kana": "カデカル",
    "street": null,
    "office_name": null,
    "office_name_kana": null
  },
  "3122": {
    "zip_code": "9013122",
    "prefecture": "沖縄県",
    "prefecture_kana": "オキナワケン",
    "prefecture_code": "47",
    "city": "島尻郡久米島町",
    "city_kana": "シマジリグンクメジマチョウ",
    "town": "兼城",
    "town_kana": "カネグスク",
    "street": null,
    "office_name": null,
    "office_name_kana": null
  },
  "3123": {
    "zip_code": "9013123",
    "prefecture": "沖縄県",
    "prefecture_kana": "オキナワケン",
    "prefecture_code": "47",
    "city": "島尻郡久米島町",
    "city_kana": "シマジリグンクメジマチョウ",
    "town": "大田",
    "town_kana": "オオタ",
    "street": null,
    "office_name": null,
    "office_name_kana": null
  },
  "3124": {
    "zip_code": "9013124",
    "prefecture": "沖縄県",
    "prefecture_kana": "オキナワケン",
    "prefecture_code": "47",
    "city": "島尻郡久米島町",
    "city_kana": "シマジリグンクメジマチョウ",
    "town": "仲泊",
    "town_kana": "ナカドマリ",
    "street": null,
    "office_name": null,
    "office_name_kana": null
  },
  "3125": {
    "zip_code": "9013125",
    "prefecture": "沖縄県",
    "prefecture_kana": "オキナワケン",
    "prefecture_code": "47",
    "city": "島尻郡久米島町",
    "city_kana": "シマジリグンクメジマチョウ",
    "town": "鳥島",
    "town_kana": "トリシマ",
    "street": null,
    "office_name": null,
    "office_name_kana": null
  },
  "3131": {
    "zip_code": "9013131",
    "prefecture": "沖縄県",
    "prefecture_kana": "オキナワケン",
    "prefecture_code": "47",
    "city": "島尻郡久米島町",
    "city_kana": "シマジリグンクメジマチョウ",
    "town": "西銘",
    "town_kana": "ニシメ",
    "street": null,
    "office_name": null,
    "office_name_kana": null
  },
  "3132": {
    "zip_code": "9013132",
    "prefecture": "沖縄県",
    "prefecture_kana": "オキナワケン",
    "prefecture_code": "47",
    "city": "島尻郡久米島町",
    "city_kana": "シマジリグンクメジマチョウ",
    "town": "大原",
    "town_kana": "オオハラ",
    "street": null,
    "office_name": null,
    "office_name_kana": null
  },
  "3133": {
    "zip_code": "9013133",
    "prefecture": "沖縄県",
    "prefecture_kana": "オキナワケン",
    "prefecture_code": "47",
    "city": "島尻郡久米島町",
    "city_kana": "シマジリグンクメジマチョウ",
    "town": "北原",
    "town_kana": "キタハラ",
    "street": null,
    "office_name": null,
    "office_name_kana": null
  },
  "3134": {
    "zip_code": "9013134",
    "prefecture": "沖縄県",
    "prefecture_kana": "オキナワケン",
    "prefecture_code": "47",
    "city": "島尻郡久米島町",
    "city_kana": "シマジリグンクメジマチョウ",
    "town": "具志川",
    "town_kana": "グシカワ",
    "street": null,
    "office_name": null,
    "office_name_kana": null
  },
  "3135": {
    "zip_code": "9013135",
    "prefecture": "沖縄県",
    "prefecture_kana": "オキナワケン",
    "prefecture_code": "47",
    "city": "島尻郡久米島町",
    "city_kana": "シマジリグンクメジマチョウ",
    "town": "仲村渠",
    "town_kana": "ナカンダカリ",
    "street": null,
    "office_name": null,
    "office_name_kana": null
  },
  "3136": {
    "zip_code": "9013136",
    "prefecture": "沖縄県",
    "prefecture_kana": "オキナワケン",
    "prefecture_code": "47",
    "city": "島尻郡久米島町",
    "city_kana": "シマジリグンクメジマチョウ",
    "town": "仲地",
    "town_kana": "ナカチ",
    "street": null,
    "office_name": null,
    "office_name_kana": null
  },
  "3137": {
    "zip_code": "9013137",
    "prefecture": "沖縄県",
    "prefecture_kana": "オキナワケン",
    "prefecture_code": "47",
    "city": "島尻郡久米島町",
    "city_kana": "シマジリグンクメジマチョウ",
    "town": "山里",
    "town_kana": "ヤマザト",
    "street": null,
    "office_name": null,
    "office_name_kana": null
  },
  "3138": {
    "zip_code": "9013138",
    "prefecture": "沖縄県",
    "prefecture_kana": "オキナワケン",
    "prefecture_code": "47",
    "city": "島尻郡久米島町",
    "city_kana": "シマジリグンクメジマチョウ",
    "town": "上江洲",
    "town_kana": "ウエズ",
    "street": null,
    "office_name": null,
    "office_name_kana": null
  },
  "3192": {
    "zip_code": "9013192",
    "prefecture": "沖縄県",
    "prefecture_kana": null,
    "prefecture_code": null,
    "city": "島尻郡久米島町",
    "city_kana": null,
    "town": "字仲泊",
    "town_kana": null,
    "street": "６９９",
    "office_name": "久米島町役場　具志川庁舎",
    "office_name_kana": "クメジマチヨウヤクバ グシカワチヨウシヤ"
  },
  "3193": {
    "zip_code": "9013193",
    "prefecture": "沖縄県",
    "prefecture_kana": null,
    "prefecture_code": null,
    "city": "島尻郡久米島町",
    "city_kana": null,
    "town": "字比嘉",
    "town_kana": null,
    "street": "２８７０",
    "office_name": "久米島町役場　仲里庁舎",
    "office_name_kana": "クメジマチヨウヤクバ ナカザトチヨウシヤ"
  },
  "3311": {
    "zip_code": "9013311",
    "prefecture": "沖縄県",
    "prefecture_kana": "オキナワケン",
    "prefecture_code": "47",
    "city": "島尻郡座間味村",
    "city_kana": "シマジリグンザマミソン",
    "town": "阿嘉",
    "town_kana": "アカ",
    "street": null,
    "office_name": null,
    "office_name_kana": null
  },
  "3312": {
    "zip_code": "9013312",
    "prefecture": "沖縄県",
    "prefecture_kana": "オキナワケン",
    "prefecture_code": "47",
    "city": "島尻郡座間味村",
    "city_kana": "シマジリグンザマミソン",
    "town": "慶留間",
    "town_kana": "ゲルマ",
    "street": null,
    "office_name": null,
    "office_name_kana": null
  },
  "3400": {
    "zip_code": "9013400",
    "prefecture": "沖縄県",
    "prefecture_kana": "オキナワケン",
    "prefecture_code": "47",
    "city": "島尻郡座間味村",
    "city_kana": "シマジリグンザマミソン",
    "town": "",
    "town_kana": "",
    "street": null,
    "office_name": null,
    "office_name_kana": null
  },
  "3401": {
    "zip_code": "9013401",
    "prefecture": "沖縄県",
    "prefecture_kana": "オキナワケン",
    "prefecture_code": "47",
    "city": "島尻郡座間味村",
    "city_kana": "シマジリグンザマミソン",
    "town": "阿佐",
    "town_kana": "アサ",
    "street": null,
    "office_name": null,
    "office_name_kana": null
  },
  "3402": {
    "zip_code": "9013402",
    "prefecture": "沖縄県",
    "prefecture_kana": "オキナワケン",
    "prefecture_code": "47",
    "city": "島尻郡座間味村",
    "city_kana": "シマジリグンザマミソン",
    "town": "座間味",
    "town_kana": "ザマミ",
    "street": null,
    "office_name": null,
    "office_name_kana": null
  },
  "3403": {
    "zip_code": "9013403",
    "prefecture": "沖縄県",
    "prefecture_kana": "オキナワケン",
    "prefecture_code": "47",
    "city": "島尻郡座間味村",
    "city_kana": "シマジリグンザマミソン",
    "town": "阿真",
    "town_kana": "アマ",
    "street": null,
    "office_name": null,
    "office_name_kana": null
  },
  "3496": {
    "zip_code": "9013496",
    "prefecture": "沖縄県",
    "prefecture_kana": null,
    "prefecture_code": null,
    "city": "島尻郡座間味村",
    "city_kana": null,
    "town": "字座間味",
    "town_kana": null,
    "street": "１０９",
    "office_name": "座間味村役場",
    "office_name_kana": "ザマミソンヤクバ"
  },
  "3500": {
    "zip_code": "9013500",
    "prefecture": "沖縄県",
    "prefecture_kana": "オキナワケン",
    "prefecture_code": "47",
    "city": "島尻郡渡嘉敷村",
    "city_kana": "シマジリグントカシキソン",
    "town": "",
    "town_kana": "",
    "street": null,
    "office_name": null,
    "office_name_kana": null
  },
  "3501": {
    "zip_code": "9013501",
    "prefecture": "沖縄県",
    "prefecture_kana": "オキナワケン",
    "prefecture_code": "47",
    "city": "島尻郡渡嘉敷村",
    "city_kana": "シマジリグントカシキソン",
    "town": "渡嘉敷",
    "town_kana": "トカシキ",
    "street": null,
    "office_name": null,
    "office_name_kana": null
  },
  "3502": {
    "zip_code": "9013502",
    "prefecture": "沖縄県",
    "prefecture_kana": "オキナワケン",
    "prefecture_code": "47",
    "city": "島尻郡渡嘉敷村",
    "city_kana": "シマジリグントカシキソン",
    "town": "阿波連",
    "town_kana": "アハレン",
    "street": null,
    "office_name": null,
    "office_name_kana": null
  },
  "3592": {
    "zip_code": "9013592",
    "prefecture": "沖縄県",
    "prefecture_kana": null,
    "prefecture_code": null,
    "city": "島尻郡渡嘉敷村",
    "city_kana": null,
    "town": "字渡嘉敷",
    "town_kana": null,
    "street": "１８３",
    "office_name": "渡嘉敷村役場",
    "office_name_kana": "トカシキソンヤクバ"
  },
  "3595": {
    "zip_code": "9013595",
    "prefecture": "沖縄県",
    "prefecture_kana": null,
    "prefecture_code": null,
    "city": "島尻郡渡嘉敷村",
    "city_kana": null,
    "town": "字渡嘉敷",
    "town_kana": null,
    "street": "２７６０",
    "office_name": "国立　沖縄青少年交流の家",
    "office_name_kana": "コクリツ オキナワセイシヨウネンコウリユウノイエ"
  },
  "3601": {
    "zip_code": "9013601",
    "prefecture": "沖縄県",
    "prefecture_kana": "オキナワケン",
    "prefecture_code": "47",
    "city": "島尻郡渡名喜村",
    "city_kana": "シマジリグントナキソン",
    "town": "",
    "town_kana": "",
    "street": null,
    "office_name": null,
    "office_name_kana": null
  },
  "3692": {
    "zip_code": "9013692",
    "prefecture": "沖縄県",
    "prefecture_kana": "オキナワケン",
    "prefecture_code": "47",
    "city": "島尻郡渡名喜村",
    "city_kana": "シマジリグントナキソン",
    "town": "",
    "town_kana": "",
    "street": "１９１７−３",
    "office_name": "渡名喜村役場",
    "office_name_kana": "トナキソンヤクバ"
  },
  "3700": {
    "zip_code": "9013700",
    "prefecture": "沖縄県",
    "prefecture_kana": "オキナワケン",
    "prefecture_code": "47",
    "city": "島尻郡粟国村",
    "city_kana": "シマジリグンアグニソン",
    "town": "",
    "town_kana": "",
    "street": null,
    "office_name": null,
    "office_name_kana": null
  },
  "3701": {
    "zip_code": "9013701",
    "prefecture": "沖縄県",
    "prefecture_kana": "オキナワケン",
    "prefecture_code": "47",
    "city": "島尻郡粟国村",
    "city_kana": "シマジリグンアグニソン",
    "town": "浜",
    "town_kana": "ハマ",
    "street": null,
    "office_name": null,
    "office_name_kana": null
  },
  "3702": {
    "zip_code": "9013702",
    "prefecture": "沖縄県",
    "prefecture_kana": "オキナワケン",
    "prefecture_code": "47",
    "city": "島尻郡粟国村",
    "city_kana": "シマジリグンアグニソン",
    "town": "東",
    "town_kana": "ヒガシ",
    "street": null,
    "office_name": null,
    "office_name_kana": null
  },
  "3703": {
    "zip_code": "9013703",
    "prefecture": "沖縄県",
    "prefecture_kana": "オキナワケン",
    "prefecture_code": "47",
    "city": "島尻郡粟国村",
    "city_kana": "シマジリグンアグニソン",
    "town": "西",
    "town_kana": "ニシ",
    "street": null,
    "office_name": null,
    "office_name_kana": null
  },
  "3792": {
    "zip_code": "9013792",
    "prefecture": "沖縄県",
    "prefecture_kana": null,
    "prefecture_code": null,
    "city": "島尻郡粟国村",
    "city_kana": null,
    "town": "字東",
    "town_kana": null,
    "street": "３６７",
    "office_name": "粟国村役場",
    "office_name_kana": "アグニソンヤクバ"
  },
  "3800": {
    "zip_code": "9013800",
    "prefecture": "沖縄県",
    "prefecture_kana": "オキナワケン",
    "prefecture_code": "47",
    "city": "島尻郡南大東村",
    "city_kana": "シマジリグンミナミダイトウソン",
    "town": "",
    "town_kana": "",
    "street": null,
    "office_name": null,
    "office_name_kana": null
  },
  "3801": {
    "zip_code": "9013801",
    "prefecture": "沖縄県",
    "prefecture_kana": "オキナワケン",
    "prefecture_code": "47",
    "city": "島尻郡南大東村",
    "city_kana": "シマジリグンミナミダイトウソン",
    "town": "北",
    "town_kana": "キタ",
    "street": null,
    "office_name": null,
    "office_name_kana": null
  },
  "3802": {
    "zip_code": "9013802",
    "prefecture": "沖縄県",
    "prefecture_kana": "オキナワケン",
    "prefecture_code": "47",
    "city": "島尻郡南大東村",
    "city_kana": "シマジリグンミナミダイトウソン",
    "town": "新東",
    "town_kana": "シントウ",
    "street": null,
    "office_name": null,
    "office_name_kana": null
  },
  "3803": {
    "zip_code": "9013803",
    "prefecture": "沖縄県",
    "prefecture_kana": "オキナワケン",
    "prefecture_code": "47",
    "city": "島尻郡南大東村",
    "city_kana": "シマジリグンミナミダイトウソン",
    "town": "旧東",
    "town_kana": "キュウトウ",
    "street": null,
    "office_name": null,
    "office_name_kana": null
  },
  "3804": {
    "zip_code": "9013804",
    "prefecture": "沖縄県",
    "prefecture_kana": "オキナワケン",
    "prefecture_code": "47",
    "city": "島尻郡南大東村",
    "city_kana": "シマジリグンミナミダイトウソン",
    "town": "南",
    "town_kana": "ミナミ",
    "street": null,
    "office_name": null,
    "office_name_kana": null
  },
  "3805": {
    "zip_code": "9013805",
    "prefecture": "沖縄県",
    "prefecture_kana": "オキナワケン",
    "prefecture_code": "47",
    "city": "島尻郡南大東村",
    "city_kana": "シマジリグンミナミダイトウソン",
    "town": "在所",
    "town_kana": "ザイショ",
    "street": null,
    "office_name": null,
    "office_name_kana": null
  },
  "3806": {
    "zip_code": "9013806",
    "prefecture": "沖縄県",
    "prefecture_kana": "オキナワケン",
    "prefecture_code": "47",
    "city": "島尻郡南大東村",
    "city_kana": "シマジリグンミナミダイトウソン",
    "town": "池之沢",
    "town_kana": "イケノサワ",
    "street": null,
    "office_name": null,
    "office_name_kana": null
  },
  "3895": {
    "zip_code": "9013895",
    "prefecture": "沖縄県",
    "prefecture_kana": null,
    "prefecture_code": null,
    "city": "島尻郡南大東村",
    "city_kana": null,
    "town": "字在所",
    "town_kana": null,
    "street": "１４４−１",
    "office_name": "南大東村役場",
    "office_name_kana": "ミナミダイトウソンヤクバ"
  },
  "3900": {
    "zip_code": "9013900",
    "prefecture": "沖縄県",
    "prefecture_kana": "オキナワケン",
    "prefecture_code": "47",
    "city": "島尻郡北大東村",
    "city_kana": "シマジリグンキタダイトウソン",
    "town": "",
    "town_kana": "",
    "street": null,
    "office_name": null,
    "office_name_kana": null
  },
  "3901": {
    "zip_code": "9013901",
    "prefecture": "沖縄県",
    "prefecture_kana": "オキナワケン",
    "prefecture_code": "47",
    "city": "島尻郡北大東村",
    "city_kana": "シマジリグンキタダイトウソン",
    "town": "南",
    "town_kana": "ミナミ",
    "street": null,
    "office_name": null,
    "office_name_kana": null
  },
  "3902": {
    "zip_code": "9013902",
    "prefecture": "沖縄県",
    "prefecture_kana": "オキナワケン",
    "prefecture_code": "47",
    "city": "島尻郡北大東村",
    "city_kana": "シマジリグンキタダイトウソン",
    "town": "中野",
    "town_kana": "ナカノ",
    "street": null,
    "office_name": null,
    "office_name_kana": null
  },
  "3903": {
    "zip_code": "9013903",
    "prefecture": "沖縄県",
    "prefecture_kana": "オキナワケン",
    "prefecture_code": "47",
    "city": "島尻郡北大東村",
    "city_kana": "シマジリグンキタダイトウソン",
    "town": "港",
    "town_kana": "ミナト",
    "street": null,
    "office_name": null,
    "office_name_kana": null
  },
  "3992": {
    "zip_code": "9013992",
    "prefecture": "沖縄県",
    "prefecture_kana": null,
    "prefecture_code": null,
    "city": "島尻郡北大東村",
    "city_kana": null,
    "town": "字中野",
    "town_kana": null,
    "street": "２１８",
    "office_name": "北大東村役場",
    "office_name_kana": "キタダイトウソンヤクバ"
  }
}