{
  "0000": {
    "zip_code": "9060000",
    "prefecture": "沖縄県",
    "prefecture_kana": "オキナワケン",
    "prefecture_code": "47",
    "city": "宮古島市",
    "city_kana": "ミヤコジマシ",
    "town": "",
    "town_kana": "",
    "street": null,
    "office_name": null,
    "office_name_kana": null
  },
  "0001": {
    "zip_code": "9060001",
    "prefecture": "沖縄県",
    "prefecture_kana": "オキナワケン",
    "prefecture_code": "47",
    "city": "宮古島市",
    "city_kana": "ミヤコジマシ",
    "town": "平良大神",
    "town_kana": "ヒララオオガミ",
    "street": null,
    "office_name": null,
    "office_name_kana": null
  },
  "0002": {
    "zip_code": "9060002",
    "prefecture": "沖縄県",
    "prefecture_kana": "オキナワケン",
    "prefecture_code": "47",
    "city": "宮古島市",
    "city_kana": "ミヤコジマシ",
    "town": "平良狩俣",
    "town_kana": "ヒララカリマタ",
    "street": null,
    "office_name": null,
    "office_name_kana": null
  },
  "0003": {
    "zip_code": "9060003",
    "prefecture": "沖縄県",
    "prefecture_kana": "オキナワケン",
    "prefecture_code": "47",
    "city": "宮古島市",
    "city_kana": "ミヤコジマシ",
    "town": "平良島尻",
    "town_kana": "ヒララシマジリ",
    "street": null,
    "office_name": null,
    "office_name_kana": null
  },
  "0004": {
    "zip_code": "9060004",
    "prefecture": "沖縄県",
    "prefecture_kana": "オキナワケン",
    "prefecture_code": "47",
    "city": "宮古島市",
    "city_kana": "ミヤコジマシ",
    "town": "平良大浦",
    "town_kana": "ヒララオオウラ",
    "street": null,
    "office_name": null,
    "office_name_kana": null
  },
  "0005": {
    "zip_code": "9060005",
    "prefecture": "沖縄県",
    "prefecture_kana": "オキナワケン",
    "prefecture_code": "47",
    "city": "宮古島市",
    "city_kana": "ミヤコジマシ",
    "town": "平良西原",
    "town_kana": "ヒララニシハラ",
    "street": null,
    "office_name": null,
    "office_name_kana": null
  },
  "0006": {
    "zip_code": "9060006",
    "prefecture": "沖縄県",
    "prefecture_kana": "オキナワケン",
    "prefecture_code": "47",
    "city": "宮古島市",
    "city_kana": "ミヤコジマシ",
    "town": "平良西仲宗根",
    "town_kana": "ヒララニシナカソネ",
    "street": null,
    "office_name": null,
    "office_name_kana": null
  },
  "0007": {
    "zip_code": "9060007",
    "prefecture": "沖縄県",
    "prefecture_kana": "オキナワケン",
    "prefecture_code": "47",
    "city": "宮古島市",
    "city_kana": "ミヤコジマシ",
    "town": "平良東仲宗根",
    "town_kana": "ヒララヒガシナカソネ",
    "street": null,
    "office_name": null,
    "office_name_kana": null
  },
  "0008": {
    "zip_code": "9060008",
    "prefecture": "沖縄県",
    "prefecture_kana": "オキナワケン",
    "prefecture_code": "47",
    "city": "宮古島市",
    "city_kana": "ミヤコジマシ",
    "town": "平良荷川取",
    "town_kana": "ヒララニカドリ",
    "street": null,
    "office_name": null,
    "office_name_kana": null
  },
  "0011": {
    "zip_code": "9060011",
    "prefecture": "沖縄県",
    "prefecture_kana": "オキナワケン",
    "prefecture_code": "47",
    "city": "宮古島市",
    "city_kana": "ミヤコジマシ",
    "town": "平良東仲宗根添",
    "town_kana": "ヒララヒガシナカソネゾエ",
    "street": null,
    "office_name": null,
    "office_name_kana": null
  },
  "0012": {
    "zip_code": "9060012",
    "prefecture": "沖縄県",
    "prefecture_kana": "オキナワケン",
    "prefecture_code": "47",
    "city": "宮古島市",
    "city_kana": "ミヤコジマシ",
    "town": "平良西里",
    "town_kana": "ヒララニシザト",
    "street": null,
    "office_name": null,
    "office_name_kana": null
  },
  "0013": {
    "zip_code": "9060013",
    "prefecture": "沖縄県",
    "prefecture_kana": "オキナワケン",
    "prefecture_code": "47",
    "city": "宮古島市",
    "city_kana": "ミヤコジマシ",
    "town": "平良下里",
    "town_kana": "ヒララシモザト",
    "street": null,
    "office_name": null,
    "office_name_kana": null
  },
  "0014": {
    "zip_code": "9060014",
    "prefecture": "沖縄県",
    "prefecture_kana": "オキナワケン",
    "prefecture_code": "47",
    "city": "宮古島市",
    "city_kana": "ミヤコジマシ",
    "town": "平良松原",
    "town_kana": "ヒララマツバラ",
    "street": null,
    "office_name": null,
    "office_name_kana": null
  },
  "0015": {
    "zip_code": "9060015",
    "prefecture": "沖縄県",
    "prefecture_kana": "オキナワケン",
    "prefecture_code": "47",
    "city": "宮古島市",
    "city_kana": "ミヤコジマシ",
    "town": "平良久貝",
    "town_kana": "ヒララクガイ",
    "street": null,
    "office_name": null,
    "office_name_kana": null
  },
  "0101": {
    "zip_code": "9060101",
    "prefecture": "沖縄県",
    "prefecture_kana": "オキナワケン",
    "prefecture_code": "47",
    "city": "宮古島市",
    "city_kana": "ミヤコジマシ",
    "town": "城辺保良",
    "town_kana": "グスクベボラ",
    "street": null,
    "office_name": null,
    "office_name_kana": null
  },
  "0102": {
    "zip_code": "9060102",
    "prefecture": "沖縄県",
    "prefecture_kana": "オキナワケン",
    "prefecture_code": "47",
    "city": "宮古島市",
    "city_kana": "ミヤコジマシ",
    "town": "城辺新城",
    "town_kana": "グスクベアラグスク",
    "street": null,
    "office_name": null,
    "office_name_kana": null
  },
  "0103": {
    "zip_code": "9060103",
    "prefecture": "沖縄県",
    "prefecture_kana": "オキナワケン",
    "prefecture_code": "47",
    "city": "宮古島市",
    "city_kana": "ミヤコジマシ",
    "town": "城辺福里",
    "town_kana": "グスクベフクザト",
    "street": null,
    "office_name": null,
    "office_name_kana": null
  },
  "0104": {
    "zip_code": "9060104",
    "prefecture": "沖縄県",
    "prefecture_kana": "オキナワケン",
    "prefecture_code": "47",
    "city": "宮古島市",
    "city_kana": "ミヤコジマシ",
    "town": "城辺比嘉",
    "town_kana": "グスクベヒガ",
    "street": null,
    "office_name": null,
    "office_name_kana": null
  },
  "0105": {
    "zip_code": "9060105",
    "prefecture": "沖縄県",
    "prefecture_kana": "オキナワケン",
    "prefecture_code": "47",
    "city": "宮古島市",
    "city_kana": "ミヤコジマシ",
    "town": "城辺長間",
    "town_kana": "グスクベナガマ",
    "street": null,
    "office_name": null,
    "office_name_kana": null
  },
  "0106": {
    "zip_code": "9060106",
    "prefecture": "沖縄県",
    "prefecture_kana": "オキナワケン",
    "prefecture_code": "47",
    "city": "宮古島市",
    "city_kana": "ミヤコジマシ",
    "town": "城辺西里添",
    "town_kana": "グスクベニシザトソエ",
    "street": null,
    "office_name": null,
    "office_name_kana": null
  },
  "0107": {
    "zip_code": "9060107",
    "prefecture": "沖縄県",
    "prefecture_kana": "オキナワケン",
    "prefecture_code": "47",
    "city": "宮古島市",
    "city_kana": "ミヤコジマシ",
    "town": "城辺友利",
    "town_kana": "グスクベトモリ",
    "street": null,
    "office_name": null,
    "office_name_kana": null
  },
  "0108": {
    "zip_code": "9060108",
    "prefecture": "沖縄県",
    "prefecture_kana": "オキナワケン",
    "prefecture_code": "47",
    "city": "宮古島市",
    "city_kana": "ミヤコジマシ",
    "town": "城辺砂川",
    "town_kana": "グスクベウルカ",
    "street": null,
    "office_name": null,
    "office_name_kana": null
  },
  "0109": {
    "zip_code": "9060109",
    "prefecture": "沖縄県",
    "prefecture_kana": "オキナワケン",
    "prefecture_code": "47",
    "city": "宮古島市",
    "city_kana": "ミヤコジマシ",
    "town": "城辺下里添",
    "town_kana": "グスクベシモザトソエ",
    "street": null,
    "office_name": null,
    "office_name_kana": null
  },
  "0201": {
    "zip_code": "9060201",
    "prefecture": "沖縄県",
    "prefecture_kana": "オキナワケン",
    "prefecture_code": "47",
    "city": "宮古島市",
    "city_kana": "ミヤコジマシ",
    "town": "上野野原",
    "town_kana": "ウエノノバル",
    "street": null,
    "office_name": null,
    "office_name_kana": null
  },
  "0202": {
    "zip_code": "9060202",
    "prefecture": "沖縄県",
    "prefecture_kana": "オキナワケン",
    "prefecture_code": "47",
    "city": "宮古島市",
    "city_kana": "ミヤコジマシ",
    "town": "上野新里",
    "town_kana": "ウエノシンザト",
    "street": null,
    "office_name": null,
    "office_name_kana": null
  },
  "0203": {
    "zip_code": "9060203",
    "prefecture": "沖縄県",
    "prefecture_kana": "オキナワケン",
    "prefecture_code": "47",
    "city": "宮古島市",
    "city_kana": "ミヤコジマシ",
    "town": "上野宮国",
    "town_kana": "ウエノミヤグニ",
    "street": null,
    "office_name": null,
    "office_name_kana": null
  },
  "0204": {
    "zip_code": "9060204",
    "prefecture": "沖縄県",
    "prefecture_kana": "オキナワケン",
    "prefecture_code": "47",
    "city": "宮古島市",
    "city_kana": "ミヤコジマシ",
    "town": "上野上野",
    "town_kana": "ウエノウエノ",
    "street": null,
    "office_name": null,
    "office_name_kana": null
  },
  "0292": {
    "zip_code": "9060292",
    "prefecture": "沖縄県",
    "prefecture_kana": null,
    "prefecture_code": null,
    "city": "宮古島市",
    "city_kana": null,
    "town": "上野",
    "town_kana": null,
    "street": "字野原１１９０−１８９",
    "office_name": "航空自衛隊　宮古島",
    "office_name_kana": "コウクウジエイタイ ミヤコジマ"
  },
  "0301": {
    "zip_code": "9060301",
    "prefecture": "沖縄県",
    "prefecture_kana": "オキナワケン",
    "prefecture_code": "47",
    "city": "宮古島市",
    "city_kana": "ミヤコジマシ",
    "town": "下地川満",
    "town_kana": "シモジカワミツ",
    "street": null,
    "office_name": null,
    "office_name_kana": null
  },
  "0302": {
    "zip_code": "9060302",
    "prefecture": "沖縄県",
    "prefecture_kana": "オキナワケン",
    "prefecture_code": "47",
    "city": "宮古島市",
    "city_kana": "ミヤコジマシ",
    "town": "下地嘉手苅",
    "town_kana": "シモジカデカリ",
    "street": null,
    "office_name": null,
    "office_name_kana": null
  },
  "0303": {
    "zip_code": "9060303",
    "prefecture": "沖縄県",
    "prefecture_kana": "オキナワケン",
    "prefecture_code": "47",
    "city": "宮古島市",
    "city_kana": "ミヤコジマシ",
    "town": "下地洲鎌",
    "town_kana": "シモジスガマ",
    "street": null,
    "office_name": null,
    "office_name_kana": null
  },
  "0304": {
    "zip_code": "9060304",
    "prefecture": "沖縄県",
    "prefecture_kana": "オキナワケン",
    "prefecture_code": "47",
    "city": "宮古島市",
    "city_kana": "ミヤコジマシ",
    "town": "下地上地",
    "town_kana": "シモジウエチ",
    "street": null,
    "office_name": null,
    "office_name_kana": null
  },
  "0305": {
    "zip_code": "9060305",
    "prefecture": "沖縄県",
    "prefecture_kana": "オキナワケン",
    "prefecture_code": "47",
    "city": "宮古島市",
    "city_kana": "ミヤコジマシ",
    "town": "下地与那覇",
    "town_kana": "シモジヨナハ",
    "street": null,
    "office_name": null,
    "office_name_kana": null
  },
  "0306": {
    "zip_code": "9060306",
    "prefecture": "沖縄県",
    "prefecture_kana": "オキナワケン",
    "prefecture_code": "47",
    "city": "宮古島市",
    "city_kana": "ミヤコジマシ",
    "town": "下地来間",
    "town_kana": "シモジクリマ",
    "street": null,
    "office_name": null,
    "office_name_kana": null
  },
  "0421": {
    "zip_code": "9060421",
    "prefecture": "沖縄県",
    "prefecture_kana": "オキナワケン",
    "prefecture_code": "47",
    "city": "宮古島市",
    "city_kana": "ミヤコジマシ",
    "town": "平良池間",
    "town_kana": "ヒラライケマ",
    "street": null,
    "office_name": null,
    "office_name_kana": null
  },
  "0422": {
    "zip_code": "9060422",
    "prefecture": "沖縄県",
    "prefecture_kana": "オキナワケン",
    "prefecture_code": "47",
    "city": "宮古島市",
    "city_kana": "ミヤコジマシ",
    "town": "平良前里",
    "town_kana": "ヒララマエザト",
    "street": null,
    "office_name": null,
    "office_name_kana": null
  },
  "0501": {
    "zip_code": "9060501",
    "prefecture": "沖縄県",
    "prefecture_kana": "オキナワケン",
    "prefecture_code": "47",
    "city": "宮古島市",
    "city_kana": "ミヤコジマシ",
    "town": "伊良部前里添",
    "town_kana": "イラブマエサトソエ",
    "street": null,
    "office_name": null,
    "office_name_kana": null
  },
  "0502": {
    "zip_code": "9060502",
    "prefecture": "沖縄県",
    "prefecture_kana": "オキナワケン",
    "prefecture_code": "47",
    "city": "宮古島市",
    "city_kana": "ミヤコジマシ",
    "town": "伊良部池間添",
    "town_kana": "イラブイケマソエ",
    "street": null,
    "office_name": null,
    "office_name_kana": null
  },
  "0503": {
    "zip_code": "9060503",
    "prefecture": "沖縄県",
    "prefecture_kana": "オキナワケン",
    "prefecture_code": "47",
    "city": "宮古島市",
    "city_kana": "ミヤコジマシ",
    "town": "伊良部伊良部",
    "town_kana": "イラブイラブ",
    "street": null,
    "office_name": null,
    "office_name_kana": null
  },
  "0504": {
    "zip_code": "9060504",
    "prefecture": "沖縄県",
    "prefecture_kana": "オキナワケン",
    "prefecture_code": "47",
    "city": "宮古島市",
    "city_kana": "ミヤコジマシ",
    "town": "伊良部仲地",
    "town_kana": "イラブナカチ",
    "street": null,
    "office_name": null,
    "office_name_kana": null
  },
  "0505": {
    "zip_code": "9060505",
    "prefecture": "沖縄県",
    "prefecture_kana": "オキナワケン",
    "prefecture_code": "47",
    "city": "宮古島市",
    "city_kana": "ミヤコジマシ",
    "town": "伊良部国仲",
    "town_kana": "イラブクニナカ",
    "street": null,
    "office_name": null,
    "office_name_kana": null
  },
  "0506": {
    "zip_code": "9060506",
    "prefecture": "沖縄県",
    "prefecture_kana": "オキナワケン",
    "prefecture_code": "47",
    "city": "宮古島市",
    "city_kana": "ミヤコジマシ",
    "town": "伊良部長浜",
    "town_kana": "イラブナガハマ",
    "street": null,
    "office_name": null,
    "office_name_kana": null
  },
  "0507": {
    "zip_code": "9060507",
    "prefecture": "沖縄県",
    "prefecture_kana": "オキナワケン",
    "prefecture_code": "47",
    "city": "宮古島市",
    "city_kana": "ミヤコジマシ",
    "town": "伊良部佐和田",
    "town_kana": "イラブサワダ",
    "street": null,
    "office_name": null,
    "office_name_kana": null
  },
  "0592": {
    "zip_code": "9060592",
    "prefecture": "沖縄県",
    "prefecture_kana": null,
    "prefecture_code": null,
    "city": "宮古島市",
    "city_kana": null,
    "town": "伊良部",
    "town_kana": null,
    "street": "字長浜１２９６",
    "office_name": "宮古島市　伊良部総合支所",
    "office_name_kana": "ミヤコジマシ イラブソウゴウシシヨ"
  },
  "0600": {
    "zip_code": "9060600",
    "prefecture": "沖縄県",
    "prefecture_kana": "オキナワケン",
    "prefecture_code": "47",
    "city": "宮古郡多良間村",
    "city_kana": "ミヤコグンタラマソン",
    "town": "",
    "town_kana": "",
    "street": null,
    "office_name": null,
    "office_name_kana": null
  },
  "0601": {
    "zip_code": "9060601",
    "prefecture": "沖縄県",
    "prefecture_kana": "オキナワケン",
    "prefecture_code": "47",
    "city": "宮古郡多良間村",
    "city_kana": "ミヤコグンタラマソン",
    "town": "塩川",
    "town_kana": "シオカワ",
    "street": null,
    "office_name": null,
    "office_name_kana": null
  },
  "0602": {
    "zip_code": "9060602",
    "prefecture": "沖縄県",
    "prefecture_kana": "オキナワケン",
    "prefecture_code": "47",
    "city": "宮古郡多良間村",
    "city_kana": "ミヤコグンタラマソン",
    "town": "仲筋",
    "town_kana": "ナカスジ",
    "street": null,
    "office_name": null,
    "office_name_kana": null
  },
  "0603": {
    "zip_code": "9060603",
    "prefecture": "沖縄県",
    "prefecture_kana": "オキナワケン",
    "prefecture_code": "47",
    "city": "宮古郡多良間村",
    "city_kana": "ミヤコグンタラマソン",
    "town": "水納",
    "town_kana": "ミンナ",
    "street": null,
    "office_name": null,
    "office_name_kana": null
  },
  "0692": {
    "zip_code": "9060692",
    "prefecture": "沖縄県",
    "prefecture_kana": null,
    "prefecture_code": null,
    "city": "宮古郡多良間村",
    "city_kana": null,
    "town": "字仲筋",
    "town_kana": null,
    "street": "９９−２",
    "office_name": "多良間村役場",
    "office_name_kana": "タラマソンヤクバ"
  },
  "8501": {
    "zip_code": "9068501",
    "prefecture": "沖縄県",
    "prefecture_kana": null,
    "prefecture_code": null,
    "city": "宮古島市",
    "city_kana": null,
    "town": "平良",
    "town_kana": null,
    "street": "字西里１８６",
    "office_name": "宮古島市役所",
    "office_name_kana": "ミヤコジマシヤクシヨ"
  },
  "8550": {
    "zip_code": "9068550",
    "prefecture": "沖縄県",
    "prefecture_kana": null,
    "prefecture_code": null,
    "city": "宮古島市",
    "city_kana": null,
    "town": "平良",
    "town_kana": null,
    "street": "下里４２７番１",
    "office_name": "沖縄県立宮古病院",
    "office_name_kana": "オキナワケンリツミヤコビヨウイン"
  },
  "8601": {
    "zip_code": "9068601",
    "prefecture": "沖縄県",
    "prefecture_kana": null,
    "prefecture_code": null,
    "city": "宮古島市",
    "city_kana": null,
    "town": "平良",
    "town_kana": null,
    "street": "字東仲宗根８０７−７",
    "office_name": "平良税務署",
    "office_name_kana": "ヒララゼイムシヨ"
  }
}