{
  "0000": {
    "zip_code": "9160000",
    "prefecture": "福井県",
    "prefecture_kana": "フクイケン",
    "prefecture_code": "18",
    "city": "鯖江市",
    "city_kana": "サバエシ",
    "town": "",
    "town_kana": "",
    "street": null,
    "office_name": null,
    "office_name_kana": null
  },
  "0001": {
    "zip_code": "9160001",
    "prefecture": "福井県",
    "prefecture_kana": "フクイケン",
    "prefecture_code": "18",
    "city": "鯖江市",
    "city_kana": "サバエシ",
    "town": "吉江町",
    "town_kana": "ヨシエチョウ",
    "street": null,
    "office_name": null,
    "office_name_kana": null
  },
  "0002": {
    "zip_code": "9160002",
    "prefecture": "福井県",
    "prefecture_kana": "フクイケン",
    "prefecture_code": "18",
    "city": "鯖江市",
    "city_kana": "サバエシ",
    "town": "米岡町",
    "town_kana": "ヨネオカチョウ",
    "street": null,
    "office_name": null,
    "office_name_kana": null
  },
  "0003": {
    "zip_code": "9160003",
    "prefecture": "福井県",
    "prefecture_kana": "フクイケン",
    "prefecture_code": "18",
    "city": "鯖江市",
    "city_kana": "サバエシ",
    "town": "田所町",
    "town_kana": "タドコロチョウ",
    "street": null,
    "office_name": null,
    "office_name_kana": null
  },
  "0004": {
    "zip_code": "9160004",
    "prefecture": "福井県",
    "prefecture_kana": "フクイケン",
    "prefecture_code": "18",
    "city": "鯖江市",
    "city_kana": "サバエシ",
    "town": "糺町",
    "town_kana": "タダスチョウ",
    "street": null,
    "office_name": null,
    "office_name_kana": null
  },
  "0005": {
    "zip_code": "9160005",
    "prefecture": "福井県",
    "prefecture_kana": "フクイケン",
    "prefecture_code": "18",
    "city": "鯖江市",
    "city_kana": "サバエシ",
    "town": "杉本町",
    "town_kana": "スギモトチョウ",
    "street": null,
    "office_name": null,
    "office_name_kana": null
  },
  "0006": {
    "zip_code": "9160006",
    "prefecture": "福井県",
    "prefecture_kana": "フクイケン",
    "prefecture_code": "18",
    "city": "鯖江市",
    "city_kana": "サバエシ",
    "town": "西番町",
    "town_kana": "ニシバンチョウ",
    "street": null,
    "office_name": null,
    "office_name_kana": null
  },
  "0007": {
    "zip_code": "9160007",
    "prefecture": "福井県",
    "prefecture_kana": "フクイケン",
    "prefecture_code": "18",
    "city": "鯖江市",
    "city_kana": "サバエシ",
    "town": "三尾野出作町",
    "town_kana": "ミオノシュツサクチョウ",
    "street": null,
    "office_name": null,
    "office_name_kana": null
  },
  "0008": {
    "zip_code": "9160008",
    "prefecture": "福井県",
    "prefecture_kana": "フクイケン",
    "prefecture_code": "18",
    "city": "鯖江市",
    "city_kana": "サバエシ",
    "town": "入町",
    "town_kana": "イリチョウ",
    "street": null,
    "office_name": null,
    "office_name_kana": null
  },
  "0011": {
    "zip_code": "9160011",
    "prefecture": "福井県",
    "prefecture_kana": "フクイケン",
    "prefecture_code": "18",
    "city": "鯖江市",
    "city_kana": "サバエシ",
    "town": "つつじケ丘町",
    "town_kana": "ツツジガオカチョウ",
    "street": null,
    "office_name": null,
    "office_name_kana": null
  },
  "0012": {
    "zip_code": "9160012",
    "prefecture": "福井県",
    "prefecture_kana": "フクイケン",
    "prefecture_code": "18",
    "city": "鯖江市",
    "city_kana": "サバエシ",
    "town": "東米岡",
    "town_kana": "ヒガシヨネオカ",
    "street": null,
    "office_name": null,
    "office_name_kana": null
  },
  "0013": {
    "zip_code": "9160013",
    "prefecture": "福井県",
    "prefecture_kana": "フクイケン",
    "prefecture_code": "18",
    "city": "鯖江市",
    "city_kana": "サバエシ",
    "town": "鳥羽",
    "town_kana": "トバ",
    "street": null,
    "office_name": null,
    "office_name_kana": null
  },
  "0014": {
    "zip_code": "9160014",
    "prefecture": "福井県",
    "prefecture_kana": "フクイケン",
    "prefecture_code": "18",
    "city": "鯖江市",
    "city_kana": "サバエシ",
    "town": "鳥羽町",
    "town_kana": "トバチョウ",
    "street": null,
    "office_name": null,
    "office_name_kana": null
  },
  "0015": {
    "zip_code": "9160015",
    "prefecture": "福井県",
    "prefecture_kana": "フクイケン",
    "prefecture_code": "18",
    "city": "鯖江市",
    "city_kana": "サバエシ",
    "town": "御幸町",
    "town_kana": "ミユキチョウ",
    "street": null,
    "office_name": null,
    "office_name_kana": null
  },
  "0016": {
    "zip_code": "9160016",
    "prefecture": "福井県",
    "prefecture_kana": "フクイケン",
    "prefecture_code": "18",
    "city": "鯖江市",
    "city_kana": "サバエシ",
    "town": "神中町",
    "town_kana": "カミナカチョウ",
    "street": null,
    "office_name": null,
    "office_name_kana": null
  },
  "0017": {
    "zip_code": "9160017",
    "prefecture": "福井県",
    "prefecture_kana": "フクイケン",
    "prefecture_code": "18",
    "city": "鯖江市",
    "city_kana": "サバエシ",
    "town": "神明町",
    "town_kana": "シンメイチョウ",
    "street": null,
    "office_name": null,
    "office_name_kana": null
  },
  "0018": {
    "zip_code": "9160018",
    "prefecture": "福井県",
    "prefecture_kana": "フクイケン",
    "prefecture_code": "18",
    "city": "鯖江市",
    "city_kana": "サバエシ",
    "town": "幸町",
    "town_kana": "サイワイチョウ",
    "street": null,
    "office_name": null,
    "office_name_kana": null
  },
  "0019": {
    "zip_code": "9160019",
    "prefecture": "福井県",
    "prefecture_kana": "フクイケン",
    "prefecture_code": "18",
    "city": "鯖江市",
    "city_kana": "サバエシ",
    "town": "丸山町",
    "town_kana": "マルヤマチョウ",
    "street": null,
    "office_name": null,
    "office_name_kana": null
  },
  "0021": {
    "zip_code": "9160021",
    "prefecture": "福井県",
    "prefecture_kana": "フクイケン",
    "prefecture_code": "18",
    "city": "鯖江市",
    "city_kana": "サバエシ",
    "town": "三六町",
    "town_kana": "サンロクチョウ",
    "street": null,
    "office_name": null,
    "office_name_kana": null
  },
  "0022": {
    "zip_code": "9160022",
    "prefecture": "福井県",
    "prefecture_kana": "フクイケン",
    "prefecture_code": "18",
    "city": "鯖江市",
    "city_kana": "サバエシ",
    "town": "水落町",
    "town_kana": "ミズオチチョウ",
    "street": null,
    "office_name": null,
    "office_name_kana": null
  },
  "0023": {
    "zip_code": "9160023",
    "prefecture": "福井県",
    "prefecture_kana": "フクイケン",
    "prefecture_code": "18",
    "city": "鯖江市",
    "city_kana": "サバエシ",
    "town": "西山町",
    "town_kana": "ニシヤマチョウ",
    "street": null,
    "office_name": null,
    "office_name_kana": null
  },
  "0024": {
    "zip_code": "9160024",
    "prefecture": "福井県",
    "prefecture_kana": "フクイケン",
    "prefecture_code": "18",
    "city": "鯖江市",
    "city_kana": "サバエシ",
    "town": "長泉寺町",
    "town_kana": "チョウセンジチョウ",
    "street": null,
    "office_name": null,
    "office_name_kana": null
  },
  "0025": {
    "zip_code": "9160025",
    "prefecture": "福井県",
    "prefecture_kana": "フクイケン",
    "prefecture_code": "18",
    "city": "鯖江市",
    "city_kana": "サバエシ",
    "town": "旭町",
    "town_kana": "アサヒマチ",
    "street": null,
    "office_name": null,
    "office_name_kana": null
  },
  "0026": {
    "zip_code": "9160026",
    "prefecture": "福井県",
    "prefecture_kana": "フクイケン",
    "prefecture_code": "18",
    "city": "鯖江市",
    "city_kana": "サバエシ",
    "town": "本町",
    "town_kana": "ホンマチ",
    "street": null,
    "office_name": null,
    "office_name_kana": null
  },
  "0027": {
    "zip_code": "9160027",
    "prefecture": "福井県",
    "prefecture_kana": "フクイケン",
    "prefecture_code": "18",
    "city": "鯖江市",
    "city_kana": "サバエシ",
    "town": "桜町",
    "town_kana": "サクラマチ",
    "street": null,
    "office_name": null,
    "office_name_kana": null
  },
  "0028": {
    "zip_code": "9160028",
    "prefecture": "福井県",
    "prefecture_kana": "フクイケン",
    "prefecture_code": "18",
    "city": "鯖江市",
    "city_kana": "サバエシ",
    "town": "小黒町",
    "town_kana": "コグロマチ",
    "street": null,
    "office_name": null,
    "office_name_kana": null
  },
  "0029": {
    "zip_code": "9160029",
    "prefecture": "福井県",
    "prefecture_kana": "フクイケン",
    "prefecture_code": "18",
    "city": "鯖江市",
    "city_kana": "サバエシ",
    "town": "北野町",
    "town_kana": "キタノチョウ",
    "street": null,
    "office_name": null,
    "office_name_kana": null
  },
  "0031": {
    "zip_code": "9160031",
    "prefecture": "福井県",
    "prefecture_kana": "フクイケン",
    "prefecture_code": "18",
    "city": "鯖江市",
    "city_kana": "サバエシ",
    "town": "橋立町",
    "town_kana": "ハシタテチョウ",
    "street": null,
    "office_name": null,
    "office_name_kana": null
  },
  "0032": {
    "zip_code": "9160032",
    "prefecture": "福井県",
    "prefecture_kana": "フクイケン",
    "prefecture_code": "18",
    "city": "鯖江市",
    "city_kana": "サバエシ",
    "town": "舟枝町",
    "town_kana": "フナエダチョウ",
    "street": null,
    "office_name": null,
    "office_name_kana": null
  },
  "0033": {
    "zip_code": "9160033",
    "prefecture": "福井県",
    "prefecture_kana": "フクイケン",
    "prefecture_code": "18",
    "city": "鯖江市",
    "city_kana": "サバエシ",
    "town": "中野町",
    "town_kana": "ナカノチョウ",
    "street": null,
    "office_name": null,
    "office_name_kana": null
  },
  "0034": {
    "zip_code": "9160034",
    "prefecture": "福井県",
    "prefecture_kana": "フクイケン",
    "prefecture_code": "18",
    "city": "鯖江市",
    "city_kana": "サバエシ",
    "town": "下新庄町",
    "town_kana": "シモシンジョウチョウ",
    "street": null,
    "office_name": null,
    "office_name_kana": null
  },
  "0035": {
    "zip_code": "9160035",
    "prefecture": "福井県",
    "prefecture_kana": "フクイケン",
    "prefecture_code": "18",
    "city": "鯖江市",
    "city_kana": "サバエシ",
    "town": "新町",
    "town_kana": "シンマチ",
    "street": null,
    "office_name": null,
    "office_name_kana": null
  },
  "0036": {
    "zip_code": "9160036",
    "prefecture": "福井県",
    "prefecture_kana": "フクイケン",
    "prefecture_code": "18",
    "city": "鯖江市",
    "city_kana": "サバエシ",
    "town": "横越町",
    "town_kana": "ヨコゴシチョウ",
    "street": null,
    "office_name": null,
    "office_name_kana": null
  },
  "0037": {
    "zip_code": "9160037",
    "prefecture": "福井県",
    "prefecture_kana": "フクイケン",
    "prefecture_code": "18",
    "city": "鯖江市",
    "city_kana": "サバエシ",
    "town": "上河端町",
    "town_kana": "カミコウバタチョウ",
    "street": null,
    "office_name": null,
    "office_name_kana": null
  },
  "0038": {
    "zip_code": "9160038",
    "prefecture": "福井県",
    "prefecture_kana": "フクイケン",
    "prefecture_code": "18",
    "city": "鯖江市",
    "city_kana": "サバエシ",
    "town": "下河端町",
    "town_kana": "シモコウバタチョウ",
    "street": null,
    "office_name": null,
    "office_name_kana": null
  },
  "0041": {
    "zip_code": "9160041",
    "prefecture": "福井県",
    "prefecture_kana": "フクイケン",
    "prefecture_code": "18",
    "city": "鯖江市",
    "city_kana": "サバエシ",
    "town": "東鯖江",
    "town_kana": "ヒガシサバエ",
    "street": null,
    "office_name": null,
    "office_name_kana": null
  },
  "0042": {
    "zip_code": "9160042",
    "prefecture": "福井県",
    "prefecture_kana": "フクイケン",
    "prefecture_code": "18",
    "city": "鯖江市",
    "city_kana": "サバエシ",
    "town": "新横江",
    "town_kana": "シンヨコエ",
    "street": null,
    "office_name": null,
    "office_name_kana": null
  },
  "0043": {
    "zip_code": "9160043",
    "prefecture": "福井県",
    "prefecture_kana": "フクイケン",
    "prefecture_code": "18",
    "city": "鯖江市",
    "city_kana": "サバエシ",
    "town": "定次町",
    "town_kana": "サダツギチョウ",
    "street": null,
    "office_name": null,
    "office_name_kana": null
  },
  "0044": {
    "zip_code": "9160044",
    "prefecture": "福井県",
    "prefecture_kana": "フクイケン",
    "prefecture_code": "18",
    "city": "鯖江市",
    "city_kana": "サバエシ",
    "town": "五郎丸町",
    "town_kana": "ゴロウマルチョウ",
    "street": null,
    "office_name": null,
    "office_name_kana": null
  },
  "0045": {
    "zip_code": "9160045",
    "prefecture": "福井県",
    "prefecture_kana": "フクイケン",
    "prefecture_code": "18",
    "city": "鯖江市",
    "city_kana": "サバエシ",
    "town": "宮前",
    "town_kana": "ミヤマエ",
    "street": null,
    "office_name": null,
    "office_name_kana": null
  },
  "0046": {
    "zip_code": "9160046",
    "prefecture": "福井県",
    "prefecture_kana": "フクイケン",
    "prefecture_code": "18",
    "city": "鯖江市",
    "city_kana": "サバエシ",
    "town": "横江町",
    "town_kana": "ヨコエチョウ",
    "street": null,
    "office_name": null,
    "office_name_kana": null
  },
  "0047": {
    "zip_code": "9160047",
    "prefecture": "福井県",
    "prefecture_kana": "フクイケン",
    "prefecture_code": "18",
    "city": "鯖江市",
    "city_kana": "サバエシ",
    "town": "柳町",
    "town_kana": "ヤナギマチ",
    "street": null,
    "office_name": null,
    "office_name_kana": null
  },
  "0051": {
    "zip_code": "9160051",
    "prefecture": "福井県",
    "prefecture_kana": "フクイケン",
    "prefecture_code": "18",
    "city": "鯖江市",
    "city_kana": "サバエシ",
    "town": "屋形町",
    "town_kana": "ヤカタチョウ",
    "street": null,
    "office_name": null,
    "office_name_kana": null
  },
  "0052": {
    "zip_code": "9160052",
    "prefecture": "福井県",
    "prefecture_kana": "フクイケン",
    "prefecture_code": "18",
    "city": "鯖江市",
    "city_kana": "サバエシ",
    "town": "深江町",
    "town_kana": "フカエチョウ",
    "street": null,
    "office_name": null,
    "office_name_kana": null
  },
  "0053": {
    "zip_code": "9160053",
    "prefecture": "福井県",
    "prefecture_kana": "フクイケン",
    "prefecture_code": "18",
    "city": "鯖江市",
    "city_kana": "サバエシ",
    "town": "日の出町",
    "town_kana": "ヒノデチョウ",
    "street": null,
    "office_name": null,
    "office_name_kana": null
  },
  "0054": {
    "zip_code": "9160054",
    "prefecture": "福井県",
    "prefecture_kana": "フクイケン",
    "prefecture_code": "18",
    "city": "鯖江市",
    "city_kana": "サバエシ",
    "town": "舟津町",
    "town_kana": "フナツチョウ",
    "street": null,
    "office_name": null,
    "office_name_kana": null
  },
  "0055": [
    {
      "zip_code": "9160055",
      "prefecture": "福井県",
      "prefecture_kana": "フクイケン",
      "prefecture_code": "18",
      "city": "鯖江市",
      "city_kana": "サバエシ",
      "town": "上鯖江",
      "town_kana": "カミサバエ",
      "street": null,
      "office_name": null,
      "office_name_kana": null
    },
    {
      "zip_code": "9160055",
      "prefecture": "福井県",
      "prefecture_kana": "フクイケン",
      "prefecture_code": "18",
      "city": "鯖江市",
      "city_kana": "サバエシ",
      "town": "上鯖江町",
      "town_kana": "カミサバエチョウ",
      "street": null,
      "office_name": null,
      "office_name_kana": null
    }
  ],
  "0056": {
    "zip_code": "9160056",
    "prefecture": "福井県",
    "prefecture_kana": "フクイケン",
    "prefecture_code": "18",
    "city": "鯖江市",
    "city_kana": "サバエシ",
    "town": "住吉町",
    "town_kana": "スミヨシチョウ",
    "street": null,
    "office_name": null,
    "office_name_kana": null
  },
  "0057": {
    "zip_code": "9160057",
    "prefecture": "福井県",
    "prefecture_kana": "フクイケン",
    "prefecture_code": "18",
    "city": "鯖江市",
    "city_kana": "サバエシ",
    "town": "有定町",
    "town_kana": "アリサダチョウ",
    "street": null,
    "office_name": null,
    "office_name_kana": null
  },
  "0061": {
    "zip_code": "9160061",
    "prefecture": "福井県",
    "prefecture_kana": "フクイケン",
    "prefecture_code": "18",
    "city": "鯖江市",
    "city_kana": "サバエシ",
    "town": "平井町",
    "town_kana": "ヒライチョウ",
    "street": null,
    "office_name": null,
    "office_name_kana": null
  },
  "0062": {
    "zip_code": "9160062",
    "prefecture": "福井県",
    "prefecture_kana": "フクイケン",
    "prefecture_code": "18",
    "city": "鯖江市",
    "city_kana": "サバエシ",
    "town": "熊田町",
    "town_kana": "クマダチョウ",
    "street": null,
    "office_name": null,
    "office_name_kana": null
  },
  "0063": {
    "zip_code": "9160063",
    "prefecture": "福井県",
    "prefecture_kana": "フクイケン",
    "prefecture_code": "18",
    "city": "鯖江市",
    "city_kana": "サバエシ",
    "town": "鳥井町",
    "town_kana": "トリイチョウ",
    "street": null,
    "office_name": null,
    "office_name_kana": null
  },
  "0064": {
    "zip_code": "9160064",
    "prefecture": "福井県",
    "prefecture_kana": "フクイケン",
    "prefecture_code": "18",
    "city": "鯖江市",
    "city_kana": "サバエシ",
    "town": "下司町",
    "town_kana": "ゲシチョウ",
    "street": null,
    "office_name": null,
    "office_name_kana": null
  },
  "0065": {
    "zip_code": "9160065",
    "prefecture": "福井県",
    "prefecture_kana": "フクイケン",
    "prefecture_code": "18",
    "city": "鯖江市",
    "city_kana": "サバエシ",
    "town": "当田町",
    "town_kana": "トウデチョウ",
    "street": null,
    "office_name": null,
    "office_name_kana": null
  },
  "0066": {
    "zip_code": "9160066",
    "prefecture": "福井県",
    "prefecture_kana": "フクイケン",
    "prefecture_code": "18",
    "city": "鯖江市",
    "city_kana": "サバエシ",
    "town": "上氏家町",
    "town_kana": "カミウズエチョウ",
    "street": null,
    "office_name": null,
    "office_name_kana": null
  },
  "0067": {
    "zip_code": "9160067",
    "prefecture": "福井県",
    "prefecture_kana": "フクイケン",
    "prefecture_code": "18",
    "city": "鯖江市",
    "city_kana": "サバエシ",
    "town": "下氏家町",
    "town_kana": "シモウズエチョウ",
    "street": null,
    "office_name": null,
    "office_name_kana": null
  },
  "0068": {
    "zip_code": "9160068",
    "prefecture": "福井県",
    "prefecture_kana": "フクイケン",
    "prefecture_code": "18",
    "city": "鯖江市",
    "city_kana": "サバエシ",
    "town": "二丁掛町",
    "town_kana": "ニチョガケチョウ",
    "street": null,
    "office_name": null,
    "office_name_kana": null
  },
  "0071": {
    "zip_code": "9160071",
    "prefecture": "福井県",
    "prefecture_kana": "フクイケン",
    "prefecture_code": "18",
    "city": "鯖江市",
    "city_kana": "サバエシ",
    "town": "持明寺町",
    "town_kana": "ジミョウジチョウ",
    "street": null,
    "office_name": null,
    "office_name_kana": null
  },
  "0072": {
    "zip_code": "9160072",
    "prefecture": "福井県",
    "prefecture_kana": "フクイケン",
    "prefecture_code": "18",
    "city": "鯖江市",
    "city_kana": "サバエシ",
    "town": "冬島町",
    "town_kana": "フジマチョウ",
    "street": null,
    "office_name": null,
    "office_name_kana": null
  },
  "0073": {
    "zip_code": "9160073",
    "prefecture": "福井県",
    "prefecture_kana": "フクイケン",
    "prefecture_code": "18",
    "city": "鯖江市",
    "city_kana": "サバエシ",
    "town": "下野田町",
    "town_kana": "シモノダチョウ",
    "street": null,
    "office_name": null,
    "office_name_kana": null
  },
  "0074": {
    "zip_code": "9160074",
    "prefecture": "福井県",
    "prefecture_kana": "フクイケン",
    "prefecture_code": "18",
    "city": "鯖江市",
    "city_kana": "サバエシ",
    "town": "上野田町",
    "town_kana": "カミノダチョウ",
    "street": null,
    "office_name": null,
    "office_name_kana": null
  },
  "0075": {
    "zip_code": "9160075",
    "prefecture": "福井県",
    "prefecture_kana": "フクイケン",
    "prefecture_code": "18",
    "city": "鯖江市",
    "city_kana": "サバエシ",
    "town": "漆原町",
    "town_kana": "ウルシハラチョウ",
    "street": null,
    "office_name": null,
    "office_name_kana": null
  },
  "0076": {
    "zip_code": "9160076",
    "prefecture": "福井県",
    "prefecture_kana": "フクイケン",
    "prefecture_code": "18",
    "city": "鯖江市",
    "city_kana": "サバエシ",
    "town": "石生谷町",
    "town_kana": "イショウダニチョウ",
    "street": null,
    "office_name": null,
    "office_name_kana": null
  },
  "0077": {
    "zip_code": "9160077",
    "prefecture": "福井県",
    "prefecture_kana": "フクイケン",
    "prefecture_code": "18",
    "city": "鯖江市",
    "city_kana": "サバエシ",
    "town": "和田町",
    "town_kana": "ワダチョウ",
    "street": null,
    "office_name": null,
    "office_name_kana": null
  },
  "0078": {
    "zip_code": "9160078",
    "prefecture": "福井県",
    "prefecture_kana": "フクイケン",
    "prefecture_code": "18",
    "city": "鯖江市",
    "city_kana": "サバエシ",
    "town": "西大井町",
    "town_kana": "ニシオオイチョウ",
    "street": null,
    "office_name": null,
    "office_name_kana": null
  },
  "0081": {
    "zip_code": "9160081",
    "prefecture": "福井県",
    "prefecture_kana": "フクイケン",
    "prefecture_code": "18",
    "city": "鯖江市",
    "city_kana": "サバエシ",
    "town": "石田下町",
    "town_kana": "イシダシモチョウ",
    "street": null,
    "office_name": null,
    "office_name_kana": null
  },
  "0082": {
    "zip_code": "9160082",
    "prefecture": "福井県",
    "prefecture_kana": "フクイケン",
    "prefecture_code": "18",
    "city": "鯖江市",
    "city_kana": "サバエシ",
    "town": "石田中町",
    "town_kana": "イシダナカチョウ",
    "street": null,
    "office_name": null,
    "office_name_kana": null
  },
  "0083": {
    "zip_code": "9160083",
    "prefecture": "福井県",
    "prefecture_kana": "フクイケン",
    "prefecture_code": "18",
    "city": "鯖江市",
    "city_kana": "サバエシ",
    "town": "石田上町",
    "town_kana": "イシダカミチョウ",
    "street": null,
    "office_name": null,
    "office_name_kana": null
  },
  "0084": {
    "zip_code": "9160084",
    "prefecture": "福井県",
    "prefecture_kana": "フクイケン",
    "prefecture_code": "18",
    "city": "鯖江市",
    "city_kana": "サバエシ",
    "town": "小泉町",
    "town_kana": "コイズミチョウ",
    "street": null,
    "office_name": null,
    "office_name_kana": null
  },
  "0085": {
    "zip_code": "9160085",
    "prefecture": "福井県",
    "prefecture_kana": "フクイケン",
    "prefecture_code": "18",
    "city": "鯖江市",
    "city_kana": "サバエシ",
    "town": "大倉町",
    "town_kana": "オオクラチョウ",
    "street": null,
    "office_name": null,
    "office_name_kana": null
  },
  "0086": {
    "zip_code": "9160086",
    "prefecture": "福井県",
    "prefecture_kana": "フクイケン",
    "prefecture_code": "18",
    "city": "鯖江市",
    "city_kana": "サバエシ",
    "town": "吉田町",
    "town_kana": "ヨシダチョウ",
    "street": null,
    "office_name": null,
    "office_name_kana": null
  },
  "0087": {
    "zip_code": "9160087",
    "prefecture": "福井県",
    "prefecture_kana": "フクイケン",
    "prefecture_code": "18",
    "city": "鯖江市",
    "city_kana": "サバエシ",
    "town": "田村町",
    "town_kana": "タムラチョウ",
    "street": null,
    "office_name": null,
    "office_name_kana": null
  },
  "0088": {
    "zip_code": "9160088",
    "prefecture": "福井県",
    "prefecture_kana": "フクイケン",
    "prefecture_code": "18",
    "city": "鯖江市",
    "city_kana": "サバエシ",
    "town": "川去町",
    "town_kana": "カワサリチョウ",
    "street": null,
    "office_name": null,
    "office_name_kana": null
  },
  "0101": {
    "zip_code": "9160101",
    "prefecture": "福井県",
    "prefecture_kana": "フクイケン",
    "prefecture_code": "18",
    "city": "丹生郡越前町",
    "city_kana": "ニュウグンエチゼンチョウ",
    "town": "天谷",
    "town_kana": "アマダニ",
    "street": null,
    "office_name": null,
    "office_name_kana": null
  },
  "0102": {
    "zip_code": "9160102",
    "prefecture": "福井県",
    "prefecture_kana": "フクイケン",
    "prefecture_code": "18",
    "city": "丹生郡越前町",
    "city_kana": "ニュウグンエチゼンチョウ",
    "town": "真木",
    "town_kana": "マキ",
    "street": null,
    "office_name": null,
    "office_name_kana": null
  },
  "0103": {
    "zip_code": "9160103",
    "prefecture": "福井県",
    "prefecture_kana": "フクイケン",
    "prefecture_code": "18",
    "city": "丹生郡越前町",
    "city_kana": "ニュウグンエチゼンチョウ",
    "town": "杖立",
    "town_kana": "ツエタテ",
    "street": null,
    "office_name": null,
    "office_name_kana": null
  },
  "0104": {
    "zip_code": "9160104",
    "prefecture": "福井県",
    "prefecture_kana": "フクイケン",
    "prefecture_code": "18",
    "city": "丹生郡越前町",
    "city_kana": "ニュウグンエチゼンチョウ",
    "town": "森",
    "town_kana": "モリ",
    "street": null,
    "office_name": null,
    "office_name_kana": null
  },
  "0105": {
    "zip_code": "9160105",
    "prefecture": "福井県",
    "prefecture_kana": "フクイケン",
    "prefecture_code": "18",
    "city": "丹生郡越前町",
    "city_kana": "ニュウグンエチゼンチョウ",
    "town": "清水",
    "town_kana": "ショウズ",
    "street": null,
    "office_name": null,
    "office_name_kana": null
  },
  "0106": {
    "zip_code": "9160106",
    "prefecture": "福井県",
    "prefecture_kana": "フクイケン",
    "prefecture_code": "18",
    "city": "丹生郡越前町",
    "city_kana": "ニュウグンエチゼンチョウ",
    "town": "大玉",
    "town_kana": "イカダマ",
    "street": null,
    "office_name": null,
    "office_name_kana": null
  },
  "0107": {
    "zip_code": "9160107",
    "prefecture": "福井県",
    "prefecture_kana": "フクイケン",
    "prefecture_code": "18",
    "city": "丹生郡越前町",
    "city_kana": "ニュウグンエチゼンチョウ",
    "town": "上糸生",
    "town_kana": "カミイトウ",
    "street": null,
    "office_name": null,
    "office_name_kana": null
  },
  "0108": {
    "zip_code": "9160108",
    "prefecture": "福井県",
    "prefecture_kana": "フクイケン",
    "prefecture_code": "18",
    "city": "丹生郡越前町",
    "city_kana": "ニュウグンエチゼンチョウ",
    "town": "小川",
    "town_kana": "オガワ",
    "street": null,
    "office_name": null,
    "office_name_kana": null
  },
  "0111": {
    "zip_code": "9160111",
    "prefecture": "福井県",
    "prefecture_kana": "フクイケン",
    "prefecture_code": "18",
    "city": "丹生郡越前町",
    "city_kana": "ニュウグンエチゼンチョウ",
    "town": "小倉",
    "town_kana": "オグラ",
    "street": null,
    "office_name": null,
    "office_name_kana": null
  },
  "0112": {
    "zip_code": "9160112",
    "prefecture": "福井県",
    "prefecture_kana": "フクイケン",
    "prefecture_code": "18",
    "city": "丹生郡越前町",
    "city_kana": "ニュウグンエチゼンチョウ",
    "town": "葛野",
    "town_kana": "カズラノ",
    "street": null,
    "office_name": null,
    "office_name_kana": null
  },
  "0113": {
    "zip_code": "9160113",
    "prefecture": "福井県",
    "prefecture_kana": "フクイケン",
    "prefecture_code": "18",
    "city": "丹生郡越前町",
    "city_kana": "ニュウグンエチゼンチョウ",
    "town": "野田",
    "town_kana": "ノダ",
    "street": null,
    "office_name": null,
    "office_name_kana": null
  },
  "0114": {
    "zip_code": "9160114",
    "prefecture": "福井県",
    "prefecture_kana": "フクイケン",
    "prefecture_code": "18",
    "city": "丹生郡越前町",
    "city_kana": "ニュウグンエチゼンチョウ",
    "town": "下糸生",
    "town_kana": "シモイトウ",
    "street": null,
    "office_name": null,
    "office_name_kana": null
  },
  "0115": {
    "zip_code": "9160115",
    "prefecture": "福井県",
    "prefecture_kana": "フクイケン",
    "prefecture_code": "18",
    "city": "丹生郡越前町",
    "city_kana": "ニュウグンエチゼンチョウ",
    "town": "脇",
    "town_kana": "ワキ",
    "street": null,
    "office_name": null,
    "office_name_kana": null
  },
  "0116": {
    "zip_code": "9160116",
    "prefecture": "福井県",
    "prefecture_kana": "フクイケン",
    "prefecture_code": "18",
    "city": "丹生郡越前町",
    "city_kana": "ニュウグンエチゼンチョウ",
    "town": "中野",
    "town_kana": "ナカノ",
    "street": null,
    "office_name": null,
    "office_name_kana": null
  },
  "0117": {
    "zip_code": "9160117",
    "prefecture": "福井県",
    "prefecture_kana": "フクイケン",
    "prefecture_code": "18",
    "city": "丹生郡越前町",
    "city_kana": "ニュウグンエチゼンチョウ",
    "town": "大谷寺",
    "town_kana": "オオタンジ",
    "street": null,
    "office_name": null,
    "office_name_kana": null
  },
  "0121": {
    "zip_code": "9160121",
    "prefecture": "福井県",
    "prefecture_kana": "フクイケン",
    "prefecture_code": "18",
    "city": "丹生郡越前町",
    "city_kana": "ニュウグンエチゼンチョウ",
    "town": "大畑",
    "town_kana": "オオバタ",
    "street": null,
    "office_name": null,
    "office_name_kana": null
  },
  "0122": {
    "zip_code": "9160122",
    "prefecture": "福井県",
    "prefecture_kana": "フクイケン",
    "prefecture_code": "18",
    "city": "丹生郡越前町",
    "city_kana": "ニュウグンエチゼンチョウ",
    "town": "天王",
    "town_kana": "テンノウ",
    "street": null,
    "office_name": null,
    "office_name_kana": null
  },
  "0123": {
    "zip_code": "9160123",
    "prefecture": "福井県",
    "prefecture_kana": "フクイケン",
    "prefecture_code": "18",
    "city": "丹生郡越前町",
    "city_kana": "ニュウグンエチゼンチョウ",
    "town": "天宝",
    "town_kana": "テンポウ",
    "street": null,
    "office_name": null,
    "office_name_kana": null
  },
  "0124": {
    "zip_code": "9160124",
    "prefecture": "福井県",
    "prefecture_kana": "フクイケン",
    "prefecture_code": "18",
    "city": "丹生郡越前町",
    "city_kana": "ニュウグンエチゼンチョウ",
    "town": "宝泉寺",
    "town_kana": "ホウセンジ",
    "street": null,
    "office_name": null,
    "office_name_kana": null
  },
  "0125": {
    "zip_code": "9160125",
    "prefecture": "福井県",
    "prefecture_kana": "フクイケン",
    "prefecture_code": "18",
    "city": "丹生郡越前町",
    "city_kana": "ニュウグンエチゼンチョウ",
    "town": "横山",
    "town_kana": "ヨコヤマ",
    "street": null,
    "office_name": null,
    "office_name_kana": null
  },
  "0126": {
    "zip_code": "9160126",
    "prefecture": "福井県",
    "prefecture_kana": "フクイケン",
    "prefecture_code": "18",
    "city": "丹生郡越前町",
    "city_kana": "ニュウグンエチゼンチョウ",
    "town": "牛越",
    "town_kana": "ウシゴエ",
    "street": null,
    "office_name": null,
    "office_name_kana": null
  },
  "0127": {
    "zip_code": "9160127",
    "prefecture": "福井県",
    "prefecture_kana": "フクイケン",
    "prefecture_code": "18",
    "city": "丹生郡越前町",
    "city_kana": "ニュウグンエチゼンチョウ",
    "town": "野末",
    "town_kana": "ノズエ",
    "street": null,
    "office_name": null,
    "office_name_kana": null
  },
  "0131": {
    "zip_code": "9160131",
    "prefecture": "福井県",
    "prefecture_kana": "フクイケン",
    "prefecture_code": "18",
    "city": "丹生郡越前町",
    "city_kana": "ニュウグンエチゼンチョウ",
    "town": "乙坂",
    "town_kana": "オツサカ",
    "street": null,
    "office_name": null,
    "office_name_kana": null
  },
  "0132": {
    "zip_code": "9160132",
    "prefecture": "福井県",
    "prefecture_kana": "フクイケン",
    "prefecture_code": "18",
    "city": "丹生郡越前町",
    "city_kana": "ニュウグンエチゼンチョウ",
    "town": "田中",
    "town_kana": "タナカ",
    "street": null,
    "office_name": null,
    "office_name_kana": null
  },
  "0133": {
    "zip_code": "9160133",
    "prefecture": "福井県",
    "prefecture_kana": "フクイケン",
    "prefecture_code": "18",
    "city": "丹生郡越前町",
    "city_kana": "ニュウグンエチゼンチョウ",
    "town": "気比庄",
    "town_kana": "キヒショウ",
    "street": null,
    "office_name": null,
    "office_name_kana": null
  },
  "0134": {
    "zip_code": "9160134",
    "prefecture": "福井県",
    "prefecture_kana": "フクイケン",
    "prefecture_code": "18",
    "city": "丹生郡越前町",
    "city_kana": "ニュウグンエチゼンチョウ",
    "town": "新庄",
    "town_kana": "シンショウ",
    "street": null,
    "office_name": null,
    "office_name_kana": null
  },
  "0135": {
    "zip_code": "9160135",
    "prefecture": "福井県",
    "prefecture_kana": "フクイケン",
    "prefecture_code": "18",
    "city": "丹生郡越前町",
    "city_kana": "ニュウグンエチゼンチョウ",
    "town": "市",
    "town_kana": "イチ",
    "street": null,
    "office_name": null,
    "office_name_kana": null
  },
  "0136": {
    "zip_code": "9160136",
    "prefecture": "福井県",
    "prefecture_kana": "フクイケン",
    "prefecture_code": "18",
    "city": "丹生郡越前町",
    "city_kana": "ニュウグンエチゼンチョウ",
    "town": "栃川",
    "town_kana": "トチカワ",
    "street": null,
    "office_name": null,
    "office_name_kana": null
  },
  "0137": {
    "zip_code": "9160137",
    "prefecture": "福井県",
    "prefecture_kana": "フクイケン",
    "prefecture_code": "18",
    "city": "丹生郡越前町",
    "city_kana": "ニュウグンエチゼンチョウ",
    "town": "宮の西団地",
    "town_kana": "ミヤノニシダンチ",
    "street": null,
    "office_name": null,
    "office_name_kana": null
  },
  "0141": {
    "zip_code": "9160141",
    "prefecture": "福井県",
    "prefecture_kana": "フクイケン",
    "prefecture_code": "18",
    "city": "丹生郡越前町",
    "city_kana": "ニュウグンエチゼンチョウ",
    "town": "西田中",
    "town_kana": "ニシタナカ",
    "street": null,
    "office_name": null,
    "office_name_kana": null
  },
  "0142": {
    "zip_code": "9160142",
    "prefecture": "福井県",
    "prefecture_kana": "フクイケン",
    "prefecture_code": "18",
    "city": "丹生郡越前町",
    "city_kana": "ニュウグンエチゼンチョウ",
    "town": "上川去",
    "town_kana": "カミカワサリ",
    "street": null,
    "office_name": null,
    "office_name_kana": null
  },
  "0143": [
    {
      "zip_code": "9160143",
      "prefecture": "福井県",
      "prefecture_kana": "フクイケン",
      "prefecture_code": "18",
      "city": "丹生郡越前町",
      "city_kana": "ニュウグンエチゼンチョウ",
      "town": "宇田",
      "town_kana": "ウダ",
      "street": null,
      "office_name": null,
      "office_name_kana": null
    },
    {
      "zip_code": "9160143",
      "prefecture": "福井県",
      "prefecture_kana": "フクイケン",
      "prefecture_code": "18",
      "city": "丹生郡越前町",
      "city_kana": "ニュウグンエチゼンチョウ",
      "town": "漆本",
      "town_kana": "ウルシモト",
      "street": null,
      "office_name": null,
      "office_name_kana": null
    }
  ],
  "0144": {
    "zip_code": "9160144",
    "prefecture": "福井県",
    "prefecture_kana": "フクイケン",
    "prefecture_code": "18",
    "city": "丹生郡越前町",
    "city_kana": "ニュウグンエチゼンチョウ",
    "town": "佐々生",
    "town_kana": "サソウ",
    "street": null,
    "office_name": null,
    "office_name_kana": null
  },
  "0145": {
    "zip_code": "9160145",
    "prefecture": "福井県",
    "prefecture_kana": "フクイケン",
    "prefecture_code": "18",
    "city": "丹生郡越前町",
    "city_kana": "ニュウグンエチゼンチョウ",
    "town": "岩開",
    "town_kana": "イワカイ",
    "street": null,
    "office_name": null,
    "office_name_kana": null
  },
  "0146": {
    "zip_code": "9160146",
    "prefecture": "福井県",
    "prefecture_kana": "フクイケン",
    "prefecture_code": "18",
    "city": "丹生郡越前町",
    "city_kana": "ニュウグンエチゼンチョウ",
    "town": "朝日",
    "town_kana": "アサヒ",
    "street": null,
    "office_name": null,
    "office_name_kana": null
  },
  "0147": {
    "zip_code": "9160147",
    "prefecture": "福井県",
    "prefecture_kana": "フクイケン",
    "prefecture_code": "18",
    "city": "丹生郡越前町",
    "city_kana": "ニュウグンエチゼンチョウ",
    "town": "内郡",
    "town_kana": "ウチゴオリ",
    "street": null,
    "office_name": null,
    "office_name_kana": null
  },
  "0151": {
    "zip_code": "9160151",
    "prefecture": "福井県",
    "prefecture_kana": "フクイケン",
    "prefecture_code": "18",
    "city": "丹生郡越前町",
    "city_kana": "ニュウグンエチゼンチョウ",
    "town": "金谷",
    "town_kana": "カナヤ",
    "street": null,
    "office_name": null,
    "office_name_kana": null
  },
  "0152": {
    "zip_code": "9160152",
    "prefecture": "福井県",
    "prefecture_kana": "フクイケン",
    "prefecture_code": "18",
    "city": "丹生郡越前町",
    "city_kana": "ニュウグンエチゼンチョウ",
    "town": "青野",
    "town_kana": "アオノ",
    "street": null,
    "office_name": null,
    "office_name_kana": null
  },
  "0153": {
    "zip_code": "9160153",
    "prefecture": "福井県",
    "prefecture_kana": "フクイケン",
    "prefecture_code": "18",
    "city": "丹生郡越前町",
    "city_kana": "ニュウグンエチゼンチョウ",
    "town": "頭谷",
    "town_kana": "カシラダニ",
    "street": null,
    "office_name": null,
    "office_name_kana": null
  },
  "0154": {
    "zip_code": "9160154",
    "prefecture": "福井県",
    "prefecture_kana": "フクイケン",
    "prefecture_code": "18",
    "city": "丹生郡越前町",
    "city_kana": "ニュウグンエチゼンチョウ",
    "town": "境野",
    "town_kana": "サカイノ",
    "street": null,
    "office_name": null,
    "office_name_kana": null
  },
  "0155": {
    "zip_code": "9160155",
    "prefecture": "福井県",
    "prefecture_kana": "フクイケン",
    "prefecture_code": "18",
    "city": "丹生郡越前町",
    "city_kana": "ニュウグンエチゼンチョウ",
    "town": "茱原",
    "town_kana": "グミワラ",
    "street": null,
    "office_name": null,
    "office_name_kana": null
  },
  "0156": {
    "zip_code": "9160156",
    "prefecture": "福井県",
    "prefecture_kana": "フクイケン",
    "prefecture_code": "18",
    "city": "丹生郡越前町",
    "city_kana": "ニュウグンエチゼンチョウ",
    "town": "東内郡",
    "town_kana": "ヒガシウチゴオリ",
    "street": null,
    "office_name": null,
    "office_name_kana": null
  },
  "0192": {
    "zip_code": "9160192",
    "prefecture": "福井県",
    "prefecture_kana": "フクイケン",
    "prefecture_code": "18",
    "city": "丹生郡越前町",
    "city_kana": "ニュウグンエチゼンチョウ",
    "town": "西田中",
    "town_kana": "ニシタナカ",
    "street": "１３−５−１",
    "office_name": "越前町役場",
    "office_name_kana": "エチゼンチヨウヤクバ"
  },
  "0200": {
    "zip_code": "9160200",
    "prefecture": "福井県",
    "prefecture_kana": "フクイケン",
    "prefecture_code": "18",
    "city": "丹生郡越前町",
    "city_kana": "ニュウグンエチゼンチョウ",
    "town": "",
    "town_kana": "",
    "street": null,
    "office_name": null,
    "office_name_kana": null
  },
  "0201": {
    "zip_code": "9160201",
    "prefecture": "福井県",
    "prefecture_kana": "フクイケン",
    "prefecture_code": "18",
    "city": "丹生郡越前町",
    "city_kana": "ニュウグンエチゼンチョウ",
    "town": "入尾",
    "town_kana": "イリオ",
    "street": null,
    "office_name": null,
    "office_name_kana": null
  },
  "0202": {
    "zip_code": "9160202",
    "prefecture": "福井県",
    "prefecture_kana": "フクイケン",
    "prefecture_code": "18",
    "city": "丹生郡越前町",
    "city_kana": "ニュウグンエチゼンチョウ",
    "town": "細野",
    "town_kana": "ホソノ",
    "street": null,
    "office_name": null,
    "office_name_kana": null
  },
  "0203": {
    "zip_code": "9160203",
    "prefecture": "福井県",
    "prefecture_kana": "フクイケン",
    "prefecture_code": "18",
    "city": "丹生郡越前町",
    "city_kana": "ニュウグンエチゼンチョウ",
    "town": "山田",
    "town_kana": "ヤマダ",
    "street": null,
    "office_name": null,
    "office_name_kana": null
  },
  "0204": {
    "zip_code": "9160204",
    "prefecture": "福井県",
    "prefecture_kana": "フクイケン",
    "prefecture_code": "18",
    "city": "丹生郡越前町",
    "city_kana": "ニュウグンエチゼンチョウ",
    "town": "中",
    "town_kana": "ナカ",
    "street": null,
    "office_name": null,
    "office_name_kana": null
  },
  "0205": {
    "zip_code": "9160205",
    "prefecture": "福井県",
    "prefecture_kana": "フクイケン",
    "prefecture_code": "18",
    "city": "丹生郡越前町",
    "city_kana": "ニュウグンエチゼンチョウ",
    "town": "赤井谷",
    "town_kana": "アカイダニ",
    "street": null,
    "office_name": null,
    "office_name_kana": null
  },
  "0206": {
    "zip_code": "9160206",
    "prefecture": "福井県",
    "prefecture_kana": "フクイケン",
    "prefecture_code": "18",
    "city": "丹生郡越前町",
    "city_kana": "ニュウグンエチゼンチョウ",
    "town": "笈松",
    "town_kana": "オイマツ",
    "street": null,
    "office_name": null,
    "office_name_kana": null
  },
  "0211": {
    "zip_code": "9160211",
    "prefecture": "福井県",
    "prefecture_kana": "フクイケン",
    "prefecture_code": "18",
    "city": "丹生郡越前町",
    "city_kana": "ニュウグンエチゼンチョウ",
    "town": "笹川",
    "town_kana": "ササガワ",
    "street": null,
    "office_name": null,
    "office_name_kana": null
  },
  "0212": {
    "zip_code": "9160212",
    "prefecture": "福井県",
    "prefecture_kana": "フクイケン",
    "prefecture_code": "18",
    "city": "丹生郡越前町",
    "city_kana": "ニュウグンエチゼンチョウ",
    "town": "岩倉",
    "town_kana": "イワクラ",
    "street": null,
    "office_name": null,
    "office_name_kana": null
  },
  "0213": {
    "zip_code": "9160213",
    "prefecture": "福井県",
    "prefecture_kana": "フクイケン",
    "prefecture_code": "18",
    "city": "丹生郡越前町",
    "city_kana": "ニュウグンエチゼンチョウ",
    "town": "桜谷",
    "town_kana": "サクラダニ",
    "street": null,
    "office_name": null,
    "office_name_kana": null
  },
  "0214": {
    "zip_code": "9160214",
    "prefecture": "福井県",
    "prefecture_kana": "フクイケン",
    "prefecture_code": "18",
    "city": "丹生郡越前町",
    "city_kana": "ニュウグンエチゼンチョウ",
    "town": "上戸",
    "town_kana": "ウワド",
    "street": null,
    "office_name": null,
    "office_name_kana": null
  },
  "0215": {
    "zip_code": "9160215",
    "prefecture": "福井県",
    "prefecture_kana": "フクイケン",
    "prefecture_code": "18",
    "city": "丹生郡越前町",
    "city_kana": "ニュウグンエチゼンチョウ",
    "town": "織田",
    "town_kana": "オタ",
    "street": null,
    "office_name": null,
    "office_name_kana": null
  },
  "0216": {
    "zip_code": "9160216",
    "prefecture": "福井県",
    "prefecture_kana": "フクイケン",
    "prefecture_code": "18",
    "city": "丹生郡越前町",
    "city_kana": "ニュウグンエチゼンチョウ",
    "town": "打越",
    "town_kana": "ウチコシ",
    "street": null,
    "office_name": null,
    "office_name_kana": null
  },
  "0217": {
    "zip_code": "9160217",
    "prefecture": "福井県",
    "prefecture_kana": "フクイケン",
    "prefecture_code": "18",
    "city": "丹生郡越前町",
    "city_kana": "ニュウグンエチゼンチョウ",
    "town": "丸山",
    "town_kana": "マルヤマ",
    "street": null,
    "office_name": null,
    "office_name_kana": null
  },
  "0218": {
    "zip_code": "9160218",
    "prefecture": "福井県",
    "prefecture_kana": "フクイケン",
    "prefecture_code": "18",
    "city": "丹生郡越前町",
    "city_kana": "ニュウグンエチゼンチョウ",
    "town": "萩野",
    "town_kana": "ハギノ",
    "street": null,
    "office_name": null,
    "office_name_kana": null
  },
  "0219": {
    "zip_code": "9160219",
    "prefecture": "福井県",
    "prefecture_kana": "フクイケン",
    "prefecture_code": "18",
    "city": "丹生郡越前町",
    "city_kana": "ニュウグンエチゼンチョウ",
    "town": "西ケ丘",
    "town_kana": "ニシガオカ",
    "street": null,
    "office_name": null,
    "office_name_kana": null
  },
  "0221": {
    "zip_code": "9160221",
    "prefecture": "福井県",
    "prefecture_kana": "フクイケン",
    "prefecture_code": "18",
    "city": "丹生郡越前町",
    "city_kana": "ニュウグンエチゼンチョウ",
    "town": "三崎",
    "town_kana": "ミサキ",
    "street": null,
    "office_name": null,
    "office_name_kana": null
  },
  "0222": {
    "zip_code": "9160222",
    "prefecture": "福井県",
    "prefecture_kana": "フクイケン",
    "prefecture_code": "18",
    "city": "丹生郡越前町",
    "city_kana": "ニュウグンエチゼンチョウ",
    "town": "大王丸",
    "town_kana": "ダイオウマル",
    "street": null,
    "office_name": null,
    "office_name_kana": null
  },
  "0223": {
    "zip_code": "9160223",
    "prefecture": "福井県",
    "prefecture_kana": "フクイケン",
    "prefecture_code": "18",
    "city": "丹生郡越前町",
    "city_kana": "ニュウグンエチゼンチョウ",
    "town": "下河原",
    "town_kana": "シモガワラ",
    "street": null,
    "office_name": null,
    "office_name_kana": null
  },
  "0224": {
    "zip_code": "9160224",
    "prefecture": "福井県",
    "prefecture_kana": "フクイケン",
    "prefecture_code": "18",
    "city": "丹生郡越前町",
    "city_kana": "ニュウグンエチゼンチョウ",
    "town": "平等",
    "town_kana": "タイラ",
    "street": null,
    "office_name": null,
    "office_name_kana": null
  },
  "0225": {
    "zip_code": "9160225",
    "prefecture": "福井県",
    "prefecture_kana": "フクイケン",
    "prefecture_code": "18",
    "city": "丹生郡越前町",
    "city_kana": "ニュウグンエチゼンチョウ",
    "town": "上山中",
    "town_kana": "カミヤマナカ",
    "street": null,
    "office_name": null,
    "office_name_kana": null
  },
  "0226": {
    "zip_code": "9160226",
    "prefecture": "福井県",
    "prefecture_kana": "フクイケン",
    "prefecture_code": "18",
    "city": "丹生郡越前町",
    "city_kana": "ニュウグンエチゼンチョウ",
    "town": "下山中",
    "town_kana": "シモヤマナカ",
    "street": null,
    "office_name": null,
    "office_name_kana": null
  },
  "0227": {
    "zip_code": "9160227",
    "prefecture": "福井県",
    "prefecture_kana": "フクイケン",
    "prefecture_code": "18",
    "city": "丹生郡越前町",
    "city_kana": "ニュウグンエチゼンチョウ",
    "town": "四ツ杉",
    "town_kana": "ヨツスギ",
    "street": null,
    "office_name": null,
    "office_name_kana": null
  },
  "0251": {
    "zip_code": "9160251",
    "prefecture": "福井県",
    "prefecture_kana": "フクイケン",
    "prefecture_code": "18",
    "city": "丹生郡越前町",
    "city_kana": "ニュウグンエチゼンチョウ",
    "town": "大谷",
    "town_kana": "オオタニ",
    "street": null,
    "office_name": null,
    "office_name_kana": null
  },
  "0252": {
    "zip_code": "9160252",
    "prefecture": "福井県",
    "prefecture_kana": "フクイケン",
    "prefecture_code": "18",
    "city": "丹生郡越前町",
    "city_kana": "ニュウグンエチゼンチョウ",
    "town": "蝉口",
    "town_kana": "セミグチ",
    "street": null,
    "office_name": null,
    "office_name_kana": null
  },
  "0253": {
    "zip_code": "9160253",
    "prefecture": "福井県",
    "prefecture_kana": "フクイケン",
    "prefecture_code": "18",
    "city": "丹生郡越前町",
    "city_kana": "ニュウグンエチゼンチョウ",
    "town": "蚊谷寺",
    "town_kana": "カダンジ",
    "street": null,
    "office_name": null,
    "office_name_kana": null
  },
  "0254": {
    "zip_code": "9160254",
    "prefecture": "福井県",
    "prefecture_kana": "フクイケン",
    "prefecture_code": "18",
    "city": "丹生郡越前町",
    "city_kana": "ニュウグンエチゼンチョウ",
    "town": "広野",
    "town_kana": "ヒロノ",
    "street": null,
    "office_name": null,
    "office_name_kana": null
  },
  "0255": {
    "zip_code": "9160255",
    "prefecture": "福井県",
    "prefecture_kana": "フクイケン",
    "prefecture_code": "18",
    "city": "丹生郡越前町",
    "city_kana": "ニュウグンエチゼンチョウ",
    "town": "江波",
    "town_kana": "エナミ",
    "street": null,
    "office_name": null,
    "office_name_kana": null
  },
  "0261": {
    "zip_code": "9160261",
    "prefecture": "福井県",
    "prefecture_kana": "フクイケン",
    "prefecture_code": "18",
    "city": "丹生郡越前町",
    "city_kana": "ニュウグンエチゼンチョウ",
    "town": "野",
    "town_kana": "ノ",
    "street": null,
    "office_name": null,
    "office_name_kana": null
  },
  "0262": {
    "zip_code": "9160262",
    "prefecture": "福井県",
    "prefecture_kana": "フクイケン",
    "prefecture_code": "18",
    "city": "丹生郡越前町",
    "city_kana": "ニュウグンエチゼンチョウ",
    "town": "宇須尾",
    "town_kana": "ウスオ",
    "street": null,
    "office_name": null,
    "office_name_kana": null
  },
  "0263": {
    "zip_code": "9160263",
    "prefecture": "福井県",
    "prefecture_kana": "フクイケン",
    "prefecture_code": "18",
    "city": "丹生郡越前町",
    "city_kana": "ニュウグンエチゼンチョウ",
    "town": "円満",
    "town_kana": "エンマ",
    "street": null,
    "office_name": null,
    "office_name_kana": null
  },
  "0264": {
    "zip_code": "9160264",
    "prefecture": "福井県",
    "prefecture_kana": "フクイケン",
    "prefecture_code": "18",
    "city": "丹生郡越前町",
    "city_kana": "ニュウグンエチゼンチョウ",
    "town": "八田",
    "town_kana": "ハッタ",
    "street": null,
    "office_name": null,
    "office_name_kana": null
  },
  "0265": {
    "zip_code": "9160265",
    "prefecture": "福井県",
    "prefecture_kana": "フクイケン",
    "prefecture_code": "18",
    "city": "丹生郡越前町",
    "city_kana": "ニュウグンエチゼンチョウ",
    "town": "八田新保",
    "town_kana": "ハッタシンボ",
    "street": null,
    "office_name": null,
    "office_name_kana": null
  },
  "0266": {
    "zip_code": "9160266",
    "prefecture": "福井県",
    "prefecture_kana": "フクイケン",
    "prefecture_code": "18",
    "city": "丹生郡越前町",
    "city_kana": "ニュウグンエチゼンチョウ",
    "town": "寺",
    "town_kana": "テラ",
    "street": null,
    "office_name": null,
    "office_name_kana": null
  },
  "0267": {
    "zip_code": "9160267",
    "prefecture": "福井県",
    "prefecture_kana": "フクイケン",
    "prefecture_code": "18",
    "city": "丹生郡越前町",
    "city_kana": "ニュウグンエチゼンチョウ",
    "town": "上野",
    "town_kana": "ウワノ",
    "street": null,
    "office_name": null,
    "office_name_kana": null
  },
  "0268": {
    "zip_code": "9160268",
    "prefecture": "福井県",
    "prefecture_kana": "フクイケン",
    "prefecture_code": "18",
    "city": "丹生郡越前町",
    "city_kana": "ニュウグンエチゼンチョウ",
    "town": "陶の谷",
    "town_kana": "スエノタニ",
    "street": null,
    "office_name": null,
    "office_name_kana": null
  },
  "0271": {
    "zip_code": "9160271",
    "prefecture": "福井県",
    "prefecture_kana": "フクイケン",
    "prefecture_code": "18",
    "city": "丹生郡越前町",
    "city_kana": "ニュウグンエチゼンチョウ",
    "town": "舟場",
    "town_kana": "フナバ",
    "street": null,
    "office_name": null,
    "office_name_kana": null
  },
  "0272": {
    "zip_code": "9160272",
    "prefecture": "福井県",
    "prefecture_kana": "フクイケン",
    "prefecture_code": "18",
    "city": "丹生郡越前町",
    "city_kana": "ニュウグンエチゼンチョウ",
    "town": "樫津",
    "town_kana": "カシヅ",
    "street": null,
    "office_name": null,
    "office_name_kana": null
  },
  "0273": {
    "zip_code": "9160273",
    "prefecture": "福井県",
    "prefecture_kana": "フクイケン",
    "prefecture_code": "18",
    "city": "丹生郡越前町",
    "city_kana": "ニュウグンエチゼンチョウ",
    "town": "小曽原",
    "town_kana": "オゾワラ",
    "street": null,
    "office_name": null,
    "office_name_kana": null
  },
  "0274": {
    "zip_code": "9160274",
    "prefecture": "福井県",
    "prefecture_kana": "フクイケン",
    "prefecture_code": "18",
    "city": "丹生郡越前町",
    "city_kana": "ニュウグンエチゼンチョウ",
    "town": "増谷",
    "town_kana": "マスタニ",
    "street": null,
    "office_name": null,
    "office_name_kana": null
  },
  "0275": {
    "zip_code": "9160275",
    "prefecture": "福井県",
    "prefecture_kana": "フクイケン",
    "prefecture_code": "18",
    "city": "丹生郡越前町",
    "city_kana": "ニュウグンエチゼンチョウ",
    "town": "熊谷",
    "town_kana": "クマダニ",
    "street": null,
    "office_name": null,
    "office_name_kana": null
  },
  "0276": {
    "zip_code": "9160276",
    "prefecture": "福井県",
    "prefecture_kana": "フクイケン",
    "prefecture_code": "18",
    "city": "丹生郡越前町",
    "city_kana": "ニュウグンエチゼンチョウ",
    "town": "古屋",
    "town_kana": "フルヤ",
    "street": null,
    "office_name": null,
    "office_name_kana": null
  },
  "0292": {
    "zip_code": "9160292",
    "prefecture": "福井県",
    "prefecture_kana": "フクイケン",
    "prefecture_code": "18",
    "city": "丹生郡越前町",
    "city_kana": "ニュウグンエチゼンチョウ",
    "town": "織田",
    "town_kana": "オタ",
    "street": "３６−１",
    "office_name": "越前町役場織田総合事務所",
    "office_name_kana": "エチゼンチヨウヤクバ オタソウゴウジムシヨ"
  },
  "0293": {
    "zip_code": "9160293",
    "prefecture": "福井県",
    "prefecture_kana": "フクイケン",
    "prefecture_code": "18",
    "city": "丹生郡越前町",
    "city_kana": "ニュウグンエチゼンチョウ",
    "town": "江波",
    "town_kana": "エナミ",
    "street": "５０−８０−１",
    "office_name": "越前町役場宮崎総合事務所",
    "office_name_kana": "エチゼンチヨウヤクバ ミヤザキソウゴウジムシヨ"
  },
  "0295": {
    "zip_code": "9160295",
    "prefecture": "福井県",
    "prefecture_kana": "フクイケン",
    "prefecture_code": "18",
    "city": "丹生郡越前町",
    "city_kana": "ニュウグンエチゼンチョウ",
    "town": "小曽原",
    "town_kana": "オゾワラ",
    "street": "１１８号字向北谷１００番地",
    "office_name": "株式会社　福井村田製作所　宮崎工場",
    "office_name_kana": "カブシキガイシヤ フクイムラタセイサクシヨ ミヤザキコウジヨウ"
  },
  "0301": {
    "zip_code": "9160301",
    "prefecture": "福井県",
    "prefecture_kana": "フクイケン",
    "prefecture_code": "18",
    "city": "丹生郡越前町",
    "city_kana": "ニュウグンエチゼンチョウ",
    "town": "梨子ケ平",
    "town_kana": "ナシガダイラ",
    "street": null,
    "office_name": null,
    "office_name_kana": null
  },
  "0302": {
    "zip_code": "9160302",
    "prefecture": "福井県",
    "prefecture_kana": "フクイケン",
    "prefecture_code": "18",
    "city": "丹生郡越前町",
    "city_kana": "ニュウグンエチゼンチョウ",
    "town": "左右",
    "town_kana": "ソウ",
    "street": null,
    "office_name": null,
    "office_name_kana": null
  },
  "0303": {
    "zip_code": "9160303",
    "prefecture": "福井県",
    "prefecture_kana": "フクイケン",
    "prefecture_code": "18",
    "city": "丹生郡越前町",
    "city_kana": "ニュウグンエチゼンチョウ",
    "town": "血ケ平",
    "town_kana": "チガダイラ",
    "street": null,
    "office_name": null,
    "office_name_kana": null
  },
  "0304": {
    "zip_code": "9160304",
    "prefecture": "福井県",
    "prefecture_kana": "フクイケン",
    "prefecture_code": "18",
    "city": "丹生郡越前町",
    "city_kana": "ニュウグンエチゼンチョウ",
    "town": "玉川",
    "town_kana": "タマガワ",
    "street": null,
    "office_name": null,
    "office_name_kana": null
  },
  "0311": {
    "zip_code": "9160311",
    "prefecture": "福井県",
    "prefecture_kana": "フクイケン",
    "prefecture_code": "18",
    "city": "丹生郡越前町",
    "city_kana": "ニュウグンエチゼンチョウ",
    "town": "梅浦",
    "town_kana": "ウメウラ",
    "street": null,
    "office_name": null,
    "office_name_kana": null
  },
  "0312": {
    "zip_code": "9160312",
    "prefecture": "福井県",
    "prefecture_kana": "フクイケン",
    "prefecture_code": "18",
    "city": "丹生郡越前町",
    "city_kana": "ニュウグンエチゼンチョウ",
    "town": "宿",
    "town_kana": "シュク",
    "street": null,
    "office_name": null,
    "office_name_kana": null
  },
  "0313": {
    "zip_code": "9160313",
    "prefecture": "福井県",
    "prefecture_kana": "フクイケン",
    "prefecture_code": "18",
    "city": "丹生郡越前町",
    "city_kana": "ニュウグンエチゼンチョウ",
    "town": "新保",
    "town_kana": "シンボ",
    "street": null,
    "office_name": null,
    "office_name_kana": null
  },
  "0314": {
    "zip_code": "9160314",
    "prefecture": "福井県",
    "prefecture_kana": "フクイケン",
    "prefecture_code": "18",
    "city": "丹生郡越前町",
    "city_kana": "ニュウグンエチゼンチョウ",
    "town": "城ケ谷",
    "town_kana": "ジョウガタニ",
    "street": null,
    "office_name": null,
    "office_name_kana": null
  },
  "0315": {
    "zip_code": "9160315",
    "prefecture": "福井県",
    "prefecture_kana": "フクイケン",
    "prefecture_code": "18",
    "city": "丹生郡越前町",
    "city_kana": "ニュウグンエチゼンチョウ",
    "town": "小樟",
    "town_kana": "ココノギ",
    "street": null,
    "office_name": null,
    "office_name_kana": null
  },
  "0316": {
    "zip_code": "9160316",
    "prefecture": "福井県",
    "prefecture_kana": "フクイケン",
    "prefecture_code": "18",
    "city": "丹生郡越前町",
    "city_kana": "ニュウグンエチゼンチョウ",
    "town": "大樟",
    "town_kana": "オコノギ",
    "street": null,
    "office_name": null,
    "office_name_kana": null
  },
  "0421": {
    "zip_code": "9160421",
    "prefecture": "福井県",
    "prefecture_kana": "フクイケン",
    "prefecture_code": "18",
    "city": "丹生郡越前町",
    "city_kana": "ニュウグンエチゼンチョウ",
    "town": "道口",
    "town_kana": "ミチグチ",
    "street": null,
    "office_name": null,
    "office_name_kana": null
  },
  "0422": {
    "zip_code": "9160422",
    "prefecture": "福井県",
    "prefecture_kana": "フクイケン",
    "prefecture_code": "18",
    "city": "丹生郡越前町",
    "city_kana": "ニュウグンエチゼンチョウ",
    "town": "厨",
    "town_kana": "クリヤ",
    "street": null,
    "office_name": null,
    "office_name_kana": null
  },
  "0423": {
    "zip_code": "9160423",
    "prefecture": "福井県",
    "prefecture_kana": "フクイケン",
    "prefecture_code": "18",
    "city": "丹生郡越前町",
    "city_kana": "ニュウグンエチゼンチョウ",
    "town": "茂原",
    "town_kana": "モハラ",
    "street": null,
    "office_name": null,
    "office_name_kana": null
  },
  "0424": {
    "zip_code": "9160424",
    "prefecture": "福井県",
    "prefecture_kana": "フクイケン",
    "prefecture_code": "18",
    "city": "丹生郡越前町",
    "city_kana": "ニュウグンエチゼンチョウ",
    "town": "白浜",
    "town_kana": "シラハマ",
    "street": null,
    "office_name": null,
    "office_name_kana": null
  },
  "0425": {
    "zip_code": "9160425",
    "prefecture": "福井県",
    "prefecture_kana": "フクイケン",
    "prefecture_code": "18",
    "city": "丹生郡越前町",
    "city_kana": "ニュウグンエチゼンチョウ",
    "town": "高佐",
    "town_kana": "タカサ",
    "street": null,
    "office_name": null,
    "office_name_kana": null
  },
  "0426": {
    "zip_code": "9160426",
    "prefecture": "福井県",
    "prefecture_kana": "フクイケン",
    "prefecture_code": "18",
    "city": "丹生郡越前町",
    "city_kana": "ニュウグンエチゼンチョウ",
    "town": "米ノ",
    "town_kana": "コメノ",
    "street": null,
    "office_name": null,
    "office_name_kana": null
  },
  "0427": {
    "zip_code": "9160427",
    "prefecture": "福井県",
    "prefecture_kana": "フクイケン",
    "prefecture_code": "18",
    "city": "丹生郡越前町",
    "city_kana": "ニュウグンエチゼンチョウ",
    "town": "六呂師",
    "town_kana": "ロクロシ",
    "street": null,
    "office_name": null,
    "office_name_kana": null
  },
  "0428": {
    "zip_code": "9160428",
    "prefecture": "福井県",
    "prefecture_kana": "フクイケン",
    "prefecture_code": "18",
    "city": "丹生郡越前町",
    "city_kana": "ニュウグンエチゼンチョウ",
    "town": "午房ケ平",
    "town_kana": "ゴボウガダイラ",
    "street": null,
    "office_name": null,
    "office_name_kana": null
  },
  "0492": {
    "zip_code": "9160492",
    "prefecture": "福井県",
    "prefecture_kana": "フクイケン",
    "prefecture_code": "18",
    "city": "丹生郡越前町",
    "city_kana": "ニュウグンエチゼンチョウ",
    "town": "道口",
    "town_kana": "ミチグチ",
    "street": "１−２４−１",
    "office_name": "越前町役場　越前総合事務所",
    "office_name_kana": "エチゼンチヨウヤクバ エチゼンソウゴウジムシヨ"
  },
  "1101": {
    "zip_code": "9161101",
    "prefecture": "福井県",
    "prefecture_kana": "フクイケン",
    "prefecture_code": "18",
    "city": "鯖江市",
    "city_kana": "サバエシ",
    "town": "大正寺町",
    "town_kana": "ダイショウジチョウ",
    "street": null,
    "office_name": null,
    "office_name_kana": null
  },
  "1102": {
    "zip_code": "9161102",
    "prefecture": "福井県",
    "prefecture_kana": "フクイケン",
    "prefecture_code": "18",
    "city": "鯖江市",
    "city_kana": "サバエシ",
    "town": "大野町",
    "town_kana": "オオノチョウ",
    "street": null,
    "office_name": null,
    "office_name_kana": null
  },
  "1103": {
    "zip_code": "9161103",
    "prefecture": "福井県",
    "prefecture_kana": "フクイケン",
    "prefecture_code": "18",
    "city": "鯖江市",
    "city_kana": "サバエシ",
    "town": "別所町",
    "town_kana": "ベッショチョウ",
    "street": null,
    "office_name": null,
    "office_name_kana": null
  },
  "1104": {
    "zip_code": "9161104",
    "prefecture": "福井県",
    "prefecture_kana": "フクイケン",
    "prefecture_code": "18",
    "city": "鯖江市",
    "city_kana": "サバエシ",
    "town": "乙坂今北町",
    "town_kana": "オツサカコンボクチョウ",
    "street": null,
    "office_name": null,
    "office_name_kana": null
  },
  "1105": {
    "zip_code": "9161105",
    "prefecture": "福井県",
    "prefecture_kana": "フクイケン",
    "prefecture_code": "18",
    "city": "鯖江市",
    "city_kana": "サバエシ",
    "town": "吉谷町",
    "town_kana": "ヨシタニチョウ",
    "street": null,
    "office_name": null,
    "office_name_kana": null
  },
  "1106": {
    "zip_code": "9161106",
    "prefecture": "福井県",
    "prefecture_kana": "フクイケン",
    "prefecture_code": "18",
    "city": "鯖江市",
    "city_kana": "サバエシ",
    "town": "四方谷町",
    "town_kana": "シホウダニチョウ",
    "street": null,
    "office_name": null,
    "office_name_kana": null
  },
  "1107": {
    "zip_code": "9161107",
    "prefecture": "福井県",
    "prefecture_kana": "フクイケン",
    "prefecture_code": "18",
    "city": "鯖江市",
    "city_kana": "サバエシ",
    "town": "南井町",
    "town_kana": "ナオイチョウ",
    "street": null,
    "office_name": null,
    "office_name_kana": null
  },
  "1111": {
    "zip_code": "9161111",
    "prefecture": "福井県",
    "prefecture_kana": "フクイケン",
    "prefecture_code": "18",
    "city": "鯖江市",
    "city_kana": "サバエシ",
    "town": "上戸口町",
    "town_kana": "カミトノクチチョウ",
    "street": null,
    "office_name": null,
    "office_name_kana": null
  },
  "1112": {
    "zip_code": "9161112",
    "prefecture": "福井県",
    "prefecture_kana": "フクイケン",
    "prefecture_code": "18",
    "city": "鯖江市",
    "city_kana": "サバエシ",
    "town": "中戸口町",
    "town_kana": "ナカトノクチチョウ",
    "street": null,
    "office_name": null,
    "office_name_kana": null
  },
  "1113": {
    "zip_code": "9161113",
    "prefecture": "福井県",
    "prefecture_kana": "フクイケン",
    "prefecture_code": "18",
    "city": "鯖江市",
    "city_kana": "サバエシ",
    "town": "戸口町",
    "town_kana": "トノクチチョウ",
    "street": null,
    "office_name": null,
    "office_name_kana": null
  },
  "1114": {
    "zip_code": "9161114",
    "prefecture": "福井県",
    "prefecture_kana": "フクイケン",
    "prefecture_code": "18",
    "city": "鯖江市",
    "city_kana": "サバエシ",
    "town": "磯部町",
    "town_kana": "イソベチョウ",
    "street": null,
    "office_name": null,
    "office_name_kana": null
  },
  "1115": {
    "zip_code": "9161115",
    "prefecture": "福井県",
    "prefecture_kana": "フクイケン",
    "prefecture_code": "18",
    "city": "鯖江市",
    "city_kana": "サバエシ",
    "town": "落井町",
    "town_kana": "オチイチョウ",
    "street": null,
    "office_name": null,
    "office_name_kana": null
  },
  "1116": {
    "zip_code": "9161116",
    "prefecture": "福井県",
    "prefecture_kana": "フクイケン",
    "prefecture_code": "18",
    "city": "鯖江市",
    "city_kana": "サバエシ",
    "town": "川島町",
    "town_kana": "カワシマチョウ",
    "street": null,
    "office_name": null,
    "office_name_kana": null
  },
  "1118": {
    "zip_code": "9161118",
    "prefecture": "福井県",
    "prefecture_kana": "フクイケン",
    "prefecture_code": "18",
    "city": "鯖江市",
    "city_kana": "サバエシ",
    "town": "松成町",
    "town_kana": "マツナリチョウ",
    "street": null,
    "office_name": null,
    "office_name_kana": null
  },
  "1133": {
    "zip_code": "9161133",
    "prefecture": "福井県",
    "prefecture_kana": "フクイケン",
    "prefecture_code": "18",
    "city": "鯖江市",
    "city_kana": "サバエシ",
    "town": "中野松成",
    "town_kana": "ナカノマツナリ",
    "street": null,
    "office_name": null,
    "office_name_kana": null
  },
  "1198": {
    "zip_code": "9161198",
    "prefecture": "福井県",
    "prefecture_kana": "フクイケン",
    "prefecture_code": "18",
    "city": "鯖江市",
    "city_kana": "サバエシ",
    "town": "戸口町",
    "town_kana": "トノクチチョウ",
    "street": "２４−２３",
    "office_name": "株式会社　福井クラフト",
    "office_name_kana": "カブシキガイシヤ フクイクラフト"
  },
  "1221": {
    "zip_code": "9161221",
    "prefecture": "福井県",
    "prefecture_kana": "フクイケン",
    "prefecture_code": "18",
    "city": "鯖江市",
    "city_kana": "サバエシ",
    "town": "西袋町",
    "town_kana": "ニシブクロチョウ",
    "street": null,
    "office_name": null,
    "office_name_kana": null
  },
  "1222": {
    "zip_code": "9161222",
    "prefecture": "福井県",
    "prefecture_kana": "フクイケン",
    "prefecture_code": "18",
    "city": "鯖江市",
    "city_kana": "サバエシ",
    "town": "河和田町",
    "town_kana": "カワダチョウ",
    "street": null,
    "office_name": null,
    "office_name_kana": null
  },
  "1223": {
    "zip_code": "9161223",
    "prefecture": "福井県",
    "prefecture_kana": "フクイケン",
    "prefecture_code": "18",
    "city": "鯖江市",
    "city_kana": "サバエシ",
    "town": "片山町",
    "town_kana": "カタヤマチョウ",
    "street": null,
    "office_name": null,
    "office_name_kana": null
  },
  "1224": {
    "zip_code": "9161224",
    "prefecture": "福井県",
    "prefecture_kana": "フクイケン",
    "prefecture_code": "18",
    "city": "鯖江市",
    "city_kana": "サバエシ",
    "town": "莇生田町",
    "town_kana": "アゾウダチョウ",
    "street": null,
    "office_name": null,
    "office_name_kana": null
  },
  "1225": {
    "zip_code": "9161225",
    "prefecture": "福井県",
    "prefecture_kana": "フクイケン",
    "prefecture_code": "18",
    "city": "鯖江市",
    "city_kana": "サバエシ",
    "town": "別司町",
    "town_kana": "ベッシチョウ",
    "street": null,
    "office_name": null,
    "office_name_kana": null
  },
  "1231": {
    "zip_code": "9161231",
    "prefecture": "福井県",
    "prefecture_kana": "フクイケン",
    "prefecture_code": "18",
    "city": "鯖江市",
    "city_kana": "サバエシ",
    "town": "金谷町",
    "town_kana": "カナダニチョウ",
    "street": null,
    "office_name": null,
    "office_name_kana": null
  },
  "1232": {
    "zip_code": "9161232",
    "prefecture": "福井県",
    "prefecture_kana": "フクイケン",
    "prefecture_code": "18",
    "city": "鯖江市",
    "city_kana": "サバエシ",
    "town": "寺中町",
    "town_kana": "ジチュウチョウ",
    "street": null,
    "office_name": null,
    "office_name_kana": null
  },
  "1233": {
    "zip_code": "9161233",
    "prefecture": "福井県",
    "prefecture_kana": "フクイケン",
    "prefecture_code": "18",
    "city": "鯖江市",
    "city_kana": "サバエシ",
    "town": "尾花町",
    "town_kana": "オバナチョウ",
    "street": null,
    "office_name": null,
    "office_name_kana": null
  },
  "1234": {
    "zip_code": "9161234",
    "prefecture": "福井県",
    "prefecture_kana": "フクイケン",
    "prefecture_code": "18",
    "city": "鯖江市",
    "city_kana": "サバエシ",
    "town": "沢町",
    "town_kana": "サワチョウ",
    "street": null,
    "office_name": null,
    "office_name_kana": null
  },
  "1235": {
    "zip_code": "9161235",
    "prefecture": "福井県",
    "prefecture_kana": "フクイケン",
    "prefecture_code": "18",
    "city": "鯖江市",
    "city_kana": "サバエシ",
    "town": "上河内町",
    "town_kana": "カミコウチチョウ",
    "street": null,
    "office_name": null,
    "office_name_kana": null
  },
  "1236": {
    "zip_code": "9161236",
    "prefecture": "福井県",
    "prefecture_kana": "フクイケン",
    "prefecture_code": "18",
    "city": "鯖江市",
    "city_kana": "サバエシ",
    "town": "東清水町",
    "town_kana": "ヒガシシミズチョウ",
    "street": null,
    "office_name": null,
    "office_name_kana": null
  },
  "1237": {
    "zip_code": "9161237",
    "prefecture": "福井県",
    "prefecture_kana": "フクイケン",
    "prefecture_code": "18",
    "city": "鯖江市",
    "city_kana": "サバエシ",
    "town": "北中町",
    "town_kana": "キタナカチョウ",
    "street": null,
    "office_name": null,
    "office_name_kana": null
  },
  "8501": {
    "zip_code": "9168501",
    "prefecture": "福井県",
    "prefecture_kana": "フクイケン",
    "prefecture_code": "18",
    "city": "鯖江市",
    "city_kana": "サバエシ",
    "town": "上河端町",
    "town_kana": "カミコウバタチョウ",
    "street": "１８−６",
    "office_name": "福井丹南農業協同組合　本店",
    "office_name_kana": "フクイタンナンノウギヨウキヨウドウクミアイ ホンテン"
  },
  "8505": {
    "zip_code": "9168505",
    "prefecture": "福井県",
    "prefecture_kana": "フクイケン",
    "prefecture_code": "18",
    "city": "鯖江市",
    "city_kana": "サバエシ",
    "town": "神中町",
    "town_kana": "カミナカチョウ",
    "street": "２丁目３−３０",
    "office_name": "青山眼鏡　株式会社",
    "office_name_kana": "アオヤマガンキヨウ カブシキガイシヤ"
  },
  "8507": {
    "zip_code": "9168507",
    "prefecture": "福井県",
    "prefecture_kana": "フクイケン",
    "prefecture_code": "18",
    "city": "鯖江市",
    "city_kana": "サバエシ",
    "town": "下司町",
    "town_kana": "ゲシチョウ",
    "street": "１６−１",
    "office_name": "福井工業高等専門学校",
    "office_name_kana": "フクイコウギヨウコウトウセンモンガツコウ"
  },
  "8508": {
    "zip_code": "9168508",
    "prefecture": "福井県",
    "prefecture_kana": "フクイケン",
    "prefecture_code": "18",
    "city": "鯖江市",
    "city_kana": "サバエシ",
    "town": "北野町",
    "town_kana": "キタノチョウ",
    "street": "２丁目２−１１",
    "office_name": "福井めがね工業　株式会社",
    "office_name_kana": "フクイメガネコウギヨウ カブシキガイシヤ"
  },
  "8510": {
    "zip_code": "9168510",
    "prefecture": "福井県",
    "prefecture_kana": "フクイケン",
    "prefecture_code": "18",
    "city": "鯖江市",
    "city_kana": "サバエシ",
    "town": "舟津町",
    "town_kana": "フナツチョウ",
    "street": "２丁目５−４２",
    "office_name": "福井県立　鯖江高等学校",
    "office_name_kana": "フクイケンリツ サバエコウトウガツコウ"
  },
  "8515": {
    "zip_code": "9168515",
    "prefecture": "福井県",
    "prefecture_kana": "フクイケン",
    "prefecture_code": "18",
    "city": "鯖江市",
    "city_kana": "サバエシ",
    "town": "三六町",
    "town_kana": "サンロクチョウ",
    "street": "１丁目２−３１",
    "office_name": "公立丹南病院",
    "office_name_kana": "コウリツタンナンビヨウイン"
  },
  "8550": {
    "zip_code": "9168550",
    "prefecture": "福井県",
    "prefecture_kana": "フクイケン",
    "prefecture_code": "18",
    "city": "鯖江市",
    "city_kana": "サバエシ",
    "town": "神中町",
    "town_kana": "カミナカチョウ",
    "street": "２丁目７−４０",
    "office_name": "ウラセ　株式会社",
    "office_name_kana": "ウラセ カブシキガイシヤ"
  },
  "8555": {
    "zip_code": "9168555",
    "prefecture": "福井県",
    "prefecture_kana": "フクイケン",
    "prefecture_code": "18",
    "city": "鯖江市",
    "city_kana": "サバエシ",
    "town": "川去町",
    "town_kana": "カワサリチョウ",
    "street": "６−１",
    "office_name": "株式会社　シャルマン",
    "office_name_kana": "カブシキガイシヤ シヤルマン"
  },
  "8558": {
    "zip_code": "9168558",
    "prefecture": "福井県",
    "prefecture_kana": "フクイケン",
    "prefecture_code": "18",
    "city": "鯖江市",
    "city_kana": "サバエシ",
    "town": "杉本町",
    "town_kana": "スギモトチョウ",
    "street": "１５−２２",
    "office_name": "株式会社　サンリーブ",
    "office_name_kana": "カブシキガイシヤ サンリ-ブ"
  },
  "8567": {
    "zip_code": "9168567",
    "prefecture": "福井県",
    "prefecture_kana": "フクイケン",
    "prefecture_code": "18",
    "city": "鯖江市",
    "city_kana": "サバエシ",
    "town": "宮前",
    "town_kana": "ミヤマエ",
    "street": "１丁目４−１１",
    "office_name": "有限会社　宝屋",
    "office_name_kana": "ユウゲンガイシヤ タカラヤ"
  },
  "8585": {
    "zip_code": "9168585",
    "prefecture": "福井県",
    "prefecture_kana": "フクイケン",
    "prefecture_code": "18",
    "city": "鯖江市",
    "city_kana": "サバエシ",
    "town": "和田町",
    "town_kana": "ワダチョウ",
    "street": "９−１−１",
    "office_name": "社会福祉法人　光道園",
    "office_name_kana": "シヤカイフクシホウジン コウドウエン"
  },
  "8588": {
    "zip_code": "9168588",
    "prefecture": "福井県",
    "prefecture_kana": "フクイケン",
    "prefecture_code": "18",
    "city": "鯖江市",
    "city_kana": "サバエシ",
    "town": "本町",
    "town_kana": "ホンマチ",
    "street": "３丁目２−１２",
    "office_name": "鯖江商工会議所",
    "office_name_kana": "サバエシヨウコウカイギシヨ"
  },
  "8601": {
    "zip_code": "9168601",
    "prefecture": "福井県",
    "prefecture_kana": "フクイケン",
    "prefecture_code": "18",
    "city": "鯖江市",
    "city_kana": "サバエシ",
    "town": "吉谷町",
    "town_kana": "ヨシタニチョウ",
    "street": "１５−１１２（鯖江郵便局私書箱第３７号）",
    "office_name": "株式会社　ＢＢＣ",
    "office_name_kana": "カブシキガイシヤ ビイビイシイ"
  },
  "8646": {
    "zip_code": "9168646",
    "prefecture": "福井県",
    "prefecture_kana": "フクイケン",
    "prefecture_code": "18",
    "city": "鯖江市",
    "city_kana": "サバエシ",
    "town": "横江町",
    "town_kana": "ヨコエチョウ",
    "street": "２丁目１番７号",
    "office_name": "福井信用金庫　鯖江営業部",
    "office_name_kana": "フクイシンヨウキンコ サバエエイギヨウブ"
  },
  "8666": {
    "zip_code": "9168666",
    "prefecture": "福井県",
    "prefecture_kana": "フクイケン",
    "prefecture_code": "18",
    "city": "鯖江市",
    "city_kana": "サバエシ",
    "town": "西山町",
    "town_kana": "ニシヤマチョウ",
    "street": "１３−１（鯖江郵便局私書箱第１０号）",
    "office_name": "鯖江市役所",
    "office_name_kana": "サバエシヤクシヨ"
  },
  "8686": {
    "zip_code": "9168686",
    "prefecture": "福井県",
    "prefecture_kana": "フクイケン",
    "prefecture_code": "18",
    "city": "鯖江市",
    "city_kana": "サバエシ",
    "town": "糺町",
    "town_kana": "タダスチョウ",
    "street": "２３−１−１９（鯖江郵便局私書箱第４０号）",
    "office_name": "株式会社　キャンパック",
    "office_name_kana": "カブシキガイシヤ キヤンパツク"
  }
}