{
  "0000": {
    "zip_code": "9210000",
    "prefecture": "石川県",
    "prefecture_kana": "イシカワケン",
    "prefecture_code": "17",
    "city": "野々市市",
    "city_kana": "ノノイチシ",
    "town": "",
    "town_kana": "",
    "street": null,
    "office_name": null,
    "office_name_kana": null
  },
  "8001": {
    "zip_code": "9218001",
    "prefecture": "石川県",
    "prefecture_kana": "イシカワケン",
    "prefecture_code": "17",
    "city": "金沢市",
    "city_kana": "カナザワシ",
    "town": "高畠",
    "town_kana": "タカバタケ",
    "street": null,
    "office_name": null,
    "office_name_kana": null
  },
  "8002": {
    "zip_code": "9218002",
    "prefecture": "石川県",
    "prefecture_kana": "イシカワケン",
    "prefecture_code": "17",
    "city": "金沢市",
    "city_kana": "カナザワシ",
    "town": "玉鉾",
    "town_kana": "タマボコ",
    "street": null,
    "office_name": null,
    "office_name_kana": null
  },
  "8003": {
    "zip_code": "9218003",
    "prefecture": "石川県",
    "prefecture_kana": "イシカワケン",
    "prefecture_code": "17",
    "city": "金沢市",
    "city_kana": "カナザワシ",
    "town": "玉鉾町",
    "town_kana": "タマボコマチ",
    "street": null,
    "office_name": null,
    "office_name_kana": null
  },
  "8004": {
    "zip_code": "9218004",
    "prefecture": "石川県",
    "prefecture_kana": "イシカワケン",
    "prefecture_code": "17",
    "city": "金沢市",
    "city_kana": "カナザワシ",
    "town": "米丸町",
    "town_kana": "ヨネマルマチ",
    "street": null,
    "office_name": null,
    "office_name_kana": null
  },
  "8005": {
    "zip_code": "9218005",
    "prefecture": "石川県",
    "prefecture_kana": "イシカワケン",
    "prefecture_code": "17",
    "city": "金沢市",
    "city_kana": "カナザワシ",
    "town": "間明町",
    "town_kana": "マギラマチ",
    "street": null,
    "office_name": null,
    "office_name_kana": null
  },
  "8006": {
    "zip_code": "9218006",
    "prefecture": "石川県",
    "prefecture_kana": "イシカワケン",
    "prefecture_code": "17",
    "city": "金沢市",
    "city_kana": "カナザワシ",
    "town": "進和町",
    "town_kana": "シンワマチ",
    "street": null,
    "office_name": null,
    "office_name_kana": null
  },
  "8011": {
    "zip_code": "9218011",
    "prefecture": "石川県",
    "prefecture_kana": "イシカワケン",
    "prefecture_code": "17",
    "city": "金沢市",
    "city_kana": "カナザワシ",
    "town": "入江",
    "town_kana": "イリエ",
    "street": null,
    "office_name": null,
    "office_name_kana": null
  },
  "8012": {
    "zip_code": "9218012",
    "prefecture": "石川県",
    "prefecture_kana": "イシカワケン",
    "prefecture_code": "17",
    "city": "金沢市",
    "city_kana": "カナザワシ",
    "town": "本江町",
    "town_kana": "モトエチョウ",
    "street": null,
    "office_name": null,
    "office_name_kana": null
  },
  "8013": {
    "zip_code": "9218013",
    "prefecture": "石川県",
    "prefecture_kana": "イシカワケン",
    "prefecture_code": "17",
    "city": "金沢市",
    "city_kana": "カナザワシ",
    "town": "新神田",
    "town_kana": "シンカンダ",
    "street": null,
    "office_name": null,
    "office_name_kana": null
  },
  "8014": {
    "zip_code": "9218014",
    "prefecture": "石川県",
    "prefecture_kana": "イシカワケン",
    "prefecture_code": "17",
    "city": "金沢市",
    "city_kana": "カナザワシ",
    "town": "糸田",
    "town_kana": "イトダ",
    "street": null,
    "office_name": null,
    "office_name_kana": null
  },
  "8015": {
    "zip_code": "9218015",
    "prefecture": "石川県",
    "prefecture_kana": "イシカワケン",
    "prefecture_code": "17",
    "city": "金沢市",
    "city_kana": "カナザワシ",
    "town": "東力",
    "town_kana": "トウリキ",
    "street": null,
    "office_name": null,
    "office_name_kana": null
  },
  "8016": {
    "zip_code": "9218016",
    "prefecture": "石川県",
    "prefecture_kana": "イシカワケン",
    "prefecture_code": "17",
    "city": "金沢市",
    "city_kana": "カナザワシ",
    "town": "東力町",
    "town_kana": "トウリキマチ",
    "street": null,
    "office_name": null,
    "office_name_kana": null
  },
  "8021": {
    "zip_code": "9218021",
    "prefecture": "石川県",
    "prefecture_kana": "イシカワケン",
    "prefecture_code": "17",
    "city": "金沢市",
    "city_kana": "カナザワシ",
    "town": "御影町",
    "town_kana": "ミカゲマチ",
    "street": null,
    "office_name": null,
    "office_name_kana": null
  },
  "8022": {
    "zip_code": "9218022",
    "prefecture": "石川県",
    "prefecture_kana": "イシカワケン",
    "prefecture_code": "17",
    "city": "金沢市",
    "city_kana": "カナザワシ",
    "town": "中村町",
    "town_kana": "ナカムラマチ",
    "street": null,
    "office_name": null,
    "office_name_kana": null
  },
  "8023": {
    "zip_code": "9218023",
    "prefecture": "石川県",
    "prefecture_kana": "イシカワケン",
    "prefecture_code": "17",
    "city": "金沢市",
    "city_kana": "カナザワシ",
    "town": "千日町",
    "town_kana": "センニチマチ",
    "street": null,
    "office_name": null,
    "office_name_kana": null
  },
  "8024": {
    "zip_code": "9218024",
    "prefecture": "石川県",
    "prefecture_kana": "イシカワケン",
    "prefecture_code": "17",
    "city": "金沢市",
    "city_kana": "カナザワシ",
    "town": "白菊町",
    "town_kana": "シラギクチョウ",
    "street": null,
    "office_name": null,
    "office_name_kana": null
  },
  "8025": {
    "zip_code": "9218025",
    "prefecture": "石川県",
    "prefecture_kana": "イシカワケン",
    "prefecture_code": "17",
    "city": "金沢市",
    "city_kana": "カナザワシ",
    "town": "増泉",
    "town_kana": "マスイズミ",
    "street": null,
    "office_name": null,
    "office_name_kana": null
  },
  "8026": {
    "zip_code": "9218026",
    "prefecture": "石川県",
    "prefecture_kana": "イシカワケン",
    "prefecture_code": "17",
    "city": "金沢市",
    "city_kana": "カナザワシ",
    "town": "糸田新町",
    "town_kana": "イトダシンマチ",
    "street": null,
    "office_name": null,
    "office_name_kana": null
  },
  "8027": {
    "zip_code": "9218027",
    "prefecture": "石川県",
    "prefecture_kana": "イシカワケン",
    "prefecture_code": "17",
    "city": "金沢市",
    "city_kana": "カナザワシ",
    "town": "神田",
    "town_kana": "カンダ",
    "street": null,
    "office_name": null,
    "office_name_kana": null
  },
  "8031": {
    "zip_code": "9218031",
    "prefecture": "石川県",
    "prefecture_kana": "イシカワケン",
    "prefecture_code": "17",
    "city": "金沢市",
    "city_kana": "カナザワシ",
    "town": "野町",
    "town_kana": "ノマチ",
    "street": null,
    "office_name": null,
    "office_name_kana": null
  },
  "8032": {
    "zip_code": "9218032",
    "prefecture": "石川県",
    "prefecture_kana": "イシカワケン",
    "prefecture_code": "17",
    "city": "金沢市",
    "city_kana": "カナザワシ",
    "town": "清川町",
    "town_kana": "キヨカワマチ",
    "street": null,
    "office_name": null,
    "office_name_kana": null
  },
  "8033": {
    "zip_code": "9218033",
    "prefecture": "石川県",
    "prefecture_kana": "イシカワケン",
    "prefecture_code": "17",
    "city": "金沢市",
    "city_kana": "カナザワシ",
    "town": "寺町",
    "town_kana": "テラマチ",
    "street": null,
    "office_name": null,
    "office_name_kana": null
  },
  "8034": {
    "zip_code": "9218034",
    "prefecture": "石川県",
    "prefecture_kana": "イシカワケン",
    "prefecture_code": "17",
    "city": "金沢市",
    "city_kana": "カナザワシ",
    "town": "泉野町",
    "town_kana": "イズミノマチ",
    "street": null,
    "office_name": null,
    "office_name_kana": null
  },
  "8035": {
    "zip_code": "9218035",
    "prefecture": "石川県",
    "prefecture_kana": "イシカワケン",
    "prefecture_code": "17",
    "city": "金沢市",
    "city_kana": "カナザワシ",
    "town": "泉が丘",
    "town_kana": "イズミガオカ",
    "street": null,
    "office_name": null,
    "office_name_kana": null
  },
  "8036": {
    "zip_code": "9218036",
    "prefecture": "石川県",
    "prefecture_kana": "イシカワケン",
    "prefecture_code": "17",
    "city": "金沢市",
    "city_kana": "カナザワシ",
    "town": "弥生",
    "town_kana": "ヤヨイ",
    "street": null,
    "office_name": null,
    "office_name_kana": null
  },
  "8041": {
    "zip_code": "9218041",
    "prefecture": "石川県",
    "prefecture_kana": "イシカワケン",
    "prefecture_code": "17",
    "city": "金沢市",
    "city_kana": "カナザワシ",
    "town": "泉",
    "town_kana": "イズミ",
    "street": null,
    "office_name": null,
    "office_name_kana": null
  },
  "8042": {
    "zip_code": "9218042",
    "prefecture": "石川県",
    "prefecture_kana": "イシカワケン",
    "prefecture_code": "17",
    "city": "金沢市",
    "city_kana": "カナザワシ",
    "town": "泉本町",
    "town_kana": "イズミホンマチ",
    "street": null,
    "office_name": null,
    "office_name_kana": null
  },
  "8043": {
    "zip_code": "9218043",
    "prefecture": "石川県",
    "prefecture_kana": "イシカワケン",
    "prefecture_code": "17",
    "city": "金沢市",
    "city_kana": "カナザワシ",
    "town": "西泉",
    "town_kana": "ニシイズミ",
    "street": null,
    "office_name": null,
    "office_name_kana": null
  },
  "8044": {
    "zip_code": "9218044",
    "prefecture": "石川県",
    "prefecture_kana": "イシカワケン",
    "prefecture_code": "17",
    "city": "金沢市",
    "city_kana": "カナザワシ",
    "town": "米泉町",
    "town_kana": "ヨナイズミマチ",
    "street": null,
    "office_name": null,
    "office_name_kana": null
  },
  "8045": {
    "zip_code": "9218045",
    "prefecture": "石川県",
    "prefecture_kana": "イシカワケン",
    "prefecture_code": "17",
    "city": "金沢市",
    "city_kana": "カナザワシ",
    "town": "大桑",
    "town_kana": "オオクワ",
    "street": null,
    "office_name": null,
    "office_name_kana": null
  },
  "8046": [
    {
      "zip_code": "9218046",
      "prefecture": "石川県",
      "prefecture_kana": "イシカワケン",
      "prefecture_code": "17",
      "city": "金沢市",
      "city_kana": "カナザワシ",
      "town": "大桑町",
      "town_kana": "オオクワマチ",
      "street": null,
      "office_name": null,
      "office_name_kana": null
    },
    {
      "zip_code": "9218046",
      "prefecture": "石川県",
      "prefecture_kana": "イシカワケン",
      "prefecture_code": "17",
      "city": "金沢市",
      "city_kana": "カナザワシ",
      "town": "大桑町ア",
      "town_kana": "オオクワマチア",
      "street": null,
      "office_name": null,
      "office_name_kana": null
    },
    {
      "zip_code": "9218046",
      "prefecture": "石川県",
      "prefecture_kana": "イシカワケン",
      "prefecture_code": "17",
      "city": "金沢市",
      "city_kana": "カナザワシ",
      "town": "大桑町イ",
      "town_kana": "オオクワマチイ",
      "street": null,
      "office_name": null,
      "office_name_kana": null
    },
    {
      "zip_code": "9218046",
      "prefecture": "石川県",
      "prefecture_kana": "イシカワケン",
      "prefecture_code": "17",
      "city": "金沢市",
      "city_kana": "カナザワシ",
      "town": "大桑町ヰ",
      "town_kana": "オオクワマチイ",
      "street": null,
      "office_name": null,
      "office_name_kana": null
    },
    {
      "zip_code": "9218046",
      "prefecture": "石川県",
      "prefecture_kana": "イシカワケン",
      "prefecture_code": "17",
      "city": "金沢市",
      "city_kana": "カナザワシ",
      "town": "大桑町ウ",
      "town_kana": "オオクワマチウ",
      "street": null,
      "office_name": null,
      "office_name_kana": null
    },
    {
      "zip_code": "9218046",
      "prefecture": "石川県",
      "prefecture_kana": "イシカワケン",
      "prefecture_code": "17",
      "city": "金沢市",
      "city_kana": "カナザワシ",
      "town": "大桑町上野",
      "town_kana": "オオクワマチウエノ",
      "street": null,
      "office_name": null,
      "office_name_kana": null
    },
    {
      "zip_code": "9218046",
      "prefecture": "石川県",
      "prefecture_kana": "イシカワケン",
      "prefecture_code": "17",
      "city": "金沢市",
      "city_kana": "カナザワシ",
      "town": "大桑町オ乙",
      "town_kana": "オオクワマチオオツ",
      "street": null,
      "office_name": null,
      "office_name_kana": null
    },
    {
      "zip_code": "9218046",
      "prefecture": "石川県",
      "prefecture_kana": "イシカワケン",
      "prefecture_code": "17",
      "city": "金沢市",
      "city_kana": "カナザワシ",
      "town": "大桑町鐘搗山",
      "town_kana": "オオクワマチカネツキヤマ",
      "street": null,
      "office_name": null,
      "office_name_kana": null
    },
    {
      "zip_code": "9218046",
      "prefecture": "石川県",
      "prefecture_kana": "イシカワケン",
      "prefecture_code": "17",
      "city": "金沢市",
      "city_kana": "カナザワシ",
      "town": "大桑町上川原",
      "town_kana": "オオクワマチカミカワラ",
      "street": null,
      "office_name": null,
      "office_name_kana": null
    },
    {
      "zip_code": "9218046",
      "prefecture": "石川県",
      "prefecture_kana": "イシカワケン",
      "prefecture_code": "17",
      "city": "金沢市",
      "city_kana": "カナザワシ",
      "town": "大桑町上猫下",
      "town_kana": "オオクワマチカミネコシタ",
      "street": null,
      "office_name": null,
      "office_name_kana": null
    },
    {
      "zip_code": "9218046",
      "prefecture": "石川県",
      "prefecture_kana": "イシカワケン",
      "prefecture_code": "17",
      "city": "金沢市",
      "city_kana": "カナザワシ",
      "town": "大桑町ケ",
      "town_kana": "オオクワマチケ",
      "street": null,
      "office_name": null,
      "office_name_kana": null
    },
    {
      "zip_code": "9218046",
      "prefecture": "石川県",
      "prefecture_kana": "イシカワケン",
      "prefecture_code": "17",
      "city": "金沢市",
      "city_kana": "カナザワシ",
      "town": "大桑町御所谷",
      "town_kana": "オオクワマチゴショガダニ",
      "street": null,
      "office_name": null,
      "office_name_kana": null
    },
    {
      "zip_code": "9218046",
      "prefecture": "石川県",
      "prefecture_kana": "イシカワケン",
      "prefecture_code": "17",
      "city": "金沢市",
      "city_kana": "カナザワシ",
      "town": "大桑町小寺山",
      "town_kana": "オオクワマチコデラヤマ",
      "street": null,
      "office_name": null,
      "office_name_kana": null
    },
    {
      "zip_code": "9218046",
      "prefecture": "石川県",
      "prefecture_kana": "イシカワケン",
      "prefecture_code": "17",
      "city": "金沢市",
      "city_kana": "カナザワシ",
      "town": "大桑町シ",
      "town_kana": "オオクワマチシ",
      "street": null,
      "office_name": null,
      "office_name_kana": null
    },
    {
      "zip_code": "9218046",
      "prefecture": "石川県",
      "prefecture_kana": "イシカワケン",
      "prefecture_code": "17",
      "city": "金沢市",
      "city_kana": "カナザワシ",
      "town": "大桑町下上野",
      "town_kana": "オオクワマチシモウエノ",
      "street": null,
      "office_name": null,
      "office_name_kana": null
    },
    {
      "zip_code": "9218046",
      "prefecture": "石川県",
      "prefecture_kana": "イシカワケン",
      "prefecture_code": "17",
      "city": "金沢市",
      "city_kana": "カナザワシ",
      "town": "大桑町下西欠",
      "town_kana": "オオクワマチシモニシガケ",
      "street": null,
      "office_name": null,
      "office_name_kana": null
    },
    {
      "zip_code": "9218046",
      "prefecture": "石川県",
      "prefecture_kana": "イシカワケン",
      "prefecture_code": "17",
      "city": "金沢市",
      "city_kana": "カナザワシ",
      "town": "大桑町平",
      "town_kana": "オオクワマチダイラ",
      "street": null,
      "office_name": null,
      "office_name_kana": null
    },
    {
      "zip_code": "9218046",
      "prefecture": "石川県",
      "prefecture_kana": "イシカワケン",
      "prefecture_code": "17",
      "city": "金沢市",
      "city_kana": "カナザワシ",
      "town": "大桑町ツ乙",
      "town_kana": "オオクワマチツオツ",
      "street": null,
      "office_name": null,
      "office_name_kana": null
    },
    {
      "zip_code": "9218046",
      "prefecture": "石川県",
      "prefecture_kana": "イシカワケン",
      "prefecture_code": "17",
      "city": "金沢市",
      "city_kana": "カナザワシ",
      "town": "大桑町ツ丙",
      "town_kana": "オオクワマチツヘイ",
      "street": null,
      "office_name": null,
      "office_name_kana": null
    },
    {
      "zip_code": "9218046",
      "prefecture": "石川県",
      "prefecture_kana": "イシカワケン",
      "prefecture_code": "17",
      "city": "金沢市",
      "city_kana": "カナザワシ",
      "town": "大桑町テ",
      "town_kana": "オオクワマチテ",
      "street": null,
      "office_name": null,
      "office_name_kana": null
    },
    {
      "zip_code": "9218046",
      "prefecture": "石川県",
      "prefecture_kana": "イシカワケン",
      "prefecture_code": "17",
      "city": "金沢市",
      "city_kana": "カナザワシ",
      "town": "大桑町ト",
      "town_kana": "オオクワマチト",
      "street": null,
      "office_name": null,
      "office_name_kana": null
    },
    {
      "zip_code": "9218046",
      "prefecture": "石川県",
      "prefecture_kana": "イシカワケン",
      "prefecture_code": "17",
      "city": "金沢市",
      "city_kana": "カナザワシ",
      "town": "大桑町中上野",
      "town_kana": "オオクワマチナカウエノ",
      "street": null,
      "office_name": null,
      "office_name_kana": null
    },
    {
      "zip_code": "9218046",
      "prefecture": "石川県",
      "prefecture_kana": "イシカワケン",
      "prefecture_code": "17",
      "city": "金沢市",
      "city_kana": "カナザワシ",
      "town": "大桑町中尾山",
      "town_kana": "オオクワマチナカオヤマ",
      "street": null,
      "office_name": null,
      "office_name_kana": null
    },
    {
      "zip_code": "9218046",
      "prefecture": "石川県",
      "prefecture_kana": "イシカワケン",
      "prefecture_code": "17",
      "city": "金沢市",
      "city_kana": "カナザワシ",
      "town": "大桑町中平",
      "town_kana": "オオクワマチナカダイラ",
      "street": null,
      "office_name": null,
      "office_name_kana": null
    },
    {
      "zip_code": "9218046",
      "prefecture": "石川県",
      "prefecture_kana": "イシカワケン",
      "prefecture_code": "17",
      "city": "金沢市",
      "city_kana": "カナザワシ",
      "town": "大桑町中ノ大平",
      "town_kana": "オオクワマチナカノオオヒラ",
      "street": null,
      "office_name": null,
      "office_name_kana": null
    },
    {
      "zip_code": "9218046",
      "prefecture": "石川県",
      "prefecture_kana": "イシカワケン",
      "prefecture_code": "17",
      "city": "金沢市",
      "city_kana": "カナザワシ",
      "town": "大桑町西ノ山",
      "town_kana": "オオクワマチニシノヤマ",
      "street": null,
      "office_name": null,
      "office_name_kana": null
    },
    {
      "zip_code": "9218046",
      "prefecture": "石川県",
      "prefecture_kana": "イシカワケン",
      "prefecture_code": "17",
      "city": "金沢市",
      "city_kana": "カナザワシ",
      "town": "大桑町猫シタイ",
      "town_kana": "オオクワマチネコノシタイ",
      "street": null,
      "office_name": null,
      "office_name_kana": null
    },
    {
      "zip_code": "9218046",
      "prefecture": "石川県",
      "prefecture_kana": "イシカワケン",
      "prefecture_code": "17",
      "city": "金沢市",
      "city_kana": "カナザワシ",
      "town": "大桑町ノ",
      "town_kana": "オオクワマチノ",
      "street": null,
      "office_name": null,
      "office_name_kana": null
    },
    {
      "zip_code": "9218046",
      "prefecture": "石川県",
      "prefecture_kana": "イシカワケン",
      "prefecture_code": "17",
      "city": "金沢市",
      "city_kana": "カナザワシ",
      "town": "大桑町ハ",
      "town_kana": "オオクワマチハ",
      "street": null,
      "office_name": null,
      "office_name_kana": null
    },
    {
      "zip_code": "9218046",
      "prefecture": "石川県",
      "prefecture_kana": "イシカワケン",
      "prefecture_code": "17",
      "city": "金沢市",
      "city_kana": "カナザワシ",
      "town": "大桑町開",
      "town_kana": "オオクワマチヒラキ",
      "street": null,
      "office_name": null,
      "office_name_kana": null
    },
    {
      "zip_code": "9218046",
      "prefecture": "石川県",
      "prefecture_kana": "イシカワケン",
      "prefecture_code": "17",
      "city": "金沢市",
      "city_kana": "カナザワシ",
      "town": "大桑町法師山",
      "town_kana": "オオクワマチホウシヤマ",
      "street": null,
      "office_name": null,
      "office_name_kana": null
    },
    {
      "zip_code": "9218046",
      "prefecture": "石川県",
      "prefecture_kana": "イシカワケン",
      "prefecture_code": "17",
      "city": "金沢市",
      "city_kana": "カナザワシ",
      "town": "大桑町坊山",
      "town_kana": "オオクワマチボウヤマ",
      "street": null,
      "office_name": null,
      "office_name_kana": null
    },
    {
      "zip_code": "9218046",
      "prefecture": "石川県",
      "prefecture_kana": "イシカワケン",
      "prefecture_code": "17",
      "city": "金沢市",
      "city_kana": "カナザワシ",
      "town": "大桑町鱒川淵",
      "town_kana": "オオクワマチマスカワブチ",
      "street": null,
      "office_name": null,
      "office_name_kana": null
    },
    {
      "zip_code": "9218046",
      "prefecture": "石川県",
      "prefecture_kana": "イシカワケン",
      "prefecture_code": "17",
      "city": "金沢市",
      "city_kana": "カナザワシ",
      "town": "大桑町ム",
      "town_kana": "オオクワマチム",
      "street": null,
      "office_name": null,
      "office_name_kana": null
    },
    {
      "zip_code": "9218046",
      "prefecture": "石川県",
      "prefecture_kana": "イシカワケン",
      "prefecture_code": "17",
      "city": "金沢市",
      "city_kana": "カナザワシ",
      "town": "大桑町元末",
      "town_kana": "オオクワマチモトスエ",
      "street": null,
      "office_name": null,
      "office_name_kana": null
    },
    {
      "zip_code": "9218046",
      "prefecture": "石川県",
      "prefecture_kana": "イシカワケン",
      "prefecture_code": "17",
      "city": "金沢市",
      "city_kana": "カナザワシ",
      "town": "大桑町元涌波庚",
      "town_kana": "オオクワマチモトワクナミコウ",
      "street": null,
      "office_name": null,
      "office_name_kana": null
    },
    {
      "zip_code": "9218046",
      "prefecture": "石川県",
      "prefecture_kana": "イシカワケン",
      "prefecture_code": "17",
      "city": "金沢市",
      "city_kana": "カナザワシ",
      "town": "大桑町ヤ",
      "town_kana": "オオクワマチヤ",
      "street": null,
      "office_name": null,
      "office_name_kana": null
    },
    {
      "zip_code": "9218046",
      "prefecture": "石川県",
      "prefecture_kana": "イシカワケン",
      "prefecture_code": "17",
      "city": "金沢市",
      "city_kana": "カナザワシ",
      "town": "大桑町リ",
      "town_kana": "オオクワマチリ",
      "street": null,
      "office_name": null,
      "office_name_kana": null
    },
    {
      "zip_code": "9218046",
      "prefecture": "石川県",
      "prefecture_kana": "イシカワケン",
      "prefecture_code": "17",
      "city": "金沢市",
      "city_kana": "カナザワシ",
      "town": "大桑町ル",
      "town_kana": "オオクワマチル",
      "street": null,
      "office_name": null,
      "office_name_kana": null
    },
    {
      "zip_code": "9218046",
      "prefecture": "石川県",
      "prefecture_kana": "イシカワケン",
      "prefecture_code": "17",
      "city": "金沢市",
      "city_kana": "カナザワシ",
      "town": "大桑町レ乙",
      "town_kana": "オオクワマチレオツ",
      "street": null,
      "office_name": null,
      "office_name_kana": null
    },
    {
      "zip_code": "9218046",
      "prefecture": "石川県",
      "prefecture_kana": "イシカワケン",
      "prefecture_code": "17",
      "city": "金沢市",
      "city_kana": "カナザワシ",
      "town": "大桑町レ甲",
      "town_kana": "オオクワマチレコウ",
      "street": null,
      "office_name": null,
      "office_name_kana": null
    },
    {
      "zip_code": "9218046",
      "prefecture": "石川県",
      "prefecture_kana": "イシカワケン",
      "prefecture_code": "17",
      "city": "金沢市",
      "city_kana": "カナザワシ",
      "town": "大桑町ロ乙",
      "town_kana": "オオクワマチロオツ",
      "street": null,
      "office_name": null,
      "office_name_kana": null
    },
    {
      "zip_code": "9218046",
      "prefecture": "石川県",
      "prefecture_kana": "イシカワケン",
      "prefecture_code": "17",
      "city": "金沢市",
      "city_kana": "カナザワシ",
      "town": "大桑町ロ甲",
      "town_kana": "オオクワマチロコウ",
      "street": null,
      "office_name": null,
      "office_name_kana": null
    },
    {
      "zip_code": "9218046",
      "prefecture": "石川県",
      "prefecture_kana": "イシカワケン",
      "prefecture_code": "17",
      "city": "金沢市",
      "city_kana": "カナザワシ",
      "town": "大桑町和",
      "town_kana": "オオクワマチワ",
      "street": null,
      "office_name": null,
      "office_name_kana": null
    },
    {
      "zip_code": "9218046",
      "prefecture": "石川県",
      "prefecture_kana": "イシカワケン",
      "prefecture_code": "17",
      "city": "金沢市",
      "city_kana": "カナザワシ",
      "town": "三小牛町",
      "town_kana": "ミツコウジマチ",
      "street": null,
      "office_name": null,
      "office_name_kana": null
    },
    {
      "zip_code": "9218046",
      "prefecture": "石川県",
      "prefecture_kana": "イシカワケン",
      "prefecture_code": "17",
      "city": "金沢市",
      "city_kana": "カナザワシ",
      "town": "三小牛町ヘ",
      "town_kana": "ミツコウジマチヘ",
      "street": null,
      "office_name": null,
      "office_name_kana": null
    }
  ],
  "8047": [
    {
      "zip_code": "9218047",
      "prefecture": "石川県",
      "prefecture_kana": "イシカワケン",
      "prefecture_code": "17",
      "city": "金沢市",
      "city_kana": "カナザワシ",
      "town": "大豆田本町",
      "town_kana": "マメダホンマチ",
      "street": null,
      "office_name": null,
      "office_name_kana": null
    },
    {
      "zip_code": "9218047",
      "prefecture": "石川県",
      "prefecture_kana": "イシカワケン",
      "prefecture_code": "17",
      "city": "金沢市",
      "city_kana": "カナザワシ",
      "town": "大豆田本町ハ",
      "town_kana": "マメダホンマチハ",
      "street": null,
      "office_name": null,
      "office_name_kana": null
    },
    {
      "zip_code": "9218047",
      "prefecture": "石川県",
      "prefecture_kana": "イシカワケン",
      "prefecture_code": "17",
      "city": "金沢市",
      "city_kana": "カナザワシ",
      "town": "大豆田本町ロ",
      "town_kana": "マメダホンマチロ",
      "street": null,
      "office_name": null,
      "office_name_kana": null
    }
  ],
  "8051": {
    "zip_code": "9218051",
    "prefecture": "石川県",
    "prefecture_kana": "イシカワケン",
    "prefecture_code": "17",
    "city": "金沢市",
    "city_kana": "カナザワシ",
    "town": "黒田",
    "town_kana": "クロダ",
    "street": null,
    "office_name": null,
    "office_name_kana": null
  },
  "8052": {
    "zip_code": "9218052",
    "prefecture": "石川県",
    "prefecture_kana": "イシカワケン",
    "prefecture_code": "17",
    "city": "金沢市",
    "city_kana": "カナザワシ",
    "town": "保古",
    "town_kana": "ホゴ",
    "street": null,
    "office_name": null,
    "office_name_kana": null
  },
  "8053": {
    "zip_code": "9218053",
    "prefecture": "石川県",
    "prefecture_kana": "イシカワケン",
    "prefecture_code": "17",
    "city": "金沢市",
    "city_kana": "カナザワシ",
    "town": "保古町",
    "town_kana": "ホゴマチ",
    "street": null,
    "office_name": null,
    "office_name_kana": null
  },
  "8054": {
    "zip_code": "9218054",
    "prefecture": "石川県",
    "prefecture_kana": "イシカワケン",
    "prefecture_code": "17",
    "city": "金沢市",
    "city_kana": "カナザワシ",
    "town": "西金沢",
    "town_kana": "ニシカナザワ",
    "street": null,
    "office_name": null,
    "office_name_kana": null
  },
  "8055": {
    "zip_code": "9218055",
    "prefecture": "石川県",
    "prefecture_kana": "イシカワケン",
    "prefecture_code": "17",
    "city": "金沢市",
    "city_kana": "カナザワシ",
    "town": "西金沢新町",
    "town_kana": "ニシカナザワシンマチ",
    "street": null,
    "office_name": null,
    "office_name_kana": null
  },
  "8056": {
    "zip_code": "9218056",
    "prefecture": "石川県",
    "prefecture_kana": "イシカワケン",
    "prefecture_code": "17",
    "city": "金沢市",
    "city_kana": "カナザワシ",
    "town": "押野",
    "town_kana": "オシノ",
    "street": null,
    "office_name": null,
    "office_name_kana": null
  },
  "8061": {
    "zip_code": "9218061",
    "prefecture": "石川県",
    "prefecture_kana": "イシカワケン",
    "prefecture_code": "17",
    "city": "金沢市",
    "city_kana": "カナザワシ",
    "town": "森戸",
    "town_kana": "モリト",
    "street": null,
    "office_name": null,
    "office_name_kana": null
  },
  "8062": {
    "zip_code": "9218062",
    "prefecture": "石川県",
    "prefecture_kana": "イシカワケン",
    "prefecture_code": "17",
    "city": "金沢市",
    "city_kana": "カナザワシ",
    "town": "新保本",
    "town_kana": "シンボホン",
    "street": null,
    "office_name": null,
    "office_name_kana": null
  },
  "8063": {
    "zip_code": "9218063",
    "prefecture": "石川県",
    "prefecture_kana": "イシカワケン",
    "prefecture_code": "17",
    "city": "金沢市",
    "city_kana": "カナザワシ",
    "town": "八日市出町",
    "town_kana": "ヨウカイチデマチ",
    "street": null,
    "office_name": null,
    "office_name_kana": null
  },
  "8064": {
    "zip_code": "9218064",
    "prefecture": "石川県",
    "prefecture_kana": "イシカワケン",
    "prefecture_code": "17",
    "city": "金沢市",
    "city_kana": "カナザワシ",
    "town": "八日市",
    "town_kana": "ヨウカイチ",
    "street": null,
    "office_name": null,
    "office_name_kana": null
  },
  "8065": {
    "zip_code": "9218065",
    "prefecture": "石川県",
    "prefecture_kana": "イシカワケン",
    "prefecture_code": "17",
    "city": "金沢市",
    "city_kana": "カナザワシ",
    "town": "上荒屋",
    "town_kana": "カミアラヤ",
    "street": null,
    "office_name": null,
    "office_name_kana": null
  },
  "8066": {
    "zip_code": "9218066",
    "prefecture": "石川県",
    "prefecture_kana": "イシカワケン",
    "prefecture_code": "17",
    "city": "金沢市",
    "city_kana": "カナザワシ",
    "town": "矢木",
    "town_kana": "ヤギ",
    "street": null,
    "office_name": null,
    "office_name_kana": null
  },
  "8101": {
    "zip_code": "9218101",
    "prefecture": "石川県",
    "prefecture_kana": "イシカワケン",
    "prefecture_code": "17",
    "city": "金沢市",
    "city_kana": "カナザワシ",
    "town": "法島町",
    "town_kana": "ホウシママチ",
    "street": null,
    "office_name": null,
    "office_name_kana": null
  },
  "8102": {
    "zip_code": "9218102",
    "prefecture": "石川県",
    "prefecture_kana": "イシカワケン",
    "prefecture_code": "17",
    "city": "金沢市",
    "city_kana": "カナザワシ",
    "town": "西大桑町",
    "town_kana": "ニシオオクワマチ",
    "street": null,
    "office_name": null,
    "office_name_kana": null
  },
  "8103": {
    "zip_code": "9218103",
    "prefecture": "石川県",
    "prefecture_kana": "イシカワケン",
    "prefecture_code": "17",
    "city": "金沢市",
    "city_kana": "カナザワシ",
    "town": "つつじが丘",
    "town_kana": "ツツジガオカ",
    "street": null,
    "office_name": null,
    "office_name_kana": null
  },
  "8104": {
    "zip_code": "9218104",
    "prefecture": "石川県",
    "prefecture_kana": "イシカワケン",
    "prefecture_code": "17",
    "city": "金沢市",
    "city_kana": "カナザワシ",
    "town": "野田町",
    "town_kana": "ノダマチ",
    "street": null,
    "office_name": null,
    "office_name_kana": null
  },
  "8105": {
    "zip_code": "9218105",
    "prefecture": "石川県",
    "prefecture_kana": "イシカワケン",
    "prefecture_code": "17",
    "city": "金沢市",
    "city_kana": "カナザワシ",
    "town": "平和町",
    "town_kana": "ヘイワマチ",
    "street": null,
    "office_name": null,
    "office_name_kana": null
  },
  "8106": {
    "zip_code": "9218106",
    "prefecture": "石川県",
    "prefecture_kana": "イシカワケン",
    "prefecture_code": "17",
    "city": "金沢市",
    "city_kana": "カナザワシ",
    "town": "十一屋町",
    "town_kana": "ジュウイチヤマチ",
    "street": null,
    "office_name": null,
    "office_name_kana": null
  },
  "8111": {
    "zip_code": "9218111",
    "prefecture": "石川県",
    "prefecture_kana": "イシカワケン",
    "prefecture_code": "17",
    "city": "金沢市",
    "city_kana": "カナザワシ",
    "town": "若草町",
    "town_kana": "ワカクサマチ",
    "street": null,
    "office_name": null,
    "office_name_kana": null
  },
  "8112": {
    "zip_code": "9218112",
    "prefecture": "石川県",
    "prefecture_kana": "イシカワケン",
    "prefecture_code": "17",
    "city": "金沢市",
    "city_kana": "カナザワシ",
    "town": "長坂",
    "town_kana": "ナガサカ",
    "street": null,
    "office_name": null,
    "office_name_kana": null
  },
  "8114": {
    "zip_code": "9218114",
    "prefecture": "石川県",
    "prefecture_kana": "イシカワケン",
    "prefecture_code": "17",
    "city": "金沢市",
    "city_kana": "カナザワシ",
    "town": "長坂町",
    "town_kana": "ナガサカマチ",
    "street": null,
    "office_name": null,
    "office_name_kana": null
  },
  "8115": {
    "zip_code": "9218115",
    "prefecture": "石川県",
    "prefecture_kana": "イシカワケン",
    "prefecture_code": "17",
    "city": "金沢市",
    "city_kana": "カナザワシ",
    "town": "長坂台",
    "town_kana": "ナガサカダイ",
    "street": null,
    "office_name": null,
    "office_name_kana": null
  },
  "8116": {
    "zip_code": "9218116",
    "prefecture": "石川県",
    "prefecture_kana": "イシカワケン",
    "prefecture_code": "17",
    "city": "金沢市",
    "city_kana": "カナザワシ",
    "town": "泉野出町",
    "town_kana": "イズミノデマチ",
    "street": null,
    "office_name": null,
    "office_name_kana": null
  },
  "8117": {
    "zip_code": "9218117",
    "prefecture": "石川県",
    "prefecture_kana": "イシカワケン",
    "prefecture_code": "17",
    "city": "金沢市",
    "city_kana": "カナザワシ",
    "town": "緑が丘",
    "town_kana": "ミドリガオカ",
    "street": null,
    "office_name": null,
    "office_name_kana": null
  },
  "8121": {
    "zip_code": "9218121",
    "prefecture": "石川県",
    "prefecture_kana": "イシカワケン",
    "prefecture_code": "17",
    "city": "金沢市",
    "city_kana": "カナザワシ",
    "town": "平栗",
    "town_kana": "ヒラグリ",
    "street": null,
    "office_name": null,
    "office_name_kana": null
  },
  "8122": {
    "zip_code": "9218122",
    "prefecture": "石川県",
    "prefecture_kana": "イシカワケン",
    "prefecture_code": "17",
    "city": "金沢市",
    "city_kana": "カナザワシ",
    "town": "清瀬町",
    "town_kana": "キヨセマチ",
    "street": null,
    "office_name": null,
    "office_name_kana": null
  },
  "8123": {
    "zip_code": "9218123",
    "prefecture": "石川県",
    "prefecture_kana": "イシカワケン",
    "prefecture_code": "17",
    "city": "金沢市",
    "city_kana": "カナザワシ",
    "town": "坪野町",
    "town_kana": "ツボノマチ",
    "street": null,
    "office_name": null,
    "office_name_kana": null
  },
  "8124": {
    "zip_code": "9218124",
    "prefecture": "石川県",
    "prefecture_kana": "イシカワケン",
    "prefecture_code": "17",
    "city": "金沢市",
    "city_kana": "カナザワシ",
    "town": "倉ケ嶽",
    "town_kana": "クラガタケ",
    "street": null,
    "office_name": null,
    "office_name_kana": null
  },
  "8131": {
    "zip_code": "9218131",
    "prefecture": "石川県",
    "prefecture_kana": "イシカワケン",
    "prefecture_code": "17",
    "city": "金沢市",
    "city_kana": "カナザワシ",
    "town": "三十苅町",
    "town_kana": "サンジュウガリマチ",
    "street": null,
    "office_name": null,
    "office_name_kana": null
  },
  "8132": {
    "zip_code": "9218132",
    "prefecture": "石川県",
    "prefecture_kana": "イシカワケン",
    "prefecture_code": "17",
    "city": "金沢市",
    "city_kana": "カナザワシ",
    "town": "しじま台",
    "town_kana": "シジマダイ",
    "street": null,
    "office_name": null,
    "office_name_kana": null
  },
  "8133": {
    "zip_code": "9218133",
    "prefecture": "石川県",
    "prefecture_kana": "イシカワケン",
    "prefecture_code": "17",
    "city": "金沢市",
    "city_kana": "カナザワシ",
    "town": "四十万町",
    "town_kana": "シジママチ",
    "street": null,
    "office_name": null,
    "office_name_kana": null
  },
  "8134": {
    "zip_code": "9218134",
    "prefecture": "石川県",
    "prefecture_kana": "イシカワケン",
    "prefecture_code": "17",
    "city": "金沢市",
    "city_kana": "カナザワシ",
    "town": "南四十万",
    "town_kana": "ミナミシジマ",
    "street": null,
    "office_name": null,
    "office_name_kana": null
  },
  "8135": {
    "zip_code": "9218135",
    "prefecture": "石川県",
    "prefecture_kana": "イシカワケン",
    "prefecture_code": "17",
    "city": "金沢市",
    "city_kana": "カナザワシ",
    "town": "四十万",
    "town_kana": "シジマ",
    "street": null,
    "office_name": null,
    "office_name_kana": null
  },
  "8141": {
    "zip_code": "9218141",
    "prefecture": "石川県",
    "prefecture_kana": "イシカワケン",
    "prefecture_code": "17",
    "city": "金沢市",
    "city_kana": "カナザワシ",
    "town": "馬替",
    "town_kana": "マガエ",
    "street": null,
    "office_name": null,
    "office_name_kana": null
  },
  "8142": {
    "zip_code": "9218142",
    "prefecture": "石川県",
    "prefecture_kana": "イシカワケン",
    "prefecture_code": "17",
    "city": "金沢市",
    "city_kana": "カナザワシ",
    "town": "光が丘",
    "town_kana": "ヒカリガオカ",
    "street": null,
    "office_name": null,
    "office_name_kana": null
  },
  "8143": {
    "zip_code": "9218143",
    "prefecture": "石川県",
    "prefecture_kana": "イシカワケン",
    "prefecture_code": "17",
    "city": "金沢市",
    "city_kana": "カナザワシ",
    "town": "大額町",
    "town_kana": "オオヌカマチ",
    "street": null,
    "office_name": null,
    "office_name_kana": null
  },
  "8144": {
    "zip_code": "9218144",
    "prefecture": "石川県",
    "prefecture_kana": "イシカワケン",
    "prefecture_code": "17",
    "city": "金沢市",
    "city_kana": "カナザワシ",
    "town": "額谷町",
    "town_kana": "ヌカダニマチ",
    "street": null,
    "office_name": null,
    "office_name_kana": null
  },
  "8145": {
    "zip_code": "9218145",
    "prefecture": "石川県",
    "prefecture_kana": "イシカワケン",
    "prefecture_code": "17",
    "city": "金沢市",
    "city_kana": "カナザワシ",
    "town": "額谷",
    "town_kana": "ヌカダニ",
    "street": null,
    "office_name": null,
    "office_name_kana": null
  },
  "8146": {
    "zip_code": "9218146",
    "prefecture": "石川県",
    "prefecture_kana": "イシカワケン",
    "prefecture_code": "17",
    "city": "金沢市",
    "city_kana": "カナザワシ",
    "town": "額乙丸町",
    "town_kana": "ヌカオトマルマチ",
    "street": null,
    "office_name": null,
    "office_name_kana": null
  },
  "8147": {
    "zip_code": "9218147",
    "prefecture": "石川県",
    "prefecture_kana": "イシカワケン",
    "prefecture_code": "17",
    "city": "金沢市",
    "city_kana": "カナザワシ",
    "town": "大額",
    "town_kana": "オオヌカ",
    "street": null,
    "office_name": null,
    "office_name_kana": null
  },
  "8148": {
    "zip_code": "9218148",
    "prefecture": "石川県",
    "prefecture_kana": "イシカワケン",
    "prefecture_code": "17",
    "city": "金沢市",
    "city_kana": "カナザワシ",
    "town": "額新保",
    "town_kana": "ヌカシンボ",
    "street": null,
    "office_name": null,
    "office_name_kana": null
  },
  "8149": {
    "zip_code": "9218149",
    "prefecture": "石川県",
    "prefecture_kana": "イシカワケン",
    "prefecture_code": "17",
    "city": "金沢市",
    "city_kana": "カナザワシ",
    "town": "額新町",
    "town_kana": "ヌカシンマチ",
    "street": null,
    "office_name": null,
    "office_name_kana": null
  },
  "8151": {
    "zip_code": "9218151",
    "prefecture": "石川県",
    "prefecture_kana": "イシカワケン",
    "prefecture_code": "17",
    "city": "金沢市",
    "city_kana": "カナザワシ",
    "town": "窪",
    "town_kana": "クボ",
    "street": null,
    "office_name": null,
    "office_name_kana": null
  },
  "8152": {
    "zip_code": "9218152",
    "prefecture": "石川県",
    "prefecture_kana": "イシカワケン",
    "prefecture_code": "17",
    "city": "金沢市",
    "city_kana": "カナザワシ",
    "town": "高尾",
    "town_kana": "タカオ",
    "street": null,
    "office_name": null,
    "office_name_kana": null
  },
  "8153": {
    "zip_code": "9218153",
    "prefecture": "石川県",
    "prefecture_kana": "イシカワケン",
    "prefecture_code": "17",
    "city": "金沢市",
    "city_kana": "カナザワシ",
    "town": "高尾町",
    "town_kana": "タカオマチ",
    "street": null,
    "office_name": null,
    "office_name_kana": null
  },
  "8154": {
    "zip_code": "9218154",
    "prefecture": "石川県",
    "prefecture_kana": "イシカワケン",
    "prefecture_code": "17",
    "city": "金沢市",
    "city_kana": "カナザワシ",
    "town": "高尾南",
    "town_kana": "タカオミナミ",
    "street": null,
    "office_name": null,
    "office_name_kana": null
  },
  "8155": {
    "zip_code": "9218155",
    "prefecture": "石川県",
    "prefecture_kana": "イシカワケン",
    "prefecture_code": "17",
    "city": "金沢市",
    "city_kana": "カナザワシ",
    "town": "高尾台",
    "town_kana": "タカオダイ",
    "street": null,
    "office_name": null,
    "office_name_kana": null
  },
  "8161": {
    "zip_code": "9218161",
    "prefecture": "石川県",
    "prefecture_kana": "イシカワケン",
    "prefecture_code": "17",
    "city": "金沢市",
    "city_kana": "カナザワシ",
    "town": "有松",
    "town_kana": "アリマツ",
    "street": null,
    "office_name": null,
    "office_name_kana": null
  },
  "8162": {
    "zip_code": "9218162",
    "prefecture": "石川県",
    "prefecture_kana": "イシカワケン",
    "prefecture_code": "17",
    "city": "金沢市",
    "city_kana": "カナザワシ",
    "town": "三馬",
    "town_kana": "ミンマ",
    "street": null,
    "office_name": null,
    "office_name_kana": null
  },
  "8163": {
    "zip_code": "9218163",
    "prefecture": "石川県",
    "prefecture_kana": "イシカワケン",
    "prefecture_code": "17",
    "city": "金沢市",
    "city_kana": "カナザワシ",
    "town": "横川",
    "town_kana": "ヨコガワ",
    "street": null,
    "office_name": null,
    "office_name_kana": null
  },
  "8164": {
    "zip_code": "9218164",
    "prefecture": "石川県",
    "prefecture_kana": "イシカワケン",
    "prefecture_code": "17",
    "city": "金沢市",
    "city_kana": "カナザワシ",
    "town": "久安",
    "town_kana": "ヒサヤス",
    "street": null,
    "office_name": null,
    "office_name_kana": null
  },
  "8171": {
    "zip_code": "9218171",
    "prefecture": "石川県",
    "prefecture_kana": "イシカワケン",
    "prefecture_code": "17",
    "city": "金沢市",
    "city_kana": "カナザワシ",
    "town": "富樫",
    "town_kana": "トガシ",
    "street": null,
    "office_name": null,
    "office_name_kana": null
  },
  "8172": {
    "zip_code": "9218172",
    "prefecture": "石川県",
    "prefecture_kana": "イシカワケン",
    "prefecture_code": "17",
    "city": "金沢市",
    "city_kana": "カナザワシ",
    "town": "伏見新町",
    "town_kana": "フシミシンマチ",
    "street": null,
    "office_name": null,
    "office_name_kana": null
  },
  "8173": {
    "zip_code": "9218173",
    "prefecture": "石川県",
    "prefecture_kana": "イシカワケン",
    "prefecture_code": "17",
    "city": "金沢市",
    "city_kana": "カナザワシ",
    "town": "円光寺",
    "town_kana": "エンコウジ",
    "street": null,
    "office_name": null,
    "office_name_kana": null
  },
  "8174": {
    "zip_code": "9218174",
    "prefecture": "石川県",
    "prefecture_kana": "イシカワケン",
    "prefecture_code": "17",
    "city": "金沢市",
    "city_kana": "カナザワシ",
    "town": "山科町",
    "town_kana": "ヤマシナマチ",
    "street": null,
    "office_name": null,
    "office_name_kana": null
  },
  "8175": {
    "zip_code": "9218175",
    "prefecture": "石川県",
    "prefecture_kana": "イシカワケン",
    "prefecture_code": "17",
    "city": "金沢市",
    "city_kana": "カナザワシ",
    "town": "山科",
    "town_kana": "ヤマシナ",
    "street": null,
    "office_name": null,
    "office_name_kana": null
  },
  "8176": {
    "zip_code": "9218176",
    "prefecture": "石川県",
    "prefecture_kana": "イシカワケン",
    "prefecture_code": "17",
    "city": "金沢市",
    "city_kana": "カナザワシ",
    "town": "円光寺本町",
    "town_kana": "エンコウジホンマチ",
    "street": null,
    "office_name": null,
    "office_name_kana": null
  },
  "8177": {
    "zip_code": "9218177",
    "prefecture": "石川県",
    "prefecture_kana": "イシカワケン",
    "prefecture_code": "17",
    "city": "金沢市",
    "city_kana": "カナザワシ",
    "town": "伏見台",
    "town_kana": "フシミダイ",
    "street": null,
    "office_name": null,
    "office_name_kana": null
  },
  "8178": {
    "zip_code": "9218178",
    "prefecture": "石川県",
    "prefecture_kana": "イシカワケン",
    "prefecture_code": "17",
    "city": "金沢市",
    "city_kana": "カナザワシ",
    "town": "寺地",
    "town_kana": "テラジ",
    "street": null,
    "office_name": null,
    "office_name_kana": null
  },
  "8501": {
    "zip_code": "9218501",
    "prefecture": "石川県",
    "prefecture_kana": "イシカワケン",
    "prefecture_code": "17",
    "city": "野々市市",
    "city_kana": "ノノイチシ",
    "town": "扇が丘",
    "town_kana": "オウギガオカ",
    "street": "７−１",
    "office_name": "学校法人　金沢工業大学",
    "office_name_kana": "ガツコウホウジン カナザワコウギヨウダイガク"
  },
  "8505": {
    "zip_code": "9218505",
    "prefecture": "石川県",
    "prefecture_kana": "イシカワケン",
    "prefecture_code": "17",
    "city": "金沢市",
    "city_kana": "カナザワシ",
    "town": "新神田",
    "town_kana": "シンカンダ",
    "street": "４丁目３−１０",
    "office_name": "金沢地方法務局",
    "office_name_kana": "カナザワチホウホウムキヨク"
  },
  "8506": {
    "zip_code": "9218506",
    "prefecture": "石川県",
    "prefecture_kana": "イシカワケン",
    "prefecture_code": "17",
    "city": "金沢市",
    "city_kana": "カナザワシ",
    "town": "新神田",
    "town_kana": "シンカンダ",
    "street": "４丁目３−１０（新神田合同庁舎３階）",
    "office_name": "自衛隊　石川地方協力本部",
    "office_name_kana": "ジエイタイ イシカワチホウキヨウリヨクホンブ"
  },
  "8507": {
    "zip_code": "9218507",
    "prefecture": "石川県",
    "prefecture_kana": "イシカワケン",
    "prefecture_code": "17",
    "city": "金沢市",
    "city_kana": "カナザワシ",
    "town": "新神田",
    "town_kana": "シンカンダ",
    "street": "４丁目３−１０",
    "office_name": "北陸農政局　土地改良技術事務所",
    "office_name_kana": "ホクリクノウセイキヨク トチカイリヨウギジユツジムシヨ"
  },
  "8508": {
    "zip_code": "9218508",
    "prefecture": "石川県",
    "prefecture_kana": "イシカワケン",
    "prefecture_code": "17",
    "city": "金沢市",
    "city_kana": "カナザワシ",
    "town": "新神田",
    "town_kana": "シンカンダ",
    "street": "４丁目３−１０",
    "office_name": "北陸財務局",
    "office_name_kana": "ホクリクザイムキヨク"
  },
  "8510": {
    "zip_code": "9218510",
    "prefecture": "石川県",
    "prefecture_kana": "イシカワケン",
    "prefecture_code": "17",
    "city": "野々市市",
    "city_kana": "ノノイチシ",
    "town": "三納",
    "town_kana": "サンノ",
    "street": "１丁目１番地",
    "office_name": "野々市市役所",
    "office_name_kana": "ノノイチシヤクシヨ"
  },
  "8511": {
    "zip_code": "9218511",
    "prefecture": "石川県",
    "prefecture_kana": "イシカワケン",
    "prefecture_code": "17",
    "city": "金沢市",
    "city_kana": "カナザワシ",
    "town": "入江",
    "town_kana": "イリエ",
    "street": "３丁目１６０",
    "office_name": "社団法人　石川県自動車整備振興会",
    "office_name_kana": "シヤダンホウジン イシカワケンジドウシヤセイビシンコウカイ"
  },
  "8512": {
    "zip_code": "9218512",
    "prefecture": "石川県",
    "prefecture_kana": "イシカワケン",
    "prefecture_code": "17",
    "city": "野々市市",
    "city_kana": "ノノイチシ",
    "town": "高橋町",
    "town_kana": "タカハシマチ",
    "street": "２４−２",
    "office_name": "Ｋ．Ｋ．　えふえむ・エヌ・ワン",
    "office_name_kana": "カブシキガイシヤ エフ.エム・エヌ・ワン"
  },
  "8515": {
    "zip_code": "9218515",
    "prefecture": "石川県",
    "prefecture_kana": "イシカワケン",
    "prefecture_code": "17",
    "city": "金沢市",
    "city_kana": "カナザワシ",
    "town": "泉本町",
    "town_kana": "イズミホンマチ",
    "street": "３丁目１１１",
    "office_name": "学校法人　金沢高等学校",
    "office_name_kana": "ガツコウホウジン カナザワコウトウガツコウ"
  },
  "8517": {
    "zip_code": "9218517",
    "prefecture": "石川県",
    "prefecture_kana": "イシカワケン",
    "prefecture_code": "17",
    "city": "金沢市",
    "city_kana": "カナザワシ",
    "town": "泉野出町",
    "town_kana": "イズミノデマチ",
    "street": "３丁目１０−１０",
    "office_name": "石川県立　金沢泉丘高等学校",
    "office_name_kana": "イシカワケンリツ カナザワイズミガオカコウトウガツコウ"
  },
  "8518": {
    "zip_code": "9218518",
    "prefecture": "石川県",
    "prefecture_kana": "イシカワケン",
    "prefecture_code": "17",
    "city": "金沢市",
    "city_kana": "カナザワシ",
    "town": "横川",
    "town_kana": "ヨコガワ",
    "street": "４丁目１８０",
    "office_name": "株式会社　ヤマチク",
    "office_name_kana": "カブシキガイシヤ ヤマチク"
  },
  "8520": {
    "zip_code": "9218520",
    "prefecture": "石川県",
    "prefecture_kana": "イシカワケン",
    "prefecture_code": "17",
    "city": "金沢市",
    "city_kana": "カナザワシ",
    "town": "野田町",
    "town_kana": "ノダマチ",
    "street": "１−８",
    "office_name": "陸上自衛隊　金沢駐屯地",
    "office_name_kana": "リクジヨウジエイタイ カナザワチユウトンチ"
  },
  "8523": {
    "zip_code": "9218523",
    "prefecture": "石川県",
    "prefecture_kana": "イシカワケン",
    "prefecture_code": "17",
    "city": "金沢市",
    "city_kana": "カナザワシ",
    "town": "野町",
    "town_kana": "ノマチ",
    "street": "３丁目２−３１",
    "office_name": "株式会社　味の近岡屋",
    "office_name_kana": "カブシキガイシヤ アジノチカオカヤ"
  },
  "8525": {
    "zip_code": "9218525",
    "prefecture": "石川県",
    "prefecture_kana": "イシカワケン",
    "prefecture_code": "17",
    "city": "金沢市",
    "city_kana": "カナザワシ",
    "town": "窪",
    "town_kana": "クボ",
    "street": "２丁目３−２",
    "office_name": "有限会社　ゴルフ情報センター",
    "office_name_kana": "ユウゲンガイシヤ ゴルフジヨウホウセンタ-"
  },
  "8526": {
    "zip_code": "9218526",
    "prefecture": "石川県",
    "prefecture_kana": "イシカワケン",
    "prefecture_code": "17",
    "city": "金沢市",
    "city_kana": "カナザワシ",
    "town": "御影町",
    "town_kana": "ミカゲマチ",
    "street": "１０−７",
    "office_name": "菱機工業　株式会社",
    "office_name_kana": "リヨウキコウギヨウ カブシキガイシヤ"
  },
  "8527": {
    "zip_code": "9218527",
    "prefecture": "石川県",
    "prefecture_kana": "イシカワケン",
    "prefecture_code": "17",
    "city": "金沢市",
    "city_kana": "カナザワシ",
    "town": "泉が丘",
    "town_kana": "イズミガオカ",
    "street": "１丁目２−１０",
    "office_name": "株式会社　カンポトラベル",
    "office_name_kana": "カブシキガイシヤ カンポトラベル"
  },
  "8529": {
    "zip_code": "9218529",
    "prefecture": "石川県",
    "prefecture_kana": "イシカワケン",
    "prefecture_code": "17",
    "city": "野々市市",
    "city_kana": "ノノイチシ",
    "town": "粟田",
    "town_kana": "アワダ",
    "street": "５丁目１００番地",
    "office_name": "津田駒工業　株式会社　野々市工場",
    "office_name_kana": "ツダコマコウギヨウ カブシキガイシヤ ノノイチコウジヨウ"
  },
  "8530": {
    "zip_code": "9218530",
    "prefecture": "石川県",
    "prefecture_kana": "イシカワケン",
    "prefecture_code": "17",
    "city": "金沢市",
    "city_kana": "カナザワシ",
    "town": "玉鉾",
    "town_kana": "タマボコ",
    "street": "４丁目１１１番地",
    "office_name": "倉庫精練　株式会社",
    "office_name_kana": "ソウコセイレン カブシキガイシヤ"
  },
  "8531": {
    "zip_code": "9218531",
    "prefecture": "石川県",
    "prefecture_kana": "イシカワケン",
    "prefecture_code": "17",
    "city": "金沢市",
    "city_kana": "カナザワシ",
    "town": "泉",
    "town_kana": "イズミ",
    "street": "３丁目１−６",
    "office_name": "株式会社　ジェスクホリウチ",
    "office_name_kana": "カブシキガイシヤ ジエスクホリウチ"
  },
  "8532": {
    "zip_code": "9218532",
    "prefecture": "石川県",
    "prefecture_kana": "イシカワケン",
    "prefecture_code": "17",
    "city": "金沢市",
    "city_kana": "カナザワシ",
    "town": "新保本",
    "town_kana": "シンボホン",
    "street": "３丁目３",
    "office_name": "喜多ハウジング　株式会社",
    "office_name_kana": "キタハウジング カブシキガイシヤ"
  },
  "8536": {
    "zip_code": "9218536",
    "prefecture": "石川県",
    "prefecture_kana": "イシカワケン",
    "prefecture_code": "17",
    "city": "金沢市",
    "city_kana": "カナザワシ",
    "town": "森戸",
    "town_kana": "モリト",
    "street": "１丁目１６６",
    "office_name": "第一電機工業　株式会社",
    "office_name_kana": "ダイイチデンキコウギヨウ カブシキガイシヤ"
  },
  "8539": {
    "zip_code": "9218539",
    "prefecture": "石川県",
    "prefecture_kana": "イシカワケン",
    "prefecture_code": "17",
    "city": "金沢市",
    "city_kana": "カナザワシ",
    "town": "泉本町",
    "town_kana": "イズミホンマチ",
    "street": "３丁目１０２",
    "office_name": "北陸スバル自動車　株式会社",
    "office_name_kana": "ホクリクスバルジドウシヤ カブシキガイシヤ"
  },
  "8541": {
    "zip_code": "9218541",
    "prefecture": "石川県",
    "prefecture_kana": "イシカワケン",
    "prefecture_code": "17",
    "city": "金沢市",
    "city_kana": "カナザワシ",
    "town": "弥生",
    "town_kana": "ヤヨイ",
    "street": "１丁目１７−２８",
    "office_name": "株式会社　四十萬谷本舗",
    "office_name_kana": "カブシキガイシヤ シジマヤホンポ"
  },
  "8544": {
    "zip_code": "9218544",
    "prefecture": "石川県",
    "prefecture_kana": "イシカワケン",
    "prefecture_code": "17",
    "city": "野々市市",
    "city_kana": "ノノイチシ",
    "town": "御経塚",
    "town_kana": "オキョウヅカ",
    "street": "３丁目８",
    "office_name": "株式会社　モリワン",
    "office_name_kana": "カブシキガイシヤ モリワン"
  },
  "8546": {
    "zip_code": "9218546",
    "prefecture": "石川県",
    "prefecture_kana": "イシカワケン",
    "prefecture_code": "17",
    "city": "金沢市",
    "city_kana": "カナザワシ",
    "town": "御影町",
    "town_kana": "ミカゲマチ",
    "street": "１９番１号",
    "office_name": "ヨシダ印刷　株式会社",
    "office_name_kana": "ヨシダインサツ カブシキガイシヤ"
  },
  "8548": {
    "zip_code": "9218548",
    "prefecture": "石川県",
    "prefecture_kana": "イシカワケン",
    "prefecture_code": "17",
    "city": "金沢市",
    "city_kana": "カナザワシ",
    "town": "横川",
    "town_kana": "ヨコガワ",
    "street": "７丁目２−４",
    "office_name": "株式会社　柴舟　小出",
    "office_name_kana": "カブシキガイシヤ シバフネ コイデ"
  },
  "8550": {
    "zip_code": "9218550",
    "prefecture": "石川県",
    "prefecture_kana": "イシカワケン",
    "prefecture_code": "17",
    "city": "金沢市",
    "city_kana": "カナザワシ",
    "town": "玉鉾",
    "town_kana": "タマボコ",
    "street": "４丁目１７",
    "office_name": "株式会社　長府製作所　金沢営業所",
    "office_name_kana": "カブシキガイシヤ チヨウフセイサクシヨ カナザワエイギヨウシヨ"
  },
  "8552": {
    "zip_code": "9218552",
    "prefecture": "石川県",
    "prefecture_kana": "イシカワケン",
    "prefecture_code": "17",
    "city": "金沢市",
    "city_kana": "カナザワシ",
    "town": "増泉",
    "town_kana": "マスイズミ",
    "street": "２丁目１８−１５",
    "office_name": "東亜電機工業　株式会社",
    "office_name_kana": "トウアデンキコウギヨウ カブシキガイシヤ"
  },
  "8555": {
    "zip_code": "9218555",
    "prefecture": "石川県",
    "prefecture_kana": "イシカワケン",
    "prefecture_code": "17",
    "city": "金沢市",
    "city_kana": "カナザワシ",
    "town": "増泉",
    "town_kana": "マスイズミ",
    "street": "５丁目１−３０",
    "office_name": "株式会社　辻さく",
    "office_name_kana": "カブシキガイシヤ ツジサク"
  },
  "8560": {
    "zip_code": "9218560",
    "prefecture": "石川県",
    "prefecture_kana": "イシカワケン",
    "prefecture_code": "17",
    "city": "金沢市",
    "city_kana": "カナザワシ",
    "town": "新保本",
    "town_kana": "シンボホン",
    "street": "４丁目９−１",
    "office_name": "株式会社　太陽ゴルフ",
    "office_name_kana": "カブシキガイシヤ タイヨウゴルフ"
  },
  "8561": {
    "zip_code": "9218561",
    "prefecture": "石川県",
    "prefecture_kana": "イシカワケン",
    "prefecture_code": "17",
    "city": "金沢市",
    "city_kana": "カナザワシ",
    "town": "泉本町",
    "town_kana": "イズミホンマチ",
    "street": "５丁目６１",
    "office_name": "株式会社　金太",
    "office_name_kana": "カブシキガイシヤ キンタ"
  },
  "8562": {
    "zip_code": "9218562",
    "prefecture": "石川県",
    "prefecture_kana": "イシカワケン",
    "prefecture_code": "17",
    "city": "金沢市",
    "city_kana": "カナザワシ",
    "town": "泉野出町",
    "town_kana": "イズミノデマチ",
    "street": "２丁目２２−１２",
    "office_name": "（株）　金沢倶楽部",
    "office_name_kana": "カブシキガイシヤ カナザワクラブ"
  },
  "8564": {
    "zip_code": "9218564",
    "prefecture": "石川県",
    "prefecture_kana": "イシカワケン",
    "prefecture_code": "17",
    "city": "野々市市",
    "city_kana": "ノノイチシ",
    "town": "稲荷",
    "town_kana": "イナリ",
    "street": "１−１",
    "office_name": "株式会社　高井製作所",
    "office_name_kana": "カブシキガイシヤ タカイセイサクシヨ"
  },
  "8565": {
    "zip_code": "9218565",
    "prefecture": "石川県",
    "prefecture_kana": "イシカワケン",
    "prefecture_code": "17",
    "city": "金沢市",
    "city_kana": "カナザワシ",
    "town": "大額町",
    "town_kana": "オオヌカマチ",
    "street": "ル８",
    "office_name": "株式会社　浅田屋金沢国際ホテル",
    "office_name_kana": "カブシキガイシヤ アサダヤカナザワコクサイホテル"
  },
  "8571": {
    "zip_code": "9218571",
    "prefecture": "石川県",
    "prefecture_kana": "イシカワケン",
    "prefecture_code": "17",
    "city": "金沢市",
    "city_kana": "カナザワシ",
    "town": "泉",
    "town_kana": "イズミ",
    "street": "３丁目６−４８",
    "office_name": "株式会社　シンヤ　（ふくら屋）",
    "office_name_kana": "カブシキガイシヤ シンヤ (フクラヤ)"
  },
  "8572": {
    "zip_code": "9218572",
    "prefecture": "石川県",
    "prefecture_kana": "イシカワケン",
    "prefecture_code": "17",
    "city": "金沢市",
    "city_kana": "カナザワシ",
    "town": "御影町",
    "town_kana": "ミカゲマチ",
    "street": "３−１",
    "office_name": "石川トヨタ自動車　株式会社",
    "office_name_kana": "イシカワトヨタジドウシヤ カブシキガイシヤ"
  },
  "8573": {
    "zip_code": "9218573",
    "prefecture": "石川県",
    "prefecture_kana": "イシカワケン",
    "prefecture_code": "17",
    "city": "野々市市",
    "city_kana": "ノノイチシ",
    "town": "堀内",
    "town_kana": "ホリウチ",
    "street": "４丁目８７",
    "office_name": "トヨタカローラ石川　株式会社",
    "office_name_kana": "トヨタカロ-ライシカワ カブシキガイシヤ"
  },
  "8574": {
    "zip_code": "9218574",
    "prefecture": "石川県",
    "prefecture_kana": "イシカワケン",
    "prefecture_code": "17",
    "city": "金沢市",
    "city_kana": "カナザワシ",
    "town": "窪",
    "town_kana": "クボ",
    "street": "１丁目７５番地",
    "office_name": "協和道路　株式会社",
    "office_name_kana": "キヨウワドウロ カブシキガイシヤ"
  },
  "8575": {
    "zip_code": "9218575",
    "prefecture": "石川県",
    "prefecture_kana": "イシカワケン",
    "prefecture_code": "17",
    "city": "野々市市",
    "city_kana": "ノノイチシ",
    "town": "押野",
    "town_kana": "オシノ",
    "street": "３丁目６１",
    "office_name": "株式会社　アイワホーム",
    "office_name_kana": "カブシキガイシヤ アイワホ-ム"
  },
  "8576": {
    "zip_code": "9218576",
    "prefecture": "石川県",
    "prefecture_kana": "イシカワケン",
    "prefecture_code": "17",
    "city": "金沢市",
    "city_kana": "カナザワシ",
    "town": "西泉",
    "town_kana": "ニシイズミ",
    "street": "４丁目３５番地",
    "office_name": "株式会社　プロ保険",
    "office_name_kana": "カブシキガイシヤ プロホケン"
  },
  "8577": {
    "zip_code": "9218577",
    "prefecture": "石川県",
    "prefecture_kana": "イシカワケン",
    "prefecture_code": "17",
    "city": "野々市市",
    "city_kana": "ノノイチシ",
    "town": "扇が丘",
    "town_kana": "オウギガオカ",
    "street": "１−１",
    "office_name": "株式会社　大日製作所",
    "office_name_kana": "カブシキガイシヤ ダイニチセイサクシヨ"
  },
  "8579": {
    "zip_code": "9218579",
    "prefecture": "石川県",
    "prefecture_kana": "イシカワケン",
    "prefecture_code": "17",
    "city": "金沢市",
    "city_kana": "カナザワシ",
    "town": "窪",
    "town_kana": "クボ",
    "street": "４丁目４４０番地",
    "office_name": "パナホーム　株式会社　北陸支店",
    "office_name_kana": "パナホ-ム カブシキガイシヤ ホクリクシテン"
  },
  "8580": {
    "zip_code": "9218580",
    "prefecture": "石川県",
    "prefecture_kana": "イシカワケン",
    "prefecture_code": "17",
    "city": "金沢市",
    "city_kana": "カナザワシ",
    "town": "御影町",
    "town_kana": "ミカゲマチ",
    "street": "９−２４",
    "office_name": "株式会社　カヨウ",
    "office_name_kana": "カブシキガイシヤ カヨウ"
  },
  "8581": {
    "zip_code": "9218581",
    "prefecture": "石川県",
    "prefecture_kana": "イシカワケン",
    "prefecture_code": "17",
    "city": "野々市市",
    "city_kana": "ノノイチシ",
    "town": "上林",
    "town_kana": "カンバヤシ",
    "street": "５丁目２９−１",
    "office_name": "株式会社　みやもり",
    "office_name_kana": "カブシキガイシヤ ミヤモリ"
  },
  "8582": {
    "zip_code": "9218582",
    "prefecture": "石川県",
    "prefecture_kana": "イシカワケン",
    "prefecture_code": "17",
    "city": "金沢市",
    "city_kana": "カナザワシ",
    "town": "新神田",
    "town_kana": "シンカンダ",
    "street": "１丁目１２−１８",
    "office_name": "株式会社　ハチバン",
    "office_name_kana": "カブシキガイシヤ ハチバン"
  },
  "8583": {
    "zip_code": "9218583",
    "prefecture": "石川県",
    "prefecture_kana": "イシカワケン",
    "prefecture_code": "17",
    "city": "金沢市",
    "city_kana": "カナザワシ",
    "town": "入江",
    "town_kana": "イリエ",
    "street": "３丁目１８",
    "office_name": "オートバックス　入江店",
    "office_name_kana": "オ-トバツクス イリエテン"
  },
  "8584": {
    "zip_code": "9218584",
    "prefecture": "石川県",
    "prefecture_kana": "イシカワケン",
    "prefecture_code": "17",
    "city": "金沢市",
    "city_kana": "カナザワシ",
    "town": "神田",
    "town_kana": "カンダ",
    "street": "１丁目１３−１",
    "office_name": "北川ヒューテック　株式会社",
    "office_name_kana": "キタガワヒユ-テツク カブシキガイシヤ"
  },
  "8585": {
    "zip_code": "9218585",
    "prefecture": "石川県",
    "prefecture_kana": "イシカワケン",
    "prefecture_code": "17",
    "city": "金沢市",
    "city_kana": "カナザワシ",
    "town": "玉鉾",
    "town_kana": "タマボコ",
    "street": "２丁目５０２番地エーブル金沢ビル５階",
    "office_name": "株式会社　うつのみや",
    "office_name_kana": "カブシキガイシヤ ウツノミヤ"
  },
  "8588": {
    "zip_code": "9218588",
    "prefecture": "石川県",
    "prefecture_kana": "イシカワケン",
    "prefecture_code": "17",
    "city": "金沢市",
    "city_kana": "カナザワシ",
    "town": "進和町",
    "town_kana": "シンワマチ",
    "street": "３２",
    "office_name": "米沢電気工事　株式会社",
    "office_name_kana": "ヨネザワデンキコウジ カブシキガイシヤ"
  },
  "8589": {
    "zip_code": "9218589",
    "prefecture": "石川県",
    "prefecture_kana": "イシカワケン",
    "prefecture_code": "17",
    "city": "野々市市",
    "city_kana": "ノノイチシ",
    "town": "上林",
    "town_kana": "カンバヤシ",
    "street": "２丁目１６２番地１",
    "office_name": "株式会社　ぶった農産",
    "office_name_kana": "カブシキガイシヤ ブツタノウサン"
  },
  "8601": {
    "zip_code": "9218601",
    "prefecture": "石川県",
    "prefecture_kana": "イシカワケン",
    "prefecture_code": "17",
    "city": "金沢市",
    "city_kana": "カナザワシ",
    "town": "久安",
    "town_kana": "ヒサヤス",
    "street": "２丁目２７０",
    "office_name": "金沢工業高等専門学校",
    "office_name_kana": "カナザワコウギヨウコウトウセンモンガツコウ"
  },
  "8611": {
    "zip_code": "9218611",
    "prefecture": "石川県",
    "prefecture_kana": "イシカワケン",
    "prefecture_code": "17",
    "city": "金沢市",
    "city_kana": "カナザワシ",
    "town": "増泉",
    "town_kana": "マスイズミ",
    "street": "３丁目４−３０",
    "office_name": "株式会社　富士通北陸システムズ　（本社）",
    "office_name_kana": "カブシキガイシヤ フジツウホクリクシステムズ (ホンシヤ)"
  },
  "8612": {
    "zip_code": "9218612",
    "prefecture": "石川県",
    "prefecture_kana": "イシカワケン",
    "prefecture_code": "17",
    "city": "金沢市",
    "city_kana": "カナザワシ",
    "town": "増泉",
    "town_kana": "マスイズミ",
    "street": "２丁目７−１６グリーンヒルズビル",
    "office_name": "株式会社　富士通北陸システムズ",
    "office_name_kana": "カブシキガイシヤ フジツウホクリクシステムズ"
  },
  "8616": {
    "zip_code": "9218616",
    "prefecture": "石川県",
    "prefecture_kana": "イシカワケン",
    "prefecture_code": "17",
    "city": "金沢市",
    "city_kana": "カナザワシ",
    "town": "西金沢",
    "town_kana": "ニシカナザワ",
    "street": "４丁目５５５",
    "office_name": "北陸ミサワホーム　株式会社　西金沢支店",
    "office_name_kana": "ホクリクミサワホ-ム カブシキガイシヤ ニシカナザワシテン"
  },
  "8620": {
    "zip_code": "9218620",
    "prefecture": "石川県",
    "prefecture_kana": "イシカワケン",
    "prefecture_code": "17",
    "city": "金沢市",
    "city_kana": "カナザワシ",
    "town": "西泉",
    "town_kana": "ニシイズミ",
    "street": "２丁目１７８",
    "office_name": "ネッツトヨタ石川　株式会社",
    "office_name_kana": "ネツツトヨタイシカワ カブシキガイシヤ"
  },
  "8621": {
    "zip_code": "9218621",
    "prefecture": "石川県",
    "prefecture_kana": "イシカワケン",
    "prefecture_code": "17",
    "city": "金沢市",
    "city_kana": "カナザワシ",
    "town": "有松",
    "town_kana": "アリマツ",
    "street": "４丁目３−１０",
    "office_name": "東大セミナー金沢校",
    "office_name_kana": "トウダイセミナ-カナザワコウ"
  },
  "8630": {
    "zip_code": "9218630",
    "prefecture": "石川県",
    "prefecture_kana": "イシカワケン",
    "prefecture_code": "17",
    "city": "金沢市",
    "city_kana": "カナザワシ",
    "town": "玉鉾",
    "town_kana": "タマボコ",
    "street": "４丁目１１１番地",
    "office_name": "倉庫精練　株式会社　第二事業部　（米丸工場）",
    "office_name_kana": "ソウコセイレン カブシキガイシヤ ダイニジギヨウブ (ヨネマルコウジヨウ)"
  },
  "8637": {
    "zip_code": "9218637",
    "prefecture": "石川県",
    "prefecture_kana": "イシカワケン",
    "prefecture_code": "17",
    "city": "金沢市",
    "city_kana": "カナザワシ",
    "town": "有松",
    "town_kana": "アリマツ",
    "street": "５丁目８−２８",
    "office_name": "東大セミナー高等部",
    "office_name_kana": "トウダイセミナ-コウトウブ"
  },
  "8639": {
    "zip_code": "9218639",
    "prefecture": "石川県",
    "prefecture_kana": "イシカワケン",
    "prefecture_code": "17",
    "city": "金沢市",
    "city_kana": "カナザワシ",
    "town": "野町",
    "town_kana": "ノマチ",
    "street": "１丁目２−１２",
    "office_name": "宗教法人　妙立寺",
    "office_name_kana": "シユウキヨウホウジン ミヨウリユウジ"
  },
  "8650": {
    "zip_code": "9218650",
    "prefecture": "石川県",
    "prefecture_kana": "イシカワケン",
    "prefecture_code": "17",
    "city": "金沢市",
    "city_kana": "カナザワシ",
    "town": "野町",
    "town_kana": "ノマチ",
    "street": "５丁目１８−１８（金沢南郵便局私書箱第１号）",
    "office_name": "津田駒工業　株式会社",
    "office_name_kana": "ツダコマコウギヨウ カブシキガイシヤ"
  },
  "8798": {
    "zip_code": "9218798",
    "prefecture": "石川県",
    "prefecture_kana": "イシカワケン",
    "prefecture_code": "17",
    "city": "金沢市",
    "city_kana": "カナザワシ",
    "town": "弥生",
    "town_kana": "ヤヨイ",
    "street": "３丁目３−３７",
    "office_name": "北陸郵政研修センター",
    "office_name_kana": "ホクリクユウセイケンシユウセンタ-"
  },
  "8801": {
    "zip_code": "9218801",
    "prefecture": "石川県",
    "prefecture_kana": "イシカワケン",
    "prefecture_code": "17",
    "city": "野々市市",
    "city_kana": "ノノイチシ",
    "town": "御経塚",
    "town_kana": "オキョウヅカ",
    "street": null,
    "office_name": null,
    "office_name_kana": null
  },
  "8802": {
    "zip_code": "9218802",
    "prefecture": "石川県",
    "prefecture_kana": "イシカワケン",
    "prefecture_code": "17",
    "city": "野々市市",
    "city_kana": "ノノイチシ",
    "town": "押野",
    "town_kana": "オシノ",
    "street": null,
    "office_name": null,
    "office_name_kana": null
  },
  "8803": {
    "zip_code": "9218803",
    "prefecture": "石川県",
    "prefecture_kana": "イシカワケン",
    "prefecture_code": "17",
    "city": "野々市市",
    "city_kana": "ノノイチシ",
    "town": "押越",
    "town_kana": "オシコシ",
    "street": null,
    "office_name": null,
    "office_name_kana": null
  },
  "8804": {
    "zip_code": "9218804",
    "prefecture": "石川県",
    "prefecture_kana": "イシカワケン",
    "prefecture_code": "17",
    "city": "野々市市",
    "city_kana": "ノノイチシ",
    "town": "野代",
    "town_kana": "ノシロ",
    "street": null,
    "office_name": null,
    "office_name_kana": null
  },
  "8805": {
    "zip_code": "9218805",
    "prefecture": "石川県",
    "prefecture_kana": "イシカワケン",
    "prefecture_code": "17",
    "city": "野々市市",
    "city_kana": "ノノイチシ",
    "town": "稲荷",
    "town_kana": "イナリ",
    "street": null,
    "office_name": null,
    "office_name_kana": null
  },
  "8806": {
    "zip_code": "9218806",
    "prefecture": "石川県",
    "prefecture_kana": "イシカワケン",
    "prefecture_code": "17",
    "city": "野々市市",
    "city_kana": "ノノイチシ",
    "town": "三日市町",
    "town_kana": "ミッカイチマチ",
    "street": null,
    "office_name": null,
    "office_name_kana": null
  },
  "8807": {
    "zip_code": "9218807",
    "prefecture": "石川県",
    "prefecture_kana": "イシカワケン",
    "prefecture_code": "17",
    "city": "野々市市",
    "city_kana": "ノノイチシ",
    "town": "二日市町",
    "town_kana": "フツカイチマチ",
    "street": null,
    "office_name": null,
    "office_name_kana": null
  },
  "8808": {
    "zip_code": "9218808",
    "prefecture": "石川県",
    "prefecture_kana": "イシカワケン",
    "prefecture_code": "17",
    "city": "野々市市",
    "city_kana": "ノノイチシ",
    "town": "長池",
    "town_kana": "ナガイケ",
    "street": null,
    "office_name": null,
    "office_name_kana": null
  },
  "8811": {
    "zip_code": "9218811",
    "prefecture": "石川県",
    "prefecture_kana": "イシカワケン",
    "prefecture_code": "17",
    "city": "野々市市",
    "city_kana": "ノノイチシ",
    "town": "高橋町",
    "town_kana": "タカハシマチ",
    "street": null,
    "office_name": null,
    "office_name_kana": null
  },
  "8812": {
    "zip_code": "9218812",
    "prefecture": "石川県",
    "prefecture_kana": "イシカワケン",
    "prefecture_code": "17",
    "city": "野々市市",
    "city_kana": "ノノイチシ",
    "town": "扇が丘",
    "town_kana": "オウギガオカ",
    "street": null,
    "office_name": null,
    "office_name_kana": null
  },
  "8813": {
    "zip_code": "9218813",
    "prefecture": "石川県",
    "prefecture_kana": "イシカワケン",
    "prefecture_code": "17",
    "city": "野々市市",
    "city_kana": "ノノイチシ",
    "town": "住吉町",
    "town_kana": "スミヨシマチ",
    "street": null,
    "office_name": null,
    "office_name_kana": null
  },
  "8814": {
    "zip_code": "9218814",
    "prefecture": "石川県",
    "prefecture_kana": "イシカワケン",
    "prefecture_code": "17",
    "city": "野々市市",
    "city_kana": "ノノイチシ",
    "town": "菅原町",
    "town_kana": "スガハラマチ",
    "street": null,
    "office_name": null,
    "office_name_kana": null
  },
  "8815": {
    "zip_code": "9218815",
    "prefecture": "石川県",
    "prefecture_kana": "イシカワケン",
    "prefecture_code": "17",
    "city": "野々市市",
    "city_kana": "ノノイチシ",
    "town": "本町",
    "town_kana": "ホンマチ",
    "street": null,
    "office_name": null,
    "office_name_kana": null
  },
  "8816": {
    "zip_code": "9218816",
    "prefecture": "石川県",
    "prefecture_kana": "イシカワケン",
    "prefecture_code": "17",
    "city": "野々市市",
    "city_kana": "ノノイチシ",
    "town": "若松町",
    "town_kana": "ワカマツマチ",
    "street": null,
    "office_name": null,
    "office_name_kana": null
  },
  "8817": {
    "zip_code": "9218817",
    "prefecture": "石川県",
    "prefecture_kana": "イシカワケン",
    "prefecture_code": "17",
    "city": "野々市市",
    "city_kana": "ノノイチシ",
    "town": "横宮町",
    "town_kana": "ヨコミヤマチ",
    "street": null,
    "office_name": null,
    "office_name_kana": null
  },
  "8821": {
    "zip_code": "9218821",
    "prefecture": "石川県",
    "prefecture_kana": "イシカワケン",
    "prefecture_code": "17",
    "city": "野々市市",
    "city_kana": "ノノイチシ",
    "town": "白山町",
    "town_kana": "ハクサンマチ",
    "street": null,
    "office_name": null,
    "office_name_kana": null
  },
  "8822": {
    "zip_code": "9218822",
    "prefecture": "石川県",
    "prefecture_kana": "イシカワケン",
    "prefecture_code": "17",
    "city": "野々市市",
    "city_kana": "ノノイチシ",
    "town": "矢作",
    "town_kana": "ヤハギ",
    "street": null,
    "office_name": null,
    "office_name_kana": null
  },
  "8823": {
    "zip_code": "9218823",
    "prefecture": "石川県",
    "prefecture_kana": "イシカワケン",
    "prefecture_code": "17",
    "city": "野々市市",
    "city_kana": "ノノイチシ",
    "town": "粟田",
    "town_kana": "アワダ",
    "street": null,
    "office_name": null,
    "office_name_kana": null
  },
  "8824": {
    "zip_code": "9218824",
    "prefecture": "石川県",
    "prefecture_kana": "イシカワケン",
    "prefecture_code": "17",
    "city": "野々市市",
    "city_kana": "ノノイチシ",
    "town": "新庄",
    "town_kana": "シンジョウ",
    "street": null,
    "office_name": null,
    "office_name_kana": null
  },
  "8825": {
    "zip_code": "9218825",
    "prefecture": "石川県",
    "prefecture_kana": "イシカワケン",
    "prefecture_code": "17",
    "city": "野々市市",
    "city_kana": "ノノイチシ",
    "town": "三納",
    "town_kana": "サンノ",
    "street": null,
    "office_name": null,
    "office_name_kana": null
  },
  "8831": {
    "zip_code": "9218831",
    "prefecture": "石川県",
    "prefecture_kana": "イシカワケン",
    "prefecture_code": "17",
    "city": "野々市市",
    "city_kana": "ノノイチシ",
    "town": "下林",
    "town_kana": "シモバヤシ",
    "street": null,
    "office_name": null,
    "office_name_kana": null
  },
  "8832": {
    "zip_code": "9218832",
    "prefecture": "石川県",
    "prefecture_kana": "イシカワケン",
    "prefecture_code": "17",
    "city": "野々市市",
    "city_kana": "ノノイチシ",
    "town": "藤平田",
    "town_kana": "トヘイダ",
    "street": null,
    "office_name": null,
    "office_name_kana": null
  },
  "8833": {
    "zip_code": "9218833",
    "prefecture": "石川県",
    "prefecture_kana": "イシカワケン",
    "prefecture_code": "17",
    "city": "野々市市",
    "city_kana": "ノノイチシ",
    "town": "藤平",
    "town_kana": "フジヒラ",
    "street": null,
    "office_name": null,
    "office_name_kana": null
  },
  "8834": {
    "zip_code": "9218834",
    "prefecture": "石川県",
    "prefecture_kana": "イシカワケン",
    "prefecture_code": "17",
    "city": "野々市市",
    "city_kana": "ノノイチシ",
    "town": "中林",
    "town_kana": "ナカバヤシ",
    "street": null,
    "office_name": null,
    "office_name_kana": null
  },
  "8835": {
    "zip_code": "9218835",
    "prefecture": "石川県",
    "prefecture_kana": "イシカワケン",
    "prefecture_code": "17",
    "city": "野々市市",
    "city_kana": "ノノイチシ",
    "town": "上林",
    "town_kana": "カンバヤシ",
    "street": null,
    "office_name": null,
    "office_name_kana": null
  },
  "8836": {
    "zip_code": "9218836",
    "prefecture": "石川県",
    "prefecture_kana": "イシカワケン",
    "prefecture_code": "17",
    "city": "野々市市",
    "city_kana": "ノノイチシ",
    "town": "末松",
    "town_kana": "スエマツ",
    "street": null,
    "office_name": null,
    "office_name_kana": null
  },
  "8837": {
    "zip_code": "9218837",
    "prefecture": "石川県",
    "prefecture_kana": "イシカワケン",
    "prefecture_code": "17",
    "city": "野々市市",
    "city_kana": "ノノイチシ",
    "town": "清金",
    "town_kana": "キヨカネ",
    "street": null,
    "office_name": null,
    "office_name_kana": null
  },
  "8841": {
    "zip_code": "9218841",
    "prefecture": "石川県",
    "prefecture_kana": "イシカワケン",
    "prefecture_code": "17",
    "city": "野々市市",
    "city_kana": "ノノイチシ",
    "town": "郷町",
    "town_kana": "ゴウマチ",
    "street": null,
    "office_name": null,
    "office_name_kana": null
  },
  "8842": {
    "zip_code": "9218842",
    "prefecture": "石川県",
    "prefecture_kana": "イシカワケン",
    "prefecture_code": "17",
    "city": "野々市市",
    "city_kana": "ノノイチシ",
    "town": "徳用町",
    "town_kana": "トクモトマチ",
    "street": null,
    "office_name": null,
    "office_name_kana": null
  },
  "8843": {
    "zip_code": "9218843",
    "prefecture": "石川県",
    "prefecture_kana": "イシカワケン",
    "prefecture_code": "17",
    "city": "野々市市",
    "city_kana": "ノノイチシ",
    "town": "田尻町",
    "town_kana": "タノシリマチ",
    "street": null,
    "office_name": null,
    "office_name_kana": null
  },
  "8844": {
    "zip_code": "9218844",
    "prefecture": "石川県",
    "prefecture_kana": "イシカワケン",
    "prefecture_code": "17",
    "city": "野々市市",
    "city_kana": "ノノイチシ",
    "town": "堀内",
    "town_kana": "ホリウチ",
    "street": null,
    "office_name": null,
    "office_name_kana": null
  },
  "8845": {
    "zip_code": "9218845",
    "prefecture": "石川県",
    "prefecture_kana": "イシカワケン",
    "prefecture_code": "17",
    "city": "野々市市",
    "city_kana": "ノノイチシ",
    "town": "太平寺",
    "town_kana": "タヘイジ",
    "street": null,
    "office_name": null,
    "office_name_kana": null
  },
  "8846": {
    "zip_code": "9218846",
    "prefecture": "石川県",
    "prefecture_kana": "イシカワケン",
    "prefecture_code": "17",
    "city": "野々市市",
    "city_kana": "ノノイチシ",
    "town": "位川",
    "town_kana": "クライガワ",
    "street": null,
    "office_name": null,
    "office_name_kana": null
  },
  "8847": {
    "zip_code": "9218847",
    "prefecture": "石川県",
    "prefecture_kana": "イシカワケン",
    "prefecture_code": "17",
    "city": "野々市市",
    "city_kana": "ノノイチシ",
    "town": "蓮花寺町",
    "town_kana": "レンゲジマチ",
    "street": null,
    "office_name": null,
    "office_name_kana": null
  },
  "8848": {
    "zip_code": "9218848",
    "prefecture": "石川県",
    "prefecture_kana": "イシカワケン",
    "prefecture_code": "17",
    "city": "野々市市",
    "city_kana": "ノノイチシ",
    "town": "柳町",
    "town_kana": "ヤナギマチ",
    "street": null,
    "office_name": null,
    "office_name_kana": null
  }
}