{
  "0000": {
    "zip_code": "9230000",
    "prefecture": "石川県",
    "prefecture_kana": "イシカワケン",
    "prefecture_code": 17,
    "city": "小松市",
    "city_kana": "コマツシ",
    "town": "",
    "town_kana": "",
    "street": null,
    "office_name": null,
    "office_name_kana": null
  },
  "0001": {
    "zip_code": "9230001",
    "prefecture": "石川県",
    "prefecture_kana": "イシカワケン",
    "prefecture_code": 17,
    "city": "小松市",
    "city_kana": "コマツシ",
    "town": "大島町",
    "town_kana": "オオシママチ",
    "street": null,
    "office_name": null,
    "office_name_kana": null
  },
  "0002": {
    "zip_code": "9230002",
    "prefecture": "石川県",
    "prefecture_kana": "イシカワケン",
    "prefecture_code": 17,
    "city": "小松市",
    "city_kana": "コマツシ",
    "town": "小島町",
    "town_kana": "コジママチ",
    "street": null,
    "office_name": null,
    "office_name_kana": null
  },
  "0003": {
    "zip_code": "9230003",
    "prefecture": "石川県",
    "prefecture_kana": "イシカワケン",
    "prefecture_code": 17,
    "city": "小松市",
    "city_kana": "コマツシ",
    "town": "安宅町",
    "town_kana": "アタカマチ",
    "street": null,
    "office_name": null,
    "office_name_kana": null
  },
  "0004": {
    "zip_code": "9230004",
    "prefecture": "石川県",
    "prefecture_kana": "イシカワケン",
    "prefecture_code": 17,
    "city": "小松市",
    "city_kana": "コマツシ",
    "town": "長崎町",
    "town_kana": "ナガサキマチ",
    "street": null,
    "office_name": null,
    "office_name_kana": null
  },
  "0005": {
    "zip_code": "9230005",
    "prefecture": "石川県",
    "prefecture_kana": "イシカワケン",
    "prefecture_code": 17,
    "city": "小松市",
    "city_kana": "コマツシ",
    "town": "坊丸町",
    "town_kana": "ボウマルマチ",
    "street": null,
    "office_name": null,
    "office_name_kana": null
  },
  "0011": {
    "zip_code": "9230011",
    "prefecture": "石川県",
    "prefecture_kana": "イシカワケン",
    "prefecture_code": 17,
    "city": "小松市",
    "city_kana": "コマツシ",
    "town": "蛭川町",
    "town_kana": "ビルガワマチ",
    "street": null,
    "office_name": null,
    "office_name_kana": null
  },
  "0012": {
    "zip_code": "9230012",
    "prefecture": "石川県",
    "prefecture_kana": "イシカワケン",
    "prefecture_code": 17,
    "city": "小松市",
    "city_kana": "コマツシ",
    "town": "東蛭川町",
    "town_kana": "ヒガシヒルガワマチ",
    "street": null,
    "office_name": null,
    "office_name_kana": null
  },
  "0013": {
    "zip_code": "9230013",
    "prefecture": "石川県",
    "prefecture_kana": "イシカワケン",
    "prefecture_code": 17,
    "city": "小松市",
    "city_kana": "コマツシ",
    "town": "城北町",
    "town_kana": "ジョウホクマチ",
    "street": null,
    "office_name": null,
    "office_name_kana": null
  },
  "0014": {
    "zip_code": "9230014",
    "prefecture": "石川県",
    "prefecture_kana": "イシカワケン",
    "prefecture_code": 17,
    "city": "小松市",
    "city_kana": "コマツシ",
    "town": "松梨町",
    "town_kana": "マツナシマチ",
    "street": null,
    "office_name": null,
    "office_name_kana": null
  },
  "0015": {
    "zip_code": "9230015",
    "prefecture": "石川県",
    "prefecture_kana": "イシカワケン",
    "prefecture_code": 17,
    "city": "小松市",
    "city_kana": "コマツシ",
    "town": "犬丸町",
    "town_kana": "イヌマルマチ",
    "street": null,
    "office_name": null,
    "office_name_kana": null
  },
  "0016": {
    "zip_code": "9230016",
    "prefecture": "石川県",
    "prefecture_kana": "イシカワケン",
    "prefecture_code": 17,
    "city": "小松市",
    "city_kana": "コマツシ",
    "town": "御館町",
    "town_kana": "オタチマチ",
    "street": null,
    "office_name": null,
    "office_name_kana": null
  },
  "0021": {
    "zip_code": "9230021",
    "prefecture": "石川県",
    "prefecture_kana": "イシカワケン",
    "prefecture_code": 17,
    "city": "小松市",
    "city_kana": "コマツシ",
    "town": "島田町",
    "town_kana": "シマダマチ",
    "street": null,
    "office_name": null,
    "office_name_kana": null
  },
  "0022": {
    "zip_code": "9230022",
    "prefecture": "石川県",
    "prefecture_kana": "イシカワケン",
    "prefecture_code": 17,
    "city": "小松市",
    "city_kana": "コマツシ",
    "town": "美原町",
    "town_kana": "ミハラマチ",
    "street": null,
    "office_name": null,
    "office_name_kana": null
  },
  "0023": {
    "zip_code": "9230023",
    "prefecture": "石川県",
    "prefecture_kana": "イシカワケン",
    "prefecture_code": 17,
    "city": "小松市",
    "city_kana": "コマツシ",
    "town": "梅田町",
    "town_kana": "ウメダマチ",
    "street": null,
    "office_name": null,
    "office_name_kana": null
  },
  "0024": {
    "zip_code": "9230024",
    "prefecture": "石川県",
    "prefecture_kana": "イシカワケン",
    "prefecture_code": 17,
    "city": "小松市",
    "city_kana": "コマツシ",
    "town": "茶屋町",
    "town_kana": "チャヤマチ",
    "street": null,
    "office_name": null,
    "office_name_kana": null
  },
  "0025": {
    "zip_code": "9230025",
    "prefecture": "石川県",
    "prefecture_kana": "イシカワケン",
    "prefecture_code": 17,
    "city": "小松市",
    "city_kana": "コマツシ",
    "town": "天神町",
    "town_kana": "テンジンマチ",
    "street": null,
    "office_name": null,
    "office_name_kana": null
  },
  "0026": {
    "zip_code": "9230026",
    "prefecture": "石川県",
    "prefecture_kana": "イシカワケン",
    "prefecture_code": 17,
    "city": "小松市",
    "city_kana": "コマツシ",
    "town": "下牧町",
    "town_kana": "シモマキマチ",
    "street": null,
    "office_name": null,
    "office_name_kana": null
  },
  "0027": {
    "zip_code": "9230027",
    "prefecture": "石川県",
    "prefecture_kana": "イシカワケン",
    "prefecture_code": 17,
    "city": "小松市",
    "city_kana": "コマツシ",
    "town": "上牧町",
    "town_kana": "カミマキマチ",
    "street": null,
    "office_name": null,
    "office_name_kana": null
  },
  "0028": {
    "zip_code": "9230028",
    "prefecture": "石川県",
    "prefecture_kana": "イシカワケン",
    "prefecture_code": 17,
    "city": "小松市",
    "city_kana": "コマツシ",
    "town": "梯町",
    "town_kana": "カケハシマチ",
    "street": null,
    "office_name": null,
    "office_name_kana": null
  },
  "0031": {
    "zip_code": "9230031",
    "prefecture": "石川県",
    "prefecture_kana": "イシカワケン",
    "prefecture_code": 17,
    "city": "小松市",
    "city_kana": "コマツシ",
    "town": "高堂町",
    "town_kana": "タカンドウマチ",
    "street": null,
    "office_name": null,
    "office_name_kana": null
  },
  "0032": {
    "zip_code": "9230032",
    "prefecture": "石川県",
    "prefecture_kana": "イシカワケン",
    "prefecture_code": 17,
    "city": "小松市",
    "city_kana": "コマツシ",
    "town": "荒屋町",
    "town_kana": "アラヤマチ",
    "street": null,
    "office_name": null,
    "office_name_kana": null
  },
  "0033": {
    "zip_code": "9230033",
    "prefecture": "石川県",
    "prefecture_kana": "イシカワケン",
    "prefecture_code": 17,
    "city": "小松市",
    "city_kana": "コマツシ",
    "town": "野田町",
    "town_kana": "ノダマチ",
    "street": null,
    "office_name": null,
    "office_name_kana": null
  },
  "0034": {
    "zip_code": "9230034",
    "prefecture": "石川県",
    "prefecture_kana": "イシカワケン",
    "prefecture_code": 17,
    "city": "小松市",
    "city_kana": "コマツシ",
    "town": "長田町",
    "town_kana": "ナガダマチ",
    "street": null,
    "office_name": null,
    "office_name_kana": null
  },
  "0035": {
    "zip_code": "9230035",
    "prefecture": "石川県",
    "prefecture_kana": "イシカワケン",
    "prefecture_code": 17,
    "city": "小松市",
    "city_kana": "コマツシ",
    "town": "あけぼの町",
    "town_kana": "アケボノマチ",
    "street": null,
    "office_name": null,
    "office_name_kana": null
  },
  "0036": {
    "zip_code": "9230036",
    "prefecture": "石川県",
    "prefecture_kana": "イシカワケン",
    "prefecture_code": 17,
    "city": "小松市",
    "city_kana": "コマツシ",
    "town": "平面町",
    "town_kana": "ヒラオモテマチ",
    "street": null,
    "office_name": null,
    "office_name_kana": null
  },
  "0037": {
    "zip_code": "9230037",
    "prefecture": "石川県",
    "prefecture_kana": "イシカワケン",
    "prefecture_code": 17,
    "city": "小松市",
    "city_kana": "コマツシ",
    "town": "問屋町",
    "town_kana": "トンヤマチ",
    "street": null,
    "office_name": null,
    "office_name_kana": null
  },
  "0041": {
    "zip_code": "9230041",
    "prefecture": "石川県",
    "prefecture_kana": "イシカワケン",
    "prefecture_code": 17,
    "city": "小松市",
    "city_kana": "コマツシ",
    "town": "千代町",
    "town_kana": "センダイマチ",
    "street": null,
    "office_name": null,
    "office_name_kana": null
  },
  "0042": {
    "zip_code": "9230042",
    "prefecture": "石川県",
    "prefecture_kana": "イシカワケン",
    "prefecture_code": 17,
    "city": "小松市",
    "city_kana": "コマツシ",
    "town": "能美町",
    "town_kana": "ノミマチ",
    "street": null,
    "office_name": null,
    "office_name_kana": null
  },
  "0043": {
    "zip_code": "9230043",
    "prefecture": "石川県",
    "prefecture_kana": "イシカワケン",
    "prefecture_code": 17,
    "city": "小松市",
    "city_kana": "コマツシ",
    "town": "一針町",
    "town_kana": "ヒトツハリマチ",
    "street": null,
    "office_name": null,
    "office_name_kana": null
  },
  "0044": {
    "zip_code": "9230044",
    "prefecture": "石川県",
    "prefecture_kana": "イシカワケン",
    "prefecture_code": 17,
    "city": "小松市",
    "city_kana": "コマツシ",
    "town": "川辺町",
    "town_kana": "カワベマチ",
    "street": null,
    "office_name": null,
    "office_name_kana": null
  },
  "0051": {
    "zip_code": "9230051",
    "prefecture": "石川県",
    "prefecture_kana": "イシカワケン",
    "prefecture_code": 17,
    "city": "小松市",
    "city_kana": "コマツシ",
    "town": "上八里町",
    "town_kana": "カミヤサトマチ",
    "street": null,
    "office_name": null,
    "office_name_kana": null
  },
  "0052": {
    "zip_code": "9230052",
    "prefecture": "石川県",
    "prefecture_kana": "イシカワケン",
    "prefecture_code": 17,
    "city": "小松市",
    "city_kana": "コマツシ",
    "town": "下八里町",
    "town_kana": "シモヤサトマチ",
    "street": null,
    "office_name": null,
    "office_name_kana": null
  },
  "0053": {
    "zip_code": "9230053",
    "prefecture": "石川県",
    "prefecture_kana": "イシカワケン",
    "prefecture_code": 17,
    "city": "小松市",
    "city_kana": "コマツシ",
    "town": "河田町",
    "town_kana": "コウダマチ",
    "street": null,
    "office_name": null,
    "office_name_kana": null
  },
  "0054": {
    "zip_code": "9230054",
    "prefecture": "石川県",
    "prefecture_kana": "イシカワケン",
    "prefecture_code": 17,
    "city": "小松市",
    "city_kana": "コマツシ",
    "town": "小野町",
    "town_kana": "オノマチ",
    "street": null,
    "office_name": null,
    "office_name_kana": null
  },
  "0055": {
    "zip_code": "9230055",
    "prefecture": "石川県",
    "prefecture_kana": "イシカワケン",
    "prefecture_code": 17,
    "city": "小松市",
    "city_kana": "コマツシ",
    "town": "古府町",
    "town_kana": "コフマチ",
    "street": null,
    "office_name": null,
    "office_name_kana": null
  },
  "0056": {
    "zip_code": "9230056",
    "prefecture": "石川県",
    "prefecture_kana": "イシカワケン",
    "prefecture_code": 17,
    "city": "小松市",
    "city_kana": "コマツシ",
    "town": "八里台",
    "town_kana": "ヤサトダイ",
    "street": null,
    "office_name": null,
    "office_name_kana": null
  },
  "0061": {
    "zip_code": "9230061",
    "prefecture": "石川県",
    "prefecture_kana": "イシカワケン",
    "prefecture_code": 17,
    "city": "小松市",
    "city_kana": "コマツシ",
    "town": "国府台",
    "town_kana": "コクフダイ",
    "street": null,
    "office_name": null,
    "office_name_kana": null
  },
  "0062": {
    "zip_code": "9230062",
    "prefecture": "石川県",
    "prefecture_kana": "イシカワケン",
    "prefecture_code": 17,
    "city": "小松市",
    "city_kana": "コマツシ",
    "town": "里川町",
    "town_kana": "サトカワマチ",
    "street": null,
    "office_name": null,
    "office_name_kana": null
  },
  "0063": {
    "zip_code": "9230063",
    "prefecture": "石川県",
    "prefecture_kana": "イシカワケン",
    "prefecture_code": 17,
    "city": "小松市",
    "city_kana": "コマツシ",
    "town": "鵜川町",
    "town_kana": "ウガワマチ",
    "street": null,
    "office_name": null,
    "office_name_kana": null
  },
  "0064": {
    "zip_code": "9230064",
    "prefecture": "石川県",
    "prefecture_kana": "イシカワケン",
    "prefecture_code": 17,
    "city": "小松市",
    "city_kana": "コマツシ",
    "town": "遊泉寺町",
    "town_kana": "ユウセンジマチ",
    "street": null,
    "office_name": null,
    "office_name_kana": null
  },
  "0065": {
    "zip_code": "9230065",
    "prefecture": "石川県",
    "prefecture_kana": "イシカワケン",
    "prefecture_code": 17,
    "city": "小松市",
    "city_kana": "コマツシ",
    "town": "立明寺町",
    "town_kana": "リュウミョウジマチ",
    "street": null,
    "office_name": null,
    "office_name_kana": null
  },
  "0066": {
    "zip_code": "9230066",
    "prefecture": "石川県",
    "prefecture_kana": "イシカワケン",
    "prefecture_code": 17,
    "city": "小松市",
    "city_kana": "コマツシ",
    "town": "埴田町",
    "town_kana": "ハネダマチ",
    "street": null,
    "office_name": null,
    "office_name_kana": null
  },
  "0071": {
    "zip_code": "9230071",
    "prefecture": "石川県",
    "prefecture_kana": "イシカワケン",
    "prefecture_code": 17,
    "city": "小松市",
    "city_kana": "コマツシ",
    "town": "中海町",
    "town_kana": "ナカウミマチ",
    "street": null,
    "office_name": null,
    "office_name_kana": null
  },
  "0072": {
    "zip_code": "9230072",
    "prefecture": "石川県",
    "prefecture_kana": "イシカワケン",
    "prefecture_code": 17,
    "city": "小松市",
    "city_kana": "コマツシ",
    "town": "みどり町",
    "town_kana": "ミドリマチ",
    "street": null,
    "office_name": null,
    "office_name_kana": null
  },
  "0073": {
    "zip_code": "9230073",
    "prefecture": "石川県",
    "prefecture_kana": "イシカワケン",
    "prefecture_code": 17,
    "city": "小松市",
    "city_kana": "コマツシ",
    "town": "岩渕町",
    "town_kana": "イワブチマチ",
    "street": null,
    "office_name": null,
    "office_name_kana": null
  },
  "0074": {
    "zip_code": "9230074",
    "prefecture": "石川県",
    "prefecture_kana": "イシカワケン",
    "prefecture_code": 17,
    "city": "小松市",
    "city_kana": "コマツシ",
    "town": "桂町",
    "town_kana": "カツラマチ",
    "street": null,
    "office_name": null,
    "office_name_kana": null
  },
  "0075": {
    "zip_code": "9230075",
    "prefecture": "石川県",
    "prefecture_kana": "イシカワケン",
    "prefecture_code": 17,
    "city": "小松市",
    "city_kana": "コマツシ",
    "town": "原町",
    "town_kana": "ハラマチ",
    "street": null,
    "office_name": null,
    "office_name_kana": null
  },
  "0076": {
    "zip_code": "9230076",
    "prefecture": "石川県",
    "prefecture_kana": "イシカワケン",
    "prefecture_code": 17,
    "city": "小松市",
    "city_kana": "コマツシ",
    "town": "麦口町",
    "town_kana": "ムギクチマチ",
    "street": null,
    "office_name": null,
    "office_name_kana": null
  },
  "0077": {
    "zip_code": "9230077",
    "prefecture": "石川県",
    "prefecture_kana": "イシカワケン",
    "prefecture_code": 17,
    "city": "小松市",
    "city_kana": "コマツシ",
    "town": "上麦口町",
    "town_kana": "カミムギクチマチ",
    "street": null,
    "office_name": null,
    "office_name_kana": null
  },
  "0078": [
    {
      "zip_code": "9230078",
      "prefecture": "石川県",
      "prefecture_kana": "イシカワケン",
      "prefecture_code": 17,
      "city": "小松市",
      "city_kana": "コマツシ",
      "town": "嵐町",
      "town_kana": "アラシマチ",
      "street": null,
      "office_name": null,
      "office_name_kana": null
    },
    {
      "zip_code": "9230078",
      "prefecture": "石川県",
      "prefecture_kana": "イシカワケン",
      "prefecture_code": 17,
      "city": "小松市",
      "city_kana": "コマツシ",
      "town": "中ノ峠町",
      "town_kana": "ナカノトウゲマチ",
      "street": null,
      "office_name": null,
      "office_name_kana": null
    }
  ],
  "0151": {
    "zip_code": "9230151",
    "prefecture": "石川県",
    "prefecture_kana": "イシカワケン",
    "prefecture_code": 17,
    "city": "小松市",
    "city_kana": "コマツシ",
    "town": "正蓮寺町",
    "town_kana": "ショウレンジマチ",
    "street": null,
    "office_name": null,
    "office_name_kana": null
  },
  "0152": {
    "zip_code": "9230152",
    "prefecture": "石川県",
    "prefecture_kana": "イシカワケン",
    "prefecture_code": 17,
    "city": "小松市",
    "city_kana": "コマツシ",
    "town": "五国寺町",
    "town_kana": "ゴコウジマチ",
    "street": null,
    "office_name": null,
    "office_name_kana": null
  },
  "0153": {
    "zip_code": "9230153",
    "prefecture": "石川県",
    "prefecture_kana": "イシカワケン",
    "prefecture_code": 17,
    "city": "小松市",
    "city_kana": "コマツシ",
    "town": "金平町",
    "town_kana": "カナヒラマチ",
    "street": null,
    "office_name": null,
    "office_name_kana": null
  },
  "0154": {
    "zip_code": "9230154",
    "prefecture": "石川県",
    "prefecture_kana": "イシカワケン",
    "prefecture_code": 17,
    "city": "小松市",
    "city_kana": "コマツシ",
    "town": "金野町",
    "town_kana": "カネノマチ",
    "street": null,
    "office_name": null,
    "office_name_kana": null
  },
  "0155": {
    "zip_code": "9230155",
    "prefecture": "石川県",
    "prefecture_kana": "イシカワケン",
    "prefecture_code": 17,
    "city": "小松市",
    "city_kana": "コマツシ",
    "town": "江指町",
    "town_kana": "エサシマチ",
    "street": null,
    "office_name": null,
    "office_name_kana": null
  },
  "0156": {
    "zip_code": "9230156",
    "prefecture": "石川県",
    "prefecture_kana": "イシカワケン",
    "prefecture_code": 17,
    "city": "小松市",
    "city_kana": "コマツシ",
    "town": "大野町",
    "town_kana": "オオノマチ",
    "street": null,
    "office_name": null,
    "office_name_kana": null
  },
  "0157": {
    "zip_code": "9230157",
    "prefecture": "石川県",
    "prefecture_kana": "イシカワケン",
    "prefecture_code": 17,
    "city": "小松市",
    "city_kana": "コマツシ",
    "town": "花坂町",
    "town_kana": "ハナサカマチ",
    "street": null,
    "office_name": null,
    "office_name_kana": null
  },
  "0161": {
    "zip_code": "9230161",
    "prefecture": "石川県",
    "prefecture_kana": "イシカワケン",
    "prefecture_code": 17,
    "city": "小松市",
    "city_kana": "コマツシ",
    "town": "池城町",
    "town_kana": "イケノジョウマチ",
    "street": null,
    "office_name": null,
    "office_name_kana": null
  },
  "0162": {
    "zip_code": "9230162",
    "prefecture": "石川県",
    "prefecture_kana": "イシカワケン",
    "prefecture_code": 17,
    "city": "小松市",
    "city_kana": "コマツシ",
    "town": "波佐羅町",
    "town_kana": "ハサラマチ",
    "street": null,
    "office_name": null,
    "office_name_kana": null
  },
  "0163": {
    "zip_code": "9230163",
    "prefecture": "石川県",
    "prefecture_kana": "イシカワケン",
    "prefecture_code": 17,
    "city": "小松市",
    "city_kana": "コマツシ",
    "town": "塩原町",
    "town_kana": "シオハラマチ",
    "street": null,
    "office_name": null,
    "office_name_kana": null
  },
  "0164": {
    "zip_code": "9230164",
    "prefecture": "石川県",
    "prefecture_kana": "イシカワケン",
    "prefecture_code": 17,
    "city": "小松市",
    "city_kana": "コマツシ",
    "town": "布橋町",
    "town_kana": "ヌノハシマチ",
    "street": null,
    "office_name": null,
    "office_name_kana": null
  },
  "0165": {
    "zip_code": "9230165",
    "prefecture": "石川県",
    "prefecture_kana": "イシカワケン",
    "prefecture_code": 17,
    "city": "小松市",
    "city_kana": "コマツシ",
    "town": "沢町",
    "town_kana": "サワマチ",
    "street": null,
    "office_name": null,
    "office_name_kana": null
  },
  "0166": {
    "zip_code": "9230166",
    "prefecture": "石川県",
    "prefecture_kana": "イシカワケン",
    "prefecture_code": 17,
    "city": "小松市",
    "city_kana": "コマツシ",
    "town": "松岡町",
    "town_kana": "マツオカマチ",
    "street": null,
    "office_name": null,
    "office_name_kana": null
  },
  "0171": {
    "zip_code": "9230171",
    "prefecture": "石川県",
    "prefecture_kana": "イシカワケン",
    "prefecture_code": 17,
    "city": "小松市",
    "city_kana": "コマツシ",
    "town": "観音下町",
    "town_kana": "カナガソマチ",
    "street": null,
    "office_name": null,
    "office_name_kana": null
  },
  "0172": {
    "zip_code": "9230172",
    "prefecture": "石川県",
    "prefecture_kana": "イシカワケン",
    "prefecture_code": 17,
    "city": "小松市",
    "city_kana": "コマツシ",
    "town": "尾小屋町",
    "town_kana": "オゴヤマチ",
    "street": null,
    "office_name": null,
    "office_name_kana": null
  },
  "0173": {
    "zip_code": "9230173",
    "prefecture": "石川県",
    "prefecture_kana": "イシカワケン",
    "prefecture_code": 17,
    "city": "小松市",
    "city_kana": "コマツシ",
    "town": "丸山町",
    "town_kana": "マルヤママチ",
    "street": null,
    "office_name": null,
    "office_name_kana": null
  },
  "0174": {
    "zip_code": "9230174",
    "prefecture": "石川県",
    "prefecture_kana": "イシカワケン",
    "prefecture_code": 17,
    "city": "小松市",
    "city_kana": "コマツシ",
    "town": "花立町",
    "town_kana": "ハナタテマチ",
    "street": null,
    "office_name": null,
    "office_name_kana": null
  },
  "0175": {
    "zip_code": "9230175",
    "prefecture": "石川県",
    "prefecture_kana": "イシカワケン",
    "prefecture_code": 17,
    "city": "小松市",
    "city_kana": "コマツシ",
    "town": "新保町",
    "town_kana": "シンボマチ",
    "street": null,
    "office_name": null,
    "office_name_kana": null
  },
  "0176": {
    "zip_code": "9230176",
    "prefecture": "石川県",
    "prefecture_kana": "イシカワケン",
    "prefecture_code": 17,
    "city": "小松市",
    "city_kana": "コマツシ",
    "town": "西俣町",
    "town_kana": "ニシマタマチ",
    "street": null,
    "office_name": null,
    "office_name_kana": null
  },
  "0177": {
    "zip_code": "9230177",
    "prefecture": "石川県",
    "prefecture_kana": "イシカワケン",
    "prefecture_code": 17,
    "city": "小松市",
    "city_kana": "コマツシ",
    "town": "岩上町",
    "town_kana": "イワガミマチ",
    "street": null,
    "office_name": null,
    "office_name_kana": null
  },
  "0181": {
    "zip_code": "9230181",
    "prefecture": "石川県",
    "prefecture_kana": "イシカワケン",
    "prefecture_code": 17,
    "city": "小松市",
    "city_kana": "コマツシ",
    "town": "長谷町",
    "town_kana": "ナガタニマチ",
    "street": null,
    "office_name": null,
    "office_name_kana": null
  },
  "0182": {
    "zip_code": "9230182",
    "prefecture": "石川県",
    "prefecture_kana": "イシカワケン",
    "prefecture_code": 17,
    "city": "小松市",
    "city_kana": "コマツシ",
    "town": "波佐谷町",
    "town_kana": "ハサダニマチ",
    "street": null,
    "office_name": null,
    "office_name_kana": null
  },
  "0183": {
    "zip_code": "9230183",
    "prefecture": "石川県",
    "prefecture_kana": "イシカワケン",
    "prefecture_code": 17,
    "city": "小松市",
    "city_kana": "コマツシ",
    "town": "瀬領町",
    "town_kana": "セイリョマチ",
    "street": null,
    "office_name": null,
    "office_name_kana": null
  },
  "0184": {
    "zip_code": "9230184",
    "prefecture": "石川県",
    "prefecture_kana": "イシカワケン",
    "prefecture_code": 17,
    "city": "小松市",
    "city_kana": "コマツシ",
    "town": "打木町",
    "town_kana": "ウツギマチ",
    "street": null,
    "office_name": null,
    "office_name_kana": null
  },
  "0185": {
    "zip_code": "9230185",
    "prefecture": "石川県",
    "prefecture_kana": "イシカワケン",
    "prefecture_code": 17,
    "city": "小松市",
    "city_kana": "コマツシ",
    "town": "赤瀬町",
    "town_kana": "アカゼマチ",
    "street": null,
    "office_name": null,
    "office_name_kana": null
  },
  "0186": {
    "zip_code": "9230186",
    "prefecture": "石川県",
    "prefecture_kana": "イシカワケン",
    "prefecture_code": 17,
    "city": "小松市",
    "city_kana": "コマツシ",
    "town": "大杉町",
    "town_kana": "オオスギマチ",
    "street": null,
    "office_name": null,
    "office_name_kana": null
  },
  "0187": {
    "zip_code": "9230187",
    "prefecture": "石川県",
    "prefecture_kana": "イシカワケン",
    "prefecture_code": 17,
    "city": "小松市",
    "city_kana": "コマツシ",
    "town": "上リ江町",
    "town_kana": "アガリエマチ",
    "street": null,
    "office_name": null,
    "office_name_kana": null
  },
  "0301": {
    "zip_code": "9230301",
    "prefecture": "石川県",
    "prefecture_kana": "イシカワケン",
    "prefecture_code": 17,
    "city": "小松市",
    "city_kana": "コマツシ",
    "town": "矢崎町",
    "town_kana": "ヤザキマチ",
    "street": null,
    "office_name": null,
    "office_name_kana": null
  },
  "0302": {
    "zip_code": "9230302",
    "prefecture": "石川県",
    "prefecture_kana": "イシカワケン",
    "prefecture_code": 17,
    "city": "小松市",
    "city_kana": "コマツシ",
    "town": "符津町",
    "town_kana": "フツマチ",
    "street": null,
    "office_name": null,
    "office_name_kana": null
  },
  "0303": {
    "zip_code": "9230303",
    "prefecture": "石川県",
    "prefecture_kana": "イシカワケン",
    "prefecture_code": 17,
    "city": "小松市",
    "city_kana": "コマツシ",
    "town": "島町",
    "town_kana": "シママチ",
    "street": null,
    "office_name": null,
    "office_name_kana": null
  },
  "0304": {
    "zip_code": "9230304",
    "prefecture": "石川県",
    "prefecture_kana": "イシカワケン",
    "prefecture_code": 17,
    "city": "小松市",
    "city_kana": "コマツシ",
    "town": "下粟津町",
    "town_kana": "シモアワヅマチ",
    "street": null,
    "office_name": null,
    "office_name_kana": null
  },
  "0305": {
    "zip_code": "9230305",
    "prefecture": "石川県",
    "prefecture_kana": "イシカワケン",
    "prefecture_code": 17,
    "city": "小松市",
    "city_kana": "コマツシ",
    "town": "蓑輪町",
    "town_kana": "ミノワマチ",
    "street": null,
    "office_name": null,
    "office_name_kana": null
  },
  "0306": {
    "zip_code": "9230306",
    "prefecture": "石川県",
    "prefecture_kana": "イシカワケン",
    "prefecture_code": 17,
    "city": "小松市",
    "city_kana": "コマツシ",
    "town": "松生町",
    "town_kana": "マツオイチョウ",
    "street": null,
    "office_name": null,
    "office_name_kana": null
  },
  "0311": {
    "zip_code": "9230311",
    "prefecture": "石川県",
    "prefecture_kana": "イシカワケン",
    "prefecture_code": 17,
    "city": "小松市",
    "city_kana": "コマツシ",
    "town": "木場町",
    "town_kana": "キバマチ",
    "street": null,
    "office_name": null,
    "office_name_kana": null
  },
  "0312": {
    "zip_code": "9230312",
    "prefecture": "石川県",
    "prefecture_kana": "イシカワケン",
    "prefecture_code": 17,
    "city": "小松市",
    "city_kana": "コマツシ",
    "town": "木場台",
    "town_kana": "キバダイ",
    "street": null,
    "office_name": null,
    "office_name_kana": null
  },
  "0313": {
    "zip_code": "9230313",
    "prefecture": "石川県",
    "prefecture_kana": "イシカワケン",
    "prefecture_code": 17,
    "city": "小松市",
    "city_kana": "コマツシ",
    "town": "津波倉町",
    "town_kana": "ツバクラマチ",
    "street": null,
    "office_name": null,
    "office_name_kana": null
  },
  "0314": {
    "zip_code": "9230314",
    "prefecture": "石川県",
    "prefecture_kana": "イシカワケン",
    "prefecture_code": 17,
    "city": "小松市",
    "city_kana": "コマツシ",
    "town": "おびし町",
    "town_kana": "オビシマチ",
    "street": null,
    "office_name": null,
    "office_name_kana": null
  },
  "0315": {
    "zip_code": "9230315",
    "prefecture": "石川県",
    "prefecture_kana": "イシカワケン",
    "prefecture_code": 17,
    "city": "小松市",
    "city_kana": "コマツシ",
    "town": "小山田町",
    "town_kana": "コヤマダマチ",
    "street": null,
    "office_name": null,
    "office_name_kana": null
  },
  "0316": {
    "zip_code": "9230316",
    "prefecture": "石川県",
    "prefecture_kana": "イシカワケン",
    "prefecture_code": 17,
    "city": "小松市",
    "city_kana": "コマツシ",
    "town": "井口町",
    "town_kana": "イノクチマチ",
    "street": null,
    "office_name": null,
    "office_name_kana": null
  },
  "0321": {
    "zip_code": "9230321",
    "prefecture": "石川県",
    "prefecture_kana": "イシカワケン",
    "prefecture_code": 17,
    "city": "小松市",
    "city_kana": "コマツシ",
    "town": "白山田町",
    "town_kana": "シラヤマダマチ",
    "street": null,
    "office_name": null,
    "office_name_kana": null
  },
  "0322": {
    "zip_code": "9230322",
    "prefecture": "石川県",
    "prefecture_kana": "イシカワケン",
    "prefecture_code": 17,
    "city": "小松市",
    "city_kana": "コマツシ",
    "town": "牧口町",
    "town_kana": "マキグチマチ",
    "street": null,
    "office_name": null,
    "office_name_kana": null
  },
  "0323": {
    "zip_code": "9230323",
    "prefecture": "石川県",
    "prefecture_kana": "イシカワケン",
    "prefecture_code": 17,
    "city": "小松市",
    "city_kana": "コマツシ",
    "town": "西荒谷町",
    "town_kana": "ニシアラタニマチ",
    "street": null,
    "office_name": null,
    "office_name_kana": null
  },
  "0324": {
    "zip_code": "9230324",
    "prefecture": "石川県",
    "prefecture_kana": "イシカワケン",
    "prefecture_code": 17,
    "city": "小松市",
    "city_kana": "コマツシ",
    "town": "日用町",
    "town_kana": "ヒヨウマチ",
    "street": null,
    "office_name": null,
    "office_name_kana": null
  },
  "0325": {
    "zip_code": "9230325",
    "prefecture": "石川県",
    "prefecture_kana": "イシカワケン",
    "prefecture_code": 17,
    "city": "小松市",
    "city_kana": "コマツシ",
    "town": "西原町",
    "town_kana": "ニシハラマチ",
    "street": null,
    "office_name": null,
    "office_name_kana": null
  },
  "0326": [
    {
      "zip_code": "9230326",
      "prefecture": "石川県",
      "prefecture_kana": "イシカワケン",
      "prefecture_code": 17,
      "city": "小松市",
      "city_kana": "コマツシ",
      "town": "粟津温泉",
      "town_kana": "アワヅオンセン",
      "street": null,
      "office_name": null,
      "office_name_kana": null
    },
    {
      "zip_code": "9230326",
      "prefecture": "石川県",
      "prefecture_kana": "イシカワケン",
      "prefecture_code": 17,
      "city": "小松市",
      "city_kana": "コマツシ",
      "town": "粟津町",
      "town_kana": "アワヅマチ",
      "street": null,
      "office_name": null,
      "office_name_kana": null
    }
  ],
  "0327": {
    "zip_code": "9230327",
    "prefecture": "石川県",
    "prefecture_kana": "イシカワケン",
    "prefecture_code": 17,
    "city": "小松市",
    "city_kana": "コマツシ",
    "town": "戸津町",
    "town_kana": "トヅマチ",
    "street": null,
    "office_name": null,
    "office_name_kana": null
  },
  "0328": {
    "zip_code": "9230328",
    "prefecture": "石川県",
    "prefecture_kana": "イシカワケン",
    "prefecture_code": 17,
    "city": "小松市",
    "city_kana": "コマツシ",
    "town": "南陽町",
    "town_kana": "ナンヨウマチ",
    "street": null,
    "office_name": null,
    "office_name_kana": null
  },
  "0331": {
    "zip_code": "9230331",
    "prefecture": "石川県",
    "prefecture_kana": "イシカワケン",
    "prefecture_code": 17,
    "city": "小松市",
    "city_kana": "コマツシ",
    "town": "上荒屋町",
    "town_kana": "カミアラヤマチ",
    "street": null,
    "office_name": null,
    "office_name_kana": null
  },
  "0332": {
    "zip_code": "9230332",
    "prefecture": "石川県",
    "prefecture_kana": "イシカワケン",
    "prefecture_code": 17,
    "city": "小松市",
    "city_kana": "コマツシ",
    "town": "湯上町",
    "town_kana": "ユノカミマチ",
    "street": null,
    "office_name": null,
    "office_name_kana": null
  },
  "0333": {
    "zip_code": "9230333",
    "prefecture": "石川県",
    "prefecture_kana": "イシカワケン",
    "prefecture_code": 17,
    "city": "小松市",
    "city_kana": "コマツシ",
    "town": "馬場町",
    "town_kana": "バンバマチ",
    "street": null,
    "office_name": null,
    "office_name_kana": null
  },
  "0334": {
    "zip_code": "9230334",
    "prefecture": "石川県",
    "prefecture_kana": "イシカワケン",
    "prefecture_code": 17,
    "city": "小松市",
    "city_kana": "コマツシ",
    "town": "菩提町",
    "town_kana": "ボダイマチ",
    "street": null,
    "office_name": null,
    "office_name_kana": null
  },
  "0335": {
    "zip_code": "9230335",
    "prefecture": "石川県",
    "prefecture_kana": "イシカワケン",
    "prefecture_code": 17,
    "city": "小松市",
    "city_kana": "コマツシ",
    "town": "滝ケ原町",
    "town_kana": "タキガハラマチ",
    "street": null,
    "office_name": null,
    "office_name_kana": null
  },
  "0336": {
    "zip_code": "9230336",
    "prefecture": "石川県",
    "prefecture_kana": "イシカワケン",
    "prefecture_code": 17,
    "city": "小松市",
    "city_kana": "コマツシ",
    "town": "那谷町",
    "town_kana": "ナタマチ",
    "street": null,
    "office_name": null,
    "office_name_kana": null
  },
  "0341": {
    "zip_code": "9230341",
    "prefecture": "石川県",
    "prefecture_kana": "イシカワケン",
    "prefecture_code": 17,
    "city": "小松市",
    "city_kana": "コマツシ",
    "town": "春日町",
    "town_kana": "カスガチョウ",
    "street": null,
    "office_name": null,
    "office_name_kana": null
  },
  "0342": {
    "zip_code": "9230342",
    "prefecture": "石川県",
    "prefecture_kana": "イシカワケン",
    "prefecture_code": 17,
    "city": "小松市",
    "city_kana": "コマツシ",
    "town": "矢田野町",
    "town_kana": "ヤタノマチ",
    "street": null,
    "office_name": null,
    "office_name_kana": null
  },
  "0343": {
    "zip_code": "9230343",
    "prefecture": "石川県",
    "prefecture_kana": "イシカワケン",
    "prefecture_code": 17,
    "city": "小松市",
    "city_kana": "コマツシ",
    "town": "矢沢町",
    "town_kana": "ヤザワマチ",
    "street": null,
    "office_name": null,
    "office_name_kana": null
  },
  "0344": {
    "zip_code": "9230344",
    "prefecture": "石川県",
    "prefecture_kana": "イシカワケン",
    "prefecture_code": 17,
    "city": "小松市",
    "city_kana": "コマツシ",
    "town": "林町",
    "town_kana": "ハヤシマチ",
    "street": null,
    "office_name": null,
    "office_name_kana": null
  },
  "0345": {
    "zip_code": "9230345",
    "prefecture": "石川県",
    "prefecture_kana": "イシカワケン",
    "prefecture_code": 17,
    "city": "小松市",
    "city_kana": "コマツシ",
    "town": "二ツ梨町",
    "town_kana": "フタツナシマチ",
    "street": null,
    "office_name": null,
    "office_name_kana": null
  },
  "0392": {
    "zip_code": "9230392",
    "prefecture": "石川県",
    "prefecture_kana": "イシカワケン",
    "prefecture_code": 17,
    "city": "小松市",
    "city_kana": "コマツシ",
    "town": "符津町",
    "town_kana": "フツマチ",
    "street": "ツ２３",
    "office_name": "コマツ粟津工場",
    "office_name_kana": "コマツアワヅコウジヨウ"
  },
  "0393": {
    "zip_code": "9230393",
    "prefecture": "石川県",
    "prefecture_kana": "イシカワケン",
    "prefecture_code": 17,
    "city": "小松市",
    "city_kana": "コマツシ",
    "town": "粟津町",
    "town_kana": "アワヅマチ",
    "street": "ナ−３−３",
    "office_name": "ゆのくにの森",
    "office_name_kana": "ユノクニノモリ"
  },
  "0398": {
    "zip_code": "9230398",
    "prefecture": "石川県",
    "prefecture_kana": "イシカワケン",
    "prefecture_code": 17,
    "city": "小松市",
    "city_kana": "コマツシ",
    "town": "那谷町",
    "town_kana": "ナタマチ",
    "street": "５−３０",
    "office_name": "加賀芙蓉カントリー倶楽部",
    "office_name_kana": "カガフヨウカントリ-クラブ"
  },
  "0801": {
    "zip_code": "9230801",
    "prefecture": "石川県",
    "prefecture_kana": "イシカワケン",
    "prefecture_code": 17,
    "city": "小松市",
    "city_kana": "コマツシ",
    "town": "園町",
    "town_kana": "ソノマチ",
    "street": null,
    "office_name": null,
    "office_name_kana": null
  },
  "0802": {
    "zip_code": "9230802",
    "prefecture": "石川県",
    "prefecture_kana": "イシカワケン",
    "prefecture_code": 17,
    "city": "小松市",
    "city_kana": "コマツシ",
    "town": "上小松町",
    "town_kana": "カミコマツマチ",
    "street": null,
    "office_name": null,
    "office_name_kana": null
  },
  "0803": {
    "zip_code": "9230803",
    "prefecture": "石川県",
    "prefecture_kana": "イシカワケン",
    "prefecture_code": 17,
    "city": "小松市",
    "city_kana": "コマツシ",
    "town": "宝町",
    "town_kana": "タカラマチ",
    "street": null,
    "office_name": null,
    "office_name_kana": null
  },
  "0804": {
    "zip_code": "9230804",
    "prefecture": "石川県",
    "prefecture_kana": "イシカワケン",
    "prefecture_code": 17,
    "city": "小松市",
    "city_kana": "コマツシ",
    "town": "光町",
    "town_kana": "ヒカリマチ",
    "street": null,
    "office_name": null,
    "office_name_kana": null
  },
  "0805": {
    "zip_code": "9230805",
    "prefecture": "石川県",
    "prefecture_kana": "イシカワケン",
    "prefecture_code": 17,
    "city": "小松市",
    "city_kana": "コマツシ",
    "town": "御宮町",
    "town_kana": "オミヤマチ",
    "street": null,
    "office_name": null,
    "office_name_kana": null
  },
  "0806": {
    "zip_code": "9230806",
    "prefecture": "石川県",
    "prefecture_kana": "イシカワケン",
    "prefecture_code": 17,
    "city": "小松市",
    "city_kana": "コマツシ",
    "town": "小寺町",
    "town_kana": "コデラマチ",
    "street": null,
    "office_name": null,
    "office_name_kana": null
  },
  "0811": {
    "zip_code": "9230811",
    "prefecture": "石川県",
    "prefecture_kana": "イシカワケン",
    "prefecture_code": 17,
    "city": "小松市",
    "city_kana": "コマツシ",
    "town": "白江町",
    "town_kana": "シラエマチ",
    "street": null,
    "office_name": null,
    "office_name_kana": null
  },
  "0812": [
    {
      "zip_code": "9230812",
      "prefecture": "石川県",
      "prefecture_kana": "イシカワケン",
      "prefecture_code": 17,
      "city": "小松市",
      "city_kana": "コマツシ",
      "town": "漆町",
      "town_kana": "ウルシマチ",
      "street": null,
      "office_name": null,
      "office_name_kana": null
    },
    {
      "zip_code": "9230812",
      "prefecture": "石川県",
      "prefecture_kana": "イシカワケン",
      "prefecture_code": 17,
      "city": "小松市",
      "city_kana": "コマツシ",
      "town": "金屋町",
      "town_kana": "カナヤマチ",
      "street": null,
      "office_name": null,
      "office_name_kana": null
    }
  ],
  "0813": {
    "zip_code": "9230813",
    "prefecture": "石川県",
    "prefecture_kana": "イシカワケン",
    "prefecture_code": 17,
    "city": "小松市",
    "city_kana": "コマツシ",
    "town": "糸町",
    "town_kana": "イトマチ",
    "street": null,
    "office_name": null,
    "office_name_kana": null
  },
  "0814": {
    "zip_code": "9230814",
    "prefecture": "石川県",
    "prefecture_kana": "イシカワケン",
    "prefecture_code": 17,
    "city": "小松市",
    "city_kana": "コマツシ",
    "town": "白松町",
    "town_kana": "シラマツマチ",
    "street": null,
    "office_name": null,
    "office_name_kana": null
  },
  "0821": {
    "zip_code": "9230821",
    "prefecture": "石川県",
    "prefecture_kana": "イシカワケン",
    "prefecture_code": 17,
    "city": "小松市",
    "city_kana": "コマツシ",
    "town": "佐々木町",
    "town_kana": "ササキマチ",
    "street": null,
    "office_name": null,
    "office_name_kana": null
  },
  "0822": {
    "zip_code": "9230822",
    "prefecture": "石川県",
    "prefecture_kana": "イシカワケン",
    "prefecture_code": 17,
    "city": "小松市",
    "city_kana": "コマツシ",
    "town": "光陽町",
    "town_kana": "コウヨウマチ",
    "street": null,
    "office_name": null,
    "office_name_kana": null
  },
  "0823": {
    "zip_code": "9230823",
    "prefecture": "石川県",
    "prefecture_kana": "イシカワケン",
    "prefecture_code": 17,
    "city": "小松市",
    "city_kana": "コマツシ",
    "town": "荒木田町",
    "town_kana": "アラキダマチ",
    "street": null,
    "office_name": null,
    "office_name_kana": null
  },
  "0824": {
    "zip_code": "9230824",
    "prefecture": "石川県",
    "prefecture_kana": "イシカワケン",
    "prefecture_code": 17,
    "city": "小松市",
    "city_kana": "コマツシ",
    "town": "軽海町",
    "town_kana": "カルミマチ",
    "street": null,
    "office_name": null,
    "office_name_kana": null
  },
  "0825": {
    "zip_code": "9230825",
    "prefecture": "石川県",
    "prefecture_kana": "イシカワケン",
    "prefecture_code": 17,
    "city": "小松市",
    "city_kana": "コマツシ",
    "town": "西軽海町",
    "town_kana": "ニシカルミマチ",
    "street": null,
    "office_name": null,
    "office_name_kana": null
  },
  "0826": {
    "zip_code": "9230826",
    "prefecture": "石川県",
    "prefecture_kana": "イシカワケン",
    "prefecture_code": 17,
    "city": "小松市",
    "city_kana": "コマツシ",
    "town": "希望丘",
    "town_kana": "キボウガオカ",
    "street": null,
    "office_name": null,
    "office_name_kana": null
  },
  "0831": {
    "zip_code": "9230831",
    "prefecture": "石川県",
    "prefecture_kana": "イシカワケン",
    "prefecture_code": 17,
    "city": "小松市",
    "city_kana": "コマツシ",
    "town": "打越町",
    "town_kana": "ウチコシマチ",
    "street": null,
    "office_name": null,
    "office_name_kana": null
  },
  "0832": {
    "zip_code": "9230832",
    "prefecture": "石川県",
    "prefecture_kana": "イシカワケン",
    "prefecture_code": 17,
    "city": "小松市",
    "city_kana": "コマツシ",
    "town": "若杉町",
    "town_kana": "ワカスギマチ",
    "street": null,
    "office_name": null,
    "office_name_kana": null
  },
  "0833": [
    {
      "zip_code": "9230833",
      "prefecture": "石川県",
      "prefecture_kana": "イシカワケン",
      "prefecture_code": 17,
      "city": "小松市",
      "city_kana": "コマツシ",
      "town": "八幡",
      "town_kana": "ヤワタ",
      "street": null,
      "office_name": null,
      "office_name_kana": null
    },
    {
      "zip_code": "9230833",
      "prefecture": "石川県",
      "prefecture_kana": "イシカワケン",
      "prefecture_code": 17,
      "city": "小松市",
      "city_kana": "コマツシ",
      "town": "八幡加賀八幡",
      "town_kana": "ヤワタカガヤワタ",
      "street": null,
      "office_name": null,
      "office_name_kana": null
    }
  ],
  "0834": {
    "zip_code": "9230834",
    "prefecture": "石川県",
    "prefecture_kana": "イシカワケン",
    "prefecture_code": 17,
    "city": "小松市",
    "city_kana": "コマツシ",
    "town": "千木野町",
    "town_kana": "セギノマチ",
    "street": null,
    "office_name": null,
    "office_name_kana": null
  },
  "0835": {
    "zip_code": "9230835",
    "prefecture": "石川県",
    "prefecture_kana": "イシカワケン",
    "prefecture_code": 17,
    "city": "小松市",
    "city_kana": "コマツシ",
    "town": "吉竹町",
    "town_kana": "ヨシタケマチ",
    "street": null,
    "office_name": null,
    "office_name_kana": null
  },
  "0836": {
    "zip_code": "9230836",
    "prefecture": "石川県",
    "prefecture_kana": "イシカワケン",
    "prefecture_code": 17,
    "city": "小松市",
    "city_kana": "コマツシ",
    "town": "鹿町",
    "town_kana": "シカマチ",
    "street": null,
    "office_name": null,
    "office_name_kana": null
  },
  "0841": {
    "zip_code": "9230841",
    "prefecture": "石川県",
    "prefecture_kana": "イシカワケン",
    "prefecture_code": 17,
    "city": "小松市",
    "city_kana": "コマツシ",
    "town": "本江町",
    "town_kana": "ホンゴウマチ",
    "street": null,
    "office_name": null,
    "office_name_kana": null
  },
  "0842": {
    "zip_code": "9230842",
    "prefecture": "石川県",
    "prefecture_kana": "イシカワケン",
    "prefecture_code": 17,
    "city": "小松市",
    "city_kana": "コマツシ",
    "town": "東山町",
    "town_kana": "ヒガシヤママチ",
    "street": null,
    "office_name": null,
    "office_name_kana": null
  },
  "0843": {
    "zip_code": "9230843",
    "prefecture": "石川県",
    "prefecture_kana": "イシカワケン",
    "prefecture_code": 17,
    "city": "小松市",
    "city_kana": "コマツシ",
    "town": "蓮代寺町",
    "town_kana": "レンダイジマチ",
    "street": null,
    "office_name": null,
    "office_name_kana": null
  },
  "0844": {
    "zip_code": "9230844",
    "prefecture": "石川県",
    "prefecture_kana": "イシカワケン",
    "prefecture_code": 17,
    "city": "小松市",
    "city_kana": "コマツシ",
    "town": "三谷町",
    "town_kana": "サンダニマチ",
    "street": null,
    "office_name": null,
    "office_name_kana": null
  },
  "0851": {
    "zip_code": "9230851",
    "prefecture": "石川県",
    "prefecture_kana": "イシカワケン",
    "prefecture_code": 17,
    "city": "小松市",
    "city_kana": "コマツシ",
    "town": "北浅井町",
    "town_kana": "キタアサイマチ",
    "street": null,
    "office_name": null,
    "office_name_kana": null
  },
  "0852": {
    "zip_code": "9230852",
    "prefecture": "石川県",
    "prefecture_kana": "イシカワケン",
    "prefecture_code": 17,
    "city": "小松市",
    "city_kana": "コマツシ",
    "town": "南浅井町",
    "town_kana": "ミナミアサイマチ",
    "street": null,
    "office_name": null,
    "office_name_kana": null
  },
  "0853": {
    "zip_code": "9230853",
    "prefecture": "石川県",
    "prefecture_kana": "イシカワケン",
    "prefecture_code": 17,
    "city": "小松市",
    "city_kana": "コマツシ",
    "town": "扇町",
    "town_kana": "オウギマチ",
    "street": null,
    "office_name": null,
    "office_name_kana": null
  },
  "0854": {
    "zip_code": "9230854",
    "prefecture": "石川県",
    "prefecture_kana": "イシカワケン",
    "prefecture_code": 17,
    "city": "小松市",
    "city_kana": "コマツシ",
    "town": "大領町",
    "town_kana": "ダイリョウマチ",
    "street": null,
    "office_name": null,
    "office_name_kana": null
  },
  "0861": {
    "zip_code": "9230861",
    "prefecture": "石川県",
    "prefecture_kana": "イシカワケン",
    "prefecture_code": 17,
    "city": "小松市",
    "city_kana": "コマツシ",
    "town": "沖町",
    "town_kana": "オキマチ",
    "street": null,
    "office_name": null,
    "office_name_kana": null
  },
  "0862": [
    {
      "zip_code": "9230862",
      "prefecture": "石川県",
      "prefecture_kana": "イシカワケン",
      "prefecture_code": 17,
      "city": "小松市",
      "city_kana": "コマツシ",
      "town": "清六町",
      "town_kana": "セイロクマチ",
      "street": null,
      "office_name": null,
      "office_name_kana": null
    },
    {
      "zip_code": "9230862",
      "prefecture": "石川県",
      "prefecture_kana": "イシカワケン",
      "prefecture_code": 17,
      "city": "小松市",
      "city_kana": "コマツシ",
      "town": "三田町",
      "town_kana": "ミタマチ",
      "street": null,
      "office_name": null,
      "office_name_kana": null
    }
  ],
  "0863": {
    "zip_code": "9230863",
    "prefecture": "石川県",
    "prefecture_kana": "イシカワケン",
    "prefecture_code": 17,
    "city": "小松市",
    "city_kana": "コマツシ",
    "town": "不動島町",
    "town_kana": "フドウジママチ",
    "street": null,
    "office_name": null,
    "office_name_kana": null
  },
  "0864": {
    "zip_code": "9230864",
    "prefecture": "石川県",
    "prefecture_kana": "イシカワケン",
    "prefecture_code": 17,
    "city": "小松市",
    "city_kana": "コマツシ",
    "town": "有明町",
    "town_kana": "アリアケマチ",
    "street": null,
    "office_name": null,
    "office_name_kana": null
  },
  "0865": {
    "zip_code": "9230865",
    "prefecture": "石川県",
    "prefecture_kana": "イシカワケン",
    "prefecture_code": 17,
    "city": "小松市",
    "city_kana": "コマツシ",
    "town": "福乃宮町",
    "town_kana": "フクノミヤマチ",
    "street": null,
    "office_name": null,
    "office_name_kana": null
  },
  "0866": {
    "zip_code": "9230866",
    "prefecture": "石川県",
    "prefecture_kana": "イシカワケン",
    "prefecture_code": 17,
    "city": "小松市",
    "city_kana": "コマツシ",
    "town": "白嶺町",
    "town_kana": "シラネマチ",
    "street": null,
    "office_name": null,
    "office_name_kana": null
  },
  "0867": {
    "zip_code": "9230867",
    "prefecture": "石川県",
    "prefecture_kana": "イシカワケン",
    "prefecture_code": 17,
    "city": "小松市",
    "city_kana": "コマツシ",
    "town": "幸町",
    "town_kana": "サイワイチョウ",
    "street": null,
    "office_name": null,
    "office_name_kana": null
  },
  "0868": [
    {
      "zip_code": "9230868",
      "prefecture": "石川県",
      "prefecture_kana": "イシカワケン",
      "prefecture_code": 17,
      "city": "小松市",
      "city_kana": "コマツシ",
      "town": "日の出町",
      "town_kana": "ヒノデマチ",
      "street": null,
      "office_name": null,
      "office_name_kana": null
    },
    {
      "zip_code": "9230868",
      "prefecture": "石川県",
      "prefecture_kana": "イシカワケン",
      "prefecture_code": 17,
      "city": "小松市",
      "city_kana": "コマツシ",
      "town": "八日市町地方",
      "town_kana": "ヨウカイチマチジガタ",
      "street": null,
      "office_name": null,
      "office_name_kana": null
    }
  ],
  "0869": {
    "zip_code": "9230869",
    "prefecture": "石川県",
    "prefecture_kana": "イシカワケン",
    "prefecture_code": 17,
    "city": "小松市",
    "city_kana": "コマツシ",
    "town": "こまつの杜",
    "town_kana": "コマツノモリ",
    "street": null,
    "office_name": null,
    "office_name_kana": null
  },
  "0901": {
    "zip_code": "9230901",
    "prefecture": "石川県",
    "prefecture_kana": "イシカワケン",
    "prefecture_code": 17,
    "city": "小松市",
    "city_kana": "コマツシ",
    "town": "泉町",
    "town_kana": "イズミマチ",
    "street": null,
    "office_name": null,
    "office_name_kana": null
  },
  "0902": {
    "zip_code": "9230902",
    "prefecture": "石川県",
    "prefecture_kana": "イシカワケン",
    "prefecture_code": 17,
    "city": "小松市",
    "city_kana": "コマツシ",
    "town": "古城町",
    "town_kana": "コジョウマチ",
    "street": null,
    "office_name": null,
    "office_name_kana": null
  },
  "0903": [
    {
      "zip_code": "9230903",
      "prefecture": "石川県",
      "prefecture_kana": "イシカワケン",
      "prefecture_code": 17,
      "city": "小松市",
      "city_kana": "コマツシ",
      "town": "丸の内公園町",
      "town_kana": "マルノウチコウエンマチ",
      "street": null,
      "office_name": null,
      "office_name_kana": null
    },
    {
      "zip_code": "9230903",
      "prefecture": "石川県",
      "prefecture_kana": "イシカワケン",
      "prefecture_code": 17,
      "city": "小松市",
      "city_kana": "コマツシ",
      "town": "丸の内町",
      "town_kana": "マルノウチマチ",
      "street": null,
      "office_name": null,
      "office_name_kana": null
    },
    {
      "zip_code": "9230903",
      "prefecture": "石川県",
      "prefecture_kana": "イシカワケン",
      "prefecture_code": 17,
      "city": "小松市",
      "city_kana": "コマツシ",
      "town": "丸内町",
      "town_kana": "マルノウチマチ",
      "street": null,
      "office_name": null,
      "office_name_kana": null
    }
  ],
  "0904": {
    "zip_code": "9230904",
    "prefecture": "石川県",
    "prefecture_kana": "イシカワケン",
    "prefecture_code": 17,
    "city": "小松市",
    "city_kana": "コマツシ",
    "town": "小馬出町",
    "town_kana": "コンマデマチ",
    "street": null,
    "office_name": null,
    "office_name_kana": null
  },
  "0905": [
    {
      "zip_code": "9230905",
      "prefecture": "石川県",
      "prefecture_kana": "イシカワケン",
      "prefecture_code": 17,
      "city": "小松市",
      "city_kana": "コマツシ",
      "town": "地子町",
      "town_kana": "ジシマチ",
      "street": null,
      "office_name": null,
      "office_name_kana": null
    },
    {
      "zip_code": "9230905",
      "prefecture": "石川県",
      "prefecture_kana": "イシカワケン",
      "prefecture_code": 17,
      "city": "小松市",
      "city_kana": "コマツシ",
      "town": "鷹匠町",
      "town_kana": "タカジョウマチ",
      "street": null,
      "office_name": null,
      "office_name_kana": null
    }
  ],
  "0906": {
    "zip_code": "9230906",
    "prefecture": "石川県",
    "prefecture_kana": "イシカワケン",
    "prefecture_code": 17,
    "city": "小松市",
    "city_kana": "コマツシ",
    "town": "新大工町",
    "town_kana": "シンダイクチョウ",
    "street": null,
    "office_name": null,
    "office_name_kana": null
  },
  "0907": {
    "zip_code": "9230907",
    "prefecture": "石川県",
    "prefecture_kana": "イシカワケン",
    "prefecture_code": 17,
    "city": "小松市",
    "city_kana": "コマツシ",
    "town": "浜田町",
    "town_kana": "ハマダマチ",
    "street": null,
    "office_name": null,
    "office_name_kana": null
  },
  "0908": {
    "zip_code": "9230908",
    "prefecture": "石川県",
    "prefecture_kana": "イシカワケン",
    "prefecture_code": 17,
    "city": "小松市",
    "city_kana": "コマツシ",
    "town": "浮城町",
    "town_kana": "ウキシロマチ",
    "street": null,
    "office_name": null,
    "office_name_kana": null
  },
  "0911": {
    "zip_code": "9230911",
    "prefecture": "石川県",
    "prefecture_kana": "イシカワケン",
    "prefecture_code": 17,
    "city": "小松市",
    "city_kana": "コマツシ",
    "town": "大川町",
    "town_kana": "オオカワマチ",
    "street": null,
    "office_name": null,
    "office_name_kana": null
  },
  "0912": {
    "zip_code": "9230912",
    "prefecture": "石川県",
    "prefecture_kana": "イシカワケン",
    "prefecture_code": 17,
    "city": "小松市",
    "city_kana": "コマツシ",
    "town": "新町",
    "town_kana": "シンマチ",
    "street": null,
    "office_name": null,
    "office_name_kana": null
  },
  "0913": {
    "zip_code": "9230913",
    "prefecture": "石川県",
    "prefecture_kana": "イシカワケン",
    "prefecture_code": 17,
    "city": "小松市",
    "city_kana": "コマツシ",
    "town": "松任町",
    "town_kana": "マットウマチ",
    "street": null,
    "office_name": null,
    "office_name_kana": null
  },
  "0914": {
    "zip_code": "9230914",
    "prefecture": "石川県",
    "prefecture_kana": "イシカワケン",
    "prefecture_code": 17,
    "city": "小松市",
    "city_kana": "コマツシ",
    "town": "新鍛冶町",
    "town_kana": "シンカジマチ",
    "street": null,
    "office_name": null,
    "office_name_kana": null
  },
  "0915": {
    "zip_code": "9230915",
    "prefecture": "石川県",
    "prefecture_kana": "イシカワケン",
    "prefecture_code": 17,
    "city": "小松市",
    "city_kana": "コマツシ",
    "town": "細工町",
    "town_kana": "サイクチョウ",
    "street": null,
    "office_name": null,
    "office_name_kana": null
  },
  "0916": {
    "zip_code": "9230916",
    "prefecture": "石川県",
    "prefecture_kana": "イシカワケン",
    "prefecture_code": 17,
    "city": "小松市",
    "city_kana": "コマツシ",
    "town": "材木町",
    "town_kana": "ザイモクチョウ",
    "street": null,
    "office_name": null,
    "office_name_kana": null
  },
  "0917": {
    "zip_code": "9230917",
    "prefecture": "石川県",
    "prefecture_kana": "イシカワケン",
    "prefecture_code": 17,
    "city": "小松市",
    "city_kana": "コマツシ",
    "town": "中町",
    "town_kana": "ナカマチ",
    "street": null,
    "office_name": null,
    "office_name_kana": null
  },
  "0918": {
    "zip_code": "9230918",
    "prefecture": "石川県",
    "prefecture_kana": "イシカワケン",
    "prefecture_code": 17,
    "city": "小松市",
    "city_kana": "コマツシ",
    "town": "京町",
    "town_kana": "キョウマチ",
    "street": null,
    "office_name": null,
    "office_name_kana": null
  },
  "0919": {
    "zip_code": "9230919",
    "prefecture": "石川県",
    "prefecture_kana": "イシカワケン",
    "prefecture_code": 17,
    "city": "小松市",
    "city_kana": "コマツシ",
    "town": "殿町",
    "town_kana": "トノマチ",
    "street": null,
    "office_name": null,
    "office_name_kana": null
  },
  "0921": {
    "zip_code": "9230921",
    "prefecture": "石川県",
    "prefecture_kana": "イシカワケン",
    "prefecture_code": 17,
    "city": "小松市",
    "city_kana": "コマツシ",
    "town": "土居原町",
    "town_kana": "ドイハラマチ",
    "street": null,
    "office_name": null,
    "office_name_kana": null
  },
  "0922": {
    "zip_code": "9230922",
    "prefecture": "石川県",
    "prefecture_kana": "イシカワケン",
    "prefecture_code": 17,
    "city": "小松市",
    "city_kana": "コマツシ",
    "town": "飴屋町",
    "town_kana": "アメヤマチ",
    "street": null,
    "office_name": null,
    "office_name_kana": null
  },
  "0923": {
    "zip_code": "9230923",
    "prefecture": "石川県",
    "prefecture_kana": "イシカワケン",
    "prefecture_code": 17,
    "city": "小松市",
    "city_kana": "コマツシ",
    "town": "東町",
    "town_kana": "ヒガシチョウ",
    "street": null,
    "office_name": null,
    "office_name_kana": null
  },
  "0924": {
    "zip_code": "9230924",
    "prefecture": "石川県",
    "prefecture_kana": "イシカワケン",
    "prefecture_code": 17,
    "city": "小松市",
    "city_kana": "コマツシ",
    "town": "三日市町",
    "town_kana": "ミッカイチマチ",
    "street": null,
    "office_name": null,
    "office_name_kana": null
  },
  "0925": {
    "zip_code": "9230925",
    "prefecture": "石川県",
    "prefecture_kana": "イシカワケン",
    "prefecture_code": 17,
    "city": "小松市",
    "city_kana": "コマツシ",
    "town": "八日市町",
    "town_kana": "ヨウカイチマチ",
    "street": null,
    "office_name": null,
    "office_name_kana": null
  },
  "0926": {
    "zip_code": "9230926",
    "prefecture": "石川県",
    "prefecture_kana": "イシカワケン",
    "prefecture_code": 17,
    "city": "小松市",
    "city_kana": "コマツシ",
    "town": "龍助町",
    "town_kana": "リュウスケチョウ",
    "street": null,
    "office_name": null,
    "office_name_kana": null
  },
  "0927": {
    "zip_code": "9230927",
    "prefecture": "石川県",
    "prefecture_kana": "イシカワケン",
    "prefecture_code": 17,
    "city": "小松市",
    "city_kana": "コマツシ",
    "town": "西町",
    "town_kana": "ニシチョウ",
    "street": null,
    "office_name": null,
    "office_name_kana": null
  },
  "0931": {
    "zip_code": "9230931",
    "prefecture": "石川県",
    "prefecture_kana": "イシカワケン",
    "prefecture_code": 17,
    "city": "小松市",
    "city_kana": "コマツシ",
    "town": "大文字町",
    "town_kana": "ダイモンジチョウ",
    "street": null,
    "office_name": null,
    "office_name_kana": null
  },
  "0932": {
    "zip_code": "9230932",
    "prefecture": "石川県",
    "prefecture_kana": "イシカワケン",
    "prefecture_code": 17,
    "city": "小松市",
    "city_kana": "コマツシ",
    "town": "寺町",
    "town_kana": "テラマチ",
    "street": null,
    "office_name": null,
    "office_name_kana": null
  },
  "0933": {
    "zip_code": "9230933",
    "prefecture": "石川県",
    "prefecture_kana": "イシカワケン",
    "prefecture_code": 17,
    "city": "小松市",
    "city_kana": "コマツシ",
    "town": "本鍛冶町",
    "town_kana": "ホンカジマチ",
    "street": null,
    "office_name": null,
    "office_name_kana": null
  },
  "0934": {
    "zip_code": "9230934",
    "prefecture": "石川県",
    "prefecture_kana": "イシカワケン",
    "prefecture_code": 17,
    "city": "小松市",
    "city_kana": "コマツシ",
    "town": "栄町",
    "town_kana": "サカエマチ",
    "street": null,
    "office_name": null,
    "office_name_kana": null
  },
  "0935": {
    "zip_code": "9230935",
    "prefecture": "石川県",
    "prefecture_kana": "イシカワケン",
    "prefecture_code": 17,
    "city": "小松市",
    "city_kana": "コマツシ",
    "town": "上寺町",
    "town_kana": "カミデラマチ",
    "street": null,
    "office_name": null,
    "office_name_kana": null
  },
  "0936": {
    "zip_code": "9230936",
    "prefecture": "石川県",
    "prefecture_kana": "イシカワケン",
    "prefecture_code": 17,
    "city": "小松市",
    "city_kana": "コマツシ",
    "town": "本大工町",
    "town_kana": "ホンダイクチョウ",
    "street": null,
    "office_name": null,
    "office_name_kana": null
  },
  "0937": {
    "zip_code": "9230937",
    "prefecture": "石川県",
    "prefecture_kana": "イシカワケン",
    "prefecture_code": 17,
    "city": "小松市",
    "city_kana": "コマツシ",
    "town": "本町",
    "town_kana": "ホンマチ",
    "street": null,
    "office_name": null,
    "office_name_kana": null
  },
  "0938": {
    "zip_code": "9230938",
    "prefecture": "石川県",
    "prefecture_kana": "イシカワケン",
    "prefecture_code": 17,
    "city": "小松市",
    "city_kana": "コマツシ",
    "town": "芦田町",
    "town_kana": "アシダマチ",
    "street": null,
    "office_name": null,
    "office_name_kana": null
  },
  "0941": {
    "zip_code": "9230941",
    "prefecture": "石川県",
    "prefecture_kana": "イシカワケン",
    "prefecture_code": 17,
    "city": "小松市",
    "city_kana": "コマツシ",
    "town": "城南町",
    "town_kana": "ジョウナンマチ",
    "street": null,
    "office_name": null,
    "office_name_kana": null
  },
  "0942": {
    "zip_code": "9230942",
    "prefecture": "石川県",
    "prefecture_kana": "イシカワケン",
    "prefecture_code": 17,
    "city": "小松市",
    "city_kana": "コマツシ",
    "town": "桜木町",
    "town_kana": "サクラギチョウ",
    "street": null,
    "office_name": null,
    "office_name_kana": null
  },
  "0943": {
    "zip_code": "9230943",
    "prefecture": "石川県",
    "prefecture_kana": "イシカワケン",
    "prefecture_code": 17,
    "city": "小松市",
    "city_kana": "コマツシ",
    "town": "育成町",
    "town_kana": "イクセイマチ",
    "street": null,
    "office_name": null,
    "office_name_kana": null
  },
  "0944": {
    "zip_code": "9230944",
    "prefecture": "石川県",
    "prefecture_kana": "イシカワケン",
    "prefecture_code": 17,
    "city": "小松市",
    "city_kana": "コマツシ",
    "town": "古河町",
    "town_kana": "フルカワマチ",
    "street": null,
    "office_name": null,
    "office_name_kana": null
  },
  "0945": {
    "zip_code": "9230945",
    "prefecture": "石川県",
    "prefecture_kana": "イシカワケン",
    "prefecture_code": 17,
    "city": "小松市",
    "city_kana": "コマツシ",
    "town": "末広町",
    "town_kana": "スエヒロマチ",
    "street": null,
    "office_name": null,
    "office_name_kana": null
  },
  "0946": {
    "zip_code": "9230946",
    "prefecture": "石川県",
    "prefecture_kana": "イシカワケン",
    "prefecture_code": 17,
    "city": "小松市",
    "city_kana": "コマツシ",
    "town": "相生町",
    "town_kana": "アイオイマチ",
    "street": null,
    "office_name": null,
    "office_name_kana": null
  },
  "0947": {
    "zip_code": "9230947",
    "prefecture": "石川県",
    "prefecture_kana": "イシカワケン",
    "prefecture_code": 17,
    "city": "小松市",
    "city_kana": "コマツシ",
    "town": "日吉町",
    "town_kana": "ヒヨシマチ",
    "street": null,
    "office_name": null,
    "office_name_kana": null
  },
  "0948": {
    "zip_code": "9230948",
    "prefecture": "石川県",
    "prefecture_kana": "イシカワケン",
    "prefecture_code": 17,
    "city": "小松市",
    "city_kana": "コマツシ",
    "town": "錦町",
    "town_kana": "ニシキマチ",
    "street": null,
    "office_name": null,
    "office_name_kana": null
  },
  "0951": {
    "zip_code": "9230951",
    "prefecture": "石川県",
    "prefecture_kana": "イシカワケン",
    "prefecture_code": 17,
    "city": "小松市",
    "city_kana": "コマツシ",
    "town": "白山町",
    "town_kana": "ハクサンマチ",
    "street": null,
    "office_name": null,
    "office_name_kana": null
  },
  "0952": {
    "zip_code": "9230952",
    "prefecture": "石川県",
    "prefecture_kana": "イシカワケン",
    "prefecture_code": 17,
    "city": "小松市",
    "city_kana": "コマツシ",
    "town": "大和町",
    "town_kana": "ヤマトマチ",
    "street": null,
    "office_name": null,
    "office_name_kana": null
  },
  "0953": {
    "zip_code": "9230953",
    "prefecture": "石川県",
    "prefecture_kana": "イシカワケン",
    "prefecture_code": 17,
    "city": "小松市",
    "city_kana": "コマツシ",
    "town": "旭町",
    "town_kana": "アサヒマチ",
    "street": null,
    "office_name": null,
    "office_name_kana": null
  },
  "0954": {
    "zip_code": "9230954",
    "prefecture": "石川県",
    "prefecture_kana": "イシカワケン",
    "prefecture_code": 17,
    "city": "小松市",
    "city_kana": "コマツシ",
    "town": "八幡町",
    "town_kana": "ヤワタマチ",
    "street": null,
    "office_name": null,
    "office_name_kana": null
  },
  "0955": {
    "zip_code": "9230955",
    "prefecture": "石川県",
    "prefecture_kana": "イシカワケン",
    "prefecture_code": 17,
    "city": "小松市",
    "city_kana": "コマツシ",
    "town": "上本折町",
    "town_kana": "カミモトオリマチ",
    "street": null,
    "office_name": null,
    "office_name_kana": null
  },
  "0956": {
    "zip_code": "9230956",
    "prefecture": "石川県",
    "prefecture_kana": "イシカワケン",
    "prefecture_code": 17,
    "city": "小松市",
    "city_kana": "コマツシ",
    "town": "西本折町",
    "town_kana": "ニシモトオリマチ",
    "street": null,
    "office_name": null,
    "office_name_kana": null
  },
  "0957": {
    "zip_code": "9230957",
    "prefecture": "石川県",
    "prefecture_kana": "イシカワケン",
    "prefecture_code": 17,
    "city": "小松市",
    "city_kana": "コマツシ",
    "town": "本折町",
    "town_kana": "モトオリマチ",
    "street": null,
    "office_name": null,
    "office_name_kana": null
  },
  "0958": {
    "zip_code": "9230958",
    "prefecture": "石川県",
    "prefecture_kana": "イシカワケン",
    "prefecture_code": 17,
    "city": "小松市",
    "city_kana": "コマツシ",
    "town": "清水町",
    "town_kana": "シミズマチ",
    "street": null,
    "office_name": null,
    "office_name_kana": null
  },
  "0961": {
    "zip_code": "9230961",
    "prefecture": "石川県",
    "prefecture_kana": "イシカワケン",
    "prefecture_code": 17,
    "city": "小松市",
    "city_kana": "コマツシ",
    "town": "向本折町",
    "town_kana": "ムカイモトオリマチ",
    "street": null,
    "office_name": null,
    "office_name_kana": null
  },
  "0962": {
    "zip_code": "9230962",
    "prefecture": "石川県",
    "prefecture_kana": "イシカワケン",
    "prefecture_code": 17,
    "city": "小松市",
    "city_kana": "コマツシ",
    "town": "大領中町",
    "town_kana": "ダイリョウナカマチ",
    "street": null,
    "office_name": null,
    "office_name_kana": null
  },
  "0963": {
    "zip_code": "9230963",
    "prefecture": "石川県",
    "prefecture_kana": "イシカワケン",
    "prefecture_code": 17,
    "city": "小松市",
    "city_kana": "コマツシ",
    "town": "須天町",
    "town_kana": "スアママチ",
    "street": null,
    "office_name": null,
    "office_name_kana": null
  },
  "0964": {
    "zip_code": "9230964",
    "prefecture": "石川県",
    "prefecture_kana": "イシカワケン",
    "prefecture_code": 17,
    "city": "小松市",
    "city_kana": "コマツシ",
    "town": "今江町",
    "town_kana": "イマエマチ",
    "street": null,
    "office_name": null,
    "office_name_kana": null
  },
  "0965": [
    {
      "zip_code": "9230965",
      "prefecture": "石川県",
      "prefecture_kana": "イシカワケン",
      "prefecture_code": 17,
      "city": "小松市",
      "city_kana": "コマツシ",
      "town": "串町",
      "town_kana": "クシマチ",
      "street": null,
      "office_name": null,
      "office_name_kana": null
    },
    {
      "zip_code": "9230965",
      "prefecture": "石川県",
      "prefecture_kana": "イシカワケン",
      "prefecture_code": 17,
      "city": "小松市",
      "city_kana": "コマツシ",
      "town": "野立町",
      "town_kana": "ノダチマチ",
      "street": null,
      "office_name": null,
      "office_name_kana": null
    }
  ],
  "0966": {
    "zip_code": "9230966",
    "prefecture": "石川県",
    "prefecture_kana": "イシカワケン",
    "prefecture_code": 17,
    "city": "小松市",
    "city_kana": "コマツシ",
    "town": "串茶屋町",
    "town_kana": "クシチャヤマチ",
    "street": null,
    "office_name": null,
    "office_name_kana": null
  },
  "0967": {
    "zip_code": "9230967",
    "prefecture": "石川県",
    "prefecture_kana": "イシカワケン",
    "prefecture_code": 17,
    "city": "小松市",
    "city_kana": "コマツシ",
    "town": "青路町",
    "town_kana": "アオジチョウ",
    "street": null,
    "office_name": null,
    "office_name_kana": null
  },
  "0968": {
    "zip_code": "9230968",
    "prefecture": "石川県",
    "prefecture_kana": "イシカワケン",
    "prefecture_code": 17,
    "city": "小松市",
    "city_kana": "コマツシ",
    "town": "村松町",
    "town_kana": "ムラマツマチ",
    "street": null,
    "office_name": null,
    "office_name_kana": null
  },
  "0971": {
    "zip_code": "9230971",
    "prefecture": "石川県",
    "prefecture_kana": "イシカワケン",
    "prefecture_code": 17,
    "city": "小松市",
    "city_kana": "コマツシ",
    "town": "四丁町",
    "town_kana": "シチョウマチ",
    "street": null,
    "office_name": null,
    "office_name_kana": null
  },
  "0972": {
    "zip_code": "9230972",
    "prefecture": "石川県",
    "prefecture_kana": "イシカワケン",
    "prefecture_code": 17,
    "city": "小松市",
    "city_kana": "コマツシ",
    "town": "月津町",
    "town_kana": "ツキヅマチ",
    "street": null,
    "office_name": null,
    "office_name_kana": null
  },
  "0973": {
    "zip_code": "9230973",
    "prefecture": "石川県",
    "prefecture_kana": "イシカワケン",
    "prefecture_code": 17,
    "city": "小松市",
    "city_kana": "コマツシ",
    "town": "扇原町",
    "town_kana": "オウギハラマチ",
    "street": null,
    "office_name": null,
    "office_name_kana": null
  },
  "0974": {
    "zip_code": "9230974",
    "prefecture": "石川県",
    "prefecture_kana": "イシカワケン",
    "prefecture_code": 17,
    "city": "小松市",
    "city_kana": "コマツシ",
    "town": "月美丘",
    "town_kana": "ツキミガオカ",
    "street": null,
    "office_name": null,
    "office_name_kana": null
  },
  "0975": {
    "zip_code": "9230975",
    "prefecture": "石川県",
    "prefecture_kana": "イシカワケン",
    "prefecture_code": 17,
    "city": "小松市",
    "city_kana": "コマツシ",
    "town": "矢田町",
    "town_kana": "ヤタマチ",
    "street": null,
    "office_name": null,
    "office_name_kana": null
  },
  "0976": {
    "zip_code": "9230976",
    "prefecture": "石川県",
    "prefecture_kana": "イシカワケン",
    "prefecture_code": 17,
    "city": "小松市",
    "city_kana": "コマツシ",
    "town": "矢田新町",
    "town_kana": "ヤタシンマチ",
    "street": null,
    "office_name": null,
    "office_name_kana": null
  },
  "0977": {
    "zip_code": "9230977",
    "prefecture": "石川県",
    "prefecture_kana": "イシカワケン",
    "prefecture_code": 17,
    "city": "小松市",
    "city_kana": "コマツシ",
    "town": "額見町",
    "town_kana": "ヌカミマチ",
    "street": null,
    "office_name": null,
    "office_name_kana": null
  },
  "0981": {
    "zip_code": "9230981",
    "prefecture": "石川県",
    "prefecture_kana": "イシカワケン",
    "prefecture_code": 17,
    "city": "小松市",
    "city_kana": "コマツシ",
    "town": "拓栄町",
    "town_kana": "タクエイマチ",
    "street": null,
    "office_name": null,
    "office_name_kana": null
  },
  "0982": {
    "zip_code": "9230982",
    "prefecture": "石川県",
    "prefecture_kana": "イシカワケン",
    "prefecture_code": 17,
    "city": "小松市",
    "city_kana": "コマツシ",
    "town": "松崎町",
    "town_kana": "マツザキマチ",
    "street": null,
    "office_name": null,
    "office_name_kana": null
  },
  "0983": {
    "zip_code": "9230983",
    "prefecture": "石川県",
    "prefecture_kana": "イシカワケン",
    "prefecture_code": 17,
    "city": "小松市",
    "city_kana": "コマツシ",
    "town": "日末町",
    "town_kana": "ヒズエマチ",
    "street": null,
    "office_name": null,
    "office_name_kana": null
  },
  "0984": {
    "zip_code": "9230984",
    "prefecture": "石川県",
    "prefecture_kana": "イシカワケン",
    "prefecture_code": 17,
    "city": "小松市",
    "city_kana": "コマツシ",
    "town": "佐美町",
    "town_kana": "サミマチ",
    "street": null,
    "office_name": null,
    "office_name_kana": null
  },
  "0985": {
    "zip_code": "9230985",
    "prefecture": "石川県",
    "prefecture_kana": "イシカワケン",
    "prefecture_code": 17,
    "city": "小松市",
    "city_kana": "コマツシ",
    "town": "浜佐美町",
    "town_kana": "ハマサミマチ",
    "street": null,
    "office_name": null,
    "office_name_kana": null
  },
  "0991": {
    "zip_code": "9230991",
    "prefecture": "石川県",
    "prefecture_kana": "イシカワケン",
    "prefecture_code": 17,
    "city": "小松市",
    "city_kana": "コマツシ",
    "town": "木曽町",
    "town_kana": "キソマチ",
    "street": null,
    "office_name": null,
    "office_name_kana": null
  },
  "0992": {
    "zip_code": "9230992",
    "prefecture": "石川県",
    "prefecture_kana": "イシカワケン",
    "prefecture_code": 17,
    "city": "小松市",
    "city_kana": "コマツシ",
    "town": "鶴ケ島町",
    "town_kana": "ツルガシママチ",
    "street": null,
    "office_name": null,
    "office_name_kana": null
  },
  "0993": {
    "zip_code": "9230993",
    "prefecture": "石川県",
    "prefecture_kana": "イシカワケン",
    "prefecture_code": 17,
    "city": "小松市",
    "city_kana": "コマツシ",
    "town": "浮柳町",
    "town_kana": "ウキヤナギマチ",
    "street": null,
    "office_name": null,
    "office_name_kana": null
  },
  "0994": {
    "zip_code": "9230994",
    "prefecture": "石川県",
    "prefecture_kana": "イシカワケン",
    "prefecture_code": 17,
    "city": "小松市",
    "city_kana": "コマツシ",
    "town": "工業団地",
    "town_kana": "コウギョウダンチ",
    "street": null,
    "office_name": null,
    "office_name_kana": null
  },
  "0995": {
    "zip_code": "9230995",
    "prefecture": "石川県",
    "prefecture_kana": "イシカワケン",
    "prefecture_code": 17,
    "city": "小松市",
    "city_kana": "コマツシ",
    "town": "安宅新町",
    "town_kana": "アタカシンマチ",
    "street": null,
    "office_name": null,
    "office_name_kana": null
  },
  "0996": {
    "zip_code": "9230996",
    "prefecture": "石川県",
    "prefecture_kana": "イシカワケン",
    "prefecture_code": 17,
    "city": "小松市",
    "city_kana": "コマツシ",
    "town": "草野町",
    "town_kana": "クサノマチ",
    "street": null,
    "office_name": null,
    "office_name_kana": null
  },
  "0997": {
    "zip_code": "9230997",
    "prefecture": "石川県",
    "prefecture_kana": "イシカワケン",
    "prefecture_code": 17,
    "city": "小松市",
    "city_kana": "コマツシ",
    "town": "浜佐美本町",
    "town_kana": "ハマサミホンマチ",
    "street": null,
    "office_name": null,
    "office_name_kana": null
  },
  "0998": {
    "zip_code": "9230998",
    "prefecture": "石川県",
    "prefecture_kana": "イシカワケン",
    "prefecture_code": 17,
    "city": "小松市",
    "city_kana": "コマツシ",
    "town": "義仲町",
    "town_kana": "ヨシナカチョウ",
    "street": null,
    "office_name": null,
    "office_name_kana": null
  },
  "1100": {
    "zip_code": "9231100",
    "prefecture": "石川県",
    "prefecture_kana": "イシカワケン",
    "prefecture_code": 17,
    "city": "能美市",
    "city_kana": "ノミシ",
    "town": "",
    "town_kana": "",
    "street": null,
    "office_name": null,
    "office_name_kana": null
  },
  "1101": {
    "zip_code": "9231101",
    "prefecture": "石川県",
    "prefecture_kana": "イシカワケン",
    "prefecture_code": 17,
    "city": "能美市",
    "city_kana": "ノミシ",
    "town": "粟生町",
    "town_kana": "アオマチ",
    "street": null,
    "office_name": null,
    "office_name_kana": null
  },
  "1102": {
    "zip_code": "9231102",
    "prefecture": "石川県",
    "prefecture_kana": "イシカワケン",
    "prefecture_code": 17,
    "city": "能美市",
    "city_kana": "ノミシ",
    "town": "新保町",
    "town_kana": "シンボマチ",
    "street": null,
    "office_name": null,
    "office_name_kana": null
  },
  "1103": {
    "zip_code": "9231103",
    "prefecture": "石川県",
    "prefecture_kana": "イシカワケン",
    "prefecture_code": 17,
    "city": "能美市",
    "city_kana": "ノミシ",
    "town": "秋常町",
    "town_kana": "アキツネマチ",
    "street": null,
    "office_name": null,
    "office_name_kana": null
  },
  "1104": {
    "zip_code": "9231104",
    "prefecture": "石川県",
    "prefecture_kana": "イシカワケン",
    "prefecture_code": 17,
    "city": "能美市",
    "city_kana": "ノミシ",
    "town": "湯谷町",
    "town_kana": "ユノタニマチ",
    "street": null,
    "office_name": null,
    "office_name_kana": null
  },
  "1105": {
    "zip_code": "9231105",
    "prefecture": "石川県",
    "prefecture_kana": "イシカワケン",
    "prefecture_code": 17,
    "city": "能美市",
    "city_kana": "ノミシ",
    "town": "石子町",
    "town_kana": "イシコマチ",
    "street": null,
    "office_name": null,
    "office_name_kana": null
  },
  "1106": {
    "zip_code": "9231106",
    "prefecture": "石川県",
    "prefecture_kana": "イシカワケン",
    "prefecture_code": 17,
    "city": "能美市",
    "city_kana": "ノミシ",
    "town": "和田町",
    "town_kana": "ワダマチ",
    "street": null,
    "office_name": null,
    "office_name_kana": null
  },
  "1107": {
    "zip_code": "9231107",
    "prefecture": "石川県",
    "prefecture_kana": "イシカワケン",
    "prefecture_code": 17,
    "city": "能美市",
    "city_kana": "ノミシ",
    "town": "末寺町",
    "town_kana": "マツジマチ",
    "street": null,
    "office_name": null,
    "office_name_kana": null
  },
  "1111": {
    "zip_code": "9231111",
    "prefecture": "石川県",
    "prefecture_kana": "イシカワケン",
    "prefecture_code": 17,
    "city": "能美市",
    "city_kana": "ノミシ",
    "town": "泉台町",
    "town_kana": "イズミダイマチ",
    "street": null,
    "office_name": null,
    "office_name_kana": null
  },
  "1112": {
    "zip_code": "9231112",
    "prefecture": "石川県",
    "prefecture_kana": "イシカワケン",
    "prefecture_code": 17,
    "city": "能美市",
    "city_kana": "ノミシ",
    "town": "佐野町",
    "town_kana": "サノマチ",
    "street": null,
    "office_name": null,
    "office_name_kana": null
  },
  "1113": {
    "zip_code": "9231113",
    "prefecture": "石川県",
    "prefecture_kana": "イシカワケン",
    "prefecture_code": 17,
    "city": "能美市",
    "city_kana": "ノミシ",
    "town": "牛島町",
    "town_kana": "ウシジママチ",
    "street": null,
    "office_name": null,
    "office_name_kana": null
  },
  "1114": {
    "zip_code": "9231114",
    "prefecture": "石川県",
    "prefecture_kana": "イシカワケン",
    "prefecture_code": 17,
    "city": "能美市",
    "city_kana": "ノミシ",
    "town": "小杉町",
    "town_kana": "コスギマチ",
    "street": null,
    "office_name": null,
    "office_name_kana": null
  },
  "1115": {
    "zip_code": "9231115",
    "prefecture": "石川県",
    "prefecture_kana": "イシカワケン",
    "prefecture_code": 17,
    "city": "能美市",
    "city_kana": "ノミシ",
    "town": "大長野町",
    "town_kana": "オオナガノマチ",
    "street": null,
    "office_name": null,
    "office_name_kana": null
  },
  "1116": {
    "zip_code": "9231116",
    "prefecture": "石川県",
    "prefecture_kana": "イシカワケン",
    "prefecture_code": 17,
    "city": "能美市",
    "city_kana": "ノミシ",
    "town": "小長野町",
    "town_kana": "コナガノマチ",
    "street": null,
    "office_name": null,
    "office_name_kana": null
  },
  "1117": {
    "zip_code": "9231117",
    "prefecture": "石川県",
    "prefecture_kana": "イシカワケン",
    "prefecture_code": 17,
    "city": "能美市",
    "city_kana": "ノミシ",
    "town": "末信町",
    "town_kana": "スエノブマチ",
    "street": null,
    "office_name": null,
    "office_name_kana": null
  },
  "1121": {
    "zip_code": "9231121",
    "prefecture": "石川県",
    "prefecture_kana": "イシカワケン",
    "prefecture_code": 17,
    "city": "能美市",
    "city_kana": "ノミシ",
    "town": "寺井町",
    "town_kana": "テライマチ",
    "street": null,
    "office_name": null,
    "office_name_kana": null
  },
  "1122": {
    "zip_code": "9231122",
    "prefecture": "石川県",
    "prefecture_kana": "イシカワケン",
    "prefecture_code": 17,
    "city": "能美市",
    "city_kana": "ノミシ",
    "town": "東任田町",
    "town_kana": "ヒガシトウダマチ",
    "street": null,
    "office_name": null,
    "office_name_kana": null
  },
  "1123": {
    "zip_code": "9231123",
    "prefecture": "石川県",
    "prefecture_kana": "イシカワケン",
    "prefecture_code": 17,
    "city": "能美市",
    "city_kana": "ノミシ",
    "town": "吉光町",
    "town_kana": "ヨシミツマチ",
    "street": null,
    "office_name": null,
    "office_name_kana": null
  },
  "1124": {
    "zip_code": "9231124",
    "prefecture": "石川県",
    "prefecture_kana": "イシカワケン",
    "prefecture_code": 17,
    "city": "能美市",
    "city_kana": "ノミシ",
    "town": "三道山町",
    "town_kana": "サンドウヤママチ",
    "street": null,
    "office_name": null,
    "office_name_kana": null
  },
  "1198": {
    "zip_code": "9231198",
    "prefecture": "石川県",
    "prefecture_kana": "イシカワケン",
    "prefecture_code": 17,
    "city": "能美市",
    "city_kana": "ノミシ",
    "town": "寺井町",
    "town_kana": "テライマチ",
    "street": "た３５番地",
    "office_name": "能美市役所　寺井庁舎",
    "office_name_kana": "ノミシヤクシヨ テライチヨウシヤ"
  },
  "1200": {
    "zip_code": "9231200",
    "prefecture": "石川県",
    "prefecture_kana": "イシカワケン",
    "prefecture_code": 17,
    "city": "能美郡川北町",
    "city_kana": "ノミグンカワキタマチ",
    "town": "",
    "town_kana": "",
    "street": null,
    "office_name": null,
    "office_name_kana": null
  },
  "1201": {
    "zip_code": "9231201",
    "prefecture": "石川県",
    "prefecture_kana": "イシカワケン",
    "prefecture_code": 17,
    "city": "能美市",
    "city_kana": "ノミシ",
    "town": "岩内町",
    "town_kana": "イワウチマチ",
    "street": null,
    "office_name": null,
    "office_name_kana": null
  },
  "1202": {
    "zip_code": "9231202",
    "prefecture": "石川県",
    "prefecture_kana": "イシカワケン",
    "prefecture_code": 17,
    "city": "能美市",
    "city_kana": "ノミシ",
    "town": "莇生町",
    "town_kana": "アゾウマチ",
    "street": null,
    "office_name": null,
    "office_name_kana": null
  },
  "1203": {
    "zip_code": "9231203",
    "prefecture": "石川県",
    "prefecture_kana": "イシカワケン",
    "prefecture_code": 17,
    "city": "能美市",
    "city_kana": "ノミシ",
    "town": "三ツ口町",
    "town_kana": "ミツクチマチ",
    "street": null,
    "office_name": null,
    "office_name_kana": null
  },
  "1204": {
    "zip_code": "9231204",
    "prefecture": "石川県",
    "prefecture_kana": "イシカワケン",
    "prefecture_code": 17,
    "city": "能美市",
    "city_kana": "ノミシ",
    "town": "長滝町",
    "town_kana": "ナガタキマチ",
    "street": null,
    "office_name": null,
    "office_name_kana": null
  },
  "1205": {
    "zip_code": "9231205",
    "prefecture": "石川県",
    "prefecture_kana": "イシカワケン",
    "prefecture_code": 17,
    "city": "能美市",
    "city_kana": "ノミシ",
    "town": "宮竹町",
    "town_kana": "ミヤタケマチ",
    "street": null,
    "office_name": null,
    "office_name_kana": null
  },
  "1206": {
    "zip_code": "9231206",
    "prefecture": "石川県",
    "prefecture_kana": "イシカワケン",
    "prefecture_code": 17,
    "city": "能美市",
    "city_kana": "ノミシ",
    "town": "灯台笹町",
    "town_kana": "トダシノマチ",
    "street": null,
    "office_name": null,
    "office_name_kana": null
  },
  "1207": {
    "zip_code": "9231207",
    "prefecture": "石川県",
    "prefecture_kana": "イシカワケン",
    "prefecture_code": 17,
    "city": "能美市",
    "city_kana": "ノミシ",
    "town": "岩本町",
    "town_kana": "イワモトマチ",
    "street": null,
    "office_name": null,
    "office_name_kana": null
  },
  "1208": {
    "zip_code": "9231208",
    "prefecture": "石川県",
    "prefecture_kana": "イシカワケン",
    "prefecture_code": 17,
    "city": "能美市",
    "city_kana": "ノミシ",
    "town": "和佐谷町",
    "town_kana": "ワサダニマチ",
    "street": null,
    "office_name": null,
    "office_name_kana": null
  },
  "1211": {
    "zip_code": "9231211",
    "prefecture": "石川県",
    "prefecture_kana": "イシカワケン",
    "prefecture_code": 17,
    "city": "能美市",
    "city_kana": "ノミシ",
    "town": "旭台",
    "town_kana": "アサヒダイ",
    "street": null,
    "office_name": null,
    "office_name_kana": null
  },
  "1212": {
    "zip_code": "9231212",
    "prefecture": "石川県",
    "prefecture_kana": "イシカワケン",
    "prefecture_code": 17,
    "city": "能美市",
    "city_kana": "ノミシ",
    "town": "大口町",
    "town_kana": "オオクチマチ",
    "street": null,
    "office_name": null,
    "office_name_kana": null
  },
  "1213": {
    "zip_code": "9231213",
    "prefecture": "石川県",
    "prefecture_kana": "イシカワケン",
    "prefecture_code": 17,
    "city": "能美市",
    "city_kana": "ノミシ",
    "town": "坪野町",
    "town_kana": "ツボノマチ",
    "street": null,
    "office_name": null,
    "office_name_kana": null
  },
  "1214": {
    "zip_code": "9231214",
    "prefecture": "石川県",
    "prefecture_kana": "イシカワケン",
    "prefecture_code": 17,
    "city": "能美市",
    "city_kana": "ノミシ",
    "town": "金剛寺町",
    "town_kana": "コンゴウジマチ",
    "street": null,
    "office_name": null,
    "office_name_kana": null
  },
  "1215": {
    "zip_code": "9231215",
    "prefecture": "石川県",
    "prefecture_kana": "イシカワケン",
    "prefecture_code": 17,
    "city": "能美市",
    "city_kana": "ノミシ",
    "town": "舘町",
    "town_kana": "タチマチ",
    "street": null,
    "office_name": null,
    "office_name_kana": null
  },
  "1216": {
    "zip_code": "9231216",
    "prefecture": "石川県",
    "prefecture_kana": "イシカワケン",
    "prefecture_code": 17,
    "city": "能美市",
    "city_kana": "ノミシ",
    "town": "鍋谷町",
    "town_kana": "ナベタニマチ",
    "street": null,
    "office_name": null,
    "office_name_kana": null
  },
  "1217": {
    "zip_code": "9231217",
    "prefecture": "石川県",
    "prefecture_kana": "イシカワケン",
    "prefecture_code": 17,
    "city": "能美市",
    "city_kana": "ノミシ",
    "town": "仏大寺町",
    "town_kana": "ブツタイジマチ",
    "street": null,
    "office_name": null,
    "office_name_kana": null
  },
  "1221": {
    "zip_code": "9231221",
    "prefecture": "石川県",
    "prefecture_kana": "イシカワケン",
    "prefecture_code": 17,
    "city": "能美市",
    "city_kana": "ノミシ",
    "town": "湯屋町",
    "town_kana": "ユノヤマチ",
    "street": null,
    "office_name": null,
    "office_name_kana": null
  },
  "1222": {
    "zip_code": "9231222",
    "prefecture": "石川県",
    "prefecture_kana": "イシカワケン",
    "prefecture_code": 17,
    "city": "能美市",
    "city_kana": "ノミシ",
    "town": "徳山町",
    "town_kana": "トクサンマチ",
    "street": null,
    "office_name": null,
    "office_name_kana": null
  },
  "1223": {
    "zip_code": "9231223",
    "prefecture": "石川県",
    "prefecture_kana": "イシカワケン",
    "prefecture_code": 17,
    "city": "能美市",
    "city_kana": "ノミシ",
    "town": "寺畠町",
    "town_kana": "テラバタケマチ",
    "street": null,
    "office_name": null,
    "office_name_kana": null
  },
  "1224": {
    "zip_code": "9231224",
    "prefecture": "石川県",
    "prefecture_kana": "イシカワケン",
    "prefecture_code": 17,
    "city": "能美市",
    "city_kana": "ノミシ",
    "town": "和気町",
    "town_kana": "ワケマチ",
    "street": null,
    "office_name": null,
    "office_name_kana": null
  },
  "1225": {
    "zip_code": "9231225",
    "prefecture": "石川県",
    "prefecture_kana": "イシカワケン",
    "prefecture_code": 17,
    "city": "能美市",
    "city_kana": "ノミシ",
    "town": "松が岡",
    "town_kana": "マツガオカ",
    "street": null,
    "office_name": null,
    "office_name_kana": null
  },
  "1226": {
    "zip_code": "9231226",
    "prefecture": "石川県",
    "prefecture_kana": "イシカワケン",
    "prefecture_code": 17,
    "city": "能美市",
    "city_kana": "ノミシ",
    "town": "緑が丘",
    "town_kana": "ミドリガオカ",
    "street": null,
    "office_name": null,
    "office_name_kana": null
  },
  "1227": {
    "zip_code": "9231227",
    "prefecture": "石川県",
    "prefecture_kana": "イシカワケン",
    "prefecture_code": 17,
    "city": "能美市",
    "city_kana": "ノミシ",
    "town": "和光台",
    "town_kana": "ワコウダイ",
    "street": null,
    "office_name": null,
    "office_name_kana": null
  },
  "1231": {
    "zip_code": "9231231",
    "prefecture": "石川県",
    "prefecture_kana": "イシカワケン",
    "prefecture_code": 17,
    "city": "能美市",
    "city_kana": "ノミシ",
    "town": "上開発町",
    "town_kana": "カミカイハツマチ",
    "street": null,
    "office_name": null,
    "office_name_kana": null
  },
  "1232": {
    "zip_code": "9231232",
    "prefecture": "石川県",
    "prefecture_kana": "イシカワケン",
    "prefecture_code": 17,
    "city": "能美市",
    "city_kana": "ノミシ",
    "town": "下開発町",
    "town_kana": "シモカイハツマチ",
    "street": null,
    "office_name": null,
    "office_name_kana": null
  },
  "1233": {
    "zip_code": "9231233",
    "prefecture": "石川県",
    "prefecture_kana": "イシカワケン",
    "prefecture_code": 17,
    "city": "能美市",
    "city_kana": "ノミシ",
    "town": "荒屋町",
    "town_kana": "アラヤマチ",
    "street": null,
    "office_name": null,
    "office_name_kana": null
  },
  "1234": {
    "zip_code": "9231234",
    "prefecture": "石川県",
    "prefecture_kana": "イシカワケン",
    "prefecture_code": 17,
    "city": "能美市",
    "city_kana": "ノミシ",
    "town": "高座町",
    "town_kana": "コウザマチ",
    "street": null,
    "office_name": null,
    "office_name_kana": null
  },
  "1235": {
    "zip_code": "9231235",
    "prefecture": "石川県",
    "prefecture_kana": "イシカワケン",
    "prefecture_code": 17,
    "city": "能美市",
    "city_kana": "ノミシ",
    "town": "徳久町",
    "town_kana": "トクヒサマチ",
    "street": null,
    "office_name": null,
    "office_name_kana": null
  },
  "1236": {
    "zip_code": "9231236",
    "prefecture": "石川県",
    "prefecture_kana": "イシカワケン",
    "prefecture_code": 17,
    "city": "能美市",
    "city_kana": "ノミシ",
    "town": "北市町",
    "town_kana": "キタイチマチ",
    "street": null,
    "office_name": null,
    "office_name_kana": null
  },
  "1237": {
    "zip_code": "9231237",
    "prefecture": "石川県",
    "prefecture_kana": "イシカワケン",
    "prefecture_code": 17,
    "city": "能美市",
    "city_kana": "ノミシ",
    "town": "上清水町",
    "town_kana": "カミシミズマチ",
    "street": null,
    "office_name": null,
    "office_name_kana": null
  },
  "1238": {
    "zip_code": "9231238",
    "prefecture": "石川県",
    "prefecture_kana": "イシカワケン",
    "prefecture_code": 17,
    "city": "能美市",
    "city_kana": "ノミシ",
    "town": "下清水町",
    "town_kana": "シモシミズマチ",
    "street": null,
    "office_name": null,
    "office_name_kana": null
  },
  "1241": {
    "zip_code": "9231241",
    "prefecture": "石川県",
    "prefecture_kana": "イシカワケン",
    "prefecture_code": 17,
    "city": "能美市",
    "city_kana": "ノミシ",
    "town": "山田町",
    "town_kana": "ヤマダマチ",
    "street": null,
    "office_name": null,
    "office_name_kana": null
  },
  "1242": {
    "zip_code": "9231242",
    "prefecture": "石川県",
    "prefecture_kana": "イシカワケン",
    "prefecture_code": 17,
    "city": "能美市",
    "city_kana": "ノミシ",
    "town": "火釜町",
    "town_kana": "ヒガママチ",
    "street": null,
    "office_name": null,
    "office_name_kana": null
  },
  "1243": {
    "zip_code": "9231243",
    "prefecture": "石川県",
    "prefecture_kana": "イシカワケン",
    "prefecture_code": 17,
    "city": "能美市",
    "city_kana": "ノミシ",
    "town": "三ツ屋町",
    "town_kana": "ミツヤマチ",
    "street": null,
    "office_name": null,
    "office_name_kana": null
  },
  "1244": {
    "zip_code": "9231244",
    "prefecture": "石川県",
    "prefecture_kana": "イシカワケン",
    "prefecture_code": 17,
    "city": "能美市",
    "city_kana": "ノミシ",
    "town": "来丸町",
    "town_kana": "ライマルマチ",
    "street": null,
    "office_name": null,
    "office_name_kana": null
  },
  "1245": {
    "zip_code": "9231245",
    "prefecture": "石川県",
    "prefecture_kana": "イシカワケン",
    "prefecture_code": 17,
    "city": "能美市",
    "city_kana": "ノミシ",
    "town": "辰口町",
    "town_kana": "タツノクチマチ",
    "street": null,
    "office_name": null,
    "office_name_kana": null
  },
  "1246": {
    "zip_code": "9231246",
    "prefecture": "石川県",
    "prefecture_kana": "イシカワケン",
    "prefecture_code": 17,
    "city": "能美市",
    "city_kana": "ノミシ",
    "town": "倉重町",
    "town_kana": "クラシゲマチ",
    "street": null,
    "office_name": null,
    "office_name_kana": null
  },
  "1247": {
    "zip_code": "9231247",
    "prefecture": "石川県",
    "prefecture_kana": "イシカワケン",
    "prefecture_code": 17,
    "city": "能美市",
    "city_kana": "ノミシ",
    "town": "出口町",
    "town_kana": "デグチマチ",
    "street": null,
    "office_name": null,
    "office_name_kana": null
  },
  "1251": {
    "zip_code": "9231251",
    "prefecture": "石川県",
    "prefecture_kana": "イシカワケン",
    "prefecture_code": 17,
    "city": "能美郡川北町",
    "city_kana": "ノミグンカワキタマチ",
    "town": "藤蔵",
    "town_kana": "トウゾウ",
    "street": null,
    "office_name": null,
    "office_name_kana": null
  },
  "1252": {
    "zip_code": "9231252",
    "prefecture": "石川県",
    "prefecture_kana": "イシカワケン",
    "prefecture_code": 17,
    "city": "能美郡川北町",
    "city_kana": "ノミグンカワキタマチ",
    "town": "中島",
    "town_kana": "ナカジマ",
    "street": null,
    "office_name": null,
    "office_name_kana": null
  },
  "1253": {
    "zip_code": "9231253",
    "prefecture": "石川県",
    "prefecture_kana": "イシカワケン",
    "prefecture_code": 17,
    "city": "能美郡川北町",
    "city_kana": "ノミグンカワキタマチ",
    "town": "三反田",
    "town_kana": "サンタンダ",
    "street": null,
    "office_name": null,
    "office_name_kana": null
  },
  "1254": {
    "zip_code": "9231254",
    "prefecture": "石川県",
    "prefecture_kana": "イシカワケン",
    "prefecture_code": 17,
    "city": "能美郡川北町",
    "city_kana": "ノミグンカワキタマチ",
    "town": "サンコーポラス",
    "town_kana": "サンコーポラス",
    "street": null,
    "office_name": null,
    "office_name_kana": null
  },
  "1261": {
    "zip_code": "9231261",
    "prefecture": "石川県",
    "prefecture_kana": "イシカワケン",
    "prefecture_code": 17,
    "city": "能美郡川北町",
    "city_kana": "ノミグンカワキタマチ",
    "town": "土室",
    "town_kana": "ツチムロ",
    "street": null,
    "office_name": null,
    "office_name_kana": null
  },
  "1262": {
    "zip_code": "9231262",
    "prefecture": "石川県",
    "prefecture_kana": "イシカワケン",
    "prefecture_code": 17,
    "city": "能美郡川北町",
    "city_kana": "ノミグンカワキタマチ",
    "town": "草深",
    "town_kana": "クサブカ",
    "street": null,
    "office_name": null,
    "office_name_kana": null
  },
  "1263": {
    "zip_code": "9231263",
    "prefecture": "石川県",
    "prefecture_kana": "イシカワケン",
    "prefecture_code": 17,
    "city": "能美郡川北町",
    "city_kana": "ノミグンカワキタマチ",
    "town": "下土室",
    "town_kana": "シモツチムロ",
    "street": null,
    "office_name": null,
    "office_name_kana": null
  },
  "1264": {
    "zip_code": "9231264",
    "prefecture": "石川県",
    "prefecture_kana": "イシカワケン",
    "prefecture_code": 17,
    "city": "能美郡川北町",
    "city_kana": "ノミグンカワキタマチ",
    "town": "山田先出",
    "town_kana": "ヤマダセンデン",
    "street": null,
    "office_name": null,
    "office_name_kana": null
  },
  "1265": {
    "zip_code": "9231265",
    "prefecture": "石川県",
    "prefecture_kana": "イシカワケン",
    "prefecture_code": 17,
    "city": "能美郡川北町",
    "city_kana": "ノミグンカワキタマチ",
    "town": "上先出",
    "town_kana": "カミセンデン",
    "street": null,
    "office_name": null,
    "office_name_kana": null
  },
  "1266": {
    "zip_code": "9231266",
    "prefecture": "石川県",
    "prefecture_kana": "イシカワケン",
    "prefecture_code": 17,
    "city": "能美郡川北町",
    "city_kana": "ノミグンカワキタマチ",
    "town": "下先出",
    "town_kana": "シモセンデン",
    "street": null,
    "office_name": null,
    "office_name_kana": null
  },
  "1267": {
    "zip_code": "9231267",
    "prefecture": "石川県",
    "prefecture_kana": "イシカワケン",
    "prefecture_code": 17,
    "city": "能美郡川北町",
    "city_kana": "ノミグンカワキタマチ",
    "town": "壱ツ屋",
    "town_kana": "ヒトツヤ",
    "street": null,
    "office_name": null,
    "office_name_kana": null
  },
  "1268": {
    "zip_code": "9231268",
    "prefecture": "石川県",
    "prefecture_kana": "イシカワケン",
    "prefecture_code": 17,
    "city": "能美郡川北町",
    "city_kana": "ノミグンカワキタマチ",
    "town": "与九郎島",
    "town_kana": "ヨクロウジマ",
    "street": null,
    "office_name": null,
    "office_name_kana": null
  },
  "1269": {
    "zip_code": "9231269",
    "prefecture": "石川県",
    "prefecture_kana": "イシカワケン",
    "prefecture_code": 17,
    "city": "能美郡川北町",
    "city_kana": "ノミグンカワキタマチ",
    "town": "上田子島",
    "town_kana": "カミダゴジマ",
    "street": null,
    "office_name": null,
    "office_name_kana": null
  },
  "1271": {
    "zip_code": "9231271",
    "prefecture": "石川県",
    "prefecture_kana": "イシカワケン",
    "prefecture_code": 17,
    "city": "能美郡川北町",
    "city_kana": "ノミグンカワキタマチ",
    "town": "田子島",
    "town_kana": "ダゴジマ",
    "street": null,
    "office_name": null,
    "office_name_kana": null
  },
  "1272": {
    "zip_code": "9231272",
    "prefecture": "石川県",
    "prefecture_kana": "イシカワケン",
    "prefecture_code": 17,
    "city": "能美郡川北町",
    "city_kana": "ノミグンカワキタマチ",
    "town": "下田子島",
    "town_kana": "シモタゴジマ",
    "street": null,
    "office_name": null,
    "office_name_kana": null
  },
  "1273": {
    "zip_code": "9231273",
    "prefecture": "石川県",
    "prefecture_kana": "イシカワケン",
    "prefecture_code": 17,
    "city": "能美郡川北町",
    "city_kana": "ノミグンカワキタマチ",
    "town": "舟場島",
    "town_kana": "フナバジマ",
    "street": null,
    "office_name": null,
    "office_name_kana": null
  },
  "1274": {
    "zip_code": "9231274",
    "prefecture": "石川県",
    "prefecture_kana": "イシカワケン",
    "prefecture_code": 17,
    "city": "能美郡川北町",
    "city_kana": "ノミグンカワキタマチ",
    "town": "木呂場",
    "town_kana": "コロバ",
    "street": null,
    "office_name": null,
    "office_name_kana": null
  },
  "1275": {
    "zip_code": "9231275",
    "prefecture": "石川県",
    "prefecture_kana": "イシカワケン",
    "prefecture_code": 17,
    "city": "能美郡川北町",
    "city_kana": "ノミグンカワキタマチ",
    "town": "木呂場新",
    "town_kana": "コロバシン",
    "street": null,
    "office_name": null,
    "office_name_kana": null
  },
  "1276": {
    "zip_code": "9231276",
    "prefecture": "石川県",
    "prefecture_kana": "イシカワケン",
    "prefecture_code": 17,
    "city": "能美郡川北町",
    "city_kana": "ノミグンカワキタマチ",
    "town": "橘",
    "town_kana": "タチバナ",
    "street": null,
    "office_name": null,
    "office_name_kana": null
  },
  "1277": {
    "zip_code": "9231277",
    "prefecture": "石川県",
    "prefecture_kana": "イシカワケン",
    "prefecture_code": 17,
    "city": "能美郡川北町",
    "city_kana": "ノミグンカワキタマチ",
    "town": "橘新",
    "town_kana": "タチバナシン",
    "street": null,
    "office_name": null,
    "office_name_kana": null
  },
  "1278": {
    "zip_code": "9231278",
    "prefecture": "石川県",
    "prefecture_kana": "イシカワケン",
    "prefecture_code": 17,
    "city": "能美郡川北町",
    "city_kana": "ノミグンカワキタマチ",
    "town": "朝日",
    "town_kana": "アサヒ",
    "street": null,
    "office_name": null,
    "office_name_kana": null
  },
  "1292": {
    "zip_code": "9231292",
    "prefecture": "石川県",
    "prefecture_kana": "イシカワケン",
    "prefecture_code": 17,
    "city": "能美市",
    "city_kana": "ノミシ",
    "town": "旭台",
    "town_kana": "アサヒダイ",
    "street": "１丁目１",
    "office_name": "北陸先端科学技術大学院大学",
    "office_name_kana": "ホクリクセンタンカガクギジユツダイガクインダイガク"
  },
  "1293": {
    "zip_code": "9231293",
    "prefecture": "石川県",
    "prefecture_kana": "イシカワケン",
    "prefecture_code": 17,
    "city": "能美市",
    "city_kana": "ノミシ",
    "town": "岩内町",
    "town_kana": "イワウチマチ",
    "street": "１−１",
    "office_name": "加賀東芝エレクトロニクス　株式会社",
    "office_name_kana": "カガトウシバエレクトロニクス カブシキガイシヤ"
  },
  "1294": {
    "zip_code": "9231294",
    "prefecture": "石川県",
    "prefecture_kana": "イシカワケン",
    "prefecture_code": 17,
    "city": "能美市",
    "city_kana": "ノミシ",
    "town": "北市町",
    "town_kana": "キタイチマチ",
    "street": "リ１",
    "office_name": "東レ　株式会社　石川工場",
    "office_name_kana": "トウレ カブシキガイシヤ イシカワコウジヨウ"
  },
  "1295": {
    "zip_code": "9231295",
    "prefecture": "石川県",
    "prefecture_kana": null,
    "prefecture_code": null,
    "city": "能美郡川北町",
    "city_kana": null,
    "town": "字壱ツ屋",
    "town_kana": null,
    "street": "１７４",
    "office_name": "川北町役場",
    "office_name_kana": "カワキタマチヤクバ"
  },
  "1296": {
    "zip_code": "9231296",
    "prefecture": "石川県",
    "prefecture_kana": null,
    "prefecture_code": null,
    "city": "能美郡川北町",
    "city_kana": null,
    "town": "字山田先出",
    "town_kana": null,
    "street": "２６−２",
    "office_name": "株式会社　ジャパンディスプレイ　石川工場",
    "office_name_kana": "カブシキガイシヤ ジヤパンデイスプレイ イシカワコウジヨウ"
  },
  "1297": {
    "zip_code": "9231297",
    "prefecture": "石川県",
    "prefecture_kana": "イシカワケン",
    "prefecture_code": 17,
    "city": "能美市",
    "city_kana": "ノミシ",
    "town": "来丸町",
    "town_kana": "ライマルマチ",
    "street": "１１１０番地",
    "office_name": "能美市役所　辰口庁舎",
    "office_name_kana": "ノミシヤクシヨ タツノクチチヨウシヤ"
  },
  "8501": {
    "zip_code": "9238501",
    "prefecture": "石川県",
    "prefecture_kana": "イシカワケン",
    "prefecture_code": 17,
    "city": "小松市",
    "city_kana": "コマツシ",
    "town": "八幡",
    "town_kana": "ヤワタ",
    "street": "ト１",
    "office_name": "小松市立高等学校",
    "office_name_kana": "コマツシリツコウトウガツコウ"
  },
  "8502": {
    "zip_code": "9238502",
    "prefecture": "石川県",
    "prefecture_kana": "イシカワケン",
    "prefecture_code": 17,
    "city": "小松市",
    "city_kana": "コマツシ",
    "town": "工業団地",
    "town_kana": "コウギョウダンチ",
    "street": "１丁目９３番地",
    "office_name": "コマニー　株式会社",
    "office_name_kana": "コマニ- カブシキガイシヤ"
  },
  "8503": {
    "zip_code": "9238503",
    "prefecture": "石川県",
    "prefecture_kana": "イシカワケン",
    "prefecture_code": 17,
    "city": "小松市",
    "city_kana": "コマツシ",
    "town": "工業団地",
    "town_kana": "コウギョウダンチ",
    "street": "１丁目６５",
    "office_name": "（株）　板尾鉄工所",
    "office_name_kana": "カブ イタオテツコウシヨ"
  },
  "8505": {
    "zip_code": "9238505",
    "prefecture": "石川県",
    "prefecture_kana": "イシカワケン",
    "prefecture_code": 17,
    "city": "小松市",
    "city_kana": "コマツシ",
    "town": "光町",
    "town_kana": "ヒカリマチ",
    "street": "８９",
    "office_name": "森康　株式会社",
    "office_name_kana": "モリヤス カブシキガイシヤ"
  },
  "8507": {
    "zip_code": "9238507",
    "prefecture": "石川県",
    "prefecture_kana": "イシカワケン",
    "prefecture_code": 17,
    "city": "小松市",
    "city_kana": "コマツシ",
    "town": "園町",
    "town_kana": "ソノマチ",
    "street": "ホ９９−１",
    "office_name": "医療法人社団　さくら会　森田病院",
    "office_name_kana": "イリヨウホウジンシヤダン サクラカイ モリタビヨウイン"
  },
  "8510": {
    "zip_code": "9238510",
    "prefecture": "石川県",
    "prefecture_kana": "イシカワケン",
    "prefecture_code": 17,
    "city": "小松市",
    "city_kana": "コマツシ",
    "town": "今江町",
    "town_kana": "イマエマチ",
    "street": "７丁目４６８",
    "office_name": "医療法人社団　東野会　東野病院",
    "office_name_kana": "イリヨウホウジンシヤダン ヒガシノカイ ヒガシノビヨウイン"
  },
  "8511": {
    "zip_code": "9238511",
    "prefecture": "石川県",
    "prefecture_kana": "イシカワケン",
    "prefecture_code": 17,
    "city": "小松市",
    "city_kana": "コマツシ",
    "town": "四丁町",
    "town_kana": "シチョウマチ",
    "street": "ヌ１−３",
    "office_name": "小松短期大学",
    "office_name_kana": "コマツタンキダイガク"
  },
  "8520": {
    "zip_code": "9238520",
    "prefecture": "石川県",
    "prefecture_kana": "イシカワケン",
    "prefecture_code": 17,
    "city": "小松市",
    "city_kana": "コマツシ",
    "town": "国府台",
    "town_kana": "コクフダイ",
    "street": "５丁目３",
    "office_name": "東亜電機工業　株式会社　Ｐ＆Ｄセンター",
    "office_name_kana": "トウアデンキコウギヨウ カブシキガイシヤ ピ-アンドデイ-センタ-"
  },
  "8521": {
    "zip_code": "9238521",
    "prefecture": "石川県",
    "prefecture_kana": "イシカワケン",
    "prefecture_code": 17,
    "city": "小松市",
    "city_kana": "コマツシ",
    "town": "串町",
    "town_kana": "クシマチ",
    "street": "工業団地１−２",
    "office_name": "株式会社　コマテック",
    "office_name_kana": "カブシキガイシヤ コマテツク"
  },
  "8525": {
    "zip_code": "9238525",
    "prefecture": "石川県",
    "prefecture_kana": "イシカワケン",
    "prefecture_code": 17,
    "city": "小松市",
    "city_kana": "コマツシ",
    "town": "問屋町",
    "town_kana": "トンヤマチ",
    "street": "２５",
    "office_name": "三島石油　株式会社",
    "office_name_kana": "ミシマセキユ カブシキガイシヤ"
  },
  "8528": {
    "zip_code": "9238528",
    "prefecture": "石川県",
    "prefecture_kana": "イシカワケン",
    "prefecture_code": 17,
    "city": "小松市",
    "city_kana": "コマツシ",
    "town": "平面町",
    "town_kana": "ヒラオモテマチ",
    "street": "ア６９",
    "office_name": "北陸ジャスコ　新小松店",
    "office_name_kana": "ホクリクジヤスコ シンコマツテン"
  },
  "8530": {
    "zip_code": "9238530",
    "prefecture": "石川県",
    "prefecture_kana": "イシカワケン",
    "prefecture_code": 17,
    "city": "小松市",
    "city_kana": "コマツシ",
    "town": "月津町",
    "town_kana": "ツキヅマチ",
    "street": "ヲ７２−２",
    "office_name": "小松教習所　（株）　粟津センタ",
    "office_name_kana": "コマツキヨウシユウシヨ (カブ) アワヅセンタ"
  },
  "8531": {
    "zip_code": "9238531",
    "prefecture": "石川県",
    "prefecture_kana": "イシカワケン",
    "prefecture_code": 17,
    "city": "小松市",
    "city_kana": "コマツシ",
    "town": "島田町",
    "town_kana": "シマダマチ",
    "street": "イ８５−１",
    "office_name": "石川県立　小松北高等学校",
    "office_name_kana": "イシカワケンリツ コマツキタコウトウガツコウ"
  },
  "8533": {
    "zip_code": "9238533",
    "prefecture": "石川県",
    "prefecture_kana": "イシカワケン",
    "prefecture_code": 17,
    "city": "小松市",
    "city_kana": "コマツシ",
    "town": "白嶺町",
    "town_kana": "シラネマチ",
    "street": "１丁目３４",
    "office_name": "ＫＢセーレン　株式会社",
    "office_name_kana": "ケ-ビ-セ-レン カブシキガイシヤ"
  },
  "8541": {
    "zip_code": "9238541",
    "prefecture": "石川県",
    "prefecture_kana": "イシカワケン",
    "prefecture_code": 17,
    "city": "小松市",
    "city_kana": "コマツシ",
    "town": "小馬出町",
    "town_kana": "コンマデマチ",
    "street": "１１",
    "office_name": "金沢地方裁判所　小松支部",
    "office_name_kana": "カナザワチホウサイバンシヨ コマツシブ"
  },
  "8544": {
    "zip_code": "9238544",
    "prefecture": "石川県",
    "prefecture_kana": "イシカワケン",
    "prefecture_code": 17,
    "city": "小松市",
    "city_kana": "コマツシ",
    "town": "本折町",
    "town_kana": "モトオリマチ",
    "street": "３３番地",
    "office_name": "アパ　株式会社　小松店",
    "office_name_kana": "アパ カブシキガイシヤ コマツテン"
  },
  "8545": {
    "zip_code": "9238545",
    "prefecture": "石川県",
    "prefecture_kana": "イシカワケン",
    "prefecture_code": 17,
    "city": "小松市",
    "city_kana": "コマツシ",
    "town": "平面町",
    "town_kana": "ヒラオモテマチ",
    "street": "ヘ７２",
    "office_name": "石川県立　小松明峰高等学校",
    "office_name_kana": "イシカワケンリツ コマツメイホウコウトウガツコウ"
  },
  "8546": {
    "zip_code": "9238546",
    "prefecture": "石川県",
    "prefecture_kana": "イシカワケン",
    "prefecture_code": 17,
    "city": "小松市",
    "city_kana": "コマツシ",
    "town": "上八里町",
    "town_kana": "カミヤサトマチ",
    "street": "ニ２５",
    "office_name": "株式会社　エヌジェーケー　北陸事業所",
    "office_name_kana": "カブシキガイシヤ エヌジエ-ケ- ホクリクジギヨウシヨ"
  },
  "8550": {
    "zip_code": "9238550",
    "prefecture": "石川県",
    "prefecture_kana": "イシカワケン",
    "prefecture_code": 17,
    "city": "小松市",
    "city_kana": "コマツシ",
    "town": "今江町",
    "town_kana": "イマエマチ",
    "street": "６丁目３４９",
    "office_name": "帝人加工糸　株式会社",
    "office_name_kana": "テイジンカコウシ カブシキガイシヤ"
  },
  "8551": {
    "zip_code": "9238551",
    "prefecture": "石川県",
    "prefecture_kana": "イシカワケン",
    "prefecture_code": 17,
    "city": "小松市",
    "city_kana": "コマツシ",
    "town": "八幡",
    "town_kana": "ヤワタ",
    "street": "イ１２−７",
    "office_name": "やわたメディカルセンター",
    "office_name_kana": "ヤワタメデイカルセンタ-"
  },
  "8552": {
    "zip_code": "9238552",
    "prefecture": "石川県",
    "prefecture_kana": "イシカワケン",
    "prefecture_code": 17,
    "city": "小松市",
    "city_kana": "コマツシ",
    "town": "大文字町",
    "town_kana": "ダイモンジチョウ",
    "street": "８８",
    "office_name": "整形外科　芦城病院",
    "office_name_kana": "セイケイゲカ ロジヨウビヨウイン"
  },
  "8555": {
    "zip_code": "9238555",
    "prefecture": "石川県",
    "prefecture_kana": "イシカワケン",
    "prefecture_code": 17,
    "city": "小松市",
    "city_kana": "コマツシ",
    "town": "希望丘",
    "town_kana": "キボウガオカ",
    "street": "１０",
    "office_name": "石川県立　小松商業高等学校",
    "office_name_kana": "イシカワケンリツ コマツシヨウギヨウコウトウガツコウ"
  },
  "8557": {
    "zip_code": "9238557",
    "prefecture": "石川県",
    "prefecture_kana": "イシカワケン",
    "prefecture_code": 17,
    "city": "小松市",
    "city_kana": "コマツシ",
    "town": "国府台",
    "town_kana": "コクフダイ",
    "street": "５丁目２８",
    "office_name": "株式会社　ワイエムシイ　小松事業所",
    "office_name_kana": "カブシキガイシヤ ワイエムシイ コマツジギヨウシヨ"
  },
  "8560": {
    "zip_code": "9238560",
    "prefecture": "石川県",
    "prefecture_kana": "イシカワケン",
    "prefecture_code": 17,
    "city": "小松市",
    "city_kana": "コマツシ",
    "town": "向本折町",
    "town_kana": "ムカイモトオリマチ",
    "street": "ホ６０",
    "office_name": "小松市民病院",
    "office_name_kana": "コマツシミンビヨウイン"
  },
  "8566": {
    "zip_code": "9238566",
    "prefecture": "石川県",
    "prefecture_kana": "イシカワケン",
    "prefecture_code": 17,
    "city": "小松市",
    "city_kana": "コマツシ",
    "town": "園町",
    "town_kana": "ソノマチ",
    "street": "ニ１",
    "office_name": "小松商工会議所",
    "office_name_kana": "コマツシヨウコウカイギシヨ"
  },
  "8567": {
    "zip_code": "9238567",
    "prefecture": "石川県",
    "prefecture_kana": "イシカワケン",
    "prefecture_code": 17,
    "city": "小松市",
    "city_kana": "コマツシ",
    "town": "打越町",
    "town_kana": "ウチコシマチ",
    "street": "丙６７",
    "office_name": "石川県立　小松工業高等学校",
    "office_name_kana": "イシカワケンリツ コマツコウギヨウコウトウガツコウ"
  },
  "8570": {
    "zip_code": "9238570",
    "prefecture": "石川県",
    "prefecture_kana": "イシカワケン",
    "prefecture_code": 17,
    "city": "小松市",
    "city_kana": "コマツシ",
    "town": "日の出町",
    "town_kana": "ヒノデマチ",
    "street": "１丁目１２０",
    "office_name": "小松税務署",
    "office_name_kana": "コマツゼイムシヨ"
  },
  "8575": {
    "zip_code": "9238575",
    "prefecture": "石川県",
    "prefecture_kana": "イシカワケン",
    "prefecture_code": 17,
    "city": "小松市",
    "city_kana": "コマツシ",
    "town": "串町",
    "town_kana": "クシマチ",
    "street": "工業団地３０番地",
    "office_name": "ジェイ・バス　株式会社",
    "office_name_kana": "ジエイ・バス カブシキガイシヤ"
  },
  "8577": {
    "zip_code": "9238577",
    "prefecture": "石川県",
    "prefecture_kana": "イシカワケン",
    "prefecture_code": 17,
    "city": "小松市",
    "city_kana": "コマツシ",
    "town": "上八里町",
    "town_kana": "カミヤサトマチ",
    "street": "ニ２５",
    "office_name": "エヌジェーケーテクノ・システム　株式会社",
    "office_name_kana": "エヌジエ-ケ-テクノ・システム カブシキガイシヤ"
  },
  "8578": {
    "zip_code": "9238578",
    "prefecture": "石川県",
    "prefecture_kana": "イシカワケン",
    "prefecture_code": 17,
    "city": "小松市",
    "city_kana": "コマツシ",
    "town": "月津町",
    "town_kana": "ツキヅマチ",
    "street": "ヲ９５",
    "office_name": "第二松寿園",
    "office_name_kana": "ダイニシヨウジユエン"
  },
  "8580": {
    "zip_code": "9238580",
    "prefecture": "石川県",
    "prefecture_kana": "イシカワケン",
    "prefecture_code": 17,
    "city": "小松市",
    "city_kana": "コマツシ",
    "town": "里川町",
    "town_kana": "サトカワマチ",
    "street": "ナ２３",
    "office_name": "ブリヂストン北陸化成　株式会社",
    "office_name_kana": "ブリヂストンホクリクカセイ カブシキガイシヤ"
  },
  "8581": {
    "zip_code": "9238581",
    "prefecture": "石川県",
    "prefecture_kana": "イシカワケン",
    "prefecture_code": 17,
    "city": "小松市",
    "city_kana": "コマツシ",
    "town": "串町",
    "town_kana": "クシマチ",
    "street": "工業団地１−１",
    "office_name": "大京　株式会社",
    "office_name_kana": "ダイキヨウ カブシキガイシヤ"
  },
  "8586": {
    "zip_code": "9238586",
    "prefecture": "石川県",
    "prefecture_kana": "イシカワケン",
    "prefecture_code": 17,
    "city": "小松市",
    "city_kana": "コマツシ",
    "town": "向本折町",
    "town_kana": "ムカイモトオリマチ",
    "street": "戊２６７",
    "office_name": "航空自衛隊　小松基地",
    "office_name_kana": "コウクウジエイタイ コマツキチ"
  },
  "8588": {
    "zip_code": "9238588",
    "prefecture": "石川県",
    "prefecture_kana": "イシカワケン",
    "prefecture_code": 17,
    "city": "小松市",
    "city_kana": "コマツシ",
    "town": "国府台",
    "town_kana": "コクフダイ",
    "street": "５丁目２０",
    "office_name": "株式会社　小松電業所",
    "office_name_kana": "カブシキガイシヤ コマツデンギヨウシヨ"
  },
  "8601": {
    "zip_code": "9238601",
    "prefecture": "石川県",
    "prefecture_kana": "イシカワケン",
    "prefecture_code": 17,
    "city": "小松市",
    "city_kana": "コマツシ",
    "town": "八幡",
    "town_kana": "ヤワタ",
    "street": "イ１３−１",
    "office_name": "北陸体力科学研究所",
    "office_name_kana": "ホクリクタイリヨクカガクケンキユウシヨ"
  },
  "8603": {
    "zip_code": "9238603",
    "prefecture": "石川県",
    "prefecture_kana": "イシカワケン",
    "prefecture_code": 17,
    "city": "小松市",
    "city_kana": "コマツシ",
    "town": "串町",
    "town_kana": "クシマチ",
    "street": "工業団地１−３",
    "office_name": "株式会社　室戸鉄工所",
    "office_name_kana": "カブシキガイシヤ ムロトテツコウシヨ"
  },
  "8605": {
    "zip_code": "9238605",
    "prefecture": "石川県",
    "prefecture_kana": "イシカワケン",
    "prefecture_code": 17,
    "city": "小松市",
    "city_kana": "コマツシ",
    "town": "今江町",
    "town_kana": "イマエマチ",
    "street": "９丁目４０６",
    "office_name": "コマツエンジニアリング　株式会社",
    "office_name_kana": "コマツエンジニアリング カブシキガイシヤ"
  },
  "8606": {
    "zip_code": "9238606",
    "prefecture": "石川県",
    "prefecture_kana": "イシカワケン",
    "prefecture_code": 17,
    "city": "小松市",
    "city_kana": "コマツシ",
    "town": "園町",
    "town_kana": "ソノマチ",
    "street": "ハ３６−１",
    "office_name": "小松織物工業協同組合",
    "office_name_kana": "コマツオリモノコウギヨウキヨウドウクミアイ"
  },
  "8608": {
    "zip_code": "9238608",
    "prefecture": "石川県",
    "prefecture_kana": "イシカワケン",
    "prefecture_code": 17,
    "city": "小松市",
    "city_kana": "コマツシ",
    "town": "土居原町",
    "town_kana": "ドイハラマチ",
    "street": "１０番１０号",
    "office_name": "株式会社　大和　小松店",
    "office_name_kana": "カブシキガイシヤ ダイワ コマツテン"
  },
  "8609": {
    "zip_code": "9238609",
    "prefecture": "石川県",
    "prefecture_kana": "イシカワケン",
    "prefecture_code": 17,
    "city": "小松市",
    "city_kana": "コマツシ",
    "town": "日の出町",
    "town_kana": "ヒノデマチ",
    "street": "１丁目１２０",
    "office_name": "小松公共職業安定所　（ハローワーク小松）",
    "office_name_kana": "コマツコウキヨウシヨクギヨウアンテイシヨ (ハロ-ワ-クコマツ)"
  },
  "8610": {
    "zip_code": "9238610",
    "prefecture": "石川県",
    "prefecture_kana": "イシカワケン",
    "prefecture_code": 17,
    "city": "小松市",
    "city_kana": "コマツシ",
    "town": "こまつの杜",
    "town_kana": "コマツノモリ",
    "street": "２番地",
    "office_name": "サイエンスヒルズこまつ",
    "office_name_kana": "サイエンスヒルズコマツ"
  },
  "8611": {
    "zip_code": "9238611",
    "prefecture": "石川県",
    "prefecture_kana": "イシカワケン",
    "prefecture_code": 17,
    "city": "小松市",
    "city_kana": "コマツシ",
    "town": "上小松町",
    "town_kana": "カミコマツマチ",
    "street": "丙２５２",
    "office_name": "小松市農業協同組合",
    "office_name_kana": "コマツシノウギヨウキヨウドウクミアイ"
  },
  "8615": {
    "zip_code": "9238615",
    "prefecture": "石川県",
    "prefecture_kana": "イシカワケン",
    "prefecture_code": 17,
    "city": "小松市",
    "city_kana": "コマツシ",
    "town": "有明町",
    "town_kana": "アリアケマチ",
    "street": "２７",
    "office_name": "カナカン　株式会社　酒類小松営業所",
    "office_name_kana": "カナカン カブシキガイシヤ サケルイコマツエイギヨウシヨ"
  },
  "8616": {
    "zip_code": "9238616",
    "prefecture": "石川県",
    "prefecture_kana": "イシカワケン",
    "prefecture_code": 17,
    "city": "小松市",
    "city_kana": "コマツシ",
    "town": "桜木町",
    "town_kana": "サクラギチョウ",
    "street": "１３３−１",
    "office_name": "篠岡建設　株式会社",
    "office_name_kana": "シノオカケンセツ カブシキガイシヤ"
  },
  "8620": {
    "zip_code": "9238620",
    "prefecture": "石川県",
    "prefecture_kana": "イシカワケン",
    "prefecture_code": 17,
    "city": "小松市",
    "city_kana": "コマツシ",
    "town": "工業団地",
    "town_kana": "コウギョウダンチ",
    "street": "１丁目５７番地",
    "office_name": "株式会社　共和工業所",
    "office_name_kana": "カブシキガイシヤ キヨウワコウギヨウシヨ"
  },
  "8626": {
    "zip_code": "9238626",
    "prefecture": "石川県",
    "prefecture_kana": "イシカワケン",
    "prefecture_code": 17,
    "city": "小松市",
    "city_kana": "コマツシ",
    "town": "光町",
    "town_kana": "ヒカリマチ",
    "street": "９３",
    "office_name": "株式会社　小松村田製作所",
    "office_name_kana": "カブシキガイシヤ コマツムラタセイサクシヨ"
  },
  "8630": {
    "zip_code": "9238630",
    "prefecture": "石川県",
    "prefecture_kana": "イシカワケン",
    "prefecture_code": 17,
    "city": "小松市",
    "city_kana": "コマツシ",
    "town": "向本折町",
    "town_kana": "ムカイモトオリマチ",
    "street": "ヘ１４−１",
    "office_name": "財団法人　こまつ看護学校",
    "office_name_kana": "ザイダンホウジン コマツカンゴガツコウ"
  },
  "8633": {
    "zip_code": "9238633",
    "prefecture": "石川県",
    "prefecture_kana": "イシカワケン",
    "prefecture_code": 17,
    "city": "小松市",
    "city_kana": "コマツシ",
    "town": "末広町",
    "town_kana": "スエヒロマチ",
    "street": "４６",
    "office_name": "日本電信電話　株式会社　小松支店",
    "office_name_kana": "ニホンデンシンデンワ カブシキガイシヤ コマツシテン"
  },
  "8639": {
    "zip_code": "9238639",
    "prefecture": "石川県",
    "prefecture_kana": "イシカワケン",
    "prefecture_code": 17,
    "city": "小松市",
    "city_kana": "コマツシ",
    "town": "光町",
    "town_kana": "ヒカリマチ",
    "street": "２０",
    "office_name": "小松鋼機　株式会社",
    "office_name_kana": "コマツコウキ カブシキガイシヤ"
  },
  "8642": {
    "zip_code": "9238642",
    "prefecture": "石川県",
    "prefecture_kana": "イシカワケン",
    "prefecture_code": 17,
    "city": "小松市",
    "city_kana": "コマツシ",
    "town": "安宅町",
    "town_kana": "アタカマチ",
    "street": "甲１３５",
    "office_name": "小松電子　株式会社",
    "office_name_kana": "コマツデンシ カブシキガイシヤ"
  },
  "8643": {
    "zip_code": "9238643",
    "prefecture": "石川県",
    "prefecture_kana": "イシカワケン",
    "prefecture_code": 17,
    "city": "小松市",
    "city_kana": "コマツシ",
    "town": "工業団地",
    "town_kana": "コウギョウダンチ",
    "street": "１丁目７２番地",
    "office_name": "小松ウオール工業　株式会社",
    "office_name_kana": "コマツウオ-ルコウギヨウ カブシキガイシヤ"
  },
  "8644": {
    "zip_code": "9238644",
    "prefecture": "石川県",
    "prefecture_kana": "イシカワケン",
    "prefecture_code": 17,
    "city": "小松市",
    "city_kana": "コマツシ",
    "town": "園町",
    "town_kana": "ソノマチ",
    "street": "ハ２３番地１",
    "office_name": "アル・プラザ小松",
    "office_name_kana": "アルプラザコマツ"
  },
  "8646": {
    "zip_code": "9238646",
    "prefecture": "石川県",
    "prefecture_kana": "イシカワケン",
    "prefecture_code": 17,
    "city": "小松市",
    "city_kana": "コマツシ",
    "town": "丸内町",
    "town_kana": "マルノウチマチ",
    "street": "二ノ丸１５",
    "office_name": "石川県立　小松高等学校",
    "office_name_kana": "イシカワケンリツ コマツコウトウガツコウ"
  },
  "8650": {
    "zip_code": "9238650",
    "prefecture": "石川県",
    "prefecture_kana": "イシカワケン",
    "prefecture_code": 17,
    "city": "小松市",
    "city_kana": "コマツシ",
    "town": "小馬出町",
    "town_kana": "コンマデマチ",
    "street": "９１（小松郵便局私書箱第１２号）",
    "office_name": "小松市役所",
    "office_name_kana": "コマツシヤクシヨ"
  },
  "8666": {
    "zip_code": "9238666",
    "prefecture": "石川県",
    "prefecture_kana": "イシカワケン",
    "prefecture_code": 17,
    "city": "小松市",
    "city_kana": "コマツシ",
    "town": "八日市町地方",
    "town_kana": "ヨウカイチマチジガタ",
    "street": "５",
    "office_name": "コマツ小松工場",
    "office_name_kana": "コマツコマツコウジヨウ"
  },
  "8686": {
    "zip_code": "9238686",
    "prefecture": "石川県",
    "prefecture_kana": "イシカワケン",
    "prefecture_code": 17,
    "city": "小松市",
    "city_kana": "コマツシ",
    "town": "新町",
    "town_kana": "シンマチ",
    "street": "８６",
    "office_name": "小倉織物　株式会社",
    "office_name_kana": "オグラオリモノ カブシキガイシヤ"
  },
  "8688": {
    "zip_code": "9238688",
    "prefecture": "石川県",
    "prefecture_kana": "イシカワケン",
    "prefecture_code": 17,
    "city": "小松市",
    "city_kana": "コマツシ",
    "town": "京町",
    "town_kana": "キョウマチ",
    "street": "６８",
    "office_name": "株式会社　北國銀行　小松支店",
    "office_name_kana": "カブシキガイシヤ ホツコクギンコウ コマツシテン"
  }
}