{
  "0000": {
    "zip_code": "9260000",
    "prefecture": "石川県",
    "prefecture_kana": "イシカワケン",
    "prefecture_code": "17",
    "city": "七尾市",
    "city_kana": "ナナオシ",
    "town": "",
    "town_kana": "",
    "street": null,
    "office_name": null,
    "office_name_kana": null
  },
  "0001": {
    "zip_code": "9260001",
    "prefecture": "石川県",
    "prefecture_kana": "イシカワケン",
    "prefecture_code": "17",
    "city": "七尾市",
    "city_kana": "ナナオシ",
    "town": "鵜浦町",
    "town_kana": "ウノウラマチ",
    "street": null,
    "office_name": null,
    "office_name_kana": null
  },
  "0002": {
    "zip_code": "9260002",
    "prefecture": "石川県",
    "prefecture_kana": "イシカワケン",
    "prefecture_code": "17",
    "city": "七尾市",
    "city_kana": "ナナオシ",
    "town": "湯川町",
    "town_kana": "ユガワマチ",
    "street": null,
    "office_name": null,
    "office_name_kana": null
  },
  "0003": {
    "zip_code": "9260003",
    "prefecture": "石川県",
    "prefecture_kana": "イシカワケン",
    "prefecture_code": "17",
    "city": "七尾市",
    "city_kana": "ナナオシ",
    "town": "沢野町",
    "town_kana": "サワノマチ",
    "street": null,
    "office_name": null,
    "office_name_kana": null
  },
  "0004": {
    "zip_code": "9260004",
    "prefecture": "石川県",
    "prefecture_kana": "イシカワケン",
    "prefecture_code": "17",
    "city": "七尾市",
    "city_kana": "ナナオシ",
    "town": "殿町",
    "town_kana": "トノマチ",
    "street": null,
    "office_name": null,
    "office_name_kana": null
  },
  "0005": {
    "zip_code": "9260005",
    "prefecture": "石川県",
    "prefecture_kana": "イシカワケン",
    "prefecture_code": "17",
    "city": "七尾市",
    "city_kana": "ナナオシ",
    "town": "岡町",
    "town_kana": "オカマチ",
    "street": null,
    "office_name": null,
    "office_name_kana": null
  },
  "0006": [
    {
      "zip_code": "9260006",
      "prefecture": "石川県",
      "prefecture_kana": "イシカワケン",
      "prefecture_code": "17",
      "city": "七尾市",
      "city_kana": "ナナオシ",
      "town": "大田新町",
      "town_kana": "オオタシンマチ",
      "street": null,
      "office_name": null,
      "office_name_kana": null
    },
    {
      "zip_code": "9260006",
      "prefecture": "石川県",
      "prefecture_kana": "イシカワケン",
      "prefecture_code": "17",
      "city": "七尾市",
      "city_kana": "ナナオシ",
      "town": "大田町",
      "town_kana": "オオタマチ",
      "street": null,
      "office_name": null,
      "office_name_kana": null
    }
  ],
  "0007": {
    "zip_code": "9260007",
    "prefecture": "石川県",
    "prefecture_kana": "イシカワケン",
    "prefecture_code": "17",
    "city": "七尾市",
    "city_kana": "ナナオシ",
    "town": "三室町",
    "town_kana": "ミムロマチ",
    "street": null,
    "office_name": null,
    "office_name_kana": null
  },
  "0011": {
    "zip_code": "9260011",
    "prefecture": "石川県",
    "prefecture_kana": "イシカワケン",
    "prefecture_code": "17",
    "city": "七尾市",
    "city_kana": "ナナオシ",
    "town": "佐味町",
    "town_kana": "サミマチ",
    "street": null,
    "office_name": null,
    "office_name_kana": null
  },
  "0012": [
    {
      "zip_code": "9260012",
      "prefecture": "石川県",
      "prefecture_kana": "イシカワケン",
      "prefecture_code": "17",
      "city": "七尾市",
      "city_kana": "ナナオシ",
      "town": "報国町",
      "town_kana": "ホウコクマチ",
      "street": null,
      "office_name": null,
      "office_name_kana": null
    },
    {
      "zip_code": "9260012",
      "prefecture": "石川県",
      "prefecture_kana": "イシカワケン",
      "prefecture_code": "17",
      "city": "七尾市",
      "city_kana": "ナナオシ",
      "town": "万行町",
      "town_kana": "マンギョウマチ",
      "street": null,
      "office_name": null,
      "office_name_kana": null
    }
  ],
  "0013": {
    "zip_code": "9260013",
    "prefecture": "石川県",
    "prefecture_kana": "イシカワケン",
    "prefecture_code": "17",
    "city": "七尾市",
    "city_kana": "ナナオシ",
    "town": "佐野町",
    "town_kana": "サノマチ",
    "street": null,
    "office_name": null,
    "office_name_kana": null
  },
  "0014": [
    {
      "zip_code": "9260014",
      "prefecture": "石川県",
      "prefecture_kana": "イシカワケン",
      "prefecture_code": "17",
      "city": "七尾市",
      "city_kana": "ナナオシ",
      "town": "緑ケ丘町",
      "town_kana": "ミドリガオカチョウ",
      "street": null,
      "office_name": null,
      "office_name_kana": null
    },
    {
      "zip_code": "9260014",
      "prefecture": "石川県",
      "prefecture_kana": "イシカワケン",
      "prefecture_code": "17",
      "city": "七尾市",
      "city_kana": "ナナオシ",
      "town": "矢田町",
      "town_kana": "ヤタマチ",
      "street": null,
      "office_name": null,
      "office_name_kana": null
    }
  ],
  "0015": {
    "zip_code": "9260015",
    "prefecture": "石川県",
    "prefecture_kana": "イシカワケン",
    "prefecture_code": "17",
    "city": "七尾市",
    "city_kana": "ナナオシ",
    "town": "矢田新町",
    "town_kana": "ヤタシンマチ",
    "street": null,
    "office_name": null,
    "office_name_kana": null
  },
  "0016": {
    "zip_code": "9260016",
    "prefecture": "石川県",
    "prefecture_kana": "イシカワケン",
    "prefecture_code": "17",
    "city": "七尾市",
    "city_kana": "ナナオシ",
    "town": "大和町",
    "town_kana": "ヤマトマチ",
    "street": null,
    "office_name": null,
    "office_name_kana": null
  },
  "0021": [
    {
      "zip_code": "9260021",
      "prefecture": "石川県",
      "prefecture_kana": "イシカワケン",
      "prefecture_code": "17",
      "city": "七尾市",
      "city_kana": "ナナオシ",
      "town": "巴町",
      "town_kana": "トモエマチ",
      "street": null,
      "office_name": null,
      "office_name_kana": null
    },
    {
      "zip_code": "9260021",
      "prefecture": "石川県",
      "prefecture_kana": "イシカワケン",
      "prefecture_code": "17",
      "city": "七尾市",
      "city_kana": "ナナオシ",
      "town": "本府中町",
      "town_kana": "モトフチュウマチ",
      "street": null,
      "office_name": null,
      "office_name_kana": null
    }
  ],
  "0022": {
    "zip_code": "9260022",
    "prefecture": "石川県",
    "prefecture_kana": "イシカワケン",
    "prefecture_code": "17",
    "city": "七尾市",
    "city_kana": "ナナオシ",
    "town": "天神川原町",
    "town_kana": "テンジンカワラマチ",
    "street": null,
    "office_name": null,
    "office_name_kana": null
  },
  "0023": {
    "zip_code": "9260023",
    "prefecture": "石川県",
    "prefecture_kana": "イシカワケン",
    "prefecture_code": "17",
    "city": "七尾市",
    "city_kana": "ナナオシ",
    "town": "竹町",
    "town_kana": "タケマチ",
    "street": null,
    "office_name": null,
    "office_name_kana": null
  },
  "0024": {
    "zip_code": "9260024",
    "prefecture": "石川県",
    "prefecture_kana": "イシカワケン",
    "prefecture_code": "17",
    "city": "七尾市",
    "city_kana": "ナナオシ",
    "town": "古屋敷町",
    "town_kana": "フルヤシキマチ",
    "street": null,
    "office_name": null,
    "office_name_kana": null
  },
  "0025": {
    "zip_code": "9260025",
    "prefecture": "石川県",
    "prefecture_kana": "イシカワケン",
    "prefecture_code": "17",
    "city": "七尾市",
    "city_kana": "ナナオシ",
    "town": "古城町",
    "town_kana": "フルシロマチ",
    "street": null,
    "office_name": null,
    "office_name_kana": null
  },
  "0026": {
    "zip_code": "9260026",
    "prefecture": "石川県",
    "prefecture_kana": "イシカワケン",
    "prefecture_code": "17",
    "city": "七尾市",
    "city_kana": "ナナオシ",
    "town": "小池川原町",
    "town_kana": "コイケガワラマチ",
    "street": null,
    "office_name": null,
    "office_name_kana": null
  },
  "0027": {
    "zip_code": "9260027",
    "prefecture": "石川県",
    "prefecture_kana": "イシカワケン",
    "prefecture_code": "17",
    "city": "七尾市",
    "city_kana": "ナナオシ",
    "town": "後畠町",
    "town_kana": "ウシロバタケマチ",
    "street": null,
    "office_name": null,
    "office_name_kana": null
  },
  "0028": {
    "zip_code": "9260028",
    "prefecture": "石川県",
    "prefecture_kana": "イシカワケン",
    "prefecture_code": "17",
    "city": "七尾市",
    "city_kana": "ナナオシ",
    "town": "藤野町",
    "town_kana": "フジノマチ",
    "street": null,
    "office_name": null,
    "office_name_kana": null
  },
  "0031": {
    "zip_code": "9260031",
    "prefecture": "石川県",
    "prefecture_kana": "イシカワケン",
    "prefecture_code": "17",
    "city": "七尾市",
    "city_kana": "ナナオシ",
    "town": "古府町",
    "town_kana": "フルコマチ",
    "street": null,
    "office_name": null,
    "office_name_kana": null
  },
  "0032": {
    "zip_code": "9260032",
    "prefecture": "石川県",
    "prefecture_kana": "イシカワケン",
    "prefecture_code": "17",
    "city": "七尾市",
    "city_kana": "ナナオシ",
    "town": "南ケ丘町",
    "town_kana": "ミナミガオカマチ",
    "street": null,
    "office_name": null,
    "office_name_kana": null
  },
  "0033": {
    "zip_code": "9260033",
    "prefecture": "石川県",
    "prefecture_kana": "イシカワケン",
    "prefecture_code": "17",
    "city": "七尾市",
    "city_kana": "ナナオシ",
    "town": "千野町",
    "town_kana": "チノマチ",
    "street": null,
    "office_name": null,
    "office_name_kana": null
  },
  "0034": {
    "zip_code": "9260034",
    "prefecture": "石川県",
    "prefecture_kana": "イシカワケン",
    "prefecture_code": "17",
    "city": "七尾市",
    "city_kana": "ナナオシ",
    "town": "多根町",
    "town_kana": "タネマチ",
    "street": null,
    "office_name": null,
    "office_name_kana": null
  },
  "0035": {
    "zip_code": "9260035",
    "prefecture": "石川県",
    "prefecture_kana": "イシカワケン",
    "prefecture_code": "17",
    "city": "七尾市",
    "city_kana": "ナナオシ",
    "town": "八田町",
    "town_kana": "ハッタマチ",
    "street": null,
    "office_name": null,
    "office_name_kana": null
  },
  "0036": {
    "zip_code": "9260036",
    "prefecture": "石川県",
    "prefecture_kana": "イシカワケン",
    "prefecture_code": "17",
    "city": "七尾市",
    "city_kana": "ナナオシ",
    "town": "中挾町",
    "town_kana": "ナカバサミマチ",
    "street": null,
    "office_name": null,
    "office_name_kana": null
  },
  "0037": {
    "zip_code": "9260037",
    "prefecture": "石川県",
    "prefecture_kana": "イシカワケン",
    "prefecture_code": "17",
    "city": "七尾市",
    "city_kana": "ナナオシ",
    "town": "国下町",
    "town_kana": "コクガマチ",
    "street": null,
    "office_name": null,
    "office_name_kana": null
  },
  "0038": {
    "zip_code": "9260038",
    "prefecture": "石川県",
    "prefecture_kana": "イシカワケン",
    "prefecture_code": "17",
    "city": "七尾市",
    "city_kana": "ナナオシ",
    "town": "八幡町",
    "town_kana": "ヤワタマチ",
    "street": null,
    "office_name": null,
    "office_name_kana": null
  },
  "0041": {
    "zip_code": "9260041",
    "prefecture": "石川県",
    "prefecture_kana": "イシカワケン",
    "prefecture_code": "17",
    "city": "七尾市",
    "city_kana": "ナナオシ",
    "town": "府中町",
    "town_kana": "フチュウマチ",
    "street": null,
    "office_name": null,
    "office_name_kana": null
  },
  "0042": {
    "zip_code": "9260042",
    "prefecture": "石川県",
    "prefecture_kana": "イシカワケン",
    "prefecture_code": "17",
    "city": "七尾市",
    "city_kana": "ナナオシ",
    "town": "作事町",
    "town_kana": "サクジマチ",
    "street": null,
    "office_name": null,
    "office_name_kana": null
  },
  "0043": {
    "zip_code": "9260043",
    "prefecture": "石川県",
    "prefecture_kana": "イシカワケン",
    "prefecture_code": "17",
    "city": "七尾市",
    "city_kana": "ナナオシ",
    "town": "橘町",
    "town_kana": "タチバナチョウ",
    "street": null,
    "office_name": null,
    "office_name_kana": null
  },
  "0044": {
    "zip_code": "9260044",
    "prefecture": "石川県",
    "prefecture_kana": "イシカワケン",
    "prefecture_code": "17",
    "city": "七尾市",
    "city_kana": "ナナオシ",
    "town": "相生町",
    "town_kana": "アイオイチョウ",
    "street": null,
    "office_name": null,
    "office_name_kana": null
  },
  "0045": {
    "zip_code": "9260045",
    "prefecture": "石川県",
    "prefecture_kana": "イシカワケン",
    "prefecture_code": "17",
    "city": "七尾市",
    "city_kana": "ナナオシ",
    "town": "袖ケ江町",
    "town_kana": "ソデガエチョウ",
    "street": null,
    "office_name": null,
    "office_name_kana": null
  },
  "0046": {
    "zip_code": "9260046",
    "prefecture": "石川県",
    "prefecture_kana": "イシカワケン",
    "prefecture_code": "17",
    "city": "七尾市",
    "city_kana": "ナナオシ",
    "town": "神明町",
    "town_kana": "シンメイチョウ",
    "street": null,
    "office_name": null,
    "office_name_kana": null
  },
  "0047": {
    "zip_code": "9260047",
    "prefecture": "石川県",
    "prefecture_kana": "イシカワケン",
    "prefecture_code": "17",
    "city": "七尾市",
    "city_kana": "ナナオシ",
    "town": "大手町",
    "town_kana": "オオテマチ",
    "street": null,
    "office_name": null,
    "office_name_kana": null
  },
  "0048": {
    "zip_code": "9260048",
    "prefecture": "石川県",
    "prefecture_kana": "イシカワケン",
    "prefecture_code": "17",
    "city": "七尾市",
    "city_kana": "ナナオシ",
    "town": "桧物町",
    "town_kana": "ヒモノマチ",
    "street": null,
    "office_name": null,
    "office_name_kana": null
  },
  "0051": {
    "zip_code": "9260051",
    "prefecture": "石川県",
    "prefecture_kana": "イシカワケン",
    "prefecture_code": "17",
    "city": "七尾市",
    "city_kana": "ナナオシ",
    "town": "郡町",
    "town_kana": "コオリマチ",
    "street": null,
    "office_name": null,
    "office_name_kana": null
  },
  "0052": {
    "zip_code": "9260052",
    "prefecture": "石川県",
    "prefecture_kana": "イシカワケン",
    "prefecture_code": "17",
    "city": "七尾市",
    "city_kana": "ナナオシ",
    "town": "山王町",
    "town_kana": "サンノウマチ",
    "street": null,
    "office_name": null,
    "office_name_kana": null
  },
  "0053": {
    "zip_code": "9260053",
    "prefecture": "石川県",
    "prefecture_kana": "イシカワケン",
    "prefecture_code": "17",
    "city": "七尾市",
    "city_kana": "ナナオシ",
    "town": "上府中町",
    "town_kana": "カミフチュウマチ",
    "street": null,
    "office_name": null,
    "office_name_kana": null
  },
  "0054": {
    "zip_code": "9260054",
    "prefecture": "石川県",
    "prefecture_kana": "イシカワケン",
    "prefecture_code": "17",
    "city": "七尾市",
    "city_kana": "ナナオシ",
    "town": "川原町",
    "town_kana": "カワラマチ",
    "street": null,
    "office_name": null,
    "office_name_kana": null
  },
  "0055": {
    "zip_code": "9260055",
    "prefecture": "石川県",
    "prefecture_kana": "イシカワケン",
    "prefecture_code": "17",
    "city": "七尾市",
    "city_kana": "ナナオシ",
    "town": "今町",
    "town_kana": "イママチ",
    "street": null,
    "office_name": null,
    "office_name_kana": null
  },
  "0056": {
    "zip_code": "9260056",
    "prefecture": "石川県",
    "prefecture_kana": "イシカワケン",
    "prefecture_code": "17",
    "city": "七尾市",
    "city_kana": "ナナオシ",
    "town": "塗師町",
    "town_kana": "ヌシマチ",
    "street": null,
    "office_name": null,
    "office_name_kana": null
  },
  "0057": {
    "zip_code": "9260057",
    "prefecture": "石川県",
    "prefecture_kana": "イシカワケン",
    "prefecture_code": "17",
    "city": "七尾市",
    "city_kana": "ナナオシ",
    "town": "鍛冶町",
    "town_kana": "カジマチ",
    "street": null,
    "office_name": null,
    "office_name_kana": null
  },
  "0058": {
    "zip_code": "9260058",
    "prefecture": "石川県",
    "prefecture_kana": "イシカワケン",
    "prefecture_code": "17",
    "city": "七尾市",
    "city_kana": "ナナオシ",
    "town": "湊町",
    "town_kana": "ミナトチョウ",
    "street": null,
    "office_name": null,
    "office_name_kana": null
  },
  "0171": {
    "zip_code": "9260171",
    "prefecture": "石川県",
    "prefecture_kana": "イシカワケン",
    "prefecture_code": "17",
    "city": "七尾市",
    "city_kana": "ナナオシ",
    "town": "石崎町",
    "town_kana": "イシザキマチ",
    "street": null,
    "office_name": null,
    "office_name_kana": null
  },
  "0172": [
    {
      "zip_code": "9260172",
      "prefecture": "石川県",
      "prefecture_kana": "イシカワケン",
      "prefecture_code": "17",
      "city": "七尾市",
      "city_kana": "ナナオシ",
      "town": "石崎町",
      "town_kana": "イシザキマチ",
      "street": null,
      "office_name": null,
      "office_name_kana": null
    },
    {
      "zip_code": "9260172",
      "prefecture": "石川県",
      "prefecture_kana": "イシカワケン",
      "prefecture_code": "17",
      "city": "七尾市",
      "city_kana": "ナナオシ",
      "town": "石崎町東",
      "town_kana": "イシザキマチヒガシ",
      "street": null,
      "office_name": null,
      "office_name_kana": null
    }
  ],
  "0173": [
    {
      "zip_code": "9260173",
      "prefecture": "石川県",
      "prefecture_kana": "イシカワケン",
      "prefecture_code": "17",
      "city": "七尾市",
      "city_kana": "ナナオシ",
      "town": "石崎町",
      "town_kana": "イシザキマチ",
      "street": null,
      "office_name": null,
      "office_name_kana": null
    },
    {
      "zip_code": "9260173",
      "prefecture": "石川県",
      "prefecture_kana": "イシカワケン",
      "prefecture_code": "17",
      "city": "七尾市",
      "city_kana": "ナナオシ",
      "town": "石崎町西",
      "town_kana": "イシザキマチニシ",
      "street": null,
      "office_name": null,
      "office_name_kana": null
    }
  ],
  "0174": {
    "zip_code": "9260174",
    "prefecture": "石川県",
    "prefecture_kana": "イシカワケン",
    "prefecture_code": "17",
    "city": "七尾市",
    "city_kana": "ナナオシ",
    "town": "奥原町",
    "town_kana": "オクハラマチ",
    "street": null,
    "office_name": null,
    "office_name_kana": null
  },
  "0175": {
    "zip_code": "9260175",
    "prefecture": "石川県",
    "prefecture_kana": "イシカワケン",
    "prefecture_code": "17",
    "city": "七尾市",
    "city_kana": "ナナオシ",
    "town": "和倉町",
    "town_kana": "ワクラマチ",
    "street": null,
    "office_name": null,
    "office_name_kana": null
  },
  "0176": {
    "zip_code": "9260176",
    "prefecture": "石川県",
    "prefecture_kana": "イシカワケン",
    "prefecture_code": "17",
    "city": "七尾市",
    "city_kana": "ナナオシ",
    "town": "和倉町ひばり",
    "town_kana": "ワクラマチヒバリ",
    "street": null,
    "office_name": null,
    "office_name_kana": null
  },
  "0177": {
    "zip_code": "9260177",
    "prefecture": "石川県",
    "prefecture_kana": "イシカワケン",
    "prefecture_code": "17",
    "city": "七尾市",
    "city_kana": "ナナオシ",
    "town": "光陽台",
    "town_kana": "コウヨウダイ",
    "street": null,
    "office_name": null,
    "office_name_kana": null
  },
  "0178": [
    {
      "zip_code": "9260178",
      "prefecture": "石川県",
      "prefecture_kana": "イシカワケン",
      "prefecture_code": "17",
      "city": "七尾市",
      "city_kana": "ナナオシ",
      "town": "石崎町",
      "town_kana": "イシザキマチ",
      "street": null,
      "office_name": null,
      "office_name_kana": null
    },
    {
      "zip_code": "9260178",
      "prefecture": "石川県",
      "prefecture_kana": "イシカワケン",
      "prefecture_code": "17",
      "city": "七尾市",
      "city_kana": "ナナオシ",
      "town": "石崎町香島",
      "town_kana": "イシザキマチカシマ",
      "street": null,
      "office_name": null,
      "office_name_kana": null
    }
  ],
  "0179": {
    "zip_code": "9260179",
    "prefecture": "石川県",
    "prefecture_kana": "イシカワケン",
    "prefecture_code": "17",
    "city": "七尾市",
    "city_kana": "ナナオシ",
    "town": "泉南台",
    "town_kana": "センナンダイ",
    "street": null,
    "office_name": null,
    "office_name_kana": null
  },
  "0192": {
    "zip_code": "9260192",
    "prefecture": "石川県",
    "prefecture_kana": "イシカワケン",
    "prefecture_code": "17",
    "city": "七尾市",
    "city_kana": "ナナオシ",
    "town": "和倉町",
    "town_kana": "ワクラマチ",
    "street": "ヨ部８０",
    "office_name": "株式会社　加賀屋",
    "office_name_kana": "カブシキガイシヤ カガヤ"
  },
  "0201": {
    "zip_code": "9260201",
    "prefecture": "石川県",
    "prefecture_kana": "イシカワケン",
    "prefecture_code": "17",
    "city": "七尾市",
    "city_kana": "ナナオシ",
    "town": "能登島祖母ケ浦町",
    "town_kana": "ノトジマバガウラマチ",
    "street": null,
    "office_name": null,
    "office_name_kana": null
  },
  "0202": {
    "zip_code": "9260202",
    "prefecture": "石川県",
    "prefecture_kana": "イシカワケン",
    "prefecture_code": "17",
    "city": "七尾市",
    "city_kana": "ナナオシ",
    "town": "能登島八ケ崎町",
    "town_kana": "ノトジマハチガサキマチ",
    "street": null,
    "office_name": null,
    "office_name_kana": null
  },
  "0203": {
    "zip_code": "9260203",
    "prefecture": "石川県",
    "prefecture_kana": "イシカワケン",
    "prefecture_code": "17",
    "city": "七尾市",
    "city_kana": "ナナオシ",
    "town": "能登島えの目町",
    "town_kana": "ノトジマエノメマチ",
    "street": null,
    "office_name": null,
    "office_name_kana": null
  },
  "0204": {
    "zip_code": "9260204",
    "prefecture": "石川県",
    "prefecture_kana": "イシカワケン",
    "prefecture_code": "17",
    "city": "七尾市",
    "city_kana": "ナナオシ",
    "town": "能登島長崎町",
    "town_kana": "ノトジマナガサキマチ",
    "street": null,
    "office_name": null,
    "office_name_kana": null
  },
  "0205": {
    "zip_code": "9260205",
    "prefecture": "石川県",
    "prefecture_kana": "イシカワケン",
    "prefecture_code": "17",
    "city": "七尾市",
    "city_kana": "ナナオシ",
    "town": "能登島野崎町",
    "town_kana": "ノトジマノザキマチ",
    "street": null,
    "office_name": null,
    "office_name_kana": null
  },
  "0206": {
    "zip_code": "9260206",
    "prefecture": "石川県",
    "prefecture_kana": "イシカワケン",
    "prefecture_code": "17",
    "city": "七尾市",
    "city_kana": "ナナオシ",
    "town": "能登島日出ケ島町",
    "town_kana": "ノトジマヒデガシママチ",
    "street": null,
    "office_name": null,
    "office_name_kana": null
  },
  "0207": {
    "zip_code": "9260207",
    "prefecture": "石川県",
    "prefecture_kana": "イシカワケン",
    "prefecture_code": "17",
    "city": "七尾市",
    "city_kana": "ナナオシ",
    "town": "能登島二穴町",
    "town_kana": "ノトジマフタアナマチ",
    "street": null,
    "office_name": null,
    "office_name_kana": null
  },
  "0211": {
    "zip_code": "9260211",
    "prefecture": "石川県",
    "prefecture_kana": "イシカワケン",
    "prefecture_code": "17",
    "city": "七尾市",
    "city_kana": "ナナオシ",
    "town": "能登島向田町",
    "town_kana": "ノトジマコウダマチ",
    "street": null,
    "office_name": null,
    "office_name_kana": null
  },
  "0212": {
    "zip_code": "9260212",
    "prefecture": "石川県",
    "prefecture_kana": "イシカワケン",
    "prefecture_code": "17",
    "city": "七尾市",
    "city_kana": "ナナオシ",
    "town": "能登島佐波町",
    "town_kana": "ノトジマサナミマチ",
    "street": null,
    "office_name": null,
    "office_name_kana": null
  },
  "0213": {
    "zip_code": "9260213",
    "prefecture": "石川県",
    "prefecture_kana": "イシカワケン",
    "prefecture_code": "17",
    "city": "七尾市",
    "city_kana": "ナナオシ",
    "town": "能登島須曽町",
    "town_kana": "ノトジマスソマチ",
    "street": null,
    "office_name": null,
    "office_name_kana": null
  },
  "0214": {
    "zip_code": "9260214",
    "prefecture": "石川県",
    "prefecture_kana": "イシカワケン",
    "prefecture_code": "17",
    "city": "七尾市",
    "city_kana": "ナナオシ",
    "town": "能登島別所町",
    "town_kana": "ノトジマベッショマチ",
    "street": null,
    "office_name": null,
    "office_name_kana": null
  },
  "0215": {
    "zip_code": "9260215",
    "prefecture": "石川県",
    "prefecture_kana": "イシカワケン",
    "prefecture_code": "17",
    "city": "七尾市",
    "city_kana": "ナナオシ",
    "town": "能登島南町",
    "town_kana": "ノトジマミナミマチ",
    "street": null,
    "office_name": null,
    "office_name_kana": null
  },
  "0216": {
    "zip_code": "9260216",
    "prefecture": "石川県",
    "prefecture_kana": "イシカワケン",
    "prefecture_code": "17",
    "city": "七尾市",
    "city_kana": "ナナオシ",
    "town": "能登島曲町",
    "town_kana": "ノトジママガリマチ",
    "street": null,
    "office_name": null,
    "office_name_kana": null
  },
  "0221": {
    "zip_code": "9260221",
    "prefecture": "石川県",
    "prefecture_kana": "イシカワケン",
    "prefecture_code": "17",
    "city": "七尾市",
    "city_kana": "ナナオシ",
    "town": "能登島無関町",
    "town_kana": "ノトジマムセキマチ",
    "street": null,
    "office_name": null,
    "office_name_kana": null
  },
  "0222": {
    "zip_code": "9260222",
    "prefecture": "石川県",
    "prefecture_kana": "イシカワケン",
    "prefecture_code": "17",
    "city": "七尾市",
    "city_kana": "ナナオシ",
    "town": "能登島閨町",
    "town_kana": "ノトジマネヤマチ",
    "street": null,
    "office_name": null,
    "office_name_kana": null
  },
  "0223": {
    "zip_code": "9260223",
    "prefecture": "石川県",
    "prefecture_kana": "イシカワケン",
    "prefecture_code": "17",
    "city": "七尾市",
    "city_kana": "ナナオシ",
    "town": "能登島半浦町",
    "town_kana": "ノトジマハンノウラマチ",
    "street": null,
    "office_name": null,
    "office_name_kana": null
  },
  "0224": {
    "zip_code": "9260224",
    "prefecture": "石川県",
    "prefecture_kana": "イシカワケン",
    "prefecture_code": "17",
    "city": "七尾市",
    "city_kana": "ナナオシ",
    "town": "能登島百万石町",
    "town_kana": "ノトジマヒャクマンゴクマチ",
    "street": null,
    "office_name": null,
    "office_name_kana": null
  },
  "0225": {
    "zip_code": "9260225",
    "prefecture": "石川県",
    "prefecture_kana": "イシカワケン",
    "prefecture_code": "17",
    "city": "七尾市",
    "city_kana": "ナナオシ",
    "town": "能登島通町",
    "town_kana": "ノトジマトオリマチ",
    "street": null,
    "office_name": null,
    "office_name_kana": null
  },
  "0226": {
    "zip_code": "9260226",
    "prefecture": "石川県",
    "prefecture_kana": "イシカワケン",
    "prefecture_code": "17",
    "city": "七尾市",
    "city_kana": "ナナオシ",
    "town": "能登島田尻町",
    "town_kana": "ノトジマタジリマチ",
    "street": null,
    "office_name": null,
    "office_name_kana": null
  },
  "0227": {
    "zip_code": "9260227",
    "prefecture": "石川県",
    "prefecture_kana": "イシカワケン",
    "prefecture_code": "17",
    "city": "七尾市",
    "city_kana": "ナナオシ",
    "town": "能登島久木町",
    "town_kana": "ノトジマクキマチ",
    "street": null,
    "office_name": null,
    "office_name_kana": null
  },
  "0292": {
    "zip_code": "9260292",
    "prefecture": "石川県",
    "prefecture_kana": "イシカワケン",
    "prefecture_code": "17",
    "city": "七尾市",
    "city_kana": "ナナオシ",
    "town": "能登島向田町",
    "town_kana": "ノトジマコウダマチ",
    "street": "ろ部１",
    "office_name": "七尾市役所　能登島支所",
    "office_name_kana": "ナナオシヤクシヨ ノトジマシシヨ"
  },
  "0293": {
    "zip_code": "9260293",
    "prefecture": "石川県",
    "prefecture_kana": "イシカワケン",
    "prefecture_code": "17",
    "city": "七尾市",
    "city_kana": "ナナオシ",
    "town": "能登島半浦町",
    "town_kana": "ノトジマハンノウラマチ",
    "street": "７−１",
    "office_name": "能登島リゾート開発　株式会社",
    "office_name_kana": "ノトジマリゾ-トカイハツ カブシキガイシヤ"
  },
  "0361": [
    {
      "zip_code": "9260361",
      "prefecture": "石川県",
      "prefecture_kana": "イシカワケン",
      "prefecture_code": "17",
      "city": "七尾市",
      "city_kana": "ナナオシ",
      "town": "江泊町",
      "town_kana": "エノトマリマチ",
      "street": null,
      "office_name": null,
      "office_name_kana": null
    },
    {
      "zip_code": "9260361",
      "prefecture": "石川県",
      "prefecture_kana": "イシカワケン",
      "prefecture_code": "17",
      "city": "七尾市",
      "city_kana": "ナナオシ",
      "town": "江泊町日室町",
      "town_kana": "エノトマリマチヒムロマチ",
      "street": null,
      "office_name": null,
      "office_name_kana": null
    }
  ],
  "0362": {
    "zip_code": "9260362",
    "prefecture": "石川県",
    "prefecture_kana": "イシカワケン",
    "prefecture_code": "17",
    "city": "七尾市",
    "city_kana": "ナナオシ",
    "town": "大野木町",
    "town_kana": "オオノギマチ",
    "street": null,
    "office_name": null,
    "office_name_kana": null
  },
  "0363": {
    "zip_code": "9260363",
    "prefecture": "石川県",
    "prefecture_kana": "イシカワケン",
    "prefecture_code": "17",
    "city": "七尾市",
    "city_kana": "ナナオシ",
    "town": "江泊町",
    "town_kana": "エノトマリマチ",
    "street": null,
    "office_name": null,
    "office_name_kana": null
  },
  "0364": [
    {
      "zip_code": "9260364",
      "prefecture": "石川県",
      "prefecture_kana": "イシカワケン",
      "prefecture_code": "17",
      "city": "七尾市",
      "city_kana": "ナナオシ",
      "town": "庵町",
      "town_kana": "イオリマチ",
      "street": null,
      "office_name": null,
      "office_name_kana": null
    },
    {
      "zip_code": "9260364",
      "prefecture": "石川県",
      "prefecture_kana": "イシカワケン",
      "prefecture_code": "17",
      "city": "七尾市",
      "city_kana": "ナナオシ",
      "town": "庵町白鳥町",
      "town_kana": "イオリマチシラトリマチ",
      "street": null,
      "office_name": null,
      "office_name_kana": null
    },
    {
      "zip_code": "9260364",
      "prefecture": "石川県",
      "prefecture_kana": "イシカワケン",
      "prefecture_code": "17",
      "city": "七尾市",
      "city_kana": "ナナオシ",
      "town": "江泊町",
      "town_kana": "エノトマリマチ",
      "street": null,
      "office_name": null,
      "office_name_kana": null
    },
    {
      "zip_code": "9260364",
      "prefecture": "石川県",
      "prefecture_kana": "イシカワケン",
      "prefecture_code": "17",
      "city": "七尾市",
      "city_kana": "ナナオシ",
      "town": "江泊町白鳥町",
      "town_kana": "エノトマリマチシラトマリマチ",
      "street": null,
      "office_name": null,
      "office_name_kana": null
    }
  ],
  "0365": [
    {
      "zip_code": "9260365",
      "prefecture": "石川県",
      "prefecture_kana": "イシカワケン",
      "prefecture_code": "17",
      "city": "七尾市",
      "city_kana": "ナナオシ",
      "town": "庵町",
      "town_kana": "イオリマチ",
      "street": null,
      "office_name": null,
      "office_name_kana": null
    },
    {
      "zip_code": "9260365",
      "prefecture": "石川県",
      "prefecture_kana": "イシカワケン",
      "prefecture_code": "17",
      "city": "七尾市",
      "city_kana": "ナナオシ",
      "town": "庵町百海町",
      "town_kana": "イオリマチドウミマチ",
      "street": null,
      "office_name": null,
      "office_name_kana": null
    }
  ],
  "0366": {
    "zip_code": "9260366",
    "prefecture": "石川県",
    "prefecture_kana": "イシカワケン",
    "prefecture_code": "17",
    "city": "七尾市",
    "city_kana": "ナナオシ",
    "town": "庵町",
    "town_kana": "イオリマチ",
    "street": null,
    "office_name": null,
    "office_name_kana": null
  },
  "0367": [
    {
      "zip_code": "9260367",
      "prefecture": "石川県",
      "prefecture_kana": "イシカワケン",
      "prefecture_code": "17",
      "city": "七尾市",
      "city_kana": "ナナオシ",
      "town": "庵町",
      "town_kana": "イオリマチ",
      "street": null,
      "office_name": null,
      "office_name_kana": null
    },
    {
      "zip_code": "9260367",
      "prefecture": "石川県",
      "prefecture_kana": "イシカワケン",
      "prefecture_code": "17",
      "city": "七尾市",
      "city_kana": "ナナオシ",
      "town": "庵町虫崎町",
      "town_kana": "イオリマチムシサキマチ",
      "street": null,
      "office_name": null,
      "office_name_kana": null
    }
  ],
  "0371": {
    "zip_code": "9260371",
    "prefecture": "石川県",
    "prefecture_kana": "イシカワケン",
    "prefecture_code": "17",
    "city": "七尾市",
    "city_kana": "ナナオシ",
    "town": "佐々波町",
    "town_kana": "サザナミマチ",
    "street": null,
    "office_name": null,
    "office_name_kana": null
  },
  "0372": {
    "zip_code": "9260372",
    "prefecture": "石川県",
    "prefecture_kana": "イシカワケン",
    "prefecture_code": "17",
    "city": "七尾市",
    "city_kana": "ナナオシ",
    "town": "麻生町",
    "town_kana": "アソウマチ",
    "street": null,
    "office_name": null,
    "office_name_kana": null
  },
  "0373": {
    "zip_code": "9260373",
    "prefecture": "石川県",
    "prefecture_kana": "イシカワケン",
    "prefecture_code": "17",
    "city": "七尾市",
    "city_kana": "ナナオシ",
    "town": "小栗町",
    "town_kana": "オグリマチ",
    "street": null,
    "office_name": null,
    "office_name_kana": null
  },
  "0374": {
    "zip_code": "9260374",
    "prefecture": "石川県",
    "prefecture_kana": "イシカワケン",
    "prefecture_code": "17",
    "city": "七尾市",
    "city_kana": "ナナオシ",
    "town": "清水平町",
    "town_kana": "シミズダイラマチ",
    "street": null,
    "office_name": null,
    "office_name_kana": null
  },
  "0375": {
    "zip_code": "9260375",
    "prefecture": "石川県",
    "prefecture_kana": "イシカワケン",
    "prefecture_code": "17",
    "city": "七尾市",
    "city_kana": "ナナオシ",
    "town": "柑子町",
    "town_kana": "コウジマチ",
    "street": null,
    "office_name": null,
    "office_name_kana": null
  },
  "0376": {
    "zip_code": "9260376",
    "prefecture": "石川県",
    "prefecture_kana": "イシカワケン",
    "prefecture_code": "17",
    "city": "七尾市",
    "city_kana": "ナナオシ",
    "town": "外林町",
    "town_kana": "ソトバヤシマチ",
    "street": null,
    "office_name": null,
    "office_name_kana": null
  },
  "0381": {
    "zip_code": "9260381",
    "prefecture": "石川県",
    "prefecture_kana": "イシカワケン",
    "prefecture_code": "17",
    "city": "七尾市",
    "city_kana": "ナナオシ",
    "town": "黒崎町",
    "town_kana": "クロサキマチ",
    "street": null,
    "office_name": null,
    "office_name_kana": null
  },
  "0382": {
    "zip_code": "9260382",
    "prefecture": "石川県",
    "prefecture_kana": "イシカワケン",
    "prefecture_code": "17",
    "city": "七尾市",
    "city_kana": "ナナオシ",
    "town": "花園町",
    "town_kana": "ハナゾノマチ",
    "street": null,
    "office_name": null,
    "office_name_kana": null
  },
  "0383": {
    "zip_code": "9260383",
    "prefecture": "石川県",
    "prefecture_kana": "イシカワケン",
    "prefecture_code": "17",
    "city": "七尾市",
    "city_kana": "ナナオシ",
    "town": "東浜町",
    "town_kana": "トウノハママチ",
    "street": null,
    "office_name": null,
    "office_name_kana": null
  },
  "0384": {
    "zip_code": "9260384",
    "prefecture": "石川県",
    "prefecture_kana": "イシカワケン",
    "prefecture_code": "17",
    "city": "七尾市",
    "city_kana": "ナナオシ",
    "town": "大泊町",
    "town_kana": "オオトマリマチ",
    "street": null,
    "office_name": null,
    "office_name_kana": null
  },
  "0385": {
    "zip_code": "9260385",
    "prefecture": "石川県",
    "prefecture_kana": "イシカワケン",
    "prefecture_code": "17",
    "city": "七尾市",
    "city_kana": "ナナオシ",
    "town": "山崎町",
    "town_kana": "ヤマザキマチ",
    "street": null,
    "office_name": null,
    "office_name_kana": null
  },
  "0386": [
    {
      "zip_code": "9260386",
      "prefecture": "石川県",
      "prefecture_kana": "イシカワケン",
      "prefecture_code": "17",
      "city": "七尾市",
      "city_kana": "ナナオシ",
      "town": "山崎町",
      "town_kana": "ヤマザキマチ",
      "street": null,
      "office_name": null,
      "office_name_kana": null
    },
    {
      "zip_code": "9260386",
      "prefecture": "石川県",
      "prefecture_kana": "イシカワケン",
      "prefecture_code": "17",
      "city": "七尾市",
      "city_kana": "ナナオシ",
      "town": "山崎町小川内町",
      "town_kana": "ヤマザキマチコウチマチ",
      "street": null,
      "office_name": null,
      "office_name_kana": null
    }
  ],
  "0387": {
    "zip_code": "9260387",
    "prefecture": "石川県",
    "prefecture_kana": "イシカワケン",
    "prefecture_code": "17",
    "city": "七尾市",
    "city_kana": "ナナオシ",
    "town": "熊淵町",
    "town_kana": "クマブチマチ",
    "street": null,
    "office_name": null,
    "office_name_kana": null
  },
  "0388": [
    {
      "zip_code": "9260388",
      "prefecture": "石川県",
      "prefecture_kana": "イシカワケン",
      "prefecture_code": "17",
      "city": "七尾市",
      "city_kana": "ナナオシ",
      "town": "熊淵町",
      "town_kana": "クマブチマチ",
      "street": null,
      "office_name": null,
      "office_name_kana": null
    },
    {
      "zip_code": "9260388",
      "prefecture": "石川県",
      "prefecture_kana": "イシカワケン",
      "prefecture_code": "17",
      "city": "七尾市",
      "city_kana": "ナナオシ",
      "town": "熊淵町水上町",
      "town_kana": "クマブチマチミズカミマチ",
      "street": null,
      "office_name": null,
      "office_name_kana": null
    }
  ],
  "0389": [
    {
      "zip_code": "9260389",
      "prefecture": "石川県",
      "prefecture_kana": "イシカワケン",
      "prefecture_code": "17",
      "city": "七尾市",
      "city_kana": "ナナオシ",
      "town": "熊淵町",
      "town_kana": "クマブチマチ",
      "street": null,
      "office_name": null,
      "office_name_kana": null
    },
    {
      "zip_code": "9260389",
      "prefecture": "石川県",
      "prefecture_kana": "イシカワケン",
      "prefecture_code": "17",
      "city": "七尾市",
      "city_kana": "ナナオシ",
      "town": "熊淵町滝の尻町",
      "town_kana": "クマブチマチタキノシリマチ",
      "street": null,
      "office_name": null,
      "office_name_kana": null
    }
  ],
  "0801": {
    "zip_code": "9260801",
    "prefecture": "石川県",
    "prefecture_kana": "イシカワケン",
    "prefecture_code": "17",
    "city": "七尾市",
    "city_kana": "ナナオシ",
    "town": "昭和町",
    "town_kana": "ショウワマチ",
    "street": null,
    "office_name": null,
    "office_name_kana": null
  },
  "0802": {
    "zip_code": "9260802",
    "prefecture": "石川県",
    "prefecture_kana": "イシカワケン",
    "prefecture_code": "17",
    "city": "七尾市",
    "city_kana": "ナナオシ",
    "town": "三島町",
    "town_kana": "ミシマチョウ",
    "street": null,
    "office_name": null,
    "office_name_kana": null
  },
  "0803": {
    "zip_code": "9260803",
    "prefecture": "石川県",
    "prefecture_kana": "イシカワケン",
    "prefecture_code": "17",
    "city": "七尾市",
    "city_kana": "ナナオシ",
    "town": "米町",
    "town_kana": "コメマチ",
    "street": null,
    "office_name": null,
    "office_name_kana": null
  },
  "0804": {
    "zip_code": "9260804",
    "prefecture": "石川県",
    "prefecture_kana": "イシカワケン",
    "prefecture_code": "17",
    "city": "七尾市",
    "city_kana": "ナナオシ",
    "town": "生駒町",
    "town_kana": "イコマチョウ",
    "street": null,
    "office_name": null,
    "office_name_kana": null
  },
  "0805": {
    "zip_code": "9260805",
    "prefecture": "石川県",
    "prefecture_kana": "イシカワケン",
    "prefecture_code": "17",
    "city": "七尾市",
    "city_kana": "ナナオシ",
    "town": "亀山町",
    "town_kana": "カメヤマチョウ",
    "street": null,
    "office_name": null,
    "office_name_kana": null
  },
  "0806": {
    "zip_code": "9260806",
    "prefecture": "石川県",
    "prefecture_kana": "イシカワケン",
    "prefecture_code": "17",
    "city": "七尾市",
    "city_kana": "ナナオシ",
    "town": "一本杉町",
    "town_kana": "イッポンスギマチ",
    "street": null,
    "office_name": null,
    "office_name_kana": null
  },
  "0807": {
    "zip_code": "9260807",
    "prefecture": "石川県",
    "prefecture_kana": "イシカワケン",
    "prefecture_code": "17",
    "city": "七尾市",
    "city_kana": "ナナオシ",
    "town": "阿良町",
    "town_kana": "アラマチ",
    "street": null,
    "office_name": null,
    "office_name_kana": null
  },
  "0808": {
    "zip_code": "9260808",
    "prefecture": "石川県",
    "prefecture_kana": "イシカワケン",
    "prefecture_code": "17",
    "city": "七尾市",
    "city_kana": "ナナオシ",
    "town": "木町",
    "town_kana": "キマチ",
    "street": null,
    "office_name": null,
    "office_name_kana": null
  },
  "0811": {
    "zip_code": "9260811",
    "prefecture": "石川県",
    "prefecture_kana": "イシカワケン",
    "prefecture_code": "17",
    "city": "七尾市",
    "city_kana": "ナナオシ",
    "town": "御祓町",
    "town_kana": "ミソギチョウ",
    "street": null,
    "office_name": null,
    "office_name_kana": null
  },
  "0812": {
    "zip_code": "9260812",
    "prefecture": "石川県",
    "prefecture_kana": "イシカワケン",
    "prefecture_code": "17",
    "city": "七尾市",
    "city_kana": "ナナオシ",
    "town": "北藤橋町",
    "town_kana": "キタフジハシマチ",
    "street": null,
    "office_name": null,
    "office_name_kana": null
  },
  "0813": {
    "zip_code": "9260813",
    "prefecture": "石川県",
    "prefecture_kana": "イシカワケン",
    "prefecture_code": "17",
    "city": "七尾市",
    "city_kana": "ナナオシ",
    "town": "南藤橋町",
    "town_kana": "ミナミフジハシマチ",
    "street": null,
    "office_name": null,
    "office_name_kana": null
  },
  "0814": {
    "zip_code": "9260814",
    "prefecture": "石川県",
    "prefecture_kana": "イシカワケン",
    "prefecture_code": "17",
    "city": "七尾市",
    "city_kana": "ナナオシ",
    "town": "所口町",
    "town_kana": "トコログチマチ",
    "street": null,
    "office_name": null,
    "office_name_kana": null
  },
  "0815": {
    "zip_code": "9260815",
    "prefecture": "石川県",
    "prefecture_kana": "イシカワケン",
    "prefecture_code": "17",
    "city": "七尾市",
    "city_kana": "ナナオシ",
    "town": "栄町",
    "town_kana": "サカエマチ",
    "street": null,
    "office_name": null,
    "office_name_kana": null
  },
  "0816": [
    {
      "zip_code": "9260816",
      "prefecture": "石川県",
      "prefecture_kana": "イシカワケン",
      "prefecture_code": "17",
      "city": "七尾市",
      "city_kana": "ナナオシ",
      "town": "岩屋町",
      "town_kana": "イワヤマチ",
      "street": null,
      "office_name": null,
      "office_name_kana": null
    },
    {
      "zip_code": "9260816",
      "prefecture": "石川県",
      "prefecture_kana": "イシカワケン",
      "prefecture_code": "17",
      "city": "七尾市",
      "city_kana": "ナナオシ",
      "town": "藤橋町",
      "town_kana": "フジハシマチ",
      "street": null,
      "office_name": null,
      "office_name_kana": null
    }
  ],
  "0817": {
    "zip_code": "9260817",
    "prefecture": "石川県",
    "prefecture_kana": "イシカワケン",
    "prefecture_code": "17",
    "city": "七尾市",
    "city_kana": "ナナオシ",
    "town": "西藤橋町",
    "town_kana": "ニシフジハシマチ",
    "street": null,
    "office_name": null,
    "office_name_kana": null
  },
  "0818": {
    "zip_code": "9260818",
    "prefecture": "石川県",
    "prefecture_kana": "イシカワケン",
    "prefecture_code": "17",
    "city": "七尾市",
    "city_kana": "ナナオシ",
    "town": "馬出町",
    "town_kana": "マダシマチ",
    "street": null,
    "office_name": null,
    "office_name_kana": null
  },
  "0821": {
    "zip_code": "9260821",
    "prefecture": "石川県",
    "prefecture_kana": "イシカワケン",
    "prefecture_code": "17",
    "city": "七尾市",
    "city_kana": "ナナオシ",
    "town": "国分町",
    "town_kana": "コクブマチ",
    "street": null,
    "office_name": null,
    "office_name_kana": null
  },
  "0822": {
    "zip_code": "9260822",
    "prefecture": "石川県",
    "prefecture_kana": "イシカワケン",
    "prefecture_code": "17",
    "city": "七尾市",
    "city_kana": "ナナオシ",
    "town": "細口町",
    "town_kana": "ホソグチマチ",
    "street": null,
    "office_name": null,
    "office_name_kana": null
  },
  "0823": {
    "zip_code": "9260823",
    "prefecture": "石川県",
    "prefecture_kana": "イシカワケン",
    "prefecture_code": "17",
    "city": "七尾市",
    "city_kana": "ナナオシ",
    "town": "青葉台町",
    "town_kana": "アオバダイマチ",
    "street": null,
    "office_name": null,
    "office_name_kana": null
  },
  "0824": [
    {
      "zip_code": "9260824",
      "prefecture": "石川県",
      "prefecture_kana": "イシカワケン",
      "prefecture_code": "17",
      "city": "七尾市",
      "city_kana": "ナナオシ",
      "town": "下町",
      "town_kana": "シモマチ",
      "street": null,
      "office_name": null,
      "office_name_kana": null
    },
    {
      "zip_code": "9260824",
      "prefecture": "石川県",
      "prefecture_kana": "イシカワケン",
      "prefecture_code": "17",
      "city": "七尾市",
      "city_kana": "ナナオシ",
      "town": "徳田町",
      "town_kana": "トクダマチ",
      "street": null,
      "office_name": null,
      "office_name_kana": null
    }
  ],
  "0825": {
    "zip_code": "9260825",
    "prefecture": "石川県",
    "prefecture_kana": "イシカワケン",
    "prefecture_code": "17",
    "city": "七尾市",
    "city_kana": "ナナオシ",
    "town": "江曽町",
    "town_kana": "エソマチ",
    "street": null,
    "office_name": null,
    "office_name_kana": null
  },
  "0826": {
    "zip_code": "9260826",
    "prefecture": "石川県",
    "prefecture_kana": "イシカワケン",
    "prefecture_code": "17",
    "city": "七尾市",
    "city_kana": "ナナオシ",
    "town": "飯川町",
    "town_kana": "イガワマチ",
    "street": null,
    "office_name": null,
    "office_name_kana": null
  },
  "0827": {
    "zip_code": "9260827",
    "prefecture": "石川県",
    "prefecture_kana": "イシカワケン",
    "prefecture_code": "17",
    "city": "七尾市",
    "city_kana": "ナナオシ",
    "town": "若林町",
    "town_kana": "ワカバヤシマチ",
    "street": null,
    "office_name": null,
    "office_name_kana": null
  },
  "0828": {
    "zip_code": "9260828",
    "prefecture": "石川県",
    "prefecture_kana": "イシカワケン",
    "prefecture_code": "17",
    "city": "七尾市",
    "city_kana": "ナナオシ",
    "town": "白馬町",
    "town_kana": "シロウママチ",
    "street": null,
    "office_name": null,
    "office_name_kana": null
  },
  "0829": {
    "zip_code": "9260829",
    "prefecture": "石川県",
    "prefecture_kana": "イシカワケン",
    "prefecture_code": "17",
    "city": "七尾市",
    "city_kana": "ナナオシ",
    "town": "徳田新町",
    "town_kana": "トクダシンマチ",
    "street": null,
    "office_name": null,
    "office_name_kana": null
  },
  "0831": [
    {
      "zip_code": "9260831",
      "prefecture": "石川県",
      "prefecture_kana": "イシカワケン",
      "prefecture_code": "17",
      "city": "七尾市",
      "city_kana": "ナナオシ",
      "town": "青山町",
      "town_kana": "アオヤママチ",
      "street": null,
      "office_name": null,
      "office_name_kana": null
    },
    {
      "zip_code": "9260831",
      "prefecture": "石川県",
      "prefecture_kana": "イシカワケン",
      "prefecture_code": "17",
      "city": "七尾市",
      "city_kana": "ナナオシ",
      "town": "池崎町",
      "town_kana": "イケザキマチ",
      "street": null,
      "office_name": null,
      "office_name_kana": null
    }
  ],
  "0832": {
    "zip_code": "9260832",
    "prefecture": "石川県",
    "prefecture_kana": "イシカワケン",
    "prefecture_code": "17",
    "city": "七尾市",
    "city_kana": "ナナオシ",
    "town": "盤若野町",
    "town_kana": "ハンニャノマチ",
    "street": null,
    "office_name": null,
    "office_name_kana": null
  },
  "0833": {
    "zip_code": "9260833",
    "prefecture": "石川県",
    "prefecture_kana": "イシカワケン",
    "prefecture_code": "17",
    "city": "七尾市",
    "city_kana": "ナナオシ",
    "town": "旭町",
    "town_kana": "アサヒマチ",
    "street": null,
    "office_name": null,
    "office_name_kana": null
  },
  "0834": {
    "zip_code": "9260834",
    "prefecture": "石川県",
    "prefecture_kana": "イシカワケン",
    "prefecture_code": "17",
    "city": "七尾市",
    "city_kana": "ナナオシ",
    "town": "東三階町",
    "town_kana": "ヒガシミカイマチ",
    "street": null,
    "office_name": null,
    "office_name_kana": null
  },
  "0835": {
    "zip_code": "9260835",
    "prefecture": "石川県",
    "prefecture_kana": "イシカワケン",
    "prefecture_code": "17",
    "city": "七尾市",
    "city_kana": "ナナオシ",
    "town": "西三階町",
    "town_kana": "ニシミカイマチ",
    "street": null,
    "office_name": null,
    "office_name_kana": null
  },
  "0836": {
    "zip_code": "9260836",
    "prefecture": "石川県",
    "prefecture_kana": "イシカワケン",
    "prefecture_code": "17",
    "city": "七尾市",
    "city_kana": "ナナオシ",
    "town": "町屋町",
    "town_kana": "マチヤマチ",
    "street": null,
    "office_name": null,
    "office_name_kana": null
  },
  "0837": {
    "zip_code": "9260837",
    "prefecture": "石川県",
    "prefecture_kana": "イシカワケン",
    "prefecture_code": "17",
    "city": "七尾市",
    "city_kana": "ナナオシ",
    "town": "温井町",
    "town_kana": "ヌクイマチ",
    "street": null,
    "office_name": null,
    "office_name_kana": null
  },
  "0838": {
    "zip_code": "9260838",
    "prefecture": "石川県",
    "prefecture_kana": "イシカワケン",
    "prefecture_code": "17",
    "city": "七尾市",
    "city_kana": "ナナオシ",
    "town": "満仁町",
    "town_kana": "マニマチ",
    "street": null,
    "office_name": null,
    "office_name_kana": null
  },
  "0841": {
    "zip_code": "9260841",
    "prefecture": "石川県",
    "prefecture_kana": "イシカワケン",
    "prefecture_code": "17",
    "city": "七尾市",
    "city_kana": "ナナオシ",
    "town": "松百町",
    "town_kana": "マットウマチ",
    "street": null,
    "office_name": null,
    "office_name_kana": null
  },
  "0842": {
    "zip_code": "9260842",
    "prefecture": "石川県",
    "prefecture_kana": "イシカワケン",
    "prefecture_code": "17",
    "city": "七尾市",
    "city_kana": "ナナオシ",
    "town": "松百新町",
    "town_kana": "マットウシンマチ",
    "street": null,
    "office_name": null,
    "office_name_kana": null
  },
  "0843": {
    "zip_code": "9260843",
    "prefecture": "石川県",
    "prefecture_kana": "イシカワケン",
    "prefecture_code": "17",
    "city": "七尾市",
    "city_kana": "ナナオシ",
    "town": "赤浦町",
    "town_kana": "アカウラマチ",
    "street": null,
    "office_name": null,
    "office_name_kana": null
  },
  "0844": {
    "zip_code": "9260844",
    "prefecture": "石川県",
    "prefecture_kana": "イシカワケン",
    "prefecture_code": "17",
    "city": "七尾市",
    "city_kana": "ナナオシ",
    "town": "直津町",
    "town_kana": "タダツマチ",
    "street": null,
    "office_name": null,
    "office_name_kana": null
  },
  "0845": {
    "zip_code": "9260845",
    "prefecture": "石川県",
    "prefecture_kana": "イシカワケン",
    "prefecture_code": "17",
    "city": "七尾市",
    "city_kana": "ナナオシ",
    "town": "新保町",
    "town_kana": "シンボマチ",
    "street": null,
    "office_name": null,
    "office_name_kana": null
  },
  "0846": {
    "zip_code": "9260846",
    "prefecture": "石川県",
    "prefecture_kana": "イシカワケン",
    "prefecture_code": "17",
    "city": "七尾市",
    "city_kana": "ナナオシ",
    "town": "祖浜町",
    "town_kana": "ソハママチ",
    "street": null,
    "office_name": null,
    "office_name_kana": null
  },
  "0851": {
    "zip_code": "9260851",
    "prefecture": "石川県",
    "prefecture_kana": "イシカワケン",
    "prefecture_code": "17",
    "city": "七尾市",
    "city_kana": "ナナオシ",
    "town": "つつじが浜",
    "town_kana": "ツツジガハマ",
    "street": null,
    "office_name": null,
    "office_name_kana": null
  },
  "0852": {
    "zip_code": "9260852",
    "prefecture": "石川県",
    "prefecture_kana": "イシカワケン",
    "prefecture_code": "17",
    "city": "七尾市",
    "city_kana": "ナナオシ",
    "town": "小島町",
    "town_kana": "コジママチ",
    "street": null,
    "office_name": null,
    "office_name_kana": null
  },
  "0853": {
    "zip_code": "9260853",
    "prefecture": "石川県",
    "prefecture_kana": "イシカワケン",
    "prefecture_code": "17",
    "city": "七尾市",
    "city_kana": "ナナオシ",
    "town": "津向町",
    "town_kana": "ツムギマチ",
    "street": null,
    "office_name": null,
    "office_name_kana": null
  },
  "0854": {
    "zip_code": "9260854",
    "prefecture": "石川県",
    "prefecture_kana": "イシカワケン",
    "prefecture_code": "17",
    "city": "七尾市",
    "city_kana": "ナナオシ",
    "town": "なぎの浦",
    "town_kana": "ナギノウラ",
    "street": null,
    "office_name": null,
    "office_name_kana": null
  },
  "0855": {
    "zip_code": "9260855",
    "prefecture": "石川県",
    "prefecture_kana": "イシカワケン",
    "prefecture_code": "17",
    "city": "七尾市",
    "city_kana": "ナナオシ",
    "town": "小丸山台",
    "town_kana": "コマルヤマダイ",
    "street": null,
    "office_name": null,
    "office_name_kana": null
  },
  "0861": {
    "zip_code": "9260861",
    "prefecture": "石川県",
    "prefecture_kana": "イシカワケン",
    "prefecture_code": "17",
    "city": "七尾市",
    "city_kana": "ナナオシ",
    "town": "寿町",
    "town_kana": "コトブキチョウ",
    "street": null,
    "office_name": null,
    "office_name_kana": null
  },
  "0862": {
    "zip_code": "9260862",
    "prefecture": "石川県",
    "prefecture_kana": "イシカワケン",
    "prefecture_code": "17",
    "city": "七尾市",
    "city_kana": "ナナオシ",
    "town": "常盤町",
    "town_kana": "トキワマチ",
    "street": null,
    "office_name": null,
    "office_name_kana": null
  },
  "0863": {
    "zip_code": "9260863",
    "prefecture": "石川県",
    "prefecture_kana": "イシカワケン",
    "prefecture_code": "17",
    "city": "七尾市",
    "city_kana": "ナナオシ",
    "town": "白銀町",
    "town_kana": "シロガネチョウ",
    "street": null,
    "office_name": null,
    "office_name_kana": null
  },
  "0864": {
    "zip_code": "9260864",
    "prefecture": "石川県",
    "prefecture_kana": "イシカワケン",
    "prefecture_code": "17",
    "city": "七尾市",
    "city_kana": "ナナオシ",
    "town": "魚町",
    "town_kana": "ウオマチ",
    "street": null,
    "office_name": null,
    "office_name_kana": null
  },
  "0865": {
    "zip_code": "9260865",
    "prefecture": "石川県",
    "prefecture_kana": "イシカワケン",
    "prefecture_code": "17",
    "city": "七尾市",
    "city_kana": "ナナオシ",
    "town": "松本町",
    "town_kana": "マツモトチョウ",
    "street": null,
    "office_name": null,
    "office_name_kana": null
  },
  "0866": {
    "zip_code": "9260866",
    "prefecture": "石川県",
    "prefecture_kana": "イシカワケン",
    "prefecture_code": "17",
    "city": "七尾市",
    "city_kana": "ナナオシ",
    "town": "富岡町",
    "town_kana": "トミオカチョウ",
    "street": null,
    "office_name": null,
    "office_name_kana": null
  },
  "0867": {
    "zip_code": "9260867",
    "prefecture": "石川県",
    "prefecture_kana": "イシカワケン",
    "prefecture_code": "17",
    "city": "七尾市",
    "city_kana": "ナナオシ",
    "town": "桜町",
    "town_kana": "サクラマチ",
    "street": null,
    "office_name": null,
    "office_name_kana": null
  },
  "8501": {
    "zip_code": "9268501",
    "prefecture": "石川県",
    "prefecture_kana": "イシカワケン",
    "prefecture_code": "17",
    "city": "七尾市",
    "city_kana": "ナナオシ",
    "town": "大田町",
    "town_kana": "オオタマチ",
    "street": "１１０−４３",
    "office_name": "林ベニヤ　株式会社　七尾工場",
    "office_name_kana": "ハヤシベニヤ カブシキガイシヤ ナナオコウジヨウ"
  },
  "8511": {
    "zip_code": "9268511",
    "prefecture": "石川県",
    "prefecture_kana": "イシカワケン",
    "prefecture_code": "17",
    "city": "七尾市",
    "city_kana": "ナナオシ",
    "town": "藤橋町",
    "town_kana": "フジハシマチ",
    "street": "酉部２２−３",
    "office_name": "日本年金機構　七尾年金事務所",
    "office_name_kana": "ニツポンネンキンキコウ ナナオネンキンジムシヨ"
  },
  "8520": {
    "zip_code": "9268520",
    "prefecture": "石川県",
    "prefecture_kana": "イシカワケン",
    "prefecture_code": "17",
    "city": "七尾市",
    "city_kana": "ナナオシ",
    "town": "小島町",
    "town_kana": "コジママチ",
    "street": "大開地３番地７",
    "office_name": "金沢地方法務局　七尾支局",
    "office_name_kana": "カナザワチホウホウムキヨク ナナオシキヨク"
  },
  "8531": {
    "zip_code": "9268531",
    "prefecture": "石川県",
    "prefecture_kana": "イシカワケン",
    "prefecture_code": "17",
    "city": "七尾市",
    "city_kana": "ナナオシ",
    "town": "松百町",
    "town_kana": "マットウマチ",
    "street": "８部３−１",
    "office_name": "国立療養所　七尾病院",
    "office_name_kana": "コクリツリヨウヨウシヨ ナナオビヨウイン"
  },
  "8540": {
    "zip_code": "9268540",
    "prefecture": "石川県",
    "prefecture_kana": "イシカワケン",
    "prefecture_code": "17",
    "city": "七尾市",
    "city_kana": "ナナオシ",
    "town": "神明町",
    "town_kana": "シンメイチョウ",
    "street": "ロ部１３",
    "office_name": "ＮＴＴ　七尾支店",
    "office_name_kana": "エヌテイテイ ナナオシテン"
  },
  "8541": [
    {
      "zip_code": "9268541",
      "prefecture": "石川県",
      "prefecture_kana": "イシカワケン",
      "prefecture_code": "17",
      "city": "七尾市",
      "city_kana": "ナナオシ",
      "town": "馬出町",
      "town_kana": "マダシマチ",
      "street": "ハ部１番地の２",
      "office_name": "金沢家庭裁判所　七尾支部",
      "office_name_kana": "カナザワカテイサイバンシヨ ナナオシブ"
    },
    {
      "zip_code": "9268541",
      "prefecture": "石川県",
      "prefecture_kana": "イシカワケン",
      "prefecture_code": "17",
      "city": "七尾市",
      "city_kana": "ナナオシ",
      "town": "馬出町",
      "town_kana": "マダシマチ",
      "street": "ハ部１番地の２",
      "office_name": "金沢地方裁判所　七尾支部",
      "office_name_kana": "カナザワチホウサイバンシヨ ナナオシブ"
    },
    {
      "zip_code": "9268541",
      "prefecture": "石川県",
      "prefecture_kana": "イシカワケン",
      "prefecture_code": "17",
      "city": "七尾市",
      "city_kana": "ナナオシ",
      "town": "馬出町",
      "town_kana": "マダシマチ",
      "street": "ハ部１番地の２",
      "office_name": "七尾簡易裁判所",
      "office_name_kana": "ナナオカンイサイバンシヨ"
    },
    {
      "zip_code": "9268541",
      "prefecture": "石川県",
      "prefecture_kana": "イシカワケン",
      "prefecture_code": "17",
      "city": "七尾市",
      "city_kana": "ナナオシ",
      "town": "馬出町",
      "town_kana": "マダシマチ",
      "street": "ハ部１番地の２",
      "office_name": "七尾検察審査会",
      "office_name_kana": "ナナオケンサツシンサカイ"
    }
  ],
  "8545": {
    "zip_code": "9268545",
    "prefecture": "石川県",
    "prefecture_kana": "イシカワケン",
    "prefecture_code": "17",
    "city": "七尾市",
    "city_kana": "ナナオシ",
    "town": "下町",
    "town_kana": "シモマチ",
    "street": "己部５４",
    "office_name": "石川県立　七尾養護学校",
    "office_name_kana": "イシカワケンリツ ナナオヨウゴガツコウ"
  },
  "8550": {
    "zip_code": "9268550",
    "prefecture": "石川県",
    "prefecture_kana": "イシカワケン",
    "prefecture_code": "17",
    "city": "七尾市",
    "city_kana": "ナナオシ",
    "town": "本府中町",
    "town_kana": "モトフチュウマチ",
    "street": "ヲ部３８",
    "office_name": "七尾サンライフプラザ",
    "office_name_kana": "ナナオサンライフプラザ"
  },
  "8555": {
    "zip_code": "9268555",
    "prefecture": "石川県",
    "prefecture_kana": "イシカワケン",
    "prefecture_code": "17",
    "city": "七尾市",
    "city_kana": "ナナオシ",
    "town": "下町",
    "town_kana": "シモマチ",
    "street": "戊部１２−１",
    "office_name": "石川県立　七尾東雲高等学校",
    "office_name_kana": "イシカワケンリツ ナナオシノノメコウトウガツコウ"
  },
  "8558": {
    "zip_code": "9268558",
    "prefecture": "石川県",
    "prefecture_kana": "イシカワケン",
    "prefecture_code": "17",
    "city": "七尾市",
    "city_kana": "ナナオシ",
    "town": "八幡町",
    "town_kana": "ヤワタマチ",
    "street": "ほ３６",
    "office_name": "北陸乳業　株式会社",
    "office_name_kana": "ホクリクニユウギヨウ カブシキガイシヤ"
  },
  "8566": {
    "zip_code": "9268566",
    "prefecture": "石川県",
    "prefecture_kana": "イシカワケン",
    "prefecture_code": "17",
    "city": "七尾市",
    "city_kana": "ナナオシ",
    "town": "藤橋町",
    "town_kana": "フジハシマチ",
    "street": "ア部８番地２",
    "office_name": "エイゾーナナオエスムス　株式会社",
    "office_name_kana": "エイゾ-ナナオエスムス カブシキガイシヤ"
  },
  "8585": {
    "zip_code": "9268585",
    "prefecture": "石川県",
    "prefecture_kana": "イシカワケン",
    "prefecture_code": "17",
    "city": "七尾市",
    "city_kana": "ナナオシ",
    "town": "三島町",
    "town_kana": "ミシマチョウ",
    "street": "６１−７",
    "office_name": "北陸電力　株式会社　七尾支社営業部",
    "office_name_kana": "ホクリクデンリヨク カブシキガイシヤ ナナオシシヤエイギヨウブ"
  },
  "8586": {
    "zip_code": "9268586",
    "prefecture": "石川県",
    "prefecture_kana": "イシカワケン",
    "prefecture_code": "17",
    "city": "七尾市",
    "city_kana": "ナナオシ",
    "town": "本府中町",
    "town_kana": "モトフチュウマチ",
    "street": "ソ２７番９",
    "office_name": "石川県　中能登土木総合事務所",
    "office_name_kana": "イシカワケン ナカノトドボクソウゴウジムシヨ"
  },
  "8588": {
    "zip_code": "9268588",
    "prefecture": "石川県",
    "prefecture_kana": "イシカワケン",
    "prefecture_code": "17",
    "city": "七尾市",
    "city_kana": "ナナオシ",
    "town": "大田町",
    "town_kana": "オオタマチ",
    "street": "１１４部２−４",
    "office_name": "北陸電力　七尾大田火力発電所",
    "office_name_kana": "ホクリクデンリヨク ナナオオオタカリヨクハツデンシヨ"
  },
  "8601": {
    "zip_code": "9268601",
    "prefecture": "石川県",
    "prefecture_kana": "イシカワケン",
    "prefecture_code": "17",
    "city": "七尾市",
    "city_kana": "ナナオシ",
    "town": "桧物町",
    "town_kana": "ヒモノマチ",
    "street": "３５（七尾郵便局私書箱第１７号）",
    "office_name": "能登信用金庫",
    "office_name_kana": "ノトシンヨウキンコ"
  },
  "8602": {
    "zip_code": "9268602",
    "prefecture": "石川県",
    "prefecture_kana": "イシカワケン",
    "prefecture_code": "17",
    "city": "七尾市",
    "city_kana": "ナナオシ",
    "town": "生駒町",
    "town_kana": "イコマチョウ",
    "street": "３０−１（七尾郵便局私書箱第１号）",
    "office_name": "株式会社　北国銀行　七尾支店",
    "office_name_kana": "カブシキガイシヤ ホツコクギンコウ ナナオシテン"
  },
  "8603": {
    "zip_code": "9268603",
    "prefecture": "石川県",
    "prefecture_kana": "イシカワケン",
    "prefecture_code": "17",
    "city": "七尾市",
    "city_kana": "ナナオシ",
    "town": "西三階町",
    "town_kana": "ニシミカイマチ",
    "street": "１０号４−１",
    "office_name": "株式会社　スギヨ　本社事務所・北陸工場",
    "office_name_kana": "カブシキガイシヤ スギヨ ホンシヤジムシヨ・ホクリクコウジヨウ"
  },
  "8605": {
    "zip_code": "9268605",
    "prefecture": "石川県",
    "prefecture_kana": "イシカワケン",
    "prefecture_code": "17",
    "city": "七尾市",
    "city_kana": "ナナオシ",
    "town": "富岡町",
    "town_kana": "トミオカチョウ",
    "street": "９４（七尾郵便局私書箱第３２号）",
    "office_name": "特定医療法人財団　董仙会　恵寿総合病院",
    "office_name_kana": "トクテイイリヨウホウジンザイダン トウセンカイ ケイジユソウゴウビヨウイン"
  },
  "8609": {
    "zip_code": "9268609",
    "prefecture": "石川県",
    "prefecture_kana": "イシカワケン",
    "prefecture_code": "17",
    "city": "七尾市",
    "city_kana": "ナナオシ",
    "town": "小島町",
    "town_kana": "コジママチ",
    "street": "西部２番",
    "office_name": "七尾公共職業安定所（ハローワーク七尾）",
    "office_name_kana": "ナナオコウキヨウシヨクギヨウアンテイシヨ(ハロ-ワ-クナナオ)"
  },
  "8610": {
    "zip_code": "9268610",
    "prefecture": "石川県",
    "prefecture_kana": "イシカワケン",
    "prefecture_code": "17",
    "city": "七尾市",
    "city_kana": "ナナオシ",
    "town": "藤橋町",
    "town_kana": "フジハシマチ",
    "street": "ア部６番地４（七尾郵便局私書箱第１９号）",
    "office_name": "公立能登総合病院",
    "office_name_kana": "コウリツノトソウゴウビヨウイン"
  },
  "8611": {
    "zip_code": "9268611",
    "prefecture": "石川県",
    "prefecture_kana": "イシカワケン",
    "prefecture_code": "17",
    "city": "七尾市",
    "city_kana": "ナナオシ",
    "town": "袖ケ江町",
    "town_kana": "ソデガエチョウ",
    "street": "イ２５（七尾郵便局私書箱第４号）",
    "office_name": "七尾市役所",
    "office_name_kana": "ナナオシヤクシヨ"
  },
  "8642": {
    "zip_code": "9268642",
    "prefecture": "石川県",
    "prefecture_kana": "イシカワケン",
    "prefecture_code": "17",
    "city": "七尾市",
    "city_kana": "ナナオシ",
    "town": "三島町",
    "town_kana": "ミシマチョウ",
    "street": "７０−１（七尾郵便局私書箱第２３号）",
    "office_name": "七尾商工会議所",
    "office_name_kana": "ナナオシヨウコウカイギシヨ"
  },
  "8650": {
    "zip_code": "9268650",
    "prefecture": "石川県",
    "prefecture_kana": "イシカワケン",
    "prefecture_code": "17",
    "city": "七尾市",
    "city_kana": "ナナオシ",
    "town": "白馬町",
    "town_kana": "シロウママチ",
    "street": "８−５（七尾郵便局私書箱第３号）",
    "office_name": "株式会社　在沢組",
    "office_name_kana": "カブシキガイシヤ アリサワクミ"
  },
  "8666": {
    "zip_code": "9268666",
    "prefecture": "石川県",
    "prefecture_kana": "イシカワケン",
    "prefecture_code": "17",
    "city": "七尾市",
    "city_kana": "ナナオシ",
    "town": "一本杉町",
    "town_kana": "イッポンスギマチ",
    "street": "１１８（七尾郵便局私書箱第１２号）",
    "office_name": "株式会社　北陸銀行　七尾支店",
    "office_name_kana": "カブシキガイシヤ ホクリクギンコウ ナナオシテン"
  },
  "8686": {
    "zip_code": "9268686",
    "prefecture": "石川県",
    "prefecture_kana": "イシカワケン",
    "prefecture_code": "17",
    "city": "七尾市",
    "city_kana": "ナナオシ",
    "town": "小島町",
    "town_kana": "コジママチ",
    "street": "大開地３番地７（七尾西港合同庁舎）",
    "office_name": "七尾税務署",
    "office_name_kana": "ナナオゼイムシヨ"
  }
}