{
  "0000": {
    "zip_code": "9280000",
    "prefecture": "石川県",
    "prefecture_kana": "イシカワケン",
    "prefecture_code": "17",
    "city": "輪島市",
    "city_kana": "ワジマシ",
    "town": "",
    "town_kana": "",
    "street": null,
    "office_name": null,
    "office_name_kana": null
  },
  "0001": {
    "zip_code": "9280001",
    "prefecture": "石川県",
    "prefecture_kana": "イシカワケン",
    "prefecture_code": "17",
    "city": "輪島市",
    "city_kana": "ワジマシ",
    "town": "河井町",
    "town_kana": "カワイマチ",
    "street": null,
    "office_name": null,
    "office_name_kana": null
  },
  "0002": {
    "zip_code": "9280002",
    "prefecture": "石川県",
    "prefecture_kana": "イシカワケン",
    "prefecture_code": "17",
    "city": "輪島市",
    "city_kana": "ワジマシ",
    "town": "久手川町",
    "town_kana": "フテガワマチ",
    "street": null,
    "office_name": null,
    "office_name_kana": null
  },
  "0003": {
    "zip_code": "9280003",
    "prefecture": "石川県",
    "prefecture_kana": "イシカワケン",
    "prefecture_code": "17",
    "city": "輪島市",
    "city_kana": "ワジマシ",
    "town": "塚田町",
    "town_kana": "ツカダマチ",
    "street": null,
    "office_name": null,
    "office_name_kana": null
  },
  "0004": {
    "zip_code": "9280004",
    "prefecture": "石川県",
    "prefecture_kana": "イシカワケン",
    "prefecture_code": "17",
    "city": "輪島市",
    "city_kana": "ワジマシ",
    "town": "稲舟町",
    "town_kana": "イナブネマチ",
    "street": null,
    "office_name": null,
    "office_name_kana": null
  },
  "0005": {
    "zip_code": "9280005",
    "prefecture": "石川県",
    "prefecture_kana": "イシカワケン",
    "prefecture_code": "17",
    "city": "輪島市",
    "city_kana": "ワジマシ",
    "town": "大野町",
    "town_kana": "オオノマチ",
    "street": null,
    "office_name": null,
    "office_name_kana": null
  },
  "0006": {
    "zip_code": "9280006",
    "prefecture": "石川県",
    "prefecture_kana": "イシカワケン",
    "prefecture_code": "17",
    "city": "輪島市",
    "city_kana": "ワジマシ",
    "town": "惣領町",
    "town_kana": "ソウリョウマチ",
    "street": null,
    "office_name": null,
    "office_name_kana": null
  },
  "0007": {
    "zip_code": "9280007",
    "prefecture": "石川県",
    "prefecture_kana": "イシカワケン",
    "prefecture_code": "17",
    "city": "輪島市",
    "city_kana": "ワジマシ",
    "town": "深見町",
    "town_kana": "フカミマチ",
    "street": null,
    "office_name": null,
    "office_name_kana": null
  },
  "0008": {
    "zip_code": "9280008",
    "prefecture": "石川県",
    "prefecture_kana": "イシカワケン",
    "prefecture_code": "17",
    "city": "輪島市",
    "city_kana": "ワジマシ",
    "town": "マリンタウン",
    "town_kana": "マリンタウン",
    "street": null,
    "office_name": null,
    "office_name_kana": null
  },
  "0011": {
    "zip_code": "9280011",
    "prefecture": "石川県",
    "prefecture_kana": "イシカワケン",
    "prefecture_code": "17",
    "city": "輪島市",
    "city_kana": "ワジマシ",
    "town": "杉平町",
    "town_kana": "スギヒラマチ",
    "street": null,
    "office_name": null,
    "office_name_kana": null
  },
  "0012": {
    "zip_code": "9280012",
    "prefecture": "石川県",
    "prefecture_kana": "イシカワケン",
    "prefecture_code": "17",
    "city": "輪島市",
    "city_kana": "ワジマシ",
    "town": "横地町",
    "town_kana": "ヨコジマチ",
    "street": null,
    "office_name": null,
    "office_name_kana": null
  },
  "0013": {
    "zip_code": "9280013",
    "prefecture": "石川県",
    "prefecture_kana": "イシカワケン",
    "prefecture_code": "17",
    "city": "輪島市",
    "city_kana": "ワジマシ",
    "town": "石休場町",
    "town_kana": "イシヤスミバマチ",
    "street": null,
    "office_name": null,
    "office_name_kana": null
  },
  "0014": {
    "zip_code": "9280014",
    "prefecture": "石川県",
    "prefecture_kana": "イシカワケン",
    "prefecture_code": "17",
    "city": "輪島市",
    "city_kana": "ワジマシ",
    "town": "山ノ上町",
    "town_kana": "ヤマノウエマチ",
    "street": null,
    "office_name": null,
    "office_name_kana": null
  },
  "0015": {
    "zip_code": "9280015",
    "prefecture": "石川県",
    "prefecture_kana": "イシカワケン",
    "prefecture_code": "17",
    "city": "輪島市",
    "city_kana": "ワジマシ",
    "town": "市ノ瀬町",
    "town_kana": "イチノセマチ",
    "street": null,
    "office_name": null,
    "office_name_kana": null
  },
  "0016": {
    "zip_code": "9280016",
    "prefecture": "石川県",
    "prefecture_kana": "イシカワケン",
    "prefecture_code": "17",
    "city": "輪島市",
    "city_kana": "ワジマシ",
    "town": "熊野町",
    "town_kana": "クマノマチ",
    "street": null,
    "office_name": null,
    "office_name_kana": null
  },
  "0021": {
    "zip_code": "9280021",
    "prefecture": "石川県",
    "prefecture_kana": "イシカワケン",
    "prefecture_code": "17",
    "city": "輪島市",
    "city_kana": "ワジマシ",
    "town": "二ツ屋町",
    "town_kana": "フタツヤマチ",
    "street": null,
    "office_name": null,
    "office_name_kana": null
  },
  "0022": {
    "zip_code": "9280022",
    "prefecture": "石川県",
    "prefecture_kana": "イシカワケン",
    "prefecture_code": "17",
    "city": "輪島市",
    "city_kana": "ワジマシ",
    "town": "宅田町",
    "town_kana": "タクダマチ",
    "street": null,
    "office_name": null,
    "office_name_kana": null
  },
  "0023": {
    "zip_code": "9280023",
    "prefecture": "石川県",
    "prefecture_kana": "イシカワケン",
    "prefecture_code": "17",
    "city": "輪島市",
    "city_kana": "ワジマシ",
    "town": "気勝平町",
    "town_kana": "ケカチダイラマチ",
    "street": null,
    "office_name": null,
    "office_name_kana": null
  },
  "0024": {
    "zip_code": "9280024",
    "prefecture": "石川県",
    "prefecture_kana": "イシカワケン",
    "prefecture_code": "17",
    "city": "輪島市",
    "city_kana": "ワジマシ",
    "town": "山岸町",
    "town_kana": "ヤマギシマチ",
    "street": null,
    "office_name": null,
    "office_name_kana": null
  },
  "0025": {
    "zip_code": "9280025",
    "prefecture": "石川県",
    "prefecture_kana": "イシカワケン",
    "prefecture_code": "17",
    "city": "輪島市",
    "city_kana": "ワジマシ",
    "town": "東中尾町",
    "town_kana": "ヒガシナカオマチ",
    "street": null,
    "office_name": null,
    "office_name_kana": null
  },
  "0026": {
    "zip_code": "9280026",
    "prefecture": "石川県",
    "prefecture_kana": "イシカワケン",
    "prefecture_code": "17",
    "city": "輪島市",
    "city_kana": "ワジマシ",
    "town": "西脇町",
    "town_kana": "ニシワキマチ",
    "street": null,
    "office_name": null,
    "office_name_kana": null
  },
  "0027": {
    "zip_code": "9280027",
    "prefecture": "石川県",
    "prefecture_kana": "イシカワケン",
    "prefecture_code": "17",
    "city": "輪島市",
    "city_kana": "ワジマシ",
    "town": "北谷町",
    "town_kana": "キタダニマチ",
    "street": null,
    "office_name": null,
    "office_name_kana": null
  },
  "0028": {
    "zip_code": "9280028",
    "prefecture": "石川県",
    "prefecture_kana": "イシカワケン",
    "prefecture_code": "17",
    "city": "輪島市",
    "city_kana": "ワジマシ",
    "town": "打越町",
    "town_kana": "ウチコシマチ",
    "street": null,
    "office_name": null,
    "office_name_kana": null
  },
  "0031": {
    "zip_code": "9280031",
    "prefecture": "石川県",
    "prefecture_kana": "イシカワケン",
    "prefecture_code": "17",
    "city": "輪島市",
    "city_kana": "ワジマシ",
    "town": "二勢町",
    "town_kana": "フタセマチ",
    "street": null,
    "office_name": null,
    "office_name_kana": null
  },
  "0032": {
    "zip_code": "9280032",
    "prefecture": "石川県",
    "prefecture_kana": "イシカワケン",
    "prefecture_code": "17",
    "city": "輪島市",
    "city_kana": "ワジマシ",
    "town": "小伊勢町",
    "town_kana": "オイセマチ",
    "street": null,
    "office_name": null,
    "office_name_kana": null
  },
  "0033": {
    "zip_code": "9280033",
    "prefecture": "石川県",
    "prefecture_kana": "イシカワケン",
    "prefecture_code": "17",
    "city": "輪島市",
    "city_kana": "ワジマシ",
    "town": "稲屋町",
    "town_kana": "トウヤマチ",
    "street": null,
    "office_name": null,
    "office_name_kana": null
  },
  "0034": {
    "zip_code": "9280034",
    "prefecture": "石川県",
    "prefecture_kana": "イシカワケン",
    "prefecture_code": "17",
    "city": "輪島市",
    "city_kana": "ワジマシ",
    "town": "長井町",
    "town_kana": "ナガイマチ",
    "street": null,
    "office_name": null,
    "office_name_kana": null
  },
  "0035": {
    "zip_code": "9280035",
    "prefecture": "石川県",
    "prefecture_kana": "イシカワケン",
    "prefecture_code": "17",
    "city": "輪島市",
    "city_kana": "ワジマシ",
    "town": "別所谷町",
    "town_kana": "ベッショダニマチ",
    "street": null,
    "office_name": null,
    "office_name_kana": null
  },
  "0036": {
    "zip_code": "9280036",
    "prefecture": "石川県",
    "prefecture_kana": "イシカワケン",
    "prefecture_code": "17",
    "city": "輪島市",
    "city_kana": "ワジマシ",
    "town": "滝又町",
    "town_kana": "タキマタマチ",
    "street": null,
    "office_name": null,
    "office_name_kana": null
  },
  "0037": {
    "zip_code": "9280037",
    "prefecture": "石川県",
    "prefecture_kana": "イシカワケン",
    "prefecture_code": "17",
    "city": "輪島市",
    "city_kana": "ワジマシ",
    "town": "空熊町",
    "town_kana": "ソラクママチ",
    "street": null,
    "office_name": null,
    "office_name_kana": null
  },
  "0041": {
    "zip_code": "9280041",
    "prefecture": "石川県",
    "prefecture_kana": "イシカワケン",
    "prefecture_code": "17",
    "city": "輪島市",
    "city_kana": "ワジマシ",
    "town": "中段町",
    "town_kana": "チュウダマチ",
    "street": null,
    "office_name": null,
    "office_name_kana": null
  },
  "0042": {
    "zip_code": "9280042",
    "prefecture": "石川県",
    "prefecture_kana": "イシカワケン",
    "prefecture_code": "17",
    "city": "輪島市",
    "city_kana": "ワジマシ",
    "town": "山本町",
    "town_kana": "ヤマモトマチ",
    "street": null,
    "office_name": null,
    "office_name_kana": null
  },
  "0043": {
    "zip_code": "9280043",
    "prefecture": "石川県",
    "prefecture_kana": "イシカワケン",
    "prefecture_code": "17",
    "city": "輪島市",
    "city_kana": "ワジマシ",
    "town": "房田町",
    "town_kana": "フサダマチ",
    "street": null,
    "office_name": null,
    "office_name_kana": null
  },
  "0044": {
    "zip_code": "9280044",
    "prefecture": "石川県",
    "prefecture_kana": "イシカワケン",
    "prefecture_code": "17",
    "city": "輪島市",
    "city_kana": "ワジマシ",
    "town": "下黒川町",
    "town_kana": "シモクロガワマチ",
    "street": null,
    "office_name": null,
    "office_name_kana": null
  },
  "0045": {
    "zip_code": "9280045",
    "prefecture": "石川県",
    "prefecture_kana": "イシカワケン",
    "prefecture_code": "17",
    "city": "輪島市",
    "city_kana": "ワジマシ",
    "town": "上黒川町",
    "town_kana": "カミクロガワマチ",
    "street": null,
    "office_name": null,
    "office_name_kana": null
  },
  "0046": {
    "zip_code": "9280046",
    "prefecture": "石川県",
    "prefecture_kana": "イシカワケン",
    "prefecture_code": "17",
    "city": "輪島市",
    "city_kana": "ワジマシ",
    "town": "二俣町",
    "town_kana": "フタマタマチ",
    "street": null,
    "office_name": null,
    "office_name_kana": null
  },
  "0047": {
    "zip_code": "9280047",
    "prefecture": "石川県",
    "prefecture_kana": "イシカワケン",
    "prefecture_code": "17",
    "city": "輪島市",
    "city_kana": "ワジマシ",
    "town": "繩又町",
    "town_kana": "ナワマタマチ",
    "street": null,
    "office_name": null,
    "office_name_kana": null
  },
  "0051": {
    "zip_code": "9280051",
    "prefecture": "石川県",
    "prefecture_kana": "イシカワケン",
    "prefecture_code": "17",
    "city": "輪島市",
    "city_kana": "ワジマシ",
    "town": "小池町",
    "town_kana": "オイケマチ",
    "street": null,
    "office_name": null,
    "office_name_kana": null
  },
  "0052": {
    "zip_code": "9280052",
    "prefecture": "石川県",
    "prefecture_kana": "イシカワケン",
    "prefecture_code": "17",
    "city": "輪島市",
    "city_kana": "ワジマシ",
    "town": "下山町",
    "town_kana": "シモヤママチ",
    "street": null,
    "office_name": null,
    "office_name_kana": null
  },
  "0053": {
    "zip_code": "9280053",
    "prefecture": "石川県",
    "prefecture_kana": "イシカワケン",
    "prefecture_code": "17",
    "city": "輪島市",
    "city_kana": "ワジマシ",
    "town": "赤崎町",
    "town_kana": "アカサキマチ",
    "street": null,
    "office_name": null,
    "office_name_kana": null
  },
  "0054": {
    "zip_code": "9280054",
    "prefecture": "石川県",
    "prefecture_kana": "イシカワケン",
    "prefecture_code": "17",
    "city": "輪島市",
    "city_kana": "ワジマシ",
    "town": "大沢町",
    "town_kana": "オオザワマチ",
    "street": null,
    "office_name": null,
    "office_name_kana": null
  },
  "0055": {
    "zip_code": "9280055",
    "prefecture": "石川県",
    "prefecture_kana": "イシカワケン",
    "prefecture_code": "17",
    "city": "輪島市",
    "city_kana": "ワジマシ",
    "town": "上大沢町",
    "town_kana": "カミオオザワマチ",
    "street": null,
    "office_name": null,
    "office_name_kana": null
  },
  "0056": {
    "zip_code": "9280056",
    "prefecture": "石川県",
    "prefecture_kana": "イシカワケン",
    "prefecture_code": "17",
    "city": "輪島市",
    "city_kana": "ワジマシ",
    "town": "西二又町",
    "town_kana": "ニシフタマタマチ",
    "street": null,
    "office_name": null,
    "office_name_kana": null
  },
  "0057": {
    "zip_code": "9280057",
    "prefecture": "石川県",
    "prefecture_kana": "イシカワケン",
    "prefecture_code": "17",
    "city": "輪島市",
    "city_kana": "ワジマシ",
    "town": "上山町",
    "town_kana": "カミヤママチ",
    "street": null,
    "office_name": null,
    "office_name_kana": null
  },
  "0061": {
    "zip_code": "9280061",
    "prefecture": "石川県",
    "prefecture_kana": "イシカワケン",
    "prefecture_code": "17",
    "city": "輪島市",
    "city_kana": "ワジマシ",
    "town": "新橋通",
    "town_kana": "シンバシドオリ",
    "street": null,
    "office_name": null,
    "office_name_kana": null
  },
  "0062": [
    {
      "zip_code": "9280062",
      "prefecture": "石川県",
      "prefecture_kana": "イシカワケン",
      "prefecture_code": "17",
      "city": "輪島市",
      "city_kana": "ワジマシ",
      "town": "堀町",
      "town_kana": "ホリマチ",
      "street": null,
      "office_name": null,
      "office_name_kana": null
    },
    {
      "zip_code": "9280062",
      "prefecture": "石川県",
      "prefecture_kana": "イシカワケン",
      "prefecture_code": "17",
      "city": "輪島市",
      "city_kana": "ワジマシ",
      "town": "南町",
      "town_kana": "ミナミチョウ",
      "street": null,
      "office_name": null,
      "office_name_kana": null
    }
  ],
  "0063": {
    "zip_code": "9280063",
    "prefecture": "石川県",
    "prefecture_kana": "イシカワケン",
    "prefecture_code": "17",
    "city": "輪島市",
    "city_kana": "ワジマシ",
    "town": "水守町",
    "town_kana": "ミトモリマチ",
    "street": null,
    "office_name": null,
    "office_name_kana": null
  },
  "0064": {
    "zip_code": "9280064",
    "prefecture": "石川県",
    "prefecture_kana": "イシカワケン",
    "prefecture_code": "17",
    "city": "輪島市",
    "city_kana": "ワジマシ",
    "town": "釜屋谷町",
    "town_kana": "カマヤダニマチ",
    "street": null,
    "office_name": null,
    "office_name_kana": null
  },
  "0065": {
    "zip_code": "9280065",
    "prefecture": "石川県",
    "prefecture_kana": "イシカワケン",
    "prefecture_code": "17",
    "city": "輪島市",
    "city_kana": "ワジマシ",
    "town": "鵜入町",
    "town_kana": "ウニュウマチ",
    "street": null,
    "office_name": null,
    "office_name_kana": null
  },
  "0066": {
    "zip_code": "9280066",
    "prefecture": "石川県",
    "prefecture_kana": "イシカワケン",
    "prefecture_code": "17",
    "city": "輪島市",
    "city_kana": "ワジマシ",
    "town": "美谷町",
    "town_kana": "ミタニマチ",
    "street": null,
    "office_name": null,
    "office_name_kana": null
  },
  "0067": {
    "zip_code": "9280067",
    "prefecture": "石川県",
    "prefecture_kana": "イシカワケン",
    "prefecture_code": "17",
    "city": "輪島市",
    "city_kana": "ワジマシ",
    "town": "光浦町",
    "town_kana": "ヒカリウラマチ",
    "street": null,
    "office_name": null,
    "office_name_kana": null
  },
  "0068": {
    "zip_code": "9280068",
    "prefecture": "石川県",
    "prefecture_kana": "イシカワケン",
    "prefecture_code": "17",
    "city": "輪島市",
    "city_kana": "ワジマシ",
    "town": "平成町",
    "town_kana": "ヘイセイマチ",
    "street": null,
    "office_name": null,
    "office_name_kana": null
  },
  "0071": {
    "zip_code": "9280071",
    "prefecture": "石川県",
    "prefecture_kana": "イシカワケン",
    "prefecture_code": "17",
    "city": "輪島市",
    "city_kana": "ワジマシ",
    "town": "輪島崎町",
    "town_kana": "ワジマザキマチ",
    "street": null,
    "office_name": null,
    "office_name_kana": null
  },
  "0072": [
    {
      "zip_code": "9280072",
      "prefecture": "石川県",
      "prefecture_kana": "イシカワケン",
      "prefecture_code": "17",
      "city": "輪島市",
      "city_kana": "ワジマシ",
      "town": "海士町",
      "town_kana": "アママチ",
      "street": null,
      "office_name": null,
      "office_name_kana": null
    },
    {
      "zip_code": "9280072",
      "prefecture": "石川県",
      "prefecture_kana": "イシカワケン",
      "prefecture_code": "17",
      "city": "輪島市",
      "city_kana": "ワジマシ",
      "town": "海士町舳倉島",
      "town_kana": "アママチヘグラジマ",
      "street": null,
      "office_name": null,
      "office_name_kana": null
    }
  ],
  "0073": [
    {
      "zip_code": "9280073",
      "prefecture": "石川県",
      "prefecture_kana": "イシカワケン",
      "prefecture_code": "17",
      "city": "輪島市",
      "city_kana": "ワジマシ",
      "town": "鳳至町",
      "town_kana": "フゲシマチ",
      "street": null,
      "office_name": null,
      "office_name_kana": null
    },
    {
      "zip_code": "9280073",
      "prefecture": "石川県",
      "prefecture_kana": "イシカワケン",
      "prefecture_code": "17",
      "city": "輪島市",
      "city_kana": "ワジマシ",
      "town": "鳳至町",
      "town_kana": "フゲシマチ",
      "street": null,
      "office_name": null,
      "office_name_kana": null
    },
    {
      "zip_code": "9280073",
      "prefecture": "石川県",
      "prefecture_kana": "イシカワケン",
      "prefecture_code": "17",
      "city": "輪島市",
      "city_kana": "ワジマシ",
      "town": "鳳至町袖ケ浜",
      "town_kana": "フゲシマチソデガハマ",
      "street": null,
      "office_name": null,
      "office_name_kana": null
    }
  ],
  "0074": [
    {
      "zip_code": "9280074",
      "prefecture": "石川県",
      "prefecture_kana": "イシカワケン",
      "prefecture_code": "17",
      "city": "輪島市",
      "city_kana": "ワジマシ",
      "town": "鳳至町",
      "town_kana": "フゲシマチ",
      "street": null,
      "office_name": null,
      "office_name_kana": null
    },
    {
      "zip_code": "9280074",
      "prefecture": "石川県",
      "prefecture_kana": "イシカワケン",
      "prefecture_code": "17",
      "city": "輪島市",
      "city_kana": "ワジマシ",
      "town": "鳳至町鳳至丁",
      "town_kana": "フゲシマチホウシチョウ",
      "street": null,
      "office_name": null,
      "office_name_kana": null
    }
  ],
  "0075": [
    {
      "zip_code": "9280075",
      "prefecture": "石川県",
      "prefecture_kana": "イシカワケン",
      "prefecture_code": "17",
      "city": "輪島市",
      "city_kana": "ワジマシ",
      "town": "鳳至町",
      "town_kana": "フゲシマチ",
      "street": null,
      "office_name": null,
      "office_name_kana": null
    },
    {
      "zip_code": "9280075",
      "prefecture": "石川県",
      "prefecture_kana": "イシカワケン",
      "prefecture_code": "17",
      "city": "輪島市",
      "city_kana": "ワジマシ",
      "town": "鳳至町下町",
      "town_kana": "フゲシマチシモマチ",
      "street": null,
      "office_name": null,
      "office_name_kana": null
    }
  ],
  "0076": [
    {
      "zip_code": "9280076",
      "prefecture": "石川県",
      "prefecture_kana": "イシカワケン",
      "prefecture_code": "17",
      "city": "輪島市",
      "city_kana": "ワジマシ",
      "town": "鳳至町",
      "town_kana": "フゲシマチ",
      "street": null,
      "office_name": null,
      "office_name_kana": null
    },
    {
      "zip_code": "9280076",
      "prefecture": "石川県",
      "prefecture_kana": "イシカワケン",
      "prefecture_code": "17",
      "city": "輪島市",
      "city_kana": "ワジマシ",
      "town": "鳳至町石浦町",
      "town_kana": "フゲシマチイシウラマチ",
      "street": null,
      "office_name": null,
      "office_name_kana": null
    }
  ],
  "0077": [
    {
      "zip_code": "9280077",
      "prefecture": "石川県",
      "prefecture_kana": "イシカワケン",
      "prefecture_code": "17",
      "city": "輪島市",
      "city_kana": "ワジマシ",
      "town": "鳳至町",
      "town_kana": "フゲシマチ",
      "street": null,
      "office_name": null,
      "office_name_kana": null
    },
    {
      "zip_code": "9280077",
      "prefecture": "石川県",
      "prefecture_kana": "イシカワケン",
      "prefecture_code": "17",
      "city": "輪島市",
      "city_kana": "ワジマシ",
      "town": "鳳至町上町",
      "town_kana": "フゲシマチカミマチ",
      "street": null,
      "office_name": null,
      "office_name_kana": null
    },
    {
      "zip_code": "9280077",
      "prefecture": "石川県",
      "prefecture_kana": "イシカワケン",
      "prefecture_code": "17",
      "city": "輪島市",
      "city_kana": "ワジマシ",
      "town": "鳳至町堂金田",
      "town_kana": "フゲシマチドウキンダ",
      "street": null,
      "office_name": null,
      "office_name_kana": null
    }
  ],
  "0078": [
    {
      "zip_code": "9280078",
      "prefecture": "石川県",
      "prefecture_kana": "イシカワケン",
      "prefecture_code": "17",
      "city": "輪島市",
      "city_kana": "ワジマシ",
      "town": "鳳至町",
      "town_kana": "フゲシマチ",
      "street": null,
      "office_name": null,
      "office_name_kana": null
    },
    {
      "zip_code": "9280078",
      "prefecture": "石川県",
      "prefecture_kana": "イシカワケン",
      "prefecture_code": "17",
      "city": "輪島市",
      "city_kana": "ワジマシ",
      "town": "鳳至町稲荷町",
      "town_kana": "フゲシマチイナリマチ",
      "street": null,
      "office_name": null,
      "office_name_kana": null
    }
  ],
  "0079": [
    {
      "zip_code": "9280079",
      "prefecture": "石川県",
      "prefecture_kana": "イシカワケン",
      "prefecture_code": "17",
      "city": "輪島市",
      "city_kana": "ワジマシ",
      "town": "鳳至町",
      "town_kana": "フゲシマチ",
      "street": null,
      "office_name": null,
      "office_name_kana": null
    },
    {
      "zip_code": "9280079",
      "prefecture": "石川県",
      "prefecture_kana": "イシカワケン",
      "prefecture_code": "17",
      "city": "輪島市",
      "city_kana": "ワジマシ",
      "town": "鳳至町畠田",
      "town_kana": "フゲシマチハタケダ",
      "street": null,
      "office_name": null,
      "office_name_kana": null
    }
  ],
  "0201": {
    "zip_code": "9280201",
    "prefecture": "石川県",
    "prefecture_kana": "イシカワケン",
    "prefecture_code": "17",
    "city": "輪島市",
    "city_kana": "ワジマシ",
    "town": "町野町広江",
    "town_kana": "マチノマチヒロエ",
    "street": null,
    "office_name": null,
    "office_name_kana": null
  },
  "0202": {
    "zip_code": "9280202",
    "prefecture": "石川県",
    "prefecture_kana": "イシカワケン",
    "prefecture_code": "17",
    "city": "輪島市",
    "city_kana": "ワジマシ",
    "town": "町野町寺地",
    "town_kana": "マチノマチテラジ",
    "street": null,
    "office_name": null,
    "office_name_kana": null
  },
  "0203": {
    "zip_code": "9280203",
    "prefecture": "石川県",
    "prefecture_kana": "イシカワケン",
    "prefecture_code": "17",
    "city": "輪島市",
    "city_kana": "ワジマシ",
    "town": "町野町敷戸",
    "town_kana": "マチノマチシキド",
    "street": null,
    "office_name": null,
    "office_name_kana": null
  },
  "0204": {
    "zip_code": "9280204",
    "prefecture": "石川県",
    "prefecture_kana": "イシカワケン",
    "prefecture_code": "17",
    "city": "輪島市",
    "city_kana": "ワジマシ",
    "town": "町野町南時国",
    "town_kana": "マチノマチミナミトキクニ",
    "street": null,
    "office_name": null,
    "office_name_kana": null
  },
  "0205": {
    "zip_code": "9280205",
    "prefecture": "石川県",
    "prefecture_kana": "イシカワケン",
    "prefecture_code": "17",
    "city": "輪島市",
    "city_kana": "ワジマシ",
    "town": "町野町西時国",
    "town_kana": "マチノマチニシトキクニ",
    "street": null,
    "office_name": null,
    "office_name_kana": null
  },
  "0206": {
    "zip_code": "9280206",
    "prefecture": "石川県",
    "prefecture_kana": "イシカワケン",
    "prefecture_code": "17",
    "city": "輪島市",
    "city_kana": "ワジマシ",
    "town": "町野町曽々木",
    "town_kana": "マチノマチソソギ",
    "street": null,
    "office_name": null,
    "office_name_kana": null
  },
  "0211": {
    "zip_code": "9280211",
    "prefecture": "石川県",
    "prefecture_kana": "イシカワケン",
    "prefecture_code": "17",
    "city": "輪島市",
    "city_kana": "ワジマシ",
    "town": "町野町牛尾",
    "town_kana": "マチノマチウシオ",
    "street": null,
    "office_name": null,
    "office_name_kana": null
  },
  "0212": {
    "zip_code": "9280212",
    "prefecture": "石川県",
    "prefecture_kana": "イシカワケン",
    "prefecture_code": "17",
    "city": "輪島市",
    "city_kana": "ワジマシ",
    "town": "町野町寺山",
    "town_kana": "マチノマチテラヤマ",
    "street": null,
    "office_name": null,
    "office_name_kana": null
  },
  "0213": {
    "zip_code": "9280213",
    "prefecture": "石川県",
    "prefecture_kana": "イシカワケン",
    "prefecture_code": "17",
    "city": "輪島市",
    "city_kana": "ワジマシ",
    "town": "町野町舞谷",
    "town_kana": "マチノマチマイダニ",
    "street": null,
    "office_name": null,
    "office_name_kana": null
  },
  "0214": {
    "zip_code": "9280214",
    "prefecture": "石川県",
    "prefecture_kana": "イシカワケン",
    "prefecture_code": "17",
    "city": "輪島市",
    "city_kana": "ワジマシ",
    "town": "町野町佐野",
    "town_kana": "マチノマチサノ",
    "street": null,
    "office_name": null,
    "office_name_kana": null
  },
  "0215": {
    "zip_code": "9280215",
    "prefecture": "石川県",
    "prefecture_kana": "イシカワケン",
    "prefecture_code": "17",
    "city": "輪島市",
    "city_kana": "ワジマシ",
    "town": "町野町粟蔵",
    "town_kana": "マチノマチアワグラ",
    "street": null,
    "office_name": null,
    "office_name_kana": null
  },
  "0216": {
    "zip_code": "9280216",
    "prefecture": "石川県",
    "prefecture_kana": "イシカワケン",
    "prefecture_code": "17",
    "city": "輪島市",
    "city_kana": "ワジマシ",
    "town": "町野町桶戸",
    "town_kana": "マチノマチオケド",
    "street": null,
    "office_name": null,
    "office_name_kana": null
  },
  "0217": {
    "zip_code": "9280217",
    "prefecture": "石川県",
    "prefecture_kana": "イシカワケン",
    "prefecture_code": "17",
    "city": "輪島市",
    "city_kana": "ワジマシ",
    "town": "町野町井面",
    "town_kana": "マチノマチイノモテ",
    "street": null,
    "office_name": null,
    "office_name_kana": null
  },
  "0218": {
    "zip_code": "9280218",
    "prefecture": "石川県",
    "prefecture_kana": "イシカワケン",
    "prefecture_code": "17",
    "city": "輪島市",
    "city_kana": "ワジマシ",
    "town": "町野町鈴屋",
    "town_kana": "マチノマチスズヤ",
    "street": null,
    "office_name": null,
    "office_name_kana": null
  },
  "0221": {
    "zip_code": "9280221",
    "prefecture": "石川県",
    "prefecture_kana": "イシカワケン",
    "prefecture_code": "17",
    "city": "輪島市",
    "city_kana": "ワジマシ",
    "town": "町野町真久",
    "town_kana": "マチノマチサンサ",
    "street": null,
    "office_name": null,
    "office_name_kana": null
  },
  "0222": {
    "zip_code": "9280222",
    "prefecture": "石川県",
    "prefecture_kana": "イシカワケン",
    "prefecture_code": "17",
    "city": "輪島市",
    "city_kana": "ワジマシ",
    "town": "町野町東",
    "town_kana": "マチノマチヒガシ",
    "street": null,
    "office_name": null,
    "office_name_kana": null
  },
  "0223": {
    "zip_code": "9280223",
    "prefecture": "石川県",
    "prefecture_kana": "イシカワケン",
    "prefecture_code": "17",
    "city": "輪島市",
    "city_kana": "ワジマシ",
    "town": "町野町北円山",
    "town_kana": "マチノマチキタマルヤマ",
    "street": null,
    "office_name": null,
    "office_name_kana": null
  },
  "0224": {
    "zip_code": "9280224",
    "prefecture": "石川県",
    "prefecture_kana": "イシカワケン",
    "prefecture_code": "17",
    "city": "輪島市",
    "city_kana": "ワジマシ",
    "town": "町野町麦生野",
    "town_kana": "マチノマチムギュウノ",
    "street": null,
    "office_name": null,
    "office_name_kana": null
  },
  "0225": {
    "zip_code": "9280225",
    "prefecture": "石川県",
    "prefecture_kana": "イシカワケン",
    "prefecture_code": "17",
    "city": "輪島市",
    "city_kana": "ワジマシ",
    "town": "町野町徳成谷内",
    "town_kana": "マチノマチトクナリヤチ",
    "street": null,
    "office_name": null,
    "office_name_kana": null
  },
  "0226": {
    "zip_code": "9280226",
    "prefecture": "石川県",
    "prefecture_kana": "イシカワケン",
    "prefecture_code": "17",
    "city": "輪島市",
    "city_kana": "ワジマシ",
    "town": "町野町徳成",
    "town_kana": "マチノマチトクナリ",
    "street": null,
    "office_name": null,
    "office_name_kana": null
  },
  "0231": {
    "zip_code": "9280231",
    "prefecture": "石川県",
    "prefecture_kana": "イシカワケン",
    "prefecture_code": "17",
    "city": "輪島市",
    "city_kana": "ワジマシ",
    "town": "町野町大川",
    "town_kana": "マチノマチオオカワ",
    "street": null,
    "office_name": null,
    "office_name_kana": null
  },
  "0232": {
    "zip_code": "9280232",
    "prefecture": "石川県",
    "prefecture_kana": "イシカワケン",
    "prefecture_code": "17",
    "city": "輪島市",
    "city_kana": "ワジマシ",
    "town": "町野町伏戸",
    "town_kana": "マチノマチフセド",
    "street": null,
    "office_name": null,
    "office_name_kana": null
  },
  "0233": {
    "zip_code": "9280233",
    "prefecture": "石川県",
    "prefecture_kana": "イシカワケン",
    "prefecture_code": "17",
    "city": "輪島市",
    "city_kana": "ワジマシ",
    "town": "町野町東大野",
    "town_kana": "マチノマチヒガシオオノ",
    "street": null,
    "office_name": null,
    "office_name_kana": null
  },
  "0234": {
    "zip_code": "9280234",
    "prefecture": "石川県",
    "prefecture_kana": "イシカワケン",
    "prefecture_code": "17",
    "city": "輪島市",
    "city_kana": "ワジマシ",
    "town": "町野町真喜野",
    "town_kana": "マチノマチマキノ",
    "street": null,
    "office_name": null,
    "office_name_kana": null
  },
  "0235": {
    "zip_code": "9280235",
    "prefecture": "石川県",
    "prefecture_kana": "イシカワケン",
    "prefecture_code": "17",
    "city": "輪島市",
    "city_kana": "ワジマシ",
    "town": "町野町川西",
    "town_kana": "マチノマチカワニシ",
    "street": null,
    "office_name": null,
    "office_name_kana": null
  },
  "0236": {
    "zip_code": "9280236",
    "prefecture": "石川県",
    "prefecture_kana": "イシカワケン",
    "prefecture_code": "17",
    "city": "輪島市",
    "city_kana": "ワジマシ",
    "town": "町野町金蔵",
    "town_kana": "マチノマチカナクラ",
    "street": null,
    "office_name": null,
    "office_name_kana": null
  },
  "0241": {
    "zip_code": "9280241",
    "prefecture": "石川県",
    "prefecture_kana": "イシカワケン",
    "prefecture_code": "17",
    "city": "輪島市",
    "city_kana": "ワジマシ",
    "town": "渋田町",
    "town_kana": "シブタマチ",
    "street": null,
    "office_name": null,
    "office_name_kana": null
  },
  "0242": {
    "zip_code": "9280242",
    "prefecture": "石川県",
    "prefecture_kana": "イシカワケン",
    "prefecture_code": "17",
    "city": "輪島市",
    "city_kana": "ワジマシ",
    "town": "東印内町",
    "town_kana": "ヒガシインナイマチ",
    "street": null,
    "office_name": null,
    "office_name_kana": null
  },
  "0243": {
    "zip_code": "9280243",
    "prefecture": "石川県",
    "prefecture_kana": "イシカワケン",
    "prefecture_code": "17",
    "city": "輪島市",
    "city_kana": "ワジマシ",
    "town": "西山町",
    "town_kana": "ニシヤママチ",
    "street": null,
    "office_name": null,
    "office_name_kana": null
  },
  "0244": {
    "zip_code": "9280244",
    "prefecture": "石川県",
    "prefecture_kana": "イシカワケン",
    "prefecture_code": "17",
    "city": "輪島市",
    "city_kana": "ワジマシ",
    "town": "西院内町",
    "town_kana": "ニシインナイマチ",
    "street": null,
    "office_name": null,
    "office_name_kana": null
  },
  "0245": {
    "zip_code": "9280245",
    "prefecture": "石川県",
    "prefecture_kana": "イシカワケン",
    "prefecture_code": "17",
    "city": "輪島市",
    "city_kana": "ワジマシ",
    "town": "東山町",
    "town_kana": "ヒガシヤママチ",
    "street": null,
    "office_name": null,
    "office_name_kana": null
  },
  "0246": {
    "zip_code": "9280246",
    "prefecture": "石川県",
    "prefecture_kana": "イシカワケン",
    "prefecture_code": "17",
    "city": "輪島市",
    "city_kana": "ワジマシ",
    "town": "里町",
    "town_kana": "サトマチ",
    "street": null,
    "office_name": null,
    "office_name_kana": null
  },
  "0251": {
    "zip_code": "9280251",
    "prefecture": "石川県",
    "prefecture_kana": "イシカワケン",
    "prefecture_code": "17",
    "city": "輪島市",
    "city_kana": "ワジマシ",
    "town": "小田屋町",
    "town_kana": "オダヤマチ",
    "street": null,
    "office_name": null,
    "office_name_kana": null
  },
  "0252": {
    "zip_code": "9280252",
    "prefecture": "石川県",
    "prefecture_kana": "イシカワケン",
    "prefecture_code": "17",
    "city": "輪島市",
    "city_kana": "ワジマシ",
    "town": "忍町",
    "town_kana": "シノブマチ",
    "street": null,
    "office_name": null,
    "office_name_kana": null
  },
  "0253": {
    "zip_code": "9280253",
    "prefecture": "石川県",
    "prefecture_kana": "イシカワケン",
    "prefecture_code": "17",
    "city": "輪島市",
    "city_kana": "ワジマシ",
    "town": "尊利地町",
    "town_kana": "ソリジマチ",
    "street": null,
    "office_name": null,
    "office_name_kana": null
  },
  "0254": {
    "zip_code": "9280254",
    "prefecture": "石川県",
    "prefecture_kana": "イシカワケン",
    "prefecture_code": "17",
    "city": "輪島市",
    "city_kana": "ワジマシ",
    "town": "名舟町",
    "town_kana": "ナフネマチ",
    "street": null,
    "office_name": null,
    "office_name_kana": null
  },
  "0255": {
    "zip_code": "9280255",
    "prefecture": "石川県",
    "prefecture_kana": "イシカワケン",
    "prefecture_code": "17",
    "city": "輪島市",
    "city_kana": "ワジマシ",
    "town": "野田町",
    "town_kana": "ノダマチ",
    "street": null,
    "office_name": null,
    "office_name_kana": null
  },
  "0256": {
    "zip_code": "9280256",
    "prefecture": "石川県",
    "prefecture_kana": "イシカワケン",
    "prefecture_code": "17",
    "city": "輪島市",
    "city_kana": "ワジマシ",
    "town": "白米町",
    "town_kana": "シロヨネマチ",
    "street": null,
    "office_name": null,
    "office_name_kana": null
  },
  "0301": {
    "zip_code": "9280301",
    "prefecture": "石川県",
    "prefecture_kana": "イシカワケン",
    "prefecture_code": "17",
    "city": "鳳珠郡能登町",
    "city_kana": "ホウスグンノトチョウ",
    "town": "上長尾",
    "town_kana": "カミナガオ",
    "street": null,
    "office_name": null,
    "office_name_kana": null
  },
  "0302": {
    "zip_code": "9280302",
    "prefecture": "石川県",
    "prefecture_kana": "イシカワケン",
    "prefecture_code": "17",
    "city": "鳳珠郡能登町",
    "city_kana": "ホウスグンノトチョウ",
    "town": "小間生",
    "town_kana": "オモウ",
    "street": null,
    "office_name": null,
    "office_name_kana": null
  },
  "0303": {
    "zip_code": "9280303",
    "prefecture": "石川県",
    "prefecture_kana": "イシカワケン",
    "prefecture_code": "17",
    "city": "鳳珠郡能登町",
    "city_kana": "ホウスグンノトチョウ",
    "town": "桐畑",
    "town_kana": "キリハタ",
    "street": null,
    "office_name": null,
    "office_name_kana": null
  },
  "0304": {
    "zip_code": "9280304",
    "prefecture": "石川県",
    "prefecture_kana": "イシカワケン",
    "prefecture_code": "17",
    "city": "鳳珠郡能登町",
    "city_kana": "ホウスグンノトチョウ",
    "town": "鈴ケ嶺",
    "town_kana": "スズガミネ",
    "street": null,
    "office_name": null,
    "office_name_kana": null
  },
  "0305": {
    "zip_code": "9280305",
    "prefecture": "石川県",
    "prefecture_kana": "イシカワケン",
    "prefecture_code": "17",
    "city": "鳳珠郡能登町",
    "city_kana": "ホウスグンノトチョウ",
    "town": "久田",
    "town_kana": "キュウデン",
    "street": null,
    "office_name": null,
    "office_name_kana": null
  },
  "0306": {
    "zip_code": "9280306",
    "prefecture": "石川県",
    "prefecture_kana": "イシカワケン",
    "prefecture_code": "17",
    "city": "鳳珠郡能登町",
    "city_kana": "ホウスグンノトチョウ",
    "town": "石井",
    "town_kana": "イシイ",
    "street": null,
    "office_name": null,
    "office_name_kana": null
  },
  "0307": {
    "zip_code": "9280307",
    "prefecture": "石川県",
    "prefecture_kana": "イシカワケン",
    "prefecture_code": "17",
    "city": "鳳珠郡能登町",
    "city_kana": "ホウスグンノトチョウ",
    "town": "国光",
    "town_kana": "クニミツ",
    "street": null,
    "office_name": null,
    "office_name_kana": null
  },
  "0308": {
    "zip_code": "9280308",
    "prefecture": "石川県",
    "prefecture_kana": "イシカワケン",
    "prefecture_code": "17",
    "city": "鳳珠郡能登町",
    "city_kana": "ホウスグンノトチョウ",
    "town": "鴨川",
    "town_kana": "カモガワ",
    "street": null,
    "office_name": null,
    "office_name_kana": null
  },
  "0311": {
    "zip_code": "9280311",
    "prefecture": "石川県",
    "prefecture_kana": "イシカワケン",
    "prefecture_code": "17",
    "city": "鳳珠郡能登町",
    "city_kana": "ホウスグンノトチョウ",
    "town": "合鹿",
    "town_kana": "ゴウロク",
    "street": null,
    "office_name": null,
    "office_name_kana": null
  },
  "0312": {
    "zip_code": "9280312",
    "prefecture": "石川県",
    "prefecture_kana": "イシカワケン",
    "prefecture_code": "17",
    "city": "鳳珠郡能登町",
    "city_kana": "ホウスグンノトチョウ",
    "town": "上町",
    "town_kana": "カンマチ",
    "street": null,
    "office_name": null,
    "office_name_kana": null
  },
  "0313": {
    "zip_code": "9280313",
    "prefecture": "石川県",
    "prefecture_kana": "イシカワケン",
    "prefecture_code": "17",
    "city": "鳳珠郡能登町",
    "city_kana": "ホウスグンノトチョウ",
    "town": "天坂",
    "town_kana": "テンザカ",
    "street": null,
    "office_name": null,
    "office_name_kana": null
  },
  "0314": {
    "zip_code": "9280314",
    "prefecture": "石川県",
    "prefecture_kana": "イシカワケン",
    "prefecture_code": "17",
    "city": "鳳珠郡能登町",
    "city_kana": "ホウスグンノトチョウ",
    "town": "笹川",
    "town_kana": "ササガワ",
    "street": null,
    "office_name": null,
    "office_name_kana": null
  },
  "0321": {
    "zip_code": "9280321",
    "prefecture": "石川県",
    "prefecture_kana": "イシカワケン",
    "prefecture_code": "17",
    "city": "鳳珠郡能登町",
    "city_kana": "ホウスグンノトチョウ",
    "town": "十郎原",
    "town_kana": "ジュウロバラ",
    "street": null,
    "office_name": null,
    "office_name_kana": null
  },
  "0322": {
    "zip_code": "9280322",
    "prefecture": "石川県",
    "prefecture_kana": "イシカワケン",
    "prefecture_code": "17",
    "city": "鳳珠郡能登町",
    "city_kana": "ホウスグンノトチョウ",
    "town": "寺分",
    "town_kana": "テラブン",
    "street": null,
    "office_name": null,
    "office_name_kana": null
  },
  "0323": {
    "zip_code": "9280323",
    "prefecture": "石川県",
    "prefecture_kana": "イシカワケン",
    "prefecture_code": "17",
    "city": "鳳珠郡能登町",
    "city_kana": "ホウスグンノトチョウ",
    "town": "五郎左エ門分",
    "town_kana": "ゴロザエモンブン",
    "street": null,
    "office_name": null,
    "office_name_kana": null
  },
  "0324": {
    "zip_code": "9280324",
    "prefecture": "石川県",
    "prefecture_kana": "イシカワケン",
    "prefecture_code": "17",
    "city": "鳳珠郡能登町",
    "city_kana": "ホウスグンノトチョウ",
    "town": "中斉",
    "town_kana": "ナカサイ",
    "street": null,
    "office_name": null,
    "office_name_kana": null
  },
  "0325": {
    "zip_code": "9280325",
    "prefecture": "石川県",
    "prefecture_kana": "イシカワケン",
    "prefecture_code": "17",
    "city": "鳳珠郡能登町",
    "city_kana": "ホウスグンノトチョウ",
    "town": "神和住",
    "town_kana": "カミワスミ",
    "street": null,
    "office_name": null,
    "office_name_kana": null
  },
  "0326": {
    "zip_code": "9280326",
    "prefecture": "石川県",
    "prefecture_kana": "イシカワケン",
    "prefecture_code": "17",
    "city": "鳳珠郡能登町",
    "city_kana": "ホウスグンノトチョウ",
    "town": "斉和",
    "town_kana": "サイワ",
    "street": null,
    "office_name": null,
    "office_name_kana": null
  },
  "0331": {
    "zip_code": "9280331",
    "prefecture": "石川県",
    "prefecture_kana": "イシカワケン",
    "prefecture_code": "17",
    "city": "鳳珠郡能登町",
    "city_kana": "ホウスグンノトチョウ",
    "town": "柳田",
    "town_kana": "ヤナギダ",
    "street": null,
    "office_name": null,
    "office_name_kana": null
  },
  "0332": {
    "zip_code": "9280332",
    "prefecture": "石川県",
    "prefecture_kana": "イシカワケン",
    "prefecture_code": "17",
    "city": "鳳珠郡能登町",
    "city_kana": "ホウスグンノトチョウ",
    "town": "五十里",
    "town_kana": "イカリ",
    "street": null,
    "office_name": null,
    "office_name_kana": null
  },
  "0333": {
    "zip_code": "9280333",
    "prefecture": "石川県",
    "prefecture_kana": "イシカワケン",
    "prefecture_code": "17",
    "city": "鳳珠郡能登町",
    "city_kana": "ホウスグンノトチョウ",
    "town": "黒川",
    "town_kana": "クロカワ",
    "street": null,
    "office_name": null,
    "office_name_kana": null
  },
  "0334": {
    "zip_code": "9280334",
    "prefecture": "石川県",
    "prefecture_kana": "イシカワケン",
    "prefecture_code": "17",
    "city": "鳳珠郡能登町",
    "city_kana": "ホウスグンノトチョウ",
    "town": "当目",
    "town_kana": "トウメ",
    "street": null,
    "office_name": null,
    "office_name_kana": null
  },
  "0335": {
    "zip_code": "9280335",
    "prefecture": "石川県",
    "prefecture_kana": "イシカワケン",
    "prefecture_code": "17",
    "city": "鳳珠郡能登町",
    "city_kana": "ホウスグンノトチョウ",
    "town": "大箱",
    "town_kana": "オオバコ",
    "street": null,
    "office_name": null,
    "office_name_kana": null
  },
  "0336": {
    "zip_code": "9280336",
    "prefecture": "石川県",
    "prefecture_kana": "イシカワケン",
    "prefecture_code": "17",
    "city": "鳳珠郡能登町",
    "city_kana": "ホウスグンノトチョウ",
    "town": "北河内",
    "town_kana": "キタカワチ",
    "street": null,
    "office_name": null,
    "office_name_kana": null
  },
  "0392": {
    "zip_code": "9280392",
    "prefecture": "石川県",
    "prefecture_kana": null,
    "prefecture_code": null,
    "city": "鳳珠郡能登町",
    "city_kana": null,
    "town": "字柳田",
    "town_kana": null,
    "street": "仁部５４",
    "office_name": "能登町役場　柳田庁舎",
    "office_name_kana": "ノトチヨウヤクバ ヤナギダチヨウシヤ"
  },
  "0393": {
    "zip_code": "9280393",
    "prefecture": "石川県",
    "prefecture_kana": null,
    "prefecture_code": null,
    "city": "鳳珠郡能登町",
    "city_kana": null,
    "town": "字上町",
    "town_kana": null,
    "street": "８字３９３",
    "office_name": "柳田温泉病院",
    "office_name_kana": "ヤナギダオンセンビヨウイン"
  },
  "0395": {
    "zip_code": "9280395",
    "prefecture": "石川県",
    "prefecture_kana": null,
    "prefecture_code": null,
    "city": "鳳珠郡能登町",
    "city_kana": null,
    "town": "字五郎左エ門分",
    "town_kana": null,
    "street": "藤１７",
    "office_name": "社会福祉法人　清祥会　特別養護老人ホーム　こすもす",
    "office_name_kana": "シヤカイフクシホウジン セイシヨウカイ トクベツヨウゴロウジンホ-ム コスモス"
  },
  "8501": {
    "zip_code": "9288501",
    "prefecture": "石川県",
    "prefecture_kana": "イシカワケン",
    "prefecture_code": "17",
    "city": "輪島市",
    "city_kana": "ワジマシ",
    "town": "河井町",
    "town_kana": "カワイマチ",
    "street": "１５部９０−１６",
    "office_name": "輪島税務署",
    "office_name_kana": "ワジマゼイムシヨ"
  },
  "8502": {
    "zip_code": "9288502",
    "prefecture": "石川県",
    "prefecture_kana": "イシカワケン",
    "prefecture_code": "17",
    "city": "輪島市",
    "city_kana": "ワジマシ",
    "town": "河井町",
    "town_kana": "カワイマチ",
    "street": "１０部２９−７",
    "office_name": "航空自衛隊　第２３警戒群",
    "office_name_kana": "コウクウジエイタイ ダイニジユウサンケイカイグン"
  },
  "8525": {
    "zip_code": "9288525",
    "prefecture": "石川県",
    "prefecture_kana": "イシカワケン",
    "prefecture_code": "17",
    "city": "輪島市",
    "city_kana": "ワジマシ",
    "town": "二ツ屋町",
    "town_kana": "フタツヤマチ",
    "street": "２字２９",
    "office_name": "輪島市役所",
    "office_name_kana": "ワジマシヤクシヨ"
  },
  "8541": [
    {
      "zip_code": "9288541",
      "prefecture": "石川県",
      "prefecture_kana": "イシカワケン",
      "prefecture_code": "17",
      "city": "輪島市",
      "city_kana": "ワジマシ",
      "town": "河井町",
      "town_kana": "カワイマチ",
      "street": "１５部４９−２",
      "office_name": "金沢家庭裁判所　輪島支部",
      "office_name_kana": "カナザワカテイサイバンシヨ ワジマシブ"
    },
    {
      "zip_code": "9288541",
      "prefecture": "石川県",
      "prefecture_kana": "イシカワケン",
      "prefecture_code": "17",
      "city": "輪島市",
      "city_kana": "ワジマシ",
      "town": "河井町",
      "town_kana": "カワイマチ",
      "street": "１５部４９−２",
      "office_name": "金沢地方裁判所　輪島支部",
      "office_name_kana": "カナザワチホウサイバンシヨ ワジマシブ"
    }
  ],
  "8585": {
    "zip_code": "9288585",
    "prefecture": "石川県",
    "prefecture_kana": "イシカワケン",
    "prefecture_code": "17",
    "city": "輪島市",
    "city_kana": "ワジマシ",
    "town": "山岸町",
    "town_kana": "ヤマギシマチ",
    "street": "は１番１地",
    "office_name": "市立輪島病院",
    "office_name_kana": "シリツワジマビヨウイン"
  },
  "8609": {
    "zip_code": "9288609",
    "prefecture": "石川県",
    "prefecture_kana": "イシカワケン",
    "prefecture_code": "17",
    "city": "輪島市",
    "city_kana": "ワジマシ",
    "town": "鳳至町",
    "town_kana": "フゲシマチ",
    "street": "畠田９９−３",
    "office_name": "穴水公共職業安定所　輪島出張所（ハローワーク輪島）",
    "office_name_kana": "アナミズコウキヨウシヨクギヨウアンテイシヨ ワジマシユツチヨウシヨ(ハロ-ワ-クワジマ)"
  }
}