{
  "0101": {
    "zip_code": "9290101",
    "prefecture": "石川県",
    "prefecture_kana": "イシカワケン",
    "prefecture_code": 17,
    "city": "能美市",
    "city_kana": "ノミシ",
    "town": "赤井町",
    "town_kana": "アカイマチ",
    "street": null,
    "office_name": null,
    "office_name_kana": null
  },
  "0102": {
    "zip_code": "9290102",
    "prefecture": "石川県",
    "prefecture_kana": "イシカワケン",
    "prefecture_code": 17,
    "city": "能美市",
    "city_kana": "ノミシ",
    "town": "西任田町",
    "town_kana": "ニシトウダマチ",
    "street": null,
    "office_name": null,
    "office_name_kana": null
  },
  "0103": {
    "zip_code": "9290103",
    "prefecture": "石川県",
    "prefecture_kana": "イシカワケン",
    "prefecture_code": 17,
    "city": "能美市",
    "city_kana": "ノミシ",
    "town": "五間堂町",
    "town_kana": "ゴケンドウマチ",
    "street": null,
    "office_name": null,
    "office_name_kana": null
  },
  "0104": {
    "zip_code": "9290104",
    "prefecture": "石川県",
    "prefecture_kana": "イシカワケン",
    "prefecture_code": 17,
    "city": "能美市",
    "city_kana": "ノミシ",
    "town": "中庄町",
    "town_kana": "ナカノショウマチ",
    "street": null,
    "office_name": null,
    "office_name_kana": null
  },
  "0105": {
    "zip_code": "9290105",
    "prefecture": "石川県",
    "prefecture_kana": "イシカワケン",
    "prefecture_code": 17,
    "city": "能美市",
    "city_kana": "ノミシ",
    "town": "中ノ江町",
    "town_kana": "ナカノゴウマチ",
    "street": null,
    "office_name": null,
    "office_name_kana": null
  },
  "0106": {
    "zip_code": "9290106",
    "prefecture": "石川県",
    "prefecture_kana": "イシカワケン",
    "prefecture_code": 17,
    "city": "能美市",
    "city_kana": "ノミシ",
    "town": "西二口町",
    "town_kana": "ニシフタクチマチ",
    "street": null,
    "office_name": null,
    "office_name_kana": null
  },
  "0107": {
    "zip_code": "9290107",
    "prefecture": "石川県",
    "prefecture_kana": "イシカワケン",
    "prefecture_code": 17,
    "city": "能美市",
    "city_kana": "ノミシ",
    "town": "福岡町",
    "town_kana": "フクオカマチ",
    "street": null,
    "office_name": null,
    "office_name_kana": null
  },
  "0108": {
    "zip_code": "9290108",
    "prefecture": "石川県",
    "prefecture_kana": "イシカワケン",
    "prefecture_code": 17,
    "city": "能美市",
    "city_kana": "ノミシ",
    "town": "能美",
    "town_kana": "ノミ",
    "street": null,
    "office_name": null,
    "office_name_kana": null
  },
  "0111": {
    "zip_code": "9290111",
    "prefecture": "石川県",
    "prefecture_kana": "イシカワケン",
    "prefecture_code": 17,
    "city": "能美市",
    "city_kana": "ノミシ",
    "town": "吉原町",
    "town_kana": "ヨシハラマチ",
    "street": null,
    "office_name": null,
    "office_name_kana": null
  },
  "0112": {
    "zip_code": "9290112",
    "prefecture": "石川県",
    "prefecture_kana": "イシカワケン",
    "prefecture_code": 17,
    "city": "能美市",
    "city_kana": "ノミシ",
    "town": "福島町",
    "town_kana": "フクシママチ",
    "street": null,
    "office_name": null,
    "office_name_kana": null
  },
  "0113": {
    "zip_code": "9290113",
    "prefecture": "石川県",
    "prefecture_kana": "イシカワケン",
    "prefecture_code": 17,
    "city": "能美市",
    "city_kana": "ノミシ",
    "town": "大成町",
    "town_kana": "タイセイマチ",
    "street": null,
    "office_name": null,
    "office_name_kana": null
  },
  "0114": {
    "zip_code": "9290114",
    "prefecture": "石川県",
    "prefecture_kana": "イシカワケン",
    "prefecture_code": 17,
    "city": "能美市",
    "city_kana": "ノミシ",
    "town": "浜開発町",
    "town_kana": "ハマカイハツマチ",
    "street": null,
    "office_name": null,
    "office_name_kana": null
  },
  "0115": {
    "zip_code": "9290115",
    "prefecture": "石川県",
    "prefecture_kana": "イシカワケン",
    "prefecture_code": 17,
    "city": "能美市",
    "city_kana": "ノミシ",
    "town": "下ノ江町",
    "town_kana": "シモノゴウマチ",
    "street": null,
    "office_name": null,
    "office_name_kana": null
  },
  "0116": [
    {
      "zip_code": "9290116",
      "prefecture": "石川県",
      "prefecture_kana": "イシカワケン",
      "prefecture_code": 17,
      "city": "能美市",
      "city_kana": "ノミシ",
      "town": "高坂町",
      "town_kana": "タカサカマチ",
      "street": null,
      "office_name": null,
      "office_name_kana": null
    },
    {
      "zip_code": "9290116",
      "prefecture": "石川県",
      "prefecture_kana": "イシカワケン",
      "prefecture_code": 17,
      "city": "能美市",
      "city_kana": "ノミシ",
      "town": "根上町",
      "town_kana": "ネアガリマチ",
      "street": null,
      "office_name": null,
      "office_name_kana": null
    }
  ],
  "0121": {
    "zip_code": "9290121",
    "prefecture": "石川県",
    "prefecture_kana": "イシカワケン",
    "prefecture_code": 17,
    "city": "能美市",
    "city_kana": "ノミシ",
    "town": "吉原釜屋町",
    "town_kana": "ヨシハラガマヤマチ",
    "street": null,
    "office_name": null,
    "office_name_kana": null
  },
  "0122": {
    "zip_code": "9290122",
    "prefecture": "石川県",
    "prefecture_kana": "イシカワケン",
    "prefecture_code": 17,
    "city": "能美市",
    "city_kana": "ノミシ",
    "town": "大浜町",
    "town_kana": "オオハママチ",
    "street": null,
    "office_name": null,
    "office_name_kana": null
  },
  "0123": {
    "zip_code": "9290123",
    "prefecture": "石川県",
    "prefecture_kana": "イシカワケン",
    "prefecture_code": 17,
    "city": "能美市",
    "city_kana": "ノミシ",
    "town": "中町",
    "town_kana": "ナカマチ",
    "street": null,
    "office_name": null,
    "office_name_kana": null
  },
  "0124": {
    "zip_code": "9290124",
    "prefecture": "石川県",
    "prefecture_kana": "イシカワケン",
    "prefecture_code": 17,
    "city": "能美市",
    "city_kana": "ノミシ",
    "town": "浜町",
    "town_kana": "ハママチ",
    "street": null,
    "office_name": null,
    "office_name_kana": null
  },
  "0125": {
    "zip_code": "9290125",
    "prefecture": "石川県",
    "prefecture_kana": "イシカワケン",
    "prefecture_code": 17,
    "city": "能美市",
    "city_kana": "ノミシ",
    "town": "道林町",
    "town_kana": "ドウリンマチ",
    "street": null,
    "office_name": null,
    "office_name_kana": null
  },
  "0126": {
    "zip_code": "9290126",
    "prefecture": "石川県",
    "prefecture_kana": "イシカワケン",
    "prefecture_code": 17,
    "city": "能美市",
    "city_kana": "ノミシ",
    "town": "山口町",
    "town_kana": "ヤマグチマチ",
    "street": null,
    "office_name": null,
    "office_name_kana": null
  },
  "0192": {
    "zip_code": "9290192",
    "prefecture": "石川県",
    "prefecture_kana": "イシカワケン",
    "prefecture_code": 17,
    "city": "能美市",
    "city_kana": "ノミシ",
    "town": "中町",
    "town_kana": "ナカマチ",
    "street": "子８８番地",
    "office_name": "能美市役所　根上庁舎",
    "office_name_kana": "ノミシヤクシヨ ネアガリチヨウシヤ"
  },
  "0193": {
    "zip_code": "9290193",
    "prefecture": "石川県",
    "prefecture_kana": "イシカワケン",
    "prefecture_code": 17,
    "city": "能美市",
    "city_kana": "ノミシ",
    "town": "赤井町",
    "town_kana": "アカイマチ",
    "street": "は８６",
    "office_name": "デクセリアルズ　株式会社　根上事業所",
    "office_name_kana": "デクセリアルズ カブシキガイシヤ ネアガリジギヨウシヨ"
  },
  "0198": {
    "zip_code": "9290198",
    "prefecture": "石川県",
    "prefecture_kana": "イシカワケン",
    "prefecture_code": 17,
    "city": "能美市",
    "city_kana": "ノミシ",
    "town": "大浜町",
    "town_kana": "オオハママチ",
    "street": "ヤ２５番地",
    "office_name": "株式会社　富士精工本社",
    "office_name_kana": "カブシキガイシヤ フジセイコウホンシヤ"
  },
  "0201": {
    "zip_code": "9290201",
    "prefecture": "石川県",
    "prefecture_kana": "イシカワケン",
    "prefecture_code": 17,
    "city": "白山市",
    "city_kana": "ハクサンシ",
    "town": "鹿島町",
    "town_kana": "カシママチ",
    "street": null,
    "office_name": null,
    "office_name_kana": null
  },
  "0202": {
    "zip_code": "9290202",
    "prefecture": "石川県",
    "prefecture_kana": "イシカワケン",
    "prefecture_code": 17,
    "city": "白山市",
    "city_kana": "ハクサンシ",
    "town": "西米光町",
    "town_kana": "ニシヨネミツマチ",
    "street": null,
    "office_name": null,
    "office_name_kana": null
  },
  "0203": {
    "zip_code": "9290203",
    "prefecture": "石川県",
    "prefecture_kana": "イシカワケン",
    "prefecture_code": 17,
    "city": "白山市",
    "city_kana": "ハクサンシ",
    "town": "若草町",
    "town_kana": "ワカクサマチ",
    "street": null,
    "office_name": null,
    "office_name_kana": null
  },
  "0204": {
    "zip_code": "9290204",
    "prefecture": "石川県",
    "prefecture_kana": "イシカワケン",
    "prefecture_code": 17,
    "city": "白山市",
    "city_kana": "ハクサンシ",
    "town": "平加町",
    "town_kana": "ヒラカマチ",
    "street": null,
    "office_name": null,
    "office_name_kana": null
  },
  "0205": {
    "zip_code": "9290205",
    "prefecture": "石川県",
    "prefecture_kana": "イシカワケン",
    "prefecture_code": 17,
    "city": "白山市",
    "city_kana": "ハクサンシ",
    "town": "蓮池町",
    "town_kana": "ハスイケマチ",
    "street": null,
    "office_name": null,
    "office_name_kana": null
  },
  "0206": {
    "zip_code": "9290206",
    "prefecture": "石川県",
    "prefecture_kana": "イシカワケン",
    "prefecture_code": 17,
    "city": "白山市",
    "city_kana": "ハクサンシ",
    "town": "鹿島平",
    "town_kana": "カシマダイラ",
    "street": null,
    "office_name": null,
    "office_name_kana": null
  },
  "0211": {
    "zip_code": "9290211",
    "prefecture": "石川県",
    "prefecture_kana": "イシカワケン",
    "prefecture_code": 17,
    "city": "白山市",
    "city_kana": "ハクサンシ",
    "town": "井関町",
    "town_kana": "イセキマチ",
    "street": null,
    "office_name": null,
    "office_name_kana": null
  },
  "0212": {
    "zip_code": "9290212",
    "prefecture": "石川県",
    "prefecture_kana": "イシカワケン",
    "prefecture_code": 17,
    "city": "白山市",
    "city_kana": "ハクサンシ",
    "town": "手取町",
    "town_kana": "テドリマチ",
    "street": null,
    "office_name": null,
    "office_name_kana": null
  },
  "0213": {
    "zip_code": "9290213",
    "prefecture": "石川県",
    "prefecture_kana": "イシカワケン",
    "prefecture_code": 17,
    "city": "白山市",
    "city_kana": "ハクサンシ",
    "town": "末正町",
    "town_kana": "スエマサマチ",
    "street": null,
    "office_name": null,
    "office_name_kana": null
  },
  "0214": {
    "zip_code": "9290214",
    "prefecture": "石川県",
    "prefecture_kana": "イシカワケン",
    "prefecture_code": 17,
    "city": "白山市",
    "city_kana": "ハクサンシ",
    "town": "長屋町",
    "town_kana": "チョウヤマチ",
    "street": null,
    "office_name": null,
    "office_name_kana": null
  },
  "0215": {
    "zip_code": "9290215",
    "prefecture": "石川県",
    "prefecture_kana": "イシカワケン",
    "prefecture_code": 17,
    "city": "白山市",
    "city_kana": "ハクサンシ",
    "town": "美川南町",
    "town_kana": "ミカワミナミマチ",
    "street": null,
    "office_name": null,
    "office_name_kana": null
  },
  "0216": {
    "zip_code": "9290216",
    "prefecture": "石川県",
    "prefecture_kana": "イシカワケン",
    "prefecture_code": 17,
    "city": "白山市",
    "city_kana": "ハクサンシ",
    "town": "美川本吉町",
    "town_kana": "ミカワモトヨシマチ",
    "street": null,
    "office_name": null,
    "office_name_kana": null
  },
  "0217": {
    "zip_code": "9290217",
    "prefecture": "石川県",
    "prefecture_kana": "イシカワケン",
    "prefecture_code": 17,
    "city": "白山市",
    "city_kana": "ハクサンシ",
    "town": "湊町",
    "town_kana": "ミナトマチ",
    "street": null,
    "office_name": null,
    "office_name_kana": null
  },
  "0221": {
    "zip_code": "9290221",
    "prefecture": "石川県",
    "prefecture_kana": "イシカワケン",
    "prefecture_code": 17,
    "city": "白山市",
    "city_kana": "ハクサンシ",
    "town": "美川今町",
    "town_kana": "ミカワイママチ",
    "street": null,
    "office_name": null,
    "office_name_kana": null
  },
  "0222": {
    "zip_code": "9290222",
    "prefecture": "石川県",
    "prefecture_kana": "イシカワケン",
    "prefecture_code": 17,
    "city": "白山市",
    "city_kana": "ハクサンシ",
    "town": "美川新町",
    "town_kana": "ミカワシンマチ",
    "street": null,
    "office_name": null,
    "office_name_kana": null
  },
  "0223": {
    "zip_code": "9290223",
    "prefecture": "石川県",
    "prefecture_kana": "イシカワケン",
    "prefecture_code": 17,
    "city": "白山市",
    "city_kana": "ハクサンシ",
    "town": "美川北町",
    "town_kana": "ミカワキタマチ",
    "street": null,
    "office_name": null,
    "office_name_kana": null
  },
  "0224": {
    "zip_code": "9290224",
    "prefecture": "石川県",
    "prefecture_kana": "イシカワケン",
    "prefecture_code": 17,
    "city": "白山市",
    "city_kana": "ハクサンシ",
    "town": "美川中町",
    "town_kana": "ミカワナカマチ",
    "street": null,
    "office_name": null,
    "office_name_kana": null
  },
  "0231": {
    "zip_code": "9290231",
    "prefecture": "石川県",
    "prefecture_kana": "イシカワケン",
    "prefecture_code": 17,
    "city": "白山市",
    "city_kana": "ハクサンシ",
    "town": "美川和波町",
    "town_kana": "ミカワワナミマチ",
    "street": null,
    "office_name": null,
    "office_name_kana": null
  },
  "0232": {
    "zip_code": "9290232",
    "prefecture": "石川県",
    "prefecture_kana": "イシカワケン",
    "prefecture_code": 17,
    "city": "白山市",
    "city_kana": "ハクサンシ",
    "town": "美川末広町",
    "town_kana": "ミカワスエヒロマチ",
    "street": null,
    "office_name": null,
    "office_name_kana": null
  },
  "0233": {
    "zip_code": "9290233",
    "prefecture": "石川県",
    "prefecture_kana": "イシカワケン",
    "prefecture_code": 17,
    "city": "白山市",
    "city_kana": "ハクサンシ",
    "town": "美川浜町",
    "town_kana": "ミカワハママチ",
    "street": null,
    "office_name": null,
    "office_name_kana": null
  },
  "0234": {
    "zip_code": "9290234",
    "prefecture": "石川県",
    "prefecture_kana": "イシカワケン",
    "prefecture_code": 17,
    "city": "白山市",
    "city_kana": "ハクサンシ",
    "town": "美川神幸町",
    "town_kana": "ミカワジンコウマチ",
    "street": null,
    "office_name": null,
    "office_name_kana": null
  },
  "0235": {
    "zip_code": "9290235",
    "prefecture": "石川県",
    "prefecture_kana": "イシカワケン",
    "prefecture_code": 17,
    "city": "白山市",
    "city_kana": "ハクサンシ",
    "town": "美川永代町",
    "town_kana": "ミカワエイタイマチ",
    "street": null,
    "office_name": null,
    "office_name_kana": null
  },
  "0292": {
    "zip_code": "9290292",
    "prefecture": "石川県",
    "prefecture_kana": "イシカワケン",
    "prefecture_code": 17,
    "city": "白山市",
    "city_kana": "ハクサンシ",
    "town": "美川浜町",
    "town_kana": "ミカワハママチ",
    "street": "ヨ１０３",
    "office_name": "白山市美川支所",
    "office_name_kana": "ハクサンシミカワシシヨ"
  },
  "0296": {
    "zip_code": "9290296",
    "prefecture": "石川県",
    "prefecture_kana": "イシカワケン",
    "prefecture_code": 17,
    "city": "白山市",
    "city_kana": "ハクサンシ",
    "town": "湊町",
    "town_kana": "ミナトマチ",
    "street": "ソ６４−２",
    "office_name": "ＤＩＣ　株式会社　北陸工場",
    "office_name_kana": "デイ-アイシ- カブシキガイシヤ ホクリクコウジヨウ"
  },
  "0300": {
    "zip_code": "9290300",
    "prefecture": "石川県",
    "prefecture_kana": "イシカワケン",
    "prefecture_code": 17,
    "city": "河北郡津幡町",
    "city_kana": "カホクグンツバタマチ",
    "town": "",
    "town_kana": "",
    "street": null,
    "office_name": null,
    "office_name_kana": null
  },
  "0301": {
    "zip_code": "9290301",
    "prefecture": "石川県",
    "prefecture_kana": "イシカワケン",
    "prefecture_code": 17,
    "city": "河北郡津幡町",
    "city_kana": "カホクグンツバタマチ",
    "town": "瓜生",
    "town_kana": "ウリュウ",
    "street": null,
    "office_name": null,
    "office_name_kana": null
  },
  "0302": {
    "zip_code": "9290302",
    "prefecture": "石川県",
    "prefecture_kana": "イシカワケン",
    "prefecture_code": 17,
    "city": "河北郡津幡町",
    "city_kana": "カホクグンツバタマチ",
    "town": "木ノ窪",
    "town_kana": "キノクボ",
    "street": null,
    "office_name": null,
    "office_name_kana": null
  },
  "0303": {
    "zip_code": "9290303",
    "prefecture": "石川県",
    "prefecture_kana": "イシカワケン",
    "prefecture_code": 17,
    "city": "河北郡津幡町",
    "city_kana": "カホクグンツバタマチ",
    "town": "牛首",
    "town_kana": "ウシクビ",
    "street": null,
    "office_name": null,
    "office_name_kana": null
  },
  "0304": {
    "zip_code": "9290304",
    "prefecture": "石川県",
    "prefecture_kana": "イシカワケン",
    "prefecture_code": 17,
    "city": "河北郡津幡町",
    "city_kana": "カホクグンツバタマチ",
    "town": "上河合",
    "town_kana": "カミカワイ",
    "street": null,
    "office_name": null,
    "office_name_kana": null
  },
  "0305": {
    "zip_code": "9290305",
    "prefecture": "石川県",
    "prefecture_kana": "イシカワケン",
    "prefecture_code": 17,
    "city": "河北郡津幡町",
    "city_kana": "カホクグンツバタマチ",
    "town": "下河合",
    "town_kana": "シモカワイ",
    "street": null,
    "office_name": null,
    "office_name_kana": null
  },
  "0306": {
    "zip_code": "9290306",
    "prefecture": "石川県",
    "prefecture_kana": "イシカワケン",
    "prefecture_code": 17,
    "city": "河北郡津幡町",
    "city_kana": "カホクグンツバタマチ",
    "town": "興津",
    "town_kana": "キョウヅ",
    "street": null,
    "office_name": null,
    "office_name_kana": null
  },
  "0307": [
    {
      "zip_code": "9290307",
      "prefecture": "石川県",
      "prefecture_kana": "イシカワケン",
      "prefecture_code": 17,
      "city": "河北郡津幡町",
      "city_kana": "カホクグンツバタマチ",
      "town": "種",
      "town_kana": "タネ",
      "street": null,
      "office_name": null,
      "office_name_kana": null
    },
    {
      "zip_code": "9290307",
      "prefecture": "石川県",
      "prefecture_kana": "イシカワケン",
      "prefecture_code": 17,
      "city": "河北郡津幡町",
      "city_kana": "カホクグンツバタマチ",
      "town": "平野",
      "town_kana": "ヒラノ",
      "street": null,
      "office_name": null,
      "office_name_kana": null
    }
  ],
  "0308": {
    "zip_code": "9290308",
    "prefecture": "石川県",
    "prefecture_kana": "イシカワケン",
    "prefecture_code": 17,
    "city": "河北郡津幡町",
    "city_kana": "カホクグンツバタマチ",
    "town": "菩提寺",
    "town_kana": "ボダイジ",
    "street": null,
    "office_name": null,
    "office_name_kana": null
  },
  "0309": {
    "zip_code": "9290309",
    "prefecture": "石川県",
    "prefecture_kana": "イシカワケン",
    "prefecture_code": 17,
    "city": "河北郡津幡町",
    "city_kana": "カホクグンツバタマチ",
    "town": "上大田",
    "town_kana": "カミオオタ",
    "street": null,
    "office_name": null,
    "office_name_kana": null
  },
  "0311": {
    "zip_code": "9290311",
    "prefecture": "石川県",
    "prefecture_kana": "イシカワケン",
    "prefecture_code": 17,
    "city": "河北郡津幡町",
    "city_kana": "カホクグンツバタマチ",
    "town": "池ケ原",
    "town_kana": "イケガハラ",
    "street": null,
    "office_name": null,
    "office_name_kana": null
  },
  "0312": {
    "zip_code": "9290312",
    "prefecture": "石川県",
    "prefecture_kana": "イシカワケン",
    "prefecture_code": 17,
    "city": "河北郡津幡町",
    "city_kana": "カホクグンツバタマチ",
    "town": "小熊",
    "town_kana": "コンマ",
    "street": null,
    "office_name": null,
    "office_name_kana": null
  },
  "0313": {
    "zip_code": "9290313",
    "prefecture": "石川県",
    "prefecture_kana": "イシカワケン",
    "prefecture_code": 17,
    "city": "河北郡津幡町",
    "city_kana": "カホクグンツバタマチ",
    "town": "中山",
    "town_kana": "ナカヤマ",
    "street": null,
    "office_name": null,
    "office_name_kana": null
  },
  "0314": {
    "zip_code": "9290314",
    "prefecture": "石川県",
    "prefecture_kana": "イシカワケン",
    "prefecture_code": 17,
    "city": "河北郡津幡町",
    "city_kana": "カホクグンツバタマチ",
    "town": "上矢田",
    "town_kana": "カミヤタ",
    "street": null,
    "office_name": null,
    "office_name_kana": null
  },
  "0315": {
    "zip_code": "9290315",
    "prefecture": "石川県",
    "prefecture_kana": "イシカワケン",
    "prefecture_code": 17,
    "city": "河北郡津幡町",
    "city_kana": "カホクグンツバタマチ",
    "town": "下矢田",
    "town_kana": "シモヤタ",
    "street": null,
    "office_name": null,
    "office_name_kana": null
  },
  "0316": {
    "zip_code": "9290316",
    "prefecture": "石川県",
    "prefecture_kana": "イシカワケン",
    "prefecture_code": 17,
    "city": "河北郡津幡町",
    "city_kana": "カホクグンツバタマチ",
    "town": "御門",
    "town_kana": "ミカド",
    "street": null,
    "office_name": null,
    "office_name_kana": null
  },
  "0317": {
    "zip_code": "9290317",
    "prefecture": "石川県",
    "prefecture_kana": "イシカワケン",
    "prefecture_code": 17,
    "city": "河北郡津幡町",
    "city_kana": "カホクグンツバタマチ",
    "town": "谷内",
    "town_kana": "ヤチ",
    "street": null,
    "office_name": null,
    "office_name_kana": null
  },
  "0318": {
    "zip_code": "9290318",
    "prefecture": "石川県",
    "prefecture_kana": "イシカワケン",
    "prefecture_code": 17,
    "city": "河北郡津幡町",
    "city_kana": "カホクグンツバタマチ",
    "town": "領家",
    "town_kana": "リョウケ",
    "street": null,
    "office_name": null,
    "office_name_kana": null
  },
  "0319": {
    "zip_code": "9290319",
    "prefecture": "石川県",
    "prefecture_kana": "イシカワケン",
    "prefecture_code": 17,
    "city": "河北郡津幡町",
    "city_kana": "カホクグンツバタマチ",
    "town": "能瀬",
    "town_kana": "ノセ",
    "street": null,
    "office_name": null,
    "office_name_kana": null
  },
  "0321": {
    "zip_code": "9290321",
    "prefecture": "石川県",
    "prefecture_kana": "イシカワケン",
    "prefecture_code": 17,
    "city": "河北郡津幡町",
    "city_kana": "カホクグンツバタマチ",
    "town": "加茂",
    "town_kana": "カモ",
    "street": null,
    "office_name": null,
    "office_name_kana": null
  },
  "0322": {
    "zip_code": "9290322",
    "prefecture": "石川県",
    "prefecture_kana": "イシカワケン",
    "prefecture_code": 17,
    "city": "河北郡津幡町",
    "city_kana": "カホクグンツバタマチ",
    "town": "緑が丘",
    "town_kana": "ミドリガオカ",
    "street": null,
    "office_name": null,
    "office_name_kana": null
  },
  "0323": {
    "zip_code": "9290323",
    "prefecture": "石川県",
    "prefecture_kana": "イシカワケン",
    "prefecture_code": 17,
    "city": "河北郡津幡町",
    "city_kana": "カホクグンツバタマチ",
    "town": "津幡",
    "town_kana": "ツバタ",
    "street": null,
    "office_name": null,
    "office_name_kana": null
  },
  "0324": {
    "zip_code": "9290324",
    "prefecture": "石川県",
    "prefecture_kana": "イシカワケン",
    "prefecture_code": 17,
    "city": "河北郡津幡町",
    "city_kana": "カホクグンツバタマチ",
    "town": "浅田",
    "town_kana": "アサダ",
    "street": null,
    "office_name": null,
    "office_name_kana": null
  },
  "0325": {
    "zip_code": "9290325",
    "prefecture": "石川県",
    "prefecture_kana": "イシカワケン",
    "prefecture_code": 17,
    "city": "河北郡津幡町",
    "city_kana": "カホクグンツバタマチ",
    "town": "加賀爪",
    "town_kana": "カガツメ",
    "street": null,
    "office_name": null,
    "office_name_kana": null
  },
  "0326": {
    "zip_code": "9290326",
    "prefecture": "石川県",
    "prefecture_kana": "イシカワケン",
    "prefecture_code": 17,
    "city": "河北郡津幡町",
    "city_kana": "カホクグンツバタマチ",
    "town": "清水",
    "town_kana": "シミズ",
    "street": null,
    "office_name": null,
    "office_name_kana": null
  },
  "0327": {
    "zip_code": "9290327",
    "prefecture": "石川県",
    "prefecture_kana": "イシカワケン",
    "prefecture_code": 17,
    "city": "河北郡津幡町",
    "city_kana": "カホクグンツバタマチ",
    "town": "庄",
    "town_kana": "ショウ",
    "street": null,
    "office_name": null,
    "office_name_kana": null
  },
  "0328": [
    {
      "zip_code": "9290328",
      "prefecture": "石川県",
      "prefecture_kana": "イシカワケン",
      "prefecture_code": 17,
      "city": "河北郡津幡町",
      "city_kana": "カホクグンツバタマチ",
      "town": "湖東",
      "town_kana": "コトウ",
      "street": null,
      "office_name": null,
      "office_name_kana": null
    },
    {
      "zip_code": "9290328",
      "prefecture": "石川県",
      "prefecture_kana": "イシカワケン",
      "prefecture_code": 17,
      "city": "河北郡津幡町",
      "city_kana": "カホクグンツバタマチ",
      "town": "舟橋",
      "town_kana": "フナバシ",
      "street": null,
      "office_name": null,
      "office_name_kana": null
    }
  ],
  "0331": {
    "zip_code": "9290331",
    "prefecture": "石川県",
    "prefecture_kana": "イシカワケン",
    "prefecture_code": 17,
    "city": "河北郡津幡町",
    "city_kana": "カホクグンツバタマチ",
    "town": "中橋",
    "town_kana": "ナカバシ",
    "street": null,
    "office_name": null,
    "office_name_kana": null
  },
  "0332": {
    "zip_code": "9290332",
    "prefecture": "石川県",
    "prefecture_kana": "イシカワケン",
    "prefecture_code": 17,
    "city": "河北郡津幡町",
    "city_kana": "カホクグンツバタマチ",
    "town": "中須加",
    "town_kana": "ナカスカ",
    "street": null,
    "office_name": null,
    "office_name_kana": null
  },
  "0333": {
    "zip_code": "9290333",
    "prefecture": "石川県",
    "prefecture_kana": "イシカワケン",
    "prefecture_code": 17,
    "city": "河北郡津幡町",
    "city_kana": "カホクグンツバタマチ",
    "town": "五反田",
    "town_kana": "ゴタンダ",
    "street": null,
    "office_name": null,
    "office_name_kana": null
  },
  "0334": {
    "zip_code": "9290334",
    "prefecture": "石川県",
    "prefecture_kana": "イシカワケン",
    "prefecture_code": 17,
    "city": "河北郡津幡町",
    "city_kana": "カホクグンツバタマチ",
    "town": "川尻",
    "town_kana": "カワシリ",
    "street": null,
    "office_name": null,
    "office_name_kana": null
  },
  "0335": {
    "zip_code": "9290335",
    "prefecture": "石川県",
    "prefecture_kana": "イシカワケン",
    "prefecture_code": 17,
    "city": "河北郡津幡町",
    "city_kana": "カホクグンツバタマチ",
    "town": "井上の荘",
    "town_kana": "イノウエノショウ",
    "street": null,
    "office_name": null,
    "office_name_kana": null
  },
  "0341": {
    "zip_code": "9290341",
    "prefecture": "石川県",
    "prefecture_kana": "イシカワケン",
    "prefecture_code": 17,
    "city": "河北郡津幡町",
    "city_kana": "カホクグンツバタマチ",
    "town": "横浜",
    "town_kana": "ヨコハマ",
    "street": null,
    "office_name": null,
    "office_name_kana": null
  },
  "0342": {
    "zip_code": "9290342",
    "prefecture": "石川県",
    "prefecture_kana": "イシカワケン",
    "prefecture_code": 17,
    "city": "河北郡津幡町",
    "city_kana": "カホクグンツバタマチ",
    "town": "北中条",
    "town_kana": "キタチュウジョウ",
    "street": null,
    "office_name": null,
    "office_name_kana": null
  },
  "0343": {
    "zip_code": "9290343",
    "prefecture": "石川県",
    "prefecture_kana": "イシカワケン",
    "prefecture_code": 17,
    "city": "河北郡津幡町",
    "city_kana": "カホクグンツバタマチ",
    "town": "南中条",
    "town_kana": "ミナミチュウジョウ",
    "street": null,
    "office_name": null,
    "office_name_kana": null
  },
  "0344": {
    "zip_code": "9290344",
    "prefecture": "石川県",
    "prefecture_kana": "イシカワケン",
    "prefecture_code": 17,
    "city": "河北郡津幡町",
    "city_kana": "カホクグンツバタマチ",
    "town": "浅谷",
    "town_kana": "アサンタニ",
    "street": null,
    "office_name": null,
    "office_name_kana": null
  },
  "0345": {
    "zip_code": "9290345",
    "prefecture": "石川県",
    "prefecture_kana": "イシカワケン",
    "prefecture_code": 17,
    "city": "河北郡津幡町",
    "city_kana": "カホクグンツバタマチ",
    "town": "太田",
    "town_kana": "オオタ",
    "street": null,
    "office_name": null,
    "office_name_kana": null
  },
  "0346": {
    "zip_code": "9290346",
    "prefecture": "石川県",
    "prefecture_kana": "イシカワケン",
    "prefecture_code": 17,
    "city": "河北郡津幡町",
    "city_kana": "カホクグンツバタマチ",
    "town": "潟端",
    "town_kana": "カタバタ",
    "street": null,
    "office_name": null,
    "office_name_kana": null
  },
  "0392": {
    "zip_code": "9290392",
    "prefecture": "石川県",
    "prefecture_kana": null,
    "prefecture_code": null,
    "city": "河北郡津幡町",
    "city_kana": null,
    "town": "字北中条",
    "town_kana": null,
    "street": "タ−１",
    "office_name": "石川工業高等専門学校",
    "office_name_kana": "イシカワコウギヨウコウトウセンモンガツコウ"
  },
  "0393": {
    "zip_code": "9290393",
    "prefecture": "石川県",
    "prefecture_kana": null,
    "prefecture_code": null,
    "city": "河北郡津幡町",
    "city_kana": null,
    "town": "字加賀爪",
    "town_kana": null,
    "street": "ニ−３（津幡郵便局私書箱第１号）",
    "office_name": "津幡町役場",
    "office_name_kana": "ツバタマチヤクバ"
  },
  "0401": {
    "zip_code": "9290401",
    "prefecture": "石川県",
    "prefecture_kana": "イシカワケン",
    "prefecture_code": 17,
    "city": "河北郡津幡町",
    "city_kana": "カホクグンツバタマチ",
    "town": "彦太郎畠",
    "town_kana": "ヒコタロウバタケ",
    "street": null,
    "office_name": null,
    "office_name_kana": null
  },
  "0402": {
    "zip_code": "9290402",
    "prefecture": "石川県",
    "prefecture_kana": "イシカワケン",
    "prefecture_code": 17,
    "city": "河北郡津幡町",
    "city_kana": "カホクグンツバタマチ",
    "town": "笠池ケ原",
    "town_kana": "カサイケガハラ",
    "street": null,
    "office_name": null,
    "office_name_kana": null
  },
  "0403": {
    "zip_code": "9290403",
    "prefecture": "石川県",
    "prefecture_kana": "イシカワケン",
    "prefecture_code": 17,
    "city": "河北郡津幡町",
    "city_kana": "カホクグンツバタマチ",
    "town": "莇谷",
    "town_kana": "アザミダニ",
    "street": null,
    "office_name": null,
    "office_name_kana": null
  },
  "0404": {
    "zip_code": "9290404",
    "prefecture": "石川県",
    "prefecture_kana": "イシカワケン",
    "prefecture_code": 17,
    "city": "河北郡津幡町",
    "city_kana": "カホクグンツバタマチ",
    "town": "大畠",
    "town_kana": "オオバタケ",
    "street": null,
    "office_name": null,
    "office_name_kana": null
  },
  "0405": {
    "zip_code": "9290405",
    "prefecture": "石川県",
    "prefecture_kana": "イシカワケン",
    "prefecture_code": 17,
    "city": "河北郡津幡町",
    "city_kana": "カホクグンツバタマチ",
    "town": "上野",
    "town_kana": "ウワノ",
    "street": null,
    "office_name": null,
    "office_name_kana": null
  },
  "0406": {
    "zip_code": "9290406",
    "prefecture": "石川県",
    "prefecture_kana": "イシカワケン",
    "prefecture_code": 17,
    "city": "河北郡津幡町",
    "city_kana": "カホクグンツバタマチ",
    "town": "籠月",
    "town_kana": "コモツキ",
    "street": null,
    "office_name": null,
    "office_name_kana": null
  },
  "0407": {
    "zip_code": "9290407",
    "prefecture": "石川県",
    "prefecture_kana": "イシカワケン",
    "prefecture_code": 17,
    "city": "河北郡津幡町",
    "city_kana": "カホクグンツバタマチ",
    "town": "鳥屋尾",
    "town_kana": "トリヤオ",
    "street": null,
    "office_name": null,
    "office_name_kana": null
  },
  "0411": {
    "zip_code": "9290411",
    "prefecture": "石川県",
    "prefecture_kana": "イシカワケン",
    "prefecture_code": 17,
    "city": "河北郡津幡町",
    "city_kana": "カホクグンツバタマチ",
    "town": "河内",
    "town_kana": "カワチ",
    "street": null,
    "office_name": null,
    "office_name_kana": null
  },
  "0412": {
    "zip_code": "9290412",
    "prefecture": "石川県",
    "prefecture_kana": "イシカワケン",
    "prefecture_code": 17,
    "city": "河北郡津幡町",
    "city_kana": "カホクグンツバタマチ",
    "town": "九折",
    "town_kana": "ツヅラオリ",
    "street": null,
    "office_name": null,
    "office_name_kana": null
  },
  "0413": {
    "zip_code": "9290413",
    "prefecture": "石川県",
    "prefecture_kana": "イシカワケン",
    "prefecture_code": 17,
    "city": "河北郡津幡町",
    "city_kana": "カホクグンツバタマチ",
    "town": "倶利伽羅",
    "town_kana": "クリカラ",
    "street": null,
    "office_name": null,
    "office_name_kana": null
  },
  "0414": {
    "zip_code": "9290414",
    "prefecture": "石川県",
    "prefecture_kana": "イシカワケン",
    "prefecture_code": 17,
    "city": "河北郡津幡町",
    "city_kana": "カホクグンツバタマチ",
    "town": "山森",
    "town_kana": "ヤマモリ",
    "street": null,
    "office_name": null,
    "office_name_kana": null
  },
  "0415": {
    "zip_code": "9290415",
    "prefecture": "石川県",
    "prefecture_kana": "イシカワケン",
    "prefecture_code": 17,
    "city": "河北郡津幡町",
    "city_kana": "カホクグンツバタマチ",
    "town": "越中坂",
    "town_kana": "エッチュウザカ",
    "street": null,
    "office_name": null,
    "office_name_kana": null
  },
  "0416": {
    "zip_code": "9290416",
    "prefecture": "石川県",
    "prefecture_kana": "イシカワケン",
    "prefecture_code": 17,
    "city": "河北郡津幡町",
    "city_kana": "カホクグンツバタマチ",
    "town": "刈安",
    "town_kana": "カリヤス",
    "street": null,
    "office_name": null,
    "office_name_kana": null
  },
  "0417": {
    "zip_code": "9290417",
    "prefecture": "石川県",
    "prefecture_kana": "イシカワケン",
    "prefecture_code": 17,
    "city": "河北郡津幡町",
    "city_kana": "カホクグンツバタマチ",
    "town": "坂戸",
    "town_kana": "サカド",
    "street": null,
    "office_name": null,
    "office_name_kana": null
  },
  "0421": {
    "zip_code": "9290421",
    "prefecture": "石川県",
    "prefecture_kana": "イシカワケン",
    "prefecture_code": 17,
    "city": "河北郡津幡町",
    "city_kana": "カホクグンツバタマチ",
    "town": "原",
    "town_kana": "ハラ",
    "street": null,
    "office_name": null,
    "office_name_kana": null
  },
  "0422": {
    "zip_code": "9290422",
    "prefecture": "石川県",
    "prefecture_kana": "イシカワケン",
    "prefecture_code": 17,
    "city": "河北郡津幡町",
    "city_kana": "カホクグンツバタマチ",
    "town": "上藤又",
    "town_kana": "カミフジマタ",
    "street": null,
    "office_name": null,
    "office_name_kana": null
  },
  "0423": {
    "zip_code": "9290423",
    "prefecture": "石川県",
    "prefecture_kana": "イシカワケン",
    "prefecture_code": 17,
    "city": "河北郡津幡町",
    "city_kana": "カホクグンツバタマチ",
    "town": "下中",
    "town_kana": "シモナカ",
    "street": null,
    "office_name": null,
    "office_name_kana": null
  },
  "0424": {
    "zip_code": "9290424",
    "prefecture": "石川県",
    "prefecture_kana": "イシカワケン",
    "prefecture_code": 17,
    "city": "河北郡津幡町",
    "city_kana": "カホクグンツバタマチ",
    "town": "下藤又",
    "town_kana": "シモフジマタ",
    "street": null,
    "office_name": null,
    "office_name_kana": null
  },
  "0425": {
    "zip_code": "9290425",
    "prefecture": "石川県",
    "prefecture_kana": "イシカワケン",
    "prefecture_code": 17,
    "city": "河北郡津幡町",
    "city_kana": "カホクグンツバタマチ",
    "town": "七野",
    "town_kana": "シチノ",
    "street": null,
    "office_name": null,
    "office_name_kana": null
  },
  "0426": {
    "zip_code": "9290426",
    "prefecture": "石川県",
    "prefecture_kana": "イシカワケン",
    "prefecture_code": 17,
    "city": "河北郡津幡町",
    "city_kana": "カホクグンツバタマチ",
    "town": "竹橋",
    "town_kana": "タケノハシ",
    "street": null,
    "office_name": null,
    "office_name_kana": null
  },
  "0427": {
    "zip_code": "9290427",
    "prefecture": "石川県",
    "prefecture_kana": "イシカワケン",
    "prefecture_code": 17,
    "city": "河北郡津幡町",
    "city_kana": "カホクグンツバタマチ",
    "town": "富田",
    "town_kana": "トミタ",
    "street": null,
    "office_name": null,
    "office_name_kana": null
  },
  "0431": {
    "zip_code": "9290431",
    "prefecture": "石川県",
    "prefecture_kana": "イシカワケン",
    "prefecture_code": 17,
    "city": "河北郡津幡町",
    "city_kana": "カホクグンツバタマチ",
    "town": "大窪",
    "town_kana": "オオクボ",
    "street": null,
    "office_name": null,
    "office_name_kana": null
  },
  "0432": {
    "zip_code": "9290432",
    "prefecture": "石川県",
    "prefecture_kana": "イシカワケン",
    "prefecture_code": 17,
    "city": "河北郡津幡町",
    "city_kana": "カホクグンツバタマチ",
    "town": "北横根",
    "town_kana": "キタヨコネ",
    "street": null,
    "office_name": null,
    "office_name_kana": null
  },
  "0433": {
    "zip_code": "9290433",
    "prefecture": "石川県",
    "prefecture_kana": "イシカワケン",
    "prefecture_code": 17,
    "city": "河北郡津幡町",
    "city_kana": "カホクグンツバタマチ",
    "town": "南横根",
    "town_kana": "ミナミヨコネ",
    "street": null,
    "office_name": null,
    "office_name_kana": null
  },
  "0434": [
    {
      "zip_code": "9290434",
      "prefecture": "石川県",
      "prefecture_kana": "イシカワケン",
      "prefecture_code": 17,
      "city": "河北郡津幡町",
      "city_kana": "カホクグンツバタマチ",
      "town": "常徳",
      "town_kana": "ジョウトク",
      "street": null,
      "office_name": null,
      "office_name_kana": null
    },
    {
      "zip_code": "9290434",
      "prefecture": "石川県",
      "prefecture_kana": "イシカワケン",
      "prefecture_code": 17,
      "city": "河北郡津幡町",
      "city_kana": "カホクグンツバタマチ",
      "town": "舟尾",
      "town_kana": "フナオ",
      "street": null,
      "office_name": null,
      "office_name_kana": null
    }
  ],
  "0435": {
    "zip_code": "9290435",
    "prefecture": "石川県",
    "prefecture_kana": "イシカワケン",
    "prefecture_code": 17,
    "city": "河北郡津幡町",
    "city_kana": "カホクグンツバタマチ",
    "town": "材木",
    "town_kana": "ザイモク",
    "street": null,
    "office_name": null,
    "office_name_kana": null
  },
  "0436": {
    "zip_code": "9290436",
    "prefecture": "石川県",
    "prefecture_kana": "イシカワケン",
    "prefecture_code": 17,
    "city": "河北郡津幡町",
    "city_kana": "カホクグンツバタマチ",
    "town": "朝日畑",
    "town_kana": "アサヒバタ",
    "street": null,
    "office_name": null,
    "office_name_kana": null
  },
  "0437": {
    "zip_code": "9290437",
    "prefecture": "石川県",
    "prefecture_kana": "イシカワケン",
    "prefecture_code": 17,
    "city": "河北郡津幡町",
    "city_kana": "カホクグンツバタマチ",
    "town": "相窪",
    "town_kana": "アイクボ",
    "street": null,
    "office_name": null,
    "office_name_kana": null
  },
  "0441": {
    "zip_code": "9290441",
    "prefecture": "石川県",
    "prefecture_kana": "イシカワケン",
    "prefecture_code": 17,
    "city": "河北郡津幡町",
    "city_kana": "カホクグンツバタマチ",
    "town": "東荒屋",
    "town_kana": "ヒガシアラヤ",
    "street": null,
    "office_name": null,
    "office_name_kana": null
  },
  "0442": {
    "zip_code": "9290442",
    "prefecture": "石川県",
    "prefecture_kana": "イシカワケン",
    "prefecture_code": 17,
    "city": "河北郡津幡町",
    "city_kana": "カホクグンツバタマチ",
    "town": "大坪",
    "town_kana": "オオツボ",
    "street": null,
    "office_name": null,
    "office_name_kana": null
  },
  "0443": {
    "zip_code": "9290443",
    "prefecture": "石川県",
    "prefecture_kana": "イシカワケン",
    "prefecture_code": 17,
    "city": "河北郡津幡町",
    "city_kana": "カホクグンツバタマチ",
    "town": "別所",
    "town_kana": "ベッショ",
    "street": null,
    "office_name": null,
    "office_name_kana": null
  },
  "0444": {
    "zip_code": "9290444",
    "prefecture": "石川県",
    "prefecture_kana": "イシカワケン",
    "prefecture_code": 17,
    "city": "河北郡津幡町",
    "city_kana": "カホクグンツバタマチ",
    "town": "仮生",
    "town_kana": "ケショウ",
    "street": null,
    "office_name": null,
    "office_name_kana": null
  },
  "0445": {
    "zip_code": "9290445",
    "prefecture": "石川県",
    "prefecture_kana": "イシカワケン",
    "prefecture_code": 17,
    "city": "河北郡津幡町",
    "city_kana": "カホクグンツバタマチ",
    "town": "井野河内",
    "town_kana": "イノカワチ",
    "street": null,
    "office_name": null,
    "office_name_kana": null
  },
  "0446": {
    "zip_code": "9290446",
    "prefecture": "石川県",
    "prefecture_kana": "イシカワケン",
    "prefecture_code": 17,
    "city": "河北郡津幡町",
    "city_kana": "カホクグンツバタマチ",
    "town": "明神",
    "town_kana": "ミョウジン",
    "street": null,
    "office_name": null,
    "office_name_kana": null
  },
  "0447": {
    "zip_code": "9290447",
    "prefecture": "石川県",
    "prefecture_kana": "イシカワケン",
    "prefecture_code": 17,
    "city": "河北郡津幡町",
    "city_kana": "カホクグンツバタマチ",
    "town": "旭山",
    "town_kana": "アサヒヤマ",
    "street": null,
    "office_name": null,
    "office_name_kana": null
  },
  "0451": {
    "zip_code": "9290451",
    "prefecture": "石川県",
    "prefecture_kana": "イシカワケン",
    "prefecture_code": 17,
    "city": "河北郡津幡町",
    "city_kana": "カホクグンツバタマチ",
    "town": "宮田",
    "town_kana": "ミヤダ",
    "street": null,
    "office_name": null,
    "office_name_kana": null
  },
  "0452": {
    "zip_code": "9290452",
    "prefecture": "石川県",
    "prefecture_kana": "イシカワケン",
    "prefecture_code": 17,
    "city": "河北郡津幡町",
    "city_kana": "カホクグンツバタマチ",
    "town": "田屋",
    "town_kana": "タヤ",
    "street": null,
    "office_name": null,
    "office_name_kana": null
  },
  "0453": {
    "zip_code": "9290453",
    "prefecture": "石川県",
    "prefecture_kana": "イシカワケン",
    "prefecture_code": 17,
    "city": "河北郡津幡町",
    "city_kana": "カホクグンツバタマチ",
    "town": "岩崎",
    "town_kana": "イワサキ",
    "street": null,
    "office_name": null,
    "office_name_kana": null
  },
  "0454": {
    "zip_code": "9290454",
    "prefecture": "石川県",
    "prefecture_kana": "イシカワケン",
    "prefecture_code": 17,
    "city": "河北郡津幡町",
    "city_kana": "カホクグンツバタマチ",
    "town": "杉瀬",
    "town_kana": "スギノセ",
    "street": null,
    "office_name": null,
    "office_name_kana": null
  },
  "0455": {
    "zip_code": "9290455",
    "prefecture": "石川県",
    "prefecture_kana": "イシカワケン",
    "prefecture_code": 17,
    "city": "河北郡津幡町",
    "city_kana": "カホクグンツバタマチ",
    "town": "倉見",
    "town_kana": "クラミ",
    "street": null,
    "office_name": null,
    "office_name_kana": null
  },
  "0456": {
    "zip_code": "9290456",
    "prefecture": "石川県",
    "prefecture_kana": "イシカワケン",
    "prefecture_code": 17,
    "city": "河北郡津幡町",
    "city_kana": "カホクグンツバタマチ",
    "town": "七黒",
    "town_kana": "シチクロ",
    "street": null,
    "office_name": null,
    "office_name_kana": null
  },
  "0461": {
    "zip_code": "9290461",
    "prefecture": "石川県",
    "prefecture_kana": "イシカワケン",
    "prefecture_code": 17,
    "city": "河北郡津幡町",
    "city_kana": "カホクグンツバタマチ",
    "town": "八ノ谷",
    "town_kana": "ハチノタニ",
    "street": null,
    "office_name": null,
    "office_name_kana": null
  },
  "0462": {
    "zip_code": "9290462",
    "prefecture": "石川県",
    "prefecture_kana": "イシカワケン",
    "prefecture_code": 17,
    "city": "河北郡津幡町",
    "city_kana": "カホクグンツバタマチ",
    "town": "市谷",
    "town_kana": "イチノタニ",
    "street": null,
    "office_name": null,
    "office_name_kana": null
  },
  "0463": {
    "zip_code": "9290463",
    "prefecture": "石川県",
    "prefecture_kana": "イシカワケン",
    "prefecture_code": 17,
    "city": "河北郡津幡町",
    "city_kana": "カホクグンツバタマチ",
    "town": "蓮花寺",
    "town_kana": "レンゲジ",
    "street": null,
    "office_name": null,
    "office_name_kana": null
  },
  "0464": {
    "zip_code": "9290464",
    "prefecture": "石川県",
    "prefecture_kana": "イシカワケン",
    "prefecture_code": 17,
    "city": "河北郡津幡町",
    "city_kana": "カホクグンツバタマチ",
    "town": "山北",
    "town_kana": "ヤマキタ",
    "street": null,
    "office_name": null,
    "office_name_kana": null
  },
  "0465": {
    "zip_code": "9290465",
    "prefecture": "石川県",
    "prefecture_kana": "イシカワケン",
    "prefecture_code": 17,
    "city": "河北郡津幡町",
    "city_kana": "カホクグンツバタマチ",
    "town": "鳥越",
    "town_kana": "トリゴエ",
    "street": null,
    "office_name": null,
    "office_name_kana": null
  },
  "0466": {
    "zip_code": "9290466",
    "prefecture": "石川県",
    "prefecture_kana": "イシカワケン",
    "prefecture_code": 17,
    "city": "河北郡津幡町",
    "city_kana": "カホクグンツバタマチ",
    "town": "吉倉",
    "town_kana": "ヨシクラ",
    "street": null,
    "office_name": null,
    "office_name_kana": null
  },
  "0467": {
    "zip_code": "9290467",
    "prefecture": "石川県",
    "prefecture_kana": "イシカワケン",
    "prefecture_code": 17,
    "city": "河北郡津幡町",
    "city_kana": "カホクグンツバタマチ",
    "town": "大熊",
    "town_kana": "オンマ",
    "street": null,
    "office_name": null,
    "office_name_kana": null
  },
  "0492": {
    "zip_code": "9290492",
    "prefecture": "石川県",
    "prefecture_kana": null,
    "prefecture_code": null,
    "city": "河北郡津幡町",
    "city_kana": null,
    "town": "字倶利伽羅",
    "town_kana": null,
    "street": "リ２",
    "office_name": "倶利伽羅不動寺",
    "office_name_kana": "クリカラフドウジ"
  },
  "0493": {
    "zip_code": "9290493",
    "prefecture": "石川県",
    "prefecture_kana": null,
    "prefecture_code": null,
    "city": "河北郡津幡町",
    "city_kana": null,
    "town": "字旭山",
    "town_kana": null,
    "street": "１",
    "office_name": "シブヤアシナリー　株式会社",
    "office_name_kana": "シブヤアシナリ- カブシキガイシヤ"
  },
  "0494": {
    "zip_code": "9290494",
    "prefecture": "石川県",
    "prefecture_kana": null,
    "prefecture_code": null,
    "city": "河北郡津幡町",
    "city_kana": null,
    "town": "字東荒屋",
    "town_kana": null,
    "street": "ヌ４８−４",
    "office_name": "タカラスタンダード　株式会社　北陸工場",
    "office_name_kana": "タカラスタンダ-ド カブシキガイシヤ ホクリクコウジヨウ"
  },
  "0495": {
    "zip_code": "9290495",
    "prefecture": "石川県",
    "prefecture_kana": null,
    "prefecture_code": null,
    "city": "河北郡津幡町",
    "city_kana": null,
    "town": "字竹橋",
    "town_kana": null,
    "street": "ヨ１０５（倶利伽羅郵便局私書箱第１号）",
    "office_name": "有限会社　倶利伽羅そば普及協会",
    "office_name_kana": "ユウゲンガイシヤ クリカラソバフキユウキヨウカイ"
  },
  "1100": {
    "zip_code": "9291100",
    "prefecture": "石川県",
    "prefecture_kana": "イシカワケン",
    "prefecture_code": 17,
    "city": "かほく市",
    "city_kana": "カホクシ",
    "town": "",
    "town_kana": "",
    "street": null,
    "office_name": null,
    "office_name_kana": null
  },
  "1101": {
    "zip_code": "9291101",
    "prefecture": "石川県",
    "prefecture_kana": "イシカワケン",
    "prefecture_code": 17,
    "city": "かほく市",
    "city_kana": "カホクシ",
    "town": "余地",
    "town_kana": "ヨチ",
    "street": null,
    "office_name": null,
    "office_name_kana": null
  },
  "1102": {
    "zip_code": "9291102",
    "prefecture": "石川県",
    "prefecture_kana": "イシカワケン",
    "prefecture_code": 17,
    "city": "かほく市",
    "city_kana": "カホクシ",
    "town": "上田名",
    "town_kana": "ウワダナ",
    "street": null,
    "office_name": null,
    "office_name_kana": null
  },
  "1103": {
    "zip_code": "9291103",
    "prefecture": "石川県",
    "prefecture_kana": "イシカワケン",
    "prefecture_code": 17,
    "city": "かほく市",
    "city_kana": "カホクシ",
    "town": "谷",
    "town_kana": "タニ",
    "street": null,
    "office_name": null,
    "office_name_kana": null
  },
  "1104": {
    "zip_code": "9291104",
    "prefecture": "石川県",
    "prefecture_kana": "イシカワケン",
    "prefecture_code": 17,
    "city": "かほく市",
    "city_kana": "カホクシ",
    "town": "笠島",
    "town_kana": "カサシマ",
    "street": null,
    "office_name": null,
    "office_name_kana": null
  },
  "1105": {
    "zip_code": "9291105",
    "prefecture": "石川県",
    "prefecture_kana": "イシカワケン",
    "prefecture_code": 17,
    "city": "かほく市",
    "city_kana": "カホクシ",
    "town": "横山",
    "town_kana": "ヨコヤマ",
    "street": null,
    "office_name": null,
    "office_name_kana": null
  },
  "1111": {
    "zip_code": "9291111",
    "prefecture": "石川県",
    "prefecture_kana": "イシカワケン",
    "prefecture_code": 17,
    "city": "かほく市",
    "city_kana": "カホクシ",
    "town": "気屋",
    "town_kana": "キヤ",
    "street": null,
    "office_name": null,
    "office_name_kana": null
  },
  "1112": {
    "zip_code": "9291112",
    "prefecture": "石川県",
    "prefecture_kana": "イシカワケン",
    "prefecture_code": 17,
    "city": "かほく市",
    "city_kana": "カホクシ",
    "town": "多田",
    "town_kana": "タダ",
    "street": null,
    "office_name": null,
    "office_name_kana": null
  },
  "1113": {
    "zip_code": "9291113",
    "prefecture": "石川県",
    "prefecture_kana": "イシカワケン",
    "prefecture_code": 17,
    "city": "かほく市",
    "city_kana": "カホクシ",
    "town": "指江",
    "town_kana": "サシエ",
    "street": null,
    "office_name": null,
    "office_name_kana": null
  },
  "1114": {
    "zip_code": "9291114",
    "prefecture": "石川県",
    "prefecture_kana": "イシカワケン",
    "prefecture_code": 17,
    "city": "かほく市",
    "city_kana": "カホクシ",
    "town": "狩鹿野",
    "town_kana": "カルガノ",
    "street": null,
    "office_name": null,
    "office_name_kana": null
  },
  "1115": {
    "zip_code": "9291115",
    "prefecture": "石川県",
    "prefecture_kana": "イシカワケン",
    "prefecture_code": 17,
    "city": "かほく市",
    "city_kana": "カホクシ",
    "town": "上山田",
    "town_kana": "カミヤマダ",
    "street": null,
    "office_name": null,
    "office_name_kana": null
  },
  "1116": {
    "zip_code": "9291116",
    "prefecture": "石川県",
    "prefecture_kana": "イシカワケン",
    "prefecture_code": 17,
    "city": "かほく市",
    "city_kana": "カホクシ",
    "town": "下山田",
    "town_kana": "シモヤマダ",
    "street": null,
    "office_name": null,
    "office_name_kana": null
  },
  "1117": {
    "zip_code": "9291117",
    "prefecture": "石川県",
    "prefecture_kana": "イシカワケン",
    "prefecture_code": 17,
    "city": "かほく市",
    "city_kana": "カホクシ",
    "town": "鉢伏",
    "town_kana": "ハチブセ",
    "street": null,
    "office_name": null,
    "office_name_kana": null
  },
  "1121": {
    "zip_code": "9291121",
    "prefecture": "石川県",
    "prefecture_kana": "イシカワケン",
    "prefecture_code": 17,
    "city": "かほく市",
    "city_kana": "カホクシ",
    "town": "宇気",
    "town_kana": "ウケ",
    "street": null,
    "office_name": null,
    "office_name_kana": null
  },
  "1122": {
    "zip_code": "9291122",
    "prefecture": "石川県",
    "prefecture_kana": "イシカワケン",
    "prefecture_code": 17,
    "city": "かほく市",
    "city_kana": "カホクシ",
    "town": "七窪",
    "town_kana": "ナナクボ",
    "street": null,
    "office_name": null,
    "office_name_kana": null
  },
  "1123": {
    "zip_code": "9291123",
    "prefecture": "石川県",
    "prefecture_kana": "イシカワケン",
    "prefecture_code": 17,
    "city": "かほく市",
    "city_kana": "カホクシ",
    "town": "森",
    "town_kana": "モリ",
    "street": null,
    "office_name": null,
    "office_name_kana": null
  },
  "1125": {
    "zip_code": "9291125",
    "prefecture": "石川県",
    "prefecture_kana": "イシカワケン",
    "prefecture_code": 17,
    "city": "かほく市",
    "city_kana": "カホクシ",
    "town": "宇野気",
    "town_kana": "ウノケ",
    "street": null,
    "office_name": null,
    "office_name_kana": null
  },
  "1126": {
    "zip_code": "9291126",
    "prefecture": "石川県",
    "prefecture_kana": "イシカワケン",
    "prefecture_code": 17,
    "city": "かほく市",
    "city_kana": "カホクシ",
    "town": "内日角",
    "town_kana": "ウチヒスミ",
    "street": null,
    "office_name": null,
    "office_name_kana": null
  },
  "1127": {
    "zip_code": "9291127",
    "prefecture": "石川県",
    "prefecture_kana": "イシカワケン",
    "prefecture_code": 17,
    "city": "かほく市",
    "city_kana": "カホクシ",
    "town": "大崎",
    "town_kana": "オオサキ",
    "street": null,
    "office_name": null,
    "office_name_kana": null
  },
  "1171": {
    "zip_code": "9291171",
    "prefecture": "石川県",
    "prefecture_kana": "イシカワケン",
    "prefecture_code": 17,
    "city": "かほく市",
    "city_kana": "カホクシ",
    "town": "木津",
    "town_kana": "キヅ",
    "street": null,
    "office_name": null,
    "office_name_kana": null
  },
  "1172": {
    "zip_code": "9291172",
    "prefecture": "石川県",
    "prefecture_kana": "イシカワケン",
    "prefecture_code": 17,
    "city": "かほく市",
    "city_kana": "カホクシ",
    "town": "松浜",
    "town_kana": "マツハマ",
    "street": null,
    "office_name": null,
    "office_name_kana": null
  },
  "1173": {
    "zip_code": "9291173",
    "prefecture": "石川県",
    "prefecture_kana": "イシカワケン",
    "prefecture_code": 17,
    "city": "かほく市",
    "city_kana": "カホクシ",
    "town": "遠塚",
    "town_kana": "トオヅカ",
    "street": null,
    "office_name": null,
    "office_name_kana": null
  },
  "1174": {
    "zip_code": "9291174",
    "prefecture": "石川県",
    "prefecture_kana": "イシカワケン",
    "prefecture_code": 17,
    "city": "かほく市",
    "city_kana": "カホクシ",
    "town": "浜北",
    "town_kana": "ハマキタ",
    "street": null,
    "office_name": null,
    "office_name_kana": null
  },
  "1175": {
    "zip_code": "9291175",
    "prefecture": "石川県",
    "prefecture_kana": "イシカワケン",
    "prefecture_code": 17,
    "city": "かほく市",
    "city_kana": "カホクシ",
    "town": "秋浜",
    "town_kana": "アキハマ",
    "street": null,
    "office_name": null,
    "office_name_kana": null
  },
  "1176": {
    "zip_code": "9291176",
    "prefecture": "石川県",
    "prefecture_kana": "イシカワケン",
    "prefecture_code": 17,
    "city": "かほく市",
    "city_kana": "カホクシ",
    "town": "外日角",
    "town_kana": "ソトヒスミ",
    "street": null,
    "office_name": null,
    "office_name_kana": null
  },
  "1177": {
    "zip_code": "9291177",
    "prefecture": "石川県",
    "prefecture_kana": "イシカワケン",
    "prefecture_code": 17,
    "city": "かほく市",
    "city_kana": "カホクシ",
    "town": "白尾",
    "town_kana": "シロオ",
    "street": null,
    "office_name": null,
    "office_name_kana": null
  },
  "1192": {
    "zip_code": "9291192",
    "prefecture": "石川県",
    "prefecture_kana": "イシカワケン",
    "prefecture_code": 17,
    "city": "かほく市",
    "city_kana": "カホクシ",
    "town": "宇野気",
    "town_kana": "ウノケ",
    "street": "ヌ９８−２",
    "office_name": "株式会社　ＰＦＵ",
    "office_name_kana": "カブシキガイシヤ ピ-エフユ-"
  },
  "1193": {
    "zip_code": "9291193",
    "prefecture": "石川県",
    "prefecture_kana": "イシカワケン",
    "prefecture_code": 17,
    "city": "かほく市",
    "city_kana": "カホクシ",
    "town": "浜北",
    "town_kana": "ハマキタ",
    "street": "ハ６−１",
    "office_name": "かほく市　七塚庁舎",
    "office_name_kana": "カホクシ ナナツカチヨウシヤ"
  },
  "1195": {
    "zip_code": "9291195",
    "prefecture": "石川県",
    "prefecture_kana": "イシカワケン",
    "prefecture_code": 17,
    "city": "かほく市",
    "city_kana": "カホクシ",
    "town": "宇野気",
    "town_kana": "ウノケ",
    "street": "ニ８１",
    "office_name": "かほく市役所",
    "office_name_kana": "カホクシヤクシヨ"
  },
  "1196": {
    "zip_code": "9291196",
    "prefecture": "石川県",
    "prefecture_kana": "イシカワケン",
    "prefecture_code": 17,
    "city": "かほく市",
    "city_kana": "カホクシ",
    "town": "笠島",
    "town_kana": "カサシマ",
    "street": "ト１−１",
    "office_name": "株式会社　富士通ＩＴプロダクツ",
    "office_name_kana": "カブシキガイシヤ フジツウアイテイ-プロダクツ"
  },
  "1198": {
    "zip_code": "9291198",
    "prefecture": "石川県",
    "prefecture_kana": "イシカワケン",
    "prefecture_code": 17,
    "city": "かほく市",
    "city_kana": "カホクシ",
    "town": "内日角",
    "town_kana": "ウチヒスミ",
    "street": "タ２５番",
    "office_name": "（株）　イオンかほくショッピングセンター",
    "office_name_kana": "(カブ) イオンカホクシヨツピングセンタ-"
  },
  "1201": {
    "zip_code": "9291201",
    "prefecture": "石川県",
    "prefecture_kana": "イシカワケン",
    "prefecture_code": 17,
    "city": "かほく市",
    "city_kana": "カホクシ",
    "town": "野寺",
    "town_kana": "ノデラ",
    "street": null,
    "office_name": null,
    "office_name_kana": null
  },
  "1202": {
    "zip_code": "9291202",
    "prefecture": "石川県",
    "prefecture_kana": "イシカワケン",
    "prefecture_code": 17,
    "city": "かほく市",
    "city_kana": "カホクシ",
    "town": "八野",
    "town_kana": "ハチノ",
    "street": null,
    "office_name": null,
    "office_name_kana": null
  },
  "1203": {
    "zip_code": "9291203",
    "prefecture": "石川県",
    "prefecture_kana": "イシカワケン",
    "prefecture_code": 17,
    "city": "かほく市",
    "city_kana": "カホクシ",
    "town": "黒川",
    "town_kana": "クロガワ",
    "street": null,
    "office_name": null,
    "office_name_kana": null
  },
  "1204": {
    "zip_code": "9291204",
    "prefecture": "石川県",
    "prefecture_kana": "イシカワケン",
    "prefecture_code": 17,
    "city": "かほく市",
    "city_kana": "カホクシ",
    "town": "箕打",
    "town_kana": "ミウチ",
    "street": null,
    "office_name": null,
    "office_name_kana": null
  },
  "1205": {
    "zip_code": "9291205",
    "prefecture": "石川県",
    "prefecture_kana": "イシカワケン",
    "prefecture_code": 17,
    "city": "かほく市",
    "city_kana": "カホクシ",
    "town": "若緑",
    "town_kana": "ワカミドリ",
    "street": null,
    "office_name": null,
    "office_name_kana": null
  },
  "1206": {
    "zip_code": "9291206",
    "prefecture": "石川県",
    "prefecture_kana": "イシカワケン",
    "prefecture_code": 17,
    "city": "かほく市",
    "city_kana": "カホクシ",
    "town": "元女",
    "town_kana": "ガンニョ",
    "street": null,
    "office_name": null,
    "office_name_kana": null
  },
  "1207": {
    "zip_code": "9291207",
    "prefecture": "石川県",
    "prefecture_kana": "イシカワケン",
    "prefecture_code": 17,
    "city": "かほく市",
    "city_kana": "カホクシ",
    "town": "夏栗",
    "town_kana": "ナツグリ",
    "street": null,
    "office_name": null,
    "office_name_kana": null
  },
  "1208": {
    "zip_code": "9291208",
    "prefecture": "石川県",
    "prefecture_kana": "イシカワケン",
    "prefecture_code": 17,
    "city": "かほく市",
    "city_kana": "カホクシ",
    "town": "瀬戸町",
    "town_kana": "セトマチ",
    "street": null,
    "office_name": null,
    "office_name_kana": null
  },
  "1210": {
    "zip_code": "9291210",
    "prefecture": "石川県",
    "prefecture_kana": "イシカワケン",
    "prefecture_code": 17,
    "city": "かほく市",
    "city_kana": "カホクシ",
    "town": "学園台",
    "town_kana": "ガクエンダイ",
    "street": null,
    "office_name": null,
    "office_name_kana": null
  },
  "1211": {
    "zip_code": "9291211",
    "prefecture": "石川県",
    "prefecture_kana": "イシカワケン",
    "prefecture_code": 17,
    "city": "かほく市",
    "city_kana": "カホクシ",
    "town": "二ツ屋",
    "town_kana": "フタツヤ",
    "street": null,
    "office_name": null,
    "office_name_kana": null
  },
  "1212": {
    "zip_code": "9291212",
    "prefecture": "石川県",
    "prefecture_kana": "イシカワケン",
    "prefecture_code": 17,
    "city": "かほく市",
    "city_kana": "カホクシ",
    "town": "中沼",
    "town_kana": "ナカヌマ",
    "street": null,
    "office_name": null,
    "office_name_kana": null
  },
  "1213": {
    "zip_code": "9291213",
    "prefecture": "石川県",
    "prefecture_kana": "イシカワケン",
    "prefecture_code": 17,
    "city": "かほく市",
    "city_kana": "カホクシ",
    "town": "長柄町",
    "town_kana": "ナガラマチ",
    "street": null,
    "office_name": null,
    "office_name_kana": null
  },
  "1214": {
    "zip_code": "9291214",
    "prefecture": "石川県",
    "prefecture_kana": "イシカワケン",
    "prefecture_code": 17,
    "city": "かほく市",
    "city_kana": "カホクシ",
    "town": "内高松",
    "town_kana": "ウチタカマツ",
    "street": null,
    "office_name": null,
    "office_name_kana": null
  },
  "1215": {
    "zip_code": "9291215",
    "prefecture": "石川県",
    "prefecture_kana": "イシカワケン",
    "prefecture_code": 17,
    "city": "かほく市",
    "city_kana": "カホクシ",
    "town": "高松",
    "town_kana": "タカマツ",
    "street": null,
    "office_name": null,
    "office_name_kana": null
  },
  "1287": {
    "zip_code": "9291287",
    "prefecture": "石川県",
    "prefecture_kana": "イシカワケン",
    "prefecture_code": 17,
    "city": "かほく市",
    "city_kana": "カホクシ",
    "town": "高松",
    "town_kana": "タカマツ",
    "street": "シ１−１",
    "office_name": "株式会社　ＰＦＵ　ＰｒｏＤｅＳセンター",
    "office_name_kana": "カブシキガイシヤ ピ-エフユ- プロデスセンタ-"
  },
  "1292": {
    "zip_code": "9291292",
    "prefecture": "石川県",
    "prefecture_kana": "イシカワケン",
    "prefecture_code": 17,
    "city": "かほく市",
    "city_kana": "カホクシ",
    "town": "高松",
    "town_kana": "タカマツ",
    "street": "ウ１−１",
    "office_name": "かほく市高松庁舎",
    "office_name_kana": "カホクシタカマツチヨウシヤ"
  },
  "1293": {
    "zip_code": "9291293",
    "prefecture": "石川県",
    "prefecture_kana": "イシカワケン",
    "prefecture_code": 17,
    "city": "かほく市",
    "city_kana": "カホクシ",
    "town": "内高松",
    "town_kana": "ウチタカマツ",
    "street": "ヤ３６",
    "office_name": "石川県立　高松病院",
    "office_name_kana": "イシカワケンリツ タカマツビヨウイン"
  },
  "1300": {
    "zip_code": "9291300",
    "prefecture": "石川県",
    "prefecture_kana": "イシカワケン",
    "prefecture_code": 17,
    "city": "羽咋郡宝達志水町",
    "city_kana": "ハクイグンホウダツシミズチョウ",
    "town": "",
    "town_kana": "",
    "street": null,
    "office_name": null,
    "office_name_kana": null
  },
  "1301": {
    "zip_code": "9291301",
    "prefecture": "石川県",
    "prefecture_kana": "イシカワケン",
    "prefecture_code": 17,
    "city": "羽咋郡宝達志水町",
    "city_kana": "ハクイグンホウダツシミズチョウ",
    "town": "宝達",
    "town_kana": "ホウダツ",
    "street": null,
    "office_name": null,
    "office_name_kana": null
  },
  "1302": {
    "zip_code": "9291302",
    "prefecture": "石川県",
    "prefecture_kana": "イシカワケン",
    "prefecture_code": 17,
    "city": "羽咋郡宝達志水町",
    "city_kana": "ハクイグンホウダツシミズチョウ",
    "town": "山崎",
    "town_kana": "ヤマザキ",
    "street": null,
    "office_name": null,
    "office_name_kana": null
  },
  "1303": {
    "zip_code": "9291303",
    "prefecture": "石川県",
    "prefecture_kana": "イシカワケン",
    "prefecture_code": 17,
    "city": "羽咋郡宝達志水町",
    "city_kana": "ハクイグンホウダツシミズチョウ",
    "town": "河原",
    "town_kana": "カワラ",
    "street": null,
    "office_name": null,
    "office_name_kana": null
  },
  "1304": {
    "zip_code": "9291304",
    "prefecture": "石川県",
    "prefecture_kana": "イシカワケン",
    "prefecture_code": 17,
    "city": "羽咋郡宝達志水町",
    "city_kana": "ハクイグンホウダツシミズチョウ",
    "town": "南吉田",
    "town_kana": "ミナミヨシタ",
    "street": null,
    "office_name": null,
    "office_name_kana": null
  },
  "1305": {
    "zip_code": "9291305",
    "prefecture": "石川県",
    "prefecture_kana": "イシカワケン",
    "prefecture_code": 17,
    "city": "羽咋郡宝達志水町",
    "city_kana": "ハクイグンホウダツシミズチョウ",
    "town": "竹生野",
    "town_kana": "タコノ",
    "street": null,
    "office_name": null,
    "office_name_kana": null
  },
  "1311": {
    "zip_code": "9291311",
    "prefecture": "石川県",
    "prefecture_kana": "イシカワケン",
    "prefecture_code": 17,
    "city": "羽咋郡宝達志水町",
    "city_kana": "ハクイグンホウダツシミズチョウ",
    "town": "門前",
    "town_kana": "モンゼン",
    "street": null,
    "office_name": null,
    "office_name_kana": null
  },
  "1312": {
    "zip_code": "9291312",
    "prefecture": "石川県",
    "prefecture_kana": "イシカワケン",
    "prefecture_code": 17,
    "city": "羽咋郡宝達志水町",
    "city_kana": "ハクイグンホウダツシミズチョウ",
    "town": "上田",
    "town_kana": "ウワダ",
    "street": null,
    "office_name": null,
    "office_name_kana": null
  },
  "1313": {
    "zip_code": "9291313",
    "prefecture": "石川県",
    "prefecture_kana": "イシカワケン",
    "prefecture_code": 17,
    "city": "羽咋郡宝達志水町",
    "city_kana": "ハクイグンホウダツシミズチョウ",
    "town": "東間",
    "town_kana": "アズマ",
    "street": null,
    "office_name": null,
    "office_name_kana": null
  },
  "1314": {
    "zip_code": "9291314",
    "prefecture": "石川県",
    "prefecture_kana": "イシカワケン",
    "prefecture_code": 17,
    "city": "羽咋郡宝達志水町",
    "city_kana": "ハクイグンホウダツシミズチョウ",
    "town": "紺屋町",
    "town_kana": "コンヤマチ",
    "street": null,
    "office_name": null,
    "office_name_kana": null
  },
  "1315": {
    "zip_code": "9291315",
    "prefecture": "石川県",
    "prefecture_kana": "イシカワケン",
    "prefecture_code": 17,
    "city": "羽咋郡宝達志水町",
    "city_kana": "ハクイグンホウダツシミズチョウ",
    "town": "東野",
    "town_kana": "ヒガシノ",
    "street": null,
    "office_name": null,
    "office_name_kana": null
  },
  "1316": {
    "zip_code": "9291316",
    "prefecture": "石川県",
    "prefecture_kana": "イシカワケン",
    "prefecture_code": 17,
    "city": "羽咋郡宝達志水町",
    "city_kana": "ハクイグンホウダツシミズチョウ",
    "town": "中野",
    "town_kana": "ナカノ",
    "street": null,
    "office_name": null,
    "office_name_kana": null
  },
  "1321": {
    "zip_code": "9291321",
    "prefecture": "石川県",
    "prefecture_kana": "イシカワケン",
    "prefecture_code": 17,
    "city": "羽咋郡宝達志水町",
    "city_kana": "ハクイグンホウダツシミズチョウ",
    "town": "上田出",
    "town_kana": "ウワダデ",
    "street": null,
    "office_name": null,
    "office_name_kana": null
  },
  "1322": {
    "zip_code": "9291322",
    "prefecture": "石川県",
    "prefecture_kana": "イシカワケン",
    "prefecture_code": 17,
    "city": "羽咋郡宝達志水町",
    "city_kana": "ハクイグンホウダツシミズチョウ",
    "town": "三日町",
    "town_kana": "ミッカマチ",
    "street": null,
    "office_name": null,
    "office_name_kana": null
  },
  "1323": {
    "zip_code": "9291323",
    "prefecture": "石川県",
    "prefecture_kana": "イシカワケン",
    "prefecture_code": 17,
    "city": "羽咋郡宝達志水町",
    "city_kana": "ハクイグンホウダツシミズチョウ",
    "town": "御舘",
    "town_kana": "オタチ",
    "street": null,
    "office_name": null,
    "office_name_kana": null
  },
  "1324": {
    "zip_code": "9291324",
    "prefecture": "石川県",
    "prefecture_kana": "イシカワケン",
    "prefecture_code": 17,
    "city": "羽咋郡宝達志水町",
    "city_kana": "ハクイグンホウダツシミズチョウ",
    "town": "正友",
    "town_kana": "マサトモ",
    "street": null,
    "office_name": null,
    "office_name_kana": null
  },
  "1325": {
    "zip_code": "9291325",
    "prefecture": "石川県",
    "prefecture_kana": "イシカワケン",
    "prefecture_code": 17,
    "city": "羽咋郡宝達志水町",
    "city_kana": "ハクイグンホウダツシミズチョウ",
    "town": "坪山",
    "town_kana": "ツボヤマ",
    "street": null,
    "office_name": null,
    "office_name_kana": null
  },
  "1326": {
    "zip_code": "9291326",
    "prefecture": "石川県",
    "prefecture_kana": "イシカワケン",
    "prefecture_code": 17,
    "city": "羽咋郡宝達志水町",
    "city_kana": "ハクイグンホウダツシミズチョウ",
    "town": "冬野",
    "town_kana": "フユノ",
    "street": null,
    "office_name": null,
    "office_name_kana": null
  },
  "1327": {
    "zip_code": "9291327",
    "prefecture": "石川県",
    "prefecture_kana": "イシカワケン",
    "prefecture_code": 17,
    "city": "羽咋郡宝達志水町",
    "city_kana": "ハクイグンホウダツシミズチョウ",
    "town": "森本",
    "town_kana": "モリモト",
    "street": null,
    "office_name": null,
    "office_name_kana": null
  },
  "1331": {
    "zip_code": "9291331",
    "prefecture": "石川県",
    "prefecture_kana": "イシカワケン",
    "prefecture_code": 17,
    "city": "羽咋郡宝達志水町",
    "city_kana": "ハクイグンホウダツシミズチョウ",
    "town": "米出",
    "town_kana": "コメダシ",
    "street": null,
    "office_name": null,
    "office_name_kana": null
  },
  "1332": {
    "zip_code": "9291332",
    "prefecture": "石川県",
    "prefecture_kana": "イシカワケン",
    "prefecture_code": 17,
    "city": "羽咋郡宝達志水町",
    "city_kana": "ハクイグンホウダツシミズチョウ",
    "town": "北川尻",
    "town_kana": "キタカワシリ",
    "street": null,
    "office_name": null,
    "office_name_kana": null
  },
  "1333": {
    "zip_code": "9291333",
    "prefecture": "石川県",
    "prefecture_kana": "イシカワケン",
    "prefecture_code": 17,
    "city": "羽咋郡宝達志水町",
    "city_kana": "ハクイグンホウダツシミズチョウ",
    "town": "免田",
    "town_kana": "メンデン",
    "street": null,
    "office_name": null,
    "office_name_kana": null
  },
  "1341": {
    "zip_code": "9291341",
    "prefecture": "石川県",
    "prefecture_kana": "イシカワケン",
    "prefecture_code": 17,
    "city": "羽咋郡宝達志水町",
    "city_kana": "ハクイグンホウダツシミズチョウ",
    "town": "宿",
    "town_kana": "シュク",
    "street": null,
    "office_name": null,
    "office_name_kana": null
  },
  "1342": {
    "zip_code": "9291342",
    "prefecture": "石川県",
    "prefecture_kana": "イシカワケン",
    "prefecture_code": 17,
    "city": "羽咋郡宝達志水町",
    "city_kana": "ハクイグンホウダツシミズチョウ",
    "town": "麦生",
    "town_kana": "ムギウ",
    "street": null,
    "office_name": null,
    "office_name_kana": null
  },
  "1343": {
    "zip_code": "9291343",
    "prefecture": "石川県",
    "prefecture_kana": "イシカワケン",
    "prefecture_code": 17,
    "city": "羽咋郡宝達志水町",
    "city_kana": "ハクイグンホウダツシミズチョウ",
    "town": "小川",
    "town_kana": "オガワ",
    "street": null,
    "office_name": null,
    "office_name_kana": null
  },
  "1344": {
    "zip_code": "9291344",
    "prefecture": "石川県",
    "prefecture_kana": "イシカワケン",
    "prefecture_code": 17,
    "city": "羽咋郡宝達志水町",
    "city_kana": "ハクイグンホウダツシミズチョウ",
    "town": "今浜",
    "town_kana": "イマハマ",
    "street": null,
    "office_name": null,
    "office_name_kana": null
  },
  "1345": {
    "zip_code": "9291345",
    "prefecture": "石川県",
    "prefecture_kana": "イシカワケン",
    "prefecture_code": 17,
    "city": "羽咋郡宝達志水町",
    "city_kana": "ハクイグンホウダツシミズチョウ",
    "town": "今浜新",
    "town_kana": "イマハマシン",
    "street": null,
    "office_name": null,
    "office_name_kana": null
  },
  "1392": {
    "zip_code": "9291392",
    "prefecture": "石川県",
    "prefecture_kana": "イシカワケン",
    "prefecture_code": 17,
    "city": "羽咋郡宝達志水町",
    "city_kana": "ハクイグンホウダツシミズチョウ",
    "town": "小川",
    "town_kana": "オガワ",
    "street": "ハ２５０",
    "office_name": "宝逹志水町役場　押水庁舎",
    "office_name_kana": "ホダツシミズチヨウヤクバ オシミズチヨウシヤ"
  },
  "1393": {
    "zip_code": "9291393",
    "prefecture": "石川県",
    "prefecture_kana": "イシカワケン",
    "prefecture_code": 17,
    "city": "羽咋郡宝達志水町",
    "city_kana": "ハクイグンホウダツシミズチョウ",
    "town": "米出",
    "town_kana": "コメダシ",
    "street": "ワ−１",
    "office_name": "能登カントリークラブ",
    "office_name_kana": "ノトカントリ-クラブ"
  },
  "1394": {
    "zip_code": "9291394",
    "prefecture": "石川県",
    "prefecture_kana": "イシカワケン",
    "prefecture_code": 17,
    "city": "羽咋郡宝達志水町",
    "city_kana": "ハクイグンホウダツシミズチョウ",
    "town": "今浜",
    "town_kana": "イマハマ",
    "street": "ト８０",
    "office_name": "石川県立　宝達高等学校",
    "office_name_kana": "イシカワケンリツ ホウダツコウトウガツコウ"
  },
  "1395": {
    "zip_code": "9291395",
    "prefecture": "石川県",
    "prefecture_kana": "イシカワケン",
    "prefecture_code": 17,
    "city": "羽咋郡宝達志水町",
    "city_kana": "ハクイグンホウダツシミズチョウ",
    "town": "宿",
    "town_kana": "シュク",
    "street": "２甲３６−１",
    "office_name": "三東観光　株式会社　千里浜カントリークラブ",
    "office_name_kana": "サントウカンコウ カブシキガイシヤ チリハマカントリ-クラブ"
  },
  "1396": {
    "zip_code": "9291396",
    "prefecture": "石川県",
    "prefecture_kana": "イシカワケン",
    "prefecture_code": 17,
    "city": "羽咋郡宝達志水町",
    "city_kana": "ハクイグンホウダツシミズチョウ",
    "town": "宿",
    "town_kana": "シュク",
    "street": "４４３−１０７",
    "office_name": "見砂酒造　株式会社",
    "office_name_kana": "ミサゴシユゾウ カブシキガイシヤ"
  },
  "1397": {
    "zip_code": "9291397",
    "prefecture": "石川県",
    "prefecture_kana": "イシカワケン",
    "prefecture_code": 17,
    "city": "羽咋郡宝達志水町",
    "city_kana": "ハクイグンホウダツシミズチョウ",
    "town": "小川",
    "town_kana": "オガワ",
    "street": "４−１",
    "office_name": "株式会社　トミナガ",
    "office_name_kana": "カブシキガイシヤ トミナガ"
  },
  "1401": {
    "zip_code": "9291401",
    "prefecture": "石川県",
    "prefecture_kana": "イシカワケン",
    "prefecture_code": 17,
    "city": "羽咋郡宝達志水町",
    "city_kana": "ハクイグンホウダツシミズチョウ",
    "town": "向瀬",
    "town_kana": "ムコセ",
    "street": null,
    "office_name": null,
    "office_name_kana": null
  },
  "1402": [
    {
      "zip_code": "9291402",
      "prefecture": "石川県",
      "prefecture_kana": "イシカワケン",
      "prefecture_code": 17,
      "city": "羽咋郡宝達志水町",
      "city_kana": "ハクイグンホウダツシミズチョウ",
      "town": "清水原",
      "town_kana": "シミズバラ",
      "street": null,
      "office_name": null,
      "office_name_kana": null
    },
    {
      "zip_code": "9291402",
      "prefecture": "石川県",
      "prefecture_kana": "イシカワケン",
      "prefecture_code": 17,
      "city": "羽咋郡宝達志水町",
      "city_kana": "ハクイグンホウダツシミズチョウ",
      "town": "走入",
      "town_kana": "ハシリ",
      "street": null,
      "office_name": null,
      "office_name_kana": null
    },
    {
      "zip_code": "9291402",
      "prefecture": "石川県",
      "prefecture_kana": "イシカワケン",
      "prefecture_code": 17,
      "city": "羽咋郡宝達志水町",
      "city_kana": "ハクイグンホウダツシミズチョウ",
      "town": "見砂",
      "town_kana": "ミサゴ",
      "street": null,
      "office_name": null,
      "office_name_kana": null
    }
  ],
  "1403": {
    "zip_code": "9291403",
    "prefecture": "石川県",
    "prefecture_kana": "イシカワケン",
    "prefecture_code": 17,
    "city": "羽咋郡宝達志水町",
    "city_kana": "ハクイグンホウダツシミズチョウ",
    "town": "所司原",
    "town_kana": "ショシハラ",
    "street": null,
    "office_name": null,
    "office_name_kana": null
  },
  "1404": [
    {
      "zip_code": "9291404",
      "prefecture": "石川県",
      "prefecture_kana": "イシカワケン",
      "prefecture_code": 17,
      "city": "羽咋郡宝達志水町",
      "city_kana": "ハクイグンホウダツシミズチョウ",
      "town": "新宮",
      "town_kana": "シングウ",
      "street": null,
      "office_name": null,
      "office_name_kana": null
    },
    {
      "zip_code": "9291404",
      "prefecture": "石川県",
      "prefecture_kana": "イシカワケン",
      "prefecture_code": 17,
      "city": "羽咋郡宝達志水町",
      "city_kana": "ハクイグンホウダツシミズチョウ",
      "town": "当熊",
      "town_kana": "トウノクマ",
      "street": null,
      "office_name": null,
      "office_name_kana": null
    },
    {
      "zip_code": "9291404",
      "prefecture": "石川県",
      "prefecture_kana": "イシカワケン",
      "prefecture_code": 17,
      "city": "羽咋郡宝達志水町",
      "city_kana": "ハクイグンホウダツシミズチョウ",
      "town": "原",
      "town_kana": "ハラ",
      "street": null,
      "office_name": null,
      "office_name_kana": null
    }
  ],
  "1405": [
    {
      "zip_code": "9291405",
      "prefecture": "石川県",
      "prefecture_kana": "イシカワケン",
      "prefecture_code": 17,
      "city": "羽咋郡宝達志水町",
      "city_kana": "ハクイグンホウダツシミズチョウ",
      "town": "海老坂",
      "town_kana": "エビサカ",
      "street": null,
      "office_name": null,
      "office_name_kana": null
    },
    {
      "zip_code": "9291405",
      "prefecture": "石川県",
      "prefecture_kana": "イシカワケン",
      "prefecture_code": 17,
      "city": "羽咋郡宝達志水町",
      "city_kana": "ハクイグンホウダツシミズチョウ",
      "town": "針山",
      "town_kana": "ハリヤマ",
      "street": null,
      "office_name": null,
      "office_name_kana": null
    },
    {
      "zip_code": "9291405",
      "prefecture": "石川県",
      "prefecture_kana": "イシカワケン",
      "prefecture_code": 17,
      "city": "羽咋郡宝達志水町",
      "city_kana": "ハクイグンホウダツシミズチョウ",
      "town": "聖川",
      "town_kana": "ヒジリカワ",
      "street": null,
      "office_name": null,
      "office_name_kana": null
    },
    {
      "zip_code": "9291405",
      "prefecture": "石川県",
      "prefecture_kana": "イシカワケン",
      "prefecture_code": 17,
      "city": "羽咋郡宝達志水町",
      "city_kana": "ハクイグンホウダツシミズチョウ",
      "town": "平床",
      "town_kana": "ヒラトコ",
      "street": null,
      "office_name": null,
      "office_name_kana": null
    }
  ],
  "1406": [
    {
      "zip_code": "9291406",
      "prefecture": "石川県",
      "prefecture_kana": "イシカワケン",
      "prefecture_code": 17,
      "city": "羽咋郡宝達志水町",
      "city_kana": "ハクイグンホウダツシミズチョウ",
      "town": "石坂",
      "town_kana": "イシサカ",
      "street": null,
      "office_name": null,
      "office_name_kana": null
    },
    {
      "zip_code": "9291406",
      "prefecture": "石川県",
      "prefecture_kana": "イシカワケン",
      "prefecture_code": 17,
      "city": "羽咋郡宝達志水町",
      "city_kana": "ハクイグンホウダツシミズチョウ",
      "town": "下石",
      "town_kana": "サガリシ",
      "street": null,
      "office_name": null,
      "office_name_kana": null
    },
    {
      "zip_code": "9291406",
      "prefecture": "石川県",
      "prefecture_kana": "イシカワケン",
      "prefecture_code": 17,
      "city": "羽咋郡宝達志水町",
      "city_kana": "ハクイグンホウダツシミズチョウ",
      "town": "散田",
      "town_kana": "サンデン",
      "street": null,
      "office_name": null,
      "office_name_kana": null
    }
  ],
  "1411": {
    "zip_code": "9291411",
    "prefecture": "石川県",
    "prefecture_kana": "イシカワケン",
    "prefecture_code": 17,
    "city": "羽咋郡宝達志水町",
    "city_kana": "ハクイグンホウダツシミズチョウ",
    "town": "柳瀬",
    "town_kana": "ヤナセ",
    "street": null,
    "office_name": null,
    "office_name_kana": null
  },
  "1412": {
    "zip_code": "9291412",
    "prefecture": "石川県",
    "prefecture_kana": "イシカワケン",
    "prefecture_code": 17,
    "city": "羽咋郡宝達志水町",
    "city_kana": "ハクイグンホウダツシミズチョウ",
    "town": "荻島",
    "town_kana": "オギノシマ",
    "street": null,
    "office_name": null,
    "office_name_kana": null
  },
  "1413": {
    "zip_code": "9291413",
    "prefecture": "石川県",
    "prefecture_kana": "イシカワケン",
    "prefecture_code": 17,
    "city": "羽咋郡宝達志水町",
    "city_kana": "ハクイグンホウダツシミズチョウ",
    "town": "荻谷",
    "town_kana": "オギノヤチ",
    "street": null,
    "office_name": null,
    "office_name_kana": null
  },
  "1414": {
    "zip_code": "9291414",
    "prefecture": "石川県",
    "prefecture_kana": "イシカワケン",
    "prefecture_code": 17,
    "city": "羽咋郡宝達志水町",
    "city_kana": "ハクイグンホウダツシミズチョウ",
    "town": "敷波",
    "town_kana": "シキナミ",
    "street": null,
    "office_name": null,
    "office_name_kana": null
  },
  "1415": {
    "zip_code": "9291415",
    "prefecture": "石川県",
    "prefecture_kana": "イシカワケン",
    "prefecture_code": 17,
    "city": "羽咋郡宝達志水町",
    "city_kana": "ハクイグンホウダツシミズチョウ",
    "town": "敷浪",
    "town_kana": "シキナミ",
    "street": null,
    "office_name": null,
    "office_name_kana": null
  },
  "1416": {
    "zip_code": "9291416",
    "prefecture": "石川県",
    "prefecture_kana": "イシカワケン",
    "prefecture_code": 17,
    "city": "羽咋郡宝達志水町",
    "city_kana": "ハクイグンホウダツシミズチョウ",
    "town": "出浜",
    "town_kana": "デハマ",
    "street": null,
    "office_name": null,
    "office_name_kana": null
  },
  "1421": {
    "zip_code": "9291421",
    "prefecture": "石川県",
    "prefecture_kana": "イシカワケン",
    "prefecture_code": 17,
    "city": "羽咋郡宝達志水町",
    "city_kana": "ハクイグンホウダツシミズチョウ",
    "town": "二口",
    "town_kana": "フタクチ",
    "street": null,
    "office_name": null,
    "office_name_kana": null
  },
  "1422": {
    "zip_code": "9291422",
    "prefecture": "石川県",
    "prefecture_kana": "イシカワケン",
    "prefecture_code": 17,
    "city": "羽咋郡宝達志水町",
    "city_kana": "ハクイグンホウダツシミズチョウ",
    "town": "杉野屋",
    "town_kana": "スギノヤ",
    "street": null,
    "office_name": null,
    "office_name_kana": null
  },
  "1423": {
    "zip_code": "9291423",
    "prefecture": "石川県",
    "prefecture_kana": "イシカワケン",
    "prefecture_code": 17,
    "city": "羽咋郡宝達志水町",
    "city_kana": "ハクイグンホウダツシミズチョウ",
    "town": "菅原",
    "town_kana": "スガハラ",
    "street": null,
    "office_name": null,
    "office_name_kana": null
  },
  "1424": {
    "zip_code": "9291424",
    "prefecture": "石川県",
    "prefecture_kana": "イシカワケン",
    "prefecture_code": 17,
    "city": "羽咋郡宝達志水町",
    "city_kana": "ハクイグンホウダツシミズチョウ",
    "town": "吉野屋",
    "town_kana": "ヨシノヤ",
    "street": null,
    "office_name": null,
    "office_name_kana": null
  },
  "1425": {
    "zip_code": "9291425",
    "prefecture": "石川県",
    "prefecture_kana": "イシカワケン",
    "prefecture_code": 17,
    "city": "羽咋郡宝達志水町",
    "city_kana": "ハクイグンホウダツシミズチョウ",
    "town": "子浦",
    "town_kana": "シオ",
    "street": null,
    "office_name": null,
    "office_name_kana": null
  },
  "1426": {
    "zip_code": "9291426",
    "prefecture": "石川県",
    "prefecture_kana": "イシカワケン",
    "prefecture_code": 17,
    "city": "羽咋郡宝達志水町",
    "city_kana": "ハクイグンホウダツシミズチョウ",
    "town": "荻市",
    "town_kana": "オギチ",
    "street": null,
    "office_name": null,
    "office_name_kana": null
  },
  "1492": {
    "zip_code": "9291492",
    "prefecture": "石川県",
    "prefecture_kana": "イシカワケン",
    "prefecture_code": 17,
    "city": "羽咋郡宝達志水町",
    "city_kana": "ハクイグンホウダツシミズチョウ",
    "town": "子浦",
    "town_kana": "シオ",
    "street": "そ１８−１",
    "office_name": "宝達志水町役場",
    "office_name_kana": "ホウダツシミズチヨウヤクバ"
  },
  "1493": {
    "zip_code": "9291493",
    "prefecture": "石川県",
    "prefecture_kana": "イシカワケン",
    "prefecture_code": 17,
    "city": "羽咋郡宝達志水町",
    "city_kana": "ハクイグンホウダツシミズチョウ",
    "town": "杉野屋",
    "town_kana": "スギノヤ",
    "street": "ぬ１−１",
    "office_name": "三協マテリアル　株式会社　石川工場",
    "office_name_kana": "サンキヨウマテリアル カブシキガイシヤ イシカワコウジヨウ"
  },
  "1494": {
    "zip_code": "9291494",
    "prefecture": "石川県",
    "prefecture_kana": "イシカワケン",
    "prefecture_code": 17,
    "city": "羽咋郡宝達志水町",
    "city_kana": "ハクイグンホウダツシミズチョウ",
    "town": "敷波",
    "town_kana": "シキナミ",
    "street": "１−１４",
    "office_name": "参天製薬　株式会社　能登工場",
    "office_name_kana": "サンテンセイヤク カブシキガイシヤ ノトコウジヨウ"
  },
  "1521": {
    "zip_code": "9291521",
    "prefecture": "石川県",
    "prefecture_kana": "イシカワケン",
    "prefecture_code": 17,
    "city": "鹿島郡中能登町",
    "city_kana": "カシマグンナカノトマチ",
    "town": "金丸",
    "town_kana": "カネマル",
    "street": null,
    "office_name": null,
    "office_name_kana": null
  },
  "1571": {
    "zip_code": "9291571",
    "prefecture": "石川県",
    "prefecture_kana": "イシカワケン",
    "prefecture_code": 17,
    "city": "羽咋市",
    "city_kana": "ハクイシ",
    "town": "下曽祢町",
    "town_kana": "シモソネマチ",
    "street": null,
    "office_name": null,
    "office_name_kana": null
  },
  "1572": {
    "zip_code": "9291572",
    "prefecture": "石川県",
    "prefecture_kana": "イシカワケン",
    "prefecture_code": 17,
    "city": "羽咋市",
    "city_kana": "ハクイシ",
    "town": "大町",
    "town_kana": "オオマチ",
    "street": null,
    "office_name": null,
    "office_name_kana": null
  },
  "1573": {
    "zip_code": "9291573",
    "prefecture": "石川県",
    "prefecture_kana": "イシカワケン",
    "prefecture_code": 17,
    "city": "羽咋市",
    "city_kana": "ハクイシ",
    "town": "四柳町",
    "town_kana": "ヨツヤナギマチ",
    "street": null,
    "office_name": null,
    "office_name_kana": null
  },
  "1574": {
    "zip_code": "9291574",
    "prefecture": "石川県",
    "prefecture_kana": "イシカワケン",
    "prefecture_code": 17,
    "city": "羽咋市",
    "city_kana": "ハクイシ",
    "town": "酒井町",
    "town_kana": "サカイマチ",
    "street": null,
    "office_name": null,
    "office_name_kana": null
  },
  "1575": {
    "zip_code": "9291575",
    "prefecture": "石川県",
    "prefecture_kana": "イシカワケン",
    "prefecture_code": 17,
    "city": "羽咋市",
    "city_kana": "ハクイシ",
    "town": "金丸出町",
    "town_kana": "カネマルデマチ",
    "street": null,
    "office_name": null,
    "office_name_kana": null
  },
  "1576": {
    "zip_code": "9291576",
    "prefecture": "石川県",
    "prefecture_kana": "イシカワケン",
    "prefecture_code": 17,
    "city": "羽咋市",
    "city_kana": "ハクイシ",
    "town": "鹿島路町",
    "town_kana": "カシマジマチ",
    "street": null,
    "office_name": null,
    "office_name_kana": null
  },
  "1577": {
    "zip_code": "9291577",
    "prefecture": "石川県",
    "prefecture_kana": "イシカワケン",
    "prefecture_code": 17,
    "city": "羽咋市",
    "city_kana": "ハクイシ",
    "town": "東潟町",
    "town_kana": "ヒガシカタマチ",
    "street": null,
    "office_name": null,
    "office_name_kana": null
  },
  "1601": {
    "zip_code": "9291601",
    "prefecture": "石川県",
    "prefecture_kana": "イシカワケン",
    "prefecture_code": 17,
    "city": "鹿島郡中能登町",
    "city_kana": "カシマグンナカノトマチ",
    "town": "西馬場",
    "town_kana": "ニシババ",
    "street": null,
    "office_name": null,
    "office_name_kana": null
  },
  "1602": {
    "zip_code": "9291602",
    "prefecture": "石川県",
    "prefecture_kana": "イシカワケン",
    "prefecture_code": 17,
    "city": "鹿島郡中能登町",
    "city_kana": "カシマグンナカノトマチ",
    "town": "能登部上",
    "town_kana": "ノトベカミ",
    "street": null,
    "office_name": null,
    "office_name_kana": null
  },
  "1603": {
    "zip_code": "9291603",
    "prefecture": "石川県",
    "prefecture_kana": "イシカワケン",
    "prefecture_code": 17,
    "city": "鹿島郡中能登町",
    "city_kana": "カシマグンナカノトマチ",
    "town": "徳丸",
    "town_kana": "トクマル",
    "street": null,
    "office_name": null,
    "office_name_kana": null
  },
  "1604": {
    "zip_code": "9291604",
    "prefecture": "石川県",
    "prefecture_kana": "イシカワケン",
    "prefecture_code": 17,
    "city": "鹿島郡中能登町",
    "city_kana": "カシマグンナカノトマチ",
    "town": "能登部下",
    "town_kana": "ノトベシモ",
    "street": null,
    "office_name": null,
    "office_name_kana": null
  },
  "1605": {
    "zip_code": "9291605",
    "prefecture": "石川県",
    "prefecture_kana": "イシカワケン",
    "prefecture_code": 17,
    "city": "鹿島郡中能登町",
    "city_kana": "カシマグンナカノトマチ",
    "town": "下後山",
    "town_kana": "シモウシロヤマ",
    "street": null,
    "office_name": null,
    "office_name_kana": null
  },
  "1606": {
    "zip_code": "9291606",
    "prefecture": "石川県",
    "prefecture_kana": "イシカワケン",
    "prefecture_code": 17,
    "city": "鹿島郡中能登町",
    "city_kana": "カシマグンナカノトマチ",
    "town": "上後山",
    "town_kana": "カミウシロヤマ",
    "street": null,
    "office_name": null,
    "office_name_kana": null
  },
  "1631": {
    "zip_code": "9291631",
    "prefecture": "石川県",
    "prefecture_kana": "イシカワケン",
    "prefecture_code": 17,
    "city": "鹿島郡中能登町",
    "city_kana": "カシマグンナカノトマチ",
    "town": "久江",
    "town_kana": "クエ",
    "street": null,
    "office_name": null,
    "office_name_kana": null
  },
  "1632": {
    "zip_code": "9291632",
    "prefecture": "石川県",
    "prefecture_kana": "イシカワケン",
    "prefecture_code": 17,
    "city": "鹿島郡中能登町",
    "city_kana": "カシマグンナカノトマチ",
    "town": "小田中",
    "town_kana": "コダナカ",
    "street": null,
    "office_name": null,
    "office_name_kana": null
  },
  "1633": {
    "zip_code": "9291633",
    "prefecture": "石川県",
    "prefecture_kana": "イシカワケン",
    "prefecture_code": 17,
    "city": "鹿島郡中能登町",
    "city_kana": "カシマグンナカノトマチ",
    "town": "藤井",
    "town_kana": "フジイ",
    "street": null,
    "office_name": null,
    "office_name_kana": null
  },
  "1634": {
    "zip_code": "9291634",
    "prefecture": "石川県",
    "prefecture_kana": "イシカワケン",
    "prefecture_code": 17,
    "city": "鹿島郡中能登町",
    "city_kana": "カシマグンナカノトマチ",
    "town": "福田",
    "town_kana": "フクダ",
    "street": null,
    "office_name": null,
    "office_name_kana": null
  },
  "1635": {
    "zip_code": "9291635",
    "prefecture": "石川県",
    "prefecture_kana": "イシカワケン",
    "prefecture_code": 17,
    "city": "鹿島郡中能登町",
    "city_kana": "カシマグンナカノトマチ",
    "town": "高畠",
    "town_kana": "タカバタケ",
    "street": null,
    "office_name": null,
    "office_name_kana": null
  },
  "1636": {
    "zip_code": "9291636",
    "prefecture": "石川県",
    "prefecture_kana": "イシカワケン",
    "prefecture_code": 17,
    "city": "鹿島郡中能登町",
    "city_kana": "カシマグンナカノトマチ",
    "town": "小金森",
    "town_kana": "コガネモリ",
    "street": null,
    "office_name": null,
    "office_name_kana": null
  },
  "1637": {
    "zip_code": "9291637",
    "prefecture": "石川県",
    "prefecture_kana": "イシカワケン",
    "prefecture_code": 17,
    "city": "鹿島郡中能登町",
    "city_kana": "カシマグンナカノトマチ",
    "town": "曽祢",
    "town_kana": "ソネ",
    "street": null,
    "office_name": null,
    "office_name_kana": null
  },
  "1692": {
    "zip_code": "9291692",
    "prefecture": "石川県",
    "prefecture_kana": "イシカワケン",
    "prefecture_code": 17,
    "city": "鹿島郡中能登町",
    "city_kana": "カシマグンナカノトマチ",
    "town": "能登部下",
    "town_kana": "ノトベシモ",
    "street": "８５−１",
    "office_name": "中能登町役場　鹿西庁舎",
    "office_name_kana": "ナカノトマチヤクバ ロクセイチヨウシヤ"
  },
  "1700": {
    "zip_code": "9291700",
    "prefecture": "石川県",
    "prefecture_kana": "イシカワケン",
    "prefecture_code": 17,
    "city": "鹿島郡中能登町",
    "city_kana": "カシマグンナカノトマチ",
    "town": "",
    "town_kana": "",
    "street": null,
    "office_name": null,
    "office_name_kana": null
  },
  "1701": {
    "zip_code": "9291701",
    "prefecture": "石川県",
    "prefecture_kana": "イシカワケン",
    "prefecture_code": 17,
    "city": "鹿島郡中能登町",
    "city_kana": "カシマグンナカノトマチ",
    "town": "川田",
    "town_kana": "カワダ",
    "street": null,
    "office_name": null,
    "office_name_kana": null
  },
  "1702": {
    "zip_code": "9291702",
    "prefecture": "石川県",
    "prefecture_kana": "イシカワケン",
    "prefecture_code": 17,
    "city": "鹿島郡中能登町",
    "city_kana": "カシマグンナカノトマチ",
    "town": "大槻",
    "town_kana": "オオヅキ",
    "street": null,
    "office_name": null,
    "office_name_kana": null
  },
  "1703": {
    "zip_code": "9291703",
    "prefecture": "石川県",
    "prefecture_kana": "イシカワケン",
    "prefecture_code": 17,
    "city": "鹿島郡中能登町",
    "city_kana": "カシマグンナカノトマチ",
    "town": "春木",
    "town_kana": "ハルキ",
    "street": null,
    "office_name": null,
    "office_name_kana": null
  },
  "1704": {
    "zip_code": "9291704",
    "prefecture": "石川県",
    "prefecture_kana": "イシカワケン",
    "prefecture_code": 17,
    "city": "鹿島郡中能登町",
    "city_kana": "カシマグンナカノトマチ",
    "town": "末坂",
    "town_kana": "スエザカ",
    "street": null,
    "office_name": null,
    "office_name_kana": null
  },
  "1705": {
    "zip_code": "9291705",
    "prefecture": "石川県",
    "prefecture_kana": "イシカワケン",
    "prefecture_code": 17,
    "city": "鹿島郡中能登町",
    "city_kana": "カシマグンナカノトマチ",
    "town": "花見月",
    "town_kana": "ハナミツキ",
    "street": null,
    "office_name": null,
    "office_name_kana": null
  },
  "1706": {
    "zip_code": "9291706",
    "prefecture": "石川県",
    "prefecture_kana": "イシカワケン",
    "prefecture_code": 17,
    "city": "鹿島郡中能登町",
    "city_kana": "カシマグンナカノトマチ",
    "town": "瀬戸",
    "town_kana": "セト",
    "street": null,
    "office_name": null,
    "office_name_kana": null
  },
  "1711": {
    "zip_code": "9291711",
    "prefecture": "石川県",
    "prefecture_kana": "イシカワケン",
    "prefecture_code": 17,
    "city": "鹿島郡中能登町",
    "city_kana": "カシマグンナカノトマチ",
    "town": "廿九日",
    "town_kana": "ヒズメ",
    "street": null,
    "office_name": null,
    "office_name_kana": null
  },
  "1712": {
    "zip_code": "9291712",
    "prefecture": "石川県",
    "prefecture_kana": "イシカワケン",
    "prefecture_code": 17,
    "city": "鹿島郡中能登町",
    "city_kana": "カシマグンナカノトマチ",
    "town": "新庄",
    "town_kana": "シンジョウ",
    "street": null,
    "office_name": null,
    "office_name_kana": null
  },
  "1713": {
    "zip_code": "9291713",
    "prefecture": "石川県",
    "prefecture_kana": "イシカワケン",
    "prefecture_code": 17,
    "city": "鹿島郡中能登町",
    "city_kana": "カシマグンナカノトマチ",
    "town": "今羽坂",
    "town_kana": "イマハザカ",
    "street": null,
    "office_name": null,
    "office_name_kana": null
  },
  "1714": {
    "zip_code": "9291714",
    "prefecture": "石川県",
    "prefecture_kana": "イシカワケン",
    "prefecture_code": 17,
    "city": "鹿島郡中能登町",
    "city_kana": "カシマグンナカノトマチ",
    "town": "羽坂",
    "town_kana": "ハザカ",
    "street": null,
    "office_name": null,
    "office_name_kana": null
  },
  "1715": {
    "zip_code": "9291715",
    "prefecture": "石川県",
    "prefecture_kana": "イシカワケン",
    "prefecture_code": 17,
    "city": "鹿島郡中能登町",
    "city_kana": "カシマグンナカノトマチ",
    "town": "一青",
    "town_kana": "ヒトト",
    "street": null,
    "office_name": null,
    "office_name_kana": null
  },
  "1716": {
    "zip_code": "9291716",
    "prefecture": "石川県",
    "prefecture_kana": "イシカワケン",
    "prefecture_code": 17,
    "city": "鹿島郡中能登町",
    "city_kana": "カシマグンナカノトマチ",
    "town": "黒氏",
    "town_kana": "クロジ",
    "street": null,
    "office_name": null,
    "office_name_kana": null
  },
  "1717": {
    "zip_code": "9291717",
    "prefecture": "石川県",
    "prefecture_kana": "イシカワケン",
    "prefecture_code": 17,
    "city": "鹿島郡中能登町",
    "city_kana": "カシマグンナカノトマチ",
    "town": "良川",
    "town_kana": "ヨシカワ",
    "street": null,
    "office_name": null,
    "office_name_kana": null
  },
  "1721": {
    "zip_code": "9291721",
    "prefecture": "石川県",
    "prefecture_kana": "イシカワケン",
    "prefecture_code": 17,
    "city": "鹿島郡中能登町",
    "city_kana": "カシマグンナカノトマチ",
    "town": "井田",
    "town_kana": "イダ",
    "street": null,
    "office_name": null,
    "office_name_kana": null
  },
  "1722": {
    "zip_code": "9291722",
    "prefecture": "石川県",
    "prefecture_kana": "イシカワケン",
    "prefecture_code": 17,
    "city": "鹿島郡中能登町",
    "city_kana": "カシマグンナカノトマチ",
    "town": "小竹",
    "town_kana": "オダケ",
    "street": null,
    "office_name": null,
    "office_name_kana": null
  },
  "1723": {
    "zip_code": "9291723",
    "prefecture": "石川県",
    "prefecture_kana": "イシカワケン",
    "prefecture_code": 17,
    "city": "鹿島郡中能登町",
    "city_kana": "カシマグンナカノトマチ",
    "town": "水白",
    "town_kana": "ミジロ",
    "street": null,
    "office_name": null,
    "office_name_kana": null
  },
  "1724": {
    "zip_code": "9291724",
    "prefecture": "石川県",
    "prefecture_kana": "イシカワケン",
    "prefecture_code": 17,
    "city": "鹿島郡中能登町",
    "city_kana": "カシマグンナカノトマチ",
    "town": "尾崎",
    "town_kana": "オサキ",
    "street": null,
    "office_name": null,
    "office_name_kana": null
  },
  "1725": {
    "zip_code": "9291725",
    "prefecture": "石川県",
    "prefecture_kana": "イシカワケン",
    "prefecture_code": 17,
    "city": "鹿島郡中能登町",
    "city_kana": "カシマグンナカノトマチ",
    "town": "東馬場",
    "town_kana": "ヒガシババ",
    "street": null,
    "office_name": null,
    "office_name_kana": null
  },
  "1726": {
    "zip_code": "9291726",
    "prefecture": "石川県",
    "prefecture_kana": "イシカワケン",
    "prefecture_code": 17,
    "city": "鹿島郡中能登町",
    "city_kana": "カシマグンナカノトマチ",
    "town": "最勝講",
    "town_kana": "サイスコ",
    "street": null,
    "office_name": null,
    "office_name_kana": null
  },
  "1792": {
    "zip_code": "9291792",
    "prefecture": "石川県",
    "prefecture_kana": "イシカワケン",
    "prefecture_code": 17,
    "city": "鹿島郡中能登町",
    "city_kana": "カシマグンナカノトマチ",
    "town": "末坂",
    "town_kana": "スエザカ",
    "street": "９−４６",
    "office_name": "中能登町役場　鳥屋庁舎",
    "office_name_kana": "ナカノトマチヤクバ トリヤチヨウシヤ"
  },
  "1801": {
    "zip_code": "9291801",
    "prefecture": "石川県",
    "prefecture_kana": "イシカワケン",
    "prefecture_code": 17,
    "city": "鹿島郡中能登町",
    "city_kana": "カシマグンナカノトマチ",
    "town": "久乃木",
    "town_kana": "クノギ",
    "street": null,
    "office_name": null,
    "office_name_kana": null
  },
  "1802": {
    "zip_code": "9291802",
    "prefecture": "石川県",
    "prefecture_kana": "イシカワケン",
    "prefecture_code": 17,
    "city": "鹿島郡中能登町",
    "city_kana": "カシマグンナカノトマチ",
    "town": "武部",
    "town_kana": "タケベ",
    "street": null,
    "office_name": null,
    "office_name_kana": null
  },
  "1803": {
    "zip_code": "9291803",
    "prefecture": "石川県",
    "prefecture_kana": "イシカワケン",
    "prefecture_code": 17,
    "city": "鹿島郡中能登町",
    "city_kana": "カシマグンナカノトマチ",
    "town": "西",
    "town_kana": "ニシ",
    "street": null,
    "office_name": null,
    "office_name_kana": null
  },
  "1804": {
    "zip_code": "9291804",
    "prefecture": "石川県",
    "prefecture_kana": "イシカワケン",
    "prefecture_code": 17,
    "city": "鹿島郡中能登町",
    "city_kana": "カシマグンナカノトマチ",
    "town": "在江",
    "town_kana": "アルエ",
    "street": null,
    "office_name": null,
    "office_name_kana": null
  },
  "1805": {
    "zip_code": "9291805",
    "prefecture": "石川県",
    "prefecture_kana": "イシカワケン",
    "prefecture_code": 17,
    "city": "鹿島郡中能登町",
    "city_kana": "カシマグンナカノトマチ",
    "town": "坪川",
    "town_kana": "ツボカワ",
    "street": null,
    "office_name": null,
    "office_name_kana": null
  },
  "1811": {
    "zip_code": "9291811",
    "prefecture": "石川県",
    "prefecture_kana": "イシカワケン",
    "prefecture_code": 17,
    "city": "鹿島郡中能登町",
    "city_kana": "カシマグンナカノトマチ",
    "town": "二宮",
    "town_kana": "ニノミヤ",
    "street": null,
    "office_name": null,
    "office_name_kana": null
  },
  "1812": {
    "zip_code": "9291812",
    "prefecture": "石川県",
    "prefecture_kana": "イシカワケン",
    "prefecture_code": 17,
    "city": "鹿島郡中能登町",
    "city_kana": "カシマグンナカノトマチ",
    "town": "石動山",
    "town_kana": "セキドウサン",
    "street": null,
    "office_name": null,
    "office_name_kana": null
  },
  "1813": {
    "zip_code": "9291813",
    "prefecture": "石川県",
    "prefecture_kana": "イシカワケン",
    "prefecture_code": 17,
    "city": "鹿島郡中能登町",
    "city_kana": "カシマグンナカノトマチ",
    "town": "蟻ケ原",
    "town_kana": "アリガハラ",
    "street": null,
    "office_name": null,
    "office_name_kana": null
  },
  "1814": {
    "zip_code": "9291814",
    "prefecture": "石川県",
    "prefecture_kana": "イシカワケン",
    "prefecture_code": 17,
    "city": "鹿島郡中能登町",
    "city_kana": "カシマグンナカノトマチ",
    "town": "原山",
    "town_kana": "ハラヤマ",
    "street": null,
    "office_name": null,
    "office_name_kana": null
  },
  "1815": {
    "zip_code": "9291815",
    "prefecture": "石川県",
    "prefecture_kana": "イシカワケン",
    "prefecture_code": 17,
    "city": "鹿島郡中能登町",
    "city_kana": "カシマグンナカノトマチ",
    "town": "芹川",
    "town_kana": "セリカワ",
    "street": null,
    "office_name": null,
    "office_name_kana": null
  },
  "1816": {
    "zip_code": "9291816",
    "prefecture": "石川県",
    "prefecture_kana": "イシカワケン",
    "prefecture_code": 17,
    "city": "鹿島郡中能登町",
    "city_kana": "カシマグンナカノトマチ",
    "town": "浅井",
    "town_kana": "アサイ",
    "street": null,
    "office_name": null,
    "office_name_kana": null
  },
  "1817": {
    "zip_code": "9291817",
    "prefecture": "石川県",
    "prefecture_kana": "イシカワケン",
    "prefecture_code": 17,
    "city": "鹿島郡中能登町",
    "city_kana": "カシマグンナカノトマチ",
    "town": "徳前",
    "town_kana": "トクゼン",
    "street": null,
    "office_name": null,
    "office_name_kana": null
  },
  "1818": {
    "zip_code": "9291818",
    "prefecture": "石川県",
    "prefecture_kana": "イシカワケン",
    "prefecture_code": 17,
    "city": "鹿島郡中能登町",
    "city_kana": "カシマグンナカノトマチ",
    "town": "二宮あおば台",
    "town_kana": "ニノミヤアオバダイ",
    "street": null,
    "office_name": null,
    "office_name_kana": null
  },
  "1892": {
    "zip_code": "9291892",
    "prefecture": "石川県",
    "prefecture_kana": "イシカワケン",
    "prefecture_code": 17,
    "city": "鹿島郡中能登町",
    "city_kana": "カシマグンナカノトマチ",
    "town": "井田",
    "town_kana": "イダ",
    "street": "４部１−１（鹿島郵便局私書箱第２号）",
    "office_name": "中能登町役場　鹿島庁舎",
    "office_name_kana": "ナカノトマチヤクバ カシマチヨウシヤ"
  },
  "2101": {
    "zip_code": "9292101",
    "prefecture": "石川県",
    "prefecture_kana": "イシカワケン",
    "prefecture_code": 17,
    "city": "七尾市",
    "city_kana": "ナナオシ",
    "town": "川尻町",
    "town_kana": "カワシリマチ",
    "street": null,
    "office_name": null,
    "office_name_kana": null
  },
  "2102": {
    "zip_code": "9292102",
    "prefecture": "石川県",
    "prefecture_kana": "イシカワケン",
    "prefecture_code": 17,
    "city": "七尾市",
    "city_kana": "ナナオシ",
    "town": "舟尾町",
    "town_kana": "フノオマチ",
    "street": null,
    "office_name": null,
    "office_name_kana": null
  },
  "2103": {
    "zip_code": "9292103",
    "prefecture": "石川県",
    "prefecture_kana": "イシカワケン",
    "prefecture_code": 17,
    "city": "七尾市",
    "city_kana": "ナナオシ",
    "town": "東山町",
    "town_kana": "ヒガシヤママチ",
    "street": null,
    "office_name": null,
    "office_name_kana": null
  },
  "2104": {
    "zip_code": "9292104",
    "prefecture": "石川県",
    "prefecture_kana": "イシカワケン",
    "prefecture_code": 17,
    "city": "七尾市",
    "city_kana": "ナナオシ",
    "town": "垣吉町",
    "town_kana": "カキヨシマチ",
    "street": null,
    "office_name": null,
    "office_name_kana": null
  },
  "2105": {
    "zip_code": "9292105",
    "prefecture": "石川県",
    "prefecture_kana": "イシカワケン",
    "prefecture_code": 17,
    "city": "七尾市",
    "city_kana": "ナナオシ",
    "town": "新屋町",
    "town_kana": "アラヤマチ",
    "street": null,
    "office_name": null,
    "office_name_kana": null
  },
  "2111": {
    "zip_code": "9292111",
    "prefecture": "石川県",
    "prefecture_kana": "イシカワケン",
    "prefecture_code": 17,
    "city": "七尾市",
    "city_kana": "ナナオシ",
    "town": "高田町",
    "town_kana": "タカタマチ",
    "street": null,
    "office_name": null,
    "office_name_kana": null
  },
  "2112": {
    "zip_code": "9292112",
    "prefecture": "石川県",
    "prefecture_kana": "イシカワケン",
    "prefecture_code": 17,
    "city": "七尾市",
    "city_kana": "ナナオシ",
    "town": "杉森町",
    "town_kana": "スギモリマチ",
    "street": null,
    "office_name": null,
    "office_name_kana": null
  },
  "2113": {
    "zip_code": "9292113",
    "prefecture": "石川県",
    "prefecture_kana": "イシカワケン",
    "prefecture_code": 17,
    "city": "七尾市",
    "city_kana": "ナナオシ",
    "town": "西下町",
    "town_kana": "ニシシモマチ",
    "street": null,
    "office_name": null,
    "office_name_kana": null
  },
  "2114": {
    "zip_code": "9292114",
    "prefecture": "石川県",
    "prefecture_kana": "イシカワケン",
    "prefecture_code": 17,
    "city": "七尾市",
    "city_kana": "ナナオシ",
    "town": "伊久留町",
    "town_kana": "イクロマチ",
    "street": null,
    "office_name": null,
    "office_name_kana": null
  },
  "2115": {
    "zip_code": "9292115",
    "prefecture": "石川県",
    "prefecture_kana": "イシカワケン",
    "prefecture_code": 17,
    "city": "七尾市",
    "city_kana": "ナナオシ",
    "town": "七原町",
    "town_kana": "シツハラマチ",
    "street": null,
    "office_name": null,
    "office_name_kana": null
  },
  "2116": {
    "zip_code": "9292116",
    "prefecture": "石川県",
    "prefecture_kana": "イシカワケン",
    "prefecture_code": 17,
    "city": "七尾市",
    "city_kana": "ナナオシ",
    "town": "吉田町",
    "town_kana": "ヨシタマチ",
    "street": null,
    "office_name": null,
    "office_name_kana": null
  },
  "2121": {
    "zip_code": "9292121",
    "prefecture": "石川県",
    "prefecture_kana": "イシカワケン",
    "prefecture_code": 17,
    "city": "七尾市",
    "city_kana": "ナナオシ",
    "town": "田鶴浜町",
    "town_kana": "タツルハママチ",
    "street": null,
    "office_name": null,
    "office_name_kana": null
  },
  "2122": {
    "zip_code": "9292122",
    "prefecture": "石川県",
    "prefecture_kana": "イシカワケン",
    "prefecture_code": 17,
    "city": "七尾市",
    "city_kana": "ナナオシ",
    "town": "上野ケ丘町",
    "town_kana": "ウワノガオカマチ",
    "street": null,
    "office_name": null,
    "office_name_kana": null
  },
  "2123": {
    "zip_code": "9292123",
    "prefecture": "石川県",
    "prefecture_kana": "イシカワケン",
    "prefecture_code": 17,
    "city": "七尾市",
    "city_kana": "ナナオシ",
    "town": "三引町",
    "town_kana": "ミビキマチ",
    "street": null,
    "office_name": null,
    "office_name_kana": null
  },
  "2124": {
    "zip_code": "9292124",
    "prefecture": "石川県",
    "prefecture_kana": "イシカワケン",
    "prefecture_code": 17,
    "city": "七尾市",
    "city_kana": "ナナオシ",
    "town": "白浜町",
    "town_kana": "シラハママチ",
    "street": null,
    "office_name": null,
    "office_name_kana": null
  },
  "2125": {
    "zip_code": "9292125",
    "prefecture": "石川県",
    "prefecture_kana": "イシカワケン",
    "prefecture_code": 17,
    "city": "七尾市",
    "city_kana": "ナナオシ",
    "town": "深見町",
    "town_kana": "フカミマチ",
    "street": null,
    "office_name": null,
    "office_name_kana": null
  },
  "2126": {
    "zip_code": "9292126",
    "prefecture": "石川県",
    "prefecture_kana": "イシカワケン",
    "prefecture_code": 17,
    "city": "七尾市",
    "city_kana": "ナナオシ",
    "town": "大津町",
    "town_kana": "オオツマチ",
    "street": null,
    "office_name": null,
    "office_name_kana": null
  },
  "2192": {
    "zip_code": "9292192",
    "prefecture": "石川県",
    "prefecture_kana": "イシカワケン",
    "prefecture_code": 17,
    "city": "七尾市",
    "city_kana": "ナナオシ",
    "town": "田鶴浜町",
    "town_kana": "タツルハママチ",
    "street": "り部６",
    "office_name": "七尾市役所　田鶴浜支所",
    "office_name_kana": "ナナオシヤクシヨ タツルハマシシヨ"
  },
  "2195": {
    "zip_code": "9292195",
    "prefecture": "石川県",
    "prefecture_kana": "イシカワケン",
    "prefecture_code": 17,
    "city": "七尾市",
    "city_kana": "ナナオシ",
    "town": "上野ケ丘町",
    "town_kana": "ウワノガオカマチ",
    "street": "５９",
    "office_name": "石川県立　田鶴浜高等学校",
    "office_name_kana": "イシカワケンリツ タヅルハマコウトウガツコウ"
  },
  "2201": {
    "zip_code": "9292201",
    "prefecture": "石川県",
    "prefecture_kana": "イシカワケン",
    "prefecture_code": 17,
    "city": "七尾市",
    "city_kana": "ナナオシ",
    "town": "中島町河内",
    "town_kana": "ナカジママチカワチ",
    "street": null,
    "office_name": null,
    "office_name_kana": null
  },
  "2202": {
    "zip_code": "9292202",
    "prefecture": "石川県",
    "prefecture_kana": "イシカワケン",
    "prefecture_code": 17,
    "city": "七尾市",
    "city_kana": "ナナオシ",
    "town": "中島町別所",
    "town_kana": "ナカジママチベッショ",
    "street": null,
    "office_name": null,
    "office_name_kana": null
  },
  "2203": {
    "zip_code": "9292203",
    "prefecture": "石川県",
    "prefecture_kana": "イシカワケン",
    "prefecture_code": 17,
    "city": "七尾市",
    "city_kana": "ナナオシ",
    "town": "中島町北免田",
    "town_kana": "ナカジママチキタメンデン",
    "street": null,
    "office_name": null,
    "office_name_kana": null
  },
  "2204": {
    "zip_code": "9292204",
    "prefecture": "石川県",
    "prefecture_kana": "イシカワケン",
    "prefecture_code": 17,
    "city": "七尾市",
    "city_kana": "ナナオシ",
    "town": "中島町上畠",
    "town_kana": "ナカジママチウワバタケ",
    "street": null,
    "office_name": null,
    "office_name_kana": null
  },
  "2205": {
    "zip_code": "9292205",
    "prefecture": "石川県",
    "prefecture_kana": "イシカワケン",
    "prefecture_code": 17,
    "city": "七尾市",
    "city_kana": "ナナオシ",
    "town": "中島町町屋",
    "town_kana": "ナカジママチマチヤ",
    "street": null,
    "office_name": null,
    "office_name_kana": null
  },
  "2206": {
    "zip_code": "9292206",
    "prefecture": "石川県",
    "prefecture_kana": "イシカワケン",
    "prefecture_code": 17,
    "city": "七尾市",
    "city_kana": "ナナオシ",
    "town": "中島町鳥越",
    "town_kana": "ナカジママチトリゴエ",
    "street": null,
    "office_name": null,
    "office_name_kana": null
  },
  "2207": {
    "zip_code": "9292207",
    "prefecture": "石川県",
    "prefecture_kana": "イシカワケン",
    "prefecture_code": 17,
    "city": "七尾市",
    "city_kana": "ナナオシ",
    "town": "中島町大平",
    "town_kana": "ナカジママチオオダイラ",
    "street": null,
    "office_name": null,
    "office_name_kana": null
  },
  "2208": {
    "zip_code": "9292208",
    "prefecture": "石川県",
    "prefecture_kana": "イシカワケン",
    "prefecture_code": 17,
    "city": "七尾市",
    "city_kana": "ナナオシ",
    "town": "中島町古江",
    "town_kana": "ナカジママチフルエ",
    "street": null,
    "office_name": null,
    "office_name_kana": null
  },
  "2209": {
    "zip_code": "9292209",
    "prefecture": "石川県",
    "prefecture_kana": "イシカワケン",
    "prefecture_code": 17,
    "city": "七尾市",
    "city_kana": "ナナオシ",
    "town": "中島町西谷内",
    "town_kana": "ナカジママチニシヤチ",
    "street": null,
    "office_name": null,
    "office_name_kana": null
  },
  "2211": {
    "zip_code": "9292211",
    "prefecture": "石川県",
    "prefecture_kana": "イシカワケン",
    "prefecture_code": 17,
    "city": "七尾市",
    "city_kana": "ナナオシ",
    "town": "中島町横見",
    "town_kana": "ナカジママチヨコミ",
    "street": null,
    "office_name": null,
    "office_name_kana": null
  },
  "2212": {
    "zip_code": "9292212",
    "prefecture": "石川県",
    "prefecture_kana": "イシカワケン",
    "prefecture_code": 17,
    "city": "七尾市",
    "city_kana": "ナナオシ",
    "town": "中島町田岸",
    "town_kana": "ナカジママチタギシ",
    "street": null,
    "office_name": null,
    "office_name_kana": null
  },
  "2213": {
    "zip_code": "9292213",
    "prefecture": "石川県",
    "prefecture_kana": "イシカワケン",
    "prefecture_code": 17,
    "city": "七尾市",
    "city_kana": "ナナオシ",
    "town": "中島町外",
    "town_kana": "ナカジママチソデ",
    "street": null,
    "office_name": null,
    "office_name_kana": null
  },
  "2214": {
    "zip_code": "9292214",
    "prefecture": "石川県",
    "prefecture_kana": "イシカワケン",
    "prefecture_code": 17,
    "city": "七尾市",
    "city_kana": "ナナオシ",
    "town": "中島町小牧",
    "town_kana": "ナカジママチオマキ",
    "street": null,
    "office_name": null,
    "office_name_kana": null
  },
  "2215": {
    "zip_code": "9292215",
    "prefecture": "石川県",
    "prefecture_kana": "イシカワケン",
    "prefecture_code": 17,
    "city": "七尾市",
    "city_kana": "ナナオシ",
    "town": "中島町深浦",
    "town_kana": "ナカジママチフカウラ",
    "street": null,
    "office_name": null,
    "office_name_kana": null
  },
  "2216": {
    "zip_code": "9292216",
    "prefecture": "石川県",
    "prefecture_kana": "イシカワケン",
    "prefecture_code": 17,
    "city": "七尾市",
    "city_kana": "ナナオシ",
    "town": "中島町長浦",
    "town_kana": "ナカジママチナガウラ",
    "street": null,
    "office_name": null,
    "office_name_kana": null
  },
  "2217": {
    "zip_code": "9292217",
    "prefecture": "石川県",
    "prefecture_kana": "イシカワケン",
    "prefecture_code": 17,
    "city": "七尾市",
    "city_kana": "ナナオシ",
    "town": "中島町鹿島台",
    "town_kana": "ナカジママチカシマダイ",
    "street": null,
    "office_name": null,
    "office_name_kana": null
  },
  "2218": {
    "zip_code": "9292218",
    "prefecture": "石川県",
    "prefecture_kana": "イシカワケン",
    "prefecture_code": 17,
    "city": "七尾市",
    "city_kana": "ナナオシ",
    "town": "中島町瀬嵐",
    "town_kana": "ナカジママチセアラシ",
    "street": null,
    "office_name": null,
    "office_name_kana": null
  },
  "2221": {
    "zip_code": "9292221",
    "prefecture": "石川県",
    "prefecture_kana": "イシカワケン",
    "prefecture_code": 17,
    "city": "七尾市",
    "city_kana": "ナナオシ",
    "town": "中島町谷内",
    "town_kana": "ナカジママチヤチ",
    "street": null,
    "office_name": null,
    "office_name_kana": null
  },
  "2222": {
    "zip_code": "9292222",
    "prefecture": "石川県",
    "prefecture_kana": "イシカワケン",
    "prefecture_code": 17,
    "city": "七尾市",
    "city_kana": "ナナオシ",
    "town": "中島町中島",
    "town_kana": "ナカジママチナカジマ",
    "street": null,
    "office_name": null,
    "office_name_kana": null
  },
  "2223": {
    "zip_code": "9292223",
    "prefecture": "石川県",
    "prefecture_kana": "イシカワケン",
    "prefecture_code": 17,
    "city": "七尾市",
    "city_kana": "ナナオシ",
    "town": "中島町上町",
    "town_kana": "ナカジママチカンマチ",
    "street": null,
    "office_name": null,
    "office_name_kana": null
  },
  "2224": {
    "zip_code": "9292224",
    "prefecture": "石川県",
    "prefecture_kana": "イシカワケン",
    "prefecture_code": 17,
    "city": "七尾市",
    "city_kana": "ナナオシ",
    "town": "中島町山戸田",
    "town_kana": "ナカジママチヤマトダ",
    "street": null,
    "office_name": null,
    "office_name_kana": null
  },
  "2225": {
    "zip_code": "9292225",
    "prefecture": "石川県",
    "prefecture_kana": "イシカワケン",
    "prefecture_code": 17,
    "city": "七尾市",
    "city_kana": "ナナオシ",
    "town": "中島町宮前",
    "town_kana": "ナカジママチミヤノマエ",
    "street": null,
    "office_name": null,
    "office_name_kana": null
  },
  "2226": {
    "zip_code": "9292226",
    "prefecture": "石川県",
    "prefecture_kana": "イシカワケン",
    "prefecture_code": 17,
    "city": "七尾市",
    "city_kana": "ナナオシ",
    "town": "中島町横田",
    "town_kana": "ナカジママチヨコタ",
    "street": null,
    "office_name": null,
    "office_name_kana": null
  },
  "2227": {
    "zip_code": "9292227",
    "prefecture": "石川県",
    "prefecture_kana": "イシカワケン",
    "prefecture_code": 17,
    "city": "七尾市",
    "city_kana": "ナナオシ",
    "town": "中島町藤瀬",
    "town_kana": "ナカジママチフジノセ",
    "street": null,
    "office_name": null,
    "office_name_kana": null
  },
  "2231": {
    "zip_code": "9292231",
    "prefecture": "石川県",
    "prefecture_kana": "イシカワケン",
    "prefecture_code": 17,
    "city": "七尾市",
    "city_kana": "ナナオシ",
    "town": "中島町奥吉田",
    "town_kana": "ナカジママチオクヨシタ",
    "street": null,
    "office_name": null,
    "office_name_kana": null
  },
  "2232": {
    "zip_code": "9292232",
    "prefecture": "石川県",
    "prefecture_kana": "イシカワケン",
    "prefecture_code": 17,
    "city": "七尾市",
    "city_kana": "ナナオシ",
    "town": "中島町筆染",
    "town_kana": "ナカジママチフデソメ",
    "street": null,
    "office_name": null,
    "office_name_kana": null
  },
  "2233": {
    "zip_code": "9292233",
    "prefecture": "石川県",
    "prefecture_kana": "イシカワケン",
    "prefecture_code": 17,
    "city": "七尾市",
    "city_kana": "ナナオシ",
    "town": "中島町笠師",
    "town_kana": "ナカジママチカサシ",
    "street": null,
    "office_name": null,
    "office_name_kana": null
  },
  "2234": {
    "zip_code": "9292234",
    "prefecture": "石川県",
    "prefecture_kana": "イシカワケン",
    "prefecture_code": 17,
    "city": "七尾市",
    "city_kana": "ナナオシ",
    "town": "中島町塩津",
    "town_kana": "ナカジママチシオツ",
    "street": null,
    "office_name": null,
    "office_name_kana": null
  },
  "2241": {
    "zip_code": "9292241",
    "prefecture": "石川県",
    "prefecture_kana": "イシカワケン",
    "prefecture_code": 17,
    "city": "七尾市",
    "city_kana": "ナナオシ",
    "town": "中島町浜田",
    "town_kana": "ナカジママチハマダ",
    "street": null,
    "office_name": null,
    "office_name_kana": null
  },
  "2242": {
    "zip_code": "9292242",
    "prefecture": "石川県",
    "prefecture_kana": "イシカワケン",
    "prefecture_code": 17,
    "city": "七尾市",
    "city_kana": "ナナオシ",
    "town": "中島町崎山",
    "town_kana": "ナカジママチサキヤマ",
    "street": null,
    "office_name": null,
    "office_name_kana": null
  },
  "2243": {
    "zip_code": "9292243",
    "prefecture": "石川県",
    "prefecture_kana": "イシカワケン",
    "prefecture_code": 17,
    "city": "七尾市",
    "city_kana": "ナナオシ",
    "town": "中島町河崎",
    "town_kana": "ナカジママチカワザキ",
    "street": null,
    "office_name": null,
    "office_name_kana": null
  },
  "2244": {
    "zip_code": "9292244",
    "prefecture": "石川県",
    "prefecture_kana": "イシカワケン",
    "prefecture_code": 17,
    "city": "七尾市",
    "city_kana": "ナナオシ",
    "town": "中島町豊田町",
    "town_kana": "ナカジママチトヨタマチ",
    "street": null,
    "office_name": null,
    "office_name_kana": null
  },
  "2245": {
    "zip_code": "9292245",
    "prefecture": "石川県",
    "prefecture_kana": "イシカワケン",
    "prefecture_code": 17,
    "city": "七尾市",
    "city_kana": "ナナオシ",
    "town": "中島町豊田",
    "town_kana": "ナカジママチトヨタ",
    "street": null,
    "office_name": null,
    "office_name_kana": null
  },
  "2246": {
    "zip_code": "9292246",
    "prefecture": "石川県",
    "prefecture_kana": "イシカワケン",
    "prefecture_code": 17,
    "city": "七尾市",
    "city_kana": "ナナオシ",
    "town": "中島町土川",
    "town_kana": "ナカジママチツチカワ",
    "street": null,
    "office_name": null,
    "office_name_kana": null
  },
  "2247": {
    "zip_code": "9292247",
    "prefecture": "石川県",
    "prefecture_kana": "イシカワケン",
    "prefecture_code": 17,
    "city": "七尾市",
    "city_kana": "ナナオシ",
    "town": "中島町外原",
    "town_kana": "ナカジママチソドハラ",
    "street": null,
    "office_name": null,
    "office_name_kana": null
  },
  "2292": {
    "zip_code": "9292292",
    "prefecture": "石川県",
    "prefecture_kana": "イシカワケン",
    "prefecture_code": 17,
    "city": "七尾市",
    "city_kana": "ナナオシ",
    "town": "中島町中島",
    "town_kana": "ナカジママチナカジマ",
    "street": "甲１７０",
    "office_name": "七尾市役所　中島支所",
    "office_name_kana": "ナナオシヤクシヨ ナカジマシシヨ"
  },
  "2361": {
    "zip_code": "9292361",
    "prefecture": "石川県",
    "prefecture_kana": "イシカワケン",
    "prefecture_code": 17,
    "city": "輪島市",
    "city_kana": "ワジマシ",
    "town": "三井町与呂見",
    "town_kana": "ミイマチヨロミ",
    "street": null,
    "office_name": null,
    "office_name_kana": null
  },
  "2362": {
    "zip_code": "9292362",
    "prefecture": "石川県",
    "prefecture_kana": "イシカワケン",
    "prefecture_code": 17,
    "city": "輪島市",
    "city_kana": "ワジマシ",
    "town": "三井町中",
    "town_kana": "ミイマチナカ",
    "street": null,
    "office_name": null,
    "office_name_kana": null
  },
  "2363": {
    "zip_code": "9292363",
    "prefecture": "石川県",
    "prefecture_kana": "イシカワケン",
    "prefecture_code": 17,
    "city": "輪島市",
    "city_kana": "ワジマシ",
    "town": "三井町興徳寺",
    "town_kana": "ミイマチコウトクジ",
    "street": null,
    "office_name": null,
    "office_name_kana": null
  },
  "2364": {
    "zip_code": "9292364",
    "prefecture": "石川県",
    "prefecture_kana": "イシカワケン",
    "prefecture_code": 17,
    "city": "輪島市",
    "city_kana": "ワジマシ",
    "town": "大和町",
    "town_kana": "ヤマトマチ",
    "street": null,
    "office_name": null,
    "office_name_kana": null
  },
  "2365": {
    "zip_code": "9292365",
    "prefecture": "石川県",
    "prefecture_kana": "イシカワケン",
    "prefecture_code": 17,
    "city": "輪島市",
    "city_kana": "ワジマシ",
    "town": "三井町渡合",
    "town_kana": "ミイマチドアイ",
    "street": null,
    "office_name": null,
    "office_name_kana": null
  },
  "2366": {
    "zip_code": "9292366",
    "prefecture": "石川県",
    "prefecture_kana": "イシカワケン",
    "prefecture_code": 17,
    "city": "輪島市",
    "city_kana": "ワジマシ",
    "town": "三井町本江",
    "town_kana": "ミイマチホンコウ",
    "street": null,
    "office_name": null,
    "office_name_kana": null
  },
  "2367": {
    "zip_code": "9292367",
    "prefecture": "石川県",
    "prefecture_kana": "イシカワケン",
    "prefecture_code": 17,
    "city": "輪島市",
    "city_kana": "ワジマシ",
    "town": "三井町仁行",
    "town_kana": "ミイマチニギョウ",
    "street": null,
    "office_name": null,
    "office_name_kana": null
  },
  "2371": {
    "zip_code": "9292371",
    "prefecture": "石川県",
    "prefecture_kana": "イシカワケン",
    "prefecture_code": 17,
    "city": "輪島市",
    "city_kana": "ワジマシ",
    "town": "三井町三洲穂",
    "town_kana": "ミイマチミズホ",
    "street": null,
    "office_name": null,
    "office_name_kana": null
  },
  "2372": {
    "zip_code": "9292372",
    "prefecture": "石川県",
    "prefecture_kana": "イシカワケン",
    "prefecture_code": 17,
    "city": "輪島市",
    "city_kana": "ワジマシ",
    "town": "三井町洲衛",
    "town_kana": "ミイマチスエ",
    "street": null,
    "office_name": null,
    "office_name_kana": null
  },
  "2373": {
    "zip_code": "9292373",
    "prefecture": "石川県",
    "prefecture_kana": "イシカワケン",
    "prefecture_code": 17,
    "city": "輪島市",
    "city_kana": "ワジマシ",
    "town": "三井町市ノ坂",
    "town_kana": "ミイマチイチノサカ",
    "street": null,
    "office_name": null,
    "office_name_kana": null
  },
  "2374": {
    "zip_code": "9292374",
    "prefecture": "石川県",
    "prefecture_kana": "イシカワケン",
    "prefecture_code": 17,
    "city": "輪島市",
    "city_kana": "ワジマシ",
    "town": "三井町内屋",
    "town_kana": "ミイマチウチヤ",
    "street": null,
    "office_name": null,
    "office_name_kana": null
  },
  "2375": {
    "zip_code": "9292375",
    "prefecture": "石川県",
    "prefecture_kana": "イシカワケン",
    "prefecture_code": 17,
    "city": "輪島市",
    "city_kana": "ワジマシ",
    "town": "三井町細屋",
    "town_kana": "ミイマチホソヤ",
    "street": null,
    "office_name": null,
    "office_name_kana": null
  },
  "2376": {
    "zip_code": "9292376",
    "prefecture": "石川県",
    "prefecture_kana": "イシカワケン",
    "prefecture_code": 17,
    "city": "輪島市",
    "city_kana": "ワジマシ",
    "town": "三井町新保",
    "town_kana": "ミイマチシンボ",
    "street": null,
    "office_name": null,
    "office_name_kana": null
  },
  "2377": {
    "zip_code": "9292377",
    "prefecture": "石川県",
    "prefecture_kana": "イシカワケン",
    "prefecture_code": 17,
    "city": "輪島市",
    "city_kana": "ワジマシ",
    "town": "三井町漆原",
    "town_kana": "ミイマチウルシハラ",
    "street": null,
    "office_name": null,
    "office_name_kana": null
  },
  "2378": {
    "zip_code": "9292378",
    "prefecture": "石川県",
    "prefecture_kana": "イシカワケン",
    "prefecture_code": 17,
    "city": "輪島市",
    "city_kana": "ワジマシ",
    "town": "三井町小泉",
    "town_kana": "ミイマチコイズミ",
    "street": null,
    "office_name": null,
    "office_name_kana": null
  },
  "2379": {
    "zip_code": "9292379",
    "prefecture": "石川県",
    "prefecture_kana": "イシカワケン",
    "prefecture_code": 17,
    "city": "輪島市",
    "city_kana": "ワジマシ",
    "town": "三井町長沢",
    "town_kana": "ミイマチナガサワ",
    "street": null,
    "office_name": null,
    "office_name_kana": null
  },
  "2392": {
    "zip_code": "9292392",
    "prefecture": "石川県",
    "prefecture_kana": "イシカワケン",
    "prefecture_code": 17,
    "city": "輪島市",
    "city_kana": "ワジマシ",
    "town": "三井町洲衛",
    "town_kana": "ミイマチスエ",
    "street": "１０部１１−１",
    "office_name": "石川県　奥能登総合事務所",
    "office_name_kana": "イシカワケン オクノトソウゴウジムシヨ"
  }
}