{
  "0000": {
    "zip_code": "9320000",
    "prefecture": "富山県",
    "prefecture_kana": "トヤマケン",
    "prefecture_code": "16",
    "city": "小矢部市",
    "city_kana": "オヤベシ",
    "town": "",
    "town_kana": "",
    "street": null,
    "office_name": null,
    "office_name_kana": null
  },
  "0001": {
    "zip_code": "9320001",
    "prefecture": "富山県",
    "prefecture_kana": "トヤマケン",
    "prefecture_code": "16",
    "city": "小矢部市",
    "city_kana": "オヤベシ",
    "town": "久利須",
    "town_kana": "クリス",
    "street": null,
    "office_name": null,
    "office_name_kana": null
  },
  "0002": {
    "zip_code": "9320002",
    "prefecture": "富山県",
    "prefecture_kana": "トヤマケン",
    "prefecture_code": "16",
    "city": "小矢部市",
    "city_kana": "オヤベシ",
    "town": "森屋",
    "town_kana": "モリヤ",
    "street": null,
    "office_name": null,
    "office_name_kana": null
  },
  "0003": {
    "zip_code": "9320003",
    "prefecture": "富山県",
    "prefecture_kana": "トヤマケン",
    "prefecture_code": "16",
    "city": "小矢部市",
    "city_kana": "オヤベシ",
    "town": "北屋敷",
    "town_kana": "キタヤシキ",
    "street": null,
    "office_name": null,
    "office_name_kana": null
  },
  "0004": {
    "zip_code": "9320004",
    "prefecture": "富山県",
    "prefecture_kana": "トヤマケン",
    "prefecture_code": "16",
    "city": "小矢部市",
    "city_kana": "オヤベシ",
    "town": "二ノ滝",
    "town_kana": "ニノタキ",
    "street": null,
    "office_name": null,
    "office_name_kana": null
  },
  "0005": {
    "zip_code": "9320005",
    "prefecture": "富山県",
    "prefecture_kana": "トヤマケン",
    "prefecture_code": "16",
    "city": "小矢部市",
    "city_kana": "オヤベシ",
    "town": "下屋敷",
    "town_kana": "シモヤシキ",
    "street": null,
    "office_name": null,
    "office_name_kana": null
  },
  "0006": {
    "zip_code": "9320006",
    "prefecture": "富山県",
    "prefecture_kana": "トヤマケン",
    "prefecture_code": "16",
    "city": "小矢部市",
    "city_kana": "オヤベシ",
    "town": "高坂",
    "town_kana": "タカサカ",
    "street": null,
    "office_name": null,
    "office_name_kana": null
  },
  "0007": {
    "zip_code": "9320007",
    "prefecture": "富山県",
    "prefecture_kana": "トヤマケン",
    "prefecture_code": "16",
    "city": "小矢部市",
    "city_kana": "オヤベシ",
    "town": "名ケ滝",
    "town_kana": "ミョウガダキ",
    "street": null,
    "office_name": null,
    "office_name_kana": null
  },
  "0008": {
    "zip_code": "9320008",
    "prefecture": "富山県",
    "prefecture_kana": "トヤマケン",
    "prefecture_code": "16",
    "city": "小矢部市",
    "city_kana": "オヤベシ",
    "town": "菅ケ原",
    "town_kana": "スガハラ",
    "street": null,
    "office_name": null,
    "office_name_kana": null
  },
  "0011": {
    "zip_code": "9320011",
    "prefecture": "富山県",
    "prefecture_kana": "トヤマケン",
    "prefecture_code": "16",
    "city": "小矢部市",
    "city_kana": "オヤベシ",
    "town": "原牧",
    "town_kana": "ハラマキ",
    "street": null,
    "office_name": null,
    "office_name_kana": null
  },
  "0012": {
    "zip_code": "9320012",
    "prefecture": "富山県",
    "prefecture_kana": "トヤマケン",
    "prefecture_code": "16",
    "city": "小矢部市",
    "city_kana": "オヤベシ",
    "town": "嶺",
    "town_kana": "ミネ",
    "street": null,
    "office_name": null,
    "office_name_kana": null
  },
  "0013": {
    "zip_code": "9320013",
    "prefecture": "富山県",
    "prefecture_kana": "トヤマケン",
    "prefecture_code": "16",
    "city": "小矢部市",
    "city_kana": "オヤベシ",
    "town": "清原",
    "town_kana": "キヨハラ",
    "street": null,
    "office_name": null,
    "office_name_kana": null
  },
  "0014": {
    "zip_code": "9320014",
    "prefecture": "富山県",
    "prefecture_kana": "トヤマケン",
    "prefecture_code": "16",
    "city": "小矢部市",
    "city_kana": "オヤベシ",
    "town": "岩崎",
    "town_kana": "イワサキ",
    "street": null,
    "office_name": null,
    "office_name_kana": null
  },
  "0015": {
    "zip_code": "9320015",
    "prefecture": "富山県",
    "prefecture_kana": "トヤマケン",
    "prefecture_code": "16",
    "city": "小矢部市",
    "city_kana": "オヤベシ",
    "town": "矢波",
    "town_kana": "ヤナミ",
    "street": null,
    "office_name": null,
    "office_name_kana": null
  },
  "0016": {
    "zip_code": "9320016",
    "prefecture": "富山県",
    "prefecture_kana": "トヤマケン",
    "prefecture_code": "16",
    "city": "小矢部市",
    "city_kana": "オヤベシ",
    "town": "糠子島",
    "town_kana": "ヌカゴジマ",
    "street": null,
    "office_name": null,
    "office_name_kana": null
  },
  "0017": {
    "zip_code": "9320017",
    "prefecture": "富山県",
    "prefecture_kana": "トヤマケン",
    "prefecture_code": "16",
    "city": "小矢部市",
    "city_kana": "オヤベシ",
    "town": "了輪",
    "town_kana": "リョウワ",
    "street": null,
    "office_name": null,
    "office_name_kana": null
  },
  "0018": {
    "zip_code": "9320018",
    "prefecture": "富山県",
    "prefecture_kana": "トヤマケン",
    "prefecture_code": "16",
    "city": "小矢部市",
    "city_kana": "オヤベシ",
    "town": "別所滝",
    "town_kana": "ベッショダキ",
    "street": null,
    "office_name": null,
    "office_name_kana": null
  },
  "0021": {
    "zip_code": "9320021",
    "prefecture": "富山県",
    "prefecture_kana": "トヤマケン",
    "prefecture_code": "16",
    "city": "小矢部市",
    "city_kana": "オヤベシ",
    "town": "田川",
    "town_kana": "タガワ",
    "street": null,
    "office_name": null,
    "office_name_kana": null
  },
  "0022": {
    "zip_code": "9320022",
    "prefecture": "富山県",
    "prefecture_kana": "トヤマケン",
    "prefecture_code": "16",
    "city": "小矢部市",
    "city_kana": "オヤベシ",
    "town": "桜町",
    "town_kana": "サクラマチ",
    "street": null,
    "office_name": null,
    "office_name_kana": null
  },
  "0023": {
    "zip_code": "9320023",
    "prefecture": "富山県",
    "prefecture_kana": "トヤマケン",
    "prefecture_code": "16",
    "city": "小矢部市",
    "city_kana": "オヤベシ",
    "town": "横谷",
    "town_kana": "ヨコダニ",
    "street": null,
    "office_name": null,
    "office_name_kana": null
  },
  "0024": {
    "zip_code": "9320024",
    "prefecture": "富山県",
    "prefecture_kana": "トヤマケン",
    "prefecture_code": "16",
    "city": "小矢部市",
    "city_kana": "オヤベシ",
    "town": "屋波牧",
    "town_kana": "ヤナミマキ",
    "street": null,
    "office_name": null,
    "office_name_kana": null
  },
  "0025": {
    "zip_code": "9320025",
    "prefecture": "富山県",
    "prefecture_kana": "トヤマケン",
    "prefecture_code": "16",
    "city": "小矢部市",
    "city_kana": "オヤベシ",
    "town": "宮中",
    "town_kana": "ミヤナカ",
    "street": null,
    "office_name": null,
    "office_name_kana": null
  },
  "0026": {
    "zip_code": "9320026",
    "prefecture": "富山県",
    "prefecture_kana": "トヤマケン",
    "prefecture_code": "16",
    "city": "小矢部市",
    "city_kana": "オヤベシ",
    "town": "宮須",
    "town_kana": "ミヤス",
    "street": null,
    "office_name": null,
    "office_name_kana": null
  },
  "0027": {
    "zip_code": "9320027",
    "prefecture": "富山県",
    "prefecture_kana": "トヤマケン",
    "prefecture_code": "16",
    "city": "小矢部市",
    "city_kana": "オヤベシ",
    "town": "法楽寺",
    "town_kana": "ホウラクジ",
    "street": null,
    "office_name": null,
    "office_name_kana": null
  },
  "0028": {
    "zip_code": "9320028",
    "prefecture": "富山県",
    "prefecture_kana": "トヤマケン",
    "prefecture_code": "16",
    "city": "小矢部市",
    "city_kana": "オヤベシ",
    "town": "畠中",
    "town_kana": "ハタケナカ",
    "street": null,
    "office_name": null,
    "office_name_kana": null
  },
  "0031": {
    "zip_code": "9320031",
    "prefecture": "富山県",
    "prefecture_kana": "トヤマケン",
    "prefecture_code": "16",
    "city": "小矢部市",
    "city_kana": "オヤベシ",
    "town": "岡",
    "town_kana": "オカ",
    "street": null,
    "office_name": null,
    "office_name_kana": null
  },
  "0032": {
    "zip_code": "9320032",
    "prefecture": "富山県",
    "prefecture_kana": "トヤマケン",
    "prefecture_code": "16",
    "city": "小矢部市",
    "city_kana": "オヤベシ",
    "town": "地崎",
    "town_kana": "ジサキ",
    "street": null,
    "office_name": null,
    "office_name_kana": null
  },
  "0033": {
    "zip_code": "9320033",
    "prefecture": "富山県",
    "prefecture_kana": "トヤマケン",
    "prefecture_code": "16",
    "city": "小矢部市",
    "city_kana": "オヤベシ",
    "town": "芹川",
    "town_kana": "セリカワ",
    "street": null,
    "office_name": null,
    "office_name_kana": null
  },
  "0034": {
    "zip_code": "9320034",
    "prefecture": "富山県",
    "prefecture_kana": "トヤマケン",
    "prefecture_code": "16",
    "city": "小矢部市",
    "city_kana": "オヤベシ",
    "town": "坂又",
    "town_kana": "サカマタ",
    "street": null,
    "office_name": null,
    "office_name_kana": null
  },
  "0035": {
    "zip_code": "9320035",
    "prefecture": "富山県",
    "prefecture_kana": "トヤマケン",
    "prefecture_code": "16",
    "city": "小矢部市",
    "city_kana": "オヤベシ",
    "town": "西中野",
    "town_kana": "ニシナカノ",
    "street": null,
    "office_name": null,
    "office_name_kana": null
  },
  "0036": {
    "zip_code": "9320036",
    "prefecture": "富山県",
    "prefecture_kana": "トヤマケン",
    "prefecture_code": "16",
    "city": "小矢部市",
    "city_kana": "オヤベシ",
    "town": "宇治新",
    "town_kana": "ウジシン",
    "street": null,
    "office_name": null,
    "office_name_kana": null
  },
  "0037": {
    "zip_code": "9320037",
    "prefecture": "富山県",
    "prefecture_kana": "トヤマケン",
    "prefecture_code": "16",
    "city": "小矢部市",
    "city_kana": "オヤベシ",
    "town": "石王丸",
    "town_kana": "イシオウマル",
    "street": null,
    "office_name": null,
    "office_name_kana": null
  },
  "0041": {
    "zip_code": "9320041",
    "prefecture": "富山県",
    "prefecture_kana": "トヤマケン",
    "prefecture_code": "16",
    "city": "小矢部市",
    "city_kana": "オヤベシ",
    "town": "東福町",
    "town_kana": "ヒガシフクマチ",
    "street": null,
    "office_name": null,
    "office_name_kana": null
  },
  "0042": {
    "zip_code": "9320042",
    "prefecture": "富山県",
    "prefecture_kana": "トヤマケン",
    "prefecture_code": "16",
    "city": "小矢部市",
    "city_kana": "オヤベシ",
    "town": "西福町",
    "town_kana": "ニシフクマチ",
    "street": null,
    "office_name": null,
    "office_name_kana": null
  },
  "0043": {
    "zip_code": "9320043",
    "prefecture": "富山県",
    "prefecture_kana": "トヤマケン",
    "prefecture_code": "16",
    "city": "小矢部市",
    "city_kana": "オヤベシ",
    "town": "畠中町",
    "town_kana": "ハタケナカマチ",
    "street": null,
    "office_name": null,
    "office_name_kana": null
  },
  "0044": {
    "zip_code": "9320044",
    "prefecture": "富山県",
    "prefecture_kana": "トヤマケン",
    "prefecture_code": "16",
    "city": "小矢部市",
    "city_kana": "オヤベシ",
    "town": "新富町",
    "town_kana": "シントミマチ",
    "street": null,
    "office_name": null,
    "office_name_kana": null
  },
  "0045": {
    "zip_code": "9320045",
    "prefecture": "富山県",
    "prefecture_kana": "トヤマケン",
    "prefecture_code": "16",
    "city": "小矢部市",
    "city_kana": "オヤベシ",
    "town": "中央町",
    "town_kana": "チュウオウマチ",
    "street": null,
    "office_name": null,
    "office_name_kana": null
  },
  "0046": {
    "zip_code": "9320046",
    "prefecture": "富山県",
    "prefecture_kana": "トヤマケン",
    "prefecture_code": "16",
    "city": "小矢部市",
    "city_kana": "オヤベシ",
    "town": "観音町",
    "town_kana": "カンノンマチ",
    "street": null,
    "office_name": null,
    "office_name_kana": null
  },
  "0047": {
    "zip_code": "9320047",
    "prefecture": "富山県",
    "prefecture_kana": "トヤマケン",
    "prefecture_code": "16",
    "city": "小矢部市",
    "city_kana": "オヤベシ",
    "town": "城山町",
    "town_kana": "シロヤママチ",
    "street": null,
    "office_name": null,
    "office_name_kana": null
  },
  "0048": {
    "zip_code": "9320048",
    "prefecture": "富山県",
    "prefecture_kana": "トヤマケン",
    "prefecture_code": "16",
    "city": "小矢部市",
    "city_kana": "オヤベシ",
    "town": "八和町",
    "town_kana": "ヤツワマチ",
    "street": null,
    "office_name": null,
    "office_name_kana": null
  },
  "0051": {
    "zip_code": "9320051",
    "prefecture": "富山県",
    "prefecture_kana": "トヤマケン",
    "prefecture_code": "16",
    "city": "小矢部市",
    "city_kana": "オヤベシ",
    "town": "今石動町",
    "town_kana": "イマイスルギマチ",
    "street": null,
    "office_name": null,
    "office_name_kana": null
  },
  "0052": {
    "zip_code": "9320052",
    "prefecture": "富山県",
    "prefecture_kana": "トヤマケン",
    "prefecture_code": "16",
    "city": "小矢部市",
    "city_kana": "オヤベシ",
    "town": "泉町",
    "town_kana": "イズミチョウ",
    "street": null,
    "office_name": null,
    "office_name_kana": null
  },
  "0053": {
    "zip_code": "9320053",
    "prefecture": "富山県",
    "prefecture_kana": "トヤマケン",
    "prefecture_code": "16",
    "city": "小矢部市",
    "city_kana": "オヤベシ",
    "town": "石動町",
    "town_kana": "イスルギマチ",
    "street": null,
    "office_name": null,
    "office_name_kana": null
  },
  "0054": {
    "zip_code": "9320054",
    "prefecture": "富山県",
    "prefecture_kana": "トヤマケン",
    "prefecture_code": "16",
    "city": "小矢部市",
    "city_kana": "オヤベシ",
    "town": "上野本",
    "town_kana": "ウワノホン",
    "street": null,
    "office_name": null,
    "office_name_kana": null
  },
  "0055": {
    "zip_code": "9320055",
    "prefecture": "富山県",
    "prefecture_kana": "トヤマケン",
    "prefecture_code": "16",
    "city": "小矢部市",
    "city_kana": "オヤベシ",
    "town": "西町",
    "town_kana": "ニシチョウ",
    "street": null,
    "office_name": null,
    "office_name_kana": null
  },
  "0056": {
    "zip_code": "9320056",
    "prefecture": "富山県",
    "prefecture_kana": "トヤマケン",
    "prefecture_code": "16",
    "city": "小矢部市",
    "city_kana": "オヤベシ",
    "town": "小矢部",
    "town_kana": "オヤベ",
    "street": null,
    "office_name": null,
    "office_name_kana": null
  },
  "0057": {
    "zip_code": "9320057",
    "prefecture": "富山県",
    "prefecture_kana": "トヤマケン",
    "prefecture_code": "16",
    "city": "小矢部市",
    "city_kana": "オヤベシ",
    "town": "本町",
    "town_kana": "ホンマチ",
    "street": null,
    "office_name": null,
    "office_name_kana": null
  },
  "0058": {
    "zip_code": "9320058",
    "prefecture": "富山県",
    "prefecture_kana": "トヤマケン",
    "prefecture_code": "16",
    "city": "小矢部市",
    "city_kana": "オヤベシ",
    "town": "小矢部町",
    "town_kana": "オヤベマチ",
    "street": null,
    "office_name": null,
    "office_name_kana": null
  },
  "0061": {
    "zip_code": "9320061",
    "prefecture": "富山県",
    "prefecture_kana": "トヤマケン",
    "prefecture_code": "16",
    "city": "小矢部市",
    "city_kana": "オヤベシ",
    "town": "道坪野",
    "town_kana": "ドウツボノ",
    "street": null,
    "office_name": null,
    "office_name_kana": null
  },
  "0062": {
    "zip_code": "9320062",
    "prefecture": "富山県",
    "prefecture_kana": "トヤマケン",
    "prefecture_code": "16",
    "city": "小矢部市",
    "city_kana": "オヤベシ",
    "town": "安楽寺",
    "town_kana": "アンラクジ",
    "street": null,
    "office_name": null,
    "office_name_kana": null
  },
  "0063": {
    "zip_code": "9320063",
    "prefecture": "富山県",
    "prefecture_kana": "トヤマケン",
    "prefecture_code": "16",
    "city": "小矢部市",
    "city_kana": "オヤベシ",
    "town": "峰坪野",
    "town_kana": "ミネツボノ",
    "street": null,
    "office_name": null,
    "office_name_kana": null
  },
  "0064": {
    "zip_code": "9320064",
    "prefecture": "富山県",
    "prefecture_kana": "トヤマケン",
    "prefecture_code": "16",
    "city": "小矢部市",
    "city_kana": "オヤベシ",
    "town": "谷坪野",
    "town_kana": "タニツボノ",
    "street": null,
    "office_name": null,
    "office_name_kana": null
  },
  "0065": {
    "zip_code": "9320065",
    "prefecture": "富山県",
    "prefecture_kana": "トヤマケン",
    "prefecture_code": "16",
    "city": "小矢部市",
    "city_kana": "オヤベシ",
    "town": "論田",
    "town_kana": "ロンデン",
    "street": null,
    "office_name": null,
    "office_name_kana": null
  },
  "0071": {
    "zip_code": "9320071",
    "prefecture": "富山県",
    "prefecture_kana": "トヤマケン",
    "prefecture_code": "16",
    "city": "小矢部市",
    "city_kana": "オヤベシ",
    "town": "荒間",
    "town_kana": "アラマ",
    "street": null,
    "office_name": null,
    "office_name_kana": null
  },
  "0072": {
    "zip_code": "9320072",
    "prefecture": "富山県",
    "prefecture_kana": "トヤマケン",
    "prefecture_code": "16",
    "city": "小矢部市",
    "city_kana": "オヤベシ",
    "town": "峠",
    "town_kana": "トウゲ",
    "street": null,
    "office_name": null,
    "office_name_kana": null
  },
  "0073": {
    "zip_code": "9320073",
    "prefecture": "富山県",
    "prefecture_kana": "トヤマケン",
    "prefecture_code": "16",
    "city": "小矢部市",
    "city_kana": "オヤベシ",
    "town": "岩尾滝",
    "town_kana": "イワオダキ",
    "street": null,
    "office_name": null,
    "office_name_kana": null
  },
  "0074": {
    "zip_code": "9320074",
    "prefecture": "富山県",
    "prefecture_kana": "トヤマケン",
    "prefecture_code": "16",
    "city": "小矢部市",
    "city_kana": "オヤベシ",
    "town": "千石",
    "town_kana": "センゴク",
    "street": null,
    "office_name": null,
    "office_name_kana": null
  },
  "0075": {
    "zip_code": "9320075",
    "prefecture": "富山県",
    "prefecture_kana": "トヤマケン",
    "prefecture_code": "16",
    "city": "小矢部市",
    "city_kana": "オヤベシ",
    "town": "嘉例谷",
    "town_kana": "カレイダニ",
    "street": null,
    "office_name": null,
    "office_name_kana": null
  },
  "0101": {
    "zip_code": "9320101",
    "prefecture": "富山県",
    "prefecture_kana": "トヤマケン",
    "prefecture_code": "16",
    "city": "小矢部市",
    "city_kana": "オヤベシ",
    "town": "下後亟",
    "town_kana": "シモゴゼ",
    "street": null,
    "office_name": null,
    "office_name_kana": null
  },
  "0102": {
    "zip_code": "9320102",
    "prefecture": "富山県",
    "prefecture_kana": "トヤマケン",
    "prefecture_code": "16",
    "city": "小矢部市",
    "city_kana": "オヤベシ",
    "town": "水島",
    "town_kana": "ミズシマ",
    "street": null,
    "office_name": null,
    "office_name_kana": null
  },
  "0103": {
    "zip_code": "9320103",
    "prefecture": "富山県",
    "prefecture_kana": "トヤマケン",
    "prefecture_code": "16",
    "city": "小矢部市",
    "city_kana": "オヤベシ",
    "town": "経田",
    "town_kana": "キョウデン",
    "street": null,
    "office_name": null,
    "office_name_kana": null
  },
  "0104": {
    "zip_code": "9320104",
    "prefecture": "富山県",
    "prefecture_kana": "トヤマケン",
    "prefecture_code": "16",
    "city": "小矢部市",
    "city_kana": "オヤベシ",
    "town": "西川原",
    "town_kana": "ニシガワラ",
    "street": null,
    "office_name": null,
    "office_name_kana": null
  },
  "0105": {
    "zip_code": "9320105",
    "prefecture": "富山県",
    "prefecture_kana": "トヤマケン",
    "prefecture_code": "16",
    "city": "小矢部市",
    "city_kana": "オヤベシ",
    "town": "胡麻島",
    "town_kana": "ゴマジマ",
    "street": null,
    "office_name": null,
    "office_name_kana": null
  },
  "0106": {
    "zip_code": "9320106",
    "prefecture": "富山県",
    "prefecture_kana": "トヤマケン",
    "prefecture_code": "16",
    "city": "小矢部市",
    "city_kana": "オヤベシ",
    "town": "内御堂",
    "town_kana": "ウチオンドウ",
    "street": null,
    "office_name": null,
    "office_name_kana": null
  },
  "0111": {
    "zip_code": "9320111",
    "prefecture": "富山県",
    "prefecture_kana": "トヤマケン",
    "prefecture_code": "16",
    "city": "小矢部市",
    "city_kana": "オヤベシ",
    "town": "新西",
    "town_kana": "シンニシ",
    "street": null,
    "office_name": null,
    "office_name_kana": null
  },
  "0112": {
    "zip_code": "9320112",
    "prefecture": "富山県",
    "prefecture_kana": "トヤマケン",
    "prefecture_code": "16",
    "city": "小矢部市",
    "city_kana": "オヤベシ",
    "town": "清沢",
    "town_kana": "キヨサワ",
    "street": null,
    "office_name": null,
    "office_name_kana": null
  },
  "0113": {
    "zip_code": "9320113",
    "prefecture": "富山県",
    "prefecture_kana": "トヤマケン",
    "prefecture_code": "16",
    "city": "小矢部市",
    "city_kana": "オヤベシ",
    "town": "岩武",
    "town_kana": "イワタケ",
    "street": null,
    "office_name": null,
    "office_name_kana": null
  },
  "0114": {
    "zip_code": "9320114",
    "prefecture": "富山県",
    "prefecture_kana": "トヤマケン",
    "prefecture_code": "16",
    "city": "小矢部市",
    "city_kana": "オヤベシ",
    "town": "清水",
    "town_kana": "シミズ",
    "street": null,
    "office_name": null,
    "office_name_kana": null
  },
  "0115": {
    "zip_code": "9320115",
    "prefecture": "富山県",
    "prefecture_kana": "トヤマケン",
    "prefecture_code": "16",
    "city": "小矢部市",
    "city_kana": "オヤベシ",
    "town": "津沢",
    "town_kana": "ツザワ",
    "street": null,
    "office_name": null,
    "office_name_kana": null
  },
  "0116": {
    "zip_code": "9320116",
    "prefecture": "富山県",
    "prefecture_kana": "トヤマケン",
    "prefecture_code": "16",
    "city": "小矢部市",
    "city_kana": "オヤベシ",
    "town": "西島",
    "town_kana": "ニシノシマ",
    "street": null,
    "office_name": null,
    "office_name_kana": null
  },
  "0121": {
    "zip_code": "9320121",
    "prefecture": "富山県",
    "prefecture_kana": "トヤマケン",
    "prefecture_code": "16",
    "city": "小矢部市",
    "city_kana": "オヤベシ",
    "town": "矢水町",
    "town_kana": "ヤスイチョウ",
    "street": null,
    "office_name": null,
    "office_name_kana": null
  },
  "0122": {
    "zip_code": "9320122",
    "prefecture": "富山県",
    "prefecture_kana": "トヤマケン",
    "prefecture_code": "16",
    "city": "小矢部市",
    "city_kana": "オヤベシ",
    "town": "浅地",
    "town_kana": "アサジ",
    "street": null,
    "office_name": null,
    "office_name_kana": null
  },
  "0123": {
    "zip_code": "9320123",
    "prefecture": "富山県",
    "prefecture_kana": "トヤマケン",
    "prefecture_code": "16",
    "city": "小矢部市",
    "city_kana": "オヤベシ",
    "town": "高木",
    "town_kana": "タカキ",
    "street": null,
    "office_name": null,
    "office_name_kana": null
  },
  "0124": {
    "zip_code": "9320124",
    "prefecture": "富山県",
    "prefecture_kana": "トヤマケン",
    "prefecture_code": "16",
    "city": "小矢部市",
    "city_kana": "オヤベシ",
    "town": "蓑輪",
    "town_kana": "ミノワ",
    "street": null,
    "office_name": null,
    "office_name_kana": null
  },
  "0125": {
    "zip_code": "9320125",
    "prefecture": "富山県",
    "prefecture_kana": "トヤマケン",
    "prefecture_code": "16",
    "city": "小矢部市",
    "city_kana": "オヤベシ",
    "town": "鴨島",
    "town_kana": "カモジマ",
    "street": null,
    "office_name": null,
    "office_name_kana": null
  },
  "0126": {
    "zip_code": "9320126",
    "prefecture": "富山県",
    "prefecture_kana": "トヤマケン",
    "prefecture_code": "16",
    "city": "小矢部市",
    "city_kana": "オヤベシ",
    "town": "下川崎",
    "town_kana": "シモガワサキ",
    "street": null,
    "office_name": null,
    "office_name_kana": null
  },
  "0127": {
    "zip_code": "9320127",
    "prefecture": "富山県",
    "prefecture_kana": "トヤマケン",
    "prefecture_code": "16",
    "city": "小矢部市",
    "city_kana": "オヤベシ",
    "town": "興法寺",
    "town_kana": "コウボウジ",
    "street": null,
    "office_name": null,
    "office_name_kana": null
  },
  "0128": {
    "zip_code": "9320128",
    "prefecture": "富山県",
    "prefecture_kana": "トヤマケン",
    "prefecture_code": "16",
    "city": "小矢部市",
    "city_kana": "オヤベシ",
    "town": "戸久",
    "town_kana": "トヒサ",
    "street": null,
    "office_name": null,
    "office_name_kana": null
  },
  "0129": {
    "zip_code": "9320129",
    "prefecture": "富山県",
    "prefecture_kana": "トヤマケン",
    "prefecture_code": "16",
    "city": "小矢部市",
    "city_kana": "オヤベシ",
    "town": "安養寺",
    "town_kana": "アンヨウジ",
    "street": null,
    "office_name": null,
    "office_name_kana": null
  },
  "0131": {
    "zip_code": "9320131",
    "prefecture": "富山県",
    "prefecture_kana": "トヤマケン",
    "prefecture_code": "16",
    "city": "小矢部市",
    "city_kana": "オヤベシ",
    "town": "名畑",
    "town_kana": "ナバタ",
    "street": null,
    "office_name": null,
    "office_name_kana": null
  },
  "0132": {
    "zip_code": "9320132",
    "prefecture": "富山県",
    "prefecture_kana": "トヤマケン",
    "prefecture_code": "16",
    "city": "小矢部市",
    "city_kana": "オヤベシ",
    "town": "杉谷内",
    "town_kana": "スンナイチ",
    "street": null,
    "office_name": null,
    "office_name_kana": null
  },
  "0133": {
    "zip_code": "9320133",
    "prefecture": "富山県",
    "prefecture_kana": "トヤマケン",
    "prefecture_code": "16",
    "city": "小矢部市",
    "city_kana": "オヤベシ",
    "town": "小森谷",
    "town_kana": "コモリダニ",
    "street": null,
    "office_name": null,
    "office_name_kana": null
  },
  "0134": {
    "zip_code": "9320134",
    "prefecture": "富山県",
    "prefecture_kana": "トヤマケン",
    "prefecture_code": "16",
    "city": "小矢部市",
    "city_kana": "オヤベシ",
    "town": "平桜",
    "town_kana": "ヒラザクラ",
    "street": null,
    "office_name": null,
    "office_name_kana": null
  },
  "0135": {
    "zip_code": "9320135",
    "prefecture": "富山県",
    "prefecture_kana": "トヤマケン",
    "prefecture_code": "16",
    "city": "小矢部市",
    "city_kana": "オヤベシ",
    "town": "藤森",
    "town_kana": "フジノモリ",
    "street": null,
    "office_name": null,
    "office_name_kana": null
  },
  "0136": {
    "zip_code": "9320136",
    "prefecture": "富山県",
    "prefecture_kana": "トヤマケン",
    "prefecture_code": "16",
    "city": "小矢部市",
    "city_kana": "オヤベシ",
    "town": "平田",
    "town_kana": "ヒラタ",
    "street": null,
    "office_name": null,
    "office_name_kana": null
  },
  "0137": {
    "zip_code": "9320137",
    "prefecture": "富山県",
    "prefecture_kana": "トヤマケン",
    "prefecture_code": "16",
    "city": "小矢部市",
    "city_kana": "オヤベシ",
    "town": "渋江",
    "town_kana": "シブエ",
    "street": null,
    "office_name": null,
    "office_name_kana": null
  },
  "0193": {
    "zip_code": "9320193",
    "prefecture": "富山県",
    "prefecture_kana": "トヤマケン",
    "prefecture_code": "16",
    "city": "小矢部市",
    "city_kana": "オヤベシ",
    "town": "清沢",
    "town_kana": "キヨサワ",
    "street": "２１０",
    "office_name": "株式会社　トヤマゴールドウィン",
    "office_name_kana": "カブシキガイシヤ トヤマゴ-ルドウイン"
  },
  "0198": {
    "zip_code": "9320198",
    "prefecture": "富山県",
    "prefecture_kana": "トヤマケン",
    "prefecture_code": "16",
    "city": "小矢部市",
    "city_kana": "オヤベシ",
    "town": "水島",
    "town_kana": "ミズシマ",
    "street": "３２００",
    "office_name": "株式会社　スズキ部品富山",
    "office_name_kana": "カブシキガイシヤ スズキブヒントヤマ"
  },
  "0201": {
    "zip_code": "9320201",
    "prefecture": "富山県",
    "prefecture_kana": "トヤマケン",
    "prefecture_code": "16",
    "city": "南砺市",
    "city_kana": "ナントシ",
    "town": "高屋",
    "town_kana": "タカヤ",
    "street": null,
    "office_name": null,
    "office_name_kana": null
  },
  "0202": {
    "zip_code": "9320202",
    "prefecture": "富山県",
    "prefecture_kana": "トヤマケン",
    "prefecture_code": "16",
    "city": "南砺市",
    "city_kana": "ナントシ",
    "town": "清水明",
    "town_kana": "シミズミョウ",
    "street": null,
    "office_name": null,
    "office_name_kana": null
  },
  "0203": {
    "zip_code": "9320203",
    "prefecture": "富山県",
    "prefecture_kana": "トヤマケン",
    "prefecture_code": "16",
    "city": "南砺市",
    "city_kana": "ナントシ",
    "town": "岩屋",
    "town_kana": "イワヤ",
    "street": null,
    "office_name": null,
    "office_name_kana": null
  },
  "0204": {
    "zip_code": "9320204",
    "prefecture": "富山県",
    "prefecture_kana": "トヤマケン",
    "prefecture_code": "16",
    "city": "南砺市",
    "city_kana": "ナントシ",
    "town": "飛騨屋",
    "town_kana": "ヒダヤ",
    "street": null,
    "office_name": null,
    "office_name_kana": null
  },
  "0205": {
    "zip_code": "9320205",
    "prefecture": "富山県",
    "prefecture_kana": "トヤマケン",
    "prefecture_code": "16",
    "city": "南砺市",
    "city_kana": "ナントシ",
    "town": "井波軸屋",
    "town_kana": "イナミジクヤ",
    "street": null,
    "office_name": null,
    "office_name_kana": null
  },
  "0206": [
    {
      "zip_code": "9320206",
      "prefecture": "富山県",
      "prefecture_kana": "トヤマケン",
      "prefecture_code": "16",
      "city": "南砺市",
      "city_kana": "ナントシ",
      "town": "安室",
      "town_kana": "アジツ",
      "street": null,
      "office_name": null,
      "office_name_kana": null
    },
    {
      "zip_code": "9320206",
      "prefecture": "富山県",
      "prefecture_kana": "トヤマケン",
      "prefecture_code": "16",
      "city": "南砺市",
      "city_kana": "ナントシ",
      "town": "利屋",
      "town_kana": "トギヤ",
      "street": null,
      "office_name": null,
      "office_name_kana": null
    }
  ],
  "0207": {
    "zip_code": "9320207",
    "prefecture": "富山県",
    "prefecture_kana": "トヤマケン",
    "prefecture_code": "16",
    "city": "南砺市",
    "city_kana": "ナントシ",
    "town": "専勝寺",
    "town_kana": "センショウジ",
    "street": null,
    "office_name": null,
    "office_name_kana": null
  },
  "0211": {
    "zip_code": "9320211",
    "prefecture": "富山県",
    "prefecture_kana": "トヤマケン",
    "prefecture_code": "16",
    "city": "南砺市",
    "city_kana": "ナントシ",
    "town": "井波",
    "town_kana": "イナミ",
    "street": null,
    "office_name": null,
    "office_name_kana": null
  },
  "0212": {
    "zip_code": "9320212",
    "prefecture": "富山県",
    "prefecture_kana": "トヤマケン",
    "prefecture_code": "16",
    "city": "南砺市",
    "city_kana": "ナントシ",
    "town": "山斐",
    "town_kana": "ヤマヒ",
    "street": null,
    "office_name": null,
    "office_name_kana": null
  },
  "0213": {
    "zip_code": "9320213",
    "prefecture": "富山県",
    "prefecture_kana": "トヤマケン",
    "prefecture_code": "16",
    "city": "南砺市",
    "city_kana": "ナントシ",
    "town": "井波栄町",
    "town_kana": "イナミサカエマチ",
    "street": null,
    "office_name": null,
    "office_name_kana": null
  },
  "0214": {
    "zip_code": "9320214",
    "prefecture": "富山県",
    "prefecture_kana": "トヤマケン",
    "prefecture_code": "16",
    "city": "南砺市",
    "city_kana": "ナントシ",
    "town": "今町",
    "town_kana": "イママチ",
    "street": null,
    "office_name": null,
    "office_name_kana": null
  },
  "0215": {
    "zip_code": "9320215",
    "prefecture": "富山県",
    "prefecture_kana": "トヤマケン",
    "prefecture_code": "16",
    "city": "南砺市",
    "city_kana": "ナントシ",
    "town": "山下",
    "town_kana": "ヤマシタ",
    "street": null,
    "office_name": null,
    "office_name_kana": null
  },
  "0216": {
    "zip_code": "9320216",
    "prefecture": "富山県",
    "prefecture_kana": "トヤマケン",
    "prefecture_code": "16",
    "city": "南砺市",
    "city_kana": "ナントシ",
    "town": "井波末広町",
    "town_kana": "イナミスエヒロマチ",
    "street": null,
    "office_name": null,
    "office_name_kana": null
  },
  "0217": {
    "zip_code": "9320217",
    "prefecture": "富山県",
    "prefecture_kana": "トヤマケン",
    "prefecture_code": "16",
    "city": "南砺市",
    "city_kana": "ナントシ",
    "town": "本町",
    "town_kana": "ホンマチ",
    "street": null,
    "office_name": null,
    "office_name_kana": null
  },
  "0218": {
    "zip_code": "9320218",
    "prefecture": "富山県",
    "prefecture_kana": "トヤマケン",
    "prefecture_code": "16",
    "city": "南砺市",
    "city_kana": "ナントシ",
    "town": "坪野",
    "town_kana": "ツボノ",
    "street": null,
    "office_name": null,
    "office_name_kana": null
  },
  "0221": {
    "zip_code": "9320221",
    "prefecture": "富山県",
    "prefecture_kana": "トヤマケン",
    "prefecture_code": "16",
    "city": "南砺市",
    "city_kana": "ナントシ",
    "town": "木崎野",
    "town_kana": "キザキノ",
    "street": null,
    "office_name": null,
    "office_name_kana": null
  },
  "0222": {
    "zip_code": "9320222",
    "prefecture": "富山県",
    "prefecture_kana": "トヤマケン",
    "prefecture_code": "16",
    "city": "南砺市",
    "city_kana": "ナントシ",
    "town": "坂ノ下",
    "town_kana": "サカノシタ",
    "street": null,
    "office_name": null,
    "office_name_kana": null
  },
  "0223": {
    "zip_code": "9320223",
    "prefecture": "富山県",
    "prefecture_kana": "トヤマケン",
    "prefecture_code": "16",
    "city": "南砺市",
    "city_kana": "ナントシ",
    "town": "松島",
    "town_kana": "マツシマ",
    "street": null,
    "office_name": null,
    "office_name_kana": null
  },
  "0224": {
    "zip_code": "9320224",
    "prefecture": "富山県",
    "prefecture_kana": "トヤマケン",
    "prefecture_code": "16",
    "city": "南砺市",
    "city_kana": "ナントシ",
    "town": "藤橋",
    "town_kana": "フジハシ",
    "street": null,
    "office_name": null,
    "office_name_kana": null
  },
  "0225": {
    "zip_code": "9320225",
    "prefecture": "富山県",
    "prefecture_kana": "トヤマケン",
    "prefecture_code": "16",
    "city": "南砺市",
    "city_kana": "ナントシ",
    "town": "畑方",
    "town_kana": "ハタカタ",
    "street": null,
    "office_name": null,
    "office_name_kana": null
  },
  "0226": {
    "zip_code": "9320226",
    "prefecture": "富山県",
    "prefecture_kana": "トヤマケン",
    "prefecture_code": "16",
    "city": "南砺市",
    "city_kana": "ナントシ",
    "town": "北川",
    "town_kana": "キタガワ",
    "street": null,
    "office_name": null,
    "office_name_kana": null
  },
  "0227": {
    "zip_code": "9320227",
    "prefecture": "富山県",
    "prefecture_kana": "トヤマケン",
    "prefecture_code": "16",
    "city": "南砺市",
    "city_kana": "ナントシ",
    "town": "北新町",
    "town_kana": "キタシンマチ",
    "street": null,
    "office_name": null,
    "office_name_kana": null
  },
  "0228": {
    "zip_code": "9320228",
    "prefecture": "富山県",
    "prefecture_kana": "トヤマケン",
    "prefecture_code": "16",
    "city": "南砺市",
    "city_kana": "ナントシ",
    "town": "井波東町",
    "town_kana": "イナミヒガシマチ",
    "street": null,
    "office_name": null,
    "office_name_kana": null
  },
  "0231": {
    "zip_code": "9320231",
    "prefecture": "富山県",
    "prefecture_kana": "トヤマケン",
    "prefecture_code": "16",
    "city": "南砺市",
    "city_kana": "ナントシ",
    "town": "山見",
    "town_kana": "ヤマミ",
    "street": null,
    "office_name": null,
    "office_name_kana": null
  },
  "0232": {
    "zip_code": "9320232",
    "prefecture": "富山県",
    "prefecture_kana": "トヤマケン",
    "prefecture_code": "16",
    "city": "南砺市",
    "city_kana": "ナントシ",
    "town": "京願町",
    "town_kana": "キョウガンマチ",
    "street": null,
    "office_name": null,
    "office_name_kana": null
  },
  "0233": {
    "zip_code": "9320233",
    "prefecture": "富山県",
    "prefecture_kana": "トヤマケン",
    "prefecture_code": "16",
    "city": "南砺市",
    "city_kana": "ナントシ",
    "town": "堀道",
    "town_kana": "ホリミチ",
    "street": null,
    "office_name": null,
    "office_name_kana": null
  },
  "0234": {
    "zip_code": "9320234",
    "prefecture": "富山県",
    "prefecture_kana": "トヤマケン",
    "prefecture_code": "16",
    "city": "南砺市",
    "city_kana": "ナントシ",
    "town": "八日町",
    "town_kana": "ヨウカマチ",
    "street": null,
    "office_name": null,
    "office_name_kana": null
  },
  "0235": {
    "zip_code": "9320235",
    "prefecture": "富山県",
    "prefecture_kana": "トヤマケン",
    "prefecture_code": "16",
    "city": "南砺市",
    "city_kana": "ナントシ",
    "town": "六日町",
    "town_kana": "ムイカマチ",
    "street": null,
    "office_name": null,
    "office_name_kana": null
  },
  "0236": {
    "zip_code": "9320236",
    "prefecture": "富山県",
    "prefecture_kana": "トヤマケン",
    "prefecture_code": "16",
    "city": "南砺市",
    "city_kana": "ナントシ",
    "town": "三日町",
    "town_kana": "ミッカマチ",
    "street": null,
    "office_name": null,
    "office_name_kana": null
  },
  "0237": {
    "zip_code": "9320237",
    "prefecture": "富山県",
    "prefecture_kana": "トヤマケン",
    "prefecture_code": "16",
    "city": "南砺市",
    "city_kana": "ナントシ",
    "town": "山見町並",
    "town_kana": "ヤマミマチナミ",
    "street": null,
    "office_name": null,
    "office_name_kana": null
  },
  "0238": {
    "zip_code": "9320238",
    "prefecture": "富山県",
    "prefecture_kana": "トヤマケン",
    "prefecture_code": "16",
    "city": "南砺市",
    "city_kana": "ナントシ",
    "town": "下新町",
    "town_kana": "シモアラマチ",
    "street": null,
    "office_name": null,
    "office_name_kana": null
  },
  "0241": {
    "zip_code": "9320241",
    "prefecture": "富山県",
    "prefecture_kana": "トヤマケン",
    "prefecture_code": "16",
    "city": "南砺市",
    "city_kana": "ナントシ",
    "town": "川原崎",
    "town_kana": "カワラサキ",
    "street": null,
    "office_name": null,
    "office_name_kana": null
  },
  "0242": {
    "zip_code": "9320242",
    "prefecture": "富山県",
    "prefecture_kana": "トヤマケン",
    "prefecture_code": "16",
    "city": "南砺市",
    "city_kana": "ナントシ",
    "town": "谷",
    "town_kana": "タニ",
    "street": null,
    "office_name": null,
    "office_name_kana": null
  },
  "0243": {
    "zip_code": "9320243",
    "prefecture": "富山県",
    "prefecture_kana": "トヤマケン",
    "prefecture_code": "16",
    "city": "南砺市",
    "city_kana": "ナントシ",
    "town": "志観寺",
    "town_kana": "シカンジ",
    "street": null,
    "office_name": null,
    "office_name_kana": null
  },
  "0244": {
    "zip_code": "9320244",
    "prefecture": "富山県",
    "prefecture_kana": "トヤマケン",
    "prefecture_code": "16",
    "city": "南砺市",
    "city_kana": "ナントシ",
    "town": "連代寺",
    "town_kana": "レンタイジ",
    "street": null,
    "office_name": null,
    "office_name_kana": null
  },
  "0245": {
    "zip_code": "9320245",
    "prefecture": "富山県",
    "prefecture_kana": "トヤマケン",
    "prefecture_code": "16",
    "city": "南砺市",
    "city_kana": "ナントシ",
    "town": "清玄寺",
    "town_kana": "セイゲンジ",
    "street": null,
    "office_name": null,
    "office_name_kana": null
  },
  "0246": {
    "zip_code": "9320246",
    "prefecture": "富山県",
    "prefecture_kana": "トヤマケン",
    "prefecture_code": "16",
    "city": "南砺市",
    "city_kana": "ナントシ",
    "town": "東城寺",
    "town_kana": "トウジョウジ",
    "street": null,
    "office_name": null,
    "office_name_kana": null
  },
  "0247": {
    "zip_code": "9320247",
    "prefecture": "富山県",
    "prefecture_kana": "トヤマケン",
    "prefecture_code": "16",
    "city": "南砺市",
    "city_kana": "ナントシ",
    "town": "院瀬見",
    "town_kana": "イゼミ",
    "street": null,
    "office_name": null,
    "office_name_kana": null
  },
  "0248": {
    "zip_code": "9320248",
    "prefecture": "富山県",
    "prefecture_kana": "トヤマケン",
    "prefecture_code": "16",
    "city": "南砺市",
    "city_kana": "ナントシ",
    "town": "沖",
    "town_kana": "オキ",
    "street": null,
    "office_name": null,
    "office_name_kana": null
  },
  "0251": {
    "zip_code": "9320251",
    "prefecture": "富山県",
    "prefecture_kana": "トヤマケン",
    "prefecture_code": "16",
    "city": "南砺市",
    "city_kana": "ナントシ",
    "town": "野能原",
    "town_kana": "ノノウハラ",
    "street": null,
    "office_name": null,
    "office_name_kana": null
  },
  "0252": {
    "zip_code": "9320252",
    "prefecture": "富山県",
    "prefecture_kana": "トヤマケン",
    "prefecture_code": "16",
    "city": "南砺市",
    "city_kana": "ナントシ",
    "town": "高瀬",
    "town_kana": "タカセ",
    "street": null,
    "office_name": null,
    "office_name_kana": null
  },
  "0253": {
    "zip_code": "9320253",
    "prefecture": "富山県",
    "prefecture_kana": "トヤマケン",
    "prefecture_code": "16",
    "city": "南砺市",
    "city_kana": "ナントシ",
    "town": "戸板",
    "town_kana": "トイタ",
    "street": null,
    "office_name": null,
    "office_name_kana": null
  },
  "0254": {
    "zip_code": "9320254",
    "prefecture": "富山県",
    "prefecture_kana": "トヤマケン",
    "prefecture_code": "16",
    "city": "南砺市",
    "city_kana": "ナントシ",
    "town": "五領",
    "town_kana": "ゴリョウ",
    "street": null,
    "office_name": null,
    "office_name_kana": null
  },
  "0255": {
    "zip_code": "9320255",
    "prefecture": "富山県",
    "prefecture_kana": "トヤマケン",
    "prefecture_code": "16",
    "city": "南砺市",
    "city_kana": "ナントシ",
    "town": "五領島",
    "town_kana": "ゴリョウジマ",
    "street": null,
    "office_name": null,
    "office_name_kana": null
  },
  "0256": {
    "zip_code": "9320256",
    "prefecture": "富山県",
    "prefecture_kana": "トヤマケン",
    "prefecture_code": "16",
    "city": "南砺市",
    "city_kana": "ナントシ",
    "town": "今里",
    "town_kana": "イマザト",
    "street": null,
    "office_name": null,
    "office_name_kana": null
  },
  "0257": {
    "zip_code": "9320257",
    "prefecture": "富山県",
    "prefecture_kana": "トヤマケン",
    "prefecture_code": "16",
    "city": "南砺市",
    "city_kana": "ナントシ",
    "town": "北市",
    "town_kana": "キタイチ",
    "street": null,
    "office_name": null,
    "office_name_kana": null
  },
  "0258": {
    "zip_code": "9320258",
    "prefecture": "富山県",
    "prefecture_kana": "トヤマケン",
    "prefecture_code": "16",
    "city": "南砺市",
    "city_kana": "ナントシ",
    "town": "三清東",
    "town_kana": "サンキヨヒガシ",
    "street": null,
    "office_name": null,
    "office_name_kana": null
  },
  "0292": {
    "zip_code": "9320292",
    "prefecture": "富山県",
    "prefecture_kana": "トヤマケン",
    "prefecture_code": "16",
    "city": "南砺市",
    "city_kana": "ナントシ",
    "town": "井波",
    "town_kana": "イナミ",
    "street": "５２０",
    "office_name": "南砺市役所　井波庁舎・南砺市　井波行政センター",
    "office_name_kana": "ナントシヤクシヨ イナミチヨウシヤ・ナントシ イナミギヨウセイセンタ-"
  },
  "0293": {
    "zip_code": "9320293",
    "prefecture": "富山県",
    "prefecture_kana": "トヤマケン",
    "prefecture_code": "16",
    "city": "南砺市",
    "city_kana": "ナントシ",
    "town": "北川",
    "town_kana": "キタガワ",
    "street": "１６６番地１（南砺市地域包括ケアセンター）",
    "office_name": "南砺市地域包括医療ケア部",
    "office_name_kana": "ナントシチイキホウカツイリヨウケアブ"
  },
  "0298": {
    "zip_code": "9320298",
    "prefecture": "富山県",
    "prefecture_kana": "トヤマケン",
    "prefecture_code": "16",
    "city": "南砺市",
    "city_kana": "ナントシ",
    "town": "井波",
    "town_kana": "イナミ",
    "street": "１−１",
    "office_name": "大建工業　株式会社",
    "office_name_kana": "ダイケンコウギヨウ カブシキガイシヤ"
  },
  "0301": {
    "zip_code": "9320301",
    "prefecture": "富山県",
    "prefecture_kana": "トヤマケン",
    "prefecture_code": "16",
    "city": "砺波市",
    "city_kana": "トナミシ",
    "town": "庄川町三谷",
    "town_kana": "ショウガワマチミタニ",
    "street": null,
    "office_name": null,
    "office_name_kana": null
  },
  "0302": {
    "zip_code": "9320302",
    "prefecture": "富山県",
    "prefecture_kana": "トヤマケン",
    "prefecture_code": "16",
    "city": "砺波市",
    "city_kana": "トナミシ",
    "town": "庄川町庄",
    "town_kana": "ショウガワマチショウ",
    "street": null,
    "office_name": null,
    "office_name_kana": null
  },
  "0303": [
    {
      "zip_code": "9320303",
      "prefecture": "富山県",
      "prefecture_kana": "トヤマケン",
      "prefecture_code": "16",
      "city": "砺波市",
      "city_kana": "トナミシ",
      "town": "庄川町落シ",
      "town_kana": "ショウガワマチオトシ",
      "street": null,
      "office_name": null,
      "office_name_kana": null
    },
    {
      "zip_code": "9320303",
      "prefecture": "富山県",
      "prefecture_kana": "トヤマケン",
      "prefecture_code": "16",
      "city": "砺波市",
      "city_kana": "トナミシ",
      "town": "庄川町隠尾",
      "town_kana": "ショウガワマチカクリョウ",
      "street": null,
      "office_name": null,
      "office_name_kana": null
    },
    {
      "zip_code": "9320303",
      "prefecture": "富山県",
      "prefecture_kana": "トヤマケン",
      "prefecture_code": "16",
      "city": "砺波市",
      "city_kana": "トナミシ",
      "town": "庄川町名ケ原",
      "town_kana": "ショウガワマチミョウガハラ",
      "street": null,
      "office_name": null,
      "office_name_kana": null
    },
    {
      "zip_code": "9320303",
      "prefecture": "富山県",
      "prefecture_kana": "トヤマケン",
      "prefecture_code": "16",
      "city": "砺波市",
      "city_kana": "トナミシ",
      "town": "庄川町湯谷",
      "town_kana": "ショウガワマチユダニ",
      "street": null,
      "office_name": null,
      "office_name_kana": null
    },
    {
      "zip_code": "9320303",
      "prefecture": "富山県",
      "prefecture_kana": "トヤマケン",
      "prefecture_code": "16",
      "city": "砺波市",
      "city_kana": "トナミシ",
      "town": "庄川町湯山",
      "town_kana": "ショウガワマチユヤマ",
      "street": null,
      "office_name": null,
      "office_name_kana": null
    },
    {
      "zip_code": "9320303",
      "prefecture": "富山県",
      "prefecture_kana": "トヤマケン",
      "prefecture_code": "16",
      "city": "砺波市",
      "city_kana": "トナミシ",
      "town": "庄川町横住",
      "town_kana": "ショウガワマチヨコズミ",
      "street": null,
      "office_name": null,
      "office_name_kana": null
    }
  ],
  "0304": [
    {
      "zip_code": "9320304",
      "prefecture": "富山県",
      "prefecture_kana": "トヤマケン",
      "prefecture_code": "16",
      "city": "砺波市",
      "city_kana": "トナミシ",
      "town": "庄川町小牧",
      "town_kana": "ショウガワマチコマキ",
      "street": null,
      "office_name": null,
      "office_name_kana": null
    },
    {
      "zip_code": "9320304",
      "prefecture": "富山県",
      "prefecture_kana": "トヤマケン",
      "prefecture_code": "16",
      "city": "砺波市",
      "city_kana": "トナミシ",
      "town": "庄川町前山",
      "town_kana": "ショウガワマチマエヤマ",
      "street": null,
      "office_name": null,
      "office_name_kana": null
    }
  ],
  "0305": {
    "zip_code": "9320305",
    "prefecture": "富山県",
    "prefecture_kana": "トヤマケン",
    "prefecture_code": "16",
    "city": "砺波市",
    "city_kana": "トナミシ",
    "town": "庄川町金屋",
    "town_kana": "ショウガワマチカナヤ",
    "street": null,
    "office_name": null,
    "office_name_kana": null
  },
  "0311": {
    "zip_code": "9320311",
    "prefecture": "富山県",
    "prefecture_kana": "トヤマケン",
    "prefecture_code": "16",
    "city": "砺波市",
    "city_kana": "トナミシ",
    "town": "庄川町古上野",
    "town_kana": "ショウガワマチフルウエノ",
    "street": null,
    "office_name": null,
    "office_name_kana": null
  },
  "0312": {
    "zip_code": "9320312",
    "prefecture": "富山県",
    "prefecture_kana": "トヤマケン",
    "prefecture_code": "16",
    "city": "砺波市",
    "city_kana": "トナミシ",
    "town": "庄川町高儀新",
    "town_kana": "ショウガワマチタカギシン",
    "street": null,
    "office_name": null,
    "office_name_kana": null
  },
  "0313": {
    "zip_code": "9320313",
    "prefecture": "富山県",
    "prefecture_kana": "トヤマケン",
    "prefecture_code": "16",
    "city": "砺波市",
    "city_kana": "トナミシ",
    "town": "庄川町五ケ",
    "town_kana": "ショウガワマチゴカ",
    "street": null,
    "office_name": null,
    "office_name_kana": null
  },
  "0314": {
    "zip_code": "9320314",
    "prefecture": "富山県",
    "prefecture_kana": "トヤマケン",
    "prefecture_code": "16",
    "city": "砺波市",
    "city_kana": "トナミシ",
    "town": "庄川町青島",
    "town_kana": "ショウガワマチアオシマ",
    "street": null,
    "office_name": null,
    "office_name_kana": null
  },
  "0315": {
    "zip_code": "9320315",
    "prefecture": "富山県",
    "prefecture_kana": "トヤマケン",
    "prefecture_code": "16",
    "city": "砺波市",
    "city_kana": "トナミシ",
    "town": "庄川町示野",
    "town_kana": "ショウガワマチシメノ",
    "street": null,
    "office_name": null,
    "office_name_kana": null
  },
  "0316": {
    "zip_code": "9320316",
    "prefecture": "富山県",
    "prefecture_kana": "トヤマケン",
    "prefecture_code": "16",
    "city": "砺波市",
    "city_kana": "トナミシ",
    "town": "庄川町天正",
    "town_kana": "ショウガワマチテンショウ",
    "street": null,
    "office_name": null,
    "office_name_kana": null
  },
  "0317": {
    "zip_code": "9320317",
    "prefecture": "富山県",
    "prefecture_kana": "トヤマケン",
    "prefecture_code": "16",
    "city": "砺波市",
    "city_kana": "トナミシ",
    "town": "庄川町筏",
    "town_kana": "ショウガワマチイカダ",
    "street": null,
    "office_name": null,
    "office_name_kana": null
  },
  "0371": [
    {
      "zip_code": "9320371",
      "prefecture": "富山県",
      "prefecture_kana": "トヤマケン",
      "prefecture_code": "16",
      "city": "南砺市",
      "city_kana": "ナントシ",
      "town": "利賀村大牧",
      "town_kana": "トガムラオオマキ",
      "street": null,
      "office_name": null,
      "office_name_kana": null
    },
    {
      "zip_code": "9320371",
      "prefecture": "富山県",
      "prefecture_kana": "トヤマケン",
      "prefecture_code": "16",
      "city": "南砺市",
      "city_kana": "ナントシ",
      "town": "利賀村北原",
      "town_kana": "トガムラキタハラ",
      "street": null,
      "office_name": null,
      "office_name_kana": null
    },
    {
      "zip_code": "9320371",
      "prefecture": "富山県",
      "prefecture_kana": "トヤマケン",
      "prefecture_code": "16",
      "city": "南砺市",
      "city_kana": "ナントシ",
      "town": "利賀村下原",
      "town_kana": "トガムラシモハラ",
      "street": null,
      "office_name": null,
      "office_name_kana": null
    },
    {
      "zip_code": "9320371",
      "prefecture": "富山県",
      "prefecture_kana": "トヤマケン",
      "prefecture_code": "16",
      "city": "南砺市",
      "city_kana": "ナントシ",
      "town": "利賀村栃原",
      "town_kana": "トガムラトチハラ",
      "street": null,
      "office_name": null,
      "office_name_kana": null
    },
    {
      "zip_code": "9320371",
      "prefecture": "富山県",
      "prefecture_kana": "トヤマケン",
      "prefecture_code": "16",
      "city": "南砺市",
      "city_kana": "ナントシ",
      "town": "利賀村長崎",
      "town_kana": "トガムラナガサキ",
      "street": null,
      "office_name": null,
      "office_name_kana": null
    }
  ],
  "0392": {
    "zip_code": "9320392",
    "prefecture": "富山県",
    "prefecture_kana": "トヤマケン",
    "prefecture_code": "16",
    "city": "砺波市",
    "city_kana": "トナミシ",
    "town": "庄川町金屋",
    "town_kana": "ショウガワマチカナヤ",
    "street": "３５３１",
    "office_name": "庄川温泉観光ホテル",
    "office_name_kana": "シヨウガワオンセンカンコウホテル"
  },
  "0393": {
    "zip_code": "9320393",
    "prefecture": "富山県",
    "prefecture_kana": "トヤマケン",
    "prefecture_code": "16",
    "city": "砺波市",
    "city_kana": "トナミシ",
    "town": "庄川町青島",
    "town_kana": "ショウガワマチアオシマ",
    "street": "４０１",
    "office_name": "砺波市　庄川支所",
    "office_name_kana": "トナミシ シヨウガワシシヨ"
  },
  "0395": {
    "zip_code": "9320395",
    "prefecture": "富山県",
    "prefecture_kana": "トヤマケン",
    "prefecture_code": "16",
    "city": "砺波市",
    "city_kana": "トナミシ",
    "town": "庄川町示野",
    "town_kana": "ショウガワマチシメノ",
    "street": "１１６",
    "office_name": "庄川町商工会",
    "office_name_kana": "シヨウガワマチシヨウコウカイ"
  },
  "0396": {
    "zip_code": "9320396",
    "prefecture": "富山県",
    "prefecture_kana": "トヤマケン",
    "prefecture_code": "16",
    "city": "砺波市",
    "city_kana": "トナミシ",
    "town": "庄川町金屋",
    "town_kana": "ショウガワマチカナヤ",
    "street": "８３９",
    "office_name": "三楽園",
    "office_name_kana": "サンラクエン"
  },
  "0398": {
    "zip_code": "9320398",
    "prefecture": "富山県",
    "prefecture_kana": "トヤマケン",
    "prefecture_code": "16",
    "city": "砺波市",
    "city_kana": "トナミシ",
    "town": "庄川町青島",
    "town_kana": "ショウガワマチアオシマ",
    "street": "１１",
    "office_name": "第一編物",
    "office_name_kana": "ダイイチアミモノ"
  },
  "0801": {
    "zip_code": "9320801",
    "prefecture": "富山県",
    "prefecture_kana": "トヤマケン",
    "prefecture_code": "16",
    "city": "小矢部市",
    "city_kana": "オヤベシ",
    "town": "五社",
    "town_kana": "ゴシャ",
    "street": null,
    "office_name": null,
    "office_name_kana": null
  },
  "0802": {
    "zip_code": "9320802",
    "prefecture": "富山県",
    "prefecture_kana": "トヤマケン",
    "prefecture_code": "16",
    "city": "小矢部市",
    "city_kana": "オヤベシ",
    "town": "七社",
    "town_kana": "シチシャ",
    "street": null,
    "office_name": null,
    "office_name_kana": null
  },
  "0803": {
    "zip_code": "9320803",
    "prefecture": "富山県",
    "prefecture_kana": "トヤマケン",
    "prefecture_code": "16",
    "city": "小矢部市",
    "city_kana": "オヤベシ",
    "town": "道明",
    "town_kana": "ドウミョウ",
    "street": null,
    "office_name": null,
    "office_name_kana": null
  },
  "0804": {
    "zip_code": "9320804",
    "prefecture": "富山県",
    "prefecture_kana": "トヤマケン",
    "prefecture_code": "16",
    "city": "小矢部市",
    "city_kana": "オヤベシ",
    "town": "下中",
    "town_kana": "シモナカ",
    "street": null,
    "office_name": null,
    "office_name_kana": null
  },
  "0805": {
    "zip_code": "9320805",
    "prefecture": "富山県",
    "prefecture_kana": "トヤマケン",
    "prefecture_code": "16",
    "city": "小矢部市",
    "city_kana": "オヤベシ",
    "town": "西中",
    "town_kana": "ニシナカ",
    "street": null,
    "office_name": null,
    "office_name_kana": null
  },
  "0806": {
    "zip_code": "9320806",
    "prefecture": "富山県",
    "prefecture_kana": "トヤマケン",
    "prefecture_code": "16",
    "city": "小矢部市",
    "city_kana": "オヤベシ",
    "town": "水落",
    "town_kana": "ミズオチ",
    "street": null,
    "office_name": null,
    "office_name_kana": null
  },
  "0807": {
    "zip_code": "9320807",
    "prefecture": "富山県",
    "prefecture_kana": "トヤマケン",
    "prefecture_code": "16",
    "city": "小矢部市",
    "city_kana": "オヤベシ",
    "town": "柳原",
    "town_kana": "ヤナギハラ",
    "street": null,
    "office_name": null,
    "office_name_kana": null
  },
  "0808": {
    "zip_code": "9320808",
    "prefecture": "富山県",
    "prefecture_kana": "トヤマケン",
    "prefecture_code": "16",
    "city": "小矢部市",
    "city_kana": "オヤベシ",
    "town": "石名田",
    "town_kana": "イシナダ",
    "street": null,
    "office_name": null,
    "office_name_kana": null
  },
  "0811": {
    "zip_code": "9320811",
    "prefecture": "富山県",
    "prefecture_kana": "トヤマケン",
    "prefecture_code": "16",
    "city": "小矢部市",
    "city_kana": "オヤベシ",
    "town": "水牧",
    "town_kana": "ミズマキ",
    "street": null,
    "office_name": null,
    "office_name_kana": null
  },
  "0812": {
    "zip_code": "9320812",
    "prefecture": "富山県",
    "prefecture_kana": "トヤマケン",
    "prefecture_code": "16",
    "city": "小矢部市",
    "city_kana": "オヤベシ",
    "town": "金屋本江",
    "town_kana": "カナヤホンゴウ",
    "street": null,
    "office_name": null,
    "office_name_kana": null
  },
  "0813": {
    "zip_code": "9320813",
    "prefecture": "富山県",
    "prefecture_kana": "トヤマケン",
    "prefecture_code": "16",
    "city": "小矢部市",
    "city_kana": "オヤベシ",
    "town": "野寺",
    "town_kana": "ノデラ",
    "street": null,
    "office_name": null,
    "office_name_kana": null
  },
  "0814": {
    "zip_code": "9320814",
    "prefecture": "富山県",
    "prefecture_kana": "トヤマケン",
    "prefecture_code": "16",
    "city": "小矢部市",
    "city_kana": "オヤベシ",
    "town": "赤倉",
    "town_kana": "アカクラ",
    "street": null,
    "office_name": null,
    "office_name_kana": null
  },
  "0815": {
    "zip_code": "9320815",
    "prefecture": "富山県",
    "prefecture_kana": "トヤマケン",
    "prefecture_code": "16",
    "city": "小矢部市",
    "city_kana": "オヤベシ",
    "town": "高木出",
    "town_kana": "タカギデ",
    "street": null,
    "office_name": null,
    "office_name_kana": null
  },
  "0816": {
    "zip_code": "9320816",
    "prefecture": "富山県",
    "prefecture_kana": "トヤマケン",
    "prefecture_code": "16",
    "city": "小矢部市",
    "city_kana": "オヤベシ",
    "town": "福久",
    "town_kana": "フクヒサ",
    "street": null,
    "office_name": null,
    "office_name_kana": null
  },
  "0817": {
    "zip_code": "9320817",
    "prefecture": "富山県",
    "prefecture_kana": "トヤマケン",
    "prefecture_code": "16",
    "city": "小矢部市",
    "city_kana": "オヤベシ",
    "town": "小神",
    "town_kana": "オコ",
    "street": null,
    "office_name": null,
    "office_name_kana": null
  },
  "0821": {
    "zip_code": "9320821",
    "prefecture": "富山県",
    "prefecture_kana": "トヤマケン",
    "prefecture_code": "16",
    "city": "小矢部市",
    "city_kana": "オヤベシ",
    "town": "鷲島",
    "town_kana": "ワシガシマ",
    "street": null,
    "office_name": null,
    "office_name_kana": null
  },
  "0822": {
    "zip_code": "9320822",
    "prefecture": "富山県",
    "prefecture_kana": "トヤマケン",
    "prefecture_code": "16",
    "city": "小矢部市",
    "city_kana": "オヤベシ",
    "town": "和沢",
    "town_kana": "ワサワ",
    "street": null,
    "office_name": null,
    "office_name_kana": null
  },
  "0823": {
    "zip_code": "9320823",
    "prefecture": "富山県",
    "prefecture_kana": "トヤマケン",
    "prefecture_code": "16",
    "city": "小矢部市",
    "city_kana": "オヤベシ",
    "town": "福上",
    "town_kana": "フクガミ",
    "street": null,
    "office_name": null,
    "office_name_kana": null
  },
  "0824": {
    "zip_code": "9320824",
    "prefecture": "富山県",
    "prefecture_kana": "トヤマケン",
    "prefecture_code": "16",
    "city": "小矢部市",
    "city_kana": "オヤベシ",
    "town": "下島",
    "town_kana": "シモジマ",
    "street": null,
    "office_name": null,
    "office_name_kana": null
  },
  "0825": {
    "zip_code": "9320825",
    "prefecture": "富山県",
    "prefecture_kana": "トヤマケン",
    "prefecture_code": "16",
    "city": "小矢部市",
    "city_kana": "オヤベシ",
    "town": "島",
    "town_kana": "シマ",
    "street": null,
    "office_name": null,
    "office_name_kana": null
  },
  "0826": {
    "zip_code": "9320826",
    "prefecture": "富山県",
    "prefecture_kana": "トヤマケン",
    "prefecture_code": "16",
    "city": "小矢部市",
    "city_kana": "オヤベシ",
    "town": "茄子島",
    "town_kana": "ナスジマ",
    "street": null,
    "office_name": null,
    "office_name_kana": null
  },
  "0831": {
    "zip_code": "9320831",
    "prefecture": "富山県",
    "prefecture_kana": "トヤマケン",
    "prefecture_code": "16",
    "city": "小矢部市",
    "city_kana": "オヤベシ",
    "town": "後谷",
    "town_kana": "ウシロダニ",
    "street": null,
    "office_name": null,
    "office_name_kana": null
  },
  "0832": {
    "zip_code": "9320832",
    "prefecture": "富山県",
    "prefecture_kana": "トヤマケン",
    "prefecture_code": "16",
    "city": "小矢部市",
    "city_kana": "オヤベシ",
    "town": "野端",
    "town_kana": "ノバナ",
    "street": null,
    "office_name": null,
    "office_name_kana": null
  },
  "0833": {
    "zip_code": "9320833",
    "prefecture": "富山県",
    "prefecture_kana": "トヤマケン",
    "prefecture_code": "16",
    "city": "小矢部市",
    "city_kana": "オヤベシ",
    "town": "綾子",
    "town_kana": "アヤコ",
    "street": null,
    "office_name": null,
    "office_name_kana": null
  },
  "0834": {
    "zip_code": "9320834",
    "prefecture": "富山県",
    "prefecture_kana": "トヤマケン",
    "prefecture_code": "16",
    "city": "小矢部市",
    "city_kana": "オヤベシ",
    "town": "蓮沼",
    "town_kana": "ハスヌマ",
    "street": null,
    "office_name": null,
    "office_name_kana": null
  },
  "0835": {
    "zip_code": "9320835",
    "prefecture": "富山県",
    "prefecture_kana": "トヤマケン",
    "prefecture_code": "16",
    "city": "小矢部市",
    "city_kana": "オヤベシ",
    "town": "石坂",
    "town_kana": "イシサカ",
    "street": null,
    "office_name": null,
    "office_name_kana": null
  },
  "0836": {
    "zip_code": "9320836",
    "prefecture": "富山県",
    "prefecture_kana": "トヤマケン",
    "prefecture_code": "16",
    "city": "小矢部市",
    "city_kana": "オヤベシ",
    "town": "埴生",
    "town_kana": "ハニュウ",
    "street": null,
    "office_name": null,
    "office_name_kana": null
  },
  "0837": {
    "zip_code": "9320837",
    "prefecture": "富山県",
    "prefecture_kana": "トヤマケン",
    "prefecture_code": "16",
    "city": "小矢部市",
    "city_kana": "オヤベシ",
    "town": "吉和台",
    "town_kana": "ヨシワダイ",
    "street": null,
    "office_name": null,
    "office_name_kana": null
  },
  "0838": {
    "zip_code": "9320838",
    "prefecture": "富山県",
    "prefecture_kana": "トヤマケン",
    "prefecture_code": "16",
    "city": "小矢部市",
    "city_kana": "オヤベシ",
    "town": "メルヘンランド",
    "town_kana": "メルヘンランド",
    "street": null,
    "office_name": null,
    "office_name_kana": null
  },
  "0841": {
    "zip_code": "9320841",
    "prefecture": "富山県",
    "prefecture_kana": "トヤマケン",
    "prefecture_code": "16",
    "city": "小矢部市",
    "city_kana": "オヤベシ",
    "town": "道林寺",
    "town_kana": "ドウリンジ",
    "street": null,
    "office_name": null,
    "office_name_kana": null
  },
  "0842": {
    "zip_code": "9320842",
    "prefecture": "富山県",
    "prefecture_kana": "トヤマケン",
    "prefecture_code": "16",
    "city": "小矢部市",
    "city_kana": "オヤベシ",
    "town": "長",
    "town_kana": "チョウ",
    "street": null,
    "office_name": null,
    "office_name_kana": null
  },
  "0843": {
    "zip_code": "9320843",
    "prefecture": "富山県",
    "prefecture_kana": "トヤマケン",
    "prefecture_code": "16",
    "city": "小矢部市",
    "city_kana": "オヤベシ",
    "town": "棚田",
    "town_kana": "タナダ",
    "street": null,
    "office_name": null,
    "office_name_kana": null
  },
  "0844": {
    "zip_code": "9320844",
    "prefecture": "富山県",
    "prefecture_kana": "トヤマケン",
    "prefecture_code": "16",
    "city": "小矢部市",
    "city_kana": "オヤベシ",
    "town": "北一",
    "town_kana": "キタイチ",
    "street": null,
    "office_name": null,
    "office_name_kana": null
  },
  "0845": {
    "zip_code": "9320845",
    "prefecture": "富山県",
    "prefecture_kana": "トヤマケン",
    "prefecture_code": "16",
    "city": "小矢部市",
    "city_kana": "オヤベシ",
    "town": "松尾",
    "town_kana": "マツオ",
    "street": null,
    "office_name": null,
    "office_name_kana": null
  },
  "0846": {
    "zip_code": "9320846",
    "prefecture": "富山県",
    "prefecture_kana": "トヤマケン",
    "prefecture_code": "16",
    "city": "小矢部市",
    "city_kana": "オヤベシ",
    "town": "松永",
    "town_kana": "マツナガ",
    "street": null,
    "office_name": null,
    "office_name_kana": null
  },
  "0851": {
    "zip_code": "9320851",
    "prefecture": "富山県",
    "prefecture_kana": "トヤマケン",
    "prefecture_code": "16",
    "city": "小矢部市",
    "city_kana": "オヤベシ",
    "town": "末友",
    "town_kana": "スエトモ",
    "street": null,
    "office_name": null,
    "office_name_kana": null
  },
  "0852": {
    "zip_code": "9320852",
    "prefecture": "富山県",
    "prefecture_kana": "トヤマケン",
    "prefecture_code": "16",
    "city": "小矢部市",
    "city_kana": "オヤベシ",
    "town": "安養寺新",
    "town_kana": "アンヨウジシン",
    "street": null,
    "office_name": null,
    "office_name_kana": null
  },
  "0853": {
    "zip_code": "9320853",
    "prefecture": "富山県",
    "prefecture_kana": "トヤマケン",
    "prefecture_code": "16",
    "city": "小矢部市",
    "city_kana": "オヤベシ",
    "town": "臼谷",
    "town_kana": "ウスタニ",
    "street": null,
    "office_name": null,
    "office_name_kana": null
  },
  "0854": {
    "zip_code": "9320854",
    "prefecture": "富山県",
    "prefecture_kana": "トヤマケン",
    "prefecture_code": "16",
    "city": "小矢部市",
    "city_kana": "オヤベシ",
    "town": "末沢新",
    "town_kana": "スエザワシン",
    "street": null,
    "office_name": null,
    "office_name_kana": null
  },
  "0855": {
    "zip_code": "9320855",
    "prefecture": "富山県",
    "prefecture_kana": "トヤマケン",
    "prefecture_code": "16",
    "city": "小矢部市",
    "city_kana": "オヤベシ",
    "town": "川開新",
    "town_kana": "カワビラキシン",
    "street": null,
    "office_name": null,
    "office_name_kana": null
  },
  "0856": {
    "zip_code": "9320856",
    "prefecture": "富山県",
    "prefecture_kana": "トヤマケン",
    "prefecture_code": "16",
    "city": "小矢部市",
    "city_kana": "オヤベシ",
    "town": "フロンティアパーク",
    "town_kana": "フロンティアパーク",
    "street": null,
    "office_name": null,
    "office_name_kana": null
  },
  "0861": {
    "zip_code": "9320861",
    "prefecture": "富山県",
    "prefecture_kana": "トヤマケン",
    "prefecture_code": "16",
    "city": "小矢部市",
    "city_kana": "オヤベシ",
    "town": "八講田",
    "town_kana": "ハッコウデン",
    "street": null,
    "office_name": null,
    "office_name_kana": null
  },
  "0862": {
    "zip_code": "9320862",
    "prefecture": "富山県",
    "prefecture_kana": "トヤマケン",
    "prefecture_code": "16",
    "city": "小矢部市",
    "city_kana": "オヤベシ",
    "town": "五郎丸",
    "town_kana": "ゴロウマル",
    "street": null,
    "office_name": null,
    "office_name_kana": null
  },
  "0863": {
    "zip_code": "9320863",
    "prefecture": "富山県",
    "prefecture_kana": "トヤマケン",
    "prefecture_code": "16",
    "city": "小矢部市",
    "city_kana": "オヤベシ",
    "town": "内山",
    "town_kana": "ウチヤマ",
    "street": null,
    "office_name": null,
    "office_name_kana": null
  },
  "0864": {
    "zip_code": "9320864",
    "prefecture": "富山県",
    "prefecture_kana": "トヤマケン",
    "prefecture_code": "16",
    "city": "小矢部市",
    "city_kana": "オヤベシ",
    "town": "八伏",
    "town_kana": "ハチブセ",
    "street": null,
    "office_name": null,
    "office_name_kana": null
  },
  "8501": {
    "zip_code": "9328501",
    "prefecture": "富山県",
    "prefecture_kana": "トヤマケン",
    "prefecture_code": "16",
    "city": "小矢部市",
    "city_kana": "オヤベシ",
    "town": "八講田",
    "town_kana": "ハッコウデン",
    "street": "２３１",
    "office_name": "アラセレース　株式会社",
    "office_name_kana": "アラセレ-ス カブシキガイシヤ"
  },
  "8502": {
    "zip_code": "9328502",
    "prefecture": "富山県",
    "prefecture_kana": "トヤマケン",
    "prefecture_code": "16",
    "city": "小矢部市",
    "city_kana": "オヤベシ",
    "town": "小神",
    "town_kana": "オコ",
    "street": "６１",
    "office_name": "株式会社　エイゼット",
    "office_name_kana": "カブシキガイシヤ エイゼツト"
  },
  "8503": {
    "zip_code": "9328503",
    "prefecture": "富山県",
    "prefecture_kana": "トヤマケン",
    "prefecture_code": "16",
    "city": "小矢部市",
    "city_kana": "オヤベシ",
    "town": "野寺",
    "town_kana": "ノデラ",
    "street": "１２３",
    "office_name": "公立学校共済組合　北陸中央病院",
    "office_name_kana": "コウリツガツコウキヨウサイクミアイ ホクリクチユウオウビヨウイン"
  },
  "8505": {
    "zip_code": "9328505",
    "prefecture": "富山県",
    "prefecture_kana": "トヤマケン",
    "prefecture_code": "16",
    "city": "小矢部市",
    "city_kana": "オヤベシ",
    "town": "松永",
    "town_kana": "マツナガ",
    "street": "３８−１",
    "office_name": "泉洋化工　株式会社",
    "office_name_kana": "センヨウカコウ カブシキガイシヤ"
  },
  "8508": {
    "zip_code": "9328508",
    "prefecture": "富山県",
    "prefecture_kana": "トヤマケン",
    "prefecture_code": "16",
    "city": "小矢部市",
    "city_kana": "オヤベシ",
    "town": "綾子",
    "town_kana": "アヤコ",
    "street": "５１８５",
    "office_name": "小矢部公共職業安定所",
    "office_name_kana": "オヤベコウキヨウシヨクギヨウアンテイシヨ"
  },
  "8510": {
    "zip_code": "9328510",
    "prefecture": "富山県",
    "prefecture_kana": "トヤマケン",
    "prefecture_code": "16",
    "city": "小矢部市",
    "city_kana": "オヤベシ",
    "town": "和沢",
    "town_kana": "ワサワ",
    "street": "４１４",
    "office_name": "ティ・エフ・シー　株式会社　北陸工場",
    "office_name_kana": "テイ・エフ・シ- カブシキガイシヤ ホクリクコウジヨウ"
  },
  "8511": {
    "zip_code": "9328511",
    "prefecture": "富山県",
    "prefecture_kana": "トヤマケン",
    "prefecture_code": "16",
    "city": "小矢部市",
    "city_kana": "オヤベシ",
    "town": "島",
    "town_kana": "シマ",
    "street": "３２１",
    "office_name": "小矢部大家病院",
    "office_name_kana": "オヤベオオカビヨウイン"
  },
  "8512": {
    "zip_code": "9328512",
    "prefecture": "富山県",
    "prefecture_kana": "トヤマケン",
    "prefecture_code": "16",
    "city": "小矢部市",
    "city_kana": "オヤベシ",
    "town": "本町",
    "town_kana": "ホンマチ",
    "street": "２−１",
    "office_name": "石動証券　株式会社",
    "office_name_kana": "イスルギシヨウケン カブシキガイシヤ"
  },
  "8515": {
    "zip_code": "9328515",
    "prefecture": "富山県",
    "prefecture_kana": "トヤマケン",
    "prefecture_code": "16",
    "city": "小矢部市",
    "city_kana": "オヤベシ",
    "town": "島",
    "town_kana": "シマ",
    "street": "７０",
    "office_name": "開田運輸　株式会社",
    "office_name_kana": "カイダウンユ カブシキガイシヤ"
  },
  "8518": {
    "zip_code": "9328518",
    "prefecture": "富山県",
    "prefecture_kana": "トヤマケン",
    "prefecture_code": "16",
    "city": "小矢部市",
    "city_kana": "オヤベシ",
    "town": "島",
    "town_kana": "シマ",
    "street": "３２２",
    "office_name": "介護老人保健施設　ゆうゆうハウス",
    "office_name_kana": "カイゴロウジンホケンシセツ ユウユウハウス"
  },
  "8520": {
    "zip_code": "9328520",
    "prefecture": "富山県",
    "prefecture_kana": "トヤマケン",
    "prefecture_code": "16",
    "city": "小矢部市",
    "city_kana": "オヤベシ",
    "town": "五社",
    "town_kana": "ゴシャ",
    "street": "３７",
    "office_name": "黒田化学　株式会社　小矢部工場",
    "office_name_kana": "クロダカガク カブシキガイシヤ オヤベコウジヨウ"
  },
  "8522": {
    "zip_code": "9328522",
    "prefecture": "富山県",
    "prefecture_kana": "トヤマケン",
    "prefecture_code": "16",
    "city": "小矢部市",
    "city_kana": "オヤベシ",
    "town": "蓮沼",
    "town_kana": "ハスヌマ",
    "street": "４５６",
    "office_name": "加越木工　株式会社",
    "office_name_kana": "カエツモツコウ カブシキガイシヤ"
  },
  "8525": {
    "zip_code": "9328525",
    "prefecture": "富山県",
    "prefecture_kana": "トヤマケン",
    "prefecture_code": "16",
    "city": "小矢部市",
    "city_kana": "オヤベシ",
    "town": "畠中町",
    "town_kana": "ハタケナカマチ",
    "street": "４−１８",
    "office_name": "松岡病院",
    "office_name_kana": "マツオカビヨウイン"
  },
  "8528": {
    "zip_code": "9328528",
    "prefecture": "富山県",
    "prefecture_kana": "トヤマケン",
    "prefecture_code": "16",
    "city": "小矢部市",
    "city_kana": "オヤベシ",
    "town": "末友",
    "town_kana": "スエトモ",
    "street": "３番地",
    "office_name": "パナソニック　エコシステムズ小矢部　株式会社",
    "office_name_kana": "パナソニツク エコシステムズオヤベ カブシキガイシヤ"
  },
  "8533": {
    "zip_code": "9328533",
    "prefecture": "富山県",
    "prefecture_kana": "トヤマケン",
    "prefecture_code": "16",
    "city": "小矢部市",
    "city_kana": "オヤベシ",
    "town": "後谷",
    "town_kana": "ウシロダニ",
    "street": "１１５１",
    "office_name": "小矢部市立石動小学校",
    "office_name_kana": "オヤベシリツイスルギシヨウガツコウ"
  },
  "8538": {
    "zip_code": "9328538",
    "prefecture": "富山県",
    "prefecture_kana": "トヤマケン",
    "prefecture_code": "16",
    "city": "小矢部市",
    "city_kana": "オヤベシ",
    "town": "西中野",
    "town_kana": "ニシナカノ",
    "street": "字鷲場１番１他",
    "office_name": "三井アウトレットパーク　北陸小矢部",
    "office_name_kana": "ミツイアウトレツトパ-ク ホクリクオヤベ"
  },
  "8540": {
    "zip_code": "9328540",
    "prefecture": "富山県",
    "prefecture_kana": "トヤマケン",
    "prefecture_code": "16",
    "city": "小矢部市",
    "city_kana": "オヤベシ",
    "town": "西町",
    "town_kana": "ニシチョウ",
    "street": "６−３３",
    "office_name": "富山県立　石動高等学校",
    "office_name_kana": "トヤマケンリツ イスルギコウトウガツコウ"
  },
  "8550": {
    "zip_code": "9328550",
    "prefecture": "富山県",
    "prefecture_kana": "トヤマケン",
    "prefecture_code": "16",
    "city": "小矢部市",
    "city_kana": "オヤベシ",
    "town": "鷲島",
    "town_kana": "ワシガシマ",
    "street": "１１１０",
    "office_name": "菱光サイジング　株式会社",
    "office_name_kana": "リヨウコウサイジング カブシキガイシヤ"
  },
  "8551": {
    "zip_code": "9328551",
    "prefecture": "富山県",
    "prefecture_kana": "トヤマケン",
    "prefecture_code": "16",
    "city": "小矢部市",
    "city_kana": "オヤベシ",
    "town": "和沢",
    "town_kana": "ワサワ",
    "street": "４８４",
    "office_name": "株式会社　野手組",
    "office_name_kana": "カブシキガイシヤ ノテグミ"
  },
  "8555": {
    "zip_code": "9328555",
    "prefecture": "富山県",
    "prefecture_kana": "トヤマケン",
    "prefecture_code": "16",
    "city": "小矢部市",
    "city_kana": "オヤベシ",
    "town": "赤倉",
    "town_kana": "アカクラ",
    "street": "１６９",
    "office_name": "大和トランスポート　株式会社",
    "office_name_kana": "ヤマトトランスポ-ト カブシキガイシヤ"
  },
  "8558": {
    "zip_code": "9328558",
    "prefecture": "富山県",
    "prefecture_kana": "トヤマケン",
    "prefecture_code": "16",
    "city": "小矢部市",
    "city_kana": "オヤベシ",
    "town": "綾子",
    "town_kana": "アヤコ",
    "street": "５２６８",
    "office_name": "株式会社　吉田組",
    "office_name_kana": "カブシキガイシヤ ヨシダグミ"
  },
  "8567": {
    "zip_code": "9328567",
    "prefecture": "富山県",
    "prefecture_kana": "トヤマケン",
    "prefecture_code": "16",
    "city": "小矢部市",
    "city_kana": "オヤベシ",
    "town": "埴生",
    "town_kana": "ハニュウ",
    "street": "１５７０",
    "office_name": "北栄電設　株式会社",
    "office_name_kana": "ホクエイデンセツ カブシキガイシヤ"
  },
  "8575": {
    "zip_code": "9328575",
    "prefecture": "富山県",
    "prefecture_kana": "トヤマケン",
    "prefecture_code": "16",
    "city": "小矢部市",
    "city_kana": "オヤベシ",
    "town": "芹川",
    "town_kana": "セリカワ",
    "street": "４０４６",
    "office_name": "石黒建設　株式会社　北陸支社",
    "office_name_kana": "イシグロケンセツ カブシキガイシヤ ホクリクシシヤ"
  },
  "8585": {
    "zip_code": "9328585",
    "prefecture": "富山県",
    "prefecture_kana": "トヤマケン",
    "prefecture_code": "16",
    "city": "小矢部市",
    "city_kana": "オヤベシ",
    "town": "泉町",
    "town_kana": "イズミチョウ",
    "street": "７−１",
    "office_name": "朝日化工　株式会社",
    "office_name_kana": "アサヒカコウ カブシキガイシヤ"
  },
  "8588": {
    "zip_code": "9328588",
    "prefecture": "富山県",
    "prefecture_kana": "トヤマケン",
    "prefecture_code": "16",
    "city": "小矢部市",
    "city_kana": "オヤベシ",
    "town": "埴生",
    "town_kana": "ハニュウ",
    "street": "２０８",
    "office_name": "株式会社　ミヤモリ",
    "office_name_kana": "カブシキガイシヤ ミヤモリ"
  },
  "8611": {
    "zip_code": "9328611",
    "prefecture": "富山県",
    "prefecture_kana": "トヤマケン",
    "prefecture_code": "16",
    "city": "小矢部市",
    "city_kana": "オヤベシ",
    "town": "本町",
    "town_kana": "ホンマチ",
    "street": "１−１",
    "office_name": "小矢部市役所",
    "office_name_kana": "オヤベシヤクシヨ"
  }
}