{
  "0000": {
    "zip_code": "9380000",
    "prefecture": "富山県",
    "prefecture_kana": "トヤマケン",
    "prefecture_code": "16",
    "city": "黒部市",
    "city_kana": "クロベシ",
    "town": "",
    "town_kana": "",
    "street": null,
    "office_name": null,
    "office_name_kana": null
  },
  "0001": {
    "zip_code": "9380001",
    "prefecture": "富山県",
    "prefecture_kana": "トヤマケン",
    "prefecture_code": "16",
    "city": "黒部市",
    "city_kana": "クロベシ",
    "town": "荒俣",
    "town_kana": "アラマタ",
    "street": null,
    "office_name": null,
    "office_name_kana": null
  },
  "0002": {
    "zip_code": "9380002",
    "prefecture": "富山県",
    "prefecture_kana": "トヤマケン",
    "prefecture_code": "16",
    "city": "黒部市",
    "city_kana": "クロベシ",
    "town": "飛騨",
    "town_kana": "ヒダ",
    "street": null,
    "office_name": null,
    "office_name_kana": null
  },
  "0003": {
    "zip_code": "9380003",
    "prefecture": "富山県",
    "prefecture_kana": "トヤマケン",
    "prefecture_code": "16",
    "city": "黒部市",
    "city_kana": "クロベシ",
    "town": "六天",
    "town_kana": "ロクテン",
    "street": null,
    "office_name": null,
    "office_name_kana": null
  },
  "0004": {
    "zip_code": "9380004",
    "prefecture": "富山県",
    "prefecture_kana": "トヤマケン",
    "prefecture_code": "16",
    "city": "黒部市",
    "city_kana": "クロベシ",
    "town": "飯沢",
    "town_kana": "イイザワ",
    "street": null,
    "office_name": null,
    "office_name_kana": null
  },
  "0005": {
    "zip_code": "9380005",
    "prefecture": "富山県",
    "prefecture_kana": "トヤマケン",
    "prefecture_code": "16",
    "city": "黒部市",
    "city_kana": "クロベシ",
    "town": "吉田",
    "town_kana": "ヨシダ",
    "street": null,
    "office_name": null,
    "office_name_kana": null
  },
  "0006": {
    "zip_code": "9380006",
    "prefecture": "富山県",
    "prefecture_kana": "トヤマケン",
    "prefecture_code": "16",
    "city": "黒部市",
    "city_kana": "クロベシ",
    "town": "大開",
    "town_kana": "オオビラキ",
    "street": null,
    "office_name": null,
    "office_name_kana": null
  },
  "0011": {
    "zip_code": "9380011",
    "prefecture": "富山県",
    "prefecture_kana": "トヤマケン",
    "prefecture_code": "16",
    "city": "黒部市",
    "city_kana": "クロベシ",
    "town": "黒部新",
    "town_kana": "クロベシン",
    "street": null,
    "office_name": null,
    "office_name_kana": null
  },
  "0012": {
    "zip_code": "9380012",
    "prefecture": "富山県",
    "prefecture_kana": "トヤマケン",
    "prefecture_code": "16",
    "city": "黒部市",
    "city_kana": "クロベシ",
    "town": "出島",
    "town_kana": "デジマ",
    "street": null,
    "office_name": null,
    "office_name_kana": null
  },
  "0013": {
    "zip_code": "9380013",
    "prefecture": "富山県",
    "prefecture_kana": "トヤマケン",
    "prefecture_code": "16",
    "city": "黒部市",
    "city_kana": "クロベシ",
    "town": "沓掛",
    "town_kana": "クツカケ",
    "street": null,
    "office_name": null,
    "office_name_kana": null
  },
  "0014": {
    "zip_code": "9380014",
    "prefecture": "富山県",
    "prefecture_kana": "トヤマケン",
    "prefecture_code": "16",
    "city": "黒部市",
    "city_kana": "クロベシ",
    "town": "植木",
    "town_kana": "ウエキ",
    "street": null,
    "office_name": null,
    "office_name_kana": null
  },
  "0015": {
    "zip_code": "9380015",
    "prefecture": "富山県",
    "prefecture_kana": "トヤマケン",
    "prefecture_code": "16",
    "city": "黒部市",
    "city_kana": "クロベシ",
    "town": "北野",
    "town_kana": "キタノ",
    "street": null,
    "office_name": null,
    "office_name_kana": null
  },
  "0021": {
    "zip_code": "9380021",
    "prefecture": "富山県",
    "prefecture_kana": "トヤマケン",
    "prefecture_code": "16",
    "city": "黒部市",
    "city_kana": "クロベシ",
    "town": "古御堂",
    "town_kana": "フルミドウ",
    "street": null,
    "office_name": null,
    "office_name_kana": null
  },
  "0022": {
    "zip_code": "9380022",
    "prefecture": "富山県",
    "prefecture_kana": "トヤマケン",
    "prefecture_code": "16",
    "city": "黒部市",
    "city_kana": "クロベシ",
    "town": "金屋",
    "town_kana": "カナヤ",
    "street": null,
    "office_name": null,
    "office_name_kana": null
  },
  "0023": {
    "zip_code": "9380023",
    "prefecture": "富山県",
    "prefecture_kana": "トヤマケン",
    "prefecture_code": "16",
    "city": "黒部市",
    "city_kana": "クロベシ",
    "town": "堀高",
    "town_kana": "ホリタカ",
    "street": null,
    "office_name": null,
    "office_name_kana": null
  },
  "0024": {
    "zip_code": "9380024",
    "prefecture": "富山県",
    "prefecture_kana": "トヤマケン",
    "prefecture_code": "16",
    "city": "黒部市",
    "city_kana": "クロベシ",
    "town": "高橋",
    "town_kana": "タカハシ",
    "street": null,
    "office_name": null,
    "office_name_kana": null
  },
  "0025": {
    "zip_code": "9380025",
    "prefecture": "富山県",
    "prefecture_kana": "トヤマケン",
    "prefecture_code": "16",
    "city": "黒部市",
    "city_kana": "クロベシ",
    "town": "堀切新",
    "town_kana": "ホリキリシン",
    "street": null,
    "office_name": null,
    "office_name_kana": null
  },
  "0026": {
    "zip_code": "9380026",
    "prefecture": "富山県",
    "prefecture_kana": "トヤマケン",
    "prefecture_code": "16",
    "city": "黒部市",
    "city_kana": "クロベシ",
    "town": "田家角内",
    "town_kana": "タイガグチ",
    "street": null,
    "office_name": null,
    "office_name_kana": null
  },
  "0027": {
    "zip_code": "9380027",
    "prefecture": "富山県",
    "prefecture_kana": "トヤマケン",
    "prefecture_code": "16",
    "city": "黒部市",
    "city_kana": "クロベシ",
    "town": "中新",
    "town_kana": "ナカシン",
    "street": null,
    "office_name": null,
    "office_name_kana": null
  },
  "0028": {
    "zip_code": "9380028",
    "prefecture": "富山県",
    "prefecture_kana": "トヤマケン",
    "prefecture_code": "16",
    "city": "黒部市",
    "city_kana": "クロベシ",
    "town": "栃沢",
    "town_kana": "トチザワ",
    "street": null,
    "office_name": null,
    "office_name_kana": null
  },
  "0031": {
    "zip_code": "9380031",
    "prefecture": "富山県",
    "prefecture_kana": "トヤマケン",
    "prefecture_code": "16",
    "city": "黒部市",
    "city_kana": "クロベシ",
    "town": "三日市",
    "town_kana": "ミッカイチ",
    "street": null,
    "office_name": null,
    "office_name_kana": null
  },
  "0032": {
    "zip_code": "9380032",
    "prefecture": "富山県",
    "prefecture_kana": "トヤマケン",
    "prefecture_code": "16",
    "city": "黒部市",
    "city_kana": "クロベシ",
    "town": "天池",
    "town_kana": "アマイケ",
    "street": null,
    "office_name": null,
    "office_name_kana": null
  },
  "0033": {
    "zip_code": "9380033",
    "prefecture": "富山県",
    "prefecture_kana": "トヤマケン",
    "prefecture_code": "16",
    "city": "黒部市",
    "city_kana": "クロベシ",
    "town": "中野道",
    "town_kana": "ナカノミチ",
    "street": null,
    "office_name": null,
    "office_name_kana": null
  },
  "0034": {
    "zip_code": "9380034",
    "prefecture": "富山県",
    "prefecture_kana": "トヤマケン",
    "prefecture_code": "16",
    "city": "黒部市",
    "city_kana": "クロベシ",
    "town": "中野",
    "town_kana": "ナカノ",
    "street": null,
    "office_name": null,
    "office_name_kana": null
  },
  "0035": {
    "zip_code": "9380035",
    "prefecture": "富山県",
    "prefecture_kana": "トヤマケン",
    "prefecture_code": "16",
    "city": "黒部市",
    "city_kana": "クロベシ",
    "town": "牧野",
    "town_kana": "マキノ",
    "street": null,
    "office_name": null,
    "office_name_kana": null
  },
  "0036": {
    "zip_code": "9380036",
    "prefecture": "富山県",
    "prefecture_kana": "トヤマケン",
    "prefecture_code": "16",
    "city": "黒部市",
    "city_kana": "クロベシ",
    "town": "北新",
    "town_kana": "キタシン",
    "street": null,
    "office_name": null,
    "office_name_kana": null
  },
  "0037": {
    "zip_code": "9380037",
    "prefecture": "富山県",
    "prefecture_kana": "トヤマケン",
    "prefecture_code": "16",
    "city": "黒部市",
    "city_kana": "クロベシ",
    "town": "新牧野",
    "town_kana": "シンマキノ",
    "street": null,
    "office_name": null,
    "office_name_kana": null
  },
  "0038": {
    "zip_code": "9380038",
    "prefecture": "富山県",
    "prefecture_kana": "トヤマケン",
    "prefecture_code": "16",
    "city": "黒部市",
    "city_kana": "クロベシ",
    "town": "新天",
    "town_kana": "シンテン",
    "street": null,
    "office_name": null,
    "office_name_kana": null
  },
  "0039": {
    "zip_code": "9380039",
    "prefecture": "富山県",
    "prefecture_kana": "トヤマケン",
    "prefecture_code": "16",
    "city": "黒部市",
    "city_kana": "クロベシ",
    "town": "堂田",
    "town_kana": "ドウダ",
    "street": null,
    "office_name": null,
    "office_name_kana": null
  },
  "0041": {
    "zip_code": "9380041",
    "prefecture": "富山県",
    "prefecture_kana": "トヤマケン",
    "prefecture_code": "16",
    "city": "黒部市",
    "city_kana": "クロベシ",
    "town": "堀切",
    "town_kana": "ホリキリ",
    "street": null,
    "office_name": null,
    "office_name_kana": null
  },
  "0042": {
    "zip_code": "9380042",
    "prefecture": "富山県",
    "prefecture_kana": "トヤマケン",
    "prefecture_code": "16",
    "city": "黒部市",
    "city_kana": "クロベシ",
    "town": "天神新",
    "town_kana": "テンジンシン",
    "street": null,
    "office_name": null,
    "office_name_kana": null
  },
  "0043": {
    "zip_code": "9380043",
    "prefecture": "富山県",
    "prefecture_kana": "トヤマケン",
    "prefecture_code": "16",
    "city": "黒部市",
    "city_kana": "クロベシ",
    "town": "犬山",
    "town_kana": "イヌヤマ",
    "street": null,
    "office_name": null,
    "office_name_kana": null
  },
  "0044": {
    "zip_code": "9380044",
    "prefecture": "富山県",
    "prefecture_kana": "トヤマケン",
    "prefecture_code": "16",
    "city": "黒部市",
    "city_kana": "クロベシ",
    "town": "荒町",
    "town_kana": "アラマチ",
    "street": null,
    "office_name": null,
    "office_name_kana": null
  },
  "0045": {
    "zip_code": "9380045",
    "prefecture": "富山県",
    "prefecture_kana": "トヤマケン",
    "prefecture_code": "16",
    "city": "黒部市",
    "city_kana": "クロベシ",
    "town": "田家新",
    "town_kana": "タイエシン",
    "street": null,
    "office_name": null,
    "office_name_kana": null
  },
  "0046": {
    "zip_code": "9380046",
    "prefecture": "富山県",
    "prefecture_kana": "トヤマケン",
    "prefecture_code": "16",
    "city": "黒部市",
    "city_kana": "クロベシ",
    "town": "神谷",
    "town_kana": "コンタニ",
    "street": null,
    "office_name": null,
    "office_name_kana": null
  },
  "0047": {
    "zip_code": "9380047",
    "prefecture": "富山県",
    "prefecture_kana": "トヤマケン",
    "prefecture_code": "16",
    "city": "黒部市",
    "city_kana": "クロベシ",
    "town": "窪野",
    "town_kana": "クボノ",
    "street": null,
    "office_name": null,
    "office_name_kana": null
  },
  "0048": {
    "zip_code": "9380048",
    "prefecture": "富山県",
    "prefecture_kana": "トヤマケン",
    "prefecture_code": "16",
    "city": "黒部市",
    "city_kana": "クロベシ",
    "town": "阿古屋野",
    "town_kana": "アコヤノ",
    "street": null,
    "office_name": null,
    "office_name_kana": null
  },
  "0049": {
    "zip_code": "9380049",
    "prefecture": "富山県",
    "prefecture_kana": "トヤマケン",
    "prefecture_code": "16",
    "city": "黒部市",
    "city_kana": "クロベシ",
    "town": "山田",
    "town_kana": "ヤマダ",
    "street": null,
    "office_name": null,
    "office_name_kana": null
  },
  "0051": {
    "zip_code": "9380051",
    "prefecture": "富山県",
    "prefecture_kana": "トヤマケン",
    "prefecture_code": "16",
    "city": "黒部市",
    "city_kana": "クロベシ",
    "town": "立野",
    "town_kana": "タテノ",
    "street": null,
    "office_name": null,
    "office_name_kana": null
  },
  "0052": {
    "zip_code": "9380052",
    "prefecture": "富山県",
    "prefecture_kana": "トヤマケン",
    "prefecture_code": "16",
    "city": "黒部市",
    "city_kana": "クロベシ",
    "town": "経立野",
    "town_kana": "キョウタテノ",
    "street": null,
    "office_name": null,
    "office_name_kana": null
  },
  "0053": {
    "zip_code": "9380053",
    "prefecture": "富山県",
    "prefecture_kana": "トヤマケン",
    "prefecture_code": "16",
    "city": "黒部市",
    "city_kana": "クロベシ",
    "town": "山立野",
    "town_kana": "ヤマタテノ",
    "street": null,
    "office_name": null,
    "office_name_kana": null
  },
  "0054": {
    "zip_code": "9380054",
    "prefecture": "富山県",
    "prefecture_kana": "トヤマケン",
    "prefecture_code": "16",
    "city": "黒部市",
    "city_kana": "クロベシ",
    "town": "岡",
    "town_kana": "オカ",
    "street": null,
    "office_name": null,
    "office_name_kana": null
  },
  "0055": {
    "zip_code": "9380055",
    "prefecture": "富山県",
    "prefecture_kana": "トヤマケン",
    "prefecture_code": "16",
    "city": "黒部市",
    "city_kana": "クロベシ",
    "town": "浜石田",
    "town_kana": "ハマイシダ",
    "street": null,
    "office_name": null,
    "office_name_kana": null
  },
  "0056": {
    "zip_code": "9380056",
    "prefecture": "富山県",
    "prefecture_kana": "トヤマケン",
    "prefecture_code": "16",
    "city": "黒部市",
    "city_kana": "クロベシ",
    "town": "新町",
    "town_kana": "シンマチ",
    "street": null,
    "office_name": null,
    "office_name_kana": null
  },
  "0057": {
    "zip_code": "9380057",
    "prefecture": "富山県",
    "prefecture_kana": "トヤマケン",
    "prefecture_code": "16",
    "city": "黒部市",
    "city_kana": "クロベシ",
    "town": "石田新",
    "town_kana": "イシダシン",
    "street": null,
    "office_name": null,
    "office_name_kana": null
  },
  "0058": {
    "zip_code": "9380058",
    "prefecture": "富山県",
    "prefecture_kana": "トヤマケン",
    "prefecture_code": "16",
    "city": "黒部市",
    "city_kana": "クロベシ",
    "town": "正光寺新",
    "town_kana": "ショウコウジシン",
    "street": null,
    "office_name": null,
    "office_name_kana": null
  },
  "0059": {
    "zip_code": "9380059",
    "prefecture": "富山県",
    "prefecture_kana": "トヤマケン",
    "prefecture_code": "16",
    "city": "黒部市",
    "city_kana": "クロベシ",
    "town": "石田",
    "town_kana": "イシダ",
    "street": null,
    "office_name": null,
    "office_name_kana": null
  },
  "0061": {
    "zip_code": "9380061",
    "prefecture": "富山県",
    "prefecture_kana": "トヤマケン",
    "prefecture_code": "16",
    "city": "黒部市",
    "city_kana": "クロベシ",
    "town": "生地神区",
    "town_kana": "イクジシンク",
    "street": null,
    "office_name": null,
    "office_name_kana": null
  },
  "0062": [
    {
      "zip_code": "9380062",
      "prefecture": "富山県",
      "prefecture_kana": "トヤマケン",
      "prefecture_code": "16",
      "city": "黒部市",
      "city_kana": "クロベシ",
      "town": "生地",
      "town_kana": "イクジ",
      "street": null,
      "office_name": null,
      "office_name_kana": null
    },
    {
      "zip_code": "9380062",
      "prefecture": "富山県",
      "prefecture_kana": "トヤマケン",
      "prefecture_code": "16",
      "city": "黒部市",
      "city_kana": "クロベシ",
      "town": "生地轟下",
      "town_kana": "イクジトドロキシタ",
      "street": null,
      "office_name": null,
      "office_name_kana": null
    }
  ],
  "0063": {
    "zip_code": "9380063",
    "prefecture": "富山県",
    "prefecture_kana": "トヤマケン",
    "prefecture_code": "16",
    "city": "黒部市",
    "city_kana": "クロベシ",
    "town": "生地四ツ屋新",
    "town_kana": "イクジヨツヤシン",
    "street": null,
    "office_name": null,
    "office_name_kana": null
  },
  "0064": [
    {
      "zip_code": "9380064",
      "prefecture": "富山県",
      "prefecture_kana": "トヤマケン",
      "prefecture_code": "16",
      "city": "黒部市",
      "city_kana": "クロベシ",
      "town": "生地",
      "town_kana": "イクジ",
      "street": null,
      "office_name": null,
      "office_name_kana": null
    },
    {
      "zip_code": "9380064",
      "prefecture": "富山県",
      "prefecture_kana": "トヤマケン",
      "prefecture_code": "16",
      "city": "黒部市",
      "city_kana": "クロベシ",
      "town": "生地緑町",
      "town_kana": "イクジミドリマチ",
      "street": null,
      "office_name": null,
      "office_name_kana": null
    }
  ],
  "0065": [
    {
      "zip_code": "9380065",
      "prefecture": "富山県",
      "prefecture_kana": "トヤマケン",
      "prefecture_code": "16",
      "city": "黒部市",
      "city_kana": "クロベシ",
      "town": "生地",
      "town_kana": "イクジ",
      "street": null,
      "office_name": null,
      "office_name_kana": null
    },
    {
      "zip_code": "9380065",
      "prefecture": "富山県",
      "prefecture_kana": "トヤマケン",
      "prefecture_code": "16",
      "city": "黒部市",
      "city_kana": "クロベシ",
      "town": "生地神明町",
      "town_kana": "イクジシンメイマチ",
      "street": null,
      "office_name": null,
      "office_name_kana": null
    }
  ],
  "0066": {
    "zip_code": "9380066",
    "prefecture": "富山県",
    "prefecture_kana": "トヤマケン",
    "prefecture_code": "16",
    "city": "黒部市",
    "city_kana": "クロベシ",
    "town": "生地",
    "town_kana": "イクジ",
    "street": null,
    "office_name": null,
    "office_name_kana": null
  },
  "0071": {
    "zip_code": "9380071",
    "prefecture": "富山県",
    "prefecture_kana": "トヤマケン",
    "prefecture_code": "16",
    "city": "黒部市",
    "city_kana": "クロベシ",
    "town": "生地山新",
    "town_kana": "イクジヤマシン",
    "street": null,
    "office_name": null,
    "office_name_kana": null
  },
  "0072": {
    "zip_code": "9380072",
    "prefecture": "富山県",
    "prefecture_kana": "トヤマケン",
    "prefecture_code": "16",
    "city": "黒部市",
    "city_kana": "クロベシ",
    "town": "生地中区",
    "town_kana": "イクジナカク",
    "street": null,
    "office_name": null,
    "office_name_kana": null
  },
  "0073": [
    {
      "zip_code": "9380073",
      "prefecture": "富山県",
      "prefecture_kana": "トヤマケン",
      "prefecture_code": "16",
      "city": "黒部市",
      "city_kana": "クロベシ",
      "town": "生地",
      "town_kana": "イクジ",
      "street": null,
      "office_name": null,
      "office_name_kana": null
    },
    {
      "zip_code": "9380073",
      "prefecture": "富山県",
      "prefecture_kana": "トヤマケン",
      "prefecture_code": "16",
      "city": "黒部市",
      "city_kana": "クロベシ",
      "town": "生地上町",
      "town_kana": "イクジカミマチ",
      "street": null,
      "office_name": null,
      "office_name_kana": null
    }
  ],
  "0074": [
    {
      "zip_code": "9380074",
      "prefecture": "富山県",
      "prefecture_kana": "トヤマケン",
      "prefecture_code": "16",
      "city": "黒部市",
      "city_kana": "クロベシ",
      "town": "生地",
      "town_kana": "イクジ",
      "street": null,
      "office_name": null,
      "office_name_kana": null
    },
    {
      "zip_code": "9380074",
      "prefecture": "富山県",
      "prefecture_kana": "トヤマケン",
      "prefecture_code": "16",
      "city": "黒部市",
      "city_kana": "クロベシ",
      "town": "生地四十物町",
      "town_kana": "イクジアイモノチョウ",
      "street": null,
      "office_name": null,
      "office_name_kana": null
    }
  ],
  "0075": [
    {
      "zip_code": "9380075",
      "prefecture": "富山県",
      "prefecture_kana": "トヤマケン",
      "prefecture_code": "16",
      "city": "黒部市",
      "city_kana": "クロベシ",
      "town": "生地",
      "town_kana": "イクジ",
      "street": null,
      "office_name": null,
      "office_name_kana": null
    },
    {
      "zip_code": "9380075",
      "prefecture": "富山県",
      "prefecture_kana": "トヤマケン",
      "prefecture_code": "16",
      "city": "黒部市",
      "city_kana": "クロベシ",
      "town": "生地大町",
      "town_kana": "イクジオオマチ",
      "street": null,
      "office_name": null,
      "office_name_kana": null
    }
  ],
  "0076": [
    {
      "zip_code": "9380076",
      "prefecture": "富山県",
      "prefecture_kana": "トヤマケン",
      "prefecture_code": "16",
      "city": "黒部市",
      "city_kana": "クロベシ",
      "town": "生地",
      "town_kana": "イクジ",
      "street": null,
      "office_name": null,
      "office_name_kana": null
    },
    {
      "zip_code": "9380076",
      "prefecture": "富山県",
      "prefecture_kana": "トヤマケン",
      "prefecture_code": "16",
      "city": "黒部市",
      "city_kana": "クロベシ",
      "town": "生地宮川町",
      "town_kana": "イクジミヤガワチョウ",
      "street": null,
      "office_name": null,
      "office_name_kana": null
    }
  ],
  "0081": {
    "zip_code": "9380081",
    "prefecture": "富山県",
    "prefecture_kana": "トヤマケン",
    "prefecture_code": "16",
    "city": "黒部市",
    "city_kana": "クロベシ",
    "town": "生地経新",
    "town_kana": "イクジキョウシン",
    "street": null,
    "office_name": null,
    "office_name_kana": null
  },
  "0082": {
    "zip_code": "9380082",
    "prefecture": "富山県",
    "prefecture_kana": "トヤマケン",
    "prefecture_code": "16",
    "city": "黒部市",
    "city_kana": "クロベシ",
    "town": "生地芦区",
    "town_kana": "イクジアシク",
    "street": null,
    "office_name": null,
    "office_name_kana": null
  },
  "0083": [
    {
      "zip_code": "9380083",
      "prefecture": "富山県",
      "prefecture_kana": "トヤマケン",
      "prefecture_code": "16",
      "city": "黒部市",
      "city_kana": "クロベシ",
      "town": "生地",
      "town_kana": "イクジ",
      "street": null,
      "office_name": null,
      "office_name_kana": null
    },
    {
      "zip_code": "9380083",
      "prefecture": "富山県",
      "prefecture_kana": "トヤマケン",
      "prefecture_code": "16",
      "city": "黒部市",
      "city_kana": "クロベシ",
      "town": "生地阿弥陀堂",
      "town_kana": "イクジアミダドウ",
      "street": null,
      "office_name": null,
      "office_name_kana": null
    }
  ],
  "0084": {
    "zip_code": "9380084",
    "prefecture": "富山県",
    "prefecture_kana": "トヤマケン",
    "prefecture_code": "16",
    "city": "黒部市",
    "city_kana": "クロベシ",
    "town": "生地芦崎",
    "town_kana": "イクジアシザキ",
    "street": null,
    "office_name": null,
    "office_name_kana": null
  },
  "0085": {
    "zip_code": "9380085",
    "prefecture": "富山県",
    "prefecture_kana": "トヤマケン",
    "prefecture_code": "16",
    "city": "黒部市",
    "city_kana": "クロベシ",
    "town": "生地吉田",
    "town_kana": "イクジヨシダ",
    "street": null,
    "office_name": null,
    "office_name_kana": null
  },
  "0086": {
    "zip_code": "9380086",
    "prefecture": "富山県",
    "prefecture_kana": "トヤマケン",
    "prefecture_code": "16",
    "city": "黒部市",
    "city_kana": "クロベシ",
    "town": "生地吉田新",
    "town_kana": "イクジヨシダシン",
    "street": null,
    "office_name": null,
    "office_name_kana": null
  },
  "0101": {
    "zip_code": "9380101",
    "prefecture": "富山県",
    "prefecture_kana": "トヤマケン",
    "prefecture_code": "16",
    "city": "下新川郡入善町",
    "city_kana": "シモニイカワグンニュウゼンマチ",
    "town": "今江",
    "town_kana": "イマエ",
    "street": null,
    "office_name": null,
    "office_name_kana": null
  },
  "0102": {
    "zip_code": "9380102",
    "prefecture": "富山県",
    "prefecture_kana": "トヤマケン",
    "prefecture_code": "16",
    "city": "下新川郡入善町",
    "city_kana": "シモニイカワグンニュウゼンマチ",
    "town": "古林",
    "town_kana": "フルバヤシ",
    "street": null,
    "office_name": null,
    "office_name_kana": null
  },
  "0103": {
    "zip_code": "9380103",
    "prefecture": "富山県",
    "prefecture_kana": "トヤマケン",
    "prefecture_code": "16",
    "city": "下新川郡入善町",
    "city_kana": "シモニイカワグンニュウゼンマチ",
    "town": "舟見",
    "town_kana": "フナミ",
    "street": null,
    "office_name": null,
    "office_name_kana": null
  },
  "0104": {
    "zip_code": "9380104",
    "prefecture": "富山県",
    "prefecture_kana": "トヤマケン",
    "prefecture_code": "16",
    "city": "下新川郡入善町",
    "city_kana": "シモニイカワグンニュウゼンマチ",
    "town": "西中",
    "town_kana": "ニシナカ",
    "street": null,
    "office_name": null,
    "office_name_kana": null
  },
  "0105": {
    "zip_code": "9380105",
    "prefecture": "富山県",
    "prefecture_kana": "トヤマケン",
    "prefecture_code": "16",
    "city": "下新川郡入善町",
    "city_kana": "シモニイカワグンニュウゼンマチ",
    "town": "中沢",
    "town_kana": "ナカザワ",
    "street": null,
    "office_name": null,
    "office_name_kana": null
  },
  "0106": {
    "zip_code": "9380106",
    "prefecture": "富山県",
    "prefecture_kana": "トヤマケン",
    "prefecture_code": "16",
    "city": "下新川郡入善町",
    "city_kana": "シモニイカワグンニュウゼンマチ",
    "town": "野中",
    "town_kana": "ノナカ",
    "street": null,
    "office_name": null,
    "office_name_kana": null
  },
  "0161": {
    "zip_code": "9380161",
    "prefecture": "富山県",
    "prefecture_kana": "トヤマケン",
    "prefecture_code": "16",
    "city": "下新川郡朝日町",
    "city_kana": "シモニイカワグンアサヒマチ",
    "town": "殿町",
    "town_kana": "トノマチ",
    "street": null,
    "office_name": null,
    "office_name_kana": null
  },
  "0162": [
    {
      "zip_code": "9380162",
      "prefecture": "富山県",
      "prefecture_kana": "トヤマケン",
      "prefecture_code": "16",
      "city": "下新川郡朝日町",
      "city_kana": "シモニイカワグンアサヒマチ",
      "town": "山崎",
      "town_kana": "ヤマザキ",
      "street": null,
      "office_name": null,
      "office_name_kana": null
    },
    {
      "zip_code": "9380162",
      "prefecture": "富山県",
      "prefecture_kana": "トヤマケン",
      "prefecture_code": "16",
      "city": "下新川郡朝日町",
      "city_kana": "シモニイカワグンアサヒマチ",
      "town": "山崎",
      "town_kana": "ヤマザキ",
      "street": null,
      "office_name": null,
      "office_name_kana": null
    },
    {
      "zip_code": "9380162",
      "prefecture": "富山県",
      "prefecture_kana": "トヤマケン",
      "prefecture_code": "16",
      "city": "下新川郡朝日町",
      "city_kana": "シモニイカワグンアサヒマチ",
      "town": "山崎岩崎",
      "town_kana": "ヤマザキイワサキ",
      "street": null,
      "office_name": null,
      "office_name_kana": null
    },
    {
      "zip_code": "9380162",
      "prefecture": "富山県",
      "prefecture_kana": "トヤマケン",
      "prefecture_code": "16",
      "city": "下新川郡朝日町",
      "city_kana": "シモニイカワグンアサヒマチ",
      "town": "山崎小在池",
      "town_kana": "ヤマザキコザイケ",
      "street": null,
      "office_name": null,
      "office_name_kana": null
    },
    {
      "zip_code": "9380162",
      "prefecture": "富山県",
      "prefecture_kana": "トヤマケン",
      "prefecture_code": "16",
      "city": "下新川郡朝日町",
      "city_kana": "シモニイカワグンアサヒマチ",
      "town": "山崎越",
      "town_kana": "ヤマザキコシ",
      "street": null,
      "office_name": null,
      "office_name_kana": null
    },
    {
      "zip_code": "9380162",
      "prefecture": "富山県",
      "prefecture_kana": "トヤマケン",
      "prefecture_code": "16",
      "city": "下新川郡朝日町",
      "city_kana": "シモニイカワグンアサヒマチ",
      "town": "山崎辻",
      "town_kana": "ヤマザキツジ",
      "street": null,
      "office_name": null,
      "office_name_kana": null
    },
    {
      "zip_code": "9380162",
      "prefecture": "富山県",
      "prefecture_kana": "トヤマケン",
      "prefecture_code": "16",
      "city": "下新川郡朝日町",
      "city_kana": "シモニイカワグンアサヒマチ",
      "town": "山崎花房",
      "town_kana": "ヤマザキハナフサ",
      "street": null,
      "office_name": null,
      "office_name_kana": null
    },
    {
      "zip_code": "9380162",
      "prefecture": "富山県",
      "prefecture_kana": "トヤマケン",
      "prefecture_code": "16",
      "city": "下新川郡朝日町",
      "city_kana": "シモニイカワグンアサヒマチ",
      "town": "山崎羽入",
      "town_kana": "ヤマザキハニュウ",
      "street": null,
      "office_name": null,
      "office_name_kana": null
    },
    {
      "zip_code": "9380162",
      "prefecture": "富山県",
      "prefecture_kana": "トヤマケン",
      "prefecture_code": "16",
      "city": "下新川郡朝日町",
      "city_kana": "シモニイカワグンアサヒマチ",
      "town": "山崎坊",
      "town_kana": "ヤマザキボウ",
      "street": null,
      "office_name": null,
      "office_name_kana": null
    }
  ],
  "0163": {
    "zip_code": "9380163",
    "prefecture": "富山県",
    "prefecture_kana": "トヤマケン",
    "prefecture_code": "16",
    "city": "下新川郡朝日町",
    "city_kana": "シモニイカワグンアサヒマチ",
    "town": "湯ノ瀬",
    "town_kana": "ユノセ",
    "street": null,
    "office_name": null,
    "office_name_kana": null
  },
  "0164": {
    "zip_code": "9380164",
    "prefecture": "富山県",
    "prefecture_kana": "トヤマケン",
    "prefecture_code": "16",
    "city": "下新川郡朝日町",
    "city_kana": "シモニイカワグンアサヒマチ",
    "town": "棚山",
    "town_kana": "タナヤマ",
    "street": null,
    "office_name": null,
    "office_name_kana": null
  },
  "0165": {
    "zip_code": "9380165",
    "prefecture": "富山県",
    "prefecture_kana": "トヤマケン",
    "prefecture_code": "16",
    "city": "下新川郡朝日町",
    "city_kana": "シモニイカワグンアサヒマチ",
    "town": "山崎新",
    "town_kana": "ヤマザキシン",
    "street": null,
    "office_name": null,
    "office_name_kana": null
  },
  "0166": {
    "zip_code": "9380166",
    "prefecture": "富山県",
    "prefecture_kana": "トヤマケン",
    "prefecture_code": "16",
    "city": "下新川郡朝日町",
    "city_kana": "シモニイカワグンアサヒマチ",
    "town": "細野",
    "town_kana": "ホソノ",
    "street": null,
    "office_name": null,
    "office_name_kana": null
  },
  "0167": {
    "zip_code": "9380167",
    "prefecture": "富山県",
    "prefecture_kana": "トヤマケン",
    "prefecture_code": "16",
    "city": "下新川郡朝日町",
    "city_kana": "シモニイカワグンアサヒマチ",
    "town": "山王",
    "town_kana": "サンノウ",
    "street": null,
    "office_name": null,
    "office_name_kana": null
  },
  "0168": [
    {
      "zip_code": "9380168",
      "prefecture": "富山県",
      "prefecture_kana": "トヤマケン",
      "prefecture_code": "16",
      "city": "下新川郡朝日町",
      "city_kana": "シモニイカワグンアサヒマチ",
      "town": "藤塚",
      "town_kana": "フジツカ",
      "street": null,
      "office_name": null,
      "office_name_kana": null
    },
    {
      "zip_code": "9380168",
      "prefecture": "富山県",
      "prefecture_kana": "トヤマケン",
      "prefecture_code": "16",
      "city": "下新川郡朝日町",
      "city_kana": "シモニイカワグンアサヒマチ",
      "town": "藤塚横道",
      "town_kana": "フジツカヨコミチ",
      "street": null,
      "office_name": null,
      "office_name_kana": null
    }
  ],
  "0169": {
    "zip_code": "9380169",
    "prefecture": "富山県",
    "prefecture_kana": "トヤマケン",
    "prefecture_code": "16",
    "city": "下新川郡朝日町",
    "city_kana": "シモニイカワグンアサヒマチ",
    "town": "下野",
    "town_kana": "シモノ",
    "street": null,
    "office_name": null,
    "office_name_kana": null
  },
  "0171": {
    "zip_code": "9380171",
    "prefecture": "富山県",
    "prefecture_kana": "トヤマケン",
    "prefecture_code": "16",
    "city": "黒部市",
    "city_kana": "クロベシ",
    "town": "宇奈月町明日",
    "town_kana": "ウナヅキマチアケビ",
    "street": null,
    "office_name": null,
    "office_name_kana": null
  },
  "0172": {
    "zip_code": "9380172",
    "prefecture": "富山県",
    "prefecture_kana": "トヤマケン",
    "prefecture_code": "16",
    "city": "黒部市",
    "city_kana": "クロベシ",
    "town": "宇奈月町土山",
    "town_kana": "ウナヅキマチドヤマ",
    "street": null,
    "office_name": null,
    "office_name_kana": null
  },
  "0173": {
    "zip_code": "9380173",
    "prefecture": "富山県",
    "prefecture_kana": "トヤマケン",
    "prefecture_code": "16",
    "city": "黒部市",
    "city_kana": "クロベシ",
    "town": "宇奈月町中谷",
    "town_kana": "ウナヅキマチナカダン",
    "street": null,
    "office_name": null,
    "office_name_kana": null
  },
  "0174": {
    "zip_code": "9380174",
    "prefecture": "富山県",
    "prefecture_kana": "トヤマケン",
    "prefecture_code": "16",
    "city": "黒部市",
    "city_kana": "クロベシ",
    "town": "宇奈月町音澤",
    "town_kana": "ウナヅキマチオトザワ",
    "street": null,
    "office_name": null,
    "office_name_kana": null
  },
  "0175": {
    "zip_code": "9380175",
    "prefecture": "富山県",
    "prefecture_kana": "トヤマケン",
    "prefecture_code": "16",
    "city": "黒部市",
    "city_kana": "クロベシ",
    "town": "宇奈月町愛本橋爪東官林地内",
    "town_kana": "ウナヅキマチアイモトハシヅメヒガシカンリンチナイ",
    "street": null,
    "office_name": null,
    "office_name_kana": null
  },
  "0176": {
    "zip_code": "9380176",
    "prefecture": "富山県",
    "prefecture_kana": "トヤマケン",
    "prefecture_code": "16",
    "city": "黒部市",
    "city_kana": "クロベシ",
    "town": "宇奈月町中ノ口",
    "town_kana": "ウナヅキマチナカノクチ",
    "street": null,
    "office_name": null,
    "office_name_kana": null
  },
  "0177": {
    "zip_code": "9380177",
    "prefecture": "富山県",
    "prefecture_kana": "トヤマケン",
    "prefecture_code": "16",
    "city": "黒部市",
    "city_kana": "クロベシ",
    "town": "宇奈月町愛本新",
    "town_kana": "ウナヅキマチアイモトシン",
    "street": null,
    "office_name": null,
    "office_name_kana": null
  },
  "0178": {
    "zip_code": "9380178",
    "prefecture": "富山県",
    "prefecture_kana": "トヤマケン",
    "prefecture_code": "16",
    "city": "黒部市",
    "city_kana": "クロベシ",
    "town": "宇奈月町栗虫",
    "town_kana": "ウナヅキマチクリムシ",
    "street": null,
    "office_name": null,
    "office_name_kana": null
  },
  "0179": {
    "zip_code": "9380179",
    "prefecture": "富山県",
    "prefecture_kana": "トヤマケン",
    "prefecture_code": "16",
    "city": "黒部市",
    "city_kana": "クロベシ",
    "town": "宇奈月町舟見",
    "town_kana": "ウナヅキマチフナミ",
    "street": null,
    "office_name": null,
    "office_name_kana": null
  },
  "0274": {
    "zip_code": "9380274",
    "prefecture": "富山県",
    "prefecture_kana": "トヤマケン",
    "prefecture_code": "16",
    "city": "黒部市",
    "city_kana": "クロベシ",
    "town": "宇奈月町音澤",
    "town_kana": "ウナヅキマチオトザワ",
    "street": null,
    "office_name": null,
    "office_name_kana": null
  },
  "0281": {
    "zip_code": "9380281",
    "prefecture": "富山県",
    "prefecture_kana": "トヤマケン",
    "prefecture_code": "16",
    "city": "黒部市",
    "city_kana": "クロベシ",
    "town": "宇奈月町内山",
    "town_kana": "ウナヅキマチウチヤマ",
    "street": null,
    "office_name": null,
    "office_name_kana": null
  },
  "0282": {
    "zip_code": "9380282",
    "prefecture": "富山県",
    "prefecture_kana": "トヤマケン",
    "prefecture_code": "16",
    "city": "黒部市",
    "city_kana": "クロベシ",
    "town": "宇奈月温泉",
    "town_kana": "ウナヅキオンセン",
    "street": null,
    "office_name": null,
    "office_name_kana": null
  },
  "0283": {
    "zip_code": "9380283",
    "prefecture": "富山県",
    "prefecture_kana": "トヤマケン",
    "prefecture_code": "16",
    "city": "黒部市",
    "city_kana": "クロベシ",
    "town": "黒部峡谷口",
    "town_kana": "クロベキョウコクグチ",
    "street": null,
    "office_name": null,
    "office_name_kana": null
  },
  "0292": {
    "zip_code": "9380292",
    "prefecture": "富山県",
    "prefecture_kana": "トヤマケン",
    "prefecture_code": "16",
    "city": "黒部市",
    "city_kana": "クロベシ",
    "town": "宇奈月町内山",
    "town_kana": "ウナヅキマチウチヤマ",
    "street": "３３５３",
    "office_name": "黒部市役所　宇奈月庁舎",
    "office_name_kana": "クロベシヤクシヨ ウナヅキチヨウシヤ"
  },
  "0293": {
    "zip_code": "9380293",
    "prefecture": "富山県",
    "prefecture_kana": "トヤマケン",
    "prefecture_code": "16",
    "city": "黒部市",
    "city_kana": "クロベシ",
    "town": "黒部峡谷口",
    "town_kana": "クロベキョウコクグチ",
    "street": "１１番地",
    "office_name": "黒部峡谷鉄道　株式会社",
    "office_name_kana": "クロベキヨウコクテツドウ カブシキガイシヤ"
  },
  "0801": {
    "zip_code": "9380801",
    "prefecture": "富山県",
    "prefecture_kana": "トヤマケン",
    "prefecture_code": "16",
    "city": "黒部市",
    "city_kana": "クロベシ",
    "town": "荻生",
    "town_kana": "オギュウ",
    "street": null,
    "office_name": null,
    "office_name_kana": null
  },
  "0802": {
    "zip_code": "9380802",
    "prefecture": "富山県",
    "prefecture_kana": "トヤマケン",
    "prefecture_code": "16",
    "city": "黒部市",
    "city_kana": "クロベシ",
    "town": "若栗",
    "town_kana": "ワカグリ",
    "street": null,
    "office_name": null,
    "office_name_kana": null
  },
  "0803": {
    "zip_code": "9380803",
    "prefecture": "富山県",
    "prefecture_kana": "トヤマケン",
    "prefecture_code": "16",
    "city": "黒部市",
    "city_kana": "クロベシ",
    "town": "栗寺",
    "town_kana": "クリデラ",
    "street": null,
    "office_name": null,
    "office_name_kana": null
  },
  "0804": {
    "zip_code": "9380804",
    "prefecture": "富山県",
    "prefecture_kana": "トヤマケン",
    "prefecture_code": "16",
    "city": "黒部市",
    "city_kana": "クロベシ",
    "town": "宮野",
    "town_kana": "ミヤノ",
    "street": null,
    "office_name": null,
    "office_name_kana": null
  },
  "0805": {
    "zip_code": "9380805",
    "prefecture": "富山県",
    "prefecture_kana": "トヤマケン",
    "prefecture_code": "16",
    "city": "黒部市",
    "city_kana": "クロベシ",
    "town": "吉城寺",
    "town_kana": "キチジョウジ",
    "street": null,
    "office_name": null,
    "office_name_kana": null
  },
  "0806": {
    "zip_code": "9380806",
    "prefecture": "富山県",
    "prefecture_kana": "トヤマケン",
    "prefecture_code": "16",
    "city": "黒部市",
    "city_kana": "クロベシ",
    "town": "前沢",
    "town_kana": "マエザワ",
    "street": null,
    "office_name": null,
    "office_name_kana": null
  },
  "0807": {
    "zip_code": "9380807",
    "prefecture": "富山県",
    "prefecture_kana": "トヤマケン",
    "prefecture_code": "16",
    "city": "黒部市",
    "city_kana": "クロベシ",
    "town": "山田新",
    "town_kana": "ヤマダシン",
    "street": null,
    "office_name": null,
    "office_name_kana": null
  },
  "0811": {
    "zip_code": "9380811",
    "prefecture": "富山県",
    "prefecture_kana": "トヤマケン",
    "prefecture_code": "16",
    "city": "黒部市",
    "city_kana": "クロベシ",
    "town": "内生谷",
    "town_kana": "ウチュウダニ",
    "street": null,
    "office_name": null,
    "office_name_kana": null
  },
  "0812": {
    "zip_code": "9380812",
    "prefecture": "富山県",
    "prefecture_kana": "トヤマケン",
    "prefecture_code": "16",
    "city": "黒部市",
    "city_kana": "クロベシ",
    "town": "笠破",
    "town_kana": "カサヤブリ",
    "street": null,
    "office_name": null,
    "office_name_kana": null
  },
  "0813": {
    "zip_code": "9380813",
    "prefecture": "富山県",
    "prefecture_kana": "トヤマケン",
    "prefecture_code": "16",
    "city": "黒部市",
    "city_kana": "クロベシ",
    "town": "田籾",
    "town_kana": "タモミ",
    "street": null,
    "office_name": null,
    "office_name_kana": null
  },
  "0814": {
    "zip_code": "9380814",
    "prefecture": "富山県",
    "prefecture_kana": "トヤマケン",
    "prefecture_code": "16",
    "city": "黒部市",
    "city_kana": "クロベシ",
    "town": "嘉例沢",
    "town_kana": "カレイサワ",
    "street": null,
    "office_name": null,
    "office_name_kana": null
  },
  "0815": {
    "zip_code": "9380815",
    "prefecture": "富山県",
    "prefecture_kana": "トヤマケン",
    "prefecture_code": "16",
    "city": "黒部市",
    "city_kana": "クロベシ",
    "town": "福平",
    "town_kana": "フクヒラ",
    "street": null,
    "office_name": null,
    "office_name_kana": null
  },
  "0816": {
    "zip_code": "9380816",
    "prefecture": "富山県",
    "prefecture_kana": "トヤマケン",
    "prefecture_code": "16",
    "city": "黒部市",
    "city_kana": "クロベシ",
    "town": "池尻",
    "town_kana": "イケジリ",
    "street": null,
    "office_name": null,
    "office_name_kana": null
  },
  "0821": {
    "zip_code": "9380821",
    "prefecture": "富山県",
    "prefecture_kana": "トヤマケン",
    "prefecture_code": "16",
    "city": "黒部市",
    "city_kana": "クロベシ",
    "town": "柳沢",
    "town_kana": "ヤナギサワ",
    "street": null,
    "office_name": null,
    "office_name_kana": null
  },
  "0822": {
    "zip_code": "9380822",
    "prefecture": "富山県",
    "prefecture_kana": "トヤマケン",
    "prefecture_code": "16",
    "city": "黒部市",
    "city_kana": "クロベシ",
    "town": "別所",
    "town_kana": "ベッショ",
    "street": null,
    "office_name": null,
    "office_name_kana": null
  },
  "0823": {
    "zip_code": "9380823",
    "prefecture": "富山県",
    "prefecture_kana": "トヤマケン",
    "prefecture_code": "16",
    "city": "黒部市",
    "city_kana": "クロベシ",
    "town": "釈迦堂",
    "town_kana": "シャカドウ",
    "street": null,
    "office_name": null,
    "office_name_kana": null
  },
  "0824": {
    "zip_code": "9380824",
    "prefecture": "富山県",
    "prefecture_kana": "トヤマケン",
    "prefecture_code": "16",
    "city": "黒部市",
    "city_kana": "クロベシ",
    "town": "阿弥陀堂",
    "town_kana": "アミダドウ",
    "street": null,
    "office_name": null,
    "office_name_kana": null
  },
  "0825": {
    "zip_code": "9380825",
    "prefecture": "富山県",
    "prefecture_kana": "トヤマケン",
    "prefecture_code": "16",
    "city": "黒部市",
    "city_kana": "クロベシ",
    "town": "尾山",
    "town_kana": "オヤマ",
    "street": null,
    "office_name": null,
    "office_name_kana": null
  },
  "0826": {
    "zip_code": "9380826",
    "prefecture": "富山県",
    "prefecture_kana": "トヤマケン",
    "prefecture_code": "16",
    "city": "黒部市",
    "city_kana": "クロベシ",
    "town": "朴谷",
    "town_kana": "ホオノキダニ",
    "street": null,
    "office_name": null,
    "office_name_kana": null
  },
  "0827": {
    "zip_code": "9380827",
    "prefecture": "富山県",
    "prefecture_kana": "トヤマケン",
    "prefecture_code": "16",
    "city": "黒部市",
    "city_kana": "クロベシ",
    "town": "中陣",
    "town_kana": "ナカジン",
    "street": null,
    "office_name": null,
    "office_name_kana": null
  },
  "0831": {
    "zip_code": "9380831",
    "prefecture": "富山県",
    "prefecture_kana": "トヤマケン",
    "prefecture_code": "16",
    "city": "黒部市",
    "city_kana": "クロベシ",
    "town": "宮沢",
    "town_kana": "ミヤザワ",
    "street": null,
    "office_name": null,
    "office_name_kana": null
  },
  "0832": {
    "zip_code": "9380832",
    "prefecture": "富山県",
    "prefecture_kana": "トヤマケン",
    "prefecture_code": "16",
    "city": "黒部市",
    "city_kana": "クロベシ",
    "town": "枕野",
    "town_kana": "マクラノ",
    "street": null,
    "office_name": null,
    "office_name_kana": null
  },
  "0833": {
    "zip_code": "9380833",
    "prefecture": "富山県",
    "prefecture_kana": "トヤマケン",
    "prefecture_code": "16",
    "city": "黒部市",
    "city_kana": "クロベシ",
    "town": "本野",
    "town_kana": "モトノ",
    "street": null,
    "office_name": null,
    "office_name_kana": null
  },
  "0834": {
    "zip_code": "9380834",
    "prefecture": "富山県",
    "prefecture_kana": "トヤマケン",
    "prefecture_code": "16",
    "city": "黒部市",
    "city_kana": "クロベシ",
    "town": "中山",
    "town_kana": "ナカヤマ",
    "street": null,
    "office_name": null,
    "office_name_kana": null
  },
  "0835": {
    "zip_code": "9380835",
    "prefecture": "富山県",
    "prefecture_kana": "トヤマケン",
    "prefecture_code": "16",
    "city": "黒部市",
    "city_kana": "クロベシ",
    "town": "石田野",
    "town_kana": "イシダノ",
    "street": null,
    "office_name": null,
    "office_name_kana": null
  },
  "0836": {
    "zip_code": "9380836",
    "prefecture": "富山県",
    "prefecture_kana": "トヤマケン",
    "prefecture_code": "16",
    "city": "黒部市",
    "city_kana": "クロベシ",
    "town": "鏡野",
    "town_kana": "カガミノ",
    "street": null,
    "office_name": null,
    "office_name_kana": null
  },
  "0837": {
    "zip_code": "9380837",
    "prefecture": "富山県",
    "prefecture_kana": "トヤマケン",
    "prefecture_code": "16",
    "city": "黒部市",
    "city_kana": "クロベシ",
    "town": "田家野",
    "town_kana": "タイエノ",
    "street": null,
    "office_name": null,
    "office_name_kana": null
  },
  "0861": {
    "zip_code": "9380861",
    "prefecture": "富山県",
    "prefecture_kana": "トヤマケン",
    "prefecture_code": "16",
    "city": "黒部市",
    "city_kana": "クロベシ",
    "town": "宇奈月町下立",
    "town_kana": "ウナヅキマチオリタテ",
    "street": null,
    "office_name": null,
    "office_name_kana": null
  },
  "0862": {
    "zip_code": "9380862",
    "prefecture": "富山県",
    "prefecture_kana": "トヤマケン",
    "prefecture_code": "16",
    "city": "黒部市",
    "city_kana": "クロベシ",
    "town": "宇奈月町浦山",
    "town_kana": "ウナヅキマチウラヤマ",
    "street": null,
    "office_name": null,
    "office_name_kana": null
  },
  "0863": {
    "zip_code": "9380863",
    "prefecture": "富山県",
    "prefecture_kana": "トヤマケン",
    "prefecture_code": "16",
    "city": "黒部市",
    "city_kana": "クロベシ",
    "town": "宇奈月町熊野",
    "town_kana": "ウナヅキマチクマノ",
    "street": null,
    "office_name": null,
    "office_name_kana": null
  },
  "0864": {
    "zip_code": "9380864",
    "prefecture": "富山県",
    "prefecture_kana": "トヤマケン",
    "prefecture_code": "16",
    "city": "黒部市",
    "city_kana": "クロベシ",
    "town": "宇奈月町栃屋",
    "town_kana": "ウナヅキマチトチヤ",
    "street": null,
    "office_name": null,
    "office_name_kana": null
  },
  "8502": {
    "zip_code": "9388502",
    "prefecture": "富山県",
    "prefecture_kana": "トヤマケン",
    "prefecture_code": "16",
    "city": "黒部市",
    "city_kana": "クロベシ",
    "town": "三日市",
    "town_kana": "ミッカイチ",
    "street": "１１０８−１",
    "office_name": "黒部市民病院",
    "office_name_kana": "クロベシミンビヨウイン"
  },
  "8505": {
    "zip_code": "9388505",
    "prefecture": "富山県",
    "prefecture_kana": "トヤマケン",
    "prefecture_code": "16",
    "city": "黒部市",
    "city_kana": "クロベシ",
    "town": "三日市",
    "town_kana": "ミッカイチ",
    "street": "１３３４",
    "office_name": "富山県立　桜井高等学校",
    "office_name_kana": "トヤマケンリツ サクライコウトウガツコウ"
  },
  "8555": {
    "zip_code": "9388555",
    "prefecture": "富山県",
    "prefecture_kana": "トヤマケン",
    "prefecture_code": "16",
    "city": "黒部市",
    "city_kana": "クロベシ",
    "town": "三日市",
    "town_kana": "ミッカイチ",
    "street": "７２５",
    "office_name": "黒部市役所　黒部庁舎",
    "office_name_kana": "クロベシヤクシヨ クロベチヨウシヤ"
  },
  "8585": {
    "zip_code": "9388585",
    "prefecture": "富山県",
    "prefecture_kana": "トヤマケン",
    "prefecture_code": "16",
    "city": "黒部市",
    "city_kana": "クロベシ",
    "town": "前沢",
    "town_kana": "マエザワ",
    "street": "４３７１",
    "office_name": "株式会社　トヨックス",
    "office_name_kana": "カブシキガイシヤ トヨツクス"
  },
  "8601": {
    "zip_code": "9388601",
    "prefecture": "富山県",
    "prefecture_kana": "トヤマケン",
    "prefecture_code": "16",
    "city": "黒部市",
    "city_kana": "クロベシ",
    "town": "吉田",
    "town_kana": "ヨシダ",
    "street": "２００",
    "office_name": "ＹＫＫ　株式会社　黒部事業所",
    "office_name_kana": "ワイケイケイ カブシキガイシヤ クロベジギヨウシヨ"
  },
  "8602": {
    "zip_code": "9388602",
    "prefecture": "富山県",
    "prefecture_kana": "トヤマケン",
    "prefecture_code": "16",
    "city": "黒部市",
    "city_kana": "クロベシ",
    "town": "牧野",
    "town_kana": "マキノ",
    "street": "９３８",
    "office_name": "ＹＫＫ　株式会社　黒部牧野工場",
    "office_name_kana": "ワイケイケイ カブシキガイシヤ クロベマキノコウジヨウ"
  },
  "8610": {
    "zip_code": "9388610",
    "prefecture": "富山県",
    "prefecture_kana": "トヤマケン",
    "prefecture_code": "16",
    "city": "黒部市",
    "city_kana": "クロベシ",
    "town": "吉田",
    "town_kana": "ヨシダ",
    "street": "２００",
    "office_name": "ＹＫＫ　ＡＰ株式会社　黒部事業所",
    "office_name_kana": "ワイケ-ケ- エ-ピ- カブシキガイシヤ クロベジギヨウシヨ"
  },
  "8611": {
    "zip_code": "9388611",
    "prefecture": "富山県",
    "prefecture_kana": "トヤマケン",
    "prefecture_code": "16",
    "city": "黒部市",
    "city_kana": "クロベシ",
    "town": "吉田",
    "town_kana": "ヨシダ",
    "street": "２００",
    "office_name": "ＹＫＫ　ＡＰ　株式会社　黒部製造所（素材）",
    "office_name_kana": "ワイケ-ケ- エ-ピ- カブシキガイシヤ クロベセイゾウシヨ(ソザイ)"
  },
  "8612": {
    "zip_code": "9388612",
    "prefecture": "富山県",
    "prefecture_kana": "トヤマケン",
    "prefecture_code": "16",
    "city": "黒部市",
    "city_kana": "クロベシ",
    "town": "荻生",
    "town_kana": "オギュウ",
    "street": "１",
    "office_name": "ＹＫＫ　ＡＰ　株式会社　黒部荻生製造所",
    "office_name_kana": "ワイケ-ケ- エ-ピ- カブシキガイシヤ クロベオギユウセイゾウシヨ"
  },
  "8613": {
    "zip_code": "9388613",
    "prefecture": "富山県",
    "prefecture_kana": "トヤマケン",
    "prefecture_code": "16",
    "city": "黒部市",
    "city_kana": "クロベシ",
    "town": "吉田",
    "town_kana": "ヨシダ",
    "street": "９４２５",
    "office_name": "ＹＫＫ　ＡＰ　株式会社　黒部越湖製造所",
    "office_name_kana": "ワイケ-ケ- エ-ピ- カブシキガイシヤ クロベエツコセイゾウシヨ"
  }
}