{
  "0001": {
    "zip_code": "9420001",
    "prefecture": "新潟県",
    "prefecture_kana": "ニイガタケン",
    "prefecture_code": "15",
    "city": "上越市",
    "city_kana": "ジョウエツシ",
    "town": "中央",
    "town_kana": "チュウオウ",
    "street": null,
    "office_name": null,
    "office_name_kana": null
  },
  "0002": {
    "zip_code": "9420002",
    "prefecture": "新潟県",
    "prefecture_kana": "ニイガタケン",
    "prefecture_code": "15",
    "city": "上越市",
    "city_kana": "ジョウエツシ",
    "town": "住吉町",
    "town_kana": "スミヨシチョウ",
    "street": null,
    "office_name": null,
    "office_name_kana": null
  },
  "0003": {
    "zip_code": "9420003",
    "prefecture": "新潟県",
    "prefecture_kana": "ニイガタケン",
    "prefecture_code": "15",
    "city": "上越市",
    "city_kana": "ジョウエツシ",
    "town": "東町",
    "town_kana": "アズマチョウ",
    "street": null,
    "office_name": null,
    "office_name_kana": null
  },
  "0004": {
    "zip_code": "9420004",
    "prefecture": "新潟県",
    "prefecture_kana": "ニイガタケン",
    "prefecture_code": "15",
    "city": "上越市",
    "city_kana": "ジョウエツシ",
    "town": "西本町",
    "town_kana": "ニシホンチョウ",
    "street": null,
    "office_name": null,
    "office_name_kana": null
  },
  "0011": {
    "zip_code": "9420011",
    "prefecture": "新潟県",
    "prefecture_kana": "ニイガタケン",
    "prefecture_code": "15",
    "city": "上越市",
    "city_kana": "ジョウエツシ",
    "town": "港町",
    "town_kana": "ミナトチョウ",
    "street": null,
    "office_name": null,
    "office_name_kana": null
  },
  "0012": {
    "zip_code": "9420012",
    "prefecture": "新潟県",
    "prefecture_kana": "ニイガタケン",
    "prefecture_code": "15",
    "city": "上越市",
    "city_kana": "ジョウエツシ",
    "town": "高崎新田",
    "town_kana": "タカサキシンデン",
    "street": null,
    "office_name": null,
    "office_name_kana": null
  },
  "0013": {
    "zip_code": "9420013",
    "prefecture": "新潟県",
    "prefecture_kana": "ニイガタケン",
    "prefecture_code": "15",
    "city": "上越市",
    "city_kana": "ジョウエツシ",
    "town": "黒井",
    "town_kana": "クロイ",
    "street": null,
    "office_name": null,
    "office_name_kana": null
  },
  "0014": {
    "zip_code": "9420014",
    "prefecture": "新潟県",
    "prefecture_kana": "ニイガタケン",
    "prefecture_code": "15",
    "city": "上越市",
    "city_kana": "ジョウエツシ",
    "town": "日之出町",
    "town_kana": "ヒノデチョウ",
    "street": null,
    "office_name": null,
    "office_name_kana": null
  },
  "0021": {
    "zip_code": "9420021",
    "prefecture": "新潟県",
    "prefecture_kana": "ニイガタケン",
    "prefecture_code": "15",
    "city": "上越市",
    "city_kana": "ジョウエツシ",
    "town": "上荒浜",
    "town_kana": "カミアラハマ",
    "street": null,
    "office_name": null,
    "office_name_kana": null
  },
  "0022": {
    "zip_code": "9420022",
    "prefecture": "新潟県",
    "prefecture_kana": "ニイガタケン",
    "prefecture_code": "15",
    "city": "上越市",
    "city_kana": "ジョウエツシ",
    "town": "下荒浜",
    "town_kana": "シモアラハマ",
    "street": null,
    "office_name": null,
    "office_name_kana": null
  },
  "0023": {
    "zip_code": "9420023",
    "prefecture": "新潟県",
    "prefecture_kana": "ニイガタケン",
    "prefecture_code": "15",
    "city": "上越市",
    "city_kana": "ジョウエツシ",
    "town": "石橋新田",
    "town_kana": "イシバシシンデン",
    "street": null,
    "office_name": null,
    "office_name_kana": null
  },
  "0024": {
    "zip_code": "9420024",
    "prefecture": "新潟県",
    "prefecture_kana": "ニイガタケン",
    "prefecture_code": "15",
    "city": "上越市",
    "city_kana": "ジョウエツシ",
    "town": "遊光寺浜",
    "town_kana": "ユウコウジハマ",
    "street": null,
    "office_name": null,
    "office_name_kana": null
  },
  "0025": {
    "zip_code": "9420025",
    "prefecture": "新潟県",
    "prefecture_kana": "ニイガタケン",
    "prefecture_code": "15",
    "city": "上越市",
    "city_kana": "ジョウエツシ",
    "town": "夷浜",
    "town_kana": "エビスハマ",
    "street": null,
    "office_name": null,
    "office_name_kana": null
  },
  "0026": {
    "zip_code": "9420026",
    "prefecture": "新潟県",
    "prefecture_kana": "ニイガタケン",
    "prefecture_code": "15",
    "city": "上越市",
    "city_kana": "ジョウエツシ",
    "town": "西ケ窪浜",
    "town_kana": "ニシガクボハマ",
    "street": null,
    "office_name": null,
    "office_name_kana": null
  },
  "0027": {
    "zip_code": "9420027",
    "prefecture": "新潟県",
    "prefecture_kana": "ニイガタケン",
    "prefecture_code": "15",
    "city": "上越市",
    "city_kana": "ジョウエツシ",
    "town": "八千浦",
    "town_kana": "ヤチホ",
    "street": null,
    "office_name": null,
    "office_name_kana": null
  },
  "0031": [
    {
      "zip_code": "9420031",
      "prefecture": "新潟県",
      "prefecture_kana": "ニイガタケン",
      "prefecture_code": "15",
      "city": "上越市",
      "city_kana": "ジョウエツシ",
      "town": "佐内",
      "town_kana": "サナイ",
      "street": null,
      "office_name": null,
      "office_name_kana": null
    },
    {
      "zip_code": "9420031",
      "prefecture": "新潟県",
      "prefecture_kana": "ニイガタケン",
      "prefecture_code": "15",
      "city": "上越市",
      "city_kana": "ジョウエツシ",
      "town": "佐内町",
      "town_kana": "サナイチョウ",
      "street": null,
      "office_name": null,
      "office_name_kana": null
    }
  ],
  "0032": {
    "zip_code": "9420032",
    "prefecture": "新潟県",
    "prefecture_kana": "ニイガタケン",
    "prefecture_code": "15",
    "city": "上越市",
    "city_kana": "ジョウエツシ",
    "town": "福田",
    "town_kana": "フクダ",
    "street": null,
    "office_name": null,
    "office_name_kana": null
  },
  "0033": {
    "zip_code": "9420033",
    "prefecture": "新潟県",
    "prefecture_kana": "ニイガタケン",
    "prefecture_code": "15",
    "city": "上越市",
    "city_kana": "ジョウエツシ",
    "town": "福橋",
    "town_kana": "フクハシ",
    "street": null,
    "office_name": null,
    "office_name_kana": null
  },
  "0034": {
    "zip_code": "9420034",
    "prefecture": "新潟県",
    "prefecture_kana": "ニイガタケン",
    "prefecture_code": "15",
    "city": "上越市",
    "city_kana": "ジョウエツシ",
    "town": "下真砂",
    "town_kana": "シモマナゴ",
    "street": null,
    "office_name": null,
    "office_name_kana": null
  },
  "0035": {
    "zip_code": "9420035",
    "prefecture": "新潟県",
    "prefecture_kana": "ニイガタケン",
    "prefecture_code": "15",
    "city": "上越市",
    "city_kana": "ジョウエツシ",
    "town": "上千原",
    "town_kana": "カミチハラ",
    "street": null,
    "office_name": null,
    "office_name_kana": null
  },
  "0036": {
    "zip_code": "9420036",
    "prefecture": "新潟県",
    "prefecture_kana": "ニイガタケン",
    "prefecture_code": "15",
    "city": "上越市",
    "city_kana": "ジョウエツシ",
    "town": "東中島",
    "town_kana": "ヒガシナカジマ",
    "street": null,
    "office_name": null,
    "office_name_kana": null
  },
  "0037": {
    "zip_code": "9420037",
    "prefecture": "新潟県",
    "prefecture_kana": "ニイガタケン",
    "prefecture_code": "15",
    "city": "上越市",
    "city_kana": "ジョウエツシ",
    "town": "中真砂",
    "town_kana": "ナカマナゴ",
    "street": null,
    "office_name": null,
    "office_name_kana": null
  },
  "0038": {
    "zip_code": "9420038",
    "prefecture": "新潟県",
    "prefecture_kana": "ニイガタケン",
    "prefecture_code": "15",
    "city": "上越市",
    "city_kana": "ジョウエツシ",
    "town": "川端",
    "town_kana": "カワバタ",
    "street": null,
    "office_name": null,
    "office_name_kana": null
  },
  "0039": {
    "zip_code": "9420039",
    "prefecture": "新潟県",
    "prefecture_kana": "ニイガタケン",
    "prefecture_code": "15",
    "city": "上越市",
    "city_kana": "ジョウエツシ",
    "town": "飯塚",
    "town_kana": "イイヅカ",
    "street": null,
    "office_name": null,
    "office_name_kana": null
  },
  "0041": {
    "zip_code": "9420041",
    "prefecture": "新潟県",
    "prefecture_kana": "ニイガタケン",
    "prefecture_code": "15",
    "city": "上越市",
    "city_kana": "ジョウエツシ",
    "town": "安江",
    "town_kana": "ヤスエ",
    "street": null,
    "office_name": null,
    "office_name_kana": null
  },
  "0042": {
    "zip_code": "9420042",
    "prefecture": "新潟県",
    "prefecture_kana": "ニイガタケン",
    "prefecture_code": "15",
    "city": "上越市",
    "city_kana": "ジョウエツシ",
    "town": "三ツ屋町",
    "town_kana": "ミツヤチョウ",
    "street": null,
    "office_name": null,
    "office_name_kana": null
  },
  "0043": {
    "zip_code": "9420043",
    "prefecture": "新潟県",
    "prefecture_kana": "ニイガタケン",
    "prefecture_code": "15",
    "city": "上越市",
    "city_kana": "ジョウエツシ",
    "town": "三ツ橋",
    "town_kana": "ミツハシ",
    "street": null,
    "office_name": null,
    "office_name_kana": null
  },
  "0044": {
    "zip_code": "9420044",
    "prefecture": "新潟県",
    "prefecture_kana": "ニイガタケン",
    "prefecture_code": "15",
    "city": "上越市",
    "city_kana": "ジョウエツシ",
    "town": "三ツ橋新田",
    "town_kana": "ミツハシシンデン",
    "street": null,
    "office_name": null,
    "office_name_kana": null
  },
  "0045": {
    "zip_code": "9420045",
    "prefecture": "新潟県",
    "prefecture_kana": "ニイガタケン",
    "prefecture_code": "15",
    "city": "上越市",
    "city_kana": "ジョウエツシ",
    "town": "横曾根",
    "town_kana": "ヨコゾネ",
    "street": null,
    "office_name": null,
    "office_name_kana": null
  },
  "0046": {
    "zip_code": "9420046",
    "prefecture": "新潟県",
    "prefecture_kana": "ニイガタケン",
    "prefecture_code": "15",
    "city": "上越市",
    "city_kana": "ジョウエツシ",
    "town": "田園",
    "town_kana": "デンエン",
    "street": null,
    "office_name": null,
    "office_name_kana": null
  },
  "0051": {
    "zip_code": "9420051",
    "prefecture": "新潟県",
    "prefecture_kana": "ニイガタケン",
    "prefecture_code": "15",
    "city": "上越市",
    "city_kana": "ジョウエツシ",
    "town": "下源入",
    "town_kana": "シモゲンニュウ",
    "street": null,
    "office_name": null,
    "office_name_kana": null
  },
  "0052": {
    "zip_code": "9420052",
    "prefecture": "新潟県",
    "prefecture_kana": "ニイガタケン",
    "prefecture_code": "15",
    "city": "上越市",
    "city_kana": "ジョウエツシ",
    "town": "上源入",
    "town_kana": "カミゲンニュウ",
    "street": null,
    "office_name": null,
    "office_name_kana": null
  },
  "0053": {
    "zip_code": "9420053",
    "prefecture": "新潟県",
    "prefecture_kana": "ニイガタケン",
    "prefecture_code": "15",
    "city": "上越市",
    "city_kana": "ジョウエツシ",
    "town": "三田新田",
    "town_kana": "サンダシンデン",
    "street": null,
    "office_name": null,
    "office_name_kana": null
  },
  "0054": {
    "zip_code": "9420054",
    "prefecture": "新潟県",
    "prefecture_kana": "ニイガタケン",
    "prefecture_code": "15",
    "city": "上越市",
    "city_kana": "ジョウエツシ",
    "town": "三田",
    "town_kana": "サンダ",
    "street": null,
    "office_name": null,
    "office_name_kana": null
  },
  "0055": {
    "zip_code": "9420055",
    "prefecture": "新潟県",
    "prefecture_kana": "ニイガタケン",
    "prefecture_code": "15",
    "city": "上越市",
    "city_kana": "ジョウエツシ",
    "town": "小猿屋",
    "town_kana": "コザルヤ",
    "street": null,
    "office_name": null,
    "office_name_kana": null
  },
  "0056": {
    "zip_code": "9420056",
    "prefecture": "新潟県",
    "prefecture_kana": "ニイガタケン",
    "prefecture_code": "15",
    "city": "上越市",
    "city_kana": "ジョウエツシ",
    "town": "小猿屋新田",
    "town_kana": "コザルヤシンデン",
    "street": null,
    "office_name": null,
    "office_name_kana": null
  },
  "0061": {
    "zip_code": "9420061",
    "prefecture": "新潟県",
    "prefecture_kana": "ニイガタケン",
    "prefecture_code": "15",
    "city": "上越市",
    "city_kana": "ジョウエツシ",
    "town": "春日新田",
    "town_kana": "カスガシンデン",
    "street": null,
    "office_name": null,
    "office_name_kana": null
  },
  "0062": {
    "zip_code": "9420062",
    "prefecture": "新潟県",
    "prefecture_kana": "ニイガタケン",
    "prefecture_code": "15",
    "city": "上越市",
    "city_kana": "ジョウエツシ",
    "town": "松村新田",
    "town_kana": "マツムラシンデン",
    "street": null,
    "office_name": null,
    "office_name_kana": null
  },
  "0063": {
    "zip_code": "9420063",
    "prefecture": "新潟県",
    "prefecture_kana": "ニイガタケン",
    "prefecture_code": "15",
    "city": "上越市",
    "city_kana": "ジョウエツシ",
    "town": "下門前",
    "town_kana": "シモモンゼン",
    "street": null,
    "office_name": null,
    "office_name_kana": null
  },
  "0064": {
    "zip_code": "9420064",
    "prefecture": "新潟県",
    "prefecture_kana": "ニイガタケン",
    "prefecture_code": "15",
    "city": "上越市",
    "city_kana": "ジョウエツシ",
    "town": "塩屋新田",
    "town_kana": "シオヤシンデン",
    "street": null,
    "office_name": null,
    "office_name_kana": null
  },
  "0065": {
    "zip_code": "9420065",
    "prefecture": "新潟県",
    "prefecture_kana": "ニイガタケン",
    "prefecture_code": "15",
    "city": "上越市",
    "city_kana": "ジョウエツシ",
    "town": "川原町",
    "town_kana": "カワラマチ",
    "street": null,
    "office_name": null,
    "office_name_kana": null
  },
  "0071": {
    "zip_code": "9420071",
    "prefecture": "新潟県",
    "prefecture_kana": "ニイガタケン",
    "prefecture_code": "15",
    "city": "上越市",
    "city_kana": "ジョウエツシ",
    "town": "東雲町",
    "town_kana": "トウウンチョウ",
    "street": null,
    "office_name": null,
    "office_name_kana": null
  },
  "0072": {
    "zip_code": "9420072",
    "prefecture": "新潟県",
    "prefecture_kana": "ニイガタケン",
    "prefecture_code": "15",
    "city": "上越市",
    "city_kana": "ジョウエツシ",
    "town": "栄町",
    "town_kana": "サカエチョウ",
    "street": null,
    "office_name": null,
    "office_name_kana": null
  },
  "0074": {
    "zip_code": "9420074",
    "prefecture": "新潟県",
    "prefecture_kana": "ニイガタケン",
    "prefecture_code": "15",
    "city": "上越市",
    "city_kana": "ジョウエツシ",
    "town": "石橋",
    "town_kana": "イシバシ",
    "street": null,
    "office_name": null,
    "office_name_kana": null
  },
  "0081": {
    "zip_code": "9420081",
    "prefecture": "新潟県",
    "prefecture_kana": "ニイガタケン",
    "prefecture_code": "15",
    "city": "上越市",
    "city_kana": "ジョウエツシ",
    "town": "五智",
    "town_kana": "ゴチ",
    "street": null,
    "office_name": null,
    "office_name_kana": null
  },
  "0082": {
    "zip_code": "9420082",
    "prefecture": "新潟県",
    "prefecture_kana": "ニイガタケン",
    "prefecture_code": "15",
    "city": "上越市",
    "city_kana": "ジョウエツシ",
    "town": "国府",
    "town_kana": "コクフ",
    "street": null,
    "office_name": null,
    "office_name_kana": null
  },
  "0083": {
    "zip_code": "9420083",
    "prefecture": "新潟県",
    "prefecture_kana": "ニイガタケン",
    "prefecture_code": "15",
    "city": "上越市",
    "city_kana": "ジョウエツシ",
    "town": "大豆",
    "town_kana": "ダイズ",
    "street": null,
    "office_name": null,
    "office_name_kana": null
  },
  "0084": {
    "zip_code": "9420084",
    "prefecture": "新潟県",
    "prefecture_kana": "ニイガタケン",
    "prefecture_code": "15",
    "city": "上越市",
    "city_kana": "ジョウエツシ",
    "town": "五智新町",
    "town_kana": "ゴチシンマチ",
    "street": null,
    "office_name": null,
    "office_name_kana": null
  },
  "0085": {
    "zip_code": "9420085",
    "prefecture": "新潟県",
    "prefecture_kana": "ニイガタケン",
    "prefecture_code": "15",
    "city": "上越市",
    "city_kana": "ジョウエツシ",
    "town": "五智国分",
    "town_kana": "ゴチコクブ",
    "street": null,
    "office_name": null,
    "office_name_kana": null
  },
  "0086": {
    "zip_code": "9420086",
    "prefecture": "新潟県",
    "prefecture_kana": "ニイガタケン",
    "prefecture_code": "15",
    "city": "上越市",
    "city_kana": "ジョウエツシ",
    "town": "加賀町",
    "town_kana": "カガチョウ",
    "street": null,
    "office_name": null,
    "office_name_kana": null
  },
  "0087": {
    "zip_code": "9420087",
    "prefecture": "新潟県",
    "prefecture_kana": "ニイガタケン",
    "prefecture_code": "15",
    "city": "上越市",
    "city_kana": "ジョウエツシ",
    "town": "虫生岩戸",
    "town_kana": "ムシュウイワト",
    "street": null,
    "office_name": null,
    "office_name_kana": null
  },
  "0088": {
    "zip_code": "9420088",
    "prefecture": "新潟県",
    "prefecture_kana": "ニイガタケン",
    "prefecture_code": "15",
    "city": "上越市",
    "city_kana": "ジョウエツシ",
    "town": "毘沙門国分寺",
    "town_kana": "ビシャモンコクブンジ",
    "street": null,
    "office_name": null,
    "office_name_kana": null
  },
  "0089": {
    "zip_code": "9420089",
    "prefecture": "新潟県",
    "prefecture_kana": "ニイガタケン",
    "prefecture_code": "15",
    "city": "上越市",
    "city_kana": "ジョウエツシ",
    "town": "大場",
    "town_kana": "オオバ",
    "street": null,
    "office_name": null,
    "office_name_kana": null
  },
  "0091": {
    "zip_code": "9420091",
    "prefecture": "新潟県",
    "prefecture_kana": "ニイガタケン",
    "prefecture_code": "15",
    "city": "上越市",
    "city_kana": "ジョウエツシ",
    "town": "頸城区西福島",
    "town_kana": "クビキクニシフクジマ",
    "street": null,
    "office_name": null,
    "office_name_kana": null
  },
  "0101": {
    "zip_code": "9420101",
    "prefecture": "新潟県",
    "prefecture_kana": "ニイガタケン",
    "prefecture_code": "15",
    "city": "上越市",
    "city_kana": "ジョウエツシ",
    "town": "頸城区柳町新田",
    "town_kana": "クビキクヤナギマチシンデン",
    "street": null,
    "office_name": null,
    "office_name_kana": null
  },
  "0102": {
    "zip_code": "9420102",
    "prefecture": "新潟県",
    "prefecture_kana": "ニイガタケン",
    "prefecture_code": "15",
    "city": "上越市",
    "city_kana": "ジョウエツシ",
    "town": "頸城区岡田",
    "town_kana": "クビキクオカダ",
    "street": null,
    "office_name": null,
    "office_name_kana": null
  },
  "0103": {
    "zip_code": "9420103",
    "prefecture": "新潟県",
    "prefecture_kana": "ニイガタケン",
    "prefecture_code": "15",
    "city": "上越市",
    "city_kana": "ジョウエツシ",
    "town": "頸城区富田",
    "town_kana": "クビキクトミタ",
    "street": null,
    "office_name": null,
    "office_name_kana": null
  },
  "0104": {
    "zip_code": "9420104",
    "prefecture": "新潟県",
    "prefecture_kana": "ニイガタケン",
    "prefecture_code": "15",
    "city": "上越市",
    "city_kana": "ジョウエツシ",
    "town": "頸城区下池田",
    "town_kana": "クビキクシモイケダ",
    "street": null,
    "office_name": null,
    "office_name_kana": null
  },
  "0105": {
    "zip_code": "9420105",
    "prefecture": "新潟県",
    "prefecture_kana": "ニイガタケン",
    "prefecture_code": "15",
    "city": "上越市",
    "city_kana": "ジョウエツシ",
    "town": "頸城区戸口野",
    "town_kana": "クビキクトグチノ",
    "street": null,
    "office_name": null,
    "office_name_kana": null
  },
  "0106": {
    "zip_code": "9420106",
    "prefecture": "新潟県",
    "prefecture_kana": "ニイガタケン",
    "prefecture_code": "15",
    "city": "上越市",
    "city_kana": "ジョウエツシ",
    "town": "頸城区上柳町",
    "town_kana": "クビキクカミヤナギマチ",
    "street": null,
    "office_name": null,
    "office_name_kana": null
  },
  "0107": {
    "zip_code": "9420107",
    "prefecture": "新潟県",
    "prefecture_kana": "ニイガタケン",
    "prefecture_code": "15",
    "city": "上越市",
    "city_kana": "ジョウエツシ",
    "town": "頸城区中柳町",
    "town_kana": "クビキクナカヤナギマチ",
    "street": null,
    "office_name": null,
    "office_name_kana": null
  },
  "0108": {
    "zip_code": "9420108",
    "prefecture": "新潟県",
    "prefecture_kana": "ニイガタケン",
    "prefecture_code": "15",
    "city": "上越市",
    "city_kana": "ジョウエツシ",
    "town": "頸城区下柳町",
    "town_kana": "クビキクシモヤナギマチ",
    "street": null,
    "office_name": null,
    "office_name_kana": null
  },
  "0109": {
    "zip_code": "9420109",
    "prefecture": "新潟県",
    "prefecture_kana": "ニイガタケン",
    "prefecture_code": "15",
    "city": "上越市",
    "city_kana": "ジョウエツシ",
    "town": "頸城区寺田",
    "town_kana": "クビキクテラダ",
    "street": null,
    "office_name": null,
    "office_name_kana": null
  },
  "0111": {
    "zip_code": "9420111",
    "prefecture": "新潟県",
    "prefecture_kana": "ニイガタケン",
    "prefecture_code": "15",
    "city": "上越市",
    "city_kana": "ジョウエツシ",
    "town": "頸城区片津",
    "town_kana": "クビキクカタヅ",
    "street": null,
    "office_name": null,
    "office_name_kana": null
  },
  "0112": {
    "zip_code": "9420112",
    "prefecture": "新潟県",
    "prefecture_kana": "ニイガタケン",
    "prefecture_code": "15",
    "city": "上越市",
    "city_kana": "ジョウエツシ",
    "town": "頸城区姥谷内",
    "town_kana": "クビキクバヤチ",
    "street": null,
    "office_name": null,
    "office_name_kana": null
  },
  "0113": {
    "zip_code": "9420113",
    "prefecture": "新潟県",
    "prefecture_kana": "ニイガタケン",
    "prefecture_code": "15",
    "city": "上越市",
    "city_kana": "ジョウエツシ",
    "town": "頸城区中城",
    "town_kana": "クビキクナカジョウ",
    "street": null,
    "office_name": null,
    "office_name_kana": null
  },
  "0114": {
    "zip_code": "9420114",
    "prefecture": "新潟県",
    "prefecture_kana": "ニイガタケン",
    "prefecture_code": "15",
    "city": "上越市",
    "city_kana": "ジョウエツシ",
    "town": "頸城区柿野",
    "town_kana": "クビキクカキノ",
    "street": null,
    "office_name": null,
    "office_name_kana": null
  },
  "0115": {
    "zip_code": "9420115",
    "prefecture": "新潟県",
    "prefecture_kana": "ニイガタケン",
    "prefecture_code": "15",
    "city": "上越市",
    "city_kana": "ジョウエツシ",
    "town": "頸城区田中",
    "town_kana": "クビキクタナカ",
    "street": null,
    "office_name": null,
    "office_name_kana": null
  },
  "0116": {
    "zip_code": "9420116",
    "prefecture": "新潟県",
    "prefecture_kana": "ニイガタケン",
    "prefecture_code": "15",
    "city": "上越市",
    "city_kana": "ジョウエツシ",
    "town": "頸城区大坂井",
    "town_kana": "クビキクオオサカイ",
    "street": null,
    "office_name": null,
    "office_name_kana": null
  },
  "0117": {
    "zip_code": "9420117",
    "prefecture": "新潟県",
    "prefecture_kana": "ニイガタケン",
    "prefecture_code": "15",
    "city": "上越市",
    "city_kana": "ジョウエツシ",
    "town": "頸城区西湊",
    "town_kana": "クビキクニシミナト",
    "street": null,
    "office_name": null,
    "office_name_kana": null
  },
  "0121": {
    "zip_code": "9420121",
    "prefecture": "新潟県",
    "prefecture_kana": "ニイガタケン",
    "prefecture_code": "15",
    "city": "上越市",
    "city_kana": "ジョウエツシ",
    "town": "頸城区鵜ノ木",
    "town_kana": "クビキクウノキ",
    "street": null,
    "office_name": null,
    "office_name_kana": null
  },
  "0122": {
    "zip_code": "9420122",
    "prefecture": "新潟県",
    "prefecture_kana": "ニイガタケン",
    "prefecture_code": "15",
    "city": "上越市",
    "city_kana": "ジョウエツシ",
    "town": "頸城区川袋",
    "town_kana": "クビキクカワブクロ",
    "street": null,
    "office_name": null,
    "office_name_kana": null
  },
  "0123": {
    "zip_code": "9420123",
    "prefecture": "新潟県",
    "prefecture_kana": "ニイガタケン",
    "prefecture_code": "15",
    "city": "上越市",
    "city_kana": "ジョウエツシ",
    "town": "頸城区下中村",
    "town_kana": "クビキクシモナカムラ",
    "street": null,
    "office_name": null,
    "office_name_kana": null
  },
  "0124": {
    "zip_code": "9420124",
    "prefecture": "新潟県",
    "prefecture_kana": "ニイガタケン",
    "prefecture_code": "15",
    "city": "上越市",
    "city_kana": "ジョウエツシ",
    "town": "頸城区東俣",
    "town_kana": "クビキクヒガシマタ",
    "street": null,
    "office_name": null,
    "office_name_kana": null
  },
  "0125": {
    "zip_code": "9420125",
    "prefecture": "新潟県",
    "prefecture_kana": "ニイガタケン",
    "prefecture_code": "15",
    "city": "上越市",
    "city_kana": "ジョウエツシ",
    "town": "頸城区飯田",
    "town_kana": "クビキクイイダ",
    "street": null,
    "office_name": null,
    "office_name_kana": null
  },
  "0126": {
    "zip_code": "9420126",
    "prefecture": "新潟県",
    "prefecture_kana": "ニイガタケン",
    "prefecture_code": "15",
    "city": "上越市",
    "city_kana": "ジョウエツシ",
    "town": "頸城区宮原",
    "town_kana": "クビキクミヤハラ",
    "street": null,
    "office_name": null,
    "office_name_kana": null
  },
  "0127": {
    "zip_code": "9420127",
    "prefecture": "新潟県",
    "prefecture_kana": "ニイガタケン",
    "prefecture_code": "15",
    "city": "上越市",
    "city_kana": "ジョウエツシ",
    "town": "頸城区百間町",
    "town_kana": "クビキクヒャクケンマチ",
    "street": null,
    "office_name": null,
    "office_name_kana": null
  },
  "0128": {
    "zip_code": "9420128",
    "prefecture": "新潟県",
    "prefecture_kana": "ニイガタケン",
    "prefecture_code": "15",
    "city": "上越市",
    "city_kana": "ジョウエツシ",
    "town": "頸城区諏訪",
    "town_kana": "クビキクスワ",
    "street": null,
    "office_name": null,
    "office_name_kana": null
  },
  "0129": {
    "zip_code": "9420129",
    "prefecture": "新潟県",
    "prefecture_kana": "ニイガタケン",
    "prefecture_code": "15",
    "city": "上越市",
    "city_kana": "ジョウエツシ",
    "town": "頸城区立崎",
    "town_kana": "クビキクタテサキ",
    "street": null,
    "office_name": null,
    "office_name_kana": null
  },
  "0131": {
    "zip_code": "9420131",
    "prefecture": "新潟県",
    "prefecture_kana": "ニイガタケン",
    "prefecture_code": "15",
    "city": "上越市",
    "city_kana": "ジョウエツシ",
    "town": "頸城区千原",
    "town_kana": "クビキクチハラ",
    "street": null,
    "office_name": null,
    "office_name_kana": null
  },
  "0132": {
    "zip_code": "9420132",
    "prefecture": "新潟県",
    "prefecture_kana": "ニイガタケン",
    "prefecture_code": "15",
    "city": "上越市",
    "city_kana": "ジョウエツシ",
    "town": "頸城区北福崎",
    "town_kana": "クビキクキタフクザキ",
    "street": null,
    "office_name": null,
    "office_name_kana": null
  },
  "0133": {
    "zip_code": "9420133",
    "prefecture": "新潟県",
    "prefecture_kana": "ニイガタケン",
    "prefecture_code": "15",
    "city": "上越市",
    "city_kana": "ジョウエツシ",
    "town": "頸城区上神原",
    "town_kana": "クビキクカミカナハラ",
    "street": null,
    "office_name": null,
    "office_name_kana": null
  },
  "0134": {
    "zip_code": "9420134",
    "prefecture": "新潟県",
    "prefecture_kana": "ニイガタケン",
    "prefecture_code": "15",
    "city": "上越市",
    "city_kana": "ジョウエツシ",
    "town": "頸城区下神原",
    "town_kana": "クビキクシモカナハラ",
    "street": null,
    "office_name": null,
    "office_name_kana": null
  },
  "0135": {
    "zip_code": "9420135",
    "prefecture": "新潟県",
    "prefecture_kana": "ニイガタケン",
    "prefecture_code": "15",
    "city": "上越市",
    "city_kana": "ジョウエツシ",
    "town": "頸城区五十嵐",
    "town_kana": "クビキクイガラシ",
    "street": null,
    "office_name": null,
    "office_name_kana": null
  },
  "0136": {
    "zip_code": "9420136",
    "prefecture": "新潟県",
    "prefecture_kana": "ニイガタケン",
    "prefecture_code": "15",
    "city": "上越市",
    "city_kana": "ジョウエツシ",
    "town": "頸城区島田",
    "town_kana": "クビキクシマダ",
    "street": null,
    "office_name": null,
    "office_name_kana": null
  },
  "0137": {
    "zip_code": "9420137",
    "prefecture": "新潟県",
    "prefecture_kana": "ニイガタケン",
    "prefecture_code": "15",
    "city": "上越市",
    "city_kana": "ジョウエツシ",
    "town": "頸城区下千原",
    "town_kana": "クビキクシモチハラ",
    "street": null,
    "office_name": null,
    "office_name_kana": null
  },
  "0138": {
    "zip_code": "9420138",
    "prefecture": "新潟県",
    "prefecture_kana": "ニイガタケン",
    "prefecture_code": "15",
    "city": "上越市",
    "city_kana": "ジョウエツシ",
    "town": "頸城区望ケ丘",
    "town_kana": "クビキクノゾミガオカ",
    "street": null,
    "office_name": null,
    "office_name_kana": null
  },
  "0139": {
    "zip_code": "9420139",
    "prefecture": "新潟県",
    "prefecture_kana": "ニイガタケン",
    "prefecture_code": "15",
    "city": "上越市",
    "city_kana": "ジョウエツシ",
    "town": "頸城区美しが丘",
    "town_kana": "クビキクウツクシガオカ",
    "street": null,
    "office_name": null,
    "office_name_kana": null
  },
  "0141": {
    "zip_code": "9420141",
    "prefecture": "新潟県",
    "prefecture_kana": "ニイガタケン",
    "prefecture_code": "15",
    "city": "上越市",
    "city_kana": "ジョウエツシ",
    "town": "頸城区市村",
    "town_kana": "クビキクイチムラ",
    "street": null,
    "office_name": null,
    "office_name_kana": null
  },
  "0142": {
    "zip_code": "9420142",
    "prefecture": "新潟県",
    "prefecture_kana": "ニイガタケン",
    "prefecture_code": "15",
    "city": "上越市",
    "city_kana": "ジョウエツシ",
    "town": "頸城区上三分一",
    "town_kana": "クビキクカミサンブイチ",
    "street": null,
    "office_name": null,
    "office_name_kana": null
  },
  "0143": {
    "zip_code": "9420143",
    "prefecture": "新潟県",
    "prefecture_kana": "ニイガタケン",
    "prefecture_code": "15",
    "city": "上越市",
    "city_kana": "ジョウエツシ",
    "town": "頸城区下三分一",
    "town_kana": "クビキクシモサンブイチ",
    "street": null,
    "office_name": null,
    "office_name_kana": null
  },
  "0144": {
    "zip_code": "9420144",
    "prefecture": "新潟県",
    "prefecture_kana": "ニイガタケン",
    "prefecture_code": "15",
    "city": "上越市",
    "city_kana": "ジョウエツシ",
    "town": "頸城区松本",
    "town_kana": "クビキクマツモト",
    "street": null,
    "office_name": null,
    "office_name_kana": null
  },
  "0145": {
    "zip_code": "9420145",
    "prefecture": "新潟県",
    "prefecture_kana": "ニイガタケン",
    "prefecture_code": "15",
    "city": "上越市",
    "city_kana": "ジョウエツシ",
    "town": "頸城区上吉",
    "town_kana": "クビキクカミヨシ",
    "street": null,
    "office_name": null,
    "office_name_kana": null
  },
  "0146": {
    "zip_code": "9420146",
    "prefecture": "新潟県",
    "prefecture_kana": "ニイガタケン",
    "prefecture_code": "15",
    "city": "上越市",
    "city_kana": "ジョウエツシ",
    "town": "頸城区下吉",
    "town_kana": "クビキクシモヨシ",
    "street": null,
    "office_name": null,
    "office_name_kana": null
  },
  "0147": {
    "zip_code": "9420147",
    "prefecture": "新潟県",
    "prefecture_kana": "ニイガタケン",
    "prefecture_code": "15",
    "city": "上越市",
    "city_kana": "ジョウエツシ",
    "town": "頸城区西福島",
    "town_kana": "クビキクニシフクジマ",
    "street": null,
    "office_name": null,
    "office_name_kana": null
  },
  "0151": {
    "zip_code": "9420151",
    "prefecture": "新潟県",
    "prefecture_kana": "ニイガタケン",
    "prefecture_code": "15",
    "city": "上越市",
    "city_kana": "ジョウエツシ",
    "town": "頸城区北四ツ屋",
    "town_kana": "クビキクキタヨツヤ",
    "street": null,
    "office_name": null,
    "office_name_kana": null
  },
  "0152": {
    "zip_code": "9420152",
    "prefecture": "新潟県",
    "prefecture_kana": "ニイガタケン",
    "prefecture_code": "15",
    "city": "上越市",
    "city_kana": "ジョウエツシ",
    "town": "頸城区浮島",
    "town_kana": "クビキクウキシマ",
    "street": null,
    "office_name": null,
    "office_name_kana": null
  },
  "0153": {
    "zip_code": "9420153",
    "prefecture": "新潟県",
    "prefecture_kana": "ニイガタケン",
    "prefecture_code": "15",
    "city": "上越市",
    "city_kana": "ジョウエツシ",
    "town": "頸城区下米岡",
    "town_kana": "クビキクシモヨネオカ",
    "street": null,
    "office_name": null,
    "office_name_kana": null
  },
  "0154": {
    "zip_code": "9420154",
    "prefecture": "新潟県",
    "prefecture_kana": "ニイガタケン",
    "prefecture_code": "15",
    "city": "上越市",
    "city_kana": "ジョウエツシ",
    "town": "頸城区榎井",
    "town_kana": "クビキクエノイ",
    "street": null,
    "office_name": null,
    "office_name_kana": null
  },
  "0155": {
    "zip_code": "9420155",
    "prefecture": "新潟県",
    "prefecture_kana": "ニイガタケン",
    "prefecture_code": "15",
    "city": "上越市",
    "city_kana": "ジョウエツシ",
    "town": "頸城区下中島",
    "town_kana": "クビキクシモナカジマ",
    "street": null,
    "office_name": null,
    "office_name_kana": null
  },
  "0156": {
    "zip_code": "9420156",
    "prefecture": "新潟県",
    "prefecture_kana": "ニイガタケン",
    "prefecture_code": "15",
    "city": "上越市",
    "city_kana": "ジョウエツシ",
    "town": "頸城区松橋",
    "town_kana": "クビキクマツハシ",
    "street": null,
    "office_name": null,
    "office_name_kana": null
  },
  "0157": {
    "zip_code": "9420157",
    "prefecture": "新潟県",
    "prefecture_kana": "ニイガタケン",
    "prefecture_code": "15",
    "city": "上越市",
    "city_kana": "ジョウエツシ",
    "town": "頸城区城野腰",
    "town_kana": "クビキクジョウノコシ",
    "street": null,
    "office_name": null,
    "office_name_kana": null
  },
  "0158": {
    "zip_code": "9420158",
    "prefecture": "新潟県",
    "prefecture_kana": "ニイガタケン",
    "prefecture_code": "15",
    "city": "上越市",
    "city_kana": "ジョウエツシ",
    "town": "頸城区松橋新田",
    "town_kana": "クビキクマツハシシンデン",
    "street": null,
    "office_name": null,
    "office_name_kana": null
  },
  "0161": {
    "zip_code": "9420161",
    "prefecture": "新潟県",
    "prefecture_kana": "ニイガタケン",
    "prefecture_code": "15",
    "city": "上越市",
    "city_kana": "ジョウエツシ",
    "town": "頸城区手宮",
    "town_kana": "クビキクテミヤ",
    "street": null,
    "office_name": null,
    "office_name_kana": null
  },
  "0162": {
    "zip_code": "9420162",
    "prefecture": "新潟県",
    "prefecture_kana": "ニイガタケン",
    "prefecture_code": "15",
    "city": "上越市",
    "city_kana": "ジョウエツシ",
    "town": "頸城区森下",
    "town_kana": "クビキクモリシタ",
    "street": null,
    "office_name": null,
    "office_name_kana": null
  },
  "0163": {
    "zip_code": "9420163",
    "prefecture": "新潟県",
    "prefecture_kana": "ニイガタケン",
    "prefecture_code": "15",
    "city": "上越市",
    "city_kana": "ジョウエツシ",
    "town": "頸城区大谷内",
    "town_kana": "クビキクオオヤチ",
    "street": null,
    "office_name": null,
    "office_name_kana": null
  },
  "0164": {
    "zip_code": "9420164",
    "prefecture": "新潟県",
    "prefecture_kana": "ニイガタケン",
    "prefecture_code": "15",
    "city": "上越市",
    "city_kana": "ジョウエツシ",
    "town": "頸城区潟口",
    "town_kana": "クビキクカタグチ",
    "street": null,
    "office_name": null,
    "office_name_kana": null
  },
  "0165": {
    "zip_code": "9420165",
    "prefecture": "新潟県",
    "prefecture_kana": "ニイガタケン",
    "prefecture_code": "15",
    "city": "上越市",
    "city_kana": "ジョウエツシ",
    "town": "頸城区青野",
    "town_kana": "クビキクアオノ",
    "street": null,
    "office_name": null,
    "office_name_kana": null
  },
  "0171": {
    "zip_code": "9420171",
    "prefecture": "新潟県",
    "prefecture_kana": "ニイガタケン",
    "prefecture_code": "15",
    "city": "上越市",
    "city_kana": "ジョウエツシ",
    "town": "頸城区北方",
    "town_kana": "クビキクキタカタ",
    "street": null,
    "office_name": null,
    "office_name_kana": null
  },
  "0172": {
    "zip_code": "9420172",
    "prefecture": "新潟県",
    "prefecture_kana": "ニイガタケン",
    "prefecture_code": "15",
    "city": "上越市",
    "city_kana": "ジョウエツシ",
    "town": "頸城区宮本",
    "town_kana": "クビキクミヤモト",
    "street": null,
    "office_name": null,
    "office_name_kana": null
  },
  "0173": {
    "zip_code": "9420173",
    "prefecture": "新潟県",
    "prefecture_kana": "ニイガタケン",
    "prefecture_code": "15",
    "city": "上越市",
    "city_kana": "ジョウエツシ",
    "town": "頸城区舟津",
    "town_kana": "クビキクフナツ",
    "street": null,
    "office_name": null,
    "office_name_kana": null
  },
  "0181": {
    "zip_code": "9420181",
    "prefecture": "新潟県",
    "prefecture_kana": "ニイガタケン",
    "prefecture_code": "15",
    "city": "上越市",
    "city_kana": "ジョウエツシ",
    "town": "大潟区潟守新田",
    "town_kana": "オオガタクカタモリシンデン",
    "street": null,
    "office_name": null,
    "office_name_kana": null
  },
  "0192": {
    "zip_code": "9420192",
    "prefecture": "新潟県",
    "prefecture_kana": "ニイガタケン",
    "prefecture_code": "15",
    "city": "上越市",
    "city_kana": "ジョウエツシ",
    "town": "頸城区百間町",
    "town_kana": "クビキクヒャクケンマチ",
    "street": "６３６",
    "office_name": "頸城区総合事務所",
    "office_name_kana": "クビキクソウゴウジムシヨ"
  },
  "0193": {
    "zip_code": "9420193",
    "prefecture": "新潟県",
    "prefecture_kana": "ニイガタケン",
    "prefecture_code": "15",
    "city": "上越市",
    "city_kana": "ジョウエツシ",
    "town": "頸城区城野腰",
    "town_kana": "クビキクジョウノコシ",
    "street": "５９６−２",
    "office_name": "直江津電子工業　株式会社",
    "office_name_kana": "ナオエツデンシコウギヨウ カブシキガイシヤ"
  },
  "0194": {
    "zip_code": "9420194",
    "prefecture": "新潟県",
    "prefecture_kana": "ニイガタケン",
    "prefecture_code": "15",
    "city": "上越市",
    "city_kana": "ジョウエツシ",
    "town": "頸城区百間町",
    "town_kana": "クビキクヒャクケンマチ",
    "street": "１０６０",
    "office_name": "三光サービス　（株）",
    "office_name_kana": "サンコウサ-ビス カブシキカイシヤ"
  },
  "0195": {
    "zip_code": "9420195",
    "prefecture": "新潟県",
    "prefecture_kana": "ニイガタケン",
    "prefecture_code": "15",
    "city": "上越市",
    "city_kana": "ジョウエツシ",
    "town": "頸城区西福島",
    "town_kana": "クビキクニシフクジマ",
    "street": "５７５−４",
    "office_name": "新潟運輸　株式会社　上越主管支店上越支店",
    "office_name_kana": "ニイガタウンユ カブシキカイシヤ ジヨウエツシユカンシテンジヨウエツシテン"
  },
  "0196": {
    "zip_code": "9420196",
    "prefecture": "新潟県",
    "prefecture_kana": "ニイガタケン",
    "prefecture_code": "15",
    "city": "上越市",
    "city_kana": "ジョウエツシ",
    "town": "頸城区西福島",
    "town_kana": "クビキクニシフクジマ",
    "street": "５２２−２",
    "office_name": "株式会社　新潟リョーショク　上越支店",
    "office_name_kana": "カブシキガイシヤ ニイガタリヨ-シヨク ジヨウエツシテン"
  },
  "0201": {
    "zip_code": "9420201",
    "prefecture": "新潟県",
    "prefecture_kana": "ニイガタケン",
    "prefecture_code": "15",
    "city": "上越市",
    "city_kana": "ジョウエツシ",
    "town": "頸城区大潟",
    "town_kana": "クビキクオオガタ",
    "street": null,
    "office_name": null,
    "office_name_kana": null
  },
  "0202": {
    "zip_code": "9420202",
    "prefecture": "新潟県",
    "prefecture_kana": "ニイガタケン",
    "prefecture_code": "15",
    "city": "上越市",
    "city_kana": "ジョウエツシ",
    "town": "頸城区上池田",
    "town_kana": "クビキクカミイケダ",
    "street": null,
    "office_name": null,
    "office_name_kana": null
  },
  "0203": {
    "zip_code": "9420203",
    "prefecture": "新潟県",
    "prefecture_kana": "ニイガタケン",
    "prefecture_code": "15",
    "city": "上越市",
    "city_kana": "ジョウエツシ",
    "town": "頸城区上増田",
    "town_kana": "クビキクカミマスダ",
    "street": null,
    "office_name": null,
    "office_name_kana": null
  },
  "0204": {
    "zip_code": "9420204",
    "prefecture": "新潟県",
    "prefecture_kana": "ニイガタケン",
    "prefecture_code": "15",
    "city": "上越市",
    "city_kana": "ジョウエツシ",
    "town": "頸城区両毛",
    "town_kana": "クビキクリョウケ",
    "street": null,
    "office_name": null,
    "office_name_kana": null
  },
  "0205": {
    "zip_code": "9420205",
    "prefecture": "新潟県",
    "prefecture_kana": "ニイガタケン",
    "prefecture_code": "15",
    "city": "上越市",
    "city_kana": "ジョウエツシ",
    "town": "頸城区中増田",
    "town_kana": "クビキクナカマスダ",
    "street": null,
    "office_name": null,
    "office_name_kana": null
  },
  "0206": {
    "zip_code": "9420206",
    "prefecture": "新潟県",
    "prefecture_kana": "ニイガタケン",
    "prefecture_code": "15",
    "city": "上越市",
    "city_kana": "ジョウエツシ",
    "town": "頸城区下増田",
    "town_kana": "クビキクシモマスダ",
    "street": null,
    "office_name": null,
    "office_name_kana": null
  },
  "0207": {
    "zip_code": "9420207",
    "prefecture": "新潟県",
    "prefecture_kana": "ニイガタケン",
    "prefecture_code": "15",
    "city": "上越市",
    "city_kana": "ジョウエツシ",
    "town": "頸城区手島",
    "town_kana": "クビキクテシマ",
    "street": null,
    "office_name": null,
    "office_name_kana": null
  },
  "0208": {
    "zip_code": "9420208",
    "prefecture": "新潟県",
    "prefecture_kana": "ニイガタケン",
    "prefecture_code": "15",
    "city": "上越市",
    "city_kana": "ジョウエツシ",
    "town": "頸城区潟",
    "town_kana": "クビキクカタ",
    "street": null,
    "office_name": null,
    "office_name_kana": null
  },
  "0211": {
    "zip_code": "9420211",
    "prefecture": "新潟県",
    "prefecture_kana": "ニイガタケン",
    "prefecture_code": "15",
    "city": "上越市",
    "city_kana": "ジョウエツシ",
    "town": "頸城区畑ケ崎",
    "town_kana": "クビキクハタケサキ",
    "street": null,
    "office_name": null,
    "office_name_kana": null
  },
  "0212": {
    "zip_code": "9420212",
    "prefecture": "新潟県",
    "prefecture_kana": "ニイガタケン",
    "prefecture_code": "15",
    "city": "上越市",
    "city_kana": "ジョウエツシ",
    "town": "頸城区矢住",
    "town_kana": "クビキクヤズミ",
    "street": null,
    "office_name": null,
    "office_name_kana": null
  },
  "0213": {
    "zip_code": "9420213",
    "prefecture": "新潟県",
    "prefecture_kana": "ニイガタケン",
    "prefecture_code": "15",
    "city": "上越市",
    "city_kana": "ジョウエツシ",
    "town": "頸城区中島",
    "town_kana": "クビキクナカジマ",
    "street": null,
    "office_name": null,
    "office_name_kana": null
  },
  "0214": {
    "zip_code": "9420214",
    "prefecture": "新潟県",
    "prefecture_kana": "ニイガタケン",
    "prefecture_code": "15",
    "city": "上越市",
    "city_kana": "ジョウエツシ",
    "town": "頸城区大蒲生田",
    "town_kana": "クビキクオオカモダ",
    "street": null,
    "office_name": null,
    "office_name_kana": null
  },
  "0215": {
    "zip_code": "9420215",
    "prefecture": "新潟県",
    "prefecture_kana": "ニイガタケン",
    "prefecture_code": "15",
    "city": "上越市",
    "city_kana": "ジョウエツシ",
    "town": "頸城区玄僧",
    "town_kana": "クビキクゲンゾウ",
    "street": null,
    "office_name": null,
    "office_name_kana": null
  },
  "0216": {
    "zip_code": "9420216",
    "prefecture": "新潟県",
    "prefecture_kana": "ニイガタケン",
    "prefecture_code": "15",
    "city": "上越市",
    "city_kana": "ジョウエツシ",
    "town": "頸城区日根津",
    "town_kana": "クビキクヒネヅ",
    "street": null,
    "office_name": null,
    "office_name_kana": null
  },
  "0221": {
    "zip_code": "9420221",
    "prefecture": "新潟県",
    "prefecture_kana": "ニイガタケン",
    "prefecture_code": "15",
    "city": "上越市",
    "city_kana": "ジョウエツシ",
    "town": "頸城区石神",
    "town_kana": "クビキクイシガミ",
    "street": null,
    "office_name": null,
    "office_name_kana": null
  },
  "0222": {
    "zip_code": "9420222",
    "prefecture": "新潟県",
    "prefecture_kana": "ニイガタケン",
    "prefecture_code": "15",
    "city": "上越市",
    "city_kana": "ジョウエツシ",
    "town": "頸城区花ケ崎",
    "town_kana": "クビキクハナガサキ",
    "street": null,
    "office_name": null,
    "office_name_kana": null
  },
  "0223": {
    "zip_code": "9420223",
    "prefecture": "新潟県",
    "prefecture_kana": "ニイガタケン",
    "prefecture_code": "15",
    "city": "上越市",
    "city_kana": "ジョウエツシ",
    "town": "頸城区森本",
    "town_kana": "クビキクモリモト",
    "street": null,
    "office_name": null,
    "office_name_kana": null
  },
  "0224": {
    "zip_code": "9420224",
    "prefecture": "新潟県",
    "prefecture_kana": "ニイガタケン",
    "prefecture_code": "15",
    "city": "上越市",
    "city_kana": "ジョウエツシ",
    "town": "頸城区仁野分",
    "town_kana": "クビキクニノブ",
    "street": null,
    "office_name": null,
    "office_name_kana": null
  },
  "0225": {
    "zip_code": "9420225",
    "prefecture": "新潟県",
    "prefecture_kana": "ニイガタケン",
    "prefecture_code": "15",
    "city": "上越市",
    "city_kana": "ジョウエツシ",
    "town": "頸城区天ケ崎",
    "town_kana": "クビキクアマガサキ",
    "street": null,
    "office_name": null,
    "office_name_kana": null
  },
  "0231": {
    "zip_code": "9420231",
    "prefecture": "新潟県",
    "prefecture_kana": "ニイガタケン",
    "prefecture_code": "15",
    "city": "上越市",
    "city_kana": "ジョウエツシ",
    "town": "下吉野",
    "town_kana": "シモヨシノ",
    "street": null,
    "office_name": null,
    "office_name_kana": null
  },
  "0232": {
    "zip_code": "9420232",
    "prefecture": "新潟県",
    "prefecture_kana": "ニイガタケン",
    "prefecture_code": "15",
    "city": "上越市",
    "city_kana": "ジョウエツシ",
    "town": "福岡新田",
    "town_kana": "フクオカシンデン",
    "street": null,
    "office_name": null,
    "office_name_kana": null
  },
  "0233": {
    "zip_code": "9420233",
    "prefecture": "新潟県",
    "prefecture_kana": "ニイガタケン",
    "prefecture_code": "15",
    "city": "上越市",
    "city_kana": "ジョウエツシ",
    "town": "岡崎新田",
    "town_kana": "オカザキシンデン",
    "street": null,
    "office_name": null,
    "office_name_kana": null
  },
  "0234": {
    "zip_code": "9420234",
    "prefecture": "新潟県",
    "prefecture_kana": "ニイガタケン",
    "prefecture_code": "15",
    "city": "上越市",
    "city_kana": "ジョウエツシ",
    "town": "田沢新田",
    "town_kana": "タザワシンデン",
    "street": null,
    "office_name": null,
    "office_name_kana": null
  },
  "0238": {
    "zip_code": "9420238",
    "prefecture": "新潟県",
    "prefecture_kana": "ニイガタケン",
    "prefecture_code": "15",
    "city": "上越市",
    "city_kana": "ジョウエツシ",
    "town": "青野",
    "town_kana": "アオノ",
    "street": null,
    "office_name": null,
    "office_name_kana": null
  },
  "0241": {
    "zip_code": "9420241",
    "prefecture": "新潟県",
    "prefecture_kana": "ニイガタケン",
    "prefecture_code": "15",
    "city": "上越市",
    "city_kana": "ジョウエツシ",
    "town": "上吉野",
    "town_kana": "カミヨシノ",
    "street": null,
    "office_name": null,
    "office_name_kana": null
  },
  "0242": {
    "zip_code": "9420242",
    "prefecture": "新潟県",
    "prefecture_kana": "ニイガタケン",
    "prefecture_code": "15",
    "city": "上越市",
    "city_kana": "ジョウエツシ",
    "town": "石川",
    "town_kana": "イシカワ",
    "street": null,
    "office_name": null,
    "office_name_kana": null
  },
  "0243": {
    "zip_code": "9420243",
    "prefecture": "新潟県",
    "prefecture_kana": "ニイガタケン",
    "prefecture_code": "15",
    "city": "上越市",
    "city_kana": "ジョウエツシ",
    "town": "五野井",
    "town_kana": "ゴノイ",
    "street": null,
    "office_name": null,
    "office_name_kana": null
  },
  "0244": {
    "zip_code": "9420244",
    "prefecture": "新潟県",
    "prefecture_kana": "ニイガタケン",
    "prefecture_code": "15",
    "city": "上越市",
    "city_kana": "ジョウエツシ",
    "town": "長岡新田",
    "town_kana": "ナオカシンデン",
    "street": null,
    "office_name": null,
    "office_name_kana": null
  },
  "0245": {
    "zip_code": "9420245",
    "prefecture": "新潟県",
    "prefecture_kana": "ニイガタケン",
    "prefecture_code": "15",
    "city": "上越市",
    "city_kana": "ジョウエツシ",
    "town": "長岡",
    "town_kana": "ナオカ",
    "street": null,
    "office_name": null,
    "office_name_kana": null
  },
  "0246": {
    "zip_code": "9420246",
    "prefecture": "新潟県",
    "prefecture_kana": "ニイガタケン",
    "prefecture_code": "15",
    "city": "上越市",
    "city_kana": "ジョウエツシ",
    "town": "駒林",
    "town_kana": "コマバヤシ",
    "street": null,
    "office_name": null,
    "office_name_kana": null
  },
  "0247": {
    "zip_code": "9420247",
    "prefecture": "新潟県",
    "prefecture_kana": "ニイガタケン",
    "prefecture_code": "15",
    "city": "上越市",
    "city_kana": "ジョウエツシ",
    "town": "下百々",
    "town_kana": "シモドウドウ",
    "street": null,
    "office_name": null,
    "office_name_kana": null
  },
  "0251": {
    "zip_code": "9420251",
    "prefecture": "新潟県",
    "prefecture_kana": "ニイガタケン",
    "prefecture_code": "15",
    "city": "上越市",
    "city_kana": "ジョウエツシ",
    "town": "小泉",
    "town_kana": "コイズミ",
    "street": null,
    "office_name": null,
    "office_name_kana": null
  },
  "0252": {
    "zip_code": "9420252",
    "prefecture": "新潟県",
    "prefecture_kana": "ニイガタケン",
    "prefecture_code": "15",
    "city": "上越市",
    "city_kana": "ジョウエツシ",
    "town": "上名柄",
    "town_kana": "カミナガラ",
    "street": null,
    "office_name": null,
    "office_name_kana": null
  },
  "0253": {
    "zip_code": "9420253",
    "prefecture": "新潟県",
    "prefecture_kana": "ニイガタケン",
    "prefecture_code": "15",
    "city": "上越市",
    "city_kana": "ジョウエツシ",
    "town": "下名柄",
    "town_kana": "シモナガラ",
    "street": null,
    "office_name": null,
    "office_name_kana": null
  },
  "0254": {
    "zip_code": "9420254",
    "prefecture": "新潟県",
    "prefecture_kana": "ニイガタケン",
    "prefecture_code": "15",
    "city": "上越市",
    "city_kana": "ジョウエツシ",
    "town": "上五貫野",
    "town_kana": "カミゴカンノ",
    "street": null,
    "office_name": null,
    "office_name_kana": null
  },
  "0255": {
    "zip_code": "9420255",
    "prefecture": "新潟県",
    "prefecture_kana": "ニイガタケン",
    "prefecture_code": "15",
    "city": "上越市",
    "city_kana": "ジョウエツシ",
    "town": "下五貫野",
    "town_kana": "シモゴカンノ",
    "street": null,
    "office_name": null,
    "office_name_kana": null
  },
  "0261": {
    "zip_code": "9420261",
    "prefecture": "新潟県",
    "prefecture_kana": "ニイガタケン",
    "prefecture_code": "15",
    "city": "上越市",
    "city_kana": "ジョウエツシ",
    "town": "三和区末野新田",
    "town_kana": "サンワクスエノシンデン",
    "street": null,
    "office_name": null,
    "office_name_kana": null
  },
  "0262": {
    "zip_code": "9420262",
    "prefecture": "新潟県",
    "prefecture_kana": "ニイガタケン",
    "prefecture_code": "15",
    "city": "上越市",
    "city_kana": "ジョウエツシ",
    "town": "三和区末野",
    "town_kana": "サンワクスエノ",
    "street": null,
    "office_name": null,
    "office_name_kana": null
  },
  "0263": {
    "zip_code": "9420263",
    "prefecture": "新潟県",
    "prefecture_kana": "ニイガタケン",
    "prefecture_code": "15",
    "city": "上越市",
    "city_kana": "ジョウエツシ",
    "town": "三和区山腰新田",
    "town_kana": "サンワクヤマノコシシンデン",
    "street": null,
    "office_name": null,
    "office_name_kana": null
  },
  "0264": {
    "zip_code": "9420264",
    "prefecture": "新潟県",
    "prefecture_kana": "ニイガタケン",
    "prefecture_code": "15",
    "city": "上越市",
    "city_kana": "ジョウエツシ",
    "town": "三和区塔ノ輪",
    "town_kana": "サンワクトウノワ",
    "street": null,
    "office_name": null,
    "office_name_kana": null
  },
  "0265": {
    "zip_code": "9420265",
    "prefecture": "新潟県",
    "prefecture_kana": "ニイガタケン",
    "prefecture_code": "15",
    "city": "上越市",
    "city_kana": "ジョウエツシ",
    "town": "三和区神田",
    "town_kana": "サンワクカンダ",
    "street": null,
    "office_name": null,
    "office_name_kana": null
  },
  "0266": {
    "zip_code": "9420266",
    "prefecture": "新潟県",
    "prefecture_kana": "ニイガタケン",
    "prefecture_code": "15",
    "city": "上越市",
    "city_kana": "ジョウエツシ",
    "town": "三和区越柳",
    "town_kana": "サンワクコシヤナギ",
    "street": null,
    "office_name": null,
    "office_name_kana": null
  },
  "0267": {
    "zip_code": "9420267",
    "prefecture": "新潟県",
    "prefecture_kana": "ニイガタケン",
    "prefecture_code": "15",
    "city": "上越市",
    "city_kana": "ジョウエツシ",
    "town": "三和区沖柳",
    "town_kana": "サンワクオキヤナギ",
    "street": null,
    "office_name": null,
    "office_name_kana": null
  },
  "0268": {
    "zip_code": "9420268",
    "prefecture": "新潟県",
    "prefecture_kana": "ニイガタケン",
    "prefecture_code": "15",
    "city": "上越市",
    "city_kana": "ジョウエツシ",
    "town": "三和区本郷",
    "town_kana": "サンワクホンゴウ",
    "street": null,
    "office_name": null,
    "office_name_kana": null
  },
  "0271": {
    "zip_code": "9420271",
    "prefecture": "新潟県",
    "prefecture_kana": "ニイガタケン",
    "prefecture_code": "15",
    "city": "上越市",
    "city_kana": "ジョウエツシ",
    "town": "三和区錦",
    "town_kana": "サンワクニシキ",
    "street": null,
    "office_name": null,
    "office_name_kana": null
  },
  "0272": {
    "zip_code": "9420272",
    "prefecture": "新潟県",
    "prefecture_kana": "ニイガタケン",
    "prefecture_code": "15",
    "city": "上越市",
    "city_kana": "ジョウエツシ",
    "town": "三和区柳林",
    "town_kana": "サンワクヤナギバヤシ",
    "street": null,
    "office_name": null,
    "office_name_kana": null
  },
  "0273": {
    "zip_code": "9420273",
    "prefecture": "新潟県",
    "prefecture_kana": "ニイガタケン",
    "prefecture_code": "15",
    "city": "上越市",
    "city_kana": "ジョウエツシ",
    "town": "三和区上広田",
    "town_kana": "サンワクカミヒロタ",
    "street": null,
    "office_name": null,
    "office_name_kana": null
  },
  "0274": {
    "zip_code": "9420274",
    "prefecture": "新潟県",
    "prefecture_kana": "ニイガタケン",
    "prefecture_code": "15",
    "city": "上越市",
    "city_kana": "ジョウエツシ",
    "town": "三和区下広田",
    "town_kana": "サンワクシモヒロタ",
    "street": null,
    "office_name": null,
    "office_name_kana": null
  },
  "0275": {
    "zip_code": "9420275",
    "prefecture": "新潟県",
    "prefecture_kana": "ニイガタケン",
    "prefecture_code": "15",
    "city": "上越市",
    "city_kana": "ジョウエツシ",
    "town": "三和区岡木",
    "town_kana": "サンワクオカギ",
    "street": null,
    "office_name": null,
    "office_name_kana": null
  },
  "0276": {
    "zip_code": "9420276",
    "prefecture": "新潟県",
    "prefecture_kana": "ニイガタケン",
    "prefecture_code": "15",
    "city": "上越市",
    "city_kana": "ジョウエツシ",
    "town": "三和区米子",
    "town_kana": "サンワクコメコ",
    "street": null,
    "office_name": null,
    "office_name_kana": null
  },
  "0277": {
    "zip_code": "9420277",
    "prefecture": "新潟県",
    "prefecture_kana": "ニイガタケン",
    "prefecture_code": "15",
    "city": "上越市",
    "city_kana": "ジョウエツシ",
    "town": "三和区広井",
    "town_kana": "サンワクヒロイ",
    "street": null,
    "office_name": null,
    "office_name_kana": null
  },
  "0301": {
    "zip_code": "9420301",
    "prefecture": "新潟県",
    "prefecture_kana": "ニイガタケン",
    "prefecture_code": "15",
    "city": "上越市",
    "city_kana": "ジョウエツシ",
    "town": "浦川原区上猪子田",
    "town_kana": "ウラガワラクカミイノコダ",
    "street": null,
    "office_name": null,
    "office_name_kana": null
  },
  "0302": {
    "zip_code": "9420302",
    "prefecture": "新潟県",
    "prefecture_kana": "ニイガタケン",
    "prefecture_code": "15",
    "city": "上越市",
    "city_kana": "ジョウエツシ",
    "town": "浦川原区小谷島",
    "town_kana": "ウラガワラクコヤジマ",
    "street": null,
    "office_name": null,
    "office_name_kana": null
  },
  "0303": {
    "zip_code": "9420303",
    "prefecture": "新潟県",
    "prefecture_kana": "ニイガタケン",
    "prefecture_code": "15",
    "city": "上越市",
    "city_kana": "ジョウエツシ",
    "town": "浦川原区下猪子田",
    "town_kana": "ウラガワラクシモイノコダ",
    "street": null,
    "office_name": null,
    "office_name_kana": null
  },
  "0304": {
    "zip_code": "9420304",
    "prefecture": "新潟県",
    "prefecture_kana": "ニイガタケン",
    "prefecture_code": "15",
    "city": "上越市",
    "city_kana": "ジョウエツシ",
    "town": "浦川原区中猪子田",
    "town_kana": "ウラガワラクナカイノコダ",
    "street": null,
    "office_name": null,
    "office_name_kana": null
  },
  "0305": {
    "zip_code": "9420305",
    "prefecture": "新潟県",
    "prefecture_kana": "ニイガタケン",
    "prefecture_code": "15",
    "city": "上越市",
    "city_kana": "ジョウエツシ",
    "town": "浦川原区虫川",
    "town_kana": "ウラガワラクムシガワ",
    "street": null,
    "office_name": null,
    "office_name_kana": null
  },
  "0306": {
    "zip_code": "9420306",
    "prefecture": "新潟県",
    "prefecture_kana": "ニイガタケン",
    "prefecture_code": "15",
    "city": "上越市",
    "city_kana": "ジョウエツシ",
    "town": "浦川原区有島",
    "town_kana": "ウラガワラクアリシマ",
    "street": null,
    "office_name": null,
    "office_name_kana": null
  },
  "0307": {
    "zip_code": "9420307",
    "prefecture": "新潟県",
    "prefecture_kana": "ニイガタケン",
    "prefecture_code": "15",
    "city": "上越市",
    "city_kana": "ジョウエツシ",
    "town": "浦川原区釜淵",
    "town_kana": "ウラガワラクカマブチ",
    "street": null,
    "office_name": null,
    "office_name_kana": null
  },
  "0308": {
    "zip_code": "9420308",
    "prefecture": "新潟県",
    "prefecture_kana": "ニイガタケン",
    "prefecture_code": "15",
    "city": "上越市",
    "city_kana": "ジョウエツシ",
    "town": "浦川原区小蒲生田",
    "town_kana": "ウラガワラクコガモダ",
    "street": null,
    "office_name": null,
    "office_name_kana": null
  },
  "0311": {
    "zip_code": "9420311",
    "prefecture": "新潟県",
    "prefecture_kana": "ニイガタケン",
    "prefecture_code": "15",
    "city": "上越市",
    "city_kana": "ジョウエツシ",
    "town": "浦川原区上柿野",
    "town_kana": "ウラガワラクカミガキノ",
    "street": null,
    "office_name": null,
    "office_name_kana": null
  },
  "0312": {
    "zip_code": "9420312",
    "prefecture": "新潟県",
    "prefecture_kana": "ニイガタケン",
    "prefecture_code": "15",
    "city": "上越市",
    "city_kana": "ジョウエツシ",
    "town": "浦川原区大栃山",
    "town_kana": "ウラガワラクオオトチヤマ",
    "street": null,
    "office_name": null,
    "office_name_kana": null
  },
  "0313": {
    "zip_code": "9420313",
    "prefecture": "新潟県",
    "prefecture_kana": "ニイガタケン",
    "prefecture_code": "15",
    "city": "上越市",
    "city_kana": "ジョウエツシ",
    "town": "浦川原区下柿野",
    "town_kana": "ウラガワラクシモガキノ",
    "street": null,
    "office_name": null,
    "office_name_kana": null
  },
  "0314": {
    "zip_code": "9420314",
    "prefecture": "新潟県",
    "prefecture_kana": "ニイガタケン",
    "prefecture_code": "15",
    "city": "上越市",
    "city_kana": "ジョウエツシ",
    "town": "浦川原区顕聖寺",
    "town_kana": "ウラガワラクケンショウジ",
    "street": null,
    "office_name": null,
    "office_name_kana": null
  },
  "0315": {
    "zip_code": "9420315",
    "prefecture": "新潟県",
    "prefecture_kana": "ニイガタケン",
    "prefecture_code": "15",
    "city": "上越市",
    "city_kana": "ジョウエツシ",
    "town": "浦川原区横川",
    "town_kana": "ウラガワラクヨコカワ",
    "street": null,
    "office_name": null,
    "office_name_kana": null
  },
  "0316": {
    "zip_code": "9420316",
    "prefecture": "新潟県",
    "prefecture_kana": "ニイガタケン",
    "prefecture_code": "15",
    "city": "上越市",
    "city_kana": "ジョウエツシ",
    "town": "浦川原区六日町",
    "town_kana": "ウラガワラクムイカマチ",
    "street": null,
    "office_name": null,
    "office_name_kana": null
  },
  "0317": {
    "zip_code": "9420317",
    "prefecture": "新潟県",
    "prefecture_kana": "ニイガタケン",
    "prefecture_code": "15",
    "city": "上越市",
    "city_kana": "ジョウエツシ",
    "town": "浦川原区杉坪",
    "town_kana": "ウラガワラクスギツボ",
    "street": null,
    "office_name": null,
    "office_name_kana": null
  },
  "0318": {
    "zip_code": "9420318",
    "prefecture": "新潟県",
    "prefecture_kana": "ニイガタケン",
    "prefecture_code": "15",
    "city": "上越市",
    "city_kana": "ジョウエツシ",
    "town": "浦川原区上岡",
    "town_kana": "ウラガワラクカミオカ",
    "street": null,
    "office_name": null,
    "office_name_kana": null
  },
  "0319": {
    "zip_code": "9420319",
    "prefecture": "新潟県",
    "prefecture_kana": "ニイガタケン",
    "prefecture_code": "15",
    "city": "上越市",
    "city_kana": "ジョウエツシ",
    "town": "浦川原区東俣",
    "town_kana": "ウラガワラクヒガシマタ",
    "street": null,
    "office_name": null,
    "office_name_kana": null
  },
  "0321": {
    "zip_code": "9420321",
    "prefecture": "新潟県",
    "prefecture_kana": "ニイガタケン",
    "prefecture_code": "15",
    "city": "上越市",
    "city_kana": "ジョウエツシ",
    "town": "浦川原区熊沢",
    "town_kana": "ウラガワラククマザワ",
    "street": null,
    "office_name": null,
    "office_name_kana": null
  },
  "0322": {
    "zip_code": "9420322",
    "prefecture": "新潟県",
    "prefecture_kana": "ニイガタケン",
    "prefecture_code": "15",
    "city": "上越市",
    "city_kana": "ジョウエツシ",
    "town": "浦川原区横住",
    "town_kana": "ウラガワラクヨコズミ",
    "street": null,
    "office_name": null,
    "office_name_kana": null
  },
  "0323": {
    "zip_code": "9420323",
    "prefecture": "新潟県",
    "prefecture_kana": "ニイガタケン",
    "prefecture_code": "15",
    "city": "上越市",
    "city_kana": "ジョウエツシ",
    "town": "浦川原区真光寺",
    "town_kana": "ウラガワラクシンコウジ",
    "street": null,
    "office_name": null,
    "office_name_kana": null
  },
  "0324": {
    "zip_code": "9420324",
    "prefecture": "新潟県",
    "prefecture_kana": "ニイガタケン",
    "prefecture_code": "15",
    "city": "上越市",
    "city_kana": "ジョウエツシ",
    "town": "浦川原区谷",
    "town_kana": "ウラガワラクタニ",
    "street": null,
    "office_name": null,
    "office_name_kana": null
  },
  "0325": {
    "zip_code": "9420325",
    "prefecture": "新潟県",
    "prefecture_kana": "ニイガタケン",
    "prefecture_code": "15",
    "city": "上越市",
    "city_kana": "ジョウエツシ",
    "town": "浦川原区坪野",
    "town_kana": "ウラガワラクツボノ",
    "street": null,
    "office_name": null,
    "office_name_kana": null
  },
  "0326": {
    "zip_code": "9420326",
    "prefecture": "新潟県",
    "prefecture_kana": "ニイガタケン",
    "prefecture_code": "15",
    "city": "上越市",
    "city_kana": "ジョウエツシ",
    "town": "浦川原区法定寺",
    "town_kana": "ウラガワラクホウジョウジ",
    "street": null,
    "office_name": null,
    "office_name_kana": null
  },
  "0327": {
    "zip_code": "9420327",
    "prefecture": "新潟県",
    "prefecture_kana": "ニイガタケン",
    "prefecture_code": "15",
    "city": "上越市",
    "city_kana": "ジョウエツシ",
    "town": "浦川原区菱田",
    "town_kana": "ウラガワラクヒシダ",
    "street": null,
    "office_name": null,
    "office_name_kana": null
  },
  "0331": {
    "zip_code": "9420331",
    "prefecture": "新潟県",
    "prefecture_kana": "ニイガタケン",
    "prefecture_code": "15",
    "city": "上越市",
    "city_kana": "ジョウエツシ",
    "town": "浦川原区長走",
    "town_kana": "ウラガワラクナガハシリ",
    "street": null,
    "office_name": null,
    "office_name_kana": null
  },
  "0332": {
    "zip_code": "9420332",
    "prefecture": "新潟県",
    "prefecture_kana": "ニイガタケン",
    "prefecture_code": "15",
    "city": "上越市",
    "city_kana": "ジョウエツシ",
    "town": "浦川原区岩室",
    "town_kana": "ウラガワラクイワムロ",
    "street": null,
    "office_name": null,
    "office_name_kana": null
  },
  "0333": {
    "zip_code": "9420333",
    "prefecture": "新潟県",
    "prefecture_kana": "ニイガタケン",
    "prefecture_code": "15",
    "city": "上越市",
    "city_kana": "ジョウエツシ",
    "town": "浦川原区桜島",
    "town_kana": "ウラガワラクサクラシマ",
    "street": null,
    "office_name": null,
    "office_name_kana": null
  },
  "0334": {
    "zip_code": "9420334",
    "prefecture": "新潟県",
    "prefecture_kana": "ニイガタケン",
    "prefecture_code": "15",
    "city": "上越市",
    "city_kana": "ジョウエツシ",
    "town": "浦川原区山本",
    "town_kana": "ウラガワラクヤマモト",
    "street": null,
    "office_name": null,
    "office_name_kana": null
  },
  "0335": {
    "zip_code": "9420335",
    "prefecture": "新潟県",
    "prefecture_kana": "ニイガタケン",
    "prefecture_code": "15",
    "city": "上越市",
    "city_kana": "ジョウエツシ",
    "town": "浦川原区今熊",
    "town_kana": "ウラガワラクイマグマ",
    "street": null,
    "office_name": null,
    "office_name_kana": null
  },
  "0336": {
    "zip_code": "9420336",
    "prefecture": "新潟県",
    "prefecture_kana": "ニイガタケン",
    "prefecture_code": "15",
    "city": "上越市",
    "city_kana": "ジョウエツシ",
    "town": "浦川原区飯室",
    "town_kana": "ウラガワラクイイムロ",
    "street": null,
    "office_name": null,
    "office_name_kana": null
  },
  "0337": {
    "zip_code": "9420337",
    "prefecture": "新潟県",
    "prefecture_kana": "ニイガタケン",
    "prefecture_code": "15",
    "city": "上越市",
    "city_kana": "ジョウエツシ",
    "town": "浦川原区山印内",
    "town_kana": "ウラガワラクヤマインナイ",
    "street": null,
    "office_name": null,
    "office_name_kana": null
  },
  "0338": {
    "zip_code": "9420338",
    "prefecture": "新潟県",
    "prefecture_kana": "ニイガタケン",
    "prefecture_code": "15",
    "city": "上越市",
    "city_kana": "ジョウエツシ",
    "town": "浦川原区印内",
    "town_kana": "ウラガワラクインナイ",
    "street": null,
    "office_name": null,
    "office_name_kana": null
  },
  "0339": {
    "zip_code": "9420339",
    "prefecture": "新潟県",
    "prefecture_kana": "ニイガタケン",
    "prefecture_code": "15",
    "city": "上越市",
    "city_kana": "ジョウエツシ",
    "town": "浦川原区日向",
    "town_kana": "ウラガワラクヒナタ",
    "street": null,
    "office_name": null,
    "office_name_kana": null
  },
  "0392": {
    "zip_code": "9420392",
    "prefecture": "新潟県",
    "prefecture_kana": "ニイガタケン",
    "prefecture_code": "15",
    "city": "上越市",
    "city_kana": "ジョウエツシ",
    "town": "浦川原区釜淵",
    "town_kana": "ウラガワラクカマブチ",
    "street": "５",
    "office_name": "浦川原地区公民館",
    "office_name_kana": "ウラガワラチクコウミンカン"
  },
  "0393": {
    "zip_code": "9420393",
    "prefecture": "新潟県",
    "prefecture_kana": "ニイガタケン",
    "prefecture_code": "15",
    "city": "上越市",
    "city_kana": "ジョウエツシ",
    "town": "浦川原区釜淵",
    "town_kana": "ウラガワラクカマブチ",
    "street": "５",
    "office_name": "上越市役所　浦川原区総合事務所",
    "office_name_kana": "ジヨウエツシヤクシヨ ウラガワラクソウゴウジムシヨ"
  },
  "0398": {
    "zip_code": "9420398",
    "prefecture": "新潟県",
    "prefecture_kana": "ニイガタケン",
    "prefecture_code": "15",
    "city": "上越市",
    "city_kana": "ジョウエツシ",
    "town": "浦川原区顕聖寺",
    "town_kana": "ウラガワラクケンショウジ",
    "street": "２４２−２",
    "office_name": "いきいきセンター",
    "office_name_kana": "イキイキセンタ-"
  },
  "0401": {
    "zip_code": "9420401",
    "prefecture": "新潟県",
    "prefecture_kana": "ニイガタケン",
    "prefecture_code": "15",
    "city": "上越市",
    "city_kana": "ジョウエツシ",
    "town": "安塚区細野",
    "town_kana": "ヤスヅカクホソノ",
    "street": null,
    "office_name": null,
    "office_name_kana": null
  },
  "0402": {
    "zip_code": "9420402",
    "prefecture": "新潟県",
    "prefecture_kana": "ニイガタケン",
    "prefecture_code": "15",
    "city": "上越市",
    "city_kana": "ジョウエツシ",
    "town": "安塚区坊金",
    "town_kana": "ヤスヅカクボウガネ",
    "street": null,
    "office_name": null,
    "office_name_kana": null
  },
  "0403": {
    "zip_code": "9420403",
    "prefecture": "新潟県",
    "prefecture_kana": "ニイガタケン",
    "prefecture_code": "15",
    "city": "上越市",
    "city_kana": "ジョウエツシ",
    "town": "安塚区本郷",
    "town_kana": "ヤスヅカクホンゴウ",
    "street": null,
    "office_name": null,
    "office_name_kana": null
  },
  "0404": {
    "zip_code": "9420404",
    "prefecture": "新潟県",
    "prefecture_kana": "ニイガタケン",
    "prefecture_code": "15",
    "city": "上越市",
    "city_kana": "ジョウエツシ",
    "town": "安塚区石橋",
    "town_kana": "ヤスヅカクイシバシ",
    "street": null,
    "office_name": null,
    "office_name_kana": null
  },
  "0405": {
    "zip_code": "9420405",
    "prefecture": "新潟県",
    "prefecture_kana": "ニイガタケン",
    "prefecture_code": "15",
    "city": "上越市",
    "city_kana": "ジョウエツシ",
    "town": "安塚区上方",
    "town_kana": "ヤスヅカクカミガタ",
    "street": null,
    "office_name": null,
    "office_name_kana": null
  },
  "0411": {
    "zip_code": "9420411",
    "prefecture": "新潟県",
    "prefecture_kana": "ニイガタケン",
    "prefecture_code": "15",
    "city": "上越市",
    "city_kana": "ジョウエツシ",
    "town": "安塚区安塚",
    "town_kana": "ヤスヅカクヤスヅカ",
    "street": null,
    "office_name": null,
    "office_name_kana": null
  },
  "0412": {
    "zip_code": "9420412",
    "prefecture": "新潟県",
    "prefecture_kana": "ニイガタケン",
    "prefecture_code": "15",
    "city": "上越市",
    "city_kana": "ジョウエツシ",
    "town": "安塚区牧野",
    "town_kana": "ヤスヅカクマキノ",
    "street": null,
    "office_name": null,
    "office_name_kana": null
  },
  "0413": {
    "zip_code": "9420413",
    "prefecture": "新潟県",
    "prefecture_kana": "ニイガタケン",
    "prefecture_code": "15",
    "city": "上越市",
    "city_kana": "ジョウエツシ",
    "town": "安塚区板尾",
    "town_kana": "ヤスヅカクイタオ",
    "street": null,
    "office_name": null,
    "office_name_kana": null
  },
  "0414": {
    "zip_code": "9420414",
    "prefecture": "新潟県",
    "prefecture_kana": "ニイガタケン",
    "prefecture_code": "15",
    "city": "上越市",
    "city_kana": "ジョウエツシ",
    "town": "安塚区袖山",
    "town_kana": "ヤスヅカクソデヤマ",
    "street": null,
    "office_name": null,
    "office_name_kana": null
  },
  "0415": {
    "zip_code": "9420415",
    "prefecture": "新潟県",
    "prefecture_kana": "ニイガタケン",
    "prefecture_code": "15",
    "city": "上越市",
    "city_kana": "ジョウエツシ",
    "town": "安塚区松崎",
    "town_kana": "ヤスヅカクマツザキ",
    "street": null,
    "office_name": null,
    "office_name_kana": null
  },
  "0492": {
    "zip_code": "9420492",
    "prefecture": "新潟県",
    "prefecture_kana": "ニイガタケン",
    "prefecture_code": "15",
    "city": "上越市",
    "city_kana": "ジョウエツシ",
    "town": "安塚区安塚",
    "town_kana": "ヤスヅカクヤスヅカ",
    "street": "７２２−３",
    "office_name": "上越市役所　安塚区総合事務所",
    "office_name_kana": "ジヨウエツシヤクシヨ ヤスヅカクソウゴウジムシヨ"
  },
  "0521": {
    "zip_code": "9420521",
    "prefecture": "新潟県",
    "prefecture_kana": "ニイガタケン",
    "prefecture_code": "15",
    "city": "上越市",
    "city_kana": "ジョウエツシ",
    "town": "安塚区行野",
    "town_kana": "ヤスヅカクユクノ",
    "street": null,
    "office_name": null,
    "office_name_kana": null
  },
  "0522": {
    "zip_code": "9420522",
    "prefecture": "新潟県",
    "prefecture_kana": "ニイガタケン",
    "prefecture_code": "15",
    "city": "上越市",
    "city_kana": "ジョウエツシ",
    "town": "安塚区大原",
    "town_kana": "ヤスヅカクオオハラ",
    "street": null,
    "office_name": null,
    "office_name_kana": null
  },
  "0523": {
    "zip_code": "9420523",
    "prefecture": "新潟県",
    "prefecture_kana": "ニイガタケン",
    "prefecture_code": "15",
    "city": "上越市",
    "city_kana": "ジョウエツシ",
    "town": "安塚区戸沢",
    "town_kana": "ヤスヅカクトザワ",
    "street": null,
    "office_name": null,
    "office_name_kana": null
  },
  "0524": {
    "zip_code": "9420524",
    "prefecture": "新潟県",
    "prefecture_kana": "ニイガタケン",
    "prefecture_code": "15",
    "city": "上越市",
    "city_kana": "ジョウエツシ",
    "town": "安塚区芹田",
    "town_kana": "ヤスヅカクセリダ",
    "street": null,
    "office_name": null,
    "office_name_kana": null
  },
  "0525": {
    "zip_code": "9420525",
    "prefecture": "新潟県",
    "prefecture_kana": "ニイガタケン",
    "prefecture_code": "15",
    "city": "上越市",
    "city_kana": "ジョウエツシ",
    "town": "安塚区和田",
    "town_kana": "ヤスヅカクワダ",
    "street": null,
    "office_name": null,
    "office_name_kana": null
  },
  "0531": {
    "zip_code": "9420531",
    "prefecture": "新潟県",
    "prefecture_kana": "ニイガタケン",
    "prefecture_code": "15",
    "city": "上越市",
    "city_kana": "ジョウエツシ",
    "town": "安塚区樽田",
    "town_kana": "ヤスヅカクタルダ",
    "street": null,
    "office_name": null,
    "office_name_kana": null
  },
  "0532": {
    "zip_code": "9420532",
    "prefecture": "新潟県",
    "prefecture_kana": "ニイガタケン",
    "prefecture_code": "15",
    "city": "上越市",
    "city_kana": "ジョウエツシ",
    "town": "安塚区下船倉",
    "town_kana": "ヤスヅカクシモフナクラ",
    "street": null,
    "office_name": null,
    "office_name_kana": null
  },
  "0533": {
    "zip_code": "9420533",
    "prefecture": "新潟県",
    "prefecture_kana": "ニイガタケン",
    "prefecture_code": "15",
    "city": "上越市",
    "city_kana": "ジョウエツシ",
    "town": "安塚区上船倉",
    "town_kana": "ヤスヅカクカミフナクラ",
    "street": null,
    "office_name": null,
    "office_name_kana": null
  },
  "0534": {
    "zip_code": "9420534",
    "prefecture": "新潟県",
    "prefecture_kana": "ニイガタケン",
    "prefecture_code": "15",
    "city": "上越市",
    "city_kana": "ジョウエツシ",
    "town": "安塚区須川",
    "town_kana": "ヤスヅカクスガワ",
    "street": null,
    "office_name": null,
    "office_name_kana": null
  },
  "0535": {
    "zip_code": "9420535",
    "prefecture": "新潟県",
    "prefecture_kana": "ニイガタケン",
    "prefecture_code": "15",
    "city": "上越市",
    "city_kana": "ジョウエツシ",
    "town": "安塚区真荻平",
    "town_kana": "ヤスヅカクモオギタイラ",
    "street": null,
    "office_name": null,
    "office_name_kana": null
  },
  "0536": {
    "zip_code": "9420536",
    "prefecture": "新潟県",
    "prefecture_kana": "ニイガタケン",
    "prefecture_code": "15",
    "city": "上越市",
    "city_kana": "ジョウエツシ",
    "town": "安塚区信濃坂",
    "town_kana": "ヤスヅカクシナノザカ",
    "street": null,
    "office_name": null,
    "office_name_kana": null
  },
  "0537": {
    "zip_code": "9420537",
    "prefecture": "新潟県",
    "prefecture_kana": "ニイガタケン",
    "prefecture_code": "15",
    "city": "上越市",
    "city_kana": "ジョウエツシ",
    "town": "安塚区二本木",
    "town_kana": "ヤスヅカクニホンギ",
    "street": null,
    "office_name": null,
    "office_name_kana": null
  },
  "0538": {
    "zip_code": "9420538",
    "prefecture": "新潟県",
    "prefecture_kana": "ニイガタケン",
    "prefecture_code": "15",
    "city": "上越市",
    "city_kana": "ジョウエツシ",
    "town": "安塚区高沢",
    "town_kana": "ヤスヅカクタカサワ",
    "street": null,
    "office_name": null,
    "office_name_kana": null
  },
  "0539": {
    "zip_code": "9420539",
    "prefecture": "新潟県",
    "prefecture_kana": "ニイガタケン",
    "prefecture_code": "15",
    "city": "上越市",
    "city_kana": "ジョウエツシ",
    "town": "安塚区円平坊",
    "town_kana": "ヤスヅカクエンタイラボウ",
    "street": null,
    "office_name": null,
    "office_name_kana": null
  },
  "0541": {
    "zip_code": "9420541",
    "prefecture": "新潟県",
    "prefecture_kana": "ニイガタケン",
    "prefecture_code": "15",
    "city": "上越市",
    "city_kana": "ジョウエツシ",
    "town": "安塚区小黒",
    "town_kana": "ヤスヅカクコグロ",
    "street": null,
    "office_name": null,
    "office_name_kana": null
  },
  "0542": {
    "zip_code": "9420542",
    "prefecture": "新潟県",
    "prefecture_kana": "ニイガタケン",
    "prefecture_code": "15",
    "city": "上越市",
    "city_kana": "ジョウエツシ",
    "town": "安塚区切越",
    "town_kana": "ヤスヅカクキリコシ",
    "street": null,
    "office_name": null,
    "office_name_kana": null
  },
  "0543": {
    "zip_code": "9420543",
    "prefecture": "新潟県",
    "prefecture_kana": "ニイガタケン",
    "prefecture_code": "15",
    "city": "上越市",
    "city_kana": "ジョウエツシ",
    "town": "安塚区菅沼",
    "town_kana": "ヤスヅカクスガヌマ",
    "street": null,
    "office_name": null,
    "office_name_kana": null
  },
  "0544": {
    "zip_code": "9420544",
    "prefecture": "新潟県",
    "prefecture_kana": "ニイガタケン",
    "prefecture_code": "15",
    "city": "上越市",
    "city_kana": "ジョウエツシ",
    "town": "安塚区朴ノ木",
    "town_kana": "ヤスヅカクホオノキ",
    "street": null,
    "office_name": null,
    "office_name_kana": null
  },
  "1101": {
    "zip_code": "9421101",
    "prefecture": "新潟県",
    "prefecture_kana": "ニイガタケン",
    "prefecture_code": "15",
    "city": "上越市",
    "city_kana": "ジョウエツシ",
    "town": "大島区嶺",
    "town_kana": "オオシマクミネ",
    "street": null,
    "office_name": null,
    "office_name_kana": null
  },
  "1102": {
    "zip_code": "9421102",
    "prefecture": "新潟県",
    "prefecture_kana": "ニイガタケン",
    "prefecture_code": "15",
    "city": "上越市",
    "city_kana": "ジョウエツシ",
    "town": "大島区田麦",
    "town_kana": "オオシマクタムギ",
    "street": null,
    "office_name": null,
    "office_name_kana": null
  },
  "1103": {
    "zip_code": "9421103",
    "prefecture": "新潟県",
    "prefecture_kana": "ニイガタケン",
    "prefecture_code": "15",
    "city": "上越市",
    "city_kana": "ジョウエツシ",
    "town": "大島区大平",
    "town_kana": "オオシマクオオダイラ",
    "street": null,
    "office_name": null,
    "office_name_kana": null
  },
  "1104": {
    "zip_code": "9421104",
    "prefecture": "新潟県",
    "prefecture_kana": "ニイガタケン",
    "prefecture_code": "15",
    "city": "上越市",
    "city_kana": "ジョウエツシ",
    "town": "大島区下達",
    "town_kana": "オオシマクシモタテ",
    "street": null,
    "office_name": null,
    "office_name_kana": null
  },
  "1105": {
    "zip_code": "9421105",
    "prefecture": "新潟県",
    "prefecture_kana": "ニイガタケン",
    "prefecture_code": "15",
    "city": "上越市",
    "city_kana": "ジョウエツシ",
    "town": "大島区上達",
    "town_kana": "オオシマクカミタテ",
    "street": null,
    "office_name": null,
    "office_name_kana": null
  },
  "1106": {
    "zip_code": "9421106",
    "prefecture": "新潟県",
    "prefecture_kana": "ニイガタケン",
    "prefecture_code": "15",
    "city": "上越市",
    "city_kana": "ジョウエツシ",
    "town": "大島区岡",
    "town_kana": "オオシマクオカ",
    "street": null,
    "office_name": null,
    "office_name_kana": null
  },
  "1107": {
    "zip_code": "9421107",
    "prefecture": "新潟県",
    "prefecture_kana": "ニイガタケン",
    "prefecture_code": "15",
    "city": "上越市",
    "city_kana": "ジョウエツシ",
    "town": "大島区板山",
    "town_kana": "オオシマクイタヤマ",
    "street": null,
    "office_name": null,
    "office_name_kana": null
  },
  "1211": {
    "zip_code": "9421211",
    "prefecture": "新潟県",
    "prefecture_kana": "ニイガタケン",
    "prefecture_code": "15",
    "city": "上越市",
    "city_kana": "ジョウエツシ",
    "town": "大島区大島",
    "town_kana": "オオシマクオオシマ",
    "street": null,
    "office_name": null,
    "office_name_kana": null
  },
  "1212": {
    "zip_code": "9421212",
    "prefecture": "新潟県",
    "prefecture_kana": "ニイガタケン",
    "prefecture_code": "15",
    "city": "上越市",
    "city_kana": "ジョウエツシ",
    "town": "大島区中野",
    "town_kana": "オオシマクナカノ",
    "street": null,
    "office_name": null,
    "office_name_kana": null
  },
  "1213": {
    "zip_code": "9421213",
    "prefecture": "新潟県",
    "prefecture_kana": "ニイガタケン",
    "prefecture_code": "15",
    "city": "上越市",
    "city_kana": "ジョウエツシ",
    "town": "大島区棚岡",
    "town_kana": "オオシマクタナオカ",
    "street": null,
    "office_name": null,
    "office_name_kana": null
  },
  "1214": {
    "zip_code": "9421214",
    "prefecture": "新潟県",
    "prefecture_kana": "ニイガタケン",
    "prefecture_code": "15",
    "city": "上越市",
    "city_kana": "ジョウエツシ",
    "town": "大島区仁上",
    "town_kana": "オオシマクニガミ",
    "street": null,
    "office_name": null,
    "office_name_kana": null
  },
  "1215": {
    "zip_code": "9421215",
    "prefecture": "新潟県",
    "prefecture_kana": "ニイガタケン",
    "prefecture_code": "15",
    "city": "上越市",
    "city_kana": "ジョウエツシ",
    "town": "大島区牛ケ鼻",
    "town_kana": "オオシマクウシガハナ",
    "street": null,
    "office_name": null,
    "office_name_kana": null
  },
  "1216": {
    "zip_code": "9421216",
    "prefecture": "新潟県",
    "prefecture_kana": "ニイガタケン",
    "prefecture_code": "15",
    "city": "上越市",
    "city_kana": "ジョウエツシ",
    "town": "大島区菖蒲",
    "town_kana": "オオシマクショウブ",
    "street": null,
    "office_name": null,
    "office_name_kana": null
  },
  "1341": {
    "zip_code": "9421341",
    "prefecture": "新潟県",
    "prefecture_kana": "ニイガタケン",
    "prefecture_code": "15",
    "city": "十日町市",
    "city_kana": "トオカマチシ",
    "town": "松之山黒倉",
    "town_kana": "マツノヤマクロクラ",
    "street": null,
    "office_name": null,
    "office_name_kana": null
  },
  "1342": {
    "zip_code": "9421342",
    "prefecture": "新潟県",
    "prefecture_kana": "ニイガタケン",
    "prefecture_code": "15",
    "city": "十日町市",
    "city_kana": "トオカマチシ",
    "town": "浦田",
    "town_kana": "ウラダ",
    "street": null,
    "office_name": null,
    "office_name_kana": null
  },
  "1351": {
    "zip_code": "9421351",
    "prefecture": "新潟県",
    "prefecture_kana": "ニイガタケン",
    "prefecture_code": "15",
    "city": "十日町市",
    "city_kana": "トオカマチシ",
    "town": "峠",
    "town_kana": "トウゲ",
    "street": null,
    "office_name": null,
    "office_name_kana": null
  },
  "1352": {
    "zip_code": "9421352",
    "prefecture": "新潟県",
    "prefecture_kana": "ニイガタケン",
    "prefecture_code": "15",
    "city": "十日町市",
    "city_kana": "トオカマチシ",
    "town": "木和田原",
    "town_kana": "キワダハラ",
    "street": null,
    "office_name": null,
    "office_name_kana": null
  },
  "1353": {
    "zip_code": "9421353",
    "prefecture": "新潟県",
    "prefecture_kana": "ニイガタケン",
    "prefecture_code": "15",
    "city": "十日町市",
    "city_kana": "トオカマチシ",
    "town": "室野",
    "town_kana": "ムロノ",
    "street": null,
    "office_name": null,
    "office_name_kana": null
  },
  "1354": {
    "zip_code": "9421354",
    "prefecture": "新潟県",
    "prefecture_kana": "ニイガタケン",
    "prefecture_code": "15",
    "city": "十日町市",
    "city_kana": "トオカマチシ",
    "town": "福島",
    "town_kana": "フクジマ",
    "street": null,
    "office_name": null,
    "office_name_kana": null
  },
  "1355": {
    "zip_code": "9421355",
    "prefecture": "新潟県",
    "prefecture_kana": "ニイガタケン",
    "prefecture_code": "15",
    "city": "十日町市",
    "city_kana": "トオカマチシ",
    "town": "奈良立",
    "town_kana": "ナラダテ",
    "street": null,
    "office_name": null,
    "office_name_kana": null
  },
  "1356": {
    "zip_code": "9421356",
    "prefecture": "新潟県",
    "prefecture_kana": "ニイガタケン",
    "prefecture_code": "15",
    "city": "十日町市",
    "city_kana": "トオカマチシ",
    "town": "竹所",
    "town_kana": "タケトコロ",
    "street": null,
    "office_name": null,
    "office_name_kana": null
  },
  "1401": {
    "zip_code": "9421401",
    "prefecture": "新潟県",
    "prefecture_kana": "ニイガタケン",
    "prefecture_code": "15",
    "city": "十日町市",
    "city_kana": "トオカマチシ",
    "town": "松之山水梨",
    "town_kana": "マツノヤマミズナシ",
    "street": null,
    "office_name": null,
    "office_name_kana": null
  },
  "1402": {
    "zip_code": "9421402",
    "prefecture": "新潟県",
    "prefecture_kana": "ニイガタケン",
    "prefecture_code": "15",
    "city": "十日町市",
    "city_kana": "トオカマチシ",
    "town": "松之山小谷",
    "town_kana": "マツノヤマコタニ",
    "street": null,
    "office_name": null,
    "office_name_kana": null
  },
  "1403": {
    "zip_code": "9421403",
    "prefecture": "新潟県",
    "prefecture_kana": "ニイガタケン",
    "prefecture_code": "15",
    "city": "十日町市",
    "city_kana": "トオカマチシ",
    "town": "松之山大荒戸",
    "town_kana": "マツノヤマオオアラト",
    "street": null,
    "office_name": null,
    "office_name_kana": null
  },
  "1404": {
    "zip_code": "9421404",
    "prefecture": "新潟県",
    "prefecture_kana": "ニイガタケン",
    "prefecture_code": "15",
    "city": "十日町市",
    "city_kana": "トオカマチシ",
    "town": "松之山新山",
    "town_kana": "マツノヤマアラヤマ",
    "street": null,
    "office_name": null,
    "office_name_kana": null
  },
  "1405": {
    "zip_code": "9421405",
    "prefecture": "新潟県",
    "prefecture_kana": "ニイガタケン",
    "prefecture_code": "15",
    "city": "十日町市",
    "city_kana": "トオカマチシ",
    "town": "松之山光間",
    "town_kana": "マツノヤマヒカルマ",
    "street": null,
    "office_name": null,
    "office_name_kana": null
  },
  "1406": {
    "zip_code": "9421406",
    "prefecture": "新潟県",
    "prefecture_kana": "ニイガタケン",
    "prefecture_code": "15",
    "city": "十日町市",
    "city_kana": "トオカマチシ",
    "town": "松之山",
    "town_kana": "マツノヤマ",
    "street": null,
    "office_name": null,
    "office_name_kana": null
  },
  "1411": {
    "zip_code": "9421411",
    "prefecture": "新潟県",
    "prefecture_kana": "ニイガタケン",
    "prefecture_code": "15",
    "city": "十日町市",
    "city_kana": "トオカマチシ",
    "town": "松之山松口",
    "town_kana": "マツノヤママツグチ",
    "street": null,
    "office_name": null,
    "office_name_kana": null
  },
  "1412": {
    "zip_code": "9421412",
    "prefecture": "新潟県",
    "prefecture_kana": "ニイガタケン",
    "prefecture_code": "15",
    "city": "十日町市",
    "city_kana": "トオカマチシ",
    "town": "松之山三桶",
    "town_kana": "マツノヤマミオケ",
    "street": null,
    "office_name": null,
    "office_name_kana": null
  },
  "1413": {
    "zip_code": "9421413",
    "prefecture": "新潟県",
    "prefecture_kana": "ニイガタケン",
    "prefecture_code": "15",
    "city": "十日町市",
    "city_kana": "トオカマチシ",
    "town": "松之山沢口",
    "town_kana": "マツノヤマサワグチ",
    "street": null,
    "office_name": null,
    "office_name_kana": null
  },
  "1414": {
    "zip_code": "9421414",
    "prefecture": "新潟県",
    "prefecture_kana": "ニイガタケン",
    "prefecture_code": "15",
    "city": "十日町市",
    "city_kana": "トオカマチシ",
    "town": "松之山古戸",
    "town_kana": "マツノヤマフルト",
    "street": null,
    "office_name": null,
    "office_name_kana": null
  },
  "1415": {
    "zip_code": "9421415",
    "prefecture": "新潟県",
    "prefecture_kana": "ニイガタケン",
    "prefecture_code": "15",
    "city": "十日町市",
    "city_kana": "トオカマチシ",
    "town": "松之山観音寺",
    "town_kana": "マツノヤマカンノンジ",
    "street": null,
    "office_name": null,
    "office_name_kana": null
  },
  "1416": {
    "zip_code": "9421416",
    "prefecture": "新潟県",
    "prefecture_kana": "ニイガタケン",
    "prefecture_code": "15",
    "city": "十日町市",
    "city_kana": "トオカマチシ",
    "town": "松之山坂下",
    "town_kana": "マツノヤマサカノシタ",
    "street": null,
    "office_name": null,
    "office_name_kana": null
  },
  "1417": {
    "zip_code": "9421417",
    "prefecture": "新潟県",
    "prefecture_kana": "ニイガタケン",
    "prefecture_code": "15",
    "city": "十日町市",
    "city_kana": "トオカマチシ",
    "town": "松之山猪之名",
    "town_kana": "マツノヤマイノミョウ",
    "street": null,
    "office_name": null,
    "office_name_kana": null
  },
  "1418": {
    "zip_code": "9421418",
    "prefecture": "新潟県",
    "prefecture_kana": "ニイガタケン",
    "prefecture_code": "15",
    "city": "十日町市",
    "city_kana": "トオカマチシ",
    "town": "松之山藤内名",
    "town_kana": "マツノヤマトナイミョウ",
    "street": null,
    "office_name": null,
    "office_name_kana": null
  },
  "1419": {
    "zip_code": "9421419",
    "prefecture": "新潟県",
    "prefecture_kana": "ニイガタケン",
    "prefecture_code": "15",
    "city": "十日町市",
    "city_kana": "トオカマチシ",
    "town": "松之山橋詰",
    "town_kana": "マツノヤマハシヅメ",
    "street": null,
    "office_name": null,
    "office_name_kana": null
  },
  "1421": {
    "zip_code": "9421421",
    "prefecture": "新潟県",
    "prefecture_kana": "ニイガタケン",
    "prefecture_code": "15",
    "city": "十日町市",
    "city_kana": "トオカマチシ",
    "town": "松之山五十子平",
    "town_kana": "マツノヤマイガゴダイラ",
    "street": null,
    "office_name": null,
    "office_name_kana": null
  },
  "1422": {
    "zip_code": "9421422",
    "prefecture": "新潟県",
    "prefecture_kana": "ニイガタケン",
    "prefecture_code": "15",
    "city": "十日町市",
    "city_kana": "トオカマチシ",
    "town": "松之山坪野",
    "town_kana": "マツノヤマツボノ",
    "street": null,
    "office_name": null,
    "office_name_kana": null
  },
  "1423": {
    "zip_code": "9421423",
    "prefecture": "新潟県",
    "prefecture_kana": "ニイガタケン",
    "prefecture_code": "15",
    "city": "十日町市",
    "city_kana": "トオカマチシ",
    "town": "松之山赤倉",
    "town_kana": "マツノヤマアカクラ",
    "street": null,
    "office_name": null,
    "office_name_kana": null
  },
  "1424": {
    "zip_code": "9421424",
    "prefecture": "新潟県",
    "prefecture_kana": "ニイガタケン",
    "prefecture_code": "15",
    "city": "十日町市",
    "city_kana": "トオカマチシ",
    "town": "松之山東山",
    "town_kana": "マツノヤマヒガシヤマ",
    "street": null,
    "office_name": null,
    "office_name_kana": null
  },
  "1425": {
    "zip_code": "9421425",
    "prefecture": "新潟県",
    "prefecture_kana": "ニイガタケン",
    "prefecture_code": "15",
    "city": "十日町市",
    "city_kana": "トオカマチシ",
    "town": "松之山下鰕池",
    "town_kana": "マツノヤマシモエビイケ",
    "street": null,
    "office_name": null,
    "office_name_kana": null
  },
  "1426": {
    "zip_code": "9421426",
    "prefecture": "新潟県",
    "prefecture_kana": "ニイガタケン",
    "prefecture_code": "15",
    "city": "十日町市",
    "city_kana": "トオカマチシ",
    "town": "松之山上鰕池",
    "town_kana": "マツノヤマカミエビイケ",
    "street": null,
    "office_name": null,
    "office_name_kana": null
  },
  "1427": {
    "zip_code": "9421427",
    "prefecture": "新潟県",
    "prefecture_kana": "ニイガタケン",
    "prefecture_code": "15",
    "city": "十日町市",
    "city_kana": "トオカマチシ",
    "town": "松之山東川",
    "town_kana": "マツノヤマヒガシカワ",
    "street": null,
    "office_name": null,
    "office_name_kana": null
  },
  "1428": {
    "zip_code": "9421428",
    "prefecture": "新潟県",
    "prefecture_kana": "ニイガタケン",
    "prefecture_code": "15",
    "city": "十日町市",
    "city_kana": "トオカマチシ",
    "town": "松之山中尾",
    "town_kana": "マツノヤマナカオ",
    "street": null,
    "office_name": null,
    "office_name_kana": null
  },
  "1429": {
    "zip_code": "9421429",
    "prefecture": "新潟県",
    "prefecture_kana": "ニイガタケン",
    "prefecture_code": "15",
    "city": "十日町市",
    "city_kana": "トオカマチシ",
    "town": "松之山藤倉",
    "town_kana": "マツノヤマフジクラ",
    "street": null,
    "office_name": null,
    "office_name_kana": null
  },
  "1431": {
    "zip_code": "9421431",
    "prefecture": "新潟県",
    "prefecture_kana": "ニイガタケン",
    "prefecture_code": "15",
    "city": "十日町市",
    "city_kana": "トオカマチシ",
    "town": "松之山湯山",
    "town_kana": "マツノヤマユヤマ",
    "street": null,
    "office_name": null,
    "office_name_kana": null
  },
  "1432": {
    "zip_code": "9421432",
    "prefecture": "新潟県",
    "prefecture_kana": "ニイガタケン",
    "prefecture_code": "15",
    "city": "十日町市",
    "city_kana": "トオカマチシ",
    "town": "松之山湯本",
    "town_kana": "マツノヤマユモト",
    "street": null,
    "office_name": null,
    "office_name_kana": null
  },
  "1434": {
    "zip_code": "9421434",
    "prefecture": "新潟県",
    "prefecture_kana": "ニイガタケン",
    "prefecture_code": "15",
    "city": "十日町市",
    "city_kana": "トオカマチシ",
    "town": "松之山天水島",
    "town_kana": "マツノヤマアマミズシマ",
    "street": null,
    "office_name": null,
    "office_name_kana": null
  },
  "1435": {
    "zip_code": "9421435",
    "prefecture": "新潟県",
    "prefecture_kana": "ニイガタケン",
    "prefecture_code": "15",
    "city": "十日町市",
    "city_kana": "トオカマチシ",
    "town": "松之山天水越",
    "town_kana": "マツノヤマアマミズコシ",
    "street": null,
    "office_name": null,
    "office_name_kana": null
  },
  "1492": {
    "zip_code": "9421492",
    "prefecture": "新潟県",
    "prefecture_kana": "ニイガタケン",
    "prefecture_code": "15",
    "city": "十日町市",
    "city_kana": "トオカマチシ",
    "town": "松之山",
    "town_kana": "マツノヤマ",
    "street": "１２１２−２",
    "office_name": "十日町市役所　松之山支所",
    "office_name_kana": "トオカマチシヤクシヨ マツノヤマシシヨ"
  },
  "1501": {
    "zip_code": "9421501",
    "prefecture": "新潟県",
    "prefecture_kana": "ニイガタケン",
    "prefecture_code": "15",
    "city": "十日町市",
    "city_kana": "トオカマチシ",
    "town": "滝沢",
    "town_kana": "タキザワ",
    "street": null,
    "office_name": null,
    "office_name_kana": null
  },
  "1502": {
    "zip_code": "9421502",
    "prefecture": "新潟県",
    "prefecture_kana": "ニイガタケン",
    "prefecture_code": "15",
    "city": "十日町市",
    "city_kana": "トオカマチシ",
    "town": "片桐山",
    "town_kana": "カタギリヤマ",
    "street": null,
    "office_name": null,
    "office_name_kana": null
  },
  "1503": {
    "zip_code": "9421503",
    "prefecture": "新潟県",
    "prefecture_kana": "ニイガタケン",
    "prefecture_code": "15",
    "city": "十日町市",
    "city_kana": "トオカマチシ",
    "town": "孟地",
    "town_kana": "モウチ",
    "street": null,
    "office_name": null,
    "office_name_kana": null
  },
  "1504": {
    "zip_code": "9421504",
    "prefecture": "新潟県",
    "prefecture_kana": "ニイガタケン",
    "prefecture_code": "15",
    "city": "十日町市",
    "city_kana": "トオカマチシ",
    "town": "犬伏",
    "town_kana": "イヌブシ",
    "street": null,
    "office_name": null,
    "office_name_kana": null
  },
  "1505": {
    "zip_code": "9421505",
    "prefecture": "新潟県",
    "prefecture_kana": "ニイガタケン",
    "prefecture_code": "15",
    "city": "十日町市",
    "city_kana": "トオカマチシ",
    "town": "苧島",
    "town_kana": "オノシマ",
    "street": null,
    "office_name": null,
    "office_name_kana": null
  },
  "1506": {
    "zip_code": "9421506",
    "prefecture": "新潟県",
    "prefecture_kana": "ニイガタケン",
    "prefecture_code": "15",
    "city": "十日町市",
    "city_kana": "トオカマチシ",
    "town": "中子",
    "town_kana": "ナカゴ",
    "street": null,
    "office_name": null,
    "office_name_kana": null
  },
  "1511": {
    "zip_code": "9421511",
    "prefecture": "新潟県",
    "prefecture_kana": "ニイガタケン",
    "prefecture_code": "15",
    "city": "十日町市",
    "city_kana": "トオカマチシ",
    "town": "海老",
    "town_kana": "カイロウ",
    "street": null,
    "office_name": null,
    "office_name_kana": null
  },
  "1512": {
    "zip_code": "9421512",
    "prefecture": "新潟県",
    "prefecture_kana": "ニイガタケン",
    "prefecture_code": "15",
    "city": "十日町市",
    "city_kana": "トオカマチシ",
    "town": "松代東山",
    "town_kana": "マツダイヒガシヤマ",
    "street": null,
    "office_name": null,
    "office_name_kana": null
  },
  "1513": {
    "zip_code": "9421513",
    "prefecture": "新潟県",
    "prefecture_kana": "ニイガタケン",
    "prefecture_code": "15",
    "city": "十日町市",
    "city_kana": "トオカマチシ",
    "town": "松代下山",
    "town_kana": "マツダイシモヤマ",
    "street": null,
    "office_name": null,
    "office_name_kana": null
  },
  "1514": {
    "zip_code": "9421514",
    "prefecture": "新潟県",
    "prefecture_kana": "ニイガタケン",
    "prefecture_code": "15",
    "city": "十日町市",
    "city_kana": "トオカマチシ",
    "town": "小屋丸",
    "town_kana": "コヤマル",
    "street": null,
    "office_name": null,
    "office_name_kana": null
  },
  "1515": {
    "zip_code": "9421515",
    "prefecture": "新潟県",
    "prefecture_kana": "ニイガタケン",
    "prefecture_code": "15",
    "city": "十日町市",
    "city_kana": "トオカマチシ",
    "town": "池之畑",
    "town_kana": "イケノハタ",
    "street": null,
    "office_name": null,
    "office_name_kana": null
  },
  "1521": {
    "zip_code": "9421521",
    "prefecture": "新潟県",
    "prefecture_kana": "ニイガタケン",
    "prefecture_code": "15",
    "city": "十日町市",
    "city_kana": "トオカマチシ",
    "town": "菅刈",
    "town_kana": "スガカリ",
    "street": null,
    "office_name": null,
    "office_name_kana": null
  },
  "1522": {
    "zip_code": "9421522",
    "prefecture": "新潟県",
    "prefecture_kana": "ニイガタケン",
    "prefecture_code": "15",
    "city": "十日町市",
    "city_kana": "トオカマチシ",
    "town": "松代田沢",
    "town_kana": "マツダイタザワ",
    "street": null,
    "office_name": null,
    "office_name_kana": null
  },
  "1523": {
    "zip_code": "9421523",
    "prefecture": "新潟県",
    "prefecture_kana": "ニイガタケン",
    "prefecture_code": "15",
    "city": "十日町市",
    "city_kana": "トオカマチシ",
    "town": "小荒戸",
    "town_kana": "コアラト",
    "street": null,
    "office_name": null,
    "office_name_kana": null
  },
  "1524": {
    "zip_code": "9421524",
    "prefecture": "新潟県",
    "prefecture_kana": "ニイガタケン",
    "prefecture_code": "15",
    "city": "十日町市",
    "city_kana": "トオカマチシ",
    "town": "千年",
    "town_kana": "チトセ",
    "street": null,
    "office_name": null,
    "office_name_kana": null
  },
  "1525": {
    "zip_code": "9421525",
    "prefecture": "新潟県",
    "prefecture_kana": "ニイガタケン",
    "prefecture_code": "15",
    "city": "十日町市",
    "city_kana": "トオカマチシ",
    "town": "池尻",
    "town_kana": "イケジリ",
    "street": null,
    "office_name": null,
    "office_name_kana": null
  },
  "1526": {
    "zip_code": "9421526",
    "prefecture": "新潟県",
    "prefecture_kana": "ニイガタケン",
    "prefecture_code": "15",
    "city": "十日町市",
    "city_kana": "トオカマチシ",
    "town": "松代",
    "town_kana": "マツダイ",
    "street": null,
    "office_name": null,
    "office_name_kana": null
  },
  "1527": {
    "zip_code": "9421527",
    "prefecture": "新潟県",
    "prefecture_kana": "ニイガタケン",
    "prefecture_code": "15",
    "city": "十日町市",
    "city_kana": "トオカマチシ",
    "town": "太平",
    "town_kana": "タイヘイ",
    "street": null,
    "office_name": null,
    "office_name_kana": null
  },
  "1531": {
    "zip_code": "9421531",
    "prefecture": "新潟県",
    "prefecture_kana": "ニイガタケン",
    "prefecture_code": "15",
    "city": "十日町市",
    "city_kana": "トオカマチシ",
    "town": "莇平",
    "town_kana": "アザミヒラ",
    "street": null,
    "office_name": null,
    "office_name_kana": null
  },
  "1532": {
    "zip_code": "9421532",
    "prefecture": "新潟県",
    "prefecture_kana": "ニイガタケン",
    "prefecture_code": "15",
    "city": "十日町市",
    "city_kana": "トオカマチシ",
    "town": "仙納",
    "town_kana": "センノウ",
    "street": null,
    "office_name": null,
    "office_name_kana": null
  },
  "1533": {
    "zip_code": "9421533",
    "prefecture": "新潟県",
    "prefecture_kana": "ニイガタケン",
    "prefecture_code": "15",
    "city": "十日町市",
    "city_kana": "トオカマチシ",
    "town": "田野倉",
    "town_kana": "タノクラ",
    "street": null,
    "office_name": null,
    "office_name_kana": null
  },
  "1534": {
    "zip_code": "9421534",
    "prefecture": "新潟県",
    "prefecture_kana": "ニイガタケン",
    "prefecture_code": "15",
    "city": "十日町市",
    "city_kana": "トオカマチシ",
    "town": "蒲生",
    "town_kana": "カモウ",
    "street": null,
    "office_name": null,
    "office_name_kana": null
  },
  "1535": {
    "zip_code": "9421535",
    "prefecture": "新潟県",
    "prefecture_kana": "ニイガタケン",
    "prefecture_code": "15",
    "city": "十日町市",
    "city_kana": "トオカマチシ",
    "town": "名平",
    "town_kana": "ナビロウ",
    "street": null,
    "office_name": null,
    "office_name_kana": null
  },
  "1536": {
    "zip_code": "9421536",
    "prefecture": "新潟県",
    "prefecture_kana": "ニイガタケン",
    "prefecture_code": "15",
    "city": "十日町市",
    "city_kana": "トオカマチシ",
    "town": "儀明",
    "town_kana": "ギミヨウ",
    "street": null,
    "office_name": null,
    "office_name_kana": null
  },
  "1537": {
    "zip_code": "9421537",
    "prefecture": "新潟県",
    "prefecture_kana": "ニイガタケン",
    "prefecture_code": "15",
    "city": "十日町市",
    "city_kana": "トオカマチシ",
    "town": "寺田",
    "town_kana": "テラダ",
    "street": null,
    "office_name": null,
    "office_name_kana": null
  },
  "1538": {
    "zip_code": "9421538",
    "prefecture": "新潟県",
    "prefecture_kana": "ニイガタケン",
    "prefecture_code": "15",
    "city": "十日町市",
    "city_kana": "トオカマチシ",
    "town": "小池",
    "town_kana": "コイケ",
    "street": null,
    "office_name": null,
    "office_name_kana": null
  },
  "1541": {
    "zip_code": "9421541",
    "prefecture": "新潟県",
    "prefecture_kana": "ニイガタケン",
    "prefecture_code": "15",
    "city": "十日町市",
    "city_kana": "トオカマチシ",
    "town": "桐山",
    "town_kana": "キリヤマ",
    "street": null,
    "office_name": null,
    "office_name_kana": null
  },
  "1542": {
    "zip_code": "9421542",
    "prefecture": "新潟県",
    "prefecture_kana": "ニイガタケン",
    "prefecture_code": "15",
    "city": "十日町市",
    "city_kana": "トオカマチシ",
    "town": "清水",
    "town_kana": "シミズ",
    "street": null,
    "office_name": null,
    "office_name_kana": null
  },
  "1543": {
    "zip_code": "9421543",
    "prefecture": "新潟県",
    "prefecture_kana": "ニイガタケン",
    "prefecture_code": "15",
    "city": "十日町市",
    "city_kana": "トオカマチシ",
    "town": "会沢",
    "town_kana": "アイサワ",
    "street": null,
    "office_name": null,
    "office_name_kana": null
  },
  "1544": {
    "zip_code": "9421544",
    "prefecture": "新潟県",
    "prefecture_kana": "ニイガタケン",
    "prefecture_code": "15",
    "city": "十日町市",
    "city_kana": "トオカマチシ",
    "town": "蓬平",
    "town_kana": "ヨモギヒラ",
    "street": null,
    "office_name": null,
    "office_name_kana": null
  },
  "8501": {
    "zip_code": "9428501",
    "prefecture": "新潟県",
    "prefecture_kana": "ニイガタケン",
    "prefecture_code": "15",
    "city": "上越市",
    "city_kana": "ジョウエツシ",
    "town": "西本町",
    "town_kana": "ニシホンチョウ",
    "street": "４丁目３−３",
    "office_name": "ＮＴＴ上越営業支店",
    "office_name_kana": "エヌテイテイジヨウエツエイギヨウシテン"
  },
  "8502": {
    "zip_code": "9428502",
    "prefecture": "新潟県",
    "prefecture_kana": "ニイガタケン",
    "prefecture_code": "15",
    "city": "上越市",
    "city_kana": "ジョウエツシ",
    "town": "東雲町",
    "town_kana": "トウウンチョウ",
    "street": "１丁目７−１２",
    "office_name": "新潟労災病院",
    "office_name_kana": "ニイガタロウサイビヨウイン"
  },
  "8505": {
    "zip_code": "9428505",
    "prefecture": "新潟県",
    "prefecture_kana": "ニイガタケン",
    "prefecture_code": "15",
    "city": "上越市",
    "city_kana": "ジョウエツシ",
    "town": "西本町",
    "town_kana": "ニシホンチョウ",
    "street": "４丁目２０−１",
    "office_name": "新潟県立　直江津高等学校",
    "office_name_kana": "ニイガタケンリツ ナオエツコウトウガツコウ"
  },
  "8508": {
    "zip_code": "9428508",
    "prefecture": "新潟県",
    "prefecture_kana": "ニイガタケン",
    "prefecture_code": "15",
    "city": "上越市",
    "city_kana": "ジョウエツシ",
    "town": "西本町",
    "town_kana": "ニシホンチョウ",
    "street": "３丁目８−５７",
    "office_name": "頚城自動車　株式会社",
    "office_name_kana": "クビキジドウシヤ カブシキカイシヤ"
  },
  "8563": {
    "zip_code": "9428563",
    "prefecture": "新潟県",
    "prefecture_kana": "ニイガタケン",
    "prefecture_code": "15",
    "city": "上越市",
    "city_kana": "ジョウエツシ",
    "town": "下門前",
    "town_kana": "シモモンゼン",
    "street": "５９３番地",
    "office_name": "上越市教育委員会",
    "office_name_kana": "ジヨウエツシキヨウイクイインカイ"
  },
  "8601": {
    "zip_code": "9428601",
    "prefecture": "新潟県",
    "prefecture_kana": "ニイガタケン",
    "prefecture_code": "15",
    "city": "上越市",
    "city_kana": "ジョウエツシ",
    "town": "頸城区西福島",
    "town_kana": "クビキクニシフクジマ",
    "street": "２８番地１（直江津郵便局私書箱第１号）",
    "office_name": "信越化学工業　株式会社　直江津工場",
    "office_name_kana": "シンエツカガクコウギヨウ カブシキカイシヤ ナオエツコウジヨウ"
  },
  "8611": {
    "zip_code": "9428611",
    "prefecture": "新潟県",
    "prefecture_kana": null,
    "prefecture_code": null,
    "city": "上越市",
    "city_kana": null,
    "town": "福田町",
    "town_kana": null,
    "street": "１番地（直江津郵便局私書箱第２３号）",
    "office_name": "三菱化学　株式会社　直江津事業所",
    "office_name_kana": "ミツビシカガク カブシキガイシヤ ナオエツジギヨウシヨ"
  },
  "8666": {
    "zip_code": "9428666",
    "prefecture": "新潟県",
    "prefecture_kana": "ニイガタケン",
    "prefecture_code": "15",
    "city": "上越市",
    "city_kana": "ジョウエツシ",
    "town": "中央",
    "town_kana": "チュウオウ",
    "street": "１丁目１１−１（直江津郵便局私書箱第２０号）",
    "office_name": "上越信用金庫　本店",
    "office_name_kana": "ジヨウエツシンヨウキンコ ホンテン"
  }
}