{
  "0000": {
    "zip_code": "9430000",
    "prefecture": "新潟県",
    "prefecture_kana": "ニイガタケン",
    "prefecture_code": 15,
    "city": "上越市",
    "city_kana": "ジョウエツシ",
    "town": "",
    "town_kana": "",
    "street": null,
    "office_name": null,
    "office_name_kana": null
  },
  "0101": {
    "zip_code": "9430101",
    "prefecture": "新潟県",
    "prefecture_kana": "ニイガタケン",
    "prefecture_code": 15,
    "city": "上越市",
    "city_kana": "ジョウエツシ",
    "town": "上真砂",
    "town_kana": "カミマナゴ",
    "street": null,
    "office_name": null,
    "office_name_kana": null
  },
  "0102": {
    "zip_code": "9430102",
    "prefecture": "新潟県",
    "prefecture_kana": "ニイガタケン",
    "prefecture_code": 15,
    "city": "上越市",
    "city_kana": "ジョウエツシ",
    "town": "杉野袋",
    "town_kana": "スギノフクロ",
    "street": null,
    "office_name": null,
    "office_name_kana": null
  },
  "0103": {
    "zip_code": "9430103",
    "prefecture": "新潟県",
    "prefecture_kana": "ニイガタケン",
    "prefecture_code": 15,
    "city": "上越市",
    "city_kana": "ジョウエツシ",
    "town": "米岡",
    "town_kana": "ヨネオカ",
    "street": null,
    "office_name": null,
    "office_name_kana": null
  },
  "0104": {
    "zip_code": "9430104",
    "prefecture": "新潟県",
    "prefecture_kana": "ニイガタケン",
    "prefecture_code": 15,
    "city": "上越市",
    "city_kana": "ジョウエツシ",
    "town": "鶴町",
    "town_kana": "ツルマチ",
    "street": null,
    "office_name": null,
    "office_name_kana": null
  },
  "0105": {
    "zip_code": "9430105",
    "prefecture": "新潟県",
    "prefecture_kana": "ニイガタケン",
    "prefecture_code": 15,
    "city": "上越市",
    "city_kana": "ジョウエツシ",
    "town": "東原",
    "town_kana": "ヒガシハラ",
    "street": null,
    "office_name": null,
    "office_name_kana": null
  },
  "0106": {
    "zip_code": "9430106",
    "prefecture": "新潟県",
    "prefecture_kana": "ニイガタケン",
    "prefecture_code": 15,
    "city": "上越市",
    "city_kana": "ジョウエツシ",
    "town": "北田中",
    "town_kana": "キタタナカ",
    "street": null,
    "office_name": null,
    "office_name_kana": null
  },
  "0107": {
    "zip_code": "9430107",
    "prefecture": "新潟県",
    "prefecture_kana": "ニイガタケン",
    "prefecture_code": 15,
    "city": "上越市",
    "city_kana": "ジョウエツシ",
    "town": "諏訪",
    "town_kana": "スワ",
    "street": null,
    "office_name": null,
    "office_name_kana": null
  },
  "0108": {
    "zip_code": "9430108",
    "prefecture": "新潟県",
    "prefecture_kana": "ニイガタケン",
    "prefecture_code": 15,
    "city": "上越市",
    "city_kana": "ジョウエツシ",
    "town": "南新保",
    "town_kana": "ミナミシンボ",
    "street": null,
    "office_name": null,
    "office_name_kana": null
  },
  "0109": {
    "zip_code": "9430109",
    "prefecture": "新潟県",
    "prefecture_kana": "ニイガタケン",
    "prefecture_code": 15,
    "city": "上越市",
    "city_kana": "ジョウエツシ",
    "town": "北新保",
    "town_kana": "キタシンボ",
    "street": null,
    "office_name": null,
    "office_name_kana": null
  },
  "0111": {
    "zip_code": "9430111",
    "prefecture": "新潟県",
    "prefecture_kana": "ニイガタケン",
    "prefecture_code": 15,
    "city": "上越市",
    "city_kana": "ジョウエツシ",
    "town": "下野田",
    "town_kana": "シモノダ",
    "street": null,
    "office_name": null,
    "office_name_kana": null
  },
  "0112": {
    "zip_code": "9430112",
    "prefecture": "新潟県",
    "prefecture_kana": "ニイガタケン",
    "prefecture_code": 15,
    "city": "上越市",
    "city_kana": "ジョウエツシ",
    "town": "上野田",
    "town_kana": "カミノタ",
    "street": null,
    "office_name": null,
    "office_name_kana": null
  },
  "0113": {
    "zip_code": "9430113",
    "prefecture": "新潟県",
    "prefecture_kana": "ニイガタケン",
    "prefecture_code": 15,
    "city": "上越市",
    "city_kana": "ジョウエツシ",
    "town": "上池部",
    "town_kana": "カミイケベ",
    "street": null,
    "office_name": null,
    "office_name_kana": null
  },
  "0114": {
    "zip_code": "9430114",
    "prefecture": "新潟県",
    "prefecture_kana": "ニイガタケン",
    "prefecture_code": 15,
    "city": "上越市",
    "city_kana": "ジョウエツシ",
    "town": "吉岡",
    "town_kana": "ヨシオカ",
    "street": null,
    "office_name": null,
    "office_name_kana": null
  },
  "0115": {
    "zip_code": "9430115",
    "prefecture": "新潟県",
    "prefecture_kana": "ニイガタケン",
    "prefecture_code": 15,
    "city": "上越市",
    "city_kana": "ジョウエツシ",
    "town": "劔",
    "town_kana": "ツルギ",
    "street": null,
    "office_name": null,
    "office_name_kana": null
  },
  "0116": {
    "zip_code": "9430116",
    "prefecture": "新潟県",
    "prefecture_kana": "ニイガタケン",
    "prefecture_code": 15,
    "city": "上越市",
    "city_kana": "ジョウエツシ",
    "town": "野尻",
    "town_kana": "ノジリ",
    "street": null,
    "office_name": null,
    "office_name_kana": null
  },
  "0117": {
    "zip_code": "9430117",
    "prefecture": "新潟県",
    "prefecture_kana": "ニイガタケン",
    "prefecture_code": 15,
    "city": "上越市",
    "city_kana": "ジョウエツシ",
    "town": "稲",
    "town_kana": "イナ",
    "street": null,
    "office_name": null,
    "office_name_kana": null
  },
  "0118": {
    "zip_code": "9430118",
    "prefecture": "新潟県",
    "prefecture_kana": "ニイガタケン",
    "prefecture_code": 15,
    "city": "上越市",
    "city_kana": "ジョウエツシ",
    "town": "東市野口",
    "town_kana": "ヒガシイチノクチ",
    "street": null,
    "office_name": null,
    "office_name_kana": null
  },
  "0119": {
    "zip_code": "9430119",
    "prefecture": "新潟県",
    "prefecture_kana": "ニイガタケン",
    "prefecture_code": 15,
    "city": "上越市",
    "city_kana": "ジョウエツシ",
    "town": "下池部",
    "town_kana": "シモイケベ",
    "street": null,
    "office_name": null,
    "office_name_kana": null
  },
  "0121": {
    "zip_code": "9430121",
    "prefecture": "新潟県",
    "prefecture_kana": "ニイガタケン",
    "prefecture_code": 15,
    "city": "上越市",
    "city_kana": "ジョウエツシ",
    "town": "藤塚",
    "town_kana": "フジヅカ",
    "street": null,
    "office_name": null,
    "office_name_kana": null
  },
  "0122": {
    "zip_code": "9430122",
    "prefecture": "新潟県",
    "prefecture_kana": "ニイガタケン",
    "prefecture_code": 15,
    "city": "上越市",
    "city_kana": "ジョウエツシ",
    "town": "新保古新田",
    "town_kana": "シンボコシンデン",
    "street": null,
    "office_name": null,
    "office_name_kana": null
  },
  "0123": {
    "zip_code": "9430123",
    "prefecture": "新潟県",
    "prefecture_kana": "ニイガタケン",
    "prefecture_code": 15,
    "city": "上越市",
    "city_kana": "ジョウエツシ",
    "town": "本新保",
    "town_kana": "ホンシンボ",
    "street": null,
    "office_name": null,
    "office_name_kana": null
  },
  "0124": {
    "zip_code": "9430124",
    "prefecture": "新潟県",
    "prefecture_kana": "ニイガタケン",
    "prefecture_code": 15,
    "city": "上越市",
    "city_kana": "ジョウエツシ",
    "town": "上雲寺",
    "town_kana": "ジョウウンジ",
    "street": null,
    "office_name": null,
    "office_name_kana": null
  },
  "0125": {
    "zip_code": "9430125",
    "prefecture": "新潟県",
    "prefecture_kana": "ニイガタケン",
    "prefecture_code": 15,
    "city": "上越市",
    "city_kana": "ジョウエツシ",
    "town": "下富川",
    "town_kana": "シモトミガワ",
    "street": null,
    "office_name": null,
    "office_name_kana": null
  },
  "0126": {
    "zip_code": "9430126",
    "prefecture": "新潟県",
    "prefecture_kana": "ニイガタケン",
    "prefecture_code": 15,
    "city": "上越市",
    "city_kana": "ジョウエツシ",
    "town": "上富川",
    "town_kana": "カミトミガワ",
    "street": null,
    "office_name": null,
    "office_name_kana": null
  },
  "0127": {
    "zip_code": "9430127",
    "prefecture": "新潟県",
    "prefecture_kana": "ニイガタケン",
    "prefecture_code": 15,
    "city": "上越市",
    "city_kana": "ジョウエツシ",
    "town": "熊塚",
    "town_kana": "クマヅカ",
    "street": null,
    "office_name": null,
    "office_name_kana": null
  },
  "0128": {
    "zip_code": "9430128",
    "prefecture": "新潟県",
    "prefecture_kana": "ニイガタケン",
    "prefecture_code": 15,
    "city": "上越市",
    "city_kana": "ジョウエツシ",
    "town": "池",
    "town_kana": "イケ",
    "street": null,
    "office_name": null,
    "office_name_kana": null
  },
  "0129": {
    "zip_code": "9430129",
    "prefecture": "新潟県",
    "prefecture_kana": "ニイガタケン",
    "prefecture_code": 15,
    "city": "上越市",
    "city_kana": "ジョウエツシ",
    "town": "茨沢",
    "town_kana": "イバラサワ",
    "street": null,
    "office_name": null,
    "office_name_kana": null
  },
  "0131": {
    "zip_code": "9430131",
    "prefecture": "新潟県",
    "prefecture_kana": "ニイガタケン",
    "prefecture_code": 15,
    "city": "上越市",
    "city_kana": "ジョウエツシ",
    "town": "薮野",
    "town_kana": "ヤブノ",
    "street": null,
    "office_name": null,
    "office_name_kana": null
  },
  "0132": {
    "zip_code": "9430132",
    "prefecture": "新潟県",
    "prefecture_kana": "ニイガタケン",
    "prefecture_code": 15,
    "city": "上越市",
    "city_kana": "ジョウエツシ",
    "town": "辰尾新田",
    "town_kana": "タツオシンデン",
    "street": null,
    "office_name": null,
    "office_name_kana": null
  },
  "0133": {
    "zip_code": "9430133",
    "prefecture": "新潟県",
    "prefecture_kana": "ニイガタケン",
    "prefecture_code": 15,
    "city": "上越市",
    "city_kana": "ジョウエツシ",
    "town": "東稲塚新田",
    "town_kana": "ヒガシイナヅカシンデン",
    "street": null,
    "office_name": null,
    "office_name_kana": null
  },
  "0134": {
    "zip_code": "9430134",
    "prefecture": "新潟県",
    "prefecture_kana": "ニイガタケン",
    "prefecture_code": 15,
    "city": "上越市",
    "city_kana": "ジョウエツシ",
    "town": "下稲塚",
    "town_kana": "シモイナヅカ",
    "street": null,
    "office_name": null,
    "office_name_kana": null
  },
  "0135": {
    "zip_code": "9430135",
    "prefecture": "新潟県",
    "prefecture_kana": "ニイガタケン",
    "prefecture_code": 15,
    "city": "上越市",
    "city_kana": "ジョウエツシ",
    "town": "下四ツ屋",
    "town_kana": "シモヨツヤ",
    "street": null,
    "office_name": null,
    "office_name_kana": null
  },
  "0136": {
    "zip_code": "9430136",
    "prefecture": "新潟県",
    "prefecture_kana": "ニイガタケン",
    "prefecture_code": 15,
    "city": "上越市",
    "city_kana": "ジョウエツシ",
    "town": "西松野木",
    "town_kana": "ニシマツノキ",
    "street": null,
    "office_name": null,
    "office_name_kana": null
  },
  "0137": {
    "zip_code": "9430137",
    "prefecture": "新潟県",
    "prefecture_kana": "ニイガタケン",
    "prefecture_code": 15,
    "city": "上越市",
    "city_kana": "ジョウエツシ",
    "town": "長者町",
    "town_kana": "チョウジャマチ",
    "street": null,
    "office_name": null,
    "office_name_kana": null
  },
  "0138": {
    "zip_code": "9430138",
    "prefecture": "新潟県",
    "prefecture_kana": "ニイガタケン",
    "prefecture_code": 15,
    "city": "上越市",
    "city_kana": "ジョウエツシ",
    "town": "本長者原",
    "town_kana": "モトチョウジャハラ",
    "street": null,
    "office_name": null,
    "office_name_kana": null
  },
  "0139": {
    "zip_code": "9430139",
    "prefecture": "新潟県",
    "prefecture_kana": "ニイガタケン",
    "prefecture_code": 15,
    "city": "上越市",
    "city_kana": "ジョウエツシ",
    "town": "天野原新田",
    "town_kana": "アマノハラシンデン",
    "street": null,
    "office_name": null,
    "office_name_kana": null
  },
  "0141": {
    "zip_code": "9430141",
    "prefecture": "新潟県",
    "prefecture_kana": "ニイガタケン",
    "prefecture_code": 15,
    "city": "上越市",
    "city_kana": "ジョウエツシ",
    "town": "子安",
    "town_kana": "コヤス",
    "street": null,
    "office_name": null,
    "office_name_kana": null
  },
  "0142": {
    "zip_code": "9430142",
    "prefecture": "新潟県",
    "prefecture_kana": "ニイガタケン",
    "prefecture_code": 15,
    "city": "上越市",
    "city_kana": "ジョウエツシ",
    "town": "下新町",
    "town_kana": "シモシンマチ",
    "street": null,
    "office_name": null,
    "office_name_kana": null
  },
  "0143": {
    "zip_code": "9430143",
    "prefecture": "新潟県",
    "prefecture_kana": "ニイガタケン",
    "prefecture_code": 15,
    "city": "上越市",
    "city_kana": "ジョウエツシ",
    "town": "上新町",
    "town_kana": "カミシンマチ",
    "street": null,
    "office_name": null,
    "office_name_kana": null
  },
  "0144": {
    "zip_code": "9430144",
    "prefecture": "新潟県",
    "prefecture_kana": "ニイガタケン",
    "prefecture_code": 15,
    "city": "上越市",
    "city_kana": "ジョウエツシ",
    "town": "桜町",
    "town_kana": "サクラチョウ",
    "street": null,
    "office_name": null,
    "office_name_kana": null
  },
  "0145": {
    "zip_code": "9430145",
    "prefecture": "新潟県",
    "prefecture_kana": "ニイガタケン",
    "prefecture_code": 15,
    "city": "上越市",
    "city_kana": "ジョウエツシ",
    "town": "今池",
    "town_kana": "イマイケ",
    "street": null,
    "office_name": null,
    "office_name_kana": null
  },
  "0146": {
    "zip_code": "9430146",
    "prefecture": "新潟県",
    "prefecture_kana": "ニイガタケン",
    "prefecture_code": 15,
    "city": "上越市",
    "city_kana": "ジョウエツシ",
    "town": "とよば",
    "town_kana": "トヨバ",
    "street": null,
    "office_name": null,
    "office_name_kana": null
  },
  "0147": {
    "zip_code": "9430147",
    "prefecture": "新潟県",
    "prefecture_kana": "ニイガタケン",
    "prefecture_code": 15,
    "city": "上越市",
    "city_kana": "ジョウエツシ",
    "town": "新南町",
    "town_kana": "シンナンチョウ",
    "street": null,
    "office_name": null,
    "office_name_kana": null
  },
  "0148": {
    "zip_code": "9430148",
    "prefecture": "新潟県",
    "prefecture_kana": "ニイガタケン",
    "prefecture_code": 15,
    "city": "上越市",
    "city_kana": "ジョウエツシ",
    "town": "子安新田",
    "town_kana": "コヤスシンデン",
    "street": null,
    "office_name": null,
    "office_name_kana": null
  },
  "0151": {
    "zip_code": "9430151",
    "prefecture": "新潟県",
    "prefecture_kana": "ニイガタケン",
    "prefecture_code": 15,
    "city": "上越市",
    "city_kana": "ジョウエツシ",
    "town": "平成町",
    "town_kana": "ヘイセイチョウ",
    "street": null,
    "office_name": null,
    "office_name_kana": null
  },
  "0152": {
    "zip_code": "9430152",
    "prefecture": "新潟県",
    "prefecture_kana": "ニイガタケン",
    "prefecture_code": 15,
    "city": "上越市",
    "city_kana": "ジョウエツシ",
    "town": "西市野口",
    "town_kana": "ニシイチノクチ",
    "street": null,
    "office_name": null,
    "office_name_kana": null
  },
  "0153": {
    "zip_code": "9430153",
    "prefecture": "新潟県",
    "prefecture_kana": "ニイガタケン",
    "prefecture_code": 15,
    "city": "上越市",
    "city_kana": "ジョウエツシ",
    "town": "鴨島",
    "town_kana": "カモジマ",
    "street": null,
    "office_name": null,
    "office_name_kana": null
  },
  "0154": {
    "zip_code": "9430154",
    "prefecture": "新潟県",
    "prefecture_kana": "ニイガタケン",
    "prefecture_code": 15,
    "city": "上越市",
    "city_kana": "ジョウエツシ",
    "town": "稲田",
    "town_kana": "イナダ",
    "street": null,
    "office_name": null,
    "office_name_kana": null
  },
  "0155": {
    "zip_code": "9430155",
    "prefecture": "新潟県",
    "prefecture_kana": "ニイガタケン",
    "prefecture_code": 15,
    "city": "上越市",
    "city_kana": "ジョウエツシ",
    "town": "四ケ所",
    "town_kana": "シカショ",
    "street": null,
    "office_name": null,
    "office_name_kana": null
  },
  "0161": {
    "zip_code": "9430161",
    "prefecture": "新潟県",
    "prefecture_kana": "ニイガタケン",
    "prefecture_code": 15,
    "city": "上越市",
    "city_kana": "ジョウエツシ",
    "town": "北田屋新田",
    "town_kana": "キタタヤシンデン",
    "street": null,
    "office_name": null,
    "office_name_kana": null
  },
  "0162": {
    "zip_code": "9430162",
    "prefecture": "新潟県",
    "prefecture_kana": "ニイガタケン",
    "prefecture_code": 15,
    "city": "上越市",
    "city_kana": "ジョウエツシ",
    "town": "南田屋新田",
    "town_kana": "ミナミタヤシンデン",
    "street": null,
    "office_name": null,
    "office_name_kana": null
  },
  "0163": {
    "zip_code": "9430163",
    "prefecture": "新潟県",
    "prefecture_kana": "ニイガタケン",
    "prefecture_code": 15,
    "city": "上越市",
    "city_kana": "ジョウエツシ",
    "town": "平岡",
    "town_kana": "ヒラオカ",
    "street": null,
    "office_name": null,
    "office_name_kana": null
  },
  "0164": {
    "zip_code": "9430164",
    "prefecture": "新潟県",
    "prefecture_kana": "ニイガタケン",
    "prefecture_code": 15,
    "city": "上越市",
    "city_kana": "ジョウエツシ",
    "town": "中々村新田",
    "town_kana": "ナカナカムラシンデン",
    "street": null,
    "office_name": null,
    "office_name_kana": null
  },
  "0165": {
    "zip_code": "9430165",
    "prefecture": "新潟県",
    "prefecture_kana": "ニイガタケン",
    "prefecture_code": 15,
    "city": "上越市",
    "city_kana": "ジョウエツシ",
    "town": "上島",
    "town_kana": "カミジマ",
    "street": null,
    "office_name": null,
    "office_name_kana": null
  },
  "0166": {
    "zip_code": "9430166",
    "prefecture": "新潟県",
    "prefecture_kana": "ニイガタケン",
    "prefecture_code": 15,
    "city": "上越市",
    "city_kana": "ジョウエツシ",
    "town": "寺",
    "town_kana": "テラ",
    "street": null,
    "office_name": null,
    "office_name_kana": null
  },
  "0167": {
    "zip_code": "9430167",
    "prefecture": "新潟県",
    "prefecture_kana": "ニイガタケン",
    "prefecture_code": 15,
    "city": "上越市",
    "city_kana": "ジョウエツシ",
    "town": "下稲田",
    "town_kana": "シモイナダ",
    "street": null,
    "office_name": null,
    "office_name_kana": null
  },
  "0168": {
    "zip_code": "9430168",
    "prefecture": "新潟県",
    "prefecture_kana": "ニイガタケン",
    "prefecture_code": 15,
    "city": "上越市",
    "city_kana": "ジョウエツシ",
    "town": "上稲田",
    "town_kana": "カミイナダ",
    "street": null,
    "office_name": null,
    "office_name_kana": null
  },
  "0171": {
    "zip_code": "9430171",
    "prefecture": "新潟県",
    "prefecture_kana": "ニイガタケン",
    "prefecture_code": 15,
    "city": "上越市",
    "city_kana": "ジョウエツシ",
    "town": "藤野新田",
    "town_kana": "フジノシンデン",
    "street": null,
    "office_name": null,
    "office_name_kana": null
  },
  "0172": {
    "zip_code": "9430172",
    "prefecture": "新潟県",
    "prefecture_kana": "ニイガタケン",
    "prefecture_code": 15,
    "city": "上越市",
    "city_kana": "ジョウエツシ",
    "town": "大道福田",
    "town_kana": "ダイドウフクダ",
    "street": null,
    "office_name": null,
    "office_name_kana": null
  },
  "0173": {
    "zip_code": "9430173",
    "prefecture": "新潟県",
    "prefecture_kana": "ニイガタケン",
    "prefecture_code": 15,
    "city": "上越市",
    "city_kana": "ジョウエツシ",
    "town": "富岡",
    "town_kana": "トミオカ",
    "street": null,
    "office_name": null,
    "office_name_kana": null
  },
  "0174": {
    "zip_code": "9430174",
    "prefecture": "新潟県",
    "prefecture_kana": "ニイガタケン",
    "prefecture_code": 15,
    "city": "上越市",
    "city_kana": "ジョウエツシ",
    "town": "中田新田",
    "town_kana": "ナカダシンデン",
    "street": null,
    "office_name": null,
    "office_name_kana": null
  },
  "0175": {
    "zip_code": "9430175",
    "prefecture": "新潟県",
    "prefecture_kana": "ニイガタケン",
    "prefecture_code": 15,
    "city": "上越市",
    "city_kana": "ジョウエツシ",
    "town": "大日",
    "town_kana": "ダイニチ",
    "street": null,
    "office_name": null,
    "office_name_kana": null
  },
  "0176": {
    "zip_code": "9430176",
    "prefecture": "新潟県",
    "prefecture_kana": "ニイガタケン",
    "prefecture_code": 15,
    "city": "上越市",
    "city_kana": "ジョウエツシ",
    "town": "戸野目古新田",
    "town_kana": "トノメコシンデン",
    "street": null,
    "office_name": null,
    "office_name_kana": null
  },
  "0177": {
    "zip_code": "9430177",
    "prefecture": "新潟県",
    "prefecture_kana": "ニイガタケン",
    "prefecture_code": 15,
    "city": "上越市",
    "city_kana": "ジョウエツシ",
    "town": "門田新田",
    "town_kana": "モンデンシンデン",
    "street": null,
    "office_name": null,
    "office_name_kana": null
  },
  "0178": {
    "zip_code": "9430178",
    "prefecture": "新潟県",
    "prefecture_kana": "ニイガタケン",
    "prefecture_code": 15,
    "city": "上越市",
    "city_kana": "ジョウエツシ",
    "town": "戸野目",
    "town_kana": "トノメ",
    "street": null,
    "office_name": null,
    "office_name_kana": null
  },
  "0181": {
    "zip_code": "9430181",
    "prefecture": "新潟県",
    "prefecture_kana": "ニイガタケン",
    "prefecture_code": 15,
    "city": "上越市",
    "city_kana": "ジョウエツシ",
    "town": "虫川",
    "town_kana": "ムシカワ",
    "street": null,
    "office_name": null,
    "office_name_kana": null
  },
  "0182": {
    "zip_code": "9430182",
    "prefecture": "新潟県",
    "prefecture_kana": "ニイガタケン",
    "prefecture_code": 15,
    "city": "上越市",
    "city_kana": "ジョウエツシ",
    "town": "高森",
    "town_kana": "タカモリ",
    "street": null,
    "office_name": null,
    "office_name_kana": null
  },
  "0183": {
    "zip_code": "9430183",
    "prefecture": "新潟県",
    "prefecture_kana": "ニイガタケン",
    "prefecture_code": 15,
    "city": "上越市",
    "city_kana": "ジョウエツシ",
    "town": "桐原",
    "town_kana": "キリハラ",
    "street": null,
    "office_name": null,
    "office_name_kana": null
  },
  "0184": {
    "zip_code": "9430184",
    "prefecture": "新潟県",
    "prefecture_kana": "ニイガタケン",
    "prefecture_code": 15,
    "city": "上越市",
    "city_kana": "ジョウエツシ",
    "town": "本道",
    "town_kana": "ホンドウ",
    "street": null,
    "office_name": null,
    "office_name_kana": null
  },
  "0185": {
    "zip_code": "9430185",
    "prefecture": "新潟県",
    "prefecture_kana": "ニイガタケン",
    "prefecture_code": 15,
    "city": "上越市",
    "city_kana": "ジョウエツシ",
    "town": "長面",
    "town_kana": "ナガオモテ",
    "street": null,
    "office_name": null,
    "office_name_kana": null
  },
  "0186": {
    "zip_code": "9430186",
    "prefecture": "新潟県",
    "prefecture_kana": "ニイガタケン",
    "prefecture_code": 15,
    "city": "上越市",
    "city_kana": "ジョウエツシ",
    "town": "市野江",
    "town_kana": "イチノエ",
    "street": null,
    "office_name": null,
    "office_name_kana": null
  },
  "0187": {
    "zip_code": "9430187",
    "prefecture": "新潟県",
    "prefecture_kana": "ニイガタケン",
    "prefecture_code": 15,
    "city": "上越市",
    "city_kana": "ジョウエツシ",
    "town": "荒屋",
    "town_kana": "アラヤ",
    "street": null,
    "office_name": null,
    "office_name_kana": null
  },
  "0192": {
    "zip_code": "9430192",
    "prefecture": "新潟県",
    "prefecture_kana": "ニイガタケン",
    "prefecture_code": 15,
    "city": "上越市",
    "city_kana": "ジョウエツシ",
    "town": "新南町",
    "town_kana": "シンナンチョウ",
    "street": "２０５",
    "office_name": "新潟県立　中央病院",
    "office_name_kana": "ニイガタケンリツ チユウオウビヨウイン"
  },
  "0193": {
    "zip_code": "9430193",
    "prefecture": "新潟県",
    "prefecture_kana": "ニイガタケン",
    "prefecture_code": 15,
    "city": "上越市",
    "city_kana": "ジョウエツシ",
    "town": "稲田",
    "town_kana": "イナダ",
    "street": "１丁目２−１",
    "office_name": "独立行政法人　農業技術研究機構中央農業総合研究センター　北陸研究センター",
    "office_name_kana": "ドクリツギヨウセイホウジン ノウギヨウギジユツケンキユウキコウチユウオウノウギヨウソウゴウケンキユウセンタ- ホクリクケンキユウセンタ-"
  },
  "0201": {
    "zip_code": "9430201",
    "prefecture": "新潟県",
    "prefecture_kana": "ニイガタケン",
    "prefecture_code": 15,
    "city": "上越市",
    "city_kana": "ジョウエツシ",
    "town": "四辻町",
    "town_kana": "ヨツジマチ",
    "street": null,
    "office_name": null,
    "office_name_kana": null
  },
  "0202": {
    "zip_code": "9430202",
    "prefecture": "新潟県",
    "prefecture_kana": "ニイガタケン",
    "prefecture_code": 15,
    "city": "上越市",
    "city_kana": "ジョウエツシ",
    "town": "米町",
    "town_kana": "ヨネマチ",
    "street": null,
    "office_name": null,
    "office_name_kana": null
  },
  "0221": {
    "zip_code": "9430221",
    "prefecture": "新潟県",
    "prefecture_kana": "ニイガタケン",
    "prefecture_code": 15,
    "city": "上越市",
    "city_kana": "ジョウエツシ",
    "town": "三和区稲原",
    "town_kana": "サンワクイナハラ",
    "street": null,
    "office_name": null,
    "office_name_kana": null
  },
  "0222": {
    "zip_code": "9430222",
    "prefecture": "新潟県",
    "prefecture_kana": "ニイガタケン",
    "prefecture_code": 15,
    "city": "上越市",
    "city_kana": "ジョウエツシ",
    "town": "三和区下中",
    "town_kana": "サンワクシモナカ",
    "street": null,
    "office_name": null,
    "office_name_kana": null
  },
  "0223": {
    "zip_code": "9430223",
    "prefecture": "新潟県",
    "prefecture_kana": "ニイガタケン",
    "prefecture_code": 15,
    "city": "上越市",
    "city_kana": "ジョウエツシ",
    "town": "三和区田",
    "town_kana": "サンワクタ",
    "street": null,
    "office_name": null,
    "office_name_kana": null
  },
  "0224": {
    "zip_code": "9430224",
    "prefecture": "新潟県",
    "prefecture_kana": "ニイガタケン",
    "prefecture_code": 15,
    "city": "上越市",
    "city_kana": "ジョウエツシ",
    "town": "三和区川浦",
    "town_kana": "サンワクカワウラ",
    "street": null,
    "office_name": null,
    "office_name_kana": null
  },
  "0225": {
    "zip_code": "9430225",
    "prefecture": "新潟県",
    "prefecture_kana": "ニイガタケン",
    "prefecture_code": 15,
    "city": "上越市",
    "city_kana": "ジョウエツシ",
    "town": "三和区野",
    "town_kana": "サンワクノ",
    "street": null,
    "office_name": null,
    "office_name_kana": null
  },
  "0226": {
    "zip_code": "9430226",
    "prefecture": "新潟県",
    "prefecture_kana": "ニイガタケン",
    "prefecture_code": 15,
    "city": "上越市",
    "city_kana": "ジョウエツシ",
    "town": "三和区日和町",
    "town_kana": "サンワクヒヨリチョウ",
    "street": null,
    "office_name": null,
    "office_name_kana": null
  },
  "0227": {
    "zip_code": "9430227",
    "prefecture": "新潟県",
    "prefecture_kana": "ニイガタケン",
    "prefecture_code": 15,
    "city": "上越市",
    "city_kana": "ジョウエツシ",
    "town": "三和区番町",
    "town_kana": "サンワクバンマチ",
    "street": null,
    "office_name": null,
    "office_name_kana": null
  },
  "0228": {
    "zip_code": "9430228",
    "prefecture": "新潟県",
    "prefecture_kana": "ニイガタケン",
    "prefecture_code": 15,
    "city": "上越市",
    "city_kana": "ジョウエツシ",
    "town": "三和区神明町",
    "town_kana": "サンワクシンメイチョウ",
    "street": null,
    "office_name": null,
    "office_name_kana": null
  },
  "0231": {
    "zip_code": "9430231",
    "prefecture": "新潟県",
    "prefecture_kana": "ニイガタケン",
    "prefecture_code": 15,
    "city": "上越市",
    "city_kana": "ジョウエツシ",
    "town": "三和区鴨井",
    "town_kana": "サンワクカモイ",
    "street": null,
    "office_name": null,
    "office_name_kana": null
  },
  "0232": {
    "zip_code": "9430232",
    "prefecture": "新潟県",
    "prefecture_kana": "ニイガタケン",
    "prefecture_code": 15,
    "city": "上越市",
    "city_kana": "ジョウエツシ",
    "town": "三和区水吉",
    "town_kana": "サンワクミズヨシ",
    "street": null,
    "office_name": null,
    "office_name_kana": null
  },
  "0233": {
    "zip_code": "9430233",
    "prefecture": "新潟県",
    "prefecture_kana": "ニイガタケン",
    "prefecture_code": 15,
    "city": "上越市",
    "city_kana": "ジョウエツシ",
    "town": "三和区水科",
    "town_kana": "サンワクミズシナ",
    "street": null,
    "office_name": null,
    "office_name_kana": null
  },
  "0234": {
    "zip_code": "9430234",
    "prefecture": "新潟県",
    "prefecture_kana": "ニイガタケン",
    "prefecture_code": 15,
    "city": "上越市",
    "city_kana": "ジョウエツシ",
    "town": "三和区法花寺",
    "town_kana": "サンワクホッケイジ",
    "street": null,
    "office_name": null,
    "office_name_kana": null
  },
  "0235": {
    "zip_code": "9430235",
    "prefecture": "新潟県",
    "prefecture_kana": "ニイガタケン",
    "prefecture_code": 15,
    "city": "上越市",
    "city_kana": "ジョウエツシ",
    "town": "三和区窪",
    "town_kana": "サンワククボ",
    "street": null,
    "office_name": null,
    "office_name_kana": null
  },
  "0236": {
    "zip_code": "9430236",
    "prefecture": "新潟県",
    "prefecture_kana": "ニイガタケン",
    "prefecture_code": 15,
    "city": "上越市",
    "city_kana": "ジョウエツシ",
    "town": "三和区中野",
    "town_kana": "サンワクナカノ",
    "street": null,
    "office_name": null,
    "office_name_kana": null
  },
  "0301": {
    "zip_code": "9430301",
    "prefecture": "新潟県",
    "prefecture_kana": "ニイガタケン",
    "prefecture_code": 15,
    "city": "上越市",
    "city_kana": "ジョウエツシ",
    "town": "三和区北代",
    "town_kana": "サンワクキタダイ",
    "street": null,
    "office_name": null,
    "office_name_kana": null
  },
  "0302": {
    "zip_code": "9430302",
    "prefecture": "新潟県",
    "prefecture_kana": "ニイガタケン",
    "prefecture_code": 15,
    "city": "上越市",
    "city_kana": "ジョウエツシ",
    "town": "三和区払沢",
    "town_kana": "サンワクハライザワ",
    "street": null,
    "office_name": null,
    "office_name_kana": null
  },
  "0303": {
    "zip_code": "9430303",
    "prefecture": "新潟県",
    "prefecture_kana": "ニイガタケン",
    "prefecture_code": 15,
    "city": "上越市",
    "city_kana": "ジョウエツシ",
    "town": "三和区山高津",
    "town_kana": "サンワクヤマタカツ",
    "street": null,
    "office_name": null,
    "office_name_kana": null
  },
  "0304": {
    "zip_code": "9430304",
    "prefecture": "新潟県",
    "prefecture_kana": "ニイガタケン",
    "prefecture_code": 15,
    "city": "上越市",
    "city_kana": "ジョウエツシ",
    "town": "三和区桑曽根",
    "town_kana": "サンワククワゾネ",
    "street": null,
    "office_name": null,
    "office_name_kana": null
  },
  "0305": {
    "zip_code": "9430305",
    "prefecture": "新潟県",
    "prefecture_kana": "ニイガタケン",
    "prefecture_code": 15,
    "city": "上越市",
    "city_kana": "ジョウエツシ",
    "town": "三和区岡田",
    "town_kana": "サンワクオカダ",
    "street": null,
    "office_name": null,
    "office_name_kana": null
  },
  "0306": {
    "zip_code": "9430306",
    "prefecture": "新潟県",
    "prefecture_kana": "ニイガタケン",
    "prefecture_code": 15,
    "city": "上越市",
    "city_kana": "ジョウエツシ",
    "town": "三和区所山田",
    "town_kana": "サンワクショヤマダ",
    "street": null,
    "office_name": null,
    "office_name_kana": null
  },
  "0307": {
    "zip_code": "9430307",
    "prefecture": "新潟県",
    "prefecture_kana": "ニイガタケン",
    "prefecture_code": 15,
    "city": "上越市",
    "city_kana": "ジョウエツシ",
    "town": "三和区下新保",
    "town_kana": "サンワクシモシンボ",
    "street": null,
    "office_name": null,
    "office_name_kana": null
  },
  "0311": {
    "zip_code": "9430311",
    "prefecture": "新潟県",
    "prefecture_kana": "ニイガタケン",
    "prefecture_code": 15,
    "city": "上越市",
    "city_kana": "ジョウエツシ",
    "town": "三和区島倉",
    "town_kana": "サンワクシマクラ",
    "street": null,
    "office_name": null,
    "office_name_kana": null
  },
  "0312": {
    "zip_code": "9430312",
    "prefecture": "新潟県",
    "prefecture_kana": "ニイガタケン",
    "prefecture_code": 15,
    "city": "上越市",
    "city_kana": "ジョウエツシ",
    "town": "三和区下田島",
    "town_kana": "サンワクシモタジマ",
    "street": null,
    "office_name": null,
    "office_name_kana": null
  },
  "0313": {
    "zip_code": "9430313",
    "prefecture": "新潟県",
    "prefecture_kana": "ニイガタケン",
    "prefecture_code": 15,
    "city": "上越市",
    "city_kana": "ジョウエツシ",
    "town": "三和区今保",
    "town_kana": "サンワクイマポ",
    "street": null,
    "office_name": null,
    "office_name_kana": null
  },
  "0314": {
    "zip_code": "9430314",
    "prefecture": "新潟県",
    "prefecture_kana": "ニイガタケン",
    "prefecture_code": 15,
    "city": "上越市",
    "city_kana": "ジョウエツシ",
    "town": "三和区大",
    "town_kana": "サンワクオオ",
    "street": null,
    "office_name": null,
    "office_name_kana": null
  },
  "0315": {
    "zip_code": "9430315",
    "prefecture": "新潟県",
    "prefecture_kana": "ニイガタケン",
    "prefecture_code": 15,
    "city": "上越市",
    "city_kana": "ジョウエツシ",
    "town": "三和区三村新田",
    "town_kana": "サンワクミムラシンデン",
    "street": null,
    "office_name": null,
    "office_name_kana": null
  },
  "0316": {
    "zip_code": "9430316",
    "prefecture": "新潟県",
    "prefecture_kana": "ニイガタケン",
    "prefecture_code": 15,
    "city": "上越市",
    "city_kana": "ジョウエツシ",
    "town": "三和区井ノ口",
    "town_kana": "サンワクイノクチ",
    "street": null,
    "office_name": null,
    "office_name_kana": null
  },
  "0317": {
    "zip_code": "9430317",
    "prefecture": "新潟県",
    "prefecture_kana": "ニイガタケン",
    "prefecture_code": 15,
    "city": "上越市",
    "city_kana": "ジョウエツシ",
    "town": "三和区浮島",
    "town_kana": "サンワクウキシマ",
    "street": null,
    "office_name": null,
    "office_name_kana": null
  },
  "0318": {
    "zip_code": "9430318",
    "prefecture": "新潟県",
    "prefecture_kana": "ニイガタケン",
    "prefecture_code": 15,
    "city": "上越市",
    "city_kana": "ジョウエツシ",
    "town": "三和区宮崎新田",
    "town_kana": "サンワクミヤザキシンデン",
    "street": null,
    "office_name": null,
    "office_name_kana": null
  },
  "0411": {
    "zip_code": "9430411",
    "prefecture": "新潟県",
    "prefecture_kana": "ニイガタケン",
    "prefecture_code": 15,
    "city": "上越市",
    "city_kana": "ジョウエツシ",
    "town": "妙油",
    "town_kana": "ミョウユ",
    "street": null,
    "office_name": null,
    "office_name_kana": null
  },
  "0412": {
    "zip_code": "9430412",
    "prefecture": "新潟県",
    "prefecture_kana": "ニイガタケン",
    "prefecture_code": 15,
    "city": "上越市",
    "city_kana": "ジョウエツシ",
    "town": "北方",
    "town_kana": "キタガタ",
    "street": null,
    "office_name": null,
    "office_name_kana": null
  },
  "0413": {
    "zip_code": "9430413",
    "prefecture": "新潟県",
    "prefecture_kana": "ニイガタケン",
    "prefecture_code": 15,
    "city": "上越市",
    "city_kana": "ジョウエツシ",
    "town": "南方",
    "town_kana": "ミナミガタ",
    "street": null,
    "office_name": null,
    "office_name_kana": null
  },
  "0414": {
    "zip_code": "9430414",
    "prefecture": "新潟県",
    "prefecture_kana": "ニイガタケン",
    "prefecture_code": 15,
    "city": "上越市",
    "city_kana": "ジョウエツシ",
    "town": "大口",
    "town_kana": "オオクチ",
    "street": null,
    "office_name": null,
    "office_name_kana": null
  },
  "0415": {
    "zip_code": "9430415",
    "prefecture": "新潟県",
    "prefecture_kana": "ニイガタケン",
    "prefecture_code": 15,
    "city": "上越市",
    "city_kana": "ジョウエツシ",
    "town": "東京田",
    "town_kana": "ヒガシキョウデン",
    "street": null,
    "office_name": null,
    "office_name_kana": null
  },
  "0416": {
    "zip_code": "9430416",
    "prefecture": "新潟県",
    "prefecture_kana": "ニイガタケン",
    "prefecture_code": 15,
    "city": "上越市",
    "city_kana": "ジョウエツシ",
    "town": "十二ノ木",
    "town_kana": "ジュウニノキ",
    "street": null,
    "office_name": null,
    "office_name_kana": null
  },
  "0417": {
    "zip_code": "9430417",
    "prefecture": "新潟県",
    "prefecture_kana": "ニイガタケン",
    "prefecture_code": 15,
    "city": "上越市",
    "city_kana": "ジョウエツシ",
    "town": "森田",
    "town_kana": "モリタ",
    "street": null,
    "office_name": null,
    "office_name_kana": null
  },
  "0421": {
    "zip_code": "9430421",
    "prefecture": "新潟県",
    "prefecture_kana": "ニイガタケン",
    "prefecture_code": 15,
    "city": "上越市",
    "city_kana": "ジョウエツシ",
    "town": "高和町",
    "town_kana": "コウワマチ",
    "street": null,
    "office_name": null,
    "office_name_kana": null
  },
  "0422": {
    "zip_code": "9430422",
    "prefecture": "新潟県",
    "prefecture_kana": "ニイガタケン",
    "prefecture_code": 15,
    "city": "上越市",
    "city_kana": "ジョウエツシ",
    "town": "飯田",
    "town_kana": "イイダ",
    "street": null,
    "office_name": null,
    "office_name_kana": null
  },
  "0423": {
    "zip_code": "9430423",
    "prefecture": "新潟県",
    "prefecture_kana": "ニイガタケン",
    "prefecture_code": 15,
    "city": "上越市",
    "city_kana": "ジョウエツシ",
    "town": "高津",
    "town_kana": "タカツ",
    "street": null,
    "office_name": null,
    "office_name_kana": null
  },
  "0424": {
    "zip_code": "9430424",
    "prefecture": "新潟県",
    "prefecture_kana": "ニイガタケン",
    "prefecture_code": 15,
    "city": "上越市",
    "city_kana": "ジョウエツシ",
    "town": "上曾根",
    "town_kana": "カミゾネ",
    "street": null,
    "office_name": null,
    "office_name_kana": null
  },
  "0425": {
    "zip_code": "9430425",
    "prefecture": "新潟県",
    "prefecture_kana": "ニイガタケン",
    "prefecture_code": 15,
    "city": "上越市",
    "city_kana": "ジョウエツシ",
    "town": "稲谷",
    "town_kana": "イナダニ",
    "street": null,
    "office_name": null,
    "office_name_kana": null
  },
  "0426": {
    "zip_code": "9430426",
    "prefecture": "新潟県",
    "prefecture_kana": "ニイガタケン",
    "prefecture_code": 15,
    "city": "上越市",
    "city_kana": "ジョウエツシ",
    "town": "下曾根",
    "town_kana": "シモゾネ",
    "street": null,
    "office_name": null,
    "office_name_kana": null
  },
  "0427": {
    "zip_code": "9430427",
    "prefecture": "新潟県",
    "prefecture_kana": "ニイガタケン",
    "prefecture_code": 15,
    "city": "上越市",
    "city_kana": "ジョウエツシ",
    "town": "元屋敷",
    "town_kana": "モトヤシキ",
    "street": null,
    "office_name": null,
    "office_name_kana": null
  },
  "0501": {
    "zip_code": "9430501",
    "prefecture": "新潟県",
    "prefecture_kana": "ニイガタケン",
    "prefecture_code": 15,
    "city": "上越市",
    "city_kana": "ジョウエツシ",
    "town": "清里区岡野町",
    "town_kana": "キヨサトクオカノマチ",
    "street": null,
    "office_name": null,
    "office_name_kana": null
  },
  "0502": {
    "zip_code": "9430502",
    "prefecture": "新潟県",
    "prefecture_kana": "ニイガタケン",
    "prefecture_code": 15,
    "city": "上越市",
    "city_kana": "ジョウエツシ",
    "town": "清里区荒牧",
    "town_kana": "キヨサトクアラマキ",
    "street": null,
    "office_name": null,
    "office_name_kana": null
  },
  "0503": {
    "zip_code": "9430503",
    "prefecture": "新潟県",
    "prefecture_kana": "ニイガタケン",
    "prefecture_code": 15,
    "city": "上越市",
    "city_kana": "ジョウエツシ",
    "town": "清里区上深沢",
    "town_kana": "キヨサトクカミフカサワ",
    "street": null,
    "office_name": null,
    "office_name_kana": null
  },
  "0504": {
    "zip_code": "9430504",
    "prefecture": "新潟県",
    "prefecture_kana": "ニイガタケン",
    "prefecture_code": 15,
    "city": "上越市",
    "city_kana": "ジョウエツシ",
    "town": "清里区上田島",
    "town_kana": "キヨサトクカミタジマ",
    "street": null,
    "office_name": null,
    "office_name_kana": null
  },
  "0505": {
    "zip_code": "9430505",
    "prefecture": "新潟県",
    "prefecture_kana": "ニイガタケン",
    "prefecture_code": 15,
    "city": "上越市",
    "city_kana": "ジョウエツシ",
    "town": "清里区東福島",
    "town_kana": "キヨサトクヒガシフクシマ",
    "street": null,
    "office_name": null,
    "office_name_kana": null
  },
  "0506": {
    "zip_code": "9430506",
    "prefecture": "新潟県",
    "prefecture_kana": "ニイガタケン",
    "prefecture_code": 15,
    "city": "上越市",
    "city_kana": "ジョウエツシ",
    "town": "清里区菅原",
    "town_kana": "キヨサトクスガハラ",
    "street": null,
    "office_name": null,
    "office_name_kana": null
  },
  "0507": {
    "zip_code": "9430507",
    "prefecture": "新潟県",
    "prefecture_kana": "ニイガタケン",
    "prefecture_code": 15,
    "city": "上越市",
    "city_kana": "ジョウエツシ",
    "town": "清里区岡嶺新田",
    "town_kana": "キヨサトクオカミネシンデン",
    "street": null,
    "office_name": null,
    "office_name_kana": null
  },
  "0508": {
    "zip_code": "9430508",
    "prefecture": "新潟県",
    "prefecture_kana": "ニイガタケン",
    "prefecture_code": 15,
    "city": "上越市",
    "city_kana": "ジョウエツシ",
    "town": "清里区平成",
    "town_kana": "キヨサトクヘイセイ",
    "street": null,
    "office_name": null,
    "office_name_kana": null
  },
  "0509": {
    "zip_code": "9430509",
    "prefecture": "新潟県",
    "prefecture_kana": "ニイガタケン",
    "prefecture_code": 15,
    "city": "上越市",
    "city_kana": "ジョウエツシ",
    "town": "清里区弥生",
    "town_kana": "キヨサトクヤヨイ",
    "street": null,
    "office_name": null,
    "office_name_kana": null
  },
  "0510": {
    "zip_code": "9430510",
    "prefecture": "新潟県",
    "prefecture_kana": "ニイガタケン",
    "prefecture_code": 15,
    "city": "上越市",
    "city_kana": "ジョウエツシ",
    "town": "清里区みらい",
    "town_kana": "キヨサトクミライ",
    "street": null,
    "office_name": null,
    "office_name_kana": null
  },
  "0511": {
    "zip_code": "9430511",
    "prefecture": "新潟県",
    "prefecture_kana": "ニイガタケン",
    "prefecture_code": 15,
    "city": "上越市",
    "city_kana": "ジョウエツシ",
    "town": "清里区塩曽根",
    "town_kana": "キヨサトクシオゾネ",
    "street": null,
    "office_name": null,
    "office_name_kana": null
  },
  "0512": {
    "zip_code": "9430512",
    "prefecture": "新潟県",
    "prefecture_kana": "ニイガタケン",
    "prefecture_code": 15,
    "city": "上越市",
    "city_kana": "ジョウエツシ",
    "town": "清里区馬屋",
    "town_kana": "キヨサトクマヤ",
    "street": null,
    "office_name": null,
    "office_name_kana": null
  },
  "0513": {
    "zip_code": "9430513",
    "prefecture": "新潟県",
    "prefecture_kana": "ニイガタケン",
    "prefecture_code": 15,
    "city": "上越市",
    "city_kana": "ジョウエツシ",
    "town": "清里区今曽根",
    "town_kana": "キヨサトクイマゾネ",
    "street": null,
    "office_name": null,
    "office_name_kana": null
  },
  "0514": {
    "zip_code": "9430514",
    "prefecture": "新潟県",
    "prefecture_kana": "ニイガタケン",
    "prefecture_code": 15,
    "city": "上越市",
    "city_kana": "ジョウエツシ",
    "town": "清里区南田中",
    "town_kana": "キヨサトクミナミタナカ",
    "street": null,
    "office_name": null,
    "office_name_kana": null
  },
  "0515": {
    "zip_code": "9430515",
    "prefecture": "新潟県",
    "prefecture_kana": "ニイガタケン",
    "prefecture_code": 15,
    "city": "上越市",
    "city_kana": "ジョウエツシ",
    "town": "清里区武士",
    "town_kana": "キヨサトクモノノフ",
    "street": null,
    "office_name": null,
    "office_name_kana": null
  },
  "0516": {
    "zip_code": "9430516",
    "prefecture": "新潟県",
    "prefecture_kana": "ニイガタケン",
    "prefecture_code": 15,
    "city": "上越市",
    "city_kana": "ジョウエツシ",
    "town": "清里区上稲塚",
    "town_kana": "キヨサトクカミイナヅカ",
    "street": null,
    "office_name": null,
    "office_name_kana": null
  },
  "0521": {
    "zip_code": "9430521",
    "prefecture": "新潟県",
    "prefecture_kana": "ニイガタケン",
    "prefecture_code": 15,
    "city": "上越市",
    "city_kana": "ジョウエツシ",
    "town": "清里区寺脇",
    "town_kana": "キヨサトクテラワキ",
    "street": null,
    "office_name": null,
    "office_name_kana": null
  },
  "0522": {
    "zip_code": "9430522",
    "prefecture": "新潟県",
    "prefecture_kana": "ニイガタケン",
    "prefecture_code": 15,
    "city": "上越市",
    "city_kana": "ジョウエツシ",
    "town": "清里区東戸野",
    "town_kana": "キヨサトクヒガシトノ",
    "street": null,
    "office_name": null,
    "office_name_kana": null
  },
  "0523": {
    "zip_code": "9430523",
    "prefecture": "新潟県",
    "prefecture_kana": "ニイガタケン",
    "prefecture_code": 15,
    "city": "上越市",
    "city_kana": "ジョウエツシ",
    "town": "清里区棚田",
    "town_kana": "キヨサトクタナダ",
    "street": null,
    "office_name": null,
    "office_name_kana": null
  },
  "0524": {
    "zip_code": "9430524",
    "prefecture": "新潟県",
    "prefecture_kana": "ニイガタケン",
    "prefecture_code": 15,
    "city": "上越市",
    "city_kana": "ジョウエツシ",
    "town": "清里区水草",
    "town_kana": "キヨサトクミズクサ",
    "street": null,
    "office_name": null,
    "office_name_kana": null
  },
  "0525": {
    "zip_code": "9430525",
    "prefecture": "新潟県",
    "prefecture_kana": "ニイガタケン",
    "prefecture_code": 15,
    "city": "上越市",
    "city_kana": "ジョウエツシ",
    "town": "清里区北野",
    "town_kana": "キヨサトクキタノ",
    "street": null,
    "office_name": null,
    "office_name_kana": null
  },
  "0526": {
    "zip_code": "9430526",
    "prefecture": "新潟県",
    "prefecture_kana": "ニイガタケン",
    "prefecture_code": 15,
    "city": "上越市",
    "city_kana": "ジョウエツシ",
    "town": "清里区梨平",
    "town_kana": "キヨサトクナシダイラ",
    "street": null,
    "office_name": null,
    "office_name_kana": null
  },
  "0527": {
    "zip_code": "9430527",
    "prefecture": "新潟県",
    "prefecture_kana": "ニイガタケン",
    "prefecture_code": 15,
    "city": "上越市",
    "city_kana": "ジョウエツシ",
    "town": "清里区赤池",
    "town_kana": "キヨサトクアカイケ",
    "street": null,
    "office_name": null,
    "office_name_kana": null
  },
  "0531": {
    "zip_code": "9430531",
    "prefecture": "新潟県",
    "prefecture_kana": "ニイガタケン",
    "prefecture_code": 15,
    "city": "上越市",
    "city_kana": "ジョウエツシ",
    "town": "清里区青柳",
    "town_kana": "キヨサトクアオヤナギ",
    "street": null,
    "office_name": null,
    "office_name_kana": null
  },
  "0532": {
    "zip_code": "9430532",
    "prefecture": "新潟県",
    "prefecture_kana": "ニイガタケン",
    "prefecture_code": 15,
    "city": "上越市",
    "city_kana": "ジョウエツシ",
    "town": "清里区梨窪",
    "town_kana": "キヨサトクナシクボ",
    "street": null,
    "office_name": null,
    "office_name_kana": null
  },
  "0533": {
    "zip_code": "9430533",
    "prefecture": "新潟県",
    "prefecture_kana": "ニイガタケン",
    "prefecture_code": 15,
    "city": "上越市",
    "city_kana": "ジョウエツシ",
    "town": "清里区鶯沢",
    "town_kana": "キヨサトクウグイスサワ",
    "street": null,
    "office_name": null,
    "office_name_kana": null
  },
  "0534": {
    "zip_code": "9430534",
    "prefecture": "新潟県",
    "prefecture_kana": "ニイガタケン",
    "prefecture_code": 15,
    "city": "上越市",
    "city_kana": "ジョウエツシ",
    "town": "清里区上中条",
    "town_kana": "キヨサトクカミナカジョウ",
    "street": null,
    "office_name": null,
    "office_name_kana": null
  },
  "0535": {
    "zip_code": "9430535",
    "prefecture": "新潟県",
    "prefecture_kana": "ニイガタケン",
    "prefecture_code": 15,
    "city": "上越市",
    "city_kana": "ジョウエツシ",
    "town": "清里区鈴倉",
    "town_kana": "キヨサトクスズクラ",
    "street": null,
    "office_name": null,
    "office_name_kana": null
  },
  "0595": {
    "zip_code": "9430595",
    "prefecture": "新潟県",
    "prefecture_kana": "ニイガタケン",
    "prefecture_code": 15,
    "city": "上越市",
    "city_kana": "ジョウエツシ",
    "town": "清里区荒牧",
    "town_kana": "キヨサトクアラマキ",
    "street": "１８",
    "office_name": "上越市役所　清里区総合事務所",
    "office_name_kana": "ジヨウエツシヤクシヨ キヨサトクソウゴウジムシヨ"
  },
  "0601": {
    "zip_code": "9430601",
    "prefecture": "新潟県",
    "prefecture_kana": "ニイガタケン",
    "prefecture_code": 15,
    "city": "上越市",
    "city_kana": "ジョウエツシ",
    "town": "牧区坪山",
    "town_kana": "マキクツボヤマ",
    "street": null,
    "office_name": null,
    "office_name_kana": null
  },
  "0602": {
    "zip_code": "9430602",
    "prefecture": "新潟県",
    "prefecture_kana": "ニイガタケン",
    "prefecture_code": 15,
    "city": "上越市",
    "city_kana": "ジョウエツシ",
    "town": "牧区平方",
    "town_kana": "マキクヒラカタ",
    "street": null,
    "office_name": null,
    "office_name_kana": null
  },
  "0603": {
    "zip_code": "9430603",
    "prefecture": "新潟県",
    "prefecture_kana": "ニイガタケン",
    "prefecture_code": 15,
    "city": "上越市",
    "city_kana": "ジョウエツシ",
    "town": "牧区平山",
    "town_kana": "マキクタイラヤマ",
    "street": null,
    "office_name": null,
    "office_name_kana": null
  },
  "0604": {
    "zip_code": "9430604",
    "prefecture": "新潟県",
    "prefecture_kana": "ニイガタケン",
    "prefecture_code": 15,
    "city": "上越市",
    "city_kana": "ジョウエツシ",
    "town": "牧区七森",
    "town_kana": "マキクナナモリ",
    "street": null,
    "office_name": null,
    "office_name_kana": null
  },
  "0605": {
    "zip_code": "9430605",
    "prefecture": "新潟県",
    "prefecture_kana": "ニイガタケン",
    "prefecture_code": 15,
    "city": "上越市",
    "city_kana": "ジョウエツシ",
    "town": "牧区神谷",
    "town_kana": "マキクカミヤ",
    "street": null,
    "office_name": null,
    "office_name_kana": null
  },
  "0606": {
    "zip_code": "9430606",
    "prefecture": "新潟県",
    "prefecture_kana": "ニイガタケン",
    "prefecture_code": 15,
    "city": "上越市",
    "city_kana": "ジョウエツシ",
    "town": "牧区大月",
    "town_kana": "マキクオオツキ",
    "street": null,
    "office_name": null,
    "office_name_kana": null
  },
  "0607": {
    "zip_code": "9430607",
    "prefecture": "新潟県",
    "prefecture_kana": "ニイガタケン",
    "prefecture_code": 15,
    "city": "上越市",
    "city_kana": "ジョウエツシ",
    "town": "牧区川井沢",
    "town_kana": "マキクカワイザワ",
    "street": null,
    "office_name": null,
    "office_name_kana": null
  },
  "0611": {
    "zip_code": "9430611",
    "prefecture": "新潟県",
    "prefecture_kana": "ニイガタケン",
    "prefecture_code": 15,
    "city": "上越市",
    "city_kana": "ジョウエツシ",
    "town": "牧区片町",
    "town_kana": "マキクカタマチ",
    "street": null,
    "office_name": null,
    "office_name_kana": null
  },
  "0612": {
    "zip_code": "9430612",
    "prefecture": "新潟県",
    "prefecture_kana": "ニイガタケン",
    "prefecture_code": 15,
    "city": "上越市",
    "city_kana": "ジョウエツシ",
    "town": "牧区吉坪",
    "town_kana": "マキクヨシツボ",
    "street": null,
    "office_name": null,
    "office_name_kana": null
  },
  "0613": {
    "zip_code": "9430613",
    "prefecture": "新潟県",
    "prefecture_kana": "ニイガタケン",
    "prefecture_code": 15,
    "city": "上越市",
    "city_kana": "ジョウエツシ",
    "town": "牧区高谷",
    "town_kana": "マキクタカタニ",
    "street": null,
    "office_name": null,
    "office_name_kana": null
  },
  "0614": {
    "zip_code": "9430614",
    "prefecture": "新潟県",
    "prefecture_kana": "ニイガタケン",
    "prefecture_code": 15,
    "city": "上越市",
    "city_kana": "ジョウエツシ",
    "town": "牧区切光",
    "town_kana": "マキクセッコウ",
    "street": null,
    "office_name": null,
    "office_name_kana": null
  },
  "0615": {
    "zip_code": "9430615",
    "prefecture": "新潟県",
    "prefecture_kana": "ニイガタケン",
    "prefecture_code": 15,
    "city": "上越市",
    "city_kana": "ジョウエツシ",
    "town": "牧区今清水",
    "town_kana": "マキクイマシミズ",
    "street": null,
    "office_name": null,
    "office_name_kana": null
  },
  "0616": {
    "zip_code": "9430616",
    "prefecture": "新潟県",
    "prefecture_kana": "ニイガタケン",
    "prefecture_code": 15,
    "city": "上越市",
    "city_kana": "ジョウエツシ",
    "town": "牧区樫谷",
    "town_kana": "マキクカシダニ",
    "street": null,
    "office_name": null,
    "office_name_kana": null
  },
  "0617": {
    "zip_code": "9430617",
    "prefecture": "新潟県",
    "prefecture_kana": "ニイガタケン",
    "prefecture_code": 15,
    "city": "上越市",
    "city_kana": "ジョウエツシ",
    "town": "牧区泉",
    "town_kana": "マキクイズミ",
    "street": null,
    "office_name": null,
    "office_name_kana": null
  },
  "0621": {
    "zip_code": "9430621",
    "prefecture": "新潟県",
    "prefecture_kana": "ニイガタケン",
    "prefecture_code": 15,
    "city": "上越市",
    "city_kana": "ジョウエツシ",
    "town": "牧区高尾",
    "town_kana": "マキクタカオ",
    "street": null,
    "office_name": null,
    "office_name_kana": null
  },
  "0622": {
    "zip_code": "9430622",
    "prefecture": "新潟県",
    "prefecture_kana": "ニイガタケン",
    "prefecture_code": 15,
    "city": "上越市",
    "city_kana": "ジョウエツシ",
    "town": "牧区棚広新田",
    "town_kana": "マキクタナヒロシンデン",
    "street": null,
    "office_name": null,
    "office_name_kana": null
  },
  "0623": {
    "zip_code": "9430623",
    "prefecture": "新潟県",
    "prefecture_kana": "ニイガタケン",
    "prefecture_code": 15,
    "city": "上越市",
    "city_kana": "ジョウエツシ",
    "town": "牧区宇津俣",
    "town_kana": "マキクウツノマタ",
    "street": null,
    "office_name": null,
    "office_name_kana": null
  },
  "0624": {
    "zip_code": "9430624",
    "prefecture": "新潟県",
    "prefecture_kana": "ニイガタケン",
    "prefecture_code": 15,
    "city": "上越市",
    "city_kana": "ジョウエツシ",
    "town": "牧区府殿",
    "town_kana": "マキクフドノ",
    "street": null,
    "office_name": null,
    "office_name_kana": null
  },
  "0625": {
    "zip_code": "9430625",
    "prefecture": "新潟県",
    "prefecture_kana": "ニイガタケン",
    "prefecture_code": 15,
    "city": "上越市",
    "city_kana": "ジョウエツシ",
    "town": "牧区上牧",
    "town_kana": "マキクカミマキ",
    "street": null,
    "office_name": null,
    "office_name_kana": null
  },
  "0626": {
    "zip_code": "9430626",
    "prefecture": "新潟県",
    "prefecture_kana": "ニイガタケン",
    "prefecture_code": 15,
    "city": "上越市",
    "city_kana": "ジョウエツシ",
    "town": "牧区倉下",
    "town_kana": "マキククラシタ",
    "street": null,
    "office_name": null,
    "office_name_kana": null
  },
  "0627": {
    "zip_code": "9430627",
    "prefecture": "新潟県",
    "prefecture_kana": "ニイガタケン",
    "prefecture_code": 15,
    "city": "上越市",
    "city_kana": "ジョウエツシ",
    "town": "牧区原",
    "town_kana": "マキクハラ",
    "street": null,
    "office_name": null,
    "office_name_kana": null
  },
  "0628": {
    "zip_code": "9430628",
    "prefecture": "新潟県",
    "prefecture_kana": "ニイガタケン",
    "prefecture_code": 15,
    "city": "上越市",
    "city_kana": "ジョウエツシ",
    "town": "牧区棚広",
    "town_kana": "マキクタナヒロ",
    "street": null,
    "office_name": null,
    "office_name_kana": null
  },
  "0631": {
    "zip_code": "9430631",
    "prefecture": "新潟県",
    "prefecture_kana": "ニイガタケン",
    "prefecture_code": 15,
    "city": "上越市",
    "city_kana": "ジョウエツシ",
    "town": "牧区下湯谷",
    "town_kana": "マキクシモユウヤ",
    "street": null,
    "office_name": null,
    "office_name_kana": null
  },
  "0632": {
    "zip_code": "9430632",
    "prefecture": "新潟県",
    "prefecture_kana": "ニイガタケン",
    "prefecture_code": 15,
    "city": "上越市",
    "city_kana": "ジョウエツシ",
    "town": "牧区上昆子",
    "town_kana": "マキクカミビリゴ",
    "street": null,
    "office_name": null,
    "office_name_kana": null
  },
  "0633": {
    "zip_code": "9430633",
    "prefecture": "新潟県",
    "prefecture_kana": "ニイガタケン",
    "prefecture_code": 15,
    "city": "上越市",
    "city_kana": "ジョウエツシ",
    "town": "牧区下昆子",
    "town_kana": "マキクシモビリゴ",
    "street": null,
    "office_name": null,
    "office_name_kana": null
  },
  "0634": {
    "zip_code": "9430634",
    "prefecture": "新潟県",
    "prefecture_kana": "ニイガタケン",
    "prefecture_code": 15,
    "city": "上越市",
    "city_kana": "ジョウエツシ",
    "town": "牧区田島",
    "town_kana": "マキクタジマ",
    "street": null,
    "office_name": null,
    "office_name_kana": null
  },
  "0635": {
    "zip_code": "9430635",
    "prefecture": "新潟県",
    "prefecture_kana": "ニイガタケン",
    "prefecture_code": 15,
    "city": "上越市",
    "city_kana": "ジョウエツシ",
    "town": "牧区岩神",
    "town_kana": "マキクイワガミ",
    "street": null,
    "office_name": null,
    "office_name_kana": null
  },
  "0636": {
    "zip_code": "9430636",
    "prefecture": "新潟県",
    "prefecture_kana": "ニイガタケン",
    "prefecture_code": 15,
    "city": "上越市",
    "city_kana": "ジョウエツシ",
    "town": "牧区国川",
    "town_kana": "マキクコクガワ",
    "street": null,
    "office_name": null,
    "office_name_kana": null
  },
  "0637": {
    "zip_code": "9430637",
    "prefecture": "新潟県",
    "prefecture_kana": "ニイガタケン",
    "prefecture_code": 15,
    "city": "上越市",
    "city_kana": "ジョウエツシ",
    "town": "牧区桜滝",
    "town_kana": "マキクサクラタキ",
    "street": null,
    "office_name": null,
    "office_name_kana": null
  },
  "0641": {
    "zip_code": "9430641",
    "prefecture": "新潟県",
    "prefecture_kana": "ニイガタケン",
    "prefecture_code": 15,
    "city": "上越市",
    "city_kana": "ジョウエツシ",
    "town": "牧区東松ノ木",
    "town_kana": "マキクヒガシマツノキ",
    "street": null,
    "office_name": null,
    "office_name_kana": null
  },
  "0642": {
    "zip_code": "9430642",
    "prefecture": "新潟県",
    "prefecture_kana": "ニイガタケン",
    "prefecture_code": 15,
    "city": "上越市",
    "city_kana": "ジョウエツシ",
    "town": "牧区荒井",
    "town_kana": "マキクアライ",
    "street": null,
    "office_name": null,
    "office_name_kana": null
  },
  "0643": {
    "zip_code": "9430643",
    "prefecture": "新潟県",
    "prefecture_kana": "ニイガタケン",
    "prefecture_code": 15,
    "city": "上越市",
    "city_kana": "ジョウエツシ",
    "town": "牧区山口",
    "town_kana": "マキクヤマグチ",
    "street": null,
    "office_name": null,
    "office_name_kana": null
  },
  "0644": {
    "zip_code": "9430644",
    "prefecture": "新潟県",
    "prefecture_kana": "ニイガタケン",
    "prefecture_code": 15,
    "city": "上越市",
    "city_kana": "ジョウエツシ",
    "town": "牧区宮口",
    "town_kana": "マキクミヤグチ",
    "street": null,
    "office_name": null,
    "office_name_kana": null
  },
  "0645": {
    "zip_code": "9430645",
    "prefecture": "新潟県",
    "prefecture_kana": "ニイガタケン",
    "prefecture_code": 15,
    "city": "上越市",
    "city_kana": "ジョウエツシ",
    "town": "牧区池舟",
    "town_kana": "マキクイケフネ",
    "street": null,
    "office_name": null,
    "office_name_kana": null
  },
  "0646": {
    "zip_code": "9430646",
    "prefecture": "新潟県",
    "prefecture_kana": "ニイガタケン",
    "prefecture_code": 15,
    "city": "上越市",
    "city_kana": "ジョウエツシ",
    "town": "牧区落田",
    "town_kana": "マキクオチダ",
    "street": null,
    "office_name": null,
    "office_name_kana": null
  },
  "0647": {
    "zip_code": "9430647",
    "prefecture": "新潟県",
    "prefecture_kana": "ニイガタケン",
    "prefecture_code": 15,
    "city": "上越市",
    "city_kana": "ジョウエツシ",
    "town": "牧区柳島",
    "town_kana": "マキクヤナギシマ",
    "street": null,
    "office_name": null,
    "office_name_kana": null
  },
  "0648": {
    "zip_code": "9430648",
    "prefecture": "新潟県",
    "prefecture_kana": "ニイガタケン",
    "prefecture_code": 15,
    "city": "上越市",
    "city_kana": "ジョウエツシ",
    "town": "牧区小川",
    "town_kana": "マキクオガワ",
    "street": null,
    "office_name": null,
    "office_name_kana": null
  },
  "0692": {
    "zip_code": "9430692",
    "prefecture": "新潟県",
    "prefecture_kana": "ニイガタケン",
    "prefecture_code": 15,
    "city": "上越市",
    "city_kana": "ジョウエツシ",
    "town": "牧区柳島",
    "town_kana": "マキクヤナギシマ",
    "street": "５２２",
    "office_name": "牧村役場",
    "office_name_kana": "マキムラヤクバ"
  },
  "0801": {
    "zip_code": "9430801",
    "prefecture": "新潟県",
    "prefecture_kana": "ニイガタケン",
    "prefecture_code": 15,
    "city": "上越市",
    "city_kana": "ジョウエツシ",
    "town": "中門前",
    "town_kana": "ナカモンゼン",
    "street": null,
    "office_name": null,
    "office_name_kana": null
  },
  "0802": {
    "zip_code": "9430802",
    "prefecture": "新潟県",
    "prefecture_kana": "ニイガタケン",
    "prefecture_code": 15,
    "city": "上越市",
    "city_kana": "ジョウエツシ",
    "town": "大豆",
    "town_kana": "ダイズ",
    "street": null,
    "office_name": null,
    "office_name_kana": null
  },
  "0803": {
    "zip_code": "9430803",
    "prefecture": "新潟県",
    "prefecture_kana": "ニイガタケン",
    "prefecture_code": 15,
    "city": "上越市",
    "city_kana": "ジョウエツシ",
    "town": "春日野",
    "town_kana": "カスガノ",
    "street": null,
    "office_name": null,
    "office_name_kana": null
  },
  "0804": {
    "zip_code": "9430804",
    "prefecture": "新潟県",
    "prefecture_kana": "ニイガタケン",
    "prefecture_code": 15,
    "city": "上越市",
    "city_kana": "ジョウエツシ",
    "town": "新光町",
    "town_kana": "シンコウチョウ",
    "street": null,
    "office_name": null,
    "office_name_kana": null
  },
  "0805": {
    "zip_code": "9430805",
    "prefecture": "新潟県",
    "prefecture_kana": "ニイガタケン",
    "prefecture_code": 15,
    "city": "上越市",
    "city_kana": "ジョウエツシ",
    "town": "木田",
    "town_kana": "キダ",
    "street": null,
    "office_name": null,
    "office_name_kana": null
  },
  "0806": {
    "zip_code": "9430806",
    "prefecture": "新潟県",
    "prefecture_kana": "ニイガタケン",
    "prefecture_code": 15,
    "city": "上越市",
    "city_kana": "ジョウエツシ",
    "town": "木田新田",
    "town_kana": "キダシンデン",
    "street": null,
    "office_name": null,
    "office_name_kana": null
  },
  "0807": {
    "zip_code": "9430807",
    "prefecture": "新潟県",
    "prefecture_kana": "ニイガタケン",
    "prefecture_code": 15,
    "city": "上越市",
    "city_kana": "ジョウエツシ",
    "town": "春日山町",
    "town_kana": "カスガヤママチ",
    "street": null,
    "office_name": null,
    "office_name_kana": null
  },
  "0808": {
    "zip_code": "9430808",
    "prefecture": "新潟県",
    "prefecture_kana": "ニイガタケン",
    "prefecture_code": 15,
    "city": "上越市",
    "city_kana": "ジョウエツシ",
    "town": "宮野尾",
    "town_kana": "ミヤノオ",
    "street": null,
    "office_name": null,
    "office_name_kana": null
  },
  "0809": {
    "zip_code": "9430809",
    "prefecture": "新潟県",
    "prefecture_kana": "ニイガタケン",
    "prefecture_code": 15,
    "city": "上越市",
    "city_kana": "ジョウエツシ",
    "town": "春日",
    "town_kana": "カスガ",
    "street": null,
    "office_name": null,
    "office_name_kana": null
  },
  "0810": {
    "zip_code": "9430810",
    "prefecture": "新潟県",
    "prefecture_kana": "ニイガタケン",
    "prefecture_code": 15,
    "city": "上越市",
    "city_kana": "ジョウエツシ",
    "town": "大学前",
    "town_kana": "ダイガクマエ",
    "street": null,
    "office_name": null,
    "office_name_kana": null
  },
  "0811": {
    "zip_code": "9430811",
    "prefecture": "新潟県",
    "prefecture_kana": "ニイガタケン",
    "prefecture_code": 15,
    "city": "上越市",
    "city_kana": "ジョウエツシ",
    "town": "上正善寺",
    "town_kana": "カミショウゼンジ",
    "street": null,
    "office_name": null,
    "office_name_kana": null
  },
  "0812": {
    "zip_code": "9430812",
    "prefecture": "新潟県",
    "prefecture_kana": "ニイガタケン",
    "prefecture_code": 15,
    "city": "上越市",
    "city_kana": "ジョウエツシ",
    "town": "中正善寺",
    "town_kana": "ナカショウゼンジ",
    "street": null,
    "office_name": null,
    "office_name_kana": null
  },
  "0813": {
    "zip_code": "9430813",
    "prefecture": "新潟県",
    "prefecture_kana": "ニイガタケン",
    "prefecture_code": 15,
    "city": "上越市",
    "city_kana": "ジョウエツシ",
    "town": "下正善寺",
    "town_kana": "シモショウゼンジ",
    "street": null,
    "office_name": null,
    "office_name_kana": null
  },
  "0814": {
    "zip_code": "9430814",
    "prefecture": "新潟県",
    "prefecture_kana": "ニイガタケン",
    "prefecture_code": 15,
    "city": "上越市",
    "city_kana": "ジョウエツシ",
    "town": "岩木",
    "town_kana": "イワキ",
    "street": null,
    "office_name": null,
    "office_name_kana": null
  },
  "0815": {
    "zip_code": "9430815",
    "prefecture": "新潟県",
    "prefecture_kana": "ニイガタケン",
    "prefecture_code": 15,
    "city": "上越市",
    "city_kana": "ジョウエツシ",
    "town": "山屋敷町",
    "town_kana": "ヤマヤシキマチ",
    "street": null,
    "office_name": null,
    "office_name_kana": null
  },
  "0816": {
    "zip_code": "9430816",
    "prefecture": "新潟県",
    "prefecture_kana": "ニイガタケン",
    "prefecture_code": 15,
    "city": "上越市",
    "city_kana": "ジョウエツシ",
    "town": "藤新田",
    "town_kana": "フジシンデン",
    "street": null,
    "office_name": null,
    "office_name_kana": null
  },
  "0817": {
    "zip_code": "9430817",
    "prefecture": "新潟県",
    "prefecture_kana": "ニイガタケン",
    "prefecture_code": 15,
    "city": "上越市",
    "city_kana": "ジョウエツシ",
    "town": "藤巻",
    "town_kana": "フジマキ",
    "street": null,
    "office_name": null,
    "office_name_kana": null
  },
  "0818": {
    "zip_code": "9430818",
    "prefecture": "新潟県",
    "prefecture_kana": "ニイガタケン",
    "prefecture_code": 15,
    "city": "上越市",
    "city_kana": "ジョウエツシ",
    "town": "宇津尾",
    "town_kana": "ウツオ",
    "street": null,
    "office_name": null,
    "office_name_kana": null
  },
  "0819": {
    "zip_code": "9430819",
    "prefecture": "新潟県",
    "prefecture_kana": "ニイガタケン",
    "prefecture_code": 15,
    "city": "上越市",
    "city_kana": "ジョウエツシ",
    "town": "中屋敷",
    "town_kana": "ナカヤシキ",
    "street": null,
    "office_name": null,
    "office_name_kana": null
  },
  "0821": {
    "zip_code": "9430821",
    "prefecture": "新潟県",
    "prefecture_kana": "ニイガタケン",
    "prefecture_code": 15,
    "city": "上越市",
    "city_kana": "ジョウエツシ",
    "town": "土橋",
    "town_kana": "ツチハシ",
    "street": null,
    "office_name": null,
    "office_name_kana": null
  },
  "0822": {
    "zip_code": "9430822",
    "prefecture": "新潟県",
    "prefecture_kana": "ニイガタケン",
    "prefecture_code": 15,
    "city": "上越市",
    "city_kana": "ジョウエツシ",
    "town": "新町",
    "town_kana": "シンマチ",
    "street": null,
    "office_name": null,
    "office_name_kana": null
  },
  "0823": {
    "zip_code": "9430823",
    "prefecture": "新潟県",
    "prefecture_kana": "ニイガタケン",
    "prefecture_code": 15,
    "city": "上越市",
    "city_kana": "ジョウエツシ",
    "town": "高土町",
    "town_kana": "コウドチョウ",
    "street": null,
    "office_name": null,
    "office_name_kana": null
  },
  "0824": {
    "zip_code": "9430824",
    "prefecture": "新潟県",
    "prefecture_kana": "ニイガタケン",
    "prefecture_code": 15,
    "city": "上越市",
    "city_kana": "ジョウエツシ",
    "town": "北城町",
    "town_kana": "キタシロチョウ",
    "street": null,
    "office_name": null,
    "office_name_kana": null
  },
  "0825": {
    "zip_code": "9430825",
    "prefecture": "新潟県",
    "prefecture_kana": "ニイガタケン",
    "prefecture_code": 15,
    "city": "上越市",
    "city_kana": "ジョウエツシ",
    "town": "東本町",
    "town_kana": "ヒガシホンチョウ",
    "street": null,
    "office_name": null,
    "office_name_kana": null
  },
  "0826": {
    "zip_code": "9430826",
    "prefecture": "新潟県",
    "prefecture_kana": "ニイガタケン",
    "prefecture_code": 15,
    "city": "上越市",
    "city_kana": "ジョウエツシ",
    "town": "幸町",
    "town_kana": "サイワイチョウ",
    "street": null,
    "office_name": null,
    "office_name_kana": null
  },
  "0827": {
    "zip_code": "9430827",
    "prefecture": "新潟県",
    "prefecture_kana": "ニイガタケン",
    "prefecture_code": 15,
    "city": "上越市",
    "city_kana": "ジョウエツシ",
    "town": "栄町",
    "town_kana": "サカエマチ",
    "street": null,
    "office_name": null,
    "office_name_kana": null
  },
  "0828": {
    "zip_code": "9430828",
    "prefecture": "新潟県",
    "prefecture_kana": "ニイガタケン",
    "prefecture_code": 15,
    "city": "上越市",
    "city_kana": "ジョウエツシ",
    "town": "北本町",
    "town_kana": "キタホンチョウ",
    "street": null,
    "office_name": null,
    "office_name_kana": null
  },
  "0829": {
    "zip_code": "9430829",
    "prefecture": "新潟県",
    "prefecture_kana": "ニイガタケン",
    "prefecture_code": 15,
    "city": "上越市",
    "city_kana": "ジョウエツシ",
    "town": "薄袋",
    "town_kana": "ススキブクロ",
    "street": null,
    "office_name": null,
    "office_name_kana": null
  },
  "0831": {
    "zip_code": "9430831",
    "prefecture": "新潟県",
    "prefecture_kana": "ニイガタケン",
    "prefecture_code": 15,
    "city": "上越市",
    "city_kana": "ジョウエツシ",
    "town": "仲町",
    "town_kana": "ナカマチ",
    "street": null,
    "office_name": null,
    "office_name_kana": null
  },
  "0832": {
    "zip_code": "9430832",
    "prefecture": "新潟県",
    "prefecture_kana": "ニイガタケン",
    "prefecture_code": 15,
    "city": "上越市",
    "city_kana": "ジョウエツシ",
    "town": "本町",
    "town_kana": "ホンチョウ",
    "street": null,
    "office_name": null,
    "office_name_kana": null
  },
  "0833": {
    "zip_code": "9430833",
    "prefecture": "新潟県",
    "prefecture_kana": "ニイガタケン",
    "prefecture_code": 15,
    "city": "上越市",
    "city_kana": "ジョウエツシ",
    "town": "大町",
    "town_kana": "オオマチ",
    "street": null,
    "office_name": null,
    "office_name_kana": null
  },
  "0834": {
    "zip_code": "9430834",
    "prefecture": "新潟県",
    "prefecture_kana": "ニイガタケン",
    "prefecture_code": 15,
    "city": "上越市",
    "city_kana": "ジョウエツシ",
    "town": "西城町",
    "town_kana": "ニシシロチョウ",
    "street": null,
    "office_name": null,
    "office_name_kana": null
  },
  "0835": {
    "zip_code": "9430835",
    "prefecture": "新潟県",
    "prefecture_kana": "ニイガタケン",
    "prefecture_code": 15,
    "city": "上越市",
    "city_kana": "ジョウエツシ",
    "town": "本城町",
    "town_kana": "モトシロチョウ",
    "street": null,
    "office_name": null,
    "office_name_kana": null
  },
  "0836": {
    "zip_code": "9430836",
    "prefecture": "新潟県",
    "prefecture_kana": "ニイガタケン",
    "prefecture_code": 15,
    "city": "上越市",
    "city_kana": "ジョウエツシ",
    "town": "東城町",
    "town_kana": "ヒガシシロチョウ",
    "street": null,
    "office_name": null,
    "office_name_kana": null
  },
  "0837": {
    "zip_code": "9430837",
    "prefecture": "新潟県",
    "prefecture_kana": "ニイガタケン",
    "prefecture_code": 15,
    "city": "上越市",
    "city_kana": "ジョウエツシ",
    "town": "南城町",
    "town_kana": "ミナミシロチョウ",
    "street": null,
    "office_name": null,
    "office_name_kana": null
  },
  "0838": {
    "zip_code": "9430838",
    "prefecture": "新潟県",
    "prefecture_kana": "ニイガタケン",
    "prefecture_code": 15,
    "city": "上越市",
    "city_kana": "ジョウエツシ",
    "town": "大手町",
    "town_kana": "オオテマチ",
    "street": null,
    "office_name": null,
    "office_name_kana": null
  },
  "0839": {
    "zip_code": "9430839",
    "prefecture": "新潟県",
    "prefecture_kana": "ニイガタケン",
    "prefecture_code": 15,
    "city": "上越市",
    "city_kana": "ジョウエツシ",
    "town": "上湯谷",
    "town_kana": "カミユダニ",
    "street": null,
    "office_name": null,
    "office_name_kana": null
  },
  "0841": {
    "zip_code": "9430841",
    "prefecture": "新潟県",
    "prefecture_kana": "ニイガタケン",
    "prefecture_code": 15,
    "city": "上越市",
    "city_kana": "ジョウエツシ",
    "town": "南本町",
    "town_kana": "ミナミホンチョウ",
    "street": null,
    "office_name": null,
    "office_name_kana": null
  },
  "0842": {
    "zip_code": "9430842",
    "prefecture": "新潟県",
    "prefecture_kana": "ニイガタケン",
    "prefecture_code": 15,
    "city": "上越市",
    "city_kana": "ジョウエツシ",
    "town": "五ケ所新田",
    "town_kana": "ゴカショシンデン",
    "street": null,
    "office_name": null,
    "office_name_kana": null
  },
  "0843": {
    "zip_code": "9430843",
    "prefecture": "新潟県",
    "prefecture_kana": "ニイガタケン",
    "prefecture_code": 15,
    "city": "上越市",
    "city_kana": "ジョウエツシ",
    "town": "下新田",
    "town_kana": "シモシンデン",
    "street": null,
    "office_name": null,
    "office_name_kana": null
  },
  "0844": {
    "zip_code": "9430844",
    "prefecture": "新潟県",
    "prefecture_kana": "ニイガタケン",
    "prefecture_code": 15,
    "city": "上越市",
    "city_kana": "ジョウエツシ",
    "town": "丸山新田",
    "town_kana": "マルヤマシンデン",
    "street": null,
    "office_name": null,
    "office_name_kana": null
  },
  "0845": {
    "zip_code": "9430845",
    "prefecture": "新潟県",
    "prefecture_kana": "ニイガタケン",
    "prefecture_code": 15,
    "city": "上越市",
    "city_kana": "ジョウエツシ",
    "town": "高田新田",
    "town_kana": "タカダシンデン",
    "street": null,
    "office_name": null,
    "office_name_kana": null
  },
  "0846": {
    "zip_code": "9430846",
    "prefecture": "新潟県",
    "prefecture_kana": "ニイガタケン",
    "prefecture_code": 15,
    "city": "上越市",
    "city_kana": "ジョウエツシ",
    "town": "南高田町",
    "town_kana": "ミナミタカダマチ",
    "street": null,
    "office_name": null,
    "office_name_kana": null
  },
  "0847": {
    "zip_code": "9430847",
    "prefecture": "新潟県",
    "prefecture_kana": "ニイガタケン",
    "prefecture_code": 15,
    "city": "上越市",
    "city_kana": "ジョウエツシ",
    "town": "南新町",
    "town_kana": "ミナミシンマチ",
    "street": null,
    "office_name": null,
    "office_name_kana": null
  },
  "0848": {
    "zip_code": "9430848",
    "prefecture": "新潟県",
    "prefecture_kana": "ニイガタケン",
    "prefecture_code": 15,
    "city": "上越市",
    "city_kana": "ジョウエツシ",
    "town": "儀明",
    "town_kana": "ギミョウ",
    "street": null,
    "office_name": null,
    "office_name_kana": null
  },
  "0849": {
    "zip_code": "9430849",
    "prefecture": "新潟県",
    "prefecture_kana": "ニイガタケン",
    "prefecture_code": 15,
    "city": "上越市",
    "city_kana": "ジョウエツシ",
    "town": "塩荷谷",
    "town_kana": "シオニダニ",
    "street": null,
    "office_name": null,
    "office_name_kana": null
  },
  "0851": {
    "zip_code": "9430851",
    "prefecture": "新潟県",
    "prefecture_kana": "ニイガタケン",
    "prefecture_code": 15,
    "city": "上越市",
    "city_kana": "ジョウエツシ",
    "town": "下箱井",
    "town_kana": "シモハコイ",
    "street": null,
    "office_name": null,
    "office_name_kana": null
  },
  "0852": {
    "zip_code": "9430852",
    "prefecture": "新潟県",
    "prefecture_kana": "ニイガタケン",
    "prefecture_code": 15,
    "city": "上越市",
    "city_kana": "ジョウエツシ",
    "town": "島田下新田",
    "town_kana": "シマダシモシンデン",
    "street": null,
    "office_name": null,
    "office_name_kana": null
  },
  "0853": {
    "zip_code": "9430853",
    "prefecture": "新潟県",
    "prefecture_kana": "ニイガタケン",
    "prefecture_code": 15,
    "city": "上越市",
    "city_kana": "ジョウエツシ",
    "town": "島田",
    "town_kana": "シマダ",
    "street": null,
    "office_name": null,
    "office_name_kana": null
  },
  "0854": {
    "zip_code": "9430854",
    "prefecture": "新潟県",
    "prefecture_kana": "ニイガタケン",
    "prefecture_code": 15,
    "city": "上越市",
    "city_kana": "ジョウエツシ",
    "town": "島田上新田",
    "town_kana": "シマダカミシンデン",
    "street": null,
    "office_name": null,
    "office_name_kana": null
  },
  "0855": {
    "zip_code": "9430855",
    "prefecture": "新潟県",
    "prefecture_kana": "ニイガタケン",
    "prefecture_code": 15,
    "city": "上越市",
    "city_kana": "ジョウエツシ",
    "town": "木島",
    "town_kana": "キジマ",
    "street": null,
    "office_name": null,
    "office_name_kana": null
  },
  "0856": {
    "zip_code": "9430856",
    "prefecture": "新潟県",
    "prefecture_kana": "ニイガタケン",
    "prefecture_code": 15,
    "city": "上越市",
    "city_kana": "ジョウエツシ",
    "town": "上箱井",
    "town_kana": "カミハコイ",
    "street": null,
    "office_name": null,
    "office_name_kana": null
  },
  "0857": {
    "zip_code": "9430857",
    "prefecture": "新潟県",
    "prefecture_kana": "ニイガタケン",
    "prefecture_code": 15,
    "city": "上越市",
    "city_kana": "ジョウエツシ",
    "town": "中箱井",
    "town_kana": "ナカハコイ",
    "street": null,
    "office_name": null,
    "office_name_kana": null
  },
  "0858": {
    "zip_code": "9430858",
    "prefecture": "新潟県",
    "prefecture_kana": "ニイガタケン",
    "prefecture_code": 15,
    "city": "上越市",
    "city_kana": "ジョウエツシ",
    "town": "岡原",
    "town_kana": "オカバラ",
    "street": null,
    "office_name": null,
    "office_name_kana": null
  },
  "0859": {
    "zip_code": "9430859",
    "prefecture": "新潟県",
    "prefecture_kana": "ニイガタケン",
    "prefecture_code": 15,
    "city": "上越市",
    "city_kana": "ジョウエツシ",
    "town": "寺町",
    "town_kana": "テラマチ",
    "street": null,
    "office_name": null,
    "office_name_kana": null
  },
  "0861": {
    "zip_code": "9430861",
    "prefecture": "新潟県",
    "prefecture_kana": "ニイガタケン",
    "prefecture_code": 15,
    "city": "上越市",
    "city_kana": "ジョウエツシ",
    "town": "大和",
    "town_kana": "ヤマト",
    "street": null,
    "office_name": null,
    "office_name_kana": null
  },
  "0862": {
    "zip_code": "9430862",
    "prefecture": "新潟県",
    "prefecture_kana": "ニイガタケン",
    "prefecture_code": 15,
    "city": "上越市",
    "city_kana": "ジョウエツシ",
    "town": "荒町",
    "town_kana": "アラマチ",
    "street": null,
    "office_name": null,
    "office_name_kana": null
  },
  "0863": {
    "zip_code": "9430863",
    "prefecture": "新潟県",
    "prefecture_kana": "ニイガタケン",
    "prefecture_code": 15,
    "city": "上越市",
    "city_kana": "ジョウエツシ",
    "town": "脇野田",
    "town_kana": "ワキノダ",
    "street": null,
    "office_name": null,
    "office_name_kana": null
  },
  "0864": {
    "zip_code": "9430864",
    "prefecture": "新潟県",
    "prefecture_kana": "ニイガタケン",
    "prefecture_code": 15,
    "city": "上越市",
    "city_kana": "ジョウエツシ",
    "town": "今泉",
    "town_kana": "イマイズミ",
    "street": null,
    "office_name": null,
    "office_name_kana": null
  },
  "0865": {
    "zip_code": "9430865",
    "prefecture": "新潟県",
    "prefecture_kana": "ニイガタケン",
    "prefecture_code": 15,
    "city": "上越市",
    "city_kana": "ジョウエツシ",
    "town": "七ケ所新田",
    "town_kana": "シチカショシンデン",
    "street": null,
    "office_name": null,
    "office_name_kana": null
  },
  "0866": {
    "zip_code": "9430866",
    "prefecture": "新潟県",
    "prefecture_kana": "ニイガタケン",
    "prefecture_code": 15,
    "city": "上越市",
    "city_kana": "ジョウエツシ",
    "town": "土合",
    "town_kana": "ドアイ",
    "street": null,
    "office_name": null,
    "office_name_kana": null
  },
  "0871": {
    "zip_code": "9430871",
    "prefecture": "新潟県",
    "prefecture_kana": "ニイガタケン",
    "prefecture_code": 15,
    "city": "上越市",
    "city_kana": "ジョウエツシ",
    "town": "青木",
    "town_kana": "アオキ",
    "street": null,
    "office_name": null,
    "office_name_kana": null
  },
  "0872": {
    "zip_code": "9430872",
    "prefecture": "新潟県",
    "prefecture_kana": "ニイガタケン",
    "prefecture_code": 15,
    "city": "上越市",
    "city_kana": "ジョウエツシ",
    "town": "石沢",
    "town_kana": "イシザワ",
    "street": null,
    "office_name": null,
    "office_name_kana": null
  },
  "0873": {
    "zip_code": "9430873",
    "prefecture": "新潟県",
    "prefecture_kana": "ニイガタケン",
    "prefecture_code": 15,
    "city": "上越市",
    "city_kana": "ジョウエツシ",
    "town": "西田中",
    "town_kana": "ニシタナカ",
    "street": null,
    "office_name": null,
    "office_name_kana": null
  },
  "0874": {
    "zip_code": "9430874",
    "prefecture": "新潟県",
    "prefecture_kana": "ニイガタケン",
    "prefecture_code": 15,
    "city": "上越市",
    "city_kana": "ジョウエツシ",
    "town": "稲荷",
    "town_kana": "イナリ",
    "street": null,
    "office_name": null,
    "office_name_kana": null
  },
  "0875": {
    "zip_code": "9430875",
    "prefecture": "新潟県",
    "prefecture_kana": "ニイガタケン",
    "prefecture_code": 15,
    "city": "上越市",
    "city_kana": "ジョウエツシ",
    "town": "地頭方",
    "town_kana": "ジトウガタ",
    "street": null,
    "office_name": null,
    "office_name_kana": null
  },
  "0876": {
    "zip_code": "9430876",
    "prefecture": "新潟県",
    "prefecture_kana": "ニイガタケン",
    "prefecture_code": 15,
    "city": "上越市",
    "city_kana": "ジョウエツシ",
    "town": "上門前",
    "town_kana": "カミモンゼン",
    "street": null,
    "office_name": null,
    "office_name_kana": null
  },
  "0877": {
    "zip_code": "9430877",
    "prefecture": "新潟県",
    "prefecture_kana": "ニイガタケン",
    "prefecture_code": 15,
    "city": "上越市",
    "city_kana": "ジョウエツシ",
    "town": "小滝",
    "town_kana": "コタキ",
    "street": null,
    "office_name": null,
    "office_name_kana": null
  },
  "0878": {
    "zip_code": "9430878",
    "prefecture": "新潟県",
    "prefecture_kana": "ニイガタケン",
    "prefecture_code": 15,
    "city": "上越市",
    "city_kana": "ジョウエツシ",
    "town": "下馬場",
    "town_kana": "シモババ",
    "street": null,
    "office_name": null,
    "office_name_kana": null
  },
  "0881": {
    "zip_code": "9430881",
    "prefecture": "新潟県",
    "prefecture_kana": "ニイガタケン",
    "prefecture_code": 15,
    "city": "上越市",
    "city_kana": "ジョウエツシ",
    "town": "京田",
    "town_kana": "キョウデン",
    "street": null,
    "office_name": null,
    "office_name_kana": null
  },
  "0882": {
    "zip_code": "9430882",
    "prefecture": "新潟県",
    "prefecture_kana": "ニイガタケン",
    "prefecture_code": 15,
    "city": "上越市",
    "city_kana": "ジョウエツシ",
    "town": "中田原",
    "town_kana": "ナカダハラ",
    "street": null,
    "office_name": null,
    "office_name_kana": null
  },
  "0883": {
    "zip_code": "9430883",
    "prefecture": "新潟県",
    "prefecture_kana": "ニイガタケン",
    "prefecture_code": 15,
    "city": "上越市",
    "city_kana": "ジョウエツシ",
    "town": "中通町",
    "town_kana": "ナカドオリマチ",
    "street": null,
    "office_name": null,
    "office_name_kana": null
  },
  "0884": {
    "zip_code": "9430884",
    "prefecture": "新潟県",
    "prefecture_kana": "ニイガタケン",
    "prefecture_code": 15,
    "city": "上越市",
    "city_kana": "ジョウエツシ",
    "town": "上中田",
    "town_kana": "カミナカダ",
    "street": null,
    "office_name": null,
    "office_name_kana": null
  },
  "0885": {
    "zip_code": "9430885",
    "prefecture": "新潟県",
    "prefecture_kana": "ニイガタケン",
    "prefecture_code": 15,
    "city": "上越市",
    "city_kana": "ジョウエツシ",
    "town": "黒田",
    "town_kana": "クロダ",
    "street": null,
    "office_name": null,
    "office_name_kana": null
  },
  "0886": {
    "zip_code": "9430886",
    "prefecture": "新潟県",
    "prefecture_kana": "ニイガタケン",
    "prefecture_code": 15,
    "city": "上越市",
    "city_kana": "ジョウエツシ",
    "town": "朝日",
    "town_kana": "アサヒ",
    "street": null,
    "office_name": null,
    "office_name_kana": null
  },
  "0887": {
    "zip_code": "9430887",
    "prefecture": "新潟県",
    "prefecture_kana": "ニイガタケン",
    "prefecture_code": 15,
    "city": "上越市",
    "city_kana": "ジョウエツシ",
    "town": "灰塚",
    "town_kana": "ハイヅカ",
    "street": null,
    "office_name": null,
    "office_name_kana": null
  },
  "0888": {
    "zip_code": "9430888",
    "prefecture": "新潟県",
    "prefecture_kana": "ニイガタケン",
    "prefecture_code": 15,
    "city": "上越市",
    "city_kana": "ジョウエツシ",
    "town": "向橋",
    "town_kana": "ムカバシ",
    "street": null,
    "office_name": null,
    "office_name_kana": null
  },
  "0889": {
    "zip_code": "9430889",
    "prefecture": "新潟県",
    "prefecture_kana": "ニイガタケン",
    "prefecture_code": 15,
    "city": "上越市",
    "city_kana": "ジョウエツシ",
    "town": "後谷",
    "town_kana": "ウシロダニ",
    "street": null,
    "office_name": null,
    "office_name_kana": null
  },
  "0891": {
    "zip_code": "9430891",
    "prefecture": "新潟県",
    "prefecture_kana": "ニイガタケン",
    "prefecture_code": 15,
    "city": "上越市",
    "city_kana": "ジョウエツシ",
    "town": "昭和町",
    "town_kana": "ショウワマチ",
    "street": null,
    "office_name": null,
    "office_name_kana": null
  },
  "0892": {
    "zip_code": "9430892",
    "prefecture": "新潟県",
    "prefecture_kana": "ニイガタケン",
    "prefecture_code": 15,
    "city": "上越市",
    "city_kana": "ジョウエツシ",
    "town": "寺町",
    "town_kana": "テラマチ",
    "street": null,
    "office_name": null,
    "office_name_kana": null
  },
  "0893": {
    "zip_code": "9430893",
    "prefecture": "新潟県",
    "prefecture_kana": "ニイガタケン",
    "prefecture_code": 15,
    "city": "上越市",
    "city_kana": "ジョウエツシ",
    "town": "大貫",
    "town_kana": "オオヌキ",
    "street": null,
    "office_name": null,
    "office_name_kana": null
  },
  "0894": {
    "zip_code": "9430894",
    "prefecture": "新潟県",
    "prefecture_kana": "ニイガタケン",
    "prefecture_code": 15,
    "city": "上越市",
    "city_kana": "ジョウエツシ",
    "town": "上昭和町",
    "town_kana": "カミショウワマチ",
    "street": null,
    "office_name": null,
    "office_name_kana": null
  },
  "0895": {
    "zip_code": "9430895",
    "prefecture": "新潟県",
    "prefecture_kana": "ニイガタケン",
    "prefecture_code": 15,
    "city": "上越市",
    "city_kana": "ジョウエツシ",
    "town": "御殿山町",
    "town_kana": "ゴテンヤマチョウ",
    "street": null,
    "office_name": null,
    "office_name_kana": null
  },
  "0896": {
    "zip_code": "9430896",
    "prefecture": "新潟県",
    "prefecture_kana": "ニイガタケン",
    "prefecture_code": 15,
    "city": "上越市",
    "city_kana": "ジョウエツシ",
    "town": "飯",
    "town_kana": "イイ",
    "street": null,
    "office_name": null,
    "office_name_kana": null
  },
  "0897": {
    "zip_code": "9430897",
    "prefecture": "新潟県",
    "prefecture_kana": "ニイガタケン",
    "prefecture_code": 15,
    "city": "上越市",
    "city_kana": "ジョウエツシ",
    "town": "滝寺",
    "town_kana": "タキデラ",
    "street": null,
    "office_name": null,
    "office_name_kana": null
  },
  "0898": {
    "zip_code": "9430898",
    "prefecture": "新潟県",
    "prefecture_kana": "ニイガタケン",
    "prefecture_code": 15,
    "city": "上越市",
    "city_kana": "ジョウエツシ",
    "town": "塚田新田",
    "town_kana": "ツカダシンデン",
    "street": null,
    "office_name": null,
    "office_name_kana": null
  },
  "0899": {
    "zip_code": "9430899",
    "prefecture": "新潟県",
    "prefecture_kana": "ニイガタケン",
    "prefecture_code": 15,
    "city": "上越市",
    "city_kana": "ジョウエツシ",
    "town": "下中田",
    "town_kana": "シモナカダ",
    "street": null,
    "office_name": null,
    "office_name_kana": null
  },
  "8501": {
    "zip_code": "9438501",
    "prefecture": "新潟県",
    "prefecture_kana": "ニイガタケン",
    "prefecture_code": 15,
    "city": "上越市",
    "city_kana": "ジョウエツシ",
    "town": "南城町",
    "town_kana": "ミナミシロチョウ",
    "street": "３丁目７−１",
    "office_name": "陸上自衛隊高田駐屯地",
    "office_name_kana": "リクジヨウジエイタイタカダチユウトンチ"
  },
  "8502": {
    "zip_code": "9438502",
    "prefecture": "新潟県",
    "prefecture_kana": "ニイガタケン",
    "prefecture_code": 15,
    "city": "上越市",
    "city_kana": "ジョウエツシ",
    "town": "新光町",
    "town_kana": "シンコウチョウ",
    "street": "１丁目１０−２０",
    "office_name": "上越商工会議所",
    "office_name_kana": "ジヨウエツシヨウコウカイギシヨ"
  },
  "8503": {
    "zip_code": "9438503",
    "prefecture": "新潟県",
    "prefecture_kana": "ニイガタケン",
    "prefecture_code": 15,
    "city": "上越市",
    "city_kana": "ジョウエツシ",
    "town": "本城町",
    "town_kana": "モトシロチョウ",
    "street": "３−１",
    "office_name": "新潟県立　高田工業高等学校",
    "office_name_kana": "ニイガタケンリツ タカダコウギヨウコウトウガツコウ"
  },
  "8505": {
    "zip_code": "9438505",
    "prefecture": "新潟県",
    "prefecture_kana": null,
    "prefecture_code": null,
    "city": "上越市",
    "city_kana": null,
    "town": "大字土橋",
    "town_kana": null,
    "street": "１９２８",
    "office_name": "田中産業　株式会社",
    "office_name_kana": "タナカサンギヨウ カブシキガイシヤ"
  },
  "8510": {
    "zip_code": "9438510",
    "prefecture": "新潟県",
    "prefecture_kana": "ニイガタケン",
    "prefecture_code": 15,
    "city": "上越市",
    "city_kana": "ジョウエツシ",
    "town": "東本町",
    "town_kana": "ヒガシホンチョウ",
    "street": "１丁目１−１",
    "office_name": "高倉商事　株式会社",
    "office_name_kana": "タカクラシヨウジ カブシキガイシヤ"
  },
  "8512": {
    "zip_code": "9438512",
    "prefecture": "新潟県",
    "prefecture_kana": "ニイガタケン",
    "prefecture_code": 15,
    "city": "上越市",
    "city_kana": "ジョウエツシ",
    "town": "山屋敷町",
    "town_kana": "ヤマヤシキマチ",
    "street": "１",
    "office_name": "上越教育大学",
    "office_name_kana": "ジヨウエツキヨウイクダイガク"
  },
  "8515": {
    "zip_code": "9438515",
    "prefecture": "新潟県",
    "prefecture_kana": "ニイガタケン",
    "prefecture_code": 15,
    "city": "上越市",
    "city_kana": "ジョウエツシ",
    "town": "南城町",
    "town_kana": "ミナミシロチョウ",
    "street": "３丁目５−５",
    "office_name": "新潟県立　高田高等学校",
    "office_name_kana": "ニイガタケンリツ タカダコウトウガツコウ"
  },
  "8520": {
    "zip_code": "9438520",
    "prefecture": "新潟県",
    "prefecture_kana": "ニイガタケン",
    "prefecture_code": 15,
    "city": "上越市",
    "city_kana": "ジョウエツシ",
    "town": "本町",
    "town_kana": "ホンチョウ",
    "street": "７丁目２−１２",
    "office_name": "株式会社　ジョーセン",
    "office_name_kana": "カブシキガイシヤ ジヨ-セン"
  },
  "8521": {
    "zip_code": "9438521",
    "prefecture": "新潟県",
    "prefecture_kana": null,
    "prefecture_code": null,
    "city": "上越市",
    "city_kana": null,
    "town": "大字薄袋",
    "town_kana": null,
    "street": "６５",
    "office_name": "株式会社　一印上越魚市場",
    "office_name_kana": "カブシキガイシヤ イチジルシジヨウエツウオイチバ"
  },
  "8522": {
    "zip_code": "9438522",
    "prefecture": "新潟県",
    "prefecture_kana": "ニイガタケン",
    "prefecture_code": 15,
    "city": "上越市",
    "city_kana": "ジョウエツシ",
    "town": "西城町",
    "town_kana": "ニシシロチョウ",
    "street": "２丁目１０−２５",
    "office_name": "上越ケーブルビジョン　株式会社",
    "office_name_kana": "ジヨウエツケ-ブルビジヨン カブシキガイシヤ"
  },
  "8525": {
    "zip_code": "9438525",
    "prefecture": "新潟県",
    "prefecture_kana": "ニイガタケン",
    "prefecture_code": 15,
    "city": "上越市",
    "city_kana": "ジョウエツシ",
    "town": "北城町",
    "town_kana": "キタシロチョウ",
    "street": "２丁目８−１",
    "office_name": "新潟県立　高田北城高等学校",
    "office_name_kana": "ニイガタケンリツ タカダキタシロコウトウガツコウ"
  },
  "8530": {
    "zip_code": "9438530",
    "prefecture": "新潟県",
    "prefecture_kana": "ニイガタケン",
    "prefecture_code": 15,
    "city": "上越市",
    "city_kana": "ジョウエツシ",
    "town": "新光町",
    "town_kana": "シンコウチョウ",
    "street": "３丁目１８−８",
    "office_name": "医療法人　三交病院",
    "office_name_kana": "イリヨウホウジン サンコウビヨウイン"
  },
  "8531": {
    "zip_code": "9438531",
    "prefecture": "新潟県",
    "prefecture_kana": "ニイガタケン",
    "prefecture_code": 15,
    "city": "上越市",
    "city_kana": "ジョウエツシ",
    "town": "南高田町",
    "town_kana": "ミナミタカダマチ",
    "street": "６−９",
    "office_name": "上越地域医療センター病院",
    "office_name_kana": "ジヨウエツチイキイリヨウセンタ-ビヨウイン"
  },
  "8533": {
    "zip_code": "9438533",
    "prefecture": "新潟県",
    "prefecture_kana": "ニイガタケン",
    "prefecture_code": 15,
    "city": "上越市",
    "city_kana": "ジョウエツシ",
    "town": "藤巻",
    "town_kana": "フジマキ",
    "street": "８−６４",
    "office_name": "三井企画　株式会社",
    "office_name_kana": "ミツイキカク カブシキガイシヤ"
  },
  "8534": {
    "zip_code": "9438534",
    "prefecture": "新潟県",
    "prefecture_kana": "ニイガタケン",
    "prefecture_code": 15,
    "city": "上越市",
    "city_kana": "ジョウエツシ",
    "town": "西城町",
    "town_kana": "ニシシロチョウ",
    "street": "３丁目１１−１９",
    "office_name": "上越社会保険事務所",
    "office_name_kana": "ジヨウエツシヤカイホケンジムシヨ"
  },
  "8540": {
    "zip_code": "9438540",
    "prefecture": "新潟県",
    "prefecture_kana": "ニイガタケン",
    "prefecture_code": 15,
    "city": "上越市",
    "city_kana": "ジョウエツシ",
    "town": "藤巻",
    "town_kana": "フジマキ",
    "street": "６−５５",
    "office_name": "株式会社　サトコウ",
    "office_name_kana": "カブシキガイシヤ サトコウ"
  },
  "8544": {
    "zip_code": "9438544",
    "prefecture": "新潟県",
    "prefecture_kana": null,
    "prefecture_code": null,
    "city": "上越市",
    "city_kana": null,
    "town": "大字中田原",
    "town_kana": null,
    "street": "１１１",
    "office_name": "株式会社　みながわ製菓",
    "office_name_kana": "カブシキガイシヤ ミナガワセイカ"
  },
  "8545": {
    "zip_code": "9438545",
    "prefecture": "新潟県",
    "prefecture_kana": "ニイガタケン",
    "prefecture_code": 15,
    "city": "上越市",
    "city_kana": "ジョウエツシ",
    "town": "木田",
    "town_kana": "キダ",
    "street": "１丁目２−４",
    "office_name": "新潟日報　上越支社",
    "office_name_kana": "ニイガタニツポウ ジヨウエツシシヤ"
  },
  "8551": {
    "zip_code": "9438551",
    "prefecture": "新潟県",
    "prefecture_kana": "ニイガタケン",
    "prefecture_code": 15,
    "city": "上越市",
    "city_kana": "ジョウエツシ",
    "town": "本城町",
    "town_kana": "モトシロチョウ",
    "street": "５−６",
    "office_name": "上越地域振興局",
    "office_name_kana": "ジヨウエツチイキシンコウキヨク"
  },
  "8555": {
    "zip_code": "9438555",
    "prefecture": "新潟県",
    "prefecture_kana": "ニイガタケン",
    "prefecture_code": 15,
    "city": "上越市",
    "city_kana": "ジョウエツシ",
    "town": "春日野",
    "town_kana": "カスガノ",
    "street": "１丁目２−３３",
    "office_name": "一般社団法人　上越医師会",
    "office_name_kana": "イツパンシヤダンホウジン ジヨウエツイシカイ"
  },
  "8561": {
    "zip_code": "9438561",
    "prefecture": "新潟県",
    "prefecture_kana": null,
    "prefecture_code": null,
    "city": "上越市",
    "city_kana": null,
    "town": "大字大貫",
    "town_kana": null,
    "street": "１３２５",
    "office_name": "学校法人　関根学園",
    "office_name_kana": "ガツコウホウジン セキネガクエン"
  },
  "8585": {
    "zip_code": "9438585",
    "prefecture": "新潟県",
    "prefecture_kana": "ニイガタケン",
    "prefecture_code": 15,
    "city": "上越市",
    "city_kana": "ジョウエツシ",
    "town": "高土町",
    "town_kana": "コウドチョウ",
    "street": "２丁目４−６",
    "office_name": "株式会社　上越タイムス社",
    "office_name_kana": "カブシキガイシヤ ジヨウエツタイムスシヤ"
  },
  "8588": {
    "zip_code": "9438588",
    "prefecture": "新潟県",
    "prefecture_kana": "ニイガタケン",
    "prefecture_code": 15,
    "city": "上越市",
    "city_kana": "ジョウエツシ",
    "town": "西城町",
    "town_kana": "ニシシロチョウ",
    "street": "３丁目２番１８号",
    "office_name": "高田税務署内申告書等集中処理担当部署（糸魚川税務署）",
    "office_name_kana": "タカダゼイムシヨナイシンコクシヨトウシユウチユウシヨリタントウブシヨ(イトイガワゼイムシヨ)"
  },
  "8601": {
    "zip_code": "9438601",
    "prefecture": "新潟県",
    "prefecture_kana": "ニイガタケン",
    "prefecture_code": 15,
    "city": "上越市",
    "city_kana": "ジョウエツシ",
    "town": "木田",
    "town_kana": "キダ",
    "street": "１丁目１ー３",
    "office_name": "上越市役所",
    "office_name_kana": "ジヨウエツシヤクシヨ"
  },
  "8604": {
    "zip_code": "9438604",
    "prefecture": "新潟県",
    "prefecture_kana": "ニイガタケン",
    "prefecture_code": 15,
    "city": "上越市",
    "city_kana": "ジョウエツシ",
    "town": "西城町",
    "town_kana": "ニシシロチョウ",
    "street": "３丁目２−１８（高田郵便局私書箱第４号）",
    "office_name": "高田税務署",
    "office_name_kana": "タカダゼイムシヨ"
  },
  "8607": {
    "zip_code": "9438607",
    "prefecture": "新潟県",
    "prefecture_kana": "ニイガタケン",
    "prefecture_code": 15,
    "city": "上越市",
    "city_kana": "ジョウエツシ",
    "town": "本町",
    "town_kana": "ホンチョウ",
    "street": "３丁目１−９（高田郵便局私書箱第７号）",
    "office_name": "高田信用金庫",
    "office_name_kana": "タカダシンヨウキンコ"
  },
  "8610": {
    "zip_code": "9438610",
    "prefecture": "新潟県",
    "prefecture_kana": "ニイガタケン",
    "prefecture_code": 15,
    "city": "上越市",
    "city_kana": "ジョウエツシ",
    "town": "南本町",
    "town_kana": "ミナミホンチョウ",
    "street": "１丁目５−５（高田郵便局私書箱第１０号）",
    "office_name": "株式会社　有沢製作所",
    "office_name_kana": "カブシキガイシヤ アリサワセイサクシヨ"
  },
  "8616": {
    "zip_code": "9438616",
    "prefecture": "新潟県",
    "prefecture_kana": null,
    "prefecture_code": null,
    "city": "上越市",
    "city_kana": null,
    "town": "大字土橋",
    "town_kana": null,
    "street": "１０１２（高田郵便局私書箱第１６号）",
    "office_name": "株式会社　上越商会",
    "office_name_kana": "カブシキガイシヤ ジヨウエツシヨウカイ"
  }
}