{
  "0000": {
    "zip_code": "9450000",
    "prefecture": "新潟県",
    "prefecture_kana": "ニイガタケン",
    "prefecture_code": 15,
    "city": "柏崎市",
    "city_kana": "カシワザキシ",
    "town": "",
    "town_kana": "",
    "street": null,
    "office_name": null,
    "office_name_kana": null
  },
  "0011": {
    "zip_code": "9450011",
    "prefecture": "新潟県",
    "prefecture_kana": "ニイガタケン",
    "prefecture_code": 15,
    "city": "柏崎市",
    "city_kana": "カシワザキシ",
    "town": "松波",
    "town_kana": "マツナミ",
    "street": null,
    "office_name": null,
    "office_name_kana": null
  },
  "0012": {
    "zip_code": "9450012",
    "prefecture": "新潟県",
    "prefecture_kana": "ニイガタケン",
    "prefecture_code": 15,
    "city": "柏崎市",
    "city_kana": "カシワザキシ",
    "town": "橋場",
    "town_kana": "ハシバ",
    "street": null,
    "office_name": null,
    "office_name_kana": null
  },
  "0013": {
    "zip_code": "9450013",
    "prefecture": "新潟県",
    "prefecture_kana": "ニイガタケン",
    "prefecture_code": 15,
    "city": "柏崎市",
    "city_kana": "カシワザキシ",
    "town": "山本",
    "town_kana": "ヤマモト",
    "street": null,
    "office_name": null,
    "office_name_kana": null
  },
  "0014": {
    "zip_code": "9450014",
    "prefecture": "新潟県",
    "prefecture_kana": "ニイガタケン",
    "prefecture_code": 15,
    "city": "柏崎市",
    "city_kana": "カシワザキシ",
    "town": "橋場町",
    "town_kana": "ハシバチョウ",
    "street": null,
    "office_name": null,
    "office_name_kana": null
  },
  "0015": {
    "zip_code": "9450015",
    "prefecture": "新潟県",
    "prefecture_kana": "ニイガタケン",
    "prefecture_code": 15,
    "city": "柏崎市",
    "city_kana": "カシワザキシ",
    "town": "槇原町",
    "town_kana": "マキハラチョウ",
    "street": null,
    "office_name": null,
    "office_name_kana": null
  },
  "0016": {
    "zip_code": "9450016",
    "prefecture": "新潟県",
    "prefecture_kana": "ニイガタケン",
    "prefecture_code": 15,
    "city": "柏崎市",
    "city_kana": "カシワザキシ",
    "town": "青山町",
    "town_kana": "アオヤマチョウ",
    "street": null,
    "office_name": null,
    "office_name_kana": null
  },
  "0017": {
    "zip_code": "9450017",
    "prefecture": "新潟県",
    "prefecture_kana": "ニイガタケン",
    "prefecture_code": 15,
    "city": "柏崎市",
    "city_kana": "カシワザキシ",
    "town": "荒浜",
    "town_kana": "アラハマ",
    "street": null,
    "office_name": null,
    "office_name_kana": null
  },
  "0021": {
    "zip_code": "9450021",
    "prefecture": "新潟県",
    "prefecture_kana": "ニイガタケン",
    "prefecture_code": 15,
    "city": "柏崎市",
    "city_kana": "カシワザキシ",
    "town": "上原",
    "town_kana": "カミハラ",
    "street": null,
    "office_name": null,
    "office_name_kana": null
  },
  "0022": {
    "zip_code": "9450022",
    "prefecture": "新潟県",
    "prefecture_kana": "ニイガタケン",
    "prefecture_code": 15,
    "city": "柏崎市",
    "city_kana": "カシワザキシ",
    "town": "東原町",
    "town_kana": "ヒガシハラマチ",
    "street": null,
    "office_name": null,
    "office_name_kana": null
  },
  "0023": {
    "zip_code": "9450023",
    "prefecture": "新潟県",
    "prefecture_kana": "ニイガタケン",
    "prefecture_code": 15,
    "city": "柏崎市",
    "city_kana": "カシワザキシ",
    "town": "原町",
    "town_kana": "ハラマチ",
    "street": null,
    "office_name": null,
    "office_name_kana": null
  },
  "0024": {
    "zip_code": "9450024",
    "prefecture": "新潟県",
    "prefecture_kana": "ニイガタケン",
    "prefecture_code": 15,
    "city": "柏崎市",
    "city_kana": "カシワザキシ",
    "town": "小金町",
    "town_kana": "コガネチョウ",
    "street": null,
    "office_name": null,
    "office_name_kana": null
  },
  "0025": {
    "zip_code": "9450025",
    "prefecture": "新潟県",
    "prefecture_kana": "ニイガタケン",
    "prefecture_code": 15,
    "city": "柏崎市",
    "city_kana": "カシワザキシ",
    "town": "柳田町",
    "town_kana": "ヤナギダチョウ",
    "street": null,
    "office_name": null,
    "office_name_kana": null
  },
  "0026": {
    "zip_code": "9450026",
    "prefecture": "新潟県",
    "prefecture_kana": "ニイガタケン",
    "prefecture_code": 15,
    "city": "柏崎市",
    "city_kana": "カシワザキシ",
    "town": "藤元町",
    "town_kana": "フジモトチョウ",
    "street": null,
    "office_name": null,
    "office_name_kana": null
  },
  "0027": {
    "zip_code": "9450027",
    "prefecture": "新潟県",
    "prefecture_kana": "ニイガタケン",
    "prefecture_code": 15,
    "city": "柏崎市",
    "city_kana": "カシワザキシ",
    "town": "北斗町",
    "town_kana": "ホクトチョウ",
    "street": null,
    "office_name": null,
    "office_name_kana": null
  },
  "0031": {
    "zip_code": "9450031",
    "prefecture": "新潟県",
    "prefecture_kana": "ニイガタケン",
    "prefecture_code": 15,
    "city": "柏崎市",
    "city_kana": "カシワザキシ",
    "town": "新田畑",
    "town_kana": "シンデンハタ",
    "street": null,
    "office_name": null,
    "office_name_kana": null
  },
  "0032": {
    "zip_code": "9450032",
    "prefecture": "新潟県",
    "prefecture_kana": "ニイガタケン",
    "prefecture_code": 15,
    "city": "柏崎市",
    "city_kana": "カシワザキシ",
    "town": "田塚",
    "town_kana": "タツカ",
    "street": null,
    "office_name": null,
    "office_name_kana": null
  },
  "0033": {
    "zip_code": "9450033",
    "prefecture": "新潟県",
    "prefecture_kana": "ニイガタケン",
    "prefecture_code": 15,
    "city": "柏崎市",
    "city_kana": "カシワザキシ",
    "town": "東長浜町",
    "town_kana": "ヒガシナガハマチョウ",
    "street": null,
    "office_name": null,
    "office_name_kana": null
  },
  "0034": {
    "zip_code": "9450034",
    "prefecture": "新潟県",
    "prefecture_kana": "ニイガタケン",
    "prefecture_code": 15,
    "city": "柏崎市",
    "city_kana": "カシワザキシ",
    "town": "三和町",
    "town_kana": "サンワチョウ",
    "street": null,
    "office_name": null,
    "office_name_kana": null
  },
  "0035": {
    "zip_code": "9450035",
    "prefecture": "新潟県",
    "prefecture_kana": "ニイガタケン",
    "prefecture_code": 15,
    "city": "柏崎市",
    "city_kana": "カシワザキシ",
    "town": "北半田",
    "town_kana": "キタハンダ",
    "street": null,
    "office_name": null,
    "office_name_kana": null
  },
  "0036": {
    "zip_code": "9450036",
    "prefecture": "新潟県",
    "prefecture_kana": "ニイガタケン",
    "prefecture_code": 15,
    "city": "柏崎市",
    "city_kana": "カシワザキシ",
    "town": "東柳田",
    "town_kana": "ヒガシヤナギダ",
    "street": null,
    "office_name": null,
    "office_name_kana": null
  },
  "0041": {
    "zip_code": "9450041",
    "prefecture": "新潟県",
    "prefecture_kana": "ニイガタケン",
    "prefecture_code": 15,
    "city": "柏崎市",
    "city_kana": "カシワザキシ",
    "town": "松美",
    "town_kana": "マツミ",
    "street": null,
    "office_name": null,
    "office_name_kana": null
  },
  "0042": {
    "zip_code": "9450042",
    "prefecture": "新潟県",
    "prefecture_kana": "ニイガタケン",
    "prefecture_code": 15,
    "city": "柏崎市",
    "city_kana": "カシワザキシ",
    "town": "長浜町",
    "town_kana": "ナガハマチョウ",
    "street": null,
    "office_name": null,
    "office_name_kana": null
  },
  "0043": {
    "zip_code": "9450043",
    "prefecture": "新潟県",
    "prefecture_kana": "ニイガタケン",
    "prefecture_code": 15,
    "city": "柏崎市",
    "city_kana": "カシワザキシ",
    "town": "日吉町",
    "town_kana": "ヒヨシチョウ",
    "street": null,
    "office_name": null,
    "office_name_kana": null
  },
  "0044": {
    "zip_code": "9450044",
    "prefecture": "新潟県",
    "prefecture_kana": "ニイガタケン",
    "prefecture_code": 15,
    "city": "柏崎市",
    "city_kana": "カシワザキシ",
    "town": "扇町",
    "town_kana": "オウギマチ",
    "street": null,
    "office_name": null,
    "office_name_kana": null
  },
  "0045": {
    "zip_code": "9450045",
    "prefecture": "新潟県",
    "prefecture_kana": "ニイガタケン",
    "prefecture_code": 15,
    "city": "柏崎市",
    "city_kana": "カシワザキシ",
    "town": "豊町",
    "town_kana": "ユタカチョウ",
    "street": null,
    "office_name": null,
    "office_name_kana": null
  },
  "0046": {
    "zip_code": "9450046",
    "prefecture": "新潟県",
    "prefecture_kana": "ニイガタケン",
    "prefecture_code": 15,
    "city": "柏崎市",
    "city_kana": "カシワザキシ",
    "town": "四谷",
    "town_kana": "ヨツヤ",
    "street": null,
    "office_name": null,
    "office_name_kana": null
  },
  "0047": {
    "zip_code": "9450047",
    "prefecture": "新潟県",
    "prefecture_kana": "ニイガタケン",
    "prefecture_code": 15,
    "city": "柏崎市",
    "city_kana": "カシワザキシ",
    "town": "比角",
    "town_kana": "ヒスミ",
    "street": null,
    "office_name": null,
    "office_name_kana": null
  },
  "0051": {
    "zip_code": "9450051",
    "prefecture": "新潟県",
    "prefecture_kana": "ニイガタケン",
    "prefecture_code": 15,
    "city": "柏崎市",
    "city_kana": "カシワザキシ",
    "town": "東本町",
    "town_kana": "ヒガシホンチョウ",
    "street": null,
    "office_name": null,
    "office_name_kana": null
  },
  "0052": {
    "zip_code": "9450052",
    "prefecture": "新潟県",
    "prefecture_kana": "ニイガタケン",
    "prefecture_code": 15,
    "city": "柏崎市",
    "city_kana": "カシワザキシ",
    "town": "錦町",
    "town_kana": "ニシキチョウ",
    "street": null,
    "office_name": null,
    "office_name_kana": null
  },
  "0053": {
    "zip_code": "9450053",
    "prefecture": "新潟県",
    "prefecture_kana": "ニイガタケン",
    "prefecture_code": 15,
    "city": "柏崎市",
    "city_kana": "カシワザキシ",
    "town": "鏡町",
    "town_kana": "カガミチョウ",
    "street": null,
    "office_name": null,
    "office_name_kana": null
  },
  "0054": {
    "zip_code": "9450054",
    "prefecture": "新潟県",
    "prefecture_kana": "ニイガタケン",
    "prefecture_code": 15,
    "city": "柏崎市",
    "city_kana": "カシワザキシ",
    "town": "日石町",
    "town_kana": "ニツセキチョウ",
    "street": null,
    "office_name": null,
    "office_name_kana": null
  },
  "0055": {
    "zip_code": "9450055",
    "prefecture": "新潟県",
    "prefecture_kana": "ニイガタケン",
    "prefecture_code": 15,
    "city": "柏崎市",
    "city_kana": "カシワザキシ",
    "town": "駅前",
    "town_kana": "エキマエ",
    "street": null,
    "office_name": null,
    "office_name_kana": null
  },
  "0056": {
    "zip_code": "9450056",
    "prefecture": "新潟県",
    "prefecture_kana": "ニイガタケン",
    "prefecture_code": 15,
    "city": "柏崎市",
    "city_kana": "カシワザキシ",
    "town": "新橋",
    "town_kana": "シンバシ",
    "street": null,
    "office_name": null,
    "office_name_kana": null
  },
  "0061": {
    "zip_code": "9450061",
    "prefecture": "新潟県",
    "prefecture_kana": "ニイガタケン",
    "prefecture_code": 15,
    "city": "柏崎市",
    "city_kana": "カシワザキシ",
    "town": "栄町",
    "town_kana": "サカエチョウ",
    "street": null,
    "office_name": null,
    "office_name_kana": null
  },
  "0062": {
    "zip_code": "9450062",
    "prefecture": "新潟県",
    "prefecture_kana": "ニイガタケン",
    "prefecture_code": 15,
    "city": "柏崎市",
    "city_kana": "カシワザキシ",
    "town": "新花町",
    "town_kana": "シンハナチョウ",
    "street": null,
    "office_name": null,
    "office_name_kana": null
  },
  "0063": {
    "zip_code": "9450063",
    "prefecture": "新潟県",
    "prefecture_kana": "ニイガタケン",
    "prefecture_code": 15,
    "city": "柏崎市",
    "city_kana": "カシワザキシ",
    "town": "諏訪町",
    "town_kana": "スワチョウ",
    "street": null,
    "office_name": null,
    "office_name_kana": null
  },
  "0064": {
    "zip_code": "9450064",
    "prefecture": "新潟県",
    "prefecture_kana": "ニイガタケン",
    "prefecture_code": 15,
    "city": "柏崎市",
    "city_kana": "カシワザキシ",
    "town": "中央町",
    "town_kana": "チュウオウチョウ",
    "street": null,
    "office_name": null,
    "office_name_kana": null
  },
  "0065": {
    "zip_code": "9450065",
    "prefecture": "新潟県",
    "prefecture_kana": "ニイガタケン",
    "prefecture_code": 15,
    "city": "柏崎市",
    "city_kana": "カシワザキシ",
    "town": "学校町",
    "town_kana": "ガッコウチョウ",
    "street": null,
    "office_name": null,
    "office_name_kana": null
  },
  "0066": {
    "zip_code": "9450066",
    "prefecture": "新潟県",
    "prefecture_kana": "ニイガタケン",
    "prefecture_code": 15,
    "city": "柏崎市",
    "city_kana": "カシワザキシ",
    "town": "西本町",
    "town_kana": "ニシホンチョウ",
    "street": null,
    "office_name": null,
    "office_name_kana": null
  },
  "0067": {
    "zip_code": "9450067",
    "prefecture": "新潟県",
    "prefecture_kana": "ニイガタケン",
    "prefecture_code": 15,
    "city": "柏崎市",
    "city_kana": "カシワザキシ",
    "town": "西港町",
    "town_kana": "ニシミナトチョウ",
    "street": null,
    "office_name": null,
    "office_name_kana": null
  },
  "0068": {
    "zip_code": "9450068",
    "prefecture": "新潟県",
    "prefecture_kana": "ニイガタケン",
    "prefecture_code": 15,
    "city": "柏崎市",
    "city_kana": "カシワザキシ",
    "town": "東港町",
    "town_kana": "ヒガシミナトチョウ",
    "street": null,
    "office_name": null,
    "office_name_kana": null
  },
  "0071": {
    "zip_code": "9450071",
    "prefecture": "新潟県",
    "prefecture_kana": "ニイガタケン",
    "prefecture_code": 15,
    "city": "柏崎市",
    "city_kana": "カシワザキシ",
    "town": "安政町",
    "town_kana": "アンセイチョウ",
    "street": null,
    "office_name": null,
    "office_name_kana": null
  },
  "0072": {
    "zip_code": "9450072",
    "prefecture": "新潟県",
    "prefecture_kana": "ニイガタケン",
    "prefecture_code": 15,
    "city": "柏崎市",
    "city_kana": "カシワザキシ",
    "town": "北園町",
    "town_kana": "キタゾノチョウ",
    "street": null,
    "office_name": null,
    "office_name_kana": null
  },
  "0073": {
    "zip_code": "9450073",
    "prefecture": "新潟県",
    "prefecture_kana": "ニイガタケン",
    "prefecture_code": 15,
    "city": "柏崎市",
    "city_kana": "カシワザキシ",
    "town": "桜木町",
    "town_kana": "サクラギチョウ",
    "street": null,
    "office_name": null,
    "office_name_kana": null
  },
  "0074": {
    "zip_code": "9450074",
    "prefecture": "新潟県",
    "prefecture_kana": "ニイガタケン",
    "prefecture_code": 15,
    "city": "柏崎市",
    "city_kana": "カシワザキシ",
    "town": "春日",
    "town_kana": "カスガ",
    "street": null,
    "office_name": null,
    "office_name_kana": null
  },
  "0075": {
    "zip_code": "9450075",
    "prefecture": "新潟県",
    "prefecture_kana": "ニイガタケン",
    "prefecture_code": 15,
    "city": "柏崎市",
    "city_kana": "カシワザキシ",
    "town": "大和町",
    "town_kana": "ヤマトチョウ",
    "street": null,
    "office_name": null,
    "office_name_kana": null
  },
  "0076": {
    "zip_code": "9450076",
    "prefecture": "新潟県",
    "prefecture_kana": "ニイガタケン",
    "prefecture_code": 15,
    "city": "柏崎市",
    "city_kana": "カシワザキシ",
    "town": "小倉町",
    "town_kana": "オクラチョウ",
    "street": null,
    "office_name": null,
    "office_name_kana": null
  },
  "0101": {
    "zip_code": "9450101",
    "prefecture": "新潟県",
    "prefecture_kana": "ニイガタケン",
    "prefecture_code": 15,
    "city": "柏崎市",
    "city_kana": "カシワザキシ",
    "town": "長崎",
    "town_kana": "ナガサキ",
    "street": null,
    "office_name": null,
    "office_name_kana": null
  },
  "0102": {
    "zip_code": "9450102",
    "prefecture": "新潟県",
    "prefecture_kana": "ニイガタケン",
    "prefecture_code": 15,
    "city": "柏崎市",
    "city_kana": "カシワザキシ",
    "town": "長崎新田",
    "town_kana": "ナガサキシンデン",
    "street": null,
    "office_name": null,
    "office_name_kana": null
  },
  "0103": {
    "zip_code": "9450103",
    "prefecture": "新潟県",
    "prefecture_kana": "ニイガタケン",
    "prefecture_code": 15,
    "city": "柏崎市",
    "city_kana": "カシワザキシ",
    "town": "下大新田",
    "town_kana": "シモオオシンデン",
    "street": null,
    "office_name": null,
    "office_name_kana": null
  },
  "0104": {
    "zip_code": "9450104",
    "prefecture": "新潟県",
    "prefecture_kana": "ニイガタケン",
    "prefecture_code": 15,
    "city": "柏崎市",
    "city_kana": "カシワザキシ",
    "town": "土合新田",
    "town_kana": "ドアイシンデン",
    "street": null,
    "office_name": null,
    "office_name_kana": null
  },
  "0105": {
    "zip_code": "9450105",
    "prefecture": "新潟県",
    "prefecture_kana": "ニイガタケン",
    "prefecture_code": 15,
    "city": "柏崎市",
    "city_kana": "カシワザキシ",
    "town": "剣",
    "town_kana": "ツルギ",
    "street": null,
    "office_name": null,
    "office_name_kana": null
  },
  "0106": {
    "zip_code": "9450106",
    "prefecture": "新潟県",
    "prefecture_kana": "ニイガタケン",
    "prefecture_code": 15,
    "city": "柏崎市",
    "city_kana": "カシワザキシ",
    "town": "土合",
    "town_kana": "ドアイ",
    "street": null,
    "office_name": null,
    "office_name_kana": null
  },
  "0111": {
    "zip_code": "9450111",
    "prefecture": "新潟県",
    "prefecture_kana": "ニイガタケン",
    "prefecture_code": 15,
    "city": "柏崎市",
    "city_kana": "カシワザキシ",
    "town": "与三",
    "town_kana": "ヨソウ",
    "street": null,
    "office_name": null,
    "office_name_kana": null
  },
  "0112": {
    "zip_code": "9450112",
    "prefecture": "新潟県",
    "prefecture_kana": "ニイガタケン",
    "prefecture_code": 15,
    "city": "柏崎市",
    "city_kana": "カシワザキシ",
    "town": "畔屋",
    "town_kana": "アゼヤ",
    "street": null,
    "office_name": null,
    "office_name_kana": null
  },
  "0113": {
    "zip_code": "9450113",
    "prefecture": "新潟県",
    "prefecture_kana": "ニイガタケン",
    "prefecture_code": 15,
    "city": "柏崎市",
    "city_kana": "カシワザキシ",
    "town": "中田",
    "town_kana": "ナカダ",
    "street": null,
    "office_name": null,
    "office_name_kana": null
  },
  "0114": {
    "zip_code": "9450114",
    "prefecture": "新潟県",
    "prefecture_kana": "ニイガタケン",
    "prefecture_code": 15,
    "city": "柏崎市",
    "city_kana": "カシワザキシ",
    "town": "藤井",
    "town_kana": "フジイ",
    "street": null,
    "office_name": null,
    "office_name_kana": null
  },
  "0192": {
    "zip_code": "9450192",
    "prefecture": "新潟県",
    "prefecture_kana": null,
    "prefecture_code": null,
    "city": "柏崎市",
    "city_kana": null,
    "town": "大字藤井",
    "town_kana": null,
    "street": "字西沖１３５０",
    "office_name": "柏崎ユーエステック　株式会社",
    "office_name_kana": "カシワザキユ-エステツク カブシキガイシヤ"
  },
  "0193": {
    "zip_code": "9450193",
    "prefecture": "新潟県",
    "prefecture_kana": null,
    "prefecture_code": null,
    "city": "柏崎市",
    "city_kana": null,
    "town": "大字藤井",
    "town_kana": null,
    "street": "字西沖１３５５",
    "office_name": "株式会社　アドバネクス",
    "office_name_kana": "カブシキガイシヤ アドバネクス"
  },
  "0194": {
    "zip_code": "9450194",
    "prefecture": "新潟県",
    "prefecture_kana": null,
    "prefecture_code": null,
    "city": "柏崎市",
    "city_kana": null,
    "town": "大字藤井",
    "town_kana": null,
    "street": "字西沖１３５５番地２",
    "office_name": "カトウスプリング　株式会社",
    "office_name_kana": "カトウスプリング カブシキガイシヤ"
  },
  "0211": {
    "zip_code": "9450211",
    "prefecture": "新潟県",
    "prefecture_kana": "ニイガタケン",
    "prefecture_code": 15,
    "city": "柏崎市",
    "city_kana": "カシワザキシ",
    "town": "小黒須",
    "town_kana": "コグロス",
    "street": null,
    "office_name": null,
    "office_name_kana": null
  },
  "0212": {
    "zip_code": "9450212",
    "prefecture": "新潟県",
    "prefecture_kana": "ニイガタケン",
    "prefecture_code": 15,
    "city": "柏崎市",
    "city_kana": "カシワザキシ",
    "town": "五十土",
    "town_kana": "イカヅチ",
    "street": null,
    "office_name": null,
    "office_name_kana": null
  },
  "0213": {
    "zip_code": "9450213",
    "prefecture": "新潟県",
    "prefecture_kana": "ニイガタケン",
    "prefecture_code": 15,
    "city": "柏崎市",
    "city_kana": "カシワザキシ",
    "town": "成沢",
    "town_kana": "ナリサワ",
    "street": null,
    "office_name": null,
    "office_name_kana": null
  },
  "0214": {
    "zip_code": "9450214",
    "prefecture": "新潟県",
    "prefecture_kana": "ニイガタケン",
    "prefecture_code": 15,
    "city": "柏崎市",
    "city_kana": "カシワザキシ",
    "town": "曽地",
    "town_kana": "ソチ",
    "street": null,
    "office_name": null,
    "office_name_kana": null
  },
  "0215": {
    "zip_code": "9450215",
    "prefecture": "新潟県",
    "prefecture_kana": "ニイガタケン",
    "prefecture_code": 15,
    "city": "柏崎市",
    "city_kana": "カシワザキシ",
    "town": "矢田",
    "town_kana": "ヤタ",
    "street": null,
    "office_name": null,
    "office_name_kana": null
  },
  "0216": {
    "zip_code": "9450216",
    "prefecture": "新潟県",
    "prefecture_kana": "ニイガタケン",
    "prefecture_code": 15,
    "city": "柏崎市",
    "city_kana": "カシワザキシ",
    "town": "吉井",
    "town_kana": "ヨシイ",
    "street": null,
    "office_name": null,
    "office_name_kana": null
  },
  "0217": {
    "zip_code": "9450217",
    "prefecture": "新潟県",
    "prefecture_kana": "ニイガタケン",
    "prefecture_code": 15,
    "city": "柏崎市",
    "city_kana": "カシワザキシ",
    "town": "曽地新田",
    "town_kana": "ソチシンデン",
    "street": null,
    "office_name": null,
    "office_name_kana": null
  },
  "0218": {
    "zip_code": "9450218",
    "prefecture": "新潟県",
    "prefecture_kana": "ニイガタケン",
    "prefecture_code": 15,
    "city": "柏崎市",
    "city_kana": "カシワザキシ",
    "town": "花田",
    "town_kana": "ハナダ",
    "street": null,
    "office_name": null,
    "office_name_kana": null
  },
  "0219": {
    "zip_code": "9450219",
    "prefecture": "新潟県",
    "prefecture_kana": "ニイガタケン",
    "prefecture_code": 15,
    "city": "柏崎市",
    "city_kana": "カシワザキシ",
    "town": "飯塚",
    "town_kana": "イイヅカ",
    "street": null,
    "office_name": null,
    "office_name_kana": null
  },
  "0300": {
    "zip_code": "9450300",
    "prefecture": "新潟県",
    "prefecture_kana": "ニイガタケン",
    "prefecture_code": 15,
    "city": "刈羽郡刈羽村",
    "city_kana": "カリワグンカリワムラ",
    "town": "",
    "town_kana": "",
    "street": null,
    "office_name": null,
    "office_name_kana": null
  },
  "0301": {
    "zip_code": "9450301",
    "prefecture": "新潟県",
    "prefecture_kana": "ニイガタケン",
    "prefecture_code": 15,
    "city": "刈羽郡刈羽村",
    "city_kana": "カリワグンカリワムラ",
    "town": "入和田",
    "town_kana": "イリワダ",
    "street": null,
    "office_name": null,
    "office_name_kana": null
  },
  "0302": {
    "zip_code": "9450302",
    "prefecture": "新潟県",
    "prefecture_kana": "ニイガタケン",
    "prefecture_code": 15,
    "city": "刈羽郡刈羽村",
    "city_kana": "カリワグンカリワムラ",
    "town": "滝谷新田",
    "town_kana": "タキヤシンデン",
    "street": null,
    "office_name": null,
    "office_name_kana": null
  },
  "0303": {
    "zip_code": "9450303",
    "prefecture": "新潟県",
    "prefecture_kana": "ニイガタケン",
    "prefecture_code": 15,
    "city": "刈羽郡刈羽村",
    "city_kana": "カリワグンカリワムラ",
    "town": "滝谷",
    "town_kana": "タキヤ",
    "street": null,
    "office_name": null,
    "office_name_kana": null
  },
  "0304": {
    "zip_code": "9450304",
    "prefecture": "新潟県",
    "prefecture_kana": "ニイガタケン",
    "prefecture_code": 15,
    "city": "刈羽郡刈羽村",
    "city_kana": "カリワグンカリワムラ",
    "town": "寺尾",
    "town_kana": "テラオ",
    "street": null,
    "office_name": null,
    "office_name_kana": null
  },
  "0305": {
    "zip_code": "9450305",
    "prefecture": "新潟県",
    "prefecture_kana": "ニイガタケン",
    "prefecture_code": 15,
    "city": "刈羽郡刈羽村",
    "city_kana": "カリワグンカリワムラ",
    "town": "西元寺",
    "town_kana": "サイゲンジ",
    "street": null,
    "office_name": null,
    "office_name_kana": null
  },
  "0306": {
    "zip_code": "9450306",
    "prefecture": "新潟県",
    "prefecture_kana": "ニイガタケン",
    "prefecture_code": 15,
    "city": "刈羽郡刈羽村",
    "city_kana": "カリワグンカリワムラ",
    "town": "十日市",
    "town_kana": "トオカイチ",
    "street": null,
    "office_name": null,
    "office_name_kana": null
  },
  "0307": {
    "zip_code": "9450307",
    "prefecture": "新潟県",
    "prefecture_kana": "ニイガタケン",
    "prefecture_code": 15,
    "city": "刈羽郡刈羽村",
    "city_kana": "カリワグンカリワムラ",
    "town": "刈羽",
    "town_kana": "カリワ",
    "street": null,
    "office_name": null,
    "office_name_kana": null
  },
  "0308": {
    "zip_code": "9450308",
    "prefecture": "新潟県",
    "prefecture_kana": "ニイガタケン",
    "prefecture_code": 15,
    "city": "刈羽郡刈羽村",
    "city_kana": "カリワグンカリワムラ",
    "town": "割町新田",
    "town_kana": "ワリマチシンデン",
    "street": null,
    "office_name": null,
    "office_name_kana": null
  },
  "0311": {
    "zip_code": "9450311",
    "prefecture": "新潟県",
    "prefecture_kana": "ニイガタケン",
    "prefecture_code": 15,
    "city": "刈羽郡刈羽村",
    "city_kana": "カリワグンカリワムラ",
    "town": "井岡",
    "town_kana": "イノオカ",
    "street": null,
    "office_name": null,
    "office_name_kana": null
  },
  "0312": {
    "zip_code": "9450312",
    "prefecture": "新潟県",
    "prefecture_kana": "ニイガタケン",
    "prefecture_code": 15,
    "city": "刈羽郡刈羽村",
    "city_kana": "カリワグンカリワムラ",
    "town": "西谷",
    "town_kana": "ニシダニ",
    "street": null,
    "office_name": null,
    "office_name_kana": null
  },
  "0313": {
    "zip_code": "9450313",
    "prefecture": "新潟県",
    "prefecture_kana": "ニイガタケン",
    "prefecture_code": 15,
    "city": "刈羽郡刈羽村",
    "city_kana": "カリワグンカリワムラ",
    "town": "大塚",
    "town_kana": "オオツカ",
    "street": null,
    "office_name": null,
    "office_name_kana": null
  },
  "0314": {
    "zip_code": "9450314",
    "prefecture": "新潟県",
    "prefecture_kana": "ニイガタケン",
    "prefecture_code": 15,
    "city": "刈羽郡刈羽村",
    "city_kana": "カリワグンカリワムラ",
    "town": "新屋敷",
    "town_kana": "アラヤシキ",
    "street": null,
    "office_name": null,
    "office_name_kana": null
  },
  "0315": {
    "zip_code": "9450315",
    "prefecture": "新潟県",
    "prefecture_kana": "ニイガタケン",
    "prefecture_code": 15,
    "city": "刈羽郡刈羽村",
    "city_kana": "カリワグンカリワムラ",
    "town": "上高町",
    "town_kana": "カミタカマチ",
    "street": null,
    "office_name": null,
    "office_name_kana": null
  },
  "0316": {
    "zip_code": "9450316",
    "prefecture": "新潟県",
    "prefecture_kana": "ニイガタケン",
    "prefecture_code": 15,
    "city": "刈羽郡刈羽村",
    "city_kana": "カリワグンカリワムラ",
    "town": "下高町",
    "town_kana": "シモタカマチ",
    "street": null,
    "office_name": null,
    "office_name_kana": null
  },
  "0317": {
    "zip_code": "9450317",
    "prefecture": "新潟県",
    "prefecture_kana": "ニイガタケン",
    "prefecture_code": 15,
    "city": "刈羽郡刈羽村",
    "city_kana": "カリワグンカリワムラ",
    "town": "正明寺",
    "town_kana": "ショウミョウジ",
    "street": null,
    "office_name": null,
    "office_name_kana": null
  },
  "0321": {
    "zip_code": "9450321",
    "prefecture": "新潟県",
    "prefecture_kana": "ニイガタケン",
    "prefecture_code": 15,
    "city": "刈羽郡刈羽村",
    "city_kana": "カリワグンカリワムラ",
    "town": "油田",
    "town_kana": "アブラデン",
    "street": null,
    "office_name": null,
    "office_name_kana": null
  },
  "0322": {
    "zip_code": "9450322",
    "prefecture": "新潟県",
    "prefecture_kana": "ニイガタケン",
    "prefecture_code": 15,
    "city": "刈羽郡刈羽村",
    "city_kana": "カリワグンカリワムラ",
    "town": "黒川",
    "town_kana": "クロカワ",
    "street": null,
    "office_name": null,
    "office_name_kana": null
  },
  "0323": {
    "zip_code": "9450323",
    "prefecture": "新潟県",
    "prefecture_kana": "ニイガタケン",
    "prefecture_code": 15,
    "city": "刈羽郡刈羽村",
    "city_kana": "カリワグンカリワムラ",
    "town": "赤田町方",
    "town_kana": "アカダマチガタ",
    "street": null,
    "office_name": null,
    "office_name_kana": null
  },
  "0324": {
    "zip_code": "9450324",
    "prefecture": "新潟県",
    "prefecture_kana": "ニイガタケン",
    "prefecture_code": 15,
    "city": "刈羽郡刈羽村",
    "city_kana": "カリワグンカリワムラ",
    "town": "枯木",
    "town_kana": "カレキ",
    "street": null,
    "office_name": null,
    "office_name_kana": null
  },
  "0325": {
    "zip_code": "9450325",
    "prefecture": "新潟県",
    "prefecture_kana": "ニイガタケン",
    "prefecture_code": 15,
    "city": "刈羽郡刈羽村",
    "city_kana": "カリワグンカリワムラ",
    "town": "赤田北方",
    "town_kana": "アカダキタガタ",
    "street": null,
    "office_name": null,
    "office_name_kana": null
  },
  "0395": {
    "zip_code": "9450395",
    "prefecture": "新潟県",
    "prefecture_kana": null,
    "prefecture_code": null,
    "city": "刈羽郡刈羽村",
    "city_kana": null,
    "town": "大字十日市",
    "town_kana": null,
    "street": "８００",
    "office_name": "日本ドレッサー　株式会社　刈羽事業所",
    "office_name_kana": "ニホンドレツサ- カブシキガイシヤ カリワジギヨウシヨ"
  },
  "0397": {
    "zip_code": "9450397",
    "prefecture": "新潟県",
    "prefecture_kana": null,
    "prefecture_code": null,
    "city": "刈羽郡刈羽村",
    "city_kana": null,
    "town": "大字割町新田",
    "town_kana": null,
    "street": "２１５−１",
    "office_name": "刈羽村役場",
    "office_name_kana": "カリワムラヤクバ"
  },
  "0401": {
    "zip_code": "9450401",
    "prefecture": "新潟県",
    "prefecture_kana": "ニイガタケン",
    "prefecture_code": 15,
    "city": "柏崎市",
    "city_kana": "カシワザキシ",
    "town": "椎谷",
    "town_kana": "シイヤ",
    "street": null,
    "office_name": null,
    "office_name_kana": null
  },
  "0402": {
    "zip_code": "9450402",
    "prefecture": "新潟県",
    "prefecture_kana": "ニイガタケン",
    "prefecture_code": 15,
    "city": "柏崎市",
    "city_kana": "カシワザキシ",
    "town": "宮川",
    "town_kana": "ミヤガワ",
    "street": null,
    "office_name": null,
    "office_name_kana": null
  },
  "0403": {
    "zip_code": "9450403",
    "prefecture": "新潟県",
    "prefecture_kana": "ニイガタケン",
    "prefecture_code": 15,
    "city": "柏崎市",
    "city_kana": "カシワザキシ",
    "town": "大湊",
    "town_kana": "オオミナト",
    "street": null,
    "office_name": null,
    "office_name_kana": null
  },
  "0811": {
    "zip_code": "9450811",
    "prefecture": "新潟県",
    "prefecture_kana": "ニイガタケン",
    "prefecture_code": 15,
    "city": "柏崎市",
    "city_kana": "カシワザキシ",
    "town": "岩上",
    "town_kana": "イワカミ",
    "street": null,
    "office_name": null,
    "office_name_kana": null
  },
  "0812": {
    "zip_code": "9450812",
    "prefecture": "新潟県",
    "prefecture_kana": "ニイガタケン",
    "prefecture_code": 15,
    "city": "柏崎市",
    "city_kana": "カシワザキシ",
    "town": "半田",
    "town_kana": "ハンダ",
    "street": null,
    "office_name": null,
    "office_name_kana": null
  },
  "0813": {
    "zip_code": "9450813",
    "prefecture": "新潟県",
    "prefecture_kana": "ニイガタケン",
    "prefecture_code": 15,
    "city": "柏崎市",
    "city_kana": "カシワザキシ",
    "town": "南半田",
    "town_kana": "ミナミハンダ",
    "street": null,
    "office_name": null,
    "office_name_kana": null
  },
  "0814": {
    "zip_code": "9450814",
    "prefecture": "新潟県",
    "prefecture_kana": "ニイガタケン",
    "prefecture_code": 15,
    "city": "柏崎市",
    "city_kana": "カシワザキシ",
    "town": "朝日が丘",
    "town_kana": "アサヒガオカ",
    "street": null,
    "office_name": null,
    "office_name_kana": null
  },
  "0815": {
    "zip_code": "9450815",
    "prefecture": "新潟県",
    "prefecture_kana": "ニイガタケン",
    "prefecture_code": 15,
    "city": "柏崎市",
    "city_kana": "カシワザキシ",
    "town": "希望が丘",
    "town_kana": "キボウガオカ",
    "street": null,
    "office_name": null,
    "office_name_kana": null
  },
  "0816": {
    "zip_code": "9450816",
    "prefecture": "新潟県",
    "prefecture_kana": "ニイガタケン",
    "prefecture_code": 15,
    "city": "柏崎市",
    "city_kana": "カシワザキシ",
    "town": "田中",
    "town_kana": "タナカ",
    "street": null,
    "office_name": null,
    "office_name_kana": null
  },
  "0817": {
    "zip_code": "9450817",
    "prefecture": "新潟県",
    "prefecture_kana": "ニイガタケン",
    "prefecture_code": 15,
    "city": "柏崎市",
    "city_kana": "カシワザキシ",
    "town": "宝町",
    "town_kana": "タカラマチ",
    "street": null,
    "office_name": null,
    "office_name_kana": null
  },
  "0821": {
    "zip_code": "9450821",
    "prefecture": "新潟県",
    "prefecture_kana": "ニイガタケン",
    "prefecture_code": 15,
    "city": "柏崎市",
    "city_kana": "カシワザキシ",
    "town": "幸町",
    "town_kana": "サイワイチョウ",
    "street": null,
    "office_name": null,
    "office_name_kana": null
  },
  "0822": {
    "zip_code": "9450822",
    "prefecture": "新潟県",
    "prefecture_kana": "ニイガタケン",
    "prefecture_code": 15,
    "city": "柏崎市",
    "city_kana": "カシワザキシ",
    "town": "穂波町",
    "town_kana": "ホナミチョウ",
    "street": null,
    "office_name": null,
    "office_name_kana": null
  },
  "0823": {
    "zip_code": "9450823",
    "prefecture": "新潟県",
    "prefecture_kana": "ニイガタケン",
    "prefecture_code": 15,
    "city": "柏崎市",
    "city_kana": "カシワザキシ",
    "town": "南光町",
    "town_kana": "ナンコウチョウ",
    "street": null,
    "office_name": null,
    "office_name_kana": null
  },
  "0824": {
    "zip_code": "9450824",
    "prefecture": "新潟県",
    "prefecture_kana": "ニイガタケン",
    "prefecture_code": 15,
    "city": "柏崎市",
    "city_kana": "カシワザキシ",
    "town": "枇杷島",
    "town_kana": "ビワジマ",
    "street": null,
    "office_name": null,
    "office_name_kana": null
  },
  "0825": {
    "zip_code": "9450825",
    "prefecture": "新潟県",
    "prefecture_kana": "ニイガタケン",
    "prefecture_code": 15,
    "city": "柏崎市",
    "city_kana": "カシワザキシ",
    "town": "城東",
    "town_kana": "ジョウトウ",
    "street": null,
    "office_name": null,
    "office_name_kana": null
  },
  "0826": {
    "zip_code": "9450826",
    "prefecture": "新潟県",
    "prefecture_kana": "ニイガタケン",
    "prefecture_code": 15,
    "city": "柏崎市",
    "city_kana": "カシワザキシ",
    "town": "元城町",
    "town_kana": "モトシロチョウ",
    "street": null,
    "office_name": null,
    "office_name_kana": null
  },
  "0827": {
    "zip_code": "9450827",
    "prefecture": "新潟県",
    "prefecture_kana": "ニイガタケン",
    "prefecture_code": 15,
    "city": "柏崎市",
    "city_kana": "カシワザキシ",
    "town": "宮場町",
    "town_kana": "ミヤバチョウ",
    "street": null,
    "office_name": null,
    "office_name_kana": null
  },
  "0831": {
    "zip_code": "9450831",
    "prefecture": "新潟県",
    "prefecture_kana": "ニイガタケン",
    "prefecture_code": 15,
    "city": "柏崎市",
    "city_kana": "カシワザキシ",
    "town": "柳橋町",
    "town_kana": "ヤナギバシチョウ",
    "street": null,
    "office_name": null,
    "office_name_kana": null
  },
  "0832": {
    "zip_code": "9450832",
    "prefecture": "新潟県",
    "prefecture_kana": "ニイガタケン",
    "prefecture_code": 15,
    "city": "柏崎市",
    "city_kana": "カシワザキシ",
    "town": "関町",
    "town_kana": "セキマチ",
    "street": null,
    "office_name": null,
    "office_name_kana": null
  },
  "0833": {
    "zip_code": "9450833",
    "prefecture": "新潟県",
    "prefecture_kana": "ニイガタケン",
    "prefecture_code": 15,
    "city": "柏崎市",
    "city_kana": "カシワザキシ",
    "town": "若葉町",
    "town_kana": "ワカバチョウ",
    "street": null,
    "office_name": null,
    "office_name_kana": null
  },
  "0834": {
    "zip_code": "9450834",
    "prefecture": "新潟県",
    "prefecture_kana": "ニイガタケン",
    "prefecture_code": 15,
    "city": "柏崎市",
    "city_kana": "カシワザキシ",
    "town": "常盤台",
    "town_kana": "トキワダイ",
    "street": null,
    "office_name": null,
    "office_name_kana": null
  },
  "0835": {
    "zip_code": "9450835",
    "prefecture": "新潟県",
    "prefecture_kana": "ニイガタケン",
    "prefecture_code": 15,
    "city": "柏崎市",
    "city_kana": "カシワザキシ",
    "town": "剣野町",
    "town_kana": "ケンノチョウ",
    "street": null,
    "office_name": null,
    "office_name_kana": null
  },
  "0836": {
    "zip_code": "9450836",
    "prefecture": "新潟県",
    "prefecture_kana": "ニイガタケン",
    "prefecture_code": 15,
    "city": "柏崎市",
    "city_kana": "カシワザキシ",
    "town": "剣野",
    "town_kana": "ケンノ",
    "street": null,
    "office_name": null,
    "office_name_kana": null
  },
  "0837": {
    "zip_code": "9450837",
    "prefecture": "新潟県",
    "prefecture_kana": "ニイガタケン",
    "prefecture_code": 15,
    "city": "柏崎市",
    "city_kana": "カシワザキシ",
    "town": "三島町",
    "town_kana": "ミシマチョウ",
    "street": null,
    "office_name": null,
    "office_name_kana": null
  },
  "0838": {
    "zip_code": "9450838",
    "prefecture": "新潟県",
    "prefecture_kana": "ニイガタケン",
    "prefecture_code": 15,
    "city": "柏崎市",
    "city_kana": "カシワザキシ",
    "town": "三島西",
    "town_kana": "ミシマニシ",
    "street": null,
    "office_name": null,
    "office_name_kana": null
  },
  "0841": {
    "zip_code": "9450841",
    "prefecture": "新潟県",
    "prefecture_kana": "ニイガタケン",
    "prefecture_code": 15,
    "city": "柏崎市",
    "city_kana": "カシワザキシ",
    "town": "緑町",
    "town_kana": "ミドリチョウ",
    "street": null,
    "office_name": null,
    "office_name_kana": null
  },
  "0842": {
    "zip_code": "9450842",
    "prefecture": "新潟県",
    "prefecture_kana": "ニイガタケン",
    "prefecture_code": 15,
    "city": "柏崎市",
    "city_kana": "カシワザキシ",
    "town": "米山台",
    "town_kana": "ヨネヤマダイ",
    "street": null,
    "office_name": null,
    "office_name_kana": null
  },
  "0843": {
    "zip_code": "9450843",
    "prefecture": "新潟県",
    "prefecture_kana": "ニイガタケン",
    "prefecture_code": 15,
    "city": "柏崎市",
    "city_kana": "カシワザキシ",
    "town": "米山台東",
    "town_kana": "ヨネヤマダイヒガシ",
    "street": null,
    "office_name": null,
    "office_name_kana": null
  },
  "0844": {
    "zip_code": "9450844",
    "prefecture": "新潟県",
    "prefecture_kana": "ニイガタケン",
    "prefecture_code": 15,
    "city": "柏崎市",
    "city_kana": "カシワザキシ",
    "town": "米山台西",
    "town_kana": "ヨネヤマダイニシ",
    "street": null,
    "office_name": null,
    "office_name_kana": null
  },
  "0845": {
    "zip_code": "9450845",
    "prefecture": "新潟県",
    "prefecture_kana": "ニイガタケン",
    "prefecture_code": 15,
    "city": "柏崎市",
    "city_kana": "カシワザキシ",
    "town": "新赤坂",
    "town_kana": "シンアカサカ",
    "street": null,
    "office_name": null,
    "office_name_kana": null
  },
  "0846": {
    "zip_code": "9450846",
    "prefecture": "新潟県",
    "prefecture_kana": "ニイガタケン",
    "prefecture_code": 15,
    "city": "柏崎市",
    "city_kana": "カシワザキシ",
    "town": "寿町",
    "town_kana": "コトブキチョウ",
    "street": null,
    "office_name": null,
    "office_name_kana": null
  },
  "0847": {
    "zip_code": "9450847",
    "prefecture": "新潟県",
    "prefecture_kana": "ニイガタケン",
    "prefecture_code": 15,
    "city": "柏崎市",
    "city_kana": "カシワザキシ",
    "town": "赤坂町",
    "town_kana": "アカサカチョウ",
    "street": null,
    "office_name": null,
    "office_name_kana": null
  },
  "0851": {
    "zip_code": "9450851",
    "prefecture": "新潟県",
    "prefecture_kana": "ニイガタケン",
    "prefecture_code": 15,
    "city": "柏崎市",
    "city_kana": "カシワザキシ",
    "town": "大久保",
    "town_kana": "オオクボ",
    "street": null,
    "office_name": null,
    "office_name_kana": null
  },
  "0852": {
    "zip_code": "9450852",
    "prefecture": "新潟県",
    "prefecture_kana": "ニイガタケン",
    "prefecture_code": 15,
    "city": "柏崎市",
    "city_kana": "カシワザキシ",
    "town": "中浜",
    "town_kana": "ナカハマ",
    "street": null,
    "office_name": null,
    "office_name_kana": null
  },
  "0853": {
    "zip_code": "9450853",
    "prefecture": "新潟県",
    "prefecture_kana": "ニイガタケン",
    "prefecture_code": 15,
    "city": "柏崎市",
    "city_kana": "カシワザキシ",
    "town": "番神",
    "town_kana": "バンジン",
    "street": null,
    "office_name": null,
    "office_name_kana": null
  },
  "0854": {
    "zip_code": "9450854",
    "prefecture": "新潟県",
    "prefecture_kana": "ニイガタケン",
    "prefecture_code": 15,
    "city": "柏崎市",
    "city_kana": "カシワザキシ",
    "town": "東の輪町",
    "town_kana": "トウノワチョウ",
    "street": null,
    "office_name": null,
    "office_name_kana": null
  },
  "0855": {
    "zip_code": "9450855",
    "prefecture": "新潟県",
    "prefecture_kana": "ニイガタケン",
    "prefecture_code": 15,
    "city": "柏崎市",
    "city_kana": "カシワザキシ",
    "town": "鯨波",
    "town_kana": "クジラナミ",
    "street": null,
    "office_name": null,
    "office_name_kana": null
  },
  "0857": {
    "zip_code": "9450857",
    "prefecture": "新潟県",
    "prefecture_kana": "ニイガタケン",
    "prefecture_code": 15,
    "city": "柏崎市",
    "city_kana": "カシワザキシ",
    "town": "谷根",
    "town_kana": "タンネ",
    "street": null,
    "office_name": null,
    "office_name_kana": null
  },
  "0858": {
    "zip_code": "9450858",
    "prefecture": "新潟県",
    "prefecture_kana": "ニイガタケン",
    "prefecture_code": 15,
    "city": "柏崎市",
    "city_kana": "カシワザキシ",
    "town": "小杉",
    "town_kana": "コスギ",
    "street": null,
    "office_name": null,
    "office_name_kana": null
  },
  "1101": {
    "zip_code": "9451101",
    "prefecture": "新潟県",
    "prefecture_kana": "ニイガタケン",
    "prefecture_code": 15,
    "city": "柏崎市",
    "city_kana": "カシワザキシ",
    "town": "横山",
    "town_kana": "ヨコヤマ",
    "street": null,
    "office_name": null,
    "office_name_kana": null
  },
  "1102": {
    "zip_code": "9451102",
    "prefecture": "新潟県",
    "prefecture_kana": "ニイガタケン",
    "prefecture_code": 15,
    "city": "柏崎市",
    "city_kana": "カシワザキシ",
    "town": "向陽町",
    "town_kana": "コウヨウチョウ",
    "street": null,
    "office_name": null,
    "office_name_kana": null
  },
  "1103": {
    "zip_code": "9451103",
    "prefecture": "新潟県",
    "prefecture_kana": "ニイガタケン",
    "prefecture_code": 15,
    "city": "柏崎市",
    "city_kana": "カシワザキシ",
    "town": "藤橋",
    "town_kana": "フジハシ",
    "street": null,
    "office_name": null,
    "office_name_kana": null
  },
  "1104": {
    "zip_code": "9451104",
    "prefecture": "新潟県",
    "prefecture_kana": "ニイガタケン",
    "prefecture_code": 15,
    "city": "柏崎市",
    "city_kana": "カシワザキシ",
    "town": "下方",
    "town_kana": "シモガタ",
    "street": null,
    "office_name": null,
    "office_name_kana": null
  },
  "1105": {
    "zip_code": "9451105",
    "prefecture": "新潟県",
    "prefecture_kana": "ニイガタケン",
    "prefecture_code": 15,
    "city": "柏崎市",
    "city_kana": "カシワザキシ",
    "town": "長峰町",
    "town_kana": "ナガミネチョウ",
    "street": null,
    "office_name": null,
    "office_name_kana": null
  },
  "1106": {
    "zip_code": "9451106",
    "prefecture": "新潟県",
    "prefecture_kana": "ニイガタケン",
    "prefecture_code": 15,
    "city": "柏崎市",
    "city_kana": "カシワザキシ",
    "town": "ゆりが丘",
    "town_kana": "ユリガオカ",
    "street": null,
    "office_name": null,
    "office_name_kana": null
  },
  "1111": {
    "zip_code": "9451111",
    "prefecture": "新潟県",
    "prefecture_kana": "ニイガタケン",
    "prefecture_code": 15,
    "city": "柏崎市",
    "city_kana": "カシワザキシ",
    "town": "堀",
    "town_kana": "ホリ",
    "street": null,
    "office_name": null,
    "office_name_kana": null
  },
  "1112": {
    "zip_code": "9451112",
    "prefecture": "新潟県",
    "prefecture_kana": "ニイガタケン",
    "prefecture_code": 15,
    "city": "柏崎市",
    "city_kana": "カシワザキシ",
    "town": "南下",
    "town_kana": "ノウゲ",
    "street": null,
    "office_name": null,
    "office_name_kana": null
  },
  "1113": {
    "zip_code": "9451113",
    "prefecture": "新潟県",
    "prefecture_kana": "ニイガタケン",
    "prefecture_code": 15,
    "city": "柏崎市",
    "city_kana": "カシワザキシ",
    "town": "古町",
    "town_kana": "フルマチ",
    "street": null,
    "office_name": null,
    "office_name_kana": null
  },
  "1114": {
    "zip_code": "9451114",
    "prefecture": "新潟県",
    "prefecture_kana": "ニイガタケン",
    "prefecture_code": 15,
    "city": "柏崎市",
    "city_kana": "カシワザキシ",
    "town": "芋川",
    "town_kana": "イモガワ",
    "street": null,
    "office_name": null,
    "office_name_kana": null
  },
  "1115": {
    "zip_code": "9451115",
    "prefecture": "新潟県",
    "prefecture_kana": "ニイガタケン",
    "prefecture_code": 15,
    "city": "柏崎市",
    "city_kana": "カシワザキシ",
    "town": "佐水",
    "town_kana": "サミズ",
    "street": null,
    "office_name": null,
    "office_name_kana": null
  },
  "1116": {
    "zip_code": "9451116",
    "prefecture": "新潟県",
    "prefecture_kana": "ニイガタケン",
    "prefecture_code": 15,
    "city": "柏崎市",
    "city_kana": "カシワザキシ",
    "town": "山口",
    "town_kana": "ヤマグチ",
    "street": null,
    "office_name": null,
    "office_name_kana": null
  },
  "1117": {
    "zip_code": "9451117",
    "prefecture": "新潟県",
    "prefecture_kana": "ニイガタケン",
    "prefecture_code": 15,
    "city": "柏崎市",
    "city_kana": "カシワザキシ",
    "town": "宮之窪",
    "town_kana": "ミヤノクボ",
    "street": null,
    "office_name": null,
    "office_name_kana": null
  },
  "1118": {
    "zip_code": "9451118",
    "prefecture": "新潟県",
    "prefecture_kana": "ニイガタケン",
    "prefecture_code": 15,
    "city": "柏崎市",
    "city_kana": "カシワザキシ",
    "town": "上条",
    "town_kana": "ジョウジョウ",
    "street": null,
    "office_name": null,
    "office_name_kana": null
  },
  "1121": {
    "zip_code": "9451121",
    "prefecture": "新潟県",
    "prefecture_kana": "ニイガタケン",
    "prefecture_code": 15,
    "city": "柏崎市",
    "city_kana": "カシワザキシ",
    "town": "上方",
    "town_kana": "カミガタ",
    "street": null,
    "office_name": null,
    "office_name_kana": null
  },
  "1122": {
    "zip_code": "9451122",
    "prefecture": "新潟県",
    "prefecture_kana": "ニイガタケン",
    "prefecture_code": 15,
    "city": "柏崎市",
    "city_kana": "カシワザキシ",
    "town": "新道",
    "town_kana": "シンドウ",
    "street": null,
    "office_name": null,
    "office_name_kana": null
  },
  "1123": {
    "zip_code": "9451123",
    "prefecture": "新潟県",
    "prefecture_kana": "ニイガタケン",
    "prefecture_code": 15,
    "city": "柏崎市",
    "city_kana": "カシワザキシ",
    "town": "貝渕",
    "town_kana": "カイブチ",
    "street": null,
    "office_name": null,
    "office_name_kana": null
  },
  "1124": {
    "zip_code": "9451124",
    "prefecture": "新潟県",
    "prefecture_kana": "ニイガタケン",
    "prefecture_code": 15,
    "city": "柏崎市",
    "city_kana": "カシワザキシ",
    "town": "黒滝",
    "town_kana": "クロタキ",
    "street": null,
    "office_name": null,
    "office_name_kana": null
  },
  "1125": {
    "zip_code": "9451125",
    "prefecture": "新潟県",
    "prefecture_kana": "ニイガタケン",
    "prefecture_code": 15,
    "city": "柏崎市",
    "city_kana": "カシワザキシ",
    "town": "小田山新田",
    "town_kana": "コダヤマシンデン",
    "street": null,
    "office_name": null,
    "office_name_kana": null
  },
  "1126": {
    "zip_code": "9451126",
    "prefecture": "新潟県",
    "prefecture_kana": "ニイガタケン",
    "prefecture_code": 15,
    "city": "柏崎市",
    "city_kana": "カシワザキシ",
    "town": "大河内新田",
    "town_kana": "オオコウチシンデン",
    "street": null,
    "office_name": null,
    "office_name_kana": null
  },
  "1195": {
    "zip_code": "9451195",
    "prefecture": "新潟県",
    "prefecture_kana": null,
    "prefecture_code": null,
    "city": "柏崎市",
    "city_kana": null,
    "town": "大字藤橋",
    "town_kana": null,
    "street": "１７１９",
    "office_name": "新潟工科大学",
    "office_name_kana": "ニイガタコウカダイガク"
  },
  "1241": {
    "zip_code": "9451241",
    "prefecture": "新潟県",
    "prefecture_kana": "ニイガタケン",
    "prefecture_code": 15,
    "city": "柏崎市",
    "city_kana": "カシワザキシ",
    "town": "野田",
    "town_kana": "ノタ",
    "street": null,
    "office_name": null,
    "office_name_kana": null
  },
  "1242": {
    "zip_code": "9451242",
    "prefecture": "新潟県",
    "prefecture_kana": "ニイガタケン",
    "prefecture_code": 15,
    "city": "柏崎市",
    "city_kana": "カシワザキシ",
    "town": "細越",
    "town_kana": "ホソゴエ",
    "street": null,
    "office_name": null,
    "office_name_kana": null
  },
  "1243": {
    "zip_code": "9451243",
    "prefecture": "新潟県",
    "prefecture_kana": "ニイガタケン",
    "prefecture_code": 15,
    "city": "柏崎市",
    "city_kana": "カシワザキシ",
    "town": "久米",
    "town_kana": "クンメ",
    "street": null,
    "office_name": null,
    "office_name_kana": null
  },
  "1244": {
    "zip_code": "9451244",
    "prefecture": "新潟県",
    "prefecture_kana": "ニイガタケン",
    "prefecture_code": 15,
    "city": "柏崎市",
    "city_kana": "カシワザキシ",
    "town": "水上",
    "town_kana": "ミズカミ",
    "street": null,
    "office_name": null,
    "office_name_kana": null
  },
  "1245": {
    "zip_code": "9451245",
    "prefecture": "新潟県",
    "prefecture_kana": "ニイガタケン",
    "prefecture_code": 15,
    "city": "柏崎市",
    "city_kana": "カシワザキシ",
    "town": "宮川新田",
    "town_kana": "ミヤガワシンデン",
    "street": null,
    "office_name": null,
    "office_name_kana": null
  },
  "1246": {
    "zip_code": "9451246",
    "prefecture": "新潟県",
    "prefecture_kana": "ニイガタケン",
    "prefecture_code": 15,
    "city": "柏崎市",
    "city_kana": "カシワザキシ",
    "town": "清水谷",
    "town_kana": "シミズタニ",
    "street": null,
    "office_name": null,
    "office_name_kana": null
  },
  "1247": {
    "zip_code": "9451247",
    "prefecture": "新潟県",
    "prefecture_kana": "ニイガタケン",
    "prefecture_code": 15,
    "city": "柏崎市",
    "city_kana": "カシワザキシ",
    "town": "木沢",
    "town_kana": "キザワ",
    "street": null,
    "office_name": null,
    "office_name_kana": null
  },
  "1248": {
    "zip_code": "9451248",
    "prefecture": "新潟県",
    "prefecture_kana": "ニイガタケン",
    "prefecture_code": 15,
    "city": "柏崎市",
    "city_kana": "カシワザキシ",
    "town": "田屋",
    "town_kana": "タヤ",
    "street": null,
    "office_name": null,
    "office_name_kana": null
  },
  "1251": {
    "zip_code": "9451251",
    "prefecture": "新潟県",
    "prefecture_kana": "ニイガタケン",
    "prefecture_code": 15,
    "city": "柏崎市",
    "city_kana": "カシワザキシ",
    "town": "市野新田",
    "town_kana": "イチノシンデン",
    "street": null,
    "office_name": null,
    "office_name_kana": null
  },
  "1252": {
    "zip_code": "9451252",
    "prefecture": "新潟県",
    "prefecture_kana": "ニイガタケン",
    "prefecture_code": 15,
    "city": "柏崎市",
    "city_kana": "カシワザキシ",
    "town": "女谷",
    "town_kana": "オナダニ",
    "street": null,
    "office_name": null,
    "office_name_kana": null
  },
  "1253": {
    "zip_code": "9451253",
    "prefecture": "新潟県",
    "prefecture_kana": "ニイガタケン",
    "prefecture_code": 15,
    "city": "柏崎市",
    "city_kana": "カシワザキシ",
    "town": "折居",
    "town_kana": "オリイ",
    "street": null,
    "office_name": null,
    "office_name_kana": null
  },
  "1341": {
    "zip_code": "9451341",
    "prefecture": "新潟県",
    "prefecture_kana": "ニイガタケン",
    "prefecture_code": 15,
    "city": "柏崎市",
    "city_kana": "カシワザキシ",
    "town": "茨目",
    "town_kana": "イバラメ",
    "street": null,
    "office_name": null,
    "office_name_kana": null
  },
  "1343": {
    "zip_code": "9451343",
    "prefecture": "新潟県",
    "prefecture_kana": "ニイガタケン",
    "prefecture_code": 15,
    "city": "柏崎市",
    "city_kana": "カシワザキシ",
    "town": "城塚",
    "town_kana": "ジョウヅカ",
    "street": null,
    "office_name": null,
    "office_name_kana": null
  },
  "1344": {
    "zip_code": "9451344",
    "prefecture": "新潟県",
    "prefecture_kana": "ニイガタケン",
    "prefecture_code": 15,
    "city": "柏崎市",
    "city_kana": "カシワザキシ",
    "town": "両田尻",
    "town_kana": "リョウタジリ",
    "street": null,
    "office_name": null,
    "office_name_kana": null
  },
  "1345": {
    "zip_code": "9451345",
    "prefecture": "新潟県",
    "prefecture_kana": "ニイガタケン",
    "prefecture_code": 15,
    "city": "柏崎市",
    "city_kana": "カシワザキシ",
    "town": "下田尻",
    "town_kana": "シモタジリ",
    "street": null,
    "office_name": null,
    "office_name_kana": null
  },
  "1351": {
    "zip_code": "9451351",
    "prefecture": "新潟県",
    "prefecture_kana": "ニイガタケン",
    "prefecture_code": 15,
    "city": "柏崎市",
    "city_kana": "カシワザキシ",
    "town": "上田尻",
    "town_kana": "カミタジリ",
    "street": null,
    "office_name": null,
    "office_name_kana": null
  },
  "1352": {
    "zip_code": "9451352",
    "prefecture": "新潟県",
    "prefecture_kana": "ニイガタケン",
    "prefecture_code": 15,
    "city": "柏崎市",
    "city_kana": "カシワザキシ",
    "town": "安田",
    "town_kana": "ヤスダ",
    "street": null,
    "office_name": null,
    "office_name_kana": null
  },
  "1353": {
    "zip_code": "9451353",
    "prefecture": "新潟県",
    "prefecture_kana": "ニイガタケン",
    "prefecture_code": 15,
    "city": "柏崎市",
    "city_kana": "カシワザキシ",
    "town": "平井",
    "town_kana": "ヒライ",
    "street": null,
    "office_name": null,
    "office_name_kana": null
  },
  "1354": {
    "zip_code": "9451354",
    "prefecture": "新潟県",
    "prefecture_kana": "ニイガタケン",
    "prefecture_code": 15,
    "city": "柏崎市",
    "city_kana": "カシワザキシ",
    "town": "佐藤池新田",
    "town_kana": "サトウガイケシンデン",
    "street": null,
    "office_name": null,
    "office_name_kana": null
  },
  "1355": {
    "zip_code": "9451355",
    "prefecture": "新潟県",
    "prefecture_kana": "ニイガタケン",
    "prefecture_code": 15,
    "city": "柏崎市",
    "city_kana": "カシワザキシ",
    "town": "軽井川",
    "town_kana": "カルイガワ",
    "street": null,
    "office_name": null,
    "office_name_kana": null
  },
  "1392": {
    "zip_code": "9451392",
    "prefecture": "新潟県",
    "prefecture_kana": null,
    "prefecture_code": null,
    "city": "柏崎市",
    "city_kana": null,
    "town": "大字茨目",
    "town_kana": null,
    "street": "字二ツ池２０７１−１",
    "office_name": "柏崎厚生病院",
    "office_name_kana": "カシワザキコウセイビヨウイン"
  },
  "1393": {
    "zip_code": "9451393",
    "prefecture": "新潟県",
    "prefecture_kana": null,
    "prefecture_code": null,
    "city": "柏崎市",
    "city_kana": null,
    "town": "大字軽井川",
    "town_kana": null,
    "street": "４７３０",
    "office_name": "新潟産業大学",
    "office_name_kana": "ニイガタサンギヨウダイガク"
  },
  "1395": {
    "zip_code": "9451395",
    "prefecture": "新潟県",
    "prefecture_kana": null,
    "prefecture_code": null,
    "city": "柏崎市",
    "city_kana": null,
    "town": "大字安田",
    "town_kana": null,
    "street": "７５８６",
    "office_name": "株式会社　サイカワ",
    "office_name_kana": "カブシキガイシヤ サイカワ"
  },
  "1397": {
    "zip_code": "9451397",
    "prefecture": "新潟県",
    "prefecture_kana": null,
    "prefecture_code": null,
    "city": "柏崎市",
    "city_kana": null,
    "town": "大字安田",
    "town_kana": null,
    "street": "２５１０−２",
    "office_name": "新潟産業大学附属高等学校",
    "office_name_kana": "ニイガタサンギヨウダイガクフゾクコウトウガツコウ"
  },
  "1398": {
    "zip_code": "9451398",
    "prefecture": "新潟県",
    "prefecture_kana": null,
    "prefecture_code": null,
    "city": "柏崎市",
    "city_kana": null,
    "town": "大字安田",
    "town_kana": null,
    "street": "７５４６",
    "office_name": "富士ゼロックスマニュファクチュアリング　株式会社　新潟事業所",
    "office_name_kana": "フジゼロツクスマニユフアクチユアリング カブシキガイシヤ ニイガタジギヨウシヨ"
  },
  "1431": {
    "zip_code": "9451431",
    "prefecture": "新潟県",
    "prefecture_kana": "ニイガタケン",
    "prefecture_code": 15,
    "city": "柏崎市",
    "city_kana": "カシワザキシ",
    "town": "加納",
    "town_kana": "カノウ",
    "street": null,
    "office_name": null,
    "office_name_kana": null
  },
  "1432": {
    "zip_code": "9451432",
    "prefecture": "新潟県",
    "prefecture_kana": "ニイガタケン",
    "prefecture_code": 15,
    "city": "柏崎市",
    "city_kana": "カシワザキシ",
    "town": "善根",
    "town_kana": "ゼゴン",
    "street": null,
    "office_name": null,
    "office_name_kana": null
  },
  "1433": {
    "zip_code": "9451433",
    "prefecture": "新潟県",
    "prefecture_kana": "ニイガタケン",
    "prefecture_code": 15,
    "city": "柏崎市",
    "city_kana": "カシワザキシ",
    "town": "与板",
    "town_kana": "ヨイタ",
    "street": null,
    "office_name": null,
    "office_name_kana": null
  },
  "1434": {
    "zip_code": "9451434",
    "prefecture": "新潟県",
    "prefecture_kana": "ニイガタケン",
    "prefecture_code": 15,
    "city": "柏崎市",
    "city_kana": "カシワザキシ",
    "town": "宮平",
    "town_kana": "ミヤダイラ",
    "street": null,
    "office_name": null,
    "office_name_kana": null
  },
  "1435": {
    "zip_code": "9451435",
    "prefecture": "新潟県",
    "prefecture_kana": "ニイガタケン",
    "prefecture_code": 15,
    "city": "柏崎市",
    "city_kana": "カシワザキシ",
    "town": "森近",
    "town_kana": "モリチカ",
    "street": null,
    "office_name": null,
    "office_name_kana": null
  },
  "1436": {
    "zip_code": "9451436",
    "prefecture": "新潟県",
    "prefecture_kana": "ニイガタケン",
    "prefecture_code": 15,
    "city": "柏崎市",
    "city_kana": "カシワザキシ",
    "town": "石曽根",
    "town_kana": "イシゾネ",
    "street": null,
    "office_name": null,
    "office_name_kana": null
  },
  "1437": {
    "zip_code": "9451437",
    "prefecture": "新潟県",
    "prefecture_kana": "ニイガタケン",
    "prefecture_code": 15,
    "city": "柏崎市",
    "city_kana": "カシワザキシ",
    "town": "山室",
    "town_kana": "ヤマムロ",
    "street": null,
    "office_name": null,
    "office_name_kana": null
  },
  "1438": {
    "zip_code": "9451438",
    "prefecture": "新潟県",
    "prefecture_kana": "ニイガタケン",
    "prefecture_code": 15,
    "city": "柏崎市",
    "city_kana": "カシワザキシ",
    "town": "大沢",
    "town_kana": "オオサワ",
    "street": null,
    "office_name": null,
    "office_name_kana": null
  },
  "1501": {
    "zip_code": "9451501",
    "prefecture": "新潟県",
    "prefecture_kana": "ニイガタケン",
    "prefecture_code": 15,
    "city": "柏崎市",
    "city_kana": "カシワザキシ",
    "town": "高柳町岡田",
    "town_kana": "タカヤナギチョウオカダ",
    "street": null,
    "office_name": null,
    "office_name_kana": null
  },
  "1502": {
    "zip_code": "9451502",
    "prefecture": "新潟県",
    "prefecture_kana": "ニイガタケン",
    "prefecture_code": 15,
    "city": "柏崎市",
    "city_kana": "カシワザキシ",
    "town": "高柳町岡野町",
    "town_kana": "タカヤナギチョウオカノマチ",
    "street": null,
    "office_name": null,
    "office_name_kana": null
  },
  "1503": {
    "zip_code": "9451503",
    "prefecture": "新潟県",
    "prefecture_kana": "ニイガタケン",
    "prefecture_code": 15,
    "city": "柏崎市",
    "city_kana": "カシワザキシ",
    "town": "高柳町山中",
    "town_kana": "タカヤナギチョウヤマナカ",
    "street": null,
    "office_name": null,
    "office_name_kana": null
  },
  "1504": {
    "zip_code": "9451504",
    "prefecture": "新潟県",
    "prefecture_kana": "ニイガタケン",
    "prefecture_code": 15,
    "city": "柏崎市",
    "city_kana": "カシワザキシ",
    "town": "高柳町栃ケ原",
    "town_kana": "タカヤナギチョウトチガハラ",
    "street": null,
    "office_name": null,
    "office_name_kana": null
  },
  "1505": {
    "zip_code": "9451505",
    "prefecture": "新潟県",
    "prefecture_kana": "ニイガタケン",
    "prefecture_code": 15,
    "city": "柏崎市",
    "city_kana": "カシワザキシ",
    "town": "高柳町高尾",
    "town_kana": "タカヤナギチョウタカオ",
    "street": null,
    "office_name": null,
    "office_name_kana": null
  },
  "1511": {
    "zip_code": "9451511",
    "prefecture": "新潟県",
    "prefecture_kana": "ニイガタケン",
    "prefecture_code": 15,
    "city": "柏崎市",
    "city_kana": "カシワザキシ",
    "town": "高柳町漆島",
    "town_kana": "タカヤナギチョウウルシジマ",
    "street": null,
    "office_name": null,
    "office_name_kana": null
  },
  "1512": {
    "zip_code": "9451512",
    "prefecture": "新潟県",
    "prefecture_kana": "ニイガタケン",
    "prefecture_code": 15,
    "city": "柏崎市",
    "city_kana": "カシワザキシ",
    "town": "高柳町荻ノ島",
    "town_kana": "タカヤナギチョウオギノシマ",
    "street": null,
    "office_name": null,
    "office_name_kana": null
  },
  "1513": {
    "zip_code": "9451513",
    "prefecture": "新潟県",
    "prefecture_kana": "ニイガタケン",
    "prefecture_code": 15,
    "city": "柏崎市",
    "city_kana": "カシワザキシ",
    "town": "高柳町門出",
    "town_kana": "タカヤナギチョウカドイデ",
    "street": null,
    "office_name": null,
    "office_name_kana": null
  },
  "1514": {
    "zip_code": "9451514",
    "prefecture": "新潟県",
    "prefecture_kana": "ニイガタケン",
    "prefecture_code": 15,
    "city": "柏崎市",
    "city_kana": "カシワザキシ",
    "town": "高柳町田代",
    "town_kana": "タカヤナギチョウタシロ",
    "street": null,
    "office_name": null,
    "office_name_kana": null
  },
  "1515": {
    "zip_code": "9451515",
    "prefecture": "新潟県",
    "prefecture_kana": "ニイガタケン",
    "prefecture_code": 15,
    "city": "柏崎市",
    "city_kana": "カシワザキシ",
    "town": "高柳町石黒",
    "town_kana": "タカヤナギチョウイシグロ",
    "street": null,
    "office_name": null,
    "office_name_kana": null
  },
  "1595": {
    "zip_code": "9451595",
    "prefecture": "新潟県",
    "prefecture_kana": "ニイガタケン",
    "prefecture_code": 15,
    "city": "柏崎市",
    "city_kana": "カシワザキシ",
    "town": "高柳町岡野町",
    "town_kana": "タカヤナギチョウオカノマチ",
    "street": "１８４９−１",
    "office_name": "柏崎市役所　高柳町事務所",
    "office_name_kana": "カシワザキシヤクシヨ タカヤナギマチジムシヨ"
  },
  "8501": [
    {
      "zip_code": "9458501",
      "prefecture": "新潟県",
      "prefecture_kana": "ニイガタケン",
      "prefecture_code": 15,
      "city": "柏崎市",
      "city_kana": "カシワザキシ",
      "town": "田中",
      "town_kana": "タナカ",
      "street": "２６−２３",
      "office_name": "柏崎公共職業安定所、柏崎労働基準監督署、経済産業省資源エネルギー庁原子力安全・保安院柏崎刈羽原子力保安検査官事務所、新潟地方法務局柏崎支局",
      "office_name_kana": "カシワザキコウキヨウシヨクギヨウアンテイシヨ、カシワザキロウドウキジユンカントクシヨ、ケイザイサンギヨウシヨウシゲンエネルギ-チヨウゲンシリヨクアンゼン・ホアンインカシワザキカ"
    },
    {
      "zip_code": "9458501",
      "prefecture": "新潟県",
      "prefecture_kana": "ニイガタケン",
      "prefecture_code": 15,
      "city": "柏崎市",
      "city_kana": "カシワザキシ",
      "town": "田中",
      "town_kana": "タナカ",
      "street": "２６−２３",
      "office_name": "通商産業省資源エネルギー庁柏崎刈羽運転管理専門事務所・新潟地方法務局柏崎支局",
      "office_name_kana": "ツウシヨウサンギヨウシヨウシゲンエネルギ-チヨウカシワザキカリワウンテンカンリセンモンカンジムシヨ.ニイガタチホウホウムキヨクカシワザキシキヨク"
    }
  ],
  "8511": {
    "zip_code": "9458511",
    "prefecture": "新潟県",
    "prefecture_kana": "ニイガタケン",
    "prefecture_code": 15,
    "city": "柏崎市",
    "city_kana": "カシワザキシ",
    "town": "中央町",
    "town_kana": "チュウオウチョウ",
    "street": "５−５０",
    "office_name": "柏崎市役所",
    "office_name_kana": "カシワザキシヤクシヨ"
  },
  "8535": {
    "zip_code": "9458535",
    "prefecture": "新潟県",
    "prefecture_kana": "ニイガタケン",
    "prefecture_code": 15,
    "city": "柏崎市",
    "city_kana": "カシワザキシ",
    "town": "北半田",
    "town_kana": "キタハンダ",
    "street": "２丁目１１−３",
    "office_name": "柏崎総合医療センター",
    "office_name_kana": "カシワザキソウゴウイリヨウセンタ-"
  },
  "8555": {
    "zip_code": "9458555",
    "prefecture": "新潟県",
    "prefecture_kana": "ニイガタケン",
    "prefecture_code": 15,
    "city": "柏崎市",
    "city_kana": "カシワザキシ",
    "town": "北斗町",
    "town_kana": "ホクトチョウ",
    "street": "１−３７",
    "office_name": "株式会社　リケン",
    "office_name_kana": "カブシキカイシヤ リケン"
  },
  "8558": {
    "zip_code": "9458558",
    "prefecture": "新潟県",
    "prefecture_kana": "ニイガタケン",
    "prefecture_code": 15,
    "city": "柏崎市",
    "city_kana": "カシワザキシ",
    "town": "三和町",
    "town_kana": "サンワチョウ",
    "street": "５−５５",
    "office_name": "柏崎財務事務所・柏崎地域福祉センター・柏崎土木事務所・柏崎農地事務所・刈羽農業改良普及センター",
    "office_name_kana": "カシワザキザイムジムシヨ.カシワザキチイキフクシセンタ-.カシワザキドボクジムシヨ.カシワザキノウチジムシヨ.カリワノウギヨウカイリヨウフキユウセンタ-"
  },
  "8585": {
    "zip_code": "9458585",
    "prefecture": "新潟県",
    "prefecture_kana": "ニイガタケン",
    "prefecture_code": 15,
    "city": "柏崎市",
    "city_kana": "カシワザキシ",
    "town": "赤坂町",
    "town_kana": "アカサカチョウ",
    "street": "３−５２",
    "office_name": "国立病院機構　新潟病院",
    "office_name_kana": "コクリツビヨウインキコウ ニイガタビヨウイン"
  },
  "8601": {
    "zip_code": "9458601",
    "prefecture": "新潟県",
    "prefecture_kana": "ニイガタケン",
    "prefecture_code": 15,
    "city": "柏崎市",
    "city_kana": "カシワザキシ",
    "town": "青山町",
    "town_kana": "アオヤマチョウ",
    "street": "１６−４６",
    "office_name": "東京電力　株式会社　柏崎刈羽原子力発電所",
    "office_name_kana": "トウキヨウデンリヨク カブシキガイシヤ カシワザキカリワゲンシリヨクハツデンシヨ"
  },
  "8611": {
    "zip_code": "9458611",
    "prefecture": "新潟県",
    "prefecture_kana": "ニイガタケン",
    "prefecture_code": 15,
    "city": "柏崎市",
    "city_kana": "カシワザキシ",
    "town": "駅前",
    "town_kana": "エキマエ",
    "street": "１丁目３−１（柏崎郵便局私書箱第２２号）",
    "office_name": "株式会社　ブルボン",
    "office_name_kana": "カブシキカイシヤ ブルボン"
  },
  "8688": {
    "zip_code": "9458688",
    "prefecture": "新潟県",
    "prefecture_kana": "ニイガタケン",
    "prefecture_code": 15,
    "city": "柏崎市",
    "city_kana": "カシワザキシ",
    "town": "中央町",
    "town_kana": "チュウオウチョウ",
    "street": "５−５３（柏崎郵便局私書箱第４号）",
    "office_name": "柏崎税務署",
    "office_name_kana": "カシワザキゼイムシヨ"
  }
}