{
  "0000": {
    "zip_code": "9520000",
    "prefecture": "新潟県",
    "prefecture_kana": "ニイガタケン",
    "prefecture_code": "15",
    "city": "佐渡市",
    "city_kana": "サドシ",
    "town": "",
    "town_kana": "",
    "street": null,
    "office_name": null,
    "office_name_kana": null
  },
  "0001": {
    "zip_code": "9520001",
    "prefecture": "新潟県",
    "prefecture_kana": "ニイガタケン",
    "prefecture_code": "15",
    "city": "佐渡市",
    "city_kana": "サドシ",
    "town": "白瀬",
    "town_kana": "シロセ",
    "street": null,
    "office_name": null,
    "office_name_kana": null
  },
  "0002": {
    "zip_code": "9520002",
    "prefecture": "新潟県",
    "prefecture_kana": "ニイガタケン",
    "prefecture_code": "15",
    "city": "佐渡市",
    "city_kana": "サドシ",
    "town": "北五十里",
    "town_kana": "キタイカリ",
    "street": null,
    "office_name": null,
    "office_name_kana": null
  },
  "0003": {
    "zip_code": "9520003",
    "prefecture": "新潟県",
    "prefecture_kana": "ニイガタケン",
    "prefecture_code": "15",
    "city": "佐渡市",
    "city_kana": "サドシ",
    "town": "椿",
    "town_kana": "ツバキ",
    "street": null,
    "office_name": null,
    "office_name_kana": null
  },
  "0004": {
    "zip_code": "9520004",
    "prefecture": "新潟県",
    "prefecture_kana": "ニイガタケン",
    "prefecture_code": "15",
    "city": "佐渡市",
    "city_kana": "サドシ",
    "town": "羽吉",
    "town_kana": "ハヨシ",
    "street": null,
    "office_name": null,
    "office_name_kana": null
  },
  "0005": {
    "zip_code": "9520005",
    "prefecture": "新潟県",
    "prefecture_kana": "ニイガタケン",
    "prefecture_code": "15",
    "city": "佐渡市",
    "city_kana": "サドシ",
    "town": "梅津",
    "town_kana": "ウメヅ",
    "street": null,
    "office_name": null,
    "office_name_kana": null
  },
  "0006": {
    "zip_code": "9520006",
    "prefecture": "新潟県",
    "prefecture_kana": "ニイガタケン",
    "prefecture_code": "15",
    "city": "佐渡市",
    "city_kana": "サドシ",
    "town": "春日",
    "town_kana": "カスガ",
    "street": null,
    "office_name": null,
    "office_name_kana": null
  },
  "0007": {
    "zip_code": "9520007",
    "prefecture": "新潟県",
    "prefecture_kana": "ニイガタケン",
    "prefecture_code": "15",
    "city": "佐渡市",
    "city_kana": "サドシ",
    "town": "浜田",
    "town_kana": "ハマダ",
    "street": null,
    "office_name": null,
    "office_name_kana": null
  },
  "0011": {
    "zip_code": "9520011",
    "prefecture": "新潟県",
    "prefecture_kana": "ニイガタケン",
    "prefecture_code": "15",
    "city": "佐渡市",
    "city_kana": "サドシ",
    "town": "両津夷",
    "town_kana": "リョウツエビス",
    "street": null,
    "office_name": null,
    "office_name_kana": null
  },
  "0012": {
    "zip_code": "9520012",
    "prefecture": "新潟県",
    "prefecture_kana": "ニイガタケン",
    "prefecture_code": "15",
    "city": "佐渡市",
    "city_kana": "サドシ",
    "town": "両津夷新",
    "town_kana": "リョウツエビスシン",
    "street": null,
    "office_name": null,
    "office_name_kana": null
  },
  "0013": {
    "zip_code": "9520013",
    "prefecture": "新潟県",
    "prefecture_kana": "ニイガタケン",
    "prefecture_code": "15",
    "city": "佐渡市",
    "city_kana": "サドシ",
    "town": "両津福浦",
    "town_kana": "リョウツフクウラ",
    "street": null,
    "office_name": null,
    "office_name_kana": null
  },
  "0014": {
    "zip_code": "9520014",
    "prefecture": "新潟県",
    "prefecture_kana": "ニイガタケン",
    "prefecture_code": "15",
    "city": "佐渡市",
    "city_kana": "サドシ",
    "town": "両津湊",
    "town_kana": "リョウツミナト",
    "street": null,
    "office_name": null,
    "office_name_kana": null
  },
  "0015": {
    "zip_code": "9520015",
    "prefecture": "新潟県",
    "prefecture_kana": "ニイガタケン",
    "prefecture_code": "15",
    "city": "佐渡市",
    "city_kana": "サドシ",
    "town": "住吉",
    "town_kana": "スミヨシ",
    "street": null,
    "office_name": null,
    "office_name_kana": null
  },
  "0016": {
    "zip_code": "9520016",
    "prefecture": "新潟県",
    "prefecture_kana": "ニイガタケン",
    "prefecture_code": "15",
    "city": "佐渡市",
    "city_kana": "サドシ",
    "town": "原黒",
    "town_kana": "ハラクロ",
    "street": null,
    "office_name": null,
    "office_name_kana": null
  },
  "0021": {
    "zip_code": "9520021",
    "prefecture": "新潟県",
    "prefecture_kana": "ニイガタケン",
    "prefecture_code": "15",
    "city": "佐渡市",
    "city_kana": "サドシ",
    "town": "秋津",
    "town_kana": "アキツ",
    "street": null,
    "office_name": null,
    "office_name_kana": null
  },
  "0022": {
    "zip_code": "9520022",
    "prefecture": "新潟県",
    "prefecture_kana": "ニイガタケン",
    "prefecture_code": "15",
    "city": "佐渡市",
    "city_kana": "サドシ",
    "town": "旭",
    "town_kana": "アサヒ",
    "street": null,
    "office_name": null,
    "office_name_kana": null
  },
  "0023": {
    "zip_code": "9520023",
    "prefecture": "新潟県",
    "prefecture_kana": "ニイガタケン",
    "prefecture_code": "15",
    "city": "佐渡市",
    "city_kana": "サドシ",
    "town": "潟端",
    "town_kana": "カタバタ",
    "street": null,
    "office_name": null,
    "office_name_kana": null
  },
  "0024": {
    "zip_code": "9520024",
    "prefecture": "新潟県",
    "prefecture_kana": "ニイガタケン",
    "prefecture_code": "15",
    "city": "佐渡市",
    "city_kana": "サドシ",
    "town": "上横山",
    "town_kana": "カミヨコヤマ",
    "street": null,
    "office_name": null,
    "office_name_kana": null
  },
  "0025": {
    "zip_code": "9520025",
    "prefecture": "新潟県",
    "prefecture_kana": "ニイガタケン",
    "prefecture_code": "15",
    "city": "佐渡市",
    "city_kana": "サドシ",
    "town": "下横山",
    "town_kana": "シモヨコヤマ",
    "street": null,
    "office_name": null,
    "office_name_kana": null
  },
  "0026": {
    "zip_code": "9520026",
    "prefecture": "新潟県",
    "prefecture_kana": "ニイガタケン",
    "prefecture_code": "15",
    "city": "佐渡市",
    "city_kana": "サドシ",
    "town": "立野",
    "town_kana": "タテノ",
    "street": null,
    "office_name": null,
    "office_name_kana": null
  },
  "0027": {
    "zip_code": "9520027",
    "prefecture": "新潟県",
    "prefecture_kana": "ニイガタケン",
    "prefecture_code": "15",
    "city": "佐渡市",
    "city_kana": "サドシ",
    "town": "長江",
    "town_kana": "ナガエ",
    "street": null,
    "office_name": null,
    "office_name_kana": null
  },
  "0028": {
    "zip_code": "9520028",
    "prefecture": "新潟県",
    "prefecture_kana": "ニイガタケン",
    "prefecture_code": "15",
    "city": "佐渡市",
    "city_kana": "サドシ",
    "town": "加茂歌代",
    "town_kana": "カモウタシロ",
    "street": null,
    "office_name": null,
    "office_name_kana": null
  },
  "0101": {
    "zip_code": "9520101",
    "prefecture": "新潟県",
    "prefecture_kana": "ニイガタケン",
    "prefecture_code": "15",
    "city": "佐渡市",
    "city_kana": "サドシ",
    "town": "新穂長畝",
    "town_kana": "ニイボナガウネ",
    "street": null,
    "office_name": null,
    "office_name_kana": null
  },
  "0102": {
    "zip_code": "9520102",
    "prefecture": "新潟県",
    "prefecture_kana": "ニイガタケン",
    "prefecture_code": "15",
    "city": "佐渡市",
    "city_kana": "サドシ",
    "town": "新穂青木",
    "town_kana": "ニイボアオキ",
    "street": null,
    "office_name": null,
    "office_name_kana": null
  },
  "0103": {
    "zip_code": "9520103",
    "prefecture": "新潟県",
    "prefecture_kana": "ニイガタケン",
    "prefecture_code": "15",
    "city": "佐渡市",
    "city_kana": "サドシ",
    "town": "新穂潟上",
    "town_kana": "ニイボカタガミ",
    "street": null,
    "office_name": null,
    "office_name_kana": null
  },
  "0104": {
    "zip_code": "9520104",
    "prefecture": "新潟県",
    "prefecture_kana": "ニイガタケン",
    "prefecture_code": "15",
    "city": "佐渡市",
    "city_kana": "サドシ",
    "town": "新穂田野沢",
    "town_kana": "ニイボタノサワ",
    "street": null,
    "office_name": null,
    "office_name_kana": null
  },
  "0105": {
    "zip_code": "9520105",
    "prefecture": "新潟県",
    "prefecture_kana": "ニイガタケン",
    "prefecture_code": "15",
    "city": "佐渡市",
    "city_kana": "サドシ",
    "town": "新穂正明寺",
    "town_kana": "ニイボショウミョウジ",
    "street": null,
    "office_name": null,
    "office_name_kana": null
  },
  "0106": {
    "zip_code": "9520106",
    "prefecture": "新潟県",
    "prefecture_kana": "ニイガタケン",
    "prefecture_code": "15",
    "city": "佐渡市",
    "city_kana": "サドシ",
    "town": "新穂瓜生屋",
    "town_kana": "ニイボウリュウヤ",
    "street": null,
    "office_name": null,
    "office_name_kana": null
  },
  "0107": {
    "zip_code": "9520107",
    "prefecture": "新潟県",
    "prefecture_kana": "ニイガタケン",
    "prefecture_code": "15",
    "city": "佐渡市",
    "city_kana": "サドシ",
    "town": "新穂井内",
    "town_kana": "ニイボイナイ",
    "street": null,
    "office_name": null,
    "office_name_kana": null
  },
  "0108": {
    "zip_code": "9520108",
    "prefecture": "新潟県",
    "prefecture_kana": "ニイガタケン",
    "prefecture_code": "15",
    "city": "佐渡市",
    "city_kana": "サドシ",
    "town": "上新穂",
    "town_kana": "カミニイボ",
    "street": null,
    "office_name": null,
    "office_name_kana": null
  },
  "0109": {
    "zip_code": "9520109",
    "prefecture": "新潟県",
    "prefecture_kana": "ニイガタケン",
    "prefecture_code": "15",
    "city": "佐渡市",
    "city_kana": "サドシ",
    "town": "新穂大野",
    "town_kana": "ニイボオオノ",
    "street": null,
    "office_name": null,
    "office_name_kana": null
  },
  "0111": {
    "zip_code": "9520111",
    "prefecture": "新潟県",
    "prefecture_kana": "ニイガタケン",
    "prefecture_code": "15",
    "city": "佐渡市",
    "city_kana": "サドシ",
    "town": "新穂武井",
    "town_kana": "ニイボタケイ",
    "street": null,
    "office_name": null,
    "office_name_kana": null
  },
  "0112": {
    "zip_code": "9520112",
    "prefecture": "新潟県",
    "prefecture_kana": "ニイガタケン",
    "prefecture_code": "15",
    "city": "佐渡市",
    "city_kana": "サドシ",
    "town": "新穂舟下",
    "town_kana": "ニイボフナシモ",
    "street": null,
    "office_name": null,
    "office_name_kana": null
  },
  "0113": {
    "zip_code": "9520113",
    "prefecture": "新潟県",
    "prefecture_kana": "ニイガタケン",
    "prefecture_code": "15",
    "city": "佐渡市",
    "city_kana": "サドシ",
    "town": "新穂皆川",
    "town_kana": "ニイボミナガワ",
    "street": null,
    "office_name": null,
    "office_name_kana": null
  },
  "0114": {
    "zip_code": "9520114",
    "prefecture": "新潟県",
    "prefecture_kana": "ニイガタケン",
    "prefecture_code": "15",
    "city": "佐渡市",
    "city_kana": "サドシ",
    "town": "下新穂",
    "town_kana": "シモニイボ",
    "street": null,
    "office_name": null,
    "office_name_kana": null
  },
  "0115": {
    "zip_code": "9520115",
    "prefecture": "新潟県",
    "prefecture_kana": "ニイガタケン",
    "prefecture_code": "15",
    "city": "佐渡市",
    "city_kana": "サドシ",
    "town": "新穂北方",
    "town_kana": "ニイボキタガタ",
    "street": null,
    "office_name": null,
    "office_name_kana": null
  },
  "0116": {
    "zip_code": "9520116",
    "prefecture": "新潟県",
    "prefecture_kana": "ニイガタケン",
    "prefecture_code": "15",
    "city": "佐渡市",
    "city_kana": "サドシ",
    "town": "新穂",
    "town_kana": "ニイボ",
    "street": null,
    "office_name": null,
    "office_name_kana": null
  },
  "0201": {
    "zip_code": "9520201",
    "prefecture": "新潟県",
    "prefecture_kana": "ニイガタケン",
    "prefecture_code": "15",
    "city": "佐渡市",
    "city_kana": "サドシ",
    "town": "目黒町",
    "town_kana": "メグロマチ",
    "street": null,
    "office_name": null,
    "office_name_kana": null
  },
  "0202": {
    "zip_code": "9520202",
    "prefecture": "新潟県",
    "prefecture_kana": "ニイガタケン",
    "prefecture_code": "15",
    "city": "佐渡市",
    "city_kana": "サドシ",
    "town": "栗野江",
    "town_kana": "クリノエ",
    "street": null,
    "office_name": null,
    "office_name_kana": null
  },
  "0203": {
    "zip_code": "9520203",
    "prefecture": "新潟県",
    "prefecture_kana": "ニイガタケン",
    "prefecture_code": "15",
    "city": "佐渡市",
    "city_kana": "サドシ",
    "town": "坊ケ浦",
    "town_kana": "ボウガウラ",
    "street": null,
    "office_name": null,
    "office_name_kana": null
  },
  "0204": {
    "zip_code": "9520204",
    "prefecture": "新潟県",
    "prefecture_kana": "ニイガタケン",
    "prefecture_code": "15",
    "city": "佐渡市",
    "city_kana": "サドシ",
    "town": "長谷",
    "town_kana": "ハセ",
    "street": null,
    "office_name": null,
    "office_name_kana": null
  },
  "0205": {
    "zip_code": "9520205",
    "prefecture": "新潟県",
    "prefecture_kana": "ニイガタケン",
    "prefecture_code": "15",
    "city": "佐渡市",
    "city_kana": "サドシ",
    "town": "小倉",
    "town_kana": "オグラ",
    "street": null,
    "office_name": null,
    "office_name_kana": null
  },
  "0206": {
    "zip_code": "9520206",
    "prefecture": "新潟県",
    "prefecture_kana": "ニイガタケン",
    "prefecture_code": "15",
    "city": "佐渡市",
    "city_kana": "サドシ",
    "town": "畑野",
    "town_kana": "ハタノ",
    "street": null,
    "office_name": null,
    "office_name_kana": null
  },
  "0207": {
    "zip_code": "9520207",
    "prefecture": "新潟県",
    "prefecture_kana": "ニイガタケン",
    "prefecture_code": "15",
    "city": "佐渡市",
    "city_kana": "サドシ",
    "town": "寺田",
    "town_kana": "テラダ",
    "street": null,
    "office_name": null,
    "office_name_kana": null
  },
  "0211": {
    "zip_code": "9520211",
    "prefecture": "新潟県",
    "prefecture_kana": "ニイガタケン",
    "prefecture_code": "15",
    "city": "佐渡市",
    "city_kana": "サドシ",
    "town": "畉田",
    "town_kana": "フタ",
    "street": null,
    "office_name": null,
    "office_name_kana": null
  },
  "0212": {
    "zip_code": "9520212",
    "prefecture": "新潟県",
    "prefecture_kana": "ニイガタケン",
    "prefecture_code": "15",
    "city": "佐渡市",
    "city_kana": "サドシ",
    "town": "宮川",
    "town_kana": "ミヤカワ",
    "street": null,
    "office_name": null,
    "office_name_kana": null
  },
  "0213": {
    "zip_code": "9520213",
    "prefecture": "新潟県",
    "prefecture_kana": "ニイガタケン",
    "prefecture_code": "15",
    "city": "佐渡市",
    "city_kana": "サドシ",
    "town": "飯持",
    "town_kana": "イイモチ",
    "street": null,
    "office_name": null,
    "office_name_kana": null
  },
  "0214": {
    "zip_code": "9520214",
    "prefecture": "新潟県",
    "prefecture_kana": "ニイガタケン",
    "prefecture_code": "15",
    "city": "佐渡市",
    "city_kana": "サドシ",
    "town": "大久保",
    "town_kana": "オオクボ",
    "street": null,
    "office_name": null,
    "office_name_kana": null
  },
  "0215": {
    "zip_code": "9520215",
    "prefecture": "新潟県",
    "prefecture_kana": "ニイガタケン",
    "prefecture_code": "15",
    "city": "佐渡市",
    "city_kana": "サドシ",
    "town": "猿八",
    "town_kana": "サルハチ",
    "street": null,
    "office_name": null,
    "office_name_kana": null
  },
  "0216": {
    "zip_code": "9520216",
    "prefecture": "新潟県",
    "prefecture_kana": "ニイガタケン",
    "prefecture_code": "15",
    "city": "佐渡市",
    "city_kana": "サドシ",
    "town": "三宮",
    "town_kana": "サングウ",
    "street": null,
    "office_name": null,
    "office_name_kana": null
  },
  "0301": {
    "zip_code": "9520301",
    "prefecture": "新潟県",
    "prefecture_kana": "ニイガタケン",
    "prefecture_code": "15",
    "city": "佐渡市",
    "city_kana": "サドシ",
    "town": "真野大川",
    "town_kana": "マノオオカワ",
    "street": null,
    "office_name": null,
    "office_name_kana": null
  },
  "0302": {
    "zip_code": "9520302",
    "prefecture": "新潟県",
    "prefecture_kana": "ニイガタケン",
    "prefecture_code": "15",
    "city": "佐渡市",
    "city_kana": "サドシ",
    "town": "竹田",
    "town_kana": "タケダ",
    "street": null,
    "office_name": null,
    "office_name_kana": null
  },
  "0303": {
    "zip_code": "9520303",
    "prefecture": "新潟県",
    "prefecture_kana": "ニイガタケン",
    "prefecture_code": "15",
    "city": "佐渡市",
    "city_kana": "サドシ",
    "town": "阿仏坊",
    "town_kana": "アブツボウ",
    "street": null,
    "office_name": null,
    "office_name_kana": null
  },
  "0304": {
    "zip_code": "9520304",
    "prefecture": "新潟県",
    "prefecture_kana": "ニイガタケン",
    "prefecture_code": "15",
    "city": "佐渡市",
    "city_kana": "サドシ",
    "town": "国分寺",
    "town_kana": "コクブンジ",
    "street": null,
    "office_name": null,
    "office_name_kana": null
  },
  "0305": {
    "zip_code": "9520305",
    "prefecture": "新潟県",
    "prefecture_kana": "ニイガタケン",
    "prefecture_code": "15",
    "city": "佐渡市",
    "city_kana": "サドシ",
    "town": "長石",
    "town_kana": "ナガイシ",
    "street": null,
    "office_name": null,
    "office_name_kana": null
  },
  "0306": {
    "zip_code": "9520306",
    "prefecture": "新潟県",
    "prefecture_kana": "ニイガタケン",
    "prefecture_code": "15",
    "city": "佐渡市",
    "city_kana": "サドシ",
    "town": "四日町",
    "town_kana": "ヨッカマチ",
    "street": null,
    "office_name": null,
    "office_name_kana": null
  },
  "0307": {
    "zip_code": "9520307",
    "prefecture": "新潟県",
    "prefecture_kana": "ニイガタケン",
    "prefecture_code": "15",
    "city": "佐渡市",
    "city_kana": "サドシ",
    "town": "金丸",
    "town_kana": "カナマル",
    "street": null,
    "office_name": null,
    "office_name_kana": null
  },
  "0311": {
    "zip_code": "9520311",
    "prefecture": "新潟県",
    "prefecture_kana": "ニイガタケン",
    "prefecture_code": "15",
    "city": "佐渡市",
    "city_kana": "サドシ",
    "town": "名古屋",
    "town_kana": "ナゴヤ",
    "street": null,
    "office_name": null,
    "office_name_kana": null
  },
  "0312": {
    "zip_code": "9520312",
    "prefecture": "新潟県",
    "prefecture_kana": "ニイガタケン",
    "prefecture_code": "15",
    "city": "佐渡市",
    "city_kana": "サドシ",
    "town": "吉岡",
    "town_kana": "ヨシオカ",
    "street": null,
    "office_name": null,
    "office_name_kana": null
  },
  "0313": {
    "zip_code": "9520313",
    "prefecture": "新潟県",
    "prefecture_kana": "ニイガタケン",
    "prefecture_code": "15",
    "city": "佐渡市",
    "city_kana": "サドシ",
    "town": "真野",
    "town_kana": "マノ",
    "street": null,
    "office_name": null,
    "office_name_kana": null
  },
  "0314": {
    "zip_code": "9520314",
    "prefecture": "新潟県",
    "prefecture_kana": "ニイガタケン",
    "prefecture_code": "15",
    "city": "佐渡市",
    "city_kana": "サドシ",
    "town": "滝脇",
    "town_kana": "タキワキ",
    "street": null,
    "office_name": null,
    "office_name_kana": null
  },
  "0315": {
    "zip_code": "9520315",
    "prefecture": "新潟県",
    "prefecture_kana": "ニイガタケン",
    "prefecture_code": "15",
    "city": "佐渡市",
    "city_kana": "サドシ",
    "town": "大須",
    "town_kana": "オオズ",
    "street": null,
    "office_name": null,
    "office_name_kana": null
  },
  "0316": {
    "zip_code": "9520316",
    "prefecture": "新潟県",
    "prefecture_kana": "ニイガタケン",
    "prefecture_code": "15",
    "city": "佐渡市",
    "city_kana": "サドシ",
    "town": "背合",
    "town_kana": "セナゴウ",
    "street": null,
    "office_name": null,
    "office_name_kana": null
  },
  "0317": {
    "zip_code": "9520317",
    "prefecture": "新潟県",
    "prefecture_kana": "ニイガタケン",
    "prefecture_code": "15",
    "city": "佐渡市",
    "city_kana": "サドシ",
    "town": "豊田",
    "town_kana": "トヨタ",
    "street": null,
    "office_name": null,
    "office_name_kana": null
  },
  "0318": {
    "zip_code": "9520318",
    "prefecture": "新潟県",
    "prefecture_kana": "ニイガタケン",
    "prefecture_code": "15",
    "city": "佐渡市",
    "city_kana": "サドシ",
    "town": "真野新町",
    "town_kana": "マノシンマチ",
    "street": null,
    "office_name": null,
    "office_name_kana": null
  },
  "0321": {
    "zip_code": "9520321",
    "prefecture": "新潟県",
    "prefecture_kana": "ニイガタケン",
    "prefecture_code": "15",
    "city": "佐渡市",
    "city_kana": "サドシ",
    "town": "静平",
    "town_kana": "シズダイラ",
    "street": null,
    "office_name": null,
    "office_name_kana": null
  },
  "0322": {
    "zip_code": "9520322",
    "prefecture": "新潟県",
    "prefecture_kana": "ニイガタケン",
    "prefecture_code": "15",
    "city": "佐渡市",
    "city_kana": "サドシ",
    "town": "下黒山",
    "town_kana": "シモクロヤマ",
    "street": null,
    "office_name": null,
    "office_name_kana": null
  },
  "0421": {
    "zip_code": "9520421",
    "prefecture": "新潟県",
    "prefecture_kana": "ニイガタケン",
    "prefecture_code": "15",
    "city": "佐渡市",
    "city_kana": "サドシ",
    "town": "羽茂小泊",
    "town_kana": "ハモチコドマリ",
    "street": null,
    "office_name": null,
    "office_name_kana": null
  },
  "0422": {
    "zip_code": "9520422",
    "prefecture": "新潟県",
    "prefecture_kana": "ニイガタケン",
    "prefecture_code": "15",
    "city": "佐渡市",
    "city_kana": "サドシ",
    "town": "羽茂亀脇",
    "town_kana": "ハモチカメワキ",
    "street": null,
    "office_name": null,
    "office_name_kana": null
  },
  "0431": {
    "zip_code": "9520431",
    "prefecture": "新潟県",
    "prefecture_kana": "ニイガタケン",
    "prefecture_code": "15",
    "city": "佐渡市",
    "city_kana": "サドシ",
    "town": "大小",
    "town_kana": "ダイショウ",
    "street": null,
    "office_name": null,
    "office_name_kana": null
  },
  "0432": {
    "zip_code": "9520432",
    "prefecture": "新潟県",
    "prefecture_kana": "ニイガタケン",
    "prefecture_code": "15",
    "city": "佐渡市",
    "city_kana": "サドシ",
    "town": "大倉谷",
    "town_kana": "オオクラタニ",
    "street": null,
    "office_name": null,
    "office_name_kana": null
  },
  "0433": {
    "zip_code": "9520433",
    "prefecture": "新潟県",
    "prefecture_kana": "ニイガタケン",
    "prefecture_code": "15",
    "city": "佐渡市",
    "city_kana": "サドシ",
    "town": "田切須",
    "town_kana": "タギリス",
    "street": null,
    "office_name": null,
    "office_name_kana": null
  },
  "0434": {
    "zip_code": "9520434",
    "prefecture": "新潟県",
    "prefecture_kana": "ニイガタケン",
    "prefecture_code": "15",
    "city": "佐渡市",
    "city_kana": "サドシ",
    "town": "西三川",
    "town_kana": "ニシミカワ",
    "street": null,
    "office_name": null,
    "office_name_kana": null
  },
  "0435": {
    "zip_code": "9520435",
    "prefecture": "新潟県",
    "prefecture_kana": "ニイガタケン",
    "prefecture_code": "15",
    "city": "佐渡市",
    "city_kana": "サドシ",
    "town": "椿尾",
    "town_kana": "ツバキオ",
    "street": null,
    "office_name": null,
    "office_name_kana": null
  },
  "0501": {
    "zip_code": "9520501",
    "prefecture": "新潟県",
    "prefecture_kana": "ニイガタケン",
    "prefecture_code": "15",
    "city": "佐渡市",
    "city_kana": "サドシ",
    "town": "羽茂滝平",
    "town_kana": "ハモチタキダイラ",
    "street": null,
    "office_name": null,
    "office_name_kana": null
  },
  "0502": {
    "zip_code": "9520502",
    "prefecture": "新潟県",
    "prefecture_kana": "ニイガタケン",
    "prefecture_code": "15",
    "city": "佐渡市",
    "city_kana": "サドシ",
    "town": "羽茂大崎",
    "town_kana": "ハモチオオサキ",
    "street": null,
    "office_name": null,
    "office_name_kana": null
  },
  "0503": {
    "zip_code": "9520503",
    "prefecture": "新潟県",
    "prefecture_kana": "ニイガタケン",
    "prefecture_code": "15",
    "city": "佐渡市",
    "city_kana": "サドシ",
    "town": "羽茂飯岡",
    "town_kana": "ハモチイイオカ",
    "street": null,
    "office_name": null,
    "office_name_kana": null
  },
  "0504": {
    "zip_code": "9520504",
    "prefecture": "新潟県",
    "prefecture_kana": "ニイガタケン",
    "prefecture_code": "15",
    "city": "佐渡市",
    "city_kana": "サドシ",
    "town": "羽茂本郷",
    "town_kana": "ハモチホンゴウ",
    "street": null,
    "office_name": null,
    "office_name_kana": null
  },
  "0505": {
    "zip_code": "9520505",
    "prefecture": "新潟県",
    "prefecture_kana": "ニイガタケン",
    "prefecture_code": "15",
    "city": "佐渡市",
    "city_kana": "サドシ",
    "town": "羽茂三瀬",
    "town_kana": "ハモチサンセ",
    "street": null,
    "office_name": null,
    "office_name_kana": null
  },
  "0511": {
    "zip_code": "9520511",
    "prefecture": "新潟県",
    "prefecture_kana": "ニイガタケン",
    "prefecture_code": "15",
    "city": "佐渡市",
    "city_kana": "サドシ",
    "town": "羽茂大石",
    "town_kana": "ハモチオオイシ",
    "street": null,
    "office_name": null,
    "office_name_kana": null
  },
  "0512": {
    "zip_code": "9520512",
    "prefecture": "新潟県",
    "prefecture_kana": "ニイガタケン",
    "prefecture_code": "15",
    "city": "佐渡市",
    "city_kana": "サドシ",
    "town": "羽茂大橋",
    "town_kana": "ハモチオオハシ",
    "street": null,
    "office_name": null,
    "office_name_kana": null
  },
  "0513": {
    "zip_code": "9520513",
    "prefecture": "新潟県",
    "prefecture_kana": "ニイガタケン",
    "prefecture_code": "15",
    "city": "佐渡市",
    "city_kana": "サドシ",
    "town": "羽茂村山",
    "town_kana": "ハモチムラヤマ",
    "street": null,
    "office_name": null,
    "office_name_kana": null
  },
  "0514": {
    "zip_code": "9520514",
    "prefecture": "新潟県",
    "prefecture_kana": "ニイガタケン",
    "prefecture_code": "15",
    "city": "佐渡市",
    "city_kana": "サドシ",
    "town": "羽茂小泊",
    "town_kana": "ハモチコドマリ",
    "street": null,
    "office_name": null,
    "office_name_kana": null
  },
  "0515": {
    "zip_code": "9520515",
    "prefecture": "新潟県",
    "prefecture_kana": "ニイガタケン",
    "prefecture_code": "15",
    "city": "佐渡市",
    "city_kana": "サドシ",
    "town": "羽茂上山田",
    "town_kana": "ハモチカミヤマダ",
    "street": null,
    "office_name": null,
    "office_name_kana": null
  },
  "0601": {
    "zip_code": "9520601",
    "prefecture": "新潟県",
    "prefecture_kana": "ニイガタケン",
    "prefecture_code": "15",
    "city": "佐渡市",
    "city_kana": "サドシ",
    "town": "小木堂釜",
    "town_kana": "オギドウノカマ",
    "street": null,
    "office_name": null,
    "office_name_kana": null
  },
  "0602": {
    "zip_code": "9520602",
    "prefecture": "新潟県",
    "prefecture_kana": "ニイガタケン",
    "prefecture_code": "15",
    "city": "佐渡市",
    "city_kana": "サドシ",
    "town": "小比叡",
    "town_kana": "コビエ",
    "street": null,
    "office_name": null,
    "office_name_kana": null
  },
  "0603": {
    "zip_code": "9520603",
    "prefecture": "新潟県",
    "prefecture_kana": "ニイガタケン",
    "prefecture_code": "15",
    "city": "佐渡市",
    "city_kana": "サドシ",
    "town": "小木木野浦",
    "town_kana": "オギキノウラ",
    "street": null,
    "office_name": null,
    "office_name_kana": null
  },
  "0604": {
    "zip_code": "9520604",
    "prefecture": "新潟県",
    "prefecture_kana": "ニイガタケン",
    "prefecture_code": "15",
    "city": "佐渡市",
    "city_kana": "サドシ",
    "town": "小木町",
    "town_kana": "オギマチ",
    "street": null,
    "office_name": null,
    "office_name_kana": null
  },
  "0605": {
    "zip_code": "9520605",
    "prefecture": "新潟県",
    "prefecture_kana": "ニイガタケン",
    "prefecture_code": "15",
    "city": "佐渡市",
    "city_kana": "サドシ",
    "town": "小木",
    "town_kana": "オギ",
    "street": null,
    "office_name": null,
    "office_name_kana": null
  },
  "0606": {
    "zip_code": "9520606",
    "prefecture": "新潟県",
    "prefecture_kana": "ニイガタケン",
    "prefecture_code": "15",
    "city": "佐渡市",
    "city_kana": "サドシ",
    "town": "琴浦",
    "town_kana": "コトウラ",
    "street": null,
    "office_name": null,
    "office_name_kana": null
  },
  "0611": {
    "zip_code": "9520611",
    "prefecture": "新潟県",
    "prefecture_kana": "ニイガタケン",
    "prefecture_code": "15",
    "city": "佐渡市",
    "city_kana": "サドシ",
    "town": "小木金田新田",
    "town_kana": "オギカネタシンデン",
    "street": null,
    "office_name": null,
    "office_name_kana": null
  },
  "0612": {
    "zip_code": "9520612",
    "prefecture": "新潟県",
    "prefecture_kana": "ニイガタケン",
    "prefecture_code": "15",
    "city": "佐渡市",
    "city_kana": "サドシ",
    "town": "宿根木",
    "town_kana": "シュクネギ",
    "street": null,
    "office_name": null,
    "office_name_kana": null
  },
  "0613": {
    "zip_code": "9520613",
    "prefecture": "新潟県",
    "prefecture_kana": "ニイガタケン",
    "prefecture_code": "15",
    "city": "佐渡市",
    "city_kana": "サドシ",
    "town": "小木強清水",
    "town_kana": "オギコワシミズ",
    "street": null,
    "office_name": null,
    "office_name_kana": null
  },
  "0614": {
    "zip_code": "9520614",
    "prefecture": "新潟県",
    "prefecture_kana": "ニイガタケン",
    "prefecture_code": "15",
    "city": "佐渡市",
    "city_kana": "サドシ",
    "town": "犬神平",
    "town_kana": "イヌカミダイラ",
    "street": null,
    "office_name": null,
    "office_name_kana": null
  },
  "0615": {
    "zip_code": "9520615",
    "prefecture": "新潟県",
    "prefecture_kana": "ニイガタケン",
    "prefecture_code": "15",
    "city": "佐渡市",
    "city_kana": "サドシ",
    "town": "深浦",
    "town_kana": "フカウラ",
    "street": null,
    "office_name": null,
    "office_name_kana": null
  },
  "0621": {
    "zip_code": "9520621",
    "prefecture": "新潟県",
    "prefecture_kana": "ニイガタケン",
    "prefecture_code": "15",
    "city": "佐渡市",
    "city_kana": "サドシ",
    "town": "沢崎",
    "town_kana": "サワサキ",
    "street": null,
    "office_name": null,
    "office_name_kana": null
  },
  "0622": {
    "zip_code": "9520622",
    "prefecture": "新潟県",
    "prefecture_kana": "ニイガタケン",
    "prefecture_code": "15",
    "city": "佐渡市",
    "city_kana": "サドシ",
    "town": "江積",
    "town_kana": "エッツミ",
    "street": null,
    "office_name": null,
    "office_name_kana": null
  },
  "0623": {
    "zip_code": "9520623",
    "prefecture": "新潟県",
    "prefecture_kana": "ニイガタケン",
    "prefecture_code": "15",
    "city": "佐渡市",
    "city_kana": "サドシ",
    "town": "田野浦",
    "town_kana": "タノウラ",
    "street": null,
    "office_name": null,
    "office_name_kana": null
  },
  "0624": {
    "zip_code": "9520624",
    "prefecture": "新潟県",
    "prefecture_kana": "ニイガタケン",
    "prefecture_code": "15",
    "city": "佐渡市",
    "city_kana": "サドシ",
    "town": "木流",
    "town_kana": "コナガセ",
    "street": null,
    "office_name": null,
    "office_name_kana": null
  },
  "0625": {
    "zip_code": "9520625",
    "prefecture": "新潟県",
    "prefecture_kana": "ニイガタケン",
    "prefecture_code": "15",
    "city": "佐渡市",
    "city_kana": "サドシ",
    "town": "小木大浦",
    "town_kana": "オギオオウラ",
    "street": null,
    "office_name": null,
    "office_name_kana": null
  },
  "0626": {
    "zip_code": "9520626",
    "prefecture": "新潟県",
    "prefecture_kana": "ニイガタケン",
    "prefecture_code": "15",
    "city": "佐渡市",
    "city_kana": "サドシ",
    "town": "井坪",
    "town_kana": "イツボ",
    "street": null,
    "office_name": null,
    "office_name_kana": null
  },
  "0701": {
    "zip_code": "9520701",
    "prefecture": "新潟県",
    "prefecture_kana": "ニイガタケン",
    "prefecture_code": "15",
    "city": "佐渡市",
    "city_kana": "サドシ",
    "town": "下川茂",
    "town_kana": "シモカワモ",
    "street": null,
    "office_name": null,
    "office_name_kana": null
  },
  "0702": {
    "zip_code": "9520702",
    "prefecture": "新潟県",
    "prefecture_kana": "ニイガタケン",
    "prefecture_code": "15",
    "city": "佐渡市",
    "city_kana": "サドシ",
    "town": "上川茂",
    "town_kana": "カミカワモ",
    "street": null,
    "office_name": null,
    "office_name_kana": null
  },
  "0703": {
    "zip_code": "9520703",
    "prefecture": "新潟県",
    "prefecture_kana": "ニイガタケン",
    "prefecture_code": "15",
    "city": "佐渡市",
    "city_kana": "サドシ",
    "town": "外山",
    "town_kana": "トヤマ",
    "street": null,
    "office_name": null,
    "office_name_kana": null
  },
  "0704": {
    "zip_code": "9520704",
    "prefecture": "新潟県",
    "prefecture_kana": "ニイガタケン",
    "prefecture_code": "15",
    "city": "佐渡市",
    "city_kana": "サドシ",
    "town": "莚場",
    "town_kana": "ムシロバ",
    "street": null,
    "office_name": null,
    "office_name_kana": null
  },
  "0705": {
    "zip_code": "9520705",
    "prefecture": "新潟県",
    "prefecture_kana": "ニイガタケン",
    "prefecture_code": "15",
    "city": "佐渡市",
    "city_kana": "サドシ",
    "town": "三川",
    "town_kana": "ミカワ",
    "street": null,
    "office_name": null,
    "office_name_kana": null
  },
  "0706": {
    "zip_code": "9520706",
    "prefecture": "新潟県",
    "prefecture_kana": "ニイガタケン",
    "prefecture_code": "15",
    "city": "佐渡市",
    "city_kana": "サドシ",
    "town": "徳和",
    "town_kana": "トクワ",
    "street": null,
    "office_name": null,
    "office_name_kana": null
  },
  "0711": {
    "zip_code": "9520711",
    "prefecture": "新潟県",
    "prefecture_kana": "ニイガタケン",
    "prefecture_code": "15",
    "city": "佐渡市",
    "city_kana": "サドシ",
    "town": "赤泊",
    "town_kana": "アカドマリ",
    "street": null,
    "office_name": null,
    "office_name_kana": null
  },
  "0712": {
    "zip_code": "9520712",
    "prefecture": "新潟県",
    "prefecture_kana": "ニイガタケン",
    "prefecture_code": "15",
    "city": "佐渡市",
    "city_kana": "サドシ",
    "town": "真浦",
    "town_kana": "マウラ",
    "street": null,
    "office_name": null,
    "office_name_kana": null
  },
  "0713": {
    "zip_code": "9520713",
    "prefecture": "新潟県",
    "prefecture_kana": "ニイガタケン",
    "prefecture_code": "15",
    "city": "佐渡市",
    "city_kana": "サドシ",
    "town": "柳沢",
    "town_kana": "ヤナギサワ",
    "street": null,
    "office_name": null,
    "office_name_kana": null
  },
  "0714": {
    "zip_code": "9520714",
    "prefecture": "新潟県",
    "prefecture_kana": "ニイガタケン",
    "prefecture_code": "15",
    "city": "佐渡市",
    "city_kana": "サドシ",
    "town": "南新保",
    "town_kana": "ミナミシンボ",
    "street": null,
    "office_name": null,
    "office_name_kana": null
  },
  "0715": {
    "zip_code": "9520715",
    "prefecture": "新潟県",
    "prefecture_kana": "ニイガタケン",
    "prefecture_code": "15",
    "city": "佐渡市",
    "city_kana": "サドシ",
    "town": "杉野浦",
    "town_kana": "スギノウラ",
    "street": null,
    "office_name": null,
    "office_name_kana": null
  },
  "0716": {
    "zip_code": "9520716",
    "prefecture": "新潟県",
    "prefecture_kana": "ニイガタケン",
    "prefecture_code": "15",
    "city": "佐渡市",
    "city_kana": "サドシ",
    "town": "大杉",
    "town_kana": "オオスギ",
    "street": null,
    "office_name": null,
    "office_name_kana": null
  },
  "0821": {
    "zip_code": "9520821",
    "prefecture": "新潟県",
    "prefecture_kana": "ニイガタケン",
    "prefecture_code": "15",
    "city": "佐渡市",
    "city_kana": "サドシ",
    "town": "松ケ崎",
    "town_kana": "マツガサキ",
    "street": null,
    "office_name": null,
    "office_name_kana": null
  },
  "0822": {
    "zip_code": "9520822",
    "prefecture": "新潟県",
    "prefecture_kana": "ニイガタケン",
    "prefecture_code": "15",
    "city": "佐渡市",
    "city_kana": "サドシ",
    "town": "多田",
    "town_kana": "オオタ",
    "street": null,
    "office_name": null,
    "office_name_kana": null
  },
  "0823": {
    "zip_code": "9520823",
    "prefecture": "新潟県",
    "prefecture_kana": "ニイガタケン",
    "prefecture_code": "15",
    "city": "佐渡市",
    "city_kana": "サドシ",
    "town": "浜河内",
    "town_kana": "ハマカワチ",
    "street": null,
    "office_name": null,
    "office_name_kana": null
  },
  "0824": {
    "zip_code": "9520824",
    "prefecture": "新潟県",
    "prefecture_kana": "ニイガタケン",
    "prefecture_code": "15",
    "city": "佐渡市",
    "city_kana": "サドシ",
    "town": "丸山",
    "town_kana": "マルヤマ",
    "street": null,
    "office_name": null,
    "office_name_kana": null
  },
  "0851": {
    "zip_code": "9520851",
    "prefecture": "新潟県",
    "prefecture_kana": "ニイガタケン",
    "prefecture_code": "15",
    "city": "佐渡市",
    "city_kana": "サドシ",
    "town": "蚫",
    "town_kana": "アワビ",
    "street": null,
    "office_name": null,
    "office_name_kana": null
  },
  "0852": {
    "zip_code": "9520852",
    "prefecture": "新潟県",
    "prefecture_kana": "ニイガタケン",
    "prefecture_code": "15",
    "city": "佐渡市",
    "city_kana": "サドシ",
    "town": "赤玉",
    "town_kana": "アカダマ",
    "street": null,
    "office_name": null,
    "office_name_kana": null
  },
  "0853": {
    "zip_code": "9520853",
    "prefecture": "新潟県",
    "prefecture_kana": "ニイガタケン",
    "prefecture_code": "15",
    "city": "佐渡市",
    "city_kana": "サドシ",
    "town": "立間",
    "town_kana": "タツマ",
    "street": null,
    "office_name": null,
    "office_name_kana": null
  },
  "0854": {
    "zip_code": "9520854",
    "prefecture": "新潟県",
    "prefecture_kana": "ニイガタケン",
    "prefecture_code": "15",
    "city": "佐渡市",
    "city_kana": "サドシ",
    "town": "豊岡",
    "town_kana": "トヨオカ",
    "street": null,
    "office_name": null,
    "office_name_kana": null
  },
  "0855": {
    "zip_code": "9520855",
    "prefecture": "新潟県",
    "prefecture_kana": "ニイガタケン",
    "prefecture_code": "15",
    "city": "佐渡市",
    "city_kana": "サドシ",
    "town": "柿野浦",
    "town_kana": "カキノウラ",
    "street": null,
    "office_name": null,
    "office_name_kana": null
  },
  "0856": {
    "zip_code": "9520856",
    "prefecture": "新潟県",
    "prefecture_kana": "ニイガタケン",
    "prefecture_code": "15",
    "city": "佐渡市",
    "city_kana": "サドシ",
    "town": "東鵜島",
    "town_kana": "ヒガシウシマ",
    "street": null,
    "office_name": null,
    "office_name_kana": null
  },
  "0857": {
    "zip_code": "9520857",
    "prefecture": "新潟県",
    "prefecture_kana": "ニイガタケン",
    "prefecture_code": "15",
    "city": "佐渡市",
    "city_kana": "サドシ",
    "town": "岩首",
    "town_kana": "イワクビ",
    "street": null,
    "office_name": null,
    "office_name_kana": null
  },
  "1201": {
    "zip_code": "9521201",
    "prefecture": "新潟県",
    "prefecture_kana": "ニイガタケン",
    "prefecture_code": "15",
    "city": "佐渡市",
    "city_kana": "サドシ",
    "town": "安養寺",
    "town_kana": "アンヨウジ",
    "street": null,
    "office_name": null,
    "office_name_kana": null
  },
  "1202": {
    "zip_code": "9521202",
    "prefecture": "新潟県",
    "prefecture_kana": "ニイガタケン",
    "prefecture_code": "15",
    "city": "佐渡市",
    "city_kana": "サドシ",
    "town": "吉井本郷",
    "town_kana": "ヨシイホンゴウ",
    "street": null,
    "office_name": null,
    "office_name_kana": null
  },
  "1203": {
    "zip_code": "9521203",
    "prefecture": "新潟県",
    "prefecture_kana": "ニイガタケン",
    "prefecture_code": "15",
    "city": "佐渡市",
    "city_kana": "サドシ",
    "town": "吉井",
    "town_kana": "ヨシイ",
    "street": null,
    "office_name": null,
    "office_name_kana": null
  },
  "1204": {
    "zip_code": "9521204",
    "prefecture": "新潟県",
    "prefecture_kana": "ニイガタケン",
    "prefecture_code": "15",
    "city": "佐渡市",
    "city_kana": "サドシ",
    "town": "三瀬川",
    "town_kana": "サンセガワ",
    "street": null,
    "office_name": null,
    "office_name_kana": null
  },
  "1205": {
    "zip_code": "9521205",
    "prefecture": "新潟県",
    "prefecture_kana": "ニイガタケン",
    "prefecture_code": "15",
    "city": "佐渡市",
    "city_kana": "サドシ",
    "town": "水渡田",
    "town_kana": "ミトダ",
    "street": null,
    "office_name": null,
    "office_name_kana": null
  },
  "1206": {
    "zip_code": "9521206",
    "prefecture": "新潟県",
    "prefecture_kana": "ニイガタケン",
    "prefecture_code": "15",
    "city": "佐渡市",
    "city_kana": "サドシ",
    "town": "大和",
    "town_kana": "ヤマト",
    "street": null,
    "office_name": null,
    "office_name_kana": null
  },
  "1207": {
    "zip_code": "9521207",
    "prefecture": "新潟県",
    "prefecture_kana": "ニイガタケン",
    "prefecture_code": "15",
    "city": "佐渡市",
    "city_kana": "サドシ",
    "town": "貝塚",
    "town_kana": "カイヅカ",
    "street": null,
    "office_name": null,
    "office_name_kana": null
  },
  "1208": {
    "zip_code": "9521208",
    "prefecture": "新潟県",
    "prefecture_kana": "ニイガタケン",
    "prefecture_code": "15",
    "city": "佐渡市",
    "city_kana": "サドシ",
    "town": "金井新保",
    "town_kana": "カナイシンボ",
    "street": null,
    "office_name": null,
    "office_name_kana": null
  },
  "1209": {
    "zip_code": "9521209",
    "prefecture": "新潟県",
    "prefecture_kana": "ニイガタケン",
    "prefecture_code": "15",
    "city": "佐渡市",
    "city_kana": "サドシ",
    "town": "千種",
    "town_kana": "チグサ",
    "street": null,
    "office_name": null,
    "office_name_kana": null
  },
  "1211": {
    "zip_code": "9521211",
    "prefecture": "新潟県",
    "prefecture_kana": "ニイガタケン",
    "prefecture_code": "15",
    "city": "佐渡市",
    "city_kana": "サドシ",
    "town": "中興",
    "town_kana": "ナカオキ",
    "street": null,
    "office_name": null,
    "office_name_kana": null
  },
  "1212": {
    "zip_code": "9521212",
    "prefecture": "新潟県",
    "prefecture_kana": "ニイガタケン",
    "prefecture_code": "15",
    "city": "佐渡市",
    "city_kana": "サドシ",
    "town": "泉",
    "town_kana": "イズミ",
    "street": null,
    "office_name": null,
    "office_name_kana": null
  },
  "1213": {
    "zip_code": "9521213",
    "prefecture": "新潟県",
    "prefecture_kana": "ニイガタケン",
    "prefecture_code": "15",
    "city": "佐渡市",
    "city_kana": "サドシ",
    "town": "平清水",
    "town_kana": "ヒラシミズ",
    "street": null,
    "office_name": null,
    "office_name_kana": null
  },
  "1292": {
    "zip_code": "9521292",
    "prefecture": "新潟県",
    "prefecture_kana": "ニイガタケン",
    "prefecture_code": "15",
    "city": "佐渡市",
    "city_kana": "サドシ",
    "town": "千種",
    "town_kana": "チグサ",
    "street": "２３２番地",
    "office_name": "佐渡市役所",
    "office_name_kana": "サドシヤクシヨ"
  },
  "1301": {
    "zip_code": "9521301",
    "prefecture": "新潟県",
    "prefecture_kana": "ニイガタケン",
    "prefecture_code": "15",
    "city": "佐渡市",
    "city_kana": "サドシ",
    "town": "真光寺",
    "town_kana": "シンコウジ",
    "street": null,
    "office_name": null,
    "office_name_kana": null
  },
  "1302": {
    "zip_code": "9521302",
    "prefecture": "新潟県",
    "prefecture_kana": "ニイガタケン",
    "prefecture_code": "15",
    "city": "佐渡市",
    "city_kana": "サドシ",
    "town": "市野沢",
    "town_kana": "イチノサワ",
    "street": null,
    "office_name": null,
    "office_name_kana": null
  },
  "1303": {
    "zip_code": "9521303",
    "prefecture": "新潟県",
    "prefecture_kana": "ニイガタケン",
    "prefecture_code": "15",
    "city": "佐渡市",
    "city_kana": "サドシ",
    "town": "上矢馳",
    "town_kana": "カミヤバセ",
    "street": null,
    "office_name": null,
    "office_name_kana": null
  },
  "1304": {
    "zip_code": "9521304",
    "prefecture": "新潟県",
    "prefecture_kana": "ニイガタケン",
    "prefecture_code": "15",
    "city": "佐渡市",
    "city_kana": "サドシ",
    "town": "下長木",
    "town_kana": "シモナガキ",
    "street": null,
    "office_name": null,
    "office_name_kana": null
  },
  "1305": {
    "zip_code": "9521305",
    "prefecture": "新潟県",
    "prefecture_kana": "ニイガタケン",
    "prefecture_code": "15",
    "city": "佐渡市",
    "city_kana": "サドシ",
    "town": "上長木",
    "town_kana": "カミナガキ",
    "street": null,
    "office_name": null,
    "office_name_kana": null
  },
  "1306": {
    "zip_code": "9521306",
    "prefecture": "新潟県",
    "prefecture_kana": "ニイガタケン",
    "prefecture_code": "15",
    "city": "佐渡市",
    "city_kana": "サドシ",
    "town": "長木",
    "town_kana": "ナガキ",
    "street": null,
    "office_name": null,
    "office_name_kana": null
  },
  "1307": {
    "zip_code": "9521307",
    "prefecture": "新潟県",
    "prefecture_kana": "ニイガタケン",
    "prefecture_code": "15",
    "city": "佐渡市",
    "city_kana": "サドシ",
    "town": "東大通",
    "town_kana": "ヒガシオオドオリ",
    "street": null,
    "office_name": null,
    "office_name_kana": null
  },
  "1308": {
    "zip_code": "9521308",
    "prefecture": "新潟県",
    "prefecture_kana": "ニイガタケン",
    "prefecture_code": "15",
    "city": "佐渡市",
    "city_kana": "サドシ",
    "town": "二宮",
    "town_kana": "ニクウ",
    "street": null,
    "office_name": null,
    "office_name_kana": null
  },
  "1311": {
    "zip_code": "9521311",
    "prefecture": "新潟県",
    "prefecture_kana": "ニイガタケン",
    "prefecture_code": "15",
    "city": "佐渡市",
    "city_kana": "サドシ",
    "town": "八幡",
    "town_kana": "ヤハタ",
    "street": null,
    "office_name": null,
    "office_name_kana": null
  },
  "1312": {
    "zip_code": "9521312",
    "prefecture": "新潟県",
    "prefecture_kana": "ニイガタケン",
    "prefecture_code": "15",
    "city": "佐渡市",
    "city_kana": "サドシ",
    "town": "八幡新町",
    "town_kana": "ヤハタシンマチ",
    "street": null,
    "office_name": null,
    "office_name_kana": null
  },
  "1313": {
    "zip_code": "9521313",
    "prefecture": "新潟県",
    "prefecture_kana": "ニイガタケン",
    "prefecture_code": "15",
    "city": "佐渡市",
    "city_kana": "サドシ",
    "town": "八幡町",
    "town_kana": "ヤハタマチ",
    "street": null,
    "office_name": null,
    "office_name_kana": null
  },
  "1314": {
    "zip_code": "9521314",
    "prefecture": "新潟県",
    "prefecture_kana": "ニイガタケン",
    "prefecture_code": "15",
    "city": "佐渡市",
    "city_kana": "サドシ",
    "town": "河原田本町",
    "town_kana": "カワハラダホンマチ",
    "street": null,
    "office_name": null,
    "office_name_kana": null
  },
  "1315": {
    "zip_code": "9521315",
    "prefecture": "新潟県",
    "prefecture_kana": "ニイガタケン",
    "prefecture_code": "15",
    "city": "佐渡市",
    "city_kana": "サドシ",
    "town": "河原田諏訪町",
    "town_kana": "カワハラダスワマチ",
    "street": null,
    "office_name": null,
    "office_name_kana": null
  },
  "1321": {
    "zip_code": "9521321",
    "prefecture": "新潟県",
    "prefecture_kana": "ニイガタケン",
    "prefecture_code": "15",
    "city": "佐渡市",
    "city_kana": "サドシ",
    "town": "山田",
    "town_kana": "ヤマダ",
    "street": null,
    "office_name": null,
    "office_name_kana": null
  },
  "1322": {
    "zip_code": "9521322",
    "prefecture": "新潟県",
    "prefecture_kana": "ニイガタケン",
    "prefecture_code": "15",
    "city": "佐渡市",
    "city_kana": "サドシ",
    "town": "石田",
    "town_kana": "イシダ",
    "street": null,
    "office_name": null,
    "office_name_kana": null
  },
  "1323": {
    "zip_code": "9521323",
    "prefecture": "新潟県",
    "prefecture_kana": "ニイガタケン",
    "prefecture_code": "15",
    "city": "佐渡市",
    "city_kana": "サドシ",
    "town": "鍛冶町",
    "town_kana": "カジマチ",
    "street": null,
    "office_name": null,
    "office_name_kana": null
  },
  "1324": {
    "zip_code": "9521324",
    "prefecture": "新潟県",
    "prefecture_kana": "ニイガタケン",
    "prefecture_code": "15",
    "city": "佐渡市",
    "city_kana": "サドシ",
    "town": "中原",
    "town_kana": "ナカハラ",
    "street": null,
    "office_name": null,
    "office_name_kana": null
  },
  "1325": {
    "zip_code": "9521325",
    "prefecture": "新潟県",
    "prefecture_kana": "ニイガタケン",
    "prefecture_code": "15",
    "city": "佐渡市",
    "city_kana": "サドシ",
    "town": "窪田",
    "town_kana": "クボタ",
    "street": null,
    "office_name": null,
    "office_name_kana": null
  },
  "1326": {
    "zip_code": "9521326",
    "prefecture": "新潟県",
    "prefecture_kana": "ニイガタケン",
    "prefecture_code": "15",
    "city": "佐渡市",
    "city_kana": "サドシ",
    "town": "青野",
    "town_kana": "アオノ",
    "street": null,
    "office_name": null,
    "office_name_kana": null
  },
  "1393": {
    "zip_code": "9521393",
    "prefecture": "新潟県",
    "prefecture_kana": "ニイガタケン",
    "prefecture_code": "15",
    "city": "佐渡市",
    "city_kana": "サドシ",
    "town": "河原田本町",
    "town_kana": "カワハラダホンマチ",
    "street": "３９４",
    "office_name": "佐渡市役所　佐和田支所",
    "office_name_kana": "サドシヤクシヨ サワタシシヨ"
  },
  "1431": {
    "zip_code": "9521431",
    "prefecture": "新潟県",
    "prefecture_kana": "ニイガタケン",
    "prefecture_code": "15",
    "city": "佐渡市",
    "city_kana": "サドシ",
    "town": "沢根炭屋町",
    "town_kana": "サワネスミヤマチ",
    "street": null,
    "office_name": null,
    "office_name_kana": null
  },
  "1432": {
    "zip_code": "9521432",
    "prefecture": "新潟県",
    "prefecture_kana": "ニイガタケン",
    "prefecture_code": "15",
    "city": "佐渡市",
    "city_kana": "サドシ",
    "town": "沢根五十里",
    "town_kana": "サワネイカリ",
    "street": null,
    "office_name": null,
    "office_name_kana": null
  },
  "1433": {
    "zip_code": "9521433",
    "prefecture": "新潟県",
    "prefecture_kana": "ニイガタケン",
    "prefecture_code": "15",
    "city": "佐渡市",
    "city_kana": "サドシ",
    "town": "沢根篭町",
    "town_kana": "サワネカゴマチ",
    "street": null,
    "office_name": null,
    "office_name_kana": null
  },
  "1434": {
    "zip_code": "9521434",
    "prefecture": "新潟県",
    "prefecture_kana": "ニイガタケン",
    "prefecture_code": "15",
    "city": "佐渡市",
    "city_kana": "サドシ",
    "town": "沢根町",
    "town_kana": "サワネマチ",
    "street": null,
    "office_name": null,
    "office_name_kana": null
  },
  "1435": {
    "zip_code": "9521435",
    "prefecture": "新潟県",
    "prefecture_kana": "ニイガタケン",
    "prefecture_code": "15",
    "city": "佐渡市",
    "city_kana": "サドシ",
    "town": "沢根",
    "town_kana": "サワネ",
    "street": null,
    "office_name": null,
    "office_name_kana": null
  },
  "1501": {
    "zip_code": "9521501",
    "prefecture": "新潟県",
    "prefecture_kana": "ニイガタケン",
    "prefecture_code": "15",
    "city": "佐渡市",
    "city_kana": "サドシ",
    "town": "下相川",
    "town_kana": "シモアイカワ",
    "street": null,
    "office_name": null,
    "office_name_kana": null
  },
  "1502": {
    "zip_code": "9521502",
    "prefecture": "新潟県",
    "prefecture_kana": "ニイガタケン",
    "prefecture_code": "15",
    "city": "佐渡市",
    "city_kana": "サドシ",
    "town": "相川水金町",
    "town_kana": "アイカワミズカネマチ",
    "street": null,
    "office_name": null,
    "office_name_kana": null
  },
  "1503": {
    "zip_code": "9521503",
    "prefecture": "新潟県",
    "prefecture_kana": "ニイガタケン",
    "prefecture_code": "15",
    "city": "佐渡市",
    "city_kana": "サドシ",
    "town": "相川柴町",
    "town_kana": "アイカワシバマチ",
    "street": null,
    "office_name": null,
    "office_name_kana": null
  },
  "1504": {
    "zip_code": "9521504",
    "prefecture": "新潟県",
    "prefecture_kana": "ニイガタケン",
    "prefecture_code": "15",
    "city": "佐渡市",
    "city_kana": "サドシ",
    "town": "相川下山之神町",
    "town_kana": "アイカワシモヤマノカミマチ",
    "street": null,
    "office_name": null,
    "office_name_kana": null
  },
  "1505": {
    "zip_code": "9521505",
    "prefecture": "新潟県",
    "prefecture_kana": "ニイガタケン",
    "prefecture_code": "15",
    "city": "佐渡市",
    "city_kana": "サドシ",
    "town": "相川坂下町",
    "town_kana": "アイカワサカシタマチ",
    "street": null,
    "office_name": null,
    "office_name_kana": null
  },
  "1506": {
    "zip_code": "9521506",
    "prefecture": "新潟県",
    "prefecture_kana": "ニイガタケン",
    "prefecture_code": "15",
    "city": "佐渡市",
    "city_kana": "サドシ",
    "town": "相川炭屋町",
    "town_kana": "アイカワスミヤマチ",
    "street": null,
    "office_name": null,
    "office_name_kana": null
  },
  "1507": {
    "zip_code": "9521507",
    "prefecture": "新潟県",
    "prefecture_kana": "ニイガタケン",
    "prefecture_code": "15",
    "city": "佐渡市",
    "city_kana": "サドシ",
    "town": "相川紙屋町",
    "town_kana": "アイカワカミヤマチ",
    "street": null,
    "office_name": null,
    "office_name_kana": null
  },
  "1508": {
    "zip_code": "9521508",
    "prefecture": "新潟県",
    "prefecture_kana": "ニイガタケン",
    "prefecture_code": "15",
    "city": "佐渡市",
    "city_kana": "サドシ",
    "town": "相川大間町",
    "town_kana": "アイカワオオママチ",
    "street": null,
    "office_name": null,
    "office_name_kana": null
  },
  "1511": {
    "zip_code": "9521511",
    "prefecture": "新潟県",
    "prefecture_kana": "ニイガタケン",
    "prefecture_code": "15",
    "city": "佐渡市",
    "city_kana": "サドシ",
    "town": "相川栄町",
    "town_kana": "アイカワサカエマチ",
    "street": null,
    "office_name": null,
    "office_name_kana": null
  },
  "1512": {
    "zip_code": "9521512",
    "prefecture": "新潟県",
    "prefecture_kana": "ニイガタケン",
    "prefecture_code": "15",
    "city": "佐渡市",
    "city_kana": "サドシ",
    "town": "相川板町",
    "town_kana": "アイカワイタマチ",
    "street": null,
    "office_name": null,
    "office_name_kana": null
  },
  "1513": {
    "zip_code": "9521513",
    "prefecture": "新潟県",
    "prefecture_kana": "ニイガタケン",
    "prefecture_code": "15",
    "city": "佐渡市",
    "city_kana": "サドシ",
    "town": "相川濁川町",
    "town_kana": "アイカワニゴリカワマチ",
    "street": null,
    "office_name": null,
    "office_name_kana": null
  },
  "1514": {
    "zip_code": "9521514",
    "prefecture": "新潟県",
    "prefecture_kana": "ニイガタケン",
    "prefecture_code": "15",
    "city": "佐渡市",
    "city_kana": "サドシ",
    "town": "相川小六町",
    "town_kana": "アイカワコロクマチ",
    "street": null,
    "office_name": null,
    "office_name_kana": null
  },
  "1515": {
    "zip_code": "9521515",
    "prefecture": "新潟県",
    "prefecture_kana": "ニイガタケン",
    "prefecture_code": "15",
    "city": "佐渡市",
    "city_kana": "サドシ",
    "town": "相川新西坂町",
    "town_kana": "アイカワシンニシザカマチ",
    "street": null,
    "office_name": null,
    "office_name_kana": null
  },
  "1516": {
    "zip_code": "9521516",
    "prefecture": "新潟県",
    "prefecture_kana": "ニイガタケン",
    "prefecture_code": "15",
    "city": "佐渡市",
    "city_kana": "サドシ",
    "town": "相川西坂町",
    "town_kana": "アイカワニシザカマチ",
    "street": null,
    "office_name": null,
    "office_name_kana": null
  },
  "1517": {
    "zip_code": "9521517",
    "prefecture": "新潟県",
    "prefecture_kana": "ニイガタケン",
    "prefecture_code": "15",
    "city": "佐渡市",
    "city_kana": "サドシ",
    "town": "相川石扣町",
    "town_kana": "アイカワイシハタキマチ",
    "street": null,
    "office_name": null,
    "office_name_kana": null
  },
  "1518": {
    "zip_code": "9521518",
    "prefecture": "新潟県",
    "prefecture_kana": "ニイガタケン",
    "prefecture_code": "15",
    "city": "佐渡市",
    "city_kana": "サドシ",
    "town": "相川材木町",
    "town_kana": "アイカワザイモクマチ",
    "street": null,
    "office_name": null,
    "office_name_kana": null
  },
  "1521": {
    "zip_code": "9521521",
    "prefecture": "新潟県",
    "prefecture_kana": "ニイガタケン",
    "prefecture_code": "15",
    "city": "佐渡市",
    "city_kana": "サドシ",
    "town": "相川夕白町",
    "town_kana": "アイカワユウハクマチ",
    "street": null,
    "office_name": null,
    "office_name_kana": null
  },
  "1522": {
    "zip_code": "9521522",
    "prefecture": "新潟県",
    "prefecture_kana": "ニイガタケン",
    "prefecture_code": "15",
    "city": "佐渡市",
    "city_kana": "サドシ",
    "town": "相川上京町",
    "town_kana": "アイカワカミキョウマチ",
    "street": null,
    "office_name": null,
    "office_name_kana": null
  },
  "1523": {
    "zip_code": "9521523",
    "prefecture": "新潟県",
    "prefecture_kana": "ニイガタケン",
    "prefecture_code": "15",
    "city": "佐渡市",
    "city_kana": "サドシ",
    "town": "相川新五郎町",
    "town_kana": "アイカワシンゴロウマチ",
    "street": null,
    "office_name": null,
    "office_name_kana": null
  },
  "1524": {
    "zip_code": "9521524",
    "prefecture": "新潟県",
    "prefecture_kana": "ニイガタケン",
    "prefecture_code": "15",
    "city": "佐渡市",
    "city_kana": "サドシ",
    "town": "相川大工町",
    "town_kana": "アイカワダイクマチ",
    "street": null,
    "office_name": null,
    "office_name_kana": null
  },
  "1525": {
    "zip_code": "9521525",
    "prefecture": "新潟県",
    "prefecture_kana": "ニイガタケン",
    "prefecture_code": "15",
    "city": "佐渡市",
    "city_kana": "サドシ",
    "town": "相川諏訪町",
    "town_kana": "アイカワスワマチ",
    "street": null,
    "office_name": null,
    "office_name_kana": null
  },
  "1526": {
    "zip_code": "9521526",
    "prefecture": "新潟県",
    "prefecture_kana": "ニイガタケン",
    "prefecture_code": "15",
    "city": "佐渡市",
    "city_kana": "サドシ",
    "town": "相川中寺町",
    "town_kana": "アイカワナカテラマチ",
    "street": null,
    "office_name": null,
    "office_name_kana": null
  },
  "1527": {
    "zip_code": "9521527",
    "prefecture": "新潟県",
    "prefecture_kana": "ニイガタケン",
    "prefecture_code": "15",
    "city": "佐渡市",
    "city_kana": "サドシ",
    "town": "相川左門町",
    "town_kana": "アイカワサモンマチ",
    "street": null,
    "office_name": null,
    "office_name_kana": null
  },
  "1528": {
    "zip_code": "9521528",
    "prefecture": "新潟県",
    "prefecture_kana": "ニイガタケン",
    "prefecture_code": "15",
    "city": "佐渡市",
    "city_kana": "サドシ",
    "town": "相川六右衛門町",
    "town_kana": "アイカワロクウエモンマチ",
    "street": null,
    "office_name": null,
    "office_name_kana": null
  },
  "1531": {
    "zip_code": "9521531",
    "prefecture": "新潟県",
    "prefecture_kana": "ニイガタケン",
    "prefecture_code": "15",
    "city": "佐渡市",
    "city_kana": "サドシ",
    "town": "相川広間町",
    "town_kana": "アイカワヒロママチ",
    "street": null,
    "office_name": null,
    "office_name_kana": null
  },
  "1532": {
    "zip_code": "9521532",
    "prefecture": "新潟県",
    "prefecture_kana": "ニイガタケン",
    "prefecture_code": "15",
    "city": "佐渡市",
    "city_kana": "サドシ",
    "town": "相川弥十郎町",
    "town_kana": "アイカワヤジュウロウマチ",
    "street": null,
    "office_name": null,
    "office_name_kana": null
  },
  "1533": {
    "zip_code": "9521533",
    "prefecture": "新潟県",
    "prefecture_kana": "ニイガタケン",
    "prefecture_code": "15",
    "city": "佐渡市",
    "city_kana": "サドシ",
    "town": "相川米屋町",
    "town_kana": "アイカワコメヤマチ",
    "street": null,
    "office_name": null,
    "office_name_kana": null
  },
  "1534": {
    "zip_code": "9521534",
    "prefecture": "新潟県",
    "prefecture_kana": "ニイガタケン",
    "prefecture_code": "15",
    "city": "佐渡市",
    "city_kana": "サドシ",
    "town": "相川大床屋町",
    "town_kana": "アイカワオオトコヤマチ",
    "street": null,
    "office_name": null,
    "office_name_kana": null
  },
  "1535": {
    "zip_code": "9521535",
    "prefecture": "新潟県",
    "prefecture_kana": "ニイガタケン",
    "prefecture_code": "15",
    "city": "佐渡市",
    "city_kana": "サドシ",
    "town": "相川中京町",
    "town_kana": "アイカワナカキョウマチ",
    "street": null,
    "office_name": null,
    "office_name_kana": null
  },
  "1536": {
    "zip_code": "9521536",
    "prefecture": "新潟県",
    "prefecture_kana": "ニイガタケン",
    "prefecture_code": "15",
    "city": "佐渡市",
    "city_kana": "サドシ",
    "town": "相川下京町",
    "town_kana": "アイカワシモキョウマチ",
    "street": null,
    "office_name": null,
    "office_name_kana": null
  },
  "1537": {
    "zip_code": "9521537",
    "prefecture": "新潟県",
    "prefecture_kana": "ニイガタケン",
    "prefecture_code": "15",
    "city": "佐渡市",
    "city_kana": "サドシ",
    "town": "相川会津町",
    "town_kana": "アイカワアイヅマチ",
    "street": null,
    "office_name": null,
    "office_name_kana": null
  },
  "1538": {
    "zip_code": "9521538",
    "prefecture": "新潟県",
    "prefecture_kana": "ニイガタケン",
    "prefecture_code": "15",
    "city": "佐渡市",
    "city_kana": "サドシ",
    "town": "相川四十物町",
    "town_kana": "アイカワアイモノマチ",
    "street": null,
    "office_name": null,
    "office_name_kana": null
  },
  "1539": {
    "zip_code": "9521539",
    "prefecture": "新潟県",
    "prefecture_kana": "ニイガタケン",
    "prefecture_code": "15",
    "city": "佐渡市",
    "city_kana": "サドシ",
    "town": "相川北沢町",
    "town_kana": "アイカワキタザワマチ",
    "street": null,
    "office_name": null,
    "office_name_kana": null
  },
  "1541": {
    "zip_code": "9521541",
    "prefecture": "新潟県",
    "prefecture_kana": "ニイガタケン",
    "prefecture_code": "15",
    "city": "佐渡市",
    "city_kana": "サドシ",
    "town": "相川新材木町",
    "town_kana": "アイカワシンザイモクマチ",
    "street": null,
    "office_name": null,
    "office_name_kana": null
  },
  "1542": {
    "zip_code": "9521542",
    "prefecture": "新潟県",
    "prefecture_kana": "ニイガタケン",
    "prefecture_code": "15",
    "city": "佐渡市",
    "city_kana": "サドシ",
    "town": "相川塩屋町",
    "town_kana": "アイカワシオヤマチ",
    "street": null,
    "office_name": null,
    "office_name_kana": null
  },
  "1543": {
    "zip_code": "9521543",
    "prefecture": "新潟県",
    "prefecture_kana": "ニイガタケン",
    "prefecture_code": "15",
    "city": "佐渡市",
    "city_kana": "サドシ",
    "town": "相川長坂町",
    "town_kana": "アイカワナガサカマチ",
    "street": null,
    "office_name": null,
    "office_name_kana": null
  },
  "1544": {
    "zip_code": "9521544",
    "prefecture": "新潟県",
    "prefecture_kana": "ニイガタケン",
    "prefecture_code": "15",
    "city": "佐渡市",
    "city_kana": "サドシ",
    "town": "相川味噌屋町",
    "town_kana": "アイカワミソヤマチ",
    "street": null,
    "office_name": null,
    "office_name_kana": null
  },
  "1545": {
    "zip_code": "9521545",
    "prefecture": "新潟県",
    "prefecture_kana": "ニイガタケン",
    "prefecture_code": "15",
    "city": "佐渡市",
    "city_kana": "サドシ",
    "town": "相川八百屋町",
    "town_kana": "アイカワヤオヤマチ",
    "street": null,
    "office_name": null,
    "office_name_kana": null
  },
  "1546": {
    "zip_code": "9521546",
    "prefecture": "新潟県",
    "prefecture_kana": "ニイガタケン",
    "prefecture_code": "15",
    "city": "佐渡市",
    "city_kana": "サドシ",
    "town": "相川南沢町",
    "town_kana": "アイカワミナミザワマチ",
    "street": null,
    "office_name": null,
    "office_name_kana": null
  },
  "1547": {
    "zip_code": "9521547",
    "prefecture": "新潟県",
    "prefecture_kana": "ニイガタケン",
    "prefecture_code": "15",
    "city": "佐渡市",
    "city_kana": "サドシ",
    "town": "相川江戸沢町",
    "town_kana": "アイカワエドザワマチ",
    "street": null,
    "office_name": null,
    "office_name_kana": null
  },
  "1548": {
    "zip_code": "9521548",
    "prefecture": "新潟県",
    "prefecture_kana": "ニイガタケン",
    "prefecture_code": "15",
    "city": "佐渡市",
    "city_kana": "サドシ",
    "town": "相川羽田町",
    "town_kana": "アイカワハネダマチ",
    "street": null,
    "office_name": null,
    "office_name_kana": null
  },
  "1551": {
    "zip_code": "9521551",
    "prefecture": "新潟県",
    "prefecture_kana": "ニイガタケン",
    "prefecture_code": "15",
    "city": "佐渡市",
    "city_kana": "サドシ",
    "town": "相川下寺町",
    "town_kana": "アイカワシモテラマチ",
    "street": null,
    "office_name": null,
    "office_name_kana": null
  },
  "1552": {
    "zip_code": "9521552",
    "prefecture": "新潟県",
    "prefecture_kana": "ニイガタケン",
    "prefecture_code": "15",
    "city": "佐渡市",
    "city_kana": "サドシ",
    "town": "相川一町目裏町",
    "town_kana": "アイカワイッチョウメウラマチ",
    "street": null,
    "office_name": null,
    "office_name_kana": null
  },
  "1553": {
    "zip_code": "9521553",
    "prefecture": "新潟県",
    "prefecture_kana": "ニイガタケン",
    "prefecture_code": "15",
    "city": "佐渡市",
    "city_kana": "サドシ",
    "town": "相川五郎左衛門町",
    "town_kana": "アイカワゴロウザエモンマチ",
    "street": null,
    "office_name": null,
    "office_name_kana": null
  },
  "1554": {
    "zip_code": "9521554",
    "prefecture": "新潟県",
    "prefecture_kana": "ニイガタケン",
    "prefecture_code": "15",
    "city": "佐渡市",
    "city_kana": "サドシ",
    "town": "相川二町目新浜町",
    "town_kana": "アイカワニチョウメシンハママチ",
    "street": null,
    "office_name": null,
    "office_name_kana": null
  },
  "1555": {
    "zip_code": "9521555",
    "prefecture": "新潟県",
    "prefecture_kana": "ニイガタケン",
    "prefecture_code": "15",
    "city": "佐渡市",
    "city_kana": "サドシ",
    "town": "相川二町目浜町",
    "town_kana": "アイカワニチョウメハママチ",
    "street": null,
    "office_name": null,
    "office_name_kana": null
  },
  "1556": {
    "zip_code": "9521556",
    "prefecture": "新潟県",
    "prefecture_kana": "ニイガタケン",
    "prefecture_code": "15",
    "city": "佐渡市",
    "city_kana": "サドシ",
    "town": "相川一町目浜町",
    "town_kana": "アイカワイッチョウメハママチ",
    "street": null,
    "office_name": null,
    "office_name_kana": null
  },
  "1557": {
    "zip_code": "9521557",
    "prefecture": "新潟県",
    "prefecture_kana": "ニイガタケン",
    "prefecture_code": "15",
    "city": "佐渡市",
    "city_kana": "サドシ",
    "town": "相川一町目",
    "town_kana": "アイカワイッチョウメ",
    "street": null,
    "office_name": null,
    "office_name_kana": null
  },
  "1558": {
    "zip_code": "9521558",
    "prefecture": "新潟県",
    "prefecture_kana": "ニイガタケン",
    "prefecture_code": "15",
    "city": "佐渡市",
    "city_kana": "サドシ",
    "town": "相川二町目",
    "town_kana": "アイカワニチョウメ",
    "street": null,
    "office_name": null,
    "office_name_kana": null
  },
  "1561": {
    "zip_code": "9521561",
    "prefecture": "新潟県",
    "prefecture_kana": "ニイガタケン",
    "prefecture_code": "15",
    "city": "佐渡市",
    "city_kana": "サドシ",
    "town": "相川三町目新浜町",
    "town_kana": "アイカワサンチョウメシンハママチ",
    "street": null,
    "office_name": null,
    "office_name_kana": null
  },
  "1562": {
    "zip_code": "9521562",
    "prefecture": "新潟県",
    "prefecture_kana": "ニイガタケン",
    "prefecture_code": "15",
    "city": "佐渡市",
    "city_kana": "サドシ",
    "town": "相川三町目浜町",
    "town_kana": "アイカワサンチョウメハママチ",
    "street": null,
    "office_name": null,
    "office_name_kana": null
  },
  "1563": {
    "zip_code": "9521563",
    "prefecture": "新潟県",
    "prefecture_kana": "ニイガタケン",
    "prefecture_code": "15",
    "city": "佐渡市",
    "city_kana": "サドシ",
    "town": "相川三町目",
    "town_kana": "アイカワサンチョウメ",
    "street": null,
    "office_name": null,
    "office_name_kana": null
  },
  "1564": {
    "zip_code": "9521564",
    "prefecture": "新潟県",
    "prefecture_kana": "ニイガタケン",
    "prefecture_code": "15",
    "city": "佐渡市",
    "city_kana": "サドシ",
    "town": "相川四町目",
    "town_kana": "アイカワヨンチョウメ",
    "street": null,
    "office_name": null,
    "office_name_kana": null
  },
  "1565": {
    "zip_code": "9521565",
    "prefecture": "新潟県",
    "prefecture_kana": "ニイガタケン",
    "prefecture_code": "15",
    "city": "佐渡市",
    "city_kana": "サドシ",
    "town": "相川馬町",
    "town_kana": "アイカワウママチ",
    "street": null,
    "office_name": null,
    "office_name_kana": null
  },
  "1566": {
    "zip_code": "9521566",
    "prefecture": "新潟県",
    "prefecture_kana": "ニイガタケン",
    "prefecture_code": "15",
    "city": "佐渡市",
    "city_kana": "サドシ",
    "town": "相川市町",
    "town_kana": "アイカワイチマチ",
    "street": null,
    "office_name": null,
    "office_name_kana": null
  },
  "1567": {
    "zip_code": "9521567",
    "prefecture": "新潟県",
    "prefecture_kana": "ニイガタケン",
    "prefecture_code": "15",
    "city": "佐渡市",
    "city_kana": "サドシ",
    "town": "相川四町目浜町",
    "town_kana": "アイカワヨンチョウメハママチ",
    "street": null,
    "office_name": null,
    "office_name_kana": null
  },
  "1568": {
    "zip_code": "9521568",
    "prefecture": "新潟県",
    "prefecture_kana": "ニイガタケン",
    "prefecture_code": "15",
    "city": "佐渡市",
    "city_kana": "サドシ",
    "town": "相川新浜町",
    "town_kana": "アイカワシンハママチ",
    "street": null,
    "office_name": null,
    "office_name_kana": null
  },
  "1571": {
    "zip_code": "9521571",
    "prefecture": "新潟県",
    "prefecture_kana": "ニイガタケン",
    "prefecture_code": "15",
    "city": "佐渡市",
    "city_kana": "サドシ",
    "town": "相川下戸浜町",
    "town_kana": "アイカワオリトハママチ",
    "street": null,
    "office_name": null,
    "office_name_kana": null
  },
  "1572": {
    "zip_code": "9521572",
    "prefecture": "新潟県",
    "prefecture_kana": "ニイガタケン",
    "prefecture_code": "15",
    "city": "佐渡市",
    "city_kana": "サドシ",
    "town": "相川羽田村",
    "town_kana": "アイカワハネダムラ",
    "street": null,
    "office_name": null,
    "office_name_kana": null
  },
  "1573": {
    "zip_code": "9521573",
    "prefecture": "新潟県",
    "prefecture_kana": "ニイガタケン",
    "prefecture_code": "15",
    "city": "佐渡市",
    "city_kana": "サドシ",
    "town": "相川下戸炭屋裏町",
    "town_kana": "アイカワオリトスミヤウラマチ",
    "street": null,
    "office_name": null,
    "office_name_kana": null
  },
  "1574": {
    "zip_code": "9521574",
    "prefecture": "新潟県",
    "prefecture_kana": "ニイガタケン",
    "prefecture_code": "15",
    "city": "佐渡市",
    "city_kana": "サドシ",
    "town": "相川海士町",
    "town_kana": "アイカワアママチ",
    "street": null,
    "office_name": null,
    "office_name_kana": null
  },
  "1575": {
    "zip_code": "9521575",
    "prefecture": "新潟県",
    "prefecture_kana": "ニイガタケン",
    "prefecture_code": "15",
    "city": "佐渡市",
    "city_kana": "サドシ",
    "town": "相川下戸町",
    "town_kana": "アイカワオリトマチ",
    "street": null,
    "office_name": null,
    "office_name_kana": null
  },
  "1581": {
    "zip_code": "9521581",
    "prefecture": "新潟県",
    "prefecture_kana": "ニイガタケン",
    "prefecture_code": "15",
    "city": "佐渡市",
    "city_kana": "サドシ",
    "town": "相川下戸炭屋町",
    "town_kana": "アイカワオリトスミヤマチ",
    "street": null,
    "office_name": null,
    "office_name_kana": null
  },
  "1582": {
    "zip_code": "9521582",
    "prefecture": "新潟県",
    "prefecture_kana": "ニイガタケン",
    "prefecture_code": "15",
    "city": "佐渡市",
    "city_kana": "サドシ",
    "town": "相川下戸村",
    "town_kana": "アイカワオリトムラ",
    "street": null,
    "office_name": null,
    "office_name_kana": null
  },
  "1583": {
    "zip_code": "9521583",
    "prefecture": "新潟県",
    "prefecture_kana": "ニイガタケン",
    "prefecture_code": "15",
    "city": "佐渡市",
    "city_kana": "サドシ",
    "town": "相川鹿伏",
    "town_kana": "アイカワカブセ",
    "street": null,
    "office_name": null,
    "office_name_kana": null
  },
  "1584": {
    "zip_code": "9521584",
    "prefecture": "新潟県",
    "prefecture_kana": "ニイガタケン",
    "prefecture_code": "15",
    "city": "佐渡市",
    "city_kana": "サドシ",
    "town": "相川下戸炭屋浜町",
    "town_kana": "アイカワオリトスミヤハママチ",
    "street": null,
    "office_name": null,
    "office_name_kana": null
  },
  "1592": {
    "zip_code": "9521592",
    "prefecture": "新潟県",
    "prefecture_kana": "ニイガタケン",
    "prefecture_code": "15",
    "city": "佐渡市",
    "city_kana": "サドシ",
    "town": "相川塩屋町",
    "town_kana": "アイカワシオヤマチ",
    "street": "２６",
    "office_name": "佐渡市役所　相川支所",
    "office_name_kana": "サドシヤクシヨ アイカワシシヨ"
  },
  "1593": {
    "zip_code": "9521593",
    "prefecture": "新潟県",
    "prefecture_kana": "ニイガタケン",
    "prefecture_code": "15",
    "city": "佐渡市",
    "city_kana": "サドシ",
    "town": "相川三町目新浜町",
    "town_kana": "アイカワサンチョウメシンハママチ",
    "street": "３−３",
    "office_name": "相川税務署",
    "office_name_kana": "アイカワゼイムシヨ"
  },
  "1641": {
    "zip_code": "9521641",
    "prefecture": "新潟県",
    "prefecture_kana": "ニイガタケン",
    "prefecture_code": "15",
    "city": "佐渡市",
    "city_kana": "サドシ",
    "town": "二見",
    "town_kana": "フタミ",
    "street": null,
    "office_name": null,
    "office_name_kana": null
  },
  "1642": {
    "zip_code": "9521642",
    "prefecture": "新潟県",
    "prefecture_kana": "ニイガタケン",
    "prefecture_code": "15",
    "city": "佐渡市",
    "city_kana": "サドシ",
    "town": "米郷",
    "town_kana": "ヨナゴウ",
    "street": null,
    "office_name": null,
    "office_name_kana": null
  },
  "1643": {
    "zip_code": "9521643",
    "prefecture": "新潟県",
    "prefecture_kana": "ニイガタケン",
    "prefecture_code": "15",
    "city": "佐渡市",
    "city_kana": "サドシ",
    "town": "稲鯨",
    "town_kana": "イナクジラ",
    "street": null,
    "office_name": null,
    "office_name_kana": null
  },
  "1644": {
    "zip_code": "9521644",
    "prefecture": "新潟県",
    "prefecture_kana": "ニイガタケン",
    "prefecture_code": "15",
    "city": "佐渡市",
    "city_kana": "サドシ",
    "town": "橘",
    "town_kana": "タチバナ",
    "street": null,
    "office_name": null,
    "office_name_kana": null
  },
  "1645": {
    "zip_code": "9521645",
    "prefecture": "新潟県",
    "prefecture_kana": "ニイガタケン",
    "prefecture_code": "15",
    "city": "佐渡市",
    "city_kana": "サドシ",
    "town": "高瀬",
    "town_kana": "タコセ",
    "street": null,
    "office_name": null,
    "office_name_kana": null
  },
  "1646": {
    "zip_code": "9521646",
    "prefecture": "新潟県",
    "prefecture_kana": "ニイガタケン",
    "prefecture_code": "15",
    "city": "佐渡市",
    "city_kana": "サドシ",
    "town": "相川大浦",
    "town_kana": "アイカワオオウラ",
    "street": null,
    "office_name": null,
    "office_name_kana": null
  },
  "2131": {
    "zip_code": "9522131",
    "prefecture": "新潟県",
    "prefecture_kana": "ニイガタケン",
    "prefecture_code": "15",
    "city": "佐渡市",
    "city_kana": "サドシ",
    "town": "戸中",
    "town_kana": "トチュウ",
    "street": null,
    "office_name": null,
    "office_name_kana": null
  },
  "2132": {
    "zip_code": "9522132",
    "prefecture": "新潟県",
    "prefecture_kana": "ニイガタケン",
    "prefecture_code": "15",
    "city": "佐渡市",
    "city_kana": "サドシ",
    "town": "戸地",
    "town_kana": "トジ",
    "street": null,
    "office_name": null,
    "office_name_kana": null
  },
  "2133": {
    "zip_code": "9522133",
    "prefecture": "新潟県",
    "prefecture_kana": "ニイガタケン",
    "prefecture_code": "15",
    "city": "佐渡市",
    "city_kana": "サドシ",
    "town": "北狄",
    "town_kana": "キタエビス",
    "street": null,
    "office_name": null,
    "office_name_kana": null
  },
  "2134": {
    "zip_code": "9522134",
    "prefecture": "新潟県",
    "prefecture_kana": "ニイガタケン",
    "prefecture_code": "15",
    "city": "佐渡市",
    "city_kana": "サドシ",
    "town": "姫津",
    "town_kana": "ヒメヅ",
    "street": null,
    "office_name": null,
    "office_name_kana": null
  },
  "2135": {
    "zip_code": "9522135",
    "prefecture": "新潟県",
    "prefecture_kana": "ニイガタケン",
    "prefecture_code": "15",
    "city": "佐渡市",
    "city_kana": "サドシ",
    "town": "達者",
    "town_kana": "タッシャ",
    "street": null,
    "office_name": null,
    "office_name_kana": null
  },
  "2136": {
    "zip_code": "9522136",
    "prefecture": "新潟県",
    "prefecture_kana": "ニイガタケン",
    "prefecture_code": "15",
    "city": "佐渡市",
    "city_kana": "サドシ",
    "town": "小川",
    "town_kana": "オガワ",
    "street": null,
    "office_name": null,
    "office_name_kana": null
  },
  "2201": {
    "zip_code": "9522201",
    "prefecture": "新潟県",
    "prefecture_kana": "ニイガタケン",
    "prefecture_code": "15",
    "city": "佐渡市",
    "city_kana": "サドシ",
    "town": "岩谷口",
    "town_kana": "イワヤグチ",
    "street": null,
    "office_name": null,
    "office_name_kana": null
  },
  "2202": {
    "zip_code": "9522202",
    "prefecture": "新潟県",
    "prefecture_kana": "ニイガタケン",
    "prefecture_code": "15",
    "city": "佐渡市",
    "city_kana": "サドシ",
    "town": "五十浦",
    "town_kana": "イカウラ",
    "street": null,
    "office_name": null,
    "office_name_kana": null
  },
  "2203": {
    "zip_code": "9522203",
    "prefecture": "新潟県",
    "prefecture_kana": "ニイガタケン",
    "prefecture_code": "15",
    "city": "佐渡市",
    "city_kana": "サドシ",
    "town": "関",
    "town_kana": "セキ",
    "street": null,
    "office_name": null,
    "office_name_kana": null
  },
  "2204": {
    "zip_code": "9522204",
    "prefecture": "新潟県",
    "prefecture_kana": "ニイガタケン",
    "prefecture_code": "15",
    "city": "佐渡市",
    "city_kana": "サドシ",
    "town": "矢柄",
    "town_kana": "ヤガラ",
    "street": null,
    "office_name": null,
    "office_name_kana": null
  },
  "2205": {
    "zip_code": "9522205",
    "prefecture": "新潟県",
    "prefecture_kana": "ニイガタケン",
    "prefecture_code": "15",
    "city": "佐渡市",
    "city_kana": "サドシ",
    "town": "大倉",
    "town_kana": "オオクラ",
    "street": null,
    "office_name": null,
    "office_name_kana": null
  },
  "2206": {
    "zip_code": "9522206",
    "prefecture": "新潟県",
    "prefecture_kana": "ニイガタケン",
    "prefecture_code": "15",
    "city": "佐渡市",
    "city_kana": "サドシ",
    "town": "小田",
    "town_kana": "コダ",
    "street": null,
    "office_name": null,
    "office_name_kana": null
  },
  "2211": {
    "zip_code": "9522211",
    "prefecture": "新潟県",
    "prefecture_kana": "ニイガタケン",
    "prefecture_code": "15",
    "city": "佐渡市",
    "city_kana": "サドシ",
    "town": "石名",
    "town_kana": "イシナ",
    "street": null,
    "office_name": null,
    "office_name_kana": null
  },
  "2212": {
    "zip_code": "9522212",
    "prefecture": "新潟県",
    "prefecture_kana": "ニイガタケン",
    "prefecture_code": "15",
    "city": "佐渡市",
    "city_kana": "サドシ",
    "town": "小野見",
    "town_kana": "オノミ",
    "street": null,
    "office_name": null,
    "office_name_kana": null
  },
  "2213": {
    "zip_code": "9522213",
    "prefecture": "新潟県",
    "prefecture_kana": "ニイガタケン",
    "prefecture_code": "15",
    "city": "佐渡市",
    "city_kana": "サドシ",
    "town": "北田野浦",
    "town_kana": "キタタノウラ",
    "street": null,
    "office_name": null,
    "office_name_kana": null
  },
  "2214": {
    "zip_code": "9522214",
    "prefecture": "新潟県",
    "prefecture_kana": "ニイガタケン",
    "prefecture_code": "15",
    "city": "佐渡市",
    "city_kana": "サドシ",
    "town": "高千",
    "town_kana": "タカチ",
    "street": null,
    "office_name": null,
    "office_name_kana": null
  },
  "2215": {
    "zip_code": "9522215",
    "prefecture": "新潟県",
    "prefecture_kana": "ニイガタケン",
    "prefecture_code": "15",
    "city": "佐渡市",
    "city_kana": "サドシ",
    "town": "入川",
    "town_kana": "ニュウガワ",
    "street": null,
    "office_name": null,
    "office_name_kana": null
  },
  "2221": {
    "zip_code": "9522221",
    "prefecture": "新潟県",
    "prefecture_kana": "ニイガタケン",
    "prefecture_code": "15",
    "city": "佐渡市",
    "city_kana": "サドシ",
    "town": "北立島",
    "town_kana": "キタタツシマ",
    "street": null,
    "office_name": null,
    "office_name_kana": null
  },
  "2222": {
    "zip_code": "9522222",
    "prefecture": "新潟県",
    "prefecture_kana": "ニイガタケン",
    "prefecture_code": "15",
    "city": "佐渡市",
    "city_kana": "サドシ",
    "town": "北川内",
    "town_kana": "キタカワチ",
    "street": null,
    "office_name": null,
    "office_name_kana": null
  },
  "2223": {
    "zip_code": "9522223",
    "prefecture": "新潟県",
    "prefecture_kana": "ニイガタケン",
    "prefecture_code": "15",
    "city": "佐渡市",
    "city_kana": "サドシ",
    "town": "後尾",
    "town_kana": "ウシロオ",
    "street": null,
    "office_name": null,
    "office_name_kana": null
  },
  "2224": {
    "zip_code": "9522224",
    "prefecture": "新潟県",
    "prefecture_kana": "ニイガタケン",
    "prefecture_code": "15",
    "city": "佐渡市",
    "city_kana": "サドシ",
    "town": "石花",
    "town_kana": "イシゲ",
    "street": null,
    "office_name": null,
    "office_name_kana": null
  },
  "2225": {
    "zip_code": "9522225",
    "prefecture": "新潟県",
    "prefecture_kana": "ニイガタケン",
    "prefecture_code": "15",
    "city": "佐渡市",
    "city_kana": "サドシ",
    "town": "北片辺",
    "town_kana": "キタカタベ",
    "street": null,
    "office_name": null,
    "office_name_kana": null
  },
  "2226": {
    "zip_code": "9522226",
    "prefecture": "新潟県",
    "prefecture_kana": "ニイガタケン",
    "prefecture_code": "15",
    "city": "佐渡市",
    "city_kana": "サドシ",
    "town": "南片辺",
    "town_kana": "ミナミカタベ",
    "street": null,
    "office_name": null,
    "office_name_kana": null
  },
  "3111": {
    "zip_code": "9523111",
    "prefecture": "新潟県",
    "prefecture_kana": "ニイガタケン",
    "prefecture_code": "15",
    "city": "佐渡市",
    "city_kana": "サドシ",
    "town": "虫崎",
    "town_kana": "ムシザキ",
    "street": null,
    "office_name": null,
    "office_name_kana": null
  },
  "3112": {
    "zip_code": "9523112",
    "prefecture": "新潟県",
    "prefecture_kana": "ニイガタケン",
    "prefecture_code": "15",
    "city": "佐渡市",
    "city_kana": "サドシ",
    "town": "黒姫",
    "town_kana": "クロヒメ",
    "street": null,
    "office_name": null,
    "office_name_kana": null
  },
  "3113": {
    "zip_code": "9523113",
    "prefecture": "新潟県",
    "prefecture_kana": "ニイガタケン",
    "prefecture_code": "15",
    "city": "佐渡市",
    "city_kana": "サドシ",
    "town": "歌見",
    "town_kana": "ウタミ",
    "street": null,
    "office_name": null,
    "office_name_kana": null
  },
  "3114": {
    "zip_code": "9523114",
    "prefecture": "新潟県",
    "prefecture_kana": "ニイガタケン",
    "prefecture_code": "15",
    "city": "佐渡市",
    "city_kana": "サドシ",
    "town": "浦川",
    "town_kana": "ウラガワ",
    "street": null,
    "office_name": null,
    "office_name_kana": null
  },
  "3115": {
    "zip_code": "9523115",
    "prefecture": "新潟県",
    "prefecture_kana": "ニイガタケン",
    "prefecture_code": "15",
    "city": "佐渡市",
    "city_kana": "サドシ",
    "town": "平松",
    "town_kana": "ヒラマツ",
    "street": null,
    "office_name": null,
    "office_name_kana": null
  },
  "3116": {
    "zip_code": "9523116",
    "prefecture": "新潟県",
    "prefecture_kana": "ニイガタケン",
    "prefecture_code": "15",
    "city": "佐渡市",
    "city_kana": "サドシ",
    "town": "北松ケ崎",
    "town_kana": "キタマツガサキ",
    "street": null,
    "office_name": null,
    "office_name_kana": null
  },
  "3117": {
    "zip_code": "9523117",
    "prefecture": "新潟県",
    "prefecture_kana": "ニイガタケン",
    "prefecture_code": "15",
    "city": "佐渡市",
    "city_kana": "サドシ",
    "town": "馬首",
    "town_kana": "ウマクビ",
    "street": null,
    "office_name": null,
    "office_name_kana": null
  },
  "3118": {
    "zip_code": "9523118",
    "prefecture": "新潟県",
    "prefecture_kana": "ニイガタケン",
    "prefecture_code": "15",
    "city": "佐渡市",
    "city_kana": "サドシ",
    "town": "和木",
    "town_kana": "ワキ",
    "street": null,
    "office_name": null,
    "office_name_kana": null
  },
  "3119": {
    "zip_code": "9523119",
    "prefecture": "新潟県",
    "prefecture_kana": "ニイガタケン",
    "prefecture_code": "15",
    "city": "佐渡市",
    "city_kana": "サドシ",
    "town": "玉崎",
    "town_kana": "タマサキ",
    "street": null,
    "office_name": null,
    "office_name_kana": null
  },
  "3201": {
    "zip_code": "9523201",
    "prefecture": "新潟県",
    "prefecture_kana": "ニイガタケン",
    "prefecture_code": "15",
    "city": "佐渡市",
    "city_kana": "サドシ",
    "town": "真更川",
    "town_kana": "マサラガワ",
    "street": null,
    "office_name": null,
    "office_name_kana": null
  },
  "3202": {
    "zip_code": "9523202",
    "prefecture": "新潟県",
    "prefecture_kana": "ニイガタケン",
    "prefecture_code": "15",
    "city": "佐渡市",
    "city_kana": "サドシ",
    "town": "北鵜島",
    "town_kana": "キタウシマ",
    "street": null,
    "office_name": null,
    "office_name_kana": null
  },
  "3203": {
    "zip_code": "9523203",
    "prefecture": "新潟県",
    "prefecture_kana": "ニイガタケン",
    "prefecture_code": "15",
    "city": "佐渡市",
    "city_kana": "サドシ",
    "town": "願",
    "town_kana": "ネガイ",
    "street": null,
    "office_name": null,
    "office_name_kana": null
  },
  "3204": {
    "zip_code": "9523204",
    "prefecture": "新潟県",
    "prefecture_kana": "ニイガタケン",
    "prefecture_code": "15",
    "city": "佐渡市",
    "city_kana": "サドシ",
    "town": "藻浦",
    "town_kana": "モウラ",
    "street": null,
    "office_name": null,
    "office_name_kana": null
  },
  "3205": {
    "zip_code": "9523205",
    "prefecture": "新潟県",
    "prefecture_kana": "ニイガタケン",
    "prefecture_code": "15",
    "city": "佐渡市",
    "city_kana": "サドシ",
    "town": "鷲崎",
    "town_kana": "ワシザキ",
    "street": null,
    "office_name": null,
    "office_name_kana": null
  },
  "3206": {
    "zip_code": "9523206",
    "prefecture": "新潟県",
    "prefecture_kana": "ニイガタケン",
    "prefecture_code": "15",
    "city": "佐渡市",
    "city_kana": "サドシ",
    "town": "見立",
    "town_kana": "ミタテ",
    "street": null,
    "office_name": null,
    "office_name_kana": null
  },
  "3207": {
    "zip_code": "9523207",
    "prefecture": "新潟県",
    "prefecture_kana": "ニイガタケン",
    "prefecture_code": "15",
    "city": "佐渡市",
    "city_kana": "サドシ",
    "town": "北小浦",
    "town_kana": "キタコウラ",
    "street": null,
    "office_name": null,
    "office_name_kana": null
  },
  "3421": {
    "zip_code": "9523421",
    "prefecture": "新潟県",
    "prefecture_kana": "ニイガタケン",
    "prefecture_code": "15",
    "city": "佐渡市",
    "city_kana": "サドシ",
    "town": "吾潟",
    "town_kana": "アガタ",
    "street": null,
    "office_name": null,
    "office_name_kana": null
  },
  "3422": {
    "zip_code": "9523422",
    "prefecture": "新潟県",
    "prefecture_kana": "ニイガタケン",
    "prefecture_code": "15",
    "city": "佐渡市",
    "city_kana": "サドシ",
    "town": "城腰",
    "town_kana": "ジョウノコシ",
    "street": null,
    "office_name": null,
    "office_name_kana": null
  },
  "3423": {
    "zip_code": "9523423",
    "prefecture": "新潟県",
    "prefecture_kana": "ニイガタケン",
    "prefecture_code": "15",
    "city": "佐渡市",
    "city_kana": "サドシ",
    "town": "久知河内",
    "town_kana": "クヂカワチ",
    "street": null,
    "office_name": null,
    "office_name_kana": null
  },
  "3424": {
    "zip_code": "9523424",
    "prefecture": "新潟県",
    "prefecture_kana": "ニイガタケン",
    "prefecture_code": "15",
    "city": "佐渡市",
    "city_kana": "サドシ",
    "town": "下久知",
    "town_kana": "シモクヂ",
    "street": null,
    "office_name": null,
    "office_name_kana": null
  },
  "3425": {
    "zip_code": "9523425",
    "prefecture": "新潟県",
    "prefecture_kana": "ニイガタケン",
    "prefecture_code": "15",
    "city": "佐渡市",
    "city_kana": "サドシ",
    "town": "河崎",
    "town_kana": "カワサキ",
    "street": null,
    "office_name": null,
    "office_name_kana": null
  },
  "3431": {
    "zip_code": "9523431",
    "prefecture": "新潟県",
    "prefecture_kana": "ニイガタケン",
    "prefecture_code": "15",
    "city": "佐渡市",
    "city_kana": "サドシ",
    "town": "真木",
    "town_kana": "マキ",
    "street": null,
    "office_name": null,
    "office_name_kana": null
  },
  "3432": {
    "zip_code": "9523432",
    "prefecture": "新潟県",
    "prefecture_kana": "ニイガタケン",
    "prefecture_code": "15",
    "city": "佐渡市",
    "city_kana": "サドシ",
    "town": "椎泊",
    "town_kana": "シイドマリ",
    "street": null,
    "office_name": null,
    "office_name_kana": null
  },
  "3433": {
    "zip_code": "9523433",
    "prefecture": "新潟県",
    "prefecture_kana": "ニイガタケン",
    "prefecture_code": "15",
    "city": "佐渡市",
    "city_kana": "サドシ",
    "town": "両尾",
    "town_kana": "モロオ",
    "street": null,
    "office_name": null,
    "office_name_kana": null
  },
  "3434": {
    "zip_code": "9523434",
    "prefecture": "新潟県",
    "prefecture_kana": "ニイガタケン",
    "prefecture_code": "15",
    "city": "佐渡市",
    "city_kana": "サドシ",
    "town": "羽二生",
    "town_kana": "ハニウ",
    "street": null,
    "office_name": null,
    "office_name_kana": null
  },
  "3435": {
    "zip_code": "9523435",
    "prefecture": "新潟県",
    "prefecture_kana": "ニイガタケン",
    "prefecture_code": "15",
    "city": "佐渡市",
    "city_kana": "サドシ",
    "town": "両津大川",
    "town_kana": "リョウツオオガワ",
    "street": null,
    "office_name": null,
    "office_name_kana": null
  },
  "3541": {
    "zip_code": "9523541",
    "prefecture": "新潟県",
    "prefecture_kana": "ニイガタケン",
    "prefecture_code": "15",
    "city": "佐渡市",
    "city_kana": "サドシ",
    "town": "水津",
    "town_kana": "スイヅ",
    "street": null,
    "office_name": null,
    "office_name_kana": null
  },
  "3542": {
    "zip_code": "9523542",
    "prefecture": "新潟県",
    "prefecture_kana": "ニイガタケン",
    "prefecture_code": "15",
    "city": "佐渡市",
    "city_kana": "サドシ",
    "town": "片野尾",
    "town_kana": "カタノオ",
    "street": null,
    "office_name": null,
    "office_name_kana": null
  },
  "3543": {
    "zip_code": "9523543",
    "prefecture": "新潟県",
    "prefecture_kana": "ニイガタケン",
    "prefecture_code": "15",
    "city": "佐渡市",
    "city_kana": "サドシ",
    "town": "月布施",
    "town_kana": "ツキフセ",
    "street": null,
    "office_name": null,
    "office_name_kana": null
  },
  "3544": {
    "zip_code": "9523544",
    "prefecture": "新潟県",
    "prefecture_kana": "ニイガタケン",
    "prefecture_code": "15",
    "city": "佐渡市",
    "city_kana": "サドシ",
    "town": "野浦",
    "town_kana": "ノウラ",
    "street": null,
    "office_name": null,
    "office_name_kana": null
  },
  "3545": {
    "zip_code": "9523545",
    "prefecture": "新潟県",
    "prefecture_kana": "ニイガタケン",
    "prefecture_code": "15",
    "city": "佐渡市",
    "city_kana": "サドシ",
    "town": "東強清水",
    "town_kana": "ヒガシコワシミズ",
    "street": null,
    "office_name": null,
    "office_name_kana": null
  },
  "3546": {
    "zip_code": "9523546",
    "prefecture": "新潟県",
    "prefecture_kana": "ニイガタケン",
    "prefecture_code": "15",
    "city": "佐渡市",
    "city_kana": "サドシ",
    "town": "東立島",
    "town_kana": "ヒガシタツシマ",
    "street": null,
    "office_name": null,
    "office_name_kana": null
  },
  "8501": {
    "zip_code": "9528501",
    "prefecture": "新潟県",
    "prefecture_kana": null,
    "prefecture_code": null,
    "city": "佐渡市",
    "city_kana": null,
    "town": "湊",
    "town_kana": null,
    "street": "１９８",
    "office_name": "佐渡市役所　両津支所",
    "office_name_kana": "サドシヤクシヨ リヨウツシシヨ"
  },
  "8502": {
    "zip_code": "9528502",
    "prefecture": "新潟県",
    "prefecture_kana": "ニイガタケン",
    "prefecture_code": "15",
    "city": "佐渡市",
    "city_kana": "サドシ",
    "town": "原黒",
    "town_kana": "ハラクロ",
    "street": "３００−１",
    "office_name": "佐渡農業協同組合",
    "office_name_kana": "サドノウギヨウキヨウドウクミアイ"
  }
}