{
  "0000": {
    "zip_code": "9540000",
    "prefecture": "新潟県",
    "prefecture_kana": "ニイガタケン",
    "prefecture_code": "15",
    "city": "見附市",
    "city_kana": "ミツケシ",
    "town": "",
    "town_kana": "",
    "street": null,
    "office_name": null,
    "office_name_kana": null
  },
  "0001": {
    "zip_code": "9540001",
    "prefecture": "新潟県",
    "prefecture_kana": "ニイガタケン",
    "prefecture_code": "15",
    "city": "見附市",
    "city_kana": "ミツケシ",
    "town": "指出町",
    "town_kana": "サシデマチ",
    "street": null,
    "office_name": null,
    "office_name_kana": null
  },
  "0002": {
    "zip_code": "9540002",
    "prefecture": "新潟県",
    "prefecture_kana": "ニイガタケン",
    "prefecture_code": "15",
    "city": "見附市",
    "city_kana": "ミツケシ",
    "town": "小栗山町",
    "town_kana": "コグリヤママチ",
    "street": null,
    "office_name": null,
    "office_name_kana": null
  },
  "0004": {
    "zip_code": "9540004",
    "prefecture": "新潟県",
    "prefecture_kana": "ニイガタケン",
    "prefecture_code": "15",
    "city": "見附市",
    "city_kana": "ミツケシ",
    "town": "元町",
    "town_kana": "モトマチ",
    "street": null,
    "office_name": null,
    "office_name_kana": null
  },
  "0005": {
    "zip_code": "9540005",
    "prefecture": "新潟県",
    "prefecture_kana": "ニイガタケン",
    "prefecture_code": "15",
    "city": "見附市",
    "city_kana": "ミツケシ",
    "town": "戸代新田町",
    "town_kana": "トダイシンデンマチ",
    "street": null,
    "office_name": null,
    "office_name_kana": null
  },
  "0006": {
    "zip_code": "9540006",
    "prefecture": "新潟県",
    "prefecture_kana": "ニイガタケン",
    "prefecture_code": "15",
    "city": "見附市",
    "city_kana": "ミツケシ",
    "town": "新潟町",
    "town_kana": "ニイガタマチ",
    "street": null,
    "office_name": null,
    "office_name_kana": null
  },
  "0007": {
    "zip_code": "9540007",
    "prefecture": "新潟県",
    "prefecture_kana": "ニイガタケン",
    "prefecture_code": "15",
    "city": "見附市",
    "city_kana": "ミツケシ",
    "town": "下鳥町",
    "town_kana": "シモドリマチ",
    "street": null,
    "office_name": null,
    "office_name_kana": null
  },
  "0008": {
    "zip_code": "9540008",
    "prefecture": "新潟県",
    "prefecture_kana": "ニイガタケン",
    "prefecture_code": "15",
    "city": "見附市",
    "city_kana": "ミツケシ",
    "town": "内町",
    "town_kana": "ウチマチ",
    "street": null,
    "office_name": null,
    "office_name_kana": null
  },
  "0011": {
    "zip_code": "9540011",
    "prefecture": "新潟県",
    "prefecture_kana": "ニイガタケン",
    "prefecture_code": "15",
    "city": "見附市",
    "city_kana": "ミツケシ",
    "town": "山崎興野町",
    "town_kana": "ヤマザキゴウヤマチ",
    "street": null,
    "office_name": null,
    "office_name_kana": null
  },
  "0012": {
    "zip_code": "9540012",
    "prefecture": "新潟県",
    "prefecture_kana": "ニイガタケン",
    "prefecture_code": "15",
    "city": "見附市",
    "city_kana": "ミツケシ",
    "town": "島切窪町",
    "town_kana": "シマキリクボマチ",
    "street": null,
    "office_name": null,
    "office_name_kana": null
  },
  "0013": {
    "zip_code": "9540013",
    "prefecture": "新潟県",
    "prefecture_kana": "ニイガタケン",
    "prefecture_code": "15",
    "city": "見附市",
    "city_kana": "ミツケシ",
    "town": "石地町",
    "town_kana": "イシジマチ",
    "street": null,
    "office_name": null,
    "office_name_kana": null
  },
  "0014": {
    "zip_code": "9540014",
    "prefecture": "新潟県",
    "prefecture_kana": "ニイガタケン",
    "prefecture_code": "15",
    "city": "見附市",
    "city_kana": "ミツケシ",
    "town": "堀溝町",
    "town_kana": "ホリミゾマチ",
    "street": null,
    "office_name": null,
    "office_name_kana": null
  },
  "0016": {
    "zip_code": "9540016",
    "prefecture": "新潟県",
    "prefecture_kana": "ニイガタケン",
    "prefecture_code": "15",
    "city": "見附市",
    "city_kana": "ミツケシ",
    "town": "庄川町",
    "town_kana": "ショウガワマチ",
    "street": null,
    "office_name": null,
    "office_name_kana": null
  },
  "0017": {
    "zip_code": "9540017",
    "prefecture": "新潟県",
    "prefecture_kana": "ニイガタケン",
    "prefecture_code": "15",
    "city": "見附市",
    "city_kana": "ミツケシ",
    "town": "庄川平町",
    "town_kana": "ショウガワダイラマチ",
    "street": null,
    "office_name": null,
    "office_name_kana": null
  },
  "0021": {
    "zip_code": "9540021",
    "prefecture": "新潟県",
    "prefecture_kana": "ニイガタケン",
    "prefecture_code": "15",
    "city": "見附市",
    "city_kana": "ミツケシ",
    "town": "池之島町",
    "town_kana": "イケノシママチ",
    "street": null,
    "office_name": null,
    "office_name_kana": null
  },
  "0022": {
    "zip_code": "9540022",
    "prefecture": "新潟県",
    "prefecture_kana": "ニイガタケン",
    "prefecture_code": "15",
    "city": "見附市",
    "city_kana": "ミツケシ",
    "town": "杉澤町",
    "town_kana": "スギサワマチ",
    "street": null,
    "office_name": null,
    "office_name_kana": null
  },
  "0023": {
    "zip_code": "9540023",
    "prefecture": "新潟県",
    "prefecture_kana": "ニイガタケン",
    "prefecture_code": "15",
    "city": "見附市",
    "city_kana": "ミツケシ",
    "town": "宮之原町",
    "town_kana": "ミヤノハラマチ",
    "street": null,
    "office_name": null,
    "office_name_kana": null
  },
  "0024": {
    "zip_code": "9540024",
    "prefecture": "新潟県",
    "prefecture_kana": "ニイガタケン",
    "prefecture_code": "15",
    "city": "見附市",
    "city_kana": "ミツケシ",
    "town": "河野町",
    "town_kana": "ガワノマチ",
    "street": null,
    "office_name": null,
    "office_name_kana": null
  },
  "0025": {
    "zip_code": "9540025",
    "prefecture": "新潟県",
    "prefecture_kana": "ニイガタケン",
    "prefecture_code": "15",
    "city": "見附市",
    "city_kana": "ミツケシ",
    "town": "牛ケ嶺町",
    "town_kana": "ウシガミネマチ",
    "street": null,
    "office_name": null,
    "office_name_kana": null
  },
  "0026": {
    "zip_code": "9540026",
    "prefecture": "新潟県",
    "prefecture_kana": "ニイガタケン",
    "prefecture_code": "15",
    "city": "見附市",
    "city_kana": "ミツケシ",
    "town": "神保町",
    "town_kana": "シンボマチ",
    "street": null,
    "office_name": null,
    "office_name_kana": null
  },
  "0027": {
    "zip_code": "9540027",
    "prefecture": "新潟県",
    "prefecture_kana": "ニイガタケン",
    "prefecture_code": "15",
    "city": "見附市",
    "city_kana": "ミツケシ",
    "town": "栃窪町",
    "town_kana": "トチクボマチ",
    "street": null,
    "office_name": null,
    "office_name_kana": null
  },
  "0031": {
    "zip_code": "9540031",
    "prefecture": "新潟県",
    "prefecture_kana": "ニイガタケン",
    "prefecture_code": "15",
    "city": "見附市",
    "city_kana": "ミツケシ",
    "town": "太田町",
    "town_kana": "オオダマチ",
    "street": null,
    "office_name": null,
    "office_name_kana": null
  },
  "0032": {
    "zip_code": "9540032",
    "prefecture": "新潟県",
    "prefecture_kana": "ニイガタケン",
    "prefecture_code": "15",
    "city": "見附市",
    "city_kana": "ミツケシ",
    "town": "本明町",
    "town_kana": "ホンミョウマチ",
    "street": null,
    "office_name": null,
    "office_name_kana": null
  },
  "0033": {
    "zip_code": "9540033",
    "prefecture": "新潟県",
    "prefecture_kana": "ニイガタケン",
    "prefecture_code": "15",
    "city": "見附市",
    "city_kana": "ミツケシ",
    "town": "明晶町",
    "town_kana": "ミョウショウマチ",
    "street": null,
    "office_name": null,
    "office_name_kana": null
  },
  "0034": {
    "zip_code": "9540034",
    "prefecture": "新潟県",
    "prefecture_kana": "ニイガタケン",
    "prefecture_code": "15",
    "city": "見附市",
    "city_kana": "ミツケシ",
    "town": "月見台",
    "town_kana": "ツキミダイ",
    "street": null,
    "office_name": null,
    "office_name_kana": null
  },
  "0035": {
    "zip_code": "9540035",
    "prefecture": "新潟県",
    "prefecture_kana": "ニイガタケン",
    "prefecture_code": "15",
    "city": "見附市",
    "city_kana": "ミツケシ",
    "town": "名木野町",
    "town_kana": "ナギノマチ",
    "street": null,
    "office_name": null,
    "office_name_kana": null
  },
  "0036": {
    "zip_code": "9540036",
    "prefecture": "新潟県",
    "prefecture_kana": "ニイガタケン",
    "prefecture_code": "15",
    "city": "見附市",
    "city_kana": "ミツケシ",
    "town": "田井町",
    "town_kana": "タイマチ",
    "street": null,
    "office_name": null,
    "office_name_kana": null
  },
  "0037": {
    "zip_code": "9540037",
    "prefecture": "新潟県",
    "prefecture_kana": "ニイガタケン",
    "prefecture_code": "15",
    "city": "見附市",
    "city_kana": "ミツケシ",
    "town": "椿澤町",
    "town_kana": "ツバキザワマチ",
    "street": null,
    "office_name": null,
    "office_name_kana": null
  },
  "0038": {
    "zip_code": "9540038",
    "prefecture": "新潟県",
    "prefecture_kana": "ニイガタケン",
    "prefecture_code": "15",
    "city": "見附市",
    "city_kana": "ミツケシ",
    "town": "池之内町",
    "town_kana": "イケノウチマチ",
    "street": null,
    "office_name": null,
    "office_name_kana": null
  },
  "0041": {
    "zip_code": "9540041",
    "prefecture": "新潟県",
    "prefecture_kana": "ニイガタケン",
    "prefecture_code": "15",
    "city": "見附市",
    "city_kana": "ミツケシ",
    "town": "栃栄町",
    "town_kana": "トチサカエマチ",
    "street": null,
    "office_name": null,
    "office_name_kana": null
  },
  "0042": {
    "zip_code": "9540042",
    "prefecture": "新潟県",
    "prefecture_kana": "ニイガタケン",
    "prefecture_code": "15",
    "city": "見附市",
    "city_kana": "ミツケシ",
    "town": "山崎町",
    "town_kana": "ヤマザキマチ",
    "street": null,
    "office_name": null,
    "office_name_kana": null
  },
  "0043": {
    "zip_code": "9540043",
    "prefecture": "新潟県",
    "prefecture_kana": "ニイガタケン",
    "prefecture_code": "15",
    "city": "見附市",
    "city_kana": "ミツケシ",
    "town": "耳取町",
    "town_kana": "ミミトリマチ",
    "street": null,
    "office_name": null,
    "office_name_kana": null
  },
  "0044": {
    "zip_code": "9540044",
    "prefecture": "新潟県",
    "prefecture_kana": "ニイガタケン",
    "prefecture_code": "15",
    "city": "見附市",
    "city_kana": "ミツケシ",
    "town": "鳥屋脇町",
    "town_kana": "トヤワキマチ",
    "street": null,
    "office_name": null,
    "office_name_kana": null
  },
  "0045": {
    "zip_code": "9540045",
    "prefecture": "新潟県",
    "prefecture_kana": "ニイガタケン",
    "prefecture_code": "15",
    "city": "見附市",
    "city_kana": "ミツケシ",
    "town": "緑町",
    "town_kana": "ミドリチョウ",
    "street": null,
    "office_name": null,
    "office_name_kana": null
  },
  "0046": {
    "zip_code": "9540046",
    "prefecture": "新潟県",
    "prefecture_kana": "ニイガタケン",
    "prefecture_code": "15",
    "city": "見附市",
    "city_kana": "ミツケシ",
    "town": "双葉町",
    "town_kana": "フタバチョウ",
    "street": null,
    "office_name": null,
    "office_name_kana": null
  },
  "0051": {
    "zip_code": "9540051",
    "prefecture": "新潟県",
    "prefecture_kana": "ニイガタケン",
    "prefecture_code": "15",
    "city": "見附市",
    "city_kana": "ミツケシ",
    "town": "本所",
    "town_kana": "ホンジョ",
    "street": null,
    "office_name": null,
    "office_name_kana": null
  },
  "0052": {
    "zip_code": "9540052",
    "prefecture": "新潟県",
    "prefecture_kana": "ニイガタケン",
    "prefecture_code": "15",
    "city": "見附市",
    "city_kana": "ミツケシ",
    "town": "学校町",
    "town_kana": "ガッコウチョウ",
    "street": null,
    "office_name": null,
    "office_name_kana": null
  },
  "0053": {
    "zip_code": "9540053",
    "prefecture": "新潟県",
    "prefecture_kana": "ニイガタケン",
    "prefecture_code": "15",
    "city": "見附市",
    "city_kana": "ミツケシ",
    "town": "本町",
    "town_kana": "ホンマチ",
    "street": null,
    "office_name": null,
    "office_name_kana": null
  },
  "0054": {
    "zip_code": "9540054",
    "prefecture": "新潟県",
    "prefecture_kana": "ニイガタケン",
    "prefecture_code": "15",
    "city": "見附市",
    "city_kana": "ミツケシ",
    "town": "細越",
    "town_kana": "ホソゴエ",
    "street": null,
    "office_name": null,
    "office_name_kana": null
  },
  "0055": {
    "zip_code": "9540055",
    "prefecture": "新潟県",
    "prefecture_kana": "ニイガタケン",
    "prefecture_code": "15",
    "city": "見附市",
    "city_kana": "ミツケシ",
    "town": "嶺崎",
    "town_kana": "ミネザキ",
    "street": null,
    "office_name": null,
    "office_name_kana": null
  },
  "0056": {
    "zip_code": "9540056",
    "prefecture": "新潟県",
    "prefecture_kana": "ニイガタケン",
    "prefecture_code": "15",
    "city": "見附市",
    "city_kana": "ミツケシ",
    "town": "南本町",
    "town_kana": "ミナミホンマチ",
    "street": null,
    "office_name": null,
    "office_name_kana": null
  },
  "0057": {
    "zip_code": "9540057",
    "prefecture": "新潟県",
    "prefecture_kana": "ニイガタケン",
    "prefecture_code": "15",
    "city": "見附市",
    "city_kana": "ミツケシ",
    "town": "新町",
    "town_kana": "シンマチ",
    "street": null,
    "office_name": null,
    "office_name_kana": null
  },
  "0058": {
    "zip_code": "9540058",
    "prefecture": "新潟県",
    "prefecture_kana": "ニイガタケン",
    "prefecture_code": "15",
    "city": "見附市",
    "city_kana": "ミツケシ",
    "town": "葛巻",
    "town_kana": "クズマキ",
    "street": null,
    "office_name": null,
    "office_name_kana": null
  },
  "0059": {
    "zip_code": "9540059",
    "prefecture": "新潟県",
    "prefecture_kana": "ニイガタケン",
    "prefecture_code": "15",
    "city": "見附市",
    "city_kana": "ミツケシ",
    "town": "昭和町",
    "town_kana": "ショウワマチ",
    "street": null,
    "office_name": null,
    "office_name_kana": null
  },
  "0061": {
    "zip_code": "9540061",
    "prefecture": "新潟県",
    "prefecture_kana": "ニイガタケン",
    "prefecture_code": "15",
    "city": "見附市",
    "city_kana": "ミツケシ",
    "town": "熱田町",
    "town_kana": "アツタマチ",
    "street": null,
    "office_name": null,
    "office_name_kana": null
  },
  "0062": {
    "zip_code": "9540062",
    "prefecture": "新潟県",
    "prefecture_kana": "ニイガタケン",
    "prefecture_code": "15",
    "city": "見附市",
    "city_kana": "ミツケシ",
    "town": "下新町",
    "town_kana": "シモアラマチ",
    "street": null,
    "office_name": null,
    "office_name_kana": null
  },
  "0063": {
    "zip_code": "9540063",
    "prefecture": "新潟県",
    "prefecture_kana": "ニイガタケン",
    "prefecture_code": "15",
    "city": "見附市",
    "city_kana": "ミツケシ",
    "town": "漆山町",
    "town_kana": "ウルシヤママチ",
    "street": null,
    "office_name": null,
    "office_name_kana": null
  },
  "0064": {
    "zip_code": "9540064",
    "prefecture": "新潟県",
    "prefecture_kana": "ニイガタケン",
    "prefecture_code": "15",
    "city": "見附市",
    "city_kana": "ミツケシ",
    "town": "鹿熊町",
    "town_kana": "カクママチ",
    "street": null,
    "office_name": null,
    "office_name_kana": null
  },
  "0067": {
    "zip_code": "9540067",
    "prefecture": "新潟県",
    "prefecture_kana": "ニイガタケン",
    "prefecture_code": "15",
    "city": "見附市",
    "city_kana": "ミツケシ",
    "town": "葛巻町",
    "town_kana": "クズマキマチ",
    "street": null,
    "office_name": null,
    "office_name_kana": null
  },
  "0068": {
    "zip_code": "9540068",
    "prefecture": "新潟県",
    "prefecture_kana": "ニイガタケン",
    "prefecture_code": "15",
    "city": "見附市",
    "city_kana": "ミツケシ",
    "town": "仁嘉町",
    "town_kana": "ニカマチ",
    "street": null,
    "office_name": null,
    "office_name_kana": null
  },
  "0071": {
    "zip_code": "9540071",
    "prefecture": "新潟県",
    "prefecture_kana": "ニイガタケン",
    "prefecture_code": "15",
    "city": "見附市",
    "city_kana": "ミツケシ",
    "town": "傍所町",
    "town_kana": "ホウジョマチ",
    "street": null,
    "office_name": null,
    "office_name_kana": null
  },
  "0072": {
    "zip_code": "9540072",
    "prefecture": "新潟県",
    "prefecture_kana": "ニイガタケン",
    "prefecture_code": "15",
    "city": "見附市",
    "city_kana": "ミツケシ",
    "town": "北野町",
    "town_kana": "キタノマチ",
    "street": null,
    "office_name": null,
    "office_name_kana": null
  },
  "0073": {
    "zip_code": "9540073",
    "prefecture": "新潟県",
    "prefecture_kana": "ニイガタケン",
    "prefecture_code": "15",
    "city": "見附市",
    "city_kana": "ミツケシ",
    "town": "青木町",
    "town_kana": "アオキマチ",
    "street": null,
    "office_name": null,
    "office_name_kana": null
  },
  "0074": {
    "zip_code": "9540074",
    "prefecture": "新潟県",
    "prefecture_kana": "ニイガタケン",
    "prefecture_code": "15",
    "city": "見附市",
    "city_kana": "ミツケシ",
    "town": "山吉町",
    "town_kana": "ヤマヨシマチ",
    "street": null,
    "office_name": null,
    "office_name_kana": null
  },
  "0075": {
    "zip_code": "9540075",
    "prefecture": "新潟県",
    "prefecture_kana": "ニイガタケン",
    "prefecture_code": "15",
    "city": "見附市",
    "city_kana": "ミツケシ",
    "town": "速水町",
    "town_kana": "ハヤミズマチ",
    "street": null,
    "office_name": null,
    "office_name_kana": null
  },
  "0076": {
    "zip_code": "9540076",
    "prefecture": "新潟県",
    "prefecture_kana": "ニイガタケン",
    "prefecture_code": "15",
    "city": "見附市",
    "city_kana": "ミツケシ",
    "town": "新幸町",
    "town_kana": "シンコウチョウ",
    "street": null,
    "office_name": null,
    "office_name_kana": null
  },
  "0077": {
    "zip_code": "9540077",
    "prefecture": "新潟県",
    "prefecture_kana": "ニイガタケン",
    "prefecture_code": "15",
    "city": "見附市",
    "city_kana": "ミツケシ",
    "town": "葛巻西町",
    "town_kana": "クズマキニシマチ",
    "street": null,
    "office_name": null,
    "office_name_kana": null
  },
  "0078": {
    "zip_code": "9540078",
    "prefecture": "新潟県",
    "prefecture_kana": "ニイガタケン",
    "prefecture_code": "15",
    "city": "見附市",
    "city_kana": "ミツケシ",
    "town": "葛巻東町",
    "town_kana": "クズマキヒガシマチ",
    "street": null,
    "office_name": null,
    "office_name_kana": null
  },
  "0079": {
    "zip_code": "9540079",
    "prefecture": "新潟県",
    "prefecture_kana": "ニイガタケン",
    "prefecture_code": "15",
    "city": "見附市",
    "city_kana": "ミツケシ",
    "town": "葛巻南町",
    "town_kana": "クズマキミナミマチ",
    "street": null,
    "office_name": null,
    "office_name_kana": null
  },
  "0081": {
    "zip_code": "9540081",
    "prefecture": "新潟県",
    "prefecture_kana": "ニイガタケン",
    "prefecture_code": "15",
    "city": "見附市",
    "city_kana": "ミツケシ",
    "town": "片桐町",
    "town_kana": "カタギリマチ",
    "street": null,
    "office_name": null,
    "office_name_kana": null
  },
  "0082": {
    "zip_code": "9540082",
    "prefecture": "新潟県",
    "prefecture_kana": "ニイガタケン",
    "prefecture_code": "15",
    "city": "見附市",
    "city_kana": "ミツケシ",
    "town": "柳橋町",
    "town_kana": "ヤナギバシマチ",
    "street": null,
    "office_name": null,
    "office_name_kana": null
  },
  "0083": {
    "zip_code": "9540083",
    "prefecture": "新潟県",
    "prefecture_kana": "ニイガタケン",
    "prefecture_code": "15",
    "city": "見附市",
    "city_kana": "ミツケシ",
    "town": "市野坪町",
    "town_kana": "イチノツボマチ",
    "street": null,
    "office_name": null,
    "office_name_kana": null
  },
  "0084": {
    "zip_code": "9540084",
    "prefecture": "新潟県",
    "prefecture_kana": "ニイガタケン",
    "prefecture_code": "15",
    "city": "見附市",
    "city_kana": "ミツケシ",
    "town": "加坪川町",
    "town_kana": "カツボガワマチ",
    "street": null,
    "office_name": null,
    "office_name_kana": null
  },
  "0085": {
    "zip_code": "9540085",
    "prefecture": "新潟県",
    "prefecture_kana": "ニイガタケン",
    "prefecture_code": "15",
    "city": "見附市",
    "city_kana": "ミツケシ",
    "town": "反田町",
    "town_kana": "ソリダマチ",
    "street": null,
    "office_name": null,
    "office_name_kana": null
  },
  "0086": {
    "zip_code": "9540086",
    "prefecture": "新潟県",
    "prefecture_kana": "ニイガタケン",
    "prefecture_code": "15",
    "city": "見附市",
    "city_kana": "ミツケシ",
    "town": "福島町",
    "town_kana": "フクジママチ",
    "street": null,
    "office_name": null,
    "office_name_kana": null
  },
  "0087": {
    "zip_code": "9540087",
    "prefecture": "新潟県",
    "prefecture_kana": "ニイガタケン",
    "prefecture_code": "15",
    "city": "見附市",
    "city_kana": "ミツケシ",
    "town": "芝野町",
    "town_kana": "シバノマチ",
    "street": null,
    "office_name": null,
    "office_name_kana": null
  },
  "0088": {
    "zip_code": "9540088",
    "prefecture": "新潟県",
    "prefecture_kana": "ニイガタケン",
    "prefecture_code": "15",
    "city": "見附市",
    "city_kana": "ミツケシ",
    "town": "新潟東町",
    "town_kana": "ニイガタヒガシマチ",
    "street": null,
    "office_name": null,
    "office_name_kana": null
  },
  "0089": {
    "zip_code": "9540089",
    "prefecture": "新潟県",
    "prefecture_kana": "ニイガタケン",
    "prefecture_code": "15",
    "city": "見附市",
    "city_kana": "ミツケシ",
    "town": "新潟西町",
    "town_kana": "ニイガタニシマチ",
    "street": null,
    "office_name": null,
    "office_name_kana": null
  },
  "0101": {
    "zip_code": "9540101",
    "prefecture": "新潟県",
    "prefecture_kana": "ニイガタケン",
    "prefecture_code": "15",
    "city": "見附市",
    "city_kana": "ミツケシ",
    "town": "三林町",
    "town_kana": "サンバヤシマチ",
    "street": null,
    "office_name": null,
    "office_name_kana": null
  },
  "0102": {
    "zip_code": "9540102",
    "prefecture": "新潟県",
    "prefecture_kana": "ニイガタケン",
    "prefecture_code": "15",
    "city": "見附市",
    "city_kana": "ミツケシ",
    "town": "釈迦塚町",
    "town_kana": "シャカヅカマチ",
    "street": null,
    "office_name": null,
    "office_name_kana": null
  },
  "0103": {
    "zip_code": "9540103",
    "prefecture": "新潟県",
    "prefecture_kana": "ニイガタケン",
    "prefecture_code": "15",
    "city": "見附市",
    "city_kana": "ミツケシ",
    "town": "田之尻町",
    "town_kana": "タノシリマチ",
    "street": null,
    "office_name": null,
    "office_name_kana": null
  },
  "0104": {
    "zip_code": "9540104",
    "prefecture": "新潟県",
    "prefecture_kana": "ニイガタケン",
    "prefecture_code": "15",
    "city": "見附市",
    "city_kana": "ミツケシ",
    "town": "坂井町",
    "town_kana": "サカイマチ",
    "street": null,
    "office_name": null,
    "office_name_kana": null
  },
  "0105": {
    "zip_code": "9540105",
    "prefecture": "新潟県",
    "prefecture_kana": "ニイガタケン",
    "prefecture_code": "15",
    "city": "見附市",
    "city_kana": "ミツケシ",
    "town": "下関町",
    "town_kana": "シモセキマチ",
    "street": null,
    "office_name": null,
    "office_name_kana": null
  },
  "0106": {
    "zip_code": "9540106",
    "prefecture": "新潟県",
    "prefecture_kana": "ニイガタケン",
    "prefecture_code": "15",
    "city": "見附市",
    "city_kana": "ミツケシ",
    "town": "東今町",
    "town_kana": "ヒガシイママチ",
    "street": null,
    "office_name": null,
    "office_name_kana": null
  },
  "0107": {
    "zip_code": "9540107",
    "prefecture": "新潟県",
    "prefecture_kana": "ニイガタケン",
    "prefecture_code": "15",
    "city": "見附市",
    "city_kana": "ミツケシ",
    "town": "西今町",
    "town_kana": "ニシイママチ",
    "street": null,
    "office_name": null,
    "office_name_kana": null
  },
  "0111": {
    "zip_code": "9540111",
    "prefecture": "新潟県",
    "prefecture_kana": "ニイガタケン",
    "prefecture_code": "15",
    "city": "見附市",
    "city_kana": "ミツケシ",
    "town": "今町",
    "town_kana": "イママチ",
    "street": null,
    "office_name": null,
    "office_name_kana": null
  },
  "0112": {
    "zip_code": "9540112",
    "prefecture": "新潟県",
    "prefecture_kana": "ニイガタケン",
    "prefecture_code": "15",
    "city": "見附市",
    "city_kana": "ミツケシ",
    "town": "上新田町",
    "town_kana": "カミシンデンマチ",
    "street": null,
    "office_name": null,
    "office_name_kana": null
  },
  "0121": {
    "zip_code": "9540121",
    "prefecture": "新潟県",
    "prefecture_kana": "ニイガタケン",
    "prefecture_code": "15",
    "city": "長岡市",
    "city_kana": "ナガオカシ",
    "town": "野口",
    "town_kana": "ノグチ",
    "street": null,
    "office_name": null,
    "office_name_kana": null
  },
  "0122": {
    "zip_code": "9540122",
    "prefecture": "新潟県",
    "prefecture_kana": "ニイガタケン",
    "prefecture_code": "15",
    "city": "長岡市",
    "city_kana": "ナガオカシ",
    "town": "真弓",
    "town_kana": "マユミ",
    "street": null,
    "office_name": null,
    "office_name_kana": null
  },
  "0123": {
    "zip_code": "9540123",
    "prefecture": "新潟県",
    "prefecture_kana": "ニイガタケン",
    "prefecture_code": "15",
    "city": "長岡市",
    "city_kana": "ナガオカシ",
    "town": "猫興野",
    "town_kana": "ネコゴウヤ",
    "street": null,
    "office_name": null,
    "office_name_kana": null
  },
  "0124": {
    "zip_code": "9540124",
    "prefecture": "新潟県",
    "prefecture_kana": "ニイガタケン",
    "prefecture_code": "15",
    "city": "長岡市",
    "city_kana": "ナガオカシ",
    "town": "中之島",
    "town_kana": "ナカノシマ",
    "street": null,
    "office_name": null,
    "office_name_kana": null
  },
  "0125": {
    "zip_code": "9540125",
    "prefecture": "新潟県",
    "prefecture_kana": "ニイガタケン",
    "prefecture_code": "15",
    "city": "長岡市",
    "city_kana": "ナガオカシ",
    "town": "藤山",
    "town_kana": "フジヤマ",
    "street": null,
    "office_name": null,
    "office_name_kana": null
  },
  "0126": {
    "zip_code": "9540126",
    "prefecture": "新潟県",
    "prefecture_kana": "ニイガタケン",
    "prefecture_code": "15",
    "city": "長岡市",
    "city_kana": "ナガオカシ",
    "town": "五百刈",
    "town_kana": "ゴヒャッカリ",
    "street": null,
    "office_name": null,
    "office_name_kana": null
  },
  "0131": {
    "zip_code": "9540131",
    "prefecture": "新潟県",
    "prefecture_kana": "ニイガタケン",
    "prefecture_code": "15",
    "city": "長岡市",
    "city_kana": "ナガオカシ",
    "town": "中興野",
    "town_kana": "ナカゴウヤ",
    "street": null,
    "office_name": null,
    "office_name_kana": null
  },
  "0132": {
    "zip_code": "9540132",
    "prefecture": "新潟県",
    "prefecture_kana": "ニイガタケン",
    "prefecture_code": "15",
    "city": "長岡市",
    "city_kana": "ナガオカシ",
    "town": "新栄",
    "town_kana": "シンエイ",
    "street": null,
    "office_name": null,
    "office_name_kana": null
  },
  "0133": {
    "zip_code": "9540133",
    "prefecture": "新潟県",
    "prefecture_kana": "ニイガタケン",
    "prefecture_code": "15",
    "city": "長岡市",
    "city_kana": "ナガオカシ",
    "town": "大曲戸新田",
    "town_kana": "オオマガトシンデン",
    "street": null,
    "office_name": null,
    "office_name_kana": null
  },
  "0134": {
    "zip_code": "9540134",
    "prefecture": "新潟県",
    "prefecture_kana": "ニイガタケン",
    "prefecture_code": "15",
    "city": "長岡市",
    "city_kana": "ナガオカシ",
    "town": "大曲戸",
    "town_kana": "オオマガト",
    "street": null,
    "office_name": null,
    "office_name_kana": null
  },
  "0135": {
    "zip_code": "9540135",
    "prefecture": "新潟県",
    "prefecture_kana": "ニイガタケン",
    "prefecture_code": "15",
    "city": "長岡市",
    "city_kana": "ナガオカシ",
    "town": "幸南",
    "town_kana": "コウナン",
    "street": null,
    "office_name": null,
    "office_name_kana": null
  },
  "0136": {
    "zip_code": "9540136",
    "prefecture": "新潟県",
    "prefecture_kana": "ニイガタケン",
    "prefecture_code": "15",
    "city": "長岡市",
    "city_kana": "ナガオカシ",
    "town": "思川新田",
    "town_kana": "オモイガワシンデン",
    "street": null,
    "office_name": null,
    "office_name_kana": null
  },
  "0137": {
    "zip_code": "9540137",
    "prefecture": "新潟県",
    "prefecture_kana": "ニイガタケン",
    "prefecture_code": "15",
    "city": "長岡市",
    "city_kana": "ナガオカシ",
    "town": "押切新田",
    "town_kana": "オシキリシンデン",
    "street": null,
    "office_name": null,
    "office_name_kana": null
  },
  "0138": {
    "zip_code": "9540138",
    "prefecture": "新潟県",
    "prefecture_kana": "ニイガタケン",
    "prefecture_code": "15",
    "city": "長岡市",
    "city_kana": "ナガオカシ",
    "town": "押切川原町",
    "town_kana": "オシキリカワラマチ",
    "street": null,
    "office_name": null,
    "office_name_kana": null
  },
  "0141": {
    "zip_code": "9540141",
    "prefecture": "新潟県",
    "prefecture_kana": "ニイガタケン",
    "prefecture_code": "15",
    "city": "長岡市",
    "city_kana": "ナガオカシ",
    "town": "粕島",
    "town_kana": "カスジマ",
    "street": null,
    "office_name": null,
    "office_name_kana": null
  },
  "0142": {
    "zip_code": "9540142",
    "prefecture": "新潟県",
    "prefecture_kana": "ニイガタケン",
    "prefecture_code": "15",
    "city": "長岡市",
    "city_kana": "ナガオカシ",
    "town": "灰島新田",
    "town_kana": "ハイジマシンデン",
    "street": null,
    "office_name": null,
    "office_name_kana": null
  },
  "0143": {
    "zip_code": "9540143",
    "prefecture": "新潟県",
    "prefecture_kana": "ニイガタケン",
    "prefecture_code": "15",
    "city": "長岡市",
    "city_kana": "ナガオカシ",
    "town": "池之島",
    "town_kana": "イケノシマ",
    "street": null,
    "office_name": null,
    "office_name_kana": null
  },
  "0144": {
    "zip_code": "9540144",
    "prefecture": "新潟県",
    "prefecture_kana": "ニイガタケン",
    "prefecture_code": "15",
    "city": "長岡市",
    "city_kana": "ナガオカシ",
    "town": "坪根",
    "town_kana": "ツボネ",
    "street": null,
    "office_name": null,
    "office_name_kana": null
  },
  "0145": {
    "zip_code": "9540145",
    "prefecture": "新潟県",
    "prefecture_kana": "ニイガタケン",
    "prefecture_code": "15",
    "city": "長岡市",
    "city_kana": "ナガオカシ",
    "town": "大口",
    "town_kana": "オオクチ",
    "street": null,
    "office_name": null,
    "office_name_kana": null
  },
  "0146": {
    "zip_code": "9540146",
    "prefecture": "新潟県",
    "prefecture_kana": "ニイガタケン",
    "prefecture_code": "15",
    "city": "長岡市",
    "city_kana": "ナガオカシ",
    "town": "大保",
    "town_kana": "ダイボ",
    "street": null,
    "office_name": null,
    "office_name_kana": null
  },
  "0147": {
    "zip_code": "9540147",
    "prefecture": "新潟県",
    "prefecture_kana": "ニイガタケン",
    "prefecture_code": "15",
    "city": "長岡市",
    "city_kana": "ナガオカシ",
    "town": "品之木",
    "town_kana": "ボンノキ",
    "street": null,
    "office_name": null,
    "office_name_kana": null
  },
  "0151": {
    "zip_code": "9540151",
    "prefecture": "新潟県",
    "prefecture_kana": "ニイガタケン",
    "prefecture_code": "15",
    "city": "長岡市",
    "city_kana": "ナガオカシ",
    "town": "杉之森",
    "town_kana": "スギノモリ",
    "street": null,
    "office_name": null,
    "office_name_kana": null
  },
  "0152": {
    "zip_code": "9540152",
    "prefecture": "新潟県",
    "prefecture_kana": "ニイガタケン",
    "prefecture_code": "15",
    "city": "長岡市",
    "city_kana": "ナガオカシ",
    "town": "中之島高畑",
    "town_kana": "ナカノシマタカバタケ",
    "street": null,
    "office_name": null,
    "office_name_kana": null
  },
  "0153": {
    "zip_code": "9540153",
    "prefecture": "新潟県",
    "prefecture_kana": "ニイガタケン",
    "prefecture_code": "15",
    "city": "長岡市",
    "city_kana": "ナガオカシ",
    "town": "横山",
    "town_kana": "ヨコヤマ",
    "street": null,
    "office_name": null,
    "office_name_kana": null
  },
  "0154": {
    "zip_code": "9540154",
    "prefecture": "新潟県",
    "prefecture_kana": "ニイガタケン",
    "prefecture_code": "15",
    "city": "長岡市",
    "city_kana": "ナガオカシ",
    "town": "関根",
    "town_kana": "セキネ",
    "street": null,
    "office_name": null,
    "office_name_kana": null
  },
  "0155": {
    "zip_code": "9540155",
    "prefecture": "新潟県",
    "prefecture_kana": "ニイガタケン",
    "prefecture_code": "15",
    "city": "長岡市",
    "city_kana": "ナガオカシ",
    "town": "島田",
    "town_kana": "シマダ",
    "street": null,
    "office_name": null,
    "office_name_kana": null
  },
  "0156": {
    "zip_code": "9540156",
    "prefecture": "新潟県",
    "prefecture_kana": "ニイガタケン",
    "prefecture_code": "15",
    "city": "長岡市",
    "city_kana": "ナガオカシ",
    "town": "長呂",
    "town_kana": "ナガロ",
    "street": null,
    "office_name": null,
    "office_name_kana": null
  },
  "0157": {
    "zip_code": "9540157",
    "prefecture": "新潟県",
    "prefecture_kana": "ニイガタケン",
    "prefecture_code": "15",
    "city": "長岡市",
    "city_kana": "ナガオカシ",
    "town": "中之島宮内",
    "town_kana": "ナカノシマミヤウチ",
    "street": null,
    "office_name": null,
    "office_name_kana": null
  },
  "0161": {
    "zip_code": "9540161",
    "prefecture": "新潟県",
    "prefecture_kana": "ニイガタケン",
    "prefecture_code": "15",
    "city": "長岡市",
    "city_kana": "ナガオカシ",
    "town": "興野",
    "town_kana": "コウヤ",
    "street": null,
    "office_name": null,
    "office_name_kana": null
  },
  "0162": {
    "zip_code": "9540162",
    "prefecture": "新潟県",
    "prefecture_kana": "ニイガタケン",
    "prefecture_code": "15",
    "city": "長岡市",
    "city_kana": "ナガオカシ",
    "town": "狐興野",
    "town_kana": "キツネゴウヤ",
    "street": null,
    "office_name": null,
    "office_name_kana": null
  },
  "0163": {
    "zip_code": "9540163",
    "prefecture": "新潟県",
    "prefecture_kana": "ニイガタケン",
    "prefecture_code": "15",
    "city": "長岡市",
    "city_kana": "ナガオカシ",
    "town": "並木新田",
    "town_kana": "ナミキシンデン",
    "street": null,
    "office_name": null,
    "office_name_kana": null
  },
  "0164": {
    "zip_code": "9540164",
    "prefecture": "新潟県",
    "prefecture_kana": "ニイガタケン",
    "prefecture_code": "15",
    "city": "長岡市",
    "city_kana": "ナガオカシ",
    "town": "末宝",
    "town_kana": "マッポウ",
    "street": null,
    "office_name": null,
    "office_name_kana": null
  },
  "0165": {
    "zip_code": "9540165",
    "prefecture": "新潟県",
    "prefecture_kana": "ニイガタケン",
    "prefecture_code": "15",
    "city": "長岡市",
    "city_kana": "ナガオカシ",
    "town": "福原",
    "town_kana": "フクハラ",
    "street": null,
    "office_name": null,
    "office_name_kana": null
  },
  "0166": {
    "zip_code": "9540166",
    "prefecture": "新潟県",
    "prefecture_kana": "ニイガタケン",
    "prefecture_code": "15",
    "city": "長岡市",
    "city_kana": "ナガオカシ",
    "town": "海老島勇次新田",
    "town_kana": "エビジマユウジシンデン",
    "street": null,
    "office_name": null,
    "office_name_kana": null
  },
  "0171": {
    "zip_code": "9540171",
    "prefecture": "新潟県",
    "prefecture_kana": "ニイガタケン",
    "prefecture_code": "15",
    "city": "長岡市",
    "city_kana": "ナガオカシ",
    "town": "稲島",
    "town_kana": "イナジマ",
    "street": null,
    "office_name": null,
    "office_name_kana": null
  },
  "0172": {
    "zip_code": "9540172",
    "prefecture": "新潟県",
    "prefecture_kana": "ニイガタケン",
    "prefecture_code": "15",
    "city": "長岡市",
    "city_kana": "ナガオカシ",
    "town": "鶴ケ曽根",
    "town_kana": "ツルガソネ",
    "street": null,
    "office_name": null,
    "office_name_kana": null
  },
  "0173": {
    "zip_code": "9540173",
    "prefecture": "新潟県",
    "prefecture_kana": "ニイガタケン",
    "prefecture_code": "15",
    "city": "長岡市",
    "city_kana": "ナガオカシ",
    "town": "中野東",
    "town_kana": "ナカノヒガシ",
    "street": null,
    "office_name": null,
    "office_name_kana": null
  },
  "0174": {
    "zip_code": "9540174",
    "prefecture": "新潟県",
    "prefecture_kana": "ニイガタケン",
    "prefecture_code": "15",
    "city": "長岡市",
    "city_kana": "ナガオカシ",
    "town": "中野中",
    "town_kana": "ナカノナカ",
    "street": null,
    "office_name": null,
    "office_name_kana": null
  },
  "0175": {
    "zip_code": "9540175",
    "prefecture": "新潟県",
    "prefecture_kana": "ニイガタケン",
    "prefecture_code": "15",
    "city": "長岡市",
    "city_kana": "ナガオカシ",
    "town": "中野西",
    "town_kana": "ナカノニシ",
    "street": null,
    "office_name": null,
    "office_name_kana": null
  },
  "0176": {
    "zip_code": "9540176",
    "prefecture": "新潟県",
    "prefecture_kana": "ニイガタケン",
    "prefecture_code": "15",
    "city": "長岡市",
    "city_kana": "ナガオカシ",
    "town": "横野",
    "town_kana": "ヨコノ",
    "street": null,
    "office_name": null,
    "office_name_kana": null
  },
  "0177": {
    "zip_code": "9540177",
    "prefecture": "新潟県",
    "prefecture_kana": "ニイガタケン",
    "prefecture_code": "15",
    "city": "長岡市",
    "city_kana": "ナガオカシ",
    "town": "亀ケ谷新田",
    "town_kana": "カメガヤシンデン",
    "street": null,
    "office_name": null,
    "office_name_kana": null
  },
  "0181": {
    "zip_code": "9540181",
    "prefecture": "新潟県",
    "prefecture_kana": "ニイガタケン",
    "prefecture_code": "15",
    "city": "長岡市",
    "city_kana": "ナガオカシ",
    "town": "脇川新田町",
    "town_kana": "ワキガワシンデンマチ",
    "street": null,
    "office_name": null,
    "office_name_kana": null
  },
  "0192": {
    "zip_code": "9540192",
    "prefecture": "新潟県",
    "prefecture_kana": "ニイガタケン",
    "prefecture_code": "15",
    "city": "長岡市",
    "city_kana": "ナガオカシ",
    "town": "中之島",
    "town_kana": "ナカノシマ",
    "street": "７８８（今町郵便局私書箱第８号）",
    "office_name": "長岡市役所　中之島支所",
    "office_name_kana": "ナガオカシヤクシヨ ナカノシマシシヨ"
  },
  "0195": {
    "zip_code": "9540195",
    "prefecture": "新潟県",
    "prefecture_kana": "ニイガタケン",
    "prefecture_code": "15",
    "city": "見附市",
    "city_kana": "ミツケシ",
    "town": "今町",
    "town_kana": "イママチ",
    "street": "８丁目２−２",
    "office_name": "（株）　カネタ馬場長",
    "office_name_kana": "(カブ) カネタババチヨウ"
  },
  "0201": {
    "zip_code": "9540201",
    "prefecture": "新潟県",
    "prefecture_kana": "ニイガタケン",
    "prefecture_code": "15",
    "city": "長岡市",
    "city_kana": "ナガオカシ",
    "town": "大沼新田",
    "town_kana": "オオヌマシンデン",
    "street": null,
    "office_name": null,
    "office_name_kana": null
  },
  "0202": {
    "zip_code": "9540202",
    "prefecture": "新潟県",
    "prefecture_kana": "ニイガタケン",
    "prefecture_code": "15",
    "city": "長岡市",
    "city_kana": "ナガオカシ",
    "town": "赤沼",
    "town_kana": "アカヌマ",
    "street": null,
    "office_name": null,
    "office_name_kana": null
  },
  "0203": {
    "zip_code": "9540203",
    "prefecture": "新潟県",
    "prefecture_kana": "ニイガタケン",
    "prefecture_code": "15",
    "city": "長岡市",
    "city_kana": "ナガオカシ",
    "town": "小沼新田",
    "town_kana": "コヌマシンデン",
    "street": null,
    "office_name": null,
    "office_name_kana": null
  },
  "0204": {
    "zip_code": "9540204",
    "prefecture": "新潟県",
    "prefecture_kana": "ニイガタケン",
    "prefecture_code": "15",
    "city": "長岡市",
    "city_kana": "ナガオカシ",
    "town": "中西",
    "town_kana": "ナカサイ",
    "street": null,
    "office_name": null,
    "office_name_kana": null
  },
  "0205": {
    "zip_code": "9540205",
    "prefecture": "新潟県",
    "prefecture_kana": "ニイガタケン",
    "prefecture_code": "15",
    "city": "長岡市",
    "city_kana": "ナガオカシ",
    "town": "西高山新田",
    "town_kana": "ニシタカヤマシンデン",
    "street": null,
    "office_name": null,
    "office_name_kana": null
  },
  "0206": {
    "zip_code": "9540206",
    "prefecture": "新潟県",
    "prefecture_kana": "ニイガタケン",
    "prefecture_code": "15",
    "city": "長岡市",
    "city_kana": "ナガオカシ",
    "town": "六所",
    "town_kana": "ロクショ",
    "street": null,
    "office_name": null,
    "office_name_kana": null
  },
  "0207": {
    "zip_code": "9540207",
    "prefecture": "新潟県",
    "prefecture_kana": "ニイガタケン",
    "prefecture_code": "15",
    "city": "長岡市",
    "city_kana": "ナガオカシ",
    "town": "上沼新田",
    "town_kana": "ウワヌマシンデン",
    "street": null,
    "office_name": null,
    "office_name_kana": null
  },
  "0211": {
    "zip_code": "9540211",
    "prefecture": "新潟県",
    "prefecture_kana": "ニイガタケン",
    "prefecture_code": "15",
    "city": "長岡市",
    "city_kana": "ナガオカシ",
    "town": "西野新田",
    "town_kana": "ニシノシンデン",
    "street": null,
    "office_name": null,
    "office_name_kana": null
  },
  "0212": {
    "zip_code": "9540212",
    "prefecture": "新潟県",
    "prefecture_kana": "ニイガタケン",
    "prefecture_code": "15",
    "city": "長岡市",
    "city_kana": "ナガオカシ",
    "town": "中之島西野",
    "town_kana": "ナカノシマニシノ",
    "street": null,
    "office_name": null,
    "office_name_kana": null
  },
  "0213": {
    "zip_code": "9540213",
    "prefecture": "新潟県",
    "prefecture_kana": "ニイガタケン",
    "prefecture_code": "15",
    "city": "長岡市",
    "city_kana": "ナガオカシ",
    "town": "下沼新田",
    "town_kana": "シタヌマシンデン",
    "street": null,
    "office_name": null,
    "office_name_kana": null
  },
  "0214": {
    "zip_code": "9540214",
    "prefecture": "新潟県",
    "prefecture_kana": "ニイガタケン",
    "prefecture_code": "15",
    "city": "長岡市",
    "city_kana": "ナガオカシ",
    "town": "中条新田",
    "town_kana": "チュウジョウシンデン",
    "street": null,
    "office_name": null,
    "office_name_kana": null
  },
  "0215": {
    "zip_code": "9540215",
    "prefecture": "新潟県",
    "prefecture_kana": "ニイガタケン",
    "prefecture_code": "15",
    "city": "長岡市",
    "city_kana": "ナガオカシ",
    "town": "真野代新田",
    "town_kana": "マノシロシンデン",
    "street": null,
    "office_name": null,
    "office_name_kana": null
  },
  "0216": {
    "zip_code": "9540216",
    "prefecture": "新潟県",
    "prefecture_kana": "ニイガタケン",
    "prefecture_code": "15",
    "city": "長岡市",
    "city_kana": "ナガオカシ",
    "town": "中之島中条",
    "town_kana": "ナカノシマチュウジョウ",
    "street": null,
    "office_name": null,
    "office_name_kana": null
  },
  "0217": {
    "zip_code": "9540217",
    "prefecture": "新潟県",
    "prefecture_kana": "ニイガタケン",
    "prefecture_code": "15",
    "city": "長岡市",
    "city_kana": "ナガオカシ",
    "town": "松ケ崎新田",
    "town_kana": "マツガサキシンデン",
    "street": null,
    "office_name": null,
    "office_name_kana": null
  },
  "0218": {
    "zip_code": "9540218",
    "prefecture": "新潟県",
    "prefecture_kana": "ニイガタケン",
    "prefecture_code": "15",
    "city": "長岡市",
    "city_kana": "ナガオカシ",
    "town": "信条南",
    "town_kana": "シンジョウミナミ",
    "street": null,
    "office_name": null,
    "office_name_kana": null
  },
  "0221": {
    "zip_code": "9540221",
    "prefecture": "新潟県",
    "prefecture_kana": "ニイガタケン",
    "prefecture_code": "15",
    "city": "長岡市",
    "city_kana": "ナガオカシ",
    "town": "信条東",
    "town_kana": "シンジョウヒガシ",
    "street": null,
    "office_name": null,
    "office_name_kana": null
  },
  "0222": {
    "zip_code": "9540222",
    "prefecture": "新潟県",
    "prefecture_kana": "ニイガタケン",
    "prefecture_code": "15",
    "city": "長岡市",
    "city_kana": "ナガオカシ",
    "town": "信条西",
    "town_kana": "シンジョウニシ",
    "street": null,
    "office_name": null,
    "office_name_kana": null
  },
  "8619": {
    "zip_code": "9548619",
    "prefecture": "新潟県",
    "prefecture_kana": "ニイガタケン",
    "prefecture_code": "15",
    "city": "見附市",
    "city_kana": "ミツケシ",
    "town": "柳橋町",
    "town_kana": "ヤナギバシマチ",
    "street": "１１０３−１（見附郵便局私書箱第１９号）",
    "office_name": "株式会社　近藤商店",
    "office_name_kana": "カブシキガイシヤ コンドウシヨウテン"
  },
  "8686": {
    "zip_code": "9548686",
    "prefecture": "新潟県",
    "prefecture_kana": "ニイガタケン",
    "prefecture_code": "15",
    "city": "見附市",
    "city_kana": "ミツケシ",
    "town": "昭和町",
    "town_kana": "ショウワマチ",
    "street": "２丁目１−１（見附郵便局私書箱第２２号）",
    "office_name": "見附市役所",
    "office_name_kana": "ミツケシヤクシヨ"
  }
}