{
  "0000": {
    "zip_code": "9550000",
    "prefecture": "新潟県",
    "prefecture_kana": "ニイガタケン",
    "prefecture_code": "15",
    "city": "三条市",
    "city_kana": "サンジョウシ",
    "town": "",
    "town_kana": "",
    "street": null,
    "office_name": null,
    "office_name_kana": null
  },
  "0001": {
    "zip_code": "9550001",
    "prefecture": "新潟県",
    "prefecture_kana": "ニイガタケン",
    "prefecture_code": "15",
    "city": "三条市",
    "city_kana": "サンジョウシ",
    "town": "三貫地新田",
    "town_kana": "サンガンジシンデン",
    "street": null,
    "office_name": null,
    "office_name_kana": null
  },
  "0002": {
    "zip_code": "9550002",
    "prefecture": "新潟県",
    "prefecture_kana": "ニイガタケン",
    "prefecture_code": "15",
    "city": "三条市",
    "city_kana": "サンジョウシ",
    "town": "柳川新田",
    "town_kana": "ヤナガワシンデン",
    "street": null,
    "office_name": null,
    "office_name_kana": null
  },
  "0003": {
    "zip_code": "9550003",
    "prefecture": "新潟県",
    "prefecture_kana": "ニイガタケン",
    "prefecture_code": "15",
    "city": "三条市",
    "city_kana": "サンジョウシ",
    "town": "柳場新田",
    "town_kana": "ヤナギバシンデン",
    "street": null,
    "office_name": null,
    "office_name_kana": null
  },
  "0004": {
    "zip_code": "9550004",
    "prefecture": "新潟県",
    "prefecture_kana": "ニイガタケン",
    "prefecture_code": "15",
    "city": "三条市",
    "city_kana": "サンジョウシ",
    "town": "須戸新田",
    "town_kana": "スドシンデン",
    "street": null,
    "office_name": null,
    "office_name_kana": null
  },
  "0011": {
    "zip_code": "9550011",
    "prefecture": "新潟県",
    "prefecture_kana": "ニイガタケン",
    "prefecture_code": "15",
    "city": "三条市",
    "city_kana": "サンジョウシ",
    "town": "白山新田",
    "town_kana": "シラヤマシンデン",
    "street": null,
    "office_name": null,
    "office_name_kana": null
  },
  "0012": {
    "zip_code": "9550012",
    "prefecture": "新潟県",
    "prefecture_kana": "ニイガタケン",
    "prefecture_code": "15",
    "city": "三条市",
    "city_kana": "サンジョウシ",
    "town": "北野新田",
    "town_kana": "キタノシンデン",
    "street": null,
    "office_name": null,
    "office_name_kana": null
  },
  "0013": {
    "zip_code": "9550013",
    "prefecture": "新潟県",
    "prefecture_kana": "ニイガタケン",
    "prefecture_code": "15",
    "city": "三条市",
    "city_kana": "サンジョウシ",
    "town": "井栗",
    "town_kana": "イグリ",
    "street": null,
    "office_name": null,
    "office_name_kana": null
  },
  "0014": {
    "zip_code": "9550014",
    "prefecture": "新潟県",
    "prefecture_kana": "ニイガタケン",
    "prefecture_code": "15",
    "city": "三条市",
    "city_kana": "サンジョウシ",
    "town": "西潟",
    "town_kana": "ニシカタ",
    "street": null,
    "office_name": null,
    "office_name_kana": null
  },
  "0015": {
    "zip_code": "9550015",
    "prefecture": "新潟県",
    "prefecture_kana": "ニイガタケン",
    "prefecture_code": "15",
    "city": "三条市",
    "city_kana": "サンジョウシ",
    "town": "三柳",
    "town_kana": "ミツヤナギ",
    "street": null,
    "office_name": null,
    "office_name_kana": null
  },
  "0016": {
    "zip_code": "9550016",
    "prefecture": "新潟県",
    "prefecture_kana": "ニイガタケン",
    "prefecture_code": "15",
    "city": "三条市",
    "city_kana": "サンジョウシ",
    "town": "牛ケ島",
    "town_kana": "ウシガシマ",
    "street": null,
    "office_name": null,
    "office_name_kana": null
  },
  "0021": {
    "zip_code": "9550021",
    "prefecture": "新潟県",
    "prefecture_kana": "ニイガタケン",
    "prefecture_code": "15",
    "city": "三条市",
    "city_kana": "サンジョウシ",
    "town": "下保内",
    "town_kana": "シモホナイ",
    "street": null,
    "office_name": null,
    "office_name_kana": null
  },
  "0022": [
    {
      "zip_code": "9550022",
      "prefecture": "新潟県",
      "prefecture_kana": "ニイガタケン",
      "prefecture_code": "15",
      "city": "三条市",
      "city_kana": "サンジョウシ",
      "town": "上保内",
      "town_kana": "カミホナイ",
      "street": null,
      "office_name": null,
      "office_name_kana": null
    },
    {
      "zip_code": "9550022",
      "prefecture": "新潟県",
      "prefecture_kana": "ニイガタケン",
      "prefecture_code": "15",
      "city": "三条市",
      "city_kana": "サンジョウシ",
      "town": "みずほ",
      "town_kana": "ミズホ",
      "street": null,
      "office_name": null,
      "office_name_kana": null
    }
  ],
  "0024": {
    "zip_code": "9550024",
    "prefecture": "新潟県",
    "prefecture_kana": "ニイガタケン",
    "prefecture_code": "15",
    "city": "三条市",
    "city_kana": "サンジョウシ",
    "town": "柳沢",
    "town_kana": "ヤナギサワ",
    "street": null,
    "office_name": null,
    "office_name_kana": null
  },
  "0025": {
    "zip_code": "9550025",
    "prefecture": "新潟県",
    "prefecture_kana": "ニイガタケン",
    "prefecture_code": "15",
    "city": "三条市",
    "city_kana": "サンジョウシ",
    "town": "上野原",
    "town_kana": "ウエノハラ",
    "street": null,
    "office_name": null,
    "office_name_kana": null
  },
  "0031": {
    "zip_code": "9550031",
    "prefecture": "新潟県",
    "prefecture_kana": "ニイガタケン",
    "prefecture_code": "15",
    "city": "三条市",
    "city_kana": "サンジョウシ",
    "town": "松ノ木町",
    "town_kana": "マツノキチョウ",
    "street": null,
    "office_name": null,
    "office_name_kana": null
  },
  "0032": {
    "zip_code": "9550032",
    "prefecture": "新潟県",
    "prefecture_kana": "ニイガタケン",
    "prefecture_code": "15",
    "city": "三条市",
    "city_kana": "サンジョウシ",
    "town": "東大崎",
    "town_kana": "ヒガシオオサキ",
    "street": null,
    "office_name": null,
    "office_name_kana": null
  },
  "0033": {
    "zip_code": "9550033",
    "prefecture": "新潟県",
    "prefecture_kana": "ニイガタケン",
    "prefecture_code": "15",
    "city": "三条市",
    "city_kana": "サンジョウシ",
    "town": "西大崎",
    "town_kana": "ニシオオサキ",
    "street": null,
    "office_name": null,
    "office_name_kana": null
  },
  "0034": {
    "zip_code": "9550034",
    "prefecture": "新潟県",
    "prefecture_kana": "ニイガタケン",
    "prefecture_code": "15",
    "city": "三条市",
    "city_kana": "サンジョウシ",
    "town": "麻布",
    "town_kana": "アザブ",
    "street": null,
    "office_name": null,
    "office_name_kana": null
  },
  "0035": {
    "zip_code": "9550035",
    "prefecture": "新潟県",
    "prefecture_kana": "ニイガタケン",
    "prefecture_code": "15",
    "city": "三条市",
    "city_kana": "サンジョウシ",
    "town": "中新",
    "town_kana": "チュウシン",
    "street": null,
    "office_name": null,
    "office_name_kana": null
  },
  "0036": {
    "zip_code": "9550036",
    "prefecture": "新潟県",
    "prefecture_kana": "ニイガタケン",
    "prefecture_code": "15",
    "city": "三条市",
    "city_kana": "サンジョウシ",
    "town": "篭場",
    "town_kana": "カゴバ",
    "street": null,
    "office_name": null,
    "office_name_kana": null
  },
  "0041": {
    "zip_code": "9550041",
    "prefecture": "新潟県",
    "prefecture_kana": "ニイガタケン",
    "prefecture_code": "15",
    "city": "三条市",
    "city_kana": "サンジョウシ",
    "town": "三竹",
    "town_kana": "サンチク",
    "street": null,
    "office_name": null,
    "office_name_kana": null
  },
  "0042": {
    "zip_code": "9550042",
    "prefecture": "新潟県",
    "prefecture_kana": "ニイガタケン",
    "prefecture_code": "15",
    "city": "三条市",
    "city_kana": "サンジョウシ",
    "town": "下坂井",
    "town_kana": "シモサカイ",
    "street": null,
    "office_name": null,
    "office_name_kana": null
  },
  "0043": {
    "zip_code": "9550043",
    "prefecture": "新潟県",
    "prefecture_kana": "ニイガタケン",
    "prefecture_code": "15",
    "city": "三条市",
    "city_kana": "サンジョウシ",
    "town": "北中",
    "town_kana": "キタナカ",
    "street": null,
    "office_name": null,
    "office_name_kana": null
  },
  "0044": {
    "zip_code": "9550044",
    "prefecture": "新潟県",
    "prefecture_kana": "ニイガタケン",
    "prefecture_code": "15",
    "city": "三条市",
    "city_kana": "サンジョウシ",
    "town": "田島",
    "town_kana": "タジマ",
    "street": null,
    "office_name": null,
    "office_name_kana": null
  },
  "0045": {
    "zip_code": "9550045",
    "prefecture": "新潟県",
    "prefecture_kana": "ニイガタケン",
    "prefecture_code": "15",
    "city": "三条市",
    "city_kana": "サンジョウシ",
    "town": "一ノ門",
    "town_kana": "イチノモン",
    "street": null,
    "office_name": null,
    "office_name_kana": null
  },
  "0046": {
    "zip_code": "9550046",
    "prefecture": "新潟県",
    "prefecture_kana": "ニイガタケン",
    "prefecture_code": "15",
    "city": "三条市",
    "city_kana": "サンジョウシ",
    "town": "興野",
    "town_kana": "コウヤ",
    "street": null,
    "office_name": null,
    "office_name_kana": null
  },
  "0047": {
    "zip_code": "9550047",
    "prefecture": "新潟県",
    "prefecture_kana": "ニイガタケン",
    "prefecture_code": "15",
    "city": "三条市",
    "city_kana": "サンジョウシ",
    "town": "東三条",
    "town_kana": "ヒガシサンジョウ",
    "street": null,
    "office_name": null,
    "office_name_kana": null
  },
  "0051": {
    "zip_code": "9550051",
    "prefecture": "新潟県",
    "prefecture_kana": "ニイガタケン",
    "prefecture_code": "15",
    "city": "三条市",
    "city_kana": "サンジョウシ",
    "town": "鶴田",
    "town_kana": "ツルダ",
    "street": null,
    "office_name": null,
    "office_name_kana": null
  },
  "0053": {
    "zip_code": "9550053",
    "prefecture": "新潟県",
    "prefecture_kana": "ニイガタケン",
    "prefecture_code": "15",
    "city": "三条市",
    "city_kana": "サンジョウシ",
    "town": "北入蔵",
    "town_kana": "キタニュウグラ",
    "street": null,
    "office_name": null,
    "office_name_kana": null
  },
  "0054": {
    "zip_code": "9550054",
    "prefecture": "新潟県",
    "prefecture_kana": "ニイガタケン",
    "prefecture_code": "15",
    "city": "三条市",
    "city_kana": "サンジョウシ",
    "town": "大宮新田",
    "town_kana": "オオミヤシンデン",
    "street": null,
    "office_name": null,
    "office_name_kana": null
  },
  "0055": {
    "zip_code": "9550055",
    "prefecture": "新潟県",
    "prefecture_kana": "ニイガタケン",
    "prefecture_code": "15",
    "city": "三条市",
    "city_kana": "サンジョウシ",
    "town": "塚野目",
    "town_kana": "ツカノメ",
    "street": null,
    "office_name": null,
    "office_name_kana": null
  },
  "0056": {
    "zip_code": "9550056",
    "prefecture": "新潟県",
    "prefecture_kana": "ニイガタケン",
    "prefecture_code": "15",
    "city": "三条市",
    "city_kana": "サンジョウシ",
    "town": "嘉坪川",
    "town_kana": "カツボガワ",
    "street": null,
    "office_name": null,
    "office_name_kana": null
  },
  "0057": {
    "zip_code": "9550057",
    "prefecture": "新潟県",
    "prefecture_kana": "ニイガタケン",
    "prefecture_code": "15",
    "city": "三条市",
    "city_kana": "サンジョウシ",
    "town": "新光町",
    "town_kana": "ニッコウチョウ",
    "street": null,
    "office_name": null,
    "office_name_kana": null
  },
  "0061": {
    "zip_code": "9550061",
    "prefecture": "新潟県",
    "prefecture_kana": "ニイガタケン",
    "prefecture_code": "15",
    "city": "三条市",
    "city_kana": "サンジョウシ",
    "town": "林町",
    "town_kana": "ハヤシチョウ",
    "street": null,
    "office_name": null,
    "office_name_kana": null
  },
  "0062": {
    "zip_code": "9550062",
    "prefecture": "新潟県",
    "prefecture_kana": "ニイガタケン",
    "prefecture_code": "15",
    "city": "三条市",
    "city_kana": "サンジョウシ",
    "town": "仲之町",
    "town_kana": "ナカノチョウ",
    "street": null,
    "office_name": null,
    "office_name_kana": null
  },
  "0063": {
    "zip_code": "9550063",
    "prefecture": "新潟県",
    "prefecture_kana": "ニイガタケン",
    "prefecture_code": "15",
    "city": "三条市",
    "city_kana": "サンジョウシ",
    "town": "神明町",
    "town_kana": "シンメイチョウ",
    "street": null,
    "office_name": null,
    "office_name_kana": null
  },
  "0064": {
    "zip_code": "9550064",
    "prefecture": "新潟県",
    "prefecture_kana": "ニイガタケン",
    "prefecture_code": "15",
    "city": "三条市",
    "city_kana": "サンジョウシ",
    "town": "横町",
    "town_kana": "ヨコチョウ",
    "street": null,
    "office_name": null,
    "office_name_kana": null
  },
  "0065": {
    "zip_code": "9550065",
    "prefecture": "新潟県",
    "prefecture_kana": "ニイガタケン",
    "prefecture_code": "15",
    "city": "三条市",
    "city_kana": "サンジョウシ",
    "town": "旭町",
    "town_kana": "アサヒチョウ",
    "street": null,
    "office_name": null,
    "office_name_kana": null
  },
  "0066": {
    "zip_code": "9550066",
    "prefecture": "新潟県",
    "prefecture_kana": "ニイガタケン",
    "prefecture_code": "15",
    "city": "三条市",
    "city_kana": "サンジョウシ",
    "town": "居島",
    "town_kana": "イジマ",
    "street": null,
    "office_name": null,
    "office_name_kana": null
  },
  "0071": {
    "zip_code": "9550071",
    "prefecture": "新潟県",
    "prefecture_kana": "ニイガタケン",
    "prefecture_code": "15",
    "city": "三条市",
    "city_kana": "サンジョウシ",
    "town": "本町",
    "town_kana": "ホンチョウ",
    "street": null,
    "office_name": null,
    "office_name_kana": null
  },
  "0072": {
    "zip_code": "9550072",
    "prefecture": "新潟県",
    "prefecture_kana": "ニイガタケン",
    "prefecture_code": "15",
    "city": "三条市",
    "city_kana": "サンジョウシ",
    "town": "元町",
    "town_kana": "モトマチ",
    "street": null,
    "office_name": null,
    "office_name_kana": null
  },
  "0073": {
    "zip_code": "9550073",
    "prefecture": "新潟県",
    "prefecture_kana": "ニイガタケン",
    "prefecture_code": "15",
    "city": "三条市",
    "city_kana": "サンジョウシ",
    "town": "八幡町",
    "town_kana": "ハチマンチョウ",
    "street": null,
    "office_name": null,
    "office_name_kana": null
  },
  "0081": {
    "zip_code": "9550081",
    "prefecture": "新潟県",
    "prefecture_kana": "ニイガタケン",
    "prefecture_code": "15",
    "city": "三条市",
    "city_kana": "サンジョウシ",
    "town": "東裏館",
    "town_kana": "ヒガシウラダテ",
    "street": null,
    "office_name": null,
    "office_name_kana": null
  },
  "0082": {
    "zip_code": "9550082",
    "prefecture": "新潟県",
    "prefecture_kana": "ニイガタケン",
    "prefecture_code": "15",
    "city": "三条市",
    "city_kana": "サンジョウシ",
    "town": "西裏館",
    "town_kana": "ニシウラダテ",
    "street": null,
    "office_name": null,
    "office_name_kana": null
  },
  "0083": {
    "zip_code": "9550083",
    "prefecture": "新潟県",
    "prefecture_kana": "ニイガタケン",
    "prefecture_code": "15",
    "city": "三条市",
    "city_kana": "サンジョウシ",
    "town": "荒町",
    "town_kana": "アラマチ",
    "street": null,
    "office_name": null,
    "office_name_kana": null
  },
  "0084": {
    "zip_code": "9550084",
    "prefecture": "新潟県",
    "prefecture_kana": "ニイガタケン",
    "prefecture_code": "15",
    "city": "三条市",
    "city_kana": "サンジョウシ",
    "town": "石上",
    "town_kana": "イシガミ",
    "street": null,
    "office_name": null,
    "office_name_kana": null
  },
  "0085": {
    "zip_code": "9550085",
    "prefecture": "新潟県",
    "prefecture_kana": "ニイガタケン",
    "prefecture_code": "15",
    "city": "三条市",
    "city_kana": "サンジョウシ",
    "town": "栗林",
    "town_kana": "クリバヤシ",
    "street": null,
    "office_name": null,
    "office_name_kana": null
  },
  "0091": {
    "zip_code": "9550091",
    "prefecture": "新潟県",
    "prefecture_kana": "ニイガタケン",
    "prefecture_code": "15",
    "city": "三条市",
    "city_kana": "サンジョウシ",
    "town": "上須頃",
    "town_kana": "カミスゴロ",
    "street": null,
    "office_name": null,
    "office_name_kana": null
  },
  "0092": {
    "zip_code": "9550092",
    "prefecture": "新潟県",
    "prefecture_kana": "ニイガタケン",
    "prefecture_code": "15",
    "city": "三条市",
    "city_kana": "サンジョウシ",
    "town": "須頃",
    "town_kana": "スゴロ",
    "street": null,
    "office_name": null,
    "office_name_kana": null
  },
  "0093": {
    "zip_code": "9550093",
    "prefecture": "新潟県",
    "prefecture_kana": "ニイガタケン",
    "prefecture_code": "15",
    "city": "三条市",
    "city_kana": "サンジョウシ",
    "town": "下須頃",
    "town_kana": "シモスゴロ",
    "street": null,
    "office_name": null,
    "office_name_kana": null
  },
  "0094": {
    "zip_code": "9550094",
    "prefecture": "新潟県",
    "prefecture_kana": "ニイガタケン",
    "prefecture_code": "15",
    "city": "三条市",
    "city_kana": "サンジョウシ",
    "town": "大島",
    "town_kana": "オオジマ",
    "street": null,
    "office_name": null,
    "office_name_kana": null
  },
  "0095": {
    "zip_code": "9550095",
    "prefecture": "新潟県",
    "prefecture_kana": "ニイガタケン",
    "prefecture_code": "15",
    "city": "三条市",
    "city_kana": "サンジョウシ",
    "town": "代官島",
    "town_kana": "ダイカンジマ",
    "street": null,
    "office_name": null,
    "office_name_kana": null
  },
  "0096": {
    "zip_code": "9550096",
    "prefecture": "新潟県",
    "prefecture_kana": "ニイガタケン",
    "prefecture_code": "15",
    "city": "三条市",
    "city_kana": "サンジョウシ",
    "town": "井戸場",
    "town_kana": "イドバ",
    "street": null,
    "office_name": null,
    "office_name_kana": null
  },
  "0097": {
    "zip_code": "9550097",
    "prefecture": "新潟県",
    "prefecture_kana": "ニイガタケン",
    "prefecture_code": "15",
    "city": "三条市",
    "city_kana": "サンジョウシ",
    "town": "荻島",
    "town_kana": "オギジマ",
    "street": null,
    "office_name": null,
    "office_name_kana": null
  },
  "0101": {
    "zip_code": "9550101",
    "prefecture": "新潟県",
    "prefecture_kana": "ニイガタケン",
    "prefecture_code": "15",
    "city": "三条市",
    "city_kana": "サンジョウシ",
    "town": "曲谷",
    "town_kana": "マガリタニ",
    "street": null,
    "office_name": null,
    "office_name_kana": null
  },
  "0102": {
    "zip_code": "9550102",
    "prefecture": "新潟県",
    "prefecture_kana": "ニイガタケン",
    "prefecture_code": "15",
    "city": "三条市",
    "city_kana": "サンジョウシ",
    "town": "牛ケ首",
    "town_kana": "ウシガクビ",
    "street": null,
    "office_name": null,
    "office_name_kana": null
  },
  "0103": {
    "zip_code": "9550103",
    "prefecture": "新潟県",
    "prefecture_kana": "ニイガタケン",
    "prefecture_code": "15",
    "city": "三条市",
    "city_kana": "サンジョウシ",
    "town": "落合",
    "town_kana": "オチアイ",
    "street": null,
    "office_name": null,
    "office_name_kana": null
  },
  "0104": {
    "zip_code": "9550104",
    "prefecture": "新潟県",
    "prefecture_kana": "ニイガタケン",
    "prefecture_code": "15",
    "city": "三条市",
    "city_kana": "サンジョウシ",
    "town": "江口",
    "town_kana": "エグチ",
    "street": null,
    "office_name": null,
    "office_name_kana": null
  },
  "0105": {
    "zip_code": "9550105",
    "prefecture": "新潟県",
    "prefecture_kana": "ニイガタケン",
    "prefecture_code": "15",
    "city": "三条市",
    "city_kana": "サンジョウシ",
    "town": "島川原",
    "town_kana": "シマガワラ",
    "street": null,
    "office_name": null,
    "office_name_kana": null
  },
  "0106": {
    "zip_code": "9550106",
    "prefecture": "新潟県",
    "prefecture_kana": "ニイガタケン",
    "prefecture_code": "15",
    "city": "三条市",
    "city_kana": "サンジョウシ",
    "town": "南中",
    "town_kana": "ミナミナカ",
    "street": null,
    "office_name": null,
    "office_name_kana": null
  },
  "0107": {
    "zip_code": "9550107",
    "prefecture": "新潟県",
    "prefecture_kana": "ニイガタケン",
    "prefecture_code": "15",
    "city": "三条市",
    "city_kana": "サンジョウシ",
    "town": "飯田",
    "town_kana": "イイダ",
    "street": null,
    "office_name": null,
    "office_name_kana": null
  },
  "0108": {
    "zip_code": "9550108",
    "prefecture": "新潟県",
    "prefecture_kana": "ニイガタケン",
    "prefecture_code": "15",
    "city": "三条市",
    "city_kana": "サンジョウシ",
    "town": "鹿峠",
    "town_kana": "カトウゲ",
    "street": null,
    "office_name": null,
    "office_name_kana": null
  },
  "0111": {
    "zip_code": "9550111",
    "prefecture": "新潟県",
    "prefecture_kana": "ニイガタケン",
    "prefecture_code": "15",
    "city": "三条市",
    "city_kana": "サンジョウシ",
    "town": "上谷地",
    "town_kana": "カミヤチ",
    "street": null,
    "office_name": null,
    "office_name_kana": null
  },
  "0112": {
    "zip_code": "9550112",
    "prefecture": "新潟県",
    "prefecture_kana": "ニイガタケン",
    "prefecture_code": "15",
    "city": "三条市",
    "city_kana": "サンジョウシ",
    "town": "蝶名林",
    "town_kana": "チョウナバヤシ",
    "street": null,
    "office_name": null,
    "office_name_kana": null
  },
  "0113": {
    "zip_code": "9550113",
    "prefecture": "新潟県",
    "prefecture_kana": "ニイガタケン",
    "prefecture_code": "15",
    "city": "三条市",
    "city_kana": "サンジョウシ",
    "town": "中浦",
    "town_kana": "ナカウラ",
    "street": null,
    "office_name": null,
    "office_name_kana": null
  },
  "0114": {
    "zip_code": "9550114",
    "prefecture": "新潟県",
    "prefecture_kana": "ニイガタケン",
    "prefecture_code": "15",
    "city": "三条市",
    "city_kana": "サンジョウシ",
    "town": "鹿熊",
    "town_kana": "カクマ",
    "street": null,
    "office_name": null,
    "office_name_kana": null
  },
  "0115": {
    "zip_code": "9550115",
    "prefecture": "新潟県",
    "prefecture_kana": "ニイガタケン",
    "prefecture_code": "15",
    "city": "三条市",
    "city_kana": "サンジョウシ",
    "town": "院内",
    "town_kana": "インナイ",
    "street": null,
    "office_name": null,
    "office_name_kana": null
  },
  "0116": {
    "zip_code": "9550116",
    "prefecture": "新潟県",
    "prefecture_kana": "ニイガタケン",
    "prefecture_code": "15",
    "city": "三条市",
    "city_kana": "サンジョウシ",
    "town": "森町",
    "town_kana": "モリマチ",
    "street": null,
    "office_name": null,
    "office_name_kana": null
  },
  "0117": {
    "zip_code": "9550117",
    "prefecture": "新潟県",
    "prefecture_kana": "ニイガタケン",
    "prefecture_code": "15",
    "city": "三条市",
    "city_kana": "サンジョウシ",
    "town": "田屋",
    "town_kana": "タヤ",
    "street": null,
    "office_name": null,
    "office_name_kana": null
  },
  "0118": {
    "zip_code": "9550118",
    "prefecture": "新潟県",
    "prefecture_kana": "ニイガタケン",
    "prefecture_code": "15",
    "city": "三条市",
    "city_kana": "サンジョウシ",
    "town": "新屋",
    "town_kana": "アラヤ",
    "street": null,
    "office_name": null,
    "office_name_kana": null
  },
  "0121": {
    "zip_code": "9550121",
    "prefecture": "新潟県",
    "prefecture_kana": "ニイガタケン",
    "prefecture_code": "15",
    "city": "三条市",
    "city_kana": "サンジョウシ",
    "town": "北五百川",
    "town_kana": "キタイモガワ",
    "street": null,
    "office_name": null,
    "office_name_kana": null
  },
  "0122": {
    "zip_code": "9550122",
    "prefecture": "新潟県",
    "prefecture_kana": "ニイガタケン",
    "prefecture_code": "15",
    "city": "三条市",
    "city_kana": "サンジョウシ",
    "town": "大谷地",
    "town_kana": "オオヤチ",
    "street": null,
    "office_name": null,
    "office_name_kana": null
  },
  "0123": {
    "zip_code": "9550123",
    "prefecture": "新潟県",
    "prefecture_kana": "ニイガタケン",
    "prefecture_code": "15",
    "city": "三条市",
    "city_kana": "サンジョウシ",
    "town": "笠堀",
    "town_kana": "カサボリ",
    "street": null,
    "office_name": null,
    "office_name_kana": null
  },
  "0124": {
    "zip_code": "9550124",
    "prefecture": "新潟県",
    "prefecture_kana": "ニイガタケン",
    "prefecture_code": "15",
    "city": "三条市",
    "city_kana": "サンジョウシ",
    "town": "大谷",
    "town_kana": "オオタニ",
    "street": null,
    "office_name": null,
    "office_name_kana": null
  },
  "0125": {
    "zip_code": "9550125",
    "prefecture": "新潟県",
    "prefecture_kana": "ニイガタケン",
    "prefecture_code": "15",
    "city": "三条市",
    "city_kana": "サンジョウシ",
    "town": "塩野渕",
    "town_kana": "シオノフチ",
    "street": null,
    "office_name": null,
    "office_name_kana": null
  },
  "0126": {
    "zip_code": "9550126",
    "prefecture": "新潟県",
    "prefecture_kana": "ニイガタケン",
    "prefecture_code": "15",
    "city": "三条市",
    "city_kana": "サンジョウシ",
    "town": "栗山",
    "town_kana": "クリヤマ",
    "street": null,
    "office_name": null,
    "office_name_kana": null
  },
  "0127": {
    "zip_code": "9550127",
    "prefecture": "新潟県",
    "prefecture_kana": "ニイガタケン",
    "prefecture_code": "15",
    "city": "三条市",
    "city_kana": "サンジョウシ",
    "town": "名下",
    "town_kana": "ミョウゲ",
    "street": null,
    "office_name": null,
    "office_name_kana": null
  },
  "0128": {
    "zip_code": "9550128",
    "prefecture": "新潟県",
    "prefecture_kana": "ニイガタケン",
    "prefecture_code": "15",
    "city": "三条市",
    "city_kana": "サンジョウシ",
    "town": "南五百川",
    "town_kana": "ミナミイモガワ",
    "street": null,
    "office_name": null,
    "office_name_kana": null
  },
  "0131": {
    "zip_code": "9550131",
    "prefecture": "新潟県",
    "prefecture_kana": "ニイガタケン",
    "prefecture_code": "15",
    "city": "三条市",
    "city_kana": "サンジョウシ",
    "town": "庭月",
    "town_kana": "ニワヅキ",
    "street": null,
    "office_name": null,
    "office_name_kana": null
  },
  "0132": {
    "zip_code": "9550132",
    "prefecture": "新潟県",
    "prefecture_kana": "ニイガタケン",
    "prefecture_code": "15",
    "city": "三条市",
    "city_kana": "サンジョウシ",
    "town": "長野",
    "town_kana": "ナガノ",
    "street": null,
    "office_name": null,
    "office_name_kana": null
  },
  "0133": {
    "zip_code": "9550133",
    "prefecture": "新潟県",
    "prefecture_kana": "ニイガタケン",
    "prefecture_code": "15",
    "city": "三条市",
    "city_kana": "サンジョウシ",
    "town": "牛野尾",
    "town_kana": "ウシノオ",
    "street": null,
    "office_name": null,
    "office_name_kana": null
  },
  "0134": {
    "zip_code": "9550134",
    "prefecture": "新潟県",
    "prefecture_kana": "ニイガタケン",
    "prefecture_code": "15",
    "city": "三条市",
    "city_kana": "サンジョウシ",
    "town": "濁沢",
    "town_kana": "ニゴリサワ",
    "street": null,
    "office_name": null,
    "office_name_kana": null
  },
  "0135": {
    "zip_code": "9550135",
    "prefecture": "新潟県",
    "prefecture_kana": "ニイガタケン",
    "prefecture_code": "15",
    "city": "三条市",
    "city_kana": "サンジョウシ",
    "town": "早水",
    "town_kana": "ハヤミズ",
    "street": null,
    "office_name": null,
    "office_name_kana": null
  },
  "0136": {
    "zip_code": "9550136",
    "prefecture": "新潟県",
    "prefecture_kana": "ニイガタケン",
    "prefecture_code": "15",
    "city": "三条市",
    "city_kana": "サンジョウシ",
    "town": "葎谷",
    "town_kana": "モグラダニ",
    "street": null,
    "office_name": null,
    "office_name_kana": null
  },
  "0137": {
    "zip_code": "9550137",
    "prefecture": "新潟県",
    "prefecture_kana": "ニイガタケン",
    "prefecture_code": "15",
    "city": "三条市",
    "city_kana": "サンジョウシ",
    "town": "遅場",
    "town_kana": "オソバ",
    "street": null,
    "office_name": null,
    "office_name_kana": null
  },
  "0141": {
    "zip_code": "9550141",
    "prefecture": "新潟県",
    "prefecture_kana": "ニイガタケン",
    "prefecture_code": "15",
    "city": "三条市",
    "city_kana": "サンジョウシ",
    "town": "荒沢",
    "town_kana": "アラサワ",
    "street": null,
    "office_name": null,
    "office_name_kana": null
  },
  "0142": {
    "zip_code": "9550142",
    "prefecture": "新潟県",
    "prefecture_kana": "ニイガタケン",
    "prefecture_code": "15",
    "city": "三条市",
    "city_kana": "サンジョウシ",
    "town": "小長沢",
    "town_kana": "コナガサワ",
    "street": null,
    "office_name": null,
    "office_name_kana": null
  },
  "0143": {
    "zip_code": "9550143",
    "prefecture": "新潟県",
    "prefecture_kana": "ニイガタケン",
    "prefecture_code": "15",
    "city": "三条市",
    "city_kana": "サンジョウシ",
    "town": "棚鱗",
    "town_kana": "タナヒレ",
    "street": null,
    "office_name": null,
    "office_name_kana": null
  },
  "0144": {
    "zip_code": "9550144",
    "prefecture": "新潟県",
    "prefecture_kana": "ニイガタケン",
    "prefecture_code": "15",
    "city": "三条市",
    "city_kana": "サンジョウシ",
    "town": "楢山",
    "town_kana": "ナラヤマ",
    "street": null,
    "office_name": null,
    "office_name_kana": null
  },
  "0145": {
    "zip_code": "9550145",
    "prefecture": "新潟県",
    "prefecture_kana": "ニイガタケン",
    "prefecture_code": "15",
    "city": "三条市",
    "city_kana": "サンジョウシ",
    "town": "大沢",
    "town_kana": "オオサワ",
    "street": null,
    "office_name": null,
    "office_name_kana": null
  },
  "0146": {
    "zip_code": "9550146",
    "prefecture": "新潟県",
    "prefecture_kana": "ニイガタケン",
    "prefecture_code": "15",
    "city": "三条市",
    "city_kana": "サンジョウシ",
    "town": "笹巻",
    "town_kana": "ササマキ",
    "street": null,
    "office_name": null,
    "office_name_kana": null
  },
  "0147": {
    "zip_code": "9550147",
    "prefecture": "新潟県",
    "prefecture_kana": "ニイガタケン",
    "prefecture_code": "15",
    "city": "三条市",
    "city_kana": "サンジョウシ",
    "town": "中野原",
    "town_kana": "ナカノハラ",
    "street": null,
    "office_name": null,
    "office_name_kana": null
  },
  "0148": {
    "zip_code": "9550148",
    "prefecture": "新潟県",
    "prefecture_kana": "ニイガタケン",
    "prefecture_code": "15",
    "city": "三条市",
    "city_kana": "サンジョウシ",
    "town": "花渕",
    "town_kana": "ハナブチ",
    "street": null,
    "office_name": null,
    "office_name_kana": null
  },
  "0151": {
    "zip_code": "9550151",
    "prefecture": "新潟県",
    "prefecture_kana": "ニイガタケン",
    "prefecture_code": "15",
    "city": "三条市",
    "city_kana": "サンジョウシ",
    "town": "荻堀",
    "town_kana": "オギボリ",
    "street": null,
    "office_name": null,
    "office_name_kana": null
  },
  "0152": {
    "zip_code": "9550152",
    "prefecture": "新潟県",
    "prefecture_kana": "ニイガタケン",
    "prefecture_code": "15",
    "city": "三条市",
    "city_kana": "サンジョウシ",
    "town": "笹岡",
    "town_kana": "ササオカ",
    "street": null,
    "office_name": null,
    "office_name_kana": null
  },
  "0153": {
    "zip_code": "9550153",
    "prefecture": "新潟県",
    "prefecture_kana": "ニイガタケン",
    "prefecture_code": "15",
    "city": "三条市",
    "city_kana": "サンジョウシ",
    "town": "桑切",
    "town_kana": "クワキリ",
    "street": null,
    "office_name": null,
    "office_name_kana": null
  },
  "0154": {
    "zip_code": "9550154",
    "prefecture": "新潟県",
    "prefecture_kana": "ニイガタケン",
    "prefecture_code": "15",
    "city": "三条市",
    "city_kana": "サンジョウシ",
    "town": "大平",
    "town_kana": "オオダイラ",
    "street": null,
    "office_name": null,
    "office_name_kana": null
  },
  "0155": {
    "zip_code": "9550155",
    "prefecture": "新潟県",
    "prefecture_kana": "ニイガタケン",
    "prefecture_code": "15",
    "city": "三条市",
    "city_kana": "サンジョウシ",
    "town": "広手",
    "town_kana": "ヒロテ",
    "street": null,
    "office_name": null,
    "office_name_kana": null
  },
  "0156": {
    "zip_code": "9550156",
    "prefecture": "新潟県",
    "prefecture_kana": "ニイガタケン",
    "prefecture_code": "15",
    "city": "三条市",
    "city_kana": "サンジョウシ",
    "town": "駒込",
    "town_kana": "コマゴミ",
    "street": null,
    "office_name": null,
    "office_name_kana": null
  },
  "0157": {
    "zip_code": "9550157",
    "prefecture": "新潟県",
    "prefecture_kana": "ニイガタケン",
    "prefecture_code": "15",
    "city": "三条市",
    "city_kana": "サンジョウシ",
    "town": "長沢",
    "town_kana": "ナガサワ",
    "street": null,
    "office_name": null,
    "office_name_kana": null
  },
  "0158": {
    "zip_code": "9550158",
    "prefecture": "新潟県",
    "prefecture_kana": "ニイガタケン",
    "prefecture_code": "15",
    "city": "三条市",
    "city_kana": "サンジョウシ",
    "town": "原",
    "town_kana": "ハラ",
    "street": null,
    "office_name": null,
    "office_name_kana": null
  },
  "0161": {
    "zip_code": "9550161",
    "prefecture": "新潟県",
    "prefecture_kana": "ニイガタケン",
    "prefecture_code": "15",
    "city": "三条市",
    "city_kana": "サンジョウシ",
    "town": "高岡",
    "town_kana": "タカオカ",
    "street": null,
    "office_name": null,
    "office_name_kana": null
  },
  "0162": {
    "zip_code": "9550162",
    "prefecture": "新潟県",
    "prefecture_kana": "ニイガタケン",
    "prefecture_code": "15",
    "city": "三条市",
    "city_kana": "サンジョウシ",
    "town": "福岡",
    "town_kana": "フクオカ",
    "street": null,
    "office_name": null,
    "office_name_kana": null
  },
  "0163": {
    "zip_code": "9550163",
    "prefecture": "新潟県",
    "prefecture_kana": "ニイガタケン",
    "prefecture_code": "15",
    "city": "三条市",
    "city_kana": "サンジョウシ",
    "town": "島潟",
    "town_kana": "シマガタ",
    "street": null,
    "office_name": null,
    "office_name_kana": null
  },
  "0164": {
    "zip_code": "9550164",
    "prefecture": "新潟県",
    "prefecture_kana": "ニイガタケン",
    "prefecture_code": "15",
    "city": "三条市",
    "city_kana": "サンジョウシ",
    "town": "滝谷",
    "town_kana": "タキヤ",
    "street": null,
    "office_name": null,
    "office_name_kana": null
  },
  "0165": {
    "zip_code": "9550165",
    "prefecture": "新潟県",
    "prefecture_kana": "ニイガタケン",
    "prefecture_code": "15",
    "city": "三条市",
    "city_kana": "サンジョウシ",
    "town": "高屋敷",
    "town_kana": "タカヤシキ",
    "street": null,
    "office_name": null,
    "office_name_kana": null
  },
  "0166": {
    "zip_code": "9550166",
    "prefecture": "新潟県",
    "prefecture_kana": "ニイガタケン",
    "prefecture_code": "15",
    "city": "三条市",
    "city_kana": "サンジョウシ",
    "town": "上大浦",
    "town_kana": "カミオオウラ",
    "street": null,
    "office_name": null,
    "office_name_kana": null
  },
  "0167": {
    "zip_code": "9550167",
    "prefecture": "新潟県",
    "prefecture_kana": "ニイガタケン",
    "prefecture_code": "15",
    "city": "三条市",
    "city_kana": "サンジョウシ",
    "town": "馬場",
    "town_kana": "ババ",
    "street": null,
    "office_name": null,
    "office_name_kana": null
  },
  "0168": {
    "zip_code": "9550168",
    "prefecture": "新潟県",
    "prefecture_kana": "ニイガタケン",
    "prefecture_code": "15",
    "city": "三条市",
    "city_kana": "サンジョウシ",
    "town": "下大浦",
    "town_kana": "シモオオウラ",
    "street": null,
    "office_name": null,
    "office_name_kana": null
  },
  "0192": {
    "zip_code": "9550192",
    "prefecture": "新潟県",
    "prefecture_kana": "ニイガタケン",
    "prefecture_code": "15",
    "city": "三条市",
    "city_kana": "サンジョウシ",
    "town": "荻堀",
    "town_kana": "オギボリ",
    "street": "８３０−１",
    "office_name": "三条市役所　下田庁舎",
    "office_name_kana": "サンジヨウシヤクシヨ シタダチヨウシヤ"
  },
  "0801": {
    "zip_code": "9550801",
    "prefecture": "新潟県",
    "prefecture_kana": "ニイガタケン",
    "prefecture_code": "15",
    "city": "三条市",
    "city_kana": "サンジョウシ",
    "town": "諏訪",
    "town_kana": "スワ",
    "street": null,
    "office_name": null,
    "office_name_kana": null
  },
  "0803": {
    "zip_code": "9550803",
    "prefecture": "新潟県",
    "prefecture_kana": "ニイガタケン",
    "prefecture_code": "15",
    "city": "三条市",
    "city_kana": "サンジョウシ",
    "town": "月岡",
    "town_kana": "ツキオカ",
    "street": null,
    "office_name": null,
    "office_name_kana": null
  },
  "0804": {
    "zip_code": "9550804",
    "prefecture": "新潟県",
    "prefecture_kana": "ニイガタケン",
    "prefecture_code": "15",
    "city": "三条市",
    "city_kana": "サンジョウシ",
    "town": "如法寺",
    "town_kana": "ニョホウジ",
    "street": null,
    "office_name": null,
    "office_name_kana": null
  },
  "0805": {
    "zip_code": "9550805",
    "prefecture": "新潟県",
    "prefecture_kana": "ニイガタケン",
    "prefecture_code": "15",
    "city": "三条市",
    "city_kana": "サンジョウシ",
    "town": "吉田",
    "town_kana": "ヨシダ",
    "street": null,
    "office_name": null,
    "office_name_kana": null
  },
  "0806": {
    "zip_code": "9550806",
    "prefecture": "新潟県",
    "prefecture_kana": "ニイガタケン",
    "prefecture_code": "15",
    "city": "三条市",
    "city_kana": "サンジョウシ",
    "town": "長嶺",
    "town_kana": "ナガミネ",
    "street": null,
    "office_name": null,
    "office_name_kana": null
  },
  "0807": {
    "zip_code": "9550807",
    "prefecture": "新潟県",
    "prefecture_kana": "ニイガタケン",
    "prefecture_code": "15",
    "city": "三条市",
    "city_kana": "サンジョウシ",
    "town": "片口",
    "town_kana": "カタクチ",
    "street": null,
    "office_name": null,
    "office_name_kana": null
  },
  "0808": {
    "zip_code": "9550808",
    "prefecture": "新潟県",
    "prefecture_kana": "ニイガタケン",
    "prefecture_code": "15",
    "city": "三条市",
    "city_kana": "サンジョウシ",
    "town": "新保",
    "town_kana": "シンボ",
    "street": null,
    "office_name": null,
    "office_name_kana": null
  },
  "0811": {
    "zip_code": "9550811",
    "prefecture": "新潟県",
    "prefecture_kana": "ニイガタケン",
    "prefecture_code": "15",
    "city": "三条市",
    "city_kana": "サンジョウシ",
    "town": "南入蔵",
    "town_kana": "ミナミニュウグラ",
    "street": null,
    "office_name": null,
    "office_name_kana": null
  },
  "0812": {
    "zip_code": "9550812",
    "prefecture": "新潟県",
    "prefecture_kana": "ニイガタケン",
    "prefecture_code": "15",
    "city": "三条市",
    "city_kana": "サンジョウシ",
    "town": "入蔵新田",
    "town_kana": "ニュウグラシンデン",
    "street": null,
    "office_name": null,
    "office_name_kana": null
  },
  "0813": {
    "zip_code": "9550813",
    "prefecture": "新潟県",
    "prefecture_kana": "ニイガタケン",
    "prefecture_code": "15",
    "city": "三条市",
    "city_kana": "サンジョウシ",
    "town": "袋",
    "town_kana": "フクロ",
    "street": null,
    "office_name": null,
    "office_name_kana": null
  },
  "0814": {
    "zip_code": "9550814",
    "prefecture": "新潟県",
    "prefecture_kana": "ニイガタケン",
    "prefecture_code": "15",
    "city": "三条市",
    "city_kana": "サンジョウシ",
    "town": "金子新田",
    "town_kana": "カネコシンデン",
    "street": null,
    "office_name": null,
    "office_name_kana": null
  },
  "0815": {
    "zip_code": "9550815",
    "prefecture": "新潟県",
    "prefecture_kana": "ニイガタケン",
    "prefecture_code": "15",
    "city": "三条市",
    "city_kana": "サンジョウシ",
    "town": "西鱈田",
    "town_kana": "ニシタラダ",
    "street": null,
    "office_name": null,
    "office_name_kana": null
  },
  "0816": {
    "zip_code": "9550816",
    "prefecture": "新潟県",
    "prefecture_kana": "ニイガタケン",
    "prefecture_code": "15",
    "city": "三条市",
    "city_kana": "サンジョウシ",
    "town": "東鱈田",
    "town_kana": "ヒガシタラダ",
    "street": null,
    "office_name": null,
    "office_name_kana": null
  },
  "0818": {
    "zip_code": "9550818",
    "prefecture": "新潟県",
    "prefecture_kana": "ニイガタケン",
    "prefecture_code": "15",
    "city": "三条市",
    "city_kana": "サンジョウシ",
    "town": "枝郷",
    "town_kana": "エダゴウ",
    "street": null,
    "office_name": null,
    "office_name_kana": null
  },
  "0821": {
    "zip_code": "9550821",
    "prefecture": "新潟県",
    "prefecture_kana": "ニイガタケン",
    "prefecture_code": "15",
    "city": "三条市",
    "city_kana": "サンジョウシ",
    "town": "五明",
    "town_kana": "ゴミョウ",
    "street": null,
    "office_name": null,
    "office_name_kana": null
  },
  "0822": {
    "zip_code": "9550822",
    "prefecture": "新潟県",
    "prefecture_kana": "ニイガタケン",
    "prefecture_code": "15",
    "city": "三条市",
    "city_kana": "サンジョウシ",
    "town": "西中",
    "town_kana": "ニシナカ",
    "street": null,
    "office_name": null,
    "office_name_kana": null
  },
  "0823": {
    "zip_code": "9550823",
    "prefecture": "新潟県",
    "prefecture_kana": "ニイガタケン",
    "prefecture_code": "15",
    "city": "三条市",
    "city_kana": "サンジョウシ",
    "town": "東本成寺",
    "town_kana": "ヒガシホンジョウジ",
    "street": null,
    "office_name": null,
    "office_name_kana": null
  },
  "0824": {
    "zip_code": "9550824",
    "prefecture": "新潟県",
    "prefecture_kana": "ニイガタケン",
    "prefecture_code": "15",
    "city": "三条市",
    "city_kana": "サンジョウシ",
    "town": "下新田",
    "town_kana": "シモシンデン",
    "street": null,
    "office_name": null,
    "office_name_kana": null
  },
  "0831": {
    "zip_code": "9550831",
    "prefecture": "新潟県",
    "prefecture_kana": "ニイガタケン",
    "prefecture_code": "15",
    "city": "三条市",
    "city_kana": "サンジョウシ",
    "town": "土場",
    "town_kana": "ドバ",
    "street": null,
    "office_name": null,
    "office_name_kana": null
  },
  "0832": {
    "zip_code": "9550832",
    "prefecture": "新潟県",
    "prefecture_kana": "ニイガタケン",
    "prefecture_code": "15",
    "city": "三条市",
    "city_kana": "サンジョウシ",
    "town": "直江町",
    "town_kana": "スグエチョウ",
    "street": null,
    "office_name": null,
    "office_name_kana": null
  },
  "0833": {
    "zip_code": "9550833",
    "prefecture": "新潟県",
    "prefecture_kana": "ニイガタケン",
    "prefecture_code": "15",
    "city": "三条市",
    "city_kana": "サンジョウシ",
    "town": "大野畑",
    "town_kana": "オオノハタ",
    "street": null,
    "office_name": null,
    "office_name_kana": null
  },
  "0841": {
    "zip_code": "9550841",
    "prefecture": "新潟県",
    "prefecture_kana": "ニイガタケン",
    "prefecture_code": "15",
    "city": "三条市",
    "city_kana": "サンジョウシ",
    "town": "由利",
    "town_kana": "ユリ",
    "street": null,
    "office_name": null,
    "office_name_kana": null
  },
  "0842": {
    "zip_code": "9550842",
    "prefecture": "新潟県",
    "prefecture_kana": "ニイガタケン",
    "prefecture_code": "15",
    "city": "三条市",
    "city_kana": "サンジョウシ",
    "town": "島田",
    "town_kana": "シマダ",
    "street": null,
    "office_name": null,
    "office_name_kana": null
  },
  "0843": {
    "zip_code": "9550843",
    "prefecture": "新潟県",
    "prefecture_kana": "ニイガタケン",
    "prefecture_code": "15",
    "city": "三条市",
    "city_kana": "サンジョウシ",
    "town": "条南町",
    "town_kana": "ジョウナンマチ",
    "street": null,
    "office_name": null,
    "office_name_kana": null
  },
  "0844": {
    "zip_code": "9550844",
    "prefecture": "新潟県",
    "prefecture_kana": "ニイガタケン",
    "prefecture_code": "15",
    "city": "三条市",
    "city_kana": "サンジョウシ",
    "town": "桜木町",
    "town_kana": "サクラギチョウ",
    "street": null,
    "office_name": null,
    "office_name_kana": null
  },
  "0845": [
    {
      "zip_code": "9550845",
      "prefecture": "新潟県",
      "prefecture_kana": "ニイガタケン",
      "prefecture_code": "15",
      "city": "三条市",
      "city_kana": "サンジョウシ",
      "town": "西本成寺",
      "town_kana": "ニシホンジョウジ",
      "street": null,
      "office_name": null,
      "office_name_kana": null
    },
    {
      "zip_code": "9550845",
      "prefecture": "新潟県",
      "prefecture_kana": "ニイガタケン",
      "prefecture_code": "15",
      "city": "三条市",
      "city_kana": "サンジョウシ",
      "town": "緑ケ丘",
      "town_kana": "ミドリガオカ",
      "street": null,
      "office_name": null,
      "office_name_kana": null
    }
  ],
  "0851": {
    "zip_code": "9550851",
    "prefecture": "新潟県",
    "prefecture_kana": "ニイガタケン",
    "prefecture_code": "15",
    "city": "三条市",
    "city_kana": "サンジョウシ",
    "town": "西四日町",
    "town_kana": "ニシヨッカマチ",
    "street": null,
    "office_name": null,
    "office_name_kana": null
  },
  "0852": {
    "zip_code": "9550852",
    "prefecture": "新潟県",
    "prefecture_kana": "ニイガタケン",
    "prefecture_code": "15",
    "city": "三条市",
    "city_kana": "サンジョウシ",
    "town": "南四日町",
    "town_kana": "ミナミヨッカマチ",
    "street": null,
    "office_name": null,
    "office_name_kana": null
  },
  "0853": {
    "zip_code": "9550853",
    "prefecture": "新潟県",
    "prefecture_kana": "ニイガタケン",
    "prefecture_code": "15",
    "city": "三条市",
    "city_kana": "サンジョウシ",
    "town": "北四日町",
    "town_kana": "キタヨッカマチ",
    "street": null,
    "office_name": null,
    "office_name_kana": null
  },
  "0854": {
    "zip_code": "9550854",
    "prefecture": "新潟県",
    "prefecture_kana": "ニイガタケン",
    "prefecture_code": "15",
    "city": "三条市",
    "city_kana": "サンジョウシ",
    "town": "四日町",
    "town_kana": "ヨッカマチ",
    "street": null,
    "office_name": null,
    "office_name_kana": null
  },
  "0861": {
    "zip_code": "9550861",
    "prefecture": "新潟県",
    "prefecture_kana": "ニイガタケン",
    "prefecture_code": "15",
    "city": "三条市",
    "city_kana": "サンジョウシ",
    "town": "北新保",
    "town_kana": "キタシンボ",
    "street": null,
    "office_name": null,
    "office_name_kana": null
  },
  "0862": {
    "zip_code": "9550862",
    "prefecture": "新潟県",
    "prefecture_kana": "ニイガタケン",
    "prefecture_code": "15",
    "city": "三条市",
    "city_kana": "サンジョウシ",
    "town": "南新保",
    "town_kana": "ミナミシンボ",
    "street": null,
    "office_name": null,
    "office_name_kana": null
  },
  "0863": {
    "zip_code": "9550863",
    "prefecture": "新潟県",
    "prefecture_kana": "ニイガタケン",
    "prefecture_code": "15",
    "city": "三条市",
    "city_kana": "サンジョウシ",
    "town": "東新保",
    "town_kana": "ヒガシシンボ",
    "street": null,
    "office_name": null,
    "office_name_kana": null
  },
  "0864": {
    "zip_code": "9550864",
    "prefecture": "新潟県",
    "prefecture_kana": "ニイガタケン",
    "prefecture_code": "15",
    "city": "三条市",
    "city_kana": "サンジョウシ",
    "town": "曲渕",
    "town_kana": "マガリフチ",
    "street": null,
    "office_name": null,
    "office_name_kana": null
  },
  "8501": {
    "zip_code": "9558501",
    "prefecture": "新潟県",
    "prefecture_kana": "ニイガタケン",
    "prefecture_code": "15",
    "city": "三条市",
    "city_kana": "サンジョウシ",
    "town": "上須頃",
    "town_kana": "カミスゴロ",
    "street": "４４５",
    "office_name": "アークランドサカモト　株式会社",
    "office_name_kana": "ア-クランドサカモト カブシキガイシヤ"
  },
  "8503": {
    "zip_code": "9558503",
    "prefecture": "新潟県",
    "prefecture_kana": "ニイガタケン",
    "prefecture_code": "15",
    "city": "三条市",
    "city_kana": "サンジョウシ",
    "town": "鶴田",
    "town_kana": "ツルダ",
    "street": "３丁目２番１２号",
    "office_name": "清水商事　株式会社",
    "office_name_kana": "シミズシヨウジ カブシキガイシヤ"
  },
  "8505": {
    "zip_code": "9558505",
    "prefecture": "新潟県",
    "prefecture_kana": "ニイガタケン",
    "prefecture_code": "15",
    "city": "三条市",
    "city_kana": "サンジョウシ",
    "town": "月岡",
    "town_kana": "ツキオカ",
    "street": "字綾ノ前２７８３番地１",
    "office_name": "マルソー　株式会社",
    "office_name_kana": "マルソ- カブシキガイシヤ"
  },
  "8510": {
    "zip_code": "9558510",
    "prefecture": "新潟県",
    "prefecture_kana": "ニイガタケン",
    "prefecture_code": "15",
    "city": "三条市",
    "city_kana": "サンジョウシ",
    "town": "東新保",
    "town_kana": "ヒガシシンボ",
    "street": "７−７",
    "office_name": "株式会社　コロナ",
    "office_name_kana": "カブシキガイシヤ コロナ"
  },
  "8511": {
    "zip_code": "9558511",
    "prefecture": "新潟県",
    "prefecture_kana": "ニイガタケン",
    "prefecture_code": "15",
    "city": "三条市",
    "city_kana": "サンジョウシ",
    "town": "大野畑",
    "town_kana": "オオノハタ",
    "street": "６−１８",
    "office_name": "新潟県　済生会　三条病院",
    "office_name_kana": "ニイガタケン サイセイカイ サンジヨウビヨウイン"
  },
  "8543": {
    "zip_code": "9558543",
    "prefecture": "新潟県",
    "prefecture_kana": "ニイガタケン",
    "prefecture_code": "15",
    "city": "三条市",
    "city_kana": "サンジョウシ",
    "town": "一ノ門",
    "town_kana": "イチノモン",
    "street": "２丁目６−２８",
    "office_name": "大竹産業　株式会社",
    "office_name_kana": "オオタケサンギヨウ カブシキガイシヤ"
  },
  "8550": {
    "zip_code": "9558550",
    "prefecture": "新潟県",
    "prefecture_kana": "ニイガタケン",
    "prefecture_code": "15",
    "city": "三条市",
    "city_kana": "サンジョウシ",
    "town": "塚野目",
    "town_kana": "ツカノメ",
    "street": "２丁目３−２４",
    "office_name": "大竹オール　株式会社",
    "office_name_kana": "オオタケオ-ル カブシキガイシヤ"
  },
  "8555": {
    "zip_code": "9558555",
    "prefecture": "新潟県",
    "prefecture_kana": "ニイガタケン",
    "prefecture_code": "15",
    "city": "三条市",
    "city_kana": "サンジョウシ",
    "town": "塚野目",
    "town_kana": "ツカノメ",
    "street": "５丁目３−１２",
    "office_name": "株式会社　高敏",
    "office_name_kana": "カブシキガイシヤ タカトシ"
  },
  "8558": {
    "zip_code": "9558558",
    "prefecture": "新潟県",
    "prefecture_kana": "ニイガタケン",
    "prefecture_code": "15",
    "city": "三条市",
    "city_kana": "サンジョウシ",
    "town": "新保",
    "town_kana": "シンボ",
    "street": "２８０",
    "office_name": "トラスト中山　株式会社　新潟支店",
    "office_name_kana": "トラストナカヤマ カブシキガイシヤ ニイガタシテン"
  },
  "8567": [
    {
      "zip_code": "9558567",
      "prefecture": "新潟県",
      "prefecture_kana": "ニイガタケン",
      "prefecture_code": "15",
      "city": "三条市",
      "city_kana": "サンジョウシ",
      "town": "北入蔵",
      "town_kana": "キタニュウグラ",
      "street": "３丁目１０−２０",
      "office_name": "株式会社　柄長",
      "office_name_kana": "カブシキガイシヤ カラチヨウ"
    },
    {
      "zip_code": "9558567",
      "prefecture": "新潟県",
      "prefecture_kana": "ニイガタケン",
      "prefecture_code": "15",
      "city": "三条市",
      "city_kana": "サンジョウシ",
      "town": "北入蔵",
      "town_kana": "キタニュウグラ",
      "street": "３丁目１０−２０",
      "office_name": "株式会社　ハーモニック",
      "office_name_kana": "カブシキガイシヤ ハ-モニツク"
    }
  ],
  "8575": {
    "zip_code": "9558575",
    "prefecture": "新潟県",
    "prefecture_kana": "ニイガタケン",
    "prefecture_code": "15",
    "city": "三条市",
    "city_kana": "サンジョウシ",
    "town": "興野",
    "town_kana": "コウヤ",
    "street": "３丁目２−３",
    "office_name": "三条社会保険事務所",
    "office_name_kana": "サンジヨウシヤカイホケンジムシヨ"
  },
  "8577": {
    "zip_code": "9558577",
    "prefecture": "新潟県",
    "prefecture_kana": "ニイガタケン",
    "prefecture_code": "15",
    "city": "三条市",
    "city_kana": "サンジョウシ",
    "town": "興野",
    "town_kana": "コウヤ",
    "street": "３丁目１８−２１",
    "office_name": "シンワ測定　株式会社",
    "office_name_kana": "シンワソクテイ カブシキガイシヤ"
  },
  "8585": {
    "zip_code": "9558585",
    "prefecture": "新潟県",
    "prefecture_kana": "ニイガタケン",
    "prefecture_code": "15",
    "city": "三条市",
    "city_kana": "サンジョウシ",
    "town": "三柳",
    "town_kana": "ミツヤナギ",
    "street": "１３−１",
    "office_name": "パピー製販　株式会社",
    "office_name_kana": "パピ-セイハン カブシキガイシヤ"
  },
  "8588": {
    "zip_code": "9558588",
    "prefecture": "新潟県",
    "prefecture_kana": "ニイガタケン",
    "prefecture_code": "15",
    "city": "三条市",
    "city_kana": "サンジョウシ",
    "town": "五明",
    "town_kana": "ゴミョウ",
    "street": "１９０",
    "office_name": "パール金属　株式会社",
    "office_name_kana": "パ-ルキンゾク カブシキガイシヤ"
  },
  "8589": {
    "zip_code": "9558589",
    "prefecture": "新潟県",
    "prefecture_kana": "ニイガタケン",
    "prefecture_code": "15",
    "city": "三条市",
    "city_kana": "サンジョウシ",
    "town": "福島新田",
    "town_kana": "フクジマシンデン",
    "street": "丁６８１番地",
    "office_name": "丸喜重量運輸　株式会社",
    "office_name_kana": "マルキジユウリヨウウンユ カブシキガイシヤ"
  },
  "8601": {
    "zip_code": "9558601",
    "prefecture": "新潟県",
    "prefecture_kana": "ニイガタケン",
    "prefecture_code": "15",
    "city": "三条市",
    "city_kana": "サンジョウシ",
    "town": "一ノ門",
    "town_kana": "イチノモン",
    "street": "２丁目４−４５",
    "office_name": "川口工器　株式会社",
    "office_name_kana": "カワグチコウキ カブシキガイシヤ"
  },
  "8602": {
    "zip_code": "9558602",
    "prefecture": "新潟県",
    "prefecture_kana": "ニイガタケン",
    "prefecture_code": "15",
    "city": "三条市",
    "city_kana": "サンジョウシ",
    "town": "南新保",
    "town_kana": "ミナミシンボ",
    "street": "４−９（三条郵便局私書箱第７４号）",
    "office_name": "三条税務署",
    "office_name_kana": "サンジヨウゼイムシヨ"
  },
  "8603": {
    "zip_code": "9558603",
    "prefecture": "新潟県",
    "prefecture_kana": "ニイガタケン",
    "prefecture_code": "15",
    "city": "三条市",
    "city_kana": "サンジョウシ",
    "town": "須頃",
    "town_kana": "スゴロ",
    "street": "１丁目２０",
    "office_name": "三条商工会議所",
    "office_name_kana": "サンジヨウシヨウコウカイギシヨ"
  },
  "8612": {
    "zip_code": "9558612",
    "prefecture": "新潟県",
    "prefecture_kana": null,
    "prefecture_code": null,
    "city": "三条市",
    "city_kana": null,
    "town": "大字井戸場",
    "town_kana": null,
    "street": "５６８−６（三条郵便局私書箱第１００号）",
    "office_name": "株式会社　関マーク製作所",
    "office_name_kana": "カブシキガイシヤ セキマ-クセイサクシヨ"
  },
  "8655": {
    "zip_code": "9558655",
    "prefecture": "新潟県",
    "prefecture_kana": "ニイガタケン",
    "prefecture_code": "15",
    "city": "三条市",
    "city_kana": "サンジョウシ",
    "town": "塚野目",
    "town_kana": "ツカノメ",
    "street": "２３４１−１（三条郵便局私書箱第５９号）",
    "office_name": "株式会社　高儀",
    "office_name_kana": "カブシキガイシヤ タカギ"
  },
  "8666": {
    "zip_code": "9558666",
    "prefecture": "新潟県",
    "prefecture_kana": "ニイガタケン",
    "prefecture_code": "15",
    "city": "三条市",
    "city_kana": "サンジョウシ",
    "town": "旭町",
    "town_kana": "アサヒチョウ",
    "street": "２丁目５−１０（三条郵便局私書箱第６１号）",
    "office_name": "三条信用金庫",
    "office_name_kana": "サンジヨウシンヨウキンコ"
  },
  "8677": {
    "zip_code": "9558677",
    "prefecture": "新潟県",
    "prefecture_kana": "ニイガタケン",
    "prefecture_code": "15",
    "city": "三条市",
    "city_kana": "サンジョウシ",
    "town": "南四日町",
    "town_kana": "ミナミヨッカマチ",
    "street": "４丁目８−１８",
    "office_name": "高森コーキ　株式会社",
    "office_name_kana": "タカモリコ-キ カブシキガイシヤ"
  },
  "8678": {
    "zip_code": "9558678",
    "prefecture": "新潟県",
    "prefecture_kana": "ニイガタケン",
    "prefecture_code": "15",
    "city": "三条市",
    "city_kana": "サンジョウシ",
    "town": "塚野目",
    "town_kana": "ツカノメ",
    "street": "２１９０−５（三条郵便局私書箱第１３７号）",
    "office_name": "トップ工業　株式会社",
    "office_name_kana": "トツプコウギヨウ カブシキガイシヤ"
  },
  "8686": {
    "zip_code": "9558686",
    "prefecture": "新潟県",
    "prefecture_kana": "ニイガタケン",
    "prefecture_code": "15",
    "city": "三条市",
    "city_kana": "サンジョウシ",
    "town": "旭町",
    "town_kana": "アサヒチョウ",
    "street": "２丁目３−１（三条郵便局私書箱第１０５号）",
    "office_name": "三条市役所",
    "office_name_kana": "サンジヨウシヤクシヨ"
  },
  "8688": {
    "zip_code": "9558688",
    "prefecture": "新潟県",
    "prefecture_kana": "ニイガタケン",
    "prefecture_code": "15",
    "city": "三条市",
    "city_kana": "サンジョウシ",
    "town": "直江町",
    "town_kana": "スグエチョウ",
    "street": "４丁目４−５（三条郵便局私書箱第１４２号）",
    "office_name": "三恵　株式会社",
    "office_name_kana": "サンケイ カブシキガイシヤ"
  }
}