{
  "0000": {
    "zip_code": "9700000",
    "prefecture": "福島県",
    "prefecture_kana": "フクシマケン",
    "prefecture_code": "7",
    "city": "いわき市",
    "city_kana": "イワキシ",
    "town": "",
    "town_kana": "",
    "street": null,
    "office_name": null,
    "office_name_kana": null
  },
  "0101": {
    "zip_code": "9700101",
    "prefecture": "福島県",
    "prefecture_kana": "フクシマケン",
    "prefecture_code": "7",
    "city": "いわき市",
    "city_kana": "イワキシ",
    "town": "平下神谷",
    "town_kana": "タイラシモカベヤ",
    "street": null,
    "office_name": null,
    "office_name_kana": null
  },
  "0102": {
    "zip_code": "9700102",
    "prefecture": "福島県",
    "prefecture_kana": "フクシマケン",
    "prefecture_code": "7",
    "city": "いわき市",
    "city_kana": "イワキシ",
    "town": "平下大越",
    "town_kana": "タイラシモオオゴエ",
    "street": null,
    "office_name": null,
    "office_name_kana": null
  },
  "0103": {
    "zip_code": "9700103",
    "prefecture": "福島県",
    "prefecture_kana": "フクシマケン",
    "prefecture_code": "7",
    "city": "いわき市",
    "city_kana": "イワキシ",
    "town": "平藤間",
    "town_kana": "タイラフジマ",
    "street": null,
    "office_name": null,
    "office_name_kana": null
  },
  "0104": {
    "zip_code": "9700104",
    "prefecture": "福島県",
    "prefecture_kana": "フクシマケン",
    "prefecture_code": "7",
    "city": "いわき市",
    "city_kana": "イワキシ",
    "town": "平上大越",
    "town_kana": "タイラカミオオゴエ",
    "street": null,
    "office_name": null,
    "office_name_kana": null
  },
  "0105": {
    "zip_code": "9700105",
    "prefecture": "福島県",
    "prefecture_kana": "フクシマケン",
    "prefecture_code": "7",
    "city": "いわき市",
    "city_kana": "イワキシ",
    "town": "平菅波",
    "town_kana": "タイラスギナミ",
    "street": null,
    "office_name": null,
    "office_name_kana": null
  },
  "0106": {
    "zip_code": "9700106",
    "prefecture": "福島県",
    "prefecture_kana": "フクシマケン",
    "prefecture_code": "7",
    "city": "いわき市",
    "city_kana": "イワキシ",
    "town": "平山崎",
    "town_kana": "タイラヤマザキ",
    "street": null,
    "office_name": null,
    "office_name_kana": null
  },
  "0107": {
    "zip_code": "9700107",
    "prefecture": "福島県",
    "prefecture_kana": "フクシマケン",
    "prefecture_code": "7",
    "city": "いわき市",
    "city_kana": "イワキシ",
    "town": "平荒田目",
    "town_kana": "タイラアッタメ",
    "street": null,
    "office_name": null,
    "office_name_kana": null
  },
  "0111": {
    "zip_code": "9700111",
    "prefecture": "福島県",
    "prefecture_kana": "フクシマケン",
    "prefecture_code": "7",
    "city": "いわき市",
    "city_kana": "イワキシ",
    "town": "平原高野",
    "town_kana": "タイラハラゴヤ",
    "street": null,
    "office_name": null,
    "office_name_kana": null
  },
  "0112": {
    "zip_code": "9700112",
    "prefecture": "福島県",
    "prefecture_kana": "フクシマケン",
    "prefecture_code": "7",
    "city": "いわき市",
    "city_kana": "イワキシ",
    "town": "平泉崎",
    "town_kana": "タイライズミザキ",
    "street": null,
    "office_name": null,
    "office_name_kana": null
  },
  "0113": {
    "zip_code": "9700113",
    "prefecture": "福島県",
    "prefecture_kana": "フクシマケン",
    "prefecture_code": "7",
    "city": "いわき市",
    "city_kana": "イワキシ",
    "town": "平絹谷",
    "town_kana": "タイラキヌヤ",
    "street": null,
    "office_name": null,
    "office_name_kana": null
  },
  "0114": {
    "zip_code": "9700114",
    "prefecture": "福島県",
    "prefecture_kana": "フクシマケン",
    "prefecture_code": "7",
    "city": "いわき市",
    "city_kana": "イワキシ",
    "town": "平水品",
    "town_kana": "タイラミズシナ",
    "street": null,
    "office_name": null,
    "office_name_kana": null
  },
  "0115": {
    "zip_code": "9700115",
    "prefecture": "福島県",
    "prefecture_kana": "フクシマケン",
    "prefecture_code": "7",
    "city": "いわき市",
    "city_kana": "イワキシ",
    "town": "平北神谷",
    "town_kana": "タイラキタカベヤ",
    "street": null,
    "office_name": null,
    "office_name_kana": null
  },
  "0116": {
    "zip_code": "9700116",
    "prefecture": "福島県",
    "prefecture_kana": "フクシマケン",
    "prefecture_code": "7",
    "city": "いわき市",
    "city_kana": "イワキシ",
    "town": "平馬目",
    "town_kana": "タイラマノメ",
    "street": null,
    "office_name": null,
    "office_name_kana": null
  },
  "0221": {
    "zip_code": "9700221",
    "prefecture": "福島県",
    "prefecture_kana": "フクシマケン",
    "prefecture_code": "7",
    "city": "いわき市",
    "city_kana": "イワキシ",
    "town": "平下高久",
    "town_kana": "タイラシモタカク",
    "street": null,
    "office_name": null,
    "office_name_kana": null
  },
  "0222": [
    {
      "zip_code": "9700222",
      "prefecture": "福島県",
      "prefecture_kana": "フクシマケン",
      "prefecture_code": "7",
      "city": "いわき市",
      "city_kana": "イワキシ",
      "town": "平沼ノ内",
      "town_kana": "タイラヌマノウチ",
      "street": null,
      "office_name": null,
      "office_name_kana": null
    },
    {
      "zip_code": "9700222",
      "prefecture": "福島県",
      "prefecture_kana": "フクシマケン",
      "prefecture_code": "7",
      "city": "いわき市",
      "city_kana": "イワキシ",
      "town": "平沼ノ内諏訪原",
      "town_kana": "タイラヌマノウチスワハラ",
      "street": null,
      "office_name": null,
      "office_name_kana": null
    }
  ],
  "0223": {
    "zip_code": "9700223",
    "prefecture": "福島県",
    "prefecture_kana": "フクシマケン",
    "prefecture_code": "7",
    "city": "いわき市",
    "city_kana": "イワキシ",
    "town": "平薄磯",
    "town_kana": "タイラウスイソ",
    "street": null,
    "office_name": null,
    "office_name_kana": null
  },
  "0224": {
    "zip_code": "9700224",
    "prefecture": "福島県",
    "prefecture_kana": "フクシマケン",
    "prefecture_code": "7",
    "city": "いわき市",
    "city_kana": "イワキシ",
    "town": "平豊間",
    "town_kana": "タイラトヨマ",
    "street": null,
    "office_name": null,
    "office_name_kana": null
  },
  "0225": {
    "zip_code": "9700225",
    "prefecture": "福島県",
    "prefecture_kana": "フクシマケン",
    "prefecture_code": "7",
    "city": "いわき市",
    "city_kana": "イワキシ",
    "town": "平上山口",
    "town_kana": "タイラカミヤマグチ",
    "street": null,
    "office_name": null,
    "office_name_kana": null
  },
  "0226": {
    "zip_code": "9700226",
    "prefecture": "福島県",
    "prefecture_kana": "フクシマケン",
    "prefecture_code": "7",
    "city": "いわき市",
    "city_kana": "イワキシ",
    "town": "平下山口",
    "town_kana": "タイラシモヤマグチ",
    "street": null,
    "office_name": null,
    "office_name_kana": null
  },
  "0227": {
    "zip_code": "9700227",
    "prefecture": "福島県",
    "prefecture_kana": "フクシマケン",
    "prefecture_code": "7",
    "city": "いわき市",
    "city_kana": "イワキシ",
    "town": "平鶴ケ井",
    "town_kana": "タイラツルガイ",
    "street": null,
    "office_name": null,
    "office_name_kana": null
  },
  "0228": {
    "zip_code": "9700228",
    "prefecture": "福島県",
    "prefecture_kana": "フクシマケン",
    "prefecture_code": "7",
    "city": "いわき市",
    "city_kana": "イワキシ",
    "town": "平神谷作",
    "town_kana": "タイラカミヤサク",
    "street": null,
    "office_name": null,
    "office_name_kana": null
  },
  "0311": {
    "zip_code": "9700311",
    "prefecture": "福島県",
    "prefecture_kana": "フクシマケン",
    "prefecture_code": "7",
    "city": "いわき市",
    "city_kana": "イワキシ",
    "town": "江名",
    "town_kana": "エナ",
    "street": null,
    "office_name": null,
    "office_name_kana": null
  },
  "0312": {
    "zip_code": "9700312",
    "prefecture": "福島県",
    "prefecture_kana": "フクシマケン",
    "prefecture_code": "7",
    "city": "いわき市",
    "city_kana": "イワキシ",
    "town": "折戸",
    "town_kana": "オリト",
    "street": null,
    "office_name": null,
    "office_name_kana": null
  },
  "0313": {
    "zip_code": "9700313",
    "prefecture": "福島県",
    "prefecture_kana": "フクシマケン",
    "prefecture_code": "7",
    "city": "いわき市",
    "city_kana": "イワキシ",
    "town": "中之作",
    "town_kana": "ナカノサク",
    "street": null,
    "office_name": null,
    "office_name_kana": null
  },
  "0314": {
    "zip_code": "9700314",
    "prefecture": "福島県",
    "prefecture_kana": "フクシマケン",
    "prefecture_code": "7",
    "city": "いわき市",
    "city_kana": "イワキシ",
    "town": "洋向台",
    "town_kana": "ヨウコウダイ",
    "street": null,
    "office_name": null,
    "office_name_kana": null
  },
  "0315": {
    "zip_code": "9700315",
    "prefecture": "福島県",
    "prefecture_kana": "フクシマケン",
    "prefecture_code": "7",
    "city": "いわき市",
    "city_kana": "イワキシ",
    "town": "永崎",
    "town_kana": "ナガサキ",
    "street": null,
    "office_name": null,
    "office_name_kana": null
  },
  "0316": {
    "zip_code": "9700316",
    "prefecture": "福島県",
    "prefecture_kana": "フクシマケン",
    "prefecture_code": "7",
    "city": "いわき市",
    "city_kana": "イワキシ",
    "town": "小名浜下神白",
    "town_kana": "オナハマシモカジロ",
    "street": null,
    "office_name": null,
    "office_name_kana": null
  },
  "0317": {
    "zip_code": "9700317",
    "prefecture": "福島県",
    "prefecture_kana": "フクシマケン",
    "prefecture_code": "7",
    "city": "いわき市",
    "city_kana": "イワキシ",
    "town": "小名浜上神白",
    "town_kana": "オナハマカミカジロ",
    "street": null,
    "office_name": null,
    "office_name_kana": null
  },
  "1141": {
    "zip_code": "9701141",
    "prefecture": "福島県",
    "prefecture_kana": "フクシマケン",
    "prefecture_code": "7",
    "city": "いわき市",
    "city_kana": "イワキシ",
    "town": "好間町愛谷",
    "town_kana": "ヨシママチアイヤ",
    "street": null,
    "office_name": null,
    "office_name_kana": null
  },
  "1142": {
    "zip_code": "9701142",
    "prefecture": "福島県",
    "prefecture_kana": "フクシマケン",
    "prefecture_code": "7",
    "city": "いわき市",
    "city_kana": "イワキシ",
    "town": "好間町今新田",
    "town_kana": "ヨシママチイマニイダ",
    "street": null,
    "office_name": null,
    "office_name_kana": null
  },
  "1143": {
    "zip_code": "9701143",
    "prefecture": "福島県",
    "prefecture_kana": "フクシマケン",
    "prefecture_code": "7",
    "city": "いわき市",
    "city_kana": "イワキシ",
    "town": "好間町小谷作",
    "town_kana": "ヨシママチオヤサク",
    "street": null,
    "office_name": null,
    "office_name_kana": null
  },
  "1144": {
    "zip_code": "9701144",
    "prefecture": "福島県",
    "prefecture_kana": "フクシマケン",
    "prefecture_code": "7",
    "city": "いわき市",
    "city_kana": "イワキシ",
    "town": "好間工業団地",
    "town_kana": "ヨシマコウギョウダンチ",
    "street": null,
    "office_name": null,
    "office_name_kana": null
  },
  "1145": {
    "zip_code": "9701145",
    "prefecture": "福島県",
    "prefecture_kana": "フクシマケン",
    "prefecture_code": "7",
    "city": "いわき市",
    "city_kana": "イワキシ",
    "town": "好間町北好間",
    "town_kana": "ヨシママチキタヨシマ",
    "street": null,
    "office_name": null,
    "office_name_kana": null
  },
  "1146": {
    "zip_code": "9701146",
    "prefecture": "福島県",
    "prefecture_kana": "フクシマケン",
    "prefecture_code": "7",
    "city": "いわき市",
    "city_kana": "イワキシ",
    "town": "好間町榊小屋",
    "town_kana": "ヨシママチサカキゴヤ",
    "street": null,
    "office_name": null,
    "office_name_kana": null
  },
  "1147": {
    "zip_code": "9701147",
    "prefecture": "福島県",
    "prefecture_kana": "フクシマケン",
    "prefecture_code": "7",
    "city": "いわき市",
    "city_kana": "イワキシ",
    "town": "好間町大利",
    "town_kana": "ヨシママチオオリ",
    "street": null,
    "office_name": null,
    "office_name_kana": null
  },
  "1151": {
    "zip_code": "9701151",
    "prefecture": "福島県",
    "prefecture_kana": "フクシマケン",
    "prefecture_code": "7",
    "city": "いわき市",
    "city_kana": "イワキシ",
    "town": "好間町下好間",
    "town_kana": "ヨシママチシモヨシマ",
    "street": null,
    "office_name": null,
    "office_name_kana": null
  },
  "1152": {
    "zip_code": "9701152",
    "prefecture": "福島県",
    "prefecture_kana": "フクシマケン",
    "prefecture_code": "7",
    "city": "いわき市",
    "city_kana": "イワキシ",
    "town": "好間町中好間",
    "town_kana": "ヨシママチナカヨシマ",
    "street": null,
    "office_name": null,
    "office_name_kana": null
  },
  "1153": {
    "zip_code": "9701153",
    "prefecture": "福島県",
    "prefecture_kana": "フクシマケン",
    "prefecture_code": "7",
    "city": "いわき市",
    "city_kana": "イワキシ",
    "town": "好間町上好間",
    "town_kana": "ヨシママチカミヨシマ",
    "street": null,
    "office_name": null,
    "office_name_kana": null
  },
  "1192": {
    "zip_code": "9701192",
    "prefecture": "福島県",
    "prefecture_kana": "フクシマケン",
    "prefecture_code": "7",
    "city": "いわき市",
    "city_kana": "イワキシ",
    "town": "好間工業団地",
    "town_kana": "ヨシマコウギョウダンチ",
    "street": "２０−１",
    "office_name": "アルパイン　株式会社　いわき事業所",
    "office_name_kana": "アルパイン カブシキガイシヤ イワキジギヨウシヨ"
  },
  "1193": {
    "zip_code": "9701193",
    "prefecture": "福島県",
    "prefecture_kana": "フクシマケン",
    "prefecture_code": "7",
    "city": "いわき市",
    "city_kana": "イワキシ",
    "town": "好間町小谷作",
    "town_kana": "ヨシママチオヤサク",
    "street": "字作畑３９−１",
    "office_name": "アルプス電気　株式会社　ペリフェラル事業部　平工場",
    "office_name_kana": "アルプスデンキ カブシキガイシヤ ペリフエラルジギヨウブ タイラコウジヨウ"
  },
  "1194": {
    "zip_code": "9701194",
    "prefecture": "福島県",
    "prefecture_kana": "フクシマケン",
    "prefecture_code": "7",
    "city": "いわき市",
    "city_kana": "イワキシ",
    "town": "好間町中好間",
    "town_kana": "ヨシママチナカヨシマ",
    "street": "字鍛冶内２８−２",
    "office_name": "有限会社　長久保食品",
    "office_name_kana": "ユウゲンガイシヤ ナガクボシヨクヒン"
  },
  "1261": {
    "zip_code": "9701261",
    "prefecture": "福島県",
    "prefecture_kana": "フクシマケン",
    "prefecture_code": "7",
    "city": "いわき市",
    "city_kana": "イワキシ",
    "town": "三和町渡戸",
    "town_kana": "ミワマチワタド",
    "street": null,
    "office_name": null,
    "office_name_kana": null
  },
  "1262": {
    "zip_code": "9701262",
    "prefecture": "福島県",
    "prefecture_kana": "フクシマケン",
    "prefecture_code": "7",
    "city": "いわき市",
    "city_kana": "イワキシ",
    "town": "三和町上永井",
    "town_kana": "ミワマチカミナガイ",
    "street": null,
    "office_name": null,
    "office_name_kana": null
  },
  "1263": {
    "zip_code": "9701263",
    "prefecture": "福島県",
    "prefecture_kana": "フクシマケン",
    "prefecture_code": "7",
    "city": "いわき市",
    "city_kana": "イワキシ",
    "town": "三和町下永井",
    "town_kana": "ミワマチシモナガイ",
    "street": null,
    "office_name": null,
    "office_name_kana": null
  },
  "1264": {
    "zip_code": "9701264",
    "prefecture": "福島県",
    "prefecture_kana": "フクシマケン",
    "prefecture_code": "7",
    "city": "いわき市",
    "city_kana": "イワキシ",
    "town": "三和町合戸",
    "town_kana": "ミワマチゴウド",
    "street": null,
    "office_name": null,
    "office_name_kana": null
  },
  "1361": [
    {
      "zip_code": "9701361",
      "prefecture": "福島県",
      "prefecture_kana": "フクシマケン",
      "prefecture_code": "7",
      "city": "いわき市",
      "city_kana": "イワキシ",
      "town": "三和町渡戸",
      "town_kana": "ミワマチワタド",
      "street": null,
      "office_name": null,
      "office_name_kana": null
    },
    {
      "zip_code": "9701361",
      "prefecture": "福島県",
      "prefecture_kana": "フクシマケン",
      "prefecture_code": "7",
      "city": "いわき市",
      "city_kana": "イワキシ",
      "town": "三和町渡戸川前",
      "town_kana": "ミワマチワタドカワマエ",
      "street": null,
      "office_name": null,
      "office_name_kana": null
    }
  ],
  "1371": {
    "zip_code": "9701371",
    "prefecture": "福島県",
    "prefecture_kana": "フクシマケン",
    "prefecture_code": "7",
    "city": "いわき市",
    "city_kana": "イワキシ",
    "town": "三和町中寺",
    "town_kana": "ミワマチナカデラ",
    "street": null,
    "office_name": null,
    "office_name_kana": null
  },
  "1372": {
    "zip_code": "9701372",
    "prefecture": "福島県",
    "prefecture_kana": "フクシマケン",
    "prefecture_code": "7",
    "city": "いわき市",
    "city_kana": "イワキシ",
    "town": "三和町下市萱",
    "town_kana": "ミワマチシモイチガヤ",
    "street": null,
    "office_name": null,
    "office_name_kana": null
  },
  "1373": {
    "zip_code": "9701373",
    "prefecture": "福島県",
    "prefecture_kana": "フクシマケン",
    "prefecture_code": "7",
    "city": "いわき市",
    "city_kana": "イワキシ",
    "town": "三和町上市萱",
    "town_kana": "ミワマチカミイチガヤ",
    "street": null,
    "office_name": null,
    "office_name_kana": null
  },
  "1374": {
    "zip_code": "9701374",
    "prefecture": "福島県",
    "prefecture_kana": "フクシマケン",
    "prefecture_code": "7",
    "city": "いわき市",
    "city_kana": "イワキシ",
    "town": "三和町上三坂",
    "town_kana": "ミワマチカミミサカ",
    "street": null,
    "office_name": null,
    "office_name_kana": null
  },
  "1375": {
    "zip_code": "9701375",
    "prefecture": "福島県",
    "prefecture_kana": "フクシマケン",
    "prefecture_code": "7",
    "city": "いわき市",
    "city_kana": "イワキシ",
    "town": "三和町中三坂",
    "town_kana": "ミワマチナカミサカ",
    "street": null,
    "office_name": null,
    "office_name_kana": null
  },
  "1376": {
    "zip_code": "9701376",
    "prefecture": "福島県",
    "prefecture_kana": "フクシマケン",
    "prefecture_code": "7",
    "city": "いわき市",
    "city_kana": "イワキシ",
    "town": "三和町下三坂",
    "town_kana": "ミワマチシモミサカ",
    "street": null,
    "office_name": null,
    "office_name_kana": null
  },
  "1377": {
    "zip_code": "9701377",
    "prefecture": "福島県",
    "prefecture_kana": "フクシマケン",
    "prefecture_code": "7",
    "city": "いわき市",
    "city_kana": "イワキシ",
    "town": "三和町差塩",
    "town_kana": "ミワマチサイソ",
    "street": null,
    "office_name": null,
    "office_name_kana": null
  },
  "8001": {
    "zip_code": "9708001",
    "prefecture": "福島県",
    "prefecture_kana": "フクシマケン",
    "prefecture_code": "7",
    "city": "いわき市",
    "city_kana": "イワキシ",
    "town": "平上平窪",
    "town_kana": "タイラカミヒラクボ",
    "street": null,
    "office_name": null,
    "office_name_kana": null
  },
  "8002": {
    "zip_code": "9708002",
    "prefecture": "福島県",
    "prefecture_kana": "フクシマケン",
    "prefecture_code": "7",
    "city": "いわき市",
    "city_kana": "イワキシ",
    "town": "平中平窪",
    "town_kana": "タイラナカヒラクボ",
    "street": null,
    "office_name": null,
    "office_name_kana": null
  },
  "8003": {
    "zip_code": "9708003",
    "prefecture": "福島県",
    "prefecture_kana": "フクシマケン",
    "prefecture_code": "7",
    "city": "いわき市",
    "city_kana": "イワキシ",
    "town": "平下平窪",
    "town_kana": "タイラシモヒラクボ",
    "street": null,
    "office_name": null,
    "office_name_kana": null
  },
  "8004": {
    "zip_code": "9708004",
    "prefecture": "福島県",
    "prefecture_kana": "フクシマケン",
    "prefecture_code": "7",
    "city": "いわき市",
    "city_kana": "イワキシ",
    "town": "平下平窪中島町",
    "town_kana": "タイラシモヒラクボナカジマチョウ",
    "street": null,
    "office_name": null,
    "office_name_kana": null
  },
  "8005": {
    "zip_code": "9708005",
    "prefecture": "福島県",
    "prefecture_kana": "フクシマケン",
    "prefecture_code": "7",
    "city": "いわき市",
    "city_kana": "イワキシ",
    "town": "平下平窪古川町",
    "town_kana": "タイラシモヒラクボフルカワチョウ",
    "street": null,
    "office_name": null,
    "office_name_kana": null
  },
  "8006": {
    "zip_code": "9708006",
    "prefecture": "福島県",
    "prefecture_kana": "フクシマケン",
    "prefecture_code": "7",
    "city": "いわき市",
    "city_kana": "イワキシ",
    "town": "平下平窪山土内町",
    "town_kana": "タイラシモヒラクボヤマドウチマチ",
    "street": null,
    "office_name": null,
    "office_name_kana": null
  },
  "8007": {
    "zip_code": "9708007",
    "prefecture": "福島県",
    "prefecture_kana": "フクシマケン",
    "prefecture_code": "7",
    "city": "いわき市",
    "city_kana": "イワキシ",
    "town": "平中平窪新町",
    "town_kana": "タイラナカヒラクボシンマチ",
    "street": null,
    "office_name": null,
    "office_name_kana": null
  },
  "8008": {
    "zip_code": "9708008",
    "prefecture": "福島県",
    "prefecture_kana": "フクシマケン",
    "prefecture_code": "7",
    "city": "いわき市",
    "city_kana": "イワキシ",
    "town": "平中平窪細田町",
    "town_kana": "タイラナカヒラクボホソダマチ",
    "street": null,
    "office_name": null,
    "office_name_kana": null
  },
  "8011": {
    "zip_code": "9708011",
    "prefecture": "福島県",
    "prefecture_kana": "フクシマケン",
    "prefecture_code": "7",
    "city": "いわき市",
    "city_kana": "イワキシ",
    "town": "平上片寄",
    "town_kana": "タイラカミカタヨセ",
    "street": null,
    "office_name": null,
    "office_name_kana": null
  },
  "8012": {
    "zip_code": "9708012",
    "prefecture": "福島県",
    "prefecture_kana": "フクシマケン",
    "prefecture_code": "7",
    "city": "いわき市",
    "city_kana": "イワキシ",
    "town": "平下片寄",
    "town_kana": "タイラシモカタヨセ",
    "street": null,
    "office_name": null,
    "office_name_kana": null
  },
  "8013": {
    "zip_code": "9708013",
    "prefecture": "福島県",
    "prefecture_kana": "フクシマケン",
    "prefecture_code": "7",
    "city": "いわき市",
    "city_kana": "イワキシ",
    "town": "平大室",
    "town_kana": "タイラオオムロ",
    "street": null,
    "office_name": null,
    "office_name_kana": null
  },
  "8014": {
    "zip_code": "9708014",
    "prefecture": "福島県",
    "prefecture_kana": "フクシマケン",
    "prefecture_code": "7",
    "city": "いわき市",
    "city_kana": "イワキシ",
    "town": "平幕ノ内",
    "town_kana": "タイラマクノウチ",
    "street": null,
    "office_name": null,
    "office_name_kana": null
  },
  "8015": {
    "zip_code": "9708015",
    "prefecture": "福島県",
    "prefecture_kana": "フクシマケン",
    "prefecture_code": "7",
    "city": "いわき市",
    "city_kana": "イワキシ",
    "town": "好間町川中子",
    "town_kana": "ヨシママチカワナゴ",
    "street": null,
    "office_name": null,
    "office_name_kana": null
  },
  "8016": {
    "zip_code": "9708016",
    "prefecture": "福島県",
    "prefecture_kana": "フクシマケン",
    "prefecture_code": "7",
    "city": "いわき市",
    "city_kana": "イワキシ",
    "town": "平中塩",
    "town_kana": "タイラナカシオ",
    "street": null,
    "office_name": null,
    "office_name_kana": null
  },
  "8017": {
    "zip_code": "9708017",
    "prefecture": "福島県",
    "prefecture_kana": "フクシマケン",
    "prefecture_code": "7",
    "city": "いわき市",
    "city_kana": "イワキシ",
    "town": "石森",
    "town_kana": "イシモリ",
    "street": null,
    "office_name": null,
    "office_name_kana": null
  },
  "8018": {
    "zip_code": "9708018",
    "prefecture": "福島県",
    "prefecture_kana": "フクシマケン",
    "prefecture_code": "7",
    "city": "いわき市",
    "city_kana": "イワキシ",
    "town": "平四ツ波",
    "town_kana": "タイラヨツナミ",
    "street": null,
    "office_name": null,
    "office_name_kana": null
  },
  "8021": {
    "zip_code": "9708021",
    "prefecture": "福島県",
    "prefecture_kana": "フクシマケン",
    "prefecture_code": "7",
    "city": "いわき市",
    "city_kana": "イワキシ",
    "town": "平中神谷",
    "town_kana": "タイラナカカベヤ",
    "street": null,
    "office_name": null,
    "office_name_kana": null
  },
  "8022": {
    "zip_code": "9708022",
    "prefecture": "福島県",
    "prefecture_kana": "フクシマケン",
    "prefecture_code": "7",
    "city": "いわき市",
    "city_kana": "イワキシ",
    "town": "平塩",
    "town_kana": "タイラシオ",
    "street": null,
    "office_name": null,
    "office_name_kana": null
  },
  "8023": {
    "zip_code": "9708023",
    "prefecture": "福島県",
    "prefecture_kana": "フクシマケン",
    "prefecture_code": "7",
    "city": "いわき市",
    "city_kana": "イワキシ",
    "town": "平鎌田",
    "town_kana": "タイラカマタ",
    "street": null,
    "office_name": null,
    "office_name_kana": null
  },
  "8024": {
    "zip_code": "9708024",
    "prefecture": "福島県",
    "prefecture_kana": "フクシマケン",
    "prefecture_code": "7",
    "city": "いわき市",
    "city_kana": "イワキシ",
    "town": "平北白土",
    "town_kana": "タイラキタシラド",
    "street": null,
    "office_name": null,
    "office_name_kana": null
  },
  "8025": {
    "zip_code": "9708025",
    "prefecture": "福島県",
    "prefecture_kana": "フクシマケン",
    "prefecture_code": "7",
    "city": "いわき市",
    "city_kana": "イワキシ",
    "town": "平南白土",
    "town_kana": "タイラミナミシラド",
    "street": null,
    "office_name": null,
    "office_name_kana": null
  },
  "8026": {
    "zip_code": "9708026",
    "prefecture": "福島県",
    "prefecture_kana": "フクシマケン",
    "prefecture_code": "7",
    "city": "いわき市",
    "city_kana": "イワキシ",
    "town": "平",
    "town_kana": "タイラ",
    "street": null,
    "office_name": null,
    "office_name_kana": null
  },
  "8027": {
    "zip_code": "9708027",
    "prefecture": "福島県",
    "prefecture_kana": "フクシマケン",
    "prefecture_code": "7",
    "city": "いわき市",
    "city_kana": "イワキシ",
    "town": "平鯨岡",
    "town_kana": "タイラクジラオカ",
    "street": null,
    "office_name": null,
    "office_name_kana": null
  },
  "8028": {
    "zip_code": "9708028",
    "prefecture": "福島県",
    "prefecture_kana": "フクシマケン",
    "prefecture_code": "7",
    "city": "いわき市",
    "city_kana": "イワキシ",
    "town": "平上神谷",
    "town_kana": "タイラカミカベヤ",
    "street": null,
    "office_name": null,
    "office_name_kana": null
  },
  "8031": {
    "zip_code": "9708031",
    "prefecture": "福島県",
    "prefecture_kana": "フクシマケン",
    "prefecture_code": "7",
    "city": "いわき市",
    "city_kana": "イワキシ",
    "town": "平中山",
    "town_kana": "タイラナカヤマ",
    "street": null,
    "office_name": null,
    "office_name_kana": null
  },
  "8032": {
    "zip_code": "9708032",
    "prefecture": "福島県",
    "prefecture_kana": "フクシマケン",
    "prefecture_code": "7",
    "city": "いわき市",
    "city_kana": "イワキシ",
    "town": "平下荒川",
    "town_kana": "タイラシモアラカワ",
    "street": null,
    "office_name": null,
    "office_name_kana": null
  },
  "8033": {
    "zip_code": "9708033",
    "prefecture": "福島県",
    "prefecture_kana": "フクシマケン",
    "prefecture_code": "7",
    "city": "いわき市",
    "city_kana": "イワキシ",
    "town": "自由ケ丘",
    "town_kana": "ジュウガオカ",
    "street": null,
    "office_name": null,
    "office_name_kana": null
  },
  "8034": {
    "zip_code": "9708034",
    "prefecture": "福島県",
    "prefecture_kana": "フクシマケン",
    "prefecture_code": "7",
    "city": "いわき市",
    "city_kana": "イワキシ",
    "town": "平上荒川",
    "town_kana": "タイラカミアラカワ",
    "street": null,
    "office_name": null,
    "office_name_kana": null
  },
  "8035": {
    "zip_code": "9708035",
    "prefecture": "福島県",
    "prefecture_kana": "フクシマケン",
    "prefecture_code": "7",
    "city": "いわき市",
    "city_kana": "イワキシ",
    "town": "明治団地",
    "town_kana": "メイジダンチ",
    "street": null,
    "office_name": null,
    "office_name_kana": null
  },
  "8036": {
    "zip_code": "9708036",
    "prefecture": "福島県",
    "prefecture_kana": "フクシマケン",
    "prefecture_code": "7",
    "city": "いわき市",
    "city_kana": "イワキシ",
    "town": "平谷川瀬",
    "town_kana": "タイラヤガワセ",
    "street": null,
    "office_name": null,
    "office_name_kana": null
  },
  "8041": {
    "zip_code": "9708041",
    "prefecture": "福島県",
    "prefecture_kana": "フクシマケン",
    "prefecture_code": "7",
    "city": "いわき市",
    "city_kana": "イワキシ",
    "town": "平小泉",
    "town_kana": "タイラコイズミ",
    "street": null,
    "office_name": null,
    "office_name_kana": null
  },
  "8042": {
    "zip_code": "9708042",
    "prefecture": "福島県",
    "prefecture_kana": "フクシマケン",
    "prefecture_code": "7",
    "city": "いわき市",
    "city_kana": "イワキシ",
    "town": "平上高久",
    "town_kana": "タイラカミタカク",
    "street": null,
    "office_name": null,
    "office_name_kana": null
  },
  "8043": {
    "zip_code": "9708043",
    "prefecture": "福島県",
    "prefecture_kana": "フクシマケン",
    "prefecture_code": "7",
    "city": "いわき市",
    "city_kana": "イワキシ",
    "town": "中央台鹿島",
    "town_kana": "チュウオウダイカシマ",
    "street": null,
    "office_name": null,
    "office_name_kana": null
  },
  "8044": {
    "zip_code": "9708044",
    "prefecture": "福島県",
    "prefecture_kana": "フクシマケン",
    "prefecture_code": "7",
    "city": "いわき市",
    "city_kana": "イワキシ",
    "town": "中央台飯野",
    "town_kana": "チュウオウダイイイノ",
    "street": null,
    "office_name": null,
    "office_name_kana": null
  },
  "8045": {
    "zip_code": "9708045",
    "prefecture": "福島県",
    "prefecture_kana": "フクシマケン",
    "prefecture_code": "7",
    "city": "いわき市",
    "city_kana": "イワキシ",
    "town": "郷ケ丘",
    "town_kana": "サトガオカ",
    "street": null,
    "office_name": null,
    "office_name_kana": null
  },
  "8046": {
    "zip_code": "9708046",
    "prefecture": "福島県",
    "prefecture_kana": "フクシマケン",
    "prefecture_code": "7",
    "city": "いわき市",
    "city_kana": "イワキシ",
    "town": "平吉野谷",
    "town_kana": "タイラヨシノヤ",
    "street": null,
    "office_name": null,
    "office_name_kana": null
  },
  "8047": {
    "zip_code": "9708047",
    "prefecture": "福島県",
    "prefecture_kana": "フクシマケン",
    "prefecture_code": "7",
    "city": "いわき市",
    "city_kana": "イワキシ",
    "town": "中央台高久",
    "town_kana": "チュウオウダイタカク",
    "street": null,
    "office_name": null,
    "office_name_kana": null
  },
  "8051": {
    "zip_code": "9708051",
    "prefecture": "福島県",
    "prefecture_kana": "フクシマケン",
    "prefecture_code": "7",
    "city": "いわき市",
    "city_kana": "イワキシ",
    "town": "平六町目",
    "town_kana": "タイラロクチョウメ",
    "street": null,
    "office_name": null,
    "office_name_kana": null
  },
  "8052": {
    "zip_code": "9708052",
    "prefecture": "福島県",
    "prefecture_kana": "フクシマケン",
    "prefecture_code": "7",
    "city": "いわき市",
    "city_kana": "イワキシ",
    "town": "平祢宜町",
    "town_kana": "タイラネギマチ",
    "street": null,
    "office_name": null,
    "office_name_kana": null
  },
  "8053": {
    "zip_code": "9708053",
    "prefecture": "福島県",
    "prefecture_kana": "フクシマケン",
    "prefecture_code": "7",
    "city": "いわき市",
    "city_kana": "イワキシ",
    "town": "平正月町",
    "town_kana": "タイラショウガツマチ",
    "street": null,
    "office_name": null,
    "office_name_kana": null
  },
  "8054": {
    "zip_code": "9708054",
    "prefecture": "福島県",
    "prefecture_kana": "フクシマケン",
    "prefecture_code": "7",
    "city": "いわき市",
    "city_kana": "イワキシ",
    "town": "平鎌田町",
    "town_kana": "タイラカマタマチ",
    "street": null,
    "office_name": null,
    "office_name_kana": null
  },
  "8501": {
    "zip_code": "9708501",
    "prefecture": "福島県",
    "prefecture_kana": "フクシマケン",
    "prefecture_code": "7",
    "city": "いわき市",
    "city_kana": "イワキシ",
    "town": "平",
    "town_kana": "タイラ",
    "street": "字童子町３−２１",
    "office_name": "日本年金機構　平年金事務所",
    "office_name_kana": "ニツポンネンキンキコウ タイラネンキンジムシヨ"
  },
  "8511": {
    "zip_code": "9708511",
    "prefecture": "福島県",
    "prefecture_kana": "フクシマケン",
    "prefecture_code": "7",
    "city": "いわき市",
    "city_kana": "イワキシ",
    "town": "平",
    "town_kana": "タイラ",
    "street": "字堂根町３−２",
    "office_name": "株式会社　ＮＴＴ東日本−福島　いわき支店",
    "office_name_kana": "カブシキカイシヤエヌテイテイヒガシニホンフクシマ イワキシテン"
  },
  "8516": {
    "zip_code": "9708516",
    "prefecture": "福島県",
    "prefecture_kana": "フクシマケン",
    "prefecture_code": "7",
    "city": "いわき市",
    "city_kana": "イワキシ",
    "town": "平",
    "town_kana": "タイラ",
    "street": "字小太郎町１−１",
    "office_name": "財団法人　磐城済世会　松村総合病院",
    "office_name_kana": "ザイダンホウジン イワキサイセイカイ マツムラソウゴウビヨウイン"
  },
  "8551": {
    "zip_code": "9708551",
    "prefecture": "福島県",
    "prefecture_kana": "フクシマケン",
    "prefecture_code": "7",
    "city": "いわき市",
    "city_kana": "イワキシ",
    "town": "中央台飯野",
    "town_kana": "チュウオウダイイイノ",
    "street": "５丁目５−１",
    "office_name": "いわき明星大学",
    "office_name_kana": "イワキメイセイダイガク"
  },
  "8611": {
    "zip_code": "9708611",
    "prefecture": "福島県",
    "prefecture_kana": "フクシマケン",
    "prefecture_code": "7",
    "city": "いわき市",
    "city_kana": "イワキシ",
    "town": "平",
    "town_kana": "タイラ",
    "street": "字菱川町６−３",
    "office_name": "いわき税務署",
    "office_name_kana": "イワキゼイムシヨ"
  },
  "8625": {
    "zip_code": "9708625",
    "prefecture": "福島県",
    "prefecture_kana": "フクシマケン",
    "prefecture_code": "7",
    "city": "いわき市",
    "city_kana": "イワキシ",
    "town": "平谷川瀬",
    "town_kana": "タイラヤガワセ",
    "street": "字明治町２７（いわき郵便局私書箱第２５号）",
    "office_name": "岡田電気産業　株式会社",
    "office_name_kana": "オカダデンキサンギヨウ カブシキガイシヤ"
  },
  "8635": {
    "zip_code": "9708635",
    "prefecture": "福島県",
    "prefecture_kana": "フクシマケン",
    "prefecture_code": "7",
    "city": "いわき市",
    "city_kana": "イワキシ",
    "town": "平",
    "town_kana": "タイラ",
    "street": "字五町目１８−５（いわき郵便局私書箱第３５号）",
    "office_name": "佐藤　株式会社　いわき支店",
    "office_name_kana": "サトウ カブシキガイシヤ イワキシテン"
  },
  "8646": {
    "zip_code": "9708646",
    "prefecture": "福島県",
    "prefecture_kana": "フクシマケン",
    "prefecture_code": "7",
    "city": "いわき市",
    "city_kana": "イワキシ",
    "town": "平",
    "town_kana": "タイラ",
    "street": "字小太郎町４−１１（いわき郵便局私書箱第４６号）",
    "office_name": "株式会社　加地和組",
    "office_name_kana": "カブシキガイシヤ カチワグミ"
  },
  "8686": {
    "zip_code": "9708686",
    "prefecture": "福島県",
    "prefecture_kana": "フクシマケン",
    "prefecture_code": "7",
    "city": "いわき市",
    "city_kana": "イワキシ",
    "town": "平",
    "town_kana": "タイラ",
    "street": "字梅本２１（いわき郵便局私書箱第５５号）",
    "office_name": "いわき市役所",
    "office_name_kana": "イワキシヤクシヨ"
  },
  "8703": {
    "zip_code": "9708703",
    "prefecture": "福島県",
    "prefecture_kana": "フクシマケン",
    "prefecture_code": "7",
    "city": "いわき市",
    "city_kana": "イワキシ",
    "town": "平",
    "town_kana": "タイラ",
    "street": "字堂根町４−１１",
    "office_name": "いわき労働基準監督署",
    "office_name_kana": "イワキロウドウキジユンカントクシヨ"
  }
}