{
  "8401": {
    "zip_code": "9738401",
    "prefecture": "福島県",
    "prefecture_kana": "フクシマケン",
    "prefecture_code": 7,
    "city": "いわき市",
    "city_kana": "イワキシ",
    "town": "内郷小島町",
    "town_kana": "ウチゴウオジママチ",
    "street": null,
    "office_name": null,
    "office_name_kana": null
  },
  "8402": {
    "zip_code": "9738402",
    "prefecture": "福島県",
    "prefecture_kana": "フクシマケン",
    "prefecture_code": 7,
    "city": "いわき市",
    "city_kana": "イワキシ",
    "town": "内郷御厩町",
    "town_kana": "ウチゴウミマヤマチ",
    "street": null,
    "office_name": null,
    "office_name_kana": null
  },
  "8403": {
    "zip_code": "9738403",
    "prefecture": "福島県",
    "prefecture_kana": "フクシマケン",
    "prefecture_code": 7,
    "city": "いわき市",
    "city_kana": "イワキシ",
    "town": "内郷綴町",
    "town_kana": "ウチゴウツヅラマチ",
    "street": null,
    "office_name": null,
    "office_name_kana": null
  },
  "8404": {
    "zip_code": "9738404",
    "prefecture": "福島県",
    "prefecture_kana": "フクシマケン",
    "prefecture_code": 7,
    "city": "いわき市",
    "city_kana": "イワキシ",
    "town": "内郷内町",
    "town_kana": "ウチゴウウチマチ",
    "street": null,
    "office_name": null,
    "office_name_kana": null
  },
  "8405": {
    "zip_code": "9738405",
    "prefecture": "福島県",
    "prefecture_kana": "フクシマケン",
    "prefecture_code": 7,
    "city": "いわき市",
    "city_kana": "イワキシ",
    "town": "内郷白水町",
    "town_kana": "ウチゴウシラミズマチ",
    "street": null,
    "office_name": null,
    "office_name_kana": null
  },
  "8406": {
    "zip_code": "9738406",
    "prefecture": "福島県",
    "prefecture_kana": "フクシマケン",
    "prefecture_code": 7,
    "city": "いわき市",
    "city_kana": "イワキシ",
    "town": "内郷高野町",
    "town_kana": "ウチゴウコウヤマチ",
    "street": null,
    "office_name": null,
    "office_name_kana": null
  },
  "8407": {
    "zip_code": "9738407",
    "prefecture": "福島県",
    "prefecture_kana": "フクシマケン",
    "prefecture_code": 7,
    "city": "いわき市",
    "city_kana": "イワキシ",
    "town": "内郷宮町",
    "town_kana": "ウチゴウミヤマチ",
    "street": null,
    "office_name": null,
    "office_name_kana": null
  },
  "8408": {
    "zip_code": "9738408",
    "prefecture": "福島県",
    "prefecture_kana": "フクシマケン",
    "prefecture_code": 7,
    "city": "いわき市",
    "city_kana": "イワキシ",
    "town": "内郷高坂町",
    "town_kana": "ウチゴウタカサカマチ",
    "street": null,
    "office_name": null,
    "office_name_kana": null
  },
  "8409": {
    "zip_code": "9738409",
    "prefecture": "福島県",
    "prefecture_kana": "フクシマケン",
    "prefecture_code": 7,
    "city": "いわき市",
    "city_kana": "イワキシ",
    "town": "内郷御台境町",
    "town_kana": "ウチゴウミダイサカイマチ",
    "street": null,
    "office_name": null,
    "office_name_kana": null
  },
  "8411": {
    "zip_code": "9738411",
    "prefecture": "福島県",
    "prefecture_kana": "フクシマケン",
    "prefecture_code": 7,
    "city": "いわき市",
    "city_kana": "イワキシ",
    "town": "小島町",
    "town_kana": "オジママチ",
    "street": null,
    "office_name": null,
    "office_name_kana": null
  },
  "8412": {
    "zip_code": "9738412",
    "prefecture": "福島県",
    "prefecture_kana": "フクシマケン",
    "prefecture_code": 7,
    "city": "いわき市",
    "city_kana": "イワキシ",
    "town": "平成",
    "town_kana": "ヘイセイ",
    "street": null,
    "office_name": null,
    "office_name_kana": null
  },
  "8501": {
    "zip_code": "9738501",
    "prefecture": "福島県",
    "prefecture_kana": "フクシマケン",
    "prefecture_code": 7,
    "city": "いわき市",
    "city_kana": "イワキシ",
    "town": "内郷綴町",
    "town_kana": "ウチゴウツヅラマチ",
    "street": "沼尻３",
    "office_name": "独立行政法人　労働者健康福祉機構　福島労災病院",
    "office_name_kana": "ドクリツギヨウセイホウジン ロウドウシヤケンコウフクシキコウ フクシマロウサイビヨウイン"
  },
  "8555": {
    "zip_code": "9738555",
    "prefecture": "福島県",
    "prefecture_kana": "フクシマケン",
    "prefecture_code": 7,
    "city": "いわき市",
    "city_kana": "イワキシ",
    "town": "内郷御厩町",
    "town_kana": "ウチゴウミマヤマチ",
    "street": "久世原１６",
    "office_name": "いわき市立　総合磐城共立病院",
    "office_name_kana": "イワキシリツ ソウゴウイワキキヨウリツビヨウイン"
  },
  "8601": {
    "zip_code": "9738601",
    "prefecture": "福島県",
    "prefecture_kana": "フクシマケン",
    "prefecture_code": 7,
    "city": "いわき市",
    "city_kana": "イワキシ",
    "town": "内郷御厩町",
    "town_kana": "ウチゴウミマヤマチ",
    "street": "４丁目１４８（内郷郵便局私書箱第２３号）",
    "office_name": "いわき中央警察署",
    "office_name_kana": "イワキチユウオウケイサツシヨ"
  }
}