{
  "0000": {
    "zip_code": "9820000",
    "prefecture": "宮城県",
    "prefecture_kana": "ミヤギケン",
    "prefecture_code": 4,
    "city": "仙台市太白区",
    "city_kana": "センダイシタイハクク",
    "town": "",
    "town_kana": "",
    "street": null,
    "office_name": null,
    "office_name_kana": null
  },
  "0001": {
    "zip_code": "9820001",
    "prefecture": "宮城県",
    "prefecture_kana": "ミヤギケン",
    "prefecture_code": 4,
    "city": "仙台市太白区",
    "city_kana": "センダイシタイハクク",
    "town": "八本松",
    "town_kana": "ハチホンマツ",
    "street": null,
    "office_name": null,
    "office_name_kana": null
  },
  "0002": {
    "zip_code": "9820002",
    "prefecture": "宮城県",
    "prefecture_kana": "ミヤギケン",
    "prefecture_code": 4,
    "city": "仙台市太白区",
    "city_kana": "センダイシタイハクク",
    "town": "飯田",
    "town_kana": "イイダ",
    "street": null,
    "office_name": null,
    "office_name_kana": null
  },
  "0003": {
    "zip_code": "9820003",
    "prefecture": "宮城県",
    "prefecture_kana": "ミヤギケン",
    "prefecture_code": 4,
    "city": "仙台市太白区",
    "city_kana": "センダイシタイハクク",
    "town": "郡山",
    "town_kana": "コオリヤマ",
    "street": null,
    "office_name": null,
    "office_name_kana": null
  },
  "0004": {
    "zip_code": "9820004",
    "prefecture": "宮城県",
    "prefecture_kana": "ミヤギケン",
    "prefecture_code": 4,
    "city": "仙台市太白区",
    "city_kana": "センダイシタイハクク",
    "town": "東大野田",
    "town_kana": "ヒガシオオノダ",
    "street": null,
    "office_name": null,
    "office_name_kana": null
  },
  "0005": {
    "zip_code": "9820005",
    "prefecture": "宮城県",
    "prefecture_kana": "ミヤギケン",
    "prefecture_code": 4,
    "city": "仙台市太白区",
    "city_kana": "センダイシタイハクク",
    "town": "諏訪町",
    "town_kana": "スワマチ",
    "street": null,
    "office_name": null,
    "office_name_kana": null
  },
  "0006": {
    "zip_code": "9820006",
    "prefecture": "宮城県",
    "prefecture_kana": "ミヤギケン",
    "prefecture_code": 4,
    "city": "仙台市太白区",
    "city_kana": "センダイシタイハクク",
    "town": "東郡山",
    "town_kana": "ヒガシコオリヤマ",
    "street": null,
    "office_name": null,
    "office_name_kana": null
  },
  "0007": {
    "zip_code": "9820007",
    "prefecture": "宮城県",
    "prefecture_kana": "ミヤギケン",
    "prefecture_code": 4,
    "city": "仙台市太白区",
    "city_kana": "センダイシタイハクク",
    "town": "あすと長町",
    "town_kana": "アストナガマチ",
    "street": null,
    "office_name": null,
    "office_name_kana": null
  },
  "0011": {
    "zip_code": "9820011",
    "prefecture": "宮城県",
    "prefecture_kana": "ミヤギケン",
    "prefecture_code": 4,
    "city": "仙台市太白区",
    "city_kana": "センダイシタイハクク",
    "town": "長町",
    "town_kana": "ナガマチ",
    "street": null,
    "office_name": null,
    "office_name_kana": null
  },
  "0012": {
    "zip_code": "9820012",
    "prefecture": "宮城県",
    "prefecture_kana": "ミヤギケン",
    "prefecture_code": 4,
    "city": "仙台市太白区",
    "city_kana": "センダイシタイハクク",
    "town": "長町南",
    "town_kana": "ナガマチミナミ",
    "street": null,
    "office_name": null,
    "office_name_kana": null
  },
  "0013": {
    "zip_code": "9820013",
    "prefecture": "宮城県",
    "prefecture_kana": "ミヤギケン",
    "prefecture_code": 4,
    "city": "仙台市太白区",
    "city_kana": "センダイシタイハクク",
    "town": "太子堂",
    "town_kana": "タイシドウ",
    "street": null,
    "office_name": null,
    "office_name_kana": null
  },
  "0014": {
    "zip_code": "9820014",
    "prefecture": "宮城県",
    "prefecture_kana": "ミヤギケン",
    "prefecture_code": 4,
    "city": "仙台市太白区",
    "city_kana": "センダイシタイハクク",
    "town": "大野田",
    "town_kana": "オオノダ",
    "street": null,
    "office_name": null,
    "office_name_kana": null
  },
  "0015": {
    "zip_code": "9820015",
    "prefecture": "宮城県",
    "prefecture_kana": "ミヤギケン",
    "prefecture_code": 4,
    "city": "仙台市太白区",
    "city_kana": "センダイシタイハクク",
    "town": "南大野田",
    "town_kana": "ミナミオオノダ",
    "street": null,
    "office_name": null,
    "office_name_kana": null
  },
  "0021": {
    "zip_code": "9820021",
    "prefecture": "宮城県",
    "prefecture_kana": "ミヤギケン",
    "prefecture_code": 4,
    "city": "仙台市太白区",
    "city_kana": "センダイシタイハクク",
    "town": "緑ケ丘",
    "town_kana": "ミドリガオカ",
    "street": null,
    "office_name": null,
    "office_name_kana": null
  },
  "0022": {
    "zip_code": "9820022",
    "prefecture": "宮城県",
    "prefecture_kana": "ミヤギケン",
    "prefecture_code": 4,
    "city": "仙台市太白区",
    "city_kana": "センダイシタイハクク",
    "town": "鹿野本町",
    "town_kana": "カノホンチョウ",
    "street": null,
    "office_name": null,
    "office_name_kana": null
  },
  "0023": {
    "zip_code": "9820023",
    "prefecture": "宮城県",
    "prefecture_kana": "ミヤギケン",
    "prefecture_code": 4,
    "city": "仙台市太白区",
    "city_kana": "センダイシタイハクク",
    "town": "鹿野",
    "town_kana": "カノ",
    "street": null,
    "office_name": null,
    "office_name_kana": null
  },
  "0024": {
    "zip_code": "9820024",
    "prefecture": "宮城県",
    "prefecture_kana": "ミヤギケン",
    "prefecture_code": 4,
    "city": "仙台市太白区",
    "city_kana": "センダイシタイハクク",
    "town": "砂押南町",
    "town_kana": "スナオシミナミマチ",
    "street": null,
    "office_name": null,
    "office_name_kana": null
  },
  "0025": {
    "zip_code": "9820025",
    "prefecture": "宮城県",
    "prefecture_kana": "ミヤギケン",
    "prefecture_code": 4,
    "city": "仙台市太白区",
    "city_kana": "センダイシタイハクク",
    "town": "砂押町",
    "town_kana": "スナオシマチ",
    "street": null,
    "office_name": null,
    "office_name_kana": null
  },
  "0026": {
    "zip_code": "9820026",
    "prefecture": "宮城県",
    "prefecture_kana": "ミヤギケン",
    "prefecture_code": 4,
    "city": "仙台市太白区",
    "city_kana": "センダイシタイハクク",
    "town": "土手内",
    "town_kana": "ドテウチ",
    "street": null,
    "office_name": null,
    "office_name_kana": null
  },
  "0027": {
    "zip_code": "9820027",
    "prefecture": "宮城県",
    "prefecture_kana": "ミヤギケン",
    "prefecture_code": 4,
    "city": "仙台市太白区",
    "city_kana": "センダイシタイハクク",
    "town": "大塒町",
    "town_kana": "オオトヤマチ",
    "street": null,
    "office_name": null,
    "office_name_kana": null
  },
  "0031": {
    "zip_code": "9820031",
    "prefecture": "宮城県",
    "prefecture_kana": "ミヤギケン",
    "prefecture_code": 4,
    "city": "仙台市太白区",
    "city_kana": "センダイシタイハクク",
    "town": "泉崎",
    "town_kana": "イズミザキ",
    "street": null,
    "office_name": null,
    "office_name_kana": null
  },
  "0032": {
    "zip_code": "9820032",
    "prefecture": "宮城県",
    "prefecture_kana": "ミヤギケン",
    "prefecture_code": 4,
    "city": "仙台市太白区",
    "city_kana": "センダイシタイハクク",
    "town": "富沢",
    "town_kana": "トミザワ",
    "street": null,
    "office_name": null,
    "office_name_kana": null
  },
  "0033": {
    "zip_code": "9820033",
    "prefecture": "宮城県",
    "prefecture_kana": "ミヤギケン",
    "prefecture_code": 4,
    "city": "仙台市太白区",
    "city_kana": "センダイシタイハクク",
    "town": "富田",
    "town_kana": "トミタ",
    "street": null,
    "office_name": null,
    "office_name_kana": null
  },
  "0034": {
    "zip_code": "9820034",
    "prefecture": "宮城県",
    "prefecture_kana": "ミヤギケン",
    "prefecture_code": 4,
    "city": "仙台市太白区",
    "city_kana": "センダイシタイハクク",
    "town": "西多賀",
    "town_kana": "ニシタガ",
    "street": null,
    "office_name": null,
    "office_name_kana": null
  },
  "0035": {
    "zip_code": "9820035",
    "prefecture": "宮城県",
    "prefecture_kana": "ミヤギケン",
    "prefecture_code": 4,
    "city": "仙台市太白区",
    "city_kana": "センダイシタイハクク",
    "town": "大谷地",
    "town_kana": "オオヤチ",
    "street": null,
    "office_name": null,
    "office_name_kana": null
  },
  "0036": {
    "zip_code": "9820036",
    "prefecture": "宮城県",
    "prefecture_kana": "ミヤギケン",
    "prefecture_code": 4,
    "city": "仙台市太白区",
    "city_kana": "センダイシタイハクク",
    "town": "富沢南",
    "town_kana": "トミザワミナミ",
    "street": null,
    "office_name": null,
    "office_name_kana": null
  },
  "0211": {
    "zip_code": "9820211",
    "prefecture": "宮城県",
    "prefecture_kana": "ミヤギケン",
    "prefecture_code": 4,
    "city": "仙台市太白区",
    "city_kana": "センダイシタイハクク",
    "town": "佐保山",
    "town_kana": "サホヤマ",
    "street": null,
    "office_name": null,
    "office_name_kana": null
  },
  "0212": {
    "zip_code": "9820212",
    "prefecture": "宮城県",
    "prefecture_kana": "ミヤギケン",
    "prefecture_code": 4,
    "city": "仙台市太白区",
    "city_kana": "センダイシタイハクク",
    "town": "太白",
    "town_kana": "タイハク",
    "street": null,
    "office_name": null,
    "office_name_kana": null
  },
  "0213": {
    "zip_code": "9820213",
    "prefecture": "宮城県",
    "prefecture_kana": "ミヤギケン",
    "prefecture_code": 4,
    "city": "仙台市太白区",
    "city_kana": "センダイシタイハクク",
    "town": "山田自由ケ丘",
    "town_kana": "ヤマダジユウガオカ",
    "street": null,
    "office_name": null,
    "office_name_kana": null
  },
  "0214": {
    "zip_code": "9820214",
    "prefecture": "宮城県",
    "prefecture_kana": "ミヤギケン",
    "prefecture_code": 4,
    "city": "仙台市太白区",
    "city_kana": "センダイシタイハクク",
    "town": "山田",
    "town_kana": "ヤマダ",
    "street": null,
    "office_name": null,
    "office_name_kana": null
  },
  "0215": {
    "zip_code": "9820215",
    "prefecture": "宮城県",
    "prefecture_kana": "ミヤギケン",
    "prefecture_code": 4,
    "city": "仙台市太白区",
    "city_kana": "センダイシタイハクク",
    "town": "旗立",
    "town_kana": "ハタタテ",
    "street": null,
    "office_name": null,
    "office_name_kana": null
  },
  "0221": {
    "zip_code": "9820221",
    "prefecture": "宮城県",
    "prefecture_kana": "ミヤギケン",
    "prefecture_code": 4,
    "city": "仙台市太白区",
    "city_kana": "センダイシタイハクク",
    "town": "日本平",
    "town_kana": "ニホンダイラ",
    "street": null,
    "office_name": null,
    "office_name_kana": null
  },
  "0222": {
    "zip_code": "9820222",
    "prefecture": "宮城県",
    "prefecture_kana": "ミヤギケン",
    "prefecture_code": 4,
    "city": "仙台市太白区",
    "city_kana": "センダイシタイハクク",
    "town": "人来田",
    "town_kana": "ヒトキタ",
    "street": null,
    "office_name": null,
    "office_name_kana": null
  },
  "0231": {
    "zip_code": "9820231",
    "prefecture": "宮城県",
    "prefecture_kana": "ミヤギケン",
    "prefecture_code": 4,
    "city": "仙台市太白区",
    "city_kana": "センダイシタイハクク",
    "town": "坪沼",
    "town_kana": "ツボヌマ",
    "street": null,
    "office_name": null,
    "office_name_kana": null
  },
  "0241": {
    "zip_code": "9820241",
    "prefecture": "宮城県",
    "prefecture_kana": "ミヤギケン",
    "prefecture_code": 4,
    "city": "仙台市太白区",
    "city_kana": "センダイシタイハクク",
    "town": "秋保町湯元",
    "town_kana": "アキウマチユモト",
    "street": null,
    "office_name": null,
    "office_name_kana": null
  },
  "0242": {
    "zip_code": "9820242",
    "prefecture": "宮城県",
    "prefecture_kana": "ミヤギケン",
    "prefecture_code": 4,
    "city": "仙台市太白区",
    "city_kana": "センダイシタイハクク",
    "town": "秋保町境野",
    "town_kana": "アキウマチサカイノ",
    "street": null,
    "office_name": null,
    "office_name_kana": null
  },
  "0243": {
    "zip_code": "9820243",
    "prefecture": "宮城県",
    "prefecture_kana": "ミヤギケン",
    "prefecture_code": 4,
    "city": "仙台市太白区",
    "city_kana": "センダイシタイハクク",
    "town": "秋保町長袋",
    "town_kana": "アキウマチナガフクロ",
    "street": null,
    "office_name": null,
    "office_name_kana": null
  },
  "0244": {
    "zip_code": "9820244",
    "prefecture": "宮城県",
    "prefecture_kana": "ミヤギケン",
    "prefecture_code": 4,
    "city": "仙台市太白区",
    "city_kana": "センダイシタイハクク",
    "town": "秋保町馬場",
    "town_kana": "アキウマチババ",
    "street": null,
    "office_name": null,
    "office_name_kana": null
  },
  "0245": {
    "zip_code": "9820245",
    "prefecture": "宮城県",
    "prefecture_kana": "ミヤギケン",
    "prefecture_code": 4,
    "city": "仙台市太白区",
    "city_kana": "センダイシタイハクク",
    "town": "秋保町湯向",
    "town_kana": "アキウマチユムカイ",
    "street": null,
    "office_name": null,
    "office_name_kana": null
  },
  "0251": {
    "zip_code": "9820251",
    "prefecture": "宮城県",
    "prefecture_kana": "ミヤギケン",
    "prefecture_code": 4,
    "city": "仙台市太白区",
    "city_kana": "センダイシタイハクク",
    "town": "茂庭",
    "town_kana": "モニワ",
    "street": null,
    "office_name": null,
    "office_name_kana": null
  },
  "0252": {
    "zip_code": "9820252",
    "prefecture": "宮城県",
    "prefecture_kana": "ミヤギケン",
    "prefecture_code": 4,
    "city": "仙台市太白区",
    "city_kana": "センダイシタイハクク",
    "town": "茂庭台",
    "town_kana": "モニワダイ",
    "street": null,
    "office_name": null,
    "office_name_kana": null
  },
  "0261": {
    "zip_code": "9820261",
    "prefecture": "宮城県",
    "prefecture_kana": "ミヤギケン",
    "prefecture_code": 4,
    "city": "仙台市青葉区",
    "city_kana": "センダイシアオバク",
    "town": "折立",
    "town_kana": "オリタテ",
    "street": null,
    "office_name": null,
    "office_name_kana": null
  },
  "0262": {
    "zip_code": "9820262",
    "prefecture": "宮城県",
    "prefecture_kana": "ミヤギケン",
    "prefecture_code": 4,
    "city": "仙台市青葉区",
    "city_kana": "センダイシアオバク",
    "town": "西花苑",
    "town_kana": "セイカエン",
    "street": null,
    "office_name": null,
    "office_name_kana": null
  },
  "0263": {
    "zip_code": "9820263",
    "prefecture": "宮城県",
    "prefecture_kana": "ミヤギケン",
    "prefecture_code": 4,
    "city": "仙台市青葉区",
    "city_kana": "センダイシアオバク",
    "town": "茂庭",
    "town_kana": "モニワ",
    "street": null,
    "office_name": null,
    "office_name_kana": null
  },
  "0801": {
    "zip_code": "9820801",
    "prefecture": "宮城県",
    "prefecture_kana": "ミヤギケン",
    "prefecture_code": 4,
    "city": "仙台市太白区",
    "city_kana": "センダイシタイハクク",
    "town": "八木山本町",
    "town_kana": "ヤギヤマホンチョウ",
    "street": null,
    "office_name": null,
    "office_name_kana": null
  },
  "0802": {
    "zip_code": "9820802",
    "prefecture": "宮城県",
    "prefecture_kana": "ミヤギケン",
    "prefecture_code": 4,
    "city": "仙台市太白区",
    "city_kana": "センダイシタイハクク",
    "town": "八木山東",
    "town_kana": "ヤギヤマヒガシ",
    "street": null,
    "office_name": null,
    "office_name_kana": null
  },
  "0803": {
    "zip_code": "9820803",
    "prefecture": "宮城県",
    "prefecture_kana": "ミヤギケン",
    "prefecture_code": 4,
    "city": "仙台市太白区",
    "city_kana": "センダイシタイハクク",
    "town": "金剛沢",
    "town_kana": "コンゴウサワ",
    "street": null,
    "office_name": null,
    "office_name_kana": null
  },
  "0804": {
    "zip_code": "9820804",
    "prefecture": "宮城県",
    "prefecture_kana": "ミヤギケン",
    "prefecture_code": 4,
    "city": "仙台市太白区",
    "city_kana": "センダイシタイハクク",
    "town": "鈎取",
    "town_kana": "カギトリ",
    "street": null,
    "office_name": null,
    "office_name_kana": null
  },
  "0805": {
    "zip_code": "9820805",
    "prefecture": "宮城県",
    "prefecture_kana": "ミヤギケン",
    "prefecture_code": 4,
    "city": "仙台市太白区",
    "city_kana": "センダイシタイハクク",
    "town": "鈎取本町",
    "town_kana": "カギトリホンチョウ",
    "street": null,
    "office_name": null,
    "office_name_kana": null
  },
  "0806": {
    "zip_code": "9820806",
    "prefecture": "宮城県",
    "prefecture_kana": "ミヤギケン",
    "prefecture_code": 4,
    "city": "仙台市太白区",
    "city_kana": "センダイシタイハクク",
    "town": "御堂平",
    "town_kana": "ミドウダイラ",
    "street": null,
    "office_name": null,
    "office_name_kana": null
  },
  "0807": {
    "zip_code": "9820807",
    "prefecture": "宮城県",
    "prefecture_kana": "ミヤギケン",
    "prefecture_code": 4,
    "city": "仙台市太白区",
    "city_kana": "センダイシタイハクク",
    "town": "八木山南",
    "town_kana": "ヤギヤマミナミ",
    "street": null,
    "office_name": null,
    "office_name_kana": null
  },
  "0811": {
    "zip_code": "9820811",
    "prefecture": "宮城県",
    "prefecture_kana": "ミヤギケン",
    "prefecture_code": 4,
    "city": "仙台市太白区",
    "city_kana": "センダイシタイハクク",
    "town": "ひより台",
    "town_kana": "ヒヨリダイ",
    "street": null,
    "office_name": null,
    "office_name_kana": null
  },
  "0812": {
    "zip_code": "9820812",
    "prefecture": "宮城県",
    "prefecture_kana": "ミヤギケン",
    "prefecture_code": 4,
    "city": "仙台市太白区",
    "city_kana": "センダイシタイハクク",
    "town": "上野山",
    "town_kana": "カミノヤマ",
    "street": null,
    "office_name": null,
    "office_name_kana": null
  },
  "0813": {
    "zip_code": "9820813",
    "prefecture": "宮城県",
    "prefecture_kana": "ミヤギケン",
    "prefecture_code": 4,
    "city": "仙台市太白区",
    "city_kana": "センダイシタイハクク",
    "town": "山田北前町",
    "town_kana": "ヤマダキタマエチョウ",
    "street": null,
    "office_name": null,
    "office_name_kana": null
  },
  "0814": {
    "zip_code": "9820814",
    "prefecture": "宮城県",
    "prefecture_kana": "ミヤギケン",
    "prefecture_code": 4,
    "city": "仙台市太白区",
    "city_kana": "センダイシタイハクク",
    "town": "山田",
    "town_kana": "ヤマダ",
    "street": null,
    "office_name": null,
    "office_name_kana": null
  },
  "0815": {
    "zip_code": "9820815",
    "prefecture": "宮城県",
    "prefecture_kana": "ミヤギケン",
    "prefecture_code": 4,
    "city": "仙台市太白区",
    "city_kana": "センダイシタイハクク",
    "town": "山田上ノ台町",
    "town_kana": "ヤマダウエノダイチョウ",
    "street": null,
    "office_name": null,
    "office_name_kana": null
  },
  "0816": {
    "zip_code": "9820816",
    "prefecture": "宮城県",
    "prefecture_kana": "ミヤギケン",
    "prefecture_code": 4,
    "city": "仙台市太白区",
    "city_kana": "センダイシタイハクク",
    "town": "山田本町",
    "town_kana": "ヤマダホンチョウ",
    "street": null,
    "office_name": null,
    "office_name_kana": null
  },
  "0817": {
    "zip_code": "9820817",
    "prefecture": "宮城県",
    "prefecture_kana": "ミヤギケン",
    "prefecture_code": 4,
    "city": "仙台市太白区",
    "city_kana": "センダイシタイハクク",
    "town": "羽黒台",
    "town_kana": "ハグロダイ",
    "street": null,
    "office_name": null,
    "office_name_kana": null
  },
  "0818": {
    "zip_code": "9820818",
    "prefecture": "宮城県",
    "prefecture_kana": "ミヤギケン",
    "prefecture_code": 4,
    "city": "仙台市太白区",
    "city_kana": "センダイシタイハクク",
    "town": "山田新町",
    "town_kana": "ヤマダシンマチ",
    "street": null,
    "office_name": null,
    "office_name_kana": null
  },
  "0821": {
    "zip_code": "9820821",
    "prefecture": "宮城県",
    "prefecture_kana": "ミヤギケン",
    "prefecture_code": 4,
    "city": "仙台市太白区",
    "city_kana": "センダイシタイハクク",
    "town": "松が丘",
    "town_kana": "マツガオカ",
    "street": null,
    "office_name": null,
    "office_name_kana": null
  },
  "0822": {
    "zip_code": "9820822",
    "prefecture": "宮城県",
    "prefecture_kana": "ミヤギケン",
    "prefecture_code": 4,
    "city": "仙台市太白区",
    "city_kana": "センダイシタイハクク",
    "town": "若葉町",
    "town_kana": "ワカバマチ",
    "street": null,
    "office_name": null,
    "office_name_kana": null
  },
  "0823": {
    "zip_code": "9820823",
    "prefecture": "宮城県",
    "prefecture_kana": "ミヤギケン",
    "prefecture_code": 4,
    "city": "仙台市太白区",
    "city_kana": "センダイシタイハクク",
    "town": "恵和町",
    "town_kana": "ケイワマチ",
    "street": null,
    "office_name": null,
    "office_name_kana": null
  },
  "0824": {
    "zip_code": "9820824",
    "prefecture": "宮城県",
    "prefecture_kana": "ミヤギケン",
    "prefecture_code": 4,
    "city": "仙台市太白区",
    "city_kana": "センダイシタイハクク",
    "town": "芦の口",
    "town_kana": "アシノクチ",
    "street": null,
    "office_name": null,
    "office_name_kana": null
  },
  "0825": {
    "zip_code": "9820825",
    "prefecture": "宮城県",
    "prefecture_kana": "ミヤギケン",
    "prefecture_code": 4,
    "city": "仙台市太白区",
    "city_kana": "センダイシタイハクク",
    "town": "西の平",
    "town_kana": "ニシノダイラ",
    "street": null,
    "office_name": null,
    "office_name_kana": null
  },
  "0826": {
    "zip_code": "9820826",
    "prefecture": "宮城県",
    "prefecture_kana": "ミヤギケン",
    "prefecture_code": 4,
    "city": "仙台市太白区",
    "city_kana": "センダイシタイハクク",
    "town": "三神峯",
    "town_kana": "ミカミネ",
    "street": null,
    "office_name": null,
    "office_name_kana": null
  },
  "0831": {
    "zip_code": "9820831",
    "prefecture": "宮城県",
    "prefecture_kana": "ミヤギケン",
    "prefecture_code": 4,
    "city": "仙台市太白区",
    "city_kana": "センダイシタイハクク",
    "town": "八木山香澄町",
    "town_kana": "ヤギヤマカスミチョウ",
    "street": null,
    "office_name": null,
    "office_name_kana": null
  },
  "0832": {
    "zip_code": "9820832",
    "prefecture": "宮城県",
    "prefecture_kana": "ミヤギケン",
    "prefecture_code": 4,
    "city": "仙台市太白区",
    "city_kana": "センダイシタイハクク",
    "town": "八木山緑町",
    "town_kana": "ヤギヤマミドリチョウ",
    "street": null,
    "office_name": null,
    "office_name_kana": null
  },
  "0833": {
    "zip_code": "9820833",
    "prefecture": "宮城県",
    "prefecture_kana": "ミヤギケン",
    "prefecture_code": 4,
    "city": "仙台市太白区",
    "city_kana": "センダイシタイハクク",
    "town": "八木山弥生町",
    "town_kana": "ヤギヤマヤヨイチョウ",
    "street": null,
    "office_name": null,
    "office_name_kana": null
  },
  "0834": {
    "zip_code": "9820834",
    "prefecture": "宮城県",
    "prefecture_kana": "ミヤギケン",
    "prefecture_code": 4,
    "city": "仙台市太白区",
    "city_kana": "センダイシタイハクク",
    "town": "青山",
    "town_kana": "アオヤマ",
    "street": null,
    "office_name": null,
    "office_name_kana": null
  },
  "0835": {
    "zip_code": "9820835",
    "prefecture": "宮城県",
    "prefecture_kana": "ミヤギケン",
    "prefecture_code": 4,
    "city": "仙台市太白区",
    "city_kana": "センダイシタイハクク",
    "town": "桜木町",
    "town_kana": "サクラギマチ",
    "street": null,
    "office_name": null,
    "office_name_kana": null
  },
  "0836": {
    "zip_code": "9820836",
    "prefecture": "宮城県",
    "prefecture_kana": "ミヤギケン",
    "prefecture_code": 4,
    "city": "仙台市太白区",
    "city_kana": "センダイシタイハクク",
    "town": "八木山松波町",
    "town_kana": "ヤギヤママツナミチョウ",
    "street": null,
    "office_name": null,
    "office_name_kana": null
  },
  "0837": [
    {
      "zip_code": "9820837",
      "prefecture": "宮城県",
      "prefecture_kana": "ミヤギケン",
      "prefecture_code": 4,
      "city": "仙台市太白区",
      "city_kana": "センダイシタイハクク",
      "town": "長町",
      "town_kana": "ナガマチ",
      "street": null,
      "office_name": null,
      "office_name_kana": null
    },
    {
      "zip_code": "9820837",
      "prefecture": "宮城県",
      "prefecture_kana": "ミヤギケン",
      "prefecture_code": 4,
      "city": "仙台市太白区",
      "city_kana": "センダイシタイハクク",
      "town": "長町越路",
      "town_kana": "ナガマチコエジ",
      "street": null,
      "office_name": null,
      "office_name_kana": null
    }
  ],
  "0841": {
    "zip_code": "9820841",
    "prefecture": "宮城県",
    "prefecture_kana": "ミヤギケン",
    "prefecture_code": 4,
    "city": "仙台市太白区",
    "city_kana": "センダイシタイハクク",
    "town": "向山",
    "town_kana": "ムカイヤマ",
    "street": null,
    "office_name": null,
    "office_name_kana": null
  },
  "0842": {
    "zip_code": "9820842",
    "prefecture": "宮城県",
    "prefecture_kana": "ミヤギケン",
    "prefecture_code": 4,
    "city": "仙台市太白区",
    "city_kana": "センダイシタイハクク",
    "town": "越路",
    "town_kana": "コエジ",
    "street": null,
    "office_name": null,
    "office_name_kana": null
  },
  "0843": {
    "zip_code": "9820843",
    "prefecture": "宮城県",
    "prefecture_kana": "ミヤギケン",
    "prefecture_code": 4,
    "city": "仙台市太白区",
    "city_kana": "センダイシタイハクク",
    "town": "茂ケ崎",
    "town_kana": "モガサキ",
    "street": null,
    "office_name": null,
    "office_name_kana": null
  },
  "0844": {
    "zip_code": "9820844",
    "prefecture": "宮城県",
    "prefecture_kana": "ミヤギケン",
    "prefecture_code": 4,
    "city": "仙台市太白区",
    "city_kana": "センダイシタイハクク",
    "town": "根岸町",
    "town_kana": "ネギシマチ",
    "street": null,
    "office_name": null,
    "office_name_kana": null
  },
  "0845": {
    "zip_code": "9820845",
    "prefecture": "宮城県",
    "prefecture_kana": "ミヤギケン",
    "prefecture_code": 4,
    "city": "仙台市太白区",
    "city_kana": "センダイシタイハクク",
    "town": "門前町",
    "town_kana": "モンゼンマチ",
    "street": null,
    "office_name": null,
    "office_name_kana": null
  },
  "0846": {
    "zip_code": "9820846",
    "prefecture": "宮城県",
    "prefecture_kana": "ミヤギケン",
    "prefecture_code": 4,
    "city": "仙台市太白区",
    "city_kana": "センダイシタイハクク",
    "town": "二ツ沢",
    "town_kana": "フタツサワ",
    "street": null,
    "office_name": null,
    "office_name_kana": null
  },
  "0847": {
    "zip_code": "9820847",
    "prefecture": "宮城県",
    "prefecture_kana": "ミヤギケン",
    "prefecture_code": 4,
    "city": "仙台市太白区",
    "city_kana": "センダイシタイハクク",
    "town": "長嶺",
    "town_kana": "ナガミネ",
    "street": null,
    "office_name": null,
    "office_name_kana": null
  },
  "0848": {
    "zip_code": "9820848",
    "prefecture": "宮城県",
    "prefecture_kana": "ミヤギケン",
    "prefecture_code": 4,
    "city": "仙台市太白区",
    "city_kana": "センダイシタイハクク",
    "town": "萩ケ丘",
    "town_kana": "ハギガオカ",
    "street": null,
    "office_name": null,
    "office_name_kana": null
  },
  "8501": {
    "zip_code": "9828501",
    "prefecture": "宮城県",
    "prefecture_kana": "ミヤギケン",
    "prefecture_code": 4,
    "city": "仙台市太白区",
    "city_kana": "センダイシタイハクク",
    "town": "八木山本町",
    "town_kana": "ヤギヤマホンチョウ",
    "street": "２丁目４３−３",
    "office_name": "仙台赤十字病院",
    "office_name_kana": "センダイセキジユウジビヨウイン"
  },
  "8502": {
    "zip_code": "9828502",
    "prefecture": "宮城県",
    "prefecture_kana": "ミヤギケン",
    "prefecture_code": 4,
    "city": "仙台市太白区",
    "city_kana": "センダイシタイハクク",
    "town": "あすと長町",
    "town_kana": "アストナガマチ",
    "street": "１丁目１番１号",
    "office_name": "仙台市立病院",
    "office_name_kana": "センダイシリツビヨウイン"
  },
  "8510": {
    "zip_code": "9828510",
    "prefecture": "宮城県",
    "prefecture_kana": "ミヤギケン",
    "prefecture_code": 4,
    "city": "仙台市太白区",
    "city_kana": "センダイシタイハクク",
    "town": "郡山",
    "town_kana": "コオリヤマ",
    "street": "６丁目７−１",
    "office_name": "ＮＥＣトーキン　株式会社",
    "office_name_kana": "エヌイ-シ-ト-キン カブシキガイシヤ"
  },
  "8511": {
    "zip_code": "9828511",
    "prefecture": "宮城県",
    "prefecture_kana": "ミヤギケン",
    "prefecture_code": 4,
    "city": "仙台市太白区",
    "city_kana": "センダイシタイハクク",
    "town": "鈎取",
    "town_kana": "カギトリ",
    "street": "字向原前６−２",
    "office_name": "北日本電線　株式会社",
    "office_name_kana": "キタニホンデンセン カブシキガイシヤ"
  },
  "8521": {
    "zip_code": "9828521",
    "prefecture": "宮城県",
    "prefecture_kana": "ミヤギケン",
    "prefecture_code": 4,
    "city": "仙台市太白区",
    "city_kana": "センダイシタイハクク",
    "town": "八木山香澄町",
    "town_kana": "ヤギヤマカスミチョウ",
    "street": "３５−１",
    "office_name": "株式会社　ユニパル",
    "office_name_kana": "カブシキガイシヤ ユニパル"
  },
  "8523": {
    "zip_code": "9828523",
    "prefecture": "宮城県",
    "prefecture_kana": "ミヤギケン",
    "prefecture_code": 4,
    "city": "仙台市太白区",
    "city_kana": "センダイシタイハクク",
    "town": "長町南",
    "town_kana": "ナガマチミナミ",
    "street": "４丁目２０−１",
    "office_name": "財団法人　広南会　広南病院",
    "office_name_kana": "ザイダンホウジン コウナンカイ コウナンビヨウイン"
  },
  "8531": {
    "zip_code": "9828531",
    "prefecture": "宮城県",
    "prefecture_kana": "ミヤギケン",
    "prefecture_code": 4,
    "city": "仙台市太白区",
    "city_kana": "センダイシタイハクク",
    "town": "長町南",
    "town_kana": "ナガマチミナミ",
    "street": "１−３−１",
    "office_name": "仙台南年金事務所",
    "office_name_kana": "センダイミナミネンキンジムシヨ"
  },
  "8544": {
    "zip_code": "9828544",
    "prefecture": "宮城県",
    "prefecture_kana": "ミヤギケン",
    "prefecture_code": 4,
    "city": "仙台市太白区",
    "city_kana": "センダイシタイハクク",
    "town": "西多賀",
    "town_kana": "ニシタガ",
    "street": "４丁目１９−１",
    "office_name": "社会福祉法人　ありのまま舎",
    "office_name_kana": "シヤカイフクシホウジン アリノママシヤ"
  },
  "8551": {
    "zip_code": "9828551",
    "prefecture": "宮城県",
    "prefecture_kana": "ミヤギケン",
    "prefecture_code": 4,
    "city": "仙台市太白区",
    "city_kana": "センダイシタイハクク",
    "town": "柳生",
    "town_kana": "ヤナギウ",
    "street": "２丁目２８−２",
    "office_name": "仙台南税務署",
    "office_name_kana": "センダイミナミゼイムシヨ"
  },
  "8555": {
    "zip_code": "9828555",
    "prefecture": "宮城県",
    "prefecture_kana": "ミヤギケン",
    "prefecture_code": 4,
    "city": "仙台市太白区",
    "city_kana": "センダイシタイハクク",
    "town": "鈎取本町",
    "town_kana": "カギトリホンチョウ",
    "street": "２丁目１１−１１",
    "office_name": "国立療養所　西多賀病院",
    "office_name_kana": "コクリツリヨウヨウジヨ ニシタガビヨウイン"
  },
  "8566": {
    "zip_code": "9828566",
    "prefecture": "宮城県",
    "prefecture_kana": "ミヤギケン",
    "prefecture_code": 4,
    "city": "仙台市太白区",
    "city_kana": "センダイシタイハクク",
    "town": "あすと長町",
    "town_kana": "アストナガマチ",
    "street": "四丁目１番６０号",
    "office_name": "国土交通省　東北地方整備局　仙台河川国道事務所",
    "office_name_kana": "コクドコウツウシヨウ トウホクチホウセイビキヨク センダイカセンコクドウジムシヨ"
  },
  "8577": {
    "zip_code": "9828577",
    "prefecture": "宮城県",
    "prefecture_kana": "ミヤギケン",
    "prefecture_code": 4,
    "city": "仙台市太白区",
    "city_kana": "センダイシタイハクク",
    "town": "八木山香澄町",
    "town_kana": "ヤギヤマカスミチョウ",
    "street": "３５−１",
    "office_name": "東北工業大学　香澄町校舎",
    "office_name_kana": "トウホクコウギヨウダイガク カスミマチコウシヤ"
  },
  "8585": {
    "zip_code": "9828585",
    "prefecture": "宮城県",
    "prefecture_kana": "ミヤギケン",
    "prefecture_code": 4,
    "city": "仙台市太白区",
    "city_kana": "センダイシタイハクク",
    "town": "南大野田",
    "town_kana": "ミナミオオノダ",
    "street": "２９−１",
    "office_name": "仙台市水道局",
    "office_name_kana": "センダイシスイドウキヨク"
  },
  "8588": {
    "zip_code": "9828588",
    "prefecture": "宮城県",
    "prefecture_kana": "ミヤギケン",
    "prefecture_code": 4,
    "city": "仙台市太白区",
    "city_kana": "センダイシタイハクク",
    "town": "二ツ沢",
    "town_kana": "フタツサワ",
    "street": "６",
    "office_name": "東北工業大学　二ツ沢校舎",
    "office_name_kana": "トウホクコウギヨウダイガク フタツサワコウシヤ"
  },
  "8601": {
    "zip_code": "9828601",
    "prefecture": "宮城県",
    "prefecture_kana": "ミヤギケン",
    "prefecture_code": 4,
    "city": "仙台市太白区",
    "city_kana": "センダイシタイハクク",
    "town": "長町南",
    "town_kana": "ナガマチミナミ",
    "street": "３丁目１−１５",
    "office_name": "仙台市太白区役所",
    "office_name_kana": "センダイシタイハククヤクシヨ"
  },
  "8798": {
    "zip_code": "9828798",
    "prefecture": "宮城県",
    "prefecture_kana": "ミヤギケン",
    "prefecture_code": 4,
    "city": "仙台市太白区",
    "city_kana": "センダイシタイハクク",
    "town": "八木山本町",
    "town_kana": "ヤギヤマホンチョウ",
    "street": "２丁目１１−１",
    "office_name": "東北郵政研修センター",
    "office_name_kana": "トウホクユウセイケンシユウセンタ-"
  }
}