{
  "0000": {
    "zip_code": "9880000",
    "prefecture": "宮城県",
    "prefecture_kana": "ミヤギケン",
    "prefecture_code": 4,
    "city": "気仙沼市",
    "city_kana": "ケセンヌマシ",
    "town": "",
    "town_kana": "",
    "street": null,
    "office_name": null,
    "office_name_kana": null
  },
  "0001": {
    "zip_code": "9880001",
    "prefecture": "宮城県",
    "prefecture_kana": "ミヤギケン",
    "prefecture_code": 4,
    "city": "気仙沼市",
    "city_kana": "ケセンヌマシ",
    "town": "東みなと町",
    "town_kana": "ヒガシミナトチョウ",
    "street": null,
    "office_name": null,
    "office_name_kana": null
  },
  "0002": {
    "zip_code": "9880002",
    "prefecture": "宮城県",
    "prefecture_kana": "ミヤギケン",
    "prefecture_code": 4,
    "city": "気仙沼市",
    "city_kana": "ケセンヌマシ",
    "town": "錦町",
    "town_kana": "ニシキチョウ",
    "street": null,
    "office_name": null,
    "office_name_kana": null
  },
  "0003": {
    "zip_code": "9880003",
    "prefecture": "宮城県",
    "prefecture_kana": "ミヤギケン",
    "prefecture_code": 4,
    "city": "気仙沼市",
    "city_kana": "ケセンヌマシ",
    "town": "本浜町",
    "town_kana": "モトハマチョウ",
    "street": null,
    "office_name": null,
    "office_name_kana": null
  },
  "0004": {
    "zip_code": "9880004",
    "prefecture": "宮城県",
    "prefecture_kana": "ミヤギケン",
    "prefecture_code": 4,
    "city": "気仙沼市",
    "city_kana": "ケセンヌマシ",
    "town": "浜町",
    "town_kana": "ハマチョウ",
    "street": null,
    "office_name": null,
    "office_name_kana": null
  },
  "0005": {
    "zip_code": "9880005",
    "prefecture": "宮城県",
    "prefecture_kana": "ミヤギケン",
    "prefecture_code": 4,
    "city": "気仙沼市",
    "city_kana": "ケセンヌマシ",
    "town": "新浜町",
    "town_kana": "シンハマチョウ",
    "street": null,
    "office_name": null,
    "office_name_kana": null
  },
  "0006": {
    "zip_code": "9880006",
    "prefecture": "宮城県",
    "prefecture_kana": "ミヤギケン",
    "prefecture_code": 4,
    "city": "気仙沼市",
    "city_kana": "ケセンヌマシ",
    "town": "西みなと町",
    "town_kana": "ニシミナトチョウ",
    "street": null,
    "office_name": null,
    "office_name_kana": null
  },
  "0007": {
    "zip_code": "9880007",
    "prefecture": "宮城県",
    "prefecture_kana": "ミヤギケン",
    "prefecture_code": 4,
    "city": "気仙沼市",
    "city_kana": "ケセンヌマシ",
    "town": "中みなと町",
    "town_kana": "ナカミナトチョウ",
    "street": null,
    "office_name": null,
    "office_name_kana": null
  },
  "0008": {
    "zip_code": "9880008",
    "prefecture": "宮城県",
    "prefecture_kana": "ミヤギケン",
    "prefecture_code": 4,
    "city": "気仙沼市",
    "city_kana": "ケセンヌマシ",
    "town": "魚浜町",
    "town_kana": "ウオハマチョウ",
    "street": null,
    "office_name": null,
    "office_name_kana": null
  },
  "0011": {
    "zip_code": "9880011",
    "prefecture": "宮城県",
    "prefecture_kana": "ミヤギケン",
    "prefecture_code": 4,
    "city": "気仙沼市",
    "city_kana": "ケセンヌマシ",
    "town": "陣山",
    "town_kana": "ジンヤマ",
    "street": null,
    "office_name": null,
    "office_name_kana": null
  },
  "0012": {
    "zip_code": "9880012",
    "prefecture": "宮城県",
    "prefecture_kana": "ミヤギケン",
    "prefecture_code": 4,
    "city": "気仙沼市",
    "city_kana": "ケセンヌマシ",
    "town": "栄町",
    "town_kana": "サカエチョウ",
    "street": null,
    "office_name": null,
    "office_name_kana": null
  },
  "0013": {
    "zip_code": "9880013",
    "prefecture": "宮城県",
    "prefecture_kana": "ミヤギケン",
    "prefecture_code": 4,
    "city": "気仙沼市",
    "city_kana": "ケセンヌマシ",
    "town": "魚町",
    "town_kana": "サカナマチ",
    "street": null,
    "office_name": null,
    "office_name_kana": null
  },
  "0014": {
    "zip_code": "9880014",
    "prefecture": "宮城県",
    "prefecture_kana": "ミヤギケン",
    "prefecture_code": 4,
    "city": "気仙沼市",
    "city_kana": "ケセンヌマシ",
    "town": "柏崎",
    "town_kana": "カシザキ",
    "street": null,
    "office_name": null,
    "office_name_kana": null
  },
  "0015": {
    "zip_code": "9880015",
    "prefecture": "宮城県",
    "prefecture_kana": "ミヤギケン",
    "prefecture_code": 4,
    "city": "気仙沼市",
    "city_kana": "ケセンヌマシ",
    "town": "浜見山",
    "town_kana": "ハマミヤマ",
    "street": null,
    "office_name": null,
    "office_name_kana": null
  },
  "0016": {
    "zip_code": "9880016",
    "prefecture": "宮城県",
    "prefecture_kana": "ミヤギケン",
    "prefecture_code": 4,
    "city": "気仙沼市",
    "city_kana": "ケセンヌマシ",
    "town": "沢田",
    "town_kana": "サワダ",
    "street": null,
    "office_name": null,
    "office_name_kana": null
  },
  "0017": {
    "zip_code": "9880017",
    "prefecture": "宮城県",
    "prefecture_kana": "ミヤギケン",
    "prefecture_code": 4,
    "city": "気仙沼市",
    "city_kana": "ケセンヌマシ",
    "town": "南町",
    "town_kana": "ミナミマチ",
    "street": null,
    "office_name": null,
    "office_name_kana": null
  },
  "0018": {
    "zip_code": "9880018",
    "prefecture": "宮城県",
    "prefecture_kana": "ミヤギケン",
    "prefecture_code": 4,
    "city": "気仙沼市",
    "city_kana": "ケセンヌマシ",
    "town": "南町海岸",
    "town_kana": "ミナミマチカイガン",
    "street": null,
    "office_name": null,
    "office_name_kana": null
  },
  "0021": {
    "zip_code": "9880021",
    "prefecture": "宮城県",
    "prefecture_kana": "ミヤギケン",
    "prefecture_code": 4,
    "city": "気仙沼市",
    "city_kana": "ケセンヌマシ",
    "town": "港町",
    "town_kana": "ミナトマチ",
    "street": null,
    "office_name": null,
    "office_name_kana": null
  },
  "0022": {
    "zip_code": "9880022",
    "prefecture": "宮城県",
    "prefecture_kana": "ミヤギケン",
    "prefecture_code": 4,
    "city": "気仙沼市",
    "city_kana": "ケセンヌマシ",
    "town": "河原田",
    "town_kana": "カワラダ",
    "street": null,
    "office_name": null,
    "office_name_kana": null
  },
  "0023": {
    "zip_code": "9880023",
    "prefecture": "宮城県",
    "prefecture_kana": "ミヤギケン",
    "prefecture_code": 4,
    "city": "気仙沼市",
    "city_kana": "ケセンヌマシ",
    "town": "南が丘",
    "town_kana": "ミナミガオカ",
    "street": null,
    "office_name": null,
    "office_name_kana": null
  },
  "0024": {
    "zip_code": "9880024",
    "prefecture": "宮城県",
    "prefecture_kana": "ミヤギケン",
    "prefecture_code": 4,
    "city": "気仙沼市",
    "city_kana": "ケセンヌマシ",
    "town": "仲町",
    "town_kana": "ナカマチ",
    "street": null,
    "office_name": null,
    "office_name_kana": null
  },
  "0025": {
    "zip_code": "9880025",
    "prefecture": "宮城県",
    "prefecture_kana": "ミヤギケン",
    "prefecture_code": 4,
    "city": "気仙沼市",
    "city_kana": "ケセンヌマシ",
    "town": "内ノ脇",
    "town_kana": "ナイノワキ",
    "street": null,
    "office_name": null,
    "office_name_kana": null
  },
  "0026": {
    "zip_code": "9880026",
    "prefecture": "宮城県",
    "prefecture_kana": "ミヤギケン",
    "prefecture_code": 4,
    "city": "気仙沼市",
    "city_kana": "ケセンヌマシ",
    "town": "幸町",
    "town_kana": "サイワイチョウ",
    "street": null,
    "office_name": null,
    "office_name_kana": null
  },
  "0031": {
    "zip_code": "9880031",
    "prefecture": "宮城県",
    "prefecture_kana": "ミヤギケン",
    "prefecture_code": 4,
    "city": "気仙沼市",
    "city_kana": "ケセンヌマシ",
    "town": "潮見町",
    "town_kana": "シオミチョウ",
    "street": null,
    "office_name": null,
    "office_name_kana": null
  },
  "0032": {
    "zip_code": "9880032",
    "prefecture": "宮城県",
    "prefecture_kana": "ミヤギケン",
    "prefecture_code": 4,
    "city": "気仙沼市",
    "city_kana": "ケセンヌマシ",
    "town": "一景島",
    "town_kana": "イッケイジマ",
    "street": null,
    "office_name": null,
    "office_name_kana": null
  },
  "0033": {
    "zip_code": "9880033",
    "prefecture": "宮城県",
    "prefecture_kana": "ミヤギケン",
    "prefecture_code": 4,
    "city": "気仙沼市",
    "city_kana": "ケセンヌマシ",
    "town": "川口町",
    "town_kana": "カワグチチョウ",
    "street": null,
    "office_name": null,
    "office_name_kana": null
  },
  "0034": {
    "zip_code": "9880034",
    "prefecture": "宮城県",
    "prefecture_kana": "ミヤギケン",
    "prefecture_code": 4,
    "city": "気仙沼市",
    "city_kana": "ケセンヌマシ",
    "town": "朝日町",
    "town_kana": "アサヒチョウ",
    "street": null,
    "office_name": null,
    "office_name_kana": null
  },
  "0036": {
    "zip_code": "9880036",
    "prefecture": "宮城県",
    "prefecture_kana": "ミヤギケン",
    "prefecture_code": 4,
    "city": "気仙沼市",
    "city_kana": "ケセンヌマシ",
    "town": "弁天町",
    "town_kana": "ベンテンチョウ",
    "street": null,
    "office_name": null,
    "office_name_kana": null
  },
  "0037": {
    "zip_code": "9880037",
    "prefecture": "宮城県",
    "prefecture_kana": "ミヤギケン",
    "prefecture_code": 4,
    "city": "気仙沼市",
    "city_kana": "ケセンヌマシ",
    "town": "魚市場前",
    "town_kana": "ウオイチバマエ",
    "street": null,
    "office_name": null,
    "office_name_kana": null
  },
  "0041": {
    "zip_code": "9880041",
    "prefecture": "宮城県",
    "prefecture_kana": "ミヤギケン",
    "prefecture_code": 4,
    "city": "気仙沼市",
    "city_kana": "ケセンヌマシ",
    "town": "川畑",
    "town_kana": "カワバタ",
    "street": null,
    "office_name": null,
    "office_name_kana": null
  },
  "0042": {
    "zip_code": "9880042",
    "prefecture": "宮城県",
    "prefecture_kana": "ミヤギケン",
    "prefecture_code": 4,
    "city": "気仙沼市",
    "city_kana": "ケセンヌマシ",
    "town": "本郷",
    "town_kana": "ホンゴウ",
    "street": null,
    "office_name": null,
    "office_name_kana": null
  },
  "0043": {
    "zip_code": "9880043",
    "prefecture": "宮城県",
    "prefecture_kana": "ミヤギケン",
    "prefecture_code": 4,
    "city": "気仙沼市",
    "city_kana": "ケセンヌマシ",
    "town": "南郷",
    "town_kana": "ナンゴウ",
    "street": null,
    "office_name": null,
    "office_name_kana": null
  },
  "0044": {
    "zip_code": "9880044",
    "prefecture": "宮城県",
    "prefecture_kana": "ミヤギケン",
    "prefecture_code": 4,
    "city": "気仙沼市",
    "city_kana": "ケセンヌマシ",
    "town": "神山",
    "town_kana": "カミヤマ",
    "street": null,
    "office_name": null,
    "office_name_kana": null
  },
  "0045": {
    "zip_code": "9880045",
    "prefecture": "宮城県",
    "prefecture_kana": "ミヤギケン",
    "prefecture_code": 4,
    "city": "気仙沼市",
    "city_kana": "ケセンヌマシ",
    "town": "田谷",
    "town_kana": "タヤ",
    "street": null,
    "office_name": null,
    "office_name_kana": null
  },
  "0046": {
    "zip_code": "9880046",
    "prefecture": "宮城県",
    "prefecture_kana": "ミヤギケン",
    "prefecture_code": 4,
    "city": "気仙沼市",
    "city_kana": "ケセンヌマシ",
    "town": "田谷前",
    "town_kana": "タヤマエ",
    "street": null,
    "office_name": null,
    "office_name_kana": null
  },
  "0051": {
    "zip_code": "9880051",
    "prefecture": "宮城県",
    "prefecture_kana": "ミヤギケン",
    "prefecture_code": 4,
    "city": "気仙沼市",
    "city_kana": "ケセンヌマシ",
    "town": "常楽",
    "town_kana": "ジョウラク",
    "street": null,
    "office_name": null,
    "office_name_kana": null
  },
  "0052": {
    "zip_code": "9880052",
    "prefecture": "宮城県",
    "prefecture_kana": "ミヤギケン",
    "prefecture_code": 4,
    "city": "気仙沼市",
    "city_kana": "ケセンヌマシ",
    "town": "田中",
    "town_kana": "タナカ",
    "street": null,
    "office_name": null,
    "office_name_kana": null
  },
  "0053": {
    "zip_code": "9880053",
    "prefecture": "宮城県",
    "prefecture_kana": "ミヤギケン",
    "prefecture_code": 4,
    "city": "気仙沼市",
    "city_kana": "ケセンヌマシ",
    "town": "田中前",
    "town_kana": "タナカマエ",
    "street": null,
    "office_name": null,
    "office_name_kana": null
  },
  "0054": {
    "zip_code": "9880054",
    "prefecture": "宮城県",
    "prefecture_kana": "ミヤギケン",
    "prefecture_code": 4,
    "city": "気仙沼市",
    "city_kana": "ケセンヌマシ",
    "town": "駒場",
    "town_kana": "コマバ",
    "street": null,
    "office_name": null,
    "office_name_kana": null
  },
  "0055": {
    "zip_code": "9880055",
    "prefecture": "宮城県",
    "prefecture_kana": "ミヤギケン",
    "prefecture_code": 4,
    "city": "気仙沼市",
    "city_kana": "ケセンヌマシ",
    "town": "反松",
    "town_kana": "ソリマツ",
    "street": null,
    "office_name": null,
    "office_name_kana": null
  },
  "0056": {
    "zip_code": "9880056",
    "prefecture": "宮城県",
    "prefecture_kana": "ミヤギケン",
    "prefecture_code": 4,
    "city": "気仙沼市",
    "city_kana": "ケセンヌマシ",
    "town": "上田中",
    "town_kana": "カミタナカ",
    "street": null,
    "office_name": null,
    "office_name_kana": null
  },
  "0057": {
    "zip_code": "9880057",
    "prefecture": "宮城県",
    "prefecture_kana": "ミヤギケン",
    "prefecture_code": 4,
    "city": "気仙沼市",
    "city_kana": "ケセンヌマシ",
    "town": "所沢",
    "town_kana": "トコロザワ",
    "street": null,
    "office_name": null,
    "office_name_kana": null
  },
  "0058": {
    "zip_code": "9880058",
    "prefecture": "宮城県",
    "prefecture_kana": "ミヤギケン",
    "prefecture_code": 4,
    "city": "気仙沼市",
    "city_kana": "ケセンヌマシ",
    "town": "田中沖",
    "town_kana": "タナカオキ",
    "street": null,
    "office_name": null,
    "office_name_kana": null
  },
  "0061": {
    "zip_code": "9880061",
    "prefecture": "宮城県",
    "prefecture_kana": "ミヤギケン",
    "prefecture_code": 4,
    "city": "気仙沼市",
    "city_kana": "ケセンヌマシ",
    "town": "岩ケ崎",
    "town_kana": "イワガサキ",
    "street": null,
    "office_name": null,
    "office_name_kana": null
  },
  "0062": {
    "zip_code": "9880062",
    "prefecture": "宮城県",
    "prefecture_kana": "ミヤギケン",
    "prefecture_code": 4,
    "city": "気仙沼市",
    "city_kana": "ケセンヌマシ",
    "town": "明戸",
    "town_kana": "アケド",
    "street": null,
    "office_name": null,
    "office_name_kana": null
  },
  "0063": {
    "zip_code": "9880063",
    "prefecture": "宮城県",
    "prefecture_kana": "ミヤギケン",
    "prefecture_code": 4,
    "city": "気仙沼市",
    "city_kana": "ケセンヌマシ",
    "town": "四反田",
    "town_kana": "シタンダ",
    "street": null,
    "office_name": null,
    "office_name_kana": null
  },
  "0064": {
    "zip_code": "9880064",
    "prefecture": "宮城県",
    "prefecture_kana": "ミヤギケン",
    "prefecture_code": 4,
    "city": "気仙沼市",
    "city_kana": "ケセンヌマシ",
    "town": "九条",
    "town_kana": "クジョウ",
    "street": null,
    "office_name": null,
    "office_name_kana": null
  },
  "0065": {
    "zip_code": "9880065",
    "prefecture": "宮城県",
    "prefecture_kana": "ミヤギケン",
    "prefecture_code": 4,
    "city": "気仙沼市",
    "city_kana": "ケセンヌマシ",
    "town": "後九条",
    "town_kana": "ウシロクジョウ",
    "street": null,
    "office_name": null,
    "office_name_kana": null
  },
  "0066": {
    "zip_code": "9880066",
    "prefecture": "宮城県",
    "prefecture_kana": "ミヤギケン",
    "prefecture_code": 4,
    "city": "気仙沼市",
    "city_kana": "ケセンヌマシ",
    "town": "東新城",
    "town_kana": "ヒガシシンジョウ",
    "street": null,
    "office_name": null,
    "office_name_kana": null
  },
  "0071": {
    "zip_code": "9880071",
    "prefecture": "宮城県",
    "prefecture_kana": "ミヤギケン",
    "prefecture_code": 4,
    "city": "気仙沼市",
    "city_kana": "ケセンヌマシ",
    "town": "新町",
    "town_kana": "アラマチ",
    "street": null,
    "office_name": null,
    "office_name_kana": null
  },
  "0072": {
    "zip_code": "9880072",
    "prefecture": "宮城県",
    "prefecture_kana": "ミヤギケン",
    "prefecture_code": 4,
    "city": "気仙沼市",
    "city_kana": "ケセンヌマシ",
    "town": "化粧坂",
    "town_kana": "ケショウザカ",
    "street": null,
    "office_name": null,
    "office_name_kana": null
  },
  "0073": {
    "zip_code": "9880073",
    "prefecture": "宮城県",
    "prefecture_kana": "ミヤギケン",
    "prefecture_code": 4,
    "city": "気仙沼市",
    "city_kana": "ケセンヌマシ",
    "town": "笹が陣",
    "town_kana": "ササガジン",
    "street": null,
    "office_name": null,
    "office_name_kana": null
  },
  "0074": {
    "zip_code": "9880074",
    "prefecture": "宮城県",
    "prefecture_kana": "ミヤギケン",
    "prefecture_code": 4,
    "city": "気仙沼市",
    "city_kana": "ケセンヌマシ",
    "town": "本町",
    "town_kana": "モトマチ",
    "street": null,
    "office_name": null,
    "office_name_kana": null
  },
  "0075": {
    "zip_code": "9880075",
    "prefecture": "宮城県",
    "prefecture_kana": "ミヤギケン",
    "prefecture_code": 4,
    "city": "気仙沼市",
    "city_kana": "ケセンヌマシ",
    "town": "赤坂",
    "town_kana": "アカサカ",
    "street": null,
    "office_name": null,
    "office_name_kana": null
  },
  "0076": {
    "zip_code": "9880076",
    "prefecture": "宮城県",
    "prefecture_kana": "ミヤギケン",
    "prefecture_code": 4,
    "city": "気仙沼市",
    "city_kana": "ケセンヌマシ",
    "town": "舘山",
    "town_kana": "タテヤマ",
    "street": null,
    "office_name": null,
    "office_name_kana": null
  },
  "0077": {
    "zip_code": "9880077",
    "prefecture": "宮城県",
    "prefecture_kana": "ミヤギケン",
    "prefecture_code": 4,
    "city": "気仙沼市",
    "city_kana": "ケセンヌマシ",
    "town": "古町",
    "town_kana": "フルマチ",
    "street": null,
    "office_name": null,
    "office_name_kana": null
  },
  "0081": {
    "zip_code": "9880081",
    "prefecture": "宮城県",
    "prefecture_kana": "ミヤギケン",
    "prefecture_code": 4,
    "city": "気仙沼市",
    "city_kana": "ケセンヌマシ",
    "town": "蔵底",
    "town_kana": "クラソコ",
    "street": null,
    "office_name": null,
    "office_name_kana": null
  },
  "0082": {
    "zip_code": "9880082",
    "prefecture": "宮城県",
    "prefecture_kana": "ミヤギケン",
    "prefecture_code": 4,
    "city": "気仙沼市",
    "city_kana": "ケセンヌマシ",
    "town": "太田",
    "town_kana": "オオタ",
    "street": null,
    "office_name": null,
    "office_name_kana": null
  },
  "0083": {
    "zip_code": "9880083",
    "prefecture": "宮城県",
    "prefecture_kana": "ミヤギケン",
    "prefecture_code": 4,
    "city": "気仙沼市",
    "city_kana": "ケセンヌマシ",
    "town": "入沢",
    "town_kana": "イリサワ",
    "street": null,
    "office_name": null,
    "office_name_kana": null
  },
  "0084": {
    "zip_code": "9880084",
    "prefecture": "宮城県",
    "prefecture_kana": "ミヤギケン",
    "prefecture_code": 4,
    "city": "気仙沼市",
    "city_kana": "ケセンヌマシ",
    "town": "八日町",
    "town_kana": "ヨウカマチ",
    "street": null,
    "office_name": null,
    "office_name_kana": null
  },
  "0085": {
    "zip_code": "9880085",
    "prefecture": "宮城県",
    "prefecture_kana": "ミヤギケン",
    "prefecture_code": 4,
    "city": "気仙沼市",
    "city_kana": "ケセンヌマシ",
    "town": "三日町",
    "town_kana": "ミッカマチ",
    "street": null,
    "office_name": null,
    "office_name_kana": null
  },
  "0086": {
    "zip_code": "9880086",
    "prefecture": "宮城県",
    "prefecture_kana": "ミヤギケン",
    "prefecture_code": 4,
    "city": "気仙沼市",
    "city_kana": "ケセンヌマシ",
    "town": "福美町",
    "town_kana": "フクミチョウ",
    "street": null,
    "office_name": null,
    "office_name_kana": null
  },
  "0087": {
    "zip_code": "9880087",
    "prefecture": "宮城県",
    "prefecture_kana": "ミヤギケン",
    "prefecture_code": 4,
    "city": "気仙沼市",
    "city_kana": "ケセンヌマシ",
    "town": "滝の入",
    "town_kana": "タキノイリ",
    "street": null,
    "office_name": null,
    "office_name_kana": null
  },
  "0101": {
    "zip_code": "9880101",
    "prefecture": "宮城県",
    "prefecture_kana": "ミヤギケン",
    "prefecture_code": 4,
    "city": "気仙沼市",
    "city_kana": "ケセンヌマシ",
    "town": "赤岩舘下",
    "town_kana": "アカイワタテシタ",
    "street": null,
    "office_name": null,
    "office_name_kana": null
  },
  "0102": {
    "zip_code": "9880102",
    "prefecture": "宮城県",
    "prefecture_kana": "ミヤギケン",
    "prefecture_code": 4,
    "city": "気仙沼市",
    "city_kana": "ケセンヌマシ",
    "town": "赤岩舘森",
    "town_kana": "アカイワタテモリ",
    "street": null,
    "office_name": null,
    "office_name_kana": null
  },
  "0103": {
    "zip_code": "9880103",
    "prefecture": "宮城県",
    "prefecture_kana": "ミヤギケン",
    "prefecture_code": 4,
    "city": "気仙沼市",
    "city_kana": "ケセンヌマシ",
    "town": "赤岩港",
    "town_kana": "アカイワミナト",
    "street": null,
    "office_name": null,
    "office_name_kana": null
  },
  "0104": {
    "zip_code": "9880104",
    "prefecture": "宮城県",
    "prefecture_kana": "ミヤギケン",
    "prefecture_code": 4,
    "city": "気仙沼市",
    "city_kana": "ケセンヌマシ",
    "town": "赤岩五駄鱈",
    "town_kana": "アカイワゴダンタラ",
    "street": null,
    "office_name": null,
    "office_name_kana": null
  },
  "0105": {
    "zip_code": "9880105",
    "prefecture": "宮城県",
    "prefecture_kana": "ミヤギケン",
    "prefecture_code": 4,
    "city": "気仙沼市",
    "city_kana": "ケセンヌマシ",
    "town": "赤岩老松",
    "town_kana": "アカイワオイノマツ",
    "street": null,
    "office_name": null,
    "office_name_kana": null
  },
  "0111": {
    "zip_code": "9880111",
    "prefecture": "宮城県",
    "prefecture_kana": "ミヤギケン",
    "prefecture_code": 4,
    "city": "気仙沼市",
    "city_kana": "ケセンヌマシ",
    "town": "松崎北沢",
    "town_kana": "マツザキキタサワ",
    "street": null,
    "office_name": null,
    "office_name_kana": null
  },
  "0112": {
    "zip_code": "9880112",
    "prefecture": "宮城県",
    "prefecture_kana": "ミヤギケン",
    "prefecture_code": 4,
    "city": "気仙沼市",
    "city_kana": "ケセンヌマシ",
    "town": "松崎前浜",
    "town_kana": "マツザキマエハマ",
    "street": null,
    "office_name": null,
    "office_name_kana": null
  },
  "0113": {
    "zip_code": "9880113",
    "prefecture": "宮城県",
    "prefecture_kana": "ミヤギケン",
    "prefecture_code": 4,
    "city": "気仙沼市",
    "city_kana": "ケセンヌマシ",
    "town": "松崎片浜",
    "town_kana": "マツザキカタハマ",
    "street": null,
    "office_name": null,
    "office_name_kana": null
  },
  "0114": {
    "zip_code": "9880114",
    "prefecture": "宮城県",
    "prefecture_kana": "ミヤギケン",
    "prefecture_code": 4,
    "city": "気仙沼市",
    "city_kana": "ケセンヌマシ",
    "town": "松崎浦田",
    "town_kana": "マツザキウラダ",
    "street": null,
    "office_name": null,
    "office_name_kana": null
  },
  "0121": {
    "zip_code": "9880121",
    "prefecture": "宮城県",
    "prefecture_kana": "ミヤギケン",
    "prefecture_code": 4,
    "city": "気仙沼市",
    "city_kana": "ケセンヌマシ",
    "town": "松崎萱",
    "town_kana": "マツザキカヤ",
    "street": null,
    "office_name": null,
    "office_name_kana": null
  },
  "0122": {
    "zip_code": "9880122",
    "prefecture": "宮城県",
    "prefecture_kana": "ミヤギケン",
    "prefecture_code": 4,
    "city": "気仙沼市",
    "city_kana": "ケセンヌマシ",
    "town": "松崎五駄鱈",
    "town_kana": "マツザキゴダンタラ",
    "street": null,
    "office_name": null,
    "office_name_kana": null
  },
  "0123": {
    "zip_code": "9880123",
    "prefecture": "宮城県",
    "prefecture_kana": "ミヤギケン",
    "prefecture_code": 4,
    "city": "気仙沼市",
    "city_kana": "ケセンヌマシ",
    "town": "松崎中瀬",
    "town_kana": "マツザキナカゼ",
    "street": null,
    "office_name": null,
    "office_name_kana": null
  },
  "0124": {
    "zip_code": "9880124",
    "prefecture": "宮城県",
    "prefecture_kana": "ミヤギケン",
    "prefecture_code": 4,
    "city": "気仙沼市",
    "city_kana": "ケセンヌマシ",
    "town": "松崎高谷",
    "town_kana": "マツザキタカヤ",
    "street": null,
    "office_name": null,
    "office_name_kana": null
  },
  "0131": {
    "zip_code": "9880131",
    "prefecture": "宮城県",
    "prefecture_kana": "ミヤギケン",
    "prefecture_code": 4,
    "city": "気仙沼市",
    "city_kana": "ケセンヌマシ",
    "town": "松崎尾崎",
    "town_kana": "マツザキオサキ",
    "street": null,
    "office_name": null,
    "office_name_kana": null
  },
  "0132": {
    "zip_code": "9880132",
    "prefecture": "宮城県",
    "prefecture_kana": "ミヤギケン",
    "prefecture_code": 4,
    "city": "気仙沼市",
    "city_kana": "ケセンヌマシ",
    "town": "松崎馬場",
    "town_kana": "マツザキババ",
    "street": null,
    "office_name": null,
    "office_name_kana": null
  },
  "0133": {
    "zip_code": "9880133",
    "prefecture": "宮城県",
    "prefecture_kana": "ミヤギケン",
    "prefecture_code": 4,
    "city": "気仙沼市",
    "city_kana": "ケセンヌマシ",
    "town": "松崎下赤田",
    "town_kana": "マツザキシモアカダ",
    "street": null,
    "office_name": null,
    "office_name_kana": null
  },
  "0134": {
    "zip_code": "9880134",
    "prefecture": "宮城県",
    "prefecture_kana": "ミヤギケン",
    "prefecture_code": 4,
    "city": "気仙沼市",
    "city_kana": "ケセンヌマシ",
    "town": "松崎上赤田",
    "town_kana": "マツザキカミアカダ",
    "street": null,
    "office_name": null,
    "office_name_kana": null
  },
  "0141": {
    "zip_code": "9880141",
    "prefecture": "宮城県",
    "prefecture_kana": "ミヤギケン",
    "prefecture_code": 4,
    "city": "気仙沼市",
    "city_kana": "ケセンヌマシ",
    "town": "松崎柳沢",
    "town_kana": "マツザキヤナギサワ",
    "street": null,
    "office_name": null,
    "office_name_kana": null
  },
  "0142": {
    "zip_code": "9880142",
    "prefecture": "宮城県",
    "prefecture_kana": "ミヤギケン",
    "prefecture_code": 4,
    "city": "気仙沼市",
    "city_kana": "ケセンヌマシ",
    "town": "松崎丸森",
    "town_kana": "マツザキマルモリ",
    "street": null,
    "office_name": null,
    "office_name_kana": null
  },
  "0143": {
    "zip_code": "9880143",
    "prefecture": "宮城県",
    "prefecture_kana": "ミヤギケン",
    "prefecture_code": 4,
    "city": "気仙沼市",
    "city_kana": "ケセンヌマシ",
    "town": "松崎地生",
    "town_kana": "マツザキジショウ",
    "street": null,
    "office_name": null,
    "office_name_kana": null
  },
  "0144": {
    "zip_code": "9880144",
    "prefecture": "宮城県",
    "prefecture_kana": "ミヤギケン",
    "prefecture_code": 4,
    "city": "気仙沼市",
    "city_kana": "ケセンヌマシ",
    "town": "松崎鶴巻",
    "town_kana": "マツザキツルマキ",
    "street": null,
    "office_name": null,
    "office_name_kana": null
  },
  "0151": {
    "zip_code": "9880151",
    "prefecture": "宮城県",
    "prefecture_kana": "ミヤギケン",
    "prefecture_code": 4,
    "city": "気仙沼市",
    "city_kana": "ケセンヌマシ",
    "town": "松崎立石",
    "town_kana": "マツザキタテイシ",
    "street": null,
    "office_name": null,
    "office_name_kana": null
  },
  "0152": {
    "zip_code": "9880152",
    "prefecture": "宮城県",
    "prefecture_kana": "ミヤギケン",
    "prefecture_code": 4,
    "city": "気仙沼市",
    "city_kana": "ケセンヌマシ",
    "town": "松崎外ケ沢",
    "town_kana": "マツザキソトガサワ",
    "street": null,
    "office_name": null,
    "office_name_kana": null
  },
  "0153": {
    "zip_code": "9880153",
    "prefecture": "宮城県",
    "prefecture_kana": "ミヤギケン",
    "prefecture_code": 4,
    "city": "気仙沼市",
    "city_kana": "ケセンヌマシ",
    "town": "松崎面瀬",
    "town_kana": "マツザキオモセ",
    "street": null,
    "office_name": null,
    "office_name_kana": null
  },
  "0154": {
    "zip_code": "9880154",
    "prefecture": "宮城県",
    "prefecture_kana": "ミヤギケン",
    "prefecture_code": 4,
    "city": "気仙沼市",
    "city_kana": "ケセンヌマシ",
    "town": "松崎猫渕",
    "town_kana": "マツザキネコブチ",
    "street": null,
    "office_name": null,
    "office_name_kana": null
  },
  "0155": {
    "zip_code": "9880155",
    "prefecture": "宮城県",
    "prefecture_kana": "ミヤギケン",
    "prefecture_code": 4,
    "city": "気仙沼市",
    "city_kana": "ケセンヌマシ",
    "town": "松崎大萱",
    "town_kana": "マツザキオオカヤ",
    "street": null,
    "office_name": null,
    "office_name_kana": null
  },
  "0156": {
    "zip_code": "9880156",
    "prefecture": "宮城県",
    "prefecture_kana": "ミヤギケン",
    "prefecture_code": 4,
    "city": "気仙沼市",
    "city_kana": "ケセンヌマシ",
    "town": "松崎下金取",
    "town_kana": "マツザキシモカネトリ",
    "street": null,
    "office_name": null,
    "office_name_kana": null
  },
  "0157": {
    "zip_code": "9880157",
    "prefecture": "宮城県",
    "prefecture_kana": "ミヤギケン",
    "prefecture_code": 4,
    "city": "気仙沼市",
    "city_kana": "ケセンヌマシ",
    "town": "松崎上金取",
    "town_kana": "マツザキカミカネトリ",
    "street": null,
    "office_name": null,
    "office_name_kana": null
  },
  "0161": {
    "zip_code": "9880161",
    "prefecture": "宮城県",
    "prefecture_kana": "ミヤギケン",
    "prefecture_code": 4,
    "city": "気仙沼市",
    "city_kana": "ケセンヌマシ",
    "town": "赤岩高前田",
    "town_kana": "アカイワタカマエダ",
    "street": null,
    "office_name": null,
    "office_name_kana": null
  },
  "0162": {
    "zip_code": "9880162",
    "prefecture": "宮城県",
    "prefecture_kana": "ミヤギケン",
    "prefecture_code": 4,
    "city": "気仙沼市",
    "city_kana": "ケセンヌマシ",
    "town": "赤岩前田",
    "town_kana": "アカイワマエダ",
    "street": null,
    "office_name": null,
    "office_name_kana": null
  },
  "0163": {
    "zip_code": "9880163",
    "prefecture": "宮城県",
    "prefecture_kana": "ミヤギケン",
    "prefecture_code": 4,
    "city": "気仙沼市",
    "city_kana": "ケセンヌマシ",
    "town": "赤岩迎前田",
    "town_kana": "アカイワムカエマエダ",
    "street": null,
    "office_name": null,
    "office_name_kana": null
  },
  "0164": {
    "zip_code": "9880164",
    "prefecture": "宮城県",
    "prefecture_kana": "ミヤギケン",
    "prefecture_code": 4,
    "city": "気仙沼市",
    "city_kana": "ケセンヌマシ",
    "town": "赤岩四十二",
    "town_kana": "アカイワシジュウニ",
    "street": null,
    "office_name": null,
    "office_name_kana": null
  },
  "0165": {
    "zip_code": "9880165",
    "prefecture": "宮城県",
    "prefecture_kana": "ミヤギケン",
    "prefecture_code": 4,
    "city": "気仙沼市",
    "city_kana": "ケセンヌマシ",
    "town": "赤岩物見",
    "town_kana": "アカイワモノミ",
    "street": null,
    "office_name": null,
    "office_name_kana": null
  },
  "0166": {
    "zip_code": "9880166",
    "prefecture": "宮城県",
    "prefecture_kana": "ミヤギケン",
    "prefecture_code": 4,
    "city": "気仙沼市",
    "city_kana": "ケセンヌマシ",
    "town": "赤岩上羽田",
    "town_kana": "アカイワカミハダ",
    "street": null,
    "office_name": null,
    "office_name_kana": null
  },
  "0167": {
    "zip_code": "9880167",
    "prefecture": "宮城県",
    "prefecture_kana": "ミヤギケン",
    "prefecture_code": 4,
    "city": "気仙沼市",
    "city_kana": "ケセンヌマシ",
    "town": "赤岩羽田",
    "town_kana": "アカイワハダ",
    "street": null,
    "office_name": null,
    "office_name_kana": null
  },
  "0168": {
    "zip_code": "9880168",
    "prefecture": "宮城県",
    "prefecture_kana": "ミヤギケン",
    "prefecture_code": 4,
    "city": "気仙沼市",
    "city_kana": "ケセンヌマシ",
    "town": "赤岩水梨子",
    "town_kana": "アカイワミズナシ",
    "street": null,
    "office_name": null,
    "office_name_kana": null
  },
  "0169": {
    "zip_code": "9880169",
    "prefecture": "宮城県",
    "prefecture_kana": "ミヤギケン",
    "prefecture_code": 4,
    "city": "気仙沼市",
    "city_kana": "ケセンヌマシ",
    "town": "物倉山",
    "town_kana": "モノクラヤマ",
    "street": null,
    "office_name": null,
    "office_name_kana": null
  },
  "0171": {
    "zip_code": "9880171",
    "prefecture": "宮城県",
    "prefecture_kana": "ミヤギケン",
    "prefecture_code": 4,
    "city": "気仙沼市",
    "city_kana": "ケセンヌマシ",
    "town": "赤岩牧沢",
    "town_kana": "アカイワマキサワ",
    "street": null,
    "office_name": null,
    "office_name_kana": null
  },
  "0172": {
    "zip_code": "9880172",
    "prefecture": "宮城県",
    "prefecture_kana": "ミヤギケン",
    "prefecture_code": 4,
    "city": "気仙沼市",
    "city_kana": "ケセンヌマシ",
    "town": "赤岩大石倉",
    "town_kana": "アカイワオオイシクラ",
    "street": null,
    "office_name": null,
    "office_name_kana": null
  },
  "0173": {
    "zip_code": "9880173",
    "prefecture": "宮城県",
    "prefecture_kana": "ミヤギケン",
    "prefecture_code": 4,
    "city": "気仙沼市",
    "city_kana": "ケセンヌマシ",
    "town": "赤岩長柴",
    "town_kana": "アカイワナガシバ",
    "street": null,
    "office_name": null,
    "office_name_kana": null
  },
  "0174": {
    "zip_code": "9880174",
    "prefecture": "宮城県",
    "prefecture_kana": "ミヤギケン",
    "prefecture_code": 4,
    "city": "気仙沼市",
    "city_kana": "ケセンヌマシ",
    "town": "赤岩大滝",
    "town_kana": "アカイワオオタキ",
    "street": null,
    "office_name": null,
    "office_name_kana": null
  },
  "0181": {
    "zip_code": "9880181",
    "prefecture": "宮城県",
    "prefecture_kana": "ミヤギケン",
    "prefecture_code": 4,
    "city": "気仙沼市",
    "city_kana": "ケセンヌマシ",
    "town": "赤岩杉ノ沢",
    "town_kana": "アカイワスギノサワ",
    "street": null,
    "office_name": null,
    "office_name_kana": null
  },
  "0182": {
    "zip_code": "9880182",
    "prefecture": "宮城県",
    "prefecture_kana": "ミヤギケン",
    "prefecture_code": 4,
    "city": "気仙沼市",
    "city_kana": "ケセンヌマシ",
    "town": "赤岩石兜",
    "town_kana": "アカイワイシカブト",
    "street": null,
    "office_name": null,
    "office_name_kana": null
  },
  "0183": {
    "zip_code": "9880183",
    "prefecture": "宮城県",
    "prefecture_kana": "ミヤギケン",
    "prefecture_code": 4,
    "city": "気仙沼市",
    "city_kana": "ケセンヌマシ",
    "town": "赤岩泥ノ木",
    "town_kana": "アカイワドロノキ",
    "street": null,
    "office_name": null,
    "office_name_kana": null
  },
  "0184": {
    "zip_code": "9880184",
    "prefecture": "宮城県",
    "prefecture_kana": "ミヤギケン",
    "prefecture_code": 4,
    "city": "気仙沼市",
    "city_kana": "ケセンヌマシ",
    "town": "赤岩平貝",
    "town_kana": "アカイワヒラガイ",
    "street": null,
    "office_name": null,
    "office_name_kana": null
  },
  "0185": {
    "zip_code": "9880185",
    "prefecture": "宮城県",
    "prefecture_kana": "ミヤギケン",
    "prefecture_code": 4,
    "city": "気仙沼市",
    "city_kana": "ケセンヌマシ",
    "town": "赤岩小田",
    "town_kana": "アカイワオダ",
    "street": null,
    "office_name": null,
    "office_name_kana": null
  },
  "0201": {
    "zip_code": "9880201",
    "prefecture": "宮城県",
    "prefecture_kana": "ミヤギケン",
    "prefecture_code": 4,
    "city": "気仙沼市",
    "city_kana": "ケセンヌマシ",
    "town": "岩月千岩田",
    "town_kana": "イワツキセンガンダ",
    "street": null,
    "office_name": null,
    "office_name_kana": null
  },
  "0202": {
    "zip_code": "9880202",
    "prefecture": "宮城県",
    "prefecture_kana": "ミヤギケン",
    "prefecture_code": 4,
    "city": "気仙沼市",
    "city_kana": "ケセンヌマシ",
    "town": "岩月台ノ沢",
    "town_kana": "イワツキダイノサワ",
    "street": null,
    "office_name": null,
    "office_name_kana": null
  },
  "0203": {
    "zip_code": "9880203",
    "prefecture": "宮城県",
    "prefecture_kana": "ミヤギケン",
    "prefecture_code": 4,
    "city": "気仙沼市",
    "city_kana": "ケセンヌマシ",
    "town": "岩月星谷",
    "town_kana": "イワツキホシヤ",
    "street": null,
    "office_name": null,
    "office_name_kana": null
  },
  "0204": {
    "zip_code": "9880204",
    "prefecture": "宮城県",
    "prefecture_kana": "ミヤギケン",
    "prefecture_code": 4,
    "city": "気仙沼市",
    "city_kana": "ケセンヌマシ",
    "town": "岩月長平",
    "town_kana": "イワツキナガダイラ",
    "street": null,
    "office_name": null,
    "office_name_kana": null
  },
  "0205": {
    "zip_code": "9880205",
    "prefecture": "宮城県",
    "prefecture_kana": "ミヤギケン",
    "prefecture_code": 4,
    "city": "気仙沼市",
    "city_kana": "ケセンヌマシ",
    "town": "岩月箒沢",
    "town_kana": "イワツキホウキサワ",
    "street": null,
    "office_name": null,
    "office_name_kana": null
  },
  "0206": {
    "zip_code": "9880206",
    "prefecture": "宮城県",
    "prefecture_kana": "ミヤギケン",
    "prefecture_code": 4,
    "city": "気仙沼市",
    "city_kana": "ケセンヌマシ",
    "town": "岩月寺沢",
    "town_kana": "イワツキテラサワ",
    "street": null,
    "office_name": null,
    "office_name_kana": null
  },
  "0207": {
    "zip_code": "9880207",
    "prefecture": "宮城県",
    "prefecture_kana": "ミヤギケン",
    "prefecture_code": 4,
    "city": "気仙沼市",
    "city_kana": "ケセンヌマシ",
    "town": "岩月宝ケ沢",
    "town_kana": "イワツキタカラガサワ",
    "street": null,
    "office_name": null,
    "office_name_kana": null
  },
  "0211": {
    "zip_code": "9880211",
    "prefecture": "宮城県",
    "prefecture_kana": "ミヤギケン",
    "prefecture_code": 4,
    "city": "気仙沼市",
    "city_kana": "ケセンヌマシ",
    "town": "最知川原",
    "town_kana": "サイチカワラ",
    "street": null,
    "office_name": null,
    "office_name_kana": null
  },
  "0212": {
    "zip_code": "9880212",
    "prefecture": "宮城県",
    "prefecture_kana": "ミヤギケン",
    "prefecture_code": 4,
    "city": "気仙沼市",
    "city_kana": "ケセンヌマシ",
    "town": "最知森合",
    "town_kana": "サイチモリアイ",
    "street": null,
    "office_name": null,
    "office_name_kana": null
  },
  "0213": {
    "zip_code": "9880213",
    "prefecture": "宮城県",
    "prefecture_kana": "ミヤギケン",
    "prefecture_code": 4,
    "city": "気仙沼市",
    "city_kana": "ケセンヌマシ",
    "town": "最知南最知",
    "town_kana": "サイチミナミサイチ",
    "street": null,
    "office_name": null,
    "office_name_kana": null
  },
  "0214": {
    "zip_code": "9880214",
    "prefecture": "宮城県",
    "prefecture_kana": "ミヤギケン",
    "prefecture_code": 4,
    "city": "気仙沼市",
    "city_kana": "ケセンヌマシ",
    "town": "最知荒沢",
    "town_kana": "サイチアラサワ",
    "street": null,
    "office_name": null,
    "office_name_kana": null
  },
  "0215": {
    "zip_code": "9880215",
    "prefecture": "宮城県",
    "prefecture_kana": "ミヤギケン",
    "prefecture_code": 4,
    "city": "気仙沼市",
    "city_kana": "ケセンヌマシ",
    "town": "最知北最知",
    "town_kana": "サイチキタサイチ",
    "street": null,
    "office_name": null,
    "office_name_kana": null
  },
  "0221": {
    "zip_code": "9880221",
    "prefecture": "宮城県",
    "prefecture_kana": "ミヤギケン",
    "prefecture_code": 4,
    "city": "気仙沼市",
    "city_kana": "ケセンヌマシ",
    "town": "長磯七半沢",
    "town_kana": "ナガイソシチハンザワ",
    "street": null,
    "office_name": null,
    "office_name_kana": null
  },
  "0222": {
    "zip_code": "9880222",
    "prefecture": "宮城県",
    "prefecture_kana": "ミヤギケン",
    "prefecture_code": 4,
    "city": "気仙沼市",
    "city_kana": "ケセンヌマシ",
    "town": "長磯船原",
    "town_kana": "ナガイソフナハラ",
    "street": null,
    "office_name": null,
    "office_name_kana": null
  },
  "0223": {
    "zip_code": "9880223",
    "prefecture": "宮城県",
    "prefecture_kana": "ミヤギケン",
    "prefecture_code": 4,
    "city": "気仙沼市",
    "city_kana": "ケセンヌマシ",
    "town": "長磯鳥子沢",
    "town_kana": "ナガイソトリコザワ",
    "street": null,
    "office_name": null,
    "office_name_kana": null
  },
  "0224": {
    "zip_code": "9880224",
    "prefecture": "宮城県",
    "prefecture_kana": "ミヤギケン",
    "prefecture_code": 4,
    "city": "気仙沼市",
    "city_kana": "ケセンヌマシ",
    "town": "長磯前林",
    "town_kana": "ナガイソマエバヤシ",
    "street": null,
    "office_name": null,
    "office_name_kana": null
  },
  "0225": {
    "zip_code": "9880225",
    "prefecture": "宮城県",
    "prefecture_kana": "ミヤギケン",
    "prefecture_code": 4,
    "city": "気仙沼市",
    "city_kana": "ケセンヌマシ",
    "town": "長磯大窪",
    "town_kana": "ナガイソオオクボ",
    "street": null,
    "office_name": null,
    "office_name_kana": null
  },
  "0226": {
    "zip_code": "9880226",
    "prefecture": "宮城県",
    "prefecture_kana": "ミヤギケン",
    "prefecture_code": 4,
    "city": "気仙沼市",
    "city_kana": "ケセンヌマシ",
    "town": "長磯後沢",
    "town_kana": "ナガイソウシロザワ",
    "street": null,
    "office_name": null,
    "office_name_kana": null
  },
  "0227": {
    "zip_code": "9880227",
    "prefecture": "宮城県",
    "prefecture_kana": "ミヤギケン",
    "prefecture_code": 4,
    "city": "気仙沼市",
    "city_kana": "ケセンヌマシ",
    "town": "長磯森",
    "town_kana": "ナガイソモリ",
    "street": null,
    "office_name": null,
    "office_name_kana": null
  },
  "0231": {
    "zip_code": "9880231",
    "prefecture": "宮城県",
    "prefecture_kana": "ミヤギケン",
    "prefecture_code": 4,
    "city": "気仙沼市",
    "city_kana": "ケセンヌマシ",
    "town": "長磯浜",
    "town_kana": "ナガイソハマ",
    "street": null,
    "office_name": null,
    "office_name_kana": null
  },
  "0232": {
    "zip_code": "9880232",
    "prefecture": "宮城県",
    "prefecture_kana": "ミヤギケン",
    "prefecture_code": 4,
    "city": "気仙沼市",
    "city_kana": "ケセンヌマシ",
    "town": "長磯下原",
    "town_kana": "ナガイソシモバラ",
    "street": null,
    "office_name": null,
    "office_name_kana": null
  },
  "0233": {
    "zip_code": "9880233",
    "prefecture": "宮城県",
    "prefecture_kana": "ミヤギケン",
    "prefecture_code": 4,
    "city": "気仙沼市",
    "city_kana": "ケセンヌマシ",
    "town": "長磯原",
    "town_kana": "ナガイソハラ",
    "street": null,
    "office_name": null,
    "office_name_kana": null
  },
  "0234": {
    "zip_code": "9880234",
    "prefecture": "宮城県",
    "prefecture_kana": "ミヤギケン",
    "prefecture_code": 4,
    "city": "気仙沼市",
    "city_kana": "ケセンヌマシ",
    "town": "長磯原ノ沢",
    "town_kana": "ナガイソハラノサワ",
    "street": null,
    "office_name": null,
    "office_name_kana": null
  },
  "0235": {
    "zip_code": "9880235",
    "prefecture": "宮城県",
    "prefecture_kana": "ミヤギケン",
    "prefecture_code": 4,
    "city": "気仙沼市",
    "city_kana": "ケセンヌマシ",
    "town": "長磯牧通",
    "town_kana": "ナガイソマギドオリ",
    "street": null,
    "office_name": null,
    "office_name_kana": null
  },
  "0236": {
    "zip_code": "9880236",
    "prefecture": "宮城県",
    "prefecture_kana": "ミヤギケン",
    "prefecture_code": 4,
    "city": "気仙沼市",
    "city_kana": "ケセンヌマシ",
    "town": "長磯二本松",
    "town_kana": "ナガイソニホンマツ",
    "street": null,
    "office_name": null,
    "office_name_kana": null
  },
  "0237": {
    "zip_code": "9880237",
    "prefecture": "宮城県",
    "prefecture_kana": "ミヤギケン",
    "prefecture_code": 4,
    "city": "気仙沼市",
    "city_kana": "ケセンヌマシ",
    "town": "長磯赤貝",
    "town_kana": "ナガイソアカガイ",
    "street": null,
    "office_name": null,
    "office_name_kana": null
  },
  "0238": {
    "zip_code": "9880238",
    "prefecture": "宮城県",
    "prefecture_kana": "ミヤギケン",
    "prefecture_code": 4,
    "city": "気仙沼市",
    "city_kana": "ケセンヌマシ",
    "town": "長磯中原",
    "town_kana": "ナガイソナカハラ",
    "street": null,
    "office_name": null,
    "office_name_kana": null
  },
  "0241": {
    "zip_code": "9880241",
    "prefecture": "宮城県",
    "prefecture_kana": "ミヤギケン",
    "prefecture_code": 4,
    "city": "気仙沼市",
    "city_kana": "ケセンヌマシ",
    "town": "波路上岩井崎",
    "town_kana": "ハジカミイワイサキ",
    "street": null,
    "office_name": null,
    "office_name_kana": null
  },
  "0242": {
    "zip_code": "9880242",
    "prefecture": "宮城県",
    "prefecture_kana": "ミヤギケン",
    "prefecture_code": 4,
    "city": "気仙沼市",
    "city_kana": "ケセンヌマシ",
    "town": "波路上崎野",
    "town_kana": "ハジカミサキノ",
    "street": null,
    "office_name": null,
    "office_name_kana": null
  },
  "0243": {
    "zip_code": "9880243",
    "prefecture": "宮城県",
    "prefecture_kana": "ミヤギケン",
    "prefecture_code": 4,
    "city": "気仙沼市",
    "city_kana": "ケセンヌマシ",
    "town": "波路上牧",
    "town_kana": "ハジカミマギ",
    "street": null,
    "office_name": null,
    "office_name_kana": null
  },
  "0244": {
    "zip_code": "9880244",
    "prefecture": "宮城県",
    "prefecture_kana": "ミヤギケン",
    "prefecture_code": 4,
    "city": "気仙沼市",
    "city_kana": "ケセンヌマシ",
    "town": "波路上明戸",
    "town_kana": "ハジカミアケド",
    "street": null,
    "office_name": null,
    "office_name_kana": null
  },
  "0245": {
    "zip_code": "9880245",
    "prefecture": "宮城県",
    "prefecture_kana": "ミヤギケン",
    "prefecture_code": 4,
    "city": "気仙沼市",
    "city_kana": "ケセンヌマシ",
    "town": "波路上杉ノ下",
    "town_kana": "ハジカミスギノシタ",
    "street": null,
    "office_name": null,
    "office_name_kana": null
  },
  "0246": {
    "zip_code": "9880246",
    "prefecture": "宮城県",
    "prefecture_kana": "ミヤギケン",
    "prefecture_code": 4,
    "city": "気仙沼市",
    "city_kana": "ケセンヌマシ",
    "town": "波路上瀬向",
    "town_kana": "ハジカミセムカイ",
    "street": null,
    "office_name": null,
    "office_name_kana": null
  },
  "0247": {
    "zip_code": "9880247",
    "prefecture": "宮城県",
    "prefecture_kana": "ミヤギケン",
    "prefecture_code": 4,
    "city": "気仙沼市",
    "city_kana": "ケセンヌマシ",
    "town": "波路上内沼",
    "town_kana": "ハジカミウチヌマ",
    "street": null,
    "office_name": null,
    "office_name_kana": null
  },
  "0251": {
    "zip_code": "9880251",
    "prefecture": "宮城県",
    "prefecture_kana": "ミヤギケン",
    "prefecture_code": 4,
    "city": "気仙沼市",
    "city_kana": "ケセンヌマシ",
    "town": "波路上内田",
    "town_kana": "ハジカミウチダ",
    "street": null,
    "office_name": null,
    "office_name_kana": null
  },
  "0252": {
    "zip_code": "9880252",
    "prefecture": "宮城県",
    "prefecture_kana": "ミヤギケン",
    "prefecture_code": 4,
    "city": "気仙沼市",
    "city_kana": "ケセンヌマシ",
    "town": "波路上後原",
    "town_kana": "ハジカミウシロバラ",
    "street": null,
    "office_name": null,
    "office_name_kana": null
  },
  "0253": {
    "zip_code": "9880253",
    "prefecture": "宮城県",
    "prefecture_kana": "ミヤギケン",
    "prefecture_code": 4,
    "city": "気仙沼市",
    "city_kana": "ケセンヌマシ",
    "town": "波路上原",
    "town_kana": "ハジカミハラ",
    "street": null,
    "office_name": null,
    "office_name_kana": null
  },
  "0254": {
    "zip_code": "9880254",
    "prefecture": "宮城県",
    "prefecture_kana": "ミヤギケン",
    "prefecture_code": 4,
    "city": "気仙沼市",
    "city_kana": "ケセンヌマシ",
    "town": "波路上野田",
    "town_kana": "ハジカミノダ",
    "street": null,
    "office_name": null,
    "office_name_kana": null
  },
  "0255": {
    "zip_code": "9880255",
    "prefecture": "宮城県",
    "prefecture_kana": "ミヤギケン",
    "prefecture_code": 4,
    "city": "気仙沼市",
    "city_kana": "ケセンヌマシ",
    "town": "波路上向田",
    "town_kana": "ハジカミムカイダ",
    "street": null,
    "office_name": null,
    "office_name_kana": null
  },
  "0256": {
    "zip_code": "9880256",
    "prefecture": "宮城県",
    "prefecture_kana": "ミヤギケン",
    "prefecture_code": 4,
    "city": "気仙沼市",
    "city_kana": "ケセンヌマシ",
    "town": "波路上向原",
    "town_kana": "ハジカミムカイバラ",
    "street": null,
    "office_name": null,
    "office_name_kana": null
  },
  "0261": [
    {
      "zip_code": "9880261",
      "prefecture": "宮城県",
      "prefecture_kana": "ミヤギケン",
      "prefecture_code": 4,
      "city": "気仙沼市",
      "city_kana": "ケセンヌマシ",
      "town": "本吉町後田",
      "town_kana": "モトヨシチョウウシロダ",
      "street": null,
      "office_name": null,
      "office_name_kana": null
    },
    {
      "zip_code": "9880261",
      "prefecture": "宮城県",
      "prefecture_kana": "ミヤギケン",
      "prefecture_code": 4,
      "city": "気仙沼市",
      "city_kana": "ケセンヌマシ",
      "town": "本吉町直伝",
      "town_kana": "モトヨシチョウジキデン",
      "street": null,
      "office_name": null,
      "office_name_kana": null
    },
    {
      "zip_code": "9880261",
      "prefecture": "宮城県",
      "prefecture_kana": "ミヤギケン",
      "prefecture_code": 4,
      "city": "気仙沼市",
      "city_kana": "ケセンヌマシ",
      "town": "本吉町土樋下",
      "town_kana": "モトヨシチョウツチドイシタ",
      "street": null,
      "office_name": null,
      "office_name_kana": null
    }
  ],
  "0262": {
    "zip_code": "9880262",
    "prefecture": "宮城県",
    "prefecture_kana": "ミヤギケン",
    "prefecture_code": 4,
    "city": "気仙沼市",
    "city_kana": "ケセンヌマシ",
    "town": "本吉町沖の田",
    "town_kana": "モトヨシチョウオキノダ",
    "street": null,
    "office_name": null,
    "office_name_kana": null
  },
  "0263": {
    "zip_code": "9880263",
    "prefecture": "宮城県",
    "prefecture_kana": "ミヤギケン",
    "prefecture_code": 4,
    "city": "気仙沼市",
    "city_kana": "ケセンヌマシ",
    "town": "本吉町洞沢",
    "town_kana": "モトヨシチョウホラサワ",
    "street": null,
    "office_name": null,
    "office_name_kana": null
  },
  "0264": {
    "zip_code": "9880264",
    "prefecture": "宮城県",
    "prefecture_kana": "ミヤギケン",
    "prefecture_code": 4,
    "city": "気仙沼市",
    "city_kana": "ケセンヌマシ",
    "town": "本吉町長根",
    "town_kana": "モトヨシチョウナガネ",
    "street": null,
    "office_name": null,
    "office_name_kana": null
  },
  "0265": {
    "zip_code": "9880265",
    "prefecture": "宮城県",
    "prefecture_kana": "ミヤギケン",
    "prefecture_code": 4,
    "city": "気仙沼市",
    "city_kana": "ケセンヌマシ",
    "town": "本吉町窪",
    "town_kana": "モトヨシチョウクボ",
    "street": null,
    "office_name": null,
    "office_name_kana": null
  },
  "0266": {
    "zip_code": "9880266",
    "prefecture": "宮城県",
    "prefecture_kana": "ミヤギケン",
    "prefecture_code": 4,
    "city": "気仙沼市",
    "city_kana": "ケセンヌマシ",
    "town": "本吉町寺谷",
    "town_kana": "モトヨシチョウテラガイ",
    "street": null,
    "office_name": null,
    "office_name_kana": null
  },
  "0267": [
    {
      "zip_code": "9880267",
      "prefecture": "宮城県",
      "prefecture_kana": "ミヤギケン",
      "prefecture_code": 4,
      "city": "気仙沼市",
      "city_kana": "ケセンヌマシ",
      "town": "本吉町寺沢",
      "town_kana": "モトヨシチョウテラサワ",
      "street": null,
      "office_name": null,
      "office_name_kana": null
    },
    {
      "zip_code": "9880267",
      "prefecture": "宮城県",
      "prefecture_kana": "ミヤギケン",
      "prefecture_code": 4,
      "city": "気仙沼市",
      "city_kana": "ケセンヌマシ",
      "town": "本吉町長畑",
      "town_kana": "モトヨシチョウナガハタケ",
      "street": null,
      "office_name": null,
      "office_name_kana": null
    }
  ],
  "0268": {
    "zip_code": "9880268",
    "prefecture": "宮城県",
    "prefecture_kana": "ミヤギケン",
    "prefecture_code": 4,
    "city": "気仙沼市",
    "city_kana": "ケセンヌマシ",
    "town": "本吉町石川原",
    "town_kana": "モトヨシチョウイシカワラ",
    "street": null,
    "office_name": null,
    "office_name_kana": null
  },
  "0269": [
    {
      "zip_code": "9880269",
      "prefecture": "宮城県",
      "prefecture_kana": "ミヤギケン",
      "prefecture_code": 4,
      "city": "気仙沼市",
      "city_kana": "ケセンヌマシ",
      "town": "本吉町菖蒲沢",
      "town_kana": "モトヨシチョウショウブザワ",
      "street": null,
      "office_name": null,
      "office_name_kana": null
    },
    {
      "zip_code": "9880269",
      "prefecture": "宮城県",
      "prefecture_kana": "ミヤギケン",
      "prefecture_code": 4,
      "city": "気仙沼市",
      "city_kana": "ケセンヌマシ",
      "town": "本吉町道貫",
      "town_kana": "モトヨシチョウドウメキ",
      "street": null,
      "office_name": null,
      "office_name_kana": null
    }
  ],
  "0271": {
    "zip_code": "9880271",
    "prefecture": "宮城県",
    "prefecture_kana": "ミヤギケン",
    "prefecture_code": 4,
    "city": "気仙沼市",
    "city_kana": "ケセンヌマシ",
    "town": "本吉町野々下",
    "town_kana": "モトヨシチョウノノシタ",
    "street": null,
    "office_name": null,
    "office_name_kana": null
  },
  "0272": {
    "zip_code": "9880272",
    "prefecture": "宮城県",
    "prefecture_kana": "ミヤギケン",
    "prefecture_code": 4,
    "city": "気仙沼市",
    "city_kana": "ケセンヌマシ",
    "town": "本吉町大谷",
    "town_kana": "モトヨシチョウオオヤ",
    "street": null,
    "office_name": null,
    "office_name_kana": null
  },
  "0273": {
    "zip_code": "9880273",
    "prefecture": "宮城県",
    "prefecture_kana": "ミヤギケン",
    "prefecture_code": 4,
    "city": "気仙沼市",
    "city_kana": "ケセンヌマシ",
    "town": "本吉町三島",
    "town_kana": "モトヨシチョウミシマ",
    "street": null,
    "office_name": null,
    "office_name_kana": null
  },
  "0274": {
    "zip_code": "9880274",
    "prefecture": "宮城県",
    "prefecture_kana": "ミヤギケン",
    "prefecture_code": 4,
    "city": "気仙沼市",
    "city_kana": "ケセンヌマシ",
    "town": "本吉町滝根",
    "town_kana": "モトヨシチョウタキネ",
    "street": null,
    "office_name": null,
    "office_name_kana": null
  },
  "0275": {
    "zip_code": "9880275",
    "prefecture": "宮城県",
    "prefecture_kana": "ミヤギケン",
    "prefecture_code": 4,
    "city": "気仙沼市",
    "city_kana": "ケセンヌマシ",
    "town": "本吉町九多丸",
    "town_kana": "モトヨシチョウクダマル",
    "street": null,
    "office_name": null,
    "office_name_kana": null
  },
  "0276": {
    "zip_code": "9880276",
    "prefecture": "宮城県",
    "prefecture_kana": "ミヤギケン",
    "prefecture_code": 4,
    "city": "気仙沼市",
    "city_kana": "ケセンヌマシ",
    "town": "本吉町日門",
    "town_kana": "モトヨシチョウヒカド",
    "street": null,
    "office_name": null,
    "office_name_kana": null
  },
  "0277": [
    {
      "zip_code": "9880277",
      "prefecture": "宮城県",
      "prefecture_kana": "ミヤギケン",
      "prefecture_code": 4,
      "city": "気仙沼市",
      "city_kana": "ケセンヌマシ",
      "town": "本吉町天ヶ沢",
      "town_kana": "モトヨシチョウアマガサワ",
      "street": null,
      "office_name": null,
      "office_name_kana": null
    },
    {
      "zip_code": "9880277",
      "prefecture": "宮城県",
      "prefecture_kana": "ミヤギケン",
      "prefecture_code": 4,
      "city": "気仙沼市",
      "city_kana": "ケセンヌマシ",
      "town": "本吉町田の沢",
      "town_kana": "モトヨシチョウタノサワ",
      "street": null,
      "office_name": null,
      "office_name_kana": null
    }
  ],
  "0278": [
    {
      "zip_code": "9880278",
      "prefecture": "宮城県",
      "prefecture_kana": "ミヤギケン",
      "prefecture_code": 4,
      "city": "気仙沼市",
      "city_kana": "ケセンヌマシ",
      "town": "本吉町高瀬ヶ森",
      "town_kana": "モトヨシチョウタカセガモリ",
      "street": null,
      "office_name": null,
      "office_name_kana": null
    },
    {
      "zip_code": "9880278",
      "prefecture": "宮城県",
      "prefecture_kana": "ミヤギケン",
      "prefecture_code": 4,
      "city": "気仙沼市",
      "city_kana": "ケセンヌマシ",
      "town": "本吉町山谷",
      "town_kana": "モトヨシチョウヤマヤ",
      "street": null,
      "office_name": null,
      "office_name_kana": null
    }
  ],
  "0279": {
    "zip_code": "9880279",
    "prefecture": "宮城県",
    "prefecture_kana": "ミヤギケン",
    "prefecture_code": 4,
    "city": "気仙沼市",
    "city_kana": "ケセンヌマシ",
    "town": "本吉町猿内",
    "town_kana": "モトヨシチョウサルウチ",
    "street": null,
    "office_name": null,
    "office_name_kana": null
  },
  "0281": {
    "zip_code": "9880281",
    "prefecture": "宮城県",
    "prefecture_kana": "ミヤギケン",
    "prefecture_code": 4,
    "city": "気仙沼市",
    "city_kana": "ケセンヌマシ",
    "town": "本吉町府中",
    "town_kana": "モトヨシチョウフチュウ",
    "street": null,
    "office_name": null,
    "office_name_kana": null
  },
  "0282": {
    "zip_code": "9880282",
    "prefecture": "宮城県",
    "prefecture_kana": "ミヤギケン",
    "prefecture_code": 4,
    "city": "気仙沼市",
    "city_kana": "ケセンヌマシ",
    "town": "本吉町前浜",
    "town_kana": "モトヨシチョウマエハマ",
    "street": null,
    "office_name": null,
    "office_name_kana": null
  },
  "0283": [
    {
      "zip_code": "9880283",
      "prefecture": "宮城県",
      "prefecture_kana": "ミヤギケン",
      "prefecture_code": 4,
      "city": "気仙沼市",
      "city_kana": "ケセンヌマシ",
      "town": "本吉町大森",
      "town_kana": "モトヨシチョウオオモリ",
      "street": null,
      "office_name": null,
      "office_name_kana": null
    },
    {
      "zip_code": "9880283",
      "prefecture": "宮城県",
      "prefecture_kana": "ミヤギケン",
      "prefecture_code": 4,
      "city": "気仙沼市",
      "city_kana": "ケセンヌマシ",
      "town": "本吉町谷地",
      "town_kana": "モトヨシチョウヤチ",
      "street": null,
      "office_name": null,
      "office_name_kana": null
    }
  ],
  "0284": {
    "zip_code": "9880284",
    "prefecture": "宮城県",
    "prefecture_kana": "ミヤギケン",
    "prefecture_code": 4,
    "city": "気仙沼市",
    "city_kana": "ケセンヌマシ",
    "town": "本吉町赤牛",
    "town_kana": "モトヨシチョウアカウシ",
    "street": null,
    "office_name": null,
    "office_name_kana": null
  },
  "0285": {
    "zip_code": "9880285",
    "prefecture": "宮城県",
    "prefecture_kana": "ミヤギケン",
    "prefecture_code": 4,
    "city": "気仙沼市",
    "city_kana": "ケセンヌマシ",
    "town": "本吉町小金沢",
    "town_kana": "モトヨシチョウコガネサワ",
    "street": null,
    "office_name": null,
    "office_name_kana": null
  },
  "0286": {
    "zip_code": "9880286",
    "prefecture": "宮城県",
    "prefecture_kana": "ミヤギケン",
    "prefecture_code": 4,
    "city": "気仙沼市",
    "city_kana": "ケセンヌマシ",
    "town": "本吉町高",
    "town_kana": "モトヨシチョウタカ",
    "street": null,
    "office_name": null,
    "office_name_kana": null
  },
  "0287": {
    "zip_code": "9880287",
    "prefecture": "宮城県",
    "prefecture_kana": "ミヤギケン",
    "prefecture_code": 4,
    "city": "気仙沼市",
    "city_kana": "ケセンヌマシ",
    "town": "本吉町大朴木",
    "town_kana": "モトヨシチョウオオボウキ",
    "street": null,
    "office_name": null,
    "office_name_kana": null
  },
  "0301": {
    "zip_code": "9880301",
    "prefecture": "宮城県",
    "prefecture_kana": "ミヤギケン",
    "prefecture_code": 4,
    "city": "気仙沼市",
    "city_kana": "ケセンヌマシ",
    "town": "本吉町狼の巣",
    "town_kana": "モトヨシチョウオイノス",
    "street": null,
    "office_name": null,
    "office_name_kana": null
  },
  "0302": {
    "zip_code": "9880302",
    "prefecture": "宮城県",
    "prefecture_kana": "ミヤギケン",
    "prefecture_code": 4,
    "city": "気仙沼市",
    "city_kana": "ケセンヌマシ",
    "town": "本吉町林の沢",
    "town_kana": "モトヨシチョウハヤシノサワ",
    "street": null,
    "office_name": null,
    "office_name_kana": null
  },
  "0303": {
    "zip_code": "9880303",
    "prefecture": "宮城県",
    "prefecture_kana": "ミヤギケン",
    "prefecture_code": 4,
    "city": "気仙沼市",
    "city_kana": "ケセンヌマシ",
    "town": "本吉町幸土",
    "town_kana": "モトヨシチョウコウド",
    "street": null,
    "office_name": null,
    "office_name_kana": null
  },
  "0304": {
    "zip_code": "9880304",
    "prefecture": "宮城県",
    "prefecture_kana": "ミヤギケン",
    "prefecture_code": 4,
    "city": "気仙沼市",
    "city_kana": "ケセンヌマシ",
    "town": "本吉町大沢",
    "town_kana": "モトヨシチョウオオサワ",
    "street": null,
    "office_name": null,
    "office_name_kana": null
  },
  "0305": {
    "zip_code": "9880305",
    "prefecture": "宮城県",
    "prefecture_kana": "ミヤギケン",
    "prefecture_code": 4,
    "city": "気仙沼市",
    "city_kana": "ケセンヌマシ",
    "town": "本吉町津谷長根",
    "town_kana": "モトヨシチョウツヤナガネ",
    "street": null,
    "office_name": null,
    "office_name_kana": null
  },
  "0306": {
    "zip_code": "9880306",
    "prefecture": "宮城県",
    "prefecture_kana": "ミヤギケン",
    "prefecture_code": 4,
    "city": "気仙沼市",
    "city_kana": "ケセンヌマシ",
    "town": "本吉町大椚",
    "town_kana": "モトヨシチョウオオクヌギ",
    "street": null,
    "office_name": null,
    "office_name_kana": null
  },
  "0307": {
    "zip_code": "9880307",
    "prefecture": "宮城県",
    "prefecture_kana": "ミヤギケン",
    "prefecture_code": 4,
    "city": "気仙沼市",
    "city_kana": "ケセンヌマシ",
    "town": "本吉町津谷舘岡",
    "town_kana": "モトヨシチョウツヤタテオカ",
    "street": null,
    "office_name": null,
    "office_name_kana": null
  },
  "0308": {
    "zip_code": "9880308",
    "prefecture": "宮城県",
    "prefecture_kana": "ミヤギケン",
    "prefecture_code": 4,
    "city": "気仙沼市",
    "city_kana": "ケセンヌマシ",
    "town": "本吉町津谷松岡",
    "town_kana": "モトヨシチョウツヤマツオカ",
    "street": null,
    "office_name": null,
    "office_name_kana": null
  },
  "0309": {
    "zip_code": "9880309",
    "prefecture": "宮城県",
    "prefecture_kana": "ミヤギケン",
    "prefecture_code": 4,
    "city": "気仙沼市",
    "city_kana": "ケセンヌマシ",
    "town": "本吉町津谷松尾",
    "town_kana": "モトヨシチョウツヤマツオ",
    "street": null,
    "office_name": null,
    "office_name_kana": null
  },
  "0311": {
    "zip_code": "9880311",
    "prefecture": "宮城県",
    "prefecture_kana": "ミヤギケン",
    "prefecture_code": 4,
    "city": "気仙沼市",
    "city_kana": "ケセンヌマシ",
    "town": "本吉町風越",
    "town_kana": "モトヨシチョウカザコシ",
    "street": null,
    "office_name": null,
    "office_name_kana": null
  },
  "0312": {
    "zip_code": "9880312",
    "prefecture": "宮城県",
    "prefecture_kana": "ミヤギケン",
    "prefecture_code": 4,
    "city": "気仙沼市",
    "city_kana": "ケセンヌマシ",
    "town": "本吉町道外",
    "town_kana": "モトヨシチョウミチソト",
    "street": null,
    "office_name": null,
    "office_name_kana": null
  },
  "0313": {
    "zip_code": "9880313",
    "prefecture": "宮城県",
    "prefecture_kana": "ミヤギケン",
    "prefecture_code": 4,
    "city": "気仙沼市",
    "city_kana": "ケセンヌマシ",
    "town": "本吉町卯名沢",
    "town_kana": "モトヨシチョウウナザワ",
    "street": null,
    "office_name": null,
    "office_name_kana": null
  },
  "0314": {
    "zip_code": "9880314",
    "prefecture": "宮城県",
    "prefecture_kana": "ミヤギケン",
    "prefecture_code": 4,
    "city": "気仙沼市",
    "city_kana": "ケセンヌマシ",
    "town": "本吉町圃の沢",
    "town_kana": "モトヨシチョウハタノサワ",
    "street": null,
    "office_name": null,
    "office_name_kana": null
  },
  "0315": {
    "zip_code": "9880315",
    "prefecture": "宮城県",
    "prefecture_kana": "ミヤギケン",
    "prefecture_code": 4,
    "city": "気仙沼市",
    "city_kana": "ケセンヌマシ",
    "town": "本吉町新圃の沢",
    "town_kana": "モトヨシチョウシンハタノサワ",
    "street": null,
    "office_name": null,
    "office_name_kana": null
  },
  "0316": {
    "zip_code": "9880316",
    "prefecture": "宮城県",
    "prefecture_kana": "ミヤギケン",
    "prefecture_code": 4,
    "city": "気仙沼市",
    "city_kana": "ケセンヌマシ",
    "town": "本吉町新北明戸",
    "town_kana": "モトヨシチョウシンキタアケド",
    "street": null,
    "office_name": null,
    "office_name_kana": null
  },
  "0317": {
    "zip_code": "9880317",
    "prefecture": "宮城県",
    "prefecture_kana": "ミヤギケン",
    "prefecture_code": 4,
    "city": "気仙沼市",
    "city_kana": "ケセンヌマシ",
    "town": "本吉町北明戸",
    "town_kana": "モトヨシチョウキタアケド",
    "street": null,
    "office_name": null,
    "office_name_kana": null
  },
  "0318": {
    "zip_code": "9880318",
    "prefecture": "宮城県",
    "prefecture_kana": "ミヤギケン",
    "prefecture_code": 4,
    "city": "気仙沼市",
    "city_kana": "ケセンヌマシ",
    "town": "本吉町登米沢",
    "town_kana": "モトヨシチョウトヨマザワ",
    "street": null,
    "office_name": null,
    "office_name_kana": null
  },
  "0321": {
    "zip_code": "9880321",
    "prefecture": "宮城県",
    "prefecture_kana": "ミヤギケン",
    "prefecture_code": 4,
    "city": "気仙沼市",
    "city_kana": "ケセンヌマシ",
    "town": "本吉町小浜",
    "town_kana": "モトヨシチョウコバマ",
    "street": null,
    "office_name": null,
    "office_name_kana": null
  },
  "0322": {
    "zip_code": "9880322",
    "prefecture": "宮城県",
    "prefecture_kana": "ミヤギケン",
    "prefecture_code": 4,
    "city": "気仙沼市",
    "city_kana": "ケセンヌマシ",
    "town": "本吉町二十一浜",
    "town_kana": "モトヨシチョウニジュウイチハマ",
    "street": null,
    "office_name": null,
    "office_name_kana": null
  },
  "0323": {
    "zip_code": "9880323",
    "prefecture": "宮城県",
    "prefecture_kana": "ミヤギケン",
    "prefecture_code": 4,
    "city": "気仙沼市",
    "city_kana": "ケセンヌマシ",
    "town": "本吉町今朝磯",
    "town_kana": "モトヨシチョウケサイソ",
    "street": null,
    "office_name": null,
    "office_name_kana": null
  },
  "0324": {
    "zip_code": "9880324",
    "prefecture": "宮城県",
    "prefecture_kana": "ミヤギケン",
    "prefecture_code": 4,
    "city": "気仙沼市",
    "city_kana": "ケセンヌマシ",
    "town": "本吉町歌生",
    "town_kana": "モトヨシチョウウトウ",
    "street": null,
    "office_name": null,
    "office_name_kana": null
  },
  "0325": {
    "zip_code": "9880325",
    "prefecture": "宮城県",
    "prefecture_kana": "ミヤギケン",
    "prefecture_code": 4,
    "city": "気仙沼市",
    "city_kana": "ケセンヌマシ",
    "town": "本吉町蔵内",
    "town_kana": "モトヨシチョウクラウチ",
    "street": null,
    "office_name": null,
    "office_name_kana": null
  },
  "0326": {
    "zip_code": "9880326",
    "prefecture": "宮城県",
    "prefecture_kana": "ミヤギケン",
    "prefecture_code": 4,
    "city": "気仙沼市",
    "city_kana": "ケセンヌマシ",
    "town": "本吉町柳沢",
    "town_kana": "モトヨシチョウヤナギサワ",
    "street": null,
    "office_name": null,
    "office_name_kana": null
  },
  "0327": {
    "zip_code": "9880327",
    "prefecture": "宮城県",
    "prefecture_kana": "ミヤギケン",
    "prefecture_code": 4,
    "city": "気仙沼市",
    "city_kana": "ケセンヌマシ",
    "town": "本吉町長窪",
    "town_kana": "モトヨシチョウナガクボ",
    "street": null,
    "office_name": null,
    "office_name_kana": null
  },
  "0328": {
    "zip_code": "9880328",
    "prefecture": "宮城県",
    "prefecture_kana": "ミヤギケン",
    "prefecture_code": 4,
    "city": "気仙沼市",
    "city_kana": "ケセンヌマシ",
    "town": "本吉町菅の沢",
    "town_kana": "モトヨシチョウスゲノサワ",
    "street": null,
    "office_name": null,
    "office_name_kana": null
  },
  "0331": {
    "zip_code": "9880331",
    "prefecture": "宮城県",
    "prefecture_kana": "ミヤギケン",
    "prefecture_code": 4,
    "city": "気仙沼市",
    "city_kana": "ケセンヌマシ",
    "town": "本吉町中島",
    "town_kana": "モトヨシチョウナカジマ",
    "street": null,
    "office_name": null,
    "office_name_kana": null
  },
  "0332": {
    "zip_code": "9880332",
    "prefecture": "宮城県",
    "prefecture_kana": "ミヤギケン",
    "prefecture_code": 4,
    "city": "気仙沼市",
    "city_kana": "ケセンヌマシ",
    "town": "本吉町下宿",
    "town_kana": "モトヨシチョウシモジュク",
    "street": null,
    "office_name": null,
    "office_name_kana": null
  },
  "0333": {
    "zip_code": "9880333",
    "prefecture": "宮城県",
    "prefecture_kana": "ミヤギケン",
    "prefecture_code": 4,
    "city": "気仙沼市",
    "city_kana": "ケセンヌマシ",
    "town": "本吉町平貝",
    "town_kana": "モトヨシチョウヒラガイ",
    "street": null,
    "office_name": null,
    "office_name_kana": null
  },
  "0334": {
    "zip_code": "9880334",
    "prefecture": "宮城県",
    "prefecture_kana": "ミヤギケン",
    "prefecture_code": 4,
    "city": "気仙沼市",
    "city_kana": "ケセンヌマシ",
    "town": "本吉町外尾",
    "town_kana": "モトヨシチョウソデオ",
    "street": null,
    "office_name": null,
    "office_name_kana": null
  },
  "0335": {
    "zip_code": "9880335",
    "prefecture": "宮城県",
    "prefecture_kana": "ミヤギケン",
    "prefecture_code": 4,
    "city": "気仙沼市",
    "city_kana": "ケセンヌマシ",
    "town": "本吉町蕨野",
    "town_kana": "モトヨシチョウワラビノ",
    "street": null,
    "office_name": null,
    "office_name_kana": null
  },
  "0336": {
    "zip_code": "9880336",
    "prefecture": "宮城県",
    "prefecture_kana": "ミヤギケン",
    "prefecture_code": 4,
    "city": "気仙沼市",
    "city_kana": "ケセンヌマシ",
    "town": "本吉町泉沢",
    "town_kana": "モトヨシチョウイズミサワ",
    "street": null,
    "office_name": null,
    "office_name_kana": null
  },
  "0337": {
    "zip_code": "9880337",
    "prefecture": "宮城県",
    "prefecture_kana": "ミヤギケン",
    "prefecture_code": 4,
    "city": "気仙沼市",
    "city_kana": "ケセンヌマシ",
    "town": "本吉町新南明戸",
    "town_kana": "モトヨシチョウシンミナミアケド",
    "street": null,
    "office_name": null,
    "office_name_kana": null
  },
  "0338": {
    "zip_code": "9880338",
    "prefecture": "宮城県",
    "prefecture_kana": "ミヤギケン",
    "prefecture_code": 4,
    "city": "気仙沼市",
    "city_kana": "ケセンヌマシ",
    "town": "本吉町南明戸",
    "town_kana": "モトヨシチョウミナミアケド",
    "street": null,
    "office_name": null,
    "office_name_kana": null
  },
  "0339": {
    "zip_code": "9880339",
    "prefecture": "宮城県",
    "prefecture_kana": "ミヤギケン",
    "prefecture_code": 4,
    "city": "気仙沼市",
    "city_kana": "ケセンヌマシ",
    "town": "本吉町泉",
    "town_kana": "モトヨシチョウイズミ",
    "street": null,
    "office_name": null,
    "office_name_kana": null
  },
  "0341": {
    "zip_code": "9880341",
    "prefecture": "宮城県",
    "prefecture_kana": "ミヤギケン",
    "prefecture_code": 4,
    "city": "気仙沼市",
    "city_kana": "ケセンヌマシ",
    "town": "本吉町津谷桜子",
    "town_kana": "モトヨシチョウツヤサクラゴ",
    "street": null,
    "office_name": null,
    "office_name_kana": null
  },
  "0342": {
    "zip_code": "9880342",
    "prefecture": "宮城県",
    "prefecture_kana": "ミヤギケン",
    "prefecture_code": 4,
    "city": "気仙沼市",
    "city_kana": "ケセンヌマシ",
    "town": "本吉町幣掛",
    "town_kana": "モトヨシチョウヌサカケ",
    "street": null,
    "office_name": null,
    "office_name_kana": null
  },
  "0343": {
    "zip_code": "9880343",
    "prefecture": "宮城県",
    "prefecture_kana": "ミヤギケン",
    "prefecture_code": 4,
    "city": "気仙沼市",
    "city_kana": "ケセンヌマシ",
    "town": "本吉町松ヶ沢",
    "town_kana": "モトヨシチョウマツガサワ",
    "street": null,
    "office_name": null,
    "office_name_kana": null
  },
  "0344": {
    "zip_code": "9880344",
    "prefecture": "宮城県",
    "prefecture_kana": "ミヤギケン",
    "prefecture_code": 4,
    "city": "気仙沼市",
    "city_kana": "ケセンヌマシ",
    "town": "本吉町宮内",
    "town_kana": "モトヨシチョウミヤウチ",
    "street": null,
    "office_name": null,
    "office_name_kana": null
  },
  "0345": {
    "zip_code": "9880345",
    "prefecture": "宮城県",
    "prefecture_kana": "ミヤギケン",
    "prefecture_code": 4,
    "city": "気仙沼市",
    "city_kana": "ケセンヌマシ",
    "town": "本吉町舘下",
    "town_kana": "モトヨシチョウタテシタ",
    "street": null,
    "office_name": null,
    "office_name_kana": null
  },
  "0346": {
    "zip_code": "9880346",
    "prefecture": "宮城県",
    "prefecture_kana": "ミヤギケン",
    "prefecture_code": 4,
    "city": "気仙沼市",
    "city_kana": "ケセンヌマシ",
    "town": "本吉町岳の下",
    "town_kana": "モトヨシチョウタケノシタ",
    "street": null,
    "office_name": null,
    "office_name_kana": null
  },
  "0347": {
    "zip_code": "9880347",
    "prefecture": "宮城県",
    "prefecture_kana": "ミヤギケン",
    "prefecture_code": 4,
    "city": "気仙沼市",
    "city_kana": "ケセンヌマシ",
    "town": "本吉町猪の鼻",
    "town_kana": "モトヨシチョウイノハナ",
    "street": null,
    "office_name": null,
    "office_name_kana": null
  },
  "0348": {
    "zip_code": "9880348",
    "prefecture": "宮城県",
    "prefecture_kana": "ミヤギケン",
    "prefecture_code": 4,
    "city": "気仙沼市",
    "city_kana": "ケセンヌマシ",
    "town": "本吉町小峰崎",
    "town_kana": "モトヨシチョウコミネザキ",
    "street": null,
    "office_name": null,
    "office_name_kana": null
  },
  "0351": {
    "zip_code": "9880351",
    "prefecture": "宮城県",
    "prefecture_kana": "ミヤギケン",
    "prefecture_code": 4,
    "city": "気仙沼市",
    "city_kana": "ケセンヌマシ",
    "town": "本吉町午王野沢",
    "town_kana": "モトヨシチョウゴオウノサワ",
    "street": null,
    "office_name": null,
    "office_name_kana": null
  },
  "0352": {
    "zip_code": "9880352",
    "prefecture": "宮城県",
    "prefecture_kana": "ミヤギケン",
    "prefecture_code": 4,
    "city": "気仙沼市",
    "city_kana": "ケセンヌマシ",
    "town": "本吉町平椚",
    "town_kana": "モトヨシチョウタイラクヌギ",
    "street": null,
    "office_name": null,
    "office_name_kana": null
  },
  "0353": {
    "zip_code": "9880353",
    "prefecture": "宮城県",
    "prefecture_kana": "ミヤギケン",
    "prefecture_code": 4,
    "city": "気仙沼市",
    "city_kana": "ケセンヌマシ",
    "town": "本吉町信夫",
    "town_kana": "モトヨシチョウシノブ",
    "street": null,
    "office_name": null,
    "office_name_kana": null
  },
  "0354": {
    "zip_code": "9880354",
    "prefecture": "宮城県",
    "prefecture_kana": "ミヤギケン",
    "prefecture_code": 4,
    "city": "気仙沼市",
    "city_kana": "ケセンヌマシ",
    "town": "本吉町鹿の子",
    "town_kana": "モトヨシチョウカノコ",
    "street": null,
    "office_name": null,
    "office_name_kana": null
  },
  "0355": {
    "zip_code": "9880355",
    "prefecture": "宮城県",
    "prefecture_kana": "ミヤギケン",
    "prefecture_code": 4,
    "city": "気仙沼市",
    "city_kana": "ケセンヌマシ",
    "town": "本吉町滝沢",
    "town_kana": "モトヨシチョウタキサワ",
    "street": null,
    "office_name": null,
    "office_name_kana": null
  },
  "0356": {
    "zip_code": "9880356",
    "prefecture": "宮城県",
    "prefecture_kana": "ミヤギケン",
    "prefecture_code": 4,
    "city": "気仙沼市",
    "city_kana": "ケセンヌマシ",
    "town": "本吉町大柴",
    "town_kana": "モトヨシチョウオオシバ",
    "street": null,
    "office_name": null,
    "office_name_kana": null
  },
  "0357": {
    "zip_code": "9880357",
    "prefecture": "宮城県",
    "prefecture_kana": "ミヤギケン",
    "prefecture_code": 4,
    "city": "気仙沼市",
    "city_kana": "ケセンヌマシ",
    "town": "本吉町中平",
    "town_kana": "モトヨシチョウナカダイラ",
    "street": null,
    "office_name": null,
    "office_name_kana": null
  },
  "0358": {
    "zip_code": "9880358",
    "prefecture": "宮城県",
    "prefecture_kana": "ミヤギケン",
    "prefecture_code": 4,
    "city": "気仙沼市",
    "city_kana": "ケセンヌマシ",
    "town": "本吉町大東",
    "town_kana": "モトヨシチョウオオヒガシ",
    "street": null,
    "office_name": null,
    "office_name_kana": null
  },
  "0359": {
    "zip_code": "9880359",
    "prefecture": "宮城県",
    "prefecture_kana": "ミヤギケン",
    "prefecture_code": 4,
    "city": "気仙沼市",
    "city_kana": "ケセンヌマシ",
    "town": "本吉町上野",
    "town_kana": "モトヨシチョウワノ",
    "street": null,
    "office_name": null,
    "office_name_kana": null
  },
  "0361": {
    "zip_code": "9880361",
    "prefecture": "宮城県",
    "prefecture_kana": "ミヤギケン",
    "prefecture_code": 4,
    "city": "気仙沼市",
    "city_kana": "ケセンヌマシ",
    "town": "本吉町下要害",
    "town_kana": "モトヨシチョウシモヨウガイ",
    "street": null,
    "office_name": null,
    "office_name_kana": null
  },
  "0362": {
    "zip_code": "9880362",
    "prefecture": "宮城県",
    "prefecture_kana": "ミヤギケン",
    "prefecture_code": 4,
    "city": "気仙沼市",
    "city_kana": "ケセンヌマシ",
    "town": "本吉町寺要害",
    "town_kana": "モトヨシチョウテラヨウガイ",
    "street": null,
    "office_name": null,
    "office_name_kana": null
  },
  "0363": {
    "zip_code": "9880363",
    "prefecture": "宮城県",
    "prefecture_kana": "ミヤギケン",
    "prefecture_code": 4,
    "city": "気仙沼市",
    "city_kana": "ケセンヌマシ",
    "town": "本吉町深萩",
    "town_kana": "モトヨシチョウフカハギ",
    "street": null,
    "office_name": null,
    "office_name_kana": null
  },
  "0364": {
    "zip_code": "9880364",
    "prefecture": "宮城県",
    "prefecture_kana": "ミヤギケン",
    "prefecture_code": 4,
    "city": "気仙沼市",
    "city_kana": "ケセンヌマシ",
    "town": "本吉町小金山",
    "town_kana": "モトヨシチョウコガネヤマ",
    "street": null,
    "office_name": null,
    "office_name_kana": null
  },
  "0365": {
    "zip_code": "9880365",
    "prefecture": "宮城県",
    "prefecture_kana": "ミヤギケン",
    "prefecture_code": 4,
    "city": "気仙沼市",
    "city_kana": "ケセンヌマシ",
    "town": "本吉町馬籠町",
    "town_kana": "モトヨシチョウマゴメマチ",
    "street": null,
    "office_name": null,
    "office_name_kana": null
  },
  "0366": {
    "zip_code": "9880366",
    "prefecture": "宮城県",
    "prefecture_kana": "ミヤギケン",
    "prefecture_code": 4,
    "city": "気仙沼市",
    "city_kana": "ケセンヌマシ",
    "town": "本吉町馬籠町頭",
    "town_kana": "モトヨシチョウマゴメマチガシラ",
    "street": null,
    "office_name": null,
    "office_name_kana": null
  },
  "0367": {
    "zip_code": "9880367",
    "prefecture": "宮城県",
    "prefecture_kana": "ミヤギケン",
    "prefecture_code": 4,
    "city": "気仙沼市",
    "city_kana": "ケセンヌマシ",
    "town": "本吉町向畑",
    "town_kana": "モトヨシチョウムカイバタ",
    "street": null,
    "office_name": null,
    "office_name_kana": null
  },
  "0371": {
    "zip_code": "9880371",
    "prefecture": "宮城県",
    "prefecture_kana": "ミヤギケン",
    "prefecture_code": 4,
    "city": "気仙沼市",
    "city_kana": "ケセンヌマシ",
    "town": "本吉町漆原",
    "town_kana": "モトヨシチョウウルシバラ",
    "street": null,
    "office_name": null,
    "office_name_kana": null
  },
  "0372": {
    "zip_code": "9880372",
    "prefecture": "宮城県",
    "prefecture_kana": "ミヤギケン",
    "prefecture_code": 4,
    "city": "気仙沼市",
    "city_kana": "ケセンヌマシ",
    "town": "本吉町尾田",
    "town_kana": "モトヨシチョウオデン",
    "street": null,
    "office_name": null,
    "office_name_kana": null
  },
  "0373": {
    "zip_code": "9880373",
    "prefecture": "宮城県",
    "prefecture_kana": "ミヤギケン",
    "prefecture_code": 4,
    "city": "気仙沼市",
    "city_kana": "ケセンヌマシ",
    "town": "本吉町狩猟",
    "town_kana": "モトヨシチョウカリョウ",
    "street": null,
    "office_name": null,
    "office_name_kana": null
  },
  "0374": {
    "zip_code": "9880374",
    "prefecture": "宮城県",
    "prefecture_kana": "ミヤギケン",
    "prefecture_code": 4,
    "city": "気仙沼市",
    "city_kana": "ケセンヌマシ",
    "town": "本吉町角柄",
    "town_kana": "モトヨシチョウツノガラ",
    "street": null,
    "office_name": null,
    "office_name_kana": null
  },
  "0375": {
    "zip_code": "9880375",
    "prefecture": "宮城県",
    "prefecture_kana": "ミヤギケン",
    "prefecture_code": 4,
    "city": "気仙沼市",
    "city_kana": "ケセンヌマシ",
    "town": "本吉町中沢",
    "town_kana": "モトヨシチョウナカザワ",
    "street": null,
    "office_name": null,
    "office_name_kana": null
  },
  "0381": {
    "zip_code": "9880381",
    "prefecture": "宮城県",
    "prefecture_kana": "ミヤギケン",
    "prefecture_code": 4,
    "city": "気仙沼市",
    "city_kana": "ケセンヌマシ",
    "town": "本吉町津谷新明戸",
    "town_kana": "モトヨシチョウツヤシンアケド",
    "street": null,
    "office_name": null,
    "office_name_kana": null
  },
  "0382": {
    "zip_code": "9880382",
    "prefecture": "宮城県",
    "prefecture_kana": "ミヤギケン",
    "prefecture_code": 4,
    "city": "気仙沼市",
    "city_kana": "ケセンヌマシ",
    "town": "本吉町津谷明戸",
    "town_kana": "モトヨシチョウツヤアケド",
    "street": null,
    "office_name": null,
    "office_name_kana": null
  },
  "0383": {
    "zip_code": "9880383",
    "prefecture": "宮城県",
    "prefecture_kana": "ミヤギケン",
    "prefecture_code": 4,
    "city": "気仙沼市",
    "city_kana": "ケセンヌマシ",
    "town": "本吉町坊の倉",
    "town_kana": "モトヨシチョウボウノクラ",
    "street": null,
    "office_name": null,
    "office_name_kana": null
  },
  "0384": {
    "zip_code": "9880384",
    "prefecture": "宮城県",
    "prefecture_kana": "ミヤギケン",
    "prefecture_code": 4,
    "city": "気仙沼市",
    "city_kana": "ケセンヌマシ",
    "town": "本吉町高岡",
    "town_kana": "モトヨシチョウタカオカ",
    "street": null,
    "office_name": null,
    "office_name_kana": null
  },
  "0385": {
    "zip_code": "9880385",
    "prefecture": "宮城県",
    "prefecture_kana": "ミヤギケン",
    "prefecture_code": 4,
    "city": "気仙沼市",
    "city_kana": "ケセンヌマシ",
    "town": "本吉町下川内",
    "town_kana": "モトヨシチョウシモカワウチ",
    "street": null,
    "office_name": null,
    "office_name_kana": null
  },
  "0386": {
    "zip_code": "9880386",
    "prefecture": "宮城県",
    "prefecture_kana": "ミヤギケン",
    "prefecture_code": 4,
    "city": "気仙沼市",
    "city_kana": "ケセンヌマシ",
    "town": "本吉町西川内",
    "town_kana": "モトヨシチョウニシカワウチ",
    "street": null,
    "office_name": null,
    "office_name_kana": null
  },
  "0387": {
    "zip_code": "9880387",
    "prefecture": "宮城県",
    "prefecture_kana": "ミヤギケン",
    "prefecture_code": 4,
    "city": "気仙沼市",
    "city_kana": "ケセンヌマシ",
    "town": "本吉町中川内",
    "town_kana": "モトヨシチョウナカカワウチ",
    "street": null,
    "office_name": null,
    "office_name_kana": null
  },
  "0388": {
    "zip_code": "9880388",
    "prefecture": "宮城県",
    "prefecture_kana": "ミヤギケン",
    "prefecture_code": 4,
    "city": "気仙沼市",
    "city_kana": "ケセンヌマシ",
    "town": "本吉町上川内",
    "town_kana": "モトヨシチョウカミカワウチ",
    "street": null,
    "office_name": null,
    "office_name_kana": null
  },
  "0389": {
    "zip_code": "9880389",
    "prefecture": "宮城県",
    "prefecture_kana": "ミヤギケン",
    "prefecture_code": 4,
    "city": "気仙沼市",
    "city_kana": "ケセンヌマシ",
    "town": "本吉町東川内",
    "town_kana": "モトヨシチョウヒガシカワウチ",
    "street": null,
    "office_name": null,
    "office_name_kana": null
  },
  "0392": {
    "zip_code": "9880392",
    "prefecture": "宮城県",
    "prefecture_kana": "ミヤギケン",
    "prefecture_code": 4,
    "city": "気仙沼市",
    "city_kana": "ケセンヌマシ",
    "town": "本吉町猪の鼻",
    "town_kana": "モトヨシチョウイノハナ",
    "street": "１６９−７",
    "office_name": "小宮山印刷工業　株式会社　宮城工場",
    "office_name_kana": "コミヤマインサツコウギヨウ カブシキガイシヤ ミヤギコウジヨウ"
  },
  "0393": {
    "zip_code": "9880393",
    "prefecture": "宮城県",
    "prefecture_kana": "ミヤギケン",
    "prefecture_code": 4,
    "city": "気仙沼市",
    "city_kana": "ケセンヌマシ",
    "town": "本吉町津谷舘岡",
    "town_kana": "モトヨシチョウツヤタテオカ",
    "street": "１０（津谷郵便局私書箱第３号）",
    "office_name": "気仙沼市　本吉総合支所",
    "office_name_kana": "ケセンヌマシ モトヨシソウゴウシシヨ"
  },
  "0401": {
    "zip_code": "9880401",
    "prefecture": "宮城県",
    "prefecture_kana": "ミヤギケン",
    "prefecture_code": 4,
    "city": "本吉郡南三陸町",
    "city_kana": "モトヨシグンミナミサンリクチョウ",
    "town": "歌津浪板",
    "town_kana": "ウタツナミイタ",
    "street": null,
    "office_name": null,
    "office_name_kana": null
  },
  "0402": {
    "zip_code": "9880402",
    "prefecture": "宮城県",
    "prefecture_kana": "ミヤギケン",
    "prefecture_code": 4,
    "city": "本吉郡南三陸町",
    "city_kana": "モトヨシグンミナミサンリクチョウ",
    "town": "歌津港",
    "town_kana": "ウタツミナト",
    "street": null,
    "office_name": null,
    "office_name_kana": null
  },
  "0403": {
    "zip_code": "9880403",
    "prefecture": "宮城県",
    "prefecture_kana": "ミヤギケン",
    "prefecture_code": 4,
    "city": "本吉郡南三陸町",
    "city_kana": "モトヨシグンミナミサンリクチョウ",
    "town": "歌津長羽",
    "town_kana": "ウタツナガハ",
    "street": null,
    "office_name": null,
    "office_name_kana": null
  },
  "0404": {
    "zip_code": "9880404",
    "prefecture": "宮城県",
    "prefecture_kana": "ミヤギケン",
    "prefecture_code": 4,
    "city": "本吉郡南三陸町",
    "city_kana": "モトヨシグンミナミサンリクチョウ",
    "town": "歌津牧田",
    "town_kana": "ウタツマキタ",
    "street": null,
    "office_name": null,
    "office_name_kana": null
  },
  "0405": {
    "zip_code": "9880405",
    "prefecture": "宮城県",
    "prefecture_kana": "ミヤギケン",
    "prefecture_code": 4,
    "city": "本吉郡南三陸町",
    "city_kana": "モトヨシグンミナミサンリクチョウ",
    "town": "歌津草木沢",
    "town_kana": "ウタツクサキザワ",
    "street": null,
    "office_name": null,
    "office_name_kana": null
  },
  "0406": {
    "zip_code": "9880406",
    "prefecture": "宮城県",
    "prefecture_kana": "ミヤギケン",
    "prefecture_code": 4,
    "city": "本吉郡南三陸町",
    "city_kana": "モトヨシグンミナミサンリクチョウ",
    "town": "歌津中野",
    "town_kana": "ウタツナカノ",
    "street": null,
    "office_name": null,
    "office_name_kana": null
  },
  "0411": {
    "zip_code": "9880411",
    "prefecture": "宮城県",
    "prefecture_kana": "ミヤギケン",
    "prefecture_code": 4,
    "city": "本吉郡南三陸町",
    "city_kana": "モトヨシグンミナミサンリクチョウ",
    "town": "歌津田茂川",
    "town_kana": "ウタツタモガワ",
    "street": null,
    "office_name": null,
    "office_name_kana": null
  },
  "0412": {
    "zip_code": "9880412",
    "prefecture": "宮城県",
    "prefecture_kana": "ミヤギケン",
    "prefecture_code": 4,
    "city": "本吉郡南三陸町",
    "city_kana": "モトヨシグンミナミサンリクチョウ",
    "town": "歌津南の沢",
    "town_kana": "ウタツミナミノサワ",
    "street": null,
    "office_name": null,
    "office_name_kana": null
  },
  "0413": {
    "zip_code": "9880413",
    "prefecture": "宮城県",
    "prefecture_kana": "ミヤギケン",
    "prefecture_code": 4,
    "city": "本吉郡南三陸町",
    "city_kana": "モトヨシグンミナミサンリクチョウ",
    "town": "歌津上の山",
    "town_kana": "ウタツカミノヤマ",
    "street": null,
    "office_name": null,
    "office_name_kana": null
  },
  "0414": {
    "zip_code": "9880414",
    "prefecture": "宮城県",
    "prefecture_kana": "ミヤギケン",
    "prefecture_code": 4,
    "city": "本吉郡南三陸町",
    "city_kana": "モトヨシグンミナミサンリクチョウ",
    "town": "歌津長沢",
    "town_kana": "ウタツナガサワ",
    "street": null,
    "office_name": null,
    "office_name_kana": null
  },
  "0415": {
    "zip_code": "9880415",
    "prefecture": "宮城県",
    "prefecture_kana": "ミヤギケン",
    "prefecture_code": 4,
    "city": "本吉郡南三陸町",
    "city_kana": "モトヨシグンミナミサンリクチョウ",
    "town": "歌津田の浦",
    "town_kana": "ウタツタノウラ",
    "street": null,
    "office_name": null,
    "office_name_kana": null
  },
  "0421": {
    "zip_code": "9880421",
    "prefecture": "宮城県",
    "prefecture_kana": "ミヤギケン",
    "prefecture_code": 4,
    "city": "本吉郡南三陸町",
    "city_kana": "モトヨシグンミナミサンリクチョウ",
    "town": "歌津平棚",
    "town_kana": "ウタツヒラダナ",
    "street": null,
    "office_name": null,
    "office_name_kana": null
  },
  "0422": {
    "zip_code": "9880422",
    "prefecture": "宮城県",
    "prefecture_kana": "ミヤギケン",
    "prefecture_code": 4,
    "city": "本吉郡南三陸町",
    "city_kana": "モトヨシグンミナミサンリクチョウ",
    "town": "歌津松の崎",
    "town_kana": "ウタツマツノサキ",
    "street": null,
    "office_name": null,
    "office_name_kana": null
  },
  "0423": {
    "zip_code": "9880423",
    "prefecture": "宮城県",
    "prefecture_kana": "ミヤギケン",
    "prefecture_code": 4,
    "city": "本吉郡南三陸町",
    "city_kana": "モトヨシグンミナミサンリクチョウ",
    "town": "歌津枡沢",
    "town_kana": "ウタツマスザワ",
    "street": null,
    "office_name": null,
    "office_name_kana": null
  },
  "0424": {
    "zip_code": "9880424",
    "prefecture": "宮城県",
    "prefecture_kana": "ミヤギケン",
    "prefecture_code": 4,
    "city": "本吉郡南三陸町",
    "city_kana": "モトヨシグンミナミサンリクチョウ",
    "town": "歌津北の沢",
    "town_kana": "ウタツキタノサワ",
    "street": null,
    "office_name": null,
    "office_name_kana": null
  },
  "0425": {
    "zip_code": "9880425",
    "prefecture": "宮城県",
    "prefecture_kana": "ミヤギケン",
    "prefecture_code": 4,
    "city": "本吉郡南三陸町",
    "city_kana": "モトヨシグンミナミサンリクチョウ",
    "town": "歌津神山",
    "town_kana": "ウタツカミヤマ",
    "street": null,
    "office_name": null,
    "office_name_kana": null
  },
  "0426": {
    "zip_code": "9880426",
    "prefecture": "宮城県",
    "prefecture_kana": "ミヤギケン",
    "prefecture_code": 4,
    "city": "本吉郡南三陸町",
    "city_kana": "モトヨシグンミナミサンリクチョウ",
    "town": "歌津石浜",
    "town_kana": "ウタツイシハマ",
    "street": null,
    "office_name": null,
    "office_name_kana": null
  },
  "0431": {
    "zip_code": "9880431",
    "prefecture": "宮城県",
    "prefecture_kana": "ミヤギケン",
    "prefecture_code": 4,
    "city": "本吉郡南三陸町",
    "city_kana": "モトヨシグンミナミサンリクチョウ",
    "town": "歌津名足",
    "town_kana": "ウタツナタリ",
    "street": null,
    "office_name": null,
    "office_name_kana": null
  },
  "0432": {
    "zip_code": "9880432",
    "prefecture": "宮城県",
    "prefecture_kana": "ミヤギケン",
    "prefecture_code": 4,
    "city": "本吉郡南三陸町",
    "city_kana": "モトヨシグンミナミサンリクチョウ",
    "town": "歌津中山",
    "town_kana": "ウタツナカヤマ",
    "street": null,
    "office_name": null,
    "office_name_kana": null
  },
  "0433": {
    "zip_code": "9880433",
    "prefecture": "宮城県",
    "prefecture_kana": "ミヤギケン",
    "prefecture_code": 4,
    "city": "本吉郡南三陸町",
    "city_kana": "モトヨシグンミナミサンリクチョウ",
    "town": "歌津馬場",
    "town_kana": "ウタツババ",
    "street": null,
    "office_name": null,
    "office_name_kana": null
  },
  "0434": {
    "zip_code": "9880434",
    "prefecture": "宮城県",
    "prefecture_kana": "ミヤギケン",
    "prefecture_code": 4,
    "city": "本吉郡南三陸町",
    "city_kana": "モトヨシグンミナミサンリクチョウ",
    "town": "歌津大磯",
    "town_kana": "ウタツオオイソ",
    "street": null,
    "office_name": null,
    "office_name_kana": null
  },
  "0435": {
    "zip_code": "9880435",
    "prefecture": "宮城県",
    "prefecture_kana": "ミヤギケン",
    "prefecture_code": 4,
    "city": "本吉郡南三陸町",
    "city_kana": "モトヨシグンミナミサンリクチョウ",
    "town": "歌津小沼",
    "town_kana": "ウタツコヌマ",
    "street": null,
    "office_name": null,
    "office_name_kana": null
  },
  "0436": {
    "zip_code": "9880436",
    "prefecture": "宮城県",
    "prefecture_kana": "ミヤギケン",
    "prefecture_code": 4,
    "city": "本吉郡南三陸町",
    "city_kana": "モトヨシグンミナミサンリクチョウ",
    "town": "歌津小長柴",
    "town_kana": "ウタツコナガシバ",
    "street": null,
    "office_name": null,
    "office_name_kana": null
  },
  "0441": {
    "zip_code": "9880441",
    "prefecture": "宮城県",
    "prefecture_kana": "ミヤギケン",
    "prefecture_code": 4,
    "city": "本吉郡南三陸町",
    "city_kana": "モトヨシグンミナミサンリクチョウ",
    "town": "歌津田の頭",
    "town_kana": "ウタツタノガシラ",
    "street": null,
    "office_name": null,
    "office_name_kana": null
  },
  "0442": {
    "zip_code": "9880442",
    "prefecture": "宮城県",
    "prefecture_kana": "ミヤギケン",
    "prefecture_code": 4,
    "city": "本吉郡南三陸町",
    "city_kana": "モトヨシグンミナミサンリクチョウ",
    "town": "歌津番所",
    "town_kana": "ウタツバンドコロ",
    "street": null,
    "office_name": null,
    "office_name_kana": null
  },
  "0443": {
    "zip_code": "9880443",
    "prefecture": "宮城県",
    "prefecture_kana": "ミヤギケン",
    "prefecture_code": 4,
    "city": "本吉郡南三陸町",
    "city_kana": "モトヨシグンミナミサンリクチョウ",
    "town": "歌津尾崎",
    "town_kana": "ウタツオサキ",
    "street": null,
    "office_name": null,
    "office_name_kana": null
  },
  "0444": {
    "zip_code": "9880444",
    "prefecture": "宮城県",
    "prefecture_kana": "ミヤギケン",
    "prefecture_code": 4,
    "city": "本吉郡南三陸町",
    "city_kana": "モトヨシグンミナミサンリクチョウ",
    "town": "歌津泊浜",
    "town_kana": "ウタツトマリハマ",
    "street": null,
    "office_name": null,
    "office_name_kana": null
  },
  "0445": {
    "zip_code": "9880445",
    "prefecture": "宮城県",
    "prefecture_kana": "ミヤギケン",
    "prefecture_code": 4,
    "city": "本吉郡南三陸町",
    "city_kana": "モトヨシグンミナミサンリクチョウ",
    "town": "歌津館浜",
    "town_kana": "ウタツタテハマ",
    "street": null,
    "office_name": null,
    "office_name_kana": null
  },
  "0446": {
    "zip_code": "9880446",
    "prefecture": "宮城県",
    "prefecture_kana": "ミヤギケン",
    "prefecture_code": 4,
    "city": "本吉郡南三陸町",
    "city_kana": "モトヨシグンミナミサンリクチョウ",
    "town": "歌津板橋",
    "town_kana": "ウタツイタバシ",
    "street": null,
    "office_name": null,
    "office_name_kana": null
  },
  "0447": {
    "zip_code": "9880447",
    "prefecture": "宮城県",
    "prefecture_kana": "ミヤギケン",
    "prefecture_code": 4,
    "city": "本吉郡南三陸町",
    "city_kana": "モトヨシグンミナミサンリクチョウ",
    "town": "歌津長柴",
    "town_kana": "ウタツナガシバ",
    "street": null,
    "office_name": null,
    "office_name_kana": null
  },
  "0448": {
    "zip_code": "9880448",
    "prefecture": "宮城県",
    "prefecture_kana": "ミヤギケン",
    "prefecture_code": 4,
    "city": "本吉郡南三陸町",
    "city_kana": "モトヨシグンミナミサンリクチョウ",
    "town": "歌津大沼",
    "town_kana": "ウタツオオヌマ",
    "street": null,
    "office_name": null,
    "office_name_kana": null
  },
  "0451": {
    "zip_code": "9880451",
    "prefecture": "宮城県",
    "prefecture_kana": "ミヤギケン",
    "prefecture_code": 4,
    "city": "本吉郡南三陸町",
    "city_kana": "モトヨシグンミナミサンリクチョウ",
    "town": "歌津管の浜",
    "town_kana": "ウタツクダノハマ",
    "street": null,
    "office_name": null,
    "office_name_kana": null
  },
  "0452": {
    "zip_code": "9880452",
    "prefecture": "宮城県",
    "prefecture_kana": "ミヤギケン",
    "prefecture_code": 4,
    "city": "本吉郡南三陸町",
    "city_kana": "モトヨシグンミナミサンリクチョウ",
    "town": "歌津町向",
    "town_kana": "ウタツマチムカイ",
    "street": null,
    "office_name": null,
    "office_name_kana": null
  },
  "0453": {
    "zip_code": "9880453",
    "prefecture": "宮城県",
    "prefecture_kana": "ミヤギケン",
    "prefecture_code": 4,
    "city": "本吉郡南三陸町",
    "city_kana": "モトヨシグンミナミサンリクチョウ",
    "town": "歌津伊里前",
    "town_kana": "ウタツイサトマエ",
    "street": null,
    "office_name": null,
    "office_name_kana": null
  },
  "0454": {
    "zip_code": "9880454",
    "prefecture": "宮城県",
    "prefecture_kana": "ミヤギケン",
    "prefecture_code": 4,
    "city": "本吉郡南三陸町",
    "city_kana": "モトヨシグンミナミサンリクチョウ",
    "town": "歌津峰畑",
    "town_kana": "ウタツミネハタ",
    "street": null,
    "office_name": null,
    "office_name_kana": null
  },
  "0455": {
    "zip_code": "9880455",
    "prefecture": "宮城県",
    "prefecture_kana": "ミヤギケン",
    "prefecture_code": 4,
    "city": "本吉郡南三陸町",
    "city_kana": "モトヨシグンミナミサンリクチョウ",
    "town": "歌津吉野沢",
    "town_kana": "ウタツヨシノサワ",
    "street": null,
    "office_name": null,
    "office_name_kana": null
  },
  "0456": {
    "zip_code": "9880456",
    "prefecture": "宮城県",
    "prefecture_kana": "ミヤギケン",
    "prefecture_code": 4,
    "city": "本吉郡南三陸町",
    "city_kana": "モトヨシグンミナミサンリクチョウ",
    "town": "歌津川内",
    "town_kana": "ウタツカワウチ",
    "street": null,
    "office_name": null,
    "office_name_kana": null
  },
  "0461": {
    "zip_code": "9880461",
    "prefecture": "宮城県",
    "prefecture_kana": "ミヤギケン",
    "prefecture_code": 4,
    "city": "本吉郡南三陸町",
    "city_kana": "モトヨシグンミナミサンリクチョウ",
    "town": "歌津寄木",
    "town_kana": "ウタツヨリキ",
    "street": null,
    "office_name": null,
    "office_name_kana": null
  },
  "0462": {
    "zip_code": "9880462",
    "prefecture": "宮城県",
    "prefecture_kana": "ミヤギケン",
    "prefecture_code": 4,
    "city": "本吉郡南三陸町",
    "city_kana": "モトヨシグンミナミサンリクチョウ",
    "town": "歌津砂浜",
    "town_kana": "ウタツスナハマ",
    "street": null,
    "office_name": null,
    "office_name_kana": null
  },
  "0463": {
    "zip_code": "9880463",
    "prefecture": "宮城県",
    "prefecture_kana": "ミヤギケン",
    "prefecture_code": 4,
    "city": "本吉郡南三陸町",
    "city_kana": "モトヨシグンミナミサンリクチョウ",
    "town": "歌津大森",
    "town_kana": "ウタツオオモリ",
    "street": null,
    "office_name": null,
    "office_name_kana": null
  },
  "0464": {
    "zip_code": "9880464",
    "prefecture": "宮城県",
    "prefecture_kana": "ミヤギケン",
    "prefecture_code": 4,
    "city": "本吉郡南三陸町",
    "city_kana": "モトヨシグンミナミサンリクチョウ",
    "town": "歌津森畑",
    "town_kana": "ウタツモリハタ",
    "street": null,
    "office_name": null,
    "office_name_kana": null
  },
  "0465": {
    "zip_code": "9880465",
    "prefecture": "宮城県",
    "prefecture_kana": "ミヤギケン",
    "prefecture_code": 4,
    "city": "本吉郡南三陸町",
    "city_kana": "モトヨシグンミナミサンリクチョウ",
    "town": "歌津韮の浜",
    "town_kana": "ウタツニラノハマ",
    "street": null,
    "office_name": null,
    "office_name_kana": null
  },
  "0466": {
    "zip_code": "9880466",
    "prefecture": "宮城県",
    "prefecture_kana": "ミヤギケン",
    "prefecture_code": 4,
    "city": "本吉郡南三陸町",
    "city_kana": "モトヨシグンミナミサンリクチョウ",
    "town": "歌津平松",
    "town_kana": "ウタツヒラマツ",
    "street": null,
    "office_name": null,
    "office_name_kana": null
  },
  "0467": {
    "zip_code": "9880467",
    "prefecture": "宮城県",
    "prefecture_kana": "ミヤギケン",
    "prefecture_code": 4,
    "city": "本吉郡南三陸町",
    "city_kana": "モトヨシグンミナミサンリクチョウ",
    "town": "歌津皿貝",
    "town_kana": "ウタツサラガイ",
    "street": null,
    "office_name": null,
    "office_name_kana": null
  },
  "0471": {
    "zip_code": "9880471",
    "prefecture": "宮城県",
    "prefecture_kana": "ミヤギケン",
    "prefecture_code": 4,
    "city": "本吉郡南三陸町",
    "city_kana": "モトヨシグンミナミサンリクチョウ",
    "town": "歌津石泉",
    "town_kana": "ウタツイシズミ",
    "street": null,
    "office_name": null,
    "office_name_kana": null
  },
  "0472": {
    "zip_code": "9880472",
    "prefecture": "宮城県",
    "prefecture_kana": "ミヤギケン",
    "prefecture_code": 4,
    "city": "本吉郡南三陸町",
    "city_kana": "モトヨシグンミナミサンリクチョウ",
    "town": "歌津宮方",
    "town_kana": "ウタツミヤカタ",
    "street": null,
    "office_name": null,
    "office_name_kana": null
  },
  "0473": {
    "zip_code": "9880473",
    "prefecture": "宮城県",
    "prefecture_kana": "ミヤギケン",
    "prefecture_code": 4,
    "city": "本吉郡南三陸町",
    "city_kana": "モトヨシグンミナミサンリクチョウ",
    "town": "歌津中在",
    "town_kana": "ウタツナカザイ",
    "street": null,
    "office_name": null,
    "office_name_kana": null
  },
  "0474": {
    "zip_code": "9880474",
    "prefecture": "宮城県",
    "prefecture_kana": "ミヤギケン",
    "prefecture_code": 4,
    "city": "本吉郡南三陸町",
    "city_kana": "モトヨシグンミナミサンリクチョウ",
    "town": "歌津田表",
    "town_kana": "ウタツタオモテ",
    "street": null,
    "office_name": null,
    "office_name_kana": null
  },
  "0475": {
    "zip_code": "9880475",
    "prefecture": "宮城県",
    "prefecture_kana": "ミヤギケン",
    "prefecture_code": 4,
    "city": "本吉郡南三陸町",
    "city_kana": "モトヨシグンミナミサンリクチョウ",
    "town": "歌津白山",
    "town_kana": "ウタツシラヤマ",
    "street": null,
    "office_name": null,
    "office_name_kana": null
  },
  "0476": {
    "zip_code": "9880476",
    "prefecture": "宮城県",
    "prefecture_kana": "ミヤギケン",
    "prefecture_code": 4,
    "city": "本吉郡南三陸町",
    "city_kana": "モトヨシグンミナミサンリクチョウ",
    "town": "歌津上沢",
    "town_kana": "ウタツカミサワ",
    "street": null,
    "office_name": null,
    "office_name_kana": null
  },
  "0477": {
    "zip_code": "9880477",
    "prefecture": "宮城県",
    "prefecture_kana": "ミヤギケン",
    "prefecture_code": 4,
    "city": "本吉郡南三陸町",
    "city_kana": "モトヨシグンミナミサンリクチョウ",
    "town": "歌津払川",
    "town_kana": "ウタツハライカワ",
    "street": null,
    "office_name": null,
    "office_name_kana": null
  },
  "0478": {
    "zip_code": "9880478",
    "prefecture": "宮城県",
    "prefecture_kana": "ミヤギケン",
    "prefecture_code": 4,
    "city": "本吉郡南三陸町",
    "city_kana": "モトヨシグンミナミサンリクチョウ",
    "town": "歌津樋の口",
    "town_kana": "ウタツヒノクチ",
    "street": null,
    "office_name": null,
    "office_name_kana": null
  },
  "0501": {
    "zip_code": "9880501",
    "prefecture": "宮城県",
    "prefecture_kana": "ミヤギケン",
    "prefecture_code": 4,
    "city": "気仙沼市",
    "city_kana": "ケセンヌマシ",
    "town": "唐桑町釜石下",
    "town_kana": "カラクワチョウカマイシシタ",
    "street": null,
    "office_name": null,
    "office_name_kana": null
  },
  "0502": {
    "zip_code": "9880502",
    "prefecture": "宮城県",
    "prefecture_kana": "ミヤギケン",
    "prefecture_code": 4,
    "city": "気仙沼市",
    "city_kana": "ケセンヌマシ",
    "town": "唐桑町台の下",
    "town_kana": "カラクワチョウダイノシタ",
    "street": null,
    "office_name": null,
    "office_name_kana": null
  },
  "0503": {
    "zip_code": "9880503",
    "prefecture": "宮城県",
    "prefecture_kana": "ミヤギケン",
    "prefecture_code": 4,
    "city": "気仙沼市",
    "city_kana": "ケセンヌマシ",
    "town": "唐桑町荒谷前",
    "town_kana": "カラクワチョウアラヤマエ",
    "street": null,
    "office_name": null,
    "office_name_kana": null
  },
  "0504": {
    "zip_code": "9880504",
    "prefecture": "宮城県",
    "prefecture_kana": "ミヤギケン",
    "prefecture_code": 4,
    "city": "気仙沼市",
    "city_kana": "ケセンヌマシ",
    "town": "唐桑町竹の袖",
    "town_kana": "カラクワチョウタケノソデ",
    "street": null,
    "office_name": null,
    "office_name_kana": null
  },
  "0505": {
    "zip_code": "9880505",
    "prefecture": "宮城県",
    "prefecture_kana": "ミヤギケン",
    "prefecture_code": 4,
    "city": "気仙沼市",
    "city_kana": "ケセンヌマシ",
    "town": "唐桑町港",
    "town_kana": "カラクワチョウミナト",
    "street": null,
    "office_name": null,
    "office_name_kana": null
  },
  "0506": {
    "zip_code": "9880506",
    "prefecture": "宮城県",
    "prefecture_kana": "ミヤギケン",
    "prefecture_code": 4,
    "city": "気仙沼市",
    "city_kana": "ケセンヌマシ",
    "town": "唐桑町出山",
    "town_kana": "カラクワチョウデヤマ",
    "street": null,
    "office_name": null,
    "office_name_kana": null
  },
  "0511": {
    "zip_code": "9880511",
    "prefecture": "宮城県",
    "prefecture_kana": "ミヤギケン",
    "prefecture_code": 4,
    "city": "気仙沼市",
    "city_kana": "ケセンヌマシ",
    "town": "唐桑町舘",
    "town_kana": "カラクワチョウタテ",
    "street": null,
    "office_name": null,
    "office_name_kana": null
  },
  "0512": {
    "zip_code": "9880512",
    "prefecture": "宮城県",
    "prefecture_kana": "ミヤギケン",
    "prefecture_code": 4,
    "city": "気仙沼市",
    "city_kana": "ケセンヌマシ",
    "town": "唐桑町岩井沢",
    "town_kana": "カラクワチョウイワイサワ",
    "street": null,
    "office_name": null,
    "office_name_kana": null
  },
  "0513": {
    "zip_code": "9880513",
    "prefecture": "宮城県",
    "prefecture_kana": "ミヤギケン",
    "prefecture_code": 4,
    "city": "気仙沼市",
    "city_kana": "ケセンヌマシ",
    "town": "唐桑町載鈎",
    "town_kana": "カラクワチョウノセカギ",
    "street": null,
    "office_name": null,
    "office_name_kana": null
  },
  "0514": {
    "zip_code": "9880514",
    "prefecture": "宮城県",
    "prefecture_kana": "ミヤギケン",
    "prefecture_code": 4,
    "city": "気仙沼市",
    "city_kana": "ケセンヌマシ",
    "town": "唐桑町小田",
    "town_kana": "カラクワチョウコダ",
    "street": null,
    "office_name": null,
    "office_name_kana": null
  },
  "0521": {
    "zip_code": "9880521",
    "prefecture": "宮城県",
    "prefecture_kana": "ミヤギケン",
    "prefecture_code": 4,
    "city": "気仙沼市",
    "city_kana": "ケセンヌマシ",
    "town": "唐桑町大畑",
    "town_kana": "カラクワチョウオオハタ",
    "street": null,
    "office_name": null,
    "office_name_kana": null
  },
  "0522": {
    "zip_code": "9880522",
    "prefecture": "宮城県",
    "prefecture_kana": "ミヤギケン",
    "prefecture_code": 4,
    "city": "気仙沼市",
    "city_kana": "ケセンヌマシ",
    "town": "唐桑町上川原",
    "town_kana": "カラクワチョウカミカワラ",
    "street": null,
    "office_name": null,
    "office_name_kana": null
  },
  "0523": {
    "zip_code": "9880523",
    "prefecture": "宮城県",
    "prefecture_kana": "ミヤギケン",
    "prefecture_code": 4,
    "city": "気仙沼市",
    "city_kana": "ケセンヌマシ",
    "town": "唐桑町境",
    "town_kana": "カラクワチョウサカイ",
    "street": null,
    "office_name": null,
    "office_name_kana": null
  },
  "0524": {
    "zip_code": "9880524",
    "prefecture": "宮城県",
    "prefecture_kana": "ミヤギケン",
    "prefecture_code": 4,
    "city": "気仙沼市",
    "city_kana": "ケセンヌマシ",
    "town": "唐桑町只越",
    "town_kana": "カラクワチョウタダコシ",
    "street": null,
    "office_name": null,
    "office_name_kana": null
  },
  "0525": {
    "zip_code": "9880525",
    "prefecture": "宮城県",
    "prefecture_kana": "ミヤギケン",
    "prefecture_code": 4,
    "city": "気仙沼市",
    "city_kana": "ケセンヌマシ",
    "town": "唐桑町堂角",
    "town_kana": "カラクワチョウドウカク",
    "street": null,
    "office_name": null,
    "office_name_kana": null
  },
  "0526": {
    "zip_code": "9880526",
    "prefecture": "宮城県",
    "prefecture_kana": "ミヤギケン",
    "prefecture_code": 4,
    "city": "気仙沼市",
    "city_kana": "ケセンヌマシ",
    "town": "唐桑町唯越",
    "town_kana": "カラクワチョウタダコシ",
    "street": null,
    "office_name": null,
    "office_name_kana": null
  },
  "0527": {
    "zip_code": "9880527",
    "prefecture": "宮城県",
    "prefecture_kana": "ミヤギケン",
    "prefecture_code": 4,
    "city": "気仙沼市",
    "city_kana": "ケセンヌマシ",
    "town": "唐桑町西舞根",
    "town_kana": "カラクワチョウニシモウネ",
    "street": null,
    "office_name": null,
    "office_name_kana": null
  },
  "0531": {
    "zip_code": "9880531",
    "prefecture": "宮城県",
    "prefecture_kana": "ミヤギケン",
    "prefecture_code": 4,
    "city": "気仙沼市",
    "city_kana": "ケセンヌマシ",
    "town": "唐桑町高石浜",
    "town_kana": "カラクワチョウタカイシハマ",
    "street": null,
    "office_name": null,
    "office_name_kana": null
  },
  "0532": {
    "zip_code": "9880532",
    "prefecture": "宮城県",
    "prefecture_kana": "ミヤギケン",
    "prefecture_code": 4,
    "city": "気仙沼市",
    "city_kana": "ケセンヌマシ",
    "town": "唐桑町石浜",
    "town_kana": "カラクワチョウイシハマ",
    "street": null,
    "office_name": null,
    "office_name_kana": null
  },
  "0533": {
    "zip_code": "9880533",
    "prefecture": "宮城県",
    "prefecture_kana": "ミヤギケン",
    "prefecture_code": 4,
    "city": "気仙沼市",
    "city_kana": "ケセンヌマシ",
    "town": "唐桑町明戸",
    "town_kana": "カラクワチョウアケド",
    "street": null,
    "office_name": null,
    "office_name_kana": null
  },
  "0534": {
    "zip_code": "9880534",
    "prefecture": "宮城県",
    "prefecture_kana": "ミヤギケン",
    "prefecture_code": 4,
    "city": "気仙沼市",
    "city_kana": "ケセンヌマシ",
    "town": "唐桑町宿浦",
    "town_kana": "カラクワチョウシュクウラ",
    "street": null,
    "office_name": null,
    "office_name_kana": null
  },
  "0535": {
    "zip_code": "9880535",
    "prefecture": "宮城県",
    "prefecture_kana": "ミヤギケン",
    "prefecture_code": 4,
    "city": "気仙沼市",
    "city_kana": "ケセンヌマシ",
    "town": "唐桑町馬場",
    "town_kana": "カラクワチョウババ",
    "street": null,
    "office_name": null,
    "office_name_kana": null
  },
  "0541": {
    "zip_code": "9880541",
    "prefecture": "宮城県",
    "prefecture_kana": "ミヤギケン",
    "prefecture_code": 4,
    "city": "気仙沼市",
    "city_kana": "ケセンヌマシ",
    "town": "唐桑町北中",
    "town_kana": "カラクワチョウキタナカ",
    "street": null,
    "office_name": null,
    "office_name_kana": null
  },
  "0542": {
    "zip_code": "9880542",
    "prefecture": "宮城県",
    "prefecture_kana": "ミヤギケン",
    "prefecture_code": 4,
    "city": "気仙沼市",
    "city_kana": "ケセンヌマシ",
    "town": "唐桑町中",
    "town_kana": "カラクワチョウナカ",
    "street": null,
    "office_name": null,
    "office_name_kana": null
  },
  "0543": {
    "zip_code": "9880543",
    "prefecture": "宮城県",
    "prefecture_kana": "ミヤギケン",
    "prefecture_code": 4,
    "city": "気仙沼市",
    "city_kana": "ケセンヌマシ",
    "town": "唐桑町小長根",
    "town_kana": "カラクワチョウコナガネ",
    "street": null,
    "office_name": null,
    "office_name_kana": null
  },
  "0544": {
    "zip_code": "9880544",
    "prefecture": "宮城県",
    "prefecture_kana": "ミヤギケン",
    "prefecture_code": 4,
    "city": "気仙沼市",
    "city_kana": "ケセンヌマシ",
    "town": "唐桑町欠浜",
    "town_kana": "カラクワチョウカケハマ",
    "street": null,
    "office_name": null,
    "office_name_kana": null
  },
  "0551": {
    "zip_code": "9880551",
    "prefecture": "宮城県",
    "prefecture_kana": "ミヤギケン",
    "prefecture_code": 4,
    "city": "気仙沼市",
    "city_kana": "ケセンヌマシ",
    "town": "唐桑町松圃",
    "town_kana": "カラクワチョウマツバタケ",
    "street": null,
    "office_name": null,
    "office_name_kana": null
  },
  "0552": {
    "zip_code": "9880552",
    "prefecture": "宮城県",
    "prefecture_kana": "ミヤギケン",
    "prefecture_code": 4,
    "city": "気仙沼市",
    "city_kana": "ケセンヌマシ",
    "town": "唐桑町津本",
    "town_kana": "カラクワチョウツモト",
    "street": null,
    "office_name": null,
    "office_name_kana": null
  },
  "0553": {
    "zip_code": "9880553",
    "prefecture": "宮城県",
    "prefecture_kana": "ミヤギケン",
    "prefecture_code": 4,
    "city": "気仙沼市",
    "city_kana": "ケセンヌマシ",
    "town": "唐桑町神の倉",
    "town_kana": "カラクワチョウカンノクラ",
    "street": null,
    "office_name": null,
    "office_name_kana": null
  },
  "0554": {
    "zip_code": "9880554",
    "prefecture": "宮城県",
    "prefecture_kana": "ミヤギケン",
    "prefecture_code": 4,
    "city": "気仙沼市",
    "city_kana": "ケセンヌマシ",
    "town": "唐桑町崎浜",
    "town_kana": "カラクワチョウサキハマ",
    "street": null,
    "office_name": null,
    "office_name_kana": null
  },
  "0561": {
    "zip_code": "9880561",
    "prefecture": "宮城県",
    "prefecture_kana": "ミヤギケン",
    "prefecture_code": 4,
    "city": "気仙沼市",
    "city_kana": "ケセンヌマシ",
    "town": "唐桑町小鯖",
    "town_kana": "カラクワチョウコサバ",
    "street": null,
    "office_name": null,
    "office_name_kana": null
  },
  "0562": {
    "zip_code": "9880562",
    "prefecture": "宮城県",
    "prefecture_kana": "ミヤギケン",
    "prefecture_code": 4,
    "city": "気仙沼市",
    "city_kana": "ケセンヌマシ",
    "town": "唐桑町上小鯖",
    "town_kana": "カラクワチョウカミコサバ",
    "street": null,
    "office_name": null,
    "office_name_kana": null
  },
  "0563": {
    "zip_code": "9880563",
    "prefecture": "宮城県",
    "prefecture_kana": "ミヤギケン",
    "prefecture_code": 4,
    "city": "気仙沼市",
    "city_kana": "ケセンヌマシ",
    "town": "唐桑町中井",
    "town_kana": "カラクワチョウナカイ",
    "street": null,
    "office_name": null,
    "office_name_kana": null
  },
  "0571": {
    "zip_code": "9880571",
    "prefecture": "宮城県",
    "prefecture_kana": "ミヤギケン",
    "prefecture_code": 4,
    "city": "気仙沼市",
    "city_kana": "ケセンヌマシ",
    "town": "唐桑町鮪立",
    "town_kana": "カラクワチョウシビタチ",
    "street": null,
    "office_name": null,
    "office_name_kana": null
  },
  "0572": {
    "zip_code": "9880572",
    "prefecture": "宮城県",
    "prefecture_kana": "ミヤギケン",
    "prefecture_code": 4,
    "city": "気仙沼市",
    "city_kana": "ケセンヌマシ",
    "town": "唐桑町上鮪立",
    "town_kana": "カラクワチョウカミシビタチ",
    "street": null,
    "office_name": null,
    "office_name_kana": null
  },
  "0581": {
    "zip_code": "9880581",
    "prefecture": "宮城県",
    "prefecture_kana": "ミヤギケン",
    "prefecture_code": 4,
    "city": "気仙沼市",
    "city_kana": "ケセンヌマシ",
    "town": "唐桑町浦",
    "town_kana": "カラクワチョウウラ",
    "street": null,
    "office_name": null,
    "office_name_kana": null
  },
  "0582": {
    "zip_code": "9880582",
    "prefecture": "宮城県",
    "prefecture_kana": "ミヤギケン",
    "prefecture_code": 4,
    "city": "気仙沼市",
    "city_kana": "ケセンヌマシ",
    "town": "唐桑町東舞根",
    "town_kana": "カラクワチョウヒガシモウネ",
    "street": null,
    "office_name": null,
    "office_name_kana": null
  },
  "0601": {
    "zip_code": "9880601",
    "prefecture": "宮城県",
    "prefecture_kana": "ミヤギケン",
    "prefecture_code": 4,
    "city": "気仙沼市",
    "city_kana": "ケセンヌマシ",
    "town": "外浜",
    "town_kana": "ソトハマ",
    "street": null,
    "office_name": null,
    "office_name_kana": null
  },
  "0602": {
    "zip_code": "9880602",
    "prefecture": "宮城県",
    "prefecture_kana": "ミヤギケン",
    "prefecture_code": 4,
    "city": "気仙沼市",
    "city_kana": "ケセンヌマシ",
    "town": "大初平",
    "town_kana": "オオハツダイラ",
    "street": null,
    "office_name": null,
    "office_name_kana": null
  },
  "0603": {
    "zip_code": "9880603",
    "prefecture": "宮城県",
    "prefecture_kana": "ミヤギケン",
    "prefecture_code": 4,
    "city": "気仙沼市",
    "city_kana": "ケセンヌマシ",
    "town": "外畑",
    "town_kana": "ソトバタケ",
    "street": null,
    "office_name": null,
    "office_name_kana": null
  },
  "0604": {
    "zip_code": "9880604",
    "prefecture": "宮城県",
    "prefecture_kana": "ミヤギケン",
    "prefecture_code": 4,
    "city": "気仙沼市",
    "city_kana": "ケセンヌマシ",
    "town": "廻舘",
    "town_kana": "マワリダテ",
    "street": null,
    "office_name": null,
    "office_name_kana": null
  },
  "0605": {
    "zip_code": "9880605",
    "prefecture": "宮城県",
    "prefecture_kana": "ミヤギケン",
    "prefecture_code": 4,
    "city": "気仙沼市",
    "city_kana": "ケセンヌマシ",
    "town": "浦の浜",
    "town_kana": "ウラノハマ",
    "street": null,
    "office_name": null,
    "office_name_kana": null
  },
  "0606": {
    "zip_code": "9880606",
    "prefecture": "宮城県",
    "prefecture_kana": "ミヤギケン",
    "prefecture_code": 4,
    "city": "気仙沼市",
    "city_kana": "ケセンヌマシ",
    "town": "磯草",
    "town_kana": "イソクサ",
    "street": null,
    "office_name": null,
    "office_name_kana": null
  },
  "0607": {
    "zip_code": "9880607",
    "prefecture": "宮城県",
    "prefecture_kana": "ミヤギケン",
    "prefecture_code": 4,
    "city": "気仙沼市",
    "city_kana": "ケセンヌマシ",
    "town": "亀山",
    "town_kana": "カメヤマ",
    "street": null,
    "office_name": null,
    "office_name_kana": null
  },
  "0611": {
    "zip_code": "9880611",
    "prefecture": "宮城県",
    "prefecture_kana": "ミヤギケン",
    "prefecture_code": 4,
    "city": "気仙沼市",
    "city_kana": "ケセンヌマシ",
    "town": "田尻",
    "town_kana": "タジリ",
    "street": null,
    "office_name": null,
    "office_name_kana": null
  },
  "0612": {
    "zip_code": "9880612",
    "prefecture": "宮城県",
    "prefecture_kana": "ミヤギケン",
    "prefecture_code": 4,
    "city": "気仙沼市",
    "city_kana": "ケセンヌマシ",
    "town": "大向",
    "town_kana": "オオムカイ",
    "street": null,
    "office_name": null,
    "office_name_kana": null
  },
  "0613": {
    "zip_code": "9880613",
    "prefecture": "宮城県",
    "prefecture_kana": "ミヤギケン",
    "prefecture_code": 4,
    "city": "気仙沼市",
    "city_kana": "ケセンヌマシ",
    "town": "高井",
    "town_kana": "タカイ",
    "street": null,
    "office_name": null,
    "office_name_kana": null
  },
  "0621": {
    "zip_code": "9880621",
    "prefecture": "宮城県",
    "prefecture_kana": "ミヤギケン",
    "prefecture_code": 4,
    "city": "気仙沼市",
    "city_kana": "ケセンヌマシ",
    "town": "長崎",
    "town_kana": "ナガサキ",
    "street": null,
    "office_name": null,
    "office_name_kana": null
  },
  "0622": {
    "zip_code": "9880622",
    "prefecture": "宮城県",
    "prefecture_kana": "ミヤギケン",
    "prefecture_code": 4,
    "city": "気仙沼市",
    "city_kana": "ケセンヌマシ",
    "town": "中山",
    "town_kana": "ナカヤマ",
    "street": null,
    "office_name": null,
    "office_name_kana": null
  },
  "0623": {
    "zip_code": "9880623",
    "prefecture": "宮城県",
    "prefecture_kana": "ミヤギケン",
    "prefecture_code": 4,
    "city": "気仙沼市",
    "city_kana": "ケセンヌマシ",
    "town": "浅根",
    "town_kana": "アサネ",
    "street": null,
    "office_name": null,
    "office_name_kana": null
  },
  "0631": {
    "zip_code": "9880631",
    "prefecture": "宮城県",
    "prefecture_kana": "ミヤギケン",
    "prefecture_code": 4,
    "city": "気仙沼市",
    "city_kana": "ケセンヌマシ",
    "town": "三作浜",
    "town_kana": "ミサクハマ",
    "street": null,
    "office_name": null,
    "office_name_kana": null
  },
  "0632": {
    "zip_code": "9880632",
    "prefecture": "宮城県",
    "prefecture_kana": "ミヤギケン",
    "prefecture_code": 4,
    "city": "気仙沼市",
    "city_kana": "ケセンヌマシ",
    "town": "横沼",
    "town_kana": "ヨコヌマ",
    "street": null,
    "office_name": null,
    "office_name_kana": null
  },
  "0633": {
    "zip_code": "9880633",
    "prefecture": "宮城県",
    "prefecture_kana": "ミヤギケン",
    "prefecture_code": 4,
    "city": "気仙沼市",
    "city_kana": "ケセンヌマシ",
    "town": "駒形",
    "town_kana": "コマガタ",
    "street": null,
    "office_name": null,
    "office_name_kana": null
  },
  "0634": {
    "zip_code": "9880634",
    "prefecture": "宮城県",
    "prefecture_kana": "ミヤギケン",
    "prefecture_code": 4,
    "city": "気仙沼市",
    "city_kana": "ケセンヌマシ",
    "town": "要害",
    "town_kana": "ヨウガイ",
    "street": null,
    "office_name": null,
    "office_name_kana": null
  },
  "0801": {
    "zip_code": "9880801",
    "prefecture": "宮城県",
    "prefecture_kana": "ミヤギケン",
    "prefecture_code": 4,
    "city": "気仙沼市",
    "city_kana": "ケセンヌマシ",
    "town": "上東側根",
    "town_kana": "カミヒガシガワネ",
    "street": null,
    "office_name": null,
    "office_name_kana": null
  },
  "0802": [
    {
      "zip_code": "9880802",
      "prefecture": "宮城県",
      "prefecture_kana": "ミヤギケン",
      "prefecture_code": 4,
      "city": "気仙沼市",
      "city_kana": "ケセンヌマシ",
      "town": "高判形山",
      "town_kana": "タカハンギョウヤマ",
      "street": null,
      "office_name": null,
      "office_name_kana": null
    },
    {
      "zip_code": "9880802",
      "prefecture": "宮城県",
      "prefecture_kana": "ミヤギケン",
      "prefecture_code": 4,
      "city": "気仙沼市",
      "city_kana": "ケセンヌマシ",
      "town": "日ノ口",
      "town_kana": "ヒノクチ",
      "street": null,
      "office_name": null,
      "office_name_kana": null
    }
  ],
  "0803": {
    "zip_code": "9880803",
    "prefecture": "宮城県",
    "prefecture_kana": "ミヤギケン",
    "prefecture_code": 4,
    "city": "気仙沼市",
    "city_kana": "ケセンヌマシ",
    "town": "上東側",
    "town_kana": "カミヒガシガワ",
    "street": null,
    "office_name": null,
    "office_name_kana": null
  },
  "0804": {
    "zip_code": "9880804",
    "prefecture": "宮城県",
    "prefecture_kana": "ミヤギケン",
    "prefecture_code": 4,
    "city": "気仙沼市",
    "city_kana": "ケセンヌマシ",
    "town": "東中才",
    "town_kana": "ヒガシナカサイ",
    "street": null,
    "office_name": null,
    "office_name_kana": null
  },
  "0805": {
    "zip_code": "9880805",
    "prefecture": "宮城県",
    "prefecture_kana": "ミヤギケン",
    "prefecture_code": 4,
    "city": "気仙沼市",
    "city_kana": "ケセンヌマシ",
    "town": "西中才",
    "town_kana": "ニシナカサイ",
    "street": null,
    "office_name": null,
    "office_name_kana": null
  },
  "0806": {
    "zip_code": "9880806",
    "prefecture": "宮城県",
    "prefecture_kana": "ミヤギケン",
    "prefecture_code": 4,
    "city": "気仙沼市",
    "city_kana": "ケセンヌマシ",
    "town": "上西側",
    "town_kana": "カミニシガワ",
    "street": null,
    "office_name": null,
    "office_name_kana": null
  },
  "0807": {
    "zip_code": "9880807",
    "prefecture": "宮城県",
    "prefecture_kana": "ミヤギケン",
    "prefecture_code": 4,
    "city": "気仙沼市",
    "city_kana": "ケセンヌマシ",
    "town": "白石",
    "town_kana": "シライシ",
    "street": null,
    "office_name": null,
    "office_name_kana": null
  },
  "0811": {
    "zip_code": "9880811",
    "prefecture": "宮城県",
    "prefecture_kana": "ミヤギケン",
    "prefecture_code": 4,
    "city": "気仙沼市",
    "city_kana": "ケセンヌマシ",
    "town": "東八幡前",
    "town_kana": "ヒガシハチマンマエ",
    "street": null,
    "office_name": null,
    "office_name_kana": null
  },
  "0812": [
    {
      "zip_code": "9880812",
      "prefecture": "宮城県",
      "prefecture_kana": "ミヤギケン",
      "prefecture_code": 4,
      "city": "気仙沼市",
      "city_kana": "ケセンヌマシ",
      "town": "大岩井山",
      "town_kana": "オオイワイヤマ",
      "street": null,
      "office_name": null,
      "office_name_kana": null
    },
    {
      "zip_code": "9880812",
      "prefecture": "宮城県",
      "prefecture_kana": "ミヤギケン",
      "prefecture_code": 4,
      "city": "気仙沼市",
      "city_kana": "ケセンヌマシ",
      "town": "大峠山",
      "town_kana": "オオトウゲヤマ",
      "street": null,
      "office_name": null,
      "office_name_kana": null
    }
  ],
  "0813": {
    "zip_code": "9880813",
    "prefecture": "宮城県",
    "prefecture_kana": "ミヤギケン",
    "prefecture_code": 4,
    "city": "気仙沼市",
    "city_kana": "ケセンヌマシ",
    "town": "浪板",
    "town_kana": "ナミイタ",
    "street": null,
    "office_name": null,
    "office_name_kana": null
  },
  "0814": {
    "zip_code": "9880814",
    "prefecture": "宮城県",
    "prefecture_kana": "ミヤギケン",
    "prefecture_code": 4,
    "city": "気仙沼市",
    "city_kana": "ケセンヌマシ",
    "town": "大浦",
    "town_kana": "オオウラ",
    "street": null,
    "office_name": null,
    "office_name_kana": null
  },
  "0815": {
    "zip_code": "9880815",
    "prefecture": "宮城県",
    "prefecture_kana": "ミヤギケン",
    "prefecture_code": 4,
    "city": "気仙沼市",
    "city_kana": "ケセンヌマシ",
    "town": "小々汐",
    "town_kana": "コゴシオ",
    "street": null,
    "office_name": null,
    "office_name_kana": null
  },
  "0816": {
    "zip_code": "9880816",
    "prefecture": "宮城県",
    "prefecture_kana": "ミヤギケン",
    "prefecture_code": 4,
    "city": "気仙沼市",
    "city_kana": "ケセンヌマシ",
    "town": "二ノ浜",
    "town_kana": "ニノハマ",
    "street": null,
    "office_name": null,
    "office_name_kana": null
  },
  "0817": [
    {
      "zip_code": "9880817",
      "prefecture": "宮城県",
      "prefecture_kana": "ミヤギケン",
      "prefecture_code": 4,
      "city": "気仙沼市",
      "city_kana": "ケセンヌマシ",
      "town": "西八幡町",
      "town_kana": "ニシハチマンチョウ",
      "street": null,
      "office_name": null,
      "office_name_kana": null
    },
    {
      "zip_code": "9880817",
      "prefecture": "宮城県",
      "prefecture_kana": "ミヤギケン",
      "prefecture_code": 4,
      "city": "気仙沼市",
      "city_kana": "ケセンヌマシ",
      "town": "西八幡前",
      "town_kana": "ニシハチマンマエ",
      "street": null,
      "office_name": null,
      "office_name_kana": null
    }
  ],
  "0818": {
    "zip_code": "9880818",
    "prefecture": "宮城県",
    "prefecture_kana": "ミヤギケン",
    "prefecture_code": 4,
    "city": "気仙沼市",
    "city_kana": "ケセンヌマシ",
    "town": "三ノ浜",
    "town_kana": "サンノハマ",
    "street": null,
    "office_name": null,
    "office_name_kana": null
  },
  "0821": {
    "zip_code": "9880821",
    "prefecture": "宮城県",
    "prefecture_kana": "ミヤギケン",
    "prefecture_code": 4,
    "city": "気仙沼市",
    "city_kana": "ケセンヌマシ",
    "town": "大林",
    "town_kana": "オオバヤシ",
    "street": null,
    "office_name": null,
    "office_name_kana": null
  },
  "0822": {
    "zip_code": "9880822",
    "prefecture": "宮城県",
    "prefecture_kana": "ミヤギケン",
    "prefecture_code": 4,
    "city": "気仙沼市",
    "city_kana": "ケセンヌマシ",
    "town": "切通",
    "town_kana": "キリドオシ",
    "street": null,
    "office_name": null,
    "office_name_kana": null
  },
  "0823": {
    "zip_code": "9880823",
    "prefecture": "宮城県",
    "prefecture_kana": "ミヤギケン",
    "prefecture_code": 4,
    "city": "気仙沼市",
    "city_kana": "ケセンヌマシ",
    "town": "茗荷沢",
    "town_kana": "ミョウガサワ",
    "street": null,
    "office_name": null,
    "office_name_kana": null
  },
  "0824": {
    "zip_code": "9880824",
    "prefecture": "宮城県",
    "prefecture_kana": "ミヤギケン",
    "prefecture_code": 4,
    "city": "気仙沼市",
    "city_kana": "ケセンヌマシ",
    "town": "川原崎",
    "town_kana": "カワラザキ",
    "street": null,
    "office_name": null,
    "office_name_kana": null
  },
  "0825": {
    "zip_code": "9880825",
    "prefecture": "宮城県",
    "prefecture_kana": "ミヤギケン",
    "prefecture_code": 4,
    "city": "気仙沼市",
    "city_kana": "ケセンヌマシ",
    "town": "田尻沢",
    "town_kana": "タジリザワ",
    "street": null,
    "office_name": null,
    "office_name_kana": null
  },
  "0826": {
    "zip_code": "9880826",
    "prefecture": "宮城県",
    "prefecture_kana": "ミヤギケン",
    "prefecture_code": 4,
    "city": "気仙沼市",
    "city_kana": "ケセンヌマシ",
    "town": "百目木",
    "town_kana": "ドウメキ",
    "street": null,
    "office_name": null,
    "office_name_kana": null
  },
  "0827": {
    "zip_code": "9880827",
    "prefecture": "宮城県",
    "prefecture_kana": "ミヤギケン",
    "prefecture_code": 4,
    "city": "気仙沼市",
    "city_kana": "ケセンヌマシ",
    "town": "和野",
    "town_kana": "ワノ",
    "street": null,
    "office_name": null,
    "office_name_kana": null
  },
  "0828": {
    "zip_code": "9880828",
    "prefecture": "宮城県",
    "prefecture_kana": "ミヤギケン",
    "prefecture_code": 4,
    "city": "気仙沼市",
    "city_kana": "ケセンヌマシ",
    "town": "下新田",
    "town_kana": "シモシンデン",
    "street": null,
    "office_name": null,
    "office_name_kana": null
  },
  "0829": {
    "zip_code": "9880829",
    "prefecture": "宮城県",
    "prefecture_kana": "ミヤギケン",
    "prefecture_code": 4,
    "city": "気仙沼市",
    "city_kana": "ケセンヌマシ",
    "town": "新田",
    "town_kana": "シンデン",
    "street": null,
    "office_name": null,
    "office_name_kana": null
  },
  "0831": {
    "zip_code": "9880831",
    "prefecture": "宮城県",
    "prefecture_kana": "ミヤギケン",
    "prefecture_code": 4,
    "city": "気仙沼市",
    "city_kana": "ケセンヌマシ",
    "town": "金成沢",
    "town_kana": "カンナリサワ",
    "street": null,
    "office_name": null,
    "office_name_kana": null
  },
  "0832": {
    "zip_code": "9880832",
    "prefecture": "宮城県",
    "prefecture_kana": "ミヤギケン",
    "prefecture_code": 4,
    "city": "気仙沼市",
    "city_kana": "ケセンヌマシ",
    "town": "瘻槻",
    "town_kana": "コブツキ",
    "street": null,
    "office_name": null,
    "office_name_kana": null
  },
  "0833": {
    "zip_code": "9880833",
    "prefecture": "宮城県",
    "prefecture_kana": "ミヤギケン",
    "prefecture_code": 4,
    "city": "気仙沼市",
    "city_kana": "ケセンヌマシ",
    "town": "渡戸",
    "town_kana": "ワタド",
    "street": null,
    "office_name": null,
    "office_name_kana": null
  },
  "0834": {
    "zip_code": "9880834",
    "prefecture": "宮城県",
    "prefecture_kana": "ミヤギケン",
    "prefecture_code": 4,
    "city": "気仙沼市",
    "city_kana": "ケセンヌマシ",
    "town": "川上",
    "town_kana": "カワカミ",
    "street": null,
    "office_name": null,
    "office_name_kana": null
  },
  "0835": {
    "zip_code": "9880835",
    "prefecture": "宮城県",
    "prefecture_kana": "ミヤギケン",
    "prefecture_code": 4,
    "city": "気仙沼市",
    "city_kana": "ケセンヌマシ",
    "town": "長岩間",
    "town_kana": "ナガイワマ",
    "street": null,
    "office_name": null,
    "office_name_kana": null
  },
  "0836": {
    "zip_code": "9880836",
    "prefecture": "宮城県",
    "prefecture_kana": "ミヤギケン",
    "prefecture_code": 4,
    "city": "気仙沼市",
    "city_kana": "ケセンヌマシ",
    "town": "小芦",
    "town_kana": "コアシ",
    "street": null,
    "office_name": null,
    "office_name_kana": null
  },
  "0837": {
    "zip_code": "9880837",
    "prefecture": "宮城県",
    "prefecture_kana": "ミヤギケン",
    "prefecture_code": 4,
    "city": "気仙沼市",
    "city_kana": "ケセンヌマシ",
    "town": "鹿ノ倉",
    "town_kana": "カノクラ",
    "street": null,
    "office_name": null,
    "office_name_kana": null
  },
  "0841": {
    "zip_code": "9880841",
    "prefecture": "宮城県",
    "prefecture_kana": "ミヤギケン",
    "prefecture_code": 4,
    "city": "気仙沼市",
    "city_kana": "ケセンヌマシ",
    "town": "柳沢",
    "town_kana": "ヤナギザワ",
    "street": null,
    "office_name": null,
    "office_name_kana": null
  },
  "0842": {
    "zip_code": "9880842",
    "prefecture": "宮城県",
    "prefecture_kana": "ミヤギケン",
    "prefecture_code": 4,
    "city": "気仙沼市",
    "city_kana": "ケセンヌマシ",
    "town": "久保",
    "town_kana": "クボ",
    "street": null,
    "office_name": null,
    "office_name_kana": null
  },
  "0843": {
    "zip_code": "9880843",
    "prefecture": "宮城県",
    "prefecture_kana": "ミヤギケン",
    "prefecture_code": 4,
    "city": "気仙沼市",
    "city_kana": "ケセンヌマシ",
    "town": "落合",
    "town_kana": "オチアイ",
    "street": null,
    "office_name": null,
    "office_name_kana": null
  },
  "0844": {
    "zip_code": "9880844",
    "prefecture": "宮城県",
    "prefecture_kana": "ミヤギケン",
    "prefecture_code": 4,
    "city": "気仙沼市",
    "city_kana": "ケセンヌマシ",
    "town": "象ケ鼻",
    "town_kana": "ゾウガハナ",
    "street": null,
    "office_name": null,
    "office_name_kana": null
  },
  "0845": {
    "zip_code": "9880845",
    "prefecture": "宮城県",
    "prefecture_kana": "ミヤギケン",
    "prefecture_code": 4,
    "city": "気仙沼市",
    "city_kana": "ケセンヌマシ",
    "town": "前木",
    "town_kana": "マエギ",
    "street": null,
    "office_name": null,
    "office_name_kana": null
  },
  "0846": {
    "zip_code": "9880846",
    "prefecture": "宮城県",
    "prefecture_kana": "ミヤギケン",
    "prefecture_code": 4,
    "city": "気仙沼市",
    "city_kana": "ケセンヌマシ",
    "town": "川崎尻",
    "town_kana": "カワサキジリ",
    "street": null,
    "office_name": null,
    "office_name_kana": null
  },
  "0847": {
    "zip_code": "9880847",
    "prefecture": "宮城県",
    "prefecture_kana": "ミヤギケン",
    "prefecture_code": 4,
    "city": "気仙沼市",
    "city_kana": "ケセンヌマシ",
    "town": "阿霄月",
    "town_kana": "アヨイヅキ",
    "street": null,
    "office_name": null,
    "office_name_kana": null
  },
  "0851": {
    "zip_code": "9880851",
    "prefecture": "宮城県",
    "prefecture_kana": "ミヤギケン",
    "prefecture_code": 4,
    "city": "気仙沼市",
    "city_kana": "ケセンヌマシ",
    "town": "下八瀬",
    "town_kana": "シモヤツセ",
    "street": null,
    "office_name": null,
    "office_name_kana": null
  },
  "0852": {
    "zip_code": "9880852",
    "prefecture": "宮城県",
    "prefecture_kana": "ミヤギケン",
    "prefecture_code": 4,
    "city": "気仙沼市",
    "city_kana": "ケセンヌマシ",
    "town": "松川",
    "town_kana": "マツカワ",
    "street": null,
    "office_name": null,
    "office_name_kana": null
  },
  "0853": {
    "zip_code": "9880853",
    "prefecture": "宮城県",
    "prefecture_kana": "ミヤギケン",
    "prefecture_code": 4,
    "city": "気仙沼市",
    "city_kana": "ケセンヌマシ",
    "town": "松川前",
    "town_kana": "マツカワマエ",
    "street": null,
    "office_name": null,
    "office_name_kana": null
  },
  "0854": {
    "zip_code": "9880854",
    "prefecture": "宮城県",
    "prefecture_kana": "ミヤギケン",
    "prefecture_code": 4,
    "city": "気仙沼市",
    "city_kana": "ケセンヌマシ",
    "town": "磯沢",
    "town_kana": "イソザワ",
    "street": null,
    "office_name": null,
    "office_name_kana": null
  },
  "0855": {
    "zip_code": "9880855",
    "prefecture": "宮城県",
    "prefecture_kana": "ミヤギケン",
    "prefecture_code": 4,
    "city": "気仙沼市",
    "city_kana": "ケセンヌマシ",
    "town": "名木沢",
    "town_kana": "ナギサワ",
    "street": null,
    "office_name": null,
    "office_name_kana": null
  },
  "0861": {
    "zip_code": "9880861",
    "prefecture": "宮城県",
    "prefecture_kana": "ミヤギケン",
    "prefecture_code": 4,
    "city": "気仙沼市",
    "city_kana": "ケセンヌマシ",
    "town": "細尾",
    "town_kana": "ホソオ",
    "street": null,
    "office_name": null,
    "office_name_kana": null
  },
  "0862": {
    "zip_code": "9880862",
    "prefecture": "宮城県",
    "prefecture_kana": "ミヤギケン",
    "prefecture_code": 4,
    "city": "気仙沼市",
    "city_kana": "ケセンヌマシ",
    "town": "角地",
    "town_kana": "カクジ",
    "street": null,
    "office_name": null,
    "office_name_kana": null
  },
  "0863": [
    {
      "zip_code": "9880863",
      "prefecture": "宮城県",
      "prefecture_kana": "ミヤギケン",
      "prefecture_code": 4,
      "city": "気仙沼市",
      "city_kana": "ケセンヌマシ",
      "town": "黒沢",
      "town_kana": "クロサワ",
      "street": null,
      "office_name": null,
      "office_name_kana": null
    },
    {
      "zip_code": "9880863",
      "prefecture": "宮城県",
      "prefecture_kana": "ミヤギケン",
      "prefecture_code": 4,
      "city": "気仙沼市",
      "city_kana": "ケセンヌマシ",
      "town": "芳ノ口",
      "town_kana": "ヨシノクチ",
      "street": null,
      "office_name": null,
      "office_name_kana": null
    }
  ],
  "0864": {
    "zip_code": "9880864",
    "prefecture": "宮城県",
    "prefecture_kana": "ミヤギケン",
    "prefecture_code": 4,
    "city": "気仙沼市",
    "city_kana": "ケセンヌマシ",
    "town": "塚沢",
    "town_kana": "ツカザワ",
    "street": null,
    "office_name": null,
    "office_name_kana": null
  },
  "0865": [
    {
      "zip_code": "9880865",
      "prefecture": "宮城県",
      "prefecture_kana": "ミヤギケン",
      "prefecture_code": 4,
      "city": "気仙沼市",
      "city_kana": "ケセンヌマシ",
      "town": "新早稲谷",
      "town_kana": "シンワセヤ",
      "street": null,
      "office_name": null,
      "office_name_kana": null
    },
    {
      "zip_code": "9880865",
      "prefecture": "宮城県",
      "prefecture_kana": "ミヤギケン",
      "prefecture_code": 4,
      "city": "気仙沼市",
      "city_kana": "ケセンヌマシ",
      "town": "早稲谷",
      "town_kana": "ワセヤ",
      "street": null,
      "office_name": null,
      "office_name_kana": null
    }
  ],
  "0866": {
    "zip_code": "9880866",
    "prefecture": "宮城県",
    "prefecture_kana": "ミヤギケン",
    "prefecture_code": 4,
    "city": "気仙沼市",
    "city_kana": "ケセンヌマシ",
    "town": "内松川",
    "town_kana": "ウチマツカワ",
    "street": null,
    "office_name": null,
    "office_name_kana": null
  },
  "0867": [
    {
      "zip_code": "9880867",
      "prefecture": "宮城県",
      "prefecture_kana": "ミヤギケン",
      "prefecture_code": 4,
      "city": "気仙沼市",
      "city_kana": "ケセンヌマシ",
      "town": "新台",
      "town_kana": "シンダイ",
      "street": null,
      "office_name": null,
      "office_name_kana": null
    },
    {
      "zip_code": "9880867",
      "prefecture": "宮城県",
      "prefecture_kana": "ミヤギケン",
      "prefecture_code": 4,
      "city": "気仙沼市",
      "city_kana": "ケセンヌマシ",
      "town": "台",
      "town_kana": "ダイ",
      "street": null,
      "office_name": null,
      "office_name_kana": null
    }
  ],
  "0868": [
    {
      "zip_code": "9880868",
      "prefecture": "宮城県",
      "prefecture_kana": "ミヤギケン",
      "prefecture_code": 4,
      "city": "気仙沼市",
      "city_kana": "ケセンヌマシ",
      "town": "黒石山",
      "town_kana": "クロイシヤマ",
      "street": null,
      "office_name": null,
      "office_name_kana": null
    },
    {
      "zip_code": "9880868",
      "prefecture": "宮城県",
      "prefecture_kana": "ミヤギケン",
      "prefecture_code": 4,
      "city": "気仙沼市",
      "city_kana": "ケセンヌマシ",
      "town": "新関根",
      "town_kana": "シンセキネ",
      "street": null,
      "office_name": null,
      "office_name_kana": null
    },
    {
      "zip_code": "9880868",
      "prefecture": "宮城県",
      "prefecture_kana": "ミヤギケン",
      "prefecture_code": 4,
      "city": "気仙沼市",
      "city_kana": "ケセンヌマシ",
      "town": "関根",
      "town_kana": "セキネ",
      "street": null,
      "office_name": null,
      "office_name_kana": null
    }
  ],
  "0927": {
    "zip_code": "9880927",
    "prefecture": "宮城県",
    "prefecture_kana": "ミヤギケン",
    "prefecture_code": 4,
    "city": "気仙沼市",
    "city_kana": "ケセンヌマシ",
    "town": "唐桑町西舞根",
    "town_kana": "カラクワチョウニシモウネ",
    "street": null,
    "office_name": null,
    "office_name_kana": null
  },
  "8501": {
    "zip_code": "9888501",
    "prefecture": "宮城県",
    "prefecture_kana": "ミヤギケン",
    "prefecture_code": 4,
    "city": "気仙沼市",
    "city_kana": "ケセンヌマシ",
    "town": "八日町",
    "town_kana": "ヨウカマチ",
    "street": "１丁目１−１",
    "office_name": "気仙沼市役所",
    "office_name_kana": "ケセンヌマシヤクシヨ"
  },
  "8502": {
    "zip_code": "9888502",
    "prefecture": "宮城県",
    "prefecture_kana": "ミヤギケン",
    "prefecture_code": 4,
    "city": "気仙沼市",
    "city_kana": "ケセンヌマシ",
    "town": "魚市場前",
    "town_kana": "ウオイチバマエ",
    "street": "１番１号",
    "office_name": "気仙沼市教育委員会",
    "office_name_kana": "ケセンヌマシキヨウイクイインカイ"
  },
  "8555": {
    "zip_code": "9888555",
    "prefecture": "宮城県",
    "prefecture_kana": "ミヤギケン",
    "prefecture_code": 4,
    "city": "気仙沼市",
    "city_kana": "ケセンヌマシ",
    "town": "八日町",
    "town_kana": "ヨウカマチ",
    "street": "１−１−１",
    "office_name": "気仙沼市観光キャラクター「海の子ホヤぼーや」",
    "office_name_kana": "ケセンヌマシカンコウキヤラクタ-ウミノコホヤボ-ヤ"
  }
}