{
  "0000": {
    "zip_code": "9920000",
    "prefecture": "山形県",
    "prefecture_kana": "ヤマガタケン",
    "prefecture_code": "6",
    "city": "米沢市",
    "city_kana": "ヨネザワシ",
    "town": "",
    "town_kana": "",
    "street": null,
    "office_name": null,
    "office_name_kana": null
  },
  "0001": {
    "zip_code": "9920001",
    "prefecture": "山形県",
    "prefecture_kana": "ヤマガタケン",
    "prefecture_code": "6",
    "city": "米沢市",
    "city_kana": "ヨネザワシ",
    "town": "窪田町東江股",
    "town_kana": "クボタマチヒガシエマタ",
    "street": null,
    "office_name": null,
    "office_name_kana": null
  },
  "0002": {
    "zip_code": "9920002",
    "prefecture": "山形県",
    "prefecture_kana": "ヤマガタケン",
    "prefecture_code": "6",
    "city": "米沢市",
    "city_kana": "ヨネザワシ",
    "town": "窪田町矢野目",
    "town_kana": "クボタマチヤノメ",
    "street": null,
    "office_name": null,
    "office_name_kana": null
  },
  "0003": {
    "zip_code": "9920003",
    "prefecture": "山形県",
    "prefecture_kana": "ヤマガタケン",
    "prefecture_code": "6",
    "city": "米沢市",
    "city_kana": "ヨネザワシ",
    "town": "窪田町窪田",
    "town_kana": "クボタマチクボタ",
    "street": null,
    "office_name": null,
    "office_name_kana": null
  },
  "0004": {
    "zip_code": "9920004",
    "prefecture": "山形県",
    "prefecture_kana": "ヤマガタケン",
    "prefecture_code": "6",
    "city": "米沢市",
    "city_kana": "ヨネザワシ",
    "town": "窪田町小瀬",
    "town_kana": "クボタマチコゼ",
    "street": null,
    "office_name": null,
    "office_name_kana": null
  },
  "0005": {
    "zip_code": "9920005",
    "prefecture": "山形県",
    "prefecture_kana": "ヤマガタケン",
    "prefecture_code": "6",
    "city": "米沢市",
    "city_kana": "ヨネザワシ",
    "town": "窪田町藤泉",
    "town_kana": "クボタマチフジイズミ",
    "street": null,
    "office_name": null,
    "office_name_kana": null
  },
  "0011": {
    "zip_code": "9920011",
    "prefecture": "山形県",
    "prefecture_kana": "ヤマガタケン",
    "prefecture_code": "6",
    "city": "米沢市",
    "city_kana": "ヨネザワシ",
    "town": "中田町",
    "town_kana": "ナカダマチ",
    "street": null,
    "office_name": null,
    "office_name_kana": null
  },
  "0012": {
    "zip_code": "9920012",
    "prefecture": "山形県",
    "prefecture_kana": "ヤマガタケン",
    "prefecture_code": "6",
    "city": "米沢市",
    "city_kana": "ヨネザワシ",
    "town": "金池",
    "town_kana": "カナイケ",
    "street": null,
    "office_name": null,
    "office_name_kana": null
  },
  "0013": {
    "zip_code": "9920013",
    "prefecture": "山形県",
    "prefecture_kana": "ヤマガタケン",
    "prefecture_code": "6",
    "city": "米沢市",
    "city_kana": "ヨネザワシ",
    "town": "栄町",
    "town_kana": "サカエマチ",
    "street": null,
    "office_name": null,
    "office_name_kana": null
  },
  "0014": {
    "zip_code": "9920014",
    "prefecture": "山形県",
    "prefecture_kana": "ヤマガタケン",
    "prefecture_code": "6",
    "city": "米沢市",
    "city_kana": "ヨネザワシ",
    "town": "鍛冶町",
    "town_kana": "カジマチ",
    "street": null,
    "office_name": null,
    "office_name_kana": null
  },
  "0015": {
    "zip_code": "9920015",
    "prefecture": "山形県",
    "prefecture_kana": "ヤマガタケン",
    "prefecture_code": "6",
    "city": "米沢市",
    "city_kana": "ヨネザワシ",
    "town": "立町",
    "town_kana": "タツマチ",
    "street": null,
    "office_name": null,
    "office_name_kana": null
  },
  "0016": {
    "zip_code": "9920016",
    "prefecture": "山形県",
    "prefecture_kana": "ヤマガタケン",
    "prefecture_code": "6",
    "city": "米沢市",
    "city_kana": "ヨネザワシ",
    "town": "川井小路",
    "town_kana": "カワイコウジ",
    "street": null,
    "office_name": null,
    "office_name_kana": null
  },
  "0017": {
    "zip_code": "9920017",
    "prefecture": "山形県",
    "prefecture_kana": "ヤマガタケン",
    "prefecture_code": "6",
    "city": "米沢市",
    "city_kana": "ヨネザワシ",
    "town": "桜木町",
    "town_kana": "サクラギチョウ",
    "street": null,
    "office_name": null,
    "office_name_kana": null
  },
  "0021": {
    "zip_code": "9920021",
    "prefecture": "山形県",
    "prefecture_kana": "ヤマガタケン",
    "prefecture_code": "6",
    "city": "米沢市",
    "city_kana": "ヨネザワシ",
    "town": "花沢",
    "town_kana": "ハナザワ",
    "street": null,
    "office_name": null,
    "office_name_kana": null
  },
  "0022": {
    "zip_code": "9920022",
    "prefecture": "山形県",
    "prefecture_kana": "ヤマガタケン",
    "prefecture_code": "6",
    "city": "米沢市",
    "city_kana": "ヨネザワシ",
    "town": "花沢町",
    "town_kana": "ハナザワチョウ",
    "street": null,
    "office_name": null,
    "office_name_kana": null
  },
  "0023": {
    "zip_code": "9920023",
    "prefecture": "山形県",
    "prefecture_kana": "ヤマガタケン",
    "prefecture_code": "6",
    "city": "米沢市",
    "city_kana": "ヨネザワシ",
    "town": "下花沢",
    "town_kana": "シモハナザワ",
    "street": null,
    "office_name": null,
    "office_name_kana": null
  },
  "0024": {
    "zip_code": "9920024",
    "prefecture": "山形県",
    "prefecture_kana": "ヤマガタケン",
    "prefecture_code": "6",
    "city": "米沢市",
    "city_kana": "ヨネザワシ",
    "town": "東大通",
    "town_kana": "ヒガシオオドオリ",
    "street": null,
    "office_name": null,
    "office_name_kana": null
  },
  "0025": {
    "zip_code": "9920025",
    "prefecture": "山形県",
    "prefecture_kana": "ヤマガタケン",
    "prefecture_code": "6",
    "city": "米沢市",
    "city_kana": "ヨネザワシ",
    "town": "通町",
    "town_kana": "トオリマチ",
    "street": null,
    "office_name": null,
    "office_name_kana": null
  },
  "0026": {
    "zip_code": "9920026",
    "prefecture": "山形県",
    "prefecture_kana": "ヤマガタケン",
    "prefecture_code": "6",
    "city": "米沢市",
    "city_kana": "ヨネザワシ",
    "town": "東",
    "town_kana": "ヒガシ",
    "street": null,
    "office_name": null,
    "office_name_kana": null
  },
  "0027": {
    "zip_code": "9920027",
    "prefecture": "山形県",
    "prefecture_kana": "ヤマガタケン",
    "prefecture_code": "6",
    "city": "米沢市",
    "city_kana": "ヨネザワシ",
    "town": "駅前",
    "town_kana": "エキマエ",
    "street": null,
    "office_name": null,
    "office_name_kana": null
  },
  "0031": {
    "zip_code": "9920031",
    "prefecture": "山形県",
    "prefecture_kana": "ヤマガタケン",
    "prefecture_code": "6",
    "city": "米沢市",
    "city_kana": "ヨネザワシ",
    "town": "大町",
    "town_kana": "オオマチ",
    "street": null,
    "office_name": null,
    "office_name_kana": null
  },
  "0032": {
    "zip_code": "9920032",
    "prefecture": "山形県",
    "prefecture_kana": "ヤマガタケン",
    "prefecture_code": "6",
    "city": "米沢市",
    "city_kana": "ヨネザワシ",
    "town": "相生町",
    "town_kana": "アイオイチョウ",
    "street": null,
    "office_name": null,
    "office_name_kana": null
  },
  "0033": {
    "zip_code": "9920033",
    "prefecture": "山形県",
    "prefecture_kana": "ヤマガタケン",
    "prefecture_code": "6",
    "city": "米沢市",
    "city_kana": "ヨネザワシ",
    "town": "福田町",
    "town_kana": "フクダマチ",
    "street": null,
    "office_name": null,
    "office_name_kana": null
  },
  "0034": {
    "zip_code": "9920034",
    "prefecture": "山形県",
    "prefecture_kana": "ヤマガタケン",
    "prefecture_code": "6",
    "city": "米沢市",
    "city_kana": "ヨネザワシ",
    "town": "吾妻町",
    "town_kana": "アヅマチョウ",
    "street": null,
    "office_name": null,
    "office_name_kana": null
  },
  "0035": {
    "zip_code": "9920035",
    "prefecture": "山形県",
    "prefecture_kana": "ヤマガタケン",
    "prefecture_code": "6",
    "city": "米沢市",
    "city_kana": "ヨネザワシ",
    "town": "太田町",
    "town_kana": "オオタマチ",
    "street": null,
    "office_name": null,
    "office_name_kana": null
  },
  "0036": {
    "zip_code": "9920036",
    "prefecture": "山形県",
    "prefecture_kana": "ヤマガタケン",
    "prefecture_code": "6",
    "city": "米沢市",
    "city_kana": "ヨネザワシ",
    "town": "福田",
    "town_kana": "フクダ",
    "street": null,
    "office_name": null,
    "office_name_kana": null
  },
  "0037": {
    "zip_code": "9920037",
    "prefecture": "山形県",
    "prefecture_kana": "ヤマガタケン",
    "prefecture_code": "6",
    "city": "米沢市",
    "city_kana": "ヨネザワシ",
    "town": "本町",
    "town_kana": "ホンチョウ",
    "street": null,
    "office_name": null,
    "office_name_kana": null
  },
  "0038": {
    "zip_code": "9920038",
    "prefecture": "山形県",
    "prefecture_kana": "ヤマガタケン",
    "prefecture_code": "6",
    "city": "米沢市",
    "city_kana": "ヨネザワシ",
    "town": "城南",
    "town_kana": "ジョウナン",
    "street": null,
    "office_name": null,
    "office_name_kana": null
  },
  "0039": {
    "zip_code": "9920039",
    "prefecture": "山形県",
    "prefecture_kana": "ヤマガタケン",
    "prefecture_code": "6",
    "city": "米沢市",
    "city_kana": "ヨネザワシ",
    "town": "門東町",
    "town_kana": "モントウマチ",
    "street": null,
    "office_name": null,
    "office_name_kana": null
  },
  "0041": {
    "zip_code": "9920041",
    "prefecture": "山形県",
    "prefecture_kana": "ヤマガタケン",
    "prefecture_code": "6",
    "city": "米沢市",
    "city_kana": "ヨネザワシ",
    "town": "塩井町宮井",
    "town_kana": "シオイマチミヤイ",
    "street": null,
    "office_name": null,
    "office_name_kana": null
  },
  "0042": {
    "zip_code": "9920042",
    "prefecture": "山形県",
    "prefecture_kana": "ヤマガタケン",
    "prefecture_code": "6",
    "city": "米沢市",
    "city_kana": "ヨネザワシ",
    "town": "塩井町塩野",
    "town_kana": "シオイマチシオノ",
    "street": null,
    "office_name": null,
    "office_name_kana": null
  },
  "0043": {
    "zip_code": "9920043",
    "prefecture": "山形県",
    "prefecture_kana": "ヤマガタケン",
    "prefecture_code": "6",
    "city": "米沢市",
    "city_kana": "ヨネザワシ",
    "town": "塩野",
    "town_kana": "シオノ",
    "street": null,
    "office_name": null,
    "office_name_kana": null
  },
  "0044": {
    "zip_code": "9920044",
    "prefecture": "山形県",
    "prefecture_kana": "ヤマガタケン",
    "prefecture_code": "6",
    "city": "米沢市",
    "city_kana": "ヨネザワシ",
    "town": "春日",
    "town_kana": "カスガ",
    "street": null,
    "office_name": null,
    "office_name_kana": null
  },
  "0045": {
    "zip_code": "9920045",
    "prefecture": "山形県",
    "prefecture_kana": "ヤマガタケン",
    "prefecture_code": "6",
    "city": "米沢市",
    "city_kana": "ヨネザワシ",
    "town": "中央",
    "town_kana": "チュウオウ",
    "street": null,
    "office_name": null,
    "office_name_kana": null
  },
  "0046": {
    "zip_code": "9920046",
    "prefecture": "山形県",
    "prefecture_kana": "ヤマガタケン",
    "prefecture_code": "6",
    "city": "米沢市",
    "city_kana": "ヨネザワシ",
    "town": "信夫町",
    "town_kana": "シノブマチ",
    "street": null,
    "office_name": null,
    "office_name_kana": null
  },
  "0047": {
    "zip_code": "9920047",
    "prefecture": "山形県",
    "prefecture_kana": "ヤマガタケン",
    "prefecture_code": "6",
    "city": "米沢市",
    "city_kana": "ヨネザワシ",
    "town": "徳町",
    "town_kana": "トクマチ",
    "street": null,
    "office_name": null,
    "office_name_kana": null
  },
  "0051": {
    "zip_code": "9920051",
    "prefecture": "山形県",
    "prefecture_kana": "ヤマガタケン",
    "prefecture_code": "6",
    "city": "米沢市",
    "city_kana": "ヨネザワシ",
    "town": "城北",
    "town_kana": "ジョウホク",
    "street": null,
    "office_name": null,
    "office_name_kana": null
  },
  "0052": {
    "zip_code": "9920052",
    "prefecture": "山形県",
    "prefecture_kana": "ヤマガタケン",
    "prefecture_code": "6",
    "city": "米沢市",
    "city_kana": "ヨネザワシ",
    "town": "丸の内",
    "town_kana": "マルノウチ",
    "street": null,
    "office_name": null,
    "office_name_kana": null
  },
  "0053": {
    "zip_code": "9920053",
    "prefecture": "山形県",
    "prefecture_kana": "ヤマガタケン",
    "prefecture_code": "6",
    "city": "米沢市",
    "city_kana": "ヨネザワシ",
    "town": "松が岬",
    "town_kana": "マツガサキ",
    "street": null,
    "office_name": null,
    "office_name_kana": null
  },
  "0054": {
    "zip_code": "9920054",
    "prefecture": "山形県",
    "prefecture_kana": "ヤマガタケン",
    "prefecture_code": "6",
    "city": "米沢市",
    "city_kana": "ヨネザワシ",
    "town": "城西",
    "town_kana": "ジョウセイ",
    "street": null,
    "office_name": null,
    "office_name_kana": null
  },
  "0055": {
    "zip_code": "9920055",
    "prefecture": "山形県",
    "prefecture_kana": "ヤマガタケン",
    "prefecture_code": "6",
    "city": "米沢市",
    "city_kana": "ヨネザワシ",
    "town": "御廟",
    "town_kana": "ゴビョウ",
    "street": null,
    "office_name": null,
    "office_name_kana": null
  },
  "0056": {
    "zip_code": "9920056",
    "prefecture": "山形県",
    "prefecture_kana": "ヤマガタケン",
    "prefecture_code": "6",
    "city": "米沢市",
    "city_kana": "ヨネザワシ",
    "town": "直江町",
    "town_kana": "ナオエチョウ",
    "street": null,
    "office_name": null,
    "office_name_kana": null
  },
  "0057": {
    "zip_code": "9920057",
    "prefecture": "山形県",
    "prefecture_kana": "ヤマガタケン",
    "prefecture_code": "6",
    "city": "米沢市",
    "city_kana": "ヨネザワシ",
    "town": "成島町",
    "town_kana": "ナルシママチ",
    "street": null,
    "office_name": null,
    "office_name_kana": null
  },
  "0058": {
    "zip_code": "9920058",
    "prefecture": "山形県",
    "prefecture_kana": "ヤマガタケン",
    "prefecture_code": "6",
    "city": "米沢市",
    "city_kana": "ヨネザワシ",
    "town": "木場町",
    "town_kana": "キバマチ",
    "street": null,
    "office_name": null,
    "office_name_kana": null
  },
  "0059": {
    "zip_code": "9920059",
    "prefecture": "山形県",
    "prefecture_kana": "ヤマガタケン",
    "prefecture_code": "6",
    "city": "米沢市",
    "city_kana": "ヨネザワシ",
    "town": "西大通",
    "town_kana": "ニシオオドオリ",
    "street": null,
    "office_name": null,
    "office_name_kana": null
  },
  "0061": {
    "zip_code": "9920061",
    "prefecture": "山形県",
    "prefecture_kana": "ヤマガタケン",
    "prefecture_code": "6",
    "city": "米沢市",
    "city_kana": "ヨネザワシ",
    "town": "堀川町",
    "town_kana": "ホリカワチョウ",
    "street": null,
    "office_name": null,
    "office_name_kana": null
  },
  "0062": {
    "zip_code": "9920062",
    "prefecture": "山形県",
    "prefecture_kana": "ヤマガタケン",
    "prefecture_code": "6",
    "city": "米沢市",
    "city_kana": "ヨネザワシ",
    "town": "林泉寺",
    "town_kana": "リンセンジ",
    "street": null,
    "office_name": null,
    "office_name_kana": null
  },
  "0063": {
    "zip_code": "9920063",
    "prefecture": "山形県",
    "prefecture_kana": "ヤマガタケン",
    "prefecture_code": "6",
    "city": "米沢市",
    "city_kana": "ヨネザワシ",
    "town": "泉町",
    "town_kana": "イズミマチ",
    "street": null,
    "office_name": null,
    "office_name_kana": null
  },
  "0064": {
    "zip_code": "9920064",
    "prefecture": "山形県",
    "prefecture_kana": "ヤマガタケン",
    "prefecture_code": "6",
    "city": "米沢市",
    "city_kana": "ヨネザワシ",
    "town": "杉の目町",
    "town_kana": "スギノメマチ",
    "street": null,
    "office_name": null,
    "office_name_kana": null
  },
  "0065": {
    "zip_code": "9920065",
    "prefecture": "山形県",
    "prefecture_kana": "ヤマガタケン",
    "prefecture_code": "6",
    "city": "米沢市",
    "city_kana": "ヨネザワシ",
    "town": "古志田町",
    "town_kana": "フルシダマチ",
    "street": null,
    "office_name": null,
    "office_name_kana": null
  },
  "0066": {
    "zip_code": "9920066",
    "prefecture": "山形県",
    "prefecture_kana": "ヤマガタケン",
    "prefecture_code": "6",
    "city": "米沢市",
    "city_kana": "ヨネザワシ",
    "town": "遠山町",
    "town_kana": "トオヤママチ",
    "street": null,
    "office_name": null,
    "office_name_kana": null
  },
  "0071": {
    "zip_code": "9920071",
    "prefecture": "山形県",
    "prefecture_kana": "ヤマガタケン",
    "prefecture_code": "6",
    "city": "米沢市",
    "city_kana": "ヨネザワシ",
    "town": "舘山矢子町",
    "town_kana": "タテヤマヤゴマチ",
    "street": null,
    "office_name": null,
    "office_name_kana": null
  },
  "0072": {
    "zip_code": "9920072",
    "prefecture": "山形県",
    "prefecture_kana": "ヤマガタケン",
    "prefecture_code": "6",
    "city": "米沢市",
    "city_kana": "ヨネザワシ",
    "town": "舘山",
    "town_kana": "タテヤマ",
    "street": null,
    "office_name": null,
    "office_name_kana": null
  },
  "0073": {
    "zip_code": "9920073",
    "prefecture": "山形県",
    "prefecture_kana": "ヤマガタケン",
    "prefecture_code": "6",
    "city": "米沢市",
    "city_kana": "ヨネザワシ",
    "town": "吹屋敷町",
    "town_kana": "ブキヤシキマチ",
    "street": null,
    "office_name": null,
    "office_name_kana": null
  },
  "0074": {
    "zip_code": "9920074",
    "prefecture": "山形県",
    "prefecture_kana": "ヤマガタケン",
    "prefecture_code": "6",
    "city": "米沢市",
    "city_kana": "ヨネザワシ",
    "town": "矢来",
    "town_kana": "ヤライ",
    "street": null,
    "office_name": null,
    "office_name_kana": null
  },
  "0075": {
    "zip_code": "9920075",
    "prefecture": "山形県",
    "prefecture_kana": "ヤマガタケン",
    "prefecture_code": "6",
    "city": "米沢市",
    "city_kana": "ヨネザワシ",
    "town": "赤芝町",
    "town_kana": "アカシバマチ",
    "street": null,
    "office_name": null,
    "office_name_kana": null
  },
  "0076": {
    "zip_code": "9920076",
    "prefecture": "山形県",
    "prefecture_kana": "ヤマガタケン",
    "prefecture_code": "6",
    "city": "米沢市",
    "city_kana": "ヨネザワシ",
    "town": "小野川町",
    "town_kana": "オノガワマチ",
    "street": null,
    "office_name": null,
    "office_name_kana": null
  },
  "0077": {
    "zip_code": "9920077",
    "prefecture": "山形県",
    "prefecture_kana": "ヤマガタケン",
    "prefecture_code": "6",
    "city": "米沢市",
    "city_kana": "ヨネザワシ",
    "town": "簗沢",
    "town_kana": "ヤナザワ",
    "street": null,
    "office_name": null,
    "office_name_kana": null
  },
  "0081": {
    "zip_code": "9920081",
    "prefecture": "山形県",
    "prefecture_kana": "ヤマガタケン",
    "prefecture_code": "6",
    "city": "米沢市",
    "city_kana": "ヨネザワシ",
    "town": "下小菅",
    "town_kana": "シモコスゲ",
    "street": null,
    "office_name": null,
    "office_name_kana": null
  },
  "0082": {
    "zip_code": "9920082",
    "prefecture": "山形県",
    "prefecture_kana": "ヤマガタケン",
    "prefecture_code": "6",
    "city": "米沢市",
    "city_kana": "ヨネザワシ",
    "town": "広幡町小山田",
    "town_kana": "ヒロハタマチオヤマダ",
    "street": null,
    "office_name": null,
    "office_name_kana": null
  },
  "0083": {
    "zip_code": "9920083",
    "prefecture": "山形県",
    "prefecture_kana": "ヤマガタケン",
    "prefecture_code": "6",
    "city": "米沢市",
    "city_kana": "ヨネザワシ",
    "town": "広幡町成島",
    "town_kana": "ヒロハタマチナルシマ",
    "street": null,
    "office_name": null,
    "office_name_kana": null
  },
  "0084": {
    "zip_code": "9920084",
    "prefecture": "山形県",
    "prefecture_kana": "ヤマガタケン",
    "prefecture_code": "6",
    "city": "米沢市",
    "city_kana": "ヨネザワシ",
    "town": "広幡町上小菅",
    "town_kana": "ヒロハタマチカミコスゲ",
    "street": null,
    "office_name": null,
    "office_name_kana": null
  },
  "0085": {
    "zip_code": "9920085",
    "prefecture": "山形県",
    "prefecture_kana": "ヤマガタケン",
    "prefecture_code": "6",
    "city": "米沢市",
    "city_kana": "ヨネザワシ",
    "town": "広幡町沖仲",
    "town_kana": "ヒロハタマチオキナカ",
    "street": null,
    "office_name": null,
    "office_name_kana": null
  },
  "0086": {
    "zip_code": "9920086",
    "prefecture": "山形県",
    "prefecture_kana": "ヤマガタケン",
    "prefecture_code": "6",
    "city": "米沢市",
    "city_kana": "ヨネザワシ",
    "town": "広幡町京塚",
    "town_kana": "ヒロハタマチキョウヅカ",
    "street": null,
    "office_name": null,
    "office_name_kana": null
  },
  "0087": {
    "zip_code": "9920087",
    "prefecture": "山形県",
    "prefecture_kana": "ヤマガタケン",
    "prefecture_code": "6",
    "city": "米沢市",
    "city_kana": "ヨネザワシ",
    "town": "広幡町大沢",
    "town_kana": "ヒロハタマチオオサワ",
    "street": null,
    "office_name": null,
    "office_name_kana": null
  },
  "0091": {
    "zip_code": "9920091",
    "prefecture": "山形県",
    "prefecture_kana": "ヤマガタケン",
    "prefecture_code": "6",
    "city": "米沢市",
    "city_kana": "ヨネザワシ",
    "town": "六郷町桐原",
    "town_kana": "ロクゴウマチキリバラ",
    "street": null,
    "office_name": null,
    "office_name_kana": null
  },
  "0092": {
    "zip_code": "9920092",
    "prefecture": "山形県",
    "prefecture_kana": "ヤマガタケン",
    "prefecture_code": "6",
    "city": "米沢市",
    "city_kana": "ヨネザワシ",
    "town": "六郷町西江股",
    "town_kana": "ロクゴウマチニシエマタ",
    "street": null,
    "office_name": null,
    "office_name_kana": null
  },
  "0093": {
    "zip_code": "9920093",
    "prefecture": "山形県",
    "prefecture_kana": "ヤマガタケン",
    "prefecture_code": "6",
    "city": "米沢市",
    "city_kana": "ヨネザワシ",
    "town": "六郷町西藤泉",
    "town_kana": "ロクゴウマチニシフジイズミ",
    "street": null,
    "office_name": null,
    "office_name_kana": null
  },
  "0094": {
    "zip_code": "9920094",
    "prefecture": "山形県",
    "prefecture_kana": "ヤマガタケン",
    "prefecture_code": "6",
    "city": "米沢市",
    "city_kana": "ヨネザワシ",
    "town": "六郷町轟",
    "town_kana": "ロクゴウマチトドロキ",
    "street": null,
    "office_name": null,
    "office_name_kana": null
  },
  "0095": {
    "zip_code": "9920095",
    "prefecture": "山形県",
    "prefecture_kana": "ヤマガタケン",
    "prefecture_code": "6",
    "city": "米沢市",
    "city_kana": "ヨネザワシ",
    "town": "六郷町一漆",
    "town_kana": "ロクゴウマチヒトツウルシ",
    "street": null,
    "office_name": null,
    "office_name_kana": null
  },
  "0096": {
    "zip_code": "9920096",
    "prefecture": "山形県",
    "prefecture_kana": "ヤマガタケン",
    "prefecture_code": "6",
    "city": "米沢市",
    "city_kana": "ヨネザワシ",
    "town": "六郷町長橋",
    "town_kana": "ロクゴウマチナガハシ",
    "street": null,
    "office_name": null,
    "office_name_kana": null
  },
  "0111": {
    "zip_code": "9920111",
    "prefecture": "山形県",
    "prefecture_kana": "ヤマガタケン",
    "prefecture_code": "6",
    "city": "米沢市",
    "city_kana": "ヨネザワシ",
    "town": "下新田",
    "town_kana": "シモニイダ",
    "street": null,
    "office_name": null,
    "office_name_kana": null
  },
  "0112": {
    "zip_code": "9920112",
    "prefecture": "山形県",
    "prefecture_kana": "ヤマガタケン",
    "prefecture_code": "6",
    "city": "米沢市",
    "city_kana": "ヨネザワシ",
    "town": "浅川",
    "town_kana": "アサガワ",
    "street": null,
    "office_name": null,
    "office_name_kana": null
  },
  "0113": {
    "zip_code": "9920113",
    "prefecture": "山形県",
    "prefecture_kana": "ヤマガタケン",
    "prefecture_code": "6",
    "city": "米沢市",
    "city_kana": "ヨネザワシ",
    "town": "長手",
    "town_kana": "ナガテ",
    "street": null,
    "office_name": null,
    "office_name_kana": null
  },
  "0114": {
    "zip_code": "9920114",
    "prefecture": "山形県",
    "prefecture_kana": "ヤマガタケン",
    "prefecture_code": "6",
    "city": "米沢市",
    "city_kana": "ヨネザワシ",
    "town": "木和田",
    "town_kana": "キワダ",
    "street": null,
    "office_name": null,
    "office_name_kana": null
  },
  "0115": {
    "zip_code": "9920115",
    "prefecture": "山形県",
    "prefecture_kana": "ヤマガタケン",
    "prefecture_code": "6",
    "city": "米沢市",
    "city_kana": "ヨネザワシ",
    "town": "梓川",
    "town_kana": "アズサガワ",
    "street": null,
    "office_name": null,
    "office_name_kana": null
  },
  "0116": {
    "zip_code": "9920116",
    "prefecture": "山形県",
    "prefecture_kana": "ヤマガタケン",
    "prefecture_code": "6",
    "city": "米沢市",
    "city_kana": "ヨネザワシ",
    "town": "竹井",
    "town_kana": "タケイ",
    "street": null,
    "office_name": null,
    "office_name_kana": null
  },
  "0117": {
    "zip_code": "9920117",
    "prefecture": "山形県",
    "prefecture_kana": "ヤマガタケン",
    "prefecture_code": "6",
    "city": "米沢市",
    "city_kana": "ヨネザワシ",
    "town": "川井",
    "town_kana": "カワイ",
    "street": null,
    "office_name": null,
    "office_name_kana": null
  },
  "0118": {
    "zip_code": "9920118",
    "prefecture": "山形県",
    "prefecture_kana": "ヤマガタケン",
    "prefecture_code": "6",
    "city": "米沢市",
    "city_kana": "ヨネザワシ",
    "town": "上新田",
    "town_kana": "カミニイダ",
    "street": null,
    "office_name": null,
    "office_name_kana": null
  },
  "0119": {
    "zip_code": "9920119",
    "prefecture": "山形県",
    "prefecture_kana": "ヤマガタケン",
    "prefecture_code": "6",
    "city": "米沢市",
    "city_kana": "ヨネザワシ",
    "town": "アルカディア",
    "town_kana": "アルカディア",
    "street": null,
    "office_name": null,
    "office_name_kana": null
  },
  "0261": {
    "zip_code": "9920261",
    "prefecture": "山形県",
    "prefecture_kana": "ヤマガタケン",
    "prefecture_code": "6",
    "city": "東置賜郡高畠町",
    "city_kana": "ヒガシオキタマグンタカハタマチ",
    "town": "上和田",
    "town_kana": "カミワダ",
    "street": null,
    "office_name": null,
    "office_name_kana": null
  },
  "0262": {
    "zip_code": "9920262",
    "prefecture": "山形県",
    "prefecture_kana": "ヤマガタケン",
    "prefecture_code": "6",
    "city": "東置賜郡高畠町",
    "city_kana": "ヒガシオキタマグンタカハタマチ",
    "town": "元和田",
    "town_kana": "モトワダ",
    "street": null,
    "office_name": null,
    "office_name_kana": null
  },
  "0263": {
    "zip_code": "9920263",
    "prefecture": "山形県",
    "prefecture_kana": "ヤマガタケン",
    "prefecture_code": "6",
    "city": "東置賜郡高畠町",
    "city_kana": "ヒガシオキタマグンタカハタマチ",
    "town": "下和田",
    "town_kana": "シモワダ",
    "street": null,
    "office_name": null,
    "office_name_kana": null
  },
  "0264": {
    "zip_code": "9920264",
    "prefecture": "山形県",
    "prefecture_kana": "ヤマガタケン",
    "prefecture_code": "6",
    "city": "東置賜郡高畠町",
    "city_kana": "ヒガシオキタマグンタカハタマチ",
    "town": "馬頭",
    "town_kana": "バトウ",
    "street": null,
    "office_name": null,
    "office_name_kana": null
  },
  "0265": {
    "zip_code": "9920265",
    "prefecture": "山形県",
    "prefecture_kana": "ヤマガタケン",
    "prefecture_code": "6",
    "city": "東置賜郡高畠町",
    "city_kana": "ヒガシオキタマグンタカハタマチ",
    "town": "佐沢",
    "town_kana": "サザワ",
    "street": null,
    "office_name": null,
    "office_name_kana": null
  },
  "0300": {
    "zip_code": "9920300",
    "prefecture": "山形県",
    "prefecture_kana": "ヤマガタケン",
    "prefecture_code": "6",
    "city": "東置賜郡高畠町",
    "city_kana": "ヒガシオキタマグンタカハタマチ",
    "town": "",
    "town_kana": "",
    "street": null,
    "office_name": null,
    "office_name_kana": null
  },
  "0301": {
    "zip_code": "9920301",
    "prefecture": "山形県",
    "prefecture_kana": "ヤマガタケン",
    "prefecture_code": "6",
    "city": "東置賜郡高畠町",
    "city_kana": "ヒガシオキタマグンタカハタマチ",
    "town": "二井宿",
    "town_kana": "ニイジュク",
    "street": null,
    "office_name": null,
    "office_name_kana": null
  },
  "0302": {
    "zip_code": "9920302",
    "prefecture": "山形県",
    "prefecture_kana": "ヤマガタケン",
    "prefecture_code": "6",
    "city": "東置賜郡高畠町",
    "city_kana": "ヒガシオキタマグンタカハタマチ",
    "town": "安久津",
    "town_kana": "アクツ",
    "street": null,
    "office_name": null,
    "office_name_kana": null
  },
  "0311": {
    "zip_code": "9920311",
    "prefecture": "山形県",
    "prefecture_kana": "ヤマガタケン",
    "prefecture_code": "6",
    "city": "東置賜郡高畠町",
    "city_kana": "ヒガシオキタマグンタカハタマチ",
    "town": "金原",
    "town_kana": "カナバラ",
    "street": null,
    "office_name": null,
    "office_name_kana": null
  },
  "0312": {
    "zip_code": "9920312",
    "prefecture": "山形県",
    "prefecture_kana": "ヤマガタケン",
    "prefecture_code": "6",
    "city": "東置賜郡高畠町",
    "city_kana": "ヒガシオキタマグンタカハタマチ",
    "town": "小郡山",
    "town_kana": "コゴオリヤマ",
    "street": null,
    "office_name": null,
    "office_name_kana": null
  },
  "0313": {
    "zip_code": "9920313",
    "prefecture": "山形県",
    "prefecture_kana": "ヤマガタケン",
    "prefecture_code": "6",
    "city": "東置賜郡高畠町",
    "city_kana": "ヒガシオキタマグンタカハタマチ",
    "town": "高安",
    "town_kana": "コウヤス",
    "street": null,
    "office_name": null,
    "office_name_kana": null
  },
  "0314": {
    "zip_code": "9920314",
    "prefecture": "山形県",
    "prefecture_kana": "ヤマガタケン",
    "prefecture_code": "6",
    "city": "東置賜郡高畠町",
    "city_kana": "ヒガシオキタマグンタカハタマチ",
    "town": "塩森",
    "town_kana": "シオノモリ",
    "street": null,
    "office_name": null,
    "office_name_kana": null
  },
  "0315": {
    "zip_code": "9920315",
    "prefecture": "山形県",
    "prefecture_kana": "ヤマガタケン",
    "prefecture_code": "6",
    "city": "東置賜郡高畠町",
    "city_kana": "ヒガシオキタマグンタカハタマチ",
    "town": "泉岡",
    "town_kana": "イズミオカ",
    "street": null,
    "office_name": null,
    "office_name_kana": null
  },
  "0321": {
    "zip_code": "9920321",
    "prefecture": "山形県",
    "prefecture_kana": "ヤマガタケン",
    "prefecture_code": "6",
    "city": "東置賜郡高畠町",
    "city_kana": "ヒガシオキタマグンタカハタマチ",
    "town": "亀岡",
    "town_kana": "カメオカ",
    "street": null,
    "office_name": null,
    "office_name_kana": null
  },
  "0322": {
    "zip_code": "9920322",
    "prefecture": "山形県",
    "prefecture_kana": "ヤマガタケン",
    "prefecture_code": "6",
    "city": "東置賜郡高畠町",
    "city_kana": "ヒガシオキタマグンタカハタマチ",
    "town": "中島",
    "town_kana": "ナカジマ",
    "street": null,
    "office_name": null,
    "office_name_kana": null
  },
  "0323": {
    "zip_code": "9920323",
    "prefecture": "山形県",
    "prefecture_kana": "ヤマガタケン",
    "prefecture_code": "6",
    "city": "東置賜郡高畠町",
    "city_kana": "ヒガシオキタマグンタカハタマチ",
    "town": "露藤",
    "town_kana": "ツユフジ",
    "street": null,
    "office_name": null,
    "office_name_kana": null
  },
  "0324": {
    "zip_code": "9920324",
    "prefecture": "山形県",
    "prefecture_kana": "ヤマガタケン",
    "prefecture_code": "6",
    "city": "東置賜郡高畠町",
    "city_kana": "ヒガシオキタマグンタカハタマチ",
    "town": "入生田",
    "town_kana": "イリュウダ",
    "street": null,
    "office_name": null,
    "office_name_kana": null
  },
  "0325": {
    "zip_code": "9920325",
    "prefecture": "山形県",
    "prefecture_kana": "ヤマガタケン",
    "prefecture_code": "6",
    "city": "東置賜郡高畠町",
    "city_kana": "ヒガシオキタマグンタカハタマチ",
    "town": "船橋",
    "town_kana": "フナバシ",
    "street": null,
    "office_name": null,
    "office_name_kana": null
  },
  "0331": {
    "zip_code": "9920331",
    "prefecture": "山形県",
    "prefecture_kana": "ヤマガタケン",
    "prefecture_code": "6",
    "city": "東置賜郡高畠町",
    "city_kana": "ヒガシオキタマグンタカハタマチ",
    "town": "三条目",
    "town_kana": "サンジョノメ",
    "street": null,
    "office_name": null,
    "office_name_kana": null
  },
  "0332": {
    "zip_code": "9920332",
    "prefecture": "山形県",
    "prefecture_kana": "ヤマガタケン",
    "prefecture_code": "6",
    "city": "東置賜郡高畠町",
    "city_kana": "ヒガシオキタマグンタカハタマチ",
    "town": "相森",
    "town_kana": "アイノモリ",
    "street": null,
    "office_name": null,
    "office_name_kana": null
  },
  "0333": {
    "zip_code": "9920333",
    "prefecture": "山形県",
    "prefecture_kana": "ヤマガタケン",
    "prefecture_code": "6",
    "city": "東置賜郡高畠町",
    "city_kana": "ヒガシオキタマグンタカハタマチ",
    "town": "柏木目",
    "town_kana": "カシワギメ",
    "street": null,
    "office_name": null,
    "office_name_kana": null
  },
  "0334": {
    "zip_code": "9920334",
    "prefecture": "山形県",
    "prefecture_kana": "ヤマガタケン",
    "prefecture_code": "6",
    "city": "東置賜郡高畠町",
    "city_kana": "ヒガシオキタマグンタカハタマチ",
    "town": "一本柳",
    "town_kana": "イッポンヤナギ",
    "street": null,
    "office_name": null,
    "office_name_kana": null
  },
  "0335": {
    "zip_code": "9920335",
    "prefecture": "山形県",
    "prefecture_kana": "ヤマガタケン",
    "prefecture_code": "6",
    "city": "東置賜郡高畠町",
    "city_kana": "ヒガシオキタマグンタカハタマチ",
    "town": "川沼",
    "town_kana": "カワヌマ",
    "street": null,
    "office_name": null,
    "office_name_kana": null
  },
  "0341": {
    "zip_code": "9920341",
    "prefecture": "山形県",
    "prefecture_kana": "ヤマガタケン",
    "prefecture_code": "6",
    "city": "東置賜郡高畠町",
    "city_kana": "ヒガシオキタマグンタカハタマチ",
    "town": "時沢",
    "town_kana": "トキザワ",
    "street": null,
    "office_name": null,
    "office_name_kana": null
  },
  "0342": {
    "zip_code": "9920342",
    "prefecture": "山形県",
    "prefecture_kana": "ヤマガタケン",
    "prefecture_code": "6",
    "city": "東置賜郡高畠町",
    "city_kana": "ヒガシオキタマグンタカハタマチ",
    "town": "竹森",
    "town_kana": "タケノモリ",
    "street": null,
    "office_name": null,
    "office_name_kana": null
  },
  "0343": {
    "zip_code": "9920343",
    "prefecture": "山形県",
    "prefecture_kana": "ヤマガタケン",
    "prefecture_code": "6",
    "city": "東置賜郡高畠町",
    "city_kana": "ヒガシオキタマグンタカハタマチ",
    "town": "根岸",
    "town_kana": "ネギシ",
    "street": null,
    "office_name": null,
    "office_name_kana": null
  },
  "0344": {
    "zip_code": "9920344",
    "prefecture": "山形県",
    "prefecture_kana": "ヤマガタケン",
    "prefecture_code": "6",
    "city": "東置賜郡高畠町",
    "city_kana": "ヒガシオキタマグンタカハタマチ",
    "town": "深沼",
    "town_kana": "フカヌマ",
    "street": null,
    "office_name": null,
    "office_name_kana": null
  },
  "0351": {
    "zip_code": "9920351",
    "prefecture": "山形県",
    "prefecture_kana": "ヤマガタケン",
    "prefecture_code": "6",
    "city": "東置賜郡高畠町",
    "city_kana": "ヒガシオキタマグンタカハタマチ",
    "town": "高畠",
    "town_kana": "タカハタ",
    "street": null,
    "office_name": null,
    "office_name_kana": null
  },
  "0352": {
    "zip_code": "9920352",
    "prefecture": "山形県",
    "prefecture_kana": "ヤマガタケン",
    "prefecture_code": "6",
    "city": "東置賜郡高畠町",
    "city_kana": "ヒガシオキタマグンタカハタマチ",
    "town": "中里",
    "town_kana": "ナカザト",
    "street": null,
    "office_name": null,
    "office_name_kana": null
  },
  "0392": {
    "zip_code": "9920392",
    "prefecture": "山形県",
    "prefecture_kana": null,
    "prefecture_code": null,
    "city": "東置賜郡高畠町",
    "city_kana": null,
    "town": "大字高畠",
    "town_kana": null,
    "street": "４３６",
    "office_name": "高畠町役場",
    "office_name_kana": "タカハタマチヤクバ"
  },
  "0393": {
    "zip_code": "9920393",
    "prefecture": "山形県",
    "prefecture_kana": null,
    "prefecture_code": null,
    "city": "東置賜郡高畠町",
    "city_kana": null,
    "town": "大字高畠",
    "town_kana": null,
    "street": "６８７",
    "office_name": "山形第一信用組合",
    "office_name_kana": "ヤマガタダイイチシンヨウクミアイ"
  },
  "0471": {
    "zip_code": "9920471",
    "prefecture": "山形県",
    "prefecture_kana": "ヤマガタケン",
    "prefecture_code": "6",
    "city": "南陽市",
    "city_kana": "ナンヨウシ",
    "town": "金山",
    "town_kana": "カネヤマ",
    "street": null,
    "office_name": null,
    "office_name_kana": null
  },
  "0472": {
    "zip_code": "9920472",
    "prefecture": "山形県",
    "prefecture_kana": "ヤマガタケン",
    "prefecture_code": "6",
    "city": "南陽市",
    "city_kana": "ナンヨウシ",
    "town": "宮内",
    "town_kana": "ミヤウチ",
    "street": null,
    "office_name": null,
    "office_name_kana": null
  },
  "0473": {
    "zip_code": "9920473",
    "prefecture": "山形県",
    "prefecture_kana": "ヤマガタケン",
    "prefecture_code": "6",
    "city": "南陽市",
    "city_kana": "ナンヨウシ",
    "town": "池黒",
    "town_kana": "イケグロ",
    "street": null,
    "office_name": null,
    "office_name_kana": null
  },
  "0474": {
    "zip_code": "9920474",
    "prefecture": "山形県",
    "prefecture_kana": "ヤマガタケン",
    "prefecture_code": "6",
    "city": "南陽市",
    "city_kana": "ナンヨウシ",
    "town": "漆山",
    "town_kana": "ウルシヤマ",
    "street": null,
    "office_name": null,
    "office_name_kana": null
  },
  "0475": {
    "zip_code": "9920475",
    "prefecture": "山形県",
    "prefecture_kana": "ヤマガタケン",
    "prefecture_code": "6",
    "city": "南陽市",
    "city_kana": "ナンヨウシ",
    "town": "羽付",
    "town_kana": "ハネツキ",
    "street": null,
    "office_name": null,
    "office_name_kana": null
  },
  "0476": {
    "zip_code": "9920476",
    "prefecture": "山形県",
    "prefecture_kana": "ヤマガタケン",
    "prefecture_code": "6",
    "city": "南陽市",
    "city_kana": "ナンヨウシ",
    "town": "砂塚",
    "town_kana": "スナヅカ",
    "street": null,
    "office_name": null,
    "office_name_kana": null
  },
  "0477": {
    "zip_code": "9920477",
    "prefecture": "山形県",
    "prefecture_kana": "ヤマガタケン",
    "prefecture_code": "6",
    "city": "南陽市",
    "city_kana": "ナンヨウシ",
    "town": "梨郷",
    "town_kana": "リンゴウ",
    "street": null,
    "office_name": null,
    "office_name_kana": null
  },
  "0478": {
    "zip_code": "9920478",
    "prefecture": "山形県",
    "prefecture_kana": "ヤマガタケン",
    "prefecture_code": "6",
    "city": "南陽市",
    "city_kana": "ナンヨウシ",
    "town": "竹原",
    "town_kana": "タケハラ",
    "street": null,
    "office_name": null,
    "office_name_kana": null
  },
  "0479": {
    "zip_code": "9920479",
    "prefecture": "山形県",
    "prefecture_kana": "ヤマガタケン",
    "prefecture_code": "6",
    "city": "南陽市",
    "city_kana": "ナンヨウシ",
    "town": "和田",
    "town_kana": "ワダ",
    "street": null,
    "office_name": null,
    "office_name_kana": null
  },
  "0492": {
    "zip_code": "9920492",
    "prefecture": "山形県",
    "prefecture_kana": "ヤマガタケン",
    "prefecture_code": "6",
    "city": "南陽市",
    "city_kana": "ナンヨウシ",
    "town": "宮内",
    "town_kana": "ミヤウチ",
    "street": "７８３−１",
    "office_name": "石黒製麺　株式会社",
    "office_name_kana": "イシグロセイメン カブシキガイシヤ"
  },
  "0581": {
    "zip_code": "9920581",
    "prefecture": "山形県",
    "prefecture_kana": "ヤマガタケン",
    "prefecture_code": "6",
    "city": "南陽市",
    "city_kana": "ナンヨウシ",
    "town": "小滝",
    "town_kana": "コタキ",
    "street": null,
    "office_name": null,
    "office_name_kana": null
  },
  "0582": {
    "zip_code": "9920582",
    "prefecture": "山形県",
    "prefecture_kana": "ヤマガタケン",
    "prefecture_code": "6",
    "city": "南陽市",
    "city_kana": "ナンヨウシ",
    "town": "荻",
    "town_kana": "オギ",
    "street": null,
    "office_name": null,
    "office_name_kana": null
  },
  "0583": {
    "zip_code": "9920583",
    "prefecture": "山形県",
    "prefecture_kana": "ヤマガタケン",
    "prefecture_code": "6",
    "city": "南陽市",
    "city_kana": "ナンヨウシ",
    "town": "下荻",
    "town_kana": "シモオギ",
    "street": null,
    "office_name": null,
    "office_name_kana": null
  },
  "0584": {
    "zip_code": "9920584",
    "prefecture": "山形県",
    "prefecture_kana": "ヤマガタケン",
    "prefecture_code": "6",
    "city": "南陽市",
    "city_kana": "ナンヨウシ",
    "town": "太郎",
    "town_kana": "タロウ",
    "street": null,
    "office_name": null,
    "office_name_kana": null
  },
  "0601": {
    "zip_code": "9920601",
    "prefecture": "山形県",
    "prefecture_kana": "ヤマガタケン",
    "prefecture_code": "6",
    "city": "東置賜郡川西町",
    "city_kana": "ヒガシオキタマグンカワニシマチ",
    "town": "西大塚",
    "town_kana": "ニシオオツカ",
    "street": null,
    "office_name": null,
    "office_name_kana": null
  },
  "0602": {
    "zip_code": "9920602",
    "prefecture": "山形県",
    "prefecture_kana": "ヤマガタケン",
    "prefecture_code": "6",
    "city": "東置賜郡川西町",
    "city_kana": "ヒガシオキタマグンカワニシマチ",
    "town": "大塚",
    "town_kana": "オオツカ",
    "street": null,
    "office_name": null,
    "office_name_kana": null
  },
  "0603": {
    "zip_code": "9920603",
    "prefecture": "山形県",
    "prefecture_kana": "ヤマガタケン",
    "prefecture_code": "6",
    "city": "東置賜郡川西町",
    "city_kana": "ヒガシオキタマグンカワニシマチ",
    "town": "東大塚",
    "town_kana": "ヒガシオオツカ",
    "street": null,
    "office_name": null,
    "office_name_kana": null
  },
  "0771": {
    "zip_code": "9920771",
    "prefecture": "山形県",
    "prefecture_kana": "ヤマガタケン",
    "prefecture_code": "6",
    "city": "西置賜郡白鷹町",
    "city_kana": "ニシオキタマグンシラタカマチ",
    "town": "鮎貝",
    "town_kana": "アユカイ",
    "street": null,
    "office_name": null,
    "office_name_kana": null
  },
  "0772": {
    "zip_code": "9920772",
    "prefecture": "山形県",
    "prefecture_kana": "ヤマガタケン",
    "prefecture_code": "6",
    "city": "西置賜郡白鷹町",
    "city_kana": "ニシオキタマグンシラタカマチ",
    "town": "横田尻",
    "town_kana": "ヨコタジリ",
    "street": null,
    "office_name": null,
    "office_name_kana": null
  },
  "0773": {
    "zip_code": "9920773",
    "prefecture": "山形県",
    "prefecture_kana": "ヤマガタケン",
    "prefecture_code": "6",
    "city": "西置賜郡白鷹町",
    "city_kana": "ニシオキタマグンシラタカマチ",
    "town": "高玉",
    "town_kana": "タカダマ",
    "street": null,
    "office_name": null,
    "office_name_kana": null
  },
  "0774": {
    "zip_code": "9920774",
    "prefecture": "山形県",
    "prefecture_kana": "ヤマガタケン",
    "prefecture_code": "6",
    "city": "西置賜郡白鷹町",
    "city_kana": "ニシオキタマグンシラタカマチ",
    "town": "山口",
    "town_kana": "ヤマグチ",
    "street": null,
    "office_name": null,
    "office_name_kana": null
  },
  "0775": {
    "zip_code": "9920775",
    "prefecture": "山形県",
    "prefecture_kana": "ヤマガタケン",
    "prefecture_code": "6",
    "city": "西置賜郡白鷹町",
    "city_kana": "ニシオキタマグンシラタカマチ",
    "town": "黒鴨",
    "town_kana": "クロガモ",
    "street": null,
    "office_name": null,
    "office_name_kana": null
  },
  "0776": {
    "zip_code": "9920776",
    "prefecture": "山形県",
    "prefecture_kana": "ヤマガタケン",
    "prefecture_code": "6",
    "city": "西置賜郡白鷹町",
    "city_kana": "ニシオキタマグンシラタカマチ",
    "town": "深山",
    "town_kana": "ミヤマ",
    "street": null,
    "office_name": null,
    "office_name_kana": null
  },
  "0777": {
    "zip_code": "9920777",
    "prefecture": "山形県",
    "prefecture_kana": "ヤマガタケン",
    "prefecture_code": "6",
    "city": "西置賜郡白鷹町",
    "city_kana": "ニシオキタマグンシラタカマチ",
    "town": "栃窪",
    "town_kana": "トチクボ",
    "street": null,
    "office_name": null,
    "office_name_kana": null
  },
  "0778": {
    "zip_code": "9920778",
    "prefecture": "山形県",
    "prefecture_kana": "ヤマガタケン",
    "prefecture_code": "6",
    "city": "西置賜郡白鷹町",
    "city_kana": "ニシオキタマグンシラタカマチ",
    "town": "高岡",
    "town_kana": "タカオカ",
    "street": null,
    "office_name": null,
    "office_name_kana": null
  },
  "0779": {
    "zip_code": "9920779",
    "prefecture": "山形県",
    "prefecture_kana": "ヤマガタケン",
    "prefecture_code": "6",
    "city": "西置賜郡白鷹町",
    "city_kana": "ニシオキタマグンシラタカマチ",
    "town": "箕和田",
    "town_kana": "ミノワダ",
    "street": null,
    "office_name": null,
    "office_name_kana": null
  },
  "0800": {
    "zip_code": "9920800",
    "prefecture": "山形県",
    "prefecture_kana": "ヤマガタケン",
    "prefecture_code": "6",
    "city": "西置賜郡白鷹町",
    "city_kana": "ニシオキタマグンシラタカマチ",
    "town": "",
    "town_kana": "",
    "street": null,
    "office_name": null,
    "office_name_kana": null
  },
  "0801": {
    "zip_code": "9920801",
    "prefecture": "山形県",
    "prefecture_kana": "ヤマガタケン",
    "prefecture_code": "6",
    "city": "西置賜郡白鷹町",
    "city_kana": "ニシオキタマグンシラタカマチ",
    "town": "針生",
    "town_kana": "ハリュウ",
    "street": null,
    "office_name": null,
    "office_name_kana": null
  },
  "0802": {
    "zip_code": "9920802",
    "prefecture": "山形県",
    "prefecture_kana": "ヤマガタケン",
    "prefecture_code": "6",
    "city": "西置賜郡白鷹町",
    "city_kana": "ニシオキタマグンシラタカマチ",
    "town": "中山",
    "town_kana": "ナカヤマ",
    "street": null,
    "office_name": null,
    "office_name_kana": null
  },
  "0811": {
    "zip_code": "9920811",
    "prefecture": "山形県",
    "prefecture_kana": "ヤマガタケン",
    "prefecture_code": "6",
    "city": "西置賜郡白鷹町",
    "city_kana": "ニシオキタマグンシラタカマチ",
    "town": "萩野",
    "town_kana": "ハギノ",
    "street": null,
    "office_name": null,
    "office_name_kana": null
  },
  "0812": {
    "zip_code": "9920812",
    "prefecture": "山形県",
    "prefecture_kana": "ヤマガタケン",
    "prefecture_code": "6",
    "city": "西置賜郡白鷹町",
    "city_kana": "ニシオキタマグンシラタカマチ",
    "town": "滝野",
    "town_kana": "タキノ",
    "street": null,
    "office_name": null,
    "office_name_kana": null
  },
  "0821": {
    "zip_code": "9920821",
    "prefecture": "山形県",
    "prefecture_kana": "ヤマガタケン",
    "prefecture_code": "6",
    "city": "西置賜郡白鷹町",
    "city_kana": "ニシオキタマグンシラタカマチ",
    "town": "十王",
    "town_kana": "ジュウオウ",
    "street": null,
    "office_name": null,
    "office_name_kana": null
  },
  "0831": {
    "zip_code": "9920831",
    "prefecture": "山形県",
    "prefecture_kana": "ヤマガタケン",
    "prefecture_code": "6",
    "city": "西置賜郡白鷹町",
    "city_kana": "ニシオキタマグンシラタカマチ",
    "town": "荒砥甲",
    "town_kana": "アラトコウ",
    "street": null,
    "office_name": null,
    "office_name_kana": null
  },
  "0832": {
    "zip_code": "9920832",
    "prefecture": "山形県",
    "prefecture_kana": "ヤマガタケン",
    "prefecture_code": "6",
    "city": "西置賜郡白鷹町",
    "city_kana": "ニシオキタマグンシラタカマチ",
    "town": "荒砥乙",
    "town_kana": "アラトオツ",
    "street": null,
    "office_name": null,
    "office_name_kana": null
  },
  "0841": {
    "zip_code": "9920841",
    "prefecture": "山形県",
    "prefecture_kana": "ヤマガタケン",
    "prefecture_code": "6",
    "city": "西置賜郡白鷹町",
    "city_kana": "ニシオキタマグンシラタカマチ",
    "town": "畔藤",
    "town_kana": "クロフジ",
    "street": null,
    "office_name": null,
    "office_name_kana": null
  },
  "0851": {
    "zip_code": "9920851",
    "prefecture": "山形県",
    "prefecture_kana": "ヤマガタケン",
    "prefecture_code": "6",
    "city": "西置賜郡白鷹町",
    "city_kana": "ニシオキタマグンシラタカマチ",
    "town": "広野",
    "town_kana": "ヒロノ",
    "street": null,
    "office_name": null,
    "office_name_kana": null
  },
  "0852": {
    "zip_code": "9920852",
    "prefecture": "山形県",
    "prefecture_kana": "ヤマガタケン",
    "prefecture_code": "6",
    "city": "西置賜郡白鷹町",
    "city_kana": "ニシオキタマグンシラタカマチ",
    "town": "浅立",
    "town_kana": "アサダチ",
    "street": null,
    "office_name": null,
    "office_name_kana": null
  },
  "0861": {
    "zip_code": "9920861",
    "prefecture": "山形県",
    "prefecture_kana": "ヤマガタケン",
    "prefecture_code": "6",
    "city": "西置賜郡白鷹町",
    "city_kana": "ニシオキタマグンシラタカマチ",
    "town": "大瀬",
    "town_kana": "オオセ",
    "street": null,
    "office_name": null,
    "office_name_kana": null
  },
  "0862": {
    "zip_code": "9920862",
    "prefecture": "山形県",
    "prefecture_kana": "ヤマガタケン",
    "prefecture_code": "6",
    "city": "西置賜郡白鷹町",
    "city_kana": "ニシオキタマグンシラタカマチ",
    "town": "下山",
    "town_kana": "シモヤマ",
    "street": null,
    "office_name": null,
    "office_name_kana": null
  },
  "0863": {
    "zip_code": "9920863",
    "prefecture": "山形県",
    "prefecture_kana": "ヤマガタケン",
    "prefecture_code": "6",
    "city": "西置賜郡白鷹町",
    "city_kana": "ニシオキタマグンシラタカマチ",
    "town": "菖蒲",
    "town_kana": "ショウブ",
    "street": null,
    "office_name": null,
    "office_name_kana": null
  },
  "0864": {
    "zip_code": "9920864",
    "prefecture": "山形県",
    "prefecture_kana": "ヤマガタケン",
    "prefecture_code": "6",
    "city": "西置賜郡白鷹町",
    "city_kana": "ニシオキタマグンシラタカマチ",
    "town": "佐野原",
    "town_kana": "サノハラ",
    "street": null,
    "office_name": null,
    "office_name_kana": null
  },
  "0892": {
    "zip_code": "9920892",
    "prefecture": "山形県",
    "prefecture_kana": null,
    "prefecture_code": null,
    "city": "西置賜郡白鷹町",
    "city_kana": null,
    "town": "大字荒砥甲",
    "town_kana": null,
    "street": "８３３（荒砥郵便局私書箱第８号）",
    "office_name": "白鷹町役場",
    "office_name_kana": "シラタカマチヤクバ"
  },
  "1121": {
    "zip_code": "9921121",
    "prefecture": "山形県",
    "prefecture_kana": "ヤマガタケン",
    "prefecture_code": "6",
    "city": "米沢市",
    "city_kana": "ヨネザワシ",
    "town": "万世町刈安",
    "town_kana": "バンセイチョウカリヤス",
    "street": null,
    "office_name": null,
    "office_name_kana": null
  },
  "1122": {
    "zip_code": "9921122",
    "prefecture": "山形県",
    "prefecture_kana": "ヤマガタケン",
    "prefecture_code": "6",
    "city": "米沢市",
    "city_kana": "ヨネザワシ",
    "town": "万世町梓山",
    "town_kana": "バンセイチョウズサヤマ",
    "street": null,
    "office_name": null,
    "office_name_kana": null
  },
  "1123": {
    "zip_code": "9921123",
    "prefecture": "山形県",
    "prefecture_kana": "ヤマガタケン",
    "prefecture_code": "6",
    "city": "米沢市",
    "city_kana": "ヨネザワシ",
    "town": "万世町桑山",
    "town_kana": "バンセイチョウクワヤマ",
    "street": null,
    "office_name": null,
    "office_name_kana": null
  },
  "1124": {
    "zip_code": "9921124",
    "prefecture": "山形県",
    "prefecture_kana": "ヤマガタケン",
    "prefecture_code": "6",
    "city": "米沢市",
    "city_kana": "ヨネザワシ",
    "town": "万世町金谷",
    "town_kana": "バンセイチョウカナヤ",
    "street": null,
    "office_name": null,
    "office_name_kana": null
  },
  "1125": {
    "zip_code": "9921125",
    "prefecture": "山形県",
    "prefecture_kana": "ヤマガタケン",
    "prefecture_code": "6",
    "city": "米沢市",
    "city_kana": "ヨネザワシ",
    "town": "万世町片子",
    "town_kana": "バンセイチョウカタコ",
    "street": null,
    "office_name": null,
    "office_name_kana": null
  },
  "1126": {
    "zip_code": "9921126",
    "prefecture": "山形県",
    "prefecture_kana": "ヤマガタケン",
    "prefecture_code": "6",
    "city": "米沢市",
    "city_kana": "ヨネザワシ",
    "town": "万世町堂森",
    "town_kana": "バンセイチョウドウモリ",
    "street": null,
    "office_name": null,
    "office_name_kana": null
  },
  "1127": {
    "zip_code": "9921127",
    "prefecture": "山形県",
    "prefecture_kana": "ヤマガタケン",
    "prefecture_code": "6",
    "city": "米沢市",
    "city_kana": "ヨネザワシ",
    "town": "万世町牛森",
    "town_kana": "バンセイチョウウシモリ",
    "street": null,
    "office_name": null,
    "office_name_kana": null
  },
  "1128": {
    "zip_code": "9921128",
    "prefecture": "山形県",
    "prefecture_kana": "ヤマガタケン",
    "prefecture_code": "6",
    "city": "米沢市",
    "city_kana": "ヨネザワシ",
    "town": "八幡原",
    "town_kana": "ハチマンパラ",
    "street": null,
    "office_name": null,
    "office_name_kana": null
  },
  "1201": {
    "zip_code": "9921201",
    "prefecture": "山形県",
    "prefecture_kana": "ヤマガタケン",
    "prefecture_code": "6",
    "city": "米沢市",
    "city_kana": "ヨネザワシ",
    "town": "万世町立沢",
    "town_kana": "バンセイチョウタツザワ",
    "street": null,
    "office_name": null,
    "office_name_kana": null
  },
  "1202": {
    "zip_code": "9921202",
    "prefecture": "山形県",
    "prefecture_kana": "ヤマガタケン",
    "prefecture_code": "6",
    "city": "米沢市",
    "city_kana": "ヨネザワシ",
    "town": "三沢",
    "town_kana": "ミサワ",
    "street": null,
    "office_name": null,
    "office_name_kana": null
  },
  "1203": [
    {
      "zip_code": "9921203",
      "prefecture": "山形県",
      "prefecture_kana": "ヤマガタケン",
      "prefecture_code": "6",
      "city": "米沢市",
      "city_kana": "ヨネザワシ",
      "town": "大沢",
      "town_kana": "オオサワ",
      "street": null,
      "office_name": null,
      "office_name_kana": null
    },
    {
      "zip_code": "9921203",
      "prefecture": "山形県",
      "prefecture_kana": "ヤマガタケン",
      "prefecture_code": "6",
      "city": "米沢市",
      "city_kana": "ヨネザワシ",
      "town": "大沢笠松",
      "town_kana": "オオサワカサマツ",
      "street": null,
      "office_name": null,
      "office_name_kana": null
    }
  ],
  "1204": {
    "zip_code": "9921204",
    "prefecture": "山形県",
    "prefecture_kana": "ヤマガタケン",
    "prefecture_code": "6",
    "city": "米沢市",
    "city_kana": "ヨネザワシ",
    "town": "大小屋",
    "town_kana": "オオゴヤ",
    "street": null,
    "office_name": null,
    "office_name_kana": null
  },
  "1205": {
    "zip_code": "9921205",
    "prefecture": "山形県",
    "prefecture_kana": "ヤマガタケン",
    "prefecture_code": "6",
    "city": "米沢市",
    "city_kana": "ヨネザワシ",
    "town": "関根",
    "town_kana": "セキネ",
    "street": null,
    "office_name": null,
    "office_name_kana": null
  },
  "1206": {
    "zip_code": "9921206",
    "prefecture": "山形県",
    "prefecture_kana": "ヤマガタケン",
    "prefecture_code": "6",
    "city": "米沢市",
    "city_kana": "ヨネザワシ",
    "town": "赤崩",
    "town_kana": "アカクズレ",
    "street": null,
    "office_name": null,
    "office_name_kana": null
  },
  "1303": {
    "zip_code": "9921303",
    "prefecture": "山形県",
    "prefecture_kana": "ヤマガタケン",
    "prefecture_code": "6",
    "city": "米沢市",
    "city_kana": "ヨネザワシ",
    "town": "大沢",
    "town_kana": "オオサワ",
    "street": null,
    "office_name": null,
    "office_name_kana": null
  },
  "1331": {
    "zip_code": "9921331",
    "prefecture": "山形県",
    "prefecture_kana": "ヤマガタケン",
    "prefecture_code": "6",
    "city": "米沢市",
    "city_kana": "ヨネザワシ",
    "town": "板谷",
    "town_kana": "イタヤ",
    "street": null,
    "office_name": null,
    "office_name_kana": null
  },
  "1406": [
    {
      "zip_code": "9921406",
      "prefecture": "山形県",
      "prefecture_kana": "ヤマガタケン",
      "prefecture_code": "6",
      "city": "米沢市",
      "city_kana": "ヨネザワシ",
      "town": "赤崩",
      "town_kana": "アカクズレ",
      "street": null,
      "office_name": null,
      "office_name_kana": null
    },
    {
      "zip_code": "9921406",
      "prefecture": "山形県",
      "prefecture_kana": "ヤマガタケン",
      "prefecture_code": "6",
      "city": "米沢市",
      "city_kana": "ヨネザワシ",
      "town": "赤崩山王浦",
      "town_kana": "アカクズレサンノウウラ",
      "street": null,
      "office_name": null,
      "office_name_kana": null
    }
  ],
  "1441": {
    "zip_code": "9921441",
    "prefecture": "山形県",
    "prefecture_kana": "ヤマガタケン",
    "prefecture_code": "6",
    "city": "米沢市",
    "city_kana": "ヨネザワシ",
    "town": "笹野町",
    "town_kana": "ササノマチ",
    "street": null,
    "office_name": null,
    "office_name_kana": null
  },
  "1442": {
    "zip_code": "9921442",
    "prefecture": "山形県",
    "prefecture_kana": "ヤマガタケン",
    "prefecture_code": "6",
    "city": "米沢市",
    "city_kana": "ヨネザワシ",
    "town": "芳泉町",
    "town_kana": "ホウセンマチ",
    "street": null,
    "office_name": null,
    "office_name_kana": null
  },
  "1443": {
    "zip_code": "9921443",
    "prefecture": "山形県",
    "prefecture_kana": "ヤマガタケン",
    "prefecture_code": "6",
    "city": "米沢市",
    "city_kana": "ヨネザワシ",
    "town": "笹野",
    "town_kana": "ササノ",
    "street": null,
    "office_name": null,
    "office_name_kana": null
  },
  "1444": {
    "zip_code": "9921444",
    "prefecture": "山形県",
    "prefecture_kana": "ヤマガタケン",
    "prefecture_code": "6",
    "city": "米沢市",
    "city_kana": "ヨネザワシ",
    "town": "諸仏町",
    "town_kana": "ショブツマチ",
    "street": null,
    "office_name": null,
    "office_name_kana": null
  },
  "1445": {
    "zip_code": "9921445",
    "prefecture": "山形県",
    "prefecture_kana": "ヤマガタケン",
    "prefecture_code": "6",
    "city": "米沢市",
    "city_kana": "ヨネザワシ",
    "town": "笹野本町",
    "town_kana": "ササノホンチョウ",
    "street": null,
    "office_name": null,
    "office_name_kana": null
  },
  "1446": {
    "zip_code": "9921446",
    "prefecture": "山形県",
    "prefecture_kana": "ヤマガタケン",
    "prefecture_code": "6",
    "city": "米沢市",
    "city_kana": "ヨネザワシ",
    "town": "直江石堤",
    "town_kana": "ナオエセキテイ",
    "street": null,
    "office_name": null,
    "office_name_kana": null
  },
  "1451": {
    "zip_code": "9921451",
    "prefecture": "山形県",
    "prefecture_kana": "ヤマガタケン",
    "prefecture_code": "6",
    "city": "米沢市",
    "city_kana": "ヨネザワシ",
    "town": "南原笹野町",
    "town_kana": "ミナミハラササノマチ",
    "street": null,
    "office_name": null,
    "office_name_kana": null
  },
  "1452": {
    "zip_code": "9921452",
    "prefecture": "山形県",
    "prefecture_kana": "ヤマガタケン",
    "prefecture_code": "6",
    "city": "米沢市",
    "city_kana": "ヨネザワシ",
    "town": "南原横堀町",
    "town_kana": "ミナミハラヨコボリマチ",
    "street": null,
    "office_name": null,
    "office_name_kana": null
  },
  "1453": {
    "zip_code": "9921453",
    "prefecture": "山形県",
    "prefecture_kana": "ヤマガタケン",
    "prefecture_code": "6",
    "city": "米沢市",
    "city_kana": "ヨネザワシ",
    "town": "南原石垣町",
    "town_kana": "ミナミハライシガキマチ",
    "street": null,
    "office_name": null,
    "office_name_kana": null
  },
  "1454": {
    "zip_code": "9921454",
    "prefecture": "山形県",
    "prefecture_kana": "ヤマガタケン",
    "prefecture_code": "6",
    "city": "米沢市",
    "city_kana": "ヨネザワシ",
    "town": "南原新町",
    "town_kana": "ミナミハラシンマチ",
    "street": null,
    "office_name": null,
    "office_name_kana": null
  },
  "1455": {
    "zip_code": "9921455",
    "prefecture": "山形県",
    "prefecture_kana": "ヤマガタケン",
    "prefecture_code": "6",
    "city": "米沢市",
    "city_kana": "ヨネザワシ",
    "town": "南原猪苗代町",
    "town_kana": "ミナミハライナワシロマチ",
    "street": null,
    "office_name": null,
    "office_name_kana": null
  },
  "1461": {
    "zip_code": "9921461",
    "prefecture": "山形県",
    "prefecture_kana": "ヤマガタケン",
    "prefecture_code": "6",
    "city": "米沢市",
    "city_kana": "ヨネザワシ",
    "town": "李山",
    "town_kana": "スモモヤマ",
    "street": null,
    "office_name": null,
    "office_name_kana": null
  },
  "1462": {
    "zip_code": "9921462",
    "prefecture": "山形県",
    "prefecture_kana": "ヤマガタケン",
    "prefecture_code": "6",
    "city": "米沢市",
    "city_kana": "ヨネザワシ",
    "town": "大平",
    "town_kana": "オオダイラ",
    "street": null,
    "office_name": null,
    "office_name_kana": null
  },
  "1471": {
    "zip_code": "9921471",
    "prefecture": "山形県",
    "prefecture_kana": "ヤマガタケン",
    "prefecture_code": "6",
    "city": "米沢市",
    "city_kana": "ヨネザワシ",
    "town": "立石",
    "town_kana": "タテイシ",
    "street": null,
    "office_name": null,
    "office_name_kana": null
  },
  "1472": {
    "zip_code": "9921472",
    "prefecture": "山形県",
    "prefecture_kana": "ヤマガタケン",
    "prefecture_code": "6",
    "city": "米沢市",
    "city_kana": "ヨネザワシ",
    "town": "関",
    "town_kana": "セキ",
    "street": null,
    "office_name": null,
    "office_name_kana": null
  },
  "1473": {
    "zip_code": "9921473",
    "prefecture": "山形県",
    "prefecture_kana": "ヤマガタケン",
    "prefecture_code": "6",
    "city": "米沢市",
    "city_kana": "ヨネザワシ",
    "town": "関町",
    "town_kana": "セキマチ",
    "street": null,
    "office_name": null,
    "office_name_kana": null
  },
  "1474": {
    "zip_code": "9921474",
    "prefecture": "山形県",
    "prefecture_kana": "ヤマガタケン",
    "prefecture_code": "6",
    "city": "米沢市",
    "city_kana": "ヨネザワシ",
    "town": "綱木",
    "town_kana": "ツナギ",
    "street": null,
    "office_name": null,
    "office_name_kana": null
  },
  "1581": {
    "zip_code": "9921581",
    "prefecture": "山形県",
    "prefecture_kana": "ヤマガタケン",
    "prefecture_code": "6",
    "city": "米沢市",
    "city_kana": "ヨネザワシ",
    "town": "口田沢",
    "town_kana": "クチタザワ",
    "street": null,
    "office_name": null,
    "office_name_kana": null
  },
  "1582": {
    "zip_code": "9921582",
    "prefecture": "山形県",
    "prefecture_kana": "ヤマガタケン",
    "prefecture_code": "6",
    "city": "米沢市",
    "city_kana": "ヨネザワシ",
    "town": "神原",
    "town_kana": "カンバラ",
    "street": null,
    "office_name": null,
    "office_name_kana": null
  },
  "1583": {
    "zip_code": "9921583",
    "prefecture": "山形県",
    "prefecture_kana": "ヤマガタケン",
    "prefecture_code": "6",
    "city": "米沢市",
    "city_kana": "ヨネザワシ",
    "town": "入田沢",
    "town_kana": "イリタザワ",
    "street": null,
    "office_name": null,
    "office_name_kana": null
  },
  "8501": {
    "zip_code": "9928501",
    "prefecture": "山形県",
    "prefecture_kana": "ヤマガタケン",
    "prefecture_code": "6",
    "city": "米沢市",
    "city_kana": "ヨネザワシ",
    "town": "金池",
    "town_kana": "カナイケ",
    "street": "５丁目２−２５",
    "office_name": "米沢市役所",
    "office_name_kana": "ヨネザワシヤクシヨ"
  },
  "8502": {
    "zip_code": "9928502",
    "prefecture": "山形県",
    "prefecture_kana": "ヤマガタケン",
    "prefecture_code": "6",
    "city": "米沢市",
    "city_kana": "ヨネザワシ",
    "town": "相生町",
    "town_kana": "アイオイチョウ",
    "street": "６−３６",
    "office_name": "米沢市立病院",
    "office_name_kana": "ヨネザワシリツビヨウイン"
  },
  "8510": {
    "zip_code": "9928510",
    "prefecture": "山形県",
    "prefecture_kana": "ヤマガタケン",
    "prefecture_code": "6",
    "city": "米沢市",
    "city_kana": "ヨネザワシ",
    "town": "城南",
    "town_kana": "ジョウナン",
    "street": "４丁目３−１６",
    "office_name": "山形大学　工学部",
    "office_name_kana": "ヤマガタダイガク コウガクブ"
  },
  "8520": {
    "zip_code": "9928520",
    "prefecture": "山形県",
    "prefecture_kana": "ヤマガタケン",
    "prefecture_code": "6",
    "city": "米沢市",
    "city_kana": "ヨネザワシ",
    "town": "下花沢",
    "town_kana": "シモハナザワ",
    "street": "２丁目６−８０",
    "office_name": "ＮＥＣパーソナルプロダクツ　（株）　米沢事業場",
    "office_name_kana": "エヌイ-シ-パ-ソナルプロダクツ (カブ) ヨネザワジギヨウジヨウ"
  },
  "8540": {
    "zip_code": "9928540",
    "prefecture": "山形県",
    "prefecture_kana": "ヤマガタケン",
    "prefecture_code": "6",
    "city": "米沢市",
    "city_kana": "ヨネザワシ",
    "town": "東",
    "town_kana": "ヒガシ",
    "street": "１丁目１０−７１",
    "office_name": "サクサ　株式会社　米沢事業場",
    "office_name_kana": "サクサ カブシキカイシヤ ヨネザワジギヨウバ"
  },
  "8550": {
    "zip_code": "9928550",
    "prefecture": "山形県",
    "prefecture_kana": "ヤマガタケン",
    "prefecture_code": "6",
    "city": "米沢市",
    "city_kana": "ヨネザワシ",
    "town": "中央",
    "town_kana": "チュウオウ",
    "street": "１丁目２−１７",
    "office_name": "株式会社　大沼　米沢店",
    "office_name_kana": "カブシキガイシヤ オオヌマ ヨネザワテン"
  },
  "8560": {
    "zip_code": "9928560",
    "prefecture": "山形県",
    "prefecture_kana": "ヤマガタケン",
    "prefecture_code": "6",
    "city": "米沢市",
    "city_kana": "ヨネザワシ",
    "town": "門東町",
    "town_kana": "モントウマチ",
    "street": "３丁目２−４０",
    "office_name": "東北電力　株式会社　米沢営業所",
    "office_name_kana": "トウホクデンリヨク カブシキガイシヤ ヨネザワエイギヨウシヨ"
  },
  "8601": {
    "zip_code": "9928601",
    "prefecture": "山形県",
    "prefecture_kana": "ヤマガタケン",
    "prefecture_code": "6",
    "city": "米沢市",
    "city_kana": "ヨネザワシ",
    "town": "大町",
    "town_kana": "オオマチ",
    "street": "５丁目４−２７（米沢郵便局私書箱第９号）",
    "office_name": "米沢信用金庫",
    "office_name_kana": "ヨネザワシンヨウキンコ"
  },
  "8610": {
    "zip_code": "9928610",
    "prefecture": "山形県",
    "prefecture_kana": "ヤマガタケン",
    "prefecture_code": "6",
    "city": "米沢市",
    "city_kana": "ヨネザワシ",
    "town": "門東町",
    "town_kana": "モントウマチ",
    "street": "１丁目１−９",
    "office_name": "米沢　税務署",
    "office_name_kana": "ヨネザワ ゼイムシヨ"
  }
}