{
  "0000": {
    "zip_code": "9980000",
    "prefecture": "山形県",
    "prefecture_kana": "ヤマガタケン",
    "prefecture_code": "6",
    "city": "酒田市",
    "city_kana": "サカタシ",
    "town": "",
    "town_kana": "",
    "street": null,
    "office_name": null,
    "office_name_kana": null
  },
  "0001": {
    "zip_code": "9980001",
    "prefecture": "山形県",
    "prefecture_kana": "ヤマガタケン",
    "prefecture_code": "6",
    "city": "酒田市",
    "city_kana": "サカタシ",
    "town": "穂積",
    "town_kana": "ホヅミ",
    "street": null,
    "office_name": null,
    "office_name_kana": null
  },
  "0002": {
    "zip_code": "9980002",
    "prefecture": "山形県",
    "prefecture_kana": "ヤマガタケン",
    "prefecture_code": "6",
    "city": "酒田市",
    "city_kana": "サカタシ",
    "town": "藤塚",
    "town_kana": "フジツカ",
    "street": null,
    "office_name": null,
    "office_name_kana": null
  },
  "0003": {
    "zip_code": "9980003",
    "prefecture": "山形県",
    "prefecture_kana": "ヤマガタケン",
    "prefecture_code": "6",
    "city": "酒田市",
    "city_kana": "サカタシ",
    "town": "酒井新田",
    "town_kana": "サカイシンデン",
    "street": null,
    "office_name": null,
    "office_name_kana": null
  },
  "0004": {
    "zip_code": "9980004",
    "prefecture": "山形県",
    "prefecture_kana": "ヤマガタケン",
    "prefecture_code": "6",
    "city": "酒田市",
    "city_kana": "サカタシ",
    "town": "豊里",
    "town_kana": "トヨサト",
    "street": null,
    "office_name": null,
    "office_name_kana": null
  },
  "0005": {
    "zip_code": "9980005",
    "prefecture": "山形県",
    "prefecture_kana": "ヤマガタケン",
    "prefecture_code": "6",
    "city": "酒田市",
    "city_kana": "サカタシ",
    "town": "宮海",
    "town_kana": "ミヤウミ",
    "street": null,
    "office_name": null,
    "office_name_kana": null
  },
  "0006": {
    "zip_code": "9980006",
    "prefecture": "山形県",
    "prefecture_kana": "ヤマガタケン",
    "prefecture_code": "6",
    "city": "酒田市",
    "city_kana": "サカタシ",
    "town": "ゆたか",
    "town_kana": "ユタカ",
    "street": null,
    "office_name": null,
    "office_name_kana": null
  },
  "0011": {
    "zip_code": "9980011",
    "prefecture": "山形県",
    "prefecture_kana": "ヤマガタケン",
    "prefecture_code": "6",
    "city": "酒田市",
    "city_kana": "サカタシ",
    "town": "上安町",
    "town_kana": "カミヤスチョウ",
    "street": null,
    "office_name": null,
    "office_name_kana": null
  },
  "0012": {
    "zip_code": "9980012",
    "prefecture": "山形県",
    "prefecture_kana": "ヤマガタケン",
    "prefecture_code": "6",
    "city": "酒田市",
    "city_kana": "サカタシ",
    "town": "下安町",
    "town_kana": "シモヤスチョウ",
    "street": null,
    "office_name": null,
    "office_name_kana": null
  },
  "0013": {
    "zip_code": "9980013",
    "prefecture": "山形県",
    "prefecture_kana": "ヤマガタケン",
    "prefecture_code": "6",
    "city": "酒田市",
    "city_kana": "サカタシ",
    "town": "東泉町",
    "town_kana": "ヒガシイズミチョウ",
    "street": null,
    "office_name": null,
    "office_name_kana": null
  },
  "0014": {
    "zip_code": "9980014",
    "prefecture": "山形県",
    "prefecture_kana": "ヤマガタケン",
    "prefecture_code": "6",
    "city": "酒田市",
    "city_kana": "サカタシ",
    "town": "千日町",
    "town_kana": "センニチチョウ",
    "street": null,
    "office_name": null,
    "office_name_kana": null
  },
  "0015": {
    "zip_code": "9980015",
    "prefecture": "山形県",
    "prefecture_kana": "ヤマガタケン",
    "prefecture_code": "6",
    "city": "酒田市",
    "city_kana": "サカタシ",
    "town": "北千日堂前",
    "town_kana": "キタセンニチドウマエ",
    "street": null,
    "office_name": null,
    "office_name_kana": null
  },
  "0016": {
    "zip_code": "9980016",
    "prefecture": "山形県",
    "prefecture_kana": "ヤマガタケン",
    "prefecture_code": "6",
    "city": "酒田市",
    "city_kana": "サカタシ",
    "town": "北千日町",
    "town_kana": "キタセンニチチョウ",
    "street": null,
    "office_name": null,
    "office_name_kana": null
  },
  "0017": {
    "zip_code": "9980017",
    "prefecture": "山形県",
    "prefecture_kana": "ヤマガタケン",
    "prefecture_code": "6",
    "city": "酒田市",
    "city_kana": "サカタシ",
    "town": "西野町",
    "town_kana": "ニシノマチ",
    "street": null,
    "office_name": null,
    "office_name_kana": null
  },
  "0018": {
    "zip_code": "9980018",
    "prefecture": "山形県",
    "prefecture_kana": "ヤマガタケン",
    "prefecture_code": "6",
    "city": "酒田市",
    "city_kana": "サカタシ",
    "town": "泉町",
    "town_kana": "イズミチョウ",
    "street": null,
    "office_name": null,
    "office_name_kana": null
  },
  "0021": {
    "zip_code": "9980021",
    "prefecture": "山形県",
    "prefecture_kana": "ヤマガタケン",
    "prefecture_code": "6",
    "city": "酒田市",
    "city_kana": "サカタシ",
    "town": "旭新町",
    "town_kana": "アサヒシンマチ",
    "street": null,
    "office_name": null,
    "office_name_kana": null
  },
  "0022": {
    "zip_code": "9980022",
    "prefecture": "山形県",
    "prefecture_kana": "ヤマガタケン",
    "prefecture_code": "6",
    "city": "酒田市",
    "city_kana": "サカタシ",
    "town": "駅東",
    "town_kana": "エキヒガシ",
    "street": null,
    "office_name": null,
    "office_name_kana": null
  },
  "0023": {
    "zip_code": "9980023",
    "prefecture": "山形県",
    "prefecture_kana": "ヤマガタケン",
    "prefecture_code": "6",
    "city": "酒田市",
    "city_kana": "サカタシ",
    "town": "幸町",
    "town_kana": "サイワイチョウ",
    "street": null,
    "office_name": null,
    "office_name_kana": null
  },
  "0024": {
    "zip_code": "9980024",
    "prefecture": "山形県",
    "prefecture_kana": "ヤマガタケン",
    "prefecture_code": "6",
    "city": "酒田市",
    "city_kana": "サカタシ",
    "town": "御成町",
    "town_kana": "オナリチョウ",
    "street": null,
    "office_name": null,
    "office_name_kana": null
  },
  "0025": {
    "zip_code": "9980025",
    "prefecture": "山形県",
    "prefecture_kana": "ヤマガタケン",
    "prefecture_code": "6",
    "city": "酒田市",
    "city_kana": "サカタシ",
    "town": "南千日町",
    "town_kana": "ミナミセンニチチョウ",
    "street": null,
    "office_name": null,
    "office_name_kana": null
  },
  "0026": {
    "zip_code": "9980026",
    "prefecture": "山形県",
    "prefecture_kana": "ヤマガタケン",
    "prefecture_code": "6",
    "city": "酒田市",
    "city_kana": "サカタシ",
    "town": "栄町",
    "town_kana": "サカエチョウ",
    "street": null,
    "office_name": null,
    "office_name_kana": null
  },
  "0027": {
    "zip_code": "9980027",
    "prefecture": "山形県",
    "prefecture_kana": "ヤマガタケン",
    "prefecture_code": "6",
    "city": "酒田市",
    "city_kana": "サカタシ",
    "town": "北今町",
    "town_kana": "キタイママチ",
    "street": null,
    "office_name": null,
    "office_name_kana": null
  },
  "0028": {
    "zip_code": "9980028",
    "prefecture": "山形県",
    "prefecture_kana": "ヤマガタケン",
    "prefecture_code": "6",
    "city": "酒田市",
    "city_kana": "サカタシ",
    "town": "北里町",
    "town_kana": "キタザトチョウ",
    "street": null,
    "office_name": null,
    "office_name_kana": null
  },
  "0029": {
    "zip_code": "9980029",
    "prefecture": "山形県",
    "prefecture_kana": "ヤマガタケン",
    "prefecture_code": "6",
    "city": "酒田市",
    "city_kana": "サカタシ",
    "town": "住吉町",
    "town_kana": "スミヨシチョウ",
    "street": null,
    "office_name": null,
    "office_name_kana": null
  },
  "0031": {
    "zip_code": "9980031",
    "prefecture": "山形県",
    "prefecture_kana": "ヤマガタケン",
    "prefecture_code": "6",
    "city": "酒田市",
    "city_kana": "サカタシ",
    "town": "浜田",
    "town_kana": "ハマダ",
    "street": null,
    "office_name": null,
    "office_name_kana": null
  },
  "0032": {
    "zip_code": "9980032",
    "prefecture": "山形県",
    "prefecture_kana": "ヤマガタケン",
    "prefecture_code": "6",
    "city": "酒田市",
    "city_kana": "サカタシ",
    "town": "相生町",
    "town_kana": "アイオイチョウ",
    "street": null,
    "office_name": null,
    "office_name_kana": null
  },
  "0033": {
    "zip_code": "9980033",
    "prefecture": "山形県",
    "prefecture_kana": "ヤマガタケン",
    "prefecture_code": "6",
    "city": "酒田市",
    "city_kana": "サカタシ",
    "town": "中央東町",
    "town_kana": "チュウオウヒガシマチ",
    "street": null,
    "office_name": null,
    "office_name_kana": null
  },
  "0034": {
    "zip_code": "9980034",
    "prefecture": "山形県",
    "prefecture_kana": "ヤマガタケン",
    "prefecture_code": "6",
    "city": "酒田市",
    "city_kana": "サカタシ",
    "town": "中央西町",
    "town_kana": "チュウオウニシマチ",
    "street": null,
    "office_name": null,
    "office_name_kana": null
  },
  "0035": {
    "zip_code": "9980035",
    "prefecture": "山形県",
    "prefecture_kana": "ヤマガタケン",
    "prefecture_code": "6",
    "city": "酒田市",
    "city_kana": "サカタシ",
    "town": "寿町",
    "town_kana": "コトブキチョウ",
    "street": null,
    "office_name": null,
    "office_name_kana": null
  },
  "0036": {
    "zip_code": "9980036",
    "prefecture": "山形県",
    "prefecture_kana": "ヤマガタケン",
    "prefecture_code": "6",
    "city": "酒田市",
    "city_kana": "サカタシ",
    "town": "船場町",
    "town_kana": "フナバチョウ",
    "street": null,
    "office_name": null,
    "office_name_kana": null
  },
  "0037": {
    "zip_code": "9980037",
    "prefecture": "山形県",
    "prefecture_kana": "ヤマガタケン",
    "prefecture_code": "6",
    "city": "酒田市",
    "city_kana": "サカタシ",
    "town": "日吉町",
    "town_kana": "ヒヨシチョウ",
    "street": null,
    "office_name": null,
    "office_name_kana": null
  },
  "0041": {
    "zip_code": "9980041",
    "prefecture": "山形県",
    "prefecture_kana": "ヤマガタケン",
    "prefecture_code": "6",
    "city": "酒田市",
    "city_kana": "サカタシ",
    "town": "新井田町",
    "town_kana": "ニイダマチ",
    "street": null,
    "office_name": null,
    "office_name_kana": null
  },
  "0042": {
    "zip_code": "9980042",
    "prefecture": "山形県",
    "prefecture_kana": "ヤマガタケン",
    "prefecture_code": "6",
    "city": "酒田市",
    "city_kana": "サカタシ",
    "town": "上本町",
    "town_kana": "カミホンチョウ",
    "street": null,
    "office_name": null,
    "office_name_kana": null
  },
  "0043": {
    "zip_code": "9980043",
    "prefecture": "山形県",
    "prefecture_kana": "ヤマガタケン",
    "prefecture_code": "6",
    "city": "酒田市",
    "city_kana": "サカタシ",
    "town": "本町",
    "town_kana": "ホンチョウ",
    "street": null,
    "office_name": null,
    "office_name_kana": null
  },
  "0044": {
    "zip_code": "9980044",
    "prefecture": "山形県",
    "prefecture_kana": "ヤマガタケン",
    "prefecture_code": "6",
    "city": "酒田市",
    "city_kana": "サカタシ",
    "town": "中町",
    "town_kana": "ナカマチ",
    "street": null,
    "office_name": null,
    "office_name_kana": null
  },
  "0045": {
    "zip_code": "9980045",
    "prefecture": "山形県",
    "prefecture_kana": "ヤマガタケン",
    "prefecture_code": "6",
    "city": "酒田市",
    "city_kana": "サカタシ",
    "town": "二番町",
    "town_kana": "ニバンチョウ",
    "street": null,
    "office_name": null,
    "office_name_kana": null
  },
  "0046": {
    "zip_code": "9980046",
    "prefecture": "山形県",
    "prefecture_kana": "ヤマガタケン",
    "prefecture_code": "6",
    "city": "酒田市",
    "city_kana": "サカタシ",
    "town": "一番町",
    "town_kana": "イチバンチョウ",
    "street": null,
    "office_name": null,
    "office_name_kana": null
  },
  "0051": {
    "zip_code": "9980051",
    "prefecture": "山形県",
    "prefecture_kana": "ヤマガタケン",
    "prefecture_code": "6",
    "city": "酒田市",
    "city_kana": "サカタシ",
    "town": "高見台",
    "town_kana": "タカミダイ",
    "street": null,
    "office_name": null,
    "office_name_kana": null
  },
  "0052": {
    "zip_code": "9980052",
    "prefecture": "山形県",
    "prefecture_kana": "ヤマガタケン",
    "prefecture_code": "6",
    "city": "酒田市",
    "city_kana": "サカタシ",
    "town": "緑ケ丘",
    "town_kana": "ミドリガオカ",
    "street": null,
    "office_name": null,
    "office_name_kana": null
  },
  "0053": {
    "zip_code": "9980053",
    "prefecture": "山形県",
    "prefecture_kana": "ヤマガタケン",
    "prefecture_code": "6",
    "city": "酒田市",
    "city_kana": "サカタシ",
    "town": "若宮町",
    "town_kana": "ワカミヤチョウ",
    "street": null,
    "office_name": null,
    "office_name_kana": null
  },
  "0054": {
    "zip_code": "9980054",
    "prefecture": "山形県",
    "prefecture_kana": "ヤマガタケン",
    "prefecture_code": "6",
    "city": "酒田市",
    "city_kana": "サカタシ",
    "town": "宮野浦",
    "town_kana": "ミヤノウラ",
    "street": null,
    "office_name": null,
    "office_name_kana": null
  },
  "0055": {
    "zip_code": "9980055",
    "prefecture": "山形県",
    "prefecture_kana": "ヤマガタケン",
    "prefecture_code": "6",
    "city": "酒田市",
    "city_kana": "サカタシ",
    "town": "飯森山",
    "town_kana": "イイモリヤマ",
    "street": null,
    "office_name": null,
    "office_name_kana": null
  },
  "0061": {
    "zip_code": "9980061",
    "prefecture": "山形県",
    "prefecture_kana": "ヤマガタケン",
    "prefecture_code": "6",
    "city": "酒田市",
    "city_kana": "サカタシ",
    "town": "光ケ丘",
    "town_kana": "ヒカリガオカ",
    "street": null,
    "office_name": null,
    "office_name_kana": null
  },
  "0062": {
    "zip_code": "9980062",
    "prefecture": "山形県",
    "prefecture_kana": "ヤマガタケン",
    "prefecture_code": "6",
    "city": "酒田市",
    "city_kana": "サカタシ",
    "town": "北新町",
    "town_kana": "キタシンマチ",
    "street": null,
    "office_name": null,
    "office_name_kana": null
  },
  "0063": {
    "zip_code": "9980063",
    "prefecture": "山形県",
    "prefecture_kana": "ヤマガタケン",
    "prefecture_code": "6",
    "city": "酒田市",
    "city_kana": "サカタシ",
    "town": "南新町",
    "town_kana": "ミナミシンマチ",
    "street": null,
    "office_name": null,
    "office_name_kana": null
  },
  "0064": {
    "zip_code": "9980064",
    "prefecture": "山形県",
    "prefecture_kana": "ヤマガタケン",
    "prefecture_code": "6",
    "city": "酒田市",
    "city_kana": "サカタシ",
    "town": "大浜",
    "town_kana": "オオハマ",
    "street": null,
    "office_name": null,
    "office_name_kana": null
  },
  "0071": {
    "zip_code": "9980071",
    "prefecture": "山形県",
    "prefecture_kana": "ヤマガタケン",
    "prefecture_code": "6",
    "city": "酒田市",
    "city_kana": "サカタシ",
    "town": "古湊町",
    "town_kana": "コミナトチョウ",
    "street": null,
    "office_name": null,
    "office_name_kana": null
  },
  "0072": {
    "zip_code": "9980072",
    "prefecture": "山形県",
    "prefecture_kana": "ヤマガタケン",
    "prefecture_code": "6",
    "city": "酒田市",
    "city_kana": "サカタシ",
    "town": "北浜町",
    "town_kana": "キタハマチョウ",
    "street": null,
    "office_name": null,
    "office_name_kana": null
  },
  "0073": {
    "zip_code": "9980073",
    "prefecture": "山形県",
    "prefecture_kana": "ヤマガタケン",
    "prefecture_code": "6",
    "city": "酒田市",
    "city_kana": "サカタシ",
    "town": "松美町",
    "town_kana": "マツミチョウ",
    "street": null,
    "office_name": null,
    "office_name_kana": null
  },
  "0074": {
    "zip_code": "9980074",
    "prefecture": "山形県",
    "prefecture_kana": "ヤマガタケン",
    "prefecture_code": "6",
    "city": "酒田市",
    "city_kana": "サカタシ",
    "town": "浜松町",
    "town_kana": "ハママツチョウ",
    "street": null,
    "office_name": null,
    "office_name_kana": null
  },
  "0075": {
    "zip_code": "9980075",
    "prefecture": "山形県",
    "prefecture_kana": "ヤマガタケン",
    "prefecture_code": "6",
    "city": "酒田市",
    "city_kana": "サカタシ",
    "town": "高砂",
    "town_kana": "タカサゴ",
    "street": null,
    "office_name": null,
    "office_name_kana": null
  },
  "0101": {
    "zip_code": "9980101",
    "prefecture": "山形県",
    "prefecture_kana": "ヤマガタケン",
    "prefecture_code": "6",
    "city": "酒田市",
    "city_kana": "サカタシ",
    "town": "坂野辺新田",
    "town_kana": "サカノベシンデン",
    "street": null,
    "office_name": null,
    "office_name_kana": null
  },
  "0102": {
    "zip_code": "9980102",
    "prefecture": "山形県",
    "prefecture_kana": "ヤマガタケン",
    "prefecture_code": "6",
    "city": "酒田市",
    "city_kana": "サカタシ",
    "town": "京田",
    "town_kana": "キョウデン",
    "street": null,
    "office_name": null,
    "office_name_kana": null
  },
  "0103": {
    "zip_code": "9980103",
    "prefecture": "山形県",
    "prefecture_kana": "ヤマガタケン",
    "prefecture_code": "6",
    "city": "酒田市",
    "city_kana": "サカタシ",
    "town": "錦町",
    "town_kana": "ニシキチョウ",
    "street": null,
    "office_name": null,
    "office_name_kana": null
  },
  "0104": {
    "zip_code": "9980104",
    "prefecture": "山形県",
    "prefecture_kana": "ヤマガタケン",
    "prefecture_code": "6",
    "city": "酒田市",
    "city_kana": "サカタシ",
    "town": "広栄町",
    "town_kana": "コウエイチョウ",
    "street": null,
    "office_name": null,
    "office_name_kana": null
  },
  "0105": {
    "zip_code": "9980105",
    "prefecture": "山形県",
    "prefecture_kana": "ヤマガタケン",
    "prefecture_code": "6",
    "city": "酒田市",
    "city_kana": "サカタシ",
    "town": "広野新田",
    "town_kana": "ヒロノシンデン",
    "street": null,
    "office_name": null,
    "office_name_kana": null
  },
  "0111": {
    "zip_code": "9980111",
    "prefecture": "山形県",
    "prefecture_kana": "ヤマガタケン",
    "prefecture_code": "6",
    "city": "酒田市",
    "city_kana": "サカタシ",
    "town": "黒森",
    "town_kana": "クロモリ",
    "street": null,
    "office_name": null,
    "office_name_kana": null
  },
  "0112": {
    "zip_code": "9980112",
    "prefecture": "山形県",
    "prefecture_kana": "ヤマガタケン",
    "prefecture_code": "6",
    "city": "酒田市",
    "city_kana": "サカタシ",
    "town": "浜中",
    "town_kana": "ハマナカ",
    "street": null,
    "office_name": null,
    "office_name_kana": null
  },
  "0113": {
    "zip_code": "9980113",
    "prefecture": "山形県",
    "prefecture_kana": "ヤマガタケン",
    "prefecture_code": "6",
    "city": "酒田市",
    "city_kana": "サカタシ",
    "town": "広岡新田",
    "town_kana": "ヒロオカシンデン",
    "street": null,
    "office_name": null,
    "office_name_kana": null
  },
  "0114": {
    "zip_code": "9980114",
    "prefecture": "山形県",
    "prefecture_kana": "ヤマガタケン",
    "prefecture_code": "6",
    "city": "酒田市",
    "city_kana": "サカタシ",
    "town": "十里塚",
    "town_kana": "ジュウリヅカ",
    "street": null,
    "office_name": null,
    "office_name_kana": null
  },
  "0125": {
    "zip_code": "9980125",
    "prefecture": "山形県",
    "prefecture_kana": "ヤマガタケン",
    "prefecture_code": "6",
    "city": "酒田市",
    "city_kana": "サカタシ",
    "town": "広野",
    "town_kana": "ヒロノ",
    "street": null,
    "office_name": null,
    "office_name_kana": null
  },
  "0192": {
    "zip_code": "9980192",
    "prefecture": "山形県",
    "prefecture_kana": "ヤマガタケン",
    "prefecture_code": "6",
    "city": "酒田市",
    "city_kana": "サカタシ",
    "town": "広栄町",
    "town_kana": "コウエイチョウ",
    "street": "３丁目１",
    "office_name": "東北日本ハム　株式会社",
    "office_name_kana": "トウホクニホンハム カブシキガイシヤ"
  },
  "0194": {
    "zip_code": "9980194",
    "prefecture": "山形県",
    "prefecture_kana": null,
    "prefecture_code": null,
    "city": "酒田市",
    "city_kana": null,
    "town": "大字十里塚",
    "town_kana": null,
    "street": "字村東山１６６−３",
    "office_name": "東北エプソン　株式会社",
    "office_name_kana": "トウホクエプソン カブシキガイシヤ"
  },
  "0281": {
    "zip_code": "9980281",
    "prefecture": "山形県",
    "prefecture_kana": "ヤマガタケン",
    "prefecture_code": "6",
    "city": "酒田市",
    "city_kana": "サカタシ",
    "town": "飛島",
    "town_kana": "トビシマ",
    "street": null,
    "office_name": null,
    "office_name_kana": null
  },
  "0801": {
    "zip_code": "9980801",
    "prefecture": "山形県",
    "prefecture_kana": "ヤマガタケン",
    "prefecture_code": "6",
    "city": "酒田市",
    "city_kana": "サカタシ",
    "town": "北沢",
    "town_kana": "キタザワ",
    "street": null,
    "office_name": null,
    "office_name_kana": null
  },
  "0802": {
    "zip_code": "9980802",
    "prefecture": "山形県",
    "prefecture_kana": "ヤマガタケン",
    "prefecture_code": "6",
    "city": "酒田市",
    "city_kana": "サカタシ",
    "town": "生石",
    "town_kana": "オイシ",
    "street": null,
    "office_name": null,
    "office_name_kana": null
  },
  "0803": {
    "zip_code": "9980803",
    "prefecture": "山形県",
    "prefecture_kana": "ヤマガタケン",
    "prefecture_code": "6",
    "city": "酒田市",
    "city_kana": "サカタシ",
    "town": "大槻新田",
    "town_kana": "オオツキシンデン",
    "street": null,
    "office_name": null,
    "office_name_kana": null
  },
  "0804": {
    "zip_code": "9980804",
    "prefecture": "山形県",
    "prefecture_kana": "ヤマガタケン",
    "prefecture_code": "6",
    "city": "酒田市",
    "city_kana": "サカタシ",
    "town": "横代",
    "town_kana": "ヨコダイ",
    "street": null,
    "office_name": null,
    "office_name_kana": null
  },
  "0805": {
    "zip_code": "9980805",
    "prefecture": "山形県",
    "prefecture_kana": "ヤマガタケン",
    "prefecture_code": "6",
    "city": "酒田市",
    "city_kana": "サカタシ",
    "town": "関",
    "town_kana": "セキ",
    "street": null,
    "office_name": null,
    "office_name_kana": null
  },
  "0806": {
    "zip_code": "9980806",
    "prefecture": "山形県",
    "prefecture_kana": "ヤマガタケン",
    "prefecture_code": "6",
    "city": "酒田市",
    "city_kana": "サカタシ",
    "town": "境興野",
    "town_kana": "サカイコウヤ",
    "street": null,
    "office_name": null,
    "office_name_kana": null
  },
  "0811": {
    "zip_code": "9980811",
    "prefecture": "山形県",
    "prefecture_kana": "ヤマガタケン",
    "prefecture_code": "6",
    "city": "酒田市",
    "city_kana": "サカタシ",
    "town": "手蔵田",
    "town_kana": "テグラダ",
    "street": null,
    "office_name": null,
    "office_name_kana": null
  },
  "0812": {
    "zip_code": "9980812",
    "prefecture": "山形県",
    "prefecture_kana": "ヤマガタケン",
    "prefecture_code": "6",
    "city": "酒田市",
    "city_kana": "サカタシ",
    "town": "本川",
    "town_kana": "ホンガワ",
    "street": null,
    "office_name": null,
    "office_name_kana": null
  },
  "0813": {
    "zip_code": "9980813",
    "prefecture": "山形県",
    "prefecture_kana": "ヤマガタケン",
    "prefecture_code": "6",
    "city": "酒田市",
    "city_kana": "サカタシ",
    "town": "茨野新田",
    "town_kana": "バラノシンデン",
    "street": null,
    "office_name": null,
    "office_name_kana": null
  },
  "0814": {
    "zip_code": "9980814",
    "prefecture": "山形県",
    "prefecture_kana": "ヤマガタケン",
    "prefecture_code": "6",
    "city": "酒田市",
    "city_kana": "サカタシ",
    "town": "小牧新田",
    "town_kana": "コマギシンデン",
    "street": null,
    "office_name": null,
    "office_name_kana": null
  },
  "0815": {
    "zip_code": "9980815",
    "prefecture": "山形県",
    "prefecture_kana": "ヤマガタケン",
    "prefecture_code": "6",
    "city": "酒田市",
    "city_kana": "サカタシ",
    "town": "小牧",
    "town_kana": "コマギ",
    "street": null,
    "office_name": null,
    "office_name_kana": null
  },
  "0816": {
    "zip_code": "9980816",
    "prefecture": "山形県",
    "prefecture_kana": "ヤマガタケン",
    "prefecture_code": "6",
    "city": "酒田市",
    "city_kana": "サカタシ",
    "town": "大野新田",
    "town_kana": "オオノシンデン",
    "street": null,
    "office_name": null,
    "office_name_kana": null
  },
  "0817": {
    "zip_code": "9980817",
    "prefecture": "山形県",
    "prefecture_kana": "ヤマガタケン",
    "prefecture_code": "6",
    "city": "酒田市",
    "city_kana": "サカタシ",
    "town": "熊手島",
    "town_kana": "クマテジマ",
    "street": null,
    "office_name": null,
    "office_name_kana": null
  },
  "0818": {
    "zip_code": "9980818",
    "prefecture": "山形県",
    "prefecture_kana": "ヤマガタケン",
    "prefecture_code": "6",
    "city": "酒田市",
    "city_kana": "サカタシ",
    "town": "勝保関",
    "town_kana": "ガツボゼキ",
    "street": null,
    "office_name": null,
    "office_name_kana": null
  },
  "0819": {
    "zip_code": "9980819",
    "prefecture": "山形県",
    "prefecture_kana": "ヤマガタケン",
    "prefecture_code": "6",
    "city": "酒田市",
    "city_kana": "サカタシ",
    "town": "熊野田",
    "town_kana": "クマノダ",
    "street": null,
    "office_name": null,
    "office_name_kana": null
  },
  "0821": {
    "zip_code": "9980821",
    "prefecture": "山形県",
    "prefecture_kana": "ヤマガタケン",
    "prefecture_code": "6",
    "city": "酒田市",
    "city_kana": "サカタシ",
    "town": "遊摺部",
    "town_kana": "ユスルベ",
    "street": null,
    "office_name": null,
    "office_name_kana": null
  },
  "0822": {
    "zip_code": "9980822",
    "prefecture": "山形県",
    "prefecture_kana": "ヤマガタケン",
    "prefecture_code": "6",
    "city": "酒田市",
    "city_kana": "サカタシ",
    "town": "大宮",
    "town_kana": "オオミヤ",
    "street": null,
    "office_name": null,
    "office_name_kana": null
  },
  "0823": {
    "zip_code": "9980823",
    "prefecture": "山形県",
    "prefecture_kana": "ヤマガタケン",
    "prefecture_code": "6",
    "city": "酒田市",
    "city_kana": "サカタシ",
    "town": "卸町",
    "town_kana": "オロシマチ",
    "street": null,
    "office_name": null,
    "office_name_kana": null
  },
  "0824": {
    "zip_code": "9980824",
    "prefecture": "山形県",
    "prefecture_kana": "ヤマガタケン",
    "prefecture_code": "6",
    "city": "酒田市",
    "city_kana": "サカタシ",
    "town": "大宮町",
    "town_kana": "オオミヤチョウ",
    "street": null,
    "office_name": null,
    "office_name_kana": null
  },
  "0826": {
    "zip_code": "9980826",
    "prefecture": "山形県",
    "prefecture_kana": "ヤマガタケン",
    "prefecture_code": "6",
    "city": "酒田市",
    "city_kana": "サカタシ",
    "town": "初瀬",
    "town_kana": "ハツセ",
    "street": null,
    "office_name": null,
    "office_name_kana": null
  },
  "0827": {
    "zip_code": "9980827",
    "prefecture": "山形県",
    "prefecture_kana": "ヤマガタケン",
    "prefecture_code": "6",
    "city": "酒田市",
    "city_kana": "サカタシ",
    "town": "草刈谷地",
    "town_kana": "クサカリヤチ",
    "street": null,
    "office_name": null,
    "office_name_kana": null
  },
  "0828": {
    "zip_code": "9980828",
    "prefecture": "山形県",
    "prefecture_kana": "ヤマガタケン",
    "prefecture_code": "6",
    "city": "酒田市",
    "city_kana": "サカタシ",
    "town": "あきほ町",
    "town_kana": "アキホチョウ",
    "street": null,
    "office_name": null,
    "office_name_kana": null
  },
  "0829": {
    "zip_code": "9980829",
    "prefecture": "山形県",
    "prefecture_kana": "ヤマガタケン",
    "prefecture_code": "6",
    "city": "酒田市",
    "city_kana": "サカタシ",
    "town": "仁助谷地",
    "town_kana": "ニスケヤチ",
    "street": null,
    "office_name": null,
    "office_name_kana": null
  },
  "0831": {
    "zip_code": "9980831",
    "prefecture": "山形県",
    "prefecture_kana": "ヤマガタケン",
    "prefecture_code": "6",
    "city": "酒田市",
    "city_kana": "サカタシ",
    "town": "東両羽町",
    "town_kana": "ヒガシリョウウチョウ",
    "street": null,
    "office_name": null,
    "office_name_kana": null
  },
  "0832": {
    "zip_code": "9980832",
    "prefecture": "山形県",
    "prefecture_kana": "ヤマガタケン",
    "prefecture_code": "6",
    "city": "酒田市",
    "city_kana": "サカタシ",
    "town": "両羽町",
    "town_kana": "リョウウチョウ",
    "street": null,
    "office_name": null,
    "office_name_kana": null
  },
  "0833": {
    "zip_code": "9980833",
    "prefecture": "山形県",
    "prefecture_kana": "ヤマガタケン",
    "prefecture_code": "6",
    "city": "酒田市",
    "city_kana": "サカタシ",
    "town": "若原町",
    "town_kana": "ワカハラチョウ",
    "street": null,
    "office_name": null,
    "office_name_kana": null
  },
  "0834": {
    "zip_code": "9980834",
    "prefecture": "山形県",
    "prefecture_kana": "ヤマガタケン",
    "prefecture_code": "6",
    "city": "酒田市",
    "city_kana": "サカタシ",
    "town": "若竹町",
    "town_kana": "ワカタケチョウ",
    "street": null,
    "office_name": null,
    "office_name_kana": null
  },
  "0835": {
    "zip_code": "9980835",
    "prefecture": "山形県",
    "prefecture_kana": "ヤマガタケン",
    "prefecture_code": "6",
    "city": "酒田市",
    "city_kana": "サカタシ",
    "town": "堤町",
    "town_kana": "ツツミチョウ",
    "street": null,
    "office_name": null,
    "office_name_kana": null
  },
  "0836": {
    "zip_code": "9980836",
    "prefecture": "山形県",
    "prefecture_kana": "ヤマガタケン",
    "prefecture_code": "6",
    "city": "酒田市",
    "city_kana": "サカタシ",
    "town": "入船町",
    "town_kana": "イリフネチョウ",
    "street": null,
    "office_name": null,
    "office_name_kana": null
  },
  "0837": {
    "zip_code": "9980837",
    "prefecture": "山形県",
    "prefecture_kana": "ヤマガタケン",
    "prefecture_code": "6",
    "city": "酒田市",
    "city_kana": "サカタシ",
    "town": "下瀬",
    "town_kana": "シタセ",
    "street": null,
    "office_name": null,
    "office_name_kana": null
  },
  "0838": {
    "zip_code": "9980838",
    "prefecture": "山形県",
    "prefecture_kana": "ヤマガタケン",
    "prefecture_code": "6",
    "city": "酒田市",
    "city_kana": "サカタシ",
    "town": "山居町",
    "town_kana": "サンキョマチ",
    "street": null,
    "office_name": null,
    "office_name_kana": null
  },
  "0841": {
    "zip_code": "9980841",
    "prefecture": "山形県",
    "prefecture_kana": "ヤマガタケン",
    "prefecture_code": "6",
    "city": "酒田市",
    "city_kana": "サカタシ",
    "town": "松原南",
    "town_kana": "マツバラミナミ",
    "street": null,
    "office_name": null,
    "office_name_kana": null
  },
  "0842": {
    "zip_code": "9980842",
    "prefecture": "山形県",
    "prefecture_kana": "ヤマガタケン",
    "prefecture_code": "6",
    "city": "酒田市",
    "city_kana": "サカタシ",
    "town": "亀ケ崎",
    "town_kana": "カメガサキ",
    "street": null,
    "office_name": null,
    "office_name_kana": null
  },
  "0843": {
    "zip_code": "9980843",
    "prefecture": "山形県",
    "prefecture_kana": "ヤマガタケン",
    "prefecture_code": "6",
    "city": "酒田市",
    "city_kana": "サカタシ",
    "town": "千石町",
    "town_kana": "センゴクチョウ",
    "street": null,
    "office_name": null,
    "office_name_kana": null
  },
  "0851": {
    "zip_code": "9980851",
    "prefecture": "山形県",
    "prefecture_kana": "ヤマガタケン",
    "prefecture_code": "6",
    "city": "酒田市",
    "city_kana": "サカタシ",
    "town": "東大町",
    "town_kana": "ヒガシオオマチ",
    "street": null,
    "office_name": null,
    "office_name_kana": null
  },
  "0852": {
    "zip_code": "9980852",
    "prefecture": "山形県",
    "prefecture_kana": "ヤマガタケン",
    "prefecture_code": "6",
    "city": "酒田市",
    "city_kana": "サカタシ",
    "town": "こがね町",
    "town_kana": "コガネチョウ",
    "street": null,
    "office_name": null,
    "office_name_kana": null
  },
  "0853": {
    "zip_code": "9980853",
    "prefecture": "山形県",
    "prefecture_kana": "ヤマガタケン",
    "prefecture_code": "6",
    "city": "酒田市",
    "city_kana": "サカタシ",
    "town": "みずほ",
    "town_kana": "ミズホ",
    "street": null,
    "office_name": null,
    "office_name_kana": null
  },
  "0854": {
    "zip_code": "9980854",
    "prefecture": "山形県",
    "prefecture_kana": "ヤマガタケン",
    "prefecture_code": "6",
    "city": "酒田市",
    "city_kana": "サカタシ",
    "town": "末広町",
    "town_kana": "スエヒロチョウ",
    "street": null,
    "office_name": null,
    "office_name_kana": null
  },
  "0855": {
    "zip_code": "9980855",
    "prefecture": "山形県",
    "prefecture_kana": "ヤマガタケン",
    "prefecture_code": "6",
    "city": "酒田市",
    "city_kana": "サカタシ",
    "town": "東中の口町",
    "town_kana": "ヒガシナカノクチマチ",
    "street": null,
    "office_name": null,
    "office_name_kana": null
  },
  "0856": {
    "zip_code": "9980856",
    "prefecture": "山形県",
    "prefecture_kana": "ヤマガタケン",
    "prefecture_code": "6",
    "city": "酒田市",
    "city_kana": "サカタシ",
    "town": "東栄町",
    "town_kana": "トウエイチョウ",
    "street": null,
    "office_name": null,
    "office_name_kana": null
  },
  "0857": {
    "zip_code": "9980857",
    "prefecture": "山形県",
    "prefecture_kana": "ヤマガタケン",
    "prefecture_code": "6",
    "city": "酒田市",
    "city_kana": "サカタシ",
    "town": "若浜町",
    "town_kana": "ワカハマチョウ",
    "street": null,
    "office_name": null,
    "office_name_kana": null
  },
  "0858": {
    "zip_code": "9980858",
    "prefecture": "山形県",
    "prefecture_kana": "ヤマガタケン",
    "prefecture_code": "6",
    "city": "酒田市",
    "city_kana": "サカタシ",
    "town": "緑町",
    "town_kana": "ミドリチョウ",
    "street": null,
    "office_name": null,
    "office_name_kana": null
  },
  "0859": {
    "zip_code": "9980859",
    "prefecture": "山形県",
    "prefecture_kana": "ヤマガタケン",
    "prefecture_code": "6",
    "city": "酒田市",
    "city_kana": "サカタシ",
    "town": "大町",
    "town_kana": "オオマチ",
    "street": null,
    "office_name": null,
    "office_name_kana": null
  },
  "0861": {
    "zip_code": "9980861",
    "prefecture": "山形県",
    "prefecture_kana": "ヤマガタケン",
    "prefecture_code": "6",
    "city": "酒田市",
    "city_kana": "サカタシ",
    "town": "富士見町",
    "town_kana": "フジミチョウ",
    "street": null,
    "office_name": null,
    "office_name_kana": null
  },
  "0862": {
    "zip_code": "9980862",
    "prefecture": "山形県",
    "prefecture_kana": "ヤマガタケン",
    "prefecture_code": "6",
    "city": "酒田市",
    "city_kana": "サカタシ",
    "town": "曙町",
    "town_kana": "アケボノチョウ",
    "street": null,
    "office_name": null,
    "office_name_kana": null
  },
  "0863": {
    "zip_code": "9980863",
    "prefecture": "山形県",
    "prefecture_kana": "ヤマガタケン",
    "prefecture_code": "6",
    "city": "酒田市",
    "city_kana": "サカタシ",
    "town": "日の出町",
    "town_kana": "ヒノデチョウ",
    "street": null,
    "office_name": null,
    "office_name_kana": null
  },
  "0864": {
    "zip_code": "9980864",
    "prefecture": "山形県",
    "prefecture_kana": "ヤマガタケン",
    "prefecture_code": "6",
    "city": "酒田市",
    "city_kana": "サカタシ",
    "town": "新橋",
    "town_kana": "シンバシ",
    "street": null,
    "office_name": null,
    "office_name_kana": null
  },
  "0865": {
    "zip_code": "9980865",
    "prefecture": "山形県",
    "prefecture_kana": "ヤマガタケン",
    "prefecture_code": "6",
    "city": "酒田市",
    "city_kana": "サカタシ",
    "town": "北新橋",
    "town_kana": "キタシンバシ",
    "street": null,
    "office_name": null,
    "office_name_kana": null
  },
  "0871": {
    "zip_code": "9980871",
    "prefecture": "山形県",
    "prefecture_kana": "ヤマガタケン",
    "prefecture_code": "6",
    "city": "酒田市",
    "city_kana": "サカタシ",
    "town": "荻島",
    "town_kana": "オギジマ",
    "street": null,
    "office_name": null,
    "office_name_kana": null
  },
  "0872": {
    "zip_code": "9980872",
    "prefecture": "山形県",
    "prefecture_kana": "ヤマガタケン",
    "prefecture_code": "6",
    "city": "酒田市",
    "city_kana": "サカタシ",
    "town": "中野新田",
    "town_kana": "ナカノシンデン",
    "street": null,
    "office_name": null,
    "office_name_kana": null
  },
  "0873": {
    "zip_code": "9980873",
    "prefecture": "山形県",
    "prefecture_kana": "ヤマガタケン",
    "prefecture_code": "6",
    "city": "酒田市",
    "city_kana": "サカタシ",
    "town": "土崎",
    "town_kana": "ツチザキ",
    "street": null,
    "office_name": null,
    "office_name_kana": null
  },
  "0874": {
    "zip_code": "9980874",
    "prefecture": "山形県",
    "prefecture_kana": "ヤマガタケン",
    "prefecture_code": "6",
    "city": "酒田市",
    "city_kana": "サカタシ",
    "town": "四ツ興野",
    "town_kana": "ヨツゴヤ",
    "street": null,
    "office_name": null,
    "office_name_kana": null
  },
  "0875": {
    "zip_code": "9980875",
    "prefecture": "山形県",
    "prefecture_kana": "ヤマガタケン",
    "prefecture_code": "6",
    "city": "酒田市",
    "city_kana": "サカタシ",
    "town": "東町",
    "town_kana": "アズマチョウ",
    "street": null,
    "office_name": null,
    "office_name_kana": null
  },
  "0876": {
    "zip_code": "9980876",
    "prefecture": "山形県",
    "prefecture_kana": "ヤマガタケン",
    "prefecture_code": "6",
    "city": "酒田市",
    "city_kana": "サカタシ",
    "town": "古荒新田",
    "town_kana": "コアラシンデン",
    "street": null,
    "office_name": null,
    "office_name_kana": null
  },
  "0877": {
    "zip_code": "9980877",
    "prefecture": "山形県",
    "prefecture_kana": "ヤマガタケン",
    "prefecture_code": "6",
    "city": "酒田市",
    "city_kana": "サカタシ",
    "town": "大多新田",
    "town_kana": "オオタシンデン",
    "street": null,
    "office_name": null,
    "office_name_kana": null
  },
  "0878": {
    "zip_code": "9980878",
    "prefecture": "山形県",
    "prefecture_kana": "ヤマガタケン",
    "prefecture_code": "6",
    "city": "酒田市",
    "city_kana": "サカタシ",
    "town": "こあら",
    "town_kana": "コアラ",
    "street": null,
    "office_name": null,
    "office_name_kana": null
  },
  "8501": {
    "zip_code": "9988501",
    "prefecture": "山形県",
    "prefecture_kana": "ヤマガタケン",
    "prefecture_code": "6",
    "city": "酒田市",
    "city_kana": "サカタシ",
    "town": "あきほ町",
    "town_kana": "アキホチョウ",
    "street": "３０",
    "office_name": "独立行政法人　山形県・酒田市病院機構　日本海総合病院",
    "office_name_kana": "ドクリツギヨウセイホウジン ヤマガタケン・サカタシビヨウインキコウ ニホンカイソウゴウビヨウイン"
  },
  "8502": {
    "zip_code": "9988502",
    "prefecture": "山形県",
    "prefecture_kana": "ヤマガタケン",
    "prefecture_code": "6",
    "city": "酒田市",
    "city_kana": "サカタシ",
    "town": "中町",
    "town_kana": "ナカマチ",
    "street": "２丁目５−１０",
    "office_name": "酒田商工会議所",
    "office_name_kana": "サカタシヨウコウカイギシヨ"
  },
  "8510": {
    "zip_code": "9988510",
    "prefecture": "山形県",
    "prefecture_kana": "ヤマガタケン",
    "prefecture_code": "6",
    "city": "酒田市",
    "city_kana": "サカタシ",
    "town": "曙町",
    "town_kana": "アケボノチョウ",
    "street": "１丁目１",
    "office_name": "庄内みどり農業協同組合",
    "office_name_kana": "シヨウナイミドリノウギヨウキヨウドウクミアイ"
  },
  "8540": {
    "zip_code": "9988540",
    "prefecture": "山形県",
    "prefecture_kana": "ヤマガタケン",
    "prefecture_code": "6",
    "city": "酒田市",
    "city_kana": "サカタシ",
    "town": "本町",
    "town_kana": "ホンチョウ",
    "street": "２丁目２−４５",
    "office_name": "酒田市役所",
    "office_name_kana": "サカタシヤクシヨ"
  },
  "8550": {
    "zip_code": "9988550",
    "prefecture": "山形県",
    "prefecture_kana": null,
    "prefecture_code": null,
    "city": "酒田市",
    "city_kana": null,
    "town": "大字宮海",
    "town_kana": null,
    "street": "字中砂畑２７−１８",
    "office_name": "株式会社　本間ゴルフ　酒田工場",
    "office_name_kana": "カブシキガイシヤ ホンマゴルフ サカタコウジヨウ"
  },
  "8555": {
    "zip_code": "9988555",
    "prefecture": "山形県",
    "prefecture_kana": "ヤマガタケン",
    "prefecture_code": "6",
    "city": "酒田市",
    "city_kana": "サカタシ",
    "town": "上安町",
    "town_kana": "カミヤスチョウ",
    "street": "１丁目６−６",
    "office_name": "酒田公共職業安定所",
    "office_name_kana": "サカタコウキヨウシヨクギヨウアンテイシヨ"
  },
  "8580": {
    "zip_code": "9988580",
    "prefecture": "山形県",
    "prefecture_kana": "ヤマガタケン",
    "prefecture_code": "6",
    "city": "酒田市",
    "city_kana": "サカタシ",
    "town": "飯森山",
    "town_kana": "イイモリヤマ",
    "street": "３丁目５番１号",
    "office_name": "東北公益文科大学",
    "office_name_kana": "トウホクコウエキブンカダイガク"
  },
  "8585": {
    "zip_code": "9988585",
    "prefecture": "山形県",
    "prefecture_kana": "ヤマガタケン",
    "prefecture_code": "6",
    "city": "酒田市",
    "city_kana": "サカタシ",
    "town": "千石町",
    "town_kana": "センゴクチョウ",
    "street": "２丁目３−２０",
    "office_name": "日本海総合病院　酒田医療センター",
    "office_name_kana": "ニホンカイソウゴウビヨウイン サカタイリヨウセンタ-"
  },
  "8588": {
    "zip_code": "9988588",
    "prefecture": "山形県",
    "prefecture_kana": "ヤマガタケン",
    "prefecture_code": "6",
    "city": "酒田市",
    "city_kana": "サカタシ",
    "town": "飯森山",
    "town_kana": "イイモリヤマ",
    "street": "３丁目１７番２６号",
    "office_name": "かんぽの宿　酒田",
    "office_name_kana": "カンポノヤド サカタ"
  },
  "8611": {
    "zip_code": "9988611",
    "prefecture": "山形県",
    "prefecture_kana": "ヤマガタケン",
    "prefecture_code": "6",
    "city": "酒田市",
    "city_kana": "サカタシ",
    "town": "上本町",
    "town_kana": "カミホンチョウ",
    "street": "６−７（酒田郵便局私書箱第４号）",
    "office_name": "前田製管　株式会社",
    "office_name_kana": "マエダセイカン カブシキガイシヤ"
  },
  "8633": {
    "zip_code": "9988633",
    "prefecture": "山形県",
    "prefecture_kana": "ヤマガタケン",
    "prefecture_code": "6",
    "city": "酒田市",
    "city_kana": "サカタシ",
    "town": "光ケ丘",
    "town_kana": "ヒカリガオカ",
    "street": "２丁目２−３６",
    "office_name": "酒田税務署",
    "office_name_kana": "サカタゼイムシヨ"
  }
}